<?xml version="1.0" encoding="UTF-8"?>
<osm version="0.6" generator="JOSM" upload="false">
  <node id="-100" visible="true" lat="44.7969535" lon="-72.78795054">
    <tag k="addr:housenumber" v="1291" />
    <tag k="addr:street" v="King Road" />
    <tag k="addr:state" v="VT" />
    <tag k="ref:vcgi:esiteid" v="212" />
  </node>
  <node id="-101" visible="true" lat="44.83697934" lon="-72.68636521">
    <tag k="addr:housenumber" v="2390" />
    <tag k="addr:street" v="Enosburg Mountain Road" />
    <tag k="addr:state" v="VT" />
    <tag k="ref:vcgi:esiteid" v="5212" />
  </node>
  <node id="-102" visible="true" lat="44.83651285" lon="-72.68399058">
    <tag k="addr:housenumber" v="2522" />
    <tag k="addr:street" v="Enosburg Mountain Road" />
    <tag k="addr:state" v="VT" />
    <tag k="ref:vcgi:esiteid" v="5213" />
  </node>
  <node id="-103" visible="true" lat="44.83727282" lon="-72.70480919">
    <tag k="addr:housenumber" v="38" />
    <tag k="addr:street" v="Coits Gore Road" />
    <tag k="addr:state" v="VT" />
    <tag k="ref:vcgi:esiteid" v="5215" />
  </node>
  <node id="-104" visible="true" lat="44.83662796" lon="-72.76314544">
    <tag k="addr:housenumber" v="2849" />
    <tag k="addr:street" v="Witchcat Road" />
    <tag k="addr:state" v="VT" />
    <tag k="ref:vcgi:esiteid" v="5216" />
  </node>
  <node id="-105" visible="true" lat="44.8363583" lon="-72.83869053">
    <tag k="addr:housenumber" v="5651" />
    <tag k="addr:street" v="Chester A Arthur Road" />
    <tag k="addr:state" v="VT" />
    <tag k="ref:vcgi:esiteid" v="5217" />
  </node>
  <node id="-106" visible="true" lat="44.8364958" lon="-72.72867199">
    <tag k="addr:housenumber" v="6629" />
    <tag k="addr:street" v="East Bakersfield Road" />
    <tag k="addr:state" v="VT" />
    <tag k="ref:vcgi:esiteid" v="5218" />
  </node>
  <node id="-107" visible="true" lat="44.83631133" lon="-72.75888237">
    <tag k="addr:housenumber" v="2560" />
    <tag k="addr:street" v="Witchcat Road" />
    <tag k="addr:state" v="VT" />
    <tag k="ref:vcgi:esiteid" v="5219" />
  </node>
  <node id="-108" visible="true" lat="44.83604323" lon="-72.83658243">
    <tag k="addr:housenumber" v="5754" />
    <tag k="addr:street" v="Chester A Arthur Road" />
    <tag k="addr:state" v="VT" />
    <tag k="ref:vcgi:esiteid" v="5220" />
  </node>
  <node id="-109" visible="true" lat="44.83626886" lon="-72.80381193">
    <tag k="addr:housenumber" v="113" />
    <tag k="addr:street" v="Ovitt Road" />
    <tag k="addr:state" v="VT" />
    <tag k="ref:vcgi:esiteid" v="5221" />
  </node>
  <node id="-110" visible="true" lat="44.83610153" lon="-72.76649475">
    <tag k="addr:housenumber" v="3025" />
    <tag k="addr:street" v="Witchcat Road" />
    <tag k="addr:state" v="VT" />
    <tag k="ref:vcgi:esiteid" v="5222" />
  </node>
  <node id="-111" visible="true" lat="44.83617501" lon="-72.7653906">
    <tag k="addr:housenumber" v="2985" />
    <tag k="addr:street" v="Witchcat Road" />
    <tag k="addr:state" v="VT" />
    <tag k="ref:vcgi:esiteid" v="5223" />
  </node>
  <node id="-112" visible="true" lat="44.83565079" lon="-72.7574204">
    <tag k="addr:housenumber" v="2470" />
    <tag k="addr:street" v="Witchcat Road" />
    <tag k="addr:state" v="VT" />
    <tag k="ref:vcgi:esiteid" v="5224" />
  </node>
  <node id="-113" visible="true" lat="44.83569647" lon="-72.70316273">
    <tag k="addr:housenumber" v="200" />
    <tag k="addr:street" v="Coits Gore Road" />
    <tag k="addr:state" v="VT" />
    <tag k="ref:vcgi:esiteid" v="5225" />
  </node>
  <node id="-114" visible="true" lat="44.83507841" lon="-72.71525019">
    <tag k="addr:housenumber" v="722" />
    <tag k="addr:street" v="Enosburg Mountain Road" />
    <tag k="addr:state" v="VT" />
    <tag k="ref:vcgi:esiteid" v="5226" />
  </node>
  <node id="-115" visible="true" lat="44.83500737" lon="-72.83395102">
    <tag k="addr:housenumber" v="1794" />
    <tag k="addr:street" v="Skinner Hill Road" />
    <tag k="addr:state" v="VT" />
    <tag k="ref:vcgi:esiteid" v="5227" />
  </node>
  <node id="-116" visible="true" lat="44.83510589" lon="-72.70165252">
    <tag k="addr:housenumber" v="287" />
    <tag k="addr:street" v="Coits Gore Road" />
    <tag k="addr:state" v="VT" />
    <tag k="ref:vcgi:esiteid" v="5228" />
  </node>
  <node id="-117" visible="true" lat="44.8348236" lon="-72.80887603">
    <tag k="addr:housenumber" v="2296" />
    <tag k="addr:street" v="County Road" />
    <tag k="addr:state" v="VT" />
    <tag k="ref:vcgi:esiteid" v="5229" />
  </node>
  <node id="-118" visible="true" lat="44.83468627" lon="-72.80310821">
    <tag k="addr:housenumber" v="216" />
    <tag k="addr:street" v="Ovitt Road" />
    <tag k="addr:state" v="VT" />
    <tag k="ref:vcgi:esiteid" v="5230" />
  </node>
  <node id="-119" visible="true" lat="44.83463668" lon="-72.80268096">
    <tag k="addr:housenumber" v="229" />
    <tag k="addr:street" v="Ovitt Road" />
    <tag k="addr:state" v="VT" />
    <tag k="ref:vcgi:esiteid" v="5231" />
  </node>
  <node id="-120" visible="true" lat="44.83441924" lon="-72.75899505">
    <tag k="addr:housenumber" v="2555" />
    <tag k="addr:street" v="Witchcat Road" />
    <tag k="addr:state" v="VT" />
    <tag k="ref:vcgi:esiteid" v="5232" />
  </node>
  <node id="-121" visible="true" lat="44.83423376" lon="-72.79833812">
    <tag k="addr:housenumber" v="221" />
    <tag k="addr:street" v="Hennessey Road" />
    <tag k="addr:state" v="VT" />
    <tag k="ref:vcgi:esiteid" v="5233" />
  </node>
  <node id="-122" visible="true" lat="44.83400951" lon="-72.79750414">
    <tag k="addr:housenumber" v="283" />
    <tag k="addr:street" v="Hennessey Road" />
    <tag k="addr:state" v="VT" />
    <tag k="ref:vcgi:esiteid" v="5234" />
  </node>
  <node id="-123" visible="true" lat="44.83397316" lon="-72.75395849">
    <tag k="addr:housenumber" v="1653" />
    <tag k="addr:street" v="Joyal Road" />
    <tag k="addr:state" v="VT" />
    <tag k="ref:vcgi:esiteid" v="5235" />
  </node>
  <node id="-124" visible="true" lat="44.83318683" lon="-72.72825468">
    <tag k="addr:housenumber" v="6433" />
    <tag k="addr:street" v="East Bakersfield Road" />
    <tag k="addr:state" v="VT" />
    <tag k="ref:vcgi:esiteid" v="5236" />
  </node>
  <node id="-125" visible="true" lat="44.83346176" lon="-72.79813385">
    <tag k="addr:housenumber" v="264" />
    <tag k="addr:street" v="Hennessey Road" />
    <tag k="addr:state" v="VT" />
    <tag k="ref:vcgi:esiteid" v="5237" />
  </node>
  <node id="-126" visible="true" lat="44.8332389" lon="-72.70065623">
    <tag k="addr:housenumber" v="380" />
    <tag k="addr:street" v="Coits Gore Road" />
    <tag k="addr:state" v="VT" />
    <tag k="ref:vcgi:esiteid" v="5238" />
  </node>
  <node id="-127" visible="true" lat="44.83393416" lon="-72.72806135">
    <tag k="addr:housenumber" v="6435" />
    <tag k="addr:street" v="East Bakersfield Road" />
    <tag k="addr:state" v="VT" />
    <tag k="ref:vcgi:esiteid" v="5239" />
  </node>
  <node id="-128" visible="true" lat="44.83317338" lon="-72.69806945">
    <tag k="addr:housenumber" v="383" />
    <tag k="addr:street" v="Coits Gore Road" />
    <tag k="addr:state" v="VT" />
    <tag k="ref:vcgi:esiteid" v="5240" />
  </node>
  <node id="-129" visible="true" lat="44.83301904" lon="-72.75412032">
    <tag k="addr:housenumber" v="2228" />
    <tag k="addr:street" v="Witchcat Road" />
    <tag k="addr:state" v="VT" />
    <tag k="ref:vcgi:esiteid" v="5241" />
  </node>
  <node id="-130" visible="true" lat="44.83275222" lon="-72.82401275">
    <tag k="addr:housenumber" v="637" />
    <tag k="addr:street" v="Jones Road" />
    <tag k="addr:state" v="VT" />
    <tag k="ref:vcgi:esiteid" v="5242" />
  </node>
  <node id="-131" visible="true" lat="44.8329249" lon="-72.70242887">
    <tag k="addr:housenumber" v="342" />
    <tag k="addr:street" v="Coits Gore Road" />
    <tag k="addr:state" v="VT" />
    <tag k="ref:vcgi:esiteid" v="5243" />
  </node>
  <node id="-132" visible="true" lat="44.83275428" lon="-72.75087845">
    <tag k="addr:housenumber" v="1444" />
    <tag k="addr:street" v="Joyal Road" />
    <tag k="addr:state" v="VT" />
    <tag k="ref:vcgi:esiteid" v="5244" />
  </node>
  <node id="-133" visible="true" lat="44.83269075" lon="-72.79507303">
    <tag k="addr:housenumber" v="427" />
    <tag k="addr:street" v="Hennessey Road" />
    <tag k="addr:state" v="VT" />
    <tag k="ref:vcgi:esiteid" v="5245" />
  </node>
  <node id="-134" visible="true" lat="44.83240386" lon="-72.81131981">
    <tag k="addr:housenumber" v="2056" />
    <tag k="addr:street" v="County Road" />
    <tag k="addr:state" v="VT" />
    <tag k="ref:vcgi:esiteid" v="5246" />
  </node>
  <node id="-135" visible="true" lat="44.83224363" lon="-72.75536784">
    <tag k="addr:housenumber" v="2159" />
    <tag k="addr:street" v="Witchcat Road" />
    <tag k="addr:state" v="VT" />
    <tag k="ref:vcgi:esiteid" v="5247" />
  </node>
  <node id="-136" visible="true" lat="44.83214912" lon="-72.72706789">
    <tag k="addr:housenumber" v="6319" />
    <tag k="addr:street" v="East Bakersfield Road" />
    <tag k="addr:state" v="VT" />
    <tag k="ref:vcgi:esiteid" v="5248" />
  </node>
  <node id="-137" visible="true" lat="44.8319069" lon="-72.79241773">
    <tag k="addr:housenumber" v="581" />
    <tag k="addr:street" v="Hennessey Road" />
    <tag k="addr:state" v="VT" />
    <tag k="ref:vcgi:esiteid" v="5249" />
  </node>
  <node id="-138" visible="true" lat="44.83181572" lon="-72.75190838">
    <tag k="addr:housenumber" v="1447" />
    <tag k="addr:street" v="Joyal Road" />
    <tag k="addr:state" v="VT" />
    <tag k="ref:vcgi:esiteid" v="5250" />
  </node>
  <node id="-139" visible="true" lat="44.83184208" lon="-72.79114587">
    <tag k="addr:housenumber" v="641" />
    <tag k="addr:street" v="Hennessey Road" />
    <tag k="addr:state" v="VT" />
    <tag k="ref:vcgi:esiteid" v="5251" />
  </node>
  <node id="-140" visible="true" lat="44.83151602" lon="-72.80285505">
    <tag k="addr:housenumber" v="3858" />
    <tag k="addr:street" v="Main Street North" />
    <tag k="addr:state" v="VT" />
    <tag k="ref:vcgi:esiteid" v="5252" />
  </node>
  <node id="-141" visible="true" lat="44.83147217" lon="-72.70043311">
    <tag k="addr:housenumber" v="344" />
    <tag k="addr:street" v="Coits Gore Road" />
    <tag k="addr:state" v="VT" />
    <tag k="ref:vcgi:esiteid" v="5253" />
  </node>
  <node id="-142" visible="true" lat="44.83061218" lon="-72.79006958">
    <tag k="addr:housenumber" v="657" />
    <tag k="addr:street" v="Hennessey Road" />
    <tag k="addr:state" v="VT" />
    <tag k="ref:vcgi:esiteid" v="5254" />
  </node>
  <node id="-143" visible="true" lat="44.83056646" lon="-72.75125758">
    <tag k="addr:housenumber" v="1351" />
    <tag k="addr:street" v="Joyal Road" />
    <tag k="addr:state" v="VT" />
    <tag k="ref:vcgi:esiteid" v="5255" />
  </node>
  <node id="-144" visible="true" lat="44.83007615" lon="-72.74937942">
    <tag k="addr:housenumber" v="1300" />
    <tag k="addr:street" v="Joyal Road" />
    <tag k="addr:state" v="VT" />
    <tag k="ref:vcgi:esiteid" v="5256" />
  </node>
  <node id="-145" visible="true" lat="44.82839041" lon="-72.72681867">
    <tag k="addr:housenumber" v="6155" />
    <tag k="addr:street" v="East Bakersfield Road" />
    <tag k="addr:state" v="VT" />
    <tag k="ref:vcgi:esiteid" v="5257" />
  </node>
  <node id="-146" visible="true" lat="44.82912007" lon="-72.80226239">
    <tag k="addr:housenumber" v="3688" />
    <tag k="addr:street" v="Main Street North" />
    <tag k="addr:state" v="VT" />
    <tag k="ref:vcgi:esiteid" v="5258" />
  </node>
  <node id="-147" visible="true" lat="44.82749264" lon="-72.80414811">
    <tag k="addr:housenumber" v="3583" />
    <tag k="addr:street" v="Main Street North" />
    <tag k="addr:state" v="VT" />
    <tag k="ref:vcgi:esiteid" v="5259" />
  </node>
  <node id="-148" visible="true" lat="44.82691886" lon="-72.71662145">
    <tag k="addr:housenumber" v="173" />
    <tag k="addr:street" v="Cold Hollow Road" />
    <tag k="addr:state" v="VT" />
    <tag k="ref:vcgi:esiteid" v="5260" />
  </node>
  <node id="-149" visible="true" lat="44.82646919" lon="-72.80117188">
    <tag k="addr:housenumber" v="3485" />
    <tag k="addr:street" v="Main Street North" />
    <tag k="addr:state" v="VT" />
    <tag k="ref:vcgi:esiteid" v="5261" />
  </node>
  <node id="-150" visible="true" lat="44.82632194" lon="-72.74832293">
    <tag k="addr:housenumber" v="1035" />
    <tag k="addr:street" v="Joyal Road" />
    <tag k="addr:state" v="VT" />
    <tag k="ref:vcgi:esiteid" v="5262" />
  </node>
  <node id="-151" visible="true" lat="44.82549228" lon="-72.79813953">
    <tag k="addr:housenumber" v="3322" />
    <tag k="addr:street" v="Main Street North" />
    <tag k="addr:state" v="VT" />
    <tag k="ref:vcgi:esiteid" v="5263" />
  </node>
  <node id="-152" visible="true" lat="44.82532858" lon="-72.80398868">
    <tag k="addr:housenumber" v="218" />
    <tag k="addr:street" v="Pudvah Hill Road" />
    <tag k="addr:state" v="VT" />
    <tag k="ref:vcgi:esiteid" v="5264" />
  </node>
  <node id="-153" visible="true" lat="44.82519531" lon="-72.71694946">
    <tag k="addr:housenumber" v="184" />
    <tag k="addr:street" v="Cold Hollow Road" />
    <tag k="addr:state" v="VT" />
    <tag k="ref:vcgi:esiteid" v="5265" />
  </node>
  <node id="-154" visible="true" lat="44.82466859" lon="-72.80322823">
    <tag k="addr:housenumber" v="205" />
    <tag k="addr:street" v="Pudvah Hill Road" />
    <tag k="addr:state" v="VT" />
    <tag k="ref:vcgi:esiteid" v="5266" />
  </node>
  <node id="-155" visible="true" lat="44.82447433" lon="-72.72206878">
    <tag k="addr:housenumber" v="5619" />
    <tag k="addr:street" v="East Bakersfield Road" />
    <tag k="addr:state" v="VT" />
    <tag k="ref:vcgi:esiteid" v="5267" />
  </node>
  <node id="-156" visible="true" lat="44.82446662" lon="-72.7421732">
    <tag k="addr:housenumber" v="702" />
    <tag k="addr:street" v="Joyal Road" />
    <tag k="addr:state" v="VT" />
    <tag k="ref:vcgi:esiteid" v="5268" />
  </node>
  <node id="-157" visible="true" lat="44.8232578" lon="-72.79783152">
    <tag k="addr:housenumber" v="3355" />
    <tag k="addr:street" v="Main Street North" />
    <tag k="addr:state" v="VT" />
    <tag k="ref:vcgi:esiteid" v="5269" />
  </node>
  <node id="-158" visible="true" lat="44.82289095" lon="-72.79371343">
    <tag k="addr:housenumber" v="3068" />
    <tag k="addr:street" v="Main Street North" />
    <tag k="addr:state" v="VT" />
    <tag k="ref:vcgi:esiteid" v="5270" />
  </node>
  <node id="-159" visible="true" lat="44.82279968" lon="-72.79492187">
    <tag k="addr:housenumber" v="3109" />
    <tag k="addr:street" v="Main Street North" />
    <tag k="addr:state" v="VT" />
    <tag k="ref:vcgi:esiteid" v="5271" />
  </node>
  <node id="-160" visible="true" lat="44.8228606" lon="-72.80737456">
    <tag k="addr:housenumber" v="493" />
    <tag k="addr:street" v="Pudvah Hill Road" />
    <tag k="addr:state" v="VT" />
    <tag k="ref:vcgi:esiteid" v="5272" />
  </node>
  <node id="-161" visible="true" lat="44.82268123" lon="-72.81054997">
    <tag k="addr:housenumber" v="598" />
    <tag k="addr:street" v="Pudvah Hill Road" />
    <tag k="addr:state" v="VT" />
    <tag k="ref:vcgi:esiteid" v="5273" />
  </node>
  <node id="-162" visible="true" lat="44.82228547" lon="-72.7926856">
    <tag k="addr:housenumber" v="2976" />
    <tag k="addr:street" v="Main Street North" />
    <tag k="addr:state" v="VT" />
    <tag k="ref:vcgi:esiteid" v="5274" />
  </node>
  <node id="-163" visible="true" lat="44.82226943" lon="-72.73825073">
    <tag k="addr:housenumber" v="461" />
    <tag k="addr:street" v="Joyal Road" />
    <tag k="addr:state" v="VT" />
    <tag k="ref:vcgi:esiteid" v="5275" />
  </node>
  <node id="-164" visible="true" lat="44.82196105" lon="-72.81894424">
    <tag k="addr:housenumber" v="1198" />
    <tag k="addr:street" v="County Road" />
    <tag k="addr:state" v="VT" />
    <tag k="ref:vcgi:esiteid" v="5276" />
  </node>
  <node id="-165" visible="true" lat="44.82154846" lon="-72.81296539">
    <tag k="addr:housenumber" v="736" />
    <tag k="addr:street" v="Pudvah Hill Road" />
    <tag k="addr:state" v="VT" />
    <tag k="ref:vcgi:esiteid" v="5277" />
  </node>
  <node id="-166" visible="true" lat="44.82080242" lon="-72.81360172">
    <tag k="addr:housenumber" v="799" />
    <tag k="addr:street" v="Pudvah Hill Road" />
    <tag k="addr:state" v="VT" />
    <tag k="ref:vcgi:esiteid" v="5278" />
  </node>
  <node id="-167" visible="true" lat="44.81877459" lon="-72.72549166">
    <tag k="addr:housenumber" v="5250" />
    <tag k="addr:street" v="East Bakersfield Road" />
    <tag k="addr:state" v="VT" />
    <tag k="ref:vcgi:esiteid" v="5279" />
  </node>
  <node id="-168" visible="true" lat="44.81979409" lon="-72.75620024">
    <tag k="addr:housenumber" v="1285" />
    <tag k="addr:street" v="Witchcat Road" />
    <tag k="addr:state" v="VT" />
    <tag k="ref:vcgi:esiteid" v="5280" />
  </node>
  <node id="-169" visible="true" lat="44.81924438" lon="-72.75634002">
    <tag k="addr:housenumber" v="1241" />
    <tag k="addr:street" v="Witchcat Road" />
    <tag k="addr:state" v="VT" />
    <tag k="ref:vcgi:esiteid" v="5281" />
  </node>
  <node id="-170" visible="true" lat="44.81896706" lon="-72.79111977">
    <tag k="addr:housenumber" v="2752" />
    <tag k="addr:street" v="Main Street North" />
    <tag k="addr:state" v="VT" />
    <tag k="ref:vcgi:esiteid" v="5282" />
  </node>
  <node id="-171" visible="true" lat="44.81876625" lon="-72.73265215">
    <tag k="addr:housenumber" v="4911" />
    <tag k="addr:street" v="East Bakersfield Road" />
    <tag k="addr:state" v="VT" />
    <tag k="ref:vcgi:esiteid" v="5283" />
  </node>
  <node id="-172" visible="true" lat="44.81829074" lon="-72.83922033">
    <tag k="addr:housenumber" v="407" />
    <tag k="addr:street" v="Skinner Hill Road" />
    <tag k="addr:state" v="VT" />
    <tag k="ref:vcgi:esiteid" v="5284" />
  </node>
  <node id="-173" visible="true" lat="44.81811141" lon="-72.82616424">
    <tag k="addr:housenumber" v="798" />
    <tag k="addr:street" v="County Road" />
    <tag k="addr:state" v="VT" />
    <tag k="ref:vcgi:esiteid" v="5285" />
  </node>
  <node id="-174" visible="true" lat="44.81827545" lon="-72.74321746">
    <tag k="addr:housenumber" v="4661" />
    <tag k="addr:street" v="East Bakersfield Road" />
    <tag k="addr:state" v="VT" />
    <tag k="ref:vcgi:esiteid" v="5286" />
  </node>
  <node id="-175" visible="true" lat="44.81811274" lon="-72.79068692">
    <tag k="addr:housenumber" v="2684" />
    <tag k="addr:street" v="Main Street North" />
    <tag k="addr:state" v="VT" />
    <tag k="ref:vcgi:esiteid" v="5287" />
  </node>
  <node id="-176" visible="true" lat="44.81760406" lon="-72.73271179">
    <tag k="addr:housenumber" v="4889" />
    <tag k="addr:street" v="East Bakersfield Road" />
    <tag k="addr:state" v="VT" />
    <tag k="ref:vcgi:esiteid" v="5288" />
  </node>
  <node id="-177" visible="true" lat="44.81756626" lon="-72.7562403">
    <tag k="addr:housenumber" v="1142" />
    <tag k="addr:street" v="Witchcat Road" />
    <tag k="addr:state" v="VT" />
    <tag k="ref:vcgi:esiteid" v="5289" />
  </node>
  <node id="-178" visible="true" lat="44.81703567" lon="-72.82839202">
    <tag k="addr:housenumber" v="664" />
    <tag k="addr:street" v="County Road" />
    <tag k="addr:state" v="VT" />
    <tag k="ref:vcgi:esiteid" v="5290" />
  </node>
  <node id="-179" visible="true" lat="44.81714422" lon="-72.73160739">
    <tag k="addr:housenumber" v="4978" />
    <tag k="addr:street" v="East Bakersfield Road" />
    <tag k="addr:state" v="VT" />
    <tag k="ref:vcgi:esiteid" v="5291" />
  </node>
  <node id="-180" visible="true" lat="44.81714261" lon="-72.83902271">
    <tag k="addr:housenumber" v="321" />
    <tag k="addr:street" v="Skinner Hill Road" />
    <tag k="addr:state" v="VT" />
    <tag k="ref:vcgi:esiteid" v="5292" />
  </node>
  <node id="-181" visible="true" lat="44.81714462" lon="-72.73734875">
    <tag k="addr:housenumber" v="4677" />
    <tag k="addr:street" v="East Bakersfield Road" />
    <tag k="addr:state" v="VT" />
    <tag k="ref:vcgi:esiteid" v="5293" />
  </node>
  <node id="-182" visible="true" lat="44.8171628" lon="-72.73091394">
    <tag k="addr:housenumber" v="4980" />
    <tag k="addr:street" v="East Bakersfield Road" />
    <tag k="addr:state" v="VT" />
    <tag k="ref:vcgi:esiteid" v="5294" />
  </node>
  <node id="-183" visible="true" lat="44.81623393" lon="-72.73611392">
    <tag k="addr:housenumber" v="4688" />
    <tag k="addr:street" v="East Bakersfield Road" />
    <tag k="addr:state" v="VT" />
    <tag k="ref:vcgi:esiteid" v="5295" />
  </node>
  <node id="-184" visible="true" lat="44.8148439" lon="-72.83318772">
    <tag k="addr:housenumber" v="391" />
    <tag k="addr:street" v="County Road" />
    <tag k="addr:state" v="VT" />
    <tag k="ref:vcgi:esiteid" v="5296" />
  </node>
  <node id="-185" visible="true" lat="44.81495082" lon="-72.74652813">
    <tag k="addr:housenumber" v="4295" />
    <tag k="addr:street" v="East Bakersfield Road" />
    <tag k="addr:state" v="VT" />
    <tag k="ref:vcgi:esiteid" v="5297" />
  </node>
  <node id="-186" visible="true" lat="44.81476946" lon="-72.74140992">
    <tag k="addr:housenumber" v="4393" />
    <tag k="addr:street" v="East Bakersfield Road" />
    <tag k="addr:state" v="VT" />
    <tag k="ref:vcgi:esiteid" v="5298" />
  </node>
  <node id="-187" visible="true" lat="44.81463067" lon="-72.83889534">
    <tag k="addr:housenumber" v="138" />
    <tag k="addr:street" v="Skinner Hill Road" />
    <tag k="addr:state" v="VT" />
    <tag k="ref:vcgi:esiteid" v="5299" />
  </node>
  <node id="-188" visible="true" lat="44.81466878" lon="-72.73814248">
    <tag k="addr:housenumber" v="4548" />
    <tag k="addr:street" v="East Bakersfield Road" />
    <tag k="addr:state" v="VT" />
    <tag k="ref:vcgi:esiteid" v="5300" />
  </node>
  <node id="-189" visible="true" lat="44.81488701" lon="-72.75948744">
    <tag k="addr:housenumber" v="871" />
    <tag k="addr:street" v="Witchcat Road" />
    <tag k="addr:state" v="VT" />
    <tag k="ref:vcgi:esiteid" v="5301" />
  </node>
  <node id="-190" visible="true" lat="44.81465076" lon="-72.74525889">
    <tag k="addr:housenumber" v="4293" />
    <tag k="addr:street" v="East Bakersfield Road" />
    <tag k="addr:state" v="VT" />
    <tag k="ref:vcgi:esiteid" v="5302" />
  </node>
  <node id="-191" visible="true" lat="44.81463138" lon="-72.74841596">
    <tag k="addr:housenumber" v="4077" />
    <tag k="addr:street" v="East Bakersfield Road" />
    <tag k="addr:state" v="VT" />
    <tag k="ref:vcgi:esiteid" v="5303" />
  </node>
  <node id="-192" visible="true" lat="44.81445706" lon="-72.73573183">
    <tag k="addr:housenumber" v="132" />
    <tag k="addr:street" v="Cook Brook Road" />
    <tag k="addr:state" v="VT" />
    <tag k="ref:vcgi:esiteid" v="5304" />
  </node>
  <node id="-193" visible="true" lat="44.81264665" lon="-72.84335315">
    <tag k="addr:housenumber" v="2009" />
    <tag k="addr:street" v="Egypt Road" />
    <tag k="addr:state" v="VT" />
    <tag k="ref:vcgi:esiteid" v="5305" />
  </node>
  <node id="-194" visible="true" lat="44.81381582" lon="-72.75921225">
    <tag k="addr:housenumber" v="840" />
    <tag k="addr:street" v="Witchcat Road" />
    <tag k="addr:state" v="VT" />
    <tag k="ref:vcgi:esiteid" v="5306" />
  </node>
  <node id="-195" visible="true" lat="44.81317528" lon="-72.76444713">
    <tag k="addr:housenumber" v="163" />
    <tag k="addr:street" v="Page Road" />
    <tag k="addr:state" v="VT" />
    <tag k="ref:vcgi:esiteid" v="5307" />
  </node>
  <node id="-196" visible="true" lat="44.81354977" lon="-72.7414139">
    <tag k="addr:housenumber" v="4380" />
    <tag k="addr:street" v="East Bakersfield Road" />
    <tag k="addr:state" v="VT" />
    <tag k="ref:vcgi:esiteid" v="5308" />
  </node>
  <node id="-197" visible="true" lat="44.81333923" lon="-72.79058838">
    <tag k="addr:housenumber" v="2373" />
    <tag k="addr:street" v="Main Street North" />
    <tag k="addr:state" v="VT" />
    <tag k="ref:vcgi:esiteid" v="5309" />
  </node>
  <node id="-198" visible="true" lat="44.81319427" lon="-72.79061889">
    <tag k="addr:housenumber" v="2365" />
    <tag k="addr:street" v="Main Street North" />
    <tag k="addr:state" v="VT" />
    <tag k="ref:vcgi:esiteid" v="5310" />
  </node>
  <node id="-199" visible="true" lat="44.81306247" lon="-72.83829631">
    <tag k="addr:housenumber" v="100" />
    <tag k="addr:street" v="County Road" />
    <tag k="addr:state" v="VT" />
    <tag k="ref:vcgi:esiteid" v="5311" />
  </node>
  <node id="-200" visible="true" lat="44.81312561" lon="-72.74270629">
    <tag k="addr:housenumber" v="4300" />
    <tag k="addr:street" v="East Bakersfield Road" />
    <tag k="addr:state" v="VT" />
    <tag k="ref:vcgi:esiteid" v="5312" />
  </node>
  <node id="-201" visible="true" lat="44.81277847" lon="-72.84153747">
    <tag k="addr:housenumber" v="2083" />
    <tag k="addr:street" v="Egypt Road" />
    <tag k="addr:state" v="VT" />
    <tag k="ref:vcgi:esiteid" v="5313" />
  </node>
  <node id="-202" visible="true" lat="44.81289625" lon="-72.84112112">
    <tag k="addr:housenumber" v="2103" />
    <tag k="addr:street" v="Egypt Road" />
    <tag k="addr:state" v="VT" />
    <tag k="ref:vcgi:esiteid" v="5314" />
  </node>
  <node id="-203" visible="true" lat="44.81293945" lon="-72.74444233">
    <tag k="addr:housenumber" v="4201" />
    <tag k="addr:street" v="East Bakersfield Road" />
    <tag k="addr:state" v="VT" />
    <tag k="ref:vcgi:esiteid" v="5315" />
  </node>
  <node id="-204" visible="true" lat="44.81260456" lon="-72.76102271">
    <tag k="addr:housenumber" v="729" />
    <tag k="addr:street" v="Witchcat Road" />
    <tag k="addr:state" v="VT" />
    <tag k="ref:vcgi:esiteid" v="5316" />
  </node>
  <node id="-205" visible="true" lat="44.81125591" lon="-72.74421055">
    <tag k="addr:housenumber" v="4210" />
    <tag k="addr:street" v="East Bakersfield Road" />
    <tag k="addr:state" v="VT" />
    <tag k="ref:vcgi:esiteid" v="5317" />
  </node>
  <node id="-206" visible="true" lat="44.81217561" lon="-72.84031797">
    <tag k="addr:housenumber" v="2150" />
    <tag k="addr:street" v="Egypt Road" />
    <tag k="addr:state" v="VT" />
    <tag k="ref:vcgi:esiteid" v="5318" />
  </node>
  <node id="-207" visible="true" lat="44.81194305" lon="-72.83311462">
    <tag k="addr:housenumber" v="2522" />
    <tag k="addr:street" v="Egypt Road" />
    <tag k="addr:state" v="VT" />
    <tag k="ref:vcgi:esiteid" v="5319" />
  </node>
  <node id="-208" visible="true" lat="44.81200816" lon="-72.79124903">
    <tag k="addr:housenumber" v="17" />
    <tag k="addr:street" v="Browns Pond Road" />
    <tag k="addr:state" v="VT" />
    <tag k="ref:vcgi:esiteid" v="5320" />
  </node>
  <node id="-209" visible="true" lat="44.81216977" lon="-72.75966536">
    <tag k="addr:housenumber" v="712" />
    <tag k="addr:street" v="Witchcat Road" />
    <tag k="addr:state" v="VT" />
    <tag k="ref:vcgi:esiteid" v="5321" />
  </node>
  <node id="-210" visible="true" lat="44.81156307" lon="-72.76117457">
    <tag k="addr:housenumber" v="652" />
    <tag k="addr:street" v="Witchcat Road" />
    <tag k="addr:state" v="VT" />
    <tag k="ref:vcgi:esiteid" v="5322" />
  </node>
  <node id="-211" visible="true" lat="44.81090545" lon="-72.73626708">
    <tag k="addr:housenumber" v="321" />
    <tag k="addr:street" v="Barnes Road" />
    <tag k="addr:state" v="VT" />
    <tag k="ref:vcgi:esiteid" v="5323" />
  </node>
  <node id="-212" visible="true" lat="44.81045678" lon="-72.74853696">
    <tag k="addr:housenumber" v="3941" />
    <tag k="addr:street" v="East Bakersfield Road" />
    <tag k="addr:state" v="VT" />
    <tag k="ref:vcgi:esiteid" v="5324" />
  </node>
  <node id="-213" visible="true" lat="44.80983945" lon="-72.73485549">
    <tag k="addr:housenumber" v="431" />
    <tag k="addr:street" v="Barnes Road" />
    <tag k="addr:state" v="VT" />
    <tag k="ref:vcgi:esiteid" v="5325" />
  </node>
  <node id="-214" visible="true" lat="44.80954825" lon="-72.78891767">
    <tag k="addr:housenumber" v="2076" />
    <tag k="addr:street" v="Main Street North" />
    <tag k="addr:state" v="VT" />
    <tag k="ref:vcgi:esiteid" v="5326" />
  </node>
  <node id="-215" visible="true" lat="44.80953284" lon="-72.76328519">
    <tag k="addr:housenumber" v="452" />
    <tag k="addr:street" v="Witchcat Road" />
    <tag k="addr:state" v="VT" />
    <tag k="ref:vcgi:esiteid" v="5327" />
  </node>
  <node id="-216" visible="true" lat="44.80945404" lon="-72.76298351">
    <tag k="addr:housenumber" v="450" />
    <tag k="addr:street" v="Witchcat Road" />
    <tag k="addr:state" v="VT" />
    <tag k="ref:vcgi:esiteid" v="5328" />
  </node>
  <node id="-217" visible="true" lat="44.8094585" lon="-72.74830465">
    <tag k="addr:housenumber" v="3919" />
    <tag k="addr:street" v="East Bakersfield Road" />
    <tag k="addr:state" v="VT" />
    <tag k="ref:vcgi:esiteid" v="5329" />
  </node>
  <node id="-218" visible="true" lat="44.80851096" lon="-72.7336649">
    <tag k="addr:housenumber" v="429" />
    <tag k="addr:street" v="Barnes Road" />
    <tag k="addr:state" v="VT" />
    <tag k="ref:vcgi:esiteid" v="5330" />
  </node>
  <node id="-219" visible="true" lat="44.80880365" lon="-72.73650852">
    <tag k="addr:housenumber" v="463" />
    <tag k="addr:street" v="Barnes Road" />
    <tag k="addr:state" v="VT" />
    <tag k="ref:vcgi:esiteid" v="5331" />
  </node>
  <node id="-220" visible="true" lat="44.80862603" lon="-72.7878008">
    <tag k="addr:housenumber" v="1982" />
    <tag k="addr:street" v="Main Street North" />
    <tag k="addr:state" v="VT" />
    <tag k="ref:vcgi:esiteid" v="5332" />
  </node>
  <node id="-221" visible="true" lat="44.80816237" lon="-72.74840502">
    <tag k="addr:housenumber" v="3836" />
    <tag k="addr:street" v="East Bakersfield Road" />
    <tag k="addr:state" v="VT" />
    <tag k="ref:vcgi:esiteid" v="5333" />
  </node>
  <node id="-222" visible="true" lat="44.80906357" lon="-72.82643394">
    <tag k="addr:housenumber" v="3007" />
    <tag k="addr:street" v="Egypt Road" />
    <tag k="addr:state" v="VT" />
    <tag k="ref:vcgi:esiteid" v="5334" />
  </node>
  <node id="-223" visible="true" lat="44.80606585" lon="-72.787121">
    <tag k="addr:housenumber" v="1818" />
    <tag k="addr:street" v="Main Street North" />
    <tag k="addr:state" v="VT" />
    <tag k="ref:vcgi:esiteid" v="5335" />
  </node>
  <node id="-224" visible="true" lat="44.805603" lon="-72.75977199">
    <tag k="addr:housenumber" v="3233" />
    <tag k="addr:street" v="East Bakersfield Road" />
    <tag k="addr:state" v="VT" />
    <tag k="ref:vcgi:esiteid" v="5336" />
  </node>
  <node id="-225" visible="true" lat="44.80538346" lon="-72.76654096">
    <tag k="addr:housenumber" v="2911" />
    <tag k="addr:street" v="East Bakersfield Road" />
    <tag k="addr:state" v="VT" />
    <tag k="ref:vcgi:esiteid" v="5337" />
  </node>
  <node id="-226" visible="true" lat="44.80536238" lon="-72.75262599">
    <tag k="addr:housenumber" v="3534" />
    <tag k="addr:street" v="East Bakersfield Road" />
    <tag k="addr:state" v="VT" />
    <tag k="ref:vcgi:esiteid" v="5338" />
  </node>
  <node id="-227" visible="true" lat="44.80507051" lon="-72.78692213">
    <tag k="addr:housenumber" v="1788" />
    <tag k="addr:street" v="King Road" />
    <tag k="addr:state" v="VT" />
    <tag k="ref:vcgi:esiteid" v="5339" />
  </node>
  <node id="-228" visible="true" lat="44.80472391" lon="-72.76456258">
    <tag k="addr:housenumber" v="109" />
    <tag k="addr:street" v="Witchcat Road" />
    <tag k="addr:state" v="VT" />
    <tag k="ref:vcgi:esiteid" v="5340" />
  </node>
  <node id="-229" visible="true" lat="44.80481374" lon="-72.78834429">
    <tag k="addr:housenumber" v="1695" />
    <tag k="addr:street" v="Main Street North" />
    <tag k="addr:state" v="VT" />
    <tag k="ref:vcgi:esiteid" v="5341" />
  </node>
  <node id="-230" visible="true" lat="44.80394363" lon="-72.80687713">
    <tag k="addr:housenumber" v="845" />
    <tag k="addr:street" v="Hydes Hill Road" />
    <tag k="addr:state" v="VT" />
    <tag k="ref:vcgi:esiteid" v="5342" />
  </node>
  <node id="-231" visible="true" lat="44.8038166" lon="-72.75415962">
    <tag k="addr:housenumber" v="162" />
    <tag k="addr:street" v="Peaked Hill Road" />
    <tag k="addr:state" v="VT" />
    <tag k="ref:vcgi:esiteid" v="5343" />
  </node>
  <node id="-232" visible="true" lat="44.80359539" lon="-72.79206075">
    <tag k="addr:housenumber" v="100" />
    <tag k="addr:street" v="Penny Lane" />
    <tag k="addr:state" v="VT" />
    <tag k="ref:vcgi:esiteid" v="5344" />
  </node>
  <node id="-233" visible="true" lat="44.80351228" lon="-72.75357461">
    <tag k="addr:housenumber" v="174" />
    <tag k="addr:street" v="Peaked Hill Road" />
    <tag k="addr:state" v="VT" />
    <tag k="ref:vcgi:esiteid" v="5345" />
  </node>
  <node id="-234" visible="true" lat="44.80319285" lon="-72.78756257">
    <tag k="addr:housenumber" v="1645" />
    <tag k="addr:street" v="King Road" />
    <tag k="addr:state" v="VT" />
    <tag k="ref:vcgi:esiteid" v="5346" />
  </node>
  <node id="-235" visible="true" lat="44.80275932" lon="-72.79032844">
    <tag k="addr:housenumber" v="10" />
    <tag k="addr:street" v="Penny Lane" />
    <tag k="addr:state" v="VT" />
    <tag k="ref:vcgi:esiteid" v="5347" />
  </node>
  <node id="-236" visible="true" lat="44.80258457" lon="-72.77011959">
    <tag k="addr:housenumber" v="2665" />
    <tag k="addr:street" v="East Bakersfield Road" />
    <tag k="addr:state" v="VT" />
    <tag k="ref:vcgi:esiteid" v="5348" />
  </node>
  <node id="-237" visible="true" lat="44.80215748" lon="-72.76934324">
    <tag k="addr:housenumber" v="2709" />
    <tag k="addr:street" v="East Bakersfield Road" />
    <tag k="addr:state" v="VT" />
    <tag k="ref:vcgi:esiteid" v="5349" />
  </node>
  <node id="-238" visible="true" lat="44.80151915" lon="-72.80700134">
    <tag k="addr:housenumber" v="727" />
    <tag k="addr:street" v="Hydes Hill Road" />
    <tag k="addr:state" v="VT" />
    <tag k="ref:vcgi:esiteid" v="5350" />
  </node>
  <node id="-239" visible="true" lat="44.80135526" lon="-72.78723176">
    <tag k="addr:housenumber" v="1503" />
    <tag k="addr:street" v="King Road" />
    <tag k="addr:state" v="VT" />
    <tag k="ref:vcgi:esiteid" v="5351" />
  </node>
  <node id="-240" visible="true" lat="44.8013582" lon="-72.7713469">
    <tag k="addr:housenumber" v="2592" />
    <tag k="addr:street" v="East Bakersfield Road" />
    <tag k="addr:state" v="VT" />
    <tag k="ref:vcgi:esiteid" v="5352" />
  </node>
  <node id="-241" visible="true" lat="44.79986954" lon="-72.74945891">
    <tag k="addr:housenumber" v="484" />
    <tag k="addr:street" v="Peaked Hill Road" />
    <tag k="addr:state" v="VT" />
    <tag k="ref:vcgi:esiteid" v="5353" />
  </node>
  <node id="-242" visible="true" lat="44.80076539" lon="-72.79231216">
    <tag k="addr:housenumber" v="1375" />
    <tag k="addr:street" v="Main Street North" />
    <tag k="addr:state" v="VT" />
    <tag k="ref:vcgi:esiteid" v="5354" />
  </node>
  <node id="-243" visible="true" lat="44.80087185" lon="-72.79063093">
    <tag k="addr:housenumber" v="1424" />
    <tag k="addr:street" v="Main Street North" />
    <tag k="addr:state" v="VT" />
    <tag k="ref:vcgi:esiteid" v="5355" />
  </node>
  <node id="-244" visible="true" lat="44.80050333" lon="-72.79300607">
    <tag k="addr:housenumber" v="1329" />
    <tag k="addr:street" v="Main Street North" />
    <tag k="addr:state" v="VT" />
    <tag k="ref:vcgi:esiteid" v="5356" />
  </node>
  <node id="-245" visible="true" lat="44.8006171" lon="-72.74821374">
    <tag k="addr:housenumber" v="530" />
    <tag k="addr:street" v="Peaked Hill Road" />
    <tag k="addr:state" v="VT" />
    <tag k="ref:vcgi:esiteid" v="5357" />
  </node>
  <node id="-246" visible="true" lat="44.80018997" lon="-72.79459381">
    <tag k="addr:housenumber" v="1287" />
    <tag k="addr:street" v="Main Street North" />
    <tag k="addr:state" v="VT" />
    <tag k="ref:vcgi:esiteid" v="5358" />
  </node>
  <node id="-247" visible="true" lat="44.8000087" lon="-72.77516075">
    <tag k="addr:housenumber" v="2365" />
    <tag k="addr:street" v="East Bakersfield Road" />
    <tag k="addr:state" v="VT" />
    <tag k="ref:vcgi:esiteid" v="5359" />
  </node>
  <node id="-248" visible="true" lat="44.79949569" lon="-72.80181121">
    <tag k="addr:housenumber" v="414" />
    <tag k="addr:street" v="Hydes Hill Road" />
    <tag k="addr:state" v="VT" />
    <tag k="ref:vcgi:esiteid" v="5360" />
  </node>
  <node id="-249" visible="true" lat="44.79963301" lon="-72.74620551">
    <tag k="addr:housenumber" v="640" />
    <tag k="addr:street" v="Peaked Hill Road" />
    <tag k="addr:state" v="VT" />
    <tag k="ref:vcgi:esiteid" v="5361" />
  </node>
  <node id="-250" visible="true" lat="44.79934667" lon="-72.79261167">
    <tag k="addr:housenumber" v="1304" />
    <tag k="addr:street" v="Main Street North" />
    <tag k="addr:state" v="VT" />
    <tag k="ref:vcgi:esiteid" v="5362" />
  </node>
  <node id="-251" visible="true" lat="44.79881286" lon="-72.79404449">
    <tag k="addr:housenumber" v="1231" />
    <tag k="addr:street" v="Main Street North" />
    <tag k="addr:state" v="VT" />
    <tag k="ref:vcgi:esiteid" v="5363" />
  </node>
  <node id="-252" visible="true" lat="44.79880358" lon="-72.81914792">
    <tag k="addr:housenumber" v="3786" />
    <tag k="addr:street" v="Egypt Road" />
    <tag k="addr:state" v="VT" />
    <tag k="ref:vcgi:esiteid" v="5364" />
  </node>
  <node id="-253" visible="true" lat="44.79871367" lon="-72.79434304">
    <tag k="addr:housenumber" v="1233" />
    <tag k="addr:street" v="Main Street North" />
    <tag k="addr:state" v="VT" />
    <tag k="ref:vcgi:esiteid" v="5365" />
  </node>
  <node id="-254" visible="true" lat="44.79861862" lon="-72.79312104">
    <tag k="addr:housenumber" v="1230" />
    <tag k="addr:street" v="Main Street North" />
    <tag k="addr:state" v="VT" />
    <tag k="ref:vcgi:esiteid" v="5366" />
  </node>
  <node id="-255" visible="true" lat="44.79823172" lon="-72.79454048">
    <tag k="addr:housenumber" v="1187" />
    <tag k="addr:street" v="Main Street North" />
    <tag k="addr:state" v="VT" />
    <tag k="ref:vcgi:esiteid" v="5367" />
  </node>
  <node id="-256" visible="true" lat="44.79795657" lon="-72.79361685">
    <tag k="addr:housenumber" v="1186" />
    <tag k="addr:street" v="Main Street North" />
    <tag k="addr:state" v="VT" />
    <tag k="ref:vcgi:esiteid" v="5368" />
  </node>
  <node id="-257" visible="true" lat="44.79763884" lon="-72.79443096">
    <tag k="addr:housenumber" v="1113" />
    <tag k="addr:street" v="Main Street North" />
    <tag k="addr:state" v="VT" />
    <tag k="ref:vcgi:esiteid" v="5369" />
  </node>
  <node id="-258" visible="true" lat="44.79696655" lon="-72.79444122">
    <tag k="addr:housenumber" v="1102" />
    <tag k="addr:street" v="Main Street North" />
    <tag k="addr:state" v="VT" />
    <tag k="ref:vcgi:esiteid" v="5370" />
  </node>
  <node id="-259" visible="true" lat="44.79694366" lon="-72.79338836">
    <tag k="addr:housenumber" v="1126" />
    <tag k="addr:street" v="Main Street North" />
    <tag k="addr:state" v="VT" />
    <tag k="ref:vcgi:esiteid" v="5371" />
  </node>
  <node id="-260" visible="true" lat="44.79626665" lon="-72.78593182">
    <tag k="addr:housenumber" v="1230" />
    <tag k="addr:street" v="King Road" />
    <tag k="addr:state" v="VT" />
    <tag k="ref:vcgi:esiteid" v="5372" />
  </node>
  <node id="-261" visible="true" lat="44.79656231" lon="-72.79564263">
    <tag k="addr:housenumber" v="1035" />
    <tag k="addr:street" v="Main Street North" />
    <tag k="addr:state" v="VT" />
    <tag k="ref:vcgi:esiteid" v="5373" />
  </node>
  <node id="-262" visible="true" lat="44.79620951" lon="-72.79573302">
    <tag k="addr:housenumber" v="1001" />
    <tag k="addr:street" v="Main Street North" />
    <tag k="addr:state" v="VT" />
    <tag k="ref:vcgi:esiteid" v="5374" />
  </node>
  <node id="-263" visible="true" lat="44.79600357" lon="-72.79416052">
    <tag k="addr:housenumber" v="1052" />
    <tag k="addr:street" v="Main Street North" />
    <tag k="addr:state" v="VT" />
    <tag k="ref:vcgi:esiteid" v="5375" />
  </node>
  <node id="-264" visible="true" lat="44.79589737" lon="-72.79763536">
    <tag k="addr:housenumber" v="120" />
    <tag k="addr:street" v="Hydes Hill Road" />
    <tag k="addr:state" v="VT" />
    <tag k="ref:vcgi:esiteid" v="5376" />
  </node>
  <node id="-265" visible="true" lat="44.79574203" lon="-72.78716277">
    <tag k="addr:housenumber" v="1116" />
    <tag k="addr:street" v="King Road" />
    <tag k="addr:state" v="VT" />
    <tag k="ref:vcgi:esiteid" v="5377" />
  </node>
  <node id="-266" visible="true" lat="44.79524993" lon="-72.79681396">
    <tag k="addr:housenumber" v="941" />
    <tag k="addr:street" v="Main Street North" />
    <tag k="addr:state" v="VT" />
    <tag k="ref:vcgi:esiteid" v="5379" />
  </node>
  <node id="-267" visible="true" lat="44.79508972" lon="-72.79685211">
    <tag k="addr:housenumber" v="929" />
    <tag k="addr:street" v="Main Street North" />
    <tag k="addr:state" v="VT" />
    <tag k="ref:vcgi:esiteid" v="5380" />
  </node>
  <node id="-268" visible="true" lat="44.79456431" lon="-72.79724525">
    <tag k="addr:housenumber" v="36" />
    <tag k="addr:street" v="Hydes Hill Road" />
    <tag k="addr:state" v="VT" />
    <tag k="ref:vcgi:esiteid" v="5381" />
  </node>
  <node id="-269" visible="true" lat="44.79456329" lon="-72.79658508">
    <tag k="addr:housenumber" v="904" />
    <tag k="addr:street" v="Main Street North" />
    <tag k="addr:state" v="VT" />
    <tag k="ref:vcgi:esiteid" v="5382" />
  </node>
  <node id="-270" visible="true" lat="44.79448458" lon="-72.77796623">
    <tag k="addr:housenumber" v="1948" />
    <tag k="addr:street" v="East Bakersfield Road" />
    <tag k="addr:state" v="VT" />
    <tag k="ref:vcgi:esiteid" v="5383" />
  </node>
  <node id="-271" visible="true" lat="44.79429597" lon="-72.83380956">
    <tag k="addr:housenumber" v="738" />
    <tag k="addr:street" v="Lawyer Road" />
    <tag k="addr:state" v="VT" />
    <tag k="ref:vcgi:esiteid" v="5384" />
  </node>
  <node id="-272" visible="true" lat="44.79385783" lon="-72.79663134">
    <tag k="addr:housenumber" v="872" />
    <tag k="addr:street" v="Main Street North" />
    <tag k="addr:state" v="VT" />
    <tag k="ref:vcgi:esiteid" v="5385" />
  </node>
  <node id="-273" visible="true" lat="44.79397519" lon="-72.79752731">
    <tag k="addr:housenumber" v="843" />
    <tag k="addr:street" v="Main Street North" />
    <tag k="addr:state" v="VT" />
    <tag k="ref:vcgi:esiteid" v="5386" />
  </node>
  <node id="-274" visible="true" lat="44.79684299" lon="-72.78124519">
    <tag k="addr:housenumber" v="1849" />
    <tag k="addr:street" v="East Bakersfield Road" />
    <tag k="addr:state" v="VT" />
    <tag k="ref:vcgi:esiteid" v="5387" />
  </node>
  <node id="-275" visible="true" lat="44.79370886" lon="-72.78826244">
    <tag k="addr:housenumber" v="962" />
    <tag k="addr:street" v="King Road" />
    <tag k="addr:state" v="VT" />
    <tag k="ref:vcgi:esiteid" v="5388" />
  </node>
  <node id="-276" visible="true" lat="44.79367528" lon="-72.78902079">
    <tag k="addr:housenumber" v="961" />
    <tag k="addr:street" v="King Road" />
    <tag k="addr:state" v="VT" />
    <tag k="ref:vcgi:esiteid" v="5389" />
  </node>
  <node id="-277" visible="true" lat="44.79329029" lon="-72.79721776">
    <tag k="addr:housenumber" v="814" />
    <tag k="addr:street" v="Main Street North" />
    <tag k="addr:state" v="VT" />
    <tag k="ref:vcgi:esiteid" v="5390" />
  </node>
  <node id="-278" visible="true" lat="44.79343727" lon="-72.79776489">
    <tag k="addr:housenumber" v="805" />
    <tag k="addr:street" v="Main Street North" />
    <tag k="addr:state" v="VT" />
    <tag k="ref:vcgi:esiteid" v="5391" />
  </node>
  <node id="-279" visible="true" lat="44.79345254" lon="-72.77058944">
    <tag k="addr:housenumber" v="1455" />
    <tag k="addr:street" v="Basswood Hill Road" />
    <tag k="addr:state" v="VT" />
    <tag k="ref:vcgi:esiteid" v="5392" />
  </node>
  <node id="-280" visible="true" lat="44.79297988" lon="-72.76735595">
    <tag k="addr:housenumber" v="1456" />
    <tag k="addr:street" v="Basswood Hill Road" />
    <tag k="addr:state" v="VT" />
    <tag k="ref:vcgi:esiteid" v="5393" />
  </node>
  <node id="-281" visible="true" lat="44.79262143" lon="-72.8178127">
    <tag k="addr:housenumber" v="4229" />
    <tag k="addr:street" v="Egypt Road" />
    <tag k="addr:state" v="VT" />
    <tag k="ref:vcgi:esiteid" v="5394" />
  </node>
  <node id="-282" visible="true" lat="44.79256046" lon="-72.76966269">
    <tag k="addr:housenumber" v="1426" />
    <tag k="addr:street" v="Basswood Hill Road" />
    <tag k="addr:state" v="VT" />
    <tag k="ref:vcgi:esiteid" v="5395" />
  </node>
  <node id="-283" visible="true" lat="44.7924119" lon="-72.78884322">
    <tag k="addr:housenumber" v="914" />
    <tag k="addr:street" v="King Road" />
    <tag k="addr:state" v="VT" />
    <tag k="ref:vcgi:esiteid" v="5396" />
  </node>
  <node id="-284" visible="true" lat="44.79227066" lon="-72.7993164">
    <tag k="addr:housenumber" v="200" />
    <tag k="addr:street" v="Kimberly Hill Farm Road" />
    <tag k="addr:state" v="VT" />
    <tag k="ref:vcgi:esiteid" v="5397" />
  </node>
  <node id="-285" visible="true" lat="44.7917798" lon="-72.77862195">
    <tag k="addr:housenumber" v="53" />
    <tag k="addr:street" v="Log Cabin Lane" />
    <tag k="addr:state" v="VT" />
    <tag k="ref:vcgi:esiteid" v="5398" />
  </node>
  <node id="-286" visible="true" lat="44.79157808" lon="-72.82127251">
    <tag k="addr:housenumber" v="132" />
    <tag k="addr:street" v="Lawyer Road" />
    <tag k="addr:state" v="VT" />
    <tag k="ref:vcgi:esiteid" v="5399" />
  </node>
  <node id="-287" visible="true" lat="44.79133377" lon="-72.8108533">
    <tag k="addr:housenumber" v="4607" />
    <tag k="addr:street" v="Egypt Road" />
    <tag k="addr:state" v="VT" />
    <tag k="ref:vcgi:esiteid" v="5400" />
  </node>
  <node id="-288" visible="true" lat="44.79066252" lon="-72.82334566">
    <tag k="addr:housenumber" v="290" />
    <tag k="addr:street" v="Lawyer Road" />
    <tag k="addr:state" v="VT" />
    <tag k="ref:vcgi:esiteid" v="5401" />
  </node>
  <node id="-289" visible="true" lat="44.79082391" lon="-72.77832523">
    <tag k="addr:housenumber" v="107" />
    <tag k="addr:street" v="Log Cabin Lane" />
    <tag k="addr:state" v="VT" />
    <tag k="ref:vcgi:esiteid" v="5402" />
  </node>
  <node id="-290" visible="true" lat="44.79065784" lon="-72.79847789">
    <tag k="addr:housenumber" v="618" />
    <tag k="addr:street" v="Main Street North" />
    <tag k="addr:state" v="VT" />
    <tag k="ref:vcgi:esiteid" v="5403" />
  </node>
  <node id="-291" visible="true" lat="44.79039938" lon="-72.79845988">
    <tag k="addr:housenumber" v="604" />
    <tag k="addr:street" v="Main Street North" />
    <tag k="addr:state" v="VT" />
    <tag k="ref:vcgi:esiteid" v="5404" />
  </node>
  <node id="-292" visible="true" lat="44.79032474" lon="-72.78127881">
    <tag k="addr:housenumber" v="1663" />
    <tag k="addr:street" v="East Bakersfield Road" />
    <tag k="addr:state" v="VT" />
    <tag k="ref:vcgi:esiteid" v="5405" />
  </node>
  <node id="-293" visible="true" lat="44.7900505" lon="-72.79975128">
    <tag k="addr:housenumber" v="515" />
    <tag k="addr:street" v="Main Street North" />
    <tag k="addr:state" v="VT" />
    <tag k="ref:vcgi:esiteid" v="5407" />
  </node>
  <node id="-294" visible="true" lat="44.79002575" lon="-72.82966784">
    <tag k="addr:housenumber" v="664" />
    <tag k="addr:street" v="Lawyer Road" />
    <tag k="addr:state" v="VT" />
    <tag k="ref:vcgi:esiteid" v="5408" />
  </node>
  <node id="-295" visible="true" lat="44.78993607" lon="-72.79880353">
    <tag k="addr:housenumber" v="568" />
    <tag k="addr:street" v="Main Street North" />
    <tag k="addr:state" v="VT" />
    <tag k="ref:vcgi:esiteid" v="5409" />
  </node>
  <node id="-296" visible="true" lat="44.78971862" lon="-72.80600738">
    <tag k="addr:housenumber" v="4864" />
    <tag k="addr:street" v="Egypt Road" />
    <tag k="addr:state" v="VT" />
    <tag k="ref:vcgi:esiteid" v="5410" />
  </node>
  <node id="-297" visible="true" lat="44.78957748" lon="-72.80406188">
    <tag k="addr:housenumber" v="4951" />
    <tag k="addr:street" v="Egypt Road" />
    <tag k="addr:state" v="VT" />
    <tag k="ref:vcgi:esiteid" v="5411" />
  </node>
  <node id="-298" visible="true" lat="44.78947941" lon="-72.82996949">
    <tag k="addr:housenumber" v="662" />
    <tag k="addr:street" v="Lawyer Road" />
    <tag k="addr:state" v="VT" />
    <tag k="ref:vcgi:esiteid" v="5412" />
  </node>
  <node id="-299" visible="true" lat="44.78953933" lon="-72.7989273">
    <tag k="addr:housenumber" v="536" />
    <tag k="addr:street" v="Main Street North" />
    <tag k="addr:state" v="VT" />
    <tag k="ref:vcgi:esiteid" v="5413" />
  </node>
  <node id="-300" visible="true" lat="44.78956013" lon="-72.79951703">
    <tag k="addr:housenumber" v="513" />
    <tag k="addr:street" v="Main Street North" />
    <tag k="addr:state" v="VT" />
    <tag k="ref:vcgi:esiteid" v="5414" />
  </node>
  <node id="-301" visible="true" lat="44.78951344" lon="-72.82605142">
    <tag k="addr:housenumber" v="484" />
    <tag k="addr:street" v="Lawyer Road" />
    <tag k="addr:state" v="VT" />
    <tag k="ref:vcgi:esiteid" v="5415" />
  </node>
  <node id="-302" visible="true" lat="44.78917345" lon="-72.79907427">
    <tag k="addr:housenumber" v="508" />
    <tag k="addr:street" v="Main Street North" />
    <tag k="addr:state" v="VT" />
    <tag k="ref:vcgi:esiteid" v="5416" />
  </node>
  <node id="-303" visible="true" lat="44.78887127" lon="-72.79103402">
    <tag k="addr:housenumber" v="643" />
    <tag k="addr:street" v="King Road" />
    <tag k="addr:state" v="VT" />
    <tag k="ref:vcgi:esiteid" v="5417" />
  </node>
  <node id="-304" visible="true" lat="44.78881655" lon="-72.79926963">
    <tag k="addr:housenumber" v="484" />
    <tag k="addr:street" v="Main Street North" />
    <tag k="addr:state" v="VT" />
    <tag k="ref:vcgi:esiteid" v="5418" />
  </node>
  <node id="-305" visible="true" lat="44.78878784" lon="-72.82315063">
    <tag k="addr:housenumber" v="343" />
    <tag k="addr:street" v="Lawyer Road" />
    <tag k="addr:state" v="VT" />
    <tag k="ref:vcgi:esiteid" v="5419" />
  </node>
  <node id="-306" visible="true" lat="44.78880309" lon="-72.80378723">
    <tag k="addr:housenumber" v="4992" />
    <tag k="addr:street" v="Egypt Road" />
    <tag k="addr:state" v="VT" />
    <tag k="ref:vcgi:esiteid" v="5420" />
  </node>
  <node id="-307" visible="true" lat="44.78874969" lon="-72.80212402">
    <tag k="addr:housenumber" v="5061" />
    <tag k="addr:street" v="Egypt Road" />
    <tag k="addr:state" v="VT" />
    <tag k="ref:vcgi:esiteid" v="5421" />
  </node>
  <node id="-308" visible="true" lat="44.78879548" lon="-72.84229771">
    <tag k="addr:housenumber" v="1290" />
    <tag k="addr:street" v="Lawyer Road" />
    <tag k="addr:state" v="VT" />
    <tag k="ref:vcgi:esiteid" v="5422" />
  </node>
  <node id="-309" visible="true" lat="44.78866577" lon="-72.82102966">
    <tag k="addr:housenumber" v="211" />
    <tag k="addr:street" v="Lawyer Road" />
    <tag k="addr:state" v="VT" />
    <tag k="ref:vcgi:esiteid" v="5423" />
  </node>
  <node id="-310" visible="true" lat="44.78873283" lon="-72.84116466">
    <tag k="addr:housenumber" v="1230" />
    <tag k="addr:street" v="Lawyer Road" />
    <tag k="addr:state" v="VT" />
    <tag k="ref:vcgi:esiteid" v="5424" />
  </node>
  <node id="-311" visible="true" lat="44.7889073" lon="-72.77843556">
    <tag k="addr:housenumber" v="330" />
    <tag k="addr:street" v="Log Cabin Lane" />
    <tag k="addr:state" v="VT" />
    <tag k="ref:vcgi:esiteid" v="5425" />
  </node>
  <node id="-312" visible="true" lat="44.79008862" lon="-72.80253023">
    <tag k="addr:housenumber" v="5043" />
    <tag k="addr:street" v="Egypt Road" />
    <tag k="addr:state" v="VT" />
    <tag k="ref:vcgi:esiteid" v="5426" />
  </node>
  <node id="-313" visible="true" lat="44.78856277" lon="-72.80197906">
    <tag k="addr:housenumber" v="5077" />
    <tag k="addr:street" v="Egypt Road" />
    <tag k="addr:state" v="VT" />
    <tag k="ref:vcgi:esiteid" v="5427" />
  </node>
  <node id="-314" visible="true" lat="44.78850145" lon="-72.79950534">
    <tag k="addr:housenumber" v="462" />
    <tag k="addr:street" v="Main Street North" />
    <tag k="addr:state" v="VT" />
    <tag k="ref:vcgi:esiteid" v="5429" />
  </node>
  <node id="-315" visible="true" lat="44.7885238" lon="-72.83388609">
    <tag k="addr:housenumber" v="864" />
    <tag k="addr:street" v="Lawyer Road" />
    <tag k="addr:state" v="VT" />
    <tag k="ref:vcgi:esiteid" v="5431" />
  </node>
  <node id="-316" visible="true" lat="44.78898803" lon="-72.78067889">
    <tag k="addr:housenumber" v="1515" />
    <tag k="addr:street" v="East Bakersfield Road" />
    <tag k="addr:state" v="VT" />
    <tag k="ref:vcgi:esiteid" v="5432" />
  </node>
  <node id="-317" visible="true" lat="44.78840433" lon="-72.84636271">
    <tag k="addr:housenumber" v="1498" />
    <tag k="addr:street" v="Lawyer Road" />
    <tag k="addr:state" v="VT" />
    <tag k="ref:vcgi:esiteid" v="5433" />
  </node>
  <node id="-318" visible="true" lat="44.78821963" lon="-72.82779478">
    <tag k="addr:housenumber" v="556" />
    <tag k="addr:street" v="Lawyer Road" />
    <tag k="addr:state" v="VT" />
    <tag k="ref:vcgi:esiteid" v="5434" />
  </node>
  <node id="-319" visible="true" lat="44.78828811" lon="-72.79940796">
    <tag k="addr:housenumber" v="446" />
    <tag k="addr:street" v="Main Street North" />
    <tag k="addr:state" v="VT" />
    <tag k="ref:vcgi:esiteid" v="5435" />
  </node>
  <node id="-320" visible="true" lat="44.788324" lon="-72.80004541">
    <tag k="addr:housenumber" v="425" />
    <tag k="addr:street" v="Main Street North" />
    <tag k="addr:state" v="VT" />
    <tag k="ref:vcgi:esiteid" v="5437" />
  </node>
  <node id="-321" visible="true" lat="44.78813059" lon="-72.80187763">
    <tag k="addr:housenumber" v="5094" />
    <tag k="addr:street" v="Egypt Road" />
    <tag k="addr:state" v="VT" />
    <tag k="ref:vcgi:esiteid" v="5438" />
  </node>
  <node id="-322" visible="true" lat="44.78806123" lon="-72.82685641">
    <tag k="addr:housenumber" v="523" />
    <tag k="addr:street" v="Lawyer Road" />
    <tag k="addr:state" v="VT" />
    <tag k="ref:vcgi:esiteid" v="5439" />
  </node>
  <node id="-323" visible="true" lat="44.78797531" lon="-72.80046844">
    <tag k="addr:housenumber" v="5165" />
    <tag k="addr:street" v="Egypt Road" />
    <tag k="addr:state" v="VT" />
    <tag k="ref:vcgi:esiteid" v="5440" />
  </node>
  <node id="-324" visible="true" lat="44.78815112" lon="-72.80018036">
    <tag k="addr:housenumber" v="409" />
    <tag k="addr:street" v="Main Street North" />
    <tag k="addr:state" v="VT" />
    <tag k="ref:vcgi:esiteid" v="5442" />
  </node>
  <node id="-325" visible="true" lat="44.78792354" lon="-72.79964106">
    <tag k="addr:housenumber" v="418" />
    <tag k="addr:street" v="Main Street North" />
    <tag k="addr:state" v="VT" />
    <tag k="ref:vcgi:esiteid" v="5444" />
  </node>
  <node id="-326" visible="true" lat="44.7878664" lon="-72.82751605">
    <tag k="addr:housenumber" v="565" />
    <tag k="addr:street" v="Lawyer Road" />
    <tag k="addr:state" v="VT" />
    <tag k="ref:vcgi:esiteid" v="5445" />
  </node>
  <node id="-327" visible="true" lat="44.78780365" lon="-72.80142974">
    <tag k="addr:housenumber" v="5116" />
    <tag k="addr:street" v="Egypt Road" />
    <tag k="addr:state" v="VT" />
    <tag k="ref:vcgi:esiteid" v="5446" />
  </node>
  <node id="-328" visible="true" lat="44.78775405" lon="-72.80426025">
    <tag k="addr:housenumber" v="62" />
    <tag k="addr:street" v="Smith Road" />
    <tag k="addr:state" v="VT" />
    <tag k="ref:vcgi:esiteid" v="5447" />
  </node>
  <node id="-329" visible="true" lat="44.7876759" lon="-72.82860399">
    <tag k="addr:housenumber" v="609" />
    <tag k="addr:street" v="Lawyer Road" />
    <tag k="addr:state" v="VT" />
    <tag k="ref:vcgi:esiteid" v="5448" />
  </node>
  <node id="-330" visible="true" lat="44.78767395" lon="-72.80042266">
    <tag k="addr:housenumber" v="5172" />
    <tag k="addr:street" v="Egypt Road" />
    <tag k="addr:state" v="VT" />
    <tag k="ref:vcgi:esiteid" v="5449" />
  </node>
  <node id="-331" visible="true" lat="44.78763961" lon="-72.80381012">
    <tag k="addr:housenumber" v="60" />
    <tag k="addr:street" v="Smith Road" />
    <tag k="addr:state" v="VT" />
    <tag k="ref:vcgi:esiteid" v="5450" />
  </node>
  <node id="-332" visible="true" lat="44.78759433" lon="-72.83663955">
    <tag k="addr:housenumber" v="1005" />
    <tag k="addr:street" v="Lawyer Road" />
    <tag k="addr:state" v="VT" />
    <tag k="ref:vcgi:esiteid" v="5451" />
  </node>
  <node id="-333" visible="true" lat="44.78760389" lon="-72.83000767">
    <tag k="addr:housenumber" v="317" />
    <tag k="addr:street" v="Cross Road" />
    <tag k="addr:state" v="VT" />
    <tag k="ref:vcgi:esiteid" v="5452" />
  </node>
  <node id="-334" visible="true" lat="44.78741808" lon="-72.7995875">
    <tag k="addr:housenumber" v="380" />
    <tag k="addr:street" v="Main Street North" />
    <tag k="addr:state" v="VT" />
    <tag k="ref:vcgi:esiteid" v="5453" />
  </node>
  <node id="-335" visible="true" lat="44.78741093" lon="-72.77232661">
    <tag k="addr:housenumber" v="1047" />
    <tag k="addr:street" v="Basswood Hill Road" />
    <tag k="addr:state" v="VT" />
    <tag k="ref:vcgi:esiteid" v="5454" />
  </node>
  <node id="-336" visible="true" lat="44.78742054" lon="-72.79222913">
    <tag k="addr:housenumber" v="515" />
    <tag k="addr:street" v="King Road" />
    <tag k="addr:state" v="VT" />
    <tag k="ref:vcgi:esiteid" v="5455" />
  </node>
  <node id="-337" visible="true" lat="44.78723581" lon="-72.80292831">
    <tag k="addr:housenumber" v="233" />
    <tag k="addr:street" v="Avenue" />
    <tag k="addr:state" v="VT" />
    <tag k="ref:vcgi:esiteid" v="5456" />
  </node>
  <node id="-338" visible="true" lat="44.78722381" lon="-72.80404662">
    <tag k="addr:housenumber" v="96" />
    <tag k="addr:street" v="Smith Road" />
    <tag k="addr:state" v="VT" />
    <tag k="ref:vcgi:esiteid" v="5457" />
  </node>
  <node id="-339" visible="true" lat="44.78721231" lon="-72.79986097">
    <tag k="addr:housenumber" v="364" />
    <tag k="addr:street" v="Main Street North" />
    <tag k="addr:state" v="VT" />
    <tag k="ref:vcgi:esiteid" v="5458" />
  </node>
  <node id="-340" visible="true" lat="44.78720666" lon="-72.80038494">
    <tag k="addr:housenumber" v="353" />
    <tag k="addr:street" v="Main Street North" />
    <tag k="addr:state" v="VT" />
    <tag k="ref:vcgi:esiteid" v="5459" />
  </node>
  <node id="-341" visible="true" lat="44.78703469" lon="-72.80003613">
    <tag k="addr:housenumber" v="352" />
    <tag k="addr:street" v="Main Street North" />
    <tag k="addr:state" v="VT" />
    <tag k="ref:vcgi:esiteid" v="5460" />
  </node>
  <node id="-342" visible="true" lat="44.78699874" lon="-72.80296325">
    <tag k="addr:housenumber" v="227" />
    <tag k="addr:street" v="Avenue" />
    <tag k="addr:state" v="VT" />
    <tag k="ref:vcgi:esiteid" v="5461" />
  </node>
  <node id="-343" visible="true" lat="44.78702831" lon="-72.82513815">
    <tag k="addr:housenumber" v="449" />
    <tag k="addr:street" v="Lawyer Road" />
    <tag k="addr:state" v="VT" />
    <tag k="ref:vcgi:esiteid" v="5462" />
  </node>
  <node id="-344" visible="true" lat="44.7867734" lon="-72.80010536">
    <tag k="addr:housenumber" v="338" />
    <tag k="addr:street" v="Main Street North" />
    <tag k="addr:state" v="VT" />
    <tag k="ref:vcgi:esiteid" v="5463" />
  </node>
  <node id="-345" visible="true" lat="44.7865715" lon="-72.80293274">
    <tag k="addr:housenumber" v="197" />
    <tag k="addr:street" v="Avenue" />
    <tag k="addr:state" v="VT" />
    <tag k="ref:vcgi:esiteid" v="5465" />
  </node>
  <node id="-346" visible="true" lat="44.78651249" lon="-72.80061545">
    <tag k="addr:housenumber" v="307" />
    <tag k="addr:street" v="Main Street North" />
    <tag k="addr:state" v="VT" />
    <tag k="ref:vcgi:esiteid" v="5466" />
  </node>
  <node id="-347" visible="true" lat="44.7864418" lon="-72.80234527">
    <tag k="addr:housenumber" v="180" />
    <tag k="addr:street" v="Avenue" />
    <tag k="addr:state" v="VT" />
    <tag k="ref:vcgi:esiteid" v="5467" />
  </node>
  <node id="-348" visible="true" lat="44.78632354" lon="-72.79235839">
    <tag k="addr:housenumber" v="423" />
    <tag k="addr:street" v="King Road" />
    <tag k="addr:state" v="VT" />
    <tag k="ref:vcgi:esiteid" v="5468" />
  </node>
  <node id="-349" visible="true" lat="44.78626034" lon="-72.80023436">
    <tag k="addr:housenumber" v="308" />
    <tag k="addr:street" v="Main Street North" />
    <tag k="addr:state" v="VT" />
    <tag k="ref:vcgi:esiteid" v="5469" />
  </node>
  <node id="-350" visible="true" lat="44.78624348" lon="-72.80078948">
    <tag k="addr:housenumber" v="287" />
    <tag k="addr:street" v="Main Street North" />
    <tag k="addr:state" v="VT" />
    <tag k="ref:vcgi:esiteid" v="5470" />
  </node>
  <node id="-351" visible="true" lat="44.78603744" lon="-72.80297851">
    <tag k="addr:housenumber" v="161" />
    <tag k="addr:street" v="Avenue" />
    <tag k="addr:state" v="VT" />
    <tag k="ref:vcgi:esiteid" v="5472" />
  </node>
  <node id="-352" visible="true" lat="44.78599521" lon="-72.80026695">
    <tag k="addr:housenumber" v="278" />
    <tag k="addr:street" v="Main Street North" />
    <tag k="addr:state" v="VT" />
    <tag k="ref:vcgi:esiteid" v="5473" />
  </node>
  <node id="-353" visible="true" lat="44.78577878" lon="-72.80259374">
    <tag k="addr:housenumber" v="142" />
    <tag k="addr:street" v="Avenue" />
    <tag k="addr:state" v="VT" />
    <tag k="ref:vcgi:esiteid" v="5474" />
  </node>
  <node id="-354" visible="true" lat="44.7856516" lon="-72.80016837">
    <tag k="addr:housenumber" v="260" />
    <tag k="addr:street" v="Main Street North" />
    <tag k="addr:state" v="VT" />
    <tag k="ref:vcgi:esiteid" v="5475" />
  </node>
  <node id="-355" visible="true" lat="44.78567504" lon="-72.80094146">
    <tag k="addr:housenumber" v="251" />
    <tag k="addr:street" v="Main Street North" />
    <tag k="addr:state" v="VT" />
    <tag k="ref:vcgi:esiteid" v="5476" />
  </node>
  <node id="-356" visible="true" lat="44.78540801" lon="-72.80096435">
    <tag k="addr:housenumber" v="233" />
    <tag k="addr:street" v="Main Street North" />
    <tag k="addr:state" v="VT" />
    <tag k="ref:vcgi:esiteid" v="5477" />
  </node>
  <node id="-357" visible="true" lat="44.78536224" lon="-72.80271911">
    <tag k="addr:housenumber" v="114" />
    <tag k="addr:street" v="Avenue" />
    <tag k="addr:state" v="VT" />
    <tag k="ref:vcgi:esiteid" v="5478" />
  </node>
  <node id="-358" visible="true" lat="44.78545086" lon="-72.80032119">
    <tag k="addr:housenumber" v="232" />
    <tag k="addr:street" v="Main Street North" />
    <tag k="addr:state" v="VT" />
    <tag k="ref:vcgi:esiteid" v="5479" />
  </node>
  <node id="-359" visible="true" lat="44.78532791" lon="-72.80249786">
    <tag k="addr:housenumber" v="82" />
    <tag k="addr:street" v="Avenue" />
    <tag k="addr:state" v="VT" />
    <tag k="ref:vcgi:esiteid" v="5480" />
  </node>
  <node id="-360" visible="true" lat="44.78525161" lon="-72.80208587">
    <tag k="addr:housenumber" v="62" />
    <tag k="addr:street" v="Avenue" />
    <tag k="addr:state" v="VT" />
    <tag k="ref:vcgi:esiteid" v="5481" />
  </node>
  <node id="-361" visible="true" lat="44.78522566" lon="-72.79181305">
    <tag k="addr:housenumber" v="363" />
    <tag k="addr:street" v="King Road" />
    <tag k="addr:state" v="VT" />
    <tag k="ref:vcgi:esiteid" v="5483" />
  </node>
  <node id="-362" visible="true" lat="44.78518676" lon="-72.80171203">
    <tag k="addr:housenumber" v="42" />
    <tag k="addr:street" v="Avenue" />
    <tag k="addr:state" v="VT" />
    <tag k="ref:vcgi:esiteid" v="5484" />
  </node>
  <node id="-363" visible="true" lat="44.7851181" lon="-72.80117797">
    <tag k="addr:housenumber" v="211" />
    <tag k="addr:street" v="Main Street North" />
    <tag k="addr:state" v="VT" />
    <tag k="ref:vcgi:esiteid" v="5485" />
  </node>
  <node id="-364" visible="true" lat="44.78521729" lon="-72.78259082">
    <tag k="addr:housenumber" v="1241" />
    <tag k="addr:street" v="East Bakersfield Road" />
    <tag k="addr:state" v="VT" />
    <tag k="ref:vcgi:esiteid" v="5486" />
  </node>
  <node id="-365" visible="true" lat="44.78506851" lon="-72.80038452">
    <tag k="addr:housenumber" v="216" />
    <tag k="addr:street" v="Main Street North" />
    <tag k="addr:state" v="VT" />
    <tag k="ref:vcgi:esiteid" v="5487" />
  </node>
  <node id="-366" visible="true" lat="44.7849884" lon="-72.80300903">
    <tag k="addr:housenumber" v="99" />
    <tag k="addr:street" v="Avenue" />
    <tag k="addr:state" v="VT" />
    <tag k="ref:vcgi:esiteid" v="5489" />
  </node>
  <node id="-367" visible="true" lat="44.7848918" lon="-72.80046824">
    <tag k="addr:housenumber" v="206" />
    <tag k="addr:street" v="Main Street North" />
    <tag k="addr:state" v="VT" />
    <tag k="ref:vcgi:esiteid" v="5490" />
  </node>
  <node id="-368" visible="true" lat="44.78482092" lon="-72.84780251">
    <tag k="addr:housenumber" v="1765" />
    <tag k="addr:street" v="Lawyer Road" />
    <tag k="addr:state" v="VT" />
    <tag k="ref:vcgi:esiteid" v="5491" />
  </node>
  <node id="-369" visible="true" lat="44.78477096" lon="-72.80107879">
    <tag k="addr:housenumber" v="189" />
    <tag k="addr:street" v="Main Street North" />
    <tag k="addr:state" v="VT" />
    <tag k="ref:vcgi:esiteid" v="5492" />
  </node>
  <node id="-370" visible="true" lat="44.78459571" lon="-72.80141752">
    <tag k="addr:housenumber" v="181" />
    <tag k="addr:street" v="Main Street North" />
    <tag k="addr:state" v="VT" />
    <tag k="ref:vcgi:esiteid" v="5493" />
  </node>
  <node id="-371" visible="true" lat="44.78465599" lon="-72.80054053">
    <tag k="addr:housenumber" v="186" />
    <tag k="addr:street" v="Main Street North" />
    <tag k="addr:state" v="VT" />
    <tag k="ref:vcgi:esiteid" v="5494" />
  </node>
  <node id="-372" visible="true" lat="44.7845247" lon="-72.8005328">
    <tag k="addr:housenumber" v="176" />
    <tag k="addr:street" v="Main Street North" />
    <tag k="addr:state" v="VT" />
    <tag k="ref:vcgi:esiteid" v="5496" />
  </node>
  <node id="-373" visible="true" lat="44.78434753" lon="-72.80279541">
    <tag k="addr:housenumber" v="82" />
    <tag k="addr:street" v="Academy Lane" />
    <tag k="addr:state" v="VT" />
    <tag k="ref:vcgi:esiteid" v="5497" />
  </node>
  <node id="-374" visible="true" lat="44.78426276" lon="-72.84961344">
    <tag k="addr:housenumber" v="2468" />
    <tag k="addr:street" v="Fairfield Road" />
    <tag k="addr:state" v="VT" />
    <tag k="ref:vcgi:esiteid" v="5498" />
  </node>
  <node id="-375" visible="true" lat="44.78427996" lon="-72.80063645">
    <tag k="addr:housenumber" v="158" />
    <tag k="addr:street" v="Main Street North" />
    <tag k="addr:state" v="VT" />
    <tag k="ref:vcgi:esiteid" v="5499" />
  </node>
  <node id="-376" visible="true" lat="44.78420083" lon="-72.79016529">
    <tag k="addr:housenumber" v="284" />
    <tag k="addr:street" v="King Road" />
    <tag k="addr:state" v="VT" />
    <tag k="ref:vcgi:esiteid" v="5500" />
  </node>
  <node id="-377" visible="true" lat="44.78408319" lon="-72.83487595">
    <tag k="addr:housenumber" v="1721" />
    <tag k="addr:street" v="Fairfield Road" />
    <tag k="addr:state" v="VT" />
    <tag k="ref:vcgi:esiteid" v="5501" />
  </node>
  <node id="-378" visible="true" lat="44.78416507" lon="-72.78148946">
    <tag k="addr:housenumber" v="1202" />
    <tag k="addr:street" v="East Bakersfield Road" />
    <tag k="addr:state" v="VT" />
    <tag k="ref:vcgi:esiteid" v="5502" />
  </node>
  <node id="-379" visible="true" lat="44.78394452" lon="-72.80072317">
    <tag k="addr:housenumber" v="142" />
    <tag k="addr:street" v="Main Street North" />
    <tag k="addr:state" v="VT" />
    <tag k="ref:vcgi:esiteid" v="5503" />
  </node>
  <node id="-380" visible="true" lat="44.78416665" lon="-72.78367223">
    <tag k="addr:housenumber" v="1143" />
    <tag k="addr:street" v="East Bakersfield Road" />
    <tag k="addr:state" v="VT" />
    <tag k="ref:vcgi:esiteid" v="5504" />
  </node>
  <node id="-381" visible="true" lat="44.78374691" lon="-72.80079357">
    <tag k="addr:housenumber" v="116" />
    <tag k="addr:street" v="Main Street North" />
    <tag k="addr:state" v="VT" />
    <tag k="ref:vcgi:esiteid" v="5505" />
  </node>
  <node id="-382" visible="true" lat="44.78372598" lon="-72.79181005">
    <tag k="addr:housenumber" v="263" />
    <tag k="addr:street" v="King Road" />
    <tag k="addr:state" v="VT" />
    <tag k="ref:vcgi:esiteid" v="5506" />
  </node>
  <node id="-383" visible="true" lat="44.78375291" lon="-72.80269242">
    <tag k="addr:housenumber" v="72" />
    <tag k="addr:street" v="Academy Lane" />
    <tag k="addr:state" v="VT" />
    <tag k="ref:vcgi:esiteid" v="5507" />
  </node>
  <node id="-384" visible="true" lat="44.78349787" lon="-72.80086536">
    <tag k="addr:housenumber" v="104" />
    <tag k="addr:street" v="Main Street North" />
    <tag k="addr:state" v="VT" />
    <tag k="ref:vcgi:esiteid" v="5509" />
  </node>
  <node id="-385" visible="true" lat="44.78338066" lon="-72.80342651">
    <tag k="addr:housenumber" v="105" />
    <tag k="addr:street" v="Academy Lane" />
    <tag k="addr:state" v="VT" />
    <tag k="ref:vcgi:esiteid" v="5511" />
  </node>
  <node id="-386" visible="true" lat="44.78338623" lon="-72.80428314">
    <tag k="addr:housenumber" v="10" />
    <tag k="addr:street" v="Meadow Lane" />
    <tag k="addr:state" v="VT" />
    <tag k="ref:vcgi:esiteid" v="5512" />
  </node>
  <node id="-387" visible="true" lat="44.78338713" lon="-72.80379001">
    <tag k="addr:housenumber" v="123" />
    <tag k="addr:street" v="Academy Lane" />
    <tag k="addr:state" v="VT" />
    <tag k="ref:vcgi:esiteid" v="5513" />
  </node>
  <node id="-388" visible="true" lat="44.78329864" lon="-72.80286865">
    <tag k="addr:housenumber" v="77" />
    <tag k="addr:street" v="Academy Lane" />
    <tag k="addr:state" v="VT" />
    <tag k="ref:vcgi:esiteid" v="5514" />
  </node>
  <node id="-389" visible="true" lat="44.78318633" lon="-72.8010189">
    <tag k="addr:housenumber" v="78" />
    <tag k="addr:street" v="Main Street North" />
    <tag k="addr:state" v="VT" />
    <tag k="ref:vcgi:esiteid" v="5516" />
  </node>
  <node id="-390" visible="true" lat="44.78306815" lon="-72.79097284">
    <tag k="addr:housenumber" v="262" />
    <tag k="addr:street" v="King Road" />
    <tag k="addr:state" v="VT" />
    <tag k="ref:vcgi:esiteid" v="5517" />
  </node>
  <node id="-391" visible="true" lat="44.78310034" lon="-72.80149833">
    <tag k="addr:housenumber" v="65" />
    <tag k="addr:street" v="Main Street North" />
    <tag k="addr:state" v="VT" />
    <tag k="ref:vcgi:esiteid" v="5518" />
  </node>
  <node id="-392" visible="true" lat="44.78321374" lon="-72.78429404">
    <tag k="addr:housenumber" v="1071" />
    <tag k="addr:street" v="East Bakersfield Road" />
    <tag k="addr:state" v="VT" />
    <tag k="ref:vcgi:esiteid" v="5519" />
  </node>
  <node id="-393" visible="true" lat="44.78300035" lon="-72.76046627">
    <tag k="addr:housenumber" v="631" />
    <tag k="addr:street" v="Belvidere Mountain Road" />
    <tag k="addr:state" v="VT" />
    <tag k="ref:vcgi:esiteid" v="5520" />
  </node>
  <node id="-394" visible="true" lat="44.78305224" lon="-72.770127">
    <tag k="addr:housenumber" v="157" />
    <tag k="addr:street" v="Belvidere Mountain Road" />
    <tag k="addr:state" v="VT" />
    <tag k="ref:vcgi:esiteid" v="5521" />
  </node>
  <node id="-395" visible="true" lat="44.78281075" lon="-72.76485973">
    <tag k="addr:housenumber" v="443" />
    <tag k="addr:street" v="Belvidere Mountain Road" />
    <tag k="addr:state" v="VT" />
    <tag k="ref:vcgi:esiteid" v="5522" />
  </node>
  <node id="-396" visible="true" lat="44.78223638" lon="-72.80933055">
    <tag k="addr:housenumber" v="486" />
    <tag k="addr:street" v="Fairfield Road" />
    <tag k="addr:state" v="VT" />
    <tag k="ref:vcgi:esiteid" v="5523" />
  </node>
  <node id="-397" visible="true" lat="44.78261749" lon="-72.80168391">
    <tag k="addr:housenumber" v="31" />
    <tag k="addr:street" v="Main Street North" />
    <tag k="addr:state" v="VT" />
    <tag k="ref:vcgi:esiteid" v="5524" />
  </node>
  <node id="-398" visible="true" lat="44.78252278" lon="-72.7659636">
    <tag k="addr:housenumber" v="379" />
    <tag k="addr:street" v="Belvidere Mountain Road" />
    <tag k="addr:state" v="VT" />
    <tag k="ref:vcgi:esiteid" v="5525" />
  </node>
  <node id="-399" visible="true" lat="44.78248183" lon="-72.76271595">
    <tag k="addr:housenumber" v="541" />
    <tag k="addr:street" v="Belvidere Mountain Road" />
    <tag k="addr:state" v="VT" />
    <tag k="ref:vcgi:esiteid" v="5526" />
  </node>
  <node id="-400" visible="true" lat="44.78251601" lon="-72.80295009">
    <tag k="addr:housenumber" v="18" />
    <tag k="addr:street" v="Fairfield Road" />
    <tag k="addr:state" v="VT" />
    <tag k="ref:vcgi:esiteid" v="5527" />
  </node>
  <node id="-401" visible="true" lat="44.78227781" lon="-72.78510631">
    <tag k="addr:housenumber" v="973" />
    <tag k="addr:street" v="East Bakersfield Road" />
    <tag k="addr:state" v="VT" />
    <tag k="ref:vcgi:esiteid" v="5529" />
  </node>
  <node id="-402" visible="true" lat="44.78241401" lon="-72.76751947">
    <tag k="addr:housenumber" v="315" />
    <tag k="addr:street" v="Belvidere Mountain Road" />
    <tag k="addr:state" v="VT" />
    <tag k="ref:vcgi:esiteid" v="5530" />
  </node>
  <node id="-403" visible="true" lat="44.78225787" lon="-72.79163807">
    <tag k="addr:housenumber" v="194" />
    <tag k="addr:street" v="King Road" />
    <tag k="addr:state" v="VT" />
    <tag k="ref:vcgi:esiteid" v="5531" />
  </node>
  <node id="-404" visible="true" lat="44.78242602" lon="-72.80208002">
    <tag k="addr:housenumber" v="4" />
    <tag k="addr:street" v="Fairfield Road" />
    <tag k="addr:state" v="VT" />
    <tag k="ref:vcgi:esiteid" v="5532" />
  </node>
  <node id="-405" visible="true" lat="44.78229437" lon="-72.76676518">
    <tag k="addr:housenumber" v="351" />
    <tag k="addr:street" v="Belvidere Mountain Road" />
    <tag k="addr:state" v="VT" />
    <tag k="ref:vcgi:esiteid" v="5533" />
  </node>
  <node id="-406" visible="true" lat="44.78224867" lon="-72.79328733">
    <tag k="addr:housenumber" v="135" />
    <tag k="addr:street" v="King Road" />
    <tag k="addr:state" v="VT" />
    <tag k="ref:vcgi:esiteid" v="5534" />
  </node>
  <node id="-407" visible="true" lat="44.78182425" lon="-72.80181658">
    <tag k="addr:housenumber" v="8" />
    <tag k="addr:street" v="Vermont Route 108 South" />
    <tag k="addr:state" v="VT" />
    <tag k="ref:vcgi:esiteid" v="5535" />
  </node>
  <node id="-408" visible="true" lat="44.78142485" lon="-72.76514502">
    <tag k="addr:housenumber" v="416" />
    <tag k="addr:street" v="Belvidere Mountain Road" />
    <tag k="addr:state" v="VT" />
    <tag k="ref:vcgi:esiteid" v="5536" />
  </node>
  <node id="-409" visible="true" lat="44.78211273" lon="-72.78505692">
    <tag k="addr:housenumber" v="971" />
    <tag k="addr:street" v="East Bakersfield Road" />
    <tag k="addr:state" v="VT" />
    <tag k="ref:vcgi:esiteid" v="5537" />
  </node>
  <node id="-410" visible="true" lat="44.78197474" lon="-72.77157482">
    <tag k="addr:housenumber" v="115" />
    <tag k="addr:street" v="Belvidere Mountain Road" />
    <tag k="addr:state" v="VT" />
    <tag k="ref:vcgi:esiteid" v="5538" />
  </node>
  <node id="-411" visible="true" lat="44.78177261" lon="-72.80697631">
    <tag k="addr:housenumber" v="326" />
    <tag k="addr:street" v="Fairfield Road" />
    <tag k="addr:state" v="VT" />
    <tag k="ref:vcgi:esiteid" v="5539" />
  </node>
  <node id="-412" visible="true" lat="44.7818835" lon="-72.77434157">
    <tag k="addr:housenumber" v="671" />
    <tag k="addr:street" v="Basswood Hill Road" />
    <tag k="addr:state" v="VT" />
    <tag k="ref:vcgi:esiteid" v="5540" />
  </node>
  <node id="-413" visible="true" lat="44.78187784" lon="-72.76059741">
    <tag k="addr:housenumber" v="669" />
    <tag k="addr:street" v="Belvidere Mountain Road" />
    <tag k="addr:state" v="VT" />
    <tag k="ref:vcgi:esiteid" v="5541" />
  </node>
  <node id="-414" visible="true" lat="44.78172683" lon="-72.80089569">
    <tag k="addr:housenumber" v="40" />
    <tag k="addr:street" v="East Bakersfield Road" />
    <tag k="addr:state" v="VT" />
    <tag k="ref:vcgi:esiteid" v="5542" />
  </node>
  <node id="-415" visible="true" lat="44.7817963" lon="-72.8012794">
    <tag k="addr:housenumber" v="26" />
    <tag k="addr:street" v="East Bakersfield Road" />
    <tag k="addr:state" v="VT" />
    <tag k="ref:vcgi:esiteid" v="5543" />
  </node>
  <node id="-416" visible="true" lat="44.78174016" lon="-72.80065645">
    <tag k="addr:housenumber" v="54" />
    <tag k="addr:street" v="East Bakersfield Road" />
    <tag k="addr:state" v="VT" />
    <tag k="ref:vcgi:esiteid" v="5544" />
  </node>
  <node id="-417" visible="true" lat="44.78167489" lon="-72.80013613">
    <tag k="addr:housenumber" v="80" />
    <tag k="addr:street" v="East Bakersfield Road" />
    <tag k="addr:state" v="VT" />
    <tag k="ref:vcgi:esiteid" v="5547" />
  </node>
  <node id="-418" visible="true" lat="44.78150298" lon="-72.79209846">
    <tag k="addr:housenumber" v="112" />
    <tag k="addr:street" v="King Road" />
    <tag k="addr:state" v="VT" />
    <tag k="ref:vcgi:esiteid" v="5548" />
  </node>
  <node id="-419" visible="true" lat="44.78157951" lon="-72.80204573">
    <tag k="addr:housenumber" v="30" />
    <tag k="addr:street" v="Vermont Route 108 South" />
    <tag k="addr:state" v="VT" />
    <tag k="ref:vcgi:esiteid" v="5549" />
  </node>
  <node id="-420" visible="true" lat="44.78136788" lon="-72.80292013">
    <tag k="addr:housenumber" v="43" />
    <tag k="addr:street" v="Fairfield Road" />
    <tag k="addr:state" v="VT" />
    <tag k="ref:vcgi:esiteid" v="5551" />
  </node>
  <node id="-421" visible="true" lat="44.78126144" lon="-72.80210113">
    <tag k="addr:housenumber" v="56" />
    <tag k="addr:street" v="Vermont Route 108 South" />
    <tag k="addr:state" v="VT" />
    <tag k="ref:vcgi:esiteid" v="5552" />
  </node>
  <node id="-422" visible="true" lat="44.78131777" lon="-72.80143265">
    <tag k="addr:housenumber" v="51" />
    <tag k="addr:street" v="Vermont Route 108 South" />
    <tag k="addr:state" v="VT" />
    <tag k="ref:vcgi:esiteid" v="5553" />
  </node>
  <node id="-423" visible="true" lat="44.78135796" lon="-72.76821313">
    <tag k="addr:housenumber" v="41" />
    <tag k="addr:street" v="Willow Road" />
    <tag k="addr:state" v="VT" />
    <tag k="ref:vcgi:esiteid" v="5554" />
  </node>
  <node id="-424" visible="true" lat="44.78099032" lon="-72.80214692">
    <tag k="addr:housenumber" v="70" />
    <tag k="addr:street" v="Vermont Route 108 South" />
    <tag k="addr:state" v="VT" />
    <tag k="ref:vcgi:esiteid" v="5555" />
  </node>
  <node id="-425" visible="true" lat="44.78110836" lon="-72.81526969">
    <tag k="addr:housenumber" v="30" />
    <tag k="addr:street" v="Cattail Lane" />
    <tag k="addr:state" v="VT" />
    <tag k="ref:vcgi:esiteid" v="5556" />
  </node>
  <node id="-426" visible="true" lat="44.7809256" lon="-72.79239108">
    <tag k="addr:housenumber" v="84" />
    <tag k="addr:street" v="King Road" />
    <tag k="addr:state" v="VT" />
    <tag k="ref:vcgi:esiteid" v="5557" />
  </node>
  <node id="-427" visible="true" lat="44.78086869" lon="-72.8015249">
    <tag k="addr:housenumber" v="83" />
    <tag k="addr:street" v="Vermont Route 108 South" />
    <tag k="addr:state" v="VT" />
    <tag k="ref:vcgi:esiteid" v="5558" />
  </node>
  <node id="-428" visible="true" lat="44.78067947" lon="-72.80222952">
    <tag k="addr:housenumber" v="92" />
    <tag k="addr:street" v="Vermont Route 108 South" />
    <tag k="addr:state" v="VT" />
    <tag k="ref:vcgi:esiteid" v="5560" />
  </node>
  <node id="-429" visible="true" lat="44.78083101" lon="-72.80909247">
    <tag k="addr:housenumber" v="398" />
    <tag k="addr:street" v="Fairfield Road" />
    <tag k="addr:state" v="VT" />
    <tag k="ref:vcgi:esiteid" v="5561" />
  </node>
  <node id="-430" visible="true" lat="44.78073237" lon="-72.80708799">
    <tag k="addr:housenumber" v="298" />
    <tag k="addr:street" v="Fairfield Road" />
    <tag k="addr:state" v="VT" />
    <tag k="ref:vcgi:esiteid" v="5562" />
  </node>
  <node id="-431" visible="true" lat="44.78067224" lon="-72.80849454">
    <tag k="addr:housenumber" v="366" />
    <tag k="addr:street" v="Fairfield Road" />
    <tag k="addr:state" v="VT" />
    <tag k="ref:vcgi:esiteid" v="5563" />
  </node>
  <node id="-432" visible="true" lat="44.78070284" lon="-72.79054633">
    <tag k="addr:housenumber" v="629" />
    <tag k="addr:street" v="East Bakersfield Road" />
    <tag k="addr:state" v="VT" />
    <tag k="ref:vcgi:esiteid" v="5564" />
  </node>
  <node id="-433" visible="true" lat="44.78059675" lon="-72.80166494">
    <tag k="addr:housenumber" v="101" />
    <tag k="addr:street" v="Vermont Route 108 South" />
    <tag k="addr:state" v="VT" />
    <tag k="ref:vcgi:esiteid" v="5565" />
  </node>
  <node id="-434" visible="true" lat="44.78068193" lon="-72.78988119">
    <tag k="addr:housenumber" v="653" />
    <tag k="addr:street" v="East Bakersfield Road" />
    <tag k="addr:state" v="VT" />
    <tag k="ref:vcgi:esiteid" v="5566" />
  </node>
  <node id="-435" visible="true" lat="44.78047935" lon="-72.80227649">
    <tag k="addr:housenumber" v="110" />
    <tag k="addr:street" v="Vermont Route 108 South" />
    <tag k="addr:state" v="VT" />
    <tag k="ref:vcgi:esiteid" v="5567" />
  </node>
  <node id="-436" visible="true" lat="44.78048324" lon="-72.79380798">
    <tag k="addr:housenumber" v="473" />
    <tag k="addr:street" v="East Bakersfield Road" />
    <tag k="addr:state" v="VT" />
    <tag k="ref:vcgi:esiteid" v="5568" />
  </node>
  <node id="-437" visible="true" lat="44.78041968" lon="-72.78736027">
    <tag k="addr:housenumber" v="771" />
    <tag k="addr:street" v="East Bakersfield Road" />
    <tag k="addr:state" v="VT" />
    <tag k="ref:vcgi:esiteid" v="5569" />
  </node>
  <node id="-438" visible="true" lat="44.78054697" lon="-72.789255">
    <tag k="addr:housenumber" v="697" />
    <tag k="addr:street" v="East Bakersfield Road" />
    <tag k="addr:state" v="VT" />
    <tag k="ref:vcgi:esiteid" v="5570" />
  </node>
  <node id="-439" visible="true" lat="44.78032665" lon="-72.80237041">
    <tag k="addr:housenumber" v="120" />
    <tag k="addr:street" v="Vermont Route 108 South" />
    <tag k="addr:state" v="VT" />
    <tag k="ref:vcgi:esiteid" v="5571" />
  </node>
  <node id="-440" visible="true" lat="44.78031647" lon="-72.79837857">
    <tag k="addr:housenumber" v="208" />
    <tag k="addr:street" v="East Bakersfield Road" />
    <tag k="addr:state" v="VT" />
    <tag k="ref:vcgi:esiteid" v="5572" />
  </node>
  <node id="-441" visible="true" lat="44.78026906" lon="-72.79067493">
    <tag k="addr:housenumber" v="620" />
    <tag k="addr:street" v="East Bakersfield Road" />
    <tag k="addr:state" v="VT" />
    <tag k="ref:vcgi:esiteid" v="5575" />
  </node>
  <node id="-442" visible="true" lat="44.78016662" lon="-72.80742645">
    <tag k="addr:housenumber" v="315" />
    <tag k="addr:street" v="Fairfield Road" />
    <tag k="addr:state" v="VT" />
    <tag k="ref:vcgi:esiteid" v="5576" />
  </node>
  <node id="-443" visible="true" lat="44.78017551" lon="-72.79122034">
    <tag k="addr:housenumber" v="16" />
    <tag k="addr:street" v="Trobridge Road" />
    <tag k="addr:state" v="VT" />
    <tag k="ref:vcgi:esiteid" v="5577" />
  </node>
  <node id="-444" visible="true" lat="44.78028016" lon="-72.80182023">
    <tag k="addr:housenumber" v="131" />
    <tag k="addr:street" v="Vermont Route 108 South" />
    <tag k="addr:state" v="VT" />
    <tag k="ref:vcgi:esiteid" v="5579" />
  </node>
  <node id="-445" visible="true" lat="44.78007507" lon="-72.80696105">
    <tag k="addr:housenumber" v="295" />
    <tag k="addr:street" v="Fairfield Road" />
    <tag k="addr:state" v="VT" />
    <tag k="ref:vcgi:esiteid" v="5580" />
  </node>
  <node id="-446" visible="true" lat="44.78005599" lon="-72.80242919">
    <tag k="addr:housenumber" v="142" />
    <tag k="addr:street" v="Vermont Route 108 South" />
    <tag k="addr:state" v="VT" />
    <tag k="ref:vcgi:esiteid" v="5581" />
  </node>
  <node id="-447" visible="true" lat="44.77985312" lon="-72.79113617">
    <tag k="addr:housenumber" v="36" />
    <tag k="addr:street" v="Trobridge Road" />
    <tag k="addr:state" v="VT" />
    <tag k="ref:vcgi:esiteid" v="5582" />
  </node>
  <node id="-448" visible="true" lat="44.77993234" lon="-72.80187092">
    <tag k="addr:housenumber" v="151" />
    <tag k="addr:street" v="Vermont Route 108 South" />
    <tag k="addr:state" v="VT" />
    <tag k="ref:vcgi:esiteid" v="5583" />
  </node>
  <node id="-449" visible="true" lat="44.77992932" lon="-72.79757793">
    <tag k="addr:housenumber" v="29" />
    <tag k="addr:street" v="Kings Hill Road" />
    <tag k="addr:state" v="VT" />
    <tag k="ref:vcgi:esiteid" v="5584" />
  </node>
  <node id="-450" visible="true" lat="44.7800585" lon="-72.76903523">
    <tag k="addr:housenumber" v="143" />
    <tag k="addr:street" v="Willow Road" />
    <tag k="addr:state" v="VT" />
    <tag k="ref:vcgi:esiteid" v="5585" />
  </node>
  <node id="-451" visible="true" lat="44.77970886" lon="-72.81109619">
    <tag k="addr:housenumber" v="503" />
    <tag k="addr:street" v="Fairfield Road" />
    <tag k="addr:state" v="VT" />
    <tag k="ref:vcgi:esiteid" v="5586" />
  </node>
  <node id="-452" visible="true" lat="44.77992942" lon="-72.78826984">
    <tag k="addr:housenumber" v="742" />
    <tag k="addr:street" v="East Bakersfield Road" />
    <tag k="addr:state" v="VT" />
    <tag k="ref:vcgi:esiteid" v="5587" />
  </node>
  <node id="-453" visible="true" lat="44.77968597" lon="-72.80999755">
    <tag k="addr:housenumber" v="453" />
    <tag k="addr:street" v="Fairfield Road" />
    <tag k="addr:state" v="VT" />
    <tag k="ref:vcgi:esiteid" v="5588" />
  </node>
  <node id="-454" visible="true" lat="44.77977848" lon="-72.78896302">
    <tag k="addr:housenumber" v="700" />
    <tag k="addr:street" v="East Bakersfield Road" />
    <tag k="addr:state" v="VT" />
    <tag k="ref:vcgi:esiteid" v="5589" />
  </node>
  <node id="-455" visible="true" lat="44.77979544" lon="-72.81154942">
    <tag k="addr:housenumber" v="505" />
    <tag k="addr:street" v="Fairfield Road" />
    <tag k="addr:state" v="VT" />
    <tag k="ref:vcgi:esiteid" v="5590" />
  </node>
  <node id="-456" visible="true" lat="44.7797578" lon="-72.80793262">
    <tag k="addr:housenumber" v="343" />
    <tag k="addr:street" v="Fairfield Road" />
    <tag k="addr:state" v="VT" />
    <tag k="ref:vcgi:esiteid" v="5591" />
  </node>
  <node id="-457" visible="true" lat="44.7795906" lon="-72.81052398">
    <tag k="addr:housenumber" v="455" />
    <tag k="addr:street" v="Fairfield Road" />
    <tag k="addr:state" v="VT" />
    <tag k="ref:vcgi:esiteid" v="5592" />
  </node>
  <node id="-458" visible="true" lat="44.77951431" lon="-72.80268859">
    <tag k="addr:housenumber" v="182" />
    <tag k="addr:street" v="Vermont Route 108 South" />
    <tag k="addr:state" v="VT" />
    <tag k="ref:vcgi:esiteid" v="5593" />
  </node>
  <node id="-459" visible="true" lat="44.77960108" lon="-72.79029162">
    <tag k="addr:housenumber" v="75" />
    <tag k="addr:street" v="Trobridge Road" />
    <tag k="addr:state" v="VT" />
    <tag k="ref:vcgi:esiteid" v="5594" />
  </node>
  <node id="-460" visible="true" lat="44.77951332" lon="-72.79709412">
    <tag k="addr:housenumber" v="272" />
    <tag k="addr:street" v="East Bakersfield Road" />
    <tag k="addr:state" v="VT" />
    <tag k="ref:vcgi:esiteid" v="5595" />
  </node>
  <node id="-461" visible="true" lat="44.77943801" lon="-72.80194091">
    <tag k="addr:housenumber" v="179" />
    <tag k="addr:street" v="Vermont Route 108 South" />
    <tag k="addr:state" v="VT" />
    <tag k="ref:vcgi:esiteid" v="5596" />
  </node>
  <node id="-462" visible="true" lat="44.77921579" lon="-72.79619249">
    <tag k="addr:housenumber" v="83" />
    <tag k="addr:street" v="Kings Hill Road" />
    <tag k="addr:state" v="VT" />
    <tag k="ref:vcgi:esiteid" v="5597" />
  </node>
  <node id="-463" visible="true" lat="44.77916072" lon="-72.79483413">
    <tag k="addr:housenumber" v="376" />
    <tag k="addr:street" v="East Bakersfield Road" />
    <tag k="addr:state" v="VT" />
    <tag k="ref:vcgi:esiteid" v="5598" />
  </node>
  <node id="-464" visible="true" lat="44.77895216" lon="-72.8029022">
    <tag k="addr:housenumber" v="212" />
    <tag k="addr:street" v="Vermont Route 108 South" />
    <tag k="addr:state" v="VT" />
    <tag k="ref:vcgi:esiteid" v="5600" />
  </node>
  <node id="-465" visible="true" lat="44.77892323" lon="-72.79684511">
    <tag k="addr:housenumber" v="97" />
    <tag k="addr:street" v="Kings Hill Road" />
    <tag k="addr:state" v="VT" />
    <tag k="ref:vcgi:esiteid" v="5601" />
  </node>
  <node id="-466" visible="true" lat="44.77891753" lon="-72.78423519">
    <tag k="addr:housenumber" v="154" />
    <tag k="addr:street" v="Waterville Mountain Road" />
    <tag k="addr:state" v="VT" />
    <tag k="ref:vcgi:esiteid" v="5602" />
  </node>
  <node id="-467" visible="true" lat="44.77876003" lon="-72.80224268">
    <tag k="addr:housenumber" v="231" />
    <tag k="addr:street" v="Vermont Route 108 South" />
    <tag k="addr:state" v="VT" />
    <tag k="ref:vcgi:esiteid" v="5603" />
  </node>
  <node id="-468" visible="true" lat="44.77864223" lon="-72.77711698">
    <tag k="addr:housenumber" v="271" />
    <tag k="addr:street" v="Basswood Hill Road" />
    <tag k="addr:state" v="VT" />
    <tag k="ref:vcgi:esiteid" v="5604" />
  </node>
  <node id="-469" visible="true" lat="44.77834352" lon="-72.80336555">
    <tag k="addr:housenumber" v="26" />
    <tag k="addr:street" v="Sunset View Drive" />
    <tag k="addr:state" v="VT" />
    <tag k="ref:vcgi:esiteid" v="5605" />
  </node>
  <node id="-470" visible="true" lat="44.77825519" lon="-72.78428443">
    <tag k="addr:housenumber" v="44" />
    <tag k="addr:street" v="Waterville Mountain Road" />
    <tag k="addr:state" v="VT" />
    <tag k="ref:vcgi:esiteid" v="5606" />
  </node>
  <node id="-471" visible="true" lat="44.77824298" lon="-72.7900693">
    <tag k="addr:housenumber" v="181" />
    <tag k="addr:street" v="Trobridge Road" />
    <tag k="addr:state" v="VT" />
    <tag k="ref:vcgi:esiteid" v="5607" />
  </node>
  <node id="-472" visible="true" lat="44.77821335" lon="-72.77365596">
    <tag k="addr:housenumber" v="422" />
    <tag k="addr:street" v="Basswood Hill Road" />
    <tag k="addr:state" v="VT" />
    <tag k="ref:vcgi:esiteid" v="5609" />
  </node>
  <node id="-473" visible="true" lat="44.77781163" lon="-72.80378684">
    <tag k="addr:housenumber" v="314" />
    <tag k="addr:street" v="Vermont Route 108 South" />
    <tag k="addr:state" v="VT" />
    <tag k="ref:vcgi:esiteid" v="5610" />
  </node>
  <node id="-474" visible="true" lat="44.77792925" lon="-72.80465074">
    <tag k="addr:housenumber" v="53" />
    <tag k="addr:street" v="Sunset View Drive" />
    <tag k="addr:state" v="VT" />
    <tag k="ref:vcgi:esiteid" v="5611" />
  </node>
  <node id="-475" visible="true" lat="44.77793753" lon="-72.78821122">
    <tag k="addr:housenumber" v="189" />
    <tag k="addr:street" v="Trobridge Road" />
    <tag k="addr:state" v="VT" />
    <tag k="ref:vcgi:esiteid" v="5613" />
  </node>
  <node id="-476" visible="true" lat="44.7771578" lon="-72.77094214">
    <tag k="addr:housenumber" v="298" />
    <tag k="addr:street" v="Willow Road" />
    <tag k="addr:state" v="VT" />
    <tag k="ref:vcgi:esiteid" v="5614" />
  </node>
  <node id="-477" visible="true" lat="44.77778813" lon="-72.77741221">
    <tag k="addr:housenumber" v="268" />
    <tag k="addr:street" v="Basswood Hill Road" />
    <tag k="addr:state" v="VT" />
    <tag k="ref:vcgi:esiteid" v="5615" />
  </node>
  <node id="-478" visible="true" lat="44.77763813" lon="-72.80315246">
    <tag k="addr:housenumber" v="317" />
    <tag k="addr:street" v="Vermont Route 108 South" />
    <tag k="addr:state" v="VT" />
    <tag k="ref:vcgi:esiteid" v="5616" />
  </node>
  <node id="-479" visible="true" lat="44.77749249" lon="-72.79815796">
    <tag k="addr:housenumber" v="189" />
    <tag k="addr:street" v="Kings Hill Road" />
    <tag k="addr:state" v="VT" />
    <tag k="ref:vcgi:esiteid" v="5617" />
  </node>
  <node id="-480" visible="true" lat="44.77713455" lon="-72.80453912">
    <tag k="addr:housenumber" v="368" />
    <tag k="addr:street" v="Vermont Route 108 South" />
    <tag k="addr:state" v="VT" />
    <tag k="ref:vcgi:esiteid" v="5618" />
  </node>
  <node id="-481" visible="true" lat="44.77712631" lon="-72.80371856">
    <tag k="addr:housenumber" v="355" />
    <tag k="addr:street" v="Vermont Route 108 South" />
    <tag k="addr:state" v="VT" />
    <tag k="ref:vcgi:esiteid" v="5619" />
  </node>
  <node id="-482" visible="true" lat="44.77677154" lon="-72.80399322">
    <tag k="addr:housenumber" v="385" />
    <tag k="addr:street" v="Vermont Route 108 South" />
    <tag k="addr:state" v="VT" />
    <tag k="ref:vcgi:esiteid" v="5620" />
  </node>
  <node id="-483" visible="true" lat="44.77646636" lon="-72.80407714">
    <tag k="addr:housenumber" v="417" />
    <tag k="addr:street" v="Vermont Route 108 South" />
    <tag k="addr:state" v="VT" />
    <tag k="ref:vcgi:esiteid" v="5621" />
  </node>
  <node id="-484" visible="true" lat="44.77620487" lon="-72.80433309">
    <tag k="addr:housenumber" v="415" />
    <tag k="addr:street" v="Vermont Route 108 South" />
    <tag k="addr:state" v="VT" />
    <tag k="ref:vcgi:esiteid" v="5622" />
  </node>
  <node id="-485" visible="true" lat="44.77593231" lon="-72.80471801">
    <tag k="addr:housenumber" v="445" />
    <tag k="addr:street" v="Vermont Route 108 South" />
    <tag k="addr:state" v="VT" />
    <tag k="ref:vcgi:esiteid" v="5624" />
  </node>
  <node id="-486" visible="true" lat="44.77587687" lon="-72.77993951">
    <tag k="addr:housenumber" v="427" />
    <tag k="addr:street" v="Waterville Mountain Road" />
    <tag k="addr:state" v="VT" />
    <tag k="ref:vcgi:esiteid" v="5625" />
  </node>
  <node id="-487" visible="true" lat="44.77547583" lon="-72.79741884">
    <tag k="addr:housenumber" v="367" />
    <tag k="addr:street" v="Kings Hill Road" />
    <tag k="addr:state" v="VT" />
    <tag k="ref:vcgi:esiteid" v="5626" />
  </node>
  <node id="-488" visible="true" lat="44.77550666" lon="-72.79656625">
    <tag k="addr:housenumber" v="339" />
    <tag k="addr:street" v="Kings Hill Road" />
    <tag k="addr:state" v="VT" />
    <tag k="ref:vcgi:esiteid" v="5627" />
  </node>
  <node id="-489" visible="true" lat="44.77471525" lon="-72.79788633">
    <tag k="addr:housenumber" v="418" />
    <tag k="addr:street" v="Kings Hill Road" />
    <tag k="addr:state" v="VT" />
    <tag k="ref:vcgi:esiteid" v="5629" />
  </node>
  <node id="-490" visible="true" lat="44.77477805" lon="-72.79037451">
    <tag k="addr:housenumber" v="699" />
    <tag k="addr:street" v="Kings Hill Road" />
    <tag k="addr:state" v="VT" />
    <tag k="ref:vcgi:esiteid" v="5630" />
  </node>
  <node id="-491" visible="true" lat="44.7743721" lon="-72.81018829">
    <tag k="addr:housenumber" v="720" />
    <tag k="addr:street" v="Vermont Route 108 South" />
    <tag k="addr:state" v="VT" />
    <tag k="ref:vcgi:esiteid" v="5631" />
  </node>
  <node id="-492" visible="true" lat="44.77386474" lon="-72.80577087">
    <tag k="addr:housenumber" v="595" />
    <tag k="addr:street" v="Vermont Route 108 South" />
    <tag k="addr:state" v="VT" />
    <tag k="ref:vcgi:esiteid" v="5632" />
  </node>
  <node id="-493" visible="true" lat="44.77406823" lon="-72.78166197">
    <tag k="addr:housenumber" v="567" />
    <tag k="addr:street" v="Waterville Mountain Road" />
    <tag k="addr:state" v="VT" />
    <tag k="ref:vcgi:esiteid" v="5633" />
  </node>
  <node id="-494" visible="true" lat="44.77334571" lon="-72.79925657">
    <tag k="addr:housenumber" v="502" />
    <tag k="addr:street" v="Kings Hill Road" />
    <tag k="addr:state" v="VT" />
    <tag k="ref:vcgi:esiteid" v="5634" />
  </node>
  <node id="-495" visible="true" lat="44.77320748" lon="-72.79721324">
    <tag k="addr:housenumber" v="501" />
    <tag k="addr:street" v="Kings Hill Road" />
    <tag k="addr:state" v="VT" />
    <tag k="ref:vcgi:esiteid" v="5635" />
  </node>
  <node id="-496" visible="true" lat="44.7730666" lon="-72.79786081">
    <tag k="addr:housenumber" v="532" />
    <tag k="addr:street" v="Kings Hill Road" />
    <tag k="addr:state" v="VT" />
    <tag k="ref:vcgi:esiteid" v="5636" />
  </node>
  <node id="-497" visible="true" lat="44.77272911" lon="-72.80697404">
    <tag k="addr:housenumber" v="707" />
    <tag k="addr:street" v="Vermont Route 108 South" />
    <tag k="addr:state" v="VT" />
    <tag k="ref:vcgi:esiteid" v="5637" />
  </node>
  <node id="-498" visible="true" lat="44.77254867" lon="-72.79698944">
    <tag k="addr:housenumber" v="567" />
    <tag k="addr:street" v="Kings Hill Road" />
    <tag k="addr:state" v="VT" />
    <tag k="ref:vcgi:esiteid" v="5639" />
  </node>
  <node id="-499" visible="true" lat="44.77234268" lon="-72.80770874">
    <tag k="addr:housenumber" v="745" />
    <tag k="addr:street" v="Vermont Route 108 South" />
    <tag k="addr:state" v="VT" />
    <tag k="ref:vcgi:esiteid" v="5640" />
  </node>
  <node id="-500" visible="true" lat="44.77241995" lon="-72.79989937">
    <tag k="addr:housenumber" v="516" />
    <tag k="addr:street" v="Kings Hill Road" />
    <tag k="addr:state" v="VT" />
    <tag k="ref:vcgi:esiteid" v="5641" />
  </node>
  <node id="-501" visible="true" lat="44.77226005" lon="-72.79693912">
    <tag k="addr:housenumber" v="591" />
    <tag k="addr:street" v="Kings Hill Road" />
    <tag k="addr:state" v="VT" />
    <tag k="ref:vcgi:esiteid" v="5642" />
  </node>
  <node id="-502" visible="true" lat="44.77233672" lon="-72.79460163">
    <tag k="addr:housenumber" v="543" />
    <tag k="addr:street" v="Kings Hill Road" />
    <tag k="addr:state" v="VT" />
    <tag k="ref:vcgi:esiteid" v="5643" />
  </node>
  <node id="-503" visible="true" lat="44.77198096" lon="-72.79684308">
    <tag k="addr:housenumber" v="615" />
    <tag k="addr:street" v="Kings Hill Road" />
    <tag k="addr:state" v="VT" />
    <tag k="ref:vcgi:esiteid" v="5644" />
  </node>
  <node id="-504" visible="true" lat="44.77175438" lon="-72.78025593">
    <tag k="addr:housenumber" v="757" />
    <tag k="addr:street" v="Waterville Mountain Road" />
    <tag k="addr:state" v="VT" />
    <tag k="ref:vcgi:esiteid" v="5645" />
  </node>
  <node id="-505" visible="true" lat="44.77138024" lon="-72.80726055">
    <tag k="addr:housenumber" v="787" />
    <tag k="addr:street" v="Vermont Route 108 South" />
    <tag k="addr:state" v="VT" />
    <tag k="ref:vcgi:esiteid" v="5646" />
  </node>
  <node id="-506" visible="true" lat="44.77133405" lon="-72.7965974">
    <tag k="addr:housenumber" v="663" />
    <tag k="addr:street" v="Kings Hill Road" />
    <tag k="addr:state" v="VT" />
    <tag k="ref:vcgi:esiteid" v="5647" />
  </node>
  <node id="-507" visible="true" lat="44.77082824" lon="-72.81117248">
    <tag k="addr:housenumber" v="934" />
    <tag k="addr:street" v="Vermont Route 108 South" />
    <tag k="addr:state" v="VT" />
    <tag k="ref:vcgi:esiteid" v="5649" />
  </node>
  <node id="-508" visible="true" lat="44.77044648" lon="-72.81057987">
    <tag k="addr:housenumber" v="40" />
    <tag k="addr:street" v="Dezotelle Road" />
    <tag k="addr:state" v="VT" />
    <tag k="ref:vcgi:esiteid" v="5650" />
  </node>
  <node id="-509" visible="true" lat="44.77063737" lon="-72.78056589">
    <tag k="addr:housenumber" v="817" />
    <tag k="addr:street" v="Waterville Mountain Road" />
    <tag k="addr:state" v="VT" />
    <tag k="ref:vcgi:esiteid" v="5651" />
  </node>
  <node id="-510" visible="true" lat="44.77005386" lon="-72.8086853">
    <tag k="addr:housenumber" v="89" />
    <tag k="addr:street" v="Dezotelle Road" />
    <tag k="addr:state" v="VT" />
    <tag k="ref:vcgi:esiteid" v="5652" />
  </node>
  <node id="-511" visible="true" lat="44.77006555" lon="-72.7958256">
    <tag k="addr:housenumber" v="764" />
    <tag k="addr:street" v="Kings Hill Road" />
    <tag k="addr:state" v="VT" />
    <tag k="ref:vcgi:esiteid" v="5653" />
  </node>
  <node id="-512" visible="true" lat="44.76980328" lon="-72.80975403">
    <tag k="addr:housenumber" v="119" />
    <tag k="addr:street" v="Dezotelle Road" />
    <tag k="addr:state" v="VT" />
    <tag k="ref:vcgi:esiteid" v="5654" />
  </node>
  <node id="-513" visible="true" lat="44.76936143" lon="-72.81063034">
    <tag k="addr:housenumber" v="132" />
    <tag k="addr:street" v="Dezotelle Road" />
    <tag k="addr:state" v="VT" />
    <tag k="ref:vcgi:esiteid" v="5655" />
  </node>
  <node id="-514" visible="true" lat="44.76904678" lon="-72.81008148">
    <tag k="addr:housenumber" v="139" />
    <tag k="addr:street" v="Dezotelle Road" />
    <tag k="addr:state" v="VT" />
    <tag k="ref:vcgi:esiteid" v="5656" />
  </node>
  <node id="-515" visible="true" lat="44.76917144" lon="-72.78121142">
    <tag k="addr:housenumber" v="893" />
    <tag k="addr:street" v="Waterville Mountain Road" />
    <tag k="addr:state" v="VT" />
    <tag k="ref:vcgi:esiteid" v="5657" />
  </node>
  <node id="-516" visible="true" lat="44.76872173" lon="-72.81215488">
    <tag k="addr:housenumber" v="1079" />
    <tag k="addr:street" v="Vermont Route 108 South" />
    <tag k="addr:state" v="VT" />
    <tag k="ref:vcgi:esiteid" v="5658" />
  </node>
  <node id="-517" visible="true" lat="44.76864793" lon="-72.81014246">
    <tag k="addr:housenumber" v="171" />
    <tag k="addr:street" v="Dezotelle Road" />
    <tag k="addr:state" v="VT" />
    <tag k="ref:vcgi:esiteid" v="5659" />
  </node>
  <node id="-518" visible="true" lat="44.76858127" lon="-72.78211957">
    <tag k="addr:housenumber" v="986" />
    <tag k="addr:street" v="Waterville Mountain Road" />
    <tag k="addr:state" v="VT" />
    <tag k="ref:vcgi:esiteid" v="5660" />
  </node>
  <node id="-519" visible="true" lat="44.76814864" lon="-72.81046361">
    <tag k="addr:housenumber" v="202" />
    <tag k="addr:street" v="Dezotelle Road" />
    <tag k="addr:state" v="VT" />
    <tag k="ref:vcgi:esiteid" v="5661" />
  </node>
  <node id="-520" visible="true" lat="44.76784799" lon="-72.81270059">
    <tag k="addr:housenumber" v="1163" />
    <tag k="addr:street" v="Vermont Route 108 South" />
    <tag k="addr:state" v="VT" />
    <tag k="ref:vcgi:esiteid" v="5662" />
  </node>
  <node id="-521" visible="true" lat="44.76752853" lon="-72.78153991">
    <tag k="addr:housenumber" v="1048" />
    <tag k="addr:street" v="Waterville Mountain Road" />
    <tag k="addr:state" v="VT" />
    <tag k="ref:vcgi:esiteid" v="5663" />
  </node>
  <node id="-522" visible="true" lat="44.76739501" lon="-72.79286193">
    <tag k="addr:housenumber" v="81" />
    <tag k="addr:street" v="Abby Lane" />
    <tag k="addr:state" v="VT" />
    <tag k="ref:vcgi:esiteid" v="5664" />
  </node>
  <node id="-523" visible="true" lat="44.76699862" lon="-72.79604164">
    <tag k="addr:housenumber" v="956" />
    <tag k="addr:street" v="Kings Hill Road" />
    <tag k="addr:state" v="VT" />
    <tag k="ref:vcgi:esiteid" v="5665" />
  </node>
  <node id="-524" visible="true" lat="44.76600908" lon="-72.80970833">
    <tag k="addr:housenumber" v="363" />
    <tag k="addr:street" v="Dezotelle Road" />
    <tag k="addr:state" v="VT" />
    <tag k="ref:vcgi:esiteid" v="5666" />
  </node>
  <node id="-525" visible="true" lat="44.76594969" lon="-72.79409183">
    <tag k="addr:housenumber" v="1055" />
    <tag k="addr:street" v="Kings Hill Road" />
    <tag k="addr:state" v="VT" />
    <tag k="ref:vcgi:esiteid" v="5667" />
  </node>
  <node id="-526" visible="true" lat="44.76548231" lon="-72.80972691">
    <tag k="addr:housenumber" v="373" />
    <tag k="addr:street" v="Dezotelle Road" />
    <tag k="addr:state" v="VT" />
    <tag k="ref:vcgi:esiteid" v="5668" />
  </node>
  <node id="-527" visible="true" lat="44.76545333" lon="-72.81393432">
    <tag k="addr:housenumber" v="1313" />
    <tag k="addr:street" v="Vermont Route 108 South" />
    <tag k="addr:state" v="VT" />
    <tag k="ref:vcgi:esiteid" v="5669" />
  </node>
  <node id="-528" visible="true" lat="44.76499938" lon="-72.81387329">
    <tag k="addr:housenumber" v="1357" />
    <tag k="addr:street" v="Vermont Route 108 South" />
    <tag k="addr:state" v="VT" />
    <tag k="ref:vcgi:esiteid" v="5670" />
  </node>
  <node id="-529" visible="true" lat="44.76451848" lon="-72.81515367">
    <tag k="addr:housenumber" v="1376" />
    <tag k="addr:street" v="Vermont Route 108 South" />
    <tag k="addr:state" v="VT" />
    <tag k="ref:vcgi:esiteid" v="5671" />
  </node>
  <node id="-530" visible="true" lat="44.76463946" lon="-72.80878568">
    <tag k="addr:housenumber" v="509" />
    <tag k="addr:street" v="Dezotelle Road" />
    <tag k="addr:state" v="VT" />
    <tag k="ref:vcgi:esiteid" v="5672" />
  </node>
  <node id="-531" visible="true" lat="44.76458358" lon="-72.78031158">
    <tag k="addr:housenumber" v="1244" />
    <tag k="addr:street" v="Waterville Mountain Road" />
    <tag k="addr:state" v="VT" />
    <tag k="ref:vcgi:esiteid" v="5673" />
  </node>
  <node id="-532" visible="true" lat="44.76448974" lon="-72.81423019">
    <tag k="addr:housenumber" v="1405" />
    <tag k="addr:street" v="Vermont Route 108 South" />
    <tag k="addr:state" v="VT" />
    <tag k="ref:vcgi:esiteid" v="5674" />
  </node>
  <node id="-533" visible="true" lat="44.76350952" lon="-72.78039628">
    <tag k="addr:housenumber" v="1328" />
    <tag k="addr:street" v="Waterville Mountain Road" />
    <tag k="addr:state" v="VT" />
    <tag k="ref:vcgi:esiteid" v="5675" />
  </node>
  <node id="-534" visible="true" lat="44.7630574" lon="-72.84651774">
    <tag k="addr:housenumber" v="1615" />
    <tag k="addr:street" v="Whitney Road" />
    <tag k="addr:state" v="VT" />
    <tag k="ref:vcgi:esiteid" v="5676" />
  </node>
  <node id="-535" visible="true" lat="44.76285912" lon="-72.8468246">
    <tag k="addr:housenumber" v="1617" />
    <tag k="addr:street" v="Whitney Road" />
    <tag k="addr:state" v="VT" />
    <tag k="ref:vcgi:esiteid" v="5677" />
  </node>
  <node id="-536" visible="true" lat="44.76310382" lon="-72.79516811">
    <tag k="addr:housenumber" v="1263" />
    <tag k="addr:street" v="Kings Hill Road" />
    <tag k="addr:state" v="VT" />
    <tag k="ref:vcgi:esiteid" v="5678" />
  </node>
  <node id="-537" visible="true" lat="44.76211929" lon="-72.81510162">
    <tag k="addr:housenumber" v="1531" />
    <tag k="addr:street" v="Vermont Route 108 South" />
    <tag k="addr:state" v="VT" />
    <tag k="ref:vcgi:esiteid" v="5679" />
  </node>
  <node id="-538" visible="true" lat="44.76021592" lon="-72.83164998">
    <tag k="addr:housenumber" v="738" />
    <tag k="addr:street" v="Whitney Road" />
    <tag k="addr:state" v="VT" />
    <tag k="ref:vcgi:esiteid" v="5680" />
  </node>
  <node id="-539" visible="true" lat="44.7600298" lon="-72.82199312">
    <tag k="addr:housenumber" v="222" />
    <tag k="addr:street" v="Whitney Road" />
    <tag k="addr:state" v="VT" />
    <tag k="ref:vcgi:esiteid" v="5681" />
  </node>
  <node id="-540" visible="true" lat="44.75970077" lon="-72.83088684">
    <tag k="addr:housenumber" v="678" />
    <tag k="addr:street" v="Whitney Road" />
    <tag k="addr:state" v="VT" />
    <tag k="ref:vcgi:esiteid" v="5682" />
  </node>
  <node id="-541" visible="true" lat="44.75989491" lon="-72.79685377">
    <tag k="addr:housenumber" v="1510" />
    <tag k="addr:street" v="Kings Hill Road" />
    <tag k="addr:state" v="VT" />
    <tag k="ref:vcgi:esiteid" v="5683" />
  </node>
  <node id="-542" visible="true" lat="44.75777265" lon="-72.81860667">
    <tag k="addr:housenumber" v="1911" />
    <tag k="addr:street" v="Vermont Route 108 South" />
    <tag k="addr:state" v="VT" />
    <tag k="ref:vcgi:esiteid" v="5684" />
  </node>
  <node id="-543" visible="true" lat="44.75633798" lon="-72.81978632">
    <tag k="addr:housenumber" v="5" />
    <tag k="addr:street" v="Bernor Road" />
    <tag k="addr:state" v="VT" />
    <tag k="ref:vcgi:esiteid" v="5685" />
  </node>
  <node id="-544" visible="true" lat="44.75574084" lon="-72.81995823">
    <tag k="addr:housenumber" v="49" />
    <tag k="addr:street" v="Bernor Road" />
    <tag k="addr:state" v="VT" />
    <tag k="ref:vcgi:esiteid" v="5686" />
  </node>
  <node id="-545" visible="true" lat="44.75582078" lon="-72.79716334">
    <tag k="addr:housenumber" v="1797" />
    <tag k="addr:street" v="Kings Hill Road" />
    <tag k="addr:state" v="VT" />
    <tag k="ref:vcgi:esiteid" v="5687" />
  </node>
  <node id="-546" visible="true" lat="44.75495265" lon="-72.82277688">
    <tag k="addr:housenumber" v="2188" />
    <tag k="addr:street" v="Vermont Route 108 South" />
    <tag k="addr:state" v="VT" />
    <tag k="ref:vcgi:esiteid" v="5688" />
  </node>
  <node id="-547" visible="true" lat="44.75506962" lon="-72.79761066">
    <tag k="addr:housenumber" v="1827" />
    <tag k="addr:street" v="Kings Hill Road" />
    <tag k="addr:state" v="VT" />
    <tag k="ref:vcgi:esiteid" v="5689" />
  </node>
  <node id="-548" visible="true" lat="44.75417709" lon="-72.85534667">
    <tag k="addr:housenumber" v="743" />
    <tag k="addr:street" v="Lost Nation Road" />
    <tag k="addr:state" v="VT" />
    <tag k="ref:vcgi:esiteid" v="5690" />
  </node>
  <node id="-549" visible="true" lat="44.75400136" lon="-72.82250683">
    <tag k="addr:housenumber" v="2220" />
    <tag k="addr:street" v="Vermont Route 108 South" />
    <tag k="addr:state" v="VT" />
    <tag k="ref:vcgi:esiteid" v="5691" />
  </node>
  <node id="-550" visible="true" lat="44.75387906" lon="-72.79826275">
    <tag k="addr:housenumber" v="1911" />
    <tag k="addr:street" v="Kings Hill Road" />
    <tag k="addr:state" v="VT" />
    <tag k="ref:vcgi:esiteid" v="5692" />
  </node>
  <node id="-551" visible="true" lat="44.75254058" lon="-72.83874511">
    <tag k="addr:housenumber" v="1935" />
    <tag k="addr:street" v="Lost Nation Road" />
    <tag k="addr:state" v="VT" />
    <tag k="ref:vcgi:esiteid" v="5693" />
  </node>
  <node id="-552" visible="true" lat="44.7533974" lon="-72.78207668">
    <tag k="addr:housenumber" v="2152" />
    <tag k="addr:street" v="Waterville Mountain Road" />
    <tag k="addr:state" v="VT" />
    <tag k="ref:vcgi:esiteid" v="5694" />
  </node>
  <node id="-553" visible="true" lat="44.75169752" lon="-72.79964996">
    <tag k="addr:housenumber" v="2078" />
    <tag k="addr:street" v="Kings Hill Road" />
    <tag k="addr:state" v="VT" />
    <tag k="ref:vcgi:esiteid" v="5695" />
  </node>
  <node id="-554" visible="true" lat="44.75158777" lon="-72.83676741">
    <tag k="addr:housenumber" v="2012" />
    <tag k="addr:street" v="Lost Nation Road" />
    <tag k="addr:state" v="VT" />
    <tag k="ref:vcgi:esiteid" v="5696" />
  </node>
  <node id="-555" visible="true" lat="44.75132739" lon="-72.83689171">
    <tag k="addr:housenumber" v="2014" />
    <tag k="addr:street" v="Lost Nation Road" />
    <tag k="addr:state" v="VT" />
    <tag k="ref:vcgi:esiteid" v="5697" />
  </node>
  <node id="-556" visible="true" lat="44.75091135" lon="-72.84039307">
    <tag k="addr:housenumber" v="1823" />
    <tag k="addr:street" v="Lost Nation Road" />
    <tag k="addr:state" v="VT" />
    <tag k="ref:vcgi:esiteid" v="5698" />
  </node>
  <node id="-557" visible="true" lat="44.75100702" lon="-72.82983657">
    <tag k="addr:housenumber" v="2397" />
    <tag k="addr:street" v="Lost Nation Road" />
    <tag k="addr:state" v="VT" />
    <tag k="ref:vcgi:esiteid" v="5699" />
  </node>
  <node id="-558" visible="true" lat="44.75073994" lon="-72.8291607">
    <tag k="addr:housenumber" v="2407" />
    <tag k="addr:street" v="Lost Nation Road" />
    <tag k="addr:state" v="VT" />
    <tag k="ref:vcgi:esiteid" v="5700" />
  </node>
  <node id="-559" visible="true" lat="44.75061798" lon="-72.84429931">
    <tag k="addr:housenumber" v="1598" />
    <tag k="addr:street" v="Lost Nation Road" />
    <tag k="addr:state" v="VT" />
    <tag k="ref:vcgi:esiteid" v="5701" />
  </node>
  <node id="-560" visible="true" lat="44.74981689" lon="-72.82311248">
    <tag k="addr:housenumber" v="2375" />
    <tag k="addr:street" v="Vermont Route 108 South" />
    <tag k="addr:state" v="VT" />
    <tag k="ref:vcgi:esiteid" v="5702" />
  </node>
  <node id="-561" visible="true" lat="44.74952337" lon="-72.85642456">
    <tag k="addr:housenumber" v="260" />
    <tag k="addr:street" v="Cassel Road" />
    <tag k="addr:state" v="VT" />
    <tag k="ref:vcgi:esiteid" v="5703" />
  </node>
  <node id="-562" visible="true" lat="44.74901962" lon="-72.85055541">
    <tag k="addr:housenumber" v="1232" />
    <tag k="addr:street" v="Lost Nation Road" />
    <tag k="addr:state" v="VT" />
    <tag k="ref:vcgi:esiteid" v="5704" />
  </node>
  <node id="-563" visible="true" lat="44.74875812" lon="-72.85113805">
    <tag k="addr:housenumber" v="1234" />
    <tag k="addr:street" v="Lost Nation Road" />
    <tag k="addr:state" v="VT" />
    <tag k="ref:vcgi:esiteid" v="5705" />
  </node>
  <node id="-564" visible="true" lat="44.74828179" lon="-72.82639516">
    <tag k="addr:housenumber" v="2628" />
    <tag k="addr:street" v="Lost Nation Road" />
    <tag k="addr:state" v="VT" />
    <tag k="ref:vcgi:esiteid" v="5706" />
  </node>
  <node id="-565" visible="true" lat="44.74823999" lon="-72.78021774">
    <tag k="addr:housenumber" v="2351" />
    <tag k="addr:street" v="Waterville Mountain Road" />
    <tag k="addr:state" v="VT" />
    <tag k="ref:vcgi:esiteid" v="5707" />
  </node>
  <node id="-566" visible="true" lat="44.74786377" lon="-72.82315063">
    <tag k="addr:housenumber" v="2657" />
    <tag k="addr:street" v="Vermont Route 108 South" />
    <tag k="addr:state" v="VT" />
    <tag k="ref:vcgi:esiteid" v="5708" />
  </node>
  <node id="-567" visible="true" lat="44.74715406" lon="-72.82118048">
    <tag k="addr:housenumber" v="119" />
    <tag k="addr:street" v="Old Stage Coach Road" />
    <tag k="addr:state" v="VT" />
    <tag k="ref:vcgi:esiteid" v="5709" />
  </node>
  <node id="-568" visible="true" lat="44.74680709" lon="-72.85456085">
    <tag k="addr:housenumber" v="472" />
    <tag k="addr:street" v="Cassel Road" />
    <tag k="addr:state" v="VT" />
    <tag k="ref:vcgi:esiteid" v="5710" />
  </node>
  <node id="-569" visible="true" lat="44.74613571" lon="-72.82307434">
    <tag k="addr:housenumber" v="13" />
    <tag k="addr:street" v="Gambler Road" />
    <tag k="addr:state" v="VT" />
    <tag k="ref:vcgi:esiteid" v="5711" />
  </node>
  <node id="-570" visible="true" lat="44.74558806" lon="-72.82273745">
    <tag k="addr:housenumber" v="55" />
    <tag k="addr:street" v="Gambler Road" />
    <tag k="addr:state" v="VT" />
    <tag k="ref:vcgi:esiteid" v="5712" />
  </node>
  <node id="-571" visible="true" lat="44.74478119" lon="-72.82245704">
    <tag k="addr:housenumber" v="113" />
    <tag k="addr:street" v="Gambler Road" />
    <tag k="addr:state" v="VT" />
    <tag k="ref:vcgi:esiteid" v="5713" />
  </node>
  <node id="-572" visible="true" lat="44.74101954" lon="-72.82470188">
    <tag k="addr:housenumber" v="3140" />
    <tag k="addr:street" v="Vermont Route 108 South" />
    <tag k="addr:state" v="VT" />
    <tag k="ref:vcgi:esiteid" v="5714" />
  </node>
  <node id="-573" visible="true" lat="44.74042545" lon="-72.82354451">
    <tag k="addr:housenumber" v="3193" />
    <tag k="addr:street" v="Vermont Route 108 South" />
    <tag k="addr:state" v="VT" />
    <tag k="ref:vcgi:esiteid" v="5715" />
  </node>
  <node id="-574" visible="true" lat="44.73968548" lon="-72.82515763">
    <tag k="addr:housenumber" v="3248" />
    <tag k="addr:street" v="Vermont Route 108 South" />
    <tag k="addr:state" v="VT" />
    <tag k="ref:vcgi:esiteid" v="5716" />
  </node>
  <node id="-575" visible="true" lat="44.73560714" lon="-72.82115936">
    <tag k="addr:housenumber" v="3601" />
    <tag k="addr:street" v="Vermont Route 108 South" />
    <tag k="addr:state" v="VT" />
    <tag k="ref:vcgi:esiteid" v="5717" />
  </node>
  <node id="-576" visible="true" lat="44.73497" lon="-72.82712035">
    <tag k="addr:housenumber" v="309" />
    <tag k="addr:street" v="Jordan Road" />
    <tag k="addr:state" v="VT" />
    <tag k="ref:vcgi:esiteid" v="5718" />
  </node>
  <node id="-577" visible="true" lat="44.73386118" lon="-72.82809417">
    <tag k="addr:housenumber" v="384" />
    <tag k="addr:street" v="Jordan Road" />
    <tag k="addr:state" v="VT" />
    <tag k="ref:vcgi:esiteid" v="5719" />
  </node>
  <node id="-578" visible="true" lat="44.83679325" lon="-72.75365806">
    <tag k="addr:housenumber" v="638" />
    <tag k="addr:street" v="Butternut Hollow Road" />
    <tag k="addr:state" v="VT" />
    <tag k="ref:vcgi:esiteid" v="5720" />
  </node>
  <node id="-579" visible="true" lat="44.76239198" lon="-72.85356363">
    <tag k="addr:housenumber" v="145" />
    <tag k="addr:street" v="Lost Nation Road" />
    <tag k="addr:state" v="VT" />
    <tag k="ref:vcgi:esiteid" v="5721" />
  </node>
  <node id="-580" visible="true" lat="44.76036451" lon="-72.85431194">
    <tag k="addr:housenumber" v="355" />
    <tag k="addr:street" v="Lost Nation Road" />
    <tag k="addr:state" v="VT" />
    <tag k="ref:vcgi:esiteid" v="5722" />
  </node>
  <node id="-581" visible="true" lat="44.83467919" lon="-72.77177861">
    <tag k="addr:housenumber" v="6000" />
    <tag k="addr:street" v="Boston Post Road" />
    <tag k="addr:state" v="VT" />
    <tag k="ref:vcgi:esiteid" v="5723" />
  </node>
  <node id="-582" visible="true" lat="44.83432283" lon="-72.77040034">
    <tag k="addr:housenumber" v="6001" />
    <tag k="addr:street" v="Boston Post Road" />
    <tag k="addr:state" v="VT" />
    <tag k="ref:vcgi:esiteid" v="5724" />
  </node>
  <node id="-583" visible="true" lat="44.83097076" lon="-72.77402496">
    <tag k="addr:housenumber" v="6401" />
    <tag k="addr:street" v="Boston Post Road" />
    <tag k="addr:state" v="VT" />
    <tag k="ref:vcgi:esiteid" v="5725" />
  </node>
  <node id="-584" visible="true" lat="44.82898352" lon="-72.77802433">
    <tag k="addr:housenumber" v="6610" />
    <tag k="addr:street" v="Boston Post Road" />
    <tag k="addr:state" v="VT" />
    <tag k="ref:vcgi:esiteid" v="5726" />
  </node>
  <node id="-585" visible="true" lat="44.82855079" lon="-72.77777571">
    <tag k="addr:housenumber" v="6627" />
    <tag k="addr:street" v="Boston Post Road" />
    <tag k="addr:state" v="VT" />
    <tag k="ref:vcgi:esiteid" v="5727" />
  </node>
  <node id="-586" visible="true" lat="44.81409454" lon="-72.78393554">
    <tag k="addr:housenumber" v="7705" />
    <tag k="addr:street" v="Boston Post Road" />
    <tag k="addr:state" v="VT" />
    <tag k="ref:vcgi:esiteid" v="5728" />
  </node>
  <node id="-587" visible="true" lat="44.80985669" lon="-72.7846196">
    <tag k="addr:housenumber" v="8025" />
    <tag k="addr:street" v="Boston Post Road" />
    <tag k="addr:state" v="VT" />
    <tag k="ref:vcgi:esiteid" v="5729" />
  </node>
  <node id="-588" visible="true" lat="44.80717874" lon="-72.78544204">
    <tag k="addr:housenumber" v="8185" />
    <tag k="addr:street" v="Boston Post Road" />
    <tag k="addr:state" v="VT" />
    <tag k="ref:vcgi:esiteid" v="5730" />
  </node>
  <node id="-589" visible="true" lat="44.79033418" lon="-72.8141486">
    <tag k="addr:housenumber" v="65" />
    <tag k="addr:street" v="Doane Road" />
    <tag k="addr:state" v="VT" />
    <tag k="ref:vcgi:esiteid" v="5731" />
  </node>
  <node id="-590" visible="true" lat="44.78263215" lon="-72.81597548">
    <tag k="addr:housenumber" v="111" />
    <tag k="addr:street" v="Cattail Lane" />
    <tag k="addr:state" v="VT" />
    <tag k="ref:vcgi:esiteid" v="5732" />
  </node>
  <node id="-591" visible="true" lat="44.78192416" lon="-72.8110643">
    <tag k="addr:housenumber" v="488" />
    <tag k="addr:street" v="Fairfield Road" />
    <tag k="addr:state" v="VT" />
    <tag k="ref:vcgi:esiteid" v="5733" />
  </node>
  <node id="-592" visible="true" lat="44.79515306" lon="-72.79604617">
    <tag k="addr:housenumber" v="952" />
    <tag k="addr:street" v="Main Street North" />
    <tag k="addr:state" v="VT" />
    <tag k="ref:vcgi:esiteid" v="5735" />
  </node>
  <node id="-593" visible="true" lat="44.82571968" lon="-72.77974355">
    <tag k="addr:housenumber" v="6875" />
    <tag k="addr:street" v="Boston Post Road" />
    <tag k="addr:state" v="VT" />
    <tag k="ref:vcgi:esiteid" v="5739" />
  </node>
  <node id="-594" visible="true" lat="44.81529878" lon="-72.78272326">
    <tag k="addr:housenumber" v="7595" />
    <tag k="addr:street" v="Boston Post Road" />
    <tag k="addr:state" v="VT" />
    <tag k="ref:vcgi:esiteid" v="5740" />
  </node>
  <node id="-595" visible="true" lat="44.77049675" lon="-72.79715557">
    <tag k="addr:housenumber" v="688" />
    <tag k="addr:street" v="Kings Hill Road" />
    <tag k="addr:state" v="VT" />
    <tag k="ref:vcgi:esiteid" v="5741" />
  </node>
  <node id="-596" visible="true" lat="44.77182931" lon="-72.79773836">
    <tag k="addr:housenumber" v="614" />
    <tag k="addr:street" v="Kings Hill Road" />
    <tag k="addr:state" v="VT" />
    <tag k="ref:vcgi:esiteid" v="5742" />
  </node>
  <node id="-597" visible="true" lat="44.83735151" lon="-72.81949316">
    <tag k="addr:housenumber" v="215" />
    <tag k="addr:street" v="Jones Road" />
    <tag k="addr:state" v="VT" />
    <tag k="ref:vcgi:esiteid" v="5743" />
  </node>
  <node id="-598" visible="true" lat="44.83247965" lon="-72.79386032">
    <tag k="addr:housenumber" v="479" />
    <tag k="addr:street" v="Hennessey Road" />
    <tag k="addr:state" v="VT" />
    <tag k="ref:vcgi:esiteid" v="5744" />
  </node>
  <node id="-599" visible="true" lat="44.82385968" lon="-72.78120518">
    <tag k="addr:housenumber" v="7011" />
    <tag k="addr:street" v="Boston Post Road" />
    <tag k="addr:state" v="VT" />
    <tag k="ref:vcgi:esiteid" v="5745" />
  </node>
  <node id="-600" visible="true" lat="44.81901223" lon="-72.78519981">
    <tag k="addr:housenumber" v="7380" />
    <tag k="addr:street" v="Boston Post Road" />
    <tag k="addr:state" v="VT" />
    <tag k="ref:vcgi:esiteid" v="5746" />
  </node>
  <node id="-601" visible="true" lat="44.82129711" lon="-72.78611486">
    <tag k="addr:housenumber" v="97" />
    <tag k="addr:street" v="Birch Way" />
    <tag k="addr:state" v="VT" />
    <tag k="ref:vcgi:esiteid" v="5747" />
  </node>
  <node id="-602" visible="true" lat="44.82133882" lon="-72.78821498">
    <tag k="addr:housenumber" v="131" />
    <tag k="addr:street" v="Birch Way" />
    <tag k="addr:state" v="VT" />
    <tag k="ref:vcgi:esiteid" v="5748" />
  </node>
  <node id="-603" visible="true" lat="44.82189505" lon="-72.78981252">
    <tag k="addr:housenumber" v="300" />
    <tag k="addr:street" v="Birch Way" />
    <tag k="addr:state" v="VT" />
    <tag k="ref:vcgi:esiteid" v="5749" />
  </node>
  <node id="-604" visible="true" lat="44.77221003" lon="-72.79766885">
    <tag k="addr:housenumber" v="602" />
    <tag k="addr:street" v="Kings Hill Road" />
    <tag k="addr:state" v="VT" />
    <tag k="ref:vcgi:esiteid" v="5750" />
  </node>
  <node id="-605" visible="true" lat="44.77890428" lon="-72.78745988">
    <tag k="addr:housenumber" v="38" />
    <tag k="addr:street" v="Waterville Mountain Road" />
    <tag k="addr:state" v="VT" />
    <tag k="ref:vcgi:esiteid" v="5751" />
  </node>
  <node id="-606" visible="true" lat="44.758559" lon="-72.81501937">
    <tag k="addr:housenumber" v="1703" />
    <tag k="addr:street" v="Vermont Route 108 South" />
    <tag k="addr:state" v="VT" />
    <tag k="ref:vcgi:esiteid" v="5752" />
  </node>
  <node id="-607" visible="true" lat="44.78049348" lon="-72.78523088">
    <tag k="addr:housenumber" v="802" />
    <tag k="addr:street" v="East Bakersfield Road" />
    <tag k="addr:state" v="VT" />
    <tag k="ref:vcgi:esiteid" v="5753" />
  </node>
  <node id="-608" visible="true" lat="44.82866106" lon="-72.81419889">
    <tag k="addr:housenumber" v="1696" />
    <tag k="addr:street" v="County Road" />
    <tag k="addr:state" v="VT" />
    <tag k="ref:vcgi:esiteid" v="5754" />
  </node>
  <node id="-609" visible="true" lat="44.8258878" lon="-72.81184505">
    <tag k="addr:housenumber" v="1700" />
    <tag k="addr:street" v="County Road" />
    <tag k="addr:state" v="VT" />
    <tag k="ref:vcgi:esiteid" v="5755" />
  </node>
  <node id="-610" visible="true" lat="44.82146233" lon="-72.75510858">
    <tag k="addr:housenumber" v="1408" />
    <tag k="addr:street" v="Witchcat Road" />
    <tag k="addr:state" v="VT" />
    <tag k="ref:vcgi:esiteid" v="5756" />
  </node>
  <node id="-611" visible="true" lat="44.83019739" lon="-72.79111634">
    <tag k="addr:housenumber" v="672" />
    <tag k="addr:street" v="Hennessey Road" />
    <tag k="addr:state" v="VT" />
    <tag k="ref:vcgi:esiteid" v="5757" />
  </node>
  <node id="-612" visible="true" lat="44.83548412" lon="-72.79037856">
    <tag k="addr:housenumber" v="609" />
    <tag k="addr:street" v="Hennessey Road" />
    <tag k="addr:state" v="VT" />
    <tag k="ref:vcgi:esiteid" v="5758" />
  </node>
  <node id="-613" visible="true" lat="44.78130926" lon="-72.79302461">
    <tag k="addr:housenumber" v="63" />
    <tag k="addr:street" v="King Road" />
    <tag k="addr:state" v="VT" />
    <tag k="ref:vcgi:esiteid" v="5759" />
  </node>
  <node id="-614" visible="true" lat="44.83321007" lon="-72.75834416">
    <tag k="addr:housenumber" v="2463" />
    <tag k="addr:street" v="Witchcat Road" />
    <tag k="addr:state" v="VT" />
    <tag k="ref:vcgi:esiteid" v="5760" />
  </node>
  <node id="-615" visible="true" lat="44.83347263" lon="-72.75763195">
    <tag k="addr:housenumber" v="2461" />
    <tag k="addr:street" v="Witchcat Road" />
    <tag k="addr:state" v="VT" />
    <tag k="ref:vcgi:esiteid" v="5761" />
  </node>
  <node id="-616" visible="true" lat="44.81427886" lon="-72.78899151">
    <tag k="addr:housenumber" v="7672" />
    <tag k="addr:street" v="Boston Post Road" />
    <tag k="addr:state" v="VT" />
    <tag k="ref:vcgi:esiteid" v="5762" />
  </node>
  <node id="-617" visible="true" lat="44.81650199" lon="-72.7581555">
    <tag k="addr:housenumber" v="903" />
    <tag k="addr:street" v="Witchcat Road" />
    <tag k="addr:state" v="VT" />
    <tag k="ref:vcgi:esiteid" v="5763" />
  </node>
  <node id="-618" visible="true" lat="44.81085597" lon="-72.73622653">
    <tag k="addr:housenumber" v="323" />
    <tag k="addr:street" v="Barnes Road" />
    <tag k="addr:state" v="VT" />
    <tag k="ref:vcgi:esiteid" v="5764" />
  </node>
  <node id="-619" visible="true" lat="44.81221794" lon="-72.7276598">
    <tag k="addr:housenumber" v="301" />
    <tag k="addr:street" v="Cook Brook Road" />
    <tag k="addr:state" v="VT" />
    <tag k="ref:vcgi:esiteid" v="5765" />
  </node>
  <node id="-620" visible="true" lat="44.76224924" lon="-72.78013667">
    <tag k="addr:housenumber" v="1412" />
    <tag k="addr:street" v="Waterville Mountain Road" />
    <tag k="addr:state" v="VT" />
    <tag k="ref:vcgi:esiteid" v="5766" />
  </node>
  <node id="-621" visible="true" lat="44.76908071" lon="-72.79226172">
    <tag k="addr:housenumber" v="890" />
    <tag k="addr:street" v="Kings Hill Road" />
    <tag k="addr:state" v="VT" />
    <tag k="ref:vcgi:esiteid" v="5767" />
  </node>
  <node id="-622" visible="true" lat="44.82094092" lon="-72.7278">
    <tag k="addr:housenumber" v="5321" />
    <tag k="addr:street" v="East Bakersfield Road" />
    <tag k="addr:state" v="VT" />
    <tag k="ref:vcgi:esiteid" v="5768" />
  </node>
  <node id="-623" visible="true" lat="44.83598167" lon="-72.8219731">
    <tag k="addr:housenumber" v="401" />
    <tag k="addr:street" v="Jones Road" />
    <tag k="addr:state" v="VT" />
    <tag k="ref:vcgi:esiteid" v="5771" />
  </node>
  <node id="-624" visible="true" lat="44.78547865" lon="-72.79031355">
    <tag k="addr:housenumber" v="430" />
    <tag k="addr:street" v="King Road" />
    <tag k="addr:state" v="VT" />
    <tag k="ref:vcgi:esiteid" v="5773" />
  </node>
  <node id="-625" visible="true" lat="44.79586898" lon="-72.79083424">
    <tag k="addr:housenumber" v="1111" />
    <tag k="addr:street" v="King Road" />
    <tag k="addr:state" v="VT" />
    <tag k="ref:vcgi:esiteid" v="5774" />
  </node>
  <node id="-626" visible="true" lat="44.79473052" lon="-72.7689377">
    <tag k="addr:housenumber" v="1480" />
    <tag k="addr:street" v="Basswood Hill Road" />
    <tag k="addr:state" v="VT" />
    <tag k="ref:vcgi:esiteid" v="5775" />
  </node>
  <node id="-627" visible="true" lat="44.82473687" lon="-72.78006698">
    <tag k="addr:housenumber" v="6895" />
    <tag k="addr:street" v="Boston Post Road" />
    <tag k="addr:state" v="VT" />
    <tag k="ref:vcgi:esiteid" v="5776" />
  </node>
  <node id="-628" visible="true" lat="44.8081131" lon="-72.78503432">
    <tag k="addr:housenumber" v="8115" />
    <tag k="addr:street" v="Boston Post Road" />
    <tag k="addr:state" v="VT" />
    <tag k="ref:vcgi:esiteid" v="5777" />
  </node>
  <node id="-629" visible="true" lat="44.77361236" lon="-72.78724693">
    <tag k="addr:housenumber" v="680" />
    <tag k="addr:street" v="Waterville Mountain Road" />
    <tag k="addr:state" v="VT" />
    <tag k="ref:vcgi:esiteid" v="5778" />
  </node>
  <node id="-630" visible="true" lat="44.79688351" lon="-72.78558054">
    <tag k="addr:housenumber" v="1320" />
    <tag k="addr:street" v="King Road" />
    <tag k="addr:state" v="VT" />
    <tag k="ref:vcgi:esiteid" v="5779" />
  </node>
  <node id="-631" visible="true" lat="44.79820352" lon="-72.78659882">
    <tag k="addr:housenumber" v="1390" />
    <tag k="addr:street" v="King Road" />
    <tag k="addr:state" v="VT" />
    <tag k="ref:vcgi:esiteid" v="5780" />
  </node>
  <node id="-632" visible="true" lat="44.83636818" lon="-72.75229926">
    <tag k="addr:housenumber" v="695" />
    <tag k="addr:street" v="Butternut Hollow Road" />
    <tag k="addr:state" v="VT" />
    <tag k="ref:vcgi:esiteid" v="5781" />
  </node>
  <node id="-633" visible="true" lat="44.79017195" lon="-72.84877419">
    <tag k="addr:housenumber" v="1452" />
    <tag k="addr:street" v="Lawyer Road" />
    <tag k="addr:state" v="VT" />
    <tag k="ref:vcgi:esiteid" v="5782" />
  </node>
  <node id="-634" visible="true" lat="44.77994026" lon="-72.80847375">
    <tag k="addr:housenumber" v="395" />
    <tag k="addr:street" v="Fairfield Road" />
    <tag k="addr:state" v="VT" />
    <tag k="ref:vcgi:esiteid" v="5783" />
  </node>
  <node id="-635" visible="true" lat="44.77969475" lon="-72.80946168">
    <tag k="addr:housenumber" v="405" />
    <tag k="addr:street" v="Fairfield Road" />
    <tag k="addr:state" v="VT" />
    <tag k="ref:vcgi:esiteid" v="5784" />
  </node>
  <node id="-636" visible="true" lat="44.75892516" lon="-72.81537793">
    <tag k="addr:housenumber" v="1701" />
    <tag k="addr:street" v="Vermont Route 108 South" />
    <tag k="addr:state" v="VT" />
    <tag k="ref:vcgi:esiteid" v="5785" />
  </node>
  <node id="-637" visible="true" lat="44.74559495" lon="-72.82382835">
    <tag k="addr:housenumber" v="2760" />
    <tag k="addr:street" v="Vermont Route 108 South" />
    <tag k="addr:state" v="VT" />
    <tag k="ref:vcgi:esiteid" v="5786" />
  </node>
  <node id="-638" visible="true" lat="44.79076786" lon="-72.78149952">
    <tag k="addr:housenumber" v="1667" />
    <tag k="addr:street" v="East Bakersfield Road" />
    <tag k="addr:state" v="VT" />
    <tag k="ref:vcgi:esiteid" v="5787" />
  </node>
  <node id="-639" visible="true" lat="44.79940079" lon="-72.79438432">
    <tag k="addr:housenumber" v="1285" />
    <tag k="addr:street" v="Main Street North" />
    <tag k="addr:state" v="VT" />
    <tag k="ref:vcgi:esiteid" v="5789" />
  </node>
  <node id="-640" visible="true" lat="44.80173669" lon="-72.79182754">
    <tag k="addr:housenumber" v="1465" />
    <tag k="addr:street" v="Main Street North" />
    <tag k="addr:state" v="VT" />
    <tag k="ref:vcgi:esiteid" v="5790" />
  </node>
  <node id="-641" visible="true" lat="44.76357662" lon="-72.85311626">
    <tag k="addr:housenumber" v="95" />
    <tag k="addr:street" v="Lost Nation Road" />
    <tag k="addr:state" v="VT" />
    <tag k="ref:vcgi:esiteid" v="5791" />
  </node>
  <node id="-642" visible="true" lat="44.78654254" lon="-72.79030195">
    <tag k="addr:housenumber" v="434" />
    <tag k="addr:street" v="King Road" />
    <tag k="addr:state" v="VT" />
    <tag k="ref:vcgi:esiteid" v="5792" />
  </node>
  <node id="-643" visible="true" lat="44.79181218" lon="-72.79958691">
    <tag k="addr:housenumber" v="191" />
    <tag k="addr:street" v="Kimberly Hill Farm Road" />
    <tag k="addr:state" v="VT" />
    <tag k="ref:vcgi:esiteid" v="5793" />
  </node>
  <node id="-644" visible="true" lat="44.76450463" lon="-72.77745313">
    <tag k="addr:housenumber" v="1331" />
    <tag k="addr:street" v="Waterville Mountain Road" />
    <tag k="addr:state" v="VT" />
    <tag k="ref:vcgi:esiteid" v="5794" />
  </node>
  <node id="-645" visible="true" lat="44.83439156" lon="-72.80178845">
    <tag k="addr:housenumber" v="249" />
    <tag k="addr:street" v="Ovitt Road" />
    <tag k="addr:state" v="VT" />
    <tag k="ref:vcgi:esiteid" v="5795" />
  </node>
  <node id="-646" visible="true" lat="44.82481197" lon="-72.80626625">
    <tag k="addr:housenumber" v="340" />
    <tag k="addr:street" v="Pudvah Hill Road" />
    <tag k="addr:state" v="VT" />
    <tag k="ref:vcgi:esiteid" v="5796" />
  </node>
  <node id="-647" visible="true" lat="44.82785046" lon="-72.78036907">
    <tag k="addr:housenumber" v="6710" />
    <tag k="addr:street" v="Boston Post Road" />
    <tag k="addr:state" v="VT" />
    <tag k="ref:vcgi:esiteid" v="5797" />
  </node>
  <node id="-648" visible="true" lat="44.81682928" lon="-72.83034408">
    <tag k="addr:housenumber" v="551" />
    <tag k="addr:street" v="County Road" />
    <tag k="addr:state" v="VT" />
    <tag k="ref:vcgi:esiteid" v="5800" />
  </node>
  <node id="-649" visible="true" lat="44.82197377" lon="-72.74129328">
    <tag k="addr:housenumber" v="651" />
    <tag k="addr:street" v="Joyal Road" />
    <tag k="addr:state" v="VT" />
    <tag k="ref:vcgi:esiteid" v="5801" />
  </node>
  <node id="-650" visible="true" lat="44.79333945" lon="-72.81950132">
    <tag k="addr:housenumber" v="4076" />
    <tag k="addr:street" v="Egypt Road" />
    <tag k="addr:state" v="VT" />
    <tag k="ref:vcgi:esiteid" v="5802" />
  </node>
  <node id="-651" visible="true" lat="44.80135903" lon="-72.79483549">
    <tag k="addr:housenumber" v="1327" />
    <tag k="addr:street" v="Main Street North" />
    <tag k="addr:state" v="VT" />
    <tag k="ref:vcgi:esiteid" v="5803" />
  </node>
  <node id="-652" visible="true" lat="44.78883568" lon="-72.776944">
    <tag k="addr:housenumber" v="381" />
    <tag k="addr:street" v="Log Cabin Lane" />
    <tag k="addr:state" v="VT" />
    <tag k="ref:vcgi:esiteid" v="5804" />
  </node>
  <node id="-653" visible="true" lat="44.80157752" lon="-72.77353859">
    <tag k="addr:housenumber" v="2445" />
    <tag k="addr:street" v="East Bakersfield Road" />
    <tag k="addr:state" v="VT" />
    <tag k="ref:vcgi:esiteid" v="5805" />
  </node>
  <node id="-654" visible="true" lat="44.78828523" lon="-72.80074771">
    <tag k="addr:housenumber" v="5139" />
    <tag k="addr:street" v="Egypt Road" />
    <tag k="addr:state" v="VT" />
    <tag k="ref:vcgi:esiteid" v="5806" />
  </node>
  <node id="-655" visible="true" lat="44.76154675" lon="-72.8425684">
    <tag k="addr:housenumber" v="1447" />
    <tag k="addr:street" v="Whitney Road" />
    <tag k="addr:state" v="VT" />
    <tag k="ref:vcgi:esiteid" v="5807" />
  </node>
  <node id="-656" visible="true" lat="44.75055641" lon="-72.83978484">
    <tag k="addr:housenumber" v="1826" />
    <tag k="addr:street" v="Lost Nation Road" />
    <tag k="addr:state" v="VT" />
    <tag k="ref:vcgi:esiteid" v="5808" />
  </node>
  <node id="-657" visible="true" lat="44.76344124" lon="-72.81882235">
    <tag k="addr:housenumber" v="54" />
    <tag k="addr:street" v="Whitney Road" />
    <tag k="addr:state" v="VT" />
    <tag k="ref:vcgi:esiteid" v="5809" />
  </node>
  <node id="-658" visible="true" lat="44.79485839" lon="-72.79507499">
    <tag k="addr:housenumber" v="124" />
    <tag k="addr:street" v="Paradis Lane" />
    <tag k="addr:state" v="VT" />
    <tag k="ref:vcgi:esiteid" v="5810" />
  </node>
  <node id="-659" visible="true" lat="44.79551702" lon="-72.79535182">
    <tag k="addr:housenumber" v="32" />
    <tag k="addr:street" v="Paradis Lane" />
    <tag k="addr:state" v="VT" />
    <tag k="ref:vcgi:esiteid" v="5811" />
  </node>
  <node id="-660" visible="true" lat="44.79561014" lon="-72.7943691">
    <tag k="addr:housenumber" v="73" />
    <tag k="addr:street" v="Paradis Lane" />
    <tag k="addr:state" v="VT" />
    <tag k="ref:vcgi:esiteid" v="5812" />
  </node>
  <node id="-661" visible="true" lat="44.79496316" lon="-72.79400582">
    <tag k="addr:housenumber" v="97" />
    <tag k="addr:street" v="Paradis Lane" />
    <tag k="addr:state" v="VT" />
    <tag k="ref:vcgi:esiteid" v="5813" />
  </node>
  <node id="-662" visible="true" lat="44.82179002" lon="-72.79318526">
    <tag k="addr:housenumber" v="2979" />
    <tag k="addr:street" v="Main Street North" />
    <tag k="addr:state" v="VT" />
    <tag k="ref:vcgi:esiteid" v="5814" />
  </node>
  <node id="-663" visible="true" lat="44.82702437" lon="-72.77747491">
    <tag k="addr:housenumber" v="48" />
    <tag k="addr:street" v="Deer Valley Drive" />
    <tag k="addr:state" v="VT" />
    <tag k="ref:vcgi:esiteid" v="5815" />
  </node>
  <node id="-664" visible="true" lat="44.76273782" lon="-72.84870438">
    <tag k="addr:housenumber" v="1749" />
    <tag k="addr:street" v="Whitney Road" />
    <tag k="addr:state" v="VT" />
    <tag k="ref:vcgi:esiteid" v="5816" />
  </node>
  <node id="-665" visible="true" lat="44.82806943" lon="-72.77632688">
    <tag k="addr:housenumber" v="49" />
    <tag k="addr:street" v="Deer Valley Drive" />
    <tag k="addr:state" v="VT" />
    <tag k="ref:vcgi:esiteid" v="5817" />
  </node>
  <node id="-666" visible="true" lat="44.78134952" lon="-72.81246762">
    <tag k="addr:housenumber" v="604" />
    <tag k="addr:street" v="Fairfield Road" />
    <tag k="addr:state" v="VT" />
    <tag k="ref:vcgi:esiteid" v="5818" />
  </node>
  <node id="-667" visible="true" lat="44.78234237" lon="-72.80175671">
    <tag k="addr:housenumber" v="3" />
    <tag k="addr:street" v="Main Street North" />
    <tag k="addr:state" v="VT" />
    <tag k="ref:vcgi:esiteid" v="5819" />
  </node>
  <node id="-668" visible="true" lat="44.82388261" lon="-72.80127839">
    <tag k="addr:housenumber" v="203" />
    <tag k="addr:street" v="Pudvah Hill Road" />
    <tag k="addr:state" v="VT" />
    <tag k="ref:vcgi:esiteid" v="5820" />
  </node>
  <node id="-669" visible="true" lat="44.83388677" lon="-72.75025235">
    <tag k="addr:housenumber" v="1600" />
    <tag k="addr:street" v="Joyal Road" />
    <tag k="addr:state" v="VT" />
    <tag k="ref:vcgi:esiteid" v="5821" />
  </node>
  <node id="-670" visible="true" lat="44.82988731" lon="-72.74958273">
    <tag k="addr:housenumber" v="1302" />
    <tag k="addr:street" v="Joyal Road" />
    <tag k="addr:state" v="VT" />
    <tag k="ref:vcgi:esiteid" v="5822" />
  </node>
  <node id="-671" visible="true" lat="44.78725286" lon="-72.79025699">
    <tag k="addr:housenumber" v="540" />
    <tag k="addr:street" v="King Road" />
    <tag k="addr:state" v="VT" />
    <tag k="ref:vcgi:esiteid" v="5824" />
  </node>
  <node id="-672" visible="true" lat="44.78573878" lon="-72.80034613">
    <tag k="addr:housenumber" v="266" />
    <tag k="addr:street" v="Main Street North" />
    <tag k="addr:state" v="VT" />
    <tag k="ref:vcgi:esiteid" v="5826" />
  </node>
  <node id="-673" visible="true" lat="44.76275647" lon="-72.7953802">
    <tag k="addr:housenumber" v="1273" />
    <tag k="addr:street" v="Kings Hill Road" />
    <tag k="addr:state" v="VT" />
    <tag k="ref:vcgi:esiteid" v="5827" />
  </node>
  <node id="-675" visible="true" lat="44.83821797" lon="-72.7691749">
    <tag k="addr:housenumber" v="5760" />
    <tag k="addr:street" v="Boston Post Road" />
    <tag k="addr:state" v="VT" />
    <tag k="ref:vcgi:esiteid" v="5829" />
  </node>
  <node id="-676" visible="true" lat="44.78350667" lon="-72.85204338">
    <tag k="addr:housenumber" v="2580" />
    <tag k="addr:street" v="Fairfield Road" />
    <tag k="addr:state" v="VT" />
    <tag k="ref:vcgi:esiteid" v="105072" />
  </node>
  <node id="-677" visible="true" lat="44.78356552" lon="-72.85003662">
    <tag k="addr:housenumber" v="2489" />
    <tag k="addr:street" v="Fairfield Road" />
    <tag k="addr:state" v="VT" />
    <tag k="ref:vcgi:esiteid" v="105074" />
  </node>
  <node id="-678" visible="true" lat="44.79092406" lon="-72.82194769">
    <tag k="addr:housenumber" v="208" />
    <tag k="addr:street" v="Lawyer Road" />
    <tag k="addr:state" v="VT" />
    <tag k="ref:vcgi:esiteid" v="305444" />
  </node>
  <node id="-679" visible="true" lat="44.79726802" lon="-72.77590198">
    <tag k="addr:housenumber" v="2168" />
    <tag k="addr:street" v="East Bakersfield Road" />
    <tag k="addr:state" v="VT" />
    <tag k="ref:vcgi:esiteid" v="305445" />
  </node>
  <node id="-680" visible="true" lat="44.76811765" lon="-72.81619163">
    <tag k="addr:housenumber" v="1200" />
    <tag k="addr:street" v="Vermont Route 108 South" />
    <tag k="addr:state" v="VT" />
    <tag k="ref:vcgi:esiteid" v="305446" />
  </node>
  <node id="-681" visible="true" lat="44.7869115" lon="-72.77853395">
    <tag k="addr:housenumber" v="400" />
    <tag k="addr:street" v="Log Cabin Lane" />
    <tag k="addr:state" v="VT" />
    <tag k="ref:vcgi:esiteid" v="306136" />
  </node>
  <node id="-682" visible="true" lat="44.78298968" lon="-72.80407033">
    <tag k="addr:housenumber" v="35" />
    <tag k="addr:street" v="Meadow Lane" />
    <tag k="addr:state" v="VT" />
    <tag k="ref:vcgi:esiteid" v="306899" />
  </node>
  <node id="-683" visible="true" lat="44.82383392" lon="-72.75618008">
    <tag k="addr:housenumber" v="1505" />
    <tag k="addr:street" v="Witchcat Road" />
    <tag k="addr:state" v="VT" />
    <tag k="ref:vcgi:esiteid" v="306900" />
  </node>
  <node id="-684" visible="true" lat="44.73857961" lon="-72.8242137">
    <tag k="addr:housenumber" v="3275" />
    <tag k="addr:street" v="Vermont Route 108 South" />
    <tag k="addr:state" v="VT" />
    <tag k="ref:vcgi:esiteid" v="308688" />
  </node>
  <node id="-685" visible="true" lat="44.79340495" lon="-72.77818956">
    <tag k="addr:housenumber" v="1900" />
    <tag k="addr:street" v="East Bakersfield Road" />
    <tag k="addr:state" v="VT" />
    <tag k="ref:vcgi:esiteid" v="308689" />
  </node>
  <node id="-686" visible="true" lat="44.81488329" lon="-72.73729223">
    <tag k="addr:housenumber" v="32" />
    <tag k="addr:street" v="Barnes Road" />
    <tag k="addr:state" v="VT" />
    <tag k="ref:vcgi:esiteid" v="312529" />
  </node>
  <node id="-687" visible="true" lat="44.8176119" lon="-72.72886721">
    <tag k="addr:housenumber" v="4984" />
    <tag k="addr:street" v="East Bakersfield Road" />
    <tag k="addr:state" v="VT" />
    <tag k="ref:vcgi:esiteid" v="312530" />
  </node>
  <node id="-688" visible="true" lat="44.81149671" lon="-72.74845491">
    <tag k="addr:housenumber" v="3991" />
    <tag k="addr:street" v="East Bakersfield Road" />
    <tag k="addr:state" v="VT" />
    <tag k="ref:vcgi:esiteid" v="312531" />
  </node>
  <node id="-689" visible="true" lat="44.80157129" lon="-72.76813479">
    <tag k="addr:housenumber" v="2902" />
    <tag k="addr:street" v="East Bakersfield Road" />
    <tag k="addr:state" v="VT" />
    <tag k="ref:vcgi:esiteid" v="312532" />
  </node>
  <node id="-690" visible="true" lat="44.82538935" lon="-72.72114787">
    <tag k="addr:housenumber" v="5833" />
    <tag k="addr:street" v="East Bakersfield Road" />
    <tag k="addr:state" v="VT" />
    <tag k="ref:vcgi:esiteid" v="312533" />
  </node>
  <node id="-691" visible="true" lat="44.78009912" lon="-72.77415953">
    <tag k="addr:housenumber" v="501" />
    <tag k="addr:street" v="Basswood Hill Road" />
    <tag k="addr:state" v="VT" />
    <tag k="ref:vcgi:esiteid" v="312534" />
  </node>
  <node id="-692" visible="true" lat="44.83566523" lon="-72.83956476">
    <tag k="addr:housenumber" v="5591" />
    <tag k="addr:street" v="Chester A Arthur Road" />
    <tag k="addr:state" v="VT" />
    <tag k="ref:vcgi:esiteid" v="312536" />
  </node>
  <node id="-693" visible="true" lat="44.81923431" lon="-72.75531785">
    <tag k="addr:housenumber" v="1202" />
    <tag k="addr:street" v="Witchcat Road" />
    <tag k="addr:state" v="VT" />
    <tag k="ref:vcgi:esiteid" v="312537" />
  </node>
  <node id="-694" visible="true" lat="44.83020949" lon="-72.79004894">
    <tag k="addr:housenumber" v="663" />
    <tag k="addr:street" v="Hennessey Road" />
    <tag k="addr:state" v="VT" />
    <tag k="ref:vcgi:esiteid" v="312539" />
  </node>
  <node id="-695" visible="true" lat="44.776941" lon="-72.7967316">
    <tag k="addr:housenumber" v="279" />
    <tag k="addr:street" v="Kings Hill Road" />
    <tag k="addr:state" v="VT" />
    <tag k="ref:vcgi:esiteid" v="312540" />
  </node>
  <node id="-696" visible="true" lat="44.78769699" lon="-72.77769286">
    <tag k="addr:housenumber" v="389" />
    <tag k="addr:street" v="Log Cabin Lane" />
    <tag k="addr:state" v="VT" />
    <tag k="ref:vcgi:esiteid" v="312541" />
  </node>
  <node id="-697" visible="true" lat="44.80377452" lon="-72.82015658">
    <tag k="addr:housenumber" v="53" />
    <tag k="addr:street" v="Fox Haven Lane" />
    <tag k="addr:state" v="VT" />
    <tag k="ref:vcgi:esiteid" v="312542" />
  </node>
  <node id="-698" visible="true" lat="44.80301351" lon="-72.8201631">
    <tag k="addr:housenumber" v="50" />
    <tag k="addr:street" v="Fox Haven Lane" />
    <tag k="addr:state" v="VT" />
    <tag k="ref:vcgi:esiteid" v="312544" />
  </node>
  <node id="-699" visible="true" lat="44.77931939" lon="-72.80379933">
    <tag k="addr:housenumber" v="128" />
    <tag k="addr:street" v="Sunset View Drive" />
    <tag k="addr:state" v="VT" />
    <tag k="ref:vcgi:esiteid" v="313742" />
  </node>
  <node id="-700" visible="true" lat="44.77975261" lon="-72.80382176">
    <tag k="addr:housenumber" v="134" />
    <tag k="addr:street" v="Sunset View Drive" />
    <tag k="addr:state" v="VT" />
    <tag k="ref:vcgi:esiteid" v="313743" />
  </node>
  <node id="-701" visible="true" lat="44.77972899" lon="-72.80471502">
    <tag k="addr:housenumber" v="150" />
    <tag k="addr:street" v="Sunset View Drive" />
    <tag k="addr:state" v="VT" />
    <tag k="ref:vcgi:esiteid" v="313744" />
  </node>
  <node id="-702" visible="true" lat="44.82581691" lon="-72.79907796">
    <tag k="addr:housenumber" v="3420" />
    <tag k="addr:street" v="Main Street North" />
    <tag k="addr:state" v="VT" />
    <tag k="ref:vcgi:esiteid" v="313745" />
  </node>
  <node id="-703" visible="true" lat="44.76555048" lon="-72.79333554">
    <tag k="addr:housenumber" v="50" />
    <tag k="addr:street" v="Abby Lane" />
    <tag k="addr:state" v="VT" />
    <tag k="ref:vcgi:esiteid" v="313746" />
  </node>
  <node id="-704" visible="true" lat="44.74753829" lon="-72.79585335">
    <tag k="addr:housenumber" v="2523" />
    <tag k="addr:street" v="Kings Hill Road" />
    <tag k="addr:state" v="VT" />
    <tag k="ref:vcgi:esiteid" v="315574" />
  </node>
  <node id="-705" visible="true" lat="44.83475423" lon="-72.83950994">
    <tag k="addr:housenumber" v="5580" />
    <tag k="addr:street" v="Chester A Arthur Road" />
    <tag k="addr:state" v="VT" />
    <tag k="ref:vcgi:esiteid" v="317763" />
  </node>
  <node id="-706" visible="true" lat="44.76680516" lon="-72.79078458">
    <tag k="addr:housenumber" v="250" />
    <tag k="addr:street" v="Abby Lane" />
    <tag k="addr:state" v="VT" />
    <tag k="ref:vcgi:esiteid" v="318019" />
  </node>
  <node id="-707" visible="true" lat="44.8232223" lon="-72.80521774">
    <tag k="addr:housenumber" v="397" />
    <tag k="addr:street" v="Pudvah Hill Road" />
    <tag k="addr:state" v="VT" />
    <tag k="ref:vcgi:esiteid" v="324352" />
  </node>
  <node id="-708" visible="true" lat="44.78357427" lon="-72.84609464">
    <tag k="addr:housenumber" v="97" />
    <tag k="addr:street" v="Old Creamery Drive" />
    <tag k="addr:state" v="VT" />
    <tag k="ref:vcgi:esiteid" v="325225" />
  </node>
  <node id="-709" visible="true" lat="44.78326057" lon="-72.84788636">
    <tag k="addr:housenumber" v="100" />
    <tag k="addr:street" v="Old Creamery Drive" />
    <tag k="addr:state" v="VT" />
    <tag k="ref:vcgi:esiteid" v="325226" />
  </node>
  <node id="-710" visible="true" lat="44.83561898" lon="-72.80395598">
    <tag k="addr:housenumber" v="120" />
    <tag k="addr:street" v="Ovitt Road" />
    <tag k="addr:state" v="VT" />
    <tag k="ref:vcgi:esiteid" v="325288" />
  </node>
  <node id="-711" visible="true" lat="44.81304157" lon="-72.7379379">
    <tag k="addr:housenumber" v="150" />
    <tag k="addr:street" v="Barnes Road" />
    <tag k="addr:state" v="VT" />
    <tag k="ref:vcgi:esiteid" v="326206" />
  </node>
  <node id="-712" visible="true" lat="44.7822792" lon="-72.75833956">
    <tag k="addr:housenumber" v="789" />
    <tag k="addr:street" v="Belvidere Mountain Road" />
    <tag k="addr:state" v="VT" />
    <tag k="ref:vcgi:esiteid" v="326483" />
  </node>
  <node id="-713" visible="true" lat="44.7741814" lon="-72.80767253">
    <tag k="addr:housenumber" v="598" />
    <tag k="addr:street" v="Vermont Route 108 South" />
    <tag k="addr:state" v="VT" />
    <tag k="ref:vcgi:esiteid" v="326835" />
  </node>
  <node id="-714" visible="true" lat="44.78677137" lon="-72.80422788">
    <tag k="addr:housenumber" v="126" />
    <tag k="addr:street" v="Smith Road" />
    <tag k="addr:state" v="VT" />
    <tag k="ref:vcgi:esiteid" v="328125" />
  </node>
  <node id="-715" visible="true" lat="44.78476893" lon="-72.79788448">
    <tag k="addr:housenumber" v="204" />
    <tag k="addr:street" v="Main Street North" />
    <tag k="addr:state" v="VT" />
    <tag k="ref:vcgi:esiteid" v="328126" />
  </node>
  <node id="-716" visible="true" lat="44.80660626" lon="-72.78681467">
    <tag k="addr:housenumber" v="8246" />
    <tag k="addr:street" v="Boston Post Road" />
    <tag k="addr:state" v="VT" />
    <tag k="ref:vcgi:esiteid" v="328189" />
  </node>
  <node id="-717" visible="true" lat="44.81067105" lon="-72.76181826">
    <tag k="addr:housenumber" v="610" />
    <tag k="addr:street" v="Witchcat Road" />
    <tag k="addr:state" v="VT" />
    <tag k="ref:vcgi:esiteid" v="328267" />
  </node>
  <node id="-718" visible="true" lat="44.76158272" lon="-72.8265414">
    <tag k="addr:housenumber" v="500" />
    <tag k="addr:street" v="Whitney Road" />
    <tag k="addr:state" v="VT" />
    <tag k="ref:vcgi:esiteid" v="329204" />
  </node>
  <node id="-719" visible="true" lat="44.82624621" lon="-72.78056123">
    <tag k="addr:housenumber" v="6898" />
    <tag k="addr:street" v="Boston Post Road" />
    <tag k="addr:state" v="VT" />
    <tag k="ref:vcgi:esiteid" v="330102" />
  </node>
  <node id="-720" visible="true" lat="44.83345075" lon="-72.81236645">
    <tag k="addr:housenumber" v="2043" />
    <tag k="addr:street" v="County Road" />
    <tag k="addr:state" v="VT" />
    <tag k="ref:vcgi:esiteid" v="331174" />
  </node>
  <node id="-721" visible="true" lat="44.78082628" lon="-72.80344439">
    <tag k="addr:housenumber" v="59" />
    <tag k="addr:street" v="Fairfield Road" />
    <tag k="addr:state" v="VT" />
    <tag k="ref:vcgi:esiteid" v="332687" />
  </node>
  <node id="-722" visible="true" lat="44.76683495" lon="-72.81034686">
    <tag k="addr:housenumber" v="287" />
    <tag k="addr:street" v="Dezotelle Road" />
    <tag k="addr:state" v="VT" />
    <tag k="ref:vcgi:esiteid" v="334822" />
  </node>
  <node id="-723" visible="true" lat="44.80444494" lon="-72.78840017">
    <tag k="addr:housenumber" v="1685" />
    <tag k="addr:street" v="Main Street North" />
    <tag k="addr:state" v="VT" />
    <tag k="ref:vcgi:esiteid" v="337603" />
  </node>
  <node id="-724" visible="true" lat="44.80407587" lon="-72.78667005">
    <tag k="addr:housenumber" v="1760" />
    <tag k="addr:street" v="King Road" />
    <tag k="addr:state" v="VT" />
    <tag k="ref:vcgi:esiteid" v="337604" />
  </node>
  <node id="-725" visible="true" lat="44.83770017" lon="-72.70249799">
    <tag k="addr:housenumber" v="1408" />
    <tag k="addr:street" v="Enosburg Mountain Road" />
    <tag k="addr:state" v="VT" />
    <tag k="ref:vcgi:esiteid" v="338535" />
  </node>
  <node id="-726" visible="true" lat="44.79671654" lon="-72.79883165">
    <tag k="addr:housenumber" v="190" />
    <tag k="addr:street" v="Hydes Hill Road" />
    <tag k="addr:state" v="VT" />
    <tag k="ref:vcgi:esiteid" v="338921" />
  </node>
  <node id="-727" visible="true" lat="44.74339638" lon="-72.79669137">
    <tag k="addr:housenumber" v="2852" />
    <tag k="addr:street" v="Kings Hill Road" />
    <tag k="addr:state" v="VT" />
    <tag k="ref:vcgi:esiteid" v="339867" />
  </node>
  <node id="-728" visible="true" lat="44.81420488" lon="-72.79215919">
    <tag k="addr:housenumber" v="160" />
    <tag k="addr:street" v="Browns Pond Road" />
    <tag k="addr:state" v="VT" />
    <tag k="ref:vcgi:esiteid" v="339973" />
  </node>
  <node id="-729" visible="true" lat="44.78119276" lon="-72.84832418">
    <tag k="addr:housenumber" v="238" />
    <tag k="addr:street" v="Old Creamery Drive" />
    <tag k="addr:state" v="VT" />
    <tag k="ref:vcgi:esiteid" v="340253" />
  </node>
  <node id="-730" visible="true" lat="44.81586448" lon="-72.73713627">
    <tag k="addr:housenumber" v="4640" />
    <tag k="addr:street" v="East Bakersfield Road" />
    <tag k="addr:state" v="VT" />
    <tag k="ref:vcgi:esiteid" v="340671" />
  </node>
  <node id="-731" visible="true" lat="44.79027541" lon="-72.76529274">
    <tag k="addr:housenumber" v="1150" />
    <tag k="addr:street" v="Basswood Hill Road" />
    <tag k="addr:state" v="VT" />
    <tag k="ref:vcgi:esiteid" v="341054" />
  </node>
  <node id="-732" visible="true" lat="44.81296954" lon="-72.73867081">
    <tag k="addr:housenumber" v="160" />
    <tag k="addr:street" v="Barnes Road" />
    <tag k="addr:state" v="VT" />
    <tag k="ref:vcgi:esiteid" v="341055" />
  </node>
  <node id="-733" visible="true" lat="44.81304401" lon="-72.73150539">
    <tag k="addr:housenumber" v="299" />
    <tag k="addr:street" v="Cook Brook Road" />
    <tag k="addr:state" v="VT" />
    <tag k="ref:vcgi:esiteid" v="341423" />
  </node>
  <node id="-734" visible="true" lat="44.83628016" lon="-72.76304854">
    <tag k="addr:housenumber" v="2851" />
    <tag k="addr:street" v="Witchcat Road" />
    <tag k="addr:state" v="VT" />
    <tag k="ref:vcgi:esiteid" v="341571" />
  </node>
  <node id="-735" visible="true" lat="44.78873595" lon="-72.78873202">
    <tag k="addr:housenumber" v="544" />
    <tag k="addr:street" v="King Road" />
    <tag k="addr:state" v="VT" />
    <tag k="ref:vcgi:esiteid" v="341836" />
  </node>
  <node id="-736" visible="true" lat="44.83060645" lon="-72.78716064">
    <tag k="addr:housenumber" v="651" />
    <tag k="addr:street" v="Hennessey Road" />
    <tag k="addr:state" v="VT" />
    <tag k="ref:vcgi:esiteid" v="342741" />
  </node>
  <node id="-737" visible="true" lat="44.83126158" lon="-72.78550918">
    <tag k="addr:housenumber" v="653" />
    <tag k="addr:street" v="Hennessey Road" />
    <tag k="addr:state" v="VT" />
    <tag k="ref:vcgi:esiteid" v="342742" />
  </node>
  <node id="-738" visible="true" lat="44.78450673" lon="-72.80101783">
    <tag k="addr:housenumber" v="173" />
    <tag k="addr:street" v="Main Street North" />
    <tag k="addr:state" v="VT" />
    <tag k="ref:vcgi:esiteid" v="343478" />
  </node>
  <node id="-739" visible="true" lat="44.75978796" lon="-72.82170023">
    <tag k="addr:housenumber" v="223" />
    <tag k="addr:street" v="Whitney Road" />
    <tag k="addr:state" v="VT" />
    <tag k="ref:vcgi:esiteid" v="343482" />
  </node>
  <node id="-740" visible="true" lat="44.82211415" lon="-72.78526421">
    <tag k="addr:housenumber" v="58" />
    <tag k="addr:street" v="Birch Way" />
    <tag k="addr:state" v="VT" />
    <tag k="ref:vcgi:esiteid" v="344339" />
  </node>
  <node id="-741" visible="true" lat="44.77964192" lon="-72.80532474">
    <tag k="addr:housenumber" v="178" />
    <tag k="addr:street" v="Sunset View Drive" />
    <tag k="addr:state" v="VT" />
    <tag k="ref:vcgi:esiteid" v="344505" />
  </node>
  <node id="-742" visible="true" lat="44.81822425" lon="-72.75666874">
    <tag k="addr:housenumber" v="1171" />
    <tag k="addr:street" v="Witchcat Road" />
    <tag k="addr:state" v="VT" />
    <tag k="ref:vcgi:esiteid" v="344532" />
  </node>
  <node id="-743" visible="true" lat="44.77765653" lon="-72.80219786">
    <tag k="addr:housenumber" v="309" />
    <tag k="addr:street" v="Vermont Route 108 South" />
    <tag k="addr:state" v="VT" />
    <tag k="ref:vcgi:esiteid" v="345164" />
  </node>
  <node id="-744" visible="true" lat="44.82403104" lon="-72.80775126">
    <tag k="addr:housenumber" v="440" />
    <tag k="addr:street" v="Pudvah Hill Road" />
    <tag k="addr:state" v="VT" />
    <tag k="ref:vcgi:esiteid" v="345165" />
  </node>
  <node id="-745" visible="true" lat="44.78191353" lon="-72.80342404">
    <tag k="addr:housenumber" v="20" />
    <tag k="addr:street" v="Fairfield Road" />
    <tag k="addr:state" v="VT" />
    <tag k="ref:vcgi:esiteid" v="345166" />
  </node>
  <node id="-746" visible="true" lat="44.78286678" lon="-72.76375813">
    <tag k="addr:housenumber" v="509" />
    <tag k="addr:street" v="Belvidere Mountain Road" />
    <tag k="addr:state" v="VT" />
    <tag k="ref:vcgi:esiteid" v="345168" />
  </node>
  <node id="-747" visible="true" lat="44.78212061" lon="-72.75959085">
    <tag k="addr:housenumber" v="749" />
    <tag k="addr:street" v="Belvidere Mountain Road" />
    <tag k="addr:state" v="VT" />
    <tag k="ref:vcgi:esiteid" v="345169" />
  </node>
  <node id="-748" visible="true" lat="44.817913" lon="-72.78941007">
    <tag k="addr:housenumber" v="2590" />
    <tag k="addr:street" v="Main Street North" />
    <tag k="addr:state" v="VT" />
    <tag k="ref:vcgi:esiteid" v="345170" />
  </node>
  <node id="-749" visible="true" lat="44.82438626" lon="-72.73938484">
    <tag k="addr:housenumber" v="522" />
    <tag k="addr:street" v="Joyal Road" />
    <tag k="addr:state" v="VT" />
    <tag k="ref:vcgi:esiteid" v="365020" />
  </node>
  <node id="-750" visible="true" lat="44.74601556" lon="-72.78236865">
    <tag k="addr:housenumber" v="2604" />
    <tag k="addr:street" v="Waterville Mountain Road" />
    <tag k="addr:state" v="VT" />
    <tag k="ref:vcgi:esiteid" v="365076" />
  </node>
  <node id="-751" visible="true" lat="44.73970547" lon="-72.82479177">
    <tag k="addr:housenumber" v="3235" />
    <tag k="addr:street" v="Vermont Route 108 South" />
    <tag k="addr:state" v="VT" />
    <tag k="ref:vcgi:esiteid" v="446222" />
  </node>
  <node id="-752" visible="true" lat="44.75469962" lon="-72.82150069">
    <tag k="addr:housenumber" v="148" />
    <tag k="addr:street" v="Bernor Road" />
    <tag k="addr:state" v="VT" />
    <tag k="ref:vcgi:esiteid" v="446223" />
  </node>
  <node id="-753" visible="true" lat="44.76502853" lon="-72.81463825">
    <tag k="addr:housenumber" v="1368" />
    <tag k="addr:street" v="Vermont Route 108 South" />
    <tag k="addr:state" v="VT" />
    <tag k="ref:vcgi:esiteid" v="446224" />
  </node>
  <node id="-754" visible="true" lat="44.78044276" lon="-72.76765002">
    <tag k="addr:housenumber" v="320" />
    <tag k="addr:street" v="Belvidere Mountain Road" />
    <tag k="addr:state" v="VT" />
    <tag k="ref:vcgi:esiteid" v="446333" />
  </node>
  <node id="-755" visible="true" lat="44.77914947" lon="-72.80456559">
    <tag k="addr:housenumber" v="107" />
    <tag k="addr:street" v="Sunset View Drive" />
    <tag k="addr:state" v="VT" />
    <tag k="ref:vcgi:esiteid" v="446504" />
  </node>
  <node id="-756" visible="true" lat="44.77876781" lon="-72.80446965">
    <tag k="addr:housenumber" v="85" />
    <tag k="addr:street" v="Sunset View Drive" />
    <tag k="addr:state" v="VT" />
    <tag k="ref:vcgi:esiteid" v="446505" />
  </node>
  <node id="-757" visible="true" lat="44.77790695" lon="-72.76998968">
    <tag k="addr:housenumber" v="281" />
    <tag k="addr:street" v="Willow Road" />
    <tag k="addr:state" v="VT" />
    <tag k="ref:vcgi:esiteid" v="446557" />
  </node>
  <node id="-758" visible="true" lat="44.79833814" lon="-72.82184693">
    <tag k="addr:housenumber" v="3788" />
    <tag k="addr:street" v="Egypt Road" />
    <tag k="addr:state" v="VT" />
    <tag k="ref:vcgi:esiteid" v="447136" />
  </node>
  <node id="-759" visible="true" lat="44.79106662" lon="-72.80426234">
    <tag k="addr:housenumber" v="4911" />
    <tag k="addr:street" v="Egypt Road" />
    <tag k="addr:state" v="VT" />
    <tag k="ref:vcgi:esiteid" v="447139" />
  </node>
  <node id="-760" visible="true" lat="44.80231944" lon="-72.77121749">
    <tag k="addr:housenumber" v="2633" />
    <tag k="addr:street" v="East Bakersfield Road" />
    <tag k="addr:state" v="VT" />
    <tag k="ref:vcgi:esiteid" v="447803" />
  </node>
  <node id="-761" visible="true" lat="44.83914084" lon="-72.68265158">
    <tag k="addr:housenumber" v="2571" />
    <tag k="addr:street" v="Enosburg Mountain Road" />
    <tag k="addr:state" v="VT" />
    <tag k="ref:vcgi:esiteid" v="447810" />
  </node>
  <node id="-762" visible="true" lat="44.78839577" lon="-72.80172862">
    <tag k="addr:housenumber" v="5091" />
    <tag k="addr:street" v="Egypt Road" />
    <tag k="addr:state" v="VT" />
    <tag k="ref:vcgi:esiteid" v="448127" />
  </node>
  <node id="-763" visible="true" lat="44.80967494" lon="-72.76453895">
    <tag k="addr:housenumber" v="455" />
    <tag k="addr:street" v="Witchcat Road" />
    <tag k="addr:state" v="VT" />
    <tag k="ref:vcgi:esiteid" v="450980" />
  </node>
  <node id="-764" visible="true" lat="44.83540647" lon="-72.81227825">
    <tag k="addr:housenumber" v="2221" />
    <tag k="addr:street" v="County Road" />
    <tag k="addr:state" v="VT" />
    <tag k="ref:vcgi:esiteid" v="452364" />
  </node>
  <node id="-765" visible="true" lat="44.78209479" lon="-72.75537141">
    <tag k="addr:housenumber" v="951" />
    <tag k="addr:street" v="Belvidere Mountain Road" />
    <tag k="addr:state" v="VT" />
    <tag k="ref:vcgi:esiteid" v="452485" />
  </node>
  <node id="-766" visible="true" lat="44.78422508" lon="-72.85053095">
    <tag k="addr:housenumber" v="2516" />
    <tag k="addr:street" v="Fairfield Road" />
    <tag k="addr:state" v="VT" />
    <tag k="ref:vcgi:esiteid" v="453499" />
  </node>
  <node id="-769" visible="true" lat="44.750865" lon="-72.85094084">
    <tag k="addr:housenumber" v="1146" />
    <tag k="addr:street" v="Lost Nation Road" />
    <tag k="addr:state" v="VT" />
    <tag k="ref:vcgi:esiteid" v="454657" />
  </node>
  <node id="-770" visible="true" lat="44.81262967" lon="-72.75838732">
    <tag k="addr:housenumber" v="766" />
    <tag k="addr:street" v="Witchcat Road" />
    <tag k="addr:state" v="VT" />
    <tag k="ref:vcgi:esiteid" v="610148" />
  </node>
  <node id="-771" visible="true" lat="44.76328407" lon="-72.81100489">
    <tag k="addr:housenumber" v="1451" />
    <tag k="addr:street" v="Vermont Route 108 South" />
    <tag k="addr:state" v="VT" />
    <tag k="ref:vcgi:esiteid" v="610569" />
  </node>
  <node id="-772" visible="true" lat="44.82552358" lon="-72.7040814">
    <tag k="addr:housenumber" v="705" />
    <tag k="addr:street" v="Cold Hollow Road" />
    <tag k="addr:state" v="VT" />
    <tag k="ref:vcgi:esiteid" v="611967" />
  </node>
  <node id="-773" visible="true" lat="44.79801115" lon="-72.81120716">
    <tag k="addr:housenumber" v="4813" />
    <tag k="addr:street" v="Egypt Road" />
    <tag k="addr:state" v="VT" />
    <tag k="ref:vcgi:esiteid" v="613430" />
  </node>
  <node id="-774" visible="true" lat="44.81760856" lon="-72.73420741">
    <tag k="addr:housenumber" v="25" />
    <tag k="addr:street" v="Joyal Road" />
    <tag k="addr:state" v="VT" />
    <tag k="ref:vcgi:esiteid" v="616025" />
  </node>
  <node id="-775" visible="true" lat="44.7814179" lon="-72.80445172">
    <tag k="addr:housenumber" v="156" />
    <tag k="addr:street" v="Fairfield Road" />
    <tag k="addr:state" v="VT" />
    <tag k="ref:vcgi:esiteid" v="616027" />
  </node>
  <node id="-847" visible="true" lat="44.74158789" lon="-72.80953763">
    <tag k="addr:housenumber" v="167" />
    <tag k="addr:street" v="Gambler Road" />
    <tag k="addr:state" v="VT" />
    <tag k="ref:vcgi:esiteid" v="619471" />
  </node>
  <node id="-854" visible="true" lat="44.75098455" lon="-72.80076796">
    <tag k="addr:housenumber" v="2116" />
    <tag k="addr:street" v="Kings Hill Road" />
    <tag k="addr:state" v="VT" />
    <tag k="ref:vcgi:esiteid" v="619479" />
  </node>
  <node id="-872" visible="true" lat="44.77034297" lon="-72.81192056">
    <tag k="addr:housenumber" v="974" />
    <tag k="addr:street" v="Vermont Route 108 South" />
    <tag k="addr:state" v="VT" />
    <tag k="ref:vcgi:esiteid" v="619501" />
  </node>
  <node id="-876" visible="true" lat="44.77740446" lon="-72.80426117">
    <tag k="addr:housenumber" v="366" />
    <tag k="addr:street" v="Vermont Route 108 South" />
    <tag k="addr:state" v="VT" />
    <tag k="ref:vcgi:esiteid" v="619506" />
  </node>
  <node id="-921" visible="true" lat="44.79023905" lon="-72.80149323">
    <tag k="addr:housenumber" v="5055" />
    <tag k="addr:street" v="Egypt Road" />
    <tag k="addr:state" v="VT" />
    <tag k="ref:vcgi:esiteid" v="619556" />
  </node>
  <node id="-935" visible="true" lat="44.81795344" lon="-72.82796978">
    <tag k="addr:housenumber" v="719" />
    <tag k="addr:street" v="County Road" />
    <tag k="addr:state" v="VT" />
    <tag k="ref:vcgi:esiteid" v="619570" />
  </node>
  <node id="-936" visible="true" lat="44.81762688" lon="-72.82892465">
    <tag k="addr:housenumber" v="665" />
    <tag k="addr:street" v="County Road" />
    <tag k="addr:state" v="VT" />
    <tag k="ref:vcgi:esiteid" v="619571" />
  </node>
  <node id="-941" visible="true" lat="44.82164313" lon="-72.81992887">
    <tag k="addr:housenumber" v="1190" />
    <tag k="addr:street" v="County Road" />
    <tag k="addr:state" v="VT" />
    <tag k="ref:vcgi:esiteid" v="619577" />
  </node>
  <node id="-947" visible="true" lat="44.83139263" lon="-72.80334249">
    <tag k="addr:housenumber" v="3857" />
    <tag k="addr:street" v="Main Street North" />
    <tag k="addr:state" v="VT" />
    <tag k="ref:vcgi:esiteid" v="619583" />
  </node>
  <node id="-950" visible="true" lat="44.83572975" lon="-72.76739748">
    <tag k="addr:housenumber" v="3075" />
    <tag k="addr:street" v="Witchcat Road" />
    <tag k="addr:state" v="VT" />
    <tag k="ref:vcgi:esiteid" v="619588" />
  </node>
  <node id="-996" visible="true" lat="44.77728364" lon="-72.79015858">
    <tag k="addr:housenumber" v="190" />
    <tag k="addr:street" v="Trobridge Road" />
    <tag k="addr:state" v="VT" />
    <tag k="ref:vcgi:esiteid" v="619649" />
  </node>
  <node id="-1009" visible="true" lat="44.78100233" lon="-72.75390673">
    <tag k="addr:housenumber" v="1015" />
    <tag k="addr:street" v="Belvidere Mountain Road" />
    <tag k="addr:state" v="VT" />
    <tag k="ref:vcgi:esiteid" v="619663" />
  </node>
  <node id="-1029" visible="true" lat="44.79928397" lon="-72.7425416">
    <tag k="addr:housenumber" v="801" />
    <tag k="addr:street" v="Peaked Hill Road" />
    <tag k="addr:state" v="VT" />
    <tag k="ref:vcgi:esiteid" v="619683" />
  </node>
  <node id="-1060" visible="true" lat="44.83722329" lon="-72.76376227">
    <tag k="addr:housenumber" v="2850" />
    <tag k="addr:street" v="Witchcat Road" />
    <tag k="addr:state" v="VT" />
    <tag k="ref:vcgi:esiteid" v="619715" />
  </node>
  <node id="-1064" visible="true" lat="44.82214306" lon="-72.75587186">
    <tag k="addr:housenumber" v="1445" />
    <tag k="addr:street" v="Witchcat Road" />
    <tag k="addr:state" v="VT" />
    <tag k="ref:vcgi:esiteid" v="751324" />
  </node>
  <node id="-1065" visible="true" lat="44.78934027" lon="-72.84212174">
    <tag k="addr:housenumber" v="1292" />
    <tag k="addr:street" v="Lawyer Road" />
    <tag k="addr:state" v="VT" />
    <tag k="ref:vcgi:esiteid" v="751526" />
  </node>
  <node id="-1066" visible="true" lat="44.77467541" lon="-72.78171615">
    <tag k="addr:housenumber" v="531" />
    <tag k="addr:street" v="Waterville Mountain Road" />
    <tag k="addr:state" v="VT" />
    <tag k="ref:vcgi:esiteid" v="752098" />
  </node>
  <node id="-1067" visible="true" lat="44.78169665" lon="-72.79990669">
    <tag k="addr:housenumber" v="84" />
    <tag k="addr:street" v="East Bakersfield Road" />
    <tag k="addr:state" v="VT" />
    <tag k="ref:vcgi:esiteid" v="753934" />
  </node>
  <node id="-1071" visible="true" lat="44.81541129" lon="-72.75748444">
    <tag k="addr:housenumber" v="960" />
    <tag k="addr:street" v="Witchcat Road" />
    <tag k="addr:state" v="VT" />
    <tag k="ref:vcgi:esiteid" v="756493" />
  </node>
  <node id="-1072" visible="true" lat="44.80356891" lon="-72.76085579">
    <tag k="addr:housenumber" v="3120" />
    <tag k="addr:street" v="East Bakersfield Road" />
    <tag k="addr:state" v="VT" />
    <tag k="ref:vcgi:esiteid" v="756737" />
  </node>
  <node id="-1073" visible="true" lat="44.78828628" lon="-72.84470216">
    <tag k="addr:housenumber" v="1511" />
    <tag k="addr:street" v="Lawyer Road" />
    <tag k="addr:state" v="VT" />
    <tag k="ref:vcgi:esiteid" v="757100" />
  </node>
  <node id="-1074" visible="true" lat="44.80047768" lon="-72.7910685">
    <tag k="addr:housenumber" v="1390" />
    <tag k="addr:street" v="Main Street North" />
    <tag k="addr:state" v="VT" />
    <tag k="ref:vcgi:esiteid" v="759568" />
  </node>
  <node id="-1075" visible="true" lat="44.75334303" lon="-72.85469832">
    <tag k="addr:housenumber" v="853" />
    <tag k="addr:street" v="Lost Nation Road" />
    <tag k="addr:state" v="VT" />
    <tag k="ref:vcgi:esiteid" v="760944" />
  </node>
  <node id="-1076" visible="true" lat="44.78854927" lon="-72.80502094">
    <tag k="addr:housenumber" v="4944" />
    <tag k="addr:street" v="Egypt Road" />
    <tag k="addr:state" v="VT" />
    <tag k="ref:vcgi:esiteid" v="760945" />
  </node>
  <node id="-1077" visible="true" lat="44.8014963" lon="-72.78585891">
    <tag k="addr:housenumber" v="1582" />
    <tag k="addr:street" v="King Road" />
    <tag k="addr:state" v="VT" />
    <tag k="ref:vcgi:esiteid" v="760946" />
  </node>
  <node id="-1078" visible="true" lat="44.7657961" lon="-72.78006501">
    <tag k="addr:housenumber" v="1175" />
    <tag k="addr:street" v="Waterville Mountain Road" />
    <tag k="addr:state" v="VT" />
    <tag k="ref:vcgi:esiteid" v="762435" />
  </node>
  <node id="-1079" visible="true" lat="44.83511384" lon="-72.79990533">
    <tag k="addr:housenumber" v="135" />
    <tag k="addr:street" v="Hennessey Road" />
    <tag k="addr:state" v="VT" />
    <tag k="ref:vcgi:esiteid" v="762436" />
  </node>
  <node id="-1080" visible="true" lat="44.7791321" lon="-72.80594034">
    <tag k="addr:housenumber" v="200" />
    <tag k="addr:street" v="Sunset View Drive" />
    <tag k="addr:state" v="VT" />
    <tag k="ref:vcgi:esiteid" v="762437" />
  </node>
  <node id="-1081" visible="true" lat="44.77710918" lon="-72.80300348">
    <tag k="addr:housenumber" v="313" />
    <tag k="addr:street" v="Vermont Route 108 South" />
    <tag k="addr:state" v="VT" />
    <tag k="ref:vcgi:esiteid" v="764661" />
  </node>
  <node id="-1082" visible="true" lat="44.80067681" lon="-72.74628234">
    <tag k="addr:housenumber" v="605" />
    <tag k="addr:street" v="Peaked Hill Road" />
    <tag k="addr:state" v="VT" />
    <tag k="ref:vcgi:esiteid" v="764662" />
  </node>
  <node id="-1083" visible="true" lat="44.79322081" lon="-72.787803">
    <tag k="addr:housenumber" v="1004" />
    <tag k="addr:street" v="King Road" />
    <tag k="addr:state" v="VT" />
    <tag k="ref:vcgi:esiteid" v="764663" />
  </node>
  <node id="-1085" visible="true" lat="44.74587476" lon="-72.82280038">
    <tag k="addr:housenumber" v="23" />
    <tag k="addr:street" v="Gambler Road" />
    <tag k="addr:state" v="VT" />
    <tag k="ref:vcgi:esiteid" v="767471" />
  </node>
  <node id="-1087" visible="true" lat="44.75928745" lon="-72.79648708">
    <tag k="addr:housenumber" v="1530" />
    <tag k="addr:street" v="Kings Hill Road" />
    <tag k="addr:state" v="VT" />
    <tag k="ref:vcgi:esiteid" v="767512" />
  </node>
  <node id="-1088" visible="true" lat="44.79509721" lon="-72.78869919">
    <tag k="addr:housenumber" v="1043" />
    <tag k="addr:street" v="King Road" />
    <tag k="addr:state" v="VT" />
    <tag k="ref:vcgi:esiteid" v="767766" />
  </node>
  <node id="-1090" visible="true" lat="44.79359045" lon="-72.79456461">
    <tag k="addr:housenumber" v="190" />
    <tag k="addr:street" v="Paradis Lane" />
    <tag k="addr:state" v="VT" />
    <tag k="ref:vcgi:esiteid" v="769542" />
  </node>
  <node id="-1091" visible="true" lat="44.78269271" lon="-72.75687408">
    <tag k="addr:housenumber" v="845" />
    <tag k="addr:street" v="Belvidere Mountain Road" />
    <tag k="addr:state" v="VT" />
    <tag k="ref:vcgi:esiteid" v="769682" />
  </node>
</osm>
