<?xml version="1.0" encoding="UTF-8"?>
<osm version="0.6" generator="JOSM" upload="false">
  <node id="-100" visible="true" lat="43.76133556" lon="-73.26535455">
    <tag k="addr:city" v="Benson" />
    <tag k="addr:housenumber" v="26" />
    <tag k="addr:street" v="North Shore Lane" />
    <tag k="addr:state" v="VT" />
    <tag k="ref:vcgi:esiteid" v="21438" />
  </node>
  <node id="-101" visible="true" lat="43.76395238" lon="-73.23307364">
    <tag k="addr:city" v="Benson" />
    <tag k="addr:housenumber" v="2594" />
    <tag k="addr:street" v="Young Road" />
    <tag k="addr:state" v="VT" />
    <tag k="ref:vcgi:esiteid" v="21439" />
  </node>
  <node id="-102" visible="true" lat="43.76306822" lon="-73.23408434">
    <tag k="addr:city" v="Benson" />
    <tag k="addr:housenumber" v="2631" />
    <tag k="addr:street" v="Young Road" />
    <tag k="addr:state" v="VT" />
    <tag k="ref:vcgi:esiteid" v="21440" />
  </node>
  <node id="-103" visible="true" lat="43.75880432" lon="-73.23439026">
    <tag k="addr:city" v="Benson" />
    <tag k="addr:housenumber" v="1063" />
    <tag k="addr:street" v="Ledge Road" />
    <tag k="addr:state" v="VT" />
    <tag k="ref:vcgi:esiteid" v="21441" />
  </node>
  <node id="-104" visible="true" lat="43.75744604" lon="-73.31050673">
    <tag k="addr:city" v="Benson" />
    <tag k="addr:housenumber" v="17" />
    <tag k="addr:street" v="Vermont Route 22A" />
    <tag k="addr:state" v="VT" />
    <tag k="ref:vcgi:esiteid" v="21442" />
  </node>
  <node id="-105" visible="true" lat="43.75750251" lon="-73.23373007">
    <tag k="addr:city" v="Benson" />
    <tag k="addr:housenumber" v="998" />
    <tag k="addr:street" v="Ledge Road" />
    <tag k="addr:state" v="VT" />
    <tag k="ref:vcgi:esiteid" v="21443" />
  </node>
  <node id="-106" visible="true" lat="43.75697092" lon="-73.31183642">
    <tag k="addr:city" v="Benson" />
    <tag k="addr:housenumber" v="22" />
    <tag k="addr:street" v="Vermont Route 22A" />
    <tag k="addr:state" v="VT" />
    <tag k="ref:vcgi:esiteid" v="21444" />
  </node>
  <node id="-107" visible="true" lat="43.75999349" lon="-73.26337328">
    <tag k="addr:city" v="Benson" />
    <tag k="addr:housenumber" v="2050" />
    <tag k="addr:street" v="Sunset Lake Road" />
    <tag k="addr:state" v="VT" />
    <tag k="ref:vcgi:esiteid" v="21445" />
  </node>
  <node id="-108" visible="true" lat="43.75715288" lon="-73.26357598">
    <tag k="addr:city" v="Benson" />
    <tag k="addr:housenumber" v="2072" />
    <tag k="addr:street" v="Sunset Lake Road" />
    <tag k="addr:state" v="VT" />
    <tag k="ref:vcgi:esiteid" v="21446" />
  </node>
  <node id="-109" visible="true" lat="43.75686264" lon="-73.27807617">
    <tag k="addr:city" v="Benson" />
    <tag k="addr:housenumber" v="1975" />
    <tag k="addr:street" v="Perch Pond Road" />
    <tag k="addr:state" v="VT" />
    <tag k="ref:vcgi:esiteid" v="21447" />
  </node>
  <node id="-110" visible="true" lat="43.75666627" lon="-73.26332754">
    <tag k="addr:city" v="Benson" />
    <tag k="addr:housenumber" v="2032" />
    <tag k="addr:street" v="Sunset Lake Road" />
    <tag k="addr:state" v="VT" />
    <tag k="ref:vcgi:esiteid" v="21449" />
  </node>
  <node id="-111" visible="true" lat="43.7563676" lon="-73.26380541">
    <tag k="addr:city" v="Benson" />
    <tag k="addr:housenumber" v="2029" />
    <tag k="addr:street" v="Sunset Lake Road" />
    <tag k="addr:state" v="VT" />
    <tag k="ref:vcgi:esiteid" v="21450" />
  </node>
  <node id="-112" visible="true" lat="43.75668018" lon="-73.2436626">
    <tag k="addr:city" v="Benson" />
    <tag k="addr:housenumber" v="957" />
    <tag k="addr:street" v="Pleasant Valley Road" />
    <tag k="addr:state" v="VT" />
    <tag k="ref:vcgi:esiteid" v="21451" />
  </node>
  <node id="-113" visible="true" lat="43.75595567" lon="-73.30854751">
    <tag k="addr:city" v="Benson" />
    <tag k="addr:housenumber" v="395" />
    <tag k="addr:street" v="Needham Hill Road" />
    <tag k="addr:state" v="VT" />
    <tag k="ref:vcgi:esiteid" v="21452" />
  </node>
  <node id="-114" visible="true" lat="43.75577173" lon="-73.32193652">
    <tag k="addr:city" v="Benson" />
    <tag k="addr:housenumber" v="6151" />
    <tag k="addr:street" v="Stage Road" />
    <tag k="addr:state" v="VT" />
    <tag k="ref:vcgi:esiteid" v="21453" />
  </node>
  <node id="-115" visible="true" lat="43.75585571" lon="-73.26382444">
    <tag k="addr:city" v="Benson" />
    <tag k="addr:housenumber" v="1987" />
    <tag k="addr:street" v="Sunset Lake Road" />
    <tag k="addr:state" v="VT" />
    <tag k="ref:vcgi:esiteid" v="21454" />
  </node>
  <node id="-116" visible="true" lat="43.75555748" lon="-73.30850595">
    <tag k="addr:city" v="Benson" />
    <tag k="addr:housenumber" v="425" />
    <tag k="addr:street" v="Needham Hill Road" />
    <tag k="addr:state" v="VT" />
    <tag k="ref:vcgi:esiteid" v="21455" />
  </node>
  <node id="-117" visible="true" lat="43.75515083" lon="-73.32058861">
    <tag k="addr:city" v="Benson" />
    <tag k="addr:housenumber" v="6090" />
    <tag k="addr:street" v="Stage Road" />
    <tag k="addr:state" v="VT" />
    <tag k="ref:vcgi:esiteid" v="21456" />
  </node>
  <node id="-118" visible="true" lat="43.75487415" lon="-73.30868603">
    <tag k="addr:city" v="Benson" />
    <tag k="addr:housenumber" v="430" />
    <tag k="addr:street" v="Needham Hill Road" />
    <tag k="addr:state" v="VT" />
    <tag k="ref:vcgi:esiteid" v="21457" />
  </node>
  <node id="-119" visible="true" lat="43.75480282" lon="-73.26485817">
    <tag k="addr:city" v="Benson" />
    <tag k="addr:housenumber" v="1941" />
    <tag k="addr:street" v="Sunset Lake Road" />
    <tag k="addr:state" v="VT" />
    <tag k="ref:vcgi:esiteid" v="21458" />
  </node>
  <node id="-120" visible="true" lat="43.75493813" lon="-73.31167148">
    <tag k="addr:city" v="Benson" />
    <tag k="addr:housenumber" v="96" />
    <tag k="addr:street" v="North Cross Road" />
    <tag k="addr:state" v="VT" />
    <tag k="ref:vcgi:esiteid" v="21459" />
  </node>
  <node id="-121" visible="true" lat="43.75458389" lon="-73.31013709">
    <tag k="addr:city" v="Benson" />
    <tag k="addr:housenumber" v="23" />
    <tag k="addr:street" v="North Cross Road" />
    <tag k="addr:state" v="VT" />
    <tag k="ref:vcgi:esiteid" v="21460" />
  </node>
  <node id="-122" visible="true" lat="43.75554329" lon="-73.26389041">
    <tag k="addr:city" v="Benson" />
    <tag k="addr:housenumber" v="1943" />
    <tag k="addr:street" v="Sunset Lake Road" />
    <tag k="addr:state" v="VT" />
    <tag k="ref:vcgi:esiteid" v="21461" />
  </node>
  <node id="-123" visible="true" lat="43.75450623" lon="-73.3183307">
    <tag k="addr:city" v="Benson" />
    <tag k="addr:housenumber" v="446" />
    <tag k="addr:street" v="North Cross Road" />
    <tag k="addr:state" v="VT" />
    <tag k="ref:vcgi:esiteid" v="21462" />
  </node>
  <node id="-124" visible="true" lat="43.75445938" lon="-73.27751922">
    <tag k="addr:city" v="Benson" />
    <tag k="addr:housenumber" v="74" />
    <tag k="addr:street" v="Trout Bay Road" />
    <tag k="addr:state" v="VT" />
    <tag k="ref:vcgi:esiteid" v="21463" />
  </node>
  <node id="-125" visible="true" lat="43.75433098" lon="-73.27704257">
    <tag k="addr:city" v="Benson" />
    <tag k="addr:housenumber" v="54" />
    <tag k="addr:street" v="Trout Bay Road" />
    <tag k="addr:state" v="VT" />
    <tag k="ref:vcgi:esiteid" v="21464" />
  </node>
  <node id="-126" visible="true" lat="43.75358487" lon="-73.31901758">
    <tag k="addr:city" v="Benson" />
    <tag k="addr:housenumber" v="471" />
    <tag k="addr:street" v="North Cross Road" />
    <tag k="addr:state" v="VT" />
    <tag k="ref:vcgi:esiteid" v="21465" />
  </node>
  <node id="-127" visible="true" lat="43.75399186" lon="-73.27706111">
    <tag k="addr:city" v="Benson" />
    <tag k="addr:housenumber" v="8" />
    <tag k="addr:street" v="Trout Bay Road" />
    <tag k="addr:state" v="VT" />
    <tag k="ref:vcgi:esiteid" v="21466" />
  </node>
  <node id="-128" visible="true" lat="43.75348777" lon="-73.32633744">
    <tag k="addr:city" v="Benson" />
    <tag k="addr:housenumber" v="222" />
    <tag k="addr:street" v="Frazier Hill Road" />
    <tag k="addr:state" v="VT" />
    <tag k="ref:vcgi:esiteid" v="21467" />
  </node>
  <node id="-129" visible="true" lat="43.75314697" lon="-73.32200567">
    <tag k="addr:city" v="Benson" />
    <tag k="addr:housenumber" v="57" />
    <tag k="addr:street" v="Frazier Hill Road" />
    <tag k="addr:state" v="VT" />
    <tag k="ref:vcgi:esiteid" v="21468" />
  </node>
  <node id="-130" visible="true" lat="43.75362014" lon="-73.27640533">
    <tag k="addr:city" v="Benson" />
    <tag k="addr:housenumber" v="12" />
    <tag k="addr:street" v="Trout Bay Road" />
    <tag k="addr:state" v="VT" />
    <tag k="ref:vcgi:esiteid" v="21469" />
  </node>
  <node id="-131" visible="true" lat="43.75357818" lon="-73.27663421">
    <tag k="addr:city" v="Benson" />
    <tag k="addr:housenumber" v="10" />
    <tag k="addr:street" v="Trout Bay Road" />
    <tag k="addr:state" v="VT" />
    <tag k="ref:vcgi:esiteid" v="21470" />
  </node>
  <node id="-132" visible="true" lat="43.75294996" lon="-73.28053906">
    <tag k="addr:city" v="Benson" />
    <tag k="addr:housenumber" v="1896" />
    <tag k="addr:street" v="Perch Pond Road" />
    <tag k="addr:state" v="VT" />
    <tag k="ref:vcgi:esiteid" v="21471" />
  </node>
  <node id="-133" visible="true" lat="43.75304862" lon="-73.27779436">
    <tag k="addr:city" v="Benson" />
    <tag k="addr:housenumber" v="2092" />
    <tag k="addr:street" v="Perch Pond Road" />
    <tag k="addr:state" v="VT" />
    <tag k="ref:vcgi:esiteid" v="21472" />
  </node>
  <node id="-134" visible="true" lat="43.75300634" lon="-73.28101024">
    <tag k="addr:city" v="Benson" />
    <tag k="addr:housenumber" v="1868" />
    <tag k="addr:street" v="Perch Pond Road" />
    <tag k="addr:state" v="VT" />
    <tag k="ref:vcgi:esiteid" v="21473" />
  </node>
  <node id="-135" visible="true" lat="43.75315694" lon="-73.27565703">
    <tag k="addr:city" v="Benson" />
    <tag k="addr:housenumber" v="82" />
    <tag k="addr:street" v="Bay View Drive" />
    <tag k="addr:state" v="VT" />
    <tag k="ref:vcgi:esiteid" v="21474" />
  </node>
  <node id="-136" visible="true" lat="43.75293978" lon="-73.27509377">
    <tag k="addr:city" v="Benson" />
    <tag k="addr:housenumber" v="80" />
    <tag k="addr:street" v="Bay View Drive" />
    <tag k="addr:state" v="VT" />
    <tag k="ref:vcgi:esiteid" v="21475" />
  </node>
  <node id="-137" visible="true" lat="43.75292065" lon="-73.27781849">
    <tag k="addr:city" v="Benson" />
    <tag k="addr:housenumber" v="2104" />
    <tag k="addr:street" v="Perch Pond Road" />
    <tag k="addr:state" v="VT" />
    <tag k="ref:vcgi:esiteid" v="21476" />
  </node>
  <node id="-138" visible="true" lat="43.75263041" lon="-73.3082972">
    <tag k="addr:city" v="Benson" />
    <tag k="addr:housenumber" v="333" />
    <tag k="addr:street" v="Vermont Route 22A" />
    <tag k="addr:state" v="VT" />
    <tag k="ref:vcgi:esiteid" v="21477" />
  </node>
  <node id="-139" visible="true" lat="43.75259283" lon="-73.28143646">
    <tag k="addr:city" v="Benson" />
    <tag k="addr:housenumber" v="1828" />
    <tag k="addr:street" v="Perch Pond Road" />
    <tag k="addr:state" v="VT" />
    <tag k="ref:vcgi:esiteid" v="21478" />
  </node>
  <node id="-140" visible="true" lat="43.75235567" lon="-73.2818019">
    <tag k="addr:city" v="Benson" />
    <tag k="addr:housenumber" v="1811" />
    <tag k="addr:street" v="Perch Pond Road" />
    <tag k="addr:state" v="VT" />
    <tag k="ref:vcgi:esiteid" v="21479" />
  </node>
  <node id="-141" visible="true" lat="43.75226264" lon="-73.27559163">
    <tag k="addr:city" v="Benson" />
    <tag k="addr:housenumber" v="34" />
    <tag k="addr:street" v="Bay View Drive" />
    <tag k="addr:state" v="VT" />
    <tag k="ref:vcgi:esiteid" v="21480" />
  </node>
  <node id="-142" visible="true" lat="43.7523309" lon="-73.27610349">
    <tag k="addr:city" v="Benson" />
    <tag k="addr:housenumber" v="13" />
    <tag k="addr:street" v="Bay View Drive" />
    <tag k="addr:state" v="VT" />
    <tag k="ref:vcgi:esiteid" v="21481" />
  </node>
  <node id="-143" visible="true" lat="43.75196255" lon="-73.32057759">
    <tag k="addr:city" v="Benson" />
    <tag k="addr:housenumber" v="5871" />
    <tag k="addr:street" v="Stage Road" />
    <tag k="addr:state" v="VT" />
    <tag k="ref:vcgi:esiteid" v="21482" />
  </node>
  <node id="-144" visible="true" lat="43.75211856" lon="-73.28191982">
    <tag k="addr:city" v="Benson" />
    <tag k="addr:housenumber" v="1789" />
    <tag k="addr:street" v="Perch Pond Road" />
    <tag k="addr:state" v="VT" />
    <tag k="ref:vcgi:esiteid" v="21483" />
  </node>
  <node id="-145" visible="true" lat="43.75207668" lon="-73.2760569">
    <tag k="addr:city" v="Benson" />
    <tag k="addr:housenumber" v="16" />
    <tag k="addr:street" v="Bay View Drive" />
    <tag k="addr:state" v="VT" />
    <tag k="ref:vcgi:esiteid" v="21484" />
  </node>
  <node id="-146" visible="true" lat="43.75190934" lon="-73.27777659">
    <tag k="addr:city" v="Benson" />
    <tag k="addr:housenumber" v="15" />
    <tag k="addr:street" v="Lorien Lane" />
    <tag k="addr:state" v="VT" />
    <tag k="ref:vcgi:esiteid" v="21485" />
  </node>
  <node id="-147" visible="true" lat="43.75109031" lon="-73.33388438">
    <tag k="addr:city" v="Benson" />
    <tag k="addr:housenumber" v="788" />
    <tag k="addr:street" v="Frazier Hill Road" />
    <tag k="addr:state" v="VT" />
    <tag k="ref:vcgi:esiteid" v="21486" />
  </node>
  <node id="-148" visible="true" lat="43.75158063" lon="-73.2762593">
    <tag k="addr:city" v="Benson" />
    <tag k="addr:housenumber" v="2243" />
    <tag k="addr:street" v="Perch Pond Road" />
    <tag k="addr:state" v="VT" />
    <tag k="ref:vcgi:esiteid" v="21487" />
  </node>
  <node id="-149" visible="true" lat="43.75150603" lon="-73.27792034">
    <tag k="addr:city" v="Benson" />
    <tag k="addr:housenumber" v="13" />
    <tag k="addr:street" v="Lorien Lane" />
    <tag k="addr:state" v="VT" />
    <tag k="ref:vcgi:esiteid" v="21488" />
  </node>
  <node id="-150" visible="true" lat="43.75164158" lon="-73.23984497">
    <tag k="addr:city" v="Benson" />
    <tag k="addr:housenumber" v="606" />
    <tag k="addr:street" v="Pleasant Valley Road" />
    <tag k="addr:state" v="VT" />
    <tag k="ref:vcgi:esiteid" v="21489" />
  </node>
  <node id="-151" visible="true" lat="43.75078987" lon="-73.33257993">
    <tag k="addr:city" v="Benson" />
    <tag k="addr:housenumber" v="786" />
    <tag k="addr:street" v="Frazier Hill Road" />
    <tag k="addr:state" v="VT" />
    <tag k="ref:vcgi:esiteid" v="21490" />
  </node>
  <node id="-152" visible="true" lat="43.75101939" lon="-73.32835494">
    <tag k="addr:city" v="Benson" />
    <tag k="addr:housenumber" v="482" />
    <tag k="addr:street" v="Frazier Hill Road" />
    <tag k="addr:state" v="VT" />
    <tag k="ref:vcgi:esiteid" v="21491" />
  </node>
  <node id="-153" visible="true" lat="43.75133348" lon="-73.27612931">
    <tag k="addr:city" v="Benson" />
    <tag k="addr:housenumber" v="2273" />
    <tag k="addr:street" v="Perch Pond Road" />
    <tag k="addr:state" v="VT" />
    <tag k="ref:vcgi:esiteid" v="21492" />
  </node>
  <node id="-154" visible="true" lat="43.75153198" lon="-73.23571874">
    <tag k="addr:city" v="Benson" />
    <tag k="addr:housenumber" v="551" />
    <tag k="addr:street" v="Ledge Road" />
    <tag k="addr:state" v="VT" />
    <tag k="ref:vcgi:esiteid" v="21493" />
  </node>
  <node id="-155" visible="true" lat="43.75111608" lon="-73.27590195">
    <tag k="addr:city" v="Benson" />
    <tag k="addr:housenumber" v="2289" />
    <tag k="addr:street" v="Perch Pond Road" />
    <tag k="addr:state" v="VT" />
    <tag k="ref:vcgi:esiteid" v="21494" />
  </node>
  <node id="-156" visible="true" lat="43.75090424" lon="-73.27169394">
    <tag k="addr:city" v="Benson" />
    <tag k="addr:housenumber" v="2628" />
    <tag k="addr:street" v="Perch Pond Road" />
    <tag k="addr:state" v="VT" />
    <tag k="ref:vcgi:esiteid" v="21495" />
  </node>
  <node id="-157" visible="true" lat="43.75101144" lon="-73.27800418">
    <tag k="addr:city" v="Benson" />
    <tag k="addr:housenumber" v="104" />
    <tag k="addr:street" v="Lower Perch Pond Road" />
    <tag k="addr:state" v="VT" />
    <tag k="ref:vcgi:esiteid" v="21496" />
  </node>
  <node id="-158" visible="true" lat="43.75093079" lon="-73.2767334">
    <tag k="addr:city" v="Benson" />
    <tag k="addr:housenumber" v="2278" />
    <tag k="addr:street" v="Perch Pond Road" />
    <tag k="addr:state" v="VT" />
    <tag k="ref:vcgi:esiteid" v="21497" />
  </node>
  <node id="-159" visible="true" lat="43.75092315" lon="-73.27568054">
    <tag k="addr:city" v="Benson" />
    <tag k="addr:housenumber" v="2307" />
    <tag k="addr:street" v="Perch Pond Road" />
    <tag k="addr:state" v="VT" />
    <tag k="ref:vcgi:esiteid" v="21498" />
  </node>
  <node id="-160" visible="true" lat="43.75084767" lon="-73.27524714">
    <tag k="addr:city" v="Benson" />
    <tag k="addr:housenumber" v="2351" />
    <tag k="addr:street" v="Perch Pond Road" />
    <tag k="addr:state" v="VT" />
    <tag k="ref:vcgi:esiteid" v="21499" />
  </node>
  <node id="-161" visible="true" lat="43.75107128" lon="-73.27260041">
    <tag k="addr:city" v="Benson" />
    <tag k="addr:housenumber" v="2605" />
    <tag k="addr:street" v="Perch Pond Road" />
    <tag k="addr:state" v="VT" />
    <tag k="ref:vcgi:esiteid" v="21500" />
  </node>
  <node id="-162" visible="true" lat="43.7511386" lon="-73.2720393">
    <tag k="addr:city" v="Benson" />
    <tag k="addr:housenumber" v="2615" />
    <tag k="addr:street" v="Perch Pond Road" />
    <tag k="addr:state" v="VT" />
    <tag k="ref:vcgi:esiteid" v="21501" />
  </node>
  <node id="-163" visible="true" lat="43.75080003" lon="-73.27844115">
    <tag k="addr:city" v="Benson" />
    <tag k="addr:housenumber" v="114" />
    <tag k="addr:street" v="Lower Perch Pond Road" />
    <tag k="addr:state" v="VT" />
    <tag k="ref:vcgi:esiteid" v="21502" />
  </node>
  <node id="-164" visible="true" lat="43.75020137" lon="-73.34495622">
    <tag k="addr:city" v="Benson" />
    <tag k="addr:housenumber" v="403" />
    <tag k="addr:street" v="Turkey Farm Road" />
    <tag k="addr:state" v="VT" />
    <tag k="ref:vcgi:esiteid" v="21503" />
  </node>
  <node id="-165" visible="true" lat="43.7507666" lon="-73.27494775">
    <tag k="addr:city" v="Benson" />
    <tag k="addr:housenumber" v="2361" />
    <tag k="addr:street" v="Perch Pond Road" />
    <tag k="addr:state" v="VT" />
    <tag k="ref:vcgi:esiteid" v="21504" />
  </node>
  <node id="-166" visible="true" lat="43.75050566" lon="-73.31847325">
    <tag k="addr:city" v="Benson" />
    <tag k="addr:housenumber" v="5734" />
    <tag k="addr:street" v="Stage Road" />
    <tag k="addr:state" v="VT" />
    <tag k="ref:vcgi:esiteid" v="21505" />
  </node>
  <node id="-167" visible="true" lat="43.75081461" lon="-73.24057651">
    <tag k="addr:city" v="Benson" />
    <tag k="addr:housenumber" v="557" />
    <tag k="addr:street" v="Pleasant Valley Road" />
    <tag k="addr:state" v="VT" />
    <tag k="ref:vcgi:esiteid" v="21506" />
  </node>
  <node id="-168" visible="true" lat="43.75084221" lon="-73.27305033">
    <tag k="addr:city" v="Benson" />
    <tag k="addr:housenumber" v="2581" />
    <tag k="addr:street" v="Perch Pond Road" />
    <tag k="addr:state" v="VT" />
    <tag k="ref:vcgi:esiteid" v="21507" />
  </node>
  <node id="-169" visible="true" lat="43.75037624" lon="-73.27830072">
    <tag k="addr:city" v="Benson" />
    <tag k="addr:housenumber" v="136" />
    <tag k="addr:street" v="Lower Perch Pond Road" />
    <tag k="addr:state" v="VT" />
    <tag k="ref:vcgi:esiteid" v="21508" />
  </node>
  <node id="-170" visible="true" lat="43.75000677" lon="-73.34313126">
    <tag k="addr:city" v="Benson" />
    <tag k="addr:housenumber" v="401" />
    <tag k="addr:street" v="Turkey Farm Road" />
    <tag k="addr:state" v="VT" />
    <tag k="ref:vcgi:esiteid" v="21509" />
  </node>
  <node id="-171" visible="true" lat="43.75023037" lon="-73.27833993">
    <tag k="addr:city" v="Benson" />
    <tag k="addr:housenumber" v="152" />
    <tag k="addr:street" v="Lower Perch Pond Road" />
    <tag k="addr:state" v="VT" />
    <tag k="ref:vcgi:esiteid" v="21510" />
  </node>
  <node id="-172" visible="true" lat="43.7497665" lon="-73.31829591">
    <tag k="addr:city" v="Benson" />
    <tag k="addr:housenumber" v="5676" />
    <tag k="addr:street" v="Stage Road" />
    <tag k="addr:state" v="VT" />
    <tag k="ref:vcgi:esiteid" v="21511" />
  </node>
  <node id="-173" visible="true" lat="43.74967956" lon="-73.32886505">
    <tag k="addr:city" v="Benson" />
    <tag k="addr:housenumber" v="566" />
    <tag k="addr:street" v="Frazier Hill Road" />
    <tag k="addr:state" v="VT" />
    <tag k="ref:vcgi:esiteid" v="21512" />
  </node>
  <node id="-174" visible="true" lat="43.74998593" lon="-73.27825449">
    <tag k="addr:city" v="Benson" />
    <tag k="addr:housenumber" v="170" />
    <tag k="addr:street" v="Lower Perch Pond Road" />
    <tag k="addr:state" v="VT" />
    <tag k="ref:vcgi:esiteid" v="21513" />
  </node>
  <node id="-175" visible="true" lat="43.74968724" lon="-73.27422527">
    <tag k="addr:city" v="Benson" />
    <tag k="addr:housenumber" v="2436" />
    <tag k="addr:street" v="Perch Pond Road" />
    <tag k="addr:state" v="VT" />
    <tag k="ref:vcgi:esiteid" v="21514" />
  </node>
  <node id="-176" visible="true" lat="43.74976618" lon="-73.27373993">
    <tag k="addr:city" v="Benson" />
    <tag k="addr:housenumber" v="2448" />
    <tag k="addr:street" v="Perch Pond Road" />
    <tag k="addr:state" v="VT" />
    <tag k="ref:vcgi:esiteid" v="21515" />
  </node>
  <node id="-177" visible="true" lat="43.74979093" lon="-73.27819778">
    <tag k="addr:city" v="Benson" />
    <tag k="addr:housenumber" v="198" />
    <tag k="addr:street" v="Lower Perch Pond Road" />
    <tag k="addr:state" v="VT" />
    <tag k="ref:vcgi:esiteid" v="21516" />
  </node>
  <node id="-178" visible="true" lat="43.74920768" lon="-73.3016519">
    <tag k="addr:city" v="Benson" />
    <tag k="addr:housenumber" v="367" />
    <tag k="addr:street" v="Perch Pond Road" />
    <tag k="addr:state" v="VT" />
    <tag k="ref:vcgi:esiteid" v="21517" />
  </node>
  <node id="-179" visible="true" lat="43.74916818" lon="-73.32013788">
    <tag k="addr:city" v="Benson" />
    <tag k="addr:housenumber" v="5679" />
    <tag k="addr:street" v="Stage Road" />
    <tag k="addr:state" v="VT" />
    <tag k="ref:vcgi:esiteid" v="21518" />
  </node>
  <node id="-180" visible="true" lat="43.7494571" lon="-73.28006974">
    <tag k="addr:city" v="Benson" />
    <tag k="addr:housenumber" v="1424" />
    <tag k="addr:street" v="Perch Pond Road" />
    <tag k="addr:state" v="VT" />
    <tag k="ref:vcgi:esiteid" v="21519" />
  </node>
  <node id="-181" visible="true" lat="43.74892141" lon="-73.32941373">
    <tag k="addr:city" v="Benson" />
    <tag k="addr:housenumber" v="622" />
    <tag k="addr:street" v="Frazier Hill Road" />
    <tag k="addr:state" v="VT" />
    <tag k="ref:vcgi:esiteid" v="21520" />
  </node>
  <node id="-182" visible="true" lat="43.74946043" lon="-73.27818465">
    <tag k="addr:city" v="Benson" />
    <tag k="addr:housenumber" v="214" />
    <tag k="addr:street" v="Lower Perch Pond Road" />
    <tag k="addr:state" v="VT" />
    <tag k="ref:vcgi:esiteid" v="21521" />
  </node>
  <node id="-183" visible="true" lat="43.74906949" lon="-73.27808861">
    <tag k="addr:city" v="Benson" />
    <tag k="addr:housenumber" v="222" />
    <tag k="addr:street" v="Lower Perch Pond Road" />
    <tag k="addr:state" v="VT" />
    <tag k="ref:vcgi:esiteid" v="21522" />
  </node>
  <node id="-184" visible="true" lat="43.74897806" lon="-73.27928812">
    <tag k="addr:city" v="Benson" />
    <tag k="addr:housenumber" v="1422" />
    <tag k="addr:street" v="Perch Pond Road" />
    <tag k="addr:state" v="VT" />
    <tag k="ref:vcgi:esiteid" v="21523" />
  </node>
  <node id="-185" visible="true" lat="43.7490215" lon="-73.27883075">
    <tag k="addr:city" v="Benson" />
    <tag k="addr:housenumber" v="224" />
    <tag k="addr:street" v="Lower Perch Pond Road" />
    <tag k="addr:state" v="VT" />
    <tag k="ref:vcgi:esiteid" v="21524" />
  </node>
  <node id="-186" visible="true" lat="43.75005118" lon="-73.35813176">
    <tag k="addr:city" v="Benson" />
    <tag k="addr:housenumber" v="291" />
    <tag k="addr:street" v="Turkey Farm Road" />
    <tag k="addr:state" v="VT" />
    <tag k="ref:vcgi:esiteid" v="21525" />
  </node>
  <node id="-187" visible="true" lat="43.74822617" lon="-73.31877136">
    <tag k="addr:city" v="Benson" />
    <tag k="addr:housenumber" v="5598" />
    <tag k="addr:street" v="Stage Road" />
    <tag k="addr:state" v="VT" />
    <tag k="ref:vcgi:esiteid" v="21526" />
  </node>
  <node id="-188" visible="true" lat="43.74805069" lon="-73.31939697">
    <tag k="addr:city" v="Benson" />
    <tag k="addr:housenumber" v="5595" />
    <tag k="addr:street" v="Stage Road" />
    <tag k="addr:state" v="VT" />
    <tag k="ref:vcgi:esiteid" v="21527" />
  </node>
  <node id="-189" visible="true" lat="43.74774902" lon="-73.31928616">
    <tag k="addr:city" v="Benson" />
    <tag k="addr:housenumber" v="5575" />
    <tag k="addr:street" v="Stage Road" />
    <tag k="addr:state" v="VT" />
    <tag k="ref:vcgi:esiteid" v="21528" />
  </node>
  <node id="-190" visible="true" lat="43.74775314" lon="-73.31864929">
    <tag k="addr:city" v="Benson" />
    <tag k="addr:housenumber" v="5566" />
    <tag k="addr:street" v="Stage Road" />
    <tag k="addr:state" v="VT" />
    <tag k="ref:vcgi:esiteid" v="21529" />
  </node>
  <node id="-191" visible="true" lat="43.74744786" lon="-73.31921669">
    <tag k="addr:city" v="Benson" />
    <tag k="addr:housenumber" v="5555" />
    <tag k="addr:street" v="Stage Road" />
    <tag k="addr:state" v="VT" />
    <tag k="ref:vcgi:esiteid" v="21530" />
  </node>
  <node id="-192" visible="true" lat="43.74687576" lon="-73.29281616">
    <tag k="addr:city" v="Benson" />
    <tag k="addr:housenumber" v="893" />
    <tag k="addr:street" v="Perch Pond Road" />
    <tag k="addr:state" v="VT" />
    <tag k="ref:vcgi:esiteid" v="21531" />
  </node>
  <node id="-193" visible="true" lat="43.74647079" lon="-73.33285985">
    <tag k="addr:city" v="Benson" />
    <tag k="addr:housenumber" v="882" />
    <tag k="addr:street" v="Frazier Hill Road" />
    <tag k="addr:state" v="VT" />
    <tag k="ref:vcgi:esiteid" v="21532" />
  </node>
  <node id="-194" visible="true" lat="43.7469291" lon="-73.23699938">
    <tag k="addr:city" v="Benson" />
    <tag k="addr:housenumber" v="229" />
    <tag k="addr:street" v="Ledge Road" />
    <tag k="addr:state" v="VT" />
    <tag k="ref:vcgi:esiteid" v="21533" />
  </node>
  <node id="-195" visible="true" lat="43.7463311" lon="-73.3188121">
    <tag k="addr:city" v="Benson" />
    <tag k="addr:housenumber" v="5477" />
    <tag k="addr:street" v="Stage Road" />
    <tag k="addr:state" v="VT" />
    <tag k="ref:vcgi:esiteid" v="21534" />
  </node>
  <node id="-196" visible="true" lat="43.74673168" lon="-73.3189979">
    <tag k="addr:city" v="Benson" />
    <tag k="addr:housenumber" v="5499" />
    <tag k="addr:street" v="Stage Road" />
    <tag k="addr:state" v="VT" />
    <tag k="ref:vcgi:esiteid" v="21535" />
  </node>
  <node id="-197" visible="true" lat="43.74521484" lon="-73.34536966">
    <tag k="addr:city" v="Benson" />
    <tag k="addr:housenumber" v="43" />
    <tag k="addr:street" v="Turkey Farm Road" />
    <tag k="addr:state" v="VT" />
    <tag k="ref:vcgi:esiteid" v="21536" />
  </node>
  <node id="-198" visible="true" lat="43.74528888" lon="-73.33385531">
    <tag k="addr:city" v="Benson" />
    <tag k="addr:housenumber" v="957" />
    <tag k="addr:street" v="Frazier Hill Road" />
    <tag k="addr:state" v="VT" />
    <tag k="ref:vcgi:esiteid" v="21537" />
  </node>
  <node id="-199" visible="true" lat="43.74442958" lon="-73.33472942">
    <tag k="addr:city" v="Benson" />
    <tag k="addr:housenumber" v="1031" />
    <tag k="addr:street" v="Frazier Hill Road" />
    <tag k="addr:state" v="VT" />
    <tag k="ref:vcgi:esiteid" v="21538" />
  </node>
  <node id="-200" visible="true" lat="43.74448588" lon="-73.33639799">
    <tag k="addr:city" v="Benson" />
    <tag k="addr:housenumber" v="1107" />
    <tag k="addr:street" v="Frazier Hill Road" />
    <tag k="addr:state" v="VT" />
    <tag k="ref:vcgi:esiteid" v="21539" />
  </node>
  <node id="-201" visible="true" lat="43.74431694" lon="-73.30655689">
    <tag k="addr:city" v="Benson" />
    <tag k="addr:housenumber" v="939" />
    <tag k="addr:street" v="Vermont Route 22A" />
    <tag k="addr:state" v="VT" />
    <tag k="ref:vcgi:esiteid" v="21543" />
  </node>
  <node id="-202" visible="true" lat="43.74432684" lon="-73.2380177">
    <tag k="addr:city" v="Benson" />
    <tag k="addr:housenumber" v="42" />
    <tag k="addr:street" v="Ledge Road" />
    <tag k="addr:state" v="VT" />
    <tag k="ref:vcgi:esiteid" v="21544" />
  </node>
  <node id="-203" visible="true" lat="43.74393498" lon="-73.30651776">
    <tag k="addr:city" v="Benson" />
    <tag k="addr:housenumber" v="971" />
    <tag k="addr:street" v="Vermont Route 22A" />
    <tag k="addr:state" v="VT" />
    <tag k="ref:vcgi:esiteid" v="21545" />
  </node>
  <node id="-204" visible="true" lat="43.74337445" lon="-73.3398916">
    <tag k="addr:city" v="Benson" />
    <tag k="addr:housenumber" v="1171" />
    <tag k="addr:street" v="Frazier Hill Road" />
    <tag k="addr:state" v="VT" />
    <tag k="ref:vcgi:esiteid" v="21546" />
  </node>
  <node id="-205" visible="true" lat="43.74394746" lon="-73.23748976">
    <tag k="addr:city" v="Benson" />
    <tag k="addr:housenumber" v="3889" />
    <tag k="addr:street" v="Route 144" />
    <tag k="addr:state" v="VT" />
    <tag k="ref:vcgi:esiteid" v="21547" />
  </node>
  <node id="-206" visible="true" lat="43.74281703" lon="-73.36426253">
    <tag k="addr:city" v="Benson" />
    <tag k="addr:housenumber" v="757" />
    <tag k="addr:street" v="Stony Point Road" />
    <tag k="addr:state" v="VT" />
    <tag k="ref:vcgi:esiteid" v="21548" />
  </node>
  <node id="-207" visible="true" lat="43.74292819" lon="-73.36612781">
    <tag k="addr:city" v="Benson" />
    <tag k="addr:housenumber" v="791" />
    <tag k="addr:street" v="Stony Point Road" />
    <tag k="addr:state" v="VT" />
    <tag k="ref:vcgi:esiteid" v="21549" />
  </node>
  <node id="-208" visible="true" lat="43.74365072" lon="-73.23838959">
    <tag k="addr:city" v="Benson" />
    <tag k="addr:housenumber" v="3830" />
    <tag k="addr:street" v="Route 144" />
    <tag k="addr:state" v="VT" />
    <tag k="ref:vcgi:esiteid" v="21550" />
  </node>
  <node id="-209" visible="true" lat="43.7429496" lon="-73.3072482">
    <tag k="addr:city" v="Benson" />
    <tag k="addr:housenumber" v="1034" />
    <tag k="addr:street" v="Vermont Route 22A" />
    <tag k="addr:state" v="VT" />
    <tag k="ref:vcgi:esiteid" v="21551" />
  </node>
  <node id="-210" visible="true" lat="43.74172759" lon="-73.34437426">
    <tag k="addr:city" v="Benson" />
    <tag k="addr:housenumber" v="1665" />
    <tag k="addr:street" v="Frazier Hill Road" />
    <tag k="addr:state" v="VT" />
    <tag k="ref:vcgi:esiteid" v="21552" />
  </node>
  <node id="-211" visible="true" lat="43.74203552" lon="-73.30656233">
    <tag k="addr:city" v="Benson" />
    <tag k="addr:housenumber" v="1097" />
    <tag k="addr:street" v="Vermont Route 22A" />
    <tag k="addr:state" v="VT" />
    <tag k="ref:vcgi:esiteid" v="21553" />
  </node>
  <node id="-212" visible="true" lat="43.74162674" lon="-73.31869507">
    <tag k="addr:city" v="Benson" />
    <tag k="addr:housenumber" v="5139" />
    <tag k="addr:street" v="Stage Road" />
    <tag k="addr:state" v="VT" />
    <tag k="ref:vcgi:esiteid" v="21554" />
  </node>
  <node id="-213" visible="true" lat="43.74200975" lon="-73.23995886">
    <tag k="addr:city" v="Benson" />
    <tag k="addr:housenumber" v="3697" />
    <tag k="addr:street" v="Route 144" />
    <tag k="addr:state" v="VT" />
    <tag k="ref:vcgi:esiteid" v="21555" />
  </node>
  <node id="-214" visible="true" lat="43.7413671" lon="-73.31913708">
    <tag k="addr:city" v="Benson" />
    <tag k="addr:housenumber" v="5113" />
    <tag k="addr:street" v="Stage Road" />
    <tag k="addr:state" v="VT" />
    <tag k="ref:vcgi:esiteid" v="21556" />
  </node>
  <node id="-215" visible="true" lat="43.74047227" lon="-73.36656674">
    <tag k="addr:city" v="Benson" />
    <tag k="addr:housenumber" v="631" />
    <tag k="addr:street" v="Stony Point Road" />
    <tag k="addr:state" v="VT" />
    <tag k="ref:vcgi:esiteid" v="21557" />
  </node>
  <node id="-216" visible="true" lat="43.74060154" lon="-73.36668039">
    <tag k="addr:city" v="Benson" />
    <tag k="addr:housenumber" v="611" />
    <tag k="addr:street" v="Stony Point Road" />
    <tag k="addr:state" v="VT" />
    <tag k="ref:vcgi:esiteid" v="21558" />
  </node>
  <node id="-217" visible="true" lat="43.73917046" lon="-73.36683718">
    <tag k="addr:city" v="Benson" />
    <tag k="addr:housenumber" v="609" />
    <tag k="addr:street" v="Stony Point Road" />
    <tag k="addr:state" v="VT" />
    <tag k="ref:vcgi:esiteid" v="21559" />
  </node>
  <node id="-218" visible="true" lat="43.74080428" lon="-73.26648742">
    <tag k="addr:city" v="Benson" />
    <tag k="addr:housenumber" v="771" />
    <tag k="addr:street" v="Sunset Lake Road" />
    <tag k="addr:state" v="VT" />
    <tag k="ref:vcgi:esiteid" v="21561" />
  </node>
  <node id="-219" visible="true" lat="43.73867098" lon="-73.36729533">
    <tag k="addr:city" v="Benson" />
    <tag k="addr:housenumber" v="607" />
    <tag k="addr:street" v="Stony Point Road" />
    <tag k="addr:state" v="VT" />
    <tag k="ref:vcgi:esiteid" v="21562" />
  </node>
  <node id="-220" visible="true" lat="43.74060944" lon="-73.24013738">
    <tag k="addr:city" v="Benson" />
    <tag k="addr:housenumber" v="3598" />
    <tag k="addr:street" v="Route 144" />
    <tag k="addr:state" v="VT" />
    <tag k="ref:vcgi:esiteid" v="21563" />
  </node>
  <node id="-221" visible="true" lat="43.73969925" lon="-73.24134059">
    <tag k="addr:city" v="Benson" />
    <tag k="addr:housenumber" v="3527" />
    <tag k="addr:street" v="Route 144" />
    <tag k="addr:state" v="VT" />
    <tag k="ref:vcgi:esiteid" v="21564" />
  </node>
  <node id="-222" visible="true" lat="43.73796997" lon="-73.36564719">
    <tag k="addr:city" v="Benson" />
    <tag k="addr:housenumber" v="438" />
    <tag k="addr:street" v="Stony Point Road" />
    <tag k="addr:state" v="VT" />
    <tag k="ref:vcgi:esiteid" v="21565" />
  </node>
  <node id="-223" visible="true" lat="43.73785319" lon="-73.26859004">
    <tag k="addr:city" v="Benson" />
    <tag k="addr:housenumber" v="501" />
    <tag k="addr:street" v="Sunset Lake Road" />
    <tag k="addr:state" v="VT" />
    <tag k="ref:vcgi:esiteid" v="21566" />
  </node>
  <node id="-224" visible="true" lat="43.73817445" lon="-73.24275911">
    <tag k="addr:city" v="Benson" />
    <tag k="addr:housenumber" v="3387" />
    <tag k="addr:street" v="Route 144" />
    <tag k="addr:state" v="VT" />
    <tag k="ref:vcgi:esiteid" v="21567" />
  </node>
  <node id="-225" visible="true" lat="43.73774818" lon="-73.2438173">
    <tag k="addr:city" v="Benson" />
    <tag k="addr:housenumber" v="3355" />
    <tag k="addr:street" v="Route 144" />
    <tag k="addr:state" v="VT" />
    <tag k="ref:vcgi:esiteid" v="21568" />
  </node>
  <node id="-226" visible="true" lat="43.73684051" lon="-73.36648754">
    <tag k="addr:city" v="Benson" />
    <tag k="addr:housenumber" v="363" />
    <tag k="addr:street" v="Stony Point Road" />
    <tag k="addr:state" v="VT" />
    <tag k="ref:vcgi:esiteid" v="21569" />
  </node>
  <node id="-227" visible="true" lat="43.73714959" lon="-73.2430754">
    <tag k="addr:city" v="Benson" />
    <tag k="addr:housenumber" v="3327" />
    <tag k="addr:street" v="Route 144" />
    <tag k="addr:state" v="VT" />
    <tag k="ref:vcgi:esiteid" v="21571" />
  </node>
  <node id="-228" visible="true" lat="43.7370153" lon="-73.24256011">
    <tag k="addr:city" v="Benson" />
    <tag k="addr:housenumber" v="3324" />
    <tag k="addr:street" v="Route 144" />
    <tag k="addr:state" v="VT" />
    <tag k="ref:vcgi:esiteid" v="21572" />
  </node>
  <node id="-229" visible="true" lat="43.73667697" lon="-73.2427497">
    <tag k="addr:city" v="Benson" />
    <tag k="addr:housenumber" v="3300" />
    <tag k="addr:street" v="Route 144" />
    <tag k="addr:state" v="VT" />
    <tag k="ref:vcgi:esiteid" v="21573" />
  </node>
  <node id="-230" visible="true" lat="43.73640988" lon="-73.24280938">
    <tag k="addr:city" v="Benson" />
    <tag k="addr:housenumber" v="3280" />
    <tag k="addr:street" v="Route 144" />
    <tag k="addr:state" v="VT" />
    <tag k="ref:vcgi:esiteid" v="21574" />
  </node>
  <node id="-231" visible="true" lat="43.73587417" lon="-73.24337768">
    <tag k="addr:city" v="Benson" />
    <tag k="addr:housenumber" v="3238" />
    <tag k="addr:street" v="Route 144" />
    <tag k="addr:state" v="VT" />
    <tag k="ref:vcgi:esiteid" v="21575" />
  </node>
  <node id="-232" visible="true" lat="43.73526747" lon="-73.24369116">
    <tag k="addr:city" v="Benson" />
    <tag k="addr:housenumber" v="3204" />
    <tag k="addr:street" v="Route 144" />
    <tag k="addr:state" v="VT" />
    <tag k="ref:vcgi:esiteid" v="21576" />
  </node>
  <node id="-233" visible="true" lat="43.73444728" lon="-73.24134759">
    <tag k="addr:city" v="Benson" />
    <tag k="addr:housenumber" v="3218" />
    <tag k="addr:street" v="Route 144" />
    <tag k="addr:state" v="VT" />
    <tag k="ref:vcgi:esiteid" v="21577" />
  </node>
  <node id="-234" visible="true" lat="43.73446221" lon="-73.27393882">
    <tag k="addr:city" v="Benson" />
    <tag k="addr:housenumber" v="445" />
    <tag k="addr:street" v="Sunset Lake Road" />
    <tag k="addr:state" v="VT" />
    <tag k="ref:vcgi:esiteid" v="21578" />
  </node>
  <node id="-235" visible="true" lat="43.7342882" lon="-73.25057687">
    <tag k="addr:city" v="Benson" />
    <tag k="addr:housenumber" v="2771" />
    <tag k="addr:street" v="Route 144" />
    <tag k="addr:state" v="VT" />
    <tag k="ref:vcgi:esiteid" v="21579" />
  </node>
  <node id="-236" visible="true" lat="43.73414206" lon="-73.26854872">
    <tag k="addr:city" v="Benson" />
    <tag k="addr:housenumber" v="278" />
    <tag k="addr:street" v="Sunset Lake Road" />
    <tag k="addr:state" v="VT" />
    <tag k="ref:vcgi:esiteid" v="21580" />
  </node>
  <node id="-237" visible="true" lat="43.73349039" lon="-73.25384803">
    <tag k="addr:city" v="Benson" />
    <tag k="addr:housenumber" v="2608" />
    <tag k="addr:street" v="Route 144" />
    <tag k="addr:state" v="VT" />
    <tag k="ref:vcgi:esiteid" v="21581" />
  </node>
  <node id="-238" visible="true" lat="43.73352813" lon="-73.24732971">
    <tag k="addr:city" v="Benson" />
    <tag k="addr:housenumber" v="3003" />
    <tag k="addr:street" v="Route 144" />
    <tag k="addr:state" v="VT" />
    <tag k="ref:vcgi:esiteid" v="21582" />
  </node>
  <node id="-239" visible="true" lat="43.73355893" lon="-73.24643919">
    <tag k="addr:city" v="Benson" />
    <tag k="addr:housenumber" v="3001" />
    <tag k="addr:street" v="Route 144" />
    <tag k="addr:state" v="VT" />
    <tag k="ref:vcgi:esiteid" v="21583" />
  </node>
  <node id="-240" visible="true" lat="43.73278046" lon="-73.34755707">
    <tag k="addr:city" v="Benson" />
    <tag k="addr:housenumber" v="2304" />
    <tag k="addr:street" v="Frazier Hill Road" />
    <tag k="addr:state" v="VT" />
    <tag k="ref:vcgi:esiteid" v="21584" />
  </node>
  <node id="-241" visible="true" lat="43.73349595" lon="-73.24998153">
    <tag k="addr:city" v="Benson" />
    <tag k="addr:housenumber" v="2815" />
    <tag k="addr:street" v="Route 144" />
    <tag k="addr:state" v="VT" />
    <tag k="ref:vcgi:esiteid" v="21585" />
  </node>
  <node id="-242" visible="true" lat="43.73326504" lon="-73.24928468">
    <tag k="addr:city" v="Benson" />
    <tag k="addr:housenumber" v="2839" />
    <tag k="addr:street" v="Route 144" />
    <tag k="addr:state" v="VT" />
    <tag k="ref:vcgi:esiteid" v="21586" />
  </node>
  <node id="-243" visible="true" lat="43.73241872" lon="-73.36285897">
    <tag k="addr:city" v="Benson" />
    <tag k="addr:housenumber" v="31" />
    <tag k="addr:street" v="Stony Point Road" />
    <tag k="addr:state" v="VT" />
    <tag k="ref:vcgi:esiteid" v="21587" />
  </node>
  <node id="-244" visible="true" lat="43.733051" lon="-73.26890449">
    <tag k="addr:city" v="Benson" />
    <tag k="addr:housenumber" v="204" />
    <tag k="addr:street" v="Sunset Lake Road" />
    <tag k="addr:state" v="VT" />
    <tag k="ref:vcgi:esiteid" v="21588" />
  </node>
  <node id="-245" visible="true" lat="43.73314285" lon="-73.24563598">
    <tag k="addr:city" v="Benson" />
    <tag k="addr:housenumber" v="3020" />
    <tag k="addr:street" v="Route 144" />
    <tag k="addr:state" v="VT" />
    <tag k="ref:vcgi:esiteid" v="21589" />
  </node>
  <node id="-246" visible="true" lat="43.73300934" lon="-73.25175476">
    <tag k="addr:city" v="Benson" />
    <tag k="addr:housenumber" v="2718" />
    <tag k="addr:street" v="Route 144" />
    <tag k="addr:state" v="VT" />
    <tag k="ref:vcgi:esiteid" v="21590" />
  </node>
  <node id="-247" visible="true" lat="43.73298938" lon="-73.26964399">
    <tag k="addr:city" v="Benson" />
    <tag k="addr:housenumber" v="153" />
    <tag k="addr:street" v="Sunset Lake Road" />
    <tag k="addr:state" v="VT" />
    <tag k="ref:vcgi:esiteid" v="21591" />
  </node>
  <node id="-248" visible="true" lat="43.73177772" lon="-73.36232607">
    <tag k="addr:city" v="Benson" />
    <tag k="addr:housenumber" v="2811" />
    <tag k="addr:street" v="North Lake Road" />
    <tag k="addr:state" v="VT" />
    <tag k="ref:vcgi:esiteid" v="21592" />
  </node>
  <node id="-249" visible="true" lat="43.73153145" lon="-73.36129481">
    <tag k="addr:city" v="Benson" />
    <tag k="addr:housenumber" v="2760" />
    <tag k="addr:street" v="North Lake Road" />
    <tag k="addr:state" v="VT" />
    <tag k="ref:vcgi:esiteid" v="21593" />
  </node>
  <node id="-250" visible="true" lat="43.73204164" lon="-73.26458717">
    <tag k="addr:city" v="Benson" />
    <tag k="addr:housenumber" v="2039" />
    <tag k="addr:street" v="Route 144" />
    <tag k="addr:state" v="VT" />
    <tag k="ref:vcgi:esiteid" v="21594" />
  </node>
  <node id="-251" visible="true" lat="43.73182299" lon="-73.27022722">
    <tag k="addr:city" v="Benson" />
    <tag k="addr:housenumber" v="109" />
    <tag k="addr:street" v="Sunset Lake Road" />
    <tag k="addr:state" v="VT" />
    <tag k="ref:vcgi:esiteid" v="21595" />
  </node>
  <node id="-252" visible="true" lat="43.73114777" lon="-73.35643005">
    <tag k="addr:city" v="Benson" />
    <tag k="addr:housenumber" v="2500" />
    <tag k="addr:street" v="North Lake Road" />
    <tag k="addr:state" v="VT" />
    <tag k="ref:vcgi:esiteid" v="21596" />
  </node>
  <node id="-253" visible="true" lat="43.73185184" lon="-73.25182729">
    <tag k="addr:city" v="Benson" />
    <tag k="addr:housenumber" v="2720" />
    <tag k="addr:street" v="Route 144" />
    <tag k="addr:state" v="VT" />
    <tag k="ref:vcgi:esiteid" v="21597" />
  </node>
  <node id="-254" visible="true" lat="43.7311211" lon="-73.35442113">
    <tag k="addr:city" v="Benson" />
    <tag k="addr:housenumber" v="2400" />
    <tag k="addr:street" v="North Lake Road" />
    <tag k="addr:state" v="VT" />
    <tag k="ref:vcgi:esiteid" v="21598" />
  </node>
  <node id="-255" visible="true" lat="43.73100475" lon="-73.35281812">
    <tag k="addr:city" v="Benson" />
    <tag k="addr:housenumber" v="2320" />
    <tag k="addr:street" v="North Lake Road" />
    <tag k="addr:state" v="VT" />
    <tag k="ref:vcgi:esiteid" v="21599" />
  </node>
  <node id="-256" visible="true" lat="43.73090907" lon="-73.34780834">
    <tag k="addr:city" v="Benson" />
    <tag k="addr:housenumber" v="2068" />
    <tag k="addr:street" v="North Lake Road" />
    <tag k="addr:state" v="VT" />
    <tag k="ref:vcgi:esiteid" v="21600" />
  </node>
  <node id="-257" visible="true" lat="43.73123218" lon="-73.27089572">
    <tag k="addr:city" v="Benson" />
    <tag k="addr:housenumber" v="91" />
    <tag k="addr:street" v="Sunset Lake Road" />
    <tag k="addr:state" v="VT" />
    <tag k="ref:vcgi:esiteid" v="21601" />
  </node>
  <node id="-258" visible="true" lat="43.73132351" lon="-73.24928924">
    <tag k="addr:city" v="Benson" />
    <tag k="addr:housenumber" v="4821" />
    <tag k="addr:street" v="East Road" />
    <tag k="addr:state" v="VT" />
    <tag k="ref:vcgi:esiteid" v="21602" />
  </node>
  <node id="-259" visible="true" lat="43.73091742" lon="-73.26502412">
    <tag k="addr:city" v="Benson" />
    <tag k="addr:housenumber" v="1990" />
    <tag k="addr:street" v="Route 144" />
    <tag k="addr:state" v="VT" />
    <tag k="ref:vcgi:esiteid" v="21603" />
  </node>
  <node id="-260" visible="true" lat="43.73097756" lon="-73.26951876">
    <tag k="addr:city" v="Benson" />
    <tag k="addr:housenumber" v="44" />
    <tag k="addr:street" v="Sunset Lake Road" />
    <tag k="addr:state" v="VT" />
    <tag k="ref:vcgi:esiteid" v="21604" />
  </node>
  <node id="-261" visible="true" lat="43.73036426" lon="-73.34973925">
    <tag k="addr:city" v="Benson" />
    <tag k="addr:housenumber" v="2165" />
    <tag k="addr:street" v="North Lake Road" />
    <tag k="addr:state" v="VT" />
    <tag k="ref:vcgi:esiteid" v="21605" />
  </node>
  <node id="-262" visible="true" lat="43.73037835" lon="-73.34819307">
    <tag k="addr:city" v="Benson" />
    <tag k="addr:housenumber" v="2091" />
    <tag k="addr:street" v="North Lake Road" />
    <tag k="addr:state" v="VT" />
    <tag k="ref:vcgi:esiteid" v="21606" />
  </node>
  <node id="-263" visible="true" lat="43.73077179" lon="-73.269198">
    <tag k="addr:city" v="Benson" />
    <tag k="addr:housenumber" v="1779" />
    <tag k="addr:street" v="Route 144" />
    <tag k="addr:state" v="VT" />
    <tag k="ref:vcgi:esiteid" v="21607" />
  </node>
  <node id="-264" visible="true" lat="43.73024368" lon="-73.27083588">
    <tag k="addr:city" v="Benson" />
    <tag k="addr:housenumber" v="1691" />
    <tag k="addr:street" v="Route 144" />
    <tag k="addr:state" v="VT" />
    <tag k="ref:vcgi:esiteid" v="21608" />
  </node>
  <node id="-265" visible="true" lat="43.72992325" lon="-73.26903534">
    <tag k="addr:city" v="Benson" />
    <tag k="addr:housenumber" v="1772" />
    <tag k="addr:street" v="Route 144" />
    <tag k="addr:state" v="VT" />
    <tag k="ref:vcgi:esiteid" v="21609" />
  </node>
  <node id="-266" visible="true" lat="43.72826437" lon="-73.36795253">
    <tag k="addr:city" v="Benson" />
    <tag k="addr:housenumber" v="4820" />
    <tag k="addr:street" v="Lake Road" />
    <tag k="addr:state" v="VT" />
    <tag k="ref:vcgi:esiteid" v="21611" />
  </node>
  <node id="-267" visible="true" lat="43.72817023" lon="-73.3675222">
    <tag k="addr:city" v="Benson" />
    <tag k="addr:housenumber" v="18" />
    <tag k="addr:street" v="Morris Lane" />
    <tag k="addr:state" v="VT" />
    <tag k="ref:vcgi:esiteid" v="21612" />
  </node>
  <node id="-268" visible="true" lat="43.72799466" lon="-73.36675141">
    <tag k="addr:city" v="Benson" />
    <tag k="addr:housenumber" v="4775" />
    <tag k="addr:street" v="Lake Road" />
    <tag k="addr:state" v="VT" />
    <tag k="ref:vcgi:esiteid" v="21613" />
  </node>
  <node id="-269" visible="true" lat="43.72795044" lon="-73.36783621">
    <tag k="addr:city" v="Benson" />
    <tag k="addr:housenumber" v="28" />
    <tag k="addr:street" v="Morris Lane" />
    <tag k="addr:state" v="VT" />
    <tag k="ref:vcgi:esiteid" v="21614" />
  </node>
  <node id="-270" visible="true" lat="43.72790527" lon="-73.36738586">
    <tag k="addr:city" v="Benson" />
    <tag k="addr:housenumber" v="35" />
    <tag k="addr:street" v="Morris Lane" />
    <tag k="addr:state" v="VT" />
    <tag k="ref:vcgi:esiteid" v="21615" />
  </node>
  <node id="-271" visible="true" lat="43.70647586" lon="-73.31021734">
    <tag k="addr:city" v="Benson" />
    <tag k="addr:housenumber" v="745" />
    <tag k="addr:street" v="Lake Road" />
    <tag k="addr:state" v="VT" />
    <tag k="ref:vcgi:esiteid" v="21616" />
  </node>
  <node id="-272" visible="true" lat="43.72853137" lon="-73.24922476">
    <tag k="addr:city" v="Benson" />
    <tag k="addr:housenumber" v="4628" />
    <tag k="addr:street" v="East Road" />
    <tag k="addr:state" v="VT" />
    <tag k="ref:vcgi:esiteid" v="21617" />
  </node>
  <node id="-273" visible="true" lat="43.72756578" lon="-73.36768841">
    <tag k="addr:city" v="Benson" />
    <tag k="addr:housenumber" v="52" />
    <tag k="addr:street" v="Morris Lane" />
    <tag k="addr:state" v="VT" />
    <tag k="ref:vcgi:esiteid" v="21618" />
  </node>
  <node id="-274" visible="true" lat="43.72788503" lon="-73.34020558">
    <tag k="addr:city" v="Benson" />
    <tag k="addr:housenumber" v="1606" />
    <tag k="addr:street" v="North Lake Road" />
    <tag k="addr:state" v="VT" />
    <tag k="ref:vcgi:esiteid" v="21619" />
  </node>
  <node id="-275" visible="true" lat="43.72710802" lon="-73.36766553">
    <tag k="addr:city" v="Benson" />
    <tag k="addr:housenumber" v="90" />
    <tag k="addr:street" v="Morris Lane" />
    <tag k="addr:state" v="VT" />
    <tag k="ref:vcgi:esiteid" v="21620" />
  </node>
  <node id="-276" visible="true" lat="43.7274873" lon="-73.27191533">
    <tag k="addr:city" v="Benson" />
    <tag k="addr:housenumber" v="2051" />
    <tag k="addr:street" v="Howard Hill Road" />
    <tag k="addr:state" v="VT" />
    <tag k="ref:vcgi:esiteid" v="21621" />
  </node>
  <node id="-277" visible="true" lat="43.72685394" lon="-73.3677278">
    <tag k="addr:city" v="Benson" />
    <tag k="addr:housenumber" v="106" />
    <tag k="addr:street" v="Morris Lane" />
    <tag k="addr:state" v="VT" />
    <tag k="ref:vcgi:esiteid" v="21622" />
  </node>
  <node id="-278" visible="true" lat="43.72659902" lon="-73.36758355">
    <tag k="addr:city" v="Benson" />
    <tag k="addr:housenumber" v="133" />
    <tag k="addr:street" v="Morris Lane" />
    <tag k="addr:state" v="VT" />
    <tag k="ref:vcgi:esiteid" v="21623" />
  </node>
  <node id="-279" visible="true" lat="43.72619567" lon="-73.36781346">
    <tag k="addr:city" v="Benson" />
    <tag k="addr:housenumber" v="161" />
    <tag k="addr:street" v="Morris Lane" />
    <tag k="addr:state" v="VT" />
    <tag k="ref:vcgi:esiteid" v="21624" />
  </node>
  <node id="-280" visible="true" lat="43.72594568" lon="-73.36782985">
    <tag k="addr:city" v="Benson" />
    <tag k="addr:housenumber" v="185" />
    <tag k="addr:street" v="Morris Lane" />
    <tag k="addr:state" v="VT" />
    <tag k="ref:vcgi:esiteid" v="21625" />
  </node>
  <node id="-281" visible="true" lat="43.72576358" lon="-73.36768849">
    <tag k="addr:city" v="Benson" />
    <tag k="addr:housenumber" v="199" />
    <tag k="addr:street" v="Morris Lane" />
    <tag k="addr:state" v="VT" />
    <tag k="ref:vcgi:esiteid" v="21626" />
  </node>
  <node id="-282" visible="true" lat="43.72542492" lon="-73.36768725">
    <tag k="addr:city" v="Benson" />
    <tag k="addr:housenumber" v="221" />
    <tag k="addr:street" v="Morris Lane" />
    <tag k="addr:state" v="VT" />
    <tag k="ref:vcgi:esiteid" v="21627" />
  </node>
  <node id="-283" visible="true" lat="43.72615279" lon="-73.27144397">
    <tag k="addr:city" v="Benson" />
    <tag k="addr:housenumber" v="1863" />
    <tag k="addr:street" v="Howard Hill Road" />
    <tag k="addr:state" v="VT" />
    <tag k="ref:vcgi:esiteid" v="21628" />
  </node>
  <node id="-284" visible="true" lat="43.72605723" lon="-73.2782757">
    <tag k="addr:city" v="Benson" />
    <tag k="addr:housenumber" v="1211" />
    <tag k="addr:street" v="Route 144" />
    <tag k="addr:state" v="VT" />
    <tag k="ref:vcgi:esiteid" v="21629" />
  </node>
  <node id="-285" visible="true" lat="43.72521298" lon="-73.36761726">
    <tag k="addr:city" v="Benson" />
    <tag k="addr:housenumber" v="227" />
    <tag k="addr:street" v="Morris Lane" />
    <tag k="addr:state" v="VT" />
    <tag k="ref:vcgi:esiteid" v="21630" />
  </node>
  <node id="-286" visible="true" lat="43.72572132" lon="-73.27108936">
    <tag k="addr:city" v="Benson" />
    <tag k="addr:housenumber" v="1860" />
    <tag k="addr:street" v="Howard Hill Road" />
    <tag k="addr:state" v="VT" />
    <tag k="ref:vcgi:esiteid" v="21631" />
  </node>
  <node id="-287" visible="true" lat="43.72560185" lon="-73.28044029">
    <tag k="addr:city" v="Benson" />
    <tag k="addr:housenumber" v="1085" />
    <tag k="addr:street" v="Route 144" />
    <tag k="addr:state" v="VT" />
    <tag k="ref:vcgi:esiteid" v="21632" />
  </node>
  <node id="-288" visible="true" lat="43.72512612" lon="-73.30858834">
    <tag k="addr:city" v="Benson" />
    <tag k="addr:housenumber" v="380" />
    <tag k="addr:street" v="Coates Hill Road" />
    <tag k="addr:state" v="VT" />
    <tag k="ref:vcgi:esiteid" v="21633" />
  </node>
  <node id="-289" visible="true" lat="43.72541637" lon="-73.28283349">
    <tag k="addr:city" v="Benson" />
    <tag k="addr:housenumber" v="973" />
    <tag k="addr:street" v="Route 144" />
    <tag k="addr:state" v="VT" />
    <tag k="ref:vcgi:esiteid" v="21634" />
  </node>
  <node id="-290" visible="true" lat="43.72507941" lon="-73.27187595">
    <tag k="addr:city" v="Benson" />
    <tag k="addr:housenumber" v="1805" />
    <tag k="addr:street" v="Howard Hill Road" />
    <tag k="addr:state" v="VT" />
    <tag k="ref:vcgi:esiteid" v="21635" />
  </node>
  <node id="-291" visible="true" lat="43.72448854" lon="-73.33639679">
    <tag k="addr:city" v="Benson" />
    <tag k="addr:housenumber" v="1272" />
    <tag k="addr:street" v="North Lake Road" />
    <tag k="addr:state" v="VT" />
    <tag k="ref:vcgi:esiteid" v="21636" />
  </node>
  <node id="-292" visible="true" lat="43.72459123" lon="-73.27197191">
    <tag k="addr:city" v="Benson" />
    <tag k="addr:housenumber" v="1775" />
    <tag k="addr:street" v="Howard Hill Road" />
    <tag k="addr:state" v="VT" />
    <tag k="ref:vcgi:esiteid" v="21637" />
  </node>
  <node id="-293" visible="true" lat="43.72395417" lon="-73.31262264">
    <tag k="addr:city" v="Benson" />
    <tag k="addr:housenumber" v="3845" />
    <tag k="addr:street" v="Stage Road" />
    <tag k="addr:state" v="VT" />
    <tag k="ref:vcgi:esiteid" v="21638" />
  </node>
  <node id="-294" visible="true" lat="43.72374308" lon="-73.27219528">
    <tag k="addr:city" v="Benson" />
    <tag k="addr:housenumber" v="1715" />
    <tag k="addr:street" v="Howard Hill Road" />
    <tag k="addr:state" v="VT" />
    <tag k="ref:vcgi:esiteid" v="21639" />
  </node>
  <node id="-295" visible="true" lat="43.72378358" lon="-73.28670691">
    <tag k="addr:city" v="Benson" />
    <tag k="addr:housenumber" v="747" />
    <tag k="addr:street" v="Route 144" />
    <tag k="addr:state" v="VT" />
    <tag k="ref:vcgi:esiteid" v="21640" />
  </node>
  <node id="-296" visible="true" lat="43.72316234" lon="-73.31124816">
    <tag k="addr:city" v="Benson" />
    <tag k="addr:housenumber" v="3760" />
    <tag k="addr:street" v="Stage Road" />
    <tag k="addr:state" v="VT" />
    <tag k="ref:vcgi:esiteid" v="21641" />
  </node>
  <node id="-297" visible="true" lat="43.72346122" lon="-73.25196814">
    <tag k="addr:city" v="Benson" />
    <tag k="addr:housenumber" v="105" />
    <tag k="addr:street" v="Aines Road" />
    <tag k="addr:state" v="VT" />
    <tag k="ref:vcgi:esiteid" v="21642" />
  </node>
  <node id="-298" visible="true" lat="43.72323751" lon="-73.27188339">
    <tag k="addr:city" v="Benson" />
    <tag k="addr:housenumber" v="1678" />
    <tag k="addr:street" v="Howard Hill Road" />
    <tag k="addr:state" v="VT" />
    <tag k="ref:vcgi:esiteid" v="21643" />
  </node>
  <node id="-299" visible="true" lat="43.72301141" lon="-73.2880441">
    <tag k="addr:city" v="Benson" />
    <tag k="addr:housenumber" v="671" />
    <tag k="addr:street" v="Route 144" />
    <tag k="addr:state" v="VT" />
    <tag k="ref:vcgi:esiteid" v="21644" />
  </node>
  <node id="-300" visible="true" lat="43.72254955" lon="-73.31208304">
    <tag k="addr:city" v="Benson" />
    <tag k="addr:housenumber" v="3687" />
    <tag k="addr:street" v="Stage Road" />
    <tag k="addr:state" v="VT" />
    <tag k="ref:vcgi:esiteid" v="21645" />
  </node>
  <node id="-301" visible="true" lat="43.72249783" lon="-73.27228055">
    <tag k="addr:city" v="Benson" />
    <tag k="addr:housenumber" v="1629" />
    <tag k="addr:street" v="Howard Hill Road" />
    <tag k="addr:state" v="VT" />
    <tag k="ref:vcgi:esiteid" v="21646" />
  </node>
  <node id="-302" visible="true" lat="43.72156589" lon="-73.27184539">
    <tag k="addr:city" v="Benson" />
    <tag k="addr:housenumber" v="1562" />
    <tag k="addr:street" v="Howard Hill Road" />
    <tag k="addr:state" v="VT" />
    <tag k="ref:vcgi:esiteid" v="21647" />
  </node>
  <node id="-303" visible="true" lat="43.72054672" lon="-73.27292632">
    <tag k="addr:city" v="Benson" />
    <tag k="addr:housenumber" v="1463" />
    <tag k="addr:street" v="Howard Hill Road" />
    <tag k="addr:state" v="VT" />
    <tag k="ref:vcgi:esiteid" v="21648" />
  </node>
  <node id="-304" visible="true" lat="43.72012604" lon="-73.2986334">
    <tag k="addr:city" v="Benson" />
    <tag k="addr:housenumber" v="2649" />
    <tag k="addr:street" v="Vermont Route 22A" />
    <tag k="addr:state" v="VT" />
    <tag k="ref:vcgi:esiteid" v="21649" />
  </node>
  <node id="-305" visible="true" lat="43.71989981" lon="-73.29147271">
    <tag k="addr:city" v="Benson" />
    <tag k="addr:housenumber" v="426" />
    <tag k="addr:street" v="Route 144" />
    <tag k="addr:state" v="VT" />
    <tag k="ref:vcgi:esiteid" v="21650" />
  </node>
  <node id="-306" visible="true" lat="43.71986867" lon="-73.2723798">
    <tag k="addr:city" v="Benson" />
    <tag k="addr:housenumber" v="1446" />
    <tag k="addr:street" v="Howard Hill Road" />
    <tag k="addr:state" v="VT" />
    <tag k="ref:vcgi:esiteid" v="21651" />
  </node>
  <node id="-307" visible="true" lat="43.71952316" lon="-73.31104058">
    <tag k="addr:city" v="Benson" />
    <tag k="addr:housenumber" v="3469" />
    <tag k="addr:street" v="Stage Road" />
    <tag k="addr:state" v="VT" />
    <tag k="ref:vcgi:esiteid" v="21652" />
  </node>
  <node id="-308" visible="true" lat="43.71847205" lon="-73.36466142">
    <tag k="addr:city" v="Benson" />
    <tag k="addr:housenumber" v="4029" />
    <tag k="addr:street" v="Lake Road" />
    <tag k="addr:state" v="VT" />
    <tag k="ref:vcgi:esiteid" v="21653" />
  </node>
  <node id="-309" visible="true" lat="43.71821975" lon="-73.31044451">
    <tag k="addr:city" v="Benson" />
    <tag k="addr:housenumber" v="3415" />
    <tag k="addr:street" v="Stage Road" />
    <tag k="addr:state" v="VT" />
    <tag k="ref:vcgi:esiteid" v="21654" />
  </node>
  <node id="-310" visible="true" lat="43.7186083" lon="-73.27421269">
    <tag k="addr:city" v="Benson" />
    <tag k="addr:housenumber" v="1299" />
    <tag k="addr:street" v="Howard Hill Road" />
    <tag k="addr:state" v="VT" />
    <tag k="ref:vcgi:esiteid" v="21655" />
  </node>
  <node id="-311" visible="true" lat="43.7188034" lon="-73.23777007">
    <tag k="addr:city" v="Benson" />
    <tag k="addr:housenumber" v="876" />
    <tag k="addr:street" v="Burns Road" />
    <tag k="addr:state" v="VT" />
    <tag k="ref:vcgi:esiteid" v="21656" />
  </node>
  <node id="-312" visible="true" lat="43.7185579" lon="-73.25000829">
    <tag k="addr:city" v="Benson" />
    <tag k="addr:housenumber" v="3934" />
    <tag k="addr:street" v="East Road" />
    <tag k="addr:state" v="VT" />
    <tag k="ref:vcgi:esiteid" v="21658" />
  </node>
  <node id="-313" visible="true" lat="43.72142567" lon="-73.32594884">
    <tag k="addr:city" v="Benson" />
    <tag k="addr:housenumber" v="1054" />
    <tag k="addr:street" v="Glenn Road" />
    <tag k="addr:state" v="VT" />
    <tag k="ref:vcgi:esiteid" v="21659" />
  </node>
  <node id="-314" visible="true" lat="43.71887376" lon="-73.23672948">
    <tag k="addr:city" v="Benson" />
    <tag k="addr:housenumber" v="862" />
    <tag k="addr:street" v="Burns Road" />
    <tag k="addr:state" v="VT" />
    <tag k="ref:vcgi:esiteid" v="21660" />
  </node>
  <node id="-315" visible="true" lat="43.7178538" lon="-73.29848435">
    <tag k="addr:city" v="Benson" />
    <tag k="addr:housenumber" v="2813" />
    <tag k="addr:street" v="Vermont Route 22A" />
    <tag k="addr:state" v="VT" />
    <tag k="ref:vcgi:esiteid" v="21661" />
  </node>
  <node id="-316" visible="true" lat="43.71846679" lon="-73.2387008">
    <tag k="addr:city" v="Benson" />
    <tag k="addr:housenumber" v="988" />
    <tag k="addr:street" v="Burns Road" />
    <tag k="addr:state" v="VT" />
    <tag k="ref:vcgi:esiteid" v="21662" />
  </node>
  <node id="-317" visible="true" lat="43.71805817" lon="-73.29799945">
    <tag k="addr:city" v="Benson" />
    <tag k="addr:housenumber" v="35" />
    <tag k="addr:street" v="Route 144" />
    <tag k="addr:state" v="VT" />
    <tag k="ref:vcgi:esiteid" v="21663" />
  </node>
  <node id="-318" visible="true" lat="43.71727719" lon="-73.30879635">
    <tag k="addr:city" v="Benson" />
    <tag k="addr:housenumber" v="3322" />
    <tag k="addr:street" v="Stage Road" />
    <tag k="addr:state" v="VT" />
    <tag k="ref:vcgi:esiteid" v="21664" />
  </node>
  <node id="-319" visible="true" lat="43.71747207" lon="-73.23702239">
    <tag k="addr:city" v="Benson" />
    <tag k="addr:housenumber" v="901" />
    <tag k="addr:street" v="Burns Road" />
    <tag k="addr:state" v="VT" />
    <tag k="ref:vcgi:esiteid" v="21665" />
  </node>
  <node id="-320" visible="true" lat="43.71694853" lon="-73.29585951">
    <tag k="addr:city" v="Benson" />
    <tag k="addr:housenumber" v="152" />
    <tag k="addr:street" v="Route 144" />
    <tag k="addr:state" v="VT" />
    <tag k="ref:vcgi:esiteid" v="21666" />
  </node>
  <node id="-321" visible="true" lat="43.71681387" lon="-73.3105809">
    <tag k="addr:city" v="Benson" />
    <tag k="addr:housenumber" v="3279" />
    <tag k="addr:street" v="Stage Road" />
    <tag k="addr:state" v="VT" />
    <tag k="ref:vcgi:esiteid" v="21667" />
  </node>
  <node id="-322" visible="true" lat="43.71681017" lon="-73.31006965">
    <tag k="addr:city" v="Benson" />
    <tag k="addr:housenumber" v="3305" />
    <tag k="addr:street" v="Stage Road" />
    <tag k="addr:state" v="VT" />
    <tag k="ref:vcgi:esiteid" v="21668" />
  </node>
  <node id="-323" visible="true" lat="43.7193575" lon="-73.30901757">
    <tag k="addr:city" v="Benson" />
    <tag k="addr:housenumber" v="3514" />
    <tag k="addr:street" v="Stage Road" />
    <tag k="addr:state" v="VT" />
    <tag k="ref:vcgi:esiteid" v="21669" />
  </node>
  <node id="-324" visible="true" lat="43.71637402" lon="-73.3084846">
    <tag k="addr:city" v="Benson" />
    <tag k="addr:housenumber" v="3230" />
    <tag k="addr:street" v="Stage Road" />
    <tag k="addr:state" v="VT" />
    <tag k="ref:vcgi:esiteid" v="21670" />
  </node>
  <node id="-325" visible="true" lat="43.71657916" lon="-73.23846976">
    <tag k="addr:city" v="Benson" />
    <tag k="addr:housenumber" v="1069" />
    <tag k="addr:street" v="Burns Road" />
    <tag k="addr:state" v="VT" />
    <tag k="ref:vcgi:esiteid" v="21671" />
  </node>
  <node id="-326" visible="true" lat="43.71691304" lon="-73.30106527">
    <tag k="addr:city" v="Benson" />
    <tag k="addr:housenumber" v="120" />
    <tag k="addr:street" v="Hulett Hill Road" />
    <tag k="addr:state" v="VT" />
    <tag k="ref:vcgi:esiteid" v="21672" />
  </node>
  <node id="-327" visible="true" lat="43.71587038" lon="-73.30368642">
    <tag k="addr:city" v="Benson" />
    <tag k="addr:housenumber" v="240" />
    <tag k="addr:street" v="Hulett Hill Road" />
    <tag k="addr:state" v="VT" />
    <tag k="ref:vcgi:esiteid" v="21673" />
  </node>
  <node id="-328" visible="true" lat="43.71534165" lon="-73.36418529">
    <tag k="addr:city" v="Benson" />
    <tag k="addr:housenumber" v="3837" />
    <tag k="addr:street" v="Lake Road" />
    <tag k="addr:state" v="VT" />
    <tag k="ref:vcgi:esiteid" v="21674" />
  </node>
  <node id="-329" visible="true" lat="43.71611273" lon="-73.30021252">
    <tag k="addr:city" v="Benson" />
    <tag k="addr:housenumber" v="62" />
    <tag k="addr:street" v="Hulett Hill Road" />
    <tag k="addr:state" v="VT" />
    <tag k="ref:vcgi:esiteid" v="21675" />
  </node>
  <node id="-330" visible="true" lat="43.71536228" lon="-73.30447156">
    <tag k="addr:city" v="Benson" />
    <tag k="addr:housenumber" v="316" />
    <tag k="addr:street" v="Hulett Hill Road" />
    <tag k="addr:state" v="VT" />
    <tag k="ref:vcgi:esiteid" v="21676" />
  </node>
  <node id="-331" visible="true" lat="43.71511077" lon="-73.3323059">
    <tag k="addr:city" v="Benson" />
    <tag k="addr:housenumber" v="549" />
    <tag k="addr:street" v="North Lake Road" />
    <tag k="addr:state" v="VT" />
    <tag k="ref:vcgi:esiteid" v="21677" />
  </node>
  <node id="-332" visible="true" lat="43.71512971" lon="-73.31032122">
    <tag k="addr:city" v="Benson" />
    <tag k="addr:housenumber" v="3193" />
    <tag k="addr:street" v="Stage Road" />
    <tag k="addr:state" v="VT" />
    <tag k="ref:vcgi:esiteid" v="21678" />
  </node>
  <node id="-333" visible="true" lat="43.71468662" lon="-73.31018602">
    <tag k="addr:city" v="Benson" />
    <tag k="addr:housenumber" v="3155" />
    <tag k="addr:street" v="Stage Road" />
    <tag k="addr:state" v="VT" />
    <tag k="ref:vcgi:esiteid" v="21679" />
  </node>
  <node id="-334" visible="true" lat="43.71462632" lon="-73.27395978">
    <tag k="addr:city" v="Benson" />
    <tag k="addr:housenumber" v="1071" />
    <tag k="addr:street" v="Howard Hill Road" />
    <tag k="addr:state" v="VT" />
    <tag k="ref:vcgi:esiteid" v="21680" />
  </node>
  <node id="-335" visible="true" lat="43.71378251" lon="-73.35471249">
    <tag k="addr:city" v="Benson" />
    <tag k="addr:housenumber" v="3154" />
    <tag k="addr:street" v="Lake Road" />
    <tag k="addr:state" v="VT" />
    <tag k="ref:vcgi:esiteid" v="21681" />
  </node>
  <node id="-336" visible="true" lat="43.71424585" lon="-73.27348199">
    <tag k="addr:city" v="Benson" />
    <tag k="addr:housenumber" v="1052" />
    <tag k="addr:street" v="Howard Hill Road" />
    <tag k="addr:state" v="VT" />
    <tag k="ref:vcgi:esiteid" v="21682" />
  </node>
  <node id="-337" visible="true" lat="43.71371584" lon="-73.35621019">
    <tag k="addr:city" v="Benson" />
    <tag k="addr:housenumber" v="3225" />
    <tag k="addr:street" v="Lake Road" />
    <tag k="addr:state" v="VT" />
    <tag k="ref:vcgi:esiteid" v="21683" />
  </node>
  <node id="-338" visible="true" lat="43.71397039" lon="-73.30644106">
    <tag k="addr:city" v="Benson" />
    <tag k="addr:housenumber" v="420" />
    <tag k="addr:street" v="Hulett Hill Road" />
    <tag k="addr:state" v="VT" />
    <tag k="ref:vcgi:esiteid" v="21684" />
  </node>
  <node id="-339" visible="true" lat="43.71349419" lon="-73.35191647">
    <tag k="addr:city" v="Benson" />
    <tag k="addr:housenumber" v="2994" />
    <tag k="addr:street" v="Lake Road" />
    <tag k="addr:state" v="VT" />
    <tag k="ref:vcgi:esiteid" v="21685" />
  </node>
  <node id="-340" visible="true" lat="43.71352339" lon="-73.30555517">
    <tag k="addr:city" v="Benson" />
    <tag k="addr:housenumber" v="399" />
    <tag k="addr:street" v="Hulett Hill Road" />
    <tag k="addr:state" v="VT" />
    <tag k="ref:vcgi:esiteid" v="21686" />
  </node>
  <node id="-341" visible="true" lat="43.71329375" lon="-73.35062913">
    <tag k="addr:city" v="Benson" />
    <tag k="addr:housenumber" v="2996" />
    <tag k="addr:street" v="Lake Road" />
    <tag k="addr:state" v="VT" />
    <tag k="ref:vcgi:esiteid" v="21687" />
  </node>
  <node id="-342" visible="true" lat="43.71342292" lon="-73.31021766">
    <tag k="addr:city" v="Benson" />
    <tag k="addr:housenumber" v="3071" />
    <tag k="addr:street" v="Stage Road" />
    <tag k="addr:state" v="VT" />
    <tag k="ref:vcgi:esiteid" v="21688" />
  </node>
  <node id="-343" visible="true" lat="43.71351477" lon="-73.30899849">
    <tag k="addr:city" v="Benson" />
    <tag k="addr:housenumber" v="3116" />
    <tag k="addr:street" v="Stage Road" />
    <tag k="addr:state" v="VT" />
    <tag k="ref:vcgi:esiteid" v="21689" />
  </node>
  <node id="-344" visible="true" lat="43.71286595" lon="-73.3097306">
    <tag k="addr:city" v="Benson" />
    <tag k="addr:housenumber" v="3056" />
    <tag k="addr:street" v="Stage Road" />
    <tag k="addr:state" v="VT" />
    <tag k="ref:vcgi:esiteid" v="21690" />
  </node>
  <node id="-345" visible="true" lat="43.71259089" lon="-73.30878182">
    <tag k="addr:city" v="Benson" />
    <tag k="addr:housenumber" v="598" />
    <tag k="addr:street" v="Hulett Hill Road" />
    <tag k="addr:state" v="VT" />
    <tag k="ref:vcgi:esiteid" v="21691" />
  </node>
  <node id="-346" visible="true" lat="43.71252743" lon="-73.30812292">
    <tag k="addr:city" v="Benson" />
    <tag k="addr:housenumber" v="550" />
    <tag k="addr:street" v="Hulett Hill Road" />
    <tag k="addr:state" v="VT" />
    <tag k="ref:vcgi:esiteid" v="21692" />
  </node>
  <node id="-347" visible="true" lat="43.71246695" lon="-73.30982334">
    <tag k="addr:city" v="Benson" />
    <tag k="addr:housenumber" v="2998" />
    <tag k="addr:street" v="Stage Road" />
    <tag k="addr:state" v="VT" />
    <tag k="ref:vcgi:esiteid" v="21693" />
  </node>
  <node id="-348" visible="true" lat="43.71181256" lon="-73.31999882">
    <tag k="addr:city" v="Benson" />
    <tag k="addr:housenumber" v="503" />
    <tag k="addr:street" v="Glenn Road" />
    <tag k="addr:state" v="VT" />
    <tag k="ref:vcgi:esiteid" v="21694" />
  </node>
  <node id="-349" visible="true" lat="43.71135479" lon="-73.3604023">
    <tag k="addr:city" v="Benson" />
    <tag k="addr:housenumber" v="3503" />
    <tag k="addr:street" v="Lake Road" />
    <tag k="addr:state" v="VT" />
    <tag k="ref:vcgi:esiteid" v="21695" />
  </node>
  <node id="-350" visible="true" lat="43.71210887" lon="-73.25209412">
    <tag k="addr:city" v="Benson" />
    <tag k="addr:housenumber" v="3489" />
    <tag k="addr:street" v="East Road" />
    <tag k="addr:state" v="VT" />
    <tag k="ref:vcgi:esiteid" v="21696" />
  </node>
  <node id="-351" visible="true" lat="43.71165675" lon="-73.31059388">
    <tag k="addr:city" v="Benson" />
    <tag k="addr:housenumber" v="2951" />
    <tag k="addr:street" v="Stage Road" />
    <tag k="addr:state" v="VT" />
    <tag k="ref:vcgi:esiteid" v="21697" />
  </node>
  <node id="-352" visible="true" lat="43.7116039" lon="-73.30975338">
    <tag k="addr:city" v="Benson" />
    <tag k="addr:housenumber" v="2940" />
    <tag k="addr:street" v="Stage Road" />
    <tag k="addr:state" v="VT" />
    <tag k="ref:vcgi:esiteid" v="21698" />
  </node>
  <node id="-353" visible="true" lat="43.71118521" lon="-73.35895769">
    <tag k="addr:city" v="Benson" />
    <tag k="addr:housenumber" v="3449" />
    <tag k="addr:street" v="Lake Road" />
    <tag k="addr:state" v="VT" />
    <tag k="ref:vcgi:esiteid" v="21699" />
  </node>
  <node id="-354" visible="true" lat="43.71152184" lon="-73.31233696">
    <tag k="addr:city" v="Benson" />
    <tag k="addr:housenumber" v="114" />
    <tag k="addr:street" v="Glenn Road" />
    <tag k="addr:state" v="VT" />
    <tag k="ref:vcgi:esiteid" v="21700" />
  </node>
  <node id="-355" visible="true" lat="43.71126412" lon="-73.3154986">
    <tag k="addr:city" v="Benson" />
    <tag k="addr:housenumber" v="269" />
    <tag k="addr:street" v="Glenn Road" />
    <tag k="addr:state" v="VT" />
    <tag k="ref:vcgi:esiteid" v="21701" />
  </node>
  <node id="-356" visible="true" lat="43.71107535" lon="-73.31755315">
    <tag k="addr:city" v="Benson" />
    <tag k="addr:housenumber" v="373" />
    <tag k="addr:street" v="Glenn Road" />
    <tag k="addr:state" v="VT" />
    <tag k="ref:vcgi:esiteid" v="21702" />
  </node>
  <node id="-357" visible="true" lat="43.71056092" lon="-73.34775723">
    <tag k="addr:city" v="Benson" />
    <tag k="addr:housenumber" v="2725" />
    <tag k="addr:street" v="Lake Road" />
    <tag k="addr:state" v="VT" />
    <tag k="ref:vcgi:esiteid" v="21703" />
  </node>
  <node id="-358" visible="true" lat="43.71101521" lon="-73.31065617">
    <tag k="addr:city" v="Benson" />
    <tag k="addr:housenumber" v="25" />
    <tag k="addr:street" v="Glenn Road" />
    <tag k="addr:state" v="VT" />
    <tag k="ref:vcgi:esiteid" v="21704" />
  </node>
  <node id="-359" visible="true" lat="43.71052083" lon="-73.31905566">
    <tag k="addr:city" v="Benson" />
    <tag k="addr:housenumber" v="417" />
    <tag k="addr:street" v="Glenn Road" />
    <tag k="addr:state" v="VT" />
    <tag k="ref:vcgi:esiteid" v="21705" />
  </node>
  <node id="-360" visible="true" lat="43.71044215" lon="-73.30980917">
    <tag k="addr:city" v="Benson" />
    <tag k="addr:housenumber" v="2862" />
    <tag k="addr:street" v="Stage Road" />
    <tag k="addr:state" v="VT" />
    <tag k="ref:vcgi:esiteid" v="21706" />
  </node>
  <node id="-361" visible="true" lat="43.71026271" lon="-73.3431039">
    <tag k="addr:city" v="Benson" />
    <tag k="addr:housenumber" v="2494" />
    <tag k="addr:street" v="Lake Road" />
    <tag k="addr:state" v="VT" />
    <tag k="ref:vcgi:esiteid" v="21707" />
  </node>
  <node id="-362" visible="true" lat="43.71000932" lon="-73.31064368">
    <tag k="addr:city" v="Benson" />
    <tag k="addr:housenumber" v="2813" />
    <tag k="addr:street" v="Stage Road" />
    <tag k="addr:state" v="VT" />
    <tag k="ref:vcgi:esiteid" v="21708" />
  </node>
  <node id="-363" visible="true" lat="43.71044407" lon="-73.31067275">
    <tag k="addr:city" v="Benson" />
    <tag k="addr:housenumber" v="2845" />
    <tag k="addr:street" v="Stage Road" />
    <tag k="addr:state" v="VT" />
    <tag k="ref:vcgi:esiteid" v="21709" />
  </node>
  <node id="-364" visible="true" lat="43.71035553" lon="-73.276889">
    <tag k="addr:city" v="Benson" />
    <tag k="addr:housenumber" v="731" />
    <tag k="addr:street" v="Howard Hill Road" />
    <tag k="addr:state" v="VT" />
    <tag k="ref:vcgi:esiteid" v="21710" />
  </node>
  <node id="-365" visible="true" lat="43.71017441" lon="-73.30993712">
    <tag k="addr:city" v="Benson" />
    <tag k="addr:housenumber" v="2844" />
    <tag k="addr:street" v="Stage Road" />
    <tag k="addr:state" v="VT" />
    <tag k="ref:vcgi:esiteid" v="21711" />
  </node>
  <node id="-366" visible="true" lat="43.71027152" lon="-73.29775062">
    <tag k="addr:city" v="Benson" />
    <tag k="addr:housenumber" v="3356" />
    <tag k="addr:street" v="Vermont Route 22A" />
    <tag k="addr:state" v="VT" />
    <tag k="ref:vcgi:esiteid" v="21712" />
  </node>
  <node id="-367" visible="true" lat="43.70994876" lon="-73.31613128">
    <tag k="addr:city" v="Benson" />
    <tag k="addr:housenumber" v="319" />
    <tag k="addr:street" v="Glenn Road" />
    <tag k="addr:state" v="VT" />
    <tag k="ref:vcgi:esiteid" v="21713" />
  </node>
  <node id="-368" visible="true" lat="43.70970607" lon="-73.31070883">
    <tag k="addr:city" v="Benson" />
    <tag k="addr:housenumber" v="2801" />
    <tag k="addr:street" v="Stage Road" />
    <tag k="addr:state" v="VT" />
    <tag k="ref:vcgi:esiteid" v="21715" />
  </node>
  <node id="-369" visible="true" lat="43.70981164" lon="-73.30999242">
    <tag k="addr:city" v="Benson" />
    <tag k="addr:housenumber" v="2814" />
    <tag k="addr:street" v="Stage Road" />
    <tag k="addr:state" v="VT" />
    <tag k="ref:vcgi:esiteid" v="21716" />
  </node>
  <node id="-370" visible="true" lat="43.70957328" lon="-73.30998936">
    <tag k="addr:city" v="Benson" />
    <tag k="addr:housenumber" v="2802" />
    <tag k="addr:street" v="Stage Road" />
    <tag k="addr:state" v="VT" />
    <tag k="ref:vcgi:esiteid" v="21717" />
  </node>
  <node id="-371" visible="true" lat="43.709414" lon="-73.33739135">
    <tag k="addr:city" v="Benson" />
    <tag k="addr:housenumber" v="2162" />
    <tag k="addr:street" v="Lake Road" />
    <tag k="addr:state" v="VT" />
    <tag k="ref:vcgi:esiteid" v="21718" />
  </node>
  <node id="-372" visible="true" lat="43.70936166" lon="-73.31083312">
    <tag k="addr:city" v="Benson" />
    <tag k="addr:housenumber" v="2793" />
    <tag k="addr:street" v="Stage Road" />
    <tag k="addr:state" v="VT" />
    <tag k="ref:vcgi:esiteid" v="21719" />
  </node>
  <node id="-373" visible="true" lat="43.70928716" lon="-73.30999751">
    <tag k="addr:city" v="Benson" />
    <tag k="addr:housenumber" v="2774" />
    <tag k="addr:street" v="Stage Road" />
    <tag k="addr:state" v="VT" />
    <tag k="ref:vcgi:esiteid" v="21720" />
  </node>
  <node id="-374" visible="true" lat="43.70896101" lon="-73.30966289">
    <tag k="addr:city" v="Benson" />
    <tag k="addr:housenumber" v="2760" />
    <tag k="addr:street" v="Stage Road" />
    <tag k="addr:state" v="VT" />
    <tag k="ref:vcgi:esiteid" v="21721" />
  </node>
  <node id="-375" visible="true" lat="43.70889819" lon="-73.31078753">
    <tag k="addr:city" v="Benson" />
    <tag k="addr:housenumber" v="2745" />
    <tag k="addr:street" v="Stage Road" />
    <tag k="addr:state" v="VT" />
    <tag k="ref:vcgi:esiteid" v="21722" />
  </node>
  <node id="-376" visible="true" lat="43.7087021" lon="-73.31128298">
    <tag k="addr:city" v="Benson" />
    <tag k="addr:housenumber" v="2747" />
    <tag k="addr:street" v="Stage Road" />
    <tag k="addr:state" v="VT" />
    <tag k="ref:vcgi:esiteid" v="21723" />
  </node>
  <node id="-377" visible="true" lat="43.70870846" lon="-73.29743891">
    <tag k="addr:city" v="Benson" />
    <tag k="addr:housenumber" v="3458" />
    <tag k="addr:street" v="Vermont Route 22A" />
    <tag k="addr:state" v="VT" />
    <tag k="ref:vcgi:esiteid" v="21724" />
  </node>
  <node id="-378" visible="true" lat="43.7083855" lon="-73.31074735">
    <tag k="addr:city" v="Benson" />
    <tag k="addr:housenumber" v="2719" />
    <tag k="addr:street" v="Stage Road" />
    <tag k="addr:state" v="VT" />
    <tag k="ref:vcgi:esiteid" v="21725" />
  </node>
  <node id="-379" visible="true" lat="43.70830406" lon="-73.33374054">
    <tag k="addr:city" v="Benson" />
    <tag k="addr:housenumber" v="2006" />
    <tag k="addr:street" v="Lake Road" />
    <tag k="addr:state" v="VT" />
    <tag k="ref:vcgi:esiteid" v="21726" />
  </node>
  <node id="-380" visible="true" lat="43.70890241" lon="-73.24678706">
    <tag k="addr:city" v="Benson" />
    <tag k="addr:housenumber" v="289" />
    <tag k="addr:street" v="Crandall Road" />
    <tag k="addr:state" v="VT" />
    <tag k="ref:vcgi:esiteid" v="21727" />
  </node>
  <node id="-381" visible="true" lat="43.70835198" lon="-73.30963507">
    <tag k="addr:city" v="Benson" />
    <tag k="addr:housenumber" v="2724" />
    <tag k="addr:street" v="Stage Road" />
    <tag k="addr:state" v="VT" />
    <tag k="ref:vcgi:esiteid" v="21728" />
  </node>
  <node id="-382" visible="true" lat="43.70808792" lon="-73.31004333">
    <tag k="addr:city" v="Benson" />
    <tag k="addr:housenumber" v="2702" />
    <tag k="addr:street" v="Stage Road" />
    <tag k="addr:state" v="VT" />
    <tag k="ref:vcgi:esiteid" v="21729" />
  </node>
  <node id="-383" visible="true" lat="43.70922004" lon="-73.30500057">
    <tag k="addr:city" v="Benson" />
    <tag k="addr:housenumber" v="172" />
    <tag k="addr:street" v="School Street" />
    <tag k="addr:state" v="VT" />
    <tag k="ref:vcgi:esiteid" v="21730" />
  </node>
  <node id="-384" visible="true" lat="43.7078484" lon="-73.31072123">
    <tag k="addr:city" v="Benson" />
    <tag k="addr:housenumber" v="2683" />
    <tag k="addr:street" v="Stage Road" />
    <tag k="addr:state" v="VT" />
    <tag k="ref:vcgi:esiteid" v="21731" />
  </node>
  <node id="-385" visible="true" lat="43.70786662" lon="-73.31009655">
    <tag k="addr:city" v="Benson" />
    <tag k="addr:housenumber" v="2680" />
    <tag k="addr:street" v="Stage Road" />
    <tag k="addr:state" v="VT" />
    <tag k="ref:vcgi:esiteid" v="21732" />
  </node>
  <node id="-386" visible="true" lat="43.70762086" lon="-73.31012109">
    <tag k="addr:city" v="Benson" />
    <tag k="addr:housenumber" v="2670" />
    <tag k="addr:street" v="Stage Road" />
    <tag k="addr:state" v="VT" />
    <tag k="ref:vcgi:esiteid" v="21733" />
  </node>
  <node id="-387" visible="true" lat="43.70749282" lon="-73.31065368">
    <tag k="addr:city" v="Benson" />
    <tag k="addr:housenumber" v="2659" />
    <tag k="addr:street" v="Stage Road" />
    <tag k="addr:state" v="VT" />
    <tag k="ref:vcgi:esiteid" v="21734" />
  </node>
  <node id="-388" visible="true" lat="43.70728223" lon="-73.3101647">
    <tag k="addr:city" v="Benson" />
    <tag k="addr:housenumber" v="2646" />
    <tag k="addr:street" v="Stage Road" />
    <tag k="addr:state" v="VT" />
    <tag k="ref:vcgi:esiteid" v="21735" />
  </node>
  <node id="-389" visible="true" lat="43.70734646" lon="-73.31071625">
    <tag k="addr:city" v="Benson" />
    <tag k="addr:housenumber" v="2647" />
    <tag k="addr:street" v="Stage Road" />
    <tag k="addr:state" v="VT" />
    <tag k="ref:vcgi:esiteid" v="21736" />
  </node>
  <node id="-390" visible="true" lat="43.70746554" lon="-73.30349843">
    <tag k="addr:city" v="Benson" />
    <tag k="addr:housenumber" v="80" />
    <tag k="addr:street" v="School Street" />
    <tag k="addr:state" v="VT" />
    <tag k="ref:vcgi:esiteid" v="21737" />
  </node>
  <node id="-391" visible="true" lat="43.70712661" lon="-73.31008911">
    <tag k="addr:city" v="Benson" />
    <tag k="addr:housenumber" v="2626" />
    <tag k="addr:street" v="Stage Road" />
    <tag k="addr:state" v="VT" />
    <tag k="ref:vcgi:esiteid" v="21739" />
  </node>
  <node id="-392" visible="true" lat="43.70702512" lon="-73.31025185">
    <tag k="addr:city" v="Benson" />
    <tag k="addr:housenumber" v="2618" />
    <tag k="addr:street" v="Stage Road" />
    <tag k="addr:state" v="VT" />
    <tag k="ref:vcgi:esiteid" v="21740" />
  </node>
  <node id="-393" visible="true" lat="43.70702581" lon="-73.30216408">
    <tag k="addr:city" v="Benson" />
    <tag k="addr:housenumber" v="32" />
    <tag k="addr:street" v="School Street" />
    <tag k="addr:state" v="VT" />
    <tag k="ref:vcgi:esiteid" v="21741" />
  </node>
  <node id="-394" visible="true" lat="43.70696924" lon="-73.31081817">
    <tag k="addr:city" v="Benson" />
    <tag k="addr:housenumber" v="2623" />
    <tag k="addr:street" v="Stage Road" />
    <tag k="addr:state" v="VT" />
    <tag k="ref:vcgi:esiteid" v="21742" />
  </node>
  <node id="-395" visible="true" lat="43.70679276" lon="-73.30636501">
    <tag k="addr:city" v="Benson" />
    <tag k="addr:housenumber" v="556" />
    <tag k="addr:street" v="Lake Road" />
    <tag k="addr:state" v="VT" />
    <tag k="ref:vcgi:esiteid" v="21743" />
  </node>
  <node id="-396" visible="true" lat="43.70679544" lon="-73.31085058">
    <tag k="addr:city" v="Benson" />
    <tag k="addr:housenumber" v="774" />
    <tag k="addr:street" v="Lake Road" />
    <tag k="addr:state" v="VT" />
    <tag k="ref:vcgi:esiteid" v="21744" />
  </node>
  <node id="-397" visible="true" lat="43.70693151" lon="-73.31265758">
    <tag k="addr:city" v="Benson" />
    <tag k="addr:housenumber" v="870" />
    <tag k="addr:street" v="Lake Road" />
    <tag k="addr:state" v="VT" />
    <tag k="ref:vcgi:esiteid" v="21745" />
  </node>
  <node id="-398" visible="true" lat="43.70682776" lon="-73.31178089">
    <tag k="addr:city" v="Benson" />
    <tag k="addr:housenumber" v="822" />
    <tag k="addr:street" v="Lake Road" />
    <tag k="addr:state" v="VT" />
    <tag k="ref:vcgi:esiteid" v="21746" />
  </node>
  <node id="-399" visible="true" lat="43.70686808" lon="-73.31354725">
    <tag k="addr:city" v="Benson" />
    <tag k="addr:housenumber" v="912" />
    <tag k="addr:street" v="Lake Road" />
    <tag k="addr:state" v="VT" />
    <tag k="ref:vcgi:esiteid" v="21747" />
  </node>
  <node id="-400" visible="true" lat="43.70680053" lon="-73.31202882">
    <tag k="addr:city" v="Benson" />
    <tag k="addr:housenumber" v="834" />
    <tag k="addr:street" v="Lake Road" />
    <tag k="addr:state" v="VT" />
    <tag k="ref:vcgi:esiteid" v="21748" />
  </node>
  <node id="-401" visible="true" lat="43.70678787" lon="-73.31148631">
    <tag k="addr:city" v="Benson" />
    <tag k="addr:housenumber" v="806" />
    <tag k="addr:street" v="Lake Road" />
    <tag k="addr:state" v="VT" />
    <tag k="ref:vcgi:esiteid" v="21749" />
  </node>
  <node id="-402" visible="true" lat="43.70683552" lon="-73.31224902">
    <tag k="addr:city" v="Benson" />
    <tag k="addr:housenumber" v="848" />
    <tag k="addr:street" v="Lake Road" />
    <tag k="addr:state" v="VT" />
    <tag k="ref:vcgi:esiteid" v="21750" />
  </node>
  <node id="-403" visible="true" lat="43.70653587" lon="-73.32164522">
    <tag k="addr:city" v="Benson" />
    <tag k="addr:housenumber" v="1349" />
    <tag k="addr:street" v="Lake Road" />
    <tag k="addr:state" v="VT" />
    <tag k="ref:vcgi:esiteid" v="21751" />
  </node>
  <node id="-404" visible="true" lat="43.70680379" lon="-73.30938232">
    <tag k="addr:city" v="Benson" />
    <tag k="addr:housenumber" v="698" />
    <tag k="addr:street" v="Lake Road" />
    <tag k="addr:state" v="VT" />
    <tag k="ref:vcgi:esiteid" v="21753" />
  </node>
  <node id="-405" visible="true" lat="43.70680165" lon="-73.3099687">
    <tag k="addr:city" v="Benson" />
    <tag k="addr:housenumber" v="730" />
    <tag k="addr:street" v="Lake Road" />
    <tag k="addr:state" v="VT" />
    <tag k="ref:vcgi:esiteid" v="21754" />
  </node>
  <node id="-406" visible="true" lat="43.70663259" lon="-73.3234089">
    <tag k="addr:city" v="Benson" />
    <tag k="addr:housenumber" v="1431" />
    <tag k="addr:street" v="Lake Road" />
    <tag k="addr:state" v="VT" />
    <tag k="ref:vcgi:esiteid" v="21755" />
  </node>
  <node id="-407" visible="true" lat="43.70673303" lon="-73.30576695">
    <tag k="addr:city" v="Benson" />
    <tag k="addr:housenumber" v="516" />
    <tag k="addr:street" v="Lake Road" />
    <tag k="addr:state" v="VT" />
    <tag k="ref:vcgi:esiteid" v="21756" />
  </node>
  <node id="-408" visible="true" lat="43.70621415" lon="-73.36254087">
    <tag k="addr:city" v="Benson" />
    <tag k="addr:housenumber" v="460" />
    <tag k="addr:street" v="Carter Street" />
    <tag k="addr:state" v="VT" />
    <tag k="ref:vcgi:esiteid" v="21757" />
  </node>
  <node id="-409" visible="true" lat="43.70651796" lon="-73.31081477">
    <tag k="addr:city" v="Benson" />
    <tag k="addr:housenumber" v="767" />
    <tag k="addr:street" v="Lake Road" />
    <tag k="addr:state" v="VT" />
    <tag k="ref:vcgi:esiteid" v="21758" />
  </node>
  <node id="-410" visible="true" lat="43.70651764" lon="-73.29690839">
    <tag k="addr:city" v="Benson" />
    <tag k="addr:housenumber" v="3608" />
    <tag k="addr:street" v="Vermont Route 22A" />
    <tag k="addr:state" v="VT" />
    <tag k="ref:vcgi:esiteid" v="21759" />
  </node>
  <node id="-411" visible="true" lat="43.70648017" lon="-73.30210624">
    <tag k="addr:city" v="Benson" />
    <tag k="addr:housenumber" v="30" />
    <tag k="addr:street" v="Bowen Lane" />
    <tag k="addr:state" v="VT" />
    <tag k="ref:vcgi:esiteid" v="21761" />
  </node>
  <node id="-412" visible="true" lat="43.70648956" lon="-73.30255127">
    <tag k="addr:city" v="Benson" />
    <tag k="addr:housenumber" v="23" />
    <tag k="addr:street" v="Bowen Lane" />
    <tag k="addr:state" v="VT" />
    <tag k="ref:vcgi:esiteid" v="21762" />
  </node>
  <node id="-413" visible="true" lat="43.70637472" lon="-73.30954713">
    <tag k="addr:city" v="Benson" />
    <tag k="addr:housenumber" v="711" />
    <tag k="addr:street" v="Lake Road" />
    <tag k="addr:state" v="VT" />
    <tag k="ref:vcgi:esiteid" v="21763" />
  </node>
  <node id="-414" visible="true" lat="43.70647842" lon="-73.30294171">
    <tag k="addr:city" v="Benson" />
    <tag k="addr:housenumber" v="11" />
    <tag k="addr:street" v="Bowen Lane" />
    <tag k="addr:state" v="VT" />
    <tag k="ref:vcgi:esiteid" v="21764" />
  </node>
  <node id="-415" visible="true" lat="43.70629642" lon="-73.31976635">
    <tag k="addr:city" v="Benson" />
    <tag k="addr:housenumber" v="1293" />
    <tag k="addr:street" v="Lake Road" />
    <tag k="addr:state" v="VT" />
    <tag k="ref:vcgi:esiteid" v="21765" />
  </node>
  <node id="-416" visible="true" lat="43.70625495" lon="-73.3102161">
    <tag k="addr:city" v="Benson" />
    <tag k="addr:housenumber" v="2574" />
    <tag k="addr:street" v="Stage Road" />
    <tag k="addr:state" v="VT" />
    <tag k="ref:vcgi:esiteid" v="21766" />
  </node>
  <node id="-417" visible="true" lat="43.70606231" lon="-73.31027221">
    <tag k="addr:city" v="Benson" />
    <tag k="addr:housenumber" v="2558" />
    <tag k="addr:street" v="Stage Road" />
    <tag k="addr:state" v="VT" />
    <tag k="ref:vcgi:esiteid" v="21767" />
  </node>
  <node id="-418" visible="true" lat="43.70600066" lon="-73.3111869">
    <tag k="addr:city" v="Benson" />
    <tag k="addr:housenumber" v="2541" />
    <tag k="addr:street" v="Stage Road" />
    <tag k="addr:state" v="VT" />
    <tag k="ref:vcgi:esiteid" v="21768" />
  </node>
  <node id="-419" visible="true" lat="43.70574951" lon="-73.31024932">
    <tag k="addr:city" v="Benson" />
    <tag k="addr:housenumber" v="2538" />
    <tag k="addr:street" v="Stage Road" />
    <tag k="addr:state" v="VT" />
    <tag k="ref:vcgi:esiteid" v="21769" />
  </node>
  <node id="-420" visible="true" lat="43.70555143" lon="-73.29891989">
    <tag k="addr:city" v="Benson" />
    <tag k="addr:housenumber" v="162" />
    <tag k="addr:street" v="Lake Road" />
    <tag k="addr:state" v="VT" />
    <tag k="ref:vcgi:esiteid" v="21770" />
  </node>
  <node id="-421" visible="true" lat="43.70508308" lon="-73.30967523">
    <tag k="addr:city" v="Benson" />
    <tag k="addr:housenumber" v="2474" />
    <tag k="addr:street" v="Stage Road" />
    <tag k="addr:state" v="VT" />
    <tag k="ref:vcgi:esiteid" v="21771" />
  </node>
  <node id="-422" visible="true" lat="43.70474555" lon="-73.31017978">
    <tag k="addr:city" v="Benson" />
    <tag k="addr:housenumber" v="2472" />
    <tag k="addr:street" v="Stage Road" />
    <tag k="addr:state" v="VT" />
    <tag k="ref:vcgi:esiteid" v="21772" />
  </node>
  <node id="-423" visible="true" lat="43.70418222" lon="-73.31042094">
    <tag k="addr:city" v="Benson" />
    <tag k="addr:housenumber" v="2424" />
    <tag k="addr:street" v="Stage Road" />
    <tag k="addr:state" v="VT" />
    <tag k="ref:vcgi:esiteid" v="21774" />
  </node>
  <node id="-424" visible="true" lat="43.70382867" lon="-73.31140822">
    <tag k="addr:city" v="Benson" />
    <tag k="addr:housenumber" v="2407" />
    <tag k="addr:street" v="Stage Road" />
    <tag k="addr:state" v="VT" />
    <tag k="ref:vcgi:esiteid" v="21775" />
  </node>
  <node id="-425" visible="true" lat="43.7038294" lon="-73.31444307">
    <tag k="addr:city" v="Benson" />
    <tag k="addr:housenumber" v="2459" />
    <tag k="addr:street" v="Stage Road" />
    <tag k="addr:state" v="VT" />
    <tag k="ref:vcgi:esiteid" v="21776" />
  </node>
  <node id="-426" visible="true" lat="43.70322834" lon="-73.33306237">
    <tag k="addr:city" v="Benson" />
    <tag k="addr:housenumber" v="278" />
    <tag k="addr:street" v="Parkhill Road" />
    <tag k="addr:state" v="VT" />
    <tag k="ref:vcgi:esiteid" v="21777" />
  </node>
  <node id="-427" visible="true" lat="43.7034566" lon="-73.27819438">
    <tag k="addr:city" v="Benson" />
    <tag k="addr:housenumber" v="261" />
    <tag k="addr:street" v="Howard Hill Road" />
    <tag k="addr:state" v="VT" />
    <tag k="ref:vcgi:esiteid" v="21778" />
  </node>
  <node id="-428" visible="true" lat="43.70319363" lon="-73.31052501">
    <tag k="addr:city" v="Benson" />
    <tag k="addr:housenumber" v="2354" />
    <tag k="addr:street" v="Stage Road" />
    <tag k="addr:state" v="VT" />
    <tag k="ref:vcgi:esiteid" v="21779" />
  </node>
  <node id="-429" visible="true" lat="43.70221578" lon="-73.3333168">
    <tag k="addr:city" v="Benson" />
    <tag k="addr:housenumber" v="346" />
    <tag k="addr:street" v="Parkhill Road" />
    <tag k="addr:state" v="VT" />
    <tag k="ref:vcgi:esiteid" v="21780" />
  </node>
  <node id="-430" visible="true" lat="43.70221359" lon="-73.31268406">
    <tag k="addr:city" v="Benson" />
    <tag k="addr:housenumber" v="2279" />
    <tag k="addr:street" v="Stage Road" />
    <tag k="addr:state" v="VT" />
    <tag k="ref:vcgi:esiteid" v="21781" />
  </node>
  <node id="-431" visible="true" lat="43.70223453" lon="-73.25761688">
    <tag k="addr:city" v="Benson" />
    <tag k="addr:housenumber" v="2735" />
    <tag k="addr:street" v="East Road" />
    <tag k="addr:state" v="VT" />
    <tag k="ref:vcgi:esiteid" v="21782" />
  </node>
  <node id="-432" visible="true" lat="43.70192681" lon="-73.28187733">
    <tag k="addr:city" v="Benson" />
    <tag k="addr:housenumber" v="707" />
    <tag k="addr:street" v="Mill Pond Road" />
    <tag k="addr:state" v="VT" />
    <tag k="ref:vcgi:esiteid" v="21783" />
  </node>
  <node id="-433" visible="true" lat="43.7014199" lon="-73.30921104">
    <tag k="addr:city" v="Benson" />
    <tag k="addr:housenumber" v="75" />
    <tag k="addr:street" v="Shady Lane" />
    <tag k="addr:state" v="VT" />
    <tag k="ref:vcgi:esiteid" v="21784" />
  </node>
  <node id="-434" visible="true" lat="43.70166991" lon="-73.30756994">
    <tag k="addr:city" v="Benson" />
    <tag k="addr:housenumber" v="165" />
    <tag k="addr:street" v="Shady Lane" />
    <tag k="addr:state" v="VT" />
    <tag k="ref:vcgi:esiteid" v="21785" />
  </node>
  <node id="-435" visible="true" lat="43.70099636" lon="-73.33323931">
    <tag k="addr:city" v="Benson" />
    <tag k="addr:housenumber" v="418" />
    <tag k="addr:street" v="Parkhill Road" />
    <tag k="addr:state" v="VT" />
    <tag k="ref:vcgi:esiteid" v="21786" />
  </node>
  <node id="-436" visible="true" lat="43.70119853" lon="-73.28411363">
    <tag k="addr:city" v="Benson" />
    <tag k="addr:housenumber" v="632" />
    <tag k="addr:street" v="Mill Pond Road" />
    <tag k="addr:state" v="VT" />
    <tag k="ref:vcgi:esiteid" v="21787" />
  </node>
  <node id="-437" visible="true" lat="43.70068856" lon="-73.33274858">
    <tag k="addr:city" v="Benson" />
    <tag k="addr:housenumber" v="416" />
    <tag k="addr:street" v="Parkhill Road" />
    <tag k="addr:state" v="VT" />
    <tag k="ref:vcgi:esiteid" v="21788" />
  </node>
  <node id="-438" visible="true" lat="43.70089927" lon="-73.30769075">
    <tag k="addr:city" v="Benson" />
    <tag k="addr:housenumber" v="176" />
    <tag k="addr:street" v="Shady Lane" />
    <tag k="addr:state" v="VT" />
    <tag k="ref:vcgi:esiteid" v="21789" />
  </node>
  <node id="-439" visible="true" lat="43.70101448" lon="-73.27657929">
    <tag k="addr:city" v="Benson" />
    <tag k="addr:housenumber" v="56" />
    <tag k="addr:street" v="Howard Hill Road" />
    <tag k="addr:state" v="VT" />
    <tag k="ref:vcgi:esiteid" v="21790" />
  </node>
  <node id="-440" visible="true" lat="43.70037193" lon="-73.31078699">
    <tag k="addr:city" v="Benson" />
    <tag k="addr:housenumber" v="2158" />
    <tag k="addr:street" v="Stage Road" />
    <tag k="addr:state" v="VT" />
    <tag k="ref:vcgi:esiteid" v="21791" />
  </node>
  <node id="-441" visible="true" lat="43.70027846" lon="-73.28259071">
    <tag k="addr:city" v="Benson" />
    <tag k="addr:housenumber" v="748" />
    <tag k="addr:street" v="Mill Pond Road" />
    <tag k="addr:state" v="VT" />
    <tag k="ref:vcgi:esiteid" v="21792" />
  </node>
  <node id="-442" visible="true" lat="43.70035506" lon="-73.25708771">
    <tag k="addr:city" v="Benson" />
    <tag k="addr:housenumber" v="2616" />
    <tag k="addr:street" v="East Road" />
    <tag k="addr:state" v="VT" />
    <tag k="ref:vcgi:esiteid" v="21793" />
  </node>
  <node id="-443" visible="true" lat="43.70009008" lon="-73.27828546">
    <tag k="addr:city" v="Benson" />
    <tag k="addr:housenumber" v="22" />
    <tag k="addr:street" v="Howard Hill Road" />
    <tag k="addr:state" v="VT" />
    <tag k="ref:vcgi:esiteid" v="21794" />
  </node>
  <node id="-444" visible="true" lat="43.69963119" lon="-73.2858199">
    <tag k="addr:city" v="Benson" />
    <tag k="addr:housenumber" v="592" />
    <tag k="addr:street" v="Mill Pond Road" />
    <tag k="addr:state" v="VT" />
    <tag k="ref:vcgi:esiteid" v="21795" />
  </node>
  <node id="-445" visible="true" lat="43.69933952" lon="-73.31199386">
    <tag k="addr:city" v="Benson" />
    <tag k="addr:housenumber" v="2097" />
    <tag k="addr:street" v="Stage Road" />
    <tag k="addr:state" v="VT" />
    <tag k="ref:vcgi:esiteid" v="21796" />
  </node>
  <node id="-446" visible="true" lat="43.69987192" lon="-73.2579892">
    <tag k="addr:city" v="Benson" />
    <tag k="addr:housenumber" v="2570" />
    <tag k="addr:street" v="East Road" />
    <tag k="addr:state" v="VT" />
    <tag k="ref:vcgi:esiteid" v="21797" />
  </node>
  <node id="-447" visible="true" lat="43.69917703" lon="-73.34047621">
    <tag k="addr:city" v="Benson" />
    <tag k="addr:housenumber" v="482" />
    <tag k="addr:street" v="Money Hole Road" />
    <tag k="addr:state" v="VT" />
    <tag k="ref:vcgi:esiteid" v="21798" />
  </node>
  <node id="-448" visible="true" lat="43.69913886" lon="-73.33138444">
    <tag k="addr:city" v="Benson" />
    <tag k="addr:housenumber" v="563" />
    <tag k="addr:street" v="Parkhill Road" />
    <tag k="addr:state" v="VT" />
    <tag k="ref:vcgi:esiteid" v="21799" />
  </node>
  <node id="-449" visible="true" lat="43.69906696" lon="-73.31276177">
    <tag k="addr:city" v="Benson" />
    <tag k="addr:housenumber" v="2049" />
    <tag k="addr:street" v="Stage Road" />
    <tag k="addr:state" v="VT" />
    <tag k="ref:vcgi:esiteid" v="21800" />
  </node>
  <node id="-450" visible="true" lat="43.69874078" lon="-73.34445596">
    <tag k="addr:city" v="Benson" />
    <tag k="addr:housenumber" v="672" />
    <tag k="addr:street" v="Money Hole Road" />
    <tag k="addr:state" v="VT" />
    <tag k="ref:vcgi:esiteid" v="21801" />
  </node>
  <node id="-451" visible="true" lat="43.69821133" lon="-73.36451266">
    <tag k="addr:city" v="Benson" />
    <tag k="addr:housenumber" v="1015" />
    <tag k="addr:street" v="Carter Street" />
    <tag k="addr:state" v="VT" />
    <tag k="ref:vcgi:esiteid" v="21802" />
  </node>
  <node id="-452" visible="true" lat="43.69889407" lon="-73.27856766">
    <tag k="addr:city" v="Benson" />
    <tag k="addr:housenumber" v="981" />
    <tag k="addr:street" v="Mill Pond Road" />
    <tag k="addr:state" v="VT" />
    <tag k="ref:vcgi:esiteid" v="21803" />
  </node>
  <node id="-453" visible="true" lat="43.69881239" lon="-73.25856627">
    <tag k="addr:city" v="Benson" />
    <tag k="addr:housenumber" v="2532" />
    <tag k="addr:street" v="East Road" />
    <tag k="addr:state" v="VT" />
    <tag k="ref:vcgi:esiteid" v="21804" />
  </node>
  <node id="-454" visible="true" lat="43.69825683" lon="-73.33198227">
    <tag k="addr:city" v="Benson" />
    <tag k="addr:housenumber" v="624" />
    <tag k="addr:street" v="Parkhill Road" />
    <tag k="addr:state" v="VT" />
    <tag k="ref:vcgi:esiteid" v="21805" />
  </node>
  <node id="-455" visible="true" lat="43.69801262" lon="-73.34252689">
    <tag k="addr:city" v="Benson" />
    <tag k="addr:housenumber" v="567" />
    <tag k="addr:street" v="Money Hole Road" />
    <tag k="addr:state" v="VT" />
    <tag k="ref:vcgi:esiteid" v="21806" />
  </node>
  <node id="-456" visible="true" lat="43.69815029" lon="-73.32751212">
    <tag k="addr:city" v="Benson" />
    <tag k="addr:housenumber" v="816" />
    <tag k="addr:street" v="Goodrich Cross Road" />
    <tag k="addr:state" v="VT" />
    <tag k="ref:vcgi:esiteid" v="21807" />
  </node>
  <node id="-457" visible="true" lat="43.6984561" lon="-73.27903493">
    <tag k="addr:city" v="Benson" />
    <tag k="addr:housenumber" v="1004" />
    <tag k="addr:street" v="Mill Pond Road" />
    <tag k="addr:state" v="VT" />
    <tag k="ref:vcgi:esiteid" v="21808" />
  </node>
  <node id="-458" visible="true" lat="43.69805681" lon="-73.31104637">
    <tag k="addr:city" v="Benson" />
    <tag k="addr:housenumber" v="2000" />
    <tag k="addr:street" v="Stage Road" />
    <tag k="addr:state" v="VT" />
    <tag k="ref:vcgi:esiteid" v="21809" />
  </node>
  <node id="-459" visible="true" lat="43.69789634" lon="-73.31167501">
    <tag k="addr:city" v="Benson" />
    <tag k="addr:housenumber" v="1995" />
    <tag k="addr:street" v="Stage Road" />
    <tag k="addr:state" v="VT" />
    <tag k="ref:vcgi:esiteid" v="21810" />
  </node>
  <node id="-460" visible="true" lat="43.69781844" lon="-73.31302125">
    <tag k="addr:city" v="Benson" />
    <tag k="addr:housenumber" v="120" />
    <tag k="addr:street" v="Goodrich Cross Road" />
    <tag k="addr:state" v="VT" />
    <tag k="ref:vcgi:esiteid" v="21811" />
  </node>
  <node id="-461" visible="true" lat="43.69779169" lon="-73.31101736">
    <tag k="addr:city" v="Benson" />
    <tag k="addr:housenumber" v="1982" />
    <tag k="addr:street" v="Stage Road" />
    <tag k="addr:state" v="VT" />
    <tag k="ref:vcgi:esiteid" v="21812" />
  </node>
  <node id="-462" visible="true" lat="43.69740195" lon="-73.28928705">
    <tag k="addr:city" v="Benson" />
    <tag k="addr:housenumber" v="4345" />
    <tag k="addr:street" v="Vermont Route 22A" />
    <tag k="addr:state" v="VT" />
    <tag k="ref:vcgi:esiteid" v="21813" />
  </node>
  <node id="-463" visible="true" lat="43.69706931" lon="-73.35428004">
    <tag k="addr:city" v="Benson" />
    <tag k="addr:housenumber" v="1104" />
    <tag k="addr:street" v="Money Hole Road" />
    <tag k="addr:state" v="VT" />
    <tag k="ref:vcgi:esiteid" v="21814" />
  </node>
  <node id="-464" visible="true" lat="43.69729762" lon="-73.31165273">
    <tag k="addr:city" v="Benson" />
    <tag k="addr:housenumber" v="1943" />
    <tag k="addr:street" v="Stage Road" />
    <tag k="addr:state" v="VT" />
    <tag k="ref:vcgi:esiteid" v="21815" />
  </node>
  <node id="-465" visible="true" lat="43.69673544" lon="-73.33132427">
    <tag k="addr:city" v="Benson" />
    <tag k="addr:housenumber" v="729" />
    <tag k="addr:street" v="Parkhill Road" />
    <tag k="addr:state" v="VT" />
    <tag k="ref:vcgi:esiteid" v="21816" />
  </node>
  <node id="-466" visible="true" lat="43.69707282" lon="-73.25842962">
    <tag k="addr:city" v="Benson" />
    <tag k="addr:housenumber" v="2394" />
    <tag k="addr:street" v="East Road" />
    <tag k="addr:state" v="VT" />
    <tag k="ref:vcgi:esiteid" v="21817" />
  </node>
  <node id="-467" visible="true" lat="43.69678115" lon="-73.27638244">
    <tag k="addr:city" v="Benson" />
    <tag k="addr:housenumber" v="1150" />
    <tag k="addr:street" v="Mill Pond Road" />
    <tag k="addr:state" v="VT" />
    <tag k="ref:vcgi:esiteid" v="21818" />
  </node>
  <node id="-468" visible="true" lat="43.69620974" lon="-73.26148338">
    <tag k="addr:city" v="Benson" />
    <tag k="addr:housenumber" v="2294" />
    <tag k="addr:street" v="East Road" />
    <tag k="addr:state" v="VT" />
    <tag k="ref:vcgi:esiteid" v="21819" />
  </node>
  <node id="-469" visible="true" lat="43.6955529" lon="-73.31104018">
    <tag k="addr:city" v="Benson" />
    <tag k="addr:housenumber" v="1820" />
    <tag k="addr:street" v="Stage Road" />
    <tag k="addr:state" v="VT" />
    <tag k="ref:vcgi:esiteid" v="21820" />
  </node>
  <node id="-470" visible="true" lat="43.69528198" lon="-73.33166503">
    <tag k="addr:city" v="Benson" />
    <tag k="addr:housenumber" v="833" />
    <tag k="addr:street" v="Parkhill Road" />
    <tag k="addr:state" v="VT" />
    <tag k="ref:vcgi:esiteid" v="21821" />
  </node>
  <node id="-471" visible="true" lat="43.69470416" lon="-73.35304155">
    <tag k="addr:city" v="Benson" />
    <tag k="addr:housenumber" v="1204" />
    <tag k="addr:street" v="Money Hole Road" />
    <tag k="addr:state" v="VT" />
    <tag k="ref:vcgi:esiteid" v="21822" />
  </node>
  <node id="-472" visible="true" lat="43.69501946" lon="-73.27564523">
    <tag k="addr:city" v="Benson" />
    <tag k="addr:housenumber" v="1344" />
    <tag k="addr:street" v="Mill Pond Road" />
    <tag k="addr:state" v="VT" />
    <tag k="ref:vcgi:esiteid" v="21823" />
  </node>
  <node id="-473" visible="true" lat="43.6943172" lon="-73.36815614">
    <tag k="addr:city" v="Benson" />
    <tag k="addr:housenumber" v="1338" />
    <tag k="addr:street" v="Carter Street" />
    <tag k="addr:state" v="VT" />
    <tag k="ref:vcgi:esiteid" v="21824" />
  </node>
  <node id="-474" visible="true" lat="43.69498102" lon="-73.26254889">
    <tag k="addr:city" v="Benson" />
    <tag k="addr:housenumber" v="2168" />
    <tag k="addr:street" v="East Road" />
    <tag k="addr:state" v="VT" />
    <tag k="ref:vcgi:esiteid" v="21825" />
  </node>
  <node id="-475" visible="true" lat="43.69398567" lon="-73.36943448">
    <tag k="addr:city" v="Benson" />
    <tag k="addr:housenumber" v="1234" />
    <tag k="addr:street" v="Carter Street" />
    <tag k="addr:state" v="VT" />
    <tag k="ref:vcgi:esiteid" v="21826" />
  </node>
  <node id="-476" visible="true" lat="43.69414747" lon="-73.26431166">
    <tag k="addr:city" v="Benson" />
    <tag k="addr:housenumber" v="2087" />
    <tag k="addr:street" v="East Road" />
    <tag k="addr:state" v="VT" />
    <tag k="ref:vcgi:esiteid" v="21827" />
  </node>
  <node id="-477" visible="true" lat="43.69364547" lon="-73.34168243">
    <tag k="addr:city" v="Benson" />
    <tag k="addr:housenumber" v="321" />
    <tag k="addr:street" v="Root Pond Road" />
    <tag k="addr:state" v="VT" />
    <tag k="ref:vcgi:esiteid" v="21828" />
  </node>
  <node id="-478" visible="true" lat="43.69321508" lon="-73.29244967">
    <tag k="addr:city" v="Benson" />
    <tag k="addr:housenumber" v="4479" />
    <tag k="addr:street" v="Vermont Route 22A" />
    <tag k="addr:state" v="VT" />
    <tag k="ref:vcgi:esiteid" v="21829" />
  </node>
  <node id="-479" visible="true" lat="43.69309454" lon="-73.3567529">
    <tag k="addr:city" v="Benson" />
    <tag k="addr:housenumber" v="1480" />
    <tag k="addr:street" v="Money Hole Road" />
    <tag k="addr:state" v="VT" />
    <tag k="ref:vcgi:esiteid" v="21830" />
  </node>
  <node id="-480" visible="true" lat="43.69305874" lon="-73.26955664">
    <tag k="addr:city" v="Benson" />
    <tag k="addr:housenumber" v="1611" />
    <tag k="addr:street" v="Mill Pond Road" />
    <tag k="addr:state" v="VT" />
    <tag k="ref:vcgi:esiteid" v="21831" />
  </node>
  <node id="-481" visible="true" lat="43.69302389" lon="-73.26519129">
    <tag k="addr:city" v="Benson" />
    <tag k="addr:housenumber" v="1988" />
    <tag k="addr:street" v="East Road" />
    <tag k="addr:state" v="VT" />
    <tag k="ref:vcgi:esiteid" v="21832" />
  </node>
  <node id="-482" visible="true" lat="43.69278658" lon="-73.26550789">
    <tag k="addr:city" v="Benson" />
    <tag k="addr:housenumber" v="1974" />
    <tag k="addr:street" v="East Road" />
    <tag k="addr:state" v="VT" />
    <tag k="ref:vcgi:esiteid" v="21833" />
  </node>
  <node id="-483" visible="true" lat="43.69205803" lon="-73.34314304">
    <tag k="addr:city" v="Benson" />
    <tag k="addr:housenumber" v="430" />
    <tag k="addr:street" v="Root Pond Road" />
    <tag k="addr:state" v="VT" />
    <tag k="ref:vcgi:esiteid" v="21834" />
  </node>
  <node id="-484" visible="true" lat="43.69109075" lon="-73.3867671">
    <tag k="addr:city" v="Benson" />
    <tag k="addr:housenumber" v="1066" />
    <tag k="addr:street" v="Herrick Road" />
    <tag k="addr:state" v="VT" />
    <tag k="ref:vcgi:esiteid" v="21835" />
  </node>
  <node id="-485" visible="true" lat="43.69105319" lon="-73.38021702">
    <tag k="addr:city" v="Benson" />
    <tag k="addr:housenumber" v="721" />
    <tag k="addr:street" v="Herrick Road" />
    <tag k="addr:state" v="VT" />
    <tag k="ref:vcgi:esiteid" v="21836" />
  </node>
  <node id="-486" visible="true" lat="43.69056867" lon="-73.38265628">
    <tag k="addr:city" v="Benson" />
    <tag k="addr:housenumber" v="843" />
    <tag k="addr:street" v="Herrick Road" />
    <tag k="addr:state" v="VT" />
    <tag k="ref:vcgi:esiteid" v="21837" />
  </node>
  <node id="-487" visible="true" lat="43.69174957" lon="-73.26879119">
    <tag k="addr:city" v="Benson" />
    <tag k="addr:housenumber" v="1809" />
    <tag k="addr:street" v="East Road" />
    <tag k="addr:state" v="VT" />
    <tag k="ref:vcgi:esiteid" v="21838" />
  </node>
  <node id="-488" visible="true" lat="43.69110826" lon="-73.26798863">
    <tag k="addr:city" v="Benson" />
    <tag k="addr:housenumber" v="1762" />
    <tag k="addr:street" v="East Road" />
    <tag k="addr:state" v="VT" />
    <tag k="ref:vcgi:esiteid" v="21839" />
  </node>
  <node id="-489" visible="true" lat="43.69073027" lon="-73.3119916">
    <tag k="addr:city" v="Benson" />
    <tag k="addr:housenumber" v="1495" />
    <tag k="addr:street" v="Stage Road" />
    <tag k="addr:state" v="VT" />
    <tag k="ref:vcgi:esiteid" v="21840" />
  </node>
  <node id="-490" visible="true" lat="43.69023945" lon="-73.36782023">
    <tag k="addr:city" v="Benson" />
    <tag k="addr:housenumber" v="1622" />
    <tag k="addr:street" v="Carter Street" />
    <tag k="addr:state" v="VT" />
    <tag k="ref:vcgi:esiteid" v="21841" />
  </node>
  <node id="-491" visible="true" lat="43.6908914" lon="-73.26435222">
    <tag k="addr:city" v="Benson" />
    <tag k="addr:housenumber" v="1764" />
    <tag k="addr:street" v="East Road" />
    <tag k="addr:state" v="VT" />
    <tag k="ref:vcgi:esiteid" v="21842" />
  </node>
  <node id="-492" visible="true" lat="43.69059127" lon="-73.31217635">
    <tag k="addr:city" v="Benson" />
    <tag k="addr:housenumber" v="1481" />
    <tag k="addr:street" v="Stage Road" />
    <tag k="addr:state" v="VT" />
    <tag k="ref:vcgi:esiteid" v="21843" />
  </node>
  <node id="-493" visible="true" lat="43.69044076" lon="-73.28794786">
    <tag k="addr:city" v="Benson" />
    <tag k="addr:housenumber" v="4809" />
    <tag k="addr:street" v="Vermont Route 22A" />
    <tag k="addr:state" v="VT" />
    <tag k="ref:vcgi:esiteid" v="21844" />
  </node>
  <node id="-494" visible="true" lat="43.69033143" lon="-73.29016694">
    <tag k="addr:city" v="Benson" />
    <tag k="addr:housenumber" v="4789" />
    <tag k="addr:street" v="Vermont Route 22A" />
    <tag k="addr:state" v="VT" />
    <tag k="ref:vcgi:esiteid" v="21845" />
  </node>
  <node id="-495" visible="true" lat="43.68974851" lon="-73.34294508">
    <tag k="addr:city" v="Benson" />
    <tag k="addr:housenumber" v="590" />
    <tag k="addr:street" v="Root Pond Road" />
    <tag k="addr:state" v="VT" />
    <tag k="ref:vcgi:esiteid" v="21846" />
  </node>
  <node id="-496" visible="true" lat="43.68984985" lon="-73.26888275">
    <tag k="addr:city" v="Benson" />
    <tag k="addr:housenumber" v="1672" />
    <tag k="addr:street" v="East Road" />
    <tag k="addr:state" v="VT" />
    <tag k="ref:vcgi:esiteid" v="21847" />
  </node>
  <node id="-497" visible="true" lat="43.68846655" lon="-73.36750521">
    <tag k="addr:city" v="Benson" />
    <tag k="addr:housenumber" v="1745" />
    <tag k="addr:street" v="Carter Street" />
    <tag k="addr:state" v="VT" />
    <tag k="ref:vcgi:esiteid" v="21849" />
  </node>
  <node id="-498" visible="true" lat="43.68852996" lon="-73.33216857">
    <tag k="addr:city" v="Benson" />
    <tag k="addr:housenumber" v="1293" />
    <tag k="addr:street" v="Parkhill Road" />
    <tag k="addr:state" v="VT" />
    <tag k="ref:vcgi:esiteid" v="21850" />
  </node>
  <node id="-499" visible="true" lat="43.68802422" lon="-73.31175778">
    <tag k="addr:city" v="Benson" />
    <tag k="addr:housenumber" v="1302" />
    <tag k="addr:street" v="Stage Road" />
    <tag k="addr:state" v="VT" />
    <tag k="ref:vcgi:esiteid" v="21851" />
  </node>
  <node id="-500" visible="true" lat="43.68750701" lon="-73.37986907">
    <tag k="addr:city" v="Benson" />
    <tag k="addr:housenumber" v="251" />
    <tag k="addr:street" v="Herrick Road" />
    <tag k="addr:state" v="VT" />
    <tag k="ref:vcgi:esiteid" v="21852" />
  </node>
  <node id="-501" visible="true" lat="43.68704371" lon="-73.28735582">
    <tag k="addr:city" v="Benson" />
    <tag k="addr:housenumber" v="5039" />
    <tag k="addr:street" v="Vermont Route 22A" />
    <tag k="addr:state" v="VT" />
    <tag k="ref:vcgi:esiteid" v="21853" />
  </node>
  <node id="-502" visible="true" lat="43.68722104" lon="-73.27099652">
    <tag k="addr:city" v="Benson" />
    <tag k="addr:housenumber" v="1464" />
    <tag k="addr:street" v="East Road" />
    <tag k="addr:state" v="VT" />
    <tag k="ref:vcgi:esiteid" v="21854" />
  </node>
  <node id="-503" visible="true" lat="43.68695068" lon="-73.27201843">
    <tag k="addr:city" v="Benson" />
    <tag k="addr:housenumber" v="1429" />
    <tag k="addr:street" v="East Road" />
    <tag k="addr:state" v="VT" />
    <tag k="ref:vcgi:esiteid" v="21855" />
  </node>
  <node id="-504" visible="true" lat="43.68581484" lon="-73.33295517">
    <tag k="addr:city" v="Benson" />
    <tag k="addr:housenumber" v="1480" />
    <tag k="addr:street" v="Parkhill Road" />
    <tag k="addr:state" v="VT" />
    <tag k="ref:vcgi:esiteid" v="21856" />
  </node>
  <node id="-505" visible="true" lat="43.68569534" lon="-73.34369476">
    <tag k="addr:city" v="Benson" />
    <tag k="addr:housenumber" v="36" />
    <tag k="addr:street" v="Damascus Road" />
    <tag k="addr:state" v="VT" />
    <tag k="ref:vcgi:esiteid" v="21857" />
  </node>
  <node id="-506" visible="true" lat="43.68525757" lon="-73.33298658">
    <tag k="addr:city" v="Benson" />
    <tag k="addr:housenumber" v="1520" />
    <tag k="addr:street" v="Parkhill Road" />
    <tag k="addr:state" v="VT" />
    <tag k="ref:vcgi:esiteid" v="21858" />
  </node>
  <node id="-507" visible="true" lat="43.68428109" lon="-73.38032506">
    <tag k="addr:city" v="Benson" />
    <tag k="addr:housenumber" v="532" />
    <tag k="addr:street" v="Temple Road" />
    <tag k="addr:state" v="VT" />
    <tag k="ref:vcgi:esiteid" v="21859" />
  </node>
  <node id="-508" visible="true" lat="43.68479875" lon="-73.31112112">
    <tag k="addr:city" v="Benson" />
    <tag k="addr:housenumber" v="1078" />
    <tag k="addr:street" v="Stage Road" />
    <tag k="addr:state" v="VT" />
    <tag k="ref:vcgi:esiteid" v="21860" />
  </node>
  <node id="-509" visible="true" lat="43.68484263" lon="-73.29036902">
    <tag k="addr:city" v="Benson" />
    <tag k="addr:housenumber" v="5166" />
    <tag k="addr:street" v="Vermont Route 22A" />
    <tag k="addr:state" v="VT" />
    <tag k="ref:vcgi:esiteid" v="21861" />
  </node>
  <node id="-510" visible="true" lat="43.6847023" lon="-73.30939734">
    <tag k="addr:city" v="Benson" />
    <tag k="addr:housenumber" v="1080" />
    <tag k="addr:street" v="Stage Road" />
    <tag k="addr:state" v="VT" />
    <tag k="ref:vcgi:esiteid" v="21862" />
  </node>
  <node id="-511" visible="true" lat="43.68389447" lon="-73.37417326">
    <tag k="addr:city" v="Benson" />
    <tag k="addr:housenumber" v="222" />
    <tag k="addr:street" v="Temple Road" />
    <tag k="addr:state" v="VT" />
    <tag k="ref:vcgi:esiteid" v="21863" />
  </node>
  <node id="-512" visible="true" lat="43.68319363" lon="-73.37096015">
    <tag k="addr:city" v="Benson" />
    <tag k="addr:housenumber" v="61" />
    <tag k="addr:street" v="Temple Road" />
    <tag k="addr:state" v="VT" />
    <tag k="ref:vcgi:esiteid" v="21864" />
  </node>
  <node id="-513" visible="true" lat="43.68287101" lon="-73.37446132">
    <tag k="addr:city" v="Benson" />
    <tag k="addr:housenumber" v="229" />
    <tag k="addr:street" v="Temple Road" />
    <tag k="addr:state" v="VT" />
    <tag k="ref:vcgi:esiteid" v="21865" />
  </node>
  <node id="-514" visible="true" lat="43.68231069" lon="-73.3729027">
    <tag k="addr:city" v="Benson" />
    <tag k="addr:housenumber" v="151" />
    <tag k="addr:street" v="Temple Road" />
    <tag k="addr:state" v="VT" />
    <tag k="ref:vcgi:esiteid" v="21866" />
  </node>
  <node id="-515" visible="true" lat="43.68153046" lon="-73.38173796">
    <tag k="addr:city" v="Benson" />
    <tag k="addr:housenumber" v="735" />
    <tag k="addr:street" v="Temple Road" />
    <tag k="addr:state" v="VT" />
    <tag k="ref:vcgi:esiteid" v="21867" />
  </node>
  <node id="-516" visible="true" lat="43.68059553" lon="-73.38699317">
    <tag k="addr:city" v="Benson" />
    <tag k="addr:housenumber" v="846" />
    <tag k="addr:street" v="Temple Road" />
    <tag k="addr:state" v="VT" />
    <tag k="ref:vcgi:esiteid" v="21868" />
  </node>
  <node id="-517" visible="true" lat="43.68094081" lon="-73.31229982">
    <tag k="addr:city" v="Benson" />
    <tag k="addr:housenumber" v="818" />
    <tag k="addr:street" v="Stage Road" />
    <tag k="addr:state" v="VT" />
    <tag k="ref:vcgi:esiteid" v="21869" />
  </node>
  <node id="-518" visible="true" lat="43.68091335" lon="-73.28983576">
    <tag k="addr:city" v="Benson" />
    <tag k="addr:housenumber" v="5442" />
    <tag k="addr:street" v="Vermont Route 22A" />
    <tag k="addr:state" v="VT" />
    <tag k="ref:vcgi:esiteid" v="21870" />
  </node>
  <node id="-519" visible="true" lat="43.6801565" lon="-73.27820281">
    <tag k="addr:city" v="Benson" />
    <tag k="addr:housenumber" v="856" />
    <tag k="addr:street" v="East Road" />
    <tag k="addr:state" v="VT" />
    <tag k="ref:vcgi:esiteid" v="21871" />
  </node>
  <node id="-520" visible="true" lat="43.67906189" lon="-73.33735656">
    <tag k="addr:city" v="Benson" />
    <tag k="addr:housenumber" v="1952" />
    <tag k="addr:street" v="Parkhill Road" />
    <tag k="addr:state" v="VT" />
    <tag k="ref:vcgi:esiteid" v="21872" />
  </node>
  <node id="-521" visible="true" lat="43.67869991" lon="-73.34728298">
    <tag k="addr:city" v="Benson" />
    <tag k="addr:housenumber" v="1449" />
    <tag k="addr:street" v="Root Pond Road" />
    <tag k="addr:state" v="VT" />
    <tag k="ref:vcgi:esiteid" v="21873" />
  </node>
  <node id="-522" visible="true" lat="43.67914325" lon="-73.27851683">
    <tag k="addr:city" v="Benson" />
    <tag k="addr:housenumber" v="782" />
    <tag k="addr:street" v="East Road" />
    <tag k="addr:state" v="VT" />
    <tag k="ref:vcgi:esiteid" v="21874" />
  </node>
  <node id="-523" visible="true" lat="43.67827071" lon="-73.38441679">
    <tag k="addr:city" v="Benson" />
    <tag k="addr:housenumber" v="1046" />
    <tag k="addr:street" v="Temple Road" />
    <tag k="addr:state" v="VT" />
    <tag k="ref:vcgi:esiteid" v="21875" />
  </node>
  <node id="-524" visible="true" lat="43.67812955" lon="-73.31334455">
    <tag k="addr:city" v="Benson" />
    <tag k="addr:housenumber" v="629" />
    <tag k="addr:street" v="Stage Road" />
    <tag k="addr:state" v="VT" />
    <tag k="ref:vcgi:esiteid" v="21876" />
  </node>
  <node id="-525" visible="true" lat="43.67748305" lon="-73.39021874">
    <tag k="addr:city" v="Benson" />
    <tag k="addr:housenumber" v="240" />
    <tag k="addr:street" v="Cold Spring Road" />
    <tag k="addr:state" v="VT" />
    <tag k="ref:vcgi:esiteid" v="21877" />
  </node>
  <node id="-526" visible="true" lat="43.67580795" lon="-73.38539123">
    <tag k="addr:city" v="Benson" />
    <tag k="addr:housenumber" v="1229" />
    <tag k="addr:street" v="Temple Road" />
    <tag k="addr:state" v="VT" />
    <tag k="ref:vcgi:esiteid" v="21878" />
  </node>
  <node id="-527" visible="true" lat="43.67568588" lon="-73.39751434">
    <tag k="addr:city" v="Benson" />
    <tag k="addr:housenumber" v="650" />
    <tag k="addr:street" v="Cold Spring Road" />
    <tag k="addr:state" v="VT" />
    <tag k="ref:vcgi:esiteid" v="21879" />
  </node>
  <node id="-528" visible="true" lat="43.67617199" lon="-73.28289254">
    <tag k="addr:city" v="Benson" />
    <tag k="addr:housenumber" v="496" />
    <tag k="addr:street" v="East Road" />
    <tag k="addr:state" v="VT" />
    <tag k="ref:vcgi:esiteid" v="21880" />
  </node>
  <node id="-529" visible="true" lat="43.6739755" lon="-73.38717439">
    <tag k="addr:city" v="Benson" />
    <tag k="addr:housenumber" v="1366" />
    <tag k="addr:street" v="Temple Road" />
    <tag k="addr:state" v="VT" />
    <tag k="ref:vcgi:esiteid" v="21881" />
  </node>
  <node id="-530" visible="true" lat="43.67407924" lon="-73.31267025">
    <tag k="addr:city" v="Benson" />
    <tag k="addr:housenumber" v="347" />
    <tag k="addr:street" v="Stage Road" />
    <tag k="addr:state" v="VT" />
    <tag k="ref:vcgi:esiteid" v="21882" />
  </node>
  <node id="-531" visible="true" lat="43.67337574" lon="-73.31229605">
    <tag k="addr:city" v="Benson" />
    <tag k="addr:housenumber" v="289" />
    <tag k="addr:street" v="Stage Road" />
    <tag k="addr:state" v="VT" />
    <tag k="ref:vcgi:esiteid" v="21883" />
  </node>
  <node id="-532" visible="true" lat="43.67216391" lon="-73.3290983">
    <tag k="addr:city" v="Benson" />
    <tag k="addr:housenumber" v="2451" />
    <tag k="addr:street" v="Parkhill Road" />
    <tag k="addr:state" v="VT" />
    <tag k="ref:vcgi:esiteid" v="21884" />
  </node>
  <node id="-533" visible="true" lat="43.67192972" lon="-73.28741587">
    <tag k="addr:city" v="Benson" />
    <tag k="addr:housenumber" v="124" />
    <tag k="addr:street" v="East Road" />
    <tag k="addr:state" v="VT" />
    <tag k="ref:vcgi:esiteid" v="21885" />
  </node>
  <node id="-534" visible="true" lat="43.67157785" lon="-73.31252734">
    <tag k="addr:city" v="Benson" />
    <tag k="addr:housenumber" v="144" />
    <tag k="addr:street" v="Stage Road" />
    <tag k="addr:state" v="VT" />
    <tag k="ref:vcgi:esiteid" v="21886" />
  </node>
  <node id="-535" visible="true" lat="43.67046307" lon="-73.28916052">
    <tag k="addr:city" v="Benson" />
    <tag k="addr:housenumber" v="6165" />
    <tag k="addr:street" v="Vermont Route 22A" />
    <tag k="addr:state" v="VT" />
    <tag k="ref:vcgi:esiteid" v="21887" />
  </node>
  <node id="-536" visible="true" lat="43.7517887" lon="-73.27624233">
    <tag k="addr:city" v="Benson" />
    <tag k="addr:housenumber" v="2233" />
    <tag k="addr:street" v="Perch Pond Road" />
    <tag k="addr:state" v="VT" />
    <tag k="ref:vcgi:esiteid" v="21888" />
  </node>
  <node id="-537" visible="true" lat="43.75299478" lon="-73.27889989">
    <tag k="addr:city" v="Benson" />
    <tag k="addr:housenumber" v="1900" />
    <tag k="addr:street" v="Perch Pond Road" />
    <tag k="addr:state" v="VT" />
    <tag k="ref:vcgi:esiteid" v="21889" />
  </node>
  <node id="-538" visible="true" lat="43.75082892" lon="-73.2707582">
    <tag k="addr:city" v="Benson" />
    <tag k="addr:housenumber" v="466" />
    <tag k="addr:street" v="Hyatt Camp Road" />
    <tag k="addr:state" v="VT" />
    <tag k="ref:vcgi:esiteid" v="21890" />
  </node>
  <node id="-539" visible="true" lat="43.75145843" lon="-73.27102969">
    <tag k="addr:city" v="Benson" />
    <tag k="addr:housenumber" v="460" />
    <tag k="addr:street" v="Hyatt Camp Road" />
    <tag k="addr:state" v="VT" />
    <tag k="ref:vcgi:esiteid" v="21891" />
  </node>
  <node id="-540" visible="true" lat="43.75367296" lon="-73.26577857">
    <tag k="addr:city" v="Benson" />
    <tag k="addr:housenumber" v="80" />
    <tag k="addr:street" v="Hyatt Camp Road" />
    <tag k="addr:state" v="VT" />
    <tag k="ref:vcgi:esiteid" v="21893" />
  </node>
  <node id="-541" visible="true" lat="43.75217437" lon="-73.26948547">
    <tag k="addr:city" v="Benson" />
    <tag k="addr:housenumber" v="428" />
    <tag k="addr:street" v="Hyatt Camp Road" />
    <tag k="addr:state" v="VT" />
    <tag k="ref:vcgi:esiteid" v="21894" />
  </node>
  <node id="-542" visible="true" lat="43.75199078" lon="-73.26900989">
    <tag k="addr:city" v="Benson" />
    <tag k="addr:housenumber" v="392" />
    <tag k="addr:street" v="Hyatt Camp Road" />
    <tag k="addr:state" v="VT" />
    <tag k="ref:vcgi:esiteid" v="21895" />
  </node>
  <node id="-543" visible="true" lat="43.75264724" lon="-73.26601165">
    <tag k="addr:city" v="Benson" />
    <tag k="addr:housenumber" v="82" />
    <tag k="addr:street" v="Hyatt Camp Road" />
    <tag k="addr:state" v="VT" />
    <tag k="ref:vcgi:esiteid" v="21896" />
  </node>
  <node id="-544" visible="true" lat="43.75182646" lon="-73.26633904">
    <tag k="addr:city" v="Benson" />
    <tag k="addr:housenumber" v="218" />
    <tag k="addr:street" v="Hyatt Camp Road" />
    <tag k="addr:state" v="VT" />
    <tag k="ref:vcgi:esiteid" v="21897" />
  </node>
  <node id="-545" visible="true" lat="43.75184979" lon="-73.26695251">
    <tag k="addr:city" v="Benson" />
    <tag k="addr:housenumber" v="220" />
    <tag k="addr:street" v="Hyatt Camp Road" />
    <tag k="addr:state" v="VT" />
    <tag k="ref:vcgi:esiteid" v="21898" />
  </node>
  <node id="-546" visible="true" lat="43.74808628" lon="-73.23674367">
    <tag k="addr:city" v="Benson" />
    <tag k="addr:housenumber" v="273" />
    <tag k="addr:street" v="Ledge Road" />
    <tag k="addr:state" v="VT" />
    <tag k="ref:vcgi:esiteid" v="21899" />
  </node>
  <node id="-547" visible="true" lat="43.76176498" lon="-73.25805333">
    <tag k="addr:city" v="Benson" />
    <tag k="addr:housenumber" v="205" />
    <tag k="addr:street" v="Sunrise Lake Road" />
    <tag k="addr:state" v="VT" />
    <tag k="ref:vcgi:esiteid" v="21900" />
  </node>
  <node id="-548" visible="true" lat="43.76150656" lon="-73.25796661">
    <tag k="addr:city" v="Benson" />
    <tag k="addr:housenumber" v="215" />
    <tag k="addr:street" v="Sunrise Lake Road" />
    <tag k="addr:state" v="VT" />
    <tag k="ref:vcgi:esiteid" v="21901" />
  </node>
  <node id="-549" visible="true" lat="43.7604629" lon="-73.25756796">
    <tag k="addr:city" v="Benson" />
    <tag k="addr:housenumber" v="225" />
    <tag k="addr:street" v="Sunrise Lake Road" />
    <tag k="addr:state" v="VT" />
    <tag k="ref:vcgi:esiteid" v="21902" />
  </node>
  <node id="-550" visible="true" lat="43.73498705" lon="-73.36528573">
    <tag k="addr:city" v="Benson" />
    <tag k="addr:housenumber" v="229" />
    <tag k="addr:street" v="Stony Point Road" />
    <tag k="addr:state" v="VT" />
    <tag k="ref:vcgi:esiteid" v="21903" />
  </node>
  <node id="-551" visible="true" lat="43.74355402" lon="-73.3665364">
    <tag k="addr:city" v="Benson" />
    <tag k="addr:housenumber" v="793" />
    <tag k="addr:street" v="Stony Point Road" />
    <tag k="addr:state" v="VT" />
    <tag k="ref:vcgi:esiteid" v="21904" />
  </node>
  <node id="-552" visible="true" lat="43.743706" lon="-73.36086057">
    <tag k="addr:city" v="Benson" />
    <tag k="addr:housenumber" v="1152" />
    <tag k="addr:street" v="Stony Point Road" />
    <tag k="addr:state" v="VT" />
    <tag k="ref:vcgi:esiteid" v="21905" />
  </node>
  <node id="-553" visible="true" lat="43.74673262" lon="-73.36134663">
    <tag k="addr:city" v="Benson" />
    <tag k="addr:housenumber" v="1343" />
    <tag k="addr:street" v="Stony Point Road" />
    <tag k="addr:state" v="VT" />
    <tag k="ref:vcgi:esiteid" v="21906" />
  </node>
  <node id="-554" visible="true" lat="43.74724343" lon="-73.36121709">
    <tag k="addr:city" v="Benson" />
    <tag k="addr:housenumber" v="1371" />
    <tag k="addr:street" v="Stony Point Road" />
    <tag k="addr:state" v="VT" />
    <tag k="ref:vcgi:esiteid" v="21907" />
  </node>
  <node id="-555" visible="true" lat="43.74789151" lon="-73.36103251">
    <tag k="addr:city" v="Benson" />
    <tag k="addr:housenumber" v="1379" />
    <tag k="addr:street" v="Stony Point Road" />
    <tag k="addr:state" v="VT" />
    <tag k="ref:vcgi:esiteid" v="21908" />
  </node>
  <node id="-556" visible="true" lat="43.74835442" lon="-73.36059085">
    <tag k="addr:city" v="Benson" />
    <tag k="addr:housenumber" v="1471" />
    <tag k="addr:street" v="Stony Point Road" />
    <tag k="addr:state" v="VT" />
    <tag k="ref:vcgi:esiteid" v="21909" />
  </node>
  <node id="-557" visible="true" lat="43.74860369" lon="-73.36016019">
    <tag k="addr:city" v="Benson" />
    <tag k="addr:housenumber" v="1525" />
    <tag k="addr:street" v="Stony Point Road" />
    <tag k="addr:state" v="VT" />
    <tag k="ref:vcgi:esiteid" v="21910" />
  </node>
  <node id="-558" visible="true" lat="43.74938372" lon="-73.35956206">
    <tag k="addr:city" v="Benson" />
    <tag k="addr:housenumber" v="1585" />
    <tag k="addr:street" v="Stony Point Road" />
    <tag k="addr:state" v="VT" />
    <tag k="ref:vcgi:esiteid" v="21911" />
  </node>
  <node id="-559" visible="true" lat="43.74207005" lon="-73.31887021">
    <tag k="addr:city" v="Benson" />
    <tag k="addr:housenumber" v="5201" />
    <tag k="addr:street" v="Stage Road" />
    <tag k="addr:state" v="VT" />
    <tag k="ref:vcgi:esiteid" v="21912" />
  </node>
  <node id="-560" visible="true" lat="43.74250233" lon="-73.31870473">
    <tag k="addr:city" v="Benson" />
    <tag k="addr:housenumber" v="5255" />
    <tag k="addr:street" v="Stage Road" />
    <tag k="addr:state" v="VT" />
    <tag k="ref:vcgi:esiteid" v="21913" />
  </node>
  <node id="-561" visible="true" lat="43.74301906" lon="-73.31867054">
    <tag k="addr:city" v="Benson" />
    <tag k="addr:housenumber" v="5265" />
    <tag k="addr:street" v="Stage Road" />
    <tag k="addr:state" v="VT" />
    <tag k="ref:vcgi:esiteid" v="21914" />
  </node>
  <node id="-562" visible="true" lat="43.74412041" lon="-73.31770923">
    <tag k="addr:city" v="Benson" />
    <tag k="addr:housenumber" v="5322" />
    <tag k="addr:street" v="Stage Road" />
    <tag k="addr:state" v="VT" />
    <tag k="ref:vcgi:esiteid" v="21915" />
  </node>
  <node id="-563" visible="true" lat="43.74560662" lon="-73.31883008">
    <tag k="addr:city" v="Benson" />
    <tag k="addr:housenumber" v="5445" />
    <tag k="addr:street" v="Stage Road" />
    <tag k="addr:state" v="VT" />
    <tag k="ref:vcgi:esiteid" v="21916" />
  </node>
  <node id="-564" visible="true" lat="43.74514313" lon="-73.31869807">
    <tag k="addr:city" v="Benson" />
    <tag k="addr:housenumber" v="5447" />
    <tag k="addr:street" v="Stage Road" />
    <tag k="addr:state" v="VT" />
    <tag k="ref:vcgi:esiteid" v="21917" />
  </node>
  <node id="-565" visible="true" lat="43.73759246" lon="-73.24163527">
    <tag k="addr:city" v="Benson" />
    <tag k="addr:housenumber" v="3350" />
    <tag k="addr:street" v="Route 144" />
    <tag k="addr:state" v="VT" />
    <tag k="ref:vcgi:esiteid" v="21918" />
  </node>
  <node id="-566" visible="true" lat="43.7432833" lon="-73.23331628">
    <tag k="addr:city" v="Benson" />
    <tag k="addr:housenumber" v="4096" />
    <tag k="addr:street" v="Route 144" />
    <tag k="addr:state" v="VT" />
    <tag k="ref:vcgi:esiteid" v="21919" />
  </node>
  <node id="-567" visible="true" lat="43.71202773" lon="-73.3479713">
    <tag k="addr:city" v="Benson" />
    <tag k="addr:housenumber" v="2700" />
    <tag k="addr:street" v="Lake Road" />
    <tag k="addr:state" v="VT" />
    <tag k="ref:vcgi:esiteid" v="21920" />
  </node>
  <node id="-568" visible="true" lat="43.70997265" lon="-73.33923984">
    <tag k="addr:city" v="Benson" />
    <tag k="addr:housenumber" v="2334" />
    <tag k="addr:street" v="Lake Road" />
    <tag k="addr:state" v="VT" />
    <tag k="ref:vcgi:esiteid" v="21921" />
  </node>
  <node id="-569" visible="true" lat="43.72458476" lon="-73.36728257">
    <tag k="addr:city" v="Benson" />
    <tag k="addr:housenumber" v="231" />
    <tag k="addr:street" v="Morris Lane" />
    <tag k="addr:state" v="VT" />
    <tag k="ref:vcgi:esiteid" v="21922" />
  </node>
  <node id="-570" visible="true" lat="43.72297828" lon="-73.36738638">
    <tag k="addr:city" v="Benson" />
    <tag k="addr:housenumber" v="214" />
    <tag k="addr:street" v="Browns Bay Road" />
    <tag k="addr:state" v="VT" />
    <tag k="ref:vcgi:esiteid" v="21924" />
  </node>
  <node id="-571" visible="true" lat="43.72199614" lon="-73.36814135">
    <tag k="addr:city" v="Benson" />
    <tag k="addr:housenumber" v="212" />
    <tag k="addr:street" v="Browns Bay Road" />
    <tag k="addr:state" v="VT" />
    <tag k="ref:vcgi:esiteid" v="21925" />
  </node>
  <node id="-572" visible="true" lat="43.70988455" lon="-73.29821547">
    <tag k="addr:city" v="Benson" />
    <tag k="addr:housenumber" v="3358" />
    <tag k="addr:street" v="Vermont Route 22A" />
    <tag k="addr:state" v="VT" />
    <tag k="ref:vcgi:esiteid" v="21926" />
  </node>
  <node id="-573" visible="true" lat="43.71317602" lon="-73.30765031">
    <tag k="addr:city" v="Benson" />
    <tag k="addr:housenumber" v="548" />
    <tag k="addr:street" v="Hulett Hill Road" />
    <tag k="addr:state" v="VT" />
    <tag k="ref:vcgi:esiteid" v="21927" />
  </node>
  <node id="-574" visible="true" lat="43.70993899" lon="-73.30996607">
    <tag k="addr:city" v="Benson" />
    <tag k="addr:housenumber" v="2830" />
    <tag k="addr:street" v="Stage Road" />
    <tag k="addr:state" v="VT" />
    <tag k="ref:vcgi:esiteid" v="21928" />
  </node>
  <node id="-575" visible="true" lat="43.70583518" lon="-73.31238431">
    <tag k="addr:city" v="Benson" />
    <tag k="addr:housenumber" v="807" />
    <tag k="addr:street" v="Lake Road" />
    <tag k="addr:state" v="VT" />
    <tag k="ref:vcgi:esiteid" v="21930" />
  </node>
  <node id="-576" visible="true" lat="43.70652909" lon="-73.31194786">
    <tag k="addr:city" v="Benson" />
    <tag k="addr:housenumber" v="813" />
    <tag k="addr:street" v="Lake Road" />
    <tag k="addr:state" v="VT" />
    <tag k="ref:vcgi:esiteid" v="21931" />
  </node>
  <node id="-577" visible="true" lat="43.7061882" lon="-73.30602264">
    <tag k="addr:city" v="Benson" />
    <tag k="addr:housenumber" v="517" />
    <tag k="addr:street" v="Lake Road" />
    <tag k="addr:state" v="VT" />
    <tag k="ref:vcgi:esiteid" v="21932" />
  </node>
  <node id="-578" visible="true" lat="43.69300775" lon="-73.37871121">
    <tag k="addr:city" v="Benson" />
    <tag k="addr:housenumber" v="560" />
    <tag k="addr:street" v="Herrick Road" />
    <tag k="addr:state" v="VT" />
    <tag k="ref:vcgi:esiteid" v="21933" />
  </node>
  <node id="-579" visible="true" lat="43.68709842" lon="-73.36268871">
    <tag k="addr:city" v="Benson" />
    <tag k="addr:housenumber" v="1757" />
    <tag k="addr:street" v="Money Hole Road" />
    <tag k="addr:state" v="VT" />
    <tag k="ref:vcgi:esiteid" v="21934" />
  </node>
  <node id="-580" visible="true" lat="43.68593978" lon="-73.34463501">
    <tag k="addr:city" v="Benson" />
    <tag k="addr:housenumber" v="146" />
    <tag k="addr:street" v="Damascus Road" />
    <tag k="addr:state" v="VT" />
    <tag k="ref:vcgi:esiteid" v="21935" />
  </node>
  <node id="-581" visible="true" lat="43.69456817" lon="-73.29285174">
    <tag k="addr:city" v="Benson" />
    <tag k="addr:housenumber" v="4433" />
    <tag k="addr:street" v="Vermont Route 22A" />
    <tag k="addr:state" v="VT" />
    <tag k="ref:vcgi:esiteid" v="21936" />
  </node>
  <node id="-582" visible="true" lat="43.70312499" lon="-73.28744506">
    <tag k="addr:city" v="Benson" />
    <tag k="addr:housenumber" v="451" />
    <tag k="addr:street" v="Mill Pond Road" />
    <tag k="addr:state" v="VT" />
    <tag k="ref:vcgi:esiteid" v="21937" />
  </node>
  <node id="-583" visible="true" lat="43.70144445" lon="-73.31049971">
    <tag k="addr:city" v="Benson" />
    <tag k="addr:housenumber" v="2210" />
    <tag k="addr:street" v="Stage Road" />
    <tag k="addr:state" v="VT" />
    <tag k="ref:vcgi:esiteid" v="21938" />
  </node>
  <node id="-584" visible="true" lat="43.68863591" lon="-73.31243459">
    <tag k="addr:city" v="Benson" />
    <tag k="addr:housenumber" v="1351" />
    <tag k="addr:street" v="Stage Road" />
    <tag k="addr:state" v="VT" />
    <tag k="ref:vcgi:esiteid" v="21939" />
  </node>
  <node id="-585" visible="true" lat="43.68758784" lon="-73.3105872">
    <tag k="addr:city" v="Benson" />
    <tag k="addr:housenumber" v="1298" />
    <tag k="addr:street" v="Stage Road" />
    <tag k="addr:state" v="VT" />
    <tag k="ref:vcgi:esiteid" v="21940" />
  </node>
  <node id="-586" visible="true" lat="43.68527781" lon="-73.31295397">
    <tag k="addr:city" v="Benson" />
    <tag k="addr:housenumber" v="1077" />
    <tag k="addr:street" v="Stage Road" />
    <tag k="addr:state" v="VT" />
    <tag k="ref:vcgi:esiteid" v="21941" />
  </node>
  <node id="-587" visible="true" lat="43.67675092" lon="-73.34827698">
    <tag k="addr:city" v="Benson" />
    <tag k="addr:housenumber" v="1639" />
    <tag k="addr:street" v="Root Pond Road" />
    <tag k="addr:state" v="VT" />
    <tag k="ref:vcgi:esiteid" v="21942" />
  </node>
  <node id="-588" visible="true" lat="43.67309523" lon="-73.28609221">
    <tag k="addr:city" v="Benson" />
    <tag k="addr:housenumber" v="226" />
    <tag k="addr:street" v="East Road" />
    <tag k="addr:state" v="VT" />
    <tag k="ref:vcgi:esiteid" v="21944" />
  </node>
  <node id="-589" visible="true" lat="43.75205216" lon="-73.26778558">
    <tag k="addr:city" v="Benson" />
    <tag k="addr:housenumber" v="368" />
    <tag k="addr:street" v="Hyatt Camp Road" />
    <tag k="addr:state" v="VT" />
    <tag k="ref:vcgi:esiteid" v="21945" />
  </node>
  <node id="-590" visible="true" lat="43.75187048" lon="-73.2683462">
    <tag k="addr:city" v="Benson" />
    <tag k="addr:housenumber" v="370" />
    <tag k="addr:street" v="Hyatt Camp Road" />
    <tag k="addr:state" v="VT" />
    <tag k="ref:vcgi:esiteid" v="21946" />
  </node>
  <node id="-591" visible="true" lat="43.70812143" lon="-73.30947765">
    <tag k="addr:city" v="Benson" />
    <tag k="addr:housenumber" v="51" />
    <tag k="addr:street" v="Kent Lane" />
    <tag k="addr:state" v="VT" />
    <tag k="ref:vcgi:esiteid" v="21947" />
  </node>
  <node id="-592" visible="true" lat="43.67644762" lon="-73.31257965">
    <tag k="addr:city" v="Benson" />
    <tag k="addr:housenumber" v="502" />
    <tag k="addr:street" v="Stage Road" />
    <tag k="addr:state" v="VT" />
    <tag k="ref:vcgi:esiteid" v="21948" />
  </node>
  <node id="-593" visible="true" lat="43.70706998" lon="-73.27675823">
    <tag k="addr:city" v="Benson" />
    <tag k="addr:housenumber" v="593" />
    <tag k="addr:street" v="Howard Hill Road" />
    <tag k="addr:state" v="VT" />
    <tag k="ref:vcgi:esiteid" v="21949" />
  </node>
  <node id="-594" visible="true" lat="43.76132349" lon="-73.26516629">
    <tag k="addr:city" v="Benson" />
    <tag k="addr:housenumber" v="20" />
    <tag k="addr:street" v="North Shore Lane" />
    <tag k="addr:state" v="VT" />
    <tag k="ref:vcgi:esiteid" v="21950" />
  </node>
  <node id="-595" visible="true" lat="43.69206557" lon="-73.38307058">
    <tag k="addr:city" v="Benson" />
    <tag k="addr:housenumber" v="860" />
    <tag k="addr:street" v="Herrick Road" />
    <tag k="addr:state" v="VT" />
    <tag k="ref:vcgi:esiteid" v="21951" />
  </node>
  <node id="-596" visible="true" lat="43.69046905" lon="-73.38470839">
    <tag k="addr:city" v="Benson" />
    <tag k="addr:housenumber" v="943" />
    <tag k="addr:street" v="Herrick Road" />
    <tag k="addr:state" v="VT" />
    <tag k="ref:vcgi:esiteid" v="21952" />
  </node>
  <node id="-597" visible="true" lat="43.75685105" lon="-73.23273063">
    <tag k="addr:city" v="Benson" />
    <tag k="addr:housenumber" v="3151" />
    <tag k="addr:street" v="Young Road" />
    <tag k="addr:state" v="VT" />
    <tag k="ref:vcgi:esiteid" v="21953" />
  </node>
  <node id="-598" visible="true" lat="43.75272128" lon="-73.32387547">
    <tag k="addr:city" v="Benson" />
    <tag k="addr:housenumber" v="179" />
    <tag k="addr:street" v="Frazier Hill Road" />
    <tag k="addr:state" v="VT" />
    <tag k="ref:vcgi:esiteid" v="21954" />
  </node>
  <node id="-599" visible="true" lat="43.75104077" lon="-73.32667954">
    <tag k="addr:city" v="Benson" />
    <tag k="addr:housenumber" v="359" />
    <tag k="addr:street" v="Frazier Hill Road" />
    <tag k="addr:state" v="VT" />
    <tag k="ref:vcgi:esiteid" v="21955" />
  </node>
  <node id="-600" visible="true" lat="43.72498164" lon="-73.27936247">
    <tag k="addr:city" v="Benson" />
    <tag k="addr:housenumber" v="1124" />
    <tag k="addr:street" v="Route 144" />
    <tag k="addr:state" v="VT" />
    <tag k="ref:vcgi:esiteid" v="21956" />
  </node>
  <node id="-601" visible="true" lat="43.72301661" lon="-73.27155694">
    <tag k="addr:city" v="Benson" />
    <tag k="addr:housenumber" v="1634" />
    <tag k="addr:street" v="Howard Hill Road" />
    <tag k="addr:state" v="VT" />
    <tag k="ref:vcgi:esiteid" v="21957" />
  </node>
  <node id="-602" visible="true" lat="43.73370208" lon="-73.25149917">
    <tag k="addr:city" v="Benson" />
    <tag k="addr:housenumber" v="2703" />
    <tag k="addr:street" v="Route 144" />
    <tag k="addr:state" v="VT" />
    <tag k="ref:vcgi:esiteid" v="21958" />
  </node>
  <node id="-603" visible="true" lat="43.73543298" lon="-73.25497101">
    <tag k="addr:city" v="Benson" />
    <tag k="addr:housenumber" v="2453" />
    <tag k="addr:street" v="Route 144" />
    <tag k="addr:state" v="VT" />
    <tag k="ref:vcgi:esiteid" v="21959" />
  </node>
  <node id="-604" visible="true" lat="43.74283154" lon="-73.26116105">
    <tag k="addr:city" v="Benson" />
    <tag k="addr:housenumber" v="952" />
    <tag k="addr:street" v="Sunset Lake Road" />
    <tag k="addr:state" v="VT" />
    <tag k="ref:vcgi:esiteid" v="21960" />
  </node>
  <node id="-605" visible="true" lat="43.7257365" lon="-73.27999995">
    <tag k="addr:city" v="Benson" />
    <tag k="addr:housenumber" v="1107" />
    <tag k="addr:street" v="Route 144" />
    <tag k="addr:state" v="VT" />
    <tag k="ref:vcgi:esiteid" v="21961" />
  </node>
  <node id="-606" visible="true" lat="43.70887102" lon="-73.30561891">
    <tag k="addr:city" v="Benson" />
    <tag k="addr:housenumber" v="174" />
    <tag k="addr:street" v="School Street" />
    <tag k="addr:state" v="VT" />
    <tag k="ref:vcgi:esiteid" v="21962" />
  </node>
  <node id="-607" visible="true" lat="43.6875755" lon="-73.31162752">
    <tag k="addr:city" v="Benson" />
    <tag k="addr:housenumber" v="1300" />
    <tag k="addr:street" v="Stage Road" />
    <tag k="addr:state" v="VT" />
    <tag k="ref:vcgi:esiteid" v="21963" />
  </node>
  <node id="-608" visible="true" lat="43.70175307" lon="-73.33956803">
    <tag k="addr:city" v="Benson" />
    <tag k="addr:housenumber" v="354" />
    <tag k="addr:street" v="Money Hole Road" />
    <tag k="addr:state" v="VT" />
    <tag k="ref:vcgi:esiteid" v="21964" />
  </node>
  <node id="-609" visible="true" lat="43.70804557" lon="-73.30860688">
    <tag k="addr:city" v="Benson" />
    <tag k="addr:housenumber" v="55" />
    <tag k="addr:street" v="Kent Lane" />
    <tag k="addr:state" v="VT" />
    <tag k="ref:vcgi:esiteid" v="21965" />
  </node>
  <node id="-610" visible="true" lat="43.71102403" lon="-73.31298064">
    <tag k="addr:city" v="Benson" />
    <tag k="addr:housenumber" v="139" />
    <tag k="addr:street" v="Glenn Road" />
    <tag k="addr:state" v="VT" />
    <tag k="ref:vcgi:esiteid" v="21966" />
  </node>
  <node id="-611" visible="true" lat="43.70188781" lon="-73.27937373">
    <tag k="addr:city" v="Benson" />
    <tag k="addr:housenumber" v="173" />
    <tag k="addr:street" v="Howard Hill Road" />
    <tag k="addr:state" v="VT" />
    <tag k="ref:vcgi:esiteid" v="21967" />
  </node>
  <node id="-612" visible="true" lat="43.70828954" lon="-73.30515544">
    <tag k="addr:city" v="Benson" />
    <tag k="addr:housenumber" v="176" />
    <tag k="addr:street" v="School Street" />
    <tag k="addr:state" v="VT" />
    <tag k="ref:vcgi:esiteid" v="21968" />
  </node>
  <node id="-613" visible="true" lat="43.70815249" lon="-73.30594937">
    <tag k="addr:city" v="Benson" />
    <tag k="addr:housenumber" v="178" />
    <tag k="addr:street" v="School Street" />
    <tag k="addr:state" v="VT" />
    <tag k="ref:vcgi:esiteid" v="21969" />
  </node>
  <node id="-614" visible="true" lat="43.70808764" lon="-73.30669245">
    <tag k="addr:city" v="Benson" />
    <tag k="addr:housenumber" v="180" />
    <tag k="addr:street" v="School Street" />
    <tag k="addr:state" v="VT" />
    <tag k="ref:vcgi:esiteid" v="21970" />
  </node>
  <node id="-615" visible="true" lat="43.72017107" lon="-73.33109453">
    <tag k="addr:city" v="Benson" />
    <tag k="addr:housenumber" v="1290" />
    <tag k="addr:street" v="Glenn Road" />
    <tag k="addr:state" v="VT" />
    <tag k="ref:vcgi:esiteid" v="21971" />
  </node>
  <node id="-616" visible="true" lat="43.73314418" lon="-73.34442752">
    <tag k="addr:city" v="Benson" />
    <tag k="addr:housenumber" v="2219" />
    <tag k="addr:street" v="Frazier Hill Road" />
    <tag k="addr:state" v="VT" />
    <tag k="ref:vcgi:esiteid" v="21972" />
  </node>
  <node id="-617" visible="true" lat="43.75297377" lon="-73.31588711">
    <tag k="addr:city" v="Benson" />
    <tag k="addr:housenumber" v="293" />
    <tag k="addr:street" v="North Cross Road" />
    <tag k="addr:state" v="VT" />
    <tag k="ref:vcgi:esiteid" v="21973" />
  </node>
  <node id="-618" visible="true" lat="43.75302568" lon="-73.31782413">
    <tag k="addr:city" v="Benson" />
    <tag k="addr:housenumber" v="405" />
    <tag k="addr:street" v="North Cross Road" />
    <tag k="addr:state" v="VT" />
    <tag k="ref:vcgi:esiteid" v="21974" />
  </node>
  <node id="-619" visible="true" lat="43.7117484" lon="-73.31753182">
    <tag k="addr:city" v="Benson" />
    <tag k="addr:housenumber" v="376" />
    <tag k="addr:street" v="Glenn Road" />
    <tag k="addr:state" v="VT" />
    <tag k="ref:vcgi:esiteid" v="21975" />
  </node>
  <node id="-620" visible="true" lat="43.76130513" lon="-73.26494232">
    <tag k="addr:city" v="Benson" />
    <tag k="addr:housenumber" v="2389" />
    <tag k="addr:street" v="Sunset Lake Road" />
    <tag k="addr:state" v="VT" />
    <tag k="ref:vcgi:esiteid" v="21976" />
  </node>
  <node id="-621" visible="true" lat="43.75495625" lon="-73.2776759">
    <tag k="addr:city" v="Benson" />
    <tag k="addr:housenumber" v="106" />
    <tag k="addr:street" v="Trout Bay Road" />
    <tag k="addr:state" v="VT" />
    <tag k="ref:vcgi:esiteid" v="21977" />
  </node>
  <node id="-622" visible="true" lat="43.76103873" lon="-73.26785007">
    <tag k="addr:city" v="Benson" />
    <tag k="addr:housenumber" v="68" />
    <tag k="addr:street" v="Lakeview Road" />
    <tag k="addr:state" v="VT" />
    <tag k="ref:vcgi:esiteid" v="21978" />
  </node>
  <node id="-623" visible="true" lat="43.76078371" lon="-73.26822846">
    <tag k="addr:city" v="Benson" />
    <tag k="addr:housenumber" v="72" />
    <tag k="addr:street" v="Lakeview Road" />
    <tag k="addr:state" v="VT" />
    <tag k="ref:vcgi:esiteid" v="21979" />
  </node>
  <node id="-624" visible="true" lat="43.75029256" lon="-73.27422475">
    <tag k="addr:city" v="Benson" />
    <tag k="addr:housenumber" v="2443" />
    <tag k="addr:street" v="Perch Pond Road" />
    <tag k="addr:state" v="VT" />
    <tag k="ref:vcgi:esiteid" v="21980" />
  </node>
  <node id="-625" visible="true" lat="43.73297112" lon="-73.36667595">
    <tag k="addr:city" v="Benson" />
    <tag k="addr:housenumber" v="113" />
    <tag k="addr:street" v="Stony Point Road" />
    <tag k="addr:state" v="VT" />
    <tag k="ref:vcgi:esiteid" v="21981" />
  </node>
  <node id="-626" visible="true" lat="43.73158996" lon="-73.36702829">
    <tag k="addr:city" v="Benson" />
    <tag k="addr:housenumber" v="3004" />
    <tag k="addr:street" v="North Lake Road" />
    <tag k="addr:state" v="VT" />
    <tag k="ref:vcgi:esiteid" v="21982" />
  </node>
  <node id="-627" visible="true" lat="43.74469853" lon="-73.34490835">
    <tag k="addr:city" v="Benson" />
    <tag k="addr:housenumber" v="25" />
    <tag k="addr:street" v="Turkey Farm Road" />
    <tag k="addr:state" v="VT" />
    <tag k="ref:vcgi:esiteid" v="21983" />
  </node>
  <node id="-628" visible="true" lat="43.73860685" lon="-73.24344755">
    <tag k="addr:city" v="Benson" />
    <tag k="addr:housenumber" v="3405" />
    <tag k="addr:street" v="Route 144" />
    <tag k="addr:state" v="VT" />
    <tag k="ref:vcgi:esiteid" v="21984" />
  </node>
  <node id="-629" visible="true" lat="43.69422427" lon="-73.33757611">
    <tag k="addr:city" v="Benson" />
    <tag k="addr:housenumber" v="1056" />
    <tag k="addr:street" v="Parkhill Road" />
    <tag k="addr:state" v="VT" />
    <tag k="ref:vcgi:esiteid" v="21985" />
  </node>
  <node id="-630" visible="true" lat="43.69279424" lon="-73.33409984">
    <tag k="addr:city" v="Benson" />
    <tag k="addr:housenumber" v="1010" />
    <tag k="addr:street" v="Parkhill Road" />
    <tag k="addr:state" v="VT" />
    <tag k="ref:vcgi:esiteid" v="21986" />
  </node>
  <node id="-631" visible="true" lat="43.68923231" lon="-73.39455673">
    <tag k="addr:city" v="Benson" />
    <tag k="addr:housenumber" v="1480" />
    <tag k="addr:street" v="Herrick Road" />
    <tag k="addr:state" v="VT" />
    <tag k="ref:vcgi:esiteid" v="21987" />
  </node>
  <node id="-632" visible="true" lat="43.70359684" lon="-73.36303297">
    <tag k="addr:city" v="Benson" />
    <tag k="addr:housenumber" v="628" />
    <tag k="addr:street" v="Carter Street" />
    <tag k="addr:state" v="VT" />
    <tag k="ref:vcgi:esiteid" v="21988" />
  </node>
  <node id="-633" visible="true" lat="43.700702" lon="-73.36450447">
    <tag k="addr:city" v="Benson" />
    <tag k="addr:housenumber" v="862" />
    <tag k="addr:street" v="Carter Street" />
    <tag k="addr:state" v="VT" />
    <tag k="ref:vcgi:esiteid" v="21989" />
  </node>
  <node id="-634" visible="true" lat="43.72218917" lon="-73.29463224">
    <tag k="addr:city" v="Benson" />
    <tag k="addr:housenumber" v="451" />
    <tag k="addr:street" v="Route 144" />
    <tag k="addr:state" v="VT" />
    <tag k="ref:vcgi:esiteid" v="21990" />
  </node>
  <node id="-635" visible="true" lat="43.74220062" lon="-73.30528813">
    <tag k="addr:city" v="Benson" />
    <tag k="addr:housenumber" v="34" />
    <tag k="addr:street" v="Perch Pond Road" />
    <tag k="addr:state" v="VT" />
    <tag k="ref:vcgi:esiteid" v="21991" />
  </node>
  <node id="-636" visible="true" lat="43.74274146" lon="-73.30332255">
    <tag k="addr:city" v="Benson" />
    <tag k="addr:housenumber" v="90" />
    <tag k="addr:street" v="Perch Pond Road" />
    <tag k="addr:state" v="VT" />
    <tag k="ref:vcgi:esiteid" v="21992" />
  </node>
  <node id="-637" visible="true" lat="43.75105386" lon="-73.3402676">
    <tag k="addr:city" v="Benson" />
    <tag k="addr:housenumber" v="438" />
    <tag k="addr:street" v="Turkey Farm Road" />
    <tag k="addr:state" v="VT" />
    <tag k="ref:vcgi:esiteid" v="21994" />
  </node>
  <node id="-638" visible="true" lat="43.70957784" lon="-73.35829327">
    <tag k="addr:city" v="Benson" />
    <tag k="addr:housenumber" v="105" />
    <tag k="addr:street" v="Carter Street" />
    <tag k="addr:state" v="VT" />
    <tag k="ref:vcgi:esiteid" v="21995" />
  </node>
  <node id="-639" visible="true" lat="43.71225027" lon="-73.32712924">
    <tag k="addr:city" v="Benson" />
    <tag k="addr:housenumber" v="416" />
    <tag k="addr:street" v="North Lake Road" />
    <tag k="addr:state" v="VT" />
    <tag k="ref:vcgi:esiteid" v="21997" />
  </node>
  <node id="-640" visible="true" lat="43.74762844" lon="-73.23834638">
    <tag k="addr:city" v="Benson" />
    <tag k="addr:housenumber" v="349" />
    <tag k="addr:street" v="Pleasant Valley Road" />
    <tag k="addr:state" v="VT" />
    <tag k="ref:vcgi:esiteid" v="21998" />
  </node>
  <node id="-641" visible="true" lat="43.68729015" lon="-73.34556311">
    <tag k="addr:city" v="Benson" />
    <tag k="addr:housenumber" v="788" />
    <tag k="addr:street" v="Root Pond Road" />
    <tag k="addr:state" v="VT" />
    <tag k="ref:vcgi:esiteid" v="21999" />
  </node>
  <node id="-642" visible="true" lat="43.7496292" lon="-73.34779694">
    <tag k="addr:city" v="Benson" />
    <tag k="addr:housenumber" v="341" />
    <tag k="addr:street" v="Turkey Farm Road" />
    <tag k="addr:state" v="VT" />
    <tag k="ref:vcgi:esiteid" v="22000" />
  </node>
  <node id="-643" visible="true" lat="43.75159928" lon="-73.3455983">
    <tag k="addr:city" v="Benson" />
    <tag k="addr:housenumber" v="591" />
    <tag k="addr:street" v="Turkey Farm Road" />
    <tag k="addr:state" v="VT" />
    <tag k="ref:vcgi:esiteid" v="22001" />
  </node>
  <node id="-644" visible="true" lat="43.71508059" lon="-73.30839099">
    <tag k="addr:city" v="Benson" />
    <tag k="addr:housenumber" v="3158" />
    <tag k="addr:street" v="Stage Road" />
    <tag k="addr:state" v="VT" />
    <tag k="ref:vcgi:esiteid" v="22002" />
  </node>
  <node id="-645" visible="true" lat="43.67592784" lon="-73.31214934">
    <tag k="addr:city" v="Benson" />
    <tag k="addr:housenumber" v="464" />
    <tag k="addr:street" v="Stage Road" />
    <tag k="addr:state" v="VT" />
    <tag k="ref:vcgi:esiteid" v="22003" />
  </node>
  <node id="-646" visible="true" lat="43.7424101" lon="-73.31793156">
    <tag k="addr:city" v="Benson" />
    <tag k="addr:housenumber" v="5302" />
    <tag k="addr:street" v="Stage Road" />
    <tag k="addr:state" v="VT" />
    <tag k="ref:vcgi:esiteid" v="22004" />
  </node>
  <node id="-647" visible="true" lat="43.74268361" lon="-73.31789782">
    <tag k="addr:city" v="Benson" />
    <tag k="addr:housenumber" v="5306" />
    <tag k="addr:street" v="Stage Road" />
    <tag k="addr:state" v="VT" />
    <tag k="ref:vcgi:esiteid" v="22005" />
  </node>
  <node id="-648" visible="true" lat="43.74320772" lon="-73.3178647">
    <tag k="addr:city" v="Benson" />
    <tag k="addr:housenumber" v="5308" />
    <tag k="addr:street" v="Stage Road" />
    <tag k="addr:state" v="VT" />
    <tag k="ref:vcgi:esiteid" v="22006" />
  </node>
  <node id="-649" visible="true" lat="43.74376593" lon="-73.31777178">
    <tag k="addr:city" v="Benson" />
    <tag k="addr:housenumber" v="5312" />
    <tag k="addr:street" v="Stage Road" />
    <tag k="addr:state" v="VT" />
    <tag k="ref:vcgi:esiteid" v="22007" />
  </node>
  <node id="-650" visible="true" lat="43.69184768" lon="-73.31132242">
    <tag k="addr:city" v="Benson" />
    <tag k="addr:housenumber" v="1512" />
    <tag k="addr:street" v="Stage Road" />
    <tag k="addr:state" v="VT" />
    <tag k="ref:vcgi:esiteid" v="22008" />
  </node>
  <node id="-651" visible="true" lat="43.68527295" lon="-73.31354901">
    <tag k="addr:city" v="Benson" />
    <tag k="addr:housenumber" v="1075" />
    <tag k="addr:street" v="Stage Road" />
    <tag k="addr:state" v="VT" />
    <tag k="ref:vcgi:esiteid" v="22009" />
  </node>
  <node id="-652" visible="true" lat="43.71412173" lon="-73.30897852">
    <tag k="addr:city" v="Benson" />
    <tag k="addr:housenumber" v="3118" />
    <tag k="addr:street" v="Stage Road" />
    <tag k="addr:state" v="VT" />
    <tag k="ref:vcgi:esiteid" v="22010" />
  </node>
  <node id="-653" visible="true" lat="43.72390207" lon="-73.2715643">
    <tag k="addr:city" v="Benson" />
    <tag k="addr:housenumber" v="1748" />
    <tag k="addr:street" v="Howard Hill Road" />
    <tag k="addr:state" v="VT" />
    <tag k="ref:vcgi:esiteid" v="22011" />
  </node>
  <node id="-654" visible="true" lat="43.73016724" lon="-73.35362209">
    <tag k="addr:city" v="Benson" />
    <tag k="addr:housenumber" v="2343" />
    <tag k="addr:street" v="North Lake Road" />
    <tag k="addr:state" v="VT" />
    <tag k="ref:vcgi:esiteid" v="22012" />
  </node>
  <node id="-655" visible="true" lat="43.74065928" lon="-73.36637051">
    <tag k="addr:city" v="Benson" />
    <tag k="addr:housenumber" v="633" />
    <tag k="addr:street" v="Stony Point Road" />
    <tag k="addr:state" v="VT" />
    <tag k="ref:vcgi:esiteid" v="22013" />
  </node>
  <node id="-656" visible="true" lat="43.75254035" lon="-73.26188857">
    <tag k="addr:city" v="Benson" />
    <tag k="addr:housenumber" v="11" />
    <tag k="addr:street" v="Hyatt Camp Road" />
    <tag k="addr:state" v="VT" />
    <tag k="ref:vcgi:esiteid" v="22014" />
  </node>
  <node id="-657" visible="true" lat="43.7156386" lon="-73.29934391">
    <tag k="addr:city" v="Benson" />
    <tag k="addr:housenumber" v="60" />
    <tag k="addr:street" v="Hulett Hill Road" />
    <tag k="addr:state" v="VT" />
    <tag k="ref:vcgi:esiteid" v="22015" />
  </node>
  <node id="-658" visible="true" lat="43.70906225" lon="-73.2491779">
    <tag k="addr:city" v="Benson" />
    <tag k="addr:housenumber" v="141" />
    <tag k="addr:street" v="Crandall Road" />
    <tag k="addr:state" v="VT" />
    <tag k="ref:vcgi:esiteid" v="307052" />
  </node>
  <node id="-659" visible="true" lat="43.73251477" lon="-73.2566747">
    <tag k="addr:city" v="Benson" />
    <tag k="addr:housenumber" v="2448" />
    <tag k="addr:street" v="Route 144" />
    <tag k="addr:state" v="VT" />
    <tag k="ref:vcgi:esiteid" v="312495" />
  </node>
  <node id="-660" visible="true" lat="43.70049758" lon="-73.31269921">
    <tag k="addr:city" v="Benson" />
    <tag k="addr:housenumber" v="2121" />
    <tag k="addr:street" v="Stage Road" />
    <tag k="addr:state" v="VT" />
    <tag k="ref:vcgi:esiteid" v="312496" />
  </node>
  <node id="-661" visible="true" lat="43.72738239" lon="-73.3665276">
    <tag k="addr:city" v="Benson" />
    <tag k="addr:housenumber" v="4763" />
    <tag k="addr:street" v="Lake Road" />
    <tag k="addr:state" v="VT" />
    <tag k="ref:vcgi:esiteid" v="312497" />
  </node>
  <node id="-662" visible="true" lat="43.69132996" lon="-73.34356886">
    <tag k="addr:city" v="Benson" />
    <tag k="addr:housenumber" v="436" />
    <tag k="addr:street" v="Root Pond Road" />
    <tag k="addr:state" v="VT" />
    <tag k="ref:vcgi:esiteid" v="312498" />
  </node>
  <node id="-663" visible="true" lat="43.70305874" lon="-73.28625395">
    <tag k="addr:city" v="Benson" />
    <tag k="addr:housenumber" v="503" />
    <tag k="addr:street" v="Mill Pond Road" />
    <tag k="addr:state" v="VT" />
    <tag k="ref:vcgi:esiteid" v="312499" />
  </node>
  <node id="-664" visible="true" lat="43.75125051" lon="-73.27716276">
    <tag k="addr:city" v="Benson" />
    <tag k="addr:housenumber" v="62" />
    <tag k="addr:street" v="Lorien Lane" />
    <tag k="addr:state" v="VT" />
    <tag k="ref:vcgi:esiteid" v="312500" />
  </node>
  <node id="-665" visible="true" lat="43.7516092" lon="-73.27697028">
    <tag k="addr:city" v="Benson" />
    <tag k="addr:housenumber" v="78" />
    <tag k="addr:street" v="Lorien Lane" />
    <tag k="addr:state" v="VT" />
    <tag k="ref:vcgi:esiteid" v="312501" />
  </node>
  <node id="-666" visible="true" lat="43.70116148" lon="-73.30310539">
    <tag k="addr:city" v="Benson" />
    <tag k="addr:housenumber" v="392" />
    <tag k="addr:street" v="Shady Lane" />
    <tag k="addr:state" v="VT" />
    <tag k="ref:vcgi:esiteid" v="315577" />
  </node>
  <node id="-667" visible="true" lat="43.67149472" lon="-73.28788105">
    <tag k="addr:city" v="Benson" />
    <tag k="addr:housenumber" v="82" />
    <tag k="addr:street" v="East Road" />
    <tag k="addr:state" v="VT" />
    <tag k="ref:vcgi:esiteid" v="317933" />
  </node>
  <node id="-668" visible="true" lat="43.75546506" lon="-73.27780272">
    <tag k="addr:city" v="Benson" />
    <tag k="addr:housenumber" v="125" />
    <tag k="addr:street" v="Trout Bay Road" />
    <tag k="addr:state" v="VT" />
    <tag k="ref:vcgi:esiteid" v="317934" />
  </node>
  <node id="-669" visible="true" lat="43.74185311" lon="-73.31920911">
    <tag k="addr:city" v="Benson" />
    <tag k="addr:housenumber" v="5141" />
    <tag k="addr:street" v="Stage Road" />
    <tag k="addr:state" v="VT" />
    <tag k="ref:vcgi:esiteid" v="326707" />
  </node>
  <node id="-670" visible="true" lat="43.70811194" lon="-73.30898899">
    <tag k="addr:city" v="Benson" />
    <tag k="addr:housenumber" v="53" />
    <tag k="addr:street" v="Kent Lane" />
    <tag k="addr:state" v="VT" />
    <tag k="ref:vcgi:esiteid" v="326816" />
  </node>
  <node id="-671" visible="true" lat="43.6974187" lon="-73.33152374">
    <tag k="addr:city" v="Benson" />
    <tag k="addr:housenumber" v="709" />
    <tag k="addr:street" v="Parkhill Road" />
    <tag k="addr:state" v="VT" />
    <tag k="ref:vcgi:esiteid" v="326817" />
  </node>
  <node id="-672" visible="true" lat="43.69763274" lon="-73.32818477">
    <tag k="addr:city" v="Benson" />
    <tag k="addr:housenumber" v="883" />
    <tag k="addr:street" v="Goodrich Cross Road" />
    <tag k="addr:state" v="VT" />
    <tag k="ref:vcgi:esiteid" v="326818" />
  </node>
  <node id="-673" visible="true" lat="43.69660806" lon="-73.26538159">
    <tag k="addr:city" v="Benson" />
    <tag k="addr:housenumber" v="2181" />
    <tag k="addr:street" v="East Road" />
    <tag k="addr:state" v="VT" />
    <tag k="ref:vcgi:esiteid" v="326819" />
  </node>
  <node id="-674" visible="true" lat="43.75176915" lon="-73.28227397">
    <tag k="addr:city" v="Benson" />
    <tag k="addr:housenumber" v="1785" />
    <tag k="addr:street" v="Perch Pond Road" />
    <tag k="addr:state" v="VT" />
    <tag k="ref:vcgi:esiteid" v="326820" />
  </node>
  <node id="-675" visible="true" lat="43.73264773" lon="-73.26605883">
    <tag k="addr:city" v="Benson" />
    <tag k="addr:housenumber" v="1899" />
    <tag k="addr:street" v="Route 144" />
    <tag k="addr:state" v="VT" />
    <tag k="ref:vcgi:esiteid" v="326821" />
  </node>
  <node id="-676" visible="true" lat="43.7400215" lon="-73.36659547">
    <tag k="addr:city" v="Benson" />
    <tag k="addr:housenumber" v="613" />
    <tag k="addr:street" v="Stony Point Road" />
    <tag k="addr:state" v="VT" />
    <tag k="ref:vcgi:esiteid" v="329495" />
  </node>
  <node id="-677" visible="true" lat="43.72840245" lon="-73.27656308">
    <tag k="addr:city" v="Benson" />
    <tag k="addr:housenumber" v="1309" />
    <tag k="addr:street" v="Route 144" />
    <tag k="addr:state" v="VT" />
    <tag k="ref:vcgi:esiteid" v="329525" />
  </node>
  <node id="-678" visible="true" lat="43.70633126" lon="-73.30913084">
    <tag k="addr:city" v="Benson" />
    <tag k="addr:housenumber" v="691" />
    <tag k="addr:street" v="Lake Road" />
    <tag k="addr:state" v="VT" />
    <tag k="ref:vcgi:esiteid" v="332155" />
  </node>
  <node id="-679" visible="true" lat="43.68933444" lon="-73.3634272">
    <tag k="addr:city" v="Benson" />
    <tag k="addr:housenumber" v="1755" />
    <tag k="addr:street" v="Money Hole Road" />
    <tag k="addr:state" v="VT" />
    <tag k="ref:vcgi:esiteid" v="332156" />
  </node>
  <node id="-680" visible="true" lat="43.7524896" lon="-73.27706766">
    <tag k="addr:city" v="Benson" />
    <tag k="addr:housenumber" v="2178" />
    <tag k="addr:street" v="Perch Pond Road" />
    <tag k="addr:state" v="VT" />
    <tag k="ref:vcgi:esiteid" v="332157" />
  </node>
  <node id="-681" visible="true" lat="43.69097652" lon="-73.33450286">
    <tag k="addr:city" v="Benson" />
    <tag k="addr:housenumber" v="1200" />
    <tag k="addr:street" v="Parkhill Road" />
    <tag k="addr:state" v="VT" />
    <tag k="ref:vcgi:esiteid" v="332158" />
  </node>
  <node id="-682" visible="true" lat="43.70711342" lon="-73.3161503">
    <tag k="addr:city" v="Benson" />
    <tag k="addr:housenumber" v="1000" />
    <tag k="addr:street" v="Lake Road" />
    <tag k="addr:state" v="VT" />
    <tag k="ref:vcgi:esiteid" v="333263" />
  </node>
  <node id="-683" visible="true" lat="43.70632231" lon="-73.34357513">
    <tag k="addr:city" v="Benson" />
    <tag k="addr:housenumber" v="2485" />
    <tag k="addr:street" v="Lake Road" />
    <tag k="addr:state" v="VT" />
    <tag k="ref:vcgi:esiteid" v="334684" />
  </node>
  <node id="-684" visible="true" lat="43.74544724" lon="-73.34234705">
    <tag k="addr:city" v="Benson" />
    <tag k="addr:housenumber" v="120" />
    <tag k="addr:street" v="Turkey Farm Road" />
    <tag k="addr:state" v="VT" />
    <tag k="ref:vcgi:esiteid" v="334693" />
  </node>
  <node id="-685" visible="true" lat="43.73935503" lon="-73.2395991">
    <tag k="addr:city" v="Benson" />
    <tag k="addr:housenumber" v="3588" />
    <tag k="addr:street" v="Route 144" />
    <tag k="addr:state" v="VT" />
    <tag k="ref:vcgi:esiteid" v="334694" />
  </node>
  <node id="-686" visible="true" lat="43.69455415" lon="-73.3334958">
    <tag k="addr:city" v="Benson" />
    <tag k="addr:housenumber" v="964" />
    <tag k="addr:street" v="Parkhill Road" />
    <tag k="addr:state" v="VT" />
    <tag k="ref:vcgi:esiteid" v="336950" />
  </node>
  <node id="-687" visible="true" lat="43.70345683" lon="-73.30180745">
    <tag k="addr:city" v="Benson" />
    <tag k="addr:housenumber" v="257" />
    <tag k="addr:street" v="Lake Road" />
    <tag k="addr:state" v="VT" />
    <tag k="ref:vcgi:esiteid" v="336951" />
  </node>
  <node id="-688" visible="true" lat="43.71191694" lon="-73.31751236">
    <tag k="addr:city" v="Benson" />
    <tag k="addr:housenumber" v="378" />
    <tag k="addr:street" v="Glenn Road" />
    <tag k="addr:state" v="VT" />
    <tag k="ref:vcgi:esiteid" v="336952" />
  </node>
  <node id="-689" visible="true" lat="43.73582657" lon="-73.24569601">
    <tag k="addr:city" v="Benson" />
    <tag k="addr:housenumber" v="3237" />
    <tag k="addr:street" v="Route 144" />
    <tag k="addr:state" v="VT" />
    <tag k="ref:vcgi:esiteid" v="336953" />
  </node>
  <node id="-690" visible="true" lat="43.69223086" lon="-73.37826569">
    <tag k="addr:city" v="Benson" />
    <tag k="addr:housenumber" v="548" />
    <tag k="addr:street" v="Herrick Road" />
    <tag k="addr:state" v="VT" />
    <tag k="ref:vcgi:esiteid" v="339135" />
  </node>
  <node id="-691" visible="true" lat="43.7025672" lon="-73.27956306">
    <tag k="addr:city" v="Benson" />
    <tag k="addr:housenumber" v="175" />
    <tag k="addr:street" v="Howard Hill Road" />
    <tag k="addr:state" v="VT" />
    <tag k="ref:vcgi:esiteid" v="339136" />
  </node>
  <node id="-692" visible="true" lat="43.75309823" lon="-73.34730625">
    <tag k="addr:city" v="Benson" />
    <tag k="addr:housenumber" v="754" />
    <tag k="addr:street" v="Turkey Farm Road" />
    <tag k="addr:state" v="VT" />
    <tag k="ref:vcgi:esiteid" v="339137" />
  </node>
  <node id="-693" visible="true" lat="43.7540671" lon="-73.35083706">
    <tag k="addr:city" v="Benson" />
    <tag k="addr:housenumber" v="1018" />
    <tag k="addr:street" v="Turkey Farm Road" />
    <tag k="addr:state" v="VT" />
    <tag k="ref:vcgi:esiteid" v="341687" />
  </node>
  <node id="-694" visible="true" lat="43.72822614" lon="-73.36691055">
    <tag k="addr:city" v="Benson" />
    <tag k="addr:housenumber" v="4760" />
    <tag k="addr:street" v="Lake Road" />
    <tag k="addr:state" v="VT" />
    <tag k="ref:vcgi:esiteid" v="341830" />
  </node>
  <node id="-695" visible="true" lat="43.6811087" lon="-73.38262883">
    <tag k="addr:city" v="Benson" />
    <tag k="addr:housenumber" v="778" />
    <tag k="addr:street" v="Temple Road" />
    <tag k="addr:state" v="VT" />
    <tag k="ref:vcgi:esiteid" v="343643" />
  </node>
  <node id="-696" visible="true" lat="43.69090305" lon="-73.26798773">
    <tag k="addr:city" v="Benson" />
    <tag k="addr:housenumber" v="1760" />
    <tag k="addr:street" v="East Road" />
    <tag k="addr:state" v="VT" />
    <tag k="ref:vcgi:esiteid" v="343665" />
  </node>
  <node id="-697" visible="true" lat="43.75111485" lon="-73.27620429">
    <tag k="addr:city" v="Benson" />
    <tag k="addr:housenumber" v="2287" />
    <tag k="addr:street" v="Perch Pond Road" />
    <tag k="addr:state" v="VT" />
    <tag k="ref:vcgi:esiteid" v="343666" />
  </node>
  <node id="-698" visible="true" lat="43.74261497" lon="-73.36448789">
    <tag k="addr:city" v="Benson" />
    <tag k="addr:housenumber" v="797" />
    <tag k="addr:street" v="Stony Point Road" />
    <tag k="addr:state" v="VT" />
    <tag k="ref:vcgi:esiteid" v="343670" />
  </node>
  <node id="-699" visible="true" lat="43.74314403" lon="-73.23989409">
    <tag k="addr:city" v="Benson" />
    <tag k="addr:housenumber" v="3735" />
    <tag k="addr:street" v="Route 144" />
    <tag k="addr:state" v="VT" />
    <tag k="ref:vcgi:esiteid" v="344304" />
  </node>
  <node id="-700" visible="true" lat="43.74360402" lon="-73.30493014">
    <tag k="addr:city" v="Benson" />
    <tag k="addr:housenumber" v="93" />
    <tag k="addr:street" v="Perch Pond Road" />
    <tag k="addr:state" v="VT" />
    <tag k="ref:vcgi:esiteid" v="344305" />
  </node>
  <node id="-701" visible="true" lat="43.76132827" lon="-73.2645363">
    <tag k="addr:city" v="Benson" />
    <tag k="addr:housenumber" v="2386" />
    <tag k="addr:street" v="Sunset Lake Road" />
    <tag k="addr:state" v="VT" />
    <tag k="ref:vcgi:esiteid" v="365568" />
  </node>
  <node id="-702" visible="true" lat="43.72778959" lon="-73.28466552">
    <tag k="addr:city" v="Benson" />
    <tag k="addr:housenumber" v="827" />
    <tag k="addr:street" v="Route 144" />
    <tag k="addr:state" v="VT" />
    <tag k="ref:vcgi:esiteid" v="445427" />
  </node>
  <node id="-703" visible="true" lat="43.69011576" lon="-73.26476052">
    <tag k="addr:city" v="Benson" />
    <tag k="addr:housenumber" v="1720" />
    <tag k="addr:street" v="East Road" />
    <tag k="addr:state" v="VT" />
    <tag k="ref:vcgi:esiteid" v="447826" />
  </node>
  <node id="-704" visible="true" lat="43.69856812" lon="-73.33471895">
    <tag k="addr:city" v="Benson" />
    <tag k="addr:housenumber" v="151" />
    <tag k="addr:street" v="Money Hole Road" />
    <tag k="addr:state" v="VT" />
    <tag k="ref:vcgi:esiteid" v="447828" />
  </node>
  <node id="-705" visible="true" lat="43.70357736" lon="-73.29481819">
    <tag k="addr:city" v="Benson" />
    <tag k="addr:housenumber" v="58" />
    <tag k="addr:street" v="Mill Pond Road" />
    <tag k="addr:state" v="VT" />
    <tag k="ref:vcgi:esiteid" v="447829" />
  </node>
  <node id="-706" visible="true" lat="43.68116179" lon="-73.29016784">
    <tag k="addr:city" v="Benson" />
    <tag k="addr:housenumber" v="5412" />
    <tag k="addr:street" v="Vermont Route 22A" />
    <tag k="addr:state" v="VT" />
    <tag k="ref:vcgi:esiteid" v="448129" />
  </node>
  <node id="-707" visible="true" lat="43.75402749" lon="-73.3256783">
    <tag k="addr:city" v="Benson" />
    <tag k="addr:housenumber" v="220" />
    <tag k="addr:street" v="Frazier Hill Road" />
    <tag k="addr:state" v="VT" />
    <tag k="ref:vcgi:esiteid" v="451460" />
  </node>
  <node id="-708" visible="true" lat="43.74745141" lon="-73.28563648">
    <tag k="addr:city" v="Benson" />
    <tag k="addr:housenumber" v="1251" />
    <tag k="addr:street" v="Perch Pond Road" />
    <tag k="addr:state" v="VT" />
    <tag k="ref:vcgi:esiteid" v="451615" />
  </node>
  <node id="-709" visible="true" lat="43.75322471" lon="-73.27804163">
    <tag k="addr:city" v="Benson" />
    <tag k="addr:housenumber" v="1932" />
    <tag k="addr:street" v="Perch Pond Road" />
    <tag k="addr:state" v="VT" />
    <tag k="ref:vcgi:esiteid" v="451616" />
  </node>
  <node id="-710" visible="true" lat="43.7546912" lon="-73.2773991">
    <tag k="addr:city" v="Benson" />
    <tag k="addr:housenumber" v="94" />
    <tag k="addr:street" v="Trout Bay Road" />
    <tag k="addr:state" v="VT" />
    <tag k="ref:vcgi:esiteid" v="451617" />
  </node>
  <node id="-711" visible="true" lat="43.74612966" lon="-73.3184427">
    <tag k="addr:city" v="Benson" />
    <tag k="addr:housenumber" v="5459" />
    <tag k="addr:street" v="Stage Road" />
    <tag k="addr:state" v="VT" />
    <tag k="ref:vcgi:esiteid" v="453776" />
  </node>
  <node id="-712" visible="true" lat="43.72183503" lon="-73.30047427">
    <tag k="addr:city" v="Benson" />
    <tag k="addr:housenumber" v="2490" />
    <tag k="addr:street" v="Vermont Route 22A" />
    <tag k="addr:state" v="VT" />
    <tag k="ref:vcgi:esiteid" v="610570" />
  </node>
  <node id="-713" visible="true" lat="43.70626775" lon="-73.33190818">
    <tag k="addr:city" v="Benson" />
    <tag k="addr:housenumber" v="70" />
    <tag k="addr:street" v="Parkhill Road" />
    <tag k="addr:state" v="VT" />
    <tag k="ref:vcgi:esiteid" v="610572" />
  </node>
  <node id="-715" visible="true" lat="43.74204423" lon="-73.305957">
    <tag k="addr:city" v="Benson" />
    <tag k="addr:housenumber" v="20" />
    <tag k="addr:street" v="Perch Pond Road" />
    <tag k="addr:state" v="VT" />
    <tag k="ref:vcgi:esiteid" v="612483" />
  </node>
  <node id="-716" visible="true" lat="43.71754391" lon="-73.32486708">
    <tag k="addr:city" v="Benson" />
    <tag k="addr:housenumber" v="984" />
    <tag k="addr:street" v="Glenn Road" />
    <tag k="addr:state" v="VT" />
    <tag k="ref:vcgi:esiteid" v="612484" />
  </node>
  <node id="-717" visible="true" lat="43.7190245" lon="-73.32989136">
    <tag k="addr:city" v="Benson" />
    <tag k="addr:housenumber" v="1224" />
    <tag k="addr:street" v="Glenn Road" />
    <tag k="addr:state" v="VT" />
    <tag k="ref:vcgi:esiteid" v="612485" />
  </node>
  <node id="-718" visible="true" lat="43.68969344" lon="-73.38384588">
    <tag k="addr:city" v="Benson" />
    <tag k="addr:housenumber" v="899" />
    <tag k="addr:street" v="Herrick Road" />
    <tag k="addr:state" v="VT" />
    <tag k="ref:vcgi:esiteid" v="612486" />
  </node>
  <node id="-719" visible="true" lat="43.70280187" lon="-73.25484048">
    <tag k="addr:city" v="Benson" />
    <tag k="addr:housenumber" v="2778" />
    <tag k="addr:street" v="East Road" />
    <tag k="addr:state" v="VT" />
    <tag k="ref:vcgi:esiteid" v="612487" />
  </node>
  <node id="-720" visible="true" lat="43.74568021" lon="-73.33629811">
    <tag k="addr:city" v="Benson" />
    <tag k="addr:housenumber" v="1074" />
    <tag k="addr:street" v="Frazier Hill Road" />
    <tag k="addr:state" v="VT" />
    <tag k="ref:vcgi:esiteid" v="613593" />
  </node>
  <node id="-721" visible="true" lat="43.70548755" lon="-73.30998034">
    <tag k="addr:city" v="Benson" />
    <tag k="addr:housenumber" v="2514" />
    <tag k="addr:street" v="Stage Road" />
    <tag k="addr:state" v="VT" />
    <tag k="ref:vcgi:esiteid" v="617968" />
  </node>
  <node id="-722" visible="true" lat="43.70373453" lon="-73.2568554">
    <tag k="addr:city" v="Benson" />
    <tag k="addr:housenumber" v="2831" />
    <tag k="addr:street" v="East Road" />
    <tag k="addr:state" v="VT" />
    <tag k="ref:vcgi:esiteid" v="620303" />
  </node>
  <node id="-723" visible="true" lat="43.70721945" lon="-73.31076491">
    <tag k="addr:city" v="Benson" />
    <tag k="addr:housenumber" v="2635" />
    <tag k="addr:street" v="Stage Road" />
    <tag k="addr:state" v="VT" />
    <tag k="ref:vcgi:esiteid" v="620555" />
  </node>
  <node id="-724" visible="true" lat="43.67153972" lon="-73.31617992">
    <tag k="addr:city" v="Benson" />
    <tag k="addr:housenumber" v="1187" />
    <tag k="addr:street" v="Stage Road" />
    <tag k="addr:state" v="VT" />
    <tag k="ref:vcgi:esiteid" v="621044" />
  </node>
  <node id="-765" visible="true" lat="43.72328968" lon="-73.36739043">
    <tag k="addr:city" v="Benson" />
    <tag k="addr:housenumber" v="216" />
    <tag k="addr:street" v="Lake Road" />
    <tag k="addr:state" v="VT" />
    <tag k="ref:vcgi:esiteid" v="621118" />
  </node>
  <node id="-772" visible="true" lat="43.76353225" lon="-73.23419068">
    <tag k="addr:city" v="Benson" />
    <tag k="addr:housenumber" v="2593" />
    <tag k="addr:street" v="Young Road" />
    <tag k="addr:state" v="VT" />
    <tag k="ref:vcgi:esiteid" v="655779" />
  </node>
  <node id="-778" visible="true" lat="43.68545119" lon="-73.34621324">
    <tag k="addr:city" v="Benson" />
    <tag k="addr:housenumber" v="170" />
    <tag k="addr:street" v="Damascus Road" />
    <tag k="addr:state" v="VT" />
    <tag k="ref:vcgi:esiteid" v="656389" />
  </node>
  <node id="-779" visible="true" lat="43.73122834" lon="-73.3550532">
    <tag k="addr:city" v="Benson" />
    <tag k="addr:housenumber" v="2424" />
    <tag k="addr:street" v="North Lake Road" />
    <tag k="addr:state" v="VT" />
    <tag k="ref:vcgi:esiteid" v="751527" />
  </node>
  <node id="-789" visible="true" lat="43.72868114" lon="-73.3672503">
    <tag k="addr:city" v="Benson" />
    <tag k="addr:housenumber" v="3200" />
    <tag k="addr:street" v="North Lake Road" />
    <tag k="addr:state" v="VT" />
    <tag k="ref:vcgi:esiteid" v="751558" />
  </node>
  <node id="-790" visible="true" lat="43.75512777" lon="-73.32215821">
    <tag k="addr:city" v="Benson" />
    <tag k="addr:housenumber" v="6103" />
    <tag k="addr:street" v="Stage Road" />
    <tag k="addr:state" v="VT" />
    <tag k="ref:vcgi:esiteid" v="751722" />
  </node>
  <node id="-791" visible="true" lat="43.75347256" lon="-73.26481228">
    <tag k="addr:city" v="Benson" />
    <tag k="addr:housenumber" v="78" />
    <tag k="addr:street" v="Hyatt Camp Road" />
    <tag k="addr:state" v="VT" />
    <tag k="ref:vcgi:esiteid" v="753215" />
  </node>
  <node id="-792" visible="true" lat="43.7332725" lon="-73.23789782">
    <tag k="addr:city" v="Benson" />
    <tag k="addr:housenumber" v="3216" />
    <tag k="addr:street" v="Route 144" />
    <tag k="addr:state" v="VT" />
    <tag k="ref:vcgi:esiteid" v="753466" />
  </node>
  <node id="-793" visible="true" lat="43.74902969" lon="-73.28171755">
    <tag k="addr:city" v="Benson" />
    <tag k="addr:housenumber" v="1640" />
    <tag k="addr:street" v="Perch Pond Road" />
    <tag k="addr:state" v="VT" />
    <tag k="ref:vcgi:esiteid" v="753523" />
  </node>
  <node id="-796" visible="true" lat="43.71594983" lon="-73.3533251">
    <tag k="addr:city" v="Benson" />
    <tag k="addr:housenumber" v="3156" />
    <tag k="addr:street" v="Lake Road" />
    <tag k="addr:state" v="VT" />
    <tag k="ref:vcgi:esiteid" v="755997" />
  </node>
  <node id="-797" visible="true" lat="43.70351665" lon="-73.28024725">
    <tag k="addr:city" v="Benson" />
    <tag k="addr:housenumber" v="223" />
    <tag k="addr:street" v="Howard Hill Road" />
    <tag k="addr:state" v="VT" />
    <tag k="ref:vcgi:esiteid" v="755998" />
  </node>
  <node id="-798" visible="true" lat="43.72333145" lon="-73.29183017">
    <tag k="addr:city" v="Benson" />
    <tag k="addr:housenumber" v="571" />
    <tag k="addr:street" v="Route 144" />
    <tag k="addr:state" v="VT" />
    <tag k="ref:vcgi:esiteid" v="756177" />
  </node>
  <node id="-799" visible="true" lat="43.71955227" lon="-73.31166711">
    <tag k="addr:city" v="Benson" />
    <tag k="addr:housenumber" v="3471" />
    <tag k="addr:street" v="Stage Road" />
    <tag k="addr:state" v="VT" />
    <tag k="ref:vcgi:esiteid" v="757344" />
  </node>
  <node id="-800" visible="true" lat="43.68610328" lon="-73.3355644">
    <tag k="addr:city" v="Benson" />
    <tag k="addr:housenumber" v="1474" />
    <tag k="addr:street" v="Parkhill Road" />
    <tag k="addr:state" v="VT" />
    <tag k="ref:vcgi:esiteid" v="757461" />
  </node>
  <node id="-801" visible="true" lat="43.68681655" lon="-73.34229355">
    <tag k="addr:city" v="Benson" />
    <tag k="addr:housenumber" v="793" />
    <tag k="addr:street" v="Root Pond Road" />
    <tag k="addr:state" v="VT" />
    <tag k="ref:vcgi:esiteid" v="757462" />
  </node>
  <node id="-802" visible="true" lat="43.75339997" lon="-73.32314782">
    <tag k="addr:city" v="Benson" />
    <tag k="addr:housenumber" v="107" />
    <tag k="addr:street" v="Frazier Hill Road" />
    <tag k="addr:state" v="VT" />
    <tag k="ref:vcgi:esiteid" v="758141" />
  </node>
  <node id="-803" visible="true" lat="43.70239058" lon="-73.30890161">
    <tag k="addr:city" v="Benson" />
    <tag k="addr:housenumber" v="2280" />
    <tag k="addr:street" v="Stage Road" />
    <tag k="addr:state" v="VT" />
    <tag k="ref:vcgi:esiteid" v="759269" />
  </node>
  <node id="-804" visible="true" lat="43.69815713" lon="-73.34301858">
    <tag k="addr:city" v="Benson" />
    <tag k="addr:housenumber" v="589" />
    <tag k="addr:street" v="Money Hole Road" />
    <tag k="addr:state" v="VT" />
    <tag k="ref:vcgi:esiteid" v="759960" />
  </node>
  <node id="-805" visible="true" lat="43.71150783" lon="-73.34484033">
    <tag k="addr:city" v="Benson" />
    <tag k="addr:housenumber" v="2612" />
    <tag k="addr:street" v="Lake Road" />
    <tag k="addr:state" v="VT" />
    <tag k="ref:vcgi:esiteid" v="762955" />
  </node>
  <node id="-806" visible="true" lat="43.73815505" lon="-73.31859581">
    <tag k="addr:city" v="Benson" />
    <tag k="addr:housenumber" v="4878" />
    <tag k="addr:street" v="Stage Road" />
    <tag k="addr:state" v="VT" />
    <tag k="ref:vcgi:esiteid" v="762956" />
  </node>
  <node id="-807" visible="true" lat="43.74919665" lon="-73.23605505">
    <tag k="addr:city" v="Benson" />
    <tag k="addr:housenumber" v="318" />
    <tag k="addr:street" v="Ledge Road" />
    <tag k="addr:state" v="VT" />
    <tag k="ref:vcgi:esiteid" v="763034" />
  </node>
  <node id="-808" visible="true" lat="43.73730279" lon="-73.24218507">
    <tag k="addr:city" v="Benson" />
    <tag k="addr:housenumber" v="3348" />
    <tag k="addr:street" v="Route 144" />
    <tag k="addr:state" v="VT" />
    <tag k="ref:vcgi:esiteid" v="763378" />
  </node>
  <node id="-809" visible="true" lat="43.69297699" lon="-73.27026857">
    <tag k="addr:city" v="Benson" />
    <tag k="addr:housenumber" v="1574" />
    <tag k="addr:street" v="Mill Pond Road" />
    <tag k="addr:state" v="VT" />
    <tag k="ref:vcgi:esiteid" v="766320" />
  </node>
  <node id="-810" visible="true" lat="43.69569947" lon="-73.26875155">
    <tag k="addr:city" v="Benson" />
    <tag k="addr:housenumber" v="1585" />
    <tag k="addr:street" v="Mill Pond Road" />
    <tag k="addr:state" v="VT" />
    <tag k="ref:vcgi:esiteid" v="766321" />
  </node>
  <node id="-811" visible="true" lat="43.67482722" lon="-73.31102046">
    <tag k="addr:city" v="Benson" />
    <tag k="addr:housenumber" v="408" />
    <tag k="addr:street" v="Stage Road" />
    <tag k="addr:state" v="VT" />
    <tag k="ref:vcgi:esiteid" v="766443" />
  </node>
  <node id="-812" visible="true" lat="43.70879683" lon="-73.30832188">
    <tag k="addr:city" v="Benson" />
    <tag k="addr:housenumber" v="2786" />
    <tag k="addr:street" v="Stage Road" />
    <tag k="addr:state" v="VT" />
    <tag k="ref:vcgi:esiteid" v="766445" />
  </node>
  <node id="-813" visible="true" lat="43.70035196" lon="-73.28096884">
    <tag k="addr:city" v="Benson" />
    <tag k="addr:housenumber" v="779" />
    <tag k="addr:street" v="Mill Pond Road" />
    <tag k="addr:state" v="VT" />
    <tag k="ref:vcgi:esiteid" v="767285" />
  </node>
  <node id="-814" visible="true" lat="43.74288461" lon="-73.36051718">
    <tag k="addr:city" v="Benson" />
    <tag k="addr:housenumber" v="1080" />
    <tag k="addr:street" v="Stony Point Road" />
    <tag k="addr:state" v="VT" />
    <tag k="ref:vcgi:esiteid" v="767385" />
  </node>
  <node id="-815" visible="true" lat="43.68110673" lon="-73.3839788">
    <tag k="addr:city" v="Benson" />
    <tag k="addr:housenumber" v="844" />
    <tag k="addr:street" v="Temple Road" />
    <tag k="addr:state" v="VT" />
    <tag k="ref:vcgi:esiteid" v="767491" />
  </node>
  <node id="-816" visible="true" lat="43.75259248" lon="-73.35478784">
    <tag k="addr:city" v="Benson" />
    <tag k="addr:housenumber" v="929" />
    <tag k="addr:street" v="Turkey Farm Road" />
    <tag k="addr:state" v="VT" />
    <tag k="ref:vcgi:esiteid" v="767492" />
  </node>
  <node id="-824" visible="true" lat="43.67985235" lon="-73.33299355">
    <tag k="addr:city" v="Benson" />
    <tag k="addr:housenumber" v="1897" />
    <tag k="addr:street" v="Parkhill Road" />
    <tag k="addr:state" v="VT" />
    <tag k="ref:vcgi:esiteid" v="770127" />
  </node>
  <node id="-825" visible="true" lat="43.68896079" lon="-73.33470464">
    <tag k="addr:city" v="Benson" />
    <tag k="addr:housenumber" v="1228" />
    <tag k="addr:street" v="Parkhill Road" />
    <tag k="addr:state" v="VT" />
    <tag k="ref:vcgi:esiteid" v="771089" />
  </node>
  <node id="-826" visible="true" lat="43.71658463" lon="-73.27384359">
    <tag k="addr:city" v="Benson" />
    <tag k="addr:housenumber" v="1221" />
    <tag k="addr:street" v="Howard Hill Road" />
    <tag k="addr:state" v="VT" />
    <tag k="ref:vcgi:esiteid" v="900400" />
  </node>
  <node id="-827" visible="true" lat="43.75522076" lon="-73.31026665">
    <tag k="addr:city" v="Benson" />
    <tag k="addr:housenumber" v="182" />
    <tag k="addr:street" v="Vermont Route 22A" />
    <tag k="addr:state" v="VT" />
    <tag k="ref:vcgi:esiteid" v="1050414" />
  </node>
  <node id="-828" visible="true" lat="43.70417277" lon="-73.29601804">
    <tag k="addr:city" v="Benson" />
    <tag k="addr:housenumber" v="3792" />
    <tag k="addr:street" v="Vermont Route 22A" />
    <tag k="addr:state" v="VT" />
    <tag k="ref:vcgi:esiteid" v="1050415" />
  </node>
  <node id="-829" visible="true" lat="43.70128171" lon="-73.3097492">
    <tag k="addr:city" v="Benson" />
    <tag k="addr:housenumber" v="71" />
    <tag k="addr:street" v="Shady Lane" />
    <tag k="addr:state" v="VT" />
    <tag k="ref:vcgi:esiteid" v="1051565" />
  </node>
</osm>
