<?xml version="1.0" encoding="UTF-8"?>
<osm version="0.6" generator="JOSM">
  <node id="-100" visible="true" lat="44.42229214" lon="-72.84931104">
    <tag k="addr:housenumber" v="67" />
    <tag k="addr:street" v="Nature Trail Road" />
    <tag k="addr:state" v="VT" />
    <tag k="ref:vcgi:esiteid" v="62" />
  </node>
  <node id="-101" visible="true" lat="44.38043883" lon="-72.86670662">
    <tag k="addr:housenumber" v="2682" />
    <tag k="addr:street" v="Theodore Roosevelt Highway" />
    <tag k="addr:state" v="VT" />
    <tag k="ref:vcgi:esiteid" v="2351" />
  </node>
  <node id="-102" visible="true" lat="44.44854364" lon="-72.90443617">
    <tag k="addr:housenumber" v="3525" />
    <tag k="addr:street" v="Nashville Road" />
    <tag k="addr:state" v="VT" />
    <tag k="ref:vcgi:esiteid" v="25198" />
  </node>
  <node id="-103" visible="true" lat="44.44326972" lon="-72.90567884">
    <tag k="addr:housenumber" v="3324" />
    <tag k="addr:street" v="Nashville Road" />
    <tag k="addr:state" v="VT" />
    <tag k="ref:vcgi:esiteid" v="25199" />
  </node>
  <node id="-104" visible="true" lat="44.44777682" lon="-72.90449521">
    <tag k="addr:housenumber" v="3528" />
    <tag k="addr:street" v="Nashville Road" />
    <tag k="addr:state" v="VT" />
    <tag k="ref:vcgi:esiteid" v="25200" />
  </node>
  <node id="-105" visible="true" lat="44.44763732" lon="-72.90314227">
    <tag k="addr:housenumber" v="3533" />
    <tag k="addr:street" v="Nashville Road" />
    <tag k="addr:state" v="VT" />
    <tag k="ref:vcgi:esiteid" v="25201" />
  </node>
  <node id="-106" visible="true" lat="44.44750105" lon="-72.90264171">
    <tag k="addr:housenumber" v="3537" />
    <tag k="addr:street" v="Nashville Road" />
    <tag k="addr:state" v="VT" />
    <tag k="ref:vcgi:esiteid" v="25202" />
  </node>
  <node id="-107" visible="true" lat="44.4469515" lon="-72.90219842">
    <tag k="addr:housenumber" v="3541" />
    <tag k="addr:street" v="Nashville Road" />
    <tag k="addr:state" v="VT" />
    <tag k="ref:vcgi:esiteid" v="25204" />
  </node>
  <node id="-108" visible="true" lat="44.44687727" lon="-72.9030803">
    <tag k="addr:housenumber" v="3536" />
    <tag k="addr:street" v="Nashville Road" />
    <tag k="addr:state" v="VT" />
    <tag k="ref:vcgi:esiteid" v="25205" />
  </node>
  <node id="-109" visible="true" lat="44.44665606" lon="-72.90177734">
    <tag k="addr:housenumber" v="3543" />
    <tag k="addr:street" v="Nashville Road" />
    <tag k="addr:state" v="VT" />
    <tag k="ref:vcgi:esiteid" v="25206" />
  </node>
  <node id="-110" visible="true" lat="44.44667567" lon="-72.90267386">
    <tag k="addr:housenumber" v="3540" />
    <tag k="addr:street" v="Nashville Road" />
    <tag k="addr:state" v="VT" />
    <tag k="ref:vcgi:esiteid" v="25207" />
  </node>
  <node id="-111" visible="true" lat="44.44660189" lon="-72.89236447">
    <tag k="addr:housenumber" v="221" />
    <tag k="addr:street" v="Mill Brook Road" />
    <tag k="addr:state" v="VT" />
    <tag k="ref:vcgi:esiteid" v="25208" />
  </node>
  <node id="-112" visible="true" lat="44.44650652" lon="-72.89489743">
    <tag k="addr:housenumber" v="127" />
    <tag k="addr:street" v="Mill Brook Road" />
    <tag k="addr:state" v="VT" />
    <tag k="ref:vcgi:esiteid" v="25209" />
  </node>
  <node id="-113" visible="true" lat="44.4465796" lon="-72.90093337">
    <tag k="addr:housenumber" v="3547" />
    <tag k="addr:street" v="Nashville Road" />
    <tag k="addr:state" v="VT" />
    <tag k="ref:vcgi:esiteid" v="25210" />
  </node>
  <node id="-114" visible="true" lat="44.44643786" lon="-72.89436337">
    <tag k="addr:housenumber" v="177" />
    <tag k="addr:street" v="Mill Brook Road" />
    <tag k="addr:state" v="VT" />
    <tag k="ref:vcgi:esiteid" v="25211" />
  </node>
  <node id="-115" visible="true" lat="44.44629691" lon="-72.90255253">
    <tag k="addr:housenumber" v="3542" />
    <tag k="addr:street" v="Nashville Road" />
    <tag k="addr:state" v="VT" />
    <tag k="ref:vcgi:esiteid" v="25212" />
  </node>
  <node id="-116" visible="true" lat="44.44638883" lon="-72.89652333">
    <tag k="addr:housenumber" v="45" />
    <tag k="addr:street" v="Mill Brook Road" />
    <tag k="addr:state" v="VT" />
    <tag k="ref:vcgi:esiteid" v="25213" />
  </node>
  <node id="-117" visible="true" lat="44.44623568" lon="-72.89317319">
    <tag k="addr:housenumber" v="234" />
    <tag k="addr:street" v="Mill Brook Road" />
    <tag k="addr:state" v="VT" />
    <tag k="ref:vcgi:esiteid" v="25214" />
  </node>
  <node id="-118" visible="true" lat="44.4461632" lon="-72.89193723">
    <tag k="addr:housenumber" v="302" />
    <tag k="addr:street" v="Mill Brook Road" />
    <tag k="addr:state" v="VT" />
    <tag k="ref:vcgi:esiteid" v="25215" />
  </node>
  <node id="-119" visible="true" lat="44.44617579" lon="-72.90190484">
    <tag k="addr:housenumber" v="3544" />
    <tag k="addr:street" v="Nashville Road" />
    <tag k="addr:state" v="VT" />
    <tag k="ref:vcgi:esiteid" v="25216" />
  </node>
  <node id="-120" visible="true" lat="44.44618832" lon="-72.90028675">
    <tag k="addr:housenumber" v="3551" />
    <tag k="addr:street" v="Nashville Road" />
    <tag k="addr:state" v="VT" />
    <tag k="ref:vcgi:esiteid" v="25217" />
  </node>
  <node id="-121" visible="true" lat="44.44599917" lon="-72.89534756">
    <tag k="addr:housenumber" v="128" />
    <tag k="addr:street" v="Mill Brook Road" />
    <tag k="addr:state" v="VT" />
    <tag k="ref:vcgi:esiteid" v="25219" />
  </node>
  <node id="-122" visible="true" lat="44.44597709" lon="-72.90133412">
    <tag k="addr:housenumber" v="3556" />
    <tag k="addr:street" v="Nashville Road" />
    <tag k="addr:state" v="VT" />
    <tag k="ref:vcgi:esiteid" v="25220" />
  </node>
  <node id="-123" visible="true" lat="44.4458771" lon="-72.8963165">
    <tag k="addr:housenumber" v="68" />
    <tag k="addr:street" v="Mill Brook Road" />
    <tag k="addr:state" v="VT" />
    <tag k="ref:vcgi:esiteid" v="25221" />
  </node>
  <node id="-124" visible="true" lat="44.44585802" lon="-72.89723203">
    <tag k="addr:housenumber" v="30" />
    <tag k="addr:street" v="Cemetery Road" />
    <tag k="addr:state" v="VT" />
    <tag k="ref:vcgi:esiteid" v="25222" />
  </node>
  <node id="-125" visible="true" lat="44.44574832" lon="-72.89872665">
    <tag k="addr:housenumber" v="3811" />
    <tag k="addr:street" v="Nashville Road" />
    <tag k="addr:state" v="VT" />
    <tag k="ref:vcgi:esiteid" v="25223" />
  </node>
  <node id="-126" visible="true" lat="44.44472348" lon="-72.88436276">
    <tag k="addr:housenumber" v="739" />
    <tag k="addr:street" v="Mill Brook Road" />
    <tag k="addr:state" v="VT" />
    <tag k="ref:vcgi:esiteid" v="25224" />
  </node>
  <node id="-127" visible="true" lat="44.4450774" lon="-72.89739985">
    <tag k="addr:housenumber" v="5504" />
    <tag k="addr:street" v="Stage Road" />
    <tag k="addr:state" v="VT" />
    <tag k="ref:vcgi:esiteid" v="25225" />
  </node>
  <node id="-128" visible="true" lat="44.44500701" lon="-72.8940136">
    <tag k="addr:housenumber" v="5458" />
    <tag k="addr:street" v="Stage Road" />
    <tag k="addr:state" v="VT" />
    <tag k="ref:vcgi:esiteid" v="25226" />
  </node>
  <node id="-129" visible="true" lat="44.44473779" lon="-72.8973556">
    <tag k="addr:housenumber" v="5484" />
    <tag k="addr:street" v="Stage Road" />
    <tag k="addr:state" v="VT" />
    <tag k="ref:vcgi:esiteid" v="25227" />
  </node>
  <node id="-130" visible="true" lat="44.44460046" lon="-72.89731745">
    <tag k="addr:housenumber" v="5474" />
    <tag k="addr:street" v="Stage Road" />
    <tag k="addr:state" v="VT" />
    <tag k="ref:vcgi:esiteid" v="25228" />
  </node>
  <node id="-131" visible="true" lat="44.44424243" lon="-72.89440065">
    <tag k="addr:housenumber" v="165" />
    <tag k="addr:street" v="Black Fly Hill Road" />
    <tag k="addr:state" v="VT" />
    <tag k="ref:vcgi:esiteid" v="25229" />
  </node>
  <node id="-132" visible="true" lat="44.44398158" lon="-72.89724982">
    <tag k="addr:housenumber" v="5430" />
    <tag k="addr:street" v="Stage Road" />
    <tag k="addr:state" v="VT" />
    <tag k="ref:vcgi:esiteid" v="25230" />
  </node>
  <node id="-133" visible="true" lat="44.44403235" lon="-72.89402232">
    <tag k="addr:housenumber" v="167" />
    <tag k="addr:street" v="Black Fly Hill Road" />
    <tag k="addr:state" v="VT" />
    <tag k="ref:vcgi:esiteid" v="25231" />
  </node>
  <node id="-134" visible="true" lat="44.4435228" lon="-72.89401508">
    <tag k="addr:housenumber" v="191" />
    <tag k="addr:street" v="Black Fly Hill Road" />
    <tag k="addr:state" v="VT" />
    <tag k="ref:vcgi:esiteid" v="25232" />
  </node>
  <node id="-135" visible="true" lat="44.44312289" lon="-72.89707944">
    <tag k="addr:housenumber" v="12" />
    <tag k="addr:street" v="Black Fly Hill Road" />
    <tag k="addr:state" v="VT" />
    <tag k="ref:vcgi:esiteid" v="25233" />
  </node>
  <node id="-136" visible="true" lat="44.44250491" lon="-72.89686513">
    <tag k="addr:housenumber" v="38" />
    <tag k="addr:street" v="York Road" />
    <tag k="addr:state" v="VT" />
    <tag k="ref:vcgi:esiteid" v="25234" />
  </node>
  <node id="-137" visible="true" lat="44.44239465" lon="-72.8957705">
    <tag k="addr:housenumber" v="87" />
    <tag k="addr:street" v="York Road" />
    <tag k="addr:state" v="VT" />
    <tag k="ref:vcgi:esiteid" v="25235" />
  </node>
  <node id="-138" visible="true" lat="44.44221171" lon="-72.89644196">
    <tag k="addr:housenumber" v="62" />
    <tag k="addr:street" v="York Road" />
    <tag k="addr:state" v="VT" />
    <tag k="ref:vcgi:esiteid" v="25236" />
  </node>
  <node id="-139" visible="true" lat="44.44208816" lon="-72.89713793">
    <tag k="addr:housenumber" v="5322" />
    <tag k="addr:street" v="Stage Road" />
    <tag k="addr:state" v="VT" />
    <tag k="ref:vcgi:esiteid" v="25237" />
  </node>
  <node id="-140" visible="true" lat="44.4420687" lon="-72.89598141">
    <tag k="addr:housenumber" v="104" />
    <tag k="addr:street" v="York Road" />
    <tag k="addr:state" v="VT" />
    <tag k="ref:vcgi:esiteid" v="25238" />
  </node>
  <node id="-141" visible="true" lat="44.44202601" lon="-72.88946391">
    <tag k="addr:housenumber" v="504" />
    <tag k="addr:street" v="Mill Brook Road" />
    <tag k="addr:state" v="VT" />
    <tag k="ref:vcgi:esiteid" v="25239" />
  </node>
  <node id="-142" visible="true" lat="44.44161823" lon="-72.90027997">
    <tag k="addr:housenumber" v="5161" />
    <tag k="addr:street" v="Stage Road" />
    <tag k="addr:state" v="VT" />
    <tag k="ref:vcgi:esiteid" v="25240" />
  </node>
  <node id="-143" visible="true" lat="44.44147494" lon="-72.896965">
    <tag k="addr:housenumber" v="4510" />
    <tag k="addr:street" v="Notch Road" />
    <tag k="addr:state" v="VT" />
    <tag k="ref:vcgi:esiteid" v="25241" />
  </node>
  <node id="-144" visible="true" lat="44.44128062" lon="-72.89613182">
    <tag k="addr:housenumber" v="4482" />
    <tag k="addr:street" v="Notch Road" />
    <tag k="addr:state" v="VT" />
    <tag k="ref:vcgi:esiteid" v="25242" />
  </node>
  <node id="-145" visible="true" lat="44.44105815" lon="-72.89945226">
    <tag k="addr:housenumber" v="5194" />
    <tag k="addr:street" v="Stage Road" />
    <tag k="addr:state" v="VT" />
    <tag k="ref:vcgi:esiteid" v="25243" />
  </node>
  <node id="-146" visible="true" lat="44.44140023" lon="-72.89800336">
    <tag k="addr:housenumber" v="4521" />
    <tag k="addr:street" v="Notch Road" />
    <tag k="addr:state" v="VT" />
    <tag k="ref:vcgi:esiteid" v="25244" />
  </node>
  <node id="-147" visible="true" lat="44.44091519" lon="-72.89542938">
    <tag k="addr:housenumber" v="106" />
    <tag k="addr:street" v="York Road" />
    <tag k="addr:state" v="VT" />
    <tag k="ref:vcgi:esiteid" v="25245" />
  </node>
  <node id="-148" visible="true" lat="44.44079236" lon="-72.89623446">
    <tag k="addr:housenumber" v="4452" />
    <tag k="addr:street" v="Notch Road" />
    <tag k="addr:state" v="VT" />
    <tag k="ref:vcgi:esiteid" v="25246" />
  </node>
  <node id="-149" visible="true" lat="44.44030764" lon="-72.90104672">
    <tag k="addr:housenumber" v="5118" />
    <tag k="addr:street" v="Stage Road" />
    <tag k="addr:state" v="VT" />
    <tag k="ref:vcgi:esiteid" v="25247" />
  </node>
  <node id="-150" visible="true" lat="44.43994679" lon="-72.89617216">
    <tag k="addr:housenumber" v="4387" />
    <tag k="addr:street" v="Notch Road" />
    <tag k="addr:state" v="VT" />
    <tag k="ref:vcgi:esiteid" v="25248" />
  </node>
  <node id="-151" visible="true" lat="44.43960556" lon="-72.90647509">
    <tag k="addr:housenumber" v="57" />
    <tag k="addr:street" v="East Country Club Drive" />
    <tag k="addr:state" v="VT" />
    <tag k="ref:vcgi:esiteid" v="25249" />
  </node>
  <node id="-152" visible="true" lat="44.43954318" lon="-72.90579638">
    <tag k="addr:housenumber" v="68" />
    <tag k="addr:street" v="East Country Club Drive" />
    <tag k="addr:state" v="VT" />
    <tag k="ref:vcgi:esiteid" v="25250" />
  </node>
  <node id="-153" visible="true" lat="44.43936541" lon="-72.90460965">
    <tag k="addr:housenumber" v="4893" />
    <tag k="addr:street" v="Stage Road" />
    <tag k="addr:state" v="VT" />
    <tag k="ref:vcgi:esiteid" v="25251" />
  </node>
  <node id="-154" visible="true" lat="44.43921073" lon="-72.90687932">
    <tag k="addr:housenumber" v="25" />
    <tag k="addr:street" v="East Country Club Drive" />
    <tag k="addr:state" v="VT" />
    <tag k="ref:vcgi:esiteid" v="25252" />
  </node>
  <node id="-155" visible="true" lat="44.43909252" lon="-72.9062842">
    <tag k="addr:housenumber" v="26" />
    <tag k="addr:street" v="East Country Club Drive" />
    <tag k="addr:state" v="VT" />
    <tag k="ref:vcgi:esiteid" v="25253" />
  </node>
  <node id="-156" visible="true" lat="44.43895342" lon="-72.90412137">
    <tag k="addr:housenumber" v="4914" />
    <tag k="addr:street" v="Stage Road" />
    <tag k="addr:state" v="VT" />
    <tag k="ref:vcgi:esiteid" v="25254" />
  </node>
  <node id="-157" visible="true" lat="44.43873217" lon="-72.90493771">
    <tag k="addr:housenumber" v="4870" />
    <tag k="addr:street" v="Stage Road" />
    <tag k="addr:state" v="VT" />
    <tag k="ref:vcgi:esiteid" v="25255" />
  </node>
  <node id="-158" visible="true" lat="44.43877119" lon="-72.89652451">
    <tag k="addr:housenumber" v="4181" />
    <tag k="addr:street" v="Notch Road" />
    <tag k="addr:state" v="VT" />
    <tag k="ref:vcgi:esiteid" v="25256" />
  </node>
  <node id="-159" visible="true" lat="44.43830622" lon="-72.90840499">
    <tag k="addr:housenumber" v="128" />
    <tag k="addr:street" v="West Country Club Drive" />
    <tag k="addr:state" v="VT" />
    <tag k="ref:vcgi:esiteid" v="25257" />
  </node>
  <node id="-160" visible="true" lat="44.43818918" lon="-72.90782825">
    <tag k="addr:housenumber" v="115" />
    <tag k="addr:street" v="West Country Club Drive" />
    <tag k="addr:state" v="VT" />
    <tag k="ref:vcgi:esiteid" v="25258" />
  </node>
  <node id="-161" visible="true" lat="44.43795201" lon="-72.90620137">
    <tag k="addr:housenumber" v="4780" />
    <tag k="addr:street" v="Stage Road" />
    <tag k="addr:state" v="VT" />
    <tag k="ref:vcgi:esiteid" v="25259" />
  </node>
  <node id="-162" visible="true" lat="44.43719446" lon="-72.90858657">
    <tag k="addr:housenumber" v="4675" />
    <tag k="addr:street" v="Stage Road" />
    <tag k="addr:state" v="VT" />
    <tag k="ref:vcgi:esiteid" v="25260" />
  </node>
  <node id="-163" visible="true" lat="44.43679735" lon="-72.90878103">
    <tag k="addr:housenumber" v="4637" />
    <tag k="addr:street" v="Stage Road" />
    <tag k="addr:state" v="VT" />
    <tag k="ref:vcgi:esiteid" v="25261" />
  </node>
  <node id="-164" visible="true" lat="44.43607461" lon="-72.90899561">
    <tag k="addr:housenumber" v="4619" />
    <tag k="addr:street" v="Stage Road" />
    <tag k="addr:state" v="VT" />
    <tag k="ref:vcgi:esiteid" v="25262" />
  </node>
  <node id="-165" visible="true" lat="44.43607878" lon="-72.8958369">
    <tag k="addr:housenumber" v="4162" />
    <tag k="addr:street" v="Notch Road" />
    <tag k="addr:state" v="VT" />
    <tag k="ref:vcgi:esiteid" v="25263" />
  </node>
  <node id="-166" visible="true" lat="44.43525858" lon="-72.91353763">
    <tag k="addr:housenumber" v="4379" />
    <tag k="addr:street" v="Stage Road" />
    <tag k="addr:state" v="VT" />
    <tag k="ref:vcgi:esiteid" v="25264" />
  </node>
  <node id="-167" visible="true" lat="44.43504489" lon="-72.89620374">
    <tag k="addr:housenumber" v="4052" />
    <tag k="addr:street" v="Notch Road" />
    <tag k="addr:state" v="VT" />
    <tag k="ref:vcgi:esiteid" v="25265" />
  </node>
  <node id="-168" visible="true" lat="44.43462971" lon="-72.91195685">
    <tag k="addr:housenumber" v="4387" />
    <tag k="addr:street" v="Stage Road" />
    <tag k="addr:state" v="VT" />
    <tag k="ref:vcgi:esiteid" v="25266" />
  </node>
  <node id="-169" visible="true" lat="44.43451066" lon="-72.89647971">
    <tag k="addr:housenumber" v="4008" />
    <tag k="addr:street" v="Notch Road" />
    <tag k="addr:state" v="VT" />
    <tag k="ref:vcgi:esiteid" v="25267" />
  </node>
  <node id="-170" visible="true" lat="44.43403519" lon="-72.91271621">
    <tag k="addr:housenumber" v="4363" />
    <tag k="addr:street" v="Stage Road" />
    <tag k="addr:state" v="VT" />
    <tag k="ref:vcgi:esiteid" v="25268" />
  </node>
  <node id="-171" visible="true" lat="44.43395998" lon="-72.91174313">
    <tag k="addr:housenumber" v="4378" />
    <tag k="addr:street" v="Stage Road" />
    <tag k="addr:state" v="VT" />
    <tag k="ref:vcgi:esiteid" v="25269" />
  </node>
  <node id="-172" visible="true" lat="44.4342522" lon="-72.91113854">
    <tag k="addr:housenumber" v="4384" />
    <tag k="addr:street" v="Stage Road" />
    <tag k="addr:state" v="VT" />
    <tag k="ref:vcgi:esiteid" v="25270" />
  </node>
  <node id="-173" visible="true" lat="44.433457" lon="-72.91223158">
    <tag k="addr:housenumber" v="4324" />
    <tag k="addr:street" v="Stage Road" />
    <tag k="addr:state" v="VT" />
    <tag k="ref:vcgi:esiteid" v="25271" />
  </node>
  <node id="-174" visible="true" lat="44.43309876" lon="-72.91265724">
    <tag k="addr:housenumber" v="4298" />
    <tag k="addr:street" v="Stage Road" />
    <tag k="addr:state" v="VT" />
    <tag k="ref:vcgi:esiteid" v="25272" />
  </node>
  <node id="-175" visible="true" lat="44.43224492" lon="-72.91367052">
    <tag k="addr:housenumber" v="4212" />
    <tag k="addr:street" v="Stage Road" />
    <tag k="addr:state" v="VT" />
    <tag k="ref:vcgi:esiteid" v="25273" />
  </node>
  <node id="-176" visible="true" lat="44.43145486" lon="-72.91509105">
    <tag k="addr:housenumber" v="4123" />
    <tag k="addr:street" v="Stage Road" />
    <tag k="addr:state" v="VT" />
    <tag k="ref:vcgi:esiteid" v="25274" />
  </node>
  <node id="-177" visible="true" lat="44.43099489" lon="-72.91447712">
    <tag k="addr:housenumber" v="4118" />
    <tag k="addr:street" v="Stage Road" />
    <tag k="addr:state" v="VT" />
    <tag k="ref:vcgi:esiteid" v="25275" />
  </node>
  <node id="-178" visible="true" lat="44.43052962" lon="-72.91465634">
    <tag k="addr:housenumber" v="4080" />
    <tag k="addr:street" v="Stage Road" />
    <tag k="addr:state" v="VT" />
    <tag k="ref:vcgi:esiteid" v="25276" />
  </node>
  <node id="-179" visible="true" lat="44.42943575" lon="-72.91518399">
    <tag k="addr:housenumber" v="4017" />
    <tag k="addr:street" v="Stage Road" />
    <tag k="addr:state" v="VT" />
    <tag k="ref:vcgi:esiteid" v="25278" />
  </node>
  <node id="-180" visible="true" lat="44.42833245" lon="-72.89575881">
    <tag k="addr:housenumber" v="3594" />
    <tag k="addr:street" v="Notch Road" />
    <tag k="addr:state" v="VT" />
    <tag k="ref:vcgi:esiteid" v="25279" />
  </node>
  <node id="-181" visible="true" lat="44.42760488" lon="-72.91347025">
    <tag k="addr:housenumber" v="3842" />
    <tag k="addr:street" v="Stage Road" />
    <tag k="addr:state" v="VT" />
    <tag k="ref:vcgi:esiteid" v="25280" />
  </node>
  <node id="-182" visible="true" lat="44.4264127" lon="-72.91397273">
    <tag k="addr:housenumber" v="3782" />
    <tag k="addr:street" v="Stage Road" />
    <tag k="addr:state" v="VT" />
    <tag k="ref:vcgi:esiteid" v="25281" />
  </node>
  <node id="-183" visible="true" lat="44.42571008" lon="-72.89755385">
    <tag k="addr:housenumber" v="3353" />
    <tag k="addr:street" v="Notch Road" />
    <tag k="addr:state" v="VT" />
    <tag k="ref:vcgi:esiteid" v="25282" />
  </node>
  <node id="-184" visible="true" lat="44.42565626" lon="-72.91320056">
    <tag k="addr:housenumber" v="3720" />
    <tag k="addr:street" v="Stage Road" />
    <tag k="addr:state" v="VT" />
    <tag k="ref:vcgi:esiteid" v="25283" />
  </node>
  <node id="-185" visible="true" lat="44.42568534" lon="-72.89625279">
    <tag k="addr:housenumber" v="3340" />
    <tag k="addr:street" v="Notch Road" />
    <tag k="addr:state" v="VT" />
    <tag k="ref:vcgi:esiteid" v="25284" />
  </node>
  <node id="-186" visible="true" lat="44.42538934" lon="-72.89628152">
    <tag k="addr:housenumber" v="3336" />
    <tag k="addr:street" v="Notch Road" />
    <tag k="addr:state" v="VT" />
    <tag k="ref:vcgi:esiteid" v="25285" />
  </node>
  <node id="-187" visible="true" lat="44.42512767" lon="-72.89761805">
    <tag k="addr:housenumber" v="3309" />
    <tag k="addr:street" v="Notch Road" />
    <tag k="addr:state" v="VT" />
    <tag k="ref:vcgi:esiteid" v="25286" />
  </node>
  <node id="-188" visible="true" lat="44.42489763" lon="-72.91440506">
    <tag k="addr:housenumber" v="3699" />
    <tag k="addr:street" v="Stage Road" />
    <tag k="addr:state" v="VT" />
    <tag k="ref:vcgi:esiteid" v="25287" />
  </node>
  <node id="-189" visible="true" lat="44.42473223" lon="-72.91355893">
    <tag k="addr:housenumber" v="3658" />
    <tag k="addr:street" v="Stage Road" />
    <tag k="addr:state" v="VT" />
    <tag k="ref:vcgi:esiteid" v="25288" />
  </node>
  <node id="-190" visible="true" lat="44.42340509" lon="-72.91438109">
    <tag k="addr:housenumber" v="3573" />
    <tag k="addr:street" v="Stage Road" />
    <tag k="addr:state" v="VT" />
    <tag k="ref:vcgi:esiteid" v="25289" />
  </node>
  <node id="-191" visible="true" lat="44.4233984" lon="-72.9127655">
    <tag k="addr:housenumber" v="3590" />
    <tag k="addr:street" v="Stage Road" />
    <tag k="addr:state" v="VT" />
    <tag k="ref:vcgi:esiteid" v="25290" />
  </node>
  <node id="-192" visible="true" lat="44.42335104" lon="-72.84819091">
    <tag k="addr:housenumber" v="124" />
    <tag k="addr:street" v="Nature Trail Road" />
    <tag k="addr:state" v="VT" />
    <tag k="ref:vcgi:esiteid" v="25291" />
  </node>
  <node id="-193" visible="true" lat="44.42326949" lon="-72.89710611">
    <tag k="addr:housenumber" v="3183" />
    <tag k="addr:street" v="Notch Road" />
    <tag k="addr:state" v="VT" />
    <tag k="ref:vcgi:esiteid" v="25292" />
  </node>
  <node id="-194" visible="true" lat="44.42256932" lon="-72.9133595">
    <tag k="addr:housenumber" v="3547" />
    <tag k="addr:street" v="Stage Road" />
    <tag k="addr:state" v="VT" />
    <tag k="ref:vcgi:esiteid" v="25293" />
  </node>
  <node id="-195" visible="true" lat="44.42269137" lon="-72.84878537">
    <tag k="addr:housenumber" v="104" />
    <tag k="addr:street" v="Nature Trail Road" />
    <tag k="addr:state" v="VT" />
    <tag k="ref:vcgi:esiteid" v="25294" />
  </node>
  <node id="-196" visible="true" lat="44.42196262" lon="-72.9112907">
    <tag k="addr:housenumber" v="3488" />
    <tag k="addr:street" v="Stage Road" />
    <tag k="addr:state" v="VT" />
    <tag k="ref:vcgi:esiteid" v="25295" />
  </node>
  <node id="-197" visible="true" lat="44.42225582" lon="-72.89680966">
    <tag k="addr:housenumber" v="3132" />
    <tag k="addr:street" v="Notch Road" />
    <tag k="addr:state" v="VT" />
    <tag k="ref:vcgi:esiteid" v="25296" />
  </node>
  <node id="-198" visible="true" lat="44.42247529" lon="-72.91220043">
    <tag k="addr:housenumber" v="3504" />
    <tag k="addr:street" v="Stage Road" />
    <tag k="addr:state" v="VT" />
    <tag k="ref:vcgi:esiteid" v="25297" />
  </node>
  <node id="-199" visible="true" lat="44.42206642" lon="-72.9135207">
    <tag k="addr:housenumber" v="3477" />
    <tag k="addr:street" v="Stage Road" />
    <tag k="addr:state" v="VT" />
    <tag k="ref:vcgi:esiteid" v="25298" />
  </node>
  <node id="-200" visible="true" lat="44.42214417" lon="-72.89806071">
    <tag k="addr:housenumber" v="3161" />
    <tag k="addr:street" v="Notch Road" />
    <tag k="addr:state" v="VT" />
    <tag k="ref:vcgi:esiteid" v="25299" />
  </node>
  <node id="-201" visible="true" lat="44.42185335" lon="-72.91374764">
    <tag k="addr:housenumber" v="3475" />
    <tag k="addr:street" v="Stage Road" />
    <tag k="addr:state" v="VT" />
    <tag k="ref:vcgi:esiteid" v="25300" />
  </node>
  <node id="-202" visible="true" lat="44.42208416" lon="-72.84775154">
    <tag k="addr:housenumber" v="100" />
    <tag k="addr:street" v="Ardec Lane" />
    <tag k="addr:state" v="VT" />
    <tag k="ref:vcgi:esiteid" v="25301" />
  </node>
  <node id="-203" visible="true" lat="44.42207566" lon="-72.84898724">
    <tag k="addr:housenumber" v="43" />
    <tag k="addr:street" v="Ardec Lane" />
    <tag k="addr:state" v="VT" />
    <tag k="ref:vcgi:esiteid" v="25302" />
  </node>
  <node id="-204" visible="true" lat="44.4219798" lon="-72.84803744">
    <tag k="addr:housenumber" v="88" />
    <tag k="addr:street" v="Ardec Lane" />
    <tag k="addr:state" v="VT" />
    <tag k="ref:vcgi:esiteid" v="25303" />
  </node>
  <node id="-205" visible="true" lat="44.42165058" lon="-72.91391057">
    <tag k="addr:housenumber" v="3447" />
    <tag k="addr:street" v="Stage Road" />
    <tag k="addr:state" v="VT" />
    <tag k="ref:vcgi:esiteid" v="25304" />
  </node>
  <node id="-206" visible="true" lat="44.4221033" lon="-72.84981454">
    <tag k="addr:housenumber" v="27" />
    <tag k="addr:street" v="Nature Trail Road" />
    <tag k="addr:state" v="VT" />
    <tag k="ref:vcgi:esiteid" v="25305" />
  </node>
  <node id="-207" visible="true" lat="44.42184337" lon="-72.84849429">
    <tag k="addr:housenumber" v="62" />
    <tag k="addr:street" v="Ardec Lane" />
    <tag k="addr:state" v="VT" />
    <tag k="ref:vcgi:esiteid" v="25307" />
  </node>
  <node id="-208" visible="true" lat="44.42122324" lon="-72.91404109">
    <tag k="addr:housenumber" v="3445" />
    <tag k="addr:street" v="Stage Road" />
    <tag k="addr:state" v="VT" />
    <tag k="ref:vcgi:esiteid" v="25308" />
  </node>
  <node id="-209" visible="true" lat="44.42137046" lon="-72.89841788">
    <tag k="addr:housenumber" v="3055" />
    <tag k="addr:street" v="Notch Road" />
    <tag k="addr:state" v="VT" />
    <tag k="ref:vcgi:esiteid" v="25309" />
  </node>
  <node id="-210" visible="true" lat="44.421167" lon="-72.89651228">
    <tag k="addr:housenumber" v="3056" />
    <tag k="addr:street" v="Notch Road" />
    <tag k="addr:state" v="VT" />
    <tag k="ref:vcgi:esiteid" v="25310" />
  </node>
  <node id="-211" visible="true" lat="44.4195084" lon="-72.91352188">
    <tag k="addr:housenumber" v="110" />
    <tag k="addr:street" v="Stone Hill Road" />
    <tag k="addr:state" v="VT" />
    <tag k="ref:vcgi:esiteid" v="25312" />
  </node>
  <node id="-212" visible="true" lat="44.42149593" lon="-72.84911289">
    <tag k="addr:housenumber" v="4302" />
    <tag k="addr:street" v="Bolton Valley Access Road" />
    <tag k="addr:state" v="VT" />
    <tag k="ref:vcgi:esiteid" v="25313" />
  </node>
  <node id="-213" visible="true" lat="44.4206091" lon="-72.89649964">
    <tag k="addr:housenumber" v="2992" />
    <tag k="addr:street" v="Notch Road" />
    <tag k="addr:state" v="VT" />
    <tag k="ref:vcgi:esiteid" v="25315" />
  </node>
  <node id="-214" visible="true" lat="44.42048855" lon="-72.89794949">
    <tag k="addr:housenumber" v="40" />
    <tag k="addr:street" v="Duck Brook Circle" />
    <tag k="addr:state" v="VT" />
    <tag k="ref:vcgi:esiteid" v="25316" />
  </node>
  <node id="-215" visible="true" lat="44.42043012" lon="-72.89752916">
    <tag k="addr:housenumber" v="16" />
    <tag k="addr:street" v="Duck Brook Circle" />
    <tag k="addr:state" v="VT" />
    <tag k="ref:vcgi:esiteid" v="25317" />
  </node>
  <node id="-216" visible="true" lat="44.42013025" lon="-72.89829528">
    <tag k="addr:housenumber" v="60" />
    <tag k="addr:street" v="Duck Brook Circle" />
    <tag k="addr:state" v="VT" />
    <tag k="ref:vcgi:esiteid" v="25319" />
  </node>
  <node id="-217" visible="true" lat="44.42012564" lon="-72.85080259">
    <tag k="addr:housenumber" v="4232" />
    <tag k="addr:street" v="Bolton Valley Access Road" />
    <tag k="addr:state" v="VT" />
    <tag k="ref:vcgi:esiteid" v="25320" />
  </node>
  <node id="-218" visible="true" lat="44.42004707" lon="-72.85135589">
    <tag k="addr:housenumber" v="4234" />
    <tag k="addr:street" v="Bolton Valley Access Road" />
    <tag k="addr:state" v="VT" />
    <tag k="ref:vcgi:esiteid" v="25321" />
  </node>
  <node id="-219" visible="true" lat="44.41963198" lon="-72.91507718">
    <tag k="addr:housenumber" v="3279" />
    <tag k="addr:street" v="Stage Road" />
    <tag k="addr:state" v="VT" />
    <tag k="ref:vcgi:esiteid" v="25322" />
  </node>
  <node id="-220" visible="true" lat="44.41964815" lon="-72.89612964">
    <tag k="addr:housenumber" v="2990" />
    <tag k="addr:street" v="Notch Road" />
    <tag k="addr:state" v="VT" />
    <tag k="ref:vcgi:esiteid" v="25323" />
  </node>
  <node id="-221" visible="true" lat="44.41962572" lon="-72.898371">
    <tag k="addr:housenumber" v="72" />
    <tag k="addr:street" v="Duck Brook Circle" />
    <tag k="addr:state" v="VT" />
    <tag k="ref:vcgi:esiteid" v="25324" />
  </node>
  <node id="-222" visible="true" lat="44.41962974" lon="-72.89771993">
    <tag k="addr:housenumber" v="82" />
    <tag k="addr:street" v="Duck Brook Circle" />
    <tag k="addr:state" v="VT" />
    <tag k="ref:vcgi:esiteid" v="25325" />
  </node>
  <node id="-223" visible="true" lat="44.41971266" lon="-72.85142361">
    <tag k="addr:housenumber" v="37" />
    <tag k="addr:street" v="Wentworth Road" />
    <tag k="addr:state" v="VT" />
    <tag k="ref:vcgi:esiteid" v="25326" />
  </node>
  <node id="-224" visible="true" lat="44.4190665" lon="-72.91514295">
    <tag k="addr:housenumber" v="3277" />
    <tag k="addr:street" v="Stage Road" />
    <tag k="addr:state" v="VT" />
    <tag k="ref:vcgi:esiteid" v="25327" />
  </node>
  <node id="-225" visible="true" lat="44.41913542" lon="-72.85199244">
    <tag k="addr:housenumber" v="62" />
    <tag k="addr:street" v="Wentworth Road" />
    <tag k="addr:state" v="VT" />
    <tag k="ref:vcgi:esiteid" v="25328" />
  </node>
  <node id="-226" visible="true" lat="44.41907921" lon="-72.8986851">
    <tag k="addr:housenumber" v="76" />
    <tag k="addr:street" v="Duck Brook Circle" />
    <tag k="addr:state" v="VT" />
    <tag k="ref:vcgi:esiteid" v="25329" />
  </node>
  <node id="-227" visible="true" lat="44.4190649" lon="-72.85259464">
    <tag k="addr:housenumber" v="24" />
    <tag k="addr:street" v="Wentworth Road" />
    <tag k="addr:state" v="VT" />
    <tag k="ref:vcgi:esiteid" v="25330" />
  </node>
  <node id="-228" visible="true" lat="44.41881915" lon="-72.85188754">
    <tag k="addr:housenumber" v="76" />
    <tag k="addr:street" v="Wentworth Road" />
    <tag k="addr:state" v="VT" />
    <tag k="ref:vcgi:esiteid" v="25331" />
  </node>
  <node id="-229" visible="true" lat="44.41887566" lon="-72.85064582">
    <tag k="addr:housenumber" v="127" />
    <tag k="addr:street" v="Wentworth Road" />
    <tag k="addr:state" v="VT" />
    <tag k="ref:vcgi:esiteid" v="25332" />
  </node>
  <node id="-230" visible="true" lat="44.41864771" lon="-72.89691332">
    <tag k="addr:housenumber" v="2844" />
    <tag k="addr:street" v="Notch Road" />
    <tag k="addr:state" v="VT" />
    <tag k="ref:vcgi:esiteid" v="25333" />
  </node>
  <node id="-231" visible="true" lat="44.41869627" lon="-72.85327724">
    <tag k="addr:housenumber" v="17" />
    <tag k="addr:street" v="Thatcher Road" />
    <tag k="addr:state" v="VT" />
    <tag k="ref:vcgi:esiteid" v="25334" />
  </node>
  <node id="-232" visible="true" lat="44.4184597" lon="-72.85147996">
    <tag k="addr:housenumber" v="106" />
    <tag k="addr:street" v="Wentworth Road" />
    <tag k="addr:state" v="VT" />
    <tag k="ref:vcgi:esiteid" v="25335" />
  </node>
  <node id="-233" visible="true" lat="44.41850454" lon="-72.85049504">
    <tag k="addr:housenumber" v="151" />
    <tag k="addr:street" v="Wentworth Road" />
    <tag k="addr:state" v="VT" />
    <tag k="ref:vcgi:esiteid" v="25336" />
  </node>
  <node id="-234" visible="true" lat="44.41812771" lon="-72.8536025">
    <tag k="addr:housenumber" v="4010" />
    <tag k="addr:street" v="Bolton Valley Access Road" />
    <tag k="addr:state" v="VT" />
    <tag k="ref:vcgi:esiteid" v="25337" />
  </node>
  <node id="-235" visible="true" lat="44.41805984" lon="-72.85129399">
    <tag k="addr:housenumber" v="140" />
    <tag k="addr:street" v="Wentworth Road" />
    <tag k="addr:state" v="VT" />
    <tag k="ref:vcgi:esiteid" v="25338" />
  </node>
  <node id="-236" visible="true" lat="44.41824747" lon="-72.85015467">
    <tag k="addr:housenumber" v="169" />
    <tag k="addr:street" v="Wentworth Road" />
    <tag k="addr:state" v="VT" />
    <tag k="ref:vcgi:esiteid" v="25339" />
  </node>
  <node id="-237" visible="true" lat="44.41780333" lon="-72.85099714">
    <tag k="addr:housenumber" v="152" />
    <tag k="addr:street" v="Wentworth Road" />
    <tag k="addr:state" v="VT" />
    <tag k="ref:vcgi:esiteid" v="25340" />
  </node>
  <node id="-238" visible="true" lat="44.41799558" lon="-72.8498649">
    <tag k="addr:housenumber" v="193" />
    <tag k="addr:street" v="Wentworth Road" />
    <tag k="addr:state" v="VT" />
    <tag k="ref:vcgi:esiteid" v="25341" />
  </node>
  <node id="-239" visible="true" lat="44.41794662" lon="-72.84938459">
    <tag k="addr:housenumber" v="207" />
    <tag k="addr:street" v="Wentworth Road" />
    <tag k="addr:state" v="VT" />
    <tag k="ref:vcgi:esiteid" v="25342" />
  </node>
  <node id="-240" visible="true" lat="44.41797469" lon="-72.85478143">
    <tag k="addr:housenumber" v="3969" />
    <tag k="addr:street" v="Bolton Valley Access Road" />
    <tag k="addr:state" v="VT" />
    <tag k="ref:vcgi:esiteid" v="25343" />
  </node>
  <node id="-241" visible="true" lat="44.41810433" lon="-72.85233459">
    <tag k="addr:housenumber" v="67" />
    <tag k="addr:street" v="Thatcher Road" />
    <tag k="addr:state" v="VT" />
    <tag k="ref:vcgi:esiteid" v="25345" />
  </node>
  <node id="-242" visible="true" lat="44.41751101" lon="-72.91581723">
    <tag k="addr:housenumber" v="3133" />
    <tag k="addr:street" v="Stage Road" />
    <tag k="addr:state" v="VT" />
    <tag k="ref:vcgi:esiteid" v="25346" />
  </node>
  <node id="-243" visible="true" lat="44.41783622" lon="-72.85207749">
    <tag k="addr:housenumber" v="91" />
    <tag k="addr:street" v="Thatcher Road" />
    <tag k="addr:state" v="VT" />
    <tag k="ref:vcgi:esiteid" v="25347" />
  </node>
  <node id="-244" visible="true" lat="44.41781651" lon="-72.85299358">
    <tag k="addr:housenumber" v="46" />
    <tag k="addr:street" v="Thatcher Road" />
    <tag k="addr:state" v="VT" />
    <tag k="ref:vcgi:esiteid" v="25348" />
  </node>
  <node id="-245" visible="true" lat="44.41765607" lon="-72.85044088">
    <tag k="addr:housenumber" v="192" />
    <tag k="addr:street" v="Wentworth Road" />
    <tag k="addr:state" v="VT" />
    <tag k="ref:vcgi:esiteid" v="25349" />
  </node>
  <node id="-246" visible="true" lat="44.41722872" lon="-72.91623684">
    <tag k="addr:housenumber" v="3097" />
    <tag k="addr:street" v="Stage Road" />
    <tag k="addr:state" v="VT" />
    <tag k="ref:vcgi:esiteid" v="25350" />
  </node>
  <node id="-247" visible="true" lat="44.41754631" lon="-72.84900022">
    <tag k="addr:housenumber" v="247" />
    <tag k="addr:street" v="Wentworth Road" />
    <tag k="addr:state" v="VT" />
    <tag k="ref:vcgi:esiteid" v="25351" />
  </node>
  <node id="-248" visible="true" lat="44.41735998" lon="-72.89753022">
    <tag k="addr:housenumber" v="2774" />
    <tag k="addr:street" v="Notch Road" />
    <tag k="addr:state" v="VT" />
    <tag k="ref:vcgi:esiteid" v="25352" />
  </node>
  <node id="-249" visible="true" lat="44.41727994" lon="-72.85232144">
    <tag k="addr:housenumber" v="118" />
    <tag k="addr:street" v="Thatcher Road" />
    <tag k="addr:state" v="VT" />
    <tag k="ref:vcgi:esiteid" v="25353" />
  </node>
  <node id="-250" visible="true" lat="44.41721728" lon="-72.84988401">
    <tag k="addr:housenumber" v="218" />
    <tag k="addr:street" v="Wentworth Road" />
    <tag k="addr:state" v="VT" />
    <tag k="ref:vcgi:esiteid" v="25355" />
  </node>
  <node id="-251" visible="true" lat="44.41719226" lon="-72.89846398">
    <tag k="addr:housenumber" v="2743" />
    <tag k="addr:street" v="Notch Road" />
    <tag k="addr:state" v="VT" />
    <tag k="ref:vcgi:esiteid" v="25356" />
  </node>
  <node id="-252" visible="true" lat="44.41740825" lon="-72.85136984">
    <tag k="addr:housenumber" v="155" />
    <tag k="addr:street" v="Thatcher Road" />
    <tag k="addr:state" v="VT" />
    <tag k="ref:vcgi:esiteid" v="25357" />
  </node>
  <node id="-253" visible="true" lat="44.41701215" lon="-72.85228541">
    <tag k="addr:housenumber" v="138" />
    <tag k="addr:street" v="Thatcher Road" />
    <tag k="addr:state" v="VT" />
    <tag k="ref:vcgi:esiteid" v="25358" />
  </node>
  <node id="-254" visible="true" lat="44.4169401" lon="-72.84946528">
    <tag k="addr:housenumber" v="242" />
    <tag k="addr:street" v="Wentworth Road" />
    <tag k="addr:state" v="VT" />
    <tag k="ref:vcgi:esiteid" v="25359" />
  </node>
  <node id="-255" visible="true" lat="44.41700387" lon="-72.84836463">
    <tag k="addr:housenumber" v="277" />
    <tag k="addr:street" v="Wentworth Road" />
    <tag k="addr:state" v="VT" />
    <tag k="ref:vcgi:esiteid" v="25360" />
  </node>
  <node id="-256" visible="true" lat="44.41678083" lon="-72.85194399">
    <tag k="addr:housenumber" v="150" />
    <tag k="addr:street" v="Thatcher Road" />
    <tag k="addr:state" v="VT" />
    <tag k="ref:vcgi:esiteid" v="25361" />
  </node>
  <node id="-257" visible="true" lat="44.41695637" lon="-72.85273186">
    <tag k="addr:housenumber" v="51" />
    <tag k="addr:street" v="Gardiner Lane" />
    <tag k="addr:state" v="VT" />
    <tag k="ref:vcgi:esiteid" v="25362" />
  </node>
  <node id="-258" visible="true" lat="44.41713542" lon="-72.85115218">
    <tag k="addr:housenumber" v="183" />
    <tag k="addr:street" v="Thatcher Road" />
    <tag k="addr:state" v="VT" />
    <tag k="ref:vcgi:esiteid" v="25363" />
  </node>
  <node id="-259" visible="true" lat="44.41654014" lon="-72.84934753">
    <tag k="addr:housenumber" v="296" />
    <tag k="addr:street" v="Wentworth Road" />
    <tag k="addr:state" v="VT" />
    <tag k="ref:vcgi:esiteid" v="25364" />
  </node>
  <node id="-260" visible="true" lat="44.41646" lon="-72.85165999">
    <tag k="addr:housenumber" v="166" />
    <tag k="addr:street" v="Thatcher Road" />
    <tag k="addr:state" v="VT" />
    <tag k="ref:vcgi:esiteid" v="25365" />
  </node>
  <node id="-261" visible="true" lat="44.4167321" lon="-72.90044807">
    <tag k="addr:housenumber" v="2657" />
    <tag k="addr:street" v="Notch Road" />
    <tag k="addr:state" v="VT" />
    <tag k="ref:vcgi:esiteid" v="25366" />
  </node>
  <node id="-262" visible="true" lat="44.41624454" lon="-72.8512573">
    <tag k="addr:housenumber" v="224" />
    <tag k="addr:street" v="Thatcher Road" />
    <tag k="addr:state" v="VT" />
    <tag k="ref:vcgi:esiteid" v="25367" />
  </node>
  <node id="-263" visible="true" lat="44.41627286" lon="-72.85014197">
    <tag k="addr:housenumber" v="233" />
    <tag k="addr:street" v="Thatcher Road" />
    <tag k="addr:state" v="VT" />
    <tag k="ref:vcgi:esiteid" v="25368" />
  </node>
  <node id="-264" visible="true" lat="44.41631102" lon="-72.84822268">
    <tag k="addr:housenumber" v="73" />
    <tag k="addr:street" v="Snow Drift Lane" />
    <tag k="addr:state" v="VT" />
    <tag k="ref:vcgi:esiteid" v="25369" />
  </node>
  <node id="-265" visible="true" lat="44.41582498" lon="-72.85704149">
    <tag k="addr:housenumber" v="17" />
    <tag k="addr:street" v="Bear Run Road" />
    <tag k="addr:state" v="VT" />
    <tag k="ref:vcgi:esiteid" v="25370" />
  </node>
  <node id="-266" visible="true" lat="44.41578764" lon="-72.84793622">
    <tag k="addr:housenumber" v="68" />
    <tag k="addr:street" v="Snow Drift Lane" />
    <tag k="addr:state" v="VT" />
    <tag k="ref:vcgi:esiteid" v="25371" />
  </node>
  <node id="-267" visible="true" lat="44.41583274" lon="-72.85042169">
    <tag k="addr:housenumber" v="408" />
    <tag k="addr:street" v="Wentworth Road" />
    <tag k="addr:state" v="VT" />
    <tag k="ref:vcgi:esiteid" v="25372" />
  </node>
  <node id="-268" visible="true" lat="44.41561892" lon="-72.84860227">
    <tag k="addr:housenumber" v="30" />
    <tag k="addr:street" v="Snow Drift Lane" />
    <tag k="addr:state" v="VT" />
    <tag k="ref:vcgi:esiteid" v="25373" />
  </node>
  <node id="-269" visible="true" lat="44.41527863" lon="-72.85101395">
    <tag k="addr:housenumber" v="270" />
    <tag k="addr:street" v="Thatcher Road" />
    <tag k="addr:state" v="VT" />
    <tag k="ref:vcgi:esiteid" v="25374" />
  </node>
  <node id="-270" visible="true" lat="44.41540425" lon="-72.91988792">
    <tag k="addr:housenumber" v="2878" />
    <tag k="addr:street" v="Stage Road" />
    <tag k="addr:state" v="VT" />
    <tag k="ref:vcgi:esiteid" v="25376" />
  </node>
  <node id="-271" visible="true" lat="44.41521075" lon="-72.85768888">
    <tag k="addr:housenumber" v="71" />
    <tag k="addr:street" v="Bear Run Road" />
    <tag k="addr:state" v="VT" />
    <tag k="ref:vcgi:esiteid" v="25377" />
  </node>
  <node id="-272" visible="true" lat="44.41466318" lon="-72.85811192">
    <tag k="addr:housenumber" v="115" />
    <tag k="addr:street" v="Bear Run Road" />
    <tag k="addr:state" v="VT" />
    <tag k="ref:vcgi:esiteid" v="25378" />
  </node>
  <node id="-273" visible="true" lat="44.41437358" lon="-72.85889756">
    <tag k="addr:housenumber" v="141" />
    <tag k="addr:street" v="Bear Run Road" />
    <tag k="addr:state" v="VT" />
    <tag k="ref:vcgi:esiteid" v="25380" />
  </node>
  <node id="-274" visible="true" lat="44.41395149" lon="-72.89942116">
    <tag k="addr:housenumber" v="2531" />
    <tag k="addr:street" v="Notch Road" />
    <tag k="addr:state" v="VT" />
    <tag k="ref:vcgi:esiteid" v="25381" />
  </node>
  <node id="-275" visible="true" lat="44.41334849" lon="-72.90013655">
    <tag k="addr:housenumber" v="2455" />
    <tag k="addr:street" v="Notch Road" />
    <tag k="addr:state" v="VT" />
    <tag k="ref:vcgi:esiteid" v="25382" />
  </node>
  <node id="-276" visible="true" lat="44.4126645" lon="-72.90056428">
    <tag k="addr:housenumber" v="2453" />
    <tag k="addr:street" v="Notch Road" />
    <tag k="addr:state" v="VT" />
    <tag k="ref:vcgi:esiteid" v="25383" />
  </node>
  <node id="-277" visible="true" lat="44.41000142" lon="-72.86401564">
    <tag k="addr:housenumber" v="3220" />
    <tag k="addr:street" v="Bolton Valley Access Road" />
    <tag k="addr:state" v="VT" />
    <tag k="ref:vcgi:esiteid" v="25385" />
  </node>
  <node id="-278" visible="true" lat="44.40906702" lon="-72.90148988">
    <tag k="addr:housenumber" v="2169" />
    <tag k="addr:street" v="Notch Road" />
    <tag k="addr:state" v="VT" />
    <tag k="ref:vcgi:esiteid" v="25386" />
  </node>
  <node id="-279" visible="true" lat="44.40761113" lon="-72.90274492">
    <tag k="addr:housenumber" v="2103" />
    <tag k="addr:street" v="Notch Road" />
    <tag k="addr:state" v="VT" />
    <tag k="ref:vcgi:esiteid" v="25387" />
  </node>
  <node id="-280" visible="true" lat="44.40650455" lon="-72.90241004">
    <tag k="addr:housenumber" v="1983" />
    <tag k="addr:street" v="Notch Road" />
    <tag k="addr:state" v="VT" />
    <tag k="ref:vcgi:esiteid" v="25388" />
  </node>
  <node id="-281" visible="true" lat="44.40570312" lon="-72.90311831">
    <tag k="addr:housenumber" v="1915" />
    <tag k="addr:street" v="Notch Road" />
    <tag k="addr:state" v="VT" />
    <tag k="ref:vcgi:esiteid" v="25389" />
  </node>
  <node id="-282" visible="true" lat="44.40504454" lon="-72.90328848">
    <tag k="addr:housenumber" v="1873" />
    <tag k="addr:street" v="Notch Road" />
    <tag k="addr:state" v="VT" />
    <tag k="ref:vcgi:esiteid" v="25390" />
  </node>
  <node id="-283" visible="true" lat="44.4031619" lon="-72.90364756">
    <tag k="addr:housenumber" v="1760" />
    <tag k="addr:street" v="Notch Road" />
    <tag k="addr:state" v="VT" />
    <tag k="ref:vcgi:esiteid" v="25391" />
  </node>
  <node id="-284" visible="true" lat="44.40002024" lon="-72.90509819">
    <tag k="addr:housenumber" v="1519" />
    <tag k="addr:street" v="Notch Road" />
    <tag k="addr:state" v="VT" />
    <tag k="ref:vcgi:esiteid" v="25392" />
  </node>
  <node id="-285" visible="true" lat="44.39947312" lon="-72.90380622">
    <tag k="addr:housenumber" v="1514" />
    <tag k="addr:street" v="Notch Road" />
    <tag k="addr:state" v="VT" />
    <tag k="ref:vcgi:esiteid" v="25393" />
  </node>
  <node id="-286" visible="true" lat="44.39860543" lon="-72.90413017">
    <tag k="addr:housenumber" v="1426" />
    <tag k="addr:street" v="Notch Road" />
    <tag k="addr:state" v="VT" />
    <tag k="ref:vcgi:esiteid" v="25394" />
  </node>
  <node id="-287" visible="true" lat="44.39792132" lon="-72.90436348">
    <tag k="addr:housenumber" v="1424" />
    <tag k="addr:street" v="Notch Road" />
    <tag k="addr:state" v="VT" />
    <tag k="ref:vcgi:esiteid" v="25395" />
  </node>
  <node id="-288" visible="true" lat="44.39747988" lon="-72.9050626">
    <tag k="addr:housenumber" v="1339" />
    <tag k="addr:street" v="Notch Road" />
    <tag k="addr:state" v="VT" />
    <tag k="ref:vcgi:esiteid" v="25396" />
  </node>
  <node id="-289" visible="true" lat="44.39654701" lon="-72.905608">
    <tag k="addr:housenumber" v="1257" />
    <tag k="addr:street" v="Notch Road" />
    <tag k="addr:state" v="VT" />
    <tag k="ref:vcgi:esiteid" v="25397" />
  </node>
  <node id="-290" visible="true" lat="44.39399517" lon="-72.87750848">
    <tag k="addr:housenumber" v="1663" />
    <tag k="addr:street" v="Bolton Valley Access Road" />
    <tag k="addr:state" v="VT" />
    <tag k="ref:vcgi:esiteid" v="25398" />
  </node>
  <node id="-291" visible="true" lat="44.38408242" lon="-72.92558185">
    <tag k="addr:housenumber" v="129" />
    <tag k="addr:street" v="Rosewood Lane" />
    <tag k="addr:state" v="VT" />
    <tag k="ref:vcgi:esiteid" v="25399" />
  </node>
  <node id="-292" visible="true" lat="44.38396126" lon="-72.92439299">
    <tag k="addr:housenumber" v="151" />
    <tag k="addr:street" v="Boys Club Road" />
    <tag k="addr:state" v="VT" />
    <tag k="ref:vcgi:esiteid" v="25400" />
  </node>
  <node id="-293" visible="true" lat="44.38383949" lon="-72.92630289">
    <tag k="addr:housenumber" v="103" />
    <tag k="addr:street" v="Rosewood Lane" />
    <tag k="addr:state" v="VT" />
    <tag k="ref:vcgi:esiteid" v="25401" />
  </node>
  <node id="-294" visible="true" lat="44.38360069" lon="-72.92297456">
    <tag k="addr:housenumber" v="181" />
    <tag k="addr:street" v="Boys Club Road" />
    <tag k="addr:state" v="VT" />
    <tag k="ref:vcgi:esiteid" v="25403" />
  </node>
  <node id="-295" visible="true" lat="44.38347796" lon="-72.92504987">
    <tag k="addr:housenumber" v="101" />
    <tag k="addr:street" v="Boys Club Road" />
    <tag k="addr:state" v="VT" />
    <tag k="ref:vcgi:esiteid" v="25404" />
  </node>
  <node id="-296" visible="true" lat="44.38359201" lon="-72.92463304">
    <tag k="addr:housenumber" v="103" />
    <tag k="addr:street" v="Boys Club Road" />
    <tag k="addr:state" v="VT" />
    <tag k="ref:vcgi:esiteid" v="25405" />
  </node>
  <node id="-297" visible="true" lat="44.38277819" lon="-72.91667935">
    <tag k="addr:housenumber" v="189" />
    <tag k="addr:street" v="Notch Road" />
    <tag k="addr:state" v="VT" />
    <tag k="ref:vcgi:esiteid" v="25406" />
  </node>
  <node id="-298" visible="true" lat="44.38249635" lon="-72.93094132">
    <tag k="addr:housenumber" v="5490" />
    <tag k="addr:street" v="Theodore Roosevelt Highway" />
    <tag k="addr:state" v="VT" />
    <tag k="ref:vcgi:esiteid" v="25407" />
  </node>
  <node id="-299" visible="true" lat="44.38250606" lon="-72.91466589">
    <tag k="addr:housenumber" v="53" />
    <tag k="addr:street" v="Meadow Lane" />
    <tag k="addr:state" v="VT" />
    <tag k="ref:vcgi:esiteid" v="25410" />
  </node>
  <node id="-300" visible="true" lat="44.38198473" lon="-72.91323086">
    <tag k="addr:housenumber" v="133" />
    <tag k="addr:street" v="Meadow Lane" />
    <tag k="addr:state" v="VT" />
    <tag k="ref:vcgi:esiteid" v="25411" />
  </node>
  <node id="-301" visible="true" lat="44.38196972" lon="-72.87612902">
    <tag k="addr:housenumber" v="855" />
    <tag k="addr:street" v="Bolton Valley Access Road" />
    <tag k="addr:state" v="VT" />
    <tag k="ref:vcgi:esiteid" v="25412" />
  </node>
  <node id="-302" visible="true" lat="44.38168799" lon="-72.91527002">
    <tag k="addr:housenumber" v="41" />
    <tag k="addr:street" v="Meadow Lane" />
    <tag k="addr:state" v="VT" />
    <tag k="ref:vcgi:esiteid" v="25413" />
  </node>
  <node id="-303" visible="true" lat="44.38166525" lon="-72.91411584">
    <tag k="addr:housenumber" v="70" />
    <tag k="addr:street" v="Meadow Lane" />
    <tag k="addr:state" v="VT" />
    <tag k="ref:vcgi:esiteid" v="25414" />
  </node>
  <node id="-304" visible="true" lat="44.38160886" lon="-72.91038564">
    <tag k="addr:housenumber" v="269" />
    <tag k="addr:street" v="Mountain View Drive" />
    <tag k="addr:state" v="VT" />
    <tag k="ref:vcgi:esiteid" v="25415" />
  </node>
  <node id="-305" visible="true" lat="44.38137958" lon="-72.91586506">
    <tag k="addr:housenumber" v="29" />
    <tag k="addr:street" v="Mountain View Drive" />
    <tag k="addr:state" v="VT" />
    <tag k="ref:vcgi:esiteid" v="25416" />
  </node>
  <node id="-306" visible="true" lat="44.38104723" lon="-72.91391754">
    <tag k="addr:housenumber" v="123" />
    <tag k="addr:street" v="Mountain View Drive" />
    <tag k="addr:state" v="VT" />
    <tag k="ref:vcgi:esiteid" v="25417" />
  </node>
  <node id="-307" visible="true" lat="44.38111192" lon="-72.90326236">
    <tag k="addr:housenumber" v="695" />
    <tag k="addr:street" v="Mountain View Drive" />
    <tag k="addr:state" v="VT" />
    <tag k="ref:vcgi:esiteid" v="25418" />
  </node>
  <node id="-308" visible="true" lat="44.38092043" lon="-72.91333768">
    <tag k="addr:housenumber" v="155" />
    <tag k="addr:street" v="Mountain View Drive" />
    <tag k="addr:state" v="VT" />
    <tag k="ref:vcgi:esiteid" v="25419" />
  </node>
  <node id="-309" visible="true" lat="44.38114766" lon="-72.91286692">
    <tag k="addr:housenumber" v="191" />
    <tag k="addr:street" v="Mountain View Drive" />
    <tag k="addr:state" v="VT" />
    <tag k="ref:vcgi:esiteid" v="25420" />
  </node>
  <node id="-310" visible="true" lat="44.38079938" lon="-72.91171454">
    <tag k="addr:housenumber" v="211" />
    <tag k="addr:street" v="Mountain View Drive" />
    <tag k="addr:state" v="VT" />
    <tag k="ref:vcgi:esiteid" v="25421" />
  </node>
  <node id="-311" visible="true" lat="44.38057971" lon="-72.90751586">
    <tag k="addr:housenumber" v="450" />
    <tag k="addr:street" v="Mountain View Drive" />
    <tag k="addr:state" v="VT" />
    <tag k="ref:vcgi:esiteid" v="25422" />
  </node>
  <node id="-312" visible="true" lat="44.38062231" lon="-72.93401058">
    <tag k="addr:housenumber" v="243" />
    <tag k="addr:street" v="Duxbury Road" />
    <tag k="addr:state" v="VT" />
    <tag k="ref:vcgi:esiteid" v="25423" />
  </node>
  <node id="-313" visible="true" lat="44.38044019" lon="-72.90589609">
    <tag k="addr:housenumber" v="548" />
    <tag k="addr:street" v="Mountain View Drive" />
    <tag k="addr:state" v="VT" />
    <tag k="ref:vcgi:esiteid" v="25424" />
  </node>
  <node id="-314" visible="true" lat="44.38050844" lon="-72.87548062">
    <tag k="addr:housenumber" v="628" />
    <tag k="addr:street" v="Bolton Valley Access Road" />
    <tag k="addr:state" v="VT" />
    <tag k="ref:vcgi:esiteid" v="25425" />
  </node>
  <node id="-315" visible="true" lat="44.38018032" lon="-72.93403608">
    <tag k="addr:housenumber" v="250" />
    <tag k="addr:street" v="Duxbury Road" />
    <tag k="addr:state" v="VT" />
    <tag k="ref:vcgi:esiteid" v="25426" />
  </node>
  <node id="-316" visible="true" lat="44.3801912" lon="-72.92664282">
    <tag k="addr:housenumber" v="647" />
    <tag k="addr:street" v="Duxbury Road" />
    <tag k="addr:state" v="VT" />
    <tag k="ref:vcgi:esiteid" v="25427" />
  </node>
  <node id="-317" visible="true" lat="44.3801079" lon="-72.87598416">
    <tag k="addr:housenumber" v="612" />
    <tag k="addr:street" v="Bolton Valley Access Road" />
    <tag k="addr:state" v="VT" />
    <tag k="ref:vcgi:esiteid" v="25428" />
  </node>
  <node id="-318" visible="true" lat="44.37985848" lon="-72.93039514">
    <tag k="addr:housenumber" v="455" />
    <tag k="addr:street" v="Duxbury Road" />
    <tag k="addr:state" v="VT" />
    <tag k="ref:vcgi:esiteid" v="25429" />
  </node>
  <node id="-319" visible="true" lat="44.37983857" lon="-72.87613206">
    <tag k="addr:housenumber" v="588" />
    <tag k="addr:street" v="Bolton Valley Access Road" />
    <tag k="addr:state" v="VT" />
    <tag k="ref:vcgi:esiteid" v="25430" />
  </node>
  <node id="-320" visible="true" lat="44.37939746" lon="-72.92876987">
    <tag k="addr:housenumber" v="66" />
    <tag k="addr:street" v="Grouse Hill" />
    <tag k="addr:state" v="VT" />
    <tag k="ref:vcgi:esiteid" v="25431" />
  </node>
  <node id="-321" visible="true" lat="44.37926335" lon="-72.92437021">
    <tag k="addr:housenumber" v="761" />
    <tag k="addr:street" v="Duxbury Road" />
    <tag k="addr:state" v="VT" />
    <tag k="ref:vcgi:esiteid" v="25432" />
  </node>
  <node id="-322" visible="true" lat="44.37905702" lon="-72.93334248">
    <tag k="addr:housenumber" v="100" />
    <tag k="addr:street" v="Jack Jump Lane" />
    <tag k="addr:state" v="VT" />
    <tag k="ref:vcgi:esiteid" v="25433" />
  </node>
  <node id="-323" visible="true" lat="44.37915048" lon="-72.92214987">
    <tag k="addr:housenumber" v="895" />
    <tag k="addr:street" v="Duxbury Road" />
    <tag k="addr:state" v="VT" />
    <tag k="ref:vcgi:esiteid" v="25434" />
  </node>
  <node id="-324" visible="true" lat="44.378759" lon="-72.92332634">
    <tag k="addr:housenumber" v="822" />
    <tag k="addr:street" v="Duxbury Road" />
    <tag k="addr:state" v="VT" />
    <tag k="ref:vcgi:esiteid" v="25436" />
  </node>
  <node id="-325" visible="true" lat="44.37862938" lon="-72.93043937">
    <tag k="addr:housenumber" v="456" />
    <tag k="addr:street" v="Duxbury Road" />
    <tag k="addr:state" v="VT" />
    <tag k="ref:vcgi:esiteid" v="25437" />
  </node>
  <node id="-326" visible="true" lat="44.37844851" lon="-72.91840359">
    <tag k="addr:housenumber" v="1068" />
    <tag k="addr:street" v="Duxbury Road" />
    <tag k="addr:state" v="VT" />
    <tag k="ref:vcgi:esiteid" v="25438" />
  </node>
  <node id="-327" visible="true" lat="44.37797167" lon="-72.91773984">
    <tag k="addr:housenumber" v="1184" />
    <tag k="addr:street" v="Duxbury Road" />
    <tag k="addr:state" v="VT" />
    <tag k="ref:vcgi:esiteid" v="25439" />
  </node>
  <node id="-328" visible="true" lat="44.37800982" lon="-72.87460324">
    <tag k="addr:housenumber" v="428" />
    <tag k="addr:street" v="Bolton Valley Access Road" />
    <tag k="addr:state" v="VT" />
    <tag k="ref:vcgi:esiteid" v="25440" />
  </node>
  <node id="-329" visible="true" lat="44.37783386" lon="-72.87519726">
    <tag k="addr:housenumber" v="439" />
    <tag k="addr:street" v="Bolton Valley Access Road" />
    <tag k="addr:state" v="VT" />
    <tag k="ref:vcgi:esiteid" v="25441" />
  </node>
  <node id="-330" visible="true" lat="44.37752154" lon="-72.87433621">
    <tag k="addr:housenumber" v="404" />
    <tag k="addr:street" v="Bolton Valley Access Road" />
    <tag k="addr:state" v="VT" />
    <tag k="ref:vcgi:esiteid" v="25442" />
  </node>
  <node id="-331" visible="true" lat="44.377547" lon="-72.87490327">
    <tag k="addr:housenumber" v="373" />
    <tag k="addr:street" v="Bolton Valley Access Road" />
    <tag k="addr:state" v="VT" />
    <tag k="ref:vcgi:esiteid" v="25443" />
  </node>
  <node id="-332" visible="true" lat="44.37685778" lon="-72.87400052">
    <tag k="addr:housenumber" v="36" />
    <tag k="addr:street" v="Hummingbird Lane" />
    <tag k="addr:state" v="VT" />
    <tag k="ref:vcgi:esiteid" v="25444" />
  </node>
  <node id="-333" visible="true" lat="44.37656032" lon="-72.87414513">
    <tag k="addr:housenumber" v="24" />
    <tag k="addr:street" v="Hummingbird Lane" />
    <tag k="addr:state" v="VT" />
    <tag k="ref:vcgi:esiteid" v="25445" />
  </node>
  <node id="-334" visible="true" lat="44.37643509" lon="-72.87436691">
    <tag k="addr:housenumber" v="14" />
    <tag k="addr:street" v="Hummingbird Lane" />
    <tag k="addr:state" v="VT" />
    <tag k="ref:vcgi:esiteid" v="25446" />
  </node>
  <node id="-335" visible="true" lat="44.37639291" lon="-72.89420162">
    <tag k="addr:housenumber" v="3608" />
    <tag k="addr:street" v="Theodore Roosevelt Highway" />
    <tag k="addr:state" v="VT" />
    <tag k="ref:vcgi:esiteid" v="25447" />
  </node>
  <node id="-336" visible="true" lat="44.37616834" lon="-72.89368608">
    <tag k="addr:housenumber" v="3582" />
    <tag k="addr:street" v="Theodore Roosevelt Highway" />
    <tag k="addr:state" v="VT" />
    <tag k="ref:vcgi:esiteid" v="25448" />
  </node>
  <node id="-337" visible="true" lat="44.37640675" lon="-72.8933536">
    <tag k="addr:housenumber" v="3566" />
    <tag k="addr:street" v="Theodore Roosevelt Highway" />
    <tag k="addr:state" v="VT" />
    <tag k="ref:vcgi:esiteid" v="25449" />
  </node>
  <node id="-338" visible="true" lat="44.37608033" lon="-72.89292702">
    <tag k="addr:housenumber" v="3530" />
    <tag k="addr:street" v="Theodore Roosevelt Highway" />
    <tag k="addr:state" v="VT" />
    <tag k="ref:vcgi:esiteid" v="25450" />
  </node>
  <node id="-339" visible="true" lat="44.37592512" lon="-72.89465796">
    <tag k="addr:housenumber" v="3623" />
    <tag k="addr:street" v="Theodore Roosevelt Highway" />
    <tag k="addr:state" v="VT" />
    <tag k="ref:vcgi:esiteid" v="25451" />
  </node>
  <node id="-340" visible="true" lat="44.3761086" lon="-72.87482488">
    <tag k="addr:housenumber" v="284" />
    <tag k="addr:street" v="Bolton Valley Access Road" />
    <tag k="addr:state" v="VT" />
    <tag k="ref:vcgi:esiteid" v="25452" />
  </node>
  <node id="-341" visible="true" lat="44.37594673" lon="-72.89226025">
    <tag k="addr:housenumber" v="3504" />
    <tag k="addr:street" v="Theodore Roosevelt Highway" />
    <tag k="addr:state" v="VT" />
    <tag k="ref:vcgi:esiteid" v="25453" />
  </node>
  <node id="-342" visible="true" lat="44.37572863" lon="-72.89340207">
    <tag k="addr:housenumber" v="3553" />
    <tag k="addr:street" v="Theodore Roosevelt Highway" />
    <tag k="addr:state" v="VT" />
    <tag k="ref:vcgi:esiteid" v="25455" />
  </node>
  <node id="-343" visible="true" lat="44.37580437" lon="-72.89116731">
    <tag k="addr:housenumber" v="3448" />
    <tag k="addr:street" v="Theodore Roosevelt Highway" />
    <tag k="addr:state" v="VT" />
    <tag k="ref:vcgi:esiteid" v="25456" />
  </node>
  <node id="-344" visible="true" lat="44.37562139" lon="-72.89297011">
    <tag k="addr:housenumber" v="3529" />
    <tag k="addr:street" v="Theodore Roosevelt Highway" />
    <tag k="addr:state" v="VT" />
    <tag k="ref:vcgi:esiteid" v="25457" />
  </node>
  <node id="-345" visible="true" lat="44.37546792" lon="-72.89236119">
    <tag k="addr:housenumber" v="3497" />
    <tag k="addr:street" v="Theodore Roosevelt Highway" />
    <tag k="addr:state" v="VT" />
    <tag k="ref:vcgi:esiteid" v="25459" />
  </node>
  <node id="-346" visible="true" lat="44.37531741" lon="-72.89361608">
    <tag k="addr:housenumber" v="3571" />
    <tag k="addr:street" v="Theodore Roosevelt Highway" />
    <tag k="addr:state" v="VT" />
    <tag k="ref:vcgi:esiteid" v="25460" />
  </node>
  <node id="-347" visible="true" lat="44.37529757" lon="-72.89160916">
    <tag k="addr:housenumber" v="3461" />
    <tag k="addr:street" v="Theodore Roosevelt Highway" />
    <tag k="addr:state" v="VT" />
    <tag k="ref:vcgi:esiteid" v="25461" />
  </node>
  <node id="-348" visible="true" lat="44.37506869" lon="-72.87831876">
    <tag k="addr:housenumber" v="93" />
    <tag k="addr:street" v="Bolton Valley Access Road" />
    <tag k="addr:state" v="VT" />
    <tag k="ref:vcgi:esiteid" v="25462" />
  </node>
  <node id="-349" visible="true" lat="44.37482073" lon="-72.8864288">
    <tag k="addr:housenumber" v="3206" />
    <tag k="addr:street" v="Theodore Roosevelt Highway" />
    <tag k="addr:state" v="VT" />
    <tag k="ref:vcgi:esiteid" v="25463" />
  </node>
  <node id="-350" visible="true" lat="44.37473681" lon="-72.87725064">
    <tag k="addr:housenumber" v="142" />
    <tag k="addr:street" v="Bolton Valley Access Road" />
    <tag k="addr:state" v="VT" />
    <tag k="ref:vcgi:esiteid" v="25464" />
  </node>
  <node id="-351" visible="true" lat="44.37458041" lon="-72.87790677">
    <tag k="addr:housenumber" v="114" />
    <tag k="addr:street" v="Bolton Valley Access Road" />
    <tag k="addr:state" v="VT" />
    <tag k="ref:vcgi:esiteid" v="25465" />
  </node>
  <node id="-352" visible="true" lat="44.37448941" lon="-72.88672053">
    <tag k="addr:housenumber" v="3208" />
    <tag k="addr:street" v="Theodore Roosevelt Highway" />
    <tag k="addr:state" v="VT" />
    <tag k="ref:vcgi:esiteid" v="25466" />
  </node>
  <node id="-353" visible="true" lat="44.37443312" lon="-72.87889285">
    <tag k="addr:housenumber" v="93" />
    <tag k="addr:street" v="Curtis Lane" />
    <tag k="addr:state" v="VT" />
    <tag k="ref:vcgi:esiteid" v="25467" />
  </node>
  <node id="-354" visible="true" lat="44.37424551" lon="-72.87908894">
    <tag k="addr:housenumber" v="73" />
    <tag k="addr:street" v="Curtis Lane" />
    <tag k="addr:state" v="VT" />
    <tag k="ref:vcgi:esiteid" v="25468" />
  </node>
  <node id="-355" visible="true" lat="44.37402632" lon="-72.88761016">
    <tag k="addr:housenumber" v="3251" />
    <tag k="addr:street" v="Theodore Roosevelt Highway" />
    <tag k="addr:state" v="VT" />
    <tag k="ref:vcgi:esiteid" v="25470" />
  </node>
  <node id="-356" visible="true" lat="44.37415316" lon="-72.87841794">
    <tag k="addr:housenumber" v="62" />
    <tag k="addr:street" v="Bolton Valley Access Road" />
    <tag k="addr:state" v="VT" />
    <tag k="ref:vcgi:esiteid" v="25471" />
  </node>
  <node id="-357" visible="true" lat="44.37397135" lon="-72.88707246">
    <tag k="addr:housenumber" v="3223" />
    <tag k="addr:street" v="Theodore Roosevelt Highway" />
    <tag k="addr:state" v="VT" />
    <tag k="ref:vcgi:esiteid" v="25472" />
  </node>
  <node id="-358" visible="true" lat="44.37403872" lon="-72.87892148">
    <tag k="addr:housenumber" v="66" />
    <tag k="addr:street" v="Curtis Lane" />
    <tag k="addr:state" v="VT" />
    <tag k="ref:vcgi:esiteid" v="25474" />
  </node>
  <node id="-359" visible="true" lat="44.37389758" lon="-72.88678738">
    <tag k="addr:housenumber" v="3207" />
    <tag k="addr:street" v="Theodore Roosevelt Highway" />
    <tag k="addr:state" v="VT" />
    <tag k="ref:vcgi:esiteid" v="25476" />
  </node>
  <node id="-360" visible="true" lat="44.37381538" lon="-72.88639374">
    <tag k="addr:housenumber" v="3209" />
    <tag k="addr:street" v="Theodore Roosevelt Highway" />
    <tag k="addr:state" v="VT" />
    <tag k="ref:vcgi:esiteid" v="25477" />
  </node>
  <node id="-361" visible="true" lat="44.37381365" lon="-72.8791351">
    <tag k="addr:housenumber" v="46" />
    <tag k="addr:street" v="Curtis Lane" />
    <tag k="addr:state" v="VT" />
    <tag k="ref:vcgi:esiteid" v="25478" />
  </node>
  <node id="-362" visible="true" lat="44.37393169" lon="-72.87686153">
    <tag k="addr:housenumber" v="2712" />
    <tag k="addr:street" v="Theodore Roosevelt Highway" />
    <tag k="addr:state" v="VT" />
    <tag k="ref:vcgi:esiteid" v="25479" />
  </node>
  <node id="-363" visible="true" lat="44.3735709" lon="-72.88388087">
    <tag k="addr:housenumber" v="3064" />
    <tag k="addr:street" v="Theodore Roosevelt Highway" />
    <tag k="addr:state" v="VT" />
    <tag k="ref:vcgi:esiteid" v="25481" />
  </node>
  <node id="-364" visible="true" lat="44.37345575" lon="-72.8850508">
    <tag k="addr:housenumber" v="3107" />
    <tag k="addr:street" v="Theodore Roosevelt Highway" />
    <tag k="addr:state" v="VT" />
    <tag k="ref:vcgi:esiteid" v="25482" />
  </node>
  <node id="-365" visible="true" lat="44.3734396" lon="-72.9069028">
    <tag k="addr:housenumber" v="14" />
    <tag k="addr:street" v="Honey Hollow Road" />
    <tag k="addr:state" v="VT" />
    <tag k="ref:vcgi:esiteid" v="25484" />
  </node>
  <node id="-366" visible="true" lat="44.37334826" lon="-72.88298032">
    <tag k="addr:housenumber" v="3012" />
    <tag k="addr:street" v="Theodore Roosevelt Highway" />
    <tag k="addr:state" v="VT" />
    <tag k="ref:vcgi:esiteid" v="25485" />
  </node>
  <node id="-367" visible="true" lat="44.37328598" lon="-72.88419631">
    <tag k="addr:housenumber" v="3045" />
    <tag k="addr:street" v="Theodore Roosevelt Highway" />
    <tag k="addr:state" v="VT" />
    <tag k="ref:vcgi:esiteid" v="25486" />
  </node>
  <node id="-368" visible="true" lat="44.37313082" lon="-72.90596768">
    <tag k="addr:housenumber" v="1814" />
    <tag k="addr:street" v="Duxbury Road" />
    <tag k="addr:state" v="VT" />
    <tag k="ref:vcgi:esiteid" v="25488" />
  </node>
  <node id="-369" visible="true" lat="44.37323763" lon="-72.87375638">
    <tag k="addr:housenumber" v="2680" />
    <tag k="addr:street" v="Theodore Roosevelt Highway" />
    <tag k="addr:state" v="VT" />
    <tag k="ref:vcgi:esiteid" v="25489" />
  </node>
  <node id="-370" visible="true" lat="44.3731003" lon="-72.88357541">
    <tag k="addr:housenumber" v="3033" />
    <tag k="addr:street" v="Theodore Roosevelt Highway" />
    <tag k="addr:state" v="VT" />
    <tag k="ref:vcgi:esiteid" v="25490" />
  </node>
  <node id="-371" visible="true" lat="44.37312907" lon="-72.88219377">
    <tag k="addr:housenumber" v="2972" />
    <tag k="addr:street" v="Theodore Roosevelt Highway" />
    <tag k="addr:state" v="VT" />
    <tag k="ref:vcgi:esiteid" v="25491" />
  </node>
  <node id="-372" visible="true" lat="44.37301579" lon="-72.88316509">
    <tag k="addr:housenumber" v="3017" />
    <tag k="addr:street" v="Theodore Roosevelt Highway" />
    <tag k="addr:state" v="VT" />
    <tag k="ref:vcgi:esiteid" v="25492" />
  </node>
  <node id="-373" visible="true" lat="44.37288314" lon="-72.86743787">
    <tag k="addr:housenumber" v="214" />
    <tag k="addr:street" v="Green Mountain Road" />
    <tag k="addr:state" v="VT" />
    <tag k="ref:vcgi:esiteid" v="25493" />
  </node>
  <node id="-374" visible="true" lat="44.37262437" lon="-72.86667203">
    <tag k="addr:housenumber" v="216" />
    <tag k="addr:street" v="Green Mountain Road" />
    <tag k="addr:state" v="VT" />
    <tag k="ref:vcgi:esiteid" v="25494" />
  </node>
  <node id="-375" visible="true" lat="44.3726308" lon="-72.86953685">
    <tag k="addr:housenumber" v="143" />
    <tag k="addr:street" v="Green Mountain Road" />
    <tag k="addr:state" v="VT" />
    <tag k="ref:vcgi:esiteid" v="25495" />
  </node>
  <node id="-376" visible="true" lat="44.37248232" lon="-72.86799452">
    <tag k="addr:housenumber" v="121" />
    <tag k="addr:street" v="West Street" />
    <tag k="addr:state" v="VT" />
    <tag k="ref:vcgi:esiteid" v="25496" />
  </node>
  <node id="-377" visible="true" lat="44.37225489" lon="-72.88222873">
    <tag k="addr:housenumber" v="3047" />
    <tag k="addr:street" v="Theodore Roosevelt Highway" />
    <tag k="addr:state" v="VT" />
    <tag k="ref:vcgi:esiteid" v="25497" />
  </node>
  <node id="-378" visible="true" lat="44.37215356" lon="-72.90331321">
    <tag k="addr:housenumber" v="1954" />
    <tag k="addr:street" v="Duxbury Road" />
    <tag k="addr:state" v="VT" />
    <tag k="ref:vcgi:esiteid" v="25498" />
  </node>
  <node id="-379" visible="true" lat="44.37238166" lon="-72.86764868">
    <tag k="addr:housenumber" v="123" />
    <tag k="addr:street" v="West Street" />
    <tag k="addr:state" v="VT" />
    <tag k="ref:vcgi:esiteid" v="25499" />
  </node>
  <node id="-380" visible="true" lat="44.37226488" lon="-72.86740872">
    <tag k="addr:housenumber" v="131" />
    <tag k="addr:street" v="West Street" />
    <tag k="addr:state" v="VT" />
    <tag k="ref:vcgi:esiteid" v="25500" />
  </node>
  <node id="-381" visible="true" lat="44.37231838" lon="-72.86803137">
    <tag k="addr:housenumber" v="119" />
    <tag k="addr:street" v="West Street" />
    <tag k="addr:state" v="VT" />
    <tag k="ref:vcgi:esiteid" v="25501" />
  </node>
  <node id="-382" visible="true" lat="44.37220766" lon="-72.87082669">
    <tag k="addr:housenumber" v="131" />
    <tag k="addr:street" v="Green Mountain Road" />
    <tag k="addr:state" v="VT" />
    <tag k="ref:vcgi:esiteid" v="25502" />
  </node>
  <node id="-383" visible="true" lat="44.37197948" lon="-72.90295498">
    <tag k="addr:housenumber" v="1974" />
    <tag k="addr:street" v="Duxbury Road" />
    <tag k="addr:state" v="VT" />
    <tag k="ref:vcgi:esiteid" v="25503" />
  </node>
  <node id="-384" visible="true" lat="44.37220385" lon="-72.86714932">
    <tag k="addr:housenumber" v="145" />
    <tag k="addr:street" v="West Street" />
    <tag k="addr:state" v="VT" />
    <tag k="ref:vcgi:esiteid" v="25504" />
  </node>
  <node id="-385" visible="true" lat="44.37212374" lon="-72.86685941">
    <tag k="addr:housenumber" v="159" />
    <tag k="addr:street" v="West Street" />
    <tag k="addr:state" v="VT" />
    <tag k="ref:vcgi:esiteid" v="25505" />
  </node>
  <node id="-386" visible="true" lat="44.37211625" lon="-72.86806277">
    <tag k="addr:housenumber" v="113" />
    <tag k="addr:street" v="West Street" />
    <tag k="addr:state" v="VT" />
    <tag k="ref:vcgi:esiteid" v="25506" />
  </node>
  <node id="-387" visible="true" lat="44.37187315" lon="-72.86981137">
    <tag k="addr:housenumber" v="129" />
    <tag k="addr:street" v="Green Mountain Road" />
    <tag k="addr:state" v="VT" />
    <tag k="ref:vcgi:esiteid" v="25507" />
  </node>
  <node id="-388" visible="true" lat="44.37199247" lon="-72.8677311">
    <tag k="addr:housenumber" v="114" />
    <tag k="addr:street" v="West Street" />
    <tag k="addr:state" v="VT" />
    <tag k="ref:vcgi:esiteid" v="25508" />
  </node>
  <node id="-389" visible="true" lat="44.37202456" lon="-72.86658475">
    <tag k="addr:housenumber" v="175" />
    <tag k="addr:street" v="West Street" />
    <tag k="addr:state" v="VT" />
    <tag k="ref:vcgi:esiteid" v="25509" />
  </node>
  <node id="-390" visible="true" lat="44.37191771" lon="-72.86750309">
    <tag k="addr:housenumber" v="138" />
    <tag k="addr:street" v="West Street" />
    <tag k="addr:state" v="VT" />
    <tag k="ref:vcgi:esiteid" v="25510" />
  </node>
  <node id="-391" visible="true" lat="44.37184293" lon="-72.86724356">
    <tag k="addr:housenumber" v="152" />
    <tag k="addr:street" v="West Street" />
    <tag k="addr:state" v="VT" />
    <tag k="ref:vcgi:esiteid" v="25511" />
  </node>
  <node id="-392" visible="true" lat="44.37198144" lon="-72.86634076">
    <tag k="addr:housenumber" v="189" />
    <tag k="addr:street" v="West Street" />
    <tag k="addr:state" v="VT" />
    <tag k="ref:vcgi:esiteid" v="25512" />
  </node>
  <node id="-393" visible="true" lat="44.37194406" lon="-72.8681565">
    <tag k="addr:housenumber" v="97" />
    <tag k="addr:street" v="West Street" />
    <tag k="addr:state" v="VT" />
    <tag k="ref:vcgi:esiteid" v="25513" />
  </node>
  <node id="-394" visible="true" lat="44.37177613" lon="-72.86695701">
    <tag k="addr:housenumber" v="166" />
    <tag k="addr:street" v="West Street" />
    <tag k="addr:state" v="VT" />
    <tag k="ref:vcgi:esiteid" v="25514" />
  </node>
  <node id="-395" visible="true" lat="44.37169876" lon="-72.86670231">
    <tag k="addr:housenumber" v="182" />
    <tag k="addr:street" v="West Street" />
    <tag k="addr:state" v="VT" />
    <tag k="ref:vcgi:esiteid" v="25515" />
  </node>
  <node id="-396" visible="true" lat="44.37169766" lon="-72.87127562">
    <tag k="addr:housenumber" v="59" />
    <tag k="addr:street" v="Green Mountain Road" />
    <tag k="addr:state" v="VT" />
    <tag k="ref:vcgi:esiteid" v="25516" />
  </node>
  <node id="-397" visible="true" lat="44.37171608" lon="-72.86823714">
    <tag k="addr:housenumber" v="85" />
    <tag k="addr:street" v="West Street" />
    <tag k="addr:state" v="VT" />
    <tag k="ref:vcgi:esiteid" v="25517" />
  </node>
  <node id="-398" visible="true" lat="44.37158968" lon="-72.90055081">
    <tag k="addr:housenumber" v="2090" />
    <tag k="addr:street" v="Duxbury Road" />
    <tag k="addr:state" v="VT" />
    <tag k="ref:vcgi:esiteid" v="25518" />
  </node>
  <node id="-399" visible="true" lat="44.37165072" lon="-72.86770627">
    <tag k="addr:housenumber" v="66" />
    <tag k="addr:street" v="West Street" />
    <tag k="addr:state" v="VT" />
    <tag k="ref:vcgi:esiteid" v="25519" />
  </node>
  <node id="-400" visible="true" lat="44.37167569" lon="-72.86553778">
    <tag k="addr:housenumber" v="538" />
    <tag k="addr:street" v="East Street" />
    <tag k="addr:state" v="VT" />
    <tag k="ref:vcgi:esiteid" v="25520" />
  </node>
  <node id="-401" visible="true" lat="44.37151358" lon="-72.86533741">
    <tag k="addr:housenumber" v="522" />
    <tag k="addr:street" v="East Street" />
    <tag k="addr:state" v="VT" />
    <tag k="ref:vcgi:esiteid" v="25521" />
  </node>
  <node id="-402" visible="true" lat="44.37161757" lon="-72.86741883">
    <tag k="addr:housenumber" v="50" />
    <tag k="addr:street" v="West Street" />
    <tag k="addr:state" v="VT" />
    <tag k="ref:vcgi:esiteid" v="25522" />
  </node>
  <node id="-403" visible="true" lat="44.37154703" lon="-72.86716285">
    <tag k="addr:housenumber" v="36" />
    <tag k="addr:street" v="West Street" />
    <tag k="addr:state" v="VT" />
    <tag k="ref:vcgi:esiteid" v="25523" />
  </node>
  <node id="-404" visible="true" lat="44.37150508" lon="-72.86839866">
    <tag k="addr:housenumber" v="79" />
    <tag k="addr:street" v="West Street" />
    <tag k="addr:state" v="VT" />
    <tag k="ref:vcgi:esiteid" v="25524" />
  </node>
  <node id="-405" visible="true" lat="44.37144877" lon="-72.86505753">
    <tag k="addr:housenumber" v="506" />
    <tag k="addr:street" v="East Street" />
    <tag k="addr:state" v="VT" />
    <tag k="ref:vcgi:esiteid" v="25525" />
  </node>
  <node id="-406" visible="true" lat="44.3715065" lon="-72.86686826">
    <tag k="addr:housenumber" v="22" />
    <tag k="addr:street" v="West Street" />
    <tag k="addr:state" v="VT" />
    <tag k="ref:vcgi:esiteid" v="25526" />
  </node>
  <node id="-407" visible="true" lat="44.37135752" lon="-72.86787974">
    <tag k="addr:housenumber" v="65" />
    <tag k="addr:street" v="West Street" />
    <tag k="addr:state" v="VT" />
    <tag k="ref:vcgi:esiteid" v="25527" />
  </node>
  <node id="-408" visible="true" lat="44.37142875" lon="-72.86467829">
    <tag k="addr:housenumber" v="492" />
    <tag k="addr:street" v="East Street" />
    <tag k="addr:state" v="VT" />
    <tag k="ref:vcgi:esiteid" v="25528" />
  </node>
  <node id="-409" visible="true" lat="44.371287" lon="-72.8675483">
    <tag k="addr:housenumber" v="49" />
    <tag k="addr:street" v="West Street" />
    <tag k="addr:state" v="VT" />
    <tag k="ref:vcgi:esiteid" v="25529" />
  </node>
  <node id="-410" visible="true" lat="44.37141001" lon="-72.86661934">
    <tag k="addr:housenumber" v="6" />
    <tag k="addr:street" v="West Street" />
    <tag k="addr:state" v="VT" />
    <tag k="ref:vcgi:esiteid" v="25530" />
  </node>
  <node id="-411" visible="true" lat="44.37136132" lon="-72.86437663">
    <tag k="addr:housenumber" v="476" />
    <tag k="addr:street" v="East Street" />
    <tag k="addr:state" v="VT" />
    <tag k="ref:vcgi:esiteid" v="25531" />
  </node>
  <node id="-412" visible="true" lat="44.37125599" lon="-72.86563455">
    <tag k="addr:housenumber" v="529" />
    <tag k="addr:street" v="East Street" />
    <tag k="addr:state" v="VT" />
    <tag k="ref:vcgi:esiteid" v="25532" />
  </node>
  <node id="-413" visible="true" lat="44.37126457" lon="-72.86410384">
    <tag k="addr:housenumber" v="460" />
    <tag k="addr:street" v="East Street" />
    <tag k="addr:state" v="VT" />
    <tag k="ref:vcgi:esiteid" v="25533" />
  </node>
  <node id="-414" visible="true" lat="44.37115309" lon="-72.86534552">
    <tag k="addr:housenumber" v="513" />
    <tag k="addr:street" v="East Street" />
    <tag k="addr:state" v="VT" />
    <tag k="ref:vcgi:esiteid" v="25534" />
  </node>
  <node id="-415" visible="true" lat="44.37119423" lon="-72.86730596">
    <tag k="addr:housenumber" v="33" />
    <tag k="addr:street" v="West Street" />
    <tag k="addr:state" v="VT" />
    <tag k="ref:vcgi:esiteid" v="25535" />
  </node>
  <node id="-416" visible="true" lat="44.37119057" lon="-72.86379644">
    <tag k="addr:housenumber" v="446" />
    <tag k="addr:street" v="East Street" />
    <tag k="addr:state" v="VT" />
    <tag k="ref:vcgi:esiteid" v="25536" />
  </node>
  <node id="-417" visible="true" lat="44.37112226" lon="-72.86705431">
    <tag k="addr:housenumber" v="19" />
    <tag k="addr:street" v="West Street" />
    <tag k="addr:state" v="VT" />
    <tag k="ref:vcgi:esiteid" v="25537" />
  </node>
  <node id="-418" visible="true" lat="44.37106917" lon="-72.86504035">
    <tag k="addr:housenumber" v="497" />
    <tag k="addr:street" v="East Street" />
    <tag k="addr:state" v="VT" />
    <tag k="ref:vcgi:esiteid" v="25538" />
  </node>
  <node id="-419" visible="true" lat="44.37111848" lon="-72.86352862">
    <tag k="addr:housenumber" v="430" />
    <tag k="addr:street" v="East Street" />
    <tag k="addr:state" v="VT" />
    <tag k="ref:vcgi:esiteid" v="25539" />
  </node>
  <node id="-420" visible="true" lat="44.37100432" lon="-72.86477332">
    <tag k="addr:housenumber" v="483" />
    <tag k="addr:street" v="East Street" />
    <tag k="addr:state" v="VT" />
    <tag k="ref:vcgi:esiteid" v="25540" />
  </node>
  <node id="-421" visible="true" lat="44.37101695" lon="-72.86326482">
    <tag k="addr:housenumber" v="414" />
    <tag k="addr:street" v="East Street" />
    <tag k="addr:state" v="VT" />
    <tag k="ref:vcgi:esiteid" v="25541" />
  </node>
  <node id="-422" visible="true" lat="44.37092803" lon="-72.86450629">
    <tag k="addr:housenumber" v="469" />
    <tag k="addr:street" v="East Street" />
    <tag k="addr:state" v="VT" />
    <tag k="ref:vcgi:esiteid" v="25542" />
  </node>
  <node id="-423" visible="true" lat="44.37095248" lon="-72.86296614">
    <tag k="addr:housenumber" v="400" />
    <tag k="addr:street" v="East Street" />
    <tag k="addr:state" v="VT" />
    <tag k="ref:vcgi:esiteid" v="25543" />
  </node>
  <node id="-424" visible="true" lat="44.37082545" lon="-72.86423519">
    <tag k="addr:housenumber" v="453" />
    <tag k="addr:street" v="East Street" />
    <tag k="addr:state" v="VT" />
    <tag k="ref:vcgi:esiteid" v="25544" />
  </node>
  <node id="-425" visible="true" lat="44.37096446" lon="-72.86559793">
    <tag k="addr:housenumber" v="127" />
    <tag k="addr:street" v="East Street" />
    <tag k="addr:state" v="VT" />
    <tag k="ref:vcgi:esiteid" v="25545" />
  </node>
  <node id="-426" visible="true" lat="44.37087864" lon="-72.86267538">
    <tag k="addr:housenumber" v="382" />
    <tag k="addr:street" v="East Street" />
    <tag k="addr:state" v="VT" />
    <tag k="ref:vcgi:esiteid" v="25546" />
  </node>
  <node id="-427" visible="true" lat="44.37075117" lon="-72.86653111">
    <tag k="addr:housenumber" v="70" />
    <tag k="addr:street" v="East Street" />
    <tag k="addr:state" v="VT" />
    <tag k="ref:vcgi:esiteid" v="25547" />
  </node>
  <node id="-428" visible="true" lat="44.37077777" lon="-72.86390903">
    <tag k="addr:housenumber" v="439" />
    <tag k="addr:street" v="East Street" />
    <tag k="addr:state" v="VT" />
    <tag k="ref:vcgi:esiteid" v="25548" />
  </node>
  <node id="-429" visible="true" lat="44.37089051" lon="-72.86532559">
    <tag k="addr:housenumber" v="141" />
    <tag k="addr:street" v="East Street" />
    <tag k="addr:state" v="VT" />
    <tag k="ref:vcgi:esiteid" v="25549" />
  </node>
  <node id="-430" visible="true" lat="44.37081894" lon="-72.8624069">
    <tag k="addr:housenumber" v="368" />
    <tag k="addr:street" v="East Street" />
    <tag k="addr:state" v="VT" />
    <tag k="ref:vcgi:esiteid" v="25550" />
  </node>
  <node id="-431" visible="true" lat="44.37067235" lon="-72.86629085">
    <tag k="addr:housenumber" v="104" />
    <tag k="addr:street" v="East Street" />
    <tag k="addr:state" v="VT" />
    <tag k="ref:vcgi:esiteid" v="25551" />
  </node>
  <node id="-432" visible="true" lat="44.37068991" lon="-72.86365884">
    <tag k="addr:housenumber" v="423" />
    <tag k="addr:street" v="East Street" />
    <tag k="addr:state" v="VT" />
    <tag k="ref:vcgi:esiteid" v="25552" />
  </node>
  <node id="-433" visible="true" lat="44.37079569" lon="-72.86501476">
    <tag k="addr:housenumber" v="157" />
    <tag k="addr:street" v="East Street" />
    <tag k="addr:state" v="VT" />
    <tag k="ref:vcgi:esiteid" v="25553" />
  </node>
  <node id="-434" visible="true" lat="44.3706075" lon="-72.8659933">
    <tag k="addr:housenumber" v="120" />
    <tag k="addr:street" v="East Street" />
    <tag k="addr:state" v="VT" />
    <tag k="ref:vcgi:esiteid" v="25555" />
  </node>
  <node id="-435" visible="true" lat="44.37062887" lon="-72.86336893">
    <tag k="addr:housenumber" v="407" />
    <tag k="addr:street" v="East Street" />
    <tag k="addr:state" v="VT" />
    <tag k="ref:vcgi:esiteid" v="25556" />
  </node>
  <node id="-436" visible="true" lat="44.3707175" lon="-72.86210706">
    <tag k="addr:housenumber" v="352" />
    <tag k="addr:street" v="East Street" />
    <tag k="addr:state" v="VT" />
    <tag k="ref:vcgi:esiteid" v="25557" />
  </node>
  <node id="-437" visible="true" lat="44.37069763" lon="-72.86471885">
    <tag k="addr:housenumber" v="171" />
    <tag k="addr:street" v="East Street" />
    <tag k="addr:state" v="VT" />
    <tag k="ref:vcgi:esiteid" v="25558" />
  </node>
  <node id="-438" visible="true" lat="44.37054137" lon="-72.86566899">
    <tag k="addr:housenumber" v="134" />
    <tag k="addr:street" v="East Street" />
    <tag k="addr:state" v="VT" />
    <tag k="ref:vcgi:esiteid" v="25559" />
  </node>
  <node id="-439" visible="true" lat="44.37055258" lon="-72.86306375">
    <tag k="addr:housenumber" v="391" />
    <tag k="addr:street" v="East Street" />
    <tag k="addr:state" v="VT" />
    <tag k="ref:vcgi:esiteid" v="25560" />
  </node>
  <node id="-440" visible="true" lat="44.3704727" lon="-72.86541722">
    <tag k="addr:housenumber" v="148" />
    <tag k="addr:street" v="East Street" />
    <tag k="addr:state" v="VT" />
    <tag k="ref:vcgi:esiteid" v="25561" />
  </node>
  <node id="-441" visible="true" lat="44.37064169" lon="-72.86443246">
    <tag k="addr:housenumber" v="187" />
    <tag k="addr:street" v="East Street" />
    <tag k="addr:state" v="VT" />
    <tag k="ref:vcgi:esiteid" v="25562" />
  </node>
  <node id="-442" visible="true" lat="44.37047247" lon="-72.8627891">
    <tag k="addr:housenumber" v="377" />
    <tag k="addr:street" v="East Street" />
    <tag k="addr:state" v="VT" />
    <tag k="ref:vcgi:esiteid" v="25563" />
  </node>
  <node id="-443" visible="true" lat="44.3705654" lon="-72.86416543">
    <tag k="addr:housenumber" v="201" />
    <tag k="addr:street" v="East Street" />
    <tag k="addr:state" v="VT" />
    <tag k="ref:vcgi:esiteid" v="25564" />
  </node>
  <node id="-444" visible="true" lat="44.37038526" lon="-72.86513228">
    <tag k="addr:housenumber" v="166" />
    <tag k="addr:street" v="East Street" />
    <tag k="addr:state" v="VT" />
    <tag k="ref:vcgi:esiteid" v="25565" />
  </node>
  <node id="-445" visible="true" lat="44.37036566" lon="-72.86250681">
    <tag k="addr:housenumber" v="361" />
    <tag k="addr:street" v="East Street" />
    <tag k="addr:state" v="VT" />
    <tag k="ref:vcgi:esiteid" v="25566" />
  </node>
  <node id="-446" visible="true" lat="44.37031278" lon="-72.86486525">
    <tag k="addr:housenumber" v="180" />
    <tag k="addr:street" v="East Street" />
    <tag k="addr:state" v="VT" />
    <tag k="ref:vcgi:esiteid" v="25567" />
  </node>
  <node id="-447" visible="true" lat="44.37048148" lon="-72.86387552">
    <tag k="addr:housenumber" v="217" />
    <tag k="addr:street" v="East Street" />
    <tag k="addr:state" v="VT" />
    <tag k="ref:vcgi:esiteid" v="25568" />
  </node>
  <node id="-448" visible="true" lat="44.37026598" lon="-72.89001462">
    <tag k="addr:housenumber" v="2610" />
    <tag k="addr:street" v="Duxbury Road" />
    <tag k="addr:state" v="VT" />
    <tag k="ref:vcgi:esiteid" v="25569" />
  </node>
  <node id="-449" visible="true" lat="44.37023648" lon="-72.86457533">
    <tag k="addr:housenumber" v="194" />
    <tag k="addr:street" v="East Street" />
    <tag k="addr:state" v="VT" />
    <tag k="ref:vcgi:esiteid" v="25570" />
  </node>
  <node id="-450" visible="true" lat="44.37031557" lon="-72.86090085">
    <tag k="addr:housenumber" v="197" />
    <tag k="addr:street" v="Champ Lane" />
    <tag k="addr:state" v="VT" />
    <tag k="ref:vcgi:esiteid" v="25571" />
  </node>
  <node id="-451" visible="true" lat="44.37013511" lon="-72.86027357">
    <tag k="addr:housenumber" v="195" />
    <tag k="addr:street" v="Champ Lane" />
    <tag k="addr:state" v="VT" />
    <tag k="ref:vcgi:esiteid" v="25572" />
  </node>
  <node id="-452" visible="true" lat="44.37037848" lon="-72.8635856">
    <tag k="addr:housenumber" v="233" />
    <tag k="addr:street" v="East Street" />
    <tag k="addr:state" v="VT" />
    <tag k="ref:vcgi:esiteid" v="25573" />
  </node>
  <node id="-453" visible="true" lat="44.37015256" lon="-72.86427779">
    <tag k="addr:housenumber" v="210" />
    <tag k="addr:street" v="East Street" />
    <tag k="addr:state" v="VT" />
    <tag k="ref:vcgi:esiteid" v="25575" />
  </node>
  <node id="-454" visible="true" lat="44.37031744" lon="-72.86329568">
    <tag k="addr:housenumber" v="247" />
    <tag k="addr:street" v="East Street" />
    <tag k="addr:state" v="VT" />
    <tag k="ref:vcgi:esiteid" v="25576" />
  </node>
  <node id="-455" visible="true" lat="44.3700296" lon="-72.85997612">
    <tag k="addr:housenumber" v="175" />
    <tag k="addr:street" v="Champ Lane" />
    <tag k="addr:state" v="VT" />
    <tag k="ref:vcgi:esiteid" v="25577" />
  </node>
  <node id="-456" visible="true" lat="44.37006466" lon="-72.8884595">
    <tag k="addr:housenumber" v="2716" />
    <tag k="addr:street" v="Duxbury Road" />
    <tag k="addr:state" v="VT" />
    <tag k="ref:vcgi:esiteid" v="25578" />
  </node>
  <node id="-457" visible="true" lat="44.37007824" lon="-72.86394719">
    <tag k="addr:housenumber" v="226" />
    <tag k="addr:street" v="East Street" />
    <tag k="addr:state" v="VT" />
    <tag k="ref:vcgi:esiteid" v="25579" />
  </node>
  <node id="-458" visible="true" lat="44.37005999" lon="-72.88810727">
    <tag k="addr:housenumber" v="2736" />
    <tag k="addr:street" v="Duxbury Road" />
    <tag k="addr:state" v="VT" />
    <tag k="ref:vcgi:esiteid" v="25580" />
  </node>
  <node id="-459" visible="true" lat="44.37022589" lon="-72.86300576">
    <tag k="addr:housenumber" v="263" />
    <tag k="addr:street" v="East Street" />
    <tag k="addr:state" v="VT" />
    <tag k="ref:vcgi:esiteid" v="25581" />
  </node>
  <node id="-460" visible="true" lat="44.37003328" lon="-72.88304135">
    <tag k="addr:housenumber" v="2993" />
    <tag k="addr:street" v="Duxbury Road" />
    <tag k="addr:state" v="VT" />
    <tag k="ref:vcgi:esiteid" v="25582" />
  </node>
  <node id="-461" visible="true" lat="44.36999432" lon="-72.86369542">
    <tag k="addr:housenumber" v="240" />
    <tag k="addr:street" v="East Street" />
    <tag k="addr:state" v="VT" />
    <tag k="ref:vcgi:esiteid" v="25583" />
  </node>
  <node id="-462" visible="true" lat="44.37016606" lon="-72.8627351">
    <tag k="addr:housenumber" v="281" />
    <tag k="addr:street" v="East Street" />
    <tag k="addr:state" v="VT" />
    <tag k="ref:vcgi:esiteid" v="25584" />
  </node>
  <node id="-463" visible="true" lat="44.37007465" lon="-72.86246369">
    <tag k="addr:housenumber" v="297" />
    <tag k="addr:street" v="East Street" />
    <tag k="addr:state" v="VT" />
    <tag k="ref:vcgi:esiteid" v="25585" />
  </node>
  <node id="-464" visible="true" lat="44.36988516" lon="-72.86341861">
    <tag k="addr:housenumber" v="256" />
    <tag k="addr:street" v="East Street" />
    <tag k="addr:state" v="VT" />
    <tag k="ref:vcgi:esiteid" v="25586" />
  </node>
  <node id="-465" visible="true" lat="44.36981264" lon="-72.86314194">
    <tag k="addr:housenumber" v="272" />
    <tag k="addr:street" v="East Street" />
    <tag k="addr:state" v="VT" />
    <tag k="ref:vcgi:esiteid" v="25587" />
  </node>
  <node id="-466" visible="true" lat="44.3698044" lon="-72.88308713">
    <tag k="addr:housenumber" v="2990" />
    <tag k="addr:street" v="Duxbury Road" />
    <tag k="addr:state" v="VT" />
    <tag k="ref:vcgi:esiteid" v="25588" />
  </node>
  <node id="-467" visible="true" lat="44.36978152" lon="-72.88458249">
    <tag k="addr:housenumber" v="2914" />
    <tag k="addr:street" v="Duxbury Road" />
    <tag k="addr:state" v="VT" />
    <tag k="ref:vcgi:esiteid" v="25589" />
  </node>
  <node id="-468" visible="true" lat="44.3698672" lon="-72.86079383">
    <tag k="addr:housenumber" v="199" />
    <tag k="addr:street" v="Champ Lane" />
    <tag k="addr:state" v="VT" />
    <tag k="ref:vcgi:esiteid" v="25590" />
  </node>
  <node id="-469" visible="true" lat="44.369841" lon="-72.8596047">
    <tag k="addr:housenumber" v="139" />
    <tag k="addr:street" v="Champ Lane" />
    <tag k="addr:state" v="VT" />
    <tag k="ref:vcgi:esiteid" v="25591" />
  </node>
  <node id="-470" visible="true" lat="44.36974294" lon="-72.86284679">
    <tag k="addr:housenumber" v="286" />
    <tag k="addr:street" v="East Street" />
    <tag k="addr:state" v="VT" />
    <tag k="ref:vcgi:esiteid" v="25592" />
  </node>
  <node id="-471" visible="true" lat="44.3699188" lon="-72.87633357">
    <tag k="addr:housenumber" v="3347" />
    <tag k="addr:street" v="Duxbury Road" />
    <tag k="addr:state" v="VT" />
    <tag k="ref:vcgi:esiteid" v="25593" />
  </node>
  <node id="-472" visible="true" lat="44.36966708" lon="-72.88678738">
    <tag k="addr:housenumber" v="2806" />
    <tag k="addr:street" v="Duxbury Road" />
    <tag k="addr:state" v="VT" />
    <tag k="ref:vcgi:esiteid" v="25594" />
  </node>
  <node id="-473" visible="true" lat="44.36961748" lon="-72.87801358">
    <tag k="addr:housenumber" v="3249" />
    <tag k="addr:street" v="Duxbury Road" />
    <tag k="addr:state" v="VT" />
    <tag k="ref:vcgi:esiteid" v="25595" />
  </node>
  <node id="-474" visible="true" lat="44.36942675" lon="-72.88500211">
    <tag k="addr:housenumber" v="2876" />
    <tag k="addr:street" v="Duxbury Road" />
    <tag k="addr:state" v="VT" />
    <tag k="ref:vcgi:esiteid" v="25596" />
  </node>
  <node id="-475" visible="true" lat="44.36948966" lon="-72.85819083">
    <tag k="addr:housenumber" v="122" />
    <tag k="addr:street" v="Champ Lane" />
    <tag k="addr:state" v="VT" />
    <tag k="ref:vcgi:esiteid" v="25597" />
  </node>
  <node id="-476" visible="true" lat="44.36929815" lon="-72.87805244">
    <tag k="addr:housenumber" v="3244" />
    <tag k="addr:street" v="Duxbury Road" />
    <tag k="addr:state" v="VT" />
    <tag k="ref:vcgi:esiteid" v="25598" />
  </node>
  <node id="-477" visible="true" lat="44.36929228" lon="-72.88622255">
    <tag k="addr:housenumber" v="2848" />
    <tag k="addr:street" v="Duxbury Road" />
    <tag k="addr:state" v="VT" />
    <tag k="ref:vcgi:esiteid" v="25599" />
  </node>
  <node id="-478" visible="true" lat="44.36925127" lon="-72.87935635">
    <tag k="addr:housenumber" v="3188" />
    <tag k="addr:street" v="Duxbury Road" />
    <tag k="addr:state" v="VT" />
    <tag k="ref:vcgi:esiteid" v="25601" />
  </node>
  <node id="-479" visible="true" lat="44.36931048" lon="-72.85971787">
    <tag k="addr:housenumber" v="99" />
    <tag k="addr:street" v="Champ Lane" />
    <tag k="addr:state" v="VT" />
    <tag k="ref:vcgi:esiteid" v="25602" />
  </node>
  <node id="-480" visible="true" lat="44.36932138" lon="-72.86042178">
    <tag k="addr:housenumber" v="39" />
    <tag k="addr:street" v="Champ Lane" />
    <tag k="addr:state" v="VT" />
    <tag k="ref:vcgi:esiteid" v="25603" />
  </node>
  <node id="-481" visible="true" lat="44.36916761" lon="-72.86007651">
    <tag k="addr:housenumber" v="41" />
    <tag k="addr:street" v="Champ Lane" />
    <tag k="addr:state" v="VT" />
    <tag k="ref:vcgi:esiteid" v="25604" />
  </node>
  <node id="-483" visible="true" lat="44.36917771" lon="-72.87743446">
    <tag k="addr:housenumber" v="40" />
    <tag k="addr:street" v="Boulder Wood Lane" />
    <tag k="addr:state" v="VT" />
    <tag k="ref:vcgi:esiteid" v="25606" />
  </node>
  <node id="-484" visible="true" lat="44.36895262" lon="-72.85910671">
    <tag k="addr:housenumber" v="76" />
    <tag k="addr:street" v="Champ Lane" />
    <tag k="addr:state" v="VT" />
    <tag k="ref:vcgi:esiteid" v="25607" />
  </node>
  <node id="-485" visible="true" lat="44.3686255" lon="-72.87367769">
    <tag k="addr:housenumber" v="3466" />
    <tag k="addr:street" v="Duxbury Road" />
    <tag k="addr:state" v="VT" />
    <tag k="ref:vcgi:esiteid" v="25608" />
  </node>
  <node id="-486" visible="true" lat="44.36891524" lon="-72.85980136">
    <tag k="addr:housenumber" v="95" />
    <tag k="addr:street" v="Champ Lane" />
    <tag k="addr:state" v="VT" />
    <tag k="ref:vcgi:esiteid" v="25609" />
  </node>
  <node id="-487" visible="true" lat="44.36874392" lon="-72.87763974">
    <tag k="addr:housenumber" v="64" />
    <tag k="addr:street" v="Boulder Wood Lane" />
    <tag k="addr:state" v="VT" />
    <tag k="ref:vcgi:esiteid" v="25610" />
  </node>
  <node id="-488" visible="true" lat="44.36882363" lon="-72.86093266">
    <tag k="addr:housenumber" v="1846" />
    <tag k="addr:street" v="Theodore Roosevelt Highway" />
    <tag k="addr:state" v="VT" />
    <tag k="ref:vcgi:esiteid" v="25611" />
  </node>
  <node id="-489" visible="true" lat="44.36856355" lon="-72.86048597">
    <tag k="addr:housenumber" v="1812" />
    <tag k="addr:street" v="Theodore Roosevelt Highway" />
    <tag k="addr:state" v="VT" />
    <tag k="ref:vcgi:esiteid" v="25613" />
  </node>
  <node id="-490" visible="true" lat="44.36850262" lon="-72.87833662">
    <tag k="addr:housenumber" v="87" />
    <tag k="addr:street" v="Boulder Wood Lane" />
    <tag k="addr:state" v="VT" />
    <tag k="ref:vcgi:esiteid" v="25614" />
  </node>
  <node id="-491" visible="true" lat="44.36825162" lon="-72.85951593">
    <tag k="addr:housenumber" v="30" />
    <tag k="addr:street" v="Champ Lane" />
    <tag k="addr:state" v="VT" />
    <tag k="ref:vcgi:esiteid" v="25615" />
  </node>
  <node id="-492" visible="true" lat="44.36788561" lon="-72.85763547">
    <tag k="addr:housenumber" v="1734" />
    <tag k="addr:street" v="Theodore Roosevelt Highway" />
    <tag k="addr:state" v="VT" />
    <tag k="ref:vcgi:esiteid" v="25616" />
  </node>
  <node id="-493" visible="true" lat="44.36598589" lon="-72.85093686">
    <tag k="addr:housenumber" v="1320" />
    <tag k="addr:street" v="Theodore Roosevelt Highway" />
    <tag k="addr:state" v="VT" />
    <tag k="ref:vcgi:esiteid" v="25617" />
  </node>
  <node id="-494" visible="true" lat="44.36611044" lon="-72.82191623">
    <tag k="addr:housenumber" v="521" />
    <tag k="addr:street" v="Sharkyville Road" />
    <tag k="addr:state" v="VT" />
    <tag k="ref:vcgi:esiteid" v="25618" />
  </node>
  <node id="-495" visible="true" lat="44.36550071" lon="-72.8226888">
    <tag k="addr:housenumber" v="493" />
    <tag k="addr:street" v="Sharkyville Road" />
    <tag k="addr:state" v="VT" />
    <tag k="ref:vcgi:esiteid" v="25619" />
  </node>
  <node id="-496" visible="true" lat="44.36526878" lon="-72.82310774">
    <tag k="addr:housenumber" v="431" />
    <tag k="addr:street" v="Sharkyville Road" />
    <tag k="addr:state" v="VT" />
    <tag k="ref:vcgi:esiteid" v="25621" />
  </node>
  <node id="-497" visible="true" lat="44.36501696" lon="-72.82263181">
    <tag k="addr:housenumber" v="446" />
    <tag k="addr:street" v="Sharkyville Road" />
    <tag k="addr:state" v="VT" />
    <tag k="ref:vcgi:esiteid" v="25622" />
  </node>
  <node id="-498" visible="true" lat="44.36469564" lon="-72.84522827">
    <tag k="addr:housenumber" v="1044" />
    <tag k="addr:street" v="Theodore Roosevelt Highway" />
    <tag k="addr:state" v="VT" />
    <tag k="ref:vcgi:esiteid" v="25624" />
  </node>
  <node id="-499" visible="true" lat="44.3643424" lon="-72.8445133">
    <tag k="addr:housenumber" v="984" />
    <tag k="addr:street" v="Theodore Roosevelt Highway" />
    <tag k="addr:state" v="VT" />
    <tag k="ref:vcgi:esiteid" v="25625" />
  </node>
  <node id="-500" visible="true" lat="44.36433546" lon="-72.82356692">
    <tag k="addr:housenumber" v="375" />
    <tag k="addr:street" v="Sharkyville Road" />
    <tag k="addr:state" v="VT" />
    <tag k="ref:vcgi:esiteid" v="25626" />
  </node>
  <node id="-501" visible="true" lat="44.36425892" lon="-72.82298185">
    <tag k="addr:housenumber" v="378" />
    <tag k="addr:street" v="Sharkyville Road" />
    <tag k="addr:state" v="VT" />
    <tag k="ref:vcgi:esiteid" v="25627" />
  </node>
  <node id="-502" visible="true" lat="44.3640367" lon="-72.82363464">
    <tag k="addr:housenumber" v="357" />
    <tag k="addr:street" v="Sharkyville Road" />
    <tag k="addr:state" v="VT" />
    <tag k="ref:vcgi:esiteid" v="25628" />
  </node>
  <node id="-503" visible="true" lat="44.35148713" lon="-72.91729481">
    <tag k="addr:housenumber" v="1783" />
    <tag k="addr:street" v="Honey Hollow Road" />
    <tag k="addr:state" v="VT" />
    <tag k="ref:vcgi:esiteid" v="25629" />
  </node>
  <node id="-504" visible="true" lat="44.34535982" lon="-72.91899106">
    <tag k="addr:housenumber" v="2270" />
    <tag k="addr:street" v="Honey Hollow Road" />
    <tag k="addr:state" v="VT" />
    <tag k="ref:vcgi:esiteid" v="25630" />
  </node>
  <node id="-505" visible="true" lat="44.4169841" lon="-72.85423642">
    <tag k="addr:housenumber" v="3970" />
    <tag k="addr:street" v="Bolton Valley Access Road" />
    <tag k="addr:state" v="VT" />
    <tag k="ref:vcgi:esiteid" v="25631" />
  </node>
  <node id="-506" visible="true" lat="44.41542058" lon="-72.85012091">
    <tag k="addr:housenumber" v="395" />
    <tag k="addr:street" v="Wentworth Road" />
    <tag k="addr:state" v="VT" />
    <tag k="ref:vcgi:esiteid" v="25632" />
  </node>
  <node id="-507" visible="true" lat="44.41543926" lon="-72.84962618">
    <tag k="addr:housenumber" v="369" />
    <tag k="addr:street" v="Wentworth Road" />
    <tag k="addr:state" v="VT" />
    <tag k="ref:vcgi:esiteid" v="25633" />
  </node>
  <node id="-508" visible="true" lat="44.43848318" lon="-72.90714557">
    <tag k="addr:housenumber" v="77" />
    <tag k="addr:street" v="West Country Club Drive" />
    <tag k="addr:state" v="VT" />
    <tag k="ref:vcgi:esiteid" v="25634" />
  </node>
  <node id="-509" visible="true" lat="44.37457278" lon="-72.8873367">
    <tag k="addr:housenumber" v="3238" />
    <tag k="addr:street" v="Theodore Roosevelt Highway" />
    <tag k="addr:state" v="VT" />
    <tag k="ref:vcgi:esiteid" v="25636" />
  </node>
  <node id="-510" visible="true" lat="44.37261284" lon="-72.87931475">
    <tag k="addr:housenumber" v="59" />
    <tag k="addr:street" v="Joiner Brook Lane" />
    <tag k="addr:state" v="VT" />
    <tag k="ref:vcgi:esiteid" v="25637" />
  </node>
  <node id="-511" visible="true" lat="44.37246174" lon="-72.88002681">
    <tag k="addr:housenumber" v="24" />
    <tag k="addr:street" v="Joiner Brook Lane" />
    <tag k="addr:state" v="VT" />
    <tag k="ref:vcgi:esiteid" v="25638" />
  </node>
  <node id="-512" visible="true" lat="44.3724822" lon="-72.88080758">
    <tag k="addr:housenumber" v="16" />
    <tag k="addr:street" v="Joiner Brook Lane" />
    <tag k="addr:state" v="VT" />
    <tag k="ref:vcgi:esiteid" v="25639" />
  </node>
  <node id="-513" visible="true" lat="44.37232977" lon="-72.87937165">
    <tag k="addr:housenumber" v="56" />
    <tag k="addr:street" v="Joiner Brook Lane" />
    <tag k="addr:state" v="VT" />
    <tag k="ref:vcgi:esiteid" v="25640" />
  </node>
  <node id="-514" visible="true" lat="44.37201629" lon="-72.87809076">
    <tag k="addr:housenumber" v="124" />
    <tag k="addr:street" v="Joiner Brook Lane" />
    <tag k="addr:state" v="VT" />
    <tag k="ref:vcgi:esiteid" v="25641" />
  </node>
  <node id="-515" visible="true" lat="44.371841" lon="-72.87730165">
    <tag k="addr:housenumber" v="154" />
    <tag k="addr:street" v="Joiner Brook Lane" />
    <tag k="addr:state" v="VT" />
    <tag k="ref:vcgi:esiteid" v="25642" />
  </node>
  <node id="-516" visible="true" lat="44.42209754" lon="-72.85245428">
    <tag k="addr:housenumber" v="96" />
    <tag k="addr:street" v="Sports Club Drive" />
    <tag k="addr:state" v="VT" />
    <tag k="ref:vcgi:esiteid" v="25643" />
  </node>
  <node id="-517" visible="true" lat="44.42211579" lon="-72.85159746">
    <tag k="addr:housenumber" v="74" />
    <tag k="addr:street" v="Sports Club Drive" />
    <tag k="addr:state" v="VT" />
    <tag k="ref:vcgi:esiteid" v="25644" />
  </node>
  <node id="-518" visible="true" lat="44.4207287" lon="-72.8524751">
    <tag k="addr:housenumber" v="41" />
    <tag k="addr:street" v="Village Lane" />
    <tag k="addr:state" v="VT" />
    <tag k="ref:vcgi:esiteid" v="25645" />
  </node>
  <node id="-519" visible="true" lat="44.42035421" lon="-72.85240023">
    <tag k="addr:housenumber" v="19" />
    <tag k="addr:street" v="Village Lane" />
    <tag k="addr:state" v="VT" />
    <tag k="ref:vcgi:esiteid" v="25646" />
  </node>
  <node id="-520" visible="true" lat="44.41870927" lon="-72.91290454">
    <tag k="addr:housenumber" v="140" />
    <tag k="addr:street" v="Stone Hill Road" />
    <tag k="addr:state" v="VT" />
    <tag k="ref:vcgi:esiteid" v="25647" />
  </node>
  <node id="-521" visible="true" lat="44.40884564" lon="-72.90353942">
    <tag k="addr:housenumber" v="2105" />
    <tag k="addr:street" v="Notch Road" />
    <tag k="addr:state" v="VT" />
    <tag k="ref:vcgi:esiteid" v="25648" />
  </node>
  <node id="-522" visible="true" lat="44.37467115" lon="-72.88594308">
    <tag k="addr:housenumber" v="3210" />
    <tag k="addr:street" v="Theodore Roosevelt Highway" />
    <tag k="addr:state" v="VT" />
    <tag k="ref:vcgi:esiteid" v="25649" />
  </node>
  <node id="-523" visible="true" lat="44.44033212" lon="-72.89349898">
    <tag k="addr:housenumber" v="108" />
    <tag k="addr:street" v="York Road" />
    <tag k="addr:state" v="VT" />
    <tag k="ref:vcgi:esiteid" v="25651" />
  </node>
  <node id="-524" visible="true" lat="44.43370443" lon="-72.91465311">
    <tag k="addr:housenumber" v="1367" />
    <tag k="addr:street" v="Leary Road" />
    <tag k="addr:state" v="VT" />
    <tag k="ref:vcgi:esiteid" v="25652" />
  </node>
  <node id="-525" visible="true" lat="44.43289871" lon="-72.91486567">
    <tag k="addr:housenumber" v="1371" />
    <tag k="addr:street" v="Leary Road" />
    <tag k="addr:state" v="VT" />
    <tag k="ref:vcgi:esiteid" v="25653" />
  </node>
  <node id="-526" visible="true" lat="44.43295844" lon="-72.91578271">
    <tag k="addr:housenumber" v="1370" />
    <tag k="addr:street" v="Leary Road" />
    <tag k="addr:state" v="VT" />
    <tag k="ref:vcgi:esiteid" v="25654" />
  </node>
  <node id="-527" visible="true" lat="44.4322794" lon="-72.91526762">
    <tag k="addr:housenumber" v="1376" />
    <tag k="addr:street" v="Leary Road" />
    <tag k="addr:state" v="VT" />
    <tag k="ref:vcgi:esiteid" v="25655" />
  </node>
  <node id="-528" visible="true" lat="44.36741224" lon="-72.85348865">
    <tag k="addr:housenumber" v="60" />
    <tag k="addr:street" v="Beaver Brook Farm Road" />
    <tag k="addr:state" v="VT" />
    <tag k="ref:vcgi:esiteid" v="25656" />
  </node>
  <node id="-529" visible="true" lat="44.36905259" lon="-72.85581386">
    <tag k="addr:housenumber" v="205" />
    <tag k="addr:street" v="Beaver Brook Farm Road" />
    <tag k="addr:state" v="VT" />
    <tag k="ref:vcgi:esiteid" v="25658" />
  </node>
  <node id="-530" visible="true" lat="44.44326479" lon="-72.89370901">
    <tag k="addr:housenumber" v="211" />
    <tag k="addr:street" v="Black Fly Hill Road" />
    <tag k="addr:state" v="VT" />
    <tag k="ref:vcgi:esiteid" v="25660" />
  </node>
  <node id="-531" visible="true" lat="44.41503822" lon="-72.91422966">
    <tag k="addr:housenumber" v="3028" />
    <tag k="addr:street" v="Stage Road" />
    <tag k="addr:state" v="VT" />
    <tag k="ref:vcgi:esiteid" v="25661" />
  </node>
  <node id="-532" visible="true" lat="44.41678101" lon="-72.89895045">
    <tag k="addr:housenumber" v="2725" />
    <tag k="addr:street" v="Notch Road" />
    <tag k="addr:state" v="VT" />
    <tag k="ref:vcgi:esiteid" v="25662" />
  </node>
  <node id="-533" visible="true" lat="44.41758914" lon="-72.85181795">
    <tag k="addr:housenumber" v="127" />
    <tag k="addr:street" v="Thatcher Road" />
    <tag k="addr:state" v="VT" />
    <tag k="ref:vcgi:esiteid" v="25663" />
  </node>
  <node id="-534" visible="true" lat="44.41647172" lon="-72.85475963">
    <tag k="addr:housenumber" v="3968" />
    <tag k="addr:street" v="Bolton Valley Access Road" />
    <tag k="addr:state" v="VT" />
    <tag k="ref:vcgi:esiteid" v="25664" />
  </node>
  <node id="-535" visible="true" lat="44.41627425" lon="-72.85524096">
    <tag k="addr:housenumber" v="3964" />
    <tag k="addr:street" v="Bolton Valley Access Road" />
    <tag k="addr:state" v="VT" />
    <tag k="ref:vcgi:esiteid" v="25665" />
  </node>
  <node id="-536" visible="true" lat="44.40898605" lon="-72.86736384">
    <tag k="addr:housenumber" v="3089" />
    <tag k="addr:street" v="Bolton Valley Access Road" />
    <tag k="addr:state" v="VT" />
    <tag k="ref:vcgi:esiteid" v="25666" />
  </node>
  <node id="-537" visible="true" lat="44.39790859" lon="-72.90500369">
    <tag k="addr:housenumber" v="1389" />
    <tag k="addr:street" v="Notch Road" />
    <tag k="addr:state" v="VT" />
    <tag k="ref:vcgi:esiteid" v="25667" />
  </node>
  <node id="-538" visible="true" lat="44.4169914" lon="-72.85062311">
    <tag k="addr:housenumber" v="223" />
    <tag k="addr:street" v="Thatcher Road" />
    <tag k="addr:state" v="VT" />
    <tag k="ref:vcgi:esiteid" v="25668" />
  </node>
  <node id="-539" visible="true" lat="44.40994811" lon="-72.8659664">
    <tag k="addr:housenumber" v="3137" />
    <tag k="addr:street" v="Bolton Valley Access Road" />
    <tag k="addr:state" v="VT" />
    <tag k="ref:vcgi:esiteid" v="25670" />
  </node>
  <node id="-540" visible="true" lat="44.40099127" lon="-72.87829056">
    <tag k="addr:housenumber" v="2125" />
    <tag k="addr:street" v="Bolton Valley Access Road" />
    <tag k="addr:state" v="VT" />
    <tag k="ref:vcgi:esiteid" v="25671" />
  </node>
  <node id="-541" visible="true" lat="44.42050751" lon="-72.91265103">
    <tag k="addr:housenumber" v="3418" />
    <tag k="addr:street" v="Stage Road" />
    <tag k="addr:state" v="VT" />
    <tag k="ref:vcgi:esiteid" v="25672" />
  </node>
  <node id="-542" visible="true" lat="44.40191581" lon="-72.90471849">
    <tag k="addr:housenumber" v="1659" />
    <tag k="addr:street" v="Notch Road" />
    <tag k="addr:state" v="VT" />
    <tag k="ref:vcgi:esiteid" v="25673" />
  </node>
  <node id="-543" visible="true" lat="44.38287391" lon="-72.9094555">
    <tag k="addr:housenumber" v="78" />
    <tag k="addr:street" v="Bear Mountain Road" />
    <tag k="addr:state" v="VT" />
    <tag k="ref:vcgi:esiteid" v="25674" />
  </node>
  <node id="-544" visible="true" lat="44.38343197" lon="-72.90876368">
    <tag k="addr:housenumber" v="76" />
    <tag k="addr:street" v="Bear Mountain Road" />
    <tag k="addr:state" v="VT" />
    <tag k="ref:vcgi:esiteid" v="25675" />
  </node>
  <node id="-545" visible="true" lat="44.38297347" lon="-72.90726248">
    <tag k="addr:housenumber" v="74" />
    <tag k="addr:street" v="Bear Mountain Road" />
    <tag k="addr:state" v="VT" />
    <tag k="ref:vcgi:esiteid" v="25676" />
  </node>
  <node id="-546" visible="true" lat="44.38203345" lon="-72.90501395">
    <tag k="addr:housenumber" v="100" />
    <tag k="addr:street" v="Fern Hollow" />
    <tag k="addr:state" v="VT" />
    <tag k="ref:vcgi:esiteid" v="25678" />
  </node>
  <node id="-547" visible="true" lat="44.38182125" lon="-72.90435459">
    <tag k="addr:housenumber" v="56" />
    <tag k="addr:street" v="Fern Hollow" />
    <tag k="addr:state" v="VT" />
    <tag k="ref:vcgi:esiteid" v="25679" />
  </node>
  <node id="-548" visible="true" lat="44.34912483" lon="-72.91550358">
    <tag k="addr:housenumber" v="1999" />
    <tag k="addr:street" v="Honey Hollow Road" />
    <tag k="addr:state" v="VT" />
    <tag k="ref:vcgi:esiteid" v="25680" />
  </node>
  <node id="-549" visible="true" lat="44.34890975" lon="-72.91510561">
    <tag k="addr:housenumber" v="2027" />
    <tag k="addr:street" v="Honey Hollow Road" />
    <tag k="addr:state" v="VT" />
    <tag k="ref:vcgi:esiteid" v="25681" />
  </node>
  <node id="-550" visible="true" lat="44.34863429" lon="-72.91525873">
    <tag k="addr:housenumber" v="2025" />
    <tag k="addr:street" v="Honey Hollow Road" />
    <tag k="addr:state" v="VT" />
    <tag k="ref:vcgi:esiteid" v="25682" />
  </node>
  <node id="-551" visible="true" lat="44.41892223" lon="-72.91110872">
    <tag k="addr:housenumber" v="145" />
    <tag k="addr:street" v="Stone Hill Road" />
    <tag k="addr:state" v="VT" />
    <tag k="ref:vcgi:esiteid" v="25683" />
  </node>
  <node id="-552" visible="true" lat="44.42380028" lon="-72.89581123">
    <tag k="addr:housenumber" v="3220" />
    <tag k="addr:street" v="Notch Road" />
    <tag k="addr:state" v="VT" />
    <tag k="ref:vcgi:esiteid" v="25684" />
  </node>
  <node id="-553" visible="true" lat="44.38385525" lon="-72.90638135">
    <tag k="addr:housenumber" v="72" />
    <tag k="addr:street" v="Bear Mountain Road" />
    <tag k="addr:state" v="VT" />
    <tag k="ref:vcgi:esiteid" v="25686" />
  </node>
  <node id="-554" visible="true" lat="44.38145331" lon="-72.90388572">
    <tag k="addr:housenumber" v="40" />
    <tag k="addr:street" v="Fern Hollow" />
    <tag k="addr:state" v="VT" />
    <tag k="ref:vcgi:esiteid" v="25688" />
  </node>
  <node id="-555" visible="true" lat="44.41972824" lon="-72.9107982">
    <tag k="addr:housenumber" v="115" />
    <tag k="addr:street" v="Stone Hill Road" />
    <tag k="addr:state" v="VT" />
    <tag k="ref:vcgi:esiteid" v="25690" />
  </node>
  <node id="-556" visible="true" lat="44.41822408" lon="-72.91370342">
    <tag k="addr:housenumber" v="230" />
    <tag k="addr:street" v="Stone Hill Road" />
    <tag k="addr:state" v="VT" />
    <tag k="ref:vcgi:esiteid" v="25691" />
  </node>
  <node id="-557" visible="true" lat="44.41668649" lon="-72.91361301">
    <tag k="addr:housenumber" v="270" />
    <tag k="addr:street" v="Stone Hill Road" />
    <tag k="addr:state" v="VT" />
    <tag k="ref:vcgi:esiteid" v="25692" />
  </node>
  <node id="-558" visible="true" lat="44.41761155" lon="-72.91348628">
    <tag k="addr:housenumber" v="250" />
    <tag k="addr:street" v="Stone Hill Road" />
    <tag k="addr:state" v="VT" />
    <tag k="ref:vcgi:esiteid" v="25693" />
  </node>
  <node id="-559" visible="true" lat="44.39993119" lon="-72.9266368">
    <tag k="addr:housenumber" v="78" />
    <tag k="addr:street" v="Creek Lane" />
    <tag k="addr:state" v="VT" />
    <tag k="ref:vcgi:esiteid" v="200924" />
  </node>
  <node id="-560" visible="true" lat="44.36341036" lon="-72.82311781">
    <tag k="addr:housenumber" v="320" />
    <tag k="addr:street" v="Sharkyville Road" />
    <tag k="addr:state" v="VT" />
    <tag k="ref:vcgi:esiteid" v="273216" />
  </node>
  <node id="-561" visible="true" lat="44.3724618" lon="-72.86891885">
    <tag k="addr:housenumber" v="150" />
    <tag k="addr:street" v="Green Mountain Road" />
    <tag k="addr:state" v="VT" />
    <tag k="ref:vcgi:esiteid" v="305478" />
  </node>
  <node id="-562" visible="true" lat="44.41743359" lon="-72.85017316">
    <tag k="addr:housenumber" v="200" />
    <tag k="addr:street" v="Wentworth Road" />
    <tag k="addr:state" v="VT" />
    <tag k="ref:vcgi:esiteid" v="306907" />
  </node>
  <node id="-563" visible="true" lat="44.3722908" lon="-72.86814573">
    <tag k="addr:housenumber" v="117" />
    <tag k="addr:street" v="West Street" />
    <tag k="addr:state" v="VT" />
    <tag k="ref:vcgi:esiteid" v="311211" />
  </node>
  <node id="-564" visible="true" lat="44.4163205" lon="-72.85593941">
    <tag k="addr:housenumber" v="3900" />
    <tag k="addr:street" v="Bolton Valley Access Road" />
    <tag k="addr:state" v="VT" />
    <tag k="ref:vcgi:esiteid" v="313311" />
  </node>
  <node id="-565" visible="true" lat="44.37133527" lon="-72.87019082">
    <tag k="addr:housenumber" v="57" />
    <tag k="addr:street" v="Green Mountain Road" />
    <tag k="addr:state" v="VT" />
    <tag k="ref:vcgi:esiteid" v="313576" />
  </node>
  <node id="-566" visible="true" lat="44.41730406" lon="-72.85456027">
    <tag k="addr:housenumber" v="3980" />
    <tag k="addr:street" v="Bolton Valley Access Road" />
    <tag k="addr:state" v="VT" />
    <tag k="ref:vcgi:esiteid" v="313602" />
  </node>
  <node id="-567" visible="true" lat="44.44206542" lon="-72.89312221">
    <tag k="addr:housenumber" v="305" />
    <tag k="addr:street" v="Black Fly Hill Road" />
    <tag k="addr:state" v="VT" />
    <tag k="ref:vcgi:esiteid" v="326732" />
  </node>
  <node id="-568" visible="true" lat="44.38515157" lon="-72.92386625">
    <tag k="addr:housenumber" v="155" />
    <tag k="addr:street" v="Rosewood Lane" />
    <tag k="addr:state" v="VT" />
    <tag k="ref:vcgi:esiteid" v="329855" />
  </node>
  <node id="-569" visible="true" lat="44.44693772" lon="-72.89684852">
    <tag k="addr:housenumber" v="80" />
    <tag k="addr:street" v="Cemetery Road" />
    <tag k="addr:state" v="VT" />
    <tag k="ref:vcgi:esiteid" v="331171" />
  </node>
  <node id="-570" visible="true" lat="44.37175305" lon="-72.86582834">
    <tag k="addr:housenumber" v="554" />
    <tag k="addr:street" v="East Street" />
    <tag k="addr:state" v="VT" />
    <tag k="ref:vcgi:esiteid" v="331179" />
  </node>
  <node id="-571" visible="true" lat="44.43820232" lon="-72.90588849">
    <tag k="addr:housenumber" v="4790" />
    <tag k="addr:street" v="Stage Road" />
    <tag k="addr:state" v="VT" />
    <tag k="ref:vcgi:esiteid" v="331602" />
  </node>
  <node id="-572" visible="true" lat="44.41199733" lon="-72.90074857">
    <tag k="addr:housenumber" v="2331" />
    <tag k="addr:street" v="Notch Road" />
    <tag k="addr:state" v="VT" />
    <tag k="ref:vcgi:esiteid" v="332026" />
  </node>
  <node id="-573" visible="true" lat="44.34374389" lon="-72.94410239">
    <tag k="addr:housenumber" v="1757" />
    <tag k="addr:street" v="Happy Hollow Road" />
    <tag k="addr:state" v="VT" />
    <tag k="ref:vcgi:esiteid" v="332493" />
  </node>
  <node id="-574" visible="true" lat="44.42236801" lon="-72.84817515">
    <tag k="addr:housenumber" v="99" />
    <tag k="addr:street" v="Ardec Lane" />
    <tag k="addr:state" v="VT" />
    <tag k="ref:vcgi:esiteid" v="335687" />
  </node>
  <node id="-575" visible="true" lat="44.41609792" lon="-72.86055618">
    <tag k="addr:housenumber" v="3701" />
    <tag k="addr:street" v="Bolton Valley Access Road" />
    <tag k="addr:state" v="VT" />
    <tag k="ref:vcgi:esiteid" v="335688" />
  </node>
  <node id="-576" visible="true" lat="44.41327258" lon="-72.8618255">
    <tag k="addr:housenumber" v="3500" />
    <tag k="addr:street" v="Bolton Valley Access Road" />
    <tag k="addr:state" v="VT" />
    <tag k="ref:vcgi:esiteid" v="335689" />
  </node>
  <node id="-577" visible="true" lat="44.41108911" lon="-72.86545116">
    <tag k="addr:housenumber" v="3233" />
    <tag k="addr:street" v="Bolton Valley Access Road" />
    <tag k="addr:state" v="VT" />
    <tag k="ref:vcgi:esiteid" v="335690" />
  </node>
  <node id="-578" visible="true" lat="44.37861567" lon="-72.92101582">
    <tag k="addr:housenumber" v="960" />
    <tag k="addr:street" v="Duxbury Road" />
    <tag k="addr:state" v="VT" />
    <tag k="ref:vcgi:esiteid" v="335691" />
  </node>
  <node id="-579" visible="true" lat="44.38891918" lon="-72.91191581">
    <tag k="addr:housenumber" v="585" />
    <tag k="addr:street" v="Notch Road" />
    <tag k="addr:state" v="VT" />
    <tag k="ref:vcgi:esiteid" v="335692" />
  </node>
  <node id="-580" visible="true" lat="44.39893526" lon="-72.90493317">
    <tag k="addr:housenumber" v="1431" />
    <tag k="addr:street" v="Notch Road" />
    <tag k="addr:state" v="VT" />
    <tag k="ref:vcgi:esiteid" v="335693" />
  </node>
  <node id="-581" visible="true" lat="44.42961195" lon="-72.89688494">
    <tag k="addr:housenumber" v="3643" />
    <tag k="addr:street" v="Notch Road" />
    <tag k="addr:state" v="VT" />
    <tag k="ref:vcgi:esiteid" v="336070" />
  </node>
  <node id="-582" visible="true" lat="44.42678957" lon="-72.91336805">
    <tag k="addr:housenumber" v="3840" />
    <tag k="addr:street" v="Stage Road" />
    <tag k="addr:state" v="VT" />
    <tag k="ref:vcgi:esiteid" v="338977" />
  </node>
  <node id="-583" visible="true" lat="44.41612907" lon="-72.84870857">
    <tag k="addr:housenumber" v="333" />
    <tag k="addr:street" v="Wentworth Road" />
    <tag k="addr:state" v="VT" />
    <tag k="ref:vcgi:esiteid" v="338979" />
  </node>
  <node id="-584" visible="true" lat="44.40456522" lon="-72.90267024">
    <tag k="addr:housenumber" v="1874" />
    <tag k="addr:street" v="Notch Road" />
    <tag k="addr:state" v="VT" />
    <tag k="ref:vcgi:esiteid" v="338980" />
  </node>
  <node id="-585" visible="true" lat="44.3715482" lon="-72.86926564">
    <tag k="addr:housenumber" v="60" />
    <tag k="addr:street" v="Green Mountain Road" />
    <tag k="addr:state" v="VT" />
    <tag k="ref:vcgi:esiteid" v="338981" />
  </node>
  <node id="-586" visible="true" lat="44.37240934" lon="-72.88062458">
    <tag k="addr:housenumber" v="18" />
    <tag k="addr:street" v="Joiner Brook Lane" />
    <tag k="addr:state" v="VT" />
    <tag k="ref:vcgi:esiteid" v="338982" />
  </node>
  <node id="-587" visible="true" lat="44.37581586" lon="-72.89420996">
    <tag k="addr:housenumber" v="3565" />
    <tag k="addr:street" v="Theodore Roosevelt Highway" />
    <tag k="addr:state" v="VT" />
    <tag k="ref:vcgi:esiteid" v="338983" />
  </node>
  <node id="-588" visible="true" lat="44.41678733" lon="-72.91782918">
    <tag k="addr:housenumber" v="2981" />
    <tag k="addr:street" v="Stage Road" />
    <tag k="addr:state" v="VT" />
    <tag k="ref:vcgi:esiteid" v="339140" />
  </node>
  <node id="-589" visible="true" lat="44.41856877" lon="-72.85264015">
    <tag k="addr:housenumber" v="57" />
    <tag k="addr:street" v="Thatcher Road" />
    <tag k="addr:state" v="VT" />
    <tag k="ref:vcgi:esiteid" v="339141" />
  </node>
  <node id="-590" visible="true" lat="44.4194013" lon="-72.85205777">
    <tag k="addr:housenumber" v="26" />
    <tag k="addr:street" v="Wentworth Road" />
    <tag k="addr:state" v="VT" />
    <tag k="ref:vcgi:esiteid" v="339142" />
  </node>
  <node id="-591" visible="true" lat="44.38240767" lon="-72.93172553">
    <tag k="addr:housenumber" v="5510" />
    <tag k="addr:street" v="Theodore Roosevelt Highway" />
    <tag k="addr:state" v="VT" />
    <tag k="ref:vcgi:esiteid" v="339942" />
  </node>
  <node id="-593" visible="true" lat="44.38949838" lon="-72.91483637">
    <tag k="addr:housenumber" v="517" />
    <tag k="addr:street" v="Notch Road" />
    <tag k="addr:state" v="VT" />
    <tag k="ref:vcgi:esiteid" v="340763" />
  </node>
  <node id="-594" visible="true" lat="44.41080621" lon="-72.90074896">
    <tag k="addr:housenumber" v="2321" />
    <tag k="addr:street" v="Notch Road" />
    <tag k="addr:state" v="VT" />
    <tag k="ref:vcgi:esiteid" v="340764" />
  </node>
  <node id="-595" visible="true" lat="44.43976493" lon="-72.89388798">
    <tag k="addr:housenumber" v="107" />
    <tag k="addr:street" v="York Road" />
    <tag k="addr:state" v="VT" />
    <tag k="ref:vcgi:esiteid" v="341756" />
  </node>
  <node id="-596" visible="true" lat="44.43852807" lon="-72.90611257">
    <tag k="addr:housenumber" v="4799" />
    <tag k="addr:street" v="Stage Road" />
    <tag k="addr:state" v="VT" />
    <tag k="ref:vcgi:esiteid" v="341757" />
  </node>
  <node id="-597" visible="true" lat="44.40957322" lon="-72.86407287">
    <tag k="addr:housenumber" v="3214" />
    <tag k="addr:street" v="Bolton Valley Access Road" />
    <tag k="addr:state" v="VT" />
    <tag k="ref:vcgi:esiteid" v="345180" />
  </node>
  <node id="-598" visible="true" lat="44.43771012" lon="-72.90705485">
    <tag k="addr:housenumber" v="4740" />
    <tag k="addr:street" v="Stage Road" />
    <tag k="addr:state" v="VT" />
    <tag k="ref:vcgi:esiteid" v="345181" />
  </node>
  <node id="-599" visible="true" lat="44.36449722" lon="-72.93069722">
    <tag k="addr:housenumber" v="1403" />
    <tag k="addr:street" v="Wes White Hill" />
    <tag k="addr:state" v="VT" />
    <tag k="ref:vcgi:esiteid" v="447047" />
  </node>
  <node id="-600" visible="true" lat="44.36925891" lon="-72.87348369">
    <tag k="addr:housenumber" v="3495" />
    <tag k="addr:street" v="Duxbury Road" />
    <tag k="addr:state" v="VT" />
    <tag k="ref:vcgi:esiteid" v="447092" />
  </node>
  <node id="-601" visible="true" lat="44.44245833" lon="-72.87784066">
    <tag k="addr:housenumber" v="1090" />
    <tag k="addr:street" v="Mill Brook Road" />
    <tag k="addr:state" v="VT" />
    <tag k="ref:vcgi:esiteid" v="447093" />
  </node>
  <node id="-602" visible="true" lat="44.44345512" lon="-72.88417721">
    <tag k="addr:housenumber" v="744" />
    <tag k="addr:street" v="Mill Brook Road" />
    <tag k="addr:state" v="VT" />
    <tag k="ref:vcgi:esiteid" v="447094" />
  </node>
  <node id="-603" visible="true" lat="44.42680817" lon="-72.89691007">
    <tag k="addr:housenumber" v="3455" />
    <tag k="addr:street" v="Notch Road" />
    <tag k="addr:state" v="VT" />
    <tag k="ref:vcgi:esiteid" v="447096" />
  </node>
  <node id="-604" visible="true" lat="44.40159319" lon="-72.90409256">
    <tag k="addr:housenumber" v="1636" />
    <tag k="addr:street" v="Notch Road" />
    <tag k="addr:state" v="VT" />
    <tag k="ref:vcgi:esiteid" v="447825" />
  </node>
  <node id="-605" visible="true" lat="44.38693842" lon="-72.91482405">
    <tag k="addr:housenumber" v="385" />
    <tag k="addr:street" v="Notch Road" />
    <tag k="addr:state" v="VT" />
    <tag k="ref:vcgi:esiteid" v="448212" />
  </node>
  <node id="-606" visible="true" lat="44.37916651" lon="-72.91095645">
    <tag k="addr:housenumber" v="4466" />
    <tag k="addr:street" v="Theodore Roosevelt Highway" />
    <tag k="addr:state" v="VT" />
    <tag k="ref:vcgi:esiteid" v="450427" />
  </node>
  <node id="-607" visible="true" lat="44.41345822" lon="-72.86349615">
    <tag k="addr:housenumber" v="93" />
    <tag k="addr:street" v="Snow Pond Road" />
    <tag k="addr:state" v="VT" />
    <tag k="ref:vcgi:esiteid" v="450428" />
  </node>
  <node id="-609" visible="true" lat="44.37937385" lon="-72.91181663">
    <tag k="addr:housenumber" v="4530" />
    <tag k="addr:street" v="Theodore Roosevelt Highway" />
    <tag k="addr:state" v="VT" />
    <tag k="ref:vcgi:esiteid" v="451681" />
  </node>
  <node id="-611" visible="true" lat="44.36245404" lon="-72.83029348">
    <tag k="addr:housenumber" v="500" />
    <tag k="addr:street" v="Theodore Roosevelt Highway" />
    <tag k="addr:state" v="VT" />
    <tag k="ref:vcgi:esiteid" v="451684" />
  </node>
  <node id="-612" visible="true" lat="44.34485517" lon="-72.94684299">
    <tag k="addr:housenumber" v="1617" />
    <tag k="addr:street" v="Happy Hollow Road" />
    <tag k="addr:state" v="VT" />
    <tag k="ref:vcgi:esiteid" v="451685" />
  </node>
  <node id="-613" visible="true" lat="44.37841768" lon="-72.91725208">
    <tag k="addr:housenumber" v="1121" />
    <tag k="addr:street" v="Duxbury Road" />
    <tag k="addr:state" v="VT" />
    <tag k="ref:vcgi:esiteid" v="452065" />
  </node>
  <node id="-614" visible="true" lat="44.37903871" lon="-72.91196422">
    <tag k="addr:housenumber" v="4501" />
    <tag k="addr:street" v="Theodore Roosevelt Highway" />
    <tag k="addr:state" v="VT" />
    <tag k="ref:vcgi:esiteid" v="452066" />
  </node>
  <node id="-615" visible="true" lat="44.39056541" lon="-72.87399548">
    <tag k="addr:housenumber" v="1400" />
    <tag k="addr:street" v="Bolton Valley Access Road" />
    <tag k="addr:state" v="VT" />
    <tag k="ref:vcgi:esiteid" v="452806" />
  </node>
  <node id="-616" visible="true" lat="44.3781187" lon="-72.87479885">
    <tag k="addr:housenumber" v="430" />
    <tag k="addr:street" v="Bolton Valley Access Road" />
    <tag k="addr:state" v="VT" />
    <tag k="ref:vcgi:esiteid" v="452810" />
  </node>
  <node id="-617" visible="true" lat="44.43894219" lon="-72.87297711">
    <tag k="addr:housenumber" v="1574" />
    <tag k="addr:street" v="Mill Brook Road" />
    <tag k="addr:state" v="VT" />
    <tag k="ref:vcgi:esiteid" v="454796" />
  </node>
  <node id="-618" visible="true" lat="44.42413708" lon="-72.91353983">
    <tag k="addr:housenumber" v="3638" />
    <tag k="addr:street" v="Stage Road" />
    <tag k="addr:state" v="VT" />
    <tag k="ref:vcgi:esiteid" v="454933" />
  </node>
  <node id="-619" visible="true" lat="44.44081835" lon="-72.89729793">
    <tag k="addr:housenumber" v="4501" />
    <tag k="addr:street" v="Notch Road" />
    <tag k="addr:state" v="VT" />
    <tag k="ref:vcgi:esiteid" v="454934" />
  </node>
  <node id="-620" visible="true" lat="44.37402946" lon="-72.90713537">
    <tag k="addr:housenumber" v="1721" />
    <tag k="addr:street" v="Duxbury Road" />
    <tag k="addr:state" v="VT" />
    <tag k="ref:vcgi:esiteid" v="455149" />
  </node>
  <node id="-621" visible="true" lat="44.37449821" lon="-72.90889648">
    <tag k="addr:housenumber" v="1647" />
    <tag k="addr:street" v="Duxbury Road" />
    <tag k="addr:state" v="VT" />
    <tag k="ref:vcgi:esiteid" v="455150" />
  </node>
  <node id="-623" visible="true" lat="44.40309632" lon="-72.87424241">
    <tag k="addr:housenumber" v="2276" />
    <tag k="addr:street" v="Bolton Valley Access Road" />
    <tag k="addr:state" v="VT" />
    <tag k="ref:vcgi:esiteid" v="610995" />
  </node>
  <node id="-624" visible="true" lat="44.41052579" lon="-72.86404363">
    <tag k="addr:housenumber" v="3250" />
    <tag k="addr:street" v="Bolton Valley Access Road" />
    <tag k="addr:state" v="VT" />
    <tag k="ref:vcgi:esiteid" v="610996" />
  </node>
  <node id="-625" visible="true" lat="44.40831217" lon="-72.86526892">
    <tag k="addr:housenumber" v="3046" />
    <tag k="addr:street" v="Bolton Valley Access Road" />
    <tag k="addr:state" v="VT" />
    <tag k="ref:vcgi:esiteid" v="610997" />
  </node>
  <node id="-626" visible="true" lat="44.40937061" lon="-72.87156083">
    <tag k="addr:housenumber" v="2617" />
    <tag k="addr:street" v="Bolton Valley Access Road" />
    <tag k="addr:state" v="VT" />
    <tag k="ref:vcgi:esiteid" v="611410" />
  </node>
  <node id="-627" visible="true" lat="44.43258056" lon="-72.91462756">
    <tag k="addr:housenumber" v="1375" />
    <tag k="addr:street" v="Leary Road" />
    <tag k="addr:state" v="VT" />
    <tag k="ref:vcgi:esiteid" v="611467" />
  </node>
  <node id="-628" visible="true" lat="44.36582197" lon="-72.82250433">
    <tag k="addr:housenumber" v="501" />
    <tag k="addr:street" v="Sharkyville Road" />
    <tag k="addr:state" v="VT" />
    <tag k="ref:vcgi:esiteid" v="612550" />
  </node>
  <node id="-629" visible="true" lat="44.43698883" lon="-72.90803151">
    <tag k="addr:housenumber" v="4674" />
    <tag k="addr:street" v="Stage Road" />
    <tag k="addr:state" v="VT" />
    <tag k="ref:vcgi:esiteid" v="612921" />
  </node>
  <node id="-630" visible="true" lat="44.40909554" lon="-72.88131826">
    <tag k="addr:housenumber" v="2277" />
    <tag k="addr:street" v="Bolton Valley Access Road" />
    <tag k="addr:state" v="VT" />
    <tag k="ref:vcgi:esiteid" v="612922" />
  </node>
  <node id="-631" visible="true" lat="44.44020519" lon="-72.89337995">
    <tag k="addr:housenumber" v="110" />
    <tag k="addr:street" v="York Road" />
    <tag k="addr:state" v="VT" />
    <tag k="ref:vcgi:esiteid" v="618069" />
  </node>
  <node id="-632" visible="true" lat="44.36901353" lon="-72.87267578">
    <tag k="addr:housenumber" v="3585" />
    <tag k="addr:street" v="Duxbury Road" />
    <tag k="addr:state" v="VT" />
    <tag k="ref:vcgi:esiteid" v="618481" />
  </node>
  <node id="-633" visible="true" lat="44.43347661" lon="-72.89566665">
    <tag k="addr:housenumber" v="3900" />
    <tag k="addr:street" v="Notch Road" />
    <tag k="addr:state" v="VT" />
    <tag k="ref:vcgi:esiteid" v="750796" />
  </node>
  <node id="-634" visible="true" lat="44.44453138" lon="-72.89855634">
    <tag k="addr:housenumber" v="5425" />
    <tag k="addr:street" v="Stage Road" />
    <tag k="addr:state" v="VT" />
    <tag k="ref:vcgi:esiteid" v="750831" />
  </node>
  <node id="-635" visible="true" lat="44.44557768" lon="-72.89679237">
    <tag k="addr:housenumber" v="58" />
    <tag k="addr:street" v="Mill Brook Road" />
    <tag k="addr:state" v="VT" />
    <tag k="ref:vcgi:esiteid" v="750832" />
  </node>
  <node id="-637" visible="true" lat="44.37496898" lon="-72.87611284">
    <tag k="addr:housenumber" v="190" />
    <tag k="addr:street" v="Bolton Valley Access Road" />
    <tag k="addr:state" v="VT" />
    <tag k="ref:vcgi:esiteid" v="750834" />
  </node>
  <node id="-638" visible="true" lat="44.37848308" lon="-72.9305035">
    <tag k="addr:housenumber" v="458" />
    <tag k="addr:street" v="Duxbury Road" />
    <tag k="addr:state" v="VT" />
    <tag k="ref:vcgi:esiteid" v="750835" />
  </node>
  <node id="-639" visible="true" lat="44.42060278" lon="-72.8279886">
    <tag k="addr:housenumber" v="4260" />
    <tag k="addr:street" v="Bolton Valley Access Road" />
    <tag k="addr:state" v="VT" />
    <tag k="ref:vcgi:esiteid" v="751212" />
  </node>
  <node id="-640" visible="true" lat="44.42016128" lon="-72.82777835">
    <tag k="addr:housenumber" v="4258" />
    <tag k="addr:street" v="Bolton Valley Access Road" />
    <tag k="addr:state" v="VT" />
    <tag k="ref:vcgi:esiteid" v="751215" />
  </node>
  <node id="-648" visible="true" lat="44.40048847" lon="-72.90360631">
    <tag k="addr:housenumber" v="1592" />
    <tag k="addr:street" v="Notch Road" />
    <tag k="addr:state" v="VT" />
    <tag k="ref:vcgi:esiteid" v="752199" />
  </node>
  <node id="-649" visible="true" lat="44.40007516" lon="-72.90385324">
    <tag k="addr:housenumber" v="1530" />
    <tag k="addr:street" v="Notch Road" />
    <tag k="addr:state" v="VT" />
    <tag k="ref:vcgi:esiteid" v="752909" />
  </node>
  <node id="-650" visible="true" lat="44.40923485" lon="-72.88115598">
    <tag k="addr:housenumber" v="2279" />
    <tag k="addr:street" v="Bolton Valley Access Road" />
    <tag k="addr:state" v="VT" />
    <tag k="ref:vcgi:esiteid" v="752910" />
  </node>
  <node id="-651" visible="true" lat="44.3675842" lon="-72.85369895">
    <tag k="addr:housenumber" v="64" />
    <tag k="addr:street" v="Beaver Brook Farm Road" />
    <tag k="addr:state" v="VT" />
    <tag k="ref:vcgi:esiteid" v="752967" />
  </node>
  <node id="-652" visible="true" lat="44.41576403" lon="-72.91792987">
    <tag k="addr:housenumber" v="2996" />
    <tag k="addr:street" v="Stage Road" />
    <tag k="addr:state" v="VT" />
    <tag k="ref:vcgi:esiteid" v="753410" />
  </node>
  <node id="-656" visible="true" lat="44.36853431" lon="-72.85531232">
    <tag k="addr:housenumber" v="155" />
    <tag k="addr:street" v="Beaver Brook Farm Road" />
    <tag k="addr:state" v="VT" />
    <tag k="ref:vcgi:esiteid" v="753648" />
  </node>
  <node id="-657" visible="true" lat="44.37876315" lon="-72.92192022">
    <tag k="addr:housenumber" v="896" />
    <tag k="addr:street" v="Duxbury Road" />
    <tag k="addr:state" v="VT" />
    <tag k="ref:vcgi:esiteid" v="753711" />
  </node>
  <node id="-664" visible="true" lat="44.37255526" lon="-72.88278241">
    <tag k="addr:housenumber" v="3049" />
    <tag k="addr:street" v="Theodore Roosevelt Highway" />
    <tag k="addr:state" v="VT" />
    <tag k="ref:vcgi:esiteid" v="753732" />
  </node>
  <node id="-665" visible="true" lat="44.40932616" lon="-72.86538074">
    <tag k="addr:housenumber" v="3158" />
    <tag k="addr:street" v="Bolton Valley Access Road" />
    <tag k="addr:state" v="VT" />
    <tag k="ref:vcgi:esiteid" v="754490" />
  </node>
  <node id="-666" visible="true" lat="44.36892682" lon="-72.87094488">
    <tag k="addr:housenumber" v="3615" />
    <tag k="addr:street" v="Duxbury Road" />
    <tag k="addr:state" v="VT" />
    <tag k="ref:vcgi:esiteid" v="754844" />
  </node>
  <node id="-667" visible="true" lat="44.37048551" lon="-72.85825972">
    <tag k="addr:housenumber" v="124" />
    <tag k="addr:street" v="Champ Lane" />
    <tag k="addr:state" v="VT" />
    <tag k="ref:vcgi:esiteid" v="754930" />
  </node>
  <node id="-668" visible="true" lat="44.37469327" lon="-72.86940707">
    <tag k="addr:housenumber" v="360" />
    <tag k="addr:street" v="Green Mountain Road" />
    <tag k="addr:state" v="VT" />
    <tag k="ref:vcgi:esiteid" v="755134" />
  </node>
  <node id="-669" visible="true" lat="44.3854601" lon="-72.9102934">
    <tag k="addr:housenumber" v="380" />
    <tag k="addr:street" v="Notch Road" />
    <tag k="addr:state" v="VT" />
    <tag k="ref:vcgi:esiteid" v="755332" />
  </node>
  <node id="-670" visible="true" lat="44.4202224" lon="-72.90179574">
    <tag k="addr:housenumber" v="2853" />
    <tag k="addr:street" v="Notch Road" />
    <tag k="addr:state" v="VT" />
    <tag k="ref:vcgi:esiteid" v="755333" />
  </node>
  <node id="-671" visible="true" lat="44.4181094" lon="-72.89783904">
    <tag k="addr:housenumber" v="2851" />
    <tag k="addr:street" v="Notch Road" />
    <tag k="addr:state" v="VT" />
    <tag k="ref:vcgi:esiteid" v="755334" />
  </node>
  <node id="-672" visible="true" lat="44.38568679" lon="-72.91343518">
    <tag k="addr:housenumber" v="378" />
    <tag k="addr:street" v="Notch Road" />
    <tag k="addr:state" v="VT" />
    <tag k="ref:vcgi:esiteid" v="755335" />
  </node>
  <node id="-673" visible="true" lat="44.4216782" lon="-72.90093951">
    <tag k="addr:housenumber" v="2855" />
    <tag k="addr:street" v="Notch Road" />
    <tag k="addr:state" v="VT" />
    <tag k="ref:vcgi:esiteid" v="755336" />
  </node>
  <node id="-674" visible="true" lat="44.43024563" lon="-72.89861929">
    <tag k="addr:housenumber" v="3645" />
    <tag k="addr:street" v="Notch Road" />
    <tag k="addr:state" v="VT" />
    <tag k="ref:vcgi:esiteid" v="755337" />
  </node>
  <node id="-675" visible="true" lat="44.36480684" lon="-72.86790139">
    <tag k="addr:housenumber" v="3832" />
    <tag k="addr:street" v="Duxbury Road" />
    <tag k="addr:state" v="VT" />
    <tag k="ref:vcgi:esiteid" v="755338" />
  </node>
  <node id="-676" visible="true" lat="44.36716047" lon="-72.86757754">
    <tag k="addr:housenumber" v="3830" />
    <tag k="addr:street" v="Duxbury Road" />
    <tag k="addr:state" v="VT" />
    <tag k="ref:vcgi:esiteid" v="755339" />
  </node>
  <node id="-677" visible="true" lat="44.37508444" lon="-72.86646166">
    <tag k="addr:housenumber" v="362" />
    <tag k="addr:street" v="Green Mountain Road" />
    <tag k="addr:state" v="VT" />
    <tag k="ref:vcgi:esiteid" v="755340" />
  </node>
  <node id="-678" visible="true" lat="44.37803599" lon="-72.86051588">
    <tag k="addr:housenumber" v="364" />
    <tag k="addr:street" v="Green Mountain Road" />
    <tag k="addr:state" v="VT" />
    <tag k="ref:vcgi:esiteid" v="755420" />
  </node>
  <node id="-679" visible="true" lat="44.38997143" lon="-72.85059187">
    <tag k="addr:housenumber" v="366" />
    <tag k="addr:street" v="Green Mountain Road" />
    <tag k="addr:state" v="VT" />
    <tag k="ref:vcgi:esiteid" v="755421" />
  </node>
  <node id="-681" visible="true" lat="44.45155042" lon="-72.89795091">
    <tag k="addr:housenumber" v="100" />
    <tag k="addr:street" v="West Bolton Road" />
    <tag k="addr:state" v="VT" />
    <tag k="ref:vcgi:esiteid" v="755615" />
  </node>
  <node id="-682" visible="true" lat="44.44971812" lon="-72.89831334">
    <tag k="addr:housenumber" v="299" />
    <tag k="addr:street" v="Cemetery Road" />
    <tag k="addr:state" v="VT" />
    <tag k="ref:vcgi:esiteid" v="755639" />
  </node>
  <node id="-683" visible="true" lat="44.34434133" lon="-72.94223049">
    <tag k="addr:housenumber" v="1811" />
    <tag k="addr:street" v="Happy Hollow Road" />
    <tag k="addr:state" v="VT" />
    <tag k="ref:vcgi:esiteid" v="755815" />
  </node>
  <node id="-684" visible="true" lat="44.36843637" lon="-72.86007233">
    <tag k="addr:housenumber" v="33" />
    <tag k="addr:street" v="Champ Lane" />
    <tag k="addr:state" v="VT" />
    <tag k="ref:vcgi:esiteid" v="757033" />
  </node>
  <node id="-685" visible="true" lat="44.44521473" lon="-72.90008971">
    <tag k="addr:housenumber" v="30" />
    <tag k="addr:street" v="Irenes Lane" />
    <tag k="addr:state" v="VT" />
    <tag k="ref:vcgi:esiteid" v="757154" />
  </node>
  <node id="-686" visible="true" lat="44.4398503" lon="-72.90610879">
    <tag k="addr:housenumber" v="71" />
    <tag k="addr:street" v="East Country Club Drive" />
    <tag k="addr:state" v="VT" />
    <tag k="ref:vcgi:esiteid" v="757155" />
  </node>
  <node id="-687" visible="true" lat="44.3784656" lon="-72.92791961">
    <tag k="addr:housenumber" v="100" />
    <tag k="addr:street" v="Grouse Hill" />
    <tag k="addr:state" v="VT" />
    <tag k="ref:vcgi:esiteid" v="758620" />
  </node>
  <node id="-688" visible="true" lat="44.37894866" lon="-72.92609209">
    <tag k="addr:housenumber" v="99" />
    <tag k="addr:street" v="Grouse Hill" />
    <tag k="addr:state" v="VT" />
    <tag k="ref:vcgi:esiteid" v="758621" />
  </node>
  <node id="-689" visible="true" lat="44.44219355" lon="-72.88999358">
    <tag k="addr:housenumber" v="506" />
    <tag k="addr:street" v="Mill Brook Road" />
    <tag k="addr:state" v="VT" />
    <tag k="ref:vcgi:esiteid" v="759318" />
  </node>
  <node id="-690" visible="true" lat="44.4449454" lon="-72.89954349">
    <tag k="addr:housenumber" v="46" />
    <tag k="addr:street" v="Irenes Lane" />
    <tag k="addr:state" v="VT" />
    <tag k="ref:vcgi:esiteid" v="759319" />
  </node>
  <node id="-691" visible="true" lat="44.44478507" lon="-72.89920302">
    <tag k="addr:housenumber" v="66" />
    <tag k="addr:street" v="Irenes Lane" />
    <tag k="addr:state" v="VT" />
    <tag k="ref:vcgi:esiteid" v="759320" />
  </node>
  <node id="-692" visible="true" lat="44.36545483" lon="-72.84441077">
    <tag k="addr:housenumber" v="1070" />
    <tag k="addr:street" v="Theodore Roosevelt Highway" />
    <tag k="addr:state" v="VT" />
    <tag k="ref:vcgi:esiteid" v="759931" />
  </node>
  <node id="-693" visible="true" lat="44.44572473" lon="-72.90072989">
    <tag k="addr:housenumber" v="3728" />
    <tag k="addr:street" v="Nashville Road" />
    <tag k="addr:state" v="VT" />
    <tag k="ref:vcgi:esiteid" v="760697" />
  </node>
  <node id="-694" visible="true" lat="44.37665721" lon="-72.87520623">
    <tag k="addr:housenumber" v="325" />
    <tag k="addr:street" v="Bolton Valley Access Road" />
    <tag k="addr:state" v="VT" />
    <tag k="ref:vcgi:esiteid" v="761454" />
  </node>
  <node id="-695" visible="true" lat="44.44278511" lon="-72.88625723">
    <tag k="addr:housenumber" v="696" />
    <tag k="addr:street" v="Mill Brook Road" />
    <tag k="addr:state" v="VT" />
    <tag k="ref:vcgi:esiteid" v="761455" />
  </node>
  <node id="-696" visible="true" lat="44.43972454" lon="-72.9020804">
    <tag k="addr:housenumber" v="5008" />
    <tag k="addr:street" v="Stage Road" />
    <tag k="addr:state" v="VT" />
    <tag k="ref:vcgi:esiteid" v="761779" />
  </node>
  <node id="-697" visible="true" lat="44.38185872" lon="-72.90406811">
    <tag k="addr:housenumber" v="54" />
    <tag k="addr:street" v="Fern Hollow" />
    <tag k="addr:state" v="VT" />
    <tag k="ref:vcgi:esiteid" v="763085" />
  </node>
  <node id="-698" visible="true" lat="44.44538486" lon="-72.89935033">
    <tag k="addr:housenumber" v="13" />
    <tag k="addr:street" v="Irenes Lane" />
    <tag k="addr:state" v="VT" />
    <tag k="ref:vcgi:esiteid" v="763307" />
  </node>
  <node id="-699" visible="true" lat="44.39414506" lon="-72.87623759">
    <tag k="addr:housenumber" v="1570" />
    <tag k="addr:street" v="Bolton Valley Access Road" />
    <tag k="addr:state" v="VT" />
    <tag k="ref:vcgi:esiteid" v="764363" />
  </node>
  <node id="-700" visible="true" lat="44.4328537" lon="-72.8948456">
    <tag k="addr:housenumber" v="3822" />
    <tag k="addr:street" v="Notch Road" />
    <tag k="addr:state" v="VT" />
    <tag k="ref:vcgi:esiteid" v="765350" />
  </node>
  <node id="-701" visible="true" lat="44.36577534" lon="-72.8466209">
    <tag k="addr:housenumber" v="1122" />
    <tag k="addr:street" v="Theodore Roosevelt Highway" />
    <tag k="addr:state" v="VT" />
    <tag k="ref:vcgi:esiteid" v="765393" />
  </node>
  <node id="-702" visible="true" lat="44.39134111" lon="-72.92887148">
    <tag k="addr:housenumber" v="135" />
    <tag k="addr:street" v="Three Boys Road" />
    <tag k="addr:state" v="VT" />
    <tag k="ref:vcgi:esiteid" v="765461" />
  </node>
  <node id="-703" visible="true" lat="44.36916148" lon="-72.87582698">
    <tag k="addr:housenumber" v="3372" />
    <tag k="addr:street" v="Duxbury Road" />
    <tag k="addr:state" v="VT" />
    <tag k="ref:vcgi:esiteid" v="765684" />
  </node>
  <node id="-704" visible="true" lat="44.40435425" lon="-72.90456143">
    <tag k="addr:housenumber" v="1719" />
    <tag k="addr:street" v="Notch Road" />
    <tag k="addr:state" v="VT" />
    <tag k="ref:vcgi:esiteid" v="766441" />
  </node>
  <node id="-705" visible="true" lat="44.44558307" lon="-72.90012143">
    <tag k="addr:housenumber" v="14" />
    <tag k="addr:street" v="Irenes Lane" />
    <tag k="addr:state" v="VT" />
    <tag k="ref:vcgi:esiteid" v="770202" />
  </node>
  <node id="-706" visible="true" lat="44.4408492" lon="-72.89897506">
    <tag k="addr:housenumber" v="4525" />
    <tag k="addr:street" v="Notch Road" />
    <tag k="addr:state" v="VT" />
    <tag k="ref:vcgi:esiteid" v="800027" />
  </node>
  <node id="-707" visible="true" lat="44.37186818" lon="-72.89563502">
    <tag k="addr:housenumber" v="2335" />
    <tag k="addr:street" v="Duxbury Road" />
    <tag k="addr:state" v="VT" />
    <tag k="ref:vcgi:esiteid" v="800148" />
  </node>
  <node id="-708" visible="true" lat="44.45309112" lon="-72.83808884">
    <tag k="addr:housenumber" v="123" />
    <tag k="addr:street" v="Nature Trail Road" />
    <tag k="addr:state" v="VT" />
    <tag k="ref:vcgi:esiteid" v="1050111" />
  </node>
  <node id="-709" visible="true" lat="44.42743482" lon="-72.87655591">
    <tag k="addr:housenumber" v="2619" />
    <tag k="addr:street" v="Bolton Valley Access Road" />
    <tag k="addr:state" v="VT" />
    <tag k="ref:vcgi:esiteid" v="1050114" />
  </node>
  <node id="-710" visible="true" lat="44.43203841" lon="-72.84136023">
    <tag k="addr:housenumber" v="125" />
    <tag k="addr:street" v="Nature Trail Road" />
    <tag k="addr:state" v="VT" />
    <tag k="ref:vcgi:esiteid" v="1050118" />
  </node>
  <node id="-711" visible="true" lat="44.41426105" lon="-72.86969625">
    <tag k="addr:housenumber" v="2623" />
    <tag k="addr:street" v="Bolton Valley Access Road" />
    <tag k="addr:state" v="VT" />
    <tag k="ref:vcgi:esiteid" v="1050120" />
  </node>
  <node id="-712" visible="true" lat="44.42228619" lon="-72.85102839">
    <tag k="addr:housenumber" v="56" />
    <tag k="addr:street" v="Sports Club Drive" />
    <tag k="addr:state" v="VT" />
    <tag k="ref:vcgi:esiteid" v="1050602" />
  </node>
  <node id="-713" visible="true" lat="44.36617" lon="-72.85067">
    <tag k="addr:housenumber" v="1316" />
    <tag k="addr:street" v="Theodore Roosevelt Highway" />
    <tag k="addr:state" v="VT" />
    <tag k="ref:vcgi:esiteid" v="1050607" />
  </node>
</osm>
