<?xml version="1.0" encoding="UTF-8"?>
<osm version="0.6" generator="JOSM" upload="false">
  <node id="-100" visible="true" lat="44.70208348" lon="-72.85761115">
    <tag k="addr:housenumber" v="548" />
    <tag k="addr:street" v="Kinsley Road" />
    <tag k="addr:state" v="VT" />
    <tag k="ref:vcgi:esiteid" v="58311" />
  </node>
  <node id="-101" visible="true" lat="44.75497162" lon="-72.97489692">
    <tag k="addr:housenumber" v="2449" />
    <tag k="addr:street" v="Buck Hollow Road" />
    <tag k="addr:state" v="VT" />
    <tag k="ref:vcgi:esiteid" v="108441" />
  </node>
  <node id="-102" visible="true" lat="44.75430554" lon="-72.97514927">
    <tag k="addr:housenumber" v="2401" />
    <tag k="addr:street" v="Buck Hollow Road" />
    <tag k="addr:state" v="VT" />
    <tag k="ref:vcgi:esiteid" v="108442" />
  </node>
  <node id="-103" visible="true" lat="44.7520983" lon="-72.97730152">
    <tag k="addr:housenumber" v="1975" />
    <tag k="addr:street" v="Buck Hollow Road" />
    <tag k="addr:state" v="VT" />
    <tag k="ref:vcgi:esiteid" v="108443" />
  </node>
  <node id="-104" visible="true" lat="44.75115377" lon="-72.97913887">
    <tag k="addr:housenumber" v="1943" />
    <tag k="addr:street" v="Buck Hollow Road" />
    <tag k="addr:state" v="VT" />
    <tag k="ref:vcgi:esiteid" v="108444" />
  </node>
  <node id="-105" visible="true" lat="44.75104824" lon="-72.97502552">
    <tag k="addr:housenumber" v="2150" />
    <tag k="addr:street" v="Buck Hollow Road" />
    <tag k="addr:state" v="VT" />
    <tag k="ref:vcgi:esiteid" v="108445" />
  </node>
  <node id="-106" visible="true" lat="44.75043106" lon="-72.98024749">
    <tag k="addr:housenumber" v="1883" />
    <tag k="addr:street" v="Buck Hollow Road" />
    <tag k="addr:state" v="VT" />
    <tag k="ref:vcgi:esiteid" v="108446" />
  </node>
  <node id="-107" visible="true" lat="44.75000818" lon="-72.98666468">
    <tag k="addr:housenumber" v="120" />
    <tag k="addr:street" v="Kingsland Hollow" />
    <tag k="addr:state" v="VT" />
    <tag k="ref:vcgi:esiteid" v="108447" />
  </node>
  <node id="-108" visible="true" lat="44.74987411" lon="-72.93862152">
    <tag k="addr:housenumber" v="2" />
    <tag k="addr:street" v="Howrigan Road" />
    <tag k="addr:state" v="VT" />
    <tag k="ref:vcgi:esiteid" v="108448" />
  </node>
  <node id="-109" visible="true" lat="44.74933242" lon="-72.98178863">
    <tag k="addr:housenumber" v="1777" />
    <tag k="addr:street" v="Buck Hollow Road" />
    <tag k="addr:state" v="VT" />
    <tag k="ref:vcgi:esiteid" v="108449" />
  </node>
  <node id="-110" visible="true" lat="44.74881557" lon="-72.98283738">
    <tag k="addr:housenumber" v="19" />
    <tag k="addr:street" v="Whitetail Way" />
    <tag k="addr:state" v="VT" />
    <tag k="ref:vcgi:esiteid" v="108450" />
  </node>
  <node id="-111" visible="true" lat="44.74831996" lon="-72.98174307">
    <tag k="addr:housenumber" v="1752" />
    <tag k="addr:street" v="Buck Hollow Road" />
    <tag k="addr:state" v="VT" />
    <tag k="ref:vcgi:esiteid" v="108451" />
  </node>
  <node id="-112" visible="true" lat="44.74751755" lon="-72.97684391">
    <tag k="addr:housenumber" v="277" />
    <tag k="addr:street" v="Robistow Drive" />
    <tag k="addr:state" v="VT" />
    <tag k="ref:vcgi:esiteid" v="108452" />
  </node>
  <node id="-113" visible="true" lat="44.74687576" lon="-72.9285736">
    <tag k="addr:housenumber" v="521" />
    <tag k="addr:street" v="Howrigan Road" />
    <tag k="addr:state" v="VT" />
    <tag k="ref:vcgi:esiteid" v="108453" />
  </node>
  <node id="-114" visible="true" lat="44.74673414" lon="-72.94978629">
    <tag k="addr:housenumber" v="5606" />
    <tag k="addr:street" v="Fairfield Road" />
    <tag k="addr:state" v="VT" />
    <tag k="ref:vcgi:esiteid" v="108454" />
  </node>
  <node id="-115" visible="true" lat="44.74638103" lon="-72.91592233">
    <tag k="addr:housenumber" v="1215" />
    <tag k="addr:street" v="Howrigan Road" />
    <tag k="addr:state" v="VT" />
    <tag k="ref:vcgi:esiteid" v="108455" />
  </node>
  <node id="-116" visible="true" lat="44.74590682" lon="-72.92119598">
    <tag k="addr:housenumber" v="887" />
    <tag k="addr:street" v="Howrigan Road" />
    <tag k="addr:state" v="VT" />
    <tag k="ref:vcgi:esiteid" v="108456" />
  </node>
  <node id="-117" visible="true" lat="44.74567833" lon="-72.98533901">
    <tag k="addr:housenumber" v="1462" />
    <tag k="addr:street" v="Buck Hollow Road" />
    <tag k="addr:state" v="VT" />
    <tag k="ref:vcgi:esiteid" v="108457" />
  </node>
  <node id="-118" visible="true" lat="44.74539947" lon="-72.98841095">
    <tag k="addr:housenumber" v="1443" />
    <tag k="addr:street" v="Buck Hollow Road" />
    <tag k="addr:state" v="VT" />
    <tag k="ref:vcgi:esiteid" v="108458" />
  </node>
  <node id="-119" visible="true" lat="44.74498367" lon="-72.98226165">
    <tag k="addr:housenumber" v="177" />
    <tag k="addr:street" v="Lloyd Road" />
    <tag k="addr:state" v="VT" />
    <tag k="ref:vcgi:esiteid" v="108459" />
  </node>
  <node id="-120" visible="true" lat="44.74509429" lon="-72.9199829">
    <tag k="addr:housenumber" v="963" />
    <tag k="addr:street" v="Howrigan Road" />
    <tag k="addr:state" v="VT" />
    <tag k="ref:vcgi:esiteid" v="108460" />
  </node>
  <node id="-121" visible="true" lat="44.74470269" lon="-72.97950284">
    <tag k="addr:housenumber" v="221" />
    <tag k="addr:street" v="Lloyd Road" />
    <tag k="addr:state" v="VT" />
    <tag k="ref:vcgi:esiteid" v="108461" />
  </node>
  <node id="-122" visible="true" lat="44.74466364" lon="-72.94786823">
    <tag k="addr:housenumber" v="19" />
    <tag k="addr:street" v="Will George Road" />
    <tag k="addr:state" v="VT" />
    <tag k="ref:vcgi:esiteid" v="108462" />
  </node>
  <node id="-123" visible="true" lat="44.74443817" lon="-72.99131011">
    <tag k="addr:housenumber" v="1163" />
    <tag k="addr:street" v="Buck Hollow Road" />
    <tag k="addr:state" v="VT" />
    <tag k="ref:vcgi:esiteid" v="108463" />
  </node>
  <node id="-124" visible="true" lat="44.74464034" lon="-72.91601562">
    <tag k="addr:housenumber" v="1158" />
    <tag k="addr:street" v="Howrigan Road" />
    <tag k="addr:state" v="VT" />
    <tag k="ref:vcgi:esiteid" v="108464" />
  </node>
  <node id="-125" visible="true" lat="44.744104" lon="-72.92045091">
    <tag k="addr:housenumber" v="954" />
    <tag k="addr:street" v="Howrigan Road" />
    <tag k="addr:state" v="VT" />
    <tag k="ref:vcgi:esiteid" v="108465" />
  </node>
  <node id="-126" visible="true" lat="44.74400552" lon="-72.91904827">
    <tag k="addr:housenumber" v="964" />
    <tag k="addr:street" v="Howrigan Road" />
    <tag k="addr:state" v="VT" />
    <tag k="ref:vcgi:esiteid" v="108466" />
  </node>
  <node id="-127" visible="true" lat="44.74367447" lon="-72.98788514">
    <tag k="addr:housenumber" v="1299" />
    <tag k="addr:street" v="Buck Hollow Road" />
    <tag k="addr:state" v="VT" />
    <tag k="ref:vcgi:esiteid" v="108467" />
  </node>
  <node id="-128" visible="true" lat="44.74195599" lon="-72.97886195">
    <tag k="addr:housenumber" v="495" />
    <tag k="addr:street" v="Lloyd Road" />
    <tag k="addr:state" v="VT" />
    <tag k="ref:vcgi:esiteid" v="108468" />
  </node>
  <node id="-129" visible="true" lat="44.74120777" lon="-72.94002386">
    <tag k="addr:housenumber" v="475" />
    <tag k="addr:street" v="Will George Road" />
    <tag k="addr:state" v="VT" />
    <tag k="ref:vcgi:esiteid" v="108469" />
  </node>
  <node id="-130" visible="true" lat="44.74112559" lon="-72.93572048">
    <tag k="addr:housenumber" v="719" />
    <tag k="addr:street" v="Will George Road" />
    <tag k="addr:state" v="VT" />
    <tag k="ref:vcgi:esiteid" v="108470" />
  </node>
  <node id="-131" visible="true" lat="44.74049296" lon="-72.94052293">
    <tag k="addr:housenumber" v="496" />
    <tag k="addr:street" v="Will George Road" />
    <tag k="addr:state" v="VT" />
    <tag k="ref:vcgi:esiteid" v="108471" />
  </node>
  <node id="-132" visible="true" lat="44.74077805" lon="-72.93889749">
    <tag k="addr:housenumber" v="559" />
    <tag k="addr:street" v="Will George Road" />
    <tag k="addr:state" v="VT" />
    <tag k="ref:vcgi:esiteid" v="108472" />
  </node>
  <node id="-133" visible="true" lat="44.74026489" lon="-72.93130493">
    <tag k="addr:housenumber" v="887" />
    <tag k="addr:street" v="Will George Road" />
    <tag k="addr:state" v="VT" />
    <tag k="ref:vcgi:esiteid" v="108473" />
  </node>
  <node id="-134" visible="true" lat="44.74008084" lon="-72.93884381">
    <tag k="addr:housenumber" v="566" />
    <tag k="addr:street" v="Will George Road" />
    <tag k="addr:state" v="VT" />
    <tag k="ref:vcgi:esiteid" v="108474" />
  </node>
  <node id="-135" visible="true" lat="44.73929033" lon="-72.93491131">
    <tag k="addr:housenumber" v="778" />
    <tag k="addr:street" v="Will George Road" />
    <tag k="addr:state" v="VT" />
    <tag k="ref:vcgi:esiteid" v="108475" />
  </node>
  <node id="-136" visible="true" lat="44.73980458" lon="-72.98098483">
    <tag k="addr:housenumber" v="653" />
    <tag k="addr:street" v="Lloyd Road" />
    <tag k="addr:state" v="VT" />
    <tag k="ref:vcgi:esiteid" v="108476" />
  </node>
  <node id="-137" visible="true" lat="44.73917388" lon="-72.92713928">
    <tag k="addr:housenumber" v="1297" />
    <tag k="addr:street" v="Will George Road" />
    <tag k="addr:state" v="VT" />
    <tag k="ref:vcgi:esiteid" v="108477" />
  </node>
  <node id="-138" visible="true" lat="44.73856169" lon="-72.9303228">
    <tag k="addr:housenumber" v="1013" />
    <tag k="addr:street" v="Will George Road" />
    <tag k="addr:state" v="VT" />
    <tag k="ref:vcgi:esiteid" v="108478" />
  </node>
  <node id="-139" visible="true" lat="44.7381151" lon="-72.93278538">
    <tag k="addr:housenumber" v="920" />
    <tag k="addr:street" v="Will George Road" />
    <tag k="addr:state" v="VT" />
    <tag k="ref:vcgi:esiteid" v="108479" />
  </node>
  <node id="-140" visible="true" lat="44.73726314" lon="-72.9491162">
    <tag k="addr:housenumber" v="4965" />
    <tag k="addr:street" v="Fairfield Road" />
    <tag k="addr:state" v="VT" />
    <tag k="ref:vcgi:esiteid" v="108480" />
  </node>
  <node id="-141" visible="true" lat="44.73740014" lon="-72.92569263">
    <tag k="addr:housenumber" v="1202" />
    <tag k="addr:street" v="Will George Road" />
    <tag k="addr:state" v="VT" />
    <tag k="ref:vcgi:esiteid" v="108481" />
  </node>
  <node id="-142" visible="true" lat="44.73677444" lon="-72.88050842">
    <tag k="addr:housenumber" v="1359" />
    <tag k="addr:street" v="Taylor Road" />
    <tag k="addr:state" v="VT" />
    <tag k="ref:vcgi:esiteid" v="108482" />
  </node>
  <node id="-143" visible="true" lat="44.73689174" lon="-72.87857606">
    <tag k="addr:housenumber" v="1463" />
    <tag k="addr:street" v="Taylor Road" />
    <tag k="addr:state" v="VT" />
    <tag k="ref:vcgi:esiteid" v="108483" />
  </node>
  <node id="-144" visible="true" lat="44.73556858" lon="-72.87918082">
    <tag k="addr:housenumber" v="1458" />
    <tag k="addr:street" v="Taylor Road" />
    <tag k="addr:state" v="VT" />
    <tag k="ref:vcgi:esiteid" v="108484" />
  </node>
  <node id="-145" visible="true" lat="44.73479843" lon="-72.94986724">
    <tag k="addr:housenumber" v="4757" />
    <tag k="addr:street" v="Fairfield Road" />
    <tag k="addr:state" v="VT" />
    <tag k="ref:vcgi:esiteid" v="108485" />
  </node>
  <node id="-146" visible="true" lat="44.73446122" lon="-72.88209101">
    <tag k="addr:housenumber" v="1362" />
    <tag k="addr:street" v="Taylor Road" />
    <tag k="addr:state" v="VT" />
    <tag k="ref:vcgi:esiteid" v="108486" />
  </node>
  <node id="-147" visible="true" lat="44.73430202" lon="-72.88301929">
    <tag k="addr:housenumber" v="121" />
    <tag k="addr:street" v="Reynolds Road" />
    <tag k="addr:state" v="VT" />
    <tag k="ref:vcgi:esiteid" v="108487" />
  </node>
  <node id="-148" visible="true" lat="44.73411669" lon="-72.88360359">
    <tag k="addr:housenumber" v="143" />
    <tag k="addr:street" v="Reynolds Road" />
    <tag k="addr:state" v="VT" />
    <tag k="ref:vcgi:esiteid" v="108488" />
  </node>
  <node id="-149" visible="true" lat="44.73389553" lon="-72.94860176">
    <tag k="addr:housenumber" v="4690" />
    <tag k="addr:street" v="Fairfield Road" />
    <tag k="addr:state" v="VT" />
    <tag k="ref:vcgi:esiteid" v="108489" />
  </node>
  <node id="-150" visible="true" lat="44.73371928" lon="-72.88987807">
    <tag k="addr:housenumber" v="798" />
    <tag k="addr:street" v="Taylor Road" />
    <tag k="addr:state" v="VT" />
    <tag k="ref:vcgi:esiteid" v="108490" />
  </node>
  <node id="-151" visible="true" lat="44.73337795" lon="-72.88424417">
    <tag k="addr:housenumber" v="203" />
    <tag k="addr:street" v="Reynolds Road" />
    <tag k="addr:state" v="VT" />
    <tag k="ref:vcgi:esiteid" v="108491" />
  </node>
  <node id="-152" visible="true" lat="44.73401746" lon="-72.88355267">
    <tag k="addr:housenumber" v="145" />
    <tag k="addr:street" v="Reynolds Road" />
    <tag k="addr:state" v="VT" />
    <tag k="ref:vcgi:esiteid" v="108492" />
  </node>
  <node id="-153" visible="true" lat="44.73368174" lon="-72.88386566">
    <tag k="addr:housenumber" v="173" />
    <tag k="addr:street" v="Reynolds Road" />
    <tag k="addr:state" v="VT" />
    <tag k="ref:vcgi:esiteid" v="108493" />
  </node>
  <node id="-154" visible="true" lat="44.73321205" lon="-72.92905289">
    <tag k="addr:housenumber" v="227" />
    <tag k="addr:street" v="Kennedy Drive" />
    <tag k="addr:state" v="VT" />
    <tag k="ref:vcgi:esiteid" v="108494" />
  </node>
  <node id="-155" visible="true" lat="44.73312693" lon="-72.94763242">
    <tag k="addr:housenumber" v="4606" />
    <tag k="addr:street" v="Fairfield Road" />
    <tag k="addr:state" v="VT" />
    <tag k="ref:vcgi:esiteid" v="108495" />
  </node>
  <node id="-156" visible="true" lat="44.72210974" lon="-72.95155736">
    <tag k="addr:housenumber" v="3840" />
    <tag k="addr:street" v="Fairfield Road" />
    <tag k="addr:state" v="VT" />
    <tag k="ref:vcgi:esiteid" v="108496" />
  </node>
  <node id="-157" visible="true" lat="44.73308829" lon="-72.94898694">
    <tag k="addr:housenumber" v="4648" />
    <tag k="addr:street" v="Fairfield Road" />
    <tag k="addr:state" v="VT" />
    <tag k="ref:vcgi:esiteid" v="108497" />
  </node>
  <node id="-158" visible="true" lat="44.73294783" lon="-72.88422007">
    <tag k="addr:housenumber" v="255" />
    <tag k="addr:street" v="Reynolds Road" />
    <tag k="addr:state" v="VT" />
    <tag k="ref:vcgi:esiteid" v="108499" />
  </node>
  <node id="-159" visible="true" lat="44.73246383" lon="-72.95088195">
    <tag k="addr:housenumber" v="76" />
    <tag k="addr:street" v="Snide Road" />
    <tag k="addr:state" v="VT" />
    <tag k="ref:vcgi:esiteid" v="108500" />
  </node>
  <node id="-160" visible="true" lat="44.73266983" lon="-72.8844223">
    <tag k="addr:housenumber" v="257" />
    <tag k="addr:street" v="Reynolds Road" />
    <tag k="addr:state" v="VT" />
    <tag k="ref:vcgi:esiteid" v="108501" />
  </node>
  <node id="-161" visible="true" lat="44.73222964" lon="-72.88484172">
    <tag k="addr:housenumber" v="259" />
    <tag k="addr:street" v="Reynolds Road" />
    <tag k="addr:state" v="VT" />
    <tag k="ref:vcgi:esiteid" v="108502" />
  </node>
  <node id="-162" visible="true" lat="44.73196659" lon="-72.95140723">
    <tag k="addr:housenumber" v="95" />
    <tag k="addr:street" v="Snide Road" />
    <tag k="addr:state" v="VT" />
    <tag k="ref:vcgi:esiteid" v="108503" />
  </node>
  <node id="-163" visible="true" lat="44.73207092" lon="-72.94950103">
    <tag k="addr:housenumber" v="4577" />
    <tag k="addr:street" v="Fairfield Road" />
    <tag k="addr:state" v="VT" />
    <tag k="ref:vcgi:esiteid" v="108504" />
  </node>
  <node id="-164" visible="true" lat="44.73193359" lon="-72.95231628">
    <tag k="addr:housenumber" v="107" />
    <tag k="addr:street" v="Snide Road" />
    <tag k="addr:state" v="VT" />
    <tag k="ref:vcgi:esiteid" v="108505" />
  </node>
  <node id="-165" visible="true" lat="44.73217343" lon="-72.88518107">
    <tag k="addr:housenumber" v="305" />
    <tag k="addr:street" v="Reynolds Road" />
    <tag k="addr:state" v="VT" />
    <tag k="ref:vcgi:esiteid" v="108506" />
  </node>
  <node id="-166" visible="true" lat="44.73193602" lon="-72.88555138">
    <tag k="addr:housenumber" v="319" />
    <tag k="addr:street" v="Reynolds Road" />
    <tag k="addr:state" v="VT" />
    <tag k="ref:vcgi:esiteid" v="108507" />
  </node>
  <node id="-167" visible="true" lat="44.73184701" lon="-72.88576431">
    <tag k="addr:housenumber" v="339" />
    <tag k="addr:street" v="Reynolds Road" />
    <tag k="addr:state" v="VT" />
    <tag k="ref:vcgi:esiteid" v="108508" />
  </node>
  <node id="-168" visible="true" lat="44.7317666" lon="-72.88611219">
    <tag k="addr:housenumber" v="321" />
    <tag k="addr:street" v="Reynolds Road" />
    <tag k="addr:state" v="VT" />
    <tag k="ref:vcgi:esiteid" v="108509" />
  </node>
  <node id="-169" visible="true" lat="44.73199844" lon="-72.82754516">
    <tag k="addr:housenumber" v="2300" />
    <tag k="addr:street" v="Bakersfield Road" />
    <tag k="addr:state" v="VT" />
    <tag k="ref:vcgi:esiteid" v="108510" />
  </node>
  <node id="-170" visible="true" lat="44.73157882" lon="-72.94953155">
    <tag k="addr:housenumber" v="4543" />
    <tag k="addr:street" v="Fairfield Road" />
    <tag k="addr:state" v="VT" />
    <tag k="ref:vcgi:esiteid" v="108511" />
  </node>
  <node id="-171" visible="true" lat="44.73159906" lon="-72.88634232">
    <tag k="addr:housenumber" v="361" />
    <tag k="addr:street" v="Reynolds Road" />
    <tag k="addr:state" v="VT" />
    <tag k="ref:vcgi:esiteid" v="108512" />
  </node>
  <node id="-172" visible="true" lat="44.73074041" lon="-72.94993212">
    <tag k="addr:housenumber" v="4477" />
    <tag k="addr:street" v="Fairfield Road" />
    <tag k="addr:state" v="VT" />
    <tag k="ref:vcgi:esiteid" v="108513" />
  </node>
  <node id="-173" visible="true" lat="44.7300289" lon="-72.82993927">
    <tag k="addr:housenumber" v="2093" />
    <tag k="addr:street" v="Bakersfield Road" />
    <tag k="addr:state" v="VT" />
    <tag k="ref:vcgi:esiteid" v="108514" />
  </node>
  <node id="-174" visible="true" lat="44.72972106" lon="-72.88658142">
    <tag k="addr:housenumber" v="257" />
    <tag k="addr:street" v="Noble Road" />
    <tag k="addr:state" v="VT" />
    <tag k="ref:vcgi:esiteid" v="108515" />
  </node>
  <node id="-175" visible="true" lat="44.7293292" lon="-72.94976137">
    <tag k="addr:housenumber" v="4385" />
    <tag k="addr:street" v="Fairfield Road" />
    <tag k="addr:state" v="VT" />
    <tag k="ref:vcgi:esiteid" v="108516" />
  </node>
  <node id="-176" visible="true" lat="44.7292366" lon="-72.88481903">
    <tag k="addr:housenumber" v="259" />
    <tag k="addr:street" v="Noble Road" />
    <tag k="addr:state" v="VT" />
    <tag k="ref:vcgi:esiteid" v="108517" />
  </node>
  <node id="-177" visible="true" lat="44.72908782" lon="-72.89376068">
    <tag k="addr:housenumber" v="381" />
    <tag k="addr:street" v="Taylor Road" />
    <tag k="addr:state" v="VT" />
    <tag k="ref:vcgi:esiteid" v="108518" />
  </node>
  <node id="-178" visible="true" lat="44.72890294" lon="-72.88600351">
    <tag k="addr:housenumber" v="333" />
    <tag k="addr:street" v="Noble Road" />
    <tag k="addr:state" v="VT" />
    <tag k="ref:vcgi:esiteid" v="108519" />
  </node>
  <node id="-179" visible="true" lat="44.72862105" lon="-72.88565252">
    <tag k="addr:housenumber" v="343" />
    <tag k="addr:street" v="Noble Road" />
    <tag k="addr:state" v="VT" />
    <tag k="ref:vcgi:esiteid" v="108520" />
  </node>
  <node id="-180" visible="true" lat="44.72848543" lon="-72.88590021">
    <tag k="addr:housenumber" v="349" />
    <tag k="addr:street" v="Noble Road" />
    <tag k="addr:state" v="VT" />
    <tag k="ref:vcgi:esiteid" v="108521" />
  </node>
  <node id="-181" visible="true" lat="44.72838581" lon="-72.88608269">
    <tag k="addr:housenumber" v="357" />
    <tag k="addr:street" v="Noble Road" />
    <tag k="addr:state" v="VT" />
    <tag k="ref:vcgi:esiteid" v="108522" />
  </node>
  <node id="-182" visible="true" lat="44.72760631" lon="-72.94998636">
    <tag k="addr:housenumber" v="4266" />
    <tag k="addr:street" v="Fairfield Road" />
    <tag k="addr:state" v="VT" />
    <tag k="ref:vcgi:esiteid" v="108523" />
  </node>
  <node id="-184" visible="true" lat="44.72751617" lon="-72.95159149">
    <tag k="addr:housenumber" v="4227" />
    <tag k="addr:street" v="Fairfield Road" />
    <tag k="addr:state" v="VT" />
    <tag k="ref:vcgi:esiteid" v="108525" />
  </node>
  <node id="-185" visible="true" lat="44.72747039" lon="-72.88610839">
    <tag k="addr:housenumber" v="415" />
    <tag k="addr:street" v="Noble Road" />
    <tag k="addr:state" v="VT" />
    <tag k="ref:vcgi:esiteid" v="108526" />
  </node>
  <node id="-186" visible="true" lat="44.72731399" lon="-72.88253021">
    <tag k="addr:housenumber" v="371" />
    <tag k="addr:street" v="South Shore Drive" />
    <tag k="addr:state" v="VT" />
    <tag k="ref:vcgi:esiteid" v="108527" />
  </node>
  <node id="-187" visible="true" lat="44.72723007" lon="-72.88600921">
    <tag k="addr:housenumber" v="431" />
    <tag k="addr:street" v="Noble Road" />
    <tag k="addr:state" v="VT" />
    <tag k="ref:vcgi:esiteid" v="108528" />
  </node>
  <node id="-188" visible="true" lat="44.72702352" lon="-72.89411186">
    <tag k="addr:housenumber" v="273" />
    <tag k="addr:street" v="Taylor Road" />
    <tag k="addr:state" v="VT" />
    <tag k="ref:vcgi:esiteid" v="108529" />
  </node>
  <node id="-189" visible="true" lat="44.72632379" lon="-72.9520249">
    <tag k="addr:housenumber" v="4110" />
    <tag k="addr:street" v="Fairfield Road" />
    <tag k="addr:state" v="VT" />
    <tag k="ref:vcgi:esiteid" v="108530" />
  </node>
  <node id="-190" visible="true" lat="44.72652719" lon="-72.89346419">
    <tag k="addr:housenumber" v="230" />
    <tag k="addr:street" v="Taylor Road" />
    <tag k="addr:state" v="VT" />
    <tag k="ref:vcgi:esiteid" v="108531" />
  </node>
  <node id="-191" visible="true" lat="44.72595596" lon="-72.88546752">
    <tag k="addr:housenumber" v="252" />
    <tag k="addr:street" v="Ross Road" />
    <tag k="addr:state" v="VT" />
    <tag k="ref:vcgi:esiteid" v="108532" />
  </node>
  <node id="-192" visible="true" lat="44.72574997" lon="-72.88527679">
    <tag k="addr:housenumber" v="250" />
    <tag k="addr:street" v="Ross Road" />
    <tag k="addr:state" v="VT" />
    <tag k="ref:vcgi:esiteid" v="108533" />
  </node>
  <node id="-193" visible="true" lat="44.72565078" lon="-72.88459014">
    <tag k="addr:housenumber" v="224" />
    <tag k="addr:street" v="Ross Road" />
    <tag k="addr:state" v="VT" />
    <tag k="ref:vcgi:esiteid" v="108534" />
  </node>
  <node id="-194" visible="true" lat="44.72567367" lon="-72.84884643">
    <tag k="addr:housenumber" v="2688" />
    <tag k="addr:street" v="Kinsley Road" />
    <tag k="addr:state" v="VT" />
    <tag k="ref:vcgi:esiteid" v="108535" />
  </node>
  <node id="-195" visible="true" lat="44.72522354" lon="-72.88425445">
    <tag k="addr:housenumber" v="212" />
    <tag k="addr:street" v="Ross Road" />
    <tag k="addr:state" v="VT" />
    <tag k="ref:vcgi:esiteid" v="108536" />
  </node>
  <node id="-196" visible="true" lat="44.72436217" lon="-72.89416074">
    <tag k="addr:housenumber" v="86" />
    <tag k="addr:street" v="Taylor Road" />
    <tag k="addr:state" v="VT" />
    <tag k="ref:vcgi:esiteid" v="108537" />
  </node>
  <node id="-197" visible="true" lat="44.72434616" lon="-72.88471221">
    <tag k="addr:housenumber" v="72" />
    <tag k="addr:street" v="Scott Road" />
    <tag k="addr:state" v="VT" />
    <tag k="ref:vcgi:esiteid" v="108538" />
  </node>
  <node id="-198" visible="true" lat="44.72409123" lon="-72.8816641">
    <tag k="addr:housenumber" v="149" />
    <tag k="addr:street" v="South Shore Drive" />
    <tag k="addr:state" v="VT" />
    <tag k="ref:vcgi:esiteid" v="108539" />
  </node>
  <node id="-199" visible="true" lat="44.72407531" lon="-72.88457488">
    <tag k="addr:housenumber" v="64" />
    <tag k="addr:street" v="Scott Road" />
    <tag k="addr:state" v="VT" />
    <tag k="ref:vcgi:esiteid" v="108540" />
  </node>
  <node id="-200" visible="true" lat="44.72382736" lon="-72.88445281">
    <tag k="addr:housenumber" v="46" />
    <tag k="addr:street" v="Scott Road" />
    <tag k="addr:state" v="VT" />
    <tag k="ref:vcgi:esiteid" v="108541" />
  </node>
  <node id="-201" visible="true" lat="44.72369766" lon="-72.88435363">
    <tag k="addr:housenumber" v="38" />
    <tag k="addr:street" v="Scott Road" />
    <tag k="addr:state" v="VT" />
    <tag k="ref:vcgi:esiteid" v="108542" />
  </node>
  <node id="-202" visible="true" lat="44.72347143" lon="-72.89755806">
    <tag k="addr:housenumber" v="2567" />
    <tag k="addr:street" v="Pond Road" />
    <tag k="addr:state" v="VT" />
    <tag k="ref:vcgi:esiteid" v="108543" />
  </node>
  <node id="-203" visible="true" lat="44.72349929" lon="-72.88426971">
    <tag k="addr:housenumber" v="26" />
    <tag k="addr:street" v="Scott Road" />
    <tag k="addr:state" v="VT" />
    <tag k="ref:vcgi:esiteid" v="108544" />
  </node>
  <node id="-204" visible="true" lat="44.72343624" lon="-72.88196538">
    <tag k="addr:housenumber" v="86" />
    <tag k="addr:street" v="South Shore Drive" />
    <tag k="addr:state" v="VT" />
    <tag k="ref:vcgi:esiteid" v="108545" />
  </node>
  <node id="-205" visible="true" lat="44.72317723" lon="-72.93267349">
    <tag k="addr:housenumber" v="1223" />
    <tag k="addr:street" v="Mayotte Road" />
    <tag k="addr:state" v="VT" />
    <tag k="ref:vcgi:esiteid" v="108546" />
  </node>
  <node id="-206" visible="true" lat="44.72322463" lon="-72.88430023">
    <tag k="addr:housenumber" v="3265" />
    <tag k="addr:street" v="Pond Road" />
    <tag k="addr:state" v="VT" />
    <tag k="ref:vcgi:esiteid" v="108547" />
  </node>
  <node id="-207" visible="true" lat="44.72313733" lon="-72.88243765">
    <tag k="addr:housenumber" v="65" />
    <tag k="addr:street" v="South Shore Drive" />
    <tag k="addr:state" v="VT" />
    <tag k="ref:vcgi:esiteid" v="108548" />
  </node>
  <node id="-208" visible="true" lat="44.72303603" lon="-72.88261989">
    <tag k="addr:housenumber" v="45" />
    <tag k="addr:street" v="South Shore Drive" />
    <tag k="addr:state" v="VT" />
    <tag k="ref:vcgi:esiteid" v="108549" />
  </node>
  <node id="-209" visible="true" lat="44.72302246" lon="-72.88276672">
    <tag k="addr:housenumber" v="37" />
    <tag k="addr:street" v="South Shore Drive" />
    <tag k="addr:state" v="VT" />
    <tag k="ref:vcgi:esiteid" v="108550" />
  </node>
  <node id="-210" visible="true" lat="44.72301483" lon="-72.88357543">
    <tag k="addr:housenumber" v="3301" />
    <tag k="addr:street" v="Pond Road" />
    <tag k="addr:state" v="VT" />
    <tag k="ref:vcgi:esiteid" v="108551" />
  </node>
  <node id="-211" visible="true" lat="44.72304006" lon="-72.88300537">
    <tag k="addr:housenumber" v="29" />
    <tag k="addr:street" v="South Shore Drive" />
    <tag k="addr:state" v="VT" />
    <tag k="ref:vcgi:esiteid" v="108552" />
  </node>
  <node id="-212" visible="true" lat="44.72303745" lon="-72.88333187">
    <tag k="addr:housenumber" v="9" />
    <tag k="addr:street" v="South Shore Drive" />
    <tag k="addr:state" v="VT" />
    <tag k="ref:vcgi:esiteid" v="108553" />
  </node>
  <node id="-213" visible="true" lat="44.72301838" lon="-72.88311824">
    <tag k="addr:housenumber" v="21" />
    <tag k="addr:street" v="South Shore Drive" />
    <tag k="addr:state" v="VT" />
    <tag k="ref:vcgi:esiteid" v="108554" />
  </node>
  <node id="-214" visible="true" lat="44.72284699" lon="-72.88376045">
    <tag k="addr:housenumber" v="3302" />
    <tag k="addr:street" v="Pond Road" />
    <tag k="addr:state" v="VT" />
    <tag k="ref:vcgi:esiteid" v="108555" />
  </node>
  <node id="-215" visible="true" lat="44.72284698" lon="-72.88249969">
    <tag k="addr:housenumber" v="46" />
    <tag k="addr:street" v="South Shore Drive" />
    <tag k="addr:state" v="VT" />
    <tag k="ref:vcgi:esiteid" v="108556" />
  </node>
  <node id="-216" visible="true" lat="44.72278571" lon="-72.89481608">
    <tag k="addr:housenumber" v="2709" />
    <tag k="addr:street" v="Pond Road" />
    <tag k="addr:state" v="VT" />
    <tag k="ref:vcgi:esiteid" v="108557" />
  </node>
  <node id="-217" visible="true" lat="44.72247314" lon="-72.88350677">
    <tag k="addr:housenumber" v="3334" />
    <tag k="addr:street" v="Pond Road" />
    <tag k="addr:state" v="VT" />
    <tag k="ref:vcgi:esiteid" v="108558" />
  </node>
  <node id="-218" visible="true" lat="44.72229544" lon="-72.88887097">
    <tag k="addr:housenumber" v="3033" />
    <tag k="addr:street" v="Pond Road" />
    <tag k="addr:state" v="VT" />
    <tag k="ref:vcgi:esiteid" v="108559" />
  </node>
  <node id="-219" visible="true" lat="44.72195434" lon="-72.89791107">
    <tag k="addr:housenumber" v="2487" />
    <tag k="addr:street" v="Pond Road" />
    <tag k="addr:state" v="VT" />
    <tag k="ref:vcgi:esiteid" v="108560" />
  </node>
  <node id="-220" visible="true" lat="44.72197404" lon="-72.84666318">
    <tag k="addr:housenumber" v="2208" />
    <tag k="addr:street" v="Kinsley Road" />
    <tag k="addr:state" v="VT" />
    <tag k="ref:vcgi:esiteid" v="108561" />
  </node>
  <node id="-221" visible="true" lat="44.72162954" lon="-72.93152346">
    <tag k="addr:housenumber" v="1212" />
    <tag k="addr:street" v="Mayotte Road" />
    <tag k="addr:state" v="VT" />
    <tag k="ref:vcgi:esiteid" v="108562" />
  </node>
  <node id="-222" visible="true" lat="44.72144699" lon="-72.84403991">
    <tag k="addr:housenumber" v="2170" />
    <tag k="addr:street" v="Kinsley Road" />
    <tag k="addr:state" v="VT" />
    <tag k="ref:vcgi:esiteid" v="108563" />
  </node>
  <node id="-223" visible="true" lat="44.72117996" lon="-72.87963867">
    <tag k="addr:housenumber" v="3571" />
    <tag k="addr:street" v="Pond Road" />
    <tag k="addr:state" v="VT" />
    <tag k="ref:vcgi:esiteid" v="108564" />
  </node>
  <node id="-224" visible="true" lat="44.72124743" lon="-72.88060716">
    <tag k="addr:housenumber" v="3535" />
    <tag k="addr:street" v="Pond Road" />
    <tag k="addr:state" v="VT" />
    <tag k="ref:vcgi:esiteid" v="108565" />
  </node>
  <node id="-225" visible="true" lat="44.72083663" lon="-72.84716796">
    <tag k="addr:housenumber" v="2166" />
    <tag k="addr:street" v="Kinsley Road" />
    <tag k="addr:state" v="VT" />
    <tag k="ref:vcgi:esiteid" v="108566" />
  </node>
  <node id="-226" visible="true" lat="44.72053527" lon="-72.84821319">
    <tag k="addr:housenumber" v="2129" />
    <tag k="addr:street" v="Kinsley Road" />
    <tag k="addr:state" v="VT" />
    <tag k="ref:vcgi:esiteid" v="108567" />
  </node>
  <node id="-227" visible="true" lat="44.72008027" lon="-72.95471178">
    <tag k="addr:housenumber" v="3687" />
    <tag k="addr:street" v="Fairfield Road" />
    <tag k="addr:state" v="VT" />
    <tag k="ref:vcgi:esiteid" v="108568" />
  </node>
  <node id="-228" visible="true" lat="44.71974353" lon="-72.95374733">
    <tag k="addr:housenumber" v="3662" />
    <tag k="addr:street" v="Fairfield Road" />
    <tag k="addr:state" v="VT" />
    <tag k="ref:vcgi:esiteid" v="108569" />
  </node>
  <node id="-229" visible="true" lat="44.71967697" lon="-72.84792327">
    <tag k="addr:housenumber" v="2070" />
    <tag k="addr:street" v="Kinsley Road" />
    <tag k="addr:state" v="VT" />
    <tag k="ref:vcgi:esiteid" v="108570" />
  </node>
  <node id="-230" visible="true" lat="44.71939606" lon="-72.93470618">
    <tag k="addr:housenumber" v="999" />
    <tag k="addr:street" v="Mayotte Road" />
    <tag k="addr:state" v="VT" />
    <tag k="ref:vcgi:esiteid" v="108571" />
  </node>
  <node id="-231" visible="true" lat="44.71934122" lon="-72.9022293">
    <tag k="addr:housenumber" v="2585" />
    <tag k="addr:street" v="North Road" />
    <tag k="addr:state" v="VT" />
    <tag k="ref:vcgi:esiteid" v="108572" />
  </node>
  <node id="-232" visible="true" lat="44.71928787" lon="-72.89764404">
    <tag k="addr:housenumber" v="2300" />
    <tag k="addr:street" v="Pond Road" />
    <tag k="addr:state" v="VT" />
    <tag k="ref:vcgi:esiteid" v="108573" />
  </node>
  <node id="-233" visible="true" lat="44.71841383" lon="-72.95480643">
    <tag k="addr:housenumber" v="3570" />
    <tag k="addr:street" v="Fairfield Road" />
    <tag k="addr:state" v="VT" />
    <tag k="ref:vcgi:esiteid" v="108574" />
  </node>
  <node id="-234" visible="true" lat="44.71868133" lon="-72.90190124">
    <tag k="addr:housenumber" v="2583" />
    <tag k="addr:street" v="North Road" />
    <tag k="addr:state" v="VT" />
    <tag k="ref:vcgi:esiteid" v="108575" />
  </node>
  <node id="-235" visible="true" lat="44.71854075" lon="-72.92002221">
    <tag k="addr:housenumber" v="760" />
    <tag k="addr:street" v="Boozan Hill Road" />
    <tag k="addr:state" v="VT" />
    <tag k="ref:vcgi:esiteid" v="108576" />
  </node>
  <node id="-236" visible="true" lat="44.71849059" lon="-72.84861755">
    <tag k="addr:housenumber" v="1946" />
    <tag k="addr:street" v="Kinsley Road" />
    <tag k="addr:state" v="VT" />
    <tag k="ref:vcgi:esiteid" v="108577" />
  </node>
  <node id="-237" visible="true" lat="44.71821212" lon="-72.89733886">
    <tag k="addr:housenumber" v="2226" />
    <tag k="addr:street" v="Pond Road" />
    <tag k="addr:state" v="VT" />
    <tag k="ref:vcgi:esiteid" v="108578" />
  </node>
  <node id="-238" visible="true" lat="44.71803665" lon="-72.92026519">
    <tag k="addr:housenumber" v="761" />
    <tag k="addr:street" v="Boozan Hill Road" />
    <tag k="addr:state" v="VT" />
    <tag k="ref:vcgi:esiteid" v="108579" />
  </node>
  <node id="-239" visible="true" lat="44.71804046" lon="-72.90261077">
    <tag k="addr:housenumber" v="2563" />
    <tag k="addr:street" v="North Road" />
    <tag k="addr:state" v="VT" />
    <tag k="ref:vcgi:esiteid" v="108580" />
  </node>
  <node id="-240" visible="true" lat="44.71771248" lon="-72.95753867">
    <tag k="addr:housenumber" v="46" />
    <tag k="addr:street" v="Ellsworth Road" />
    <tag k="addr:state" v="VT" />
    <tag k="ref:vcgi:esiteid" v="108581" />
  </node>
  <node id="-241" visible="true" lat="44.7180134" lon="-72.84981312">
    <tag k="addr:housenumber" v="1917" />
    <tag k="addr:street" v="Kinsley Road" />
    <tag k="addr:state" v="VT" />
    <tag k="ref:vcgi:esiteid" v="108582" />
  </node>
  <node id="-242" visible="true" lat="44.71766999" lon="-72.89838069">
    <tag k="addr:housenumber" v="2184" />
    <tag k="addr:street" v="Pond Road" />
    <tag k="addr:state" v="VT" />
    <tag k="ref:vcgi:esiteid" v="108583" />
  </node>
  <node id="-243" visible="true" lat="44.71791569" lon="-72.93546662">
    <tag k="addr:housenumber" v="887" />
    <tag k="addr:street" v="Mayotte Road" />
    <tag k="addr:state" v="VT" />
    <tag k="ref:vcgi:esiteid" v="108584" />
  </node>
  <node id="-244" visible="true" lat="44.71678543" lon="-72.89937591">
    <tag k="addr:housenumber" v="2738" />
    <tag k="addr:street" v="North Road" />
    <tag k="addr:state" v="VT" />
    <tag k="ref:vcgi:esiteid" v="108585" />
  </node>
  <node id="-245" visible="true" lat="44.71620941" lon="-72.9107666">
    <tag k="addr:housenumber" v="296" />
    <tag k="addr:street" v="Boozan Hill Road" />
    <tag k="addr:state" v="VT" />
    <tag k="ref:vcgi:esiteid" v="108586" />
  </node>
  <node id="-246" visible="true" lat="44.71591153" lon="-72.95127803">
    <tag k="addr:housenumber" v="3206" />
    <tag k="addr:street" v="Fairfield Road" />
    <tag k="addr:state" v="VT" />
    <tag k="ref:vcgi:esiteid" v="108587" />
  </node>
  <node id="-247" visible="true" lat="44.71592644" lon="-72.9110506">
    <tag k="addr:housenumber" v="297" />
    <tag k="addr:street" v="Boozan Hill Road" />
    <tag k="addr:state" v="VT" />
    <tag k="ref:vcgi:esiteid" v="108588" />
  </node>
  <node id="-248" visible="true" lat="44.71605963" lon="-72.84993569">
    <tag k="addr:housenumber" v="1796" />
    <tag k="addr:street" v="Kinsley Road" />
    <tag k="addr:state" v="VT" />
    <tag k="ref:vcgi:esiteid" v="108589" />
  </node>
  <node id="-249" visible="true" lat="44.71569253" lon="-72.89856366">
    <tag k="addr:housenumber" v="2070" />
    <tag k="addr:street" v="Pond Road" />
    <tag k="addr:state" v="VT" />
    <tag k="ref:vcgi:esiteid" v="108590" />
  </node>
  <node id="-250" visible="true" lat="44.71578531" lon="-72.93663656">
    <tag k="addr:housenumber" v="743" />
    <tag k="addr:street" v="Mayotte Road" />
    <tag k="addr:state" v="VT" />
    <tag k="ref:vcgi:esiteid" v="108591" />
  </node>
  <node id="-251" visible="true" lat="44.71558903" lon="-72.91396186">
    <tag k="addr:housenumber" v="29" />
    <tag k="addr:street" v="Sugar Hill Road" />
    <tag k="addr:state" v="VT" />
    <tag k="ref:vcgi:esiteid" v="108592" />
  </node>
  <node id="-252" visible="true" lat="44.71570738" lon="-72.85983146">
    <tag k="addr:housenumber" v="293" />
    <tag k="addr:street" v="Vreeland Road" />
    <tag k="addr:state" v="VT" />
    <tag k="ref:vcgi:esiteid" v="108593" />
  </node>
  <node id="-253" visible="true" lat="44.71551367" lon="-72.93449014">
    <tag k="addr:housenumber" v="131" />
    <tag k="addr:street" v="Blackberry Hill Road" />
    <tag k="addr:state" v="VT" />
    <tag k="ref:vcgi:esiteid" v="108594" />
  </node>
  <node id="-254" visible="true" lat="44.71571752" lon="-72.83674693">
    <tag k="addr:housenumber" v="173" />
    <tag k="addr:street" v="Lange Road" />
    <tag k="addr:state" v="VT" />
    <tag k="ref:vcgi:esiteid" v="108595" />
  </node>
  <node id="-255" visible="true" lat="44.71527372" lon="-72.83944482">
    <tag k="addr:housenumber" v="799" />
    <tag k="addr:street" v="Bakersfield Road" />
    <tag k="addr:state" v="VT" />
    <tag k="ref:vcgi:esiteid" v="108596" />
  </node>
  <node id="-256" visible="true" lat="44.71461369" lon="-72.93308882">
    <tag k="addr:housenumber" v="231" />
    <tag k="addr:street" v="Blackberry Hill Road" />
    <tag k="addr:state" v="VT" />
    <tag k="ref:vcgi:esiteid" v="108597" />
  </node>
  <node id="-257" visible="true" lat="44.71435296" lon="-72.93539457">
    <tag k="addr:housenumber" v="85" />
    <tag k="addr:street" v="Blackberry Hill Road" />
    <tag k="addr:state" v="VT" />
    <tag k="ref:vcgi:esiteid" v="108598" />
  </node>
  <node id="-258" visible="true" lat="44.71420923" lon="-72.93683147">
    <tag k="addr:housenumber" v="649" />
    <tag k="addr:street" v="Mayotte Road" />
    <tag k="addr:state" v="VT" />
    <tag k="ref:vcgi:esiteid" v="108599" />
  </node>
  <node id="-259" visible="true" lat="44.71431617" lon="-72.89843189">
    <tag k="addr:housenumber" v="1868" />
    <tag k="addr:street" v="Pond Road" />
    <tag k="addr:state" v="VT" />
    <tag k="ref:vcgi:esiteid" v="108600" />
  </node>
  <node id="-260" visible="true" lat="44.71421758" lon="-72.89989261">
    <tag k="addr:housenumber" v="1951" />
    <tag k="addr:street" v="Pond Road" />
    <tag k="addr:state" v="VT" />
    <tag k="ref:vcgi:esiteid" v="108601" />
  </node>
  <node id="-261" visible="true" lat="44.71440481" lon="-72.8317795">
    <tag k="addr:housenumber" v="952" />
    <tag k="addr:street" v="Bakersfield Road" />
    <tag k="addr:state" v="VT" />
    <tag k="ref:vcgi:esiteid" v="108602" />
  </node>
  <node id="-262" visible="true" lat="44.7139847" lon="-72.93388468">
    <tag k="addr:housenumber" v="166" />
    <tag k="addr:street" v="Blackberry Hill Road" />
    <tag k="addr:state" v="VT" />
    <tag k="ref:vcgi:esiteid" v="108603" />
  </node>
  <node id="-263" visible="true" lat="44.713788" lon="-72.89686723">
    <tag k="addr:housenumber" v="122" />
    <tag k="addr:street" v="Armstrong Mountain Road" />
    <tag k="addr:state" v="VT" />
    <tag k="ref:vcgi:esiteid" v="108604" />
  </node>
  <node id="-264" visible="true" lat="44.71352196" lon="-72.93852202">
    <tag k="addr:housenumber" v="571" />
    <tag k="addr:street" v="Mayotte Road" />
    <tag k="addr:state" v="VT" />
    <tag k="ref:vcgi:esiteid" v="108605" />
  </node>
  <node id="-265" visible="true" lat="44.71517098" lon="-72.95014577">
    <tag k="addr:housenumber" v="3156" />
    <tag k="addr:street" v="Fairfield Road" />
    <tag k="addr:state" v="VT" />
    <tag k="ref:vcgi:esiteid" v="108606" />
  </node>
  <node id="-266" visible="true" lat="44.713485" lon="-72.95262186">
    <tag k="addr:housenumber" v="3183" />
    <tag k="addr:street" v="Fairfield Road" />
    <tag k="addr:state" v="VT" />
    <tag k="ref:vcgi:esiteid" v="108607" />
  </node>
  <node id="-267" visible="true" lat="44.71351588" lon="-72.96301837">
    <tag k="addr:housenumber" v="166" />
    <tag k="addr:street" v="Rocky Road" />
    <tag k="addr:state" v="VT" />
    <tag k="ref:vcgi:esiteid" v="108608" />
  </node>
  <node id="-268" visible="true" lat="44.71348478" lon="-72.89780394">
    <tag k="addr:housenumber" v="70" />
    <tag k="addr:street" v="Armstrong Mountain Road" />
    <tag k="addr:state" v="VT" />
    <tag k="ref:vcgi:esiteid" v="108609" />
  </node>
  <node id="-269" visible="true" lat="44.71331787" lon="-72.96535491">
    <tag k="addr:housenumber" v="287" />
    <tag k="addr:street" v="Rocky Road" />
    <tag k="addr:state" v="VT" />
    <tag k="ref:vcgi:esiteid" v="108610" />
  </node>
  <node id="-270" visible="true" lat="44.71330642" lon="-72.86369323">
    <tag k="addr:housenumber" v="383" />
    <tag k="addr:street" v="Moore Road" />
    <tag k="addr:state" v="VT" />
    <tag k="ref:vcgi:esiteid" v="108611" />
  </node>
  <node id="-271" visible="true" lat="44.7131318" lon="-72.89966779">
    <tag k="addr:housenumber" v="1875" />
    <tag k="addr:street" v="Pond Road" />
    <tag k="addr:state" v="VT" />
    <tag k="ref:vcgi:esiteid" v="108612" />
  </node>
  <node id="-272" visible="true" lat="44.71275272" lon="-72.96235351">
    <tag k="addr:housenumber" v="106" />
    <tag k="addr:street" v="Rocky Road" />
    <tag k="addr:state" v="VT" />
    <tag k="ref:vcgi:esiteid" v="108613" />
  </node>
  <node id="-273" visible="true" lat="44.71276855" lon="-72.96108245">
    <tag k="addr:housenumber" v="476" />
    <tag k="addr:street" v="Ellsworth Road" />
    <tag k="addr:state" v="VT" />
    <tag k="ref:vcgi:esiteid" v="108614" />
  </node>
  <node id="-274" visible="true" lat="44.71264267" lon="-72.96398162">
    <tag k="addr:housenumber" v="195" />
    <tag k="addr:street" v="Rocky Road" />
    <tag k="addr:state" v="VT" />
    <tag k="ref:vcgi:esiteid" v="108615" />
  </node>
  <node id="-275" visible="true" lat="44.71244634" lon="-72.95945409">
    <tag k="addr:housenumber" v="421" />
    <tag k="addr:street" v="Ellsworth Road" />
    <tag k="addr:state" v="VT" />
    <tag k="ref:vcgi:esiteid" v="108616" />
  </node>
  <node id="-276" visible="true" lat="44.71283474" lon="-72.83817637">
    <tag k="addr:housenumber" v="774" />
    <tag k="addr:street" v="Bakersfield Road" />
    <tag k="addr:state" v="VT" />
    <tag k="ref:vcgi:esiteid" v="108617" />
  </node>
  <node id="-277" visible="true" lat="44.71215874" lon="-72.93551995">
    <tag k="addr:housenumber" v="518" />
    <tag k="addr:street" v="Mayotte Road" />
    <tag k="addr:state" v="VT" />
    <tag k="ref:vcgi:esiteid" v="108618" />
  </node>
  <node id="-278" visible="true" lat="44.711943" lon="-72.96046803">
    <tag k="addr:housenumber" v="510" />
    <tag k="addr:street" v="Ellsworth Road" />
    <tag k="addr:state" v="VT" />
    <tag k="ref:vcgi:esiteid" v="108619" />
  </node>
  <node id="-279" visible="true" lat="44.71213357" lon="-72.9334719">
    <tag k="addr:housenumber" v="520" />
    <tag k="addr:street" v="Mayotte Road" />
    <tag k="addr:state" v="VT" />
    <tag k="ref:vcgi:esiteid" v="108620" />
  </node>
  <node id="-280" visible="true" lat="44.71195007" lon="-72.89955617">
    <tag k="addr:housenumber" v="1831" />
    <tag k="addr:street" v="Pond Road" />
    <tag k="addr:state" v="VT" />
    <tag k="ref:vcgi:esiteid" v="108621" />
  </node>
  <node id="-281" visible="true" lat="44.7118988" lon="-72.85185241">
    <tag k="addr:housenumber" v="1496" />
    <tag k="addr:street" v="Kinsley Road" />
    <tag k="addr:state" v="VT" />
    <tag k="ref:vcgi:esiteid" v="108622" />
  </node>
  <node id="-282" visible="true" lat="44.71161171" lon="-72.95874056">
    <tag k="addr:housenumber" v="501" />
    <tag k="addr:street" v="Ellsworth Road" />
    <tag k="addr:state" v="VT" />
    <tag k="ref:vcgi:esiteid" v="108623" />
  </node>
  <node id="-283" visible="true" lat="44.71136856" lon="-72.93692016">
    <tag k="addr:housenumber" v="450" />
    <tag k="addr:street" v="Mayotte Road" />
    <tag k="addr:state" v="VT" />
    <tag k="ref:vcgi:esiteid" v="108624" />
  </node>
  <node id="-284" visible="true" lat="44.71100234" lon="-72.85540771">
    <tag k="addr:housenumber" v="1315" />
    <tag k="addr:street" v="Kinsley Road" />
    <tag k="addr:state" v="VT" />
    <tag k="ref:vcgi:esiteid" v="108625" />
  </node>
  <node id="-285" visible="true" lat="44.71050685" lon="-72.95996357">
    <tag k="addr:housenumber" v="547" />
    <tag k="addr:street" v="Ellsworth Road" />
    <tag k="addr:state" v="VT" />
    <tag k="ref:vcgi:esiteid" v="108626" />
  </node>
  <node id="-286" visible="true" lat="44.71068257" lon="-72.89883972">
    <tag k="addr:housenumber" v="1697" />
    <tag k="addr:street" v="Pond Road" />
    <tag k="addr:state" v="VT" />
    <tag k="ref:vcgi:esiteid" v="108627" />
  </node>
  <node id="-287" visible="true" lat="44.71055388" lon="-72.90699414">
    <tag k="addr:housenumber" v="1996" />
    <tag k="addr:street" v="North Road" />
    <tag k="addr:state" v="VT" />
    <tag k="ref:vcgi:esiteid" v="108628" />
  </node>
  <node id="-288" visible="true" lat="44.710289" lon="-72.93769836">
    <tag k="addr:housenumber" v="373" />
    <tag k="addr:street" v="Mayotte Road" />
    <tag k="addr:state" v="VT" />
    <tag k="ref:vcgi:esiteid" v="108629" />
  </node>
  <node id="-289" visible="true" lat="44.70989661" lon="-72.96215536">
    <tag k="addr:housenumber" v="658" />
    <tag k="addr:street" v="Ellsworth Road" />
    <tag k="addr:state" v="VT" />
    <tag k="ref:vcgi:esiteid" v="108630" />
  </node>
  <node id="-290" visible="true" lat="44.71037292" lon="-72.83185577">
    <tag k="addr:housenumber" v="177" />
    <tag k="addr:street" v="Pine Cliffs Road" />
    <tag k="addr:state" v="VT" />
    <tag k="ref:vcgi:esiteid" v="108631" />
  </node>
  <node id="-291" visible="true" lat="44.71008586" lon="-72.85994375">
    <tag k="addr:housenumber" v="35" />
    <tag k="addr:street" v="Moore Road" />
    <tag k="addr:state" v="VT" />
    <tag k="ref:vcgi:esiteid" v="108632" />
  </node>
  <node id="-292" visible="true" lat="44.70983466" lon="-72.95027157">
    <tag k="addr:housenumber" v="2896" />
    <tag k="addr:street" v="Fairfield Road" />
    <tag k="addr:state" v="VT" />
    <tag k="ref:vcgi:esiteid" v="108633" />
  </node>
  <node id="-293" visible="true" lat="44.71008465" lon="-72.93704574">
    <tag k="addr:housenumber" v="338" />
    <tag k="addr:street" v="Mayotte Road" />
    <tag k="addr:state" v="VT" />
    <tag k="ref:vcgi:esiteid" v="108634" />
  </node>
  <node id="-294" visible="true" lat="44.70996475" lon="-72.83097076">
    <tag k="addr:housenumber" v="174" />
    <tag k="addr:street" v="Pine Cliffs Road" />
    <tag k="addr:state" v="VT" />
    <tag k="ref:vcgi:esiteid" v="108635" />
  </node>
  <node id="-295" visible="true" lat="44.7099266" lon="-72.83992767">
    <tag k="addr:housenumber" v="182" />
    <tag k="addr:street" v="Wilson Road" />
    <tag k="addr:state" v="VT" />
    <tag k="ref:vcgi:esiteid" v="108636" />
  </node>
  <node id="-296" visible="true" lat="44.70950021" lon="-72.96006576">
    <tag k="addr:housenumber" v="653" />
    <tag k="addr:street" v="Ellsworth Road" />
    <tag k="addr:state" v="VT" />
    <tag k="ref:vcgi:esiteid" v="108637" />
  </node>
  <node id="-297" visible="true" lat="44.70898493" lon="-72.86996601">
    <tag k="addr:housenumber" v="4543" />
    <tag k="addr:street" v="Pond Road" />
    <tag k="addr:state" v="VT" />
    <tag k="ref:vcgi:esiteid" v="108638" />
  </node>
  <node id="-298" visible="true" lat="44.70936122" lon="-72.90821268">
    <tag k="addr:housenumber" v="1892" />
    <tag k="addr:street" v="North Road" />
    <tag k="addr:state" v="VT" />
    <tag k="ref:vcgi:esiteid" v="108639" />
  </node>
  <node id="-299" visible="true" lat="44.70962809" lon="-72.87096214">
    <tag k="addr:housenumber" v="4541" />
    <tag k="addr:street" v="Pond Road" />
    <tag k="addr:state" v="VT" />
    <tag k="ref:vcgi:esiteid" v="108641" />
  </node>
  <node id="-300" visible="true" lat="44.70955286" lon="-72.83302213">
    <tag k="addr:housenumber" v="72" />
    <tag k="addr:street" v="Pine Cliffs Road" />
    <tag k="addr:state" v="VT" />
    <tag k="ref:vcgi:esiteid" v="108642" />
  </node>
  <node id="-301" visible="true" lat="44.70946803" lon="-72.84280016">
    <tag k="addr:housenumber" v="201" />
    <tag k="addr:street" v="Strawberry Hill Road" />
    <tag k="addr:state" v="VT" />
    <tag k="ref:vcgi:esiteid" v="108643" />
  </node>
  <node id="-302" visible="true" lat="44.70897839" lon="-72.84003076">
    <tag k="addr:housenumber" v="240" />
    <tag k="addr:street" v="Wilson Road" />
    <tag k="addr:state" v="VT" />
    <tag k="ref:vcgi:esiteid" v="108644" />
  </node>
  <node id="-303" visible="true" lat="44.70922711" lon="-72.93677115">
    <tag k="addr:housenumber" v="268" />
    <tag k="addr:street" v="Mayotte Road" />
    <tag k="addr:state" v="VT" />
    <tag k="ref:vcgi:esiteid" v="108645" />
  </node>
  <node id="-304" visible="true" lat="44.70866715" lon="-72.94894931">
    <tag k="addr:housenumber" v="2772" />
    <tag k="addr:street" v="Fairfield Road" />
    <tag k="addr:state" v="VT" />
    <tag k="ref:vcgi:esiteid" v="108646" />
  </node>
  <node id="-305" visible="true" lat="44.70858635" lon="-72.90995501">
    <tag k="addr:housenumber" v="1819" />
    <tag k="addr:street" v="North Road" />
    <tag k="addr:state" v="VT" />
    <tag k="ref:vcgi:esiteid" v="108647" />
  </node>
  <node id="-306" visible="true" lat="44.70845141" lon="-72.96279396">
    <tag k="addr:housenumber" v="798" />
    <tag k="addr:street" v="Ellsworth Road" />
    <tag k="addr:state" v="VT" />
    <tag k="ref:vcgi:esiteid" v="108648" />
  </node>
  <node id="-307" visible="true" lat="44.7080841" lon="-72.94987487">
    <tag k="addr:housenumber" v="2801" />
    <tag k="addr:street" v="Fairfield Road" />
    <tag k="addr:state" v="VT" />
    <tag k="ref:vcgi:esiteid" v="108649" />
  </node>
  <node id="-308" visible="true" lat="44.70767974" lon="-72.96123504">
    <tag k="addr:housenumber" v="765" />
    <tag k="addr:street" v="Ellsworth Road" />
    <tag k="addr:state" v="VT" />
    <tag k="ref:vcgi:esiteid" v="108650" />
  </node>
  <node id="-309" visible="true" lat="44.70810253" lon="-72.84151591">
    <tag k="addr:housenumber" v="104" />
    <tag k="addr:street" v="Strawberry Hill Road" />
    <tag k="addr:state" v="VT" />
    <tag k="ref:vcgi:esiteid" v="108651" />
  </node>
  <node id="-310" visible="true" lat="44.70787811" lon="-72.83956146">
    <tag k="addr:housenumber" v="327" />
    <tag k="addr:street" v="Wilson Road" />
    <tag k="addr:state" v="VT" />
    <tag k="ref:vcgi:esiteid" v="108652" />
  </node>
  <node id="-311" visible="true" lat="44.70703506" lon="-72.93987274">
    <tag k="addr:housenumber" v="73" />
    <tag k="addr:street" v="Mayotte Road" />
    <tag k="addr:state" v="VT" />
    <tag k="ref:vcgi:esiteid" v="108653" />
  </node>
  <node id="-312" visible="true" lat="44.70705413" lon="-72.86934661">
    <tag k="addr:housenumber" v="4781" />
    <tag k="addr:street" v="Pond Road" />
    <tag k="addr:state" v="VT" />
    <tag k="ref:vcgi:esiteid" v="108654" />
  </node>
  <node id="-313" visible="true" lat="44.70658111" lon="-72.96395111">
    <tag k="addr:housenumber" v="226" />
    <tag k="addr:street" v="Tabor Hill Road" />
    <tag k="addr:state" v="VT" />
    <tag k="ref:vcgi:esiteid" v="108655" />
  </node>
  <node id="-314" visible="true" lat="44.70673855" lon="-72.89600511">
    <tag k="addr:housenumber" v="1426" />
    <tag k="addr:street" v="Pond Road" />
    <tag k="addr:state" v="VT" />
    <tag k="ref:vcgi:esiteid" v="108656" />
  </node>
  <node id="-315" visible="true" lat="44.70621871" lon="-72.96335601">
    <tag k="addr:housenumber" v="921" />
    <tag k="addr:street" v="Ellsworth Road" />
    <tag k="addr:state" v="VT" />
    <tag k="ref:vcgi:esiteid" v="108658" />
  </node>
  <node id="-316" visible="true" lat="44.70612716" lon="-72.93766021">
    <tag k="addr:housenumber" v="85" />
    <tag k="addr:street" v="Mayotte Road" />
    <tag k="addr:state" v="VT" />
    <tag k="ref:vcgi:esiteid" v="108659" />
  </node>
  <node id="-317" visible="true" lat="44.70683453" lon="-72.83046228">
    <tag k="addr:housenumber" v="166" />
    <tag k="addr:street" v="Bakersfield Road" />
    <tag k="addr:state" v="VT" />
    <tag k="ref:vcgi:esiteid" v="108660" />
  </node>
  <node id="-318" visible="true" lat="44.70576617" lon="-72.94453879">
    <tag k="addr:housenumber" v="2462" />
    <tag k="addr:street" v="Fairfield Road" />
    <tag k="addr:state" v="VT" />
    <tag k="ref:vcgi:esiteid" v="108661" />
  </node>
  <node id="-319" visible="true" lat="44.70593803" lon="-72.90836727">
    <tag k="addr:housenumber" v="1616" />
    <tag k="addr:street" v="North Road" />
    <tag k="addr:state" v="VT" />
    <tag k="ref:vcgi:esiteid" v="108662" />
  </node>
  <node id="-320" visible="true" lat="44.70485414" lon="-72.90765308">
    <tag k="addr:housenumber" v="1562" />
    <tag k="addr:street" v="North Road" />
    <tag k="addr:state" v="VT" />
    <tag k="ref:vcgi:esiteid" v="108663" />
  </node>
  <node id="-321" visible="true" lat="44.70491081" lon="-72.89829918">
    <tag k="addr:housenumber" v="1274" />
    <tag k="addr:street" v="Pond Road" />
    <tag k="addr:state" v="VT" />
    <tag k="ref:vcgi:esiteid" v="108664" />
  </node>
  <node id="-322" visible="true" lat="44.70454616" lon="-72.94744835">
    <tag k="addr:housenumber" v="126" />
    <tag k="addr:street" v="Slattery Road" />
    <tag k="addr:state" v="VT" />
    <tag k="ref:vcgi:esiteid" v="108665" />
  </node>
  <node id="-323" visible="true" lat="44.70464511" lon="-72.89952786">
    <tag k="addr:housenumber" v="1237" />
    <tag k="addr:street" v="Pond Road" />
    <tag k="addr:state" v="VT" />
    <tag k="ref:vcgi:esiteid" v="108666" />
  </node>
  <node id="-324" visible="true" lat="44.70469091" lon="-72.85644775">
    <tag k="addr:housenumber" v="764" />
    <tag k="addr:street" v="Kinsley Road" />
    <tag k="addr:state" v="VT" />
    <tag k="ref:vcgi:esiteid" v="108667" />
  </node>
  <node id="-325" visible="true" lat="44.70459578" lon="-72.85747654">
    <tag k="addr:housenumber" v="741" />
    <tag k="addr:street" v="Kinsley Road" />
    <tag k="addr:state" v="VT" />
    <tag k="ref:vcgi:esiteid" v="108668" />
  </node>
  <node id="-326" visible="true" lat="44.70389821" lon="-72.85858521">
    <tag k="addr:housenumber" v="681" />
    <tag k="addr:street" v="Kinsley Road" />
    <tag k="addr:state" v="VT" />
    <tag k="ref:vcgi:esiteid" v="108669" />
  </node>
  <node id="-327" visible="true" lat="44.70395921" lon="-72.85673677">
    <tag k="addr:housenumber" v="694" />
    <tag k="addr:street" v="Kinsley Road" />
    <tag k="addr:state" v="VT" />
    <tag k="ref:vcgi:esiteid" v="108670" />
  </node>
  <node id="-328" visible="true" lat="44.70318685" lon="-72.85699576">
    <tag k="addr:housenumber" v="670" />
    <tag k="addr:street" v="Kinsley Road" />
    <tag k="addr:state" v="VT" />
    <tag k="ref:vcgi:esiteid" v="108671" />
  </node>
  <node id="-329" visible="true" lat="44.70304054" lon="-72.90763143">
    <tag k="addr:housenumber" v="1414" />
    <tag k="addr:street" v="North Road" />
    <tag k="addr:state" v="VT" />
    <tag k="ref:vcgi:esiteid" v="108672" />
  </node>
  <node id="-330" visible="true" lat="44.70261248" lon="-72.93810019">
    <tag k="addr:housenumber" v="1961" />
    <tag k="addr:street" v="Fairfield Road" />
    <tag k="addr:state" v="VT" />
    <tag k="ref:vcgi:esiteid" v="108673" />
  </node>
  <node id="-331" visible="true" lat="44.70232828" lon="-72.95549711">
    <tag k="addr:housenumber" v="626" />
    <tag k="addr:street" v="Slattery Road" />
    <tag k="addr:state" v="VT" />
    <tag k="ref:vcgi:esiteid" v="108674" />
  </node>
  <node id="-332" visible="true" lat="44.70164333" lon="-72.93318528">
    <tag k="addr:housenumber" v="110" />
    <tag k="addr:street" v="Sunset Drive" />
    <tag k="addr:state" v="VT" />
    <tag k="ref:vcgi:esiteid" v="108675" />
  </node>
  <node id="-333" visible="true" lat="44.70165885" lon="-72.89953782">
    <tag k="addr:housenumber" v="1036" />
    <tag k="addr:street" v="Pond Road" />
    <tag k="addr:state" v="VT" />
    <tag k="ref:vcgi:esiteid" v="108676" />
  </node>
  <node id="-334" visible="true" lat="44.70154442" lon="-72.93422011">
    <tag k="addr:housenumber" v="109" />
    <tag k="addr:street" v="Sunset Drive" />
    <tag k="addr:state" v="VT" />
    <tag k="ref:vcgi:esiteid" v="108677" />
  </node>
  <node id="-335" visible="true" lat="44.70094001" lon="-72.93750845">
    <tag k="addr:housenumber" v="1828" />
    <tag k="addr:street" v="Fairfield Road" />
    <tag k="addr:state" v="VT" />
    <tag k="ref:vcgi:esiteid" v="108678" />
  </node>
  <node id="-336" visible="true" lat="44.70019642" lon="-72.90745207">
    <tag k="addr:housenumber" v="1216" />
    <tag k="addr:street" v="North Road" />
    <tag k="addr:state" v="VT" />
    <tag k="ref:vcgi:esiteid" v="108679" />
  </node>
  <node id="-337" visible="true" lat="44.69971409" lon="-72.90266033">
    <tag k="addr:housenumber" v="108" />
    <tag k="addr:street" v="Wright Road" />
    <tag k="addr:state" v="VT" />
    <tag k="ref:vcgi:esiteid" v="108680" />
  </node>
  <node id="-338" visible="true" lat="44.69926521" lon="-72.90141886">
    <tag k="addr:housenumber" v="42" />
    <tag k="addr:street" v="Wright Road" />
    <tag k="addr:state" v="VT" />
    <tag k="ref:vcgi:esiteid" v="108681" />
  </node>
  <node id="-339" visible="true" lat="44.69870915" lon="-72.93248238">
    <tag k="addr:housenumber" v="100" />
    <tag k="addr:street" v="Half Moon Pond Road" />
    <tag k="addr:state" v="VT" />
    <tag k="ref:vcgi:esiteid" v="108682" />
  </node>
  <node id="-340" visible="true" lat="44.69748306" lon="-72.94032287">
    <tag k="addr:housenumber" v="327" />
    <tag k="addr:street" v="Rugg Road" />
    <tag k="addr:state" v="VT" />
    <tag k="ref:vcgi:esiteid" v="108683" />
  </node>
  <node id="-341" visible="true" lat="44.69770099" lon="-72.90981103">
    <tag k="addr:housenumber" v="1021" />
    <tag k="addr:street" v="North Road" />
    <tag k="addr:state" v="VT" />
    <tag k="ref:vcgi:esiteid" v="108684" />
  </node>
  <node id="-342" visible="true" lat="44.69737906" lon="-72.93338184">
    <tag k="addr:housenumber" v="99" />
    <tag k="addr:street" v="Half Moon Pond Road" />
    <tag k="addr:state" v="VT" />
    <tag k="ref:vcgi:esiteid" v="108685" />
  </node>
  <node id="-343" visible="true" lat="44.69680071" lon="-72.93567148">
    <tag k="addr:housenumber" v="1495" />
    <tag k="addr:street" v="Fairfield Road" />
    <tag k="addr:state" v="VT" />
    <tag k="ref:vcgi:esiteid" v="108686" />
  </node>
  <node id="-344" visible="true" lat="44.69770584" lon="-72.88553636">
    <tag k="addr:housenumber" v="222" />
    <tag k="addr:street" v="Brannagan Road" />
    <tag k="addr:state" v="VT" />
    <tag k="ref:vcgi:esiteid" v="108687" />
  </node>
  <node id="-345" visible="true" lat="44.69684954" lon="-72.90892564">
    <tag k="addr:housenumber" v="974" />
    <tag k="addr:street" v="North Road" />
    <tag k="addr:state" v="VT" />
    <tag k="ref:vcgi:esiteid" v="108688" />
  </node>
  <node id="-346" visible="true" lat="44.69615934" lon="-72.93418618">
    <tag k="addr:housenumber" v="1420" />
    <tag k="addr:street" v="Fairfield Road" />
    <tag k="addr:state" v="VT" />
    <tag k="ref:vcgi:esiteid" v="108689" />
  </node>
  <node id="-347" visible="true" lat="44.69579638" lon="-72.91551872">
    <tag k="addr:housenumber" v="227" />
    <tag k="addr:street" v="Ferguson Road" />
    <tag k="addr:state" v="VT" />
    <tag k="ref:vcgi:esiteid" v="108690" />
  </node>
  <node id="-348" visible="true" lat="44.69515872" lon="-72.91735764">
    <tag k="addr:housenumber" v="614" />
    <tag k="addr:street" v="Ferguson Road" />
    <tag k="addr:state" v="VT" />
    <tag k="ref:vcgi:esiteid" v="108691" />
  </node>
  <node id="-349" visible="true" lat="44.69497869" lon="-72.89913358">
    <tag k="addr:housenumber" v="52" />
    <tag k="addr:street" v="Fletcher View Drive" />
    <tag k="addr:state" v="VT" />
    <tag k="ref:vcgi:esiteid" v="108692" />
  </node>
  <node id="-350" visible="true" lat="44.69462892" lon="-72.91192334">
    <tag k="addr:housenumber" v="14" />
    <tag k="addr:street" v="Ferguson Road" />
    <tag k="addr:state" v="VT" />
    <tag k="ref:vcgi:esiteid" v="108693" />
  </node>
  <node id="-351" visible="true" lat="44.6940564" lon="-72.91232043">
    <tag k="addr:housenumber" v="699" />
    <tag k="addr:street" v="North Road" />
    <tag k="addr:state" v="VT" />
    <tag k="ref:vcgi:esiteid" v="108694" />
  </node>
  <node id="-352" visible="true" lat="44.69404168" lon="-72.93192214">
    <tag k="addr:housenumber" v="1228" />
    <tag k="addr:street" v="Fairfield Road" />
    <tag k="addr:state" v="VT" />
    <tag k="ref:vcgi:esiteid" v="108695" />
  </node>
  <node id="-353" visible="true" lat="44.69318942" lon="-72.94284757">
    <tag k="addr:housenumber" v="567" />
    <tag k="addr:street" v="Rugg Road" />
    <tag k="addr:state" v="VT" />
    <tag k="ref:vcgi:esiteid" v="108697" />
  </node>
  <node id="-354" visible="true" lat="44.69039017" lon="-72.92783937">
    <tag k="addr:housenumber" v="831" />
    <tag k="addr:street" v="Fairfield Road" />
    <tag k="addr:state" v="VT" />
    <tag k="ref:vcgi:esiteid" v="108698" />
  </node>
  <node id="-355" visible="true" lat="44.68971955" lon="-72.91298862">
    <tag k="addr:housenumber" v="414" />
    <tag k="addr:street" v="North Road" />
    <tag k="addr:state" v="VT" />
    <tag k="ref:vcgi:esiteid" v="108700" />
  </node>
  <node id="-356" visible="true" lat="44.68865203" lon="-72.926445">
    <tag k="addr:housenumber" v="713" />
    <tag k="addr:street" v="Fairfield Road" />
    <tag k="addr:state" v="VT" />
    <tag k="ref:vcgi:esiteid" v="108701" />
  </node>
  <node id="-357" visible="true" lat="44.68768691" lon="-72.94963073">
    <tag k="addr:housenumber" v="1100" />
    <tag k="addr:street" v="Rugg Road" />
    <tag k="addr:state" v="VT" />
    <tag k="ref:vcgi:esiteid" v="108702" />
  </node>
  <node id="-358" visible="true" lat="44.6876831" lon="-72.8979187">
    <tag k="addr:housenumber" v="35" />
    <tag k="addr:street" v="Pond Road" />
    <tag k="addr:state" v="VT" />
    <tag k="ref:vcgi:esiteid" v="108703" />
  </node>
  <node id="-359" visible="true" lat="44.68738593" lon="-72.89266086">
    <tag k="addr:housenumber" v="1133" />
    <tag k="addr:street" v="Cambridge Road" />
    <tag k="addr:state" v="VT" />
    <tag k="ref:vcgi:esiteid" v="108704" />
  </node>
  <node id="-360" visible="true" lat="44.68711003" lon="-72.88597108">
    <tag k="addr:housenumber" v="90" />
    <tag k="addr:street" v="Church Rock Path" />
    <tag k="addr:state" v="VT" />
    <tag k="ref:vcgi:esiteid" v="108705" />
  </node>
  <node id="-361" visible="true" lat="44.68677749" lon="-72.89211331">
    <tag k="addr:housenumber" v="1175" />
    <tag k="addr:street" v="Cambridge Road" />
    <tag k="addr:state" v="VT" />
    <tag k="ref:vcgi:esiteid" v="108706" />
  </node>
  <node id="-362" visible="true" lat="44.68647654" lon="-72.9218541">
    <tag k="addr:housenumber" v="432" />
    <tag k="addr:street" v="Fairfield Road" />
    <tag k="addr:state" v="VT" />
    <tag k="ref:vcgi:esiteid" v="108707" />
  </node>
  <node id="-363" visible="true" lat="44.68655096" lon="-72.8894484">
    <tag k="addr:housenumber" v="1295" />
    <tag k="addr:street" v="Cambridge Road" />
    <tag k="addr:state" v="VT" />
    <tag k="ref:vcgi:esiteid" v="108708" />
  </node>
  <node id="-364" visible="true" lat="44.68598801" lon="-72.88661887">
    <tag k="addr:housenumber" v="89" />
    <tag k="addr:street" v="Church Rock Path" />
    <tag k="addr:state" v="VT" />
    <tag k="ref:vcgi:esiteid" v="108709" />
  </node>
  <node id="-365" visible="true" lat="44.68606575" lon="-72.87743955">
    <tag k="addr:housenumber" v="427" />
    <tag k="addr:street" v="Rushford Road" />
    <tag k="addr:state" v="VT" />
    <tag k="ref:vcgi:esiteid" v="108710" />
  </node>
  <node id="-366" visible="true" lat="44.68597412" lon="-72.89138793">
    <tag k="addr:housenumber" v="1228" />
    <tag k="addr:street" v="Cambridge Road" />
    <tag k="addr:state" v="VT" />
    <tag k="ref:vcgi:esiteid" v="108711" />
  </node>
  <node id="-367" visible="true" lat="44.68580884" lon="-72.91641922">
    <tag k="addr:housenumber" v="109" />
    <tag k="addr:street" v="North Road" />
    <tag k="addr:state" v="VT" />
    <tag k="ref:vcgi:esiteid" v="108712" />
  </node>
  <node id="-368" visible="true" lat="44.68554687" lon="-72.90655517">
    <tag k="addr:housenumber" v="481" />
    <tag k="addr:street" v="Cambridge Road" />
    <tag k="addr:state" v="VT" />
    <tag k="ref:vcgi:esiteid" v="108713" />
  </node>
  <node id="-369" visible="true" lat="44.68542552" lon="-72.91609421">
    <tag k="addr:housenumber" v="84" />
    <tag k="addr:street" v="North Road" />
    <tag k="addr:state" v="VT" />
    <tag k="ref:vcgi:esiteid" v="108714" />
  </node>
  <node id="-370" visible="true" lat="44.68722937" lon="-72.87566256">
    <tag k="addr:housenumber" v="559" />
    <tag k="addr:street" v="Rushford Road" />
    <tag k="addr:state" v="VT" />
    <tag k="ref:vcgi:esiteid" v="108715" />
  </node>
  <node id="-371" visible="true" lat="44.68538284" lon="-72.87940978">
    <tag k="addr:housenumber" v="339" />
    <tag k="addr:street" v="Rushford Road" />
    <tag k="addr:state" v="VT" />
    <tag k="ref:vcgi:esiteid" v="108716" />
  </node>
  <node id="-372" visible="true" lat="44.68527091" lon="-72.91470569">
    <tag k="addr:housenumber" v="110" />
    <tag k="addr:street" v="North Road" />
    <tag k="addr:state" v="VT" />
    <tag k="ref:vcgi:esiteid" v="108717" />
  </node>
  <node id="-373" visible="true" lat="44.68494033" lon="-72.91987609">
    <tag k="addr:housenumber" v="297" />
    <tag k="addr:street" v="Fairfield Road" />
    <tag k="addr:state" v="VT" />
    <tag k="ref:vcgi:esiteid" v="108718" />
  </node>
  <node id="-374" visible="true" lat="44.68498601" lon="-72.87266405">
    <tag k="addr:housenumber" v="669" />
    <tag k="addr:street" v="Rushford Road" />
    <tag k="addr:state" v="VT" />
    <tag k="ref:vcgi:esiteid" v="108719" />
  </node>
  <node id="-375" visible="true" lat="44.68472961" lon="-72.88936415">
    <tag k="addr:housenumber" v="1360" />
    <tag k="addr:street" v="Cambridge Road" />
    <tag k="addr:state" v="VT" />
    <tag k="ref:vcgi:esiteid" v="108720" />
  </node>
  <node id="-376" visible="true" lat="44.6847595" lon="-72.92648348">
    <tag k="addr:housenumber" v="212" />
    <tag k="addr:street" v="Spaulding Road" />
    <tag k="addr:state" v="VT" />
    <tag k="ref:vcgi:esiteid" v="108721" />
  </node>
  <node id="-377" visible="true" lat="44.68445186" lon="-72.91685836">
    <tag k="addr:housenumber" v="144" />
    <tag k="addr:street" v="Fairfield Road" />
    <tag k="addr:state" v="VT" />
    <tag k="ref:vcgi:esiteid" v="108722" />
  </node>
  <node id="-378" visible="true" lat="44.68452072" lon="-72.88740539">
    <tag k="addr:housenumber" v="1450" />
    <tag k="addr:street" v="Cambridge Road" />
    <tag k="addr:state" v="VT" />
    <tag k="ref:vcgi:esiteid" v="108723" />
  </node>
  <node id="-379" visible="true" lat="44.68440653" lon="-72.8852311">
    <tag k="addr:housenumber" v="17" />
    <tag k="addr:street" v="Rushford Road" />
    <tag k="addr:state" v="VT" />
    <tag k="ref:vcgi:esiteid" v="108724" />
  </node>
  <node id="-380" visible="true" lat="44.68419245" lon="-72.91610623">
    <tag k="addr:housenumber" v="110" />
    <tag k="addr:street" v="Fairfield Road" />
    <tag k="addr:state" v="VT" />
    <tag k="ref:vcgi:esiteid" v="108725" />
  </node>
  <node id="-381" visible="true" lat="44.68325323" lon="-72.88699519">
    <tag k="addr:housenumber" v="1482" />
    <tag k="addr:street" v="Cambridge Road" />
    <tag k="addr:state" v="VT" />
    <tag k="ref:vcgi:esiteid" v="108726" />
  </node>
  <node id="-382" visible="true" lat="44.68413893" lon="-72.8846527">
    <tag k="addr:housenumber" v="42" />
    <tag k="addr:street" v="Rushford Road" />
    <tag k="addr:state" v="VT" />
    <tag k="ref:vcgi:esiteid" v="108727" />
  </node>
  <node id="-383" visible="true" lat="44.6841553" lon="-72.9169486">
    <tag k="addr:housenumber" v="143" />
    <tag k="addr:street" v="Fairfield Road" />
    <tag k="addr:state" v="VT" />
    <tag k="ref:vcgi:esiteid" v="108728" />
  </node>
  <node id="-384" visible="true" lat="44.68386695" lon="-72.88198116">
    <tag k="addr:housenumber" v="178" />
    <tag k="addr:street" v="Rushford Road" />
    <tag k="addr:state" v="VT" />
    <tag k="ref:vcgi:esiteid" v="108729" />
  </node>
  <node id="-385" visible="true" lat="44.68383147" lon="-72.91454273">
    <tag k="addr:housenumber" v="14" />
    <tag k="addr:street" v="Fairfield Road" />
    <tag k="addr:state" v="VT" />
    <tag k="ref:vcgi:esiteid" v="108730" />
  </node>
  <node id="-386" visible="true" lat="44.68384834" lon="-72.90850437">
    <tag k="addr:housenumber" v="317" />
    <tag k="addr:street" v="Cambridge Road" />
    <tag k="addr:state" v="VT" />
    <tag k="ref:vcgi:esiteid" v="108731" />
  </node>
  <node id="-387" visible="true" lat="44.68388127" lon="-72.8840551">
    <tag k="addr:housenumber" v="18" />
    <tag k="addr:street" v="Irish Road" />
    <tag k="addr:state" v="VT" />
    <tag k="ref:vcgi:esiteid" v="108732" />
  </node>
  <node id="-388" visible="true" lat="44.68373361" lon="-72.91408616">
    <tag k="addr:housenumber" v="12" />
    <tag k="addr:street" v="Fairfield Road" />
    <tag k="addr:state" v="VT" />
    <tag k="ref:vcgi:esiteid" v="108733" />
  </node>
  <node id="-389" visible="true" lat="44.68368811" lon="-72.91575587">
    <tag k="addr:housenumber" v="77" />
    <tag k="addr:street" v="Fairfield Road" />
    <tag k="addr:state" v="VT" />
    <tag k="ref:vcgi:esiteid" v="108734" />
  </node>
  <node id="-390" visible="true" lat="44.6835202" lon="-72.9153624">
    <tag k="addr:housenumber" v="55" />
    <tag k="addr:street" v="Fairfield Road" />
    <tag k="addr:state" v="VT" />
    <tag k="ref:vcgi:esiteid" v="108735" />
  </node>
  <node id="-391" visible="true" lat="44.68344747" lon="-72.90831007">
    <tag k="addr:housenumber" v="304" />
    <tag k="addr:street" v="Cambridge Road" />
    <tag k="addr:state" v="VT" />
    <tag k="ref:vcgi:esiteid" v="108736" />
  </node>
  <node id="-392" visible="true" lat="44.68331604" lon="-72.91470845">
    <tag k="addr:housenumber" v="21" />
    <tag k="addr:street" v="Fairfield Road" />
    <tag k="addr:state" v="VT" />
    <tag k="ref:vcgi:esiteid" v="108737" />
  </node>
  <node id="-393" visible="true" lat="44.68344588" lon="-72.91317995">
    <tag k="addr:housenumber" v="27" />
    <tag k="addr:street" v="Cambridge Road" />
    <tag k="addr:state" v="VT" />
    <tag k="ref:vcgi:esiteid" v="108738" />
  </node>
  <node id="-394" visible="true" lat="44.6833229" lon="-72.8890686">
    <tag k="addr:housenumber" v="1394" />
    <tag k="addr:street" v="Cambridge Road" />
    <tag k="addr:state" v="VT" />
    <tag k="ref:vcgi:esiteid" v="108739" />
  </node>
  <node id="-395" visible="true" lat="44.68302256" lon="-72.8795342">
    <tag k="addr:housenumber" v="270" />
    <tag k="addr:street" v="Rushford Road" />
    <tag k="addr:state" v="VT" />
    <tag k="ref:vcgi:esiteid" v="108740" />
  </node>
  <node id="-396" visible="true" lat="44.68325241" lon="-72.91017365">
    <tag k="addr:housenumber" v="215" />
    <tag k="addr:street" v="Cambridge Road" />
    <tag k="addr:state" v="VT" />
    <tag k="ref:vcgi:esiteid" v="108741" />
  </node>
  <node id="-397" visible="true" lat="44.68297231" lon="-72.91115787">
    <tag k="addr:housenumber" v="157" />
    <tag k="addr:street" v="Cambridge Road" />
    <tag k="addr:state" v="VT" />
    <tag k="ref:vcgi:esiteid" v="108742" />
  </node>
  <node id="-398" visible="true" lat="44.68295113" lon="-72.91148024">
    <tag k="addr:housenumber" v="125" />
    <tag k="addr:street" v="Cambridge Road" />
    <tag k="addr:state" v="VT" />
    <tag k="ref:vcgi:esiteid" v="108743" />
  </node>
  <node id="-399" visible="true" lat="44.68264413" lon="-72.88491491">
    <tag k="addr:housenumber" v="1614" />
    <tag k="addr:street" v="Cambridge Road" />
    <tag k="addr:state" v="VT" />
    <tag k="ref:vcgi:esiteid" v="108744" />
  </node>
  <node id="-400" visible="true" lat="44.68259043" lon="-72.91181591">
    <tag k="addr:housenumber" v="122" />
    <tag k="addr:street" v="Cambridge Road" />
    <tag k="addr:state" v="VT" />
    <tag k="ref:vcgi:esiteid" v="108745" />
  </node>
  <node id="-401" visible="true" lat="44.68258163" lon="-72.91269257">
    <tag k="addr:housenumber" v="92" />
    <tag k="addr:street" v="Cambridge Road" />
    <tag k="addr:state" v="VT" />
    <tag k="ref:vcgi:esiteid" v="108746" />
  </node>
  <node id="-402" visible="true" lat="44.68149358" lon="-72.88359661">
    <tag k="addr:housenumber" v="1732" />
    <tag k="addr:street" v="Cambridge Road" />
    <tag k="addr:state" v="VT" />
    <tag k="ref:vcgi:esiteid" v="108747" />
  </node>
  <node id="-403" visible="true" lat="44.68105293" lon="-72.89849862">
    <tag k="addr:housenumber" v="458" />
    <tag k="addr:street" v="Webb Road" />
    <tag k="addr:state" v="VT" />
    <tag k="ref:vcgi:esiteid" v="108748" />
  </node>
  <node id="-404" visible="true" lat="44.68060302" lon="-72.88159942">
    <tag k="addr:housenumber" v="1829" />
    <tag k="addr:street" v="Cambridge Road" />
    <tag k="addr:state" v="VT" />
    <tag k="ref:vcgi:esiteid" v="108749" />
  </node>
  <node id="-405" visible="true" lat="44.68054199" lon="-72.88751983">
    <tag k="addr:housenumber" v="1728" />
    <tag k="addr:street" v="Cambridge Road" />
    <tag k="addr:state" v="VT" />
    <tag k="ref:vcgi:esiteid" v="108750" />
  </node>
  <node id="-406" visible="true" lat="44.67965278" lon="-72.93299432">
    <tag k="addr:housenumber" v="599" />
    <tag k="addr:street" v="Woods Road" />
    <tag k="addr:state" v="VT" />
    <tag k="ref:vcgi:esiteid" v="108751" />
  </node>
  <node id="-407" visible="true" lat="44.67971038" lon="-72.88088226">
    <tag k="addr:housenumber" v="1893" />
    <tag k="addr:street" v="Cambridge Road" />
    <tag k="addr:state" v="VT" />
    <tag k="ref:vcgi:esiteid" v="108752" />
  </node>
  <node id="-408" visible="true" lat="44.67873001" lon="-72.88211059">
    <tag k="addr:housenumber" v="1969" />
    <tag k="addr:street" v="Cambridge Road" />
    <tag k="addr:state" v="VT" />
    <tag k="ref:vcgi:esiteid" v="108753" />
  </node>
  <node id="-409" visible="true" lat="44.67829583" lon="-72.9212841">
    <tag k="addr:housenumber" v="511" />
    <tag k="addr:street" v="Fairfax Road" />
    <tag k="addr:state" v="VT" />
    <tag k="ref:vcgi:esiteid" v="108755" />
  </node>
  <node id="-410" visible="true" lat="44.67809369" lon="-72.92226259">
    <tag k="addr:housenumber" v="556" />
    <tag k="addr:street" v="Fairfax Road" />
    <tag k="addr:state" v="VT" />
    <tag k="ref:vcgi:esiteid" v="108756" />
  </node>
  <node id="-411" visible="true" lat="44.67739877" lon="-72.92208044">
    <tag k="addr:housenumber" v="587" />
    <tag k="addr:street" v="Fairfax Road" />
    <tag k="addr:state" v="VT" />
    <tag k="ref:vcgi:esiteid" v="108757" />
  </node>
  <node id="-412" visible="true" lat="44.6768624" lon="-72.92260218">
    <tag k="addr:housenumber" v="629" />
    <tag k="addr:street" v="Fairfax Road" />
    <tag k="addr:state" v="VT" />
    <tag k="ref:vcgi:esiteid" v="108758" />
  </node>
  <node id="-413" visible="true" lat="44.6769445" lon="-72.92322039">
    <tag k="addr:housenumber" v="644" />
    <tag k="addr:street" v="Fairfax Road" />
    <tag k="addr:state" v="VT" />
    <tag k="ref:vcgi:esiteid" v="108759" />
  </node>
  <node id="-414" visible="true" lat="44.67656235" lon="-72.92335579">
    <tag k="addr:housenumber" v="664" />
    <tag k="addr:street" v="Fairfax Road" />
    <tag k="addr:state" v="VT" />
    <tag k="ref:vcgi:esiteid" v="108760" />
  </node>
  <node id="-415" visible="true" lat="44.67638132" lon="-72.92422016">
    <tag k="addr:housenumber" v="684" />
    <tag k="addr:street" v="Fairfax Road" />
    <tag k="addr:state" v="VT" />
    <tag k="ref:vcgi:esiteid" v="108761" />
  </node>
  <node id="-416" visible="true" lat="44.6759279" lon="-72.88223859">
    <tag k="addr:housenumber" v="2141" />
    <tag k="addr:street" v="Cambridge Road" />
    <tag k="addr:state" v="VT" />
    <tag k="ref:vcgi:esiteid" v="108762" />
  </node>
  <node id="-417" visible="true" lat="44.67527368" lon="-72.92440091">
    <tag k="addr:housenumber" v="776" />
    <tag k="addr:street" v="Fairfax Road" />
    <tag k="addr:state" v="VT" />
    <tag k="ref:vcgi:esiteid" v="108763" />
  </node>
  <node id="-418" visible="true" lat="44.67540291" lon="-72.92400753">
    <tag k="addr:housenumber" v="752" />
    <tag k="addr:street" v="Fairfax Road" />
    <tag k="addr:state" v="VT" />
    <tag k="ref:vcgi:esiteid" v="108764" />
  </node>
  <node id="-419" visible="true" lat="44.675251" lon="-72.92240905">
    <tag k="addr:housenumber" v="71" />
    <tag k="addr:street" v="Shaw Road" />
    <tag k="addr:state" v="VT" />
    <tag k="ref:vcgi:esiteid" v="108765" />
  </node>
  <node id="-420" visible="true" lat="44.67523193" lon="-72.92481231">
    <tag k="addr:housenumber" v="800" />
    <tag k="addr:street" v="Fairfax Road" />
    <tag k="addr:state" v="VT" />
    <tag k="ref:vcgi:esiteid" v="108766" />
  </node>
  <node id="-421" visible="true" lat="44.67512904" lon="-72.9220901">
    <tag k="addr:housenumber" v="87" />
    <tag k="addr:street" v="Shaw Road" />
    <tag k="addr:state" v="VT" />
    <tag k="ref:vcgi:esiteid" v="108767" />
  </node>
  <node id="-422" visible="true" lat="44.67519378" lon="-72.92147064">
    <tag k="addr:housenumber" v="117" />
    <tag k="addr:street" v="Shaw Road" />
    <tag k="addr:state" v="VT" />
    <tag k="ref:vcgi:esiteid" v="108768" />
  </node>
  <node id="-423" visible="true" lat="44.67503681" lon="-72.9311993">
    <tag k="addr:housenumber" v="106" />
    <tag k="addr:street" v="Woods Road" />
    <tag k="addr:state" v="VT" />
    <tag k="ref:vcgi:esiteid" v="108769" />
  </node>
  <node id="-424" visible="true" lat="44.67516708" lon="-72.92351531">
    <tag k="addr:housenumber" v="20" />
    <tag k="addr:street" v="Shaw Road" />
    <tag k="addr:state" v="VT" />
    <tag k="ref:vcgi:esiteid" v="108770" />
  </node>
  <node id="-425" visible="true" lat="44.67509841" lon="-72.92536163">
    <tag k="addr:housenumber" v="830" />
    <tag k="addr:street" v="Fairfax Road" />
    <tag k="addr:state" v="VT" />
    <tag k="ref:vcgi:esiteid" v="108771" />
  </node>
  <node id="-426" visible="true" lat="44.6750486" lon="-72.91866003">
    <tag k="addr:housenumber" v="271" />
    <tag k="addr:street" v="Shaw Road" />
    <tag k="addr:state" v="VT" />
    <tag k="ref:vcgi:esiteid" v="108772" />
  </node>
  <node id="-427" visible="true" lat="44.67489653" lon="-72.92429613">
    <tag k="addr:housenumber" v="783" />
    <tag k="addr:street" v="Fairfax Road" />
    <tag k="addr:state" v="VT" />
    <tag k="ref:vcgi:esiteid" v="108773" />
  </node>
  <node id="-428" visible="true" lat="44.67491531" lon="-72.9208908">
    <tag k="addr:housenumber" v="149" />
    <tag k="addr:street" v="Shaw Road" />
    <tag k="addr:state" v="VT" />
    <tag k="ref:vcgi:esiteid" v="108774" />
  </node>
  <node id="-429" visible="true" lat="44.67483995" lon="-72.92231556">
    <tag k="addr:housenumber" v="80" />
    <tag k="addr:street" v="Shaw Road" />
    <tag k="addr:state" v="VT" />
    <tag k="ref:vcgi:esiteid" v="108775" />
  </node>
  <node id="-430" visible="true" lat="44.67445702" lon="-72.91697628">
    <tag k="addr:housenumber" v="337" />
    <tag k="addr:street" v="Shaw Road" />
    <tag k="addr:state" v="VT" />
    <tag k="ref:vcgi:esiteid" v="108776" />
  </node>
  <node id="-431" visible="true" lat="44.67485527" lon="-72.92781744">
    <tag k="addr:housenumber" v="976" />
    <tag k="addr:street" v="Fairfax Road" />
    <tag k="addr:state" v="VT" />
    <tag k="ref:vcgi:esiteid" v="108777" />
  </node>
  <node id="-432" visible="true" lat="44.67477035" lon="-72.92171478">
    <tag k="addr:housenumber" v="114" />
    <tag k="addr:street" v="Shaw Road" />
    <tag k="addr:state" v="VT" />
    <tag k="ref:vcgi:esiteid" v="108778" />
  </node>
  <node id="-433" visible="true" lat="44.6747642" lon="-72.92005055">
    <tag k="addr:housenumber" v="189" />
    <tag k="addr:street" v="Shaw Road" />
    <tag k="addr:state" v="VT" />
    <tag k="ref:vcgi:esiteid" v="108779" />
  </node>
  <node id="-434" visible="true" lat="44.67455358" lon="-72.9257522">
    <tag k="addr:housenumber" v="855" />
    <tag k="addr:street" v="Fairfax Road" />
    <tag k="addr:state" v="VT" />
    <tag k="ref:vcgi:esiteid" v="108780" />
  </node>
  <node id="-435" visible="true" lat="44.67450959" lon="-72.9249766">
    <tag k="addr:housenumber" v="819" />
    <tag k="addr:street" v="Fairfax Road" />
    <tag k="addr:state" v="VT" />
    <tag k="ref:vcgi:esiteid" v="108781" />
  </node>
  <node id="-436" visible="true" lat="44.67457095" lon="-72.93593814">
    <tag k="addr:housenumber" v="27" />
    <tag k="addr:street" v="Ide L Acres" />
    <tag k="addr:state" v="VT" />
    <tag k="ref:vcgi:esiteid" v="108782" />
  </node>
  <node id="-437" visible="true" lat="44.6745491" lon="-72.92069244">
    <tag k="addr:housenumber" v="166" />
    <tag k="addr:street" v="Shaw Road" />
    <tag k="addr:state" v="VT" />
    <tag k="ref:vcgi:esiteid" v="108783" />
  </node>
  <node id="-438" visible="true" lat="44.67449972" lon="-72.88396842">
    <tag k="addr:housenumber" v="2278" />
    <tag k="addr:street" v="Cambridge Road" />
    <tag k="addr:state" v="VT" />
    <tag k="ref:vcgi:esiteid" v="108784" />
  </node>
  <node id="-439" visible="true" lat="44.67441558" lon="-72.929039">
    <tag k="addr:housenumber" v="1020" />
    <tag k="addr:street" v="Fairfax Road" />
    <tag k="addr:state" v="VT" />
    <tag k="ref:vcgi:esiteid" v="108785" />
  </node>
  <node id="-440" visible="true" lat="44.67440414" lon="-72.91998291">
    <tag k="addr:housenumber" v="204" />
    <tag k="addr:street" v="Shaw Road" />
    <tag k="addr:state" v="VT" />
    <tag k="ref:vcgi:esiteid" v="108786" />
  </node>
  <node id="-441" visible="true" lat="44.67442352" lon="-72.93107757">
    <tag k="addr:housenumber" v="1124" />
    <tag k="addr:street" v="Fairfax Road" />
    <tag k="addr:state" v="VT" />
    <tag k="ref:vcgi:esiteid" v="108787" />
  </node>
  <node id="-442" visible="true" lat="44.67404522" lon="-72.91914361">
    <tag k="addr:housenumber" v="242" />
    <tag k="addr:street" v="Shaw Road" />
    <tag k="addr:state" v="VT" />
    <tag k="ref:vcgi:esiteid" v="108788" />
  </node>
  <node id="-443" visible="true" lat="44.6740499" lon="-72.93185576">
    <tag k="addr:housenumber" v="26" />
    <tag k="addr:street" v="Woods Road" />
    <tag k="addr:state" v="VT" />
    <tag k="ref:vcgi:esiteid" v="108789" />
  </node>
  <node id="-444" visible="true" lat="44.67391508" lon="-72.93261802">
    <tag k="addr:housenumber" v="15" />
    <tag k="addr:street" v="Woods Road" />
    <tag k="addr:state" v="VT" />
    <tag k="ref:vcgi:esiteid" v="108790" />
  </node>
  <node id="-445" visible="true" lat="44.67423224" lon="-72.91643346">
    <tag k="addr:housenumber" v="373" />
    <tag k="addr:street" v="Shaw Road" />
    <tag k="addr:state" v="VT" />
    <tag k="ref:vcgi:esiteid" v="108791" />
  </node>
  <node id="-446" visible="true" lat="44.67404919" lon="-72.9078727">
    <tag k="addr:housenumber" v="791" />
    <tag k="addr:street" v="Shaw Road" />
    <tag k="addr:state" v="VT" />
    <tag k="ref:vcgi:esiteid" v="108792" />
  </node>
  <node id="-447" visible="true" lat="44.67437569" lon="-72.91520687">
    <tag k="addr:housenumber" v="409" />
    <tag k="addr:street" v="Shaw Road" />
    <tag k="addr:state" v="VT" />
    <tag k="ref:vcgi:esiteid" v="108793" />
  </node>
  <node id="-448" visible="true" lat="44.67384439" lon="-72.91859992">
    <tag k="addr:housenumber" v="264" />
    <tag k="addr:street" v="Shaw Road" />
    <tag k="addr:state" v="VT" />
    <tag k="ref:vcgi:esiteid" v="108794" />
  </node>
  <node id="-449" visible="true" lat="44.67383671" lon="-72.93911089">
    <tag k="addr:housenumber" v="1520" />
    <tag k="addr:street" v="Fairfax Road" />
    <tag k="addr:state" v="VT" />
    <tag k="ref:vcgi:esiteid" v="108795" />
  </node>
  <node id="-450" visible="true" lat="44.67372131" lon="-72.93109893">
    <tag k="addr:housenumber" v="1161" />
    <tag k="addr:street" v="Fairfax Road" />
    <tag k="addr:state" v="VT" />
    <tag k="ref:vcgi:esiteid" v="108796" />
  </node>
  <node id="-451" visible="true" lat="44.67358915" lon="-72.92384725">
    <tag k="addr:housenumber" v="110" />
    <tag k="addr:street" v="School Road" />
    <tag k="addr:state" v="VT" />
    <tag k="ref:vcgi:esiteid" v="108798" />
  </node>
  <node id="-452" visible="true" lat="44.67350959" lon="-72.93315196">
    <tag k="addr:housenumber" v="1217" />
    <tag k="addr:street" v="Fairfax Road" />
    <tag k="addr:state" v="VT" />
    <tag k="ref:vcgi:esiteid" v="108799" />
  </node>
  <node id="-453" visible="true" lat="44.67342772" lon="-72.92397801">
    <tag k="addr:housenumber" v="120" />
    <tag k="addr:street" v="School Road" />
    <tag k="addr:state" v="VT" />
    <tag k="ref:vcgi:esiteid" v="108800" />
  </node>
  <node id="-454" visible="true" lat="44.67314017" lon="-72.93891451">
    <tag k="addr:housenumber" v="1515" />
    <tag k="addr:street" v="Fairfax Road" />
    <tag k="addr:state" v="VT" />
    <tag k="ref:vcgi:esiteid" v="108801" />
  </node>
  <node id="-455" visible="true" lat="44.67315673" lon="-72.92354583">
    <tag k="addr:housenumber" v="146" />
    <tag k="addr:street" v="School Road" />
    <tag k="addr:state" v="VT" />
    <tag k="ref:vcgi:esiteid" v="108802" />
  </node>
  <node id="-456" visible="true" lat="44.67305687" lon="-72.91218898">
    <tag k="addr:housenumber" v="607" />
    <tag k="addr:street" v="Shaw Road" />
    <tag k="addr:state" v="VT" />
    <tag k="ref:vcgi:esiteid" v="108803" />
  </node>
  <node id="-457" visible="true" lat="44.67304992" lon="-72.92872619">
    <tag k="addr:housenumber" v="126" />
    <tag k="addr:street" v="Schoolcraft Road" />
    <tag k="addr:state" v="VT" />
    <tag k="ref:vcgi:esiteid" v="108804" />
  </node>
  <node id="-458" visible="true" lat="44.67294132" lon="-72.92831396">
    <tag k="addr:housenumber" v="131" />
    <tag k="addr:street" v="Schoolcraft Road" />
    <tag k="addr:state" v="VT" />
    <tag k="ref:vcgi:esiteid" v="108805" />
  </node>
  <node id="-459" visible="true" lat="44.67202012" lon="-72.93126545">
    <tag k="addr:housenumber" v="91" />
    <tag k="addr:street" v="Earl Road" />
    <tag k="addr:state" v="VT" />
    <tag k="ref:vcgi:esiteid" v="108806" />
  </node>
  <node id="-460" visible="true" lat="44.67271804" lon="-72.91564178">
    <tag k="addr:housenumber" v="416" />
    <tag k="addr:street" v="Shaw Road" />
    <tag k="addr:state" v="VT" />
    <tag k="ref:vcgi:esiteid" v="108807" />
  </node>
  <node id="-461" visible="true" lat="44.67247126" lon="-72.91171384">
    <tag k="addr:housenumber" v="586" />
    <tag k="addr:street" v="Shaw Road" />
    <tag k="addr:state" v="VT" />
    <tag k="ref:vcgi:esiteid" v="108808" />
  </node>
  <node id="-462" visible="true" lat="44.67213436" lon="-72.92545524">
    <tag k="addr:housenumber" v="98" />
    <tag k="addr:street" v="Bog Road" />
    <tag k="addr:state" v="VT" />
    <tag k="ref:vcgi:esiteid" v="108809" />
  </node>
  <node id="-463" visible="true" lat="44.67168561" lon="-72.93046145">
    <tag k="addr:housenumber" v="57" />
    <tag k="addr:street" v="Earl Road" />
    <tag k="addr:state" v="VT" />
    <tag k="ref:vcgi:esiteid" v="108810" />
  </node>
  <node id="-464" visible="true" lat="44.67229696" lon="-72.92745698">
    <tag k="addr:housenumber" v="185" />
    <tag k="addr:street" v="Schoolcraft Road" />
    <tag k="addr:state" v="VT" />
    <tag k="ref:vcgi:esiteid" v="108811" />
  </node>
  <node id="-465" visible="true" lat="44.67225157" lon="-72.88670032">
    <tag k="addr:housenumber" v="2488" />
    <tag k="addr:street" v="Cambridge Road" />
    <tag k="addr:state" v="VT" />
    <tag k="ref:vcgi:esiteid" v="108812" />
  </node>
  <node id="-466" visible="true" lat="44.67177382" lon="-72.92569291">
    <tag k="addr:housenumber" v="112" />
    <tag k="addr:street" v="Bog Road" />
    <tag k="addr:state" v="VT" />
    <tag k="ref:vcgi:esiteid" v="108813" />
  </node>
  <node id="-467" visible="true" lat="44.6718195" lon="-72.88541096">
    <tag k="addr:housenumber" v="2483" />
    <tag k="addr:street" v="Cambridge Road" />
    <tag k="addr:state" v="VT" />
    <tag k="ref:vcgi:esiteid" v="108814" />
  </node>
  <node id="-468" visible="true" lat="44.67144606" lon="-72.92884127">
    <tag k="addr:housenumber" v="235" />
    <tag k="addr:street" v="Schoolcraft Road" />
    <tag k="addr:state" v="VT" />
    <tag k="ref:vcgi:esiteid" v="108815" />
  </node>
  <node id="-469" visible="true" lat="44.67141278" lon="-72.92583517">
    <tag k="addr:housenumber" v="142" />
    <tag k="addr:street" v="Bog Road" />
    <tag k="addr:state" v="VT" />
    <tag k="ref:vcgi:esiteid" v="108816" />
  </node>
  <node id="-470" visible="true" lat="44.67126809" lon="-72.92953775">
    <tag k="addr:housenumber" v="256" />
    <tag k="addr:street" v="Schoolcraft Road" />
    <tag k="addr:state" v="VT" />
    <tag k="ref:vcgi:esiteid" v="108817" />
  </node>
  <node id="-471" visible="true" lat="44.67052263" lon="-72.92806149">
    <tag k="addr:housenumber" v="68" />
    <tag k="addr:street" v="Stone Lane" />
    <tag k="addr:state" v="VT" />
    <tag k="ref:vcgi:esiteid" v="108818" />
  </node>
  <node id="-472" visible="true" lat="44.67058723" lon="-72.92647753">
    <tag k="addr:housenumber" v="215" />
    <tag k="addr:street" v="Bog Road" />
    <tag k="addr:state" v="VT" />
    <tag k="ref:vcgi:esiteid" v="108819" />
  </node>
  <node id="-473" visible="true" lat="44.67075255" lon="-72.92882275">
    <tag k="addr:housenumber" v="293" />
    <tag k="addr:street" v="Schoolcraft Road" />
    <tag k="addr:state" v="VT" />
    <tag k="ref:vcgi:esiteid" v="108820" />
  </node>
  <node id="-474" visible="true" lat="44.67040662" lon="-72.92386516">
    <tag k="addr:housenumber" v="340" />
    <tag k="addr:street" v="School Road" />
    <tag k="addr:state" v="VT" />
    <tag k="ref:vcgi:esiteid" v="108821" />
  </node>
  <node id="-475" visible="true" lat="44.67045253" lon="-72.92994107">
    <tag k="addr:housenumber" v="322" />
    <tag k="addr:street" v="Schoolcraft Road" />
    <tag k="addr:state" v="VT" />
    <tag k="ref:vcgi:esiteid" v="108822" />
  </node>
  <node id="-476" visible="true" lat="44.67010372" lon="-72.92725691">
    <tag k="addr:housenumber" v="116" />
    <tag k="addr:street" v="Stone Lane" />
    <tag k="addr:state" v="VT" />
    <tag k="ref:vcgi:esiteid" v="108823" />
  </node>
  <node id="-477" visible="true" lat="44.67026698" lon="-72.92889716">
    <tag k="addr:housenumber" v="315" />
    <tag k="addr:street" v="Schoolcraft Road" />
    <tag k="addr:state" v="VT" />
    <tag k="ref:vcgi:esiteid" v="108824" />
  </node>
  <node id="-478" visible="true" lat="44.66993025" lon="-72.92673022">
    <tag k="addr:housenumber" v="168" />
    <tag k="addr:street" v="Stone Lane" />
    <tag k="addr:state" v="VT" />
    <tag k="ref:vcgi:esiteid" v="108825" />
  </node>
  <node id="-479" visible="true" lat="44.66906776" lon="-72.92994518">
    <tag k="addr:housenumber" v="409" />
    <tag k="addr:street" v="Schoolcraft Road" />
    <tag k="addr:state" v="VT" />
    <tag k="ref:vcgi:esiteid" v="108826" />
  </node>
  <node id="-480" visible="true" lat="44.66886349" lon="-72.93118442">
    <tag k="addr:housenumber" v="455" />
    <tag k="addr:street" v="Schoolcraft Road" />
    <tag k="addr:state" v="VT" />
    <tag k="ref:vcgi:esiteid" v="108827" />
  </node>
  <node id="-481" visible="true" lat="44.66893386" lon="-72.89314269">
    <tag k="addr:housenumber" v="280" />
    <tag k="addr:street" v="King Road" />
    <tag k="addr:state" v="VT" />
    <tag k="ref:vcgi:esiteid" v="108828" />
  </node>
  <node id="-482" visible="true" lat="44.66855539" lon="-72.92367909">
    <tag k="addr:housenumber" v="468" />
    <tag k="addr:street" v="School Road" />
    <tag k="addr:state" v="VT" />
    <tag k="ref:vcgi:esiteid" v="108829" />
  </node>
  <node id="-483" visible="true" lat="44.66818023" lon="-72.92369783">
    <tag k="addr:housenumber" v="488" />
    <tag k="addr:street" v="School Road" />
    <tag k="addr:state" v="VT" />
    <tag k="ref:vcgi:esiteid" v="108830" />
  </node>
  <node id="-484" visible="true" lat="44.66819763" lon="-72.92467498">
    <tag k="addr:housenumber" v="530" />
    <tag k="addr:street" v="School Road" />
    <tag k="addr:state" v="VT" />
    <tag k="ref:vcgi:esiteid" v="108831" />
  </node>
  <node id="-485" visible="true" lat="44.66810151" lon="-72.9221542">
    <tag k="addr:housenumber" v="525" />
    <tag k="addr:street" v="School Road" />
    <tag k="addr:state" v="VT" />
    <tag k="ref:vcgi:esiteid" v="108832" />
  </node>
  <node id="-486" visible="true" lat="44.66790915" lon="-72.88945755">
    <tag k="addr:housenumber" v="30" />
    <tag k="addr:street" v="Mountain View Drive" />
    <tag k="addr:state" v="VT" />
    <tag k="ref:vcgi:esiteid" v="108833" />
  </node>
  <node id="-487" visible="true" lat="44.66777038" lon="-72.89218139">
    <tag k="addr:housenumber" v="182" />
    <tag k="addr:street" v="King Road" />
    <tag k="addr:state" v="VT" />
    <tag k="ref:vcgi:esiteid" v="108834" />
  </node>
  <node id="-488" visible="true" lat="44.6674561" lon="-72.89018303">
    <tag k="addr:housenumber" v="49" />
    <tag k="addr:street" v="Mountain View Drive" />
    <tag k="addr:state" v="VT" />
    <tag k="ref:vcgi:esiteid" v="108835" />
  </node>
  <node id="-489" visible="true" lat="44.66703944" lon="-72.92364297">
    <tag k="addr:housenumber" v="574" />
    <tag k="addr:street" v="School Road" />
    <tag k="addr:state" v="VT" />
    <tag k="ref:vcgi:esiteid" v="108836" />
  </node>
  <node id="-490" visible="true" lat="44.66690272" lon="-72.92274589">
    <tag k="addr:housenumber" v="597" />
    <tag k="addr:street" v="School Road" />
    <tag k="addr:state" v="VT" />
    <tag k="ref:vcgi:esiteid" v="108837" />
  </node>
  <node id="-491" visible="true" lat="44.66653823" lon="-72.90638732">
    <tag k="addr:housenumber" v="778" />
    <tag k="addr:street" v="Black Mountain Road" />
    <tag k="addr:state" v="VT" />
    <tag k="ref:vcgi:esiteid" v="108838" />
  </node>
  <node id="-492" visible="true" lat="44.66616707" lon="-72.92383619">
    <tag k="addr:housenumber" v="626" />
    <tag k="addr:street" v="School Road" />
    <tag k="addr:state" v="VT" />
    <tag k="ref:vcgi:esiteid" v="108839" />
  </node>
  <node id="-493" visible="true" lat="44.66559792" lon="-72.92464242">
    <tag k="addr:housenumber" v="628" />
    <tag k="addr:street" v="School Road" />
    <tag k="addr:state" v="VT" />
    <tag k="ref:vcgi:esiteid" v="108840" />
  </node>
  <node id="-494" visible="true" lat="44.66566982" lon="-72.92229292">
    <tag k="addr:housenumber" v="32" />
    <tag k="addr:street" v="Oustinoff Road" />
    <tag k="addr:state" v="VT" />
    <tag k="ref:vcgi:esiteid" v="108841" />
  </node>
  <node id="-495" visible="true" lat="44.66491303" lon="-72.92357492">
    <tag k="addr:housenumber" v="706" />
    <tag k="addr:street" v="School Road" />
    <tag k="addr:state" v="VT" />
    <tag k="ref:vcgi:esiteid" v="108842" />
  </node>
  <node id="-496" visible="true" lat="44.66481024" lon="-72.92210315">
    <tag k="addr:housenumber" v="34" />
    <tag k="addr:street" v="Kays Way" />
    <tag k="addr:state" v="VT" />
    <tag k="ref:vcgi:esiteid" v="108843" />
  </node>
  <node id="-497" visible="true" lat="44.66478446" lon="-72.92116862">
    <tag k="addr:housenumber" v="62" />
    <tag k="addr:street" v="Kays Way" />
    <tag k="addr:state" v="VT" />
    <tag k="ref:vcgi:esiteid" v="108844" />
  </node>
  <node id="-498" visible="true" lat="44.66429222" lon="-72.90679562">
    <tag k="addr:housenumber" v="576" />
    <tag k="addr:street" v="Black Mountain Road" />
    <tag k="addr:state" v="VT" />
    <tag k="ref:vcgi:esiteid" v="108845" />
  </node>
  <node id="-499" visible="true" lat="44.66379165" lon="-72.92367553">
    <tag k="addr:housenumber" v="67" />
    <tag k="addr:street" v="Thomas Road" />
    <tag k="addr:state" v="VT" />
    <tag k="ref:vcgi:esiteid" v="108846" />
  </node>
  <node id="-500" visible="true" lat="44.66378694" lon="-72.90673808">
    <tag k="addr:housenumber" v="544" />
    <tag k="addr:street" v="Black Mountain Road" />
    <tag k="addr:state" v="VT" />
    <tag k="ref:vcgi:esiteid" v="108847" />
  </node>
  <node id="-501" visible="true" lat="44.66346359" lon="-72.92094421">
    <tag k="addr:housenumber" v="893" />
    <tag k="addr:street" v="School Road" />
    <tag k="addr:state" v="VT" />
    <tag k="ref:vcgi:esiteid" v="108848" />
  </node>
  <node id="-502" visible="true" lat="44.66344011" lon="-72.92266075">
    <tag k="addr:housenumber" v="826" />
    <tag k="addr:street" v="School Road" />
    <tag k="addr:state" v="VT" />
    <tag k="ref:vcgi:esiteid" v="108849" />
  </node>
  <node id="-503" visible="true" lat="44.66347167" lon="-72.92429514">
    <tag k="addr:housenumber" v="111" />
    <tag k="addr:street" v="Thomas Road" />
    <tag k="addr:state" v="VT" />
    <tag k="ref:vcgi:esiteid" v="108850" />
  </node>
  <node id="-504" visible="true" lat="44.66286212" lon="-72.9214074">
    <tag k="addr:housenumber" v="880" />
    <tag k="addr:street" v="School Road" />
    <tag k="addr:state" v="VT" />
    <tag k="ref:vcgi:esiteid" v="108851" />
  </node>
  <node id="-505" visible="true" lat="44.6626124" lon="-72.91919588">
    <tag k="addr:housenumber" v="1030" />
    <tag k="addr:street" v="School Road" />
    <tag k="addr:state" v="VT" />
    <tag k="ref:vcgi:esiteid" v="108852" />
  </node>
  <node id="-506" visible="true" lat="44.66250228" lon="-72.9257965">
    <tag k="addr:housenumber" v="211" />
    <tag k="addr:street" v="Thomas Road" />
    <tag k="addr:state" v="VT" />
    <tag k="ref:vcgi:esiteid" v="108853" />
  </node>
  <node id="-507" visible="true" lat="44.66267017" lon="-72.90561203">
    <tag k="addr:housenumber" v="452" />
    <tag k="addr:street" v="Black Mountain Road" />
    <tag k="addr:state" v="VT" />
    <tag k="ref:vcgi:esiteid" v="108854" />
  </node>
  <node id="-508" visible="true" lat="44.66232003" lon="-72.91541195">
    <tag k="addr:housenumber" v="1175" />
    <tag k="addr:street" v="School Road" />
    <tag k="addr:state" v="VT" />
    <tag k="ref:vcgi:esiteid" v="108855" />
  </node>
  <node id="-509" visible="true" lat="44.66211054" lon="-72.92629822">
    <tag k="addr:housenumber" v="247" />
    <tag k="addr:street" v="Thomas Road" />
    <tag k="addr:state" v="VT" />
    <tag k="ref:vcgi:esiteid" v="108856" />
  </node>
  <node id="-510" visible="true" lat="44.66172901" lon="-72.9212358">
    <tag k="addr:housenumber" v="207" />
    <tag k="addr:street" v="Turgante Road" />
    <tag k="addr:state" v="VT" />
    <tag k="ref:vcgi:esiteid" v="108857" />
  </node>
  <node id="-511" visible="true" lat="44.66187276" lon="-72.90659129">
    <tag k="addr:housenumber" v="43" />
    <tag k="addr:street" v="Left Lane" />
    <tag k="addr:state" v="VT" />
    <tag k="ref:vcgi:esiteid" v="108858" />
  </node>
  <node id="-512" visible="true" lat="44.66135787" lon="-72.92533111">
    <tag k="addr:housenumber" v="119" />
    <tag k="addr:street" v="Thomas Road" />
    <tag k="addr:state" v="VT" />
    <tag k="ref:vcgi:esiteid" v="108859" />
  </node>
  <node id="-513" visible="true" lat="44.66048728" lon="-72.90570693">
    <tag k="addr:housenumber" v="85" />
    <tag k="addr:street" v="The Hill Road" />
    <tag k="addr:state" v="VT" />
    <tag k="ref:vcgi:esiteid" v="108860" />
  </node>
  <node id="-514" visible="true" lat="44.65987891" lon="-72.90669977">
    <tag k="addr:housenumber" v="280" />
    <tag k="addr:street" v="Black Mountain Road" />
    <tag k="addr:state" v="VT" />
    <tag k="ref:vcgi:esiteid" v="108861" />
  </node>
  <node id="-515" visible="true" lat="44.65981674" lon="-72.90866851">
    <tag k="addr:housenumber" v="221" />
    <tag k="addr:street" v="Black Mountain Road" />
    <tag k="addr:state" v="VT" />
    <tag k="ref:vcgi:esiteid" v="108862" />
  </node>
  <node id="-516" visible="true" lat="44.65977469" lon="-72.90470357">
    <tag k="addr:housenumber" v="150" />
    <tag k="addr:street" v="The Hill Road" />
    <tag k="addr:state" v="VT" />
    <tag k="ref:vcgi:esiteid" v="108863" />
  </node>
  <node id="-517" visible="true" lat="44.65845167" lon="-72.92117619">
    <tag k="addr:housenumber" v="463" />
    <tag k="addr:street" v="Turgante Road" />
    <tag k="addr:state" v="VT" />
    <tag k="ref:vcgi:esiteid" v="108864" />
  </node>
  <node id="-518" visible="true" lat="44.65549795" lon="-72.9080597">
    <tag k="addr:housenumber" v="1834" />
    <tag k="addr:street" v="School Road" />
    <tag k="addr:state" v="VT" />
    <tag k="ref:vcgi:esiteid" v="108865" />
  </node>
  <node id="-519" visible="true" lat="44.65542735" lon="-72.90915489">
    <tag k="addr:housenumber" v="1826" />
    <tag k="addr:street" v="School Road" />
    <tag k="addr:state" v="VT" />
    <tag k="ref:vcgi:esiteid" v="108866" />
  </node>
  <node id="-520" visible="true" lat="44.65351486" lon="-72.8996582">
    <tag k="addr:housenumber" v="506" />
    <tag k="addr:street" v="River Road" />
    <tag k="addr:state" v="VT" />
    <tag k="ref:vcgi:esiteid" v="108867" />
  </node>
  <node id="-521" visible="true" lat="44.6532306" lon="-72.90741753">
    <tag k="addr:housenumber" v="1993" />
    <tag k="addr:street" v="School Road" />
    <tag k="addr:state" v="VT" />
    <tag k="ref:vcgi:esiteid" v="108868" />
  </node>
  <node id="-522" visible="true" lat="44.65310287" lon="-72.90318298">
    <tag k="addr:housenumber" v="682" />
    <tag k="addr:street" v="River Road" />
    <tag k="addr:state" v="VT" />
    <tag k="ref:vcgi:esiteid" v="108869" />
  </node>
  <node id="-523" visible="true" lat="44.65277862" lon="-72.90601348">
    <tag k="addr:housenumber" v="824" />
    <tag k="addr:street" v="River Road" />
    <tag k="addr:state" v="VT" />
    <tag k="ref:vcgi:esiteid" v="108870" />
  </node>
  <node id="-524" visible="true" lat="44.65261076" lon="-72.90958022">
    <tag k="addr:housenumber" v="990" />
    <tag k="addr:street" v="River Road" />
    <tag k="addr:state" v="VT" />
    <tag k="ref:vcgi:esiteid" v="108871" />
  </node>
  <node id="-525" visible="true" lat="44.65207169" lon="-72.91116366">
    <tag k="addr:housenumber" v="1078" />
    <tag k="addr:street" v="River Road" />
    <tag k="addr:state" v="VT" />
    <tag k="ref:vcgi:esiteid" v="108872" />
  </node>
  <node id="-526" visible="true" lat="44.6519392" lon="-72.90896795">
    <tag k="addr:housenumber" v="997" />
    <tag k="addr:street" v="River Road" />
    <tag k="addr:state" v="VT" />
    <tag k="ref:vcgi:esiteid" v="108873" />
  </node>
  <node id="-527" visible="true" lat="44.65161442" lon="-72.91201233">
    <tag k="addr:housenumber" v="1120" />
    <tag k="addr:street" v="River Road" />
    <tag k="addr:state" v="VT" />
    <tag k="ref:vcgi:esiteid" v="108874" />
  </node>
  <node id="-528" visible="true" lat="44.65171659" lon="-72.915227">
    <tag k="addr:housenumber" v="1362" />
    <tag k="addr:street" v="River Road" />
    <tag k="addr:state" v="VT" />
    <tag k="ref:vcgi:esiteid" v="108875" />
  </node>
  <node id="-529" visible="true" lat="44.65142301" lon="-72.91272931">
    <tag k="addr:housenumber" v="1172" />
    <tag k="addr:street" v="River Road" />
    <tag k="addr:state" v="VT" />
    <tag k="ref:vcgi:esiteid" v="108876" />
  </node>
  <node id="-530" visible="true" lat="44.65085983" lon="-72.91978454">
    <tag k="addr:housenumber" v="1569" />
    <tag k="addr:street" v="River Road" />
    <tag k="addr:state" v="VT" />
    <tag k="ref:vcgi:esiteid" v="108877" />
  </node>
  <node id="-531" visible="true" lat="44.65043159" lon="-72.91399204">
    <tag k="addr:housenumber" v="1266" />
    <tag k="addr:street" v="River Road" />
    <tag k="addr:state" v="VT" />
    <tag k="ref:vcgi:esiteid" v="108878" />
  </node>
  <node id="-532" visible="true" lat="44.70582946" lon="-72.96425963">
    <tag k="addr:housenumber" v="968" />
    <tag k="addr:street" v="Ellsworth Road" />
    <tag k="addr:state" v="VT" />
    <tag k="ref:vcgi:esiteid" v="108879" />
  </node>
  <node id="-533" visible="true" lat="44.69888488" lon="-72.95886757">
    <tag k="addr:housenumber" v="127" />
    <tag k="addr:street" v="Drinkwine Road" />
    <tag k="addr:state" v="VT" />
    <tag k="ref:vcgi:esiteid" v="108880" />
  </node>
  <node id="-534" visible="true" lat="44.69779994" lon="-72.95811003">
    <tag k="addr:housenumber" v="246" />
    <tag k="addr:street" v="Drinkwine Road" />
    <tag k="addr:state" v="VT" />
    <tag k="ref:vcgi:esiteid" v="108881" />
  </node>
  <node id="-535" visible="true" lat="44.70289176" lon="-72.95343996">
    <tag k="addr:housenumber" v="570" />
    <tag k="addr:street" v="Slattery Road" />
    <tag k="addr:state" v="VT" />
    <tag k="ref:vcgi:esiteid" v="108882" />
  </node>
  <node id="-536" visible="true" lat="44.67429938" lon="-72.92161053">
    <tag k="addr:housenumber" v="136" />
    <tag k="addr:street" v="Shaw Road" />
    <tag k="addr:state" v="VT" />
    <tag k="ref:vcgi:esiteid" v="108883" />
  </node>
  <node id="-537" visible="true" lat="44.66371302" lon="-72.92221713">
    <tag k="addr:housenumber" v="817" />
    <tag k="addr:street" v="School Road" />
    <tag k="addr:state" v="VT" />
    <tag k="ref:vcgi:esiteid" v="108884" />
  </node>
  <node id="-538" visible="true" lat="44.68976944" lon="-72.94796419">
    <tag k="addr:housenumber" v="880" />
    <tag k="addr:street" v="Rugg Road" />
    <tag k="addr:state" v="VT" />
    <tag k="ref:vcgi:esiteid" v="108885" />
  </node>
  <node id="-539" visible="true" lat="44.69083227" lon="-72.94376118">
    <tag k="addr:housenumber" v="53" />
    <tag k="addr:street" v="Red Maple Drive" />
    <tag k="addr:state" v="VT" />
    <tag k="ref:vcgi:esiteid" v="108886" />
  </node>
  <node id="-540" visible="true" lat="44.68578185" lon="-72.88783406">
    <tag k="addr:housenumber" v="1419" />
    <tag k="addr:street" v="Cambridge Road" />
    <tag k="addr:state" v="VT" />
    <tag k="ref:vcgi:esiteid" v="108887" />
  </node>
  <node id="-541" visible="true" lat="44.68573619" lon="-72.88473669">
    <tag k="addr:housenumber" v="64" />
    <tag k="addr:street" v="Sweet Berry Lane" />
    <tag k="addr:state" v="VT" />
    <tag k="ref:vcgi:esiteid" v="108888" />
  </node>
  <node id="-542" visible="true" lat="44.70753632" lon="-72.93629856">
    <tag k="addr:housenumber" v="124" />
    <tag k="addr:street" v="Mayotte Road" />
    <tag k="addr:state" v="VT" />
    <tag k="ref:vcgi:esiteid" v="108889" />
  </node>
  <node id="-543" visible="true" lat="44.74672659" lon="-72.98726905">
    <tag k="addr:housenumber" v="1467" />
    <tag k="addr:street" v="Buck Hollow Road" />
    <tag k="addr:state" v="VT" />
    <tag k="ref:vcgi:esiteid" v="108890" />
  </node>
  <node id="-544" visible="true" lat="44.74446182" lon="-72.97810818">
    <tag k="addr:housenumber" v="303" />
    <tag k="addr:street" v="Lloyd Road" />
    <tag k="addr:state" v="VT" />
    <tag k="ref:vcgi:esiteid" v="108891" />
  </node>
  <node id="-545" visible="true" lat="44.75160515" lon="-72.98293294">
    <tag k="addr:housenumber" v="156" />
    <tag k="addr:street" v="Whitetail Way" />
    <tag k="addr:state" v="VT" />
    <tag k="ref:vcgi:esiteid" v="108892" />
  </node>
  <node id="-546" visible="true" lat="44.74057188" lon="-72.93409841">
    <tag k="addr:housenumber" v="749" />
    <tag k="addr:street" v="Will George Road" />
    <tag k="addr:state" v="VT" />
    <tag k="ref:vcgi:esiteid" v="108893" />
  </node>
  <node id="-547" visible="true" lat="44.74526132" lon="-72.95037253">
    <tag k="addr:housenumber" v="5555" />
    <tag k="addr:street" v="Fairfield Road" />
    <tag k="addr:state" v="VT" />
    <tag k="ref:vcgi:esiteid" v="108894" />
  </node>
  <node id="-548" visible="true" lat="44.73424161" lon="-72.95106607">
    <tag k="addr:housenumber" v="4683" />
    <tag k="addr:street" v="Fairfield Road" />
    <tag k="addr:state" v="VT" />
    <tag k="ref:vcgi:esiteid" v="108895" />
  </node>
  <node id="-549" visible="true" lat="44.71723116" lon="-72.95778247">
    <tag k="addr:housenumber" v="98" />
    <tag k="addr:street" v="Ellsworth Road" />
    <tag k="addr:state" v="VT" />
    <tag k="ref:vcgi:esiteid" v="108896" />
  </node>
  <node id="-550" visible="true" lat="44.71543857" lon="-72.95975978">
    <tag k="addr:housenumber" v="105" />
    <tag k="addr:street" v="Buck Mountain Road" />
    <tag k="addr:state" v="VT" />
    <tag k="ref:vcgi:esiteid" v="108897" />
  </node>
  <node id="-551" visible="true" lat="44.7146146" lon="-72.96057921">
    <tag k="addr:housenumber" v="380" />
    <tag k="addr:street" v="Ellsworth Road" />
    <tag k="addr:state" v="VT" />
    <tag k="ref:vcgi:esiteid" v="108898" />
  </node>
  <node id="-552" visible="true" lat="44.71171408" lon="-72.94988958">
    <tag k="addr:housenumber" v="3050" />
    <tag k="addr:street" v="Fairfield Road" />
    <tag k="addr:state" v="VT" />
    <tag k="ref:vcgi:esiteid" v="108899" />
  </node>
  <node id="-553" visible="true" lat="44.71275288" lon="-72.96059113">
    <tag k="addr:housenumber" v="474" />
    <tag k="addr:street" v="Ellsworth Road" />
    <tag k="addr:state" v="VT" />
    <tag k="ref:vcgi:esiteid" v="108900" />
  </node>
  <node id="-554" visible="true" lat="44.71657218" lon="-72.95653247">
    <tag k="addr:housenumber" v="65" />
    <tag k="addr:street" v="Ellsworth Road" />
    <tag k="addr:state" v="VT" />
    <tag k="ref:vcgi:esiteid" v="108901" />
  </node>
  <node id="-555" visible="true" lat="44.70660073" lon="-72.96506072">
    <tag k="addr:housenumber" v="224" />
    <tag k="addr:street" v="Tabor Hill Road" />
    <tag k="addr:state" v="VT" />
    <tag k="ref:vcgi:esiteid" v="108902" />
  </node>
  <node id="-556" visible="true" lat="44.71016621" lon="-72.93971981">
    <tag k="addr:housenumber" v="235" />
    <tag k="addr:street" v="Mayotte Road" />
    <tag k="addr:state" v="VT" />
    <tag k="ref:vcgi:esiteid" v="108903" />
  </node>
  <node id="-557" visible="true" lat="44.703062" lon="-72.95743806">
    <tag k="addr:housenumber" v="702" />
    <tag k="addr:street" v="Slattery Road" />
    <tag k="addr:state" v="VT" />
    <tag k="ref:vcgi:esiteid" v="108904" />
  </node>
  <node id="-558" visible="true" lat="44.70103597" lon="-72.96101251">
    <tag k="addr:housenumber" v="904" />
    <tag k="addr:street" v="Slattery Road" />
    <tag k="addr:state" v="VT" />
    <tag k="ref:vcgi:esiteid" v="108905" />
  </node>
  <node id="-559" visible="true" lat="44.70142207" lon="-72.96043425">
    <tag k="addr:housenumber" v="850" />
    <tag k="addr:street" v="Slattery Road" />
    <tag k="addr:state" v="VT" />
    <tag k="ref:vcgi:esiteid" v="108906" />
  </node>
  <node id="-560" visible="true" lat="44.70213835" lon="-72.95778481">
    <tag k="addr:housenumber" v="754" />
    <tag k="addr:street" v="Slattery Road" />
    <tag k="addr:state" v="VT" />
    <tag k="ref:vcgi:esiteid" v="108907" />
  </node>
  <node id="-561" visible="true" lat="44.70247382" lon="-72.9591245">
    <tag k="addr:housenumber" v="816" />
    <tag k="addr:street" v="Slattery Road" />
    <tag k="addr:state" v="VT" />
    <tag k="ref:vcgi:esiteid" v="108908" />
  </node>
  <node id="-562" visible="true" lat="44.6968937" lon="-72.93675537">
    <tag k="addr:housenumber" v="1535" />
    <tag k="addr:street" v="Fairfield Road" />
    <tag k="addr:state" v="VT" />
    <tag k="ref:vcgi:esiteid" v="108909" />
  </node>
  <node id="-563" visible="true" lat="44.69345584" lon="-72.93201968">
    <tag k="addr:housenumber" v="1199" />
    <tag k="addr:street" v="Fairfield Road" />
    <tag k="addr:state" v="VT" />
    <tag k="ref:vcgi:esiteid" v="108910" />
  </node>
  <node id="-564" visible="true" lat="44.69175334" lon="-72.94447532">
    <tag k="addr:housenumber" v="655" />
    <tag k="addr:street" v="Rugg Road" />
    <tag k="addr:state" v="VT" />
    <tag k="ref:vcgi:esiteid" v="108911" />
  </node>
  <node id="-565" visible="true" lat="44.69033076" lon="-72.9459921">
    <tag k="addr:housenumber" v="755" />
    <tag k="addr:street" v="Rugg Road" />
    <tag k="addr:state" v="VT" />
    <tag k="ref:vcgi:esiteid" v="108912" />
  </node>
  <node id="-566" visible="true" lat="44.67579307" lon="-72.93600566">
    <tag k="addr:housenumber" v="131" />
    <tag k="addr:street" v="Ide L Acres" />
    <tag k="addr:state" v="VT" />
    <tag k="ref:vcgi:esiteid" v="108914" />
  </node>
  <node id="-567" visible="true" lat="44.67296146" lon="-72.93764102">
    <tag k="addr:housenumber" v="51" />
    <tag k="addr:street" v="Meadow Brook Lane" />
    <tag k="addr:state" v="VT" />
    <tag k="ref:vcgi:esiteid" v="108915" />
  </node>
  <node id="-568" visible="true" lat="44.67269648" lon="-72.93797958">
    <tag k="addr:housenumber" v="52" />
    <tag k="addr:street" v="Meadow Brook Lane" />
    <tag k="addr:state" v="VT" />
    <tag k="ref:vcgi:esiteid" v="108916" />
  </node>
  <node id="-569" visible="true" lat="44.67238235" lon="-72.93768267">
    <tag k="addr:housenumber" v="84" />
    <tag k="addr:street" v="Meadow Brook Lane" />
    <tag k="addr:state" v="VT" />
    <tag k="ref:vcgi:esiteid" v="108917" />
  </node>
  <node id="-570" visible="true" lat="44.67244721" lon="-72.9400231">
    <tag k="addr:housenumber" v="1601" />
    <tag k="addr:street" v="Fairfax Road" />
    <tag k="addr:state" v="VT" />
    <tag k="ref:vcgi:esiteid" v="108918" />
  </node>
  <node id="-571" visible="true" lat="44.67430371" lon="-72.93802972">
    <tag k="addr:housenumber" v="1500" />
    <tag k="addr:street" v="Fairfax Road" />
    <tag k="addr:state" v="VT" />
    <tag k="ref:vcgi:esiteid" v="108919" />
  </node>
  <node id="-572" visible="true" lat="44.67485287" lon="-72.92342855">
    <tag k="addr:housenumber" v="35" />
    <tag k="addr:street" v="School Road" />
    <tag k="addr:state" v="VT" />
    <tag k="ref:vcgi:esiteid" v="108920" />
  </node>
  <node id="-573" visible="true" lat="44.67078326" lon="-72.93105919">
    <tag k="addr:housenumber" v="31" />
    <tag k="addr:street" v="Earl Road" />
    <tag k="addr:state" v="VT" />
    <tag k="ref:vcgi:esiteid" v="108921" />
  </node>
  <node id="-574" visible="true" lat="44.67111144" lon="-72.92605548">
    <tag k="addr:housenumber" v="186" />
    <tag k="addr:street" v="Bog Road" />
    <tag k="addr:state" v="VT" />
    <tag k="ref:vcgi:esiteid" v="108922" />
  </node>
  <node id="-575" visible="true" lat="44.67562198" lon="-72.92335531">
    <tag k="addr:housenumber" v="33" />
    <tag k="addr:street" v="Shaw Road" />
    <tag k="addr:state" v="VT" />
    <tag k="ref:vcgi:esiteid" v="108923" />
  </node>
  <node id="-576" visible="true" lat="44.66060576" lon="-72.92307407">
    <tag k="addr:housenumber" v="164" />
    <tag k="addr:street" v="Hemlock Road" />
    <tag k="addr:state" v="VT" />
    <tag k="ref:vcgi:esiteid" v="108924" />
  </node>
  <node id="-577" visible="true" lat="44.66569156" lon="-72.92130154">
    <tag k="addr:housenumber" v="78" />
    <tag k="addr:street" v="Oustinoff Road" />
    <tag k="addr:state" v="VT" />
    <tag k="ref:vcgi:esiteid" v="108925" />
  </node>
  <node id="-578" visible="true" lat="44.66554382" lon="-72.92022596">
    <tag k="addr:housenumber" v="136" />
    <tag k="addr:street" v="Oustinoff Road" />
    <tag k="addr:state" v="VT" />
    <tag k="ref:vcgi:esiteid" v="108926" />
  </node>
  <node id="-579" visible="true" lat="44.66534972" lon="-72.91929286">
    <tag k="addr:housenumber" v="172" />
    <tag k="addr:street" v="Oustinoff Road" />
    <tag k="addr:state" v="VT" />
    <tag k="ref:vcgi:esiteid" v="108927" />
  </node>
  <node id="-580" visible="true" lat="44.66702583" lon="-72.91874054">
    <tag k="addr:housenumber" v="229" />
    <tag k="addr:street" v="Oustinoff Road" />
    <tag k="addr:state" v="VT" />
    <tag k="ref:vcgi:esiteid" v="108928" />
  </node>
  <node id="-581" visible="true" lat="44.65953998" lon="-72.92548162">
    <tag k="addr:housenumber" v="356" />
    <tag k="addr:street" v="Hemlock Road" />
    <tag k="addr:state" v="VT" />
    <tag k="ref:vcgi:esiteid" v="108930" />
  </node>
  <node id="-582" visible="true" lat="44.67254073" lon="-72.93721474">
    <tag k="addr:housenumber" v="83" />
    <tag k="addr:street" v="Meadow Brook Lane" />
    <tag k="addr:state" v="VT" />
    <tag k="ref:vcgi:esiteid" v="108932" />
  </node>
  <node id="-583" visible="true" lat="44.6513302" lon="-72.91418214">
    <tag k="addr:housenumber" v="1286" />
    <tag k="addr:street" v="River Road" />
    <tag k="addr:state" v="VT" />
    <tag k="ref:vcgi:esiteid" v="108933" />
  </node>
  <node id="-584" visible="true" lat="44.65353256" lon="-72.89907796">
    <tag k="addr:housenumber" v="504" />
    <tag k="addr:street" v="River Road" />
    <tag k="addr:state" v="VT" />
    <tag k="ref:vcgi:esiteid" v="108934" />
  </node>
  <node id="-585" visible="true" lat="44.6643166" lon="-72.88984939">
    <tag k="addr:housenumber" v="3064" />
    <tag k="addr:street" v="Cambridge Road" />
    <tag k="addr:state" v="VT" />
    <tag k="ref:vcgi:esiteid" v="108935" />
  </node>
  <node id="-586" visible="true" lat="44.66156266" lon="-72.90573446">
    <tag k="addr:housenumber" v="44" />
    <tag k="addr:street" v="Left Lane" />
    <tag k="addr:state" v="VT" />
    <tag k="ref:vcgi:esiteid" v="108936" />
  </node>
  <node id="-587" visible="true" lat="44.67309918" lon="-72.88577495">
    <tag k="addr:housenumber" v="2364" />
    <tag k="addr:street" v="Cambridge Road" />
    <tag k="addr:state" v="VT" />
    <tag k="ref:vcgi:esiteid" v="108937" />
  </node>
  <node id="-588" visible="true" lat="44.68218176" lon="-72.88290621">
    <tag k="addr:housenumber" v="1729" />
    <tag k="addr:street" v="Cambridge Road" />
    <tag k="addr:state" v="VT" />
    <tag k="ref:vcgi:esiteid" v="108938" />
  </node>
  <node id="-589" visible="true" lat="44.68433294" lon="-72.88677741">
    <tag k="addr:housenumber" v="1452" />
    <tag k="addr:street" v="Cambridge Road" />
    <tag k="addr:state" v="VT" />
    <tag k="ref:vcgi:esiteid" v="108939" />
  </node>
  <node id="-590" visible="true" lat="44.68571819" lon="-72.89557784">
    <tag k="addr:housenumber" v="137" />
    <tag k="addr:street" v="Webb Road" />
    <tag k="addr:state" v="VT" />
    <tag k="ref:vcgi:esiteid" v="108940" />
  </node>
  <node id="-591" visible="true" lat="44.68750672" lon="-72.88755567">
    <tag k="addr:housenumber" v="1373" />
    <tag k="addr:street" v="Cambridge Road" />
    <tag k="addr:state" v="VT" />
    <tag k="ref:vcgi:esiteid" v="108941" />
  </node>
  <node id="-592" visible="true" lat="44.68943115" lon="-72.89442914">
    <tag k="addr:housenumber" v="82" />
    <tag k="addr:street" v="Oak Hill Road" />
    <tag k="addr:state" v="VT" />
    <tag k="ref:vcgi:esiteid" v="108942" />
  </node>
  <node id="-593" visible="true" lat="44.68920847" lon="-72.8962413">
    <tag k="addr:housenumber" v="80" />
    <tag k="addr:street" v="Oak Hill Road" />
    <tag k="addr:state" v="VT" />
    <tag k="ref:vcgi:esiteid" v="108943" />
  </node>
  <node id="-594" visible="true" lat="44.6903495" lon="-72.89586711">
    <tag k="addr:housenumber" v="81" />
    <tag k="addr:street" v="Oak Hill Road" />
    <tag k="addr:state" v="VT" />
    <tag k="ref:vcgi:esiteid" v="108944" />
  </node>
  <node id="-595" visible="true" lat="44.69873808" lon="-72.90765468">
    <tag k="addr:housenumber" v="1136" />
    <tag k="addr:street" v="North Road" />
    <tag k="addr:state" v="VT" />
    <tag k="ref:vcgi:esiteid" v="108945" />
  </node>
  <node id="-596" visible="true" lat="44.70704777" lon="-72.91123724">
    <tag k="addr:housenumber" v="1717" />
    <tag k="addr:street" v="North Road" />
    <tag k="addr:state" v="VT" />
    <tag k="ref:vcgi:esiteid" v="108946" />
  </node>
  <node id="-597" visible="true" lat="44.70591524" lon="-72.89520353">
    <tag k="addr:housenumber" v="119" />
    <tag k="addr:street" v="Pinnacle Farm Road" />
    <tag k="addr:state" v="VT" />
    <tag k="ref:vcgi:esiteid" v="108947" />
  </node>
  <node id="-598" visible="true" lat="44.70563706" lon="-72.86830827">
    <tag k="addr:housenumber" v="4879" />
    <tag k="addr:street" v="Pond Road" />
    <tag k="addr:state" v="VT" />
    <tag k="ref:vcgi:esiteid" v="108948" />
  </node>
  <node id="-599" visible="true" lat="44.71800159" lon="-72.89904216">
    <tag k="addr:housenumber" v="2725" />
    <tag k="addr:street" v="North Road" />
    <tag k="addr:state" v="VT" />
    <tag k="ref:vcgi:esiteid" v="108949" />
  </node>
  <node id="-600" visible="true" lat="44.71519705" lon="-72.91755797">
    <tag k="addr:housenumber" v="30" />
    <tag k="addr:street" v="Sugar Hill Road" />
    <tag k="addr:state" v="VT" />
    <tag k="ref:vcgi:esiteid" v="108950" />
  </node>
  <node id="-601" visible="true" lat="44.71639679" lon="-72.85920534">
    <tag k="addr:housenumber" v="290" />
    <tag k="addr:street" v="Vreeland Road" />
    <tag k="addr:state" v="VT" />
    <tag k="ref:vcgi:esiteid" v="108951" />
  </node>
  <node id="-602" visible="true" lat="44.73745949" lon="-72.88360191">
    <tag k="addr:housenumber" v="1199" />
    <tag k="addr:street" v="Taylor Road" />
    <tag k="addr:state" v="VT" />
    <tag k="ref:vcgi:esiteid" v="108952" />
  </node>
  <node id="-603" visible="true" lat="44.73243834" lon="-72.88523992">
    <tag k="addr:housenumber" v="261" />
    <tag k="addr:street" v="Reynolds Road" />
    <tag k="addr:state" v="VT" />
    <tag k="ref:vcgi:esiteid" v="108953" />
  </node>
  <node id="-604" visible="true" lat="44.71512534" lon="-72.85015322">
    <tag k="addr:housenumber" v="1750" />
    <tag k="addr:street" v="Kinsley Road" />
    <tag k="addr:state" v="VT" />
    <tag k="ref:vcgi:esiteid" v="108954" />
  </node>
  <node id="-605" visible="true" lat="44.72001873" lon="-72.84945818">
    <tag k="addr:housenumber" v="2095" />
    <tag k="addr:street" v="Kinsley Road" />
    <tag k="addr:state" v="VT" />
    <tag k="ref:vcgi:esiteid" v="108955" />
  </node>
  <node id="-606" visible="true" lat="44.71168822" lon="-72.83760316">
    <tag k="addr:housenumber" v="846" />
    <tag k="addr:street" v="Bakersfield Road" />
    <tag k="addr:state" v="VT" />
    <tag k="ref:vcgi:esiteid" v="108956" />
  </node>
  <node id="-607" visible="true" lat="44.70278881" lon="-72.82285747">
    <tag k="addr:housenumber" v="108" />
    <tag k="addr:street" v="Bakersfield Road" />
    <tag k="addr:state" v="VT" />
    <tag k="ref:vcgi:esiteid" v="108957" />
  </node>
  <node id="-608" visible="true" lat="44.74170973" lon="-72.98069016">
    <tag k="addr:housenumber" v="566" />
    <tag k="addr:street" v="Lloyd Road" />
    <tag k="addr:state" v="VT" />
    <tag k="ref:vcgi:esiteid" v="108958" />
  </node>
  <node id="-609" visible="true" lat="44.70254629" lon="-72.93679943">
    <tag k="addr:housenumber" v="29" />
    <tag k="addr:street" v="Titans Way" />
    <tag k="addr:state" v="VT" />
    <tag k="ref:vcgi:esiteid" v="108959" />
  </node>
  <node id="-610" visible="true" lat="44.66621609" lon="-72.92241364">
    <tag k="addr:housenumber" v="35" />
    <tag k="addr:street" v="Oustinoff Road" />
    <tag k="addr:state" v="VT" />
    <tag k="ref:vcgi:esiteid" v="108960" />
  </node>
  <node id="-611" visible="true" lat="44.66645475" lon="-72.92093409">
    <tag k="addr:housenumber" v="17" />
    <tag k="addr:street" v="Deer Run Lane" />
    <tag k="addr:state" v="VT" />
    <tag k="ref:vcgi:esiteid" v="108961" />
  </node>
  <node id="-612" visible="true" lat="44.66244177" lon="-72.92158879">
    <tag k="addr:housenumber" v="41" />
    <tag k="addr:street" v="Turgante Road" />
    <tag k="addr:state" v="VT" />
    <tag k="ref:vcgi:esiteid" v="108962" />
  </node>
  <node id="-613" visible="true" lat="44.66196986" lon="-72.92173686">
    <tag k="addr:housenumber" v="111" />
    <tag k="addr:street" v="Turgante Road" />
    <tag k="addr:state" v="VT" />
    <tag k="ref:vcgi:esiteid" v="108963" />
  </node>
  <node id="-614" visible="true" lat="44.68891578" lon="-72.94292713">
    <tag k="addr:housenumber" v="211" />
    <tag k="addr:street" v="Red Maple Drive" />
    <tag k="addr:state" v="VT" />
    <tag k="ref:vcgi:esiteid" v="108964" />
  </node>
  <node id="-615" visible="true" lat="44.74846003" lon="-72.98558733">
    <tag k="addr:housenumber" v="137" />
    <tag k="addr:street" v="Kingsland Hollow" />
    <tag k="addr:state" v="VT" />
    <tag k="ref:vcgi:esiteid" v="108965" />
  </node>
  <node id="-616" visible="true" lat="44.72326636" lon="-72.8821012">
    <tag k="addr:housenumber" v="80" />
    <tag k="addr:street" v="South Shore Drive" />
    <tag k="addr:state" v="VT" />
    <tag k="ref:vcgi:esiteid" v="108966" />
  </node>
  <node id="-617" visible="true" lat="44.71272473" lon="-72.93842182">
    <tag k="addr:housenumber" v="551" />
    <tag k="addr:street" v="Mayotte Road" />
    <tag k="addr:state" v="VT" />
    <tag k="ref:vcgi:esiteid" v="108967" />
  </node>
  <node id="-618" visible="true" lat="44.74818492" lon="-72.98632889">
    <tag k="addr:housenumber" v="172" />
    <tag k="addr:street" v="Kingsland Hollow" />
    <tag k="addr:state" v="VT" />
    <tag k="ref:vcgi:esiteid" v="108968" />
  </node>
  <node id="-619" visible="true" lat="44.74805301" lon="-72.98563453">
    <tag k="addr:housenumber" v="177" />
    <tag k="addr:street" v="Kingsland Hollow" />
    <tag k="addr:state" v="VT" />
    <tag k="ref:vcgi:esiteid" v="108969" />
  </node>
  <node id="-620" visible="true" lat="44.7477031" lon="-72.98639945">
    <tag k="addr:housenumber" v="198" />
    <tag k="addr:street" v="Kingsland Hollow" />
    <tag k="addr:state" v="VT" />
    <tag k="ref:vcgi:esiteid" v="108970" />
  </node>
  <node id="-621" visible="true" lat="44.74743343" lon="-72.98576438">
    <tag k="addr:housenumber" v="203" />
    <tag k="addr:street" v="Kingsland Hollow" />
    <tag k="addr:state" v="VT" />
    <tag k="ref:vcgi:esiteid" v="108971" />
  </node>
  <node id="-622" visible="true" lat="44.74865709" lon="-72.98627627">
    <tag k="addr:housenumber" v="126" />
    <tag k="addr:street" v="Kingsland Hollow" />
    <tag k="addr:state" v="VT" />
    <tag k="ref:vcgi:esiteid" v="108972" />
  </node>
  <node id="-623" visible="true" lat="44.74140742" lon="-72.9241822">
    <tag k="addr:housenumber" v="1424" />
    <tag k="addr:street" v="Will George Road" />
    <tag k="addr:state" v="VT" />
    <tag k="ref:vcgi:esiteid" v="108973" />
  </node>
  <node id="-624" visible="true" lat="44.74533564" lon="-72.91294394">
    <tag k="addr:housenumber" v="1310" />
    <tag k="addr:street" v="Howrigan Road" />
    <tag k="addr:state" v="VT" />
    <tag k="ref:vcgi:esiteid" v="108974" />
  </node>
  <node id="-625" visible="true" lat="44.73817581" lon="-72.92998805">
    <tag k="addr:housenumber" v="1023" />
    <tag k="addr:street" v="Will George Road" />
    <tag k="addr:state" v="VT" />
    <tag k="ref:vcgi:esiteid" v="108975" />
  </node>
  <node id="-626" visible="true" lat="44.73443389" lon="-72.87668858">
    <tag k="addr:housenumber" v="49" />
    <tag k="addr:street" v="Wintergreen Mountain Road" />
    <tag k="addr:state" v="VT" />
    <tag k="ref:vcgi:esiteid" v="108976" />
  </node>
  <node id="-627" visible="true" lat="44.7280342" lon="-72.8949553">
    <tag k="addr:housenumber" v="301" />
    <tag k="addr:street" v="Taylor Road" />
    <tag k="addr:state" v="VT" />
    <tag k="ref:vcgi:esiteid" v="108977" />
  </node>
  <node id="-628" visible="true" lat="44.72885947" lon="-72.82825665">
    <tag k="addr:housenumber" v="2038" />
    <tag k="addr:street" v="Bakersfield Road" />
    <tag k="addr:state" v="VT" />
    <tag k="ref:vcgi:esiteid" v="108978" />
  </node>
  <node id="-629" visible="true" lat="44.71857419" lon="-72.95882155">
    <tag k="addr:housenumber" v="94" />
    <tag k="addr:street" v="Buck Mountain Road" />
    <tag k="addr:state" v="VT" />
    <tag k="ref:vcgi:esiteid" v="108979" />
  </node>
  <node id="-630" visible="true" lat="44.70958317" lon="-72.91907442">
    <tag k="addr:housenumber" v="900" />
    <tag k="addr:street" v="Sunset Drive" />
    <tag k="addr:state" v="VT" />
    <tag k="ref:vcgi:esiteid" v="108980" />
  </node>
  <node id="-631" visible="true" lat="44.70427034" lon="-72.95421275">
    <tag k="addr:housenumber" v="114" />
    <tag k="addr:street" v="High Meadow Road" />
    <tag k="addr:state" v="VT" />
    <tag k="ref:vcgi:esiteid" v="108981" />
  </node>
  <node id="-632" visible="true" lat="44.70347084" lon="-72.89892509">
    <tag k="addr:housenumber" v="1170" />
    <tag k="addr:street" v="Pond Road" />
    <tag k="addr:state" v="VT" />
    <tag k="ref:vcgi:esiteid" v="108982" />
  </node>
  <node id="-633" visible="true" lat="44.70896559" lon="-72.90021066">
    <tag k="addr:housenumber" v="1659" />
    <tag k="addr:street" v="Pond Road" />
    <tag k="addr:state" v="VT" />
    <tag k="ref:vcgi:esiteid" v="108983" />
  </node>
  <node id="-634" visible="true" lat="44.70468775" lon="-72.89544423">
    <tag k="addr:housenumber" v="126" />
    <tag k="addr:street" v="Pinnacle Farm Road" />
    <tag k="addr:state" v="VT" />
    <tag k="ref:vcgi:esiteid" v="108984" />
  </node>
  <node id="-635" visible="true" lat="44.72451657" lon="-72.828976">
    <tag k="addr:housenumber" v="1492" />
    <tag k="addr:street" v="Bakersfield Road" />
    <tag k="addr:state" v="VT" />
    <tag k="ref:vcgi:esiteid" v="108985" />
  </node>
  <node id="-636" visible="true" lat="44.69008859" lon="-72.89797403">
    <tag k="addr:housenumber" v="192" />
    <tag k="addr:street" v="Pond Road" />
    <tag k="addr:state" v="VT" />
    <tag k="ref:vcgi:esiteid" v="108986" />
  </node>
  <node id="-637" visible="true" lat="44.68523585" lon="-72.88560148">
    <tag k="addr:housenumber" v="61" />
    <tag k="addr:street" v="Sweet Berry Lane" />
    <tag k="addr:state" v="VT" />
    <tag k="ref:vcgi:esiteid" v="108987" />
  </node>
  <node id="-638" visible="true" lat="44.64925595" lon="-72.91273542">
    <tag k="addr:housenumber" v="1235" />
    <tag k="addr:street" v="River Road" />
    <tag k="addr:state" v="VT" />
    <tag k="ref:vcgi:esiteid" v="108988" />
  </node>
  <node id="-639" visible="true" lat="44.65057797" lon="-72.92316711">
    <tag k="addr:housenumber" v="1777" />
    <tag k="addr:street" v="River Road" />
    <tag k="addr:state" v="VT" />
    <tag k="ref:vcgi:esiteid" v="108989" />
  </node>
  <node id="-640" visible="true" lat="44.66715542" lon="-72.92062003">
    <tag k="addr:housenumber" v="75" />
    <tag k="addr:street" v="Deer Run Lane" />
    <tag k="addr:state" v="VT" />
    <tag k="ref:vcgi:esiteid" v="108990" />
  </node>
  <node id="-641" visible="true" lat="44.66629005" lon="-72.91998302">
    <tag k="addr:housenumber" v="28" />
    <tag k="addr:street" v="Deer Run Lane" />
    <tag k="addr:state" v="VT" />
    <tag k="ref:vcgi:esiteid" v="108991" />
  </node>
  <node id="-642" visible="true" lat="44.66674436" lon="-72.91994721">
    <tag k="addr:housenumber" v="64" />
    <tag k="addr:street" v="Deer Run Lane" />
    <tag k="addr:state" v="VT" />
    <tag k="ref:vcgi:esiteid" v="108992" />
  </node>
  <node id="-643" visible="true" lat="44.66919837" lon="-72.88924992">
    <tag k="addr:housenumber" v="2724" />
    <tag k="addr:street" v="Cambridge Road" />
    <tag k="addr:state" v="VT" />
    <tag k="ref:vcgi:esiteid" v="108993" />
  </node>
  <node id="-644" visible="true" lat="44.7415128" lon="-72.93673971">
    <tag k="addr:housenumber" v="637" />
    <tag k="addr:street" v="Will George Road" />
    <tag k="addr:state" v="VT" />
    <tag k="ref:vcgi:esiteid" v="108994" />
  </node>
  <node id="-645" visible="true" lat="44.73931506" lon="-72.94831556">
    <tag k="addr:housenumber" v="5075" />
    <tag k="addr:street" v="Fairfield Road" />
    <tag k="addr:state" v="VT" />
    <tag k="ref:vcgi:esiteid" v="108995" />
  </node>
  <node id="-646" visible="true" lat="44.73002753" lon="-72.8918435">
    <tag k="addr:housenumber" v="495" />
    <tag k="addr:street" v="Taylor Road" />
    <tag k="addr:state" v="VT" />
    <tag k="ref:vcgi:esiteid" v="108996" />
  </node>
  <node id="-647" visible="true" lat="44.71751699" lon="-72.95083059">
    <tag k="addr:housenumber" v="3362" />
    <tag k="addr:street" v="Fairfield Road" />
    <tag k="addr:state" v="VT" />
    <tag k="ref:vcgi:esiteid" v="108997" />
  </node>
  <node id="-648" visible="true" lat="44.70283014" lon="-72.95469193">
    <tag k="addr:housenumber" v="26" />
    <tag k="addr:street" v="High Meadow Road" />
    <tag k="addr:state" v="VT" />
    <tag k="ref:vcgi:esiteid" v="108999" />
  </node>
  <node id="-649" visible="true" lat="44.68893162" lon="-72.94863703">
    <tag k="addr:housenumber" v="918" />
    <tag k="addr:street" v="Rugg Road" />
    <tag k="addr:state" v="VT" />
    <tag k="ref:vcgi:esiteid" v="109000" />
  </node>
  <node id="-650" visible="true" lat="44.68627912" lon="-72.94302635">
    <tag k="addr:housenumber" v="210" />
    <tag k="addr:street" v="Red Maple Drive" />
    <tag k="addr:state" v="VT" />
    <tag k="ref:vcgi:esiteid" v="109001" />
  </node>
  <node id="-651" visible="true" lat="44.68165324" lon="-72.87938237">
    <tag k="addr:housenumber" v="238" />
    <tag k="addr:street" v="Rushford Road" />
    <tag k="addr:state" v="VT" />
    <tag k="ref:vcgi:esiteid" v="109002" />
  </node>
  <node id="-652" visible="true" lat="44.66842315" lon="-72.89106716">
    <tag k="addr:housenumber" v="50" />
    <tag k="addr:street" v="Mountain View Drive" />
    <tag k="addr:state" v="VT" />
    <tag k="ref:vcgi:esiteid" v="109003" />
  </node>
  <node id="-653" visible="true" lat="44.72333895" lon="-72.88509756">
    <tag k="addr:housenumber" v="3221" />
    <tag k="addr:street" v="Pond Road" />
    <tag k="addr:state" v="VT" />
    <tag k="ref:vcgi:esiteid" v="109004" />
  </node>
  <node id="-654" visible="true" lat="44.71614305" lon="-72.95513215">
    <tag k="addr:housenumber" v="3383" />
    <tag k="addr:street" v="Fairfield Road" />
    <tag k="addr:state" v="VT" />
    <tag k="ref:vcgi:esiteid" v="311956" />
  </node>
  <node id="-655" visible="true" lat="44.71250495" lon="-72.90640834">
    <tag k="addr:housenumber" v="2099" />
    <tag k="addr:street" v="North Road" />
    <tag k="addr:state" v="VT" />
    <tag k="ref:vcgi:esiteid" v="311957" />
  </node>
  <node id="-656" visible="true" lat="44.72267499" lon="-72.88983084">
    <tag k="addr:housenumber" v="2895" />
    <tag k="addr:street" v="Pond Road" />
    <tag k="addr:state" v="VT" />
    <tag k="ref:vcgi:esiteid" v="311958" />
  </node>
  <node id="-657" visible="true" lat="44.72548781" lon="-72.88422814">
    <tag k="addr:housenumber" v="218" />
    <tag k="addr:street" v="Ross Road" />
    <tag k="addr:state" v="VT" />
    <tag k="ref:vcgi:esiteid" v="311960" />
  </node>
  <node id="-658" visible="true" lat="44.70387981" lon="-72.95598235">
    <tag k="addr:housenumber" v="131" />
    <tag k="addr:street" v="High Meadow Road" />
    <tag k="addr:state" v="VT" />
    <tag k="ref:vcgi:esiteid" v="316928" />
  </node>
  <node id="-659" visible="true" lat="44.73972999" lon="-72.93689526">
    <tag k="addr:housenumber" v="650" />
    <tag k="addr:street" v="Will George Road" />
    <tag k="addr:state" v="VT" />
    <tag k="ref:vcgi:esiteid" v="317238" />
  </node>
  <node id="-660" visible="true" lat="44.73509337" lon="-72.8899558">
    <tag k="addr:housenumber" v="861" />
    <tag k="addr:street" v="Taylor Road" />
    <tag k="addr:state" v="VT" />
    <tag k="ref:vcgi:esiteid" v="317239" />
  </node>
  <node id="-661" visible="true" lat="44.70309094" lon="-72.93610749">
    <tag k="addr:housenumber" v="32" />
    <tag k="addr:street" v="Titans Way" />
    <tag k="addr:state" v="VT" />
    <tag k="ref:vcgi:esiteid" v="317240" />
  </node>
  <node id="-662" visible="true" lat="44.70069748" lon="-72.90692395">
    <tag k="addr:housenumber" v="271" />
    <tag k="addr:street" v="Wright Road" />
    <tag k="addr:state" v="VT" />
    <tag k="ref:vcgi:esiteid" v="317241" />
  </node>
  <node id="-663" visible="true" lat="44.68439694" lon="-72.91122888">
    <tag k="addr:housenumber" v="241" />
    <tag k="addr:street" v="Cambridge Road" />
    <tag k="addr:state" v="VT" />
    <tag k="ref:vcgi:esiteid" v="317242" />
  </node>
  <node id="-664" visible="true" lat="44.72272503" lon="-72.97605069">
    <tag k="addr:housenumber" v="175" />
    <tag k="addr:street" v="Gedeon Lane" />
    <tag k="addr:state" v="VT" />
    <tag k="ref:vcgi:esiteid" v="326281" />
  </node>
  <node id="-665" visible="true" lat="44.68518276" lon="-72.94760956">
    <tag k="addr:housenumber" v="140" />
    <tag k="addr:street" v="Butternut Lane" />
    <tag k="addr:state" v="VT" />
    <tag k="ref:vcgi:esiteid" v="327016" />
  </node>
  <node id="-666" visible="true" lat="44.68479291" lon="-72.94651104">
    <tag k="addr:housenumber" v="166" />
    <tag k="addr:street" v="Butternut Lane" />
    <tag k="addr:state" v="VT" />
    <tag k="ref:vcgi:esiteid" v="327017" />
  </node>
  <node id="-667" visible="true" lat="44.68582153" lon="-72.94562814">
    <tag k="addr:housenumber" v="173" />
    <tag k="addr:street" v="Butternut Lane" />
    <tag k="addr:state" v="VT" />
    <tag k="ref:vcgi:esiteid" v="327018" />
  </node>
  <node id="-668" visible="true" lat="44.72569503" lon="-72.88148879">
    <tag k="addr:housenumber" v="277" />
    <tag k="addr:street" v="South Shore Drive" />
    <tag k="addr:state" v="VT" />
    <tag k="ref:vcgi:esiteid" v="328258" />
  </node>
  <node id="-669" visible="true" lat="44.70378493" lon="-72.94036053">
    <tag k="addr:housenumber" v="2201" />
    <tag k="addr:street" v="Fairfield Road" />
    <tag k="addr:state" v="VT" />
    <tag k="ref:vcgi:esiteid" v="328599" />
  </node>
  <node id="-670" visible="true" lat="44.66687051" lon="-72.89269964">
    <tag k="addr:housenumber" v="171" />
    <tag k="addr:street" v="King Road" />
    <tag k="addr:state" v="VT" />
    <tag k="ref:vcgi:esiteid" v="328601" />
  </node>
  <node id="-671" visible="true" lat="44.69051255" lon="-72.86729388">
    <tag k="addr:housenumber" v="569" />
    <tag k="addr:street" v="Rushford Road" />
    <tag k="addr:state" v="VT" />
    <tag k="ref:vcgi:esiteid" v="328602" />
  </node>
  <node id="-672" visible="true" lat="44.65857702" lon="-72.90780069">
    <tag k="addr:housenumber" v="207" />
    <tag k="addr:street" v="Black Mountain Road" />
    <tag k="addr:state" v="VT" />
    <tag k="ref:vcgi:esiteid" v="329181" />
  </node>
  <node id="-673" visible="true" lat="44.69433025" lon="-72.91774716">
    <tag k="addr:housenumber" v="634" />
    <tag k="addr:street" v="Ferguson Road" />
    <tag k="addr:state" v="VT" />
    <tag k="ref:vcgi:esiteid" v="329586" />
  </node>
  <node id="-674" visible="true" lat="44.74224722" lon="-72.98033915">
    <tag k="addr:housenumber" v="508" />
    <tag k="addr:street" v="Lloyd Road" />
    <tag k="addr:state" v="VT" />
    <tag k="ref:vcgi:esiteid" v="329971" />
  </node>
  <node id="-675" visible="true" lat="44.67590444" lon="-72.92327978">
    <tag k="addr:housenumber" v="707" />
    <tag k="addr:street" v="Fairfax Road" />
    <tag k="addr:state" v="VT" />
    <tag k="ref:vcgi:esiteid" v="330121" />
  </node>
  <node id="-676" visible="true" lat="44.68595094" lon="-72.94693308">
    <tag k="addr:housenumber" v="151" />
    <tag k="addr:street" v="Butternut Lane" />
    <tag k="addr:state" v="VT" />
    <tag k="ref:vcgi:esiteid" v="336175" />
  </node>
  <node id="-677" visible="true" lat="44.68591961" lon="-72.94888045">
    <tag k="addr:housenumber" v="28" />
    <tag k="addr:street" v="Butternut Lane" />
    <tag k="addr:state" v="VT" />
    <tag k="ref:vcgi:esiteid" v="336176" />
  </node>
  <node id="-678" visible="true" lat="44.71710155" lon="-72.85019879">
    <tag k="addr:housenumber" v="1847" />
    <tag k="addr:street" v="Kinsley Road" />
    <tag k="addr:state" v="VT" />
    <tag k="ref:vcgi:esiteid" v="336494" />
  </node>
  <node id="-679" visible="true" lat="44.67254582" lon="-72.93942139">
    <tag k="addr:housenumber" v="1569" />
    <tag k="addr:street" v="Fairfax Road" />
    <tag k="addr:state" v="VT" />
    <tag k="ref:vcgi:esiteid" v="338663" />
  </node>
  <node id="-680" visible="true" lat="44.70575538" lon="-72.90718356">
    <tag k="addr:housenumber" v="1586" />
    <tag k="addr:street" v="North Road" />
    <tag k="addr:state" v="VT" />
    <tag k="ref:vcgi:esiteid" v="338664" />
  </node>
  <node id="-681" visible="true" lat="44.71271194" lon="-72.95443552">
    <tag k="addr:housenumber" v="3067" />
    <tag k="addr:street" v="Fairfield Road" />
    <tag k="addr:state" v="VT" />
    <tag k="ref:vcgi:esiteid" v="339212" />
  </node>
  <node id="-682" visible="true" lat="44.6873076" lon="-72.9507982">
    <tag k="addr:housenumber" v="73" />
    <tag k="addr:street" v="Hillside Lane" />
    <tag k="addr:state" v="VT" />
    <tag k="ref:vcgi:esiteid" v="339240" />
  </node>
  <node id="-683" visible="true" lat="44.68810678" lon="-72.95107728">
    <tag k="addr:housenumber" v="113" />
    <tag k="addr:street" v="Hillside Lane" />
    <tag k="addr:state" v="VT" />
    <tag k="ref:vcgi:esiteid" v="339241" />
  </node>
  <node id="-684" visible="true" lat="44.68656313" lon="-72.94852467">
    <tag k="addr:housenumber" v="51" />
    <tag k="addr:street" v="Butternut Lane" />
    <tag k="addr:state" v="VT" />
    <tag k="ref:vcgi:esiteid" v="339242" />
  </node>
  <node id="-685" visible="true" lat="44.66799672" lon="-72.88783825">
    <tag k="addr:housenumber" v="2821" />
    <tag k="addr:street" v="Cambridge Road" />
    <tag k="addr:state" v="VT" />
    <tag k="ref:vcgi:esiteid" v="339243" />
  </node>
  <node id="-686" visible="true" lat="44.674653" lon="-72.91757026">
    <tag k="addr:housenumber" v="323" />
    <tag k="addr:street" v="Shaw Road" />
    <tag k="addr:state" v="VT" />
    <tag k="ref:vcgi:esiteid" v="339787" />
  </node>
  <node id="-687" visible="true" lat="44.69858851" lon="-72.90052325">
    <tag k="addr:housenumber" v="830" />
    <tag k="addr:street" v="Pond Road" />
    <tag k="addr:state" v="VT" />
    <tag k="ref:vcgi:esiteid" v="340044" />
  </node>
  <node id="-688" visible="true" lat="44.70086907" lon="-72.85920935">
    <tag k="addr:housenumber" v="5473" />
    <tag k="addr:street" v="Pond Road" />
    <tag k="addr:state" v="VT" />
    <tag k="ref:vcgi:esiteid" v="340103" />
  </node>
  <node id="-689" visible="true" lat="44.69749382" lon="-72.89965895">
    <tag k="addr:housenumber" v="776" />
    <tag k="addr:street" v="Pond Road" />
    <tag k="addr:state" v="VT" />
    <tag k="ref:vcgi:esiteid" v="340724" />
  </node>
  <node id="-690" visible="true" lat="44.69955523" lon="-72.89927232">
    <tag k="addr:housenumber" v="922" />
    <tag k="addr:street" v="Pond Road" />
    <tag k="addr:state" v="VT" />
    <tag k="ref:vcgi:esiteid" v="340725" />
  </node>
  <node id="-691" visible="true" lat="44.70022871" lon="-72.89858331">
    <tag k="addr:housenumber" v="960" />
    <tag k="addr:street" v="Pond Road" />
    <tag k="addr:state" v="VT" />
    <tag k="ref:vcgi:esiteid" v="340726" />
  </node>
  <node id="-692" visible="true" lat="44.70505778" lon="-72.91175699">
    <tag k="addr:housenumber" v="1583" />
    <tag k="addr:street" v="North Road" />
    <tag k="addr:state" v="VT" />
    <tag k="ref:vcgi:esiteid" v="340727" />
  </node>
  <node id="-694" visible="true" lat="44.68912903" lon="-72.93495937">
    <tag k="addr:housenumber" v="1201" />
    <tag k="addr:street" v="Fairfield Road" />
    <tag k="addr:state" v="VT" />
    <tag k="ref:vcgi:esiteid" v="342392" />
  </node>
  <node id="-695" visible="true" lat="44.75104165" lon="-72.98393165">
    <tag k="addr:housenumber" v="160" />
    <tag k="addr:street" v="Whitetail Way" />
    <tag k="addr:state" v="VT" />
    <tag k="ref:vcgi:esiteid" v="342734" />
  </node>
  <node id="-696" visible="true" lat="44.73712381" lon="-72.92973445">
    <tag k="addr:housenumber" v="1062" />
    <tag k="addr:street" v="Will George Road" />
    <tag k="addr:state" v="VT" />
    <tag k="ref:vcgi:esiteid" v="342735" />
  </node>
  <node id="-697" visible="true" lat="44.67391155" lon="-72.9143469">
    <tag k="addr:housenumber" v="459" />
    <tag k="addr:street" v="Shaw Road" />
    <tag k="addr:state" v="VT" />
    <tag k="ref:vcgi:esiteid" v="342736" />
  </node>
  <node id="-698" visible="true" lat="44.72421297" lon="-72.88168912">
    <tag k="addr:housenumber" v="151" />
    <tag k="addr:street" v="South Shore Drive" />
    <tag k="addr:state" v="VT" />
    <tag k="ref:vcgi:esiteid" v="342737" />
  </node>
  <node id="-699" visible="true" lat="44.67048733" lon="-72.92317725">
    <tag k="addr:housenumber" v="335" />
    <tag k="addr:street" v="School Road" />
    <tag k="addr:state" v="VT" />
    <tag k="ref:vcgi:esiteid" v="343485" />
  </node>
  <node id="-700" visible="true" lat="44.68922181" lon="-72.95110045">
    <tag k="addr:housenumber" v="209" />
    <tag k="addr:street" v="Hillside Lane" />
    <tag k="addr:state" v="VT" />
    <tag k="ref:vcgi:esiteid" v="345790" />
  </node>
  <node id="-701" visible="true" lat="44.73640765" lon="-72.88665649">
    <tag k="addr:housenumber" v="1051" />
    <tag k="addr:street" v="Taylor Road" />
    <tag k="addr:state" v="VT" />
    <tag k="ref:vcgi:esiteid" v="345971" />
  </node>
  <node id="-702" visible="true" lat="44.7428609" lon="-72.98746431">
    <tag k="addr:housenumber" v="1254" />
    <tag k="addr:street" v="Buck Hollow Road" />
    <tag k="addr:state" v="VT" />
    <tag k="ref:vcgi:esiteid" v="345974" />
  </node>
  <node id="-703" visible="true" lat="44.66153501" lon="-72.92340228">
    <tag k="addr:housenumber" v="108" />
    <tag k="addr:street" v="Hemlock Road" />
    <tag k="addr:state" v="VT" />
    <tag k="ref:vcgi:esiteid" v="345976" />
  </node>
  <node id="-704" visible="true" lat="44.67328884" lon="-72.94002097">
    <tag k="addr:housenumber" v="1584" />
    <tag k="addr:street" v="Fairfax Road" />
    <tag k="addr:state" v="VT" />
    <tag k="ref:vcgi:esiteid" v="365562" />
  </node>
  <node id="-705" visible="true" lat="44.71118071" lon="-72.89786834">
    <tag k="addr:housenumber" v="33" />
    <tag k="addr:street" v="Homestead Lane" />
    <tag k="addr:state" v="VT" />
    <tag k="ref:vcgi:esiteid" v="445512" />
  </node>
  <node id="-706" visible="true" lat="44.70665245" lon="-72.83053489">
    <tag k="addr:housenumber" v="164" />
    <tag k="addr:street" v="Bakersfield Road" />
    <tag k="addr:state" v="VT" />
    <tag k="ref:vcgi:esiteid" v="446220" />
  </node>
  <node id="-707" visible="true" lat="44.71535987" lon="-72.8368782">
    <tag k="addr:housenumber" v="152" />
    <tag k="addr:street" v="Lange Road" />
    <tag k="addr:state" v="VT" />
    <tag k="ref:vcgi:esiteid" v="446221" />
  </node>
  <node id="-708" visible="true" lat="44.68971228" lon="-72.95199991">
    <tag k="addr:housenumber" v="237" />
    <tag k="addr:street" v="Hillside Lane" />
    <tag k="addr:state" v="VT" />
    <tag k="ref:vcgi:esiteid" v="448056" />
  </node>
  <node id="-709" visible="true" lat="44.72900569" lon="-72.95208491">
    <tag k="addr:housenumber" v="115" />
    <tag k="addr:street" v="Ryans Way" />
    <tag k="addr:state" v="VT" />
    <tag k="ref:vcgi:esiteid" v="448057" />
  </node>
  <node id="-710" visible="true" lat="44.73113006" lon="-72.94494177">
    <tag k="addr:housenumber" v="4268" />
    <tag k="addr:street" v="Fairfield Road" />
    <tag k="addr:state" v="VT" />
    <tag k="ref:vcgi:esiteid" v="448058" />
  </node>
  <node id="-711" visible="true" lat="44.6981047" lon="-72.89886066">
    <tag k="addr:housenumber" v="78" />
    <tag k="addr:street" v="Maple Lane" />
    <tag k="addr:state" v="VT" />
    <tag k="ref:vcgi:esiteid" v="448112" />
  </node>
  <node id="-712" visible="true" lat="44.71283981" lon="-72.85840119">
    <tag k="addr:housenumber" v="1219" />
    <tag k="addr:street" v="Kinsley Road" />
    <tag k="addr:state" v="VT" />
    <tag k="ref:vcgi:esiteid" v="448617" />
  </node>
  <node id="-713" visible="true" lat="44.68892258" lon="-72.95023318">
    <tag k="addr:housenumber" v="158" />
    <tag k="addr:street" v="Hillside Lane" />
    <tag k="addr:state" v="VT" />
    <tag k="ref:vcgi:esiteid" v="449151" />
  </node>
  <node id="-714" visible="true" lat="44.69883131" lon="-72.89926324">
    <tag k="addr:housenumber" v="51" />
    <tag k="addr:street" v="Maple Lane" />
    <tag k="addr:state" v="VT" />
    <tag k="ref:vcgi:esiteid" v="449937" />
  </node>
  <node id="-715" visible="true" lat="44.75076147" lon="-72.99091528">
    <tag k="addr:housenumber" v="118" />
    <tag k="addr:street" v="Kingsland Hollow" />
    <tag k="addr:state" v="VT" />
    <tag k="ref:vcgi:esiteid" v="450063" />
  </node>
  <node id="-716" visible="true" lat="44.73885491" lon="-72.92565405">
    <tag k="addr:housenumber" v="1328" />
    <tag k="addr:street" v="Will George Road" />
    <tag k="addr:state" v="VT" />
    <tag k="ref:vcgi:esiteid" v="451005" />
  </node>
  <node id="-717" visible="true" lat="44.71473414" lon="-72.95361837">
    <tag k="addr:housenumber" v="3335" />
    <tag k="addr:street" v="Fairfield Road" />
    <tag k="addr:state" v="VT" />
    <tag k="ref:vcgi:esiteid" v="451512" />
  </node>
  <node id="-718" visible="true" lat="44.67339872" lon="-72.91357396">
    <tag k="addr:housenumber" v="523" />
    <tag k="addr:street" v="Shaw Road" />
    <tag k="addr:state" v="VT" />
    <tag k="ref:vcgi:esiteid" v="454059" />
  </node>
  <node id="-719" visible="true" lat="44.72932028" lon="-72.95167373">
    <tag k="addr:housenumber" v="100" />
    <tag k="addr:street" v="Ryans Way" />
    <tag k="addr:state" v="VT" />
    <tag k="ref:vcgi:esiteid" v="454302" />
  </node>
  <node id="-720" visible="true" lat="44.71484522" lon="-72.93626962">
    <tag k="addr:housenumber" v="713" />
    <tag k="addr:street" v="Mayotte Road" />
    <tag k="addr:state" v="VT" />
    <tag k="ref:vcgi:esiteid" v="610146" />
  </node>
  <node id="-721" visible="true" lat="44.71433495" lon="-72.95792503">
    <tag k="addr:housenumber" v="93" />
    <tag k="addr:street" v="Boulder Lane" />
    <tag k="addr:state" v="VT" />
    <tag k="ref:vcgi:esiteid" v="610527" />
  </node>
  <node id="-722" visible="true" lat="44.70432683" lon="-72.95689785">
    <tag k="addr:housenumber" v="187" />
    <tag k="addr:street" v="High Meadow Road" />
    <tag k="addr:state" v="VT" />
    <tag k="ref:vcgi:esiteid" v="610528" />
  </node>
  <node id="-723" visible="true" lat="44.70712632" lon="-72.95503684">
    <tag k="addr:housenumber" v="309" />
    <tag k="addr:street" v="High Meadow Road" />
    <tag k="addr:state" v="VT" />
    <tag k="ref:vcgi:esiteid" v="611051" />
  </node>
  <node id="-724" visible="true" lat="44.71445757" lon="-72.95719407">
    <tag k="addr:housenumber" v="125" />
    <tag k="addr:street" v="Boulder Lane" />
    <tag k="addr:state" v="VT" />
    <tag k="ref:vcgi:esiteid" v="611363" />
  </node>
  <node id="-725" visible="true" lat="44.70395503" lon="-72.95815539">
    <tag k="addr:housenumber" v="172" />
    <tag k="addr:street" v="Maple Tree Way" />
    <tag k="addr:state" v="VT" />
    <tag k="ref:vcgi:esiteid" v="611541" />
  </node>
  <node id="-726" visible="true" lat="44.68554651" lon="-72.89634299">
    <tag k="addr:housenumber" v="135" />
    <tag k="addr:street" v="Webb Road" />
    <tag k="addr:state" v="VT" />
    <tag k="ref:vcgi:esiteid" v="612065" />
  </node>
  <node id="-727" visible="true" lat="44.71351427" lon="-72.93644253">
    <tag k="addr:housenumber" v="12" />
    <tag k="addr:street" v="Blackberry Hill Road" />
    <tag k="addr:state" v="VT" />
    <tag k="ref:vcgi:esiteid" v="612318" />
  </node>
  <node id="-728" visible="true" lat="44.73054928" lon="-72.94867318">
    <tag k="addr:housenumber" v="4466" />
    <tag k="addr:street" v="Fairfield Road" />
    <tag k="addr:state" v="VT" />
    <tag k="ref:vcgi:esiteid" v="612319" />
  </node>
  <node id="-729" visible="true" lat="44.70154686" lon="-72.9068921">
    <tag k="addr:housenumber" v="282" />
    <tag k="addr:street" v="Wright Road" />
    <tag k="addr:state" v="VT" />
    <tag k="ref:vcgi:esiteid" v="612733" />
  </node>
  <node id="-730" visible="true" lat="44.72977352" lon="-72.95215471">
    <tag k="addr:housenumber" v="160" />
    <tag k="addr:street" v="Ryans Way" />
    <tag k="addr:state" v="VT" />
    <tag k="ref:vcgi:esiteid" v="613432" />
  </node>
  <node id="-731" visible="true" lat="44.70046346" lon="-72.91234443">
    <tag k="addr:housenumber" v="1103" />
    <tag k="addr:street" v="North Road" />
    <tag k="addr:state" v="VT" />
    <tag k="ref:vcgi:esiteid" v="613433" />
  </node>
  <node id="-732" visible="true" lat="44.65748953" lon="-72.90796454">
    <tag k="addr:housenumber" v="123" />
    <tag k="addr:street" v="Black Mountain Road" />
    <tag k="addr:state" v="VT" />
    <tag k="ref:vcgi:esiteid" v="613445" />
  </node>
  <node id="-733" visible="true" lat="44.73007847" lon="-72.95274992">
    <tag k="addr:housenumber" v="190" />
    <tag k="addr:street" v="Ryans Way" />
    <tag k="addr:state" v="VT" />
    <tag k="ref:vcgi:esiteid" v="615634" />
  </node>
  <node id="-734" visible="true" lat="44.72962514" lon="-72.95373757">
    <tag k="addr:housenumber" v="224" />
    <tag k="addr:street" v="Ryans Way" />
    <tag k="addr:state" v="VT" />
    <tag k="ref:vcgi:esiteid" v="615635" />
  </node>
  <node id="-735" visible="true" lat="44.72854777" lon="-72.95455231">
    <tag k="addr:housenumber" v="292" />
    <tag k="addr:street" v="Ryans Way" />
    <tag k="addr:state" v="VT" />
    <tag k="ref:vcgi:esiteid" v="617969" />
  </node>
  <node id="-736" visible="true" lat="44.74434893" lon="-72.98931918">
    <tag k="addr:housenumber" v="60" />
    <tag k="addr:street" v="Collins Drive" />
    <tag k="addr:state" v="VT" />
    <tag k="ref:vcgi:esiteid" v="618036" />
  </node>
  <node id="-737" visible="true" lat="44.71624184" lon="-72.95226119">
    <tag k="addr:housenumber" v="3360" />
    <tag k="addr:street" v="Fairfield Road" />
    <tag k="addr:state" v="VT" />
    <tag k="ref:vcgi:esiteid" v="618140" />
  </node>
  <node id="-738" visible="true" lat="44.73097978" lon="-72.88183727">
    <tag k="addr:housenumber" v="410" />
    <tag k="addr:street" v="Wintergreen Mountain Road" />
    <tag k="addr:state" v="VT" />
    <tag k="ref:vcgi:esiteid" v="618231" />
  </node>
  <node id="-742" visible="true" lat="44.71073709" lon="-72.89767059">
    <tag k="addr:housenumber" v="30" />
    <tag k="addr:street" v="Homestead Lane" />
    <tag k="addr:state" v="VT" />
    <tag k="ref:vcgi:esiteid" v="620486" />
  </node>
  <node id="-743" visible="true" lat="44.70537295" lon="-72.82965328">
    <tag k="addr:housenumber" v="130" />
    <tag k="addr:street" v="Bakersfield Road" />
    <tag k="addr:state" v="VT" />
    <tag k="ref:vcgi:esiteid" v="620503" />
  </node>
  <node id="-744" visible="true" lat="44.70569335" lon="-72.8673731">
    <tag k="addr:housenumber" v="4985" />
    <tag k="addr:street" v="Pond Road" />
    <tag k="addr:state" v="VT" />
    <tag k="ref:vcgi:esiteid" v="620861" />
  </node>
  <node id="-745" visible="true" lat="44.71082283" lon="-72.87155125">
    <tag k="addr:housenumber" v="4337" />
    <tag k="addr:street" v="Pond Road" />
    <tag k="addr:state" v="VT" />
    <tag k="ref:vcgi:esiteid" v="620863" />
  </node>
  <node id="-747" visible="true" lat="44.72377186" lon="-72.89618755">
    <tag k="addr:housenumber" v="15" />
    <tag k="addr:street" v="Taylor Road" />
    <tag k="addr:state" v="VT" />
    <tag k="ref:vcgi:esiteid" v="655168" />
  </node>
  <node id="-749" visible="true" lat="44.69950003" lon="-72.90746594">
    <tag k="addr:housenumber" v="1184" />
    <tag k="addr:street" v="North Road" />
    <tag k="addr:state" v="VT" />
    <tag k="ref:vcgi:esiteid" v="655170" />
  </node>
  <node id="-750" visible="true" lat="44.6637734" lon="-72.91918403">
    <tag k="addr:housenumber" v="234" />
    <tag k="addr:street" v="Kays Way" />
    <tag k="addr:state" v="VT" />
    <tag k="ref:vcgi:esiteid" v="655523" />
  </node>
  <node id="-751" visible="true" lat="44.72318106" lon="-72.84683041">
    <tag k="addr:housenumber" v="2296" />
    <tag k="addr:street" v="Kinsley Road" />
    <tag k="addr:state" v="VT" />
    <tag k="ref:vcgi:esiteid" v="656187" />
  </node>
  <node id="-752" visible="true" lat="44.70678246" lon="-72.86896749">
    <tag k="addr:housenumber" v="4779" />
    <tag k="addr:street" v="Pond Road" />
    <tag k="addr:state" v="VT" />
    <tag k="ref:vcgi:esiteid" v="656188" />
  </node>
  <node id="-753" visible="true" lat="44.72056972" lon="-72.83062383">
    <tag k="addr:housenumber" v="1426" />
    <tag k="addr:street" v="Bakersfield Road" />
    <tag k="addr:state" v="VT" />
    <tag k="ref:vcgi:esiteid" v="656189" />
  </node>
  <node id="-754" visible="true" lat="44.67379635" lon="-72.9229137">
    <tag k="addr:housenumber" v="109" />
    <tag k="addr:street" v="School Road" />
    <tag k="addr:state" v="VT" />
    <tag k="ref:vcgi:esiteid" v="656190" />
  </node>
  <node id="-755" visible="true" lat="44.66379405" lon="-72.91856616">
    <tag k="addr:housenumber" v="268" />
    <tag k="addr:street" v="Kays Way" />
    <tag k="addr:state" v="VT" />
    <tag k="ref:vcgi:esiteid" v="656191" />
  </node>
  <node id="-756" visible="true" lat="44.65232365" lon="-72.9048578">
    <tag k="addr:housenumber" v="781" />
    <tag k="addr:street" v="River Road" />
    <tag k="addr:state" v="VT" />
    <tag k="ref:vcgi:esiteid" v="656192" />
  </node>
  <node id="-757" visible="true" lat="44.65112804" lon="-72.92265286">
    <tag k="addr:housenumber" v="1760" />
    <tag k="addr:street" v="River Road" />
    <tag k="addr:state" v="VT" />
    <tag k="ref:vcgi:esiteid" v="656193" />
  </node>
  <node id="-758" visible="true" lat="44.70136807" lon="-72.89554556">
    <tag k="addr:housenumber" v="226" />
    <tag k="addr:street" v="Sawmill Lane" />
    <tag k="addr:state" v="VT" />
    <tag k="ref:vcgi:esiteid" v="656378" />
  </node>
  <node id="-760" visible="true" lat="44.6624321" lon="-72.92310907">
    <tag k="addr:housenumber" v="24" />
    <tag k="addr:street" v="Hemlock Road" />
    <tag k="addr:state" v="VT" />
    <tag k="ref:vcgi:esiteid" v="753147" />
  </node>
  <node id="-761" visible="true" lat="44.74350333" lon="-72.98927442">
    <tag k="addr:housenumber" v="57" />
    <tag k="addr:street" v="Collins Drive" />
    <tag k="addr:state" v="VT" />
    <tag k="ref:vcgi:esiteid" v="753174" />
  </node>
  <node id="-763" visible="true" lat="44.68542193" lon="-72.87817846">
    <tag k="addr:housenumber" v="410" />
    <tag k="addr:street" v="Rushford Road" />
    <tag k="addr:state" v="VT" />
    <tag k="ref:vcgi:esiteid" v="753210" />
  </node>
  <node id="-764" visible="true" lat="44.68298453" lon="-72.8800972">
    <tag k="addr:housenumber" v="236" />
    <tag k="addr:street" v="Rushford Road" />
    <tag k="addr:state" v="VT" />
    <tag k="ref:vcgi:esiteid" v="753211" />
  </node>
  <node id="-768" visible="true" lat="44.7298633" lon="-72.9532898">
    <tag k="addr:housenumber" v="210" />
    <tag k="addr:street" v="Ryans Way" />
    <tag k="addr:state" v="VT" />
    <tag k="ref:vcgi:esiteid" v="753584" />
  </node>
  <node id="-769" visible="true" lat="44.70761597" lon="-72.95226962">
    <tag k="addr:housenumber" v="423" />
    <tag k="addr:street" v="High Meadow Road" />
    <tag k="addr:state" v="VT" />
    <tag k="ref:vcgi:esiteid" v="753615" />
  </node>
  <node id="-770" visible="true" lat="44.70819077" lon="-72.95417001">
    <tag k="addr:housenumber" v="317" />
    <tag k="addr:street" v="High Meadow Road" />
    <tag k="addr:state" v="VT" />
    <tag k="ref:vcgi:esiteid" v="753682" />
  </node>
  <node id="-771" visible="true" lat="44.71030281" lon="-72.94970176">
    <tag k="addr:housenumber" v="3040" />
    <tag k="addr:street" v="Fairfield Road" />
    <tag k="addr:state" v="VT" />
    <tag k="ref:vcgi:esiteid" v="754026" />
  </node>
  <node id="-776" visible="true" lat="44.69000489" lon="-72.91143094">
    <tag k="addr:housenumber" v="446" />
    <tag k="addr:street" v="North Road" />
    <tag k="addr:state" v="VT" />
    <tag k="ref:vcgi:esiteid" v="755791" />
  </node>
  <node id="-777" visible="true" lat="44.68914878" lon="-72.91311714">
    <tag k="addr:housenumber" v="386" />
    <tag k="addr:street" v="North Road" />
    <tag k="addr:state" v="VT" />
    <tag k="ref:vcgi:esiteid" v="755792" />
  </node>
  <node id="-784" visible="true" lat="44.74123603" lon="-72.93808491">
    <tag k="addr:housenumber" v="621" />
    <tag k="addr:street" v="Will George Road" />
    <tag k="addr:state" v="VT" />
    <tag k="ref:vcgi:esiteid" v="755874" />
  </node>
  <node id="-785" visible="true" lat="44.71322413" lon="-72.95773676">
    <tag k="addr:housenumber" v="90" />
    <tag k="addr:street" v="Boulder Lane" />
    <tag k="addr:state" v="VT" />
    <tag k="ref:vcgi:esiteid" v="755906" />
  </node>
  <node id="-786" visible="true" lat="44.69561533" lon="-72.89991111">
    <tag k="addr:housenumber" v="49" />
    <tag k="addr:street" v="Fletcher View Drive" />
    <tag k="addr:state" v="VT" />
    <tag k="ref:vcgi:esiteid" v="756382" />
  </node>
  <node id="-787" visible="true" lat="44.65219294" lon="-72.92440576">
    <tag k="addr:housenumber" v="94" />
    <tag k="addr:street" v="Hummingbird Road" />
    <tag k="addr:state" v="VT" />
    <tag k="ref:vcgi:esiteid" v="756484" />
  </node>
  <node id="-788" visible="true" lat="44.68490896" lon="-72.88129675">
    <tag k="addr:housenumber" v="215" />
    <tag k="addr:street" v="Rushford Road" />
    <tag k="addr:state" v="VT" />
    <tag k="ref:vcgi:esiteid" v="756624" />
  </node>
  <node id="-789" visible="true" lat="44.70528018" lon="-72.95834281">
    <tag k="addr:housenumber" v="176" />
    <tag k="addr:street" v="Maple Tree Way" />
    <tag k="addr:state" v="VT" />
    <tag k="ref:vcgi:esiteid" v="757099" />
  </node>
  <node id="-790" visible="true" lat="44.69395824" lon="-72.93150007">
    <tag k="addr:housenumber" v="1214" />
    <tag k="addr:street" v="Fairfield Road" />
    <tag k="addr:state" v="VT" />
    <tag k="ref:vcgi:esiteid" v="757309" />
  </node>
  <node id="-791" visible="true" lat="44.69586138" lon="-72.90959826">
    <tag k="addr:housenumber" v="940" />
    <tag k="addr:street" v="North Road" />
    <tag k="addr:state" v="VT" />
    <tag k="ref:vcgi:esiteid" v="758812" />
  </node>
  <node id="-792" visible="true" lat="44.65172244" lon="-72.9243538">
    <tag k="addr:housenumber" v="78" />
    <tag k="addr:street" v="Hummingbird Road" />
    <tag k="addr:state" v="VT" />
    <tag k="ref:vcgi:esiteid" v="758912" />
  </node>
  <node id="-793" visible="true" lat="44.72028801" lon="-72.93446086">
    <tag k="addr:housenumber" v="1057" />
    <tag k="addr:street" v="Mayotte Road" />
    <tag k="addr:state" v="VT" />
    <tag k="ref:vcgi:esiteid" v="758987" />
  </node>
  <node id="-794" visible="true" lat="44.72763844" lon="-72.95422773">
    <tag k="addr:housenumber" v="300" />
    <tag k="addr:street" v="Ryans Way" />
    <tag k="addr:state" v="VT" />
    <tag k="ref:vcgi:esiteid" v="760198" />
  </node>
  <node id="-795" visible="true" lat="44.73071641" lon="-72.88191533">
    <tag k="addr:housenumber" v="468" />
    <tag k="addr:street" v="Wintergreen Mountain Road" />
    <tag k="addr:state" v="VT" />
    <tag k="ref:vcgi:esiteid" v="760619" />
  </node>
  <node id="-796" visible="true" lat="44.70294791" lon="-72.95055955">
    <tag k="addr:housenumber" v="348" />
    <tag k="addr:street" v="Slattery Road" />
    <tag k="addr:state" v="VT" />
    <tag k="ref:vcgi:esiteid" v="760801" />
  </node>
  <node id="-797" visible="true" lat="44.6641044" lon="-72.92478169">
    <tag k="addr:housenumber" v="730" />
    <tag k="addr:street" v="School Road" />
    <tag k="addr:state" v="VT" />
    <tag k="ref:vcgi:esiteid" v="760802" />
  </node>
  <node id="-798" visible="true" lat="44.70600647" lon="-72.89866966">
    <tag k="addr:housenumber" v="1387" />
    <tag k="addr:street" v="Pond Road" />
    <tag k="addr:state" v="VT" />
    <tag k="ref:vcgi:esiteid" v="760998" />
  </node>
  <node id="-799" visible="true" lat="44.74400175" lon="-72.90989578">
    <tag k="addr:housenumber" v="1366" />
    <tag k="addr:street" v="Howrigan Road" />
    <tag k="addr:state" v="VT" />
    <tag k="ref:vcgi:esiteid" v="761471" />
  </node>
  <node id="-800" visible="true" lat="44.74104023" lon="-72.9895119">
    <tag k="addr:housenumber" v="1098" />
    <tag k="addr:street" v="Buck Hollow Road" />
    <tag k="addr:state" v="VT" />
    <tag k="ref:vcgi:esiteid" v="763097" />
  </node>
  <node id="-801" visible="true" lat="44.73346333" lon="-72.92355502">
    <tag k="addr:housenumber" v="168" />
    <tag k="addr:street" v="Kennedy Drive" />
    <tag k="addr:state" v="VT" />
    <tag k="ref:vcgi:esiteid" v="764433" />
  </node>
  <node id="-802" visible="true" lat="44.75546976" lon="-72.97876397">
    <tag k="addr:housenumber" v="2503" />
    <tag k="addr:street" v="Buck Hollow Road" />
    <tag k="addr:state" v="VT" />
    <tag k="ref:vcgi:esiteid" v="765418" />
  </node>
  <node id="-803" visible="true" lat="44.73071521" lon="-72.88920629">
    <tag k="addr:housenumber" v="584" />
    <tag k="addr:street" v="Taylor Road" />
    <tag k="addr:state" v="VT" />
    <tag k="ref:vcgi:esiteid" v="765419" />
  </node>
  <node id="-804" visible="true" lat="44.73102852" lon="-72.89183901">
    <tag k="addr:housenumber" v="557" />
    <tag k="addr:street" v="Taylor Road" />
    <tag k="addr:state" v="VT" />
    <tag k="ref:vcgi:esiteid" v="765420" />
  </node>
  <node id="-805" visible="true" lat="44.73299148" lon="-72.89015539">
    <tag k="addr:housenumber" v="738" />
    <tag k="addr:street" v="Taylor Road" />
    <tag k="addr:state" v="VT" />
    <tag k="ref:vcgi:esiteid" v="765421" />
  </node>
  <node id="-806" visible="true" lat="44.71660422" lon="-72.85261392">
    <tag k="addr:housenumber" v="1727" />
    <tag k="addr:street" v="Kinsley Road" />
    <tag k="addr:state" v="VT" />
    <tag k="ref:vcgi:esiteid" v="765422" />
  </node>
  <node id="-807" visible="true" lat="44.68400547" lon="-72.88095703">
    <tag k="addr:housenumber" v="240" />
    <tag k="addr:street" v="Rushford Road" />
    <tag k="addr:state" v="VT" />
    <tag k="ref:vcgi:esiteid" v="765423" />
  </node>
  <node id="-808" visible="true" lat="44.67275374" lon="-72.91039732">
    <tag k="addr:housenumber" v="668" />
    <tag k="addr:street" v="Shaw Road" />
    <tag k="addr:state" v="VT" />
    <tag k="ref:vcgi:esiteid" v="765424" />
  </node>
  <node id="-809" visible="true" lat="44.66909996" lon="-72.90446408">
    <tag k="addr:housenumber" v="974" />
    <tag k="addr:street" v="Black Mountain Road" />
    <tag k="addr:state" v="VT" />
    <tag k="ref:vcgi:esiteid" v="765425" />
  </node>
  <node id="-810" visible="true" lat="44.69441233" lon="-72.93154438">
    <tag k="addr:housenumber" v="1230" />
    <tag k="addr:street" v="Fairfield Road" />
    <tag k="addr:state" v="VT" />
    <tag k="ref:vcgi:esiteid" v="765426" />
  </node>
  <node id="-811" visible="true" lat="44.69484266" lon="-72.93234205">
    <tag k="addr:housenumber" v="1260" />
    <tag k="addr:street" v="Fairfield Road" />
    <tag k="addr:state" v="VT" />
    <tag k="ref:vcgi:esiteid" v="765427" />
  </node>
  <node id="-812" visible="true" lat="44.71978354" lon="-72.95660832">
    <tag k="addr:housenumber" v="3587" />
    <tag k="addr:street" v="Fairfield Road" />
    <tag k="addr:state" v="VT" />
    <tag k="ref:vcgi:esiteid" v="765428" />
  </node>
  <node id="-813" visible="true" lat="44.70474666" lon="-72.85574364">
    <tag k="addr:housenumber" v="744" />
    <tag k="addr:street" v="Kinsley Road" />
    <tag k="addr:state" v="VT" />
    <tag k="ref:vcgi:esiteid" v="766011" />
  </node>
  <node id="-814" visible="true" lat="44.68890711" lon="-72.93502102">
    <tag k="addr:housenumber" v="1205" />
    <tag k="addr:street" v="Fairfield Road" />
    <tag k="addr:state" v="VT" />
    <tag k="ref:vcgi:esiteid" v="768164" />
  </node>
  <node id="-815" visible="true" lat="44.71121357" lon="-72.96132064">
    <tag k="addr:housenumber" v="25" />
    <tag k="addr:street" v="Rocky Road" />
    <tag k="addr:state" v="VT" />
    <tag k="ref:vcgi:esiteid" v="768204" />
  </node>
  <node id="-816" visible="true" lat="44.6532818" lon="-72.89885129">
    <tag k="addr:housenumber" v="505" />
    <tag k="addr:street" v="River Road" />
    <tag k="addr:state" v="VT" />
    <tag k="ref:vcgi:esiteid" v="768205" />
  </node>
  <node id="-817" visible="true" lat="44.71737665" lon="-72.89971788">
    <tag k="addr:housenumber" v="2710" />
    <tag k="addr:street" v="North Road" />
    <tag k="addr:state" v="VT" />
    <tag k="ref:vcgi:esiteid" v="768206" />
  </node>
  <node id="-818" visible="true" lat="44.67494724" lon="-72.88378633">
    <tag k="addr:housenumber" v="2238" />
    <tag k="addr:street" v="Cambridge Road" />
    <tag k="addr:state" v="VT" />
    <tag k="ref:vcgi:esiteid" v="768226" />
  </node>
  <node id="-819" visible="true" lat="44.68485376" lon="-72.8860566">
    <tag k="addr:housenumber" v="21" />
    <tag k="addr:street" v="Sweet Berry Lane" />
    <tag k="addr:state" v="VT" />
    <tag k="ref:vcgi:esiteid" v="768228" />
  </node>
  <node id="-820" visible="true" lat="44.68257526" lon="-72.90712113">
    <tag k="addr:housenumber" v="326" />
    <tag k="addr:street" v="Cambridge Road" />
    <tag k="addr:state" v="VT" />
    <tag k="ref:vcgi:esiteid" v="768229" />
  </node>
  <node id="-822" visible="true" lat="44.68456955" lon="-72.92105081">
    <tag k="addr:housenumber" v="345" />
    <tag k="addr:street" v="Fairfield Road" />
    <tag k="addr:state" v="VT" />
    <tag k="ref:vcgi:esiteid" v="768395" />
  </node>
  <node id="-823" visible="true" lat="44.69889335" lon="-72.95944035">
    <tag k="addr:housenumber" v="99" />
    <tag k="addr:street" v="Drinkwine Road" />
    <tag k="addr:state" v="VT" />
    <tag k="ref:vcgi:esiteid" v="768396" />
  </node>
  <node id="-824" visible="true" lat="44.72793776" lon="-72.949638">
    <tag k="addr:housenumber" v="4290" />
    <tag k="addr:street" v="Fairfield Road" />
    <tag k="addr:state" v="VT" />
    <tag k="ref:vcgi:esiteid" v="768397" />
  </node>
  <node id="-825" visible="true" lat="44.7410466" lon="-72.94822858">
    <tag k="addr:housenumber" v="5191" />
    <tag k="addr:street" v="Fairfield Road" />
    <tag k="addr:state" v="VT" />
    <tag k="ref:vcgi:esiteid" v="768398" />
  </node>
  <node id="-826" visible="true" lat="44.70996102" lon="-72.90785069">
    <tag k="addr:housenumber" v="1930" />
    <tag k="addr:street" v="North Road" />
    <tag k="addr:state" v="VT" />
    <tag k="ref:vcgi:esiteid" v="768399" />
  </node>
  <node id="-827" visible="true" lat="44.71774036" lon="-72.9021653">
    <tag k="addr:housenumber" v="2580" />
    <tag k="addr:street" v="North Road" />
    <tag k="addr:state" v="VT" />
    <tag k="ref:vcgi:esiteid" v="768400" />
  </node>
  <node id="-828" visible="true" lat="44.70549863" lon="-72.89732251">
    <tag k="addr:housenumber" v="51" />
    <tag k="addr:street" v="Pinnacle Farm Road" />
    <tag k="addr:state" v="VT" />
    <tag k="ref:vcgi:esiteid" v="768401" />
  </node>
  <node id="-829" visible="true" lat="44.702052" lon="-72.89927508">
    <tag k="addr:housenumber" v="18" />
    <tag k="addr:street" v="Sawmill Lane" />
    <tag k="addr:state" v="VT" />
    <tag k="ref:vcgi:esiteid" v="768410" />
  </node>
  <node id="-832" visible="true" lat="44.70231683" lon="-72.89912166">
    <tag k="addr:housenumber" v="33" />
    <tag k="addr:street" v="Sawmill Lane" />
    <tag k="addr:state" v="VT" />
    <tag k="ref:vcgi:esiteid" v="768413" />
  </node>
  <node id="-833" visible="true" lat="44.70237621" lon="-72.89848107">
    <tag k="addr:housenumber" v="53" />
    <tag k="addr:street" v="Sawmill Lane" />
    <tag k="addr:state" v="VT" />
    <tag k="ref:vcgi:esiteid" v="768414" />
  </node>
  <node id="-834" visible="true" lat="44.68797986" lon="-72.92259248">
    <tag k="addr:housenumber" v="502" />
    <tag k="addr:street" v="Fairfield Road" />
    <tag k="addr:state" v="VT" />
    <tag k="ref:vcgi:esiteid" v="768726" />
  </node>
  <node id="-835" visible="true" lat="44.70990427" lon="-72.93789158">
    <tag k="addr:housenumber" v="335" />
    <tag k="addr:street" v="Mayotte Road" />
    <tag k="addr:state" v="VT" />
    <tag k="ref:vcgi:esiteid" v="768751" />
  </node>
  <node id="-836" visible="true" lat="44.66443941" lon="-72.91962228">
    <tag k="addr:housenumber" v="200" />
    <tag k="addr:street" v="Kays Way" />
    <tag k="addr:state" v="VT" />
    <tag k="ref:vcgi:esiteid" v="769512" />
  </node>
  <node id="-837" visible="true" lat="44.66451667" lon="-72.91902446">
    <tag k="addr:housenumber" v="191" />
    <tag k="addr:street" v="Kays Way" />
    <tag k="addr:state" v="VT" />
    <tag k="ref:vcgi:esiteid" v="769513" />
  </node>
  <node id="-838" visible="true" lat="44.66457863" lon="-72.91811558">
    <tag k="addr:housenumber" v="275" />
    <tag k="addr:street" v="Kays Way" />
    <tag k="addr:state" v="VT" />
    <tag k="ref:vcgi:esiteid" v="769515" />
  </node>
  <node id="-839" visible="true" lat="44.68796407" lon="-72.87955779">
    <tag k="addr:housenumber" v="215" />
    <tag k="addr:street" v="Brannagan Road" />
    <tag k="addr:state" v="VT" />
    <tag k="ref:vcgi:esiteid" v="770644" />
  </node>
  <node id="-840" visible="true" lat="44.69693827" lon="-72.88311468">
    <tag k="addr:housenumber" v="220" />
    <tag k="addr:street" v="Brannagan Road" />
    <tag k="addr:state" v="VT" />
    <tag k="ref:vcgi:esiteid" v="770645" />
  </node>
  <node id="-841" visible="true" lat="44.66082094" lon="-72.91726637">
    <tag k="addr:housenumber" v="1126" />
    <tag k="addr:street" v="School Road" />
    <tag k="addr:state" v="VT" />
    <tag k="ref:vcgi:esiteid" v="900034" />
  </node>
  <node id="-842" visible="true" lat="44.70767684" lon="-72.9033508">
    <tag k="addr:housenumber" v="1722" />
    <tag k="addr:street" v="North Road" />
    <tag k="addr:state" v="VT" />
    <tag k="ref:vcgi:esiteid" v="900290" />
  </node>
  <node id="-843" visible="true" lat="44.66630578" lon="-72.89057133">
    <tag k="addr:housenumber" v="46" />
    <tag k="addr:street" v="King Road" />
    <tag k="addr:state" v="VT" />
    <tag k="ref:vcgi:esiteid" v="1050631" />
  </node>
</osm>
