<?xml version="1.0" encoding="UTF-8"?>
<osm version="0.6" generator="JOSM" upload="false">
  <node id="-100" visible="true" lat="43.84299836" lon="-73.02868114">
    <tag k="addr:city" v="Goshen" />
    <tag k="addr:housenumber" v="59" />
    <tag k="addr:street" v="Town Hill Road" />
    <tag k="addr:state" v="VT" />
    <tag k="ref:vcgi:esiteid" v="36" />
  </node>
  <node id="-101" visible="true" lat="43.919057" lon="-73.026237">
    <tag k="addr:city" v="Goshen" />
    <tag k="addr:housenumber" v="3464" />
    <tag k="addr:street" v="Goshen Ripton Road" />
    <tag k="addr:state" v="VT" />
    <tag k="ref:vcgi:esiteid" v="112451" />
  </node>
  <node id="-102" visible="true" lat="43.90706698" lon="-73.01622562">
    <tag k="addr:city" v="Goshen" />
    <tag k="addr:housenumber" v="2479" />
    <tag k="addr:street" v="Goshen Ripton Road" />
    <tag k="addr:state" v="VT" />
    <tag k="ref:vcgi:esiteid" v="112452" />
  </node>
  <node id="-103" visible="true" lat="43.905434" lon="-73.01631831">
    <tag k="addr:city" v="Goshen" />
    <tag k="addr:housenumber" v="2401" />
    <tag k="addr:street" v="Goshen Ripton Road" />
    <tag k="addr:state" v="VT" />
    <tag k="ref:vcgi:esiteid" v="112453" />
  </node>
  <node id="-104" visible="true" lat="43.90193292" lon="-73.01483881">
    <tag k="addr:city" v="Goshen" />
    <tag k="addr:housenumber" v="2129" />
    <tag k="addr:street" v="Goshen Ripton Road" />
    <tag k="addr:state" v="VT" />
    <tag k="ref:vcgi:esiteid" v="112454" />
  </node>
  <node id="-105" visible="true" lat="43.90135871" lon="-73.01260843">
    <tag k="addr:city" v="Goshen" />
    <tag k="addr:housenumber" v="2121" />
    <tag k="addr:street" v="Goshen Ripton Road" />
    <tag k="addr:state" v="VT" />
    <tag k="ref:vcgi:esiteid" v="112455" />
  </node>
  <node id="-106" visible="true" lat="43.90092743" lon="-73.02181959">
    <tag k="addr:city" v="Goshen" />
    <tag k="addr:housenumber" v="344" />
    <tag k="addr:street" v="Lady Slipper Lane" />
    <tag k="addr:state" v="VT" />
    <tag k="ref:vcgi:esiteid" v="112456" />
  </node>
  <node id="-107" visible="true" lat="43.90119825" lon="-73.00993788">
    <tag k="addr:city" v="Goshen" />
    <tag k="addr:housenumber" v="227" />
    <tag k="addr:street" v="Broken Wire Drive" />
    <tag k="addr:state" v="VT" />
    <tag k="ref:vcgi:esiteid" v="112457" />
  </node>
  <node id="-108" visible="true" lat="43.90038467" lon="-73.01339433">
    <tag k="addr:city" v="Goshen" />
    <tag k="addr:housenumber" v="2029" />
    <tag k="addr:street" v="Goshen Ripton Road" />
    <tag k="addr:state" v="VT" />
    <tag k="ref:vcgi:esiteid" v="112458" />
  </node>
  <node id="-109" visible="true" lat="43.90013888" lon="-73.01607072">
    <tag k="addr:city" v="Goshen" />
    <tag k="addr:housenumber" v="2010" />
    <tag k="addr:street" v="Goshen Ripton Road" />
    <tag k="addr:state" v="VT" />
    <tag k="ref:vcgi:esiteid" v="112459" />
  </node>
  <node id="-110" visible="true" lat="43.89962667" lon="-73.01040358">
    <tag k="addr:city" v="Goshen" />
    <tag k="addr:housenumber" v="184" />
    <tag k="addr:street" v="Broken Wire Drive" />
    <tag k="addr:state" v="VT" />
    <tag k="ref:vcgi:esiteid" v="112460" />
  </node>
  <node id="-111" visible="true" lat="43.89643536" lon="-73.01340633">
    <tag k="addr:city" v="Goshen" />
    <tag k="addr:housenumber" v="1742" />
    <tag k="addr:street" v="Goshen Ripton Road" />
    <tag k="addr:state" v="VT" />
    <tag k="ref:vcgi:esiteid" v="112461" />
  </node>
  <node id="-112" visible="true" lat="43.89390182" lon="-73.02928924">
    <tag k="addr:city" v="Goshen" />
    <tag k="addr:housenumber" v="1101" />
    <tag k="addr:street" v="Dutton Brook Road" />
    <tag k="addr:state" v="VT" />
    <tag k="ref:vcgi:esiteid" v="112462" />
  </node>
  <node id="-113" visible="true" lat="43.89388098" lon="-73.01220566">
    <tag k="addr:city" v="Goshen" />
    <tag k="addr:housenumber" v="1544" />
    <tag k="addr:street" v="Goshen Ripton Road" />
    <tag k="addr:state" v="VT" />
    <tag k="ref:vcgi:esiteid" v="112463" />
  </node>
  <node id="-114" visible="true" lat="43.89322646" lon="-73.01255714">
    <tag k="addr:city" v="Goshen" />
    <tag k="addr:housenumber" v="1518" />
    <tag k="addr:street" v="Goshen Ripton Road" />
    <tag k="addr:state" v="VT" />
    <tag k="ref:vcgi:esiteid" v="112464" />
  </node>
  <node id="-115" visible="true" lat="43.89284515" lon="-73.02560424">
    <tag k="addr:city" v="Goshen" />
    <tag k="addr:housenumber" v="901" />
    <tag k="addr:street" v="Dutton Brook Road" />
    <tag k="addr:state" v="VT" />
    <tag k="ref:vcgi:esiteid" v="112465" />
  </node>
  <node id="-116" visible="true" lat="43.89101791" lon="-73.019104">
    <tag k="addr:city" v="Goshen" />
    <tag k="addr:housenumber" v="521" />
    <tag k="addr:street" v="Dutton Brook Road" />
    <tag k="addr:state" v="VT" />
    <tag k="ref:vcgi:esiteid" v="112466" />
  </node>
  <node id="-117" visible="true" lat="43.89059448" lon="-73.00917816">
    <tag k="addr:city" v="Goshen" />
    <tag k="addr:housenumber" v="1307" />
    <tag k="addr:street" v="Goshen Ripton Road" />
    <tag k="addr:state" v="VT" />
    <tag k="ref:vcgi:esiteid" v="112467" />
  </node>
  <node id="-118" visible="true" lat="43.89023971" lon="-73.01956939">
    <tag k="addr:city" v="Goshen" />
    <tag k="addr:housenumber" v="517" />
    <tag k="addr:street" v="Dutton Brook Road" />
    <tag k="addr:state" v="VT" />
    <tag k="ref:vcgi:esiteid" v="112468" />
  </node>
  <node id="-119" visible="true" lat="43.89011327" lon="-73.01036714">
    <tag k="addr:city" v="Goshen" />
    <tag k="addr:housenumber" v="1291" />
    <tag k="addr:street" v="Goshen Ripton Road" />
    <tag k="addr:state" v="VT" />
    <tag k="ref:vcgi:esiteid" v="112469" />
  </node>
  <node id="-120" visible="true" lat="43.88983034" lon="-73.01083017">
    <tag k="addr:city" v="Goshen" />
    <tag k="addr:housenumber" v="1288" />
    <tag k="addr:street" v="Goshen Ripton Road" />
    <tag k="addr:state" v="VT" />
    <tag k="ref:vcgi:esiteid" v="112470" />
  </node>
  <node id="-121" visible="true" lat="43.89004336" lon="-73.0103121">
    <tag k="addr:city" v="Goshen" />
    <tag k="addr:housenumber" v="1283" />
    <tag k="addr:street" v="Goshen Ripton Road" />
    <tag k="addr:state" v="VT" />
    <tag k="ref:vcgi:esiteid" v="112471" />
  </node>
  <node id="-122" visible="true" lat="43.88967263" lon="-73.00974909">
    <tag k="addr:city" v="Goshen" />
    <tag k="addr:housenumber" v="1245" />
    <tag k="addr:street" v="Goshen Ripton Road" />
    <tag k="addr:state" v="VT" />
    <tag k="ref:vcgi:esiteid" v="112472" />
  </node>
  <node id="-123" visible="true" lat="43.88936233" lon="-73.01786804">
    <tag k="addr:city" v="Goshen" />
    <tag k="addr:housenumber" v="406" />
    <tag k="addr:street" v="Dutton Brook Road" />
    <tag k="addr:state" v="VT" />
    <tag k="ref:vcgi:esiteid" v="112473" />
  </node>
  <node id="-124" visible="true" lat="43.8879063" lon="-73.01066281">
    <tag k="addr:city" v="Goshen" />
    <tag k="addr:housenumber" v="1110" />
    <tag k="addr:street" v="Goshen Ripton Road" />
    <tag k="addr:state" v="VT" />
    <tag k="ref:vcgi:esiteid" v="112474" />
  </node>
  <node id="-125" visible="true" lat="43.87981773" lon="-73.02832201">
    <tag k="addr:city" v="Goshen" />
    <tag k="addr:housenumber" v="947" />
    <tag k="addr:street" v="Silver Lake Road" />
    <tag k="addr:state" v="VT" />
    <tag k="ref:vcgi:esiteid" v="112475" />
  </node>
  <node id="-126" visible="true" lat="43.8793509" lon="-73.02926686">
    <tag k="addr:city" v="Goshen" />
    <tag k="addr:housenumber" v="945" />
    <tag k="addr:street" v="Silver Lake Road" />
    <tag k="addr:state" v="VT" />
    <tag k="ref:vcgi:esiteid" v="112476" />
  </node>
  <node id="-127" visible="true" lat="43.87802118" lon="-73.03172075">
    <tag k="addr:city" v="Goshen" />
    <tag k="addr:housenumber" v="996" />
    <tag k="addr:street" v="Silver Lake Road" />
    <tag k="addr:state" v="VT" />
    <tag k="ref:vcgi:esiteid" v="112477" />
  </node>
  <node id="-128" visible="true" lat="43.87796401" lon="-73.01221466">
    <tag k="addr:city" v="Goshen" />
    <tag k="addr:housenumber" v="423" />
    <tag k="addr:street" v="Goshen Ripton Road" />
    <tag k="addr:state" v="VT" />
    <tag k="ref:vcgi:esiteid" v="112478" />
  </node>
  <node id="-129" visible="true" lat="43.87672061" lon="-73.0294558">
    <tag k="addr:city" v="Goshen" />
    <tag k="addr:housenumber" v="95" />
    <tag k="addr:street" v="Hayes Road" />
    <tag k="addr:state" v="VT" />
    <tag k="ref:vcgi:esiteid" v="112479" />
  </node>
  <node id="-130" visible="true" lat="43.87638299" lon="-73.02781829">
    <tag k="addr:city" v="Goshen" />
    <tag k="addr:housenumber" v="10" />
    <tag k="addr:street" v="Hayes Road" />
    <tag k="addr:state" v="VT" />
    <tag k="ref:vcgi:esiteid" v="112480" />
  </node>
  <node id="-131" visible="true" lat="43.87597123" lon="-73.02608281">
    <tag k="addr:city" v="Goshen" />
    <tag k="addr:housenumber" v="670" />
    <tag k="addr:street" v="Silver Lake Road" />
    <tag k="addr:state" v="VT" />
    <tag k="ref:vcgi:esiteid" v="112481" />
  </node>
  <node id="-132" visible="true" lat="43.87587517" lon="-73.02901441">
    <tag k="addr:city" v="Goshen" />
    <tag k="addr:housenumber" v="88" />
    <tag k="addr:street" v="Hayes Road" />
    <tag k="addr:state" v="VT" />
    <tag k="ref:vcgi:esiteid" v="112482" />
  </node>
  <node id="-133" visible="true" lat="43.87494738" lon="-73.03005659">
    <tag k="addr:city" v="Goshen" />
    <tag k="addr:housenumber" v="184" />
    <tag k="addr:street" v="Hayes Road" />
    <tag k="addr:state" v="VT" />
    <tag k="ref:vcgi:esiteid" v="112483" />
  </node>
  <node id="-134" visible="true" lat="43.87468338" lon="-73.00455474">
    <tag k="addr:city" v="Goshen" />
    <tag k="addr:housenumber" v="370" />
    <tag k="addr:street" v="National Forest Road 224" />
    <tag k="addr:state" v="VT" />
    <tag k="ref:vcgi:esiteid" v="112484" />
  </node>
  <node id="-135" visible="true" lat="43.87458402" lon="-73.02401072">
    <tag k="addr:city" v="Goshen" />
    <tag k="addr:housenumber" v="483" />
    <tag k="addr:street" v="Silver Lake Road" />
    <tag k="addr:state" v="VT" />
    <tag k="ref:vcgi:esiteid" v="112485" />
  </node>
  <node id="-136" visible="true" lat="43.87427455" lon="-73.01393548">
    <tag k="addr:city" v="Goshen" />
    <tag k="addr:housenumber" v="167" />
    <tag k="addr:street" v="Goshen Ripton Road" />
    <tag k="addr:state" v="VT" />
    <tag k="ref:vcgi:esiteid" v="112486" />
  </node>
  <node id="-137" visible="true" lat="43.87419286" lon="-73.02294061">
    <tag k="addr:city" v="Goshen" />
    <tag k="addr:housenumber" v="431" />
    <tag k="addr:street" v="Silver Lake Road" />
    <tag k="addr:state" v="VT" />
    <tag k="ref:vcgi:esiteid" v="112487" />
  </node>
  <node id="-138" visible="true" lat="43.87397062" lon="-73.03108466">
    <tag k="addr:city" v="Goshen" />
    <tag k="addr:housenumber" v="257" />
    <tag k="addr:street" v="Hayes Road" />
    <tag k="addr:state" v="VT" />
    <tag k="ref:vcgi:esiteid" v="112488" />
  </node>
  <node id="-139" visible="true" lat="43.87370681" lon="-73.03176879">
    <tag k="addr:city" v="Goshen" />
    <tag k="addr:housenumber" v="297" />
    <tag k="addr:street" v="Hayes Road" />
    <tag k="addr:state" v="VT" />
    <tag k="ref:vcgi:esiteid" v="112489" />
  </node>
  <node id="-140" visible="true" lat="43.87339901" lon="-73.02927303">
    <tag k="addr:city" v="Goshen" />
    <tag k="addr:housenumber" v="74" />
    <tag k="addr:street" v="Hayes Road Extension" />
    <tag k="addr:state" v="VT" />
    <tag k="ref:vcgi:esiteid" v="112490" />
  </node>
  <node id="-141" visible="true" lat="43.87319977" lon="-73.01852647">
    <tag k="addr:city" v="Goshen" />
    <tag k="addr:housenumber" v="197" />
    <tag k="addr:street" v="Silver Lake Road" />
    <tag k="addr:state" v="VT" />
    <tag k="ref:vcgi:esiteid" v="112491" />
  </node>
  <node id="-142" visible="true" lat="43.87273976" lon="-73.03216164">
    <tag k="addr:city" v="Goshen" />
    <tag k="addr:housenumber" v="345" />
    <tag k="addr:street" v="Hayes Road" />
    <tag k="addr:state" v="VT" />
    <tag k="ref:vcgi:esiteid" v="112492" />
  </node>
  <node id="-143" visible="true" lat="43.87270709" lon="-73.01837886">
    <tag k="addr:city" v="Goshen" />
    <tag k="addr:housenumber" v="194" />
    <tag k="addr:street" v="Silver Lake Road" />
    <tag k="addr:state" v="VT" />
    <tag k="ref:vcgi:esiteid" v="112493" />
  </node>
  <node id="-144" visible="true" lat="43.87220422" lon="-73.02856738">
    <tag k="addr:city" v="Goshen" />
    <tag k="addr:housenumber" v="131" />
    <tag k="addr:street" v="Hayes Road Extension" />
    <tag k="addr:state" v="VT" />
    <tag k="ref:vcgi:esiteid" v="112494" />
  </node>
  <node id="-145" visible="true" lat="43.87239981" lon="-73.02983036">
    <tag k="addr:city" v="Goshen" />
    <tag k="addr:housenumber" v="65" />
    <tag k="addr:street" v="Hayes Road Extension" />
    <tag k="addr:state" v="VT" />
    <tag k="ref:vcgi:esiteid" v="112495" />
  </node>
  <node id="-146" visible="true" lat="43.87245178" lon="-73.01266479">
    <tag k="addr:city" v="Goshen" />
    <tag k="addr:housenumber" v="1323" />
    <tag k="addr:street" v="Flora White Road" />
    <tag k="addr:state" v="VT" />
    <tag k="ref:vcgi:esiteid" v="112496" />
  </node>
  <node id="-147" visible="true" lat="43.87223736" lon="-73.0272752">
    <tag k="addr:city" v="Goshen" />
    <tag k="addr:housenumber" v="182" />
    <tag k="addr:street" v="Hayes Road Extension" />
    <tag k="addr:state" v="VT" />
    <tag k="ref:vcgi:esiteid" v="112497" />
  </node>
  <node id="-148" visible="true" lat="43.87193455" lon="-73.02486925">
    <tag k="addr:city" v="Goshen" />
    <tag k="addr:housenumber" v="434" />
    <tag k="addr:street" v="Silver Lake Road" />
    <tag k="addr:state" v="VT" />
    <tag k="ref:vcgi:esiteid" v="112498" />
  </node>
  <node id="-149" visible="true" lat="43.87111286" lon="-73.01842505">
    <tag k="addr:city" v="Goshen" />
    <tag k="addr:housenumber" v="1686" />
    <tag k="addr:street" v="Carlisle Hill Road" />
    <tag k="addr:state" v="VT" />
    <tag k="ref:vcgi:esiteid" v="112499" />
  </node>
  <node id="-150" visible="true" lat="43.86983708" lon="-73.01537558">
    <tag k="addr:city" v="Goshen" />
    <tag k="addr:housenumber" v="1610" />
    <tag k="addr:street" v="Carlisle Hill Road" />
    <tag k="addr:state" v="VT" />
    <tag k="ref:vcgi:esiteid" v="112500" />
  </node>
  <node id="-151" visible="true" lat="43.86998427" lon="-73.00720112">
    <tag k="addr:city" v="Goshen" />
    <tag k="addr:housenumber" v="1011" />
    <tag k="addr:street" v="Flora White Road" />
    <tag k="addr:state" v="VT" />
    <tag k="ref:vcgi:esiteid" v="112501" />
  </node>
  <node id="-152" visible="true" lat="43.8693199" lon="-73.0087043">
    <tag k="addr:city" v="Goshen" />
    <tag k="addr:housenumber" v="1000" />
    <tag k="addr:street" v="Flora White Road" />
    <tag k="addr:state" v="VT" />
    <tag k="ref:vcgi:esiteid" v="112502" />
  </node>
  <node id="-153" visible="true" lat="43.86939239" lon="-73.01022338">
    <tag k="addr:city" v="Goshen" />
    <tag k="addr:housenumber" v="1515" />
    <tag k="addr:street" v="Carlisle Hill Road" />
    <tag k="addr:state" v="VT" />
    <tag k="ref:vcgi:esiteid" v="112503" />
  </node>
  <node id="-154" visible="true" lat="43.86819496" lon="-73.01569001">
    <tag k="addr:city" v="Goshen" />
    <tag k="addr:housenumber" v="1492" />
    <tag k="addr:street" v="Carlisle Hill Road" />
    <tag k="addr:state" v="VT" />
    <tag k="ref:vcgi:esiteid" v="112504" />
  </node>
  <node id="-155" visible="true" lat="43.86794034" lon="-73.01518413">
    <tag k="addr:city" v="Goshen" />
    <tag k="addr:housenumber" v="1479" />
    <tag k="addr:street" v="Carlisle Hill Road" />
    <tag k="addr:state" v="VT" />
    <tag k="ref:vcgi:esiteid" v="112505" />
  </node>
  <node id="-156" visible="true" lat="43.86732482" lon="-73.0076065">
    <tag k="addr:city" v="Goshen" />
    <tag k="addr:housenumber" v="788" />
    <tag k="addr:street" v="Flora White Road" />
    <tag k="addr:state" v="VT" />
    <tag k="ref:vcgi:esiteid" v="112506" />
  </node>
  <node id="-157" visible="true" lat="43.86732066" lon="-73.004619">
    <tag k="addr:city" v="Goshen" />
    <tag k="addr:housenumber" v="841" />
    <tag k="addr:street" v="Flora White Road" />
    <tag k="addr:state" v="VT" />
    <tag k="ref:vcgi:esiteid" v="112507" />
  </node>
  <node id="-158" visible="true" lat="43.8659172" lon="-73.00917816">
    <tag k="addr:city" v="Goshen" />
    <tag k="addr:housenumber" v="718" />
    <tag k="addr:street" v="Flora White Road" />
    <tag k="addr:state" v="VT" />
    <tag k="ref:vcgi:esiteid" v="112508" />
  </node>
  <node id="-159" visible="true" lat="43.86494445" lon="-73.00491333">
    <tag k="addr:city" v="Goshen" />
    <tag k="addr:housenumber" v="737" />
    <tag k="addr:street" v="Flora White Road" />
    <tag k="addr:state" v="VT" />
    <tag k="ref:vcgi:esiteid" v="112509" />
  </node>
  <node id="-160" visible="true" lat="43.86419017" lon="-73.00725394">
    <tag k="addr:city" v="Goshen" />
    <tag k="addr:housenumber" v="605" />
    <tag k="addr:street" v="Flora White Road" />
    <tag k="addr:state" v="VT" />
    <tag k="ref:vcgi:esiteid" v="112510" />
  </node>
  <node id="-161" visible="true" lat="43.86471827" lon="-73.00816331">
    <tag k="addr:city" v="Goshen" />
    <tag k="addr:housenumber" v="650" />
    <tag k="addr:street" v="Flora White Road" />
    <tag k="addr:state" v="VT" />
    <tag k="ref:vcgi:esiteid" v="112511" />
  </node>
  <node id="-162" visible="true" lat="43.86302171" lon="-73.00702546">
    <tag k="addr:city" v="Goshen" />
    <tag k="addr:housenumber" v="535" />
    <tag k="addr:street" v="Flora White Road" />
    <tag k="addr:state" v="VT" />
    <tag k="ref:vcgi:esiteid" v="112512" />
  </node>
  <node id="-163" visible="true" lat="43.86251461" lon="-73.00668155">
    <tag k="addr:city" v="Goshen" />
    <tag k="addr:housenumber" v="513" />
    <tag k="addr:street" v="Flora White Road" />
    <tag k="addr:state" v="VT" />
    <tag k="ref:vcgi:esiteid" v="112513" />
  </node>
  <node id="-164" visible="true" lat="43.86178207" lon="-73.01528167">
    <tag k="addr:city" v="Goshen" />
    <tag k="addr:housenumber" v="989" />
    <tag k="addr:street" v="Carlisle Hill Road" />
    <tag k="addr:state" v="VT" />
    <tag k="ref:vcgi:esiteid" v="112514" />
  </node>
  <node id="-165" visible="true" lat="43.86159105" lon="-73.00600788">
    <tag k="addr:city" v="Goshen" />
    <tag k="addr:housenumber" v="441" />
    <tag k="addr:street" v="Flora White Road" />
    <tag k="addr:state" v="VT" />
    <tag k="ref:vcgi:esiteid" v="112515" />
  </node>
  <node id="-166" visible="true" lat="43.86145402" lon="-72.99287059">
    <tag k="addr:city" v="Goshen" />
    <tag k="addr:housenumber" v="533" />
    <tag k="addr:street" v="White Rocks Road" />
    <tag k="addr:state" v="VT" />
    <tag k="ref:vcgi:esiteid" v="112516" />
  </node>
  <node id="-167" visible="true" lat="43.85840988" lon="-72.99485015">
    <tag k="addr:city" v="Goshen" />
    <tag k="addr:housenumber" v="385" />
    <tag k="addr:street" v="White Rocks Road" />
    <tag k="addr:state" v="VT" />
    <tag k="ref:vcgi:esiteid" v="112517" />
  </node>
  <node id="-168" visible="true" lat="43.85794419" lon="-73.00013685">
    <tag k="addr:city" v="Goshen" />
    <tag k="addr:housenumber" v="935" />
    <tag k="addr:street" v="Hathaway Road" />
    <tag k="addr:state" v="VT" />
    <tag k="ref:vcgi:esiteid" v="112518" />
  </node>
  <node id="-169" visible="true" lat="43.85698144" lon="-72.99722366">
    <tag k="addr:city" v="Goshen" />
    <tag k="addr:housenumber" v="199" />
    <tag k="addr:street" v="White Rocks Road" />
    <tag k="addr:state" v="VT" />
    <tag k="ref:vcgi:esiteid" v="112519" />
  </node>
  <node id="-170" visible="true" lat="43.85705218" lon="-72.99842869">
    <tag k="addr:city" v="Goshen" />
    <tag k="addr:housenumber" v="154" />
    <tag k="addr:street" v="White Rocks Road" />
    <tag k="addr:state" v="VT" />
    <tag k="ref:vcgi:esiteid" v="112520" />
  </node>
  <node id="-171" visible="true" lat="43.85637414" lon="-72.99779828">
    <tag k="addr:city" v="Goshen" />
    <tag k="addr:housenumber" v="143" />
    <tag k="addr:street" v="White Rocks Road" />
    <tag k="addr:state" v="VT" />
    <tag k="ref:vcgi:esiteid" v="112521" />
  </node>
  <node id="-172" visible="true" lat="43.85597747" lon="-72.99605879">
    <tag k="addr:city" v="Goshen" />
    <tag k="addr:housenumber" v="103" />
    <tag k="addr:street" v="White Rocks Road" />
    <tag k="addr:state" v="VT" />
    <tag k="ref:vcgi:esiteid" v="112522" />
  </node>
  <node id="-173" visible="true" lat="43.85568237" lon="-73.00902557">
    <tag k="addr:city" v="Goshen" />
    <tag k="addr:housenumber" v="1383" />
    <tag k="addr:street" v="Hathaway Road" />
    <tag k="addr:state" v="VT" />
    <tag k="ref:vcgi:esiteid" v="112523" />
  </node>
  <node id="-174" visible="true" lat="43.85547614" lon="-72.99808409">
    <tag k="addr:city" v="Goshen" />
    <tag k="addr:housenumber" v="97" />
    <tag k="addr:street" v="White Rocks Road" />
    <tag k="addr:state" v="VT" />
    <tag k="ref:vcgi:esiteid" v="112524" />
  </node>
  <node id="-175" visible="true" lat="43.85617155" lon="-73.01124887">
    <tag k="addr:city" v="Goshen" />
    <tag k="addr:housenumber" v="680" />
    <tag k="addr:street" v="Capen Hill Road" />
    <tag k="addr:state" v="VT" />
    <tag k="ref:vcgi:esiteid" v="112525" />
  </node>
  <node id="-176" visible="true" lat="43.85527138" lon="-72.99924574">
    <tag k="addr:city" v="Goshen" />
    <tag k="addr:housenumber" v="877" />
    <tag k="addr:street" v="Hathaway Road" />
    <tag k="addr:state" v="VT" />
    <tag k="ref:vcgi:esiteid" v="112526" />
  </node>
  <node id="-177" visible="true" lat="43.85485019" lon="-73.0121659">
    <tag k="addr:city" v="Goshen" />
    <tag k="addr:housenumber" v="674" />
    <tag k="addr:street" v="Capen Hill Road" />
    <tag k="addr:state" v="VT" />
    <tag k="ref:vcgi:esiteid" v="112527" />
  </node>
  <node id="-178" visible="true" lat="43.85441589" lon="-73.01854705">
    <tag k="addr:city" v="Goshen" />
    <tag k="addr:housenumber" v="429" />
    <tag k="addr:street" v="Carlisle Hill Road" />
    <tag k="addr:state" v="VT" />
    <tag k="ref:vcgi:esiteid" v="112528" />
  </node>
  <node id="-179" visible="true" lat="43.85345645" lon="-72.998933">
    <tag k="addr:city" v="Goshen" />
    <tag k="addr:housenumber" v="788" />
    <tag k="addr:street" v="Hathaway Road" />
    <tag k="addr:state" v="VT" />
    <tag k="ref:vcgi:esiteid" v="112529" />
  </node>
  <node id="-180" visible="true" lat="43.85357821" lon="-72.99839431">
    <tag k="addr:city" v="Goshen" />
    <tag k="addr:housenumber" v="781" />
    <tag k="addr:street" v="Hathaway Road" />
    <tag k="addr:state" v="VT" />
    <tag k="ref:vcgi:esiteid" v="112530" />
  </node>
  <node id="-181" visible="true" lat="43.85721671" lon="-73.02895447">
    <tag k="addr:city" v="Goshen" />
    <tag k="addr:housenumber" v="417" />
    <tag k="addr:street" v="Fay Road" />
    <tag k="addr:state" v="VT" />
    <tag k="ref:vcgi:esiteid" v="112531" />
  </node>
  <node id="-182" visible="true" lat="43.85247802" lon="-73.0209732">
    <tag k="addr:city" v="Goshen" />
    <tag k="addr:housenumber" v="256" />
    <tag k="addr:street" v="Carlisle Hill Road" />
    <tag k="addr:state" v="VT" />
    <tag k="ref:vcgi:esiteid" v="112532" />
  </node>
  <node id="-183" visible="true" lat="43.85200881" lon="-72.99650573">
    <tag k="addr:city" v="Goshen" />
    <tag k="addr:housenumber" v="681" />
    <tag k="addr:street" v="Hathaway Road" />
    <tag k="addr:state" v="VT" />
    <tag k="ref:vcgi:esiteid" v="112533" />
  </node>
  <node id="-184" visible="true" lat="43.85190963" lon="-73.01721191">
    <tag k="addr:city" v="Goshen" />
    <tag k="addr:housenumber" v="346" />
    <tag k="addr:street" v="Capen Hill Road" />
    <tag k="addr:state" v="VT" />
    <tag k="ref:vcgi:esiteid" v="112534" />
  </node>
  <node id="-185" visible="true" lat="43.85143328" lon="-73.01829626">
    <tag k="addr:city" v="Goshen" />
    <tag k="addr:housenumber" v="270" />
    <tag k="addr:street" v="Capen Hill Road" />
    <tag k="addr:state" v="VT" />
    <tag k="ref:vcgi:esiteid" v="112535" />
  </node>
  <node id="-186" visible="true" lat="43.85130968" lon="-73.01890111">
    <tag k="addr:city" v="Goshen" />
    <tag k="addr:housenumber" v="258" />
    <tag k="addr:street" v="Capen Hill Road" />
    <tag k="addr:state" v="VT" />
    <tag k="ref:vcgi:esiteid" v="112536" />
  </node>
  <node id="-187" visible="true" lat="43.85097122" lon="-72.99038696">
    <tag k="addr:city" v="Goshen" />
    <tag k="addr:housenumber" v="350" />
    <tag k="addr:street" v="Cape Lookoff Road" />
    <tag k="addr:state" v="VT" />
    <tag k="ref:vcgi:esiteid" v="112537" />
  </node>
  <node id="-188" visible="true" lat="43.85048675" lon="-73.02246856">
    <tag k="addr:city" v="Goshen" />
    <tag k="addr:housenumber" v="106" />
    <tag k="addr:street" v="Carlisle Hill Road" />
    <tag k="addr:state" v="VT" />
    <tag k="ref:vcgi:esiteid" v="112538" />
  </node>
  <node id="-189" visible="true" lat="43.85055101" lon="-73.02166534">
    <tag k="addr:city" v="Goshen" />
    <tag k="addr:housenumber" v="198" />
    <tag k="addr:street" v="Capen Hill Road" />
    <tag k="addr:state" v="VT" />
    <tag k="ref:vcgi:esiteid" v="112539" />
  </node>
  <node id="-190" visible="true" lat="43.8503952" lon="-73.02307891">
    <tag k="addr:city" v="Goshen" />
    <tag k="addr:housenumber" v="98" />
    <tag k="addr:street" v="Carlisle Hill Road" />
    <tag k="addr:state" v="VT" />
    <tag k="ref:vcgi:esiteid" v="112540" />
  </node>
  <node id="-191" visible="true" lat="43.85027244" lon="-73.01974548">
    <tag k="addr:city" v="Goshen" />
    <tag k="addr:housenumber" v="111" />
    <tag k="addr:street" v="Cemetery Hill Road" />
    <tag k="addr:state" v="VT" />
    <tag k="ref:vcgi:esiteid" v="112541" />
  </node>
  <node id="-192" visible="true" lat="43.84971979" lon="-73.0225585">
    <tag k="addr:city" v="Goshen" />
    <tag k="addr:housenumber" v="50" />
    <tag k="addr:street" v="Carlisle Hill Road" />
    <tag k="addr:state" v="VT" />
    <tag k="ref:vcgi:esiteid" v="112542" />
  </node>
  <node id="-193" visible="true" lat="43.84966278" lon="-73.02503204">
    <tag k="addr:city" v="Goshen" />
    <tag k="addr:housenumber" v="113" />
    <tag k="addr:street" v="Fay Road" />
    <tag k="addr:state" v="VT" />
    <tag k="ref:vcgi:esiteid" v="112543" />
  </node>
  <node id="-194" visible="true" lat="43.84944008" lon="-73.02289824">
    <tag k="addr:city" v="Goshen" />
    <tag k="addr:housenumber" v="34" />
    <tag k="addr:street" v="Carlisle Hill Road" />
    <tag k="addr:state" v="VT" />
    <tag k="ref:vcgi:esiteid" v="112544" />
  </node>
  <node id="-195" visible="true" lat="43.8491775" lon="-73.0218868">
    <tag k="addr:city" v="Goshen" />
    <tag k="addr:housenumber" v="5" />
    <tag k="addr:street" v="Cemetery Hill Road" />
    <tag k="addr:state" v="VT" />
    <tag k="ref:vcgi:esiteid" v="112545" />
  </node>
  <node id="-196" visible="true" lat="43.84899599" lon="-73.02118809">
    <tag k="addr:city" v="Goshen" />
    <tag k="addr:housenumber" v="41" />
    <tag k="addr:street" v="Cemetery Hill Road" />
    <tag k="addr:state" v="VT" />
    <tag k="ref:vcgi:esiteid" v="112546" />
  </node>
  <node id="-197" visible="true" lat="43.84923366" lon="-72.99795666">
    <tag k="addr:city" v="Goshen" />
    <tag k="addr:housenumber" v="486" />
    <tag k="addr:street" v="Hathaway Road" />
    <tag k="addr:state" v="VT" />
    <tag k="ref:vcgi:esiteid" v="112547" />
  </node>
  <node id="-198" visible="true" lat="43.84905592" lon="-73.02346272">
    <tag k="addr:city" v="Goshen" />
    <tag k="addr:housenumber" v="53" />
    <tag k="addr:street" v="Fay Road" />
    <tag k="addr:state" v="VT" />
    <tag k="ref:vcgi:esiteid" v="112548" />
  </node>
  <node id="-199" visible="true" lat="43.84889654" lon="-73.0221138">
    <tag k="addr:city" v="Goshen" />
    <tag k="addr:housenumber" v="637" />
    <tag k="addr:street" v="Town Hill Road" />
    <tag k="addr:state" v="VT" />
    <tag k="ref:vcgi:esiteid" v="112549" />
  </node>
  <node id="-200" visible="true" lat="43.84846224" lon="-72.99676761">
    <tag k="addr:city" v="Goshen" />
    <tag k="addr:housenumber" v="421" />
    <tag k="addr:street" v="Hathaway Road" />
    <tag k="addr:state" v="VT" />
    <tag k="ref:vcgi:esiteid" v="112550" />
  </node>
  <node id="-201" visible="true" lat="43.84826678" lon="-72.99263388">
    <tag k="addr:city" v="Goshen" />
    <tag k="addr:housenumber" v="205" />
    <tag k="addr:street" v="Cape Lookoff Road" />
    <tag k="addr:state" v="VT" />
    <tag k="ref:vcgi:esiteid" v="112551" />
  </node>
  <node id="-202" visible="true" lat="43.84750952" lon="-73.02694555">
    <tag k="addr:city" v="Goshen" />
    <tag k="addr:housenumber" v="267" />
    <tag k="addr:street" v="Fay Road" />
    <tag k="addr:state" v="VT" />
    <tag k="ref:vcgi:esiteid" v="112552" />
  </node>
  <node id="-203" visible="true" lat="43.8477347" lon="-73.02320684">
    <tag k="addr:city" v="Goshen" />
    <tag k="addr:housenumber" v="639" />
    <tag k="addr:street" v="Town Hill Road" />
    <tag k="addr:state" v="VT" />
    <tag k="ref:vcgi:esiteid" v="112553" />
  </node>
  <node id="-204" visible="true" lat="43.84689331" lon="-73.02694702">
    <tag k="addr:city" v="Goshen" />
    <tag k="addr:housenumber" v="178" />
    <tag k="addr:street" v="Fay Road" />
    <tag k="addr:state" v="VT" />
    <tag k="ref:vcgi:esiteid" v="112554" />
  </node>
  <node id="-205" visible="true" lat="43.84652947" lon="-73.02837586">
    <tag k="addr:city" v="Goshen" />
    <tag k="addr:housenumber" v="354" />
    <tag k="addr:street" v="Fay Road" />
    <tag k="addr:state" v="VT" />
    <tag k="ref:vcgi:esiteid" v="112555" />
  </node>
  <node id="-206" visible="true" lat="43.84597811" lon="-73.02941217">
    <tag k="addr:city" v="Goshen" />
    <tag k="addr:housenumber" v="421" />
    <tag k="addr:street" v="Fay Road" />
    <tag k="addr:state" v="VT" />
    <tag k="ref:vcgi:esiteid" v="112556" />
  </node>
  <node id="-207" visible="true" lat="43.84645285" lon="-72.99606389">
    <tag k="addr:city" v="Goshen" />
    <tag k="addr:housenumber" v="277" />
    <tag k="addr:street" v="Hathaway Road" />
    <tag k="addr:state" v="VT" />
    <tag k="ref:vcgi:esiteid" v="112557" />
  </node>
  <node id="-208" visible="true" lat="43.84554002" lon="-72.99376715">
    <tag k="addr:city" v="Goshen" />
    <tag k="addr:housenumber" v="197" />
    <tag k="addr:street" v="Hathaway Road" />
    <tag k="addr:state" v="VT" />
    <tag k="ref:vcgi:esiteid" v="112558" />
  </node>
  <node id="-209" visible="true" lat="43.84482646" lon="-73.02885745">
    <tag k="addr:city" v="Goshen" />
    <tag k="addr:housenumber" v="212" />
    <tag k="addr:street" v="Town Hill Road" />
    <tag k="addr:state" v="VT" />
    <tag k="ref:vcgi:esiteid" v="112559" />
  </node>
  <node id="-210" visible="true" lat="43.84458923" lon="-72.982872">
    <tag k="addr:city" v="Goshen" />
    <tag k="addr:housenumber" v="2498" />
    <tag k="addr:street" v="Gap Road" />
    <tag k="addr:state" v="VT" />
    <tag k="ref:vcgi:esiteid" v="112560" />
  </node>
  <node id="-211" visible="true" lat="43.8443001" lon="-72.98571109">
    <tag k="addr:city" v="Goshen" />
    <tag k="addr:housenumber" v="2308" />
    <tag k="addr:street" v="Gap Road" />
    <tag k="addr:state" v="VT" />
    <tag k="ref:vcgi:esiteid" v="112561" />
  </node>
  <node id="-212" visible="true" lat="43.84403476" lon="-73.00287466">
    <tag k="addr:city" v="Goshen" />
    <tag k="addr:housenumber" v="1242" />
    <tag k="addr:street" v="Gap Road" />
    <tag k="addr:state" v="VT" />
    <tag k="ref:vcgi:esiteid" v="112562" />
  </node>
  <node id="-213" visible="true" lat="43.84362051" lon="-72.99543007">
    <tag k="addr:city" v="Goshen" />
    <tag k="addr:housenumber" v="85" />
    <tag k="addr:street" v="Hathaway Road" />
    <tag k="addr:state" v="VT" />
    <tag k="ref:vcgi:esiteid" v="112563" />
  </node>
  <node id="-214" visible="true" lat="43.84284038" lon="-72.98547125">
    <tag k="addr:city" v="Goshen" />
    <tag k="addr:housenumber" v="2207" />
    <tag k="addr:street" v="Gap Road" />
    <tag k="addr:state" v="VT" />
    <tag k="ref:vcgi:esiteid" v="112564" />
  </node>
  <node id="-215" visible="true" lat="43.84300994" lon="-73.00228881">
    <tag k="addr:city" v="Goshen" />
    <tag k="addr:housenumber" v="1408" />
    <tag k="addr:street" v="Gap Road" />
    <tag k="addr:state" v="VT" />
    <tag k="ref:vcgi:esiteid" v="112565" />
  </node>
  <node id="-216" visible="true" lat="43.84231497" lon="-73.00654608">
    <tag k="addr:city" v="Goshen" />
    <tag k="addr:housenumber" v="1216" />
    <tag k="addr:street" v="Gap Road" />
    <tag k="addr:state" v="VT" />
    <tag k="ref:vcgi:esiteid" v="112566" />
  </node>
  <node id="-217" visible="true" lat="43.8422864" lon="-73.02729992">
    <tag k="addr:city" v="Goshen" />
    <tag k="addr:housenumber" v="126" />
    <tag k="addr:street" v="Gap Road" />
    <tag k="addr:state" v="VT" />
    <tag k="ref:vcgi:esiteid" v="112567" />
  </node>
  <node id="-218" visible="true" lat="43.84212014" lon="-73.02929346">
    <tag k="addr:city" v="Goshen" />
    <tag k="addr:housenumber" v="19" />
    <tag k="addr:street" v="Town Hill Road" />
    <tag k="addr:state" v="VT" />
    <tag k="ref:vcgi:esiteid" v="112568" />
  </node>
  <node id="-219" visible="true" lat="43.84206995" lon="-73.00523376">
    <tag k="addr:city" v="Goshen" />
    <tag k="addr:housenumber" v="1217" />
    <tag k="addr:street" v="Gap Road" />
    <tag k="addr:state" v="VT" />
    <tag k="ref:vcgi:esiteid" v="112569" />
  </node>
  <node id="-220" visible="true" lat="43.84193304" lon="-73.03031475">
    <tag k="addr:city" v="Goshen" />
    <tag k="addr:housenumber" v="24" />
    <tag k="addr:street" v="Gap Road" />
    <tag k="addr:state" v="VT" />
    <tag k="ref:vcgi:esiteid" v="112570" />
  </node>
  <node id="-221" visible="true" lat="43.84069102" lon="-72.99545664">
    <tag k="addr:city" v="Goshen" />
    <tag k="addr:housenumber" v="132" />
    <tag k="addr:street" v="South Hill Road" />
    <tag k="addr:state" v="VT" />
    <tag k="ref:vcgi:esiteid" v="112571" />
  </node>
  <node id="-222" visible="true" lat="43.83962116" lon="-72.968808">
    <tag k="addr:city" v="Goshen" />
    <tag k="addr:housenumber" v="3255" />
    <tag k="addr:street" v="Gap Road" />
    <tag k="addr:state" v="VT" />
    <tag k="ref:vcgi:esiteid" v="112572" />
  </node>
  <node id="-223" visible="true" lat="43.83969945" lon="-72.99625165">
    <tag k="addr:city" v="Goshen" />
    <tag k="addr:housenumber" v="185" />
    <tag k="addr:street" v="South Hill Road" />
    <tag k="addr:state" v="VT" />
    <tag k="ref:vcgi:esiteid" v="112573" />
  </node>
  <node id="-224" visible="true" lat="43.8391644" lon="-72.99599421">
    <tag k="addr:city" v="Goshen" />
    <tag k="addr:housenumber" v="198" />
    <tag k="addr:street" v="South Hill Road" />
    <tag k="addr:state" v="VT" />
    <tag k="ref:vcgi:esiteid" v="112574" />
  </node>
  <node id="-225" visible="true" lat="43.83484437" lon="-72.99685059">
    <tag k="addr:city" v="Goshen" />
    <tag k="addr:housenumber" v="502" />
    <tag k="addr:street" v="South Hill Road" />
    <tag k="addr:state" v="VT" />
    <tag k="ref:vcgi:esiteid" v="112575" />
  </node>
  <node id="-226" visible="true" lat="43.88132369" lon="-73.0365235">
    <tag k="addr:city" v="Goshen" />
    <tag k="addr:housenumber" v="1272" />
    <tag k="addr:street" v="Silver Lake Road" />
    <tag k="addr:state" v="VT" />
    <tag k="ref:vcgi:esiteid" v="112578" />
  </node>
  <node id="-227" visible="true" lat="43.87529" lon="-73.02987316">
    <tag k="addr:city" v="Goshen" />
    <tag k="addr:housenumber" v="166" />
    <tag k="addr:street" v="Hayes Road" />
    <tag k="addr:state" v="VT" />
    <tag k="ref:vcgi:esiteid" v="112579" />
  </node>
  <node id="-228" visible="true" lat="43.83874622" lon="-72.98909334">
    <tag k="addr:city" v="Goshen" />
    <tag k="addr:housenumber" v="2019" />
    <tag k="addr:street" v="Gap Road" />
    <tag k="addr:state" v="VT" />
    <tag k="ref:vcgi:esiteid" v="112580" />
  </node>
  <node id="-229" visible="true" lat="43.84983956" lon="-73.0238588">
    <tag k="addr:city" v="Goshen" />
    <tag k="addr:housenumber" v="25" />
    <tag k="addr:street" v="Fay Road" />
    <tag k="addr:state" v="VT" />
    <tag k="ref:vcgi:esiteid" v="331760" />
  </node>
  <node id="-230" visible="true" lat="43.8499958" lon="-73.02115912">
    <tag k="addr:city" v="Goshen" />
    <tag k="addr:housenumber" v="54" />
    <tag k="addr:street" v="Cemetery Hill Road" />
    <tag k="addr:state" v="VT" />
    <tag k="ref:vcgi:esiteid" v="332788" />
  </node>
  <node id="-231" visible="true" lat="43.85290824" lon="-73.01746833">
    <tag k="addr:city" v="Goshen" />
    <tag k="addr:housenumber" v="354" />
    <tag k="addr:street" v="Capen Hill Road" />
    <tag k="addr:state" v="VT" />
    <tag k="ref:vcgi:esiteid" v="332789" />
  </node>
  <node id="-232" visible="true" lat="43.86282846" lon="-73.00882431">
    <tag k="addr:city" v="Goshen" />
    <tag k="addr:housenumber" v="496" />
    <tag k="addr:street" v="Flora White Road" />
    <tag k="addr:state" v="VT" />
    <tag k="ref:vcgi:esiteid" v="332790" />
  </node>
  <node id="-233" visible="true" lat="43.89436213" lon="-73.01179485">
    <tag k="addr:city" v="Goshen" />
    <tag k="addr:housenumber" v="1589" />
    <tag k="addr:street" v="Goshen Ripton Road" />
    <tag k="addr:state" v="VT" />
    <tag k="ref:vcgi:esiteid" v="332791" />
  </node>
  <node id="-234" visible="true" lat="43.8999888" lon="-73.008689">
    <tag k="addr:city" v="Goshen" />
    <tag k="addr:housenumber" v="340" />
    <tag k="addr:street" v="Broken Wire Drive" />
    <tag k="addr:state" v="VT" />
    <tag k="ref:vcgi:esiteid" v="332792" />
  </node>
  <node id="-235" visible="true" lat="43.8694559" lon="-73.01866616">
    <tag k="addr:city" v="Goshen" />
    <tag k="addr:housenumber" v="1586" />
    <tag k="addr:street" v="Carlisle Hill Road" />
    <tag k="addr:state" v="VT" />
    <tag k="ref:vcgi:esiteid" v="333865" />
  </node>
  <node id="-236" visible="true" lat="43.87178437" lon="-73.0162549">
    <tag k="addr:city" v="Goshen" />
    <tag k="addr:housenumber" v="52" />
    <tag k="addr:street" v="Silver Lake Road" />
    <tag k="addr:state" v="VT" />
    <tag k="ref:vcgi:esiteid" v="342189" />
  </node>
  <node id="-237" visible="true" lat="43.89361755" lon="-73.01211265">
    <tag k="addr:city" v="Goshen" />
    <tag k="addr:housenumber" v="1520" />
    <tag k="addr:street" v="Goshen Ripton Road" />
    <tag k="addr:state" v="VT" />
    <tag k="ref:vcgi:esiteid" v="344039" />
  </node>
  <node id="-238" visible="true" lat="43.85190894" lon="-72.99639596">
    <tag k="addr:city" v="Goshen" />
    <tag k="addr:housenumber" v="679" />
    <tag k="addr:street" v="Hathaway Road" />
    <tag k="addr:state" v="VT" />
    <tag k="ref:vcgi:esiteid" v="344040" />
  </node>
  <node id="-239" visible="true" lat="43.87423794" lon="-73.02384196">
    <tag k="addr:city" v="Goshen" />
    <tag k="addr:housenumber" v="475" />
    <tag k="addr:street" v="Silver Lake Road" />
    <tag k="addr:state" v="VT" />
    <tag k="ref:vcgi:esiteid" v="344042" />
  </node>
  <node id="-240" visible="true" lat="43.90025773" lon="-73.01514092">
    <tag k="addr:city" v="Goshen" />
    <tag k="addr:housenumber" v="2013" />
    <tag k="addr:street" v="Goshen Ripton Road" />
    <tag k="addr:state" v="VT" />
    <tag k="ref:vcgi:esiteid" v="447126" />
  </node>
  <node id="-241" visible="true" lat="43.89318719" lon="-73.01141101">
    <tag k="addr:city" v="Goshen" />
    <tag k="addr:housenumber" v="1507" />
    <tag k="addr:street" v="Goshen Ripton Road" />
    <tag k="addr:state" v="VT" />
    <tag k="ref:vcgi:esiteid" v="449532" />
  </node>
  <node id="-242" visible="true" lat="43.91439139" lon="-73.00398293">
    <tag k="addr:city" v="Goshen" />
    <tag k="addr:housenumber" v="977" />
    <tag k="addr:street" v="Goshen Dam Road" />
    <tag k="addr:state" v="VT" />
    <tag k="ref:vcgi:esiteid" v="450361" />
  </node>
  <node id="-243" visible="true" lat="43.8730762" lon="-72.99857179">
    <tag k="addr:city" v="Goshen" />
    <tag k="addr:housenumber" v="890" />
    <tag k="addr:street" v="National Forest Road 224" />
    <tag k="addr:state" v="VT" />
    <tag k="ref:vcgi:esiteid" v="450365" />
  </node>
  <node id="-244" visible="true" lat="43.83968665" lon="-72.96693525">
    <tag k="addr:city" v="Goshen" />
    <tag k="addr:housenumber" v="3357" />
    <tag k="addr:street" v="Gap Road" />
    <tag k="addr:state" v="VT" />
    <tag k="ref:vcgi:esiteid" v="450367" />
  </node>
  <node id="-245" visible="true" lat="43.82317106" lon="-73.00018489">
    <tag k="addr:city" v="Goshen" />
    <tag k="addr:housenumber" v="1295" />
    <tag k="addr:street" v="South Hill Road" />
    <tag k="addr:state" v="VT" />
    <tag k="ref:vcgi:esiteid" v="450958" />
  </node>
  <node id="-246" visible="true" lat="43.84628812" lon="-73.00477691">
    <tag k="addr:city" v="Goshen" />
    <tag k="addr:housenumber" v="1218" />
    <tag k="addr:street" v="Gap Road" />
    <tag k="addr:state" v="VT" />
    <tag k="ref:vcgi:esiteid" v="451427" />
  </node>
  <node id="-247" visible="true" lat="43.90078839" lon="-73.0138466">
    <tag k="addr:city" v="Goshen" />
    <tag k="addr:housenumber" v="2031" />
    <tag k="addr:street" v="Goshen Ripton Road" />
    <tag k="addr:state" v="VT" />
    <tag k="ref:vcgi:esiteid" v="452785" />
  </node>
  <node id="-248" visible="true" lat="43.89981991" lon="-73.01425878">
    <tag k="addr:city" v="Goshen" />
    <tag k="addr:housenumber" v="25" />
    <tag k="addr:street" v="Broken Wire Drive" />
    <tag k="addr:state" v="VT" />
    <tag k="ref:vcgi:esiteid" v="611147" />
  </node>
  <node id="-249" visible="true" lat="43.82771675" lon="-73.00403401">
    <tag k="addr:city" v="Goshen" />
    <tag k="addr:housenumber" v="1011" />
    <tag k="addr:street" v="South Hill Road" />
    <tag k="addr:state" v="VT" />
    <tag k="ref:vcgi:esiteid" v="611486" />
  </node>
  <node id="-250" visible="true" lat="43.83198593" lon="-72.99788468">
    <tag k="addr:city" v="Goshen" />
    <tag k="addr:housenumber" v="735" />
    <tag k="addr:street" v="South Hill Road" />
    <tag k="addr:state" v="VT" />
    <tag k="ref:vcgi:esiteid" v="612048" />
  </node>
  <node id="-251" visible="true" lat="43.8639164" lon="-72.99201717">
    <tag k="addr:city" v="Goshen" />
    <tag k="addr:housenumber" v="600" />
    <tag k="addr:street" v="White Rocks Road" />
    <tag k="addr:state" v="VT" />
    <tag k="ref:vcgi:esiteid" v="618059" />
  </node>
  <node id="-252" visible="true" lat="43.84991152" lon="-72.99237358">
    <tag k="addr:city" v="Goshen" />
    <tag k="addr:housenumber" v="300" />
    <tag k="addr:street" v="Cape Lookoff Road" />
    <tag k="addr:state" v="VT" />
    <tag k="ref:vcgi:esiteid" v="618409" />
  </node>
  <node id="-253" visible="true" lat="43.84264865" lon="-73.0071826">
    <tag k="addr:city" v="Goshen" />
    <tag k="addr:housenumber" v="1214" />
    <tag k="addr:street" v="Gap Road" />
    <tag k="addr:state" v="VT" />
    <tag k="ref:vcgi:esiteid" v="618411" />
  </node>
  <node id="-256" visible="true" lat="43.8442216" lon="-73.03160778">
    <tag k="addr:city" v="Goshen" />
    <tag k="addr:housenumber" v="186" />
    <tag k="addr:street" v="Fay Road" />
    <tag k="addr:state" v="VT" />
    <tag k="ref:vcgi:esiteid" v="655447" />
  </node>
  <node id="-257" visible="true" lat="43.90107485" lon="-73.03099293">
    <tag k="addr:city" v="Goshen" />
    <tag k="addr:housenumber" v="711" />
    <tag k="addr:street" v="Lady Slipper Lane" />
    <tag k="addr:state" v="VT" />
    <tag k="ref:vcgi:esiteid" v="750481" />
  </node>
  <node id="-258" visible="true" lat="43.83423189" lon="-72.99760865">
    <tag k="addr:city" v="Goshen" />
    <tag k="addr:housenumber" v="519" />
    <tag k="addr:street" v="South Hill Road" />
    <tag k="addr:state" v="VT" />
    <tag k="ref:vcgi:esiteid" v="751432" />
  </node>
  <node id="-259" visible="true" lat="43.90211956" lon="-73.02205515">
    <tag k="addr:city" v="Goshen" />
    <tag k="addr:housenumber" v="285" />
    <tag k="addr:street" v="Lady Slipper Lane" />
    <tag k="addr:state" v="VT" />
    <tag k="ref:vcgi:esiteid" v="752730" />
  </node>
  <node id="-261" visible="true" lat="43.89792114" lon="-73.00850835">
    <tag k="addr:city" v="Goshen" />
    <tag k="addr:housenumber" v="1861" />
    <tag k="addr:street" v="Goshen Ripton Road" />
    <tag k="addr:state" v="VT" />
    <tag k="ref:vcgi:esiteid" v="762936" />
  </node>
  <node id="-262" visible="true" lat="43.87582663" lon="-73.0118183">
    <tag k="addr:city" v="Goshen" />
    <tag k="addr:housenumber" v="303" />
    <tag k="addr:street" v="Goshen Ripton Road" />
    <tag k="addr:state" v="VT" />
    <tag k="ref:vcgi:esiteid" v="762937" />
  </node>
  <node id="-263" visible="true" lat="43.85614904" lon="-73.00284167">
    <tag k="addr:city" v="Goshen" />
    <tag k="addr:housenumber" v="1061" />
    <tag k="addr:street" v="Hathaway Road" />
    <tag k="addr:state" v="VT" />
    <tag k="ref:vcgi:esiteid" v="764566" />
  </node>
  <node id="-264" visible="true" lat="43.85621566" lon="-73.00178109">
    <tag k="addr:city" v="Goshen" />
    <tag k="addr:housenumber" v="1041" />
    <tag k="addr:street" v="Hathaway Road" />
    <tag k="addr:state" v="VT" />
    <tag k="ref:vcgi:esiteid" v="764567" />
  </node>
  <node id="-265" visible="true" lat="43.85354018" lon="-73.01476208">
    <tag k="addr:city" v="Goshen" />
    <tag k="addr:housenumber" v="518" />
    <tag k="addr:street" v="Capen Hill Road" />
    <tag k="addr:state" v="VT" />
    <tag k="ref:vcgi:esiteid" v="764576" />
  </node>
  <node id="-266" visible="true" lat="43.8731767" lon="-73.02194021">
    <tag k="addr:city" v="Goshen" />
    <tag k="addr:housenumber" v="334" />
    <tag k="addr:street" v="Silver Lake Road" />
    <tag k="addr:state" v="VT" />
    <tag k="ref:vcgi:esiteid" v="764579" />
  </node>
  <node id="-267" visible="true" lat="43.88853946" lon="-73.00836347">
    <tag k="addr:city" v="Goshen" />
    <tag k="addr:housenumber" v="1189" />
    <tag k="addr:street" v="Goshen Ripton Road" />
    <tag k="addr:state" v="VT" />
    <tag k="ref:vcgi:esiteid" v="766271" />
  </node>
  <node id="-268" visible="true" lat="43.84521397" lon="-73.02868731">
    <tag k="addr:city" v="Goshen" />
    <tag k="addr:housenumber" v="214" />
    <tag k="addr:street" v="Town Hill Road" />
    <tag k="addr:state" v="VT" />
    <tag k="ref:vcgi:esiteid" v="768063" />
  </node>
  <node id="-269" visible="true" lat="43.84917507" lon="-72.98986235">
    <tag k="addr:city" v="Goshen" />
    <tag k="addr:housenumber" v="351" />
    <tag k="addr:street" v="Cape Lookoff Road" />
    <tag k="addr:state" v="VT" />
    <tag k="ref:vcgi:esiteid" v="768959" />
  </node>
  <node id="-270" visible="true" lat="43.85585743" lon="-72.99671254">
    <tag k="addr:city" v="Goshen" />
    <tag k="addr:housenumber" v="99" />
    <tag k="addr:street" v="White Rocks Road" />
    <tag k="addr:state" v="VT" />
    <tag k="ref:vcgi:esiteid" v="800123" />
  </node>
  <node id="-271" visible="true" lat="43.8732523" lon="-73.03145636">
    <tag k="addr:city" v="Goshen" />
    <tag k="addr:housenumber" v="319" />
    <tag k="addr:street" v="Hayes Road" />
    <tag k="addr:state" v="VT" />
    <tag k="ref:vcgi:esiteid" v="900344" />
  </node>
  <node id="-272" visible="true" lat="43.84264191" lon="-73.00593486">
    <tag k="addr:city" v="Goshen" />
    <tag k="addr:housenumber" v="1220" />
    <tag k="addr:street" v="Gap Road" />
    <tag k="addr:state" v="VT" />
    <tag k="ref:vcgi:esiteid" v="1050404" />
  </node>
</osm>
