<?xml version="1.0" encoding="UTF-8"?>
<osm version="0.6" generator="JOSM">
  <node id="-100" visible="true" lat="44.57900404" lon="-71.76369676">
    <tag k="addr:city" v="Granby" />
    <tag k="addr:housenumber" v="711" />
    <tag k="addr:street" v="Porrell Road" />
    <tag k="addr:state" v="VT" />
    <tag k="ref:vcgi:esiteid" v="2761" />
  </node>
  <node id="-101" visible="true" lat="44.61671553" lon="-71.78472894">
    <tag k="addr:city" v="Granby" />
    <tag k="addr:housenumber" v="1681" />
    <tag k="addr:street" v="Line Brook Road" />
    <tag k="addr:state" v="VT" />
    <tag k="ref:vcgi:esiteid" v="90762" />
  </node>
  <node id="-102" visible="true" lat="44.59373474" lon="-71.75314331">
    <tag k="addr:city" v="Granby" />
    <tag k="addr:housenumber" v="1841" />
    <tag k="addr:street" v="Porrell Road" />
    <tag k="addr:state" v="VT" />
    <tag k="ref:vcgi:esiteid" v="113311" />
  </node>
  <node id="-103" visible="true" lat="44.5866127" lon="-71.78773498">
    <tag k="addr:city" v="Granby" />
    <tag k="addr:housenumber" v="451" />
    <tag k="addr:street" v="Moccasin Mill" />
    <tag k="addr:state" v="VT" />
    <tag k="ref:vcgi:esiteid" v="113312" />
  </node>
  <node id="-104" visible="true" lat="44.58512878" lon="-71.75108337">
    <tag k="addr:city" v="Granby" />
    <tag k="addr:housenumber" v="1594" />
    <tag k="addr:street" v="Porrell Road" />
    <tag k="addr:state" v="VT" />
    <tag k="ref:vcgi:esiteid" v="113313" />
  </node>
  <node id="-105" visible="true" lat="44.58357261" lon="-71.77874483">
    <tag k="addr:city" v="Granby" />
    <tag k="addr:housenumber" v="367" />
    <tag k="addr:street" v="Lund Lane" />
    <tag k="addr:state" v="VT" />
    <tag k="ref:vcgi:esiteid" v="113314" />
  </node>
  <node id="-106" visible="true" lat="44.58345791" lon="-71.7528837">
    <tag k="addr:city" v="Granby" />
    <tag k="addr:housenumber" v="1446" />
    <tag k="addr:street" v="Porrell Road" />
    <tag k="addr:state" v="VT" />
    <tag k="ref:vcgi:esiteid" v="113315" />
  </node>
  <node id="-107" visible="true" lat="44.58313369" lon="-71.77643585">
    <tag k="addr:city" v="Granby" />
    <tag k="addr:housenumber" v="382" />
    <tag k="addr:street" v="Lund Lane" />
    <tag k="addr:state" v="VT" />
    <tag k="ref:vcgi:esiteid" v="113316" />
  </node>
  <node id="-108" visible="true" lat="44.58125506" lon="-71.75788117">
    <tag k="addr:city" v="Granby" />
    <tag k="addr:housenumber" v="1034" />
    <tag k="addr:street" v="Porrell Road" />
    <tag k="addr:state" v="VT" />
    <tag k="ref:vcgi:esiteid" v="113317" />
  </node>
  <node id="-109" visible="true" lat="44.58163873" lon="-71.78121572">
    <tag k="addr:city" v="Granby" />
    <tag k="addr:housenumber" v="171" />
    <tag k="addr:street" v="Lund Lane" />
    <tag k="addr:state" v="VT" />
    <tag k="ref:vcgi:esiteid" v="113318" />
  </node>
  <node id="-110" visible="true" lat="44.58111926" lon="-71.78288742">
    <tag k="addr:city" v="Granby" />
    <tag k="addr:housenumber" v="79" />
    <tag k="addr:street" v="Lund Lane" />
    <tag k="addr:state" v="VT" />
    <tag k="ref:vcgi:esiteid" v="113319" />
  </node>
  <node id="-111" visible="true" lat="44.57971811" lon="-71.78210613">
    <tag k="addr:city" v="Granby" />
    <tag k="addr:housenumber" v="4" />
    <tag k="addr:street" v="Lund Lane" />
    <tag k="addr:state" v="VT" />
    <tag k="ref:vcgi:esiteid" v="113320" />
  </node>
  <node id="-112" visible="true" lat="44.57927703" lon="-71.76221465">
    <tag k="addr:city" v="Granby" />
    <tag k="addr:housenumber" v="784" />
    <tag k="addr:street" v="Porrell Road" />
    <tag k="addr:state" v="VT" />
    <tag k="ref:vcgi:esiteid" v="113321" />
  </node>
  <node id="-113" visible="true" lat="44.57886583" lon="-71.76769699">
    <tag k="addr:city" v="Granby" />
    <tag k="addr:housenumber" v="131" />
    <tag k="addr:street" v="Buzzell Gap" />
    <tag k="addr:state" v="VT" />
    <tag k="ref:vcgi:esiteid" v="113322" />
  </node>
  <node id="-114" visible="true" lat="44.57865142" lon="-71.73640441">
    <tag k="addr:city" v="Granby" />
    <tag k="addr:housenumber" v="317" />
    <tag k="addr:street" v="Mud Pond Pass" />
    <tag k="addr:state" v="VT" />
    <tag k="ref:vcgi:esiteid" v="113323" />
  </node>
  <node id="-115" visible="true" lat="44.57844924" lon="-71.76629638">
    <tag k="addr:city" v="Granby" />
    <tag k="addr:housenumber" v="132" />
    <tag k="addr:street" v="Buzzell Gap" />
    <tag k="addr:state" v="VT" />
    <tag k="ref:vcgi:esiteid" v="113324" />
  </node>
  <node id="-116" visible="true" lat="44.57806604" lon="-71.7202189">
    <tag k="addr:city" v="Granby" />
    <tag k="addr:housenumber" v="6811" />
    <tag k="addr:street" v="Granby Road" />
    <tag k="addr:state" v="VT" />
    <tag k="ref:vcgi:esiteid" v="113325" />
  </node>
  <node id="-117" visible="true" lat="44.57832336" lon="-71.76357269">
    <tag k="addr:city" v="Granby" />
    <tag k="addr:housenumber" v="686" />
    <tag k="addr:street" v="Porrell Road" />
    <tag k="addr:state" v="VT" />
    <tag k="ref:vcgi:esiteid" v="113326" />
  </node>
  <node id="-118" visible="true" lat="44.57728038" lon="-71.71088729">
    <tag k="addr:city" v="Granby" />
    <tag k="addr:housenumber" v="6328" />
    <tag k="addr:street" v="Granby Road" />
    <tag k="addr:state" v="VT" />
    <tag k="ref:vcgi:esiteid" v="113327" />
  </node>
  <node id="-119" visible="true" lat="44.57840613" lon="-71.72599422">
    <tag k="addr:city" v="Granby" />
    <tag k="addr:housenumber" v="7138" />
    <tag k="addr:street" v="Granby Road" />
    <tag k="addr:state" v="VT" />
    <tag k="ref:vcgi:esiteid" v="113328" />
  </node>
  <node id="-120" visible="true" lat="44.57841775" lon="-71.72759798">
    <tag k="addr:city" v="Granby" />
    <tag k="addr:housenumber" v="7172" />
    <tag k="addr:street" v="Granby Road" />
    <tag k="addr:state" v="VT" />
    <tag k="ref:vcgi:esiteid" v="113329" />
  </node>
  <node id="-121" visible="true" lat="44.5774765" lon="-71.76589202">
    <tag k="addr:city" v="Granby" />
    <tag k="addr:housenumber" v="73" />
    <tag k="addr:street" v="Buzzell Gap" />
    <tag k="addr:state" v="VT" />
    <tag k="ref:vcgi:esiteid" v="113330" />
  </node>
  <node id="-122" visible="true" lat="44.57643051" lon="-71.71022851">
    <tag k="addr:city" v="Granby" />
    <tag k="addr:housenumber" v="6294" />
    <tag k="addr:street" v="Granby Road" />
    <tag k="addr:state" v="VT" />
    <tag k="ref:vcgi:esiteid" v="113331" />
  </node>
  <node id="-123" visible="true" lat="44.57700655" lon="-71.73162849">
    <tag k="addr:city" v="Granby" />
    <tag k="addr:housenumber" v="7362" />
    <tag k="addr:street" v="Granby Road" />
    <tag k="addr:state" v="VT" />
    <tag k="ref:vcgi:esiteid" v="113332" />
  </node>
  <node id="-124" visible="true" lat="44.57613754" lon="-71.71092224">
    <tag k="addr:city" v="Granby" />
    <tag k="addr:housenumber" v="6313" />
    <tag k="addr:street" v="Granby Road" />
    <tag k="addr:state" v="VT" />
    <tag k="ref:vcgi:esiteid" v="113333" />
  </node>
  <node id="-125" visible="true" lat="44.57541275" lon="-71.73196411">
    <tag k="addr:city" v="Granby" />
    <tag k="addr:housenumber" v="7460" />
    <tag k="addr:street" v="Granby Road" />
    <tag k="addr:state" v="VT" />
    <tag k="ref:vcgi:esiteid" v="113334" />
  </node>
  <node id="-126" visible="true" lat="44.57525253" lon="-71.76465606">
    <tag k="addr:city" v="Granby" />
    <tag k="addr:housenumber" v="467" />
    <tag k="addr:street" v="Porrell Road" />
    <tag k="addr:state" v="VT" />
    <tag k="ref:vcgi:esiteid" v="113335" />
  </node>
  <node id="-127" visible="true" lat="44.5743103" lon="-71.76187133">
    <tag k="addr:city" v="Granby" />
    <tag k="addr:housenumber" v="354" />
    <tag k="addr:street" v="Porrell Road" />
    <tag k="addr:state" v="VT" />
    <tag k="ref:vcgi:esiteid" v="113336" />
  </node>
  <node id="-128" visible="true" lat="44.57332518" lon="-71.76201594">
    <tag k="addr:city" v="Granby" />
    <tag k="addr:housenumber" v="273" />
    <tag k="addr:street" v="Porrell Road" />
    <tag k="addr:state" v="VT" />
    <tag k="ref:vcgi:esiteid" v="113337" />
  </node>
  <node id="-129" visible="true" lat="44.57251357" lon="-71.70759582">
    <tag k="addr:city" v="Granby" />
    <tag k="addr:housenumber" v="6001" />
    <tag k="addr:street" v="Granby Road" />
    <tag k="addr:state" v="VT" />
    <tag k="ref:vcgi:esiteid" v="113338" />
  </node>
  <node id="-130" visible="true" lat="44.57255935" lon="-71.72724151">
    <tag k="addr:city" v="Granby" />
    <tag k="addr:housenumber" v="323" />
    <tag k="addr:street" v="Austin Place" />
    <tag k="addr:state" v="VT" />
    <tag k="ref:vcgi:esiteid" v="113339" />
  </node>
  <node id="-131" visible="true" lat="44.57231903" lon="-71.75672912">
    <tag k="addr:city" v="Granby" />
    <tag k="addr:housenumber" v="79" />
    <tag k="addr:street" v="Matthews Knoll" />
    <tag k="addr:state" v="VT" />
    <tag k="ref:vcgi:esiteid" v="113340" />
  </node>
  <node id="-132" visible="true" lat="44.57210159" lon="-71.76080322">
    <tag k="addr:city" v="Granby" />
    <tag k="addr:housenumber" v="194" />
    <tag k="addr:street" v="Porrell Road" />
    <tag k="addr:state" v="VT" />
    <tag k="ref:vcgi:esiteid" v="113341" />
  </node>
  <node id="-133" visible="true" lat="44.57145996" lon="-71.75927664">
    <tag k="addr:city" v="Granby" />
    <tag k="addr:housenumber" v="100" />
    <tag k="addr:street" v="Porrell Road" />
    <tag k="addr:state" v="VT" />
    <tag k="ref:vcgi:esiteid" v="113343" />
  </node>
  <node id="-134" visible="true" lat="44.57152023" lon="-71.75767999">
    <tag k="addr:city" v="Granby" />
    <tag k="addr:housenumber" v="8912" />
    <tag k="addr:street" v="Granby Road" />
    <tag k="addr:state" v="VT" />
    <tag k="ref:vcgi:esiteid" v="113344" />
  </node>
  <node id="-135" visible="true" lat="44.57105255" lon="-71.70231628">
    <tag k="addr:city" v="Granby" />
    <tag k="addr:housenumber" v="59" />
    <tag k="addr:street" v="Cow Mountain Pond Forest" />
    <tag k="addr:state" v="VT" />
    <tag k="ref:vcgi:esiteid" v="113345" />
  </node>
  <node id="-136" visible="true" lat="44.5716404" lon="-71.7541205">
    <tag k="addr:city" v="Granby" />
    <tag k="addr:housenumber" v="8792" />
    <tag k="addr:street" v="Granby Road" />
    <tag k="addr:state" v="VT" />
    <tag k="ref:vcgi:esiteid" v="113346" />
  </node>
  <node id="-137" visible="true" lat="44.57132217" lon="-71.75685608">
    <tag k="addr:city" v="Granby" />
    <tag k="addr:housenumber" v="8892" />
    <tag k="addr:street" v="Granby Road" />
    <tag k="addr:state" v="VT" />
    <tag k="ref:vcgi:esiteid" v="113347" />
  </node>
  <node id="-138" visible="true" lat="44.57090235" lon="-71.75590345">
    <tag k="addr:city" v="Granby" />
    <tag k="addr:housenumber" v="8841" />
    <tag k="addr:street" v="Granby Road" />
    <tag k="addr:state" v="VT" />
    <tag k="ref:vcgi:esiteid" v="113348" />
  </node>
  <node id="-139" visible="true" lat="44.57091903" lon="-71.7586441">
    <tag k="addr:city" v="Granby" />
    <tag k="addr:housenumber" v="56" />
    <tag k="addr:street" v="Porrell Road" />
    <tag k="addr:state" v="VT" />
    <tag k="ref:vcgi:esiteid" v="113349" />
  </node>
  <node id="-140" visible="true" lat="44.57063293" lon="-71.7579956">
    <tag k="addr:city" v="Granby" />
    <tag k="addr:housenumber" v="8960" />
    <tag k="addr:street" v="Granby Road" />
    <tag k="addr:state" v="VT" />
    <tag k="ref:vcgi:esiteid" v="113350" />
  </node>
  <node id="-141" visible="true" lat="44.57035064" lon="-71.7574768">
    <tag k="addr:city" v="Granby" />
    <tag k="addr:housenumber" v="8955" />
    <tag k="addr:street" v="Granby Road" />
    <tag k="addr:state" v="VT" />
    <tag k="ref:vcgi:esiteid" v="113351" />
  </node>
  <node id="-142" visible="true" lat="44.57019042" lon="-71.75463867">
    <tag k="addr:city" v="Granby" />
    <tag k="addr:housenumber" v="8747" />
    <tag k="addr:street" v="Granby Road" />
    <tag k="addr:state" v="VT" />
    <tag k="ref:vcgi:esiteid" v="113352" />
  </node>
  <node id="-143" visible="true" lat="44.57012807" lon="-71.76038893">
    <tag k="addr:city" v="Granby" />
    <tag k="addr:housenumber" v="75" />
    <tag k="addr:street" v="Porrell Road" />
    <tag k="addr:state" v="VT" />
    <tag k="ref:vcgi:esiteid" v="113353" />
  </node>
  <node id="-144" visible="true" lat="44.57002639" lon="-71.75883483">
    <tag k="addr:city" v="Granby" />
    <tag k="addr:housenumber" v="9018" />
    <tag k="addr:street" v="Granby Road" />
    <tag k="addr:state" v="VT" />
    <tag k="ref:vcgi:esiteid" v="113354" />
  </node>
  <node id="-145" visible="true" lat="44.56989524" lon="-71.75779584">
    <tag k="addr:city" v="Granby" />
    <tag k="addr:housenumber" v="8987" />
    <tag k="addr:street" v="Granby Road" />
    <tag k="addr:state" v="VT" />
    <tag k="ref:vcgi:esiteid" v="113355" />
  </node>
  <node id="-146" visible="true" lat="44.56992721" lon="-71.75830078">
    <tag k="addr:city" v="Granby" />
    <tag k="addr:housenumber" v="9005" />
    <tag k="addr:street" v="Granby Road" />
    <tag k="addr:state" v="VT" />
    <tag k="ref:vcgi:esiteid" v="113356" />
  </node>
  <node id="-147" visible="true" lat="44.56970977" lon="-71.75854492">
    <tag k="addr:city" v="Granby" />
    <tag k="addr:housenumber" v="9023" />
    <tag k="addr:street" v="Granby Road" />
    <tag k="addr:state" v="VT" />
    <tag k="ref:vcgi:esiteid" v="113357" />
  </node>
  <node id="-148" visible="true" lat="44.56955318" lon="-71.75873298">
    <tag k="addr:city" v="Granby" />
    <tag k="addr:housenumber" v="9033" />
    <tag k="addr:street" v="Granby Road" />
    <tag k="addr:state" v="VT" />
    <tag k="ref:vcgi:esiteid" v="113358" />
  </node>
  <node id="-149" visible="true" lat="44.56932076" lon="-71.75111706">
    <tag k="addr:city" v="Granby" />
    <tag k="addr:housenumber" v="8534" />
    <tag k="addr:street" v="Granby Road" />
    <tag k="addr:state" v="VT" />
    <tag k="ref:vcgi:esiteid" v="113360" />
  </node>
  <node id="-150" visible="true" lat="44.56890092" lon="-71.74979695">
    <tag k="addr:city" v="Granby" />
    <tag k="addr:housenumber" v="4" />
    <tag k="addr:street" v="Felker Road" />
    <tag k="addr:state" v="VT" />
    <tag k="ref:vcgi:esiteid" v="113361" />
  </node>
  <node id="-151" visible="true" lat="44.56900405" lon="-71.76043701">
    <tag k="addr:city" v="Granby" />
    <tag k="addr:housenumber" v="9130" />
    <tag k="addr:street" v="Granby Road" />
    <tag k="addr:state" v="VT" />
    <tag k="ref:vcgi:esiteid" v="113362" />
  </node>
  <node id="-152" visible="true" lat="44.56906714" lon="-71.76010801">
    <tag k="addr:city" v="Granby" />
    <tag k="addr:housenumber" v="9112" />
    <tag k="addr:street" v="Granby Road" />
    <tag k="addr:state" v="VT" />
    <tag k="ref:vcgi:esiteid" v="113363" />
  </node>
  <node id="-153" visible="true" lat="44.56811533" lon="-71.75106173">
    <tag k="addr:city" v="Granby" />
    <tag k="addr:housenumber" v="72" />
    <tag k="addr:street" v="Shores Hill" />
    <tag k="addr:state" v="VT" />
    <tag k="ref:vcgi:esiteid" v="113364" />
  </node>
  <node id="-154" visible="true" lat="44.56740269" lon="-71.74936261">
    <tag k="addr:city" v="Granby" />
    <tag k="addr:housenumber" v="157" />
    <tag k="addr:street" v="Shores Hill" />
    <tag k="addr:state" v="VT" />
    <tag k="ref:vcgi:esiteid" v="113365" />
  </node>
  <node id="-155" visible="true" lat="44.56586837" lon="-71.73981475">
    <tag k="addr:city" v="Granby" />
    <tag k="addr:housenumber" v="576" />
    <tag k="addr:street" v="Felker Road" />
    <tag k="addr:state" v="VT" />
    <tag k="ref:vcgi:esiteid" v="113366" />
  </node>
  <node id="-156" visible="true" lat="44.5649732" lon="-71.74823317">
    <tag k="addr:city" v="Granby" />
    <tag k="addr:housenumber" v="324" />
    <tag k="addr:street" v="Shores Hill" />
    <tag k="addr:state" v="VT" />
    <tag k="ref:vcgi:esiteid" v="113367" />
  </node>
  <node id="-157" visible="true" lat="44.56309615" lon="-71.74652192">
    <tag k="addr:city" v="Granby" />
    <tag k="addr:housenumber" v="472" />
    <tag k="addr:street" v="Shores Hill" />
    <tag k="addr:state" v="VT" />
    <tag k="ref:vcgi:esiteid" v="113368" />
  </node>
  <node id="-158" visible="true" lat="44.56132064" lon="-71.74336731">
    <tag k="addr:city" v="Granby" />
    <tag k="addr:housenumber" v="675" />
    <tag k="addr:street" v="Shores Hill" />
    <tag k="addr:state" v="VT" />
    <tag k="ref:vcgi:esiteid" v="113369" />
  </node>
  <node id="-159" visible="true" lat="44.56076431" lon="-71.74266052">
    <tag k="addr:city" v="Granby" />
    <tag k="addr:housenumber" v="719" />
    <tag k="addr:street" v="Shores Hill" />
    <tag k="addr:state" v="VT" />
    <tag k="ref:vcgi:esiteid" v="113370" />
  </node>
  <node id="-160" visible="true" lat="44.56027666" lon="-71.73821956">
    <tag k="addr:city" v="Granby" />
    <tag k="addr:housenumber" v="1033" />
    <tag k="addr:street" v="Shores Hill" />
    <tag k="addr:state" v="VT" />
    <tag k="ref:vcgi:esiteid" v="113371" />
  </node>
  <node id="-161" visible="true" lat="44.55998946" lon="-71.7345014">
    <tag k="addr:city" v="Granby" />
    <tag k="addr:housenumber" v="1171" />
    <tag k="addr:street" v="Shores Hill" />
    <tag k="addr:state" v="VT" />
    <tag k="ref:vcgi:esiteid" v="113372" />
  </node>
  <node id="-162" visible="true" lat="44.55969304" lon="-71.73657987">
    <tag k="addr:city" v="Granby" />
    <tag k="addr:housenumber" v="1087" />
    <tag k="addr:street" v="Shores Hill" />
    <tag k="addr:state" v="VT" />
    <tag k="ref:vcgi:esiteid" v="113373" />
  </node>
  <node id="-163" visible="true" lat="44.55930797" lon="-71.7389151">
    <tag k="addr:city" v="Granby" />
    <tag k="addr:housenumber" v="973" />
    <tag k="addr:street" v="Shores Hill" />
    <tag k="addr:state" v="VT" />
    <tag k="ref:vcgi:esiteid" v="113374" />
  </node>
  <node id="-164" visible="true" lat="44.55949048" lon="-71.74149478">
    <tag k="addr:city" v="Granby" />
    <tag k="addr:housenumber" v="832" />
    <tag k="addr:street" v="Shores Hill" />
    <tag k="addr:state" v="VT" />
    <tag k="ref:vcgi:esiteid" v="113375" />
  </node>
  <node id="-165" visible="true" lat="44.57454299" lon="-71.70957946">
    <tag k="addr:city" v="Granby" />
    <tag k="addr:housenumber" v="6173" />
    <tag k="addr:street" v="Granby Road" />
    <tag k="addr:state" v="VT" />
    <tag k="ref:vcgi:esiteid" v="113376" />
  </node>
  <node id="-166" visible="true" lat="44.56792744" lon="-71.74998919">
    <tag k="addr:city" v="Granby" />
    <tag k="addr:housenumber" v="155" />
    <tag k="addr:street" v="Shores Hill" />
    <tag k="addr:state" v="VT" />
    <tag k="ref:vcgi:esiteid" v="113377" />
  </node>
  <node id="-167" visible="true" lat="44.56508707" lon="-71.74606703">
    <tag k="addr:city" v="Granby" />
    <tag k="addr:housenumber" v="367" />
    <tag k="addr:street" v="Shores Hill" />
    <tag k="addr:state" v="VT" />
    <tag k="ref:vcgi:esiteid" v="113378" />
  </node>
  <node id="-168" visible="true" lat="44.57016641" lon="-71.75489929">
    <tag k="addr:city" v="Granby" />
    <tag k="addr:housenumber" v="8749" />
    <tag k="addr:street" v="Granby Road" />
    <tag k="addr:state" v="VT" />
    <tag k="ref:vcgi:esiteid" v="113379" />
  </node>
  <node id="-169" visible="true" lat="44.57402784" lon="-71.75672179">
    <tag k="addr:city" v="Granby" />
    <tag k="addr:housenumber" v="95" />
    <tag k="addr:street" v="Matthews Knoll" />
    <tag k="addr:state" v="VT" />
    <tag k="ref:vcgi:esiteid" v="113380" />
  </node>
  <node id="-170" visible="true" lat="44.57694545" lon="-71.71742289">
    <tag k="addr:city" v="Granby" />
    <tag k="addr:housenumber" v="6669" />
    <tag k="addr:street" v="Granby Road" />
    <tag k="addr:state" v="VT" />
    <tag k="ref:vcgi:esiteid" v="113381" />
  </node>
  <node id="-171" visible="true" lat="44.57667334" lon="-71.71412962">
    <tag k="addr:city" v="Granby" />
    <tag k="addr:housenumber" v="6366" />
    <tag k="addr:street" v="Granby Road" />
    <tag k="addr:state" v="VT" />
    <tag k="ref:vcgi:esiteid" v="113382" />
  </node>
  <node id="-172" visible="true" lat="44.57743797" lon="-71.70856226">
    <tag k="addr:city" v="Granby" />
    <tag k="addr:housenumber" v="6270" />
    <tag k="addr:street" v="Granby Road" />
    <tag k="addr:state" v="VT" />
    <tag k="ref:vcgi:esiteid" v="113383" />
  </node>
  <node id="-173" visible="true" lat="44.57481157" lon="-71.70891932">
    <tag k="addr:city" v="Granby" />
    <tag k="addr:housenumber" v="6170" />
    <tag k="addr:street" v="Granby Road" />
    <tag k="addr:state" v="VT" />
    <tag k="ref:vcgi:esiteid" v="113384" />
  </node>
  <node id="-174" visible="true" lat="44.57373204" lon="-71.70823408">
    <tag k="addr:city" v="Granby" />
    <tag k="addr:housenumber" v="6082" />
    <tag k="addr:street" v="Granby Road" />
    <tag k="addr:state" v="VT" />
    <tag k="ref:vcgi:esiteid" v="113385" />
  </node>
  <node id="-175" visible="true" lat="44.57477691" lon="-71.69110247">
    <tag k="addr:city" v="Granby" />
    <tag k="addr:housenumber" v="5191" />
    <tag k="addr:street" v="Granby Road" />
    <tag k="addr:state" v="VT" />
    <tag k="ref:vcgi:esiteid" v="113386" />
  </node>
  <node id="-176" visible="true" lat="44.57623706" lon="-71.71674746">
    <tag k="addr:city" v="Granby" />
    <tag k="addr:housenumber" v="6451" />
    <tag k="addr:street" v="Granby Road" />
    <tag k="addr:state" v="VT" />
    <tag k="ref:vcgi:esiteid" v="113387" />
  </node>
  <node id="-177" visible="true" lat="44.5728431" lon="-71.75640903">
    <tag k="addr:city" v="Granby" />
    <tag k="addr:housenumber" v="90" />
    <tag k="addr:street" v="Matthews Knoll" />
    <tag k="addr:state" v="VT" />
    <tag k="ref:vcgi:esiteid" v="113388" />
  </node>
  <node id="-178" visible="true" lat="44.5852153" lon="-71.75625247">
    <tag k="addr:city" v="Granby" />
    <tag k="addr:housenumber" v="1279" />
    <tag k="addr:street" v="Porrell Road" />
    <tag k="addr:state" v="VT" />
    <tag k="ref:vcgi:esiteid" v="113389" />
  </node>
  <node id="-179" visible="true" lat="44.57354372" lon="-71.73860194">
    <tag k="addr:city" v="Granby" />
    <tag k="addr:housenumber" v="7773" />
    <tag k="addr:street" v="Granby Road" />
    <tag k="addr:state" v="VT" />
    <tag k="ref:vcgi:esiteid" v="113390" />
  </node>
  <node id="-180" visible="true" lat="44.57117663" lon="-71.75747406">
    <tag k="addr:city" v="Granby" />
    <tag k="addr:housenumber" v="8910" />
    <tag k="addr:street" v="Granby Road" />
    <tag k="addr:state" v="VT" />
    <tag k="ref:vcgi:esiteid" v="113391" />
  </node>
  <node id="-181" visible="true" lat="44.5835219" lon="-71.75373873">
    <tag k="addr:city" v="Granby" />
    <tag k="addr:housenumber" v="1318" />
    <tag k="addr:street" v="Porrell Road" />
    <tag k="addr:state" v="VT" />
    <tag k="ref:vcgi:esiteid" v="113392" />
  </node>
  <node id="-182" visible="true" lat="44.57695153" lon="-71.71793492">
    <tag k="addr:city" v="Granby" />
    <tag k="addr:housenumber" v="6671" />
    <tag k="addr:street" v="Granby Road" />
    <tag k="addr:state" v="VT" />
    <tag k="ref:vcgi:esiteid" v="313348" />
  </node>
  <node id="-183" visible="true" lat="44.58867754" lon="-71.75444129">
    <tag k="addr:city" v="Granby" />
    <tag k="addr:housenumber" v="1591" />
    <tag k="addr:street" v="Porrell Road" />
    <tag k="addr:state" v="VT" />
    <tag k="ref:vcgi:esiteid" v="313349" />
  </node>
  <node id="-184" visible="true" lat="44.58335061" lon="-71.76101311">
    <tag k="addr:city" v="Granby" />
    <tag k="addr:housenumber" v="1071" />
    <tag k="addr:street" v="Porrell Road" />
    <tag k="addr:state" v="VT" />
    <tag k="ref:vcgi:esiteid" v="313350" />
  </node>
  <node id="-185" visible="true" lat="44.58532404" lon="-71.77815429">
    <tag k="addr:city" v="Granby" />
    <tag k="addr:housenumber" v="521" />
    <tag k="addr:street" v="Lund Lane" />
    <tag k="addr:state" v="VT" />
    <tag k="ref:vcgi:esiteid" v="326325" />
  </node>
  <node id="-186" visible="true" lat="44.5908102" lon="-71.77240615">
    <tag k="addr:city" v="Granby" />
    <tag k="addr:housenumber" v="522" />
    <tag k="addr:street" v="Lund Lane" />
    <tag k="addr:state" v="VT" />
    <tag k="ref:vcgi:esiteid" v="326326" />
  </node>
  <node id="-187" visible="true" lat="44.62797769" lon="-71.70874446">
    <tag k="addr:city" v="Granby" />
    <tag k="addr:housenumber" v="267" />
    <tag k="addr:street" v="Fitch Brook Road" />
    <tag k="addr:state" v="VT" />
    <tag k="ref:vcgi:esiteid" v="337593" />
  </node>
  <node id="-188" visible="true" lat="44.62570449" lon="-71.70882562">
    <tag k="addr:city" v="Granby" />
    <tag k="addr:housenumber" v="47" />
    <tag k="addr:street" v="Fitch Brook Road" />
    <tag k="addr:state" v="VT" />
    <tag k="ref:vcgi:esiteid" v="337594" />
  </node>
  <node id="-189" visible="true" lat="44.62398885" lon="-71.71079273">
    <tag k="addr:city" v="Granby" />
    <tag k="addr:housenumber" v="400" />
    <tag k="addr:street" v="Stony Brook Road" />
    <tag k="addr:state" v="VT" />
    <tag k="ref:vcgi:esiteid" v="337595" />
  </node>
  <node id="-190" visible="true" lat="44.62768347" lon="-71.70811219">
    <tag k="addr:city" v="Granby" />
    <tag k="addr:housenumber" v="263" />
    <tag k="addr:street" v="Fitch Brook Road" />
    <tag k="addr:state" v="VT" />
    <tag k="ref:vcgi:esiteid" v="337596" />
  </node>
  <node id="-191" visible="true" lat="44.62685146" lon="-71.70743798">
    <tag k="addr:city" v="Granby" />
    <tag k="addr:housenumber" v="129" />
    <tag k="addr:street" v="Fitch Brook Road" />
    <tag k="addr:state" v="VT" />
    <tag k="ref:vcgi:esiteid" v="337597" />
  </node>
  <node id="-192" visible="true" lat="44.64002339" lon="-71.69345064">
    <tag k="addr:city" v="Granby" />
    <tag k="addr:housenumber" v="44" />
    <tag k="addr:street" v="Depot Camp Road" />
    <tag k="addr:state" v="VT" />
    <tag k="ref:vcgi:esiteid" v="338324" />
  </node>
  <node id="-193" visible="true" lat="44.639908" lon="-71.69768868">
    <tag k="addr:city" v="Granby" />
    <tag k="addr:housenumber" v="291" />
    <tag k="addr:street" v="Depot Camp Road" />
    <tag k="addr:state" v="VT" />
    <tag k="ref:vcgi:esiteid" v="338325" />
  </node>
  <node id="-194" visible="true" lat="44.63883759" lon="-71.69722584">
    <tag k="addr:city" v="Granby" />
    <tag k="addr:housenumber" v="287" />
    <tag k="addr:street" v="Depot Camp Road" />
    <tag k="addr:state" v="VT" />
    <tag k="ref:vcgi:esiteid" v="338326" />
  </node>
  <node id="-195" visible="true" lat="44.62192435" lon="-71.70403712">
    <tag k="addr:city" v="Granby" />
    <tag k="addr:housenumber" v="23" />
    <tag k="addr:street" v="Wilke Brook Road" />
    <tag k="addr:state" v="VT" />
    <tag k="ref:vcgi:esiteid" v="338327" />
  </node>
  <node id="-196" visible="true" lat="44.62353503" lon="-71.70410353">
    <tag k="addr:city" v="Granby" />
    <tag k="addr:housenumber" v="21" />
    <tag k="addr:street" v="Stony Brook Road" />
    <tag k="addr:state" v="VT" />
    <tag k="ref:vcgi:esiteid" v="338328" />
  </node>
  <node id="-197" visible="true" lat="44.5910019" lon="-71.68550174">
    <tag k="addr:city" v="Granby" />
    <tag k="addr:housenumber" v="12" />
    <tag k="addr:street" v="Guildhall Road" />
    <tag k="addr:state" v="VT" />
    <tag k="ref:vcgi:esiteid" v="338329" />
  </node>
  <node id="-198" visible="true" lat="44.61074433" lon="-71.72195309">
    <tag k="addr:city" v="Granby" />
    <tag k="addr:housenumber" v="1007" />
    <tag k="addr:street" v="Tolman Brook Road" />
    <tag k="addr:state" v="VT" />
    <tag k="ref:vcgi:esiteid" v="338330" />
  </node>
  <node id="-199" visible="true" lat="44.64048401" lon="-71.75016277">
    <tag k="addr:city" v="Granby" />
    <tag k="addr:housenumber" v="828" />
    <tag k="addr:street" v="Olsen Road" />
    <tag k="addr:state" v="VT" />
    <tag k="ref:vcgi:esiteid" v="338331" />
  </node>
  <node id="-200" visible="true" lat="44.62785428" lon="-71.73262992">
    <tag k="addr:city" v="Granby" />
    <tag k="addr:housenumber" v="1691" />
    <tag k="addr:street" v="Stony Brook Road" />
    <tag k="addr:state" v="VT" />
    <tag k="ref:vcgi:esiteid" v="338332" />
  </node>
  <node id="-201" visible="true" lat="44.58254124" lon="-71.73547988">
    <tag k="addr:city" v="Granby" />
    <tag k="addr:housenumber" v="623" />
    <tag k="addr:street" v="Mud Pond Pass" />
    <tag k="addr:state" v="VT" />
    <tag k="ref:vcgi:esiteid" v="338334" />
  </node>
  <node id="-202" visible="true" lat="44.60711507" lon="-71.7464588">
    <tag k="addr:city" v="Granby" />
    <tag k="addr:housenumber" v="2917" />
    <tag k="addr:street" v="Porrell Road" />
    <tag k="addr:state" v="VT" />
    <tag k="ref:vcgi:esiteid" v="338335" />
  </node>
  <node id="-203" visible="true" lat="44.60932216" lon="-71.74550971">
    <tag k="addr:city" v="Granby" />
    <tag k="addr:housenumber" v="2921" />
    <tag k="addr:street" v="Porrell Road" />
    <tag k="addr:state" v="VT" />
    <tag k="ref:vcgi:esiteid" v="338336" />
  </node>
  <node id="-204" visible="true" lat="44.55997974" lon="-71.74161483">
    <tag k="addr:city" v="Granby" />
    <tag k="addr:housenumber" v="817" />
    <tag k="addr:street" v="Shores Hill" />
    <tag k="addr:state" v="VT" />
    <tag k="ref:vcgi:esiteid" v="338337" />
  </node>
  <node id="-205" visible="true" lat="44.55812494" lon="-71.73830679">
    <tag k="addr:city" v="Granby" />
    <tag k="addr:housenumber" v="31" />
    <tag k="addr:street" v="Mount Tug Road" />
    <tag k="addr:state" v="VT" />
    <tag k="ref:vcgi:esiteid" v="338339" />
  </node>
  <node id="-206" visible="true" lat="44.57888797" lon="-71.72036601">
    <tag k="addr:city" v="Granby" />
    <tag k="addr:housenumber" v="6868" />
    <tag k="addr:street" v="Granby Road" />
    <tag k="addr:state" v="VT" />
    <tag k="ref:vcgi:esiteid" v="338342" />
  </node>
  <node id="-207" visible="true" lat="44.57792338" lon="-71.71814702">
    <tag k="addr:city" v="Granby" />
    <tag k="addr:housenumber" v="6722" />
    <tag k="addr:street" v="Granby Road" />
    <tag k="addr:state" v="VT" />
    <tag k="ref:vcgi:esiteid" v="338343" />
  </node>
  <node id="-208" visible="true" lat="44.57774117" lon="-71.7159096">
    <tag k="addr:city" v="Granby" />
    <tag k="addr:housenumber" v="6634" />
    <tag k="addr:street" v="Granby Road" />
    <tag k="addr:state" v="VT" />
    <tag k="ref:vcgi:esiteid" v="338344" />
  </node>
  <node id="-209" visible="true" lat="44.5772453" lon="-71.7161838">
    <tag k="addr:city" v="Granby" />
    <tag k="addr:housenumber" v="6624" />
    <tag k="addr:street" v="Granby Road" />
    <tag k="addr:state" v="VT" />
    <tag k="ref:vcgi:esiteid" v="338345" />
  </node>
  <node id="-210" visible="true" lat="44.57718782" lon="-71.71154991">
    <tag k="addr:city" v="Granby" />
    <tag k="addr:housenumber" v="6340" />
    <tag k="addr:street" v="Granby Road" />
    <tag k="addr:state" v="VT" />
    <tag k="ref:vcgi:esiteid" v="338346" />
  </node>
  <node id="-211" visible="true" lat="44.5728657" lon="-71.70527205">
    <tag k="addr:city" v="Granby" />
    <tag k="addr:housenumber" v="5862" />
    <tag k="addr:street" v="Granby Road" />
    <tag k="addr:state" v="VT" />
    <tag k="ref:vcgi:esiteid" v="338347" />
  </node>
  <node id="-212" visible="true" lat="44.57630811" lon="-71.71642309">
    <tag k="addr:city" v="Granby" />
    <tag k="addr:housenumber" v="6449" />
    <tag k="addr:street" v="Granby Road" />
    <tag k="addr:state" v="VT" />
    <tag k="ref:vcgi:esiteid" v="446418" />
  </node>
  <node id="-213" visible="true" lat="44.56988698" lon="-71.75887271">
    <tag k="addr:city" v="Granby" />
    <tag k="addr:housenumber" v="9020" />
    <tag k="addr:street" v="Granby Road" />
    <tag k="addr:state" v="VT" />
    <tag k="ref:vcgi:esiteid" v="446419" />
  </node>
  <node id="-214" visible="true" lat="44.57334921" lon="-71.74240947">
    <tag k="addr:city" v="Granby" />
    <tag k="addr:housenumber" v="8016" />
    <tag k="addr:street" v="Granby Road" />
    <tag k="addr:state" v="VT" />
    <tag k="ref:vcgi:esiteid" v="617470" />
  </node>
  <node id="-215" visible="true" lat="44.57400498" lon="-71.73425335">
    <tag k="addr:city" v="Granby" />
    <tag k="addr:housenumber" v="7545" />
    <tag k="addr:street" v="Granby Road" />
    <tag k="addr:state" v="VT" />
    <tag k="ref:vcgi:esiteid" v="654906" />
  </node>
  <node id="-217" visible="true" lat="44.58479479" lon="-71.77700149">
    <tag k="addr:city" v="Granby" />
    <tag k="addr:housenumber" v="498" />
    <tag k="addr:street" v="Lund Lane" />
    <tag k="addr:state" v="VT" />
    <tag k="ref:vcgi:esiteid" v="757707" />
  </node>
  <node id="-218" visible="true" lat="44.57260169" lon="-71.74708109">
    <tag k="addr:city" v="Granby" />
    <tag k="addr:housenumber" v="8200" />
    <tag k="addr:street" v="Granby Road" />
    <tag k="addr:state" v="VT" />
    <tag k="ref:vcgi:esiteid" v="759039" />
  </node>
  <node id="-220" visible="true" lat="44.5710544" lon="-71.75590136">
    <tag k="addr:city" v="Granby" />
    <tag k="addr:housenumber" v="8845" />
    <tag k="addr:street" v="Granby Road" />
    <tag k="addr:state" v="VT" />
    <tag k="ref:vcgi:esiteid" v="1050781" />
  </node>
</osm>
