<?xml version="1.0" encoding="UTF-8"?>
<osm version="0.6" generator="JOSM">
  <node id="-100" visible="true" lat="44.87109852" lon="-72.30536245">
    <tag k="addr:housenumber" v="699" />
    <tag k="addr:street" v="Cobblestone Trail" />
    <tag k="addr:state" v="VT" />
    <tag k="ref:vcgi:esiteid" v="73" />
  </node>
  <node id="-101" visible="true" lat="44.86356353" lon="-72.28137969">
    <tag k="addr:housenumber" v="334" />
    <tag k="addr:street" v="Chilafoux Hill" />
    <tag k="addr:state" v="VT" />
    <tag k="ref:vcgi:esiteid" v="133442" />
  </node>
  <node id="-102" visible="true" lat="44.86327403" lon="-72.28842729">
    <tag k="addr:housenumber" v="664" />
    <tag k="addr:street" v="Chilafoux Hill" />
    <tag k="addr:state" v="VT" />
    <tag k="ref:vcgi:esiteid" v="133443" />
  </node>
  <node id="-103" visible="true" lat="44.86268598" lon="-72.28575261">
    <tag k="addr:housenumber" v="495" />
    <tag k="addr:street" v="Chilafoux Hill" />
    <tag k="addr:state" v="VT" />
    <tag k="ref:vcgi:esiteid" v="133444" />
  </node>
  <node id="-104" visible="true" lat="44.86228487" lon="-72.27980084">
    <tag k="addr:housenumber" v="218" />
    <tag k="addr:street" v="Chilafoux Hill" />
    <tag k="addr:state" v="VT" />
    <tag k="ref:vcgi:esiteid" v="133445" />
  </node>
  <node id="-105" visible="true" lat="44.86099624" lon="-72.27798461">
    <tag k="addr:housenumber" v="99" />
    <tag k="addr:street" v="Chilafoux Hill" />
    <tag k="addr:state" v="VT" />
    <tag k="ref:vcgi:esiteid" v="133446" />
  </node>
  <node id="-106" visible="true" lat="44.8600619" lon="-72.27602985">
    <tag k="addr:housenumber" v="4350" />
    <tag k="addr:street" v="Back Coventry Road" />
    <tag k="addr:state" v="VT" />
    <tag k="ref:vcgi:esiteid" v="133447" />
  </node>
  <node id="-107" visible="true" lat="44.85943324" lon="-72.27179378">
    <tag k="addr:housenumber" v="96" />
    <tag k="addr:street" v="Vermont Route 14" />
    <tag k="addr:state" v="VT" />
    <tag k="ref:vcgi:esiteid" v="133448" />
  </node>
  <node id="-108" visible="true" lat="44.8585205" lon="-72.27220153">
    <tag k="addr:housenumber" v="174" />
    <tag k="addr:street" v="Vermont Route 14" />
    <tag k="addr:state" v="VT" />
    <tag k="ref:vcgi:esiteid" v="133449" />
  </node>
  <node id="-109" visible="true" lat="44.85813803" lon="-72.2788795">
    <tag k="addr:housenumber" v="4164" />
    <tag k="addr:street" v="Back Coventry Road" />
    <tag k="addr:state" v="VT" />
    <tag k="ref:vcgi:esiteid" v="133450" />
  </node>
  <node id="-110" visible="true" lat="44.85789803" lon="-72.26357956">
    <tag k="addr:housenumber" v="279" />
    <tag k="addr:street" v="Coventry Heights" />
    <tag k="addr:state" v="VT" />
    <tag k="ref:vcgi:esiteid" v="133451" />
  </node>
  <node id="-111" visible="true" lat="44.8573127" lon="-72.28645897">
    <tag k="addr:housenumber" v="276" />
    <tag k="addr:street" v="Hillandale Road" />
    <tag k="addr:state" v="VT" />
    <tag k="ref:vcgi:esiteid" v="133452" />
  </node>
  <node id="-112" visible="true" lat="44.85718793" lon="-72.28684759">
    <tag k="addr:housenumber" v="263" />
    <tag k="addr:street" v="Hillandale Road" />
    <tag k="addr:state" v="VT" />
    <tag k="ref:vcgi:esiteid" v="133453" />
  </node>
  <node id="-113" visible="true" lat="44.85651098" lon="-72.26545725">
    <tag k="addr:housenumber" v="4484" />
    <tag k="addr:street" v="U.S. Route 5" />
    <tag k="addr:state" v="VT" />
    <tag k="ref:vcgi:esiteid" v="133454" />
  </node>
  <node id="-114" visible="true" lat="44.85634231" lon="-72.28018951">
    <tag k="addr:housenumber" v="4026" />
    <tag k="addr:street" v="Back Coventry Road" />
    <tag k="addr:state" v="VT" />
    <tag k="ref:vcgi:esiteid" v="133455" />
  </node>
  <node id="-115" visible="true" lat="44.8557751" lon="-72.26621557">
    <tag k="addr:housenumber" v="4497" />
    <tag k="addr:street" v="U.S. Route 5" />
    <tag k="addr:state" v="VT" />
    <tag k="ref:vcgi:esiteid" v="133456" />
  </node>
  <node id="-116" visible="true" lat="44.85579303" lon="-72.26713162">
    <tag k="addr:housenumber" v="4499" />
    <tag k="addr:street" v="U.S. Route 5" />
    <tag k="addr:state" v="VT" />
    <tag k="ref:vcgi:esiteid" v="133457" />
  </node>
  <node id="-117" visible="true" lat="44.8555944" lon="-72.26619125">
    <tag k="addr:housenumber" v="4495" />
    <tag k="addr:street" v="U.S. Route 5" />
    <tag k="addr:state" v="VT" />
    <tag k="ref:vcgi:esiteid" v="133458" />
  </node>
  <node id="-118" visible="true" lat="44.85484735" lon="-72.26359071">
    <tag k="addr:housenumber" v="48" />
    <tag k="addr:street" v="Cutting Road" />
    <tag k="addr:state" v="VT" />
    <tag k="ref:vcgi:esiteid" v="133459" />
  </node>
  <node id="-119" visible="true" lat="44.85453796" lon="-72.27254486">
    <tag k="addr:housenumber" v="449" />
    <tag k="addr:street" v="Vermont Route 14" />
    <tag k="addr:state" v="VT" />
    <tag k="ref:vcgi:esiteid" v="133460" />
  </node>
  <node id="-120" visible="true" lat="44.85417296" lon="-72.264763">
    <tag k="addr:housenumber" v="4349" />
    <tag k="addr:street" v="U.S. Route 5" />
    <tag k="addr:state" v="VT" />
    <tag k="ref:vcgi:esiteid" v="133461" />
  </node>
  <node id="-121" visible="true" lat="44.85351181" lon="-72.28616333">
    <tag k="addr:housenumber" v="3638" />
    <tag k="addr:street" v="Back Coventry Road" />
    <tag k="addr:state" v="VT" />
    <tag k="ref:vcgi:esiteid" v="133462" />
  </node>
  <node id="-122" visible="true" lat="44.85334536" lon="-72.31126933">
    <tag k="addr:housenumber" v="1052" />
    <tag k="addr:street" v="Poutre Drive" />
    <tag k="addr:state" v="VT" />
    <tag k="ref:vcgi:esiteid" v="133463" />
  </node>
  <node id="-123" visible="true" lat="44.85320493" lon="-72.26441659">
    <tag k="addr:housenumber" v="4287" />
    <tag k="addr:street" v="U.S. Route 5" />
    <tag k="addr:state" v="VT" />
    <tag k="ref:vcgi:esiteid" v="133464" />
  </node>
  <node id="-124" visible="true" lat="44.85304829" lon="-72.26329812">
    <tag k="addr:housenumber" v="4264" />
    <tag k="addr:street" v="U.S. Route 5" />
    <tag k="addr:state" v="VT" />
    <tag k="ref:vcgi:esiteid" v="133465" />
  </node>
  <node id="-125" visible="true" lat="44.8529129" lon="-72.27462768">
    <tag k="addr:housenumber" v="579" />
    <tag k="addr:street" v="Vermont Route 14" />
    <tag k="addr:state" v="VT" />
    <tag k="ref:vcgi:esiteid" v="133466" />
  </node>
  <node id="-126" visible="true" lat="44.85209274" lon="-72.31420135">
    <tag k="addr:housenumber" v="1210" />
    <tag k="addr:street" v="Poutre Drive" />
    <tag k="addr:state" v="VT" />
    <tag k="ref:vcgi:esiteid" v="133467" />
  </node>
  <node id="-127" visible="true" lat="44.85172271" lon="-72.29570007">
    <tag k="addr:housenumber" v="3285" />
    <tag k="addr:street" v="Back Coventry Road" />
    <tag k="addr:state" v="VT" />
    <tag k="ref:vcgi:esiteid" v="133468" />
  </node>
  <node id="-128" visible="true" lat="44.85127208" lon="-72.30416178">
    <tag k="addr:housenumber" v="501" />
    <tag k="addr:street" v="Currier Hill Drive" />
    <tag k="addr:state" v="VT" />
    <tag k="ref:vcgi:esiteid" v="133469" />
  </node>
  <node id="-129" visible="true" lat="44.84947059" lon="-72.28093546">
    <tag k="addr:housenumber" v="930" />
    <tag k="addr:street" v="Vermont Route 14" />
    <tag k="addr:state" v="VT" />
    <tag k="ref:vcgi:esiteid" v="133470" />
  </node>
  <node id="-130" visible="true" lat="44.85014724" lon="-72.2939682">
    <tag k="addr:housenumber" v="3187" />
    <tag k="addr:street" v="Back Coventry Road" />
    <tag k="addr:state" v="VT" />
    <tag k="ref:vcgi:esiteid" v="133471" />
  </node>
  <node id="-131" visible="true" lat="44.84896811" lon="-72.26302367">
    <tag k="addr:housenumber" v="3983" />
    <tag k="addr:street" v="U.S. Route 5" />
    <tag k="addr:state" v="VT" />
    <tag k="ref:vcgi:esiteid" v="133472" />
  </node>
  <node id="-132" visible="true" lat="44.84876704" lon="-72.30987116">
    <tag k="addr:housenumber" v="725" />
    <tag k="addr:street" v="Poutre Drive" />
    <tag k="addr:state" v="VT" />
    <tag k="ref:vcgi:esiteid" v="133473" />
  </node>
  <node id="-133" visible="true" lat="44.84717178" lon="-72.2435379">
    <tag k="addr:housenumber" v="930" />
    <tag k="addr:street" v="Airport Road" />
    <tag k="addr:state" v="VT" />
    <tag k="ref:vcgi:esiteid" v="133474" />
  </node>
  <node id="-134" visible="true" lat="44.84693486" lon="-72.28490349">
    <tag k="addr:housenumber" v="1122" />
    <tag k="addr:street" v="Vermont Route 14" />
    <tag k="addr:state" v="VT" />
    <tag k="ref:vcgi:esiteid" v="133475" />
  </node>
  <node id="-135" visible="true" lat="44.84691053" lon="-72.2618196">
    <tag k="addr:housenumber" v="3820" />
    <tag k="addr:street" v="U.S. Route 5" />
    <tag k="addr:state" v="VT" />
    <tag k="ref:vcgi:esiteid" v="133476" />
  </node>
  <node id="-136" visible="true" lat="44.84623368" lon="-72.26169818">
    <tag k="addr:housenumber" v="3794" />
    <tag k="addr:street" v="U.S. Route 5" />
    <tag k="addr:state" v="VT" />
    <tag k="ref:vcgi:esiteid" v="133477" />
  </node>
  <node id="-137" visible="true" lat="44.84626007" lon="-72.28136444">
    <tag k="addr:housenumber" v="1158" />
    <tag k="addr:street" v="Vermont Route 14" />
    <tag k="addr:state" v="VT" />
    <tag k="ref:vcgi:esiteid" v="133478" />
  </node>
  <node id="-138" visible="true" lat="44.8456715" lon="-72.26163611">
    <tag k="addr:housenumber" v="3740" />
    <tag k="addr:street" v="U.S. Route 5" />
    <tag k="addr:state" v="VT" />
    <tag k="ref:vcgi:esiteid" v="133480" />
  </node>
  <node id="-139" visible="true" lat="44.84447097" lon="-72.28430175">
    <tag k="addr:housenumber" v="1364" />
    <tag k="addr:street" v="Vermont Route 14" />
    <tag k="addr:state" v="VT" />
    <tag k="ref:vcgi:esiteid" v="133481" />
  </node>
  <node id="-140" visible="true" lat="44.84381998" lon="-72.26118284">
    <tag k="addr:housenumber" v="3612" />
    <tag k="addr:street" v="U.S. Route 5" />
    <tag k="addr:state" v="VT" />
    <tag k="ref:vcgi:esiteid" v="133482" />
  </node>
  <node id="-141" visible="true" lat="44.84329605" lon="-72.2820816">
    <tag k="addr:housenumber" v="1375" />
    <tag k="addr:street" v="Vermont Route 14" />
    <tag k="addr:state" v="VT" />
    <tag k="ref:vcgi:esiteid" v="133483" />
  </node>
  <node id="-142" visible="true" lat="44.8413581" lon="-72.24720691">
    <tag k="addr:housenumber" v="482" />
    <tag k="addr:street" v="Airport Road" />
    <tag k="addr:state" v="VT" />
    <tag k="ref:vcgi:esiteid" v="133484" />
  </node>
  <node id="-143" visible="true" lat="44.84272887" lon="-72.3081833">
    <tag k="addr:housenumber" v="271" />
    <tag k="addr:street" v="Poutre Drive" />
    <tag k="addr:state" v="VT" />
    <tag k="ref:vcgi:esiteid" v="133485" />
  </node>
  <node id="-144" visible="true" lat="44.84246826" lon="-72.28742217">
    <tag k="addr:housenumber" v="146" />
    <tag k="addr:street" v="White Road" />
    <tag k="addr:state" v="VT" />
    <tag k="ref:vcgi:esiteid" v="133486" />
  </node>
  <node id="-145" visible="true" lat="44.84197616" lon="-72.28626251">
    <tag k="addr:housenumber" v="80" />
    <tag k="addr:street" v="White Road" />
    <tag k="addr:state" v="VT" />
    <tag k="ref:vcgi:esiteid" v="133488" />
  </node>
  <node id="-146" visible="true" lat="44.84232046" lon="-72.3126412">
    <tag k="addr:housenumber" v="269" />
    <tag k="addr:street" v="Poutre Drive" />
    <tag k="addr:state" v="VT" />
    <tag k="ref:vcgi:esiteid" v="133489" />
  </node>
  <node id="-147" visible="true" lat="44.84052491" lon="-72.30699021">
    <tag k="addr:housenumber" v="2183" />
    <tag k="addr:street" v="Back Coventry Road" />
    <tag k="addr:state" v="VT" />
    <tag k="ref:vcgi:esiteid" v="133490" />
  </node>
  <node id="-148" visible="true" lat="44.8402979" lon="-72.30275739">
    <tag k="addr:housenumber" v="2392" />
    <tag k="addr:street" v="Back Coventry Road" />
    <tag k="addr:state" v="VT" />
    <tag k="ref:vcgi:esiteid" v="133491" />
  </node>
  <node id="-149" visible="true" lat="44.83972998" lon="-72.30541855">
    <tag k="addr:housenumber" v="2272" />
    <tag k="addr:street" v="Back Coventry Road" />
    <tag k="addr:state" v="VT" />
    <tag k="ref:vcgi:esiteid" v="133492" />
  </node>
  <node id="-150" visible="true" lat="44.8397868" lon="-72.26026567">
    <tag k="addr:housenumber" v="3325" />
    <tag k="addr:street" v="U.S. Route 5" />
    <tag k="addr:state" v="VT" />
    <tag k="ref:vcgi:esiteid" v="133493" />
  </node>
  <node id="-151" visible="true" lat="44.83962336" lon="-72.30307693">
    <tag k="addr:housenumber" v="2374" />
    <tag k="addr:street" v="Back Coventry Road" />
    <tag k="addr:state" v="VT" />
    <tag k="ref:vcgi:esiteid" v="133494" />
  </node>
  <node id="-152" visible="true" lat="44.83968312" lon="-72.25941202">
    <tag k="addr:housenumber" v="3302" />
    <tag k="addr:street" v="U.S. Route 5" />
    <tag k="addr:state" v="VT" />
    <tag k="ref:vcgi:esiteid" v="133495" />
  </node>
  <node id="-153" visible="true" lat="44.83948654" lon="-72.26151506">
    <tag k="addr:housenumber" v="3293" />
    <tag k="addr:street" v="U.S. Route 5" />
    <tag k="addr:state" v="VT" />
    <tag k="ref:vcgi:esiteid" v="133496" />
  </node>
  <node id="-154" visible="true" lat="44.83938217" lon="-72.30350494">
    <tag k="addr:housenumber" v="2376" />
    <tag k="addr:street" v="Back Coventry Road" />
    <tag k="addr:state" v="VT" />
    <tag k="ref:vcgi:esiteid" v="133497" />
  </node>
  <node id="-155" visible="true" lat="44.83903079" lon="-72.24920477">
    <tag k="addr:housenumber" v="294" />
    <tag k="addr:street" v="Airport Road" />
    <tag k="addr:state" v="VT" />
    <tag k="ref:vcgi:esiteid" v="133498" />
  </node>
  <node id="-156" visible="true" lat="44.83917617" lon="-72.31408691">
    <tag k="addr:housenumber" v="1869" />
    <tag k="addr:street" v="Back Coventry Road" />
    <tag k="addr:state" v="VT" />
    <tag k="ref:vcgi:esiteid" v="133499" />
  </node>
  <node id="-157" visible="true" lat="44.83850495" lon="-72.26042831">
    <tag k="addr:housenumber" v="3273" />
    <tag k="addr:street" v="U.S. Route 5" />
    <tag k="addr:state" v="VT" />
    <tag k="ref:vcgi:esiteid" v="133500" />
  </node>
  <node id="-158" visible="true" lat="44.83898337" lon="-72.25884557">
    <tag k="addr:housenumber" v="3232" />
    <tag k="addr:street" v="U.S. Route 5" />
    <tag k="addr:state" v="VT" />
    <tag k="ref:vcgi:esiteid" v="133501" />
  </node>
  <node id="-159" visible="true" lat="44.83863964" lon="-72.25923844">
    <tag k="addr:housenumber" v="3227" />
    <tag k="addr:street" v="U.S. Route 5" />
    <tag k="addr:state" v="VT" />
    <tag k="ref:vcgi:esiteid" v="133502" />
  </node>
  <node id="-160" visible="true" lat="44.83829991" lon="-72.25927218">
    <tag k="addr:housenumber" v="3225" />
    <tag k="addr:street" v="U.S. Route 5" />
    <tag k="addr:state" v="VT" />
    <tag k="ref:vcgi:esiteid" v="133503" />
  </node>
  <node id="-161" visible="true" lat="44.83830261" lon="-72.31167602">
    <tag k="addr:housenumber" v="1906" />
    <tag k="addr:street" v="Back Coventry Road" />
    <tag k="addr:state" v="VT" />
    <tag k="ref:vcgi:esiteid" v="133504" />
  </node>
  <node id="-162" visible="true" lat="44.83785454" lon="-72.25012837">
    <tag k="addr:housenumber" v="206" />
    <tag k="addr:street" v="Airport Road" />
    <tag k="addr:state" v="VT" />
    <tag k="ref:vcgi:esiteid" v="133505" />
  </node>
  <node id="-163" visible="true" lat="44.83751678" lon="-72.23252106">
    <tag k="addr:housenumber" v="851" />
    <tag k="addr:street" v="Cooks Road" />
    <tag k="addr:state" v="VT" />
    <tag k="ref:vcgi:esiteid" v="133506" />
  </node>
  <node id="-164" visible="true" lat="44.8368721" lon="-72.23056793">
    <tag k="addr:housenumber" v="948" />
    <tag k="addr:street" v="Cooks Road" />
    <tag k="addr:state" v="VT" />
    <tag k="ref:vcgi:esiteid" v="133507" />
  </node>
  <node id="-165" visible="true" lat="44.83656816" lon="-72.25177786">
    <tag k="addr:housenumber" v="95" />
    <tag k="addr:street" v="Airport Road" />
    <tag k="addr:state" v="VT" />
    <tag k="ref:vcgi:esiteid" v="133508" />
  </node>
  <node id="-166" visible="true" lat="44.83628764" lon="-72.31399845">
    <tag k="addr:housenumber" v="1743" />
    <tag k="addr:street" v="Back Coventry Road" />
    <tag k="addr:state" v="VT" />
    <tag k="ref:vcgi:esiteid" v="133509" />
  </node>
  <node id="-167" visible="true" lat="44.8355217" lon="-72.22060394">
    <tag k="addr:housenumber" v="676" />
    <tag k="addr:street" v="Bruneau Drive" />
    <tag k="addr:state" v="VT" />
    <tag k="ref:vcgi:esiteid" v="133510" />
  </node>
  <node id="-168" visible="true" lat="44.83542633" lon="-72.2210083">
    <tag k="addr:housenumber" v="658" />
    <tag k="addr:street" v="Bruneau Drive" />
    <tag k="addr:state" v="VT" />
    <tag k="ref:vcgi:esiteid" v="133511" />
  </node>
  <node id="-169" visible="true" lat="44.83517074" lon="-72.25276183">
    <tag k="addr:housenumber" v="2365" />
    <tag k="addr:street" v="Covered Bridge Road" />
    <tag k="addr:state" v="VT" />
    <tag k="ref:vcgi:esiteid" v="133512" />
  </node>
  <node id="-170" visible="true" lat="44.83536973" lon="-72.31903229">
    <tag k="addr:housenumber" v="310" />
    <tag k="addr:street" v="Piette Drive" />
    <tag k="addr:state" v="VT" />
    <tag k="ref:vcgi:esiteid" v="133513" />
  </node>
  <node id="-171" visible="true" lat="44.83570296" lon="-72.28483631">
    <tag k="addr:housenumber" v="369" />
    <tag k="addr:street" v="Leaf Hill Drive" />
    <tag k="addr:state" v="VT" />
    <tag k="ref:vcgi:esiteid" v="133514" />
  </node>
  <node id="-172" visible="true" lat="44.8351591" lon="-72.31992276">
    <tag k="addr:housenumber" v="329" />
    <tag k="addr:street" v="Piette Drive" />
    <tag k="addr:state" v="VT" />
    <tag k="ref:vcgi:esiteid" v="133515" />
  </node>
  <node id="-173" visible="true" lat="44.83459473" lon="-72.25125885">
    <tag k="addr:housenumber" v="2763" />
    <tag k="addr:street" v="U.S. Route 5" />
    <tag k="addr:state" v="VT" />
    <tag k="ref:vcgi:esiteid" v="133516" />
  </node>
  <node id="-174" visible="true" lat="44.83446326" lon="-72.31791359">
    <tag k="addr:housenumber" v="192" />
    <tag k="addr:street" v="Simino Lane" />
    <tag k="addr:state" v="VT" />
    <tag k="ref:vcgi:esiteid" v="133517" />
  </node>
  <node id="-175" visible="true" lat="44.83370377" lon="-72.2879268">
    <tag k="addr:housenumber" v="195" />
    <tag k="addr:street" v="Leaf Hill Drive" />
    <tag k="addr:state" v="VT" />
    <tag k="ref:vcgi:esiteid" v="133518" />
  </node>
  <node id="-176" visible="true" lat="44.83377109" lon="-72.32005706">
    <tag k="addr:housenumber" v="194" />
    <tag k="addr:street" v="Simino Lane" />
    <tag k="addr:state" v="VT" />
    <tag k="ref:vcgi:esiteid" v="133519" />
  </node>
  <node id="-177" visible="true" lat="44.83369324" lon="-72.31374326">
    <tag k="addr:housenumber" v="1560" />
    <tag k="addr:street" v="Back Coventry Road" />
    <tag k="addr:state" v="VT" />
    <tag k="ref:vcgi:esiteid" v="133520" />
  </node>
  <node id="-178" visible="true" lat="44.83291182" lon="-72.24926305">
    <tag k="addr:housenumber" v="2603" />
    <tag k="addr:street" v="U.S. Route 5" />
    <tag k="addr:state" v="VT" />
    <tag k="ref:vcgi:esiteid" v="133522" />
  </node>
  <node id="-179" visible="true" lat="44.83266127" lon="-72.24883603">
    <tag k="addr:housenumber" v="2579" />
    <tag k="addr:street" v="U.S. Route 5" />
    <tag k="addr:state" v="VT" />
    <tag k="ref:vcgi:esiteid" v="133523" />
  </node>
  <node id="-180" visible="true" lat="44.8324413" lon="-72.33301833">
    <tag k="addr:housenumber" v="1508" />
    <tag k="addr:street" v="Kidder Hill Ridge" />
    <tag k="addr:state" v="VT" />
    <tag k="ref:vcgi:esiteid" v="133524" />
  </node>
  <node id="-181" visible="true" lat="44.83184976" lon="-72.28535411">
    <tag k="addr:housenumber" v="124" />
    <tag k="addr:street" v="Leaf Hill Drive" />
    <tag k="addr:state" v="VT" />
    <tag k="ref:vcgi:esiteid" v="133525" />
  </node>
  <node id="-182" visible="true" lat="44.8317337" lon="-72.23297119">
    <tag k="addr:housenumber" v="551" />
    <tag k="addr:street" v="Cooks Road" />
    <tag k="addr:state" v="VT" />
    <tag k="ref:vcgi:esiteid" v="133526" />
  </node>
  <node id="-183" visible="true" lat="44.83184533" lon="-72.24647147">
    <tag k="addr:housenumber" v="2436" />
    <tag k="addr:street" v="U.S. Route 5" />
    <tag k="addr:state" v="VT" />
    <tag k="ref:vcgi:esiteid" v="133527" />
  </node>
  <node id="-184" visible="true" lat="44.83170319" lon="-72.23602295">
    <tag k="addr:housenumber" v="399" />
    <tag k="addr:street" v="Cooks Road" />
    <tag k="addr:state" v="VT" />
    <tag k="ref:vcgi:esiteid" v="133528" />
  </node>
  <node id="-185" visible="true" lat="44.83174896" lon="-72.29056549">
    <tag k="addr:housenumber" v="2313" />
    <tag k="addr:street" v="Vermont Route 14" />
    <tag k="addr:state" v="VT" />
    <tag k="ref:vcgi:esiteid" v="133529" />
  </node>
  <node id="-186" visible="true" lat="44.83146189" lon="-72.28698803">
    <tag k="addr:housenumber" v="122" />
    <tag k="addr:street" v="Leaf Hill Drive" />
    <tag k="addr:state" v="VT" />
    <tag k="ref:vcgi:esiteid" v="133530" />
  </node>
  <node id="-187" visible="true" lat="44.83144273" lon="-72.33300373">
    <tag k="addr:housenumber" v="1416" />
    <tag k="addr:street" v="Kidder Hill Ridge" />
    <tag k="addr:state" v="VT" />
    <tag k="ref:vcgi:esiteid" v="133531" />
  </node>
  <node id="-188" visible="true" lat="44.83134426" lon="-72.24607443">
    <tag k="addr:housenumber" v="2414" />
    <tag k="addr:street" v="U.S. Route 5" />
    <tag k="addr:state" v="VT" />
    <tag k="ref:vcgi:esiteid" v="133532" />
  </node>
  <node id="-189" visible="true" lat="44.83116596" lon="-72.33506126">
    <tag k="addr:housenumber" v="1329" />
    <tag k="addr:street" v="Kidder Hill Ridge" />
    <tag k="addr:state" v="VT" />
    <tag k="ref:vcgi:esiteid" v="133534" />
  </node>
  <node id="-190" visible="true" lat="44.83014969" lon="-72.33977341">
    <tag k="addr:housenumber" v="1007" />
    <tag k="addr:street" v="Kidder Hill Ridge" />
    <tag k="addr:state" v="VT" />
    <tag k="ref:vcgi:esiteid" v="133535" />
  </node>
  <node id="-191" visible="true" lat="44.82973119" lon="-72.24384717">
    <tag k="addr:housenumber" v="2250" />
    <tag k="addr:street" v="U.S. Route 5" />
    <tag k="addr:state" v="VT" />
    <tag k="ref:vcgi:esiteid" v="133536" />
  </node>
  <node id="-192" visible="true" lat="44.82972717" lon="-72.31118774">
    <tag k="addr:housenumber" v="1249" />
    <tag k="addr:street" v="Back Coventry Road" />
    <tag k="addr:state" v="VT" />
    <tag k="ref:vcgi:esiteid" v="133537" />
  </node>
  <node id="-193" visible="true" lat="44.82943726" lon="-72.24430084">
    <tag k="addr:housenumber" v="2259" />
    <tag k="addr:street" v="U.S. Route 5" />
    <tag k="addr:state" v="VT" />
    <tag k="ref:vcgi:esiteid" v="133538" />
  </node>
  <node id="-194" visible="true" lat="44.82946194" lon="-72.33452887">
    <tag k="addr:housenumber" v="1280" />
    <tag k="addr:street" v="Kidder Hill Ridge" />
    <tag k="addr:state" v="VT" />
    <tag k="ref:vcgi:esiteid" v="133539" />
  </node>
  <node id="-195" visible="true" lat="44.82946395" lon="-72.2878952">
    <tag k="addr:housenumber" v="2419" />
    <tag k="addr:street" v="Vermont Route 14" />
    <tag k="addr:state" v="VT" />
    <tag k="ref:vcgi:esiteid" v="133540" />
  </node>
  <node id="-196" visible="true" lat="44.82960064" lon="-72.34000736">
    <tag k="addr:housenumber" v="1000" />
    <tag k="addr:street" v="Kidder Hill Ridge" />
    <tag k="addr:state" v="VT" />
    <tag k="ref:vcgi:esiteid" v="133541" />
  </node>
  <node id="-197" visible="true" lat="44.82944198" lon="-72.33820577">
    <tag k="addr:housenumber" v="1082" />
    <tag k="addr:street" v="Kidder Hill Ridge" />
    <tag k="addr:state" v="VT" />
    <tag k="ref:vcgi:esiteid" v="133542" />
  </node>
  <node id="-198" visible="true" lat="44.82923889" lon="-72.30735778">
    <tag k="addr:housenumber" v="173" />
    <tag k="addr:street" v="Malshuk Drive" />
    <tag k="addr:state" v="VT" />
    <tag k="ref:vcgi:esiteid" v="133543" />
  </node>
  <node id="-199" visible="true" lat="44.82913589" lon="-72.31064605">
    <tag k="addr:housenumber" v="1199" />
    <tag k="addr:street" v="Back Coventry Road" />
    <tag k="addr:state" v="VT" />
    <tag k="ref:vcgi:esiteid" v="133544" />
  </node>
  <node id="-200" visible="true" lat="44.82795733" lon="-72.3236719">
    <tag k="addr:housenumber" v="668" />
    <tag k="addr:street" v="Simino Lane" />
    <tag k="addr:state" v="VT" />
    <tag k="ref:vcgi:esiteid" v="133545" />
  </node>
  <node id="-201" visible="true" lat="44.82782363" lon="-72.30722045">
    <tag k="addr:housenumber" v="98" />
    <tag k="addr:street" v="Malshuk Drive" />
    <tag k="addr:state" v="VT" />
    <tag k="ref:vcgi:esiteid" v="133546" />
  </node>
  <node id="-202" visible="true" lat="44.82659701" lon="-72.20239816">
    <tag k="addr:housenumber" v="358" />
    <tag k="addr:street" v="River Road" />
    <tag k="addr:state" v="VT" />
    <tag k="ref:vcgi:esiteid" v="133547" />
  </node>
  <node id="-203" visible="true" lat="44.82582783" lon="-72.29606288">
    <tag k="addr:housenumber" v="2742" />
    <tag k="addr:street" v="Vermont Route 14" />
    <tag k="addr:state" v="VT" />
    <tag k="ref:vcgi:esiteid" v="133548" />
  </node>
  <node id="-204" visible="true" lat="44.82591247" lon="-72.21049499">
    <tag k="addr:housenumber" v="743" />
    <tag k="addr:street" v="Stagecoach Lane" />
    <tag k="addr:state" v="VT" />
    <tag k="ref:vcgi:esiteid" v="133549" />
  </node>
  <node id="-205" visible="true" lat="44.82595062" lon="-72.25915527">
    <tag k="addr:housenumber" v="1647" />
    <tag k="addr:street" v="Covered Bridge Road" />
    <tag k="addr:state" v="VT" />
    <tag k="ref:vcgi:esiteid" v="133550" />
  </node>
  <node id="-206" visible="true" lat="44.82578482" lon="-72.23793309">
    <tag k="addr:housenumber" v="1859" />
    <tag k="addr:street" v="U.S. Route 5" />
    <tag k="addr:state" v="VT" />
    <tag k="ref:vcgi:esiteid" v="133551" />
  </node>
  <node id="-207" visible="true" lat="44.82586669" lon="-72.30709075">
    <tag k="addr:housenumber" v="916" />
    <tag k="addr:street" v="Back Coventry Road" />
    <tag k="addr:state" v="VT" />
    <tag k="ref:vcgi:esiteid" v="133552" />
  </node>
  <node id="-208" visible="true" lat="44.82548523" lon="-72.20904541">
    <tag k="addr:housenumber" v="831" />
    <tag k="addr:street" v="Stagecoach Lane" />
    <tag k="addr:state" v="VT" />
    <tag k="ref:vcgi:esiteid" v="133553" />
  </node>
  <node id="-209" visible="true" lat="44.82532501" lon="-72.2035141">
    <tag k="addr:housenumber" v="253" />
    <tag k="addr:street" v="River Road" />
    <tag k="addr:state" v="VT" />
    <tag k="ref:vcgi:esiteid" v="133554" />
  </node>
  <node id="-210" visible="true" lat="44.82532096" lon="-72.20379811">
    <tag k="addr:housenumber" v="245" />
    <tag k="addr:street" v="River Road" />
    <tag k="addr:state" v="VT" />
    <tag k="ref:vcgi:esiteid" v="133555" />
  </node>
  <node id="-211" visible="true" lat="44.82523727" lon="-72.23465729">
    <tag k="addr:housenumber" v="1696" />
    <tag k="addr:street" v="U.S. Route 5" />
    <tag k="addr:state" v="VT" />
    <tag k="ref:vcgi:esiteid" v="133556" />
  </node>
  <node id="-212" visible="true" lat="44.82507324" lon="-72.21160889">
    <tag k="addr:housenumber" v="679" />
    <tag k="addr:street" v="Stagecoach Lane" />
    <tag k="addr:state" v="VT" />
    <tag k="ref:vcgi:esiteid" v="133557" />
  </node>
  <node id="-213" visible="true" lat="44.82501553" lon="-72.29522885">
    <tag k="addr:housenumber" v="2826" />
    <tag k="addr:street" v="Vermont Route 14" />
    <tag k="addr:state" v="VT" />
    <tag k="ref:vcgi:esiteid" v="133558" />
  </node>
  <node id="-214" visible="true" lat="44.82489395" lon="-72.23349762">
    <tag k="addr:housenumber" v="1638" />
    <tag k="addr:street" v="U.S. Route 5" />
    <tag k="addr:state" v="VT" />
    <tag k="ref:vcgi:esiteid" v="133559" />
  </node>
  <node id="-215" visible="true" lat="44.82429886" lon="-72.21459961">
    <tag k="addr:housenumber" v="533" />
    <tag k="addr:street" v="Stagecoach Lane" />
    <tag k="addr:state" v="VT" />
    <tag k="ref:vcgi:esiteid" v="133560" />
  </node>
  <node id="-216" visible="true" lat="44.82449808" lon="-72.3476937">
    <tag k="addr:housenumber" v="429" />
    <tag k="addr:street" v="Kidder Hill Ridge" />
    <tag k="addr:state" v="VT" />
    <tag k="ref:vcgi:esiteid" v="133561" />
  </node>
  <node id="-217" visible="true" lat="44.82401657" lon="-72.21495819">
    <tag k="addr:housenumber" v="519" />
    <tag k="addr:street" v="Stagecoach Lane" />
    <tag k="addr:state" v="VT" />
    <tag k="ref:vcgi:esiteid" v="133562" />
  </node>
  <node id="-218" visible="true" lat="44.82376099" lon="-72.2299118">
    <tag k="addr:housenumber" v="1472" />
    <tag k="addr:street" v="U.S. Route 5" />
    <tag k="addr:state" v="VT" />
    <tag k="ref:vcgi:esiteid" v="133563" />
  </node>
  <node id="-219" visible="true" lat="44.82377421" lon="-72.23265941">
    <tag k="addr:housenumber" v="1563" />
    <tag k="addr:street" v="U.S. Route 5" />
    <tag k="addr:state" v="VT" />
    <tag k="ref:vcgi:esiteid" v="133564" />
  </node>
  <node id="-220" visible="true" lat="44.82373042" lon="-72.21609226">
    <tag k="addr:housenumber" v="463" />
    <tag k="addr:street" v="Stagecoach Lane" />
    <tag k="addr:state" v="VT" />
    <tag k="ref:vcgi:esiteid" v="133565" />
  </node>
  <node id="-221" visible="true" lat="44.82320785" lon="-72.20401001">
    <tag k="addr:housenumber" v="109" />
    <tag k="addr:street" v="River Road" />
    <tag k="addr:state" v="VT" />
    <tag k="ref:vcgi:esiteid" v="133566" />
  </node>
  <node id="-222" visible="true" lat="44.82322311" lon="-72.30490112">
    <tag k="addr:housenumber" v="704" />
    <tag k="addr:street" v="Back Coventry Road" />
    <tag k="addr:state" v="VT" />
    <tag k="ref:vcgi:esiteid" v="133567" />
  </node>
  <node id="-223" visible="true" lat="44.82282676" lon="-72.34857541">
    <tag k="addr:housenumber" v="306" />
    <tag k="addr:street" v="Kidder Hill Ridge" />
    <tag k="addr:state" v="VT" />
    <tag k="ref:vcgi:esiteid" v="133568" />
  </node>
  <node id="-224" visible="true" lat="44.82260647" lon="-72.35191465">
    <tag k="addr:housenumber" v="241" />
    <tag k="addr:street" v="Kidder Hill Ridge" />
    <tag k="addr:state" v="VT" />
    <tag k="ref:vcgi:esiteid" v="133569" />
  </node>
  <node id="-225" visible="true" lat="44.8221673" lon="-72.33940006">
    <tag k="addr:housenumber" v="376" />
    <tag k="addr:street" v="Stephenson Heights" />
    <tag k="addr:state" v="VT" />
    <tag k="ref:vcgi:esiteid" v="133570" />
  </node>
  <node id="-226" visible="true" lat="44.82190243" lon="-72.34054594">
    <tag k="addr:housenumber" v="329" />
    <tag k="addr:street" v="Stephenson Heights" />
    <tag k="addr:state" v="VT" />
    <tag k="ref:vcgi:esiteid" v="133571" />
  </node>
  <node id="-227" visible="true" lat="44.82151794" lon="-72.21894836">
    <tag k="addr:housenumber" v="259" />
    <tag k="addr:street" v="Stagecoach Lane" />
    <tag k="addr:state" v="VT" />
    <tag k="ref:vcgi:esiteid" v="133572" />
  </node>
  <node id="-228" visible="true" lat="44.8213059" lon="-72.26251585">
    <tag k="addr:housenumber" v="1282" />
    <tag k="addr:street" v="Covered Bridge Road" />
    <tag k="addr:state" v="VT" />
    <tag k="ref:vcgi:esiteid" v="133573" />
  </node>
  <node id="-229" visible="true" lat="44.82118225" lon="-72.22593689">
    <tag k="addr:housenumber" v="1187" />
    <tag k="addr:street" v="U.S. Route 5" />
    <tag k="addr:state" v="VT" />
    <tag k="ref:vcgi:esiteid" v="133574" />
  </node>
  <node id="-230" visible="true" lat="44.82117172" lon="-72.3186172">
    <tag k="addr:housenumber" v="502" />
    <tag k="addr:street" v="Sanville Drive" />
    <tag k="addr:state" v="VT" />
    <tag k="ref:vcgi:esiteid" v="133575" />
  </node>
  <node id="-231" visible="true" lat="44.82106787" lon="-72.26488892">
    <tag k="addr:housenumber" v="1179" />
    <tag k="addr:street" v="Covered Bridge Road" />
    <tag k="addr:state" v="VT" />
    <tag k="ref:vcgi:esiteid" v="133576" />
  </node>
  <node id="-232" visible="true" lat="44.81975173" lon="-72.31584167">
    <tag k="addr:housenumber" v="380" />
    <tag k="addr:street" v="Sanville Drive" />
    <tag k="addr:state" v="VT" />
    <tag k="ref:vcgi:esiteid" v="133577" />
  </node>
  <node id="-233" visible="true" lat="44.81972707" lon="-72.34040362">
    <tag k="addr:housenumber" v="248" />
    <tag k="addr:street" v="Stephenson Heights" />
    <tag k="addr:state" v="VT" />
    <tag k="ref:vcgi:esiteid" v="133578" />
  </node>
  <node id="-234" visible="true" lat="44.81957244" lon="-72.29552459">
    <tag k="addr:housenumber" v="3220" />
    <tag k="addr:street" v="Vermont Route 14" />
    <tag k="addr:state" v="VT" />
    <tag k="ref:vcgi:esiteid" v="133579" />
  </node>
  <node id="-235" visible="true" lat="44.81925582" lon="-72.29572296">
    <tag k="addr:housenumber" v="3234" />
    <tag k="addr:street" v="Vermont Route 14" />
    <tag k="addr:state" v="VT" />
    <tag k="ref:vcgi:esiteid" v="133580" />
  </node>
  <node id="-236" visible="true" lat="44.81907272" lon="-72.22214508">
    <tag k="addr:housenumber" v="27" />
    <tag k="addr:street" v="Stagecoach Lane" />
    <tag k="addr:state" v="VT" />
    <tag k="ref:vcgi:esiteid" v="133581" />
  </node>
  <node id="-237" visible="true" lat="44.81917953" lon="-72.29476928">
    <tag k="addr:housenumber" v="3237" />
    <tag k="addr:street" v="Vermont Route 14" />
    <tag k="addr:state" v="VT" />
    <tag k="ref:vcgi:esiteid" v="133582" />
  </node>
  <node id="-238" visible="true" lat="44.8191449" lon="-72.34054903">
    <tag k="addr:housenumber" v="162" />
    <tag k="addr:street" v="Stephenson Heights" />
    <tag k="addr:state" v="VT" />
    <tag k="ref:vcgi:esiteid" v="133583" />
  </node>
  <node id="-239" visible="true" lat="44.81901915" lon="-72.31670472">
    <tag k="addr:housenumber" v="315" />
    <tag k="addr:street" v="Sanville Drive" />
    <tag k="addr:state" v="VT" />
    <tag k="ref:vcgi:esiteid" v="133584" />
  </node>
  <node id="-240" visible="true" lat="44.81879806" lon="-72.22292328">
    <tag k="addr:housenumber" v="959" />
    <tag k="addr:street" v="U.S. Route 5" />
    <tag k="addr:state" v="VT" />
    <tag k="ref:vcgi:esiteid" v="133585" />
  </node>
  <node id="-241" visible="true" lat="44.81871806" lon="-72.22190586">
    <tag k="addr:housenumber" v="926" />
    <tag k="addr:street" v="U.S. Route 5" />
    <tag k="addr:state" v="VT" />
    <tag k="ref:vcgi:esiteid" v="133586" />
  </node>
  <node id="-242" visible="true" lat="44.81865604" lon="-72.22277751">
    <tag k="addr:housenumber" v="915" />
    <tag k="addr:street" v="U.S. Route 5" />
    <tag k="addr:state" v="VT" />
    <tag k="ref:vcgi:esiteid" v="133587" />
  </node>
  <node id="-243" visible="true" lat="44.81858825" lon="-72.30033111">
    <tag k="addr:housenumber" v="304" />
    <tag k="addr:street" v="Back Coventry Road" />
    <tag k="addr:state" v="VT" />
    <tag k="ref:vcgi:esiteid" v="133588" />
  </node>
  <node id="-244" visible="true" lat="44.81836004" lon="-72.32626274">
    <tag k="addr:housenumber" v="401" />
    <tag k="addr:street" v="Dupuis Drive" />
    <tag k="addr:state" v="VT" />
    <tag k="ref:vcgi:esiteid" v="133589" />
  </node>
  <node id="-245" visible="true" lat="44.8174112" lon="-72.22059275">
    <tag k="addr:housenumber" v="814" />
    <tag k="addr:street" v="U.S. Route 5" />
    <tag k="addr:state" v="VT" />
    <tag k="ref:vcgi:esiteid" v="133590" />
  </node>
  <node id="-246" visible="true" lat="44.81693649" lon="-72.33550262">
    <tag k="addr:housenumber" v="2100" />
    <tag k="addr:street" v="Vermont Route 58 West" />
    <tag k="addr:state" v="VT" />
    <tag k="ref:vcgi:esiteid" v="133591" />
  </node>
  <node id="-247" visible="true" lat="44.81684523" lon="-72.32706367">
    <tag k="addr:housenumber" v="297" />
    <tag k="addr:street" v="Dupuis Drive" />
    <tag k="addr:state" v="VT" />
    <tag k="ref:vcgi:esiteid" v="133592" />
  </node>
  <node id="-248" visible="true" lat="44.8157784" lon="-72.23970215">
    <tag k="addr:housenumber" v="781" />
    <tag k="addr:street" v="Guyette Drive" />
    <tag k="addr:state" v="VT" />
    <tag k="ref:vcgi:esiteid" v="133593" />
  </node>
  <node id="-249" visible="true" lat="44.81520177" lon="-72.29524558">
    <tag k="addr:housenumber" v="95" />
    <tag k="addr:street" v="Vermont Route 58 West" />
    <tag k="addr:state" v="VT" />
    <tag k="ref:vcgi:esiteid" v="133595" />
  </node>
  <node id="-250" visible="true" lat="44.81512348" lon="-72.31659505">
    <tag k="addr:housenumber" v="1042" />
    <tag k="addr:street" v="Vermont Route 58 West" />
    <tag k="addr:state" v="VT" />
    <tag k="ref:vcgi:esiteid" v="133596" />
  </node>
  <node id="-251" visible="true" lat="44.81529869" lon="-72.31293383">
    <tag k="addr:housenumber" v="900" />
    <tag k="addr:street" v="Vermont Route 58 West" />
    <tag k="addr:state" v="VT" />
    <tag k="ref:vcgi:esiteid" v="133597" />
  </node>
  <node id="-252" visible="true" lat="44.81492801" lon="-72.29360037">
    <tag k="addr:housenumber" v="3607" />
    <tag k="addr:street" v="Vermont Route 14" />
    <tag k="addr:state" v="VT" />
    <tag k="ref:vcgi:esiteid" v="133598" />
  </node>
  <node id="-253" visible="true" lat="44.8149147" lon="-72.33231353">
    <tag k="addr:housenumber" v="1899" />
    <tag k="addr:street" v="Vermont Route 58 West" />
    <tag k="addr:state" v="VT" />
    <tag k="ref:vcgi:esiteid" v="133599" />
  </node>
  <node id="-254" visible="true" lat="44.81460583" lon="-72.33037379">
    <tag k="addr:housenumber" v="1792" />
    <tag k="addr:street" v="Vermont Route 58 West" />
    <tag k="addr:state" v="VT" />
    <tag k="ref:vcgi:esiteid" v="133600" />
  </node>
  <node id="-255" visible="true" lat="44.81428886" lon="-72.30029775">
    <tag k="addr:housenumber" v="255" />
    <tag k="addr:street" v="Vermont Route 58 West" />
    <tag k="addr:state" v="VT" />
    <tag k="ref:vcgi:esiteid" v="133601" />
  </node>
  <node id="-256" visible="true" lat="44.81442021" lon="-72.32384656">
    <tag k="addr:housenumber" v="90" />
    <tag k="addr:street" v="Dupuis Drive" />
    <tag k="addr:state" v="VT" />
    <tag k="ref:vcgi:esiteid" v="133602" />
  </node>
  <node id="-257" visible="true" lat="44.81403854" lon="-72.31571041">
    <tag k="addr:housenumber" v="1047" />
    <tag k="addr:street" v="Vermont Route 58 West" />
    <tag k="addr:state" v="VT" />
    <tag k="ref:vcgi:esiteid" v="133603" />
  </node>
  <node id="-258" visible="true" lat="44.8135711" lon="-72.32195539">
    <tag k="addr:housenumber" v="1346" />
    <tag k="addr:street" v="Vermont Route 58 West" />
    <tag k="addr:state" v="VT" />
    <tag k="ref:vcgi:esiteid" v="133604" />
  </node>
  <node id="-259" visible="true" lat="44.81308746" lon="-72.216362">
    <tag k="addr:housenumber" v="486" />
    <tag k="addr:street" v="U.S. Route 5" />
    <tag k="addr:state" v="VT" />
    <tag k="ref:vcgi:esiteid" v="133605" />
  </node>
  <node id="-260" visible="true" lat="44.81305313" lon="-72.21829987">
    <tag k="addr:housenumber" v="494" />
    <tag k="addr:street" v="U.S. Route 5" />
    <tag k="addr:state" v="VT" />
    <tag k="ref:vcgi:esiteid" v="133606" />
  </node>
  <node id="-261" visible="true" lat="44.81295196" lon="-72.32295489">
    <tag k="addr:housenumber" v="1385" />
    <tag k="addr:street" v="Vermont Route 58 West" />
    <tag k="addr:state" v="VT" />
    <tag k="ref:vcgi:esiteid" v="133607" />
  </node>
  <node id="-262" visible="true" lat="44.81289291" lon="-72.33280944">
    <tag k="addr:housenumber" v="1941" />
    <tag k="addr:street" v="Vermont Route 58 West" />
    <tag k="addr:state" v="VT" />
    <tag k="ref:vcgi:esiteid" v="133608" />
  </node>
  <node id="-263" visible="true" lat="44.81289135" lon="-72.3237465">
    <tag k="addr:housenumber" v="1445" />
    <tag k="addr:street" v="Vermont Route 58 West" />
    <tag k="addr:state" v="VT" />
    <tag k="ref:vcgi:esiteid" v="133609" />
  </node>
  <node id="-264" visible="true" lat="44.81227123" lon="-72.32455058">
    <tag k="addr:housenumber" v="129" />
    <tag k="addr:street" v="Alexander Lane" />
    <tag k="addr:state" v="VT" />
    <tag k="ref:vcgi:esiteid" v="133610" />
  </node>
  <node id="-265" visible="true" lat="44.8117218" lon="-72.22621918">
    <tag k="addr:housenumber" v="409" />
    <tag k="addr:street" v="Ingalls Drive" />
    <tag k="addr:state" v="VT" />
    <tag k="ref:vcgi:esiteid" v="133611" />
  </node>
  <node id="-266" visible="true" lat="44.81175104" lon="-72.32815227">
    <tag k="addr:housenumber" v="186" />
    <tag k="addr:street" v="Alexander Lane" />
    <tag k="addr:state" v="VT" />
    <tag k="ref:vcgi:esiteid" v="133612" />
  </node>
  <node id="-267" visible="true" lat="44.81097562" lon="-72.21214906">
    <tag k="addr:housenumber" v="288" />
    <tag k="addr:street" v="Telephone Lane" />
    <tag k="addr:state" v="VT" />
    <tag k="ref:vcgi:esiteid" v="133613" />
  </node>
  <node id="-268" visible="true" lat="44.81105041" lon="-72.28786468">
    <tag k="addr:housenumber" v="3973" />
    <tag k="addr:street" v="Vermont Route 14" />
    <tag k="addr:state" v="VT" />
    <tag k="ref:vcgi:esiteid" v="133614" />
  </node>
  <node id="-269" visible="true" lat="44.81049154" lon="-72.28607903">
    <tag k="addr:housenumber" v="4093" />
    <tag k="addr:street" v="Vermont Route 14" />
    <tag k="addr:state" v="VT" />
    <tag k="ref:vcgi:esiteid" v="133615" />
  </node>
  <node id="-270" visible="true" lat="44.80958176" lon="-72.22715759">
    <tag k="addr:housenumber" v="255" />
    <tag k="addr:street" v="Ingalls Drive" />
    <tag k="addr:state" v="VT" />
    <tag k="ref:vcgi:esiteid" v="133616" />
  </node>
  <node id="-271" visible="true" lat="44.80962595" lon="-72.21248286">
    <tag k="addr:housenumber" v="181" />
    <tag k="addr:street" v="Telephone Lane" />
    <tag k="addr:state" v="VT" />
    <tag k="ref:vcgi:esiteid" v="133617" />
  </node>
  <node id="-272" visible="true" lat="44.80925669" lon="-72.23442876">
    <tag k="addr:housenumber" v="258" />
    <tag k="addr:street" v="Guyette Drive" />
    <tag k="addr:state" v="VT" />
    <tag k="ref:vcgi:esiteid" v="133618" />
  </node>
  <node id="-273" visible="true" lat="44.80959135" lon="-72.21290139">
    <tag k="addr:housenumber" v="163" />
    <tag k="addr:street" v="Telephone Lane" />
    <tag k="addr:state" v="VT" />
    <tag k="ref:vcgi:esiteid" v="133619" />
  </node>
  <node id="-274" visible="true" lat="44.80934524" lon="-72.22719574">
    <tag k="addr:housenumber" v="221" />
    <tag k="addr:street" v="Ingalls Drive" />
    <tag k="addr:state" v="VT" />
    <tag k="ref:vcgi:esiteid" v="133620" />
  </node>
  <node id="-275" visible="true" lat="44.80915352" lon="-72.21529566">
    <tag k="addr:housenumber" v="6" />
    <tag k="addr:street" v="Telephone Lane" />
    <tag k="addr:state" v="VT" />
    <tag k="ref:vcgi:esiteid" v="133621" />
  </node>
  <node id="-276" visible="true" lat="44.80930709" lon="-72.32624816">
    <tag k="addr:housenumber" v="335" />
    <tag k="addr:street" v="Alexander Lane" />
    <tag k="addr:state" v="VT" />
    <tag k="ref:vcgi:esiteid" v="133622" />
  </node>
  <node id="-277" visible="true" lat="44.80879782" lon="-72.22762593">
    <tag k="addr:housenumber" v="205" />
    <tag k="addr:street" v="Ingalls Drive" />
    <tag k="addr:state" v="VT" />
    <tag k="ref:vcgi:esiteid" v="133623" />
  </node>
  <node id="-278" visible="true" lat="44.80861801" lon="-72.21506632">
    <tag k="addr:housenumber" v="148" />
    <tag k="addr:street" v="U.S. Route 5" />
    <tag k="addr:state" v="VT" />
    <tag k="ref:vcgi:esiteid" v="133624" />
  </node>
  <node id="-279" visible="true" lat="44.80870819" lon="-72.28274536">
    <tag k="addr:housenumber" v="117" />
    <tag k="addr:street" v="Under The Hill Road" />
    <tag k="addr:state" v="VT" />
    <tag k="ref:vcgi:esiteid" v="133625" />
  </node>
  <node id="-280" visible="true" lat="44.80870896" lon="-72.28577405">
    <tag k="addr:housenumber" v="4161" />
    <tag k="addr:street" v="Vermont Route 14" />
    <tag k="addr:state" v="VT" />
    <tag k="ref:vcgi:esiteid" v="133626" />
  </node>
  <node id="-281" visible="true" lat="44.80818939" lon="-72.28559112">
    <tag k="addr:housenumber" v="17" />
    <tag k="addr:street" v="Under The Hill Road" />
    <tag k="addr:state" v="VT" />
    <tag k="ref:vcgi:esiteid" v="133627" />
  </node>
  <node id="-282" visible="true" lat="44.80810547" lon="-72.26927948">
    <tag k="addr:housenumber" v="182" />
    <tag k="addr:street" v="Covered Bridge Road" />
    <tag k="addr:state" v="VT" />
    <tag k="ref:vcgi:esiteid" v="133628" />
  </node>
  <node id="-283" visible="true" lat="44.80768651" lon="-72.22698563">
    <tag k="addr:housenumber" v="132" />
    <tag k="addr:street" v="Ingalls Drive" />
    <tag k="addr:state" v="VT" />
    <tag k="ref:vcgi:esiteid" v="133629" />
  </node>
  <node id="-284" visible="true" lat="44.80747425" lon="-72.21578265">
    <tag k="addr:housenumber" v="119" />
    <tag k="addr:street" v="U.S. Route 5" />
    <tag k="addr:state" v="VT" />
    <tag k="ref:vcgi:esiteid" v="133630" />
  </node>
  <node id="-285" visible="true" lat="44.80731809" lon="-72.22778212">
    <tag k="addr:housenumber" v="99" />
    <tag k="addr:street" v="Ingalls Drive" />
    <tag k="addr:state" v="VT" />
    <tag k="ref:vcgi:esiteid" v="133631" />
  </node>
  <node id="-286" visible="true" lat="44.80732039" lon="-72.21843503">
    <tag k="addr:housenumber" v="9" />
    <tag k="addr:street" v="McAllister Road" />
    <tag k="addr:state" v="VT" />
    <tag k="ref:vcgi:esiteid" v="133632" />
  </node>
  <node id="-287" visible="true" lat="44.80736775" lon="-72.21909039">
    <tag k="addr:housenumber" v="62" />
    <tag k="addr:street" v="McAllister Road" />
    <tag k="addr:state" v="VT" />
    <tag k="ref:vcgi:esiteid" v="133633" />
  </node>
  <node id="-288" visible="true" lat="44.80727386" lon="-72.28124237">
    <tag k="addr:housenumber" v="195" />
    <tag k="addr:street" v="Under The Hill Road" />
    <tag k="addr:state" v="VT" />
    <tag k="ref:vcgi:esiteid" v="133634" />
  </node>
  <node id="-289" visible="true" lat="44.80725924" lon="-72.28274522">
    <tag k="addr:housenumber" v="145" />
    <tag k="addr:street" v="Under The Hill Road" />
    <tag k="addr:state" v="VT" />
    <tag k="ref:vcgi:esiteid" v="133635" />
  </node>
  <node id="-290" visible="true" lat="44.80686483" lon="-72.26226856">
    <tag k="addr:housenumber" v="96" />
    <tag k="addr:street" v="Holy Moly Heights" />
    <tag k="addr:state" v="VT" />
    <tag k="ref:vcgi:esiteid" v="133636" />
  </node>
  <node id="-291" visible="true" lat="44.80707168" lon="-72.28067779">
    <tag k="addr:housenumber" v="285" />
    <tag k="addr:street" v="Under The Hill Road" />
    <tag k="addr:state" v="VT" />
    <tag k="ref:vcgi:esiteid" v="133637" />
  </node>
  <node id="-292" visible="true" lat="44.80653865" lon="-72.23241223">
    <tag k="addr:housenumber" v="60" />
    <tag k="addr:street" v="Guyette Drive" />
    <tag k="addr:state" v="VT" />
    <tag k="ref:vcgi:esiteid" v="133638" />
  </node>
  <node id="-293" visible="true" lat="44.80708758" lon="-72.28221117">
    <tag k="addr:housenumber" v="197" />
    <tag k="addr:street" v="Under The Hill Road" />
    <tag k="addr:state" v="VT" />
    <tag k="ref:vcgi:esiteid" v="133639" />
  </node>
  <node id="-294" visible="true" lat="44.80684447" lon="-72.22714506">
    <tag k="addr:housenumber" v="72" />
    <tag k="addr:street" v="Ingalls Drive" />
    <tag k="addr:state" v="VT" />
    <tag k="ref:vcgi:esiteid" v="133640" />
  </node>
  <node id="-295" visible="true" lat="44.80682986" lon="-72.27861331">
    <tag k="addr:housenumber" v="394" />
    <tag k="addr:street" v="Under The Hill Road" />
    <tag k="addr:state" v="VT" />
    <tag k="ref:vcgi:esiteid" v="133641" />
  </node>
  <node id="-296" visible="true" lat="44.80682373" lon="-72.26918029">
    <tag k="addr:housenumber" v="106" />
    <tag k="addr:street" v="Covered Bridge Road" />
    <tag k="addr:state" v="VT" />
    <tag k="ref:vcgi:esiteid" v="133642" />
  </node>
  <node id="-297" visible="true" lat="44.80673316" lon="-72.21898054">
    <tag k="addr:housenumber" v="96" />
    <tag k="addr:street" v="McAllister Road" />
    <tag k="addr:state" v="VT" />
    <tag k="ref:vcgi:esiteid" v="133643" />
  </node>
  <node id="-298" visible="true" lat="44.80675424" lon="-72.22267219">
    <tag k="addr:housenumber" v="2963" />
    <tag k="addr:street" v="Vermont Route 58 East" />
    <tag k="addr:state" v="VT" />
    <tag k="ref:vcgi:esiteid" v="133644" />
  </node>
  <node id="-299" visible="true" lat="44.80665106" lon="-72.28134611">
    <tag k="addr:housenumber" v="274" />
    <tag k="addr:street" v="Under The Hill Road" />
    <tag k="addr:state" v="VT" />
    <tag k="ref:vcgi:esiteid" v="133645" />
  </node>
  <node id="-300" visible="true" lat="44.80649185" lon="-72.22884369">
    <tag k="addr:housenumber" v="2671" />
    <tag k="addr:street" v="Vermont Route 58 East" />
    <tag k="addr:state" v="VT" />
    <tag k="ref:vcgi:esiteid" v="133647" />
  </node>
  <node id="-301" visible="true" lat="44.80644226" lon="-72.22893524">
    <tag k="addr:housenumber" v="2667" />
    <tag k="addr:street" v="Vermont Route 58 East" />
    <tag k="addr:state" v="VT" />
    <tag k="ref:vcgi:esiteid" v="133648" />
  </node>
  <node id="-302" visible="true" lat="44.80656238" lon="-72.22374391">
    <tag k="addr:housenumber" v="2907" />
    <tag k="addr:street" v="Vermont Route 58 East" />
    <tag k="addr:state" v="VT" />
    <tag k="ref:vcgi:esiteid" v="133649" />
  </node>
  <node id="-303" visible="true" lat="44.8061696" lon="-72.23304373">
    <tag k="addr:housenumber" v="105" />
    <tag k="addr:street" v="Guyette Drive" />
    <tag k="addr:state" v="VT" />
    <tag k="ref:vcgi:esiteid" v="133650" />
  </node>
  <node id="-304" visible="true" lat="44.80602264" lon="-72.28489685">
    <tag k="addr:housenumber" v="4328" />
    <tag k="addr:street" v="Vermont Route 14" />
    <tag k="addr:state" v="VT" />
    <tag k="ref:vcgi:esiteid" v="133651" />
  </node>
  <node id="-305" visible="true" lat="44.8063596" lon="-72.25167626">
    <tag k="addr:housenumber" v="75" />
    <tag k="addr:street" v="Coderre Hill" />
    <tag k="addr:state" v="VT" />
    <tag k="ref:vcgi:esiteid" v="133652" />
  </node>
  <node id="-306" visible="true" lat="44.8060227" lon="-72.28298278">
    <tag k="addr:housenumber" v="4409" />
    <tag k="addr:street" v="Vermont Route 14" />
    <tag k="addr:state" v="VT" />
    <tag k="ref:vcgi:esiteid" v="133653" />
  </node>
  <node id="-307" visible="true" lat="44.80581665" lon="-72.2802658">
    <tag k="addr:housenumber" v="68" />
    <tag k="addr:street" v="Mill Road" />
    <tag k="addr:state" v="VT" />
    <tag k="ref:vcgi:esiteid" v="133654" />
  </node>
  <node id="-308" visible="true" lat="44.80578231" lon="-72.27755737">
    <tag k="addr:housenumber" v="503" />
    <tag k="addr:street" v="Under The Hill Road" />
    <tag k="addr:state" v="VT" />
    <tag k="ref:vcgi:esiteid" v="133655" />
  </node>
  <node id="-309" visible="true" lat="44.80578713" lon="-72.23232336">
    <tag k="addr:housenumber" v="2461" />
    <tag k="addr:street" v="Vermont Route 58 East" />
    <tag k="addr:state" v="VT" />
    <tag k="ref:vcgi:esiteid" v="133656" />
  </node>
  <node id="-310" visible="true" lat="44.80446224" lon="-72.26795818">
    <tag k="addr:housenumber" v="610" />
    <tag k="addr:street" v="Vermont Route 58 East" />
    <tag k="addr:state" v="VT" />
    <tag k="ref:vcgi:esiteid" v="133657" />
  </node>
  <node id="-311" visible="true" lat="44.80571395" lon="-72.28234688">
    <tag k="addr:housenumber" v="4441" />
    <tag k="addr:street" v="Vermont Route 14" />
    <tag k="addr:state" v="VT" />
    <tag k="ref:vcgi:esiteid" v="133658" />
  </node>
  <node id="-312" visible="true" lat="44.80535665" lon="-72.28266007">
    <tag k="addr:housenumber" v="4442" />
    <tag k="addr:street" v="Vermont Route 14" />
    <tag k="addr:state" v="VT" />
    <tag k="ref:vcgi:esiteid" v="133659" />
  </node>
  <node id="-313" visible="true" lat="44.80530548" lon="-72.24089813">
    <tag k="addr:housenumber" v="2035" />
    <tag k="addr:street" v="Vermont Route 58 East" />
    <tag k="addr:state" v="VT" />
    <tag k="ref:vcgi:esiteid" v="133660" />
  </node>
  <node id="-314" visible="true" lat="44.80532087" lon="-72.25353122">
    <tag k="addr:housenumber" v="1409" />
    <tag k="addr:street" v="Vermont Route 58 East" />
    <tag k="addr:state" v="VT" />
    <tag k="ref:vcgi:esiteid" v="133661" />
  </node>
  <node id="-315" visible="true" lat="44.80536288" lon="-72.27664998">
    <tag k="addr:housenumber" v="543" />
    <tag k="addr:street" v="Under The Hill Road" />
    <tag k="addr:state" v="VT" />
    <tag k="ref:vcgi:esiteid" v="133662" />
  </node>
  <node id="-316" visible="true" lat="44.8052125" lon="-72.28039088">
    <tag k="addr:housenumber" v="4565" />
    <tag k="addr:street" v="Vermont Route 14" />
    <tag k="addr:state" v="VT" />
    <tag k="ref:vcgi:esiteid" v="133663" />
  </node>
  <node id="-317" visible="true" lat="44.80517196" lon="-72.28216552">
    <tag k="addr:housenumber" v="4472" />
    <tag k="addr:street" v="Vermont Route 14" />
    <tag k="addr:state" v="VT" />
    <tag k="ref:vcgi:esiteid" v="133664" />
  </node>
  <node id="-318" visible="true" lat="44.80501707" lon="-72.28188803">
    <tag k="addr:housenumber" v="4488" />
    <tag k="addr:street" v="Vermont Route 14" />
    <tag k="addr:state" v="VT" />
    <tag k="ref:vcgi:esiteid" v="133665" />
  </node>
  <node id="-319" visible="true" lat="44.80497742" lon="-72.24252319">
    <tag k="addr:housenumber" v="1973" />
    <tag k="addr:street" v="Vermont Route 58 East" />
    <tag k="addr:state" v="VT" />
    <tag k="ref:vcgi:esiteid" v="133666" />
  </node>
  <node id="-320" visible="true" lat="44.80482024" lon="-72.28153702">
    <tag k="addr:housenumber" v="4506" />
    <tag k="addr:street" v="Vermont Route 14" />
    <tag k="addr:state" v="VT" />
    <tag k="ref:vcgi:esiteid" v="133667" />
  </node>
  <node id="-321" visible="true" lat="44.8048019" lon="-72.27940025">
    <tag k="addr:housenumber" v="4595" />
    <tag k="addr:street" v="Vermont Route 14" />
    <tag k="addr:state" v="VT" />
    <tag k="ref:vcgi:esiteid" v="133668" />
  </node>
  <node id="-322" visible="true" lat="44.80464813" lon="-72.28080446">
    <tag k="addr:housenumber" v="4534" />
    <tag k="addr:street" v="Vermont Route 14" />
    <tag k="addr:state" v="VT" />
    <tag k="ref:vcgi:esiteid" v="133669" />
  </node>
  <node id="-323" visible="true" lat="44.80402805" lon="-72.28108977">
    <tag k="addr:housenumber" v="4568" />
    <tag k="addr:street" v="Vermont Route 14" />
    <tag k="addr:state" v="VT" />
    <tag k="ref:vcgi:esiteid" v="133670" />
  </node>
  <node id="-324" visible="true" lat="44.80440583" lon="-72.28008993">
    <tag k="addr:housenumber" v="4572" />
    <tag k="addr:street" v="Vermont Route 14" />
    <tag k="addr:state" v="VT" />
    <tag k="ref:vcgi:esiteid" v="133671" />
  </node>
  <node id="-325" visible="true" lat="44.80445211" lon="-72.27297398">
    <tag k="addr:housenumber" v="340" />
    <tag k="addr:street" v="Vermont Route 58 East" />
    <tag k="addr:state" v="VT" />
    <tag k="ref:vcgi:esiteid" v="133672" />
  </node>
  <node id="-326" visible="true" lat="44.80414871" lon="-72.27948667">
    <tag k="addr:housenumber" v="4624" />
    <tag k="addr:street" v="Vermont Route 14" />
    <tag k="addr:state" v="VT" />
    <tag k="ref:vcgi:esiteid" v="133673" />
  </node>
  <node id="-327" visible="true" lat="44.80428769" lon="-72.27402531">
    <tag k="addr:housenumber" v="299" />
    <tag k="addr:street" v="Vermont Route 58 East" />
    <tag k="addr:state" v="VT" />
    <tag k="ref:vcgi:esiteid" v="133674" />
  </node>
  <node id="-328" visible="true" lat="44.80418199" lon="-72.2788436">
    <tag k="addr:housenumber" v="4629" />
    <tag k="addr:street" v="Vermont Route 14" />
    <tag k="addr:state" v="VT" />
    <tag k="ref:vcgi:esiteid" v="133675" />
  </node>
  <node id="-329" visible="true" lat="44.8040657" lon="-72.24527741">
    <tag k="addr:housenumber" v="1791" />
    <tag k="addr:street" v="Vermont Route 58 East" />
    <tag k="addr:state" v="VT" />
    <tag k="ref:vcgi:esiteid" v="133676" />
  </node>
  <node id="-330" visible="true" lat="44.80407138" lon="-72.27979286">
    <tag k="addr:housenumber" v="4622" />
    <tag k="addr:street" v="Vermont Route 14" />
    <tag k="addr:state" v="VT" />
    <tag k="ref:vcgi:esiteid" v="133677" />
  </node>
  <node id="-331" visible="true" lat="44.80413334" lon="-72.22896614">
    <tag k="addr:housenumber" v="1847" />
    <tag k="addr:street" v="Lake Region Road" />
    <tag k="addr:state" v="VT" />
    <tag k="ref:vcgi:esiteid" v="133678" />
  </node>
  <node id="-332" visible="true" lat="44.80389404" lon="-72.27397155">
    <tag k="addr:housenumber" v="288" />
    <tag k="addr:street" v="Vermont Route 58 East" />
    <tag k="addr:state" v="VT" />
    <tag k="ref:vcgi:esiteid" v="133679" />
  </node>
  <node id="-333" visible="true" lat="44.80388259" lon="-72.27495574">
    <tag k="addr:housenumber" v="251" />
    <tag k="addr:street" v="Vermont Route 58 East" />
    <tag k="addr:state" v="VT" />
    <tag k="ref:vcgi:esiteid" v="133680" />
  </node>
  <node id="-334" visible="true" lat="44.80394575" lon="-72.27891496">
    <tag k="addr:housenumber" v="4645" />
    <tag k="addr:street" v="Vermont Route 14" />
    <tag k="addr:state" v="VT" />
    <tag k="ref:vcgi:esiteid" v="133681" />
  </node>
  <node id="-335" visible="true" lat="44.80371307" lon="-72.27903411">
    <tag k="addr:housenumber" v="4659" />
    <tag k="addr:street" v="Vermont Route 14" />
    <tag k="addr:state" v="VT" />
    <tag k="ref:vcgi:esiteid" v="133682" />
  </node>
  <node id="-336" visible="true" lat="44.80362701" lon="-72.2795639">
    <tag k="addr:housenumber" v="4662" />
    <tag k="addr:street" v="Vermont Route 14" />
    <tag k="addr:state" v="VT" />
    <tag k="ref:vcgi:esiteid" v="133683" />
  </node>
  <node id="-337" visible="true" lat="44.80364627" lon="-72.27281264">
    <tag k="addr:housenumber" v="292" />
    <tag k="addr:street" v="Vermont Route 58 East" />
    <tag k="addr:state" v="VT" />
    <tag k="ref:vcgi:esiteid" v="133684" />
  </node>
  <node id="-338" visible="true" lat="44.80372854" lon="-72.27819933">
    <tag k="addr:housenumber" v="45" />
    <tag k="addr:street" v="Vermont Route 58 East" />
    <tag k="addr:state" v="VT" />
    <tag k="ref:vcgi:esiteid" v="133685" />
  </node>
  <node id="-339" visible="true" lat="44.80366928" lon="-72.27643728">
    <tag k="addr:housenumber" v="161" />
    <tag k="addr:street" v="Vermont Route 58 East" />
    <tag k="addr:state" v="VT" />
    <tag k="ref:vcgi:esiteid" v="133686" />
  </node>
  <node id="-340" visible="true" lat="44.80366655" lon="-72.27602025">
    <tag k="addr:housenumber" v="217" />
    <tag k="addr:street" v="Vermont Route 58 East" />
    <tag k="addr:state" v="VT" />
    <tag k="ref:vcgi:esiteid" v="133687" />
  </node>
  <node id="-341" visible="true" lat="44.80329895" lon="-72.22711181">
    <tag k="addr:housenumber" v="1731" />
    <tag k="addr:street" v="Lake Region Road" />
    <tag k="addr:state" v="VT" />
    <tag k="ref:vcgi:esiteid" v="133688" />
  </node>
  <node id="-342" visible="true" lat="44.80341934" lon="-72.2746394">
    <tag k="addr:housenumber" v="238" />
    <tag k="addr:street" v="Vermont Route 58 East" />
    <tag k="addr:state" v="VT" />
    <tag k="ref:vcgi:esiteid" v="133689" />
  </node>
  <node id="-343" visible="true" lat="44.80349601" lon="-72.27671019">
    <tag k="addr:housenumber" v="147" />
    <tag k="addr:street" v="Vermont Route 58 East" />
    <tag k="addr:state" v="VT" />
    <tag k="ref:vcgi:esiteid" v="133690" />
  </node>
  <node id="-344" visible="true" lat="44.80344784" lon="-72.27859072">
    <tag k="addr:housenumber" v="35" />
    <tag k="addr:street" v="Vermont Route 58 East" />
    <tag k="addr:state" v="VT" />
    <tag k="ref:vcgi:esiteid" v="133691" />
  </node>
  <node id="-345" visible="true" lat="44.80329836" lon="-72.27831611">
    <tag k="addr:housenumber" v="49" />
    <tag k="addr:street" v="Vermont Route 58 East" />
    <tag k="addr:state" v="VT" />
    <tag k="ref:vcgi:esiteid" v="133692" />
  </node>
  <node id="-346" visible="true" lat="44.80337089" lon="-72.27690063">
    <tag k="addr:housenumber" v="135" />
    <tag k="addr:street" v="Vermont Route 58 East" />
    <tag k="addr:state" v="VT" />
    <tag k="ref:vcgi:esiteid" v="133693" />
  </node>
  <node id="-347" visible="true" lat="44.80328769" lon="-72.27782491">
    <tag k="addr:housenumber" v="77" />
    <tag k="addr:street" v="Vermont Route 58 East" />
    <tag k="addr:state" v="VT" />
    <tag k="ref:vcgi:esiteid" v="133694" />
  </node>
  <node id="-348" visible="true" lat="44.80305099" lon="-72.2800827">
    <tag k="addr:housenumber" v="4714" />
    <tag k="addr:street" v="Vermont Route 14" />
    <tag k="addr:state" v="VT" />
    <tag k="ref:vcgi:esiteid" v="133695" />
  </node>
  <node id="-349" visible="true" lat="44.80291442" lon="-72.27655235">
    <tag k="addr:housenumber" v="134" />
    <tag k="addr:street" v="Vermont Route 58 East" />
    <tag k="addr:state" v="VT" />
    <tag k="ref:vcgi:esiteid" v="133696" />
  </node>
  <node id="-350" visible="true" lat="44.80276444" lon="-72.27810947">
    <tag k="addr:housenumber" v="130" />
    <tag k="addr:street" v="Park Avenue" />
    <tag k="addr:state" v="VT" />
    <tag k="ref:vcgi:esiteid" v="133697" />
  </node>
  <node id="-351" visible="true" lat="44.80269622" lon="-72.27918243">
    <tag k="addr:housenumber" v="105" />
    <tag k="addr:street" v="Park Avenue" />
    <tag k="addr:state" v="VT" />
    <tag k="ref:vcgi:esiteid" v="133698" />
  </node>
  <node id="-352" visible="true" lat="44.80280703" lon="-72.27760262">
    <tag k="addr:housenumber" v="84" />
    <tag k="addr:street" v="Vermont Route 58 East" />
    <tag k="addr:state" v="VT" />
    <tag k="ref:vcgi:esiteid" v="133699" />
  </node>
  <node id="-353" visible="true" lat="44.80258599" lon="-72.28036516">
    <tag k="addr:housenumber" v="4752" />
    <tag k="addr:street" v="Vermont Route 14" />
    <tag k="addr:state" v="VT" />
    <tag k="ref:vcgi:esiteid" v="133700" />
  </node>
  <node id="-354" visible="true" lat="44.80245971" lon="-72.22647094">
    <tag k="addr:housenumber" v="1663" />
    <tag k="addr:street" v="Lake Region Road" />
    <tag k="addr:state" v="VT" />
    <tag k="ref:vcgi:esiteid" v="133701" />
  </node>
  <node id="-355" visible="true" lat="44.80258896" lon="-72.27817813">
    <tag k="addr:housenumber" v="118" />
    <tag k="addr:street" v="Park Avenue" />
    <tag k="addr:state" v="VT" />
    <tag k="ref:vcgi:esiteid" v="133702" />
  </node>
  <node id="-356" visible="true" lat="44.80204648" lon="-72.22509298">
    <tag k="addr:housenumber" v="1626" />
    <tag k="addr:street" v="Lake Region Road" />
    <tag k="addr:state" v="VT" />
    <tag k="ref:vcgi:esiteid" v="133703" />
  </node>
  <node id="-357" visible="true" lat="44.80208572" lon="-72.27845004">
    <tag k="addr:housenumber" v="94" />
    <tag k="addr:street" v="Park Avenue" />
    <tag k="addr:state" v="VT" />
    <tag k="ref:vcgi:esiteid" v="133704" />
  </node>
  <node id="-358" visible="true" lat="44.80207844" lon="-72.27994575">
    <tag k="addr:housenumber" v="10" />
    <tag k="addr:street" v="Park Avenue" />
    <tag k="addr:state" v="VT" />
    <tag k="ref:vcgi:esiteid" v="133705" />
  </node>
  <node id="-359" visible="true" lat="44.80196703" lon="-72.27966771">
    <tag k="addr:housenumber" v="26" />
    <tag k="addr:street" v="Park Avenue" />
    <tag k="addr:state" v="VT" />
    <tag k="ref:vcgi:esiteid" v="133706" />
  </node>
  <node id="-360" visible="true" lat="44.80189758" lon="-72.2794675">
    <tag k="addr:housenumber" v="30" />
    <tag k="addr:street" v="Park Avenue" />
    <tag k="addr:state" v="VT" />
    <tag k="ref:vcgi:esiteid" v="133707" />
  </node>
  <node id="-361" visible="true" lat="44.80183529" lon="-72.28091925">
    <tag k="addr:housenumber" v="4808" />
    <tag k="addr:street" v="Vermont Route 14" />
    <tag k="addr:state" v="VT" />
    <tag k="ref:vcgi:esiteid" v="133708" />
  </node>
  <node id="-362" visible="true" lat="44.80177394" lon="-72.27842333">
    <tag k="addr:housenumber" v="66" />
    <tag k="addr:street" v="Park Avenue" />
    <tag k="addr:state" v="VT" />
    <tag k="ref:vcgi:esiteid" v="133709" />
  </node>
  <node id="-363" visible="true" lat="44.8018031" lon="-72.27935329">
    <tag k="addr:housenumber" v="46" />
    <tag k="addr:street" v="Park Avenue" />
    <tag k="addr:state" v="VT" />
    <tag k="ref:vcgi:esiteid" v="133710" />
  </node>
  <node id="-364" visible="true" lat="44.80187867" lon="-72.27857286">
    <tag k="addr:housenumber" v="64" />
    <tag k="addr:street" v="Park Avenue" />
    <tag k="addr:state" v="VT" />
    <tag k="ref:vcgi:esiteid" v="133711" />
  </node>
  <node id="-365" visible="true" lat="44.8015776" lon="-72.28035676">
    <tag k="addr:housenumber" v="4811" />
    <tag k="addr:street" v="Vermont Route 14" />
    <tag k="addr:state" v="VT" />
    <tag k="ref:vcgi:esiteid" v="133712" />
  </node>
  <node id="-366" visible="true" lat="44.80160391" lon="-72.27836312">
    <tag k="addr:housenumber" v="29" />
    <tag k="addr:street" v="Creek Road" />
    <tag k="addr:state" v="VT" />
    <tag k="ref:vcgi:esiteid" v="133713" />
  </node>
  <node id="-367" visible="true" lat="44.80141821" lon="-72.27853367">
    <tag k="addr:housenumber" v="49" />
    <tag k="addr:street" v="Creek Road" />
    <tag k="addr:state" v="VT" />
    <tag k="ref:vcgi:esiteid" v="133714" />
  </node>
  <node id="-368" visible="true" lat="44.80134748" lon="-72.27944312">
    <tag k="addr:housenumber" v="42" />
    <tag k="addr:street" v="Creek Road" />
    <tag k="addr:state" v="VT" />
    <tag k="ref:vcgi:esiteid" v="133715" />
  </node>
  <node id="-369" visible="true" lat="44.80123519" lon="-72.28157043">
    <tag k="addr:housenumber" v="4862" />
    <tag k="addr:street" v="Vermont Route 14" />
    <tag k="addr:state" v="VT" />
    <tag k="ref:vcgi:esiteid" v="133716" />
  </node>
  <node id="-370" visible="true" lat="44.80112989" lon="-72.27855992">
    <tag k="addr:housenumber" v="57" />
    <tag k="addr:street" v="Creek Road" />
    <tag k="addr:state" v="VT" />
    <tag k="ref:vcgi:esiteid" v="133717" />
  </node>
  <node id="-371" visible="true" lat="44.80099177" lon="-72.27942025">
    <tag k="addr:housenumber" v="60" />
    <tag k="addr:street" v="Creek Road" />
    <tag k="addr:state" v="VT" />
    <tag k="ref:vcgi:esiteid" v="133718" />
  </node>
  <node id="-372" visible="true" lat="44.80094166" lon="-72.28094672">
    <tag k="addr:housenumber" v="4863" />
    <tag k="addr:street" v="Vermont Route 14" />
    <tag k="addr:state" v="VT" />
    <tag k="ref:vcgi:esiteid" v="133719" />
  </node>
  <node id="-373" visible="true" lat="44.80069878" lon="-72.27945475">
    <tag k="addr:housenumber" v="70" />
    <tag k="addr:street" v="Creek Road" />
    <tag k="addr:state" v="VT" />
    <tag k="ref:vcgi:esiteid" v="133720" />
  </node>
  <node id="-374" visible="true" lat="44.80082718" lon="-72.27858861">
    <tag k="addr:housenumber" v="81" />
    <tag k="addr:street" v="Creek Road" />
    <tag k="addr:state" v="VT" />
    <tag k="ref:vcgi:esiteid" v="133721" />
  </node>
  <node id="-375" visible="true" lat="44.80052185" lon="-72.28227233">
    <tag k="addr:housenumber" v="4922" />
    <tag k="addr:street" v="Vermont Route 14" />
    <tag k="addr:state" v="VT" />
    <tag k="ref:vcgi:esiteid" v="133722" />
  </node>
  <node id="-376" visible="true" lat="44.80007095" lon="-72.2827269">
    <tag k="addr:housenumber" v="4952" />
    <tag k="addr:street" v="Vermont Route 14" />
    <tag k="addr:state" v="VT" />
    <tag k="ref:vcgi:esiteid" v="133723" />
  </node>
  <node id="-377" visible="true" lat="44.80013656" lon="-72.27887725">
    <tag k="addr:housenumber" v="5830" />
    <tag k="addr:street" v="Burton Hill Road" />
    <tag k="addr:state" v="VT" />
    <tag k="ref:vcgi:esiteid" v="133724" />
  </node>
  <node id="-378" visible="true" lat="44.79984275" lon="-72.28184543">
    <tag k="addr:housenumber" v="4943" />
    <tag k="addr:street" v="Vermont Route 14" />
    <tag k="addr:state" v="VT" />
    <tag k="ref:vcgi:esiteid" v="133725" />
  </node>
  <node id="-379" visible="true" lat="44.79989242" lon="-72.27883911">
    <tag k="addr:housenumber" v="5824" />
    <tag k="addr:street" v="Burton Hill Road" />
    <tag k="addr:state" v="VT" />
    <tag k="ref:vcgi:esiteid" v="133726" />
  </node>
  <node id="-380" visible="true" lat="44.79990604" lon="-72.2799924">
    <tag k="addr:housenumber" v="150" />
    <tag k="addr:street" v="Creek Road" />
    <tag k="addr:state" v="VT" />
    <tag k="ref:vcgi:esiteid" v="133727" />
  </node>
  <node id="-381" visible="true" lat="44.7995224" lon="-72.27681732">
    <tag k="addr:housenumber" v="5810" />
    <tag k="addr:street" v="Burton Hill Road" />
    <tag k="addr:state" v="VT" />
    <tag k="ref:vcgi:esiteid" v="133728" />
  </node>
  <node id="-382" visible="true" lat="44.79936599" lon="-72.27939605">
    <tag k="addr:housenumber" v="175" />
    <tag k="addr:street" v="Creek Road" />
    <tag k="addr:state" v="VT" />
    <tag k="ref:vcgi:esiteid" v="133729" />
  </node>
  <node id="-383" visible="true" lat="44.79867785" lon="-72.22308721">
    <tag k="addr:housenumber" v="1386" />
    <tag k="addr:street" v="Lake Region Road" />
    <tag k="addr:state" v="VT" />
    <tag k="ref:vcgi:esiteid" v="133730" />
  </node>
  <node id="-384" visible="true" lat="44.79873417" lon="-72.22070126">
    <tag k="addr:housenumber" v="1362" />
    <tag k="addr:street" v="Lake Region Road" />
    <tag k="addr:state" v="VT" />
    <tag k="ref:vcgi:esiteid" v="133731" />
  </node>
  <node id="-385" visible="true" lat="44.79888534" lon="-72.27851104">
    <tag k="addr:housenumber" v="5746" />
    <tag k="addr:street" v="Burton Hill Road" />
    <tag k="addr:state" v="VT" />
    <tag k="ref:vcgi:esiteid" v="133732" />
  </node>
  <node id="-386" visible="true" lat="44.7984398" lon="-72.22445907">
    <tag k="addr:housenumber" v="1393" />
    <tag k="addr:street" v="Lake Region Road" />
    <tag k="addr:state" v="VT" />
    <tag k="ref:vcgi:esiteid" v="133733" />
  </node>
  <node id="-387" visible="true" lat="44.79800677" lon="-72.22313428">
    <tag k="addr:housenumber" v="1340" />
    <tag k="addr:street" v="Lake Region Road" />
    <tag k="addr:state" v="VT" />
    <tag k="ref:vcgi:esiteid" v="133734" />
  </node>
  <node id="-388" visible="true" lat="44.79777928" lon="-72.22231801">
    <tag k="addr:housenumber" v="1364" />
    <tag k="addr:street" v="Lake Region Road" />
    <tag k="addr:state" v="VT" />
    <tag k="ref:vcgi:esiteid" v="133735" />
  </node>
  <node id="-389" visible="true" lat="44.79801559" lon="-72.27983178">
    <tag k="addr:housenumber" v="263" />
    <tag k="addr:street" v="Creek Road" />
    <tag k="addr:state" v="VT" />
    <tag k="ref:vcgi:esiteid" v="133736" />
  </node>
  <node id="-390" visible="true" lat="44.7973167" lon="-72.2267555">
    <tag k="addr:housenumber" v="1215" />
    <tag k="addr:street" v="Lake Region Road" />
    <tag k="addr:state" v="VT" />
    <tag k="ref:vcgi:esiteid" v="133737" />
  </node>
  <node id="-391" visible="true" lat="44.79711591" lon="-72.22422755">
    <tag k="addr:housenumber" v="1253" />
    <tag k="addr:street" v="Lake Region Road" />
    <tag k="addr:state" v="VT" />
    <tag k="ref:vcgi:esiteid" v="133738" />
  </node>
  <node id="-392" visible="true" lat="44.79687353" lon="-72.27825172">
    <tag k="addr:housenumber" v="105" />
    <tag k="addr:street" v="Fisher Hill" />
    <tag k="addr:state" v="VT" />
    <tag k="ref:vcgi:esiteid" v="133739" />
  </node>
  <node id="-393" visible="true" lat="44.79710911" lon="-72.27834823">
    <tag k="addr:housenumber" v="99" />
    <tag k="addr:street" v="Fisher Hill" />
    <tag k="addr:state" v="VT" />
    <tag k="ref:vcgi:esiteid" v="133740" />
  </node>
  <node id="-394" visible="true" lat="44.79652395" lon="-72.22444154">
    <tag k="addr:housenumber" v="1229" />
    <tag k="addr:street" v="Lake Region Road" />
    <tag k="addr:state" v="VT" />
    <tag k="ref:vcgi:esiteid" v="133741" />
  </node>
  <node id="-395" visible="true" lat="44.7963998" lon="-72.28460107">
    <tag k="addr:housenumber" v="5219" />
    <tag k="addr:street" v="Vermont Route 14" />
    <tag k="addr:state" v="VT" />
    <tag k="ref:vcgi:esiteid" v="133742" />
  </node>
  <node id="-396" visible="true" lat="44.79621124" lon="-72.28680419">
    <tag k="addr:housenumber" v="5286" />
    <tag k="addr:street" v="Vermont Route 14" />
    <tag k="addr:state" v="VT" />
    <tag k="ref:vcgi:esiteid" v="133743" />
  </node>
  <node id="-397" visible="true" lat="44.79617126" lon="-72.28079052">
    <tag k="addr:housenumber" v="427" />
    <tag k="addr:street" v="Creek Road" />
    <tag k="addr:state" v="VT" />
    <tag k="ref:vcgi:esiteid" v="133744" />
  </node>
  <node id="-398" visible="true" lat="44.79536437" lon="-72.2868042">
    <tag k="addr:housenumber" v="5341" />
    <tag k="addr:street" v="Vermont Route 14" />
    <tag k="addr:state" v="VT" />
    <tag k="ref:vcgi:esiteid" v="133745" />
  </node>
  <node id="-399" visible="true" lat="44.79512405" lon="-72.28716277">
    <tag k="addr:housenumber" v="5361" />
    <tag k="addr:street" v="Vermont Route 14" />
    <tag k="addr:state" v="VT" />
    <tag k="ref:vcgi:esiteid" v="133746" />
  </node>
  <node id="-400" visible="true" lat="44.79475402" lon="-72.28037261">
    <tag k="addr:housenumber" v="483" />
    <tag k="addr:street" v="Creek Road" />
    <tag k="addr:state" v="VT" />
    <tag k="ref:vcgi:esiteid" v="133747" />
  </node>
  <node id="-401" visible="true" lat="44.79461895" lon="-72.29018383">
    <tag k="addr:housenumber" v="5466" />
    <tag k="addr:street" v="Vermont Route 14" />
    <tag k="addr:state" v="VT" />
    <tag k="ref:vcgi:esiteid" v="133748" />
  </node>
  <node id="-402" visible="true" lat="44.79433767" lon="-72.2907844">
    <tag k="addr:housenumber" v="5542" />
    <tag k="addr:street" v="Vermont Route 14" />
    <tag k="addr:state" v="VT" />
    <tag k="ref:vcgi:esiteid" v="133749" />
  </node>
  <node id="-403" visible="true" lat="44.79433441" lon="-72.27775573">
    <tag k="addr:housenumber" v="5369" />
    <tag k="addr:street" v="Burton Hill Road" />
    <tag k="addr:state" v="VT" />
    <tag k="ref:vcgi:esiteid" v="133750" />
  </node>
  <node id="-404" visible="true" lat="44.79380704" lon="-72.28835761">
    <tag k="addr:housenumber" v="5465" />
    <tag k="addr:street" v="Vermont Route 14" />
    <tag k="addr:state" v="VT" />
    <tag k="ref:vcgi:esiteid" v="133751" />
  </node>
  <node id="-405" visible="true" lat="44.79355424" lon="-72.29136312">
    <tag k="addr:housenumber" v="5586" />
    <tag k="addr:street" v="Vermont Route 14" />
    <tag k="addr:state" v="VT" />
    <tag k="ref:vcgi:esiteid" v="133752" />
  </node>
  <node id="-406" visible="true" lat="44.79247665" lon="-72.2898941">
    <tag k="addr:housenumber" v="5619" />
    <tag k="addr:street" v="Vermont Route 14" />
    <tag k="addr:state" v="VT" />
    <tag k="ref:vcgi:esiteid" v="133753" />
  </node>
  <node id="-407" visible="true" lat="44.79223632" lon="-72.2924652">
    <tag k="addr:housenumber" v="5695" />
    <tag k="addr:street" v="Vermont Route 14" />
    <tag k="addr:state" v="VT" />
    <tag k="ref:vcgi:esiteid" v="133754" />
  </node>
  <node id="-408" visible="true" lat="44.7916846" lon="-72.29445042">
    <tag k="addr:housenumber" v="5776" />
    <tag k="addr:street" v="Vermont Route 14" />
    <tag k="addr:state" v="VT" />
    <tag k="ref:vcgi:esiteid" v="133755" />
  </node>
  <node id="-409" visible="true" lat="44.79156762" lon="-72.27925583">
    <tag k="addr:housenumber" v="823" />
    <tag k="addr:street" v="Creek Road" />
    <tag k="addr:state" v="VT" />
    <tag k="ref:vcgi:esiteid" v="133756" />
  </node>
  <node id="-410" visible="true" lat="44.79163742" lon="-72.27571868">
    <tag k="addr:housenumber" v="5221" />
    <tag k="addr:street" v="Burton Hill Road" />
    <tag k="addr:state" v="VT" />
    <tag k="ref:vcgi:esiteid" v="133757" />
  </node>
  <node id="-411" visible="true" lat="44.79128429" lon="-72.28180928">
    <tag k="addr:housenumber" v="770" />
    <tag k="addr:street" v="Creek Road" />
    <tag k="addr:state" v="VT" />
    <tag k="ref:vcgi:esiteid" v="133758" />
  </node>
  <node id="-412" visible="true" lat="44.79069392" lon="-72.29325841">
    <tag k="addr:housenumber" v="5785" />
    <tag k="addr:street" v="Vermont Route 14" />
    <tag k="addr:state" v="VT" />
    <tag k="ref:vcgi:esiteid" v="133759" />
  </node>
  <node id="-413" visible="true" lat="44.79074859" lon="-72.29167938">
    <tag k="addr:housenumber" v="5749" />
    <tag k="addr:street" v="Vermont Route 14" />
    <tag k="addr:state" v="VT" />
    <tag k="ref:vcgi:esiteid" v="133760" />
  </node>
  <node id="-414" visible="true" lat="44.79050827" lon="-72.2984848">
    <tag k="addr:housenumber" v="5974" />
    <tag k="addr:street" v="Vermont Route 14" />
    <tag k="addr:state" v="VT" />
    <tag k="ref:vcgi:esiteid" v="133761" />
  </node>
  <node id="-415" visible="true" lat="44.79007758" lon="-72.29597789">
    <tag k="addr:housenumber" v="5925" />
    <tag k="addr:street" v="Vermont Route 14" />
    <tag k="addr:state" v="VT" />
    <tag k="ref:vcgi:esiteid" v="133762" />
  </node>
  <node id="-416" visible="true" lat="44.78950274" lon="-72.29240447">
    <tag k="addr:housenumber" v="5845" />
    <tag k="addr:street" v="Vermont Route 14" />
    <tag k="addr:state" v="VT" />
    <tag k="ref:vcgi:esiteid" v="133763" />
  </node>
  <node id="-417" visible="true" lat="44.78953933" lon="-72.26087188">
    <tag k="addr:housenumber" v="752" />
    <tag k="addr:street" v="Sugarhouse Drive" />
    <tag k="addr:state" v="VT" />
    <tag k="ref:vcgi:esiteid" v="133764" />
  </node>
  <node id="-418" visible="true" lat="44.78868958" lon="-72.29529899">
    <tag k="addr:housenumber" v="5975" />
    <tag k="addr:street" v="Vermont Route 14" />
    <tag k="addr:state" v="VT" />
    <tag k="ref:vcgi:esiteid" v="133765" />
  </node>
  <node id="-419" visible="true" lat="44.7884078" lon="-72.29753757">
    <tag k="addr:housenumber" v="6053" />
    <tag k="addr:street" v="Vermont Route 14" />
    <tag k="addr:state" v="VT" />
    <tag k="ref:vcgi:esiteid" v="133767" />
  </node>
  <node id="-420" visible="true" lat="44.78860701" lon="-72.2715912">
    <tag k="addr:housenumber" v="4920" />
    <tag k="addr:street" v="Burton Hill Road" />
    <tag k="addr:state" v="VT" />
    <tag k="ref:vcgi:esiteid" v="133768" />
  </node>
  <node id="-421" visible="true" lat="44.7882843" lon="-72.2803955">
    <tag k="addr:housenumber" v="989" />
    <tag k="addr:street" v="Creek Road" />
    <tag k="addr:state" v="VT" />
    <tag k="ref:vcgi:esiteid" v="133769" />
  </node>
  <node id="-422" visible="true" lat="44.787772" lon="-72.30004719">
    <tag k="addr:housenumber" v="6196" />
    <tag k="addr:street" v="Vermont Route 14" />
    <tag k="addr:state" v="VT" />
    <tag k="ref:vcgi:esiteid" v="133770" />
  </node>
  <node id="-423" visible="true" lat="44.78742309" lon="-72.27189904">
    <tag k="addr:housenumber" v="4887" />
    <tag k="addr:street" v="Burton Hill Road" />
    <tag k="addr:state" v="VT" />
    <tag k="ref:vcgi:esiteid" v="133771" />
  </node>
  <node id="-424" visible="true" lat="44.78729669" lon="-72.29605907">
    <tag k="addr:housenumber" v="6067" />
    <tag k="addr:street" v="Vermont Route 14" />
    <tag k="addr:state" v="VT" />
    <tag k="ref:vcgi:esiteid" v="133773" />
  </node>
  <node id="-425" visible="true" lat="44.78715515" lon="-72.2818222">
    <tag k="addr:housenumber" v="1019" />
    <tag k="addr:street" v="Creek Road" />
    <tag k="addr:state" v="VT" />
    <tag k="ref:vcgi:esiteid" v="133774" />
  </node>
  <node id="-426" visible="true" lat="44.78683853" lon="-72.26573181">
    <tag k="addr:housenumber" v="4754" />
    <tag k="addr:street" v="Burton Hill Road" />
    <tag k="addr:state" v="VT" />
    <tag k="ref:vcgi:esiteid" v="133775" />
  </node>
  <node id="-427" visible="true" lat="44.7864479" lon="-72.27321484">
    <tag k="addr:housenumber" v="215" />
    <tag k="addr:street" v="West Glover Road" />
    <tag k="addr:state" v="VT" />
    <tag k="ref:vcgi:esiteid" v="133776" />
  </node>
  <node id="-428" visible="true" lat="44.78614807" lon="-72.3015213">
    <tag k="addr:housenumber" v="6308" />
    <tag k="addr:street" v="Vermont Route 14" />
    <tag k="addr:state" v="VT" />
    <tag k="ref:vcgi:esiteid" v="133777" />
  </node>
  <node id="-429" visible="true" lat="44.78547286" lon="-72.3022232">
    <tag k="addr:housenumber" v="6366" />
    <tag k="addr:street" v="Vermont Route 14" />
    <tag k="addr:state" v="VT" />
    <tag k="ref:vcgi:esiteid" v="133778" />
  </node>
  <node id="-430" visible="true" lat="44.78388406" lon="-72.27592551">
    <tag k="addr:housenumber" v="408" />
    <tag k="addr:street" v="West Glover Road" />
    <tag k="addr:state" v="VT" />
    <tag k="ref:vcgi:esiteid" v="133779" />
  </node>
  <node id="-431" visible="true" lat="44.7847045" lon="-72.26883511">
    <tag k="addr:housenumber" v="4643" />
    <tag k="addr:street" v="Burton Hill Road" />
    <tag k="addr:state" v="VT" />
    <tag k="ref:vcgi:esiteid" v="133780" />
  </node>
  <node id="-432" visible="true" lat="44.78496084" lon="-72.27318482">
    <tag k="addr:housenumber" v="327" />
    <tag k="addr:street" v="West Glover Road" />
    <tag k="addr:state" v="VT" />
    <tag k="ref:vcgi:esiteid" v="133781" />
  </node>
  <node id="-433" visible="true" lat="44.78417491" lon="-72.26772451">
    <tag k="addr:housenumber" v="4587" />
    <tag k="addr:street" v="Burton Hill Road" />
    <tag k="addr:state" v="VT" />
    <tag k="ref:vcgi:esiteid" v="133782" />
  </node>
  <node id="-434" visible="true" lat="44.78455352" lon="-72.26605224">
    <tag k="addr:housenumber" v="4556" />
    <tag k="addr:street" v="Burton Hill Road" />
    <tag k="addr:state" v="VT" />
    <tag k="ref:vcgi:esiteid" v="133783" />
  </node>
  <node id="-435" visible="true" lat="44.78447173" lon="-72.30248455">
    <tag k="addr:housenumber" v="6417" />
    <tag k="addr:street" v="Vermont Route 14" />
    <tag k="addr:state" v="VT" />
    <tag k="ref:vcgi:esiteid" v="133784" />
  </node>
  <node id="-436" visible="true" lat="44.7842369" lon="-72.2641983">
    <tag k="addr:housenumber" v="4470" />
    <tag k="addr:street" v="Burton Hill Road" />
    <tag k="addr:state" v="VT" />
    <tag k="ref:vcgi:esiteid" v="133785" />
  </node>
  <node id="-437" visible="true" lat="44.7839775" lon="-72.28509521">
    <tag k="addr:housenumber" v="1298" />
    <tag k="addr:street" v="Creek Road" />
    <tag k="addr:state" v="VT" />
    <tag k="ref:vcgi:esiteid" v="133786" />
  </node>
  <node id="-438" visible="true" lat="44.78299799" lon="-72.30342877">
    <tag k="addr:housenumber" v="6507" />
    <tag k="addr:street" v="Vermont Route 14" />
    <tag k="addr:state" v="VT" />
    <tag k="ref:vcgi:esiteid" v="133787" />
  </node>
  <node id="-439" visible="true" lat="44.78343954" lon="-72.26446945">
    <tag k="addr:housenumber" v="4468" />
    <tag k="addr:street" v="Burton Hill Road" />
    <tag k="addr:state" v="VT" />
    <tag k="ref:vcgi:esiteid" v="133788" />
  </node>
  <node id="-440" visible="true" lat="44.78318323" lon="-72.27311029">
    <tag k="addr:housenumber" v="445" />
    <tag k="addr:street" v="West Glover Road" />
    <tag k="addr:state" v="VT" />
    <tag k="ref:vcgi:esiteid" v="133789" />
  </node>
  <node id="-441" visible="true" lat="44.7812734" lon="-72.27419015">
    <tag k="addr:housenumber" v="540" />
    <tag k="addr:street" v="West Glover Road" />
    <tag k="addr:state" v="VT" />
    <tag k="ref:vcgi:esiteid" v="133790" />
  </node>
  <node id="-442" visible="true" lat="44.78303909" lon="-72.26625823">
    <tag k="addr:housenumber" v="4497" />
    <tag k="addr:street" v="Burton Hill Road" />
    <tag k="addr:state" v="VT" />
    <tag k="ref:vcgi:esiteid" v="133791" />
  </node>
  <node id="-443" visible="true" lat="44.78211895" lon="-72.2628918">
    <tag k="addr:housenumber" v="4308" />
    <tag k="addr:street" v="Burton Hill Road" />
    <tag k="addr:state" v="VT" />
    <tag k="ref:vcgi:esiteid" v="133792" />
  </node>
  <node id="-444" visible="true" lat="44.78204086" lon="-72.304643">
    <tag k="addr:housenumber" v="6645" />
    <tag k="addr:street" v="Vermont Route 14" />
    <tag k="addr:state" v="VT" />
    <tag k="ref:vcgi:esiteid" v="133793" />
  </node>
  <node id="-445" visible="true" lat="44.78185653" lon="-72.24885559">
    <tag k="addr:housenumber" v="530" />
    <tag k="addr:street" v="Chadburn Drive" />
    <tag k="addr:state" v="VT" />
    <tag k="ref:vcgi:esiteid" v="133794" />
  </node>
  <node id="-446" visible="true" lat="44.78169654" lon="-72.26324063">
    <tag k="addr:housenumber" v="4309" />
    <tag k="addr:street" v="Burton Hill Road" />
    <tag k="addr:state" v="VT" />
    <tag k="ref:vcgi:esiteid" v="133795" />
  </node>
  <node id="-447" visible="true" lat="44.78109359" lon="-72.26112365">
    <tag k="addr:housenumber" v="4198" />
    <tag k="addr:street" v="Burton Hill Road" />
    <tag k="addr:state" v="VT" />
    <tag k="ref:vcgi:esiteid" v="133796" />
  </node>
  <node id="-448" visible="true" lat="44.78041839" lon="-72.26034545">
    <tag k="addr:housenumber" v="4138" />
    <tag k="addr:street" v="Burton Hill Road" />
    <tag k="addr:state" v="VT" />
    <tag k="ref:vcgi:esiteid" v="133797" />
  </node>
  <node id="-449" visible="true" lat="44.77991866" lon="-72.27378082">
    <tag k="addr:housenumber" v="664" />
    <tag k="addr:street" v="West Glover Road" />
    <tag k="addr:state" v="VT" />
    <tag k="ref:vcgi:esiteid" v="133798" />
  </node>
  <node id="-450" visible="true" lat="44.77996063" lon="-72.30844879">
    <tag k="addr:housenumber" v="6857" />
    <tag k="addr:street" v="Vermont Route 14" />
    <tag k="addr:state" v="VT" />
    <tag k="ref:vcgi:esiteid" v="133799" />
  </node>
  <node id="-451" visible="true" lat="44.77976559" lon="-72.25965826">
    <tag k="addr:housenumber" v="4082" />
    <tag k="addr:street" v="Burton Hill Road" />
    <tag k="addr:state" v="VT" />
    <tag k="ref:vcgi:esiteid" v="133800" />
  </node>
  <node id="-452" visible="true" lat="44.77949921" lon="-72.25080161">
    <tag k="addr:housenumber" v="355" />
    <tag k="addr:street" v="Chadburn Drive" />
    <tag k="addr:state" v="VT" />
    <tag k="ref:vcgi:esiteid" v="133801" />
  </node>
  <node id="-453" visible="true" lat="44.7801499" lon="-72.31656798">
    <tag k="addr:housenumber" v="64" />
    <tag k="addr:street" v="Stackelberg Drive" />
    <tag k="addr:state" v="VT" />
    <tag k="ref:vcgi:esiteid" v="133802" />
  </node>
  <node id="-454" visible="true" lat="44.77933813" lon="-72.24968501">
    <tag k="addr:housenumber" v="354" />
    <tag k="addr:street" v="Chadburn Drive" />
    <tag k="addr:state" v="VT" />
    <tag k="ref:vcgi:esiteid" v="133803" />
  </node>
  <node id="-455" visible="true" lat="44.77948247" lon="-72.25824643">
    <tag k="addr:housenumber" v="3988" />
    <tag k="addr:street" v="Burton Hill Road" />
    <tag k="addr:state" v="VT" />
    <tag k="ref:vcgi:esiteid" v="133804" />
  </node>
  <node id="-456" visible="true" lat="44.77809169" lon="-72.25014047">
    <tag k="addr:housenumber" v="278" />
    <tag k="addr:street" v="Chadburn Drive" />
    <tag k="addr:state" v="VT" />
    <tag k="ref:vcgi:esiteid" v="133805" />
  </node>
  <node id="-457" visible="true" lat="44.77722962" lon="-72.25614259">
    <tag k="addr:housenumber" v="3862" />
    <tag k="addr:street" v="Burton Hill Road" />
    <tag k="addr:state" v="VT" />
    <tag k="ref:vcgi:esiteid" v="133806" />
  </node>
  <node id="-458" visible="true" lat="44.77718218" lon="-72.31608675">
    <tag k="addr:housenumber" v="7279" />
    <tag k="addr:street" v="Vermont Route 14" />
    <tag k="addr:state" v="VT" />
    <tag k="ref:vcgi:esiteid" v="133807" />
  </node>
  <node id="-459" visible="true" lat="44.77728242" lon="-72.27532397">
    <tag k="addr:housenumber" v="866" />
    <tag k="addr:street" v="West Glover Road" />
    <tag k="addr:state" v="VT" />
    <tag k="ref:vcgi:esiteid" v="133808" />
  </node>
  <node id="-460" visible="true" lat="44.77690433" lon="-72.31667767">
    <tag k="addr:housenumber" v="7313" />
    <tag k="addr:street" v="Vermont Route 14" />
    <tag k="addr:state" v="VT" />
    <tag k="ref:vcgi:esiteid" v="133809" />
  </node>
  <node id="-461" visible="true" lat="44.77695465" lon="-72.28805541">
    <tag k="addr:housenumber" v="1822" />
    <tag k="addr:street" v="Creek Road" />
    <tag k="addr:state" v="VT" />
    <tag k="ref:vcgi:esiteid" v="133810" />
  </node>
  <node id="-462" visible="true" lat="44.77637863" lon="-72.27329254">
    <tag k="addr:housenumber" v="908" />
    <tag k="addr:street" v="West Glover Road" />
    <tag k="addr:state" v="VT" />
    <tag k="ref:vcgi:esiteid" v="133811" />
  </node>
  <node id="-463" visible="true" lat="44.77597809" lon="-72.25263977">
    <tag k="addr:housenumber" v="3628" />
    <tag k="addr:street" v="Burton Hill Road" />
    <tag k="addr:state" v="VT" />
    <tag k="ref:vcgi:esiteid" v="133812" />
  </node>
  <node id="-464" visible="true" lat="44.77565765" lon="-72.25520324">
    <tag k="addr:housenumber" v="3715" />
    <tag k="addr:street" v="Burton Hill Road" />
    <tag k="addr:state" v="VT" />
    <tag k="ref:vcgi:esiteid" v="133813" />
  </node>
  <node id="-465" visible="true" lat="44.77492362" lon="-72.27199745">
    <tag k="addr:housenumber" v="1023" />
    <tag k="addr:street" v="West Glover Road" />
    <tag k="addr:state" v="VT" />
    <tag k="ref:vcgi:esiteid" v="133814" />
  </node>
  <node id="-466" visible="true" lat="44.77482605" lon="-72.25436401">
    <tag k="addr:housenumber" v="3647" />
    <tag k="addr:street" v="Burton Hill Road" />
    <tag k="addr:state" v="VT" />
    <tag k="ref:vcgi:esiteid" v="133815" />
  </node>
  <node id="-467" visible="true" lat="44.77470016" lon="-72.25196838">
    <tag k="addr:housenumber" v="3556" />
    <tag k="addr:street" v="Burton Hill Road" />
    <tag k="addr:state" v="VT" />
    <tag k="ref:vcgi:esiteid" v="133816" />
  </node>
  <node id="-468" visible="true" lat="44.77465057" lon="-72.24449158">
    <tag k="addr:housenumber" v="239" />
    <tag k="addr:street" v="Scott Lane" />
    <tag k="addr:state" v="VT" />
    <tag k="ref:vcgi:esiteid" v="133817" />
  </node>
  <node id="-469" visible="true" lat="44.77400657" lon="-72.27318283">
    <tag k="addr:housenumber" v="1040" />
    <tag k="addr:street" v="West Glover Road" />
    <tag k="addr:state" v="VT" />
    <tag k="ref:vcgi:esiteid" v="133818" />
  </node>
  <node id="-470" visible="true" lat="44.77389526" lon="-72.28932952">
    <tag k="addr:housenumber" v="2031" />
    <tag k="addr:street" v="Creek Road" />
    <tag k="addr:state" v="VT" />
    <tag k="ref:vcgi:esiteid" v="133819" />
  </node>
  <node id="-471" visible="true" lat="44.77345657" lon="-72.24660492">
    <tag k="addr:housenumber" v="115" />
    <tag k="addr:street" v="Scott Lane" />
    <tag k="addr:state" v="VT" />
    <tag k="ref:vcgi:esiteid" v="133820" />
  </node>
  <node id="-472" visible="true" lat="44.77338307" lon="-72.25255365">
    <tag k="addr:housenumber" v="3511" />
    <tag k="addr:street" v="Burton Hill Road" />
    <tag k="addr:state" v="VT" />
    <tag k="ref:vcgi:esiteid" v="133821" />
  </node>
  <node id="-473" visible="true" lat="44.77234754" lon="-72.25372173">
    <tag k="addr:housenumber" v="3589" />
    <tag k="addr:street" v="Burton Hill Road" />
    <tag k="addr:state" v="VT" />
    <tag k="ref:vcgi:esiteid" v="133822" />
  </node>
  <node id="-474" visible="true" lat="44.77202431" lon="-72.24385752">
    <tag k="addr:housenumber" v="3136" />
    <tag k="addr:street" v="Burton Hill Road" />
    <tag k="addr:state" v="VT" />
    <tag k="ref:vcgi:esiteid" v="133823" />
  </node>
  <node id="-475" visible="true" lat="44.77133924" lon="-72.24615249">
    <tag k="addr:housenumber" v="3209" />
    <tag k="addr:street" v="Burton Hill Road" />
    <tag k="addr:state" v="VT" />
    <tag k="ref:vcgi:esiteid" v="133824" />
  </node>
  <node id="-476" visible="true" lat="44.77113419" lon="-72.26907375">
    <tag k="addr:housenumber" v="1369" />
    <tag k="addr:street" v="West Glover Road" />
    <tag k="addr:state" v="VT" />
    <tag k="ref:vcgi:esiteid" v="133825" />
  </node>
  <node id="-477" visible="true" lat="44.7704119" lon="-72.24060082">
    <tag k="addr:housenumber" v="2912" />
    <tag k="addr:street" v="Burton Hill Road" />
    <tag k="addr:state" v="VT" />
    <tag k="ref:vcgi:esiteid" v="133826" />
  </node>
  <node id="-478" visible="true" lat="44.77185265" lon="-72.28730571">
    <tag k="addr:housenumber" v="386" />
    <tag k="addr:street" v="Labounty Drive" />
    <tag k="addr:state" v="VT" />
    <tag k="ref:vcgi:esiteid" v="133827" />
  </node>
  <node id="-479" visible="true" lat="44.76939402" lon="-72.29226824">
    <tag k="addr:housenumber" v="2380" />
    <tag k="addr:street" v="Creek Road" />
    <tag k="addr:state" v="VT" />
    <tag k="ref:vcgi:esiteid" v="133828" />
  </node>
  <node id="-480" visible="true" lat="44.76703512" lon="-72.26705378">
    <tag k="addr:housenumber" v="1630" />
    <tag k="addr:street" v="West Glover Road" />
    <tag k="addr:state" v="VT" />
    <tag k="ref:vcgi:esiteid" v="133829" />
  </node>
  <node id="-481" visible="true" lat="44.76474864" lon="-72.26563586">
    <tag k="addr:housenumber" v="1802" />
    <tag k="addr:street" v="West Glover Road" />
    <tag k="addr:state" v="VT" />
    <tag k="ref:vcgi:esiteid" v="133830" />
  </node>
  <node id="-482" visible="true" lat="44.76461802" lon="-72.26493962">
    <tag k="addr:housenumber" v="1824" />
    <tag k="addr:street" v="West Glover Road" />
    <tag k="addr:state" v="VT" />
    <tag k="ref:vcgi:esiteid" v="133831" />
  </node>
  <node id="-483" visible="true" lat="44.76366607" lon="-72.26792404">
    <tag k="addr:housenumber" v="148" />
    <tag k="addr:street" v="Young Lane" />
    <tag k="addr:state" v="VT" />
    <tag k="ref:vcgi:esiteid" v="133832" />
  </node>
  <node id="-484" visible="true" lat="44.7639256" lon="-72.2665398">
    <tag k="addr:housenumber" v="169" />
    <tag k="addr:street" v="Young Lane" />
    <tag k="addr:state" v="VT" />
    <tag k="ref:vcgi:esiteid" v="133833" />
  </node>
  <node id="-485" visible="true" lat="44.76327514" lon="-72.25540161">
    <tag k="addr:housenumber" v="286" />
    <tag k="addr:street" v="Butler Drive" />
    <tag k="addr:state" v="VT" />
    <tag k="ref:vcgi:esiteid" v="133834" />
  </node>
  <node id="-486" visible="true" lat="44.76136398" lon="-72.2668991">
    <tag k="addr:housenumber" v="348" />
    <tag k="addr:street" v="Young Lane" />
    <tag k="addr:state" v="VT" />
    <tag k="ref:vcgi:esiteid" v="133835" />
  </node>
  <node id="-487" visible="true" lat="44.75881034" lon="-72.2673616">
    <tag k="addr:housenumber" v="526" />
    <tag k="addr:street" v="Young Lane" />
    <tag k="addr:state" v="VT" />
    <tag k="ref:vcgi:esiteid" v="133836" />
  </node>
  <node id="-488" visible="true" lat="44.75829574" lon="-72.2515518">
    <tag k="addr:housenumber" v="2651" />
    <tag k="addr:street" v="West Glover Road" />
    <tag k="addr:state" v="VT" />
    <tag k="ref:vcgi:esiteid" v="133837" />
  </node>
  <node id="-489" visible="true" lat="44.75803321" lon="-72.25236518">
    <tag k="addr:housenumber" v="2654" />
    <tag k="addr:street" v="West Glover Road" />
    <tag k="addr:state" v="VT" />
    <tag k="ref:vcgi:esiteid" v="133838" />
  </node>
  <node id="-490" visible="true" lat="44.83292041" lon="-72.28417539">
    <tag k="addr:housenumber" v="212" />
    <tag k="addr:street" v="Leaf Hill Drive" />
    <tag k="addr:state" v="VT" />
    <tag k="ref:vcgi:esiteid" v="133839" />
  </node>
  <node id="-491" visible="true" lat="44.77397399" lon="-72.25033887">
    <tag k="addr:housenumber" v="3452" />
    <tag k="addr:street" v="Burton Hill Road" />
    <tag k="addr:state" v="VT" />
    <tag k="ref:vcgi:esiteid" v="133840" />
  </node>
  <node id="-492" visible="true" lat="44.7732048" lon="-72.24938965">
    <tag k="addr:housenumber" v="3396" />
    <tag k="addr:street" v="Burton Hill Road" />
    <tag k="addr:state" v="VT" />
    <tag k="ref:vcgi:esiteid" v="133841" />
  </node>
  <node id="-493" visible="true" lat="44.77219023" lon="-72.24810635">
    <tag k="addr:housenumber" v="3307" />
    <tag k="addr:street" v="Burton Hill Road" />
    <tag k="addr:state" v="VT" />
    <tag k="ref:vcgi:esiteid" v="133842" />
  </node>
  <node id="-494" visible="true" lat="44.76924253" lon="-72.25179148">
    <tag k="addr:housenumber" v="746" />
    <tag k="addr:street" v="Butler Drive" />
    <tag k="addr:state" v="VT" />
    <tag k="ref:vcgi:esiteid" v="133843" />
  </node>
  <node id="-495" visible="true" lat="44.81846548" lon="-72.34790092">
    <tag k="addr:housenumber" v="2755" />
    <tag k="addr:street" v="Vermont Route 58 West" />
    <tag k="addr:state" v="VT" />
    <tag k="ref:vcgi:esiteid" v="133844" />
  </node>
  <node id="-496" visible="true" lat="44.826869" lon="-72.324931">
    <tag k="addr:housenumber" v="800" />
    <tag k="addr:street" v="Simino Lane" />
    <tag k="addr:state" v="VT" />
    <tag k="ref:vcgi:esiteid" v="133845" />
  </node>
  <node id="-497" visible="true" lat="44.83196362" lon="-72.32320174">
    <tag k="addr:housenumber" v="404" />
    <tag k="addr:street" v="Simino Lane" />
    <tag k="addr:state" v="VT" />
    <tag k="ref:vcgi:esiteid" v="133846" />
  </node>
  <node id="-498" visible="true" lat="44.81520566" lon="-72.22042018">
    <tag k="addr:housenumber" v="725" />
    <tag k="addr:street" v="U.S. Route 5" />
    <tag k="addr:state" v="VT" />
    <tag k="ref:vcgi:esiteid" v="133847" />
  </node>
  <node id="-499" visible="true" lat="44.8018341" lon="-72.28506469">
    <tag k="addr:housenumber" v="188" />
    <tag k="addr:street" v="Chase Drive" />
    <tag k="addr:state" v="VT" />
    <tag k="ref:vcgi:esiteid" v="133848" />
  </node>
  <node id="-500" visible="true" lat="44.80174874" lon="-72.28264952">
    <tag k="addr:housenumber" v="86" />
    <tag k="addr:street" v="Chase Drive" />
    <tag k="addr:state" v="VT" />
    <tag k="ref:vcgi:esiteid" v="133849" />
  </node>
  <node id="-501" visible="true" lat="44.80120298" lon="-72.28567685">
    <tag k="addr:housenumber" v="230" />
    <tag k="addr:street" v="Chase Drive" />
    <tag k="addr:state" v="VT" />
    <tag k="ref:vcgi:esiteid" v="133850" />
  </node>
  <node id="-502" visible="true" lat="44.76977214" lon="-72.28486681">
    <tag k="addr:housenumber" v="521" />
    <tag k="addr:street" v="Labounty Drive" />
    <tag k="addr:state" v="VT" />
    <tag k="ref:vcgi:esiteid" v="133851" />
  </node>
  <node id="-503" visible="true" lat="44.79469112" lon="-72.27570747">
    <tag k="addr:housenumber" v="5426" />
    <tag k="addr:street" v="Burton Hill Road" />
    <tag k="addr:state" v="VT" />
    <tag k="ref:vcgi:esiteid" v="133852" />
  </node>
  <node id="-504" visible="true" lat="44.80381616" lon="-72.25347165">
    <tag k="addr:housenumber" v="37" />
    <tag k="addr:street" v="Lefebvre Drive" />
    <tag k="addr:state" v="VT" />
    <tag k="ref:vcgi:esiteid" v="133853" />
  </node>
  <node id="-505" visible="true" lat="44.80239142" lon="-72.25512982">
    <tag k="addr:housenumber" v="133" />
    <tag k="addr:street" v="Lefebvre Drive" />
    <tag k="addr:state" v="VT" />
    <tag k="ref:vcgi:esiteid" v="133854" />
  </node>
  <node id="-506" visible="true" lat="44.8419292" lon="-72.28477069">
    <tag k="addr:housenumber" v="28" />
    <tag k="addr:street" v="White Road" />
    <tag k="addr:state" v="VT" />
    <tag k="ref:vcgi:esiteid" v="133855" />
  </node>
  <node id="-507" visible="true" lat="44.84579467" lon="-72.29843139">
    <tag k="addr:housenumber" v="2809" />
    <tag k="addr:street" v="Back Coventry Road" />
    <tag k="addr:state" v="VT" />
    <tag k="ref:vcgi:esiteid" v="133856" />
  </node>
  <node id="-508" visible="true" lat="44.84613037" lon="-72.29795074">
    <tag k="addr:housenumber" v="2857" />
    <tag k="addr:street" v="Back Coventry Road" />
    <tag k="addr:state" v="VT" />
    <tag k="ref:vcgi:esiteid" v="133857" />
  </node>
  <node id="-509" visible="true" lat="44.84631347" lon="-72.29777526">
    <tag k="addr:housenumber" v="2861" />
    <tag k="addr:street" v="Back Coventry Road" />
    <tag k="addr:state" v="VT" />
    <tag k="ref:vcgi:esiteid" v="133858" />
  </node>
  <node id="-510" visible="true" lat="44.83739873" lon="-72.28907143">
    <tag k="addr:housenumber" v="1783" />
    <tag k="addr:street" v="Vermont Route 14" />
    <tag k="addr:state" v="VT" />
    <tag k="ref:vcgi:esiteid" v="133859" />
  </node>
  <node id="-511" visible="true" lat="44.79639434" lon="-72.27811431">
    <tag k="addr:housenumber" v="163" />
    <tag k="addr:street" v="Fisher Hill" />
    <tag k="addr:state" v="VT" />
    <tag k="ref:vcgi:esiteid" v="133860" />
  </node>
  <node id="-512" visible="true" lat="44.7982375" lon="-72.27834214">
    <tag k="addr:housenumber" v="15" />
    <tag k="addr:street" v="Fisher Hill" />
    <tag k="addr:state" v="VT" />
    <tag k="ref:vcgi:esiteid" v="133862" />
  </node>
  <node id="-513" visible="true" lat="44.8004213" lon="-72.27872061">
    <tag k="addr:housenumber" v="85" />
    <tag k="addr:street" v="Creek Road" />
    <tag k="addr:state" v="VT" />
    <tag k="ref:vcgi:esiteid" v="133863" />
  </node>
  <node id="-514" visible="true" lat="44.82417146" lon="-72.2314641">
    <tag k="addr:housenumber" v="1546" />
    <tag k="addr:street" v="U.S. Route 5" />
    <tag k="addr:state" v="VT" />
    <tag k="ref:vcgi:esiteid" v="133864" />
  </node>
  <node id="-515" visible="true" lat="44.82242793" lon="-72.22901947">
    <tag k="addr:housenumber" v="1361" />
    <tag k="addr:street" v="U.S. Route 5" />
    <tag k="addr:state" v="VT" />
    <tag k="ref:vcgi:esiteid" v="133865" />
  </node>
  <node id="-516" visible="true" lat="44.77037021" lon="-72.2439538">
    <tag k="addr:housenumber" v="3069" />
    <tag k="addr:street" v="Burton Hill Road" />
    <tag k="addr:state" v="VT" />
    <tag k="ref:vcgi:esiteid" v="133866" />
  </node>
  <node id="-517" visible="true" lat="44.85368645" lon="-72.31427554">
    <tag k="addr:housenumber" v="1118" />
    <tag k="addr:street" v="Poutre Drive" />
    <tag k="addr:state" v="VT" />
    <tag k="ref:vcgi:esiteid" v="133867" />
  </node>
  <node id="-518" visible="true" lat="44.83873283" lon="-72.25948998">
    <tag k="addr:housenumber" v="3229" />
    <tag k="addr:street" v="U.S. Route 5" />
    <tag k="addr:state" v="VT" />
    <tag k="ref:vcgi:esiteid" v="133868" />
  </node>
  <node id="-519" visible="true" lat="44.82901707" lon="-72.323329">
    <tag k="addr:housenumber" v="612" />
    <tag k="addr:street" v="Simino Lane" />
    <tag k="addr:state" v="VT" />
    <tag k="ref:vcgi:esiteid" v="133869" />
  </node>
  <node id="-520" visible="true" lat="44.82985129" lon="-72.33237833">
    <tag k="addr:housenumber" v="1414" />
    <tag k="addr:street" v="Kidder Hill Ridge" />
    <tag k="addr:state" v="VT" />
    <tag k="ref:vcgi:esiteid" v="133870" />
  </node>
  <node id="-521" visible="true" lat="44.81303758" lon="-72.23646572">
    <tag k="addr:housenumber" v="624" />
    <tag k="addr:street" v="Guyette Drive" />
    <tag k="addr:state" v="VT" />
    <tag k="ref:vcgi:esiteid" v="133871" />
  </node>
  <node id="-522" visible="true" lat="44.77980202" lon="-72.30871376">
    <tag k="addr:housenumber" v="6859" />
    <tag k="addr:street" v="Vermont Route 14" />
    <tag k="addr:state" v="VT" />
    <tag k="ref:vcgi:esiteid" v="133872" />
  </node>
  <node id="-523" visible="true" lat="44.77859809" lon="-72.27408919">
    <tag k="addr:housenumber" v="734" />
    <tag k="addr:street" v="West Glover Road" />
    <tag k="addr:state" v="VT" />
    <tag k="ref:vcgi:esiteid" v="133873" />
  </node>
  <node id="-524" visible="true" lat="44.78248491" lon="-72.28645603">
    <tag k="addr:housenumber" v="1344" />
    <tag k="addr:street" v="Creek Road" />
    <tag k="addr:state" v="VT" />
    <tag k="ref:vcgi:esiteid" v="133874" />
  </node>
  <node id="-525" visible="true" lat="44.76223159" lon="-72.26286823">
    <tag k="addr:housenumber" v="285" />
    <tag k="addr:street" v="Young Lane" />
    <tag k="addr:state" v="VT" />
    <tag k="ref:vcgi:esiteid" v="133875" />
  </node>
  <node id="-526" visible="true" lat="44.84194029" lon="-72.2468722">
    <tag k="addr:housenumber" v="516" />
    <tag k="addr:street" v="Airport Road" />
    <tag k="addr:state" v="VT" />
    <tag k="ref:vcgi:esiteid" v="133876" />
  </node>
  <node id="-527" visible="true" lat="44.78597337" lon="-72.28236278">
    <tag k="addr:housenumber" v="1179" />
    <tag k="addr:street" v="Creek Road" />
    <tag k="addr:state" v="VT" />
    <tag k="ref:vcgi:esiteid" v="133877" />
  </node>
  <node id="-528" visible="true" lat="44.78475316" lon="-72.28348539">
    <tag k="addr:housenumber" v="1265" />
    <tag k="addr:street" v="Creek Road" />
    <tag k="addr:state" v="VT" />
    <tag k="ref:vcgi:esiteid" v="133878" />
  </node>
  <node id="-529" visible="true" lat="44.80404859" lon="-72.25908931">
    <tag k="addr:housenumber" v="1223" />
    <tag k="addr:street" v="Vermont Route 58 East" />
    <tag k="addr:state" v="VT" />
    <tag k="ref:vcgi:esiteid" v="133879" />
  </node>
  <node id="-530" visible="true" lat="44.80432471" lon="-72.25769664">
    <tag k="addr:housenumber" v="1301" />
    <tag k="addr:street" v="Vermont Route 58 East" />
    <tag k="addr:state" v="VT" />
    <tag k="ref:vcgi:esiteid" v="133880" />
  </node>
  <node id="-531" visible="true" lat="44.80540624" lon="-72.26255575">
    <tag k="addr:housenumber" v="94" />
    <tag k="addr:street" v="Holy Moly Heights" />
    <tag k="addr:state" v="VT" />
    <tag k="ref:vcgi:esiteid" v="133881" />
  </node>
  <node id="-532" visible="true" lat="44.80409213" lon="-72.25933305">
    <tag k="addr:housenumber" v="1091" />
    <tag k="addr:street" v="Vermont Route 58 East" />
    <tag k="addr:state" v="VT" />
    <tag k="ref:vcgi:esiteid" v="133882" />
  </node>
  <node id="-533" visible="true" lat="44.85960125" lon="-72.26837778">
    <tag k="addr:housenumber" v="4775" />
    <tag k="addr:street" v="U.S. Route 5" />
    <tag k="addr:state" v="VT" />
    <tag k="ref:vcgi:esiteid" v="133883" />
  </node>
  <node id="-534" visible="true" lat="44.85650253" lon="-72.26695251">
    <tag k="addr:housenumber" v="4501" />
    <tag k="addr:street" v="U.S. Route 5" />
    <tag k="addr:state" v="VT" />
    <tag k="ref:vcgi:esiteid" v="133884" />
  </node>
  <node id="-535" visible="true" lat="44.82850264" lon="-72.24268733">
    <tag k="addr:housenumber" v="9" />
    <tag k="addr:street" v="Campbell Road" />
    <tag k="addr:state" v="VT" />
    <tag k="ref:vcgi:esiteid" v="133885" />
  </node>
  <node id="-536" visible="true" lat="44.8280136" lon="-72.2438284">
    <tag k="addr:housenumber" v="76" />
    <tag k="addr:street" v="Campbell Road" />
    <tag k="addr:state" v="VT" />
    <tag k="ref:vcgi:esiteid" v="133886" />
  </node>
  <node id="-537" visible="true" lat="44.82772607" lon="-72.24343131">
    <tag k="addr:housenumber" v="81" />
    <tag k="addr:street" v="Campbell Road" />
    <tag k="addr:state" v="VT" />
    <tag k="ref:vcgi:esiteid" v="133887" />
  </node>
  <node id="-538" visible="true" lat="44.8252832" lon="-72.24917109">
    <tag k="addr:housenumber" v="398" />
    <tag k="addr:street" v="Campbell Road" />
    <tag k="addr:state" v="VT" />
    <tag k="ref:vcgi:esiteid" v="133889" />
  </node>
  <node id="-539" visible="true" lat="44.82375786" lon="-72.25515218">
    <tag k="addr:housenumber" v="741" />
    <tag k="addr:street" v="Campbell Road" />
    <tag k="addr:state" v="VT" />
    <tag k="ref:vcgi:esiteid" v="133890" />
  </node>
  <node id="-540" visible="true" lat="44.80496877" lon="-72.2551054">
    <tag k="addr:housenumber" v="1305" />
    <tag k="addr:street" v="Vermont Route 58 East" />
    <tag k="addr:state" v="VT" />
    <tag k="ref:vcgi:esiteid" v="133891" />
  </node>
  <node id="-541" visible="true" lat="44.79777814" lon="-72.27511227">
    <tag k="addr:housenumber" v="73" />
    <tag k="addr:street" v="Walnut Drive" />
    <tag k="addr:state" v="VT" />
    <tag k="ref:vcgi:esiteid" v="133892" />
  </node>
  <node id="-542" visible="true" lat="44.79620249" lon="-72.26830579">
    <tag k="addr:housenumber" v="401" />
    <tag k="addr:street" v="Walnut Drive" />
    <tag k="addr:state" v="VT" />
    <tag k="ref:vcgi:esiteid" v="133893" />
  </node>
  <node id="-543" visible="true" lat="44.79387283" lon="-72.26570841">
    <tag k="addr:housenumber" v="640" />
    <tag k="addr:street" v="Walnut Drive" />
    <tag k="addr:state" v="VT" />
    <tag k="ref:vcgi:esiteid" v="133894" />
  </node>
  <node id="-544" visible="true" lat="44.79243469" lon="-72.22470963">
    <tag k="addr:housenumber" v="957" />
    <tag k="addr:street" v="Lake Region Road" />
    <tag k="addr:state" v="VT" />
    <tag k="ref:vcgi:esiteid" v="133895" />
  </node>
  <node id="-545" visible="true" lat="44.79202595" lon="-72.22616606">
    <tag k="addr:housenumber" v="98" />
    <tag k="addr:street" v="Royer Drive" />
    <tag k="addr:state" v="VT" />
    <tag k="ref:vcgi:esiteid" v="133896" />
  </node>
  <node id="-546" visible="true" lat="44.77514648" lon="-72.24089813">
    <tag k="addr:housenumber" v="336" />
    <tag k="addr:street" v="Scott Lane" />
    <tag k="addr:state" v="VT" />
    <tag k="ref:vcgi:esiteid" v="133897" />
  </node>
  <node id="-547" visible="true" lat="44.76261644" lon="-72.24952398">
    <tag k="addr:housenumber" v="289" />
    <tag k="addr:street" v="Kinsley Road" />
    <tag k="addr:state" v="VT" />
    <tag k="ref:vcgi:esiteid" v="133898" />
  </node>
  <node id="-548" visible="true" lat="44.79535716" lon="-72.27790538">
    <tag k="addr:housenumber" v="228" />
    <tag k="addr:street" v="Fisher Hill" />
    <tag k="addr:state" v="VT" />
    <tag k="ref:vcgi:esiteid" v="133899" />
  </node>
  <node id="-549" visible="true" lat="44.8003475" lon="-72.28235999">
    <tag k="addr:housenumber" v="4924" />
    <tag k="addr:street" v="Vermont Route 14" />
    <tag k="addr:state" v="VT" />
    <tag k="ref:vcgi:esiteid" v="133900" />
  </node>
  <node id="-550" visible="true" lat="44.84017534" lon="-72.25961647">
    <tag k="addr:housenumber" v="3364" />
    <tag k="addr:street" v="U.S. Route 5" />
    <tag k="addr:state" v="VT" />
    <tag k="ref:vcgi:esiteid" v="133901" />
  </node>
  <node id="-551" visible="true" lat="44.8202564" lon="-72.34304702">
    <tag k="addr:housenumber" v="161" />
    <tag k="addr:street" v="Stephenson Heights" />
    <tag k="addr:state" v="VT" />
    <tag k="ref:vcgi:esiteid" v="133902" />
  </node>
  <node id="-552" visible="true" lat="44.8119259" lon="-72.25019433">
    <tag k="addr:housenumber" v="550" />
    <tag k="addr:street" v="Coderre Hill" />
    <tag k="addr:state" v="VT" />
    <tag k="ref:vcgi:esiteid" v="133903" />
  </node>
  <node id="-553" visible="true" lat="44.80451905" lon="-72.25615556">
    <tag k="addr:housenumber" v="1303" />
    <tag k="addr:street" v="Vermont Route 58 East" />
    <tag k="addr:state" v="VT" />
    <tag k="ref:vcgi:esiteid" v="133904" />
  </node>
  <node id="-554" visible="true" lat="44.77629797" lon="-72.25423575">
    <tag k="addr:housenumber" v="39" />
    <tag k="addr:street" v="Chadburn Drive" />
    <tag k="addr:state" v="VT" />
    <tag k="ref:vcgi:esiteid" v="133906" />
  </node>
  <node id="-555" visible="true" lat="44.845634" lon="-72.309417">
    <tag k="addr:housenumber" v="555" />
    <tag k="addr:street" v="Poutre Drive" />
    <tag k="addr:state" v="VT" />
    <tag k="ref:vcgi:esiteid" v="133907" />
  </node>
  <node id="-556" visible="true" lat="44.85932922" lon="-72.27119445">
    <tag k="addr:housenumber" v="95" />
    <tag k="addr:street" v="Vermont Route 14" />
    <tag k="addr:state" v="VT" />
    <tag k="ref:vcgi:esiteid" v="133908" />
  </node>
  <node id="-557" visible="true" lat="44.83632454" lon="-72.31581583">
    <tag k="addr:housenumber" v="6" />
    <tag k="addr:street" v="Simino Lane" />
    <tag k="addr:state" v="VT" />
    <tag k="ref:vcgi:esiteid" v="133910" />
  </node>
  <node id="-558" visible="true" lat="44.83484032" lon="-72.31529837">
    <tag k="addr:housenumber" v="50" />
    <tag k="addr:street" v="Simino Lane" />
    <tag k="addr:state" v="VT" />
    <tag k="ref:vcgi:esiteid" v="133911" />
  </node>
  <node id="-559" visible="true" lat="44.81875991" lon="-72.34439087">
    <tag k="addr:housenumber" v="2559" />
    <tag k="addr:street" v="Vermont Route 58 West" />
    <tag k="addr:state" v="VT" />
    <tag k="ref:vcgi:esiteid" v="133912" />
  </node>
  <node id="-560" visible="true" lat="44.81793384" lon="-72.34703581">
    <tag k="addr:housenumber" v="2689" />
    <tag k="addr:street" v="Vermont Route 58 West" />
    <tag k="addr:state" v="VT" />
    <tag k="ref:vcgi:esiteid" v="133913" />
  </node>
  <node id="-561" visible="true" lat="44.80590525" lon="-72.33028962">
    <tag k="addr:housenumber" v="606" />
    <tag k="addr:street" v="Alexander Lane" />
    <tag k="addr:state" v="VT" />
    <tag k="ref:vcgi:esiteid" v="133914" />
  </node>
  <node id="-562" visible="true" lat="44.83129184" lon="-72.32036606">
    <tag k="addr:housenumber" v="389" />
    <tag k="addr:street" v="Simino Lane" />
    <tag k="addr:state" v="VT" />
    <tag k="ref:vcgi:esiteid" v="133915" />
  </node>
  <node id="-563" visible="true" lat="44.84048052" lon="-72.28624335">
    <tag k="addr:housenumber" v="1730" />
    <tag k="addr:street" v="Vermont Route 14" />
    <tag k="addr:state" v="VT" />
    <tag k="ref:vcgi:esiteid" v="133916" />
  </node>
  <node id="-564" visible="true" lat="44.80237908" lon="-72.27833457">
    <tag k="addr:housenumber" v="100" />
    <tag k="addr:street" v="Park Avenue" />
    <tag k="addr:state" v="VT" />
    <tag k="ref:vcgi:esiteid" v="133917" />
  </node>
  <node id="-565" visible="true" lat="44.79490068" lon="-72.27526743">
    <tag k="addr:housenumber" v="5478" />
    <tag k="addr:street" v="Burton Hill Road" />
    <tag k="addr:state" v="VT" />
    <tag k="ref:vcgi:esiteid" v="133918" />
  </node>
  <node id="-566" visible="true" lat="44.79607361" lon="-72.22652368">
    <tag k="addr:housenumber" v="1207" />
    <tag k="addr:street" v="Lake Region Road" />
    <tag k="addr:state" v="VT" />
    <tag k="ref:vcgi:esiteid" v="133919" />
  </node>
  <node id="-567" visible="true" lat="44.78532915" lon="-72.28357745">
    <tag k="addr:housenumber" v="1205" />
    <tag k="addr:street" v="Creek Road" />
    <tag k="addr:state" v="VT" />
    <tag k="ref:vcgi:esiteid" v="133920" />
  </node>
  <node id="-568" visible="true" lat="44.78787188" lon="-72.28036259">
    <tag k="addr:housenumber" v="987" />
    <tag k="addr:street" v="Creek Road" />
    <tag k="addr:state" v="VT" />
    <tag k="ref:vcgi:esiteid" v="133921" />
  </node>
  <node id="-569" visible="true" lat="44.79169613" lon="-72.23157261">
    <tag k="addr:housenumber" v="434" />
    <tag k="addr:street" v="Royer Drive" />
    <tag k="addr:state" v="VT" />
    <tag k="ref:vcgi:esiteid" v="133922" />
  </node>
  <node id="-570" visible="true" lat="44.79102138" lon="-72.26647038">
    <tag k="addr:housenumber" v="407" />
    <tag k="addr:street" v="Sugarhouse Drive" />
    <tag k="addr:state" v="VT" />
    <tag k="ref:vcgi:esiteid" v="133923" />
  </node>
  <node id="-571" visible="true" lat="44.81224115" lon="-72.32376993">
    <tag k="addr:housenumber" v="131" />
    <tag k="addr:street" v="Alexander Lane" />
    <tag k="addr:state" v="VT" />
    <tag k="ref:vcgi:esiteid" v="133924" />
  </node>
  <node id="-572" visible="true" lat="44.80243426" lon="-72.26088908">
    <tag k="addr:housenumber" v="928" />
    <tag k="addr:street" v="Vermont Route 58 East" />
    <tag k="addr:state" v="VT" />
    <tag k="ref:vcgi:esiteid" v="133925" />
  </node>
  <node id="-573" visible="true" lat="44.81606863" lon="-72.34306566">
    <tag k="addr:housenumber" v="2639" />
    <tag k="addr:street" v="Vermont Route 58 West" />
    <tag k="addr:state" v="VT" />
    <tag k="ref:vcgi:esiteid" v="133926" />
  </node>
  <node id="-574" visible="true" lat="44.77224531" lon="-72.25054634">
    <tag k="addr:housenumber" v="1005" />
    <tag k="addr:street" v="Butler Drive" />
    <tag k="addr:state" v="VT" />
    <tag k="ref:vcgi:esiteid" v="133927" />
  </node>
  <node id="-575" visible="true" lat="44.80609053" lon="-72.26874579">
    <tag k="addr:housenumber" v="593" />
    <tag k="addr:street" v="Under The Hill Road" />
    <tag k="addr:state" v="VT" />
    <tag k="ref:vcgi:esiteid" v="133928" />
  </node>
  <node id="-576" visible="true" lat="44.83174322" lon="-72.33066473">
    <tag k="addr:housenumber" v="1350" />
    <tag k="addr:street" v="Kidder Hill Ridge" />
    <tag k="addr:state" v="VT" />
    <tag k="ref:vcgi:esiteid" v="133929" />
  </node>
  <node id="-577" visible="true" lat="44.7711067" lon="-72.25344745">
    <tag k="addr:housenumber" v="825" />
    <tag k="addr:street" v="Butler Drive" />
    <tag k="addr:state" v="VT" />
    <tag k="ref:vcgi:esiteid" v="133930" />
  </node>
  <node id="-578" visible="true" lat="44.8624278" lon="-72.29268308">
    <tag k="addr:housenumber" v="794" />
    <tag k="addr:street" v="Chilafoux Hill" />
    <tag k="addr:state" v="VT" />
    <tag k="ref:vcgi:esiteid" v="133931" />
  </node>
  <node id="-579" visible="true" lat="44.86025318" lon="-72.27190241">
    <tag k="addr:housenumber" v="80" />
    <tag k="addr:street" v="Vermont Route 14" />
    <tag k="addr:state" v="VT" />
    <tag k="ref:vcgi:esiteid" v="133932" />
  </node>
  <node id="-580" visible="true" lat="44.83546409" lon="-72.3295398">
    <tag k="addr:housenumber" v="1765" />
    <tag k="addr:street" v="Kidder Hill Ridge" />
    <tag k="addr:state" v="VT" />
    <tag k="ref:vcgi:esiteid" v="133933" />
  </node>
  <node id="-581" visible="true" lat="44.82988333" lon="-72.32297834">
    <tag k="addr:housenumber" v="560" />
    <tag k="addr:street" v="Simino Lane" />
    <tag k="addr:state" v="VT" />
    <tag k="ref:vcgi:esiteid" v="133934" />
  </node>
  <node id="-582" visible="true" lat="44.80000635" lon="-72.28418943">
    <tag k="addr:housenumber" v="4968" />
    <tag k="addr:street" v="Vermont Route 14" />
    <tag k="addr:state" v="VT" />
    <tag k="ref:vcgi:esiteid" v="133935" />
  </node>
  <node id="-583" visible="true" lat="44.81194437" lon="-72.26206683">
    <tag k="addr:housenumber" v="590" />
    <tag k="addr:street" v="Holy Moly Heights" />
    <tag k="addr:state" v="VT" />
    <tag k="ref:vcgi:esiteid" v="133936" />
  </node>
  <node id="-584" visible="true" lat="44.85347798" lon="-72.27650421">
    <tag k="addr:housenumber" v="582" />
    <tag k="addr:street" v="Vermont Route 14" />
    <tag k="addr:state" v="VT" />
    <tag k="ref:vcgi:esiteid" v="133937" />
  </node>
  <node id="-585" visible="true" lat="44.84594628" lon="-72.31964913">
    <tag k="addr:housenumber" v="415" />
    <tag k="addr:street" v="Poutre Drive" />
    <tag k="addr:state" v="VT" />
    <tag k="ref:vcgi:esiteid" v="133938" />
  </node>
  <node id="-586" visible="true" lat="44.85336869" lon="-72.30436319">
    <tag k="addr:housenumber" v="452" />
    <tag k="addr:street" v="Currier Hill Drive" />
    <tag k="addr:state" v="VT" />
    <tag k="ref:vcgi:esiteid" v="133939" />
  </node>
  <node id="-587" visible="true" lat="44.80996773" lon="-72.32810298">
    <tag k="addr:housenumber" v="334" />
    <tag k="addr:street" v="Alexander Lane" />
    <tag k="addr:state" v="VT" />
    <tag k="ref:vcgi:esiteid" v="133940" />
  </node>
  <node id="-588" visible="true" lat="44.81061146" lon="-72.32864228">
    <tag k="addr:housenumber" v="328" />
    <tag k="addr:street" v="Alexander Lane" />
    <tag k="addr:state" v="VT" />
    <tag k="ref:vcgi:esiteid" v="133941" />
  </node>
  <node id="-589" visible="true" lat="44.84413058" lon="-72.30761391">
    <tag k="addr:housenumber" v="340" />
    <tag k="addr:street" v="Poutre Drive" />
    <tag k="addr:state" v="VT" />
    <tag k="ref:vcgi:esiteid" v="133942" />
  </node>
  <node id="-590" visible="true" lat="44.77505442" lon="-72.25743962">
    <tag k="addr:housenumber" v="3771" />
    <tag k="addr:street" v="Burton Hill Road" />
    <tag k="addr:state" v="VT" />
    <tag k="ref:vcgi:esiteid" v="133943" />
  </node>
  <node id="-591" visible="true" lat="44.85074659" lon="-72.30387768">
    <tag k="addr:housenumber" v="495" />
    <tag k="addr:street" v="Currier Hill Drive" />
    <tag k="addr:state" v="VT" />
    <tag k="ref:vcgi:esiteid" v="133944" />
  </node>
  <node id="-592" visible="true" lat="44.80505248" lon="-72.24694829">
    <tag k="addr:housenumber" v="80" />
    <tag k="addr:street" v="Coderre Hill" />
    <tag k="addr:state" v="VT" />
    <tag k="ref:vcgi:esiteid" v="133945" />
  </node>
  <node id="-593" visible="true" lat="44.82820995" lon="-72.25673796">
    <tag k="addr:housenumber" v="1824" />
    <tag k="addr:street" v="Covered Bridge Road" />
    <tag k="addr:state" v="VT" />
    <tag k="ref:vcgi:esiteid" v="133946" />
  </node>
  <node id="-594" visible="true" lat="44.77810481" lon="-72.27262904">
    <tag k="addr:housenumber" v="729" />
    <tag k="addr:street" v="West Glover Road" />
    <tag k="addr:state" v="VT" />
    <tag k="ref:vcgi:esiteid" v="133947" />
  </node>
  <node id="-595" visible="true" lat="44.81597844" lon="-72.29560608">
    <tag k="addr:housenumber" v="10" />
    <tag k="addr:street" v="Vermont Route 58 West" />
    <tag k="addr:state" v="VT" />
    <tag k="ref:vcgi:esiteid" v="133948" />
  </node>
  <node id="-596" visible="true" lat="44.779968" lon="-72.28651498">
    <tag k="addr:housenumber" v="1524" />
    <tag k="addr:street" v="Creek Road" />
    <tag k="addr:state" v="VT" />
    <tag k="ref:vcgi:esiteid" v="133949" />
  </node>
  <node id="-597" visible="true" lat="44.80458157" lon="-72.22876986">
    <tag k="addr:housenumber" v="1850" />
    <tag k="addr:street" v="Lake Region Road" />
    <tag k="addr:state" v="VT" />
    <tag k="ref:vcgi:esiteid" v="133950" />
  </node>
  <node id="-598" visible="true" lat="44.80923847" lon="-72.26205842">
    <tag k="addr:housenumber" v="418" />
    <tag k="addr:street" v="Holy Moly Heights" />
    <tag k="addr:state" v="VT" />
    <tag k="ref:vcgi:esiteid" v="133951" />
  </node>
  <node id="-599" visible="true" lat="44.78128129" lon="-72.27249817">
    <tag k="addr:housenumber" v="591" />
    <tag k="addr:street" v="West Glover Road" />
    <tag k="addr:state" v="VT" />
    <tag k="ref:vcgi:esiteid" v="133952" />
  </node>
  <node id="-600" visible="true" lat="44.82375611" lon="-72.25307797">
    <tag k="addr:housenumber" v="569" />
    <tag k="addr:street" v="Campbell Road" />
    <tag k="addr:state" v="VT" />
    <tag k="ref:vcgi:esiteid" v="133953" />
  </node>
  <node id="-601" visible="true" lat="44.81458519" lon="-72.2987927">
    <tag k="addr:housenumber" v="199" />
    <tag k="addr:street" v="Vermont Route 58 West" />
    <tag k="addr:state" v="VT" />
    <tag k="ref:vcgi:esiteid" v="133954" />
  </node>
  <node id="-602" visible="true" lat="44.80676141" lon="-72.25339968">
    <tag k="addr:housenumber" v="1411" />
    <tag k="addr:street" v="Vermont Route 58 East" />
    <tag k="addr:state" v="VT" />
    <tag k="ref:vcgi:esiteid" v="133955" />
  </node>
  <node id="-603" visible="true" lat="44.81291069" lon="-72.29325462">
    <tag k="addr:housenumber" v="3674" />
    <tag k="addr:street" v="Vermont Route 14" />
    <tag k="addr:state" v="VT" />
    <tag k="ref:vcgi:esiteid" v="133956" />
  </node>
  <node id="-604" visible="true" lat="44.76005558" lon="-72.25126476">
    <tag k="addr:housenumber" v="168" />
    <tag k="addr:street" v="Kinsley Road" />
    <tag k="addr:state" v="VT" />
    <tag k="ref:vcgi:esiteid" v="133957" />
  </node>
  <node id="-605" visible="true" lat="44.82086765" lon="-72.22928736">
    <tag k="addr:housenumber" v="1359" />
    <tag k="addr:street" v="U.S. Route 5" />
    <tag k="addr:state" v="VT" />
    <tag k="ref:vcgi:esiteid" v="133958" />
  </node>
  <node id="-606" visible="true" lat="44.80998333" lon="-72.26900697">
    <tag k="addr:housenumber" v="412" />
    <tag k="addr:street" v="Covered Bridge Road" />
    <tag k="addr:state" v="VT" />
    <tag k="ref:vcgi:esiteid" v="133959" />
  </node>
  <node id="-607" visible="true" lat="44.79665672" lon="-72.28429907">
    <tag k="addr:housenumber" v="5101" />
    <tag k="addr:street" v="Vermont Route 14" />
    <tag k="addr:state" v="VT" />
    <tag k="ref:vcgi:esiteid" v="133960" />
  </node>
  <node id="-608" visible="true" lat="44.76113415" lon="-72.25285911">
    <tag k="addr:housenumber" v="169" />
    <tag k="addr:street" v="Kinsley Road" />
    <tag k="addr:state" v="VT" />
    <tag k="ref:vcgi:esiteid" v="133961" />
  </node>
  <node id="-609" visible="true" lat="44.82868482" lon="-72.24319186">
    <tag k="addr:housenumber" v="8" />
    <tag k="addr:street" v="Campbell Road" />
    <tag k="addr:state" v="VT" />
    <tag k="ref:vcgi:esiteid" v="133962" />
  </node>
  <node id="-610" visible="true" lat="44.81767276" lon="-72.24161691">
    <tag k="addr:housenumber" v="941" />
    <tag k="addr:street" v="Guyette Drive" />
    <tag k="addr:state" v="VT" />
    <tag k="ref:vcgi:esiteid" v="133963" />
  </node>
  <node id="-611" visible="true" lat="44.80225628" lon="-72.23344217">
    <tag k="addr:housenumber" v="1845" />
    <tag k="addr:street" v="Lake Region Road" />
    <tag k="addr:state" v="VT" />
    <tag k="ref:vcgi:esiteid" v="133964" />
  </node>
  <node id="-612" visible="true" lat="44.8287649" lon="-72.3226461">
    <tag k="addr:housenumber" v="615" />
    <tag k="addr:street" v="Simino Lane" />
    <tag k="addr:state" v="VT" />
    <tag k="ref:vcgi:esiteid" v="133965" />
  </node>
  <node id="-613" visible="true" lat="44.85827632" lon="-72.26456357">
    <tag k="addr:housenumber" v="278" />
    <tag k="addr:street" v="Coventry Heights" />
    <tag k="addr:state" v="VT" />
    <tag k="ref:vcgi:esiteid" v="133966" />
  </node>
  <node id="-614" visible="true" lat="44.76346224" lon="-72.25750376">
    <tag k="addr:housenumber" v="289" />
    <tag k="addr:street" v="Butler Drive" />
    <tag k="addr:state" v="VT" />
    <tag k="ref:vcgi:esiteid" v="133967" />
  </node>
  <node id="-615" visible="true" lat="44.76490561" lon="-72.25727652">
    <tag k="addr:housenumber" v="357" />
    <tag k="addr:street" v="Butler Drive" />
    <tag k="addr:state" v="VT" />
    <tag k="ref:vcgi:esiteid" v="133968" />
  </node>
  <node id="-616" visible="true" lat="44.76679008" lon="-72.25789107">
    <tag k="addr:housenumber" v="505" />
    <tag k="addr:street" v="Butler Drive" />
    <tag k="addr:state" v="VT" />
    <tag k="ref:vcgi:esiteid" v="133969" />
  </node>
  <node id="-617" visible="true" lat="44.76738318" lon="-72.25402663">
    <tag k="addr:housenumber" v="585" />
    <tag k="addr:street" v="Butler Drive" />
    <tag k="addr:state" v="VT" />
    <tag k="ref:vcgi:esiteid" v="133970" />
  </node>
  <node id="-618" visible="true" lat="44.76904558" lon="-72.25341477">
    <tag k="addr:housenumber" v="665" />
    <tag k="addr:street" v="Butler Drive" />
    <tag k="addr:state" v="VT" />
    <tag k="ref:vcgi:esiteid" v="133971" />
  </node>
  <node id="-619" visible="true" lat="44.82951495" lon="-72.32225105">
    <tag k="addr:housenumber" v="535" />
    <tag k="addr:street" v="Simino Lane" />
    <tag k="addr:state" v="VT" />
    <tag k="ref:vcgi:esiteid" v="133972" />
  </node>
  <node id="-620" visible="true" lat="44.83021613" lon="-72.3216092">
    <tag k="addr:housenumber" v="489" />
    <tag k="addr:street" v="Simino Lane" />
    <tag k="addr:state" v="VT" />
    <tag k="ref:vcgi:esiteid" v="133973" />
  </node>
  <node id="-621" visible="true" lat="44.78062064" lon="-72.24728713">
    <tag k="addr:housenumber" v="470" />
    <tag k="addr:street" v="Chadburn Drive" />
    <tag k="addr:state" v="VT" />
    <tag k="ref:vcgi:esiteid" v="133974" />
  </node>
  <node id="-622" visible="true" lat="44.79646187" lon="-72.2753745">
    <tag k="addr:housenumber" v="22" />
    <tag k="addr:street" v="Walnut Drive" />
    <tag k="addr:state" v="VT" />
    <tag k="ref:vcgi:esiteid" v="133975" />
  </node>
  <node id="-623" visible="true" lat="44.78733443" lon="-72.30067443">
    <tag k="addr:housenumber" v="6254" />
    <tag k="addr:street" v="Vermont Route 14" />
    <tag k="addr:state" v="VT" />
    <tag k="ref:vcgi:esiteid" v="133976" />
  </node>
  <node id="-624" visible="true" lat="44.82204527" lon="-72.24025794">
    <tag k="addr:housenumber" v="1266" />
    <tag k="addr:street" v="Guyette Drive" />
    <tag k="addr:state" v="VT" />
    <tag k="ref:vcgi:esiteid" v="133977" />
  </node>
  <node id="-625" visible="true" lat="44.80388907" lon="-72.2447352">
    <tag k="addr:housenumber" v="1818" />
    <tag k="addr:street" v="Vermont Route 58 East" />
    <tag k="addr:state" v="VT" />
    <tag k="ref:vcgi:esiteid" v="133978" />
  </node>
  <node id="-626" visible="true" lat="44.77710859" lon="-72.25140852">
    <tag k="addr:housenumber" v="134" />
    <tag k="addr:street" v="Chadburn Drive" />
    <tag k="addr:state" v="VT" />
    <tag k="ref:vcgi:esiteid" v="133979" />
  </node>
  <node id="-627" visible="true" lat="44.84462173" lon="-72.29460595">
    <tag k="addr:housenumber" v="2792" />
    <tag k="addr:street" v="Back Coventry Road" />
    <tag k="addr:state" v="VT" />
    <tag k="ref:vcgi:esiteid" v="133980" />
  </node>
  <node id="-628" visible="true" lat="44.78274551" lon="-72.26348918">
    <tag k="addr:housenumber" v="4340" />
    <tag k="addr:street" v="Burton Hill Road" />
    <tag k="addr:state" v="VT" />
    <tag k="ref:vcgi:esiteid" v="133981" />
  </node>
  <node id="-629" visible="true" lat="44.79090104" lon="-72.27766043">
    <tag k="addr:housenumber" v="5165" />
    <tag k="addr:street" v="Burton Hill Road" />
    <tag k="addr:state" v="VT" />
    <tag k="ref:vcgi:esiteid" v="133982" />
  </node>
  <node id="-630" visible="true" lat="44.82716064" lon="-72.29438079">
    <tag k="addr:housenumber" v="2698" />
    <tag k="addr:street" v="Vermont Route 14" />
    <tag k="addr:state" v="VT" />
    <tag k="ref:vcgi:esiteid" v="133983" />
  </node>
  <node id="-631" visible="true" lat="44.8535071" lon="-72.30787913">
    <tag k="addr:housenumber" v="646" />
    <tag k="addr:street" v="Currier Hill Drive" />
    <tag k="addr:state" v="VT" />
    <tag k="ref:vcgi:esiteid" v="133984" />
  </node>
  <node id="-632" visible="true" lat="44.8151968" lon="-72.23312202">
    <tag k="addr:housenumber" v="1609" />
    <tag k="addr:street" v="U.S. Route 5" />
    <tag k="addr:state" v="VT" />
    <tag k="ref:vcgi:esiteid" v="133985" />
  </node>
  <node id="-633" visible="true" lat="44.80143563" lon="-72.28500888">
    <tag k="addr:housenumber" v="187" />
    <tag k="addr:street" v="Chase Drive" />
    <tag k="addr:state" v="VT" />
    <tag k="ref:vcgi:esiteid" v="133986" />
  </node>
  <node id="-634" visible="true" lat="44.83654837" lon="-72.25714941">
    <tag k="addr:housenumber" v="3043" />
    <tag k="addr:street" v="U.S. Route 5" />
    <tag k="addr:state" v="VT" />
    <tag k="ref:vcgi:esiteid" v="133987" />
  </node>
  <node id="-635" visible="true" lat="44.83744297" lon="-72.25966951">
    <tag k="addr:housenumber" v="3223" />
    <tag k="addr:street" v="U.S. Route 5" />
    <tag k="addr:state" v="VT" />
    <tag k="ref:vcgi:esiteid" v="133988" />
  </node>
  <node id="-636" visible="true" lat="44.84191017" lon="-72.27747203">
    <tag k="addr:housenumber" v="1147" />
    <tag k="addr:street" v="Vermont Route 14" />
    <tag k="addr:state" v="VT" />
    <tag k="ref:vcgi:esiteid" v="133989" />
  </node>
  <node id="-637" visible="true" lat="44.82626406" lon="-72.24651172">
    <tag k="addr:housenumber" v="248" />
    <tag k="addr:street" v="Campbell Road" />
    <tag k="addr:state" v="VT" />
    <tag k="ref:vcgi:esiteid" v="133990" />
  </node>
  <node id="-638" visible="true" lat="44.76731205" lon="-72.2532223">
    <tag k="addr:housenumber" v="504" />
    <tag k="addr:street" v="Butler Drive" />
    <tag k="addr:state" v="VT" />
    <tag k="ref:vcgi:esiteid" v="133991" />
  </node>
  <node id="-639" visible="true" lat="44.86455398" lon="-72.28812711">
    <tag k="addr:housenumber" v="660" />
    <tag k="addr:street" v="Chilafoux Hill" />
    <tag k="addr:state" v="VT" />
    <tag k="ref:vcgi:esiteid" v="133992" />
  </node>
  <node id="-640" visible="true" lat="44.84331569" lon="-72.29832196">
    <tag k="addr:housenumber" v="2672" />
    <tag k="addr:street" v="Back Coventry Road" />
    <tag k="addr:state" v="VT" />
    <tag k="ref:vcgi:esiteid" v="133993" />
  </node>
  <node id="-641" visible="true" lat="44.80354335" lon="-72.23130866">
    <tag k="addr:housenumber" v="1915" />
    <tag k="addr:street" v="Lake Region Road" />
    <tag k="addr:state" v="VT" />
    <tag k="ref:vcgi:esiteid" v="133994" />
  </node>
  <node id="-642" visible="true" lat="44.86499701" lon="-72.28647559">
    <tag k="addr:housenumber" v="642" />
    <tag k="addr:street" v="Chilafoux Hill" />
    <tag k="addr:state" v="VT" />
    <tag k="ref:vcgi:esiteid" v="133995" />
  </node>
  <node id="-643" visible="true" lat="44.80816535" lon="-72.21598075">
    <tag k="addr:housenumber" v="133" />
    <tag k="addr:street" v="U.S. Route 5" />
    <tag k="addr:state" v="VT" />
    <tag k="ref:vcgi:esiteid" v="133996" />
  </node>
  <node id="-644" visible="true" lat="44.81902828" lon="-72.22101493">
    <tag k="addr:housenumber" v="32" />
    <tag k="addr:street" v="Stagecoach Lane" />
    <tag k="addr:state" v="VT" />
    <tag k="ref:vcgi:esiteid" v="133997" />
  </node>
  <node id="-645" visible="true" lat="44.7985677" lon="-72.27564804">
    <tag k="addr:housenumber" v="71" />
    <tag k="addr:street" v="Walnut Drive" />
    <tag k="addr:state" v="VT" />
    <tag k="ref:vcgi:esiteid" v="133998" />
  </node>
  <node id="-646" visible="true" lat="44.83937589" lon="-72.28459477">
    <tag k="addr:housenumber" v="1723" />
    <tag k="addr:street" v="Vermont Route 14" />
    <tag k="addr:state" v="VT" />
    <tag k="ref:vcgi:esiteid" v="133999" />
  </node>
  <node id="-647" visible="true" lat="44.83084612" lon="-72.20938658">
    <tag k="addr:housenumber" v="851" />
    <tag k="addr:street" v="River Road" />
    <tag k="addr:state" v="VT" />
    <tag k="ref:vcgi:esiteid" v="134000" />
  </node>
  <node id="-648" visible="true" lat="44.81569842" lon="-72.31569658">
    <tag k="addr:housenumber" v="5" />
    <tag k="addr:street" v="Sanville Drive" />
    <tag k="addr:state" v="VT" />
    <tag k="ref:vcgi:esiteid" v="134001" />
  </node>
  <node id="-649" visible="true" lat="44.84095102" lon="-72.30562381">
    <tag k="addr:housenumber" v="2271" />
    <tag k="addr:street" v="Back Coventry Road" />
    <tag k="addr:state" v="VT" />
    <tag k="ref:vcgi:esiteid" v="134002" />
  </node>
  <node id="-650" visible="true" lat="44.79251613" lon="-72.29310101">
    <tag k="addr:housenumber" v="5698" />
    <tag k="addr:street" v="Vermont Route 14" />
    <tag k="addr:state" v="VT" />
    <tag k="ref:vcgi:esiteid" v="134003" />
  </node>
  <node id="-651" visible="true" lat="44.8502397" lon="-72.29579299">
    <tag k="addr:housenumber" v="3185" />
    <tag k="addr:street" v="Back Coventry Road" />
    <tag k="addr:state" v="VT" />
    <tag k="ref:vcgi:esiteid" v="134004" />
  </node>
  <node id="-652" visible="true" lat="44.84975438" lon="-72.29611485">
    <tag k="addr:housenumber" v="8" />
    <tag k="addr:street" v="Currier Hill Drive" />
    <tag k="addr:state" v="VT" />
    <tag k="ref:vcgi:esiteid" v="134005" />
  </node>
  <node id="-653" visible="true" lat="44.85041155" lon="-72.29726906">
    <tag k="addr:housenumber" v="178" />
    <tag k="addr:street" v="Currier Hill Drive" />
    <tag k="addr:state" v="VT" />
    <tag k="ref:vcgi:esiteid" v="134006" />
  </node>
  <node id="-654" visible="true" lat="44.85105814" lon="-72.29857156">
    <tag k="addr:housenumber" v="440" />
    <tag k="addr:street" v="Currier Hill Drive" />
    <tag k="addr:state" v="VT" />
    <tag k="ref:vcgi:esiteid" v="134007" />
  </node>
  <node id="-655" visible="true" lat="44.83844855" lon="-72.2493479">
    <tag k="addr:housenumber" v="250" />
    <tag k="addr:street" v="Airport Road" />
    <tag k="addr:state" v="VT" />
    <tag k="ref:vcgi:esiteid" v="305481" />
  </node>
  <node id="-656" visible="true" lat="44.78946174" lon="-72.27974992">
    <tag k="addr:housenumber" v="905" />
    <tag k="addr:street" v="Creek Road" />
    <tag k="addr:state" v="VT" />
    <tag k="ref:vcgi:esiteid" v="305878" />
  </node>
  <node id="-657" visible="true" lat="44.81369317" lon="-72.32647129">
    <tag k="addr:housenumber" v="1530" />
    <tag k="addr:street" v="Vermont Route 58 West" />
    <tag k="addr:state" v="VT" />
    <tag k="ref:vcgi:esiteid" v="306317" />
  </node>
  <node id="-658" visible="true" lat="44.82899442" lon="-72.25642654">
    <tag k="addr:housenumber" v="1880" />
    <tag k="addr:street" v="Covered Bridge Road" />
    <tag k="addr:state" v="VT" />
    <tag k="ref:vcgi:esiteid" v="307313" />
  </node>
  <node id="-659" visible="true" lat="44.82143645" lon="-72.35467962">
    <tag k="addr:housenumber" v="3166" />
    <tag k="addr:street" v="Vermont Route 58 West" />
    <tag k="addr:state" v="VT" />
    <tag k="ref:vcgi:esiteid" v="307314" />
  </node>
  <node id="-660" visible="true" lat="44.79510805" lon="-72.22345666">
    <tag k="addr:housenumber" v="1090" />
    <tag k="addr:street" v="Lake Region Road" />
    <tag k="addr:state" v="VT" />
    <tag k="ref:vcgi:esiteid" v="310636" />
  </node>
  <node id="-661" visible="true" lat="44.86424923" lon="-72.28317123">
    <tag k="addr:housenumber" v="510" />
    <tag k="addr:street" v="Chilafoux Hill" />
    <tag k="addr:state" v="VT" />
    <tag k="ref:vcgi:esiteid" v="311360" />
  </node>
  <node id="-662" visible="true" lat="44.86392007" lon="-72.28493089">
    <tag k="addr:housenumber" v="588" />
    <tag k="addr:street" v="Chilafoux Hill" />
    <tag k="addr:state" v="VT" />
    <tag k="ref:vcgi:esiteid" v="311361" />
  </node>
  <node id="-663" visible="true" lat="44.83347691" lon="-72.32171505">
    <tag k="addr:housenumber" v="402" />
    <tag k="addr:street" v="Simino Lane" />
    <tag k="addr:state" v="VT" />
    <tag k="ref:vcgi:esiteid" v="311364" />
  </node>
  <node id="-664" visible="true" lat="44.80733393" lon="-72.23296739">
    <tag k="addr:housenumber" v="126" />
    <tag k="addr:street" v="Guyette Drive" />
    <tag k="addr:state" v="VT" />
    <tag k="ref:vcgi:esiteid" v="314456" />
  </node>
  <node id="-665" visible="true" lat="44.79162535" lon="-72.2923491">
    <tag k="addr:housenumber" v="5747" />
    <tag k="addr:street" v="Vermont Route 14" />
    <tag k="addr:state" v="VT" />
    <tag k="ref:vcgi:esiteid" v="315963" />
  </node>
  <node id="-666" visible="true" lat="44.80600771" lon="-72.24973652">
    <tag k="addr:housenumber" v="116" />
    <tag k="addr:street" v="Coderre Hill" />
    <tag k="addr:state" v="VT" />
    <tag k="ref:vcgi:esiteid" v="315964" />
  </node>
  <node id="-667" visible="true" lat="44.81644354" lon="-72.33723605">
    <tag k="addr:housenumber" v="196" />
    <tag k="addr:street" v="Brighton Brook Drive" />
    <tag k="addr:state" v="VT" />
    <tag k="ref:vcgi:esiteid" v="316056" />
  </node>
  <node id="-668" visible="true" lat="44.81144725" lon="-72.35777463">
    <tag k="addr:housenumber" v="607" />
    <tag k="addr:street" v="Houston Heights" />
    <tag k="addr:state" v="VT" />
    <tag k="ref:vcgi:esiteid" v="318254" />
  </node>
  <node id="-669" visible="true" lat="44.80346447" lon="-72.22834405">
    <tag k="addr:housenumber" v="1789" />
    <tag k="addr:street" v="Lake Region Road" />
    <tag k="addr:state" v="VT" />
    <tag k="ref:vcgi:esiteid" v="324328" />
  </node>
  <node id="-670" visible="true" lat="44.83817508" lon="-72.24957081">
    <tag k="addr:housenumber" v="226" />
    <tag k="addr:street" v="Airport Road" />
    <tag k="addr:state" v="VT" />
    <tag k="ref:vcgi:esiteid" v="326229" />
  </node>
  <node id="-671" visible="true" lat="44.82685808" lon="-72.29441925">
    <tag k="addr:housenumber" v="2688" />
    <tag k="addr:street" v="Vermont Route 14" />
    <tag k="addr:state" v="VT" />
    <tag k="ref:vcgi:esiteid" v="326337" />
  </node>
  <node id="-672" visible="true" lat="44.82297293" lon="-72.22882528">
    <tag k="addr:housenumber" v="1414" />
    <tag k="addr:street" v="U.S. Route 5" />
    <tag k="addr:state" v="VT" />
    <tag k="ref:vcgi:esiteid" v="326339" />
  </node>
  <node id="-673" visible="true" lat="44.82264906" lon="-72.35569039">
    <tag k="addr:housenumber" v="185" />
    <tag k="addr:street" v="Driscoll Drive" />
    <tag k="addr:state" v="VT" />
    <tag k="ref:vcgi:esiteid" v="327028" />
  </node>
  <node id="-674" visible="true" lat="44.7658757" lon="-72.26453512">
    <tag k="addr:housenumber" v="1805" />
    <tag k="addr:street" v="West Glover Road" />
    <tag k="addr:state" v="VT" />
    <tag k="ref:vcgi:esiteid" v="328160" />
  </node>
  <node id="-675" visible="true" lat="44.8221799" lon="-72.25513858">
    <tag k="addr:housenumber" v="699" />
    <tag k="addr:street" v="Campbell Road" />
    <tag k="addr:state" v="VT" />
    <tag k="ref:vcgi:esiteid" v="328402" />
  </node>
  <node id="-676" visible="true" lat="44.83052506" lon="-72.24698024">
    <tag k="addr:housenumber" v="2425" />
    <tag k="addr:street" v="U.S. Route 5" />
    <tag k="addr:state" v="VT" />
    <tag k="ref:vcgi:esiteid" v="330001" />
  </node>
  <node id="-677" visible="true" lat="44.85412346" lon="-72.31111392">
    <tag k="addr:housenumber" v="927" />
    <tag k="addr:street" v="Currier Hill Drive" />
    <tag k="addr:state" v="VT" />
    <tag k="ref:vcgi:esiteid" v="331110" />
  </node>
  <node id="-678" visible="true" lat="44.85132861" lon="-72.30061468">
    <tag k="addr:housenumber" v="352" />
    <tag k="addr:street" v="Currier Hill Drive" />
    <tag k="addr:state" v="VT" />
    <tag k="ref:vcgi:esiteid" v="331806" />
  </node>
  <node id="-679" visible="true" lat="44.8290454" lon="-72.25814283">
    <tag k="addr:housenumber" v="1829" />
    <tag k="addr:street" v="Covered Bridge Road" />
    <tag k="addr:state" v="VT" />
    <tag k="ref:vcgi:esiteid" v="331897" />
  </node>
  <node id="-680" visible="true" lat="44.80424267" lon="-72.27020675">
    <tag k="addr:housenumber" v="472" />
    <tag k="addr:street" v="Vermont Route 58 East" />
    <tag k="addr:state" v="VT" />
    <tag k="ref:vcgi:esiteid" v="332696" />
  </node>
  <node id="-681" visible="true" lat="44.79629441" lon="-72.22238018">
    <tag k="addr:housenumber" v="1096" />
    <tag k="addr:street" v="Lake Region Road" />
    <tag k="addr:state" v="VT" />
    <tag k="ref:vcgi:esiteid" v="333315" />
  </node>
  <node id="-682" visible="true" lat="44.850705" lon="-72.29792228">
    <tag k="addr:housenumber" v="440" />
    <tag k="addr:street" v="Currier Hill Drive" />
    <tag k="addr:state" v="VT" />
    <tag k="ref:vcgi:esiteid" v="333934" />
  </node>
  <node id="-683" visible="true" lat="44.8248704" lon="-72.34066858">
    <tag k="addr:housenumber" v="395" />
    <tag k="addr:street" v="Stephenson Heights" />
    <tag k="addr:state" v="VT" />
    <tag k="ref:vcgi:esiteid" v="334702" />
  </node>
  <node id="-684" visible="true" lat="44.85955411" lon="-72.27348065">
    <tag k="addr:housenumber" v="4576" />
    <tag k="addr:street" v="Back Coventry Road" />
    <tag k="addr:state" v="VT" />
    <tag k="ref:vcgi:esiteid" v="335057" />
  </node>
  <node id="-685" visible="true" lat="44.83661851" lon="-72.20828243">
    <tag k="addr:housenumber" v="1379" />
    <tag k="addr:street" v="River Road" />
    <tag k="addr:state" v="VT" />
    <tag k="ref:vcgi:esiteid" v="335368" />
  </node>
  <node id="-686" visible="true" lat="44.78114945" lon="-72.24150977">
    <tag k="addr:housenumber" v="430" />
    <tag k="addr:street" v="Chadburn Drive" />
    <tag k="addr:state" v="VT" />
    <tag k="ref:vcgi:esiteid" v="335427" />
  </node>
  <node id="-687" visible="true" lat="44.80159481" lon="-72.28173455">
    <tag k="addr:housenumber" v="4836" />
    <tag k="addr:street" v="Vermont Route 14" />
    <tag k="addr:state" v="VT" />
    <tag k="ref:vcgi:esiteid" v="336386" />
  </node>
  <node id="-688" visible="true" lat="44.83852882" lon="-72.28595811">
    <tag k="addr:housenumber" v="1727" />
    <tag k="addr:street" v="Vermont Route 14" />
    <tag k="addr:state" v="VT" />
    <tag k="ref:vcgi:esiteid" v="337312" />
  </node>
  <node id="-689" visible="true" lat="44.82408846" lon="-72.24223066">
    <tag k="addr:housenumber" v="1408" />
    <tag k="addr:street" v="Guyette Drive" />
    <tag k="addr:state" v="VT" />
    <tag k="ref:vcgi:esiteid" v="337673" />
  </node>
  <node id="-690" visible="true" lat="44.80241014" lon="-72.25364874">
    <tag k="addr:housenumber" v="129" />
    <tag k="addr:street" v="Lefebvre Drive" />
    <tag k="addr:state" v="VT" />
    <tag k="ref:vcgi:esiteid" v="337889" />
  </node>
  <node id="-691" visible="true" lat="44.80725078" lon="-72.30169494">
    <tag k="addr:housenumber" v="138" />
    <tag k="addr:street" v="Gage Road" />
    <tag k="addr:state" v="VT" />
    <tag k="ref:vcgi:esiteid" v="338275" />
  </node>
  <node id="-693" visible="true" lat="44.79330617" lon="-72.23706457">
    <tag k="addr:housenumber" v="470" />
    <tag k="addr:street" v="Royer Drive" />
    <tag k="addr:state" v="VT" />
    <tag k="ref:vcgi:esiteid" v="339549" />
  </node>
  <node id="-694" visible="true" lat="44.78946882" lon="-72.29554035">
    <tag k="addr:housenumber" v="5931" />
    <tag k="addr:street" v="Vermont Route 14" />
    <tag k="addr:state" v="VT" />
    <tag k="ref:vcgi:esiteid" v="340017" />
  </node>
  <node id="-695" visible="true" lat="44.85953276" lon="-72.2708674">
    <tag k="addr:housenumber" v="93" />
    <tag k="addr:street" v="Vermont Route 14" />
    <tag k="addr:state" v="VT" />
    <tag k="ref:vcgi:esiteid" v="340050" />
  </node>
  <node id="-696" visible="true" lat="44.84921529" lon="-72.23983662">
    <tag k="addr:housenumber" v="1185" />
    <tag k="addr:street" v="Airport Road" />
    <tag k="addr:state" v="VT" />
    <tag k="ref:vcgi:esiteid" v="341115" />
  </node>
  <node id="-697" visible="true" lat="44.80288576" lon="-72.30448094">
    <tag k="addr:housenumber" v="966" />
    <tag k="addr:street" v="Gage Road" />
    <tag k="addr:state" v="VT" />
    <tag k="ref:vcgi:esiteid" v="341515" />
  </node>
  <node id="-698" visible="true" lat="44.78941524" lon="-72.23581279">
    <tag k="addr:housenumber" v="471" />
    <tag k="addr:street" v="Royer Drive" />
    <tag k="addr:state" v="VT" />
    <tag k="ref:vcgi:esiteid" v="341852" />
  </node>
  <node id="-699" visible="true" lat="44.82181684" lon="-72.34921703">
    <tag k="addr:housenumber" v="234" />
    <tag k="addr:street" v="Kidder Hill Ridge" />
    <tag k="addr:state" v="VT" />
    <tag k="ref:vcgi:esiteid" v="341853" />
  </node>
  <node id="-700" visible="true" lat="44.82402413" lon="-72.34701719">
    <tag k="addr:housenumber" v="402" />
    <tag k="addr:street" v="Kidder Hill Ridge" />
    <tag k="addr:state" v="VT" />
    <tag k="ref:vcgi:esiteid" v="341854" />
  </node>
  <node id="-701" visible="true" lat="44.82231834" lon="-72.22131071">
    <tag k="addr:housenumber" v="191" />
    <tag k="addr:street" v="Stagecoach Lane" />
    <tag k="addr:state" v="VT" />
    <tag k="ref:vcgi:esiteid" v="344408" />
  </node>
  <node id="-702" visible="true" lat="44.79345657" lon="-72.28967805">
    <tag k="addr:housenumber" v="5549" />
    <tag k="addr:street" v="Vermont Route 14" />
    <tag k="addr:state" v="VT" />
    <tag k="ref:vcgi:esiteid" v="345792" />
  </node>
  <node id="-703" visible="true" lat="44.79299612" lon="-72.28945702">
    <tag k="addr:housenumber" v="5575" />
    <tag k="addr:street" v="Vermont Route 14" />
    <tag k="addr:state" v="VT" />
    <tag k="ref:vcgi:esiteid" v="365012" />
  </node>
  <node id="-704" visible="true" lat="44.76906097" lon="-72.28397023">
    <tag k="addr:housenumber" v="601" />
    <tag k="addr:street" v="Labounty Drive" />
    <tag k="addr:state" v="VT" />
    <tag k="ref:vcgi:esiteid" v="365019" />
  </node>
  <node id="-705" visible="true" lat="44.8228294" lon="-72.3193007">
    <tag k="addr:housenumber" v="636" />
    <tag k="addr:street" v="Sanville Drive" />
    <tag k="addr:state" v="VT" />
    <tag k="ref:vcgi:esiteid" v="446036" />
  </node>
  <node id="-706" visible="true" lat="44.80190809" lon="-72.30023767">
    <tag k="addr:housenumber" v="1179" />
    <tag k="addr:street" v="Gage Road" />
    <tag k="addr:state" v="VT" />
    <tag k="ref:vcgi:esiteid" v="446919" />
  </node>
  <node id="-708" visible="true" lat="44.80578208" lon="-72.29801358">
    <tag k="addr:housenumber" v="139" />
    <tag k="addr:street" v="Gage Road" />
    <tag k="addr:state" v="VT" />
    <tag k="ref:vcgi:esiteid" v="446950" />
  </node>
  <node id="-709" visible="true" lat="44.81712766" lon="-72.33965472">
    <tag k="addr:housenumber" v="17" />
    <tag k="addr:street" v="Brighton Brook Drive" />
    <tag k="addr:state" v="VT" />
    <tag k="ref:vcgi:esiteid" v="448270" />
  </node>
  <node id="-710" visible="true" lat="44.77612193" lon="-72.24384583">
    <tag k="addr:housenumber" v="391" />
    <tag k="addr:street" v="Scott Lane" />
    <tag k="addr:state" v="VT" />
    <tag k="ref:vcgi:esiteid" v="448370" />
  </node>
  <node id="-711" visible="true" lat="44.7990638" lon="-72.28047642">
    <tag k="addr:housenumber" v="204" />
    <tag k="addr:street" v="Creek Road" />
    <tag k="addr:state" v="VT" />
    <tag k="ref:vcgi:esiteid" v="449971" />
  </node>
  <node id="-712" visible="true" lat="44.81882704" lon="-72.20694819">
    <tag k="addr:housenumber" v="99" />
    <tag k="addr:street" v="River Road" />
    <tag k="addr:state" v="VT" />
    <tag k="ref:vcgi:esiteid" v="450517" />
  </node>
  <node id="-713" visible="true" lat="44.81071441" lon="-72.23779405">
    <tag k="addr:housenumber" v="463" />
    <tag k="addr:street" v="Guyette Drive" />
    <tag k="addr:state" v="VT" />
    <tag k="ref:vcgi:esiteid" v="451463" />
  </node>
  <node id="-714" visible="true" lat="44.8310747" lon="-72.33390718">
    <tag k="addr:housenumber" v="1396" />
    <tag k="addr:street" v="Kidder Hill Ridge" />
    <tag k="addr:state" v="VT" />
    <tag k="ref:vcgi:esiteid" v="451961" />
  </node>
  <node id="-715" visible="true" lat="44.79277409" lon="-72.22419691">
    <tag k="addr:housenumber" v="978" />
    <tag k="addr:street" v="Lake Region Road" />
    <tag k="addr:state" v="VT" />
    <tag k="ref:vcgi:esiteid" v="452384" />
  </node>
  <node id="-716" visible="true" lat="44.79250918" lon="-72.2241477">
    <tag k="addr:housenumber" v="948" />
    <tag k="addr:street" v="Lake Region Road" />
    <tag k="addr:state" v="VT" />
    <tag k="ref:vcgi:esiteid" v="452385" />
  </node>
  <node id="-717" visible="true" lat="44.80635462" lon="-72.25130397">
    <tag k="addr:housenumber" v="149" />
    <tag k="addr:street" v="Coderre Hill" />
    <tag k="addr:state" v="VT" />
    <tag k="ref:vcgi:esiteid" v="452879" />
  </node>
  <node id="-718" visible="true" lat="44.84348228" lon="-72.27582145">
    <tag k="addr:housenumber" v="1145" />
    <tag k="addr:street" v="Vermont Route 14" />
    <tag k="addr:state" v="VT" />
    <tag k="ref:vcgi:esiteid" v="452880" />
  </node>
  <node id="-719" visible="true" lat="44.79683671" lon="-72.28408825">
    <tag k="addr:housenumber" v="5099" />
    <tag k="addr:street" v="Vermont Route 14" />
    <tag k="addr:state" v="VT" />
    <tag k="ref:vcgi:esiteid" v="452881" />
  </node>
  <node id="-720" visible="true" lat="44.84306698" lon="-72.24714491">
    <tag k="addr:housenumber" v="581" />
    <tag k="addr:street" v="Airport Road" />
    <tag k="addr:state" v="VT" />
    <tag k="ref:vcgi:esiteid" v="454416" />
  </node>
  <node id="-721" visible="true" lat="44.84158063" lon="-72.2470925">
    <tag k="addr:housenumber" v="514" />
    <tag k="addr:street" v="Airport Road" />
    <tag k="addr:state" v="VT" />
    <tag k="ref:vcgi:esiteid" v="454511" />
  </node>
  <node id="-722" visible="true" lat="44.84786587" lon="-72.3202592">
    <tag k="addr:housenumber" v="459" />
    <tag k="addr:street" v="Poutre Drive" />
    <tag k="addr:state" v="VT" />
    <tag k="ref:vcgi:esiteid" v="455188" />
  </node>
  <node id="-723" visible="true" lat="44.81586963" lon="-72.25954441">
    <tag k="addr:housenumber" v="525" />
    <tag k="addr:street" v="Holy Moly Heights" />
    <tag k="addr:state" v="VT" />
    <tag k="ref:vcgi:esiteid" v="455437" />
  </node>
  <node id="-724" visible="true" lat="44.80440057" lon="-72.2629801">
    <tag k="addr:housenumber" v="759" />
    <tag k="addr:street" v="Vermont Route 58 East" />
    <tag k="addr:state" v="VT" />
    <tag k="ref:vcgi:esiteid" v="610142" />
  </node>
  <node id="-725" visible="true" lat="44.7775842" lon="-72.25316739">
    <tag k="addr:housenumber" v="117" />
    <tag k="addr:street" v="Chadburn Drive" />
    <tag k="addr:state" v="VT" />
    <tag k="ref:vcgi:esiteid" v="610789" />
  </node>
  <node id="-726" visible="true" lat="44.83794378" lon="-72.32691094">
    <tag k="addr:housenumber" v="49" />
    <tag k="addr:street" v="Lytle Road" />
    <tag k="addr:state" v="VT" />
    <tag k="ref:vcgi:esiteid" v="611015" />
  </node>
  <node id="-727" visible="true" lat="44.84067955" lon="-72.3118996">
    <tag k="addr:housenumber" v="267" />
    <tag k="addr:street" v="Poutre Drive" />
    <tag k="addr:state" v="VT" />
    <tag k="ref:vcgi:esiteid" v="611228" />
  </node>
  <node id="-728" visible="true" lat="44.80602783" lon="-72.27947641">
    <tag k="addr:housenumber" v="120" />
    <tag k="addr:street" v="Mill Road" />
    <tag k="addr:state" v="VT" />
    <tag k="ref:vcgi:esiteid" v="611391" />
  </node>
  <node id="-731" visible="true" lat="44.79901477" lon="-72.24150341">
    <tag k="addr:housenumber" v="1810" />
    <tag k="addr:street" v="Vermont Route 58 East" />
    <tag k="addr:state" v="VT" />
    <tag k="ref:vcgi:esiteid" v="614292" />
  </node>
  <node id="-732" visible="true" lat="44.80070655" lon="-72.28152632">
    <tag k="addr:housenumber" v="4885" />
    <tag k="addr:street" v="Vermont Route 14" />
    <tag k="addr:state" v="VT" />
    <tag k="ref:vcgi:esiteid" v="617351" />
  </node>
  <node id="-733" visible="true" lat="44.85333511" lon="-72.26390245">
    <tag k="addr:housenumber" v="4270" />
    <tag k="addr:street" v="U.S. Route 5" />
    <tag k="addr:state" v="VT" />
    <tag k="ref:vcgi:esiteid" v="617352" />
  </node>
  <node id="-734" visible="true" lat="44.78052366" lon="-72.32557559">
    <tag k="addr:housenumber" v="760" />
    <tag k="addr:street" v="Maxfield Drive" />
    <tag k="addr:state" v="VT" />
    <tag k="ref:vcgi:esiteid" v="617521" />
  </node>
  <node id="-735" visible="true" lat="44.78138221" lon="-72.32244366">
    <tag k="addr:housenumber" v="950" />
    <tag k="addr:street" v="Maxfield Drive" />
    <tag k="addr:state" v="VT" />
    <tag k="ref:vcgi:esiteid" v="617522" />
  </node>
  <node id="-738" visible="true" lat="44.805238" lon="-72.24880903">
    <tag k="addr:housenumber" v="107" />
    <tag k="addr:street" v="Coderre Hill" />
    <tag k="addr:state" v="VT" />
    <tag k="ref:vcgi:esiteid" v="617991" />
  </node>
  <node id="-739" visible="true" lat="44.83312441" lon="-72.34428418">
    <tag k="addr:housenumber" v="349" />
    <tag k="addr:street" v="McCoy Road" />
    <tag k="addr:state" v="VT" />
    <tag k="ref:vcgi:esiteid" v="618230" />
  </node>
  <node id="-740" visible="true" lat="44.85575299" lon="-72.3150953">
    <tag k="addr:housenumber" v="398" />
    <tag k="addr:street" v="Town Highway 16" />
    <tag k="addr:state" v="VT" />
    <tag k="ref:vcgi:esiteid" v="620259" />
  </node>
  <node id="-741" visible="true" lat="44.82562427" lon="-72.25350423">
    <tag k="addr:housenumber" v="712" />
    <tag k="addr:street" v="Campbell Road" />
    <tag k="addr:state" v="VT" />
    <tag k="ref:vcgi:esiteid" v="620800" />
  </node>
  <node id="-745" visible="true" lat="44.78009561" lon="-72.29256504">
    <tag k="addr:housenumber" v="5977" />
    <tag k="addr:street" v="Vermont Route 14" />
    <tag k="addr:state" v="VT" />
    <tag k="ref:vcgi:esiteid" v="750320" />
  </node>
  <node id="-746" visible="true" lat="44.78584698" lon="-72.2974642">
    <tag k="addr:housenumber" v="6069" />
    <tag k="addr:street" v="Vermont Route 14" />
    <tag k="addr:state" v="VT" />
    <tag k="ref:vcgi:esiteid" v="750321" />
  </node>
  <node id="-747" visible="true" lat="44.86287805" lon="-72.2873946">
    <tag k="addr:housenumber" v="687" />
    <tag k="addr:street" v="Chilafoux Hill" />
    <tag k="addr:state" v="VT" />
    <tag k="ref:vcgi:esiteid" v="753028" />
  </node>
  <node id="-749" visible="true" lat="44.84391228" lon="-72.26076564">
    <tag k="addr:housenumber" v="3630" />
    <tag k="addr:street" v="U.S. Route 5" />
    <tag k="addr:state" v="VT" />
    <tag k="ref:vcgi:esiteid" v="753454" />
  </node>
  <node id="-750" visible="true" lat="44.84436683" lon="-72.26123063">
    <tag k="addr:housenumber" v="3644" />
    <tag k="addr:street" v="U.S. Route 5" />
    <tag k="addr:state" v="VT" />
    <tag k="ref:vcgi:esiteid" v="753455" />
  </node>
  <node id="-751" visible="true" lat="44.78000108" lon="-72.26071285">
    <tag k="addr:housenumber" v="4111" />
    <tag k="addr:street" v="Burton Hill Road" />
    <tag k="addr:state" v="VT" />
    <tag k="ref:vcgi:esiteid" v="754321" />
  </node>
  <node id="-752" visible="true" lat="44.79422813" lon="-72.22682603">
    <tag k="addr:housenumber" v="997" />
    <tag k="addr:street" v="Lake Region Road" />
    <tag k="addr:state" v="VT" />
    <tag k="ref:vcgi:esiteid" v="755954" />
  </node>
  <node id="-753" visible="true" lat="44.81991464" lon="-72.32781761">
    <tag k="addr:housenumber" v="465" />
    <tag k="addr:street" v="Dupuis Drive" />
    <tag k="addr:state" v="VT" />
    <tag k="ref:vcgi:esiteid" v="757112" />
  </node>
  <node id="-754" visible="true" lat="44.85154644" lon="-72.27847365">
    <tag k="addr:housenumber" v="800" />
    <tag k="addr:street" v="Vermont Route 14" />
    <tag k="addr:state" v="VT" />
    <tag k="ref:vcgi:esiteid" v="757178" />
  </node>
  <node id="-755" visible="true" lat="44.80562292" lon="-72.23164481">
    <tag k="addr:housenumber" v="16" />
    <tag k="addr:street" v="Guyette Drive" />
    <tag k="addr:state" v="VT" />
    <tag k="ref:vcgi:esiteid" v="759197" />
  </node>
  <node id="-756" visible="true" lat="44.82667033" lon="-72.24459279">
    <tag k="addr:housenumber" v="1616" />
    <tag k="addr:street" v="Guyette Drive" />
    <tag k="addr:state" v="VT" />
    <tag k="ref:vcgi:esiteid" v="759229" />
  </node>
  <node id="-757" visible="true" lat="44.80853941" lon="-72.23483765">
    <tag k="addr:housenumber" v="299" />
    <tag k="addr:street" v="Guyette Drive" />
    <tag k="addr:state" v="VT" />
    <tag k="ref:vcgi:esiteid" v="759230" />
  </node>
  <node id="-758" visible="true" lat="44.8201733" lon="-72.24450678">
    <tag k="addr:housenumber" v="1251" />
    <tag k="addr:street" v="Guyette Drive" />
    <tag k="addr:state" v="VT" />
    <tag k="ref:vcgi:esiteid" v="759231" />
  </node>
  <node id="-760" visible="true" lat="44.82651482" lon="-72.24031872">
    <tag k="addr:housenumber" v="1955" />
    <tag k="addr:street" v="U.S. Route 5" />
    <tag k="addr:state" v="VT" />
    <tag k="ref:vcgi:esiteid" v="759233" />
  </node>
  <node id="-761" visible="true" lat="44.83382202" lon="-72.31629889">
    <tag k="addr:housenumber" v="19" />
    <tag k="addr:street" v="Simino Lane" />
    <tag k="addr:state" v="VT" />
    <tag k="ref:vcgi:esiteid" v="759510" />
  </node>
  <node id="-762" visible="true" lat="44.83576072" lon="-72.31118384">
    <tag k="addr:housenumber" v="1700" />
    <tag k="addr:street" v="Back Coventry Road" />
    <tag k="addr:state" v="VT" />
    <tag k="ref:vcgi:esiteid" v="759511" />
  </node>
  <node id="-763" visible="true" lat="44.83432409" lon="-72.31801172">
    <tag k="addr:housenumber" v="190" />
    <tag k="addr:street" v="Simino Lane" />
    <tag k="addr:state" v="VT" />
    <tag k="ref:vcgi:esiteid" v="761014" />
  </node>
  <node id="-764" visible="true" lat="44.8391816" lon="-72.25863626">
    <tag k="addr:housenumber" v="3244" />
    <tag k="addr:street" v="U.S. Route 5" />
    <tag k="addr:state" v="VT" />
    <tag k="ref:vcgi:esiteid" v="761045" />
  </node>
  <node id="-765" visible="true" lat="44.7774724" lon="-72.27277208">
    <tag k="addr:housenumber" v="835" />
    <tag k="addr:street" v="West Glover Road" />
    <tag k="addr:state" v="VT" />
    <tag k="ref:vcgi:esiteid" v="761362" />
  </node>
  <node id="-766" visible="true" lat="44.84590118" lon="-72.28314124">
    <tag k="addr:housenumber" v="1124" />
    <tag k="addr:street" v="Vermont Route 14" />
    <tag k="addr:state" v="VT" />
    <tag k="ref:vcgi:esiteid" v="761744" />
  </node>
  <node id="-767" visible="true" lat="44.82072573" lon="-72.31691161">
    <tag k="addr:housenumber" v="460" />
    <tag k="addr:street" v="Sanville Drive" />
    <tag k="addr:state" v="VT" />
    <tag k="ref:vcgi:esiteid" v="761848" />
  </node>
  <node id="-768" visible="true" lat="44.83973787" lon="-72.31777534">
    <tag k="addr:housenumber" v="1871" />
    <tag k="addr:street" v="Back Coventry Road" />
    <tag k="addr:state" v="VT" />
    <tag k="ref:vcgi:esiteid" v="762081" />
  </node>
  <node id="-771" visible="true" lat="44.83215889" lon="-72.2556299">
    <tag k="addr:housenumber" v="2095" />
    <tag k="addr:street" v="Covered Bridge Road" />
    <tag k="addr:state" v="VT" />
    <tag k="ref:vcgi:esiteid" v="762145" />
  </node>
  <node id="-772" visible="true" lat="44.84373168" lon="-72.28585786">
    <tag k="addr:housenumber" v="92" />
    <tag k="addr:street" v="White Road" />
    <tag k="addr:state" v="VT" />
    <tag k="ref:vcgi:esiteid" v="763113" />
  </node>
  <node id="-773" visible="true" lat="44.76186015" lon="-72.26732755">
    <tag k="addr:housenumber" v="290" />
    <tag k="addr:street" v="Young Lane" />
    <tag k="addr:state" v="VT" />
    <tag k="ref:vcgi:esiteid" v="763298" />
  </node>
  <node id="-774" visible="true" lat="44.83031692" lon="-72.25999241">
    <tag k="addr:housenumber" v="1831" />
    <tag k="addr:street" v="Covered Bridge Road" />
    <tag k="addr:state" v="VT" />
    <tag k="ref:vcgi:esiteid" v="763389" />
  </node>
  <node id="-775" visible="true" lat="44.81445979" lon="-72.31249925">
    <tag k="addr:housenumber" v="901" />
    <tag k="addr:street" v="Vermont Route 58 West" />
    <tag k="addr:state" v="VT" />
    <tag k="ref:vcgi:esiteid" v="763789" />
  </node>
  <node id="-776" visible="true" lat="44.81396393" lon="-72.31283989">
    <tag k="addr:housenumber" v="905" />
    <tag k="addr:street" v="Vermont Route 58 West" />
    <tag k="addr:state" v="VT" />
    <tag k="ref:vcgi:esiteid" v="763790" />
  </node>
  <node id="-783" visible="true" lat="44.75687079" lon="-72.25122153">
    <tag k="addr:housenumber" v="2720" />
    <tag k="addr:street" v="West Glover Road" />
    <tag k="addr:state" v="VT" />
    <tag k="ref:vcgi:esiteid" v="764375" />
  </node>
  <node id="-784" visible="true" lat="44.78189974" lon="-72.27244824">
    <tag k="addr:housenumber" v="495" />
    <tag k="addr:street" v="West Glover Road" />
    <tag k="addr:state" v="VT" />
    <tag k="ref:vcgi:esiteid" v="764376" />
  </node>
  <node id="-785" visible="true" lat="44.83221917" lon="-72.316906">
    <tag k="addr:housenumber" v="215" />
    <tag k="addr:street" v="Simino Lane" />
    <tag k="addr:state" v="VT" />
    <tag k="ref:vcgi:esiteid" v="765572" />
  </node>
  <node id="-786" visible="true" lat="44.80908226" lon="-72.32748612">
    <tag k="addr:housenumber" v="367" />
    <tag k="addr:street" v="Alexander Lane" />
    <tag k="addr:state" v="VT" />
    <tag k="ref:vcgi:esiteid" v="766560" />
  </node>
  <node id="-787" visible="true" lat="44.78928737" lon="-72.22834765">
    <tag k="addr:housenumber" v="315" />
    <tag k="addr:street" v="Royer Drive" />
    <tag k="addr:state" v="VT" />
    <tag k="ref:vcgi:esiteid" v="767013" />
  </node>
  <node id="-788" visible="true" lat="44.83862946" lon="-72.25736763">
    <tag k="addr:housenumber" v="3170" />
    <tag k="addr:street" v="U.S. Route 5" />
    <tag k="addr:state" v="VT" />
    <tag k="ref:vcgi:esiteid" v="768880" />
  </node>
  <node id="-789" visible="true" lat="44.8386517" lon="-72.25802845">
    <tag k="addr:housenumber" v="3186" />
    <tag k="addr:street" v="U.S. Route 5" />
    <tag k="addr:state" v="VT" />
    <tag k="ref:vcgi:esiteid" v="768881" />
  </node>
  <node id="-790" visible="true" lat="44.82205908" lon="-72.26268891">
    <tag k="addr:housenumber" v="1303" />
    <tag k="addr:street" v="Covered Bridge Road" />
    <tag k="addr:state" v="VT" />
    <tag k="ref:vcgi:esiteid" v="769658" />
  </node>
  <node id="-791" visible="true" lat="44.78295151" lon="-72.27494501">
    <tag k="addr:housenumber" v="450" />
    <tag k="addr:street" v="West Glover Road" />
    <tag k="addr:state" v="VT" />
    <tag k="ref:vcgi:esiteid" v="769736" />
  </node>
  <node id="-792" visible="true" lat="44.82727691" lon="-72.24383102">
    <tag k="addr:housenumber" v="127" />
    <tag k="addr:street" v="Campbell Road" />
    <tag k="addr:state" v="VT" />
    <tag k="ref:vcgi:esiteid" v="770232" />
  </node>
  <node id="-793" visible="true" lat="44.77586199" lon="-72.25449365">
    <tag k="addr:housenumber" v="11" />
    <tag k="addr:street" v="Chadburn Drive" />
    <tag k="addr:state" v="VT" />
    <tag k="ref:vcgi:esiteid" v="900235" />
  </node>
  <node id="-794" visible="true" lat="44.80261511" lon="-72.27908466">
    <tag k="addr:housenumber" v="97" />
    <tag k="addr:street" v="Park Avenue" />
    <tag k="addr:state" v="VT" />
    <tag k="ref:vcgi:esiteid" v="1050746" />
  </node>
</osm>
