<?xml version="1.0" encoding="UTF-8"?>
<osm version="0.6" generator="JOSM">
  <node id="-100" visible="true" lat="44.92397382" lon="-71.54385638">
    <tag k="addr:city" v="Lemington" />
    <tag k="addr:housenumber" v="214" />
    <tag k="addr:street" v="Lewis Lane" />
    <tag k="addr:state" v="VT" />
    <tag k="ref:vcgi:esiteid" v="59207" />
  </node>
  <node id="-101" visible="true" lat="44.92307987" lon="-71.54174806">
    <tag k="addr:city" v="Lemington" />
    <tag k="addr:housenumber" v="312" />
    <tag k="addr:street" v="Lewis Lane" />
    <tag k="addr:state" v="VT" />
    <tag k="ref:vcgi:esiteid" v="59208" />
  </node>
  <node id="-102" visible="true" lat="44.9235962" lon="-71.54810453">
    <tag k="addr:city" v="Lemington" />
    <tag k="addr:housenumber" v="145" />
    <tag k="addr:street" v="Todd Hill Road" />
    <tag k="addr:state" v="VT" />
    <tag k="ref:vcgi:esiteid" v="140006" />
  </node>
  <node id="-103" visible="true" lat="44.92386402" lon="-71.57962476">
    <tag k="addr:city" v="Lemington" />
    <tag k="addr:housenumber" v="1952" />
    <tag k="addr:street" v="Todd Hill Road" />
    <tag k="addr:state" v="VT" />
    <tag k="ref:vcgi:esiteid" v="140007" />
  </node>
  <node id="-104" visible="true" lat="44.92258084" lon="-71.55499225">
    <tag k="addr:city" v="Lemington" />
    <tag k="addr:housenumber" v="501" />
    <tag k="addr:street" v="Todd Hill Road" />
    <tag k="addr:state" v="VT" />
    <tag k="ref:vcgi:esiteid" v="140008" />
  </node>
  <node id="-105" visible="true" lat="44.92261377" lon="-71.55829517">
    <tag k="addr:city" v="Lemington" />
    <tag k="addr:housenumber" v="654" />
    <tag k="addr:street" v="Todd Hill Road" />
    <tag k="addr:state" v="VT" />
    <tag k="ref:vcgi:esiteid" v="140009" />
  </node>
  <node id="-106" visible="true" lat="44.92154412" lon="-71.55827577">
    <tag k="addr:city" v="Lemington" />
    <tag k="addr:housenumber" v="685" />
    <tag k="addr:street" v="Todd Hill Road" />
    <tag k="addr:state" v="VT" />
    <tag k="ref:vcgi:esiteid" v="140010" />
  </node>
  <node id="-107" visible="true" lat="44.92092714" lon="-71.56497258">
    <tag k="addr:city" v="Lemington" />
    <tag k="addr:housenumber" v="986" />
    <tag k="addr:street" v="Todd Hill Road" />
    <tag k="addr:state" v="VT" />
    <tag k="ref:vcgi:esiteid" v="140011" />
  </node>
  <node id="-108" visible="true" lat="44.92101161" lon="-71.55961702">
    <tag k="addr:city" v="Lemington" />
    <tag k="addr:housenumber" v="755" />
    <tag k="addr:street" v="Todd Hill Road" />
    <tag k="addr:state" v="VT" />
    <tag k="ref:vcgi:esiteid" v="140012" />
  </node>
  <node id="-109" visible="true" lat="44.92074326" lon="-71.56010061">
    <tag k="addr:city" v="Lemington" />
    <tag k="addr:housenumber" v="797" />
    <tag k="addr:street" v="Todd Hill Road" />
    <tag k="addr:state" v="VT" />
    <tag k="ref:vcgi:esiteid" v="140013" />
  </node>
  <node id="-110" visible="true" lat="44.90981899" lon="-71.50529694">
    <tag k="addr:city" v="Lemington" />
    <tag k="addr:housenumber" v="7218" />
    <tag k="addr:street" v="Vermont Route 102" />
    <tag k="addr:state" v="VT" />
    <tag k="ref:vcgi:esiteid" v="140014" />
  </node>
  <node id="-111" visible="true" lat="44.90942945" lon="-71.50595542">
    <tag k="addr:city" v="Lemington" />
    <tag k="addr:housenumber" v="7217" />
    <tag k="addr:street" v="Vermont Route 102" />
    <tag k="addr:state" v="VT" />
    <tag k="ref:vcgi:esiteid" v="140015" />
  </node>
  <node id="-112" visible="true" lat="44.90931365" lon="-71.5048911">
    <tag k="addr:city" v="Lemington" />
    <tag k="addr:housenumber" v="7182" />
    <tag k="addr:street" v="Vermont Route 102" />
    <tag k="addr:state" v="VT" />
    <tag k="ref:vcgi:esiteid" v="140016" />
  </node>
  <node id="-113" visible="true" lat="44.90933487" lon="-71.50393009">
    <tag k="addr:city" v="Lemington" />
    <tag k="addr:housenumber" v="7168" />
    <tag k="addr:street" v="Vermont Route 102" />
    <tag k="addr:state" v="VT" />
    <tag k="ref:vcgi:esiteid" v="140017" />
  </node>
  <node id="-114" visible="true" lat="44.90887624" lon="-71.50554773">
    <tag k="addr:city" v="Lemington" />
    <tag k="addr:housenumber" v="7181" />
    <tag k="addr:street" v="Vermont Route 102" />
    <tag k="addr:state" v="VT" />
    <tag k="ref:vcgi:esiteid" v="140018" />
  </node>
  <node id="-115" visible="true" lat="44.90861362" lon="-71.50533689">
    <tag k="addr:city" v="Lemington" />
    <tag k="addr:housenumber" v="7153" />
    <tag k="addr:street" v="Vermont Route 102" />
    <tag k="addr:state" v="VT" />
    <tag k="ref:vcgi:esiteid" v="140019" />
  </node>
  <node id="-116" visible="true" lat="44.90829086" lon="-71.50509882">
    <tag k="addr:city" v="Lemington" />
    <tag k="addr:housenumber" v="7119" />
    <tag k="addr:street" v="Vermont Route 102" />
    <tag k="addr:state" v="VT" />
    <tag k="ref:vcgi:esiteid" v="140020" />
  </node>
  <node id="-117" visible="true" lat="44.90804525" lon="-71.50407143">
    <tag k="addr:city" v="Lemington" />
    <tag k="addr:housenumber" v="7098" />
    <tag k="addr:street" v="Vermont Route 102" />
    <tag k="addr:state" v="VT" />
    <tag k="ref:vcgi:esiteid" v="140021" />
  </node>
  <node id="-118" visible="true" lat="44.90783748" lon="-71.50518969">
    <tag k="addr:city" v="Lemington" />
    <tag k="addr:housenumber" v="7089" />
    <tag k="addr:street" v="Vermont Route 102" />
    <tag k="addr:state" v="VT" />
    <tag k="ref:vcgi:esiteid" v="140022" />
  </node>
  <node id="-119" visible="true" lat="44.90750462" lon="-71.50455677">
    <tag k="addr:city" v="Lemington" />
    <tag k="addr:housenumber" v="7061" />
    <tag k="addr:street" v="Vermont Route 102" />
    <tag k="addr:state" v="VT" />
    <tag k="ref:vcgi:esiteid" v="140023" />
  </node>
  <node id="-120" visible="true" lat="44.90719711" lon="-71.50434949">
    <tag k="addr:city" v="Lemington" />
    <tag k="addr:housenumber" v="7047" />
    <tag k="addr:street" v="Vermont Route 102" />
    <tag k="addr:state" v="VT" />
    <tag k="ref:vcgi:esiteid" v="140024" />
  </node>
  <node id="-121" visible="true" lat="44.90680961" lon="-71.50341288">
    <tag k="addr:city" v="Lemington" />
    <tag k="addr:housenumber" v="6998" />
    <tag k="addr:street" v="Vermont Route 102" />
    <tag k="addr:state" v="VT" />
    <tag k="ref:vcgi:esiteid" v="140025" />
  </node>
  <node id="-122" visible="true" lat="44.90667756" lon="-71.50404493">
    <tag k="addr:city" v="Lemington" />
    <tag k="addr:housenumber" v="6997" />
    <tag k="addr:street" v="Vermont Route 102" />
    <tag k="addr:state" v="VT" />
    <tag k="ref:vcgi:esiteid" v="140026" />
  </node>
  <node id="-123" visible="true" lat="44.90614556" lon="-71.50364473">
    <tag k="addr:city" v="Lemington" />
    <tag k="addr:housenumber" v="6951" />
    <tag k="addr:street" v="Vermont Route 102" />
    <tag k="addr:state" v="VT" />
    <tag k="ref:vcgi:esiteid" v="140027" />
  </node>
  <node id="-124" visible="true" lat="44.90473381" lon="-71.50151534">
    <tag k="addr:city" v="Lemington" />
    <tag k="addr:housenumber" v="6822" />
    <tag k="addr:street" v="Vermont Route 102" />
    <tag k="addr:state" v="VT" />
    <tag k="ref:vcgi:esiteid" v="140028" />
  </node>
  <node id="-125" visible="true" lat="44.90439828" lon="-71.50208004">
    <tag k="addr:city" v="Lemington" />
    <tag k="addr:housenumber" v="28" />
    <tag k="addr:street" v="Covell Road" />
    <tag k="addr:state" v="VT" />
    <tag k="ref:vcgi:esiteid" v="140029" />
  </node>
  <node id="-126" visible="true" lat="44.90411669" lon="-71.50311779">
    <tag k="addr:city" v="Lemington" />
    <tag k="addr:housenumber" v="64" />
    <tag k="addr:street" v="Covell Road" />
    <tag k="addr:state" v="VT" />
    <tag k="ref:vcgi:esiteid" v="140030" />
  </node>
  <node id="-127" visible="true" lat="44.90315345" lon="-71.5030542">
    <tag k="addr:city" v="Lemington" />
    <tag k="addr:housenumber" v="135" />
    <tag k="addr:street" v="Covell Road" />
    <tag k="addr:state" v="VT" />
    <tag k="ref:vcgi:esiteid" v="140031" />
  </node>
  <node id="-128" visible="true" lat="44.90137962" lon="-71.50765473">
    <tag k="addr:city" v="Lemington" />
    <tag k="addr:housenumber" v="6489" />
    <tag k="addr:street" v="Vermont Route 102" />
    <tag k="addr:state" v="VT" />
    <tag k="ref:vcgi:esiteid" v="140032" />
  </node>
  <node id="-129" visible="true" lat="44.90066627" lon="-71.51469666">
    <tag k="addr:city" v="Lemington" />
    <tag k="addr:housenumber" v="405" />
    <tag k="addr:street" v="Fire Tower Lane" />
    <tag k="addr:state" v="VT" />
    <tag k="ref:vcgi:esiteid" v="140033" />
  </node>
  <node id="-130" visible="true" lat="44.90033331" lon="-71.50778702">
    <tag k="addr:city" v="Lemington" />
    <tag k="addr:housenumber" v="6403" />
    <tag k="addr:street" v="Vermont Route 102" />
    <tag k="addr:state" v="VT" />
    <tag k="ref:vcgi:esiteid" v="140034" />
  </node>
  <node id="-131" visible="true" lat="44.89991453" lon="-71.50824265">
    <tag k="addr:city" v="Lemington" />
    <tag k="addr:housenumber" v="6349" />
    <tag k="addr:street" v="Vermont Route 102" />
    <tag k="addr:state" v="VT" />
    <tag k="ref:vcgi:esiteid" v="140035" />
  </node>
  <node id="-132" visible="true" lat="44.89968262" lon="-71.50827336">
    <tag k="addr:city" v="Lemington" />
    <tag k="addr:housenumber" v="6333" />
    <tag k="addr:street" v="Vermont Route 102" />
    <tag k="addr:state" v="VT" />
    <tag k="ref:vcgi:esiteid" v="140036" />
  </node>
  <node id="-133" visible="true" lat="44.89931547" lon="-71.50852824">
    <tag k="addr:city" v="Lemington" />
    <tag k="addr:housenumber" v="6311" />
    <tag k="addr:street" v="Vermont Route 102" />
    <tag k="addr:state" v="VT" />
    <tag k="ref:vcgi:esiteid" v="140037" />
  </node>
  <node id="-134" visible="true" lat="44.89911972" lon="-71.50863515">
    <tag k="addr:city" v="Lemington" />
    <tag k="addr:housenumber" v="6309" />
    <tag k="addr:street" v="Vermont Route 102" />
    <tag k="addr:state" v="VT" />
    <tag k="ref:vcgi:esiteid" v="140038" />
  </node>
  <node id="-135" visible="true" lat="44.8988112" lon="-71.50878661">
    <tag k="addr:city" v="Lemington" />
    <tag k="addr:housenumber" v="6291" />
    <tag k="addr:street" v="Vermont Route 102" />
    <tag k="addr:state" v="VT" />
    <tag k="ref:vcgi:esiteid" v="140039" />
  </node>
  <node id="-136" visible="true" lat="44.89857963" lon="-71.5092569">
    <tag k="addr:city" v="Lemington" />
    <tag k="addr:housenumber" v="6255" />
    <tag k="addr:street" v="Vermont Route 102" />
    <tag k="addr:state" v="VT" />
    <tag k="ref:vcgi:esiteid" v="140040" />
  </node>
  <node id="-137" visible="true" lat="44.89831508" lon="-71.50955128">
    <tag k="addr:city" v="Lemington" />
    <tag k="addr:housenumber" v="6225" />
    <tag k="addr:street" v="Vermont Route 102" />
    <tag k="addr:state" v="VT" />
    <tag k="ref:vcgi:esiteid" v="140041" />
  </node>
  <node id="-138" visible="true" lat="44.89749955" lon="-71.50928192">
    <tag k="addr:city" v="Lemington" />
    <tag k="addr:housenumber" v="6192" />
    <tag k="addr:street" v="Vermont Route 102" />
    <tag k="addr:state" v="VT" />
    <tag k="ref:vcgi:esiteid" v="140042" />
  </node>
  <node id="-139" visible="true" lat="44.89762278" lon="-71.50978766">
    <tag k="addr:city" v="Lemington" />
    <tag k="addr:housenumber" v="6175" />
    <tag k="addr:street" v="Vermont Route 102" />
    <tag k="addr:state" v="VT" />
    <tag k="ref:vcgi:esiteid" v="140043" />
  </node>
  <node id="-140" visible="true" lat="44.89558424" lon="-71.5121674">
    <tag k="addr:city" v="Lemington" />
    <tag k="addr:housenumber" v="6002" />
    <tag k="addr:street" v="Vermont Route 102" />
    <tag k="addr:state" v="VT" />
    <tag k="ref:vcgi:esiteid" v="140044" />
  </node>
  <node id="-141" visible="true" lat="44.89310651" lon="-71.51558192">
    <tag k="addr:city" v="Lemington" />
    <tag k="addr:housenumber" v="5682" />
    <tag k="addr:street" v="Vermont Route 102" />
    <tag k="addr:state" v="VT" />
    <tag k="ref:vcgi:esiteid" v="140045" />
  </node>
  <node id="-142" visible="true" lat="44.88864999" lon="-71.60131321">
    <tag k="addr:city" v="Lemington" />
    <tag k="addr:housenumber" v="497" />
    <tag k="addr:street" v="Mill Road" />
    <tag k="addr:state" v="VT" />
    <tag k="ref:vcgi:esiteid" v="140046" />
  </node>
  <node id="-143" visible="true" lat="44.87933068" lon="-71.55498751">
    <tag k="addr:city" v="Lemington" />
    <tag k="addr:housenumber" v="1032" />
    <tag k="addr:street" v="Mill Road" />
    <tag k="addr:state" v="VT" />
    <tag k="ref:vcgi:esiteid" v="140047" />
  </node>
  <node id="-144" visible="true" lat="44.87727837" lon="-71.55925998">
    <tag k="addr:city" v="Lemington" />
    <tag k="addr:housenumber" v="928" />
    <tag k="addr:street" v="Mill Road" />
    <tag k="addr:state" v="VT" />
    <tag k="ref:vcgi:esiteid" v="140048" />
  </node>
  <node id="-145" visible="true" lat="44.87565332" lon="-71.58705387">
    <tag k="addr:city" v="Lemington" />
    <tag k="addr:housenumber" v="885" />
    <tag k="addr:street" v="Wallace Road" />
    <tag k="addr:state" v="VT" />
    <tag k="ref:vcgi:esiteid" v="140049" />
  </node>
  <node id="-146" visible="true" lat="44.87418083" lon="-71.53086336">
    <tag k="addr:city" v="Lemington" />
    <tag k="addr:housenumber" v="4157" />
    <tag k="addr:street" v="Vermont Route 102" />
    <tag k="addr:state" v="VT" />
    <tag k="ref:vcgi:esiteid" v="140050" />
  </node>
  <node id="-147" visible="true" lat="44.87286477" lon="-71.5612131">
    <tag k="addr:city" v="Lemington" />
    <tag k="addr:housenumber" v="593" />
    <tag k="addr:street" v="Mill Road" />
    <tag k="addr:state" v="VT" />
    <tag k="ref:vcgi:esiteid" v="140051" />
  </node>
  <node id="-148" visible="true" lat="44.87218576" lon="-71.59944401">
    <tag k="addr:city" v="Lemington" />
    <tag k="addr:housenumber" v="655" />
    <tag k="addr:street" v="Frizzell Road" />
    <tag k="addr:state" v="VT" />
    <tag k="ref:vcgi:esiteid" v="140052" />
  </node>
  <node id="-149" visible="true" lat="44.87175087" lon="-71.56208286">
    <tag k="addr:city" v="Lemington" />
    <tag k="addr:housenumber" v="495" />
    <tag k="addr:street" v="Mill Road" />
    <tag k="addr:state" v="VT" />
    <tag k="ref:vcgi:esiteid" v="140053" />
  </node>
  <node id="-150" visible="true" lat="44.87164407" lon="-71.58485661">
    <tag k="addr:city" v="Lemington" />
    <tag k="addr:housenumber" v="586" />
    <tag k="addr:street" v="Wallace Road" />
    <tag k="addr:state" v="VT" />
    <tag k="ref:vcgi:esiteid" v="140054" />
  </node>
  <node id="-151" visible="true" lat="44.86908605" lon="-71.53715504">
    <tag k="addr:city" v="Lemington" />
    <tag k="addr:housenumber" v="3650" />
    <tag k="addr:street" v="Vermont Route 102" />
    <tag k="addr:state" v="VT" />
    <tag k="ref:vcgi:esiteid" v="140055" />
  </node>
  <node id="-152" visible="true" lat="44.86779885" lon="-71.56209812">
    <tag k="addr:city" v="Lemington" />
    <tag k="addr:housenumber" v="190" />
    <tag k="addr:street" v="Mill Road" />
    <tag k="addr:state" v="VT" />
    <tag k="ref:vcgi:esiteid" v="140056" />
  </node>
  <node id="-153" visible="true" lat="44.86689858" lon="-71.54510745">
    <tag k="addr:city" v="Lemington" />
    <tag k="addr:housenumber" v="3231" />
    <tag k="addr:street" v="Vermont Route 102" />
    <tag k="addr:state" v="VT" />
    <tag k="ref:vcgi:esiteid" v="140057" />
  </node>
  <node id="-154" visible="true" lat="44.86705498" lon="-71.56461582">
    <tag k="addr:city" v="Lemington" />
    <tag k="addr:housenumber" v="998" />
    <tag k="addr:street" v="Sims Hill Road" />
    <tag k="addr:state" v="VT" />
    <tag k="ref:vcgi:esiteid" v="140058" />
  </node>
  <node id="-155" visible="true" lat="44.86611656" lon="-71.54773196">
    <tag k="addr:city" v="Lemington" />
    <tag k="addr:housenumber" v="3079" />
    <tag k="addr:street" v="Vermont Route 102" />
    <tag k="addr:state" v="VT" />
    <tag k="ref:vcgi:esiteid" v="140059" />
  </node>
  <node id="-156" visible="true" lat="44.86619527" lon="-71.60044697">
    <tag k="addr:city" v="Lemington" />
    <tag k="addr:housenumber" v="3122" />
    <tag k="addr:street" v="Sims Hill Road" />
    <tag k="addr:state" v="VT" />
    <tag k="ref:vcgi:esiteid" v="140060" />
  </node>
  <node id="-157" visible="true" lat="44.86612802" lon="-71.58209477">
    <tag k="addr:city" v="Lemington" />
    <tag k="addr:housenumber" v="167" />
    <tag k="addr:street" v="Wallace Road" />
    <tag k="addr:state" v="VT" />
    <tag k="ref:vcgi:esiteid" v="140061" />
  </node>
  <node id="-158" visible="true" lat="44.86560921" lon="-71.56325779">
    <tag k="addr:city" v="Lemington" />
    <tag k="addr:housenumber" v="902" />
    <tag k="addr:street" v="Sims Hill Road" />
    <tag k="addr:state" v="VT" />
    <tag k="ref:vcgi:esiteid" v="140062" />
  </node>
  <node id="-159" visible="true" lat="44.86515526" lon="-71.54791507">
    <tag k="addr:city" v="Lemington" />
    <tag k="addr:housenumber" v="3077" />
    <tag k="addr:street" v="Vermont Route 102" />
    <tag k="addr:state" v="VT" />
    <tag k="ref:vcgi:esiteid" v="140063" />
  </node>
  <node id="-160" visible="true" lat="44.86471609" lon="-71.60017062">
    <tag k="addr:city" v="Lemington" />
    <tag k="addr:housenumber" v="3182" />
    <tag k="addr:street" v="Sims Hill Road" />
    <tag k="addr:state" v="VT" />
    <tag k="ref:vcgi:esiteid" v="140064" />
  </node>
  <node id="-161" visible="true" lat="44.86408334" lon="-71.60200749">
    <tag k="addr:city" v="Lemington" />
    <tag k="addr:housenumber" v="3264" />
    <tag k="addr:street" v="Sims Hill Road" />
    <tag k="addr:state" v="VT" />
    <tag k="ref:vcgi:esiteid" v="140065" />
  </node>
  <node id="-162" visible="true" lat="44.86315226" lon="-71.59572809">
    <tag k="addr:city" v="Lemington" />
    <tag k="addr:housenumber" v="2883" />
    <tag k="addr:street" v="Sims Hill Road" />
    <tag k="addr:state" v="VT" />
    <tag k="ref:vcgi:esiteid" v="140066" />
  </node>
  <node id="-163" visible="true" lat="44.86308614" lon="-71.6000698">
    <tag k="addr:city" v="Lemington" />
    <tag k="addr:housenumber" v="3257" />
    <tag k="addr:street" v="Sims Hill Road" />
    <tag k="addr:state" v="VT" />
    <tag k="ref:vcgi:esiteid" v="140067" />
  </node>
  <node id="-164" visible="true" lat="44.86300759" lon="-71.58243809">
    <tag k="addr:city" v="Lemington" />
    <tag k="addr:housenumber" v="2032" />
    <tag k="addr:street" v="Sims Hill Road" />
    <tag k="addr:state" v="VT" />
    <tag k="ref:vcgi:esiteid" v="140068" />
  </node>
  <node id="-165" visible="true" lat="44.86177544" lon="-71.55066165">
    <tag k="addr:city" v="Lemington" />
    <tag k="addr:housenumber" v="2779" />
    <tag k="addr:street" v="Vermont Route 102" />
    <tag k="addr:state" v="VT" />
    <tag k="ref:vcgi:esiteid" v="140069" />
  </node>
  <node id="-166" visible="true" lat="44.8611422" lon="-71.55122623">
    <tag k="addr:city" v="Lemington" />
    <tag k="addr:housenumber" v="2731" />
    <tag k="addr:street" v="Vermont Route 102" />
    <tag k="addr:state" v="VT" />
    <tag k="ref:vcgi:esiteid" v="140070" />
  </node>
  <node id="-167" visible="true" lat="44.86149698" lon="-71.60238133">
    <tag k="addr:city" v="Lemington" />
    <tag k="addr:housenumber" v="150" />
    <tag k="addr:street" v="Graves Lane" />
    <tag k="addr:state" v="VT" />
    <tag k="ref:vcgi:esiteid" v="140071" />
  </node>
  <node id="-168" visible="true" lat="44.86084827" lon="-71.58891128">
    <tag k="addr:city" v="Lemington" />
    <tag k="addr:housenumber" v="2554" />
    <tag k="addr:street" v="Sims Hill Road" />
    <tag k="addr:state" v="VT" />
    <tag k="ref:vcgi:esiteid" v="140072" />
  </node>
  <node id="-169" visible="true" lat="44.8605796" lon="-71.59015868">
    <tag k="addr:city" v="Lemington" />
    <tag k="addr:housenumber" v="2597" />
    <tag k="addr:street" v="Sims Hill Road" />
    <tag k="addr:state" v="VT" />
    <tag k="ref:vcgi:esiteid" v="140073" />
  </node>
  <node id="-170" visible="true" lat="44.86051659" lon="-71.57914982">
    <tag k="addr:city" v="Lemington" />
    <tag k="addr:housenumber" v="1641" />
    <tag k="addr:street" v="Sims Hill Road" />
    <tag k="addr:state" v="VT" />
    <tag k="ref:vcgi:esiteid" v="140074" />
  </node>
  <node id="-171" visible="true" lat="44.85973396" lon="-71.58410625">
    <tag k="addr:city" v="Lemington" />
    <tag k="addr:housenumber" v="2284" />
    <tag k="addr:street" v="Sims Hill Road" />
    <tag k="addr:state" v="VT" />
    <tag k="ref:vcgi:esiteid" v="140075" />
  </node>
  <node id="-172" visible="true" lat="44.85954385" lon="-71.6018015">
    <tag k="addr:city" v="Lemington" />
    <tag k="addr:housenumber" v="279" />
    <tag k="addr:street" v="Graves Lane" />
    <tag k="addr:state" v="VT" />
    <tag k="ref:vcgi:esiteid" v="140076" />
  </node>
  <node id="-173" visible="true" lat="44.85867095" lon="-71.5520752">
    <tag k="addr:city" v="Lemington" />
    <tag k="addr:housenumber" v="2549" />
    <tag k="addr:street" v="Vermont Route 102" />
    <tag k="addr:state" v="VT" />
    <tag k="ref:vcgi:esiteid" v="140077" />
  </node>
  <node id="-174" visible="true" lat="44.85761373" lon="-71.5512709">
    <tag k="addr:city" v="Lemington" />
    <tag k="addr:housenumber" v="29" />
    <tag k="addr:street" v="Sims Hill Road" />
    <tag k="addr:state" v="VT" />
    <tag k="ref:vcgi:esiteid" v="140078" />
  </node>
  <node id="-175" visible="true" lat="44.85778834" lon="-71.5853652">
    <tag k="addr:city" v="Lemington" />
    <tag k="addr:housenumber" v="2397" />
    <tag k="addr:street" v="Sims Hill Road" />
    <tag k="addr:state" v="VT" />
    <tag k="ref:vcgi:esiteid" v="140079" />
  </node>
  <node id="-176" visible="true" lat="44.85647825" lon="-71.55081204">
    <tag k="addr:city" v="Lemington" />
    <tag k="addr:housenumber" v="2381" />
    <tag k="addr:street" v="Vermont Route 102" />
    <tag k="addr:state" v="VT" />
    <tag k="ref:vcgi:esiteid" v="140080" />
  </node>
  <node id="-177" visible="true" lat="44.85433708" lon="-71.55196696">
    <tag k="addr:city" v="Lemington" />
    <tag k="addr:housenumber" v="2217" />
    <tag k="addr:street" v="Vermont Route 102" />
    <tag k="addr:state" v="VT" />
    <tag k="ref:vcgi:esiteid" v="140081" />
  </node>
  <node id="-178" visible="true" lat="44.85391912" lon="-71.55251604">
    <tag k="addr:city" v="Lemington" />
    <tag k="addr:housenumber" v="2147" />
    <tag k="addr:street" v="Vermont Route 102" />
    <tag k="addr:state" v="VT" />
    <tag k="ref:vcgi:esiteid" v="140082" />
  </node>
  <node id="-179" visible="true" lat="44.85356078" lon="-71.55647889">
    <tag k="addr:city" v="Lemington" />
    <tag k="addr:housenumber" v="2063" />
    <tag k="addr:street" v="Vermont Route 102" />
    <tag k="addr:state" v="VT" />
    <tag k="ref:vcgi:esiteid" v="140083" />
  </node>
  <node id="-180" visible="true" lat="44.84996383" lon="-71.55632087">
    <tag k="addr:city" v="Lemington" />
    <tag k="addr:housenumber" v="76" />
    <tag k="addr:street" v="Lyman Road" />
    <tag k="addr:state" v="VT" />
    <tag k="ref:vcgi:esiteid" v="140084" />
  </node>
  <node id="-181" visible="true" lat="44.84921364" lon="-71.55891666">
    <tag k="addr:city" v="Lemington" />
    <tag k="addr:housenumber" v="1731" />
    <tag k="addr:street" v="Vermont Route 102" />
    <tag k="addr:state" v="VT" />
    <tag k="ref:vcgi:esiteid" v="140085" />
  </node>
  <node id="-182" visible="true" lat="44.84874319" lon="-71.55871938">
    <tag k="addr:city" v="Lemington" />
    <tag k="addr:housenumber" v="1709" />
    <tag k="addr:street" v="Vermont Route 102" />
    <tag k="addr:state" v="VT" />
    <tag k="ref:vcgi:esiteid" v="140086" />
  </node>
  <node id="-183" visible="true" lat="44.84480004" lon="-71.55779515">
    <tag k="addr:city" v="Lemington" />
    <tag k="addr:housenumber" v="1425" />
    <tag k="addr:street" v="Vermont Route 102" />
    <tag k="addr:state" v="VT" />
    <tag k="ref:vcgi:esiteid" v="140087" />
  </node>
  <node id="-184" visible="true" lat="44.84242516" lon="-71.5562541">
    <tag k="addr:city" v="Lemington" />
    <tag k="addr:housenumber" v="1264" />
    <tag k="addr:street" v="Vermont Route 102" />
    <tag k="addr:state" v="VT" />
    <tag k="ref:vcgi:esiteid" v="140088" />
  </node>
  <node id="-185" visible="true" lat="44.83298592" lon="-71.5592371">
    <tag k="addr:city" v="Lemington" />
    <tag k="addr:housenumber" v="575" />
    <tag k="addr:street" v="Vermont Route 102" />
    <tag k="addr:state" v="VT" />
    <tag k="ref:vcgi:esiteid" v="140089" />
  </node>
  <node id="-186" visible="true" lat="44.82897668" lon="-71.56276952">
    <tag k="addr:city" v="Lemington" />
    <tag k="addr:housenumber" v="281" />
    <tag k="addr:street" v="Vermont Route 102" />
    <tag k="addr:state" v="VT" />
    <tag k="ref:vcgi:esiteid" v="140090" />
  </node>
  <node id="-187" visible="true" lat="44.90365319" lon="-71.5728174">
    <tag k="addr:city" v="Lemington" />
    <tag k="addr:housenumber" v="499" />
    <tag k="addr:street" v="Mill Road" />
    <tag k="addr:state" v="VT" />
    <tag k="ref:vcgi:esiteid" v="140091" />
  </node>
  <node id="-188" visible="true" lat="44.86882736" lon="-71.58905907">
    <tag k="addr:city" v="Lemington" />
    <tag k="addr:housenumber" v="511" />
    <tag k="addr:street" v="Wallace Road" />
    <tag k="addr:state" v="VT" />
    <tag k="ref:vcgi:esiteid" v="140092" />
  </node>
  <node id="-189" visible="true" lat="44.92180212" lon="-71.55719963">
    <tag k="addr:city" v="Lemington" />
    <tag k="addr:housenumber" v="625" />
    <tag k="addr:street" v="Todd Hill Road" />
    <tag k="addr:state" v="VT" />
    <tag k="ref:vcgi:esiteid" v="342886" />
  </node>
  <node id="-190" visible="true" lat="44.89741138" lon="-71.51067246">
    <tag k="addr:city" v="Lemington" />
    <tag k="addr:housenumber" v="6161" />
    <tag k="addr:street" v="Vermont Route 102" />
    <tag k="addr:state" v="VT" />
    <tag k="ref:vcgi:esiteid" v="448516" />
  </node>
  <node id="-191" visible="true" lat="44.84968976" lon="-71.55851726">
    <tag k="addr:city" v="Lemington" />
    <tag k="addr:housenumber" v="1777" />
    <tag k="addr:street" v="Vermont Route 102" />
    <tag k="addr:state" v="VT" />
    <tag k="ref:vcgi:esiteid" v="452637" />
  </node>
  <node id="-192" visible="true" lat="44.92371401" lon="-71.55721359">
    <tag k="addr:city" v="Lemington" />
    <tag k="addr:housenumber" v="540" />
    <tag k="addr:street" v="Todd Hill Road" />
    <tag k="addr:state" v="VT" />
    <tag k="ref:vcgi:esiteid" v="452638" />
  </node>
  <node id="-197" visible="true" lat="44.86125446" lon="-71.58973857">
    <tag k="addr:city" v="Lemington" />
    <tag k="addr:housenumber" v="2598" />
    <tag k="addr:street" v="Sims Hill Road" />
    <tag k="addr:state" v="VT" />
    <tag k="ref:vcgi:esiteid" v="617656" />
  </node>
  <node id="-198" visible="true" lat="44.91387693" lon="-71.5225761">
    <tag k="addr:city" v="Lemington" />
    <tag k="addr:housenumber" v="463" />
    <tag k="addr:street" v="Vermont Route 102" />
    <tag k="addr:state" v="VT" />
    <tag k="ref:vcgi:esiteid" v="752061" />
  </node>
  <node id="-199" visible="true" lat="44.91014769" lon="-71.5268141">
    <tag k="addr:city" v="Lemington" />
    <tag k="addr:housenumber" v="465" />
    <tag k="addr:street" v="Vermont Route 102" />
    <tag k="addr:state" v="VT" />
    <tag k="ref:vcgi:esiteid" v="752062" />
  </node>
  <node id="-200" visible="true" lat="44.93634697" lon="-71.57088015">
    <tag k="addr:city" v="Lemington" />
    <tag k="addr:housenumber" v="2111" />
    <tag k="addr:street" v="Hudson Road" />
    <tag k="addr:state" v="VT" />
    <tag k="ref:vcgi:esiteid" v="752287" />
  </node>
  <node id="-201" visible="true" lat="44.86532664" lon="-71.60367755">
    <tag k="addr:city" v="Lemington" />
    <tag k="addr:housenumber" v="3244" />
    <tag k="addr:street" v="Sims Hill Road" />
    <tag k="addr:state" v="VT" />
    <tag k="ref:vcgi:esiteid" v="753178" />
  </node>
  <node id="-202" visible="true" lat="44.85121669" lon="-71.55744709">
    <tag k="addr:city" v="Lemington" />
    <tag k="addr:housenumber" v="1843" />
    <tag k="addr:street" v="Vermont Route 102" />
    <tag k="addr:state" v="VT" />
    <tag k="ref:vcgi:esiteid" v="753179" />
  </node>
  <node id="-204" visible="true" lat="44.8310122" lon="-71.55937318">
    <tag k="addr:city" v="Lemington" />
    <tag k="addr:housenumber" v="384" />
    <tag k="addr:street" v="Vermont Route 102" />
    <tag k="addr:state" v="VT" />
    <tag k="ref:vcgi:esiteid" v="753594" />
  </node>
</osm>
