<?xml version="1.0" encoding="UTF-8"?>
<osm version="0.6" generator="JOSM" upload="false">
  <node id="-100" visible="true" lat="44.91728536" lon="-71.76440795">
    <tag k="addr:city" v="Lewis" />
    <tag k="addr:housenumber" v="13297" />
    <tag k="addr:street" v="Lewis Pond Road" />
    <tag k="addr:state" v="VT" />
    <tag k="ref:vcgi:esiteid" v="305286" />
  </node>
  <node id="-101" visible="true" lat="44.91111037" lon="-71.75430231">
    <tag k="addr:city" v="Lewis" />
    <tag k="addr:housenumber" v="12630" />
    <tag k="addr:street" v="Lewis Pond Road" />
    <tag k="addr:state" v="VT" />
    <tag k="ref:vcgi:esiteid" v="305287" />
  </node>
  <node id="-102" visible="true" lat="44.90144024" lon="-71.75953205">
    <tag k="addr:city" v="Lewis" />
    <tag k="addr:housenumber" v="11652" />
    <tag k="addr:street" v="Lewis Pond Road" />
    <tag k="addr:state" v="VT" />
    <tag k="ref:vcgi:esiteid" v="305288" />
  </node>
  <node id="-103" visible="true" lat="44.89315927" lon="-71.76994043">
    <tag k="addr:city" v="Lewis" />
    <tag k="addr:housenumber" v="10791" />
    <tag k="addr:street" v="Lewis Pond Road" />
    <tag k="addr:state" v="VT" />
    <tag k="ref:vcgi:esiteid" v="305290" />
  </node>
  <node id="-104" visible="true" lat="44.89191053" lon="-71.7008335">
    <tag k="addr:city" v="Lewis" />
    <tag k="addr:housenumber" v="5776" />
    <tag k="addr:street" v="East Branch Road" />
    <tag k="addr:state" v="VT" />
    <tag k="ref:vcgi:esiteid" v="305291" />
  </node>
  <node id="-105" visible="true" lat="44.88549521" lon="-71.77863991">
    <tag k="addr:city" v="Lewis" />
    <tag k="addr:housenumber" v="419" />
    <tag k="addr:street" v="Lloyd Potter Road" />
    <tag k="addr:state" v="VT" />
    <tag k="ref:vcgi:esiteid" v="305293" />
  </node>
  <node id="-106" visible="true" lat="44.88531559" lon="-71.77061909">
    <tag k="addr:city" v="Lewis" />
    <tag k="addr:housenumber" v="10219" />
    <tag k="addr:street" v="Lewis Pond Road" />
    <tag k="addr:state" v="VT" />
    <tag k="ref:vcgi:esiteid" v="305294" />
  </node>
  <node id="-107" visible="true" lat="44.88406668" lon="-71.78428784">
    <tag k="addr:city" v="Lewis" />
    <tag k="addr:housenumber" v="780" />
    <tag k="addr:street" v="Lewis Pond Trail" />
    <tag k="addr:state" v="VT" />
    <tag k="ref:vcgi:esiteid" v="305297" />
  </node>
  <node id="-108" visible="true" lat="44.88317488" lon="-71.68410987">
    <tag k="addr:city" v="Lewis" />
    <tag k="addr:housenumber" v="7037" />
    <tag k="addr:street" v="East Branch Road" />
    <tag k="addr:state" v="VT" />
    <tag k="ref:vcgi:esiteid" v="305298" />
  </node>
  <node id="-109" visible="true" lat="44.88206862" lon="-71.79740638">
    <tag k="addr:city" v="Lewis" />
    <tag k="addr:housenumber" v="592" />
    <tag k="addr:street" v="Tim Carroll Brook Road" />
    <tag k="addr:state" v="VT" />
    <tag k="ref:vcgi:esiteid" v="305305" />
  </node>
  <node id="-110" visible="true" lat="44.88167747" lon="-71.77735717">
    <tag k="addr:city" v="Lewis" />
    <tag k="addr:housenumber" v="165" />
    <tag k="addr:street" v="Lloyd Potter Road" />
    <tag k="addr:state" v="VT" />
    <tag k="ref:vcgi:esiteid" v="305306" />
  </node>
  <node id="-111" visible="true" lat="44.8718643" lon="-71.68474311">
    <tag k="addr:city" v="Lewis" />
    <tag k="addr:housenumber" v="7823" />
    <tag k="addr:street" v="East Branch Road" />
    <tag k="addr:state" v="VT" />
    <tag k="ref:vcgi:esiteid" v="305310" />
  </node>
  <node id="-112" visible="true" lat="44.87040775" lon="-71.78975785">
    <tag k="addr:city" v="Lewis" />
    <tag k="addr:housenumber" v="8506" />
    <tag k="addr:street" v="Lewis Pond Road" />
    <tag k="addr:state" v="VT" />
    <tag k="ref:vcgi:esiteid" v="305311" />
  </node>
  <node id="-113" visible="true" lat="44.86064528" lon="-71.80920905">
    <tag k="addr:city" v="Lewis" />
    <tag k="addr:housenumber" v="1279" />
    <tag k="addr:street" v="Henshaw Road" />
    <tag k="addr:state" v="VT" />
    <tag k="ref:vcgi:esiteid" v="305313" />
  </node>
  <node id="-114" visible="true" lat="44.8566912" lon="-71.80114099">
    <tag k="addr:city" v="Lewis" />
    <tag k="addr:housenumber" v="3497" />
    <tag k="addr:street" v="Four Mile Road" />
    <tag k="addr:state" v="VT" />
    <tag k="ref:vcgi:esiteid" v="305315" />
  </node>
  <node id="-115" visible="true" lat="44.85468923" lon="-71.81620734">
    <tag k="addr:city" v="Lewis" />
    <tag k="addr:housenumber" v="515" />
    <tag k="addr:street" v="Henshaw Road" />
    <tag k="addr:state" v="VT" />
    <tag k="ref:vcgi:esiteid" v="305316" />
  </node>
  <node id="-116" visible="true" lat="44.86143503" lon="-71.72146125">
    <tag k="addr:city" v="Lewis" />
    <tag k="addr:housenumber" v="6255" />
    <tag k="addr:street" v="Power Line Road" />
    <tag k="addr:state" v="VT" />
    <tag k="ref:vcgi:esiteid" v="305317" />
  </node>
  <node id="-117" visible="true" lat="44.85134567" lon="-71.81923156">
    <tag k="addr:city" v="Lewis" />
    <tag k="addr:housenumber" v="185" />
    <tag k="addr:street" v="Henshaw Road" />
    <tag k="addr:state" v="VT" />
    <tag k="ref:vcgi:esiteid" v="305319" />
  </node>
  <node id="-118" visible="true" lat="44.84960232" lon="-71.7179417">
    <tag k="addr:city" v="Lewis" />
    <tag k="addr:housenumber" v="1736" />
    <tag k="addr:street" v="Lower Tin Shack Road" />
    <tag k="addr:state" v="VT" />
    <tag k="ref:vcgi:esiteid" v="305320" />
  </node>
  <node id="-119" visible="true" lat="44.84849229" lon="-71.75146167">
    <tag k="addr:city" v="Lewis" />
    <tag k="addr:housenumber" v="1234" />
    <tag k="addr:street" v="Eagles Nest Road" />
    <tag k="addr:state" v="VT" />
    <tag k="ref:vcgi:esiteid" v="305323" />
  </node>
  <node id="-120" visible="true" lat="44.84646901" lon="-71.77246173">
    <tag k="addr:city" v="Lewis" />
    <tag k="addr:housenumber" v="6344" />
    <tag k="addr:street" v="Lewis Pond Road" />
    <tag k="addr:state" v="VT" />
    <tag k="ref:vcgi:esiteid" v="305324" />
  </node>
  <node id="-121" visible="true" lat="44.83922957" lon="-71.76029701">
    <tag k="addr:city" v="Lewis" />
    <tag k="addr:housenumber" v="5452" />
    <tag k="addr:street" v="Lewis Pond Road" />
    <tag k="addr:state" v="VT" />
    <tag k="ref:vcgi:esiteid" v="305326" />
  </node>
  <node id="-122" visible="true" lat="44.83318709" lon="-71.7562821">
    <tag k="addr:city" v="Lewis" />
    <tag k="addr:housenumber" v="74" />
    <tag k="addr:street" v="Eagles Nest Road" />
    <tag k="addr:state" v="VT" />
    <tag k="ref:vcgi:esiteid" v="305327" />
  </node>
  <node id="-123" visible="true" lat="44.82422527" lon="-71.7588424">
    <tag k="addr:city" v="Lewis" />
    <tag k="addr:housenumber" v="4358" />
    <tag k="addr:street" v="Lewis Pond Road" />
    <tag k="addr:state" v="VT" />
    <tag k="ref:vcgi:esiteid" v="305328" />
  </node>
  <node id="-124" visible="true" lat="44.86059218" lon="-71.80279054">
    <tag k="addr:city" v="Lewis" />
    <tag k="addr:housenumber" v="3430" />
    <tag k="addr:street" v="Four Mile Road" />
    <tag k="addr:state" v="VT" />
    <tag k="ref:vcgi:esiteid" v="305330" />
  </node>
  <node id="-127" visible="true" lat="44.85973442" lon="-71.78843864">
    <tag k="addr:city" v="Lewis" />
    <tag k="addr:housenumber" v="7533" />
    <tag k="addr:street" v="Lewis Pond Road" />
    <tag k="addr:state" v="VT" />
    <tag k="ref:vcgi:esiteid" v="454675" />
  </node>
  <node id="-128" visible="true" lat="44.89262932" lon="-71.77028455">
    <tag k="addr:city" v="Lewis" />
    <tag k="addr:housenumber" v="5" />
    <tag k="addr:street" v="Lewis Pond Overlook" />
    <tag k="addr:state" v="VT" />
    <tag k="ref:vcgi:esiteid" v="761973" />
  </node>
  <node id="-130" visible="true" lat="44.88535285" lon="-71.78453378">
    <tag k="addr:city" v="Lewis" />
    <tag k="addr:housenumber" v="890" />
    <tag k="addr:street" v="Lewis Pond Trail" />
    <tag k="addr:state" v="VT" />
    <tag k="ref:vcgi:esiteid" v="767231" />
  </node>
  <node id="-140" visible="true" lat="44.88040911" lon="-71.72980989">
    <tag k="addr:city" v="Lewis" />
    <tag k="addr:housenumber" v="1988" />
    <tag k="addr:street" v="Upper Tin Shack Road" />
    <tag k="addr:state" v="VT" />
    <tag k="ref:vcgi:esiteid" v="768547" />
  </node>
  <node id="-141" visible="true" lat="44.88159475" lon="-71.80427644">
    <tag k="addr:city" v="Lewis" />
    <tag k="addr:housenumber" v="771" />
    <tag k="addr:street" v="Tim Carroll Brook Road" />
    <tag k="addr:state" v="VT" />
    <tag k="ref:vcgi:esiteid" v="768555" />
  </node>
</osm>
