<?xml version="1.0" encoding="UTF-8"?>
<osm version="0.6" generator="JOSM">
  <node id="-100" visible="true" lat="44.69190978" lon="-71.66159057">
    <tag k="addr:city" v="Maidstone" />
    <tag k="addr:housenumber" v="1505" />
    <tag k="addr:street" v="West Mountain Pond Road" />
    <tag k="addr:state" v="VT" />
    <tag k="ref:vcgi:esiteid" v="148718" />
  </node>
  <node id="-101" visible="true" lat="44.69145202" lon="-71.66062927">
    <tag k="addr:city" v="Maidstone" />
    <tag k="addr:housenumber" v="1401" />
    <tag k="addr:street" v="West Mountain Pond Road" />
    <tag k="addr:state" v="VT" />
    <tag k="ref:vcgi:esiteid" v="148719" />
  </node>
  <node id="-102" visible="true" lat="44.69039917" lon="-71.65988159">
    <tag k="addr:city" v="Maidstone" />
    <tag k="addr:housenumber" v="1307" />
    <tag k="addr:street" v="West Mountain Pond Road" />
    <tag k="addr:state" v="VT" />
    <tag k="ref:vcgi:esiteid" v="148720" />
  </node>
  <node id="-103" visible="true" lat="44.68946456" lon="-71.65948486">
    <tag k="addr:city" v="Maidstone" />
    <tag k="addr:housenumber" v="160" />
    <tag k="addr:street" v="Mayberry Road" />
    <tag k="addr:state" v="VT" />
    <tag k="ref:vcgi:esiteid" v="148721" />
  </node>
  <node id="-104" visible="true" lat="44.6880455" lon="-71.66060638">
    <tag k="addr:city" v="Maidstone" />
    <tag k="addr:housenumber" v="258" />
    <tag k="addr:street" v="Mayberry Road" />
    <tag k="addr:state" v="VT" />
    <tag k="ref:vcgi:esiteid" v="148722" />
  </node>
  <node id="-105" visible="true" lat="44.68606185" lon="-71.66207122">
    <tag k="addr:city" v="Maidstone" />
    <tag k="addr:housenumber" v="418" />
    <tag k="addr:street" v="Mayberry Road" />
    <tag k="addr:state" v="VT" />
    <tag k="ref:vcgi:esiteid" v="148723" />
  </node>
  <node id="-106" visible="true" lat="44.68476486" lon="-71.63519287">
    <tag k="addr:city" v="Maidstone" />
    <tag k="addr:housenumber" v="20" />
    <tag k="addr:street" v="West Mountain Pond Road" />
    <tag k="addr:state" v="VT" />
    <tag k="ref:vcgi:esiteid" v="148724" />
  </node>
  <node id="-107" visible="true" lat="44.67867756" lon="-71.64725109">
    <tag k="addr:city" v="Maidstone" />
    <tag k="addr:housenumber" v="268" />
    <tag k="addr:street" v="Goodwin Camp Road" />
    <tag k="addr:state" v="VT" />
    <tag k="ref:vcgi:esiteid" v="148725" />
  </node>
  <node id="-108" visible="true" lat="44.6781311" lon="-71.64561462">
    <tag k="addr:city" v="Maidstone" />
    <tag k="addr:housenumber" v="790" />
    <tag k="addr:street" v="Paul Stream Road" />
    <tag k="addr:state" v="VT" />
    <tag k="ref:vcgi:esiteid" v="148726" />
  </node>
  <node id="-109" visible="true" lat="44.67627028" lon="-71.64899685">
    <tag k="addr:city" v="Maidstone" />
    <tag k="addr:housenumber" v="378" />
    <tag k="addr:street" v="Goodwin Camp Road" />
    <tag k="addr:state" v="VT" />
    <tag k="ref:vcgi:esiteid" v="148727" />
  </node>
  <node id="-110" visible="true" lat="44.67572262" lon="-71.64987144">
    <tag k="addr:city" v="Maidstone" />
    <tag k="addr:housenumber" v="484" />
    <tag k="addr:street" v="Goodwin Camp Road" />
    <tag k="addr:state" v="VT" />
    <tag k="ref:vcgi:esiteid" v="148728" />
  </node>
  <node id="-111" visible="true" lat="44.67032341" lon="-71.6555453">
    <tag k="addr:city" v="Maidstone" />
    <tag k="addr:housenumber" v="1577" />
    <tag k="addr:street" v="Paul Stream Road" />
    <tag k="addr:state" v="VT" />
    <tag k="ref:vcgi:esiteid" v="148729" />
  </node>
  <node id="-112" visible="true" lat="44.66668319" lon="-71.64907073">
    <tag k="addr:city" v="Maidstone" />
    <tag k="addr:housenumber" v="3708" />
    <tag k="addr:street" v="Maidstone Lake Road" />
    <tag k="addr:state" v="VT" />
    <tag k="ref:vcgi:esiteid" v="148730" />
  </node>
  <node id="-113" visible="true" lat="44.66639958" lon="-71.64882044">
    <tag k="addr:city" v="Maidstone" />
    <tag k="addr:housenumber" v="3714" />
    <tag k="addr:street" v="Maidstone Lake Road" />
    <tag k="addr:state" v="VT" />
    <tag k="ref:vcgi:esiteid" v="148731" />
  </node>
  <node id="-114" visible="true" lat="44.66607536" lon="-71.66217553">
    <tag k="addr:city" v="Maidstone" />
    <tag k="addr:housenumber" v="1989" />
    <tag k="addr:street" v="Paul Stream Road" />
    <tag k="addr:state" v="VT" />
    <tag k="ref:vcgi:esiteid" v="148732" />
  </node>
  <node id="-115" visible="true" lat="44.6660126" lon="-71.64856948">
    <tag k="addr:city" v="Maidstone" />
    <tag k="addr:housenumber" v="3760" />
    <tag k="addr:street" v="Maidstone Lake Road" />
    <tag k="addr:state" v="VT" />
    <tag k="ref:vcgi:esiteid" v="148733" />
  </node>
  <node id="-116" visible="true" lat="44.66566807" lon="-71.64829631">
    <tag k="addr:city" v="Maidstone" />
    <tag k="addr:housenumber" v="3762" />
    <tag k="addr:street" v="Maidstone Lake Road" />
    <tag k="addr:state" v="VT" />
    <tag k="ref:vcgi:esiteid" v="148734" />
  </node>
  <node id="-117" visible="true" lat="44.66552612" lon="-71.64811207">
    <tag k="addr:city" v="Maidstone" />
    <tag k="addr:housenumber" v="3794" />
    <tag k="addr:street" v="Maidstone Lake Road" />
    <tag k="addr:state" v="VT" />
    <tag k="ref:vcgi:esiteid" v="148735" />
  </node>
  <node id="-118" visible="true" lat="44.66556029" lon="-71.66410896">
    <tag k="addr:city" v="Maidstone" />
    <tag k="addr:housenumber" v="2550" />
    <tag k="addr:street" v="West Mountain Pond Road" />
    <tag k="addr:state" v="VT" />
    <tag k="ref:vcgi:esiteid" v="148736" />
  </node>
  <node id="-119" visible="true" lat="44.66528504" lon="-71.64796049">
    <tag k="addr:city" v="Maidstone" />
    <tag k="addr:housenumber" v="3816" />
    <tag k="addr:street" v="Maidstone Lake Road" />
    <tag k="addr:state" v="VT" />
    <tag k="ref:vcgi:esiteid" v="148737" />
  </node>
  <node id="-120" visible="true" lat="44.66500752" lon="-71.64765566">
    <tag k="addr:city" v="Maidstone" />
    <tag k="addr:housenumber" v="3828" />
    <tag k="addr:street" v="Maidstone Lake Road" />
    <tag k="addr:state" v="VT" />
    <tag k="ref:vcgi:esiteid" v="148738" />
  </node>
  <node id="-121" visible="true" lat="44.66479184" lon="-71.64745027">
    <tag k="addr:city" v="Maidstone" />
    <tag k="addr:housenumber" v="3852" />
    <tag k="addr:street" v="Maidstone Lake Road" />
    <tag k="addr:state" v="VT" />
    <tag k="ref:vcgi:esiteid" v="148739" />
  </node>
  <node id="-122" visible="true" lat="44.66458829" lon="-71.64895473">
    <tag k="addr:city" v="Maidstone" />
    <tag k="addr:housenumber" v="243" />
    <tag k="addr:street" v="Westside Lake Road" />
    <tag k="addr:state" v="VT" />
    <tag k="ref:vcgi:esiteid" v="148740" />
  </node>
  <node id="-123" visible="true" lat="44.66451433" lon="-71.64725211">
    <tag k="addr:city" v="Maidstone" />
    <tag k="addr:housenumber" v="3872" />
    <tag k="addr:street" v="Maidstone Lake Road" />
    <tag k="addr:state" v="VT" />
    <tag k="ref:vcgi:esiteid" v="148741" />
  </node>
  <node id="-124" visible="true" lat="44.66438786" lon="-71.64710186">
    <tag k="addr:city" v="Maidstone" />
    <tag k="addr:housenumber" v="3880" />
    <tag k="addr:street" v="Maidstone Lake Road" />
    <tag k="addr:state" v="VT" />
    <tag k="ref:vcgi:esiteid" v="148742" />
  </node>
  <node id="-125" visible="true" lat="44.66403219" lon="-71.64693109">
    <tag k="addr:city" v="Maidstone" />
    <tag k="addr:housenumber" v="3894" />
    <tag k="addr:street" v="Maidstone Lake Road" />
    <tag k="addr:state" v="VT" />
    <tag k="ref:vcgi:esiteid" v="148743" />
  </node>
  <node id="-126" visible="true" lat="44.66424268" lon="-71.64890359">
    <tag k="addr:city" v="Maidstone" />
    <tag k="addr:housenumber" v="279" />
    <tag k="addr:street" v="Westside Lake Road" />
    <tag k="addr:state" v="VT" />
    <tag k="ref:vcgi:esiteid" v="148744" />
  </node>
  <node id="-127" visible="true" lat="44.66379227" lon="-71.64668018">
    <tag k="addr:city" v="Maidstone" />
    <tag k="addr:housenumber" v="3930" />
    <tag k="addr:street" v="Maidstone Lake Road" />
    <tag k="addr:state" v="VT" />
    <tag k="ref:vcgi:esiteid" v="148745" />
  </node>
  <node id="-128" visible="true" lat="44.66387938" lon="-71.64867716">
    <tag k="addr:city" v="Maidstone" />
    <tag k="addr:housenumber" v="281" />
    <tag k="addr:street" v="Westside Lake Road" />
    <tag k="addr:state" v="VT" />
    <tag k="ref:vcgi:esiteid" v="148746" />
  </node>
  <node id="-129" visible="true" lat="44.66370472" lon="-71.64892095">
    <tag k="addr:city" v="Maidstone" />
    <tag k="addr:housenumber" v="293" />
    <tag k="addr:street" v="Westside Lake Road" />
    <tag k="addr:state" v="VT" />
    <tag k="ref:vcgi:esiteid" v="148747" />
  </node>
  <node id="-130" visible="true" lat="44.66357819" lon="-71.64650849">
    <tag k="addr:city" v="Maidstone" />
    <tag k="addr:housenumber" v="3940" />
    <tag k="addr:street" v="Maidstone Lake Road" />
    <tag k="addr:state" v="VT" />
    <tag k="ref:vcgi:esiteid" v="148748" />
  </node>
  <node id="-131" visible="true" lat="44.66337441" lon="-71.64615789">
    <tag k="addr:city" v="Maidstone" />
    <tag k="addr:housenumber" v="3960" />
    <tag k="addr:street" v="Maidstone Lake Road" />
    <tag k="addr:state" v="VT" />
    <tag k="ref:vcgi:esiteid" v="148749" />
  </node>
  <node id="-132" visible="true" lat="44.6632701" lon="-71.64905702">
    <tag k="addr:city" v="Maidstone" />
    <tag k="addr:housenumber" v="341" />
    <tag k="addr:street" v="Westside Lake Road" />
    <tag k="addr:state" v="VT" />
    <tag k="ref:vcgi:esiteid" v="148750" />
  </node>
  <node id="-133" visible="true" lat="44.66324136" lon="-71.64593728">
    <tag k="addr:city" v="Maidstone" />
    <tag k="addr:housenumber" v="3978" />
    <tag k="addr:street" v="Maidstone Lake Road" />
    <tag k="addr:state" v="VT" />
    <tag k="ref:vcgi:esiteid" v="148751" />
  </node>
  <node id="-134" visible="true" lat="44.6630302" lon="-71.64548649">
    <tag k="addr:city" v="Maidstone" />
    <tag k="addr:housenumber" v="3998" />
    <tag k="addr:street" v="Maidstone Lake Road" />
    <tag k="addr:state" v="VT" />
    <tag k="ref:vcgi:esiteid" v="148752" />
  </node>
  <node id="-135" visible="true" lat="44.66299821" lon="-71.64899326">
    <tag k="addr:city" v="Maidstone" />
    <tag k="addr:housenumber" v="377" />
    <tag k="addr:street" v="Westside Lake Road" />
    <tag k="addr:state" v="VT" />
    <tag k="ref:vcgi:esiteid" v="148753" />
  </node>
  <node id="-136" visible="true" lat="44.66257209" lon="-71.64482731">
    <tag k="addr:city" v="Maidstone" />
    <tag k="addr:housenumber" v="4036" />
    <tag k="addr:street" v="Maidstone Lake Road" />
    <tag k="addr:state" v="VT" />
    <tag k="ref:vcgi:esiteid" v="148754" />
  </node>
  <node id="-137" visible="true" lat="44.66264118" lon="-71.64896998">
    <tag k="addr:city" v="Maidstone" />
    <tag k="addr:housenumber" v="391" />
    <tag k="addr:street" v="Westside Lake Road" />
    <tag k="addr:state" v="VT" />
    <tag k="ref:vcgi:esiteid" v="148755" />
  </node>
  <node id="-138" visible="true" lat="44.66253355" lon="-71.64441816">
    <tag k="addr:city" v="Maidstone" />
    <tag k="addr:housenumber" v="4076" />
    <tag k="addr:street" v="Maidstone Lake Road" />
    <tag k="addr:state" v="VT" />
    <tag k="ref:vcgi:esiteid" v="148756" />
  </node>
  <node id="-139" visible="true" lat="44.6624028" lon="-71.64404325">
    <tag k="addr:city" v="Maidstone" />
    <tag k="addr:housenumber" v="4096" />
    <tag k="addr:street" v="Maidstone Lake Road" />
    <tag k="addr:state" v="VT" />
    <tag k="ref:vcgi:esiteid" v="148757" />
  </node>
  <node id="-140" visible="true" lat="44.66228869" lon="-71.64887021">
    <tag k="addr:city" v="Maidstone" />
    <tag k="addr:housenumber" v="397" />
    <tag k="addr:street" v="Westside Lake Road" />
    <tag k="addr:state" v="VT" />
    <tag k="ref:vcgi:esiteid" v="148758" />
  </node>
  <node id="-141" visible="true" lat="44.66212038" lon="-71.64362523">
    <tag k="addr:city" v="Maidstone" />
    <tag k="addr:housenumber" v="4108" />
    <tag k="addr:street" v="Maidstone Lake Road" />
    <tag k="addr:state" v="VT" />
    <tag k="ref:vcgi:esiteid" v="148759" />
  </node>
  <node id="-142" visible="true" lat="44.66181924" lon="-71.59202542">
    <tag k="addr:city" v="Maidstone" />
    <tag k="addr:housenumber" v="90" />
    <tag k="addr:street" v="Percy View" />
    <tag k="addr:state" v="VT" />
    <tag k="ref:vcgi:esiteid" v="148760" />
  </node>
  <node id="-143" visible="true" lat="44.66194184" lon="-71.64347662">
    <tag k="addr:city" v="Maidstone" />
    <tag k="addr:housenumber" v="4122" />
    <tag k="addr:street" v="Maidstone Lake Road" />
    <tag k="addr:state" v="VT" />
    <tag k="ref:vcgi:esiteid" v="148761" />
  </node>
  <node id="-144" visible="true" lat="44.66208903" lon="-71.64885994">
    <tag k="addr:city" v="Maidstone" />
    <tag k="addr:housenumber" v="419" />
    <tag k="addr:street" v="Westside Lake Road" />
    <tag k="addr:state" v="VT" />
    <tag k="ref:vcgi:esiteid" v="148762" />
  </node>
  <node id="-145" visible="true" lat="44.66180275" lon="-71.64322526">
    <tag k="addr:city" v="Maidstone" />
    <tag k="addr:housenumber" v="4146" />
    <tag k="addr:street" v="Maidstone Lake Road" />
    <tag k="addr:state" v="VT" />
    <tag k="ref:vcgi:esiteid" v="148763" />
  </node>
  <node id="-146" visible="true" lat="44.66182356" lon="-71.64905282">
    <tag k="addr:city" v="Maidstone" />
    <tag k="addr:housenumber" v="457" />
    <tag k="addr:street" v="Westside Lake Road" />
    <tag k="addr:state" v="VT" />
    <tag k="ref:vcgi:esiteid" v="148764" />
  </node>
  <node id="-147" visible="true" lat="44.66151599" lon="-71.64882678">
    <tag k="addr:city" v="Maidstone" />
    <tag k="addr:housenumber" v="459" />
    <tag k="addr:street" v="Westside Lake Road" />
    <tag k="addr:state" v="VT" />
    <tag k="ref:vcgi:esiteid" v="148765" />
  </node>
  <node id="-148" visible="true" lat="44.66140986" lon="-71.64266259">
    <tag k="addr:city" v="Maidstone" />
    <tag k="addr:housenumber" v="4186" />
    <tag k="addr:street" v="Maidstone Lake Road" />
    <tag k="addr:state" v="VT" />
    <tag k="ref:vcgi:esiteid" v="148766" />
  </node>
  <node id="-149" visible="true" lat="44.66122889" lon="-71.64891785">
    <tag k="addr:city" v="Maidstone" />
    <tag k="addr:housenumber" v="475" />
    <tag k="addr:street" v="Westside Lake Road" />
    <tag k="addr:state" v="VT" />
    <tag k="ref:vcgi:esiteid" v="148767" />
  </node>
  <node id="-150" visible="true" lat="44.66117196" lon="-71.6424007">
    <tag k="addr:city" v="Maidstone" />
    <tag k="addr:housenumber" v="4202" />
    <tag k="addr:street" v="Maidstone Lake Road" />
    <tag k="addr:state" v="VT" />
    <tag k="ref:vcgi:esiteid" v="148768" />
  </node>
  <node id="-151" visible="true" lat="44.66077082" lon="-71.64191562">
    <tag k="addr:city" v="Maidstone" />
    <tag k="addr:housenumber" v="4248" />
    <tag k="addr:street" v="Maidstone Lake Road" />
    <tag k="addr:state" v="VT" />
    <tag k="ref:vcgi:esiteid" v="148769" />
  </node>
  <node id="-152" visible="true" lat="44.66097641" lon="-71.64904022">
    <tag k="addr:city" v="Maidstone" />
    <tag k="addr:housenumber" v="493" />
    <tag k="addr:street" v="Westside Lake Road" />
    <tag k="addr:state" v="VT" />
    <tag k="ref:vcgi:esiteid" v="148770" />
  </node>
  <node id="-153" visible="true" lat="44.66042186" lon="-71.64163992">
    <tag k="addr:city" v="Maidstone" />
    <tag k="addr:housenumber" v="4256" />
    <tag k="addr:street" v="Maidstone Lake Road" />
    <tag k="addr:state" v="VT" />
    <tag k="ref:vcgi:esiteid" v="148771" />
  </node>
  <node id="-154" visible="true" lat="44.66055888" lon="-71.64933592">
    <tag k="addr:city" v="Maidstone" />
    <tag k="addr:housenumber" v="525" />
    <tag k="addr:street" v="Westside Lake Road" />
    <tag k="addr:state" v="VT" />
    <tag k="ref:vcgi:esiteid" v="148772" />
  </node>
  <node id="-155" visible="true" lat="44.66019217" lon="-71.64159507">
    <tag k="addr:city" v="Maidstone" />
    <tag k="addr:housenumber" v="4292" />
    <tag k="addr:street" v="Maidstone Lake Road" />
    <tag k="addr:state" v="VT" />
    <tag k="ref:vcgi:esiteid" v="148773" />
  </node>
  <node id="-156" visible="true" lat="44.66028369" lon="-71.64952072">
    <tag k="addr:city" v="Maidstone" />
    <tag k="addr:housenumber" v="559" />
    <tag k="addr:street" v="Westside Lake Road" />
    <tag k="addr:state" v="VT" />
    <tag k="ref:vcgi:esiteid" v="148774" />
  </node>
  <node id="-157" visible="true" lat="44.65982448" lon="-71.59063786">
    <tag k="addr:city" v="Maidstone" />
    <tag k="addr:housenumber" v="7654" />
    <tag k="addr:street" v="Vermont Route 102" />
    <tag k="addr:state" v="VT" />
    <tag k="ref:vcgi:esiteid" v="148775" />
  </node>
  <node id="-158" visible="true" lat="44.65993974" lon="-71.64144485">
    <tag k="addr:city" v="Maidstone" />
    <tag k="addr:housenumber" v="4314" />
    <tag k="addr:street" v="Maidstone Lake Road" />
    <tag k="addr:state" v="VT" />
    <tag k="ref:vcgi:esiteid" v="148776" />
  </node>
  <node id="-159" visible="true" lat="44.65981381" lon="-71.64130948">
    <tag k="addr:city" v="Maidstone" />
    <tag k="addr:housenumber" v="4320" />
    <tag k="addr:street" v="Maidstone Lake Road" />
    <tag k="addr:state" v="VT" />
    <tag k="ref:vcgi:esiteid" v="148777" />
  </node>
  <node id="-160" visible="true" lat="44.66000127" lon="-71.64984034">
    <tag k="addr:city" v="Maidstone" />
    <tag k="addr:housenumber" v="589" />
    <tag k="addr:street" v="Westside Lake Road" />
    <tag k="addr:state" v="VT" />
    <tag k="ref:vcgi:esiteid" v="148778" />
  </node>
  <node id="-161" visible="true" lat="44.65962581" lon="-71.64105418">
    <tag k="addr:city" v="Maidstone" />
    <tag k="addr:housenumber" v="4332" />
    <tag k="addr:street" v="Maidstone Lake Road" />
    <tag k="addr:state" v="VT" />
    <tag k="ref:vcgi:esiteid" v="148779" />
  </node>
  <node id="-162" visible="true" lat="44.65974528" lon="-71.6498251">
    <tag k="addr:city" v="Maidstone" />
    <tag k="addr:housenumber" v="13" />
    <tag k="addr:street" v="Private West 1" />
    <tag k="addr:state" v="VT" />
    <tag k="ref:vcgi:esiteid" v="148780" />
  </node>
  <node id="-163" visible="true" lat="44.65944768" lon="-71.65119941">
    <tag k="addr:city" v="Maidstone" />
    <tag k="addr:housenumber" v="651" />
    <tag k="addr:street" v="Westside Lake Road" />
    <tag k="addr:state" v="VT" />
    <tag k="ref:vcgi:esiteid" v="148781" />
  </node>
  <node id="-164" visible="true" lat="44.659432" lon="-71.64072402">
    <tag k="addr:city" v="Maidstone" />
    <tag k="addr:housenumber" v="4350" />
    <tag k="addr:street" v="Maidstone Lake Road" />
    <tag k="addr:state" v="VT" />
    <tag k="ref:vcgi:esiteid" v="148782" />
  </node>
  <node id="-165" visible="true" lat="44.65956209" lon="-71.65007782">
    <tag k="addr:city" v="Maidstone" />
    <tag k="addr:housenumber" v="46" />
    <tag k="addr:street" v="Private West 1" />
    <tag k="addr:state" v="VT" />
    <tag k="ref:vcgi:esiteid" v="148783" />
  </node>
  <node id="-166" visible="true" lat="44.65945876" lon="-71.6505498">
    <tag k="addr:city" v="Maidstone" />
    <tag k="addr:housenumber" v="28" />
    <tag k="addr:street" v="Private West 1" />
    <tag k="addr:state" v="VT" />
    <tag k="ref:vcgi:esiteid" v="148784" />
  </node>
  <node id="-167" visible="true" lat="44.65927417" lon="-71.64043837">
    <tag k="addr:city" v="Maidstone" />
    <tag k="addr:housenumber" v="4372" />
    <tag k="addr:street" v="Maidstone Lake Road" />
    <tag k="addr:state" v="VT" />
    <tag k="ref:vcgi:esiteid" v="148785" />
  </node>
  <node id="-168" visible="true" lat="44.65903316" lon="-71.64016395">
    <tag k="addr:city" v="Maidstone" />
    <tag k="addr:housenumber" v="4378" />
    <tag k="addr:street" v="Maidstone Lake Road" />
    <tag k="addr:state" v="VT" />
    <tag k="ref:vcgi:esiteid" v="148786" />
  </node>
  <node id="-169" visible="true" lat="44.65917968" lon="-71.65103149">
    <tag k="addr:city" v="Maidstone" />
    <tag k="addr:housenumber" v="671" />
    <tag k="addr:street" v="Westside Lake Road" />
    <tag k="addr:state" v="VT" />
    <tag k="ref:vcgi:esiteid" v="148787" />
  </node>
  <node id="-170" visible="true" lat="44.6587396" lon="-71.63994036">
    <tag k="addr:city" v="Maidstone" />
    <tag k="addr:housenumber" v="4402" />
    <tag k="addr:street" v="Maidstone Lake Road" />
    <tag k="addr:state" v="VT" />
    <tag k="ref:vcgi:esiteid" v="148788" />
  </node>
  <node id="-171" visible="true" lat="44.65890121" lon="-71.65123748">
    <tag k="addr:city" v="Maidstone" />
    <tag k="addr:housenumber" v="673" />
    <tag k="addr:street" v="Westside Lake Road" />
    <tag k="addr:state" v="VT" />
    <tag k="ref:vcgi:esiteid" v="148789" />
  </node>
  <node id="-172" visible="true" lat="44.65855891" lon="-71.63964681">
    <tag k="addr:city" v="Maidstone" />
    <tag k="addr:housenumber" v="4418" />
    <tag k="addr:street" v="Maidstone Lake Road" />
    <tag k="addr:state" v="VT" />
    <tag k="ref:vcgi:esiteid" v="148790" />
  </node>
  <node id="-173" visible="true" lat="44.65877622" lon="-71.65174546">
    <tag k="addr:city" v="Maidstone" />
    <tag k="addr:housenumber" v="37" />
    <tag k="addr:street" v="Private West 2" />
    <tag k="addr:state" v="VT" />
    <tag k="ref:vcgi:esiteid" v="148791" />
  </node>
  <node id="-174" visible="true" lat="44.65836206" lon="-71.63933319">
    <tag k="addr:city" v="Maidstone" />
    <tag k="addr:housenumber" v="4472" />
    <tag k="addr:street" v="Maidstone Lake Road" />
    <tag k="addr:state" v="VT" />
    <tag k="ref:vcgi:esiteid" v="148792" />
  </node>
  <node id="-175" visible="true" lat="44.65845708" lon="-71.61016549">
    <tag k="addr:city" v="Maidstone" />
    <tag k="addr:housenumber" v="543" />
    <tag k="addr:street" v="Masters Road" />
    <tag k="addr:state" v="VT" />
    <tag k="ref:vcgi:esiteid" v="148793" />
  </node>
  <node id="-176" visible="true" lat="44.65809993" lon="-71.59255647">
    <tag k="addr:city" v="Maidstone" />
    <tag k="addr:housenumber" v="64" />
    <tag k="addr:street" v="Hall Road" />
    <tag k="addr:state" v="VT" />
    <tag k="ref:vcgi:esiteid" v="148794" />
  </node>
  <node id="-177" visible="true" lat="44.65843752" lon="-71.65152098">
    <tag k="addr:city" v="Maidstone" />
    <tag k="addr:housenumber" v="55" />
    <tag k="addr:street" v="Private West 2" />
    <tag k="addr:state" v="VT" />
    <tag k="ref:vcgi:esiteid" v="148795" />
  </node>
  <node id="-178" visible="true" lat="44.65807432" lon="-71.63934155">
    <tag k="addr:city" v="Maidstone" />
    <tag k="addr:housenumber" v="4488" />
    <tag k="addr:street" v="Maidstone Lake Road" />
    <tag k="addr:state" v="VT" />
    <tag k="ref:vcgi:esiteid" v="148796" />
  </node>
  <node id="-179" visible="true" lat="44.65803218" lon="-71.65148378">
    <tag k="addr:city" v="Maidstone" />
    <tag k="addr:housenumber" v="67" />
    <tag k="addr:street" v="Private West 2" />
    <tag k="addr:state" v="VT" />
    <tag k="ref:vcgi:esiteid" v="148797" />
  </node>
  <node id="-180" visible="true" lat="44.65778582" lon="-71.63930161">
    <tag k="addr:city" v="Maidstone" />
    <tag k="addr:housenumber" v="4502" />
    <tag k="addr:street" v="Maidstone Lake Road" />
    <tag k="addr:state" v="VT" />
    <tag k="ref:vcgi:esiteid" v="148798" />
  </node>
  <node id="-181" visible="true" lat="44.65779567" lon="-71.65149904">
    <tag k="addr:city" v="Maidstone" />
    <tag k="addr:housenumber" v="85" />
    <tag k="addr:street" v="Private West 2" />
    <tag k="addr:state" v="VT" />
    <tag k="ref:vcgi:esiteid" v="148799" />
  </node>
  <node id="-182" visible="true" lat="44.65756814" lon="-71.63913332">
    <tag k="addr:city" v="Maidstone" />
    <tag k="addr:housenumber" v="4516" />
    <tag k="addr:street" v="Maidstone Lake Road" />
    <tag k="addr:state" v="VT" />
    <tag k="ref:vcgi:esiteid" v="148800" />
  </node>
  <node id="-183" visible="true" lat="44.65741132" lon="-71.59575804">
    <tag k="addr:city" v="Maidstone" />
    <tag k="addr:housenumber" v="230" />
    <tag k="addr:street" v="Hall Road" />
    <tag k="addr:state" v="VT" />
    <tag k="ref:vcgi:esiteid" v="148801" />
  </node>
  <node id="-184" visible="true" lat="44.65701859" lon="-71.59337929">
    <tag k="addr:city" v="Maidstone" />
    <tag k="addr:housenumber" v="77" />
    <tag k="addr:street" v="Hall Road" />
    <tag k="addr:state" v="VT" />
    <tag k="ref:vcgi:esiteid" v="148802" />
  </node>
  <node id="-185" visible="true" lat="44.65751975" lon="-71.65143519">
    <tag k="addr:city" v="Maidstone" />
    <tag k="addr:housenumber" v="45" />
    <tag k="addr:street" v="Private West 3" />
    <tag k="addr:state" v="VT" />
    <tag k="ref:vcgi:esiteid" v="148803" />
  </node>
  <node id="-186" visible="true" lat="44.65725632" lon="-71.65146923">
    <tag k="addr:city" v="Maidstone" />
    <tag k="addr:housenumber" v="57" />
    <tag k="addr:street" v="Private West 3" />
    <tag k="addr:state" v="VT" />
    <tag k="ref:vcgi:esiteid" v="148804" />
  </node>
  <node id="-187" visible="true" lat="44.65721836" lon="-71.63955135">
    <tag k="addr:city" v="Maidstone" />
    <tag k="addr:housenumber" v="4532" />
    <tag k="addr:street" v="Maidstone Lake Road" />
    <tag k="addr:state" v="VT" />
    <tag k="ref:vcgi:esiteid" v="148805" />
  </node>
  <node id="-188" visible="true" lat="44.65699394" lon="-71.63937779">
    <tag k="addr:city" v="Maidstone" />
    <tag k="addr:housenumber" v="4534" />
    <tag k="addr:street" v="Maidstone Lake Road" />
    <tag k="addr:state" v="VT" />
    <tag k="ref:vcgi:esiteid" v="148806" />
  </node>
  <node id="-189" visible="true" lat="44.6565365" lon="-71.5995247">
    <tag k="addr:city" v="Maidstone" />
    <tag k="addr:housenumber" v="418" />
    <tag k="addr:street" v="Hall Road" />
    <tag k="addr:state" v="VT" />
    <tag k="ref:vcgi:esiteid" v="148807" />
  </node>
  <node id="-190" visible="true" lat="44.65674793" lon="-71.63967605">
    <tag k="addr:city" v="Maidstone" />
    <tag k="addr:housenumber" v="127" />
    <tag k="addr:street" v="Lake East 1" />
    <tag k="addr:state" v="VT" />
    <tag k="ref:vcgi:esiteid" v="148808" />
  </node>
  <node id="-191" visible="true" lat="44.65674316" lon="-71.65166814">
    <tag k="addr:city" v="Maidstone" />
    <tag k="addr:housenumber" v="93" />
    <tag k="addr:street" v="Private West 3" />
    <tag k="addr:state" v="VT" />
    <tag k="ref:vcgi:esiteid" v="148809" />
  </node>
  <node id="-192" visible="true" lat="44.6564161" lon="-71.63996663">
    <tag k="addr:city" v="Maidstone" />
    <tag k="addr:housenumber" v="111" />
    <tag k="addr:street" v="Lake East 1" />
    <tag k="addr:state" v="VT" />
    <tag k="ref:vcgi:esiteid" v="148810" />
  </node>
  <node id="-193" visible="true" lat="44.65628934" lon="-71.63998862">
    <tag k="addr:city" v="Maidstone" />
    <tag k="addr:housenumber" v="97" />
    <tag k="addr:street" v="Lake East 1" />
    <tag k="addr:state" v="VT" />
    <tag k="ref:vcgi:esiteid" v="148811" />
  </node>
  <node id="-194" visible="true" lat="44.65604963" lon="-71.65234526">
    <tag k="addr:city" v="Maidstone" />
    <tag k="addr:housenumber" v="50" />
    <tag k="addr:street" v="Private West 4" />
    <tag k="addr:state" v="VT" />
    <tag k="ref:vcgi:esiteid" v="148812" />
  </node>
  <node id="-195" visible="true" lat="44.65594179" lon="-71.63965827">
    <tag k="addr:city" v="Maidstone" />
    <tag k="addr:housenumber" v="69" />
    <tag k="addr:street" v="Lake East 1" />
    <tag k="addr:state" v="VT" />
    <tag k="ref:vcgi:esiteid" v="148813" />
  </node>
  <node id="-196" visible="true" lat="44.65586344" lon="-71.65263939">
    <tag k="addr:city" v="Maidstone" />
    <tag k="addr:housenumber" v="46" />
    <tag k="addr:street" v="Private West 4" />
    <tag k="addr:state" v="VT" />
    <tag k="ref:vcgi:esiteid" v="148814" />
  </node>
  <node id="-197" visible="true" lat="44.65567749" lon="-71.63963591">
    <tag k="addr:city" v="Maidstone" />
    <tag k="addr:housenumber" v="49" />
    <tag k="addr:street" v="Lake East 1" />
    <tag k="addr:state" v="VT" />
    <tag k="ref:vcgi:esiteid" v="148815" />
  </node>
  <node id="-198" visible="true" lat="44.65572297" lon="-71.65311125">
    <tag k="addr:city" v="Maidstone" />
    <tag k="addr:housenumber" v="26" />
    <tag k="addr:street" v="Private West 4" />
    <tag k="addr:state" v="VT" />
    <tag k="ref:vcgi:esiteid" v="148816" />
  </node>
  <node id="-199" visible="true" lat="44.65529892" lon="-71.63982809">
    <tag k="addr:city" v="Maidstone" />
    <tag k="addr:housenumber" v="47" />
    <tag k="addr:street" v="Lake East 1" />
    <tag k="addr:state" v="VT" />
    <tag k="ref:vcgi:esiteid" v="148817" />
  </node>
  <node id="-200" visible="true" lat="44.65484471" lon="-71.65298026">
    <tag k="addr:city" v="Maidstone" />
    <tag k="addr:housenumber" v="12" />
    <tag k="addr:street" v="Private West 5" />
    <tag k="addr:state" v="VT" />
    <tag k="ref:vcgi:esiteid" v="148818" />
  </node>
  <node id="-201" visible="true" lat="44.65449142" lon="-71.65304796">
    <tag k="addr:city" v="Maidstone" />
    <tag k="addr:housenumber" v="32" />
    <tag k="addr:street" v="Private West 5" />
    <tag k="addr:state" v="VT" />
    <tag k="ref:vcgi:esiteid" v="148819" />
  </node>
  <node id="-202" visible="true" lat="44.65399661" lon="-71.65293327">
    <tag k="addr:city" v="Maidstone" />
    <tag k="addr:housenumber" v="1037" />
    <tag k="addr:street" v="Westside Lake Road" />
    <tag k="addr:state" v="VT" />
    <tag k="ref:vcgi:esiteid" v="148820" />
  </node>
  <node id="-203" visible="true" lat="44.65369425" lon="-71.65284907">
    <tag k="addr:city" v="Maidstone" />
    <tag k="addr:housenumber" v="1065" />
    <tag k="addr:street" v="Westside Lake Road" />
    <tag k="addr:state" v="VT" />
    <tag k="ref:vcgi:esiteid" v="148821" />
  </node>
  <node id="-204" visible="true" lat="44.6534318" lon="-71.65260107">
    <tag k="addr:city" v="Maidstone" />
    <tag k="addr:housenumber" v="1067" />
    <tag k="addr:street" v="Westside Lake Road" />
    <tag k="addr:state" v="VT" />
    <tag k="ref:vcgi:esiteid" v="148822" />
  </node>
  <node id="-205" visible="true" lat="44.65309529" lon="-71.6528397">
    <tag k="addr:city" v="Maidstone" />
    <tag k="addr:housenumber" v="1089" />
    <tag k="addr:street" v="Westside Lake Road" />
    <tag k="addr:state" v="VT" />
    <tag k="ref:vcgi:esiteid" v="148823" />
  </node>
  <node id="-206" visible="true" lat="44.65323702" lon="-71.58416914">
    <tag k="addr:city" v="Maidstone" />
    <tag k="addr:housenumber" v="7046" />
    <tag k="addr:street" v="Vermont Route 102" />
    <tag k="addr:state" v="VT" />
    <tag k="ref:vcgi:esiteid" v="148824" />
  </node>
  <node id="-207" visible="true" lat="44.65286381" lon="-71.65270993">
    <tag k="addr:city" v="Maidstone" />
    <tag k="addr:housenumber" v="1107" />
    <tag k="addr:street" v="Westside Lake Road" />
    <tag k="addr:state" v="VT" />
    <tag k="ref:vcgi:esiteid" v="148825" />
  </node>
  <node id="-208" visible="true" lat="44.65254229" lon="-71.65262524">
    <tag k="addr:city" v="Maidstone" />
    <tag k="addr:housenumber" v="1141" />
    <tag k="addr:street" v="Westside Lake Road" />
    <tag k="addr:state" v="VT" />
    <tag k="ref:vcgi:esiteid" v="148826" />
  </node>
  <node id="-209" visible="true" lat="44.65310063" lon="-71.6389032">
    <tag k="addr:city" v="Maidstone" />
    <tag k="addr:housenumber" v="4858" />
    <tag k="addr:street" v="Maidstone Lake Road" />
    <tag k="addr:state" v="VT" />
    <tag k="ref:vcgi:esiteid" v="148827" />
  </node>
  <node id="-210" visible="true" lat="44.65232619" lon="-71.6523423">
    <tag k="addr:city" v="Maidstone" />
    <tag k="addr:housenumber" v="1143" />
    <tag k="addr:street" v="Westside Lake Road" />
    <tag k="addr:state" v="VT" />
    <tag k="ref:vcgi:esiteid" v="148828" />
  </node>
  <node id="-211" visible="true" lat="44.65289412" lon="-71.63854696">
    <tag k="addr:city" v="Maidstone" />
    <tag k="addr:housenumber" v="4871" />
    <tag k="addr:street" v="Maidstone Lake Road" />
    <tag k="addr:state" v="VT" />
    <tag k="ref:vcgi:esiteid" v="148829" />
  </node>
  <node id="-212" visible="true" lat="44.65334937" lon="-71.63973391">
    <tag k="addr:city" v="Maidstone" />
    <tag k="addr:housenumber" v="66" />
    <tag k="addr:street" v="Beach Road" />
    <tag k="addr:state" v="VT" />
    <tag k="ref:vcgi:esiteid" v="148830" />
  </node>
  <node id="-213" visible="true" lat="44.65223312" lon="-71.58355712">
    <tag k="addr:city" v="Maidstone" />
    <tag k="addr:housenumber" v="7025" />
    <tag k="addr:street" v="Vermont Route 102" />
    <tag k="addr:state" v="VT" />
    <tag k="ref:vcgi:esiteid" v="148831" />
  </node>
  <node id="-214" visible="true" lat="44.65193917" lon="-71.65200257">
    <tag k="addr:city" v="Maidstone" />
    <tag k="addr:housenumber" v="47" />
    <tag k="addr:street" v="Private West 6" />
    <tag k="addr:state" v="VT" />
    <tag k="ref:vcgi:esiteid" v="148832" />
  </node>
  <node id="-215" visible="true" lat="44.65154046" lon="-71.65185361">
    <tag k="addr:city" v="Maidstone" />
    <tag k="addr:housenumber" v="59" />
    <tag k="addr:street" v="Private West 6" />
    <tag k="addr:state" v="VT" />
    <tag k="ref:vcgi:esiteid" v="148833" />
  </node>
  <node id="-216" visible="true" lat="44.65129393" lon="-71.65204188">
    <tag k="addr:city" v="Maidstone" />
    <tag k="addr:housenumber" v="1237" />
    <tag k="addr:street" v="Westside Lake Road" />
    <tag k="addr:state" v="VT" />
    <tag k="ref:vcgi:esiteid" v="148834" />
  </node>
  <node id="-217" visible="true" lat="44.65086691" lon="-71.65150412">
    <tag k="addr:city" v="Maidstone" />
    <tag k="addr:housenumber" v="1255" />
    <tag k="addr:street" v="Westside Lake Road" />
    <tag k="addr:state" v="VT" />
    <tag k="ref:vcgi:esiteid" v="148835" />
  </node>
  <node id="-218" visible="true" lat="44.65134535" lon="-71.64037752">
    <tag k="addr:city" v="Maidstone" />
    <tag k="addr:housenumber" v="5032" />
    <tag k="addr:street" v="Maidstone Lake Road" />
    <tag k="addr:state" v="VT" />
    <tag k="ref:vcgi:esiteid" v="148836" />
  </node>
  <node id="-219" visible="true" lat="44.6511175" lon="-71.64049908">
    <tag k="addr:city" v="Maidstone" />
    <tag k="addr:housenumber" v="5034" />
    <tag k="addr:street" v="Maidstone Lake Road" />
    <tag k="addr:state" v="VT" />
    <tag k="ref:vcgi:esiteid" v="148837" />
  </node>
  <node id="-220" visible="true" lat="44.65055818" lon="-71.65143197">
    <tag k="addr:city" v="Maidstone" />
    <tag k="addr:housenumber" v="1293" />
    <tag k="addr:street" v="Westside Lake Road" />
    <tag k="addr:state" v="VT" />
    <tag k="ref:vcgi:esiteid" v="148838" />
  </node>
  <node id="-221" visible="true" lat="44.65081138" lon="-71.64056875">
    <tag k="addr:city" v="Maidstone" />
    <tag k="addr:housenumber" v="5044" />
    <tag k="addr:street" v="Maidstone Lake Road" />
    <tag k="addr:state" v="VT" />
    <tag k="ref:vcgi:esiteid" v="148839" />
  </node>
  <node id="-222" visible="true" lat="44.65032879" lon="-71.65131829">
    <tag k="addr:city" v="Maidstone" />
    <tag k="addr:housenumber" v="1347" />
    <tag k="addr:street" v="Westside Lake Road" />
    <tag k="addr:state" v="VT" />
    <tag k="ref:vcgi:esiteid" v="148840" />
  </node>
  <node id="-223" visible="true" lat="44.65050362" lon="-71.64050754">
    <tag k="addr:city" v="Maidstone" />
    <tag k="addr:housenumber" v="5052" />
    <tag k="addr:street" v="Maidstone Lake Road" />
    <tag k="addr:state" v="VT" />
    <tag k="ref:vcgi:esiteid" v="148841" />
  </node>
  <node id="-224" visible="true" lat="44.65026229" lon="-71.64048923">
    <tag k="addr:city" v="Maidstone" />
    <tag k="addr:housenumber" v="5068" />
    <tag k="addr:street" v="Maidstone Lake Road" />
    <tag k="addr:state" v="VT" />
    <tag k="ref:vcgi:esiteid" v="148842" />
  </node>
  <node id="-225" visible="true" lat="44.64968711" lon="-71.65137695">
    <tag k="addr:city" v="Maidstone" />
    <tag k="addr:housenumber" v="1375" />
    <tag k="addr:street" v="Westside Lake Road" />
    <tag k="addr:state" v="VT" />
    <tag k="ref:vcgi:esiteid" v="148843" />
  </node>
  <node id="-226" visible="true" lat="44.64986683" lon="-71.64054373">
    <tag k="addr:city" v="Maidstone" />
    <tag k="addr:housenumber" v="5094" />
    <tag k="addr:street" v="Maidstone Lake Road" />
    <tag k="addr:state" v="VT" />
    <tag k="ref:vcgi:esiteid" v="148844" />
  </node>
  <node id="-227" visible="true" lat="44.64951768" lon="-71.6406296">
    <tag k="addr:city" v="Maidstone" />
    <tag k="addr:housenumber" v="5114" />
    <tag k="addr:street" v="Maidstone Lake Road" />
    <tag k="addr:state" v="VT" />
    <tag k="ref:vcgi:esiteid" v="148845" />
  </node>
  <node id="-228" visible="true" lat="44.64916648" lon="-71.64076998">
    <tag k="addr:city" v="Maidstone" />
    <tag k="addr:housenumber" v="5142" />
    <tag k="addr:street" v="Maidstone Lake Road" />
    <tag k="addr:state" v="VT" />
    <tag k="ref:vcgi:esiteid" v="148846" />
  </node>
  <node id="-229" visible="true" lat="44.64876174" lon="-71.58658599">
    <tag k="addr:city" v="Maidstone" />
    <tag k="addr:housenumber" v="501" />
    <tag k="addr:street" v="Bear Hill Road" />
    <tag k="addr:state" v="VT" />
    <tag k="ref:vcgi:esiteid" v="148847" />
  </node>
  <node id="-230" visible="true" lat="44.64887316" lon="-71.64086871">
    <tag k="addr:city" v="Maidstone" />
    <tag k="addr:housenumber" v="5170" />
    <tag k="addr:street" v="Maidstone Lake Road" />
    <tag k="addr:state" v="VT" />
    <tag k="ref:vcgi:esiteid" v="148848" />
  </node>
  <node id="-231" visible="true" lat="44.64845879" lon="-71.57343128">
    <tag k="addr:city" v="Maidstone" />
    <tag k="addr:housenumber" v="9" />
    <tag k="addr:street" v="Lamoureux Road" />
    <tag k="addr:state" v="VT" />
    <tag k="ref:vcgi:esiteid" v="148849" />
  </node>
  <node id="-232" visible="true" lat="44.64864287" lon="-71.64080486">
    <tag k="addr:city" v="Maidstone" />
    <tag k="addr:housenumber" v="5172" />
    <tag k="addr:street" v="Maidstone Lake Road" />
    <tag k="addr:state" v="VT" />
    <tag k="ref:vcgi:esiteid" v="148850" />
  </node>
  <node id="-233" visible="true" lat="44.64848078" lon="-71.65138261">
    <tag k="addr:city" v="Maidstone" />
    <tag k="addr:housenumber" v="1471" />
    <tag k="addr:street" v="Westside Lake Road" />
    <tag k="addr:state" v="VT" />
    <tag k="ref:vcgi:esiteid" v="148851" />
  </node>
  <node id="-234" visible="true" lat="44.64815626" lon="-71.65132568">
    <tag k="addr:city" v="Maidstone" />
    <tag k="addr:housenumber" v="1481" />
    <tag k="addr:street" v="Westside Lake Road" />
    <tag k="addr:state" v="VT" />
    <tag k="ref:vcgi:esiteid" v="148852" />
  </node>
  <node id="-235" visible="true" lat="44.64828872" lon="-71.64063262">
    <tag k="addr:city" v="Maidstone" />
    <tag k="addr:housenumber" v="5204" />
    <tag k="addr:street" v="Maidstone Lake Road" />
    <tag k="addr:state" v="VT" />
    <tag k="ref:vcgi:esiteid" v="148853" />
  </node>
  <node id="-236" visible="true" lat="44.64776674" lon="-71.64078873">
    <tag k="addr:city" v="Maidstone" />
    <tag k="addr:housenumber" v="5226" />
    <tag k="addr:street" v="Maidstone Lake Road" />
    <tag k="addr:state" v="VT" />
    <tag k="ref:vcgi:esiteid" v="148854" />
  </node>
  <node id="-237" visible="true" lat="44.6479408" lon="-71.65145702">
    <tag k="addr:city" v="Maidstone" />
    <tag k="addr:housenumber" v="1501" />
    <tag k="addr:street" v="Westside Lake Road" />
    <tag k="addr:state" v="VT" />
    <tag k="ref:vcgi:esiteid" v="148855" />
  </node>
  <node id="-238" visible="true" lat="44.64770173" lon="-71.65172004">
    <tag k="addr:city" v="Maidstone" />
    <tag k="addr:housenumber" v="1503" />
    <tag k="addr:street" v="Westside Lake Road" />
    <tag k="addr:state" v="VT" />
    <tag k="ref:vcgi:esiteid" v="148856" />
  </node>
  <node id="-239" visible="true" lat="44.64750137" lon="-71.64078137">
    <tag k="addr:city" v="Maidstone" />
    <tag k="addr:housenumber" v="5244" />
    <tag k="addr:street" v="Maidstone Lake Road" />
    <tag k="addr:state" v="VT" />
    <tag k="ref:vcgi:esiteid" v="148857" />
  </node>
  <node id="-240" visible="true" lat="44.64721974" lon="-71.64068473">
    <tag k="addr:city" v="Maidstone" />
    <tag k="addr:housenumber" v="5260" />
    <tag k="addr:street" v="Maidstone Lake Road" />
    <tag k="addr:state" v="VT" />
    <tag k="ref:vcgi:esiteid" v="148858" />
  </node>
  <node id="-241" visible="true" lat="44.64760862" lon="-71.65199586">
    <tag k="addr:city" v="Maidstone" />
    <tag k="addr:housenumber" v="5" />
    <tag k="addr:street" v="Private West 7" />
    <tag k="addr:state" v="VT" />
    <tag k="ref:vcgi:esiteid" v="148859" />
  </node>
  <node id="-242" visible="true" lat="44.64688458" lon="-71.64063626">
    <tag k="addr:city" v="Maidstone" />
    <tag k="addr:housenumber" v="5274" />
    <tag k="addr:street" v="Maidstone Lake Road" />
    <tag k="addr:state" v="VT" />
    <tag k="ref:vcgi:esiteid" v="148860" />
  </node>
  <node id="-243" visible="true" lat="44.64723151" lon="-71.65199998">
    <tag k="addr:city" v="Maidstone" />
    <tag k="addr:housenumber" v="39" />
    <tag k="addr:street" v="Private West 7" />
    <tag k="addr:state" v="VT" />
    <tag k="ref:vcgi:esiteid" v="148861" />
  </node>
  <node id="-244" visible="true" lat="44.64716578" lon="-71.65319515">
    <tag k="addr:city" v="Maidstone" />
    <tag k="addr:housenumber" v="1549" />
    <tag k="addr:street" v="Westside Lake Road" />
    <tag k="addr:state" v="VT" />
    <tag k="ref:vcgi:esiteid" v="148862" />
  </node>
  <node id="-245" visible="true" lat="44.64713625" lon="-71.6553478">
    <tag k="addr:city" v="Maidstone" />
    <tag k="addr:housenumber" v="1669" />
    <tag k="addr:street" v="Westside Lake Road" />
    <tag k="addr:state" v="VT" />
    <tag k="ref:vcgi:esiteid" v="148863" />
  </node>
  <node id="-246" visible="true" lat="44.64715957" lon="-71.65240478">
    <tag k="addr:city" v="Maidstone" />
    <tag k="addr:housenumber" v="44" />
    <tag k="addr:street" v="Private West 7" />
    <tag k="addr:state" v="VT" />
    <tag k="ref:vcgi:esiteid" v="148864" />
  </node>
  <node id="-247" visible="true" lat="44.64714935" lon="-71.65402776">
    <tag k="addr:city" v="Maidstone" />
    <tag k="addr:housenumber" v="1609" />
    <tag k="addr:street" v="Westside Lake Road" />
    <tag k="addr:state" v="VT" />
    <tag k="ref:vcgi:esiteid" v="148865" />
  </node>
  <node id="-248" visible="true" lat="44.64670682" lon="-71.64076007">
    <tag k="addr:city" v="Maidstone" />
    <tag k="addr:housenumber" v="5276" />
    <tag k="addr:street" v="Maidstone Lake Road" />
    <tag k="addr:state" v="VT" />
    <tag k="ref:vcgi:esiteid" v="148866" />
  </node>
  <node id="-249" visible="true" lat="44.64715002" lon="-71.65445645">
    <tag k="addr:city" v="Maidstone" />
    <tag k="addr:housenumber" v="1627" />
    <tag k="addr:street" v="Westside Lake Road" />
    <tag k="addr:state" v="VT" />
    <tag k="ref:vcgi:esiteid" v="148867" />
  </node>
  <node id="-250" visible="true" lat="44.64726182" lon="-71.65354553">
    <tag k="addr:city" v="Maidstone" />
    <tag k="addr:housenumber" v="1559" />
    <tag k="addr:street" v="Westside Lake Road" />
    <tag k="addr:state" v="VT" />
    <tag k="ref:vcgi:esiteid" v="148868" />
  </node>
  <node id="-251" visible="true" lat="44.64640755" lon="-71.64085038">
    <tag k="addr:city" v="Maidstone" />
    <tag k="addr:housenumber" v="5282" />
    <tag k="addr:street" v="Maidstone Lake Road" />
    <tag k="addr:state" v="VT" />
    <tag k="ref:vcgi:esiteid" v="148869" />
  </node>
  <node id="-252" visible="true" lat="44.6469165" lon="-71.65649823">
    <tag k="addr:city" v="Maidstone" />
    <tag k="addr:housenumber" v="1781" />
    <tag k="addr:street" v="Westside Lake Road" />
    <tag k="addr:state" v="VT" />
    <tag k="ref:vcgi:esiteid" v="148870" />
  </node>
  <node id="-253" visible="true" lat="44.64690806" lon="-71.65563778">
    <tag k="addr:city" v="Maidstone" />
    <tag k="addr:housenumber" v="1673" />
    <tag k="addr:street" v="Westside Lake Road" />
    <tag k="addr:state" v="VT" />
    <tag k="ref:vcgi:esiteid" v="148871" />
  </node>
  <node id="-254" visible="true" lat="44.64616546" lon="-71.64099731">
    <tag k="addr:city" v="Maidstone" />
    <tag k="addr:housenumber" v="5326" />
    <tag k="addr:street" v="Maidstone Lake Road" />
    <tag k="addr:state" v="VT" />
    <tag k="ref:vcgi:esiteid" v="148872" />
  </node>
  <node id="-255" visible="true" lat="44.64660413" lon="-71.65650932">
    <tag k="addr:city" v="Maidstone" />
    <tag k="addr:housenumber" v="23" />
    <tag k="addr:street" v="Private West 8" />
    <tag k="addr:state" v="VT" />
    <tag k="ref:vcgi:esiteid" v="148873" />
  </node>
  <node id="-256" visible="true" lat="44.64586399" lon="-71.64102949">
    <tag k="addr:city" v="Maidstone" />
    <tag k="addr:housenumber" v="5342" />
    <tag k="addr:street" v="Maidstone Lake Road" />
    <tag k="addr:state" v="VT" />
    <tag k="ref:vcgi:esiteid" v="148874" />
  </node>
  <node id="-257" visible="true" lat="44.64640525" lon="-71.6566587">
    <tag k="addr:city" v="Maidstone" />
    <tag k="addr:housenumber" v="43" />
    <tag k="addr:street" v="Private West 8" />
    <tag k="addr:state" v="VT" />
    <tag k="ref:vcgi:esiteid" v="148875" />
  </node>
  <node id="-258" visible="true" lat="44.6461305" lon="-71.65661555">
    <tag k="addr:city" v="Maidstone" />
    <tag k="addr:housenumber" v="57" />
    <tag k="addr:street" v="Private West 8" />
    <tag k="addr:state" v="VT" />
    <tag k="ref:vcgi:esiteid" v="148876" />
  </node>
  <node id="-259" visible="true" lat="44.64589014" lon="-71.65665849">
    <tag k="addr:city" v="Maidstone" />
    <tag k="addr:housenumber" v="69" />
    <tag k="addr:street" v="Private West 8" />
    <tag k="addr:state" v="VT" />
    <tag k="ref:vcgi:esiteid" v="148877" />
  </node>
  <node id="-260" visible="true" lat="44.64531249" lon="-71.6409122">
    <tag k="addr:city" v="Maidstone" />
    <tag k="addr:housenumber" v="5432" />
    <tag k="addr:street" v="Maidstone Lake Road" />
    <tag k="addr:state" v="VT" />
    <tag k="ref:vcgi:esiteid" v="148879" />
  </node>
  <node id="-261" visible="true" lat="44.64506917" lon="-71.6412828">
    <tag k="addr:city" v="Maidstone" />
    <tag k="addr:housenumber" v="5438" />
    <tag k="addr:street" v="Maidstone Lake Road" />
    <tag k="addr:state" v="VT" />
    <tag k="ref:vcgi:esiteid" v="148880" />
  </node>
  <node id="-262" visible="true" lat="44.64482765" lon="-71.64127993">
    <tag k="addr:city" v="Maidstone" />
    <tag k="addr:housenumber" v="5452" />
    <tag k="addr:street" v="Maidstone Lake Road" />
    <tag k="addr:state" v="VT" />
    <tag k="ref:vcgi:esiteid" v="148881" />
  </node>
  <node id="-263" visible="true" lat="44.64423115" lon="-71.6415175">
    <tag k="addr:city" v="Maidstone" />
    <tag k="addr:housenumber" v="5480" />
    <tag k="addr:street" v="Maidstone Lake Road" />
    <tag k="addr:state" v="VT" />
    <tag k="ref:vcgi:esiteid" v="148882" />
  </node>
  <node id="-264" visible="true" lat="44.6445465" lon="-71.65718078">
    <tag k="addr:city" v="Maidstone" />
    <tag k="addr:housenumber" v="1959" />
    <tag k="addr:street" v="Westside Lake Road" />
    <tag k="addr:state" v="VT" />
    <tag k="ref:vcgi:esiteid" v="148883" />
  </node>
  <node id="-265" visible="true" lat="44.64400845" lon="-71.6415037">
    <tag k="addr:city" v="Maidstone" />
    <tag k="addr:housenumber" v="5496" />
    <tag k="addr:street" v="Maidstone Lake Road" />
    <tag k="addr:state" v="VT" />
    <tag k="ref:vcgi:esiteid" v="148884" />
  </node>
  <node id="-266" visible="true" lat="44.64416649" lon="-71.6571485">
    <tag k="addr:city" v="Maidstone" />
    <tag k="addr:housenumber" v="1987" />
    <tag k="addr:street" v="Westside Lake Road" />
    <tag k="addr:state" v="VT" />
    <tag k="ref:vcgi:esiteid" v="148885" />
  </node>
  <node id="-267" visible="true" lat="44.64371108" lon="-71.65750884">
    <tag k="addr:city" v="Maidstone" />
    <tag k="addr:housenumber" v="2001" />
    <tag k="addr:street" v="Westside Lake Road" />
    <tag k="addr:state" v="VT" />
    <tag k="ref:vcgi:esiteid" v="148886" />
  </node>
  <node id="-268" visible="true" lat="44.64289157" lon="-71.64152142">
    <tag k="addr:city" v="Maidstone" />
    <tag k="addr:housenumber" v="5550" />
    <tag k="addr:street" v="Maidstone Lake Road" />
    <tag k="addr:state" v="VT" />
    <tag k="ref:vcgi:esiteid" v="148887" />
  </node>
  <node id="-269" visible="true" lat="44.64363586" lon="-71.65796367">
    <tag k="addr:city" v="Maidstone" />
    <tag k="addr:housenumber" v="2031" />
    <tag k="addr:street" v="Westside Lake Road" />
    <tag k="addr:state" v="VT" />
    <tag k="ref:vcgi:esiteid" v="148888" />
  </node>
  <node id="-270" visible="true" lat="44.64267725" lon="-71.64152892">
    <tag k="addr:city" v="Maidstone" />
    <tag k="addr:housenumber" v="5560" />
    <tag k="addr:street" v="Maidstone Lake Road" />
    <tag k="addr:state" v="VT" />
    <tag k="ref:vcgi:esiteid" v="148889" />
  </node>
  <node id="-271" visible="true" lat="44.64299278" lon="-71.61926561">
    <tag k="addr:city" v="Maidstone" />
    <tag k="addr:housenumber" v="1875" />
    <tag k="addr:street" v="Hall Road" />
    <tag k="addr:state" v="VT" />
    <tag k="ref:vcgi:esiteid" v="148890" />
  </node>
  <node id="-272" visible="true" lat="44.64313888" lon="-71.65822601">
    <tag k="addr:city" v="Maidstone" />
    <tag k="addr:housenumber" v="2089" />
    <tag k="addr:street" v="Westside Lake Road" />
    <tag k="addr:state" v="VT" />
    <tag k="ref:vcgi:esiteid" v="148891" />
  </node>
  <node id="-273" visible="true" lat="44.64237802" lon="-71.64140288">
    <tag k="addr:city" v="Maidstone" />
    <tag k="addr:housenumber" v="5562" />
    <tag k="addr:street" v="Maidstone Lake Road" />
    <tag k="addr:state" v="VT" />
    <tag k="ref:vcgi:esiteid" v="148892" />
  </node>
  <node id="-274" visible="true" lat="44.64294649" lon="-71.65832595">
    <tag k="addr:city" v="Maidstone" />
    <tag k="addr:housenumber" v="2091" />
    <tag k="addr:street" v="Westside Lake Road" />
    <tag k="addr:state" v="VT" />
    <tag k="ref:vcgi:esiteid" v="148893" />
  </node>
  <node id="-275" visible="true" lat="44.64214483" lon="-71.64128397">
    <tag k="addr:city" v="Maidstone" />
    <tag k="addr:housenumber" v="4" />
    <tag k="addr:street" v="Lake East 2" />
    <tag k="addr:state" v="VT" />
    <tag k="ref:vcgi:esiteid" v="148894" />
  </node>
  <node id="-276" visible="true" lat="44.64269745" lon="-71.65834363">
    <tag k="addr:city" v="Maidstone" />
    <tag k="addr:housenumber" v="2107" />
    <tag k="addr:street" v="Westside Lake Road" />
    <tag k="addr:state" v="VT" />
    <tag k="ref:vcgi:esiteid" v="148895" />
  </node>
  <node id="-277" visible="true" lat="44.64186999" lon="-71.64121553">
    <tag k="addr:city" v="Maidstone" />
    <tag k="addr:housenumber" v="10" />
    <tag k="addr:street" v="Lake East 2" />
    <tag k="addr:state" v="VT" />
    <tag k="ref:vcgi:esiteid" v="148896" />
  </node>
  <node id="-278" visible="true" lat="44.64223245" lon="-71.6586788">
    <tag k="addr:city" v="Maidstone" />
    <tag k="addr:housenumber" v="2119" />
    <tag k="addr:street" v="Westside Lake Road" />
    <tag k="addr:state" v="VT" />
    <tag k="ref:vcgi:esiteid" v="148897" />
  </node>
  <node id="-279" visible="true" lat="44.64155864" lon="-71.6411077">
    <tag k="addr:city" v="Maidstone" />
    <tag k="addr:housenumber" v="28" />
    <tag k="addr:street" v="Lake East 2" />
    <tag k="addr:state" v="VT" />
    <tag k="ref:vcgi:esiteid" v="148898" />
  </node>
  <node id="-280" visible="true" lat="44.64200224" lon="-71.65908269">
    <tag k="addr:city" v="Maidstone" />
    <tag k="addr:housenumber" v="2157" />
    <tag k="addr:street" v="Westside Lake Road" />
    <tag k="addr:state" v="VT" />
    <tag k="ref:vcgi:esiteid" v="148899" />
  </node>
  <node id="-281" visible="true" lat="44.64172992" lon="-71.65906624">
    <tag k="addr:city" v="Maidstone" />
    <tag k="addr:housenumber" v="2171" />
    <tag k="addr:street" v="Westside Lake Road" />
    <tag k="addr:state" v="VT" />
    <tag k="ref:vcgi:esiteid" v="148900" />
  </node>
  <node id="-282" visible="true" lat="44.64110311" lon="-71.56758552">
    <tag k="addr:city" v="Maidstone" />
    <tag k="addr:housenumber" v="5785" />
    <tag k="addr:street" v="Vermont Route 102" />
    <tag k="addr:state" v="VT" />
    <tag k="ref:vcgi:esiteid" v="148901" />
  </node>
  <node id="-283" visible="true" lat="44.64105757" lon="-71.64094427">
    <tag k="addr:city" v="Maidstone" />
    <tag k="addr:housenumber" v="5716" />
    <tag k="addr:street" v="Maidstone Lake Road" />
    <tag k="addr:state" v="VT" />
    <tag k="ref:vcgi:esiteid" v="148902" />
  </node>
  <node id="-284" visible="true" lat="44.64140907" lon="-71.65918977">
    <tag k="addr:city" v="Maidstone" />
    <tag k="addr:housenumber" v="2189" />
    <tag k="addr:street" v="Westside Lake Road" />
    <tag k="addr:state" v="VT" />
    <tag k="ref:vcgi:esiteid" v="148903" />
  </node>
  <node id="-285" visible="true" lat="44.64152949" lon="-71.6446164">
    <tag k="addr:city" v="Maidstone" />
    <tag k="addr:housenumber" v="5876" />
    <tag k="addr:street" v="Maidstone Lake Road" />
    <tag k="addr:state" v="VT" />
    <tag k="ref:vcgi:esiteid" v="148904" />
  </node>
  <node id="-286" visible="true" lat="44.64047521" lon="-71.64148661">
    <tag k="addr:city" v="Maidstone" />
    <tag k="addr:housenumber" v="5758" />
    <tag k="addr:street" v="Maidstone Lake Road" />
    <tag k="addr:state" v="VT" />
    <tag k="ref:vcgi:esiteid" v="148905" />
  </node>
  <node id="-287" visible="true" lat="44.6406465" lon="-71.64117261">
    <tag k="addr:city" v="Maidstone" />
    <tag k="addr:housenumber" v="5740" />
    <tag k="addr:street" v="Maidstone Lake Road" />
    <tag k="addr:state" v="VT" />
    <tag k="ref:vcgi:esiteid" v="148906" />
  </node>
  <node id="-288" visible="true" lat="44.64117629" lon="-71.65990102">
    <tag k="addr:city" v="Maidstone" />
    <tag k="addr:housenumber" v="15" />
    <tag k="addr:street" v="Private West 9" />
    <tag k="addr:state" v="VT" />
    <tag k="ref:vcgi:esiteid" v="148907" />
  </node>
  <node id="-289" visible="true" lat="44.64079519" lon="-71.65985426">
    <tag k="addr:city" v="Maidstone" />
    <tag k="addr:housenumber" v="21" />
    <tag k="addr:street" v="Private West 9" />
    <tag k="addr:state" v="VT" />
    <tag k="ref:vcgi:esiteid" v="148908" />
  </node>
  <node id="-290" visible="true" lat="44.64026243" lon="-71.64171362">
    <tag k="addr:city" v="Maidstone" />
    <tag k="addr:housenumber" v="5784" />
    <tag k="addr:street" v="Maidstone Lake Road" />
    <tag k="addr:state" v="VT" />
    <tag k="ref:vcgi:esiteid" v="148909" />
  </node>
  <node id="-291" visible="true" lat="44.6406855" lon="-71.66016778">
    <tag k="addr:city" v="Maidstone" />
    <tag k="addr:housenumber" v="68" />
    <tag k="addr:street" v="Private West 9" />
    <tag k="addr:state" v="VT" />
    <tag k="ref:vcgi:esiteid" v="148910" />
  </node>
  <node id="-292" visible="true" lat="44.64058672" lon="-71.66059019">
    <tag k="addr:city" v="Maidstone" />
    <tag k="addr:housenumber" v="46" />
    <tag k="addr:street" v="Private West 9" />
    <tag k="addr:state" v="VT" />
    <tag k="ref:vcgi:esiteid" v="148911" />
  </node>
  <node id="-293" visible="true" lat="44.64008909" lon="-71.64205867">
    <tag k="addr:city" v="Maidstone" />
    <tag k="addr:housenumber" v="5788" />
    <tag k="addr:street" v="Maidstone Lake Road" />
    <tag k="addr:state" v="VT" />
    <tag k="ref:vcgi:esiteid" v="148912" />
  </node>
  <node id="-294" visible="true" lat="44.64012519" lon="-71.66108365">
    <tag k="addr:city" v="Maidstone" />
    <tag k="addr:housenumber" v="2327" />
    <tag k="addr:street" v="Westside Lake Road" />
    <tag k="addr:state" v="VT" />
    <tag k="ref:vcgi:esiteid" v="148913" />
  </node>
  <node id="-295" visible="true" lat="44.63985148" lon="-71.64226135">
    <tag k="addr:city" v="Maidstone" />
    <tag k="addr:housenumber" v="5832" />
    <tag k="addr:street" v="Maidstone Lake Road" />
    <tag k="addr:state" v="VT" />
    <tag k="ref:vcgi:esiteid" v="148914" />
  </node>
  <node id="-296" visible="true" lat="44.63964463" lon="-71.64245368">
    <tag k="addr:city" v="Maidstone" />
    <tag k="addr:housenumber" v="5868" />
    <tag k="addr:street" v="Maidstone Lake Road" />
    <tag k="addr:state" v="VT" />
    <tag k="ref:vcgi:esiteid" v="148915" />
  </node>
  <node id="-297" visible="true" lat="44.63989769" lon="-71.66115063">
    <tag k="addr:city" v="Maidstone" />
    <tag k="addr:housenumber" v="2335" />
    <tag k="addr:street" v="Westside Lake Road" />
    <tag k="addr:state" v="VT" />
    <tag k="ref:vcgi:esiteid" v="148916" />
  </node>
  <node id="-298" visible="true" lat="44.63944154" lon="-71.64279737">
    <tag k="addr:city" v="Maidstone" />
    <tag k="addr:housenumber" v="5880" />
    <tag k="addr:street" v="Maidstone Lake Road" />
    <tag k="addr:state" v="VT" />
    <tag k="ref:vcgi:esiteid" v="148917" />
  </node>
  <node id="-299" visible="true" lat="44.63959578" lon="-71.66105504">
    <tag k="addr:city" v="Maidstone" />
    <tag k="addr:housenumber" v="2349" />
    <tag k="addr:street" v="Westside Lake Road" />
    <tag k="addr:state" v="VT" />
    <tag k="ref:vcgi:esiteid" v="148918" />
  </node>
  <node id="-300" visible="true" lat="44.63929656" lon="-71.66089764">
    <tag k="addr:city" v="Maidstone" />
    <tag k="addr:housenumber" v="94" />
    <tag k="addr:street" v="Private West 10" />
    <tag k="addr:state" v="VT" />
    <tag k="ref:vcgi:esiteid" v="148919" />
  </node>
  <node id="-301" visible="true" lat="44.63918269" lon="-71.64287682">
    <tag k="addr:city" v="Maidstone" />
    <tag k="addr:housenumber" v="5898" />
    <tag k="addr:street" v="Maidstone Lake Road" />
    <tag k="addr:state" v="VT" />
    <tag k="ref:vcgi:esiteid" v="148920" />
  </node>
  <node id="-302" visible="true" lat="44.63908288" lon="-71.66098321">
    <tag k="addr:city" v="Maidstone" />
    <tag k="addr:housenumber" v="72" />
    <tag k="addr:street" v="Private West 10" />
    <tag k="addr:state" v="VT" />
    <tag k="ref:vcgi:esiteid" v="148921" />
  </node>
  <node id="-303" visible="true" lat="44.63888035" lon="-71.66113362">
    <tag k="addr:city" v="Maidstone" />
    <tag k="addr:housenumber" v="2487" />
    <tag k="addr:street" v="Westside Lake Road" />
    <tag k="addr:state" v="VT" />
    <tag k="ref:vcgi:esiteid" v="148922" />
  </node>
  <node id="-304" visible="true" lat="44.6385076" lon="-71.64326458">
    <tag k="addr:city" v="Maidstone" />
    <tag k="addr:housenumber" v="5956" />
    <tag k="addr:street" v="Maidstone Lake Road" />
    <tag k="addr:state" v="VT" />
    <tag k="ref:vcgi:esiteid" v="148923" />
  </node>
  <node id="-305" visible="true" lat="44.63849825" lon="-71.66174712">
    <tag k="addr:city" v="Maidstone" />
    <tag k="addr:housenumber" v="2543" />
    <tag k="addr:street" v="Westside Lake Road" />
    <tag k="addr:state" v="VT" />
    <tag k="ref:vcgi:esiteid" v="148925" />
  </node>
  <node id="-306" visible="true" lat="44.63775808" lon="-71.56563713">
    <tag k="addr:city" v="Maidstone" />
    <tag k="addr:housenumber" v="5545" />
    <tag k="addr:street" v="Vermont Route 102" />
    <tag k="addr:state" v="VT" />
    <tag k="ref:vcgi:esiteid" v="148926" />
  </node>
  <node id="-307" visible="true" lat="44.63828827" lon="-71.66204966">
    <tag k="addr:city" v="Maidstone" />
    <tag k="addr:housenumber" v="2537" />
    <tag k="addr:street" v="Westside Lake Road" />
    <tag k="addr:state" v="VT" />
    <tag k="ref:vcgi:esiteid" v="148927" />
  </node>
  <node id="-308" visible="true" lat="44.63786755" lon="-71.66196674">
    <tag k="addr:city" v="Maidstone" />
    <tag k="addr:housenumber" v="2492" />
    <tag k="addr:street" v="Westside Lake Road" />
    <tag k="addr:state" v="VT" />
    <tag k="ref:vcgi:esiteid" v="148928" />
  </node>
  <node id="-309" visible="true" lat="44.63765808" lon="-71.66203106">
    <tag k="addr:city" v="Maidstone" />
    <tag k="addr:housenumber" v="2494" />
    <tag k="addr:street" v="Westside Lake Road" />
    <tag k="addr:state" v="VT" />
    <tag k="ref:vcgi:esiteid" v="148929" />
  </node>
  <node id="-310" visible="true" lat="44.63858471" lon="-71.6333761">
    <tag k="addr:city" v="Maidstone" />
    <tag k="addr:housenumber" v="2692" />
    <tag k="addr:street" v="Hall Road" />
    <tag k="addr:state" v="VT" />
    <tag k="ref:vcgi:esiteid" v="148930" />
  </node>
  <node id="-311" visible="true" lat="44.63644274" lon="-71.56482347">
    <tag k="addr:city" v="Maidstone" />
    <tag k="addr:housenumber" v="5449" />
    <tag k="addr:street" v="Vermont Route 102" />
    <tag k="addr:state" v="VT" />
    <tag k="ref:vcgi:esiteid" v="148931" />
  </node>
  <node id="-312" visible="true" lat="44.63437374" lon="-71.5598282">
    <tag k="addr:city" v="Maidstone" />
    <tag k="addr:housenumber" v="5164" />
    <tag k="addr:street" v="Vermont Route 102" />
    <tag k="addr:state" v="VT" />
    <tag k="ref:vcgi:esiteid" v="148932" />
  </node>
  <node id="-313" visible="true" lat="44.63198631" lon="-71.61536554">
    <tag k="addr:city" v="Maidstone" />
    <tag k="addr:housenumber" v="5233" />
    <tag k="addr:street" v="North Road" />
    <tag k="addr:state" v="VT" />
    <tag k="ref:vcgi:esiteid" v="148933" />
  </node>
  <node id="-314" visible="true" lat="44.63081147" lon="-71.55846296">
    <tag k="addr:city" v="Maidstone" />
    <tag k="addr:housenumber" v="4960" />
    <tag k="addr:street" v="Vermont Route 102" />
    <tag k="addr:state" v="VT" />
    <tag k="ref:vcgi:esiteid" v="148934" />
  </node>
  <node id="-315" visible="true" lat="44.62978426" lon="-71.55941801">
    <tag k="addr:city" v="Maidstone" />
    <tag k="addr:housenumber" v="4905" />
    <tag k="addr:street" v="Vermont Route 102" />
    <tag k="addr:state" v="VT" />
    <tag k="ref:vcgi:esiteid" v="148935" />
  </node>
  <node id="-316" visible="true" lat="44.63005828" lon="-71.6120224">
    <tag k="addr:city" v="Maidstone" />
    <tag k="addr:housenumber" v="5224" />
    <tag k="addr:street" v="North Road" />
    <tag k="addr:state" v="VT" />
    <tag k="ref:vcgi:esiteid" v="148937" />
  </node>
  <node id="-317" visible="true" lat="44.62697721" lon="-71.61359028">
    <tag k="addr:city" v="Maidstone" />
    <tag k="addr:housenumber" v="4857" />
    <tag k="addr:street" v="North Road" />
    <tag k="addr:state" v="VT" />
    <tag k="ref:vcgi:esiteid" v="148938" />
  </node>
  <node id="-318" visible="true" lat="44.62361145" lon="-71.55702209">
    <tag k="addr:city" v="Maidstone" />
    <tag k="addr:housenumber" v="4367" />
    <tag k="addr:street" v="Vermont Route 102" />
    <tag k="addr:state" v="VT" />
    <tag k="ref:vcgi:esiteid" v="148939" />
  </node>
  <node id="-319" visible="true" lat="44.62255407" lon="-71.55789774">
    <tag k="addr:city" v="Maidstone" />
    <tag k="addr:housenumber" v="4275" />
    <tag k="addr:street" v="Vermont Route 102" />
    <tag k="addr:state" v="VT" />
    <tag k="ref:vcgi:esiteid" v="148940" />
  </node>
  <node id="-320" visible="true" lat="44.62515022" lon="-71.55809906">
    <tag k="addr:city" v="Maidstone" />
    <tag k="addr:housenumber" v="4175" />
    <tag k="addr:street" v="Vermont Route 102" />
    <tag k="addr:state" v="VT" />
    <tag k="ref:vcgi:esiteid" v="148941" />
  </node>
  <node id="-321" visible="true" lat="44.61339462" lon="-71.56089281">
    <tag k="addr:city" v="Maidstone" />
    <tag k="addr:housenumber" v="3613" />
    <tag k="addr:street" v="Vermont Route 102" />
    <tag k="addr:state" v="VT" />
    <tag k="ref:vcgi:esiteid" v="148942" />
  </node>
  <node id="-322" visible="true" lat="44.61180133" lon="-71.55969214">
    <tag k="addr:city" v="Maidstone" />
    <tag k="addr:housenumber" v="3570" />
    <tag k="addr:street" v="Vermont Route 102" />
    <tag k="addr:state" v="VT" />
    <tag k="ref:vcgi:esiteid" v="148943" />
  </node>
  <node id="-323" visible="true" lat="44.61203002" lon="-71.59815979">
    <tag k="addr:city" v="Maidstone" />
    <tag k="addr:housenumber" v="3541" />
    <tag k="addr:street" v="North Road" />
    <tag k="addr:state" v="VT" />
    <tag k="ref:vcgi:esiteid" v="148944" />
  </node>
  <node id="-324" visible="true" lat="44.61111292" lon="-71.5633469">
    <tag k="addr:city" v="Maidstone" />
    <tag k="addr:housenumber" v="3615" />
    <tag k="addr:street" v="Vermont Route 102" />
    <tag k="addr:state" v="VT" />
    <tag k="ref:vcgi:esiteid" v="148945" />
  </node>
  <node id="-325" visible="true" lat="44.61094295" lon="-71.59879">
    <tag k="addr:city" v="Maidstone" />
    <tag k="addr:housenumber" v="150" />
    <tag k="addr:street" v="Wildwood Drive" />
    <tag k="addr:state" v="VT" />
    <tag k="ref:vcgi:esiteid" v="148946" />
  </node>
  <node id="-326" visible="true" lat="44.60790241" lon="-71.56378914">
    <tag k="addr:city" v="Maidstone" />
    <tag k="addr:housenumber" v="3287" />
    <tag k="addr:street" v="Vermont Route 102" />
    <tag k="addr:state" v="VT" />
    <tag k="ref:vcgi:esiteid" v="148947" />
  </node>
  <node id="-327" visible="true" lat="44.60601753" lon="-71.56051876">
    <tag k="addr:city" v="Maidstone" />
    <tag k="addr:housenumber" v="3027" />
    <tag k="addr:street" v="Vermont Route 102" />
    <tag k="addr:state" v="VT" />
    <tag k="ref:vcgi:esiteid" v="148948" />
  </node>
  <node id="-328" visible="true" lat="44.6058569" lon="-71.59121581">
    <tag k="addr:city" v="Maidstone" />
    <tag k="addr:housenumber" v="199" />
    <tag k="addr:street" v="Ford Road" />
    <tag k="addr:state" v="VT" />
    <tag k="ref:vcgi:esiteid" v="148949" />
  </node>
  <node id="-329" visible="true" lat="44.60461189" lon="-71.56250098">
    <tag k="addr:city" v="Maidstone" />
    <tag k="addr:housenumber" v="2917" />
    <tag k="addr:street" v="Vermont Route 102" />
    <tag k="addr:state" v="VT" />
    <tag k="ref:vcgi:esiteid" v="148950" />
  </node>
  <node id="-330" visible="true" lat="44.60440254" lon="-71.59487051">
    <tag k="addr:city" v="Maidstone" />
    <tag k="addr:housenumber" v="170" />
    <tag k="addr:street" v="Huntington Road" />
    <tag k="addr:state" v="VT" />
    <tag k="ref:vcgi:esiteid" v="148951" />
  </node>
  <node id="-331" visible="true" lat="44.60402281" lon="-71.59158761">
    <tag k="addr:city" v="Maidstone" />
    <tag k="addr:housenumber" v="48" />
    <tag k="addr:street" v="Ford Road" />
    <tag k="addr:state" v="VT" />
    <tag k="ref:vcgi:esiteid" v="148952" />
  </node>
  <node id="-332" visible="true" lat="44.60370594" lon="-71.5907167">
    <tag k="addr:city" v="Maidstone" />
    <tag k="addr:housenumber" v="64" />
    <tag k="addr:street" v="Ford Road" />
    <tag k="addr:state" v="VT" />
    <tag k="ref:vcgi:esiteid" v="148953" />
  </node>
  <node id="-333" visible="true" lat="44.60348154" lon="-71.59293635">
    <tag k="addr:city" v="Maidstone" />
    <tag k="addr:housenumber" v="50" />
    <tag k="addr:street" v="Huntington Road" />
    <tag k="addr:state" v="VT" />
    <tag k="ref:vcgi:esiteid" v="148954" />
  </node>
  <node id="-334" visible="true" lat="44.60315162" lon="-71.59177588">
    <tag k="addr:city" v="Maidstone" />
    <tag k="addr:housenumber" v="2840" />
    <tag k="addr:street" v="North Road" />
    <tag k="addr:state" v="VT" />
    <tag k="ref:vcgi:esiteid" v="148955" />
  </node>
  <node id="-335" visible="true" lat="44.60313857" lon="-71.59308347">
    <tag k="addr:city" v="Maidstone" />
    <tag k="addr:housenumber" v="33" />
    <tag k="addr:street" v="Huntington Road" />
    <tag k="addr:state" v="VT" />
    <tag k="ref:vcgi:esiteid" v="148956" />
  </node>
  <node id="-336" visible="true" lat="44.60287957" lon="-71.59136903">
    <tag k="addr:city" v="Maidstone" />
    <tag k="addr:housenumber" v="2812" />
    <tag k="addr:street" v="North Road" />
    <tag k="addr:state" v="VT" />
    <tag k="ref:vcgi:esiteid" v="148957" />
  </node>
  <node id="-337" visible="true" lat="44.60163155" lon="-71.56404902">
    <tag k="addr:city" v="Maidstone" />
    <tag k="addr:housenumber" v="2697" />
    <tag k="addr:street" v="Vermont Route 102" />
    <tag k="addr:state" v="VT" />
    <tag k="ref:vcgi:esiteid" v="148958" />
  </node>
  <node id="-338" visible="true" lat="44.60050664" lon="-71.56366722">
    <tag k="addr:city" v="Maidstone" />
    <tag k="addr:housenumber" v="2617" />
    <tag k="addr:street" v="Vermont Route 102" />
    <tag k="addr:state" v="VT" />
    <tag k="ref:vcgi:esiteid" v="148959" />
  </node>
  <node id="-339" visible="true" lat="44.60019969" lon="-71.56354205">
    <tag k="addr:city" v="Maidstone" />
    <tag k="addr:housenumber" v="2595" />
    <tag k="addr:street" v="Vermont Route 102" />
    <tag k="addr:state" v="VT" />
    <tag k="ref:vcgi:esiteid" v="148960" />
  </node>
  <node id="-340" visible="true" lat="44.60063835" lon="-71.59134065">
    <tag k="addr:city" v="Maidstone" />
    <tag k="addr:housenumber" v="2667" />
    <tag k="addr:street" v="North Road" />
    <tag k="addr:state" v="VT" />
    <tag k="ref:vcgi:esiteid" v="148961" />
  </node>
  <node id="-341" visible="true" lat="44.60008219" lon="-71.59089843">
    <tag k="addr:city" v="Maidstone" />
    <tag k="addr:housenumber" v="2663" />
    <tag k="addr:street" v="North Road" />
    <tag k="addr:state" v="VT" />
    <tag k="ref:vcgi:esiteid" v="148962" />
  </node>
  <node id="-342" visible="true" lat="44.59975823" lon="-71.58974424">
    <tag k="addr:city" v="Maidstone" />
    <tag k="addr:housenumber" v="2590" />
    <tag k="addr:street" v="North Road" />
    <tag k="addr:state" v="VT" />
    <tag k="ref:vcgi:esiteid" v="148964" />
  </node>
  <node id="-343" visible="true" lat="44.59813371" lon="-71.56086534">
    <tag k="addr:city" v="Maidstone" />
    <tag k="addr:housenumber" v="2406" />
    <tag k="addr:street" v="Vermont Route 102" />
    <tag k="addr:state" v="VT" />
    <tag k="ref:vcgi:esiteid" v="148965" />
  </node>
  <node id="-344" visible="true" lat="44.59799258" lon="-71.58814763">
    <tag k="addr:city" v="Maidstone" />
    <tag k="addr:housenumber" v="136" />
    <tag k="addr:street" v="Allen Road" />
    <tag k="addr:state" v="VT" />
    <tag k="ref:vcgi:esiteid" v="148966" />
  </node>
  <node id="-345" visible="true" lat="44.59699386" lon="-71.59246747">
    <tag k="addr:city" v="Maidstone" />
    <tag k="addr:housenumber" v="2365" />
    <tag k="addr:street" v="North Road" />
    <tag k="addr:state" v="VT" />
    <tag k="ref:vcgi:esiteid" v="148967" />
  </node>
  <node id="-346" visible="true" lat="44.5967627" lon="-71.59044321">
    <tag k="addr:city" v="Maidstone" />
    <tag k="addr:housenumber" v="2430" />
    <tag k="addr:street" v="North Road" />
    <tag k="addr:state" v="VT" />
    <tag k="ref:vcgi:esiteid" v="148968" />
  </node>
  <node id="-347" visible="true" lat="44.59631792" lon="-71.56053427">
    <tag k="addr:city" v="Maidstone" />
    <tag k="addr:housenumber" v="2283" />
    <tag k="addr:street" v="Vermont Route 102" />
    <tag k="addr:state" v="VT" />
    <tag k="ref:vcgi:esiteid" v="148969" />
  </node>
  <node id="-348" visible="true" lat="44.59400081" lon="-71.59433693">
    <tag k="addr:city" v="Maidstone" />
    <tag k="addr:housenumber" v="2137" />
    <tag k="addr:street" v="North Road" />
    <tag k="addr:state" v="VT" />
    <tag k="ref:vcgi:esiteid" v="148971" />
  </node>
  <node id="-349" visible="true" lat="44.59383948" lon="-71.58488126">
    <tag k="addr:city" v="Maidstone" />
    <tag k="addr:housenumber" v="639" />
    <tag k="addr:street" v="Tamarack Lane" />
    <tag k="addr:state" v="VT" />
    <tag k="ref:vcgi:esiteid" v="148972" />
  </node>
  <node id="-350" visible="true" lat="44.59387306" lon="-71.5934423">
    <tag k="addr:city" v="Maidstone" />
    <tag k="addr:housenumber" v="2124" />
    <tag k="addr:street" v="North Road" />
    <tag k="addr:state" v="VT" />
    <tag k="ref:vcgi:esiteid" v="148973" />
  </node>
  <node id="-351" visible="true" lat="44.59287527" lon="-71.59512988">
    <tag k="addr:city" v="Maidstone" />
    <tag k="addr:housenumber" v="2039" />
    <tag k="addr:street" v="North Road" />
    <tag k="addr:state" v="VT" />
    <tag k="ref:vcgi:esiteid" v="148974" />
  </node>
  <node id="-352" visible="true" lat="44.5911382" lon="-71.54921755">
    <tag k="addr:city" v="Maidstone" />
    <tag k="addr:housenumber" v="1584" />
    <tag k="addr:street" v="Vermont Route 102" />
    <tag k="addr:state" v="VT" />
    <tag k="ref:vcgi:esiteid" v="148975" />
  </node>
  <node id="-353" visible="true" lat="44.59096706" lon="-71.54801518">
    <tag k="addr:city" v="Maidstone" />
    <tag k="addr:housenumber" v="1536" />
    <tag k="addr:street" v="Vermont Route 102" />
    <tag k="addr:state" v="VT" />
    <tag k="ref:vcgi:esiteid" v="148976" />
  </node>
  <node id="-354" visible="true" lat="44.59050161" lon="-71.55029908">
    <tag k="addr:city" v="Maidstone" />
    <tag k="addr:housenumber" v="1581" />
    <tag k="addr:street" v="Vermont Route 102" />
    <tag k="addr:state" v="VT" />
    <tag k="ref:vcgi:esiteid" v="148977" />
  </node>
  <node id="-355" visible="true" lat="44.58979282" lon="-71.54965467">
    <tag k="addr:city" v="Maidstone" />
    <tag k="addr:housenumber" v="1519" />
    <tag k="addr:street" v="Vermont Route 102" />
    <tag k="addr:state" v="VT" />
    <tag k="ref:vcgi:esiteid" v="148978" />
  </node>
  <node id="-356" visible="true" lat="44.58835216" lon="-71.54770723">
    <tag k="addr:city" v="Maidstone" />
    <tag k="addr:housenumber" v="1438" />
    <tag k="addr:street" v="Vermont Route 102" />
    <tag k="addr:state" v="VT" />
    <tag k="ref:vcgi:esiteid" v="148979" />
  </node>
  <node id="-357" visible="true" lat="44.58735236" lon="-71.54804865">
    <tag k="addr:city" v="Maidstone" />
    <tag k="addr:housenumber" v="1342" />
    <tag k="addr:street" v="Vermont Route 102" />
    <tag k="addr:state" v="VT" />
    <tag k="ref:vcgi:esiteid" v="148980" />
  </node>
  <node id="-358" visible="true" lat="44.58649262" lon="-71.54977271">
    <tag k="addr:city" v="Maidstone" />
    <tag k="addr:housenumber" v="1181" />
    <tag k="addr:street" v="Vermont Route 102" />
    <tag k="addr:state" v="VT" />
    <tag k="ref:vcgi:esiteid" v="148981" />
  </node>
  <node id="-359" visible="true" lat="44.58533372" lon="-71.55125304">
    <tag k="addr:city" v="Maidstone" />
    <tag k="addr:housenumber" v="1179" />
    <tag k="addr:street" v="Vermont Route 102" />
    <tag k="addr:state" v="VT" />
    <tag k="ref:vcgi:esiteid" v="148982" />
  </node>
  <node id="-360" visible="true" lat="44.58493104" lon="-71.54856984">
    <tag k="addr:city" v="Maidstone" />
    <tag k="addr:housenumber" v="1174" />
    <tag k="addr:street" v="Vermont Route 102" />
    <tag k="addr:state" v="VT" />
    <tag k="ref:vcgi:esiteid" v="148983" />
  </node>
  <node id="-361" visible="true" lat="44.58458501" lon="-71.5534898">
    <tag k="addr:city" v="Maidstone" />
    <tag k="addr:housenumber" v="1011" />
    <tag k="addr:street" v="Vermont Route 102" />
    <tag k="addr:state" v="VT" />
    <tag k="ref:vcgi:esiteid" v="148984" />
  </node>
  <node id="-362" visible="true" lat="44.5818932" lon="-71.55546732">
    <tag k="addr:city" v="Maidstone" />
    <tag k="addr:housenumber" v="793" />
    <tag k="addr:street" v="Vermont Route 102" />
    <tag k="addr:state" v="VT" />
    <tag k="ref:vcgi:esiteid" v="148985" />
  </node>
  <node id="-363" visible="true" lat="44.58137947" lon="-71.55586172">
    <tag k="addr:city" v="Maidstone" />
    <tag k="addr:housenumber" v="771" />
    <tag k="addr:street" v="Vermont Route 102" />
    <tag k="addr:state" v="VT" />
    <tag k="ref:vcgi:esiteid" v="148986" />
  </node>
  <node id="-364" visible="true" lat="44.57762299" lon="-71.55467229">
    <tag k="addr:city" v="Maidstone" />
    <tag k="addr:housenumber" v="508" />
    <tag k="addr:street" v="Vermont Route 102" />
    <tag k="addr:state" v="VT" />
    <tag k="ref:vcgi:esiteid" v="148987" />
  </node>
  <node id="-365" visible="true" lat="44.57588278" lon="-71.55456737">
    <tag k="addr:city" v="Maidstone" />
    <tag k="addr:housenumber" v="395" />
    <tag k="addr:street" v="Vermont Route 102" />
    <tag k="addr:state" v="VT" />
    <tag k="ref:vcgi:esiteid" v="148988" />
  </node>
  <node id="-366" visible="true" lat="44.57191656" lon="-71.5565444">
    <tag k="addr:city" v="Maidstone" />
    <tag k="addr:housenumber" v="82" />
    <tag k="addr:street" v="Vermont Route 102" />
    <tag k="addr:state" v="VT" />
    <tag k="ref:vcgi:esiteid" v="148989" />
  </node>
  <node id="-367" visible="true" lat="44.63822349" lon="-71.6431253">
    <tag k="addr:city" v="Maidstone" />
    <tag k="addr:housenumber" v="5967" />
    <tag k="addr:street" v="Maidstone Lake Road" />
    <tag k="addr:state" v="VT" />
    <tag k="ref:vcgi:esiteid" v="148990" />
  </node>
  <node id="-368" visible="true" lat="44.65417803" lon="-71.58767377">
    <tag k="addr:city" v="Maidstone" />
    <tag k="addr:housenumber" v="7101" />
    <tag k="addr:street" v="Vermont Route 102" />
    <tag k="addr:state" v="VT" />
    <tag k="ref:vcgi:esiteid" v="148991" />
  </node>
  <node id="-369" visible="true" lat="44.66347623" lon="-71.64899772">
    <tag k="addr:city" v="Maidstone" />
    <tag k="addr:housenumber" v="315" />
    <tag k="addr:street" v="Westside Lake Road" />
    <tag k="addr:state" v="VT" />
    <tag k="ref:vcgi:esiteid" v="148992" />
  </node>
  <node id="-370" visible="true" lat="44.65625142" lon="-71.65205669">
    <tag k="addr:city" v="Maidstone" />
    <tag k="addr:housenumber" v="62" />
    <tag k="addr:street" v="Private West 4" />
    <tag k="addr:state" v="VT" />
    <tag k="ref:vcgi:esiteid" v="148993" />
  </node>
  <node id="-371" visible="true" lat="44.65508516" lon="-71.6529562">
    <tag k="addr:city" v="Maidstone" />
    <tag k="addr:housenumber" v="975" />
    <tag k="addr:street" v="Westside Lake Road" />
    <tag k="addr:state" v="VT" />
    <tag k="ref:vcgi:esiteid" v="148994" />
  </node>
  <node id="-372" visible="true" lat="44.64891729" lon="-71.65132242">
    <tag k="addr:city" v="Maidstone" />
    <tag k="addr:housenumber" v="1459" />
    <tag k="addr:street" v="Westside Lake Road" />
    <tag k="addr:state" v="VT" />
    <tag k="ref:vcgi:esiteid" v="148995" />
  </node>
  <node id="-373" visible="true" lat="44.64920649" lon="-71.65132988">
    <tag k="addr:city" v="Maidstone" />
    <tag k="addr:housenumber" v="1457" />
    <tag k="addr:street" v="Westside Lake Road" />
    <tag k="addr:state" v="VT" />
    <tag k="ref:vcgi:esiteid" v="148996" />
  </node>
  <node id="-374" visible="true" lat="44.64529251" lon="-71.65683706">
    <tag k="addr:city" v="Maidstone" />
    <tag k="addr:housenumber" v="1925" />
    <tag k="addr:street" v="Westside Lake Road" />
    <tag k="addr:state" v="VT" />
    <tag k="ref:vcgi:esiteid" v="148997" />
  </node>
  <node id="-375" visible="true" lat="44.64478791" lon="-71.65689195">
    <tag k="addr:city" v="Maidstone" />
    <tag k="addr:housenumber" v="1927" />
    <tag k="addr:street" v="Westside Lake Road" />
    <tag k="addr:state" v="VT" />
    <tag k="ref:vcgi:esiteid" v="148998" />
  </node>
  <node id="-376" visible="true" lat="44.64041788" lon="-71.66108457">
    <tag k="addr:city" v="Maidstone" />
    <tag k="addr:housenumber" v="2325" />
    <tag k="addr:street" v="Westside Lake Road" />
    <tag k="addr:state" v="VT" />
    <tag k="ref:vcgi:esiteid" v="148999" />
  </node>
  <node id="-377" visible="true" lat="44.60976195" lon="-71.56252616">
    <tag k="addr:city" v="Maidstone" />
    <tag k="addr:housenumber" v="3363" />
    <tag k="addr:street" v="Vermont Route 102" />
    <tag k="addr:state" v="VT" />
    <tag k="ref:vcgi:esiteid" v="149000" />
  </node>
  <node id="-378" visible="true" lat="44.64870675" lon="-71.65157686">
    <tag k="addr:city" v="Maidstone" />
    <tag k="addr:housenumber" v="1461" />
    <tag k="addr:street" v="Westside Lake Road" />
    <tag k="addr:state" v="VT" />
    <tag k="ref:vcgi:esiteid" v="149001" />
  </node>
  <node id="-379" visible="true" lat="44.6437092" lon="-71.64143005">
    <tag k="addr:city" v="Maidstone" />
    <tag k="addr:housenumber" v="5520" />
    <tag k="addr:street" v="Maidstone Lake Road" />
    <tag k="addr:state" v="VT" />
    <tag k="ref:vcgi:esiteid" v="149002" />
  </node>
  <node id="-380" visible="true" lat="44.64337568" lon="-71.64148854">
    <tag k="addr:city" v="Maidstone" />
    <tag k="addr:housenumber" v="5540" />
    <tag k="addr:street" v="Maidstone Lake Road" />
    <tag k="addr:state" v="VT" />
    <tag k="ref:vcgi:esiteid" v="149003" />
  </node>
  <node id="-381" visible="true" lat="44.65418891" lon="-71.65275323">
    <tag k="addr:city" v="Maidstone" />
    <tag k="addr:housenumber" v="34" />
    <tag k="addr:street" v="Private West 5" />
    <tag k="addr:state" v="VT" />
    <tag k="ref:vcgi:esiteid" v="149004" />
  </node>
  <node id="-382" visible="true" lat="44.66158583" lon="-71.64297256">
    <tag k="addr:city" v="Maidstone" />
    <tag k="addr:housenumber" v="4170" />
    <tag k="addr:street" v="Maidstone Lake Road" />
    <tag k="addr:state" v="VT" />
    <tag k="ref:vcgi:esiteid" v="149005" />
  </node>
  <node id="-383" visible="true" lat="44.63246543" lon="-71.56048031">
    <tag k="addr:city" v="Maidstone" />
    <tag k="addr:housenumber" v="5071" />
    <tag k="addr:street" v="Vermont Route 102" />
    <tag k="addr:state" v="VT" />
    <tag k="ref:vcgi:esiteid" v="149006" />
  </node>
  <node id="-384" visible="true" lat="44.62035105" lon="-71.55771065">
    <tag k="addr:city" v="Maidstone" />
    <tag k="addr:housenumber" v="4270" />
    <tag k="addr:street" v="Vermont Route 102" />
    <tag k="addr:state" v="VT" />
    <tag k="ref:vcgi:esiteid" v="149007" />
  </node>
  <node id="-385" visible="true" lat="44.65987643" lon="-71.59794785">
    <tag k="addr:city" v="Maidstone" />
    <tag k="addr:housenumber" v="391" />
    <tag k="addr:street" v="Percy View" />
    <tag k="addr:state" v="VT" />
    <tag k="ref:vcgi:esiteid" v="149009" />
  </node>
  <node id="-386" visible="true" lat="44.65636034" lon="-71.60464842">
    <tag k="addr:city" v="Maidstone" />
    <tag k="addr:housenumber" v="200" />
    <tag k="addr:street" v="Masters Road" />
    <tag k="addr:state" v="VT" />
    <tag k="ref:vcgi:esiteid" v="149010" />
  </node>
  <node id="-387" visible="true" lat="44.58972804" lon="-71.58968552">
    <tag k="addr:city" v="Maidstone" />
    <tag k="addr:housenumber" v="248" />
    <tag k="addr:street" v="Tamarack Lane" />
    <tag k="addr:state" v="VT" />
    <tag k="ref:vcgi:esiteid" v="149011" />
  </node>
  <node id="-388" visible="true" lat="44.65703723" lon="-71.65154091">
    <tag k="addr:city" v="Maidstone" />
    <tag k="addr:housenumber" v="67" />
    <tag k="addr:street" v="Private West 3" />
    <tag k="addr:state" v="VT" />
    <tag k="ref:vcgi:esiteid" v="149012" />
  </node>
  <node id="-389" visible="true" lat="44.64713936" lon="-71.65280619">
    <tag k="addr:city" v="Maidstone" />
    <tag k="addr:housenumber" v="1531" />
    <tag k="addr:street" v="Westside Lake Road" />
    <tag k="addr:state" v="VT" />
    <tag k="ref:vcgi:esiteid" v="149013" />
  </node>
  <node id="-390" visible="true" lat="44.64153635" lon="-71.65978131">
    <tag k="addr:city" v="Maidstone" />
    <tag k="addr:housenumber" v="2211" />
    <tag k="addr:street" v="Westside Lake Road" />
    <tag k="addr:state" v="VT" />
    <tag k="ref:vcgi:esiteid" v="149014" />
  </node>
  <node id="-391" visible="true" lat="44.64399505" lon="-71.65733177">
    <tag k="addr:city" v="Maidstone" />
    <tag k="addr:housenumber" v="1993" />
    <tag k="addr:street" v="Westside Lake Road" />
    <tag k="addr:state" v="VT" />
    <tag k="ref:vcgi:esiteid" v="149015" />
  </node>
  <node id="-392" visible="true" lat="44.65288187" lon="-71.58788919">
    <tag k="addr:city" v="Maidstone" />
    <tag k="addr:housenumber" v="101" />
    <tag k="addr:street" v="Bear Hill Road" />
    <tag k="addr:state" v="VT" />
    <tag k="ref:vcgi:esiteid" v="149016" />
  </node>
  <node id="-393" visible="true" lat="44.59838931" lon="-71.59277906">
    <tag k="addr:city" v="Maidstone" />
    <tag k="addr:housenumber" v="2405" />
    <tag k="addr:street" v="North Road" />
    <tag k="addr:state" v="VT" />
    <tag k="ref:vcgi:esiteid" v="149017" />
  </node>
  <node id="-394" visible="true" lat="44.66095699" lon="-71.64218532">
    <tag k="addr:city" v="Maidstone" />
    <tag k="addr:housenumber" v="4238" />
    <tag k="addr:street" v="Maidstone Lake Road" />
    <tag k="addr:state" v="VT" />
    <tag k="ref:vcgi:esiteid" v="313335" />
  </node>
  <node id="-395" visible="true" lat="44.64451475" lon="-71.64127093">
    <tag k="addr:city" v="Maidstone" />
    <tag k="addr:housenumber" v="5470" />
    <tag k="addr:street" v="Maidstone Lake Road" />
    <tag k="addr:state" v="VT" />
    <tag k="ref:vcgi:esiteid" v="313336" />
  </node>
  <node id="-396" visible="true" lat="44.64999672" lon="-71.65142104">
    <tag k="addr:city" v="Maidstone" />
    <tag k="addr:housenumber" v="1359" />
    <tag k="addr:street" v="Westside Lake Road" />
    <tag k="addr:state" v="VT" />
    <tag k="ref:vcgi:esiteid" v="327171" />
  </node>
  <node id="-397" visible="true" lat="44.66593563" lon="-71.64968041">
    <tag k="addr:city" v="Maidstone" />
    <tag k="addr:housenumber" v="173" />
    <tag k="addr:street" v="Westside Lake Road" />
    <tag k="addr:state" v="VT" />
    <tag k="ref:vcgi:esiteid" v="327172" />
  </node>
  <node id="-398" visible="true" lat="44.60545958" lon="-71.59405501">
    <tag k="addr:city" v="Maidstone" />
    <tag k="addr:housenumber" v="2965" />
    <tag k="addr:street" v="North Road" />
    <tag k="addr:state" v="VT" />
    <tag k="ref:vcgi:esiteid" v="327657" />
  </node>
  <node id="-399" visible="true" lat="44.63861381" lon="-71.56495054">
    <tag k="addr:city" v="Maidstone" />
    <tag k="addr:housenumber" v="5586" />
    <tag k="addr:street" v="Vermont Route 102" />
    <tag k="addr:state" v="VT" />
    <tag k="ref:vcgi:esiteid" v="330997" />
  </node>
  <node id="-400" visible="true" lat="44.60788317" lon="-71.59378435">
    <tag k="addr:city" v="Maidstone" />
    <tag k="addr:housenumber" v="3152" />
    <tag k="addr:street" v="North Road" />
    <tag k="addr:state" v="VT" />
    <tag k="ref:vcgi:esiteid" v="331194" />
  </node>
  <node id="-401" visible="true" lat="44.5975786" lon="-71.58949101">
    <tag k="addr:city" v="Maidstone" />
    <tag k="addr:housenumber" v="42" />
    <tag k="addr:street" v="Allen Road" />
    <tag k="addr:state" v="VT" />
    <tag k="ref:vcgi:esiteid" v="336743" />
  </node>
  <node id="-402" visible="true" lat="44.59871377" lon="-71.5907739">
    <tag k="addr:city" v="Maidstone" />
    <tag k="addr:housenumber" v="2515" />
    <tag k="addr:street" v="North Road" />
    <tag k="addr:state" v="VT" />
    <tag k="ref:vcgi:esiteid" v="336744" />
  </node>
  <node id="-403" visible="true" lat="44.63090398" lon="-71.62056578">
    <tag k="addr:city" v="Maidstone" />
    <tag k="addr:housenumber" v="207" />
    <tag k="addr:street" v="Freedom Way" />
    <tag k="addr:state" v="VT" />
    <tag k="ref:vcgi:esiteid" v="337924" />
  </node>
  <node id="-404" visible="true" lat="44.63069593" lon="-71.61676846">
    <tag k="addr:city" v="Maidstone" />
    <tag k="addr:housenumber" v="30" />
    <tag k="addr:street" v="Freedom Way" />
    <tag k="addr:state" v="VT" />
    <tag k="ref:vcgi:esiteid" v="337925" />
  </node>
  <node id="-405" visible="true" lat="44.63034335" lon="-71.61594088">
    <tag k="addr:city" v="Maidstone" />
    <tag k="addr:housenumber" v="5108" />
    <tag k="addr:street" v="North Road" />
    <tag k="addr:state" v="VT" />
    <tag k="ref:vcgi:esiteid" v="337926" />
  </node>
  <node id="-406" visible="true" lat="44.62214927" lon="-71.60673772">
    <tag k="addr:city" v="Maidstone" />
    <tag k="addr:housenumber" v="4358" />
    <tag k="addr:street" v="North Road" />
    <tag k="addr:state" v="VT" />
    <tag k="ref:vcgi:esiteid" v="337927" />
  </node>
  <node id="-407" visible="true" lat="44.63820199" lon="-71.63369228">
    <tag k="addr:city" v="Maidstone" />
    <tag k="addr:housenumber" v="2704" />
    <tag k="addr:street" v="Hall Road" />
    <tag k="addr:state" v="VT" />
    <tag k="ref:vcgi:esiteid" v="337928" />
  </node>
  <node id="-408" visible="true" lat="44.62537485" lon="-71.62865956">
    <tag k="addr:city" v="Maidstone" />
    <tag k="addr:housenumber" v="907" />
    <tag k="addr:street" v="Freedom Way" />
    <tag k="addr:state" v="VT" />
    <tag k="ref:vcgi:esiteid" v="337929" />
  </node>
  <node id="-410" visible="true" lat="44.64208379" lon="-71.66031364">
    <tag k="addr:city" v="Maidstone" />
    <tag k="addr:housenumber" v="2174" />
    <tag k="addr:street" v="Westside Lake Road" />
    <tag k="addr:state" v="VT" />
    <tag k="ref:vcgi:esiteid" v="343793" />
  </node>
  <node id="-411" visible="true" lat="44.62590456" lon="-71.61242344">
    <tag k="addr:city" v="Maidstone" />
    <tag k="addr:housenumber" v="4729" />
    <tag k="addr:street" v="North Road" />
    <tag k="addr:state" v="VT" />
    <tag k="ref:vcgi:esiteid" v="346098" />
  </node>
  <node id="-412" visible="true" lat="44.63828309" lon="-71.60929217">
    <tag k="addr:city" v="Maidstone" />
    <tag k="addr:housenumber" v="5484" />
    <tag k="addr:street" v="North Road" />
    <tag k="addr:state" v="VT" />
    <tag k="ref:vcgi:esiteid" v="346099" />
  </node>
  <node id="-413" visible="true" lat="44.59846059" lon="-71.58884386">
    <tag k="addr:city" v="Maidstone" />
    <tag k="addr:housenumber" v="72" />
    <tag k="addr:street" v="Allen Road" />
    <tag k="addr:state" v="VT" />
    <tag k="ref:vcgi:esiteid" v="346102" />
  </node>
  <node id="-414" visible="true" lat="44.6159809" lon="-71.60274099">
    <tag k="addr:city" v="Maidstone" />
    <tag k="addr:housenumber" v="28" />
    <tag k="addr:street" v="Bezia Road" />
    <tag k="addr:state" v="VT" />
    <tag k="ref:vcgi:esiteid" v="346104" />
  </node>
  <node id="-415" visible="true" lat="44.59740139" lon="-71.5603873">
    <tag k="addr:city" v="Maidstone" />
    <tag k="addr:housenumber" v="2350" />
    <tag k="addr:street" v="Vermont Route 102" />
    <tag k="addr:state" v="VT" />
    <tag k="ref:vcgi:esiteid" v="346105" />
  </node>
  <node id="-416" visible="true" lat="44.58536915" lon="-71.54833666">
    <tag k="addr:city" v="Maidstone" />
    <tag k="addr:housenumber" v="1176" />
    <tag k="addr:street" v="Vermont Route 102" />
    <tag k="addr:state" v="VT" />
    <tag k="ref:vcgi:esiteid" v="346106" />
  </node>
  <node id="-417" visible="true" lat="44.60758888" lon="-71.56282973">
    <tag k="addr:city" v="Maidstone" />
    <tag k="addr:housenumber" v="3243" />
    <tag k="addr:street" v="Vermont Route 102" />
    <tag k="addr:state" v="VT" />
    <tag k="ref:vcgi:esiteid" v="346108" />
  </node>
  <node id="-418" visible="true" lat="44.64087036" lon="-71.56648669">
    <tag k="addr:city" v="Maidstone" />
    <tag k="addr:housenumber" v="5778" />
    <tag k="addr:street" v="Vermont Route 102" />
    <tag k="addr:state" v="VT" />
    <tag k="ref:vcgi:esiteid" v="346111" />
  </node>
  <node id="-419" visible="true" lat="44.65456954" lon="-71.5878025">
    <tag k="addr:city" v="Maidstone" />
    <tag k="addr:housenumber" v="18" />
    <tag k="addr:street" v="Bear Hill Road" />
    <tag k="addr:state" v="VT" />
    <tag k="ref:vcgi:esiteid" v="346113" />
  </node>
  <node id="-420" visible="true" lat="44.65448318" lon="-71.58941669">
    <tag k="addr:city" v="Maidstone" />
    <tag k="addr:housenumber" v="94" />
    <tag k="addr:street" v="Bear Hill Road" />
    <tag k="addr:state" v="VT" />
    <tag k="ref:vcgi:esiteid" v="346114" />
  </node>
  <node id="-421" visible="true" lat="44.65050831" lon="-71.58785745">
    <tag k="addr:city" v="Maidstone" />
    <tag k="addr:housenumber" v="385" />
    <tag k="addr:street" v="Bear Hill Road" />
    <tag k="addr:state" v="VT" />
    <tag k="ref:vcgi:esiteid" v="346115" />
  </node>
  <node id="-422" visible="true" lat="44.62835994" lon="-71.58596661">
    <tag k="addr:city" v="Maidstone" />
    <tag k="addr:housenumber" v="1760" />
    <tag k="addr:street" v="Bear Hill Road" />
    <tag k="addr:state" v="VT" />
    <tag k="ref:vcgi:esiteid" v="346116" />
  </node>
  <node id="-423" visible="true" lat="44.62337986" lon="-71.580783">
    <tag k="addr:city" v="Maidstone" />
    <tag k="addr:housenumber" v="2520" />
    <tag k="addr:street" v="Bear Hill Road" />
    <tag k="addr:state" v="VT" />
    <tag k="ref:vcgi:esiteid" v="346117" />
  </node>
  <node id="-424" visible="true" lat="44.62892775" lon="-71.58000504">
    <tag k="addr:city" v="Maidstone" />
    <tag k="addr:housenumber" v="2321" />
    <tag k="addr:street" v="Bear Hill Road" />
    <tag k="addr:state" v="VT" />
    <tag k="ref:vcgi:esiteid" v="346119" />
  </node>
  <node id="-425" visible="true" lat="44.62342299" lon="-71.57762705">
    <tag k="addr:city" v="Maidstone" />
    <tag k="addr:housenumber" v="2421" />
    <tag k="addr:street" v="Bear Hill Road" />
    <tag k="addr:state" v="VT" />
    <tag k="ref:vcgi:esiteid" v="346120" />
  </node>
  <node id="-426" visible="true" lat="44.61983667" lon="-71.5788666">
    <tag k="addr:city" v="Maidstone" />
    <tag k="addr:housenumber" v="2720" />
    <tag k="addr:street" v="Bear Hill Road" />
    <tag k="addr:state" v="VT" />
    <tag k="ref:vcgi:esiteid" v="346121" />
  </node>
  <node id="-427" visible="true" lat="44.68402878" lon="-71.64162151">
    <tag k="addr:city" v="Maidstone" />
    <tag k="addr:housenumber" v="39" />
    <tag k="addr:street" v="Goodwin Camp Road" />
    <tag k="addr:state" v="VT" />
    <tag k="ref:vcgi:esiteid" v="346122" />
  </node>
  <node id="-428" visible="true" lat="44.68543274" lon="-71.63961158">
    <tag k="addr:city" v="Maidstone" />
    <tag k="addr:housenumber" v="131" />
    <tag k="addr:street" v="West Mountain Pond Road" />
    <tag k="addr:state" v="VT" />
    <tag k="ref:vcgi:esiteid" v="346123" />
  </node>
  <node id="-429" visible="true" lat="44.68447147" lon="-71.63591449">
    <tag k="addr:city" v="Maidstone" />
    <tag k="addr:housenumber" v="40" />
    <tag k="addr:street" v="West Mountain Pond Road" />
    <tag k="addr:state" v="VT" />
    <tag k="ref:vcgi:esiteid" v="346124" />
  </node>
  <node id="-430" visible="true" lat="44.65544555" lon="-71.60215519">
    <tag k="addr:city" v="Maidstone" />
    <tag k="addr:housenumber" v="49" />
    <tag k="addr:street" v="Masters Road" />
    <tag k="addr:state" v="VT" />
    <tag k="ref:vcgi:esiteid" v="346125" />
  </node>
  <node id="-431" visible="true" lat="44.64928838" lon="-71.57323018">
    <tag k="addr:city" v="Maidstone" />
    <tag k="addr:housenumber" v="69" />
    <tag k="addr:street" v="Lamoureux Road" />
    <tag k="addr:state" v="VT" />
    <tag k="ref:vcgi:esiteid" v="346126" />
  </node>
  <node id="-432" visible="true" lat="44.61809779" lon="-71.55848449">
    <tag k="addr:city" v="Maidstone" />
    <tag k="addr:housenumber" v="4120" />
    <tag k="addr:street" v="Vermont Route 102" />
    <tag k="addr:state" v="VT" />
    <tag k="ref:vcgi:esiteid" v="449250" />
  </node>
  <node id="-433" visible="true" lat="44.63764662" lon="-71.63030477">
    <tag k="addr:city" v="Maidstone" />
    <tag k="addr:housenumber" v="2573" />
    <tag k="addr:street" v="Hall Road" />
    <tag k="addr:state" v="VT" />
    <tag k="ref:vcgi:esiteid" v="453777" />
  </node>
  <node id="-434" visible="true" lat="44.65536534" lon="-71.65301423">
    <tag k="addr:city" v="Maidstone" />
    <tag k="addr:housenumber" v="953" />
    <tag k="addr:street" v="Westside Lake Road" />
    <tag k="addr:state" v="VT" />
    <tag k="ref:vcgi:esiteid" v="453778" />
  </node>
  <node id="-471" visible="true" lat="44.65370212" lon="-71.63997469">
    <tag k="addr:city" v="Maidstone" />
    <tag k="addr:housenumber" v="88" />
    <tag k="addr:street" v="Beach Road" />
    <tag k="addr:state" v="VT" />
    <tag k="ref:vcgi:esiteid" v="612361" />
  </node>
  <node id="-472" visible="true" lat="44.65308658" lon="-71.63981033">
    <tag k="addr:city" v="Maidstone" />
    <tag k="addr:housenumber" v="61" />
    <tag k="addr:street" v="Beach Road" />
    <tag k="addr:state" v="VT" />
    <tag k="ref:vcgi:esiteid" v="612362" />
  </node>
  <node id="-473" visible="true" lat="44.65278044" lon="-71.64026184">
    <tag k="addr:city" v="Maidstone" />
    <tag k="addr:housenumber" v="75" />
    <tag k="addr:street" v="Beach Road" />
    <tag k="addr:state" v="VT" />
    <tag k="ref:vcgi:esiteid" v="612363" />
  </node>
  <node id="-474" visible="true" lat="44.65302589" lon="-71.64123891">
    <tag k="addr:city" v="Maidstone" />
    <tag k="addr:housenumber" v="168" />
    <tag k="addr:street" v="Beach Road" />
    <tag k="addr:state" v="VT" />
    <tag k="ref:vcgi:esiteid" v="612364" />
  </node>
  <node id="-492" visible="true" lat="44.60955357" lon="-71.5869272">
    <tag k="addr:city" v="Maidstone" />
    <tag k="addr:housenumber" v="160" />
    <tag k="addr:street" v="Ford Road" />
    <tag k="addr:state" v="VT" />
    <tag k="ref:vcgi:esiteid" v="612384" />
  </node>
  <node id="-493" visible="true" lat="44.62677947" lon="-71.61703419">
    <tag k="addr:city" v="Maidstone" />
    <tag k="addr:housenumber" v="4933" />
    <tag k="addr:street" v="North Road" />
    <tag k="addr:state" v="VT" />
    <tag k="ref:vcgi:esiteid" v="612387" />
  </node>
  <node id="-495" visible="true" lat="44.61288784" lon="-71.55962053">
    <tag k="addr:city" v="Maidstone" />
    <tag k="addr:housenumber" v="3644" />
    <tag k="addr:street" v="Vermont Route 102" />
    <tag k="addr:state" v="VT" />
    <tag k="ref:vcgi:esiteid" v="617349" />
  </node>
  <node id="-496" visible="true" lat="44.57430739" lon="-71.55891766">
    <tag k="addr:city" v="Maidstone" />
    <tag k="addr:housenumber" v="197" />
    <tag k="addr:street" v="Vermont Route 102" />
    <tag k="addr:state" v="VT" />
    <tag k="ref:vcgi:esiteid" v="617350" />
  </node>
  <node id="-499" visible="true" lat="44.64047359" lon="-71.58907269">
    <tag k="addr:city" v="Maidstone" />
    <tag k="addr:housenumber" v="1070" />
    <tag k="addr:street" v="Bear Hill Road" />
    <tag k="addr:state" v="VT" />
    <tag k="ref:vcgi:esiteid" v="620466" />
  </node>
  <node id="-500" visible="true" lat="44.61616373" lon="-71.57906075">
    <tag k="addr:city" v="Maidstone" />
    <tag k="addr:housenumber" v="2870" />
    <tag k="addr:street" v="Bear Hill Road" />
    <tag k="addr:state" v="VT" />
    <tag k="ref:vcgi:esiteid" v="620467" />
  </node>
  <node id="-501" visible="true" lat="44.57536978" lon="-71.55381428">
    <tag k="addr:city" v="Maidstone" />
    <tag k="addr:housenumber" v="340" />
    <tag k="addr:street" v="Vermont Route 102" />
    <tag k="addr:state" v="VT" />
    <tag k="ref:vcgi:esiteid" v="620468" />
  </node>
  <node id="-502" visible="true" lat="44.64881459" lon="-71.57396302">
    <tag k="addr:city" v="Maidstone" />
    <tag k="addr:housenumber" v="7" />
    <tag k="addr:street" v="Lamoureux Road" />
    <tag k="addr:state" v="VT" />
    <tag k="ref:vcgi:esiteid" v="620469" />
  </node>
  <node id="-503" visible="true" lat="44.61869967" lon="-71.57823521">
    <tag k="addr:city" v="Maidstone" />
    <tag k="addr:housenumber" v="2780" />
    <tag k="addr:street" v="Bear Hill Road" />
    <tag k="addr:state" v="VT" />
    <tag k="ref:vcgi:esiteid" v="620470" />
  </node>
  <node id="-504" visible="true" lat="44.62654251" lon="-71.59904596">
    <tag k="addr:city" v="Maidstone" />
    <tag k="addr:housenumber" v="3366" />
    <tag k="addr:street" v="North Road" />
    <tag k="addr:state" v="VT" />
    <tag k="ref:vcgi:esiteid" v="620471" />
  </node>
  <node id="-506" visible="true" lat="44.65279024" lon="-71.63889131">
    <tag k="addr:city" v="Maidstone" />
    <tag k="addr:housenumber" v="12" />
    <tag k="addr:street" v="Beach Road" />
    <tag k="addr:state" v="VT" />
    <tag k="ref:vcgi:esiteid" v="620473" />
  </node>
  <node id="-535" visible="true" lat="44.64755112" lon="-71.60964483">
    <tag k="addr:city" v="Maidstone" />
    <tag k="addr:housenumber" v="1281" />
    <tag k="addr:street" v="Hall Road" />
    <tag k="addr:state" v="VT" />
    <tag k="ref:vcgi:esiteid" v="753072" />
  </node>
  <node id="-536" visible="true" lat="44.628989" lon="-71.6166423">
    <tag k="addr:city" v="Maidstone" />
    <tag k="addr:housenumber" v="5043" />
    <tag k="addr:street" v="North Road" />
    <tag k="addr:state" v="VT" />
    <tag k="ref:vcgi:esiteid" v="753073" />
  </node>
  <node id="-537" visible="true" lat="44.62758392" lon="-71.62747993">
    <tag k="addr:city" v="Maidstone" />
    <tag k="addr:housenumber" v="730" />
    <tag k="addr:street" v="Freedom Way" />
    <tag k="addr:state" v="VT" />
    <tag k="ref:vcgi:esiteid" v="753074" />
  </node>
  <node id="-538" visible="true" lat="44.62720898" lon="-71.6265553">
    <tag k="addr:city" v="Maidstone" />
    <tag k="addr:housenumber" v="695" />
    <tag k="addr:street" v="Freedom Way" />
    <tag k="addr:state" v="VT" />
    <tag k="ref:vcgi:esiteid" v="753075" />
  </node>
  <node id="-539" visible="true" lat="44.58225764" lon="-71.57559148">
    <tag k="addr:city" v="Maidstone" />
    <tag k="addr:housenumber" v="110" />
    <tag k="addr:street" v="North Road" />
    <tag k="addr:state" v="VT" />
    <tag k="ref:vcgi:esiteid" v="753077" />
  </node>
  <node id="-540" visible="true" lat="44.59802331" lon="-71.56776328">
    <tag k="addr:city" v="Maidstone" />
    <tag k="addr:housenumber" v="2393" />
    <tag k="addr:street" v="Vermont Route 102" />
    <tag k="addr:state" v="VT" />
    <tag k="ref:vcgi:esiteid" v="753078" />
  </node>
  <node id="-542" visible="true" lat="44.59959496" lon="-71.58830738">
    <tag k="addr:city" v="Maidstone" />
    <tag k="addr:housenumber" v="65" />
    <tag k="addr:street" v="Kymack Road" />
    <tag k="addr:state" v="VT" />
    <tag k="ref:vcgi:esiteid" v="753168" />
  </node>
  <node id="-543" visible="true" lat="44.59962675" lon="-71.58811359">
    <tag k="addr:city" v="Maidstone" />
    <tag k="addr:housenumber" v="73" />
    <tag k="addr:street" v="Kymack Road" />
    <tag k="addr:state" v="VT" />
    <tag k="ref:vcgi:esiteid" v="753169" />
  </node>
  <node id="-544" visible="true" lat="44.59940729" lon="-71.5880637">
    <tag k="addr:city" v="Maidstone" />
    <tag k="addr:housenumber" v="74" />
    <tag k="addr:street" v="Kymack Road" />
    <tag k="addr:state" v="VT" />
    <tag k="ref:vcgi:esiteid" v="753170" />
  </node>
  <node id="-545" visible="true" lat="44.5998989" lon="-71.5834436">
    <tag k="addr:city" v="Maidstone" />
    <tag k="addr:housenumber" v="159" />
    <tag k="addr:street" v="Kymack Road" />
    <tag k="addr:state" v="VT" />
    <tag k="ref:vcgi:esiteid" v="753171" />
  </node>
  <node id="-546" visible="true" lat="44.61516439" lon="-71.60487566">
    <tag k="addr:city" v="Maidstone" />
    <tag k="addr:housenumber" v="170" />
    <tag k="addr:street" v="Bezia Road" />
    <tag k="addr:state" v="VT" />
    <tag k="ref:vcgi:esiteid" v="753172" />
  </node>
  <node id="-547" visible="true" lat="44.63178326" lon="-71.55815459">
    <tag k="addr:city" v="Maidstone" />
    <tag k="addr:housenumber" v="4998" />
    <tag k="addr:street" v="Vermont Route 102" />
    <tag k="addr:state" v="VT" />
    <tag k="ref:vcgi:esiteid" v="755958" />
  </node>
  <node id="-548" visible="true" lat="44.64530593" lon="-71.63998453">
    <tag k="addr:city" v="Maidstone" />
    <tag k="addr:housenumber" v="5435" />
    <tag k="addr:street" v="Maidstone Lake Road" />
    <tag k="addr:state" v="VT" />
    <tag k="ref:vcgi:esiteid" v="755993" />
  </node>
  <node id="-549" visible="true" lat="44.65367245" lon="-71.58478082">
    <tag k="addr:city" v="Maidstone" />
    <tag k="addr:housenumber" v="7084" />
    <tag k="addr:street" v="Vermont Route 102" />
    <tag k="addr:state" v="VT" />
    <tag k="ref:vcgi:esiteid" v="757427" />
  </node>
  <node id="-550" visible="true" lat="44.66019785" lon="-71.5922348">
    <tag k="addr:city" v="Maidstone" />
    <tag k="addr:housenumber" v="60" />
    <tag k="addr:street" v="Percy View" />
    <tag k="addr:state" v="VT" />
    <tag k="ref:vcgi:esiteid" v="760521" />
  </node>
  <node id="-551" visible="true" lat="44.65919917" lon="-71.59480581">
    <tag k="addr:city" v="Maidstone" />
    <tag k="addr:housenumber" v="75" />
    <tag k="addr:street" v="Percy View" />
    <tag k="addr:state" v="VT" />
    <tag k="ref:vcgi:esiteid" v="760522" />
  </node>
  <node id="-552" visible="true" lat="44.65883365" lon="-71.59435112">
    <tag k="addr:city" v="Maidstone" />
    <tag k="addr:housenumber" v="73" />
    <tag k="addr:street" v="Percy View" />
    <tag k="addr:state" v="VT" />
    <tag k="ref:vcgi:esiteid" v="760523" />
  </node>
  <node id="-553" visible="true" lat="44.60545914" lon="-71.55991601">
    <tag k="addr:city" v="Maidstone" />
    <tag k="addr:housenumber" v="3036" />
    <tag k="addr:street" v="Vermont Route 102" />
    <tag k="addr:state" v="VT" />
    <tag k="ref:vcgi:esiteid" v="760812" />
  </node>
  <node id="-554" visible="true" lat="44.61816444" lon="-71.55991437">
    <tag k="addr:city" v="Maidstone" />
    <tag k="addr:housenumber" v="4005" />
    <tag k="addr:street" v="Vermont Route 102" />
    <tag k="addr:state" v="VT" />
    <tag k="ref:vcgi:esiteid" v="760813" />
  </node>
  <node id="-555" visible="true" lat="44.63003992" lon="-71.561795">
    <tag k="addr:city" v="Maidstone" />
    <tag k="addr:housenumber" v="4937" />
    <tag k="addr:street" v="Vermont Route 102" />
    <tag k="addr:state" v="VT" />
    <tag k="ref:vcgi:esiteid" v="760814" />
  </node>
  <node id="-556" visible="true" lat="44.63128159" lon="-71.56005275">
    <tag k="addr:city" v="Maidstone" />
    <tag k="addr:housenumber" v="4997" />
    <tag k="addr:street" v="Vermont Route 102" />
    <tag k="addr:state" v="VT" />
    <tag k="ref:vcgi:esiteid" v="760815" />
  </node>
  <node id="-557" visible="true" lat="44.65501322" lon="-71.60708895">
    <tag k="addr:city" v="Maidstone" />
    <tag k="addr:housenumber" v="790" />
    <tag k="addr:street" v="Hall Road" />
    <tag k="addr:state" v="VT" />
    <tag k="ref:vcgi:esiteid" v="762173" />
  </node>
  <node id="-558" visible="true" lat="44.61488267" lon="-71.57158843">
    <tag k="addr:city" v="Maidstone" />
    <tag k="addr:housenumber" v="3180" />
    <tag k="addr:street" v="Bear Hill Road" />
    <tag k="addr:state" v="VT" />
    <tag k="ref:vcgi:esiteid" v="764666" />
  </node>
  <node id="-563" visible="true" lat="44.67843377" lon="-71.63707026">
    <tag k="addr:city" v="Maidstone" />
    <tag k="addr:housenumber" v="2641" />
    <tag k="addr:street" v="Maidstone Lake Road" />
    <tag k="addr:state" v="VT" />
    <tag k="ref:vcgi:esiteid" v="1050766" />
  </node>
  <node id="-564" visible="true" lat="44.62513475" lon="-71.57038047">
    <tag k="addr:city" v="Maidstone" />
    <tag k="addr:housenumber" v="4173" />
    <tag k="addr:street" v="Vermont Route 102" />
    <tag k="addr:state" v="VT" />
    <tag k="ref:vcgi:esiteid" v="1051037" />
  </node>
</osm>
