<?xml version="1.0" encoding="UTF-8"?>
<osm version="0.6" generator="JOSM">
  <node id="-100" visible="true" lat="43.70542245" lon="-72.82767197">
    <tag k="addr:city" v="Mendon" />
    <tag k="addr:housenumber" v="445" />
    <tag k="addr:street" v="Coffeehouse Road" />
    <tag k="addr:state" v="VT" />
    <tag k="ref:vcgi:esiteid" v="153250" />
  </node>
  <node id="-101" visible="true" lat="43.69960784" lon="-72.84147644">
    <tag k="addr:city" v="Mendon" />
    <tag k="addr:housenumber" v="858" />
    <tag k="addr:street" v="Elbow Road" />
    <tag k="addr:state" v="VT" />
    <tag k="ref:vcgi:esiteid" v="153251" />
  </node>
  <node id="-102" visible="true" lat="43.68723725" lon="-72.86320628">
    <tag k="addr:city" v="Mendon" />
    <tag k="addr:housenumber" v="2709" />
    <tag k="addr:street" v="Old Turnpike Road" />
    <tag k="addr:state" v="VT" />
    <tag k="ref:vcgi:esiteid" v="153252" />
  </node>
  <node id="-103" visible="true" lat="43.68669501" lon="-72.86383054">
    <tag k="addr:city" v="Mendon" />
    <tag k="addr:housenumber" v="2671" />
    <tag k="addr:street" v="Old Turnpike Road" />
    <tag k="addr:state" v="VT" />
    <tag k="ref:vcgi:esiteid" v="153253" />
  </node>
  <node id="-104" visible="true" lat="43.68452072" lon="-72.86451721">
    <tag k="addr:city" v="Mendon" />
    <tag k="addr:housenumber" v="2504" />
    <tag k="addr:street" v="Old Turnpike Road" />
    <tag k="addr:state" v="VT" />
    <tag k="ref:vcgi:esiteid" v="153254" />
  </node>
  <node id="-105" visible="true" lat="43.67410948" lon="-72.86876869">
    <tag k="addr:city" v="Mendon" />
    <tag k="addr:housenumber" v="1701" />
    <tag k="addr:street" v="Old Turnpike Road" />
    <tag k="addr:state" v="VT" />
    <tag k="ref:vcgi:esiteid" v="153255" />
  </node>
  <node id="-106" visible="true" lat="43.67283028" lon="-72.86856183">
    <tag k="addr:city" v="Mendon" />
    <tag k="addr:housenumber" v="20" />
    <tag k="addr:street" v="Ridge Road" />
    <tag k="addr:state" v="VT" />
    <tag k="ref:vcgi:esiteid" v="153256" />
  </node>
  <node id="-107" visible="true" lat="43.67253963" lon="-72.86954451">
    <tag k="addr:city" v="Mendon" />
    <tag k="addr:housenumber" v="78" />
    <tag k="addr:street" v="Ridge Road" />
    <tag k="addr:state" v="VT" />
    <tag k="ref:vcgi:esiteid" v="153257" />
  </node>
  <node id="-108" visible="true" lat="43.67155019" lon="-72.86907251">
    <tag k="addr:city" v="Mendon" />
    <tag k="addr:housenumber" v="75" />
    <tag k="addr:street" v="Ridge Road" />
    <tag k="addr:state" v="VT" />
    <tag k="ref:vcgi:esiteid" v="153258" />
  </node>
  <node id="-109" visible="true" lat="43.67141622" lon="-72.87048835">
    <tag k="addr:city" v="Mendon" />
    <tag k="addr:housenumber" v="134" />
    <tag k="addr:street" v="Ridge Road" />
    <tag k="addr:state" v="VT" />
    <tag k="ref:vcgi:esiteid" v="153259" />
  </node>
  <node id="-110" visible="true" lat="43.67115581" lon="-72.86966788">
    <tag k="addr:city" v="Mendon" />
    <tag k="addr:housenumber" v="127" />
    <tag k="addr:street" v="Ridge Road" />
    <tag k="addr:state" v="VT" />
    <tag k="ref:vcgi:esiteid" v="153260" />
  </node>
  <node id="-111" visible="true" lat="43.67126301" lon="-72.86820662">
    <tag k="addr:city" v="Mendon" />
    <tag k="addr:housenumber" v="1517" />
    <tag k="addr:street" v="Old Turnpike Road" />
    <tag k="addr:state" v="VT" />
    <tag k="ref:vcgi:esiteid" v="153261" />
  </node>
  <node id="-112" visible="true" lat="43.67069421" lon="-72.84596193">
    <tag k="addr:city" v="Mendon" />
    <tag k="addr:housenumber" v="231" />
    <tag k="addr:street" v="Round Robin Road" />
    <tag k="addr:state" v="VT" />
    <tag k="ref:vcgi:esiteid" v="153262" />
  </node>
  <node id="-113" visible="true" lat="43.67049628" lon="-72.87143814">
    <tag k="addr:city" v="Mendon" />
    <tag k="addr:housenumber" v="193" />
    <tag k="addr:street" v="Heather Lane" />
    <tag k="addr:state" v="VT" />
    <tag k="ref:vcgi:esiteid" v="153263" />
  </node>
  <node id="-114" visible="true" lat="43.67030775" lon="-72.8695018">
    <tag k="addr:city" v="Mendon" />
    <tag k="addr:housenumber" v="122" />
    <tag k="addr:street" v="Heather Lane" />
    <tag k="addr:state" v="VT" />
    <tag k="ref:vcgi:esiteid" v="153264" />
  </node>
  <node id="-115" visible="true" lat="43.67042299" lon="-72.87020957">
    <tag k="addr:city" v="Mendon" />
    <tag k="addr:housenumber" v="132" />
    <tag k="addr:street" v="Heather Lane" />
    <tag k="addr:state" v="VT" />
    <tag k="ref:vcgi:esiteid" v="153265" />
  </node>
  <node id="-116" visible="true" lat="43.67041077" lon="-72.86768363">
    <tag k="addr:city" v="Mendon" />
    <tag k="addr:housenumber" v="1457" />
    <tag k="addr:street" v="Old Turnpike Road" />
    <tag k="addr:state" v="VT" />
    <tag k="ref:vcgi:esiteid" v="153266" />
  </node>
  <node id="-117" visible="true" lat="43.66999498" lon="-72.87184171">
    <tag k="addr:city" v="Mendon" />
    <tag k="addr:housenumber" v="265" />
    <tag k="addr:street" v="Heather Lane" />
    <tag k="addr:state" v="VT" />
    <tag k="ref:vcgi:esiteid" v="153267" />
  </node>
  <node id="-118" visible="true" lat="43.67006226" lon="-72.86822487">
    <tag k="addr:city" v="Mendon" />
    <tag k="addr:housenumber" v="1407" />
    <tag k="addr:street" v="Old Turnpike Road" />
    <tag k="addr:state" v="VT" />
    <tag k="ref:vcgi:esiteid" v="153268" />
  </node>
  <node id="-119" visible="true" lat="43.67011926" lon="-72.87277564">
    <tag k="addr:city" v="Mendon" />
    <tag k="addr:housenumber" v="306" />
    <tag k="addr:street" v="Heather Lane" />
    <tag k="addr:state" v="VT" />
    <tag k="ref:vcgi:esiteid" v="153269" />
  </node>
  <node id="-120" visible="true" lat="43.67018647" lon="-72.8460711">
    <tag k="addr:city" v="Mendon" />
    <tag k="addr:housenumber" v="251" />
    <tag k="addr:street" v="Merry Maple Drive" />
    <tag k="addr:state" v="VT" />
    <tag k="ref:vcgi:esiteid" v="153270" />
  </node>
  <node id="-121" visible="true" lat="43.67006718" lon="-72.86892147">
    <tag k="addr:city" v="Mendon" />
    <tag k="addr:housenumber" v="80" />
    <tag k="addr:street" v="Heather Lane" />
    <tag k="addr:state" v="VT" />
    <tag k="ref:vcgi:esiteid" v="153271" />
  </node>
  <node id="-122" visible="true" lat="43.66994918" lon="-72.84645566">
    <tag k="addr:city" v="Mendon" />
    <tag k="addr:housenumber" v="217" />
    <tag k="addr:street" v="Merry Maple Drive" />
    <tag k="addr:state" v="VT" />
    <tag k="ref:vcgi:esiteid" v="153272" />
  </node>
  <node id="-123" visible="true" lat="43.66990837" lon="-72.87341281">
    <tag k="addr:city" v="Mendon" />
    <tag k="addr:housenumber" v="366" />
    <tag k="addr:street" v="Heather Lane" />
    <tag k="addr:state" v="VT" />
    <tag k="ref:vcgi:esiteid" v="153273" />
  </node>
  <node id="-124" visible="true" lat="43.66945689" lon="-72.87059456">
    <tag k="addr:city" v="Mendon" />
    <tag k="addr:housenumber" v="36" />
    <tag k="addr:street" v="Barker Road" />
    <tag k="addr:state" v="VT" />
    <tag k="ref:vcgi:esiteid" v="153274" />
  </node>
  <node id="-125" visible="true" lat="43.6694854" lon="-72.87514249">
    <tag k="addr:city" v="Mendon" />
    <tag k="addr:housenumber" v="427" />
    <tag k="addr:street" v="Heather Lane" />
    <tag k="addr:state" v="VT" />
    <tag k="ref:vcgi:esiteid" v="153275" />
  </node>
  <node id="-126" visible="true" lat="43.66952896" lon="-72.8722763">
    <tag k="addr:city" v="Mendon" />
    <tag k="addr:housenumber" v="313" />
    <tag k="addr:street" v="Heather Lane" />
    <tag k="addr:state" v="VT" />
    <tag k="ref:vcgi:esiteid" v="153276" />
  </node>
  <node id="-127" visible="true" lat="43.66962757" lon="-72.84708874">
    <tag k="addr:city" v="Mendon" />
    <tag k="addr:housenumber" v="213" />
    <tag k="addr:street" v="Merry Maple Drive" />
    <tag k="addr:state" v="VT" />
    <tag k="ref:vcgi:esiteid" v="153277" />
  </node>
  <node id="-128" visible="true" lat="43.66947961" lon="-72.86844323">
    <tag k="addr:city" v="Mendon" />
    <tag k="addr:housenumber" v="52" />
    <tag k="addr:street" v="Heather Lane" />
    <tag k="addr:state" v="VT" />
    <tag k="ref:vcgi:esiteid" v="153278" />
  </node>
  <node id="-129" visible="true" lat="43.66943951" lon="-72.86953848">
    <tag k="addr:city" v="Mendon" />
    <tag k="addr:housenumber" v="95" />
    <tag k="addr:street" v="Heather Lane" />
    <tag k="addr:state" v="VT" />
    <tag k="ref:vcgi:esiteid" v="153279" />
  </node>
  <node id="-130" visible="true" lat="43.66917476" lon="-72.87325492">
    <tag k="addr:city" v="Mendon" />
    <tag k="addr:housenumber" v="355" />
    <tag k="addr:street" v="Heather Lane" />
    <tag k="addr:state" v="VT" />
    <tag k="ref:vcgi:esiteid" v="153281" />
  </node>
  <node id="-131" visible="true" lat="43.6692445" lon="-72.84557456">
    <tag k="addr:city" v="Mendon" />
    <tag k="addr:housenumber" v="145" />
    <tag k="addr:street" v="Round Robin Road" />
    <tag k="addr:state" v="VT" />
    <tag k="ref:vcgi:esiteid" v="153282" />
  </node>
  <node id="-132" visible="true" lat="43.66915417" lon="-72.84707309">
    <tag k="addr:city" v="Mendon" />
    <tag k="addr:housenumber" v="181" />
    <tag k="addr:street" v="Merry Maple Drive" />
    <tag k="addr:state" v="VT" />
    <tag k="ref:vcgi:esiteid" v="153283" />
  </node>
  <node id="-133" visible="true" lat="43.66907557" lon="-72.8712405">
    <tag k="addr:city" v="Mendon" />
    <tag k="addr:housenumber" v="80" />
    <tag k="addr:street" v="Barker Road" />
    <tag k="addr:state" v="VT" />
    <tag k="ref:vcgi:esiteid" v="153284" />
  </node>
  <node id="-134" visible="true" lat="43.66863915" lon="-72.86986182">
    <tag k="addr:city" v="Mendon" />
    <tag k="addr:housenumber" v="61" />
    <tag k="addr:street" v="Barker Road" />
    <tag k="addr:state" v="VT" />
    <tag k="ref:vcgi:esiteid" v="153285" />
  </node>
  <node id="-135" visible="true" lat="43.66862637" lon="-72.86913557">
    <tag k="addr:city" v="Mendon" />
    <tag k="addr:housenumber" v="1299" />
    <tag k="addr:street" v="Old Turnpike Road" />
    <tag k="addr:state" v="VT" />
    <tag k="ref:vcgi:esiteid" v="153286" />
  </node>
  <node id="-136" visible="true" lat="43.66843068" lon="-72.87066193">
    <tag k="addr:city" v="Mendon" />
    <tag k="addr:housenumber" v="1265" />
    <tag k="addr:street" v="Old Turnpike Road" />
    <tag k="addr:state" v="VT" />
    <tag k="ref:vcgi:esiteid" v="153287" />
  </node>
  <node id="-137" visible="true" lat="43.6682434" lon="-72.87080383">
    <tag k="addr:city" v="Mendon" />
    <tag k="addr:housenumber" v="1261" />
    <tag k="addr:street" v="Old Turnpike Road" />
    <tag k="addr:state" v="VT" />
    <tag k="ref:vcgi:esiteid" v="153288" />
  </node>
  <node id="-138" visible="true" lat="43.66817295" lon="-72.84700996">
    <tag k="addr:city" v="Mendon" />
    <tag k="addr:housenumber" v="131" />
    <tag k="addr:street" v="Merry Maple Drive" />
    <tag k="addr:state" v="VT" />
    <tag k="ref:vcgi:esiteid" v="153289" />
  </node>
  <node id="-139" visible="true" lat="43.67081963" lon="-72.85882699">
    <tag k="addr:city" v="Mendon" />
    <tag k="addr:housenumber" v="6677" />
    <tag k="addr:street" v="U.S. Route 4" />
    <tag k="addr:state" v="VT" />
    <tag k="ref:vcgi:esiteid" v="153290" />
  </node>
  <node id="-140" visible="true" lat="43.66772238" lon="-72.84812875">
    <tag k="addr:city" v="Mendon" />
    <tag k="addr:housenumber" v="105" />
    <tag k="addr:street" v="Fox Hollow Village" />
    <tag k="addr:state" v="VT" />
    <tag k="ref:vcgi:esiteid" v="153291" />
  </node>
  <node id="-141" visible="true" lat="43.66778846" lon="-72.85528045">
    <tag k="addr:city" v="Mendon" />
    <tag k="addr:housenumber" v="6793" />
    <tag k="addr:street" v="U.S. Route 4" />
    <tag k="addr:state" v="VT" />
    <tag k="ref:vcgi:esiteid" v="153292" />
  </node>
  <node id="-142" visible="true" lat="43.66737784" lon="-72.86954676">
    <tag k="addr:city" v="Mendon" />
    <tag k="addr:housenumber" v="1202" />
    <tag k="addr:street" v="Old Turnpike Road" />
    <tag k="addr:state" v="VT" />
    <tag k="ref:vcgi:esiteid" v="153293" />
  </node>
  <node id="-143" visible="true" lat="43.66762653" lon="-72.8511501">
    <tag k="addr:city" v="Mendon" />
    <tag k="addr:housenumber" v="6981" />
    <tag k="addr:street" v="U.S. Route 4" />
    <tag k="addr:state" v="VT" />
    <tag k="ref:vcgi:esiteid" v="153294" />
  </node>
  <node id="-144" visible="true" lat="43.66756574" lon="-72.8476239">
    <tag k="addr:city" v="Mendon" />
    <tag k="addr:housenumber" v="106" />
    <tag k="addr:street" v="Fox Hollow Village" />
    <tag k="addr:state" v="VT" />
    <tag k="ref:vcgi:esiteid" v="153295" />
  </node>
  <node id="-145" visible="true" lat="43.66731441" lon="-72.85353455">
    <tag k="addr:city" v="Mendon" />
    <tag k="addr:housenumber" v="6852" />
    <tag k="addr:street" v="U.S. Route 4" />
    <tag k="addr:state" v="VT" />
    <tag k="ref:vcgi:esiteid" v="153296" />
  </node>
  <node id="-146" visible="true" lat="43.66724075" lon="-72.85398402">
    <tag k="addr:city" v="Mendon" />
    <tag k="addr:housenumber" v="6848" />
    <tag k="addr:street" v="U.S. Route 4" />
    <tag k="addr:state" v="VT" />
    <tag k="ref:vcgi:esiteid" v="153297" />
  </node>
  <node id="-147" visible="true" lat="43.66734191" lon="-72.87291563">
    <tag k="addr:city" v="Mendon" />
    <tag k="addr:housenumber" v="1077" />
    <tag k="addr:street" v="Old Turnpike Road" />
    <tag k="addr:state" v="VT" />
    <tag k="ref:vcgi:esiteid" v="153298" />
  </node>
  <node id="-148" visible="true" lat="43.66712623" lon="-72.85532256">
    <tag k="addr:city" v="Mendon" />
    <tag k="addr:housenumber" v="6778" />
    <tag k="addr:street" v="U.S. Route 4" />
    <tag k="addr:state" v="VT" />
    <tag k="ref:vcgi:esiteid" v="153299" />
  </node>
  <node id="-149" visible="true" lat="43.66698923" lon="-72.86123389">
    <tag k="addr:city" v="Mendon" />
    <tag k="addr:housenumber" v="6497" />
    <tag k="addr:street" v="U.S. Route 4" />
    <tag k="addr:state" v="VT" />
    <tag k="ref:vcgi:esiteid" v="153300" />
  </node>
  <node id="-150" visible="true" lat="43.66704642" lon="-72.84843379">
    <tag k="addr:city" v="Mendon" />
    <tag k="addr:housenumber" v="55" />
    <tag k="addr:street" v="Fox Hollow Village" />
    <tag k="addr:state" v="VT" />
    <tag k="ref:vcgi:esiteid" v="153301" />
  </node>
  <node id="-151" visible="true" lat="43.66688746" lon="-72.84785184">
    <tag k="addr:city" v="Mendon" />
    <tag k="addr:housenumber" v="56" />
    <tag k="addr:street" v="Fox Hollow Village" />
    <tag k="addr:state" v="VT" />
    <tag k="ref:vcgi:esiteid" v="153302" />
  </node>
  <node id="-152" visible="true" lat="43.66647187" lon="-72.87138232">
    <tag k="addr:city" v="Mendon" />
    <tag k="addr:housenumber" v="1134" />
    <tag k="addr:street" v="Old Turnpike Road" />
    <tag k="addr:state" v="VT" />
    <tag k="ref:vcgi:esiteid" v="153303" />
  </node>
  <node id="-153" visible="true" lat="43.66661286" lon="-72.86156168">
    <tag k="addr:city" v="Mendon" />
    <tag k="addr:housenumber" v="6467" />
    <tag k="addr:street" v="U.S. Route 4" />
    <tag k="addr:state" v="VT" />
    <tag k="ref:vcgi:esiteid" v="153304" />
  </node>
  <node id="-154" visible="true" lat="43.66559219" lon="-72.93927765">
    <tag k="addr:city" v="Mendon" />
    <tag k="addr:housenumber" v="1274" />
    <tag k="addr:street" v="Meadow Lake Drive" />
    <tag k="addr:state" v="VT" />
    <tag k="ref:vcgi:esiteid" v="153305" />
  </node>
  <node id="-155" visible="true" lat="43.66589113" lon="-72.86319853">
    <tag k="addr:city" v="Mendon" />
    <tag k="addr:housenumber" v="388" />
    <tag k="addr:street" v="Craigs Lane" />
    <tag k="addr:state" v="VT" />
    <tag k="ref:vcgi:esiteid" v="153306" />
  </node>
  <node id="-156" visible="true" lat="43.66574901" lon="-72.86401034">
    <tag k="addr:city" v="Mendon" />
    <tag k="addr:housenumber" v="111" />
    <tag k="addr:street" v="Trail View Drive" />
    <tag k="addr:state" v="VT" />
    <tag k="ref:vcgi:esiteid" v="153307" />
  </node>
  <node id="-157" visible="true" lat="43.66489446" lon="-72.93915369">
    <tag k="addr:city" v="Mendon" />
    <tag k="addr:housenumber" v="1210" />
    <tag k="addr:street" v="Meadow Lake Drive" />
    <tag k="addr:state" v="VT" />
    <tag k="ref:vcgi:esiteid" v="153308" />
  </node>
  <node id="-158" visible="true" lat="43.66503607" lon="-72.86416622">
    <tag k="addr:city" v="Mendon" />
    <tag k="addr:housenumber" v="52" />
    <tag k="addr:street" v="Trail View Drive" />
    <tag k="addr:state" v="VT" />
    <tag k="ref:vcgi:esiteid" v="153309" />
  </node>
  <node id="-159" visible="true" lat="43.6649586" lon="-72.88588033">
    <tag k="addr:city" v="Mendon" />
    <tag k="addr:housenumber" v="776" />
    <tag k="addr:street" v="Cream Hill Road" />
    <tag k="addr:state" v="VT" />
    <tag k="ref:vcgi:esiteid" v="153310" />
  </node>
  <node id="-160" visible="true" lat="43.66498184" lon="-72.86468505">
    <tag k="addr:city" v="Mendon" />
    <tag k="addr:housenumber" v="65" />
    <tag k="addr:street" v="Trail View Drive" />
    <tag k="addr:state" v="VT" />
    <tag k="ref:vcgi:esiteid" v="153311" />
  </node>
  <node id="-161" visible="true" lat="43.66468418" lon="-72.93819233">
    <tag k="addr:city" v="Mendon" />
    <tag k="addr:housenumber" v="67" />
    <tag k="addr:street" v="Currier Road" />
    <tag k="addr:state" v="VT" />
    <tag k="ref:vcgi:esiteid" v="153312" />
  </node>
  <node id="-162" visible="true" lat="43.66470718" lon="-72.93324279">
    <tag k="addr:city" v="Mendon" />
    <tag k="addr:housenumber" v="337" />
    <tag k="addr:street" v="Stone Hollow" />
    <tag k="addr:state" v="VT" />
    <tag k="ref:vcgi:esiteid" v="153313" />
  </node>
  <node id="-163" visible="true" lat="43.66470433" lon="-72.86331342">
    <tag k="addr:city" v="Mendon" />
    <tag k="addr:housenumber" v="6322" />
    <tag k="addr:street" v="U.S. Route 4" />
    <tag k="addr:state" v="VT" />
    <tag k="ref:vcgi:esiteid" v="153314" />
  </node>
  <node id="-164" visible="true" lat="43.66437582" lon="-72.93489353">
    <tag k="addr:city" v="Mendon" />
    <tag k="addr:housenumber" v="291" />
    <tag k="addr:street" v="Stone Hollow" />
    <tag k="addr:state" v="VT" />
    <tag k="ref:vcgi:esiteid" v="153315" />
  </node>
  <node id="-165" visible="true" lat="43.6643842" lon="-72.93865998">
    <tag k="addr:city" v="Mendon" />
    <tag k="addr:housenumber" v="30" />
    <tag k="addr:street" v="Currier Road" />
    <tag k="addr:state" v="VT" />
    <tag k="ref:vcgi:esiteid" v="153316" />
  </node>
  <node id="-166" visible="true" lat="43.66439512" lon="-72.88902778">
    <tag k="addr:city" v="Mendon" />
    <tag k="addr:housenumber" v="775" />
    <tag k="addr:street" v="Cream Hill Road" />
    <tag k="addr:state" v="VT" />
    <tag k="ref:vcgi:esiteid" v="153317" />
  </node>
  <node id="-167" visible="true" lat="43.66407775" lon="-72.93812561">
    <tag k="addr:city" v="Mendon" />
    <tag k="addr:housenumber" v="110" />
    <tag k="addr:street" v="Currier Road" />
    <tag k="addr:state" v="VT" />
    <tag k="ref:vcgi:esiteid" v="153318" />
  </node>
  <node id="-168" visible="true" lat="43.66406584" lon="-72.93915658">
    <tag k="addr:city" v="Mendon" />
    <tag k="addr:housenumber" v="28" />
    <tag k="addr:street" v="Currier Road" />
    <tag k="addr:state" v="VT" />
    <tag k="ref:vcgi:esiteid" v="153319" />
  </node>
  <node id="-169" visible="true" lat="43.66412425" lon="-72.93618062">
    <tag k="addr:city" v="Mendon" />
    <tag k="addr:housenumber" v="219" />
    <tag k="addr:street" v="Stone Hollow" />
    <tag k="addr:state" v="VT" />
    <tag k="ref:vcgi:esiteid" v="153320" />
  </node>
  <node id="-170" visible="true" lat="43.66343965" lon="-72.9332345">
    <tag k="addr:city" v="Mendon" />
    <tag k="addr:housenumber" v="339" />
    <tag k="addr:street" v="Stone Hollow" />
    <tag k="addr:state" v="VT" />
    <tag k="ref:vcgi:esiteid" v="153321" />
  </node>
  <node id="-171" visible="true" lat="43.66354428" lon="-72.93826529">
    <tag k="addr:city" v="Mendon" />
    <tag k="addr:housenumber" v="81" />
    <tag k="addr:street" v="Stone Hollow" />
    <tag k="addr:state" v="VT" />
    <tag k="ref:vcgi:esiteid" v="153322" />
  </node>
  <node id="-172" visible="true" lat="43.66357034" lon="-72.87818994">
    <tag k="addr:city" v="Mendon" />
    <tag k="addr:housenumber" v="769" />
    <tag k="addr:street" v="Old Turnpike Road" />
    <tag k="addr:state" v="VT" />
    <tag k="ref:vcgi:esiteid" v="153324" />
  </node>
  <node id="-173" visible="true" lat="43.66382234" lon="-72.86556646">
    <tag k="addr:city" v="Mendon" />
    <tag k="addr:housenumber" v="6179" />
    <tag k="addr:street" v="U.S. Route 4" />
    <tag k="addr:state" v="VT" />
    <tag k="ref:vcgi:esiteid" v="153325" />
  </node>
  <node id="-174" visible="true" lat="43.66281435" lon="-72.93690206">
    <tag k="addr:city" v="Mendon" />
    <tag k="addr:housenumber" v="166" />
    <tag k="addr:street" v="Stone Hollow" />
    <tag k="addr:state" v="VT" />
    <tag k="ref:vcgi:esiteid" v="153326" />
  </node>
  <node id="-175" visible="true" lat="43.66279965" lon="-72.93608131">
    <tag k="addr:city" v="Mendon" />
    <tag k="addr:housenumber" v="216" />
    <tag k="addr:street" v="Stone Hollow" />
    <tag k="addr:state" v="VT" />
    <tag k="ref:vcgi:esiteid" v="153327" />
  </node>
  <node id="-176" visible="true" lat="43.66310566" lon="-72.86553058">
    <tag k="addr:city" v="Mendon" />
    <tag k="addr:housenumber" v="99" />
    <tag k="addr:street" v="Barbers Loop" />
    <tag k="addr:state" v="VT" />
    <tag k="ref:vcgi:esiteid" v="153329" />
  </node>
  <node id="-177" visible="true" lat="43.66242841" lon="-72.93483812">
    <tag k="addr:city" v="Mendon" />
    <tag k="addr:housenumber" v="268" />
    <tag k="addr:street" v="Stone Hollow" />
    <tag k="addr:state" v="VT" />
    <tag k="ref:vcgi:esiteid" v="153330" />
  </node>
  <node id="-178" visible="true" lat="43.66300744" lon="-72.88755486">
    <tag k="addr:city" v="Mendon" />
    <tag k="addr:housenumber" v="652" />
    <tag k="addr:street" v="Cream Hill Road" />
    <tag k="addr:state" v="VT" />
    <tag k="ref:vcgi:esiteid" v="153331" />
  </node>
  <node id="-179" visible="true" lat="43.66291076" lon="-72.86536285">
    <tag k="addr:city" v="Mendon" />
    <tag k="addr:housenumber" v="103" />
    <tag k="addr:street" v="Barbers Loop" />
    <tag k="addr:state" v="VT" />
    <tag k="ref:vcgi:esiteid" v="153332" />
  </node>
  <node id="-180" visible="true" lat="43.66281336" lon="-72.86569682">
    <tag k="addr:city" v="Mendon" />
    <tag k="addr:housenumber" v="87" />
    <tag k="addr:street" v="Barbers Loop" />
    <tag k="addr:state" v="VT" />
    <tag k="ref:vcgi:esiteid" v="153333" />
  </node>
  <node id="-181" visible="true" lat="43.66237304" lon="-72.93835652">
    <tag k="addr:city" v="Mendon" />
    <tag k="addr:housenumber" v="74" />
    <tag k="addr:street" v="Stone Hollow" />
    <tag k="addr:state" v="VT" />
    <tag k="ref:vcgi:esiteid" v="153334" />
  </node>
  <node id="-182" visible="true" lat="43.66261999" lon="-72.88946758">
    <tag k="addr:city" v="Mendon" />
    <tag k="addr:housenumber" v="617" />
    <tag k="addr:street" v="Cream Hill Road" />
    <tag k="addr:state" v="VT" />
    <tag k="ref:vcgi:esiteid" v="153335" />
  </node>
  <node id="-183" visible="true" lat="43.66268611" lon="-72.86595172">
    <tag k="addr:city" v="Mendon" />
    <tag k="addr:housenumber" v="81" />
    <tag k="addr:street" v="Barbers Loop" />
    <tag k="addr:state" v="VT" />
    <tag k="ref:vcgi:esiteid" v="153336" />
  </node>
  <node id="-184" visible="true" lat="43.66244158" lon="-72.86607468">
    <tag k="addr:city" v="Mendon" />
    <tag k="addr:housenumber" v="69" />
    <tag k="addr:street" v="Barbers Loop" />
    <tag k="addr:state" v="VT" />
    <tag k="ref:vcgi:esiteid" v="153337" />
  </node>
  <node id="-185" visible="true" lat="43.66328403" lon="-72.86772694">
    <tag k="addr:city" v="Mendon" />
    <tag k="addr:housenumber" v="200" />
    <tag k="addr:street" v="Cortina Country Road" />
    <tag k="addr:state" v="VT" />
    <tag k="ref:vcgi:esiteid" v="153338" />
  </node>
  <node id="-186" visible="true" lat="43.66219388" lon="-72.93569578">
    <tag k="addr:city" v="Mendon" />
    <tag k="addr:housenumber" v="340" />
    <tag k="addr:street" v="Stone Hollow" />
    <tag k="addr:state" v="VT" />
    <tag k="ref:vcgi:esiteid" v="153339" />
  </node>
  <node id="-187" visible="true" lat="43.66361552" lon="-72.88148298">
    <tag k="addr:city" v="Mendon" />
    <tag k="addr:housenumber" v="629" />
    <tag k="addr:street" v="Old Turnpike Road" />
    <tag k="addr:state" v="VT" />
    <tag k="ref:vcgi:esiteid" v="153340" />
  </node>
  <node id="-188" visible="true" lat="43.6621998" lon="-72.88062785">
    <tag k="addr:city" v="Mendon" />
    <tag k="addr:housenumber" v="569" />
    <tag k="addr:street" v="Old Turnpike Road" />
    <tag k="addr:state" v="VT" />
    <tag k="ref:vcgi:esiteid" v="153341" />
  </node>
  <node id="-189" visible="true" lat="43.66163559" lon="-72.9350136">
    <tag k="addr:city" v="Mendon" />
    <tag k="addr:housenumber" v="342" />
    <tag k="addr:street" v="Stone Hollow" />
    <tag k="addr:state" v="VT" />
    <tag k="ref:vcgi:esiteid" v="153342" />
  </node>
  <node id="-190" visible="true" lat="43.66182846" lon="-72.93858843">
    <tag k="addr:city" v="Mendon" />
    <tag k="addr:housenumber" v="992" />
    <tag k="addr:street" v="Meadow Lake Drive" />
    <tag k="addr:state" v="VT" />
    <tag k="ref:vcgi:esiteid" v="153343" />
  </node>
  <node id="-191" visible="true" lat="43.66305962" lon="-72.86879672">
    <tag k="addr:city" v="Mendon" />
    <tag k="addr:housenumber" v="226" />
    <tag k="addr:street" v="Cortina Country Road" />
    <tag k="addr:state" v="VT" />
    <tag k="ref:vcgi:esiteid" v="153344" />
  </node>
  <node id="-192" visible="true" lat="43.66193595" lon="-72.86586692">
    <tag k="addr:city" v="Mendon" />
    <tag k="addr:housenumber" v="6105" />
    <tag k="addr:street" v="U.S. Route 4" />
    <tag k="addr:state" v="VT" />
    <tag k="ref:vcgi:esiteid" v="153345" />
  </node>
  <node id="-193" visible="true" lat="43.66168594" lon="-72.89232635">
    <tag k="addr:city" v="Mendon" />
    <tag k="addr:housenumber" v="533" />
    <tag k="addr:street" v="Cream Hill Road" />
    <tag k="addr:state" v="VT" />
    <tag k="ref:vcgi:esiteid" v="153346" />
  </node>
  <node id="-194" visible="true" lat="43.66140727" lon="-72.93733512">
    <tag k="addr:city" v="Mendon" />
    <tag k="addr:housenumber" v="78" />
    <tag k="addr:street" v="Stone Hollow" />
    <tag k="addr:state" v="VT" />
    <tag k="ref:vcgi:esiteid" v="153347" />
  </node>
  <node id="-195" visible="true" lat="43.66125328" lon="-72.93889692">
    <tag k="addr:city" v="Mendon" />
    <tag k="addr:housenumber" v="976" />
    <tag k="addr:street" v="Meadow Lake Drive" />
    <tag k="addr:state" v="VT" />
    <tag k="ref:vcgi:esiteid" v="153348" />
  </node>
  <node id="-196" visible="true" lat="43.66141671" lon="-72.88094759">
    <tag k="addr:city" v="Mendon" />
    <tag k="addr:housenumber" v="545" />
    <tag k="addr:street" v="Old Turnpike Road" />
    <tag k="addr:state" v="VT" />
    <tag k="ref:vcgi:esiteid" v="153349" />
  </node>
  <node id="-197" visible="true" lat="43.66107433" lon="-72.88934234">
    <tag k="addr:city" v="Mendon" />
    <tag k="addr:housenumber" v="534" />
    <tag k="addr:street" v="Cream Hill Road" />
    <tag k="addr:state" v="VT" />
    <tag k="ref:vcgi:esiteid" v="153350" />
  </node>
  <node id="-198" visible="true" lat="43.66103662" lon="-72.86820364">
    <tag k="addr:city" v="Mendon" />
    <tag k="addr:housenumber" v="34" />
    <tag k="addr:street" v="Cortina Country Road" />
    <tag k="addr:state" v="VT" />
    <tag k="ref:vcgi:esiteid" v="153351" />
  </node>
  <node id="-199" visible="true" lat="43.66105651" lon="-72.86776733">
    <tag k="addr:city" v="Mendon" />
    <tag k="addr:housenumber" v="5983" />
    <tag k="addr:street" v="U.S. Route 4" />
    <tag k="addr:state" v="VT" />
    <tag k="ref:vcgi:esiteid" v="153352" />
  </node>
  <node id="-200" visible="true" lat="43.66066323" lon="-72.93816943">
    <tag k="addr:city" v="Mendon" />
    <tag k="addr:housenumber" v="944" />
    <tag k="addr:street" v="Meadow Lake Drive" />
    <tag k="addr:state" v="VT" />
    <tag k="ref:vcgi:esiteid" v="153353" />
  </node>
  <node id="-201" visible="true" lat="43.6604318" lon="-72.88221482">
    <tag k="addr:city" v="Mendon" />
    <tag k="addr:housenumber" v="449" />
    <tag k="addr:street" v="Old Turnpike Road" />
    <tag k="addr:state" v="VT" />
    <tag k="ref:vcgi:esiteid" v="153354" />
  </node>
  <node id="-202" visible="true" lat="43.66022155" lon="-72.93846804">
    <tag k="addr:city" v="Mendon" />
    <tag k="addr:housenumber" v="870" />
    <tag k="addr:street" v="Meadow Lake Drive" />
    <tag k="addr:state" v="VT" />
    <tag k="ref:vcgi:esiteid" v="153355" />
  </node>
  <node id="-203" visible="true" lat="43.65995719" lon="-72.93216568">
    <tag k="addr:city" v="Mendon" />
    <tag k="addr:housenumber" v="243" />
    <tag k="addr:street" v="Fernwood Drive" />
    <tag k="addr:state" v="VT" />
    <tag k="ref:vcgi:esiteid" v="153356" />
  </node>
  <node id="-204" visible="true" lat="43.66007572" lon="-72.89421323">
    <tag k="addr:city" v="Mendon" />
    <tag k="addr:housenumber" v="148" />
    <tag k="addr:street" v="Wright Road" />
    <tag k="addr:state" v="VT" />
    <tag k="ref:vcgi:esiteid" v="153357" />
  </node>
  <node id="-205" visible="true" lat="43.65989303" lon="-72.93818664">
    <tag k="addr:city" v="Mendon" />
    <tag k="addr:housenumber" v="854" />
    <tag k="addr:street" v="Meadow Lake Drive" />
    <tag k="addr:state" v="VT" />
    <tag k="ref:vcgi:esiteid" v="153358" />
  </node>
  <node id="-206" visible="true" lat="43.65997619" lon="-72.88668192">
    <tag k="addr:city" v="Mendon" />
    <tag k="addr:housenumber" v="271" />
    <tag k="addr:street" v="Old Turnpike Road" />
    <tag k="addr:state" v="VT" />
    <tag k="ref:vcgi:esiteid" v="153359" />
  </node>
  <node id="-207" visible="true" lat="43.65979841" lon="-72.93539266">
    <tag k="addr:city" v="Mendon" />
    <tag k="addr:housenumber" v="792" />
    <tag k="addr:street" v="Meadow Lake Drive" />
    <tag k="addr:state" v="VT" />
    <tag k="ref:vcgi:esiteid" v="153360" />
  </node>
  <node id="-208" visible="true" lat="43.6601781" lon="-72.88988136">
    <tag k="addr:city" v="Mendon" />
    <tag k="addr:housenumber" v="434" />
    <tag k="addr:street" v="Cream Hill Road" />
    <tag k="addr:state" v="VT" />
    <tag k="ref:vcgi:esiteid" v="153361" />
  </node>
  <node id="-209" visible="true" lat="43.65974547" lon="-72.89106868">
    <tag k="addr:city" v="Mendon" />
    <tag k="addr:housenumber" v="387" />
    <tag k="addr:street" v="Cream Hill Road" />
    <tag k="addr:state" v="VT" />
    <tag k="ref:vcgi:esiteid" v="153362" />
  </node>
  <node id="-210" visible="true" lat="43.65957685" lon="-72.93393877">
    <tag k="addr:city" v="Mendon" />
    <tag k="addr:housenumber" v="87" />
    <tag k="addr:street" v="Fernwood Drive" />
    <tag k="addr:state" v="VT" />
    <tag k="ref:vcgi:esiteid" v="153363" />
  </node>
  <node id="-211" visible="true" lat="43.65947723" lon="-72.93852233">
    <tag k="addr:city" v="Mendon" />
    <tag k="addr:housenumber" v="845" />
    <tag k="addr:street" v="Meadow Lake Drive" />
    <tag k="addr:state" v="VT" />
    <tag k="ref:vcgi:esiteid" v="153364" />
  </node>
  <node id="-212" visible="true" lat="43.65948959" lon="-72.93768222">
    <tag k="addr:city" v="Mendon" />
    <tag k="addr:housenumber" v="802" />
    <tag k="addr:street" v="Meadow Lake Drive" />
    <tag k="addr:state" v="VT" />
    <tag k="ref:vcgi:esiteid" v="153365" />
  </node>
  <node id="-213" visible="true" lat="43.65933514" lon="-72.86781385">
    <tag k="addr:city" v="Mendon" />
    <tag k="addr:housenumber" v="5900" />
    <tag k="addr:street" v="U.S. Route 4" />
    <tag k="addr:state" v="VT" />
    <tag k="ref:vcgi:esiteid" v="153366" />
  </node>
  <node id="-214" visible="true" lat="43.6591485" lon="-72.93780415">
    <tag k="addr:city" v="Mendon" />
    <tag k="addr:housenumber" v="793" />
    <tag k="addr:street" v="Meadow Lake Drive" />
    <tag k="addr:state" v="VT" />
    <tag k="ref:vcgi:esiteid" v="153367" />
  </node>
  <node id="-215" visible="true" lat="43.65911076" lon="-72.93684718">
    <tag k="addr:city" v="Mendon" />
    <tag k="addr:housenumber" v="758" />
    <tag k="addr:street" v="Meadow Lake Drive" />
    <tag k="addr:state" v="VT" />
    <tag k="ref:vcgi:esiteid" v="153368" />
  </node>
  <node id="-216" visible="true" lat="43.65884862" lon="-72.93215068">
    <tag k="addr:city" v="Mendon" />
    <tag k="addr:housenumber" v="244" />
    <tag k="addr:street" v="Fernwood Drive" />
    <tag k="addr:state" v="VT" />
    <tag k="ref:vcgi:esiteid" v="153369" />
  </node>
  <node id="-217" visible="true" lat="43.65872926" lon="-72.89427346">
    <tag k="addr:city" v="Mendon" />
    <tag k="addr:housenumber" v="145" />
    <tag k="addr:street" v="Wright Road" />
    <tag k="addr:state" v="VT" />
    <tag k="ref:vcgi:esiteid" v="153370" />
  </node>
  <node id="-218" visible="true" lat="43.65833004" lon="-72.87237676">
    <tag k="addr:city" v="Mendon" />
    <tag k="addr:housenumber" v="5709" />
    <tag k="addr:street" v="U.S. Route 4" />
    <tag k="addr:state" v="VT" />
    <tag k="ref:vcgi:esiteid" v="153371" />
  </node>
  <node id="-219" visible="true" lat="43.65827567" lon="-72.93667875">
    <tag k="addr:city" v="Mendon" />
    <tag k="addr:housenumber" v="725" />
    <tag k="addr:street" v="Meadow Lake Drive" />
    <tag k="addr:state" v="VT" />
    <tag k="ref:vcgi:esiteid" v="153372" />
  </node>
  <node id="-220" visible="true" lat="43.65838224" lon="-72.89105894">
    <tag k="addr:city" v="Mendon" />
    <tag k="addr:housenumber" v="312" />
    <tag k="addr:street" v="Cream Hill Road" />
    <tag k="addr:state" v="VT" />
    <tag k="ref:vcgi:esiteid" v="153373" />
  </node>
  <node id="-221" visible="true" lat="43.65780951" lon="-72.93663391">
    <tag k="addr:city" v="Mendon" />
    <tag k="addr:housenumber" v="639" />
    <tag k="addr:street" v="Meadow Lake Drive" />
    <tag k="addr:state" v="VT" />
    <tag k="ref:vcgi:esiteid" v="153374" />
  </node>
  <node id="-222" visible="true" lat="43.65769881" lon="-72.89546771">
    <tag k="addr:city" v="Mendon" />
    <tag k="addr:housenumber" v="180" />
    <tag k="addr:street" v="Tenney Road" />
    <tag k="addr:state" v="VT" />
    <tag k="ref:vcgi:esiteid" v="153375" />
  </node>
  <node id="-223" visible="true" lat="43.65792147" lon="-72.87020594">
    <tag k="addr:city" v="Mendon" />
    <tag k="addr:housenumber" v="5738" />
    <tag k="addr:street" v="U.S. Route 4" />
    <tag k="addr:state" v="VT" />
    <tag k="ref:vcgi:esiteid" v="153376" />
  </node>
  <node id="-224" visible="true" lat="43.65761117" lon="-72.87571605">
    <tag k="addr:city" v="Mendon" />
    <tag k="addr:housenumber" v="91" />
    <tag k="addr:street" v="Mountain Commons Road" />
    <tag k="addr:state" v="VT" />
    <tag k="ref:vcgi:esiteid" v="153377" />
  </node>
  <node id="-225" visible="true" lat="43.65737206" lon="-72.89015325">
    <tag k="addr:city" v="Mendon" />
    <tag k="addr:housenumber" v="220" />
    <tag k="addr:street" v="Cream Hill Road" />
    <tag k="addr:state" v="VT" />
    <tag k="ref:vcgi:esiteid" v="153378" />
  </node>
  <node id="-226" visible="true" lat="43.6573444" lon="-72.87585488">
    <tag k="addr:city" v="Mendon" />
    <tag k="addr:housenumber" v="81" />
    <tag k="addr:street" v="Mountain Commons Road" />
    <tag k="addr:state" v="VT" />
    <tag k="ref:vcgi:esiteid" v="153379" />
  </node>
  <node id="-227" visible="true" lat="43.65730686" lon="-72.87138484">
    <tag k="addr:city" v="Mendon" />
    <tag k="addr:housenumber" v="5654" />
    <tag k="addr:street" v="U.S. Route 4" />
    <tag k="addr:state" v="VT" />
    <tag k="ref:vcgi:esiteid" v="153380" />
  </node>
  <node id="-228" visible="true" lat="43.65702025" lon="-72.92315418">
    <tag k="addr:city" v="Mendon" />
    <tag k="addr:housenumber" v="796" />
    <tag k="addr:street" v="Sherwood Drive" />
    <tag k="addr:state" v="VT" />
    <tag k="ref:vcgi:esiteid" v="153381" />
  </node>
  <node id="-229" visible="true" lat="43.65628828" lon="-72.87175492">
    <tag k="addr:city" v="Mendon" />
    <tag k="addr:housenumber" v="5610" />
    <tag k="addr:street" v="U.S. Route 4" />
    <tag k="addr:state" v="VT" />
    <tag k="ref:vcgi:esiteid" v="153382" />
  </node>
  <node id="-230" visible="true" lat="43.65698983" lon="-72.92583463">
    <tag k="addr:city" v="Mendon" />
    <tag k="addr:housenumber" v="880" />
    <tag k="addr:street" v="Sherwood Drive" />
    <tag k="addr:state" v="VT" />
    <tag k="ref:vcgi:esiteid" v="153383" />
  </node>
  <node id="-231" visible="true" lat="43.65697636" lon="-72.92429541">
    <tag k="addr:city" v="Mendon" />
    <tag k="addr:housenumber" v="872" />
    <tag k="addr:street" v="Sherwood Drive" />
    <tag k="addr:state" v="VT" />
    <tag k="ref:vcgi:esiteid" v="153384" />
  </node>
  <node id="-232" visible="true" lat="43.65672064" lon="-72.92194429">
    <tag k="addr:city" v="Mendon" />
    <tag k="addr:housenumber" v="740" />
    <tag k="addr:street" v="Sherwood Drive" />
    <tag k="addr:state" v="VT" />
    <tag k="ref:vcgi:esiteid" v="153385" />
  </node>
  <node id="-233" visible="true" lat="43.65679405" lon="-72.88998967">
    <tag k="addr:city" v="Mendon" />
    <tag k="addr:housenumber" v="192" />
    <tag k="addr:street" v="Cream Hill Road" />
    <tag k="addr:state" v="VT" />
    <tag k="ref:vcgi:esiteid" v="153386" />
  </node>
  <node id="-234" visible="true" lat="43.65660654" lon="-72.89141074">
    <tag k="addr:city" v="Mendon" />
    <tag k="addr:housenumber" v="211" />
    <tag k="addr:street" v="Cream Hill Road" />
    <tag k="addr:state" v="VT" />
    <tag k="ref:vcgi:esiteid" v="153387" />
  </node>
  <node id="-235" visible="true" lat="43.65677447" lon="-72.87589669">
    <tag k="addr:city" v="Mendon" />
    <tag k="addr:housenumber" v="11" />
    <tag k="addr:street" v="Mountain Commons Road" />
    <tag k="addr:state" v="VT" />
    <tag k="ref:vcgi:esiteid" v="153388" />
  </node>
  <node id="-236" visible="true" lat="43.65677714" lon="-72.87544923">
    <tag k="addr:city" v="Mendon" />
    <tag k="addr:housenumber" v="19" />
    <tag k="addr:street" v="Mountain Commons Road" />
    <tag k="addr:state" v="VT" />
    <tag k="ref:vcgi:esiteid" v="153389" />
  </node>
  <node id="-237" visible="true" lat="43.65653207" lon="-72.93584212">
    <tag k="addr:city" v="Mendon" />
    <tag k="addr:housenumber" v="584" />
    <tag k="addr:street" v="Meadow Lake Drive" />
    <tag k="addr:state" v="VT" />
    <tag k="ref:vcgi:esiteid" v="153391" />
  </node>
  <node id="-238" visible="true" lat="43.65646806" lon="-72.92515184">
    <tag k="addr:city" v="Mendon" />
    <tag k="addr:housenumber" v="882" />
    <tag k="addr:street" v="Sherwood Drive" />
    <tag k="addr:state" v="VT" />
    <tag k="ref:vcgi:esiteid" v="153392" />
  </node>
  <node id="-239" visible="true" lat="43.65652642" lon="-72.92686129">
    <tag k="addr:city" v="Mendon" />
    <tag k="addr:housenumber" v="357" />
    <tag k="addr:street" v="Sherwood Drive" />
    <tag k="addr:state" v="VT" />
    <tag k="ref:vcgi:esiteid" v="153393" />
  </node>
  <node id="-240" visible="true" lat="43.65661594" lon="-72.87640742">
    <tag k="addr:city" v="Mendon" />
    <tag k="addr:housenumber" v="5433" />
    <tag k="addr:street" v="U.S. Route 4" />
    <tag k="addr:state" v="VT" />
    <tag k="ref:vcgi:esiteid" v="153395" />
  </node>
  <node id="-241" visible="true" lat="43.65634143" lon="-72.9238598">
    <tag k="addr:city" v="Mendon" />
    <tag k="addr:housenumber" v="849" />
    <tag k="addr:street" v="Sherwood Drive" />
    <tag k="addr:state" v="VT" />
    <tag k="ref:vcgi:esiteid" v="153396" />
  </node>
  <node id="-242" visible="true" lat="43.65606839" lon="-72.92299124">
    <tag k="addr:city" v="Mendon" />
    <tag k="addr:housenumber" v="791" />
    <tag k="addr:street" v="Sherwood Drive" />
    <tag k="addr:state" v="VT" />
    <tag k="ref:vcgi:esiteid" v="153397" />
  </node>
  <node id="-243" visible="true" lat="43.65634821" lon="-72.87457928">
    <tag k="addr:city" v="Mendon" />
    <tag k="addr:housenumber" v="5496" />
    <tag k="addr:street" v="U.S. Route 4" />
    <tag k="addr:state" v="VT" />
    <tag k="ref:vcgi:esiteid" v="153398" />
  </node>
  <node id="-244" visible="true" lat="43.65635918" lon="-72.87911188">
    <tag k="addr:city" v="Mendon" />
    <tag k="addr:housenumber" v="5297" />
    <tag k="addr:street" v="U.S. Route 4" />
    <tag k="addr:state" v="VT" />
    <tag k="ref:vcgi:esiteid" v="153399" />
  </node>
  <node id="-245" visible="true" lat="43.65597861" lon="-72.93476486">
    <tag k="addr:city" v="Mendon" />
    <tag k="addr:housenumber" v="478" />
    <tag k="addr:street" v="Meadow Lake Drive" />
    <tag k="addr:state" v="VT" />
    <tag k="ref:vcgi:esiteid" v="153400" />
  </node>
  <node id="-246" visible="true" lat="43.65602846" lon="-72.92482581">
    <tag k="addr:city" v="Mendon" />
    <tag k="addr:housenumber" v="916" />
    <tag k="addr:street" v="Sherwood Drive" />
    <tag k="addr:state" v="VT" />
    <tag k="ref:vcgi:esiteid" v="153401" />
  </node>
  <node id="-247" visible="true" lat="43.65611294" lon="-72.92158997">
    <tag k="addr:city" v="Mendon" />
    <tag k="addr:housenumber" v="718" />
    <tag k="addr:street" v="Sherwood Drive" />
    <tag k="addr:state" v="VT" />
    <tag k="ref:vcgi:esiteid" v="153402" />
  </node>
  <node id="-248" visible="true" lat="43.65601681" lon="-72.91137963">
    <tag k="addr:city" v="Mendon" />
    <tag k="addr:housenumber" v="784" />
    <tag k="addr:street" v="Journeys End" />
    <tag k="addr:state" v="VT" />
    <tag k="ref:vcgi:esiteid" v="153403" />
  </node>
  <node id="-249" visible="true" lat="43.65603386" lon="-72.89146931">
    <tag k="addr:city" v="Mendon" />
    <tag k="addr:housenumber" v="141" />
    <tag k="addr:street" v="Cream Hill Road" />
    <tag k="addr:state" v="VT" />
    <tag k="ref:vcgi:esiteid" v="153404" />
  </node>
  <node id="-250" visible="true" lat="43.65586208" lon="-72.92241423">
    <tag k="addr:city" v="Mendon" />
    <tag k="addr:housenumber" v="691" />
    <tag k="addr:street" v="Sherwood Drive" />
    <tag k="addr:state" v="VT" />
    <tag k="ref:vcgi:esiteid" v="153405" />
  </node>
  <node id="-251" visible="true" lat="43.65566452" lon="-72.92427391">
    <tag k="addr:city" v="Mendon" />
    <tag k="addr:housenumber" v="923" />
    <tag k="addr:street" v="Sherwood Drive" />
    <tag k="addr:state" v="VT" />
    <tag k="ref:vcgi:esiteid" v="153406" />
  </node>
  <node id="-252" visible="true" lat="43.65600211" lon="-72.88522424">
    <tag k="addr:city" v="Mendon" />
    <tag k="addr:housenumber" v="4983" />
    <tag k="addr:street" v="U.S. Route 4" />
    <tag k="addr:state" v="VT" />
    <tag k="ref:vcgi:esiteid" v="153407" />
  </node>
  <node id="-253" visible="true" lat="43.65585016" lon="-72.88411874">
    <tag k="addr:city" v="Mendon" />
    <tag k="addr:housenumber" v="4999" />
    <tag k="addr:street" v="U.S. Route 4" />
    <tag k="addr:state" v="VT" />
    <tag k="ref:vcgi:esiteid" v="153408" />
  </node>
  <node id="-254" visible="true" lat="43.65585028" lon="-72.88160175">
    <tag k="addr:city" v="Mendon" />
    <tag k="addr:housenumber" v="5161" />
    <tag k="addr:street" v="U.S. Route 4" />
    <tag k="addr:state" v="VT" />
    <tag k="ref:vcgi:esiteid" v="153409" />
  </node>
  <node id="-255" visible="true" lat="43.65576429" lon="-72.87667598">
    <tag k="addr:city" v="Mendon" />
    <tag k="addr:housenumber" v="5404" />
    <tag k="addr:street" v="U.S. Route 4" />
    <tag k="addr:state" v="VT" />
    <tag k="ref:vcgi:esiteid" v="153410" />
  </node>
  <node id="-256" visible="true" lat="43.65570284" lon="-72.88222427">
    <tag k="addr:city" v="Mendon" />
    <tag k="addr:housenumber" v="5115" />
    <tag k="addr:street" v="U.S. Route 4" />
    <tag k="addr:state" v="VT" />
    <tag k="ref:vcgi:esiteid" v="153411" />
  </node>
  <node id="-257" visible="true" lat="43.65580558" lon="-72.88350353">
    <tag k="addr:city" v="Mendon" />
    <tag k="addr:housenumber" v="5045" />
    <tag k="addr:street" v="U.S. Route 4" />
    <tag k="addr:state" v="VT" />
    <tag k="ref:vcgi:esiteid" v="153412" />
  </node>
  <node id="-258" visible="true" lat="43.65539231" lon="-72.92128967">
    <tag k="addr:city" v="Mendon" />
    <tag k="addr:housenumber" v="670" />
    <tag k="addr:street" v="Sherwood Drive" />
    <tag k="addr:state" v="VT" />
    <tag k="ref:vcgi:esiteid" v="153413" />
  </node>
  <node id="-259" visible="true" lat="43.65526339" lon="-72.92200155">
    <tag k="addr:city" v="Mendon" />
    <tag k="addr:housenumber" v="645" />
    <tag k="addr:street" v="Sherwood Drive" />
    <tag k="addr:state" v="VT" />
    <tag k="ref:vcgi:esiteid" v="153414" />
  </node>
  <node id="-260" visible="true" lat="43.65522336" lon="-72.90888018">
    <tag k="addr:city" v="Mendon" />
    <tag k="addr:housenumber" v="688" />
    <tag k="addr:street" v="Journeys End" />
    <tag k="addr:state" v="VT" />
    <tag k="ref:vcgi:esiteid" v="153415" />
  </node>
  <node id="-261" visible="true" lat="43.65509215" lon="-72.92618082">
    <tag k="addr:city" v="Mendon" />
    <tag k="addr:housenumber" v="48" />
    <tag k="addr:street" v="Terra Lane" />
    <tag k="addr:state" v="VT" />
    <tag k="ref:vcgi:esiteid" v="153416" />
  </node>
  <node id="-262" visible="true" lat="43.65534656" lon="-72.87230577">
    <tag k="addr:city" v="Mendon" />
    <tag k="addr:housenumber" v="111" />
    <tag k="addr:street" v="Birchwood Avenue" />
    <tag k="addr:state" v="VT" />
    <tag k="ref:vcgi:esiteid" v="153417" />
  </node>
  <node id="-263" visible="true" lat="43.65525426" lon="-72.87291481">
    <tag k="addr:city" v="Mendon" />
    <tag k="addr:housenumber" v="108" />
    <tag k="addr:street" v="Birchwood Avenue" />
    <tag k="addr:state" v="VT" />
    <tag k="ref:vcgi:esiteid" v="153418" />
  </node>
  <node id="-264" visible="true" lat="43.65519313" lon="-72.92266095">
    <tag k="addr:city" v="Mendon" />
    <tag k="addr:housenumber" v="581" />
    <tag k="addr:street" v="Sherwood Drive" />
    <tag k="addr:state" v="VT" />
    <tag k="ref:vcgi:esiteid" v="153419" />
  </node>
  <node id="-265" visible="true" lat="43.65504318" lon="-72.92528251">
    <tag k="addr:city" v="Mendon" />
    <tag k="addr:housenumber" v="33" />
    <tag k="addr:street" v="Terra Lane" />
    <tag k="addr:state" v="VT" />
    <tag k="ref:vcgi:esiteid" v="153420" />
  </node>
  <node id="-266" visible="true" lat="43.65509414" lon="-72.92346954">
    <tag k="addr:city" v="Mendon" />
    <tag k="addr:housenumber" v="577" />
    <tag k="addr:street" v="Sherwood Drive" />
    <tag k="addr:state" v="VT" />
    <tag k="ref:vcgi:esiteid" v="153421" />
  </node>
  <node id="-267" visible="true" lat="43.65510893" lon="-72.92123385">
    <tag k="addr:city" v="Mendon" />
    <tag k="addr:housenumber" v="636" />
    <tag k="addr:street" v="Sherwood Drive" />
    <tag k="addr:state" v="VT" />
    <tag k="ref:vcgi:esiteid" v="153422" />
  </node>
  <node id="-268" visible="true" lat="43.65500212" lon="-72.93290438">
    <tag k="addr:city" v="Mendon" />
    <tag k="addr:housenumber" v="384" />
    <tag k="addr:street" v="Meadow Lake Drive" />
    <tag k="addr:state" v="VT" />
    <tag k="ref:vcgi:esiteid" v="153423" />
  </node>
  <node id="-269" visible="true" lat="43.6550295" lon="-72.91202638">
    <tag k="addr:city" v="Mendon" />
    <tag k="addr:housenumber" v="790" />
    <tag k="addr:street" v="Journeys End" />
    <tag k="addr:state" v="VT" />
    <tag k="ref:vcgi:esiteid" v="153424" />
  </node>
  <node id="-270" visible="true" lat="43.65504227" lon="-72.89000786">
    <tag k="addr:city" v="Mendon" />
    <tag k="addr:housenumber" v="59" />
    <tag k="addr:street" v="Cream Hill Road" />
    <tag k="addr:state" v="VT" />
    <tag k="ref:vcgi:esiteid" v="153425" />
  </node>
  <node id="-271" visible="true" lat="43.65503676" lon="-72.91079322">
    <tag k="addr:city" v="Mendon" />
    <tag k="addr:housenumber" v="702" />
    <tag k="addr:street" v="Journeys End" />
    <tag k="addr:state" v="VT" />
    <tag k="ref:vcgi:esiteid" v="153426" />
  </node>
  <node id="-272" visible="true" lat="43.65487118" lon="-72.927641">
    <tag k="addr:city" v="Mendon" />
    <tag k="addr:housenumber" v="162" />
    <tag k="addr:street" v="Sherwood Drive" />
    <tag k="addr:state" v="VT" />
    <tag k="ref:vcgi:esiteid" v="153427" />
  </node>
  <node id="-273" visible="true" lat="43.65475015" lon="-72.93041048">
    <tag k="addr:city" v="Mendon" />
    <tag k="addr:housenumber" v="79" />
    <tag k="addr:street" v="Sherwood Drive" />
    <tag k="addr:state" v="VT" />
    <tag k="ref:vcgi:esiteid" v="153428" />
  </node>
  <node id="-274" visible="true" lat="43.65467943" lon="-72.92433836">
    <tag k="addr:city" v="Mendon" />
    <tag k="addr:housenumber" v="170" />
    <tag k="addr:street" v="Terra Lane" />
    <tag k="addr:state" v="VT" />
    <tag k="ref:vcgi:esiteid" v="153429" />
  </node>
  <node id="-275" visible="true" lat="43.65459686" lon="-72.92512093">
    <tag k="addr:city" v="Mendon" />
    <tag k="addr:housenumber" v="176" />
    <tag k="addr:street" v="Terra Lane" />
    <tag k="addr:state" v="VT" />
    <tag k="ref:vcgi:esiteid" v="153430" />
  </node>
  <node id="-276" visible="true" lat="43.65439538" lon="-72.93395721">
    <tag k="addr:city" v="Mendon" />
    <tag k="addr:housenumber" v="411" />
    <tag k="addr:street" v="Meadow Lake Drive" />
    <tag k="addr:state" v="VT" />
    <tag k="ref:vcgi:esiteid" v="153431" />
  </node>
  <node id="-277" visible="true" lat="43.65465631" lon="-72.88589061">
    <tag k="addr:city" v="Mendon" />
    <tag k="addr:housenumber" v="62" />
    <tag k="addr:street" v="Johns Way" />
    <tag k="addr:state" v="VT" />
    <tag k="ref:vcgi:esiteid" v="153433" />
  </node>
  <node id="-278" visible="true" lat="43.65458583" lon="-72.87571973">
    <tag k="addr:city" v="Mendon" />
    <tag k="addr:housenumber" v="5408" />
    <tag k="addr:street" v="U.S. Route 4" />
    <tag k="addr:state" v="VT" />
    <tag k="ref:vcgi:esiteid" v="153434" />
  </node>
  <node id="-279" visible="true" lat="43.65437979" lon="-72.9234339">
    <tag k="addr:city" v="Mendon" />
    <tag k="addr:housenumber" v="522" />
    <tag k="addr:street" v="Sherwood Drive" />
    <tag k="addr:state" v="VT" />
    <tag k="ref:vcgi:esiteid" v="153435" />
  </node>
  <node id="-280" visible="true" lat="43.65428049" lon="-72.91156758">
    <tag k="addr:city" v="Mendon" />
    <tag k="addr:housenumber" v="785" />
    <tag k="addr:street" v="Journeys End" />
    <tag k="addr:state" v="VT" />
    <tag k="ref:vcgi:esiteid" v="153436" />
  </node>
  <node id="-281" visible="true" lat="43.654295" lon="-72.92165023">
    <tag k="addr:city" v="Mendon" />
    <tag k="addr:housenumber" v="618" />
    <tag k="addr:street" v="Sherwood Drive" />
    <tag k="addr:state" v="VT" />
    <tag k="ref:vcgi:esiteid" v="153437" />
  </node>
  <node id="-282" visible="true" lat="43.65467964" lon="-72.88445602">
    <tag k="addr:city" v="Mendon" />
    <tag k="addr:housenumber" v="37" />
    <tag k="addr:street" v="Gateway Court" />
    <tag k="addr:state" v="VT" />
    <tag k="ref:vcgi:esiteid" v="153438" />
  </node>
  <node id="-283" visible="true" lat="43.65447986" lon="-72.88986376">
    <tag k="addr:city" v="Mendon" />
    <tag k="addr:housenumber" v="27" />
    <tag k="addr:street" v="Cream Hill Road" />
    <tag k="addr:state" v="VT" />
    <tag k="ref:vcgi:esiteid" v="153439" />
  </node>
  <node id="-284" visible="true" lat="43.65440773" lon="-72.91089029">
    <tag k="addr:city" v="Mendon" />
    <tag k="addr:housenumber" v="741" />
    <tag k="addr:street" v="Journeys End" />
    <tag k="addr:state" v="VT" />
    <tag k="ref:vcgi:esiteid" v="153440" />
  </node>
  <node id="-285" visible="true" lat="43.65436172" lon="-72.893898">
    <tag k="addr:city" v="Mendon" />
    <tag k="addr:housenumber" v="154" />
    <tag k="addr:street" v="Tenney Road" />
    <tag k="addr:state" v="VT" />
    <tag k="ref:vcgi:esiteid" v="153441" />
  </node>
  <node id="-286" visible="true" lat="43.65443491" lon="-72.88582096">
    <tag k="addr:city" v="Mendon" />
    <tag k="addr:housenumber" v="78" />
    <tag k="addr:street" v="Johns Way" />
    <tag k="addr:state" v="VT" />
    <tag k="ref:vcgi:esiteid" v="153442" />
  </node>
  <node id="-287" visible="true" lat="43.65440386" lon="-72.88656651">
    <tag k="addr:city" v="Mendon" />
    <tag k="addr:housenumber" v="4844" />
    <tag k="addr:street" v="U.S. Route 4" />
    <tag k="addr:state" v="VT" />
    <tag k="ref:vcgi:esiteid" v="153443" />
  </node>
  <node id="-288" visible="true" lat="43.65420042" lon="-72.93116269">
    <tag k="addr:city" v="Mendon" />
    <tag k="addr:housenumber" v="26" />
    <tag k="addr:street" v="Sherwood Drive" />
    <tag k="addr:state" v="VT" />
    <tag k="ref:vcgi:esiteid" v="153444" />
  </node>
  <node id="-289" visible="true" lat="43.65410454" lon="-72.9260503">
    <tag k="addr:city" v="Mendon" />
    <tag k="addr:housenumber" v="110" />
    <tag k="addr:street" v="Terra Lane" />
    <tag k="addr:state" v="VT" />
    <tag k="ref:vcgi:esiteid" v="153445" />
  </node>
  <node id="-290" visible="true" lat="43.65424434" lon="-72.92412388">
    <tag k="addr:city" v="Mendon" />
    <tag k="addr:housenumber" v="166" />
    <tag k="addr:street" v="Terra Lane" />
    <tag k="addr:state" v="VT" />
    <tag k="ref:vcgi:esiteid" v="153447" />
  </node>
  <node id="-291" visible="true" lat="43.65428196" lon="-72.91013876">
    <tag k="addr:city" v="Mendon" />
    <tag k="addr:housenumber" v="721" />
    <tag k="addr:street" v="Journeys End" />
    <tag k="addr:state" v="VT" />
    <tag k="ref:vcgi:esiteid" v="153448" />
  </node>
  <node id="-292" visible="true" lat="43.6540739" lon="-72.88726352">
    <tag k="addr:city" v="Mendon" />
    <tag k="addr:housenumber" v="4840" />
    <tag k="addr:street" v="U.S. Route 4" />
    <tag k="addr:state" v="VT" />
    <tag k="ref:vcgi:esiteid" v="153449" />
  </node>
  <node id="-293" visible="true" lat="43.6539917" lon="-72.90847778">
    <tag k="addr:city" v="Mendon" />
    <tag k="addr:housenumber" v="640" />
    <tag k="addr:street" v="Journeys End" />
    <tag k="addr:state" v="VT" />
    <tag k="ref:vcgi:esiteid" v="153450" />
  </node>
  <node id="-294" visible="true" lat="43.65389965" lon="-72.9302528">
    <tag k="addr:city" v="Mendon" />
    <tag k="addr:housenumber" v="90" />
    <tag k="addr:street" v="Sherwood Drive" />
    <tag k="addr:state" v="VT" />
    <tag k="ref:vcgi:esiteid" v="153451" />
  </node>
  <node id="-295" visible="true" lat="43.65407136" lon="-72.90708872">
    <tag k="addr:city" v="Mendon" />
    <tag k="addr:housenumber" v="90" />
    <tag k="addr:street" v="Leisure Lane" />
    <tag k="addr:state" v="VT" />
    <tag k="ref:vcgi:esiteid" v="153452" />
  </node>
  <node id="-296" visible="true" lat="43.65390749" lon="-72.90650703">
    <tag k="addr:city" v="Mendon" />
    <tag k="addr:housenumber" v="76" />
    <tag k="addr:street" v="Leisure Lane" />
    <tag k="addr:state" v="VT" />
    <tag k="ref:vcgi:esiteid" v="153453" />
  </node>
  <node id="-297" visible="true" lat="43.65390688" lon="-72.89474997">
    <tag k="addr:city" v="Mendon" />
    <tag k="addr:housenumber" v="139" />
    <tag k="addr:street" v="Tenney Road" />
    <tag k="addr:state" v="VT" />
    <tag k="ref:vcgi:esiteid" v="153454" />
  </node>
  <node id="-298" visible="true" lat="43.65398373" lon="-72.89035414">
    <tag k="addr:city" v="Mendon" />
    <tag k="addr:housenumber" v="4693" />
    <tag k="addr:street" v="U.S. Route 4" />
    <tag k="addr:state" v="VT" />
    <tag k="ref:vcgi:esiteid" v="153455" />
  </node>
  <node id="-299" visible="true" lat="43.65380995" lon="-72.93164198">
    <tag k="addr:city" v="Mendon" />
    <tag k="addr:housenumber" v="267" />
    <tag k="addr:street" v="Meadow Lake Drive" />
    <tag k="addr:state" v="VT" />
    <tag k="ref:vcgi:esiteid" v="153456" />
  </node>
  <node id="-300" visible="true" lat="43.65386041" lon="-72.88579133">
    <tag k="addr:city" v="Mendon" />
    <tag k="addr:housenumber" v="118" />
    <tag k="addr:street" v="Johns Way" />
    <tag k="addr:state" v="VT" />
    <tag k="ref:vcgi:esiteid" v="153457" />
  </node>
  <node id="-301" visible="true" lat="43.65366815" lon="-72.88137262">
    <tag k="addr:city" v="Mendon" />
    <tag k="addr:housenumber" v="262" />
    <tag k="addr:street" v="Gateway Court" />
    <tag k="addr:state" v="VT" />
    <tag k="ref:vcgi:esiteid" v="153458" />
  </node>
  <node id="-302" visible="true" lat="43.65388513" lon="-72.89166616">
    <tag k="addr:city" v="Mendon" />
    <tag k="addr:housenumber" v="4637" />
    <tag k="addr:street" v="U.S. Route 4" />
    <tag k="addr:state" v="VT" />
    <tag k="ref:vcgi:esiteid" v="153459" />
  </node>
  <node id="-303" visible="true" lat="43.65365219" lon="-72.90911865">
    <tag k="addr:city" v="Mendon" />
    <tag k="addr:housenumber" v="641" />
    <tag k="addr:street" v="Journeys End" />
    <tag k="addr:state" v="VT" />
    <tag k="ref:vcgi:esiteid" v="153460" />
  </node>
  <node id="-304" visible="true" lat="43.65351835" lon="-72.9315261">
    <tag k="addr:city" v="Mendon" />
    <tag k="addr:housenumber" v="259" />
    <tag k="addr:street" v="Meadow Lake Drive" />
    <tag k="addr:state" v="VT" />
    <tag k="ref:vcgi:esiteid" v="153461" />
  </node>
  <node id="-305" visible="true" lat="43.65353701" lon="-72.88950092">
    <tag k="addr:city" v="Mendon" />
    <tag k="addr:housenumber" v="4710" />
    <tag k="addr:street" v="U.S. Route 4" />
    <tag k="addr:state" v="VT" />
    <tag k="ref:vcgi:esiteid" v="153462" />
  </node>
  <node id="-306" visible="true" lat="43.6535189" lon="-72.90615176">
    <tag k="addr:city" v="Mendon" />
    <tag k="addr:housenumber" v="54" />
    <tag k="addr:street" v="Leisure Lane" />
    <tag k="addr:state" v="VT" />
    <tag k="ref:vcgi:esiteid" v="153463" />
  </node>
  <node id="-307" visible="true" lat="43.65348392" lon="-72.88382411">
    <tag k="addr:city" v="Mendon" />
    <tag k="addr:housenumber" v="118" />
    <tag k="addr:street" v="Gateway Court" />
    <tag k="addr:state" v="VT" />
    <tag k="ref:vcgi:esiteid" v="153464" />
  </node>
  <node id="-308" visible="true" lat="43.65338095" lon="-72.90695137">
    <tag k="addr:city" v="Mendon" />
    <tag k="addr:housenumber" v="520" />
    <tag k="addr:street" v="Journeys End" />
    <tag k="addr:state" v="VT" />
    <tag k="ref:vcgi:esiteid" v="153465" />
  </node>
  <node id="-309" visible="true" lat="43.65326254" lon="-72.89126549">
    <tag k="addr:city" v="Mendon" />
    <tag k="addr:housenumber" v="4633" />
    <tag k="addr:street" v="U.S. Route 4" />
    <tag k="addr:state" v="VT" />
    <tag k="ref:vcgi:esiteid" v="153466" />
  </node>
  <node id="-310" visible="true" lat="43.65307615" lon="-72.91209989">
    <tag k="addr:city" v="Mendon" />
    <tag k="addr:housenumber" v="789" />
    <tag k="addr:street" v="Journeys End" />
    <tag k="addr:state" v="VT" />
    <tag k="ref:vcgi:esiteid" v="153467" />
  </node>
  <node id="-311" visible="true" lat="43.65313347" lon="-72.92925312">
    <tag k="addr:city" v="Mendon" />
    <tag k="addr:housenumber" v="212" />
    <tag k="addr:street" v="Meadow Lake Drive" />
    <tag k="addr:state" v="VT" />
    <tag k="ref:vcgi:esiteid" v="153468" />
  </node>
  <node id="-312" visible="true" lat="43.65302436" lon="-72.88549633">
    <tag k="addr:city" v="Mendon" />
    <tag k="addr:housenumber" v="180" />
    <tag k="addr:street" v="Johns Way" />
    <tag k="addr:state" v="VT" />
    <tag k="ref:vcgi:esiteid" v="153469" />
  </node>
  <node id="-313" visible="true" lat="43.65306971" lon="-72.87927794">
    <tag k="addr:city" v="Mendon" />
    <tag k="addr:housenumber" v="429" />
    <tag k="addr:street" v="Black Bear Path" />
    <tag k="addr:state" v="VT" />
    <tag k="ref:vcgi:esiteid" v="153470" />
  </node>
  <node id="-314" visible="true" lat="43.6526982" lon="-72.90614012">
    <tag k="addr:city" v="Mendon" />
    <tag k="addr:housenumber" v="466" />
    <tag k="addr:street" v="Journeys End" />
    <tag k="addr:state" v="VT" />
    <tag k="ref:vcgi:esiteid" v="153471" />
  </node>
  <node id="-315" visible="true" lat="43.65279922" lon="-72.91722495">
    <tag k="addr:city" v="Mendon" />
    <tag k="addr:housenumber" v="240" />
    <tag k="addr:street" v="Medway Road" />
    <tag k="addr:state" v="VT" />
    <tag k="ref:vcgi:esiteid" v="153473" />
  </node>
  <node id="-316" visible="true" lat="43.65254507" lon="-72.88516271">
    <tag k="addr:city" v="Mendon" />
    <tag k="addr:housenumber" v="188" />
    <tag k="addr:street" v="Johns Way" />
    <tag k="addr:state" v="VT" />
    <tag k="ref:vcgi:esiteid" v="153474" />
  </node>
  <node id="-317" visible="true" lat="43.65239673" lon="-72.90443998">
    <tag k="addr:city" v="Mendon" />
    <tag k="addr:housenumber" v="428" />
    <tag k="addr:street" v="Journeys End" />
    <tag k="addr:state" v="VT" />
    <tag k="ref:vcgi:esiteid" v="153475" />
  </node>
  <node id="-318" visible="true" lat="43.65271699" lon="-72.9194382">
    <tag k="addr:city" v="Mendon" />
    <tag k="addr:housenumber" v="125" />
    <tag k="addr:street" v="Medway Road" />
    <tag k="addr:state" v="VT" />
    <tag k="ref:vcgi:esiteid" v="153476" />
  </node>
  <node id="-319" visible="true" lat="43.65234361" lon="-72.90567863">
    <tag k="addr:city" v="Mendon" />
    <tag k="addr:housenumber" v="454" />
    <tag k="addr:street" v="Journeys End" />
    <tag k="addr:state" v="VT" />
    <tag k="ref:vcgi:esiteid" v="153477" />
  </node>
  <node id="-320" visible="true" lat="43.65220371" lon="-72.91994252">
    <tag k="addr:city" v="Mendon" />
    <tag k="addr:housenumber" v="88" />
    <tag k="addr:street" v="Medway Road" />
    <tag k="addr:state" v="VT" />
    <tag k="ref:vcgi:esiteid" v="153478" />
  </node>
  <node id="-321" visible="true" lat="43.65230652" lon="-72.88269162">
    <tag k="addr:city" v="Mendon" />
    <tag k="addr:housenumber" v="273" />
    <tag k="addr:street" v="Black Bear Path" />
    <tag k="addr:state" v="VT" />
    <tag k="ref:vcgi:esiteid" v="153479" />
  </node>
  <node id="-322" visible="true" lat="43.65195884" lon="-72.92604641">
    <tag k="addr:city" v="Mendon" />
    <tag k="addr:housenumber" v="2672" />
    <tag k="addr:street" v="U.S. Route 4" />
    <tag k="addr:state" v="VT" />
    <tag k="ref:vcgi:esiteid" v="153480" />
  </node>
  <node id="-323" visible="true" lat="43.65227972" lon="-72.89351986">
    <tag k="addr:city" v="Mendon" />
    <tag k="addr:housenumber" v="4467" />
    <tag k="addr:street" v="U.S. Route 4" />
    <tag k="addr:state" v="VT" />
    <tag k="ref:vcgi:esiteid" v="153481" />
  </node>
  <node id="-324" visible="true" lat="43.65178226" lon="-72.89238491">
    <tag k="addr:city" v="Mendon" />
    <tag k="addr:housenumber" v="4514" />
    <tag k="addr:street" v="U.S. Route 4" />
    <tag k="addr:state" v="VT" />
    <tag k="ref:vcgi:esiteid" v="153482" />
  </node>
  <node id="-325" visible="true" lat="43.65178835" lon="-72.93041427">
    <tag k="addr:city" v="Mendon" />
    <tag k="addr:housenumber" v="87" />
    <tag k="addr:street" v="Meadow Lake Drive" />
    <tag k="addr:state" v="VT" />
    <tag k="ref:vcgi:esiteid" v="153483" />
  </node>
  <node id="-326" visible="true" lat="43.65166833" lon="-72.89270829">
    <tag k="addr:city" v="Mendon" />
    <tag k="addr:housenumber" v="4498" />
    <tag k="addr:street" v="U.S. Route 4" />
    <tag k="addr:state" v="VT" />
    <tag k="ref:vcgi:esiteid" v="153484" />
  </node>
  <node id="-327" visible="true" lat="43.65142836" lon="-72.92663717">
    <tag k="addr:city" v="Mendon" />
    <tag k="addr:housenumber" v="2600" />
    <tag k="addr:street" v="U.S. Route 4" />
    <tag k="addr:state" v="VT" />
    <tag k="ref:vcgi:esiteid" v="153486" />
  </node>
  <node id="-328" visible="true" lat="43.65161499" lon="-72.88069368">
    <tag k="addr:city" v="Mendon" />
    <tag k="addr:housenumber" v="404" />
    <tag k="addr:street" v="Black Bear Path" />
    <tag k="addr:state" v="VT" />
    <tag k="ref:vcgi:esiteid" v="153487" />
  </node>
  <node id="-329" visible="true" lat="43.6514545" lon="-72.90735972">
    <tag k="addr:city" v="Mendon" />
    <tag k="addr:housenumber" v="465" />
    <tag k="addr:street" v="Journeys End" />
    <tag k="addr:state" v="VT" />
    <tag k="ref:vcgi:esiteid" v="153488" />
  </node>
  <node id="-330" visible="true" lat="43.65125967" lon="-72.92680203">
    <tag k="addr:city" v="Mendon" />
    <tag k="addr:housenumber" v="2596" />
    <tag k="addr:street" v="U.S. Route 4" />
    <tag k="addr:state" v="VT" />
    <tag k="ref:vcgi:esiteid" v="153489" />
  </node>
  <node id="-331" visible="true" lat="43.65152787" lon="-72.88151383">
    <tag k="addr:city" v="Mendon" />
    <tag k="addr:housenumber" v="324" />
    <tag k="addr:street" v="Black Bear Path" />
    <tag k="addr:state" v="VT" />
    <tag k="ref:vcgi:esiteid" v="153490" />
  </node>
  <node id="-332" visible="true" lat="43.6512408" lon="-72.89300607">
    <tag k="addr:city" v="Mendon" />
    <tag k="addr:housenumber" v="4486" />
    <tag k="addr:street" v="U.S. Route 4" />
    <tag k="addr:state" v="VT" />
    <tag k="ref:vcgi:esiteid" v="153491" />
  </node>
  <node id="-333" visible="true" lat="43.65126096" lon="-72.90640039">
    <tag k="addr:city" v="Mendon" />
    <tag k="addr:housenumber" v="463" />
    <tag k="addr:street" v="Journeys End" />
    <tag k="addr:state" v="VT" />
    <tag k="ref:vcgi:esiteid" v="153492" />
  </node>
  <node id="-334" visible="true" lat="43.65121407" lon="-72.88280489">
    <tag k="addr:city" v="Mendon" />
    <tag k="addr:housenumber" v="264" />
    <tag k="addr:street" v="Black Bear Path" />
    <tag k="addr:state" v="VT" />
    <tag k="ref:vcgi:esiteid" v="153493" />
  </node>
  <node id="-335" visible="true" lat="43.65114604" lon="-72.90532071">
    <tag k="addr:city" v="Mendon" />
    <tag k="addr:housenumber" v="397" />
    <tag k="addr:street" v="Journeys End" />
    <tag k="addr:state" v="VT" />
    <tag k="ref:vcgi:esiteid" v="153494" />
  </node>
  <node id="-336" visible="true" lat="43.65097439" lon="-72.92814855">
    <tag k="addr:city" v="Mendon" />
    <tag k="addr:housenumber" v="2563" />
    <tag k="addr:street" v="U.S. Route 4" />
    <tag k="addr:state" v="VT" />
    <tag k="ref:vcgi:esiteid" v="153495" />
  </node>
  <node id="-337" visible="true" lat="43.65087519" lon="-72.89587807">
    <tag k="addr:city" v="Mendon" />
    <tag k="addr:housenumber" v="4333" />
    <tag k="addr:street" v="U.S. Route 4" />
    <tag k="addr:state" v="VT" />
    <tag k="ref:vcgi:esiteid" v="153496" />
  </node>
  <node id="-338" visible="true" lat="43.65068789" lon="-72.92910637">
    <tag k="addr:city" v="Mendon" />
    <tag k="addr:housenumber" v="208" />
    <tag k="addr:street" v="Sugar Lane" />
    <tag k="addr:state" v="VT" />
    <tag k="ref:vcgi:esiteid" v="153497" />
  </node>
  <node id="-339" visible="true" lat="43.65069522" lon="-72.89712912">
    <tag k="addr:city" v="Mendon" />
    <tag k="addr:housenumber" v="4297" />
    <tag k="addr:street" v="U.S. Route 4" />
    <tag k="addr:state" v="VT" />
    <tag k="ref:vcgi:esiteid" v="153498" />
  </node>
  <node id="-340" visible="true" lat="43.6505685" lon="-72.9271655">
    <tag k="addr:city" v="Mendon" />
    <tag k="addr:housenumber" v="2556" />
    <tag k="addr:street" v="U.S. Route 4" />
    <tag k="addr:state" v="VT" />
    <tag k="ref:vcgi:esiteid" v="153499" />
  </node>
  <node id="-341" visible="true" lat="43.65047904" lon="-72.88998932">
    <tag k="addr:city" v="Mendon" />
    <tag k="addr:housenumber" v="239" />
    <tag k="addr:street" v="Woodward Road" />
    <tag k="addr:state" v="VT" />
    <tag k="ref:vcgi:esiteid" v="153500" />
  </node>
  <node id="-342" visible="true" lat="43.65022254" lon="-72.88469175">
    <tag k="addr:city" v="Mendon" />
    <tag k="addr:housenumber" v="152" />
    <tag k="addr:street" v="Black Bear Path" />
    <tag k="addr:state" v="VT" />
    <tag k="ref:vcgi:esiteid" v="153501" />
  </node>
  <node id="-343" visible="true" lat="43.65016615" lon="-72.9274156">
    <tag k="addr:city" v="Mendon" />
    <tag k="addr:housenumber" v="2522" />
    <tag k="addr:street" v="U.S. Route 4" />
    <tag k="addr:state" v="VT" />
    <tag k="ref:vcgi:esiteid" v="153502" />
  </node>
  <node id="-344" visible="true" lat="43.65018361" lon="-72.89766453">
    <tag k="addr:city" v="Mendon" />
    <tag k="addr:housenumber" v="4293" />
    <tag k="addr:street" v="U.S. Route 4" />
    <tag k="addr:state" v="VT" />
    <tag k="ref:vcgi:esiteid" v="153503" />
  </node>
  <node id="-345" visible="true" lat="43.65014532" lon="-72.88276366">
    <tag k="addr:city" v="Mendon" />
    <tag k="addr:housenumber" v="113" />
    <tag k="addr:street" v="Deer Run" />
    <tag k="addr:state" v="VT" />
    <tag k="ref:vcgi:esiteid" v="153504" />
  </node>
  <node id="-346" visible="true" lat="43.65016113" lon="-72.93185062">
    <tag k="addr:city" v="Mendon" />
    <tag k="addr:housenumber" v="81" />
    <tag k="addr:street" v="Sugar Lane" />
    <tag k="addr:state" v="VT" />
    <tag k="ref:vcgi:esiteid" v="153505" />
  </node>
  <node id="-347" visible="true" lat="43.65030661" lon="-72.88615132">
    <tag k="addr:city" v="Mendon" />
    <tag k="addr:housenumber" v="109" />
    <tag k="addr:street" v="Red Clover Lane" />
    <tag k="addr:state" v="VT" />
    <tag k="ref:vcgi:esiteid" v="153506" />
  </node>
  <node id="-348" visible="true" lat="43.6498793" lon="-72.92762083">
    <tag k="addr:city" v="Mendon" />
    <tag k="addr:housenumber" v="2498" />
    <tag k="addr:street" v="U.S. Route 4" />
    <tag k="addr:state" v="VT" />
    <tag k="ref:vcgi:esiteid" v="153507" />
  </node>
  <node id="-349" visible="true" lat="43.6500933" lon="-72.88835068">
    <tag k="addr:city" v="Mendon" />
    <tag k="addr:housenumber" v="337" />
    <tag k="addr:street" v="Woodward Road" />
    <tag k="addr:state" v="VT" />
    <tag k="ref:vcgi:esiteid" v="153508" />
  </node>
  <node id="-350" visible="true" lat="43.64972206" lon="-72.90422854">
    <tag k="addr:city" v="Mendon" />
    <tag k="addr:housenumber" v="241" />
    <tag k="addr:street" v="Journeys End" />
    <tag k="addr:state" v="VT" />
    <tag k="ref:vcgi:esiteid" v="153509" />
  </node>
  <node id="-351" visible="true" lat="43.64980672" lon="-72.88658317">
    <tag k="addr:city" v="Mendon" />
    <tag k="addr:housenumber" v="70" />
    <tag k="addr:street" v="Red Clover Lane" />
    <tag k="addr:state" v="VT" />
    <tag k="ref:vcgi:esiteid" v="153510" />
  </node>
  <node id="-352" visible="true" lat="43.6495832" lon="-72.92781066">
    <tag k="addr:city" v="Mendon" />
    <tag k="addr:housenumber" v="2472" />
    <tag k="addr:street" v="U.S. Route 4" />
    <tag k="addr:state" v="VT" />
    <tag k="ref:vcgi:esiteid" v="153511" />
  </node>
  <node id="-353" visible="true" lat="43.64975675" lon="-72.88151953">
    <tag k="addr:city" v="Mendon" />
    <tag k="addr:housenumber" v="193" />
    <tag k="addr:street" v="Deer Run" />
    <tag k="addr:state" v="VT" />
    <tag k="ref:vcgi:esiteid" v="153512" />
  </node>
  <node id="-354" visible="true" lat="43.64960642" lon="-72.88652596">
    <tag k="addr:city" v="Mendon" />
    <tag k="addr:housenumber" v="54" />
    <tag k="addr:street" v="Red Clover Lane" />
    <tag k="addr:state" v="VT" />
    <tag k="ref:vcgi:esiteid" v="153513" />
  </node>
  <node id="-355" visible="true" lat="43.64942822" lon="-72.90263102">
    <tag k="addr:city" v="Mendon" />
    <tag k="addr:housenumber" v="180" />
    <tag k="addr:street" v="Journeys End" />
    <tag k="addr:state" v="VT" />
    <tag k="ref:vcgi:esiteid" v="153514" />
  </node>
  <node id="-356" visible="true" lat="43.64936035" lon="-72.88322067">
    <tag k="addr:city" v="Mendon" />
    <tag k="addr:housenumber" v="160" />
    <tag k="addr:street" v="Deer Run" />
    <tag k="addr:state" v="VT" />
    <tag k="ref:vcgi:esiteid" v="153515" />
  </node>
  <node id="-357" visible="true" lat="43.64915537" lon="-72.89831338">
    <tag k="addr:city" v="Mendon" />
    <tag k="addr:housenumber" v="4153" />
    <tag k="addr:street" v="U.S. Route 4" />
    <tag k="addr:state" v="VT" />
    <tag k="ref:vcgi:esiteid" v="153516" />
  </node>
  <node id="-358" visible="true" lat="43.64902441" lon="-72.8811107">
    <tag k="addr:city" v="Mendon" />
    <tag k="addr:housenumber" v="237" />
    <tag k="addr:street" v="Deer Run" />
    <tag k="addr:state" v="VT" />
    <tag k="ref:vcgi:esiteid" v="153517" />
  </node>
  <node id="-359" visible="true" lat="43.64865477" lon="-72.88439689">
    <tag k="addr:city" v="Mendon" />
    <tag k="addr:housenumber" v="56" />
    <tag k="addr:street" v="Deer Run" />
    <tag k="addr:state" v="VT" />
    <tag k="ref:vcgi:esiteid" v="153518" />
  </node>
  <node id="-360" visible="true" lat="43.64834994" lon="-72.92754499">
    <tag k="addr:city" v="Mendon" />
    <tag k="addr:housenumber" v="176" />
    <tag k="addr:street" v="Old Stockbridge Path" />
    <tag k="addr:state" v="VT" />
    <tag k="ref:vcgi:esiteid" v="153519" />
  </node>
  <node id="-361" visible="true" lat="43.64833856" lon="-72.88263726">
    <tag k="addr:city" v="Mendon" />
    <tag k="addr:housenumber" v="230" />
    <tag k="addr:street" v="Deer Run" />
    <tag k="addr:state" v="VT" />
    <tag k="ref:vcgi:esiteid" v="153520" />
  </node>
  <node id="-362" visible="true" lat="43.64825001" lon="-72.88652324">
    <tag k="addr:city" v="Mendon" />
    <tag k="addr:housenumber" v="506" />
    <tag k="addr:street" v="Woodward Road" />
    <tag k="addr:state" v="VT" />
    <tag k="ref:vcgi:esiteid" v="153521" />
  </node>
  <node id="-363" visible="true" lat="43.648041" lon="-72.88495748">
    <tag k="addr:city" v="Mendon" />
    <tag k="addr:housenumber" v="559" />
    <tag k="addr:street" v="Woodward Road" />
    <tag k="addr:state" v="VT" />
    <tag k="ref:vcgi:esiteid" v="153522" />
  </node>
  <node id="-364" visible="true" lat="43.64729038" lon="-72.93648203">
    <tag k="addr:city" v="Mendon" />
    <tag k="addr:housenumber" v="302" />
    <tag k="addr:street" v="Park Lane" />
    <tag k="addr:state" v="VT" />
    <tag k="ref:vcgi:esiteid" v="153523" />
  </node>
  <node id="-365" visible="true" lat="43.64741185" lon="-72.92833572">
    <tag k="addr:city" v="Mendon" />
    <tag k="addr:housenumber" v="2282" />
    <tag k="addr:street" v="U.S. Route 4" />
    <tag k="addr:state" v="VT" />
    <tag k="ref:vcgi:esiteid" v="153525" />
  </node>
  <node id="-366" visible="true" lat="43.64703277" lon="-72.88626017">
    <tag k="addr:city" v="Mendon" />
    <tag k="addr:housenumber" v="612" />
    <tag k="addr:street" v="Woodward Road" />
    <tag k="addr:state" v="VT" />
    <tag k="ref:vcgi:esiteid" v="153526" />
  </node>
  <node id="-367" visible="true" lat="43.64709824" lon="-72.92856472">
    <tag k="addr:city" v="Mendon" />
    <tag k="addr:housenumber" v="2280" />
    <tag k="addr:street" v="U.S. Route 4" />
    <tag k="addr:state" v="VT" />
    <tag k="ref:vcgi:esiteid" v="153527" />
  </node>
  <node id="-368" visible="true" lat="43.64672791" lon="-72.88359479">
    <tag k="addr:city" v="Mendon" />
    <tag k="addr:housenumber" v="430" />
    <tag k="addr:street" v="Deer Run" />
    <tag k="addr:state" v="VT" />
    <tag k="ref:vcgi:esiteid" v="153528" />
  </node>
  <node id="-369" visible="true" lat="43.64644047" lon="-72.9304333">
    <tag k="addr:city" v="Mendon" />
    <tag k="addr:housenumber" v="80" />
    <tag k="addr:street" v="Park Lane" />
    <tag k="addr:state" v="VT" />
    <tag k="ref:vcgi:esiteid" v="153529" />
  </node>
  <node id="-370" visible="true" lat="43.64643886" lon="-72.93165857">
    <tag k="addr:city" v="Mendon" />
    <tag k="addr:housenumber" v="118" />
    <tag k="addr:street" v="Park Lane" />
    <tag k="addr:state" v="VT" />
    <tag k="ref:vcgi:esiteid" v="153530" />
  </node>
  <node id="-371" visible="true" lat="43.64577326" lon="-72.93327807">
    <tag k="addr:city" v="Mendon" />
    <tag k="addr:housenumber" v="195" />
    <tag k="addr:street" v="Park Lane" />
    <tag k="addr:state" v="VT" />
    <tag k="ref:vcgi:esiteid" v="153532" />
  </node>
  <node id="-372" visible="true" lat="43.64581761" lon="-72.93260905">
    <tag k="addr:city" v="Mendon" />
    <tag k="addr:housenumber" v="179" />
    <tag k="addr:street" v="Park Lane" />
    <tag k="addr:state" v="VT" />
    <tag k="ref:vcgi:esiteid" v="153533" />
  </node>
  <node id="-373" visible="true" lat="43.6457723" lon="-72.93406757">
    <tag k="addr:city" v="Mendon" />
    <tag k="addr:housenumber" v="237" />
    <tag k="addr:street" v="Park Lane" />
    <tag k="addr:state" v="VT" />
    <tag k="ref:vcgi:esiteid" v="153534" />
  </node>
  <node id="-374" visible="true" lat="43.64569547" lon="-72.93141907">
    <tag k="addr:city" v="Mendon" />
    <tag k="addr:housenumber" v="125" />
    <tag k="addr:street" v="Park Lane" />
    <tag k="addr:state" v="VT" />
    <tag k="ref:vcgi:esiteid" v="153535" />
  </node>
  <node id="-375" visible="true" lat="43.64604579" lon="-72.88382257">
    <tag k="addr:city" v="Mendon" />
    <tag k="addr:housenumber" v="484" />
    <tag k="addr:street" v="Deer Run" />
    <tag k="addr:state" v="VT" />
    <tag k="ref:vcgi:esiteid" v="153536" />
  </node>
  <node id="-376" visible="true" lat="43.64566497" lon="-72.93456295">
    <tag k="addr:city" v="Mendon" />
    <tag k="addr:housenumber" v="24" />
    <tag k="addr:street" v="Cedar Lane" />
    <tag k="addr:state" v="VT" />
    <tag k="ref:vcgi:esiteid" v="153537" />
  </node>
  <node id="-377" visible="true" lat="43.64562142" lon="-72.93078521">
    <tag k="addr:city" v="Mendon" />
    <tag k="addr:housenumber" v="89" />
    <tag k="addr:street" v="Park Lane" />
    <tag k="addr:state" v="VT" />
    <tag k="ref:vcgi:esiteid" v="153538" />
  </node>
  <node id="-378" visible="true" lat="43.64569474" lon="-72.88131959">
    <tag k="addr:city" v="Mendon" />
    <tag k="addr:housenumber" v="91" />
    <tag k="addr:street" v="Milliway" />
    <tag k="addr:state" v="VT" />
    <tag k="ref:vcgi:esiteid" v="153539" />
  </node>
  <node id="-379" visible="true" lat="43.64477654" lon="-72.93210101">
    <tag k="addr:city" v="Mendon" />
    <tag k="addr:housenumber" v="157" />
    <tag k="addr:street" v="Park Lane" />
    <tag k="addr:state" v="VT" />
    <tag k="ref:vcgi:esiteid" v="153540" />
  </node>
  <node id="-380" visible="true" lat="43.64529631" lon="-72.93457307">
    <tag k="addr:city" v="Mendon" />
    <tag k="addr:housenumber" v="54" />
    <tag k="addr:street" v="Cedar Lane" />
    <tag k="addr:state" v="VT" />
    <tag k="ref:vcgi:esiteid" v="153541" />
  </node>
  <node id="-381" visible="true" lat="43.64521026" lon="-72.92989349">
    <tag k="addr:city" v="Mendon" />
    <tag k="addr:housenumber" v="2149" />
    <tag k="addr:street" v="U.S. Route 4" />
    <tag k="addr:state" v="VT" />
    <tag k="ref:vcgi:esiteid" v="153542" />
  </node>
  <node id="-382" visible="true" lat="43.64504623" lon="-72.93400573">
    <tag k="addr:city" v="Mendon" />
    <tag k="addr:housenumber" v="71" />
    <tag k="addr:street" v="Cedar Lane" />
    <tag k="addr:state" v="VT" />
    <tag k="ref:vcgi:esiteid" v="153544" />
  </node>
  <node id="-383" visible="true" lat="43.64519158" lon="-72.88426331">
    <tag k="addr:city" v="Mendon" />
    <tag k="addr:housenumber" v="557" />
    <tag k="addr:street" v="Deer Run" />
    <tag k="addr:state" v="VT" />
    <tag k="ref:vcgi:esiteid" v="153545" />
  </node>
  <node id="-384" visible="true" lat="43.64474633" lon="-72.93454971">
    <tag k="addr:city" v="Mendon" />
    <tag k="addr:housenumber" v="86" />
    <tag k="addr:street" v="Cedar Lane" />
    <tag k="addr:state" v="VT" />
    <tag k="ref:vcgi:esiteid" v="153546" />
  </node>
  <node id="-385" visible="true" lat="43.64445081" lon="-72.93445801">
    <tag k="addr:city" v="Mendon" />
    <tag k="addr:housenumber" v="102" />
    <tag k="addr:street" v="Cedar Lane" />
    <tag k="addr:state" v="VT" />
    <tag k="ref:vcgi:esiteid" v="153547" />
  </node>
  <node id="-386" visible="true" lat="43.64436145" lon="-72.93386943">
    <tag k="addr:city" v="Mendon" />
    <tag k="addr:housenumber" v="121" />
    <tag k="addr:street" v="Cedar Lane" />
    <tag k="addr:state" v="VT" />
    <tag k="ref:vcgi:esiteid" v="153548" />
  </node>
  <node id="-387" visible="true" lat="43.64420882" lon="-72.92998001">
    <tag k="addr:city" v="Mendon" />
    <tag k="addr:housenumber" v="2080" />
    <tag k="addr:street" v="U.S. Route 4" />
    <tag k="addr:state" v="VT" />
    <tag k="ref:vcgi:esiteid" v="153549" />
  </node>
  <node id="-388" visible="true" lat="43.64427109" lon="-72.9304918">
    <tag k="addr:city" v="Mendon" />
    <tag k="addr:housenumber" v="2085" />
    <tag k="addr:street" v="U.S. Route 4" />
    <tag k="addr:state" v="VT" />
    <tag k="ref:vcgi:esiteid" v="153550" />
  </node>
  <node id="-389" visible="true" lat="43.64400872" lon="-72.93436824">
    <tag k="addr:city" v="Mendon" />
    <tag k="addr:housenumber" v="144" />
    <tag k="addr:street" v="Cedar Lane" />
    <tag k="addr:state" v="VT" />
    <tag k="ref:vcgi:esiteid" v="153551" />
  </node>
  <node id="-390" visible="true" lat="43.64404462" lon="-72.93061328">
    <tag k="addr:city" v="Mendon" />
    <tag k="addr:housenumber" v="2067" />
    <tag k="addr:street" v="U.S. Route 4" />
    <tag k="addr:state" v="VT" />
    <tag k="ref:vcgi:esiteid" v="153552" />
  </node>
  <node id="-391" visible="true" lat="43.64369197" lon="-72.93393654">
    <tag k="addr:city" v="Mendon" />
    <tag k="addr:housenumber" v="165" />
    <tag k="addr:street" v="Cedar Lane" />
    <tag k="addr:state" v="VT" />
    <tag k="ref:vcgi:esiteid" v="153553" />
  </node>
  <node id="-392" visible="true" lat="43.64368897" lon="-72.93077801">
    <tag k="addr:city" v="Mendon" />
    <tag k="addr:housenumber" v="2045" />
    <tag k="addr:street" v="U.S. Route 4" />
    <tag k="addr:state" v="VT" />
    <tag k="ref:vcgi:esiteid" v="153554" />
  </node>
  <node id="-393" visible="true" lat="43.64347577" lon="-72.93443748">
    <tag k="addr:city" v="Mendon" />
    <tag k="addr:housenumber" v="186" />
    <tag k="addr:street" v="Cedar Lane" />
    <tag k="addr:state" v="VT" />
    <tag k="ref:vcgi:esiteid" v="153555" />
  </node>
  <node id="-394" visible="true" lat="43.64349346" lon="-72.9309444">
    <tag k="addr:city" v="Mendon" />
    <tag k="addr:housenumber" v="2029" />
    <tag k="addr:street" v="U.S. Route 4" />
    <tag k="addr:state" v="VT" />
    <tag k="ref:vcgi:esiteid" v="153556" />
  </node>
  <node id="-395" visible="true" lat="43.64334189" lon="-72.93031227">
    <tag k="addr:city" v="Mendon" />
    <tag k="addr:housenumber" v="2002" />
    <tag k="addr:street" v="U.S. Route 4" />
    <tag k="addr:state" v="VT" />
    <tag k="ref:vcgi:esiteid" v="153557" />
  </node>
  <node id="-396" visible="true" lat="43.64315859" lon="-72.93392212">
    <tag k="addr:city" v="Mendon" />
    <tag k="addr:housenumber" v="201" />
    <tag k="addr:street" v="Cedar Lane" />
    <tag k="addr:state" v="VT" />
    <tag k="ref:vcgi:esiteid" v="153558" />
  </node>
  <node id="-397" visible="true" lat="43.64332894" lon="-72.93132337">
    <tag k="addr:city" v="Mendon" />
    <tag k="addr:housenumber" v="1997" />
    <tag k="addr:street" v="U.S. Route 4" />
    <tag k="addr:state" v="VT" />
    <tag k="ref:vcgi:esiteid" v="153559" />
  </node>
  <node id="-398" visible="true" lat="43.64317991" lon="-72.93510121">
    <tag k="addr:city" v="Mendon" />
    <tag k="addr:housenumber" v="20" />
    <tag k="addr:street" v="Hemlock Lane" />
    <tag k="addr:state" v="VT" />
    <tag k="ref:vcgi:esiteid" v="153560" />
  </node>
  <node id="-399" visible="true" lat="43.6430756" lon="-72.93454846">
    <tag k="addr:city" v="Mendon" />
    <tag k="addr:housenumber" v="218" />
    <tag k="addr:street" v="Cedar Lane" />
    <tag k="addr:state" v="VT" />
    <tag k="ref:vcgi:esiteid" v="153561" />
  </node>
  <node id="-400" visible="true" lat="43.64278728" lon="-72.93052222">
    <tag k="addr:city" v="Mendon" />
    <tag k="addr:housenumber" v="1990" />
    <tag k="addr:street" v="U.S. Route 4" />
    <tag k="addr:state" v="VT" />
    <tag k="ref:vcgi:esiteid" v="153562" />
  </node>
  <node id="-401" visible="true" lat="43.6428382" lon="-72.93410805">
    <tag k="addr:city" v="Mendon" />
    <tag k="addr:housenumber" v="217" />
    <tag k="addr:street" v="Cedar Lane" />
    <tag k="addr:state" v="VT" />
    <tag k="ref:vcgi:esiteid" v="153563" />
  </node>
  <node id="-402" visible="true" lat="43.6427967" lon="-72.93131262">
    <tag k="addr:city" v="Mendon" />
    <tag k="addr:housenumber" v="1967" />
    <tag k="addr:street" v="U.S. Route 4" />
    <tag k="addr:state" v="VT" />
    <tag k="ref:vcgi:esiteid" v="153564" />
  </node>
  <node id="-403" visible="true" lat="43.64277227" lon="-72.88736924">
    <tag k="addr:city" v="Mendon" />
    <tag k="addr:housenumber" v="1042" />
    <tag k="addr:street" v="Wheelerville Road" />
    <tag k="addr:state" v="VT" />
    <tag k="ref:vcgi:esiteid" v="153565" />
  </node>
  <node id="-404" visible="true" lat="43.64253387" lon="-72.93059706">
    <tag k="addr:city" v="Mendon" />
    <tag k="addr:housenumber" v="1978" />
    <tag k="addr:street" v="U.S. Route 4" />
    <tag k="addr:state" v="VT" />
    <tag k="ref:vcgi:esiteid" v="153566" />
  </node>
  <node id="-405" visible="true" lat="43.64243004" lon="-72.93434715">
    <tag k="addr:city" v="Mendon" />
    <tag k="addr:housenumber" v="229" />
    <tag k="addr:street" v="Cedar Lane" />
    <tag k="addr:state" v="VT" />
    <tag k="ref:vcgi:esiteid" v="153567" />
  </node>
  <node id="-406" visible="true" lat="43.6425386" lon="-72.93512069">
    <tag k="addr:city" v="Mendon" />
    <tag k="addr:housenumber" v="258" />
    <tag k="addr:street" v="Cedar Lane" />
    <tag k="addr:state" v="VT" />
    <tag k="ref:vcgi:esiteid" v="153568" />
  </node>
  <node id="-407" visible="true" lat="43.64257718" lon="-72.89827202">
    <tag k="addr:city" v="Mendon" />
    <tag k="addr:housenumber" v="318" />
    <tag k="addr:street" v="Wheelerville Road" />
    <tag k="addr:state" v="VT" />
    <tag k="ref:vcgi:esiteid" v="153569" />
  </node>
  <node id="-408" visible="true" lat="43.64207546" lon="-72.93545331">
    <tag k="addr:city" v="Mendon" />
    <tag k="addr:housenumber" v="273" />
    <tag k="addr:street" v="Cedar Lane" />
    <tag k="addr:state" v="VT" />
    <tag k="ref:vcgi:esiteid" v="153570" />
  </node>
  <node id="-409" visible="true" lat="43.6421457" lon="-72.93426505">
    <tag k="addr:city" v="Mendon" />
    <tag k="addr:housenumber" v="239" />
    <tag k="addr:street" v="Cedar Lane" />
    <tag k="addr:state" v="VT" />
    <tag k="ref:vcgi:esiteid" v="153571" />
  </node>
  <node id="-410" visible="true" lat="43.64219665" lon="-72.89220428">
    <tag k="addr:city" v="Mendon" />
    <tag k="addr:housenumber" v="810" />
    <tag k="addr:street" v="Wheelerville Road" />
    <tag k="addr:state" v="VT" />
    <tag k="ref:vcgi:esiteid" v="153572" />
  </node>
  <node id="-411" visible="true" lat="43.64194756" lon="-72.93190817">
    <tag k="addr:city" v="Mendon" />
    <tag k="addr:housenumber" v="1901" />
    <tag k="addr:street" v="U.S. Route 4" />
    <tag k="addr:state" v="VT" />
    <tag k="ref:vcgi:esiteid" v="153573" />
  </node>
  <node id="-412" visible="true" lat="43.64192268" lon="-72.93118873">
    <tag k="addr:city" v="Mendon" />
    <tag k="addr:housenumber" v="1922" />
    <tag k="addr:street" v="U.S. Route 4" />
    <tag k="addr:state" v="VT" />
    <tag k="ref:vcgi:esiteid" v="153574" />
  </node>
  <node id="-413" visible="true" lat="43.64155531" lon="-72.93147646">
    <tag k="addr:city" v="Mendon" />
    <tag k="addr:housenumber" v="1894" />
    <tag k="addr:street" v="U.S. Route 4" />
    <tag k="addr:state" v="VT" />
    <tag k="ref:vcgi:esiteid" v="153575" />
  </node>
  <node id="-414" visible="true" lat="43.64119189" lon="-72.93756245">
    <tag k="addr:city" v="Mendon" />
    <tag k="addr:housenumber" v="201" />
    <tag k="addr:street" v="Hemlock Lane" />
    <tag k="addr:state" v="VT" />
    <tag k="ref:vcgi:esiteid" v="153576" />
  </node>
  <node id="-415" visible="true" lat="43.64110572" lon="-72.93172159">
    <tag k="addr:city" v="Mendon" />
    <tag k="addr:housenumber" v="17" />
    <tag k="addr:street" v="Gale Grove" />
    <tag k="addr:state" v="VT" />
    <tag k="ref:vcgi:esiteid" v="153577" />
  </node>
  <node id="-416" visible="true" lat="43.64093067" lon="-72.9316756">
    <tag k="addr:city" v="Mendon" />
    <tag k="addr:housenumber" v="27" />
    <tag k="addr:street" v="Gale Grove" />
    <tag k="addr:state" v="VT" />
    <tag k="ref:vcgi:esiteid" v="153579" />
  </node>
  <node id="-417" visible="true" lat="43.6408843" lon="-72.93272844">
    <tag k="addr:city" v="Mendon" />
    <tag k="addr:housenumber" v="1827" />
    <tag k="addr:street" v="U.S. Route 4" />
    <tag k="addr:state" v="VT" />
    <tag k="ref:vcgi:esiteid" v="153580" />
  </node>
  <node id="-418" visible="true" lat="43.64080307" lon="-72.93164599">
    <tag k="addr:city" v="Mendon" />
    <tag k="addr:housenumber" v="37" />
    <tag k="addr:street" v="Gale Grove" />
    <tag k="addr:state" v="VT" />
    <tag k="ref:vcgi:esiteid" v="153581" />
  </node>
  <node id="-419" visible="true" lat="43.64053723" lon="-72.93209476">
    <tag k="addr:city" v="Mendon" />
    <tag k="addr:housenumber" v="56" />
    <tag k="addr:street" v="Gale Grove" />
    <tag k="addr:state" v="VT" />
    <tag k="ref:vcgi:esiteid" v="153582" />
  </node>
  <node id="-420" visible="true" lat="43.64100772" lon="-72.9342279">
    <tag k="addr:city" v="Mendon" />
    <tag k="addr:housenumber" v="90" />
    <tag k="addr:street" v="Stoney Meadows Lane" />
    <tag k="addr:state" v="VT" />
    <tag k="ref:vcgi:esiteid" v="153583" />
  </node>
  <node id="-421" visible="true" lat="43.64067106" lon="-72.9316605">
    <tag k="addr:city" v="Mendon" />
    <tag k="addr:housenumber" v="57" />
    <tag k="addr:street" v="Gale Grove" />
    <tag k="addr:state" v="VT" />
    <tag k="ref:vcgi:esiteid" v="153584" />
  </node>
  <node id="-422" visible="true" lat="43.64038466" lon="-72.93160739">
    <tag k="addr:city" v="Mendon" />
    <tag k="addr:housenumber" v="75" />
    <tag k="addr:street" v="Gale Grove" />
    <tag k="addr:state" v="VT" />
    <tag k="ref:vcgi:esiteid" v="153585" />
  </node>
  <node id="-423" visible="true" lat="43.64012657" lon="-72.9324574">
    <tag k="addr:city" v="Mendon" />
    <tag k="addr:housenumber" v="1800" />
    <tag k="addr:street" v="U.S. Route 4" />
    <tag k="addr:state" v="VT" />
    <tag k="ref:vcgi:esiteid" v="153586" />
  </node>
  <node id="-424" visible="true" lat="43.6402055" lon="-72.93160385">
    <tag k="addr:city" v="Mendon" />
    <tag k="addr:housenumber" v="87" />
    <tag k="addr:street" v="Gale Grove" />
    <tag k="addr:state" v="VT" />
    <tag k="ref:vcgi:esiteid" v="153587" />
  </node>
  <node id="-425" visible="true" lat="43.63949109" lon="-72.93364869">
    <tag k="addr:city" v="Mendon" />
    <tag k="addr:housenumber" v="1697" />
    <tag k="addr:street" v="U.S. Route 4" />
    <tag k="addr:state" v="VT" />
    <tag k="ref:vcgi:esiteid" v="153588" />
  </node>
  <node id="-426" visible="true" lat="43.63900822" lon="-72.93389896">
    <tag k="addr:city" v="Mendon" />
    <tag k="addr:housenumber" v="1693" />
    <tag k="addr:street" v="U.S. Route 4" />
    <tag k="addr:state" v="VT" />
    <tag k="ref:vcgi:esiteid" v="153589" />
  </node>
  <node id="-427" visible="true" lat="43.6386856" lon="-72.93397355">
    <tag k="addr:city" v="Mendon" />
    <tag k="addr:housenumber" v="10" />
    <tag k="addr:street" v="Chalet Heights" />
    <tag k="addr:state" v="VT" />
    <tag k="ref:vcgi:esiteid" v="153590" />
  </node>
  <node id="-428" visible="true" lat="43.6387825" lon="-72.86942291">
    <tag k="addr:city" v="Mendon" />
    <tag k="addr:housenumber" v="2513" />
    <tag k="addr:street" v="Wheelerville Road" />
    <tag k="addr:state" v="VT" />
    <tag k="ref:vcgi:esiteid" v="153591" />
  </node>
  <node id="-429" visible="true" lat="43.63851135" lon="-72.93636285">
    <tag k="addr:city" v="Mendon" />
    <tag k="addr:housenumber" v="130" />
    <tag k="addr:street" v="Chalet Heights" />
    <tag k="addr:state" v="VT" />
    <tag k="ref:vcgi:esiteid" v="153592" />
  </node>
  <node id="-430" visible="true" lat="43.6384639" lon="-72.93562803">
    <tag k="addr:city" v="Mendon" />
    <tag k="addr:housenumber" v="117" />
    <tag k="addr:street" v="Chalet Heights" />
    <tag k="addr:state" v="VT" />
    <tag k="ref:vcgi:esiteid" v="153593" />
  </node>
  <node id="-431" visible="true" lat="43.63836418" lon="-72.93520591">
    <tag k="addr:city" v="Mendon" />
    <tag k="addr:housenumber" v="87" />
    <tag k="addr:street" v="Chalet Heights" />
    <tag k="addr:state" v="VT" />
    <tag k="ref:vcgi:esiteid" v="153594" />
  </node>
  <node id="-432" visible="true" lat="43.63832669" lon="-72.93509402">
    <tag k="addr:city" v="Mendon" />
    <tag k="addr:housenumber" v="75" />
    <tag k="addr:street" v="Chalet Heights" />
    <tag k="addr:state" v="VT" />
    <tag k="ref:vcgi:esiteid" v="153595" />
  </node>
  <node id="-433" visible="true" lat="43.63840818" lon="-72.93416806">
    <tag k="addr:city" v="Mendon" />
    <tag k="addr:housenumber" v="1635" />
    <tag k="addr:street" v="U.S. Route 4" />
    <tag k="addr:state" v="VT" />
    <tag k="ref:vcgi:esiteid" v="153596" />
  </node>
  <node id="-434" visible="true" lat="43.63805622" lon="-72.93340761">
    <tag k="addr:city" v="Mendon" />
    <tag k="addr:housenumber" v="1644" />
    <tag k="addr:street" v="U.S. Route 4" />
    <tag k="addr:state" v="VT" />
    <tag k="ref:vcgi:esiteid" v="153597" />
  </node>
  <node id="-435" visible="true" lat="43.63801094" lon="-72.9329783">
    <tag k="addr:city" v="Mendon" />
    <tag k="addr:housenumber" v="254" />
    <tag k="addr:street" v="Gale Grove" />
    <tag k="addr:state" v="VT" />
    <tag k="ref:vcgi:esiteid" v="153598" />
  </node>
  <node id="-436" visible="true" lat="43.63670067" lon="-72.93565319">
    <tag k="addr:city" v="Mendon" />
    <tag k="addr:housenumber" v="61" />
    <tag k="addr:street" v="Valley View" />
    <tag k="addr:state" v="VT" />
    <tag k="ref:vcgi:esiteid" v="153599" />
  </node>
  <node id="-437" visible="true" lat="43.63589999" lon="-72.93534191">
    <tag k="addr:city" v="Mendon" />
    <tag k="addr:housenumber" v="25" />
    <tag k="addr:street" v="Industrial Lane" />
    <tag k="addr:state" v="VT" />
    <tag k="ref:vcgi:esiteid" v="153600" />
  </node>
  <node id="-438" visible="true" lat="43.63554511" lon="-72.93727726">
    <tag k="addr:city" v="Mendon" />
    <tag k="addr:housenumber" v="32" />
    <tag k="addr:street" v="Best Western Place" />
    <tag k="addr:state" v="VT" />
    <tag k="ref:vcgi:esiteid" v="153601" />
  </node>
  <node id="-439" visible="true" lat="43.63534558" lon="-72.93608596">
    <tag k="addr:city" v="Mendon" />
    <tag k="addr:housenumber" v="30" />
    <tag k="addr:street" v="Industrial Lane" />
    <tag k="addr:state" v="VT" />
    <tag k="ref:vcgi:esiteid" v="153602" />
  </node>
  <node id="-440" visible="true" lat="43.6354939" lon="-72.92901662">
    <tag k="addr:city" v="Mendon" />
    <tag k="addr:housenumber" v="369" />
    <tag k="addr:street" v="Orchard Road" />
    <tag k="addr:state" v="VT" />
    <tag k="ref:vcgi:esiteid" v="153603" />
  </node>
  <node id="-441" visible="true" lat="43.63527377" lon="-72.93496545">
    <tag k="addr:city" v="Mendon" />
    <tag k="addr:housenumber" v="69" />
    <tag k="addr:street" v="Industrial Lane" />
    <tag k="addr:state" v="VT" />
    <tag k="ref:vcgi:esiteid" v="153604" />
  </node>
  <node id="-442" visible="true" lat="43.63532383" lon="-72.93180214">
    <tag k="addr:city" v="Mendon" />
    <tag k="addr:housenumber" v="164" />
    <tag k="addr:street" v="Orchard Road" />
    <tag k="addr:state" v="VT" />
    <tag k="ref:vcgi:esiteid" v="153605" />
  </node>
  <node id="-443" visible="true" lat="43.63524745" lon="-72.92527456">
    <tag k="addr:city" v="Mendon" />
    <tag k="addr:housenumber" v="417" />
    <tag k="addr:street" v="Orchard Road" />
    <tag k="addr:state" v="VT" />
    <tag k="ref:vcgi:esiteid" v="153606" />
  </node>
  <node id="-444" visible="true" lat="43.63485017" lon="-72.93688064">
    <tag k="addr:city" v="Mendon" />
    <tag k="addr:housenumber" v="1360" />
    <tag k="addr:street" v="U.S. Route 4" />
    <tag k="addr:state" v="VT" />
    <tag k="ref:vcgi:esiteid" v="153607" />
  </node>
  <node id="-445" visible="true" lat="43.63441845" lon="-72.93653691">
    <tag k="addr:city" v="Mendon" />
    <tag k="addr:housenumber" v="33" />
    <tag k="addr:street" v="Town Line Road" />
    <tag k="addr:state" v="VT" />
    <tag k="ref:vcgi:esiteid" v="153608" />
  </node>
  <node id="-446" visible="true" lat="43.63395871" lon="-72.93706616">
    <tag k="addr:city" v="Mendon" />
    <tag k="addr:housenumber" v="63" />
    <tag k="addr:street" v="Town Line Road" />
    <tag k="addr:state" v="VT" />
    <tag k="ref:vcgi:esiteid" v="153609" />
  </node>
  <node id="-447" visible="true" lat="43.63347933" lon="-72.93695366">
    <tag k="addr:city" v="Mendon" />
    <tag k="addr:housenumber" v="107" />
    <tag k="addr:street" v="Town Line Road" />
    <tag k="addr:state" v="VT" />
    <tag k="ref:vcgi:esiteid" v="153611" />
  </node>
  <node id="-448" visible="true" lat="43.63332121" lon="-72.93676411">
    <tag k="addr:city" v="Mendon" />
    <tag k="addr:housenumber" v="111" />
    <tag k="addr:street" v="Town Line Road" />
    <tag k="addr:state" v="VT" />
    <tag k="ref:vcgi:esiteid" v="153612" />
  </node>
  <node id="-449" visible="true" lat="43.63303547" lon="-72.93687908">
    <tag k="addr:city" v="Mendon" />
    <tag k="addr:housenumber" v="137" />
    <tag k="addr:street" v="Town Line Road" />
    <tag k="addr:state" v="VT" />
    <tag k="ref:vcgi:esiteid" v="153613" />
  </node>
  <node id="-450" visible="true" lat="43.6327813" lon="-72.93688997">
    <tag k="addr:city" v="Mendon" />
    <tag k="addr:housenumber" v="155" />
    <tag k="addr:street" v="Town Line Road" />
    <tag k="addr:state" v="VT" />
    <tag k="ref:vcgi:esiteid" v="153614" />
  </node>
  <node id="-451" visible="true" lat="43.63244808" lon="-72.93680528">
    <tag k="addr:city" v="Mendon" />
    <tag k="addr:housenumber" v="183" />
    <tag k="addr:street" v="Town Line Road" />
    <tag k="addr:state" v="VT" />
    <tag k="ref:vcgi:esiteid" v="153615" />
  </node>
  <node id="-452" visible="true" lat="43.63208545" lon="-72.93682922">
    <tag k="addr:city" v="Mendon" />
    <tag k="addr:housenumber" v="191" />
    <tag k="addr:street" v="Town Line Road" />
    <tag k="addr:state" v="VT" />
    <tag k="ref:vcgi:esiteid" v="153616" />
  </node>
  <node id="-453" visible="true" lat="43.63259166" lon="-72.86982606">
    <tag k="addr:city" v="Mendon" />
    <tag k="addr:housenumber" v="2961" />
    <tag k="addr:street" v="Wheelerville Road" />
    <tag k="addr:state" v="VT" />
    <tag k="ref:vcgi:esiteid" v="153617" />
  </node>
  <node id="-454" visible="true" lat="43.631683" lon="-72.93689566">
    <tag k="addr:city" v="Mendon" />
    <tag k="addr:housenumber" v="219" />
    <tag k="addr:street" v="Town Line Road" />
    <tag k="addr:state" v="VT" />
    <tag k="ref:vcgi:esiteid" v="153618" />
  </node>
  <node id="-455" visible="true" lat="43.6313842" lon="-72.93682396">
    <tag k="addr:city" v="Mendon" />
    <tag k="addr:housenumber" v="257" />
    <tag k="addr:street" v="Town Line Road" />
    <tag k="addr:state" v="VT" />
    <tag k="ref:vcgi:esiteid" v="153619" />
  </node>
  <node id="-456" visible="true" lat="43.6311061" lon="-72.93680715">
    <tag k="addr:city" v="Mendon" />
    <tag k="addr:housenumber" v="271" />
    <tag k="addr:street" v="Town Line Road" />
    <tag k="addr:state" v="VT" />
    <tag k="ref:vcgi:esiteid" v="153620" />
  </node>
  <node id="-457" visible="true" lat="43.63020417" lon="-72.93658927">
    <tag k="addr:city" v="Mendon" />
    <tag k="addr:housenumber" v="319" />
    <tag k="addr:street" v="Town Line Road" />
    <tag k="addr:state" v="VT" />
    <tag k="ref:vcgi:esiteid" v="153621" />
  </node>
  <node id="-458" visible="true" lat="43.63005906" lon="-72.93682811">
    <tag k="addr:city" v="Mendon" />
    <tag k="addr:housenumber" v="321" />
    <tag k="addr:street" v="Town Line Road" />
    <tag k="addr:state" v="VT" />
    <tag k="ref:vcgi:esiteid" v="153622" />
  </node>
  <node id="-459" visible="true" lat="43.62897192" lon="-72.93661371">
    <tag k="addr:city" v="Mendon" />
    <tag k="addr:housenumber" v="405" />
    <tag k="addr:street" v="Town Line Road" />
    <tag k="addr:state" v="VT" />
    <tag k="ref:vcgi:esiteid" v="153623" />
  </node>
  <node id="-460" visible="true" lat="43.62831048" lon="-72.87199807">
    <tag k="addr:city" v="Mendon" />
    <tag k="addr:housenumber" v="3284" />
    <tag k="addr:street" v="Wheelerville Road" />
    <tag k="addr:state" v="VT" />
    <tag k="ref:vcgi:esiteid" v="153624" />
  </node>
  <node id="-461" visible="true" lat="43.62821153" lon="-72.87020015">
    <tag k="addr:city" v="Mendon" />
    <tag k="addr:housenumber" v="3217" />
    <tag k="addr:street" v="Wheelerville Road" />
    <tag k="addr:state" v="VT" />
    <tag k="ref:vcgi:esiteid" v="153625" />
  </node>
  <node id="-462" visible="true" lat="43.62651917" lon="-72.93501371">
    <tag k="addr:city" v="Mendon" />
    <tag k="addr:housenumber" v="545" />
    <tag k="addr:street" v="Town Line Road" />
    <tag k="addr:state" v="VT" />
    <tag k="ref:vcgi:esiteid" v="153626" />
  </node>
  <node id="-463" visible="true" lat="43.62537102" lon="-72.93663701">
    <tag k="addr:city" v="Mendon" />
    <tag k="addr:housenumber" v="17" />
    <tag k="addr:street" v="Freds Lane" />
    <tag k="addr:state" v="VT" />
    <tag k="ref:vcgi:esiteid" v="153627" />
  </node>
  <node id="-464" visible="true" lat="43.62495784" lon="-72.93648423">
    <tag k="addr:city" v="Mendon" />
    <tag k="addr:housenumber" v="28" />
    <tag k="addr:street" v="Freds Lane" />
    <tag k="addr:state" v="VT" />
    <tag k="ref:vcgi:esiteid" v="153628" />
  </node>
  <node id="-465" visible="true" lat="43.62482772" lon="-72.93616788">
    <tag k="addr:city" v="Mendon" />
    <tag k="addr:housenumber" v="42" />
    <tag k="addr:street" v="Freds Lane" />
    <tag k="addr:state" v="VT" />
    <tag k="ref:vcgi:esiteid" v="153629" />
  </node>
  <node id="-466" visible="true" lat="43.62481796" lon="-72.87484657">
    <tag k="addr:city" v="Mendon" />
    <tag k="addr:housenumber" v="3586" />
    <tag k="addr:street" v="Wheelerville Road" />
    <tag k="addr:state" v="VT" />
    <tag k="ref:vcgi:esiteid" v="153630" />
  </node>
  <node id="-467" visible="true" lat="43.62431235" lon="-72.93649889">
    <tag k="addr:city" v="Mendon" />
    <tag k="addr:housenumber" v="725" />
    <tag k="addr:street" v="Town Line Road" />
    <tag k="addr:state" v="VT" />
    <tag k="ref:vcgi:esiteid" v="153631" />
  </node>
  <node id="-468" visible="true" lat="43.62389981" lon="-72.93620868">
    <tag k="addr:city" v="Mendon" />
    <tag k="addr:housenumber" v="755" />
    <tag k="addr:street" v="Town Line Road" />
    <tag k="addr:state" v="VT" />
    <tag k="ref:vcgi:esiteid" v="153632" />
  </node>
  <node id="-469" visible="true" lat="43.62387771" lon="-72.87221916">
    <tag k="addr:city" v="Mendon" />
    <tag k="addr:housenumber" v="3537" />
    <tag k="addr:street" v="Wheelerville Road" />
    <tag k="addr:state" v="VT" />
    <tag k="ref:vcgi:esiteid" v="153633" />
  </node>
  <node id="-470" visible="true" lat="43.6233906" lon="-72.93442789">
    <tag k="addr:city" v="Mendon" />
    <tag k="addr:housenumber" v="797" />
    <tag k="addr:street" v="Town Line Road" />
    <tag k="addr:state" v="VT" />
    <tag k="ref:vcgi:esiteid" v="153634" />
  </node>
  <node id="-471" visible="true" lat="43.62261421" lon="-72.87719057">
    <tag k="addr:city" v="Mendon" />
    <tag k="addr:housenumber" v="3752" />
    <tag k="addr:street" v="Wheelerville Road" />
    <tag k="addr:state" v="VT" />
    <tag k="ref:vcgi:esiteid" v="153635" />
  </node>
  <node id="-472" visible="true" lat="43.62209327" lon="-72.93640009">
    <tag k="addr:city" v="Mendon" />
    <tag k="addr:housenumber" v="887" />
    <tag k="addr:street" v="Town Line Road" />
    <tag k="addr:state" v="VT" />
    <tag k="ref:vcgi:esiteid" v="153636" />
  </node>
  <node id="-473" visible="true" lat="43.62177831" lon="-72.93595199">
    <tag k="addr:city" v="Mendon" />
    <tag k="addr:housenumber" v="907" />
    <tag k="addr:street" v="Town Line Road" />
    <tag k="addr:state" v="VT" />
    <tag k="ref:vcgi:esiteid" v="153637" />
  </node>
  <node id="-474" visible="true" lat="43.61982452" lon="-72.93552518">
    <tag k="addr:city" v="Mendon" />
    <tag k="addr:housenumber" v="1011" />
    <tag k="addr:street" v="Town Line Road" />
    <tag k="addr:state" v="VT" />
    <tag k="ref:vcgi:esiteid" v="153638" />
  </node>
  <node id="-475" visible="true" lat="43.61985777" lon="-72.87848609">
    <tag k="addr:city" v="Mendon" />
    <tag k="addr:housenumber" v="4082" />
    <tag k="addr:street" v="Wheelerville Road" />
    <tag k="addr:state" v="VT" />
    <tag k="ref:vcgi:esiteid" v="153639" />
  </node>
  <node id="-476" visible="true" lat="43.61958393" lon="-72.93230822">
    <tag k="addr:city" v="Mendon" />
    <tag k="addr:housenumber" v="989" />
    <tag k="addr:street" v="Town Line Road" />
    <tag k="addr:state" v="VT" />
    <tag k="ref:vcgi:esiteid" v="153640" />
  </node>
  <node id="-477" visible="true" lat="43.61191803" lon="-72.87254745">
    <tag k="addr:city" v="Mendon" />
    <tag k="addr:housenumber" v="3987" />
    <tag k="addr:street" v="Wheelerville Road" />
    <tag k="addr:state" v="VT" />
    <tag k="ref:vcgi:esiteid" v="153641" />
  </node>
  <node id="-478" visible="true" lat="43.6195911" lon="-72.88295423">
    <tag k="addr:city" v="Mendon" />
    <tag k="addr:housenumber" v="4282" />
    <tag k="addr:street" v="Wheelerville Road" />
    <tag k="addr:state" v="VT" />
    <tag k="ref:vcgi:esiteid" v="153642" />
  </node>
  <node id="-479" visible="true" lat="43.61804844" lon="-72.93129615">
    <tag k="addr:city" v="Mendon" />
    <tag k="addr:housenumber" v="268" />
    <tag k="addr:street" v="White Pine Hill" />
    <tag k="addr:state" v="VT" />
    <tag k="ref:vcgi:esiteid" v="153643" />
  </node>
  <node id="-480" visible="true" lat="43.61803197" lon="-72.88522621">
    <tag k="addr:city" v="Mendon" />
    <tag k="addr:housenumber" v="4396" />
    <tag k="addr:street" v="Wheelerville Road" />
    <tag k="addr:state" v="VT" />
    <tag k="ref:vcgi:esiteid" v="153644" />
  </node>
  <node id="-481" visible="true" lat="43.6181197" lon="-72.93576481">
    <tag k="addr:city" v="Mendon" />
    <tag k="addr:housenumber" v="1175" />
    <tag k="addr:street" v="Town Line Road" />
    <tag k="addr:state" v="VT" />
    <tag k="ref:vcgi:esiteid" v="153645" />
  </node>
  <node id="-482" visible="true" lat="43.61776395" lon="-72.9305836">
    <tag k="addr:city" v="Mendon" />
    <tag k="addr:housenumber" v="296" />
    <tag k="addr:street" v="White Pine Hill" />
    <tag k="addr:state" v="VT" />
    <tag k="ref:vcgi:esiteid" v="153646" />
  </node>
  <node id="-483" visible="true" lat="43.617139" lon="-72.93548818">
    <tag k="addr:city" v="Mendon" />
    <tag k="addr:housenumber" v="1251" />
    <tag k="addr:street" v="Town Line Road" />
    <tag k="addr:state" v="VT" />
    <tag k="ref:vcgi:esiteid" v="153647" />
  </node>
  <node id="-484" visible="true" lat="43.61564422" lon="-72.93611339">
    <tag k="addr:city" v="Mendon" />
    <tag k="addr:housenumber" v="1325" />
    <tag k="addr:street" v="Town Line Road" />
    <tag k="addr:state" v="VT" />
    <tag k="ref:vcgi:esiteid" v="153648" />
  </node>
  <node id="-485" visible="true" lat="43.61429539" lon="-72.88698525">
    <tag k="addr:city" v="Mendon" />
    <tag k="addr:housenumber" v="4625" />
    <tag k="addr:street" v="Wheelerville Road" />
    <tag k="addr:state" v="VT" />
    <tag k="ref:vcgi:esiteid" v="153649" />
  </node>
  <node id="-486" visible="true" lat="43.61479705" lon="-72.93519295">
    <tag k="addr:city" v="Mendon" />
    <tag k="addr:housenumber" v="1419" />
    <tag k="addr:street" v="Town Line Road" />
    <tag k="addr:state" v="VT" />
    <tag k="ref:vcgi:esiteid" v="153650" />
  </node>
  <node id="-487" visible="true" lat="43.6141569" lon="-72.93213007">
    <tag k="addr:city" v="Mendon" />
    <tag k="addr:housenumber" v="418" />
    <tag k="addr:street" v="Brookwood" />
    <tag k="addr:state" v="VT" />
    <tag k="ref:vcgi:esiteid" v="153651" />
  </node>
  <node id="-488" visible="true" lat="43.61426284" lon="-72.93130677">
    <tag k="addr:city" v="Mendon" />
    <tag k="addr:housenumber" v="382" />
    <tag k="addr:street" v="Brookwood" />
    <tag k="addr:state" v="VT" />
    <tag k="ref:vcgi:esiteid" v="153652" />
  </node>
  <node id="-489" visible="true" lat="43.61425325" lon="-72.93531164">
    <tag k="addr:city" v="Mendon" />
    <tag k="addr:housenumber" v="1437" />
    <tag k="addr:street" v="Town Line Road" />
    <tag k="addr:state" v="VT" />
    <tag k="ref:vcgi:esiteid" v="153653" />
  </node>
  <node id="-490" visible="true" lat="43.61417268" lon="-72.9328572">
    <tag k="addr:city" v="Mendon" />
    <tag k="addr:housenumber" v="454" />
    <tag k="addr:street" v="Brookwood" />
    <tag k="addr:state" v="VT" />
    <tag k="ref:vcgi:esiteid" v="153654" />
  </node>
  <node id="-491" visible="true" lat="43.61382195" lon="-72.9360808">
    <tag k="addr:city" v="Mendon" />
    <tag k="addr:housenumber" v="1457" />
    <tag k="addr:street" v="Town Line Road" />
    <tag k="addr:state" v="VT" />
    <tag k="ref:vcgi:esiteid" v="153655" />
  </node>
  <node id="-492" visible="true" lat="43.61361605" lon="-72.93136115">
    <tag k="addr:city" v="Mendon" />
    <tag k="addr:housenumber" v="399" />
    <tag k="addr:street" v="Brookwood" />
    <tag k="addr:state" v="VT" />
    <tag k="ref:vcgi:esiteid" v="153656" />
  </node>
  <node id="-493" visible="true" lat="43.61358162" lon="-72.93285492">
    <tag k="addr:city" v="Mendon" />
    <tag k="addr:housenumber" v="475" />
    <tag k="addr:street" v="Brookwood" />
    <tag k="addr:state" v="VT" />
    <tag k="ref:vcgi:esiteid" v="153657" />
  </node>
  <node id="-494" visible="true" lat="43.6135791" lon="-72.93207776">
    <tag k="addr:city" v="Mendon" />
    <tag k="addr:housenumber" v="431" />
    <tag k="addr:street" v="Brookwood" />
    <tag k="addr:state" v="VT" />
    <tag k="ref:vcgi:esiteid" v="153658" />
  </node>
  <node id="-495" visible="true" lat="43.61361098" lon="-72.93359752">
    <tag k="addr:city" v="Mendon" />
    <tag k="addr:housenumber" v="543" />
    <tag k="addr:street" v="Brookwood" />
    <tag k="addr:state" v="VT" />
    <tag k="ref:vcgi:esiteid" v="153659" />
  </node>
  <node id="-496" visible="true" lat="43.61311119" lon="-72.9321044">
    <tag k="addr:city" v="Mendon" />
    <tag k="addr:housenumber" v="245" />
    <tag k="addr:street" v="Brookwood" />
    <tag k="addr:state" v="VT" />
    <tag k="ref:vcgi:esiteid" v="153660" />
  </node>
  <node id="-497" visible="true" lat="43.61314964" lon="-72.93280404">
    <tag k="addr:city" v="Mendon" />
    <tag k="addr:housenumber" v="221" />
    <tag k="addr:street" v="Brookwood" />
    <tag k="addr:state" v="VT" />
    <tag k="ref:vcgi:esiteid" v="153661" />
  </node>
  <node id="-498" visible="true" lat="43.61315928" lon="-72.93132327">
    <tag k="addr:city" v="Mendon" />
    <tag k="addr:housenumber" v="275" />
    <tag k="addr:street" v="Brookwood" />
    <tag k="addr:state" v="VT" />
    <tag k="ref:vcgi:esiteid" v="153662" />
  </node>
  <node id="-499" visible="true" lat="43.61304599" lon="-72.93443335">
    <tag k="addr:city" v="Mendon" />
    <tag k="addr:housenumber" v="130" />
    <tag k="addr:street" v="Brookwood" />
    <tag k="addr:state" v="VT" />
    <tag k="ref:vcgi:esiteid" v="153663" />
  </node>
  <node id="-500" visible="true" lat="43.61267121" lon="-72.93051484">
    <tag k="addr:city" v="Mendon" />
    <tag k="addr:housenumber" v="300" />
    <tag k="addr:street" v="Brookwood" />
    <tag k="addr:state" v="VT" />
    <tag k="ref:vcgi:esiteid" v="153664" />
  </node>
  <node id="-501" visible="true" lat="43.6125779" lon="-72.93452063">
    <tag k="addr:city" v="Mendon" />
    <tag k="addr:housenumber" v="144" />
    <tag k="addr:street" v="Brookwood" />
    <tag k="addr:state" v="VT" />
    <tag k="ref:vcgi:esiteid" v="153665" />
  </node>
  <node id="-502" visible="true" lat="43.61261052" lon="-72.9320243">
    <tag k="addr:city" v="Mendon" />
    <tag k="addr:housenumber" v="242" />
    <tag k="addr:street" v="Brookwood" />
    <tag k="addr:state" v="VT" />
    <tag k="ref:vcgi:esiteid" v="153666" />
  </node>
  <node id="-503" visible="true" lat="43.61251528" lon="-72.93352287">
    <tag k="addr:city" v="Mendon" />
    <tag k="addr:housenumber" v="164" />
    <tag k="addr:street" v="Brookwood" />
    <tag k="addr:state" v="VT" />
    <tag k="ref:vcgi:esiteid" v="153667" />
  </node>
  <node id="-504" visible="true" lat="43.61256648" lon="-72.93286385">
    <tag k="addr:city" v="Mendon" />
    <tag k="addr:housenumber" v="198" />
    <tag k="addr:street" v="Brookwood" />
    <tag k="addr:state" v="VT" />
    <tag k="ref:vcgi:esiteid" v="153668" />
  </node>
  <node id="-505" visible="true" lat="43.61256794" lon="-72.9353228">
    <tag k="addr:city" v="Mendon" />
    <tag k="addr:housenumber" v="1567" />
    <tag k="addr:street" v="Town Line Road" />
    <tag k="addr:state" v="VT" />
    <tag k="ref:vcgi:esiteid" v="153669" />
  </node>
  <node id="-506" visible="true" lat="43.61209041" lon="-72.93582818">
    <tag k="addr:city" v="Mendon" />
    <tag k="addr:housenumber" v="1601" />
    <tag k="addr:street" v="Town Line Road" />
    <tag k="addr:state" v="VT" />
    <tag k="ref:vcgi:esiteid" v="153670" />
  </node>
  <node id="-507" visible="true" lat="43.61219697" lon="-72.92989114">
    <tag k="addr:city" v="Mendon" />
    <tag k="addr:housenumber" v="107" />
    <tag k="addr:street" v="Pond Road" />
    <tag k="addr:state" v="VT" />
    <tag k="ref:vcgi:esiteid" v="153671" />
  </node>
  <node id="-508" visible="true" lat="43.61215984" lon="-72.93059101">
    <tag k="addr:city" v="Mendon" />
    <tag k="addr:housenumber" v="81" />
    <tag k="addr:street" v="Pond Road" />
    <tag k="addr:state" v="VT" />
    <tag k="ref:vcgi:esiteid" v="153672" />
  </node>
  <node id="-509" visible="true" lat="43.61165504" lon="-72.92904076">
    <tag k="addr:city" v="Mendon" />
    <tag k="addr:housenumber" v="134" />
    <tag k="addr:street" v="Pond Road" />
    <tag k="addr:state" v="VT" />
    <tag k="ref:vcgi:esiteid" v="153673" />
  </node>
  <node id="-510" visible="true" lat="43.61194367" lon="-72.93245459">
    <tag k="addr:city" v="Mendon" />
    <tag k="addr:housenumber" v="320" />
    <tag k="addr:street" v="Eastridge Circle" />
    <tag k="addr:state" v="VT" />
    <tag k="ref:vcgi:esiteid" v="153674" />
  </node>
  <node id="-511" visible="true" lat="43.61187389" lon="-72.93299839">
    <tag k="addr:city" v="Mendon" />
    <tag k="addr:housenumber" v="350" />
    <tag k="addr:street" v="Eastridge Circle" />
    <tag k="addr:state" v="VT" />
    <tag k="ref:vcgi:esiteid" v="153675" />
  </node>
  <node id="-512" visible="true" lat="43.61178045" lon="-72.93200665">
    <tag k="addr:city" v="Mendon" />
    <tag k="addr:housenumber" v="308" />
    <tag k="addr:street" v="Eastridge Circle" />
    <tag k="addr:state" v="VT" />
    <tag k="ref:vcgi:esiteid" v="153676" />
  </node>
  <node id="-513" visible="true" lat="43.61179421" lon="-72.9334053">
    <tag k="addr:city" v="Mendon" />
    <tag k="addr:housenumber" v="370" />
    <tag k="addr:street" v="Eastridge Circle" />
    <tag k="addr:state" v="VT" />
    <tag k="ref:vcgi:esiteid" v="153677" />
  </node>
  <node id="-514" visible="true" lat="43.61163714" lon="-72.92980953">
    <tag k="addr:city" v="Mendon" />
    <tag k="addr:housenumber" v="120" />
    <tag k="addr:street" v="Pond Road" />
    <tag k="addr:state" v="VT" />
    <tag k="ref:vcgi:esiteid" v="153678" />
  </node>
  <node id="-515" visible="true" lat="43.61170426" lon="-72.93045595">
    <tag k="addr:city" v="Mendon" />
    <tag k="addr:housenumber" v="60" />
    <tag k="addr:street" v="Pond Road" />
    <tag k="addr:state" v="VT" />
    <tag k="ref:vcgi:esiteid" v="153679" />
  </node>
  <node id="-516" visible="true" lat="43.61168776" lon="-72.93497117">
    <tag k="addr:city" v="Mendon" />
    <tag k="addr:housenumber" v="1605" />
    <tag k="addr:street" v="Town Line Road" />
    <tag k="addr:state" v="VT" />
    <tag k="ref:vcgi:esiteid" v="153680" />
  </node>
  <node id="-517" visible="true" lat="43.61146017" lon="-72.9325174">
    <tag k="addr:city" v="Mendon" />
    <tag k="addr:housenumber" v="339" />
    <tag k="addr:street" v="Eastridge Circle" />
    <tag k="addr:state" v="VT" />
    <tag k="ref:vcgi:esiteid" v="153682" />
  </node>
  <node id="-518" visible="true" lat="43.61144162" lon="-72.93420132">
    <tag k="addr:city" v="Mendon" />
    <tag k="addr:housenumber" v="392" />
    <tag k="addr:street" v="Eastridge Circle" />
    <tag k="addr:state" v="VT" />
    <tag k="ref:vcgi:esiteid" v="153683" />
  </node>
  <node id="-519" visible="true" lat="43.61137062" lon="-72.93297057">
    <tag k="addr:city" v="Mendon" />
    <tag k="addr:housenumber" v="355" />
    <tag k="addr:street" v="Eastridge Circle" />
    <tag k="addr:state" v="VT" />
    <tag k="ref:vcgi:esiteid" v="153684" />
  </node>
  <node id="-520" visible="true" lat="43.61131765" lon="-72.92968305">
    <tag k="addr:city" v="Mendon" />
    <tag k="addr:housenumber" v="128" />
    <tag k="addr:street" v="Pond Road" />
    <tag k="addr:state" v="VT" />
    <tag k="ref:vcgi:esiteid" v="153685" />
  </node>
  <node id="-521" visible="true" lat="43.61134615" lon="-72.93203886">
    <tag k="addr:city" v="Mendon" />
    <tag k="addr:housenumber" v="281" />
    <tag k="addr:street" v="Eastridge Circle" />
    <tag k="addr:state" v="VT" />
    <tag k="ref:vcgi:esiteid" v="153686" />
  </node>
  <node id="-522" visible="true" lat="43.61131144" lon="-72.93600317">
    <tag k="addr:city" v="Mendon" />
    <tag k="addr:housenumber" v="1627" />
    <tag k="addr:street" v="Town Line Road" />
    <tag k="addr:state" v="VT" />
    <tag k="ref:vcgi:esiteid" v="153687" />
  </node>
  <node id="-523" visible="true" lat="43.6112587" lon="-72.93352755">
    <tag k="addr:city" v="Mendon" />
    <tag k="addr:housenumber" v="415" />
    <tag k="addr:street" v="Eastridge Circle" />
    <tag k="addr:state" v="VT" />
    <tag k="ref:vcgi:esiteid" v="153688" />
  </node>
  <node id="-524" visible="true" lat="43.61133879" lon="-72.93024861">
    <tag k="addr:city" v="Mendon" />
    <tag k="addr:housenumber" v="32" />
    <tag k="addr:street" v="Pond Road" />
    <tag k="addr:state" v="VT" />
    <tag k="ref:vcgi:esiteid" v="153689" />
  </node>
  <node id="-525" visible="true" lat="43.61122118" lon="-72.93472345">
    <tag k="addr:city" v="Mendon" />
    <tag k="addr:housenumber" v="446" />
    <tag k="addr:street" v="Eastridge Circle" />
    <tag k="addr:state" v="VT" />
    <tag k="ref:vcgi:esiteid" v="153690" />
  </node>
  <node id="-526" visible="true" lat="43.61120547" lon="-72.93516949">
    <tag k="addr:city" v="Mendon" />
    <tag k="addr:housenumber" v="470" />
    <tag k="addr:street" v="Eastridge Circle" />
    <tag k="addr:state" v="VT" />
    <tag k="ref:vcgi:esiteid" v="153691" />
  </node>
  <node id="-527" visible="true" lat="43.61093774" lon="-72.9311148">
    <tag k="addr:city" v="Mendon" />
    <tag k="addr:housenumber" v="20" />
    <tag k="addr:street" v="Mountain Road" />
    <tag k="addr:state" v="VT" />
    <tag k="ref:vcgi:esiteid" v="153692" />
  </node>
  <node id="-528" visible="true" lat="43.61105796" lon="-72.93556843">
    <tag k="addr:city" v="Mendon" />
    <tag k="addr:housenumber" v="488" />
    <tag k="addr:street" v="Eastridge Circle" />
    <tag k="addr:state" v="VT" />
    <tag k="ref:vcgi:esiteid" v="153693" />
  </node>
  <node id="-529" visible="true" lat="43.61086874" lon="-72.93200635">
    <tag k="addr:city" v="Mendon" />
    <tag k="addr:housenumber" v="223" />
    <tag k="addr:street" v="Eastridge Circle" />
    <tag k="addr:state" v="VT" />
    <tag k="ref:vcgi:esiteid" v="153694" />
  </node>
  <node id="-530" visible="true" lat="43.6106876" lon="-72.93495857">
    <tag k="addr:city" v="Mendon" />
    <tag k="addr:housenumber" v="465" />
    <tag k="addr:street" v="Eastridge Circle" />
    <tag k="addr:state" v="VT" />
    <tag k="ref:vcgi:esiteid" v="153695" />
  </node>
  <node id="-532" visible="true" lat="43.61087188" lon="-72.92916067">
    <tag k="addr:city" v="Mendon" />
    <tag k="addr:housenumber" v="173" />
    <tag k="addr:street" v="Mountain Road" />
    <tag k="addr:state" v="VT" />
    <tag k="ref:vcgi:esiteid" v="153697" />
  </node>
  <node id="-533" visible="true" lat="43.61075836" lon="-72.93259463">
    <tag k="addr:city" v="Mendon" />
    <tag k="addr:housenumber" v="179" />
    <tag k="addr:street" v="Eastridge Circle" />
    <tag k="addr:state" v="VT" />
    <tag k="ref:vcgi:esiteid" v="153698" />
  </node>
  <node id="-534" visible="true" lat="43.61071842" lon="-72.93324233">
    <tag k="addr:city" v="Mendon" />
    <tag k="addr:housenumber" v="145" />
    <tag k="addr:street" v="Eastridge Circle" />
    <tag k="addr:state" v="VT" />
    <tag k="ref:vcgi:esiteid" v="153699" />
  </node>
  <node id="-535" visible="true" lat="43.61071583" lon="-72.93381761">
    <tag k="addr:city" v="Mendon" />
    <tag k="addr:housenumber" v="121" />
    <tag k="addr:street" v="Eastridge Circle" />
    <tag k="addr:state" v="VT" />
    <tag k="ref:vcgi:esiteid" v="153700" />
  </node>
  <node id="-536" visible="true" lat="43.61065317" lon="-72.93440347">
    <tag k="addr:city" v="Mendon" />
    <tag k="addr:housenumber" v="87" />
    <tag k="addr:street" v="Eastridge Circle" />
    <tag k="addr:state" v="VT" />
    <tag k="ref:vcgi:esiteid" v="153701" />
  </node>
  <node id="-537" visible="true" lat="43.61060574" lon="-72.93569408">
    <tag k="addr:city" v="Mendon" />
    <tag k="addr:housenumber" v="1675" />
    <tag k="addr:street" v="Town Line Road" />
    <tag k="addr:state" v="VT" />
    <tag k="ref:vcgi:esiteid" v="153702" />
  </node>
  <node id="-538" visible="true" lat="43.61039303" lon="-72.93124562">
    <tag k="addr:city" v="Mendon" />
    <tag k="addr:housenumber" v="62" />
    <tag k="addr:street" v="Mountain Road" />
    <tag k="addr:state" v="VT" />
    <tag k="ref:vcgi:esiteid" v="153703" />
  </node>
  <node id="-539" visible="true" lat="43.61021336" lon="-72.93264525">
    <tag k="addr:city" v="Mendon" />
    <tag k="addr:housenumber" v="176" />
    <tag k="addr:street" v="Eastridge Circle" />
    <tag k="addr:state" v="VT" />
    <tag k="ref:vcgi:esiteid" v="153704" />
  </node>
  <node id="-540" visible="true" lat="43.61046069" lon="-72.9298171">
    <tag k="addr:city" v="Mendon" />
    <tag k="addr:housenumber" v="103" />
    <tag k="addr:street" v="Mountain Road" />
    <tag k="addr:state" v="VT" />
    <tag k="ref:vcgi:esiteid" v="153705" />
  </node>
  <node id="-541" visible="true" lat="43.61028292" lon="-72.93372812">
    <tag k="addr:city" v="Mendon" />
    <tag k="addr:housenumber" v="124" />
    <tag k="addr:street" v="Eastridge Circle" />
    <tag k="addr:state" v="VT" />
    <tag k="ref:vcgi:esiteid" v="153706" />
  </node>
  <node id="-542" visible="true" lat="43.61028811" lon="-72.93051434">
    <tag k="addr:city" v="Mendon" />
    <tag k="addr:housenumber" v="94" />
    <tag k="addr:street" v="Mountain Road" />
    <tag k="addr:state" v="VT" />
    <tag k="ref:vcgi:esiteid" v="153707" />
  </node>
  <node id="-543" visible="true" lat="43.61042022" lon="-72.89542388">
    <tag k="addr:city" v="Mendon" />
    <tag k="addr:housenumber" v="5336" />
    <tag k="addr:street" v="Wheelerville Road" />
    <tag k="addr:state" v="VT" />
    <tag k="ref:vcgi:esiteid" v="153708" />
  </node>
  <node id="-544" visible="true" lat="43.61042133" lon="-72.89611206">
    <tag k="addr:city" v="Mendon" />
    <tag k="addr:housenumber" v="5338" />
    <tag k="addr:street" v="Wheelerville Road" />
    <tag k="addr:state" v="VT" />
    <tag k="ref:vcgi:esiteid" v="153709" />
  </node>
  <node id="-545" visible="true" lat="43.61010934" lon="-72.9354666">
    <tag k="addr:city" v="Mendon" />
    <tag k="addr:housenumber" v="30" />
    <tag k="addr:street" v="Eastridge Circle" />
    <tag k="addr:state" v="VT" />
    <tag k="ref:vcgi:esiteid" v="153710" />
  </node>
  <node id="-546" visible="true" lat="43.61008764" lon="-72.89187608">
    <tag k="addr:city" v="Mendon" />
    <tag k="addr:housenumber" v="5167" />
    <tag k="addr:street" v="Wheelerville Road" />
    <tag k="addr:state" v="VT" />
    <tag k="ref:vcgi:esiteid" v="153711" />
  </node>
  <node id="-547" visible="true" lat="43.61005368" lon="-72.89247424">
    <tag k="addr:city" v="Mendon" />
    <tag k="addr:housenumber" v="5214" />
    <tag k="addr:street" v="Wheelerville Road" />
    <tag k="addr:state" v="VT" />
    <tag k="ref:vcgi:esiteid" v="153712" />
  </node>
  <node id="-548" visible="true" lat="43.60916124" lon="-72.93577346">
    <tag k="addr:city" v="Mendon" />
    <tag k="addr:housenumber" v="1771" />
    <tag k="addr:street" v="Town Line Road" />
    <tag k="addr:state" v="VT" />
    <tag k="ref:vcgi:esiteid" v="153713" />
  </node>
  <node id="-549" visible="true" lat="43.60876393" lon="-72.93424948">
    <tag k="addr:city" v="Mendon" />
    <tag k="addr:housenumber" v="11" />
    <tag k="addr:street" v="Notch Road" />
    <tag k="addr:state" v="VT" />
    <tag k="ref:vcgi:esiteid" v="153714" />
  </node>
  <node id="-550" visible="true" lat="43.60833661" lon="-72.93590223">
    <tag k="addr:city" v="Mendon" />
    <tag k="addr:housenumber" v="26" />
    <tag k="addr:street" v="Notch Road" />
    <tag k="addr:state" v="VT" />
    <tag k="ref:vcgi:esiteid" v="153715" />
  </node>
  <node id="-551" visible="true" lat="43.60801963" lon="-72.92640988">
    <tag k="addr:city" v="Mendon" />
    <tag k="addr:housenumber" v="495" />
    <tag k="addr:street" v="Mendon View Drive" />
    <tag k="addr:state" v="VT" />
    <tag k="ref:vcgi:esiteid" v="153716" />
  </node>
  <node id="-552" visible="true" lat="43.60783272" lon="-72.93148903">
    <tag k="addr:city" v="Mendon" />
    <tag k="addr:housenumber" v="177" />
    <tag k="addr:street" v="Mendon View Drive" />
    <tag k="addr:state" v="VT" />
    <tag k="ref:vcgi:esiteid" v="153717" />
  </node>
  <node id="-553" visible="true" lat="43.60769282" lon="-72.93052408">
    <tag k="addr:city" v="Mendon" />
    <tag k="addr:housenumber" v="291" />
    <tag k="addr:street" v="Mendon View Drive" />
    <tag k="addr:state" v="VT" />
    <tag k="ref:vcgi:esiteid" v="153718" />
  </node>
  <node id="-554" visible="true" lat="43.60765673" lon="-72.9251222">
    <tag k="addr:city" v="Mendon" />
    <tag k="addr:housenumber" v="545" />
    <tag k="addr:street" v="Mendon View Drive" />
    <tag k="addr:state" v="VT" />
    <tag k="ref:vcgi:esiteid" v="153719" />
  </node>
  <node id="-555" visible="true" lat="43.60759001" lon="-72.92756728">
    <tag k="addr:city" v="Mendon" />
    <tag k="addr:housenumber" v="395" />
    <tag k="addr:street" v="Mendon View Drive" />
    <tag k="addr:state" v="VT" />
    <tag k="ref:vcgi:esiteid" v="153720" />
  </node>
  <node id="-556" visible="true" lat="43.60743601" lon="-72.9353888">
    <tag k="addr:city" v="Mendon" />
    <tag k="addr:housenumber" v="82" />
    <tag k="addr:street" v="Notch Road" />
    <tag k="addr:state" v="VT" />
    <tag k="ref:vcgi:esiteid" v="153721" />
  </node>
  <node id="-557" visible="true" lat="43.6072678" lon="-72.9264142">
    <tag k="addr:city" v="Mendon" />
    <tag k="addr:housenumber" v="492" />
    <tag k="addr:street" v="Mendon View Drive" />
    <tag k="addr:state" v="VT" />
    <tag k="ref:vcgi:esiteid" v="153722" />
  </node>
  <node id="-558" visible="true" lat="43.60761114" lon="-72.92928423">
    <tag k="addr:city" v="Mendon" />
    <tag k="addr:housenumber" v="305" />
    <tag k="addr:street" v="Mendon View Drive" />
    <tag k="addr:state" v="VT" />
    <tag k="ref:vcgi:esiteid" v="153723" />
  </node>
  <node id="-559" visible="true" lat="43.60704218" lon="-72.93518661">
    <tag k="addr:city" v="Mendon" />
    <tag k="addr:housenumber" v="126" />
    <tag k="addr:street" v="Notch Road" />
    <tag k="addr:state" v="VT" />
    <tag k="ref:vcgi:esiteid" v="153724" />
  </node>
  <node id="-560" visible="true" lat="43.6071917" lon="-72.93250766">
    <tag k="addr:city" v="Mendon" />
    <tag k="addr:housenumber" v="97" />
    <tag k="addr:street" v="Mendon View Drive" />
    <tag k="addr:state" v="VT" />
    <tag k="ref:vcgi:esiteid" v="153725" />
  </node>
  <node id="-561" visible="true" lat="43.60689661" lon="-72.9338656">
    <tag k="addr:city" v="Mendon" />
    <tag k="addr:housenumber" v="42" />
    <tag k="addr:street" v="Mendon View Drive" />
    <tag k="addr:state" v="VT" />
    <tag k="ref:vcgi:esiteid" v="153726" />
  </node>
  <node id="-562" visible="true" lat="43.60691451" lon="-72.92921447">
    <tag k="addr:city" v="Mendon" />
    <tag k="addr:housenumber" v="300" />
    <tag k="addr:street" v="Mendon View Drive" />
    <tag k="addr:state" v="VT" />
    <tag k="ref:vcgi:esiteid" v="153727" />
  </node>
  <node id="-563" visible="true" lat="43.60689124" lon="-72.93103521">
    <tag k="addr:city" v="Mendon" />
    <tag k="addr:housenumber" v="231" />
    <tag k="addr:street" v="Mendon View Drive" />
    <tag k="addr:state" v="VT" />
    <tag k="ref:vcgi:esiteid" v="153728" />
  </node>
  <node id="-564" visible="true" lat="43.60672883" lon="-72.92802064">
    <tag k="addr:city" v="Mendon" />
    <tag k="addr:housenumber" v="404" />
    <tag k="addr:street" v="Mendon View Drive" />
    <tag k="addr:state" v="VT" />
    <tag k="ref:vcgi:esiteid" v="153729" />
  </node>
  <node id="-565" visible="true" lat="43.60663794" lon="-72.92550569">
    <tag k="addr:city" v="Mendon" />
    <tag k="addr:housenumber" v="520" />
    <tag k="addr:street" v="Mendon View Drive" />
    <tag k="addr:state" v="VT" />
    <tag k="ref:vcgi:esiteid" v="153730" />
  </node>
  <node id="-566" visible="true" lat="43.60679251" lon="-72.9035628">
    <tag k="addr:city" v="Mendon" />
    <tag k="addr:housenumber" v="5844" />
    <tag k="addr:street" v="Wheelerville Road" />
    <tag k="addr:state" v="VT" />
    <tag k="ref:vcgi:esiteid" v="153731" />
  </node>
  <node id="-567" visible="true" lat="43.60596085" lon="-72.93014748">
    <tag k="addr:city" v="Mendon" />
    <tag k="addr:housenumber" v="161" />
    <tag k="addr:street" v="Rose Hill" />
    <tag k="addr:state" v="VT" />
    <tag k="ref:vcgi:esiteid" v="153732" />
  </node>
  <node id="-568" visible="true" lat="43.60605926" lon="-72.90411226">
    <tag k="addr:city" v="Mendon" />
    <tag k="addr:housenumber" v="5878" />
    <tag k="addr:street" v="Wheelerville Road" />
    <tag k="addr:state" v="VT" />
    <tag k="ref:vcgi:esiteid" v="153733" />
  </node>
  <node id="-569" visible="true" lat="43.60556229" lon="-72.93231176">
    <tag k="addr:city" v="Mendon" />
    <tag k="addr:housenumber" v="313" />
    <tag k="addr:street" v="Notch Road" />
    <tag k="addr:state" v="VT" />
    <tag k="ref:vcgi:esiteid" v="153734" />
  </node>
  <node id="-570" visible="true" lat="43.60540945" lon="-72.93433253">
    <tag k="addr:city" v="Mendon" />
    <tag k="addr:housenumber" v="258" />
    <tag k="addr:street" v="Notch Road" />
    <tag k="addr:state" v="VT" />
    <tag k="ref:vcgi:esiteid" v="153735" />
  </node>
  <node id="-571" visible="true" lat="43.60527643" lon="-72.92606378">
    <tag k="addr:city" v="Mendon" />
    <tag k="addr:housenumber" v="375" />
    <tag k="addr:street" v="Rose Hill" />
    <tag k="addr:state" v="VT" />
    <tag k="ref:vcgi:esiteid" v="153736" />
  </node>
  <node id="-572" visible="true" lat="43.60552006" lon="-72.90446205">
    <tag k="addr:city" v="Mendon" />
    <tag k="addr:housenumber" v="5910" />
    <tag k="addr:street" v="Wheelerville Road" />
    <tag k="addr:state" v="VT" />
    <tag k="ref:vcgi:esiteid" v="153737" />
  </node>
  <node id="-573" visible="true" lat="43.60517043" lon="-72.93336646">
    <tag k="addr:city" v="Mendon" />
    <tag k="addr:housenumber" v="293" />
    <tag k="addr:street" v="Notch Road" />
    <tag k="addr:state" v="VT" />
    <tag k="ref:vcgi:esiteid" v="153738" />
  </node>
  <node id="-574" visible="true" lat="43.60456526" lon="-72.93329928">
    <tag k="addr:city" v="Mendon" />
    <tag k="addr:housenumber" v="308" />
    <tag k="addr:street" v="Notch Road" />
    <tag k="addr:state" v="VT" />
    <tag k="ref:vcgi:esiteid" v="153739" />
  </node>
  <node id="-575" visible="true" lat="43.6044635" lon="-72.93240105">
    <tag k="addr:city" v="Mendon" />
    <tag k="addr:housenumber" v="353" />
    <tag k="addr:street" v="Notch Road" />
    <tag k="addr:state" v="VT" />
    <tag k="ref:vcgi:esiteid" v="153740" />
  </node>
  <node id="-576" visible="true" lat="43.60400004" lon="-72.93202983">
    <tag k="addr:city" v="Mendon" />
    <tag k="addr:housenumber" v="375" />
    <tag k="addr:street" v="Notch Road" />
    <tag k="addr:state" v="VT" />
    <tag k="ref:vcgi:esiteid" v="153741" />
  </node>
  <node id="-577" visible="true" lat="43.60360422" lon="-72.93240466">
    <tag k="addr:city" v="Mendon" />
    <tag k="addr:housenumber" v="402" />
    <tag k="addr:street" v="Notch Road" />
    <tag k="addr:state" v="VT" />
    <tag k="ref:vcgi:esiteid" v="153742" />
  </node>
  <node id="-578" visible="true" lat="43.60335715" lon="-72.93220306">
    <tag k="addr:city" v="Mendon" />
    <tag k="addr:housenumber" v="418" />
    <tag k="addr:street" v="Notch Road" />
    <tag k="addr:state" v="VT" />
    <tag k="ref:vcgi:esiteid" v="153743" />
  </node>
  <node id="-579" visible="true" lat="43.6033809" lon="-72.92603874">
    <tag k="addr:city" v="Mendon" />
    <tag k="addr:housenumber" v="377" />
    <tag k="addr:street" v="Rose Hill" />
    <tag k="addr:state" v="VT" />
    <tag k="ref:vcgi:esiteid" v="153744" />
  </node>
  <node id="-580" visible="true" lat="43.60227763" lon="-72.93242953">
    <tag k="addr:city" v="Mendon" />
    <tag k="addr:housenumber" v="42" />
    <tag k="addr:street" v="Beechwood Farm Road" />
    <tag k="addr:state" v="VT" />
    <tag k="ref:vcgi:esiteid" v="153745" />
  </node>
  <node id="-581" visible="true" lat="43.60218083" lon="-72.93523645">
    <tag k="addr:city" v="Mendon" />
    <tag k="addr:housenumber" v="172" />
    <tag k="addr:street" v="Beechwood Farm Road" />
    <tag k="addr:state" v="VT" />
    <tag k="ref:vcgi:esiteid" v="153746" />
  </node>
  <node id="-582" visible="true" lat="43.60150895" lon="-72.93336654">
    <tag k="addr:city" v="Mendon" />
    <tag k="addr:housenumber" v="97" />
    <tag k="addr:street" v="Beechwood Farm Road" />
    <tag k="addr:state" v="VT" />
    <tag k="ref:vcgi:esiteid" v="153747" />
  </node>
  <node id="-583" visible="true" lat="43.60082842" lon="-72.92890359">
    <tag k="addr:city" v="Mendon" />
    <tag k="addr:housenumber" v="643" />
    <tag k="addr:street" v="Notch Road" />
    <tag k="addr:state" v="VT" />
    <tag k="ref:vcgi:esiteid" v="153748" />
  </node>
  <node id="-584" visible="true" lat="43.60070081" lon="-72.93030328">
    <tag k="addr:city" v="Mendon" />
    <tag k="addr:housenumber" v="664" />
    <tag k="addr:street" v="Notch Road" />
    <tag k="addr:state" v="VT" />
    <tag k="ref:vcgi:esiteid" v="153749" />
  </node>
  <node id="-585" visible="true" lat="43.60065898" lon="-72.93026514">
    <tag k="addr:city" v="Mendon" />
    <tag k="addr:housenumber" v="668" />
    <tag k="addr:street" v="Notch Road" />
    <tag k="addr:state" v="VT" />
    <tag k="ref:vcgi:esiteid" v="153750" />
  </node>
  <node id="-586" visible="true" lat="43.60017515" lon="-72.93164531">
    <tag k="addr:city" v="Mendon" />
    <tag k="addr:housenumber" v="54" />
    <tag k="addr:street" v="South Mendon Road" />
    <tag k="addr:state" v="VT" />
    <tag k="ref:vcgi:esiteid" v="153751" />
  </node>
  <node id="-587" visible="true" lat="43.60035348" lon="-72.92874244">
    <tag k="addr:city" v="Mendon" />
    <tag k="addr:housenumber" v="731" />
    <tag k="addr:street" v="Notch Road" />
    <tag k="addr:state" v="VT" />
    <tag k="ref:vcgi:esiteid" v="153752" />
  </node>
  <node id="-588" visible="true" lat="43.6001389" lon="-72.9329107">
    <tag k="addr:city" v="Mendon" />
    <tag k="addr:housenumber" v="564" />
    <tag k="addr:street" v="Notch Road" />
    <tag k="addr:state" v="VT" />
    <tag k="ref:vcgi:esiteid" v="153753" />
  </node>
  <node id="-589" visible="true" lat="43.60008574" lon="-72.92949903">
    <tag k="addr:city" v="Mendon" />
    <tag k="addr:housenumber" v="688" />
    <tag k="addr:street" v="Notch Road" />
    <tag k="addr:state" v="VT" />
    <tag k="ref:vcgi:esiteid" v="153754" />
  </node>
  <node id="-590" visible="true" lat="43.5999896" lon="-72.92899436">
    <tag k="addr:city" v="Mendon" />
    <tag k="addr:housenumber" v="714" />
    <tag k="addr:street" v="Notch Road" />
    <tag k="addr:state" v="VT" />
    <tag k="ref:vcgi:esiteid" v="153755" />
  </node>
  <node id="-591" visible="true" lat="43.59935103" lon="-72.93056384">
    <tag k="addr:city" v="Mendon" />
    <tag k="addr:housenumber" v="123" />
    <tag k="addr:street" v="South Mendon Road" />
    <tag k="addr:state" v="VT" />
    <tag k="ref:vcgi:esiteid" v="153756" />
  </node>
  <node id="-592" visible="true" lat="43.59934673" lon="-72.9311345">
    <tag k="addr:city" v="Mendon" />
    <tag k="addr:housenumber" v="130" />
    <tag k="addr:street" v="South Mendon Road" />
    <tag k="addr:state" v="VT" />
    <tag k="ref:vcgi:esiteid" v="153757" />
  </node>
  <node id="-593" visible="true" lat="43.59917193" lon="-72.90953743">
    <tag k="addr:city" v="Mendon" />
    <tag k="addr:housenumber" v="6454" />
    <tag k="addr:street" v="Wheelerville Road" />
    <tag k="addr:state" v="VT" />
    <tag k="ref:vcgi:esiteid" v="153758" />
  </node>
  <node id="-594" visible="true" lat="43.59878233" lon="-72.93099247">
    <tag k="addr:city" v="Mendon" />
    <tag k="addr:housenumber" v="162" />
    <tag k="addr:street" v="South Mendon Road" />
    <tag k="addr:state" v="VT" />
    <tag k="ref:vcgi:esiteid" v="153759" />
  </node>
  <node id="-595" visible="true" lat="43.59890041" lon="-72.930327">
    <tag k="addr:city" v="Mendon" />
    <tag k="addr:housenumber" v="163" />
    <tag k="addr:street" v="South Mendon Road" />
    <tag k="addr:state" v="VT" />
    <tag k="ref:vcgi:esiteid" v="153760" />
  </node>
  <node id="-596" visible="true" lat="43.59826557" lon="-72.92565193">
    <tag k="addr:city" v="Mendon" />
    <tag k="addr:housenumber" v="912" />
    <tag k="addr:street" v="Notch Road" />
    <tag k="addr:state" v="VT" />
    <tag k="ref:vcgi:esiteid" v="153761" />
  </node>
  <node id="-597" visible="true" lat="43.59849599" lon="-72.92503894">
    <tag k="addr:city" v="Mendon" />
    <tag k="addr:housenumber" v="942" />
    <tag k="addr:street" v="Notch Road" />
    <tag k="addr:state" v="VT" />
    <tag k="ref:vcgi:esiteid" v="153762" />
  </node>
  <node id="-598" visible="true" lat="43.59853764" lon="-72.92901349">
    <tag k="addr:city" v="Mendon" />
    <tag k="addr:housenumber" v="219" />
    <tag k="addr:street" v="South Mendon Road" />
    <tag k="addr:state" v="VT" />
    <tag k="ref:vcgi:esiteid" v="153763" />
  </node>
  <node id="-599" visible="true" lat="43.598323" lon="-72.92658393">
    <tag k="addr:city" v="Mendon" />
    <tag k="addr:housenumber" v="830" />
    <tag k="addr:street" v="Notch Road" />
    <tag k="addr:state" v="VT" />
    <tag k="ref:vcgi:esiteid" v="153764" />
  </node>
  <node id="-600" visible="true" lat="43.59825683" lon="-72.93077851">
    <tag k="addr:city" v="Mendon" />
    <tag k="addr:housenumber" v="194" />
    <tag k="addr:street" v="South Mendon Road" />
    <tag k="addr:state" v="VT" />
    <tag k="ref:vcgi:esiteid" v="153765" />
  </node>
  <node id="-601" visible="true" lat="43.59839716" lon="-72.92961694">
    <tag k="addr:city" v="Mendon" />
    <tag k="addr:housenumber" v="217" />
    <tag k="addr:street" v="South Mendon Road" />
    <tag k="addr:state" v="VT" />
    <tag k="ref:vcgi:esiteid" v="153766" />
  </node>
  <node id="-602" visible="true" lat="43.59822387" lon="-72.93209941">
    <tag k="addr:city" v="Mendon" />
    <tag k="addr:housenumber" v="226" />
    <tag k="addr:street" v="South Mendon Road" />
    <tag k="addr:state" v="VT" />
    <tag k="ref:vcgi:esiteid" v="153767" />
  </node>
  <node id="-603" visible="true" lat="43.59785108" lon="-72.93010035">
    <tag k="addr:city" v="Mendon" />
    <tag k="addr:housenumber" v="249" />
    <tag k="addr:street" v="South Mendon Road" />
    <tag k="addr:state" v="VT" />
    <tag k="ref:vcgi:esiteid" v="153768" />
  </node>
  <node id="-604" visible="true" lat="43.59740841" lon="-72.9255499">
    <tag k="addr:city" v="Mendon" />
    <tag k="addr:housenumber" v="100" />
    <tag k="addr:street" v="Top Ridge" />
    <tag k="addr:state" v="VT" />
    <tag k="ref:vcgi:esiteid" v="153769" />
  </node>
  <node id="-605" visible="true" lat="43.59712583" lon="-72.92492763">
    <tag k="addr:city" v="Mendon" />
    <tag k="addr:housenumber" v="79" />
    <tag k="addr:street" v="Top Ridge" />
    <tag k="addr:state" v="VT" />
    <tag k="ref:vcgi:esiteid" v="153770" />
  </node>
  <node id="-606" visible="true" lat="43.59699254" lon="-72.92999654">
    <tag k="addr:city" v="Mendon" />
    <tag k="addr:housenumber" v="272" />
    <tag k="addr:street" v="South Mendon Road" />
    <tag k="addr:state" v="VT" />
    <tag k="ref:vcgi:esiteid" v="153771" />
  </node>
  <node id="-607" visible="true" lat="43.59719626" lon="-72.92612523">
    <tag k="addr:city" v="Mendon" />
    <tag k="addr:housenumber" v="130" />
    <tag k="addr:street" v="Top Ridge" />
    <tag k="addr:state" v="VT" />
    <tag k="ref:vcgi:esiteid" v="153772" />
  </node>
  <node id="-608" visible="true" lat="43.59678477" lon="-72.92510315">
    <tag k="addr:city" v="Mendon" />
    <tag k="addr:housenumber" v="105" />
    <tag k="addr:street" v="Top Ridge" />
    <tag k="addr:state" v="VT" />
    <tag k="ref:vcgi:esiteid" v="153773" />
  </node>
  <node id="-609" visible="true" lat="43.59662778" lon="-72.92547871">
    <tag k="addr:city" v="Mendon" />
    <tag k="addr:housenumber" v="107" />
    <tag k="addr:street" v="Top Ridge" />
    <tag k="addr:state" v="VT" />
    <tag k="ref:vcgi:esiteid" v="153774" />
  </node>
  <node id="-610" visible="true" lat="43.59656822" lon="-72.92980202">
    <tag k="addr:city" v="Mendon" />
    <tag k="addr:housenumber" v="326" />
    <tag k="addr:street" v="South Mendon Road" />
    <tag k="addr:state" v="VT" />
    <tag k="ref:vcgi:esiteid" v="153776" />
  </node>
  <node id="-611" visible="true" lat="43.59641373" lon="-72.92744923">
    <tag k="addr:city" v="Mendon" />
    <tag k="addr:housenumber" v="321" />
    <tag k="addr:street" v="South Mendon Road" />
    <tag k="addr:state" v="VT" />
    <tag k="ref:vcgi:esiteid" v="153777" />
  </node>
  <node id="-612" visible="true" lat="43.59534555" lon="-72.9293848">
    <tag k="addr:city" v="Mendon" />
    <tag k="addr:housenumber" v="388" />
    <tag k="addr:street" v="South Mendon Road" />
    <tag k="addr:state" v="VT" />
    <tag k="ref:vcgi:esiteid" v="153778" />
  </node>
  <node id="-613" visible="true" lat="43.59610912" lon="-72.88734932">
    <tag k="addr:city" v="Mendon" />
    <tag k="addr:housenumber" v="1255" />
    <tag k="addr:street" v="Falls Road" />
    <tag k="addr:state" v="VT" />
    <tag k="ref:vcgi:esiteid" v="153779" />
  </node>
  <node id="-614" visible="true" lat="43.59506028" lon="-72.92116837">
    <tag k="addr:city" v="Mendon" />
    <tag k="addr:housenumber" v="1303" />
    <tag k="addr:street" v="Notch Road" />
    <tag k="addr:state" v="VT" />
    <tag k="ref:vcgi:esiteid" v="153780" />
  </node>
  <node id="-615" visible="true" lat="43.59506494" lon="-72.92850817">
    <tag k="addr:city" v="Mendon" />
    <tag k="addr:housenumber" v="435" />
    <tag k="addr:street" v="South Mendon Road" />
    <tag k="addr:state" v="VT" />
    <tag k="ref:vcgi:esiteid" v="153781" />
  </node>
  <node id="-616" visible="true" lat="43.59463699" lon="-72.92903013">
    <tag k="addr:city" v="Mendon" />
    <tag k="addr:housenumber" v="458" />
    <tag k="addr:street" v="South Mendon Road" />
    <tag k="addr:state" v="VT" />
    <tag k="ref:vcgi:esiteid" v="153782" />
  </node>
  <node id="-617" visible="true" lat="43.59420968" lon="-72.9318591">
    <tag k="addr:city" v="Mendon" />
    <tag k="addr:housenumber" v="105" />
    <tag k="addr:street" v="Spencer Meadows" />
    <tag k="addr:state" v="VT" />
    <tag k="ref:vcgi:esiteid" v="153783" />
  </node>
  <node id="-618" visible="true" lat="43.59380204" lon="-72.93057465">
    <tag k="addr:city" v="Mendon" />
    <tag k="addr:housenumber" v="59" />
    <tag k="addr:street" v="Spencer Meadows" />
    <tag k="addr:state" v="VT" />
    <tag k="ref:vcgi:esiteid" v="153784" />
  </node>
  <node id="-619" visible="true" lat="43.59332506" lon="-72.9288587">
    <tag k="addr:city" v="Mendon" />
    <tag k="addr:housenumber" v="552" />
    <tag k="addr:street" v="South Mendon Road" />
    <tag k="addr:state" v="VT" />
    <tag k="ref:vcgi:esiteid" v="153785" />
  </node>
  <node id="-620" visible="true" lat="43.59272456" lon="-72.9184551">
    <tag k="addr:city" v="Mendon" />
    <tag k="addr:housenumber" v="1529" />
    <tag k="addr:street" v="Notch Road" />
    <tag k="addr:state" v="VT" />
    <tag k="ref:vcgi:esiteid" v="153786" />
  </node>
  <node id="-621" visible="true" lat="43.59281043" lon="-72.93016957">
    <tag k="addr:city" v="Mendon" />
    <tag k="addr:housenumber" v="544" />
    <tag k="addr:street" v="South Mendon Road" />
    <tag k="addr:state" v="VT" />
    <tag k="ref:vcgi:esiteid" v="153787" />
  </node>
  <node id="-622" visible="true" lat="43.59213638" lon="-72.92790985">
    <tag k="addr:city" v="Mendon" />
    <tag k="addr:housenumber" v="541" />
    <tag k="addr:street" v="South Mendon Road" />
    <tag k="addr:state" v="VT" />
    <tag k="ref:vcgi:esiteid" v="153788" />
  </node>
  <node id="-623" visible="true" lat="43.59035537" lon="-72.90010434">
    <tag k="addr:city" v="Mendon" />
    <tag k="addr:housenumber" v="164" />
    <tag k="addr:street" v="Clark Mason Road" />
    <tag k="addr:state" v="VT" />
    <tag k="ref:vcgi:esiteid" v="153789" />
  </node>
  <node id="-624" visible="true" lat="43.58583352" lon="-72.90173091">
    <tag k="addr:city" v="Mendon" />
    <tag k="addr:housenumber" v="381" />
    <tag k="addr:street" v="Northam Road" />
    <tag k="addr:state" v="VT" />
    <tag k="ref:vcgi:esiteid" v="153790" />
  </node>
  <node id="-625" visible="true" lat="43.58419167" lon="-72.89939774">
    <tag k="addr:city" v="Mendon" />
    <tag k="addr:housenumber" v="493" />
    <tag k="addr:street" v="Northam Road" />
    <tag k="addr:state" v="VT" />
    <tag k="ref:vcgi:esiteid" v="153791" />
  </node>
  <node id="-626" visible="true" lat="43.58280553" lon="-72.90204566">
    <tag k="addr:city" v="Mendon" />
    <tag k="addr:housenumber" v="598" />
    <tag k="addr:street" v="Northam Road" />
    <tag k="addr:state" v="VT" />
    <tag k="ref:vcgi:esiteid" v="153792" />
  </node>
  <node id="-627" visible="true" lat="43.58150534" lon="-72.89755916">
    <tag k="addr:city" v="Mendon" />
    <tag k="addr:housenumber" v="607" />
    <tag k="addr:street" v="Northam Road" />
    <tag k="addr:state" v="VT" />
    <tag k="ref:vcgi:esiteid" v="153793" />
  </node>
  <node id="-628" visible="true" lat="43.70371152" lon="-72.83114622">
    <tag k="addr:city" v="Mendon" />
    <tag k="addr:housenumber" v="337" />
    <tag k="addr:street" v="Elbow Road" />
    <tag k="addr:state" v="VT" />
    <tag k="ref:vcgi:esiteid" v="153794" />
  </node>
  <node id="-629" visible="true" lat="43.63716185" lon="-72.93693089">
    <tag k="addr:city" v="Mendon" />
    <tag k="addr:housenumber" v="121" />
    <tag k="addr:street" v="Valley View" />
    <tag k="addr:state" v="VT" />
    <tag k="ref:vcgi:esiteid" v="153795" />
  </node>
  <node id="-630" visible="true" lat="43.63787003" lon="-72.93459929">
    <tag k="addr:city" v="Mendon" />
    <tag k="addr:housenumber" v="1591" />
    <tag k="addr:street" v="U.S. Route 4" />
    <tag k="addr:state" v="VT" />
    <tag k="ref:vcgi:esiteid" v="153796" />
  </node>
  <node id="-631" visible="true" lat="43.63974208" lon="-72.93464139">
    <tag k="addr:city" v="Mendon" />
    <tag k="addr:housenumber" v="73" />
    <tag k="addr:street" v="Stoney Meadows Lane" />
    <tag k="addr:state" v="VT" />
    <tag k="ref:vcgi:esiteid" v="153797" />
  </node>
  <node id="-632" visible="true" lat="43.65289204" lon="-72.89341939">
    <tag k="addr:city" v="Mendon" />
    <tag k="addr:housenumber" v="4451" />
    <tag k="addr:street" v="U.S. Route 4" />
    <tag k="addr:state" v="VT" />
    <tag k="ref:vcgi:esiteid" v="153798" />
  </node>
  <node id="-633" visible="true" lat="43.65312942" lon="-72.89528434">
    <tag k="addr:city" v="Mendon" />
    <tag k="addr:housenumber" v="137" />
    <tag k="addr:street" v="Tenney Road" />
    <tag k="addr:state" v="VT" />
    <tag k="ref:vcgi:esiteid" v="153799" />
  </node>
  <node id="-634" visible="true" lat="43.6555108" lon="-72.8891378">
    <tag k="addr:city" v="Mendon" />
    <tag k="addr:housenumber" v="78" />
    <tag k="addr:street" v="Cream Hill Road" />
    <tag k="addr:state" v="VT" />
    <tag k="ref:vcgi:esiteid" v="153800" />
  </node>
  <node id="-635" visible="true" lat="43.6561559" lon="-72.88057998">
    <tag k="addr:city" v="Mendon" />
    <tag k="addr:housenumber" v="36" />
    <tag k="addr:street" v="Cabin Row" />
    <tag k="addr:state" v="VT" />
    <tag k="ref:vcgi:esiteid" v="153801" />
  </node>
  <node id="-636" visible="true" lat="43.6561413" lon="-72.87977104">
    <tag k="addr:city" v="Mendon" />
    <tag k="addr:housenumber" v="5247" />
    <tag k="addr:street" v="U.S. Route 4" />
    <tag k="addr:state" v="VT" />
    <tag k="ref:vcgi:esiteid" v="153802" />
  </node>
  <node id="-637" visible="true" lat="43.6560477" lon="-72.88081434">
    <tag k="addr:city" v="Mendon" />
    <tag k="addr:housenumber" v="40" />
    <tag k="addr:street" v="Cabin Row" />
    <tag k="addr:state" v="VT" />
    <tag k="ref:vcgi:esiteid" v="153803" />
  </node>
  <node id="-638" visible="true" lat="43.65610298" lon="-72.88009304">
    <tag k="addr:city" v="Mendon" />
    <tag k="addr:housenumber" v="22" />
    <tag k="addr:street" v="Cabin Row" />
    <tag k="addr:state" v="VT" />
    <tag k="ref:vcgi:esiteid" v="153804" />
  </node>
  <node id="-639" visible="true" lat="43.65610955" lon="-72.87995136">
    <tag k="addr:city" v="Mendon" />
    <tag k="addr:housenumber" v="16" />
    <tag k="addr:street" v="Cabin Row" />
    <tag k="addr:state" v="VT" />
    <tag k="ref:vcgi:esiteid" v="153805" />
  </node>
  <node id="-640" visible="true" lat="43.65608772" lon="-72.88025326">
    <tag k="addr:city" v="Mendon" />
    <tag k="addr:housenumber" v="28" />
    <tag k="addr:street" v="Cabin Row" />
    <tag k="addr:state" v="VT" />
    <tag k="ref:vcgi:esiteid" v="153806" />
  </node>
  <node id="-641" visible="true" lat="43.65607444" lon="-72.88041173">
    <tag k="addr:city" v="Mendon" />
    <tag k="addr:housenumber" v="32" />
    <tag k="addr:street" v="Cabin Row" />
    <tag k="addr:state" v="VT" />
    <tag k="ref:vcgi:esiteid" v="153807" />
  </node>
  <node id="-642" visible="true" lat="43.65588972" lon="-72.88047759">
    <tag k="addr:city" v="Mendon" />
    <tag k="addr:housenumber" v="46" />
    <tag k="addr:street" v="Cabin Row" />
    <tag k="addr:state" v="VT" />
    <tag k="ref:vcgi:esiteid" v="153808" />
  </node>
  <node id="-643" visible="true" lat="43.65379692" lon="-72.9167067">
    <tag k="addr:city" v="Mendon" />
    <tag k="addr:housenumber" v="588" />
    <tag k="addr:street" v="Helvi Hill Road" />
    <tag k="addr:state" v="VT" />
    <tag k="ref:vcgi:esiteid" v="153809" />
  </node>
  <node id="-644" visible="true" lat="43.65376885" lon="-72.91763447">
    <tag k="addr:city" v="Mendon" />
    <tag k="addr:housenumber" v="548" />
    <tag k="addr:street" v="Helvi Hill Road" />
    <tag k="addr:state" v="VT" />
    <tag k="ref:vcgi:esiteid" v="153810" />
  </node>
  <node id="-645" visible="true" lat="43.65412779" lon="-72.91955454">
    <tag k="addr:city" v="Mendon" />
    <tag k="addr:housenumber" v="502" />
    <tag k="addr:street" v="Helvi Hill Road" />
    <tag k="addr:state" v="VT" />
    <tag k="ref:vcgi:esiteid" v="153811" />
  </node>
  <node id="-646" visible="true" lat="43.65475343" lon="-72.91767204">
    <tag k="addr:city" v="Mendon" />
    <tag k="addr:housenumber" v="423" />
    <tag k="addr:street" v="Helvi Hill Road" />
    <tag k="addr:state" v="VT" />
    <tag k="ref:vcgi:esiteid" v="153812" />
  </node>
  <node id="-647" visible="true" lat="43.65506221" lon="-72.91895082">
    <tag k="addr:city" v="Mendon" />
    <tag k="addr:housenumber" v="438" />
    <tag k="addr:street" v="Helvi Hill Road" />
    <tag k="addr:state" v="VT" />
    <tag k="ref:vcgi:esiteid" v="153813" />
  </node>
  <node id="-648" visible="true" lat="43.65518457" lon="-72.91705584">
    <tag k="addr:city" v="Mendon" />
    <tag k="addr:housenumber" v="397" />
    <tag k="addr:street" v="Helvi Hill Road" />
    <tag k="addr:state" v="VT" />
    <tag k="ref:vcgi:esiteid" v="153814" />
  </node>
  <node id="-649" visible="true" lat="43.65562724" lon="-72.91785922">
    <tag k="addr:city" v="Mendon" />
    <tag k="addr:housenumber" v="380" />
    <tag k="addr:street" v="Helvi Hill Road" />
    <tag k="addr:state" v="VT" />
    <tag k="ref:vcgi:esiteid" v="153815" />
  </node>
  <node id="-650" visible="true" lat="43.65617844" lon="-72.91787498">
    <tag k="addr:city" v="Mendon" />
    <tag k="addr:housenumber" v="342" />
    <tag k="addr:street" v="Helvi Hill Road" />
    <tag k="addr:state" v="VT" />
    <tag k="ref:vcgi:esiteid" v="153816" />
  </node>
  <node id="-651" visible="true" lat="43.65654455" lon="-72.9180218">
    <tag k="addr:city" v="Mendon" />
    <tag k="addr:housenumber" v="228" />
    <tag k="addr:street" v="Helvi Hill Road" />
    <tag k="addr:state" v="VT" />
    <tag k="ref:vcgi:esiteid" v="153817" />
  </node>
  <node id="-652" visible="true" lat="43.65743466" lon="-72.91723274">
    <tag k="addr:city" v="Mendon" />
    <tag k="addr:housenumber" v="269" />
    <tag k="addr:street" v="Helvi Hill Road" />
    <tag k="addr:state" v="VT" />
    <tag k="ref:vcgi:esiteid" v="153818" />
  </node>
  <node id="-653" visible="true" lat="43.65751397" lon="-72.91839437">
    <tag k="addr:city" v="Mendon" />
    <tag k="addr:housenumber" v="255" />
    <tag k="addr:street" v="Helvi Hill Road" />
    <tag k="addr:state" v="VT" />
    <tag k="ref:vcgi:esiteid" v="153819" />
  </node>
  <node id="-654" visible="true" lat="43.6568079" lon="-72.91944412">
    <tag k="addr:city" v="Mendon" />
    <tag k="addr:housenumber" v="198" />
    <tag k="addr:street" v="Helvi Hill Road" />
    <tag k="addr:state" v="VT" />
    <tag k="ref:vcgi:esiteid" v="153820" />
  </node>
  <node id="-655" visible="true" lat="43.65576055" lon="-72.91938371">
    <tag k="addr:city" v="Mendon" />
    <tag k="addr:housenumber" v="49" />
    <tag k="addr:street" v="Ethan Spur" />
    <tag k="addr:state" v="VT" />
    <tag k="ref:vcgi:esiteid" v="153821" />
  </node>
  <node id="-656" visible="true" lat="43.65630287" lon="-72.9200897">
    <tag k="addr:city" v="Mendon" />
    <tag k="addr:housenumber" v="48" />
    <tag k="addr:street" v="Ethan Spur" />
    <tag k="addr:state" v="VT" />
    <tag k="ref:vcgi:esiteid" v="153822" />
  </node>
  <node id="-657" visible="true" lat="43.65689412" lon="-72.92078617">
    <tag k="addr:city" v="Mendon" />
    <tag k="addr:housenumber" v="20" />
    <tag k="addr:street" v="Ethan Spur" />
    <tag k="addr:state" v="VT" />
    <tag k="ref:vcgi:esiteid" v="153823" />
  </node>
  <node id="-658" visible="true" lat="43.6605562" lon="-72.92277359">
    <tag k="addr:city" v="Mendon" />
    <tag k="addr:housenumber" v="49" />
    <tag k="addr:street" v="Helvi Hill Road" />
    <tag k="addr:state" v="VT" />
    <tag k="ref:vcgi:esiteid" v="153824" />
  </node>
  <node id="-659" visible="true" lat="43.6568072" lon="-72.92272941">
    <tag k="addr:city" v="Mendon" />
    <tag k="addr:housenumber" v="35" />
    <tag k="addr:street" v="Helvi Hill Road" />
    <tag k="addr:state" v="VT" />
    <tag k="ref:vcgi:esiteid" v="153825" />
  </node>
  <node id="-660" visible="true" lat="43.65610122" lon="-72.92602539">
    <tag k="addr:city" v="Mendon" />
    <tag k="addr:housenumber" v="401" />
    <tag k="addr:street" v="Sherwood Drive" />
    <tag k="addr:state" v="VT" />
    <tag k="ref:vcgi:esiteid" v="153826" />
  </node>
  <node id="-661" visible="true" lat="43.6557472" lon="-72.87318293">
    <tag k="addr:city" v="Mendon" />
    <tag k="addr:housenumber" v="68" />
    <tag k="addr:street" v="Birchwood Avenue" />
    <tag k="addr:state" v="VT" />
    <tag k="ref:vcgi:esiteid" v="153827" />
  </node>
  <node id="-662" visible="true" lat="43.6671859" lon="-72.86690761">
    <tag k="addr:city" v="Mendon" />
    <tag k="addr:housenumber" v="144" />
    <tag k="addr:street" v="Craigs Lane" />
    <tag k="addr:state" v="VT" />
    <tag k="ref:vcgi:esiteid" v="153829" />
  </node>
  <node id="-663" visible="true" lat="43.64036078" lon="-72.93580492">
    <tag k="addr:city" v="Mendon" />
    <tag k="addr:housenumber" v="153" />
    <tag k="addr:street" v="Stoney Meadows Lane" />
    <tag k="addr:state" v="VT" />
    <tag k="ref:vcgi:esiteid" v="153830" />
  </node>
  <node id="-664" visible="true" lat="43.63593483" lon="-72.9372239">
    <tag k="addr:city" v="Mendon" />
    <tag k="addr:housenumber" v="82" />
    <tag k="addr:street" v="Best Western Place" />
    <tag k="addr:state" v="VT" />
    <tag k="ref:vcgi:esiteid" v="153832" />
  </node>
  <node id="-665" visible="true" lat="43.65157439" lon="-72.87931488">
    <tag k="addr:city" v="Mendon" />
    <tag k="addr:housenumber" v="430" />
    <tag k="addr:street" v="Black Bear Path" />
    <tag k="addr:state" v="VT" />
    <tag k="ref:vcgi:esiteid" v="153833" />
  </node>
  <node id="-666" visible="true" lat="43.62164179" lon="-72.88119537">
    <tag k="addr:city" v="Mendon" />
    <tag k="addr:housenumber" v="4176" />
    <tag k="addr:street" v="Wheelerville Road" />
    <tag k="addr:state" v="VT" />
    <tag k="ref:vcgi:esiteid" v="153834" />
  </node>
  <node id="-667" visible="true" lat="43.62970661" lon="-72.93260313">
    <tag k="addr:city" v="Mendon" />
    <tag k="addr:housenumber" v="389" />
    <tag k="addr:street" v="Town Line Road" />
    <tag k="addr:state" v="VT" />
    <tag k="ref:vcgi:esiteid" v="153835" />
  </node>
  <node id="-668" visible="true" lat="43.58881738" lon="-72.90345832">
    <tag k="addr:city" v="Mendon" />
    <tag k="addr:housenumber" v="204" />
    <tag k="addr:street" v="Northam Road" />
    <tag k="addr:state" v="VT" />
    <tag k="ref:vcgi:esiteid" v="153836" />
  </node>
  <node id="-669" visible="true" lat="43.66232138" lon="-72.87107494">
    <tag k="addr:city" v="Mendon" />
    <tag k="addr:housenumber" v="302" />
    <tag k="addr:street" v="Cortina Country Road" />
    <tag k="addr:state" v="VT" />
    <tag k="ref:vcgi:esiteid" v="153837" />
  </node>
  <node id="-670" visible="true" lat="43.67035146" lon="-72.84520999">
    <tag k="addr:city" v="Mendon" />
    <tag k="addr:housenumber" v="194" />
    <tag k="addr:street" v="Round Robin Road" />
    <tag k="addr:state" v="VT" />
    <tag k="ref:vcgi:esiteid" v="153838" />
  </node>
  <node id="-671" visible="true" lat="43.66987826" lon="-72.84493589">
    <tag k="addr:city" v="Mendon" />
    <tag k="addr:housenumber" v="168" />
    <tag k="addr:street" v="Round Robin Road" />
    <tag k="addr:state" v="VT" />
    <tag k="ref:vcgi:esiteid" v="153839" />
  </node>
  <node id="-672" visible="true" lat="43.66272852" lon="-72.87000631">
    <tag k="addr:city" v="Mendon" />
    <tag k="addr:housenumber" v="250" />
    <tag k="addr:street" v="Cortina Country Road" />
    <tag k="addr:state" v="VT" />
    <tag k="ref:vcgi:esiteid" v="153840" />
  </node>
  <node id="-673" visible="true" lat="43.61845279" lon="-72.92892126">
    <tag k="addr:city" v="Mendon" />
    <tag k="addr:housenumber" v="297" />
    <tag k="addr:street" v="White Pine Hill" />
    <tag k="addr:state" v="VT" />
    <tag k="ref:vcgi:esiteid" v="153841" />
  </node>
  <node id="-674" visible="true" lat="43.67398929" lon="-72.84479829">
    <tag k="addr:city" v="Mendon" />
    <tag k="addr:housenumber" v="140" />
    <tag k="addr:street" v="Windrift Ridge Road" />
    <tag k="addr:state" v="VT" />
    <tag k="ref:vcgi:esiteid" v="153842" />
  </node>
  <node id="-675" visible="true" lat="43.67327875" lon="-72.84389861">
    <tag k="addr:city" v="Mendon" />
    <tag k="addr:housenumber" v="87" />
    <tag k="addr:street" v="Windrift Ridge Road" />
    <tag k="addr:state" v="VT" />
    <tag k="ref:vcgi:esiteid" v="153843" />
  </node>
  <node id="-676" visible="true" lat="43.65696446" lon="-72.91711848">
    <tag k="addr:city" v="Mendon" />
    <tag k="addr:housenumber" v="299" />
    <tag k="addr:street" v="Helvi Hill Road" />
    <tag k="addr:state" v="VT" />
    <tag k="ref:vcgi:esiteid" v="153844" />
  </node>
  <node id="-677" visible="true" lat="43.65511908" lon="-72.93475707">
    <tag k="addr:city" v="Mendon" />
    <tag k="addr:housenumber" v="465" />
    <tag k="addr:street" v="Meadow Lake Drive" />
    <tag k="addr:state" v="VT" />
    <tag k="ref:vcgi:esiteid" v="153845" />
  </node>
  <node id="-678" visible="true" lat="43.67201857" lon="-72.84358524">
    <tag k="addr:city" v="Mendon" />
    <tag k="addr:housenumber" v="408" />
    <tag k="addr:street" v="Round Robin Road" />
    <tag k="addr:state" v="VT" />
    <tag k="ref:vcgi:esiteid" v="153846" />
  </node>
  <node id="-679" visible="true" lat="43.65644196" lon="-72.92843814">
    <tag k="addr:city" v="Mendon" />
    <tag k="addr:housenumber" v="243" />
    <tag k="addr:street" v="Sherwood Drive" />
    <tag k="addr:state" v="VT" />
    <tag k="ref:vcgi:esiteid" v="153847" />
  </node>
  <node id="-680" visible="true" lat="43.65600383" lon="-72.93677115">
    <tag k="addr:city" v="Mendon" />
    <tag k="addr:housenumber" v="571" />
    <tag k="addr:street" v="Meadow Lake Drive" />
    <tag k="addr:state" v="VT" />
    <tag k="ref:vcgi:esiteid" v="153848" />
  </node>
  <node id="-681" visible="true" lat="43.66650872" lon="-72.92556388">
    <tag k="addr:city" v="Mendon" />
    <tag k="addr:housenumber" v="884" />
    <tag k="addr:street" v="Stone Hollow" />
    <tag k="addr:state" v="VT" />
    <tag k="ref:vcgi:esiteid" v="153849" />
  </node>
  <node id="-682" visible="true" lat="43.665608" lon="-72.93502549">
    <tag k="addr:city" v="Mendon" />
    <tag k="addr:housenumber" v="53" />
    <tag k="addr:street" v="Currier Road" />
    <tag k="addr:state" v="VT" />
    <tag k="ref:vcgi:esiteid" v="153850" />
  </node>
  <node id="-683" visible="true" lat="43.66204556" lon="-72.86915514">
    <tag k="addr:city" v="Mendon" />
    <tag k="addr:housenumber" v="215" />
    <tag k="addr:street" v="Cortina Country Road" />
    <tag k="addr:state" v="VT" />
    <tag k="ref:vcgi:esiteid" v="153851" />
  </node>
  <node id="-684" visible="true" lat="43.66194316" lon="-72.87167781">
    <tag k="addr:city" v="Mendon" />
    <tag k="addr:housenumber" v="376" />
    <tag k="addr:street" v="Cortina Country Road" />
    <tag k="addr:state" v="VT" />
    <tag k="ref:vcgi:esiteid" v="153852" />
  </node>
  <node id="-685" visible="true" lat="43.67138638" lon="-72.86630579">
    <tag k="addr:city" v="Mendon" />
    <tag k="addr:housenumber" v="1534" />
    <tag k="addr:street" v="Old Turnpike Road" />
    <tag k="addr:state" v="VT" />
    <tag k="ref:vcgi:esiteid" v="153853" />
  </node>
  <node id="-686" visible="true" lat="43.65916611" lon="-72.88994138">
    <tag k="addr:city" v="Mendon" />
    <tag k="addr:housenumber" v="362" />
    <tag k="addr:street" v="Cream Hill Road" />
    <tag k="addr:state" v="VT" />
    <tag k="ref:vcgi:esiteid" v="153854" />
  </node>
  <node id="-687" visible="true" lat="43.65761109" lon="-72.93506932">
    <tag k="addr:city" v="Mendon" />
    <tag k="addr:housenumber" v="472" />
    <tag k="addr:street" v="Meadow Lake Drive" />
    <tag k="addr:state" v="VT" />
    <tag k="ref:vcgi:esiteid" v="153855" />
  </node>
  <node id="-688" visible="true" lat="43.67398547" lon="-72.84361609">
    <tag k="addr:city" v="Mendon" />
    <tag k="addr:housenumber" v="124" />
    <tag k="addr:street" v="Windrift Ridge Road" />
    <tag k="addr:state" v="VT" />
    <tag k="ref:vcgi:esiteid" v="153856" />
  </node>
  <node id="-689" visible="true" lat="43.6422228" lon="-72.9317966">
    <tag k="addr:city" v="Mendon" />
    <tag k="addr:housenumber" v="1927" />
    <tag k="addr:street" v="U.S. Route 4" />
    <tag k="addr:state" v="VT" />
    <tag k="ref:vcgi:esiteid" v="153858" />
  </node>
  <node id="-690" visible="true" lat="43.64151093" lon="-72.932353">
    <tag k="addr:city" v="Mendon" />
    <tag k="addr:housenumber" v="1889" />
    <tag k="addr:street" v="U.S. Route 4" />
    <tag k="addr:state" v="VT" />
    <tag k="ref:vcgi:esiteid" v="153859" />
  </node>
  <node id="-691" visible="true" lat="43.63746935" lon="-72.93547797">
    <tag k="addr:city" v="Mendon" />
    <tag k="addr:housenumber" v="42" />
    <tag k="addr:street" v="Valley View" />
    <tag k="addr:state" v="VT" />
    <tag k="ref:vcgi:esiteid" v="153860" />
  </node>
  <node id="-692" visible="true" lat="43.64085392" lon="-72.93602556">
    <tag k="addr:city" v="Mendon" />
    <tag k="addr:housenumber" v="152" />
    <tag k="addr:street" v="Stoney Meadows Lane" />
    <tag k="addr:state" v="VT" />
    <tag k="ref:vcgi:esiteid" v="153861" />
  </node>
  <node id="-693" visible="true" lat="43.65175832" lon="-72.88428602">
    <tag k="addr:city" v="Mendon" />
    <tag k="addr:housenumber" v="185" />
    <tag k="addr:street" v="Black Bear Path" />
    <tag k="addr:state" v="VT" />
    <tag k="ref:vcgi:esiteid" v="153862" />
  </node>
  <node id="-694" visible="true" lat="43.63078175" lon="-72.93611781">
    <tag k="addr:city" v="Mendon" />
    <tag k="addr:housenumber" v="283" />
    <tag k="addr:street" v="Town Line Road" />
    <tag k="addr:state" v="VT" />
    <tag k="ref:vcgi:esiteid" v="153864" />
  </node>
  <node id="-695" visible="true" lat="43.62059853" lon="-72.87913857">
    <tag k="addr:city" v="Mendon" />
    <tag k="addr:housenumber" v="4150" />
    <tag k="addr:street" v="Wheelerville Road" />
    <tag k="addr:state" v="VT" />
    <tag k="ref:vcgi:esiteid" v="153865" />
  </node>
  <node id="-696" visible="true" lat="43.60488236" lon="-72.93366524">
    <tag k="addr:city" v="Mendon" />
    <tag k="addr:housenumber" v="306" />
    <tag k="addr:street" v="Notch Road" />
    <tag k="addr:state" v="VT" />
    <tag k="ref:vcgi:esiteid" v="153866" />
  </node>
  <node id="-697" visible="true" lat="43.60561063" lon="-72.93306505">
    <tag k="addr:city" v="Mendon" />
    <tag k="addr:housenumber" v="251" />
    <tag k="addr:street" v="Notch Road" />
    <tag k="addr:state" v="VT" />
    <tag k="ref:vcgi:esiteid" v="153867" />
  </node>
  <node id="-698" visible="true" lat="43.59933624" lon="-72.92809146">
    <tag k="addr:city" v="Mendon" />
    <tag k="addr:housenumber" v="788" />
    <tag k="addr:street" v="Notch Road" />
    <tag k="addr:state" v="VT" />
    <tag k="ref:vcgi:esiteid" v="153868" />
  </node>
  <node id="-699" visible="true" lat="43.60479768" lon="-72.90335192">
    <tag k="addr:city" v="Mendon" />
    <tag k="addr:housenumber" v="5981" />
    <tag k="addr:street" v="Wheelerville Road" />
    <tag k="addr:state" v="VT" />
    <tag k="ref:vcgi:esiteid" v="153869" />
  </node>
  <node id="-700" visible="true" lat="43.59507725" lon="-72.9305684">
    <tag k="addr:city" v="Mendon" />
    <tag k="addr:housenumber" v="102" />
    <tag k="addr:street" v="Spencer Meadows" />
    <tag k="addr:state" v="VT" />
    <tag k="ref:vcgi:esiteid" v="153870" />
  </node>
  <node id="-701" visible="true" lat="43.58271138" lon="-72.90214232">
    <tag k="addr:city" v="Mendon" />
    <tag k="addr:housenumber" v="600" />
    <tag k="addr:street" v="Northam Road" />
    <tag k="addr:state" v="VT" />
    <tag k="ref:vcgi:esiteid" v="153871" />
  </node>
  <node id="-702" visible="true" lat="43.59185355" lon="-72.89396977">
    <tag k="addr:city" v="Mendon" />
    <tag k="addr:housenumber" v="375" />
    <tag k="addr:street" v="Clark Mason Road" />
    <tag k="addr:state" v="VT" />
    <tag k="ref:vcgi:esiteid" v="153872" />
  </node>
  <node id="-703" visible="true" lat="43.59025599" lon="-72.89184529">
    <tag k="addr:city" v="Mendon" />
    <tag k="addr:housenumber" v="389" />
    <tag k="addr:street" v="Clark Mason Road" />
    <tag k="addr:state" v="VT" />
    <tag k="ref:vcgi:esiteid" v="153873" />
  </node>
  <node id="-704" visible="true" lat="43.60268186" lon="-72.93417836">
    <tag k="addr:city" v="Mendon" />
    <tag k="addr:housenumber" v="90" />
    <tag k="addr:street" v="Beechwood Farm Road" />
    <tag k="addr:state" v="VT" />
    <tag k="ref:vcgi:esiteid" v="153874" />
  </node>
  <node id="-705" visible="true" lat="43.59644655" lon="-72.92611891">
    <tag k="addr:city" v="Mendon" />
    <tag k="addr:housenumber" v="127" />
    <tag k="addr:street" v="Top Ridge" />
    <tag k="addr:state" v="VT" />
    <tag k="ref:vcgi:esiteid" v="153875" />
  </node>
  <node id="-706" visible="true" lat="43.65010247" lon="-72.93419821">
    <tag k="addr:city" v="Mendon" />
    <tag k="addr:housenumber" v="485" />
    <tag k="addr:street" v="Esquiline Hill" />
    <tag k="addr:state" v="VT" />
    <tag k="ref:vcgi:esiteid" v="306584" />
  </node>
  <node id="-707" visible="true" lat="43.64949575" lon="-72.93296011">
    <tag k="addr:city" v="Mendon" />
    <tag k="addr:housenumber" v="490" />
    <tag k="addr:street" v="Esquiline Hill" />
    <tag k="addr:state" v="VT" />
    <tag k="ref:vcgi:esiteid" v="306585" />
  </node>
  <node id="-708" visible="true" lat="43.64966612" lon="-72.93545639">
    <tag k="addr:city" v="Mendon" />
    <tag k="addr:housenumber" v="438" />
    <tag k="addr:street" v="Esquiline Hill" />
    <tag k="addr:state" v="VT" />
    <tag k="ref:vcgi:esiteid" v="306765" />
  </node>
  <node id="-709" visible="true" lat="43.67117464" lon="-72.84511003">
    <tag k="addr:city" v="Mendon" />
    <tag k="addr:housenumber" v="258" />
    <tag k="addr:street" v="Round Robin Road" />
    <tag k="addr:state" v="VT" />
    <tag k="ref:vcgi:esiteid" v="307862" />
  </node>
  <node id="-710" visible="true" lat="43.65402586" lon="-72.92523383">
    <tag k="addr:city" v="Mendon" />
    <tag k="addr:housenumber" v="122" />
    <tag k="addr:street" v="Terra Lane" />
    <tag k="addr:state" v="VT" />
    <tag k="ref:vcgi:esiteid" v="309157" />
  </node>
  <node id="-711" visible="true" lat="43.64947845" lon="-72.93145139">
    <tag k="addr:city" v="Mendon" />
    <tag k="addr:housenumber" v="19" />
    <tag k="addr:street" v="Sugar Lane" />
    <tag k="addr:state" v="VT" />
    <tag k="ref:vcgi:esiteid" v="309158" />
  </node>
  <node id="-712" visible="true" lat="43.64906907" lon="-72.93139874">
    <tag k="addr:city" v="Mendon" />
    <tag k="addr:housenumber" v="174" />
    <tag k="addr:street" v="Esquiline Hill" />
    <tag k="addr:state" v="VT" />
    <tag k="ref:vcgi:esiteid" v="309159" />
  </node>
  <node id="-713" visible="true" lat="43.640405" lon="-72.93495228">
    <tag k="addr:city" v="Mendon" />
    <tag k="addr:housenumber" v="123" />
    <tag k="addr:street" v="Stoney Meadows Lane" />
    <tag k="addr:state" v="VT" />
    <tag k="ref:vcgi:esiteid" v="309160" />
  </node>
  <node id="-714" visible="true" lat="43.66325897" lon="-72.86570423">
    <tag k="addr:city" v="Mendon" />
    <tag k="addr:housenumber" v="95" />
    <tag k="addr:street" v="Barbers Loop" />
    <tag k="addr:state" v="VT" />
    <tag k="ref:vcgi:esiteid" v="311110" />
  </node>
  <node id="-715" visible="true" lat="43.656622" lon="-72.87315799">
    <tag k="addr:city" v="Mendon" />
    <tag k="addr:housenumber" v="15" />
    <tag k="addr:street" v="Birchwood Avenue" />
    <tag k="addr:state" v="VT" />
    <tag k="ref:vcgi:esiteid" v="311111" />
  </node>
  <node id="-716" visible="true" lat="43.637503" lon="-72.93478616">
    <tag k="addr:city" v="Mendon" />
    <tag k="addr:housenumber" v="16" />
    <tag k="addr:street" v="Valley View" />
    <tag k="addr:state" v="VT" />
    <tag k="ref:vcgi:esiteid" v="311112" />
  </node>
  <node id="-717" visible="true" lat="43.66798087" lon="-72.92390394">
    <tag k="addr:city" v="Mendon" />
    <tag k="addr:housenumber" v="1142" />
    <tag k="addr:street" v="Stone Hollow" />
    <tag k="addr:state" v="VT" />
    <tag k="ref:vcgi:esiteid" v="313235" />
  </node>
  <node id="-718" visible="true" lat="43.66675648" lon="-72.92670217">
    <tag k="addr:city" v="Mendon" />
    <tag k="addr:housenumber" v="893" />
    <tag k="addr:street" v="Stone Hollow" />
    <tag k="addr:state" v="VT" />
    <tag k="ref:vcgi:esiteid" v="313236" />
  </node>
  <node id="-719" visible="true" lat="43.67349144" lon="-72.84498488">
    <tag k="addr:city" v="Mendon" />
    <tag k="addr:housenumber" v="135" />
    <tag k="addr:street" v="Windrift Ridge Road" />
    <tag k="addr:state" v="VT" />
    <tag k="ref:vcgi:esiteid" v="332669" />
  </node>
  <node id="-720" visible="true" lat="43.67274907" lon="-72.8446274">
    <tag k="addr:city" v="Mendon" />
    <tag k="addr:housenumber" v="371" />
    <tag k="addr:street" v="Round Robin Road" />
    <tag k="addr:state" v="VT" />
    <tag k="ref:vcgi:esiteid" v="332670" />
  </node>
  <node id="-721" visible="true" lat="43.66601796" lon="-72.84918791">
    <tag k="addr:city" v="Mendon" />
    <tag k="addr:housenumber" v="7154" />
    <tag k="addr:street" v="U.S. Route 4" />
    <tag k="addr:state" v="VT" />
    <tag k="ref:vcgi:esiteid" v="332674" />
  </node>
  <node id="-722" visible="true" lat="43.64740391" lon="-72.93032987">
    <tag k="addr:city" v="Mendon" />
    <tag k="addr:housenumber" v="100" />
    <tag k="addr:street" v="Park Lane" />
    <tag k="addr:state" v="VT" />
    <tag k="ref:vcgi:esiteid" v="336262" />
  </node>
  <node id="-723" visible="true" lat="43.65041966" lon="-72.9332913">
    <tag k="addr:city" v="Mendon" />
    <tag k="addr:housenumber" v="515" />
    <tag k="addr:street" v="Esquiline Hill" />
    <tag k="addr:state" v="VT" />
    <tag k="ref:vcgi:esiteid" v="336263" />
  </node>
  <node id="-724" visible="true" lat="43.64887272" lon="-72.93240365">
    <tag k="addr:city" v="Mendon" />
    <tag k="addr:housenumber" v="264" />
    <tag k="addr:street" v="Esquiline Hill" />
    <tag k="addr:state" v="VT" />
    <tag k="ref:vcgi:esiteid" v="336265" />
  </node>
  <node id="-725" visible="true" lat="43.6687678" lon="-72.84538753">
    <tag k="addr:city" v="Mendon" />
    <tag k="addr:housenumber" v="113" />
    <tag k="addr:street" v="Round Robin Road" />
    <tag k="addr:state" v="VT" />
    <tag k="ref:vcgi:esiteid" v="336266" />
  </node>
  <node id="-726" visible="true" lat="43.66834588" lon="-72.84590295">
    <tag k="addr:city" v="Mendon" />
    <tag k="addr:housenumber" v="122" />
    <tag k="addr:street" v="Merry Maple Drive" />
    <tag k="addr:state" v="VT" />
    <tag k="ref:vcgi:esiteid" v="336268" />
  </node>
  <node id="-727" visible="true" lat="43.65964463" lon="-72.86847859">
    <tag k="addr:city" v="Mendon" />
    <tag k="addr:housenumber" v="5896" />
    <tag k="addr:street" v="U.S. Route 4" />
    <tag k="addr:state" v="VT" />
    <tag k="ref:vcgi:esiteid" v="336269" />
  </node>
  <node id="-734" visible="true" lat="43.65635083" lon="-72.8925764">
    <tag k="addr:city" v="Mendon" />
    <tag k="addr:housenumber" v="143" />
    <tag k="addr:street" v="Cream Hill Road" />
    <tag k="addr:state" v="VT" />
    <tag k="ref:vcgi:esiteid" v="336278" />
  </node>
  <node id="-735" visible="true" lat="43.64849761" lon="-72.93557232">
    <tag k="addr:city" v="Mendon" />
    <tag k="addr:housenumber" v="367" />
    <tag k="addr:street" v="Esquiline Hill" />
    <tag k="addr:state" v="VT" />
    <tag k="ref:vcgi:esiteid" v="336279" />
  </node>
  <node id="-736" visible="true" lat="43.65707184" lon="-72.8864309">
    <tag k="addr:city" v="Mendon" />
    <tag k="addr:housenumber" v="177" />
    <tag k="addr:street" v="Old Turnpike Road" />
    <tag k="addr:state" v="VT" />
    <tag k="ref:vcgi:esiteid" v="336280" />
  </node>
  <node id="-739" visible="true" lat="43.65176148" lon="-72.88808277">
    <tag k="addr:city" v="Mendon" />
    <tag k="addr:housenumber" v="241" />
    <tag k="addr:street" v="Woodward Road" />
    <tag k="addr:state" v="VT" />
    <tag k="ref:vcgi:esiteid" v="336283" />
  </node>
  <node id="-740" visible="true" lat="43.62198811" lon="-72.88570893">
    <tag k="addr:city" v="Mendon" />
    <tag k="addr:housenumber" v="4286" />
    <tag k="addr:street" v="Wheelerville Road" />
    <tag k="addr:state" v="VT" />
    <tag k="ref:vcgi:esiteid" v="336284" />
  </node>
  <node id="-742" visible="true" lat="43.59219813" lon="-72.90352207">
    <tag k="addr:city" v="Mendon" />
    <tag k="addr:housenumber" v="1510" />
    <tag k="addr:street" v="Falls Road" />
    <tag k="addr:state" v="VT" />
    <tag k="ref:vcgi:esiteid" v="336286" />
  </node>
  <node id="-744" visible="true" lat="43.58714646" lon="-72.90387108">
    <tag k="addr:city" v="Mendon" />
    <tag k="addr:housenumber" v="270" />
    <tag k="addr:street" v="Northam Road" />
    <tag k="addr:state" v="VT" />
    <tag k="ref:vcgi:esiteid" v="336288" />
  </node>
  <node id="-745" visible="true" lat="43.57654749" lon="-72.90253564">
    <tag k="addr:city" v="Mendon" />
    <tag k="addr:housenumber" v="1030" />
    <tag k="addr:street" v="Northam Road" />
    <tag k="addr:state" v="VT" />
    <tag k="ref:vcgi:esiteid" v="336289" />
  </node>
  <node id="-746" visible="true" lat="43.60092554" lon="-72.92948407">
    <tag k="addr:city" v="Mendon" />
    <tag k="addr:housenumber" v="641" />
    <tag k="addr:street" v="Notch Road" />
    <tag k="addr:state" v="VT" />
    <tag k="ref:vcgi:esiteid" v="336290" />
  </node>
  <node id="-749" visible="true" lat="43.60513713" lon="-72.93065182">
    <tag k="addr:city" v="Mendon" />
    <tag k="addr:housenumber" v="37" />
    <tag k="addr:street" v="Bell Ridge Run" />
    <tag k="addr:state" v="VT" />
    <tag k="ref:vcgi:esiteid" v="336294" />
  </node>
  <node id="-750" visible="true" lat="43.63744991" lon="-72.9373679">
    <tag k="addr:city" v="Mendon" />
    <tag k="addr:housenumber" v="125" />
    <tag k="addr:street" v="Valley View" />
    <tag k="addr:state" v="VT" />
    <tag k="ref:vcgi:esiteid" v="336305" />
  </node>
  <node id="-751" visible="true" lat="43.67361279" lon="-72.84316405">
    <tag k="addr:city" v="Mendon" />
    <tag k="addr:housenumber" v="72" />
    <tag k="addr:street" v="Windrift Ridge Road" />
    <tag k="addr:state" v="VT" />
    <tag k="ref:vcgi:esiteid" v="336312" />
  </node>
  <node id="-752" visible="true" lat="43.6383991" lon="-72.93531129">
    <tag k="addr:city" v="Mendon" />
    <tag k="addr:housenumber" v="91" />
    <tag k="addr:street" v="Chalet Heights" />
    <tag k="addr:state" v="VT" />
    <tag k="ref:vcgi:esiteid" v="336313" />
  </node>
  <node id="-754" visible="true" lat="43.65658343" lon="-72.87736023">
    <tag k="addr:city" v="Mendon" />
    <tag k="addr:housenumber" v="5371" />
    <tag k="addr:street" v="U.S. Route 4" />
    <tag k="addr:state" v="VT" />
    <tag k="ref:vcgi:esiteid" v="336617" />
  </node>
  <node id="-755" visible="true" lat="43.65744934" lon="-72.87583461">
    <tag k="addr:city" v="Mendon" />
    <tag k="addr:housenumber" v="85" />
    <tag k="addr:street" v="Mountain Commons Road" />
    <tag k="addr:state" v="VT" />
    <tag k="ref:vcgi:esiteid" v="336618" />
  </node>
  <node id="-756" visible="true" lat="43.67308318" lon="-72.84293002">
    <tag k="addr:city" v="Mendon" />
    <tag k="addr:housenumber" v="58" />
    <tag k="addr:street" v="Windrift Ridge Road" />
    <tag k="addr:state" v="VT" />
    <tag k="ref:vcgi:esiteid" v="341012" />
  </node>
  <node id="-757" visible="true" lat="43.67094528" lon="-72.84446833">
    <tag k="addr:city" v="Mendon" />
    <tag k="addr:housenumber" v="175" />
    <tag k="addr:street" v="Overbrook Drive" />
    <tag k="addr:state" v="VT" />
    <tag k="ref:vcgi:esiteid" v="341013" />
  </node>
  <node id="-758" visible="true" lat="43.60523752" lon="-72.93377689">
    <tag k="addr:city" v="Mendon" />
    <tag k="addr:housenumber" v="272" />
    <tag k="addr:street" v="Notch Road" />
    <tag k="addr:state" v="VT" />
    <tag k="ref:vcgi:esiteid" v="341550" />
  </node>
  <node id="-759" visible="true" lat="43.65308459" lon="-72.90778846">
    <tag k="addr:city" v="Mendon" />
    <tag k="addr:housenumber" v="589" />
    <tag k="addr:street" v="Journeys End" />
    <tag k="addr:state" v="VT" />
    <tag k="ref:vcgi:esiteid" v="342533" />
  </node>
  <node id="-760" visible="true" lat="43.67282775" lon="-72.84303805">
    <tag k="addr:city" v="Mendon" />
    <tag k="addr:housenumber" v="42" />
    <tag k="addr:street" v="Windrift Ridge Road" />
    <tag k="addr:state" v="VT" />
    <tag k="ref:vcgi:esiteid" v="342535" />
  </node>
  <node id="-761" visible="true" lat="43.67283431" lon="-72.84301353">
    <tag k="addr:city" v="Mendon" />
    <tag k="addr:housenumber" v="44" />
    <tag k="addr:street" v="Windrift Ridge Road" />
    <tag k="addr:state" v="VT" />
    <tag k="ref:vcgi:esiteid" v="342536" />
  </node>
  <node id="-762" visible="true" lat="43.66227479" lon="-72.87949127">
    <tag k="addr:city" v="Mendon" />
    <tag k="addr:housenumber" v="627" />
    <tag k="addr:street" v="Old Turnpike Road" />
    <tag k="addr:state" v="VT" />
    <tag k="ref:vcgi:esiteid" v="450355" />
  </node>
  <node id="-763" visible="true" lat="43.66655517" lon="-72.84990889">
    <tag k="addr:city" v="Mendon" />
    <tag k="addr:housenumber" v="7150" />
    <tag k="addr:street" v="U.S. Route 4" />
    <tag k="addr:state" v="VT" />
    <tag k="ref:vcgi:esiteid" v="450358" />
  </node>
  <node id="-764" visible="true" lat="43.6819254" lon="-72.84667494">
    <tag k="addr:city" v="Mendon" />
    <tag k="addr:housenumber" v="676" />
    <tag k="addr:street" v="Old Coach Road" />
    <tag k="addr:state" v="VT" />
    <tag k="ref:vcgi:esiteid" v="450362" />
  </node>
  <node id="-765" visible="true" lat="43.60323394" lon="-72.93110859">
    <tag k="addr:city" v="Mendon" />
    <tag k="addr:housenumber" v="441" />
    <tag k="addr:street" v="Notch Road" />
    <tag k="addr:state" v="VT" />
    <tag k="ref:vcgi:esiteid" v="451565" />
  </node>
  <node id="-766" visible="true" lat="43.60940184" lon="-72.86620827">
    <tag k="addr:city" v="Mendon" />
    <tag k="addr:housenumber" v="3989" />
    <tag k="addr:street" v="Wheelerville Road" />
    <tag k="addr:state" v="VT" />
    <tag k="ref:vcgi:esiteid" v="455355" />
  </node>
  <node id="-767" visible="true" lat="43.67114557" lon="-72.87180037">
    <tag k="addr:city" v="Mendon" />
    <tag k="addr:housenumber" v="230" />
    <tag k="addr:street" v="Heather Lane" />
    <tag k="addr:state" v="VT" />
    <tag k="ref:vcgi:esiteid" v="455356" />
  </node>
  <node id="-768" visible="true" lat="43.64589529" lon="-72.88618361">
    <tag k="addr:city" v="Mendon" />
    <tag k="addr:housenumber" v="722" />
    <tag k="addr:street" v="Woodward Road" />
    <tag k="addr:state" v="VT" />
    <tag k="ref:vcgi:esiteid" v="610539" />
  </node>
  <node id="-769" visible="true" lat="43.61548238" lon="-72.90884682">
    <tag k="addr:city" v="Mendon" />
    <tag k="addr:housenumber" v="5846" />
    <tag k="addr:street" v="Wheelerville Road" />
    <tag k="addr:state" v="VT" />
    <tag k="ref:vcgi:esiteid" v="610541" />
  </node>
  <node id="-770" visible="true" lat="43.60787031" lon="-72.90102781">
    <tag k="addr:city" v="Mendon" />
    <tag k="addr:housenumber" v="5648" />
    <tag k="addr:street" v="Wheelerville Road" />
    <tag k="addr:state" v="VT" />
    <tag k="ref:vcgi:esiteid" v="610542" />
  </node>
  <node id="-771" visible="true" lat="43.62238373" lon="-72.9048778">
    <tag k="addr:city" v="Mendon" />
    <tag k="addr:housenumber" v="5514" />
    <tag k="addr:street" v="Wheelerville Road" />
    <tag k="addr:state" v="VT" />
    <tag k="ref:vcgi:esiteid" v="610543" />
  </node>
  <node id="-772" visible="true" lat="43.58860392" lon="-72.89522097">
    <tag k="addr:city" v="Mendon" />
    <tag k="addr:housenumber" v="175" />
    <tag k="addr:street" v="Northam Road" />
    <tag k="addr:state" v="VT" />
    <tag k="ref:vcgi:esiteid" v="620371" />
  </node>
  <node id="-773" visible="true" lat="43.58705998" lon="-72.88708243">
    <tag k="addr:city" v="Mendon" />
    <tag k="addr:housenumber" v="177" />
    <tag k="addr:street" v="Northam Road" />
    <tag k="addr:state" v="VT" />
    <tag k="ref:vcgi:esiteid" v="620372" />
  </node>
  <node id="-774" visible="true" lat="43.67216499" lon="-72.87073196">
    <tag k="addr:city" v="Mendon" />
    <tag k="addr:housenumber" v="128" />
    <tag k="addr:street" v="Ridge Road" />
    <tag k="addr:state" v="VT" />
    <tag k="ref:vcgi:esiteid" v="620373" />
  </node>
  <node id="-775" visible="true" lat="43.60483044" lon="-72.93140623">
    <tag k="addr:city" v="Mendon" />
    <tag k="addr:housenumber" v="35" />
    <tag k="addr:street" v="Bell Ridge Run" />
    <tag k="addr:state" v="VT" />
    <tag k="ref:vcgi:esiteid" v="620374" />
  </node>
  <node id="-776" visible="true" lat="43.60955649" lon="-72.89345162">
    <tag k="addr:city" v="Mendon" />
    <tag k="addr:housenumber" v="5239" />
    <tag k="addr:street" v="Wheelerville Road" />
    <tag k="addr:state" v="VT" />
    <tag k="ref:vcgi:esiteid" v="752916" />
  </node>
  <node id="-777" visible="true" lat="43.62431955" lon="-72.87850849">
    <tag k="addr:city" v="Mendon" />
    <tag k="addr:housenumber" v="3640" />
    <tag k="addr:street" v="Wheelerville Road" />
    <tag k="addr:state" v="VT" />
    <tag k="ref:vcgi:esiteid" v="753402" />
  </node>
  <node id="-779" visible="true" lat="43.6687287" lon="-72.84714546">
    <tag k="addr:city" v="Mendon" />
    <tag k="addr:housenumber" v="155" />
    <tag k="addr:street" v="Merry Maple Drive" />
    <tag k="addr:state" v="VT" />
    <tag k="ref:vcgi:esiteid" v="753436" />
  </node>
  <node id="-780" visible="true" lat="43.66587259" lon="-72.87422546">
    <tag k="addr:city" v="Mendon" />
    <tag k="addr:housenumber" v="975" />
    <tag k="addr:street" v="Old Turnpike Road" />
    <tag k="addr:state" v="VT" />
    <tag k="ref:vcgi:esiteid" v="753598" />
  </node>
  <node id="-781" visible="true" lat="43.64821392" lon="-72.92578893">
    <tag k="addr:city" v="Mendon" />
    <tag k="addr:housenumber" v="296" />
    <tag k="addr:street" v="Old Stockbridge Path" />
    <tag k="addr:state" v="VT" />
    <tag k="ref:vcgi:esiteid" v="753616" />
  </node>
  <node id="-782" visible="true" lat="43.65087938" lon="-72.92370216">
    <tag k="addr:city" v="Mendon" />
    <tag k="addr:housenumber" v="320" />
    <tag k="addr:street" v="Old Stockbridge Path" />
    <tag k="addr:state" v="VT" />
    <tag k="ref:vcgi:esiteid" v="753617" />
  </node>
  <node id="-783" visible="true" lat="43.64615383" lon="-72.9248801">
    <tag k="addr:city" v="Mendon" />
    <tag k="addr:housenumber" v="132" />
    <tag k="addr:street" v="Old Stockbridge Path" />
    <tag k="addr:state" v="VT" />
    <tag k="ref:vcgi:esiteid" v="754969" />
  </node>
  <node id="-784" visible="true" lat="43.643897" lon="-72.918414">
    <tag k="addr:city" v="Mendon" />
    <tag k="addr:housenumber" v="3410" />
    <tag k="addr:street" v="U.S. Route 4" />
    <tag k="addr:state" v="VT" />
    <tag k="ref:vcgi:esiteid" v="756228" />
  </node>
  <node id="-785" visible="true" lat="43.66230516" lon="-72.88880482">
    <tag k="addr:city" v="Mendon" />
    <tag k="addr:housenumber" v="612" />
    <tag k="addr:street" v="Cream Hill Road" />
    <tag k="addr:state" v="VT" />
    <tag k="ref:vcgi:esiteid" v="756371" />
  </node>
  <node id="-786" visible="true" lat="43.65176885" lon="-72.89590133">
    <tag k="addr:city" v="Mendon" />
    <tag k="addr:housenumber" v="4387" />
    <tag k="addr:street" v="U.S. Route 4" />
    <tag k="addr:state" v="VT" />
    <tag k="ref:vcgi:esiteid" v="760502" />
  </node>
  <node id="-787" visible="true" lat="43.65243245" lon="-72.8957276">
    <tag k="addr:city" v="Mendon" />
    <tag k="addr:housenumber" v="4389" />
    <tag k="addr:street" v="U.S. Route 4" />
    <tag k="addr:state" v="VT" />
    <tag k="ref:vcgi:esiteid" v="760503" />
  </node>
  <node id="-788" visible="true" lat="43.65486477" lon="-72.91386573">
    <tag k="addr:city" v="Mendon" />
    <tag k="addr:housenumber" v="791" />
    <tag k="addr:street" v="Journeys End" />
    <tag k="addr:state" v="VT" />
    <tag k="ref:vcgi:esiteid" v="760635" />
  </node>
  <node id="-789" visible="true" lat="43.60343493" lon="-72.9304414">
    <tag k="addr:city" v="Mendon" />
    <tag k="addr:housenumber" v="92" />
    <tag k="addr:street" v="Bell Ridge Run" />
    <tag k="addr:state" v="VT" />
    <tag k="ref:vcgi:esiteid" v="760700" />
  </node>
  <node id="-790" visible="true" lat="43.6275019" lon="-72.87338574">
    <tag k="addr:city" v="Mendon" />
    <tag k="addr:housenumber" v="3348" />
    <tag k="addr:street" v="Wheelerville Road" />
    <tag k="addr:state" v="VT" />
    <tag k="ref:vcgi:esiteid" v="761448" />
  </node>
  <node id="-791" visible="true" lat="43.66343671" lon="-72.9306263">
    <tag k="addr:city" v="Mendon" />
    <tag k="addr:housenumber" v="453" />
    <tag k="addr:street" v="Stone Hollow" />
    <tag k="addr:state" v="VT" />
    <tag k="ref:vcgi:esiteid" v="761906" />
  </node>
  <node id="-792" visible="true" lat="43.64987921" lon="-72.92597359">
    <tag k="addr:city" v="Mendon" />
    <tag k="addr:housenumber" v="261" />
    <tag k="addr:street" v="Old Stockbridge Path" />
    <tag k="addr:state" v="VT" />
    <tag k="ref:vcgi:esiteid" v="762517" />
  </node>
  <node id="-793" visible="true" lat="43.66222188" lon="-72.86746028">
    <tag k="addr:city" v="Mendon" />
    <tag k="addr:housenumber" v="148" />
    <tag k="addr:street" v="Cortina Country Road" />
    <tag k="addr:state" v="VT" />
    <tag k="ref:vcgi:esiteid" v="764319" />
  </node>
  <node id="-794" visible="true" lat="43.59719381" lon="-72.93120178">
    <tag k="addr:city" v="Mendon" />
    <tag k="addr:housenumber" v="266" />
    <tag k="addr:street" v="South Mendon Road" />
    <tag k="addr:state" v="VT" />
    <tag k="ref:vcgi:esiteid" v="764751" />
  </node>
  <node id="-795" visible="true" lat="43.64419545" lon="-72.93737131">
    <tag k="addr:city" v="Mendon" />
    <tag k="addr:housenumber" v="357" />
    <tag k="addr:street" v="Park Lane" />
    <tag k="addr:state" v="VT" />
    <tag k="ref:vcgi:esiteid" v="766378" />
  </node>
  <node id="-796" visible="true" lat="43.60403745" lon="-72.93053269">
    <tag k="addr:city" v="Mendon" />
    <tag k="addr:housenumber" v="81" />
    <tag k="addr:street" v="Bell Ridge Run" />
    <tag k="addr:state" v="VT" />
    <tag k="ref:vcgi:esiteid" v="766967" />
  </node>
  <node id="-797" visible="true" lat="43.64499492" lon="-72.92622405">
    <tag k="addr:city" v="Mendon" />
    <tag k="addr:housenumber" v="106" />
    <tag k="addr:street" v="Old Stockbridge Path" />
    <tag k="addr:state" v="VT" />
    <tag k="ref:vcgi:esiteid" v="766973" />
  </node>
  <node id="-798" visible="true" lat="43.65429665" lon="-72.89261093">
    <tag k="addr:city" v="Mendon" />
    <tag k="addr:housenumber" v="130" />
    <tag k="addr:street" v="Tenney Road" />
    <tag k="addr:state" v="VT" />
    <tag k="ref:vcgi:esiteid" v="767060" />
  </node>
  <node id="-799" visible="true" lat="43.6093779" lon="-72.93547184">
    <tag k="addr:city" v="Mendon" />
    <tag k="addr:housenumber" v="1769" />
    <tag k="addr:street" v="Town Line Road" />
    <tag k="addr:state" v="VT" />
    <tag k="ref:vcgi:esiteid" v="767061" />
  </node>
  <node id="-800" visible="true" lat="43.64778046" lon="-72.93561583">
    <tag k="addr:city" v="Mendon" />
    <tag k="addr:housenumber" v="300" />
    <tag k="addr:street" v="Park Lane" />
    <tag k="addr:state" v="VT" />
    <tag k="ref:vcgi:esiteid" v="767068" />
  </node>
  <node id="-803" visible="true" lat="43.60595442" lon="-72.89241544">
    <tag k="addr:city" v="Mendon" />
    <tag k="addr:housenumber" v="371" />
    <tag k="addr:street" v="Falls Road" />
    <tag k="addr:state" v="VT" />
    <tag k="ref:vcgi:esiteid" v="767201" />
  </node>
  <node id="-804" visible="true" lat="43.60028898" lon="-72.89365132">
    <tag k="addr:city" v="Mendon" />
    <tag k="addr:housenumber" v="845" />
    <tag k="addr:street" v="Falls Road" />
    <tag k="addr:state" v="VT" />
    <tag k="ref:vcgi:esiteid" v="767202" />
  </node>
  <node id="-805" visible="true" lat="43.59198999" lon="-72.90207029">
    <tag k="addr:city" v="Mendon" />
    <tag k="addr:housenumber" v="1483" />
    <tag k="addr:street" v="Falls Road" />
    <tag k="addr:state" v="VT" />
    <tag k="ref:vcgi:esiteid" v="767236" />
  </node>
  <node id="-806" visible="true" lat="43.64463644" lon="-72.88719887">
    <tag k="addr:city" v="Mendon" />
    <tag k="addr:housenumber" v="810" />
    <tag k="addr:street" v="Woodward Road" />
    <tag k="addr:state" v="VT" />
    <tag k="ref:vcgi:esiteid" v="767316" />
  </node>
  <node id="-807" visible="true" lat="43.5970186" lon="-72.92063927">
    <tag k="addr:city" v="Mendon" />
    <tag k="addr:housenumber" v="1231" />
    <tag k="addr:street" v="Notch Road" />
    <tag k="addr:state" v="VT" />
    <tag k="ref:vcgi:esiteid" v="767322" />
  </node>
  <node id="-808" visible="true" lat="43.59894602" lon="-72.90054971">
    <tag k="addr:city" v="Mendon" />
    <tag k="addr:housenumber" v="1016" />
    <tag k="addr:street" v="Falls Road" />
    <tag k="addr:state" v="VT" />
    <tag k="ref:vcgi:esiteid" v="767456" />
  </node>
  <node id="-809" visible="true" lat="43.61132888" lon="-72.92804357">
    <tag k="addr:city" v="Mendon" />
    <tag k="addr:housenumber" v="211" />
    <tag k="addr:street" v="Mountain Road" />
    <tag k="addr:state" v="VT" />
    <tag k="ref:vcgi:esiteid" v="767567" />
  </node>
  <node id="-810" visible="true" lat="43.67068343" lon="-72.87212084">
    <tag k="addr:city" v="Mendon" />
    <tag k="addr:housenumber" v="250" />
    <tag k="addr:street" v="Heather Lane" />
    <tag k="addr:state" v="VT" />
    <tag k="ref:vcgi:esiteid" v="767625" />
  </node>
  <node id="-811" visible="true" lat="43.66125897" lon="-72.87102016">
    <tag k="addr:city" v="Mendon" />
    <tag k="addr:housenumber" v="365" />
    <tag k="addr:street" v="Cortina Country Road" />
    <tag k="addr:state" v="VT" />
    <tag k="ref:vcgi:esiteid" v="767627" />
  </node>
  <node id="-812" visible="true" lat="43.67117571" lon="-72.87345016">
    <tag k="addr:city" v="Mendon" />
    <tag k="addr:housenumber" v="231" />
    <tag k="addr:street" v="Heather Lane" />
    <tag k="addr:state" v="VT" />
    <tag k="ref:vcgi:esiteid" v="767633" />
  </node>
  <node id="-813" visible="true" lat="43.65464577" lon="-72.92614742">
    <tag k="addr:city" v="Mendon" />
    <tag k="addr:housenumber" v="100" />
    <tag k="addr:street" v="Terra Lane" />
    <tag k="addr:state" v="VT" />
    <tag k="ref:vcgi:esiteid" v="769357" />
  </node>
  <node id="-814" visible="true" lat="43.62325195" lon="-72.88026181">
    <tag k="addr:city" v="Mendon" />
    <tag k="addr:housenumber" v="3754" />
    <tag k="addr:street" v="Wheelerville Road" />
    <tag k="addr:state" v="VT" />
    <tag k="ref:vcgi:esiteid" v="769689" />
  </node>
  <node id="-815" visible="true" lat="43.5947725" lon="-72.92562741">
    <tag k="addr:city" v="Mendon" />
    <tag k="addr:housenumber" v="497" />
    <tag k="addr:street" v="South Mendon Road" />
    <tag k="addr:state" v="VT" />
    <tag k="ref:vcgi:esiteid" v="769690" />
  </node>
  <node id="-816" visible="true" lat="43.65317005" lon="-72.9296952">
    <tag k="addr:city" v="Mendon" />
    <tag k="addr:housenumber" v="210" />
    <tag k="addr:street" v="Meadow Lake Drive" />
    <tag k="addr:state" v="VT" />
    <tag k="ref:vcgi:esiteid" v="770748" />
  </node>
  <node id="-817" visible="true" lat="43.58984418" lon="-72.91076788">
    <tag k="addr:city" v="Mendon" />
    <tag k="addr:housenumber" v="1973" />
    <tag k="addr:street" v="Notch Road" />
    <tag k="addr:state" v="VT" />
    <tag k="ref:vcgi:esiteid" v="800149" />
  </node>
  <node id="-818" visible="true" lat="43.64368093" lon="-72.92809861">
    <tag k="addr:city" v="Mendon" />
    <tag k="addr:housenumber" v="104" />
    <tag k="addr:street" v="Old Stockbridge Path" />
    <tag k="addr:state" v="VT" />
    <tag k="ref:vcgi:esiteid" v="900105" />
  </node>
  <node id="-819" visible="true" lat="43.6195599" lon="-72.87650322">
    <tag k="addr:city" v="Mendon" />
    <tag k="addr:housenumber" v="3961" />
    <tag k="addr:street" v="Wheelerville Road" />
    <tag k="addr:state" v="VT" />
    <tag k="ref:vcgi:esiteid" v="1050722" />
  </node>
</osm>
