<?xml version="1.0" encoding="UTF-8"?>
<osm version="0.6" generator="JOSM">
  <node id="-101" visible="true" lat="44.09477559" lon="-72.34241238">
    <tag k="addr:city" v="Orange" />
    <tag k="addr:housenumber" v="4260" />
    <tag k="addr:street" v="East Orange Road" />
    <tag k="addr:state" v="VT" />
    <tag k="ref:vcgi:esiteid" v="78" />
  </node>
  <node id="-102" visible="true" lat="44.09387056" lon="-72.33809206">
    <tag k="addr:city" v="Orange" />
    <tag k="addr:housenumber" v="4606" />
    <tag k="addr:street" v="East Orange Road" />
    <tag k="addr:state" v="VT" />
    <tag k="ref:vcgi:esiteid" v="79" />
  </node>
  <node id="-103" visible="true" lat="44.09436461" lon="-72.33962055">
    <tag k="addr:city" v="Orange" />
    <tag k="addr:housenumber" v="4470" />
    <tag k="addr:street" v="East Orange Road" />
    <tag k="addr:state" v="VT" />
    <tag k="ref:vcgi:esiteid" v="81" />
  </node>
  <node id="-104" visible="true" lat="44.2131446" lon="-72.39909913">
    <tag k="addr:city" v="Orange" />
    <tag k="addr:housenumber" v="949" />
    <tag k="addr:street" v="Reservoir Road" />
    <tag k="addr:state" v="VT" />
    <tag k="ref:vcgi:esiteid" v="183541" />
  </node>
  <node id="-105" visible="true" lat="44.20949828" lon="-72.39802381">
    <tag k="addr:city" v="Orange" />
    <tag k="addr:housenumber" v="905" />
    <tag k="addr:street" v="Reservoir Road" />
    <tag k="addr:state" v="VT" />
    <tag k="ref:vcgi:esiteid" v="183543" />
  </node>
  <node id="-106" visible="true" lat="44.20867538" lon="-72.40974426">
    <tag k="addr:city" v="Orange" />
    <tag k="addr:housenumber" v="73" />
    <tag k="addr:street" v="Strong Road" />
    <tag k="addr:state" v="VT" />
    <tag k="ref:vcgi:esiteid" v="183544" />
  </node>
  <node id="-107" visible="true" lat="44.207714" lon="-72.39105539">
    <tag k="addr:city" v="Orange" />
    <tag k="addr:housenumber" v="36" />
    <tag k="addr:street" v="Foster Lane" />
    <tag k="addr:state" v="VT" />
    <tag k="ref:vcgi:esiteid" v="183545" />
  </node>
  <node id="-108" visible="true" lat="44.20733261" lon="-72.42091369">
    <tag k="addr:city" v="Orange" />
    <tag k="addr:housenumber" v="65" />
    <tag k="addr:street" v="Preston Road" />
    <tag k="addr:state" v="VT" />
    <tag k="ref:vcgi:esiteid" v="183546" />
  </node>
  <node id="-109" visible="true" lat="44.20682075" lon="-72.39926826">
    <tag k="addr:city" v="Orange" />
    <tag k="addr:housenumber" v="857" />
    <tag k="addr:street" v="Reservoir Road" />
    <tag k="addr:state" v="VT" />
    <tag k="ref:vcgi:esiteid" v="183547" />
  </node>
  <node id="-110" visible="true" lat="44.20561218" lon="-72.40093231">
    <tag k="addr:city" v="Orange" />
    <tag k="addr:housenumber" v="20" />
    <tag k="addr:street" v="Neddo Road" />
    <tag k="addr:state" v="VT" />
    <tag k="ref:vcgi:esiteid" v="183548" />
  </node>
  <node id="-111" visible="true" lat="44.20555496" lon="-72.39965057">
    <tag k="addr:city" v="Orange" />
    <tag k="addr:housenumber" v="849" />
    <tag k="addr:street" v="Reservoir Road" />
    <tag k="addr:state" v="VT" />
    <tag k="ref:vcgi:esiteid" v="183549" />
  </node>
  <node id="-112" visible="true" lat="44.20547103" lon="-72.41200256">
    <tag k="addr:city" v="Orange" />
    <tag k="addr:housenumber" v="24" />
    <tag k="addr:street" v="Strong Road" />
    <tag k="addr:state" v="VT" />
    <tag k="ref:vcgi:esiteid" v="183550" />
  </node>
  <node id="-113" visible="true" lat="44.20485321" lon="-72.40164056">
    <tag k="addr:city" v="Orange" />
    <tag k="addr:housenumber" v="17" />
    <tag k="addr:street" v="Neddo Road" />
    <tag k="addr:state" v="VT" />
    <tag k="ref:vcgi:esiteid" v="183551" />
  </node>
  <node id="-114" visible="true" lat="44.20431391" lon="-72.41927553">
    <tag k="addr:city" v="Orange" />
    <tag k="addr:housenumber" v="24" />
    <tag k="addr:street" v="Preston Road" />
    <tag k="addr:state" v="VT" />
    <tag k="ref:vcgi:esiteid" v="183552" />
  </node>
  <node id="-115" visible="true" lat="44.20394134" lon="-72.40022277">
    <tag k="addr:city" v="Orange" />
    <tag k="addr:housenumber" v="825" />
    <tag k="addr:street" v="Reservoir Road" />
    <tag k="addr:state" v="VT" />
    <tag k="ref:vcgi:esiteid" v="183553" />
  </node>
  <node id="-116" visible="true" lat="44.20333943" lon="-72.41948177">
    <tag k="addr:city" v="Orange" />
    <tag k="addr:housenumber" v="9" />
    <tag k="addr:street" v="Preston Road" />
    <tag k="addr:state" v="VT" />
    <tag k="ref:vcgi:esiteid" v="183554" />
  </node>
  <node id="-117" visible="true" lat="44.20172881" lon="-72.40016174">
    <tag k="addr:city" v="Orange" />
    <tag k="addr:housenumber" v="796" />
    <tag k="addr:street" v="Reservoir Road" />
    <tag k="addr:state" v="VT" />
    <tag k="ref:vcgi:esiteid" v="183555" />
  </node>
  <node id="-118" visible="true" lat="44.20079422" lon="-72.39910888">
    <tag k="addr:city" v="Orange" />
    <tag k="addr:housenumber" v="780" />
    <tag k="addr:street" v="Reservoir Road" />
    <tag k="addr:state" v="VT" />
    <tag k="ref:vcgi:esiteid" v="183556" />
  </node>
  <node id="-119" visible="true" lat="44.20036487" lon="-72.40361751">
    <tag k="addr:city" v="Orange" />
    <tag k="addr:housenumber" v="769" />
    <tag k="addr:street" v="Reservoir Road" />
    <tag k="addr:state" v="VT" />
    <tag k="ref:vcgi:esiteid" v="183557" />
  </node>
  <node id="-120" visible="true" lat="44.19957053" lon="-72.40159858">
    <tag k="addr:city" v="Orange" />
    <tag k="addr:housenumber" v="8" />
    <tag k="addr:street" v="Smith Road" />
    <tag k="addr:state" v="VT" />
    <tag k="ref:vcgi:esiteid" v="183558" />
  </node>
  <node id="-122" visible="true" lat="44.19888786" lon="-72.39064219">
    <tag k="addr:city" v="Orange" />
    <tag k="addr:housenumber" v="164" />
    <tag k="addr:street" v="Bellardine Drive" />
    <tag k="addr:state" v="VT" />
    <tag k="ref:vcgi:esiteid" v="183560" />
  </node>
  <node id="-123" visible="true" lat="44.19880566" lon="-72.40111253">
    <tag k="addr:city" v="Orange" />
    <tag k="addr:housenumber" v="16" />
    <tag k="addr:street" v="Smith Road" />
    <tag k="addr:state" v="VT" />
    <tag k="ref:vcgi:esiteid" v="183561" />
  </node>
  <node id="-124" visible="true" lat="44.19886398" lon="-72.40327453">
    <tag k="addr:city" v="Orange" />
    <tag k="addr:housenumber" v="745" />
    <tag k="addr:street" v="Reservoir Road" />
    <tag k="addr:state" v="VT" />
    <tag k="ref:vcgi:esiteid" v="183562" />
  </node>
  <node id="-125" visible="true" lat="44.19879913" lon="-72.40460968">
    <tag k="addr:city" v="Orange" />
    <tag k="addr:housenumber" v="733" />
    <tag k="addr:street" v="Reservoir Road" />
    <tag k="addr:state" v="VT" />
    <tag k="ref:vcgi:esiteid" v="183563" />
  </node>
  <node id="-126" visible="true" lat="44.19779224" lon="-72.38434823">
    <tag k="addr:city" v="Orange" />
    <tag k="addr:housenumber" v="153" />
    <tag k="addr:street" v="Bellardine Drive" />
    <tag k="addr:state" v="VT" />
    <tag k="ref:vcgi:esiteid" v="183564" />
  </node>
  <node id="-127" visible="true" lat="44.19724382" lon="-72.40019736">
    <tag k="addr:city" v="Orange" />
    <tag k="addr:housenumber" v="40" />
    <tag k="addr:street" v="Smith Road" />
    <tag k="addr:state" v="VT" />
    <tag k="ref:vcgi:esiteid" v="183565" />
  </node>
  <node id="-128" visible="true" lat="44.19691848" lon="-72.4063797">
    <tag k="addr:city" v="Orange" />
    <tag k="addr:housenumber" v="705" />
    <tag k="addr:street" v="Reservoir Road" />
    <tag k="addr:state" v="VT" />
    <tag k="ref:vcgi:esiteid" v="183566" />
  </node>
  <node id="-129" visible="true" lat="44.19668894" lon="-72.39994225">
    <tag k="addr:city" v="Orange" />
    <tag k="addr:housenumber" v="48" />
    <tag k="addr:street" v="Smith Road" />
    <tag k="addr:state" v="VT" />
    <tag k="ref:vcgi:esiteid" v="183567" />
  </node>
  <node id="-130" visible="true" lat="44.196783" lon="-72.3986313">
    <tag k="addr:city" v="Orange" />
    <tag k="addr:housenumber" v="57" />
    <tag k="addr:street" v="Smith Road" />
    <tag k="addr:state" v="VT" />
    <tag k="ref:vcgi:esiteid" v="183568" />
  </node>
  <node id="-131" visible="true" lat="44.19758367" lon="-72.40849017">
    <tag k="addr:city" v="Orange" />
    <tag k="addr:housenumber" v="701" />
    <tag k="addr:street" v="Reservoir Road" />
    <tag k="addr:state" v="VT" />
    <tag k="ref:vcgi:esiteid" v="183569" />
  </node>
  <node id="-132" visible="true" lat="44.19659423" lon="-72.40728759">
    <tag k="addr:city" v="Orange" />
    <tag k="addr:housenumber" v="697" />
    <tag k="addr:street" v="Reservoir Road" />
    <tag k="addr:state" v="VT" />
    <tag k="ref:vcgi:esiteid" v="183570" />
  </node>
  <node id="-133" visible="true" lat="44.19650268" lon="-72.40619659">
    <tag k="addr:city" v="Orange" />
    <tag k="addr:housenumber" v="704" />
    <tag k="addr:street" v="Reservoir Road" />
    <tag k="addr:state" v="VT" />
    <tag k="ref:vcgi:esiteid" v="183571" />
  </node>
  <node id="-134" visible="true" lat="44.19647979" lon="-72.40224456">
    <tag k="addr:city" v="Orange" />
    <tag k="addr:housenumber" v="732" />
    <tag k="addr:street" v="Reservoir Road" />
    <tag k="addr:state" v="VT" />
    <tag k="ref:vcgi:esiteid" v="183572" />
  </node>
  <node id="-135" visible="true" lat="44.19621384" lon="-72.39963644">
    <tag k="addr:city" v="Orange" />
    <tag k="addr:housenumber" v="56" />
    <tag k="addr:street" v="Smith Road" />
    <tag k="addr:state" v="VT" />
    <tag k="ref:vcgi:esiteid" v="183573" />
  </node>
  <node id="-136" visible="true" lat="44.1960664" lon="-72.39783727">
    <tag k="addr:city" v="Orange" />
    <tag k="addr:housenumber" v="61" />
    <tag k="addr:street" v="Smith Road" />
    <tag k="addr:state" v="VT" />
    <tag k="ref:vcgi:esiteid" v="183574" />
  </node>
  <node id="-137" visible="true" lat="44.19612855" lon="-72.40273461">
    <tag k="addr:city" v="Orange" />
    <tag k="addr:housenumber" v="728" />
    <tag k="addr:street" v="Reservoir Road" />
    <tag k="addr:state" v="VT" />
    <tag k="ref:vcgi:esiteid" v="183575" />
  </node>
  <node id="-138" visible="true" lat="44.19617843" lon="-72.40757751">
    <tag k="addr:city" v="Orange" />
    <tag k="addr:housenumber" v="689" />
    <tag k="addr:street" v="Reservoir Road" />
    <tag k="addr:state" v="VT" />
    <tag k="ref:vcgi:esiteid" v="183576" />
  </node>
  <node id="-139" visible="true" lat="44.1957817" lon="-72.40808868">
    <tag k="addr:city" v="Orange" />
    <tag k="addr:housenumber" v="681" />
    <tag k="addr:street" v="Reservoir Road" />
    <tag k="addr:state" v="VT" />
    <tag k="ref:vcgi:esiteid" v="183577" />
  </node>
  <node id="-140" visible="true" lat="44.19571304" lon="-72.40626525">
    <tag k="addr:city" v="Orange" />
    <tag k="addr:housenumber" v="692" />
    <tag k="addr:street" v="Reservoir Road" />
    <tag k="addr:state" v="VT" />
    <tag k="ref:vcgi:esiteid" v="183578" />
  </node>
  <node id="-141" visible="true" lat="44.19519795" lon="-72.39903211">
    <tag k="addr:city" v="Orange" />
    <tag k="addr:housenumber" v="72" />
    <tag k="addr:street" v="Smith Road" />
    <tag k="addr:state" v="VT" />
    <tag k="ref:vcgi:esiteid" v="183579" />
  </node>
  <node id="-142" visible="true" lat="44.19524383" lon="-72.39792632">
    <tag k="addr:city" v="Orange" />
    <tag k="addr:housenumber" v="73" />
    <tag k="addr:street" v="Smith Road" />
    <tag k="addr:state" v="VT" />
    <tag k="ref:vcgi:esiteid" v="183580" />
  </node>
  <node id="-143" visible="true" lat="44.19498443" lon="-72.4050064">
    <tag k="addr:city" v="Orange" />
    <tag k="addr:housenumber" v="28" />
    <tag k="addr:street" v="Griggs Road" />
    <tag k="addr:state" v="VT" />
    <tag k="ref:vcgi:esiteid" v="183581" />
  </node>
  <node id="-144" visible="true" lat="44.19478607" lon="-72.40711212">
    <tag k="addr:city" v="Orange" />
    <tag k="addr:housenumber" v="680" />
    <tag k="addr:street" v="Reservoir Road" />
    <tag k="addr:state" v="VT" />
    <tag k="ref:vcgi:esiteid" v="183582" />
  </node>
  <node id="-145" visible="true" lat="44.19450378" lon="-72.40864562">
    <tag k="addr:city" v="Orange" />
    <tag k="addr:housenumber" v="676" />
    <tag k="addr:street" v="Reservoir Road" />
    <tag k="addr:state" v="VT" />
    <tag k="ref:vcgi:esiteid" v="183583" />
  </node>
  <node id="-146" visible="true" lat="44.19413757" lon="-72.41017913">
    <tag k="addr:city" v="Orange" />
    <tag k="addr:housenumber" v="652" />
    <tag k="addr:street" v="Reservoir Road" />
    <tag k="addr:state" v="VT" />
    <tag k="ref:vcgi:esiteid" v="183584" />
  </node>
  <node id="-147" visible="true" lat="44.1936813" lon="-72.40473278">
    <tag k="addr:city" v="Orange" />
    <tag k="addr:housenumber" v="57" />
    <tag k="addr:street" v="Griggs Road" />
    <tag k="addr:state" v="VT" />
    <tag k="ref:vcgi:esiteid" v="183585" />
  </node>
  <node id="-148" visible="true" lat="44.19334411" lon="-72.41176605">
    <tag k="addr:city" v="Orange" />
    <tag k="addr:housenumber" v="632" />
    <tag k="addr:street" v="Reservoir Road" />
    <tag k="addr:state" v="VT" />
    <tag k="ref:vcgi:esiteid" v="183586" />
  </node>
  <node id="-149" visible="true" lat="44.19332885" lon="-72.39768219">
    <tag k="addr:city" v="Orange" />
    <tag k="addr:housenumber" v="100" />
    <tag k="addr:street" v="Smith Road" />
    <tag k="addr:state" v="VT" />
    <tag k="ref:vcgi:esiteid" v="183587" />
  </node>
  <node id="-150" visible="true" lat="44.19276428" lon="-72.40142822">
    <tag k="addr:city" v="Orange" />
    <tag k="addr:housenumber" v="58" />
    <tag k="addr:street" v="Magnum Drive" />
    <tag k="addr:state" v="VT" />
    <tag k="ref:vcgi:esiteid" v="183588" />
  </node>
  <node id="-151" visible="true" lat="44.19218298" lon="-72.39671537">
    <tag k="addr:city" v="Orange" />
    <tag k="addr:housenumber" v="120" />
    <tag k="addr:street" v="Smith Road" />
    <tag k="addr:state" v="VT" />
    <tag k="ref:vcgi:esiteid" v="183589" />
  </node>
  <node id="-152" visible="true" lat="44.19198002" lon="-72.41349296">
    <tag k="addr:city" v="Orange" />
    <tag k="addr:housenumber" v="8" />
    <tag k="addr:street" v="Trickle Brook Drive" />
    <tag k="addr:state" v="VT" />
    <tag k="ref:vcgi:esiteid" v="183590" />
  </node>
  <node id="-153" visible="true" lat="44.19192856" lon="-72.40122321">
    <tag k="addr:city" v="Orange" />
    <tag k="addr:housenumber" v="60" />
    <tag k="addr:street" v="Magnum Drive" />
    <tag k="addr:state" v="VT" />
    <tag k="ref:vcgi:esiteid" v="183591" />
  </node>
  <node id="-154" visible="true" lat="44.19180492" lon="-72.39607207">
    <tag k="addr:city" v="Orange" />
    <tag k="addr:housenumber" v="125" />
    <tag k="addr:street" v="Smith Road" />
    <tag k="addr:state" v="VT" />
    <tag k="ref:vcgi:esiteid" v="183592" />
  </node>
  <node id="-155" visible="true" lat="44.19169575" lon="-72.40910011">
    <tag k="addr:city" v="Orange" />
    <tag k="addr:housenumber" v="48" />
    <tag k="addr:street" v="Trickle Brook Drive" />
    <tag k="addr:state" v="VT" />
    <tag k="ref:vcgi:esiteid" v="183593" />
  </node>
  <node id="-156" visible="true" lat="44.19108461" lon="-72.39528891">
    <tag k="addr:city" v="Orange" />
    <tag k="addr:housenumber" v="133" />
    <tag k="addr:street" v="Smith Road" />
    <tag k="addr:state" v="VT" />
    <tag k="ref:vcgi:esiteid" v="183594" />
  </node>
  <node id="-157" visible="true" lat="44.19115423" lon="-72.41118651">
    <tag k="addr:city" v="Orange" />
    <tag k="addr:housenumber" v="24" />
    <tag k="addr:street" v="Trickle Brook Drive" />
    <tag k="addr:state" v="VT" />
    <tag k="ref:vcgi:esiteid" v="183595" />
  </node>
  <node id="-158" visible="true" lat="44.19076156" lon="-72.39580535">
    <tag k="addr:city" v="Orange" />
    <tag k="addr:housenumber" v="141" />
    <tag k="addr:street" v="Smith Road" />
    <tag k="addr:state" v="VT" />
    <tag k="ref:vcgi:esiteid" v="183596" />
  </node>
  <node id="-159" visible="true" lat="44.18992614" lon="-72.39534759">
    <tag k="addr:city" v="Orange" />
    <tag k="addr:housenumber" v="152" />
    <tag k="addr:street" v="Smith Road" />
    <tag k="addr:state" v="VT" />
    <tag k="ref:vcgi:esiteid" v="183597" />
  </node>
  <node id="-160" visible="true" lat="44.18976592" lon="-72.3944931">
    <tag k="addr:city" v="Orange" />
    <tag k="addr:housenumber" v="161" />
    <tag k="addr:street" v="Smith Road" />
    <tag k="addr:state" v="VT" />
    <tag k="ref:vcgi:esiteid" v="183598" />
  </node>
  <node id="-161" visible="true" lat="44.18930921" lon="-72.39464787">
    <tag k="addr:city" v="Orange" />
    <tag k="addr:housenumber" v="164" />
    <tag k="addr:street" v="Smith Road" />
    <tag k="addr:state" v="VT" />
    <tag k="ref:vcgi:esiteid" v="183599" />
  </node>
  <node id="-162" visible="true" lat="44.18934723" lon="-72.41478024">
    <tag k="addr:city" v="Orange" />
    <tag k="addr:housenumber" v="15" />
    <tag k="addr:street" v="Knapp Drive" />
    <tag k="addr:state" v="VT" />
    <tag k="ref:vcgi:esiteid" v="183600" />
  </node>
  <node id="-163" visible="true" lat="44.18125064" lon="-72.4289417">
    <tag k="addr:city" v="Orange" />
    <tag k="addr:housenumber" v="69" />
    <tag k="addr:street" v="Lords Road" />
    <tag k="addr:state" v="VT" />
    <tag k="ref:vcgi:esiteid" v="183601" />
  </node>
  <node id="-164" visible="true" lat="44.18050003" lon="-72.42733764">
    <tag k="addr:city" v="Orange" />
    <tag k="addr:housenumber" v="49" />
    <tag k="addr:street" v="Lords Road" />
    <tag k="addr:state" v="VT" />
    <tag k="ref:vcgi:esiteid" v="183602" />
  </node>
  <node id="-165" visible="true" lat="44.18030929" lon="-72.42607879">
    <tag k="addr:city" v="Orange" />
    <tag k="addr:housenumber" v="37" />
    <tag k="addr:street" v="Lords Road" />
    <tag k="addr:state" v="VT" />
    <tag k="ref:vcgi:esiteid" v="183603" />
  </node>
  <node id="-166" visible="true" lat="44.17858108" lon="-72.41450139">
    <tag k="addr:city" v="Orange" />
    <tag k="addr:housenumber" v="489" />
    <tag k="addr:street" v="George Street" />
    <tag k="addr:state" v="VT" />
    <tag k="ref:vcgi:esiteid" v="183604" />
  </node>
  <node id="-167" visible="true" lat="44.17713165" lon="-72.39005279">
    <tag k="addr:city" v="Orange" />
    <tag k="addr:housenumber" v="357" />
    <tag k="addr:street" v="Smith Road" />
    <tag k="addr:state" v="VT" />
    <tag k="ref:vcgi:esiteid" v="183605" />
  </node>
  <node id="-168" visible="true" lat="44.17479705" lon="-72.41160583">
    <tag k="addr:city" v="Orange" />
    <tag k="addr:housenumber" v="436" />
    <tag k="addr:street" v="George Street" />
    <tag k="addr:state" v="VT" />
    <tag k="ref:vcgi:esiteid" v="183606" />
  </node>
  <node id="-169" visible="true" lat="44.17086791" lon="-72.41227722">
    <tag k="addr:city" v="Orange" />
    <tag k="addr:housenumber" v="377" />
    <tag k="addr:street" v="George Street" />
    <tag k="addr:state" v="VT" />
    <tag k="ref:vcgi:esiteid" v="183607" />
  </node>
  <node id="-170" visible="true" lat="44.17047119" lon="-72.41154479">
    <tag k="addr:city" v="Orange" />
    <tag k="addr:housenumber" v="372" />
    <tag k="addr:street" v="George Street" />
    <tag k="addr:state" v="VT" />
    <tag k="ref:vcgi:esiteid" v="183608" />
  </node>
  <node id="-171" visible="true" lat="44.17041396" lon="-72.43080902">
    <tag k="addr:city" v="Orange" />
    <tag k="addr:housenumber" v="1101" />
    <tag k="addr:street" v="Partridge Road" />
    <tag k="addr:state" v="VT" />
    <tag k="ref:vcgi:esiteid" v="183609" />
  </node>
  <node id="-172" visible="true" lat="44.16753387" lon="-72.41113281">
    <tag k="addr:city" v="Orange" />
    <tag k="addr:housenumber" v="332" />
    <tag k="addr:street" v="George Street" />
    <tag k="addr:state" v="VT" />
    <tag k="ref:vcgi:esiteid" v="183610" />
  </node>
  <node id="-173" visible="true" lat="44.16656578" lon="-72.31783974">
    <tag k="addr:city" v="Orange" />
    <tag k="addr:housenumber" v="369" />
    <tag k="addr:street" v="Clement Road" />
    <tag k="addr:state" v="VT" />
    <tag k="ref:vcgi:esiteid" v="183611" />
  </node>
  <node id="-174" visible="true" lat="44.16646194" lon="-72.4148941">
    <tag k="addr:city" v="Orange" />
    <tag k="addr:housenumber" v="313" />
    <tag k="addr:street" v="George Street" />
    <tag k="addr:state" v="VT" />
    <tag k="ref:vcgi:esiteid" v="183612" />
  </node>
  <node id="-175" visible="true" lat="44.1662178" lon="-72.411026">
    <tag k="addr:city" v="Orange" />
    <tag k="addr:housenumber" v="320" />
    <tag k="addr:street" v="George Street" />
    <tag k="addr:state" v="VT" />
    <tag k="ref:vcgi:esiteid" v="183613" />
  </node>
  <node id="-176" visible="true" lat="44.16564855" lon="-72.31761884">
    <tag k="addr:city" v="Orange" />
    <tag k="addr:housenumber" v="365" />
    <tag k="addr:street" v="Clement Road" />
    <tag k="addr:state" v="VT" />
    <tag k="ref:vcgi:esiteid" v="183614" />
  </node>
  <node id="-177" visible="true" lat="44.16538238" lon="-72.39595794">
    <tag k="addr:city" v="Orange" />
    <tag k="addr:housenumber" v="137" />
    <tag k="addr:street" v="Bennetts Mill Road" />
    <tag k="addr:state" v="VT" />
    <tag k="ref:vcgi:esiteid" v="183615" />
  </node>
  <node id="-178" visible="true" lat="44.16499309" lon="-72.31772668">
    <tag k="addr:city" v="Orange" />
    <tag k="addr:housenumber" v="357" />
    <tag k="addr:street" v="Clement Road" />
    <tag k="addr:state" v="VT" />
    <tag k="ref:vcgi:esiteid" v="183616" />
  </node>
  <node id="-179" visible="true" lat="44.16504669" lon="-72.41117858">
    <tag k="addr:city" v="Orange" />
    <tag k="addr:housenumber" v="296" />
    <tag k="addr:street" v="George Street" />
    <tag k="addr:state" v="VT" />
    <tag k="ref:vcgi:esiteid" v="183617" />
  </node>
  <node id="-180" visible="true" lat="44.16416394" lon="-72.31887109">
    <tag k="addr:city" v="Orange" />
    <tag k="addr:housenumber" v="341" />
    <tag k="addr:street" v="Clement Road" />
    <tag k="addr:state" v="VT" />
    <tag k="ref:vcgi:esiteid" v="183619" />
  </node>
  <node id="-181" visible="true" lat="44.16339874" lon="-72.40945434">
    <tag k="addr:city" v="Orange" />
    <tag k="addr:housenumber" v="264" />
    <tag k="addr:street" v="George Street" />
    <tag k="addr:state" v="VT" />
    <tag k="ref:vcgi:esiteid" v="183620" />
  </node>
  <node id="-182" visible="true" lat="44.16327127" lon="-72.3205572">
    <tag k="addr:city" v="Orange" />
    <tag k="addr:housenumber" v="329" />
    <tag k="addr:street" v="Clement Road" />
    <tag k="addr:state" v="VT" />
    <tag k="ref:vcgi:esiteid" v="183621" />
  </node>
  <node id="-183" visible="true" lat="44.16296005" lon="-72.3900299">
    <tag k="addr:city" v="Orange" />
    <tag k="addr:housenumber" v="109" />
    <tag k="addr:street" v="Bennetts Mill Road" />
    <tag k="addr:state" v="VT" />
    <tag k="ref:vcgi:esiteid" v="183622" />
  </node>
  <node id="-184" visible="true" lat="44.16072678" lon="-72.42498213">
    <tag k="addr:city" v="Orange" />
    <tag k="addr:housenumber" v="164" />
    <tag k="addr:street" v="Reservoir Road" />
    <tag k="addr:state" v="VT" />
    <tag k="ref:vcgi:esiteid" v="183623" />
  </node>
  <node id="-185" visible="true" lat="44.16293334" lon="-72.40958404">
    <tag k="addr:city" v="Orange" />
    <tag k="addr:housenumber" v="261" />
    <tag k="addr:street" v="George Street" />
    <tag k="addr:state" v="VT" />
    <tag k="ref:vcgi:esiteid" v="183624" />
  </node>
  <node id="-186" visible="true" lat="44.16277423" lon="-72.40744658">
    <tag k="addr:city" v="Orange" />
    <tag k="addr:housenumber" v="244" />
    <tag k="addr:street" v="George Street" />
    <tag k="addr:state" v="VT" />
    <tag k="ref:vcgi:esiteid" v="183625" />
  </node>
  <node id="-187" visible="true" lat="44.16239941" lon="-72.31993585">
    <tag k="addr:city" v="Orange" />
    <tag k="addr:housenumber" v="313" />
    <tag k="addr:street" v="Clement Road" />
    <tag k="addr:state" v="VT" />
    <tag k="ref:vcgi:esiteid" v="183626" />
  </node>
  <node id="-188" visible="true" lat="44.16236877" lon="-72.40691375">
    <tag k="addr:city" v="Orange" />
    <tag k="addr:housenumber" v="236" />
    <tag k="addr:street" v="George Street" />
    <tag k="addr:state" v="VT" />
    <tag k="ref:vcgi:esiteid" v="183627" />
  </node>
  <node id="-189" visible="true" lat="44.16309386" lon="-72.42643402">
    <tag k="addr:city" v="Orange" />
    <tag k="addr:housenumber" v="145" />
    <tag k="addr:street" v="Reservoir Road" />
    <tag k="addr:state" v="VT" />
    <tag k="ref:vcgi:esiteid" v="183628" />
  </node>
  <node id="-190" visible="true" lat="44.16142158" lon="-72.40689711">
    <tag k="addr:city" v="Orange" />
    <tag k="addr:housenumber" v="232" />
    <tag k="addr:street" v="George Street" />
    <tag k="addr:state" v="VT" />
    <tag k="ref:vcgi:esiteid" v="183629" />
  </node>
  <node id="-191" visible="true" lat="44.16116612" lon="-72.3917776">
    <tag k="addr:city" v="Orange" />
    <tag k="addr:housenumber" v="73" />
    <tag k="addr:street" v="Bennetts Mill Road" />
    <tag k="addr:state" v="VT" />
    <tag k="ref:vcgi:esiteid" v="183630" />
  </node>
  <node id="-192" visible="true" lat="44.15933389" lon="-72.31891185">
    <tag k="addr:city" v="Orange" />
    <tag k="addr:housenumber" v="280" />
    <tag k="addr:street" v="Clement Road" />
    <tag k="addr:state" v="VT" />
    <tag k="ref:vcgi:esiteid" v="183631" />
  </node>
  <node id="-193" visible="true" lat="44.15978566" lon="-72.40719602">
    <tag k="addr:city" v="Orange" />
    <tag k="addr:housenumber" v="205" />
    <tag k="addr:street" v="George Street" />
    <tag k="addr:state" v="VT" />
    <tag k="ref:vcgi:esiteid" v="183632" />
  </node>
  <node id="-194" visible="true" lat="44.15957594" lon="-72.40279907">
    <tag k="addr:city" v="Orange" />
    <tag k="addr:housenumber" v="164" />
    <tag k="addr:street" v="George Street" />
    <tag k="addr:state" v="VT" />
    <tag k="ref:vcgi:esiteid" v="183633" />
  </node>
  <node id="-195" visible="true" lat="44.15916442" lon="-72.40644073">
    <tag k="addr:city" v="Orange" />
    <tag k="addr:housenumber" v="200" />
    <tag k="addr:street" v="George Street" />
    <tag k="addr:state" v="VT" />
    <tag k="ref:vcgi:esiteid" v="183634" />
  </node>
  <node id="-196" visible="true" lat="44.15864181" lon="-72.40704345">
    <tag k="addr:city" v="Orange" />
    <tag k="addr:housenumber" v="193" />
    <tag k="addr:street" v="George Street" />
    <tag k="addr:state" v="VT" />
    <tag k="ref:vcgi:esiteid" v="183635" />
  </node>
  <node id="-197" visible="true" lat="44.15830943" lon="-72.42979174">
    <tag k="addr:city" v="Orange" />
    <tag k="addr:housenumber" v="81" />
    <tag k="addr:street" v="Reservoir Road" />
    <tag k="addr:state" v="VT" />
    <tag k="ref:vcgi:esiteid" v="183636" />
  </node>
  <node id="-198" visible="true" lat="44.15800476" lon="-72.40459442">
    <tag k="addr:city" v="Orange" />
    <tag k="addr:housenumber" v="172" />
    <tag k="addr:street" v="George Street" />
    <tag k="addr:state" v="VT" />
    <tag k="ref:vcgi:esiteid" v="183637" />
  </node>
  <node id="-199" visible="true" lat="44.15773391" lon="-72.4029541">
    <tag k="addr:city" v="Orange" />
    <tag k="addr:housenumber" v="152" />
    <tag k="addr:street" v="George Street" />
    <tag k="addr:state" v="VT" />
    <tag k="ref:vcgi:esiteid" v="183638" />
  </node>
  <node id="-200" visible="true" lat="44.15748844" lon="-72.42979251">
    <tag k="addr:city" v="Orange" />
    <tag k="addr:housenumber" v="73" />
    <tag k="addr:street" v="Reservoir Road" />
    <tag k="addr:state" v="VT" />
    <tag k="ref:vcgi:esiteid" v="183639" />
  </node>
  <node id="-201" visible="true" lat="44.15733718" lon="-72.40219879">
    <tag k="addr:city" v="Orange" />
    <tag k="addr:housenumber" v="144" />
    <tag k="addr:street" v="George Street" />
    <tag k="addr:state" v="VT" />
    <tag k="ref:vcgi:esiteid" v="183640" />
  </node>
  <node id="-202" visible="true" lat="44.15752576" lon="-72.39522677">
    <tag k="addr:city" v="Orange" />
    <tag k="addr:housenumber" v="53" />
    <tag k="addr:street" v="Beard Road" />
    <tag k="addr:state" v="VT" />
    <tag k="ref:vcgi:esiteid" v="183641" />
  </node>
  <node id="-203" visible="true" lat="44.15710076" lon="-72.43014519">
    <tag k="addr:city" v="Orange" />
    <tag k="addr:housenumber" v="69" />
    <tag k="addr:street" v="Reservoir Road" />
    <tag k="addr:state" v="VT" />
    <tag k="ref:vcgi:esiteid" v="183642" />
  </node>
  <node id="-204" visible="true" lat="44.15680694" lon="-72.40348815">
    <tag k="addr:city" v="Orange" />
    <tag k="addr:housenumber" v="153" />
    <tag k="addr:street" v="George Street" />
    <tag k="addr:state" v="VT" />
    <tag k="ref:vcgi:esiteid" v="183643" />
  </node>
  <node id="-205" visible="true" lat="44.15677642" lon="-72.43035888">
    <tag k="addr:city" v="Orange" />
    <tag k="addr:housenumber" v="61" />
    <tag k="addr:street" v="Reservoir Road" />
    <tag k="addr:state" v="VT" />
    <tag k="ref:vcgi:esiteid" v="183644" />
  </node>
  <node id="-206" visible="true" lat="44.15677607" lon="-72.39975288">
    <tag k="addr:city" v="Orange" />
    <tag k="addr:housenumber" v="120" />
    <tag k="addr:street" v="George Street" />
    <tag k="addr:state" v="VT" />
    <tag k="ref:vcgi:esiteid" v="183645" />
  </node>
  <node id="-207" visible="true" lat="44.15660281" lon="-72.43173926">
    <tag k="addr:city" v="Orange" />
    <tag k="addr:housenumber" v="24" />
    <tag k="addr:street" v="Moran Road" />
    <tag k="addr:state" v="VT" />
    <tag k="ref:vcgi:esiteid" v="183646" />
  </node>
  <node id="-208" visible="true" lat="44.15644759" lon="-72.43073484">
    <tag k="addr:city" v="Orange" />
    <tag k="addr:housenumber" v="57" />
    <tag k="addr:street" v="Reservoir Road" />
    <tag k="addr:state" v="VT" />
    <tag k="ref:vcgi:esiteid" v="183647" />
  </node>
  <node id="-209" visible="true" lat="44.15629196" lon="-72.43112182">
    <tag k="addr:city" v="Orange" />
    <tag k="addr:housenumber" v="53" />
    <tag k="addr:street" v="Reservoir Road" />
    <tag k="addr:state" v="VT" />
    <tag k="ref:vcgi:esiteid" v="183648" />
  </node>
  <node id="-210" visible="true" lat="44.1562969" lon="-72.40077484">
    <tag k="addr:city" v="Orange" />
    <tag k="addr:housenumber" v="125" />
    <tag k="addr:street" v="George Street" />
    <tag k="addr:state" v="VT" />
    <tag k="ref:vcgi:esiteid" v="183649" />
  </node>
  <node id="-211" visible="true" lat="44.1560679" lon="-72.39888716">
    <tag k="addr:city" v="Orange" />
    <tag k="addr:housenumber" v="108" />
    <tag k="addr:street" v="George Street" />
    <tag k="addr:state" v="VT" />
    <tag k="ref:vcgi:esiteid" v="183650" />
  </node>
  <node id="-212" visible="true" lat="44.15578712" lon="-72.43153495">
    <tag k="addr:city" v="Orange" />
    <tag k="addr:housenumber" v="45" />
    <tag k="addr:street" v="Reservoir Road" />
    <tag k="addr:state" v="VT" />
    <tag k="ref:vcgi:esiteid" v="183651" />
  </node>
  <node id="-213" visible="true" lat="44.15561294" lon="-72.40486907">
    <tag k="addr:city" v="Orange" />
    <tag k="addr:housenumber" v="321" />
    <tag k="addr:street" v="U.S. Route 302" />
    <tag k="addr:state" v="VT" />
    <tag k="ref:vcgi:esiteid" v="183652" />
  </node>
  <node id="-214" visible="true" lat="44.15555968" lon="-72.4322338">
    <tag k="addr:city" v="Orange" />
    <tag k="addr:housenumber" v="13" />
    <tag k="addr:street" v="Moran Road" />
    <tag k="addr:state" v="VT" />
    <tag k="ref:vcgi:esiteid" v="183653" />
  </node>
  <node id="-215" visible="true" lat="44.1552077" lon="-72.43248068">
    <tag k="addr:city" v="Orange" />
    <tag k="addr:housenumber" v="9" />
    <tag k="addr:street" v="Moran Road" />
    <tag k="addr:state" v="VT" />
    <tag k="ref:vcgi:esiteid" v="183654" />
  </node>
  <node id="-216" visible="true" lat="44.15562922" lon="-72.3186616">
    <tag k="addr:city" v="Orange" />
    <tag k="addr:housenumber" v="216" />
    <tag k="addr:street" v="Clement Road" />
    <tag k="addr:state" v="VT" />
    <tag k="ref:vcgi:esiteid" v="183655" />
  </node>
  <node id="-217" visible="true" lat="44.15484677" lon="-72.43188817">
    <tag k="addr:city" v="Orange" />
    <tag k="addr:housenumber" v="35" />
    <tag k="addr:street" v="Reservoir Road" />
    <tag k="addr:state" v="VT" />
    <tag k="ref:vcgi:esiteid" v="183656" />
  </node>
  <node id="-218" visible="true" lat="44.15395736" lon="-72.40006256">
    <tag k="addr:city" v="Orange" />
    <tag k="addr:housenumber" v="77" />
    <tag k="addr:street" v="George Street" />
    <tag k="addr:state" v="VT" />
    <tag k="ref:vcgi:esiteid" v="183657" />
  </node>
  <node id="-219" visible="true" lat="44.15357869" lon="-72.43135369">
    <tag k="addr:city" v="Orange" />
    <tag k="addr:housenumber" v="13" />
    <tag k="addr:street" v="Reservoir Road" />
    <tag k="addr:state" v="VT" />
    <tag k="ref:vcgi:esiteid" v="183658" />
  </node>
  <node id="-220" visible="true" lat="44.15306763" lon="-72.43094968">
    <tag k="addr:city" v="Orange" />
    <tag k="addr:housenumber" v="5" />
    <tag k="addr:street" v="Reservoir Road" />
    <tag k="addr:state" v="VT" />
    <tag k="ref:vcgi:esiteid" v="183660" />
  </node>
  <node id="-221" visible="true" lat="44.15241588" lon="-72.40078571">
    <tag k="addr:city" v="Orange" />
    <tag k="addr:housenumber" v="57" />
    <tag k="addr:street" v="George Street" />
    <tag k="addr:state" v="VT" />
    <tag k="ref:vcgi:esiteid" v="183661" />
  </node>
  <node id="-222" visible="true" lat="44.15213394" lon="-72.39998728">
    <tag k="addr:city" v="Orange" />
    <tag k="addr:housenumber" v="56" />
    <tag k="addr:street" v="George Street" />
    <tag k="addr:state" v="VT" />
    <tag k="ref:vcgi:esiteid" v="183662" />
  </node>
  <node id="-223" visible="true" lat="44.15135574" lon="-72.35427856">
    <tag k="addr:city" v="Orange" />
    <tag k="addr:housenumber" v="140" />
    <tag k="addr:street" v="Provencher Lane" />
    <tag k="addr:state" v="VT" />
    <tag k="ref:vcgi:esiteid" v="183663" />
  </node>
  <node id="-224" visible="true" lat="44.15103022" lon="-72.4010096">
    <tag k="addr:city" v="Orange" />
    <tag k="addr:housenumber" v="5" />
    <tag k="addr:street" v="Morris Drive" />
    <tag k="addr:state" v="VT" />
    <tag k="ref:vcgi:esiteid" v="183664" />
  </node>
  <node id="-225" visible="true" lat="44.15086279" lon="-72.40014308">
    <tag k="addr:city" v="Orange" />
    <tag k="addr:housenumber" v="40" />
    <tag k="addr:street" v="George Street" />
    <tag k="addr:state" v="VT" />
    <tag k="ref:vcgi:esiteid" v="183665" />
  </node>
  <node id="-226" visible="true" lat="44.15086364" lon="-72.35620117">
    <tag k="addr:city" v="Orange" />
    <tag k="addr:housenumber" v="137" />
    <tag k="addr:street" v="Provencher Lane" />
    <tag k="addr:state" v="VT" />
    <tag k="ref:vcgi:esiteid" v="183666" />
  </node>
  <node id="-227" visible="true" lat="44.15065383" lon="-72.3564387">
    <tag k="addr:city" v="Orange" />
    <tag k="addr:housenumber" v="133" />
    <tag k="addr:street" v="Provencher Lane" />
    <tag k="addr:state" v="VT" />
    <tag k="ref:vcgi:esiteid" v="183667" />
  </node>
  <node id="-228" visible="true" lat="44.15060043" lon="-72.35428619">
    <tag k="addr:city" v="Orange" />
    <tag k="addr:housenumber" v="128" />
    <tag k="addr:street" v="Provencher Lane" />
    <tag k="addr:state" v="VT" />
    <tag k="ref:vcgi:esiteid" v="183668" />
  </node>
  <node id="-229" visible="true" lat="44.1503601" lon="-72.40689087">
    <tag k="addr:city" v="Orange" />
    <tag k="addr:housenumber" v="313" />
    <tag k="addr:street" v="U.S. Route 302" />
    <tag k="addr:state" v="VT" />
    <tag k="ref:vcgi:esiteid" v="183669" />
  </node>
  <node id="-230" visible="true" lat="44.15025329" lon="-72.41384887">
    <tag k="addr:city" v="Orange" />
    <tag k="addr:housenumber" v="253" />
    <tag k="addr:street" v="U.S. Route 302" />
    <tag k="addr:state" v="VT" />
    <tag k="ref:vcgi:esiteid" v="183670" />
  </node>
  <node id="-231" visible="true" lat="44.15042075" lon="-72.40091545">
    <tag k="addr:city" v="Orange" />
    <tag k="addr:housenumber" v="29" />
    <tag k="addr:street" v="George Street" />
    <tag k="addr:state" v="VT" />
    <tag k="ref:vcgi:esiteid" v="183671" />
  </node>
  <node id="-232" visible="true" lat="44.14984634" lon="-72.40147726">
    <tag k="addr:city" v="Orange" />
    <tag k="addr:housenumber" v="21" />
    <tag k="addr:street" v="George Street" />
    <tag k="addr:state" v="VT" />
    <tag k="ref:vcgi:esiteid" v="183672" />
  </node>
  <node id="-233" visible="true" lat="44.14985275" lon="-72.4004603">
    <tag k="addr:city" v="Orange" />
    <tag k="addr:housenumber" v="24" />
    <tag k="addr:street" v="George Street" />
    <tag k="addr:state" v="VT" />
    <tag k="ref:vcgi:esiteid" v="183673" />
  </node>
  <node id="-234" visible="true" lat="44.1495285" lon="-72.41221618">
    <tag k="addr:city" v="Orange" />
    <tag k="addr:housenumber" v="268" />
    <tag k="addr:street" v="U.S. Route 302" />
    <tag k="addr:state" v="VT" />
    <tag k="ref:vcgi:esiteid" v="183674" />
  </node>
  <node id="-235" visible="true" lat="44.14918147" lon="-72.40133346">
    <tag k="addr:city" v="Orange" />
    <tag k="addr:housenumber" v="15" />
    <tag k="addr:street" v="George Street" />
    <tag k="addr:state" v="VT" />
    <tag k="ref:vcgi:esiteid" v="183675" />
  </node>
  <node id="-236" visible="true" lat="44.1490322" lon="-72.40360053">
    <tag k="addr:city" v="Orange" />
    <tag k="addr:housenumber" v="357" />
    <tag k="addr:street" v="U.S. Route 302" />
    <tag k="addr:state" v="VT" />
    <tag k="ref:vcgi:esiteid" v="183676" />
  </node>
  <node id="-237" visible="true" lat="44.14884673" lon="-72.42208107">
    <tag k="addr:city" v="Orange" />
    <tag k="addr:housenumber" v="77" />
    <tag k="addr:street" v="Helgesen Road" />
    <tag k="addr:state" v="VT" />
    <tag k="ref:vcgi:esiteid" v="183677" />
  </node>
  <node id="-238" visible="true" lat="44.1488851" lon="-72.40250916">
    <tag k="addr:city" v="Orange" />
    <tag k="addr:housenumber" v="369" />
    <tag k="addr:street" v="U.S. Route 302" />
    <tag k="addr:state" v="VT" />
    <tag k="ref:vcgi:esiteid" v="183678" />
  </node>
  <node id="-239" visible="true" lat="44.14876155" lon="-72.40185846">
    <tag k="addr:city" v="Orange" />
    <tag k="addr:housenumber" v="379" />
    <tag k="addr:street" v="U.S. Route 302" />
    <tag k="addr:state" v="VT" />
    <tag k="ref:vcgi:esiteid" v="183679" />
  </node>
  <node id="-240" visible="true" lat="44.14871693" lon="-72.40116842">
    <tag k="addr:city" v="Orange" />
    <tag k="addr:housenumber" v="383" />
    <tag k="addr:street" v="U.S. Route 302" />
    <tag k="addr:state" v="VT" />
    <tag k="ref:vcgi:esiteid" v="183680" />
  </node>
  <node id="-241" visible="true" lat="44.1486788" lon="-72.3929899">
    <tag k="addr:city" v="Orange" />
    <tag k="addr:housenumber" v="24" />
    <tag k="addr:street" v="Senecal Road" />
    <tag k="addr:state" v="VT" />
    <tag k="ref:vcgi:esiteid" v="183681" />
  </node>
  <node id="-242" visible="true" lat="44.14849679" lon="-72.4038444">
    <tag k="addr:city" v="Orange" />
    <tag k="addr:housenumber" v="356" />
    <tag k="addr:street" v="U.S. Route 302" />
    <tag k="addr:state" v="VT" />
    <tag k="ref:vcgi:esiteid" v="183682" />
  </node>
  <node id="-243" visible="true" lat="44.14854869" lon="-72.39888504">
    <tag k="addr:city" v="Orange" />
    <tag k="addr:housenumber" v="409" />
    <tag k="addr:street" v="U.S. Route 302" />
    <tag k="addr:state" v="VT" />
    <tag k="ref:vcgi:esiteid" v="183683" />
  </node>
  <node id="-244" visible="true" lat="44.14847946" lon="-72.40322112">
    <tag k="addr:city" v="Orange" />
    <tag k="addr:housenumber" v="364" />
    <tag k="addr:street" v="U.S. Route 302" />
    <tag k="addr:state" v="VT" />
    <tag k="ref:vcgi:esiteid" v="183684" />
  </node>
  <node id="-245" visible="true" lat="44.14841021" lon="-72.40266895">
    <tag k="addr:city" v="Orange" />
    <tag k="addr:housenumber" v="368" />
    <tag k="addr:street" v="U.S. Route 302" />
    <tag k="addr:state" v="VT" />
    <tag k="ref:vcgi:esiteid" v="183685" />
  </node>
  <node id="-246" visible="true" lat="44.14844131" lon="-72.43669891">
    <tag k="addr:city" v="Orange" />
    <tag k="addr:housenumber" v="13" />
    <tag k="addr:street" v="Vermont Route 110" />
    <tag k="addr:state" v="VT" />
    <tag k="ref:vcgi:esiteid" v="183686" />
  </node>
  <node id="-247" visible="true" lat="44.14837079" lon="-72.4019264">
    <tag k="addr:city" v="Orange" />
    <tag k="addr:housenumber" v="380" />
    <tag k="addr:street" v="U.S. Route 302" />
    <tag k="addr:state" v="VT" />
    <tag k="ref:vcgi:esiteid" v="183687" />
  </node>
  <node id="-248" visible="true" lat="44.1483345" lon="-72.41382598">
    <tag k="addr:city" v="Orange" />
    <tag k="addr:housenumber" v="24" />
    <tag k="addr:street" v="Tucker Road" />
    <tag k="addr:state" v="VT" />
    <tag k="ref:vcgi:esiteid" v="183688" />
  </node>
  <node id="-249" visible="true" lat="44.14841526" lon="-72.42285637">
    <tag k="addr:city" v="Orange" />
    <tag k="addr:housenumber" v="73" />
    <tag k="addr:street" v="Helgesen Road" />
    <tag k="addr:state" v="VT" />
    <tag k="ref:vcgi:esiteid" v="183689" />
  </node>
  <node id="-250" visible="true" lat="44.14804077" lon="-72.40122222">
    <tag k="addr:city" v="Orange" />
    <tag k="addr:housenumber" v="392" />
    <tag k="addr:street" v="U.S. Route 302" />
    <tag k="addr:state" v="VT" />
    <tag k="ref:vcgi:esiteid" v="183690" />
  </node>
  <node id="-251" visible="true" lat="44.14796066" lon="-72.42001342">
    <tag k="addr:city" v="Orange" />
    <tag k="addr:housenumber" v="76" />
    <tag k="addr:street" v="Helgesen Road" />
    <tag k="addr:state" v="VT" />
    <tag k="ref:vcgi:esiteid" v="183691" />
  </node>
  <node id="-252" visible="true" lat="44.14793781" lon="-72.39678392">
    <tag k="addr:city" v="Orange" />
    <tag k="addr:housenumber" v="425" />
    <tag k="addr:street" v="U.S. Route 302" />
    <tag k="addr:state" v="VT" />
    <tag k="ref:vcgi:esiteid" v="183692" />
  </node>
  <node id="-253" visible="true" lat="44.14786529" lon="-72.39044189">
    <tag k="addr:city" v="Orange" />
    <tag k="addr:housenumber" v="485" />
    <tag k="addr:street" v="U.S. Route 302" />
    <tag k="addr:state" v="VT" />
    <tag k="ref:vcgi:esiteid" v="183693" />
  </node>
  <node id="-254" visible="true" lat="44.14765548" lon="-72.43701171">
    <tag k="addr:city" v="Orange" />
    <tag k="addr:housenumber" v="20" />
    <tag k="addr:street" v="Vermont Route 110" />
    <tag k="addr:state" v="VT" />
    <tag k="ref:vcgi:esiteid" v="183694" />
  </node>
  <node id="-255" visible="true" lat="44.14768151" lon="-72.39529695">
    <tag k="addr:city" v="Orange" />
    <tag k="addr:housenumber" v="441" />
    <tag k="addr:street" v="U.S. Route 302" />
    <tag k="addr:state" v="VT" />
    <tag k="ref:vcgi:esiteid" v="183695" />
  </node>
  <node id="-256" visible="true" lat="44.14779308" lon="-72.42094707">
    <tag k="addr:city" v="Orange" />
    <tag k="addr:housenumber" v="64" />
    <tag k="addr:street" v="Helgesen Road" />
    <tag k="addr:state" v="VT" />
    <tag k="ref:vcgi:esiteid" v="183696" />
  </node>
  <node id="-257" visible="true" lat="44.14761733" lon="-72.38881785">
    <tag k="addr:city" v="Orange" />
    <tag k="addr:housenumber" v="501" />
    <tag k="addr:street" v="U.S. Route 302" />
    <tag k="addr:state" v="VT" />
    <tag k="ref:vcgi:esiteid" v="183697" />
  </node>
  <node id="-258" visible="true" lat="44.14748764" lon="-72.39119059">
    <tag k="addr:city" v="Orange" />
    <tag k="addr:housenumber" v="481" />
    <tag k="addr:street" v="U.S. Route 302" />
    <tag k="addr:state" v="VT" />
    <tag k="ref:vcgi:esiteid" v="183698" />
  </node>
  <node id="-259" visible="true" lat="44.14722823" lon="-72.38690287">
    <tag k="addr:city" v="Orange" />
    <tag k="addr:housenumber" v="517" />
    <tag k="addr:street" v="U.S. Route 302" />
    <tag k="addr:state" v="VT" />
    <tag k="ref:vcgi:esiteid" v="183699" />
  </node>
  <node id="-260" visible="true" lat="44.14722824" lon="-72.39444732">
    <tag k="addr:city" v="Orange" />
    <tag k="addr:housenumber" v="452" />
    <tag k="addr:street" v="U.S. Route 302" />
    <tag k="addr:state" v="VT" />
    <tag k="ref:vcgi:esiteid" v="183700" />
  </node>
  <node id="-261" visible="true" lat="44.14712142" lon="-72.39221954">
    <tag k="addr:city" v="Orange" />
    <tag k="addr:housenumber" v="472" />
    <tag k="addr:street" v="U.S. Route 302" />
    <tag k="addr:state" v="VT" />
    <tag k="ref:vcgi:esiteid" v="183701" />
  </node>
  <node id="-262" visible="true" lat="44.15015785" lon="-72.33586395">
    <tag k="addr:city" v="Orange" />
    <tag k="addr:housenumber" v="69" />
    <tag k="addr:street" v="Cramp Road" />
    <tag k="addr:state" v="VT" />
    <tag k="ref:vcgi:esiteid" v="183702" />
  </node>
  <node id="-263" visible="true" lat="44.14684357" lon="-72.39696307">
    <tag k="addr:city" v="Orange" />
    <tag k="addr:housenumber" v="428" />
    <tag k="addr:street" v="U.S. Route 302" />
    <tag k="addr:state" v="VT" />
    <tag k="ref:vcgi:esiteid" v="183703" />
  </node>
  <node id="-264" visible="true" lat="44.14688238" lon="-72.40270954">
    <tag k="addr:city" v="Orange" />
    <tag k="addr:housenumber" v="25" />
    <tag k="addr:street" v="Richardson Road" />
    <tag k="addr:state" v="VT" />
    <tag k="ref:vcgi:esiteid" v="183704" />
  </node>
  <node id="-265" visible="true" lat="44.14663314" lon="-72.35489756">
    <tag k="addr:city" v="Orange" />
    <tag k="addr:housenumber" v="80" />
    <tag k="addr:street" v="Provencher Lane" />
    <tag k="addr:state" v="VT" />
    <tag k="ref:vcgi:esiteid" v="183705" />
  </node>
  <node id="-266" visible="true" lat="44.14675801" lon="-72.43750802">
    <tag k="addr:city" v="Orange" />
    <tag k="addr:housenumber" v="24" />
    <tag k="addr:street" v="Vermont Route 110" />
    <tag k="addr:state" v="VT" />
    <tag k="ref:vcgi:esiteid" v="183706" />
  </node>
  <node id="-267" visible="true" lat="44.14659881" lon="-72.39010722">
    <tag k="addr:city" v="Orange" />
    <tag k="addr:housenumber" v="496" />
    <tag k="addr:street" v="U.S. Route 302" />
    <tag k="addr:state" v="VT" />
    <tag k="ref:vcgi:esiteid" v="183707" />
  </node>
  <node id="-268" visible="true" lat="44.1465915" lon="-72.43623116">
    <tag k="addr:city" v="Orange" />
    <tag k="addr:housenumber" v="36" />
    <tag k="addr:street" v="Vermont Route 110" />
    <tag k="addr:state" v="VT" />
    <tag k="ref:vcgi:esiteid" v="183708" />
  </node>
  <node id="-269" visible="true" lat="44.14646911" lon="-72.4137268">
    <tag k="addr:city" v="Orange" />
    <tag k="addr:housenumber" v="45" />
    <tag k="addr:street" v="Tucker Road" />
    <tag k="addr:state" v="VT" />
    <tag k="ref:vcgi:esiteid" v="183709" />
  </node>
  <node id="-270" visible="true" lat="44.14638201" lon="-72.43517437">
    <tag k="addr:city" v="Orange" />
    <tag k="addr:housenumber" v="44" />
    <tag k="addr:street" v="Vermont Route 110" />
    <tag k="addr:state" v="VT" />
    <tag k="ref:vcgi:esiteid" v="183710" />
  </node>
  <node id="-271" visible="true" lat="44.14623641" lon="-72.38461405">
    <tag k="addr:city" v="Orange" />
    <tag k="addr:housenumber" v="548" />
    <tag k="addr:street" v="U.S. Route 302" />
    <tag k="addr:state" v="VT" />
    <tag k="ref:vcgi:esiteid" v="183711" />
  </node>
  <node id="-272" visible="true" lat="44.14586597" lon="-72.38301725">
    <tag k="addr:city" v="Orange" />
    <tag k="addr:housenumber" v="564" />
    <tag k="addr:street" v="U.S. Route 302" />
    <tag k="addr:state" v="VT" />
    <tag k="ref:vcgi:esiteid" v="183712" />
  </node>
  <node id="-273" visible="true" lat="44.14444913" lon="-72.32601911">
    <tag k="addr:city" v="Orange" />
    <tag k="addr:housenumber" v="59" />
    <tag k="addr:street" v="Clement Road" />
    <tag k="addr:state" v="VT" />
    <tag k="ref:vcgi:esiteid" v="183713" />
  </node>
  <node id="-274" visible="true" lat="44.14596718" lon="-72.38159894">
    <tag k="addr:city" v="Orange" />
    <tag k="addr:housenumber" v="580" />
    <tag k="addr:street" v="U.S. Route 302" />
    <tag k="addr:state" v="VT" />
    <tag k="ref:vcgi:esiteid" v="183714" />
  </node>
  <node id="-275" visible="true" lat="44.14556884" lon="-72.32260894">
    <tag k="addr:city" v="Orange" />
    <tag k="addr:housenumber" v="57" />
    <tag k="addr:street" v="Clement Road" />
    <tag k="addr:state" v="VT" />
    <tag k="ref:vcgi:esiteid" v="183715" />
  </node>
  <node id="-276" visible="true" lat="44.14559173" lon="-72.37953949">
    <tag k="addr:city" v="Orange" />
    <tag k="addr:housenumber" v="608" />
    <tag k="addr:street" v="U.S. Route 302" />
    <tag k="addr:state" v="VT" />
    <tag k="ref:vcgi:esiteid" v="183716" />
  </node>
  <node id="-277" visible="true" lat="44.1455841" lon="-72.41999054">
    <tag k="addr:city" v="Orange" />
    <tag k="addr:housenumber" v="33" />
    <tag k="addr:street" v="Helgesen Road" />
    <tag k="addr:state" v="VT" />
    <tag k="ref:vcgi:esiteid" v="183717" />
  </node>
  <node id="-278" visible="true" lat="44.14533233" lon="-72.43427378">
    <tag k="addr:city" v="Orange" />
    <tag k="addr:housenumber" v="61" />
    <tag k="addr:street" v="Vermont Route 110" />
    <tag k="addr:state" v="VT" />
    <tag k="ref:vcgi:esiteid" v="183718" />
  </node>
  <node id="-279" visible="true" lat="44.14510726" lon="-72.3784495">
    <tag k="addr:city" v="Orange" />
    <tag k="addr:housenumber" v="612" />
    <tag k="addr:street" v="U.S. Route 302" />
    <tag k="addr:state" v="VT" />
    <tag k="ref:vcgi:esiteid" v="183719" />
  </node>
  <node id="-280" visible="true" lat="44.1450653" lon="-72.4031372">
    <tag k="addr:city" v="Orange" />
    <tag k="addr:housenumber" v="49" />
    <tag k="addr:street" v="Richardson Road" />
    <tag k="addr:state" v="VT" />
    <tag k="ref:vcgi:esiteid" v="183720" />
  </node>
  <node id="-281" visible="true" lat="44.1449356" lon="-72.41722106">
    <tag k="addr:city" v="Orange" />
    <tag k="addr:housenumber" v="88" />
    <tag k="addr:street" v="Tucker Road" />
    <tag k="addr:state" v="VT" />
    <tag k="ref:vcgi:esiteid" v="183721" />
  </node>
  <node id="-282" visible="true" lat="44.14485578" lon="-72.37278086">
    <tag k="addr:city" v="Orange" />
    <tag k="addr:housenumber" v="673" />
    <tag k="addr:street" v="U.S. Route 302" />
    <tag k="addr:state" v="VT" />
    <tag k="ref:vcgi:esiteid" v="183722" />
  </node>
  <node id="-283" visible="true" lat="44.14479529" lon="-72.37251212">
    <tag k="addr:city" v="Orange" />
    <tag k="addr:housenumber" v="677" />
    <tag k="addr:street" v="U.S. Route 302" />
    <tag k="addr:state" v="VT" />
    <tag k="ref:vcgi:esiteid" v="183723" />
  </node>
  <node id="-284" visible="true" lat="44.1448737" lon="-72.41905109">
    <tag k="addr:city" v="Orange" />
    <tag k="addr:housenumber" v="13" />
    <tag k="addr:street" v="Helgesen Road" />
    <tag k="addr:state" v="VT" />
    <tag k="ref:vcgi:esiteid" v="183724" />
  </node>
  <node id="-285" visible="true" lat="44.144818" lon="-72.4340875">
    <tag k="addr:city" v="Orange" />
    <tag k="addr:housenumber" v="69" />
    <tag k="addr:street" v="Vermont Route 110" />
    <tag k="addr:state" v="VT" />
    <tag k="ref:vcgi:esiteid" v="183725" />
  </node>
  <node id="-286" visible="true" lat="44.1446582" lon="-72.37603183">
    <tag k="addr:city" v="Orange" />
    <tag k="addr:housenumber" v="644" />
    <tag k="addr:street" v="U.S. Route 302" />
    <tag k="addr:state" v="VT" />
    <tag k="ref:vcgi:esiteid" v="183726" />
  </node>
  <node id="-287" visible="true" lat="44.14474267" lon="-72.37086555">
    <tag k="addr:city" v="Orange" />
    <tag k="addr:housenumber" v="689" />
    <tag k="addr:street" v="U.S. Route 302" />
    <tag k="addr:state" v="VT" />
    <tag k="ref:vcgi:esiteid" v="183727" />
  </node>
  <node id="-288" visible="true" lat="44.14467133" lon="-72.43542317">
    <tag k="addr:city" v="Orange" />
    <tag k="addr:housenumber" v="24" />
    <tag k="addr:street" v="Bls Drive" />
    <tag k="addr:state" v="VT" />
    <tag k="ref:vcgi:esiteid" v="183728" />
  </node>
  <node id="-289" visible="true" lat="44.14441022" lon="-72.3748599">
    <tag k="addr:city" v="Orange" />
    <tag k="addr:housenumber" v="656" />
    <tag k="addr:street" v="U.S. Route 302" />
    <tag k="addr:state" v="VT" />
    <tag k="ref:vcgi:esiteid" v="183729" />
  </node>
  <node id="-290" visible="true" lat="44.14440488" lon="-72.33240507">
    <tag k="addr:city" v="Orange" />
    <tag k="addr:housenumber" v="33" />
    <tag k="addr:street" v="Cramp Road" />
    <tag k="addr:state" v="VT" />
    <tag k="ref:vcgi:esiteid" v="183730" />
  </node>
  <node id="-291" visible="true" lat="44.14424872" lon="-72.37093834">
    <tag k="addr:city" v="Orange" />
    <tag k="addr:housenumber" v="684" />
    <tag k="addr:street" v="U.S. Route 302" />
    <tag k="addr:state" v="VT" />
    <tag k="ref:vcgi:esiteid" v="183731" />
  </node>
  <node id="-292" visible="true" lat="44.14407688" lon="-72.32206076">
    <tag k="addr:city" v="Orange" />
    <tag k="addr:housenumber" v="44" />
    <tag k="addr:street" v="Clement Road" />
    <tag k="addr:state" v="VT" />
    <tag k="ref:vcgi:esiteid" v="183733" />
  </node>
  <node id="-293" visible="true" lat="44.14409092" lon="-72.33110212">
    <tag k="addr:city" v="Orange" />
    <tag k="addr:housenumber" v="28" />
    <tag k="addr:street" v="Cramp Road" />
    <tag k="addr:state" v="VT" />
    <tag k="ref:vcgi:esiteid" v="183734" />
  </node>
  <node id="-294" visible="true" lat="44.14396274" lon="-72.37304332">
    <tag k="addr:city" v="Orange" />
    <tag k="addr:housenumber" v="672" />
    <tag k="addr:street" v="U.S. Route 302" />
    <tag k="addr:state" v="VT" />
    <tag k="ref:vcgi:esiteid" v="183735" />
  </node>
  <node id="-295" visible="true" lat="44.14401052" lon="-72.43629336">
    <tag k="addr:city" v="Orange" />
    <tag k="addr:housenumber" v="13" />
    <tag k="addr:street" v="Bls Drive" />
    <tag k="addr:state" v="VT" />
    <tag k="ref:vcgi:esiteid" v="183736" />
  </node>
  <node id="-296" visible="true" lat="44.14380977" lon="-72.39676279">
    <tag k="addr:city" v="Orange" />
    <tag k="addr:housenumber" v="57" />
    <tag k="addr:street" v="Manning Road" />
    <tag k="addr:state" v="VT" />
    <tag k="ref:vcgi:esiteid" v="183737" />
  </node>
  <node id="-297" visible="true" lat="44.14352035" lon="-72.32204437">
    <tag k="addr:city" v="Orange" />
    <tag k="addr:housenumber" v="36" />
    <tag k="addr:street" v="Clement Road" />
    <tag k="addr:state" v="VT" />
    <tag k="ref:vcgi:esiteid" v="183738" />
  </node>
  <node id="-298" visible="true" lat="44.14354899" lon="-72.43502915">
    <tag k="addr:city" v="Orange" />
    <tag k="addr:housenumber" v="9" />
    <tag k="addr:street" v="Bls Drive" />
    <tag k="addr:state" v="VT" />
    <tag k="ref:vcgi:esiteid" v="183739" />
  </node>
  <node id="-299" visible="true" lat="44.14340972" lon="-72.40397644">
    <tag k="addr:city" v="Orange" />
    <tag k="addr:housenumber" v="73" />
    <tag k="addr:street" v="Richardson Road" />
    <tag k="addr:state" v="VT" />
    <tag k="ref:vcgi:esiteid" v="183740" />
  </node>
  <node id="-300" visible="true" lat="44.14334869" lon="-72.38979339">
    <tag k="addr:city" v="Orange" />
    <tag k="addr:housenumber" v="57" />
    <tag k="addr:street" v="Prechtl Road" />
    <tag k="addr:state" v="VT" />
    <tag k="ref:vcgi:esiteid" v="183741" />
  </node>
  <node id="-301" visible="true" lat="44.14322695" lon="-72.32687332">
    <tag k="addr:city" v="Orange" />
    <tag k="addr:housenumber" v="1157" />
    <tag k="addr:street" v="U.S. Route 302" />
    <tag k="addr:state" v="VT" />
    <tag k="ref:vcgi:esiteid" v="183742" />
  </node>
  <node id="-302" visible="true" lat="44.14314222" lon="-72.34239195">
    <tag k="addr:city" v="Orange" />
    <tag k="addr:housenumber" v="985" />
    <tag k="addr:street" v="U.S. Route 302" />
    <tag k="addr:state" v="VT" />
    <tag k="ref:vcgi:esiteid" v="183743" />
  </node>
  <node id="-303" visible="true" lat="44.14298248" lon="-72.32228851">
    <tag k="addr:city" v="Orange" />
    <tag k="addr:housenumber" v="32" />
    <tag k="addr:street" v="Clement Road" />
    <tag k="addr:state" v="VT" />
    <tag k="ref:vcgi:esiteid" v="183744" />
  </node>
  <node id="-304" visible="true" lat="44.14291763" lon="-72.32254791">
    <tag k="addr:city" v="Orange" />
    <tag k="addr:housenumber" v="25" />
    <tag k="addr:street" v="Clement Road" />
    <tag k="addr:state" v="VT" />
    <tag k="ref:vcgi:esiteid" v="183745" />
  </node>
  <node id="-305" visible="true" lat="44.14295578" lon="-72.4343043">
    <tag k="addr:city" v="Orange" />
    <tag k="addr:housenumber" v="88" />
    <tag k="addr:street" v="Vermont Route 110" />
    <tag k="addr:state" v="VT" />
    <tag k="ref:vcgi:esiteid" v="183746" />
  </node>
  <node id="-306" visible="true" lat="44.14349474" lon="-72.34129847">
    <tag k="addr:city" v="Orange" />
    <tag k="addr:housenumber" v="1001" />
    <tag k="addr:street" v="U.S. Route 302" />
    <tag k="addr:state" v="VT" />
    <tag k="ref:vcgi:esiteid" v="183747" />
  </node>
  <node id="-307" visible="true" lat="44.14261627" lon="-72.39096934">
    <tag k="addr:city" v="Orange" />
    <tag k="addr:housenumber" v="64" />
    <tag k="addr:street" v="Prechtl Road" />
    <tag k="addr:state" v="VT" />
    <tag k="ref:vcgi:esiteid" v="183748" />
  </node>
  <node id="-308" visible="true" lat="44.14249028" lon="-72.32122084">
    <tag k="addr:city" v="Orange" />
    <tag k="addr:housenumber" v="20" />
    <tag k="addr:street" v="Clement Road" />
    <tag k="addr:state" v="VT" />
    <tag k="ref:vcgi:esiteid" v="183749" />
  </node>
  <node id="-309" visible="true" lat="44.14236455" lon="-72.34032083">
    <tag k="addr:city" v="Orange" />
    <tag k="addr:housenumber" v="1005" />
    <tag k="addr:street" v="U.S. Route 302" />
    <tag k="addr:state" v="VT" />
    <tag k="ref:vcgi:esiteid" v="183750" />
  </node>
  <node id="-310" visible="true" lat="44.14249192" lon="-72.32519074">
    <tag k="addr:city" v="Orange" />
    <tag k="addr:housenumber" v="1165" />
    <tag k="addr:street" v="U.S. Route 302" />
    <tag k="addr:state" v="VT" />
    <tag k="ref:vcgi:esiteid" v="183751" />
  </node>
  <node id="-311" visible="true" lat="44.14195909" lon="-72.32489192">
    <tag k="addr:city" v="Orange" />
    <tag k="addr:housenumber" v="1168" />
    <tag k="addr:street" v="U.S. Route 302" />
    <tag k="addr:state" v="VT" />
    <tag k="ref:vcgi:esiteid" v="183753" />
  </node>
  <node id="-312" visible="true" lat="44.14208554" lon="-72.32817076">
    <tag k="addr:city" v="Orange" />
    <tag k="addr:housenumber" v="1136" />
    <tag k="addr:street" v="U.S. Route 302" />
    <tag k="addr:state" v="VT" />
    <tag k="ref:vcgi:esiteid" v="183754" />
  </node>
  <node id="-313" visible="true" lat="44.1420249" lon="-72.33167814">
    <tag k="addr:city" v="Orange" />
    <tag k="addr:housenumber" v="1100" />
    <tag k="addr:street" v="U.S. Route 302" />
    <tag k="addr:state" v="VT" />
    <tag k="ref:vcgi:esiteid" v="183755" />
  </node>
  <node id="-314" visible="true" lat="44.14214706" lon="-72.3893814">
    <tag k="addr:city" v="Orange" />
    <tag k="addr:housenumber" v="69" />
    <tag k="addr:street" v="Prechtl Road" />
    <tag k="addr:state" v="VT" />
    <tag k="ref:vcgi:esiteid" v="183756" />
  </node>
  <node id="-315" visible="true" lat="44.14199887" lon="-72.32423339">
    <tag k="addr:city" v="Orange" />
    <tag k="addr:housenumber" v="1176" />
    <tag k="addr:street" v="U.S. Route 302" />
    <tag k="addr:state" v="VT" />
    <tag k="ref:vcgi:esiteid" v="183757" />
  </node>
  <node id="-316" visible="true" lat="44.14210484" lon="-72.32574768">
    <tag k="addr:city" v="Orange" />
    <tag k="addr:housenumber" v="1160" />
    <tag k="addr:street" v="U.S. Route 302" />
    <tag k="addr:state" v="VT" />
    <tag k="ref:vcgi:esiteid" v="183759" />
  </node>
  <node id="-317" visible="true" lat="44.14195966" lon="-72.33361051">
    <tag k="addr:city" v="Orange" />
    <tag k="addr:housenumber" v="1081" />
    <tag k="addr:street" v="U.S. Route 302" />
    <tag k="addr:state" v="VT" />
    <tag k="ref:vcgi:esiteid" v="183760" />
  </node>
  <node id="-318" visible="true" lat="44.14167004" lon="-72.33220331">
    <tag k="addr:city" v="Orange" />
    <tag k="addr:housenumber" v="1092" />
    <tag k="addr:street" v="U.S. Route 302" />
    <tag k="addr:state" v="VT" />
    <tag k="ref:vcgi:esiteid" v="183761" />
  </node>
  <node id="-319" visible="true" lat="44.14197443" lon="-72.39754209">
    <tag k="addr:city" v="Orange" />
    <tag k="addr:housenumber" v="84" />
    <tag k="addr:street" v="Manning Road" />
    <tag k="addr:state" v="VT" />
    <tag k="ref:vcgi:esiteid" v="183762" />
  </node>
  <node id="-320" visible="true" lat="44.14190244" lon="-72.33758543">
    <tag k="addr:city" v="Orange" />
    <tag k="addr:housenumber" v="1037" />
    <tag k="addr:street" v="U.S. Route 302" />
    <tag k="addr:state" v="VT" />
    <tag k="ref:vcgi:esiteid" v="183763" />
  </node>
  <node id="-321" visible="true" lat="44.14177274" lon="-72.33502958">
    <tag k="addr:city" v="Orange" />
    <tag k="addr:housenumber" v="1065" />
    <tag k="addr:street" v="U.S. Route 302" />
    <tag k="addr:state" v="VT" />
    <tag k="ref:vcgi:esiteid" v="183764" />
  </node>
  <node id="-322" visible="true" lat="44.14176657" lon="-72.33440791">
    <tag k="addr:city" v="Orange" />
    <tag k="addr:housenumber" v="1069" />
    <tag k="addr:street" v="U.S. Route 302" />
    <tag k="addr:state" v="VT" />
    <tag k="ref:vcgi:esiteid" v="183765" />
  </node>
  <node id="-323" visible="true" lat="44.14178653" lon="-72.32157103">
    <tag k="addr:city" v="Orange" />
    <tag k="addr:housenumber" v="12" />
    <tag k="addr:street" v="Clement Road" />
    <tag k="addr:state" v="VT" />
    <tag k="ref:vcgi:esiteid" v="183766" />
  </node>
  <node id="-324" visible="true" lat="44.14165257" lon="-72.40517052">
    <tag k="addr:city" v="Orange" />
    <tag k="addr:housenumber" v="97" />
    <tag k="addr:street" v="Richardson Road" />
    <tag k="addr:state" v="VT" />
    <tag k="ref:vcgi:esiteid" v="183767" />
  </node>
  <node id="-325" visible="true" lat="44.14143829" lon="-72.33078593">
    <tag k="addr:city" v="Orange" />
    <tag k="addr:housenumber" v="1112" />
    <tag k="addr:street" v="U.S. Route 302" />
    <tag k="addr:state" v="VT" />
    <tag k="ref:vcgi:esiteid" v="183768" />
  </node>
  <node id="-326" visible="true" lat="44.14147393" lon="-72.331495">
    <tag k="addr:city" v="Orange" />
    <tag k="addr:housenumber" v="1096" />
    <tag k="addr:street" v="U.S. Route 302" />
    <tag k="addr:state" v="VT" />
    <tag k="ref:vcgi:esiteid" v="183769" />
  </node>
  <node id="-327" visible="true" lat="44.14139938" lon="-72.3230656">
    <tag k="addr:city" v="Orange" />
    <tag k="addr:housenumber" v="1192" />
    <tag k="addr:street" v="U.S. Route 302" />
    <tag k="addr:state" v="VT" />
    <tag k="ref:vcgi:esiteid" v="183770" />
  </node>
  <node id="-328" visible="true" lat="44.14131687" lon="-72.33648188">
    <tag k="addr:city" v="Orange" />
    <tag k="addr:housenumber" v="1048" />
    <tag k="addr:street" v="U.S. Route 302" />
    <tag k="addr:state" v="VT" />
    <tag k="ref:vcgi:esiteid" v="183771" />
  </node>
  <node id="-329" visible="true" lat="44.14144743" lon="-72.3946628">
    <tag k="addr:city" v="Orange" />
    <tag k="addr:housenumber" v="87" />
    <tag k="addr:street" v="Manning Road" />
    <tag k="addr:state" v="VT" />
    <tag k="ref:vcgi:esiteid" v="183772" />
  </node>
  <node id="-330" visible="true" lat="44.14127096" lon="-72.3965487">
    <tag k="addr:city" v="Orange" />
    <tag k="addr:housenumber" v="88" />
    <tag k="addr:street" v="Manning Road" />
    <tag k="addr:state" v="VT" />
    <tag k="ref:vcgi:esiteid" v="183773" />
  </node>
  <node id="-331" visible="true" lat="44.14123149" lon="-72.32175725">
    <tag k="addr:city" v="Orange" />
    <tag k="addr:housenumber" v="4" />
    <tag k="addr:street" v="Clement Road" />
    <tag k="addr:state" v="VT" />
    <tag k="ref:vcgi:esiteid" v="183774" />
  </node>
  <node id="-332" visible="true" lat="44.14114139" lon="-72.32115907">
    <tag k="addr:city" v="Orange" />
    <tag k="addr:housenumber" v="6" />
    <tag k="addr:street" v="Clement Road" />
    <tag k="addr:state" v="VT" />
    <tag k="ref:vcgi:esiteid" v="183775" />
  </node>
  <node id="-333" visible="true" lat="44.14108276" lon="-72.39074707">
    <tag k="addr:city" v="Orange" />
    <tag k="addr:housenumber" v="84" />
    <tag k="addr:street" v="Prechtl Road" />
    <tag k="addr:state" v="VT" />
    <tag k="ref:vcgi:esiteid" v="183776" />
  </node>
  <node id="-334" visible="true" lat="44.14098654" lon="-72.34713543">
    <tag k="addr:city" v="Orange" />
    <tag k="addr:housenumber" v="16" />
    <tag k="addr:street" v="Riddel Pond Road" />
    <tag k="addr:state" v="VT" />
    <tag k="ref:vcgi:esiteid" v="183777" />
  </node>
  <node id="-335" visible="true" lat="44.1406784" lon="-72.32112121">
    <tag k="addr:city" v="Orange" />
    <tag k="addr:housenumber" v="1213" />
    <tag k="addr:street" v="U.S. Route 302" />
    <tag k="addr:state" v="VT" />
    <tag k="ref:vcgi:esiteid" v="183778" />
  </node>
  <node id="-336" visible="true" lat="44.1405791" lon="-72.31810816">
    <tag k="addr:city" v="Orange" />
    <tag k="addr:housenumber" v="1241" />
    <tag k="addr:street" v="U.S. Route 302" />
    <tag k="addr:state" v="VT" />
    <tag k="ref:vcgi:esiteid" v="183779" />
  </node>
  <node id="-337" visible="true" lat="44.14058685" lon="-72.38954264">
    <tag k="addr:city" v="Orange" />
    <tag k="addr:housenumber" v="97" />
    <tag k="addr:street" v="Prechtl Road" />
    <tag k="addr:state" v="VT" />
    <tag k="ref:vcgi:esiteid" v="183780" />
  </node>
  <node id="-338" visible="true" lat="44.14039945" lon="-72.32368467">
    <tag k="addr:city" v="Orange" />
    <tag k="addr:housenumber" v="1184" />
    <tag k="addr:street" v="U.S. Route 302" />
    <tag k="addr:state" v="VT" />
    <tag k="ref:vcgi:esiteid" v="183781" />
  </node>
  <node id="-339" visible="true" lat="44.13993824" lon="-72.3203935">
    <tag k="addr:city" v="Orange" />
    <tag k="addr:housenumber" v="13" />
    <tag k="addr:street" v="Vermont Route 25" />
    <tag k="addr:state" v="VT" />
    <tag k="ref:vcgi:esiteid" v="183782" />
  </node>
  <node id="-340" visible="true" lat="44.13991165" lon="-72.41982269">
    <tag k="addr:city" v="Orange" />
    <tag k="addr:housenumber" v="160" />
    <tag k="addr:street" v="Tucker Road" />
    <tag k="addr:state" v="VT" />
    <tag k="ref:vcgi:esiteid" v="183783" />
  </node>
  <node id="-341" visible="true" lat="44.1386954" lon="-72.32240359">
    <tag k="addr:city" v="Orange" />
    <tag k="addr:housenumber" v="16" />
    <tag k="addr:street" v="Wilson Drive" />
    <tag k="addr:state" v="VT" />
    <tag k="ref:vcgi:esiteid" v="183784" />
  </node>
  <node id="-342" visible="true" lat="44.13953502" lon="-72.32064729">
    <tag k="addr:city" v="Orange" />
    <tag k="addr:housenumber" v="8" />
    <tag k="addr:street" v="Wilson Drive" />
    <tag k="addr:state" v="VT" />
    <tag k="ref:vcgi:esiteid" v="183785" />
  </node>
  <node id="-343" visible="true" lat="44.13932725" lon="-72.32096923">
    <tag k="addr:city" v="Orange" />
    <tag k="addr:housenumber" v="9" />
    <tag k="addr:street" v="Wilson Drive" />
    <tag k="addr:state" v="VT" />
    <tag k="ref:vcgi:esiteid" v="183786" />
  </node>
  <node id="-344" visible="true" lat="44.13942336" lon="-72.38889414">
    <tag k="addr:city" v="Orange" />
    <tag k="addr:housenumber" v="113" />
    <tag k="addr:street" v="Prechtl Road" />
    <tag k="addr:state" v="VT" />
    <tag k="ref:vcgi:esiteid" v="183787" />
  </node>
  <node id="-345" visible="true" lat="44.13914423" lon="-72.43271289">
    <tag k="addr:city" v="Orange" />
    <tag k="addr:housenumber" v="149" />
    <tag k="addr:street" v="Vermont Route 110" />
    <tag k="addr:state" v="VT" />
    <tag k="ref:vcgi:esiteid" v="183788" />
  </node>
  <node id="-346" visible="true" lat="44.13883972" lon="-72.40415191">
    <tag k="addr:city" v="Orange" />
    <tag k="addr:housenumber" v="145" />
    <tag k="addr:street" v="Richardson Road" />
    <tag k="addr:state" v="VT" />
    <tag k="ref:vcgi:esiteid" v="183789" />
  </node>
  <node id="-347" visible="true" lat="44.13878859" lon="-72.40677344">
    <tag k="addr:city" v="Orange" />
    <tag k="addr:housenumber" v="144" />
    <tag k="addr:street" v="Richardson Road" />
    <tag k="addr:state" v="VT" />
    <tag k="ref:vcgi:esiteid" v="183790" />
  </node>
  <node id="-348" visible="true" lat="44.13865661" lon="-72.39156443">
    <tag k="addr:city" v="Orange" />
    <tag k="addr:housenumber" v="140" />
    <tag k="addr:street" v="Prechtl Road" />
    <tag k="addr:state" v="VT" />
    <tag k="ref:vcgi:esiteid" v="183791" />
  </node>
  <node id="-349" visible="true" lat="44.13851165" lon="-72.42105102">
    <tag k="addr:city" v="Orange" />
    <tag k="addr:housenumber" v="184" />
    <tag k="addr:street" v="Tucker Road" />
    <tag k="addr:state" v="VT" />
    <tag k="ref:vcgi:esiteid" v="183792" />
  </node>
  <node id="-350" visible="true" lat="44.13829844" lon="-72.3875144">
    <tag k="addr:city" v="Orange" />
    <tag k="addr:housenumber" v="137" />
    <tag k="addr:street" v="Prechtl Road" />
    <tag k="addr:state" v="VT" />
    <tag k="ref:vcgi:esiteid" v="183793" />
  </node>
  <node id="-351" visible="true" lat="44.13801961" lon="-72.32015702">
    <tag k="addr:city" v="Orange" />
    <tag k="addr:housenumber" v="36" />
    <tag k="addr:street" v="Vermont Route 25" />
    <tag k="addr:state" v="VT" />
    <tag k="ref:vcgi:esiteid" v="183794" />
  </node>
  <node id="-352" visible="true" lat="44.1378479" lon="-72.42172241">
    <tag k="addr:city" v="Orange" />
    <tag k="addr:housenumber" v="196" />
    <tag k="addr:street" v="Tucker Road" />
    <tag k="addr:state" v="VT" />
    <tag k="ref:vcgi:esiteid" v="183795" />
  </node>
  <node id="-353" visible="true" lat="44.13778456" lon="-72.40401569">
    <tag k="addr:city" v="Orange" />
    <tag k="addr:housenumber" v="149" />
    <tag k="addr:street" v="Richardson Road" />
    <tag k="addr:state" v="VT" />
    <tag k="ref:vcgi:esiteid" v="183796" />
  </node>
  <node id="-354" visible="true" lat="44.13767242" lon="-72.31985089">
    <tag k="addr:city" v="Orange" />
    <tag k="addr:housenumber" v="44" />
    <tag k="addr:street" v="Vermont Route 25" />
    <tag k="addr:state" v="VT" />
    <tag k="ref:vcgi:esiteid" v="183797" />
  </node>
  <node id="-355" visible="true" lat="44.13726806" lon="-72.38992411">
    <tag k="addr:city" v="Orange" />
    <tag k="addr:housenumber" v="160" />
    <tag k="addr:street" v="Prechtl Road" />
    <tag k="addr:state" v="VT" />
    <tag k="ref:vcgi:esiteid" v="183798" />
  </node>
  <node id="-356" visible="true" lat="44.13719177" lon="-72.41967773">
    <tag k="addr:city" v="Orange" />
    <tag k="addr:housenumber" v="189" />
    <tag k="addr:street" v="Tucker Road" />
    <tag k="addr:state" v="VT" />
    <tag k="ref:vcgi:esiteid" v="183799" />
  </node>
  <node id="-357" visible="true" lat="44.13703107" lon="-72.34477232">
    <tag k="addr:city" v="Orange" />
    <tag k="addr:housenumber" v="77" />
    <tag k="addr:street" v="Riddel Pond Road" />
    <tag k="addr:state" v="VT" />
    <tag k="ref:vcgi:esiteid" v="183800" />
  </node>
  <node id="-358" visible="true" lat="44.13730316" lon="-72.38585891">
    <tag k="addr:city" v="Orange" />
    <tag k="addr:housenumber" v="3" />
    <tag k="addr:street" v="Shady Brook Lane" />
    <tag k="addr:state" v="VT" />
    <tag k="ref:vcgi:esiteid" v="183801" />
  </node>
  <node id="-359" visible="true" lat="44.1368638" lon="-72.38299576">
    <tag k="addr:city" v="Orange" />
    <tag k="addr:housenumber" v="61" />
    <tag k="addr:street" v="Melissa Lane" />
    <tag k="addr:state" v="VT" />
    <tag k="ref:vcgi:esiteid" v="183802" />
  </node>
  <node id="-360" visible="true" lat="44.13695352" lon="-72.39077963">
    <tag k="addr:city" v="Orange" />
    <tag k="addr:housenumber" v="168" />
    <tag k="addr:street" v="Prechtl Road" />
    <tag k="addr:state" v="VT" />
    <tag k="ref:vcgi:esiteid" v="183803" />
  </node>
  <node id="-361" visible="true" lat="44.13693237" lon="-72.40671539">
    <tag k="addr:city" v="Orange" />
    <tag k="addr:housenumber" v="165" />
    <tag k="addr:street" v="Richardson Road" />
    <tag k="addr:state" v="VT" />
    <tag k="ref:vcgi:esiteid" v="183804" />
  </node>
  <node id="-362" visible="true" lat="44.13682349" lon="-72.3847386">
    <tag k="addr:city" v="Orange" />
    <tag k="addr:housenumber" v="41" />
    <tag k="addr:street" v="Melissa Lane" />
    <tag k="addr:state" v="VT" />
    <tag k="ref:vcgi:esiteid" v="183805" />
  </node>
  <node id="-363" visible="true" lat="44.13750493" lon="-72.38044291">
    <tag k="addr:city" v="Orange" />
    <tag k="addr:housenumber" v="72" />
    <tag k="addr:street" v="Melissa Lane" />
    <tag k="addr:state" v="VT" />
    <tag k="ref:vcgi:esiteid" v="183806" />
  </node>
  <node id="-364" visible="true" lat="44.13666152" lon="-72.39241892">
    <tag k="addr:city" v="Orange" />
    <tag k="addr:housenumber" v="180" />
    <tag k="addr:street" v="Prechtl Road" />
    <tag k="addr:state" v="VT" />
    <tag k="ref:vcgi:esiteid" v="183807" />
  </node>
  <node id="-365" visible="true" lat="44.13658142" lon="-72.40763092">
    <tag k="addr:city" v="Orange" />
    <tag k="addr:housenumber" v="176" />
    <tag k="addr:street" v="Richardson Road" />
    <tag k="addr:state" v="VT" />
    <tag k="ref:vcgi:esiteid" v="183808" />
  </node>
  <node id="-366" visible="true" lat="44.1365509" lon="-72.39134216">
    <tag k="addr:city" v="Orange" />
    <tag k="addr:housenumber" v="176" />
    <tag k="addr:street" v="Prechtl Road" />
    <tag k="addr:state" v="VT" />
    <tag k="ref:vcgi:esiteid" v="183809" />
  </node>
  <node id="-367" visible="true" lat="44.13634259" lon="-72.31866949">
    <tag k="addr:city" v="Orange" />
    <tag k="addr:housenumber" v="64" />
    <tag k="addr:street" v="Vermont Route 25" />
    <tag k="addr:state" v="VT" />
    <tag k="ref:vcgi:esiteid" v="183810" />
  </node>
  <node id="-368" visible="true" lat="44.13632847" lon="-72.42188468">
    <tag k="addr:city" v="Orange" />
    <tag k="addr:housenumber" v="221" />
    <tag k="addr:street" v="Tucker Road" />
    <tag k="addr:state" v="VT" />
    <tag k="ref:vcgi:esiteid" v="183811" />
  </node>
  <node id="-369" visible="true" lat="44.13613128" lon="-72.43310546">
    <tag k="addr:city" v="Orange" />
    <tag k="addr:housenumber" v="192" />
    <tag k="addr:street" v="Vermont Route 110" />
    <tag k="addr:state" v="VT" />
    <tag k="ref:vcgi:esiteid" v="183812" />
  </node>
  <node id="-370" visible="true" lat="44.13593673" lon="-72.39284515">
    <tag k="addr:city" v="Orange" />
    <tag k="addr:housenumber" v="192" />
    <tag k="addr:street" v="Prechtl Road" />
    <tag k="addr:state" v="VT" />
    <tag k="ref:vcgi:esiteid" v="183813" />
  </node>
  <node id="-371" visible="true" lat="44.13554763" lon="-72.40812683">
    <tag k="addr:city" v="Orange" />
    <tag k="addr:housenumber" v="188" />
    <tag k="addr:street" v="Richardson Road" />
    <tag k="addr:state" v="VT" />
    <tag k="ref:vcgi:esiteid" v="183814" />
  </node>
  <node id="-372" visible="true" lat="44.13554567" lon="-72.33823679">
    <tag k="addr:city" v="Orange" />
    <tag k="addr:housenumber" v="61" />
    <tag k="addr:street" v="Bagley Road" />
    <tag k="addr:state" v="VT" />
    <tag k="ref:vcgi:esiteid" v="183815" />
  </node>
  <node id="-373" visible="true" lat="44.1352806" lon="-72.39131266">
    <tag k="addr:city" v="Orange" />
    <tag k="addr:housenumber" v="185" />
    <tag k="addr:street" v="Prechtl Road" />
    <tag k="addr:state" v="VT" />
    <tag k="ref:vcgi:esiteid" v="183816" />
  </node>
  <node id="-374" visible="true" lat="44.13544245" lon="-72.41836525">
    <tag k="addr:city" v="Orange" />
    <tag k="addr:housenumber" v="39" />
    <tag k="addr:street" v="Spencer Road" />
    <tag k="addr:state" v="VT" />
    <tag k="ref:vcgi:esiteid" v="183817" />
  </node>
  <node id="-375" visible="true" lat="44.13425368" lon="-72.3975575">
    <tag k="addr:city" v="Orange" />
    <tag k="addr:housenumber" v="169" />
    <tag k="addr:street" v="Keane Mountain Way" />
    <tag k="addr:state" v="VT" />
    <tag k="ref:vcgi:esiteid" v="183818" />
  </node>
  <node id="-376" visible="true" lat="44.13494062" lon="-72.34098051">
    <tag k="addr:city" v="Orange" />
    <tag k="addr:housenumber" v="40" />
    <tag k="addr:street" v="Bagley Road" />
    <tag k="addr:state" v="VT" />
    <tag k="ref:vcgi:esiteid" v="183819" />
  </node>
  <node id="-377" visible="true" lat="44.13490741" lon="-72.43231759">
    <tag k="addr:city" v="Orange" />
    <tag k="addr:housenumber" v="208" />
    <tag k="addr:street" v="Vermont Route 110" />
    <tag k="addr:state" v="VT" />
    <tag k="ref:vcgi:esiteid" v="183820" />
  </node>
  <node id="-378" visible="true" lat="44.1348114" lon="-72.4187622">
    <tag k="addr:city" v="Orange" />
    <tag k="addr:housenumber" v="37" />
    <tag k="addr:street" v="Spencer Road" />
    <tag k="addr:state" v="VT" />
    <tag k="ref:vcgi:esiteid" v="183821" />
  </node>
  <node id="-379" visible="true" lat="44.13438793" lon="-72.41736184">
    <tag k="addr:city" v="Orange" />
    <tag k="addr:housenumber" v="49" />
    <tag k="addr:street" v="Spencer Road" />
    <tag k="addr:state" v="VT" />
    <tag k="ref:vcgi:esiteid" v="183822" />
  </node>
  <node id="-380" visible="true" lat="44.13418197" lon="-72.3506251">
    <tag k="addr:city" v="Orange" />
    <tag k="addr:housenumber" v="69" />
    <tag k="addr:street" v="Peake Cemetery Road" />
    <tag k="addr:state" v="VT" />
    <tag k="ref:vcgi:esiteid" v="183823" />
  </node>
  <node id="-381" visible="true" lat="44.13414764" lon="-72.35145568">
    <tag k="addr:city" v="Orange" />
    <tag k="addr:housenumber" v="80" />
    <tag k="addr:street" v="Peake Cemetery Road" />
    <tag k="addr:state" v="VT" />
    <tag k="ref:vcgi:esiteid" v="183824" />
  </node>
  <node id="-382" visible="true" lat="44.1342314" lon="-72.4167925">
    <tag k="addr:city" v="Orange" />
    <tag k="addr:housenumber" v="51" />
    <tag k="addr:street" v="Spencer Road" />
    <tag k="addr:state" v="VT" />
    <tag k="ref:vcgi:esiteid" v="183825" />
  </node>
  <node id="-383" visible="true" lat="44.13409018" lon="-72.41624014">
    <tag k="addr:city" v="Orange" />
    <tag k="addr:housenumber" v="55" />
    <tag k="addr:street" v="Spencer Road" />
    <tag k="addr:state" v="VT" />
    <tag k="ref:vcgi:esiteid" v="183826" />
  </node>
  <node id="-384" visible="true" lat="44.13389968" lon="-72.40998077">
    <tag k="addr:city" v="Orange" />
    <tag k="addr:housenumber" v="232" />
    <tag k="addr:street" v="Richardson Road" />
    <tag k="addr:state" v="VT" />
    <tag k="ref:vcgi:esiteid" v="183827" />
  </node>
  <node id="-385" visible="true" lat="44.13393351" lon="-72.41549653">
    <tag k="addr:city" v="Orange" />
    <tag k="addr:housenumber" v="63" />
    <tag k="addr:street" v="Spencer Road" />
    <tag k="addr:state" v="VT" />
    <tag k="ref:vcgi:esiteid" v="183828" />
  </node>
  <node id="-386" visible="true" lat="44.13376787" lon="-72.39418891">
    <tag k="addr:city" v="Orange" />
    <tag k="addr:housenumber" v="225" />
    <tag k="addr:street" v="Prechtl Road" />
    <tag k="addr:state" v="VT" />
    <tag k="ref:vcgi:esiteid" v="183829" />
  </node>
  <node id="-387" visible="true" lat="44.13346099" lon="-72.41337585">
    <tag k="addr:city" v="Orange" />
    <tag k="addr:housenumber" v="73" />
    <tag k="addr:street" v="Spencer Road" />
    <tag k="addr:state" v="VT" />
    <tag k="ref:vcgi:esiteid" v="183830" />
  </node>
  <node id="-388" visible="true" lat="44.1333847" lon="-72.3957901">
    <tag k="addr:city" v="Orange" />
    <tag k="addr:housenumber" v="226" />
    <tag k="addr:street" v="Prechtl Road" />
    <tag k="addr:state" v="VT" />
    <tag k="ref:vcgi:esiteid" v="183831" />
  </node>
  <node id="-389" visible="true" lat="44.13286856" lon="-72.41596984">
    <tag k="addr:city" v="Orange" />
    <tag k="addr:housenumber" v="16" />
    <tag k="addr:street" v="Leclair Lane" />
    <tag k="addr:state" v="VT" />
    <tag k="ref:vcgi:esiteid" v="183832" />
  </node>
  <node id="-390" visible="true" lat="44.13254431" lon="-72.43157603">
    <tag k="addr:city" v="Orange" />
    <tag k="addr:housenumber" v="240" />
    <tag k="addr:street" v="Vermont Route 110" />
    <tag k="addr:state" v="VT" />
    <tag k="ref:vcgi:esiteid" v="183833" />
  </node>
  <node id="-391" visible="true" lat="44.13198471" lon="-72.42316436">
    <tag k="addr:city" v="Orange" />
    <tag k="addr:housenumber" v="277" />
    <tag k="addr:street" v="Tucker Road" />
    <tag k="addr:state" v="VT" />
    <tag k="ref:vcgi:esiteid" v="183834" />
  </node>
  <node id="-392" visible="true" lat="44.13164138" lon="-72.4095993">
    <tag k="addr:city" v="Orange" />
    <tag k="addr:housenumber" v="28" />
    <tag k="addr:street" v="Emery Road" />
    <tag k="addr:state" v="VT" />
    <tag k="ref:vcgi:esiteid" v="183835" />
  </node>
  <node id="-393" visible="true" lat="44.13138972" lon="-72.41558516">
    <tag k="addr:city" v="Orange" />
    <tag k="addr:housenumber" v="29" />
    <tag k="addr:street" v="Leclair Lane" />
    <tag k="addr:state" v="VT" />
    <tag k="ref:vcgi:esiteid" v="183836" />
  </node>
  <node id="-394" visible="true" lat="44.13061904" lon="-72.43066406">
    <tag k="addr:city" v="Orange" />
    <tag k="addr:housenumber" v="265" />
    <tag k="addr:street" v="Vermont Route 110" />
    <tag k="addr:state" v="VT" />
    <tag k="ref:vcgi:esiteid" v="183837" />
  </node>
  <node id="-395" visible="true" lat="44.13032531" lon="-72.41425323">
    <tag k="addr:city" v="Orange" />
    <tag k="addr:housenumber" v="61" />
    <tag k="addr:street" v="Leclair Lane" />
    <tag k="addr:state" v="VT" />
    <tag k="ref:vcgi:esiteid" v="183838" />
  </node>
  <node id="-396" visible="true" lat="44.12965011" lon="-72.42822265">
    <tag k="addr:city" v="Orange" />
    <tag k="addr:housenumber" v="333" />
    <tag k="addr:street" v="Tucker Road" />
    <tag k="addr:state" v="VT" />
    <tag k="ref:vcgi:esiteid" v="183839" />
  </node>
  <node id="-397" visible="true" lat="44.12942886" lon="-72.43041992">
    <tag k="addr:city" v="Orange" />
    <tag k="addr:housenumber" v="285" />
    <tag k="addr:street" v="Vermont Route 110" />
    <tag k="addr:state" v="VT" />
    <tag k="ref:vcgi:esiteid" v="183840" />
  </node>
  <node id="-398" visible="true" lat="44.12926128" lon="-72.42698597">
    <tag k="addr:city" v="Orange" />
    <tag k="addr:housenumber" v="325" />
    <tag k="addr:street" v="Tucker Road" />
    <tag k="addr:state" v="VT" />
    <tag k="ref:vcgi:esiteid" v="183841" />
  </node>
  <node id="-399" visible="true" lat="44.12894821" lon="-72.40828806">
    <tag k="addr:city" v="Orange" />
    <tag k="addr:housenumber" v="80" />
    <tag k="addr:street" v="Emery Road" />
    <tag k="addr:state" v="VT" />
    <tag k="ref:vcgi:esiteid" v="183842" />
  </node>
  <node id="-400" visible="true" lat="44.12852614" lon="-72.406603">
    <tag k="addr:city" v="Orange" />
    <tag k="addr:housenumber" v="17" />
    <tag k="addr:street" v="Eastman Road" />
    <tag k="addr:state" v="VT" />
    <tag k="ref:vcgi:esiteid" v="183843" />
  </node>
  <node id="-401" visible="true" lat="44.12838745" lon="-72.40833397">
    <tag k="addr:city" v="Orange" />
    <tag k="addr:housenumber" v="84" />
    <tag k="addr:street" v="Emery Road" />
    <tag k="addr:state" v="VT" />
    <tag k="ref:vcgi:esiteid" v="183844" />
  </node>
  <node id="-402" visible="true" lat="44.12791442" lon="-72.34182078">
    <tag k="addr:city" v="Orange" />
    <tag k="addr:housenumber" v="212" />
    <tag k="addr:street" v="Riddel Pond Road" />
    <tag k="addr:state" v="VT" />
    <tag k="ref:vcgi:esiteid" v="183845" />
  </node>
  <node id="-403" visible="true" lat="44.12772369" lon="-72.4010086">
    <tag k="addr:city" v="Orange" />
    <tag k="addr:housenumber" v="69" />
    <tag k="addr:street" v="Eastman Road" />
    <tag k="addr:state" v="VT" />
    <tag k="ref:vcgi:esiteid" v="183846" />
  </node>
  <node id="-404" visible="true" lat="44.12757873" lon="-72.40844828">
    <tag k="addr:city" v="Orange" />
    <tag k="addr:housenumber" v="96" />
    <tag k="addr:street" v="Emery Road" />
    <tag k="addr:state" v="VT" />
    <tag k="ref:vcgi:esiteid" v="183847" />
  </node>
  <node id="-405" visible="true" lat="44.12735366" lon="-72.41226298">
    <tag k="addr:city" v="Orange" />
    <tag k="addr:housenumber" v="44" />
    <tag k="addr:street" v="Cyr Road" />
    <tag k="addr:state" v="VT" />
    <tag k="ref:vcgi:esiteid" v="183848" />
  </node>
  <node id="-406" visible="true" lat="44.12733459" lon="-72.41013336">
    <tag k="addr:city" v="Orange" />
    <tag k="addr:housenumber" v="17" />
    <tag k="addr:street" v="Cyr Road" />
    <tag k="addr:state" v="VT" />
    <tag k="ref:vcgi:esiteid" v="183849" />
  </node>
  <node id="-407" visible="true" lat="44.12689208" lon="-72.40712077">
    <tag k="addr:city" v="Orange" />
    <tag k="addr:housenumber" v="101" />
    <tag k="addr:street" v="Emery Road" />
    <tag k="addr:state" v="VT" />
    <tag k="ref:vcgi:esiteid" v="183850" />
  </node>
  <node id="-408" visible="true" lat="44.12685775" lon="-72.39960479">
    <tag k="addr:city" v="Orange" />
    <tag k="addr:housenumber" v="89" />
    <tag k="addr:street" v="Eastman Road" />
    <tag k="addr:state" v="VT" />
    <tag k="ref:vcgi:esiteid" v="183851" />
  </node>
  <node id="-409" visible="true" lat="44.12685775" lon="-72.412736">
    <tag k="addr:city" v="Orange" />
    <tag k="addr:housenumber" v="52" />
    <tag k="addr:street" v="Cyr Road" />
    <tag k="addr:state" v="VT" />
    <tag k="ref:vcgi:esiteid" v="183852" />
  </node>
  <node id="-410" visible="true" lat="44.12625885" lon="-72.40767669">
    <tag k="addr:city" v="Orange" />
    <tag k="addr:housenumber" v="117" />
    <tag k="addr:street" v="Emery Road" />
    <tag k="addr:state" v="VT" />
    <tag k="ref:vcgi:esiteid" v="183853" />
  </node>
  <node id="-411" visible="true" lat="44.12594985" lon="-72.40834147">
    <tag k="addr:city" v="Orange" />
    <tag k="addr:housenumber" v="120" />
    <tag k="addr:street" v="Emery Road" />
    <tag k="addr:state" v="VT" />
    <tag k="ref:vcgi:esiteid" v="183854" />
  </node>
  <node id="-412" visible="true" lat="44.1259346" lon="-72.39850616">
    <tag k="addr:city" v="Orange" />
    <tag k="addr:housenumber" v="105" />
    <tag k="addr:street" v="Eastman Road" />
    <tag k="addr:state" v="VT" />
    <tag k="ref:vcgi:esiteid" v="183855" />
  </node>
  <node id="-413" visible="true" lat="44.12449794" lon="-72.40646581">
    <tag k="addr:city" v="Orange" />
    <tag k="addr:housenumber" v="121" />
    <tag k="addr:street" v="Emery Road" />
    <tag k="addr:state" v="VT" />
    <tag k="ref:vcgi:esiteid" v="183856" />
  </node>
  <node id="-414" visible="true" lat="44.12543487" lon="-72.41548259">
    <tag k="addr:city" v="Orange" />
    <tag k="addr:housenumber" v="84" />
    <tag k="addr:street" v="Cyr Road" />
    <tag k="addr:state" v="VT" />
    <tag k="ref:vcgi:esiteid" v="183857" />
  </node>
  <node id="-415" visible="true" lat="44.12527465" lon="-72.33955383">
    <tag k="addr:city" v="Orange" />
    <tag k="addr:housenumber" v="252" />
    <tag k="addr:street" v="Riddel Pond Road" />
    <tag k="addr:state" v="VT" />
    <tag k="ref:vcgi:esiteid" v="183858" />
  </node>
  <node id="-416" visible="true" lat="44.12543651" lon="-72.4277467">
    <tag k="addr:city" v="Orange" />
    <tag k="addr:housenumber" v="337" />
    <tag k="addr:street" v="Vermont Route 110" />
    <tag k="addr:state" v="VT" />
    <tag k="ref:vcgi:esiteid" v="183859" />
  </node>
  <node id="-417" visible="true" lat="44.12256508" lon="-72.39858937">
    <tag k="addr:city" v="Orange" />
    <tag k="addr:housenumber" v="104" />
    <tag k="addr:street" v="Eastman Road" />
    <tag k="addr:state" v="VT" />
    <tag k="ref:vcgi:esiteid" v="183860" />
  </node>
  <node id="-418" visible="true" lat="44.12509918" lon="-72.43039703">
    <tag k="addr:city" v="Orange" />
    <tag k="addr:housenumber" v="354" />
    <tag k="addr:street" v="Vermont Route 110" />
    <tag k="addr:state" v="VT" />
    <tag k="ref:vcgi:esiteid" v="183861" />
  </node>
  <node id="-419" visible="true" lat="44.12496062" lon="-72.40841364">
    <tag k="addr:city" v="Orange" />
    <tag k="addr:housenumber" v="132" />
    <tag k="addr:street" v="Emery Road" />
    <tag k="addr:state" v="VT" />
    <tag k="ref:vcgi:esiteid" v="183862" />
  </node>
  <node id="-420" visible="true" lat="44.12475585" lon="-72.4304428">
    <tag k="addr:city" v="Orange" />
    <tag k="addr:housenumber" v="352" />
    <tag k="addr:street" v="Vermont Route 110" />
    <tag k="addr:state" v="VT" />
    <tag k="ref:vcgi:esiteid" v="183863" />
  </node>
  <node id="-421" visible="true" lat="44.12459241" lon="-72.42789325">
    <tag k="addr:city" v="Orange" />
    <tag k="addr:housenumber" v="357" />
    <tag k="addr:street" v="Vermont Route 110" />
    <tag k="addr:state" v="VT" />
    <tag k="ref:vcgi:esiteid" v="183864" />
  </node>
  <node id="-422" visible="true" lat="44.12335205" lon="-72.40802001">
    <tag k="addr:city" v="Orange" />
    <tag k="addr:housenumber" v="153" />
    <tag k="addr:street" v="Emery Road" />
    <tag k="addr:state" v="VT" />
    <tag k="ref:vcgi:esiteid" v="183865" />
  </node>
  <node id="-423" visible="true" lat="44.12321805" lon="-72.33220671">
    <tag k="addr:city" v="Orange" />
    <tag k="addr:housenumber" v="325" />
    <tag k="addr:street" v="Riddel Pond Road" />
    <tag k="addr:state" v="VT" />
    <tag k="ref:vcgi:esiteid" v="183866" />
  </node>
  <node id="-424" visible="true" lat="44.12318131" lon="-72.42056183">
    <tag k="addr:city" v="Orange" />
    <tag k="addr:housenumber" v="148" />
    <tag k="addr:street" v="Cyr Road" />
    <tag k="addr:state" v="VT" />
    <tag k="ref:vcgi:esiteid" v="183867" />
  </node>
  <node id="-425" visible="true" lat="44.12202786" lon="-72.33011625">
    <tag k="addr:city" v="Orange" />
    <tag k="addr:housenumber" v="357" />
    <tag k="addr:street" v="Riddel Pond Road" />
    <tag k="addr:state" v="VT" />
    <tag k="ref:vcgi:esiteid" v="183868" />
  </node>
  <node id="-426" visible="true" lat="44.12056732" lon="-72.40999603">
    <tag k="addr:city" v="Orange" />
    <tag k="addr:housenumber" v="197" />
    <tag k="addr:street" v="Emery Road" />
    <tag k="addr:state" v="VT" />
    <tag k="ref:vcgi:esiteid" v="183869" />
  </node>
  <node id="-427" visible="true" lat="44.11977851" lon="-72.3271582">
    <tag k="addr:city" v="Orange" />
    <tag k="addr:housenumber" v="400" />
    <tag k="addr:street" v="Riddel Pond Road" />
    <tag k="addr:state" v="VT" />
    <tag k="ref:vcgi:esiteid" v="183870" />
  </node>
  <node id="-428" visible="true" lat="44.11895694" lon="-72.413631">
    <tag k="addr:city" v="Orange" />
    <tag k="addr:housenumber" v="240" />
    <tag k="addr:street" v="Emery Road" />
    <tag k="addr:state" v="VT" />
    <tag k="ref:vcgi:esiteid" v="183871" />
  </node>
  <node id="-429" visible="true" lat="44.11860776" lon="-72.41107974">
    <tag k="addr:city" v="Orange" />
    <tag k="addr:housenumber" v="233" />
    <tag k="addr:street" v="Emery Road" />
    <tag k="addr:state" v="VT" />
    <tag k="ref:vcgi:esiteid" v="183872" />
  </node>
  <node id="-430" visible="true" lat="44.11713107" lon="-72.33606336">
    <tag k="addr:city" v="Orange" />
    <tag k="addr:housenumber" v="140" />
    <tag k="addr:street" v="Warsley Road" />
    <tag k="addr:state" v="VT" />
    <tag k="ref:vcgi:esiteid" v="183873" />
  </node>
  <node id="-431" visible="true" lat="44.11037063" lon="-72.34804637">
    <tag k="addr:city" v="Orange" />
    <tag k="addr:housenumber" v="257" />
    <tag k="addr:street" v="Fish Pond Road" />
    <tag k="addr:state" v="VT" />
    <tag k="ref:vcgi:esiteid" v="183874" />
  </node>
  <node id="-432" visible="true" lat="44.10978698" lon="-72.36764628">
    <tag k="addr:city" v="Orange" />
    <tag k="addr:housenumber" v="104" />
    <tag k="addr:street" v="Atherton Road" />
    <tag k="addr:state" v="VT" />
    <tag k="ref:vcgi:esiteid" v="183875" />
  </node>
  <node id="-433" visible="true" lat="44.10947417" lon="-72.3468867">
    <tag k="addr:city" v="Orange" />
    <tag k="addr:housenumber" v="237" />
    <tag k="addr:street" v="Fish Pond Road" />
    <tag k="addr:state" v="VT" />
    <tag k="ref:vcgi:esiteid" v="183876" />
  </node>
  <node id="-434" visible="true" lat="44.10865783" lon="-72.34647369">
    <tag k="addr:city" v="Orange" />
    <tag k="addr:housenumber" v="221" />
    <tag k="addr:street" v="Fish Pond Road" />
    <tag k="addr:state" v="VT" />
    <tag k="ref:vcgi:esiteid" v="183877" />
  </node>
  <node id="-435" visible="true" lat="44.10638427" lon="-72.34124755">
    <tag k="addr:city" v="Orange" />
    <tag k="addr:housenumber" v="164" />
    <tag k="addr:street" v="Fish Pond Road" />
    <tag k="addr:state" v="VT" />
    <tag k="ref:vcgi:esiteid" v="183878" />
  </node>
  <node id="-436" visible="true" lat="44.10560989" lon="-72.34261321">
    <tag k="addr:city" v="Orange" />
    <tag k="addr:housenumber" v="177" />
    <tag k="addr:street" v="Fish Pond Road" />
    <tag k="addr:state" v="VT" />
    <tag k="ref:vcgi:esiteid" v="183879" />
  </node>
  <node id="-437" visible="true" lat="44.1045227" lon="-72.34101207">
    <tag k="addr:city" v="Orange" />
    <tag k="addr:housenumber" v="149" />
    <tag k="addr:street" v="Fish Pond Road" />
    <tag k="addr:state" v="VT" />
    <tag k="ref:vcgi:esiteid" v="183880" />
  </node>
  <node id="-438" visible="true" lat="44.1039505" lon="-72.34900665">
    <tag k="addr:city" v="Orange" />
    <tag k="addr:housenumber" v="85" />
    <tag k="addr:street" v="Rock Place" />
    <tag k="addr:state" v="VT" />
    <tag k="ref:vcgi:esiteid" v="183881" />
  </node>
  <node id="-439" visible="true" lat="44.10389328" lon="-72.34358215">
    <tag k="addr:city" v="Orange" />
    <tag k="addr:housenumber" v="44" />
    <tag k="addr:street" v="Rock Place" />
    <tag k="addr:state" v="VT" />
    <tag k="ref:vcgi:esiteid" v="183882" />
  </node>
  <node id="-440" visible="true" lat="44.10321044" lon="-72.34333903">
    <tag k="addr:city" v="Orange" />
    <tag k="addr:housenumber" v="33" />
    <tag k="addr:street" v="Rock Place" />
    <tag k="addr:state" v="VT" />
    <tag k="ref:vcgi:esiteid" v="183883" />
  </node>
  <node id="-441" visible="true" lat="44.10273742" lon="-72.34068298">
    <tag k="addr:city" v="Orange" />
    <tag k="addr:housenumber" v="12" />
    <tag k="addr:street" v="Rock Place" />
    <tag k="addr:state" v="VT" />
    <tag k="ref:vcgi:esiteid" v="183884" />
  </node>
  <node id="-442" visible="true" lat="44.10247039" lon="-72.33726501">
    <tag k="addr:city" v="Orange" />
    <tag k="addr:housenumber" v="140" />
    <tag k="addr:street" v="Fish Pond Road" />
    <tag k="addr:state" v="VT" />
    <tag k="ref:vcgi:esiteid" v="183885" />
  </node>
  <node id="-443" visible="true" lat="44.10046386" lon="-72.34025676">
    <tag k="addr:city" v="Orange" />
    <tag k="addr:housenumber" v="85" />
    <tag k="addr:street" v="Fish Pond Road" />
    <tag k="addr:state" v="VT" />
    <tag k="ref:vcgi:esiteid" v="183886" />
  </node>
  <node id="-444" visible="true" lat="44.09838107" lon="-72.35245194">
    <tag k="addr:city" v="Orange" />
    <tag k="addr:housenumber" v="340" />
    <tag k="addr:street" v="Notch End Road" />
    <tag k="addr:state" v="VT" />
    <tag k="ref:vcgi:esiteid" v="183887" />
  </node>
  <node id="-445" visible="true" lat="44.09826213" lon="-72.34825978">
    <tag k="addr:city" v="Orange" />
    <tag k="addr:housenumber" v="40" />
    <tag k="addr:street" v="Douglas Road" />
    <tag k="addr:state" v="VT" />
    <tag k="ref:vcgi:esiteid" v="183888" />
  </node>
  <node id="-446" visible="true" lat="44.09785861" lon="-72.34994511">
    <tag k="addr:city" v="Orange" />
    <tag k="addr:housenumber" v="21" />
    <tag k="addr:street" v="Douglas Road" />
    <tag k="addr:state" v="VT" />
    <tag k="ref:vcgi:esiteid" v="183889" />
  </node>
  <node id="-447" visible="true" lat="44.09757232" lon="-72.33934784">
    <tag k="addr:city" v="Orange" />
    <tag k="addr:housenumber" v="56" />
    <tag k="addr:street" v="Fish Pond Road" />
    <tag k="addr:state" v="VT" />
    <tag k="ref:vcgi:esiteid" v="183890" />
  </node>
  <node id="-448" visible="true" lat="44.09749984" lon="-72.34960937">
    <tag k="addr:city" v="Orange" />
    <tag k="addr:housenumber" v="24" />
    <tag k="addr:street" v="Douglas Road" />
    <tag k="addr:state" v="VT" />
    <tag k="ref:vcgi:esiteid" v="183891" />
  </node>
  <node id="-449" visible="true" lat="44.09687042" lon="-72.3403244">
    <tag k="addr:city" v="Orange" />
    <tag k="addr:housenumber" v="33" />
    <tag k="addr:street" v="Fish Pond Road" />
    <tag k="addr:state" v="VT" />
    <tag k="ref:vcgi:esiteid" v="183892" />
  </node>
  <node id="-450" visible="true" lat="44.09684753" lon="-72.34210205">
    <tag k="addr:city" v="Orange" />
    <tag k="addr:housenumber" v="20" />
    <tag k="addr:street" v="Colby Farm Road" />
    <tag k="addr:state" v="VT" />
    <tag k="ref:vcgi:esiteid" v="183893" />
  </node>
  <node id="-451" visible="true" lat="44.09613391" lon="-72.34703272">
    <tag k="addr:city" v="Orange" />
    <tag k="addr:housenumber" v="70" />
    <tag k="addr:street" v="Notch End Road" />
    <tag k="addr:state" v="VT" />
    <tag k="ref:vcgi:esiteid" v="183894" />
  </node>
  <node id="-452" visible="true" lat="44.09536361" lon="-72.33128459">
    <tag k="addr:city" v="Orange" />
    <tag k="addr:housenumber" v="4949" />
    <tag k="addr:street" v="East Orange Road" />
    <tag k="addr:state" v="VT" />
    <tag k="ref:vcgi:esiteid" v="183895" />
  </node>
  <node id="-453" visible="true" lat="44.09524087" lon="-72.34271674">
    <tag k="addr:city" v="Orange" />
    <tag k="addr:housenumber" v="4261" />
    <tag k="addr:street" v="East Orange Road" />
    <tag k="addr:state" v="VT" />
    <tag k="ref:vcgi:esiteid" v="183896" />
  </node>
  <node id="-454" visible="true" lat="44.09500853" lon="-72.34152117">
    <tag k="addr:city" v="Orange" />
    <tag k="addr:housenumber" v="4353" />
    <tag k="addr:street" v="East Orange Road" />
    <tag k="addr:state" v="VT" />
    <tag k="ref:vcgi:esiteid" v="183897" />
  </node>
  <node id="-455" visible="true" lat="44.09494399" lon="-72.33224589">
    <tag k="addr:city" v="Orange" />
    <tag k="addr:housenumber" v="4891" />
    <tag k="addr:street" v="East Orange Road" />
    <tag k="addr:state" v="VT" />
    <tag k="ref:vcgi:esiteid" v="183898" />
  </node>
  <node id="-456" visible="true" lat="44.09494131" lon="-72.34112111">
    <tag k="addr:city" v="Orange" />
    <tag k="addr:housenumber" v="4365" />
    <tag k="addr:street" v="East Orange Road" />
    <tag k="addr:state" v="VT" />
    <tag k="ref:vcgi:esiteid" v="183899" />
  </node>
  <node id="-457" visible="true" lat="44.09471886" lon="-72.3400026">
    <tag k="addr:city" v="Orange" />
    <tag k="addr:housenumber" v="4423" />
    <tag k="addr:street" v="East Orange Road" />
    <tag k="addr:state" v="VT" />
    <tag k="ref:vcgi:esiteid" v="183900" />
  </node>
  <node id="-458" visible="true" lat="44.09451373" lon="-72.34064075">
    <tag k="addr:city" v="Orange" />
    <tag k="addr:housenumber" v="4390" />
    <tag k="addr:street" v="East Orange Road" />
    <tag k="addr:state" v="VT" />
    <tag k="ref:vcgi:esiteid" v="183901" />
  </node>
  <node id="-459" visible="true" lat="44.09459488" lon="-72.33964209">
    <tag k="addr:city" v="Orange" />
    <tag k="addr:housenumber" v="4445" />
    <tag k="addr:street" v="East Orange Road" />
    <tag k="addr:state" v="VT" />
    <tag k="ref:vcgi:esiteid" v="183902" />
  </node>
  <node id="-460" visible="true" lat="44.09437751" lon="-72.33999598">
    <tag k="addr:city" v="Orange" />
    <tag k="addr:housenumber" v="4400" />
    <tag k="addr:street" v="East Orange Road" />
    <tag k="addr:state" v="VT" />
    <tag k="ref:vcgi:esiteid" v="183903" />
  </node>
  <node id="-461" visible="true" lat="44.09439798" lon="-72.33901863">
    <tag k="addr:city" v="Orange" />
    <tag k="addr:housenumber" v="4475" />
    <tag k="addr:street" v="East Orange Road" />
    <tag k="addr:state" v="VT" />
    <tag k="ref:vcgi:esiteid" v="183904" />
  </node>
  <node id="-462" visible="true" lat="44.09414533" lon="-72.33785234">
    <tag k="addr:city" v="Orange" />
    <tag k="addr:housenumber" v="4545" />
    <tag k="addr:street" v="East Orange Road" />
    <tag k="addr:state" v="VT" />
    <tag k="ref:vcgi:esiteid" v="183905" />
  </node>
  <node id="-463" visible="true" lat="44.09382639" lon="-72.33684282">
    <tag k="addr:city" v="Orange" />
    <tag k="addr:housenumber" v="4595" />
    <tag k="addr:street" v="East Orange Road" />
    <tag k="addr:state" v="VT" />
    <tag k="ref:vcgi:esiteid" v="183906" />
  </node>
  <node id="-464" visible="true" lat="44.09368046" lon="-72.33463835">
    <tag k="addr:city" v="Orange" />
    <tag k="addr:housenumber" v="10" />
    <tag k="addr:street" v="Little Dublin Drive" />
    <tag k="addr:state" v="VT" />
    <tag k="ref:vcgi:esiteid" v="183907" />
  </node>
  <node id="-465" visible="true" lat="44.16047603" lon="-72.42924144">
    <tag k="addr:city" v="Orange" />
    <tag k="addr:housenumber" v="87" />
    <tag k="addr:street" v="Reservoir Road" />
    <tag k="addr:state" v="VT" />
    <tag k="ref:vcgi:esiteid" v="183908" />
  </node>
  <node id="-466" visible="true" lat="44.15994329" lon="-72.40625532">
    <tag k="addr:city" v="Orange" />
    <tag k="addr:housenumber" v="208" />
    <tag k="addr:street" v="George Street" />
    <tag k="addr:state" v="VT" />
    <tag k="ref:vcgi:esiteid" v="183909" />
  </node>
  <node id="-467" visible="true" lat="44.13277152" lon="-72.41721959">
    <tag k="addr:city" v="Orange" />
    <tag k="addr:housenumber" v="52" />
    <tag k="addr:street" v="Spencer Road" />
    <tag k="addr:state" v="VT" />
    <tag k="ref:vcgi:esiteid" v="183910" />
  </node>
  <node id="-468" visible="true" lat="44.13389587" lon="-72.41820526">
    <tag k="addr:city" v="Orange" />
    <tag k="addr:housenumber" v="46" />
    <tag k="addr:street" v="Spencer Road" />
    <tag k="addr:state" v="VT" />
    <tag k="ref:vcgi:esiteid" v="183911" />
  </node>
  <node id="-469" visible="true" lat="44.13346862" lon="-72.41600036">
    <tag k="addr:city" v="Orange" />
    <tag k="addr:housenumber" v="4" />
    <tag k="addr:street" v="Leclair Lane" />
    <tag k="addr:state" v="VT" />
    <tag k="ref:vcgi:esiteid" v="183912" />
  </node>
  <node id="-470" visible="true" lat="44.13300991" lon="-72.41670071">
    <tag k="addr:city" v="Orange" />
    <tag k="addr:housenumber" v="56" />
    <tag k="addr:street" v="Spencer Road" />
    <tag k="addr:state" v="VT" />
    <tag k="ref:vcgi:esiteid" v="183913" />
  </node>
  <node id="-471" visible="true" lat="44.13245903" lon="-72.41688425">
    <tag k="addr:city" v="Orange" />
    <tag k="addr:housenumber" v="58" />
    <tag k="addr:street" v="Spencer Road" />
    <tag k="addr:state" v="VT" />
    <tag k="ref:vcgi:esiteid" v="183914" />
  </node>
  <node id="-472" visible="true" lat="44.13197326" lon="-72.41790008">
    <tag k="addr:city" v="Orange" />
    <tag k="addr:housenumber" v="54" />
    <tag k="addr:street" v="Spencer Road" />
    <tag k="addr:state" v="VT" />
    <tag k="ref:vcgi:esiteid" v="183915" />
  </node>
  <node id="-473" visible="true" lat="44.13119125" lon="-72.41313171">
    <tag k="addr:city" v="Orange" />
    <tag k="addr:housenumber" v="90" />
    <tag k="addr:street" v="Spencer Road" />
    <tag k="addr:state" v="VT" />
    <tag k="ref:vcgi:esiteid" v="183916" />
  </node>
  <node id="-474" visible="true" lat="44.13087081" lon="-72.41207885">
    <tag k="addr:city" v="Orange" />
    <tag k="addr:housenumber" v="88" />
    <tag k="addr:street" v="Spencer Road" />
    <tag k="addr:state" v="VT" />
    <tag k="ref:vcgi:esiteid" v="183917" />
  </node>
  <node id="-475" visible="true" lat="44.20180893" lon="-72.41870117">
    <tag k="addr:city" v="Orange" />
    <tag k="addr:housenumber" v="208" />
    <tag k="addr:street" v="Bisson Road" />
    <tag k="addr:state" v="VT" />
    <tag k="ref:vcgi:esiteid" v="183918" />
  </node>
  <node id="-476" visible="true" lat="44.20092557" lon="-72.41905232">
    <tag k="addr:city" v="Orange" />
    <tag k="addr:housenumber" v="196" />
    <tag k="addr:street" v="Bisson Road" />
    <tag k="addr:state" v="VT" />
    <tag k="ref:vcgi:esiteid" v="183919" />
  </node>
  <node id="-477" visible="true" lat="44.20032501" lon="-72.41987609">
    <tag k="addr:city" v="Orange" />
    <tag k="addr:housenumber" v="185" />
    <tag k="addr:street" v="Bisson Road" />
    <tag k="addr:state" v="VT" />
    <tag k="ref:vcgi:esiteid" v="183920" />
  </node>
  <node id="-478" visible="true" lat="44.19955062" lon="-72.42051696">
    <tag k="addr:city" v="Orange" />
    <tag k="addr:housenumber" v="173" />
    <tag k="addr:street" v="Bisson Road" />
    <tag k="addr:state" v="VT" />
    <tag k="ref:vcgi:esiteid" v="183921" />
  </node>
  <node id="-479" visible="true" lat="44.19916534" lon="-72.4180603">
    <tag k="addr:city" v="Orange" />
    <tag k="addr:housenumber" v="180" />
    <tag k="addr:street" v="Bisson Road" />
    <tag k="addr:state" v="VT" />
    <tag k="ref:vcgi:esiteid" v="183922" />
  </node>
  <node id="-480" visible="true" lat="44.19887924" lon="-72.42019653">
    <tag k="addr:city" v="Orange" />
    <tag k="addr:housenumber" v="165" />
    <tag k="addr:street" v="Bisson Road" />
    <tag k="addr:state" v="VT" />
    <tag k="ref:vcgi:esiteid" v="183923" />
  </node>
  <node id="-481" visible="true" lat="44.1984291" lon="-72.42079162">
    <tag k="addr:city" v="Orange" />
    <tag k="addr:housenumber" v="157" />
    <tag k="addr:street" v="Bisson Road" />
    <tag k="addr:state" v="VT" />
    <tag k="ref:vcgi:esiteid" v="183924" />
  </node>
  <node id="-482" visible="true" lat="44.19481755" lon="-72.42211156">
    <tag k="addr:city" v="Orange" />
    <tag k="addr:housenumber" v="105" />
    <tag k="addr:street" v="Bisson Road" />
    <tag k="addr:state" v="VT" />
    <tag k="ref:vcgi:esiteid" v="183925" />
  </node>
  <node id="-483" visible="true" lat="44.19373702" lon="-72.42067718">
    <tag k="addr:city" v="Orange" />
    <tag k="addr:housenumber" v="88" />
    <tag k="addr:street" v="Bisson Road" />
    <tag k="addr:state" v="VT" />
    <tag k="ref:vcgi:esiteid" v="183926" />
  </node>
  <node id="-484" visible="true" lat="44.13410316" lon="-72.41978716">
    <tag k="addr:city" v="Orange" />
    <tag k="addr:housenumber" v="34" />
    <tag k="addr:street" v="Spencer Road" />
    <tag k="addr:state" v="VT" />
    <tag k="ref:vcgi:esiteid" v="183927" />
  </node>
  <node id="-485" visible="true" lat="44.15470536" lon="-72.43103534">
    <tag k="addr:city" v="Orange" />
    <tag k="addr:housenumber" v="30" />
    <tag k="addr:street" v="Reservoir Road" />
    <tag k="addr:state" v="VT" />
    <tag k="ref:vcgi:esiteid" v="183928" />
  </node>
  <node id="-486" visible="true" lat="44.11719696" lon="-72.34087296">
    <tag k="addr:city" v="Orange" />
    <tag k="addr:housenumber" v="88" />
    <tag k="addr:street" v="Warsley Road" />
    <tag k="addr:state" v="VT" />
    <tag k="ref:vcgi:esiteid" v="183929" />
  </node>
  <node id="-487" visible="true" lat="44.20522222" lon="-72.4020344">
    <tag k="addr:city" v="Orange" />
    <tag k="addr:housenumber" v="19" />
    <tag k="addr:street" v="Neddo Road" />
    <tag k="addr:state" v="VT" />
    <tag k="ref:vcgi:esiteid" v="183930" />
  </node>
  <node id="-489" visible="true" lat="44.20007376" lon="-72.39320685">
    <tag k="addr:city" v="Orange" />
    <tag k="addr:housenumber" v="130" />
    <tag k="addr:street" v="Bellardine Drive" />
    <tag k="addr:state" v="VT" />
    <tag k="ref:vcgi:esiteid" v="183932" />
  </node>
  <node id="-490" visible="true" lat="44.2048412" lon="-72.4107209">
    <tag k="addr:city" v="Orange" />
    <tag k="addr:housenumber" v="728" />
    <tag k="addr:street" v="Cutler Corner Road" />
    <tag k="addr:state" v="VT" />
    <tag k="ref:vcgi:esiteid" v="183933" />
  </node>
  <node id="-491" visible="true" lat="44.20472717" lon="-72.40964508">
    <tag k="addr:city" v="Orange" />
    <tag k="addr:housenumber" v="740" />
    <tag k="addr:street" v="Cutler Corner Road" />
    <tag k="addr:state" v="VT" />
    <tag k="ref:vcgi:esiteid" v="183934" />
  </node>
  <node id="-492" visible="true" lat="44.20458807" lon="-72.41403725">
    <tag k="addr:city" v="Orange" />
    <tag k="addr:housenumber" v="692" />
    <tag k="addr:street" v="Cutler Corner Road" />
    <tag k="addr:state" v="VT" />
    <tag k="ref:vcgi:esiteid" v="183935" />
  </node>
  <node id="-493" visible="true" lat="44.20421981" lon="-72.40750122">
    <tag k="addr:city" v="Orange" />
    <tag k="addr:housenumber" v="767" />
    <tag k="addr:street" v="Cutler Corner Road" />
    <tag k="addr:state" v="VT" />
    <tag k="ref:vcgi:esiteid" v="183936" />
  </node>
  <node id="-494" visible="true" lat="44.20398907" lon="-72.41245324">
    <tag k="addr:city" v="Orange" />
    <tag k="addr:housenumber" v="711" />
    <tag k="addr:street" v="Cutler Corner Road" />
    <tag k="addr:state" v="VT" />
    <tag k="ref:vcgi:esiteid" v="183937" />
  </node>
  <node id="-495" visible="true" lat="44.20366287" lon="-72.40151977">
    <tag k="addr:city" v="Orange" />
    <tag k="addr:housenumber" v="824" />
    <tag k="addr:street" v="Cutler Corner Road" />
    <tag k="addr:state" v="VT" />
    <tag k="ref:vcgi:esiteid" v="183938" />
  </node>
  <node id="-496" visible="true" lat="44.20360565" lon="-72.40261078">
    <tag k="addr:city" v="Orange" />
    <tag k="addr:housenumber" v="816" />
    <tag k="addr:street" v="Cutler Corner Road" />
    <tag k="addr:state" v="VT" />
    <tag k="ref:vcgi:esiteid" v="183939" />
  </node>
  <node id="-497" visible="true" lat="44.20334625" lon="-72.4221878">
    <tag k="addr:city" v="Orange" />
    <tag k="addr:housenumber" v="610" />
    <tag k="addr:street" v="Cutler Corner Road" />
    <tag k="addr:state" v="VT" />
    <tag k="ref:vcgi:esiteid" v="183940" />
  </node>
  <node id="-498" visible="true" lat="44.20326614" lon="-72.40425109">
    <tag k="addr:city" v="Orange" />
    <tag k="addr:housenumber" v="799" />
    <tag k="addr:street" v="Cutler Corner Road" />
    <tag k="addr:state" v="VT" />
    <tag k="ref:vcgi:esiteid" v="183941" />
  </node>
  <node id="-499" visible="true" lat="44.2032051" lon="-72.41590881">
    <tag k="addr:city" v="Orange" />
    <tag k="addr:housenumber" v="675" />
    <tag k="addr:street" v="Cutler Corner Road" />
    <tag k="addr:state" v="VT" />
    <tag k="ref:vcgi:esiteid" v="183942" />
  </node>
  <node id="-500" visible="true" lat="44.20258727" lon="-72.42305551">
    <tag k="addr:city" v="Orange" />
    <tag k="addr:housenumber" v="601" />
    <tag k="addr:street" v="Cutler Corner Road" />
    <tag k="addr:state" v="VT" />
    <tag k="ref:vcgi:esiteid" v="183943" />
  </node>
  <node id="-501" visible="true" lat="44.20266342" lon="-72.42002868">
    <tag k="addr:city" v="Orange" />
    <tag k="addr:housenumber" v="633" />
    <tag k="addr:street" v="Cutler Corner Road" />
    <tag k="addr:state" v="VT" />
    <tag k="ref:vcgi:esiteid" v="183944" />
  </node>
  <node id="-502" visible="true" lat="44.20254722" lon="-72.42368191">
    <tag k="addr:city" v="Orange" />
    <tag k="addr:housenumber" v="593" />
    <tag k="addr:street" v="Cutler Corner Road" />
    <tag k="addr:state" v="VT" />
    <tag k="ref:vcgi:esiteid" v="183945" />
  </node>
  <node id="-503" visible="true" lat="44.20254126" lon="-72.42085247">
    <tag k="addr:city" v="Orange" />
    <tag k="addr:housenumber" v="625" />
    <tag k="addr:street" v="Cutler Corner Road" />
    <tag k="addr:state" v="VT" />
    <tag k="ref:vcgi:esiteid" v="183946" />
  </node>
  <node id="-504" visible="true" lat="44.1980812" lon="-72.39897811">
    <tag k="addr:city" v="Orange" />
    <tag k="addr:housenumber" v="14" />
    <tag k="addr:street" v="R B B Drive" />
    <tag k="addr:state" v="VT" />
    <tag k="ref:vcgi:esiteid" v="183947" />
  </node>
  <node id="-505" visible="true" lat="44.20337745" lon="-72.40678783">
    <tag k="addr:city" v="Orange" />
    <tag k="addr:housenumber" v="791" />
    <tag k="addr:street" v="Cutler Corner Road" />
    <tag k="addr:state" v="VT" />
    <tag k="ref:vcgi:esiteid" v="183948" />
  </node>
  <node id="-506" visible="true" lat="44.20374365" lon="-72.40922083">
    <tag k="addr:city" v="Orange" />
    <tag k="addr:housenumber" v="739" />
    <tag k="addr:street" v="Cutler Corner Road" />
    <tag k="addr:state" v="VT" />
    <tag k="ref:vcgi:esiteid" v="183949" />
  </node>
  <node id="-507" visible="true" lat="44.19870733" lon="-72.39872894">
    <tag k="addr:city" v="Orange" />
    <tag k="addr:housenumber" v="18" />
    <tag k="addr:street" v="R B B Drive" />
    <tag k="addr:state" v="VT" />
    <tag k="ref:vcgi:esiteid" v="183950" />
  </node>
  <node id="-508" visible="true" lat="44.19784478" lon="-72.39960453">
    <tag k="addr:city" v="Orange" />
    <tag k="addr:housenumber" v="31" />
    <tag k="addr:street" v="Smith Road" />
    <tag k="addr:state" v="VT" />
    <tag k="ref:vcgi:esiteid" v="183951" />
  </node>
  <node id="-509" visible="true" lat="44.19826322" lon="-72.39747826">
    <tag k="addr:city" v="Orange" />
    <tag k="addr:housenumber" v="60" />
    <tag k="addr:street" v="R B B Drive" />
    <tag k="addr:state" v="VT" />
    <tag k="ref:vcgi:esiteid" v="183952" />
  </node>
  <node id="-510" visible="true" lat="44.19224825" lon="-72.41083163">
    <tag k="addr:city" v="Orange" />
    <tag k="addr:housenumber" v="37" />
    <tag k="addr:street" v="Trickle Brook Drive" />
    <tag k="addr:state" v="VT" />
    <tag k="ref:vcgi:esiteid" v="183953" />
  </node>
  <node id="-511" visible="true" lat="44.154422" lon="-72.43182914">
    <tag k="addr:city" v="Orange" />
    <tag k="addr:housenumber" v="29" />
    <tag k="addr:street" v="Reservoir Road" />
    <tag k="addr:state" v="VT" />
    <tag k="ref:vcgi:esiteid" v="183954" />
  </node>
  <node id="-512" visible="true" lat="44.13791673" lon="-72.43362218">
    <tag k="addr:city" v="Orange" />
    <tag k="addr:housenumber" v="160" />
    <tag k="addr:street" v="Vermont Route 110" />
    <tag k="addr:state" v="VT" />
    <tag k="ref:vcgi:esiteid" v="183955" />
  </node>
  <node id="-513" visible="true" lat="44.15008163" lon="-72.35510253">
    <tag k="addr:city" v="Orange" />
    <tag k="addr:housenumber" v="115" />
    <tag k="addr:street" v="Provencher Lane" />
    <tag k="addr:state" v="VT" />
    <tag k="ref:vcgi:esiteid" v="183956" />
  </node>
  <node id="-514" visible="true" lat="44.16888581" lon="-72.39151212">
    <tag k="addr:city" v="Orange" />
    <tag k="addr:housenumber" v="203" />
    <tag k="addr:street" v="Bennetts Mill Road" />
    <tag k="addr:state" v="VT" />
    <tag k="ref:vcgi:esiteid" v="183957" />
  </node>
  <node id="-515" visible="true" lat="44.20617108" lon="-72.41236379">
    <tag k="addr:city" v="Orange" />
    <tag k="addr:housenumber" v="29" />
    <tag k="addr:street" v="Strong Road" />
    <tag k="addr:state" v="VT" />
    <tag k="ref:vcgi:esiteid" v="183958" />
  </node>
  <node id="-516" visible="true" lat="44.2054001" lon="-72.41269969">
    <tag k="addr:city" v="Orange" />
    <tag k="addr:housenumber" v="17" />
    <tag k="addr:street" v="Strong Road" />
    <tag k="addr:state" v="VT" />
    <tag k="ref:vcgi:esiteid" v="183959" />
  </node>
  <node id="-517" visible="true" lat="44.20448684" lon="-72.39987945">
    <tag k="addr:city" v="Orange" />
    <tag k="addr:housenumber" v="837" />
    <tag k="addr:street" v="Reservoir Road" />
    <tag k="addr:state" v="VT" />
    <tag k="ref:vcgi:esiteid" v="183960" />
  </node>
  <node id="-518" visible="true" lat="44.09641265" lon="-72.34027862">
    <tag k="addr:city" v="Orange" />
    <tag k="addr:housenumber" v="28" />
    <tag k="addr:street" v="Fish Pond Road" />
    <tag k="addr:state" v="VT" />
    <tag k="ref:vcgi:esiteid" v="183961" />
  </node>
  <node id="-519" visible="true" lat="44.20571158" lon="-72.40133581">
    <tag k="addr:city" v="Orange" />
    <tag k="addr:housenumber" v="22" />
    <tag k="addr:street" v="Neddo Road" />
    <tag k="addr:state" v="VT" />
    <tag k="ref:vcgi:esiteid" v="183963" />
  </node>
  <node id="-520" visible="true" lat="44.14815923" lon="-72.43760076">
    <tag k="addr:city" v="Orange" />
    <tag k="addr:housenumber" v="12" />
    <tag k="addr:street" v="Vermont Route 110" />
    <tag k="addr:state" v="VT" />
    <tag k="ref:vcgi:esiteid" v="183964" />
  </node>
  <node id="-521" visible="true" lat="44.13317604" lon="-72.42075531">
    <tag k="addr:city" v="Orange" />
    <tag k="addr:housenumber" v="26" />
    <tag k="addr:street" v="Spencer Road" />
    <tag k="addr:state" v="VT" />
    <tag k="ref:vcgi:esiteid" v="183965" />
  </node>
  <node id="-522" visible="true" lat="44.20677796" lon="-72.40101829">
    <tag k="addr:city" v="Orange" />
    <tag k="addr:housenumber" v="24" />
    <tag k="addr:street" v="Neddo Road" />
    <tag k="addr:state" v="VT" />
    <tag k="ref:vcgi:esiteid" v="183967" />
  </node>
  <node id="-523" visible="true" lat="44.15664232" lon="-72.4308754">
    <tag k="addr:city" v="Orange" />
    <tag k="addr:housenumber" v="59" />
    <tag k="addr:street" v="Reservoir Road" />
    <tag k="addr:state" v="VT" />
    <tag k="ref:vcgi:esiteid" v="183968" />
  </node>
  <node id="-524" visible="true" lat="44.14308648" lon="-72.33366625">
    <tag k="addr:city" v="Orange" />
    <tag k="addr:housenumber" v="1075" />
    <tag k="addr:street" v="U.S. Route 302" />
    <tag k="addr:state" v="VT" />
    <tag k="ref:vcgi:esiteid" v="183969" />
  </node>
  <node id="-525" visible="true" lat="44.12803647" lon="-72.409017">
    <tag k="addr:city" v="Orange" />
    <tag k="addr:housenumber" v="26" />
    <tag k="addr:street" v="Cyr Road" />
    <tag k="addr:state" v="VT" />
    <tag k="ref:vcgi:esiteid" v="183970" />
  </node>
  <node id="-526" visible="true" lat="44.0951206" lon="-72.33066012">
    <tag k="addr:city" v="Orange" />
    <tag k="addr:housenumber" v="4956" />
    <tag k="addr:street" v="East Orange Road" />
    <tag k="addr:state" v="VT" />
    <tag k="ref:vcgi:esiteid" v="183971" />
  </node>
  <node id="-527" visible="true" lat="44.14828549" lon="-72.39337164">
    <tag k="addr:city" v="Orange" />
    <tag k="addr:housenumber" v="17" />
    <tag k="addr:street" v="Senecal Road" />
    <tag k="addr:state" v="VT" />
    <tag k="ref:vcgi:esiteid" v="183972" />
  </node>
  <node id="-528" visible="true" lat="44.15146689" lon="-72.40081115">
    <tag k="addr:city" v="Orange" />
    <tag k="addr:housenumber" v="6" />
    <tag k="addr:street" v="Morris Drive" />
    <tag k="addr:state" v="VT" />
    <tag k="ref:vcgi:esiteid" v="183973" />
  </node>
  <node id="-529" visible="true" lat="44.20207624" lon="-72.40719116">
    <tag k="addr:city" v="Orange" />
    <tag k="addr:housenumber" v="793" />
    <tag k="addr:street" v="Cutler Corner Road" />
    <tag k="addr:state" v="VT" />
    <tag k="ref:vcgi:esiteid" v="183974" />
  </node>
  <node id="-530" visible="true" lat="44.18833375" lon="-72.39440876">
    <tag k="addr:city" v="Orange" />
    <tag k="addr:housenumber" v="10" />
    <tag k="addr:street" v="Wesley Drive" />
    <tag k="addr:state" v="VT" />
    <tag k="ref:vcgi:esiteid" v="183975" />
  </node>
  <node id="-531" visible="true" lat="44.1882814" lon="-72.39423365">
    <tag k="addr:city" v="Orange" />
    <tag k="addr:housenumber" v="9" />
    <tag k="addr:street" v="Wesley Drive" />
    <tag k="addr:state" v="VT" />
    <tag k="ref:vcgi:esiteid" v="183976" />
  </node>
  <node id="-532" visible="true" lat="44.21589628" lon="-72.40641971">
    <tag k="addr:city" v="Orange" />
    <tag k="addr:housenumber" v="415" />
    <tag k="addr:street" v="Maxfield Road" />
    <tag k="addr:state" v="VT" />
    <tag k="ref:vcgi:esiteid" v="183977" />
  </node>
  <node id="-533" visible="true" lat="44.18866201" lon="-72.39543359">
    <tag k="addr:city" v="Orange" />
    <tag k="addr:housenumber" v="166" />
    <tag k="addr:street" v="Smith Road" />
    <tag k="addr:state" v="VT" />
    <tag k="ref:vcgi:esiteid" v="183979" />
  </node>
  <node id="-534" visible="true" lat="44.14325978" lon="-72.39779627">
    <tag k="addr:city" v="Orange" />
    <tag k="addr:housenumber" v="48" />
    <tag k="addr:street" v="Manning Road" />
    <tag k="addr:state" v="VT" />
    <tag k="ref:vcgi:esiteid" v="183981" />
  </node>
  <node id="-535" visible="true" lat="44.15552017" lon="-72.31331297">
    <tag k="addr:city" v="Orange" />
    <tag k="addr:housenumber" v="1" />
    <tag k="addr:street" v="Darling Drive" />
    <tag k="addr:state" v="VT" />
    <tag k="ref:vcgi:esiteid" v="183982" />
  </node>
  <node id="-536" visible="true" lat="44.15776111" lon="-72.31298768">
    <tag k="addr:city" v="Orange" />
    <tag k="addr:housenumber" v="2" />
    <tag k="addr:street" v="Darling Drive" />
    <tag k="addr:state" v="VT" />
    <tag k="ref:vcgi:esiteid" v="183983" />
  </node>
  <node id="-537" visible="true" lat="44.13919914" lon="-72.39092017">
    <tag k="addr:city" v="Orange" />
    <tag k="addr:housenumber" v="126" />
    <tag k="addr:street" v="Prechtl Road" />
    <tag k="addr:state" v="VT" />
    <tag k="ref:vcgi:esiteid" v="183984" />
  </node>
  <node id="-538" visible="true" lat="44.09850608" lon="-72.33880573">
    <tag k="addr:city" v="Orange" />
    <tag k="addr:housenumber" v="72" />
    <tag k="addr:street" v="Fish Pond Road" />
    <tag k="addr:state" v="VT" />
    <tag k="ref:vcgi:esiteid" v="183986" />
  </node>
  <node id="-539" visible="true" lat="44.15174354" lon="-72.40146468">
    <tag k="addr:city" v="Orange" />
    <tag k="addr:housenumber" v="8" />
    <tag k="addr:street" v="Morris Drive" />
    <tag k="addr:state" v="VT" />
    <tag k="ref:vcgi:esiteid" v="183988" />
  </node>
  <node id="-540" visible="true" lat="44.18800566" lon="-72.39344003">
    <tag k="addr:city" v="Orange" />
    <tag k="addr:housenumber" v="5" />
    <tag k="addr:street" v="Kimberlee Lane" />
    <tag k="addr:state" v="VT" />
    <tag k="ref:vcgi:esiteid" v="183989" />
  </node>
  <node id="-541" visible="true" lat="44.18798119" lon="-72.39360427">
    <tag k="addr:city" v="Orange" />
    <tag k="addr:housenumber" v="7" />
    <tag k="addr:street" v="Kimberlee Lane" />
    <tag k="addr:state" v="VT" />
    <tag k="ref:vcgi:esiteid" v="183990" />
  </node>
  <node id="-542" visible="true" lat="44.1880932" lon="-72.39425355">
    <tag k="addr:city" v="Orange" />
    <tag k="addr:housenumber" v="10" />
    <tag k="addr:street" v="Kimberlee Lane" />
    <tag k="addr:state" v="VT" />
    <tag k="ref:vcgi:esiteid" v="183991" />
  </node>
  <node id="-543" visible="true" lat="44.11942795" lon="-72.4105973">
    <tag k="addr:city" v="Orange" />
    <tag k="addr:housenumber" v="219" />
    <tag k="addr:street" v="Emery Road" />
    <tag k="addr:state" v="VT" />
    <tag k="ref:vcgi:esiteid" v="183992" />
  </node>
  <node id="-544" visible="true" lat="44.15948953" lon="-72.39437155">
    <tag k="addr:city" v="Orange" />
    <tag k="addr:housenumber" v="27" />
    <tag k="addr:street" v="Bennetts Mill Road" />
    <tag k="addr:state" v="VT" />
    <tag k="ref:vcgi:esiteid" v="183993" />
  </node>
  <node id="-545" visible="true" lat="44.11543125" lon="-72.32636392">
    <tag k="addr:city" v="Orange" />
    <tag k="addr:housenumber" v="256" />
    <tag k="addr:street" v="Warsley Road" />
    <tag k="addr:state" v="VT" />
    <tag k="ref:vcgi:esiteid" v="183994" />
  </node>
  <node id="-546" visible="true" lat="44.13567341" lon="-72.42012778">
    <tag k="addr:city" v="Orange" />
    <tag k="addr:housenumber" v="31" />
    <tag k="addr:street" v="Spencer Road" />
    <tag k="addr:state" v="VT" />
    <tag k="ref:vcgi:esiteid" v="183995" />
  </node>
  <node id="-547" visible="true" lat="44.14905646" lon="-72.35385531">
    <tag k="addr:city" v="Orange" />
    <tag k="addr:housenumber" v="100" />
    <tag k="addr:street" v="Provencher Lane" />
    <tag k="addr:state" v="VT" />
    <tag k="ref:vcgi:esiteid" v="183996" />
  </node>
  <node id="-548" visible="true" lat="44.1604574" lon="-72.43110349">
    <tag k="addr:city" v="Orange" />
    <tag k="addr:housenumber" v="79" />
    <tag k="addr:street" v="Reservoir Road" />
    <tag k="addr:state" v="VT" />
    <tag k="ref:vcgi:esiteid" v="183997" />
  </node>
  <node id="-549" visible="true" lat="44.10111134" lon="-72.3335508">
    <tag k="addr:city" v="Orange" />
    <tag k="addr:housenumber" v="129" />
    <tag k="addr:street" v="Little Dublin Drive" />
    <tag k="addr:state" v="VT" />
    <tag k="ref:vcgi:esiteid" v="183998" />
  </node>
  <node id="-550" visible="true" lat="44.09433482" lon="-72.33466367">
    <tag k="addr:city" v="Orange" />
    <tag k="addr:housenumber" v="35" />
    <tag k="addr:street" v="Little Dublin Drive" />
    <tag k="addr:state" v="VT" />
    <tag k="ref:vcgi:esiteid" v="183999" />
  </node>
  <node id="-551" visible="true" lat="44.09844625" lon="-72.33585556">
    <tag k="addr:city" v="Orange" />
    <tag k="addr:housenumber" v="95" />
    <tag k="addr:street" v="Little Dublin Drive" />
    <tag k="addr:state" v="VT" />
    <tag k="ref:vcgi:esiteid" v="184000" />
  </node>
  <node id="-552" visible="true" lat="44.10195401" lon="-72.32909914">
    <tag k="addr:city" v="Orange" />
    <tag k="addr:housenumber" v="177" />
    <tag k="addr:street" v="Little Dublin Drive" />
    <tag k="addr:state" v="VT" />
    <tag k="ref:vcgi:esiteid" v="184001" />
  </node>
  <node id="-553" visible="true" lat="44.12494315" lon="-72.42010798">
    <tag k="addr:city" v="Orange" />
    <tag k="addr:housenumber" v="118" />
    <tag k="addr:street" v="Cyr Road" />
    <tag k="addr:state" v="VT" />
    <tag k="ref:vcgi:esiteid" v="184003" />
  </node>
  <node id="-554" visible="true" lat="44.12288935" lon="-72.41510545">
    <tag k="addr:city" v="Orange" />
    <tag k="addr:housenumber" v="117" />
    <tag k="addr:street" v="Cyr Road" />
    <tag k="addr:state" v="VT" />
    <tag k="ref:vcgi:esiteid" v="184004" />
  </node>
  <node id="-555" visible="true" lat="44.19472083" lon="-72.4020857">
    <tag k="addr:city" v="Orange" />
    <tag k="addr:housenumber" v="6" />
    <tag k="addr:street" v="Magnum Drive" />
    <tag k="addr:state" v="VT" />
    <tag k="ref:vcgi:esiteid" v="184005" />
  </node>
  <node id="-556" visible="true" lat="44.19072787" lon="-72.41259417">
    <tag k="addr:city" v="Orange" />
    <tag k="addr:housenumber" v="28" />
    <tag k="addr:street" v="Knapp Drive" />
    <tag k="addr:state" v="VT" />
    <tag k="ref:vcgi:esiteid" v="184006" />
  </node>
  <node id="-557" visible="true" lat="44.15090887" lon="-72.40167482">
    <tag k="addr:city" v="Orange" />
    <tag k="addr:housenumber" v="28" />
    <tag k="addr:street" v="Freeman Way" />
    <tag k="addr:state" v="VT" />
    <tag k="ref:vcgi:esiteid" v="184007" />
  </node>
  <node id="-558" visible="true" lat="44.11715718" lon="-72.32479195">
    <tag k="addr:city" v="Orange" />
    <tag k="addr:housenumber" v="270" />
    <tag k="addr:street" v="Warsley Road" />
    <tag k="addr:state" v="VT" />
    <tag k="ref:vcgi:esiteid" v="184008" />
  </node>
  <node id="-559" visible="true" lat="44.1882271" lon="-72.39355733">
    <tag k="addr:city" v="Orange" />
    <tag k="addr:housenumber" v="6" />
    <tag k="addr:street" v="Kimberlee Lane" />
    <tag k="addr:state" v="VT" />
    <tag k="ref:vcgi:esiteid" v="184010" />
  </node>
  <node id="-560" visible="true" lat="44.19586456" lon="-72.40377906">
    <tag k="addr:city" v="Orange" />
    <tag k="addr:housenumber" v="27" />
    <tag k="addr:street" v="Griggs Road" />
    <tag k="addr:state" v="VT" />
    <tag k="ref:vcgi:esiteid" v="184011" />
  </node>
  <node id="-561" visible="true" lat="44.13060984" lon="-72.44159263">
    <tag k="addr:city" v="Orange" />
    <tag k="addr:housenumber" v="1571" />
    <tag k="addr:street" v="Lowery Road" />
    <tag k="addr:state" v="VT" />
    <tag k="ref:vcgi:esiteid" v="184012" />
  </node>
  <node id="-562" visible="true" lat="44.21371954" lon="-72.40165177">
    <tag k="addr:city" v="Orange" />
    <tag k="addr:housenumber" v="211" />
    <tag k="addr:street" v="Perkins Road Extension" />
    <tag k="addr:state" v="VT" />
    <tag k="ref:vcgi:esiteid" v="184014" />
  </node>
  <node id="-563" visible="true" lat="44.20004483" lon="-72.4010465">
    <tag k="addr:city" v="Orange" />
    <tag k="addr:housenumber" v="9" />
    <tag k="addr:street" v="Smith Road" />
    <tag k="addr:state" v="VT" />
    <tag k="ref:vcgi:esiteid" v="184015" />
  </node>
  <node id="-564" visible="true" lat="44.14237266" lon="-72.41742101">
    <tag k="addr:city" v="Orange" />
    <tag k="addr:housenumber" v="115" />
    <tag k="addr:street" v="Tucker Road" />
    <tag k="addr:state" v="VT" />
    <tag k="ref:vcgi:esiteid" v="184016" />
  </node>
  <node id="-565" visible="true" lat="44.14922373" lon="-72.40193528">
    <tag k="addr:city" v="Orange" />
    <tag k="addr:housenumber" v="7" />
    <tag k="addr:street" v="Freeman Way" />
    <tag k="addr:state" v="VT" />
    <tag k="ref:vcgi:esiteid" v="184017" />
  </node>
  <node id="-566" visible="true" lat="44.1493554" lon="-72.40150483">
    <tag k="addr:city" v="Orange" />
    <tag k="addr:housenumber" v="8" />
    <tag k="addr:street" v="Freeman Way" />
    <tag k="addr:state" v="VT" />
    <tag k="ref:vcgi:esiteid" v="184018" />
  </node>
  <node id="-567" visible="true" lat="44.13595971" lon="-72.34252015">
    <tag k="addr:city" v="Orange" />
    <tag k="addr:housenumber" v="29" />
    <tag k="addr:street" v="Bagley Road" />
    <tag k="addr:state" v="VT" />
    <tag k="ref:vcgi:esiteid" v="184019" />
  </node>
  <node id="-568" visible="true" lat="44.14049461" lon="-72.31879471">
    <tag k="addr:city" v="Orange" />
    <tag k="addr:housenumber" v="1237" />
    <tag k="addr:street" v="U.S. Route 302" />
    <tag k="addr:state" v="VT" />
    <tag k="ref:vcgi:esiteid" v="184020" />
  </node>
  <node id="-569" visible="true" lat="44.18831693" lon="-72.39360695">
    <tag k="addr:city" v="Orange" />
    <tag k="addr:housenumber" v="8" />
    <tag k="addr:street" v="Kimberlee Lane" />
    <tag k="addr:state" v="VT" />
    <tag k="ref:vcgi:esiteid" v="184021" />
  </node>
  <node id="-570" visible="true" lat="44.19133035" lon="-72.41024987">
    <tag k="addr:city" v="Orange" />
    <tag k="addr:housenumber" v="36" />
    <tag k="addr:street" v="Trickle Brook Drive" />
    <tag k="addr:state" v="VT" />
    <tag k="ref:vcgi:esiteid" v="184022" />
  </node>
  <node id="-571" visible="true" lat="44.19246566" lon="-72.41224362">
    <tag k="addr:city" v="Orange" />
    <tag k="addr:housenumber" v="20" />
    <tag k="addr:street" v="Trickle Brook Drive" />
    <tag k="addr:state" v="VT" />
    <tag k="ref:vcgi:esiteid" v="184023" />
  </node>
  <node id="-572" visible="true" lat="44.17871088" lon="-72.41371888">
    <tag k="addr:city" v="Orange" />
    <tag k="addr:housenumber" v="490" />
    <tag k="addr:street" v="George Street" />
    <tag k="addr:state" v="VT" />
    <tag k="ref:vcgi:esiteid" v="184024" />
  </node>
  <node id="-573" visible="true" lat="44.12435644" lon="-72.40783375">
    <tag k="addr:city" v="Orange" />
    <tag k="addr:housenumber" v="147" />
    <tag k="addr:street" v="Emery Road" />
    <tag k="addr:state" v="VT" />
    <tag k="ref:vcgi:esiteid" v="184025" />
  </node>
  <node id="-574" visible="true" lat="44.1325379" lon="-72.41533011">
    <tag k="addr:city" v="Orange" />
    <tag k="addr:housenumber" v="19" />
    <tag k="addr:street" v="Leclair Lane" />
    <tag k="addr:state" v="VT" />
    <tag k="ref:vcgi:esiteid" v="184026" />
  </node>
  <node id="-575" visible="true" lat="44.1265647" lon="-72.40467517">
    <tag k="addr:city" v="Orange" />
    <tag k="addr:housenumber" v="46" />
    <tag k="addr:street" v="Eastman Road" />
    <tag k="addr:state" v="VT" />
    <tag k="ref:vcgi:esiteid" v="184027" />
  </node>
  <node id="-576" visible="true" lat="44.20201963" lon="-72.39845748">
    <tag k="addr:city" v="Orange" />
    <tag k="addr:housenumber" v="808" />
    <tag k="addr:street" v="Reservoir Road" />
    <tag k="addr:state" v="VT" />
    <tag k="ref:vcgi:esiteid" v="184029" />
  </node>
  <node id="-577" visible="true" lat="44.19848793" lon="-72.39970078">
    <tag k="addr:city" v="Orange" />
    <tag k="addr:housenumber" v="11" />
    <tag k="addr:street" v="R B B Drive" />
    <tag k="addr:state" v="VT" />
    <tag k="ref:vcgi:esiteid" v="184030" />
  </node>
  <node id="-578" visible="true" lat="44.20408797" lon="-72.41089656">
    <tag k="addr:city" v="Orange" />
    <tag k="addr:housenumber" v="723" />
    <tag k="addr:street" v="Cutler Corner Road" />
    <tag k="addr:state" v="VT" />
    <tag k="ref:vcgi:esiteid" v="184031" />
  </node>
  <node id="-579" visible="true" lat="44.20404061" lon="-72.39948961">
    <tag k="addr:city" v="Orange" />
    <tag k="addr:housenumber" v="826" />
    <tag k="addr:street" v="Reservoir Road" />
    <tag k="addr:state" v="VT" />
    <tag k="ref:vcgi:esiteid" v="184032" />
  </node>
  <node id="-580" visible="true" lat="44.20972746" lon="-72.39463304">
    <tag k="addr:city" v="Orange" />
    <tag k="addr:housenumber" v="33" />
    <tag k="addr:street" v="Foster Lane" />
    <tag k="addr:state" v="VT" />
    <tag k="ref:vcgi:esiteid" v="184033" />
  </node>
  <node id="-581" visible="true" lat="44.21124672" lon="-72.39421606">
    <tag k="addr:city" v="Orange" />
    <tag k="addr:housenumber" v="49" />
    <tag k="addr:street" v="Macombers Lane" />
    <tag k="addr:state" v="VT" />
    <tag k="ref:vcgi:esiteid" v="184034" />
  </node>
  <node id="-582" visible="true" lat="44.13099927" lon="-72.42897282">
    <tag k="addr:city" v="Orange" />
    <tag k="addr:housenumber" v="11" />
    <tag k="addr:street" v="Hide Away Drive" />
    <tag k="addr:state" v="VT" />
    <tag k="ref:vcgi:esiteid" v="184035" />
  </node>
  <node id="-583" visible="true" lat="44.15957496" lon="-72.31193843">
    <tag k="addr:city" v="Orange" />
    <tag k="addr:housenumber" v="159" />
    <tag k="addr:street" v="U.S. Route 302" />
    <tag k="addr:state" v="VT" />
    <tag k="ref:vcgi:esiteid" v="260852" />
  </node>
  <node id="-584" visible="true" lat="44.15030979" lon="-72.4024421">
    <tag k="addr:city" v="Orange" />
    <tag k="addr:housenumber" v="19" />
    <tag k="addr:street" v="Freeman Way" />
    <tag k="addr:state" v="VT" />
    <tag k="ref:vcgi:esiteid" v="307838" />
  </node>
  <node id="-585" visible="true" lat="44.13175338" lon="-72.42764025">
    <tag k="addr:city" v="Orange" />
    <tag k="addr:housenumber" v="27" />
    <tag k="addr:street" v="Hide Away Drive" />
    <tag k="addr:state" v="VT" />
    <tag k="ref:vcgi:esiteid" v="307839" />
  </node>
  <node id="-586" visible="true" lat="44.13881013" lon="-72.43256677">
    <tag k="addr:city" v="Orange" />
    <tag k="addr:housenumber" v="151" />
    <tag k="addr:street" v="Vermont Route 110" />
    <tag k="addr:state" v="VT" />
    <tag k="ref:vcgi:esiteid" v="307840" />
  </node>
  <node id="-587" visible="true" lat="44.2090527" lon="-72.39315922">
    <tag k="addr:city" v="Orange" />
    <tag k="addr:housenumber" v="47" />
    <tag k="addr:street" v="Foster Lane" />
    <tag k="addr:state" v="VT" />
    <tag k="ref:vcgi:esiteid" v="307841" />
  </node>
  <node id="-588" visible="true" lat="44.141434" lon="-72.32991118">
    <tag k="addr:city" v="Orange" />
    <tag k="addr:housenumber" v="1112B" />
    <tag k="addr:street" v="U.S. Route 302" />
    <tag k="addr:state" v="VT" />
    <tag k="ref:vcgi:esiteid" v="307842" />
  </node>
  <node id="-589" visible="true" lat="44.14757075" lon="-72.42091117">
    <tag k="addr:city" v="Orange" />
    <tag k="addr:housenumber" v="62" />
    <tag k="addr:street" v="Helgesen Road" />
    <tag k="addr:state" v="VT" />
    <tag k="ref:vcgi:esiteid" v="307843" />
  </node>
  <node id="-590" visible="true" lat="44.14263214" lon="-72.317562">
    <tag k="addr:city" v="Orange" />
    <tag k="addr:housenumber" v="7" />
    <tag k="addr:street" v="U.S. Route 302" />
    <tag k="addr:state" v="VT" />
    <tag k="ref:vcgi:esiteid" v="309130" />
  </node>
  <node id="-591" visible="true" lat="44.14173614" lon="-72.32683693">
    <tag k="addr:city" v="Orange" />
    <tag k="addr:housenumber" v="1150" />
    <tag k="addr:street" v="U.S. Route 302" />
    <tag k="addr:state" v="VT" />
    <tag k="ref:vcgi:esiteid" v="313178" />
  </node>
  <node id="-592" visible="true" lat="44.20897891" lon="-72.39448487">
    <tag k="addr:city" v="Orange" />
    <tag k="addr:housenumber" v="26" />
    <tag k="addr:street" v="Foster Lane" />
    <tag k="addr:state" v="VT" />
    <tag k="ref:vcgi:esiteid" v="313180" />
  </node>
  <node id="-593" visible="true" lat="44.13794532" lon="-72.38546604">
    <tag k="addr:city" v="Orange" />
    <tag k="addr:housenumber" v="17" />
    <tag k="addr:street" v="Shady Brook Lane" />
    <tag k="addr:state" v="VT" />
    <tag k="ref:vcgi:esiteid" v="315467" />
  </node>
  <node id="-594" visible="true" lat="44.14086089" lon="-72.38478106">
    <tag k="addr:city" v="Orange" />
    <tag k="addr:housenumber" v="59" />
    <tag k="addr:street" v="Shady Brook Lane" />
    <tag k="addr:state" v="VT" />
    <tag k="ref:vcgi:esiteid" v="315468" />
  </node>
  <node id="-595" visible="true" lat="44.13171728" lon="-72.42820789">
    <tag k="addr:city" v="Orange" />
    <tag k="addr:housenumber" v="25" />
    <tag k="addr:street" v="Hide Away Drive" />
    <tag k="addr:state" v="VT" />
    <tag k="ref:vcgi:esiteid" v="315469" />
  </node>
  <node id="-596" visible="true" lat="44.1996986" lon="-72.39931142">
    <tag k="addr:city" v="Orange" />
    <tag k="addr:housenumber" v="19" />
    <tag k="addr:street" v="R B B Drive" />
    <tag k="addr:state" v="VT" />
    <tag k="ref:vcgi:esiteid" v="315470" />
  </node>
  <node id="-597" visible="true" lat="44.20591784" lon="-72.38956566">
    <tag k="addr:city" v="Orange" />
    <tag k="addr:housenumber" v="41" />
    <tag k="addr:street" v="Bellardine Drive" />
    <tag k="addr:state" v="VT" />
    <tag k="ref:vcgi:esiteid" v="315472" />
  </node>
  <node id="-598" visible="true" lat="44.19922618" lon="-72.38081037">
    <tag k="addr:city" v="Orange" />
    <tag k="addr:housenumber" v="128" />
    <tag k="addr:street" v="Back Country Road" />
    <tag k="addr:state" v="VT" />
    <tag k="ref:vcgi:esiteid" v="315474" />
  </node>
  <node id="-599" visible="true" lat="44.20311461" lon="-72.38098949">
    <tag k="addr:city" v="Orange" />
    <tag k="addr:housenumber" v="96" />
    <tag k="addr:street" v="Back Country Road" />
    <tag k="addr:state" v="VT" />
    <tag k="ref:vcgi:esiteid" v="315476" />
  </node>
  <node id="-600" visible="true" lat="44.13552938" lon="-72.38798533">
    <tag k="addr:city" v="Orange" />
    <tag k="addr:housenumber" v="145" />
    <tag k="addr:street" v="Prechtl Road" />
    <tag k="addr:state" v="VT" />
    <tag k="ref:vcgi:esiteid" v="320301" />
  </node>
  <node id="-601" visible="true" lat="44.14033149" lon="-72.40415326">
    <tag k="addr:city" v="Orange" />
    <tag k="addr:housenumber" v="111" />
    <tag k="addr:street" v="Richardson Road" />
    <tag k="addr:state" v="VT" />
    <tag k="ref:vcgi:esiteid" v="326417" />
  </node>
  <node id="-602" visible="true" lat="44.11770611" lon="-72.409312">
    <tag k="addr:city" v="Orange" />
    <tag k="addr:housenumber" v="237" />
    <tag k="addr:street" v="Emery Road" />
    <tag k="addr:state" v="VT" />
    <tag k="ref:vcgi:esiteid" v="326418" />
  </node>
  <node id="-603" visible="true" lat="44.12387094" lon="-72.40849537">
    <tag k="addr:city" v="Orange" />
    <tag k="addr:housenumber" v="150" />
    <tag k="addr:street" v="Emery Road" />
    <tag k="addr:state" v="VT" />
    <tag k="ref:vcgi:esiteid" v="326885" />
  </node>
  <node id="-604" visible="true" lat="44.12215836" lon="-72.40964444">
    <tag k="addr:city" v="Orange" />
    <tag k="addr:housenumber" v="176" />
    <tag k="addr:street" v="Emery Road" />
    <tag k="addr:state" v="VT" />
    <tag k="ref:vcgi:esiteid" v="327280" />
  </node>
  <node id="-605" visible="true" lat="44.1314927" lon="-72.42853186">
    <tag k="addr:city" v="Orange" />
    <tag k="addr:housenumber" v="23" />
    <tag k="addr:street" v="Hide Away Drive" />
    <tag k="addr:state" v="VT" />
    <tag k="ref:vcgi:esiteid" v="328732" />
  </node>
  <node id="-606" visible="true" lat="44.15655222" lon="-72.40258016">
    <tag k="addr:city" v="Orange" />
    <tag k="addr:housenumber" v="145" />
    <tag k="addr:street" v="George Street" />
    <tag k="addr:state" v="VT" />
    <tag k="ref:vcgi:esiteid" v="331836" />
  </node>
  <node id="-607" visible="true" lat="44.14508444" lon="-72.37733562">
    <tag k="addr:city" v="Orange" />
    <tag k="addr:housenumber" v="636" />
    <tag k="addr:street" v="U.S. Route 302" />
    <tag k="addr:state" v="VT" />
    <tag k="ref:vcgi:esiteid" v="331837" />
  </node>
  <node id="-608" visible="true" lat="44.13613247" lon="-72.39663403">
    <tag k="addr:city" v="Orange" />
    <tag k="addr:housenumber" v="200" />
    <tag k="addr:street" v="Prechtl Road" />
    <tag k="addr:state" v="VT" />
    <tag k="ref:vcgi:esiteid" v="331838" />
  </node>
  <node id="-609" visible="true" lat="44.14033127" lon="-72.43151065">
    <tag k="addr:city" v="Orange" />
    <tag k="addr:housenumber" v="12" />
    <tag k="addr:street" v="Morrie Drive" />
    <tag k="addr:state" v="VT" />
    <tag k="ref:vcgi:esiteid" v="334773" />
  </node>
  <node id="-610" visible="true" lat="44.13041208" lon="-72.42983423">
    <tag k="addr:city" v="Orange" />
    <tag k="addr:housenumber" v="352" />
    <tag k="addr:street" v="Tucker Road" />
    <tag k="addr:state" v="VT" />
    <tag k="ref:vcgi:esiteid" v="334774" />
  </node>
  <node id="-611" visible="true" lat="44.17731164" lon="-72.30817177">
    <tag k="addr:city" v="Orange" />
    <tag k="addr:housenumber" v="450" />
    <tag k="addr:street" v="Will Goodwin Road" />
    <tag k="addr:state" v="VT" />
    <tag k="ref:vcgi:esiteid" v="336824" />
  </node>
  <node id="-612" visible="true" lat="44.13528669" lon="-72.39782294">
    <tag k="addr:city" v="Orange" />
    <tag k="addr:housenumber" v="170" />
    <tag k="addr:street" v="Keane Mountain Way" />
    <tag k="addr:state" v="VT" />
    <tag k="ref:vcgi:esiteid" v="337827" />
  </node>
  <node id="-613" visible="true" lat="44.13428601" lon="-72.42320066">
    <tag k="addr:city" v="Orange" />
    <tag k="addr:housenumber" v="248" />
    <tag k="addr:street" v="Tucker Road" />
    <tag k="addr:state" v="VT" />
    <tag k="ref:vcgi:esiteid" v="337828" />
  </node>
  <node id="-614" visible="true" lat="44.21220264" lon="-72.39436384">
    <tag k="addr:city" v="Orange" />
    <tag k="addr:housenumber" v="37" />
    <tag k="addr:street" v="Macombers Lane" />
    <tag k="addr:state" v="VT" />
    <tag k="ref:vcgi:esiteid" v="337829" />
  </node>
  <node id="-615" visible="true" lat="44.13109805" lon="-72.42847085">
    <tag k="addr:city" v="Orange" />
    <tag k="addr:housenumber" v="15" />
    <tag k="addr:street" v="Hide Away Drive" />
    <tag k="addr:state" v="VT" />
    <tag k="ref:vcgi:esiteid" v="337830" />
  </node>
  <node id="-616" visible="true" lat="44.15041381" lon="-72.32870236">
    <tag k="addr:city" v="Orange" />
    <tag k="addr:housenumber" v="64" />
    <tag k="addr:street" v="Cramp Road" />
    <tag k="addr:state" v="VT" />
    <tag k="ref:vcgi:esiteid" v="337831" />
  </node>
  <node id="-617" visible="true" lat="44.14507012" lon="-72.32018564">
    <tag k="addr:city" v="Orange" />
    <tag k="addr:housenumber" v="64" />
    <tag k="addr:street" v="Clement Road" />
    <tag k="addr:state" v="VT" />
    <tag k="ref:vcgi:esiteid" v="337832" />
  </node>
  <node id="-618" visible="true" lat="44.12819535" lon="-72.40304996">
    <tag k="addr:city" v="Orange" />
    <tag k="addr:housenumber" v="31" />
    <tag k="addr:street" v="Eastman Road" />
    <tag k="addr:state" v="VT" />
    <tag k="ref:vcgi:esiteid" v="337833" />
  </node>
  <node id="-619" visible="true" lat="44.13530851" lon="-72.39375933">
    <tag k="addr:city" v="Orange" />
    <tag k="addr:housenumber" v="204" />
    <tag k="addr:street" v="Prechtl Road" />
    <tag k="addr:state" v="VT" />
    <tag k="ref:vcgi:esiteid" v="337834" />
  </node>
  <node id="-620" visible="true" lat="44.16138748" lon="-72.40471361">
    <tag k="addr:city" v="Orange" />
    <tag k="addr:housenumber" v="216" />
    <tag k="addr:street" v="George Street" />
    <tag k="addr:state" v="VT" />
    <tag k="ref:vcgi:esiteid" v="337836" />
  </node>
  <node id="-621" visible="true" lat="44.14092047" lon="-72.43262236">
    <tag k="addr:city" v="Orange" />
    <tag k="addr:housenumber" v="9" />
    <tag k="addr:street" v="Morrie Drive" />
    <tag k="addr:state" v="VT" />
    <tag k="ref:vcgi:esiteid" v="338578" />
  </node>
  <node id="-623" visible="true" lat="44.21149582" lon="-72.39337552">
    <tag k="addr:city" v="Orange" />
    <tag k="addr:housenumber" v="59" />
    <tag k="addr:street" v="Macombers Lane" />
    <tag k="addr:state" v="VT" />
    <tag k="ref:vcgi:esiteid" v="339570" />
  </node>
  <node id="-624" visible="true" lat="44.14036146" lon="-72.43279134">
    <tag k="addr:city" v="Orange" />
    <tag k="addr:housenumber" v="8" />
    <tag k="addr:street" v="Morrie Drive" />
    <tag k="addr:state" v="VT" />
    <tag k="ref:vcgi:esiteid" v="339796" />
  </node>
  <node id="-625" visible="true" lat="44.13030687" lon="-72.42851861">
    <tag k="addr:city" v="Orange" />
    <tag k="addr:housenumber" v="5" />
    <tag k="addr:street" v="Hide Away Drive" />
    <tag k="addr:state" v="VT" />
    <tag k="ref:vcgi:esiteid" v="339797" />
  </node>
  <node id="-626" visible="true" lat="44.14250669" lon="-72.39686835">
    <tag k="addr:city" v="Orange" />
    <tag k="addr:housenumber" v="68" />
    <tag k="addr:street" v="Manning Road" />
    <tag k="addr:state" v="VT" />
    <tag k="ref:vcgi:esiteid" v="339798" />
  </node>
  <node id="-627" visible="true" lat="44.14408632" lon="-72.39128912">
    <tag k="addr:city" v="Orange" />
    <tag k="addr:housenumber" v="48" />
    <tag k="addr:street" v="Prechtl Road" />
    <tag k="addr:state" v="VT" />
    <tag k="ref:vcgi:esiteid" v="339802" />
  </node>
  <node id="-628" visible="true" lat="44.18655298" lon="-72.39201489">
    <tag k="addr:city" v="Orange" />
    <tag k="addr:housenumber" v="21" />
    <tag k="addr:street" v="Butterfield Woods Drive" />
    <tag k="addr:state" v="VT" />
    <tag k="ref:vcgi:esiteid" v="341305" />
  </node>
  <node id="-629" visible="true" lat="44.11406678" lon="-72.37229095">
    <tag k="addr:city" v="Orange" />
    <tag k="addr:housenumber" v="516" />
    <tag k="addr:street" v="Notch Trail" />
    <tag k="addr:state" v="VT" />
    <tag k="ref:vcgi:esiteid" v="341310" />
  </node>
  <node id="-630" visible="true" lat="44.11788177" lon="-72.37633782">
    <tag k="addr:city" v="Orange" />
    <tag k="addr:housenumber" v="479" />
    <tag k="addr:street" v="Notch Trail" />
    <tag k="addr:state" v="VT" />
    <tag k="ref:vcgi:esiteid" v="341311" />
  </node>
  <node id="-631" visible="true" lat="44.11925359" lon="-72.37844506">
    <tag k="addr:city" v="Orange" />
    <tag k="addr:housenumber" v="429" />
    <tag k="addr:street" v="Notch Trail" />
    <tag k="addr:state" v="VT" />
    <tag k="ref:vcgi:esiteid" v="341312" />
  </node>
  <node id="-632" visible="true" lat="44.13613166" lon="-72.38153539">
    <tag k="addr:city" v="Orange" />
    <tag k="addr:housenumber" v="68" />
    <tag k="addr:street" v="Melissa Lane" />
    <tag k="addr:state" v="VT" />
    <tag k="ref:vcgi:esiteid" v="345909" />
  </node>
  <node id="-633" visible="true" lat="44.13589767" lon="-72.3855995">
    <tag k="addr:city" v="Orange" />
    <tag k="addr:housenumber" v="36" />
    <tag k="addr:street" v="Melissa Lane" />
    <tag k="addr:state" v="VT" />
    <tag k="ref:vcgi:esiteid" v="345910" />
  </node>
  <node id="-634" visible="true" lat="44.11706082" lon="-72.33459681">
    <tag k="addr:city" v="Orange" />
    <tag k="addr:housenumber" v="149" />
    <tag k="addr:street" v="Warsley Road" />
    <tag k="addr:state" v="VT" />
    <tag k="ref:vcgi:esiteid" v="345911" />
  </node>
  <node id="-635" visible="true" lat="44.15225788" lon="-72.32295493">
    <tag k="addr:city" v="Orange" />
    <tag k="addr:housenumber" v="169" />
    <tag k="addr:street" v="Clement Road" />
    <tag k="addr:state" v="VT" />
    <tag k="ref:vcgi:esiteid" v="345913" />
  </node>
  <node id="-636" visible="true" lat="44.15311364" lon="-72.40272474">
    <tag k="addr:city" v="Orange" />
    <tag k="addr:housenumber" v="53" />
    <tag k="addr:street" v="Freeman Way" />
    <tag k="addr:state" v="VT" />
    <tag k="ref:vcgi:esiteid" v="345914" />
  </node>
  <node id="-637" visible="true" lat="44.16341995" lon="-72.37850745">
    <tag k="addr:city" v="Orange" />
    <tag k="addr:housenumber" v="289" />
    <tag k="addr:street" v="Beard Road" />
    <tag k="addr:state" v="VT" />
    <tag k="ref:vcgi:esiteid" v="345916" />
  </node>
  <node id="-638" visible="true" lat="44.13993005" lon="-72.40571341">
    <tag k="addr:city" v="Orange" />
    <tag k="addr:housenumber" v="121" />
    <tag k="addr:street" v="Richardson Road" />
    <tag k="addr:state" v="VT" />
    <tag k="ref:vcgi:esiteid" v="345917" />
  </node>
  <node id="-639" visible="true" lat="44.13963823" lon="-72.41925801">
    <tag k="addr:city" v="Orange" />
    <tag k="addr:housenumber" v="161" />
    <tag k="addr:street" v="Tucker Road" />
    <tag k="addr:state" v="VT" />
    <tag k="ref:vcgi:esiteid" v="345918" />
  </node>
  <node id="-640" visible="true" lat="44.10362381" lon="-72.33376854">
    <tag k="addr:city" v="Orange" />
    <tag k="addr:housenumber" v="151" />
    <tag k="addr:street" v="Little Dublin Drive" />
    <tag k="addr:state" v="VT" />
    <tag k="ref:vcgi:esiteid" v="345919" />
  </node>
  <node id="-641" visible="true" lat="44.09733762" lon="-72.33743066">
    <tag k="addr:city" v="Orange" />
    <tag k="addr:housenumber" v="74" />
    <tag k="addr:street" v="Fish Pond Road" />
    <tag k="addr:state" v="VT" />
    <tag k="ref:vcgi:esiteid" v="345966" />
  </node>
  <node id="-642" visible="true" lat="44.20372757" lon="-72.41880206">
    <tag k="addr:city" v="Orange" />
    <tag k="addr:housenumber" v="14" />
    <tag k="addr:street" v="Preston Road" />
    <tag k="addr:state" v="VT" />
    <tag k="ref:vcgi:esiteid" v="365381" />
  </node>
  <node id="-643" visible="true" lat="44.15651231" lon="-72.32053249">
    <tag k="addr:city" v="Orange" />
    <tag k="addr:housenumber" v="225" />
    <tag k="addr:street" v="Clement Road" />
    <tag k="addr:state" v="VT" />
    <tag k="ref:vcgi:esiteid" v="365419" />
  </node>
  <node id="-644" visible="true" lat="44.14009766" lon="-72.32066625">
    <tag k="addr:city" v="Orange" />
    <tag k="addr:housenumber" v="9" />
    <tag k="addr:street" v="Vermont Route 25" />
    <tag k="addr:state" v="VT" />
    <tag k="ref:vcgi:esiteid" v="446206" />
  </node>
  <node id="-645" visible="true" lat="44.14163791" lon="-72.33569111">
    <tag k="addr:city" v="Orange" />
    <tag k="addr:housenumber" v="1051" />
    <tag k="addr:street" v="U.S. Route 302" />
    <tag k="addr:state" v="VT" />
    <tag k="ref:vcgi:esiteid" v="446251" />
  </node>
  <node id="-646" visible="true" lat="44.14121691" lon="-72.34709643">
    <tag k="addr:city" v="Orange" />
    <tag k="addr:housenumber" v="13" />
    <tag k="addr:street" v="Riddel Pond Road" />
    <tag k="addr:state" v="VT" />
    <tag k="ref:vcgi:esiteid" v="446307" />
  </node>
  <node id="-647" visible="true" lat="44.13213948" lon="-72.43047368">
    <tag k="addr:city" v="Orange" />
    <tag k="addr:housenumber" v="33" />
    <tag k="addr:street" v="Hide Away Drive Extension" />
    <tag k="addr:state" v="VT" />
    <tag k="ref:vcgi:esiteid" v="446484" />
  </node>
  <node id="-648" visible="true" lat="44.13123847" lon="-72.42999782">
    <tag k="addr:city" v="Orange" />
    <tag k="addr:housenumber" v="17" />
    <tag k="addr:street" v="Hide Away Drive Extension" />
    <tag k="addr:state" v="VT" />
    <tag k="ref:vcgi:esiteid" v="446485" />
  </node>
  <node id="-649" visible="true" lat="44.16610654" lon="-72.41483029">
    <tag k="addr:city" v="Orange" />
    <tag k="addr:housenumber" v="311" />
    <tag k="addr:street" v="George Street" />
    <tag k="addr:state" v="VT" />
    <tag k="ref:vcgi:esiteid" v="446528" />
  </node>
  <node id="-650" visible="true" lat="44.15626893" lon="-72.42962659">
    <tag k="addr:city" v="Orange" />
    <tag k="addr:housenumber" v="60" />
    <tag k="addr:street" v="Reservoir Road" />
    <tag k="addr:state" v="VT" />
    <tag k="ref:vcgi:esiteid" v="446529" />
  </node>
  <node id="-651" visible="true" lat="44.10612314" lon="-72.36868757">
    <tag k="addr:city" v="Orange" />
    <tag k="addr:housenumber" v="75" />
    <tag k="addr:street" v="Atherton Road" />
    <tag k="addr:state" v="VT" />
    <tag k="ref:vcgi:esiteid" v="448422" />
  </node>
  <node id="-652" visible="true" lat="44.10653932" lon="-72.36718956">
    <tag k="addr:city" v="Orange" />
    <tag k="addr:housenumber" v="74" />
    <tag k="addr:street" v="Atherton Road" />
    <tag k="addr:state" v="VT" />
    <tag k="ref:vcgi:esiteid" v="448423" />
  </node>
  <node id="-653" visible="true" lat="44.1428614" lon="-72.33236425">
    <tag k="addr:city" v="Orange" />
    <tag k="addr:housenumber" v="9" />
    <tag k="addr:street" v="Cramp Road" />
    <tag k="addr:state" v="VT" />
    <tag k="ref:vcgi:esiteid" v="448424" />
  </node>
  <node id="-654" visible="true" lat="44.16359496" lon="-72.31787969">
    <tag k="addr:city" v="Orange" />
    <tag k="addr:housenumber" v="336" />
    <tag k="addr:street" v="Clement Road" />
    <tag k="addr:state" v="VT" />
    <tag k="ref:vcgi:esiteid" v="448425" />
  </node>
  <node id="-655" visible="true" lat="44.18628751" lon="-72.39226968">
    <tag k="addr:city" v="Orange" />
    <tag k="addr:housenumber" v="23" />
    <tag k="addr:street" v="Butterfield Woods Drive" />
    <tag k="addr:state" v="VT" />
    <tag k="ref:vcgi:esiteid" v="448540" />
  </node>
  <node id="-656" visible="true" lat="44.1866086" lon="-72.39303486">
    <tag k="addr:city" v="Orange" />
    <tag k="addr:housenumber" v="22" />
    <tag k="addr:street" v="Butterfield Woods Drive" />
    <tag k="addr:state" v="VT" />
    <tag k="ref:vcgi:esiteid" v="448541" />
  </node>
  <node id="-657" visible="true" lat="44.18691392" lon="-72.39243235">
    <tag k="addr:city" v="Orange" />
    <tag k="addr:housenumber" v="16" />
    <tag k="addr:street" v="Butterfield Woods Drive" />
    <tag k="addr:state" v="VT" />
    <tag k="ref:vcgi:esiteid" v="448542" />
  </node>
  <node id="-658" visible="true" lat="44.19480029" lon="-72.42428398">
    <tag k="addr:city" v="Orange" />
    <tag k="addr:housenumber" v="107" />
    <tag k="addr:street" v="Bisson Road" />
    <tag k="addr:state" v="VT" />
    <tag k="ref:vcgi:esiteid" v="448596" />
  </node>
  <node id="-659" visible="true" lat="44.14589251" lon="-72.38160855">
    <tag k="addr:city" v="Orange" />
    <tag k="addr:housenumber" v="582" />
    <tag k="addr:street" v="U.S. Route 302" />
    <tag k="addr:state" v="VT" />
    <tag k="ref:vcgi:esiteid" v="448597" />
  </node>
  <node id="-660" visible="true" lat="44.13377686" lon="-72.41189314">
    <tag k="addr:city" v="Orange" />
    <tag k="addr:housenumber" v="87" />
    <tag k="addr:street" v="Spencer Road" />
    <tag k="addr:state" v="VT" />
    <tag k="ref:vcgi:esiteid" v="448598" />
  </node>
  <node id="-661" visible="true" lat="44.12737005" lon="-72.43076231">
    <tag k="addr:city" v="Orange" />
    <tag k="addr:housenumber" v="310" />
    <tag k="addr:street" v="Vermont Route 110" />
    <tag k="addr:state" v="VT" />
    <tag k="ref:vcgi:esiteid" v="449677" />
  </node>
  <node id="-662" visible="true" lat="44.16673935" lon="-72.3876982">
    <tag k="addr:city" v="Orange" />
    <tag k="addr:housenumber" v="210" />
    <tag k="addr:street" v="Bennetts Mill Road" />
    <tag k="addr:state" v="VT" />
    <tag k="ref:vcgi:esiteid" v="450122" />
  </node>
  <node id="-663" visible="true" lat="44.17153462" lon="-72.39303274">
    <tag k="addr:city" v="Orange" />
    <tag k="addr:housenumber" v="231" />
    <tag k="addr:street" v="Bennetts Mill Road" />
    <tag k="addr:state" v="VT" />
    <tag k="ref:vcgi:esiteid" v="450123" />
  </node>
  <node id="-664" visible="true" lat="44.14940628" lon="-72.40562751">
    <tag k="addr:city" v="Orange" />
    <tag k="addr:housenumber" v="335" />
    <tag k="addr:street" v="U.S. Route 302" />
    <tag k="addr:state" v="VT" />
    <tag k="ref:vcgi:esiteid" v="450309" />
  </node>
  <node id="-665" visible="true" lat="44.14531942" lon="-72.43851853">
    <tag k="addr:city" v="Orange" />
    <tag k="addr:housenumber" v="32" />
    <tag k="addr:street" v="Vermont Route 110" />
    <tag k="addr:state" v="VT" />
    <tag k="ref:vcgi:esiteid" v="451458" />
  </node>
  <node id="-666" visible="true" lat="44.13284904" lon="-72.43085722">
    <tag k="addr:city" v="Orange" />
    <tag k="addr:housenumber" v="231" />
    <tag k="addr:street" v="Vermont Route 110" />
    <tag k="addr:state" v="VT" />
    <tag k="ref:vcgi:esiteid" v="453640" />
  </node>
  <node id="-667" visible="true" lat="44.13377115" lon="-72.43084627">
    <tag k="addr:city" v="Orange" />
    <tag k="addr:housenumber" v="215" />
    <tag k="addr:street" v="Vermont Route 110" />
    <tag k="addr:state" v="VT" />
    <tag k="ref:vcgi:esiteid" v="453642" />
  </node>
  <node id="-668" visible="true" lat="44.13485757" lon="-72.43106075">
    <tag k="addr:city" v="Orange" />
    <tag k="addr:housenumber" v="207" />
    <tag k="addr:street" v="Vermont Route 110" />
    <tag k="addr:state" v="VT" />
    <tag k="ref:vcgi:esiteid" v="453643" />
  </node>
  <node id="-669" visible="true" lat="44.13764962" lon="-72.40526447">
    <tag k="addr:city" v="Orange" />
    <tag k="addr:housenumber" v="157" />
    <tag k="addr:street" v="Richardson Road" />
    <tag k="addr:state" v="VT" />
    <tag k="ref:vcgi:esiteid" v="453644" />
  </node>
  <node id="-670" visible="true" lat="44.15734981" lon="-72.40527063">
    <tag k="addr:city" v="Orange" />
    <tag k="addr:housenumber" v="171" />
    <tag k="addr:street" v="George Street" />
    <tag k="addr:state" v="VT" />
    <tag k="ref:vcgi:esiteid" v="453781" />
  </node>
  <node id="-671" visible="true" lat="44.0944961" lon="-72.34103273">
    <tag k="addr:city" v="Orange" />
    <tag k="addr:housenumber" v="4380" />
    <tag k="addr:street" v="East Orange Road" />
    <tag k="addr:state" v="VT" />
    <tag k="ref:vcgi:esiteid" v="611379" />
  </node>
  <node id="-672" visible="true" lat="44.13980983" lon="-72.32138954">
    <tag k="addr:city" v="Orange" />
    <tag k="addr:housenumber" v="12" />
    <tag k="addr:street" v="Wilson Drive" />
    <tag k="addr:state" v="VT" />
    <tag k="ref:vcgi:esiteid" v="611387" />
  </node>
  <node id="-673" visible="true" lat="44.1863996" lon="-72.39128198">
    <tag k="addr:city" v="Orange" />
    <tag k="addr:housenumber" v="214" />
    <tag k="addr:street" v="Smith Road" />
    <tag k="addr:state" v="VT" />
    <tag k="ref:vcgi:esiteid" v="611798" />
  </node>
  <node id="-674" visible="true" lat="44.19804859" lon="-72.37308578">
    <tag k="addr:city" v="Orange" />
    <tag k="addr:housenumber" v="130" />
    <tag k="addr:street" v="Back Country Road" />
    <tag k="addr:state" v="VT" />
    <tag k="ref:vcgi:esiteid" v="612070" />
  </node>
  <node id="-675" visible="true" lat="44.14832188" lon="-72.36769557">
    <tag k="addr:city" v="Orange" />
    <tag k="addr:housenumber" v="683" />
    <tag k="addr:street" v="U.S. Route 302" />
    <tag k="addr:state" v="VT" />
    <tag k="ref:vcgi:esiteid" v="612896" />
  </node>
  <node id="-676" visible="true" lat="44.20433013" lon="-72.41705179">
    <tag k="addr:city" v="Orange" />
    <tag k="addr:housenumber" v="2" />
    <tag k="addr:street" v="Preston Road" />
    <tag k="addr:state" v="VT" />
    <tag k="ref:vcgi:esiteid" v="612903" />
  </node>
  <node id="-677" visible="true" lat="44.15908339" lon="-72.31850835">
    <tag k="addr:city" v="Orange" />
    <tag k="addr:housenumber" v="270" />
    <tag k="addr:street" v="Clement Road" />
    <tag k="addr:state" v="VT" />
    <tag k="ref:vcgi:esiteid" v="612904" />
  </node>
  <node id="-678" visible="true" lat="44.13081444" lon="-72.43348884">
    <tag k="addr:city" v="Orange" />
    <tag k="addr:housenumber" v="272" />
    <tag k="addr:street" v="Vermont Route 110" />
    <tag k="addr:state" v="VT" />
    <tag k="ref:vcgi:esiteid" v="750457" />
  </node>
  <node id="-679" visible="true" lat="44.12861357" lon="-72.42762512">
    <tag k="addr:city" v="Orange" />
    <tag k="addr:housenumber" v="319" />
    <tag k="addr:street" v="Vermont Route 110" />
    <tag k="addr:state" v="VT" />
    <tag k="ref:vcgi:esiteid" v="750458" />
  </node>
  <node id="-680" visible="true" lat="44.09526225" lon="-72.34491259">
    <tag k="addr:city" v="Orange" />
    <tag k="addr:housenumber" v="4150" />
    <tag k="addr:street" v="East Orange Road" />
    <tag k="addr:state" v="VT" />
    <tag k="ref:vcgi:esiteid" v="751201" />
  </node>
  <node id="-681" visible="true" lat="44.18799493" lon="-72.39412248">
    <tag k="addr:city" v="Orange" />
    <tag k="addr:housenumber" v="9" />
    <tag k="addr:street" v="Kimberlee Lane" />
    <tag k="addr:state" v="VT" />
    <tag k="ref:vcgi:esiteid" v="751486" />
  </node>
  <node id="-682" visible="true" lat="44.15514215" lon="-72.43194144">
    <tag k="addr:city" v="Orange" />
    <tag k="addr:housenumber" v="11" />
    <tag k="addr:street" v="Moran Road" />
    <tag k="addr:state" v="VT" />
    <tag k="ref:vcgi:esiteid" v="753142" />
  </node>
  <node id="-683" visible="true" lat="44.19317403" lon="-72.39590205">
    <tag k="addr:city" v="Orange" />
    <tag k="addr:housenumber" v="115" />
    <tag k="addr:street" v="Smith Road" />
    <tag k="addr:state" v="VT" />
    <tag k="ref:vcgi:esiteid" v="753438" />
  </node>
  <node id="-684" visible="true" lat="44.13685231" lon="-72.38382184">
    <tag k="addr:city" v="Orange" />
    <tag k="addr:housenumber" v="51" />
    <tag k="addr:street" v="Melissa Lane" />
    <tag k="addr:state" v="VT" />
    <tag k="ref:vcgi:esiteid" v="756185" />
  </node>
  <node id="-685" visible="true" lat="44.15704584" lon="-72.31863356">
    <tag k="addr:city" v="Orange" />
    <tag k="addr:housenumber" v="222" />
    <tag k="addr:street" v="Clement Road" />
    <tag k="addr:state" v="VT" />
    <tag k="ref:vcgi:esiteid" v="757576" />
  </node>
  <node id="-686" visible="true" lat="44.14150357" lon="-72.41263806">
    <tag k="addr:city" v="Orange" />
    <tag k="addr:housenumber" v="99" />
    <tag k="addr:street" v="Tucker Road" />
    <tag k="addr:state" v="VT" />
    <tag k="ref:vcgi:esiteid" v="758496" />
  </node>
  <node id="-687" visible="true" lat="44.16474433" lon="-72.31688439">
    <tag k="addr:city" v="Orange" />
    <tag k="addr:housenumber" v="364" />
    <tag k="addr:street" v="Clement Road" />
    <tag k="addr:state" v="VT" />
    <tag k="ref:vcgi:esiteid" v="759226" />
  </node>
  <node id="-688" visible="true" lat="44.16208046" lon="-72.31898479">
    <tag k="addr:city" v="Orange" />
    <tag k="addr:housenumber" v="316" />
    <tag k="addr:street" v="Clement Road" />
    <tag k="addr:state" v="VT" />
    <tag k="ref:vcgi:esiteid" v="759344" />
  </node>
  <node id="-689" visible="true" lat="44.16445094" lon="-72.41033578">
    <tag k="addr:city" v="Orange" />
    <tag k="addr:housenumber" v="288" />
    <tag k="addr:street" v="George Street" />
    <tag k="addr:state" v="VT" />
    <tag k="ref:vcgi:esiteid" v="759345" />
  </node>
  <node id="-690" visible="true" lat="44.19891396" lon="-72.39944273">
    <tag k="addr:city" v="Orange" />
    <tag k="addr:housenumber" v="15" />
    <tag k="addr:street" v="R B B Drive" />
    <tag k="addr:state" v="VT" />
    <tag k="ref:vcgi:esiteid" v="759663" />
  </node>
  <node id="-693" visible="true" lat="44.14740736" lon="-72.42179348">
    <tag k="addr:city" v="Orange" />
    <tag k="addr:housenumber" v="59" />
    <tag k="addr:street" v="Helgesen Road" />
    <tag k="addr:state" v="VT" />
    <tag k="ref:vcgi:esiteid" v="760302" />
  </node>
  <node id="-694" visible="true" lat="44.13569858" lon="-72.3984748">
    <tag k="addr:city" v="Orange" />
    <tag k="addr:housenumber" v="134" />
    <tag k="addr:street" v="Keane Mountain Way" />
    <tag k="addr:state" v="VT" />
    <tag k="ref:vcgi:esiteid" v="760506" />
  </node>
  <node id="-696" visible="true" lat="44.135363" lon="-72.43663189">
    <tag k="addr:city" v="Orange" />
    <tag k="addr:housenumber" v="228" />
    <tag k="addr:street" v="Vermont Route 110" />
    <tag k="addr:state" v="VT" />
    <tag k="ref:vcgi:esiteid" v="762278" />
  </node>
</osm>
