<?xml version="1.0" encoding="UTF-8"?>
<osm version="0.6" generator="JOSM" upload="false">
  <node id="-100" visible="true" lat="44.32234904" lon="-72.28957603">
    <tag k="addr:housenumber" v="4239" />
    <tag k="addr:street" v="Vermont Route 232" />
    <tag k="addr:state" v="VT" />
    <tag k="ref:vcgi:esiteid" v="185950" />
  </node>
  <node id="-101" visible="true" lat="44.39172287" lon="-72.22734547">
    <tag k="addr:housenumber" v="618" />
    <tag k="addr:street" v="Young Farm Road" />
    <tag k="addr:state" v="VT" />
    <tag k="ref:vcgi:esiteid" v="185952" />
  </node>
  <node id="-102" visible="true" lat="44.3915961" lon="-72.22904362">
    <tag k="addr:housenumber" v="756" />
    <tag k="addr:street" v="Young Farm Road" />
    <tag k="addr:state" v="VT" />
    <tag k="ref:vcgi:esiteid" v="185953" />
  </node>
  <node id="-103" visible="true" lat="44.39060211" lon="-72.22953796">
    <tag k="addr:housenumber" v="379" />
    <tag k="addr:street" v="Young Farm Road" />
    <tag k="addr:state" v="VT" />
    <tag k="ref:vcgi:esiteid" v="185954" />
  </node>
  <node id="-104" visible="true" lat="44.39004517" lon="-72.22981262">
    <tag k="addr:housenumber" v="399" />
    <tag k="addr:street" v="Young Farm Road" />
    <tag k="addr:state" v="VT" />
    <tag k="ref:vcgi:esiteid" v="185955" />
  </node>
  <node id="-105" visible="true" lat="44.38961029" lon="-72.23014069">
    <tag k="addr:housenumber" v="433" />
    <tag k="addr:street" v="Young Farm Road" />
    <tag k="addr:state" v="VT" />
    <tag k="ref:vcgi:esiteid" v="185956" />
  </node>
  <node id="-106" visible="true" lat="44.38710758" lon="-72.20341837">
    <tag k="addr:housenumber" v="5244" />
    <tag k="addr:street" v="Bayley Hazen Road" />
    <tag k="addr:state" v="VT" />
    <tag k="ref:vcgi:esiteid" v="185957" />
  </node>
  <node id="-107" visible="true" lat="44.38557072" lon="-72.17585576">
    <tag k="addr:housenumber" v="1780" />
    <tag k="addr:street" v="Keiser Pond Road" />
    <tag k="addr:state" v="VT" />
    <tag k="ref:vcgi:esiteid" v="185958" />
  </node>
  <node id="-108" visible="true" lat="44.38408279" lon="-72.17932892">
    <tag k="addr:housenumber" v="307" />
    <tag k="addr:street" v="Deweysburg Road" />
    <tag k="addr:state" v="VT" />
    <tag k="ref:vcgi:esiteid" v="185960" />
  </node>
  <node id="-109" visible="true" lat="44.38539112" lon="-72.19433738">
    <tag k="addr:housenumber" v="4922" />
    <tag k="addr:street" v="Bayley Hazen Road" />
    <tag k="addr:state" v="VT" />
    <tag k="ref:vcgi:esiteid" v="185961" />
  </node>
  <node id="-110" visible="true" lat="44.38353294" lon="-72.20392243">
    <tag k="addr:housenumber" v="4931" />
    <tag k="addr:street" v="Bayley Hazen Road" />
    <tag k="addr:state" v="VT" />
    <tag k="ref:vcgi:esiteid" v="185962" />
  </node>
  <node id="-111" visible="true" lat="44.38297124" lon="-72.19784758">
    <tag k="addr:housenumber" v="4812" />
    <tag k="addr:street" v="Bayley Hazen Road" />
    <tag k="addr:state" v="VT" />
    <tag k="ref:vcgi:esiteid" v="185963" />
  </node>
  <node id="-112" visible="true" lat="44.38190842" lon="-72.1974411">
    <tag k="addr:housenumber" v="4754" />
    <tag k="addr:street" v="Bayley Hazen Road" />
    <tag k="addr:state" v="VT" />
    <tag k="ref:vcgi:esiteid" v="185964" />
  </node>
  <node id="-113" visible="true" lat="44.38187408" lon="-72.19966125">
    <tag k="addr:housenumber" v="4805" />
    <tag k="addr:street" v="Bayley Hazen Road" />
    <tag k="addr:state" v="VT" />
    <tag k="ref:vcgi:esiteid" v="185965" />
  </node>
  <node id="-114" visible="true" lat="44.38015335" lon="-72.1947162">
    <tag k="addr:housenumber" v="4573" />
    <tag k="addr:street" v="Bayley Hazen Road" />
    <tag k="addr:state" v="VT" />
    <tag k="ref:vcgi:esiteid" v="185966" />
  </node>
  <node id="-115" visible="true" lat="44.37564794" lon="-72.19105118">
    <tag k="addr:housenumber" v="4465" />
    <tag k="addr:street" v="Bayley Hazen Road" />
    <tag k="addr:state" v="VT" />
    <tag k="ref:vcgi:esiteid" v="185967" />
  </node>
  <node id="-116" visible="true" lat="44.37926102" lon="-72.23709106">
    <tag k="addr:housenumber" v="169" />
    <tag k="addr:street" v="Cow Hill Road" />
    <tag k="addr:state" v="VT" />
    <tag k="ref:vcgi:esiteid" v="185968" />
  </node>
  <node id="-117" visible="true" lat="44.37881638" lon="-72.19013151">
    <tag k="addr:housenumber" v="4364" />
    <tag k="addr:street" v="Bayley Hazen Road" />
    <tag k="addr:state" v="VT" />
    <tag k="ref:vcgi:esiteid" v="185969" />
  </node>
  <node id="-118" visible="true" lat="44.37874603" lon="-72.23589325">
    <tag k="addr:housenumber" v="213" />
    <tag k="addr:street" v="Cow Hill Road" />
    <tag k="addr:state" v="VT" />
    <tag k="ref:vcgi:esiteid" v="185970" />
  </node>
  <node id="-119" visible="true" lat="44.37613878" lon="-72.19068409">
    <tag k="addr:housenumber" v="4287" />
    <tag k="addr:street" v="Bayley Hazen Road" />
    <tag k="addr:state" v="VT" />
    <tag k="ref:vcgi:esiteid" v="185971" />
  </node>
  <node id="-120" visible="true" lat="44.37754763" lon="-72.18772865">
    <tag k="addr:housenumber" v="4190" />
    <tag k="addr:street" v="Bayley Hazen Road" />
    <tag k="addr:state" v="VT" />
    <tag k="ref:vcgi:esiteid" v="185972" />
  </node>
  <node id="-121" visible="true" lat="44.37393763" lon="-72.18375823">
    <tag k="addr:housenumber" v="3859" />
    <tag k="addr:street" v="Bayley Hazen Road" />
    <tag k="addr:state" v="VT" />
    <tag k="ref:vcgi:esiteid" v="185973" />
  </node>
  <node id="-122" visible="true" lat="44.3716258" lon="-72.19031535">
    <tag k="addr:housenumber" v="2671" />
    <tag k="addr:street" v="Slack Street" />
    <tag k="addr:state" v="VT" />
    <tag k="ref:vcgi:esiteid" v="185974" />
  </node>
  <node id="-123" visible="true" lat="44.37245715" lon="-72.17514814">
    <tag k="addr:housenumber" v="655" />
    <tag k="addr:street" v="Keiser Pond Road" />
    <tag k="addr:state" v="VT" />
    <tag k="ref:vcgi:esiteid" v="185975" />
  </node>
  <node id="-124" visible="true" lat="44.36998549" lon="-72.24773477">
    <tag k="addr:housenumber" v="5112" />
    <tag k="addr:street" v="Macks Mountain Road" />
    <tag k="addr:state" v="VT" />
    <tag k="ref:vcgi:esiteid" v="185976" />
  </node>
  <node id="-125" visible="true" lat="44.36997145" lon="-72.18364034">
    <tag k="addr:housenumber" v="3031" />
    <tag k="addr:street" v="Slack Street" />
    <tag k="addr:state" v="VT" />
    <tag k="ref:vcgi:esiteid" v="185977" />
  </node>
  <node id="-126" visible="true" lat="44.36971664" lon="-72.19226074">
    <tag k="addr:housenumber" v="2494" />
    <tag k="addr:street" v="Slack Street" />
    <tag k="addr:state" v="VT" />
    <tag k="ref:vcgi:esiteid" v="185978" />
  </node>
  <node id="-127" visible="true" lat="44.36737358" lon="-72.15267894">
    <tag k="addr:housenumber" v="1797" />
    <tag k="addr:street" v="Peacham Danville Road" />
    <tag k="addr:state" v="VT" />
    <tag k="ref:vcgi:esiteid" v="185979" />
  </node>
  <node id="-128" visible="true" lat="44.36715316" lon="-72.19490814">
    <tag k="addr:housenumber" v="2268" />
    <tag k="addr:street" v="Slack Street" />
    <tag k="addr:state" v="VT" />
    <tag k="ref:vcgi:esiteid" v="185980" />
  </node>
  <node id="-129" visible="true" lat="44.36651219" lon="-72.14746911">
    <tag k="addr:housenumber" v="2048" />
    <tag k="addr:street" v="Old County Road" />
    <tag k="addr:state" v="VT" />
    <tag k="ref:vcgi:esiteid" v="185981" />
  </node>
  <node id="-130" visible="true" lat="44.36642642" lon="-72.1819227">
    <tag k="addr:housenumber" v="2996" />
    <tag k="addr:street" v="Slack Street" />
    <tag k="addr:state" v="VT" />
    <tag k="ref:vcgi:esiteid" v="185982" />
  </node>
  <node id="-131" visible="true" lat="44.36629486" lon="-72.15625763">
    <tag k="addr:housenumber" v="1608" />
    <tag k="addr:street" v="Peacham Danville Road" />
    <tag k="addr:state" v="VT" />
    <tag k="ref:vcgi:esiteid" v="185983" />
  </node>
  <node id="-132" visible="true" lat="44.36607149" lon="-72.16004212">
    <tag k="addr:housenumber" v="1423" />
    <tag k="addr:street" v="Peacham Danville Road" />
    <tag k="addr:state" v="VT" />
    <tag k="ref:vcgi:esiteid" v="185984" />
  </node>
  <node id="-133" visible="true" lat="44.36623874" lon="-72.19600286">
    <tag k="addr:housenumber" v="2128" />
    <tag k="addr:street" v="Slack Street" />
    <tag k="addr:state" v="VT" />
    <tag k="ref:vcgi:esiteid" v="185985" />
  </node>
  <node id="-134" visible="true" lat="44.36597085" lon="-72.1473398">
    <tag k="addr:housenumber" v="1988" />
    <tag k="addr:street" v="Old County Road" />
    <tag k="addr:state" v="VT" />
    <tag k="ref:vcgi:esiteid" v="185986" />
  </node>
  <node id="-135" visible="true" lat="44.36534866" lon="-72.14832296">
    <tag k="addr:housenumber" v="1953" />
    <tag k="addr:street" v="Old County Road" />
    <tag k="addr:state" v="VT" />
    <tag k="ref:vcgi:esiteid" v="185987" />
  </node>
  <node id="-136" visible="true" lat="44.36542129" lon="-72.18032836">
    <tag k="addr:housenumber" v="3215" />
    <tag k="addr:street" v="Bayley Hazen Road" />
    <tag k="addr:state" v="VT" />
    <tag k="ref:vcgi:esiteid" v="185988" />
  </node>
  <node id="-137" visible="true" lat="44.36301559" lon="-72.17965843">
    <tag k="addr:housenumber" v="3095" />
    <tag k="addr:street" v="Bayley Hazen Road" />
    <tag k="addr:state" v="VT" />
    <tag k="ref:vcgi:esiteid" v="185989" />
  </node>
  <node id="-138" visible="true" lat="44.36313689" lon="-72.1650656">
    <tag k="addr:housenumber" v="1090" />
    <tag k="addr:street" v="Peacham Danville Road" />
    <tag k="addr:state" v="VT" />
    <tag k="ref:vcgi:esiteid" v="185990" />
  </node>
  <node id="-139" visible="true" lat="44.36312827" lon="-72.16617931">
    <tag k="addr:housenumber" v="1047" />
    <tag k="addr:street" v="Peacham Danville Road" />
    <tag k="addr:state" v="VT" />
    <tag k="ref:vcgi:esiteid" v="185991" />
  </node>
  <node id="-140" visible="true" lat="44.36286163" lon="-72.17386627">
    <tag k="addr:housenumber" v="107" />
    <tag k="addr:street" v="Still Run" />
    <tag k="addr:state" v="VT" />
    <tag k="ref:vcgi:esiteid" v="185992" />
  </node>
  <node id="-141" visible="true" lat="44.36281585" lon="-72.19392395">
    <tag k="addr:housenumber" v="1860" />
    <tag k="addr:street" v="Slack Street" />
    <tag k="addr:state" v="VT" />
    <tag k="ref:vcgi:esiteid" v="185993" />
  </node>
  <node id="-142" visible="true" lat="44.3623848" lon="-72.17373657">
    <tag k="addr:housenumber" v="108" />
    <tag k="addr:street" v="Still Run" />
    <tag k="addr:state" v="VT" />
    <tag k="ref:vcgi:esiteid" v="185994" />
  </node>
  <node id="-143" visible="true" lat="44.36208993" lon="-72.16773199">
    <tag k="addr:housenumber" v="7" />
    <tag k="addr:street" v="Keiser Pond Road" />
    <tag k="addr:state" v="VT" />
    <tag k="ref:vcgi:esiteid" v="185995" />
  </node>
  <node id="-144" visible="true" lat="44.36122131" lon="-72.24447632">
    <tag k="addr:housenumber" v="4433" />
    <tag k="addr:street" v="Macks Mountain Road" />
    <tag k="addr:state" v="VT" />
    <tag k="ref:vcgi:esiteid" v="185996" />
  </node>
  <node id="-145" visible="true" lat="44.3608017" lon="-72.12388611">
    <tag k="addr:housenumber" v="2913" />
    <tag k="addr:street" v="Thaddeus Stevens Road" />
    <tag k="addr:state" v="VT" />
    <tag k="ref:vcgi:esiteid" v="185997" />
  </node>
  <node id="-146" visible="true" lat="44.36102676" lon="-72.24693298">
    <tag k="addr:housenumber" v="4565" />
    <tag k="addr:street" v="Macks Mountain Road" />
    <tag k="addr:state" v="VT" />
    <tag k="ref:vcgi:esiteid" v="185998" />
  </node>
  <node id="-147" visible="true" lat="44.36075974" lon="-72.24119568">
    <tag k="addr:housenumber" v="4278" />
    <tag k="addr:street" v="Macks Mountain Road" />
    <tag k="addr:state" v="VT" />
    <tag k="ref:vcgi:esiteid" v="185999" />
  </node>
  <node id="-148" visible="true" lat="44.36035156" lon="-72.17602539">
    <tag k="addr:housenumber" v="331" />
    <tag k="addr:street" v="Ewell Mill Road" />
    <tag k="addr:state" v="VT" />
    <tag k="ref:vcgi:esiteid" v="186000" />
  </node>
  <node id="-149" visible="true" lat="44.36027145" lon="-72.17205048">
    <tag k="addr:housenumber" v="699" />
    <tag k="addr:street" v="Peacham Danville Road" />
    <tag k="addr:state" v="VT" />
    <tag k="ref:vcgi:esiteid" v="186001" />
  </node>
  <node id="-150" visible="true" lat="44.35979462" lon="-72.17131805">
    <tag k="addr:housenumber" v="734" />
    <tag k="addr:street" v="Peacham Danville Road" />
    <tag k="addr:state" v="VT" />
    <tag k="ref:vcgi:esiteid" v="186002" />
  </node>
  <node id="-151" visible="true" lat="44.35964584" lon="-72.17195129">
    <tag k="addr:housenumber" v="692" />
    <tag k="addr:street" v="Peacham Danville Road" />
    <tag k="addr:state" v="VT" />
    <tag k="ref:vcgi:esiteid" v="186003" />
  </node>
  <node id="-152" visible="true" lat="44.35951614" lon="-72.14888763">
    <tag k="addr:housenumber" v="1537" />
    <tag k="addr:street" v="Old County Road" />
    <tag k="addr:state" v="VT" />
    <tag k="ref:vcgi:esiteid" v="186004" />
  </node>
  <node id="-153" visible="true" lat="44.35942078" lon="-72.17340088">
    <tag k="addr:housenumber" v="11" />
    <tag k="addr:street" v="Ewell Mill Road" />
    <tag k="addr:state" v="VT" />
    <tag k="ref:vcgi:esiteid" v="186005" />
  </node>
  <node id="-154" visible="true" lat="44.35903931" lon="-72.17302704">
    <tag k="addr:housenumber" v="600" />
    <tag k="addr:street" v="Peacham Danville Road" />
    <tag k="addr:state" v="VT" />
    <tag k="ref:vcgi:esiteid" v="186006" />
  </node>
  <node id="-155" visible="true" lat="44.35901095" lon="-72.24428645">
    <tag k="addr:housenumber" v="115" />
    <tag k="addr:street" v="Hookerville Cutoff" />
    <tag k="addr:state" v="VT" />
    <tag k="ref:vcgi:esiteid" v="186007" />
  </node>
  <node id="-156" visible="true" lat="44.35873794" lon="-72.23775482">
    <tag k="addr:housenumber" v="4080" />
    <tag k="addr:street" v="Macks Mountain Road" />
    <tag k="addr:state" v="VT" />
    <tag k="ref:vcgi:esiteid" v="186008" />
  </node>
  <node id="-157" visible="true" lat="44.35854174" lon="-72.17347602">
    <tag k="addr:housenumber" v="13" />
    <tag k="addr:street" v="East Peacham Road" />
    <tag k="addr:state" v="VT" />
    <tag k="ref:vcgi:esiteid" v="186009" />
  </node>
  <node id="-158" visible="true" lat="44.35788345" lon="-72.17533874">
    <tag k="addr:housenumber" v="487" />
    <tag k="addr:street" v="Peacham Danville Road" />
    <tag k="addr:state" v="VT" />
    <tag k="ref:vcgi:esiteid" v="186010" />
  </node>
  <node id="-159" visible="true" lat="44.35784311" lon="-72.23012751">
    <tag k="addr:housenumber" v="3752" />
    <tag k="addr:street" v="Macks Mountain Road" />
    <tag k="addr:state" v="VT" />
    <tag k="ref:vcgi:esiteid" v="186011" />
  </node>
  <node id="-160" visible="true" lat="44.35747528" lon="-72.1235733">
    <tag k="addr:housenumber" v="2676" />
    <tag k="addr:street" v="Thaddeus Stevens Road" />
    <tag k="addr:state" v="VT" />
    <tag k="ref:vcgi:esiteid" v="186012" />
  </node>
  <node id="-161" visible="true" lat="44.35782043" lon="-72.09982243">
    <tag k="addr:housenumber" v="1017" />
    <tag k="addr:street" v="Rake Factory Road" />
    <tag k="addr:state" v="VT" />
    <tag k="ref:vcgi:esiteid" v="186013" />
  </node>
  <node id="-162" visible="true" lat="44.35784712" lon="-72.23226088">
    <tag k="addr:housenumber" v="3764" />
    <tag k="addr:street" v="Macks Mountain Road" />
    <tag k="addr:state" v="VT" />
    <tag k="ref:vcgi:esiteid" v="186014" />
  </node>
  <node id="-163" visible="true" lat="44.35723114" lon="-72.12740326">
    <tag k="addr:housenumber" v="1219" />
    <tag k="addr:street" v="East Hill Road" />
    <tag k="addr:state" v="VT" />
    <tag k="ref:vcgi:esiteid" v="186015" />
  </node>
  <node id="-164" visible="true" lat="44.35763259" lon="-72.23276293">
    <tag k="addr:housenumber" v="3814" />
    <tag k="addr:street" v="Macks Mountain Road" />
    <tag k="addr:state" v="VT" />
    <tag k="ref:vcgi:esiteid" v="186016" />
  </node>
  <node id="-165" visible="true" lat="44.35733967" lon="-72.16582949">
    <tag k="addr:housenumber" v="313" />
    <tag k="addr:street" v="Taylor Road" />
    <tag k="addr:state" v="VT" />
    <tag k="ref:vcgi:esiteid" v="186017" />
  </node>
  <node id="-166" visible="true" lat="44.35715484" lon="-72.17407226">
    <tag k="addr:housenumber" v="464" />
    <tag k="addr:street" v="Peacham Danville Road" />
    <tag k="addr:state" v="VT" />
    <tag k="ref:vcgi:esiteid" v="186018" />
  </node>
  <node id="-167" visible="true" lat="44.3567543" lon="-72.12882233">
    <tag k="addr:housenumber" v="1147" />
    <tag k="addr:street" v="East Hill Road" />
    <tag k="addr:state" v="VT" />
    <tag k="ref:vcgi:esiteid" v="186019" />
  </node>
  <node id="-168" visible="true" lat="44.35679627" lon="-72.14871216">
    <tag k="addr:housenumber" v="1356" />
    <tag k="addr:street" v="Old County Road" />
    <tag k="addr:state" v="VT" />
    <tag k="ref:vcgi:esiteid" v="186020" />
  </node>
  <node id="-169" visible="true" lat="44.35966026" lon="-72.2065704">
    <tag k="addr:housenumber" v="1535" />
    <tag k="addr:street" v="Penny Street" />
    <tag k="addr:state" v="VT" />
    <tag k="ref:vcgi:esiteid" v="186021" />
  </node>
  <node id="-170" visible="true" lat="44.35662079" lon="-72.22943878">
    <tag k="addr:housenumber" v="3644" />
    <tag k="addr:street" v="Macks Mountain Road" />
    <tag k="addr:state" v="VT" />
    <tag k="ref:vcgi:esiteid" v="186022" />
  </node>
  <node id="-171" visible="true" lat="44.35623169" lon="-72.17651367">
    <tag k="addr:housenumber" v="335" />
    <tag k="addr:street" v="Peacham Danville Road" />
    <tag k="addr:state" v="VT" />
    <tag k="ref:vcgi:esiteid" v="186023" />
  </node>
  <node id="-172" visible="true" lat="44.35576248" lon="-72.10901642">
    <tag k="addr:housenumber" v="497" />
    <tag k="addr:street" v="Rake Factory Road" />
    <tag k="addr:state" v="VT" />
    <tag k="ref:vcgi:esiteid" v="186024" />
  </node>
  <node id="-173" visible="true" lat="44.35572203" lon="-72.22454049">
    <tag k="addr:housenumber" v="3554" />
    <tag k="addr:street" v="Macks Mountain Road" />
    <tag k="addr:state" v="VT" />
    <tag k="ref:vcgi:esiteid" v="186025" />
  </node>
  <node id="-174" visible="true" lat="44.35533324" lon="-72.17798522">
    <tag k="addr:housenumber" v="2528" />
    <tag k="addr:street" v="Bayley Hazen Road" />
    <tag k="addr:state" v="VT" />
    <tag k="ref:vcgi:esiteid" v="186026" />
  </node>
  <node id="-175" visible="true" lat="44.35475968" lon="-72.10871315">
    <tag k="addr:housenumber" v="440" />
    <tag k="addr:street" v="Rake Factory Road" />
    <tag k="addr:state" v="VT" />
    <tag k="ref:vcgi:esiteid" v="186027" />
  </node>
  <node id="-176" visible="true" lat="44.35465521" lon="-72.11018897">
    <tag k="addr:housenumber" v="343" />
    <tag k="addr:street" v="Rake Factory Road" />
    <tag k="addr:state" v="VT" />
    <tag k="ref:vcgi:esiteid" v="186028" />
  </node>
  <node id="-177" visible="true" lat="44.35402407" lon="-72.22754648">
    <tag k="addr:housenumber" v="3495" />
    <tag k="addr:street" v="Macks Mountain Road" />
    <tag k="addr:state" v="VT" />
    <tag k="ref:vcgi:esiteid" v="186029" />
  </node>
  <node id="-178" visible="true" lat="44.35422536" lon="-72.15108191">
    <tag k="addr:housenumber" v="1138" />
    <tag k="addr:street" v="Old County Road" />
    <tag k="addr:state" v="VT" />
    <tag k="ref:vcgi:esiteid" v="186030" />
  </node>
  <node id="-179" visible="true" lat="44.3540802" lon="-72.18822479">
    <tag k="addr:housenumber" v="1183" />
    <tag k="addr:street" v="Slack Street" />
    <tag k="addr:state" v="VT" />
    <tag k="ref:vcgi:esiteid" v="186031" />
  </node>
  <node id="-180" visible="true" lat="44.35374542" lon="-72.22660247">
    <tag k="addr:housenumber" v="3399" />
    <tag k="addr:street" v="Macks Mountain Road" />
    <tag k="addr:state" v="VT" />
    <tag k="ref:vcgi:esiteid" v="186032" />
  </node>
  <node id="-181" visible="true" lat="44.35308427" lon="-72.15379031">
    <tag k="addr:housenumber" v="995" />
    <tag k="addr:street" v="Old County Road" />
    <tag k="addr:state" v="VT" />
    <tag k="ref:vcgi:esiteid" v="186033" />
  </node>
  <node id="-182" visible="true" lat="44.35202721" lon="-72.2247206">
    <tag k="addr:housenumber" v="3385" />
    <tag k="addr:street" v="Macks Mountain Road" />
    <tag k="addr:state" v="VT" />
    <tag k="ref:vcgi:esiteid" v="186034" />
  </node>
  <node id="-183" visible="true" lat="44.34845385" lon="-72.23909986">
    <tag k="addr:housenumber" v="3525" />
    <tag k="addr:street" v="Macks Mountain Road" />
    <tag k="addr:state" v="VT" />
    <tag k="ref:vcgi:esiteid" v="186035" />
  </node>
  <node id="-184" visible="true" lat="44.35282898" lon="-72.17207336">
    <tag k="addr:housenumber" v="422" />
    <tag k="addr:street" v="East Peacham Road" />
    <tag k="addr:state" v="VT" />
    <tag k="ref:vcgi:esiteid" v="186036" />
  </node>
  <node id="-185" visible="true" lat="44.35314747" lon="-72.22330186">
    <tag k="addr:housenumber" v="3262" />
    <tag k="addr:street" v="Macks Mountain Road" />
    <tag k="addr:state" v="VT" />
    <tag k="ref:vcgi:esiteid" v="186037" />
  </node>
  <node id="-186" visible="true" lat="44.35228438" lon="-72.15625305">
    <tag k="addr:housenumber" v="845" />
    <tag k="addr:street" v="Old County Road" />
    <tag k="addr:state" v="VT" />
    <tag k="ref:vcgi:esiteid" v="186038" />
  </node>
  <node id="-187" visible="true" lat="44.35265793" lon="-72.17100728">
    <tag k="addr:housenumber" v="455" />
    <tag k="addr:street" v="East Peacham Road" />
    <tag k="addr:state" v="VT" />
    <tag k="ref:vcgi:esiteid" v="186039" />
  </node>
  <node id="-188" visible="true" lat="44.35775489" lon="-72.20457932">
    <tag k="addr:housenumber" v="931" />
    <tag k="addr:street" v="Penny Street" />
    <tag k="addr:state" v="VT" />
    <tag k="ref:vcgi:esiteid" v="186040" />
  </node>
  <node id="-189" visible="true" lat="44.35163508" lon="-72.22402575">
    <tag k="addr:housenumber" v="3207" />
    <tag k="addr:street" v="Macks Mountain Road" />
    <tag k="addr:state" v="VT" />
    <tag k="ref:vcgi:esiteid" v="186041" />
  </node>
  <node id="-190" visible="true" lat="44.35129166" lon="-72.19642639">
    <tag k="addr:housenumber" v="859" />
    <tag k="addr:street" v="Penny Street" />
    <tag k="addr:state" v="VT" />
    <tag k="ref:vcgi:esiteid" v="186042" />
  </node>
  <node id="-191" visible="true" lat="44.35089267" lon="-72.21942153">
    <tag k="addr:housenumber" v="3056" />
    <tag k="addr:street" v="Macks Mountain Road" />
    <tag k="addr:state" v="VT" />
    <tag k="ref:vcgi:esiteid" v="186043" />
  </node>
  <node id="-192" visible="true" lat="44.35050201" lon="-72.1256485">
    <tag k="addr:housenumber" v="2113" />
    <tag k="addr:street" v="Thaddeus Stevens Road" />
    <tag k="addr:state" v="VT" />
    <tag k="ref:vcgi:esiteid" v="186044" />
  </node>
  <node id="-193" visible="true" lat="44.34862099" lon="-72.10728007">
    <tag k="addr:housenumber" v="825" />
    <tag k="addr:street" v="Varnum Street" />
    <tag k="addr:state" v="VT" />
    <tag k="ref:vcgi:esiteid" v="186045" />
  </node>
  <node id="-194" visible="true" lat="44.34809514" lon="-72.15879257">
    <tag k="addr:housenumber" v="547" />
    <tag k="addr:street" v="Old County Road" />
    <tag k="addr:state" v="VT" />
    <tag k="ref:vcgi:esiteid" v="186046" />
  </node>
  <node id="-195" visible="true" lat="44.34673329" lon="-72.16091133">
    <tag k="addr:housenumber" v="467" />
    <tag k="addr:street" v="Old County Road" />
    <tag k="addr:state" v="VT" />
    <tag k="ref:vcgi:esiteid" v="186047" />
  </node>
  <node id="-196" visible="true" lat="44.34663773" lon="-72.15956116">
    <tag k="addr:housenumber" v="465" />
    <tag k="addr:street" v="Old County Road" />
    <tag k="addr:state" v="VT" />
    <tag k="ref:vcgi:esiteid" v="186048" />
  </node>
  <node id="-197" visible="true" lat="44.3462944" lon="-72.13323975">
    <tag k="addr:housenumber" v="1767" />
    <tag k="addr:street" v="Thaddeus Stevens Road" />
    <tag k="addr:state" v="VT" />
    <tag k="ref:vcgi:esiteid" v="186049" />
  </node>
  <node id="-198" visible="true" lat="44.34614563" lon="-72.16294861">
    <tag k="addr:housenumber" v="1087" />
    <tag k="addr:street" v="East Peacham Road" />
    <tag k="addr:state" v="VT" />
    <tag k="ref:vcgi:esiteid" v="186050" />
  </node>
  <node id="-199" visible="true" lat="44.34617614" lon="-72.25408172">
    <tag k="addr:housenumber" v="505" />
    <tag k="addr:street" v="Peacham Pond Road" />
    <tag k="addr:state" v="VT" />
    <tag k="ref:vcgi:esiteid" v="186051" />
  </node>
  <node id="-200" visible="true" lat="44.34594065" lon="-72.21619687">
    <tag k="addr:housenumber" v="2621" />
    <tag k="addr:street" v="Macks Mountain Road" />
    <tag k="addr:state" v="VT" />
    <tag k="ref:vcgi:esiteid" v="186052" />
  </node>
  <node id="-201" visible="true" lat="44.34581757" lon="-72.1641922">
    <tag k="addr:housenumber" v="1044" />
    <tag k="addr:street" v="East Peacham Road" />
    <tag k="addr:state" v="VT" />
    <tag k="ref:vcgi:esiteid" v="186053" />
  </node>
  <node id="-202" visible="true" lat="44.34568787" lon="-72.131073">
    <tag k="addr:housenumber" v="1766" />
    <tag k="addr:street" v="Thaddeus Stevens Road" />
    <tag k="addr:state" v="VT" />
    <tag k="ref:vcgi:esiteid" v="186054" />
  </node>
  <node id="-203" visible="true" lat="44.34569931" lon="-72.18688965">
    <tag k="addr:housenumber" v="242" />
    <tag k="addr:street" v="Penny Street" />
    <tag k="addr:state" v="VT" />
    <tag k="ref:vcgi:esiteid" v="186055" />
  </node>
  <node id="-204" visible="true" lat="44.34543188" lon="-72.15867409">
    <tag k="addr:housenumber" v="364" />
    <tag k="addr:street" v="Old County Road" />
    <tag k="addr:state" v="VT" />
    <tag k="ref:vcgi:esiteid" v="186056" />
  </node>
  <node id="-205" visible="true" lat="44.34518051" lon="-72.15979004">
    <tag k="addr:housenumber" v="309" />
    <tag k="addr:street" v="Old County Road" />
    <tag k="addr:state" v="VT" />
    <tag k="ref:vcgi:esiteid" v="186057" />
  </node>
  <node id="-206" visible="true" lat="44.34495972" lon="-72.14485834">
    <tag k="addr:housenumber" v="171" />
    <tag k="addr:street" v="Way Road" />
    <tag k="addr:state" v="VT" />
    <tag k="ref:vcgi:esiteid" v="186058" />
  </node>
  <node id="-207" visible="true" lat="44.34423797" lon="-72.14325459">
    <tag k="addr:housenumber" v="98" />
    <tag k="addr:street" v="Way Road" />
    <tag k="addr:state" v="VT" />
    <tag k="ref:vcgi:esiteid" v="186059" />
  </node>
  <node id="-208" visible="true" lat="44.34427261" lon="-72.13457489">
    <tag k="addr:housenumber" v="1493" />
    <tag k="addr:street" v="Thaddeus Stevens Road" />
    <tag k="addr:state" v="VT" />
    <tag k="ref:vcgi:esiteid" v="186060" />
  </node>
  <node id="-209" visible="true" lat="44.34410476" lon="-72.21438598">
    <tag k="addr:housenumber" v="2467" />
    <tag k="addr:street" v="Macks Mountain Road" />
    <tag k="addr:state" v="VT" />
    <tag k="ref:vcgi:esiteid" v="186061" />
  </node>
  <node id="-210" visible="true" lat="44.34389114" lon="-72.18105316">
    <tag k="addr:housenumber" v="322" />
    <tag k="addr:street" v="Slack Street" />
    <tag k="addr:state" v="VT" />
    <tag k="ref:vcgi:esiteid" v="186062" />
  </node>
  <node id="-211" visible="true" lat="44.34365844" lon="-72.17652893">
    <tag k="addr:housenumber" v="1721" />
    <tag k="addr:street" v="Bayley Hazen Road" />
    <tag k="addr:state" v="VT" />
    <tag k="ref:vcgi:esiteid" v="186063" />
  </node>
  <node id="-212" visible="true" lat="44.34353372" lon="-72.14301407">
    <tag k="addr:housenumber" v="969" />
    <tag k="addr:street" v="Thaddeus Stevens Road" />
    <tag k="addr:state" v="VT" />
    <tag k="ref:vcgi:esiteid" v="186065" />
  </node>
  <node id="-213" visible="true" lat="44.3429985" lon="-72.16203308">
    <tag k="addr:housenumber" v="1272" />
    <tag k="addr:street" v="East Peacham Road" />
    <tag k="addr:state" v="VT" />
    <tag k="ref:vcgi:esiteid" v="186066" />
  </node>
  <node id="-214" visible="true" lat="44.34243011" lon="-72.14696503">
    <tag k="addr:housenumber" v="767" />
    <tag k="addr:street" v="Thaddeus Stevens Road" />
    <tag k="addr:state" v="VT" />
    <tag k="ref:vcgi:esiteid" v="186067" />
  </node>
  <node id="-215" visible="true" lat="44.34227371" lon="-72.1353836">
    <tag k="addr:housenumber" v="1365" />
    <tag k="addr:street" v="Thaddeus Stevens Road" />
    <tag k="addr:state" v="VT" />
    <tag k="ref:vcgi:esiteid" v="186068" />
  </node>
  <node id="-216" visible="true" lat="44.34233093" lon="-72.18706512">
    <tag k="addr:housenumber" v="756" />
    <tag k="addr:street" v="Hapenny Road" />
    <tag k="addr:state" v="VT" />
    <tag k="ref:vcgi:esiteid" v="186069" />
  </node>
  <node id="-217" visible="true" lat="44.34228515" lon="-72.17965698">
    <tag k="addr:housenumber" v="238" />
    <tag k="addr:street" v="Slack Street" />
    <tag k="addr:state" v="VT" />
    <tag k="ref:vcgi:esiteid" v="186070" />
  </node>
  <node id="-218" visible="true" lat="44.34245622" lon="-72.26575764">
    <tag k="addr:housenumber" v="123" />
    <tag k="addr:street" v="Kellogg Mill Road" />
    <tag k="addr:state" v="VT" />
    <tag k="ref:vcgi:esiteid" v="186071" />
  </node>
  <node id="-219" visible="true" lat="44.34193039" lon="-72.13502503">
    <tag k="addr:housenumber" v="31" />
    <tag k="addr:street" v="Somers Road" />
    <tag k="addr:state" v="VT" />
    <tag k="ref:vcgi:esiteid" v="186072" />
  </node>
  <node id="-220" visible="true" lat="44.34197617" lon="-72.18989563">
    <tag k="addr:housenumber" v="719" />
    <tag k="addr:street" v="Hapenny Road" />
    <tag k="addr:state" v="VT" />
    <tag k="ref:vcgi:esiteid" v="186073" />
  </node>
  <node id="-221" visible="true" lat="44.34189987" lon="-72.17630004">
    <tag k="addr:housenumber" v="1599" />
    <tag k="addr:street" v="Bayley Hazen Road" />
    <tag k="addr:state" v="VT" />
    <tag k="ref:vcgi:esiteid" v="186074" />
  </node>
  <node id="-222" visible="true" lat="44.34160614" lon="-72.11914825">
    <tag k="addr:housenumber" v="706" />
    <tag k="addr:street" v="Morrison Hill Road" />
    <tag k="addr:state" v="VT" />
    <tag k="ref:vcgi:esiteid" v="186075" />
  </node>
  <node id="-223" visible="true" lat="44.34179306" lon="-72.21330261">
    <tag k="addr:housenumber" v="116" />
    <tag k="addr:street" v="Lanesboro Road" />
    <tag k="addr:state" v="VT" />
    <tag k="ref:vcgi:esiteid" v="186076" />
  </node>
  <node id="-224" visible="true" lat="44.34145355" lon="-72.16221618">
    <tag k="addr:housenumber" v="1518" />
    <tag k="addr:street" v="East Peacham Road" />
    <tag k="addr:state" v="VT" />
    <tag k="ref:vcgi:esiteid" v="186077" />
  </node>
  <node id="-225" visible="true" lat="44.34159088" lon="-72.26387786">
    <tag k="addr:housenumber" v="169" />
    <tag k="addr:street" v="Peacham Pond Road" />
    <tag k="addr:state" v="VT" />
    <tag k="ref:vcgi:esiteid" v="186078" />
  </node>
  <node id="-226" visible="true" lat="44.34132767" lon="-72.15939331">
    <tag k="addr:housenumber" v="80" />
    <tag k="addr:street" v="Old County Road" />
    <tag k="addr:state" v="VT" />
    <tag k="ref:vcgi:esiteid" v="186079" />
  </node>
  <node id="-227" visible="true" lat="44.34128189" lon="-72.17781066">
    <tag k="addr:housenumber" v="123" />
    <tag k="addr:street" v="Slack Street" />
    <tag k="addr:state" v="VT" />
    <tag k="ref:vcgi:esiteid" v="186080" />
  </node>
  <node id="-228" visible="true" lat="44.34124374" lon="-72.174263">
    <tag k="addr:housenumber" v="1510" />
    <tag k="addr:street" v="Bayley Hazen Road" />
    <tag k="addr:state" v="VT" />
    <tag k="ref:vcgi:esiteid" v="186081" />
  </node>
  <node id="-229" visible="true" lat="44.33868896" lon="-72.26203337">
    <tag k="addr:housenumber" v="306" />
    <tag k="addr:street" v="Peacham Pond Road" />
    <tag k="addr:state" v="VT" />
    <tag k="ref:vcgi:esiteid" v="186082" />
  </node>
  <node id="-230" visible="true" lat="44.34098002" lon="-72.14645647">
    <tag k="addr:housenumber" v="696" />
    <tag k="addr:street" v="Thaddeus Stevens Road" />
    <tag k="addr:state" v="VT" />
    <tag k="ref:vcgi:esiteid" v="186083" />
  </node>
  <node id="-231" visible="true" lat="44.34085846" lon="-72.11917877">
    <tag k="addr:housenumber" v="752" />
    <tag k="addr:street" v="Morrison Hill Road" />
    <tag k="addr:state" v="VT" />
    <tag k="ref:vcgi:esiteid" v="186084" />
  </node>
  <node id="-232" visible="true" lat="44.34090805" lon="-72.16835784">
    <tag k="addr:housenumber" v="1614" />
    <tag k="addr:street" v="Bayley Hazen Road" />
    <tag k="addr:state" v="VT" />
    <tag k="ref:vcgi:esiteid" v="186085" />
  </node>
  <node id="-233" visible="true" lat="44.34011149" lon="-72.26150139">
    <tag k="addr:housenumber" v="150" />
    <tag k="addr:street" v="Peacham Pond Road" />
    <tag k="addr:state" v="VT" />
    <tag k="ref:vcgi:esiteid" v="186086" />
  </node>
  <node id="-234" visible="true" lat="44.34084701" lon="-72.18850708">
    <tag k="addr:housenumber" v="603" />
    <tag k="addr:street" v="Hapenny Road" />
    <tag k="addr:state" v="VT" />
    <tag k="ref:vcgi:esiteid" v="186087" />
  </node>
  <node id="-235" visible="true" lat="44.34090606" lon="-72.26687389">
    <tag k="addr:housenumber" v="232" />
    <tag k="addr:street" v="Kellogg Mill Road" />
    <tag k="addr:state" v="VT" />
    <tag k="ref:vcgi:esiteid" v="186088" />
  </node>
  <node id="-236" visible="true" lat="44.34045964" lon="-72.1529652">
    <tag k="addr:housenumber" v="368" />
    <tag k="addr:street" v="Thaddeus Stevens Road" />
    <tag k="addr:state" v="VT" />
    <tag k="ref:vcgi:esiteid" v="186089" />
  </node>
  <node id="-237" visible="true" lat="44.34025016" lon="-72.15285112">
    <tag k="addr:housenumber" v="348" />
    <tag k="addr:street" v="Thaddeus Stevens Road" />
    <tag k="addr:state" v="VT" />
    <tag k="ref:vcgi:esiteid" v="186090" />
  </node>
  <node id="-238" visible="true" lat="44.34012384" lon="-72.15980069">
    <tag k="addr:housenumber" v="1494" />
    <tag k="addr:street" v="East Peacham Road" />
    <tag k="addr:state" v="VT" />
    <tag k="ref:vcgi:esiteid" v="186091" />
  </node>
  <node id="-239" visible="true" lat="44.34027101" lon="-72.26833432">
    <tag k="addr:housenumber" v="326" />
    <tag k="addr:street" v="Kellogg Mill Road" />
    <tag k="addr:state" v="VT" />
    <tag k="ref:vcgi:esiteid" v="186092" />
  </node>
  <node id="-240" visible="true" lat="44.33999369" lon="-72.15527122">
    <tag k="addr:housenumber" v="237" />
    <tag k="addr:street" v="Thaddeus Stevens Road" />
    <tag k="addr:state" v="VT" />
    <tag k="ref:vcgi:esiteid" v="186093" />
  </node>
  <node id="-241" visible="true" lat="44.34002686" lon="-72.20529175">
    <tag k="addr:housenumber" v="1950" />
    <tag k="addr:street" v="Macks Mountain Road" />
    <tag k="addr:state" v="VT" />
    <tag k="ref:vcgi:esiteid" v="186094" />
  </node>
  <node id="-242" visible="true" lat="44.33983994" lon="-72.15406036">
    <tag k="addr:housenumber" v="292" />
    <tag k="addr:street" v="Thaddeus Stevens Road" />
    <tag k="addr:state" v="VT" />
    <tag k="ref:vcgi:esiteid" v="186095" />
  </node>
  <node id="-243" visible="true" lat="44.33965301" lon="-72.1735382">
    <tag k="addr:housenumber" v="1384" />
    <tag k="addr:street" v="Bayley Hazen Road" />
    <tag k="addr:state" v="VT" />
    <tag k="ref:vcgi:esiteid" v="186096" />
  </node>
  <node id="-244" visible="true" lat="44.3395958" lon="-72.15958405">
    <tag k="addr:housenumber" v="1538" />
    <tag k="addr:street" v="East Peacham Road" />
    <tag k="addr:state" v="VT" />
    <tag k="ref:vcgi:esiteid" v="186097" />
  </node>
  <node id="-245" visible="true" lat="44.33964261" lon="-72.2102679">
    <tag k="addr:housenumber" v="2021" />
    <tag k="addr:street" v="Macks Mountain Road" />
    <tag k="addr:state" v="VT" />
    <tag k="ref:vcgi:esiteid" v="186098" />
  </node>
  <node id="-246" visible="true" lat="44.33917703" lon="-72.15957466">
    <tag k="addr:housenumber" v="1556" />
    <tag k="addr:street" v="East Peacham Road" />
    <tag k="addr:state" v="VT" />
    <tag k="ref:vcgi:esiteid" v="186099" />
  </node>
  <node id="-247" visible="true" lat="44.33884254" lon="-72.1548958">
    <tag k="addr:housenumber" v="244" />
    <tag k="addr:street" v="Thaddeus Stevens Road" />
    <tag k="addr:state" v="VT" />
    <tag k="ref:vcgi:esiteid" v="186100" />
  </node>
  <node id="-248" visible="true" lat="44.33896979" lon="-72.18542169">
    <tag k="addr:housenumber" v="510" />
    <tag k="addr:street" v="Hapenny Road" />
    <tag k="addr:state" v="VT" />
    <tag k="ref:vcgi:esiteid" v="186101" />
  </node>
  <node id="-249" visible="true" lat="44.33877456" lon="-72.15926188">
    <tag k="addr:housenumber" v="1594" />
    <tag k="addr:street" v="East Peacham Road" />
    <tag k="addr:state" v="VT" />
    <tag k="ref:vcgi:esiteid" v="186102" />
  </node>
  <node id="-250" visible="true" lat="44.33892822" lon="-72.26538085">
    <tag k="addr:housenumber" v="333" />
    <tag k="addr:street" v="Kellogg Mill Road" />
    <tag k="addr:state" v="VT" />
    <tag k="ref:vcgi:esiteid" v="186103" />
  </node>
  <node id="-251" visible="true" lat="44.33868103" lon="-72.15687203">
    <tag k="addr:housenumber" v="135" />
    <tag k="addr:street" v="Thaddeus Stevens Road" />
    <tag k="addr:state" v="VT" />
    <tag k="ref:vcgi:esiteid" v="186104" />
  </node>
  <node id="-252" visible="true" lat="44.33861542" lon="-72.15857696">
    <tag k="addr:housenumber" v="1619" />
    <tag k="addr:street" v="East Peacham Road" />
    <tag k="addr:state" v="VT" />
    <tag k="ref:vcgi:esiteid" v="186105" />
  </node>
  <node id="-253" visible="true" lat="44.33716829" lon="-72.22782688">
    <tag k="addr:housenumber" v="850" />
    <tag k="addr:street" v="Lanesboro Road" />
    <tag k="addr:state" v="VT" />
    <tag k="ref:vcgi:esiteid" v="186106" />
  </node>
  <node id="-254" visible="true" lat="44.33866482" lon="-72.12563875">
    <tag k="addr:housenumber" v="575" />
    <tag k="addr:street" v="Somers Road" />
    <tag k="addr:state" v="VT" />
    <tag k="ref:vcgi:esiteid" v="186107" />
  </node>
  <node id="-255" visible="true" lat="44.33860397" lon="-72.20820617">
    <tag k="addr:housenumber" v="1993" />
    <tag k="addr:street" v="Macks Mountain Road" />
    <tag k="addr:state" v="VT" />
    <tag k="ref:vcgi:esiteid" v="186108" />
  </node>
  <node id="-256" visible="true" lat="44.33851237" lon="-72.18594241">
    <tag k="addr:housenumber" v="469" />
    <tag k="addr:street" v="Hapenny Road" />
    <tag k="addr:state" v="VT" />
    <tag k="ref:vcgi:esiteid" v="186109" />
  </node>
  <node id="-257" visible="true" lat="44.33842468" lon="-72.15644073">
    <tag k="addr:housenumber" v="158" />
    <tag k="addr:street" v="Thaddeus Stevens Road" />
    <tag k="addr:state" v="VT" />
    <tag k="ref:vcgi:esiteid" v="186110" />
  </node>
  <node id="-258" visible="true" lat="44.3383255" lon="-72.15882874">
    <tag k="addr:housenumber" v="1634" />
    <tag k="addr:street" v="East Peacham Road" />
    <tag k="addr:state" v="VT" />
    <tag k="ref:vcgi:esiteid" v="186111" />
  </node>
  <node id="-259" visible="true" lat="44.33812714" lon="-72.15705109">
    <tag k="addr:housenumber" v="104" />
    <tag k="addr:street" v="Thaddeus Stevens Road" />
    <tag k="addr:state" v="VT" />
    <tag k="ref:vcgi:esiteid" v="186112" />
  </node>
  <node id="-260" visible="true" lat="44.33594447" lon="-72.25640032">
    <tag k="addr:housenumber" v="674" />
    <tag k="addr:street" v="Peacham Pond Road" />
    <tag k="addr:state" v="VT" />
    <tag k="ref:vcgi:esiteid" v="186113" />
  </node>
  <node id="-261" visible="true" lat="44.33788681" lon="-72.11915588">
    <tag k="addr:housenumber" v="950" />
    <tag k="addr:street" v="Somers Road" />
    <tag k="addr:state" v="VT" />
    <tag k="ref:vcgi:esiteid" v="186114" />
  </node>
  <node id="-262" visible="true" lat="44.33797073" lon="-72.15856933">
    <tag k="addr:housenumber" v="1660" />
    <tag k="addr:street" v="East Peacham Road" />
    <tag k="addr:state" v="VT" />
    <tag k="ref:vcgi:esiteid" v="186115" />
  </node>
  <node id="-263" visible="true" lat="44.33793865" lon="-72.21843872">
    <tag k="addr:housenumber" v="483" />
    <tag k="addr:street" v="Lanesboro Road" />
    <tag k="addr:state" v="VT" />
    <tag k="ref:vcgi:esiteid" v="186116" />
  </node>
  <node id="-264" visible="true" lat="44.33778035" lon="-72.20134273">
    <tag k="addr:housenumber" v="1697" />
    <tag k="addr:street" v="Macks Mountain Road" />
    <tag k="addr:state" v="VT" />
    <tag k="ref:vcgi:esiteid" v="186117" />
  </node>
  <node id="-265" visible="true" lat="44.33735656" lon="-72.15895843">
    <tag k="addr:housenumber" v="827" />
    <tag k="addr:street" v="Old Cemetery Road" />
    <tag k="addr:state" v="VT" />
    <tag k="ref:vcgi:esiteid" v="186118" />
  </node>
  <node id="-266" visible="true" lat="44.33731079" lon="-72.15699005">
    <tag k="addr:housenumber" v="1749" />
    <tag k="addr:street" v="East Peacham Road" />
    <tag k="addr:state" v="VT" />
    <tag k="ref:vcgi:esiteid" v="186119" />
  </node>
  <node id="-267" visible="true" lat="44.33705902" lon="-72.16005706">
    <tag k="addr:housenumber" v="771" />
    <tag k="addr:street" v="Old Cemetery Road" />
    <tag k="addr:state" v="VT" />
    <tag k="ref:vcgi:esiteid" v="186120" />
  </node>
  <node id="-268" visible="true" lat="44.33681869" lon="-72.17350768">
    <tag k="addr:housenumber" v="1224" />
    <tag k="addr:street" v="Bayley Hazen Road" />
    <tag k="addr:state" v="VT" />
    <tag k="ref:vcgi:esiteid" v="186121" />
  </node>
  <node id="-269" visible="true" lat="44.33681488" lon="-72.17459106">
    <tag k="addr:housenumber" v="1239" />
    <tag k="addr:street" v="Bayley Hazen Road" />
    <tag k="addr:state" v="VT" />
    <tag k="ref:vcgi:esiteid" v="186122" />
  </node>
  <node id="-270" visible="true" lat="44.3367157" lon="-72.15513611">
    <tag k="addr:housenumber" v="1853" />
    <tag k="addr:street" v="East Peacham Road" />
    <tag k="addr:state" v="VT" />
    <tag k="ref:vcgi:esiteid" v="186123" />
  </node>
  <node id="-271" visible="true" lat="44.33658981" lon="-72.15464783">
    <tag k="addr:housenumber" v="1879" />
    <tag k="addr:street" v="East Peacham Road" />
    <tag k="addr:state" v="VT" />
    <tag k="ref:vcgi:esiteid" v="186124" />
  </node>
  <node id="-272" visible="true" lat="44.33608245" lon="-72.1576004">
    <tag k="addr:housenumber" v="139" />
    <tag k="addr:street" v="Hollow Woods Road" />
    <tag k="addr:state" v="VT" />
    <tag k="ref:vcgi:esiteid" v="186125" />
  </node>
  <node id="-273" visible="true" lat="44.33598709" lon="-72.16219329">
    <tag k="addr:housenumber" v="603" />
    <tag k="addr:street" v="Old Cemetery Road" />
    <tag k="addr:state" v="VT" />
    <tag k="ref:vcgi:esiteid" v="186126" />
  </node>
  <node id="-274" visible="true" lat="44.33597564" lon="-72.17420959">
    <tag k="addr:housenumber" v="1177" />
    <tag k="addr:street" v="Bayley Hazen Road" />
    <tag k="addr:state" v="VT" />
    <tag k="ref:vcgi:esiteid" v="186127" />
  </node>
  <node id="-275" visible="true" lat="44.33618573" lon="-72.25316414">
    <tag k="addr:housenumber" v="1068" />
    <tag k="addr:street" v="Peacham Pond Road" />
    <tag k="addr:state" v="VT" />
    <tag k="ref:vcgi:esiteid" v="186128" />
  </node>
  <node id="-276" visible="true" lat="44.33574676" lon="-72.16145324">
    <tag k="addr:housenumber" v="660" />
    <tag k="addr:street" v="Old Cemetery Road" />
    <tag k="addr:state" v="VT" />
    <tag k="ref:vcgi:esiteid" v="186129" />
  </node>
  <node id="-277" visible="true" lat="44.33528137" lon="-72.18474578">
    <tag k="addr:housenumber" v="276" />
    <tag k="addr:street" v="Hapenny Road" />
    <tag k="addr:state" v="VT" />
    <tag k="ref:vcgi:esiteid" v="186130" />
  </node>
  <node id="-278" visible="true" lat="44.33512496" lon="-72.15705871">
    <tag k="addr:housenumber" v="209" />
    <tag k="addr:street" v="Hollow Woods Road" />
    <tag k="addr:state" v="VT" />
    <tag k="ref:vcgi:esiteid" v="186131" />
  </node>
  <node id="-279" visible="true" lat="44.33515167" lon="-72.17546844">
    <tag k="addr:housenumber" v="1107" />
    <tag k="addr:street" v="Bayley Hazen Road" />
    <tag k="addr:state" v="VT" />
    <tag k="ref:vcgi:esiteid" v="186132" />
  </node>
  <node id="-280" visible="true" lat="44.33489227" lon="-72.14987946">
    <tag k="addr:housenumber" v="2173" />
    <tag k="addr:street" v="East Peacham Road" />
    <tag k="addr:state" v="VT" />
    <tag k="ref:vcgi:esiteid" v="186133" />
  </node>
  <node id="-281" visible="true" lat="44.33310506" lon="-72.23469003">
    <tag k="addr:housenumber" v="1381" />
    <tag k="addr:street" v="Lanesboro Road" />
    <tag k="addr:state" v="VT" />
    <tag k="ref:vcgi:esiteid" v="186134" />
  </node>
  <node id="-282" visible="true" lat="44.33452606" lon="-72.15924835">
    <tag k="addr:housenumber" v="164" />
    <tag k="addr:street" v="Hollow Woods Road" />
    <tag k="addr:state" v="VT" />
    <tag k="ref:vcgi:esiteid" v="186135" />
  </node>
  <node id="-283" visible="true" lat="44.33434296" lon="-72.13960266">
    <tag k="addr:housenumber" v="391" />
    <tag k="addr:street" v="Blanchard Hill Road" />
    <tag k="addr:state" v="VT" />
    <tag k="ref:vcgi:esiteid" v="186136" />
  </node>
  <node id="-284" visible="true" lat="44.33434677" lon="-72.1733551">
    <tag k="addr:housenumber" v="1057" />
    <tag k="addr:street" v="Bayley Hazen Road" />
    <tag k="addr:state" v="VT" />
    <tag k="ref:vcgi:esiteid" v="186137" />
  </node>
  <node id="-285" visible="true" lat="44.33427811" lon="-72.15035248">
    <tag k="addr:housenumber" v="2144" />
    <tag k="addr:street" v="East Peacham Road" />
    <tag k="addr:state" v="VT" />
    <tag k="ref:vcgi:esiteid" v="186138" />
  </node>
  <node id="-286" visible="true" lat="44.33422089" lon="-72.14425659">
    <tag k="addr:housenumber" v="59" />
    <tag k="addr:street" v="Lamprecht Lane" />
    <tag k="addr:state" v="VT" />
    <tag k="ref:vcgi:esiteid" v="186139" />
  </node>
  <node id="-287" visible="true" lat="44.33448499" lon="-72.26435408">
    <tag k="addr:housenumber" v="92" />
    <tag k="addr:street" v="Spur Road" />
    <tag k="addr:state" v="VT" />
    <tag k="ref:vcgi:esiteid" v="186140" />
  </node>
  <node id="-288" visible="true" lat="44.33420181" lon="-72.17480468">
    <tag k="addr:housenumber" v="1045" />
    <tag k="addr:street" v="Bayley Hazen Road" />
    <tag k="addr:state" v="VT" />
    <tag k="ref:vcgi:esiteid" v="186141" />
  </node>
  <node id="-289" visible="true" lat="44.33386993" lon="-72.15673828">
    <tag k="addr:housenumber" v="293" />
    <tag k="addr:street" v="Hollow Woods Road" />
    <tag k="addr:state" v="VT" />
    <tag k="ref:vcgi:esiteid" v="186142" />
  </node>
  <node id="-290" visible="true" lat="44.3305897" lon="-72.20489404">
    <tag k="addr:housenumber" v="1129" />
    <tag k="addr:street" v="Macks Mountain Road" />
    <tag k="addr:state" v="VT" />
    <tag k="ref:vcgi:esiteid" v="186143" />
  </node>
  <node id="-291" visible="true" lat="44.33383011" lon="-72.26556956">
    <tag k="addr:housenumber" v="501" />
    <tag k="addr:street" v="Onion Point" />
    <tag k="addr:state" v="VT" />
    <tag k="ref:vcgi:esiteid" v="186144" />
  </node>
  <node id="-292" visible="true" lat="44.33374023" lon="-72.25793457">
    <tag k="addr:housenumber" v="122" />
    <tag k="addr:street" v="Spur Road" />
    <tag k="addr:state" v="VT" />
    <tag k="ref:vcgi:esiteid" v="186145" />
  </node>
  <node id="-293" visible="true" lat="44.33365758" lon="-72.2661102">
    <tag k="addr:housenumber" v="508" />
    <tag k="addr:street" v="Onion Point" />
    <tag k="addr:state" v="VT" />
    <tag k="ref:vcgi:esiteid" v="186146" />
  </node>
  <node id="-294" visible="true" lat="44.33359146" lon="-72.26548767">
    <tag k="addr:housenumber" v="505" />
    <tag k="addr:street" v="Onion Point" />
    <tag k="addr:state" v="VT" />
    <tag k="ref:vcgi:esiteid" v="186147" />
  </node>
  <node id="-295" visible="true" lat="44.33335964" lon="-72.26563104">
    <tag k="addr:housenumber" v="513" />
    <tag k="addr:street" v="Onion Point" />
    <tag k="addr:state" v="VT" />
    <tag k="ref:vcgi:esiteid" v="186148" />
  </node>
  <node id="-296" visible="true" lat="44.33342416" lon="-72.25347837">
    <tag k="addr:housenumber" v="1262" />
    <tag k="addr:street" v="Peacham Pond Road" />
    <tag k="addr:state" v="VT" />
    <tag k="ref:vcgi:esiteid" v="186149" />
  </node>
  <node id="-297" visible="true" lat="44.33333969" lon="-72.21626281">
    <tag k="addr:housenumber" v="343" />
    <tag k="addr:street" v="Foster Pond Road" />
    <tag k="addr:state" v="VT" />
    <tag k="ref:vcgi:esiteid" v="186150" />
  </node>
  <node id="-298" visible="true" lat="44.33342125" lon="-72.26622334">
    <tag k="addr:housenumber" v="524" />
    <tag k="addr:street" v="Onion Point" />
    <tag k="addr:state" v="VT" />
    <tag k="ref:vcgi:esiteid" v="186151" />
  </node>
  <node id="-299" visible="true" lat="44.33308792" lon="-72.13631439">
    <tag k="addr:housenumber" v="561" />
    <tag k="addr:street" v="Blanchard Hill Road" />
    <tag k="addr:state" v="VT" />
    <tag k="ref:vcgi:esiteid" v="186152" />
  </node>
  <node id="-300" visible="true" lat="44.33327484" lon="-72.25331878">
    <tag k="addr:housenumber" v="1272" />
    <tag k="addr:street" v="Peacham Pond Road" />
    <tag k="addr:state" v="VT" />
    <tag k="ref:vcgi:esiteid" v="186153" />
  </node>
  <node id="-301" visible="true" lat="44.332901" lon="-72.13864899">
    <tag k="addr:housenumber" v="448" />
    <tag k="addr:street" v="Blanchard Hill Road" />
    <tag k="addr:state" v="VT" />
    <tag k="ref:vcgi:esiteid" v="186154" />
  </node>
  <node id="-302" visible="true" lat="44.33290863" lon="-72.17677307">
    <tag k="addr:housenumber" v="941" />
    <tag k="addr:street" v="Bayley Hazen Road" />
    <tag k="addr:state" v="VT" />
    <tag k="ref:vcgi:esiteid" v="186155" />
  </node>
  <node id="-303" visible="true" lat="44.33279419" lon="-72.15792083">
    <tag k="addr:housenumber" v="370" />
    <tag k="addr:street" v="Hollow Woods Road" />
    <tag k="addr:state" v="VT" />
    <tag k="ref:vcgi:esiteid" v="186156" />
  </node>
  <node id="-304" visible="true" lat="44.33295616" lon="-72.25318356">
    <tag k="addr:housenumber" v="1288" />
    <tag k="addr:street" v="Peacham Pond Road" />
    <tag k="addr:state" v="VT" />
    <tag k="ref:vcgi:esiteid" v="186157" />
  </node>
  <node id="-305" visible="true" lat="44.33287347" lon="-72.18580922">
    <tag k="addr:housenumber" v="74" />
    <tag k="addr:street" v="Hapenny Road" />
    <tag k="addr:state" v="VT" />
    <tag k="ref:vcgi:esiteid" v="186158" />
  </node>
  <node id="-306" visible="true" lat="44.33273991" lon="-72.25273383">
    <tag k="addr:housenumber" v="1316" />
    <tag k="addr:street" v="Peacham Pond Road" />
    <tag k="addr:state" v="VT" />
    <tag k="ref:vcgi:esiteid" v="186159" />
  </node>
  <node id="-307" visible="true" lat="44.33277893" lon="-72.26579284">
    <tag k="addr:housenumber" v="563" />
    <tag k="addr:street" v="Onion Point" />
    <tag k="addr:state" v="VT" />
    <tag k="ref:vcgi:esiteid" v="186160" />
  </node>
  <node id="-308" visible="true" lat="44.33240509" lon="-72.16436004">
    <tag k="addr:housenumber" v="384" />
    <tag k="addr:street" v="Old Cemetery Road" />
    <tag k="addr:state" v="VT" />
    <tag k="ref:vcgi:esiteid" v="186161" />
  </node>
  <node id="-309" visible="true" lat="44.33264434" lon="-72.18945678">
    <tag k="addr:housenumber" v="952" />
    <tag k="addr:street" v="Macks Mountain Road" />
    <tag k="addr:state" v="VT" />
    <tag k="ref:vcgi:esiteid" v="186162" />
  </node>
  <node id="-310" visible="true" lat="44.3322122" lon="-72.1871665">
    <tag k="addr:housenumber" v="842" />
    <tag k="addr:street" v="Macks Mountain Road" />
    <tag k="addr:state" v="VT" />
    <tag k="ref:vcgi:esiteid" v="186163" />
  </node>
  <node id="-311" visible="true" lat="44.33218383" lon="-72.26607513">
    <tag k="addr:housenumber" v="611" />
    <tag k="addr:street" v="Onion Point" />
    <tag k="addr:state" v="VT" />
    <tag k="ref:vcgi:esiteid" v="186164" />
  </node>
  <node id="-312" visible="true" lat="44.33191299" lon="-72.17251587">
    <tag k="addr:housenumber" v="897" />
    <tag k="addr:street" v="Bayley Hazen Road" />
    <tag k="addr:state" v="VT" />
    <tag k="ref:vcgi:esiteid" v="186165" />
  </node>
  <node id="-313" visible="true" lat="44.33203506" lon="-72.26596832">
    <tag k="addr:housenumber" v="613" />
    <tag k="addr:street" v="Onion Point" />
    <tag k="addr:state" v="VT" />
    <tag k="ref:vcgi:esiteid" v="186166" />
  </node>
  <node id="-314" visible="true" lat="44.33128808" lon="-72.21552294">
    <tag k="addr:housenumber" v="445" />
    <tag k="addr:street" v="Foster Pond Road" />
    <tag k="addr:state" v="VT" />
    <tag k="ref:vcgi:esiteid" v="186167" />
  </node>
  <node id="-315" visible="true" lat="44.33155822" lon="-72.16608428">
    <tag k="addr:housenumber" v="290" />
    <tag k="addr:street" v="Old Cemetery Road" />
    <tag k="addr:state" v="VT" />
    <tag k="ref:vcgi:esiteid" v="186168" />
  </node>
  <node id="-316" visible="true" lat="44.33165908" lon="-72.25173586">
    <tag k="addr:housenumber" v="1408" />
    <tag k="addr:street" v="Peacham Pond Road" />
    <tag k="addr:state" v="VT" />
    <tag k="ref:vcgi:esiteid" v="186169" />
  </node>
  <node id="-317" visible="true" lat="44.33174896" lon="-72.26580047">
    <tag k="addr:housenumber" v="647" />
    <tag k="addr:street" v="Onion Point" />
    <tag k="addr:state" v="VT" />
    <tag k="ref:vcgi:esiteid" v="186170" />
  </node>
  <node id="-318" visible="true" lat="44.33146667" lon="-72.26588439">
    <tag k="addr:housenumber" v="661" />
    <tag k="addr:street" v="Onion Point" />
    <tag k="addr:state" v="VT" />
    <tag k="ref:vcgi:esiteid" v="186171" />
  </node>
  <node id="-319" visible="true" lat="44.33139419" lon="-72.25150299">
    <tag k="addr:housenumber" v="1434" />
    <tag k="addr:street" v="Peacham Pond Road" />
    <tag k="addr:state" v="VT" />
    <tag k="ref:vcgi:esiteid" v="186172" />
  </node>
  <node id="-320" visible="true" lat="44.33110046" lon="-72.21853637">
    <tag k="addr:housenumber" v="508" />
    <tag k="addr:street" v="Foster Pond Road" />
    <tag k="addr:state" v="VT" />
    <tag k="ref:vcgi:esiteid" v="186173" />
  </node>
  <node id="-321" visible="true" lat="44.33096313" lon="-72.1721878">
    <tag k="addr:housenumber" v="819" />
    <tag k="addr:street" v="Bayley Hazen Road" />
    <tag k="addr:state" v="VT" />
    <tag k="ref:vcgi:esiteid" v="186174" />
  </node>
  <node id="-322" visible="true" lat="44.33116912" lon="-72.26559448">
    <tag k="addr:housenumber" v="667" />
    <tag k="addr:street" v="Onion Point" />
    <tag k="addr:state" v="VT" />
    <tag k="ref:vcgi:esiteid" v="186175" />
  </node>
  <node id="-323" visible="true" lat="44.33108139" lon="-72.26554107">
    <tag k="addr:housenumber" v="671" />
    <tag k="addr:street" v="Onion Point" />
    <tag k="addr:state" v="VT" />
    <tag k="ref:vcgi:esiteid" v="186176" />
  </node>
  <node id="-324" visible="true" lat="44.33085622" lon="-72.25122525">
    <tag k="addr:housenumber" v="1468" />
    <tag k="addr:street" v="Peacham Pond Road" />
    <tag k="addr:state" v="VT" />
    <tag k="ref:vcgi:esiteid" v="186177" />
  </node>
  <node id="-325" visible="true" lat="44.33090209" lon="-72.26577758">
    <tag k="addr:housenumber" v="699" />
    <tag k="addr:street" v="Onion Point" />
    <tag k="addr:state" v="VT" />
    <tag k="ref:vcgi:esiteid" v="186178" />
  </node>
  <node id="-326" visible="true" lat="44.33089065" lon="-72.26535034">
    <tag k="addr:housenumber" v="697" />
    <tag k="addr:street" v="Onion Point" />
    <tag k="addr:state" v="VT" />
    <tag k="ref:vcgi:esiteid" v="186179" />
  </node>
  <node id="-327" visible="true" lat="44.33082961" lon="-72.26609802">
    <tag k="addr:housenumber" v="703" />
    <tag k="addr:street" v="Onion Point" />
    <tag k="addr:state" v="VT" />
    <tag k="ref:vcgi:esiteid" v="186180" />
  </node>
  <node id="-328" visible="true" lat="44.33073425" lon="-72.26622772">
    <tag k="addr:housenumber" v="707" />
    <tag k="addr:street" v="Onion Point" />
    <tag k="addr:state" v="VT" />
    <tag k="ref:vcgi:esiteid" v="186181" />
  </node>
  <node id="-329" visible="true" lat="44.33070754" lon="-72.26644897">
    <tag k="addr:housenumber" v="709" />
    <tag k="addr:street" v="Onion Point" />
    <tag k="addr:state" v="VT" />
    <tag k="ref:vcgi:esiteid" v="186182" />
  </node>
  <node id="-330" visible="true" lat="44.33051313" lon="-72.25103719">
    <tag k="addr:housenumber" v="1494" />
    <tag k="addr:street" v="Peacham Pond Road" />
    <tag k="addr:state" v="VT" />
    <tag k="ref:vcgi:esiteid" v="186183" />
  </node>
  <node id="-331" visible="true" lat="44.33055877" lon="-72.26664733">
    <tag k="addr:housenumber" v="721" />
    <tag k="addr:street" v="Onion Point" />
    <tag k="addr:state" v="VT" />
    <tag k="ref:vcgi:esiteid" v="186184" />
  </node>
  <node id="-332" visible="true" lat="44.33052825" lon="-72.26718139">
    <tag k="addr:housenumber" v="739" />
    <tag k="addr:street" v="Onion Point" />
    <tag k="addr:state" v="VT" />
    <tag k="ref:vcgi:esiteid" v="186185" />
  </node>
  <node id="-333" visible="true" lat="44.33024075" lon="-72.25097122">
    <tag k="addr:housenumber" v="1508" />
    <tag k="addr:street" v="Peacham Pond Road" />
    <tag k="addr:state" v="VT" />
    <tag k="ref:vcgi:esiteid" v="186186" />
  </node>
  <node id="-334" visible="true" lat="44.32997512" lon="-72.1606903">
    <tag k="addr:housenumber" v="638" />
    <tag k="addr:street" v="Hollow Woods Road" />
    <tag k="addr:state" v="VT" />
    <tag k="ref:vcgi:esiteid" v="186187" />
  </node>
  <node id="-335" visible="true" lat="44.33021926" lon="-72.26816558">
    <tag k="addr:housenumber" v="784" />
    <tag k="addr:street" v="Onion Point" />
    <tag k="addr:state" v="VT" />
    <tag k="ref:vcgi:esiteid" v="186188" />
  </node>
  <node id="-336" visible="true" lat="44.3299179" lon="-72.1795578">
    <tag k="addr:housenumber" v="440" />
    <tag k="addr:street" v="Macks Mountain Road" />
    <tag k="addr:state" v="VT" />
    <tag k="ref:vcgi:esiteid" v="186189" />
  </node>
  <node id="-337" visible="true" lat="44.32986521" lon="-72.25083379">
    <tag k="addr:housenumber" v="1536" />
    <tag k="addr:street" v="Peacham Pond Road" />
    <tag k="addr:state" v="VT" />
    <tag k="ref:vcgi:esiteid" v="186190" />
  </node>
  <node id="-338" visible="true" lat="44.3297615" lon="-72.17093658">
    <tag k="addr:housenumber" v="720" />
    <tag k="addr:street" v="Bayley Hazen Road" />
    <tag k="addr:state" v="VT" />
    <tag k="ref:vcgi:esiteid" v="186191" />
  </node>
  <node id="-339" visible="true" lat="44.32966232" lon="-72.17127227">
    <tag k="addr:housenumber" v="719" />
    <tag k="addr:street" v="Bayley Hazen Road" />
    <tag k="addr:state" v="VT" />
    <tag k="ref:vcgi:esiteid" v="186192" />
  </node>
  <node id="-340" visible="true" lat="44.32988738" lon="-72.26785278">
    <tag k="addr:housenumber" v="803" />
    <tag k="addr:street" v="Onion Point" />
    <tag k="addr:state" v="VT" />
    <tag k="ref:vcgi:esiteid" v="186193" />
  </node>
  <node id="-341" visible="true" lat="44.32986831" lon="-72.26824188">
    <tag k="addr:housenumber" v="802" />
    <tag k="addr:street" v="Onion Point" />
    <tag k="addr:state" v="VT" />
    <tag k="ref:vcgi:esiteid" v="186194" />
  </node>
  <node id="-342" visible="true" lat="44.32962036" lon="-72.1687622">
    <tag k="addr:housenumber" v="102" />
    <tag k="addr:street" v="Old Cemetery Road" />
    <tag k="addr:state" v="VT" />
    <tag k="ref:vcgi:esiteid" v="186195" />
  </node>
  <node id="-343" visible="true" lat="44.32947921" lon="-72.17082977">
    <tag k="addr:housenumber" v="700" />
    <tag k="addr:street" v="Bayley Hazen Road" />
    <tag k="addr:state" v="VT" />
    <tag k="ref:vcgi:esiteid" v="186196" />
  </node>
  <node id="-344" visible="true" lat="44.3296318" lon="-72.26683044">
    <tag k="addr:housenumber" v="861" />
    <tag k="addr:street" v="Onion Point" />
    <tag k="addr:state" v="VT" />
    <tag k="ref:vcgi:esiteid" v="186197" />
  </node>
  <node id="-345" visible="true" lat="44.32956695" lon="-72.26795959">
    <tag k="addr:housenumber" v="820" />
    <tag k="addr:street" v="Onion Point" />
    <tag k="addr:state" v="VT" />
    <tag k="ref:vcgi:esiteid" v="186198" />
  </node>
  <node id="-346" visible="true" lat="44.32929611" lon="-72.16925048">
    <tag k="addr:housenumber" v="70" />
    <tag k="addr:street" v="Old Cemetery Road" />
    <tag k="addr:state" v="VT" />
    <tag k="ref:vcgi:esiteid" v="186199" />
  </node>
  <node id="-347" visible="true" lat="44.3294754" lon="-72.2665863">
    <tag k="addr:housenumber" v="875" />
    <tag k="addr:street" v="Onion Point" />
    <tag k="addr:state" v="VT" />
    <tag k="ref:vcgi:esiteid" v="186200" />
  </node>
  <node id="-348" visible="true" lat="44.32922363" lon="-72.17066192">
    <tag k="addr:housenumber" v="680" />
    <tag k="addr:street" v="Bayley Hazen Road" />
    <tag k="addr:state" v="VT" />
    <tag k="ref:vcgi:esiteid" v="186201" />
  </node>
  <node id="-349" visible="true" lat="44.32920456" lon="-72.16991424">
    <tag k="addr:housenumber" v="41" />
    <tag k="addr:street" v="Old Cemetery Road" />
    <tag k="addr:state" v="VT" />
    <tag k="ref:vcgi:esiteid" v="186202" />
  </node>
  <node id="-350" visible="true" lat="44.32909774" lon="-72.17001342">
    <tag k="addr:housenumber" v="33" />
    <tag k="addr:street" v="Old Cemetery Road" />
    <tag k="addr:state" v="VT" />
    <tag k="ref:vcgi:esiteid" v="186203" />
  </node>
  <node id="-351" visible="true" lat="44.32909393" lon="-72.17104339">
    <tag k="addr:housenumber" v="679" />
    <tag k="addr:street" v="Bayley Hazen Road" />
    <tag k="addr:state" v="VT" />
    <tag k="ref:vcgi:esiteid" v="186204" />
  </node>
  <node id="-352" visible="true" lat="44.32937097" lon="-72.2503731">
    <tag k="addr:housenumber" v="1594" />
    <tag k="addr:street" v="Peacham Pond Road" />
    <tag k="addr:state" v="VT" />
    <tag k="ref:vcgi:esiteid" v="186205" />
  </node>
  <node id="-353" visible="true" lat="44.32923126" lon="-72.26642608">
    <tag k="addr:housenumber" v="893" />
    <tag k="addr:street" v="Onion Point" />
    <tag k="addr:state" v="VT" />
    <tag k="ref:vcgi:esiteid" v="186206" />
  </node>
  <node id="-354" visible="true" lat="44.32894134" lon="-72.16964721">
    <tag k="addr:housenumber" v="40" />
    <tag k="addr:street" v="Old Cemetery Road" />
    <tag k="addr:state" v="VT" />
    <tag k="ref:vcgi:esiteid" v="186207" />
  </node>
  <node id="-355" visible="true" lat="44.32891845" lon="-72.17042541">
    <tag k="addr:housenumber" v="656" />
    <tag k="addr:street" v="Bayley Hazen Road" />
    <tag k="addr:state" v="VT" />
    <tag k="ref:vcgi:esiteid" v="186208" />
  </node>
  <node id="-356" visible="true" lat="44.32915115" lon="-72.26731872">
    <tag k="addr:housenumber" v="860" />
    <tag k="addr:street" v="Onion Point" />
    <tag k="addr:state" v="VT" />
    <tag k="ref:vcgi:esiteid" v="186209" />
  </node>
  <node id="-357" visible="true" lat="44.32905306" lon="-72.17811339">
    <tag k="addr:housenumber" v="320" />
    <tag k="addr:street" v="Macks Mountain Road" />
    <tag k="addr:state" v="VT" />
    <tag k="ref:vcgi:esiteid" v="186210" />
  </node>
  <node id="-358" visible="true" lat="44.32890319" lon="-72.17092895">
    <tag k="addr:housenumber" v="665" />
    <tag k="addr:street" v="Bayley Hazen Road" />
    <tag k="addr:state" v="VT" />
    <tag k="ref:vcgi:esiteid" v="186211" />
  </node>
  <node id="-359" visible="true" lat="44.32907486" lon="-72.26717376">
    <tag k="addr:housenumber" v="870" />
    <tag k="addr:street" v="Onion Point" />
    <tag k="addr:state" v="VT" />
    <tag k="ref:vcgi:esiteid" v="186212" />
  </node>
  <node id="-360" visible="true" lat="44.32858062" lon="-72.17864364">
    <tag k="addr:housenumber" v="355" />
    <tag k="addr:street" v="Macks Mountain Road" />
    <tag k="addr:state" v="VT" />
    <tag k="ref:vcgi:esiteid" v="186213" />
  </node>
  <node id="-361" visible="true" lat="44.32897949" lon="-72.26696777">
    <tag k="addr:housenumber" v="882" />
    <tag k="addr:street" v="Onion Point" />
    <tag k="addr:state" v="VT" />
    <tag k="ref:vcgi:esiteid" v="186214" />
  </node>
  <node id="-362" visible="true" lat="44.32892608" lon="-72.26643371">
    <tag k="addr:housenumber" v="896" />
    <tag k="addr:street" v="Onion Point" />
    <tag k="addr:state" v="VT" />
    <tag k="ref:vcgi:esiteid" v="186215" />
  </node>
  <node id="-363" visible="true" lat="44.32910007" lon="-72.25041035">
    <tag k="addr:housenumber" v="1622" />
    <tag k="addr:street" v="Peacham Pond Road" />
    <tag k="addr:state" v="VT" />
    <tag k="ref:vcgi:esiteid" v="186216" />
  </node>
  <node id="-364" visible="true" lat="44.32889175" lon="-72.26682281">
    <tag k="addr:housenumber" v="892" />
    <tag k="addr:street" v="Onion Point" />
    <tag k="addr:state" v="VT" />
    <tag k="ref:vcgi:esiteid" v="186217" />
  </node>
  <node id="-365" visible="true" lat="44.32861328" lon="-72.1707077">
    <tag k="addr:housenumber" v="641" />
    <tag k="addr:street" v="Bayley Hazen Road" />
    <tag k="addr:state" v="VT" />
    <tag k="ref:vcgi:esiteid" v="186218" />
  </node>
  <node id="-366" visible="true" lat="44.32884597" lon="-72.26662445">
    <tag k="addr:housenumber" v="894" />
    <tag k="addr:street" v="Onion Point" />
    <tag k="addr:state" v="VT" />
    <tag k="ref:vcgi:esiteid" v="186219" />
  </node>
  <node id="-367" visible="true" lat="44.32863008" lon="-72.17002005">
    <tag k="addr:housenumber" v="624" />
    <tag k="addr:street" v="Bayley Hazen Road" />
    <tag k="addr:state" v="VT" />
    <tag k="ref:vcgi:esiteid" v="186220" />
  </node>
  <node id="-368" visible="true" lat="44.32885308" lon="-72.21440745">
    <tag k="addr:housenumber" v="701" />
    <tag k="addr:street" v="Foster Pond Road" />
    <tag k="addr:state" v="VT" />
    <tag k="ref:vcgi:esiteid" v="186221" />
  </node>
  <node id="-369" visible="true" lat="44.32845306" lon="-72.14879608">
    <tag k="addr:housenumber" v="20" />
    <tag k="addr:street" v="Brick Kiln Road" />
    <tag k="addr:state" v="VT" />
    <tag k="ref:vcgi:esiteid" v="186222" />
  </node>
  <node id="-370" visible="true" lat="44.32847849" lon="-72.16987106">
    <tag k="addr:housenumber" v="614" />
    <tag k="addr:street" v="Bayley Hazen Road" />
    <tag k="addr:state" v="VT" />
    <tag k="ref:vcgi:esiteid" v="186223" />
  </node>
  <node id="-371" visible="true" lat="44.32882163" lon="-72.25026672">
    <tag k="addr:housenumber" v="1642" />
    <tag k="addr:street" v="Peacham Pond Road" />
    <tag k="addr:state" v="VT" />
    <tag k="ref:vcgi:esiteid" v="186224" />
  </node>
  <node id="-372" visible="true" lat="44.3283474" lon="-72.1697746">
    <tag k="addr:housenumber" v="604" />
    <tag k="addr:street" v="Bayley Hazen Road" />
    <tag k="addr:state" v="VT" />
    <tag k="ref:vcgi:esiteid" v="186225" />
  </node>
  <node id="-373" visible="true" lat="44.32831573" lon="-72.17094421">
    <tag k="addr:housenumber" v="38" />
    <tag k="addr:street" v="Church Street" />
    <tag k="addr:state" v="VT" />
    <tag k="ref:vcgi:esiteid" v="186226" />
  </node>
  <node id="-374" visible="true" lat="44.32833862" lon="-72.18191528">
    <tag k="addr:housenumber" v="409" />
    <tag k="addr:street" v="Macks Mountain Road" />
    <tag k="addr:state" v="VT" />
    <tag k="ref:vcgi:esiteid" v="186227" />
  </node>
  <node id="-375" visible="true" lat="44.32846965" lon="-72.25018469">
    <tag k="addr:housenumber" v="1650" />
    <tag k="addr:street" v="Peacham Pond Road" />
    <tag k="addr:state" v="VT" />
    <tag k="ref:vcgi:esiteid" v="186228" />
  </node>
  <node id="-376" visible="true" lat="44.32831372" lon="-72.25339198">
    <tag k="addr:housenumber" v="1913" />
    <tag k="addr:street" v="Peacham Pond Road" />
    <tag k="addr:state" v="VT" />
    <tag k="ref:vcgi:esiteid" v="186229" />
  </node>
  <node id="-377" visible="true" lat="44.32812881" lon="-72.17042541">
    <tag k="addr:housenumber" v="613" />
    <tag k="addr:street" v="Bayley Hazen Road" />
    <tag k="addr:state" v="VT" />
    <tag k="ref:vcgi:esiteid" v="186230" />
  </node>
  <node id="-378" visible="true" lat="44.32812118" lon="-72.17124176">
    <tag k="addr:housenumber" v="56" />
    <tag k="addr:street" v="Church Street" />
    <tag k="addr:state" v="VT" />
    <tag k="ref:vcgi:esiteid" v="186231" />
  </node>
  <node id="-379" visible="true" lat="44.32819304" lon="-72.16967422">
    <tag k="addr:housenumber" v="588" />
    <tag k="addr:street" v="Bayley Hazen Road" />
    <tag k="addr:state" v="VT" />
    <tag k="ref:vcgi:esiteid" v="186232" />
  </node>
  <node id="-380" visible="true" lat="44.32825936" lon="-72.25024901">
    <tag k="addr:housenumber" v="1674" />
    <tag k="addr:street" v="Peacham Pond Road" />
    <tag k="addr:state" v="VT" />
    <tag k="ref:vcgi:esiteid" v="186233" />
  </node>
  <node id="-381" visible="true" lat="44.32775833" lon="-72.13778433">
    <tag k="addr:housenumber" v="2888" />
    <tag k="addr:street" v="East Peacham Road" />
    <tag k="addr:state" v="VT" />
    <tag k="ref:vcgi:esiteid" v="186234" />
  </node>
  <node id="-382" visible="true" lat="44.32816559" lon="-72.25288098">
    <tag k="addr:housenumber" v="1898" />
    <tag k="addr:street" v="Peacham Pond Road" />
    <tag k="addr:state" v="VT" />
    <tag k="ref:vcgi:esiteid" v="186235" />
  </node>
  <node id="-383" visible="true" lat="44.32788085" lon="-72.17765045">
    <tag k="addr:housenumber" v="275" />
    <tag k="addr:street" v="Macks Mountain Road" />
    <tag k="addr:state" v="VT" />
    <tag k="ref:vcgi:esiteid" v="186236" />
  </node>
  <node id="-384" visible="true" lat="44.32811112" lon="-72.25030727">
    <tag k="addr:housenumber" v="1686" />
    <tag k="addr:street" v="Peacham Pond Road" />
    <tag k="addr:state" v="VT" />
    <tag k="ref:vcgi:esiteid" v="186237" />
  </node>
  <node id="-385" visible="true" lat="44.32797002" lon="-72.25317889">
    <tag k="addr:housenumber" v="1903" />
    <tag k="addr:street" v="Peacham Pond Road" />
    <tag k="addr:state" v="VT" />
    <tag k="ref:vcgi:esiteid" v="186238" />
  </node>
  <node id="-386" visible="true" lat="44.32796405" lon="-72.25218548">
    <tag k="addr:housenumber" v="1864" />
    <tag k="addr:street" v="Peacham Pond Road" />
    <tag k="addr:state" v="VT" />
    <tag k="ref:vcgi:esiteid" v="186239" />
  </node>
  <node id="-387" visible="true" lat="44.32769775" lon="-72.171669">
    <tag k="addr:housenumber" v="94" />
    <tag k="addr:street" v="Church Street" />
    <tag k="addr:state" v="VT" />
    <tag k="ref:vcgi:esiteid" v="186240" />
  </node>
  <node id="-388" visible="true" lat="44.32744339" lon="-72.21505913">
    <tag k="addr:housenumber" v="775" />
    <tag k="addr:street" v="Foster Pond Road" />
    <tag k="addr:state" v="VT" />
    <tag k="ref:vcgi:esiteid" v="186241" />
  </node>
  <node id="-389" visible="true" lat="44.32764181" lon="-72.17106232">
    <tag k="addr:housenumber" v="79" />
    <tag k="addr:street" v="Church Street" />
    <tag k="addr:state" v="VT" />
    <tag k="ref:vcgi:esiteid" v="186242" />
  </node>
  <node id="-390" visible="true" lat="44.32781245" lon="-72.25295106">
    <tag k="addr:housenumber" v="1883" />
    <tag k="addr:street" v="Peacham Pond Road" />
    <tag k="addr:state" v="VT" />
    <tag k="ref:vcgi:esiteid" v="186243" />
  </node>
  <node id="-391" visible="true" lat="44.32778517" lon="-72.25032248">
    <tag k="addr:housenumber" v="1704" />
    <tag k="addr:street" v="Peacham Pond Road" />
    <tag k="addr:state" v="VT" />
    <tag k="ref:vcgi:esiteid" v="186244" />
  </node>
  <node id="-392" visible="true" lat="44.32772005" lon="-72.25259032">
    <tag k="addr:housenumber" v="1875" />
    <tag k="addr:street" v="Peacham Pond Road" />
    <tag k="addr:state" v="VT" />
    <tag k="ref:vcgi:esiteid" v="186245" />
  </node>
  <node id="-393" visible="true" lat="44.32757949" lon="-72.17608642">
    <tag k="addr:housenumber" v="206" />
    <tag k="addr:street" v="Macks Mountain Road" />
    <tag k="addr:state" v="VT" />
    <tag k="ref:vcgi:esiteid" v="186246" />
  </node>
  <node id="-394" visible="true" lat="44.32742958" lon="-72.16980067">
    <tag k="addr:housenumber" v="555" />
    <tag k="addr:street" v="Bayley Hazen Road" />
    <tag k="addr:state" v="VT" />
    <tag k="ref:vcgi:esiteid" v="186247" />
  </node>
  <node id="-395" visible="true" lat="44.32751572" lon="-72.25224202">
    <tag k="addr:housenumber" v="1849" />
    <tag k="addr:street" v="Peacham Pond Road" />
    <tag k="addr:state" v="VT" />
    <tag k="ref:vcgi:esiteid" v="186248" />
  </node>
  <node id="-396" visible="true" lat="44.32732391" lon="-72.1721878">
    <tag k="addr:housenumber" v="132" />
    <tag k="addr:street" v="Church Street" />
    <tag k="addr:state" v="VT" />
    <tag k="ref:vcgi:esiteid" v="186249" />
  </node>
  <node id="-397" visible="true" lat="44.32714525" lon="-72.16949418">
    <tag k="addr:housenumber" v="535" />
    <tag k="addr:street" v="Bayley Hazen Road" />
    <tag k="addr:state" v="VT" />
    <tag k="ref:vcgi:esiteid" v="186250" />
  </node>
  <node id="-398" visible="true" lat="44.32723666" lon="-72.16879072">
    <tag k="addr:housenumber" v="480" />
    <tag k="addr:street" v="Bayley Hazen Road" />
    <tag k="addr:state" v="VT" />
    <tag k="ref:vcgi:esiteid" v="186251" />
  </node>
  <node id="-399" visible="true" lat="44.32716751" lon="-72.171669">
    <tag k="addr:housenumber" v="121" />
    <tag k="addr:street" v="Church Street" />
    <tag k="addr:state" v="VT" />
    <tag k="ref:vcgi:esiteid" v="186252" />
  </node>
  <node id="-400" visible="true" lat="44.32715225" lon="-72.18431091">
    <tag k="addr:housenumber" v="10" />
    <tag k="addr:street" v="Snow Farm Road" />
    <tag k="addr:state" v="VT" />
    <tag k="ref:vcgi:esiteid" v="186253" />
  </node>
  <node id="-401" visible="true" lat="44.32709121" lon="-72.17243957">
    <tag k="addr:housenumber" v="150" />
    <tag k="addr:street" v="Church Street" />
    <tag k="addr:state" v="VT" />
    <tag k="ref:vcgi:esiteid" v="186254" />
  </node>
  <node id="-402" visible="true" lat="44.3272165" lon="-72.25162811">
    <tag k="addr:housenumber" v="1813" />
    <tag k="addr:street" v="Peacham Pond Road" />
    <tag k="addr:state" v="VT" />
    <tag k="ref:vcgi:esiteid" v="186255" />
  </node>
  <node id="-403" visible="true" lat="44.32695388" lon="-72.16936492">
    <tag k="addr:housenumber" v="511" />
    <tag k="addr:street" v="Bayley Hazen Road" />
    <tag k="addr:state" v="VT" />
    <tag k="ref:vcgi:esiteid" v="186256" />
  </node>
  <node id="-404" visible="true" lat="44.32694625" lon="-72.17547607">
    <tag k="addr:housenumber" v="154" />
    <tag k="addr:street" v="Macks Mountain Road" />
    <tag k="addr:state" v="VT" />
    <tag k="ref:vcgi:esiteid" v="186257" />
  </node>
  <node id="-405" visible="true" lat="44.32688713" lon="-72.17044694">
    <tag k="addr:housenumber" v="63" />
    <tag k="addr:street" v="Church Street" />
    <tag k="addr:state" v="VT" />
    <tag k="ref:vcgi:esiteid" v="186258" />
  </node>
  <node id="-406" visible="true" lat="44.32702186" lon="-72.25133568">
    <tag k="addr:housenumber" v="1799" />
    <tag k="addr:street" v="Peacham Pond Road" />
    <tag k="addr:state" v="VT" />
    <tag k="ref:vcgi:esiteid" v="186259" />
  </node>
  <node id="-407" visible="true" lat="44.32679367" lon="-72.17209625">
    <tag k="addr:housenumber" v="153" />
    <tag k="addr:street" v="Church Street" />
    <tag k="addr:state" v="VT" />
    <tag k="ref:vcgi:esiteid" v="186260" />
  </node>
  <node id="-408" visible="true" lat="44.32677459" lon="-72.17119598">
    <tag k="addr:housenumber" v="135" />
    <tag k="addr:street" v="Church Street" />
    <tag k="addr:state" v="VT" />
    <tag k="ref:vcgi:esiteid" v="186261" />
  </node>
  <node id="-409" visible="true" lat="44.3266338" lon="-72.17586565">
    <tag k="addr:housenumber" v="147" />
    <tag k="addr:street" v="Macks Mountain Road" />
    <tag k="addr:state" v="VT" />
    <tag k="ref:vcgi:esiteid" v="186262" />
  </node>
  <node id="-410" visible="true" lat="44.32654571" lon="-72.1682434">
    <tag k="addr:housenumber" v="458" />
    <tag k="addr:street" v="Bayley Hazen Road" />
    <tag k="addr:state" v="VT" />
    <tag k="ref:vcgi:esiteid" v="186263" />
  </node>
  <node id="-411" visible="true" lat="44.32651955" lon="-72.18509188">
    <tag k="addr:housenumber" v="51" />
    <tag k="addr:street" v="Snow Farm Road" />
    <tag k="addr:state" v="VT" />
    <tag k="ref:vcgi:esiteid" v="186264" />
  </node>
  <node id="-412" visible="true" lat="44.3265419" lon="-72.16887664">
    <tag k="addr:housenumber" v="475" />
    <tag k="addr:street" v="Bayley Hazen Road" />
    <tag k="addr:state" v="VT" />
    <tag k="ref:vcgi:esiteid" v="186265" />
  </node>
  <node id="-413" visible="true" lat="44.32653808" lon="-72.17487335">
    <tag k="addr:housenumber" v="110" />
    <tag k="addr:street" v="Macks Mountain Road" />
    <tag k="addr:state" v="VT" />
    <tag k="ref:vcgi:esiteid" v="186266" />
  </node>
  <node id="-414" visible="true" lat="44.32677106" lon="-72.18637585">
    <tag k="addr:housenumber" v="122" />
    <tag k="addr:street" v="Snow Farm Road" />
    <tag k="addr:state" v="VT" />
    <tag k="ref:vcgi:esiteid" v="186267" />
  </node>
  <node id="-415" visible="true" lat="44.32674856" lon="-72.25096252">
    <tag k="addr:housenumber" v="1771" />
    <tag k="addr:street" v="Peacham Pond Road" />
    <tag k="addr:state" v="VT" />
    <tag k="ref:vcgi:esiteid" v="186268" />
  </node>
  <node id="-416" visible="true" lat="44.32641601" lon="-72.17259216">
    <tag k="addr:housenumber" v="185" />
    <tag k="addr:street" v="Church Street" />
    <tag k="addr:state" v="VT" />
    <tag k="ref:vcgi:esiteid" v="186269" />
  </node>
  <node id="-417" visible="true" lat="44.32644849" lon="-72.17413265">
    <tag k="addr:housenumber" v="64" />
    <tag k="addr:street" v="Macks Mountain Road" />
    <tag k="addr:state" v="VT" />
    <tag k="ref:vcgi:esiteid" v="186270" />
  </node>
  <node id="-418" visible="true" lat="44.3265732" lon="-72.25073446">
    <tag k="addr:housenumber" v="1765" />
    <tag k="addr:street" v="Peacham Pond Road" />
    <tag k="addr:state" v="VT" />
    <tag k="ref:vcgi:esiteid" v="186271" />
  </node>
  <node id="-419" visible="true" lat="44.32648849" lon="-72.21302032">
    <tag k="addr:housenumber" v="929" />
    <tag k="addr:street" v="Foster Pond Road" />
    <tag k="addr:state" v="VT" />
    <tag k="ref:vcgi:esiteid" v="186272" />
  </node>
  <node id="-420" visible="true" lat="44.32617187" lon="-72.16857147">
    <tag k="addr:housenumber" v="443" />
    <tag k="addr:street" v="Bayley Hazen Road" />
    <tag k="addr:state" v="VT" />
    <tag k="ref:vcgi:esiteid" v="186273" />
  </node>
  <node id="-421" visible="true" lat="44.32598495" lon="-72.14866638">
    <tag k="addr:housenumber" v="171" />
    <tag k="addr:street" v="Brick Kiln Road" />
    <tag k="addr:state" v="VT" />
    <tag k="ref:vcgi:esiteid" v="186274" />
  </node>
  <node id="-422" visible="true" lat="44.3260765" lon="-72.18800353">
    <tag k="addr:housenumber" v="98" />
    <tag k="addr:street" v="Worcester Road" />
    <tag k="addr:state" v="VT" />
    <tag k="ref:vcgi:esiteid" v="186275" />
  </node>
  <node id="-423" visible="true" lat="44.32606336" lon="-72.1727825">
    <tag k="addr:housenumber" v="35" />
    <tag k="addr:street" v="Academy Hill" />
    <tag k="addr:state" v="VT" />
    <tag k="ref:vcgi:esiteid" v="186276" />
  </node>
  <node id="-424" visible="true" lat="44.32581835" lon="-72.1864256">
    <tag k="addr:housenumber" v="123" />
    <tag k="addr:street" v="Snow Farm Road" />
    <tag k="addr:state" v="VT" />
    <tag k="ref:vcgi:esiteid" v="186277" />
  </node>
  <node id="-425" visible="true" lat="44.3260184" lon="-72.16651955">
    <tag k="addr:housenumber" v="340" />
    <tag k="addr:street" v="Bayley Hazen Road" />
    <tag k="addr:state" v="VT" />
    <tag k="ref:vcgi:esiteid" v="186278" />
  </node>
  <node id="-426" visible="true" lat="44.32579435" lon="-72.167662">
    <tag k="addr:housenumber" v="398" />
    <tag k="addr:street" v="Bayley Hazen Road" />
    <tag k="addr:state" v="VT" />
    <tag k="ref:vcgi:esiteid" v="186279" />
  </node>
  <node id="-427" visible="true" lat="44.32571792" lon="-72.21013641">
    <tag k="addr:housenumber" v="1125" />
    <tag k="addr:street" v="Foster Pond Road" />
    <tag k="addr:state" v="VT" />
    <tag k="ref:vcgi:esiteid" v="186280" />
  </node>
  <node id="-428" visible="true" lat="44.325531" lon="-72.1437149">
    <tag k="addr:housenumber" v="800" />
    <tag k="addr:street" v="Stevenson Road" />
    <tag k="addr:state" v="VT" />
    <tag k="ref:vcgi:esiteid" v="186281" />
  </node>
  <node id="-429" visible="true" lat="44.32544326" lon="-72.16841125">
    <tag k="addr:housenumber" v="791" />
    <tag k="addr:street" v="South Main Street" />
    <tag k="addr:state" v="VT" />
    <tag k="ref:vcgi:esiteid" v="186282" />
  </node>
  <node id="-430" visible="true" lat="44.32539367" lon="-72.16769409">
    <tag k="addr:housenumber" v="780" />
    <tag k="addr:street" v="South Main Street" />
    <tag k="addr:state" v="VT" />
    <tag k="ref:vcgi:esiteid" v="186283" />
  </node>
  <node id="-431" visible="true" lat="44.32518005" lon="-72.16810608">
    <tag k="addr:housenumber" v="769" />
    <tag k="addr:street" v="South Main Street" />
    <tag k="addr:state" v="VT" />
    <tag k="ref:vcgi:esiteid" v="186284" />
  </node>
  <node id="-432" visible="true" lat="44.3249855" lon="-72.16750335">
    <tag k="addr:housenumber" v="752" />
    <tag k="addr:street" v="South Main Street" />
    <tag k="addr:state" v="VT" />
    <tag k="ref:vcgi:esiteid" v="186285" />
  </node>
  <node id="-433" visible="true" lat="44.32492065" lon="-72.16799163">
    <tag k="addr:housenumber" v="749" />
    <tag k="addr:street" v="South Main Street" />
    <tag k="addr:state" v="VT" />
    <tag k="ref:vcgi:esiteid" v="186286" />
  </node>
  <node id="-434" visible="true" lat="44.32423782" lon="-72.16925048">
    <tag k="addr:housenumber" v="775" />
    <tag k="addr:street" v="South Main Street" />
    <tag k="addr:state" v="VT" />
    <tag k="ref:vcgi:esiteid" v="186287" />
  </node>
  <node id="-435" visible="true" lat="44.32385253" lon="-72.13898467">
    <tag k="addr:housenumber" v="1034" />
    <tag k="addr:street" v="Stevenson Road" />
    <tag k="addr:state" v="VT" />
    <tag k="ref:vcgi:esiteid" v="186288" />
  </node>
  <node id="-436" visible="true" lat="44.32265853" lon="-72.16588592">
    <tag k="addr:housenumber" v="148" />
    <tag k="addr:street" v="Bayley Hazen Road" />
    <tag k="addr:state" v="VT" />
    <tag k="ref:vcgi:esiteid" v="186289" />
  </node>
  <node id="-437" visible="true" lat="44.32231903" lon="-72.18656921">
    <tag k="addr:housenumber" v="210" />
    <tag k="addr:street" v="Worcester Road" />
    <tag k="addr:state" v="VT" />
    <tag k="ref:vcgi:esiteid" v="186290" />
  </node>
  <node id="-438" visible="true" lat="44.32215197" lon="-72.15656318">
    <tag k="addr:housenumber" v="1128" />
    <tag k="addr:street" v="Hollow Woods Road" />
    <tag k="addr:state" v="VT" />
    <tag k="ref:vcgi:esiteid" v="186291" />
  </node>
  <node id="-439" visible="true" lat="44.32142563" lon="-72.17909662">
    <tag k="addr:housenumber" v="637" />
    <tag k="addr:street" v="Maple Tree Lane" />
    <tag k="addr:state" v="VT" />
    <tag k="ref:vcgi:esiteid" v="186292" />
  </node>
  <node id="-440" visible="true" lat="44.32070159" lon="-72.1767807">
    <tag k="addr:housenumber" v="514" />
    <tag k="addr:street" v="Maple Tree Lane" />
    <tag k="addr:state" v="VT" />
    <tag k="ref:vcgi:esiteid" v="186293" />
  </node>
  <node id="-441" visible="true" lat="44.32033157" lon="-72.16539764">
    <tag k="addr:housenumber" v="6" />
    <tag k="addr:street" v="Bayley Hazen Road" />
    <tag k="addr:state" v="VT" />
    <tag k="ref:vcgi:esiteid" v="186294" />
  </node>
  <node id="-442" visible="true" lat="44.32037353" lon="-72.18678283">
    <tag k="addr:housenumber" v="371" />
    <tag k="addr:street" v="Worcester Road" />
    <tag k="addr:state" v="VT" />
    <tag k="ref:vcgi:esiteid" v="186295" />
  </node>
  <node id="-443" visible="true" lat="44.3201065" lon="-72.17469024">
    <tag k="addr:housenumber" v="400" />
    <tag k="addr:street" v="Maple Tree Lane" />
    <tag k="addr:state" v="VT" />
    <tag k="ref:vcgi:esiteid" v="186296" />
  </node>
  <node id="-444" visible="true" lat="44.32006073" lon="-72.17672729">
    <tag k="addr:housenumber" v="22" />
    <tag k="addr:street" v="County Road" />
    <tag k="addr:state" v="VT" />
    <tag k="ref:vcgi:esiteid" v="186297" />
  </node>
  <node id="-445" visible="true" lat="44.31929882" lon="-72.1667674">
    <tag k="addr:housenumber" v="360" />
    <tag k="addr:street" v="South Main Street" />
    <tag k="addr:state" v="VT" />
    <tag k="ref:vcgi:esiteid" v="186298" />
  </node>
  <node id="-446" visible="true" lat="44.31858826" lon="-72.17176819">
    <tag k="addr:housenumber" v="227" />
    <tag k="addr:street" v="Maple Tree Lane" />
    <tag k="addr:state" v="VT" />
    <tag k="ref:vcgi:esiteid" v="186299" />
  </node>
  <node id="-447" visible="true" lat="44.31834412" lon="-72.17041016">
    <tag k="addr:housenumber" v="157" />
    <tag k="addr:street" v="Maple Tree Lane" />
    <tag k="addr:state" v="VT" />
    <tag k="ref:vcgi:esiteid" v="186300" />
  </node>
  <node id="-448" visible="true" lat="44.31834793" lon="-72.17246246">
    <tag k="addr:housenumber" v="253" />
    <tag k="addr:street" v="Maple Tree Lane" />
    <tag k="addr:state" v="VT" />
    <tag k="ref:vcgi:esiteid" v="186301" />
  </node>
  <node id="-449" visible="true" lat="44.31856799" lon="-72.1677166">
    <tag k="addr:housenumber" v="18" />
    <tag k="addr:street" v="Maple Tree Lane" />
    <tag k="addr:state" v="VT" />
    <tag k="ref:vcgi:esiteid" v="186302" />
  </node>
  <node id="-450" visible="true" lat="44.31827275" lon="-72.1683434">
    <tag k="addr:housenumber" v="50" />
    <tag k="addr:street" v="Maple Tree Lane" />
    <tag k="addr:state" v="VT" />
    <tag k="ref:vcgi:esiteid" v="186303" />
  </node>
  <node id="-451" visible="true" lat="44.3182531" lon="-72.16697501">
    <tag k="addr:housenumber" v="282" />
    <tag k="addr:street" v="South Main Street" />
    <tag k="addr:state" v="VT" />
    <tag k="ref:vcgi:esiteid" v="186304" />
  </node>
  <node id="-452" visible="true" lat="44.31813049" lon="-72.15509796">
    <tag k="addr:housenumber" v="1404" />
    <tag k="addr:street" v="Hollow Woods Road" />
    <tag k="addr:state" v="VT" />
    <tag k="ref:vcgi:esiteid" v="186305" />
  </node>
  <node id="-453" visible="true" lat="44.31717483" lon="-72.18481578">
    <tag k="addr:housenumber" v="2877" />
    <tag k="addr:street" v="Green Bay Loop" />
    <tag k="addr:state" v="VT" />
    <tag k="ref:vcgi:esiteid" v="186306" />
  </node>
  <node id="-454" visible="true" lat="44.3156384" lon="-72.29084827">
    <tag k="addr:housenumber" v="1636" />
    <tag k="addr:street" v="Vermont Route 232" />
    <tag k="addr:state" v="VT" />
    <tag k="ref:vcgi:esiteid" v="186307" />
  </node>
  <node id="-455" visible="true" lat="44.31680679" lon="-72.15412902">
    <tag k="addr:housenumber" v="970" />
    <tag k="addr:street" v="Old West Road" />
    <tag k="addr:state" v="VT" />
    <tag k="ref:vcgi:esiteid" v="186308" />
  </node>
  <node id="-456" visible="true" lat="44.31593704" lon="-72.16701508">
    <tag k="addr:housenumber" v="125" />
    <tag k="addr:street" v="South Main Street" />
    <tag k="addr:state" v="VT" />
    <tag k="ref:vcgi:esiteid" v="186309" />
  </node>
  <node id="-457" visible="true" lat="44.31521218" lon="-72.16626818">
    <tag k="addr:housenumber" v="68" />
    <tag k="addr:street" v="South Main Street" />
    <tag k="addr:state" v="VT" />
    <tag k="ref:vcgi:esiteid" v="186310" />
  </node>
  <node id="-458" visible="true" lat="44.31498347" lon="-72.16667575">
    <tag k="addr:housenumber" v="55" />
    <tag k="addr:street" v="South Main Street" />
    <tag k="addr:state" v="VT" />
    <tag k="ref:vcgi:esiteid" v="186311" />
  </node>
  <node id="-459" visible="true" lat="44.31452715" lon="-72.1645582">
    <tag k="addr:housenumber" v="89" />
    <tag k="addr:street" v="Mill Trace" />
    <tag k="addr:state" v="VT" />
    <tag k="ref:vcgi:esiteid" v="186312" />
  </node>
  <node id="-460" visible="true" lat="44.31447376" lon="-72.16730793">
    <tag k="addr:housenumber" v="3" />
    <tag k="addr:street" v="South Main Street" />
    <tag k="addr:state" v="VT" />
    <tag k="ref:vcgi:esiteid" v="186313" />
  </node>
  <node id="-461" visible="true" lat="44.31455993" lon="-72.20893859">
    <tag k="addr:housenumber" v="509" />
    <tag k="addr:street" v="Devils Hill Road" />
    <tag k="addr:state" v="VT" />
    <tag k="ref:vcgi:esiteid" v="186314" />
  </node>
  <node id="-462" visible="true" lat="44.31438827" lon="-72.21043396">
    <tag k="addr:housenumber" v="555" />
    <tag k="addr:street" v="Devils Hill Road" />
    <tag k="addr:state" v="VT" />
    <tag k="ref:vcgi:esiteid" v="186315" />
  </node>
  <node id="-463" visible="true" lat="44.31420428" lon="-72.16724758">
    <tag k="addr:housenumber" v="24" />
    <tag k="addr:street" v="Governor Mattocks Road" />
    <tag k="addr:state" v="VT" />
    <tag k="ref:vcgi:esiteid" v="186316" />
  </node>
  <node id="-464" visible="true" lat="44.31428504" lon="-72.19365796">
    <tag k="addr:housenumber" v="2395" />
    <tag k="addr:street" v="Green Bay Loop" />
    <tag k="addr:state" v="VT" />
    <tag k="ref:vcgi:esiteid" v="186317" />
  </node>
  <node id="-465" visible="true" lat="44.31399917" lon="-72.16777039">
    <tag k="addr:housenumber" v="52" />
    <tag k="addr:street" v="Governor Mattocks Road" />
    <tag k="addr:state" v="VT" />
    <tag k="ref:vcgi:esiteid" v="186318" />
  </node>
  <node id="-466" visible="true" lat="44.3139801" lon="-72.16700745">
    <tag k="addr:housenumber" v="17" />
    <tag k="addr:street" v="Governor Mattocks Road" />
    <tag k="addr:state" v="VT" />
    <tag k="ref:vcgi:esiteid" v="186319" />
  </node>
  <node id="-467" visible="true" lat="44.31391528" lon="-72.16655198">
    <tag k="addr:housenumber" v="15" />
    <tag k="addr:street" v="Peacham Groton Road" />
    <tag k="addr:state" v="VT" />
    <tag k="ref:vcgi:esiteid" v="186320" />
  </node>
  <node id="-468" visible="true" lat="44.31374711" lon="-72.16821103">
    <tag k="addr:housenumber" v="86" />
    <tag k="addr:street" v="Governor Mattocks Road" />
    <tag k="addr:state" v="VT" />
    <tag k="ref:vcgi:esiteid" v="186321" />
  </node>
  <node id="-469" visible="true" lat="44.31362152" lon="-72.16655731">
    <tag k="addr:housenumber" v="43" />
    <tag k="addr:street" v="Peacham Groton Road" />
    <tag k="addr:state" v="VT" />
    <tag k="ref:vcgi:esiteid" v="186322" />
  </node>
  <node id="-470" visible="true" lat="44.31357575" lon="-72.16698456">
    <tag k="addr:housenumber" v="42" />
    <tag k="addr:street" v="Peacham Groton Road" />
    <tag k="addr:state" v="VT" />
    <tag k="ref:vcgi:esiteid" v="186323" />
  </node>
  <node id="-471" visible="true" lat="44.31352997" lon="-72.16252899">
    <tag k="addr:housenumber" v="208" />
    <tag k="addr:street" v="Peacham Barnet Road" />
    <tag k="addr:state" v="VT" />
    <tag k="ref:vcgi:esiteid" v="186324" />
  </node>
  <node id="-472" visible="true" lat="44.31337357" lon="-72.1682663">
    <tag k="addr:housenumber" v="97" />
    <tag k="addr:street" v="Governor Mattocks Road" />
    <tag k="addr:state" v="VT" />
    <tag k="ref:vcgi:esiteid" v="186325" />
  </node>
  <node id="-473" visible="true" lat="44.31341166" lon="-72.19778937">
    <tag k="addr:housenumber" v="2169" />
    <tag k="addr:street" v="Green Bay Loop" />
    <tag k="addr:state" v="VT" />
    <tag k="ref:vcgi:esiteid" v="186326" />
  </node>
  <node id="-474" visible="true" lat="44.31311798" lon="-72.16634369">
    <tag k="addr:housenumber" v="79" />
    <tag k="addr:street" v="Peacham Groton Road" />
    <tag k="addr:state" v="VT" />
    <tag k="ref:vcgi:esiteid" v="186327" />
  </node>
  <node id="-475" visible="true" lat="44.31308746" lon="-72.16683197">
    <tag k="addr:housenumber" v="76" />
    <tag k="addr:street" v="Peacham Groton Road" />
    <tag k="addr:state" v="VT" />
    <tag k="ref:vcgi:esiteid" v="186328" />
  </node>
  <node id="-476" visible="true" lat="44.31274151" lon="-72.17836113">
    <tag k="addr:housenumber" v="543" />
    <tag k="addr:street" v="County Road" />
    <tag k="addr:state" v="VT" />
    <tag k="ref:vcgi:esiteid" v="186329" />
  </node>
  <node id="-477" visible="true" lat="44.31267548" lon="-72.16678619">
    <tag k="addr:housenumber" v="104" />
    <tag k="addr:street" v="Peacham Groton Road" />
    <tag k="addr:state" v="VT" />
    <tag k="ref:vcgi:esiteid" v="186330" />
  </node>
  <node id="-478" visible="true" lat="44.31283265" lon="-72.21552148">
    <tag k="addr:housenumber" v="912" />
    <tag k="addr:street" v="Devils Hill Road" />
    <tag k="addr:state" v="VT" />
    <tag k="ref:vcgi:esiteid" v="186331" />
  </node>
  <node id="-479" visible="true" lat="44.31212234" lon="-72.16613006">
    <tag k="addr:housenumber" v="147" />
    <tag k="addr:street" v="Peacham Groton Road" />
    <tag k="addr:state" v="VT" />
    <tag k="ref:vcgi:esiteid" v="186332" />
  </node>
  <node id="-480" visible="true" lat="44.31210447" lon="-72.1475716">
    <tag k="addr:housenumber" v="500" />
    <tag k="addr:street" v="Old West Road" />
    <tag k="addr:state" v="VT" />
    <tag k="ref:vcgi:esiteid" v="186333" />
  </node>
  <node id="-481" visible="true" lat="44.31191253" lon="-72.20150756">
    <tag k="addr:housenumber" v="1973" />
    <tag k="addr:street" v="Green Bay Loop" />
    <tag k="addr:state" v="VT" />
    <tag k="ref:vcgi:esiteid" v="186334" />
  </node>
  <node id="-482" visible="true" lat="44.31175232" lon="-72.1667099">
    <tag k="addr:housenumber" v="168" />
    <tag k="addr:street" v="Peacham Groton Road" />
    <tag k="addr:state" v="VT" />
    <tag k="ref:vcgi:esiteid" v="186335" />
  </node>
  <node id="-483" visible="true" lat="44.31128196" lon="-72.21527853">
    <tag k="addr:housenumber" v="81" />
    <tag k="addr:street" v="Claude Field Lane" />
    <tag k="addr:state" v="VT" />
    <tag k="ref:vcgi:esiteid" v="186336" />
  </node>
  <node id="-484" visible="true" lat="44.31120125" lon="-72.21715562">
    <tag k="addr:housenumber" v="979" />
    <tag k="addr:street" v="Devils Hill Road" />
    <tag k="addr:state" v="VT" />
    <tag k="ref:vcgi:esiteid" v="186337" />
  </node>
  <node id="-485" visible="true" lat="44.31082148" lon="-72.21418178">
    <tag k="addr:housenumber" v="807" />
    <tag k="addr:street" v="Devils Hill Road" />
    <tag k="addr:state" v="VT" />
    <tag k="ref:vcgi:esiteid" v="186338" />
  </node>
  <node id="-486" visible="true" lat="44.31105722" lon="-72.21663714">
    <tag k="addr:housenumber" v="34" />
    <tag k="addr:street" v="Claude Field Lane" />
    <tag k="addr:state" v="VT" />
    <tag k="ref:vcgi:esiteid" v="186339" />
  </node>
  <node id="-487" visible="true" lat="44.31094624" lon="-72.21730737">
    <tag k="addr:housenumber" v="981" />
    <tag k="addr:street" v="Devils Hill Road" />
    <tag k="addr:state" v="VT" />
    <tag k="ref:vcgi:esiteid" v="186340" />
  </node>
  <node id="-488" visible="true" lat="44.31093597" lon="-72.1648407">
    <tag k="addr:housenumber" v="267" />
    <tag k="addr:street" v="Peacham Groton Road" />
    <tag k="addr:state" v="VT" />
    <tag k="ref:vcgi:esiteid" v="186341" />
  </node>
  <node id="-489" visible="true" lat="44.31105726" lon="-72.21545675">
    <tag k="addr:housenumber" v="101" />
    <tag k="addr:street" v="Claude Field Lane" />
    <tag k="addr:state" v="VT" />
    <tag k="ref:vcgi:esiteid" v="186342" />
  </node>
  <node id="-490" visible="true" lat="44.31092071" lon="-72.21907043">
    <tag k="addr:housenumber" v="1023" />
    <tag k="addr:street" v="Devils Hill Road" />
    <tag k="addr:state" v="VT" />
    <tag k="ref:vcgi:esiteid" v="186343" />
  </node>
  <node id="-491" visible="true" lat="44.31068101" lon="-72.21613162">
    <tag k="addr:housenumber" v="118" />
    <tag k="addr:street" v="Claude Field Lane" />
    <tag k="addr:state" v="VT" />
    <tag k="ref:vcgi:esiteid" v="186344" />
  </node>
  <node id="-492" visible="true" lat="44.3103497" lon="-72.21557167">
    <tag k="addr:housenumber" v="126" />
    <tag k="addr:street" v="Claude Field Lane" />
    <tag k="addr:state" v="VT" />
    <tag k="ref:vcgi:esiteid" v="186345" />
  </node>
  <node id="-493" visible="true" lat="44.31034124" lon="-72.15889035">
    <tag k="addr:housenumber" v="536" />
    <tag k="addr:street" v="Peacham Barnet Road" />
    <tag k="addr:state" v="VT" />
    <tag k="ref:vcgi:esiteid" v="186346" />
  </node>
  <node id="-494" visible="true" lat="44.31006945" lon="-72.21915572">
    <tag k="addr:housenumber" v="1001" />
    <tag k="addr:street" v="Devils Hill Road" />
    <tag k="addr:state" v="VT" />
    <tag k="ref:vcgi:esiteid" v="186347" />
  </node>
  <node id="-495" visible="true" lat="44.310009" lon="-72.2149353">
    <tag k="addr:housenumber" v="184" />
    <tag k="addr:street" v="Claude Field Lane" />
    <tag k="addr:state" v="VT" />
    <tag k="ref:vcgi:esiteid" v="186348" />
  </node>
  <node id="-496" visible="true" lat="44.309803" lon="-72.21504974">
    <tag k="addr:housenumber" v="192" />
    <tag k="addr:street" v="Claude Field Lane" />
    <tag k="addr:state" v="VT" />
    <tag k="ref:vcgi:esiteid" v="186349" />
  </node>
  <node id="-497" visible="true" lat="44.30952351" lon="-72.21883333">
    <tag k="addr:housenumber" v="1003" />
    <tag k="addr:street" v="Devils Hill Road" />
    <tag k="addr:state" v="VT" />
    <tag k="ref:vcgi:esiteid" v="186350" />
  </node>
  <node id="-498" visible="true" lat="44.30945587" lon="-72.21469116">
    <tag k="addr:housenumber" v="222" />
    <tag k="addr:street" v="Claude Field Lane" />
    <tag k="addr:state" v="VT" />
    <tag k="ref:vcgi:esiteid" v="186351" />
  </node>
  <node id="-499" visible="true" lat="44.30914773" lon="-72.15519336">
    <tag k="addr:housenumber" v="678" />
    <tag k="addr:street" v="Peacham Barnet Road" />
    <tag k="addr:state" v="VT" />
    <tag k="ref:vcgi:esiteid" v="186352" />
  </node>
  <node id="-500" visible="true" lat="44.30899302" lon="-72.15466383">
    <tag k="addr:housenumber" v="722" />
    <tag k="addr:street" v="Peacham Barnet Road" />
    <tag k="addr:state" v="VT" />
    <tag k="ref:vcgi:esiteid" v="186353" />
  </node>
  <node id="-501" visible="true" lat="44.30896879" lon="-72.21379345">
    <tag k="addr:housenumber" v="266" />
    <tag k="addr:street" v="Claude Field Lane" />
    <tag k="addr:state" v="VT" />
    <tag k="ref:vcgi:esiteid" v="186354" />
  </node>
  <node id="-502" visible="true" lat="44.30878238" lon="-72.15337279">
    <tag k="addr:housenumber" v="45" />
    <tag k="addr:street" v="Aiken Farm Road" />
    <tag k="addr:state" v="VT" />
    <tag k="ref:vcgi:esiteid" v="186355" />
  </node>
  <node id="-503" visible="true" lat="44.30858781" lon="-72.15400051">
    <tag k="addr:housenumber" v="45" />
    <tag k="addr:street" v="Farrow Farm Road" />
    <tag k="addr:state" v="VT" />
    <tag k="ref:vcgi:esiteid" v="186356" />
  </node>
  <node id="-504" visible="true" lat="44.3086264" lon="-72.20071509">
    <tag k="addr:housenumber" v="1759" />
    <tag k="addr:street" v="Green Bay Loop" />
    <tag k="addr:state" v="VT" />
    <tag k="ref:vcgi:esiteid" v="186357" />
  </node>
  <node id="-505" visible="true" lat="44.30835342" lon="-72.15268707">
    <tag k="addr:housenumber" v="828" />
    <tag k="addr:street" v="Peacham Barnet Road" />
    <tag k="addr:state" v="VT" />
    <tag k="ref:vcgi:esiteid" v="186358" />
  </node>
  <node id="-506" visible="true" lat="44.3082161" lon="-72.15496063">
    <tag k="addr:housenumber" v="86" />
    <tag k="addr:street" v="Farrow Farm Road" />
    <tag k="addr:state" v="VT" />
    <tag k="ref:vcgi:esiteid" v="186359" />
  </node>
  <node id="-507" visible="true" lat="44.30812072" lon="-72.21305847">
    <tag k="addr:housenumber" v="290" />
    <tag k="addr:street" v="Claude Field Lane" />
    <tag k="addr:state" v="VT" />
    <tag k="ref:vcgi:esiteid" v="186360" />
  </node>
  <node id="-508" visible="true" lat="44.30824449" lon="-72.21004709">
    <tag k="addr:housenumber" v="538" />
    <tag k="addr:street" v="The Lane" />
    <tag k="addr:state" v="VT" />
    <tag k="ref:vcgi:esiteid" v="186361" />
  </node>
  <node id="-509" visible="true" lat="44.30787277" lon="-72.19944319">
    <tag k="addr:housenumber" v="1643" />
    <tag k="addr:street" v="Green Bay Loop" />
    <tag k="addr:state" v="VT" />
    <tag k="ref:vcgi:esiteid" v="186362" />
  </node>
  <node id="-510" visible="true" lat="44.29763683" lon="-72.29549386">
    <tag k="addr:housenumber" v="884" />
    <tag k="addr:street" v="Vermont Route 232" />
    <tag k="addr:state" v="VT" />
    <tag k="ref:vcgi:esiteid" v="186363" />
  </node>
  <node id="-511" visible="true" lat="44.30781936" lon="-72.21019744">
    <tag k="addr:housenumber" v="557" />
    <tag k="addr:street" v="The Lane" />
    <tag k="addr:state" v="VT" />
    <tag k="ref:vcgi:esiteid" v="186364" />
  </node>
  <node id="-512" visible="true" lat="44.30768585" lon="-72.18217468">
    <tag k="addr:housenumber" v="914" />
    <tag k="addr:street" v="County Road" />
    <tag k="addr:state" v="VT" />
    <tag k="ref:vcgi:esiteid" v="186365" />
  </node>
  <node id="-513" visible="true" lat="44.30738777" lon="-72.20984118">
    <tag k="addr:housenumber" v="515" />
    <tag k="addr:street" v="The Lane" />
    <tag k="addr:state" v="VT" />
    <tag k="ref:vcgi:esiteid" v="186366" />
  </node>
  <node id="-514" visible="true" lat="44.30706875" lon="-72.20886635">
    <tag k="addr:housenumber" v="485" />
    <tag k="addr:street" v="The Lane" />
    <tag k="addr:state" v="VT" />
    <tag k="ref:vcgi:esiteid" v="186367" />
  </node>
  <node id="-515" visible="true" lat="44.30717287" lon="-72.20941808">
    <tag k="addr:housenumber" v="495" />
    <tag k="addr:street" v="The Lane" />
    <tag k="addr:state" v="VT" />
    <tag k="ref:vcgi:esiteid" v="186368" />
  </node>
  <node id="-516" visible="true" lat="44.30704928" lon="-72.2092423">
    <tag k="addr:housenumber" v="491" />
    <tag k="addr:street" v="The Lane" />
    <tag k="addr:state" v="VT" />
    <tag k="ref:vcgi:esiteid" v="186369" />
  </node>
  <node id="-517" visible="true" lat="44.30677197" lon="-72.20865288">
    <tag k="addr:housenumber" v="16" />
    <tag k="addr:street" v="Camp Road" />
    <tag k="addr:state" v="VT" />
    <tag k="ref:vcgi:esiteid" v="186370" />
  </node>
  <node id="-518" visible="true" lat="44.30688095" lon="-72.20818328">
    <tag k="addr:housenumber" v="22" />
    <tag k="addr:street" v="Camp Road" />
    <tag k="addr:state" v="VT" />
    <tag k="ref:vcgi:esiteid" v="186371" />
  </node>
  <node id="-519" visible="true" lat="44.30672454" lon="-72.1531372">
    <tag k="addr:housenumber" v="158" />
    <tag k="addr:street" v="Aiken Farm Road" />
    <tag k="addr:state" v="VT" />
    <tag k="ref:vcgi:esiteid" v="186372" />
  </node>
  <node id="-520" visible="true" lat="44.30670928" lon="-72.2084732">
    <tag k="addr:housenumber" v="20" />
    <tag k="addr:street" v="Camp Road" />
    <tag k="addr:state" v="VT" />
    <tag k="ref:vcgi:esiteid" v="186373" />
  </node>
  <node id="-521" visible="true" lat="44.30655769" lon="-72.20800548">
    <tag k="addr:housenumber" v="50" />
    <tag k="addr:street" v="Camp Road" />
    <tag k="addr:state" v="VT" />
    <tag k="ref:vcgi:esiteid" v="186374" />
  </node>
  <node id="-522" visible="true" lat="44.3063474" lon="-72.20776559">
    <tag k="addr:housenumber" v="66" />
    <tag k="addr:street" v="Camp Road" />
    <tag k="addr:state" v="VT" />
    <tag k="ref:vcgi:esiteid" v="186375" />
  </node>
  <node id="-523" visible="true" lat="44.30635471" lon="-72.20107254">
    <tag k="addr:housenumber" v="1531" />
    <tag k="addr:street" v="Green Bay Loop" />
    <tag k="addr:state" v="VT" />
    <tag k="ref:vcgi:esiteid" v="186376" />
  </node>
  <node id="-524" visible="true" lat="44.30623346" lon="-72.20746727">
    <tag k="addr:housenumber" v="90" />
    <tag k="addr:street" v="Camp Road" />
    <tag k="addr:state" v="VT" />
    <tag k="ref:vcgi:esiteid" v="186377" />
  </node>
  <node id="-525" visible="true" lat="44.30598227" lon="-72.20710699">
    <tag k="addr:housenumber" v="94" />
    <tag k="addr:street" v="Camp Road" />
    <tag k="addr:state" v="VT" />
    <tag k="ref:vcgi:esiteid" v="186378" />
  </node>
  <node id="-526" visible="true" lat="44.30607903" lon="-72.20727811">
    <tag k="addr:housenumber" v="92" />
    <tag k="addr:street" v="Camp Road" />
    <tag k="addr:state" v="VT" />
    <tag k="ref:vcgi:esiteid" v="186379" />
  </node>
  <node id="-527" visible="true" lat="44.30605686" lon="-72.15640534">
    <tag k="addr:housenumber" v="250" />
    <tag k="addr:street" v="Farrow Farm Road" />
    <tag k="addr:state" v="VT" />
    <tag k="ref:vcgi:esiteid" v="186380" />
  </node>
  <node id="-528" visible="true" lat="44.30587387" lon="-72.18231964">
    <tag k="addr:housenumber" v="1061" />
    <tag k="addr:street" v="County Road" />
    <tag k="addr:state" v="VT" />
    <tag k="ref:vcgi:esiteid" v="186381" />
  </node>
  <node id="-529" visible="true" lat="44.30589456" lon="-72.16675433">
    <tag k="addr:housenumber" v="100" />
    <tag k="addr:street" v="Gov Wentworth Grant Road" />
    <tag k="addr:state" v="VT" />
    <tag k="ref:vcgi:esiteid" v="186382" />
  </node>
  <node id="-530" visible="true" lat="44.30577968" lon="-72.20170041">
    <tag k="addr:housenumber" v="1483" />
    <tag k="addr:street" v="Green Bay Loop" />
    <tag k="addr:state" v="VT" />
    <tag k="ref:vcgi:esiteid" v="186383" />
  </node>
  <node id="-531" visible="true" lat="44.30585861" lon="-72.2067871">
    <tag k="addr:housenumber" v="120" />
    <tag k="addr:street" v="Camp Road" />
    <tag k="addr:state" v="VT" />
    <tag k="ref:vcgi:esiteid" v="186384" />
  </node>
  <node id="-532" visible="true" lat="44.30584393" lon="-72.2063624">
    <tag k="addr:housenumber" v="152" />
    <tag k="addr:street" v="Camp Road" />
    <tag k="addr:state" v="VT" />
    <tag k="ref:vcgi:esiteid" v="186385" />
  </node>
  <node id="-533" visible="true" lat="44.30564352" lon="-72.20598803">
    <tag k="addr:housenumber" v="182" />
    <tag k="addr:street" v="Camp Road" />
    <tag k="addr:state" v="VT" />
    <tag k="ref:vcgi:esiteid" v="186386" />
  </node>
  <node id="-534" visible="true" lat="44.304873" lon="-72.1652912">
    <tag k="addr:housenumber" v="646" />
    <tag k="addr:street" v="Peacham Groton Road" />
    <tag k="addr:state" v="VT" />
    <tag k="ref:vcgi:esiteid" v="186387" />
  </node>
  <node id="-535" visible="true" lat="44.30481338" lon="-72.20277404">
    <tag k="addr:housenumber" v="1391" />
    <tag k="addr:street" v="Green Bay Loop" />
    <tag k="addr:state" v="VT" />
    <tag k="ref:vcgi:esiteid" v="186388" />
  </node>
  <node id="-536" visible="true" lat="44.30450452" lon="-72.20875041">
    <tag k="addr:housenumber" v="411" />
    <tag k="addr:street" v="Martins Pond Lane" />
    <tag k="addr:state" v="VT" />
    <tag k="ref:vcgi:esiteid" v="186389" />
  </node>
  <node id="-537" visible="true" lat="44.30447006" lon="-72.21065521">
    <tag k="addr:housenumber" v="355" />
    <tag k="addr:street" v="Martins Pond Lane" />
    <tag k="addr:state" v="VT" />
    <tag k="ref:vcgi:esiteid" v="186390" />
  </node>
  <node id="-538" visible="true" lat="44.30442175" lon="-72.21043062">
    <tag k="addr:housenumber" v="357" />
    <tag k="addr:street" v="Martins Pond Lane" />
    <tag k="addr:state" v="VT" />
    <tag k="ref:vcgi:esiteid" v="186391" />
  </node>
  <node id="-539" visible="true" lat="44.30449899" lon="-72.20934081">
    <tag k="addr:housenumber" v="401" />
    <tag k="addr:street" v="Martins Pond Lane" />
    <tag k="addr:state" v="VT" />
    <tag k="ref:vcgi:esiteid" v="186392" />
  </node>
  <node id="-540" visible="true" lat="44.30426788" lon="-72.18403625">
    <tag k="addr:housenumber" v="1194" />
    <tag k="addr:street" v="County Road" />
    <tag k="addr:state" v="VT" />
    <tag k="ref:vcgi:esiteid" v="186393" />
  </node>
  <node id="-541" visible="true" lat="44.30442589" lon="-72.20971009">
    <tag k="addr:housenumber" v="383" />
    <tag k="addr:street" v="Martins Pond Lane" />
    <tag k="addr:state" v="VT" />
    <tag k="ref:vcgi:esiteid" v="186394" />
  </node>
  <node id="-542" visible="true" lat="44.30365315" lon="-72.20347408">
    <tag k="addr:housenumber" v="1298" />
    <tag k="addr:street" v="Green Bay Loop" />
    <tag k="addr:state" v="VT" />
    <tag k="ref:vcgi:esiteid" v="186395" />
  </node>
  <node id="-543" visible="true" lat="44.30335617" lon="-72.16996002">
    <tag k="addr:housenumber" v="330" />
    <tag k="addr:street" v="Gov Wentworth Grant Road" />
    <tag k="addr:state" v="VT" />
    <tag k="ref:vcgi:esiteid" v="186396" />
  </node>
  <node id="-544" visible="true" lat="44.30211203" lon="-72.20445313">
    <tag k="addr:housenumber" v="1178" />
    <tag k="addr:street" v="Green Bay Loop" />
    <tag k="addr:state" v="VT" />
    <tag k="ref:vcgi:esiteid" v="186397" />
  </node>
  <node id="-545" visible="true" lat="44.30224373" lon="-72.21251407">
    <tag k="addr:housenumber" v="219" />
    <tag k="addr:street" v="Martins Pond Lane" />
    <tag k="addr:state" v="VT" />
    <tag k="ref:vcgi:esiteid" v="186398" />
  </node>
  <node id="-546" visible="true" lat="44.30177249" lon="-72.20461486">
    <tag k="addr:housenumber" v="1150" />
    <tag k="addr:street" v="Green Bay Loop" />
    <tag k="addr:state" v="VT" />
    <tag k="ref:vcgi:esiteid" v="186399" />
  </node>
  <node id="-547" visible="true" lat="44.30132055" lon="-72.20474193">
    <tag k="addr:housenumber" v="1116" />
    <tag k="addr:street" v="Green Bay Loop" />
    <tag k="addr:state" v="VT" />
    <tag k="ref:vcgi:esiteid" v="186400" />
  </node>
  <node id="-548" visible="true" lat="44.30110667" lon="-72.20565253">
    <tag k="addr:housenumber" v="1087" />
    <tag k="addr:street" v="Green Bay Loop" />
    <tag k="addr:state" v="VT" />
    <tag k="ref:vcgi:esiteid" v="186401" />
  </node>
  <node id="-549" visible="true" lat="44.30046681" lon="-72.17125215">
    <tag k="addr:housenumber" v="529" />
    <tag k="addr:street" v="Gov Wentworth Grant Road" />
    <tag k="addr:state" v="VT" />
    <tag k="ref:vcgi:esiteid" v="186402" />
  </node>
  <node id="-550" visible="true" lat="44.29983359" lon="-72.21531256">
    <tag k="addr:housenumber" v="217" />
    <tag k="addr:street" v="Martins Pond Lane" />
    <tag k="addr:state" v="VT" />
    <tag k="ref:vcgi:esiteid" v="186403" />
  </node>
  <node id="-551" visible="true" lat="44.29964594" lon="-72.30187126">
    <tag k="addr:housenumber" v="273" />
    <tag k="addr:street" v="Vermont Route 232" />
    <tag k="addr:state" v="VT" />
    <tag k="ref:vcgi:esiteid" v="186404" />
  </node>
  <node id="-552" visible="true" lat="44.29848621" lon="-72.20503835">
    <tag k="addr:housenumber" v="931" />
    <tag k="addr:street" v="Green Bay Loop" />
    <tag k="addr:state" v="VT" />
    <tag k="ref:vcgi:esiteid" v="186405" />
  </node>
  <node id="-553" visible="true" lat="44.29806561" lon="-72.18478214">
    <tag k="addr:housenumber" v="1643" />
    <tag k="addr:street" v="County Road" />
    <tag k="addr:state" v="VT" />
    <tag k="ref:vcgi:esiteid" v="186406" />
  </node>
  <node id="-554" visible="true" lat="44.29700223" lon="-72.18349211">
    <tag k="addr:housenumber" v="15" />
    <tag k="addr:street" v="Great Road" />
    <tag k="addr:state" v="VT" />
    <tag k="ref:vcgi:esiteid" v="186410" />
  </node>
  <node id="-555" visible="true" lat="44.29561233" lon="-72.18541717">
    <tag k="addr:housenumber" v="42" />
    <tag k="addr:street" v="Great Road" />
    <tag k="addr:state" v="VT" />
    <tag k="ref:vcgi:esiteid" v="186411" />
  </node>
  <node id="-556" visible="true" lat="44.29346436" lon="-72.20015055">
    <tag k="addr:housenumber" v="485" />
    <tag k="addr:street" v="Green Bay Loop" />
    <tag k="addr:state" v="VT" />
    <tag k="ref:vcgi:esiteid" v="186412" />
  </node>
  <node id="-557" visible="true" lat="44.29277801" lon="-72.19668579">
    <tag k="addr:housenumber" v="304" />
    <tag k="addr:street" v="Green Bay Loop" />
    <tag k="addr:state" v="VT" />
    <tag k="ref:vcgi:esiteid" v="186413" />
  </node>
  <node id="-558" visible="true" lat="44.29169845" lon="-72.18991088">
    <tag k="addr:housenumber" v="2139" />
    <tag k="addr:street" v="County Road" />
    <tag k="addr:state" v="VT" />
    <tag k="ref:vcgi:esiteid" v="186414" />
  </node>
  <node id="-559" visible="true" lat="44.29154968" lon="-72.19348907">
    <tag k="addr:housenumber" v="124" />
    <tag k="addr:street" v="Green Bay Loop" />
    <tag k="addr:state" v="VT" />
    <tag k="ref:vcgi:esiteid" v="186415" />
  </node>
  <node id="-560" visible="true" lat="44.29141235" lon="-72.19824218">
    <tag k="addr:housenumber" v="339" />
    <tag k="addr:street" v="Green Bay Loop" />
    <tag k="addr:state" v="VT" />
    <tag k="ref:vcgi:esiteid" v="186416" />
  </node>
  <node id="-561" visible="true" lat="44.2899058" lon="-72.19104422">
    <tag k="addr:housenumber" v="2215" />
    <tag k="addr:street" v="County Road" />
    <tag k="addr:state" v="VT" />
    <tag k="ref:vcgi:esiteid" v="186417" />
  </node>
  <node id="-562" visible="true" lat="44.28118133" lon="-72.18715667">
    <tag k="addr:housenumber" v="1104" />
    <tag k="addr:street" v="Great Road" />
    <tag k="addr:state" v="VT" />
    <tag k="ref:vcgi:esiteid" v="186418" />
  </node>
  <node id="-563" visible="true" lat="44.28094482" lon="-72.19950103">
    <tag k="addr:housenumber" v="3038" />
    <tag k="addr:street" v="County Road" />
    <tag k="addr:state" v="VT" />
    <tag k="ref:vcgi:esiteid" v="186419" />
  </node>
  <node id="-564" visible="true" lat="44.27893448" lon="-72.18730164">
    <tag k="addr:housenumber" v="1223" />
    <tag k="addr:street" v="Great Road" />
    <tag k="addr:state" v="VT" />
    <tag k="ref:vcgi:esiteid" v="186420" />
  </node>
  <node id="-565" visible="true" lat="44.27780532" lon="-72.18977355">
    <tag k="addr:housenumber" v="1372" />
    <tag k="addr:street" v="Great Road" />
    <tag k="addr:state" v="VT" />
    <tag k="ref:vcgi:esiteid" v="186421" />
  </node>
  <node id="-566" visible="true" lat="44.27773666" lon="-72.19231415">
    <tag k="addr:housenumber" v="1400" />
    <tag k="addr:street" v="Great Road" />
    <tag k="addr:state" v="VT" />
    <tag k="ref:vcgi:esiteid" v="186422" />
  </node>
  <node id="-567" visible="true" lat="44.27744293" lon="-72.18808746">
    <tag k="addr:housenumber" v="1349" />
    <tag k="addr:street" v="Great Road" />
    <tag k="addr:state" v="VT" />
    <tag k="ref:vcgi:esiteid" v="186423" />
  </node>
  <node id="-568" visible="true" lat="44.34662247" lon="-72.18877411">
    <tag k="addr:housenumber" v="358" />
    <tag k="addr:street" v="Penny Street" />
    <tag k="addr:state" v="VT" />
    <tag k="ref:vcgi:esiteid" v="186424" />
  </node>
  <node id="-569" visible="true" lat="44.33732986" lon="-72.13552856">
    <tag k="addr:housenumber" v="850" />
    <tag k="addr:street" v="Blanchard Hill Road" />
    <tag k="addr:state" v="VT" />
    <tag k="ref:vcgi:esiteid" v="186425" />
  </node>
  <node id="-570" visible="true" lat="44.33091978" lon="-72.18121773">
    <tag k="addr:housenumber" v="510" />
    <tag k="addr:street" v="Macks Mountain Road" />
    <tag k="addr:state" v="VT" />
    <tag k="ref:vcgi:esiteid" v="186426" />
  </node>
  <node id="-571" visible="true" lat="44.35407923" lon="-72.15052906">
    <tag k="addr:housenumber" v="1140" />
    <tag k="addr:street" v="Old County Road" />
    <tag k="addr:state" v="VT" />
    <tag k="ref:vcgi:esiteid" v="186427" />
  </node>
  <node id="-572" visible="true" lat="44.36450577" lon="-72.19536591">
    <tag k="addr:housenumber" v="2025" />
    <tag k="addr:street" v="Slack Street" />
    <tag k="addr:state" v="VT" />
    <tag k="ref:vcgi:esiteid" v="186428" />
  </node>
  <node id="-573" visible="true" lat="44.36269997" lon="-72.19722761">
    <tag k="addr:housenumber" v="1871" />
    <tag k="addr:street" v="Slack Street" />
    <tag k="addr:state" v="VT" />
    <tag k="ref:vcgi:esiteid" v="186429" />
  </node>
  <node id="-574" visible="true" lat="44.35868072" lon="-72.19282532">
    <tag k="addr:housenumber" v="1581" />
    <tag k="addr:street" v="Slack Street" />
    <tag k="addr:state" v="VT" />
    <tag k="ref:vcgi:esiteid" v="186430" />
  </node>
  <node id="-575" visible="true" lat="44.28889846" lon="-72.18302917">
    <tag k="addr:housenumber" v="520" />
    <tag k="addr:street" v="Great Road" />
    <tag k="addr:state" v="VT" />
    <tag k="ref:vcgi:esiteid" v="186431" />
  </node>
  <node id="-576" visible="true" lat="44.28648758" lon="-72.18039703">
    <tag k="addr:housenumber" v="184" />
    <tag k="addr:street" v="Field Road" />
    <tag k="addr:state" v="VT" />
    <tag k="ref:vcgi:esiteid" v="186432" />
  </node>
  <node id="-577" visible="true" lat="44.28519681" lon="-72.17872083">
    <tag k="addr:housenumber" v="311" />
    <tag k="addr:street" v="Field Road" />
    <tag k="addr:state" v="VT" />
    <tag k="ref:vcgi:esiteid" v="186433" />
  </node>
  <node id="-578" visible="true" lat="44.28486251" lon="-72.18461608">
    <tag k="addr:housenumber" v="820" />
    <tag k="addr:street" v="Great Road" />
    <tag k="addr:state" v="VT" />
    <tag k="ref:vcgi:esiteid" v="186434" />
  </node>
  <node id="-579" visible="true" lat="44.35342684" lon="-72.12289957">
    <tag k="addr:housenumber" v="21" />
    <tag k="addr:street" v="Varnum Street" />
    <tag k="addr:state" v="VT" />
    <tag k="ref:vcgi:esiteid" v="186435" />
  </node>
  <node id="-580" visible="true" lat="44.33844729" lon="-72.12119543">
    <tag k="addr:housenumber" v="949" />
    <tag k="addr:street" v="Somers Road" />
    <tag k="addr:state" v="VT" />
    <tag k="ref:vcgi:esiteid" v="186436" />
  </node>
  <node id="-581" visible="true" lat="44.34376379" lon="-72.1597297">
    <tag k="addr:housenumber" v="219" />
    <tag k="addr:street" v="Old County Road" />
    <tag k="addr:state" v="VT" />
    <tag k="ref:vcgi:esiteid" v="186437" />
  </node>
  <node id="-582" visible="true" lat="44.29109421" lon="-72.18576099">
    <tag k="addr:housenumber" v="240" />
    <tag k="addr:street" v="Great Road" />
    <tag k="addr:state" v="VT" />
    <tag k="ref:vcgi:esiteid" v="186438" />
  </node>
  <node id="-583" visible="true" lat="44.39350652" lon="-72.21818815">
    <tag k="addr:housenumber" v="485" />
    <tag k="addr:street" v="Farmer Johns Road" />
    <tag k="addr:state" v="VT" />
    <tag k="ref:vcgi:esiteid" v="186439" />
  </node>
  <node id="-584" visible="true" lat="44.3925169" lon="-72.21740577">
    <tag k="addr:housenumber" v="558" />
    <tag k="addr:street" v="Farmer Johns Road" />
    <tag k="addr:state" v="VT" />
    <tag k="ref:vcgi:esiteid" v="186440" />
  </node>
  <node id="-585" visible="true" lat="44.36771137" lon="-72.16061053">
    <tag k="addr:housenumber" v="318" />
    <tag k="addr:street" v="Keiser Pond Road" />
    <tag k="addr:state" v="VT" />
    <tag k="ref:vcgi:esiteid" v="186441" />
  </node>
  <node id="-586" visible="true" lat="44.34146078" lon="-72.25982316">
    <tag k="addr:housenumber" v="235" />
    <tag k="addr:street" v="Peacham Pond Road" />
    <tag k="addr:state" v="VT" />
    <tag k="ref:vcgi:esiteid" v="186442" />
  </node>
  <node id="-587" visible="true" lat="44.37668848" lon="-72.18930893">
    <tag k="addr:housenumber" v="4285" />
    <tag k="addr:street" v="Bayley Hazen Road" />
    <tag k="addr:state" v="VT" />
    <tag k="ref:vcgi:esiteid" v="186443" />
  </node>
  <node id="-588" visible="true" lat="44.36299817" lon="-72.1643093">
    <tag k="addr:housenumber" v="1130" />
    <tag k="addr:street" v="Peacham Danville Road" />
    <tag k="addr:state" v="VT" />
    <tag k="ref:vcgi:esiteid" v="186444" />
  </node>
  <node id="-589" visible="true" lat="44.37375974" lon="-72.18379798">
    <tag k="addr:housenumber" v="3857" />
    <tag k="addr:street" v="Bayley Hazen Road" />
    <tag k="addr:state" v="VT" />
    <tag k="ref:vcgi:esiteid" v="186445" />
  </node>
  <node id="-590" visible="true" lat="44.34676671" lon="-72.16583568">
    <tag k="addr:housenumber" v="842" />
    <tag k="addr:street" v="East Peacham Road" />
    <tag k="addr:state" v="VT" />
    <tag k="ref:vcgi:esiteid" v="186446" />
  </node>
  <node id="-591" visible="true" lat="44.33411601" lon="-72.259205">
    <tag k="addr:housenumber" v="116" />
    <tag k="addr:street" v="Spur Road" />
    <tag k="addr:state" v="VT" />
    <tag k="ref:vcgi:esiteid" v="186447" />
  </node>
  <node id="-592" visible="true" lat="44.3330929" lon="-72.26563911">
    <tag k="addr:housenumber" v="531" />
    <tag k="addr:street" v="Onion Point" />
    <tag k="addr:state" v="VT" />
    <tag k="ref:vcgi:esiteid" v="186448" />
  </node>
  <node id="-593" visible="true" lat="44.32945035" lon="-72.26776843">
    <tag k="addr:housenumber" v="840" />
    <tag k="addr:street" v="Onion Point" />
    <tag k="addr:state" v="VT" />
    <tag k="ref:vcgi:esiteid" v="186449" />
  </node>
  <node id="-594" visible="true" lat="44.29706206" lon="-72.20658062">
    <tag k="addr:housenumber" v="927" />
    <tag k="addr:street" v="Green Bay Loop" />
    <tag k="addr:state" v="VT" />
    <tag k="ref:vcgi:esiteid" v="186450" />
  </node>
  <node id="-595" visible="true" lat="44.33259774" lon="-72.153246">
    <tag k="addr:housenumber" v="385" />
    <tag k="addr:street" v="Hollow Woods Road" />
    <tag k="addr:state" v="VT" />
    <tag k="ref:vcgi:esiteid" v="186451" />
  </node>
  <node id="-596" visible="true" lat="44.32979615" lon="-72.18507894">
    <tag k="addr:housenumber" v="1353" />
    <tag k="addr:street" v="Maple Tree Lane" />
    <tag k="addr:state" v="VT" />
    <tag k="ref:vcgi:esiteid" v="186452" />
  </node>
  <node id="-597" visible="true" lat="44.34503158" lon="-72.26521735">
    <tag k="addr:housenumber" v="83" />
    <tag k="addr:street" v="Kellogg Mill Road" />
    <tag k="addr:state" v="VT" />
    <tag k="ref:vcgi:esiteid" v="186453" />
  </node>
  <node id="-598" visible="true" lat="44.36605963" lon="-72.24281669">
    <tag k="addr:housenumber" v="4606" />
    <tag k="addr:street" v="Macks Mountain Road" />
    <tag k="addr:state" v="VT" />
    <tag k="ref:vcgi:esiteid" v="186454" />
  </node>
  <node id="-600" visible="true" lat="44.2982341" lon="-72.20410387">
    <tag k="addr:housenumber" v="904" />
    <tag k="addr:street" v="Green Bay Loop" />
    <tag k="addr:state" v="VT" />
    <tag k="ref:vcgi:esiteid" v="186457" />
  </node>
  <node id="-601" visible="true" lat="44.36005604" lon="-72.1963629">
    <tag k="addr:housenumber" v="1711" />
    <tag k="addr:street" v="Slack Street" />
    <tag k="addr:state" v="VT" />
    <tag k="ref:vcgi:esiteid" v="186458" />
  </node>
  <node id="-602" visible="true" lat="44.36992407" lon="-72.19785596">
    <tag k="addr:housenumber" v="2475" />
    <tag k="addr:street" v="Slack Street" />
    <tag k="addr:state" v="VT" />
    <tag k="ref:vcgi:esiteid" v="186459" />
  </node>
  <node id="-603" visible="true" lat="44.36254678" lon="-72.16047779">
    <tag k="addr:housenumber" v="1184" />
    <tag k="addr:street" v="Peacham Danville Road" />
    <tag k="addr:state" v="VT" />
    <tag k="ref:vcgi:esiteid" v="186460" />
  </node>
  <node id="-604" visible="true" lat="44.34962656" lon="-72.16937557">
    <tag k="addr:housenumber" v="750" />
    <tag k="addr:street" v="East Peacham Road" />
    <tag k="addr:state" v="VT" />
    <tag k="ref:vcgi:esiteid" v="186461" />
  </node>
  <node id="-605" visible="true" lat="44.36624657" lon="-72.16476915">
    <tag k="addr:housenumber" v="320" />
    <tag k="addr:street" v="Keiser Pond Road" />
    <tag k="addr:state" v="VT" />
    <tag k="ref:vcgi:esiteid" v="186462" />
  </node>
  <node id="-606" visible="true" lat="44.32872436" lon="-72.17079255">
    <tag k="addr:housenumber" v="643" />
    <tag k="addr:street" v="Bayley Hazen Road" />
    <tag k="addr:state" v="VT" />
    <tag k="ref:vcgi:esiteid" v="186463" />
  </node>
  <node id="-607" visible="true" lat="44.29837687" lon="-72.16292369">
    <tag k="addr:housenumber" v="1105" />
    <tag k="addr:street" v="Peacham Groton Road" />
    <tag k="addr:state" v="VT" />
    <tag k="ref:vcgi:esiteid" v="186464" />
  </node>
  <node id="-608" visible="true" lat="44.33206084" lon="-72.1898905">
    <tag k="addr:housenumber" v="955" />
    <tag k="addr:street" v="Macks Mountain Road" />
    <tag k="addr:state" v="VT" />
    <tag k="ref:vcgi:esiteid" v="186465" />
  </node>
  <node id="-609" visible="true" lat="44.33619214" lon="-72.19677236">
    <tag k="addr:housenumber" v="1521" />
    <tag k="addr:street" v="Macks Mountain Road" />
    <tag k="addr:state" v="VT" />
    <tag k="ref:vcgi:esiteid" v="186466" />
  </node>
  <node id="-610" visible="true" lat="44.3261014" lon="-72.16774804">
    <tag k="addr:housenumber" v="424" />
    <tag k="addr:street" v="Bayley Hazen Road" />
    <tag k="addr:state" v="VT" />
    <tag k="ref:vcgi:esiteid" v="186467" />
  </node>
  <node id="-611" visible="true" lat="44.32387846" lon="-72.14130644">
    <tag k="addr:housenumber" v="1026" />
    <tag k="addr:street" v="Stevenson Road" />
    <tag k="addr:state" v="VT" />
    <tag k="ref:vcgi:esiteid" v="186468" />
  </node>
  <node id="-612" visible="true" lat="44.32322738" lon="-72.17851591">
    <tag k="addr:housenumber" v="320" />
    <tag k="addr:street" v="Academy Hill" />
    <tag k="addr:state" v="VT" />
    <tag k="ref:vcgi:esiteid" v="186469" />
  </node>
  <node id="-613" visible="true" lat="44.33425425" lon="-72.14239779">
    <tag k="addr:housenumber" v="291" />
    <tag k="addr:street" v="Blanchard Hill Road" />
    <tag k="addr:state" v="VT" />
    <tag k="ref:vcgi:esiteid" v="186470" />
  </node>
  <node id="-614" visible="true" lat="44.34387469" lon="-72.1615506">
    <tag k="addr:housenumber" v="1267" />
    <tag k="addr:street" v="East Peacham Road" />
    <tag k="addr:state" v="VT" />
    <tag k="ref:vcgi:esiteid" v="186471" />
  </node>
  <node id="-615" visible="true" lat="44.34239718" lon="-72.16191742">
    <tag k="addr:housenumber" v="1350" />
    <tag k="addr:street" v="East Peacham Road" />
    <tag k="addr:state" v="VT" />
    <tag k="ref:vcgi:esiteid" v="186472" />
  </node>
  <node id="-616" visible="true" lat="44.36561458" lon="-72.159379">
    <tag k="addr:housenumber" v="1424" />
    <tag k="addr:street" v="Peacham Danville Road" />
    <tag k="addr:state" v="VT" />
    <tag k="ref:vcgi:esiteid" v="186473" />
  </node>
  <node id="-617" visible="true" lat="44.3280616" lon="-72.24945072">
    <tag k="addr:housenumber" v="1679" />
    <tag k="addr:street" v="Peacham Pond Road" />
    <tag k="addr:state" v="VT" />
    <tag k="ref:vcgi:esiteid" v="186474" />
  </node>
  <node id="-618" visible="true" lat="44.3261343" lon="-72.25062265">
    <tag k="addr:housenumber" v="1769" />
    <tag k="addr:street" v="Peacham Pond Road" />
    <tag k="addr:state" v="VT" />
    <tag k="ref:vcgi:esiteid" v="186475" />
  </node>
  <node id="-619" visible="true" lat="44.3925697" lon="-72.21681138">
    <tag k="addr:housenumber" v="589" />
    <tag k="addr:street" v="Farmer Johns Road" />
    <tag k="addr:state" v="VT" />
    <tag k="ref:vcgi:esiteid" v="186476" />
  </node>
  <node id="-620" visible="true" lat="44.38975154" lon="-72.21488293">
    <tag k="addr:housenumber" v="801" />
    <tag k="addr:street" v="Farmer Johns Road" />
    <tag k="addr:state" v="VT" />
    <tag k="ref:vcgi:esiteid" v="186477" />
  </node>
  <node id="-621" visible="true" lat="44.3904077" lon="-72.21807951">
    <tag k="addr:housenumber" v="824" />
    <tag k="addr:street" v="Farmer Johns Road" />
    <tag k="addr:state" v="VT" />
    <tag k="ref:vcgi:esiteid" v="186478" />
  </node>
  <node id="-622" visible="true" lat="44.30920175" lon="-72.21439205">
    <tag k="addr:housenumber" v="232" />
    <tag k="addr:street" v="Claude Field Lane" />
    <tag k="addr:state" v="VT" />
    <tag k="ref:vcgi:esiteid" v="186479" />
  </node>
  <node id="-623" visible="true" lat="44.31105775" lon="-72.21763316">
    <tag k="addr:housenumber" v="983" />
    <tag k="addr:street" v="Devils Hill Road" />
    <tag k="addr:state" v="VT" />
    <tag k="ref:vcgi:esiteid" v="186480" />
  </node>
  <node id="-624" visible="true" lat="44.34139618" lon="-72.15755105">
    <tag k="addr:housenumber" v="1497" />
    <tag k="addr:street" v="East Peacham Road" />
    <tag k="addr:state" v="VT" />
    <tag k="ref:vcgi:esiteid" v="186481" />
  </node>
  <node id="-625" visible="true" lat="44.33934362" lon="-72.1597216">
    <tag k="addr:housenumber" v="1552" />
    <tag k="addr:street" v="East Peacham Road" />
    <tag k="addr:state" v="VT" />
    <tag k="ref:vcgi:esiteid" v="186482" />
  </node>
  <node id="-626" visible="true" lat="44.29325468" lon="-72.19798528">
    <tag k="addr:housenumber" v="400" />
    <tag k="addr:street" v="Green Bay Loop" />
    <tag k="addr:state" v="VT" />
    <tag k="ref:vcgi:esiteid" v="186483" />
  </node>
  <node id="-627" visible="true" lat="44.34111876" lon="-72.26089779">
    <tag k="addr:housenumber" v="232" />
    <tag k="addr:street" v="Peacham Pond Road" />
    <tag k="addr:state" v="VT" />
    <tag k="ref:vcgi:esiteid" v="186484" />
  </node>
  <node id="-628" visible="true" lat="44.33639173" lon="-72.27082488">
    <tag k="addr:housenumber" v="181" />
    <tag k="addr:street" v="Onion Point" />
    <tag k="addr:state" v="VT" />
    <tag k="ref:vcgi:esiteid" v="186485" />
  </node>
  <node id="-629" visible="true" lat="44.36696214" lon="-72.2162503">
    <tag k="addr:housenumber" v="1979" />
    <tag k="addr:street" v="Penny Street" />
    <tag k="addr:state" v="VT" />
    <tag k="ref:vcgi:esiteid" v="186486" />
  </node>
  <node id="-630" visible="true" lat="44.32785119" lon="-72.28336674">
    <tag k="addr:housenumber" v="3889" />
    <tag k="addr:street" v="Vermont Route 232" />
    <tag k="addr:state" v="VT" />
    <tag k="ref:vcgi:esiteid" v="186487" />
  </node>
  <node id="-631" visible="true" lat="44.33555989" lon="-72.26382596">
    <tag k="addr:housenumber" v="40" />
    <tag k="addr:street" v="Spur Road" />
    <tag k="addr:state" v="VT" />
    <tag k="ref:vcgi:esiteid" v="186489" />
  </node>
  <node id="-632" visible="true" lat="44.3338756" lon="-72.26780668">
    <tag k="addr:housenumber" v="300" />
    <tag k="addr:street" v="Onion Point" />
    <tag k="addr:state" v="VT" />
    <tag k="ref:vcgi:esiteid" v="186490" />
  </node>
  <node id="-633" visible="true" lat="44.35527023" lon="-72.18514435">
    <tag k="addr:housenumber" v="101" />
    <tag k="addr:street" v="Gracie Drive" />
    <tag k="addr:state" v="VT" />
    <tag k="ref:vcgi:esiteid" v="305493" />
  </node>
  <node id="-634" visible="true" lat="44.32961378" lon="-72.25060346">
    <tag k="addr:housenumber" v="1546" />
    <tag k="addr:street" v="Peacham Pond Road" />
    <tag k="addr:state" v="VT" />
    <tag k="ref:vcgi:esiteid" v="305499" />
  </node>
  <node id="-635" visible="true" lat="44.33516023" lon="-72.2681768">
    <tag k="addr:housenumber" v="285" />
    <tag k="addr:street" v="Onion Point" />
    <tag k="addr:state" v="VT" />
    <tag k="ref:vcgi:esiteid" v="305926" />
  </node>
  <node id="-636" visible="true" lat="44.33981707" lon="-72.19162377">
    <tag k="addr:housenumber" v="601" />
    <tag k="addr:street" v="Hapenny Road" />
    <tag k="addr:state" v="VT" />
    <tag k="ref:vcgi:esiteid" v="306116" />
  </node>
  <node id="-637" visible="true" lat="44.3271029" lon="-72.13156108">
    <tag k="addr:housenumber" v="3197" />
    <tag k="addr:street" v="East Peacham Road" />
    <tag k="addr:state" v="VT" />
    <tag k="ref:vcgi:esiteid" v="306117" />
  </node>
  <node id="-638" visible="true" lat="44.32832871" lon="-72.13356446">
    <tag k="addr:housenumber" v="3195" />
    <tag k="addr:street" v="East Peacham Road" />
    <tag k="addr:state" v="VT" />
    <tag k="ref:vcgi:esiteid" v="306118" />
  </node>
  <node id="-639" visible="true" lat="44.29520665" lon="-72.20277815">
    <tag k="addr:housenumber" v="630" />
    <tag k="addr:street" v="Green Bay Loop" />
    <tag k="addr:state" v="VT" />
    <tag k="ref:vcgi:esiteid" v="307024" />
  </node>
  <node id="-640" visible="true" lat="44.29251523" lon="-72.20527997">
    <tag k="addr:housenumber" v="681" />
    <tag k="addr:street" v="Green Bay Loop" />
    <tag k="addr:state" v="VT" />
    <tag k="ref:vcgi:esiteid" v="307026" />
  </node>
  <node id="-641" visible="true" lat="44.28852293" lon="-72.2048005">
    <tag k="addr:housenumber" v="683" />
    <tag k="addr:street" v="Green Bay Loop" />
    <tag k="addr:state" v="VT" />
    <tag k="ref:vcgi:esiteid" v="307027" />
  </node>
  <node id="-642" visible="true" lat="44.33548523" lon="-72.21636136">
    <tag k="addr:housenumber" v="201" />
    <tag k="addr:street" v="Foster Pond Road" />
    <tag k="addr:state" v="VT" />
    <tag k="ref:vcgi:esiteid" v="307671" />
  </node>
  <node id="-643" visible="true" lat="44.3353484" lon="-72.21799308">
    <tag k="addr:housenumber" v="200" />
    <tag k="addr:street" v="Foster Pond Road" />
    <tag k="addr:state" v="VT" />
    <tag k="ref:vcgi:esiteid" v="307672" />
  </node>
  <node id="-644" visible="true" lat="44.39017565" lon="-72.22769463">
    <tag k="addr:housenumber" v="38" />
    <tag k="addr:street" v="Scottland Way" />
    <tag k="addr:state" v="VT" />
    <tag k="ref:vcgi:esiteid" v="315478" />
  </node>
  <node id="-645" visible="true" lat="44.33233978" lon="-72.25238963">
    <tag k="addr:housenumber" v="1320" />
    <tag k="addr:street" v="Peacham Pond Road" />
    <tag k="addr:state" v="VT" />
    <tag k="ref:vcgi:esiteid" v="317483" />
  </node>
  <node id="-647" visible="true" lat="44.38982004" lon="-72.22310392">
    <tag k="addr:housenumber" v="333" />
    <tag k="addr:street" v="Scottland Way" />
    <tag k="addr:state" v="VT" />
    <tag k="ref:vcgi:esiteid" v="329712" />
  </node>
  <node id="-648" visible="true" lat="44.32470451" lon="-72.16578654">
    <tag k="addr:housenumber" v="336" />
    <tag k="addr:street" v="Bayley Hazen Road" />
    <tag k="addr:state" v="VT" />
    <tag k="ref:vcgi:esiteid" v="332011" />
  </node>
  <node id="-649" visible="true" lat="44.32510577" lon="-72.16579067">
    <tag k="addr:housenumber" v="338" />
    <tag k="addr:street" v="Bayley Hazen Road" />
    <tag k="addr:state" v="VT" />
    <tag k="ref:vcgi:esiteid" v="332012" />
  </node>
  <node id="-650" visible="true" lat="44.36734275" lon="-72.17302481">
    <tag k="addr:housenumber" v="361" />
    <tag k="addr:street" v="Keiser Pond Road" />
    <tag k="addr:state" v="VT" />
    <tag k="ref:vcgi:esiteid" v="335442" />
  </node>
  <node id="-651" visible="true" lat="44.36242672" lon="-72.24698257">
    <tag k="addr:housenumber" v="5115" />
    <tag k="addr:street" v="Macks Mountain Road" />
    <tag k="addr:state" v="VT" />
    <tag k="ref:vcgi:esiteid" v="335443" />
  </node>
  <node id="-652" visible="true" lat="44.31495794" lon="-72.2274444">
    <tag k="addr:housenumber" v="1555" />
    <tag k="addr:street" v="Devils Hill Road" />
    <tag k="addr:state" v="VT" />
    <tag k="ref:vcgi:esiteid" v="335828" />
  </node>
  <node id="-653" visible="true" lat="44.36397656" lon="-72.24876018">
    <tag k="addr:housenumber" v="4735" />
    <tag k="addr:street" v="Macks Mountain Road" />
    <tag k="addr:state" v="VT" />
    <tag k="ref:vcgi:esiteid" v="335829" />
  </node>
  <node id="-655" visible="true" lat="44.29289236" lon="-72.19116598">
    <tag k="addr:housenumber" v="2150" />
    <tag k="addr:street" v="County Road" />
    <tag k="addr:state" v="VT" />
    <tag k="ref:vcgi:esiteid" v="337048" />
  </node>
  <node id="-656" visible="true" lat="44.36421653" lon="-72.1667111">
    <tag k="addr:housenumber" v="151" />
    <tag k="addr:street" v="Keiser Pond Road" />
    <tag k="addr:state" v="VT" />
    <tag k="ref:vcgi:esiteid" v="340215" />
  </node>
  <node id="-657" visible="true" lat="44.33351671" lon="-72.16533479">
    <tag k="addr:housenumber" v="403" />
    <tag k="addr:street" v="Old Cemetery Road" />
    <tag k="addr:state" v="VT" />
    <tag k="ref:vcgi:esiteid" v="340845" />
  </node>
  <node id="-658" visible="true" lat="44.31197101" lon="-72.21846821">
    <tag k="addr:housenumber" v="1068" />
    <tag k="addr:street" v="Devils Hill Road" />
    <tag k="addr:state" v="VT" />
    <tag k="ref:vcgi:esiteid" v="341299" />
  </node>
  <node id="-659" visible="true" lat="44.3042422" lon="-72.20532126">
    <tag k="addr:housenumber" v="1327" />
    <tag k="addr:street" v="Green Bay Loop" />
    <tag k="addr:state" v="VT" />
    <tag k="ref:vcgi:esiteid" v="341300" />
  </node>
  <node id="-660" visible="true" lat="44.28904498" lon="-72.20775191">
    <tag k="addr:housenumber" v="685" />
    <tag k="addr:street" v="Green Bay Loop" />
    <tag k="addr:state" v="VT" />
    <tag k="ref:vcgi:esiteid" v="341301" />
  </node>
  <node id="-663" visible="true" lat="44.35126191" lon="-72.11618214">
    <tag k="addr:housenumber" v="437" />
    <tag k="addr:street" v="Varnum Street" />
    <tag k="addr:state" v="VT" />
    <tag k="ref:vcgi:esiteid" v="341889" />
  </node>
  <node id="-664" visible="true" lat="44.33048952" lon="-72.18041437">
    <tag k="addr:housenumber" v="500" />
    <tag k="addr:street" v="Macks Mountain Road" />
    <tag k="addr:state" v="VT" />
    <tag k="ref:vcgi:esiteid" v="345583" />
  </node>
  <node id="-665" visible="true" lat="44.28191478" lon="-72.18354105">
    <tag k="addr:housenumber" v="999" />
    <tag k="addr:street" v="Great Road" />
    <tag k="addr:state" v="VT" />
    <tag k="ref:vcgi:esiteid" v="345584" />
  </node>
  <node id="-666" visible="true" lat="44.2832931" lon="-72.18437575">
    <tag k="addr:housenumber" v="907" />
    <tag k="addr:street" v="Great Road" />
    <tag k="addr:state" v="VT" />
    <tag k="ref:vcgi:esiteid" v="345585" />
  </node>
  <node id="-667" visible="true" lat="44.36676737" lon="-72.16805225">
    <tag k="addr:housenumber" v="303" />
    <tag k="addr:street" v="Keiser Pond Road" />
    <tag k="addr:state" v="VT" />
    <tag k="ref:vcgi:esiteid" v="345614" />
  </node>
  <node id="-668" visible="true" lat="44.35322695" lon="-72.10109193">
    <tag k="addr:housenumber" v="1260" />
    <tag k="addr:street" v="Rake Factory Road" />
    <tag k="addr:state" v="VT" />
    <tag k="ref:vcgi:esiteid" v="365400" />
  </node>
  <node id="-669" visible="true" lat="44.35667113" lon="-72.0977142">
    <tag k="addr:housenumber" v="1300" />
    <tag k="addr:street" v="Rake Factory Road" />
    <tag k="addr:state" v="VT" />
    <tag k="ref:vcgi:esiteid" v="365401" />
  </node>
  <node id="-670" visible="true" lat="44.36527778" lon="-72.14710842">
    <tag k="addr:housenumber" v="1942" />
    <tag k="addr:street" v="Old County Road" />
    <tag k="addr:state" v="VT" />
    <tag k="ref:vcgi:esiteid" v="365539" />
  </node>
  <node id="-671" visible="true" lat="44.38347048" lon="-72.19193216">
    <tag k="addr:housenumber" v="4646" />
    <tag k="addr:street" v="Bayley Hazen Road" />
    <tag k="addr:state" v="VT" />
    <tag k="ref:vcgi:esiteid" v="365542" />
  </node>
  <node id="-672" visible="true" lat="44.3495243" lon="-72.22219011">
    <tag k="addr:housenumber" v="3081" />
    <tag k="addr:street" v="Macks Mountain Road" />
    <tag k="addr:state" v="VT" />
    <tag k="ref:vcgi:esiteid" v="365546" />
  </node>
  <node id="-673" visible="true" lat="44.3411436" lon="-72.26559672">
    <tag k="addr:housenumber" v="41" />
    <tag k="addr:street" v="Peacham Pond Road" />
    <tag k="addr:state" v="VT" />
    <tag k="ref:vcgi:esiteid" v="365570" />
  </node>
  <node id="-674" visible="true" lat="44.33758251" lon="-72.23355982">
    <tag k="addr:housenumber" v="1300" />
    <tag k="addr:street" v="Lanesboro Road" />
    <tag k="addr:state" v="VT" />
    <tag k="ref:vcgi:esiteid" v="365574" />
  </node>
  <node id="-675" visible="true" lat="44.32251521" lon="-72.13783442">
    <tag k="addr:housenumber" v="1114" />
    <tag k="addr:street" v="Stevenson Road" />
    <tag k="addr:state" v="VT" />
    <tag k="ref:vcgi:esiteid" v="365623" />
  </node>
  <node id="-676" visible="true" lat="44.34042186" lon="-72.17618428">
    <tag k="addr:housenumber" v="43" />
    <tag k="addr:street" v="Slack Street" />
    <tag k="addr:state" v="VT" />
    <tag k="ref:vcgi:esiteid" v="446340" />
  </node>
  <node id="-677" visible="true" lat="44.38947888" lon="-72.22107198">
    <tag k="addr:housenumber" v="445" />
    <tag k="addr:street" v="Scottland Way" />
    <tag k="addr:state" v="VT" />
    <tag k="ref:vcgi:esiteid" v="446359" />
  </node>
  <node id="-678" visible="true" lat="44.34828323" lon="-72.19343495">
    <tag k="addr:housenumber" v="621" />
    <tag k="addr:street" v="Penny Street" />
    <tag k="addr:state" v="VT" />
    <tag k="ref:vcgi:esiteid" v="446390" />
  </node>
  <node id="-679" visible="true" lat="44.36609906" lon="-72.16021687">
    <tag k="addr:housenumber" v="1425" />
    <tag k="addr:street" v="Peacham Danville Road" />
    <tag k="addr:state" v="VT" />
    <tag k="ref:vcgi:esiteid" v="446391" />
  </node>
  <node id="-680" visible="true" lat="44.35930698" lon="-72.1898194">
    <tag k="addr:housenumber" v="1714" />
    <tag k="addr:street" v="Slack Street" />
    <tag k="addr:state" v="VT" />
    <tag k="ref:vcgi:esiteid" v="446571" />
  </node>
  <node id="-681" visible="true" lat="44.33813147" lon="-72.25498436">
    <tag k="addr:housenumber" v="700" />
    <tag k="addr:street" v="Peacham Pond Road" />
    <tag k="addr:state" v="VT" />
    <tag k="ref:vcgi:esiteid" v="447927" />
  </node>
  <node id="-682" visible="true" lat="44.36953749" lon="-72.17739392">
    <tag k="addr:housenumber" v="3456" />
    <tag k="addr:street" v="Bayley Hazen Road" />
    <tag k="addr:state" v="VT" />
    <tag k="ref:vcgi:esiteid" v="449911" />
  </node>
  <node id="-683" visible="true" lat="44.326601" lon="-72.17180743">
    <tag k="addr:housenumber" v="145" />
    <tag k="addr:street" v="Church Street" />
    <tag k="addr:state" v="VT" />
    <tag k="ref:vcgi:esiteid" v="451313" />
  </node>
  <node id="-684" visible="true" lat="44.34872627" lon="-72.12687554">
    <tag k="addr:housenumber" v="2018" />
    <tag k="addr:street" v="Thaddeus Stevens Road" />
    <tag k="addr:state" v="VT" />
    <tag k="ref:vcgi:esiteid" v="451568" />
  </node>
  <node id="-685" visible="true" lat="44.33624925" lon="-72.25550358">
    <tag k="addr:housenumber" v="676" />
    <tag k="addr:street" v="Peacham Pond Road" />
    <tag k="addr:state" v="VT" />
    <tag k="ref:vcgi:esiteid" v="454799" />
  </node>
  <node id="-688" visible="true" lat="44.33410688" lon="-72.26139807">
    <tag k="addr:housenumber" v="262" />
    <tag k="addr:street" v="Spur Road" />
    <tag k="addr:state" v="VT" />
    <tag k="ref:vcgi:esiteid" v="611494" />
  </node>
  <node id="-696" visible="true" lat="44.38482065" lon="-72.17073253">
    <tag k="addr:housenumber" v="1400" />
    <tag k="addr:street" v="Harveys Hollow Road" />
    <tag k="addr:state" v="VT" />
    <tag k="ref:vcgi:esiteid" v="617168" />
  </node>
  <node id="-697" visible="true" lat="44.39181524" lon="-72.20423109">
    <tag k="addr:housenumber" v="1128" />
    <tag k="addr:street" v="Woodward Road" />
    <tag k="addr:state" v="VT" />
    <tag k="ref:vcgi:esiteid" v="618052" />
  </node>
  <node id="-700" visible="true" lat="44.3223273" lon="-72.13556681">
    <tag k="addr:housenumber" v="712" />
    <tag k="addr:street" v="Stevenson Road" />
    <tag k="addr:state" v="VT" />
    <tag k="ref:vcgi:esiteid" v="619796" />
  </node>
  <node id="-701" visible="true" lat="44.38769506" lon="-72.22677306">
    <tag k="addr:housenumber" v="240" />
    <tag k="addr:street" v="Scottland Way" />
    <tag k="addr:state" v="VT" />
    <tag k="ref:vcgi:esiteid" v="620309" />
  </node>
  <node id="-702" visible="true" lat="44.30486133" lon="-72.16801223">
    <tag k="addr:housenumber" v="210" />
    <tag k="addr:street" v="Gov Wentworth Grant Road" />
    <tag k="addr:state" v="VT" />
    <tag k="ref:vcgi:esiteid" v="620638" />
  </node>
  <node id="-703" visible="true" lat="44.35765159" lon="-72.16714887">
    <tag k="addr:housenumber" v="120" />
    <tag k="addr:street" v="Taylor Road" />
    <tag k="addr:state" v="VT" />
    <tag k="ref:vcgi:esiteid" v="700199" />
  </node>
  <node id="-704" visible="true" lat="44.35733266" lon="-72.16801691">
    <tag k="addr:housenumber" v="122" />
    <tag k="addr:street" v="Taylor Road" />
    <tag k="addr:state" v="VT" />
    <tag k="ref:vcgi:esiteid" v="700200" />
  </node>
  <node id="-705" visible="true" lat="44.35572523" lon="-72.1630876">
    <tag k="addr:housenumber" v="326" />
    <tag k="addr:street" v="Taylor Road" />
    <tag k="addr:state" v="VT" />
    <tag k="ref:vcgi:esiteid" v="700201" />
  </node>
  <node id="-706" visible="true" lat="44.35573656" lon="-72.1645113">
    <tag k="addr:housenumber" v="324" />
    <tag k="addr:street" v="Taylor Road" />
    <tag k="addr:state" v="VT" />
    <tag k="ref:vcgi:esiteid" v="700202" />
  </node>
  <node id="-707" visible="true" lat="44.38264685" lon="-72.17172478">
    <tag k="addr:housenumber" v="1578" />
    <tag k="addr:street" v="Keiser Pond Road" />
    <tag k="addr:state" v="VT" />
    <tag k="ref:vcgi:esiteid" v="750114" />
  </node>
  <node id="-709" visible="true" lat="44.32229448" lon="-72.18386091">
    <tag k="addr:housenumber" v="189" />
    <tag k="addr:street" v="Worcester Road" />
    <tag k="addr:state" v="VT" />
    <tag k="ref:vcgi:esiteid" v="750116" />
  </node>
  <node id="-710" visible="true" lat="44.36087749" lon="-72.16754394">
    <tag k="addr:housenumber" v="880" />
    <tag k="addr:street" v="Peacham Danville Road" />
    <tag k="addr:state" v="VT" />
    <tag k="ref:vcgi:esiteid" v="751644" />
  </node>
  <node id="-711" visible="true" lat="44.36972799" lon="-72.16798377">
    <tag k="addr:housenumber" v="518" />
    <tag k="addr:street" v="Keiser Pond Road" />
    <tag k="addr:state" v="VT" />
    <tag k="ref:vcgi:esiteid" v="753391" />
  </node>
  <node id="-712" visible="true" lat="44.32734229" lon="-72.25103375">
    <tag k="addr:housenumber" v="1786" />
    <tag k="addr:street" v="Peacham Pond Road" />
    <tag k="addr:state" v="VT" />
    <tag k="ref:vcgi:esiteid" v="756670" />
  </node>
  <node id="-713" visible="true" lat="44.33865094" lon="-72.2434001">
    <tag k="addr:housenumber" v="1920" />
    <tag k="addr:street" v="Lanesboro Road" />
    <tag k="addr:state" v="VT" />
    <tag k="ref:vcgi:esiteid" v="756815" />
  </node>
  <node id="-714" visible="true" lat="44.359514" lon="-72.25526029">
    <tag k="addr:housenumber" v="680" />
    <tag k="addr:street" v="Hookerville Cutoff" />
    <tag k="addr:state" v="VT" />
    <tag k="ref:vcgi:esiteid" v="756816" />
  </node>
  <node id="-715" visible="true" lat="44.35855288" lon="-72.25373646">
    <tag k="addr:housenumber" v="235" />
    <tag k="addr:street" v="Hookerville Cutoff" />
    <tag k="addr:state" v="VT" />
    <tag k="ref:vcgi:esiteid" v="756818" />
  </node>
  <node id="-716" visible="true" lat="44.32285447" lon="-72.15103766">
    <tag k="addr:housenumber" v="166" />
    <tag k="addr:street" v="Brick Kiln Road" />
    <tag k="addr:state" v="VT" />
    <tag k="ref:vcgi:esiteid" v="758695" />
  </node>
  <node id="-717" visible="true" lat="44.30323346" lon="-72.1604683">
    <tag k="addr:housenumber" v="983" />
    <tag k="addr:street" v="Peacham Groton Road" />
    <tag k="addr:state" v="VT" />
    <tag k="ref:vcgi:esiteid" v="759413" />
  </node>
  <node id="-718" visible="true" lat="44.30218727" lon="-72.16354609">
    <tag k="addr:housenumber" v="901" />
    <tag k="addr:street" v="Peacham Groton Road" />
    <tag k="addr:state" v="VT" />
    <tag k="ref:vcgi:esiteid" v="759414" />
  </node>
  <node id="-719" visible="true" lat="44.32965747" lon="-72.15755657">
    <tag k="addr:housenumber" v="599" />
    <tag k="addr:street" v="Hollow Woods Road" />
    <tag k="addr:state" v="VT" />
    <tag k="ref:vcgi:esiteid" v="760177" />
  </node>
  <node id="-720" visible="true" lat="44.35502586" lon="-72.17678136">
    <tag k="addr:housenumber" v="253" />
    <tag k="addr:street" v="Peacham Danville Road" />
    <tag k="addr:state" v="VT" />
    <tag k="ref:vcgi:esiteid" v="760178" />
  </node>
  <node id="-721" visible="true" lat="44.33324955" lon="-72.18579128">
    <tag k="addr:housenumber" v="96" />
    <tag k="addr:street" v="Hapenny Road" />
    <tag k="addr:state" v="VT" />
    <tag k="ref:vcgi:esiteid" v="760238" />
  </node>
  <node id="-722" visible="true" lat="44.33779644" lon="-72.2527961">
    <tag k="addr:housenumber" v="920" />
    <tag k="addr:street" v="Peacham Pond Road" />
    <tag k="addr:state" v="VT" />
    <tag k="ref:vcgi:esiteid" v="761587" />
  </node>
  <node id="-723" visible="true" lat="44.33959174" lon="-72.17310955">
    <tag k="addr:housenumber" v="1386" />
    <tag k="addr:street" v="Bayley Hazen Road" />
    <tag k="addr:state" v="VT" />
    <tag k="ref:vcgi:esiteid" v="768064" />
  </node>
  <node id="-724" visible="true" lat="44.32641736" lon="-72.17379485">
    <tag k="addr:housenumber" v="50" />
    <tag k="addr:street" v="Macks Mountain Road" />
    <tag k="addr:state" v="VT" />
    <tag k="ref:vcgi:esiteid" v="768434" />
  </node>
  <node id="-727" visible="true" lat="44.30480281" lon="-72.16430653">
    <tag k="addr:housenumber" v="659" />
    <tag k="addr:street" v="Peacham Groton Road" />
    <tag k="addr:state" v="VT" />
    <tag k="ref:vcgi:esiteid" v="1050898" />
  </node>
  <node id="-728" visible="true" lat="44.30954444" lon="-72.15416011">
    <tag k="addr:housenumber" v="2010" />
    <tag k="addr:street" v="Hollow Woods Road" />
    <tag k="addr:state" v="VT" />
    <tag k="ref:vcgi:esiteid" v="1050899" />
  </node>
  <node id="-729" visible="true" lat="44.31717" lon="-72.167">
    <tag k="addr:housenumber" v="205" />
    <tag k="addr:street" v="South Main Street" />
    <tag k="addr:state" v="VT" />
    <tag k="ref:vcgi:esiteid" v="1050900" />
  </node>
  <node id="-730" visible="true" lat="44.32615982" lon="-72.17393824">
    <tag k="addr:housenumber" v="57" />
    <tag k="addr:street" v="Macks Mountain Road" />
    <tag k="addr:state" v="VT" />
    <tag k="ref:vcgi:esiteid" v="1050901" />
  </node>
  <node id="-731" visible="true" lat="44.32565683" lon="-72.16550728">
    <tag k="addr:housenumber" v="342" />
    <tag k="addr:street" v="Bayley Hazen Road" />
    <tag k="addr:state" v="VT" />
    <tag k="ref:vcgi:esiteid" v="1050902" />
  </node>
  <node id="-732" visible="true" lat="44.30677863" lon="-72.18287635">
    <tag k="addr:housenumber" v="1010" />
    <tag k="addr:street" v="County Road" />
    <tag k="addr:state" v="VT" />
    <tag k="ref:vcgi:esiteid" v="1050903" />
  </node>
  <node id="-733" visible="true" lat="44.28767" lon="-72.18333">
    <tag k="addr:housenumber" v="614" />
    <tag k="addr:street" v="Great Road" />
    <tag k="addr:state" v="VT" />
    <tag k="ref:vcgi:esiteid" v="1050904" />
  </node>
  <node id="-734" visible="true" lat="44.29769784" lon="-72.2066278">
    <tag k="addr:housenumber" v="889" />
    <tag k="addr:street" v="Green Bay Loop" />
    <tag k="addr:state" v="VT" />
    <tag k="ref:vcgi:esiteid" v="1050905" />
  </node>
  <node id="-735" visible="true" lat="44.35946418" lon="-72.24502879">
    <tag k="addr:housenumber" v="135" />
    <tag k="addr:street" v="Hookerville Cutoff" />
    <tag k="addr:state" v="VT" />
    <tag k="ref:vcgi:esiteid" v="1050913" />
  </node>
  <node id="-736" visible="true" lat="44.34291093" lon="-72.14371687">
    <tag k="addr:housenumber" v="898" />
    <tag k="addr:street" v="Thaddeus Stevens Road" />
    <tag k="addr:state" v="VT" />
    <tag k="ref:vcgi:esiteid" v="1050914" />
  </node>
  <node id="-737" visible="true" lat="44.33283" lon="-72.13567">
    <tag k="addr:housenumber" v="556" />
    <tag k="addr:street" v="Blanchard Hill Road" />
    <tag k="addr:state" v="VT" />
    <tag k="ref:vcgi:esiteid" v="1050915" />
  </node>
  <node id="-738" visible="true" lat="44.3135" lon="-72.19533">
    <tag k="addr:housenumber" v="2285" />
    <tag k="addr:street" v="Green Bay Loop" />
    <tag k="addr:state" v="VT" />
    <tag k="ref:vcgi:esiteid" v="1050916" />
  </node>
  <node id="-739" visible="true" lat="44.31454893" lon="-72.2072791">
    <tag k="addr:housenumber" v="413" />
    <tag k="addr:street" v="Devils Hill Road" />
    <tag k="addr:state" v="VT" />
    <tag k="ref:vcgi:esiteid" v="1050917" />
  </node>
</osm>
