<?xml version="1.0" encoding="UTF-8"?>
<osm version="0.6" generator="JOSM">
  <node id="-100" visible="true" lat="43.82730366" lon="-72.79845564">
    <tag k="addr:city" v="Pittsfield" />
    <tag k="addr:housenumber" v="220" />
    <tag k="addr:street" v="Emerson Way" />
    <tag k="addr:state" v="VT" />
    <tag k="ref:vcgi:esiteid" v="187026" />
  </node>
  <node id="-101" visible="true" lat="43.7354333" lon="-72.80807925">
    <tag k="addr:city" v="Pittsfield" />
    <tag k="addr:housenumber" v="23" />
    <tag k="addr:street" v="South Hill Rd Ptfld" />
    <tag k="addr:state" v="VT" />
    <tag k="ref:vcgi:esiteid" v="187027" />
  </node>
  <node id="-102" visible="true" lat="43.77843777" lon="-72.80422802">
    <tag k="addr:city" v="Pittsfield" />
    <tag k="addr:housenumber" v="4477" />
    <tag k="addr:street" v="Vermont Route 100" />
    <tag k="addr:state" v="VT" />
    <tag k="ref:vcgi:esiteid" v="187028" />
  </node>
  <node id="-103" visible="true" lat="43.77765433" lon="-72.8060742">
    <tag k="addr:city" v="Pittsfield" />
    <tag k="addr:housenumber" v="4441" />
    <tag k="addr:street" v="Vermont Route 100" />
    <tag k="addr:state" v="VT" />
    <tag k="ref:vcgi:esiteid" v="187029" />
  </node>
  <node id="-104" visible="true" lat="43.77729611" lon="-72.80705819">
    <tag k="addr:city" v="Pittsfield" />
    <tag k="addr:housenumber" v="4401" />
    <tag k="addr:street" v="Vermont Route 100" />
    <tag k="addr:state" v="VT" />
    <tag k="ref:vcgi:esiteid" v="187030" />
  </node>
  <node id="-105" visible="true" lat="43.77705682" lon="-72.80951299">
    <tag k="addr:city" v="Pittsfield" />
    <tag k="addr:housenumber" v="4275" />
    <tag k="addr:street" v="Vermont Route 100" />
    <tag k="addr:state" v="VT" />
    <tag k="ref:vcgi:esiteid" v="187031" />
  </node>
  <node id="-106" visible="true" lat="43.77699236" lon="-72.81223395">
    <tag k="addr:city" v="Pittsfield" />
    <tag k="addr:housenumber" v="4217" />
    <tag k="addr:street" v="Vermont Route 100" />
    <tag k="addr:state" v="VT" />
    <tag k="ref:vcgi:esiteid" v="187032" />
  </node>
  <node id="-107" visible="true" lat="43.77555534" lon="-72.81111942">
    <tag k="addr:city" v="Pittsfield" />
    <tag k="addr:housenumber" v="4163" />
    <tag k="addr:street" v="Vermont Route 100" />
    <tag k="addr:state" v="VT" />
    <tag k="ref:vcgi:esiteid" v="187034" />
  </node>
  <node id="-108" visible="true" lat="43.77465512" lon="-72.81196451">
    <tag k="addr:city" v="Pittsfield" />
    <tag k="addr:housenumber" v="4093" />
    <tag k="addr:street" v="Vermont Route 100" />
    <tag k="addr:state" v="VT" />
    <tag k="ref:vcgi:esiteid" v="187035" />
  </node>
  <node id="-109" visible="true" lat="43.77434648" lon="-72.81230928">
    <tag k="addr:city" v="Pittsfield" />
    <tag k="addr:housenumber" v="14" />
    <tag k="addr:street" v="Timberline Drive" />
    <tag k="addr:state" v="VT" />
    <tag k="ref:vcgi:esiteid" v="187036" />
  </node>
  <node id="-110" visible="true" lat="43.77775844" lon="-72.81290355">
    <tag k="addr:city" v="Pittsfield" />
    <tag k="addr:housenumber" v="320" />
    <tag k="addr:street" v="Timberline Drive" />
    <tag k="addr:state" v="VT" />
    <tag k="ref:vcgi:esiteid" v="187037" />
  </node>
  <node id="-111" visible="true" lat="43.77692557" lon="-72.81418591">
    <tag k="addr:city" v="Pittsfield" />
    <tag k="addr:housenumber" v="203" />
    <tag k="addr:street" v="Timberline Drive" />
    <tag k="addr:state" v="VT" />
    <tag k="ref:vcgi:esiteid" v="187038" />
  </node>
  <node id="-112" visible="true" lat="43.77529883" lon="-72.81283298">
    <tag k="addr:city" v="Pittsfield" />
    <tag k="addr:housenumber" v="4105" />
    <tag k="addr:street" v="Vermont Route 100" />
    <tag k="addr:state" v="VT" />
    <tag k="ref:vcgi:esiteid" v="187039" />
  </node>
  <node id="-113" visible="true" lat="43.77335529" lon="-72.81337162">
    <tag k="addr:city" v="Pittsfield" />
    <tag k="addr:housenumber" v="3989" />
    <tag k="addr:street" v="Vermont Route 100" />
    <tag k="addr:state" v="VT" />
    <tag k="ref:vcgi:esiteid" v="187040" />
  </node>
  <node id="-114" visible="true" lat="43.77290738" lon="-72.81330827">
    <tag k="addr:city" v="Pittsfield" />
    <tag k="addr:housenumber" v="3963" />
    <tag k="addr:street" v="Vermont Route 100" />
    <tag k="addr:state" v="VT" />
    <tag k="ref:vcgi:esiteid" v="187041" />
  </node>
  <node id="-115" visible="true" lat="43.77261367" lon="-72.81329021">
    <tag k="addr:city" v="Pittsfield" />
    <tag k="addr:housenumber" v="3947" />
    <tag k="addr:street" v="Vermont Route 100" />
    <tag k="addr:state" v="VT" />
    <tag k="ref:vcgi:esiteid" v="187042" />
  </node>
  <node id="-116" visible="true" lat="43.7722668" lon="-72.8133042">
    <tag k="addr:city" v="Pittsfield" />
    <tag k="addr:housenumber" v="3925" />
    <tag k="addr:street" v="Vermont Route 100" />
    <tag k="addr:state" v="VT" />
    <tag k="ref:vcgi:esiteid" v="187043" />
  </node>
  <node id="-117" visible="true" lat="43.7721503" lon="-72.81327577">
    <tag k="addr:city" v="Pittsfield" />
    <tag k="addr:housenumber" v="3911" />
    <tag k="addr:street" v="Vermont Route 100" />
    <tag k="addr:state" v="VT" />
    <tag k="ref:vcgi:esiteid" v="187044" />
  </node>
  <node id="-118" visible="true" lat="43.77165315" lon="-72.81329688">
    <tag k="addr:city" v="Pittsfield" />
    <tag k="addr:housenumber" v="3885" />
    <tag k="addr:street" v="Vermont Route 100" />
    <tag k="addr:state" v="VT" />
    <tag k="ref:vcgi:esiteid" v="187045" />
  </node>
  <node id="-119" visible="true" lat="43.77141562" lon="-72.81323427">
    <tag k="addr:city" v="Pittsfield" />
    <tag k="addr:housenumber" v="3863" />
    <tag k="addr:street" v="Vermont Route 100" />
    <tag k="addr:state" v="VT" />
    <tag k="ref:vcgi:esiteid" v="187046" />
  </node>
  <node id="-120" visible="true" lat="43.77117522" lon="-72.81358631">
    <tag k="addr:city" v="Pittsfield" />
    <tag k="addr:housenumber" v="3851" />
    <tag k="addr:street" v="Vermont Route 100" />
    <tag k="addr:state" v="VT" />
    <tag k="ref:vcgi:esiteid" v="187047" />
  </node>
  <node id="-121" visible="true" lat="43.77094389" lon="-72.81336825">
    <tag k="addr:city" v="Pittsfield" />
    <tag k="addr:housenumber" v="3833" />
    <tag k="addr:street" v="Vermont Route 100" />
    <tag k="addr:state" v="VT" />
    <tag k="ref:vcgi:esiteid" v="187048" />
  </node>
  <node id="-122" visible="true" lat="43.77085425" lon="-72.81323446">
    <tag k="addr:city" v="Pittsfield" />
    <tag k="addr:housenumber" v="3827" />
    <tag k="addr:street" v="Vermont Route 100" />
    <tag k="addr:state" v="VT" />
    <tag k="ref:vcgi:esiteid" v="187049" />
  </node>
  <node id="-123" visible="true" lat="43.76940944" lon="-72.81315048">
    <tag k="addr:city" v="Pittsfield" />
    <tag k="addr:housenumber" v="3723" />
    <tag k="addr:street" v="Vermont Route 100" />
    <tag k="addr:state" v="VT" />
    <tag k="ref:vcgi:esiteid" v="187050" />
  </node>
  <node id="-124" visible="true" lat="43.7689212" lon="-72.81331256">
    <tag k="addr:city" v="Pittsfield" />
    <tag k="addr:housenumber" v="3681" />
    <tag k="addr:street" v="Vermont Route 100" />
    <tag k="addr:state" v="VT" />
    <tag k="ref:vcgi:esiteid" v="187051" />
  </node>
  <node id="-125" visible="true" lat="43.76857674" lon="-72.81373312">
    <tag k="addr:city" v="Pittsfield" />
    <tag k="addr:housenumber" v="3631" />
    <tag k="addr:street" v="Vermont Route 100" />
    <tag k="addr:state" v="VT" />
    <tag k="ref:vcgi:esiteid" v="187052" />
  </node>
  <node id="-126" visible="true" lat="43.76782951" lon="-72.81413797">
    <tag k="addr:city" v="Pittsfield" />
    <tag k="addr:housenumber" v="17" />
    <tag k="addr:street" v="Lower Michigan Road" />
    <tag k="addr:state" v="VT" />
    <tag k="ref:vcgi:esiteid" v="187054" />
  </node>
  <node id="-127" visible="true" lat="43.7606678" lon="-72.81919081">
    <tag k="addr:city" v="Pittsfield" />
    <tag k="addr:housenumber" v="3025" />
    <tag k="addr:street" v="Vermont Route 100" />
    <tag k="addr:state" v="VT" />
    <tag k="ref:vcgi:esiteid" v="187055" />
  </node>
  <node id="-128" visible="true" lat="43.76052067" lon="-72.81909427">
    <tag k="addr:city" v="Pittsfield" />
    <tag k="addr:housenumber" v="3017" />
    <tag k="addr:street" v="Vermont Route 100" />
    <tag k="addr:state" v="VT" />
    <tag k="ref:vcgi:esiteid" v="187056" />
  </node>
  <node id="-129" visible="true" lat="43.76017175" lon="-72.81940986">
    <tag k="addr:city" v="Pittsfield" />
    <tag k="addr:housenumber" v="2991" />
    <tag k="addr:street" v="Vermont Route 100" />
    <tag k="addr:state" v="VT" />
    <tag k="ref:vcgi:esiteid" v="187057" />
  </node>
  <node id="-130" visible="true" lat="43.75897525" lon="-72.81977731">
    <tag k="addr:city" v="Pittsfield" />
    <tag k="addr:housenumber" v="2903" />
    <tag k="addr:street" v="Vermont Route 100" />
    <tag k="addr:state" v="VT" />
    <tag k="ref:vcgi:esiteid" v="187058" />
  </node>
  <node id="-131" visible="true" lat="43.7560709" lon="-72.82090272">
    <tag k="addr:city" v="Pittsfield" />
    <tag k="addr:housenumber" v="2715" />
    <tag k="addr:street" v="Vermont Route 100" />
    <tag k="addr:state" v="VT" />
    <tag k="ref:vcgi:esiteid" v="187059" />
  </node>
  <node id="-132" visible="true" lat="43.75535224" lon="-72.82057207">
    <tag k="addr:city" v="Pittsfield" />
    <tag k="addr:housenumber" v="2651" />
    <tag k="addr:street" v="Vermont Route 100" />
    <tag k="addr:state" v="VT" />
    <tag k="ref:vcgi:esiteid" v="187060" />
  </node>
  <node id="-133" visible="true" lat="43.75400849" lon="-72.82100183">
    <tag k="addr:city" v="Pittsfield" />
    <tag k="addr:housenumber" v="2561" />
    <tag k="addr:street" v="Vermont Route 100" />
    <tag k="addr:state" v="VT" />
    <tag k="ref:vcgi:esiteid" v="187061" />
  </node>
  <node id="-134" visible="true" lat="43.76708493" lon="-72.81714076">
    <tag k="addr:city" v="Pittsfield" />
    <tag k="addr:housenumber" v="3265" />
    <tag k="addr:street" v="Vermont Route 100" />
    <tag k="addr:state" v="VT" />
    <tag k="ref:vcgi:esiteid" v="187062" />
  </node>
  <node id="-135" visible="true" lat="43.75261771" lon="-72.82164452">
    <tag k="addr:city" v="Pittsfield" />
    <tag k="addr:housenumber" v="2447" />
    <tag k="addr:street" v="Vermont Route 100" />
    <tag k="addr:state" v="VT" />
    <tag k="ref:vcgi:esiteid" v="187063" />
  </node>
  <node id="-136" visible="true" lat="43.75165153" lon="-72.82165056">
    <tag k="addr:city" v="Pittsfield" />
    <tag k="addr:housenumber" v="2401" />
    <tag k="addr:street" v="Vermont Route 100" />
    <tag k="addr:state" v="VT" />
    <tag k="ref:vcgi:esiteid" v="187064" />
  </node>
  <node id="-137" visible="true" lat="43.74334428" lon="-72.82137573">
    <tag k="addr:city" v="Pittsfield" />
    <tag k="addr:housenumber" v="1901" />
    <tag k="addr:street" v="Vermont Route 100" />
    <tag k="addr:state" v="VT" />
    <tag k="ref:vcgi:esiteid" v="187066" />
  </node>
  <node id="-138" visible="true" lat="43.74663886" lon="-72.82160981">
    <tag k="addr:city" v="Pittsfield" />
    <tag k="addr:housenumber" v="53" />
    <tag k="addr:street" v="Bakers Road" />
    <tag k="addr:state" v="VT" />
    <tag k="ref:vcgi:esiteid" v="187067" />
  </node>
  <node id="-139" visible="true" lat="43.74212774" lon="-72.82071026">
    <tag k="addr:city" v="Pittsfield" />
    <tag k="addr:housenumber" v="1697" />
    <tag k="addr:street" v="Vermont Route 100" />
    <tag k="addr:state" v="VT" />
    <tag k="ref:vcgi:esiteid" v="187068" />
  </node>
  <node id="-140" visible="true" lat="43.74121393" lon="-72.82064947">
    <tag k="addr:city" v="Pittsfield" />
    <tag k="addr:housenumber" v="1669" />
    <tag k="addr:street" v="Vermont Route 100" />
    <tag k="addr:state" v="VT" />
    <tag k="ref:vcgi:esiteid" v="187069" />
  </node>
  <node id="-141" visible="true" lat="43.73988184" lon="-72.82106677">
    <tag k="addr:city" v="Pittsfield" />
    <tag k="addr:housenumber" v="1575" />
    <tag k="addr:street" v="Vermont Route 100" />
    <tag k="addr:state" v="VT" />
    <tag k="ref:vcgi:esiteid" v="187070" />
  </node>
  <node id="-142" visible="true" lat="43.7385015" lon="-72.82061579">
    <tag k="addr:city" v="Pittsfield" />
    <tag k="addr:housenumber" v="1485" />
    <tag k="addr:street" v="Vermont Route 100" />
    <tag k="addr:state" v="VT" />
    <tag k="ref:vcgi:esiteid" v="187071" />
  </node>
  <node id="-143" visible="true" lat="43.73805249" lon="-72.82063303">
    <tag k="addr:city" v="Pittsfield" />
    <tag k="addr:housenumber" v="14" />
    <tag k="addr:street" v="Stonewood Crossing" />
    <tag k="addr:state" v="VT" />
    <tag k="ref:vcgi:esiteid" v="187072" />
  </node>
  <node id="-144" visible="true" lat="43.74041945" lon="-72.82332766">
    <tag k="addr:city" v="Pittsfield" />
    <tag k="addr:housenumber" v="286" />
    <tag k="addr:street" v="Stonewood Crossing" />
    <tag k="addr:state" v="VT" />
    <tag k="ref:vcgi:esiteid" v="187073" />
  </node>
  <node id="-145" visible="true" lat="43.73806449" lon="-72.82314545">
    <tag k="addr:city" v="Pittsfield" />
    <tag k="addr:housenumber" v="155" />
    <tag k="addr:street" v="Stonewood Crossing" />
    <tag k="addr:state" v="VT" />
    <tag k="ref:vcgi:esiteid" v="187074" />
  </node>
  <node id="-146" visible="true" lat="43.73719949" lon="-72.82077301">
    <tag k="addr:city" v="Pittsfield" />
    <tag k="addr:housenumber" v="1389" />
    <tag k="addr:street" v="Vermont Route 100" />
    <tag k="addr:state" v="VT" />
    <tag k="ref:vcgi:esiteid" v="187075" />
  </node>
  <node id="-147" visible="true" lat="43.73669306" lon="-72.82078128">
    <tag k="addr:city" v="Pittsfield" />
    <tag k="addr:housenumber" v="1359" />
    <tag k="addr:street" v="Vermont Route 100" />
    <tag k="addr:state" v="VT" />
    <tag k="ref:vcgi:esiteid" v="187076" />
  </node>
  <node id="-148" visible="true" lat="43.73316253" lon="-72.82258592">
    <tag k="addr:city" v="Pittsfield" />
    <tag k="addr:housenumber" v="1087" />
    <tag k="addr:street" v="Vermont Route 100" />
    <tag k="addr:state" v="VT" />
    <tag k="ref:vcgi:esiteid" v="187077" />
  </node>
  <node id="-149" visible="true" lat="43.72762258" lon="-72.82440666">
    <tag k="addr:city" v="Pittsfield" />
    <tag k="addr:housenumber" v="30" />
    <tag k="addr:street" v="Fellows Road" />
    <tag k="addr:state" v="VT" />
    <tag k="ref:vcgi:esiteid" v="187078" />
  </node>
  <node id="-150" visible="true" lat="43.72688275" lon="-72.82441013">
    <tag k="addr:city" v="Pittsfield" />
    <tag k="addr:housenumber" v="116" />
    <tag k="addr:street" v="Fellows Road" />
    <tag k="addr:state" v="VT" />
    <tag k="ref:vcgi:esiteid" v="187079" />
  </node>
  <node id="-151" visible="true" lat="43.72471327" lon="-72.82491327">
    <tag k="addr:city" v="Pittsfield" />
    <tag k="addr:housenumber" v="180" />
    <tag k="addr:street" v="Hadley Lane" />
    <tag k="addr:state" v="VT" />
    <tag k="ref:vcgi:esiteid" v="187080" />
  </node>
  <node id="-152" visible="true" lat="43.72657703" lon="-72.82360184">
    <tag k="addr:city" v="Pittsfield" />
    <tag k="addr:housenumber" v="24" />
    <tag k="addr:street" v="Hadley Lane" />
    <tag k="addr:state" v="VT" />
    <tag k="ref:vcgi:esiteid" v="187081" />
  </node>
  <node id="-153" visible="true" lat="43.72623343" lon="-72.82415454">
    <tag k="addr:city" v="Pittsfield" />
    <tag k="addr:housenumber" v="58" />
    <tag k="addr:street" v="Hadley Lane" />
    <tag k="addr:state" v="VT" />
    <tag k="ref:vcgi:esiteid" v="187082" />
  </node>
  <node id="-154" visible="true" lat="43.72453119" lon="-72.82428244">
    <tag k="addr:city" v="Pittsfield" />
    <tag k="addr:housenumber" v="165" />
    <tag k="addr:street" v="Hadley Lane" />
    <tag k="addr:state" v="VT" />
    <tag k="ref:vcgi:esiteid" v="187083" />
  </node>
  <node id="-155" visible="true" lat="43.72521449" lon="-72.82417176">
    <tag k="addr:city" v="Pittsfield" />
    <tag k="addr:housenumber" v="113" />
    <tag k="addr:street" v="Hadley Lane" />
    <tag k="addr:state" v="VT" />
    <tag k="ref:vcgi:esiteid" v="187084" />
  </node>
  <node id="-156" visible="true" lat="43.72566513" lon="-72.82399742">
    <tag k="addr:city" v="Pittsfield" />
    <tag k="addr:housenumber" v="63" />
    <tag k="addr:street" v="Hadley Lane" />
    <tag k="addr:state" v="VT" />
    <tag k="ref:vcgi:esiteid" v="187085" />
  </node>
  <node id="-157" visible="true" lat="43.72604041" lon="-72.82329999">
    <tag k="addr:city" v="Pittsfield" />
    <tag k="addr:housenumber" v="593" />
    <tag k="addr:street" v="Vermont Route 100" />
    <tag k="addr:state" v="VT" />
    <tag k="ref:vcgi:esiteid" v="187086" />
  </node>
  <node id="-158" visible="true" lat="43.71869228" lon="-72.82476635">
    <tag k="addr:city" v="Pittsfield" />
    <tag k="addr:housenumber" v="4" />
    <tag k="addr:street" v="Leigh Kelly Drive" />
    <tag k="addr:state" v="VT" />
    <tag k="ref:vcgi:esiteid" v="187087" />
  </node>
  <node id="-159" visible="true" lat="43.71867291" lon="-72.82501043">
    <tag k="addr:city" v="Pittsfield" />
    <tag k="addr:housenumber" v="3" />
    <tag k="addr:street" v="Leigh Kelly Drive" />
    <tag k="addr:state" v="VT" />
    <tag k="ref:vcgi:esiteid" v="187088" />
  </node>
  <node id="-160" visible="true" lat="43.76897956" lon="-72.81521395">
    <tag k="addr:city" v="Pittsfield" />
    <tag k="addr:housenumber" v="130" />
    <tag k="addr:street" v="Lower Michigan Road" />
    <tag k="addr:state" v="VT" />
    <tag k="ref:vcgi:esiteid" v="187089" />
  </node>
  <node id="-161" visible="true" lat="43.76962678" lon="-72.81727397">
    <tag k="addr:city" v="Pittsfield" />
    <tag k="addr:housenumber" v="182" />
    <tag k="addr:street" v="Lower Michigan Road" />
    <tag k="addr:state" v="VT" />
    <tag k="ref:vcgi:esiteid" v="187090" />
  </node>
  <node id="-162" visible="true" lat="43.77038496" lon="-72.81648337">
    <tag k="addr:city" v="Pittsfield" />
    <tag k="addr:housenumber" v="236" />
    <tag k="addr:street" v="Lower Michigan Road" />
    <tag k="addr:state" v="VT" />
    <tag k="ref:vcgi:esiteid" v="187091" />
  </node>
  <node id="-163" visible="true" lat="43.77043784" lon="-72.81719817">
    <tag k="addr:city" v="Pittsfield" />
    <tag k="addr:housenumber" v="238" />
    <tag k="addr:street" v="Lower Michigan Road" />
    <tag k="addr:state" v="VT" />
    <tag k="ref:vcgi:esiteid" v="187092" />
  </node>
  <node id="-164" visible="true" lat="43.77076726" lon="-72.82248333">
    <tag k="addr:city" v="Pittsfield" />
    <tag k="addr:housenumber" v="496" />
    <tag k="addr:street" v="Lower Michigan Road" />
    <tag k="addr:state" v="VT" />
    <tag k="ref:vcgi:esiteid" v="187093" />
  </node>
  <node id="-165" visible="true" lat="43.77126322" lon="-72.82390125">
    <tag k="addr:city" v="Pittsfield" />
    <tag k="addr:housenumber" v="564" />
    <tag k="addr:street" v="Lower Michigan Road" />
    <tag k="addr:state" v="VT" />
    <tag k="ref:vcgi:esiteid" v="187094" />
  </node>
  <node id="-166" visible="true" lat="43.77174481" lon="-72.8245575">
    <tag k="addr:city" v="Pittsfield" />
    <tag k="addr:housenumber" v="610" />
    <tag k="addr:street" v="Lower Michigan Road" />
    <tag k="addr:state" v="VT" />
    <tag k="ref:vcgi:esiteid" v="187095" />
  </node>
  <node id="-167" visible="true" lat="43.7717908" lon="-72.82502972">
    <tag k="addr:city" v="Pittsfield" />
    <tag k="addr:housenumber" v="612" />
    <tag k="addr:street" v="Lower Michigan Road" />
    <tag k="addr:state" v="VT" />
    <tag k="ref:vcgi:esiteid" v="187096" />
  </node>
  <node id="-168" visible="true" lat="43.77168344" lon="-72.82619195">
    <tag k="addr:city" v="Pittsfield" />
    <tag k="addr:housenumber" v="706" />
    <tag k="addr:street" v="Lower Michigan Road" />
    <tag k="addr:state" v="VT" />
    <tag k="ref:vcgi:esiteid" v="187097" />
  </node>
  <node id="-169" visible="true" lat="43.77159404" lon="-72.82725564">
    <tag k="addr:city" v="Pittsfield" />
    <tag k="addr:housenumber" v="734" />
    <tag k="addr:street" v="Lower Michigan Road" />
    <tag k="addr:state" v="VT" />
    <tag k="ref:vcgi:esiteid" v="187098" />
  </node>
  <node id="-170" visible="true" lat="43.77375156" lon="-72.83444936">
    <tag k="addr:city" v="Pittsfield" />
    <tag k="addr:housenumber" v="99" />
    <tag k="addr:street" v="Crossover Road" />
    <tag k="addr:state" v="VT" />
    <tag k="ref:vcgi:esiteid" v="187099" />
  </node>
  <node id="-171" visible="true" lat="43.77385741" lon="-72.83573296">
    <tag k="addr:city" v="Pittsfield" />
    <tag k="addr:housenumber" v="56" />
    <tag k="addr:street" v="Crossover Road" />
    <tag k="addr:state" v="VT" />
    <tag k="ref:vcgi:esiteid" v="187100" />
  </node>
  <node id="-172" visible="true" lat="43.7732307" lon="-72.83672306">
    <tag k="addr:city" v="Pittsfield" />
    <tag k="addr:housenumber" v="1247" />
    <tag k="addr:street" v="Lower Michigan Road" />
    <tag k="addr:state" v="VT" />
    <tag k="ref:vcgi:esiteid" v="187101" />
  </node>
  <node id="-173" visible="true" lat="43.77261528" lon="-72.83431618">
    <tag k="addr:city" v="Pittsfield" />
    <tag k="addr:housenumber" v="1119" />
    <tag k="addr:street" v="Lower Michigan Road" />
    <tag k="addr:state" v="VT" />
    <tag k="ref:vcgi:esiteid" v="187102" />
  </node>
  <node id="-174" visible="true" lat="43.77280183" lon="-72.83411032">
    <tag k="addr:city" v="Pittsfield" />
    <tag k="addr:housenumber" v="1105" />
    <tag k="addr:street" v="Lower Michigan Road" />
    <tag k="addr:state" v="VT" />
    <tag k="ref:vcgi:esiteid" v="187103" />
  </node>
  <node id="-175" visible="true" lat="43.77203508" lon="-72.83267386">
    <tag k="addr:city" v="Pittsfield" />
    <tag k="addr:housenumber" v="1033" />
    <tag k="addr:street" v="Lower Michigan Road" />
    <tag k="addr:state" v="VT" />
    <tag k="ref:vcgi:esiteid" v="187104" />
  </node>
  <node id="-176" visible="true" lat="43.77063722" lon="-72.83247781">
    <tag k="addr:city" v="Pittsfield" />
    <tag k="addr:housenumber" v="176" />
    <tag k="addr:street" v="West Branch Farm Road" />
    <tag k="addr:state" v="VT" />
    <tag k="ref:vcgi:esiteid" v="187105" />
  </node>
  <node id="-177" visible="true" lat="43.77069887" lon="-72.83095307">
    <tag k="addr:city" v="Pittsfield" />
    <tag k="addr:housenumber" v="119" />
    <tag k="addr:street" v="West Branch Farm Road" />
    <tag k="addr:state" v="VT" />
    <tag k="ref:vcgi:esiteid" v="187106" />
  </node>
  <node id="-178" visible="true" lat="43.7706702" lon="-72.82992531">
    <tag k="addr:city" v="Pittsfield" />
    <tag k="addr:housenumber" v="65" />
    <tag k="addr:street" v="West Branch Farm Road" />
    <tag k="addr:state" v="VT" />
    <tag k="ref:vcgi:esiteid" v="187107" />
  </node>
  <node id="-179" visible="true" lat="43.77063215" lon="-72.82925764">
    <tag k="addr:city" v="Pittsfield" />
    <tag k="addr:housenumber" v="55" />
    <tag k="addr:street" v="Ob Lane" />
    <tag k="addr:state" v="VT" />
    <tag k="ref:vcgi:esiteid" v="187108" />
  </node>
  <node id="-180" visible="true" lat="43.77102335" lon="-72.82893271">
    <tag k="addr:city" v="Pittsfield" />
    <tag k="addr:housenumber" v="23" />
    <tag k="addr:street" v="Ob Lane" />
    <tag k="addr:state" v="VT" />
    <tag k="ref:vcgi:esiteid" v="187109" />
  </node>
  <node id="-181" visible="true" lat="43.7712251" lon="-72.82815476">
    <tag k="addr:city" v="Pittsfield" />
    <tag k="addr:housenumber" v="795" />
    <tag k="addr:street" v="Lower Michigan Road" />
    <tag k="addr:state" v="VT" />
    <tag k="ref:vcgi:esiteid" v="187110" />
  </node>
  <node id="-182" visible="true" lat="43.7703728" lon="-72.82460086">
    <tag k="addr:city" v="Pittsfield" />
    <tag k="addr:housenumber" v="579" />
    <tag k="addr:street" v="Lower Michigan Road" />
    <tag k="addr:state" v="VT" />
    <tag k="ref:vcgi:esiteid" v="187111" />
  </node>
  <node id="-183" visible="true" lat="43.76966628" lon="-72.82202429">
    <tag k="addr:city" v="Pittsfield" />
    <tag k="addr:housenumber" v="223" />
    <tag k="addr:street" v="Sugar Maple Drive" />
    <tag k="addr:state" v="VT" />
    <tag k="ref:vcgi:esiteid" v="187112" />
  </node>
  <node id="-184" visible="true" lat="43.77010161" lon="-72.81893616">
    <tag k="addr:city" v="Pittsfield" />
    <tag k="addr:housenumber" v="59" />
    <tag k="addr:street" v="Sugar Maple Drive" />
    <tag k="addr:state" v="VT" />
    <tag k="ref:vcgi:esiteid" v="187113" />
  </node>
  <node id="-185" visible="true" lat="43.76845872" lon="-72.81558142">
    <tag k="addr:city" v="Pittsfield" />
    <tag k="addr:housenumber" v="99" />
    <tag k="addr:street" v="Lower Michigan Road" />
    <tag k="addr:state" v="VT" />
    <tag k="ref:vcgi:esiteid" v="187114" />
  </node>
  <node id="-186" visible="true" lat="43.76828315" lon="-72.81526826">
    <tag k="addr:city" v="Pittsfield" />
    <tag k="addr:housenumber" v="79" />
    <tag k="addr:street" v="Lower Michigan Road" />
    <tag k="addr:state" v="VT" />
    <tag k="ref:vcgi:esiteid" v="187115" />
  </node>
  <node id="-187" visible="true" lat="43.76809804" lon="-72.81484872">
    <tag k="addr:city" v="Pittsfield" />
    <tag k="addr:housenumber" v="55" />
    <tag k="addr:street" v="Lower Michigan Road" />
    <tag k="addr:state" v="VT" />
    <tag k="ref:vcgi:esiteid" v="187116" />
  </node>
  <node id="-188" visible="true" lat="43.75530211" lon="-72.8217247">
    <tag k="addr:city" v="Pittsfield" />
    <tag k="addr:housenumber" v="90" />
    <tag k="addr:street" v="Townsend Brook Road" />
    <tag k="addr:state" v="VT" />
    <tag k="ref:vcgi:esiteid" v="187117" />
  </node>
  <node id="-189" visible="true" lat="43.75844364" lon="-72.82382734">
    <tag k="addr:city" v="Pittsfield" />
    <tag k="addr:housenumber" v="352" />
    <tag k="addr:street" v="Bombadil Path" />
    <tag k="addr:state" v="VT" />
    <tag k="ref:vcgi:esiteid" v="187118" />
  </node>
  <node id="-190" visible="true" lat="43.75286797" lon="-72.82701048">
    <tag k="addr:city" v="Pittsfield" />
    <tag k="addr:housenumber" v="38" />
    <tag k="addr:street" v="Lookout Road" />
    <tag k="addr:state" v="VT" />
    <tag k="ref:vcgi:esiteid" v="187119" />
  </node>
  <node id="-191" visible="true" lat="43.75377676" lon="-72.82599984">
    <tag k="addr:city" v="Pittsfield" />
    <tag k="addr:housenumber" v="82" />
    <tag k="addr:street" v="Lookout Road" />
    <tag k="addr:state" v="VT" />
    <tag k="ref:vcgi:esiteid" v="187120" />
  </node>
  <node id="-192" visible="true" lat="43.75453814" lon="-72.82606662">
    <tag k="addr:city" v="Pittsfield" />
    <tag k="addr:housenumber" v="140" />
    <tag k="addr:street" v="Lookout Road" />
    <tag k="addr:state" v="VT" />
    <tag k="ref:vcgi:esiteid" v="187121" />
  </node>
  <node id="-193" visible="true" lat="43.7554752" lon="-72.82602775">
    <tag k="addr:city" v="Pittsfield" />
    <tag k="addr:housenumber" v="168" />
    <tag k="addr:street" v="Lookout Road" />
    <tag k="addr:state" v="VT" />
    <tag k="ref:vcgi:esiteid" v="187122" />
  </node>
  <node id="-194" visible="true" lat="43.75587496" lon="-72.82644578">
    <tag k="addr:city" v="Pittsfield" />
    <tag k="addr:housenumber" v="224" />
    <tag k="addr:street" v="Lookout Road" />
    <tag k="addr:state" v="VT" />
    <tag k="ref:vcgi:esiteid" v="187123" />
  </node>
  <node id="-195" visible="true" lat="43.75685077" lon="-72.82679651">
    <tag k="addr:city" v="Pittsfield" />
    <tag k="addr:housenumber" v="274" />
    <tag k="addr:street" v="Lookout Road" />
    <tag k="addr:state" v="VT" />
    <tag k="ref:vcgi:esiteid" v="187124" />
  </node>
  <node id="-196" visible="true" lat="43.7562618" lon="-72.82674901">
    <tag k="addr:city" v="Pittsfield" />
    <tag k="addr:housenumber" v="272" />
    <tag k="addr:street" v="Lookout Road" />
    <tag k="addr:state" v="VT" />
    <tag k="ref:vcgi:esiteid" v="187125" />
  </node>
  <node id="-197" visible="true" lat="43.75878368" lon="-72.82691456">
    <tag k="addr:city" v="Pittsfield" />
    <tag k="addr:housenumber" v="427" />
    <tag k="addr:street" v="Lookout Road" />
    <tag k="addr:state" v="VT" />
    <tag k="ref:vcgi:esiteid" v="187126" />
  </node>
  <node id="-198" visible="true" lat="43.75792488" lon="-72.827579">
    <tag k="addr:city" v="Pittsfield" />
    <tag k="addr:housenumber" v="357" />
    <tag k="addr:street" v="Lookout Road" />
    <tag k="addr:state" v="VT" />
    <tag k="ref:vcgi:esiteid" v="187127" />
  </node>
  <node id="-199" visible="true" lat="43.75665208" lon="-72.82782947">
    <tag k="addr:city" v="Pittsfield" />
    <tag k="addr:housenumber" v="309" />
    <tag k="addr:street" v="Lookout Road" />
    <tag k="addr:state" v="VT" />
    <tag k="ref:vcgi:esiteid" v="187128" />
  </node>
  <node id="-200" visible="true" lat="43.75586852" lon="-72.82767982">
    <tag k="addr:city" v="Pittsfield" />
    <tag k="addr:housenumber" v="253" />
    <tag k="addr:street" v="Lookout Road" />
    <tag k="addr:state" v="VT" />
    <tag k="ref:vcgi:esiteid" v="187129" />
  </node>
  <node id="-201" visible="true" lat="43.75402968" lon="-72.82714391">
    <tag k="addr:city" v="Pittsfield" />
    <tag k="addr:housenumber" v="71" />
    <tag k="addr:street" v="Lookout Road" />
    <tag k="addr:state" v="VT" />
    <tag k="ref:vcgi:esiteid" v="187130" />
  </node>
  <node id="-202" visible="true" lat="43.7538849" lon="-72.82836556">
    <tag k="addr:city" v="Pittsfield" />
    <tag k="addr:housenumber" v="248" />
    <tag k="addr:street" v="Tozier Hill Road" />
    <tag k="addr:state" v="VT" />
    <tag k="ref:vcgi:esiteid" v="187131" />
  </node>
  <node id="-203" visible="true" lat="43.75411872" lon="-72.82942037">
    <tag k="addr:city" v="Pittsfield" />
    <tag k="addr:housenumber" v="26" />
    <tag k="addr:street" v="Fiddlehead Lane" />
    <tag k="addr:state" v="VT" />
    <tag k="ref:vcgi:esiteid" v="187132" />
  </node>
  <node id="-204" visible="true" lat="43.75452587" lon="-72.82824543">
    <tag k="addr:city" v="Pittsfield" />
    <tag k="addr:housenumber" v="18" />
    <tag k="addr:street" v="Partridge Road" />
    <tag k="addr:state" v="VT" />
    <tag k="ref:vcgi:esiteid" v="187133" />
  </node>
  <node id="-205" visible="true" lat="43.75442803" lon="-72.82758695">
    <tag k="addr:city" v="Pittsfield" />
    <tag k="addr:housenumber" v="50" />
    <tag k="addr:street" v="Partridge Road" />
    <tag k="addr:state" v="VT" />
    <tag k="ref:vcgi:esiteid" v="187134" />
  </node>
  <node id="-206" visible="true" lat="43.75513343" lon="-72.82850766">
    <tag k="addr:city" v="Pittsfield" />
    <tag k="addr:housenumber" v="15" />
    <tag k="addr:street" v="Partridge Road" />
    <tag k="addr:state" v="VT" />
    <tag k="ref:vcgi:esiteid" v="187135" />
  </node>
  <node id="-207" visible="true" lat="43.75649475" lon="-72.82895086">
    <tag k="addr:city" v="Pittsfield" />
    <tag k="addr:housenumber" v="92" />
    <tag k="addr:street" v="High Glen Path" />
    <tag k="addr:state" v="VT" />
    <tag k="ref:vcgi:esiteid" v="187136" />
  </node>
  <node id="-208" visible="true" lat="43.75784281" lon="-72.82923398">
    <tag k="addr:city" v="Pittsfield" />
    <tag k="addr:housenumber" v="184" />
    <tag k="addr:street" v="High Glen Path" />
    <tag k="addr:state" v="VT" />
    <tag k="ref:vcgi:esiteid" v="187137" />
  </node>
  <node id="-209" visible="true" lat="43.75888526" lon="-72.82974658">
    <tag k="addr:city" v="Pittsfield" />
    <tag k="addr:housenumber" v="267" />
    <tag k="addr:street" v="High Glen Path" />
    <tag k="addr:state" v="VT" />
    <tag k="ref:vcgi:esiteid" v="187138" />
  </node>
  <node id="-210" visible="true" lat="43.75903347" lon="-72.8306732">
    <tag k="addr:city" v="Pittsfield" />
    <tag k="addr:housenumber" v="44" />
    <tag k="addr:street" v="Trillium Hill Road" />
    <tag k="addr:state" v="VT" />
    <tag k="ref:vcgi:esiteid" v="187139" />
  </node>
  <node id="-211" visible="true" lat="43.75803526" lon="-72.83162039">
    <tag k="addr:city" v="Pittsfield" />
    <tag k="addr:housenumber" v="112" />
    <tag k="addr:street" v="Trillium Hill Road" />
    <tag k="addr:state" v="VT" />
    <tag k="ref:vcgi:esiteid" v="187140" />
  </node>
  <node id="-212" visible="true" lat="43.75593523" lon="-72.8302508">
    <tag k="addr:city" v="Pittsfield" />
    <tag k="addr:housenumber" v="37" />
    <tag k="addr:street" v="High Glen Path" />
    <tag k="addr:state" v="VT" />
    <tag k="ref:vcgi:esiteid" v="187141" />
  </node>
  <node id="-213" visible="true" lat="43.75591241" lon="-72.83239611">
    <tag k="addr:city" v="Pittsfield" />
    <tag k="addr:housenumber" v="283" />
    <tag k="addr:street" v="Fiddlehead Lane" />
    <tag k="addr:state" v="VT" />
    <tag k="ref:vcgi:esiteid" v="187142" />
  </node>
  <node id="-214" visible="true" lat="43.75526774" lon="-72.83127325">
    <tag k="addr:city" v="Pittsfield" />
    <tag k="addr:housenumber" v="221" />
    <tag k="addr:street" v="Fiddlehead Lane" />
    <tag k="addr:state" v="VT" />
    <tag k="ref:vcgi:esiteid" v="187143" />
  </node>
  <node id="-215" visible="true" lat="43.75513477" lon="-72.83047672">
    <tag k="addr:city" v="Pittsfield" />
    <tag k="addr:housenumber" v="193" />
    <tag k="addr:street" v="Fiddlehead Lane" />
    <tag k="addr:state" v="VT" />
    <tag k="ref:vcgi:esiteid" v="187144" />
  </node>
  <node id="-216" visible="true" lat="43.75422993" lon="-72.83039856">
    <tag k="addr:city" v="Pittsfield" />
    <tag k="addr:housenumber" v="37" />
    <tag k="addr:street" v="Fiddlehead Lane" />
    <tag k="addr:state" v="VT" />
    <tag k="ref:vcgi:esiteid" v="187145" />
  </node>
  <node id="-217" visible="true" lat="43.75628098" lon="-72.83436567">
    <tag k="addr:city" v="Pittsfield" />
    <tag k="addr:housenumber" v="612" />
    <tag k="addr:street" v="Tozier Hill Road" />
    <tag k="addr:state" v="VT" />
    <tag k="ref:vcgi:esiteid" v="187146" />
  </node>
  <node id="-218" visible="true" lat="43.75368586" lon="-72.83321727">
    <tag k="addr:city" v="Pittsfield" />
    <tag k="addr:housenumber" v="471" />
    <tag k="addr:street" v="Tozier Hill Road" />
    <tag k="addr:state" v="VT" />
    <tag k="ref:vcgi:esiteid" v="187147" />
  </node>
  <node id="-219" visible="true" lat="43.75331862" lon="-72.83092344">
    <tag k="addr:city" v="Pittsfield" />
    <tag k="addr:housenumber" v="369" />
    <tag k="addr:street" v="Tozier Hill Road" />
    <tag k="addr:state" v="VT" />
    <tag k="ref:vcgi:esiteid" v="187148" />
  </node>
  <node id="-220" visible="true" lat="43.75322647" lon="-72.82970402">
    <tag k="addr:city" v="Pittsfield" />
    <tag k="addr:housenumber" v="309" />
    <tag k="addr:street" v="Tozier Hill Road" />
    <tag k="addr:state" v="VT" />
    <tag k="ref:vcgi:esiteid" v="187149" />
  </node>
  <node id="-221" visible="true" lat="43.75302068" lon="-72.82836593">
    <tag k="addr:city" v="Pittsfield" />
    <tag k="addr:housenumber" v="217" />
    <tag k="addr:street" v="Tozier Hill Road" />
    <tag k="addr:state" v="VT" />
    <tag k="ref:vcgi:esiteid" v="187150" />
  </node>
  <node id="-222" visible="true" lat="43.75110061" lon="-72.82732789">
    <tag k="addr:city" v="Pittsfield" />
    <tag k="addr:housenumber" v="546" />
    <tag k="addr:street" v="Townsend Brook Road" />
    <tag k="addr:state" v="VT" />
    <tag k="ref:vcgi:esiteid" v="187151" />
  </node>
  <node id="-223" visible="true" lat="43.74880029" lon="-72.82611418">
    <tag k="addr:city" v="Pittsfield" />
    <tag k="addr:housenumber" v="517" />
    <tag k="addr:street" v="Townsend Brook Road" />
    <tag k="addr:state" v="VT" />
    <tag k="ref:vcgi:esiteid" v="187152" />
  </node>
  <node id="-224" visible="true" lat="43.75070886" lon="-72.82560034">
    <tag k="addr:city" v="Pittsfield" />
    <tag k="addr:housenumber" v="451" />
    <tag k="addr:street" v="Townsend Brook Road" />
    <tag k="addr:state" v="VT" />
    <tag k="ref:vcgi:esiteid" v="187153" />
  </node>
  <node id="-225" visible="true" lat="43.75148004" lon="-72.82396401">
    <tag k="addr:city" v="Pittsfield" />
    <tag k="addr:housenumber" v="375" />
    <tag k="addr:street" v="Townsend Brook Road" />
    <tag k="addr:state" v="VT" />
    <tag k="ref:vcgi:esiteid" v="187154" />
  </node>
  <node id="-226" visible="true" lat="43.75236656" lon="-72.82360572">
    <tag k="addr:city" v="Pittsfield" />
    <tag k="addr:housenumber" v="295" />
    <tag k="addr:street" v="Townsend Brook Road" />
    <tag k="addr:state" v="VT" />
    <tag k="ref:vcgi:esiteid" v="187155" />
  </node>
  <node id="-227" visible="true" lat="43.75325288" lon="-72.82314883">
    <tag k="addr:city" v="Pittsfield" />
    <tag k="addr:housenumber" v="241" />
    <tag k="addr:street" v="Townsend Brook Road" />
    <tag k="addr:state" v="VT" />
    <tag k="ref:vcgi:esiteid" v="187156" />
  </node>
  <node id="-228" visible="true" lat="43.75362052" lon="-72.82242089">
    <tag k="addr:city" v="Pittsfield" />
    <tag k="addr:housenumber" v="189" />
    <tag k="addr:street" v="Townsend Brook Road" />
    <tag k="addr:state" v="VT" />
    <tag k="ref:vcgi:esiteid" v="187157" />
  </node>
  <node id="-229" visible="true" lat="43.7542326" lon="-72.82197122">
    <tag k="addr:city" v="Pittsfield" />
    <tag k="addr:housenumber" v="121" />
    <tag k="addr:street" v="Townsend Brook Road" />
    <tag k="addr:state" v="VT" />
    <tag k="ref:vcgi:esiteid" v="187158" />
  </node>
  <node id="-230" visible="true" lat="43.75485646" lon="-72.82127321">
    <tag k="addr:city" v="Pittsfield" />
    <tag k="addr:housenumber" v="77" />
    <tag k="addr:street" v="Townsend Brook Road" />
    <tag k="addr:state" v="VT" />
    <tag k="ref:vcgi:esiteid" v="187159" />
  </node>
  <node id="-231" visible="true" lat="43.72140993" lon="-72.82221234">
    <tag k="addr:city" v="Pittsfield" />
    <tag k="addr:housenumber" v="232" />
    <tag k="addr:street" v="Vermont Route 100" />
    <tag k="addr:state" v="VT" />
    <tag k="ref:vcgi:esiteid" v="187160" />
  </node>
  <node id="-232" visible="true" lat="43.73355366" lon="-72.81977478">
    <tag k="addr:city" v="Pittsfield" />
    <tag k="addr:housenumber" v="54" />
    <tag k="addr:street" v="Johnson Brook Road" />
    <tag k="addr:state" v="VT" />
    <tag k="ref:vcgi:esiteid" v="187161" />
  </node>
  <node id="-233" visible="true" lat="43.73296353" lon="-72.81833222">
    <tag k="addr:city" v="Pittsfield" />
    <tag k="addr:housenumber" v="130" />
    <tag k="addr:street" v="Johnson Brook Road" />
    <tag k="addr:state" v="VT" />
    <tag k="ref:vcgi:esiteid" v="187162" />
  </node>
  <node id="-234" visible="true" lat="43.73602055" lon="-72.81952785">
    <tag k="addr:city" v="Pittsfield" />
    <tag k="addr:housenumber" v="10" />
    <tag k="addr:street" v="Old School House Drive" />
    <tag k="addr:state" v="VT" />
    <tag k="ref:vcgi:esiteid" v="187163" />
  </node>
  <node id="-235" visible="true" lat="43.73501122" lon="-72.8200561">
    <tag k="addr:city" v="Pittsfield" />
    <tag k="addr:housenumber" v="90" />
    <tag k="addr:street" v="Old School House Drive" />
    <tag k="addr:state" v="VT" />
    <tag k="ref:vcgi:esiteid" v="187164" />
  </node>
  <node id="-236" visible="true" lat="43.73423922" lon="-72.81934976">
    <tag k="addr:city" v="Pittsfield" />
    <tag k="addr:housenumber" v="97" />
    <tag k="addr:street" v="Old School House Drive" />
    <tag k="addr:state" v="VT" />
    <tag k="ref:vcgi:esiteid" v="187165" />
  </node>
  <node id="-237" visible="true" lat="43.73488976" lon="-72.81877407">
    <tag k="addr:city" v="Pittsfield" />
    <tag k="addr:housenumber" v="45" />
    <tag k="addr:street" v="Old School House Drive" />
    <tag k="addr:state" v="VT" />
    <tag k="ref:vcgi:esiteid" v="187166" />
  </node>
  <node id="-238" visible="true" lat="43.73512533" lon="-72.81827366">
    <tag k="addr:city" v="Pittsfield" />
    <tag k="addr:housenumber" v="19" />
    <tag k="addr:street" v="Old School House Drive" />
    <tag k="addr:state" v="VT" />
    <tag k="ref:vcgi:esiteid" v="187167" />
  </node>
  <node id="-239" visible="true" lat="43.7314668" lon="-72.81442674">
    <tag k="addr:city" v="Pittsfield" />
    <tag k="addr:housenumber" v="147" />
    <tag k="addr:street" v="Camp 12 Road" />
    <tag k="addr:state" v="VT" />
    <tag k="ref:vcgi:esiteid" v="187168" />
  </node>
  <node id="-240" visible="true" lat="43.73570499" lon="-72.81055991">
    <tag k="addr:city" v="Pittsfield" />
    <tag k="addr:housenumber" v="751" />
    <tag k="addr:street" v="South Hill Road" />
    <tag k="addr:state" v="VT" />
    <tag k="ref:vcgi:esiteid" v="187169" />
  </node>
  <node id="-241" visible="true" lat="43.73364135" lon="-72.81473811">
    <tag k="addr:city" v="Pittsfield" />
    <tag k="addr:housenumber" v="433" />
    <tag k="addr:street" v="South Hill Road" />
    <tag k="addr:state" v="VT" />
    <tag k="ref:vcgi:esiteid" v="187170" />
  </node>
  <node id="-242" visible="true" lat="43.73416046" lon="-72.81518491">
    <tag k="addr:city" v="Pittsfield" />
    <tag k="addr:housenumber" v="50" />
    <tag k="addr:street" v="Northern Exposure" />
    <tag k="addr:state" v="VT" />
    <tag k="ref:vcgi:esiteid" v="187171" />
  </node>
  <node id="-243" visible="true" lat="43.73489005" lon="-72.81577928">
    <tag k="addr:city" v="Pittsfield" />
    <tag k="addr:housenumber" v="86" />
    <tag k="addr:street" v="Northern Exposure" />
    <tag k="addr:state" v="VT" />
    <tag k="ref:vcgi:esiteid" v="187172" />
  </node>
  <node id="-244" visible="true" lat="43.73470854" lon="-72.81651906">
    <tag k="addr:city" v="Pittsfield" />
    <tag k="addr:housenumber" v="275" />
    <tag k="addr:street" v="South Hill Road" />
    <tag k="addr:state" v="VT" />
    <tag k="ref:vcgi:esiteid" v="187173" />
  </node>
  <node id="-245" visible="true" lat="43.73479143" lon="-72.81723946">
    <tag k="addr:city" v="Pittsfield" />
    <tag k="addr:housenumber" v="231" />
    <tag k="addr:street" v="South Hill Road" />
    <tag k="addr:state" v="VT" />
    <tag k="ref:vcgi:esiteid" v="187174" />
  </node>
  <node id="-246" visible="true" lat="43.73595739" lon="-72.81773903">
    <tag k="addr:city" v="Pittsfield" />
    <tag k="addr:housenumber" v="117" />
    <tag k="addr:street" v="South Hill Road" />
    <tag k="addr:state" v="VT" />
    <tag k="ref:vcgi:esiteid" v="187175" />
  </node>
  <node id="-247" visible="true" lat="43.73866804" lon="-72.81755049">
    <tag k="addr:city" v="Pittsfield" />
    <tag k="addr:housenumber" v="1506" />
    <tag k="addr:street" v="Vermont Route 100" />
    <tag k="addr:state" v="VT" />
    <tag k="ref:vcgi:esiteid" v="187176" />
  </node>
  <node id="-248" visible="true" lat="43.74010213" lon="-72.81979578">
    <tag k="addr:city" v="Pittsfield" />
    <tag k="addr:housenumber" v="14" />
    <tag k="addr:street" v="Graysville Drive" />
    <tag k="addr:state" v="VT" />
    <tag k="ref:vcgi:esiteid" v="187177" />
  </node>
  <node id="-249" visible="true" lat="43.73997252" lon="-72.81706462">
    <tag k="addr:city" v="Pittsfield" />
    <tag k="addr:housenumber" v="281" />
    <tag k="addr:street" v="Graysville Drive" />
    <tag k="addr:state" v="VT" />
    <tag k="ref:vcgi:esiteid" v="187178" />
  </node>
  <node id="-250" visible="true" lat="43.74106367" lon="-72.81726636">
    <tag k="addr:city" v="Pittsfield" />
    <tag k="addr:housenumber" v="163" />
    <tag k="addr:street" v="Graysville Drive" />
    <tag k="addr:state" v="VT" />
    <tag k="ref:vcgi:esiteid" v="187179" />
  </node>
  <node id="-251" visible="true" lat="43.74248657" lon="-72.81730877">
    <tag k="addr:city" v="Pittsfield" />
    <tag k="addr:housenumber" v="161" />
    <tag k="addr:street" v="Graysville Drive" />
    <tag k="addr:state" v="VT" />
    <tag k="ref:vcgi:esiteid" v="187180" />
  </node>
  <node id="-252" visible="true" lat="43.74203802" lon="-72.81884686">
    <tag k="addr:city" v="Pittsfield" />
    <tag k="addr:housenumber" v="115" />
    <tag k="addr:street" v="Graysville Drive" />
    <tag k="addr:state" v="VT" />
    <tag k="ref:vcgi:esiteid" v="187181" />
  </node>
  <node id="-253" visible="true" lat="43.74136071" lon="-72.81952488">
    <tag k="addr:city" v="Pittsfield" />
    <tag k="addr:housenumber" v="75" />
    <tag k="addr:street" v="Graysville Drive" />
    <tag k="addr:state" v="VT" />
    <tag k="ref:vcgi:esiteid" v="187182" />
  </node>
  <node id="-254" visible="true" lat="43.74127998" lon="-72.81987543">
    <tag k="addr:city" v="Pittsfield" />
    <tag k="addr:housenumber" v="1662" />
    <tag k="addr:street" v="Vermont Route 100" />
    <tag k="addr:state" v="VT" />
    <tag k="ref:vcgi:esiteid" v="187183" />
  </node>
  <node id="-255" visible="true" lat="43.74334809" lon="-72.81906111">
    <tag k="addr:city" v="Pittsfield" />
    <tag k="addr:housenumber" v="70" />
    <tag k="addr:street" v="Fifield Drive" />
    <tag k="addr:state" v="VT" />
    <tag k="ref:vcgi:esiteid" v="187184" />
  </node>
  <node id="-256" visible="true" lat="43.74401435" lon="-72.81916493">
    <tag k="addr:city" v="Pittsfield" />
    <tag k="addr:housenumber" v="72" />
    <tag k="addr:street" v="Fifield Drive" />
    <tag k="addr:state" v="VT" />
    <tag k="ref:vcgi:esiteid" v="187185" />
  </node>
  <node id="-257" visible="true" lat="43.7449336" lon="-72.81956513">
    <tag k="addr:city" v="Pittsfield" />
    <tag k="addr:housenumber" v="143" />
    <tag k="addr:street" v="Fifield Drive" />
    <tag k="addr:state" v="VT" />
    <tag k="ref:vcgi:esiteid" v="187186" />
  </node>
  <node id="-258" visible="true" lat="43.74794801" lon="-72.8196354">
    <tag k="addr:city" v="Pittsfield" />
    <tag k="addr:housenumber" v="2074" />
    <tag k="addr:street" v="Vermont Route 100" />
    <tag k="addr:state" v="VT" />
    <tag k="ref:vcgi:esiteid" v="187187" />
  </node>
  <node id="-259" visible="true" lat="43.75091581" lon="-72.82018404">
    <tag k="addr:city" v="Pittsfield" />
    <tag k="addr:housenumber" v="2358" />
    <tag k="addr:street" v="Vermont Route 100" />
    <tag k="addr:state" v="VT" />
    <tag k="ref:vcgi:esiteid" v="187188" />
  </node>
  <node id="-260" visible="true" lat="43.75151313" lon="-72.82035446">
    <tag k="addr:city" v="Pittsfield" />
    <tag k="addr:housenumber" v="18" />
    <tag k="addr:street" v="The Commons" />
    <tag k="addr:state" v="VT" />
    <tag k="ref:vcgi:esiteid" v="187189" />
  </node>
  <node id="-261" visible="true" lat="43.75161121" lon="-72.81941921">
    <tag k="addr:city" v="Pittsfield" />
    <tag k="addr:housenumber" v="46" />
    <tag k="addr:street" v="The Commons" />
    <tag k="addr:state" v="VT" />
    <tag k="ref:vcgi:esiteid" v="187190" />
  </node>
  <node id="-262" visible="true" lat="43.75209129" lon="-72.81929215">
    <tag k="addr:city" v="Pittsfield" />
    <tag k="addr:housenumber" v="48" />
    <tag k="addr:street" v="The Commons" />
    <tag k="addr:state" v="VT" />
    <tag k="ref:vcgi:esiteid" v="187191" />
  </node>
  <node id="-263" visible="true" lat="43.75251953" lon="-72.81909892">
    <tag k="addr:city" v="Pittsfield" />
    <tag k="addr:housenumber" v="80" />
    <tag k="addr:street" v="The Commons" />
    <tag k="addr:state" v="VT" />
    <tag k="ref:vcgi:esiteid" v="187192" />
  </node>
  <node id="-264" visible="true" lat="43.7540887" lon="-72.81803157">
    <tag k="addr:city" v="Pittsfield" />
    <tag k="addr:housenumber" v="198" />
    <tag k="addr:street" v="River View Trail" />
    <tag k="addr:state" v="VT" />
    <tag k="ref:vcgi:esiteid" v="187193" />
  </node>
  <node id="-265" visible="true" lat="43.75434101" lon="-72.81990554">
    <tag k="addr:city" v="Pittsfield" />
    <tag k="addr:housenumber" v="2586" />
    <tag k="addr:street" v="Vermont Route 100" />
    <tag k="addr:state" v="VT" />
    <tag k="ref:vcgi:esiteid" v="187194" />
  </node>
  <node id="-266" visible="true" lat="43.75470415" lon="-72.81979448">
    <tag k="addr:city" v="Pittsfield" />
    <tag k="addr:housenumber" v="2614" />
    <tag k="addr:street" v="Vermont Route 100" />
    <tag k="addr:state" v="VT" />
    <tag k="ref:vcgi:esiteid" v="187195" />
  </node>
  <node id="-267" visible="true" lat="43.7554106" lon="-72.82000102">
    <tag k="addr:city" v="Pittsfield" />
    <tag k="addr:housenumber" v="2652" />
    <tag k="addr:street" v="Vermont Route 100" />
    <tag k="addr:state" v="VT" />
    <tag k="ref:vcgi:esiteid" v="187196" />
  </node>
  <node id="-268" visible="true" lat="43.75713535" lon="-72.81984095">
    <tag k="addr:city" v="Pittsfield" />
    <tag k="addr:housenumber" v="2786" />
    <tag k="addr:street" v="Vermont Route 100" />
    <tag k="addr:state" v="VT" />
    <tag k="ref:vcgi:esiteid" v="187197" />
  </node>
  <node id="-269" visible="true" lat="43.75781101" lon="-72.81850301">
    <tag k="addr:city" v="Pittsfield" />
    <tag k="addr:housenumber" v="2834" />
    <tag k="addr:street" v="Vermont Route 100" />
    <tag k="addr:state" v="VT" />
    <tag k="ref:vcgi:esiteid" v="187198" />
  </node>
  <node id="-270" visible="true" lat="43.75847942" lon="-72.81871846">
    <tag k="addr:city" v="Pittsfield" />
    <tag k="addr:housenumber" v="2918" />
    <tag k="addr:street" v="Vermont Route 100" />
    <tag k="addr:state" v="VT" />
    <tag k="ref:vcgi:esiteid" v="187199" />
  </node>
  <node id="-271" visible="true" lat="43.76033697" lon="-72.8178524">
    <tag k="addr:city" v="Pittsfield" />
    <tag k="addr:housenumber" v="3042" />
    <tag k="addr:street" v="Vermont Route 100" />
    <tag k="addr:state" v="VT" />
    <tag k="ref:vcgi:esiteid" v="187200" />
  </node>
  <node id="-272" visible="true" lat="43.76112729" lon="-72.81849931">
    <tag k="addr:city" v="Pittsfield" />
    <tag k="addr:housenumber" v="3068" />
    <tag k="addr:street" v="Vermont Route 100" />
    <tag k="addr:state" v="VT" />
    <tag k="ref:vcgi:esiteid" v="187201" />
  </node>
  <node id="-273" visible="true" lat="43.76269002" lon="-72.81806637">
    <tag k="addr:city" v="Pittsfield" />
    <tag k="addr:housenumber" v="3178" />
    <tag k="addr:street" v="Vermont Route 100" />
    <tag k="addr:state" v="VT" />
    <tag k="ref:vcgi:esiteid" v="187203" />
  </node>
  <node id="-274" visible="true" lat="43.83146421" lon="-72.85079124">
    <tag k="addr:city" v="Pittsfield" />
    <tag k="addr:housenumber" v="98" />
    <tag k="addr:street" v="Mountain Road" />
    <tag k="addr:state" v="VT" />
    <tag k="ref:vcgi:esiteid" v="187204" />
  </node>
  <node id="-275" visible="true" lat="43.83283223" lon="-72.85185086">
    <tag k="addr:city" v="Pittsfield" />
    <tag k="addr:housenumber" v="275" />
    <tag k="addr:street" v="Mountain Road" />
    <tag k="addr:state" v="VT" />
    <tag k="ref:vcgi:esiteid" v="187205" />
  </node>
  <node id="-276" visible="true" lat="43.81993089" lon="-72.81577705">
    <tag k="addr:city" v="Pittsfield" />
    <tag k="addr:housenumber" v="264" />
    <tag k="addr:street" v="Patchs Camp Road" />
    <tag k="addr:state" v="VT" />
    <tag k="ref:vcgi:esiteid" v="187206" />
  </node>
  <node id="-277" visible="true" lat="43.82222997" lon="-72.81213411">
    <tag k="addr:city" v="Pittsfield" />
    <tag k="addr:housenumber" v="24" />
    <tag k="addr:street" v="Spike Horn Road" />
    <tag k="addr:state" v="VT" />
    <tag k="ref:vcgi:esiteid" v="187207" />
  </node>
  <node id="-278" visible="true" lat="43.77381821" lon="-72.81833716">
    <tag k="addr:city" v="Pittsfield" />
    <tag k="addr:housenumber" v="286" />
    <tag k="addr:street" v="Upper Michigan Road" />
    <tag k="addr:state" v="VT" />
    <tag k="ref:vcgi:esiteid" v="187208" />
  </node>
  <node id="-279" visible="true" lat="43.77365427" lon="-72.81965691">
    <tag k="addr:city" v="Pittsfield" />
    <tag k="addr:housenumber" v="340" />
    <tag k="addr:street" v="Upper Michigan Road" />
    <tag k="addr:state" v="VT" />
    <tag k="ref:vcgi:esiteid" v="187209" />
  </node>
  <node id="-280" visible="true" lat="43.77440939" lon="-72.82185214">
    <tag k="addr:city" v="Pittsfield" />
    <tag k="addr:housenumber" v="474" />
    <tag k="addr:street" v="Upper Michigan Road" />
    <tag k="addr:state" v="VT" />
    <tag k="ref:vcgi:esiteid" v="187210" />
  </node>
  <node id="-281" visible="true" lat="43.77413859" lon="-72.82400901">
    <tag k="addr:city" v="Pittsfield" />
    <tag k="addr:housenumber" v="47" />
    <tag k="addr:street" v="Hawk Mountain Road" />
    <tag k="addr:state" v="VT" />
    <tag k="ref:vcgi:esiteid" v="187211" />
  </node>
  <node id="-282" visible="true" lat="43.77437258" lon="-72.82885692">
    <tag k="addr:city" v="Pittsfield" />
    <tag k="addr:housenumber" v="810" />
    <tag k="addr:street" v="Upper Michigan Road" />
    <tag k="addr:state" v="VT" />
    <tag k="ref:vcgi:esiteid" v="187212" />
  </node>
  <node id="-283" visible="true" lat="43.77502836" lon="-72.83538161">
    <tag k="addr:city" v="Pittsfield" />
    <tag k="addr:housenumber" v="1152" />
    <tag k="addr:street" v="Upper Michigan Road" />
    <tag k="addr:state" v="VT" />
    <tag k="ref:vcgi:esiteid" v="187213" />
  </node>
  <node id="-284" visible="true" lat="43.77674836" lon="-72.83976043">
    <tag k="addr:city" v="Pittsfield" />
    <tag k="addr:housenumber" v="1398" />
    <tag k="addr:street" v="Upper Michigan Road" />
    <tag k="addr:state" v="VT" />
    <tag k="ref:vcgi:esiteid" v="187214" />
  </node>
  <node id="-285" visible="true" lat="43.77706659" lon="-72.84023278">
    <tag k="addr:city" v="Pittsfield" />
    <tag k="addr:housenumber" v="1430" />
    <tag k="addr:street" v="Upper Michigan Road" />
    <tag k="addr:state" v="VT" />
    <tag k="ref:vcgi:esiteid" v="187215" />
  </node>
  <node id="-286" visible="true" lat="43.77900248" lon="-72.84189535">
    <tag k="addr:city" v="Pittsfield" />
    <tag k="addr:housenumber" v="74" />
    <tag k="addr:street" v="Four Wheel Drive" />
    <tag k="addr:state" v="VT" />
    <tag k="ref:vcgi:esiteid" v="187216" />
  </node>
  <node id="-287" visible="true" lat="43.77955371" lon="-72.84230318">
    <tag k="addr:city" v="Pittsfield" />
    <tag k="addr:housenumber" v="130" />
    <tag k="addr:street" v="Four Wheel Drive" />
    <tag k="addr:state" v="VT" />
    <tag k="ref:vcgi:esiteid" v="187217" />
  </node>
  <node id="-288" visible="true" lat="43.77897362" lon="-72.84302254">
    <tag k="addr:city" v="Pittsfield" />
    <tag k="addr:housenumber" v="1622" />
    <tag k="addr:street" v="Upper Michigan Road" />
    <tag k="addr:state" v="VT" />
    <tag k="ref:vcgi:esiteid" v="187218" />
  </node>
  <node id="-289" visible="true" lat="43.77965997" lon="-72.84396418">
    <tag k="addr:city" v="Pittsfield" />
    <tag k="addr:housenumber" v="1712" />
    <tag k="addr:street" v="Upper Michigan Road" />
    <tag k="addr:state" v="VT" />
    <tag k="ref:vcgi:esiteid" v="187219" />
  </node>
  <node id="-290" visible="true" lat="43.78016981" lon="-72.84462323">
    <tag k="addr:city" v="Pittsfield" />
    <tag k="addr:housenumber" v="1760" />
    <tag k="addr:street" v="Upper Michigan Road" />
    <tag k="addr:state" v="VT" />
    <tag k="ref:vcgi:esiteid" v="187220" />
  </node>
  <node id="-291" visible="true" lat="43.78166199" lon="-72.84497515">
    <tag k="addr:city" v="Pittsfield" />
    <tag k="addr:housenumber" v="68" />
    <tag k="addr:street" v="Cahill Road" />
    <tag k="addr:state" v="VT" />
    <tag k="ref:vcgi:esiteid" v="187221" />
  </node>
  <node id="-292" visible="true" lat="43.780473" lon="-72.84155374">
    <tag k="addr:city" v="Pittsfield" />
    <tag k="addr:housenumber" v="430" />
    <tag k="addr:street" v="Cahill Road" />
    <tag k="addr:state" v="VT" />
    <tag k="ref:vcgi:esiteid" v="187222" />
  </node>
  <node id="-293" visible="true" lat="43.78128747" lon="-72.84255478">
    <tag k="addr:city" v="Pittsfield" />
    <tag k="addr:housenumber" v="355" />
    <tag k="addr:street" v="Cahill Road" />
    <tag k="addr:state" v="VT" />
    <tag k="ref:vcgi:esiteid" v="187223" />
  </node>
  <node id="-294" visible="true" lat="43.78222761" lon="-72.84282586">
    <tag k="addr:city" v="Pittsfield" />
    <tag k="addr:housenumber" v="311" />
    <tag k="addr:street" v="Cahill Road" />
    <tag k="addr:state" v="VT" />
    <tag k="ref:vcgi:esiteid" v="187224" />
  </node>
  <node id="-295" visible="true" lat="43.7834828" lon="-72.84474415">
    <tag k="addr:city" v="Pittsfield" />
    <tag k="addr:housenumber" v="231" />
    <tag k="addr:street" v="Cahill Road" />
    <tag k="addr:state" v="VT" />
    <tag k="ref:vcgi:esiteid" v="187225" />
  </node>
  <node id="-296" visible="true" lat="43.78333731" lon="-72.84539175">
    <tag k="addr:city" v="Pittsfield" />
    <tag k="addr:housenumber" v="177" />
    <tag k="addr:street" v="Cahill Road" />
    <tag k="addr:state" v="VT" />
    <tag k="ref:vcgi:esiteid" v="187226" />
  </node>
  <node id="-297" visible="true" lat="43.78356146" lon="-72.84588039">
    <tag k="addr:city" v="Pittsfield" />
    <tag k="addr:housenumber" v="47" />
    <tag k="addr:street" v="Stannick Road" />
    <tag k="addr:state" v="VT" />
    <tag k="ref:vcgi:esiteid" v="187227" />
  </node>
  <node id="-298" visible="true" lat="43.78236603" lon="-72.84569276">
    <tag k="addr:city" v="Pittsfield" />
    <tag k="addr:housenumber" v="119" />
    <tag k="addr:street" v="Cahill Road" />
    <tag k="addr:state" v="VT" />
    <tag k="ref:vcgi:esiteid" v="187228" />
  </node>
  <node id="-299" visible="true" lat="43.78241173" lon="-72.8465713">
    <tag k="addr:city" v="Pittsfield" />
    <tag k="addr:housenumber" v="38" />
    <tag k="addr:street" v="Dagg Road" />
    <tag k="addr:state" v="VT" />
    <tag k="ref:vcgi:esiteid" v="187230" />
  </node>
  <node id="-300" visible="true" lat="43.78319258" lon="-72.84699115">
    <tag k="addr:city" v="Pittsfield" />
    <tag k="addr:housenumber" v="66" />
    <tag k="addr:street" v="Dagg Road" />
    <tag k="addr:state" v="VT" />
    <tag k="ref:vcgi:esiteid" v="187231" />
  </node>
  <node id="-301" visible="true" lat="43.78569013" lon="-72.84730634">
    <tag k="addr:city" v="Pittsfield" />
    <tag k="addr:housenumber" v="257" />
    <tag k="addr:street" v="Dagg Road" />
    <tag k="addr:state" v="VT" />
    <tag k="ref:vcgi:esiteid" v="187232" />
  </node>
  <node id="-302" visible="true" lat="43.78428403" lon="-72.84696959">
    <tag k="addr:city" v="Pittsfield" />
    <tag k="addr:housenumber" v="166" />
    <tag k="addr:street" v="Dagg Road" />
    <tag k="addr:state" v="VT" />
    <tag k="ref:vcgi:esiteid" v="187233" />
  </node>
  <node id="-303" visible="true" lat="43.78203902" lon="-72.84812372">
    <tag k="addr:city" v="Pittsfield" />
    <tag k="addr:housenumber" v="1976" />
    <tag k="addr:street" v="Upper Michigan Road" />
    <tag k="addr:state" v="VT" />
    <tag k="ref:vcgi:esiteid" v="187234" />
  </node>
  <node id="-304" visible="true" lat="43.7813745" lon="-72.84958207">
    <tag k="addr:city" v="Pittsfield" />
    <tag k="addr:housenumber" v="2040" />
    <tag k="addr:street" v="Upper Michigan Road" />
    <tag k="addr:state" v="VT" />
    <tag k="ref:vcgi:esiteid" v="187235" />
  </node>
  <node id="-305" visible="true" lat="43.78369126" lon="-72.85737174">
    <tag k="addr:city" v="Pittsfield" />
    <tag k="addr:housenumber" v="427" />
    <tag k="addr:street" v="Knights Hill" />
    <tag k="addr:state" v="VT" />
    <tag k="ref:vcgi:esiteid" v="187236" />
  </node>
  <node id="-306" visible="true" lat="43.77959251" lon="-72.85209882">
    <tag k="addr:city" v="Pittsfield" />
    <tag k="addr:housenumber" v="2238" />
    <tag k="addr:street" v="Upper Michigan Road" />
    <tag k="addr:state" v="VT" />
    <tag k="ref:vcgi:esiteid" v="187237" />
  </node>
  <node id="-307" visible="true" lat="43.77877806" lon="-72.84611011">
    <tag k="addr:city" v="Pittsfield" />
    <tag k="addr:housenumber" v="1661" />
    <tag k="addr:street" v="Upper Michigan Road" />
    <tag k="addr:state" v="VT" />
    <tag k="ref:vcgi:esiteid" v="187238" />
  </node>
  <node id="-308" visible="true" lat="43.77845041" lon="-72.84349981">
    <tag k="addr:city" v="Pittsfield" />
    <tag k="addr:housenumber" v="1617" />
    <tag k="addr:street" v="Upper Michigan Road" />
    <tag k="addr:state" v="VT" />
    <tag k="ref:vcgi:esiteid" v="187239" />
  </node>
  <node id="-309" visible="true" lat="43.77518781" lon="-72.84015336">
    <tag k="addr:city" v="Pittsfield" />
    <tag k="addr:housenumber" v="230" />
    <tag k="addr:street" v="Butter Nut Lane" />
    <tag k="addr:state" v="VT" />
    <tag k="ref:vcgi:esiteid" v="187240" />
  </node>
  <node id="-310" visible="true" lat="43.77436647" lon="-72.83684535">
    <tag k="addr:city" v="Pittsfield" />
    <tag k="addr:housenumber" v="69" />
    <tag k="addr:street" v="Butter Nut Lane" />
    <tag k="addr:state" v="VT" />
    <tag k="ref:vcgi:esiteid" v="187241" />
  </node>
  <node id="-311" visible="true" lat="43.77367208" lon="-72.82662235">
    <tag k="addr:city" v="Pittsfield" />
    <tag k="addr:housenumber" v="95" />
    <tag k="addr:street" v="Hawk Path" />
    <tag k="addr:state" v="VT" />
    <tag k="ref:vcgi:esiteid" v="187242" />
  </node>
  <node id="-312" visible="true" lat="43.77349551" lon="-72.82584419">
    <tag k="addr:city" v="Pittsfield" />
    <tag k="addr:housenumber" v="67" />
    <tag k="addr:street" v="Hawk Path" />
    <tag k="addr:state" v="VT" />
    <tag k="ref:vcgi:esiteid" v="187243" />
  </node>
  <node id="-313" visible="true" lat="43.77341939" lon="-72.82519926">
    <tag k="addr:city" v="Pittsfield" />
    <tag k="addr:housenumber" v="23" />
    <tag k="addr:street" v="Hawk Path" />
    <tag k="addr:state" v="VT" />
    <tag k="ref:vcgi:esiteid" v="187244" />
  </node>
  <node id="-314" visible="true" lat="43.77464616" lon="-72.82490007">
    <tag k="addr:city" v="Pittsfield" />
    <tag k="addr:housenumber" v="86" />
    <tag k="addr:street" v="Hawk Lane" />
    <tag k="addr:state" v="VT" />
    <tag k="ref:vcgi:esiteid" v="187245" />
  </node>
  <node id="-315" visible="true" lat="43.77514008" lon="-72.82462655">
    <tag k="addr:city" v="Pittsfield" />
    <tag k="addr:housenumber" v="132" />
    <tag k="addr:street" v="Hawk Lane" />
    <tag k="addr:state" v="VT" />
    <tag k="ref:vcgi:esiteid" v="187246" />
  </node>
  <node id="-316" visible="true" lat="43.77616469" lon="-72.82411513">
    <tag k="addr:city" v="Pittsfield" />
    <tag k="addr:housenumber" v="222" />
    <tag k="addr:street" v="Hawk Lane" />
    <tag k="addr:state" v="VT" />
    <tag k="ref:vcgi:esiteid" v="187247" />
  </node>
  <node id="-317" visible="true" lat="43.776559" lon="-72.82352484">
    <tag k="addr:city" v="Pittsfield" />
    <tag k="addr:housenumber" v="264" />
    <tag k="addr:street" v="Hawk Lane" />
    <tag k="addr:state" v="VT" />
    <tag k="ref:vcgi:esiteid" v="187248" />
  </node>
  <node id="-318" visible="true" lat="43.77681374" lon="-72.82298427">
    <tag k="addr:city" v="Pittsfield" />
    <tag k="addr:housenumber" v="310" />
    <tag k="addr:street" v="Hawk Lane" />
    <tag k="addr:state" v="VT" />
    <tag k="ref:vcgi:esiteid" v="187249" />
  </node>
  <node id="-319" visible="true" lat="43.77702342" lon="-72.82373558">
    <tag k="addr:city" v="Pittsfield" />
    <tag k="addr:housenumber" v="273" />
    <tag k="addr:street" v="Hawk Lane" />
    <tag k="addr:state" v="VT" />
    <tag k="ref:vcgi:esiteid" v="187250" />
  </node>
  <node id="-320" visible="true" lat="43.77654317" lon="-72.8259988">
    <tag k="addr:city" v="Pittsfield" />
    <tag k="addr:housenumber" v="62" />
    <tag k="addr:street" v="Glen Road West" />
    <tag k="addr:state" v="VT" />
    <tag k="ref:vcgi:esiteid" v="187251" />
  </node>
  <node id="-321" visible="true" lat="43.775581" lon="-72.82591544">
    <tag k="addr:city" v="Pittsfield" />
    <tag k="addr:housenumber" v="61" />
    <tag k="addr:street" v="Glen Road West" />
    <tag k="addr:state" v="VT" />
    <tag k="ref:vcgi:esiteid" v="187252" />
  </node>
  <node id="-322" visible="true" lat="43.77441811" lon="-72.8264252">
    <tag k="addr:city" v="Pittsfield" />
    <tag k="addr:housenumber" v="49" />
    <tag k="addr:street" v="Hawk Lane" />
    <tag k="addr:state" v="VT" />
    <tag k="ref:vcgi:esiteid" v="187253" />
  </node>
  <node id="-323" visible="true" lat="43.7737784" lon="-72.82275622">
    <tag k="addr:city" v="Pittsfield" />
    <tag k="addr:housenumber" v="20" />
    <tag k="addr:street" v="Hawk Run" />
    <tag k="addr:state" v="VT" />
    <tag k="ref:vcgi:esiteid" v="187254" />
  </node>
  <node id="-324" visible="true" lat="43.77287986" lon="-72.82467362">
    <tag k="addr:city" v="Pittsfield" />
    <tag k="addr:housenumber" v="157" />
    <tag k="addr:street" v="Hawk Run" />
    <tag k="addr:state" v="VT" />
    <tag k="ref:vcgi:esiteid" v="187255" />
  </node>
  <node id="-325" visible="true" lat="43.7728546" lon="-72.82356767">
    <tag k="addr:city" v="Pittsfield" />
    <tag k="addr:housenumber" v="87" />
    <tag k="addr:street" v="Hawk Run" />
    <tag k="addr:state" v="VT" />
    <tag k="ref:vcgi:esiteid" v="187256" />
  </node>
  <node id="-326" visible="true" lat="43.7731989" lon="-72.81727256">
    <tag k="addr:city" v="Pittsfield" />
    <tag k="addr:housenumber" v="201" />
    <tag k="addr:street" v="Upper Michigan Road" />
    <tag k="addr:state" v="VT" />
    <tag k="ref:vcgi:esiteid" v="187257" />
  </node>
  <node id="-327" visible="true" lat="43.77293085" lon="-72.81446137">
    <tag k="addr:city" v="Pittsfield" />
    <tag k="addr:housenumber" v="71" />
    <tag k="addr:street" v="Upper Michigan Road" />
    <tag k="addr:state" v="VT" />
    <tag k="ref:vcgi:esiteid" v="187258" />
  </node>
  <node id="-328" visible="true" lat="43.77291235" lon="-72.81401551">
    <tag k="addr:city" v="Pittsfield" />
    <tag k="addr:housenumber" v="45" />
    <tag k="addr:street" v="Upper Michigan Road" />
    <tag k="addr:state" v="VT" />
    <tag k="ref:vcgi:esiteid" v="187259" />
  </node>
  <node id="-329" visible="true" lat="43.77506228" lon="-72.82194115">
    <tag k="addr:city" v="Pittsfield" />
    <tag k="addr:housenumber" v="73" />
    <tag k="addr:street" v="Hawk Pond Road" />
    <tag k="addr:state" v="VT" />
    <tag k="ref:vcgi:esiteid" v="187260" />
  </node>
  <node id="-330" visible="true" lat="43.7753702" lon="-72.82235123">
    <tag k="addr:city" v="Pittsfield" />
    <tag k="addr:housenumber" v="71" />
    <tag k="addr:street" v="Hawk Pond Road" />
    <tag k="addr:state" v="VT" />
    <tag k="ref:vcgi:esiteid" v="187261" />
  </node>
  <node id="-331" visible="true" lat="43.77585498" lon="-72.82186666">
    <tag k="addr:city" v="Pittsfield" />
    <tag k="addr:housenumber" v="66" />
    <tag k="addr:street" v="Hawk Trail" />
    <tag k="addr:state" v="VT" />
    <tag k="ref:vcgi:esiteid" v="187262" />
  </node>
  <node id="-332" visible="true" lat="43.77630336" lon="-72.82146245">
    <tag k="addr:city" v="Pittsfield" />
    <tag k="addr:housenumber" v="96" />
    <tag k="addr:street" v="Hawk Trail" />
    <tag k="addr:state" v="VT" />
    <tag k="ref:vcgi:esiteid" v="187263" />
  </node>
  <node id="-333" visible="true" lat="43.77693748" lon="-72.82112142">
    <tag k="addr:city" v="Pittsfield" />
    <tag k="addr:housenumber" v="112" />
    <tag k="addr:street" v="Hawk Trail" />
    <tag k="addr:state" v="VT" />
    <tag k="ref:vcgi:esiteid" v="187264" />
  </node>
  <node id="-334" visible="true" lat="43.77683423" lon="-72.82198617">
    <tag k="addr:city" v="Pittsfield" />
    <tag k="addr:housenumber" v="234" />
    <tag k="addr:street" v="Hawk Mountain Road" />
    <tag k="addr:state" v="VT" />
    <tag k="ref:vcgi:esiteid" v="187265" />
  </node>
  <node id="-335" visible="true" lat="43.77740006" lon="-72.82116107">
    <tag k="addr:city" v="Pittsfield" />
    <tag k="addr:housenumber" v="30" />
    <tag k="addr:street" v="Moose Run" />
    <tag k="addr:state" v="VT" />
    <tag k="ref:vcgi:esiteid" v="187266" />
  </node>
  <node id="-336" visible="true" lat="43.77883556" lon="-72.81959528">
    <tag k="addr:city" v="Pittsfield" />
    <tag k="addr:housenumber" v="122" />
    <tag k="addr:street" v="Moose Run" />
    <tag k="addr:state" v="VT" />
    <tag k="ref:vcgi:esiteid" v="187267" />
  </node>
  <node id="-337" visible="true" lat="43.78125566" lon="-72.81998305">
    <tag k="addr:city" v="Pittsfield" />
    <tag k="addr:housenumber" v="298" />
    <tag k="addr:street" v="Moose Run" />
    <tag k="addr:state" v="VT" />
    <tag k="ref:vcgi:esiteid" v="187268" />
  </node>
  <node id="-338" visible="true" lat="43.77924842" lon="-72.82195259">
    <tag k="addr:city" v="Pittsfield" />
    <tag k="addr:housenumber" v="366" />
    <tag k="addr:street" v="Hawk Mountain Road" />
    <tag k="addr:state" v="VT" />
    <tag k="ref:vcgi:esiteid" v="187269" />
  </node>
  <node id="-339" visible="true" lat="43.77871668" lon="-72.82262628">
    <tag k="addr:city" v="Pittsfield" />
    <tag k="addr:housenumber" v="430" />
    <tag k="addr:street" v="Hawk Mountain Road" />
    <tag k="addr:state" v="VT" />
    <tag k="ref:vcgi:esiteid" v="187270" />
  </node>
  <node id="-340" visible="true" lat="43.77844197" lon="-72.82354577">
    <tag k="addr:city" v="Pittsfield" />
    <tag k="addr:housenumber" v="436" />
    <tag k="addr:street" v="Hawk Mountain Road" />
    <tag k="addr:state" v="VT" />
    <tag k="ref:vcgi:esiteid" v="187271" />
  </node>
  <node id="-341" visible="true" lat="43.77813608" lon="-72.82450627">
    <tag k="addr:city" v="Pittsfield" />
    <tag k="addr:housenumber" v="440" />
    <tag k="addr:street" v="Hawk Mountain Road" />
    <tag k="addr:state" v="VT" />
    <tag k="ref:vcgi:esiteid" v="187272" />
  </node>
  <node id="-342" visible="true" lat="43.77787999" lon="-72.82561547">
    <tag k="addr:city" v="Pittsfield" />
    <tag k="addr:housenumber" v="590" />
    <tag k="addr:street" v="Hawk Mountain Road" />
    <tag k="addr:state" v="VT" />
    <tag k="ref:vcgi:esiteid" v="187273" />
  </node>
  <node id="-343" visible="true" lat="43.77825737" lon="-72.8268542">
    <tag k="addr:city" v="Pittsfield" />
    <tag k="addr:housenumber" v="800" />
    <tag k="addr:street" v="Hawk Mountain Road" />
    <tag k="addr:state" v="VT" />
    <tag k="ref:vcgi:esiteid" v="187274" />
  </node>
  <node id="-344" visible="true" lat="43.77884204" lon="-72.82607479">
    <tag k="addr:city" v="Pittsfield" />
    <tag k="addr:housenumber" v="846" />
    <tag k="addr:street" v="Hawk Mountain Road" />
    <tag k="addr:state" v="VT" />
    <tag k="ref:vcgi:esiteid" v="187275" />
  </node>
  <node id="-345" visible="true" lat="43.77871341" lon="-72.82514041">
    <tag k="addr:city" v="Pittsfield" />
    <tag k="addr:housenumber" v="1006" />
    <tag k="addr:street" v="Hawk Mountain Road" />
    <tag k="addr:state" v="VT" />
    <tag k="ref:vcgi:esiteid" v="187276" />
  </node>
  <node id="-346" visible="true" lat="43.77884332" lon="-72.82460756">
    <tag k="addr:city" v="Pittsfield" />
    <tag k="addr:housenumber" v="1046" />
    <tag k="addr:street" v="Hawk Mountain Road" />
    <tag k="addr:state" v="VT" />
    <tag k="ref:vcgi:esiteid" v="187277" />
  </node>
  <node id="-347" visible="true" lat="43.77923127" lon="-72.82393477">
    <tag k="addr:city" v="Pittsfield" />
    <tag k="addr:housenumber" v="1060" />
    <tag k="addr:street" v="Hawk Mountain Road" />
    <tag k="addr:state" v="VT" />
    <tag k="ref:vcgi:esiteid" v="187278" />
  </node>
  <node id="-348" visible="true" lat="43.78018784" lon="-72.82354212">
    <tag k="addr:city" v="Pittsfield" />
    <tag k="addr:housenumber" v="1114" />
    <tag k="addr:street" v="Hawk Mountain Road" />
    <tag k="addr:state" v="VT" />
    <tag k="ref:vcgi:esiteid" v="187279" />
  </node>
  <node id="-349" visible="true" lat="43.78324462" lon="-72.822833">
    <tag k="addr:city" v="Pittsfield" />
    <tag k="addr:housenumber" v="98" />
    <tag k="addr:street" v="Wilcox Peak Road" />
    <tag k="addr:state" v="VT" />
    <tag k="ref:vcgi:esiteid" v="187280" />
  </node>
  <node id="-350" visible="true" lat="43.78386166" lon="-72.82389766">
    <tag k="addr:city" v="Pittsfield" />
    <tag k="addr:housenumber" v="146" />
    <tag k="addr:street" v="Wilcox Peak Road" />
    <tag k="addr:state" v="VT" />
    <tag k="ref:vcgi:esiteid" v="187281" />
  </node>
  <node id="-351" visible="true" lat="43.78088012" lon="-72.82584514">
    <tag k="addr:city" v="Pittsfield" />
    <tag k="addr:housenumber" v="937" />
    <tag k="addr:street" v="Hawk Mountain Road" />
    <tag k="addr:state" v="VT" />
    <tag k="ref:vcgi:esiteid" v="187282" />
  </node>
  <node id="-352" visible="true" lat="43.7778686" lon="-72.8284868">
    <tag k="addr:city" v="Pittsfield" />
    <tag k="addr:housenumber" v="783" />
    <tag k="addr:street" v="Hawk Mountain Road" />
    <tag k="addr:state" v="VT" />
    <tag k="ref:vcgi:esiteid" v="187283" />
  </node>
  <node id="-353" visible="true" lat="43.77697066" lon="-72.82608214">
    <tag k="addr:city" v="Pittsfield" />
    <tag k="addr:housenumber" v="585" />
    <tag k="addr:street" v="Hawk Mountain Road" />
    <tag k="addr:state" v="VT" />
    <tag k="ref:vcgi:esiteid" v="187284" />
  </node>
  <node id="-354" visible="true" lat="43.77732133" lon="-72.82449023">
    <tag k="addr:city" v="Pittsfield" />
    <tag k="addr:housenumber" v="565" />
    <tag k="addr:street" v="Hawk Mountain Road" />
    <tag k="addr:state" v="VT" />
    <tag k="ref:vcgi:esiteid" v="187285" />
  </node>
  <node id="-355" visible="true" lat="43.77744948" lon="-72.82378902">
    <tag k="addr:city" v="Pittsfield" />
    <tag k="addr:housenumber" v="469" />
    <tag k="addr:street" v="Hawk Mountain Road" />
    <tag k="addr:state" v="VT" />
    <tag k="ref:vcgi:esiteid" v="187286" />
  </node>
  <node id="-356" visible="true" lat="43.77798219" lon="-72.82297262">
    <tag k="addr:city" v="Pittsfield" />
    <tag k="addr:housenumber" v="449" />
    <tag k="addr:street" v="Hawk Mountain Road" />
    <tag k="addr:state" v="VT" />
    <tag k="ref:vcgi:esiteid" v="187287" />
  </node>
  <node id="-357" visible="true" lat="43.7774206" lon="-72.82258958">
    <tag k="addr:city" v="Pittsfield" />
    <tag k="addr:housenumber" v="279" />
    <tag k="addr:street" v="Hawk Mountain Road" />
    <tag k="addr:state" v="VT" />
    <tag k="ref:vcgi:esiteid" v="187288" />
  </node>
  <node id="-358" visible="true" lat="43.77606792" lon="-72.82330126">
    <tag k="addr:city" v="Pittsfield" />
    <tag k="addr:housenumber" v="171" />
    <tag k="addr:street" v="Hawk Mountain Road" />
    <tag k="addr:state" v="VT" />
    <tag k="ref:vcgi:esiteid" v="187289" />
  </node>
  <node id="-359" visible="true" lat="43.77543588" lon="-72.82377682">
    <tag k="addr:city" v="Pittsfield" />
    <tag k="addr:housenumber" v="99" />
    <tag k="addr:street" v="Hawk Mountain Road" />
    <tag k="addr:state" v="VT" />
    <tag k="ref:vcgi:esiteid" v="187290" />
  </node>
  <node id="-360" visible="true" lat="43.76127342" lon="-72.81587993">
    <tag k="addr:city" v="Pittsfield" />
    <tag k="addr:housenumber" v="202" />
    <tag k="addr:street" v="Tweed River Drive" />
    <tag k="addr:state" v="VT" />
    <tag k="ref:vcgi:esiteid" v="187291" />
  </node>
  <node id="-361" visible="true" lat="43.7595418" lon="-72.81419492">
    <tag k="addr:city" v="Pittsfield" />
    <tag k="addr:housenumber" v="348" />
    <tag k="addr:street" v="Tweed River Drive" />
    <tag k="addr:state" v="VT" />
    <tag k="ref:vcgi:esiteid" v="187292" />
  </node>
  <node id="-362" visible="true" lat="43.75885461" lon="-72.81411271">
    <tag k="addr:city" v="Pittsfield" />
    <tag k="addr:housenumber" v="402" />
    <tag k="addr:street" v="Tweed River Drive" />
    <tag k="addr:state" v="VT" />
    <tag k="ref:vcgi:esiteid" v="187293" />
  </node>
  <node id="-363" visible="true" lat="43.75824763" lon="-72.81403206">
    <tag k="addr:city" v="Pittsfield" />
    <tag k="addr:housenumber" v="8" />
    <tag k="addr:street" v="Park Place" />
    <tag k="addr:state" v="VT" />
    <tag k="ref:vcgi:esiteid" v="187294" />
  </node>
  <node id="-364" visible="true" lat="43.7586856" lon="-72.81490219">
    <tag k="addr:city" v="Pittsfield" />
    <tag k="addr:housenumber" v="140" />
    <tag k="addr:street" v="Park Place" />
    <tag k="addr:state" v="VT" />
    <tag k="ref:vcgi:esiteid" v="187295" />
  </node>
  <node id="-365" visible="true" lat="43.75858986" lon="-72.81558384">
    <tag k="addr:city" v="Pittsfield" />
    <tag k="addr:housenumber" v="125" />
    <tag k="addr:street" v="Park Place" />
    <tag k="addr:state" v="VT" />
    <tag k="ref:vcgi:esiteid" v="187296" />
  </node>
  <node id="-366" visible="true" lat="43.75818465" lon="-72.81591472">
    <tag k="addr:city" v="Pittsfield" />
    <tag k="addr:housenumber" v="115" />
    <tag k="addr:street" v="Park Place" />
    <tag k="addr:state" v="VT" />
    <tag k="ref:vcgi:esiteid" v="187298" />
  </node>
  <node id="-367" visible="true" lat="43.75771925" lon="-72.81490133">
    <tag k="addr:city" v="Pittsfield" />
    <tag k="addr:housenumber" v="113" />
    <tag k="addr:street" v="Park Place" />
    <tag k="addr:state" v="VT" />
    <tag k="ref:vcgi:esiteid" v="187299" />
  </node>
  <node id="-368" visible="true" lat="43.75978398" lon="-72.81176336">
    <tag k="addr:city" v="Pittsfield" />
    <tag k="addr:housenumber" v="219" />
    <tag k="addr:street" v="Heritage Heights" />
    <tag k="addr:state" v="VT" />
    <tag k="ref:vcgi:esiteid" v="187300" />
  </node>
  <node id="-369" visible="true" lat="43.75928681" lon="-72.81203509">
    <tag k="addr:city" v="Pittsfield" />
    <tag k="addr:housenumber" v="199" />
    <tag k="addr:street" v="Heritage Heights" />
    <tag k="addr:state" v="VT" />
    <tag k="ref:vcgi:esiteid" v="187301" />
  </node>
  <node id="-370" visible="true" lat="43.75870797" lon="-72.81222511">
    <tag k="addr:city" v="Pittsfield" />
    <tag k="addr:housenumber" v="165" />
    <tag k="addr:street" v="Heritage Heights" />
    <tag k="addr:state" v="VT" />
    <tag k="ref:vcgi:esiteid" v="187302" />
  </node>
  <node id="-371" visible="true" lat="43.75824472" lon="-72.81223782">
    <tag k="addr:city" v="Pittsfield" />
    <tag k="addr:housenumber" v="109" />
    <tag k="addr:street" v="Heritage Heights" />
    <tag k="addr:state" v="VT" />
    <tag k="ref:vcgi:esiteid" v="187303" />
  </node>
  <node id="-372" visible="true" lat="43.75731534" lon="-72.81256129">
    <tag k="addr:city" v="Pittsfield" />
    <tag k="addr:housenumber" v="565" />
    <tag k="addr:street" v="Tweed River Drive" />
    <tag k="addr:state" v="VT" />
    <tag k="ref:vcgi:esiteid" v="187304" />
  </node>
  <node id="-373" visible="true" lat="43.75811084" lon="-72.81316861">
    <tag k="addr:city" v="Pittsfield" />
    <tag k="addr:housenumber" v="485" />
    <tag k="addr:street" v="Tweed River Drive" />
    <tag k="addr:state" v="VT" />
    <tag k="ref:vcgi:esiteid" v="187305" />
  </node>
  <node id="-374" visible="true" lat="43.75978472" lon="-72.81282966">
    <tag k="addr:city" v="Pittsfield" />
    <tag k="addr:housenumber" v="64" />
    <tag k="addr:street" v="Dove Drive" />
    <tag k="addr:state" v="VT" />
    <tag k="ref:vcgi:esiteid" v="187306" />
  </node>
  <node id="-375" visible="true" lat="43.75998102" lon="-72.81352134">
    <tag k="addr:city" v="Pittsfield" />
    <tag k="addr:housenumber" v="53" />
    <tag k="addr:street" v="Dove Drive" />
    <tag k="addr:state" v="VT" />
    <tag k="ref:vcgi:esiteid" v="187307" />
  </node>
  <node id="-376" visible="true" lat="43.76082964" lon="-72.81392118">
    <tag k="addr:city" v="Pittsfield" />
    <tag k="addr:housenumber" v="301" />
    <tag k="addr:street" v="Tweed River Drive" />
    <tag k="addr:state" v="VT" />
    <tag k="ref:vcgi:esiteid" v="187308" />
  </node>
  <node id="-377" visible="true" lat="43.763689" lon="-72.81672005">
    <tag k="addr:city" v="Pittsfield" />
    <tag k="addr:housenumber" v="57" />
    <tag k="addr:street" v="Tweed River Drive" />
    <tag k="addr:state" v="VT" />
    <tag k="ref:vcgi:esiteid" v="187309" />
  </node>
  <node id="-378" visible="true" lat="43.76676582" lon="-72.8136889">
    <tag k="addr:city" v="Pittsfield" />
    <tag k="addr:housenumber" v="40" />
    <tag k="addr:street" v="Parmenter Place" />
    <tag k="addr:state" v="VT" />
    <tag k="ref:vcgi:esiteid" v="187311" />
  </node>
  <node id="-379" visible="true" lat="43.76565809" lon="-72.81393691">
    <tag k="addr:city" v="Pittsfield" />
    <tag k="addr:housenumber" v="170" />
    <tag k="addr:street" v="Parmenter Place" />
    <tag k="addr:state" v="VT" />
    <tag k="ref:vcgi:esiteid" v="187312" />
  </node>
  <node id="-380" visible="true" lat="43.76608543" lon="-72.8124399">
    <tag k="addr:city" v="Pittsfield" />
    <tag k="addr:housenumber" v="101" />
    <tag k="addr:street" v="Parmenter Place" />
    <tag k="addr:state" v="VT" />
    <tag k="ref:vcgi:esiteid" v="187313" />
  </node>
  <node id="-381" visible="true" lat="43.76687222" lon="-72.81329618">
    <tag k="addr:city" v="Pittsfield" />
    <tag k="addr:housenumber" v="57" />
    <tag k="addr:street" v="Parmenter Place" />
    <tag k="addr:state" v="VT" />
    <tag k="ref:vcgi:esiteid" v="187314" />
  </node>
  <node id="-382" visible="true" lat="43.76787638" lon="-72.81308806">
    <tag k="addr:city" v="Pittsfield" />
    <tag k="addr:housenumber" v="3628" />
    <tag k="addr:street" v="Vermont Route 100" />
    <tag k="addr:state" v="VT" />
    <tag k="ref:vcgi:esiteid" v="187317" />
  </node>
  <node id="-383" visible="true" lat="43.76821459" lon="-72.81329246">
    <tag k="addr:city" v="Pittsfield" />
    <tag k="addr:housenumber" v="3642" />
    <tag k="addr:street" v="Vermont Route 100" />
    <tag k="addr:state" v="VT" />
    <tag k="ref:vcgi:esiteid" v="187318" />
  </node>
  <node id="-384" visible="true" lat="43.76848336" lon="-72.81303752">
    <tag k="addr:city" v="Pittsfield" />
    <tag k="addr:housenumber" v="3664" />
    <tag k="addr:street" v="Vermont Route 100" />
    <tag k="addr:state" v="VT" />
    <tag k="ref:vcgi:esiteid" v="187319" />
  </node>
  <node id="-385" visible="true" lat="43.7687437" lon="-72.81296251">
    <tag k="addr:city" v="Pittsfield" />
    <tag k="addr:housenumber" v="3682" />
    <tag k="addr:street" v="Vermont Route 100" />
    <tag k="addr:state" v="VT" />
    <tag k="ref:vcgi:esiteid" v="187320" />
  </node>
  <node id="-386" visible="true" lat="43.76928642" lon="-72.81265213">
    <tag k="addr:city" v="Pittsfield" />
    <tag k="addr:housenumber" v="3718" />
    <tag k="addr:street" v="Vermont Route 100" />
    <tag k="addr:state" v="VT" />
    <tag k="ref:vcgi:esiteid" v="187321" />
  </node>
  <node id="-387" visible="true" lat="43.76957229" lon="-72.81263562">
    <tag k="addr:city" v="Pittsfield" />
    <tag k="addr:housenumber" v="3736" />
    <tag k="addr:street" v="Vermont Route 100" />
    <tag k="addr:state" v="VT" />
    <tag k="ref:vcgi:esiteid" v="187322" />
  </node>
  <node id="-388" visible="true" lat="43.76996776" lon="-72.81243523">
    <tag k="addr:city" v="Pittsfield" />
    <tag k="addr:housenumber" v="3768" />
    <tag k="addr:street" v="Vermont Route 100" />
    <tag k="addr:state" v="VT" />
    <tag k="ref:vcgi:esiteid" v="187323" />
  </node>
  <node id="-389" visible="true" lat="43.77034937" lon="-72.81245023">
    <tag k="addr:city" v="Pittsfield" />
    <tag k="addr:housenumber" v="28" />
    <tag k="addr:street" v="Village Green" />
    <tag k="addr:state" v="VT" />
    <tag k="ref:vcgi:esiteid" v="187324" />
  </node>
  <node id="-390" visible="true" lat="43.77062665" lon="-72.81237247">
    <tag k="addr:city" v="Pittsfield" />
    <tag k="addr:housenumber" v="40" />
    <tag k="addr:street" v="Village Green" />
    <tag k="addr:state" v="VT" />
    <tag k="ref:vcgi:esiteid" v="187325" />
  </node>
  <node id="-391" visible="true" lat="43.77092296" lon="-72.81239225">
    <tag k="addr:city" v="Pittsfield" />
    <tag k="addr:housenumber" v="56" />
    <tag k="addr:street" v="Village Green" />
    <tag k="addr:state" v="VT" />
    <tag k="ref:vcgi:esiteid" v="187326" />
  </node>
  <node id="-392" visible="true" lat="43.77119079" lon="-72.81249069">
    <tag k="addr:city" v="Pittsfield" />
    <tag k="addr:housenumber" v="78" />
    <tag k="addr:street" v="Village Green" />
    <tag k="addr:state" v="VT" />
    <tag k="ref:vcgi:esiteid" v="187327" />
  </node>
  <node id="-393" visible="true" lat="43.77139435" lon="-72.81245888">
    <tag k="addr:city" v="Pittsfield" />
    <tag k="addr:housenumber" v="88" />
    <tag k="addr:street" v="Village Green" />
    <tag k="addr:state" v="VT" />
    <tag k="ref:vcgi:esiteid" v="187328" />
  </node>
  <node id="-394" visible="true" lat="43.77194301" lon="-72.812461">
    <tag k="addr:city" v="Pittsfield" />
    <tag k="addr:housenumber" v="126" />
    <tag k="addr:street" v="Village Green" />
    <tag k="addr:state" v="VT" />
    <tag k="ref:vcgi:esiteid" v="187329" />
  </node>
  <node id="-395" visible="true" lat="43.77210228" lon="-72.81248138">
    <tag k="addr:city" v="Pittsfield" />
    <tag k="addr:housenumber" v="136" />
    <tag k="addr:street" v="Village Green" />
    <tag k="addr:state" v="VT" />
    <tag k="ref:vcgi:esiteid" v="187330" />
  </node>
  <node id="-396" visible="true" lat="43.77247446" lon="-72.81262725">
    <tag k="addr:city" v="Pittsfield" />
    <tag k="addr:housenumber" v="3934" />
    <tag k="addr:street" v="Vermont Route 100" />
    <tag k="addr:state" v="VT" />
    <tag k="ref:vcgi:esiteid" v="187331" />
  </node>
  <node id="-397" visible="true" lat="43.7708954" lon="-72.80859262">
    <tag k="addr:city" v="Pittsfield" />
    <tag k="addr:housenumber" v="3950" />
    <tag k="addr:street" v="Vermont Route 100" />
    <tag k="addr:state" v="VT" />
    <tag k="ref:vcgi:esiteid" v="187333" />
  </node>
  <node id="-398" visible="true" lat="43.77284973" lon="-72.81247032">
    <tag k="addr:city" v="Pittsfield" />
    <tag k="addr:housenumber" v="3956" />
    <tag k="addr:street" v="Vermont Route 100" />
    <tag k="addr:state" v="VT" />
    <tag k="ref:vcgi:esiteid" v="187334" />
  </node>
  <node id="-399" visible="true" lat="43.77352483" lon="-72.81229446">
    <tag k="addr:city" v="Pittsfield" />
    <tag k="addr:housenumber" v="4030" />
    <tag k="addr:street" v="Vermont Route 100" />
    <tag k="addr:state" v="VT" />
    <tag k="ref:vcgi:esiteid" v="187335" />
  </node>
  <node id="-400" visible="true" lat="43.77367957" lon="-72.81079061">
    <tag k="addr:city" v="Pittsfield" />
    <tag k="addr:housenumber" v="4070" />
    <tag k="addr:street" v="Vermont Route 100" />
    <tag k="addr:state" v="VT" />
    <tag k="ref:vcgi:esiteid" v="187336" />
  </node>
  <node id="-401" visible="true" lat="43.77631378" lon="-72.8068616">
    <tag k="addr:city" v="Pittsfield" />
    <tag k="addr:housenumber" v="39" />
    <tag k="addr:street" v="Diablo Lane" />
    <tag k="addr:state" v="VT" />
    <tag k="ref:vcgi:esiteid" v="187337" />
  </node>
  <node id="-402" visible="true" lat="43.77692096" lon="-72.80563193">
    <tag k="addr:city" v="Pittsfield" />
    <tag k="addr:housenumber" v="4422" />
    <tag k="addr:street" v="Vermont Route 100" />
    <tag k="addr:state" v="VT" />
    <tag k="ref:vcgi:esiteid" v="187338" />
  </node>
  <node id="-403" visible="true" lat="43.77870481" lon="-72.8010045">
    <tag k="addr:city" v="Pittsfield" />
    <tag k="addr:housenumber" v="4719" />
    <tag k="addr:street" v="Vermont Route 100" />
    <tag k="addr:state" v="VT" />
    <tag k="ref:vcgi:esiteid" v="187339" />
  </node>
  <node id="-404" visible="true" lat="43.78039055" lon="-72.79832043">
    <tag k="addr:city" v="Pittsfield" />
    <tag k="addr:housenumber" v="64" />
    <tag k="addr:street" v="Pine Needle Hill Road" />
    <tag k="addr:state" v="VT" />
    <tag k="ref:vcgi:esiteid" v="187340" />
  </node>
  <node id="-405" visible="true" lat="43.78102116" lon="-72.79845618">
    <tag k="addr:city" v="Pittsfield" />
    <tag k="addr:housenumber" v="120" />
    <tag k="addr:street" v="Pine Needle Hill Road" />
    <tag k="addr:state" v="VT" />
    <tag k="ref:vcgi:esiteid" v="187341" />
  </node>
  <node id="-406" visible="true" lat="43.77994794" lon="-72.79885946">
    <tag k="addr:city" v="Pittsfield" />
    <tag k="addr:housenumber" v="70" />
    <tag k="addr:street" v="Guernsey Hollow Road" />
    <tag k="addr:state" v="VT" />
    <tag k="ref:vcgi:esiteid" v="187342" />
  </node>
  <node id="-407" visible="true" lat="43.77910581" lon="-72.79929552">
    <tag k="addr:city" v="Pittsfield" />
    <tag k="addr:housenumber" v="4813" />
    <tag k="addr:street" v="Vermont Route 100" />
    <tag k="addr:state" v="VT" />
    <tag k="ref:vcgi:esiteid" v="187343" />
  </node>
  <node id="-408" visible="true" lat="43.78106083" lon="-72.79973295">
    <tag k="addr:city" v="Pittsfield" />
    <tag k="addr:housenumber" v="126" />
    <tag k="addr:street" v="Liberty Hill Road" />
    <tag k="addr:state" v="VT" />
    <tag k="ref:vcgi:esiteid" v="187344" />
  </node>
  <node id="-409" visible="true" lat="43.78321446" lon="-72.80004947">
    <tag k="addr:city" v="Pittsfield" />
    <tag k="addr:housenumber" v="300" />
    <tag k="addr:street" v="Liberty Hill Road" />
    <tag k="addr:state" v="VT" />
    <tag k="ref:vcgi:esiteid" v="187345" />
  </node>
  <node id="-410" visible="true" lat="43.78458363" lon="-72.80142899">
    <tag k="addr:city" v="Pittsfield" />
    <tag k="addr:housenumber" v="416" />
    <tag k="addr:street" v="Liberty Hill Road" />
    <tag k="addr:state" v="VT" />
    <tag k="ref:vcgi:esiteid" v="187346" />
  </node>
  <node id="-411" visible="true" lat="43.78511584" lon="-72.80149321">
    <tag k="addr:city" v="Pittsfield" />
    <tag k="addr:housenumber" v="454" />
    <tag k="addr:street" v="Liberty Hill Road" />
    <tag k="addr:state" v="VT" />
    <tag k="ref:vcgi:esiteid" v="187347" />
  </node>
  <node id="-412" visible="true" lat="43.78761995" lon="-72.80047224">
    <tag k="addr:city" v="Pittsfield" />
    <tag k="addr:housenumber" v="121" />
    <tag k="addr:street" v="Jenny Pond Road" />
    <tag k="addr:state" v="VT" />
    <tag k="ref:vcgi:esiteid" v="187348" />
  </node>
  <node id="-413" visible="true" lat="43.78910234" lon="-72.80093073">
    <tag k="addr:city" v="Pittsfield" />
    <tag k="addr:housenumber" v="102" />
    <tag k="addr:street" v="Silver Spring Hill Road" />
    <tag k="addr:state" v="VT" />
    <tag k="ref:vcgi:esiteid" v="187349" />
  </node>
  <node id="-414" visible="true" lat="43.78971173" lon="-72.80007052">
    <tag k="addr:city" v="Pittsfield" />
    <tag k="addr:housenumber" v="194" />
    <tag k="addr:street" v="Silver Spring Hill Road" />
    <tag k="addr:state" v="VT" />
    <tag k="ref:vcgi:esiteid" v="187350" />
  </node>
  <node id="-415" visible="true" lat="43.7889353" lon="-72.79956195">
    <tag k="addr:city" v="Pittsfield" />
    <tag k="addr:housenumber" v="270" />
    <tag k="addr:street" v="Silver Spring Hill Road" />
    <tag k="addr:state" v="VT" />
    <tag k="ref:vcgi:esiteid" v="187351" />
  </node>
  <node id="-416" visible="true" lat="43.7884919" lon="-72.79842309">
    <tag k="addr:city" v="Pittsfield" />
    <tag k="addr:housenumber" v="359" />
    <tag k="addr:street" v="Silver Spring Hill Road" />
    <tag k="addr:state" v="VT" />
    <tag k="ref:vcgi:esiteid" v="187352" />
  </node>
  <node id="-417" visible="true" lat="43.79030568" lon="-72.79912593">
    <tag k="addr:city" v="Pittsfield" />
    <tag k="addr:housenumber" v="239" />
    <tag k="addr:street" v="Silver Spring Hill Road" />
    <tag k="addr:state" v="VT" />
    <tag k="ref:vcgi:esiteid" v="187353" />
  </node>
  <node id="-418" visible="true" lat="43.79058969" lon="-72.80090768">
    <tag k="addr:city" v="Pittsfield" />
    <tag k="addr:housenumber" v="163" />
    <tag k="addr:street" v="Silver Spring Hill Road" />
    <tag k="addr:state" v="VT" />
    <tag k="ref:vcgi:esiteid" v="187354" />
  </node>
  <node id="-419" visible="true" lat="43.79118392" lon="-72.80132225">
    <tag k="addr:city" v="Pittsfield" />
    <tag k="addr:housenumber" v="165" />
    <tag k="addr:street" v="Silver Spring Hill Road" />
    <tag k="addr:state" v="VT" />
    <tag k="ref:vcgi:esiteid" v="187355" />
  </node>
  <node id="-420" visible="true" lat="43.79635725" lon="-72.8048037">
    <tag k="addr:city" v="Pittsfield" />
    <tag k="addr:housenumber" v="1269" />
    <tag k="addr:street" v="Liberty Hill Road" />
    <tag k="addr:state" v="VT" />
    <tag k="ref:vcgi:esiteid" v="187356" />
  </node>
  <node id="-421" visible="true" lat="43.7986936" lon="-72.80502416">
    <tag k="addr:city" v="Pittsfield" />
    <tag k="addr:housenumber" v="1426" />
    <tag k="addr:street" v="Liberty Hill Road" />
    <tag k="addr:state" v="VT" />
    <tag k="ref:vcgi:esiteid" v="187357" />
  </node>
  <node id="-422" visible="true" lat="43.80195081" lon="-72.80647353">
    <tag k="addr:city" v="Pittsfield" />
    <tag k="addr:housenumber" v="1674" />
    <tag k="addr:street" v="Liberty Hill Road" />
    <tag k="addr:state" v="VT" />
    <tag k="ref:vcgi:esiteid" v="187358" />
  </node>
  <node id="-423" visible="true" lat="43.80340857" lon="-72.80161401">
    <tag k="addr:city" v="Pittsfield" />
    <tag k="addr:housenumber" v="303" />
    <tag k="addr:street" v="Gokey Road" />
    <tag k="addr:state" v="VT" />
    <tag k="ref:vcgi:esiteid" v="187359" />
  </node>
  <node id="-424" visible="true" lat="43.80339864" lon="-72.80351938">
    <tag k="addr:city" v="Pittsfield" />
    <tag k="addr:housenumber" v="291" />
    <tag k="addr:street" v="Gokey Road" />
    <tag k="addr:state" v="VT" />
    <tag k="ref:vcgi:esiteid" v="187360" />
  </node>
  <node id="-425" visible="true" lat="43.80315336" lon="-72.80788782">
    <tag k="addr:city" v="Pittsfield" />
    <tag k="addr:housenumber" v="1799" />
    <tag k="addr:street" v="Liberty Hill Road" />
    <tag k="addr:state" v="VT" />
    <tag k="ref:vcgi:esiteid" v="187361" />
  </node>
  <node id="-426" visible="true" lat="43.7864869" lon="-72.80280375">
    <tag k="addr:city" v="Pittsfield" />
    <tag k="addr:housenumber" v="32" />
    <tag k="addr:street" v="Forsha Road" />
    <tag k="addr:state" v="VT" />
    <tag k="ref:vcgi:esiteid" v="187362" />
  </node>
  <node id="-427" visible="true" lat="43.78776843" lon="-72.80494835">
    <tag k="addr:city" v="Pittsfield" />
    <tag k="addr:housenumber" v="238" />
    <tag k="addr:street" v="Forsha Road" />
    <tag k="addr:state" v="VT" />
    <tag k="ref:vcgi:esiteid" v="187363" />
  </node>
  <node id="-428" visible="true" lat="43.7888538" lon="-72.80835025">
    <tag k="addr:city" v="Pittsfield" />
    <tag k="addr:housenumber" v="410" />
    <tag k="addr:street" v="Forsha Road" />
    <tag k="addr:state" v="VT" />
    <tag k="ref:vcgi:esiteid" v="187364" />
  </node>
  <node id="-429" visible="true" lat="43.7887359" lon="-72.81071617">
    <tag k="addr:city" v="Pittsfield" />
    <tag k="addr:housenumber" v="447" />
    <tag k="addr:street" v="Forsha Road" />
    <tag k="addr:state" v="VT" />
    <tag k="ref:vcgi:esiteid" v="187366" />
  </node>
  <node id="-430" visible="true" lat="43.78769209" lon="-72.80694403">
    <tag k="addr:city" v="Pittsfield" />
    <tag k="addr:housenumber" v="277" />
    <tag k="addr:street" v="Forsha Road" />
    <tag k="addr:state" v="VT" />
    <tag k="ref:vcgi:esiteid" v="187367" />
  </node>
  <node id="-431" visible="true" lat="43.78514221" lon="-72.80317107">
    <tag k="addr:city" v="Pittsfield" />
    <tag k="addr:housenumber" v="44" />
    <tag k="addr:street" v="Eagle Rock Road" />
    <tag k="addr:state" v="VT" />
    <tag k="ref:vcgi:esiteid" v="187368" />
  </node>
  <node id="-432" visible="true" lat="43.78442666" lon="-72.80397257">
    <tag k="addr:city" v="Pittsfield" />
    <tag k="addr:housenumber" v="118" />
    <tag k="addr:street" v="Eagle Rock Road" />
    <tag k="addr:state" v="VT" />
    <tag k="ref:vcgi:esiteid" v="187369" />
  </node>
  <node id="-433" visible="true" lat="43.78427139" lon="-72.80435844">
    <tag k="addr:city" v="Pittsfield" />
    <tag k="addr:housenumber" v="176" />
    <tag k="addr:street" v="Eagle Rock Road" />
    <tag k="addr:state" v="VT" />
    <tag k="ref:vcgi:esiteid" v="187370" />
  </node>
  <node id="-434" visible="true" lat="43.78405034" lon="-72.80363381">
    <tag k="addr:city" v="Pittsfield" />
    <tag k="addr:housenumber" v="179" />
    <tag k="addr:street" v="Eagle Rock Road" />
    <tag k="addr:state" v="VT" />
    <tag k="ref:vcgi:esiteid" v="187371" />
  </node>
  <node id="-435" visible="true" lat="43.78388274" lon="-72.80268992">
    <tag k="addr:city" v="Pittsfield" />
    <tag k="addr:housenumber" v="153" />
    <tag k="addr:street" v="Eagle Rock Road" />
    <tag k="addr:state" v="VT" />
    <tag k="ref:vcgi:esiteid" v="187372" />
  </node>
  <node id="-436" visible="true" lat="43.78102444" lon="-72.80688165">
    <tag k="addr:city" v="Pittsfield" />
    <tag k="addr:housenumber" v="96" />
    <tag k="addr:street" v="Music Mountain Road" />
    <tag k="addr:state" v="VT" />
    <tag k="ref:vcgi:esiteid" v="187373" />
  </node>
  <node id="-437" visible="true" lat="43.78031771" lon="-72.8025188">
    <tag k="addr:city" v="Pittsfield" />
    <tag k="addr:housenumber" v="217" />
    <tag k="addr:street" v="Music Mountain Road" />
    <tag k="addr:state" v="VT" />
    <tag k="ref:vcgi:esiteid" v="187374" />
  </node>
  <node id="-438" visible="true" lat="43.82702139" lon="-72.80542062">
    <tag k="addr:city" v="Pittsfield" />
    <tag k="addr:housenumber" v="3667" />
    <tag k="addr:street" v="Liberty Hill Road" />
    <tag k="addr:state" v="VT" />
    <tag k="ref:vcgi:esiteid" v="187375" />
  </node>
  <node id="-439" visible="true" lat="43.82564799" lon="-72.80461924">
    <tag k="addr:city" v="Pittsfield" />
    <tag k="addr:housenumber" v="3589" />
    <tag k="addr:street" v="Liberty Hill Road" />
    <tag k="addr:state" v="VT" />
    <tag k="ref:vcgi:esiteid" v="187376" />
  </node>
  <node id="-440" visible="true" lat="43.82270567" lon="-72.80937606">
    <tag k="addr:city" v="Pittsfield" />
    <tag k="addr:housenumber" v="3306" />
    <tag k="addr:street" v="Liberty Hill Road" />
    <tag k="addr:state" v="VT" />
    <tag k="ref:vcgi:esiteid" v="187377" />
  </node>
  <node id="-441" visible="true" lat="43.82282143" lon="-72.80820682">
    <tag k="addr:city" v="Pittsfield" />
    <tag k="addr:housenumber" v="3352" />
    <tag k="addr:street" v="Liberty Hill Road" />
    <tag k="addr:state" v="VT" />
    <tag k="ref:vcgi:esiteid" v="187378" />
  </node>
  <node id="-442" visible="true" lat="43.82316634" lon="-72.80667293">
    <tag k="addr:city" v="Pittsfield" />
    <tag k="addr:housenumber" v="3430" />
    <tag k="addr:street" v="Liberty Hill Road" />
    <tag k="addr:state" v="VT" />
    <tag k="ref:vcgi:esiteid" v="187379" />
  </node>
  <node id="-443" visible="true" lat="43.82338191" lon="-72.80584618">
    <tag k="addr:city" v="Pittsfield" />
    <tag k="addr:housenumber" v="3486" />
    <tag k="addr:street" v="Liberty Hill Road" />
    <tag k="addr:state" v="VT" />
    <tag k="ref:vcgi:esiteid" v="187380" />
  </node>
  <node id="-444" visible="true" lat="43.82473078" lon="-72.80170956">
    <tag k="addr:city" v="Pittsfield" />
    <tag k="addr:housenumber" v="3702" />
    <tag k="addr:street" v="Liberty Hill Road" />
    <tag k="addr:state" v="VT" />
    <tag k="ref:vcgi:esiteid" v="187381" />
  </node>
  <node id="-445" visible="true" lat="43.7741474" lon="-72.82412103">
    <tag k="addr:city" v="Pittsfield" />
    <tag k="addr:housenumber" v="6" />
    <tag k="addr:street" v="Hawk Lane" />
    <tag k="addr:state" v="VT" />
    <tag k="ref:vcgi:esiteid" v="187382" />
  </node>
  <node id="-446" visible="true" lat="43.78452566" lon="-72.85812989">
    <tag k="addr:city" v="Pittsfield" />
    <tag k="addr:housenumber" v="507" />
    <tag k="addr:street" v="Knights Hill" />
    <tag k="addr:state" v="VT" />
    <tag k="ref:vcgi:esiteid" v="187383" />
  </node>
  <node id="-447" visible="true" lat="43.77673117" lon="-72.84571255">
    <tag k="addr:city" v="Pittsfield" />
    <tag k="addr:housenumber" v="1752" />
    <tag k="addr:street" v="Lower Michigan Road" />
    <tag k="addr:state" v="VT" />
    <tag k="ref:vcgi:esiteid" v="187384" />
  </node>
  <node id="-448" visible="true" lat="43.77201916" lon="-72.81461899">
    <tag k="addr:city" v="Pittsfield" />
    <tag k="addr:housenumber" v="74" />
    <tag k="addr:street" v="Lois Lane" />
    <tag k="addr:state" v="VT" />
    <tag k="ref:vcgi:esiteid" v="187385" />
  </node>
  <node id="-449" visible="true" lat="43.77147153" lon="-72.81541222">
    <tag k="addr:city" v="Pittsfield" />
    <tag k="addr:housenumber" v="117" />
    <tag k="addr:street" v="Lois Lane" />
    <tag k="addr:state" v="VT" />
    <tag k="ref:vcgi:esiteid" v="187386" />
  </node>
  <node id="-450" visible="true" lat="43.75254227" lon="-72.8259837">
    <tag k="addr:city" v="Pittsfield" />
    <tag k="addr:housenumber" v="106" />
    <tag k="addr:street" v="Tozier Hill Road" />
    <tag k="addr:state" v="VT" />
    <tag k="ref:vcgi:esiteid" v="187388" />
  </node>
  <node id="-451" visible="true" lat="43.8237835" lon="-72.81202117">
    <tag k="addr:city" v="Pittsfield" />
    <tag k="addr:housenumber" v="132" />
    <tag k="addr:street" v="Spike Horn Road" />
    <tag k="addr:state" v="VT" />
    <tag k="ref:vcgi:esiteid" v="187389" />
  </node>
  <node id="-452" visible="true" lat="43.79474359" lon="-72.81436293">
    <tag k="addr:city" v="Pittsfield" />
    <tag k="addr:housenumber" v="850" />
    <tag k="addr:street" v="Forsha Road" />
    <tag k="addr:state" v="VT" />
    <tag k="ref:vcgi:esiteid" v="187390" />
  </node>
  <node id="-453" visible="true" lat="43.79935664" lon="-72.81605457">
    <tag k="addr:city" v="Pittsfield" />
    <tag k="addr:housenumber" v="1231" />
    <tag k="addr:street" v="Forsha Road" />
    <tag k="addr:state" v="VT" />
    <tag k="ref:vcgi:esiteid" v="187391" />
  </node>
  <node id="-454" visible="true" lat="43.75717178" lon="-72.81383976">
    <tag k="addr:city" v="Pittsfield" />
    <tag k="addr:housenumber" v="41" />
    <tag k="addr:street" v="Park Place" />
    <tag k="addr:state" v="VT" />
    <tag k="ref:vcgi:esiteid" v="187392" />
  </node>
  <node id="-455" visible="true" lat="43.72964274" lon="-72.81430859">
    <tag k="addr:city" v="Pittsfield" />
    <tag k="addr:housenumber" v="301" />
    <tag k="addr:street" v="Camp 12 Road" />
    <tag k="addr:state" v="VT" />
    <tag k="ref:vcgi:esiteid" v="187393" />
  </node>
  <node id="-456" visible="true" lat="43.73278504" lon="-72.81633551">
    <tag k="addr:city" v="Pittsfield" />
    <tag k="addr:housenumber" v="46" />
    <tag k="addr:street" v="Camp 12 Road" />
    <tag k="addr:state" v="VT" />
    <tag k="ref:vcgi:esiteid" v="187394" />
  </node>
  <node id="-457" visible="true" lat="43.7544908" lon="-72.81942044">
    <tag k="addr:city" v="Pittsfield" />
    <tag k="addr:housenumber" v="2640" />
    <tag k="addr:street" v="Vermont Route 100" />
    <tag k="addr:state" v="VT" />
    <tag k="ref:vcgi:esiteid" v="187396" />
  </node>
  <node id="-458" visible="true" lat="43.78687476" lon="-72.84730749">
    <tag k="addr:city" v="Pittsfield" />
    <tag k="addr:housenumber" v="341" />
    <tag k="addr:street" v="Dagg Road" />
    <tag k="addr:state" v="VT" />
    <tag k="ref:vcgi:esiteid" v="187397" />
  </node>
  <node id="-459" visible="true" lat="43.78427891" lon="-72.84550854">
    <tag k="addr:city" v="Pittsfield" />
    <tag k="addr:housenumber" v="104" />
    <tag k="addr:street" v="Stannick Road" />
    <tag k="addr:state" v="VT" />
    <tag k="ref:vcgi:esiteid" v="187398" />
  </node>
  <node id="-460" visible="true" lat="43.78740153" lon="-72.84714377">
    <tag k="addr:city" v="Pittsfield" />
    <tag k="addr:housenumber" v="375" />
    <tag k="addr:street" v="Dagg Road" />
    <tag k="addr:state" v="VT" />
    <tag k="ref:vcgi:esiteid" v="187399" />
  </node>
  <node id="-461" visible="true" lat="43.7930233" lon="-72.8039271">
    <tag k="addr:city" v="Pittsfield" />
    <tag k="addr:housenumber" v="1071" />
    <tag k="addr:street" v="Liberty Hill Road" />
    <tag k="addr:state" v="VT" />
    <tag k="ref:vcgi:esiteid" v="187400" />
  </node>
  <node id="-462" visible="true" lat="43.73354138" lon="-72.81876466">
    <tag k="addr:city" v="Pittsfield" />
    <tag k="addr:housenumber" v="91" />
    <tag k="addr:street" v="Johnson Brook Road" />
    <tag k="addr:state" v="VT" />
    <tag k="ref:vcgi:esiteid" v="187401" />
  </node>
  <node id="-463" visible="true" lat="43.77413595" lon="-72.83634304">
    <tag k="addr:city" v="Pittsfield" />
    <tag k="addr:housenumber" v="54" />
    <tag k="addr:street" v="Crossover Road" />
    <tag k="addr:state" v="VT" />
    <tag k="ref:vcgi:esiteid" v="187402" />
  </node>
  <node id="-464" visible="true" lat="43.76163878" lon="-72.81787557">
    <tag k="addr:city" v="Pittsfield" />
    <tag k="addr:housenumber" v="3120" />
    <tag k="addr:street" v="Vermont Route 100" />
    <tag k="addr:state" v="VT" />
    <tag k="ref:vcgi:esiteid" v="187403" />
  </node>
  <node id="-465" visible="true" lat="43.73622907" lon="-72.81681037">
    <tag k="addr:city" v="Pittsfield" />
    <tag k="addr:housenumber" v="187" />
    <tag k="addr:street" v="South Hill Road" />
    <tag k="addr:state" v="VT" />
    <tag k="ref:vcgi:esiteid" v="187404" />
  </node>
  <node id="-466" visible="true" lat="43.75858111" lon="-72.81512319">
    <tag k="addr:city" v="Pittsfield" />
    <tag k="addr:housenumber" v="130" />
    <tag k="addr:street" v="Park Place" />
    <tag k="addr:state" v="VT" />
    <tag k="ref:vcgi:esiteid" v="187405" />
  </node>
  <node id="-467" visible="true" lat="43.82998414" lon="-72.85509997">
    <tag k="addr:city" v="Pittsfield" />
    <tag k="addr:housenumber" v="676" />
    <tag k="addr:street" v="Mountain Road" />
    <tag k="addr:state" v="VT" />
    <tag k="ref:vcgi:esiteid" v="187406" />
  </node>
  <node id="-468" visible="true" lat="43.77769736" lon="-72.84304803">
    <tag k="addr:city" v="Pittsfield" />
    <tag k="addr:housenumber" v="1575" />
    <tag k="addr:street" v="Upper Michigan Road" />
    <tag k="addr:state" v="VT" />
    <tag k="ref:vcgi:esiteid" v="187407" />
  </node>
  <node id="-469" visible="true" lat="43.75512034" lon="-72.82745207">
    <tag k="addr:city" v="Pittsfield" />
    <tag k="addr:housenumber" v="75" />
    <tag k="addr:street" v="Partridge Road" />
    <tag k="addr:state" v="VT" />
    <tag k="ref:vcgi:esiteid" v="187408" />
  </node>
  <node id="-470" visible="true" lat="43.78861344" lon="-72.80177601">
    <tag k="addr:city" v="Pittsfield" />
    <tag k="addr:housenumber" v="42" />
    <tag k="addr:street" v="Jenny Pond Road" />
    <tag k="addr:state" v="VT" />
    <tag k="ref:vcgi:esiteid" v="187409" />
  </node>
  <node id="-471" visible="true" lat="43.7741451" lon="-72.80617296">
    <tag k="addr:city" v="Pittsfield" />
    <tag k="addr:housenumber" v="300" />
    <tag k="addr:street" v="Diablo Lane" />
    <tag k="addr:state" v="VT" />
    <tag k="ref:vcgi:esiteid" v="187410" />
  </node>
  <node id="-472" visible="true" lat="43.75532058" lon="-72.82458931">
    <tag k="addr:city" v="Pittsfield" />
    <tag k="addr:housenumber" v="91" />
    <tag k="addr:street" v="Bombadil Path" />
    <tag k="addr:state" v="VT" />
    <tag k="ref:vcgi:esiteid" v="187412" />
  </node>
  <node id="-473" visible="true" lat="43.73917262" lon="-72.82107402">
    <tag k="addr:city" v="Pittsfield" />
    <tag k="addr:housenumber" v="1531" />
    <tag k="addr:street" v="Vermont Route 100" />
    <tag k="addr:state" v="VT" />
    <tag k="ref:vcgi:esiteid" v="187413" />
  </node>
  <node id="-474" visible="true" lat="43.72345043" lon="-72.82486813">
    <tag k="addr:city" v="Pittsfield" />
    <tag k="addr:housenumber" v="237" />
    <tag k="addr:street" v="Hadley Lane" />
    <tag k="addr:state" v="VT" />
    <tag k="ref:vcgi:esiteid" v="187414" />
  </node>
  <node id="-475" visible="true" lat="43.75155624" lon="-72.82595511">
    <tag k="addr:city" v="Pittsfield" />
    <tag k="addr:housenumber" v="63" />
    <tag k="addr:street" v="Tozier Hill Road" />
    <tag k="addr:state" v="VT" />
    <tag k="ref:vcgi:esiteid" v="187415" />
  </node>
  <node id="-476" visible="true" lat="43.78002694" lon="-72.81954126">
    <tag k="addr:city" v="Pittsfield" />
    <tag k="addr:housenumber" v="200" />
    <tag k="addr:street" v="Moose Run" />
    <tag k="addr:state" v="VT" />
    <tag k="ref:vcgi:esiteid" v="187416" />
  </node>
  <node id="-477" visible="true" lat="43.76550261" lon="-72.81287785">
    <tag k="addr:city" v="Pittsfield" />
    <tag k="addr:housenumber" v="121" />
    <tag k="addr:street" v="Parmenter Place" />
    <tag k="addr:state" v="VT" />
    <tag k="ref:vcgi:esiteid" v="187417" />
  </node>
  <node id="-478" visible="true" lat="43.82195373" lon="-72.79559829">
    <tag k="addr:city" v="Pittsfield" />
    <tag k="addr:housenumber" v="113" />
    <tag k="addr:street" v="Emerson Way" />
    <tag k="addr:state" v="VT" />
    <tag k="ref:vcgi:esiteid" v="202981" />
  </node>
  <node id="-479" visible="true" lat="43.78087451" lon="-72.79743632">
    <tag k="addr:city" v="Pittsfield" />
    <tag k="addr:housenumber" v="275" />
    <tag k="addr:street" v="Vermont Route 100" />
    <tag k="addr:state" v="VT" />
    <tag k="ref:vcgi:esiteid" v="249335" />
  </node>
  <node id="-480" visible="true" lat="43.75709096" lon="-72.81618889">
    <tag k="addr:city" v="Pittsfield" />
    <tag k="addr:housenumber" v="370" />
    <tag k="addr:street" v="River View Trail" />
    <tag k="addr:state" v="VT" />
    <tag k="ref:vcgi:esiteid" v="306260" />
  </node>
  <node id="-481" visible="true" lat="43.7538864" lon="-72.82390246">
    <tag k="addr:city" v="Pittsfield" />
    <tag k="addr:housenumber" v="218" />
    <tag k="addr:street" v="Townsend Brook Road" />
    <tag k="addr:state" v="VT" />
    <tag k="ref:vcgi:esiteid" v="312289" />
  </node>
  <node id="-482" visible="true" lat="43.75333214" lon="-72.82413363">
    <tag k="addr:city" v="Pittsfield" />
    <tag k="addr:housenumber" v="230" />
    <tag k="addr:street" v="Townsend Brook Road" />
    <tag k="addr:state" v="VT" />
    <tag k="ref:vcgi:esiteid" v="312290" />
  </node>
  <node id="-483" visible="true" lat="43.75361816" lon="-72.82746568">
    <tag k="addr:city" v="Pittsfield" />
    <tag k="addr:housenumber" v="39" />
    <tag k="addr:street" v="Lookout Road" />
    <tag k="addr:state" v="VT" />
    <tag k="ref:vcgi:esiteid" v="312291" />
  </node>
  <node id="-484" visible="true" lat="43.75450395" lon="-72.83118583">
    <tag k="addr:city" v="Pittsfield" />
    <tag k="addr:housenumber" v="370" />
    <tag k="addr:street" v="Tozier Hill Road" />
    <tag k="addr:state" v="VT" />
    <tag k="ref:vcgi:esiteid" v="312292" />
  </node>
  <node id="-485" visible="true" lat="43.79014579" lon="-72.81187482">
    <tag k="addr:city" v="Pittsfield" />
    <tag k="addr:housenumber" v="461" />
    <tag k="addr:street" v="Forsha Road" />
    <tag k="addr:state" v="VT" />
    <tag k="ref:vcgi:esiteid" v="312295" />
  </node>
  <node id="-486" visible="true" lat="43.77872811" lon="-72.8356884">
    <tag k="addr:city" v="Pittsfield" />
    <tag k="addr:housenumber" v="285" />
    <tag k="addr:street" v="Keyes Road" />
    <tag k="addr:state" v="VT" />
    <tag k="ref:vcgi:esiteid" v="312297" />
  </node>
  <node id="-487" visible="true" lat="43.75455337" lon="-72.82089683">
    <tag k="addr:city" v="Pittsfield" />
    <tag k="addr:housenumber" v="87" />
    <tag k="addr:street" v="Townsend Brook Road" />
    <tag k="addr:state" v="VT" />
    <tag k="ref:vcgi:esiteid" v="316003" />
  </node>
  <node id="-488" visible="true" lat="43.75428185" lon="-72.82144983">
    <tag k="addr:city" v="Pittsfield" />
    <tag k="addr:housenumber" v="89" />
    <tag k="addr:street" v="Townsend Brook Road" />
    <tag k="addr:state" v="VT" />
    <tag k="ref:vcgi:esiteid" v="316004" />
  </node>
  <node id="-489" visible="true" lat="43.75241519" lon="-72.81996866">
    <tag k="addr:city" v="Pittsfield" />
    <tag k="addr:housenumber" v="39" />
    <tag k="addr:street" v="The Commons" />
    <tag k="addr:state" v="VT" />
    <tag k="ref:vcgi:esiteid" v="316885" />
  </node>
  <node id="-490" visible="true" lat="43.75750362" lon="-72.83199042">
    <tag k="addr:city" v="Pittsfield" />
    <tag k="addr:housenumber" v="162" />
    <tag k="addr:street" v="Trillium Hill Road" />
    <tag k="addr:state" v="VT" />
    <tag k="ref:vcgi:esiteid" v="325281" />
  </node>
  <node id="-491" visible="true" lat="43.73748741" lon="-72.81914211">
    <tag k="addr:city" v="Pittsfield" />
    <tag k="addr:housenumber" v="111" />
    <tag k="addr:street" v="South Hill Road" />
    <tag k="addr:state" v="VT" />
    <tag k="ref:vcgi:esiteid" v="325282" />
  </node>
  <node id="-492" visible="true" lat="43.73528907" lon="-72.8090389">
    <tag k="addr:city" v="Pittsfield" />
    <tag k="addr:housenumber" v="771" />
    <tag k="addr:street" v="South Hill Road" />
    <tag k="addr:state" v="VT" />
    <tag k="ref:vcgi:esiteid" v="325283" />
  </node>
  <node id="-493" visible="true" lat="43.75607761" lon="-72.81452571">
    <tag k="addr:city" v="Pittsfield" />
    <tag k="addr:housenumber" v="436" />
    <tag k="addr:street" v="River View Trail" />
    <tag k="addr:state" v="VT" />
    <tag k="ref:vcgi:esiteid" v="327609" />
  </node>
  <node id="-494" visible="true" lat="43.75586836" lon="-72.81686166">
    <tag k="addr:city" v="Pittsfield" />
    <tag k="addr:housenumber" v="438" />
    <tag k="addr:street" v="River View Trail" />
    <tag k="addr:state" v="VT" />
    <tag k="ref:vcgi:esiteid" v="327610" />
  </node>
  <node id="-495" visible="true" lat="43.78271021" lon="-72.84469643">
    <tag k="addr:city" v="Pittsfield" />
    <tag k="addr:housenumber" v="230" />
    <tag k="addr:street" v="Cahill Road" />
    <tag k="addr:state" v="VT" />
    <tag k="ref:vcgi:esiteid" v="331077" />
  </node>
  <node id="-496" visible="true" lat="43.72022139" lon="-72.8316594">
    <tag k="addr:city" v="Pittsfield" />
    <tag k="addr:housenumber" v="324" />
    <tag k="addr:street" v="Fellows Road" />
    <tag k="addr:state" v="VT" />
    <tag k="ref:vcgi:esiteid" v="331933" />
  </node>
  <node id="-497" visible="true" lat="43.76039412" lon="-72.81560178">
    <tag k="addr:city" v="Pittsfield" />
    <tag k="addr:housenumber" v="250" />
    <tag k="addr:street" v="Tweed River Drive" />
    <tag k="addr:state" v="VT" />
    <tag k="ref:vcgi:esiteid" v="336255" />
  </node>
  <node id="-498" visible="true" lat="43.76039035" lon="-72.81263634">
    <tag k="addr:city" v="Pittsfield" />
    <tag k="addr:housenumber" v="90" />
    <tag k="addr:street" v="Dove Drive" />
    <tag k="addr:state" v="VT" />
    <tag k="ref:vcgi:esiteid" v="336915" />
  </node>
  <node id="-499" visible="true" lat="43.77590865" lon="-72.81087968">
    <tag k="addr:city" v="Pittsfield" />
    <tag k="addr:housenumber" v="4177" />
    <tag k="addr:street" v="Vermont Route 100" />
    <tag k="addr:state" v="VT" />
    <tag k="ref:vcgi:esiteid" v="337012" />
  </node>
  <node id="-500" visible="true" lat="43.77564911" lon="-72.81094318">
    <tag k="addr:city" v="Pittsfield" />
    <tag k="addr:housenumber" v="4175" />
    <tag k="addr:street" v="Vermont Route 100" />
    <tag k="addr:state" v="VT" />
    <tag k="ref:vcgi:esiteid" v="339911" />
  </node>
  <node id="-501" visible="true" lat="43.77615393" lon="-72.80892149">
    <tag k="addr:city" v="Pittsfield" />
    <tag k="addr:housenumber" v="4268" />
    <tag k="addr:street" v="Vermont Route 100" />
    <tag k="addr:state" v="VT" />
    <tag k="ref:vcgi:esiteid" v="339912" />
  </node>
  <node id="-503" visible="true" lat="43.73413851" lon="-72.8117377">
    <tag k="addr:city" v="Pittsfield" />
    <tag k="addr:housenumber" v="681" />
    <tag k="addr:street" v="South Hill Road" />
    <tag k="addr:state" v="VT" />
    <tag k="ref:vcgi:esiteid" v="342637" />
  </node>
  <node id="-504" visible="true" lat="43.77514356" lon="-72.81006116">
    <tag k="addr:city" v="Pittsfield" />
    <tag k="addr:housenumber" v="4276" />
    <tag k="addr:street" v="Vermont Route 100" />
    <tag k="addr:state" v="VT" />
    <tag k="ref:vcgi:esiteid" v="342638" />
  </node>
  <node id="-505" visible="true" lat="43.75360891" lon="-72.81810415">
    <tag k="addr:city" v="Pittsfield" />
    <tag k="addr:housenumber" v="146" />
    <tag k="addr:street" v="River View Trail" />
    <tag k="addr:state" v="VT" />
    <tag k="ref:vcgi:esiteid" v="344105" />
  </node>
  <node id="-506" visible="true" lat="43.7625141" lon="-72.81548823">
    <tag k="addr:city" v="Pittsfield" />
    <tag k="addr:housenumber" v="105" />
    <tag k="addr:street" v="Tweed River Drive" />
    <tag k="addr:state" v="VT" />
    <tag k="ref:vcgi:esiteid" v="345591" />
  </node>
  <node id="-507" visible="true" lat="43.76202201" lon="-72.81415706">
    <tag k="addr:city" v="Pittsfield" />
    <tag k="addr:housenumber" v="129" />
    <tag k="addr:street" v="Tweed River Drive" />
    <tag k="addr:state" v="VT" />
    <tag k="ref:vcgi:esiteid" v="345592" />
  </node>
  <node id="-508" visible="true" lat="43.75859149" lon="-72.81306878">
    <tag k="addr:city" v="Pittsfield" />
    <tag k="addr:housenumber" v="461" />
    <tag k="addr:street" v="Tweed River Drive" />
    <tag k="addr:state" v="VT" />
    <tag k="ref:vcgi:esiteid" v="345593" />
  </node>
  <node id="-509" visible="true" lat="43.75793661" lon="-72.83039682">
    <tag k="addr:city" v="Pittsfield" />
    <tag k="addr:housenumber" v="45" />
    <tag k="addr:street" v="Trillium Hill Road" />
    <tag k="addr:state" v="VT" />
    <tag k="ref:vcgi:esiteid" v="345779" />
  </node>
  <node id="-510" visible="true" lat="43.76618128" lon="-72.81378481">
    <tag k="addr:city" v="Pittsfield" />
    <tag k="addr:housenumber" v="100" />
    <tag k="addr:street" v="Parmenter Place" />
    <tag k="addr:state" v="VT" />
    <tag k="ref:vcgi:esiteid" v="365208" />
  </node>
  <node id="-511" visible="true" lat="43.7837829" lon="-72.82949285">
    <tag k="addr:city" v="Pittsfield" />
    <tag k="addr:housenumber" v="325" />
    <tag k="addr:street" v="Wilcox Peak Road" />
    <tag k="addr:state" v="VT" />
    <tag k="ref:vcgi:esiteid" v="445173" />
  </node>
  <node id="-512" visible="true" lat="43.74608406" lon="-72.81894735">
    <tag k="addr:city" v="Pittsfield" />
    <tag k="addr:housenumber" v="144" />
    <tag k="addr:street" v="Fifield Drive" />
    <tag k="addr:state" v="VT" />
    <tag k="ref:vcgi:esiteid" v="445423" />
  </node>
  <node id="-513" visible="true" lat="43.73536455" lon="-72.81989804">
    <tag k="addr:city" v="Pittsfield" />
    <tag k="addr:housenumber" v="80" />
    <tag k="addr:street" v="Old School House Drive" />
    <tag k="addr:state" v="VT" />
    <tag k="ref:vcgi:esiteid" v="448119" />
  </node>
  <node id="-514" visible="true" lat="43.82238704" lon="-72.81069086">
    <tag k="addr:city" v="Pittsfield" />
    <tag k="addr:housenumber" v="3214" />
    <tag k="addr:street" v="Liberty Hill Road" />
    <tag k="addr:state" v="VT" />
    <tag k="ref:vcgi:esiteid" v="450366" />
  </node>
  <node id="-515" visible="true" lat="43.77922567" lon="-72.85438332">
    <tag k="addr:city" v="Pittsfield" />
    <tag k="addr:housenumber" v="2355" />
    <tag k="addr:street" v="Upper Michigan Road" />
    <tag k="addr:state" v="VT" />
    <tag k="ref:vcgi:esiteid" v="450423" />
  </node>
  <node id="-516" visible="true" lat="43.78008539" lon="-72.84528681">
    <tag k="addr:city" v="Pittsfield" />
    <tag k="addr:housenumber" v="1737" />
    <tag k="addr:street" v="Upper Michigan Road" />
    <tag k="addr:state" v="VT" />
    <tag k="ref:vcgi:esiteid" v="452788" />
  </node>
  <node id="-517" visible="true" lat="43.77827053" lon="-72.80160874">
    <tag k="addr:city" v="Pittsfield" />
    <tag k="addr:housenumber" v="4668" />
    <tag k="addr:street" v="Vermont Route 100" />
    <tag k="addr:state" v="VT" />
    <tag k="ref:vcgi:esiteid" v="455452" />
  </node>
  <node id="-520" visible="true" lat="43.7956045" lon="-72.81507071">
    <tag k="addr:city" v="Pittsfield" />
    <tag k="addr:housenumber" v="903" />
    <tag k="addr:street" v="Forsha Road" />
    <tag k="addr:state" v="VT" />
    <tag k="ref:vcgi:esiteid" v="620332" />
  </node>
  <node id="-521" visible="true" lat="43.75034906" lon="-72.82843084">
    <tag k="addr:city" v="Pittsfield" />
    <tag k="addr:housenumber" v="515" />
    <tag k="addr:street" v="Townsend Brook Road" />
    <tag k="addr:state" v="VT" />
    <tag k="ref:vcgi:esiteid" v="620773" />
  </node>
  <node id="-523" visible="true" lat="43.7762124" lon="-72.83987676">
    <tag k="addr:city" v="Pittsfield" />
    <tag k="addr:housenumber" v="1337" />
    <tag k="addr:street" v="Upper Michigan Road" />
    <tag k="addr:state" v="VT" />
    <tag k="ref:vcgi:esiteid" v="752180" />
  </node>
  <node id="-524" visible="true" lat="43.77882807" lon="-72.82104343">
    <tag k="addr:city" v="Pittsfield" />
    <tag k="addr:housenumber" v="113" />
    <tag k="addr:street" v="Moose Run" />
    <tag k="addr:state" v="VT" />
    <tag k="ref:vcgi:esiteid" v="758907" />
  </node>
  <node id="-525" visible="true" lat="43.79102482" lon="-72.8140982">
    <tag k="addr:city" v="Pittsfield" />
    <tag k="addr:housenumber" v="470" />
    <tag k="addr:street" v="Forsha Road" />
    <tag k="addr:state" v="VT" />
    <tag k="ref:vcgi:esiteid" v="759660" />
  </node>
  <node id="-526" visible="true" lat="43.72278948" lon="-72.82247835">
    <tag k="addr:city" v="Pittsfield" />
    <tag k="addr:housenumber" v="380" />
    <tag k="addr:street" v="Vermont Route 100" />
    <tag k="addr:state" v="VT" />
    <tag k="ref:vcgi:esiteid" v="760325" />
  </node>
  <node id="-527" visible="true" lat="43.73745905" lon="-72.8183447">
    <tag k="addr:city" v="Pittsfield" />
    <tag k="addr:housenumber" v="113" />
    <tag k="addr:street" v="South Hill Road" />
    <tag k="addr:state" v="VT" />
    <tag k="ref:vcgi:esiteid" v="760920" />
  </node>
  <node id="-528" visible="true" lat="43.73186029" lon="-72.81989035">
    <tag k="addr:city" v="Pittsfield" />
    <tag k="addr:housenumber" v="994" />
    <tag k="addr:street" v="Vermont Route 100" />
    <tag k="addr:state" v="VT" />
    <tag k="ref:vcgi:esiteid" v="761090" />
  </node>
  <node id="-529" visible="true" lat="43.72496144" lon="-72.82193864">
    <tag k="addr:city" v="Pittsfield" />
    <tag k="addr:housenumber" v="598" />
    <tag k="addr:street" v="Vermont Route 100" />
    <tag k="addr:state" v="VT" />
    <tag k="ref:vcgi:esiteid" v="761345" />
  </node>
  <node id="-530" visible="true" lat="43.72643119" lon="-72.82094822">
    <tag k="addr:city" v="Pittsfield" />
    <tag k="addr:housenumber" v="600" />
    <tag k="addr:street" v="Vermont Route 100" />
    <tag k="addr:state" v="VT" />
    <tag k="ref:vcgi:esiteid" v="761346" />
  </node>
  <node id="-532" visible="true" lat="43.75604376" lon="-72.8244235">
    <tag k="addr:city" v="Pittsfield" />
    <tag k="addr:housenumber" v="131" />
    <tag k="addr:street" v="Bombadil Path" />
    <tag k="addr:state" v="VT" />
    <tag k="ref:vcgi:esiteid" v="763989" />
  </node>
  <node id="-533" visible="true" lat="43.74517303" lon="-72.82246445">
    <tag k="addr:city" v="Pittsfield" />
    <tag k="addr:housenumber" v="169" />
    <tag k="addr:street" v="Bakers Road" />
    <tag k="addr:state" v="VT" />
    <tag k="ref:vcgi:esiteid" v="763990" />
  </node>
  <node id="-534" visible="true" lat="43.73716046" lon="-72.82313551">
    <tag k="addr:city" v="Pittsfield" />
    <tag k="addr:housenumber" v="101" />
    <tag k="addr:street" v="Stonewood Crossing" />
    <tag k="addr:state" v="VT" />
    <tag k="ref:vcgi:esiteid" v="763991" />
  </node>
  <node id="-535" visible="true" lat="43.7369705" lon="-72.80902637">
    <tag k="addr:city" v="Pittsfield" />
    <tag k="addr:housenumber" v="69" />
    <tag k="addr:street" v="South Hill Rd Ptfld" />
    <tag k="addr:state" v="VT" />
    <tag k="ref:vcgi:esiteid" v="764374" />
  </node>
  <node id="-536" visible="true" lat="43.77402091" lon="-72.82944155">
    <tag k="addr:city" v="Pittsfield" />
    <tag k="addr:housenumber" v="831" />
    <tag k="addr:street" v="Upper Michigan Road" />
    <tag k="addr:state" v="VT" />
    <tag k="ref:vcgi:esiteid" v="764405" />
  </node>
  <node id="-537" visible="true" lat="43.78342298" lon="-72.82605403">
    <tag k="addr:city" v="Pittsfield" />
    <tag k="addr:housenumber" v="324" />
    <tag k="addr:street" v="Wilcox Peak Road" />
    <tag k="addr:state" v="VT" />
    <tag k="ref:vcgi:esiteid" v="764676" />
  </node>
  <node id="-538" visible="true" lat="43.77193473" lon="-72.81042814">
    <tag k="addr:city" v="Pittsfield" />
    <tag k="addr:housenumber" v="3952" />
    <tag k="addr:street" v="Vermont Route 100" />
    <tag k="addr:state" v="VT" />
    <tag k="ref:vcgi:esiteid" v="1050430" />
  </node>
  <node id="-539" visible="true" lat="43.759" lon="-72.81917">
    <tag k="addr:city" v="Pittsfield" />
    <tag k="addr:housenumber" v="2916" />
    <tag k="addr:street" v="Vermont Route 100" />
    <tag k="addr:state" v="VT" />
    <tag k="ref:vcgi:esiteid" v="1050431" />
  </node>
  <node id="-540" visible="true" lat="43.75377828" lon="-72.82088464">
    <tag k="addr:city" v="Pittsfield" />
    <tag k="addr:housenumber" v="2539" />
    <tag k="addr:street" v="Vermont Route 100" />
    <tag k="addr:state" v="VT" />
    <tag k="ref:vcgi:esiteid" v="1050432" />
  </node>
  <node id="-541" visible="true" lat="43.76730375" lon="-72.81395521">
    <tag k="addr:city" v="Pittsfield" />
    <tag k="addr:housenumber" v="9" />
    <tag k="addr:street" v="Parmenter Place" />
    <tag k="addr:state" v="VT" />
    <tag k="ref:vcgi:esiteid" v="1051574" />
  </node>
  <node id="-544" visible="true" lat="43.79490899" lon="-72.80185758">
    <tag k="addr:city" v="Pittsfield" />
    <tag k="addr:housenumber" v="1206" />
    <tag k="addr:street" v="Liberty Hill Road" />
    <tag k="addr:state" v="VT" />
    <tag k="ref:vcgi:esiteid" v="1052540" />
  </node>
  <node id="-545" visible="true" lat="43.77879067" lon="-72.79885232">
    <tag k="addr:city" v="Pittsfield" />
    <tag k="addr:housenumber" v="4830" />
    <tag k="addr:street" v="Vermont Route 100" />
    <tag k="addr:state" v="VT" />
    <tag k="ref:vcgi:esiteid" v="1052541" />
  </node>
</osm>
