<?xml version="1.0" encoding="UTF-8"?>
<osm version="0.6" generator="JOSM">
  <node id="-100" visible="true" lat="43.67798429" lon="-72.46376754">
    <tag k="addr:city" v="Pomfret" />
    <tag k="addr:housenumber" v="1564" />
    <tag k="addr:street" v="Joe Ranger Road" />
    <tag k="addr:state" v="VT" />
    <tag k="ref:vcgi:esiteid" v="196" />
  </node>
  <node id="-101" visible="true" lat="43.6852011" lon="-72.45226786">
    <tag k="addr:city" v="Pomfret" />
    <tag k="addr:housenumber" v="1562" />
    <tag k="addr:street" v="Joe Ranger Road" />
    <tag k="addr:state" v="VT" />
    <tag k="ref:vcgi:esiteid" v="197" />
  </node>
  <node id="-103" visible="true" lat="43.69064528" lon="-72.57395766">
    <tag k="addr:city" v="Pomfret" />
    <tag k="addr:housenumber" v="2597" />
    <tag k="addr:street" v="Stage Road" />
    <tag k="addr:state" v="VT" />
    <tag k="ref:vcgi:esiteid" v="6622" />
  </node>
  <node id="-104" visible="true" lat="43.67615291" lon="-72.45645125">
    <tag k="addr:city" v="Pomfret" />
    <tag k="addr:housenumber" v="332" />
    <tag k="addr:street" v="Cushing Road" />
    <tag k="addr:state" v="VT" />
    <tag k="ref:vcgi:esiteid" v="124414" />
  </node>
  <node id="-105" visible="true" lat="43.75453473" lon="-72.5219879">
    <tag k="addr:city" v="Pomfret" />
    <tag k="addr:housenumber" v="2940" />
    <tag k="addr:street" v="Allen Hill Road" />
    <tag k="addr:state" v="VT" />
    <tag k="ref:vcgi:esiteid" v="190210" />
  </node>
  <node id="-106" visible="true" lat="43.75412157" lon="-72.52401285">
    <tag k="addr:city" v="Pomfret" />
    <tag k="addr:housenumber" v="2929" />
    <tag k="addr:street" v="Allen Hill Road" />
    <tag k="addr:state" v="VT" />
    <tag k="ref:vcgi:esiteid" v="190211" />
  </node>
  <node id="-107" visible="true" lat="43.75367355" lon="-72.53063201">
    <tag k="addr:city" v="Pomfret" />
    <tag k="addr:housenumber" v="3472" />
    <tag k="addr:street" v="Allen Hill Road" />
    <tag k="addr:state" v="VT" />
    <tag k="ref:vcgi:esiteid" v="190212" />
  </node>
  <node id="-108" visible="true" lat="43.75363076" lon="-72.52186326">
    <tag k="addr:city" v="Pomfret" />
    <tag k="addr:housenumber" v="2927" />
    <tag k="addr:street" v="Allen Hill Road" />
    <tag k="addr:state" v="VT" />
    <tag k="ref:vcgi:esiteid" v="190213" />
  </node>
  <node id="-109" visible="true" lat="43.75295277" lon="-72.51881851">
    <tag k="addr:city" v="Pomfret" />
    <tag k="addr:housenumber" v="66" />
    <tag k="addr:street" v="Leonard Road" />
    <tag k="addr:state" v="VT" />
    <tag k="ref:vcgi:esiteid" v="190215" />
  </node>
  <node id="-110" visible="true" lat="43.75243601" lon="-72.51767267">
    <tag k="addr:city" v="Pomfret" />
    <tag k="addr:housenumber" v="68" />
    <tag k="addr:street" v="Leonard Road" />
    <tag k="addr:state" v="VT" />
    <tag k="ref:vcgi:esiteid" v="190216" />
  </node>
  <node id="-111" visible="true" lat="43.75088501" lon="-72.53125762">
    <tag k="addr:city" v="Pomfret" />
    <tag k="addr:housenumber" v="3619" />
    <tag k="addr:street" v="Allen Hill Road" />
    <tag k="addr:state" v="VT" />
    <tag k="ref:vcgi:esiteid" v="190217" />
  </node>
  <node id="-112" visible="true" lat="43.75031662" lon="-72.52175903">
    <tag k="addr:city" v="Pomfret" />
    <tag k="addr:housenumber" v="2601" />
    <tag k="addr:street" v="Allen Hill Road" />
    <tag k="addr:state" v="VT" />
    <tag k="ref:vcgi:esiteid" v="190218" />
  </node>
  <node id="-113" visible="true" lat="43.74935913" lon="-72.53342437">
    <tag k="addr:city" v="Pomfret" />
    <tag k="addr:housenumber" v="3725" />
    <tag k="addr:street" v="Allen Hill Road" />
    <tag k="addr:state" v="VT" />
    <tag k="ref:vcgi:esiteid" v="190219" />
  </node>
  <node id="-114" visible="true" lat="43.74929242" lon="-72.52127586">
    <tag k="addr:city" v="Pomfret" />
    <tag k="addr:housenumber" v="2512" />
    <tag k="addr:street" v="Allen Hill Road" />
    <tag k="addr:state" v="VT" />
    <tag k="ref:vcgi:esiteid" v="190220" />
  </node>
  <node id="-115" visible="true" lat="43.74716186" lon="-72.50580596">
    <tag k="addr:city" v="Pomfret" />
    <tag k="addr:housenumber" v="1186" />
    <tag k="addr:street" v="Blackmer Road" />
    <tag k="addr:state" v="VT" />
    <tag k="ref:vcgi:esiteid" v="190221" />
  </node>
  <node id="-116" visible="true" lat="43.74703979" lon="-72.50646972">
    <tag k="addr:city" v="Pomfret" />
    <tag k="addr:housenumber" v="1157" />
    <tag k="addr:street" v="Blackmer Road" />
    <tag k="addr:state" v="VT" />
    <tag k="ref:vcgi:esiteid" v="190222" />
  </node>
  <node id="-117" visible="true" lat="43.74702456" lon="-72.52137303">
    <tag k="addr:city" v="Pomfret" />
    <tag k="addr:housenumber" v="2354" />
    <tag k="addr:street" v="Allen Hill Road" />
    <tag k="addr:state" v="VT" />
    <tag k="ref:vcgi:esiteid" v="190223" />
  </node>
  <node id="-118" visible="true" lat="43.74550466" lon="-72.53764864">
    <tag k="addr:city" v="Pomfret" />
    <tag k="addr:housenumber" v="4095" />
    <tag k="addr:street" v="Allen Hill Road" />
    <tag k="addr:state" v="VT" />
    <tag k="ref:vcgi:esiteid" v="190224" />
  </node>
  <node id="-119" visible="true" lat="43.74514488" lon="-72.49060643">
    <tag k="addr:city" v="Pomfret" />
    <tag k="addr:housenumber" v="1734" />
    <tag k="addr:street" v="Howe Hill Road" />
    <tag k="addr:state" v="VT" />
    <tag k="ref:vcgi:esiteid" v="190225" />
  </node>
  <node id="-120" visible="true" lat="43.74494877" lon="-72.49332776">
    <tag k="addr:city" v="Pomfret" />
    <tag k="addr:housenumber" v="1669" />
    <tag k="addr:street" v="Howe Hill Road" />
    <tag k="addr:state" v="VT" />
    <tag k="ref:vcgi:esiteid" v="190226" />
  </node>
  <node id="-121" visible="true" lat="43.74453143" lon="-72.54066767">
    <tag k="addr:city" v="Pomfret" />
    <tag k="addr:housenumber" v="4253" />
    <tag k="addr:street" v="Allen Hill Road" />
    <tag k="addr:state" v="VT" />
    <tag k="ref:vcgi:esiteid" v="190227" />
  </node>
  <node id="-122" visible="true" lat="43.74298466" lon="-72.4930361">
    <tag k="addr:city" v="Pomfret" />
    <tag k="addr:housenumber" v="1545" />
    <tag k="addr:street" v="Howe Hill Road" />
    <tag k="addr:state" v="VT" />
    <tag k="ref:vcgi:esiteid" v="190228" />
  </node>
  <node id="-123" visible="true" lat="43.74245263" lon="-72.52534962">
    <tag k="addr:city" v="Pomfret" />
    <tag k="addr:housenumber" v="1898" />
    <tag k="addr:street" v="Allen Hill Road" />
    <tag k="addr:state" v="VT" />
    <tag k="ref:vcgi:esiteid" v="190229" />
  </node>
  <node id="-124" visible="true" lat="43.74208831" lon="-72.50870513">
    <tag k="addr:city" v="Pomfret" />
    <tag k="addr:housenumber" v="762" />
    <tag k="addr:street" v="Blackmer Road" />
    <tag k="addr:state" v="VT" />
    <tag k="ref:vcgi:esiteid" v="190230" />
  </node>
  <node id="-125" visible="true" lat="43.74204254" lon="-72.50791931">
    <tag k="addr:city" v="Pomfret" />
    <tag k="addr:housenumber" v="764" />
    <tag k="addr:street" v="Blackmer Road" />
    <tag k="addr:state" v="VT" />
    <tag k="ref:vcgi:esiteid" v="190231" />
  </node>
  <node id="-126" visible="true" lat="43.74162292" lon="-72.5092163">
    <tag k="addr:city" v="Pomfret" />
    <tag k="addr:housenumber" v="742" />
    <tag k="addr:street" v="Blackmer Road" />
    <tag k="addr:state" v="VT" />
    <tag k="ref:vcgi:esiteid" v="190232" />
  </node>
  <node id="-127" visible="true" lat="43.74140548" lon="-72.47885131">
    <tag k="addr:city" v="Pomfret" />
    <tag k="addr:housenumber" v="1461" />
    <tag k="addr:street" v="Caper Street" />
    <tag k="addr:state" v="VT" />
    <tag k="ref:vcgi:esiteid" v="190233" />
  </node>
  <node id="-128" visible="true" lat="43.74097061" lon="-72.49823761">
    <tag k="addr:city" v="Pomfret" />
    <tag k="addr:housenumber" v="1265" />
    <tag k="addr:street" v="Howe Hill Road" />
    <tag k="addr:state" v="VT" />
    <tag k="ref:vcgi:esiteid" v="190234" />
  </node>
  <node id="-129" visible="true" lat="43.74075698" lon="-72.54217529">
    <tag k="addr:city" v="Pomfret" />
    <tag k="addr:housenumber" v="5639" />
    <tag k="addr:street" v="Broad Brook Road" />
    <tag k="addr:state" v="VT" />
    <tag k="ref:vcgi:esiteid" v="190235" />
  </node>
  <node id="-130" visible="true" lat="43.74061086" lon="-72.5278614">
    <tag k="addr:city" v="Pomfret" />
    <tag k="addr:housenumber" v="1582" />
    <tag k="addr:street" v="Skyline Drive" />
    <tag k="addr:state" v="VT" />
    <tag k="ref:vcgi:esiteid" v="190236" />
  </node>
  <node id="-131" visible="true" lat="43.74008092" lon="-72.52756739">
    <tag k="addr:city" v="Pomfret" />
    <tag k="addr:housenumber" v="1574" />
    <tag k="addr:street" v="Skyline Drive" />
    <tag k="addr:state" v="VT" />
    <tag k="ref:vcgi:esiteid" v="190237" />
  </node>
  <node id="-132" visible="true" lat="43.73969824" lon="-72.51966629">
    <tag k="addr:city" v="Pomfret" />
    <tag k="addr:housenumber" v="1634" />
    <tag k="addr:street" v="Allen Hill Road" />
    <tag k="addr:state" v="VT" />
    <tag k="ref:vcgi:esiteid" v="190238" />
  </node>
  <node id="-133" visible="true" lat="43.73857116" lon="-72.54219818">
    <tag k="addr:city" v="Pomfret" />
    <tag k="addr:housenumber" v="5787" />
    <tag k="addr:street" v="Broad Brook Road" />
    <tag k="addr:state" v="VT" />
    <tag k="ref:vcgi:esiteid" v="190239" />
  </node>
  <node id="-134" visible="true" lat="43.7388044" lon="-72.48107959">
    <tag k="addr:city" v="Pomfret" />
    <tag k="addr:housenumber" v="1237" />
    <tag k="addr:street" v="Caper Street" />
    <tag k="addr:state" v="VT" />
    <tag k="ref:vcgi:esiteid" v="190240" />
  </node>
  <node id="-135" visible="true" lat="43.73844314" lon="-72.52350558">
    <tag k="addr:city" v="Pomfret" />
    <tag k="addr:housenumber" v="1647" />
    <tag k="addr:street" v="Allen Hill Road" />
    <tag k="addr:state" v="VT" />
    <tag k="ref:vcgi:esiteid" v="190241" />
  </node>
  <node id="-136" visible="true" lat="43.73833165" lon="-72.52950584">
    <tag k="addr:city" v="Pomfret" />
    <tag k="addr:housenumber" v="1412" />
    <tag k="addr:street" v="Skyline Drive" />
    <tag k="addr:state" v="VT" />
    <tag k="ref:vcgi:esiteid" v="190242" />
  </node>
  <node id="-137" visible="true" lat="43.73802665" lon="-72.53012152">
    <tag k="addr:city" v="Pomfret" />
    <tag k="addr:housenumber" v="1372" />
    <tag k="addr:street" v="Skyline Drive" />
    <tag k="addr:state" v="VT" />
    <tag k="ref:vcgi:esiteid" v="190243" />
  </node>
  <node id="-138" visible="true" lat="43.73782729" lon="-72.49874877">
    <tag k="addr:city" v="Pomfret" />
    <tag k="addr:housenumber" v="1091" />
    <tag k="addr:street" v="Howe Hill Road" />
    <tag k="addr:state" v="VT" />
    <tag k="ref:vcgi:esiteid" v="190244" />
  </node>
  <node id="-139" visible="true" lat="43.73745727" lon="-72.52094268">
    <tag k="addr:city" v="Pomfret" />
    <tag k="addr:housenumber" v="1502" />
    <tag k="addr:street" v="Allen Hill Road" />
    <tag k="addr:state" v="VT" />
    <tag k="ref:vcgi:esiteid" v="190245" />
  </node>
  <node id="-140" visible="true" lat="43.73735039" lon="-72.481636">
    <tag k="addr:city" v="Pomfret" />
    <tag k="addr:housenumber" v="1159" />
    <tag k="addr:street" v="Caper Street" />
    <tag k="addr:state" v="VT" />
    <tag k="ref:vcgi:esiteid" v="190246" />
  </node>
  <node id="-141" visible="true" lat="43.73708724" lon="-72.54393768">
    <tag k="addr:city" v="Pomfret" />
    <tag k="addr:housenumber" v="5950" />
    <tag k="addr:street" v="Broad Brook Road" />
    <tag k="addr:state" v="VT" />
    <tag k="ref:vcgi:esiteid" v="190247" />
  </node>
  <node id="-142" visible="true" lat="43.7371653" lon="-72.53029995">
    <tag k="addr:city" v="Pomfret" />
    <tag k="addr:housenumber" v="1330" />
    <tag k="addr:street" v="Skyline Drive" />
    <tag k="addr:state" v="VT" />
    <tag k="ref:vcgi:esiteid" v="190248" />
  </node>
  <node id="-143" visible="true" lat="43.73700115" lon="-72.52997543">
    <tag k="addr:city" v="Pomfret" />
    <tag k="addr:housenumber" v="1332" />
    <tag k="addr:street" v="Skyline Drive" />
    <tag k="addr:state" v="VT" />
    <tag k="ref:vcgi:esiteid" v="190249" />
  </node>
  <node id="-144" visible="true" lat="43.73675537" lon="-72.53228759">
    <tag k="addr:city" v="Pomfret" />
    <tag k="addr:housenumber" v="1251" />
    <tag k="addr:street" v="Skyline Drive" />
    <tag k="addr:state" v="VT" />
    <tag k="ref:vcgi:esiteid" v="190250" />
  </node>
  <node id="-145" visible="true" lat="43.736557" lon="-72.51972961">
    <tag k="addr:city" v="Pomfret" />
    <tag k="addr:housenumber" v="1416" />
    <tag k="addr:street" v="Allen Hill Road" />
    <tag k="addr:state" v="VT" />
    <tag k="ref:vcgi:esiteid" v="190251" />
  </node>
  <node id="-146" visible="true" lat="43.7366313" lon="-72.49631784">
    <tag k="addr:city" v="Pomfret" />
    <tag k="addr:housenumber" v="1026" />
    <tag k="addr:street" v="Howe Hill Road" />
    <tag k="addr:state" v="VT" />
    <tag k="ref:vcgi:esiteid" v="190252" />
  </node>
  <node id="-147" visible="true" lat="43.73633948" lon="-72.53032282">
    <tag k="addr:city" v="Pomfret" />
    <tag k="addr:housenumber" v="1262" />
    <tag k="addr:street" v="Skyline Drive" />
    <tag k="addr:state" v="VT" />
    <tag k="ref:vcgi:esiteid" v="190253" />
  </node>
  <node id="-148" visible="true" lat="43.73596954" lon="-72.54445648">
    <tag k="addr:city" v="Pomfret" />
    <tag k="addr:housenumber" v="5994" />
    <tag k="addr:street" v="Broad Brook Road" />
    <tag k="addr:state" v="VT" />
    <tag k="ref:vcgi:esiteid" v="190254" />
  </node>
  <node id="-149" visible="true" lat="43.73566262" lon="-72.52007363">
    <tag k="addr:city" v="Pomfret" />
    <tag k="addr:housenumber" v="1361" />
    <tag k="addr:street" v="Allen Hill Road" />
    <tag k="addr:state" v="VT" />
    <tag k="ref:vcgi:esiteid" v="190255" />
  </node>
  <node id="-150" visible="true" lat="43.73494203" lon="-72.48039588">
    <tag k="addr:city" v="Pomfret" />
    <tag k="addr:housenumber" v="839" />
    <tag k="addr:street" v="Caper Street" />
    <tag k="addr:state" v="VT" />
    <tag k="ref:vcgi:esiteid" v="190256" />
  </node>
  <node id="-151" visible="true" lat="43.734272" lon="-72.54457855">
    <tag k="addr:city" v="Pomfret" />
    <tag k="addr:housenumber" v="6150" />
    <tag k="addr:street" v="Broad Brook Road" />
    <tag k="addr:state" v="VT" />
    <tag k="ref:vcgi:esiteid" v="190257" />
  </node>
  <node id="-152" visible="true" lat="43.73417282" lon="-72.53237915">
    <tag k="addr:city" v="Pomfret" />
    <tag k="addr:housenumber" v="1051" />
    <tag k="addr:street" v="Skyline Drive" />
    <tag k="addr:state" v="VT" />
    <tag k="ref:vcgi:esiteid" v="190258" />
  </node>
  <node id="-153" visible="true" lat="43.73309872" lon="-72.51836189">
    <tag k="addr:city" v="Pomfret" />
    <tag k="addr:housenumber" v="1175" />
    <tag k="addr:street" v="Allen Hill Road" />
    <tag k="addr:state" v="VT" />
    <tag k="ref:vcgi:esiteid" v="190259" />
  </node>
  <node id="-154" visible="true" lat="43.73254564" lon="-72.51456455">
    <tag k="addr:city" v="Pomfret" />
    <tag k="addr:housenumber" v="1016" />
    <tag k="addr:street" v="Allen Hill Road" />
    <tag k="addr:state" v="VT" />
    <tag k="ref:vcgi:esiteid" v="190260" />
  </node>
  <node id="-155" visible="true" lat="43.73238339" lon="-72.48023023">
    <tag k="addr:city" v="Pomfret" />
    <tag k="addr:housenumber" v="773" />
    <tag k="addr:street" v="Caper Street" />
    <tag k="addr:state" v="VT" />
    <tag k="ref:vcgi:esiteid" v="190261" />
  </node>
  <node id="-156" visible="true" lat="43.73232244" lon="-72.54757589">
    <tag k="addr:city" v="Pomfret" />
    <tag k="addr:housenumber" v="6324" />
    <tag k="addr:street" v="Broad Brook Road" />
    <tag k="addr:state" v="VT" />
    <tag k="ref:vcgi:esiteid" v="190262" />
  </node>
  <node id="-157" visible="true" lat="43.73205515" lon="-72.54513556">
    <tag k="addr:city" v="Pomfret" />
    <tag k="addr:housenumber" v="6271" />
    <tag k="addr:street" v="Broad Brook Road" />
    <tag k="addr:state" v="VT" />
    <tag k="ref:vcgi:esiteid" v="190263" />
  </node>
  <node id="-158" visible="true" lat="43.73218308" lon="-72.47466972">
    <tag k="addr:city" v="Pomfret" />
    <tag k="addr:housenumber" v="372" />
    <tag k="addr:street" v="Cherry Hill Road" />
    <tag k="addr:state" v="VT" />
    <tag k="ref:vcgi:esiteid" v="190264" />
  </node>
  <node id="-159" visible="true" lat="43.73143574" lon="-72.54499611">
    <tag k="addr:city" v="Pomfret" />
    <tag k="addr:housenumber" v="6317" />
    <tag k="addr:street" v="Broad Brook Road" />
    <tag k="addr:state" v="VT" />
    <tag k="ref:vcgi:esiteid" v="190265" />
  </node>
  <node id="-160" visible="true" lat="43.73147837" lon="-72.54642177">
    <tag k="addr:city" v="Pomfret" />
    <tag k="addr:housenumber" v="6326" />
    <tag k="addr:street" v="Broad Brook Road" />
    <tag k="addr:state" v="VT" />
    <tag k="ref:vcgi:esiteid" v="190266" />
  </node>
  <node id="-161" visible="true" lat="43.73086448" lon="-72.48085505">
    <tag k="addr:city" v="Pomfret" />
    <tag k="addr:housenumber" v="668" />
    <tag k="addr:street" v="Caper Street" />
    <tag k="addr:state" v="VT" />
    <tag k="ref:vcgi:esiteid" v="190267" />
  </node>
  <node id="-162" visible="true" lat="43.73016738" lon="-72.44329833">
    <tag k="addr:city" v="Pomfret" />
    <tag k="addr:housenumber" v="466" />
    <tag k="addr:street" v="Kenyon Hill Road" />
    <tag k="addr:state" v="VT" />
    <tag k="ref:vcgi:esiteid" v="190268" />
  </node>
  <node id="-163" visible="true" lat="43.73029725" lon="-72.54642443">
    <tag k="addr:city" v="Pomfret" />
    <tag k="addr:housenumber" v="6413" />
    <tag k="addr:street" v="Broad Brook Road" />
    <tag k="addr:state" v="VT" />
    <tag k="ref:vcgi:esiteid" v="190269" />
  </node>
  <node id="-164" visible="true" lat="43.72997451" lon="-72.47246494">
    <tag k="addr:city" v="Pomfret" />
    <tag k="addr:housenumber" v="519" />
    <tag k="addr:street" v="Cherry Hill Road" />
    <tag k="addr:state" v="VT" />
    <tag k="ref:vcgi:esiteid" v="190270" />
  </node>
  <node id="-165" visible="true" lat="43.72996277" lon="-72.48106797">
    <tag k="addr:city" v="Pomfret" />
    <tag k="addr:housenumber" v="600" />
    <tag k="addr:street" v="Caper Street" />
    <tag k="addr:state" v="VT" />
    <tag k="ref:vcgi:esiteid" v="190271" />
  </node>
  <node id="-166" visible="true" lat="43.72992324" lon="-72.48284912">
    <tag k="addr:city" v="Pomfret" />
    <tag k="addr:housenumber" v="107" />
    <tag k="addr:street" v="Clifford Road" />
    <tag k="addr:state" v="VT" />
    <tag k="ref:vcgi:esiteid" v="190272" />
  </node>
  <node id="-167" visible="true" lat="43.73017457" lon="-72.50189336">
    <tag k="addr:city" v="Pomfret" />
    <tag k="addr:housenumber" v="294" />
    <tag k="addr:street" v="Allen Hill Road" />
    <tag k="addr:state" v="VT" />
    <tag k="ref:vcgi:esiteid" v="190273" />
  </node>
  <node id="-168" visible="true" lat="43.72977615" lon="-72.45987644">
    <tag k="addr:city" v="Pomfret" />
    <tag k="addr:housenumber" v="433" />
    <tag k="addr:street" v="Freeman Road" />
    <tag k="addr:state" v="VT" />
    <tag k="ref:vcgi:esiteid" v="190274" />
  </node>
  <node id="-169" visible="true" lat="43.72974395" lon="-72.5340805">
    <tag k="addr:city" v="Pomfret" />
    <tag k="addr:housenumber" v="737" />
    <tag k="addr:street" v="Skyline Drive" />
    <tag k="addr:state" v="VT" />
    <tag k="ref:vcgi:esiteid" v="190275" />
  </node>
  <node id="-170" visible="true" lat="43.72947311" lon="-72.4442749">
    <tag k="addr:city" v="Pomfret" />
    <tag k="addr:housenumber" v="413" />
    <tag k="addr:street" v="Kenyon Hill Road" />
    <tag k="addr:state" v="VT" />
    <tag k="ref:vcgi:esiteid" v="190276" />
  </node>
  <node id="-171" visible="true" lat="43.72940118" lon="-72.5102919">
    <tag k="addr:city" v="Pomfret" />
    <tag k="addr:housenumber" v="717" />
    <tag k="addr:street" v="Allen Hill Road" />
    <tag k="addr:state" v="VT" />
    <tag k="ref:vcgi:esiteid" v="190277" />
  </node>
  <node id="-172" visible="true" lat="43.72843551" lon="-72.49723053">
    <tag k="addr:city" v="Pomfret" />
    <tag k="addr:housenumber" v="388" />
    <tag k="addr:street" v="Howe Hill Road" />
    <tag k="addr:state" v="VT" />
    <tag k="ref:vcgi:esiteid" v="190278" />
  </node>
  <node id="-173" visible="true" lat="43.72828674" lon="-72.44396209">
    <tag k="addr:city" v="Pomfret" />
    <tag k="addr:housenumber" v="335" />
    <tag k="addr:street" v="Kenyon Hill Road" />
    <tag k="addr:state" v="VT" />
    <tag k="ref:vcgi:esiteid" v="190279" />
  </node>
  <node id="-174" visible="true" lat="43.72809636" lon="-72.47779784">
    <tag k="addr:city" v="Pomfret" />
    <tag k="addr:housenumber" v="195" />
    <tag k="addr:street" v="Limey Lane" />
    <tag k="addr:state" v="VT" />
    <tag k="ref:vcgi:esiteid" v="190280" />
  </node>
  <node id="-175" visible="true" lat="43.72808675" lon="-72.47921341">
    <tag k="addr:city" v="Pomfret" />
    <tag k="addr:housenumber" v="370" />
    <tag k="addr:street" v="Caper Street" />
    <tag k="addr:state" v="VT" />
    <tag k="ref:vcgi:esiteid" v="190281" />
  </node>
  <node id="-176" visible="true" lat="43.72761917" lon="-72.49719238">
    <tag k="addr:city" v="Pomfret" />
    <tag k="addr:housenumber" v="332" />
    <tag k="addr:street" v="Howe Hill Road" />
    <tag k="addr:state" v="VT" />
    <tag k="ref:vcgi:esiteid" v="190282" />
  </node>
  <node id="-177" visible="true" lat="43.72756958" lon="-72.53356933">
    <tag k="addr:city" v="Pomfret" />
    <tag k="addr:housenumber" v="18" />
    <tag k="addr:street" v="Twin Pond Road" />
    <tag k="addr:state" v="VT" />
    <tag k="ref:vcgi:esiteid" v="190283" />
  </node>
  <node id="-178" visible="true" lat="43.72753075" lon="-72.4791658">
    <tag k="addr:city" v="Pomfret" />
    <tag k="addr:housenumber" v="368" />
    <tag k="addr:street" v="Caper Street" />
    <tag k="addr:state" v="VT" />
    <tag k="ref:vcgi:esiteid" v="190284" />
  </node>
  <node id="-179" visible="true" lat="43.7273052" lon="-72.52982503">
    <tag k="addr:city" v="Pomfret" />
    <tag k="addr:housenumber" v="185" />
    <tag k="addr:street" v="Twin Pond Road" />
    <tag k="addr:state" v="VT" />
    <tag k="ref:vcgi:esiteid" v="190285" />
  </node>
  <node id="-180" visible="true" lat="43.72724464" lon="-72.48170407">
    <tag k="addr:city" v="Pomfret" />
    <tag k="addr:housenumber" v="467" />
    <tag k="addr:street" v="Caper Street" />
    <tag k="addr:state" v="VT" />
    <tag k="ref:vcgi:esiteid" v="190286" />
  </node>
  <node id="-181" visible="true" lat="43.72716647" lon="-72.50386396">
    <tag k="addr:city" v="Pomfret" />
    <tag k="addr:housenumber" v="429" />
    <tag k="addr:street" v="Allen Hill Road" />
    <tag k="addr:state" v="VT" />
    <tag k="ref:vcgi:esiteid" v="190287" />
  </node>
  <node id="-182" visible="true" lat="43.72711586" lon="-72.53738706">
    <tag k="addr:city" v="Pomfret" />
    <tag k="addr:housenumber" v="413" />
    <tag k="addr:street" v="Skyline Drive" />
    <tag k="addr:state" v="VT" />
    <tag k="ref:vcgi:esiteid" v="190288" />
  </node>
  <node id="-183" visible="true" lat="43.72667667" lon="-72.49660712">
    <tag k="addr:city" v="Pomfret" />
    <tag k="addr:housenumber" v="302" />
    <tag k="addr:street" v="Howe Hill Road" />
    <tag k="addr:state" v="VT" />
    <tag k="ref:vcgi:esiteid" v="190289" />
  </node>
  <node id="-184" visible="true" lat="43.72670784" lon="-72.47919279">
    <tag k="addr:city" v="Pomfret" />
    <tag k="addr:housenumber" v="328" />
    <tag k="addr:street" v="Caper Street" />
    <tag k="addr:state" v="VT" />
    <tag k="ref:vcgi:esiteid" v="190290" />
  </node>
  <node id="-185" visible="true" lat="43.72646057" lon="-72.45107826">
    <tag k="addr:city" v="Pomfret" />
    <tag k="addr:housenumber" v="218" />
    <tag k="addr:street" v="Mill Brook Road" />
    <tag k="addr:state" v="VT" />
    <tag k="ref:vcgi:esiteid" v="190291" />
  </node>
  <node id="-186" visible="true" lat="43.72635499" lon="-72.47830557">
    <tag k="addr:city" v="Pomfret" />
    <tag k="addr:housenumber" v="90" />
    <tag k="addr:street" v="Limey Lane" />
    <tag k="addr:state" v="VT" />
    <tag k="ref:vcgi:esiteid" v="190292" />
  </node>
  <node id="-187" visible="true" lat="43.72632435" lon="-72.48065256">
    <tag k="addr:city" v="Pomfret" />
    <tag k="addr:housenumber" v="321" />
    <tag k="addr:street" v="Caper Street" />
    <tag k="addr:state" v="VT" />
    <tag k="ref:vcgi:esiteid" v="190293" />
  </node>
  <node id="-188" visible="true" lat="43.72615439" lon="-72.53554544">
    <tag k="addr:city" v="Pomfret" />
    <tag k="addr:housenumber" v="538" />
    <tag k="addr:street" v="Skyline Drive" />
    <tag k="addr:state" v="VT" />
    <tag k="ref:vcgi:esiteid" v="190294" />
  </node>
  <node id="-189" visible="true" lat="43.72613745" lon="-72.48029032">
    <tag k="addr:city" v="Pomfret" />
    <tag k="addr:housenumber" v="311" />
    <tag k="addr:street" v="Caper Street" />
    <tag k="addr:state" v="VT" />
    <tag k="ref:vcgi:esiteid" v="190295" />
  </node>
  <node id="-190" visible="true" lat="43.72593688" lon="-72.47624206">
    <tag k="addr:city" v="Pomfret" />
    <tag k="addr:housenumber" v="8215" />
    <tag k="addr:street" v="Pomfret Road" />
    <tag k="addr:state" v="VT" />
    <tag k="ref:vcgi:esiteid" v="190296" />
  </node>
  <node id="-191" visible="true" lat="43.72588134" lon="-72.4574274">
    <tag k="addr:city" v="Pomfret" />
    <tag k="addr:housenumber" v="137" />
    <tag k="addr:street" v="Freeman Road" />
    <tag k="addr:state" v="VT" />
    <tag k="ref:vcgi:esiteid" v="190297" />
  </node>
  <node id="-192" visible="true" lat="43.72580718" lon="-72.53822326">
    <tag k="addr:city" v="Pomfret" />
    <tag k="addr:housenumber" v="357" />
    <tag k="addr:street" v="Skyline Drive" />
    <tag k="addr:state" v="VT" />
    <tag k="ref:vcgi:esiteid" v="190298" />
  </node>
  <node id="-193" visible="true" lat="43.72572708" lon="-72.47264099">
    <tag k="addr:city" v="Pomfret" />
    <tag k="addr:housenumber" v="8389" />
    <tag k="addr:street" v="Pomfret Road" />
    <tag k="addr:state" v="VT" />
    <tag k="ref:vcgi:esiteid" v="190299" />
  </node>
  <node id="-194" visible="true" lat="43.72569656" lon="-72.47192382">
    <tag k="addr:city" v="Pomfret" />
    <tag k="addr:housenumber" v="8425" />
    <tag k="addr:street" v="Pomfret Road" />
    <tag k="addr:state" v="VT" />
    <tag k="ref:vcgi:esiteid" v="190300" />
  </node>
  <node id="-195" visible="true" lat="43.72579463" lon="-72.52731561">
    <tag k="addr:city" v="Pomfret" />
    <tag k="addr:housenumber" v="309" />
    <tag k="addr:street" v="Twin Pond Road" />
    <tag k="addr:state" v="VT" />
    <tag k="ref:vcgi:esiteid" v="190301" />
  </node>
  <node id="-196" visible="true" lat="43.72580045" lon="-72.47421803">
    <tag k="addr:city" v="Pomfret" />
    <tag k="addr:housenumber" v="8318" />
    <tag k="addr:street" v="Pomfret Road" />
    <tag k="addr:state" v="VT" />
    <tag k="ref:vcgi:esiteid" v="190302" />
  </node>
  <node id="-197" visible="true" lat="43.72554008" lon="-72.47273272">
    <tag k="addr:city" v="Pomfret" />
    <tag k="addr:housenumber" v="8394" />
    <tag k="addr:street" v="Pomfret Road" />
    <tag k="addr:state" v="VT" />
    <tag k="ref:vcgi:esiteid" v="190303" />
  </node>
  <node id="-198" visible="true" lat="43.7254894" lon="-72.46843246">
    <tag k="addr:city" v="Pomfret" />
    <tag k="addr:housenumber" v="8597" />
    <tag k="addr:street" v="Pomfret Road" />
    <tag k="addr:state" v="VT" />
    <tag k="ref:vcgi:esiteid" v="190304" />
  </node>
  <node id="-199" visible="true" lat="43.72529602" lon="-72.47061157">
    <tag k="addr:city" v="Pomfret" />
    <tag k="addr:housenumber" v="8492" />
    <tag k="addr:street" v="Pomfret Road" />
    <tag k="addr:state" v="VT" />
    <tag k="ref:vcgi:esiteid" v="190305" />
  </node>
  <node id="-200" visible="true" lat="43.72544046" lon="-72.53837832">
    <tag k="addr:city" v="Pomfret" />
    <tag k="addr:housenumber" v="369" />
    <tag k="addr:street" v="Skyline Drive" />
    <tag k="addr:state" v="VT" />
    <tag k="ref:vcgi:esiteid" v="190306" />
  </node>
  <node id="-201" visible="true" lat="43.72535207" lon="-72.46747173">
    <tag k="addr:city" v="Pomfret" />
    <tag k="addr:housenumber" v="8649" />
    <tag k="addr:street" v="Pomfret Road" />
    <tag k="addr:state" v="VT" />
    <tag k="ref:vcgi:esiteid" v="190307" />
  </node>
  <node id="-202" visible="true" lat="43.72531178" lon="-72.45013695">
    <tag k="addr:city" v="Pomfret" />
    <tag k="addr:housenumber" v="9557" />
    <tag k="addr:street" v="Pomfret Road" />
    <tag k="addr:state" v="VT" />
    <tag k="ref:vcgi:esiteid" v="190308" />
  </node>
  <node id="-203" visible="true" lat="43.72505951" lon="-72.47364044">
    <tag k="addr:city" v="Pomfret" />
    <tag k="addr:housenumber" v="8350" />
    <tag k="addr:street" v="Pomfret Road" />
    <tag k="addr:state" v="VT" />
    <tag k="ref:vcgi:esiteid" v="190309" />
  </node>
  <node id="-204" visible="true" lat="43.72502572" lon="-72.47716217">
    <tag k="addr:city" v="Pomfret" />
    <tag k="addr:housenumber" v="8133" />
    <tag k="addr:street" v="Pomfret Road" />
    <tag k="addr:state" v="VT" />
    <tag k="ref:vcgi:esiteid" v="190310" />
  </node>
  <node id="-205" visible="true" lat="43.7249549" lon="-72.49797655">
    <tag k="addr:city" v="Pomfret" />
    <tag k="addr:housenumber" v="121" />
    <tag k="addr:street" v="Howe Hill Road" />
    <tag k="addr:state" v="VT" />
    <tag k="ref:vcgi:esiteid" v="190311" />
  </node>
  <node id="-206" visible="true" lat="43.7249712" lon="-72.4524348">
    <tag k="addr:city" v="Pomfret" />
    <tag k="addr:housenumber" v="96" />
    <tag k="addr:street" v="Mill Brook Road" />
    <tag k="addr:state" v="VT" />
    <tag k="ref:vcgi:esiteid" v="190312" />
  </node>
  <node id="-207" visible="true" lat="43.72479425" lon="-72.51887767">
    <tag k="addr:city" v="Pomfret" />
    <tag k="addr:housenumber" v="880" />
    <tag k="addr:street" v="Hewitt Hill Road" />
    <tag k="addr:state" v="VT" />
    <tag k="ref:vcgi:esiteid" v="190313" />
  </node>
  <node id="-208" visible="true" lat="43.72467041" lon="-72.45437622">
    <tag k="addr:city" v="Pomfret" />
    <tag k="addr:housenumber" v="9295" />
    <tag k="addr:street" v="Pomfret Road" />
    <tag k="addr:state" v="VT" />
    <tag k="ref:vcgi:esiteid" v="190314" />
  </node>
  <node id="-209" visible="true" lat="43.72466277" lon="-72.45565032">
    <tag k="addr:city" v="Pomfret" />
    <tag k="addr:housenumber" v="14" />
    <tag k="addr:street" v="Freeman Road" />
    <tag k="addr:state" v="VT" />
    <tag k="ref:vcgi:esiteid" v="190315" />
  </node>
  <node id="-210" visible="true" lat="43.72480963" lon="-72.54875769">
    <tag k="addr:city" v="Pomfret" />
    <tag k="addr:housenumber" v="2458" />
    <tag k="addr:street" v="Webster Hill Road" />
    <tag k="addr:state" v="VT" />
    <tag k="ref:vcgi:esiteid" v="190316" />
  </node>
  <node id="-211" visible="true" lat="43.72464173" lon="-72.50949205">
    <tag k="addr:city" v="Pomfret" />
    <tag k="addr:housenumber" v="170" />
    <tag k="addr:street" v="Hewitt Street" />
    <tag k="addr:state" v="VT" />
    <tag k="ref:vcgi:esiteid" v="190317" />
  </node>
  <node id="-212" visible="true" lat="43.7244606" lon="-72.4668045">
    <tag k="addr:city" v="Pomfret" />
    <tag k="addr:housenumber" v="8696" />
    <tag k="addr:street" v="Pomfret Road" />
    <tag k="addr:state" v="VT" />
    <tag k="ref:vcgi:esiteid" v="190318" />
  </node>
  <node id="-213" visible="true" lat="43.72443485" lon="-72.46424681">
    <tag k="addr:city" v="Pomfret" />
    <tag k="addr:housenumber" v="8825" />
    <tag k="addr:street" v="Pomfret Road" />
    <tag k="addr:state" v="VT" />
    <tag k="ref:vcgi:esiteid" v="190319" />
  </node>
  <node id="-214" visible="true" lat="43.72429657" lon="-72.47850799">
    <tag k="addr:city" v="Pomfret" />
    <tag k="addr:housenumber" v="172" />
    <tag k="addr:street" v="Caper Street" />
    <tag k="addr:state" v="VT" />
    <tag k="ref:vcgi:esiteid" v="190320" />
  </node>
  <node id="-215" visible="true" lat="43.72420501" lon="-72.4657135">
    <tag k="addr:city" v="Pomfret" />
    <tag k="addr:housenumber" v="8754" />
    <tag k="addr:street" v="Pomfret Road" />
    <tag k="addr:state" v="VT" />
    <tag k="ref:vcgi:esiteid" v="190321" />
  </node>
  <node id="-216" visible="true" lat="43.72429782" lon="-72.49838025">
    <tag k="addr:city" v="Pomfret" />
    <tag k="addr:housenumber" v="79" />
    <tag k="addr:street" v="Howe Hill Road" />
    <tag k="addr:state" v="VT" />
    <tag k="ref:vcgi:esiteid" v="190322" />
  </node>
  <node id="-217" visible="true" lat="43.72418019" lon="-72.50502421">
    <tag k="addr:city" v="Pomfret" />
    <tag k="addr:housenumber" v="204" />
    <tag k="addr:street" v="Hewitt Hill Road" />
    <tag k="addr:state" v="VT" />
    <tag k="ref:vcgi:esiteid" v="190323" />
  </node>
  <node id="-218" visible="true" lat="43.72403885" lon="-72.51007022">
    <tag k="addr:city" v="Pomfret" />
    <tag k="addr:housenumber" v="166" />
    <tag k="addr:street" v="Hewitt Street" />
    <tag k="addr:state" v="VT" />
    <tag k="ref:vcgi:esiteid" v="190324" />
  </node>
  <node id="-219" visible="true" lat="43.72405992" lon="-72.47911493">
    <tag k="addr:city" v="Pomfret" />
    <tag k="addr:housenumber" v="145" />
    <tag k="addr:street" v="Caper Street" />
    <tag k="addr:state" v="VT" />
    <tag k="ref:vcgi:esiteid" v="190325" />
  </node>
  <node id="-220" visible="true" lat="43.72391891" lon="-72.46418762">
    <tag k="addr:city" v="Pomfret" />
    <tag k="addr:housenumber" v="8836" />
    <tag k="addr:street" v="Pomfret Road" />
    <tag k="addr:state" v="VT" />
    <tag k="ref:vcgi:esiteid" v="190326" />
  </node>
  <node id="-221" visible="true" lat="43.72396615" lon="-72.55040241">
    <tag k="addr:city" v="Pomfret" />
    <tag k="addr:housenumber" v="2463" />
    <tag k="addr:street" v="Webster Hill Road" />
    <tag k="addr:state" v="VT" />
    <tag k="ref:vcgi:esiteid" v="190327" />
  </node>
  <node id="-222" visible="true" lat="43.72394311" lon="-72.43292974">
    <tag k="addr:city" v="Pomfret" />
    <tag k="addr:housenumber" v="317" />
    <tag k="addr:street" v="White River Lane" />
    <tag k="addr:state" v="VT" />
    <tag k="ref:vcgi:esiteid" v="190328" />
  </node>
  <node id="-223" visible="true" lat="43.72373962" lon="-72.49797058">
    <tag k="addr:city" v="Pomfret" />
    <tag k="addr:housenumber" v="60" />
    <tag k="addr:street" v="Howe Hill Road" />
    <tag k="addr:state" v="VT" />
    <tag k="ref:vcgi:esiteid" v="190329" />
  </node>
  <node id="-224" visible="true" lat="43.72370529" lon="-72.54598998">
    <tag k="addr:city" v="Pomfret" />
    <tag k="addr:housenumber" v="2300" />
    <tag k="addr:street" v="Webster Hill Road" />
    <tag k="addr:state" v="VT" />
    <tag k="ref:vcgi:esiteid" v="190330" />
  </node>
  <node id="-225" visible="true" lat="43.72388384" lon="-72.45297398">
    <tag k="addr:city" v="Pomfret" />
    <tag k="addr:housenumber" v="70" />
    <tag k="addr:street" v="Sugarhouse Road" />
    <tag k="addr:state" v="VT" />
    <tag k="ref:vcgi:esiteid" v="190331" />
  </node>
  <node id="-226" visible="true" lat="43.72349004" lon="-72.51071973">
    <tag k="addr:city" v="Pomfret" />
    <tag k="addr:housenumber" v="108" />
    <tag k="addr:street" v="Hewitt Street" />
    <tag k="addr:state" v="VT" />
    <tag k="ref:vcgi:esiteid" v="190332" />
  </node>
  <node id="-227" visible="true" lat="43.72357359" lon="-72.47168338">
    <tag k="addr:city" v="Pomfret" />
    <tag k="addr:housenumber" v="200" />
    <tag k="addr:street" v="Maple View Road" />
    <tag k="addr:state" v="VT" />
    <tag k="ref:vcgi:esiteid" v="190333" />
  </node>
  <node id="-228" visible="true" lat="43.72350178" lon="-72.49933361">
    <tag k="addr:city" v="Pomfret" />
    <tag k="addr:housenumber" v="6739" />
    <tag k="addr:street" v="Pomfret Road" />
    <tag k="addr:state" v="VT" />
    <tag k="ref:vcgi:esiteid" v="190334" />
  </node>
  <node id="-229" visible="true" lat="43.72339096" lon="-72.50028637">
    <tag k="addr:city" v="Pomfret" />
    <tag k="addr:housenumber" v="6685" />
    <tag k="addr:street" v="Pomfret Road" />
    <tag k="addr:state" v="VT" />
    <tag k="ref:vcgi:esiteid" v="190335" />
  </node>
  <node id="-230" visible="true" lat="43.72339489" lon="-72.52162051">
    <tag k="addr:city" v="Pomfret" />
    <tag k="addr:housenumber" v="1138" />
    <tag k="addr:street" v="Hewitt Hill Road" />
    <tag k="addr:state" v="VT" />
    <tag k="ref:vcgi:esiteid" v="190336" />
  </node>
  <node id="-231" visible="true" lat="43.7233451" lon="-72.50615394">
    <tag k="addr:city" v="Pomfret" />
    <tag k="addr:housenumber" v="248" />
    <tag k="addr:street" v="Hewitt Hill Road" />
    <tag k="addr:state" v="VT" />
    <tag k="ref:vcgi:esiteid" v="190337" />
  </node>
  <node id="-232" visible="true" lat="43.72318267" lon="-72.50284576">
    <tag k="addr:city" v="Pomfret" />
    <tag k="addr:housenumber" v="86" />
    <tag k="addr:street" v="Hewitt Hill Road" />
    <tag k="addr:state" v="VT" />
    <tag k="ref:vcgi:esiteid" v="190338" />
  </node>
  <node id="-233" visible="true" lat="43.72329051" lon="-72.45320498">
    <tag k="addr:city" v="Pomfret" />
    <tag k="addr:housenumber" v="120" />
    <tag k="addr:street" v="Sugarhouse Road" />
    <tag k="addr:state" v="VT" />
    <tag k="ref:vcgi:esiteid" v="190339" />
  </node>
  <node id="-234" visible="true" lat="43.72322676" lon="-72.45095357">
    <tag k="addr:city" v="Pomfret" />
    <tag k="addr:housenumber" v="147" />
    <tag k="addr:street" v="Sugarhouse Road" />
    <tag k="addr:state" v="VT" />
    <tag k="ref:vcgi:esiteid" v="190340" />
  </node>
  <node id="-235" visible="true" lat="43.72301483" lon="-72.50670623">
    <tag k="addr:city" v="Pomfret" />
    <tag k="addr:housenumber" v="284" />
    <tag k="addr:street" v="Hewitt Hill Road" />
    <tag k="addr:state" v="VT" />
    <tag k="ref:vcgi:esiteid" v="190341" />
  </node>
  <node id="-236" visible="true" lat="43.72298877" lon="-72.50781549">
    <tag k="addr:city" v="Pomfret" />
    <tag k="addr:housenumber" v="346" />
    <tag k="addr:street" v="Hewitt Hill Road" />
    <tag k="addr:state" v="VT" />
    <tag k="ref:vcgi:esiteid" v="190342" />
  </node>
  <node id="-237" visible="true" lat="43.72280501" lon="-72.54042956">
    <tag k="addr:city" v="Pomfret" />
    <tag k="addr:housenumber" v="133" />
    <tag k="addr:street" v="Skyline Drive" />
    <tag k="addr:state" v="VT" />
    <tag k="ref:vcgi:esiteid" v="190343" />
  </node>
  <node id="-238" visible="true" lat="43.72299612" lon="-72.43189979">
    <tag k="addr:city" v="Pomfret" />
    <tag k="addr:housenumber" v="243" />
    <tag k="addr:street" v="White River Lane" />
    <tag k="addr:state" v="VT" />
    <tag k="ref:vcgi:esiteid" v="190344" />
  </node>
  <node id="-239" visible="true" lat="43.72272333" lon="-72.50863868">
    <tag k="addr:city" v="Pomfret" />
    <tag k="addr:housenumber" v="370" />
    <tag k="addr:street" v="Hewitt Hill Road" />
    <tag k="addr:state" v="VT" />
    <tag k="ref:vcgi:esiteid" v="190345" />
  </node>
  <node id="-240" visible="true" lat="43.7228979" lon="-72.51848972">
    <tag k="addr:city" v="Pomfret" />
    <tag k="addr:housenumber" v="906" />
    <tag k="addr:street" v="Hewitt Hill Road" />
    <tag k="addr:state" v="VT" />
    <tag k="ref:vcgi:esiteid" v="190346" />
  </node>
  <node id="-241" visible="true" lat="43.72279739" lon="-72.47270965">
    <tag k="addr:city" v="Pomfret" />
    <tag k="addr:housenumber" v="260" />
    <tag k="addr:street" v="Maple View Road" />
    <tag k="addr:state" v="VT" />
    <tag k="ref:vcgi:esiteid" v="190347" />
  </node>
  <node id="-242" visible="true" lat="43.72289481" lon="-72.50458959">
    <tag k="addr:city" v="Pomfret" />
    <tag k="addr:housenumber" v="167" />
    <tag k="addr:street" v="Hewitt Hill Road" />
    <tag k="addr:state" v="VT" />
    <tag k="ref:vcgi:esiteid" v="190348" />
  </node>
  <node id="-243" visible="true" lat="43.72270783" lon="-72.51996984">
    <tag k="addr:city" v="Pomfret" />
    <tag k="addr:housenumber" v="982" />
    <tag k="addr:street" v="Hewitt Hill Road" />
    <tag k="addr:state" v="VT" />
    <tag k="ref:vcgi:esiteid" v="190349" />
  </node>
  <node id="-244" visible="true" lat="43.72255706" lon="-72.49770355">
    <tag k="addr:city" v="Pomfret" />
    <tag k="addr:housenumber" v="6828" />
    <tag k="addr:street" v="Pomfret Road" />
    <tag k="addr:state" v="VT" />
    <tag k="ref:vcgi:esiteid" v="190350" />
  </node>
  <node id="-245" visible="true" lat="43.72255325" lon="-72.49810791">
    <tag k="addr:city" v="Pomfret" />
    <tag k="addr:housenumber" v="6810" />
    <tag k="addr:street" v="Pomfret Road" />
    <tag k="addr:state" v="VT" />
    <tag k="ref:vcgi:esiteid" v="190351" />
  </node>
  <node id="-246" visible="true" lat="43.72271001" lon="-72.49412698">
    <tag k="addr:city" v="Pomfret" />
    <tag k="addr:housenumber" v="7045" />
    <tag k="addr:street" v="Pomfret Road" />
    <tag k="addr:state" v="VT" />
    <tag k="ref:vcgi:esiteid" v="190352" />
  </node>
  <node id="-247" visible="true" lat="43.72265265" lon="-72.49632676">
    <tag k="addr:city" v="Pomfret" />
    <tag k="addr:housenumber" v="6889" />
    <tag k="addr:street" v="Pomfret Road" />
    <tag k="addr:state" v="VT" />
    <tag k="ref:vcgi:esiteid" v="190353" />
  </node>
  <node id="-248" visible="true" lat="43.72236251" lon="-72.51052856">
    <tag k="addr:city" v="Pomfret" />
    <tag k="addr:housenumber" v="504" />
    <tag k="addr:street" v="Hewitt Hill Road" />
    <tag k="addr:state" v="VT" />
    <tag k="ref:vcgi:esiteid" v="190354" />
  </node>
  <node id="-249" visible="true" lat="43.72233581" lon="-72.45748138">
    <tag k="addr:city" v="Pomfret" />
    <tag k="addr:housenumber" v="9260" />
    <tag k="addr:street" v="Pomfret Road" />
    <tag k="addr:state" v="VT" />
    <tag k="ref:vcgi:esiteid" v="190355" />
  </node>
  <node id="-250" visible="true" lat="43.72243504" lon="-72.46327557">
    <tag k="addr:city" v="Pomfret" />
    <tag k="addr:housenumber" v="105" />
    <tag k="addr:street" v="Starbuck Road" />
    <tag k="addr:state" v="VT" />
    <tag k="ref:vcgi:esiteid" v="190356" />
  </node>
  <node id="-251" visible="true" lat="43.72241385" lon="-72.49589441">
    <tag k="addr:city" v="Pomfret" />
    <tag k="addr:housenumber" v="6917" />
    <tag k="addr:street" v="Pomfret Road" />
    <tag k="addr:state" v="VT" />
    <tag k="ref:vcgi:esiteid" v="190357" />
  </node>
  <node id="-252" visible="true" lat="43.72237626" lon="-72.49472016">
    <tag k="addr:city" v="Pomfret" />
    <tag k="addr:housenumber" v="6975" />
    <tag k="addr:street" v="Pomfret Road" />
    <tag k="addr:state" v="VT" />
    <tag k="ref:vcgi:esiteid" v="190358" />
  </node>
  <node id="-253" visible="true" lat="43.72234517" lon="-72.48015831">
    <tag k="addr:city" v="Pomfret" />
    <tag k="addr:housenumber" v="15" />
    <tag k="addr:street" v="Caper Street" />
    <tag k="addr:state" v="VT" />
    <tag k="ref:vcgi:esiteid" v="190359" />
  </node>
  <node id="-254" visible="true" lat="43.72231344" lon="-72.47946692">
    <tag k="addr:city" v="Pomfret" />
    <tag k="addr:housenumber" v="7904" />
    <tag k="addr:street" v="Pomfret Road" />
    <tag k="addr:state" v="VT" />
    <tag k="ref:vcgi:esiteid" v="190360" />
  </node>
  <node id="-255" visible="true" lat="43.72201538" lon="-72.50718688">
    <tag k="addr:city" v="Pomfret" />
    <tag k="addr:housenumber" v="325" />
    <tag k="addr:street" v="Hewitt Hill Road" />
    <tag k="addr:state" v="VT" />
    <tag k="ref:vcgi:esiteid" v="190361" />
  </node>
  <node id="-256" visible="true" lat="43.72195434" lon="-72.42942047">
    <tag k="addr:city" v="Pomfret" />
    <tag k="addr:housenumber" v="143" />
    <tag k="addr:street" v="White River Lane" />
    <tag k="addr:state" v="VT" />
    <tag k="ref:vcgi:esiteid" v="190362" />
  </node>
  <node id="-257" visible="true" lat="43.72208271" lon="-72.48032143">
    <tag k="addr:city" v="Pomfret" />
    <tag k="addr:housenumber" v="7873" />
    <tag k="addr:street" v="Pomfret Road" />
    <tag k="addr:state" v="VT" />
    <tag k="ref:vcgi:esiteid" v="190363" />
  </node>
  <node id="-258" visible="true" lat="43.72196351" lon="-72.54176153">
    <tag k="addr:city" v="Pomfret" />
    <tag k="addr:housenumber" v="2033" />
    <tag k="addr:street" v="Webster Hill Road" />
    <tag k="addr:state" v="VT" />
    <tag k="ref:vcgi:esiteid" v="190364" />
  </node>
  <node id="-259" visible="true" lat="43.7218666" lon="-72.4705429">
    <tag k="addr:city" v="Pomfret" />
    <tag k="addr:housenumber" v="75" />
    <tag k="addr:street" v="Maple View Road" />
    <tag k="addr:state" v="VT" />
    <tag k="ref:vcgi:esiteid" v="190365" />
  </node>
  <node id="-260" visible="true" lat="43.72196876" lon="-72.51565887">
    <tag k="addr:city" v="Pomfret" />
    <tag k="addr:housenumber" v="753" />
    <tag k="addr:street" v="Hewitt Hill Road" />
    <tag k="addr:state" v="VT" />
    <tag k="ref:vcgi:esiteid" v="190366" />
  </node>
  <node id="-261" visible="true" lat="43.72187076" lon="-72.48044997">
    <tag k="addr:city" v="Pomfret" />
    <tag k="addr:housenumber" v="7855" />
    <tag k="addr:street" v="Pomfret Road" />
    <tag k="addr:state" v="VT" />
    <tag k="ref:vcgi:esiteid" v="190367" />
  </node>
  <node id="-262" visible="true" lat="43.72191943" lon="-72.49762261">
    <tag k="addr:city" v="Pomfret" />
    <tag k="addr:housenumber" v="6872" />
    <tag k="addr:street" v="Pomfret Road" />
    <tag k="addr:state" v="VT" />
    <tag k="ref:vcgi:esiteid" v="190368" />
  </node>
  <node id="-263" visible="true" lat="43.721805" lon="-72.47994461">
    <tag k="addr:city" v="Pomfret" />
    <tag k="addr:housenumber" v="7868" />
    <tag k="addr:street" v="Pomfret Road" />
    <tag k="addr:state" v="VT" />
    <tag k="ref:vcgi:esiteid" v="190369" />
  </node>
  <node id="-264" visible="true" lat="43.7216072" lon="-72.46385192">
    <tag k="addr:city" v="Pomfret" />
    <tag k="addr:housenumber" v="159" />
    <tag k="addr:street" v="Starbuck Road" />
    <tag k="addr:state" v="VT" />
    <tag k="ref:vcgi:esiteid" v="190370" />
  </node>
  <node id="-265" visible="true" lat="43.72154235" lon="-72.52056121">
    <tag k="addr:city" v="Pomfret" />
    <tag k="addr:housenumber" v="1039" />
    <tag k="addr:street" v="Hewitt Hill Road" />
    <tag k="addr:state" v="VT" />
    <tag k="ref:vcgi:esiteid" v="190371" />
  </node>
  <node id="-266" visible="true" lat="43.72156364" lon="-72.53816579">
    <tag k="addr:city" v="Pomfret" />
    <tag k="addr:housenumber" v="109" />
    <tag k="addr:street" v="Windy Lane" />
    <tag k="addr:state" v="VT" />
    <tag k="ref:vcgi:esiteid" v="190372" />
  </node>
  <node id="-267" visible="true" lat="43.72131729" lon="-72.46273803">
    <tag k="addr:city" v="Pomfret" />
    <tag k="addr:housenumber" v="263" />
    <tag k="addr:street" v="Starbuck Road" />
    <tag k="addr:state" v="VT" />
    <tag k="ref:vcgi:esiteid" v="190373" />
  </node>
  <node id="-268" visible="true" lat="43.72135151" lon="-72.49126432">
    <tag k="addr:city" v="Pomfret" />
    <tag k="addr:housenumber" v="7167" />
    <tag k="addr:street" v="Pomfret Road" />
    <tag k="addr:state" v="VT" />
    <tag k="ref:vcgi:esiteid" v="190374" />
  </node>
  <node id="-269" visible="true" lat="43.72142769" lon="-72.51261905">
    <tag k="addr:city" v="Pomfret" />
    <tag k="addr:housenumber" v="1007" />
    <tag k="addr:street" v="Johnson Road" />
    <tag k="addr:state" v="VT" />
    <tag k="ref:vcgi:esiteid" v="190375" />
  </node>
  <node id="-270" visible="true" lat="43.72135671" lon="-72.48103096">
    <tag k="addr:city" v="Pomfret" />
    <tag k="addr:housenumber" v="7809" />
    <tag k="addr:street" v="Pomfret Road" />
    <tag k="addr:state" v="VT" />
    <tag k="ref:vcgi:esiteid" v="190376" />
  </node>
  <node id="-271" visible="true" lat="43.7212688" lon="-72.45439574">
    <tag k="addr:city" v="Pomfret" />
    <tag k="addr:housenumber" v="252" />
    <tag k="addr:street" v="Sugarhouse Road" />
    <tag k="addr:state" v="VT" />
    <tag k="ref:vcgi:esiteid" v="190377" />
  </node>
  <node id="-272" visible="true" lat="43.72116853" lon="-72.52933725">
    <tag k="addr:city" v="Pomfret" />
    <tag k="addr:housenumber" v="478" />
    <tag k="addr:street" v="Hidden Ridge Road" />
    <tag k="addr:state" v="VT" />
    <tag k="ref:vcgi:esiteid" v="190378" />
  </node>
  <node id="-273" visible="true" lat="43.7208023" lon="-72.52164459">
    <tag k="addr:city" v="Pomfret" />
    <tag k="addr:housenumber" v="1063" />
    <tag k="addr:street" v="Hewitt Hill Road" />
    <tag k="addr:state" v="VT" />
    <tag k="ref:vcgi:esiteid" v="190379" />
  </node>
  <node id="-274" visible="true" lat="43.72084251" lon="-72.4762684">
    <tag k="addr:city" v="Pomfret" />
    <tag k="addr:housenumber" v="8128" />
    <tag k="addr:street" v="Pomfret Road" />
    <tag k="addr:state" v="VT" />
    <tag k="ref:vcgi:esiteid" v="190380" />
  </node>
  <node id="-275" visible="true" lat="43.72080982" lon="-72.50941874">
    <tag k="addr:city" v="Pomfret" />
    <tag k="addr:housenumber" v="421" />
    <tag k="addr:street" v="Hewitt Hill Road" />
    <tag k="addr:state" v="VT" />
    <tag k="ref:vcgi:esiteid" v="190381" />
  </node>
  <node id="-276" visible="true" lat="43.72063445" lon="-72.48138427">
    <tag k="addr:city" v="Pomfret" />
    <tag k="addr:housenumber" v="7767" />
    <tag k="addr:street" v="Pomfret Road" />
    <tag k="addr:state" v="VT" />
    <tag k="ref:vcgi:esiteid" v="190382" />
  </node>
  <node id="-277" visible="true" lat="43.72058486" lon="-72.44199371">
    <tag k="addr:city" v="Pomfret" />
    <tag k="addr:housenumber" v="235" />
    <tag k="addr:street" v="Cabin Hill Road" />
    <tag k="addr:state" v="VT" />
    <tag k="ref:vcgi:esiteid" v="190383" />
  </node>
  <node id="-278" visible="true" lat="43.72058105" lon="-72.46292114">
    <tag k="addr:city" v="Pomfret" />
    <tag k="addr:housenumber" v="261" />
    <tag k="addr:street" v="Starbuck Road" />
    <tag k="addr:state" v="VT" />
    <tag k="ref:vcgi:esiteid" v="190384" />
  </node>
  <node id="-279" visible="true" lat="43.72064453" lon="-72.48690419">
    <tag k="addr:city" v="Pomfret" />
    <tag k="addr:housenumber" v="7309" />
    <tag k="addr:street" v="Pomfret Road" />
    <tag k="addr:state" v="VT" />
    <tag k="ref:vcgi:esiteid" v="190385" />
  </node>
  <node id="-280" visible="true" lat="43.72052955" lon="-72.5320312">
    <tag k="addr:city" v="Pomfret" />
    <tag k="addr:housenumber" v="489" />
    <tag k="addr:street" v="Windy Lane" />
    <tag k="addr:state" v="VT" />
    <tag k="ref:vcgi:esiteid" v="190386" />
  </node>
  <node id="-281" visible="true" lat="43.72048194" lon="-72.48205909">
    <tag k="addr:city" v="Pomfret" />
    <tag k="addr:housenumber" v="7793" />
    <tag k="addr:street" v="Pomfret Road" />
    <tag k="addr:state" v="VT" />
    <tag k="ref:vcgi:esiteid" v="190387" />
  </node>
  <node id="-282" visible="true" lat="43.72040251" lon="-72.54114127">
    <tag k="addr:city" v="Pomfret" />
    <tag k="addr:housenumber" v="1911" />
    <tag k="addr:street" v="Webster Hill Road" />
    <tag k="addr:state" v="VT" />
    <tag k="ref:vcgi:esiteid" v="190388" />
  </node>
  <node id="-283" visible="true" lat="43.72037977" lon="-72.52915725">
    <tag k="addr:city" v="Pomfret" />
    <tag k="addr:housenumber" v="408" />
    <tag k="addr:street" v="Hidden Ridge Road" />
    <tag k="addr:state" v="VT" />
    <tag k="ref:vcgi:esiteid" v="190389" />
  </node>
  <node id="-284" visible="true" lat="43.72031911" lon="-72.49345985">
    <tag k="addr:city" v="Pomfret" />
    <tag k="addr:housenumber" v="7090" />
    <tag k="addr:street" v="Pomfret Road" />
    <tag k="addr:state" v="VT" />
    <tag k="ref:vcgi:esiteid" v="190390" />
  </node>
  <node id="-285" visible="true" lat="43.72014177" lon="-72.48057032">
    <tag k="addr:city" v="Pomfret" />
    <tag k="addr:housenumber" v="45" />
    <tag k="addr:street" v="Bunker Hill Road" />
    <tag k="addr:state" v="VT" />
    <tag k="ref:vcgi:esiteid" v="190391" />
  </node>
  <node id="-286" visible="true" lat="43.71994481" lon="-72.49170094">
    <tag k="addr:city" v="Pomfret" />
    <tag k="addr:housenumber" v="60" />
    <tag k="addr:street" v="Dana Road" />
    <tag k="addr:state" v="VT" />
    <tag k="ref:vcgi:esiteid" v="190392" />
  </node>
  <node id="-287" visible="true" lat="43.71973206" lon="-72.48779714">
    <tag k="addr:city" v="Pomfret" />
    <tag k="addr:housenumber" v="7373" />
    <tag k="addr:street" v="Pomfret Road" />
    <tag k="addr:state" v="VT" />
    <tag k="ref:vcgi:esiteid" v="190393" />
  </node>
  <node id="-288" visible="true" lat="43.71991509" lon="-72.52445337">
    <tag k="addr:city" v="Pomfret" />
    <tag k="addr:housenumber" v="1151" />
    <tag k="addr:street" v="Hewitt Hill Road" />
    <tag k="addr:state" v="VT" />
    <tag k="ref:vcgi:esiteid" v="190394" />
  </node>
  <node id="-289" visible="true" lat="43.71973332" lon="-72.5296602">
    <tag k="addr:city" v="Pomfret" />
    <tag k="addr:housenumber" v="404" />
    <tag k="addr:street" v="Hidden Ridge Road" />
    <tag k="addr:state" v="VT" />
    <tag k="ref:vcgi:esiteid" v="190395" />
  </node>
  <node id="-290" visible="true" lat="43.71944009" lon="-72.48224063">
    <tag k="addr:city" v="Pomfret" />
    <tag k="addr:housenumber" v="7658" />
    <tag k="addr:street" v="Pomfret Road" />
    <tag k="addr:state" v="VT" />
    <tag k="ref:vcgi:esiteid" v="190396" />
  </node>
  <node id="-291" visible="true" lat="43.71961162" lon="-72.43631158">
    <tag k="addr:city" v="Pomfret" />
    <tag k="addr:housenumber" v="10411" />
    <tag k="addr:street" v="Pomfret Road" />
    <tag k="addr:state" v="VT" />
    <tag k="ref:vcgi:esiteid" v="190397" />
  </node>
  <node id="-292" visible="true" lat="43.71932416" lon="-72.44889214">
    <tag k="addr:city" v="Pomfret" />
    <tag k="addr:housenumber" v="649" />
    <tag k="addr:street" v="Sugarhouse Road" />
    <tag k="addr:state" v="VT" />
    <tag k="ref:vcgi:esiteid" v="190398" />
  </node>
  <node id="-293" visible="true" lat="43.71926498" lon="-72.43955993">
    <tag k="addr:city" v="Pomfret" />
    <tag k="addr:housenumber" v="125" />
    <tag k="addr:street" v="Cabin Hill Road" />
    <tag k="addr:state" v="VT" />
    <tag k="ref:vcgi:esiteid" v="190399" />
  </node>
  <node id="-294" visible="true" lat="43.71921818" lon="-72.52994221">
    <tag k="addr:city" v="Pomfret" />
    <tag k="addr:housenumber" v="344" />
    <tag k="addr:street" v="Hidden Ridge Road" />
    <tag k="addr:state" v="VT" />
    <tag k="ref:vcgi:esiteid" v="190400" />
  </node>
  <node id="-295" visible="true" lat="43.71932213" lon="-72.43553994">
    <tag k="addr:city" v="Pomfret" />
    <tag k="addr:housenumber" v="10449" />
    <tag k="addr:street" v="Pomfret Road" />
    <tag k="addr:state" v="VT" />
    <tag k="ref:vcgi:esiteid" v="190401" />
  </node>
  <node id="-296" visible="true" lat="43.71911776" lon="-72.47990066">
    <tag k="addr:city" v="Pomfret" />
    <tag k="addr:housenumber" v="143" />
    <tag k="addr:street" v="Bunker Hill Road" />
    <tag k="addr:state" v="VT" />
    <tag k="ref:vcgi:esiteid" v="190402" />
  </node>
  <node id="-297" visible="true" lat="43.71914939" lon="-72.51320651">
    <tag k="addr:city" v="Pomfret" />
    <tag k="addr:housenumber" v="844" />
    <tag k="addr:street" v="Johnson Road" />
    <tag k="addr:state" v="VT" />
    <tag k="ref:vcgi:esiteid" v="190403" />
  </node>
  <node id="-298" visible="true" lat="43.71914689" lon="-72.45408784">
    <tag k="addr:city" v="Pomfret" />
    <tag k="addr:housenumber" v="384" />
    <tag k="addr:street" v="Sugarhouse Road" />
    <tag k="addr:state" v="VT" />
    <tag k="ref:vcgi:esiteid" v="190404" />
  </node>
  <node id="-299" visible="true" lat="43.71902137" lon="-72.49081765">
    <tag k="addr:city" v="Pomfret" />
    <tag k="addr:housenumber" v="118" />
    <tag k="addr:street" v="Dana Road" />
    <tag k="addr:state" v="VT" />
    <tag k="ref:vcgi:esiteid" v="190405" />
  </node>
  <node id="-300" visible="true" lat="43.71895494" lon="-72.47895806">
    <tag k="addr:city" v="Pomfret" />
    <tag k="addr:housenumber" v="195" />
    <tag k="addr:street" v="Bunker Hill Road" />
    <tag k="addr:state" v="VT" />
    <tag k="ref:vcgi:esiteid" v="190406" />
  </node>
  <node id="-301" visible="true" lat="43.71885622" lon="-72.43428141">
    <tag k="addr:city" v="Pomfret" />
    <tag k="addr:housenumber" v="10523" />
    <tag k="addr:street" v="Pomfret Road" />
    <tag k="addr:state" v="VT" />
    <tag k="ref:vcgi:esiteid" v="190407" />
  </node>
  <node id="-302" visible="true" lat="43.71873041" lon="-72.48620368">
    <tag k="addr:city" v="Pomfret" />
    <tag k="addr:housenumber" v="7478" />
    <tag k="addr:street" v="Pomfret Road" />
    <tag k="addr:state" v="VT" />
    <tag k="ref:vcgi:esiteid" v="190409" />
  </node>
  <node id="-303" visible="true" lat="43.71843472" lon="-72.47852374">
    <tag k="addr:city" v="Pomfret" />
    <tag k="addr:housenumber" v="233" />
    <tag k="addr:street" v="Bunker Hill Road" />
    <tag k="addr:state" v="VT" />
    <tag k="ref:vcgi:esiteid" v="190410" />
  </node>
  <node id="-304" visible="true" lat="43.71807098" lon="-72.52947235">
    <tag k="addr:city" v="Pomfret" />
    <tag k="addr:housenumber" v="234" />
    <tag k="addr:street" v="Hidden Ridge Road" />
    <tag k="addr:state" v="VT" />
    <tag k="ref:vcgi:esiteid" v="190411" />
  </node>
  <node id="-305" visible="true" lat="43.71754623" lon="-72.54171695">
    <tag k="addr:city" v="Pomfret" />
    <tag k="addr:housenumber" v="1695" />
    <tag k="addr:street" v="Webster Hill Road" />
    <tag k="addr:state" v="VT" />
    <tag k="ref:vcgi:esiteid" v="190412" />
  </node>
  <node id="-306" visible="true" lat="43.71755981" lon="-72.48879241">
    <tag k="addr:city" v="Pomfret" />
    <tag k="addr:housenumber" v="44" />
    <tag k="addr:street" v="Stonewall Road" />
    <tag k="addr:state" v="VT" />
    <tag k="ref:vcgi:esiteid" v="190413" />
  </node>
  <node id="-307" visible="true" lat="43.71754455" lon="-72.4366455">
    <tag k="addr:city" v="Pomfret" />
    <tag k="addr:housenumber" v="192" />
    <tag k="addr:street" v="Handy Road" />
    <tag k="addr:state" v="VT" />
    <tag k="ref:vcgi:esiteid" v="190414" />
  </node>
  <node id="-308" visible="true" lat="43.71749496" lon="-72.47842407">
    <tag k="addr:city" v="Pomfret" />
    <tag k="addr:housenumber" v="284" />
    <tag k="addr:street" v="Bunker Hill Road" />
    <tag k="addr:state" v="VT" />
    <tag k="ref:vcgi:esiteid" v="190415" />
  </node>
  <node id="-309" visible="true" lat="43.71720061" lon="-72.46745883">
    <tag k="addr:city" v="Pomfret" />
    <tag k="addr:housenumber" v="545" />
    <tag k="addr:street" v="Starbuck Road" />
    <tag k="addr:state" v="VT" />
    <tag k="ref:vcgi:esiteid" v="190416" />
  </node>
  <node id="-310" visible="true" lat="43.71689605" lon="-72.49002075">
    <tag k="addr:city" v="Pomfret" />
    <tag k="addr:housenumber" v="358" />
    <tag k="addr:street" v="Dana Road" />
    <tag k="addr:state" v="VT" />
    <tag k="ref:vcgi:esiteid" v="190417" />
  </node>
  <node id="-311" visible="true" lat="43.71686062" lon="-72.43456059">
    <tag k="addr:city" v="Pomfret" />
    <tag k="addr:housenumber" v="389" />
    <tag k="addr:street" v="Handy Road" />
    <tag k="addr:state" v="VT" />
    <tag k="ref:vcgi:esiteid" v="190418" />
  </node>
  <node id="-312" visible="true" lat="43.7165697" lon="-72.45653495">
    <tag k="addr:city" v="Pomfret" />
    <tag k="addr:housenumber" v="245" />
    <tag k="addr:street" v="A Frame Road" />
    <tag k="addr:state" v="VT" />
    <tag k="ref:vcgi:esiteid" v="190419" />
  </node>
  <node id="-313" visible="true" lat="43.71628951" lon="-72.4779663">
    <tag k="addr:city" v="Pomfret" />
    <tag k="addr:housenumber" v="386" />
    <tag k="addr:street" v="Bunker Hill Road" />
    <tag k="addr:state" v="VT" />
    <tag k="ref:vcgi:esiteid" v="190420" />
  </node>
  <node id="-314" visible="true" lat="43.71595079" lon="-72.4909724">
    <tag k="addr:city" v="Pomfret" />
    <tag k="addr:housenumber" v="448" />
    <tag k="addr:street" v="Dana Road" />
    <tag k="addr:state" v="VT" />
    <tag k="ref:vcgi:esiteid" v="190421" />
  </node>
  <node id="-315" visible="true" lat="43.71553421" lon="-72.47748565">
    <tag k="addr:city" v="Pomfret" />
    <tag k="addr:housenumber" v="448" />
    <tag k="addr:street" v="Bunker Hill Road" />
    <tag k="addr:state" v="VT" />
    <tag k="ref:vcgi:esiteid" v="190422" />
  </node>
  <node id="-316" visible="true" lat="43.71539688" lon="-72.4770584">
    <tag k="addr:city" v="Pomfret" />
    <tag k="addr:housenumber" v="457" />
    <tag k="addr:street" v="Bunker Hill Road" />
    <tag k="addr:state" v="VT" />
    <tag k="ref:vcgi:esiteid" v="190423" />
  </node>
  <node id="-317" visible="true" lat="43.71520314" lon="-72.4466399">
    <tag k="addr:city" v="Pomfret" />
    <tag k="addr:housenumber" v="954" />
    <tag k="addr:street" v="Sugarhouse Road" />
    <tag k="addr:state" v="VT" />
    <tag k="ref:vcgi:esiteid" v="190424" />
  </node>
  <node id="-318" visible="true" lat="43.71487976" lon="-72.53525485">
    <tag k="addr:city" v="Pomfret" />
    <tag k="addr:housenumber" v="1435" />
    <tag k="addr:street" v="Webster Hill Road" />
    <tag k="addr:state" v="VT" />
    <tag k="ref:vcgi:esiteid" v="190425" />
  </node>
  <node id="-319" visible="true" lat="43.7147348" lon="-72.53749026">
    <tag k="addr:city" v="Pomfret" />
    <tag k="addr:housenumber" v="1487" />
    <tag k="addr:street" v="Webster Hill Road" />
    <tag k="addr:state" v="VT" />
    <tag k="ref:vcgi:esiteid" v="190426" />
  </node>
  <node id="-320" visible="true" lat="43.71456909" lon="-72.47857665">
    <tag k="addr:city" v="Pomfret" />
    <tag k="addr:housenumber" v="516" />
    <tag k="addr:street" v="Bunker Hill Road" />
    <tag k="addr:state" v="VT" />
    <tag k="ref:vcgi:esiteid" v="190427" />
  </node>
  <node id="-321" visible="true" lat="43.71430587" lon="-72.47666931">
    <tag k="addr:city" v="Pomfret" />
    <tag k="addr:housenumber" v="543" />
    <tag k="addr:street" v="Bunker Hill Road" />
    <tag k="addr:state" v="VT" />
    <tag k="ref:vcgi:esiteid" v="190428" />
  </node>
  <node id="-322" visible="true" lat="43.71428848" lon="-72.53633822">
    <tag k="addr:city" v="Pomfret" />
    <tag k="addr:housenumber" v="1485" />
    <tag k="addr:street" v="Webster Hill Road" />
    <tag k="addr:state" v="VT" />
    <tag k="ref:vcgi:esiteid" v="190429" />
  </node>
  <node id="-323" visible="true" lat="43.71421219" lon="-72.53299655">
    <tag k="addr:city" v="Pomfret" />
    <tag k="addr:housenumber" v="1319" />
    <tag k="addr:street" v="Webster Hill Road" />
    <tag k="addr:state" v="VT" />
    <tag k="ref:vcgi:esiteid" v="190430" />
  </node>
  <node id="-324" visible="true" lat="43.713871" lon="-72.47684478">
    <tag k="addr:city" v="Pomfret" />
    <tag k="addr:housenumber" v="565" />
    <tag k="addr:street" v="Bunker Hill Road" />
    <tag k="addr:state" v="VT" />
    <tag k="ref:vcgi:esiteid" v="190431" />
  </node>
  <node id="-325" visible="true" lat="43.71341362" lon="-72.5086667">
    <tag k="addr:city" v="Pomfret" />
    <tag k="addr:housenumber" v="5869" />
    <tag k="addr:street" v="Pomfret Road" />
    <tag k="addr:state" v="VT" />
    <tag k="ref:vcgi:esiteid" v="190432" />
  </node>
  <node id="-326" visible="true" lat="43.71325683" lon="-72.48156738">
    <tag k="addr:city" v="Pomfret" />
    <tag k="addr:housenumber" v="290" />
    <tag k="addr:street" v="Stonewall Road" />
    <tag k="addr:state" v="VT" />
    <tag k="ref:vcgi:esiteid" v="190433" />
  </node>
  <node id="-327" visible="true" lat="43.71326581" lon="-72.50774306">
    <tag k="addr:city" v="Pomfret" />
    <tag k="addr:housenumber" v="1344" />
    <tag k="addr:street" v="Galaxy Hill Road" />
    <tag k="addr:state" v="VT" />
    <tag k="ref:vcgi:esiteid" v="190434" />
  </node>
  <node id="-328" visible="true" lat="43.71287536" lon="-72.47821044">
    <tag k="addr:city" v="Pomfret" />
    <tag k="addr:housenumber" v="712" />
    <tag k="addr:street" v="Bunker Hill Road" />
    <tag k="addr:state" v="VT" />
    <tag k="ref:vcgi:esiteid" v="190435" />
  </node>
  <node id="-329" visible="true" lat="43.71221938" lon="-72.4956927">
    <tag k="addr:city" v="Pomfret" />
    <tag k="addr:housenumber" v="760" />
    <tag k="addr:street" v="Dana Road" />
    <tag k="addr:state" v="VT" />
    <tag k="ref:vcgi:esiteid" v="190436" />
  </node>
  <node id="-330" visible="true" lat="43.71102142" lon="-72.47916412">
    <tag k="addr:city" v="Pomfret" />
    <tag k="addr:housenumber" v="790" />
    <tag k="addr:street" v="Bunker Hill Road" />
    <tag k="addr:state" v="VT" />
    <tag k="ref:vcgi:esiteid" v="190437" />
  </node>
  <node id="-331" visible="true" lat="43.71093259" lon="-72.50653841">
    <tag k="addr:city" v="Pomfret" />
    <tag k="addr:housenumber" v="1162" />
    <tag k="addr:street" v="Galaxy Hill Road" />
    <tag k="addr:state" v="VT" />
    <tag k="ref:vcgi:esiteid" v="190438" />
  </node>
  <node id="-332" visible="true" lat="43.71021652" lon="-72.55226898">
    <tag k="addr:city" v="Pomfret" />
    <tag k="addr:housenumber" v="2395" />
    <tag k="addr:street" v="Wild Apple Road" />
    <tag k="addr:state" v="VT" />
    <tag k="ref:vcgi:esiteid" v="190439" />
  </node>
  <node id="-333" visible="true" lat="43.71018532" lon="-72.51613947">
    <tag k="addr:city" v="Pomfret" />
    <tag k="addr:housenumber" v="213" />
    <tag k="addr:street" v="Johnson Road" />
    <tag k="addr:state" v="VT" />
    <tag k="ref:vcgi:esiteid" v="190440" />
  </node>
  <node id="-334" visible="true" lat="43.7096138" lon="-72.48706054">
    <tag k="addr:city" v="Pomfret" />
    <tag k="addr:housenumber" v="882" />
    <tag k="addr:street" v="Old Kings Highway" />
    <tag k="addr:state" v="VT" />
    <tag k="ref:vcgi:esiteid" v="190441" />
  </node>
  <node id="-335" visible="true" lat="43.70891952" lon="-72.49192047">
    <tag k="addr:city" v="Pomfret" />
    <tag k="addr:housenumber" v="935" />
    <tag k="addr:street" v="Dana Road" />
    <tag k="addr:state" v="VT" />
    <tag k="ref:vcgi:esiteid" v="190442" />
  </node>
  <node id="-336" visible="true" lat="43.708889" lon="-72.43726348">
    <tag k="addr:city" v="Pomfret" />
    <tag k="addr:housenumber" v="437" />
    <tag k="addr:street" v="Graves Road" />
    <tag k="addr:state" v="VT" />
    <tag k="ref:vcgi:esiteid" v="190443" />
  </node>
  <node id="-337" visible="true" lat="43.70866472" lon="-72.43907202">
    <tag k="addr:city" v="Pomfret" />
    <tag k="addr:housenumber" v="600" />
    <tag k="addr:street" v="Graves Road" />
    <tag k="addr:state" v="VT" />
    <tag k="ref:vcgi:esiteid" v="190444" />
  </node>
  <node id="-338" visible="true" lat="43.70846176" lon="-72.52699279">
    <tag k="addr:city" v="Pomfret" />
    <tag k="addr:housenumber" v="756" />
    <tag k="addr:street" v="Webster Hill Road" />
    <tag k="addr:state" v="VT" />
    <tag k="ref:vcgi:esiteid" v="190445" />
  </node>
  <node id="-339" visible="true" lat="43.70750961" lon="-72.44054099">
    <tag k="addr:city" v="Pomfret" />
    <tag k="addr:housenumber" v="627" />
    <tag k="addr:street" v="Graves Road" />
    <tag k="addr:state" v="VT" />
    <tag k="ref:vcgi:esiteid" v="190446" />
  </node>
  <node id="-340" visible="true" lat="43.70833938" lon="-72.49937566">
    <tag k="addr:city" v="Pomfret" />
    <tag k="addr:housenumber" v="355" />
    <tag k="addr:street" v="Old Kings Highway" />
    <tag k="addr:state" v="VT" />
    <tag k="ref:vcgi:esiteid" v="190447" />
  </node>
  <node id="-341" visible="true" lat="43.70827492" lon="-72.46596692">
    <tag k="addr:city" v="Pomfret" />
    <tag k="addr:housenumber" v="1915" />
    <tag k="addr:street" v="Bunker Hill Road" />
    <tag k="addr:state" v="VT" />
    <tag k="ref:vcgi:esiteid" v="190448" />
  </node>
  <node id="-342" visible="true" lat="43.7075386" lon="-72.55110931">
    <tag k="addr:city" v="Pomfret" />
    <tag k="addr:housenumber" v="2230" />
    <tag k="addr:street" v="Wild Apple Road" />
    <tag k="addr:state" v="VT" />
    <tag k="ref:vcgi:esiteid" v="190449" />
  </node>
  <node id="-343" visible="true" lat="43.7074996" lon="-72.50014253">
    <tag k="addr:city" v="Pomfret" />
    <tag k="addr:housenumber" v="308" />
    <tag k="addr:street" v="Old Kings Highway" />
    <tag k="addr:state" v="VT" />
    <tag k="ref:vcgi:esiteid" v="190450" />
  </node>
  <node id="-344" visible="true" lat="43.70733261" lon="-72.55169677">
    <tag k="addr:city" v="Pomfret" />
    <tag k="addr:housenumber" v="2222" />
    <tag k="addr:street" v="Wild Apple Road" />
    <tag k="addr:state" v="VT" />
    <tag k="ref:vcgi:esiteid" v="190451" />
  </node>
  <node id="-345" visible="true" lat="43.7073776" lon="-72.4788274">
    <tag k="addr:city" v="Pomfret" />
    <tag k="addr:housenumber" v="1456" />
    <tag k="addr:street" v="Old Kings Highway" />
    <tag k="addr:state" v="VT" />
    <tag k="ref:vcgi:esiteid" v="190452" />
  </node>
  <node id="-346" visible="true" lat="43.70732752" lon="-72.46322786">
    <tag k="addr:city" v="Pomfret" />
    <tag k="addr:housenumber" v="2020" />
    <tag k="addr:street" v="Bunker Hill Road" />
    <tag k="addr:state" v="VT" />
    <tag k="ref:vcgi:esiteid" v="190453" />
  </node>
  <node id="-347" visible="true" lat="43.70713424" lon="-72.46076965">
    <tag k="addr:city" v="Pomfret" />
    <tag k="addr:housenumber" v="2202" />
    <tag k="addr:street" v="Bunker Hill Road" />
    <tag k="addr:state" v="VT" />
    <tag k="ref:vcgi:esiteid" v="190454" />
  </node>
  <node id="-348" visible="true" lat="43.70684251" lon="-72.43924838">
    <tag k="addr:city" v="Pomfret" />
    <tag k="addr:housenumber" v="615" />
    <tag k="addr:street" v="Graves Road" />
    <tag k="addr:state" v="VT" />
    <tag k="ref:vcgi:esiteid" v="190455" />
  </node>
  <node id="-349" visible="true" lat="43.70704926" lon="-72.51167898">
    <tag k="addr:city" v="Pomfret" />
    <tag k="addr:housenumber" v="5408" />
    <tag k="addr:street" v="Pomfret Road" />
    <tag k="addr:state" v="VT" />
    <tag k="ref:vcgi:esiteid" v="190456" />
  </node>
  <node id="-350" visible="true" lat="43.70699881" lon="-72.52418407">
    <tag k="addr:city" v="Pomfret" />
    <tag k="addr:housenumber" v="550" />
    <tag k="addr:street" v="Webster Hill Road" />
    <tag k="addr:state" v="VT" />
    <tag k="ref:vcgi:esiteid" v="190457" />
  </node>
  <node id="-351" visible="true" lat="43.70629882" lon="-72.439888">
    <tag k="addr:city" v="Pomfret" />
    <tag k="addr:housenumber" v="617" />
    <tag k="addr:street" v="Graves Road" />
    <tag k="addr:state" v="VT" />
    <tag k="ref:vcgi:esiteid" v="190458" />
  </node>
  <node id="-352" visible="true" lat="43.70629889" lon="-72.47993394">
    <tag k="addr:city" v="Pomfret" />
    <tag k="addr:housenumber" v="1435" />
    <tag k="addr:street" v="Old Kings Highway" />
    <tag k="addr:state" v="VT" />
    <tag k="ref:vcgi:esiteid" v="190459" />
  </node>
  <node id="-353" visible="true" lat="43.70563305" lon="-72.52863688">
    <tag k="addr:city" v="Pomfret" />
    <tag k="addr:housenumber" v="131" />
    <tag k="addr:street" v="Bernard Road" />
    <tag k="addr:state" v="VT" />
    <tag k="ref:vcgi:esiteid" v="190460" />
  </node>
  <node id="-354" visible="true" lat="43.70579853" lon="-72.51511743">
    <tag k="addr:city" v="Pomfret" />
    <tag k="addr:housenumber" v="5233" />
    <tag k="addr:street" v="Pomfret Road" />
    <tag k="addr:state" v="VT" />
    <tag k="ref:vcgi:esiteid" v="190461" />
  </node>
  <node id="-355" visible="true" lat="43.70589662" lon="-72.48086022">
    <tag k="addr:city" v="Pomfret" />
    <tag k="addr:housenumber" v="1437" />
    <tag k="addr:street" v="Old Kings Highway" />
    <tag k="addr:state" v="VT" />
    <tag k="ref:vcgi:esiteid" v="190462" />
  </node>
  <node id="-356" visible="true" lat="43.70544319" lon="-72.51471656">
    <tag k="addr:city" v="Pomfret" />
    <tag k="addr:housenumber" v="5218" />
    <tag k="addr:street" v="Pomfret Road" />
    <tag k="addr:state" v="VT" />
    <tag k="ref:vcgi:esiteid" v="190463" />
  </node>
  <node id="-357" visible="true" lat="43.7050576" lon="-72.51490776">
    <tag k="addr:city" v="Pomfret" />
    <tag k="addr:housenumber" v="5188" />
    <tag k="addr:street" v="Pomfret Road" />
    <tag k="addr:state" v="VT" />
    <tag k="ref:vcgi:esiteid" v="190464" />
  </node>
  <node id="-358" visible="true" lat="43.70500768" lon="-72.507346">
    <tag k="addr:city" v="Pomfret" />
    <tag k="addr:housenumber" v="675" />
    <tag k="addr:street" v="Galaxy Hill Road" />
    <tag k="addr:state" v="VT" />
    <tag k="ref:vcgi:esiteid" v="190465" />
  </node>
  <node id="-359" visible="true" lat="43.70487797" lon="-72.51617261">
    <tag k="addr:city" v="Pomfret" />
    <tag k="addr:housenumber" v="26" />
    <tag k="addr:street" v="Webster Hill Road" />
    <tag k="addr:state" v="VT" />
    <tag k="ref:vcgi:esiteid" v="190466" />
  </node>
  <node id="-360" visible="true" lat="43.70461441" lon="-72.525741">
    <tag k="addr:city" v="Pomfret" />
    <tag k="addr:housenumber" v="591" />
    <tag k="addr:street" v="Labounty Road" />
    <tag k="addr:state" v="VT" />
    <tag k="ref:vcgi:esiteid" v="190468" />
  </node>
  <node id="-361" visible="true" lat="43.70476187" lon="-72.44958759">
    <tag k="addr:city" v="Pomfret" />
    <tag k="addr:housenumber" v="897" />
    <tag k="addr:street" v="Clay Road" />
    <tag k="addr:state" v="VT" />
    <tag k="ref:vcgi:esiteid" v="190469" />
  </node>
  <node id="-362" visible="true" lat="43.70456961" lon="-72.51552342">
    <tag k="addr:city" v="Pomfret" />
    <tag k="addr:housenumber" v="5142" />
    <tag k="addr:street" v="Pomfret Road" />
    <tag k="addr:state" v="VT" />
    <tag k="ref:vcgi:esiteid" v="190470" />
  </node>
  <node id="-363" visible="true" lat="43.70446052" lon="-72.51056133">
    <tag k="addr:city" v="Pomfret" />
    <tag k="addr:housenumber" v="501" />
    <tag k="addr:street" v="Galaxy Hill Road" />
    <tag k="addr:state" v="VT" />
    <tag k="ref:vcgi:esiteid" v="190471" />
  </node>
  <node id="-364" visible="true" lat="43.70408469" lon="-72.52511528">
    <tag k="addr:city" v="Pomfret" />
    <tag k="addr:housenumber" v="589" />
    <tag k="addr:street" v="Labounty Road" />
    <tag k="addr:state" v="VT" />
    <tag k="ref:vcgi:esiteid" v="190472" />
  </node>
  <node id="-365" visible="true" lat="43.70408601" lon="-72.52150664">
    <tag k="addr:city" v="Pomfret" />
    <tag k="addr:housenumber" v="306" />
    <tag k="addr:street" v="Webster Hill Road" />
    <tag k="addr:state" v="VT" />
    <tag k="ref:vcgi:esiteid" v="190473" />
  </node>
  <node id="-366" visible="true" lat="43.70413672" lon="-72.52278731">
    <tag k="addr:city" v="Pomfret" />
    <tag k="addr:housenumber" v="405" />
    <tag k="addr:street" v="Webster Hill Road" />
    <tag k="addr:state" v="VT" />
    <tag k="ref:vcgi:esiteid" v="190474" />
  </node>
  <node id="-367" visible="true" lat="43.70408425" lon="-72.51740813">
    <tag k="addr:city" v="Pomfret" />
    <tag k="addr:housenumber" v="109" />
    <tag k="addr:street" v="Webster Hill Road" />
    <tag k="addr:state" v="VT" />
    <tag k="ref:vcgi:esiteid" v="190475" />
  </node>
  <node id="-368" visible="true" lat="43.70364547" lon="-72.44771519">
    <tag k="addr:city" v="Pomfret" />
    <tag k="addr:housenumber" v="898" />
    <tag k="addr:street" v="Clay Road" />
    <tag k="addr:state" v="VT" />
    <tag k="ref:vcgi:esiteid" v="190476" />
  </node>
  <node id="-369" visible="true" lat="43.70372859" lon="-72.51301279">
    <tag k="addr:city" v="Pomfret" />
    <tag k="addr:housenumber" v="381" />
    <tag k="addr:street" v="Galaxy Hill Road" />
    <tag k="addr:state" v="VT" />
    <tag k="ref:vcgi:esiteid" v="190477" />
  </node>
  <node id="-370" visible="true" lat="43.70319862" lon="-72.44680807">
    <tag k="addr:city" v="Pomfret" />
    <tag k="addr:housenumber" v="895" />
    <tag k="addr:street" v="Clay Road" />
    <tag k="addr:state" v="VT" />
    <tag k="ref:vcgi:esiteid" v="190478" />
  </node>
  <node id="-371" visible="true" lat="43.70356933" lon="-72.52152137">
    <tag k="addr:city" v="Pomfret" />
    <tag k="addr:housenumber" v="267" />
    <tag k="addr:street" v="Webster Hill Road" />
    <tag k="addr:state" v="VT" />
    <tag k="ref:vcgi:esiteid" v="190479" />
  </node>
  <node id="-372" visible="true" lat="43.7034539" lon="-72.50673323">
    <tag k="addr:city" v="Pomfret" />
    <tag k="addr:housenumber" v="734" />
    <tag k="addr:street" v="Galaxy Hill Road" />
    <tag k="addr:state" v="VT" />
    <tag k="ref:vcgi:esiteid" v="190480" />
  </node>
  <node id="-373" visible="true" lat="43.70331276" lon="-72.51010655">
    <tag k="addr:city" v="Pomfret" />
    <tag k="addr:housenumber" v="520" />
    <tag k="addr:street" v="Galaxy Hill Road" />
    <tag k="addr:state" v="VT" />
    <tag k="ref:vcgi:esiteid" v="190481" />
  </node>
  <node id="-374" visible="true" lat="43.70323884" lon="-72.45123216">
    <tag k="addr:city" v="Pomfret" />
    <tag k="addr:housenumber" v="899" />
    <tag k="addr:street" v="Clay Road" />
    <tag k="addr:state" v="VT" />
    <tag k="ref:vcgi:esiteid" v="190482" />
  </node>
  <node id="-375" visible="true" lat="43.70277404" lon="-72.5593338">
    <tag k="addr:city" v="Pomfret" />
    <tag k="addr:housenumber" v="1710" />
    <tag k="addr:street" v="Wild Apple Road" />
    <tag k="addr:state" v="VT" />
    <tag k="ref:vcgi:esiteid" v="190483" />
  </node>
  <node id="-376" visible="true" lat="43.70262697" lon="-72.54115137">
    <tag k="addr:city" v="Pomfret" />
    <tag k="addr:housenumber" v="1808" />
    <tag k="addr:street" v="Bartlett Brook Road" />
    <tag k="addr:state" v="VT" />
    <tag k="ref:vcgi:esiteid" v="190484" />
  </node>
  <node id="-377" visible="true" lat="43.7020749" lon="-72.50766756">
    <tag k="addr:city" v="Pomfret" />
    <tag k="addr:housenumber" v="172" />
    <tag k="addr:street" v="Cloudland Road" />
    <tag k="addr:state" v="VT" />
    <tag k="ref:vcgi:esiteid" v="190485" />
  </node>
  <node id="-378" visible="true" lat="43.70114105" lon="-72.52361541">
    <tag k="addr:city" v="Pomfret" />
    <tag k="addr:housenumber" v="353" />
    <tag k="addr:street" v="Labounty Road" />
    <tag k="addr:state" v="VT" />
    <tag k="ref:vcgi:esiteid" v="190487" />
  </node>
  <node id="-379" visible="true" lat="43.70089856" lon="-72.50649207">
    <tag k="addr:city" v="Pomfret" />
    <tag k="addr:housenumber" v="261" />
    <tag k="addr:street" v="Cloudland Road" />
    <tag k="addr:state" v="VT" />
    <tag k="ref:vcgi:esiteid" v="190488" />
  </node>
  <node id="-380" visible="true" lat="43.70137967" lon="-72.52172498">
    <tag k="addr:city" v="Pomfret" />
    <tag k="addr:housenumber" v="320" />
    <tag k="addr:street" v="Labounty Road" />
    <tag k="addr:state" v="VT" />
    <tag k="ref:vcgi:esiteid" v="190489" />
  </node>
  <node id="-381" visible="true" lat="43.70057296" lon="-72.47589874">
    <tag k="addr:city" v="Pomfret" />
    <tag k="addr:housenumber" v="477" />
    <tag k="addr:street" v="Thistle Hill Road" />
    <tag k="addr:state" v="VT" />
    <tag k="ref:vcgi:esiteid" v="190490" />
  </node>
  <node id="-382" visible="true" lat="43.70054227" lon="-72.51516827">
    <tag k="addr:city" v="Pomfret" />
    <tag k="addr:housenumber" v="216" />
    <tag k="addr:street" v="Galaxy Hill Road" />
    <tag k="addr:state" v="VT" />
    <tag k="ref:vcgi:esiteid" v="190491" />
  </node>
  <node id="-383" visible="true" lat="43.70004272" lon="-72.56245422">
    <tag k="addr:city" v="Pomfret" />
    <tag k="addr:housenumber" v="1415" />
    <tag k="addr:street" v="Wild Apple Road" />
    <tag k="addr:state" v="VT" />
    <tag k="ref:vcgi:esiteid" v="190492" />
  </node>
  <node id="-384" visible="true" lat="43.70008781" lon="-72.52141218">
    <tag k="addr:city" v="Pomfret" />
    <tag k="addr:housenumber" v="230" />
    <tag k="addr:street" v="Labounty Road" />
    <tag k="addr:state" v="VT" />
    <tag k="ref:vcgi:esiteid" v="190493" />
  </node>
  <node id="-385" visible="true" lat="43.6996994" lon="-72.51963806">
    <tag k="addr:city" v="Pomfret" />
    <tag k="addr:housenumber" v="4727" />
    <tag k="addr:street" v="Pomfret Road" />
    <tag k="addr:state" v="VT" />
    <tag k="ref:vcgi:esiteid" v="190494" />
  </node>
  <node id="-386" visible="true" lat="43.69940178" lon="-72.5405679">
    <tag k="addr:city" v="Pomfret" />
    <tag k="addr:housenumber" v="1631" />
    <tag k="addr:street" v="Bartlett Brook Road" />
    <tag k="addr:state" v="VT" />
    <tag k="ref:vcgi:esiteid" v="190495" />
  </node>
  <node id="-387" visible="true" lat="43.69904281" lon="-72.50607993">
    <tag k="addr:city" v="Pomfret" />
    <tag k="addr:housenumber" v="384" />
    <tag k="addr:street" v="Cloudland Road" />
    <tag k="addr:state" v="VT" />
    <tag k="ref:vcgi:esiteid" v="190496" />
  </node>
  <node id="-388" visible="true" lat="43.69856399" lon="-72.5200419">
    <tag k="addr:city" v="Pomfret" />
    <tag k="addr:housenumber" v="4663" />
    <tag k="addr:street" v="Pomfret Road" />
    <tag k="addr:state" v="VT" />
    <tag k="ref:vcgi:esiteid" v="190497" />
  </node>
  <node id="-389" visible="true" lat="43.69857666" lon="-72.54032741">
    <tag k="addr:city" v="Pomfret" />
    <tag k="addr:housenumber" v="1541" />
    <tag k="addr:street" v="Bartlett Brook Road" />
    <tag k="addr:state" v="VT" />
    <tag k="ref:vcgi:esiteid" v="190498" />
  </node>
  <node id="-390" visible="true" lat="43.6983205" lon="-72.53152759">
    <tag k="addr:city" v="Pomfret" />
    <tag k="addr:housenumber" v="530" />
    <tag k="addr:street" v="Tom White Hill" />
    <tag k="addr:state" v="VT" />
    <tag k="ref:vcgi:esiteid" v="190499" />
  </node>
  <node id="-391" visible="true" lat="43.69799419" lon="-72.52088861">
    <tag k="addr:city" v="Pomfret" />
    <tag k="addr:housenumber" v="100" />
    <tag k="addr:street" v="Labounty Road" />
    <tag k="addr:state" v="VT" />
    <tag k="ref:vcgi:esiteid" v="190500" />
  </node>
  <node id="-392" visible="true" lat="43.69760131" lon="-72.54547882">
    <tag k="addr:city" v="Pomfret" />
    <tag k="addr:housenumber" v="2263" />
    <tag k="addr:street" v="Bartlett Brook Road" />
    <tag k="addr:state" v="VT" />
    <tag k="ref:vcgi:esiteid" v="190501" />
  </node>
  <node id="-393" visible="true" lat="43.69737502" lon="-72.53722667">
    <tag k="addr:city" v="Pomfret" />
    <tag k="addr:housenumber" v="1466" />
    <tag k="addr:street" v="Bartlett Brook Road" />
    <tag k="addr:state" v="VT" />
    <tag k="ref:vcgi:esiteid" v="190502" />
  </node>
  <node id="-394" visible="true" lat="43.697231" lon="-72.54757809">
    <tag k="addr:city" v="Pomfret" />
    <tag k="addr:housenumber" v="2346" />
    <tag k="addr:street" v="Bartlett Brook Road" />
    <tag k="addr:state" v="VT" />
    <tag k="ref:vcgi:esiteid" v="190503" />
  </node>
  <node id="-395" visible="true" lat="43.69682693" lon="-72.56372833">
    <tag k="addr:city" v="Pomfret" />
    <tag k="addr:housenumber" v="1177" />
    <tag k="addr:street" v="Wild Apple Road" />
    <tag k="addr:state" v="VT" />
    <tag k="ref:vcgi:esiteid" v="190504" />
  </node>
  <node id="-396" visible="true" lat="43.69682082" lon="-72.53918072">
    <tag k="addr:city" v="Pomfret" />
    <tag k="addr:housenumber" v="1399" />
    <tag k="addr:street" v="Bartlett Brook Road" />
    <tag k="addr:state" v="VT" />
    <tag k="ref:vcgi:esiteid" v="190505" />
  </node>
  <node id="-397" visible="true" lat="43.69652944" lon="-72.54844966">
    <tag k="addr:city" v="Pomfret" />
    <tag k="addr:housenumber" v="2438" />
    <tag k="addr:street" v="Bartlett Brook Road" />
    <tag k="addr:state" v="VT" />
    <tag k="ref:vcgi:esiteid" v="190506" />
  </node>
  <node id="-398" visible="true" lat="43.69622151" lon="-72.51927623">
    <tag k="addr:city" v="Pomfret" />
    <tag k="addr:housenumber" v="4496" />
    <tag k="addr:street" v="Pomfret Road" />
    <tag k="addr:state" v="VT" />
    <tag k="ref:vcgi:esiteid" v="190507" />
  </node>
  <node id="-399" visible="true" lat="43.69612724" lon="-72.54201912">
    <tag k="addr:city" v="Pomfret" />
    <tag k="addr:housenumber" v="1449" />
    <tag k="addr:street" v="Bartlett Brook Road" />
    <tag k="addr:state" v="VT" />
    <tag k="ref:vcgi:esiteid" v="190508" />
  </node>
  <node id="-400" visible="true" lat="43.69561415" lon="-72.53892035">
    <tag k="addr:city" v="Pomfret" />
    <tag k="addr:housenumber" v="1351" />
    <tag k="addr:street" v="Bartlett Brook Road" />
    <tag k="addr:state" v="VT" />
    <tag k="ref:vcgi:esiteid" v="190509" />
  </node>
  <node id="-401" visible="true" lat="43.69524765" lon="-72.50073242">
    <tag k="addr:city" v="Pomfret" />
    <tag k="addr:housenumber" v="757" />
    <tag k="addr:street" v="Cloudland Road" />
    <tag k="addr:state" v="VT" />
    <tag k="ref:vcgi:esiteid" v="190510" />
  </node>
  <node id="-402" visible="true" lat="43.69449171" lon="-72.53590204">
    <tag k="addr:city" v="Pomfret" />
    <tag k="addr:housenumber" v="1126" />
    <tag k="addr:street" v="Bartlett Brook Road" />
    <tag k="addr:state" v="VT" />
    <tag k="ref:vcgi:esiteid" v="190511" />
  </node>
  <node id="-403" visible="true" lat="43.69404983" lon="-72.53733062">
    <tag k="addr:city" v="Pomfret" />
    <tag k="addr:housenumber" v="1227" />
    <tag k="addr:street" v="Bartlett Brook Road" />
    <tag k="addr:state" v="VT" />
    <tag k="ref:vcgi:esiteid" v="190512" />
  </node>
  <node id="-404" visible="true" lat="43.69408294" lon="-72.52435956">
    <tag k="addr:city" v="Pomfret" />
    <tag k="addr:housenumber" v="4203" />
    <tag k="addr:street" v="Pomfret Road" />
    <tag k="addr:state" v="VT" />
    <tag k="ref:vcgi:esiteid" v="190513" />
  </node>
  <node id="-405" visible="true" lat="43.69385278" lon="-72.50183869">
    <tag k="addr:city" v="Pomfret" />
    <tag k="addr:housenumber" v="870" />
    <tag k="addr:street" v="Cloudland Road" />
    <tag k="addr:state" v="VT" />
    <tag k="ref:vcgi:esiteid" v="190514" />
  </node>
  <node id="-406" visible="true" lat="43.69359207" lon="-72.56283569">
    <tag k="addr:city" v="Pomfret" />
    <tag k="addr:housenumber" v="972" />
    <tag k="addr:street" v="Wild Apple Road" />
    <tag k="addr:state" v="VT" />
    <tag k="ref:vcgi:esiteid" v="190515" />
  </node>
  <node id="-407" visible="true" lat="43.69286239" lon="-72.51925983">
    <tag k="addr:city" v="Pomfret" />
    <tag k="addr:housenumber" v="4314" />
    <tag k="addr:street" v="Pomfret Road" />
    <tag k="addr:state" v="VT" />
    <tag k="ref:vcgi:esiteid" v="190516" />
  </node>
  <node id="-408" visible="true" lat="43.69286615" lon="-72.53553674">
    <tag k="addr:city" v="Pomfret" />
    <tag k="addr:housenumber" v="1082" />
    <tag k="addr:street" v="Bartlett Brook Road" />
    <tag k="addr:state" v="VT" />
    <tag k="ref:vcgi:esiteid" v="190517" />
  </node>
  <node id="-409" visible="true" lat="43.69223171" lon="-72.53087311">
    <tag k="addr:city" v="Pomfret" />
    <tag k="addr:housenumber" v="740" />
    <tag k="addr:street" v="Tom White Hill" />
    <tag k="addr:state" v="VT" />
    <tag k="ref:vcgi:esiteid" v="190518" />
  </node>
  <node id="-410" visible="true" lat="43.69201983" lon="-72.51918044">
    <tag k="addr:city" v="Pomfret" />
    <tag k="addr:housenumber" v="4204" />
    <tag k="addr:street" v="Pomfret Road" />
    <tag k="addr:state" v="VT" />
    <tag k="ref:vcgi:esiteid" v="190519" />
  </node>
  <node id="-411" visible="true" lat="43.69173812" lon="-72.4573059">
    <tag k="addr:city" v="Pomfret" />
    <tag k="addr:housenumber" v="236" />
    <tag k="addr:street" v="Old Farm Drive" />
    <tag k="addr:state" v="VT" />
    <tag k="ref:vcgi:esiteid" v="190520" />
  </node>
  <node id="-412" visible="true" lat="43.69166459" lon="-72.51861873">
    <tag k="addr:city" v="Pomfret" />
    <tag k="addr:housenumber" v="4120" />
    <tag k="addr:street" v="Pomfret Road" />
    <tag k="addr:state" v="VT" />
    <tag k="ref:vcgi:esiteid" v="190521" />
  </node>
  <node id="-413" visible="true" lat="43.69115829" lon="-72.54836273">
    <tag k="addr:city" v="Pomfret" />
    <tag k="addr:housenumber" v="2773" />
    <tag k="addr:street" v="Bartlett Brook Road" />
    <tag k="addr:state" v="VT" />
    <tag k="ref:vcgi:esiteid" v="190522" />
  </node>
  <node id="-414" visible="true" lat="43.69090446" lon="-72.53581189">
    <tag k="addr:city" v="Pomfret" />
    <tag k="addr:housenumber" v="19" />
    <tag k="addr:street" v="Dinsmoor Road" />
    <tag k="addr:state" v="VT" />
    <tag k="ref:vcgi:esiteid" v="190523" />
  </node>
  <node id="-415" visible="true" lat="43.6906553" lon="-72.52858692">
    <tag k="addr:city" v="Pomfret" />
    <tag k="addr:housenumber" v="741" />
    <tag k="addr:street" v="Tom White Hill" />
    <tag k="addr:state" v="VT" />
    <tag k="ref:vcgi:esiteid" v="190524" />
  </node>
  <node id="-416" visible="true" lat="43.69076491" lon="-72.50020933">
    <tag k="addr:city" v="Pomfret" />
    <tag k="addr:housenumber" v="1101" />
    <tag k="addr:street" v="Cloudland Road" />
    <tag k="addr:state" v="VT" />
    <tag k="ref:vcgi:esiteid" v="190525" />
  </node>
  <node id="-417" visible="true" lat="43.69000006" lon="-72.52014504">
    <tag k="addr:city" v="Pomfret" />
    <tag k="addr:housenumber" v="4070" />
    <tag k="addr:street" v="Pomfret Road" />
    <tag k="addr:state" v="VT" />
    <tag k="ref:vcgi:esiteid" v="190526" />
  </node>
  <node id="-418" visible="true" lat="43.69077831" lon="-72.57139429">
    <tag k="addr:city" v="Pomfret" />
    <tag k="addr:housenumber" v="2564" />
    <tag k="addr:street" v="Stage Road" />
    <tag k="addr:state" v="VT" />
    <tag k="ref:vcgi:esiteid" v="190527" />
  </node>
  <node id="-419" visible="true" lat="43.68965148" lon="-72.52027893">
    <tag k="addr:city" v="Pomfret" />
    <tag k="addr:housenumber" v="4056" />
    <tag k="addr:street" v="Pomfret Road" />
    <tag k="addr:state" v="VT" />
    <tag k="ref:vcgi:esiteid" v="190528" />
  </node>
  <node id="-420" visible="true" lat="43.6897993" lon="-72.53233702">
    <tag k="addr:city" v="Pomfret" />
    <tag k="addr:housenumber" v="195" />
    <tag k="addr:street" v="Dinsmoor Road" />
    <tag k="addr:state" v="VT" />
    <tag k="ref:vcgi:esiteid" v="190529" />
  </node>
  <node id="-421" visible="true" lat="43.68968538" lon="-72.53588385">
    <tag k="addr:city" v="Pomfret" />
    <tag k="addr:housenumber" v="838" />
    <tag k="addr:street" v="Bartlett Brook Road" />
    <tag k="addr:state" v="VT" />
    <tag k="ref:vcgi:esiteid" v="190530" />
  </node>
  <node id="-422" visible="true" lat="43.6891365" lon="-72.56408691">
    <tag k="addr:city" v="Pomfret" />
    <tag k="addr:housenumber" v="825" />
    <tag k="addr:street" v="Wild Apple Road" />
    <tag k="addr:state" v="VT" />
    <tag k="ref:vcgi:esiteid" v="190531" />
  </node>
  <node id="-423" visible="true" lat="43.68900994" lon="-72.53275309">
    <tag k="addr:city" v="Pomfret" />
    <tag k="addr:housenumber" v="200" />
    <tag k="addr:street" v="Dinsmoor Road" />
    <tag k="addr:state" v="VT" />
    <tag k="ref:vcgi:esiteid" v="190532" />
  </node>
  <node id="-424" visible="true" lat="43.68898558" lon="-72.56161963">
    <tag k="addr:city" v="Pomfret" />
    <tag k="addr:housenumber" v="612" />
    <tag k="addr:street" v="Wild Apple Road" />
    <tag k="addr:state" v="VT" />
    <tag k="ref:vcgi:esiteid" v="190533" />
  </node>
  <node id="-425" visible="true" lat="43.68801413" lon="-72.5332977">
    <tag k="addr:city" v="Pomfret" />
    <tag k="addr:housenumber" v="87" />
    <tag k="addr:street" v="Spooner Road" />
    <tag k="addr:state" v="VT" />
    <tag k="ref:vcgi:esiteid" v="190534" />
  </node>
  <node id="-426" visible="true" lat="43.6879157" lon="-72.53477678">
    <tag k="addr:city" v="Pomfret" />
    <tag k="addr:housenumber" v="86" />
    <tag k="addr:street" v="Spooner Road" />
    <tag k="addr:state" v="VT" />
    <tag k="ref:vcgi:esiteid" v="190535" />
  </node>
  <node id="-427" visible="true" lat="43.6875651" lon="-72.53267803">
    <tag k="addr:city" v="Pomfret" />
    <tag k="addr:housenumber" v="184" />
    <tag k="addr:street" v="Spooner Road" />
    <tag k="addr:state" v="VT" />
    <tag k="ref:vcgi:esiteid" v="190536" />
  </node>
  <node id="-428" visible="true" lat="43.68719863" lon="-72.55158233">
    <tag k="addr:city" v="Pomfret" />
    <tag k="addr:housenumber" v="2916" />
    <tag k="addr:street" v="Bartlett Brook Road" />
    <tag k="addr:state" v="VT" />
    <tag k="ref:vcgi:esiteid" v="190537" />
  </node>
  <node id="-429" visible="true" lat="43.6872139" lon="-72.53322601">
    <tag k="addr:city" v="Pomfret" />
    <tag k="addr:housenumber" v="152" />
    <tag k="addr:street" v="Spooner Road" />
    <tag k="addr:state" v="VT" />
    <tag k="ref:vcgi:esiteid" v="190538" />
  </node>
  <node id="-430" visible="true" lat="43.68724521" lon="-72.53123839">
    <tag k="addr:city" v="Pomfret" />
    <tag k="addr:housenumber" v="154" />
    <tag k="addr:street" v="Spooner Road" />
    <tag k="addr:state" v="VT" />
    <tag k="ref:vcgi:esiteid" v="190539" />
  </node>
  <node id="-431" visible="true" lat="43.68692389" lon="-72.52081236">
    <tag k="addr:city" v="Pomfret" />
    <tag k="addr:housenumber" v="3862" />
    <tag k="addr:street" v="Pomfret Road" />
    <tag k="addr:state" v="VT" />
    <tag k="ref:vcgi:esiteid" v="190540" />
  </node>
  <node id="-432" visible="true" lat="43.68697484" lon="-72.5350377">
    <tag k="addr:city" v="Pomfret" />
    <tag k="addr:housenumber" v="674" />
    <tag k="addr:street" v="Bartlett Brook Road" />
    <tag k="addr:state" v="VT" />
    <tag k="ref:vcgi:esiteid" v="190541" />
  </node>
  <node id="-433" visible="true" lat="43.68675231" lon="-72.55193328">
    <tag k="addr:city" v="Pomfret" />
    <tag k="addr:housenumber" v="2918" />
    <tag k="addr:street" v="Bartlett Brook Road" />
    <tag k="addr:state" v="VT" />
    <tag k="ref:vcgi:esiteid" v="190542" />
  </node>
  <node id="-434" visible="true" lat="43.6868975" lon="-72.44939958">
    <tag k="addr:city" v="Pomfret" />
    <tag k="addr:housenumber" v="1705" />
    <tag k="addr:street" v="Joe Ranger Road" />
    <tag k="addr:state" v="VT" />
    <tag k="ref:vcgi:esiteid" v="190543" />
  </node>
  <node id="-435" visible="true" lat="43.68657029" lon="-72.44982203">
    <tag k="addr:city" v="Pomfret" />
    <tag k="addr:housenumber" v="1700" />
    <tag k="addr:street" v="Joe Ranger Road" />
    <tag k="addr:state" v="VT" />
    <tag k="ref:vcgi:esiteid" v="190544" />
  </node>
  <node id="-436" visible="true" lat="43.6863327" lon="-72.5710678">
    <tag k="addr:city" v="Pomfret" />
    <tag k="addr:housenumber" v="2277" />
    <tag k="addr:street" v="Stage Road" />
    <tag k="addr:state" v="VT" />
    <tag k="ref:vcgi:esiteid" v="190545" />
  </node>
  <node id="-437" visible="true" lat="43.68609373" lon="-72.56915555">
    <tag k="addr:city" v="Pomfret" />
    <tag k="addr:housenumber" v="2262" />
    <tag k="addr:street" v="Stage Road" />
    <tag k="addr:state" v="VT" />
    <tag k="ref:vcgi:esiteid" v="190546" />
  </node>
  <node id="-438" visible="true" lat="43.68601074" lon="-72.49982284">
    <tag k="addr:city" v="Pomfret" />
    <tag k="addr:housenumber" v="1419" />
    <tag k="addr:street" v="Cloudland Road" />
    <tag k="addr:state" v="VT" />
    <tag k="ref:vcgi:esiteid" v="190547" />
  </node>
  <node id="-439" visible="true" lat="43.68577575" lon="-72.53437042">
    <tag k="addr:city" v="Pomfret" />
    <tag k="addr:housenumber" v="576" />
    <tag k="addr:street" v="Bartlett Brook Road" />
    <tag k="addr:state" v="VT" />
    <tag k="ref:vcgi:esiteid" v="190548" />
  </node>
  <node id="-440" visible="true" lat="43.68547058" lon="-72.54532623">
    <tag k="addr:city" v="Pomfret" />
    <tag k="addr:housenumber" v="968" />
    <tag k="addr:street" v="Totman Hill Road" />
    <tag k="addr:state" v="VT" />
    <tag k="ref:vcgi:esiteid" v="190549" />
  </node>
  <node id="-441" visible="true" lat="43.68523788" lon="-72.53507995">
    <tag k="addr:city" v="Pomfret" />
    <tag k="addr:housenumber" v="563" />
    <tag k="addr:street" v="Bartlett Brook Road" />
    <tag k="addr:state" v="VT" />
    <tag k="ref:vcgi:esiteid" v="190550" />
  </node>
  <node id="-442" visible="true" lat="43.6850624" lon="-72.56763458">
    <tag k="addr:city" v="Pomfret" />
    <tag k="addr:housenumber" v="198" />
    <tag k="addr:street" v="Lois Lane" />
    <tag k="addr:state" v="VT" />
    <tag k="ref:vcgi:esiteid" v="190551" />
  </node>
  <node id="-443" visible="true" lat="43.68386417" lon="-72.52147131">
    <tag k="addr:city" v="Pomfret" />
    <tag k="addr:housenumber" v="75" />
    <tag k="addr:street" v="Rudge Road" />
    <tag k="addr:state" v="VT" />
    <tag k="ref:vcgi:esiteid" v="190552" />
  </node>
  <node id="-444" visible="true" lat="43.68363648" lon="-72.52444685">
    <tag k="addr:city" v="Pomfret" />
    <tag k="addr:housenumber" v="3533" />
    <tag k="addr:street" v="Pomfret Road" />
    <tag k="addr:state" v="VT" />
    <tag k="ref:vcgi:esiteid" v="190553" />
  </node>
  <node id="-445" visible="true" lat="43.68312835" lon="-72.56785583">
    <tag k="addr:city" v="Pomfret" />
    <tag k="addr:housenumber" v="63" />
    <tag k="addr:street" v="Lois Lane" />
    <tag k="addr:state" v="VT" />
    <tag k="ref:vcgi:esiteid" v="190554" />
  </node>
  <node id="-446" visible="true" lat="43.68299484" lon="-72.53436279">
    <tag k="addr:city" v="Pomfret" />
    <tag k="addr:housenumber" v="385" />
    <tag k="addr:street" v="Bartlett Brook Road" />
    <tag k="addr:state" v="VT" />
    <tag k="ref:vcgi:esiteid" v="190555" />
  </node>
  <node id="-447" visible="true" lat="43.68286132" lon="-72.53505706">
    <tag k="addr:city" v="Pomfret" />
    <tag k="addr:housenumber" v="495" />
    <tag k="addr:street" v="Bartlett Brook Road" />
    <tag k="addr:state" v="VT" />
    <tag k="ref:vcgi:esiteid" v="190556" />
  </node>
  <node id="-448" visible="true" lat="43.68274566" lon="-72.56609291">
    <tag k="addr:city" v="Pomfret" />
    <tag k="addr:housenumber" v="1884" />
    <tag k="addr:street" v="Stage Road" />
    <tag k="addr:state" v="VT" />
    <tag k="ref:vcgi:esiteid" v="190557" />
  </node>
  <node id="-449" visible="true" lat="43.68259406" lon="-72.56482397">
    <tag k="addr:city" v="Pomfret" />
    <tag k="addr:housenumber" v="145" />
    <tag k="addr:street" v="Wild Apple Road" />
    <tag k="addr:state" v="VT" />
    <tag k="ref:vcgi:esiteid" v="190558" />
  </node>
  <node id="-450" visible="true" lat="43.68235402" lon="-72.52318718">
    <tag k="addr:city" v="Pomfret" />
    <tag k="addr:housenumber" v="76" />
    <tag k="addr:street" v="Rudge Road" />
    <tag k="addr:state" v="VT" />
    <tag k="ref:vcgi:esiteid" v="190559" />
  </node>
  <node id="-451" visible="true" lat="43.6824839" lon="-72.51837623">
    <tag k="addr:city" v="Pomfret" />
    <tag k="addr:housenumber" v="265" />
    <tag k="addr:street" v="Rudge Road" />
    <tag k="addr:state" v="VT" />
    <tag k="ref:vcgi:esiteid" v="190560" />
  </node>
  <node id="-452" visible="true" lat="43.68205669" lon="-72.51817037">
    <tag k="addr:city" v="Pomfret" />
    <tag k="addr:housenumber" v="289" />
    <tag k="addr:street" v="Rudge Road" />
    <tag k="addr:state" v="VT" />
    <tag k="ref:vcgi:esiteid" v="190561" />
  </node>
  <node id="-453" visible="true" lat="43.68182256" lon="-72.56433352">
    <tag k="addr:city" v="Pomfret" />
    <tag k="addr:housenumber" v="90" />
    <tag k="addr:street" v="Wild Apple Road" />
    <tag k="addr:state" v="VT" />
    <tag k="ref:vcgi:esiteid" v="190562" />
  </node>
  <node id="-454" visible="true" lat="43.68171623" lon="-72.52396523">
    <tag k="addr:city" v="Pomfret" />
    <tag k="addr:housenumber" v="3516" />
    <tag k="addr:street" v="Pomfret Road" />
    <tag k="addr:state" v="VT" />
    <tag k="ref:vcgi:esiteid" v="190563" />
  </node>
  <node id="-455" visible="true" lat="43.6809024" lon="-72.56439737">
    <tag k="addr:city" v="Pomfret" />
    <tag k="addr:housenumber" v="1770" />
    <tag k="addr:street" v="Stage Road" />
    <tag k="addr:state" v="VT" />
    <tag k="ref:vcgi:esiteid" v="190564" />
  </node>
  <node id="-456" visible="true" lat="43.6808841" lon="-72.53424033">
    <tag k="addr:city" v="Pomfret" />
    <tag k="addr:housenumber" v="201" />
    <tag k="addr:street" v="Bartlett Brook Road" />
    <tag k="addr:state" v="VT" />
    <tag k="ref:vcgi:esiteid" v="190565" />
  </node>
  <node id="-457" visible="true" lat="43.68204822" lon="-72.56538323">
    <tag k="addr:city" v="Pomfret" />
    <tag k="addr:housenumber" v="107" />
    <tag k="addr:street" v="Wild Apple Road" />
    <tag k="addr:state" v="VT" />
    <tag k="ref:vcgi:esiteid" v="190566" />
  </node>
  <node id="-458" visible="true" lat="43.68025677" lon="-72.52221607">
    <tag k="addr:city" v="Pomfret" />
    <tag k="addr:housenumber" v="176" />
    <tag k="addr:street" v="Rudge Road" />
    <tag k="addr:state" v="VT" />
    <tag k="ref:vcgi:esiteid" v="190567" />
  </node>
  <node id="-459" visible="true" lat="43.67923736" lon="-72.54263305">
    <tag k="addr:city" v="Pomfret" />
    <tag k="addr:housenumber" v="799" />
    <tag k="addr:street" v="Totman Hill Road" />
    <tag k="addr:state" v="VT" />
    <tag k="ref:vcgi:esiteid" v="190568" />
  </node>
  <node id="-460" visible="true" lat="43.67890242" lon="-72.5295022">
    <tag k="addr:city" v="Pomfret" />
    <tag k="addr:housenumber" v="3136" />
    <tag k="addr:street" v="Pomfret Road" />
    <tag k="addr:state" v="VT" />
    <tag k="ref:vcgi:esiteid" v="190569" />
  </node>
  <node id="-461" visible="true" lat="43.67803955" lon="-72.49401855">
    <tag k="addr:city" v="Pomfret" />
    <tag k="addr:housenumber" v="1128" />
    <tag k="addr:street" v="Sessions Meadows" />
    <tag k="addr:state" v="VT" />
    <tag k="ref:vcgi:esiteid" v="190570" />
  </node>
  <node id="-462" visible="true" lat="43.67753982" lon="-72.49105834">
    <tag k="addr:city" v="Pomfret" />
    <tag k="addr:housenumber" v="268" />
    <tag k="addr:street" v="Birch Tree Circle" />
    <tag k="addr:state" v="VT" />
    <tag k="ref:vcgi:esiteid" v="190571" />
  </node>
  <node id="-463" visible="true" lat="43.67742156" lon="-72.4936676">
    <tag k="addr:city" v="Pomfret" />
    <tag k="addr:housenumber" v="1092" />
    <tag k="addr:street" v="Sessions Meadows" />
    <tag k="addr:state" v="VT" />
    <tag k="ref:vcgi:esiteid" v="190572" />
  </node>
  <node id="-464" visible="true" lat="43.67751954" lon="-72.56228019">
    <tag k="addr:city" v="Pomfret" />
    <tag k="addr:housenumber" v="1513" />
    <tag k="addr:street" v="Stage Road" />
    <tag k="addr:state" v="VT" />
    <tag k="ref:vcgi:esiteid" v="190573" />
  </node>
  <node id="-465" visible="true" lat="43.67673874" lon="-72.49345398">
    <tag k="addr:city" v="Pomfret" />
    <tag k="addr:housenumber" v="420" />
    <tag k="addr:street" v="Birch Tree Circle" />
    <tag k="addr:state" v="VT" />
    <tag k="ref:vcgi:esiteid" v="190574" />
  </node>
  <node id="-466" visible="true" lat="43.67668533" lon="-72.54227447">
    <tag k="addr:city" v="Pomfret" />
    <tag k="addr:housenumber" v="617" />
    <tag k="addr:street" v="Totman Hill Road" />
    <tag k="addr:state" v="VT" />
    <tag k="ref:vcgi:esiteid" v="190575" />
  </node>
  <node id="-467" visible="true" lat="43.67641907" lon="-72.49380032">
    <tag k="addr:city" v="Pomfret" />
    <tag k="addr:housenumber" v="1016" />
    <tag k="addr:street" v="Sessions Meadows" />
    <tag k="addr:state" v="VT" />
    <tag k="ref:vcgi:esiteid" v="190576" />
  </node>
  <node id="-468" visible="true" lat="43.67614444" lon="-72.4907826">
    <tag k="addr:city" v="Pomfret" />
    <tag k="addr:housenumber" v="172" />
    <tag k="addr:street" v="Birch Tree Circle" />
    <tag k="addr:state" v="VT" />
    <tag k="ref:vcgi:esiteid" v="190577" />
  </node>
  <node id="-469" visible="true" lat="43.67572021" lon="-72.53068542">
    <tag k="addr:city" v="Pomfret" />
    <tag k="addr:housenumber" v="2912" />
    <tag k="addr:street" v="Pomfret Road" />
    <tag k="addr:state" v="VT" />
    <tag k="ref:vcgi:esiteid" v="190578" />
  </node>
  <node id="-470" visible="true" lat="43.67597621" lon="-72.49328703">
    <tag k="addr:city" v="Pomfret" />
    <tag k="addr:housenumber" v="932" />
    <tag k="addr:street" v="Sessions Meadows" />
    <tag k="addr:state" v="VT" />
    <tag k="ref:vcgi:esiteid" v="190579" />
  </node>
  <node id="-471" visible="true" lat="43.6757284" lon="-72.49434315">
    <tag k="addr:city" v="Pomfret" />
    <tag k="addr:housenumber" v="957" />
    <tag k="addr:street" v="Sessions Meadows" />
    <tag k="addr:state" v="VT" />
    <tag k="ref:vcgi:esiteid" v="190580" />
  </node>
  <node id="-472" visible="true" lat="43.67531919" lon="-72.50580597">
    <tag k="addr:city" v="Pomfret" />
    <tag k="addr:housenumber" v="2208" />
    <tag k="addr:street" v="Cloudland Road" />
    <tag k="addr:state" v="VT" />
    <tag k="ref:vcgi:esiteid" v="190581" />
  </node>
  <node id="-473" visible="true" lat="43.67533772" lon="-72.49115613">
    <tag k="addr:city" v="Pomfret" />
    <tag k="addr:housenumber" v="142" />
    <tag k="addr:street" v="Birch Tree Circle" />
    <tag k="addr:state" v="VT" />
    <tag k="ref:vcgi:esiteid" v="190582" />
  </node>
  <node id="-474" visible="true" lat="43.67514188" lon="-72.57927992">
    <tag k="addr:city" v="Pomfret" />
    <tag k="addr:housenumber" v="1350" />
    <tag k="addr:street" v="Vermont Route 12" />
    <tag k="addr:state" v="VT" />
    <tag k="ref:vcgi:esiteid" v="190583" />
  </node>
  <node id="-475" visible="true" lat="43.67482986" lon="-72.55792586">
    <tag k="addr:city" v="Pomfret" />
    <tag k="addr:housenumber" v="1234" />
    <tag k="addr:street" v="Stage Road" />
    <tag k="addr:state" v="VT" />
    <tag k="ref:vcgi:esiteid" v="190584" />
  </node>
  <node id="-476" visible="true" lat="43.67455162" lon="-72.55849829">
    <tag k="addr:city" v="Pomfret" />
    <tag k="addr:housenumber" v="1245" />
    <tag k="addr:street" v="Stage Road" />
    <tag k="addr:state" v="VT" />
    <tag k="ref:vcgi:esiteid" v="190585" />
  </node>
  <node id="-477" visible="true" lat="43.67353041" lon="-72.55728083">
    <tag k="addr:city" v="Pomfret" />
    <tag k="addr:housenumber" v="1147" />
    <tag k="addr:street" v="Stage Road" />
    <tag k="addr:state" v="VT" />
    <tag k="ref:vcgi:esiteid" v="190586" />
  </node>
  <node id="-478" visible="true" lat="43.6729761" lon="-72.55536185">
    <tag k="addr:city" v="Pomfret" />
    <tag k="addr:housenumber" v="1052" />
    <tag k="addr:street" v="Stage Road" />
    <tag k="addr:state" v="VT" />
    <tag k="ref:vcgi:esiteid" v="190587" />
  </node>
  <node id="-479" visible="true" lat="43.67296546" lon="-72.49036179">
    <tag k="addr:city" v="Pomfret" />
    <tag k="addr:housenumber" v="740" />
    <tag k="addr:street" v="Sessions Meadows" />
    <tag k="addr:state" v="VT" />
    <tag k="ref:vcgi:esiteid" v="190588" />
  </node>
  <node id="-480" visible="true" lat="43.67091974" lon="-72.55164595">
    <tag k="addr:city" v="Pomfret" />
    <tag k="addr:housenumber" v="806" />
    <tag k="addr:street" v="Stage Road" />
    <tag k="addr:state" v="VT" />
    <tag k="ref:vcgi:esiteid" v="190589" />
  </node>
  <node id="-481" visible="true" lat="43.67070855" lon="-72.55033986">
    <tag k="addr:city" v="Pomfret" />
    <tag k="addr:housenumber" v="738" />
    <tag k="addr:street" v="Stage Road" />
    <tag k="addr:state" v="VT" />
    <tag k="ref:vcgi:esiteid" v="190590" />
  </node>
  <node id="-482" visible="true" lat="43.67007446" lon="-72.51242065">
    <tag k="addr:city" v="Pomfret" />
    <tag k="addr:housenumber" v="225" />
    <tag k="addr:street" v="Orchard Hill" />
    <tag k="addr:state" v="VT" />
    <tag k="ref:vcgi:esiteid" v="190591" />
  </node>
  <node id="-483" visible="true" lat="43.66997299" lon="-72.54896388">
    <tag k="addr:city" v="Pomfret" />
    <tag k="addr:housenumber" v="664" />
    <tag k="addr:street" v="Stage Road" />
    <tag k="addr:state" v="VT" />
    <tag k="ref:vcgi:esiteid" v="190592" />
  </node>
  <node id="-484" visible="true" lat="43.66990452" lon="-72.5207719">
    <tag k="addr:city" v="Pomfret" />
    <tag k="addr:housenumber" v="499" />
    <tag k="addr:street" v="Maxham Road" />
    <tag k="addr:state" v="VT" />
    <tag k="ref:vcgi:esiteid" v="190593" />
  </node>
  <node id="-485" visible="true" lat="43.66950685" lon="-72.53648263">
    <tag k="addr:city" v="Pomfret" />
    <tag k="addr:housenumber" v="2381" />
    <tag k="addr:street" v="Pomfret Road" />
    <tag k="addr:state" v="VT" />
    <tag k="ref:vcgi:esiteid" v="190594" />
  </node>
  <node id="-486" visible="true" lat="43.6691238" lon="-72.53762492">
    <tag k="addr:city" v="Pomfret" />
    <tag k="addr:housenumber" v="17" />
    <tag k="addr:street" v="Totman Hill Road" />
    <tag k="addr:state" v="VT" />
    <tag k="ref:vcgi:esiteid" v="190596" />
  </node>
  <node id="-487" visible="true" lat="43.66900052" lon="-72.48805233">
    <tag k="addr:city" v="Pomfret" />
    <tag k="addr:housenumber" v="426" />
    <tag k="addr:street" v="Sessions Meadows" />
    <tag k="addr:state" v="VT" />
    <tag k="ref:vcgi:esiteid" v="190597" />
  </node>
  <node id="-488" visible="true" lat="43.66879742" lon="-72.52006949">
    <tag k="addr:city" v="Pomfret" />
    <tag k="addr:housenumber" v="345" />
    <tag k="addr:street" v="Maxham Road" />
    <tag k="addr:state" v="VT" />
    <tag k="ref:vcgi:esiteid" v="190598" />
  </node>
  <node id="-489" visible="true" lat="43.6687293" lon="-72.5447813">
    <tag k="addr:city" v="Pomfret" />
    <tag k="addr:housenumber" v="400" />
    <tag k="addr:street" v="Stage Road" />
    <tag k="addr:state" v="VT" />
    <tag k="ref:vcgi:esiteid" v="190599" />
  </node>
  <node id="-490" visible="true" lat="43.66862369" lon="-72.54854521">
    <tag k="addr:city" v="Pomfret" />
    <tag k="addr:housenumber" v="589" />
    <tag k="addr:street" v="Stage Road" />
    <tag k="addr:state" v="VT" />
    <tag k="ref:vcgi:esiteid" v="190600" />
  </node>
  <node id="-491" visible="true" lat="43.66867317" lon="-72.54643444">
    <tag k="addr:city" v="Pomfret" />
    <tag k="addr:housenumber" v="504" />
    <tag k="addr:street" v="Stage Road" />
    <tag k="addr:state" v="VT" />
    <tag k="ref:vcgi:esiteid" v="190601" />
  </node>
  <node id="-492" visible="true" lat="43.66846114" lon="-72.53675894">
    <tag k="addr:city" v="Pomfret" />
    <tag k="addr:housenumber" v="2286" />
    <tag k="addr:street" v="Pomfret Road" />
    <tag k="addr:state" v="VT" />
    <tag k="ref:vcgi:esiteid" v="190602" />
  </node>
  <node id="-493" visible="true" lat="43.66829017" lon="-72.54594792">
    <tag k="addr:city" v="Pomfret" />
    <tag k="addr:housenumber" v="474" />
    <tag k="addr:street" v="Stage Road" />
    <tag k="addr:state" v="VT" />
    <tag k="ref:vcgi:esiteid" v="190603" />
  </node>
  <node id="-494" visible="true" lat="43.66797589" lon="-72.57623292">
    <tag k="addr:city" v="Pomfret" />
    <tag k="addr:housenumber" v="860" />
    <tag k="addr:street" v="Vermont Route 12" />
    <tag k="addr:state" v="VT" />
    <tag k="ref:vcgi:esiteid" v="190604" />
  </node>
  <node id="-495" visible="true" lat="43.66803822" lon="-72.54553791">
    <tag k="addr:city" v="Pomfret" />
    <tag k="addr:housenumber" v="442" />
    <tag k="addr:street" v="Stage Road" />
    <tag k="addr:state" v="VT" />
    <tag k="ref:vcgi:esiteid" v="190605" />
  </node>
  <node id="-496" visible="true" lat="43.66783904" lon="-72.53430175">
    <tag k="addr:city" v="Pomfret" />
    <tag k="addr:housenumber" v="2568" />
    <tag k="addr:street" v="Pomfret Road" />
    <tag k="addr:state" v="VT" />
    <tag k="ref:vcgi:esiteid" v="190606" />
  </node>
  <node id="-497" visible="true" lat="43.66824895" lon="-72.51725556">
    <tag k="addr:city" v="Pomfret" />
    <tag k="addr:housenumber" v="272" />
    <tag k="addr:street" v="Maxham Road" />
    <tag k="addr:state" v="VT" />
    <tag k="ref:vcgi:esiteid" v="190607" />
  </node>
  <node id="-498" visible="true" lat="43.66784982" lon="-72.53815891">
    <tag k="addr:city" v="Pomfret" />
    <tag k="addr:housenumber" v="2239" />
    <tag k="addr:street" v="Pomfret Road" />
    <tag k="addr:state" v="VT" />
    <tag k="ref:vcgi:esiteid" v="190608" />
  </node>
  <node id="-499" visible="true" lat="43.66779634" lon="-72.54517653">
    <tag k="addr:city" v="Pomfret" />
    <tag k="addr:housenumber" v="420" />
    <tag k="addr:street" v="Stage Road" />
    <tag k="addr:state" v="VT" />
    <tag k="ref:vcgi:esiteid" v="190609" />
  </node>
  <node id="-500" visible="true" lat="43.66754033" lon="-72.54770918">
    <tag k="addr:city" v="Pomfret" />
    <tag k="addr:housenumber" v="529" />
    <tag k="addr:street" v="Stage Road" />
    <tag k="addr:state" v="VT" />
    <tag k="ref:vcgi:esiteid" v="190610" />
  </node>
  <node id="-501" visible="true" lat="43.66760157" lon="-72.50440752">
    <tag k="addr:city" v="Pomfret" />
    <tag k="addr:housenumber" v="2763" />
    <tag k="addr:street" v="Cloudland Road" />
    <tag k="addr:state" v="VT" />
    <tag k="ref:vcgi:esiteid" v="190611" />
  </node>
  <node id="-502" visible="true" lat="43.66730344" lon="-72.51580965">
    <tag k="addr:city" v="Pomfret" />
    <tag k="addr:housenumber" v="99" />
    <tag k="addr:street" v="Orchard Hill" />
    <tag k="addr:state" v="VT" />
    <tag k="ref:vcgi:esiteid" v="190612" />
  </node>
  <node id="-503" visible="true" lat="43.66737302" lon="-72.54461359">
    <tag k="addr:city" v="Pomfret" />
    <tag k="addr:housenumber" v="384" />
    <tag k="addr:street" v="Stage Road" />
    <tag k="addr:state" v="VT" />
    <tag k="ref:vcgi:esiteid" v="190613" />
  </node>
  <node id="-504" visible="true" lat="43.66715574" lon="-72.57629396">
    <tag k="addr:city" v="Pomfret" />
    <tag k="addr:housenumber" v="811" />
    <tag k="addr:street" v="Vermont Route 12" />
    <tag k="addr:state" v="VT" />
    <tag k="ref:vcgi:esiteid" v="190614" />
  </node>
  <node id="-505" visible="true" lat="43.66735222" lon="-72.48162893">
    <tag k="addr:city" v="Pomfret" />
    <tag k="addr:housenumber" v="191" />
    <tag k="addr:street" v="Granite Ledge" />
    <tag k="addr:state" v="VT" />
    <tag k="ref:vcgi:esiteid" v="190615" />
  </node>
  <node id="-506" visible="true" lat="43.66710614" lon="-72.50090027">
    <tag k="addr:city" v="Pomfret" />
    <tag k="addr:housenumber" v="2769" />
    <tag k="addr:street" v="Cloudland Road" />
    <tag k="addr:state" v="VT" />
    <tag k="ref:vcgi:esiteid" v="190616" />
  </node>
  <node id="-507" visible="true" lat="43.66674409" lon="-72.51309156">
    <tag k="addr:city" v="Pomfret" />
    <tag k="addr:housenumber" v="334" />
    <tag k="addr:street" v="Orchard Hill" />
    <tag k="addr:state" v="VT" />
    <tag k="ref:vcgi:esiteid" v="190617" />
  </node>
  <node id="-508" visible="true" lat="43.6664382" lon="-72.55170509">
    <tag k="addr:city" v="Pomfret" />
    <tag k="addr:housenumber" v="597" />
    <tag k="addr:street" v="Stage Road" />
    <tag k="addr:state" v="VT" />
    <tag k="ref:vcgi:esiteid" v="190618" />
  </node>
  <node id="-509" visible="true" lat="43.66595451" lon="-72.48822372">
    <tag k="addr:city" v="Pomfret" />
    <tag k="addr:housenumber" v="199" />
    <tag k="addr:street" v="Sessions Meadows" />
    <tag k="addr:state" v="VT" />
    <tag k="ref:vcgi:esiteid" v="190619" />
  </node>
  <node id="-510" visible="true" lat="43.66578507" lon="-72.54160628">
    <tag k="addr:city" v="Pomfret" />
    <tag k="addr:housenumber" v="172" />
    <tag k="addr:street" v="Stage Road" />
    <tag k="addr:state" v="VT" />
    <tag k="ref:vcgi:esiteid" v="190620" />
  </node>
  <node id="-511" visible="true" lat="43.66569895" lon="-72.5389338">
    <tag k="addr:city" v="Pomfret" />
    <tag k="addr:housenumber" v="2095" />
    <tag k="addr:street" v="Pomfret Road" />
    <tag k="addr:state" v="VT" />
    <tag k="ref:vcgi:esiteid" v="190621" />
  </node>
  <node id="-512" visible="true" lat="43.66459568" lon="-72.48609302">
    <tag k="addr:city" v="Pomfret" />
    <tag k="addr:housenumber" v="187" />
    <tag k="addr:street" v="Sessions Meadows" />
    <tag k="addr:state" v="VT" />
    <tag k="ref:vcgi:esiteid" v="190622" />
  </node>
  <node id="-513" visible="true" lat="43.66548898" lon="-72.51641506">
    <tag k="addr:city" v="Pomfret" />
    <tag k="addr:housenumber" v="22" />
    <tag k="addr:street" v="Orchard Hill" />
    <tag k="addr:state" v="VT" />
    <tag k="ref:vcgi:esiteid" v="190623" />
  </node>
  <node id="-514" visible="true" lat="43.66541495" lon="-72.54485395">
    <tag k="addr:city" v="Pomfret" />
    <tag k="addr:housenumber" v="231" />
    <tag k="addr:street" v="Stage Road" />
    <tag k="addr:state" v="VT" />
    <tag k="ref:vcgi:esiteid" v="190624" />
  </node>
  <node id="-515" visible="true" lat="43.66539023" lon="-72.5403811">
    <tag k="addr:city" v="Pomfret" />
    <tag k="addr:housenumber" v="104" />
    <tag k="addr:street" v="Stage Road" />
    <tag k="addr:state" v="VT" />
    <tag k="ref:vcgi:esiteid" v="190625" />
  </node>
  <node id="-516" visible="true" lat="43.66535336" lon="-72.53994315">
    <tag k="addr:city" v="Pomfret" />
    <tag k="addr:housenumber" v="84" />
    <tag k="addr:street" v="Stage Road" />
    <tag k="addr:state" v="VT" />
    <tag k="ref:vcgi:esiteid" v="190626" />
  </node>
  <node id="-517" visible="true" lat="43.66511749" lon="-72.53927877">
    <tag k="addr:city" v="Pomfret" />
    <tag k="addr:housenumber" v="15" />
    <tag k="addr:street" v="Library Street" />
    <tag k="addr:state" v="VT" />
    <tag k="ref:vcgi:esiteid" v="190627" />
  </node>
  <node id="-518" visible="true" lat="43.66518999" lon="-72.53978983">
    <tag k="addr:city" v="Pomfret" />
    <tag k="addr:housenumber" v="72" />
    <tag k="addr:street" v="Stage Road" />
    <tag k="addr:state" v="VT" />
    <tag k="ref:vcgi:esiteid" v="190628" />
  </node>
  <node id="-519" visible="true" lat="43.6651667" lon="-72.54117526">
    <tag k="addr:city" v="Pomfret" />
    <tag k="addr:housenumber" v="139" />
    <tag k="addr:street" v="Stage Road" />
    <tag k="addr:state" v="VT" />
    <tag k="ref:vcgi:esiteid" v="190629" />
  </node>
  <node id="-520" visible="true" lat="43.66513399" lon="-72.53962693">
    <tag k="addr:city" v="Pomfret" />
    <tag k="addr:housenumber" v="68" />
    <tag k="addr:street" v="Stage Road" />
    <tag k="addr:state" v="VT" />
    <tag k="ref:vcgi:esiteid" v="190630" />
  </node>
  <node id="-521" visible="true" lat="43.66492425" lon="-72.54031849">
    <tag k="addr:city" v="Pomfret" />
    <tag k="addr:housenumber" v="93" />
    <tag k="addr:street" v="Stage Road" />
    <tag k="addr:state" v="VT" />
    <tag k="ref:vcgi:esiteid" v="190631" />
  </node>
  <node id="-522" visible="true" lat="43.66505621" lon="-72.54322737">
    <tag k="addr:city" v="Pomfret" />
    <tag k="addr:housenumber" v="247" />
    <tag k="addr:street" v="Stage Road" />
    <tag k="addr:state" v="VT" />
    <tag k="ref:vcgi:esiteid" v="190632" />
  </node>
  <node id="-523" visible="true" lat="43.66485495" lon="-72.5387793">
    <tag k="addr:city" v="Pomfret" />
    <tag k="addr:housenumber" v="2035" />
    <tag k="addr:street" v="Pomfret Road" />
    <tag k="addr:state" v="VT" />
    <tag k="ref:vcgi:esiteid" v="190633" />
  </node>
  <node id="-524" visible="true" lat="43.66485783" lon="-72.54388417">
    <tag k="addr:city" v="Pomfret" />
    <tag k="addr:housenumber" v="273" />
    <tag k="addr:street" v="Stage Road" />
    <tag k="addr:state" v="VT" />
    <tag k="ref:vcgi:esiteid" v="190634" />
  </node>
  <node id="-525" visible="true" lat="43.66480804" lon="-72.53982827">
    <tag k="addr:city" v="Pomfret" />
    <tag k="addr:housenumber" v="65" />
    <tag k="addr:street" v="Stage Road" />
    <tag k="addr:state" v="VT" />
    <tag k="ref:vcgi:esiteid" v="190635" />
  </node>
  <node id="-526" visible="true" lat="43.66457209" lon="-72.53938378">
    <tag k="addr:city" v="Pomfret" />
    <tag k="addr:housenumber" v="43" />
    <tag k="addr:street" v="Stage Road" />
    <tag k="addr:state" v="VT" />
    <tag k="ref:vcgi:esiteid" v="190636" />
  </node>
  <node id="-527" visible="true" lat="43.6648309" lon="-72.4672376">
    <tag k="addr:city" v="Pomfret" />
    <tag k="addr:housenumber" v="591" />
    <tag k="addr:street" v="Sugarbush Farm Road" />
    <tag k="addr:state" v="VT" />
    <tag k="ref:vcgi:esiteid" v="190637" />
  </node>
  <node id="-528" visible="true" lat="43.6646824" lon="-72.53845814">
    <tag k="addr:city" v="Pomfret" />
    <tag k="addr:housenumber" v="2020" />
    <tag k="addr:street" v="Pomfret Road" />
    <tag k="addr:state" v="VT" />
    <tag k="ref:vcgi:esiteid" v="190638" />
  </node>
  <node id="-529" visible="true" lat="43.66443431" lon="-72.51765567">
    <tag k="addr:city" v="Pomfret" />
    <tag k="addr:housenumber" v="37" />
    <tag k="addr:street" v="Maxham Road" />
    <tag k="addr:state" v="VT" />
    <tag k="ref:vcgi:esiteid" v="190639" />
  </node>
  <node id="-530" visible="true" lat="43.66423368" lon="-72.48166656">
    <tag k="addr:city" v="Pomfret" />
    <tag k="addr:housenumber" v="2656" />
    <tag k="addr:street" v="High Pastures Road" />
    <tag k="addr:state" v="VT" />
    <tag k="ref:vcgi:esiteid" v="190640" />
  </node>
  <node id="-531" visible="true" lat="43.66406249" lon="-72.57291412">
    <tag k="addr:city" v="Pomfret" />
    <tag k="addr:housenumber" v="670" />
    <tag k="addr:street" v="Vermont Route 12" />
    <tag k="addr:state" v="VT" />
    <tag k="ref:vcgi:esiteid" v="190641" />
  </node>
  <node id="-532" visible="true" lat="43.66402299" lon="-72.51394431">
    <tag k="addr:city" v="Pomfret" />
    <tag k="addr:housenumber" v="1075" />
    <tag k="addr:street" v="Barber Hill Road" />
    <tag k="addr:state" v="VT" />
    <tag k="ref:vcgi:esiteid" v="190642" />
  </node>
  <node id="-533" visible="true" lat="43.66402776" lon="-72.53878748">
    <tag k="addr:city" v="Pomfret" />
    <tag k="addr:housenumber" v="1975" />
    <tag k="addr:street" v="Pomfret Road" />
    <tag k="addr:state" v="VT" />
    <tag k="ref:vcgi:esiteid" v="190643" />
  </node>
  <node id="-534" visible="true" lat="43.66365439" lon="-72.51743107">
    <tag k="addr:city" v="Pomfret" />
    <tag k="addr:housenumber" v="898" />
    <tag k="addr:street" v="Barber Hill Road" />
    <tag k="addr:state" v="VT" />
    <tag k="ref:vcgi:esiteid" v="190644" />
  </node>
  <node id="-535" visible="true" lat="43.66339081" lon="-72.53835875">
    <tag k="addr:city" v="Pomfret" />
    <tag k="addr:housenumber" v="1933" />
    <tag k="addr:street" v="Pomfret Road" />
    <tag k="addr:state" v="VT" />
    <tag k="ref:vcgi:esiteid" v="190645" />
  </node>
  <node id="-536" visible="true" lat="43.6632155" lon="-72.51453253">
    <tag k="addr:city" v="Pomfret" />
    <tag k="addr:housenumber" v="1088" />
    <tag k="addr:street" v="Barber Hill Road" />
    <tag k="addr:state" v="VT" />
    <tag k="ref:vcgi:esiteid" v="190646" />
  </node>
  <node id="-537" visible="true" lat="43.66307067" lon="-72.53817749">
    <tag k="addr:city" v="Pomfret" />
    <tag k="addr:housenumber" v="1917" />
    <tag k="addr:street" v="Pomfret Road" />
    <tag k="addr:state" v="VT" />
    <tag k="ref:vcgi:esiteid" v="190647" />
  </node>
  <node id="-538" visible="true" lat="43.66293653" lon="-72.51647555">
    <tag k="addr:city" v="Pomfret" />
    <tag k="addr:housenumber" v="922" />
    <tag k="addr:street" v="Barber Hill Road" />
    <tag k="addr:state" v="VT" />
    <tag k="ref:vcgi:esiteid" v="190648" />
  </node>
  <node id="-539" visible="true" lat="43.66265469" lon="-72.5372689">
    <tag k="addr:city" v="Pomfret" />
    <tag k="addr:housenumber" v="1854" />
    <tag k="addr:street" v="Pomfret Road" />
    <tag k="addr:state" v="VT" />
    <tag k="ref:vcgi:esiteid" v="190649" />
  </node>
  <node id="-540" visible="true" lat="43.66251504" lon="-72.53773847">
    <tag k="addr:city" v="Pomfret" />
    <tag k="addr:housenumber" v="1869" />
    <tag k="addr:street" v="Pomfret Road" />
    <tag k="addr:state" v="VT" />
    <tag k="ref:vcgi:esiteid" v="190650" />
  </node>
  <node id="-541" visible="true" lat="43.66251259" lon="-72.57268882">
    <tag k="addr:city" v="Pomfret" />
    <tag k="addr:housenumber" v="338" />
    <tag k="addr:street" v="Vermont Route 12" />
    <tag k="addr:state" v="VT" />
    <tag k="ref:vcgi:esiteid" v="190651" />
  </node>
  <node id="-542" visible="true" lat="43.66248306" lon="-72.53624192">
    <tag k="addr:city" v="Pomfret" />
    <tag k="addr:housenumber" v="1806" />
    <tag k="addr:street" v="Pomfret Road" />
    <tag k="addr:state" v="VT" />
    <tag k="ref:vcgi:esiteid" v="190652" />
  </node>
  <node id="-543" visible="true" lat="43.66240203" lon="-72.53744079">
    <tag k="addr:city" v="Pomfret" />
    <tag k="addr:housenumber" v="1857" />
    <tag k="addr:street" v="Pomfret Road" />
    <tag k="addr:state" v="VT" />
    <tag k="ref:vcgi:esiteid" v="190653" />
  </node>
  <node id="-544" visible="true" lat="43.66235841" lon="-72.50605775">
    <tag k="addr:city" v="Pomfret" />
    <tag k="addr:housenumber" v="3173" />
    <tag k="addr:street" v="Cloudland Road" />
    <tag k="addr:state" v="VT" />
    <tag k="ref:vcgi:esiteid" v="190654" />
  </node>
  <node id="-545" visible="true" lat="43.66238876" lon="-72.52137476">
    <tag k="addr:city" v="Pomfret" />
    <tag k="addr:housenumber" v="659" />
    <tag k="addr:street" v="Barber Hill Road" />
    <tag k="addr:state" v="VT" />
    <tag k="ref:vcgi:esiteid" v="190655" />
  </node>
  <node id="-546" visible="true" lat="43.66257592" lon="-72.47923319">
    <tag k="addr:city" v="Pomfret" />
    <tag k="addr:housenumber" v="2460" />
    <tag k="addr:street" v="High Pastures Road" />
    <tag k="addr:state" v="VT" />
    <tag k="ref:vcgi:esiteid" v="190656" />
  </node>
  <node id="-547" visible="true" lat="43.66212252" lon="-72.5370247">
    <tag k="addr:city" v="Pomfret" />
    <tag k="addr:housenumber" v="1827" />
    <tag k="addr:street" v="Pomfret Road" />
    <tag k="addr:state" v="VT" />
    <tag k="ref:vcgi:esiteid" v="190657" />
  </node>
  <node id="-548" visible="true" lat="43.66184264" lon="-72.57087692">
    <tag k="addr:city" v="Pomfret" />
    <tag k="addr:housenumber" v="322" />
    <tag k="addr:street" v="Vermont Route 12" />
    <tag k="addr:state" v="VT" />
    <tag k="ref:vcgi:esiteid" v="190658" />
  </node>
  <node id="-549" visible="true" lat="43.66156555" lon="-72.50791906">
    <tag k="addr:city" v="Pomfret" />
    <tag k="addr:housenumber" v="3207" />
    <tag k="addr:street" v="Cloudland Road" />
    <tag k="addr:state" v="VT" />
    <tag k="ref:vcgi:esiteid" v="190659" />
  </node>
  <node id="-550" visible="true" lat="43.6611564" lon="-72.53400961">
    <tag k="addr:city" v="Pomfret" />
    <tag k="addr:housenumber" v="1606" />
    <tag k="addr:street" v="Pomfret Road" />
    <tag k="addr:state" v="VT" />
    <tag k="ref:vcgi:esiteid" v="190660" />
  </node>
  <node id="-551" visible="true" lat="43.66100995" lon="-72.51291014">
    <tag k="addr:city" v="Pomfret" />
    <tag k="addr:housenumber" v="1178" />
    <tag k="addr:street" v="Barber Hill Road" />
    <tag k="addr:state" v="VT" />
    <tag k="ref:vcgi:esiteid" v="190661" />
  </node>
  <node id="-552" visible="true" lat="43.66076592" lon="-72.50939402">
    <tag k="addr:city" v="Pomfret" />
    <tag k="addr:housenumber" v="3268" />
    <tag k="addr:street" v="Cloudland Road" />
    <tag k="addr:state" v="VT" />
    <tag k="ref:vcgi:esiteid" v="190662" />
  </node>
  <node id="-553" visible="true" lat="43.6606825" lon="-72.52424963">
    <tag k="addr:city" v="Pomfret" />
    <tag k="addr:housenumber" v="391" />
    <tag k="addr:street" v="Barber Hill Road" />
    <tag k="addr:state" v="VT" />
    <tag k="ref:vcgi:esiteid" v="190663" />
  </node>
  <node id="-554" visible="true" lat="43.66064453" lon="-72.46926896">
    <tag k="addr:city" v="Pomfret" />
    <tag k="addr:housenumber" v="241" />
    <tag k="addr:street" v="Sugarbush Farm Road" />
    <tag k="addr:state" v="VT" />
    <tag k="ref:vcgi:esiteid" v="190664" />
  </node>
  <node id="-555" visible="true" lat="43.66062905" lon="-72.5254687">
    <tag k="addr:city" v="Pomfret" />
    <tag k="addr:housenumber" v="389" />
    <tag k="addr:street" v="Barber Hill Road" />
    <tag k="addr:state" v="VT" />
    <tag k="ref:vcgi:esiteid" v="190665" />
  </node>
  <node id="-556" visible="true" lat="43.66056329" lon="-72.50775319">
    <tag k="addr:city" v="Pomfret" />
    <tag k="addr:housenumber" v="3281" />
    <tag k="addr:street" v="Cloudland Road" />
    <tag k="addr:state" v="VT" />
    <tag k="ref:vcgi:esiteid" v="190666" />
  </node>
  <node id="-557" visible="true" lat="43.66053201" lon="-72.57299198">
    <tag k="addr:city" v="Pomfret" />
    <tag k="addr:housenumber" v="108" />
    <tag k="addr:street" v="Wayside Road" />
    <tag k="addr:state" v="VT" />
    <tag k="ref:vcgi:esiteid" v="190667" />
  </node>
  <node id="-558" visible="true" lat="43.65983152" lon="-72.57186127">
    <tag k="addr:city" v="Pomfret" />
    <tag k="addr:housenumber" v="35" />
    <tag k="addr:street" v="Wayside Road" />
    <tag k="addr:state" v="VT" />
    <tag k="ref:vcgi:esiteid" v="190668" />
  </node>
  <node id="-559" visible="true" lat="43.65986946" lon="-72.57060998">
    <tag k="addr:city" v="Pomfret" />
    <tag k="addr:housenumber" v="210" />
    <tag k="addr:street" v="Vermont Route 12" />
    <tag k="addr:state" v="VT" />
    <tag k="ref:vcgi:esiteid" v="190669" />
  </node>
  <node id="-560" visible="true" lat="43.65947387" lon="-72.53346849">
    <tag k="addr:city" v="Pomfret" />
    <tag k="addr:housenumber" v="1553" />
    <tag k="addr:street" v="Pomfret Road" />
    <tag k="addr:state" v="VT" />
    <tag k="ref:vcgi:esiteid" v="190670" />
  </node>
  <node id="-561" visible="true" lat="43.65932636" lon="-72.52467284">
    <tag k="addr:city" v="Pomfret" />
    <tag k="addr:housenumber" v="392" />
    <tag k="addr:street" v="Barber Hill Road" />
    <tag k="addr:state" v="VT" />
    <tag k="ref:vcgi:esiteid" v="190671" />
  </node>
  <node id="-562" visible="true" lat="43.65914228" lon="-72.5465887">
    <tag k="addr:city" v="Pomfret" />
    <tag k="addr:housenumber" v="997" />
    <tag k="addr:street" v="Gully Road" />
    <tag k="addr:state" v="VT" />
    <tag k="ref:vcgi:esiteid" v="190672" />
  </node>
  <node id="-563" visible="true" lat="43.65906892" lon="-72.54574059">
    <tag k="addr:city" v="Pomfret" />
    <tag k="addr:housenumber" v="984" />
    <tag k="addr:street" v="Gully Road" />
    <tag k="addr:state" v="VT" />
    <tag k="ref:vcgi:esiteid" v="190673" />
  </node>
  <node id="-564" visible="true" lat="43.65885877" lon="-72.47441864">
    <tag k="addr:city" v="Pomfret" />
    <tag k="addr:housenumber" v="2120" />
    <tag k="addr:street" v="High Pastures Road" />
    <tag k="addr:state" v="VT" />
    <tag k="ref:vcgi:esiteid" v="190674" />
  </node>
  <node id="-565" visible="true" lat="43.65879419" lon="-72.52853937">
    <tag k="addr:city" v="Pomfret" />
    <tag k="addr:housenumber" v="263" />
    <tag k="addr:street" v="Barber Hill Road" />
    <tag k="addr:state" v="VT" />
    <tag k="ref:vcgi:esiteid" v="190675" />
  </node>
  <node id="-566" visible="true" lat="43.65849637" lon="-72.4766922">
    <tag k="addr:city" v="Pomfret" />
    <tag k="addr:housenumber" v="2209" />
    <tag k="addr:street" v="High Pastures Road" />
    <tag k="addr:state" v="VT" />
    <tag k="ref:vcgi:esiteid" v="190676" />
  </node>
  <node id="-567" visible="true" lat="43.65827131" lon="-72.47225189">
    <tag k="addr:city" v="Pomfret" />
    <tag k="addr:housenumber" v="2000" />
    <tag k="addr:street" v="High Pastures Road" />
    <tag k="addr:state" v="VT" />
    <tag k="ref:vcgi:esiteid" v="190677" />
  </node>
  <node id="-568" visible="true" lat="43.65814903" lon="-72.53518579">
    <tag k="addr:city" v="Pomfret" />
    <tag k="addr:housenumber" v="334" />
    <tag k="addr:street" v="Log Cabin Drive" />
    <tag k="addr:state" v="VT" />
    <tag k="ref:vcgi:esiteid" v="190678" />
  </node>
  <node id="-569" visible="true" lat="43.65802519" lon="-72.50752255">
    <tag k="addr:city" v="Pomfret" />
    <tag k="addr:housenumber" v="3429" />
    <tag k="addr:street" v="Cloudland Road" />
    <tag k="addr:state" v="VT" />
    <tag k="ref:vcgi:esiteid" v="190679" />
  </node>
  <node id="-570" visible="true" lat="43.65768003" lon="-72.47369385">
    <tag k="addr:city" v="Pomfret" />
    <tag k="addr:housenumber" v="2067" />
    <tag k="addr:street" v="High Pastures Road" />
    <tag k="addr:state" v="VT" />
    <tag k="ref:vcgi:esiteid" v="190680" />
  </node>
  <node id="-571" visible="true" lat="43.65761393" lon="-72.56893071">
    <tag k="addr:city" v="Pomfret" />
    <tag k="addr:housenumber" v="49" />
    <tag k="addr:street" v="Vermont Route 12" />
    <tag k="addr:state" v="VT" />
    <tag k="ref:vcgi:esiteid" v="190681" />
  </node>
  <node id="-572" visible="true" lat="43.65768892" lon="-72.54499386">
    <tag k="addr:city" v="Pomfret" />
    <tag k="addr:housenumber" v="920" />
    <tag k="addr:street" v="Gully Road" />
    <tag k="addr:state" v="VT" />
    <tag k="ref:vcgi:esiteid" v="190682" />
  </node>
  <node id="-573" visible="true" lat="43.65770134" lon="-72.56841229">
    <tag k="addr:city" v="Pomfret" />
    <tag k="addr:housenumber" v="30" />
    <tag k="addr:street" v="Vermont Route 12" />
    <tag k="addr:state" v="VT" />
    <tag k="ref:vcgi:esiteid" v="190684" />
  </node>
  <node id="-574" visible="true" lat="43.6573561" lon="-72.53130883">
    <tag k="addr:city" v="Pomfret" />
    <tag k="addr:housenumber" v="1377" />
    <tag k="addr:street" v="Pomfret Road" />
    <tag k="addr:state" v="VT" />
    <tag k="ref:vcgi:esiteid" v="190685" />
  </node>
  <node id="-575" visible="true" lat="43.65705217" lon="-72.53418165">
    <tag k="addr:city" v="Pomfret" />
    <tag k="addr:housenumber" v="217" />
    <tag k="addr:street" v="Log Cabin Drive" />
    <tag k="addr:state" v="VT" />
    <tag k="ref:vcgi:esiteid" v="190686" />
  </node>
  <node id="-576" visible="true" lat="43.65657608" lon="-72.52742798">
    <tag k="addr:city" v="Pomfret" />
    <tag k="addr:housenumber" v="74" />
    <tag k="addr:street" v="Barber Hill Road" />
    <tag k="addr:state" v="VT" />
    <tag k="ref:vcgi:esiteid" v="190687" />
  </node>
  <node id="-577" visible="true" lat="43.65606689" lon="-72.54476928">
    <tag k="addr:city" v="Pomfret" />
    <tag k="addr:housenumber" v="744" />
    <tag k="addr:street" v="Gully Road" />
    <tag k="addr:state" v="VT" />
    <tag k="ref:vcgi:esiteid" v="190688" />
  </node>
  <node id="-578" visible="true" lat="43.65611828" lon="-72.47154622">
    <tag k="addr:city" v="Pomfret" />
    <tag k="addr:housenumber" v="1811" />
    <tag k="addr:street" v="High Pastures Road" />
    <tag k="addr:state" v="VT" />
    <tag k="ref:vcgi:esiteid" v="190689" />
  </node>
  <node id="-579" visible="true" lat="43.65602095" lon="-72.52910835">
    <tag k="addr:city" v="Pomfret" />
    <tag k="addr:housenumber" v="1238" />
    <tag k="addr:street" v="Pomfret Road" />
    <tag k="addr:state" v="VT" />
    <tag k="ref:vcgi:esiteid" v="190690" />
  </node>
  <node id="-580" visible="true" lat="43.655724" lon="-72.53276421">
    <tag k="addr:city" v="Pomfret" />
    <tag k="addr:housenumber" v="115" />
    <tag k="addr:street" v="Log Cabin Drive" />
    <tag k="addr:state" v="VT" />
    <tag k="ref:vcgi:esiteid" v="190691" />
  </node>
  <node id="-581" visible="true" lat="43.65588427" lon="-72.51029727">
    <tag k="addr:city" v="Pomfret" />
    <tag k="addr:housenumber" v="3655" />
    <tag k="addr:street" v="Cloudland Road" />
    <tag k="addr:state" v="VT" />
    <tag k="ref:vcgi:esiteid" v="190692" />
  </node>
  <node id="-582" visible="true" lat="43.65474685" lon="-72.52561991">
    <tag k="addr:city" v="Pomfret" />
    <tag k="addr:housenumber" v="117" />
    <tag k="addr:street" v="School View Drive" />
    <tag k="addr:state" v="VT" />
    <tag k="ref:vcgi:esiteid" v="190693" />
  </node>
  <node id="-583" visible="true" lat="43.65429604" lon="-72.5102673">
    <tag k="addr:city" v="Pomfret" />
    <tag k="addr:housenumber" v="3745" />
    <tag k="addr:street" v="Cloudland Road" />
    <tag k="addr:state" v="VT" />
    <tag k="ref:vcgi:esiteid" v="190694" />
  </node>
  <node id="-584" visible="true" lat="43.65416669" lon="-72.52731324">
    <tag k="addr:city" v="Pomfret" />
    <tag k="addr:housenumber" v="36" />
    <tag k="addr:street" v="Harding Place" />
    <tag k="addr:state" v="VT" />
    <tag k="ref:vcgi:esiteid" v="190695" />
  </node>
  <node id="-585" visible="true" lat="43.65402555" lon="-72.52760315">
    <tag k="addr:city" v="Pomfret" />
    <tag k="addr:housenumber" v="46" />
    <tag k="addr:street" v="Harding Place" />
    <tag k="addr:state" v="VT" />
    <tag k="ref:vcgi:esiteid" v="190696" />
  </node>
  <node id="-586" visible="true" lat="43.65399777" lon="-72.5112888">
    <tag k="addr:city" v="Pomfret" />
    <tag k="addr:housenumber" v="3748" />
    <tag k="addr:street" v="Cloudland Road" />
    <tag k="addr:state" v="VT" />
    <tag k="ref:vcgi:esiteid" v="190697" />
  </node>
  <node id="-587" visible="true" lat="43.65411361" lon="-72.47048798">
    <tag k="addr:city" v="Pomfret" />
    <tag k="addr:housenumber" v="1669" />
    <tag k="addr:street" v="High Pastures Road" />
    <tag k="addr:state" v="VT" />
    <tag k="ref:vcgi:esiteid" v="190698" />
  </node>
  <node id="-588" visible="true" lat="43.65388059" lon="-72.52710724">
    <tag k="addr:city" v="Pomfret" />
    <tag k="addr:housenumber" v="34" />
    <tag k="addr:street" v="Harding Place" />
    <tag k="addr:state" v="VT" />
    <tag k="ref:vcgi:esiteid" v="190699" />
  </node>
  <node id="-589" visible="true" lat="43.65364408" lon="-72.52726746">
    <tag k="addr:city" v="Pomfret" />
    <tag k="addr:housenumber" v="18" />
    <tag k="addr:street" v="Harding Place" />
    <tag k="addr:state" v="VT" />
    <tag k="ref:vcgi:esiteid" v="190700" />
  </node>
  <node id="-590" visible="true" lat="43.6534622" lon="-72.52885907">
    <tag k="addr:city" v="Pomfret" />
    <tag k="addr:housenumber" v="1071" />
    <tag k="addr:street" v="Pomfret Road" />
    <tag k="addr:state" v="VT" />
    <tag k="ref:vcgi:esiteid" v="190701" />
  </node>
  <node id="-591" visible="true" lat="43.65347293" lon="-72.52615934">
    <tag k="addr:city" v="Pomfret" />
    <tag k="addr:housenumber" v="96" />
    <tag k="addr:street" v="School View Drive" />
    <tag k="addr:state" v="VT" />
    <tag k="ref:vcgi:esiteid" v="190702" />
  </node>
  <node id="-592" visible="true" lat="43.65322254" lon="-72.52539688">
    <tag k="addr:city" v="Pomfret" />
    <tag k="addr:housenumber" v="116" />
    <tag k="addr:street" v="School View Drive" />
    <tag k="addr:state" v="VT" />
    <tag k="ref:vcgi:esiteid" v="190703" />
  </node>
  <node id="-593" visible="true" lat="43.65288676" lon="-72.46997439">
    <tag k="addr:city" v="Pomfret" />
    <tag k="addr:housenumber" v="1582" />
    <tag k="addr:street" v="High Pastures Road" />
    <tag k="addr:state" v="VT" />
    <tag k="ref:vcgi:esiteid" v="190704" />
  </node>
  <node id="-594" visible="true" lat="43.65221519" lon="-72.52577307">
    <tag k="addr:city" v="Pomfret" />
    <tag k="addr:housenumber" v="48" />
    <tag k="addr:street" v="School View Drive" />
    <tag k="addr:state" v="VT" />
    <tag k="ref:vcgi:esiteid" v="190705" />
  </node>
  <node id="-595" visible="true" lat="43.65074783" lon="-72.52635366">
    <tag k="addr:city" v="Pomfret" />
    <tag k="addr:housenumber" v="872" />
    <tag k="addr:street" v="Pomfret Road" />
    <tag k="addr:state" v="VT" />
    <tag k="ref:vcgi:esiteid" v="190706" />
  </node>
  <node id="-596" visible="true" lat="43.65097513" lon="-72.50969363">
    <tag k="addr:city" v="Pomfret" />
    <tag k="addr:housenumber" v="3990" />
    <tag k="addr:street" v="Cloudland Road" />
    <tag k="addr:state" v="VT" />
    <tag k="ref:vcgi:esiteid" v="190707" />
  </node>
  <node id="-597" visible="true" lat="43.64775248" lon="-72.50883339">
    <tag k="addr:city" v="Pomfret" />
    <tag k="addr:housenumber" v="4190" />
    <tag k="addr:street" v="Cloudland Road" />
    <tag k="addr:state" v="VT" />
    <tag k="ref:vcgi:esiteid" v="190708" />
  </node>
  <node id="-598" visible="true" lat="43.64611057" lon="-72.49507452">
    <tag k="addr:city" v="Pomfret" />
    <tag k="addr:housenumber" v="391" />
    <tag k="addr:street" v="Rolling Ridge Drive" />
    <tag k="addr:state" v="VT" />
    <tag k="ref:vcgi:esiteid" v="190709" />
  </node>
  <node id="-599" visible="true" lat="43.64558592" lon="-72.49702353">
    <tag k="addr:city" v="Pomfret" />
    <tag k="addr:housenumber" v="389" />
    <tag k="addr:street" v="Rolling Ridge Drive" />
    <tag k="addr:state" v="VT" />
    <tag k="ref:vcgi:esiteid" v="190710" />
  </node>
  <node id="-600" visible="true" lat="43.64545774" lon="-72.49250031">
    <tag k="addr:city" v="Pomfret" />
    <tag k="addr:housenumber" v="392" />
    <tag k="addr:street" v="Rolling Ridge Drive" />
    <tag k="addr:state" v="VT" />
    <tag k="ref:vcgi:esiteid" v="190711" />
  </node>
  <node id="-601" visible="true" lat="43.64190996" lon="-72.47768395">
    <tag k="addr:city" v="Pomfret" />
    <tag k="addr:housenumber" v="591" />
    <tag k="addr:street" v="High Pastures Road" />
    <tag k="addr:state" v="VT" />
    <tag k="ref:vcgi:esiteid" v="190712" />
  </node>
  <node id="-602" visible="true" lat="43.64167094" lon="-72.48806063">
    <tag k="addr:city" v="Pomfret" />
    <tag k="addr:housenumber" v="1" />
    <tag k="addr:street" v="High Pastures Road" />
    <tag k="addr:state" v="VT" />
    <tag k="ref:vcgi:esiteid" v="190713" />
  </node>
  <node id="-603" visible="true" lat="43.64152275" lon="-72.48660861">
    <tag k="addr:city" v="Pomfret" />
    <tag k="addr:housenumber" v="111" />
    <tag k="addr:street" v="High Pastures Road" />
    <tag k="addr:state" v="VT" />
    <tag k="ref:vcgi:esiteid" v="190714" />
  </node>
  <node id="-604" visible="true" lat="43.64081748" lon="-72.47850032">
    <tag k="addr:city" v="Pomfret" />
    <tag k="addr:housenumber" v="520" />
    <tag k="addr:street" v="High Pastures Road" />
    <tag k="addr:state" v="VT" />
    <tag k="ref:vcgi:esiteid" v="190715" />
  </node>
  <node id="-605" visible="true" lat="43.63994931" lon="-72.48364258">
    <tag k="addr:city" v="Pomfret" />
    <tag k="addr:housenumber" v="268" />
    <tag k="addr:street" v="High Pastures Road" />
    <tag k="addr:state" v="VT" />
    <tag k="ref:vcgi:esiteid" v="190717" />
  </node>
  <node id="-606" visible="true" lat="43.74974944" lon="-72.53225624">
    <tag k="addr:city" v="Pomfret" />
    <tag k="addr:housenumber" v="3635" />
    <tag k="addr:street" v="Allen Hill Road" />
    <tag k="addr:state" v="VT" />
    <tag k="ref:vcgi:esiteid" v="190718" />
  </node>
  <node id="-607" visible="true" lat="43.69667791" lon="-72.55976838">
    <tag k="addr:city" v="Pomfret" />
    <tag k="addr:housenumber" v="1232" />
    <tag k="addr:street" v="Wild Apple Road" />
    <tag k="addr:state" v="VT" />
    <tag k="ref:vcgi:esiteid" v="190721" />
  </node>
  <node id="-608" visible="true" lat="43.71524784" lon="-72.50660969">
    <tag k="addr:city" v="Pomfret" />
    <tag k="addr:housenumber" v="6007" />
    <tag k="addr:street" v="Pomfret Road" />
    <tag k="addr:state" v="VT" />
    <tag k="ref:vcgi:esiteid" v="190722" />
  </node>
  <node id="-609" visible="true" lat="43.68990388" lon="-72.57053089">
    <tag k="addr:city" v="Pomfret" />
    <tag k="addr:housenumber" v="2324" />
    <tag k="addr:street" v="Stage Road" />
    <tag k="addr:state" v="VT" />
    <tag k="ref:vcgi:esiteid" v="190723" />
  </node>
  <node id="-610" visible="true" lat="43.69387384" lon="-72.53283888">
    <tag k="addr:city" v="Pomfret" />
    <tag k="addr:housenumber" v="700" />
    <tag k="addr:street" v="Tom White Hill" />
    <tag k="addr:state" v="VT" />
    <tag k="ref:vcgi:esiteid" v="190724" />
  </node>
  <node id="-611" visible="true" lat="43.6605242" lon="-72.57897328">
    <tag k="addr:city" v="Pomfret" />
    <tag k="addr:housenumber" v="488" />
    <tag k="addr:street" v="Wayside Road" />
    <tag k="addr:state" v="VT" />
    <tag k="ref:vcgi:esiteid" v="190725" />
  </node>
  <node id="-612" visible="true" lat="43.66721274" lon="-72.50924544">
    <tag k="addr:city" v="Pomfret" />
    <tag k="addr:housenumber" v="1091" />
    <tag k="addr:street" v="Barber Hill Road" />
    <tag k="addr:state" v="VT" />
    <tag k="ref:vcgi:esiteid" v="190726" />
  </node>
  <node id="-613" visible="true" lat="43.65011919" lon="-72.47242052">
    <tag k="addr:city" v="Pomfret" />
    <tag k="addr:housenumber" v="1455" />
    <tag k="addr:street" v="High Pastures Road" />
    <tag k="addr:state" v="VT" />
    <tag k="ref:vcgi:esiteid" v="190727" />
  </node>
  <node id="-614" visible="true" lat="43.65250318" lon="-72.47063619">
    <tag k="addr:city" v="Pomfret" />
    <tag k="addr:housenumber" v="1557" />
    <tag k="addr:street" v="High Pastures Road" />
    <tag k="addr:state" v="VT" />
    <tag k="ref:vcgi:esiteid" v="190728" />
  </node>
  <node id="-615" visible="true" lat="43.72916784" lon="-72.51246398">
    <tag k="addr:city" v="Pomfret" />
    <tag k="addr:housenumber" v="831" />
    <tag k="addr:street" v="Allen Hill Road" />
    <tag k="addr:state" v="VT" />
    <tag k="ref:vcgi:esiteid" v="190729" />
  </node>
  <node id="-616" visible="true" lat="43.66085652" lon="-72.53849785">
    <tag k="addr:city" v="Pomfret" />
    <tag k="addr:housenumber" v="1799" />
    <tag k="addr:street" v="Pomfret Road" />
    <tag k="addr:state" v="VT" />
    <tag k="ref:vcgi:esiteid" v="190730" />
  </node>
  <node id="-617" visible="true" lat="43.71424088" lon="-72.43226874">
    <tag k="addr:city" v="Pomfret" />
    <tag k="addr:housenumber" v="27" />
    <tag k="addr:street" v="Graves Road" />
    <tag k="addr:state" v="VT" />
    <tag k="ref:vcgi:esiteid" v="190731" />
  </node>
  <node id="-618" visible="true" lat="43.70290426" lon="-72.47716941">
    <tag k="addr:city" v="Pomfret" />
    <tag k="addr:housenumber" v="480" />
    <tag k="addr:street" v="Thistle Hill Road" />
    <tag k="addr:state" v="VT" />
    <tag k="ref:vcgi:esiteid" v="190732" />
  </node>
  <node id="-619" visible="true" lat="43.7239181" lon="-72.4685814">
    <tag k="addr:city" v="Pomfret" />
    <tag k="addr:housenumber" v="8644" />
    <tag k="addr:street" v="Pomfret Road" />
    <tag k="addr:state" v="VT" />
    <tag k="ref:vcgi:esiteid" v="190733" />
  </node>
  <node id="-620" visible="true" lat="43.73112885" lon="-72.51329527">
    <tag k="addr:city" v="Pomfret" />
    <tag k="addr:housenumber" v="959" />
    <tag k="addr:street" v="Allen Hill Road" />
    <tag k="addr:state" v="VT" />
    <tag k="ref:vcgi:esiteid" v="190735" />
  </node>
  <node id="-621" visible="true" lat="43.71466598" lon="-72.43489012">
    <tag k="addr:city" v="Pomfret" />
    <tag k="addr:housenumber" v="460" />
    <tag k="addr:street" v="Handy Road" />
    <tag k="addr:state" v="VT" />
    <tag k="ref:vcgi:esiteid" v="190738" />
  </node>
  <node id="-622" visible="true" lat="43.71397115" lon="-72.43413691">
    <tag k="addr:city" v="Pomfret" />
    <tag k="addr:housenumber" v="120" />
    <tag k="addr:street" v="Graves Road" />
    <tag k="addr:state" v="VT" />
    <tag k="ref:vcgi:esiteid" v="190740" />
  </node>
  <node id="-623" visible="true" lat="43.71064373" lon="-72.43500053">
    <tag k="addr:city" v="Pomfret" />
    <tag k="addr:housenumber" v="337" />
    <tag k="addr:street" v="Graves Road" />
    <tag k="addr:state" v="VT" />
    <tag k="ref:vcgi:esiteid" v="190741" />
  </node>
  <node id="-624" visible="true" lat="43.66551681" lon="-72.53799595">
    <tag k="addr:city" v="Pomfret" />
    <tag k="addr:housenumber" v="2026" />
    <tag k="addr:street" v="Pomfret Road" />
    <tag k="addr:state" v="VT" />
    <tag k="ref:vcgi:esiteid" v="190742" />
  </node>
  <node id="-625" visible="true" lat="43.70895151" lon="-72.50989612">
    <tag k="addr:city" v="Pomfret" />
    <tag k="addr:housenumber" v="5560" />
    <tag k="addr:street" v="Pomfret Road" />
    <tag k="addr:state" v="VT" />
    <tag k="ref:vcgi:esiteid" v="190743" />
  </node>
  <node id="-626" visible="true" lat="43.69139068" lon="-72.45113931">
    <tag k="addr:city" v="Pomfret" />
    <tag k="addr:housenumber" v="1407" />
    <tag k="addr:street" v="Joe Ranger Road" />
    <tag k="addr:state" v="VT" />
    <tag k="ref:vcgi:esiteid" v="190744" />
  </node>
  <node id="-627" visible="true" lat="43.7285925" lon="-72.50844802">
    <tag k="addr:city" v="Pomfret" />
    <tag k="addr:housenumber" v="86" />
    <tag k="addr:street" v="Herbie Hill" />
    <tag k="addr:state" v="VT" />
    <tag k="ref:vcgi:esiteid" v="190745" />
  </node>
  <node id="-628" visible="true" lat="43.72897219" lon="-72.47818887">
    <tag k="addr:city" v="Pomfret" />
    <tag k="addr:housenumber" v="167" />
    <tag k="addr:street" v="Limey Lane" />
    <tag k="addr:state" v="VT" />
    <tag k="ref:vcgi:esiteid" v="190746" />
  </node>
  <node id="-629" visible="true" lat="43.64904958" lon="-72.50798328">
    <tag k="addr:city" v="Pomfret" />
    <tag k="addr:housenumber" v="4169" />
    <tag k="addr:street" v="Cloudland Road" />
    <tag k="addr:state" v="VT" />
    <tag k="ref:vcgi:esiteid" v="190747" />
  </node>
  <node id="-630" visible="true" lat="43.7308276" lon="-72.53256155">
    <tag k="addr:city" v="Pomfret" />
    <tag k="addr:housenumber" v="904" />
    <tag k="addr:street" v="Skyline Drive" />
    <tag k="addr:state" v="VT" />
    <tag k="ref:vcgi:esiteid" v="190748" />
  </node>
  <node id="-631" visible="true" lat="43.65962601" lon="-72.56777165">
    <tag k="addr:city" v="Pomfret" />
    <tag k="addr:housenumber" v="80" />
    <tag k="addr:street" v="Vermont Route 12" />
    <tag k="addr:state" v="VT" />
    <tag k="ref:vcgi:esiteid" v="190751" />
  </node>
  <node id="-632" visible="true" lat="43.66130944" lon="-72.50884597">
    <tag k="addr:city" v="Pomfret" />
    <tag k="addr:housenumber" v="3224" />
    <tag k="addr:street" v="Cloudland Road" />
    <tag k="addr:state" v="VT" />
    <tag k="ref:vcgi:esiteid" v="190752" />
  </node>
  <node id="-633" visible="true" lat="43.65926644" lon="-72.53505526">
    <tag k="addr:city" v="Pomfret" />
    <tag k="addr:housenumber" v="1555" />
    <tag k="addr:street" v="Pomfret Road" />
    <tag k="addr:state" v="VT" />
    <tag k="ref:vcgi:esiteid" v="190753" />
  </node>
  <node id="-634" visible="true" lat="43.74596001" lon="-72.53988827">
    <tag k="addr:city" v="Pomfret" />
    <tag k="addr:housenumber" v="4154" />
    <tag k="addr:street" v="Allen Hill Road" />
    <tag k="addr:state" v="VT" />
    <tag k="ref:vcgi:esiteid" v="190754" />
  </node>
  <node id="-635" visible="true" lat="43.72279116" lon="-72.51147576">
    <tag k="addr:city" v="Pomfret" />
    <tag k="addr:housenumber" v="44" />
    <tag k="addr:street" v="Hewitt Street" />
    <tag k="addr:state" v="VT" />
    <tag k="ref:vcgi:esiteid" v="190755" />
  </node>
  <node id="-636" visible="true" lat="43.75306052" lon="-72.52203018">
    <tag k="addr:city" v="Pomfret" />
    <tag k="addr:housenumber" v="2925" />
    <tag k="addr:street" v="Allen Hill Road" />
    <tag k="addr:state" v="VT" />
    <tag k="ref:vcgi:esiteid" v="190756" />
  </node>
  <node id="-637" visible="true" lat="43.70539551" lon="-72.51373978">
    <tag k="addr:city" v="Pomfret" />
    <tag k="addr:housenumber" v="5292" />
    <tag k="addr:street" v="Pomfret Road" />
    <tag k="addr:state" v="VT" />
    <tag k="ref:vcgi:esiteid" v="190757" />
  </node>
  <node id="-638" visible="true" lat="43.69703825" lon="-72.52105693">
    <tag k="addr:city" v="Pomfret" />
    <tag k="addr:housenumber" v="93" />
    <tag k="addr:street" v="Labounty Road" />
    <tag k="addr:state" v="VT" />
    <tag k="ref:vcgi:esiteid" v="190758" />
  </node>
  <node id="-639" visible="true" lat="43.65777652" lon="-72.53655879">
    <tag k="addr:city" v="Pomfret" />
    <tag k="addr:housenumber" v="540" />
    <tag k="addr:street" v="Log Cabin Drive" />
    <tag k="addr:state" v="VT" />
    <tag k="ref:vcgi:esiteid" v="190759" />
  </node>
  <node id="-640" visible="true" lat="43.64258701" lon="-72.49635703">
    <tag k="addr:city" v="Pomfret" />
    <tag k="addr:housenumber" v="1321" />
    <tag k="addr:street" v="Old River Road" />
    <tag k="addr:state" v="VT" />
    <tag k="ref:vcgi:esiteid" v="304225" />
  </node>
  <node id="-641" visible="true" lat="43.66036718" lon="-72.57582453">
    <tag k="addr:city" v="Pomfret" />
    <tag k="addr:housenumber" v="256" />
    <tag k="addr:street" v="Wayside Road" />
    <tag k="addr:state" v="VT" />
    <tag k="ref:vcgi:esiteid" v="306320" />
  </node>
  <node id="-642" visible="true" lat="43.70863895" lon="-72.44197966">
    <tag k="addr:city" v="Pomfret" />
    <tag k="addr:housenumber" v="726" />
    <tag k="addr:street" v="Graves Road" />
    <tag k="addr:state" v="VT" />
    <tag k="ref:vcgi:esiteid" v="306321" />
  </node>
  <node id="-643" visible="true" lat="43.65558514" lon="-72.52340583">
    <tag k="addr:city" v="Pomfret" />
    <tag k="addr:housenumber" v="119" />
    <tag k="addr:street" v="School View Drive" />
    <tag k="addr:state" v="VT" />
    <tag k="ref:vcgi:esiteid" v="312281" />
  </node>
  <node id="-644" visible="true" lat="43.70329488" lon="-72.56311646">
    <tag k="addr:city" v="Pomfret" />
    <tag k="addr:housenumber" v="1709" />
    <tag k="addr:street" v="Wild Apple Road" />
    <tag k="addr:state" v="VT" />
    <tag k="ref:vcgi:esiteid" v="312282" />
  </node>
  <node id="-645" visible="true" lat="43.71525809" lon="-72.53304105">
    <tag k="addr:city" v="Pomfret" />
    <tag k="addr:housenumber" v="1322" />
    <tag k="addr:street" v="Webster Hill Road" />
    <tag k="addr:state" v="VT" />
    <tag k="ref:vcgi:esiteid" v="312284" />
  </node>
  <node id="-646" visible="true" lat="43.72107131" lon="-72.42700942">
    <tag k="addr:city" v="Pomfret" />
    <tag k="addr:housenumber" v="10920" />
    <tag k="addr:street" v="Pomfret Road" />
    <tag k="addr:state" v="VT" />
    <tag k="ref:vcgi:esiteid" v="312285" />
  </node>
  <node id="-647" visible="true" lat="43.65601711" lon="-72.53003411">
    <tag k="addr:city" v="Pomfret" />
    <tag k="addr:housenumber" v="1241" />
    <tag k="addr:street" v="Pomfret Road" />
    <tag k="addr:state" v="VT" />
    <tag k="ref:vcgi:esiteid" v="312286" />
  </node>
  <node id="-648" visible="true" lat="43.660659" lon="-72.55027048">
    <tag k="addr:city" v="Pomfret" />
    <tag k="addr:housenumber" v="828" />
    <tag k="addr:street" v="Austin Road" />
    <tag k="addr:state" v="VT" />
    <tag k="ref:vcgi:esiteid" v="325239" />
  </node>
  <node id="-649" visible="true" lat="43.66281913" lon="-72.55893016">
    <tag k="addr:city" v="Pomfret" />
    <tag k="addr:housenumber" v="847" />
    <tag k="addr:street" v="Austin Road" />
    <tag k="addr:state" v="VT" />
    <tag k="ref:vcgi:esiteid" v="325240" />
  </node>
  <node id="-650" visible="true" lat="43.66088393" lon="-72.51188796">
    <tag k="addr:city" v="Pomfret" />
    <tag k="addr:housenumber" v="1268" />
    <tag k="addr:street" v="Barber Hill Road" />
    <tag k="addr:state" v="VT" />
    <tag k="ref:vcgi:esiteid" v="325241" />
  </node>
  <node id="-651" visible="true" lat="43.71882328" lon="-72.43302458">
    <tag k="addr:city" v="Pomfret" />
    <tag k="addr:housenumber" v="10567" />
    <tag k="addr:street" v="Pomfret Road" />
    <tag k="addr:state" v="VT" />
    <tag k="ref:vcgi:esiteid" v="325243" />
  </node>
  <node id="-652" visible="true" lat="43.6562175" lon="-72.51099173">
    <tag k="addr:city" v="Pomfret" />
    <tag k="addr:housenumber" v="3644" />
    <tag k="addr:street" v="Cloudland Road" />
    <tag k="addr:state" v="VT" />
    <tag k="ref:vcgi:esiteid" v="328324" />
  </node>
  <node id="-653" visible="true" lat="43.67641437" lon="-72.49171581">
    <tag k="addr:city" v="Pomfret" />
    <tag k="addr:housenumber" v="93" />
    <tag k="addr:street" v="Birch Tree Circle" />
    <tag k="addr:state" v="VT" />
    <tag k="ref:vcgi:esiteid" v="328734" />
  </node>
  <node id="-658" visible="true" lat="43.71819844" lon="-72.45216186">
    <tag k="addr:city" v="Pomfret" />
    <tag k="addr:housenumber" v="478" />
    <tag k="addr:street" v="Sugarhouse Road" />
    <tag k="addr:state" v="VT" />
    <tag k="ref:vcgi:esiteid" v="329455" />
  </node>
  <node id="-659" visible="true" lat="43.69055389" lon="-72.46471509">
    <tag k="addr:city" v="Pomfret" />
    <tag k="addr:housenumber" v="524" />
    <tag k="addr:street" v="Old Farm Drive" />
    <tag k="addr:state" v="VT" />
    <tag k="ref:vcgi:esiteid" v="331003" />
  </node>
  <node id="-660" visible="true" lat="43.72377821" lon="-72.4460805">
    <tag k="addr:city" v="Pomfret" />
    <tag k="addr:housenumber" v="9746" />
    <tag k="addr:street" v="Pomfret Road" />
    <tag k="addr:state" v="VT" />
    <tag k="ref:vcgi:esiteid" v="331004" />
  </node>
  <node id="-661" visible="true" lat="43.65735607" lon="-72.56882281">
    <tag k="addr:city" v="Pomfret" />
    <tag k="addr:housenumber" v="29" />
    <tag k="addr:street" v="Vermont Route 12" />
    <tag k="addr:state" v="VT" />
    <tag k="ref:vcgi:esiteid" v="331247" />
  </node>
  <node id="-662" visible="true" lat="43.65802359" lon="-72.5099538">
    <tag k="addr:city" v="Pomfret" />
    <tag k="addr:housenumber" v="3488" />
    <tag k="addr:street" v="Cloudland Road" />
    <tag k="addr:state" v="VT" />
    <tag k="ref:vcgi:esiteid" v="331807" />
  </node>
  <node id="-663" visible="true" lat="43.70629743" lon="-72.43946869">
    <tag k="addr:city" v="Pomfret" />
    <tag k="addr:housenumber" v="619" />
    <tag k="addr:street" v="Graves Road" />
    <tag k="addr:state" v="VT" />
    <tag k="ref:vcgi:esiteid" v="332576" />
  </node>
  <node id="-664" visible="true" lat="43.69862646" lon="-72.46145593">
    <tag k="addr:city" v="Pomfret" />
    <tag k="addr:housenumber" v="598" />
    <tag k="addr:street" v="Joe Ranger Road" />
    <tag k="addr:state" v="VT" />
    <tag k="ref:vcgi:esiteid" v="335074" />
  </node>
  <node id="-665" visible="true" lat="43.65940758" lon="-72.55384323">
    <tag k="addr:city" v="Pomfret" />
    <tag k="addr:housenumber" v="830" />
    <tag k="addr:street" v="Austin Road" />
    <tag k="addr:state" v="VT" />
    <tag k="ref:vcgi:esiteid" v="335600" />
  </node>
  <node id="-666" visible="true" lat="43.65852996" lon="-72.57175961">
    <tag k="addr:city" v="Pomfret" />
    <tag k="addr:housenumber" v="21" />
    <tag k="addr:street" v="Wayside Road" />
    <tag k="addr:state" v="VT" />
    <tag k="ref:vcgi:esiteid" v="336670" />
  </node>
  <node id="-667" visible="true" lat="43.73153629" lon="-72.48027222">
    <tag k="addr:city" v="Pomfret" />
    <tag k="addr:housenumber" v="772" />
    <tag k="addr:street" v="Caper Street" />
    <tag k="addr:state" v="VT" />
    <tag k="ref:vcgi:esiteid" v="337932" />
  </node>
  <node id="-668" visible="true" lat="43.70918361" lon="-72.49566513">
    <tag k="addr:city" v="Pomfret" />
    <tag k="addr:housenumber" v="449" />
    <tag k="addr:street" v="Old Kings Highway" />
    <tag k="addr:state" v="VT" />
    <tag k="ref:vcgi:esiteid" v="337933" />
  </node>
  <node id="-669" visible="true" lat="43.75448728" lon="-72.52174098">
    <tag k="addr:city" v="Pomfret" />
    <tag k="addr:housenumber" v="2938" />
    <tag k="addr:street" v="Allen Hill Road" />
    <tag k="addr:state" v="VT" />
    <tag k="ref:vcgi:esiteid" v="341552" />
  </node>
  <node id="-670" visible="true" lat="43.75330591" lon="-72.51949109">
    <tag k="addr:city" v="Pomfret" />
    <tag k="addr:housenumber" v="2826" />
    <tag k="addr:street" v="Allen Hill Road" />
    <tag k="addr:state" v="VT" />
    <tag k="ref:vcgi:esiteid" v="341553" />
  </node>
  <node id="-671" visible="true" lat="43.66298368" lon="-72.46637749">
    <tag k="addr:city" v="Pomfret" />
    <tag k="addr:housenumber" v="454" />
    <tag k="addr:street" v="Sugarbush Farm Road" />
    <tag k="addr:state" v="VT" />
    <tag k="ref:vcgi:esiteid" v="341838" />
  </node>
  <node id="-672" visible="true" lat="43.71530298" lon="-72.5349959">
    <tag k="addr:city" v="Pomfret" />
    <tag k="addr:housenumber" v="1436" />
    <tag k="addr:street" v="Webster Hill Road" />
    <tag k="addr:state" v="VT" />
    <tag k="ref:vcgi:esiteid" v="344064" />
  </node>
  <node id="-673" visible="true" lat="43.70030296" lon="-72.56191231">
    <tag k="addr:city" v="Pomfret" />
    <tag k="addr:housenumber" v="1434" />
    <tag k="addr:street" v="Wild Apple Road" />
    <tag k="addr:state" v="VT" />
    <tag k="ref:vcgi:esiteid" v="344065" />
  </node>
  <node id="-674" visible="true" lat="43.69289395" lon="-72.53620441">
    <tag k="addr:city" v="Pomfret" />
    <tag k="addr:housenumber" v="1096" />
    <tag k="addr:street" v="Bartlett Brook Road" />
    <tag k="addr:state" v="VT" />
    <tag k="ref:vcgi:esiteid" v="344066" />
  </node>
  <node id="-675" visible="true" lat="43.68800268" lon="-72.45332138">
    <tag k="addr:city" v="Pomfret" />
    <tag k="addr:housenumber" v="1560" />
    <tag k="addr:street" v="Joe Ranger Road" />
    <tag k="addr:state" v="VT" />
    <tag k="ref:vcgi:esiteid" v="344373" />
  </node>
  <node id="-676" visible="true" lat="43.70974097" lon="-72.50660234">
    <tag k="addr:city" v="Pomfret" />
    <tag k="addr:housenumber" v="1069" />
    <tag k="addr:street" v="Galaxy Hill Road" />
    <tag k="addr:state" v="VT" />
    <tag k="ref:vcgi:esiteid" v="345268" />
  </node>
  <node id="-677" visible="true" lat="43.6615612" lon="-72.57114102">
    <tag k="addr:city" v="Pomfret" />
    <tag k="addr:housenumber" v="320" />
    <tag k="addr:street" v="Vermont Route 12" />
    <tag k="addr:state" v="VT" />
    <tag k="ref:vcgi:esiteid" v="448276" />
  </node>
  <node id="-678" visible="true" lat="43.71672248" lon="-72.44703419">
    <tag k="addr:city" v="Pomfret" />
    <tag k="addr:housenumber" v="811" />
    <tag k="addr:street" v="Sugarhouse Road" />
    <tag k="addr:state" v="VT" />
    <tag k="ref:vcgi:esiteid" v="449632" />
  </node>
  <node id="-679" visible="true" lat="43.6478155" lon="-72.49247051">
    <tag k="addr:city" v="Pomfret" />
    <tag k="addr:housenumber" v="342" />
    <tag k="addr:street" v="Rolling Ridge Drive" />
    <tag k="addr:state" v="VT" />
    <tag k="ref:vcgi:esiteid" v="449633" />
  </node>
  <node id="-680" visible="true" lat="43.69524912" lon="-72.47535896">
    <tag k="addr:city" v="Pomfret" />
    <tag k="addr:housenumber" v="178" />
    <tag k="addr:street" v="Joe Ranger Road" />
    <tag k="addr:state" v="VT" />
    <tag k="ref:vcgi:esiteid" v="450387" />
  </node>
  <node id="-681" visible="true" lat="43.70544573" lon="-72.46281624">
    <tag k="addr:city" v="Pomfret" />
    <tag k="addr:housenumber" v="178" />
    <tag k="addr:street" v="Joe Ranger Road" />
    <tag k="addr:state" v="VT" />
    <tag k="ref:vcgi:esiteid" v="450389" />
  </node>
  <node id="-682" visible="true" lat="43.71831184" lon="-72.45326639">
    <tag k="addr:city" v="Pomfret" />
    <tag k="addr:housenumber" v="55" />
    <tag k="addr:street" v="A Frame Road" />
    <tag k="addr:state" v="VT" />
    <tag k="ref:vcgi:esiteid" v="450519" />
  </node>
  <node id="-683" visible="true" lat="43.6772961" lon="-72.49737481">
    <tag k="addr:city" v="Pomfret" />
    <tag k="addr:housenumber" v="1323" />
    <tag k="addr:street" v="Sessions Meadows" />
    <tag k="addr:state" v="VT" />
    <tag k="ref:vcgi:esiteid" v="452220" />
  </node>
  <node id="-684" visible="true" lat="43.66608137" lon="-72.53893331">
    <tag k="addr:city" v="Pomfret" />
    <tag k="addr:housenumber" v="2097" />
    <tag k="addr:street" v="Pomfret Road" />
    <tag k="addr:state" v="VT" />
    <tag k="ref:vcgi:esiteid" v="452221" />
  </node>
  <node id="-685" visible="true" lat="43.66504182" lon="-72.53850504">
    <tag k="addr:city" v="Pomfret" />
    <tag k="addr:housenumber" v="2022" />
    <tag k="addr:street" v="Pomfret Road" />
    <tag k="addr:state" v="VT" />
    <tag k="ref:vcgi:esiteid" v="452222" />
  </node>
  <node id="-686" visible="true" lat="43.66444476" lon="-72.53892772">
    <tag k="addr:city" v="Pomfret" />
    <tag k="addr:housenumber" v="1995" />
    <tag k="addr:street" v="Pomfret Road" />
    <tag k="addr:state" v="VT" />
    <tag k="ref:vcgi:esiteid" v="453818" />
  </node>
  <node id="-687" visible="true" lat="43.67973122" lon="-72.53168604">
    <tag k="addr:city" v="Pomfret" />
    <tag k="addr:housenumber" v="138" />
    <tag k="addr:street" v="Bartlett Brook Road" />
    <tag k="addr:state" v="VT" />
    <tag k="ref:vcgi:esiteid" v="455701" />
  </node>
  <node id="-689" visible="true" lat="43.68296484" lon="-72.56307796">
    <tag k="addr:city" v="Pomfret" />
    <tag k="addr:housenumber" v="214" />
    <tag k="addr:street" v="Wild Apple Road" />
    <tag k="addr:state" v="VT" />
    <tag k="ref:vcgi:esiteid" v="611907" />
  </node>
  <node id="-690" visible="true" lat="43.72552969" lon="-72.44160175">
    <tag k="addr:city" v="Pomfret" />
    <tag k="addr:housenumber" v="130" />
    <tag k="addr:street" v="Kenyon Hill Road" />
    <tag k="addr:state" v="VT" />
    <tag k="ref:vcgi:esiteid" v="611908" />
  </node>
  <node id="-692" visible="true" lat="43.73903909" lon="-72.52836421">
    <tag k="addr:city" v="Pomfret" />
    <tag k="addr:housenumber" v="1444" />
    <tag k="addr:street" v="Skyline Drive" />
    <tag k="addr:state" v="VT" />
    <tag k="ref:vcgi:esiteid" v="612961" />
  </node>
  <node id="-693" visible="true" lat="43.73933628" lon="-72.53027761">
    <tag k="addr:city" v="Pomfret" />
    <tag k="addr:housenumber" v="1429" />
    <tag k="addr:street" v="Skyline Drive" />
    <tag k="addr:state" v="VT" />
    <tag k="ref:vcgi:esiteid" v="612962" />
  </node>
  <node id="-696" visible="true" lat="43.74995414" lon="-72.51971374">
    <tag k="addr:city" v="Pomfret" />
    <tag k="addr:housenumber" v="2626" />
    <tag k="addr:street" v="Allen Hill Road" />
    <tag k="addr:state" v="VT" />
    <tag k="ref:vcgi:esiteid" v="617249" />
  </node>
  <node id="-697" visible="true" lat="43.75136114" lon="-72.52029491">
    <tag k="addr:city" v="Pomfret" />
    <tag k="addr:housenumber" v="2650" />
    <tag k="addr:street" v="Allen Hill Road" />
    <tag k="addr:state" v="VT" />
    <tag k="ref:vcgi:esiteid" v="617250" />
  </node>
  <node id="-698" visible="true" lat="43.64331565" lon="-72.48306097">
    <tag k="addr:city" v="Pomfret" />
    <tag k="addr:housenumber" v="321" />
    <tag k="addr:street" v="High Pastures Road" />
    <tag k="addr:state" v="VT" />
    <tag k="ref:vcgi:esiteid" v="617251" />
  </node>
  <node id="-699" visible="true" lat="43.68538894" lon="-72.52439328">
    <tag k="addr:city" v="Pomfret" />
    <tag k="addr:housenumber" v="3535" />
    <tag k="addr:street" v="Pomfret Road" />
    <tag k="addr:state" v="VT" />
    <tag k="ref:vcgi:esiteid" v="617252" />
  </node>
  <node id="-700" visible="true" lat="43.72407375" lon="-72.47523779">
    <tag k="addr:city" v="Pomfret" />
    <tag k="addr:housenumber" v="8126" />
    <tag k="addr:street" v="Pomfret Road" />
    <tag k="addr:state" v="VT" />
    <tag k="ref:vcgi:esiteid" v="617253" />
  </node>
  <node id="-701" visible="true" lat="43.72556015" lon="-72.49809075">
    <tag k="addr:city" v="Pomfret" />
    <tag k="addr:housenumber" v="189" />
    <tag k="addr:street" v="Howe Hill Road" />
    <tag k="addr:state" v="VT" />
    <tag k="ref:vcgi:esiteid" v="617254" />
  </node>
  <node id="-702" visible="true" lat="43.70478644" lon="-72.52510363">
    <tag k="addr:city" v="Pomfret" />
    <tag k="addr:housenumber" v="611" />
    <tag k="addr:street" v="Labounty Road" />
    <tag k="addr:state" v="VT" />
    <tag k="ref:vcgi:esiteid" v="617255" />
  </node>
  <node id="-703" visible="true" lat="43.70708788" lon="-72.46523503">
    <tag k="addr:city" v="Pomfret" />
    <tag k="addr:housenumber" v="1925" />
    <tag k="addr:street" v="Bunker Hill Road" />
    <tag k="addr:state" v="VT" />
    <tag k="ref:vcgi:esiteid" v="617256" />
  </node>
  <node id="-704" visible="true" lat="43.66051092" lon="-72.52688073">
    <tag k="addr:city" v="Pomfret" />
    <tag k="addr:housenumber" v="387" />
    <tag k="addr:street" v="Barber Hill Road" />
    <tag k="addr:state" v="VT" />
    <tag k="ref:vcgi:esiteid" v="618127" />
  </node>
  <node id="-705" visible="true" lat="43.69215274" lon="-72.53672299">
    <tag k="addr:city" v="Pomfret" />
    <tag k="addr:housenumber" v="1041" />
    <tag k="addr:street" v="Bartlett Brook Road" />
    <tag k="addr:state" v="VT" />
    <tag k="ref:vcgi:esiteid" v="752755" />
  </node>
  <node id="-706" visible="true" lat="43.73469734" lon="-72.48005401">
    <tag k="addr:city" v="Pomfret" />
    <tag k="addr:housenumber" v="837" />
    <tag k="addr:street" v="Caper Street" />
    <tag k="addr:state" v="VT" />
    <tag k="ref:vcgi:esiteid" v="752756" />
  </node>
  <node id="-709" visible="true" lat="43.7119053" lon="-72.49021276">
    <tag k="addr:city" v="Pomfret" />
    <tag k="addr:housenumber" v="737" />
    <tag k="addr:street" v="Dana Road" />
    <tag k="addr:state" v="VT" />
    <tag k="ref:vcgi:esiteid" v="759389" />
  </node>
  <node id="-710" visible="true" lat="43.65602334" lon="-72.52568293">
    <tag k="addr:city" v="Pomfret" />
    <tag k="addr:housenumber" v="1170" />
    <tag k="addr:street" v="Pomfret Road" />
    <tag k="addr:state" v="VT" />
    <tag k="ref:vcgi:esiteid" v="759391" />
  </node>
  <node id="-711" visible="true" lat="43.67703443" lon="-72.52697486">
    <tag k="addr:city" v="Pomfret" />
    <tag k="addr:housenumber" v="3290" />
    <tag k="addr:street" v="Pomfret Road" />
    <tag k="addr:state" v="VT" />
    <tag k="ref:vcgi:esiteid" v="759392" />
  </node>
  <node id="-712" visible="true" lat="43.69487741" lon="-72.52029737">
    <tag k="addr:city" v="Pomfret" />
    <tag k="addr:housenumber" v="4353" />
    <tag k="addr:street" v="Pomfret Road" />
    <tag k="addr:state" v="VT" />
    <tag k="ref:vcgi:esiteid" v="759393" />
  </node>
  <node id="-713" visible="true" lat="43.70560184" lon="-72.52374005">
    <tag k="addr:city" v="Pomfret" />
    <tag k="addr:housenumber" v="710" />
    <tag k="addr:street" v="Labounty Road" />
    <tag k="addr:state" v="VT" />
    <tag k="ref:vcgi:esiteid" v="759496" />
  </node>
  <node id="-714" visible="true" lat="43.66014289" lon="-72.47068089">
    <tag k="addr:city" v="Pomfret" />
    <tag k="addr:housenumber" v="161" />
    <tag k="addr:street" v="Sugarbush Farm Road" />
    <tag k="addr:state" v="VT" />
    <tag k="ref:vcgi:esiteid" v="760163" />
  </node>
  <node id="-715" visible="true" lat="43.72324989" lon="-72.48178145">
    <tag k="addr:city" v="Pomfret" />
    <tag k="addr:housenumber" v="255" />
    <tag k="addr:street" v="Caper Street" />
    <tag k="addr:state" v="VT" />
    <tag k="ref:vcgi:esiteid" v="760164" />
  </node>
  <node id="-716" visible="true" lat="43.71847803" lon="-72.46479333">
    <tag k="addr:city" v="Pomfret" />
    <tag k="addr:housenumber" v="435" />
    <tag k="addr:street" v="Starbuck Road" />
    <tag k="addr:state" v="VT" />
    <tag k="ref:vcgi:esiteid" v="760165" />
  </node>
  <node id="-717" visible="true" lat="43.72302284" lon="-72.46289531">
    <tag k="addr:city" v="Pomfret" />
    <tag k="addr:housenumber" v="85" />
    <tag k="addr:street" v="Starbuck Road" />
    <tag k="addr:state" v="VT" />
    <tag k="ref:vcgi:esiteid" v="760166" />
  </node>
  <node id="-718" visible="true" lat="43.72047462" lon="-72.44949114">
    <tag k="addr:city" v="Pomfret" />
    <tag k="addr:housenumber" v="579" />
    <tag k="addr:street" v="Sugarhouse Road" />
    <tag k="addr:state" v="VT" />
    <tag k="ref:vcgi:esiteid" v="760167" />
  </node>
  <node id="-719" visible="true" lat="43.74918919" lon="-72.52549195">
    <tag k="addr:city" v="Pomfret" />
    <tag k="addr:housenumber" v="2363" />
    <tag k="addr:street" v="Allen Hill Road" />
    <tag k="addr:state" v="VT" />
    <tag k="ref:vcgi:esiteid" v="760168" />
  </node>
  <node id="-720" visible="true" lat="43.70779721" lon="-72.48013548">
    <tag k="addr:city" v="Pomfret" />
    <tag k="addr:housenumber" v="1416" />
    <tag k="addr:street" v="Old Kings Highway" />
    <tag k="addr:state" v="VT" />
    <tag k="ref:vcgi:esiteid" v="760169" />
  </node>
  <node id="-721" visible="true" lat="43.69133002" lon="-72.50022938">
    <tag k="addr:city" v="Pomfret" />
    <tag k="addr:housenumber" v="1099" />
    <tag k="addr:street" v="Cloudland Road" />
    <tag k="addr:state" v="VT" />
    <tag k="ref:vcgi:esiteid" v="760170" />
  </node>
  <node id="-722" visible="true" lat="43.69022327" lon="-72.49978886">
    <tag k="addr:city" v="Pomfret" />
    <tag k="addr:housenumber" v="1177" />
    <tag k="addr:street" v="Cloudland Road" />
    <tag k="addr:state" v="VT" />
    <tag k="ref:vcgi:esiteid" v="760171" />
  </node>
  <node id="-723" visible="true" lat="43.6900661" lon="-72.50012361">
    <tag k="addr:city" v="Pomfret" />
    <tag k="addr:housenumber" v="1179" />
    <tag k="addr:street" v="Cloudland Road" />
    <tag k="addr:state" v="VT" />
    <tag k="ref:vcgi:esiteid" v="760172" />
  </node>
  <node id="-724" visible="true" lat="43.72721608" lon="-72.50759467">
    <tag k="addr:city" v="Pomfret" />
    <tag k="addr:housenumber" v="256" />
    <tag k="addr:street" v="Herbie Hill" />
    <tag k="addr:state" v="VT" />
    <tag k="ref:vcgi:esiteid" v="760173" />
  </node>
  <node id="-725" visible="true" lat="43.66856679" lon="-72.53400402">
    <tag k="addr:city" v="Pomfret" />
    <tag k="addr:housenumber" v="2566" />
    <tag k="addr:street" v="Pomfret Road" />
    <tag k="addr:state" v="VT" />
    <tag k="ref:vcgi:esiteid" v="760174" />
  </node>
  <node id="-726" visible="true" lat="43.73710383" lon="-72.49859049">
    <tag k="addr:city" v="Pomfret" />
    <tag k="addr:housenumber" v="1089" />
    <tag k="addr:street" v="Howe Hill Road" />
    <tag k="addr:state" v="VT" />
    <tag k="ref:vcgi:esiteid" v="760175" />
  </node>
  <node id="-727" visible="true" lat="43.72712852" lon="-72.47928785">
    <tag k="addr:city" v="Pomfret" />
    <tag k="addr:housenumber" v="330" />
    <tag k="addr:street" v="Caper Street" />
    <tag k="addr:state" v="VT" />
    <tag k="ref:vcgi:esiteid" v="760176" />
  </node>
  <node id="-728" visible="true" lat="43.72692583" lon="-72.50574496">
    <tag k="addr:city" v="Pomfret" />
    <tag k="addr:housenumber" v="370" />
    <tag k="addr:street" v="Herbie Hill" />
    <tag k="addr:state" v="VT" />
    <tag k="ref:vcgi:esiteid" v="760474" />
  </node>
  <node id="-729" visible="true" lat="43.67052991" lon="-72.5520318">
    <tag k="addr:city" v="Pomfret" />
    <tag k="addr:housenumber" v="831" />
    <tag k="addr:street" v="Stage Road" />
    <tag k="addr:state" v="VT" />
    <tag k="ref:vcgi:esiteid" v="761470" />
  </node>
  <node id="-730" visible="true" lat="43.73051619" lon="-72.52845322">
    <tag k="addr:city" v="Pomfret" />
    <tag k="addr:housenumber" v="151" />
    <tag k="addr:street" v="Twin Pond Road" />
    <tag k="addr:state" v="VT" />
    <tag k="ref:vcgi:esiteid" v="762954" />
  </node>
  <node id="-731" visible="true" lat="43.74609534" lon="-72.53997839">
    <tag k="addr:city" v="Pomfret" />
    <tag k="addr:housenumber" v="4156" />
    <tag k="addr:street" v="Allen Hill Road" />
    <tag k="addr:state" v="VT" />
    <tag k="ref:vcgi:esiteid" v="763960" />
  </node>
  <node id="-732" visible="true" lat="43.66006384" lon="-72.57269788">
    <tag k="addr:city" v="Pomfret" />
    <tag k="addr:housenumber" v="75" />
    <tag k="addr:street" v="Wayside Road" />
    <tag k="addr:state" v="VT" />
    <tag k="ref:vcgi:esiteid" v="763961" />
  </node>
  <node id="-733" visible="true" lat="43.69564492" lon="-72.52972983">
    <tag k="addr:city" v="Pomfret" />
    <tag k="addr:housenumber" v="526" />
    <tag k="addr:street" v="Tom White Hill" />
    <tag k="addr:state" v="VT" />
    <tag k="ref:vcgi:esiteid" v="764872" />
  </node>
  <node id="-734" visible="true" lat="43.69578795" lon="-72.52917193">
    <tag k="addr:city" v="Pomfret" />
    <tag k="addr:housenumber" v="528" />
    <tag k="addr:street" v="Tom White Hill" />
    <tag k="addr:state" v="VT" />
    <tag k="ref:vcgi:esiteid" v="764873" />
  </node>
  <node id="-735" visible="true" lat="43.71940514" lon="-72.46481111">
    <tag k="addr:city" v="Pomfret" />
    <tag k="addr:housenumber" v="321" />
    <tag k="addr:street" v="Starbuck Road" />
    <tag k="addr:state" v="VT" />
    <tag k="ref:vcgi:esiteid" v="764874" />
  </node>
  <node id="-736" visible="true" lat="43.70423809" lon="-72.51275401">
    <tag k="addr:city" v="Pomfret" />
    <tag k="addr:housenumber" v="397" />
    <tag k="addr:street" v="Galaxy Hill Road" />
    <tag k="addr:state" v="VT" />
    <tag k="ref:vcgi:esiteid" v="764875" />
  </node>
  <node id="-737" visible="true" lat="43.75325441" lon="-72.5178495">
    <tag k="addr:city" v="Pomfret" />
    <tag k="addr:housenumber" v="93" />
    <tag k="addr:street" v="Leonard Road" />
    <tag k="addr:state" v="VT" />
    <tag k="ref:vcgi:esiteid" v="764876" />
  </node>
  <node id="-738" visible="true" lat="43.75337934" lon="-72.51841626">
    <tag k="addr:city" v="Pomfret" />
    <tag k="addr:housenumber" v="57" />
    <tag k="addr:street" v="Leonard Road" />
    <tag k="addr:state" v="VT" />
    <tag k="ref:vcgi:esiteid" v="764877" />
  </node>
  <node id="-739" visible="true" lat="43.70360124" lon="-72.5091361">
    <tag k="addr:city" v="Pomfret" />
    <tag k="addr:housenumber" v="550" />
    <tag k="addr:street" v="Galaxy Hill Road" />
    <tag k="addr:state" v="VT" />
    <tag k="ref:vcgi:esiteid" v="764902" />
  </node>
  <node id="-740" visible="true" lat="43.67981424" lon="-72.56350836">
    <tag k="addr:city" v="Pomfret" />
    <tag k="addr:housenumber" v="1660" />
    <tag k="addr:street" v="Stage Road" />
    <tag k="addr:state" v="VT" />
    <tag k="ref:vcgi:esiteid" v="765462" />
  </node>
  <node id="-741" visible="true" lat="43.74507923" lon="-72.52479557">
    <tag k="addr:city" v="Pomfret" />
    <tag k="addr:housenumber" v="2169" />
    <tag k="addr:street" v="Allen Hill Road" />
    <tag k="addr:state" v="VT" />
    <tag k="ref:vcgi:esiteid" v="1050069" />
  </node>
  <node id="-743" visible="true" lat="43.66541752" lon="-72.54282636">
    <tag k="addr:city" v="Pomfret" />
    <tag k="addr:housenumber" v="249" />
    <tag k="addr:street" v="Stage Road" />
    <tag k="addr:state" v="VT" />
    <tag k="ref:vcgi:esiteid" v="1050579" />
  </node>
  <node id="-744" visible="true" lat="43.723" lon="-72.50233">
    <tag k="addr:city" v="Pomfret" />
    <tag k="addr:housenumber" v="63" />
    <tag k="addr:street" v="Hewitt Hill Road" />
    <tag k="addr:state" v="VT" />
    <tag k="ref:vcgi:esiteid" v="1050586" />
  </node>
  <node id="-745" visible="true" lat="43.72448423" lon="-72.47973577">
    <tag k="addr:city" v="Pomfret" />
    <tag k="addr:housenumber" v="217" />
    <tag k="addr:street" v="Caper Street" />
    <tag k="addr:state" v="VT" />
    <tag k="ref:vcgi:esiteid" v="1050587" />
  </node>
  <node id="-746" visible="true" lat="43.72126787" lon="-72.42810263">
    <tag k="addr:city" v="Pomfret" />
    <tag k="addr:housenumber" v="10937" />
    <tag k="addr:street" v="Pomfret Road" />
    <tag k="addr:state" v="VT" />
    <tag k="ref:vcgi:esiteid" v="1051029" />
  </node>
</osm>
