<?xml version="1.0" encoding="UTF-8"?>
<osm version="0.6" generator="JOSM" upload="false">
  <node id="-100" visible="true" lat="44.04702936" lon="-72.68603307">
    <tag k="addr:city" v="Roxbury" />
    <tag k="addr:housenumber" v="1300" />
    <tag k="addr:street" v="Four Mile Wood Road" />
    <tag k="addr:state" v="VT" />
    <tag k="ref:vcgi:esiteid" v="374" />
  </node>
  <node id="-101" visible="true" lat="44.04478079" lon="-72.69216663">
    <tag k="addr:city" v="Roxbury" />
    <tag k="addr:housenumber" v="1195" />
    <tag k="addr:street" v="Four Mile Wood Road" />
    <tag k="addr:state" v="VT" />
    <tag k="ref:vcgi:esiteid" v="375" />
  </node>
  <node id="-102" visible="true" lat="44.03512781" lon="-72.66901251">
    <tag k="addr:city" v="Roxbury" />
    <tag k="addr:housenumber" v="3371" />
    <tag k="addr:street" v="Steele Hill Road" />
    <tag k="addr:state" v="VT" />
    <tag k="ref:vcgi:esiteid" v="40516" />
  </node>
  <node id="-103" visible="true" lat="44.07671063" lon="-72.64272844">
    <tag k="addr:city" v="Roxbury" />
    <tag k="addr:housenumber" v="1469" />
    <tag k="addr:street" v="East Roxbury Road" />
    <tag k="addr:state" v="VT" />
    <tag k="ref:vcgi:esiteid" v="40973" />
  </node>
  <node id="-104" visible="true" lat="44.11258419" lon="-72.73255869">
    <tag k="addr:city" v="Roxbury" />
    <tag k="addr:housenumber" v="429" />
    <tag k="addr:street" v="Rabbit Hollow Road" />
    <tag k="addr:state" v="VT" />
    <tag k="ref:vcgi:esiteid" v="181742" />
  </node>
  <node id="-105" visible="true" lat="44.08903865" lon="-72.63586075">
    <tag k="addr:city" v="Roxbury" />
    <tag k="addr:housenumber" v="327" />
    <tag k="addr:street" v="Herriott Road" />
    <tag k="addr:state" v="VT" />
    <tag k="ref:vcgi:esiteid" v="181792" />
  </node>
  <node id="-106" visible="true" lat="44.12381715" lon="-72.76470284">
    <tag k="addr:city" v="Roxbury" />
    <tag k="addr:housenumber" v="736" />
    <tag k="addr:street" v="Shaw Road" />
    <tag k="addr:state" v="VT" />
    <tag k="ref:vcgi:esiteid" v="205305" />
  </node>
  <node id="-107" visible="true" lat="44.12009617" lon="-72.76703686">
    <tag k="addr:city" v="Roxbury" />
    <tag k="addr:housenumber" v="452" />
    <tag k="addr:street" v="Shaw Road" />
    <tag k="addr:state" v="VT" />
    <tag k="ref:vcgi:esiteid" v="205306" />
  </node>
  <node id="-108" visible="true" lat="44.11908055" lon="-72.74443464">
    <tag k="addr:city" v="Roxbury" />
    <tag k="addr:housenumber" v="993" />
    <tag k="addr:street" v="Northfield Road" />
    <tag k="addr:state" v="VT" />
    <tag k="ref:vcgi:esiteid" v="205307" />
  </node>
  <node id="-109" visible="true" lat="44.11893483" lon="-72.75121946">
    <tag k="addr:city" v="Roxbury" />
    <tag k="addr:housenumber" v="392" />
    <tag k="addr:street" v="Erskine Road" />
    <tag k="addr:state" v="VT" />
    <tag k="ref:vcgi:esiteid" v="205308" />
  </node>
  <node id="-110" visible="true" lat="44.11890777" lon="-72.74386519">
    <tag k="addr:city" v="Roxbury" />
    <tag k="addr:housenumber" v="991" />
    <tag k="addr:street" v="Northfield Road" />
    <tag k="addr:state" v="VT" />
    <tag k="ref:vcgi:esiteid" v="205309" />
  </node>
  <node id="-111" visible="true" lat="44.11809264" lon="-72.74415063">
    <tag k="addr:city" v="Roxbury" />
    <tag k="addr:housenumber" v="949" />
    <tag k="addr:street" v="Northfield Road" />
    <tag k="addr:state" v="VT" />
    <tag k="ref:vcgi:esiteid" v="205310" />
  </node>
  <node id="-112" visible="true" lat="44.11640049" lon="-72.74586845">
    <tag k="addr:city" v="Roxbury" />
    <tag k="addr:housenumber" v="785" />
    <tag k="addr:street" v="Northfield Road" />
    <tag k="addr:state" v="VT" />
    <tag k="ref:vcgi:esiteid" v="205311" />
  </node>
  <node id="-113" visible="true" lat="44.1157707" lon="-72.7491158">
    <tag k="addr:city" v="Roxbury" />
    <tag k="addr:housenumber" v="151" />
    <tag k="addr:street" v="Erskine Road" />
    <tag k="addr:state" v="VT" />
    <tag k="ref:vcgi:esiteid" v="205312" />
  </node>
  <node id="-114" visible="true" lat="44.1157236" lon="-72.74307886">
    <tag k="addr:city" v="Roxbury" />
    <tag k="addr:housenumber" v="808" />
    <tag k="addr:street" v="Northfield Road" />
    <tag k="addr:state" v="VT" />
    <tag k="ref:vcgi:esiteid" v="205313" />
  </node>
  <node id="-115" visible="true" lat="44.11505009" lon="-72.74531124">
    <tag k="addr:city" v="Roxbury" />
    <tag k="addr:housenumber" v="711" />
    <tag k="addr:street" v="Northfield Road" />
    <tag k="addr:state" v="VT" />
    <tag k="ref:vcgi:esiteid" v="205314" />
  </node>
  <node id="-116" visible="true" lat="44.11449626" lon="-72.76799686">
    <tag k="addr:city" v="Roxbury" />
    <tag k="addr:housenumber" v="14" />
    <tag k="addr:street" v="Shaw Road" />
    <tag k="addr:state" v="VT" />
    <tag k="ref:vcgi:esiteid" v="205315" />
  </node>
  <node id="-117" visible="true" lat="44.11454737" lon="-72.76960508">
    <tag k="addr:city" v="Roxbury" />
    <tag k="addr:housenumber" v="2516" />
    <tag k="addr:street" v="Warren Mountain Road" />
    <tag k="addr:state" v="VT" />
    <tag k="ref:vcgi:esiteid" v="205316" />
  </node>
  <node id="-118" visible="true" lat="44.11367866" lon="-72.74664275">
    <tag k="addr:city" v="Roxbury" />
    <tag k="addr:housenumber" v="605" />
    <tag k="addr:street" v="Northfield Road" />
    <tag k="addr:state" v="VT" />
    <tag k="ref:vcgi:esiteid" v="205317" />
  </node>
  <node id="-119" visible="true" lat="44.11382908" lon="-72.72543173">
    <tag k="addr:city" v="Roxbury" />
    <tag k="addr:housenumber" v="34" />
    <tag k="addr:street" v="Roxbury Road" />
    <tag k="addr:state" v="VT" />
    <tag k="ref:vcgi:esiteid" v="205318" />
  </node>
  <node id="-120" visible="true" lat="44.11316347" lon="-72.76778207">
    <tag k="addr:city" v="Roxbury" />
    <tag k="addr:housenumber" v="2323" />
    <tag k="addr:street" v="Warren Mountain Road" />
    <tag k="addr:state" v="VT" />
    <tag k="ref:vcgi:esiteid" v="205319" />
  </node>
  <node id="-121" visible="true" lat="44.11320375" lon="-72.74653637">
    <tag k="addr:city" v="Roxbury" />
    <tag k="addr:housenumber" v="569" />
    <tag k="addr:street" v="Northfield Road" />
    <tag k="addr:state" v="VT" />
    <tag k="ref:vcgi:esiteid" v="205320" />
  </node>
  <node id="-122" visible="true" lat="44.1129365" lon="-72.7461941">
    <tag k="addr:city" v="Roxbury" />
    <tag k="addr:housenumber" v="564" />
    <tag k="addr:street" v="Northfield Road" />
    <tag k="addr:state" v="VT" />
    <tag k="ref:vcgi:esiteid" v="205321" />
  </node>
  <node id="-123" visible="true" lat="44.11319188" lon="-72.72594553">
    <tag k="addr:city" v="Roxbury" />
    <tag k="addr:housenumber" v="92" />
    <tag k="addr:street" v="Roxbury Road" />
    <tag k="addr:state" v="VT" />
    <tag k="ref:vcgi:esiteid" v="205322" />
  </node>
  <node id="-124" visible="true" lat="44.11271996" lon="-72.74685912">
    <tag k="addr:city" v="Roxbury" />
    <tag k="addr:housenumber" v="533" />
    <tag k="addr:street" v="Northfield Road" />
    <tag k="addr:state" v="VT" />
    <tag k="ref:vcgi:esiteid" v="205323" />
  </node>
  <node id="-125" visible="true" lat="44.11276786" lon="-72.76412327">
    <tag k="addr:city" v="Roxbury" />
    <tag k="addr:housenumber" v="2138" />
    <tag k="addr:street" v="Warren Mountain Road" />
    <tag k="addr:state" v="VT" />
    <tag k="ref:vcgi:esiteid" v="205324" />
  </node>
  <node id="-126" visible="true" lat="44.11274484" lon="-72.76473364">
    <tag k="addr:city" v="Roxbury" />
    <tag k="addr:housenumber" v="2160" />
    <tag k="addr:street" v="Warren Mountain Road" />
    <tag k="addr:state" v="VT" />
    <tag k="ref:vcgi:esiteid" v="205325" />
  </node>
  <node id="-127" visible="true" lat="44.11212158" lon="-72.7648468">
    <tag k="addr:city" v="Roxbury" />
    <tag k="addr:housenumber" v="2151" />
    <tag k="addr:street" v="Warren Mountain Road" />
    <tag k="addr:state" v="VT" />
    <tag k="ref:vcgi:esiteid" v="205326" />
  </node>
  <node id="-128" visible="true" lat="44.11205942" lon="-72.72642417">
    <tag k="addr:city" v="Roxbury" />
    <tag k="addr:housenumber" v="146" />
    <tag k="addr:street" v="Roxbury Road" />
    <tag k="addr:state" v="VT" />
    <tag k="ref:vcgi:esiteid" v="205327" />
  </node>
  <node id="-129" visible="true" lat="44.11244968" lon="-72.7626624">
    <tag k="addr:city" v="Roxbury" />
    <tag k="addr:housenumber" v="2078" />
    <tag k="addr:street" v="Warren Mountain Road" />
    <tag k="addr:state" v="VT" />
    <tag k="ref:vcgi:esiteid" v="205328" />
  </node>
  <node id="-130" visible="true" lat="44.11186695" lon="-72.7202785">
    <tag k="addr:city" v="Roxbury" />
    <tag k="addr:housenumber" v="150" />
    <tag k="addr:street" v="Evans Road" />
    <tag k="addr:state" v="VT" />
    <tag k="ref:vcgi:esiteid" v="205329" />
  </node>
  <node id="-131" visible="true" lat="44.11129566" lon="-72.76478246">
    <tag k="addr:city" v="Roxbury" />
    <tag k="addr:housenumber" v="2123" />
    <tag k="addr:street" v="Warren Mountain Road" />
    <tag k="addr:state" v="VT" />
    <tag k="ref:vcgi:esiteid" v="205330" />
  </node>
  <node id="-132" visible="true" lat="44.11170523" lon="-72.72653738">
    <tag k="addr:city" v="Roxbury" />
    <tag k="addr:housenumber" v="208" />
    <tag k="addr:street" v="Roxbury Road" />
    <tag k="addr:state" v="VT" />
    <tag k="ref:vcgi:esiteid" v="205331" />
  </node>
  <node id="-133" visible="true" lat="44.11113864" lon="-72.74578169">
    <tag k="addr:city" v="Roxbury" />
    <tag k="addr:housenumber" v="440" />
    <tag k="addr:street" v="Northfield Road" />
    <tag k="addr:state" v="VT" />
    <tag k="ref:vcgi:esiteid" v="205333" />
  </node>
  <node id="-134" visible="true" lat="44.11076197" lon="-72.76101022">
    <tag k="addr:city" v="Roxbury" />
    <tag k="addr:housenumber" v="1948" />
    <tag k="addr:street" v="Warren Mountain Road" />
    <tag k="addr:state" v="VT" />
    <tag k="ref:vcgi:esiteid" v="205334" />
  </node>
  <node id="-135" visible="true" lat="44.11059429" lon="-72.72560795">
    <tag k="addr:city" v="Roxbury" />
    <tag k="addr:housenumber" v="139" />
    <tag k="addr:street" v="Roxbury Road" />
    <tag k="addr:state" v="VT" />
    <tag k="ref:vcgi:esiteid" v="205335" />
  </node>
  <node id="-136" visible="true" lat="44.11027136" lon="-72.74898903">
    <tag k="addr:city" v="Roxbury" />
    <tag k="addr:housenumber" v="331" />
    <tag k="addr:street" v="Northfield Road" />
    <tag k="addr:state" v="VT" />
    <tag k="ref:vcgi:esiteid" v="205336" />
  </node>
  <node id="-137" visible="true" lat="44.11041287" lon="-72.72644309">
    <tag k="addr:city" v="Roxbury" />
    <tag k="addr:housenumber" v="267" />
    <tag k="addr:street" v="Roxbury Road" />
    <tag k="addr:state" v="VT" />
    <tag k="ref:vcgi:esiteid" v="205337" />
  </node>
  <node id="-138" visible="true" lat="44.11059163" lon="-72.72734558">
    <tag k="addr:city" v="Roxbury" />
    <tag k="addr:housenumber" v="248" />
    <tag k="addr:street" v="Roxbury Road" />
    <tag k="addr:state" v="VT" />
    <tag k="ref:vcgi:esiteid" v="205338" />
  </node>
  <node id="-139" visible="true" lat="44.10976874" lon="-72.74803989">
    <tag k="addr:city" v="Roxbury" />
    <tag k="addr:housenumber" v="330" />
    <tag k="addr:street" v="Northfield Road" />
    <tag k="addr:state" v="VT" />
    <tag k="ref:vcgi:esiteid" v="205339" />
  </node>
  <node id="-140" visible="true" lat="44.10971385" lon="-72.75886508">
    <tag k="addr:city" v="Roxbury" />
    <tag k="addr:housenumber" v="1796" />
    <tag k="addr:street" v="Warren Mountain Road" />
    <tag k="addr:state" v="VT" />
    <tag k="ref:vcgi:esiteid" v="205340" />
  </node>
  <node id="-141" visible="true" lat="44.10889141" lon="-72.72698638">
    <tag k="addr:city" v="Roxbury" />
    <tag k="addr:housenumber" v="381" />
    <tag k="addr:street" v="Roxbury Road" />
    <tag k="addr:state" v="VT" />
    <tag k="ref:vcgi:esiteid" v="205341" />
  </node>
  <node id="-142" visible="true" lat="44.10879724" lon="-72.75571696">
    <tag k="addr:city" v="Roxbury" />
    <tag k="addr:housenumber" v="1662" />
    <tag k="addr:street" v="Warren Mountain Road" />
    <tag k="addr:state" v="VT" />
    <tag k="ref:vcgi:esiteid" v="205342" />
  </node>
  <node id="-143" visible="true" lat="44.10836094" lon="-72.76372409">
    <tag k="addr:city" v="Roxbury" />
    <tag k="addr:housenumber" v="262" />
    <tag k="addr:street" v="Old Warren Road" />
    <tag k="addr:state" v="VT" />
    <tag k="ref:vcgi:esiteid" v="205343" />
  </node>
  <node id="-144" visible="true" lat="44.10792923" lon="-72.76491546">
    <tag k="addr:city" v="Roxbury" />
    <tag k="addr:housenumber" v="324" />
    <tag k="addr:street" v="Old Warren Road" />
    <tag k="addr:state" v="VT" />
    <tag k="ref:vcgi:esiteid" v="205344" />
  </node>
  <node id="-145" visible="true" lat="44.10788726" lon="-72.77281188">
    <tag k="addr:city" v="Roxbury" />
    <tag k="addr:housenumber" v="746" />
    <tag k="addr:street" v="Old Warren Road" />
    <tag k="addr:state" v="VT" />
    <tag k="ref:vcgi:esiteid" v="205345" />
  </node>
  <node id="-146" visible="true" lat="44.10789423" lon="-72.75636982">
    <tag k="addr:city" v="Roxbury" />
    <tag k="addr:housenumber" v="1623" />
    <tag k="addr:street" v="Warren Mountain Road" />
    <tag k="addr:state" v="VT" />
    <tag k="ref:vcgi:esiteid" v="205346" />
  </node>
  <node id="-147" visible="true" lat="44.10796814" lon="-72.72668892">
    <tag k="addr:city" v="Roxbury" />
    <tag k="addr:housenumber" v="429" />
    <tag k="addr:street" v="Roxbury Road" />
    <tag k="addr:state" v="VT" />
    <tag k="ref:vcgi:esiteid" v="205347" />
  </node>
  <node id="-148" visible="true" lat="44.10757246" lon="-72.72556799">
    <tag k="addr:city" v="Roxbury" />
    <tag k="addr:housenumber" v="431" />
    <tag k="addr:street" v="Roxbury Road" />
    <tag k="addr:state" v="VT" />
    <tag k="ref:vcgi:esiteid" v="205348" />
  </node>
  <node id="-149" visible="true" lat="44.10674217" lon="-72.73430342">
    <tag k="addr:city" v="Roxbury" />
    <tag k="addr:housenumber" v="464" />
    <tag k="addr:street" v="Premo Road" />
    <tag k="addr:state" v="VT" />
    <tag k="ref:vcgi:esiteid" v="205349" />
  </node>
  <node id="-150" visible="true" lat="44.10612689" lon="-72.75157482">
    <tag k="addr:city" v="Roxbury" />
    <tag k="addr:housenumber" v="1354" />
    <tag k="addr:street" v="Warren Mountain Road" />
    <tag k="addr:state" v="VT" />
    <tag k="ref:vcgi:esiteid" v="205350" />
  </node>
  <node id="-151" visible="true" lat="44.10569606" lon="-72.73545092">
    <tag k="addr:city" v="Roxbury" />
    <tag k="addr:housenumber" v="549" />
    <tag k="addr:street" v="Premo Road" />
    <tag k="addr:state" v="VT" />
    <tag k="ref:vcgi:esiteid" v="205351" />
  </node>
  <node id="-152" visible="true" lat="44.10543973" lon="-72.74584579">
    <tag k="addr:city" v="Roxbury" />
    <tag k="addr:housenumber" v="160" />
    <tag k="addr:street" v="Dunbars Way" />
    <tag k="addr:state" v="VT" />
    <tag k="ref:vcgi:esiteid" v="205352" />
  </node>
  <node id="-153" visible="true" lat="44.10511719" lon="-72.73230961">
    <tag k="addr:city" v="Roxbury" />
    <tag k="addr:housenumber" v="215" />
    <tag k="addr:street" v="Premo Road" />
    <tag k="addr:state" v="VT" />
    <tag k="ref:vcgi:esiteid" v="205353" />
  </node>
  <node id="-154" visible="true" lat="44.10438156" lon="-72.73950195">
    <tag k="addr:city" v="Roxbury" />
    <tag k="addr:housenumber" v="394" />
    <tag k="addr:street" v="Warren Mountain Road" />
    <tag k="addr:state" v="VT" />
    <tag k="ref:vcgi:esiteid" v="205354" />
  </node>
  <node id="-155" visible="true" lat="44.10333103" lon="-72.74610486">
    <tag k="addr:city" v="Roxbury" />
    <tag k="addr:housenumber" v="1038" />
    <tag k="addr:street" v="Warren Mountain Road" />
    <tag k="addr:state" v="VT" />
    <tag k="ref:vcgi:esiteid" v="205355" />
  </node>
  <node id="-156" visible="true" lat="44.10343905" lon="-72.69466424">
    <tag k="addr:city" v="Roxbury" />
    <tag k="addr:housenumber" v="1014" />
    <tag k="addr:street" v="Messier Hill Road" />
    <tag k="addr:state" v="VT" />
    <tag k="ref:vcgi:esiteid" v="205356" />
  </node>
  <node id="-157" visible="true" lat="44.10338368" lon="-72.68953756">
    <tag k="addr:city" v="Roxbury" />
    <tag k="addr:housenumber" v="774" />
    <tag k="addr:street" v="Messier Hill Road" />
    <tag k="addr:state" v="VT" />
    <tag k="ref:vcgi:esiteid" v="205357" />
  </node>
  <node id="-158" visible="true" lat="44.10337285" lon="-72.72777436">
    <tag k="addr:city" v="Roxbury" />
    <tag k="addr:housenumber" v="140" />
    <tag k="addr:street" v="Schuler Road" />
    <tag k="addr:state" v="VT" />
    <tag k="ref:vcgi:esiteid" v="205358" />
  </node>
  <node id="-159" visible="true" lat="44.10299547" lon="-72.69873785">
    <tag k="addr:city" v="Roxbury" />
    <tag k="addr:housenumber" v="1060" />
    <tag k="addr:street" v="Messier Hill Road" />
    <tag k="addr:state" v="VT" />
    <tag k="ref:vcgi:esiteid" v="205359" />
  </node>
  <node id="-160" visible="true" lat="44.10250279" lon="-72.74789373">
    <tag k="addr:city" v="Roxbury" />
    <tag k="addr:housenumber" v="1035" />
    <tag k="addr:street" v="Warren Mountain Road" />
    <tag k="addr:state" v="VT" />
    <tag k="ref:vcgi:esiteid" v="205360" />
  </node>
  <node id="-161" visible="true" lat="44.10196134" lon="-72.75167271">
    <tag k="addr:city" v="Roxbury" />
    <tag k="addr:housenumber" v="2051" />
    <tag k="addr:street" v="Carrie Howe Road" />
    <tag k="addr:state" v="VT" />
    <tag k="ref:vcgi:esiteid" v="205361" />
  </node>
  <node id="-162" visible="true" lat="44.10184271" lon="-72.74640736">
    <tag k="addr:city" v="Roxbury" />
    <tag k="addr:housenumber" v="953" />
    <tag k="addr:street" v="Warren Mountain Road" />
    <tag k="addr:state" v="VT" />
    <tag k="ref:vcgi:esiteid" v="205362" />
  </node>
  <node id="-163" visible="true" lat="44.1013526" lon="-72.7316187">
    <tag k="addr:city" v="Roxbury" />
    <tag k="addr:housenumber" v="45" />
    <tag k="addr:street" v="Ellis Road" />
    <tag k="addr:state" v="VT" />
    <tag k="ref:vcgi:esiteid" v="205363" />
  </node>
  <node id="-164" visible="true" lat="44.10110466" lon="-72.74505164">
    <tag k="addr:city" v="Roxbury" />
    <tag k="addr:housenumber" v="860" />
    <tag k="addr:street" v="Warren Mountain Road" />
    <tag k="addr:state" v="VT" />
    <tag k="ref:vcgi:esiteid" v="205364" />
  </node>
  <node id="-165" visible="true" lat="44.1009386" lon="-72.75162008">
    <tag k="addr:city" v="Roxbury" />
    <tag k="addr:housenumber" v="1981" />
    <tag k="addr:street" v="Carrie Howe Road" />
    <tag k="addr:state" v="VT" />
    <tag k="ref:vcgi:esiteid" v="205365" />
  </node>
  <node id="-166" visible="true" lat="44.09971426" lon="-72.75085335">
    <tag k="addr:city" v="Roxbury" />
    <tag k="addr:housenumber" v="1921" />
    <tag k="addr:street" v="Carrie Howe Road" />
    <tag k="addr:state" v="VT" />
    <tag k="ref:vcgi:esiteid" v="205366" />
  </node>
  <node id="-167" visible="true" lat="44.09917649" lon="-72.74371376">
    <tag k="addr:city" v="Roxbury" />
    <tag k="addr:housenumber" v="702" />
    <tag k="addr:street" v="Warren Mountain Road" />
    <tag k="addr:state" v="VT" />
    <tag k="ref:vcgi:esiteid" v="205367" />
  </node>
  <node id="-168" visible="true" lat="44.09877586" lon="-72.66954407">
    <tag k="addr:city" v="Roxbury" />
    <tag k="addr:housenumber" v="1970" />
    <tag k="addr:street" v="Winch Hill Road" />
    <tag k="addr:state" v="VT" />
    <tag k="ref:vcgi:esiteid" v="205368" />
  </node>
  <node id="-169" visible="true" lat="44.09870724" lon="-72.74362259">
    <tag k="addr:city" v="Roxbury" />
    <tag k="addr:housenumber" v="680" />
    <tag k="addr:street" v="Warren Mountain Road" />
    <tag k="addr:state" v="VT" />
    <tag k="ref:vcgi:esiteid" v="205369" />
  </node>
  <node id="-170" visible="true" lat="44.09866686" lon="-72.73237163">
    <tag k="addr:city" v="Roxbury" />
    <tag k="addr:housenumber" v="159" />
    <tag k="addr:street" v="Ellis Road" />
    <tag k="addr:state" v="VT" />
    <tag k="ref:vcgi:esiteid" v="205370" />
  </node>
  <node id="-171" visible="true" lat="44.09840392" lon="-72.74431255">
    <tag k="addr:city" v="Roxbury" />
    <tag k="addr:housenumber" v="653" />
    <tag k="addr:street" v="Warren Mountain Road" />
    <tag k="addr:state" v="VT" />
    <tag k="ref:vcgi:esiteid" v="205371" />
  </node>
  <node id="-172" visible="true" lat="44.09813309" lon="-72.74434039">
    <tag k="addr:city" v="Roxbury" />
    <tag k="addr:housenumber" v="651" />
    <tag k="addr:street" v="Warren Mountain Road" />
    <tag k="addr:state" v="VT" />
    <tag k="ref:vcgi:esiteid" v="205372" />
  </node>
  <node id="-173" visible="true" lat="44.09770202" lon="-72.73770904">
    <tag k="addr:city" v="Roxbury" />
    <tag k="addr:housenumber" v="316" />
    <tag k="addr:street" v="Warren Mountain Road" />
    <tag k="addr:state" v="VT" />
    <tag k="ref:vcgi:esiteid" v="205373" />
  </node>
  <node id="-174" visible="true" lat="44.09755906" lon="-72.74942796">
    <tag k="addr:city" v="Roxbury" />
    <tag k="addr:housenumber" v="1712" />
    <tag k="addr:street" v="Carrie Howe Road" />
    <tag k="addr:state" v="VT" />
    <tag k="ref:vcgi:esiteid" v="205374" />
  </node>
  <node id="-175" visible="true" lat="44.097574" lon="-72.74412499">
    <tag k="addr:city" v="Roxbury" />
    <tag k="addr:housenumber" v="635" />
    <tag k="addr:street" v="Warren Mountain Road" />
    <tag k="addr:state" v="VT" />
    <tag k="ref:vcgi:esiteid" v="205375" />
  </node>
  <node id="-176" visible="true" lat="44.09768384" lon="-72.73143833">
    <tag k="addr:city" v="Roxbury" />
    <tag k="addr:housenumber" v="1203" />
    <tag k="addr:street" v="Roxbury Road" />
    <tag k="addr:state" v="VT" />
    <tag k="ref:vcgi:esiteid" v="205376" />
  </node>
  <node id="-177" visible="true" lat="44.09725549" lon="-72.7435487">
    <tag k="addr:city" v="Roxbury" />
    <tag k="addr:housenumber" v="583" />
    <tag k="addr:street" v="Warren Mountain Road" />
    <tag k="addr:state" v="VT" />
    <tag k="ref:vcgi:esiteid" v="205377" />
  </node>
  <node id="-178" visible="true" lat="44.0972474" lon="-72.67738109">
    <tag k="addr:city" v="Roxbury" />
    <tag k="addr:housenumber" v="1517" />
    <tag k="addr:street" v="Bull Run Road" />
    <tag k="addr:state" v="VT" />
    <tag k="ref:vcgi:esiteid" v="205378" />
  </node>
  <node id="-179" visible="true" lat="44.09714388" lon="-72.73029263">
    <tag k="addr:city" v="Roxbury" />
    <tag k="addr:housenumber" v="1215" />
    <tag k="addr:street" v="Roxbury Road" />
    <tag k="addr:state" v="VT" />
    <tag k="ref:vcgi:esiteid" v="205379" />
  </node>
  <node id="-180" visible="true" lat="44.096907" lon="-72.74199944">
    <tag k="addr:city" v="Roxbury" />
    <tag k="addr:housenumber" v="530" />
    <tag k="addr:street" v="Warren Mountain Road" />
    <tag k="addr:state" v="VT" />
    <tag k="ref:vcgi:esiteid" v="205380" />
  </node>
  <node id="-181" visible="true" lat="44.09652843" lon="-72.74158535">
    <tag k="addr:city" v="Roxbury" />
    <tag k="addr:housenumber" v="478" />
    <tag k="addr:street" v="Warren Mountain Road" />
    <tag k="addr:state" v="VT" />
    <tag k="ref:vcgi:esiteid" v="205381" />
  </node>
  <node id="-182" visible="true" lat="44.09632498" lon="-72.74105691">
    <tag k="addr:city" v="Roxbury" />
    <tag k="addr:housenumber" v="476" />
    <tag k="addr:street" v="Warren Mountain Road" />
    <tag k="addr:state" v="VT" />
    <tag k="ref:vcgi:esiteid" v="205382" />
  </node>
  <node id="-183" visible="true" lat="44.09598115" lon="-72.73753132">
    <tag k="addr:city" v="Roxbury" />
    <tag k="addr:housenumber" v="314" />
    <tag k="addr:street" v="Warren Mountain Road" />
    <tag k="addr:state" v="VT" />
    <tag k="ref:vcgi:esiteid" v="205383" />
  </node>
  <node id="-184" visible="true" lat="44.09605027" lon="-72.73260059">
    <tag k="addr:city" v="Roxbury" />
    <tag k="addr:housenumber" v="1312" />
    <tag k="addr:street" v="Roxbury Road" />
    <tag k="addr:state" v="VT" />
    <tag k="ref:vcgi:esiteid" v="205384" />
  </node>
  <node id="-185" visible="true" lat="44.09627385" lon="-72.73126915">
    <tag k="addr:city" v="Roxbury" />
    <tag k="addr:housenumber" v="1329" />
    <tag k="addr:street" v="Roxbury Road" />
    <tag k="addr:state" v="VT" />
    <tag k="ref:vcgi:esiteid" v="205385" />
  </node>
  <node id="-186" visible="true" lat="44.09566325" lon="-72.73272079">
    <tag k="addr:city" v="Roxbury" />
    <tag k="addr:housenumber" v="1340" />
    <tag k="addr:street" v="Roxbury Road" />
    <tag k="addr:state" v="VT" />
    <tag k="ref:vcgi:esiteid" v="205386" />
  </node>
  <node id="-187" visible="true" lat="44.09544096" lon="-72.73975242">
    <tag k="addr:city" v="Roxbury" />
    <tag k="addr:housenumber" v="364" />
    <tag k="addr:street" v="Warren Mountain Road" />
    <tag k="addr:state" v="VT" />
    <tag k="ref:vcgi:esiteid" v="205387" />
  </node>
  <node id="-188" visible="true" lat="44.09515693" lon="-72.73914498">
    <tag k="addr:city" v="Roxbury" />
    <tag k="addr:housenumber" v="335" />
    <tag k="addr:street" v="Warren Mountain Road" />
    <tag k="addr:state" v="VT" />
    <tag k="ref:vcgi:esiteid" v="205388" />
  </node>
  <node id="-189" visible="true" lat="44.09514104" lon="-72.73281749">
    <tag k="addr:city" v="Roxbury" />
    <tag k="addr:housenumber" v="1384" />
    <tag k="addr:street" v="Roxbury Road" />
    <tag k="addr:state" v="VT" />
    <tag k="ref:vcgi:esiteid" v="205389" />
  </node>
  <node id="-190" visible="true" lat="44.09455238" lon="-72.73631085">
    <tag k="addr:city" v="Roxbury" />
    <tag k="addr:housenumber" v="178" />
    <tag k="addr:street" v="Warren Mountain Road" />
    <tag k="addr:state" v="VT" />
    <tag k="ref:vcgi:esiteid" v="205390" />
  </node>
  <node id="-191" visible="true" lat="44.09472708" lon="-72.73293654">
    <tag k="addr:city" v="Roxbury" />
    <tag k="addr:housenumber" v="1412" />
    <tag k="addr:street" v="Roxbury Road" />
    <tag k="addr:state" v="VT" />
    <tag k="ref:vcgi:esiteid" v="205391" />
  </node>
  <node id="-192" visible="true" lat="44.09439497" lon="-72.73672097">
    <tag k="addr:city" v="Roxbury" />
    <tag k="addr:housenumber" v="199" />
    <tag k="addr:street" v="Warren Mountain Road" />
    <tag k="addr:state" v="VT" />
    <tag k="ref:vcgi:esiteid" v="205392" />
  </node>
  <node id="-193" visible="true" lat="44.0944137" lon="-72.7406189">
    <tag k="addr:city" v="Roxbury" />
    <tag k="addr:housenumber" v="83" />
    <tag k="addr:street" v="Webster Road" />
    <tag k="addr:state" v="VT" />
    <tag k="ref:vcgi:esiteid" v="205393" />
  </node>
  <node id="-194" visible="true" lat="44.09442324" lon="-72.73603932">
    <tag k="addr:city" v="Roxbury" />
    <tag k="addr:housenumber" v="162" />
    <tag k="addr:street" v="Warren Mountain Road" />
    <tag k="addr:state" v="VT" />
    <tag k="ref:vcgi:esiteid" v="205394" />
  </node>
  <node id="-195" visible="true" lat="44.09437083" lon="-72.73308331">
    <tag k="addr:city" v="Roxbury" />
    <tag k="addr:housenumber" v="1432" />
    <tag k="addr:street" v="Roxbury Road" />
    <tag k="addr:state" v="VT" />
    <tag k="ref:vcgi:esiteid" v="205395" />
  </node>
  <node id="-196" visible="true" lat="44.09412765" lon="-72.73270416">
    <tag k="addr:city" v="Roxbury" />
    <tag k="addr:housenumber" v="1435" />
    <tag k="addr:street" v="Roxbury Road" />
    <tag k="addr:state" v="VT" />
    <tag k="ref:vcgi:esiteid" v="205396" />
  </node>
  <node id="-197" visible="true" lat="44.09403441" lon="-72.73764805">
    <tag k="addr:city" v="Roxbury" />
    <tag k="addr:housenumber" v="237" />
    <tag k="addr:street" v="Warren Mountain Road" />
    <tag k="addr:state" v="VT" />
    <tag k="ref:vcgi:esiteid" v="205397" />
  </node>
  <node id="-198" visible="true" lat="44.09411753" lon="-72.73316769">
    <tag k="addr:city" v="Roxbury" />
    <tag k="addr:housenumber" v="1452" />
    <tag k="addr:street" v="Roxbury Road" />
    <tag k="addr:state" v="VT" />
    <tag k="ref:vcgi:esiteid" v="205398" />
  </node>
  <node id="-199" visible="true" lat="44.09358529" lon="-72.67943149">
    <tag k="addr:city" v="Roxbury" />
    <tag k="addr:housenumber" v="1795" />
    <tag k="addr:street" v="Bull Run Road" />
    <tag k="addr:state" v="VT" />
    <tag k="ref:vcgi:esiteid" v="205399" />
  </node>
  <node id="-200" visible="true" lat="44.0935863" lon="-72.73535822">
    <tag k="addr:city" v="Roxbury" />
    <tag k="addr:housenumber" v="117" />
    <tag k="addr:street" v="Warren Mountain Road" />
    <tag k="addr:state" v="VT" />
    <tag k="ref:vcgi:esiteid" v="205400" />
  </node>
  <node id="-201" visible="true" lat="44.09382928" lon="-72.73226215">
    <tag k="addr:city" v="Roxbury" />
    <tag k="addr:housenumber" v="1471" />
    <tag k="addr:street" v="Roxbury Road" />
    <tag k="addr:state" v="VT" />
    <tag k="ref:vcgi:esiteid" v="205401" />
  </node>
  <node id="-202" visible="true" lat="44.09363049" lon="-72.73452536">
    <tag k="addr:city" v="Roxbury" />
    <tag k="addr:housenumber" v="68" />
    <tag k="addr:street" v="Warren Mountain Road" />
    <tag k="addr:state" v="VT" />
    <tag k="ref:vcgi:esiteid" v="205402" />
  </node>
  <node id="-203" visible="true" lat="44.09366422" lon="-72.73332016">
    <tag k="addr:city" v="Roxbury" />
    <tag k="addr:housenumber" v="1484" />
    <tag k="addr:street" v="Roxbury Road" />
    <tag k="addr:state" v="VT" />
    <tag k="ref:vcgi:esiteid" v="205403" />
  </node>
  <node id="-204" visible="true" lat="44.09359087" lon="-72.73275404">
    <tag k="addr:city" v="Roxbury" />
    <tag k="addr:housenumber" v="1483" />
    <tag k="addr:street" v="Roxbury Road" />
    <tag k="addr:state" v="VT" />
    <tag k="ref:vcgi:esiteid" v="205404" />
  </node>
  <node id="-205" visible="true" lat="44.0933077" lon="-72.73433365">
    <tag k="addr:city" v="Roxbury" />
    <tag k="addr:housenumber" v="59" />
    <tag k="addr:street" v="Warren Mountain Road" />
    <tag k="addr:state" v="VT" />
    <tag k="ref:vcgi:esiteid" v="205405" />
  </node>
  <node id="-206" visible="true" lat="44.0934273" lon="-72.732899">
    <tag k="addr:city" v="Roxbury" />
    <tag k="addr:housenumber" v="1491" />
    <tag k="addr:street" v="Roxbury Road" />
    <tag k="addr:state" v="VT" />
    <tag k="ref:vcgi:esiteid" v="205406" />
  </node>
  <node id="-207" visible="true" lat="44.0934667" lon="-72.73340853">
    <tag k="addr:city" v="Roxbury" />
    <tag k="addr:housenumber" v="1496" />
    <tag k="addr:street" v="Roxbury Road" />
    <tag k="addr:state" v="VT" />
    <tag k="ref:vcgi:esiteid" v="205407" />
  </node>
  <node id="-208" visible="true" lat="44.09322258" lon="-72.73294887">
    <tag k="addr:city" v="Roxbury" />
    <tag k="addr:housenumber" v="19" />
    <tag k="addr:street" v="Tracy Hill Road" />
    <tag k="addr:state" v="VT" />
    <tag k="ref:vcgi:esiteid" v="205408" />
  </node>
  <node id="-209" visible="true" lat="44.09313352" lon="-72.74371729">
    <tag k="addr:city" v="Roxbury" />
    <tag k="addr:housenumber" v="324" />
    <tag k="addr:street" v="Webster Road" />
    <tag k="addr:state" v="VT" />
    <tag k="ref:vcgi:esiteid" v="205409" />
  </node>
  <node id="-210" visible="true" lat="44.09313162" lon="-72.73212563">
    <tag k="addr:city" v="Roxbury" />
    <tag k="addr:housenumber" v="35" />
    <tag k="addr:street" v="Tracy Hill Road" />
    <tag k="addr:state" v="VT" />
    <tag k="ref:vcgi:esiteid" v="205410" />
  </node>
  <node id="-211" visible="true" lat="44.0928583" lon="-72.73430565">
    <tag k="addr:city" v="Roxbury" />
    <tag k="addr:housenumber" v="38" />
    <tag k="addr:street" v="Town Garage Road" />
    <tag k="addr:state" v="VT" />
    <tag k="ref:vcgi:esiteid" v="205411" />
  </node>
  <node id="-212" visible="true" lat="44.09260416" lon="-72.75726766">
    <tag k="addr:city" v="Roxbury" />
    <tag k="addr:housenumber" v="520" />
    <tag k="addr:street" v="West Hill Road" />
    <tag k="addr:state" v="VT" />
    <tag k="ref:vcgi:esiteid" v="205412" />
  </node>
  <node id="-213" visible="true" lat="44.09339665" lon="-72.7115354">
    <tag k="addr:city" v="Roxbury" />
    <tag k="addr:housenumber" v="482" />
    <tag k="addr:street" v="Old Mail Route Road" />
    <tag k="addr:state" v="VT" />
    <tag k="ref:vcgi:esiteid" v="205413" />
  </node>
  <node id="-214" visible="true" lat="44.09276417" lon="-72.73364409">
    <tag k="addr:city" v="Roxbury" />
    <tag k="addr:housenumber" v="1540" />
    <tag k="addr:street" v="Roxbury Road" />
    <tag k="addr:state" v="VT" />
    <tag k="ref:vcgi:esiteid" v="205414" />
  </node>
  <node id="-215" visible="true" lat="44.09280306" lon="-72.73211267">
    <tag k="addr:city" v="Roxbury" />
    <tag k="addr:housenumber" v="61" />
    <tag k="addr:street" v="Tracy Hill Road" />
    <tag k="addr:state" v="VT" />
    <tag k="ref:vcgi:esiteid" v="205415" />
  </node>
  <node id="-216" visible="true" lat="44.0926277" lon="-72.74891436">
    <tag k="addr:city" v="Roxbury" />
    <tag k="addr:housenumber" v="1393" />
    <tag k="addr:street" v="Carrie Howe Road" />
    <tag k="addr:state" v="VT" />
    <tag k="ref:vcgi:esiteid" v="205416" />
  </node>
  <node id="-217" visible="true" lat="44.09259033" lon="-72.74217986">
    <tag k="addr:city" v="Roxbury" />
    <tag k="addr:housenumber" v="274" />
    <tag k="addr:street" v="Webster Road" />
    <tag k="addr:state" v="VT" />
    <tag k="ref:vcgi:esiteid" v="205417" />
  </node>
  <node id="-218" visible="true" lat="44.09245314" lon="-72.72906236">
    <tag k="addr:city" v="Roxbury" />
    <tag k="addr:housenumber" v="159" />
    <tag k="addr:street" v="Tracy Hill Road" />
    <tag k="addr:state" v="VT" />
    <tag k="ref:vcgi:esiteid" v="205418" />
  </node>
  <node id="-219" visible="true" lat="44.09250494" lon="-72.73360782">
    <tag k="addr:city" v="Roxbury" />
    <tag k="addr:housenumber" v="1556" />
    <tag k="addr:street" v="Roxbury Road" />
    <tag k="addr:state" v="VT" />
    <tag k="ref:vcgi:esiteid" v="205419" />
  </node>
  <node id="-220" visible="true" lat="44.09240263" lon="-72.73292871">
    <tag k="addr:city" v="Roxbury" />
    <tag k="addr:housenumber" v="1559" />
    <tag k="addr:street" v="Roxbury Road" />
    <tag k="addr:state" v="VT" />
    <tag k="ref:vcgi:esiteid" v="205420" />
  </node>
  <node id="-221" visible="true" lat="44.09138801" lon="-72.74104335">
    <tag k="addr:city" v="Roxbury" />
    <tag k="addr:housenumber" v="223" />
    <tag k="addr:street" v="Webster Road" />
    <tag k="addr:state" v="VT" />
    <tag k="ref:vcgi:esiteid" v="205421" />
  </node>
  <node id="-222" visible="true" lat="44.09226834" lon="-72.73319592">
    <tag k="addr:city" v="Roxbury" />
    <tag k="addr:housenumber" v="1567" />
    <tag k="addr:street" v="Roxbury Road" />
    <tag k="addr:state" v="VT" />
    <tag k="ref:vcgi:esiteid" v="205422" />
  </node>
  <node id="-223" visible="true" lat="44.09223501" lon="-72.75770667">
    <tag k="addr:city" v="Roxbury" />
    <tag k="addr:housenumber" v="526" />
    <tag k="addr:street" v="West Hill Road" />
    <tag k="addr:state" v="VT" />
    <tag k="ref:vcgi:esiteid" v="205423" />
  </node>
  <node id="-224" visible="true" lat="44.09210691" lon="-72.73322651">
    <tag k="addr:city" v="Roxbury" />
    <tag k="addr:housenumber" v="1579" />
    <tag k="addr:street" v="Roxbury Road" />
    <tag k="addr:state" v="VT" />
    <tag k="ref:vcgi:esiteid" v="205424" />
  </node>
  <node id="-225" visible="true" lat="44.09194996" lon="-72.73332554">
    <tag k="addr:city" v="Roxbury" />
    <tag k="addr:housenumber" v="1589" />
    <tag k="addr:street" v="Roxbury Road" />
    <tag k="addr:state" v="VT" />
    <tag k="ref:vcgi:esiteid" v="205425" />
  </node>
  <node id="-226" visible="true" lat="44.09199964" lon="-72.73386477">
    <tag k="addr:city" v="Roxbury" />
    <tag k="addr:housenumber" v="1592" />
    <tag k="addr:street" v="Roxbury Road" />
    <tag k="addr:state" v="VT" />
    <tag k="ref:vcgi:esiteid" v="205426" />
  </node>
  <node id="-227" visible="true" lat="44.09205085" lon="-72.7320265">
    <tag k="addr:city" v="Roxbury" />
    <tag k="addr:housenumber" v="123" />
    <tag k="addr:street" v="Tracy Hill Road" />
    <tag k="addr:state" v="VT" />
    <tag k="ref:vcgi:esiteid" v="205427" />
  </node>
  <node id="-228" visible="true" lat="44.09187748" lon="-72.73332554">
    <tag k="addr:city" v="Roxbury" />
    <tag k="addr:housenumber" v="1593" />
    <tag k="addr:street" v="Roxbury Road" />
    <tag k="addr:state" v="VT" />
    <tag k="ref:vcgi:esiteid" v="205428" />
  </node>
  <node id="-229" visible="true" lat="44.09201039" lon="-72.73053088">
    <tag k="addr:city" v="Roxbury" />
    <tag k="addr:housenumber" v="203" />
    <tag k="addr:street" v="Tracy Hill Road" />
    <tag k="addr:state" v="VT" />
    <tag k="ref:vcgi:esiteid" v="205429" />
  </node>
  <node id="-230" visible="true" lat="44.09183025" lon="-72.73491261">
    <tag k="addr:city" v="Roxbury" />
    <tag k="addr:housenumber" v="112" />
    <tag k="addr:street" v="Town Garage Road" />
    <tag k="addr:state" v="VT" />
    <tag k="ref:vcgi:esiteid" v="205430" />
  </node>
  <node id="-231" visible="true" lat="44.09174257" lon="-72.73340908">
    <tag k="addr:city" v="Roxbury" />
    <tag k="addr:housenumber" v="1601" />
    <tag k="addr:street" v="Roxbury Road" />
    <tag k="addr:state" v="VT" />
    <tag k="ref:vcgi:esiteid" v="205431" />
  </node>
  <node id="-232" visible="true" lat="44.09160445" lon="-72.73340632">
    <tag k="addr:city" v="Roxbury" />
    <tag k="addr:housenumber" v="1607" />
    <tag k="addr:street" v="Roxbury Road" />
    <tag k="addr:state" v="VT" />
    <tag k="ref:vcgi:esiteid" v="205432" />
  </node>
  <node id="-233" visible="true" lat="44.09166965" lon="-72.7338991">
    <tag k="addr:city" v="Roxbury" />
    <tag k="addr:housenumber" v="1616" />
    <tag k="addr:street" v="Roxbury Road" />
    <tag k="addr:state" v="VT" />
    <tag k="ref:vcgi:esiteid" v="205433" />
  </node>
  <node id="-234" visible="true" lat="44.09169819" lon="-72.74496234">
    <tag k="addr:city" v="Roxbury" />
    <tag k="addr:housenumber" v="434" />
    <tag k="addr:street" v="Webster Road" />
    <tag k="addr:state" v="VT" />
    <tag k="ref:vcgi:esiteid" v="205434" />
  </node>
  <node id="-235" visible="true" lat="44.09161485" lon="-72.64835063">
    <tag k="addr:city" v="Roxbury" />
    <tag k="addr:housenumber" v="141" />
    <tag k="addr:street" v="East Roxbury Road" />
    <tag k="addr:state" v="VT" />
    <tag k="ref:vcgi:esiteid" v="205435" />
  </node>
  <node id="-236" visible="true" lat="44.09167987" lon="-72.73081791">
    <tag k="addr:city" v="Roxbury" />
    <tag k="addr:housenumber" v="174" />
    <tag k="addr:street" v="Tracy Hill Road" />
    <tag k="addr:state" v="VT" />
    <tag k="ref:vcgi:esiteid" v="205436" />
  </node>
  <node id="-237" visible="true" lat="44.0914154" lon="-72.73394775">
    <tag k="addr:city" v="Roxbury" />
    <tag k="addr:housenumber" v="1632" />
    <tag k="addr:street" v="Roxbury Road" />
    <tag k="addr:state" v="VT" />
    <tag k="ref:vcgi:esiteid" v="205437" />
  </node>
  <node id="-238" visible="true" lat="44.0914639" lon="-72.73348453">
    <tag k="addr:city" v="Roxbury" />
    <tag k="addr:housenumber" v="1629" />
    <tag k="addr:street" v="Roxbury Road" />
    <tag k="addr:state" v="VT" />
    <tag k="ref:vcgi:esiteid" v="205438" />
  </node>
  <node id="-239" visible="true" lat="44.09142389" lon="-72.73177178">
    <tag k="addr:city" v="Roxbury" />
    <tag k="addr:housenumber" v="150" />
    <tag k="addr:street" v="Tracy Hill Road" />
    <tag k="addr:state" v="VT" />
    <tag k="ref:vcgi:esiteid" v="205439" />
  </node>
  <node id="-240" visible="true" lat="44.09130625" lon="-72.73644368">
    <tag k="addr:city" v="Roxbury" />
    <tag k="addr:housenumber" v="130" />
    <tag k="addr:street" v="Town Garage Road" />
    <tag k="addr:state" v="VT" />
    <tag k="ref:vcgi:esiteid" v="205440" />
  </node>
  <node id="-241" visible="true" lat="44.09124261" lon="-72.73406534">
    <tag k="addr:city" v="Roxbury" />
    <tag k="addr:housenumber" v="1642" />
    <tag k="addr:street" v="Roxbury Road" />
    <tag k="addr:state" v="VT" />
    <tag k="ref:vcgi:esiteid" v="205441" />
  </node>
  <node id="-242" visible="true" lat="44.09157912" lon="-72.68136856">
    <tag k="addr:city" v="Roxbury" />
    <tag k="addr:housenumber" v="2005" />
    <tag k="addr:street" v="Bull Run Road" />
    <tag k="addr:state" v="VT" />
    <tag k="ref:vcgi:esiteid" v="205442" />
  </node>
  <node id="-243" visible="true" lat="44.09117126" lon="-72.67043304">
    <tag k="addr:city" v="Roxbury" />
    <tag k="addr:housenumber" v="2521" />
    <tag k="addr:street" v="Winch Hill Road" />
    <tag k="addr:state" v="VT" />
    <tag k="ref:vcgi:esiteid" v="205443" />
  </node>
  <node id="-244" visible="true" lat="44.09097928" lon="-72.73419723">
    <tag k="addr:city" v="Roxbury" />
    <tag k="addr:housenumber" v="1664" />
    <tag k="addr:street" v="Roxbury Road" />
    <tag k="addr:state" v="VT" />
    <tag k="ref:vcgi:esiteid" v="205444" />
  </node>
  <node id="-245" visible="true" lat="44.09089261" lon="-72.73362822">
    <tag k="addr:city" v="Roxbury" />
    <tag k="addr:housenumber" v="1657" />
    <tag k="addr:street" v="Roxbury Road" />
    <tag k="addr:state" v="VT" />
    <tag k="ref:vcgi:esiteid" v="205445" />
  </node>
  <node id="-246" visible="true" lat="44.09077918" lon="-72.73308078">
    <tag k="addr:city" v="Roxbury" />
    <tag k="addr:housenumber" v="1653" />
    <tag k="addr:street" v="Roxbury Road" />
    <tag k="addr:state" v="VT" />
    <tag k="ref:vcgi:esiteid" v="205446" />
  </node>
  <node id="-247" visible="true" lat="44.0906466" lon="-72.64965225">
    <tag k="addr:city" v="Roxbury" />
    <tag k="addr:housenumber" v="158" />
    <tag k="addr:street" v="East Roxbury Road" />
    <tag k="addr:state" v="VT" />
    <tag k="ref:vcgi:esiteid" v="205447" />
  </node>
  <node id="-248" visible="true" lat="44.09044425" lon="-72.73430009">
    <tag k="addr:city" v="Roxbury" />
    <tag k="addr:housenumber" v="1708" />
    <tag k="addr:street" v="Roxbury Road" />
    <tag k="addr:state" v="VT" />
    <tag k="ref:vcgi:esiteid" v="205448" />
  </node>
  <node id="-249" visible="true" lat="44.09052764" lon="-72.73378618">
    <tag k="addr:city" v="Roxbury" />
    <tag k="addr:housenumber" v="1701" />
    <tag k="addr:street" v="Roxbury Road" />
    <tag k="addr:state" v="VT" />
    <tag k="ref:vcgi:esiteid" v="205449" />
  </node>
  <node id="-250" visible="true" lat="44.09010819" lon="-72.73436205">
    <tag k="addr:city" v="Roxbury" />
    <tag k="addr:housenumber" v="1726" />
    <tag k="addr:street" v="Roxbury Road" />
    <tag k="addr:state" v="VT" />
    <tag k="ref:vcgi:esiteid" v="205451" />
  </node>
  <node id="-251" visible="true" lat="44.09031807" lon="-72.6720212">
    <tag k="addr:city" v="Roxbury" />
    <tag k="addr:housenumber" v="2545" />
    <tag k="addr:street" v="Winch Hill Road" />
    <tag k="addr:state" v="VT" />
    <tag k="ref:vcgi:esiteid" v="205452" />
  </node>
  <node id="-252" visible="true" lat="44.08971034" lon="-72.68175263">
    <tag k="addr:city" v="Roxbury" />
    <tag k="addr:housenumber" v="3364" />
    <tag k="addr:street" v="Winch Hill Road" />
    <tag k="addr:state" v="VT" />
    <tag k="ref:vcgi:esiteid" v="205453" />
  </node>
  <node id="-253" visible="true" lat="44.08964766" lon="-72.73450619">
    <tag k="addr:city" v="Roxbury" />
    <tag k="addr:housenumber" v="1760" />
    <tag k="addr:street" v="Roxbury Road" />
    <tag k="addr:state" v="VT" />
    <tag k="ref:vcgi:esiteid" v="205454" />
  </node>
  <node id="-254" visible="true" lat="44.08955222" lon="-72.73400337">
    <tag k="addr:city" v="Roxbury" />
    <tag k="addr:housenumber" v="1765" />
    <tag k="addr:street" v="Roxbury Road" />
    <tag k="addr:state" v="VT" />
    <tag k="ref:vcgi:esiteid" v="205455" />
  </node>
  <node id="-255" visible="true" lat="44.08947014" lon="-72.71664603">
    <tag k="addr:city" v="Roxbury" />
    <tag k="addr:housenumber" v="939" />
    <tag k="addr:street" v="Tracy Hill Road" />
    <tag k="addr:state" v="VT" />
    <tag k="ref:vcgi:esiteid" v="205456" />
  </node>
  <node id="-256" visible="true" lat="44.08928416" lon="-72.7346351">
    <tag k="addr:city" v="Roxbury" />
    <tag k="addr:housenumber" v="1784" />
    <tag k="addr:street" v="Roxbury Road" />
    <tag k="addr:state" v="VT" />
    <tag k="ref:vcgi:esiteid" v="205457" />
  </node>
  <node id="-257" visible="true" lat="44.08911566" lon="-72.71937544">
    <tag k="addr:city" v="Roxbury" />
    <tag k="addr:housenumber" v="855" />
    <tag k="addr:street" v="Tracy Hill Road" />
    <tag k="addr:state" v="VT" />
    <tag k="ref:vcgi:esiteid" v="205458" />
  </node>
  <node id="-258" visible="true" lat="44.08894245" lon="-72.73406296">
    <tag k="addr:city" v="Roxbury" />
    <tag k="addr:housenumber" v="1803" />
    <tag k="addr:street" v="Roxbury Road" />
    <tag k="addr:state" v="VT" />
    <tag k="ref:vcgi:esiteid" v="205459" />
  </node>
  <node id="-259" visible="true" lat="44.08891282" lon="-72.73463291">
    <tag k="addr:city" v="Roxbury" />
    <tag k="addr:housenumber" v="1808" />
    <tag k="addr:street" v="Roxbury Road" />
    <tag k="addr:state" v="VT" />
    <tag k="ref:vcgi:esiteid" v="205460" />
  </node>
  <node id="-260" visible="true" lat="44.08911741" lon="-72.69337201">
    <tag k="addr:city" v="Roxbury" />
    <tag k="addr:housenumber" v="935" />
    <tag k="addr:street" v="Horner Road" />
    <tag k="addr:state" v="VT" />
    <tag k="ref:vcgi:esiteid" v="205461" />
  </node>
  <node id="-261" visible="true" lat="44.08880194" lon="-72.72024061">
    <tag k="addr:city" v="Roxbury" />
    <tag k="addr:housenumber" v="838" />
    <tag k="addr:street" v="Tracy Hill Road" />
    <tag k="addr:state" v="VT" />
    <tag k="ref:vcgi:esiteid" v="205462" />
  </node>
  <node id="-262" visible="true" lat="44.08864026" lon="-72.74855235">
    <tag k="addr:city" v="Roxbury" />
    <tag k="addr:housenumber" v="1107" />
    <tag k="addr:street" v="Carrie Howe Road" />
    <tag k="addr:state" v="VT" />
    <tag k="ref:vcgi:esiteid" v="205463" />
  </node>
  <node id="-263" visible="true" lat="44.08868465" lon="-72.7144715">
    <tag k="addr:city" v="Roxbury" />
    <tag k="addr:housenumber" v="1127" />
    <tag k="addr:street" v="Tracy Hill Road" />
    <tag k="addr:state" v="VT" />
    <tag k="ref:vcgi:esiteid" v="205464" />
  </node>
  <node id="-264" visible="true" lat="44.08854268" lon="-72.63899561">
    <tag k="addr:city" v="Roxbury" />
    <tag k="addr:housenumber" v="430" />
    <tag k="addr:street" v="Herriott Road" />
    <tag k="addr:state" v="VT" />
    <tag k="ref:vcgi:esiteid" v="205465" />
  </node>
  <node id="-265" visible="true" lat="44.08815765" lon="-72.71606445">
    <tag k="addr:city" v="Roxbury" />
    <tag k="addr:housenumber" v="997" />
    <tag k="addr:street" v="Tracy Hill Road" />
    <tag k="addr:state" v="VT" />
    <tag k="ref:vcgi:esiteid" v="205466" />
  </node>
  <node id="-266" visible="true" lat="44.08790206" lon="-72.71675872">
    <tag k="addr:city" v="Roxbury" />
    <tag k="addr:housenumber" v="998" />
    <tag k="addr:street" v="Tracy Hill Road" />
    <tag k="addr:state" v="VT" />
    <tag k="ref:vcgi:esiteid" v="205467" />
  </node>
  <node id="-267" visible="true" lat="44.08765411" lon="-72.71516418">
    <tag k="addr:city" v="Roxbury" />
    <tag k="addr:housenumber" v="1075" />
    <tag k="addr:street" v="Tracy Hill Road" />
    <tag k="addr:state" v="VT" />
    <tag k="ref:vcgi:esiteid" v="205468" />
  </node>
  <node id="-268" visible="true" lat="44.08758926" lon="-72.69213867">
    <tag k="addr:city" v="Roxbury" />
    <tag k="addr:housenumber" v="1053" />
    <tag k="addr:street" v="Horner Road" />
    <tag k="addr:state" v="VT" />
    <tag k="ref:vcgi:esiteid" v="205469" />
  </node>
  <node id="-269" visible="true" lat="44.08744808" lon="-72.67550128">
    <tag k="addr:city" v="Roxbury" />
    <tag k="addr:housenumber" v="92" />
    <tag k="addr:street" v="Winch Hill Extension" />
    <tag k="addr:state" v="VT" />
    <tag k="ref:vcgi:esiteid" v="205470" />
  </node>
  <node id="-270" visible="true" lat="44.08760224" lon="-72.6841811">
    <tag k="addr:city" v="Roxbury" />
    <tag k="addr:housenumber" v="2305" />
    <tag k="addr:street" v="Bull Run Road" />
    <tag k="addr:state" v="VT" />
    <tag k="ref:vcgi:esiteid" v="205471" />
  </node>
  <node id="-271" visible="true" lat="44.08749781" lon="-72.64893012">
    <tag k="addr:city" v="Roxbury" />
    <tag k="addr:housenumber" v="373" />
    <tag k="addr:street" v="East Roxbury Road" />
    <tag k="addr:state" v="VT" />
    <tag k="ref:vcgi:esiteid" v="205472" />
  </node>
  <node id="-272" visible="true" lat="44.08751088" lon="-72.70922952">
    <tag k="addr:city" v="Roxbury" />
    <tag k="addr:housenumber" v="145" />
    <tag k="addr:street" v="Horner Road" />
    <tag k="addr:state" v="VT" />
    <tag k="ref:vcgi:esiteid" v="205473" />
  </node>
  <node id="-273" visible="true" lat="44.08761968" lon="-72.67316989">
    <tag k="addr:city" v="Roxbury" />
    <tag k="addr:housenumber" v="131" />
    <tag k="addr:street" v="Winch Hill Extension" />
    <tag k="addr:state" v="VT" />
    <tag k="ref:vcgi:esiteid" v="205474" />
  </node>
  <node id="-274" visible="true" lat="44.08698284" lon="-72.72089053">
    <tag k="addr:city" v="Roxbury" />
    <tag k="addr:housenumber" v="400" />
    <tag k="addr:street" v="Moose Run Road" />
    <tag k="addr:state" v="VT" />
    <tag k="ref:vcgi:esiteid" v="205475" />
  </node>
  <node id="-275" visible="true" lat="44.08725318" lon="-72.71808934">
    <tag k="addr:city" v="Roxbury" />
    <tag k="addr:housenumber" v="143" />
    <tag k="addr:street" v="Moose Run Road" />
    <tag k="addr:state" v="VT" />
    <tag k="ref:vcgi:esiteid" v="205476" />
  </node>
  <node id="-276" visible="true" lat="44.08739053" lon="-72.74872615">
    <tag k="addr:city" v="Roxbury" />
    <tag k="addr:housenumber" v="1013" />
    <tag k="addr:street" v="Carrie Howe Road" />
    <tag k="addr:state" v="VT" />
    <tag k="ref:vcgi:esiteid" v="205477" />
  </node>
  <node id="-277" visible="true" lat="44.08726121" lon="-72.67320424">
    <tag k="addr:city" v="Roxbury" />
    <tag k="addr:housenumber" v="129" />
    <tag k="addr:street" v="Winch Hill Extension" />
    <tag k="addr:state" v="VT" />
    <tag k="ref:vcgi:esiteid" v="205478" />
  </node>
  <node id="-278" visible="true" lat="44.08710861" lon="-72.69593048">
    <tag k="addr:city" v="Roxbury" />
    <tag k="addr:housenumber" v="830" />
    <tag k="addr:street" v="Horner Road" />
    <tag k="addr:state" v="VT" />
    <tag k="ref:vcgi:esiteid" v="205479" />
  </node>
  <node id="-279" visible="true" lat="44.08713579" lon="-72.69756549">
    <tag k="addr:city" v="Roxbury" />
    <tag k="addr:housenumber" v="757" />
    <tag k="addr:street" v="Horner Road" />
    <tag k="addr:state" v="VT" />
    <tag k="ref:vcgi:esiteid" v="205480" />
  </node>
  <node id="-280" visible="true" lat="44.08691879" lon="-72.73459762">
    <tag k="addr:city" v="Roxbury" />
    <tag k="addr:housenumber" v="1933" />
    <tag k="addr:street" v="Roxbury Road" />
    <tag k="addr:state" v="VT" />
    <tag k="ref:vcgi:esiteid" v="205481" />
  </node>
  <node id="-281" visible="true" lat="44.08697707" lon="-72.69886738">
    <tag k="addr:city" v="Roxbury" />
    <tag k="addr:housenumber" v="691" />
    <tag k="addr:street" v="Horner Road" />
    <tag k="addr:state" v="VT" />
    <tag k="ref:vcgi:esiteid" v="205482" />
  </node>
  <node id="-282" visible="true" lat="44.08707706" lon="-72.6511312">
    <tag k="addr:city" v="Roxbury" />
    <tag k="addr:housenumber" v="48" />
    <tag k="addr:street" v="Tenney Road" />
    <tag k="addr:state" v="VT" />
    <tag k="ref:vcgi:esiteid" v="205483" />
  </node>
  <node id="-283" visible="true" lat="44.08677191" lon="-72.73391661">
    <tag k="addr:city" v="Roxbury" />
    <tag k="addr:housenumber" v="1929" />
    <tag k="addr:street" v="Roxbury Road" />
    <tag k="addr:state" v="VT" />
    <tag k="ref:vcgi:esiteid" v="205484" />
  </node>
  <node id="-284" visible="true" lat="44.08692169" lon="-72.69136047">
    <tag k="addr:city" v="Roxbury" />
    <tag k="addr:housenumber" v="1127" />
    <tag k="addr:street" v="Horner Road" />
    <tag k="addr:state" v="VT" />
    <tag k="ref:vcgi:esiteid" v="205485" />
  </node>
  <node id="-285" visible="true" lat="44.08706186" lon="-72.64903839">
    <tag k="addr:city" v="Roxbury" />
    <tag k="addr:housenumber" v="447" />
    <tag k="addr:street" v="East Roxbury Road" />
    <tag k="addr:state" v="VT" />
    <tag k="ref:vcgi:esiteid" v="205486" />
  </node>
  <node id="-286" visible="true" lat="44.08693023" lon="-72.69710924">
    <tag k="addr:city" v="Roxbury" />
    <tag k="addr:housenumber" v="764" />
    <tag k="addr:street" v="Horner Road" />
    <tag k="addr:state" v="VT" />
    <tag k="ref:vcgi:esiteid" v="205487" />
  </node>
  <node id="-287" visible="true" lat="44.086633" lon="-72.73481508">
    <tag k="addr:city" v="Roxbury" />
    <tag k="addr:housenumber" v="21" />
    <tag k="addr:street" v="Sullivan Hill Road" />
    <tag k="addr:state" v="VT" />
    <tag k="ref:vcgi:esiteid" v="205488" />
  </node>
  <node id="-288" visible="true" lat="44.08651887" lon="-72.73524096">
    <tag k="addr:city" v="Roxbury" />
    <tag k="addr:housenumber" v="1977" />
    <tag k="addr:street" v="Roxbury Road" />
    <tag k="addr:state" v="VT" />
    <tag k="ref:vcgi:esiteid" v="205489" />
  </node>
  <node id="-289" visible="true" lat="44.08697451" lon="-72.7489118">
    <tag k="addr:city" v="Roxbury" />
    <tag k="addr:housenumber" v="969" />
    <tag k="addr:street" v="Carrie Howe Road" />
    <tag k="addr:state" v="VT" />
    <tag k="ref:vcgi:esiteid" v="205490" />
  </node>
  <node id="-290" visible="true" lat="44.08660334" lon="-72.65022377">
    <tag k="addr:city" v="Roxbury" />
    <tag k="addr:housenumber" v="38" />
    <tag k="addr:street" v="Tenney Road" />
    <tag k="addr:state" v="VT" />
    <tag k="ref:vcgi:esiteid" v="205491" />
  </node>
  <node id="-291" visible="true" lat="44.08636093" lon="-72.73480224">
    <tag k="addr:city" v="Roxbury" />
    <tag k="addr:housenumber" v="52" />
    <tag k="addr:street" v="Sullivan Hill Road" />
    <tag k="addr:state" v="VT" />
    <tag k="ref:vcgi:esiteid" v="205492" />
  </node>
  <node id="-292" visible="true" lat="44.08646274" lon="-72.69815717">
    <tag k="addr:city" v="Roxbury" />
    <tag k="addr:housenumber" v="728" />
    <tag k="addr:street" v="Horner Road" />
    <tag k="addr:state" v="VT" />
    <tag k="ref:vcgi:esiteid" v="205493" />
  </node>
  <node id="-293" visible="true" lat="44.08591222" lon="-72.70253067">
    <tag k="addr:city" v="Roxbury" />
    <tag k="addr:housenumber" v="502" />
    <tag k="addr:street" v="Horner Road" />
    <tag k="addr:state" v="VT" />
    <tag k="ref:vcgi:esiteid" v="205494" />
  </node>
  <node id="-294" visible="true" lat="44.08640537" lon="-72.65135775">
    <tag k="addr:city" v="Roxbury" />
    <tag k="addr:housenumber" v="70" />
    <tag k="addr:street" v="Tenney Road" />
    <tag k="addr:state" v="VT" />
    <tag k="ref:vcgi:esiteid" v="205495" />
  </node>
  <node id="-295" visible="true" lat="44.08609308" lon="-72.70543181">
    <tag k="addr:city" v="Roxbury" />
    <tag k="addr:housenumber" v="370" />
    <tag k="addr:street" v="Horner Road" />
    <tag k="addr:state" v="VT" />
    <tag k="ref:vcgi:esiteid" v="205496" />
  </node>
  <node id="-296" visible="true" lat="44.08595033" lon="-72.6513346">
    <tag k="addr:city" v="Roxbury" />
    <tag k="addr:housenumber" v="80" />
    <tag k="addr:street" v="Tenney Road" />
    <tag k="addr:state" v="VT" />
    <tag k="ref:vcgi:esiteid" v="205497" />
  </node>
  <node id="-297" visible="true" lat="44.08602187" lon="-72.68344054">
    <tag k="addr:city" v="Roxbury" />
    <tag k="addr:housenumber" v="30" />
    <tag k="addr:street" v="Diemer Road" />
    <tag k="addr:state" v="VT" />
    <tag k="ref:vcgi:esiteid" v="205498" />
  </node>
  <node id="-298" visible="true" lat="44.08568726" lon="-72.73384809">
    <tag k="addr:city" v="Roxbury" />
    <tag k="addr:housenumber" v="107" />
    <tag k="addr:street" v="Sullivan Hill Road" />
    <tag k="addr:state" v="VT" />
    <tag k="ref:vcgi:esiteid" v="205499" />
  </node>
  <node id="-299" visible="true" lat="44.08594756" lon="-72.67548174">
    <tag k="addr:city" v="Roxbury" />
    <tag k="addr:housenumber" v="230" />
    <tag k="addr:street" v="Winch Hill Extension" />
    <tag k="addr:state" v="VT" />
    <tag k="ref:vcgi:esiteid" v="205500" />
  </node>
  <node id="-300" visible="true" lat="44.08552331" lon="-72.73380845">
    <tag k="addr:city" v="Roxbury" />
    <tag k="addr:housenumber" v="119" />
    <tag k="addr:street" v="Sullivan Hill Road" />
    <tag k="addr:state" v="VT" />
    <tag k="ref:vcgi:esiteid" v="205501" />
  </node>
  <node id="-301" visible="true" lat="44.0856721" lon="-72.65026768">
    <tag k="addr:city" v="Roxbury" />
    <tag k="addr:housenumber" v="103" />
    <tag k="addr:street" v="Tenney Road" />
    <tag k="addr:state" v="VT" />
    <tag k="ref:vcgi:esiteid" v="205502" />
  </node>
  <node id="-302" visible="true" lat="44.08570748" lon="-72.64006633">
    <tag k="addr:city" v="Roxbury" />
    <tag k="addr:housenumber" v="626" />
    <tag k="addr:street" v="Herriott Road" />
    <tag k="addr:state" v="VT" />
    <tag k="ref:vcgi:esiteid" v="205503" />
  </node>
  <node id="-303" visible="true" lat="44.08542744" lon="-72.64933284">
    <tag k="addr:city" v="Roxbury" />
    <tag k="addr:housenumber" v="541" />
    <tag k="addr:street" v="East Roxbury Road" />
    <tag k="addr:state" v="VT" />
    <tag k="ref:vcgi:esiteid" v="205504" />
  </node>
  <node id="-304" visible="true" lat="44.08543767" lon="-72.65123024">
    <tag k="addr:city" v="Roxbury" />
    <tag k="addr:housenumber" v="108" />
    <tag k="addr:street" v="Tenney Road" />
    <tag k="addr:state" v="VT" />
    <tag k="ref:vcgi:esiteid" v="205505" />
  </node>
  <node id="-305" visible="true" lat="44.08512917" lon="-72.65047544">
    <tag k="addr:city" v="Roxbury" />
    <tag k="addr:housenumber" v="109" />
    <tag k="addr:street" v="Tenney Road" />
    <tag k="addr:state" v="VT" />
    <tag k="ref:vcgi:esiteid" v="205506" />
  </node>
  <node id="-306" visible="true" lat="44.0847969" lon="-72.7316513">
    <tag k="addr:city" v="Roxbury" />
    <tag k="addr:housenumber" v="243" />
    <tag k="addr:street" v="Sullivan Hill Road" />
    <tag k="addr:state" v="VT" />
    <tag k="ref:vcgi:esiteid" v="205507" />
  </node>
  <node id="-307" visible="true" lat="44.08497119" lon="-72.69161792">
    <tag k="addr:city" v="Roxbury" />
    <tag k="addr:housenumber" v="1152" />
    <tag k="addr:street" v="Horner Road" />
    <tag k="addr:state" v="VT" />
    <tag k="ref:vcgi:esiteid" v="205508" />
  </node>
  <node id="-308" visible="true" lat="44.08482895" lon="-72.68084581">
    <tag k="addr:city" v="Roxbury" />
    <tag k="addr:housenumber" v="336" />
    <tag k="addr:street" v="Taylor Road" />
    <tag k="addr:state" v="VT" />
    <tag k="ref:vcgi:esiteid" v="205509" />
  </node>
  <node id="-309" visible="true" lat="44.08425348" lon="-72.64984274">
    <tag k="addr:city" v="Roxbury" />
    <tag k="addr:housenumber" v="637" />
    <tag k="addr:street" v="East Roxbury Road" />
    <tag k="addr:state" v="VT" />
    <tag k="ref:vcgi:esiteid" v="205510" />
  </node>
  <node id="-310" visible="true" lat="44.08425718" lon="-72.6742625">
    <tag k="addr:city" v="Roxbury" />
    <tag k="addr:housenumber" v="397" />
    <tag k="addr:street" v="Winch Hill Extension" />
    <tag k="addr:state" v="VT" />
    <tag k="ref:vcgi:esiteid" v="205511" />
  </node>
  <node id="-311" visible="true" lat="44.08356192" lon="-72.73706688">
    <tag k="addr:city" v="Roxbury" />
    <tag k="addr:housenumber" v="2234" />
    <tag k="addr:street" v="Roxbury Road" />
    <tag k="addr:state" v="VT" />
    <tag k="ref:vcgi:esiteid" v="205512" />
  </node>
  <node id="-312" visible="true" lat="44.08322648" lon="-72.67677845">
    <tag k="addr:city" v="Roxbury" />
    <tag k="addr:housenumber" v="376" />
    <tag k="addr:street" v="Winch Hill Extension" />
    <tag k="addr:state" v="VT" />
    <tag k="ref:vcgi:esiteid" v="205513" />
  </node>
  <node id="-313" visible="true" lat="44.08324115" lon="-72.65746356">
    <tag k="addr:city" v="Roxbury" />
    <tag k="addr:housenumber" v="830" />
    <tag k="addr:street" v="East Roxbury Road" />
    <tag k="addr:state" v="VT" />
    <tag k="ref:vcgi:esiteid" v="205514" />
  </node>
  <node id="-314" visible="true" lat="44.08321854" lon="-72.73767417">
    <tag k="addr:city" v="Roxbury" />
    <tag k="addr:housenumber" v="2232" />
    <tag k="addr:street" v="Roxbury Road" />
    <tag k="addr:state" v="VT" />
    <tag k="ref:vcgi:esiteid" v="205515" />
  </node>
  <node id="-315" visible="true" lat="44.08285642" lon="-72.63991511">
    <tag k="addr:city" v="Roxbury" />
    <tag k="addr:housenumber" v="803" />
    <tag k="addr:street" v="Herriott Road" />
    <tag k="addr:state" v="VT" />
    <tag k="ref:vcgi:esiteid" v="205516" />
  </node>
  <node id="-316" visible="true" lat="44.08257335" lon="-72.75703241">
    <tag k="addr:city" v="Roxbury" />
    <tag k="addr:housenumber" v="47" />
    <tag k="addr:street" v="Pent Road" />
    <tag k="addr:state" v="VT" />
    <tag k="ref:vcgi:esiteid" v="205517" />
  </node>
  <node id="-317" visible="true" lat="44.08262601" lon="-72.73618109">
    <tag k="addr:city" v="Roxbury" />
    <tag k="addr:housenumber" v="2237" />
    <tag k="addr:street" v="Roxbury Road" />
    <tag k="addr:state" v="VT" />
    <tag k="ref:vcgi:esiteid" v="205518" />
  </node>
  <node id="-318" visible="true" lat="44.08168558" lon="-72.75746773">
    <tag k="addr:city" v="Roxbury" />
    <tag k="addr:housenumber" v="21" />
    <tag k="addr:street" v="Pent Road" />
    <tag k="addr:state" v="VT" />
    <tag k="ref:vcgi:esiteid" v="205519" />
  </node>
  <node id="-319" visible="true" lat="44.08183178" lon="-72.75842838">
    <tag k="addr:city" v="Roxbury" />
    <tag k="addr:housenumber" v="1234" />
    <tag k="addr:street" v="West Hill Road" />
    <tag k="addr:state" v="VT" />
    <tag k="ref:vcgi:esiteid" v="205520" />
  </node>
  <node id="-320" visible="true" lat="44.0818058" lon="-72.65044102">
    <tag k="addr:city" v="Roxbury" />
    <tag k="addr:housenumber" v="763" />
    <tag k="addr:street" v="East Roxbury Road" />
    <tag k="addr:state" v="VT" />
    <tag k="ref:vcgi:esiteid" v="205521" />
  </node>
  <node id="-321" visible="true" lat="44.08142364" lon="-72.64875933">
    <tag k="addr:city" v="Roxbury" />
    <tag k="addr:housenumber" v="859" />
    <tag k="addr:street" v="East Roxbury Road" />
    <tag k="addr:state" v="VT" />
    <tag k="ref:vcgi:esiteid" v="205522" />
  </node>
  <node id="-322" visible="true" lat="44.08082082" lon="-72.75503879">
    <tag k="addr:city" v="Roxbury" />
    <tag k="addr:housenumber" v="138" />
    <tag k="addr:street" v="Pent Road" />
    <tag k="addr:state" v="VT" />
    <tag k="ref:vcgi:esiteid" v="205523" />
  </node>
  <node id="-323" visible="true" lat="44.0810363" lon="-72.68063915">
    <tag k="addr:city" v="Roxbury" />
    <tag k="addr:housenumber" v="84" />
    <tag k="addr:street" v="Taylor Road" />
    <tag k="addr:state" v="VT" />
    <tag k="ref:vcgi:esiteid" v="205524" />
  </node>
  <node id="-324" visible="true" lat="44.08073126" lon="-72.65248101">
    <tag k="addr:city" v="Roxbury" />
    <tag k="addr:housenumber" v="113" />
    <tag k="addr:street" v="Ladd Road" />
    <tag k="addr:state" v="VT" />
    <tag k="ref:vcgi:esiteid" v="205525" />
  </node>
  <node id="-325" visible="true" lat="44.08066062" lon="-72.6844647">
    <tag k="addr:city" v="Roxbury" />
    <tag k="addr:housenumber" v="2864" />
    <tag k="addr:street" v="Bull Run Road" />
    <tag k="addr:state" v="VT" />
    <tag k="ref:vcgi:esiteid" v="205526" />
  </node>
  <node id="-326" visible="true" lat="44.0794355" lon="-72.75947812">
    <tag k="addr:city" v="Roxbury" />
    <tag k="addr:housenumber" v="1350" />
    <tag k="addr:street" v="West Hill Road" />
    <tag k="addr:state" v="VT" />
    <tag k="ref:vcgi:esiteid" v="205527" />
  </node>
  <node id="-327" visible="true" lat="44.08022276" lon="-72.67146355">
    <tag k="addr:city" v="Roxbury" />
    <tag k="addr:housenumber" v="899" />
    <tag k="addr:street" v="Cruickshank Road" />
    <tag k="addr:state" v="VT" />
    <tag k="ref:vcgi:esiteid" v="205528" />
  </node>
  <node id="-328" visible="true" lat="44.08025456" lon="-72.64149762">
    <tag k="addr:city" v="Roxbury" />
    <tag k="addr:housenumber" v="1000" />
    <tag k="addr:street" v="Herriott Road" />
    <tag k="addr:state" v="VT" />
    <tag k="ref:vcgi:esiteid" v="205529" />
  </node>
  <node id="-329" visible="true" lat="44.08000073" lon="-72.65162133">
    <tag k="addr:city" v="Roxbury" />
    <tag k="addr:housenumber" v="46" />
    <tag k="addr:street" v="Ladd Road" />
    <tag k="addr:state" v="VT" />
    <tag k="ref:vcgi:esiteid" v="205530" />
  </node>
  <node id="-330" visible="true" lat="44.07946424" lon="-72.76309513">
    <tag k="addr:city" v="Roxbury" />
    <tag k="addr:housenumber" v="446" />
    <tag k="addr:street" v="Ordway Road" />
    <tag k="addr:state" v="VT" />
    <tag k="ref:vcgi:esiteid" v="205531" />
  </node>
  <node id="-331" visible="true" lat="44.07964075" lon="-72.66220315">
    <tag k="addr:city" v="Roxbury" />
    <tag k="addr:housenumber" v="1423" />
    <tag k="addr:street" v="Drown Road" />
    <tag k="addr:state" v="VT" />
    <tag k="ref:vcgi:esiteid" v="205532" />
  </node>
  <node id="-332" visible="true" lat="44.07950204" lon="-72.76339082">
    <tag k="addr:city" v="Roxbury" />
    <tag k="addr:housenumber" v="439" />
    <tag k="addr:street" v="Ordway Road" />
    <tag k="addr:state" v="VT" />
    <tag k="ref:vcgi:esiteid" v="205533" />
  </node>
  <node id="-333" visible="true" lat="44.07947914" lon="-72.66990149">
    <tag k="addr:city" v="Roxbury" />
    <tag k="addr:housenumber" v="986" />
    <tag k="addr:street" v="Cruickshank Road" />
    <tag k="addr:state" v="VT" />
    <tag k="ref:vcgi:esiteid" v="205534" />
  </node>
  <node id="-334" visible="true" lat="44.07894841" lon="-72.74803849">
    <tag k="addr:city" v="Roxbury" />
    <tag k="addr:housenumber" v="437" />
    <tag k="addr:street" v="Carrie Howe Road" />
    <tag k="addr:state" v="VT" />
    <tag k="ref:vcgi:esiteid" v="205535" />
  </node>
  <node id="-335" visible="true" lat="44.07691548" lon="-72.67885908">
    <tag k="addr:city" v="Roxbury" />
    <tag k="addr:housenumber" v="180" />
    <tag k="addr:street" v="Cruickshank Road" />
    <tag k="addr:state" v="VT" />
    <tag k="ref:vcgi:esiteid" v="205536" />
  </node>
  <node id="-336" visible="true" lat="44.07898178" lon="-72.65264114">
    <tag k="addr:city" v="Roxbury" />
    <tag k="addr:housenumber" v="49" />
    <tag k="addr:street" v="Ladd Road" />
    <tag k="addr:state" v="VT" />
    <tag k="ref:vcgi:esiteid" v="205537" />
  </node>
  <node id="-337" visible="true" lat="44.0784837" lon="-72.68215882">
    <tag k="addr:city" v="Roxbury" />
    <tag k="addr:housenumber" v="166" />
    <tag k="addr:street" v="Cruickshank Road" />
    <tag k="addr:state" v="VT" />
    <tag k="ref:vcgi:esiteid" v="205538" />
  </node>
  <node id="-338" visible="true" lat="44.07830531" lon="-72.65047232">
    <tag k="addr:city" v="Roxbury" />
    <tag k="addr:housenumber" v="1052" />
    <tag k="addr:street" v="East Roxbury Road" />
    <tag k="addr:state" v="VT" />
    <tag k="ref:vcgi:esiteid" v="205539" />
  </node>
  <node id="-339" visible="true" lat="44.07842724" lon="-72.6506325">
    <tag k="addr:city" v="Roxbury" />
    <tag k="addr:housenumber" v="1030" />
    <tag k="addr:street" v="East Roxbury Road" />
    <tag k="addr:state" v="VT" />
    <tag k="ref:vcgi:esiteid" v="205540" />
  </node>
  <node id="-340" visible="true" lat="44.07769062" lon="-72.76418245">
    <tag k="addr:city" v="Roxbury" />
    <tag k="addr:housenumber" v="322" />
    <tag k="addr:street" v="Ordway Road" />
    <tag k="addr:state" v="VT" />
    <tag k="ref:vcgi:esiteid" v="205541" />
  </node>
  <node id="-341" visible="true" lat="44.07751693" lon="-72.7593081">
    <tag k="addr:city" v="Roxbury" />
    <tag k="addr:housenumber" v="1528" />
    <tag k="addr:street" v="West Hill Road" />
    <tag k="addr:state" v="VT" />
    <tag k="ref:vcgi:esiteid" v="205542" />
  </node>
  <node id="-342" visible="true" lat="44.07754458" lon="-72.64896751">
    <tag k="addr:city" v="Roxbury" />
    <tag k="addr:housenumber" v="1147" />
    <tag k="addr:street" v="East Roxbury Road" />
    <tag k="addr:state" v="VT" />
    <tag k="ref:vcgi:esiteid" v="205543" />
  </node>
  <node id="-343" visible="true" lat="44.07728275" lon="-72.64931738">
    <tag k="addr:city" v="Roxbury" />
    <tag k="addr:housenumber" v="30" />
    <tag k="addr:street" v="Steele Hill Road" />
    <tag k="addr:state" v="VT" />
    <tag k="ref:vcgi:esiteid" v="205544" />
  </node>
  <node id="-344" visible="true" lat="44.07718453" lon="-72.64792915">
    <tag k="addr:city" v="Roxbury" />
    <tag k="addr:housenumber" v="1197" />
    <tag k="addr:street" v="East Roxbury Road" />
    <tag k="addr:state" v="VT" />
    <tag k="ref:vcgi:esiteid" v="205545" />
  </node>
  <node id="-345" visible="true" lat="44.07698659" lon="-72.64621976">
    <tag k="addr:city" v="Roxbury" />
    <tag k="addr:housenumber" v="1311" />
    <tag k="addr:street" v="East Roxbury Road" />
    <tag k="addr:state" v="VT" />
    <tag k="ref:vcgi:esiteid" v="205547" />
  </node>
  <node id="-346" visible="true" lat="44.07685841" lon="-72.64565176">
    <tag k="addr:city" v="Roxbury" />
    <tag k="addr:housenumber" v="1337" />
    <tag k="addr:street" v="East Roxbury Road" />
    <tag k="addr:state" v="VT" />
    <tag k="ref:vcgi:esiteid" v="205548" />
  </node>
  <node id="-347" visible="true" lat="44.07676168" lon="-72.64865903">
    <tag k="addr:city" v="Roxbury" />
    <tag k="addr:housenumber" v="1192" />
    <tag k="addr:street" v="East Roxbury Road" />
    <tag k="addr:state" v="VT" />
    <tag k="ref:vcgi:esiteid" v="205549" />
  </node>
  <node id="-348" visible="true" lat="44.07655774" lon="-72.684238">
    <tag k="addr:city" v="Roxbury" />
    <tag k="addr:housenumber" v="3109" />
    <tag k="addr:street" v="Bull Run Road" />
    <tag k="addr:state" v="VT" />
    <tag k="ref:vcgi:esiteid" v="205550" />
  </node>
  <node id="-349" visible="true" lat="44.07607359" lon="-72.72072403">
    <tag k="addr:city" v="Roxbury" />
    <tag k="addr:housenumber" v="111" />
    <tag k="addr:street" v="Pincus Road" />
    <tag k="addr:state" v="VT" />
    <tag k="ref:vcgi:esiteid" v="205551" />
  </node>
  <node id="-350" visible="true" lat="44.07630734" lon="-72.66116235">
    <tag k="addr:city" v="Roxbury" />
    <tag k="addr:housenumber" v="1150" />
    <tag k="addr:street" v="Drown Road" />
    <tag k="addr:state" v="VT" />
    <tag k="ref:vcgi:esiteid" v="205552" />
  </node>
  <node id="-351" visible="true" lat="44.07602479" lon="-72.6433099">
    <tag k="addr:city" v="Roxbury" />
    <tag k="addr:housenumber" v="1458" />
    <tag k="addr:street" v="East Roxbury Road" />
    <tag k="addr:state" v="VT" />
    <tag k="ref:vcgi:esiteid" v="205553" />
  </node>
  <node id="-352" visible="true" lat="44.07576885" lon="-72.64409384">
    <tag k="addr:city" v="Roxbury" />
    <tag k="addr:housenumber" v="1426" />
    <tag k="addr:street" v="East Roxbury Road" />
    <tag k="addr:state" v="VT" />
    <tag k="ref:vcgi:esiteid" v="205554" />
  </node>
  <node id="-353" visible="true" lat="44.0756692" lon="-72.75831742">
    <tag k="addr:city" v="Roxbury" />
    <tag k="addr:housenumber" v="1641" />
    <tag k="addr:street" v="West Hill Road" />
    <tag k="addr:state" v="VT" />
    <tag k="ref:vcgi:esiteid" v="205555" />
  </node>
  <node id="-354" visible="true" lat="44.07606832" lon="-72.64986637">
    <tag k="addr:city" v="Roxbury" />
    <tag k="addr:housenumber" v="84" />
    <tag k="addr:street" v="Steele Hill Road" />
    <tag k="addr:state" v="VT" />
    <tag k="ref:vcgi:esiteid" v="205556" />
  </node>
  <node id="-355" visible="true" lat="44.07519646" lon="-72.76602799">
    <tag k="addr:city" v="Roxbury" />
    <tag k="addr:housenumber" v="151" />
    <tag k="addr:street" v="Ordway Road" />
    <tag k="addr:state" v="VT" />
    <tag k="ref:vcgi:esiteid" v="205557" />
  </node>
  <node id="-356" visible="true" lat="44.07538554" lon="-72.64955105">
    <tag k="addr:city" v="Roxbury" />
    <tag k="addr:housenumber" v="134" />
    <tag k="addr:street" v="Steele Hill Road" />
    <tag k="addr:state" v="VT" />
    <tag k="ref:vcgi:esiteid" v="205558" />
  </node>
  <node id="-357" visible="true" lat="44.07524739" lon="-72.64847139">
    <tag k="addr:city" v="Roxbury" />
    <tag k="addr:housenumber" v="137" />
    <tag k="addr:street" v="Steele Hill Road" />
    <tag k="addr:state" v="VT" />
    <tag k="ref:vcgi:esiteid" v="205559" />
  </node>
  <node id="-358" visible="true" lat="44.07511984" lon="-72.67484181">
    <tag k="addr:city" v="Roxbury" />
    <tag k="addr:housenumber" v="227" />
    <tag k="addr:street" v="Royce Road" />
    <tag k="addr:state" v="VT" />
    <tag k="ref:vcgi:esiteid" v="205560" />
  </node>
  <node id="-359" visible="true" lat="44.07476436" lon="-72.74556862">
    <tag k="addr:city" v="Roxbury" />
    <tag k="addr:housenumber" v="45" />
    <tag k="addr:street" v="Pike Road" />
    <tag k="addr:state" v="VT" />
    <tag k="ref:vcgi:esiteid" v="205561" />
  </node>
  <node id="-360" visible="true" lat="44.07458086" lon="-72.75917721">
    <tag k="addr:city" v="Roxbury" />
    <tag k="addr:housenumber" v="1729" />
    <tag k="addr:street" v="West Hill Road" />
    <tag k="addr:state" v="VT" />
    <tag k="ref:vcgi:esiteid" v="205562" />
  </node>
  <node id="-361" visible="true" lat="44.0739867" lon="-72.75967554">
    <tag k="addr:city" v="Roxbury" />
    <tag k="addr:housenumber" v="1767" />
    <tag k="addr:street" v="West Hill Road" />
    <tag k="addr:state" v="VT" />
    <tag k="ref:vcgi:esiteid" v="205563" />
  </node>
  <node id="-362" visible="true" lat="44.0739849" lon="-72.74626584">
    <tag k="addr:city" v="Roxbury" />
    <tag k="addr:housenumber" v="47" />
    <tag k="addr:street" v="Carrie Howe Road" />
    <tag k="addr:state" v="VT" />
    <tag k="ref:vcgi:esiteid" v="205564" />
  </node>
  <node id="-363" visible="true" lat="44.07350306" lon="-72.7629566">
    <tag k="addr:city" v="Roxbury" />
    <tag k="addr:housenumber" v="118" />
    <tag k="addr:street" v="Rice Tract Road" />
    <tag k="addr:state" v="VT" />
    <tag k="ref:vcgi:esiteid" v="205565" />
  </node>
  <node id="-364" visible="true" lat="44.0732446" lon="-72.71181991">
    <tag k="addr:city" v="Roxbury" />
    <tag k="addr:housenumber" v="988" />
    <tag k="addr:street" v="Beaver Meadow Road" />
    <tag k="addr:state" v="VT" />
    <tag k="ref:vcgi:esiteid" v="205566" />
  </node>
  <node id="-365" visible="true" lat="44.07250767" lon="-72.76068752">
    <tag k="addr:city" v="Roxbury" />
    <tag k="addr:housenumber" v="926" />
    <tag k="addr:street" v="Oxbow Road" />
    <tag k="addr:state" v="VT" />
    <tag k="ref:vcgi:esiteid" v="205567" />
  </node>
  <node id="-366" visible="true" lat="44.07259834" lon="-72.76163527">
    <tag k="addr:city" v="Roxbury" />
    <tag k="addr:housenumber" v="1904" />
    <tag k="addr:street" v="West Hill Road" />
    <tag k="addr:state" v="VT" />
    <tag k="ref:vcgi:esiteid" v="205568" />
  </node>
  <node id="-367" visible="true" lat="44.07234484" lon="-72.7595883">
    <tag k="addr:city" v="Roxbury" />
    <tag k="addr:housenumber" v="868" />
    <tag k="addr:street" v="Oxbow Road" />
    <tag k="addr:state" v="VT" />
    <tag k="ref:vcgi:esiteid" v="205569" />
  </node>
  <node id="-368" visible="true" lat="44.0714535" lon="-72.71232658">
    <tag k="addr:city" v="Roxbury" />
    <tag k="addr:housenumber" v="1081" />
    <tag k="addr:street" v="Beaver Meadow Road" />
    <tag k="addr:state" v="VT" />
    <tag k="ref:vcgi:esiteid" v="205570" />
  </node>
  <node id="-369" visible="true" lat="44.07089996" lon="-72.75772094">
    <tag k="addr:city" v="Roxbury" />
    <tag k="addr:housenumber" v="737" />
    <tag k="addr:street" v="Oxbow Road" />
    <tag k="addr:state" v="VT" />
    <tag k="ref:vcgi:esiteid" v="205571" />
  </node>
  <node id="-370" visible="true" lat="44.07072092" lon="-72.64891332">
    <tag k="addr:city" v="Roxbury" />
    <tag k="addr:housenumber" v="466" />
    <tag k="addr:street" v="Steele Hill Road" />
    <tag k="addr:state" v="VT" />
    <tag k="ref:vcgi:esiteid" v="205572" />
  </node>
  <node id="-371" visible="true" lat="44.07085758" lon="-72.68623849">
    <tag k="addr:city" v="Roxbury" />
    <tag k="addr:housenumber" v="3536" />
    <tag k="addr:street" v="Bull Run Road" />
    <tag k="addr:state" v="VT" />
    <tag k="ref:vcgi:esiteid" v="205573" />
  </node>
  <node id="-372" visible="true" lat="44.07015898" lon="-72.76261517">
    <tag k="addr:city" v="Roxbury" />
    <tag k="addr:housenumber" v="2074" />
    <tag k="addr:street" v="West Hill Road" />
    <tag k="addr:state" v="VT" />
    <tag k="ref:vcgi:esiteid" v="205574" />
  </node>
  <node id="-373" visible="true" lat="44.06983746" lon="-72.65419963">
    <tag k="addr:city" v="Roxbury" />
    <tag k="addr:housenumber" v="366" />
    <tag k="addr:street" v="Drown Road" />
    <tag k="addr:state" v="VT" />
    <tag k="ref:vcgi:esiteid" v="205575" />
  </node>
  <node id="-374" visible="true" lat="44.06945437" lon="-72.64762758">
    <tag k="addr:city" v="Roxbury" />
    <tag k="addr:housenumber" v="574" />
    <tag k="addr:street" v="Steele Hill Road" />
    <tag k="addr:state" v="VT" />
    <tag k="ref:vcgi:esiteid" v="205576" />
  </node>
  <node id="-375" visible="true" lat="44.06956772" lon="-72.71534725">
    <tag k="addr:city" v="Roxbury" />
    <tag k="addr:housenumber" v="1290" />
    <tag k="addr:street" v="Beaver Meadow Road" />
    <tag k="addr:state" v="VT" />
    <tag k="ref:vcgi:esiteid" v="205577" />
  </node>
  <node id="-376" visible="true" lat="44.06910323" lon="-72.74535369">
    <tag k="addr:city" v="Roxbury" />
    <tag k="addr:housenumber" v="3375" />
    <tag k="addr:street" v="Roxbury Road" />
    <tag k="addr:state" v="VT" />
    <tag k="ref:vcgi:esiteid" v="205578" />
  </node>
  <node id="-377" visible="true" lat="44.06919189" lon="-72.68552395">
    <tag k="addr:city" v="Roxbury" />
    <tag k="addr:housenumber" v="3648" />
    <tag k="addr:street" v="Bull Run Road" />
    <tag k="addr:state" v="VT" />
    <tag k="ref:vcgi:esiteid" v="205579" />
  </node>
  <node id="-378" visible="true" lat="44.06898498" lon="-72.74528503">
    <tag k="addr:city" v="Roxbury" />
    <tag k="addr:housenumber" v="3385" />
    <tag k="addr:street" v="Roxbury Road" />
    <tag k="addr:state" v="VT" />
    <tag k="ref:vcgi:esiteid" v="205580" />
  </node>
  <node id="-379" visible="true" lat="44.06901227" lon="-72.65360501">
    <tag k="addr:city" v="Roxbury" />
    <tag k="addr:housenumber" v="292" />
    <tag k="addr:street" v="Drown Road" />
    <tag k="addr:state" v="VT" />
    <tag k="ref:vcgi:esiteid" v="205581" />
  </node>
  <node id="-380" visible="true" lat="44.06891308" lon="-72.64788117">
    <tag k="addr:city" v="Roxbury" />
    <tag k="addr:housenumber" v="614" />
    <tag k="addr:street" v="Steele Hill Road" />
    <tag k="addr:state" v="VT" />
    <tag k="ref:vcgi:esiteid" v="205582" />
  </node>
  <node id="-381" visible="true" lat="44.06880568" lon="-72.65931833">
    <tag k="addr:city" v="Roxbury" />
    <tag k="addr:housenumber" v="651" />
    <tag k="addr:street" v="Drown Road" />
    <tag k="addr:state" v="VT" />
    <tag k="ref:vcgi:esiteid" v="205583" />
  </node>
  <node id="-382" visible="true" lat="44.06852177" lon="-72.74757572">
    <tag k="addr:city" v="Roxbury" />
    <tag k="addr:housenumber" v="128" />
    <tag k="addr:street" v="Oxbow Road" />
    <tag k="addr:state" v="VT" />
    <tag k="ref:vcgi:esiteid" v="205584" />
  </node>
  <node id="-383" visible="true" lat="44.06852684" lon="-72.74509898">
    <tag k="addr:city" v="Roxbury" />
    <tag k="addr:housenumber" v="3423" />
    <tag k="addr:street" v="Roxbury Road" />
    <tag k="addr:state" v="VT" />
    <tag k="ref:vcgi:esiteid" v="205585" />
  </node>
  <node id="-384" visible="true" lat="44.06846394" lon="-72.74706645">
    <tag k="addr:city" v="Roxbury" />
    <tag k="addr:housenumber" v="86" />
    <tag k="addr:street" v="Oxbow Road" />
    <tag k="addr:state" v="VT" />
    <tag k="ref:vcgi:esiteid" v="205586" />
  </node>
  <node id="-385" visible="true" lat="44.06844962" lon="-72.71188711">
    <tag k="addr:city" v="Roxbury" />
    <tag k="addr:housenumber" v="1299" />
    <tag k="addr:street" v="Beaver Meadow Road" />
    <tag k="addr:state" v="VT" />
    <tag k="ref:vcgi:esiteid" v="205587" />
  </node>
  <node id="-386" visible="true" lat="44.06828689" lon="-72.65740966">
    <tag k="addr:city" v="Roxbury" />
    <tag k="addr:housenumber" v="407" />
    <tag k="addr:street" v="Drown Road" />
    <tag k="addr:state" v="VT" />
    <tag k="ref:vcgi:esiteid" v="205588" />
  </node>
  <node id="-387" visible="true" lat="44.06821067" lon="-72.744422">
    <tag k="addr:city" v="Roxbury" />
    <tag k="addr:housenumber" v="3459" />
    <tag k="addr:street" v="Roxbury Road" />
    <tag k="addr:state" v="VT" />
    <tag k="ref:vcgi:esiteid" v="205589" />
  </node>
  <node id="-388" visible="true" lat="44.06793444" lon="-72.74669197">
    <tag k="addr:city" v="Roxbury" />
    <tag k="addr:housenumber" v="27" />
    <tag k="addr:street" v="Oxbow Road" />
    <tag k="addr:state" v="VT" />
    <tag k="ref:vcgi:esiteid" v="205590" />
  </node>
  <node id="-389" visible="true" lat="44.06814886" lon="-72.74497422">
    <tag k="addr:city" v="Roxbury" />
    <tag k="addr:housenumber" v="3453" />
    <tag k="addr:street" v="Roxbury Road" />
    <tag k="addr:state" v="VT" />
    <tag k="ref:vcgi:esiteid" v="205591" />
  </node>
  <node id="-390" visible="true" lat="44.0681913" lon="-72.64828343">
    <tag k="addr:city" v="Roxbury" />
    <tag k="addr:housenumber" v="672" />
    <tag k="addr:street" v="Steele Hill Road" />
    <tag k="addr:state" v="VT" />
    <tag k="ref:vcgi:esiteid" v="205592" />
  </node>
  <node id="-391" visible="true" lat="44.06800272" lon="-72.65505608">
    <tag k="addr:city" v="Roxbury" />
    <tag k="addr:housenumber" v="305" />
    <tag k="addr:street" v="Drown Road" />
    <tag k="addr:state" v="VT" />
    <tag k="ref:vcgi:esiteid" v="205593" />
  </node>
  <node id="-392" visible="true" lat="44.06781565" lon="-72.65255502">
    <tag k="addr:city" v="Roxbury" />
    <tag k="addr:housenumber" v="215" />
    <tag k="addr:street" v="Drown Road" />
    <tag k="addr:state" v="VT" />
    <tag k="ref:vcgi:esiteid" v="205594" />
  </node>
  <node id="-393" visible="true" lat="44.06745368" lon="-72.76337332">
    <tag k="addr:city" v="Roxbury" />
    <tag k="addr:housenumber" v="2255" />
    <tag k="addr:street" v="West Hill Road" />
    <tag k="addr:state" v="VT" />
    <tag k="ref:vcgi:esiteid" v="205595" />
  </node>
  <node id="-394" visible="true" lat="44.06762401" lon="-72.71352104">
    <tag k="addr:city" v="Roxbury" />
    <tag k="addr:housenumber" v="1301" />
    <tag k="addr:street" v="Beaver Meadow Road" />
    <tag k="addr:state" v="VT" />
    <tag k="ref:vcgi:esiteid" v="205596" />
  </node>
  <node id="-395" visible="true" lat="44.06750353" lon="-72.74472268">
    <tag k="addr:city" v="Roxbury" />
    <tag k="addr:housenumber" v="3491" />
    <tag k="addr:street" v="Roxbury Road" />
    <tag k="addr:state" v="VT" />
    <tag k="ref:vcgi:esiteid" v="205597" />
  </node>
  <node id="-396" visible="true" lat="44.06748442" lon="-72.65116336">
    <tag k="addr:city" v="Roxbury" />
    <tag k="addr:housenumber" v="125" />
    <tag k="addr:street" v="Drown Road" />
    <tag k="addr:state" v="VT" />
    <tag k="ref:vcgi:esiteid" v="205598" />
  </node>
  <node id="-397" visible="true" lat="44.06701923" lon="-72.74622513">
    <tag k="addr:city" v="Roxbury" />
    <tag k="addr:housenumber" v="18" />
    <tag k="addr:street" v="Thurston Hill Road" />
    <tag k="addr:state" v="VT" />
    <tag k="ref:vcgi:esiteid" v="205599" />
  </node>
  <node id="-398" visible="true" lat="44.06680791" lon="-72.76377908">
    <tag k="addr:city" v="Roxbury" />
    <tag k="addr:housenumber" v="2305" />
    <tag k="addr:street" v="West Hill Road" />
    <tag k="addr:state" v="VT" />
    <tag k="ref:vcgi:esiteid" v="205600" />
  </node>
  <node id="-399" visible="true" lat="44.06634915" lon="-72.74496174">
    <tag k="addr:city" v="Roxbury" />
    <tag k="addr:housenumber" v="9" />
    <tag k="addr:street" v="Thurston Hill Road" />
    <tag k="addr:state" v="VT" />
    <tag k="ref:vcgi:esiteid" v="205601" />
  </node>
  <node id="-400" visible="true" lat="44.06593095" lon="-72.74470938">
    <tag k="addr:city" v="Roxbury" />
    <tag k="addr:housenumber" v="3600" />
    <tag k="addr:street" v="Roxbury Road" />
    <tag k="addr:state" v="VT" />
    <tag k="ref:vcgi:esiteid" v="205602" />
  </node>
  <node id="-401" visible="true" lat="44.06535901" lon="-72.7675039">
    <tag k="addr:city" v="Roxbury" />
    <tag k="addr:housenumber" v="2544" />
    <tag k="addr:street" v="West Hill Road" />
    <tag k="addr:state" v="VT" />
    <tag k="ref:vcgi:esiteid" v="205603" />
  </node>
  <node id="-402" visible="true" lat="44.06495234" lon="-72.76736786">
    <tag k="addr:city" v="Roxbury" />
    <tag k="addr:housenumber" v="2537" />
    <tag k="addr:street" v="West Hill Road" />
    <tag k="addr:state" v="VT" />
    <tag k="ref:vcgi:esiteid" v="205604" />
  </node>
  <node id="-403" visible="true" lat="44.06443322" lon="-72.744266">
    <tag k="addr:city" v="Roxbury" />
    <tag k="addr:housenumber" v="3696" />
    <tag k="addr:street" v="Roxbury Road" />
    <tag k="addr:state" v="VT" />
    <tag k="ref:vcgi:esiteid" v="205605" />
  </node>
  <node id="-404" visible="true" lat="44.06425094" lon="-72.7649765">
    <tag k="addr:city" v="Roxbury" />
    <tag k="addr:housenumber" v="78" />
    <tag k="addr:street" v="Raynor Road" />
    <tag k="addr:state" v="VT" />
    <tag k="ref:vcgi:esiteid" v="205606" />
  </node>
  <node id="-405" visible="true" lat="44.06414962" lon="-72.76799284">
    <tag k="addr:city" v="Roxbury" />
    <tag k="addr:housenumber" v="2597" />
    <tag k="addr:street" v="West Hill Road" />
    <tag k="addr:state" v="VT" />
    <tag k="ref:vcgi:esiteid" v="205607" />
  </node>
  <node id="-406" visible="true" lat="44.06438258" lon="-72.65253197">
    <tag k="addr:city" v="Roxbury" />
    <tag k="addr:housenumber" v="1004" />
    <tag k="addr:street" v="Steele Hill Road" />
    <tag k="addr:state" v="VT" />
    <tag k="ref:vcgi:esiteid" v="205608" />
  </node>
  <node id="-407" visible="true" lat="44.06427146" lon="-72.77090376">
    <tag k="addr:city" v="Roxbury" />
    <tag k="addr:housenumber" v="2735" />
    <tag k="addr:street" v="West Hill Road" />
    <tag k="addr:state" v="VT" />
    <tag k="ref:vcgi:esiteid" v="205609" />
  </node>
  <node id="-408" visible="true" lat="44.06422706" lon="-72.74535402">
    <tag k="addr:city" v="Roxbury" />
    <tag k="addr:housenumber" v="157" />
    <tag k="addr:street" v="Thurston Hill Road" />
    <tag k="addr:state" v="VT" />
    <tag k="ref:vcgi:esiteid" v="205610" />
  </node>
  <node id="-409" visible="true" lat="44.06402903" lon="-72.76426463">
    <tag k="addr:city" v="Roxbury" />
    <tag k="addr:housenumber" v="95" />
    <tag k="addr:street" v="Raynor Road" />
    <tag k="addr:state" v="VT" />
    <tag k="ref:vcgi:esiteid" v="205611" />
  </node>
  <node id="-410" visible="true" lat="44.06396846" lon="-72.65372508">
    <tag k="addr:city" v="Roxbury" />
    <tag k="addr:housenumber" v="1140" />
    <tag k="addr:street" v="Steele Hill Road" />
    <tag k="addr:state" v="VT" />
    <tag k="ref:vcgi:esiteid" v="205612" />
  </node>
  <node id="-411" visible="true" lat="44.06319994" lon="-72.7629978">
    <tag k="addr:city" v="Roxbury" />
    <tag k="addr:housenumber" v="89" />
    <tag k="addr:street" v="Tillou Road" />
    <tag k="addr:state" v="VT" />
    <tag k="ref:vcgi:esiteid" v="205613" />
  </node>
  <node id="-412" visible="true" lat="44.0621334" lon="-72.77307348">
    <tag k="addr:city" v="Roxbury" />
    <tag k="addr:housenumber" v="2701" />
    <tag k="addr:street" v="West Hill Road" />
    <tag k="addr:state" v="VT" />
    <tag k="ref:vcgi:esiteid" v="205615" />
  </node>
  <node id="-413" visible="true" lat="44.06213672" lon="-72.76571932">
    <tag k="addr:city" v="Roxbury" />
    <tag k="addr:housenumber" v="240" />
    <tag k="addr:street" v="Raynor Road" />
    <tag k="addr:state" v="VT" />
    <tag k="ref:vcgi:esiteid" v="205616" />
  </node>
  <node id="-414" visible="true" lat="44.06201565" lon="-72.76156042">
    <tag k="addr:city" v="Roxbury" />
    <tag k="addr:housenumber" v="185" />
    <tag k="addr:street" v="Tillou Road" />
    <tag k="addr:state" v="VT" />
    <tag k="ref:vcgi:esiteid" v="205617" />
  </node>
  <node id="-415" visible="true" lat="44.06164345" lon="-72.76514964">
    <tag k="addr:city" v="Roxbury" />
    <tag k="addr:housenumber" v="247" />
    <tag k="addr:street" v="Raynor Road" />
    <tag k="addr:state" v="VT" />
    <tag k="ref:vcgi:esiteid" v="205618" />
  </node>
  <node id="-416" visible="true" lat="44.06166825" lon="-72.74342711">
    <tag k="addr:city" v="Roxbury" />
    <tag k="addr:housenumber" v="3902" />
    <tag k="addr:street" v="Roxbury Road" />
    <tag k="addr:state" v="VT" />
    <tag k="ref:vcgi:esiteid" v="205619" />
  </node>
  <node id="-417" visible="true" lat="44.06099123" lon="-72.65741006">
    <tag k="addr:city" v="Roxbury" />
    <tag k="addr:housenumber" v="1393" />
    <tag k="addr:street" v="Steele Hill Road" />
    <tag k="addr:state" v="VT" />
    <tag k="ref:vcgi:esiteid" v="205620" />
  </node>
  <node id="-418" visible="true" lat="44.06067705" lon="-72.76750712">
    <tag k="addr:city" v="Roxbury" />
    <tag k="addr:housenumber" v="350" />
    <tag k="addr:street" v="Raynor Road" />
    <tag k="addr:state" v="VT" />
    <tag k="ref:vcgi:esiteid" v="205621" />
  </node>
  <node id="-419" visible="true" lat="44.06066518" lon="-72.71550323">
    <tag k="addr:city" v="Roxbury" />
    <tag k="addr:housenumber" v="1865" />
    <tag k="addr:street" v="Beaver Meadow Road" />
    <tag k="addr:state" v="VT" />
    <tag k="ref:vcgi:esiteid" v="205622" />
  </node>
  <node id="-420" visible="true" lat="44.05979531" lon="-72.71558866">
    <tag k="addr:city" v="Roxbury" />
    <tag k="addr:housenumber" v="1911" />
    <tag k="addr:street" v="Beaver Meadow Road" />
    <tag k="addr:state" v="VT" />
    <tag k="ref:vcgi:esiteid" v="205623" />
  </node>
  <node id="-421" visible="true" lat="44.05923818" lon="-72.71732343">
    <tag k="addr:city" v="Roxbury" />
    <tag k="addr:housenumber" v="1989" />
    <tag k="addr:street" v="Beaver Meadow Road" />
    <tag k="addr:state" v="VT" />
    <tag k="ref:vcgi:esiteid" v="205624" />
  </node>
  <node id="-422" visible="true" lat="44.05821248" lon="-72.66100775">
    <tag k="addr:city" v="Roxbury" />
    <tag k="addr:housenumber" v="1646" />
    <tag k="addr:street" v="Steele Hill Road" />
    <tag k="addr:state" v="VT" />
    <tag k="ref:vcgi:esiteid" v="205625" />
  </node>
  <node id="-423" visible="true" lat="44.05787355" lon="-72.7190038">
    <tag k="addr:city" v="Roxbury" />
    <tag k="addr:housenumber" v="2167" />
    <tag k="addr:street" v="Beaver Meadow Road" />
    <tag k="addr:state" v="VT" />
    <tag k="ref:vcgi:esiteid" v="205626" />
  </node>
  <node id="-424" visible="true" lat="44.05591393" lon="-72.66342831">
    <tag k="addr:city" v="Roxbury" />
    <tag k="addr:housenumber" v="1822" />
    <tag k="addr:street" v="Steele Hill Road" />
    <tag k="addr:state" v="VT" />
    <tag k="ref:vcgi:esiteid" v="205627" />
  </node>
  <node id="-425" visible="true" lat="44.0551474" lon="-72.74928183">
    <tag k="addr:city" v="Roxbury" />
    <tag k="addr:housenumber" v="839" />
    <tag k="addr:street" v="Thurston Hill Road" />
    <tag k="addr:state" v="VT" />
    <tag k="ref:vcgi:esiteid" v="205628" />
  </node>
  <node id="-426" visible="true" lat="44.05424559" lon="-72.76668763">
    <tag k="addr:city" v="Roxbury" />
    <tag k="addr:housenumber" v="787" />
    <tag k="addr:street" v="Raynor Road" />
    <tag k="addr:state" v="VT" />
    <tag k="ref:vcgi:esiteid" v="205629" />
  </node>
  <node id="-427" visible="true" lat="44.0538541" lon="-72.749595">
    <tag k="addr:city" v="Roxbury" />
    <tag k="addr:housenumber" v="935" />
    <tag k="addr:street" v="Thurston Hill Road" />
    <tag k="addr:state" v="VT" />
    <tag k="ref:vcgi:esiteid" v="205630" />
  </node>
  <node id="-428" visible="true" lat="44.05336635" lon="-72.74975686">
    <tag k="addr:city" v="Roxbury" />
    <tag k="addr:housenumber" v="19" />
    <tag k="addr:street" v="Merrill Farm Road" />
    <tag k="addr:state" v="VT" />
    <tag k="ref:vcgi:esiteid" v="205631" />
  </node>
  <node id="-429" visible="true" lat="44.05305246" lon="-72.75223093">
    <tag k="addr:city" v="Roxbury" />
    <tag k="addr:housenumber" v="1069" />
    <tag k="addr:street" v="Thurston Hill Road" />
    <tag k="addr:state" v="VT" />
    <tag k="ref:vcgi:esiteid" v="205632" />
  </node>
  <node id="-430" visible="true" lat="44.05297571" lon="-72.76772714">
    <tag k="addr:city" v="Roxbury" />
    <tag k="addr:housenumber" v="898" />
    <tag k="addr:street" v="Raynor Road" />
    <tag k="addr:state" v="VT" />
    <tag k="ref:vcgi:esiteid" v="205633" />
  </node>
  <node id="-431" visible="true" lat="44.05257428" lon="-72.66471863">
    <tag k="addr:city" v="Roxbury" />
    <tag k="addr:housenumber" v="2083" />
    <tag k="addr:street" v="Steele Hill Road" />
    <tag k="addr:state" v="VT" />
    <tag k="ref:vcgi:esiteid" v="205634" />
  </node>
  <node id="-432" visible="true" lat="44.05195222" lon="-72.76667646">
    <tag k="addr:city" v="Roxbury" />
    <tag k="addr:housenumber" v="959" />
    <tag k="addr:street" v="Raynor Road" />
    <tag k="addr:state" v="VT" />
    <tag k="ref:vcgi:esiteid" v="205635" />
  </node>
  <node id="-433" visible="true" lat="44.05208567" lon="-72.66571736">
    <tag k="addr:city" v="Roxbury" />
    <tag k="addr:housenumber" v="2112" />
    <tag k="addr:street" v="Steele Hill Road" />
    <tag k="addr:state" v="VT" />
    <tag k="ref:vcgi:esiteid" v="205636" />
  </node>
  <node id="-434" visible="true" lat="44.0514025" lon="-72.74011036">
    <tag k="addr:city" v="Roxbury" />
    <tag k="addr:housenumber" v="440" />
    <tag k="addr:street" v="Cram Hill Road" />
    <tag k="addr:state" v="VT" />
    <tag k="ref:vcgi:esiteid" v="205637" />
  </node>
  <node id="-435" visible="true" lat="44.05066709" lon="-72.76726832">
    <tag k="addr:city" v="Roxbury" />
    <tag k="addr:housenumber" v="1048" />
    <tag k="addr:street" v="Raynor Road" />
    <tag k="addr:state" v="VT" />
    <tag k="ref:vcgi:esiteid" v="205638" />
  </node>
  <node id="-436" visible="true" lat="44.05044345" lon="-72.74889369">
    <tag k="addr:city" v="Roxbury" />
    <tag k="addr:housenumber" v="240" />
    <tag k="addr:street" v="Merrill Farm Road" />
    <tag k="addr:state" v="VT" />
    <tag k="ref:vcgi:esiteid" v="205639" />
  </node>
  <node id="-437" visible="true" lat="44.0495836" lon="-72.6643465">
    <tag k="addr:city" v="Roxbury" />
    <tag k="addr:housenumber" v="2275" />
    <tag k="addr:street" v="Steele Hill Road" />
    <tag k="addr:state" v="VT" />
    <tag k="ref:vcgi:esiteid" v="205640" />
  </node>
  <node id="-438" visible="true" lat="44.04753194" lon="-72.72336939">
    <tag k="addr:city" v="Roxbury" />
    <tag k="addr:housenumber" v="2970" />
    <tag k="addr:street" v="Beaver Meadow Road" />
    <tag k="addr:state" v="VT" />
    <tag k="ref:vcgi:esiteid" v="205641" />
  </node>
  <node id="-439" visible="true" lat="44.04684066" lon="-72.74822998">
    <tag k="addr:city" v="Roxbury" />
    <tag k="addr:housenumber" v="363" />
    <tag k="addr:street" v="Merrill Farm Road" />
    <tag k="addr:state" v="VT" />
    <tag k="ref:vcgi:esiteid" v="205642" />
  </node>
  <node id="-440" visible="true" lat="44.04578505" lon="-72.67951378">
    <tag k="addr:city" v="Roxbury" />
    <tag k="addr:housenumber" v="938" />
    <tag k="addr:street" v="Four Mile Wood Road" />
    <tag k="addr:state" v="VT" />
    <tag k="ref:vcgi:esiteid" v="205643" />
  </node>
  <node id="-441" visible="true" lat="44.04511834" lon="-72.66746622">
    <tag k="addr:city" v="Roxbury" />
    <tag k="addr:housenumber" v="2634" />
    <tag k="addr:street" v="Steele Hill Road" />
    <tag k="addr:state" v="VT" />
    <tag k="ref:vcgi:esiteid" v="205644" />
  </node>
  <node id="-442" visible="true" lat="44.04447006" lon="-72.74368374">
    <tag k="addr:city" v="Roxbury" />
    <tag k="addr:housenumber" v="5016" />
    <tag k="addr:street" v="Roxbury Road" />
    <tag k="addr:state" v="VT" />
    <tag k="ref:vcgi:esiteid" v="205645" />
  </node>
  <node id="-443" visible="true" lat="44.04307149" lon="-72.71557199">
    <tag k="addr:city" v="Roxbury" />
    <tag k="addr:housenumber" v="2351" />
    <tag k="addr:street" v="Cram Hill Road" />
    <tag k="addr:state" v="VT" />
    <tag k="ref:vcgi:esiteid" v="205646" />
  </node>
  <node id="-444" visible="true" lat="44.04287643" lon="-72.70974279">
    <tag k="addr:city" v="Roxbury" />
    <tag k="addr:housenumber" v="190" />
    <tag k="addr:street" v="Nameless Road" />
    <tag k="addr:state" v="VT" />
    <tag k="ref:vcgi:esiteid" v="205647" />
  </node>
  <node id="-445" visible="true" lat="44.04294878" lon="-72.72179095">
    <tag k="addr:city" v="Roxbury" />
    <tag k="addr:housenumber" v="2020" />
    <tag k="addr:street" v="Cram Hill Road" />
    <tag k="addr:state" v="VT" />
    <tag k="ref:vcgi:esiteid" v="205648" />
  </node>
  <node id="-446" visible="true" lat="44.04244786" lon="-72.66892092">
    <tag k="addr:city" v="Roxbury" />
    <tag k="addr:housenumber" v="2838" />
    <tag k="addr:street" v="Steele Hill Road" />
    <tag k="addr:state" v="VT" />
    <tag k="ref:vcgi:esiteid" v="205649" />
  </node>
  <node id="-447" visible="true" lat="44.04186593" lon="-72.7087788">
    <tag k="addr:city" v="Roxbury" />
    <tag k="addr:housenumber" v="144" />
    <tag k="addr:street" v="Nameless Road" />
    <tag k="addr:state" v="VT" />
    <tag k="ref:vcgi:esiteid" v="205650" />
  </node>
  <node id="-448" visible="true" lat="44.04153738" lon="-72.71031571">
    <tag k="addr:city" v="Roxbury" />
    <tag k="addr:housenumber" v="96" />
    <tag k="addr:street" v="Nameless Road" />
    <tag k="addr:state" v="VT" />
    <tag k="ref:vcgi:esiteid" v="205651" />
  </node>
  <node id="-449" visible="true" lat="44.04055376" lon="-72.74986151">
    <tag k="addr:city" v="Roxbury" />
    <tag k="addr:housenumber" v="5664" />
    <tag k="addr:street" v="Roxbury Road" />
    <tag k="addr:state" v="VT" />
    <tag k="ref:vcgi:esiteid" v="205652" />
  </node>
  <node id="-450" visible="true" lat="44.04045486" lon="-72.66883087">
    <tag k="addr:city" v="Roxbury" />
    <tag k="addr:housenumber" v="2963" />
    <tag k="addr:street" v="Steele Hill Road" />
    <tag k="addr:state" v="VT" />
    <tag k="ref:vcgi:esiteid" v="205653" />
  </node>
  <node id="-451" visible="true" lat="44.03996468" lon="-72.66991979">
    <tag k="addr:city" v="Roxbury" />
    <tag k="addr:housenumber" v="3004" />
    <tag k="addr:street" v="Steele Hill Road" />
    <tag k="addr:state" v="VT" />
    <tag k="ref:vcgi:esiteid" v="205654" />
  </node>
  <node id="-452" visible="true" lat="44.03970188" lon="-72.6704614">
    <tag k="addr:city" v="Roxbury" />
    <tag k="addr:housenumber" v="3008" />
    <tag k="addr:street" v="Steele Hill Road" />
    <tag k="addr:state" v="VT" />
    <tag k="ref:vcgi:esiteid" v="205655" />
  </node>
  <node id="-453" visible="true" lat="44.03786096" lon="-72.6682784">
    <tag k="addr:city" v="Roxbury" />
    <tag k="addr:housenumber" v="3157" />
    <tag k="addr:street" v="Steele Hill Road" />
    <tag k="addr:state" v="VT" />
    <tag k="ref:vcgi:esiteid" v="205656" />
  </node>
  <node id="-454" visible="true" lat="44.03691258" lon="-72.6688162">
    <tag k="addr:city" v="Roxbury" />
    <tag k="addr:housenumber" v="3203" />
    <tag k="addr:street" v="Steele Hill Road" />
    <tag k="addr:state" v="VT" />
    <tag k="ref:vcgi:esiteid" v="205657" />
  </node>
  <node id="-455" visible="true" lat="44.03656914" lon="-72.66990022">
    <tag k="addr:city" v="Roxbury" />
    <tag k="addr:housenumber" v="39" />
    <tag k="addr:street" v="Four Mile Wood Road" />
    <tag k="addr:state" v="VT" />
    <tag k="ref:vcgi:esiteid" v="205658" />
  </node>
  <node id="-456" visible="true" lat="44.03562957" lon="-72.72779917">
    <tag k="addr:city" v="Roxbury" />
    <tag k="addr:housenumber" v="121" />
    <tag k="addr:street" v="Fisher Road" />
    <tag k="addr:state" v="VT" />
    <tag k="ref:vcgi:esiteid" v="205659" />
  </node>
  <node id="-457" visible="true" lat="44.0353704" lon="-72.68911791">
    <tag k="addr:city" v="Roxbury" />
    <tag k="addr:housenumber" v="4355" />
    <tag k="addr:street" v="Cram Hill Road" />
    <tag k="addr:state" v="VT" />
    <tag k="ref:vcgi:esiteid" v="205660" />
  </node>
  <node id="-458" visible="true" lat="44.0352745" lon="-72.66975402">
    <tag k="addr:city" v="Roxbury" />
    <tag k="addr:housenumber" v="3343" />
    <tag k="addr:street" v="Steele Hill Road" />
    <tag k="addr:state" v="VT" />
    <tag k="ref:vcgi:esiteid" v="205661" />
  </node>
  <node id="-459" visible="true" lat="44.03431304" lon="-72.67084045">
    <tag k="addr:city" v="Roxbury" />
    <tag k="addr:housenumber" v="3446" />
    <tag k="addr:street" v="Steele Hill Road" />
    <tag k="addr:state" v="VT" />
    <tag k="ref:vcgi:esiteid" v="205662" />
  </node>
  <node id="-460" visible="true" lat="44.03388951" lon="-72.73343575">
    <tag k="addr:city" v="Roxbury" />
    <tag k="addr:housenumber" v="724" />
    <tag k="addr:street" v="Braintree Hill Road" />
    <tag k="addr:state" v="VT" />
    <tag k="ref:vcgi:esiteid" v="205663" />
  </node>
  <node id="-461" visible="true" lat="44.0336863" lon="-72.67098914">
    <tag k="addr:city" v="Roxbury" />
    <tag k="addr:housenumber" v="3460" />
    <tag k="addr:street" v="Steele Hill Road" />
    <tag k="addr:state" v="VT" />
    <tag k="ref:vcgi:esiteid" v="205664" />
  </node>
  <node id="-462" visible="true" lat="44.03361873" lon="-72.73063064">
    <tag k="addr:city" v="Roxbury" />
    <tag k="addr:housenumber" v="1014" />
    <tag k="addr:street" v="Braintree Hill Road" />
    <tag k="addr:state" v="VT" />
    <tag k="ref:vcgi:esiteid" v="205665" />
  </node>
  <node id="-463" visible="true" lat="44.03317049" lon="-72.67068626">
    <tag k="addr:city" v="Roxbury" />
    <tag k="addr:housenumber" v="3485" />
    <tag k="addr:street" v="Steele Hill Road" />
    <tag k="addr:state" v="VT" />
    <tag k="ref:vcgi:esiteid" v="205666" />
  </node>
  <node id="-464" visible="true" lat="44.03285588" lon="-72.67172389">
    <tag k="addr:city" v="Roxbury" />
    <tag k="addr:housenumber" v="3530" />
    <tag k="addr:street" v="Steele Hill Road" />
    <tag k="addr:state" v="VT" />
    <tag k="ref:vcgi:esiteid" v="205667" />
  </node>
  <node id="-465" visible="true" lat="44.03216935" lon="-72.67251327">
    <tag k="addr:city" v="Roxbury" />
    <tag k="addr:housenumber" v="3604" />
    <tag k="addr:street" v="Steele Hill Road" />
    <tag k="addr:state" v="VT" />
    <tag k="ref:vcgi:esiteid" v="205668" />
  </node>
  <node id="-466" visible="true" lat="44.02991818" lon="-72.67388747">
    <tag k="addr:city" v="Roxbury" />
    <tag k="addr:housenumber" v="3768" />
    <tag k="addr:street" v="Steele Hill Road" />
    <tag k="addr:state" v="VT" />
    <tag k="ref:vcgi:esiteid" v="205669" />
  </node>
  <node id="-467" visible="true" lat="44.02882373" lon="-72.67380371">
    <tag k="addr:city" v="Roxbury" />
    <tag k="addr:housenumber" v="3839" />
    <tag k="addr:street" v="Steele Hill Road" />
    <tag k="addr:state" v="VT" />
    <tag k="ref:vcgi:esiteid" v="205670" />
  </node>
  <node id="-468" visible="true" lat="44.02820242" lon="-72.7300549">
    <tag k="addr:city" v="Roxbury" />
    <tag k="addr:housenumber" v="1400" />
    <tag k="addr:street" v="Braintree Hill Road" />
    <tag k="addr:state" v="VT" />
    <tag k="ref:vcgi:esiteid" v="205671" />
  </node>
  <node id="-469" visible="true" lat="44.02738581" lon="-72.67435467">
    <tag k="addr:city" v="Roxbury" />
    <tag k="addr:housenumber" v="3946" />
    <tag k="addr:street" v="Steele Hill Road" />
    <tag k="addr:state" v="VT" />
    <tag k="ref:vcgi:esiteid" v="205672" />
  </node>
  <node id="-470" visible="true" lat="44.02733298" lon="-72.70157897">
    <tag k="addr:city" v="Roxbury" />
    <tag k="addr:housenumber" v="3852" />
    <tag k="addr:street" v="Cram Hill Road" />
    <tag k="addr:state" v="VT" />
    <tag k="ref:vcgi:esiteid" v="205673" />
  </node>
  <node id="-471" visible="true" lat="44.02224403" lon="-72.67772722">
    <tag k="addr:city" v="Roxbury" />
    <tag k="addr:housenumber" v="4886" />
    <tag k="addr:street" v="Cram Hill Road" />
    <tag k="addr:state" v="VT" />
    <tag k="ref:vcgi:esiteid" v="205674" />
  </node>
  <node id="-472" visible="true" lat="44.06674889" lon="-72.77070374">
    <tag k="addr:city" v="Roxbury" />
    <tag k="addr:housenumber" v="2606" />
    <tag k="addr:street" v="West Hill Road" />
    <tag k="addr:state" v="VT" />
    <tag k="ref:vcgi:esiteid" v="205675" />
  </node>
  <node id="-473" visible="true" lat="44.07128152" lon="-72.75119736">
    <tag k="addr:city" v="Roxbury" />
    <tag k="addr:housenumber" v="130" />
    <tag k="addr:street" v="Rabtoy Road" />
    <tag k="addr:state" v="VT" />
    <tag k="ref:vcgi:esiteid" v="205676" />
  </node>
  <node id="-474" visible="true" lat="44.07307055" lon="-72.67687995">
    <tag k="addr:city" v="Roxbury" />
    <tag k="addr:housenumber" v="370" />
    <tag k="addr:street" v="Royce Road" />
    <tag k="addr:state" v="VT" />
    <tag k="ref:vcgi:esiteid" v="205677" />
  </node>
  <node id="-475" visible="true" lat="44.0731375" lon="-72.66208191">
    <tag k="addr:city" v="Roxbury" />
    <tag k="addr:housenumber" v="945" />
    <tag k="addr:street" v="Drown Road" />
    <tag k="addr:state" v="VT" />
    <tag k="ref:vcgi:esiteid" v="205678" />
  </node>
  <node id="-476" visible="true" lat="44.07051584" lon="-72.64679214">
    <tag k="addr:city" v="Roxbury" />
    <tag k="addr:housenumber" v="497" />
    <tag k="addr:street" v="Steele Hill Road" />
    <tag k="addr:state" v="VT" />
    <tag k="ref:vcgi:esiteid" v="205679" />
  </node>
  <node id="-477" visible="true" lat="44.04524967" lon="-72.73472109">
    <tag k="addr:city" v="Roxbury" />
    <tag k="addr:housenumber" v="1471" />
    <tag k="addr:street" v="Cram Hill Road" />
    <tag k="addr:state" v="VT" />
    <tag k="ref:vcgi:esiteid" v="205680" />
  </node>
  <node id="-478" visible="true" lat="44.04930965" lon="-72.75220887">
    <tag k="addr:city" v="Roxbury" />
    <tag k="addr:housenumber" v="1025" />
    <tag k="addr:street" v="Thurston Hill Road" />
    <tag k="addr:state" v="VT" />
    <tag k="ref:vcgi:esiteid" v="205681" />
  </node>
  <node id="-479" visible="true" lat="44.04287246" lon="-72.71827763">
    <tag k="addr:city" v="Roxbury" />
    <tag k="addr:housenumber" v="2213" />
    <tag k="addr:street" v="Cram Hill Road" />
    <tag k="addr:state" v="VT" />
    <tag k="ref:vcgi:esiteid" v="205682" />
  </node>
  <node id="-480" visible="true" lat="44.04304447" lon="-72.71319048">
    <tag k="addr:city" v="Roxbury" />
    <tag k="addr:housenumber" v="2419" />
    <tag k="addr:street" v="Cram Hill Road" />
    <tag k="addr:state" v="VT" />
    <tag k="ref:vcgi:esiteid" v="205684" />
  </node>
  <node id="-481" visible="true" lat="44.09874848" lon="-72.75291037">
    <tag k="addr:city" v="Roxbury" />
    <tag k="addr:housenumber" v="1835" />
    <tag k="addr:street" v="Carrie Howe Road" />
    <tag k="addr:state" v="VT" />
    <tag k="ref:vcgi:esiteid" v="205686" />
  </node>
  <node id="-482" visible="true" lat="44.09733777" lon="-72.75388028">
    <tag k="addr:city" v="Roxbury" />
    <tag k="addr:housenumber" v="1797" />
    <tag k="addr:street" v="Carrie Howe Road" />
    <tag k="addr:state" v="VT" />
    <tag k="ref:vcgi:esiteid" v="205687" />
  </node>
  <node id="-483" visible="true" lat="44.10018493" lon="-72.73223424">
    <tag k="addr:city" v="Roxbury" />
    <tag k="addr:housenumber" v="138" />
    <tag k="addr:street" v="Ellis Road" />
    <tag k="addr:state" v="VT" />
    <tag k="ref:vcgi:esiteid" v="205688" />
  </node>
  <node id="-484" visible="true" lat="44.10070763" lon="-72.7321309">
    <tag k="addr:city" v="Roxbury" />
    <tag k="addr:housenumber" v="120" />
    <tag k="addr:street" v="Ellis Road" />
    <tag k="addr:state" v="VT" />
    <tag k="ref:vcgi:esiteid" v="205689" />
  </node>
  <node id="-485" visible="true" lat="44.10423637" lon="-72.7317007">
    <tag k="addr:city" v="Roxbury" />
    <tag k="addr:housenumber" v="149" />
    <tag k="addr:street" v="Premo Road" />
    <tag k="addr:state" v="VT" />
    <tag k="ref:vcgi:esiteid" v="205690" />
  </node>
  <node id="-486" visible="true" lat="44.10282516" lon="-72.7319107">
    <tag k="addr:city" v="Roxbury" />
    <tag k="addr:housenumber" v="93" />
    <tag k="addr:street" v="Premo Road" />
    <tag k="addr:state" v="VT" />
    <tag k="ref:vcgi:esiteid" v="205691" />
  </node>
  <node id="-487" visible="true" lat="44.10647486" lon="-72.72907556">
    <tag k="addr:city" v="Roxbury" />
    <tag k="addr:housenumber" v="568" />
    <tag k="addr:street" v="Roxbury Road" />
    <tag k="addr:state" v="VT" />
    <tag k="ref:vcgi:esiteid" v="205692" />
  </node>
  <node id="-488" visible="true" lat="44.10752956" lon="-72.72845926">
    <tag k="addr:city" v="Roxbury" />
    <tag k="addr:housenumber" v="496" />
    <tag k="addr:street" v="Roxbury Road" />
    <tag k="addr:state" v="VT" />
    <tag k="ref:vcgi:esiteid" v="205693" />
  </node>
  <node id="-489" visible="true" lat="44.1021821" lon="-72.73203733">
    <tag k="addr:city" v="Roxbury" />
    <tag k="addr:housenumber" v="37" />
    <tag k="addr:street" v="Premo Road" />
    <tag k="addr:state" v="VT" />
    <tag k="ref:vcgi:esiteid" v="205694" />
  </node>
  <node id="-490" visible="true" lat="44.08618275" lon="-72.70694758">
    <tag k="addr:city" v="Roxbury" />
    <tag k="addr:housenumber" v="332" />
    <tag k="addr:street" v="Horner Road" />
    <tag k="addr:state" v="VT" />
    <tag k="ref:vcgi:esiteid" v="205695" />
  </node>
  <node id="-491" visible="true" lat="44.08251575" lon="-72.71194575">
    <tag k="addr:city" v="Roxbury" />
    <tag k="addr:housenumber" v="232" />
    <tag k="addr:street" v="Beaver Meadow Road" />
    <tag k="addr:state" v="VT" />
    <tag k="ref:vcgi:esiteid" v="205696" />
  </node>
  <node id="-492" visible="true" lat="44.09114074" lon="-72.72872161">
    <tag k="addr:city" v="Roxbury" />
    <tag k="addr:housenumber" v="324" />
    <tag k="addr:street" v="Tracy Hill Road" />
    <tag k="addr:state" v="VT" />
    <tag k="ref:vcgi:esiteid" v="205697" />
  </node>
  <node id="-493" visible="true" lat="44.0908596" lon="-72.72976276">
    <tag k="addr:city" v="Roxbury" />
    <tag k="addr:housenumber" v="286" />
    <tag k="addr:street" v="Tracy Hill Road" />
    <tag k="addr:state" v="VT" />
    <tag k="ref:vcgi:esiteid" v="205698" />
  </node>
  <node id="-494" visible="true" lat="44.08795238" lon="-72.69929228">
    <tag k="addr:city" v="Roxbury" />
    <tag k="addr:housenumber" v="677" />
    <tag k="addr:street" v="Horner Road" />
    <tag k="addr:state" v="VT" />
    <tag k="ref:vcgi:esiteid" v="205699" />
  </node>
  <node id="-495" visible="true" lat="44.08680964" lon="-72.70208262">
    <tag k="addr:city" v="Roxbury" />
    <tag k="addr:housenumber" v="505" />
    <tag k="addr:street" v="Horner Road" />
    <tag k="addr:state" v="VT" />
    <tag k="ref:vcgi:esiteid" v="205700" />
  </node>
  <node id="-496" visible="true" lat="44.07534593" lon="-72.68469143">
    <tag k="addr:city" v="Roxbury" />
    <tag k="addr:housenumber" v="3209" />
    <tag k="addr:street" v="Bull Run Road" />
    <tag k="addr:state" v="VT" />
    <tag k="ref:vcgi:esiteid" v="205701" />
  </node>
  <node id="-497" visible="true" lat="44.08763402" lon="-72.69683422">
    <tag k="addr:city" v="Roxbury" />
    <tag k="addr:housenumber" v="811" />
    <tag k="addr:street" v="Horner Road" />
    <tag k="addr:state" v="VT" />
    <tag k="ref:vcgi:esiteid" v="205702" />
  </node>
  <node id="-498" visible="true" lat="44.08589364" lon="-72.71265429">
    <tag k="addr:city" v="Roxbury" />
    <tag k="addr:housenumber" v="1248" />
    <tag k="addr:street" v="Tracy Hill Road" />
    <tag k="addr:state" v="VT" />
    <tag k="ref:vcgi:esiteid" v="205703" />
  </node>
  <node id="-499" visible="true" lat="44.10754941" lon="-72.732641">
    <tag k="addr:city" v="Roxbury" />
    <tag k="addr:housenumber" v="39" />
    <tag k="addr:street" v="Bartelink Road" />
    <tag k="addr:state" v="VT" />
    <tag k="ref:vcgi:esiteid" v="205704" />
  </node>
  <node id="-500" visible="true" lat="44.10037065" lon="-72.73209879">
    <tag k="addr:city" v="Roxbury" />
    <tag k="addr:housenumber" v="134" />
    <tag k="addr:street" v="Ellis Road" />
    <tag k="addr:state" v="VT" />
    <tag k="ref:vcgi:esiteid" v="205705" />
  </node>
  <node id="-501" visible="true" lat="44.08279188" lon="-72.65137273">
    <tag k="addr:city" v="Roxbury" />
    <tag k="addr:housenumber" v="38" />
    <tag k="addr:street" v="McCardell Road" />
    <tag k="addr:state" v="VT" />
    <tag k="ref:vcgi:esiteid" v="205706" />
  </node>
  <node id="-502" visible="true" lat="44.08042297" lon="-72.6494046">
    <tag k="addr:city" v="Roxbury" />
    <tag k="addr:housenumber" v="175" />
    <tag k="addr:street" v="Sanders Road" />
    <tag k="addr:state" v="VT" />
    <tag k="ref:vcgi:esiteid" v="205707" />
  </node>
  <node id="-503" visible="true" lat="44.07931914" lon="-72.64898481">
    <tag k="addr:city" v="Roxbury" />
    <tag k="addr:housenumber" v="110" />
    <tag k="addr:street" v="Sanders Road" />
    <tag k="addr:state" v="VT" />
    <tag k="ref:vcgi:esiteid" v="205708" />
  </node>
  <node id="-504" visible="true" lat="44.07771852" lon="-72.6442337">
    <tag k="addr:city" v="Roxbury" />
    <tag k="addr:housenumber" v="1256" />
    <tag k="addr:street" v="Herriott Road" />
    <tag k="addr:state" v="VT" />
    <tag k="ref:vcgi:esiteid" v="205709" />
  </node>
  <node id="-505" visible="true" lat="44.08068531" lon="-72.6811203">
    <tag k="addr:city" v="Roxbury" />
    <tag k="addr:housenumber" v="18" />
    <tag k="addr:street" v="Taylor Road" />
    <tag k="addr:state" v="VT" />
    <tag k="ref:vcgi:esiteid" v="205710" />
  </node>
  <node id="-506" visible="true" lat="44.03700429" lon="-72.66882661">
    <tag k="addr:city" v="Roxbury" />
    <tag k="addr:housenumber" v="3313" />
    <tag k="addr:street" v="Steele Hill Road" />
    <tag k="addr:state" v="VT" />
    <tag k="ref:vcgi:esiteid" v="205711" />
  </node>
  <node id="-507" visible="true" lat="44.04444885" lon="-72.66750335">
    <tag k="addr:city" v="Roxbury" />
    <tag k="addr:housenumber" v="2676" />
    <tag k="addr:street" v="Steele Hill Road" />
    <tag k="addr:state" v="VT" />
    <tag k="ref:vcgi:esiteid" v="205712" />
  </node>
  <node id="-508" visible="true" lat="44.05616822" lon="-72.66168638">
    <tag k="addr:city" v="Roxbury" />
    <tag k="addr:housenumber" v="1791" />
    <tag k="addr:street" v="Steele Hill Road" />
    <tag k="addr:state" v="VT" />
    <tag k="ref:vcgi:esiteid" v="205713" />
  </node>
  <node id="-509" visible="true" lat="44.08802422" lon="-72.65086893">
    <tag k="addr:city" v="Roxbury" />
    <tag k="addr:housenumber" v="44" />
    <tag k="addr:street" v="Tenney Road" />
    <tag k="addr:state" v="VT" />
    <tag k="ref:vcgi:esiteid" v="205714" />
  </node>
  <node id="-510" visible="true" lat="44.08563428" lon="-72.71056374">
    <tag k="addr:city" v="Roxbury" />
    <tag k="addr:housenumber" v="49" />
    <tag k="addr:street" v="Beaver Meadow Road" />
    <tag k="addr:state" v="VT" />
    <tag k="ref:vcgi:esiteid" v="205716" />
  </node>
  <node id="-511" visible="true" lat="44.07769973" lon="-72.75803054">
    <tag k="addr:city" v="Roxbury" />
    <tag k="addr:housenumber" v="1523" />
    <tag k="addr:street" v="West Hill Road" />
    <tag k="addr:state" v="VT" />
    <tag k="ref:vcgi:esiteid" v="205717" />
  </node>
  <node id="-512" visible="true" lat="44.07137605" lon="-72.76025493">
    <tag k="addr:city" v="Roxbury" />
    <tag k="addr:housenumber" v="1961" />
    <tag k="addr:street" v="West Hill Road" />
    <tag k="addr:state" v="VT" />
    <tag k="ref:vcgi:esiteid" v="205718" />
  </node>
  <node id="-513" visible="true" lat="44.05994539" lon="-72.66017177">
    <tag k="addr:city" v="Roxbury" />
    <tag k="addr:housenumber" v="1496" />
    <tag k="addr:street" v="Steele Hill Road" />
    <tag k="addr:state" v="VT" />
    <tag k="ref:vcgi:esiteid" v="205719" />
  </node>
  <node id="-514" visible="true" lat="44.06015402" lon="-72.65977703">
    <tag k="addr:city" v="Roxbury" />
    <tag k="addr:housenumber" v="1494" />
    <tag k="addr:street" v="Steele Hill Road" />
    <tag k="addr:state" v="VT" />
    <tag k="ref:vcgi:esiteid" v="205720" />
  </node>
  <node id="-515" visible="true" lat="44.08935023" lon="-72.65014786">
    <tag k="addr:city" v="Roxbury" />
    <tag k="addr:housenumber" v="318" />
    <tag k="addr:street" v="East Roxbury Road" />
    <tag k="addr:state" v="VT" />
    <tag k="ref:vcgi:esiteid" v="205721" />
  </node>
  <node id="-516" visible="true" lat="44.11833689" lon="-72.7539549">
    <tag k="addr:city" v="Roxbury" />
    <tag k="addr:housenumber" v="393" />
    <tag k="addr:street" v="Erskine Road" />
    <tag k="addr:state" v="VT" />
    <tag k="ref:vcgi:esiteid" v="205722" />
  </node>
  <node id="-517" visible="true" lat="44.09551947" lon="-72.66719045">
    <tag k="addr:city" v="Roxbury" />
    <tag k="addr:housenumber" v="2069" />
    <tag k="addr:street" v="Winch Hill Road" />
    <tag k="addr:state" v="VT" />
    <tag k="ref:vcgi:esiteid" v="205723" />
  </node>
  <node id="-518" visible="true" lat="44.08482134" lon="-72.74894407">
    <tag k="addr:city" v="Roxbury" />
    <tag k="addr:housenumber" v="737" />
    <tag k="addr:street" v="Carrie Howe Road" />
    <tag k="addr:state" v="VT" />
    <tag k="ref:vcgi:esiteid" v="205724" />
  </node>
  <node id="-519" visible="true" lat="44.07364411" lon="-72.64989332">
    <tag k="addr:city" v="Roxbury" />
    <tag k="addr:housenumber" v="286" />
    <tag k="addr:street" v="Steele Hill Road" />
    <tag k="addr:state" v="VT" />
    <tag k="ref:vcgi:esiteid" v="205725" />
  </node>
  <node id="-520" visible="true" lat="44.05899279" lon="-72.66047953">
    <tag k="addr:city" v="Roxbury" />
    <tag k="addr:housenumber" v="1594" />
    <tag k="addr:street" v="Steele Hill Road" />
    <tag k="addr:state" v="VT" />
    <tag k="ref:vcgi:esiteid" v="205726" />
  </node>
  <node id="-521" visible="true" lat="44.05917997" lon="-72.76427282">
    <tag k="addr:city" v="Roxbury" />
    <tag k="addr:housenumber" v="397" />
    <tag k="addr:street" v="Raynor Road" />
    <tag k="addr:state" v="VT" />
    <tag k="ref:vcgi:esiteid" v="205727" />
  </node>
  <node id="-522" visible="true" lat="44.06844871" lon="-72.65583193">
    <tag k="addr:city" v="Roxbury" />
    <tag k="addr:housenumber" v="357" />
    <tag k="addr:street" v="Drown Road" />
    <tag k="addr:state" v="VT" />
    <tag k="ref:vcgi:esiteid" v="205728" />
  </node>
  <node id="-523" visible="true" lat="44.09445671" lon="-72.73471">
    <tag k="addr:city" v="Roxbury" />
    <tag k="addr:housenumber" v="118" />
    <tag k="addr:street" v="Warren Mountain Road" />
    <tag k="addr:state" v="VT" />
    <tag k="ref:vcgi:esiteid" v="205729" />
  </node>
  <node id="-524" visible="true" lat="44.04101946" lon="-72.66932495">
    <tag k="addr:city" v="Roxbury" />
    <tag k="addr:housenumber" v="2990" />
    <tag k="addr:street" v="Steele Hill Road" />
    <tag k="addr:state" v="VT" />
    <tag k="ref:vcgi:esiteid" v="205730" />
  </node>
  <node id="-525" visible="true" lat="44.08486559" lon="-72.71928747">
    <tag k="addr:city" v="Roxbury" />
    <tag k="addr:housenumber" v="399" />
    <tag k="addr:street" v="Moose Run Road" />
    <tag k="addr:state" v="VT" />
    <tag k="ref:vcgi:esiteid" v="205731" />
  </node>
  <node id="-526" visible="true" lat="44.09145807" lon="-72.67357626">
    <tag k="addr:city" v="Roxbury" />
    <tag k="addr:housenumber" v="2630" />
    <tag k="addr:street" v="Winch Hill Road" />
    <tag k="addr:state" v="VT" />
    <tag k="ref:vcgi:esiteid" v="205732" />
  </node>
  <node id="-527" visible="true" lat="44.07623941" lon="-72.67383957">
    <tag k="addr:city" v="Roxbury" />
    <tag k="addr:housenumber" v="127" />
    <tag k="addr:street" v="Royce Road" />
    <tag k="addr:state" v="VT" />
    <tag k="ref:vcgi:esiteid" v="205733" />
  </node>
  <node id="-528" visible="true" lat="44.08340378" lon="-72.70953275">
    <tag k="addr:city" v="Roxbury" />
    <tag k="addr:housenumber" v="75" />
    <tag k="addr:street" v="Beaver Meadow Road" />
    <tag k="addr:state" v="VT" />
    <tag k="ref:vcgi:esiteid" v="205734" />
  </node>
  <node id="-529" visible="true" lat="44.08718356" lon="-72.70344823">
    <tag k="addr:city" v="Roxbury" />
    <tag k="addr:housenumber" v="487" />
    <tag k="addr:street" v="Horner Road" />
    <tag k="addr:state" v="VT" />
    <tag k="ref:vcgi:esiteid" v="205735" />
  </node>
  <node id="-530" visible="true" lat="44.08699852" lon="-72.71506528">
    <tag k="addr:city" v="Roxbury" />
    <tag k="addr:housenumber" v="1122" />
    <tag k="addr:street" v="Tracy Hill Road" />
    <tag k="addr:state" v="VT" />
    <tag k="ref:vcgi:esiteid" v="205736" />
  </node>
  <node id="-531" visible="true" lat="44.07909698" lon="-72.75774827">
    <tag k="addr:city" v="Roxbury" />
    <tag k="addr:housenumber" v="1369" />
    <tag k="addr:street" v="West Hill Road" />
    <tag k="addr:state" v="VT" />
    <tag k="ref:vcgi:esiteid" v="205737" />
  </node>
  <node id="-532" visible="true" lat="44.09268076" lon="-72.73210693">
    <tag k="addr:city" v="Roxbury" />
    <tag k="addr:housenumber" v="63" />
    <tag k="addr:street" v="Tracy Hill Road" />
    <tag k="addr:state" v="VT" />
    <tag k="ref:vcgi:esiteid" v="205738" />
  </node>
  <node id="-533" visible="true" lat="44.09515685" lon="-72.73979844">
    <tag k="addr:city" v="Roxbury" />
    <tag k="addr:housenumber" v="365" />
    <tag k="addr:street" v="Warren Mountain Road" />
    <tag k="addr:state" v="VT" />
    <tag k="ref:vcgi:esiteid" v="205739" />
  </node>
  <node id="-534" visible="true" lat="44.07974074" lon="-72.75701789">
    <tag k="addr:city" v="Roxbury" />
    <tag k="addr:housenumber" v="1347" />
    <tag k="addr:street" v="West Hill Road" />
    <tag k="addr:state" v="VT" />
    <tag k="ref:vcgi:esiteid" v="205740" />
  </node>
  <node id="-535" visible="true" lat="44.08659485" lon="-72.70523606">
    <tag k="addr:city" v="Roxbury" />
    <tag k="addr:housenumber" v="371" />
    <tag k="addr:street" v="Horner Road" />
    <tag k="addr:state" v="VT" />
    <tag k="ref:vcgi:esiteid" v="205741" />
  </node>
  <node id="-536" visible="true" lat="44.08669166" lon="-72.69717742">
    <tag k="addr:city" v="Roxbury" />
    <tag k="addr:housenumber" v="750" />
    <tag k="addr:street" v="Horner Road" />
    <tag k="addr:state" v="VT" />
    <tag k="ref:vcgi:esiteid" v="205742" />
  </node>
  <node id="-537" visible="true" lat="44.09721732" lon="-72.6786826">
    <tag k="addr:city" v="Roxbury" />
    <tag k="addr:housenumber" v="1598" />
    <tag k="addr:street" v="Bull Run Road" />
    <tag k="addr:state" v="VT" />
    <tag k="ref:vcgi:esiteid" v="205743" />
  </node>
  <node id="-538" visible="true" lat="44.07352041" lon="-72.67434111">
    <tag k="addr:city" v="Roxbury" />
    <tag k="addr:housenumber" v="255" />
    <tag k="addr:street" v="Royce Road" />
    <tag k="addr:state" v="VT" />
    <tag k="ref:vcgi:esiteid" v="205744" />
  </node>
  <node id="-539" visible="true" lat="44.078958" lon="-72.64994652">
    <tag k="addr:city" v="Roxbury" />
    <tag k="addr:housenumber" v="55" />
    <tag k="addr:street" v="Sanders Road" />
    <tag k="addr:state" v="VT" />
    <tag k="ref:vcgi:esiteid" v="205745" />
  </node>
  <node id="-540" visible="true" lat="44.08824397" lon="-72.64870591">
    <tag k="addr:city" v="Roxbury" />
    <tag k="addr:housenumber" v="369" />
    <tag k="addr:street" v="East Roxbury Road" />
    <tag k="addr:state" v="VT" />
    <tag k="ref:vcgi:esiteid" v="205747" />
  </node>
  <node id="-541" visible="true" lat="44.06564281" lon="-72.74382683">
    <tag k="addr:city" v="Roxbury" />
    <tag k="addr:housenumber" v="3651" />
    <tag k="addr:street" v="Roxbury Road" />
    <tag k="addr:state" v="VT" />
    <tag k="ref:vcgi:esiteid" v="205748" />
  </node>
  <node id="-542" visible="true" lat="44.05773755" lon="-72.6591003">
    <tag k="addr:city" v="Roxbury" />
    <tag k="addr:housenumber" v="1635" />
    <tag k="addr:street" v="Steele Hill Road" />
    <tag k="addr:state" v="VT" />
    <tag k="ref:vcgi:esiteid" v="205749" />
  </node>
  <node id="-543" visible="true" lat="44.0427322" lon="-72.67002631">
    <tag k="addr:city" v="Roxbury" />
    <tag k="addr:housenumber" v="2842" />
    <tag k="addr:street" v="Steele Hill Road" />
    <tag k="addr:state" v="VT" />
    <tag k="ref:vcgi:esiteid" v="205750" />
  </node>
  <node id="-544" visible="true" lat="44.09534419" lon="-72.73653301">
    <tag k="addr:city" v="Roxbury" />
    <tag k="addr:housenumber" v="208" />
    <tag k="addr:street" v="Warren Mountain Road" />
    <tag k="addr:state" v="VT" />
    <tag k="ref:vcgi:esiteid" v="205751" />
  </node>
  <node id="-545" visible="true" lat="44.09525562" lon="-72.73718517">
    <tag k="addr:city" v="Roxbury" />
    <tag k="addr:housenumber" v="210" />
    <tag k="addr:street" v="Warren Mountain Road" />
    <tag k="addr:state" v="VT" />
    <tag k="ref:vcgi:esiteid" v="205752" />
  </node>
  <node id="-546" visible="true" lat="44.08767561" lon="-72.70652115">
    <tag k="addr:city" v="Roxbury" />
    <tag k="addr:housenumber" v="173" />
    <tag k="addr:street" v="Horner Road" />
    <tag k="addr:state" v="VT" />
    <tag k="ref:vcgi:esiteid" v="205754" />
  </node>
  <node id="-547" visible="true" lat="44.08580453" lon="-72.68353095">
    <tag k="addr:city" v="Roxbury" />
    <tag k="addr:housenumber" v="14" />
    <tag k="addr:street" v="Diemer Road" />
    <tag k="addr:state" v="VT" />
    <tag k="ref:vcgi:esiteid" v="307228" />
  </node>
  <node id="-548" visible="true" lat="44.08728789" lon="-72.68193121">
    <tag k="addr:city" v="Roxbury" />
    <tag k="addr:housenumber" v="231" />
    <tag k="addr:street" v="Diemer Road" />
    <tag k="addr:state" v="VT" />
    <tag k="ref:vcgi:esiteid" v="307229" />
  </node>
  <node id="-549" visible="true" lat="44.11211115" lon="-72.74603577">
    <tag k="addr:city" v="Roxbury" />
    <tag k="addr:housenumber" v="542" />
    <tag k="addr:street" v="Northfield Road" />
    <tag k="addr:state" v="VT" />
    <tag k="ref:vcgi:esiteid" v="311734" />
  </node>
  <node id="-550" visible="true" lat="44.08630836" lon="-72.71416112">
    <tag k="addr:city" v="Roxbury" />
    <tag k="addr:housenumber" v="1190" />
    <tag k="addr:street" v="Tracy Hill Road" />
    <tag k="addr:state" v="VT" />
    <tag k="ref:vcgi:esiteid" v="316715" />
  </node>
  <node id="-551" visible="true" lat="44.06077455" lon="-72.75047418">
    <tag k="addr:city" v="Roxbury" />
    <tag k="addr:housenumber" v="612" />
    <tag k="addr:street" v="Thurston Hill Road" />
    <tag k="addr:state" v="VT" />
    <tag k="ref:vcgi:esiteid" v="316716" />
  </node>
  <node id="-552" visible="true" lat="44.04374001" lon="-72.7258463">
    <tag k="addr:city" v="Roxbury" />
    <tag k="addr:housenumber" v="1840" />
    <tag k="addr:street" v="Cram Hill Road" />
    <tag k="addr:state" v="VT" />
    <tag k="ref:vcgi:esiteid" v="316717" />
  </node>
  <node id="-553" visible="true" lat="44.07820816" lon="-72.64727573">
    <tag k="addr:city" v="Roxbury" />
    <tag k="addr:housenumber" v="1257" />
    <tag k="addr:street" v="East Roxbury Road" />
    <tag k="addr:state" v="VT" />
    <tag k="ref:vcgi:esiteid" v="316718" />
  </node>
  <node id="-554" visible="true" lat="44.1052325" lon="-72.74854341">
    <tag k="addr:city" v="Roxbury" />
    <tag k="addr:housenumber" v="35" />
    <tag k="addr:street" v="Dunbars Way" />
    <tag k="addr:state" v="VT" />
    <tag k="ref:vcgi:esiteid" v="316719" />
  </node>
  <node id="-555" visible="true" lat="44.11332673" lon="-72.76589837">
    <tag k="addr:city" v="Roxbury" />
    <tag k="addr:housenumber" v="2240" />
    <tag k="addr:street" v="Warren Mountain Road" />
    <tag k="addr:state" v="VT" />
    <tag k="ref:vcgi:esiteid" v="316720" />
  </node>
  <node id="-556" visible="true" lat="44.06352553" lon="-72.6512177">
    <tag k="addr:city" v="Roxbury" />
    <tag k="addr:housenumber" v="1069" />
    <tag k="addr:street" v="Steele Hill Road" />
    <tag k="addr:state" v="VT" />
    <tag k="ref:vcgi:esiteid" v="316887" />
  </node>
  <node id="-557" visible="true" lat="44.08536149" lon="-72.70394731">
    <tag k="addr:city" v="Roxbury" />
    <tag k="addr:housenumber" v="508" />
    <tag k="addr:street" v="Horner Road" />
    <tag k="addr:state" v="VT" />
    <tag k="ref:vcgi:esiteid" v="327645" />
  </node>
  <node id="-558" visible="true" lat="44.10197638" lon="-72.74387634">
    <tag k="addr:city" v="Roxbury" />
    <tag k="addr:housenumber" v="950" />
    <tag k="addr:street" v="Warren Mountain Road" />
    <tag k="addr:state" v="VT" />
    <tag k="ref:vcgi:esiteid" v="328266" />
  </node>
  <node id="-559" visible="true" lat="44.10489667" lon="-72.75046704">
    <tag k="addr:city" v="Roxbury" />
    <tag k="addr:housenumber" v="2266" />
    <tag k="addr:street" v="Carrie Howe Road" />
    <tag k="addr:state" v="VT" />
    <tag k="ref:vcgi:esiteid" v="329583" />
  </node>
  <node id="-560" visible="true" lat="44.10287051" lon="-72.75567682">
    <tag k="addr:city" v="Roxbury" />
    <tag k="addr:housenumber" v="2151" />
    <tag k="addr:street" v="Carrie Howe Road" />
    <tag k="addr:state" v="VT" />
    <tag k="ref:vcgi:esiteid" v="329584" />
  </node>
  <node id="-561" visible="true" lat="44.11527499" lon="-72.77471215">
    <tag k="addr:city" v="Roxbury" />
    <tag k="addr:housenumber" v="2740" />
    <tag k="addr:street" v="Warren Mountain Road" />
    <tag k="addr:state" v="VT" />
    <tag k="ref:vcgi:esiteid" v="330012" />
  </node>
  <node id="-562" visible="true" lat="44.07916698" lon="-72.71048143">
    <tag k="addr:city" v="Roxbury" />
    <tag k="addr:housenumber" v="498" />
    <tag k="addr:street" v="Beaver Meadow Road" />
    <tag k="addr:state" v="VT" />
    <tag k="ref:vcgi:esiteid" v="335733" />
  </node>
  <node id="-563" visible="true" lat="44.08057019" lon="-72.71020443">
    <tag k="addr:city" v="Roxbury" />
    <tag k="addr:housenumber" v="413" />
    <tag k="addr:street" v="Beaver Meadow Road" />
    <tag k="addr:state" v="VT" />
    <tag k="ref:vcgi:esiteid" v="335734" />
  </node>
  <node id="-564" visible="true" lat="44.10721355" lon="-72.73578747">
    <tag k="addr:city" v="Roxbury" />
    <tag k="addr:housenumber" v="504" />
    <tag k="addr:street" v="Premo Road" />
    <tag k="addr:state" v="VT" />
    <tag k="ref:vcgi:esiteid" v="336528" />
  </node>
  <node id="-565" visible="true" lat="44.06485614" lon="-72.65031321">
    <tag k="addr:city" v="Roxbury" />
    <tag k="addr:housenumber" v="975" />
    <tag k="addr:street" v="Steele Hill Road" />
    <tag k="addr:state" v="VT" />
    <tag k="ref:vcgi:esiteid" v="336529" />
  </node>
  <node id="-566" visible="true" lat="44.11563017" lon="-72.77519379">
    <tag k="addr:city" v="Roxbury" />
    <tag k="addr:housenumber" v="2742" />
    <tag k="addr:street" v="Warren Mountain Road" />
    <tag k="addr:state" v="VT" />
    <tag k="ref:vcgi:esiteid" v="337718" />
  </node>
  <node id="-567" visible="true" lat="44.05268527" lon="-72.66346814">
    <tag k="addr:city" v="Roxbury" />
    <tag k="addr:housenumber" v="2019" />
    <tag k="addr:street" v="Steele Hill Road" />
    <tag k="addr:state" v="VT" />
    <tag k="ref:vcgi:esiteid" v="337837" />
  </node>
  <node id="-568" visible="true" lat="44.08328712" lon="-72.75802642">
    <tag k="addr:city" v="Roxbury" />
    <tag k="addr:housenumber" v="1184" />
    <tag k="addr:street" v="West Hill Road" />
    <tag k="addr:state" v="VT" />
    <tag k="ref:vcgi:esiteid" v="337839" />
  </node>
  <node id="-569" visible="true" lat="44.04015322" lon="-72.71202071">
    <tag k="addr:city" v="Roxbury" />
    <tag k="addr:housenumber" v="2628" />
    <tag k="addr:street" v="Cram Hill Road" />
    <tag k="addr:state" v="VT" />
    <tag k="ref:vcgi:esiteid" v="338314" />
  </node>
  <node id="-570" visible="true" lat="44.10645689" lon="-72.71221579">
    <tag k="addr:city" v="Roxbury" />
    <tag k="addr:housenumber" v="1946" />
    <tag k="addr:street" v="Messier Hill Road" />
    <tag k="addr:state" v="VT" />
    <tag k="ref:vcgi:esiteid" v="338419" />
  </node>
  <node id="-571" visible="true" lat="44.08479749" lon="-72.71097291">
    <tag k="addr:city" v="Roxbury" />
    <tag k="addr:housenumber" v="55" />
    <tag k="addr:street" v="Beaver Meadow Road" />
    <tag k="addr:state" v="VT" />
    <tag k="ref:vcgi:esiteid" v="339056" />
  </node>
  <node id="-572" visible="true" lat="44.0834208" lon="-72.71261247">
    <tag k="addr:city" v="Roxbury" />
    <tag k="addr:housenumber" v="118" />
    <tag k="addr:street" v="Beaver Meadow Road" />
    <tag k="addr:state" v="VT" />
    <tag k="ref:vcgi:esiteid" v="339057" />
  </node>
  <node id="-573" visible="true" lat="44.07503761" lon="-72.76352586">
    <tag k="addr:city" v="Roxbury" />
    <tag k="addr:housenumber" v="116" />
    <tag k="addr:street" v="Ordway Road" />
    <tag k="addr:state" v="VT" />
    <tag k="ref:vcgi:esiteid" v="339686" />
  </node>
  <node id="-574" visible="true" lat="44.07462576" lon="-72.65122074">
    <tag k="addr:city" v="Roxbury" />
    <tag k="addr:housenumber" v="240" />
    <tag k="addr:street" v="Steele Hill Road" />
    <tag k="addr:state" v="VT" />
    <tag k="ref:vcgi:esiteid" v="340021" />
  </node>
  <node id="-575" visible="true" lat="44.08509162" lon="-72.64729484">
    <tag k="addr:city" v="Roxbury" />
    <tag k="addr:housenumber" v="371" />
    <tag k="addr:street" v="East Roxbury Road" />
    <tag k="addr:state" v="VT" />
    <tag k="ref:vcgi:esiteid" v="340055" />
  </node>
  <node id="-576" visible="true" lat="44.06179278" lon="-72.74611695">
    <tag k="addr:city" v="Roxbury" />
    <tag k="addr:housenumber" v="329" />
    <tag k="addr:street" v="Thurston Hill Road" />
    <tag k="addr:state" v="VT" />
    <tag k="ref:vcgi:esiteid" v="340133" />
  </node>
  <node id="-577" visible="true" lat="44.08591561" lon="-72.69964414">
    <tag k="addr:city" v="Roxbury" />
    <tag k="addr:housenumber" v="672" />
    <tag k="addr:street" v="Horner Road" />
    <tag k="addr:state" v="VT" />
    <tag k="ref:vcgi:esiteid" v="340218" />
  </node>
  <node id="-578" visible="true" lat="44.07826159" lon="-72.6615484">
    <tag k="addr:city" v="Roxbury" />
    <tag k="addr:housenumber" v="1306" />
    <tag k="addr:street" v="Drown Road" />
    <tag k="addr:state" v="VT" />
    <tag k="ref:vcgi:esiteid" v="341392" />
  </node>
  <node id="-579" visible="true" lat="44.06365425" lon="-72.715086">
    <tag k="addr:city" v="Roxbury" />
    <tag k="addr:housenumber" v="1673" />
    <tag k="addr:street" v="Beaver Meadow Road" />
    <tag k="addr:state" v="VT" />
    <tag k="ref:vcgi:esiteid" v="341612" />
  </node>
  <node id="-580" visible="true" lat="44.0797819" lon="-72.67943118">
    <tag k="addr:city" v="Roxbury" />
    <tag k="addr:housenumber" v="223" />
    <tag k="addr:street" v="Cruickshank Road" />
    <tag k="addr:state" v="VT" />
    <tag k="ref:vcgi:esiteid" v="341686" />
  </node>
  <node id="-581" visible="true" lat="44.06872089" lon="-72.7625331">
    <tag k="addr:city" v="Roxbury" />
    <tag k="addr:housenumber" v="2157" />
    <tag k="addr:street" v="West Hill Road" />
    <tag k="addr:state" v="VT" />
    <tag k="ref:vcgi:esiteid" v="342937" />
  </node>
  <node id="-582" visible="true" lat="44.09982058" lon="-72.67682939">
    <tag k="addr:city" v="Roxbury" />
    <tag k="addr:housenumber" v="1341" />
    <tag k="addr:street" v="Bull Run Road" />
    <tag k="addr:state" v="VT" />
    <tag k="ref:vcgi:esiteid" v="342938" />
  </node>
  <node id="-583" visible="true" lat="44.09420322" lon="-72.73609588">
    <tag k="addr:city" v="Roxbury" />
    <tag k="addr:housenumber" v="161" />
    <tag k="addr:street" v="Warren Mountain Road" />
    <tag k="addr:state" v="VT" />
    <tag k="ref:vcgi:esiteid" v="344081" />
  </node>
  <node id="-584" visible="true" lat="44.0672839" lon="-72.76383542">
    <tag k="addr:city" v="Roxbury" />
    <tag k="addr:housenumber" v="2279" />
    <tag k="addr:street" v="West Hill Road" />
    <tag k="addr:state" v="VT" />
    <tag k="ref:vcgi:esiteid" v="344083" />
  </node>
  <node id="-585" visible="true" lat="44.08741148" lon="-72.71412229">
    <tag k="addr:city" v="Roxbury" />
    <tag k="addr:housenumber" v="1135" />
    <tag k="addr:street" v="Tracy Hill Road" />
    <tag k="addr:state" v="VT" />
    <tag k="ref:vcgi:esiteid" v="344101" />
  </node>
  <node id="-586" visible="true" lat="44.05382105" lon="-72.74959549">
    <tag k="addr:city" v="Roxbury" />
    <tag k="addr:housenumber" v="937" />
    <tag k="addr:street" v="Thurston Hill Road" />
    <tag k="addr:state" v="VT" />
    <tag k="ref:vcgi:esiteid" v="344195" />
  </node>
  <node id="-587" visible="true" lat="44.05872836" lon="-72.66073818">
    <tag k="addr:city" v="Roxbury" />
    <tag k="addr:housenumber" v="1634" />
    <tag k="addr:street" v="Steele Hill Road" />
    <tag k="addr:state" v="VT" />
    <tag k="ref:vcgi:esiteid" v="345884" />
  </node>
  <node id="-588" visible="true" lat="44.06019947" lon="-72.66024616">
    <tag k="addr:city" v="Roxbury" />
    <tag k="addr:housenumber" v="1492" />
    <tag k="addr:street" v="Steele Hill Road" />
    <tag k="addr:state" v="VT" />
    <tag k="ref:vcgi:esiteid" v="345885" />
  </node>
  <node id="-589" visible="true" lat="44.09486726" lon="-72.75138692">
    <tag k="addr:city" v="Roxbury" />
    <tag k="addr:housenumber" v="1593" />
    <tag k="addr:street" v="Carrie Howe Road" />
    <tag k="addr:state" v="VT" />
    <tag k="ref:vcgi:esiteid" v="345967" />
  </node>
  <node id="-590" visible="true" lat="44.08697467" lon="-72.72830128">
    <tag k="addr:city" v="Roxbury" />
    <tag k="addr:housenumber" v="472" />
    <tag k="addr:street" v="Tracy Hill Road" />
    <tag k="addr:state" v="VT" />
    <tag k="ref:vcgi:esiteid" v="445441" />
  </node>
  <node id="-591" visible="true" lat="44.0451013" lon="-72.71713468">
    <tag k="addr:city" v="Roxbury" />
    <tag k="addr:housenumber" v="2315" />
    <tag k="addr:street" v="Cram Hill Road" />
    <tag k="addr:state" v="VT" />
    <tag k="ref:vcgi:esiteid" v="448187" />
  </node>
  <node id="-592" visible="true" lat="44.0399178" lon="-72.70948024">
    <tag k="addr:city" v="Roxbury" />
    <tag k="addr:housenumber" v="2741" />
    <tag k="addr:street" v="Cram Hill Road" />
    <tag k="addr:state" v="VT" />
    <tag k="ref:vcgi:esiteid" v="448188" />
  </node>
  <node id="-593" visible="true" lat="44.07209303" lon="-72.67486774">
    <tag k="addr:city" v="Roxbury" />
    <tag k="addr:housenumber" v="259" />
    <tag k="addr:street" v="Royce Road" />
    <tag k="addr:state" v="VT" />
    <tag k="ref:vcgi:esiteid" v="448256" />
  </node>
  <node id="-594" visible="true" lat="44.09699961" lon="-72.67837208">
    <tag k="addr:city" v="Roxbury" />
    <tag k="addr:housenumber" v="1596" />
    <tag k="addr:street" v="Bull Run Road" />
    <tag k="addr:state" v="VT" />
    <tag k="ref:vcgi:esiteid" v="451937" />
  </node>
  <node id="-595" visible="true" lat="44.08856434" lon="-72.67708097">
    <tag k="addr:city" v="Roxbury" />
    <tag k="addr:housenumber" v="2925" />
    <tag k="addr:street" v="Winch Hill Road" />
    <tag k="addr:state" v="VT" />
    <tag k="ref:vcgi:esiteid" v="451938" />
  </node>
  <node id="-596" visible="true" lat="44.09356761" lon="-72.7436046">
    <tag k="addr:city" v="Roxbury" />
    <tag k="addr:housenumber" v="322" />
    <tag k="addr:street" v="Webster Road" />
    <tag k="addr:state" v="VT" />
    <tag k="ref:vcgi:esiteid" v="451939" />
  </node>
  <node id="-597" visible="true" lat="44.05164518" lon="-72.73925385">
    <tag k="addr:city" v="Roxbury" />
    <tag k="addr:housenumber" v="442" />
    <tag k="addr:street" v="Cram Hill Road" />
    <tag k="addr:state" v="VT" />
    <tag k="ref:vcgi:esiteid" v="451940" />
  </node>
  <node id="-598" visible="true" lat="44.07719689" lon="-72.64882552">
    <tag k="addr:city" v="Roxbury" />
    <tag k="addr:housenumber" v="1149" />
    <tag k="addr:street" v="East Roxbury Road" />
    <tag k="addr:state" v="VT" />
    <tag k="ref:vcgi:esiteid" v="451941" />
  </node>
  <node id="-599" visible="true" lat="44.03047763" lon="-72.73039589">
    <tag k="addr:city" v="Roxbury" />
    <tag k="addr:housenumber" v="1262" />
    <tag k="addr:street" v="Braintree Hill Road" />
    <tag k="addr:state" v="VT" />
    <tag k="ref:vcgi:esiteid" v="455398" />
  </node>
  <node id="-600" visible="true" lat="44.04728156" lon="-72.74169663">
    <tag k="addr:city" v="Roxbury" />
    <tag k="addr:housenumber" v="5019" />
    <tag k="addr:street" v="Roxbury Road" />
    <tag k="addr:state" v="VT" />
    <tag k="ref:vcgi:esiteid" v="455399" />
  </node>
  <node id="-601" visible="true" lat="44.09326444" lon="-72.71302379">
    <tag k="addr:city" v="Roxbury" />
    <tag k="addr:housenumber" v="491" />
    <tag k="addr:street" v="Old Mail Route Road" />
    <tag k="addr:state" v="VT" />
    <tag k="ref:vcgi:esiteid" v="455400" />
  </node>
  <node id="-602" visible="true" lat="44.09421932" lon="-72.71430262">
    <tag k="addr:city" v="Roxbury" />
    <tag k="addr:housenumber" v="493" />
    <tag k="addr:street" v="Old Mail Route Road" />
    <tag k="addr:state" v="VT" />
    <tag k="ref:vcgi:esiteid" v="455401" />
  </node>
  <node id="-603" visible="true" lat="44.03348456" lon="-72.71122929">
    <tag k="addr:city" v="Roxbury" />
    <tag k="addr:housenumber" v="662" />
    <tag k="addr:street" v="Belcher Road" />
    <tag k="addr:state" v="VT" />
    <tag k="ref:vcgi:esiteid" v="455554" />
  </node>
  <node id="-604" visible="true" lat="44.03619261" lon="-72.71233705">
    <tag k="addr:city" v="Roxbury" />
    <tag k="addr:housenumber" v="159" />
    <tag k="addr:street" v="Belcher Road" />
    <tag k="addr:state" v="VT" />
    <tag k="ref:vcgi:esiteid" v="455555" />
  </node>
  <node id="-605" visible="true" lat="44.03819209" lon="-72.71118408">
    <tag k="addr:city" v="Roxbury" />
    <tag k="addr:housenumber" v="51" />
    <tag k="addr:street" v="Belcher Road" />
    <tag k="addr:state" v="VT" />
    <tag k="ref:vcgi:esiteid" v="455556" />
  </node>
  <node id="-606" visible="true" lat="44.08268027" lon="-72.73133699">
    <tag k="addr:city" v="Roxbury" />
    <tag k="addr:housenumber" v="294" />
    <tag k="addr:street" v="Sullivan Hill Road" />
    <tag k="addr:state" v="VT" />
    <tag k="ref:vcgi:esiteid" v="612553" />
  </node>
  <node id="-607" visible="true" lat="44.08095144" lon="-72.75774167">
    <tag k="addr:city" v="Roxbury" />
    <tag k="addr:housenumber" v="1287" />
    <tag k="addr:street" v="West Hill Road" />
    <tag k="addr:state" v="VT" />
    <tag k="ref:vcgi:esiteid" v="612554" />
  </node>
  <node id="-608" visible="true" lat="44.08005674" lon="-72.75820554">
    <tag k="addr:city" v="Roxbury" />
    <tag k="addr:housenumber" v="1345" />
    <tag k="addr:street" v="West Hill Road" />
    <tag k="addr:state" v="VT" />
    <tag k="ref:vcgi:esiteid" v="612555" />
  </node>
  <node id="-609" visible="true" lat="44.02567661" lon="-72.72726393">
    <tag k="addr:city" v="Roxbury" />
    <tag k="addr:housenumber" v="1601" />
    <tag k="addr:street" v="Braintree Hill Road" />
    <tag k="addr:state" v="VT" />
    <tag k="ref:vcgi:esiteid" v="616217" />
  </node>
  <node id="-610" visible="true" lat="44.10821844" lon="-72.72876302">
    <tag k="addr:city" v="Roxbury" />
    <tag k="addr:housenumber" v="480" />
    <tag k="addr:street" v="Roxbury Road" />
    <tag k="addr:state" v="VT" />
    <tag k="ref:vcgi:esiteid" v="620023" />
  </node>
  <node id="-611" visible="true" lat="44.06324982" lon="-72.65205751">
    <tag k="addr:city" v="Roxbury" />
    <tag k="addr:housenumber" v="1073" />
    <tag k="addr:street" v="Steele Hill Road" />
    <tag k="addr:state" v="VT" />
    <tag k="ref:vcgi:esiteid" v="620117" />
  </node>
  <node id="-612" visible="true" lat="44.08626023" lon="-72.71186131">
    <tag k="addr:city" v="Roxbury" />
    <tag k="addr:housenumber" v="20" />
    <tag k="addr:street" v="Old Mail Route Road" />
    <tag k="addr:state" v="VT" />
    <tag k="ref:vcgi:esiteid" v="620495" />
  </node>
  <node id="-613" visible="true" lat="44.09859" lon="-72.73894473">
    <tag k="addr:city" v="Roxbury" />
    <tag k="addr:housenumber" v="392" />
    <tag k="addr:street" v="Warren Mountain Road" />
    <tag k="addr:state" v="VT" />
    <tag k="ref:vcgi:esiteid" v="620496" />
  </node>
  <node id="-615" visible="true" lat="44.08569251" lon="-72.71405068">
    <tag k="addr:city" v="Roxbury" />
    <tag k="addr:housenumber" v="1238" />
    <tag k="addr:street" v="Tracy Hill Road" />
    <tag k="addr:state" v="VT" />
    <tag k="ref:vcgi:esiteid" v="750155" />
  </node>
  <node id="-616" visible="true" lat="44.06444894" lon="-72.65127441">
    <tag k="addr:city" v="Roxbury" />
    <tag k="addr:housenumber" v="977" />
    <tag k="addr:street" v="Steele Hill Road" />
    <tag k="addr:state" v="VT" />
    <tag k="ref:vcgi:esiteid" v="752793" />
  </node>
  <node id="-617" visible="true" lat="44.0145259" lon="-72.68244105">
    <tag k="addr:city" v="Roxbury" />
    <tag k="addr:housenumber" v="500" />
    <tag k="addr:street" v="Bouvant Road" />
    <tag k="addr:state" v="VT" />
    <tag k="ref:vcgi:esiteid" v="754225" />
  </node>
  <node id="-618" visible="true" lat="44.11389339" lon="-72.76468668">
    <tag k="addr:city" v="Roxbury" />
    <tag k="addr:housenumber" v="2210" />
    <tag k="addr:street" v="Warren Mountain Road" />
    <tag k="addr:state" v="VT" />
    <tag k="ref:vcgi:esiteid" v="755984" />
  </node>
  <node id="-619" visible="true" lat="44.1125087" lon="-72.7605547">
    <tag k="addr:city" v="Roxbury" />
    <tag k="addr:housenumber" v="2080" />
    <tag k="addr:street" v="Warren Mountain Road" />
    <tag k="addr:state" v="VT" />
    <tag k="ref:vcgi:esiteid" v="755985" />
  </node>
  <node id="-620" visible="true" lat="44.08370824" lon="-72.68403904">
    <tag k="addr:city" v="Roxbury" />
    <tag k="addr:housenumber" v="2663" />
    <tag k="addr:street" v="Bull Run Road" />
    <tag k="addr:state" v="VT" />
    <tag k="ref:vcgi:esiteid" v="756429" />
  </node>
  <node id="-621" visible="true" lat="44.12397195" lon="-72.76556016">
    <tag k="addr:city" v="Roxbury" />
    <tag k="addr:housenumber" v="741" />
    <tag k="addr:street" v="Shaw Road" />
    <tag k="addr:state" v="VT" />
    <tag k="ref:vcgi:esiteid" v="756759" />
  </node>
  <node id="-622" visible="true" lat="44.11785199" lon="-72.76827146">
    <tag k="addr:city" v="Roxbury" />
    <tag k="addr:housenumber" v="289" />
    <tag k="addr:street" v="Shaw Road" />
    <tag k="addr:state" v="VT" />
    <tag k="ref:vcgi:esiteid" v="757006" />
  </node>
  <node id="-623" visible="true" lat="44.06256596" lon="-72.7152961">
    <tag k="addr:city" v="Roxbury" />
    <tag k="addr:housenumber" v="1737" />
    <tag k="addr:street" v="Beaver Meadow Road" />
    <tag k="addr:state" v="VT" />
    <tag k="ref:vcgi:esiteid" v="758596" />
  </node>
  <node id="-624" visible="true" lat="44.09631327" lon="-72.67848095">
    <tag k="addr:city" v="Roxbury" />
    <tag k="addr:housenumber" v="1594" />
    <tag k="addr:street" v="Bull Run Road" />
    <tag k="addr:state" v="VT" />
    <tag k="ref:vcgi:esiteid" v="758651" />
  </node>
  <node id="-625" visible="true" lat="44.03803544" lon="-72.7037078">
    <tag k="addr:city" v="Roxbury" />
    <tag k="addr:housenumber" v="2981" />
    <tag k="addr:street" v="Cram Hill Road" />
    <tag k="addr:state" v="VT" />
    <tag k="ref:vcgi:esiteid" v="758815" />
  </node>
  <node id="-626" visible="true" lat="44.04011698" lon="-72.71012161">
    <tag k="addr:city" v="Roxbury" />
    <tag k="addr:housenumber" v="2679" />
    <tag k="addr:street" v="Cram Hill Road" />
    <tag k="addr:state" v="VT" />
    <tag k="ref:vcgi:esiteid" v="758816" />
  </node>
  <node id="-627" visible="true" lat="44.04095144" lon="-72.71279357">
    <tag k="addr:city" v="Roxbury" />
    <tag k="addr:housenumber" v="2508" />
    <tag k="addr:street" v="Cram Hill Road" />
    <tag k="addr:state" v="VT" />
    <tag k="ref:vcgi:esiteid" v="758817" />
  </node>
  <node id="-628" visible="true" lat="44.06471833" lon="-72.764355">
    <tag k="addr:city" v="Roxbury" />
    <tag k="addr:housenumber" v="37" />
    <tag k="addr:street" v="Raynor Road" />
    <tag k="addr:state" v="VT" />
    <tag k="ref:vcgi:esiteid" v="758818" />
  </node>
  <node id="-629" visible="true" lat="44.03932208" lon="-72.72080415">
    <tag k="addr:city" v="Roxbury" />
    <tag k="addr:housenumber" v="185" />
    <tag k="addr:street" v="Upper Fisher Road" />
    <tag k="addr:state" v="VT" />
    <tag k="ref:vcgi:esiteid" v="758819" />
  </node>
  <node id="-630" visible="true" lat="44.05817151" lon="-72.65551823">
    <tag k="addr:city" v="Roxbury" />
    <tag k="addr:housenumber" v="1595" />
    <tag k="addr:street" v="Steele Hill Road" />
    <tag k="addr:state" v="VT" />
    <tag k="ref:vcgi:esiteid" v="759092" />
  </node>
  <node id="-631" visible="true" lat="44.10637488" lon="-72.7468338">
    <tag k="addr:city" v="Roxbury" />
    <tag k="addr:housenumber" v="115" />
    <tag k="addr:street" v="Dunbars Way" />
    <tag k="addr:state" v="VT" />
    <tag k="ref:vcgi:esiteid" v="760517" />
  </node>
  <node id="-632" visible="true" lat="44.07749765" lon="-72.71109745">
    <tag k="addr:city" v="Roxbury" />
    <tag k="addr:housenumber" v="750" />
    <tag k="addr:street" v="Beaver Meadow Road" />
    <tag k="addr:state" v="VT" />
    <tag k="ref:vcgi:esiteid" v="761009" />
  </node>
  <node id="-633" visible="true" lat="44.07117564" lon="-72.71252014">
    <tag k="addr:city" v="Roxbury" />
    <tag k="addr:housenumber" v="1083" />
    <tag k="addr:street" v="Beaver Meadow Road" />
    <tag k="addr:state" v="VT" />
    <tag k="ref:vcgi:esiteid" v="761010" />
  </node>
  <node id="-634" visible="true" lat="44.10462863" lon="-72.75068043">
    <tag k="addr:city" v="Roxbury" />
    <tag k="addr:housenumber" v="2244" />
    <tag k="addr:street" v="Carrie Howe Road" />
    <tag k="addr:state" v="VT" />
    <tag k="ref:vcgi:esiteid" v="761011" />
  </node>
  <node id="-635" visible="true" lat="44.1151069" lon="-72.7734405">
    <tag k="addr:city" v="Roxbury" />
    <tag k="addr:housenumber" v="2652" />
    <tag k="addr:street" v="Warren Mountain Road" />
    <tag k="addr:state" v="VT" />
    <tag k="ref:vcgi:esiteid" v="761012" />
  </node>
  <node id="-636" visible="true" lat="44.07652655" lon="-72.65162938">
    <tag k="addr:city" v="Roxbury" />
    <tag k="addr:housenumber" v="64" />
    <tag k="addr:street" v="Steele Hill Road" />
    <tag k="addr:state" v="VT" />
    <tag k="ref:vcgi:esiteid" v="761717" />
  </node>
  <node id="-637" visible="true" lat="44.09676403" lon="-72.74285324">
    <tag k="addr:city" v="Roxbury" />
    <tag k="addr:housenumber" v="563" />
    <tag k="addr:street" v="Warren Mountain Road" />
    <tag k="addr:state" v="VT" />
    <tag k="ref:vcgi:esiteid" v="761773" />
  </node>
  <node id="-640" visible="true" lat="44.06540269" lon="-72.74167308">
    <tag k="addr:city" v="Roxbury" />
    <tag k="addr:housenumber" v="3945" />
    <tag k="addr:street" v="Roxbury Road" />
    <tag k="addr:state" v="VT" />
    <tag k="ref:vcgi:esiteid" v="761917" />
  </node>
  <node id="-643" visible="true" lat="44.06382983" lon="-72.74392225">
    <tag k="addr:city" v="Roxbury" />
    <tag k="addr:housenumber" v="3800" />
    <tag k="addr:street" v="Roxbury Road" />
    <tag k="addr:state" v="VT" />
    <tag k="ref:vcgi:esiteid" v="761920" />
  </node>
  <node id="-645" visible="true" lat="44.06327311" lon="-72.74383016">
    <tag k="addr:city" v="Roxbury" />
    <tag k="addr:housenumber" v="3802" />
    <tag k="addr:street" v="Roxbury Road" />
    <tag k="addr:state" v="VT" />
    <tag k="ref:vcgi:esiteid" v="762639" />
  </node>
  <node id="-646" visible="true" lat="44.08480193" lon="-72.67568136">
    <tag k="addr:city" v="Roxbury" />
    <tag k="addr:housenumber" v="264" />
    <tag k="addr:street" v="Winch Hill Extension" />
    <tag k="addr:state" v="VT" />
    <tag k="ref:vcgi:esiteid" v="762807" />
  </node>
  <node id="-647" visible="true" lat="44.08346988" lon="-72.67347681">
    <tag k="addr:city" v="Roxbury" />
    <tag k="addr:housenumber" v="468" />
    <tag k="addr:street" v="Winch Hill Extension" />
    <tag k="addr:state" v="VT" />
    <tag k="ref:vcgi:esiteid" v="762808" />
  </node>
  <node id="-649" visible="true" lat="44.10926787" lon="-72.72616756">
    <tag k="addr:city" v="Roxbury" />
    <tag k="addr:housenumber" v="335" />
    <tag k="addr:street" v="Roxbury Road" />
    <tag k="addr:state" v="VT" />
    <tag k="ref:vcgi:esiteid" v="762849" />
  </node>
  <node id="-650" visible="true" lat="44.07472396" lon="-72.71052911">
    <tag k="addr:city" v="Roxbury" />
    <tag k="addr:housenumber" v="840" />
    <tag k="addr:street" v="Beaver Meadow Road" />
    <tag k="addr:state" v="VT" />
    <tag k="ref:vcgi:esiteid" v="762850" />
  </node>
  <node id="-651" visible="true" lat="44.0880312" lon="-72.67484527">
    <tag k="addr:city" v="Roxbury" />
    <tag k="addr:housenumber" v="70" />
    <tag k="addr:street" v="Winch Hill Extension" />
    <tag k="addr:state" v="VT" />
    <tag k="ref:vcgi:esiteid" v="762851" />
  </node>
  <node id="-652" visible="true" lat="44.05675483" lon="-72.66233828">
    <tag k="addr:city" v="Roxbury" />
    <tag k="addr:housenumber" v="1776" />
    <tag k="addr:street" v="Steele Hill Road" />
    <tag k="addr:state" v="VT" />
    <tag k="ref:vcgi:esiteid" v="762852" />
  </node>
  <node id="-653" visible="true" lat="44.06682612" lon="-72.74512312">
    <tag k="addr:city" v="Roxbury" />
    <tag k="addr:housenumber" v="3530" />
    <tag k="addr:street" v="Roxbury Road" />
    <tag k="addr:state" v="VT" />
    <tag k="ref:vcgi:esiteid" v="762853" />
  </node>
  <node id="-654" visible="true" lat="44.10396963" lon="-72.75212247">
    <tag k="addr:city" v="Roxbury" />
    <tag k="addr:housenumber" v="2155" />
    <tag k="addr:street" v="Carrie Howe Road" />
    <tag k="addr:state" v="VT" />
    <tag k="ref:vcgi:esiteid" v="762854" />
  </node>
  <node id="-655" visible="true" lat="44.07950722" lon="-72.65177433">
    <tag k="addr:city" v="Roxbury" />
    <tag k="addr:housenumber" v="39" />
    <tag k="addr:street" v="Ladd Road" />
    <tag k="addr:state" v="VT" />
    <tag k="ref:vcgi:esiteid" v="762855" />
  </node>
  <node id="-656" visible="true" lat="44.11979635" lon="-72.76709535">
    <tag k="addr:city" v="Roxbury" />
    <tag k="addr:housenumber" v="430" />
    <tag k="addr:street" v="Shaw Road" />
    <tag k="addr:state" v="VT" />
    <tag k="ref:vcgi:esiteid" v="764101" />
  </node>
  <node id="-657" visible="true" lat="44.09222712" lon="-72.73374434">
    <tag k="addr:city" v="Roxbury" />
    <tag k="addr:housenumber" v="1574" />
    <tag k="addr:street" v="Roxbury Road" />
    <tag k="addr:state" v="VT" />
    <tag k="ref:vcgi:esiteid" v="764168" />
  </node>
  <node id="-658" visible="true" lat="44.06478247" lon="-72.74462735">
    <tag k="addr:city" v="Roxbury" />
    <tag k="addr:housenumber" v="3694" />
    <tag k="addr:street" v="Roxbury Road" />
    <tag k="addr:state" v="VT" />
    <tag k="ref:vcgi:esiteid" v="764207" />
  </node>
  <node id="-659" visible="true" lat="44.06302977" lon="-72.74370562">
    <tag k="addr:city" v="Roxbury" />
    <tag k="addr:housenumber" v="3804" />
    <tag k="addr:street" v="Roxbury Road" />
    <tag k="addr:state" v="VT" />
    <tag k="ref:vcgi:esiteid" v="764208" />
  </node>
  <node id="-660" visible="true" lat="44.10893247" lon="-72.74861357">
    <tag k="addr:city" v="Roxbury" />
    <tag k="addr:housenumber" v="228" />
    <tag k="addr:street" v="Northfield Road" />
    <tag k="addr:state" v="VT" />
    <tag k="ref:vcgi:esiteid" v="765184" />
  </node>
  <node id="-661" visible="true" lat="44.03868613" lon="-72.67353202">
    <tag k="addr:city" v="Roxbury" />
    <tag k="addr:housenumber" v="381" />
    <tag k="addr:street" v="Four Mile Wood Road" />
    <tag k="addr:state" v="VT" />
    <tag k="ref:vcgi:esiteid" v="765322" />
  </node>
  <node id="-662" visible="true" lat="44.01455371" lon="-72.68228289">
    <tag k="addr:city" v="Roxbury" />
    <tag k="addr:housenumber" v="498" />
    <tag k="addr:street" v="Bouvant Road" />
    <tag k="addr:state" v="VT" />
    <tag k="ref:vcgi:esiteid" v="765580" />
  </node>
  <node id="-663" visible="true" lat="44.01454859" lon="-72.68265376">
    <tag k="addr:city" v="Roxbury" />
    <tag k="addr:housenumber" v="502" />
    <tag k="addr:street" v="Bouvant Road" />
    <tag k="addr:state" v="VT" />
    <tag k="ref:vcgi:esiteid" v="765581" />
  </node>
  <node id="-664" visible="true" lat="44.08699267" lon="-72.64737819">
    <tag k="addr:city" v="Roxbury" />
    <tag k="addr:housenumber" v="371" />
    <tag k="addr:street" v="East Roxbury Road" />
    <tag k="addr:state" v="VT" />
    <tag k="ref:vcgi:esiteid" v="765907" />
  </node>
  <node id="-666" visible="true" lat="44.03134736" lon="-72.73824404">
    <tag k="addr:city" v="Roxbury" />
    <tag k="addr:housenumber" v="150" />
    <tag k="addr:street" v="Braintree Hill Road" />
    <tag k="addr:state" v="VT" />
    <tag k="ref:vcgi:esiteid" v="765914" />
  </node>
  <node id="-668" visible="true" lat="44.11332975" lon="-72.7708394">
    <tag k="addr:city" v="Roxbury" />
    <tag k="addr:housenumber" v="2433" />
    <tag k="addr:street" v="Warren Mountain Road" />
    <tag k="addr:state" v="VT" />
    <tag k="ref:vcgi:esiteid" v="767235" />
  </node>
  <node id="-669" visible="true" lat="44.09283862" lon="-72.64819508">
    <tag k="addr:city" v="Roxbury" />
    <tag k="addr:housenumber" v="20" />
    <tag k="addr:street" v="East Roxbury Road" />
    <tag k="addr:state" v="VT" />
    <tag k="ref:vcgi:esiteid" v="767650" />
  </node>
  <node id="-670" visible="true" lat="44.07428201" lon="-72.70610251">
    <tag k="addr:city" v="Roxbury" />
    <tag k="addr:housenumber" v="825" />
    <tag k="addr:street" v="Beaver Meadow Road" />
    <tag k="addr:state" v="VT" />
    <tag k="ref:vcgi:esiteid" v="767826" />
  </node>
  <node id="-671" visible="true" lat="44.04154104" lon="-72.74284236">
    <tag k="addr:city" v="Roxbury" />
    <tag k="addr:housenumber" v="5285" />
    <tag k="addr:street" v="Roxbury Road" />
    <tag k="addr:state" v="VT" />
    <tag k="ref:vcgi:esiteid" v="768216" />
  </node>
  <node id="-672" visible="true" lat="44.04176767" lon="-72.74214453">
    <tag k="addr:city" v="Roxbury" />
    <tag k="addr:housenumber" v="5255" />
    <tag k="addr:street" v="Roxbury Road" />
    <tag k="addr:state" v="VT" />
    <tag k="ref:vcgi:esiteid" v="768217" />
  </node>
  <node id="-673" visible="true" lat="44.08132511" lon="-72.66801308">
    <tag k="addr:city" v="Roxbury" />
    <tag k="addr:housenumber" v="1047" />
    <tag k="addr:street" v="Cruickshank Road" />
    <tag k="addr:state" v="VT" />
    <tag k="ref:vcgi:esiteid" v="768610" />
  </node>
  <node id="-675" visible="true" lat="44.09121139" lon="-72.64960684">
    <tag k="addr:city" v="Roxbury" />
    <tag k="addr:housenumber" v="154" />
    <tag k="addr:street" v="East Roxbury Road" />
    <tag k="addr:state" v="VT" />
    <tag k="ref:vcgi:esiteid" v="769732" />
  </node>
  <node id="-676" visible="true" lat="44.11399579" lon="-72.74440308">
    <tag k="addr:city" v="Roxbury" />
    <tag k="addr:housenumber" v="650" />
    <tag k="addr:street" v="Northfield Road" />
    <tag k="addr:state" v="VT" />
    <tag k="ref:vcgi:esiteid" v="770277" />
  </node>
  <node id="-677" visible="true" lat="44.11274697" lon="-72.7412935">
    <tag k="addr:city" v="Roxbury" />
    <tag k="addr:housenumber" v="544" />
    <tag k="addr:street" v="Northfield Road" />
    <tag k="addr:state" v="VT" />
    <tag k="ref:vcgi:esiteid" v="770278" />
  </node>
  <node id="-678" visible="true" lat="44.10578951" lon="-72.7122632">
    <tag k="addr:city" v="Roxbury" />
    <tag k="addr:housenumber" v="1945" />
    <tag k="addr:street" v="Messier Hill Road" />
    <tag k="addr:state" v="VT" />
    <tag k="ref:vcgi:esiteid" v="770977" />
  </node>
  <node id="-679" visible="true" lat="44.09017957" lon="-72.64926486">
    <tag k="addr:city" v="Roxbury" />
    <tag k="addr:housenumber" v="235" />
    <tag k="addr:street" v="East Roxbury Road" />
    <tag k="addr:state" v="VT" />
    <tag k="ref:vcgi:esiteid" v="800122" />
  </node>
</osm>
