<?xml version="1.0" encoding="UTF-8"?>
<osm version="0.6" generator="JOSM">
  <node id="-100" visible="true" lat="43.21598443" lon="-73.24581235">
    <tag k="addr:city" v="Sandgate" />
    <tag k="addr:housenumber" v="900" />
    <tag k="addr:street" v="Chambers Road" />
    <tag k="addr:state" v="VT" />
    <tag k="ref:vcgi:esiteid" v="216944" />
  </node>
  <node id="-101" visible="true" lat="43.21662973" lon="-73.24809973">
    <tag k="addr:city" v="Sandgate" />
    <tag k="addr:housenumber" v="875" />
    <tag k="addr:street" v="Chambers Road" />
    <tag k="addr:state" v="VT" />
    <tag k="ref:vcgi:esiteid" v="216945" />
  </node>
  <node id="-102" visible="true" lat="43.21312208" lon="-73.20620378">
    <tag k="addr:city" v="Sandgate" />
    <tag k="addr:housenumber" v="4548" />
    <tag k="addr:street" v="Rupert Road" />
    <tag k="addr:state" v="VT" />
    <tag k="ref:vcgi:esiteid" v="216946" />
  </node>
  <node id="-103" visible="true" lat="43.21239873" lon="-73.20577621">
    <tag k="addr:city" v="Sandgate" />
    <tag k="addr:housenumber" v="4498" />
    <tag k="addr:street" v="Rupert Road" />
    <tag k="addr:state" v="VT" />
    <tag k="ref:vcgi:esiteid" v="216947" />
  </node>
  <node id="-104" visible="true" lat="43.21049499" lon="-73.20315551">
    <tag k="addr:city" v="Sandgate" />
    <tag k="addr:housenumber" v="4304" />
    <tag k="addr:street" v="Rupert Road" />
    <tag k="addr:state" v="VT" />
    <tag k="ref:vcgi:esiteid" v="216948" />
  </node>
  <node id="-105" visible="true" lat="43.21050358" lon="-73.18954734">
    <tag k="addr:city" v="Sandgate" />
    <tag k="addr:housenumber" v="643" />
    <tag k="addr:street" v="Snow Road" />
    <tag k="addr:state" v="VT" />
    <tag k="ref:vcgi:esiteid" v="216949" />
  </node>
  <node id="-106" visible="true" lat="43.20981606" lon="-73.2023277">
    <tag k="addr:city" v="Sandgate" />
    <tag k="addr:housenumber" v="4244" />
    <tag k="addr:street" v="Rupert Road" />
    <tag k="addr:state" v="VT" />
    <tag k="ref:vcgi:esiteid" v="216950" />
  </node>
  <node id="-107" visible="true" lat="43.20892905" lon="-73.25729069">
    <tag k="addr:city" v="Sandgate" />
    <tag k="addr:housenumber" v="525" />
    <tag k="addr:street" v="Chambers Road" />
    <tag k="addr:state" v="VT" />
    <tag k="ref:vcgi:esiteid" v="216951" />
  </node>
  <node id="-108" visible="true" lat="43.20815017" lon="-73.1975585">
    <tag k="addr:city" v="Sandgate" />
    <tag k="addr:housenumber" v="3854" />
    <tag k="addr:street" v="Rupert Road" />
    <tag k="addr:state" v="VT" />
    <tag k="ref:vcgi:esiteid" v="216953" />
  </node>
  <node id="-109" visible="true" lat="43.2053" lon="-73.19089766">
    <tag k="addr:city" v="Sandgate" />
    <tag k="addr:housenumber" v="326" />
    <tag k="addr:street" v="Snow Road" />
    <tag k="addr:state" v="VT" />
    <tag k="ref:vcgi:esiteid" v="216954" />
  </node>
  <node id="-110" visible="true" lat="43.20432358" lon="-73.19700911">
    <tag k="addr:city" v="Sandgate" />
    <tag k="addr:housenumber" v="3761" />
    <tag k="addr:street" v="Rupert Road" />
    <tag k="addr:state" v="VT" />
    <tag k="ref:vcgi:esiteid" v="216955" />
  </node>
  <node id="-111" visible="true" lat="43.20375402" lon="-73.19527255">
    <tag k="addr:city" v="Sandgate" />
    <tag k="addr:housenumber" v="3646" />
    <tag k="addr:street" v="Rupert Road" />
    <tag k="addr:state" v="VT" />
    <tag k="ref:vcgi:esiteid" v="216956" />
  </node>
  <node id="-112" visible="true" lat="43.2024134" lon="-73.19591625">
    <tag k="addr:city" v="Sandgate" />
    <tag k="addr:housenumber" v="3603" />
    <tag k="addr:street" v="Rupert Road" />
    <tag k="addr:state" v="VT" />
    <tag k="ref:vcgi:esiteid" v="216957" />
  </node>
  <node id="-113" visible="true" lat="43.20138919" lon="-73.19533141">
    <tag k="addr:city" v="Sandgate" />
    <tag k="addr:housenumber" v="3507" />
    <tag k="addr:street" v="Rupert Road" />
    <tag k="addr:state" v="VT" />
    <tag k="ref:vcgi:esiteid" v="216958" />
  </node>
  <node id="-114" visible="true" lat="43.20138076" lon="-73.19492495">
    <tag k="addr:city" v="Sandgate" />
    <tag k="addr:housenumber" v="3510" />
    <tag k="addr:street" v="Rupert Road" />
    <tag k="addr:state" v="VT" />
    <tag k="ref:vcgi:esiteid" v="216959" />
  </node>
  <node id="-115" visible="true" lat="43.20071964" lon="-73.19503561">
    <tag k="addr:city" v="Sandgate" />
    <tag k="addr:housenumber" v="3484" />
    <tag k="addr:street" v="Rupert Road" />
    <tag k="addr:state" v="VT" />
    <tag k="ref:vcgi:esiteid" v="216960" />
  </node>
  <node id="-116" visible="true" lat="43.20031196" lon="-73.19707636">
    <tag k="addr:city" v="Sandgate" />
    <tag k="addr:housenumber" v="3427" />
    <tag k="addr:street" v="Rupert Road" />
    <tag k="addr:state" v="VT" />
    <tag k="ref:vcgi:esiteid" v="216961" />
  </node>
  <node id="-117" visible="true" lat="43.19611382" lon="-73.20372484">
    <tag k="addr:city" v="Sandgate" />
    <tag k="addr:housenumber" v="3117" />
    <tag k="addr:street" v="Rupert Road" />
    <tag k="addr:state" v="VT" />
    <tag k="ref:vcgi:esiteid" v="216962" />
  </node>
  <node id="-118" visible="true" lat="43.1971678" lon="-73.20001198">
    <tag k="addr:city" v="Sandgate" />
    <tag k="addr:housenumber" v="3122" />
    <tag k="addr:street" v="Rupert Road" />
    <tag k="addr:state" v="VT" />
    <tag k="ref:vcgi:esiteid" v="216963" />
  </node>
  <node id="-119" visible="true" lat="43.19422054" lon="-73.20335435">
    <tag k="addr:city" v="Sandgate" />
    <tag k="addr:housenumber" v="2865" />
    <tag k="addr:street" v="Rupert Road" />
    <tag k="addr:state" v="VT" />
    <tag k="ref:vcgi:esiteid" v="216964" />
  </node>
  <node id="-120" visible="true" lat="43.19327513" lon="-73.2038547">
    <tag k="addr:city" v="Sandgate" />
    <tag k="addr:housenumber" v="2793" />
    <tag k="addr:street" v="Rupert Road" />
    <tag k="addr:state" v="VT" />
    <tag k="ref:vcgi:esiteid" v="216965" />
  </node>
  <node id="-121" visible="true" lat="43.1916175" lon="-73.20377601">
    <tag k="addr:city" v="Sandgate" />
    <tag k="addr:housenumber" v="2650" />
    <tag k="addr:street" v="Rupert Road" />
    <tag k="addr:state" v="VT" />
    <tag k="ref:vcgi:esiteid" v="216966" />
  </node>
  <node id="-122" visible="true" lat="43.19139913" lon="-73.20511904">
    <tag k="addr:city" v="Sandgate" />
    <tag k="addr:housenumber" v="2591" />
    <tag k="addr:street" v="Rupert Road" />
    <tag k="addr:state" v="VT" />
    <tag k="ref:vcgi:esiteid" v="216967" />
  </node>
  <node id="-123" visible="true" lat="43.19104202" lon="-73.20464313">
    <tag k="addr:city" v="Sandgate" />
    <tag k="addr:housenumber" v="2566" />
    <tag k="addr:street" v="Rupert Road" />
    <tag k="addr:state" v="VT" />
    <tag k="ref:vcgi:esiteid" v="216968" />
  </node>
  <node id="-124" visible="true" lat="43.19054508" lon="-73.13281774">
    <tag k="addr:city" v="Sandgate" />
    <tag k="addr:housenumber" v="98" />
    <tag k="addr:street" v="Woodsgift Lane" />
    <tag k="addr:state" v="VT" />
    <tag k="ref:vcgi:esiteid" v="216969" />
  </node>
  <node id="-125" visible="true" lat="43.19028888" lon="-73.13358185">
    <tag k="addr:city" v="Sandgate" />
    <tag k="addr:housenumber" v="97" />
    <tag k="addr:street" v="Woodsgift Lane" />
    <tag k="addr:state" v="VT" />
    <tag k="ref:vcgi:esiteid" v="216970" />
  </node>
  <node id="-126" visible="true" lat="43.18891835" lon="-73.13427244">
    <tag k="addr:city" v="Sandgate" />
    <tag k="addr:housenumber" v="7821" />
    <tag k="addr:street" v="Sandgate Road" />
    <tag k="addr:state" v="VT" />
    <tag k="ref:vcgi:esiteid" v="216971" />
  </node>
  <node id="-127" visible="true" lat="43.18876979" lon="-73.13476063">
    <tag k="addr:city" v="Sandgate" />
    <tag k="addr:housenumber" v="7797" />
    <tag k="addr:street" v="Sandgate Road" />
    <tag k="addr:state" v="VT" />
    <tag k="ref:vcgi:esiteid" v="216972" />
  </node>
  <node id="-128" visible="true" lat="43.18876741" lon="-73.13558985">
    <tag k="addr:city" v="Sandgate" />
    <tag k="addr:housenumber" v="7757" />
    <tag k="addr:street" v="Sandgate Road" />
    <tag k="addr:state" v="VT" />
    <tag k="ref:vcgi:esiteid" v="216973" />
  </node>
  <node id="-129" visible="true" lat="43.18849848" lon="-73.13602069">
    <tag k="addr:city" v="Sandgate" />
    <tag k="addr:housenumber" v="7723" />
    <tag k="addr:street" v="Sandgate Road" />
    <tag k="addr:state" v="VT" />
    <tag k="ref:vcgi:esiteid" v="216974" />
  </node>
  <node id="-130" visible="true" lat="43.18846072" lon="-73.13331476">
    <tag k="addr:city" v="Sandgate" />
    <tag k="addr:housenumber" v="7852" />
    <tag k="addr:street" v="Sandgate Road" />
    <tag k="addr:state" v="VT" />
    <tag k="ref:vcgi:esiteid" v="216975" />
  </node>
  <node id="-131" visible="true" lat="43.18803699" lon="-73.13711226">
    <tag k="addr:city" v="Sandgate" />
    <tag k="addr:housenumber" v="7667" />
    <tag k="addr:street" v="Sandgate Road" />
    <tag k="addr:state" v="VT" />
    <tag k="ref:vcgi:esiteid" v="216976" />
  </node>
  <node id="-132" visible="true" lat="43.18793324" lon="-73.13598927">
    <tag k="addr:city" v="Sandgate" />
    <tag k="addr:housenumber" v="7712" />
    <tag k="addr:street" v="Sandgate Road" />
    <tag k="addr:state" v="VT" />
    <tag k="ref:vcgi:esiteid" v="216977" />
  </node>
  <node id="-133" visible="true" lat="43.1874494" lon="-73.20918191">
    <tag k="addr:city" v="Sandgate" />
    <tag k="addr:housenumber" v="2331" />
    <tag k="addr:street" v="Rupert Road" />
    <tag k="addr:state" v="VT" />
    <tag k="ref:vcgi:esiteid" v="216978" />
  </node>
  <node id="-134" visible="true" lat="43.18743339" lon="-73.13900911">
    <tag k="addr:city" v="Sandgate" />
    <tag k="addr:housenumber" v="7561" />
    <tag k="addr:street" v="Sandgate Road" />
    <tag k="addr:state" v="VT" />
    <tag k="ref:vcgi:esiteid" v="216979" />
  </node>
  <node id="-135" visible="true" lat="43.18731159" lon="-73.13733162">
    <tag k="addr:city" v="Sandgate" />
    <tag k="addr:housenumber" v="7650" />
    <tag k="addr:street" v="Sandgate Road" />
    <tag k="addr:state" v="VT" />
    <tag k="ref:vcgi:esiteid" v="216980" />
  </node>
  <node id="-136" visible="true" lat="43.18664853" lon="-73.13947742">
    <tag k="addr:city" v="Sandgate" />
    <tag k="addr:housenumber" v="7530" />
    <tag k="addr:street" v="Sandgate Road" />
    <tag k="addr:state" v="VT" />
    <tag k="ref:vcgi:esiteid" v="216981" />
  </node>
  <node id="-137" visible="true" lat="43.18662383" lon="-73.14006083">
    <tag k="addr:city" v="Sandgate" />
    <tag k="addr:housenumber" v="7492" />
    <tag k="addr:street" v="Sandgate Road" />
    <tag k="addr:state" v="VT" />
    <tag k="ref:vcgi:esiteid" v="216982" />
  </node>
  <node id="-138" visible="true" lat="43.18467361" lon="-73.14031103">
    <tag k="addr:city" v="Sandgate" />
    <tag k="addr:housenumber" v="7448" />
    <tag k="addr:street" v="Sandgate Road" />
    <tag k="addr:state" v="VT" />
    <tag k="ref:vcgi:esiteid" v="216983" />
  </node>
  <node id="-139" visible="true" lat="43.18114477" lon="-73.21201711">
    <tag k="addr:city" v="Sandgate" />
    <tag k="addr:housenumber" v="1782" />
    <tag k="addr:street" v="Rupert Road" />
    <tag k="addr:state" v="VT" />
    <tag k="ref:vcgi:esiteid" v="216984" />
  </node>
  <node id="-140" visible="true" lat="43.17958626" lon="-73.21213398">
    <tag k="addr:city" v="Sandgate" />
    <tag k="addr:housenumber" v="1662" />
    <tag k="addr:street" v="Rupert Road" />
    <tag k="addr:state" v="VT" />
    <tag k="ref:vcgi:esiteid" v="216985" />
  </node>
  <node id="-141" visible="true" lat="43.17931137" lon="-73.21324354">
    <tag k="addr:city" v="Sandgate" />
    <tag k="addr:housenumber" v="1651" />
    <tag k="addr:street" v="Rupert Road" />
    <tag k="addr:state" v="VT" />
    <tag k="ref:vcgi:esiteid" v="216986" />
  </node>
  <node id="-142" visible="true" lat="43.17941882" lon="-73.18016541">
    <tag k="addr:city" v="Sandgate" />
    <tag k="addr:housenumber" v="902" />
    <tag k="addr:street" v="Wuerslin Road" />
    <tag k="addr:state" v="VT" />
    <tag k="ref:vcgi:esiteid" v="216987" />
  </node>
  <node id="-143" visible="true" lat="43.17928834" lon="-73.18052306">
    <tag k="addr:city" v="Sandgate" />
    <tag k="addr:housenumber" v="903" />
    <tag k="addr:street" v="Wuerslin Road" />
    <tag k="addr:state" v="VT" />
    <tag k="ref:vcgi:esiteid" v="216988" />
  </node>
  <node id="-144" visible="true" lat="43.17866136" lon="-73.22252169">
    <tag k="addr:city" v="Sandgate" />
    <tag k="addr:housenumber" v="1285" />
    <tag k="addr:street" v="West Road" />
    <tag k="addr:state" v="VT" />
    <tag k="ref:vcgi:esiteid" v="216989" />
  </node>
  <node id="-145" visible="true" lat="43.17710073" lon="-73.21411173">
    <tag k="addr:city" v="Sandgate" />
    <tag k="addr:housenumber" v="1615" />
    <tag k="addr:street" v="Rupert Road" />
    <tag k="addr:state" v="VT" />
    <tag k="ref:vcgi:esiteid" v="216990" />
  </node>
  <node id="-146" visible="true" lat="43.17722929" lon="-73.15400554">
    <tag k="addr:city" v="Sandgate" />
    <tag k="addr:housenumber" v="5110" />
    <tag k="addr:street" v="Sandgate Road" />
    <tag k="addr:state" v="VT" />
    <tag k="ref:vcgi:esiteid" v="216991" />
  </node>
  <node id="-147" visible="true" lat="43.1786769" lon="-73.17988982">
    <tag k="addr:city" v="Sandgate" />
    <tag k="addr:housenumber" v="835" />
    <tag k="addr:street" v="Wuerslin Road" />
    <tag k="addr:state" v="VT" />
    <tag k="ref:vcgi:esiteid" v="216992" />
  </node>
  <node id="-148" visible="true" lat="43.17751221" lon="-73.15245697">
    <tag k="addr:city" v="Sandgate" />
    <tag k="addr:housenumber" v="6384" />
    <tag k="addr:street" v="Sandgate Road" />
    <tag k="addr:state" v="VT" />
    <tag k="ref:vcgi:esiteid" v="216993" />
  </node>
  <node id="-149" visible="true" lat="43.17752943" lon="-73.153626">
    <tag k="addr:city" v="Sandgate" />
    <tag k="addr:housenumber" v="5112" />
    <tag k="addr:street" v="Sandgate Road" />
    <tag k="addr:state" v="VT" />
    <tag k="ref:vcgi:esiteid" v="216995" />
  </node>
  <node id="-150" visible="true" lat="43.17604491" lon="-73.16262881">
    <tag k="addr:city" v="Sandgate" />
    <tag k="addr:housenumber" v="6233" />
    <tag k="addr:street" v="Sandgate Road" />
    <tag k="addr:state" v="VT" />
    <tag k="ref:vcgi:esiteid" v="216996" />
  </node>
  <node id="-151" visible="true" lat="43.17594528" lon="-73.16365814">
    <tag k="addr:city" v="Sandgate" />
    <tag k="addr:housenumber" v="5967" />
    <tag k="addr:street" v="Sandgate Road" />
    <tag k="addr:state" v="VT" />
    <tag k="ref:vcgi:esiteid" v="216997" />
  </node>
  <node id="-152" visible="true" lat="43.17597898" lon="-73.15884416">
    <tag k="addr:city" v="Sandgate" />
    <tag k="addr:housenumber" v="6192" />
    <tag k="addr:street" v="Sandgate Road" />
    <tag k="addr:state" v="VT" />
    <tag k="ref:vcgi:esiteid" v="216998" />
  </node>
  <node id="-153" visible="true" lat="43.1754004" lon="-73.22430733">
    <tag k="addr:city" v="Sandgate" />
    <tag k="addr:housenumber" v="996" />
    <tag k="addr:street" v="West Road" />
    <tag k="addr:state" v="VT" />
    <tag k="ref:vcgi:esiteid" v="216999" />
  </node>
  <node id="-154" visible="true" lat="43.17526488" lon="-73.17576101">
    <tag k="addr:city" v="Sandgate" />
    <tag k="addr:housenumber" v="507" />
    <tag k="addr:street" v="Wuerslin Road" />
    <tag k="addr:state" v="VT" />
    <tag k="ref:vcgi:esiteid" v="217000" />
  </node>
  <node id="-155" visible="true" lat="43.17459763" lon="-73.2397266">
    <tag k="addr:city" v="Sandgate" />
    <tag k="addr:housenumber" v="626" />
    <tag k="addr:street" v="Lincoln Lane" />
    <tag k="addr:state" v="VT" />
    <tag k="ref:vcgi:esiteid" v="217001" />
  </node>
  <node id="-156" visible="true" lat="43.17489007" lon="-73.16521566">
    <tag k="addr:city" v="Sandgate" />
    <tag k="addr:housenumber" v="5835" />
    <tag k="addr:street" v="Sandgate Road" />
    <tag k="addr:state" v="VT" />
    <tag k="ref:vcgi:esiteid" v="217002" />
  </node>
  <node id="-157" visible="true" lat="43.17455404" lon="-73.16581701">
    <tag k="addr:city" v="Sandgate" />
    <tag k="addr:housenumber" v="5833" />
    <tag k="addr:street" v="Sandgate Road" />
    <tag k="addr:state" v="VT" />
    <tag k="ref:vcgi:esiteid" v="217003" />
  </node>
  <node id="-158" visible="true" lat="43.17239236" lon="-73.22727325">
    <tag k="addr:city" v="Sandgate" />
    <tag k="addr:housenumber" v="711" />
    <tag k="addr:street" v="West Road" />
    <tag k="addr:state" v="VT" />
    <tag k="ref:vcgi:esiteid" v="217004" />
  </node>
  <node id="-159" visible="true" lat="43.17277105" lon="-73.16757018">
    <tag k="addr:city" v="Sandgate" />
    <tag k="addr:housenumber" v="5677" />
    <tag k="addr:street" v="Sandgate Road" />
    <tag k="addr:state" v="VT" />
    <tag k="ref:vcgi:esiteid" v="217005" />
  </node>
  <node id="-160" visible="true" lat="43.175502" lon="-73.24179459">
    <tag k="addr:city" v="Sandgate" />
    <tag k="addr:housenumber" v="636" />
    <tag k="addr:street" v="Lincoln Lane" />
    <tag k="addr:state" v="VT" />
    <tag k="ref:vcgi:esiteid" v="217007" />
  </node>
  <node id="-161" visible="true" lat="43.17180736" lon="-73.244697">
    <tag k="addr:city" v="Sandgate" />
    <tag k="addr:housenumber" v="679" />
    <tag k="addr:street" v="Lincoln Lane" />
    <tag k="addr:state" v="VT" />
    <tag k="ref:vcgi:esiteid" v="217008" />
  </node>
  <node id="-162" visible="true" lat="43.17175293" lon="-73.22710418">
    <tag k="addr:city" v="Sandgate" />
    <tag k="addr:housenumber" v="652" />
    <tag k="addr:street" v="West Road" />
    <tag k="addr:state" v="VT" />
    <tag k="ref:vcgi:esiteid" v="217009" />
  </node>
  <node id="-163" visible="true" lat="43.17188824" lon="-73.16754506">
    <tag k="addr:city" v="Sandgate" />
    <tag k="addr:housenumber" v="5662" />
    <tag k="addr:street" v="Sandgate Road" />
    <tag k="addr:state" v="VT" />
    <tag k="ref:vcgi:esiteid" v="217010" />
  </node>
  <node id="-164" visible="true" lat="43.17169127" lon="-73.21274087">
    <tag k="addr:city" v="Sandgate" />
    <tag k="addr:housenumber" v="1064" />
    <tag k="addr:street" v="Rupert Road" />
    <tag k="addr:state" v="VT" />
    <tag k="ref:vcgi:esiteid" v="217011" />
  </node>
  <node id="-165" visible="true" lat="43.17132042" lon="-73.16823714">
    <tag k="addr:city" v="Sandgate" />
    <tag k="addr:housenumber" v="5604" />
    <tag k="addr:street" v="Sandgate Road" />
    <tag k="addr:state" v="VT" />
    <tag k="ref:vcgi:esiteid" v="217012" />
  </node>
  <node id="-166" visible="true" lat="43.17089173" lon="-73.21635886">
    <tag k="addr:city" v="Sandgate" />
    <tag k="addr:housenumber" v="1020" />
    <tag k="addr:street" v="Rupert Road" />
    <tag k="addr:state" v="VT" />
    <tag k="ref:vcgi:esiteid" v="217013" />
  </node>
  <node id="-167" visible="true" lat="43.17090027" lon="-73.16839287">
    <tag k="addr:city" v="Sandgate" />
    <tag k="addr:housenumber" v="5584" />
    <tag k="addr:street" v="Sandgate Road" />
    <tag k="addr:state" v="VT" />
    <tag k="ref:vcgi:esiteid" v="217014" />
  </node>
  <node id="-168" visible="true" lat="43.17162668" lon="-73.23080531">
    <tag k="addr:city" v="Sandgate" />
    <tag k="addr:housenumber" v="581" />
    <tag k="addr:street" v="West Road" />
    <tag k="addr:state" v="VT" />
    <tag k="ref:vcgi:esiteid" v="217015" />
  </node>
  <node id="-169" visible="true" lat="43.17040284" lon="-73.16894157">
    <tag k="addr:city" v="Sandgate" />
    <tag k="addr:housenumber" v="5536" />
    <tag k="addr:street" v="Sandgate Road" />
    <tag k="addr:state" v="VT" />
    <tag k="ref:vcgi:esiteid" v="217016" />
  </node>
  <node id="-170" visible="true" lat="43.16743496" lon="-73.21413543">
    <tag k="addr:city" v="Sandgate" />
    <tag k="addr:housenumber" v="950" />
    <tag k="addr:street" v="Rupert Road" />
    <tag k="addr:state" v="VT" />
    <tag k="ref:vcgi:esiteid" v="217017" />
  </node>
  <node id="-171" visible="true" lat="43.16995596" lon="-73.16920904">
    <tag k="addr:city" v="Sandgate" />
    <tag k="addr:housenumber" v="5494" />
    <tag k="addr:street" v="Sandgate Road" />
    <tag k="addr:state" v="VT" />
    <tag k="ref:vcgi:esiteid" v="217018" />
  </node>
  <node id="-172" visible="true" lat="43.16999549" lon="-73.16966051">
    <tag k="addr:city" v="Sandgate" />
    <tag k="addr:housenumber" v="5481" />
    <tag k="addr:street" v="Sandgate Road" />
    <tag k="addr:state" v="VT" />
    <tag k="ref:vcgi:esiteid" v="217019" />
  </node>
  <node id="-173" visible="true" lat="43.16970266" lon="-73.22979447">
    <tag k="addr:city" v="Sandgate" />
    <tag k="addr:housenumber" v="493" />
    <tag k="addr:street" v="West Road" />
    <tag k="addr:state" v="VT" />
    <tag k="ref:vcgi:esiteid" v="217020" />
  </node>
  <node id="-174" visible="true" lat="43.16900419" lon="-73.1896876">
    <tag k="addr:city" v="Sandgate" />
    <tag k="addr:housenumber" v="635" />
    <tag k="addr:street" v="Wilcox Hollow Road" />
    <tag k="addr:state" v="VT" />
    <tag k="ref:vcgi:esiteid" v="217021" />
  </node>
  <node id="-175" visible="true" lat="43.16835515" lon="-73.22937945">
    <tag k="addr:city" v="Sandgate" />
    <tag k="addr:housenumber" v="420" />
    <tag k="addr:street" v="West Road" />
    <tag k="addr:state" v="VT" />
    <tag k="ref:vcgi:esiteid" v="217022" />
  </node>
  <node id="-176" visible="true" lat="43.1683725" lon="-73.17106275">
    <tag k="addr:city" v="Sandgate" />
    <tag k="addr:housenumber" v="5353" />
    <tag k="addr:street" v="Sandgate Road" />
    <tag k="addr:state" v="VT" />
    <tag k="ref:vcgi:esiteid" v="217023" />
  </node>
  <node id="-177" visible="true" lat="43.16793683" lon="-73.25727901">
    <tag k="addr:city" v="Sandgate" />
    <tag k="addr:housenumber" v="613" />
    <tag k="addr:street" v="Campbell Road" />
    <tag k="addr:state" v="VT" />
    <tag k="ref:vcgi:esiteid" v="217024" />
  </node>
  <node id="-178" visible="true" lat="43.16756371" lon="-73.18256246">
    <tag k="addr:city" v="Sandgate" />
    <tag k="addr:housenumber" v="546" />
    <tag k="addr:street" v="Wilcox Hollow Road" />
    <tag k="addr:state" v="VT" />
    <tag k="ref:vcgi:esiteid" v="217025" />
  </node>
  <node id="-179" visible="true" lat="43.16698559" lon="-73.25781836">
    <tag k="addr:city" v="Sandgate" />
    <tag k="addr:housenumber" v="615" />
    <tag k="addr:street" v="Campbell Road" />
    <tag k="addr:state" v="VT" />
    <tag k="ref:vcgi:esiteid" v="217026" />
  </node>
  <node id="-180" visible="true" lat="43.16680597" lon="-73.24518979">
    <tag k="addr:city" v="Sandgate" />
    <tag k="addr:housenumber" v="289" />
    <tag k="addr:street" v="Lincoln Lane" />
    <tag k="addr:state" v="VT" />
    <tag k="ref:vcgi:esiteid" v="217027" />
  </node>
  <node id="-181" visible="true" lat="43.16630566" lon="-73.17363713">
    <tag k="addr:city" v="Sandgate" />
    <tag k="addr:housenumber" v="5163" />
    <tag k="addr:street" v="Sandgate Road" />
    <tag k="addr:state" v="VT" />
    <tag k="ref:vcgi:esiteid" v="217028" />
  </node>
  <node id="-182" visible="true" lat="43.16551893" lon="-73.259212">
    <tag k="addr:city" v="Sandgate" />
    <tag k="addr:housenumber" v="307" />
    <tag k="addr:street" v="Gilberts Road" />
    <tag k="addr:state" v="VT" />
    <tag k="ref:vcgi:esiteid" v="217029" />
  </node>
  <node id="-183" visible="true" lat="43.16560278" lon="-73.23124598">
    <tag k="addr:city" v="Sandgate" />
    <tag k="addr:housenumber" v="207" />
    <tag k="addr:street" v="West Road" />
    <tag k="addr:state" v="VT" />
    <tag k="ref:vcgi:esiteid" v="217030" />
  </node>
  <node id="-184" visible="true" lat="43.16559805" lon="-73.22594966">
    <tag k="addr:city" v="Sandgate" />
    <tag k="addr:housenumber" v="300" />
    <tag k="addr:street" v="Sophies Way" />
    <tag k="addr:state" v="VT" />
    <tag k="ref:vcgi:esiteid" v="217031" />
  </node>
  <node id="-185" visible="true" lat="43.16512297" lon="-73.23078548">
    <tag k="addr:city" v="Sandgate" />
    <tag k="addr:housenumber" v="33" />
    <tag k="addr:street" v="Sophies Way" />
    <tag k="addr:state" v="VT" />
    <tag k="ref:vcgi:esiteid" v="217032" />
  </node>
  <node id="-186" visible="true" lat="43.16491118" lon="-73.22657841">
    <tag k="addr:city" v="Sandgate" />
    <tag k="addr:housenumber" v="238" />
    <tag k="addr:street" v="Sophies Way" />
    <tag k="addr:state" v="VT" />
    <tag k="ref:vcgi:esiteid" v="217033" />
  </node>
  <node id="-187" visible="true" lat="43.16529636" lon="-73.24927115">
    <tag k="addr:city" v="Sandgate" />
    <tag k="addr:housenumber" v="250" />
    <tag k="addr:street" v="Erthein Drive" />
    <tag k="addr:state" v="VT" />
    <tag k="ref:vcgi:esiteid" v="217034" />
  </node>
  <node id="-188" visible="true" lat="43.16437142" lon="-73.23193327">
    <tag k="addr:city" v="Sandgate" />
    <tag k="addr:housenumber" v="143" />
    <tag k="addr:street" v="West Road" />
    <tag k="addr:state" v="VT" />
    <tag k="ref:vcgi:esiteid" v="217035" />
  </node>
  <node id="-189" visible="true" lat="43.16419436" lon="-73.25783164">
    <tag k="addr:city" v="Sandgate" />
    <tag k="addr:housenumber" v="26" />
    <tag k="addr:street" v="Gilberts Road" />
    <tag k="addr:state" v="VT" />
    <tag k="ref:vcgi:esiteid" v="217036" />
  </node>
  <node id="-190" visible="true" lat="43.1647495" lon="-73.17589742">
    <tag k="addr:city" v="Sandgate" />
    <tag k="addr:housenumber" v="4995" />
    <tag k="addr:street" v="Sandgate Road" />
    <tag k="addr:state" v="VT" />
    <tag k="ref:vcgi:esiteid" v="217037" />
  </node>
  <node id="-191" visible="true" lat="43.16439056" lon="-73.22844696">
    <tag k="addr:city" v="Sandgate" />
    <tag k="addr:housenumber" v="150" />
    <tag k="addr:street" v="Sophies Way" />
    <tag k="addr:state" v="VT" />
    <tag k="ref:vcgi:esiteid" v="217038" />
  </node>
  <node id="-192" visible="true" lat="43.16427141" lon="-73.2313834">
    <tag k="addr:city" v="Sandgate" />
    <tag k="addr:housenumber" v="120" />
    <tag k="addr:street" v="West Road" />
    <tag k="addr:state" v="VT" />
    <tag k="ref:vcgi:esiteid" v="217039" />
  </node>
  <node id="-193" visible="true" lat="43.16412847" lon="-73.25358274">
    <tag k="addr:city" v="Sandgate" />
    <tag k="addr:housenumber" v="283" />
    <tag k="addr:street" v="Erthein Drive" />
    <tag k="addr:state" v="VT" />
    <tag k="ref:vcgi:esiteid" v="217040" />
  </node>
  <node id="-194" visible="true" lat="43.16405487" lon="-73.25054168">
    <tag k="addr:city" v="Sandgate" />
    <tag k="addr:housenumber" v="248" />
    <tag k="addr:street" v="Erthein Drive" />
    <tag k="addr:state" v="VT" />
    <tag k="ref:vcgi:esiteid" v="217041" />
  </node>
  <node id="-195" visible="true" lat="43.1640045" lon="-73.23035947">
    <tag k="addr:city" v="Sandgate" />
    <tag k="addr:housenumber" v="70" />
    <tag k="addr:street" v="Sophies Way" />
    <tag k="addr:state" v="VT" />
    <tag k="ref:vcgi:esiteid" v="217042" />
  </node>
  <node id="-196" visible="true" lat="43.16394244" lon="-73.25946654">
    <tag k="addr:city" v="Sandgate" />
    <tag k="addr:housenumber" v="189" />
    <tag k="addr:street" v="Gilberts Road" />
    <tag k="addr:state" v="VT" />
    <tag k="ref:vcgi:esiteid" v="217043" />
  </node>
  <node id="-197" visible="true" lat="43.16405796" lon="-73.2418505">
    <tag k="addr:city" v="Sandgate" />
    <tag k="addr:housenumber" v="2654" />
    <tag k="addr:street" v="West Sandgate Road" />
    <tag k="addr:state" v="VT" />
    <tag k="ref:vcgi:esiteid" v="217044" />
  </node>
  <node id="-198" visible="true" lat="43.16405084" lon="-73.17592183">
    <tag k="addr:city" v="Sandgate" />
    <tag k="addr:housenumber" v="4966" />
    <tag k="addr:street" v="Sandgate Road" />
    <tag k="addr:state" v="VT" />
    <tag k="ref:vcgi:esiteid" v="217045" />
  </node>
  <node id="-199" visible="true" lat="43.16391956" lon="-73.23235229">
    <tag k="addr:city" v="Sandgate" />
    <tag k="addr:housenumber" v="93" />
    <tag k="addr:street" v="West Road" />
    <tag k="addr:state" v="VT" />
    <tag k="ref:vcgi:esiteid" v="217046" />
  </node>
  <node id="-200" visible="true" lat="43.16366195" lon="-73.25962829">
    <tag k="addr:city" v="Sandgate" />
    <tag k="addr:housenumber" v="191" />
    <tag k="addr:street" v="Gilberts Road" />
    <tag k="addr:state" v="VT" />
    <tag k="ref:vcgi:esiteid" v="217047" />
  </node>
  <node id="-201" visible="true" lat="43.16365923" lon="-73.25171397">
    <tag k="addr:city" v="Sandgate" />
    <tag k="addr:housenumber" v="226" />
    <tag k="addr:street" v="Erthein Drive" />
    <tag k="addr:state" v="VT" />
    <tag k="ref:vcgi:esiteid" v="217048" />
  </node>
  <node id="-202" visible="true" lat="43.1635345" lon="-73.25731728">
    <tag k="addr:city" v="Sandgate" />
    <tag k="addr:housenumber" v="299" />
    <tag k="addr:street" v="Campbell Road" />
    <tag k="addr:state" v="VT" />
    <tag k="ref:vcgi:esiteid" v="217049" />
  </node>
  <node id="-203" visible="true" lat="43.16378931" lon="-73.23153523">
    <tag k="addr:city" v="Sandgate" />
    <tag k="addr:housenumber" v="82" />
    <tag k="addr:street" v="West Road" />
    <tag k="addr:state" v="VT" />
    <tag k="ref:vcgi:esiteid" v="217050" />
  </node>
  <node id="-204" visible="true" lat="43.16330999" lon="-73.23288394">
    <tag k="addr:city" v="Sandgate" />
    <tag k="addr:housenumber" v="19" />
    <tag k="addr:street" v="West Road" />
    <tag k="addr:state" v="VT" />
    <tag k="ref:vcgi:esiteid" v="217051" />
  </node>
  <node id="-205" visible="true" lat="43.1633129" lon="-73.24340452">
    <tag k="addr:city" v="Sandgate" />
    <tag k="addr:housenumber" v="2712" />
    <tag k="addr:street" v="West Sandgate Road" />
    <tag k="addr:state" v="VT" />
    <tag k="ref:vcgi:esiteid" v="217052" />
  </node>
  <node id="-206" visible="true" lat="43.16330554" lon="-73.23455797">
    <tag k="addr:city" v="Sandgate" />
    <tag k="addr:housenumber" v="2226" />
    <tag k="addr:street" v="West Sandgate Road" />
    <tag k="addr:state" v="VT" />
    <tag k="ref:vcgi:esiteid" v="217053" />
  </node>
  <node id="-207" visible="true" lat="43.16289954" lon="-73.24055361">
    <tag k="addr:city" v="Sandgate" />
    <tag k="addr:housenumber" v="2590" />
    <tag k="addr:street" v="West Sandgate Road" />
    <tag k="addr:state" v="VT" />
    <tag k="ref:vcgi:esiteid" v="217054" />
  </node>
  <node id="-208" visible="true" lat="43.16321248" lon="-73.24634193">
    <tag k="addr:city" v="Sandgate" />
    <tag k="addr:housenumber" v="3" />
    <tag k="addr:street" v="Lincoln Lane" />
    <tag k="addr:state" v="VT" />
    <tag k="ref:vcgi:esiteid" v="217055" />
  </node>
  <node id="-209" visible="true" lat="43.16278298" lon="-73.24687285">
    <tag k="addr:city" v="Sandgate" />
    <tag k="addr:housenumber" v="2914" />
    <tag k="addr:street" v="West Sandgate Road" />
    <tag k="addr:state" v="VT" />
    <tag k="ref:vcgi:esiteid" v="217056" />
  </node>
  <node id="-210" visible="true" lat="43.16317382" lon="-73.18084466">
    <tag k="addr:city" v="Sandgate" />
    <tag k="addr:housenumber" v="181" />
    <tag k="addr:street" v="Wilcox Hollow Road" />
    <tag k="addr:state" v="VT" />
    <tag k="ref:vcgi:esiteid" v="217057" />
  </node>
  <node id="-211" visible="true" lat="43.16254049" lon="-73.24752747">
    <tag k="addr:city" v="Sandgate" />
    <tag k="addr:housenumber" v="2950" />
    <tag k="addr:street" v="West Sandgate Road" />
    <tag k="addr:state" v="VT" />
    <tag k="ref:vcgi:esiteid" v="217058" />
  </node>
  <node id="-212" visible="true" lat="43.16260618" lon="-73.24624132">
    <tag k="addr:city" v="Sandgate" />
    <tag k="addr:housenumber" v="2899" />
    <tag k="addr:street" v="West Sandgate Road" />
    <tag k="addr:state" v="VT" />
    <tag k="ref:vcgi:esiteid" v="217059" />
  </node>
  <node id="-213" visible="true" lat="43.16247558" lon="-73.24573516">
    <tag k="addr:city" v="Sandgate" />
    <tag k="addr:housenumber" v="2857" />
    <tag k="addr:street" v="West Sandgate Road" />
    <tag k="addr:state" v="VT" />
    <tag k="ref:vcgi:esiteid" v="217060" />
  </node>
  <node id="-214" visible="true" lat="43.16241865" lon="-73.2337131">
    <tag k="addr:city" v="Sandgate" />
    <tag k="addr:housenumber" v="2231" />
    <tag k="addr:street" v="West Sandgate Road" />
    <tag k="addr:state" v="VT" />
    <tag k="ref:vcgi:esiteid" v="217061" />
  </node>
  <node id="-215" visible="true" lat="43.16209972" lon="-73.23154608">
    <tag k="addr:city" v="Sandgate" />
    <tag k="addr:housenumber" v="2089" />
    <tag k="addr:street" v="West Sandgate Road" />
    <tag k="addr:state" v="VT" />
    <tag k="ref:vcgi:esiteid" v="217062" />
  </node>
  <node id="-216" visible="true" lat="43.16223862" lon="-73.23213426">
    <tag k="addr:city" v="Sandgate" />
    <tag k="addr:housenumber" v="2113" />
    <tag k="addr:street" v="West Sandgate Road" />
    <tag k="addr:state" v="VT" />
    <tag k="ref:vcgi:esiteid" v="217063" />
  </node>
  <node id="-217" visible="true" lat="43.1608544" lon="-73.25038201">
    <tag k="addr:city" v="Sandgate" />
    <tag k="addr:housenumber" v="3107" />
    <tag k="addr:street" v="West Sandgate Road" />
    <tag k="addr:state" v="VT" />
    <tag k="ref:vcgi:esiteid" v="217064" />
  </node>
  <node id="-218" visible="true" lat="43.16174621" lon="-73.25690439">
    <tag k="addr:city" v="Sandgate" />
    <tag k="addr:housenumber" v="150" />
    <tag k="addr:street" v="Campbell Road" />
    <tag k="addr:state" v="VT" />
    <tag k="ref:vcgi:esiteid" v="217065" />
  </node>
  <node id="-219" visible="true" lat="43.1620872" lon="-73.17663669">
    <tag k="addr:city" v="Sandgate" />
    <tag k="addr:housenumber" v="4756" />
    <tag k="addr:street" v="Sandgate Road" />
    <tag k="addr:state" v="VT" />
    <tag k="ref:vcgi:esiteid" v="217066" />
  </node>
  <node id="-220" visible="true" lat="43.16251111" lon="-73.25927564">
    <tag k="addr:city" v="Sandgate" />
    <tag k="addr:housenumber" v="86" />
    <tag k="addr:street" v="Littmann Lane" />
    <tag k="addr:state" v="VT" />
    <tag k="ref:vcgi:esiteid" v="217067" />
  </node>
  <node id="-221" visible="true" lat="43.16157934" lon="-73.23101916">
    <tag k="addr:city" v="Sandgate" />
    <tag k="addr:housenumber" v="2065" />
    <tag k="addr:street" v="West Sandgate Road" />
    <tag k="addr:state" v="VT" />
    <tag k="ref:vcgi:esiteid" v="217068" />
  </node>
  <node id="-222" visible="true" lat="43.16127229" lon="-73.23003725">
    <tag k="addr:city" v="Sandgate" />
    <tag k="addr:housenumber" v="2009" />
    <tag k="addr:street" v="West Sandgate Road" />
    <tag k="addr:state" v="VT" />
    <tag k="ref:vcgi:esiteid" v="217069" />
  </node>
  <node id="-223" visible="true" lat="43.16137917" lon="-73.17851551">
    <tag k="addr:city" v="Sandgate" />
    <tag k="addr:housenumber" v="4735" />
    <tag k="addr:street" v="Sandgate Road" />
    <tag k="addr:state" v="VT" />
    <tag k="ref:vcgi:esiteid" v="217070" />
  </node>
  <node id="-224" visible="true" lat="43.16077837" lon="-73.26050967">
    <tag k="addr:city" v="Sandgate" />
    <tag k="addr:housenumber" v="188" />
    <tag k="addr:street" v="Littmann Lane" />
    <tag k="addr:state" v="VT" />
    <tag k="ref:vcgi:esiteid" v="217071" />
  </node>
  <node id="-225" visible="true" lat="43.1610886" lon="-73.18810473">
    <tag k="addr:city" v="Sandgate" />
    <tag k="addr:housenumber" v="723" />
    <tag k="addr:street" v="Stannards Road" />
    <tag k="addr:state" v="VT" />
    <tag k="ref:vcgi:esiteid" v="217072" />
  </node>
  <node id="-226" visible="true" lat="43.16062783" lon="-73.25629431">
    <tag k="addr:city" v="Sandgate" />
    <tag k="addr:housenumber" v="3412" />
    <tag k="addr:street" v="West Sandgate Road" />
    <tag k="addr:state" v="VT" />
    <tag k="ref:vcgi:esiteid" v="217073" />
  </node>
  <node id="-227" visible="true" lat="43.16062979" lon="-73.22865301">
    <tag k="addr:city" v="Sandgate" />
    <tag k="addr:housenumber" v="1917" />
    <tag k="addr:street" v="West Sandgate Road" />
    <tag k="addr:state" v="VT" />
    <tag k="ref:vcgi:esiteid" v="217074" />
  </node>
  <node id="-228" visible="true" lat="43.16057796" lon="-73.2556228">
    <tag k="addr:city" v="Sandgate" />
    <tag k="addr:housenumber" v="3393" />
    <tag k="addr:street" v="West Sandgate Road" />
    <tag k="addr:state" v="VT" />
    <tag k="ref:vcgi:esiteid" v="217075" />
  </node>
  <node id="-229" visible="true" lat="43.16077095" lon="-73.17815528">
    <tag k="addr:city" v="Sandgate" />
    <tag k="addr:housenumber" v="4706" />
    <tag k="addr:street" v="Sandgate Road" />
    <tag k="addr:state" v="VT" />
    <tag k="ref:vcgi:esiteid" v="217076" />
  </node>
  <node id="-230" visible="true" lat="43.16022016" lon="-73.22815233">
    <tag k="addr:city" v="Sandgate" />
    <tag k="addr:housenumber" v="1851" />
    <tag k="addr:street" v="West Sandgate Road" />
    <tag k="addr:state" v="VT" />
    <tag k="ref:vcgi:esiteid" v="217077" />
  </node>
  <node id="-231" visible="true" lat="43.16008522" lon="-73.2407057">
    <tag k="addr:city" v="Sandgate" />
    <tag k="addr:housenumber" v="2589" />
    <tag k="addr:street" v="West Sandgate Road" />
    <tag k="addr:state" v="VT" />
    <tag k="ref:vcgi:esiteid" v="217078" />
  </node>
  <node id="-232" visible="true" lat="43.16029665" lon="-73.17876366">
    <tag k="addr:city" v="Sandgate" />
    <tag k="addr:housenumber" v="4648" />
    <tag k="addr:street" v="Sandgate Road" />
    <tag k="addr:state" v="VT" />
    <tag k="ref:vcgi:esiteid" v="217079" />
  </node>
  <node id="-233" visible="true" lat="43.15962302" lon="-73.26183557">
    <tag k="addr:city" v="Sandgate" />
    <tag k="addr:housenumber" v="263" />
    <tag k="addr:street" v="Littmann Lane" />
    <tag k="addr:state" v="VT" />
    <tag k="ref:vcgi:esiteid" v="217080" />
  </node>
  <node id="-234" visible="true" lat="43.15993842" lon="-73.17939297">
    <tag k="addr:city" v="Sandgate" />
    <tag k="addr:housenumber" v="4630" />
    <tag k="addr:street" v="Sandgate Road" />
    <tag k="addr:state" v="VT" />
    <tag k="ref:vcgi:esiteid" v="217081" />
  </node>
  <node id="-235" visible="true" lat="43.15981342" lon="-73.22550641">
    <tag k="addr:city" v="Sandgate" />
    <tag k="addr:housenumber" v="1738" />
    <tag k="addr:street" v="West Sandgate Road" />
    <tag k="addr:state" v="VT" />
    <tag k="ref:vcgi:esiteid" v="217082" />
  </node>
  <node id="-236" visible="true" lat="43.15936992" lon="-73.22658544">
    <tag k="addr:city" v="Sandgate" />
    <tag k="addr:housenumber" v="1793" />
    <tag k="addr:street" v="West Sandgate Road" />
    <tag k="addr:state" v="VT" />
    <tag k="ref:vcgi:esiteid" v="217083" />
  </node>
  <node id="-237" visible="true" lat="43.15900421" lon="-73.25718689">
    <tag k="addr:city" v="Sandgate" />
    <tag k="addr:housenumber" v="3533" />
    <tag k="addr:street" v="West Sandgate Road" />
    <tag k="addr:state" v="VT" />
    <tag k="ref:vcgi:esiteid" v="217085" />
  </node>
  <node id="-238" visible="true" lat="43.15868828" lon="-73.25923538">
    <tag k="addr:city" v="Sandgate" />
    <tag k="addr:housenumber" v="3600" />
    <tag k="addr:street" v="West Sandgate Road" />
    <tag k="addr:state" v="VT" />
    <tag k="ref:vcgi:esiteid" v="217087" />
  </node>
  <node id="-239" visible="true" lat="43.15885446" lon="-73.22378512">
    <tag k="addr:city" v="Sandgate" />
    <tag k="addr:housenumber" v="1618" />
    <tag k="addr:street" v="West Sandgate Road" />
    <tag k="addr:state" v="VT" />
    <tag k="ref:vcgi:esiteid" v="217088" />
  </node>
  <node id="-240" visible="true" lat="43.15891939" lon="-73.18175139">
    <tag k="addr:city" v="Sandgate" />
    <tag k="addr:housenumber" v="103" />
    <tag k="addr:street" v="Mazzola Trail" />
    <tag k="addr:state" v="VT" />
    <tag k="ref:vcgi:esiteid" v="217089" />
  </node>
  <node id="-241" visible="true" lat="43.15843551" lon="-73.17955262">
    <tag k="addr:city" v="Sandgate" />
    <tag k="addr:housenumber" v="4416" />
    <tag k="addr:street" v="Sandgate Road" />
    <tag k="addr:state" v="VT" />
    <tag k="ref:vcgi:esiteid" v="217090" />
  </node>
  <node id="-242" visible="true" lat="43.15787194" lon="-73.26031508">
    <tag k="addr:city" v="Sandgate" />
    <tag k="addr:housenumber" v="3602" />
    <tag k="addr:street" v="West Sandgate Road" />
    <tag k="addr:state" v="VT" />
    <tag k="ref:vcgi:esiteid" v="217091" />
  </node>
  <node id="-243" visible="true" lat="43.15768078" lon="-73.22140392">
    <tag k="addr:city" v="Sandgate" />
    <tag k="addr:housenumber" v="1458" />
    <tag k="addr:street" v="West Sandgate Road" />
    <tag k="addr:state" v="VT" />
    <tag k="ref:vcgi:esiteid" v="217092" />
  </node>
  <node id="-244" visible="true" lat="43.15711721" lon="-73.18297417">
    <tag k="addr:city" v="Sandgate" />
    <tag k="addr:housenumber" v="4355" />
    <tag k="addr:street" v="Sandgate Road" />
    <tag k="addr:state" v="VT" />
    <tag k="ref:vcgi:esiteid" v="217093" />
  </node>
  <node id="-245" visible="true" lat="43.15668558" lon="-73.25714281">
    <tag k="addr:city" v="Sandgate" />
    <tag k="addr:housenumber" v="3699" />
    <tag k="addr:street" v="West Sandgate Road" />
    <tag k="addr:state" v="VT" />
    <tag k="ref:vcgi:esiteid" v="217094" />
  </node>
  <node id="-246" visible="true" lat="43.1570838" lon="-73.21729634">
    <tag k="addr:city" v="Sandgate" />
    <tag k="addr:housenumber" v="1108" />
    <tag k="addr:street" v="West Sandgate Road" />
    <tag k="addr:state" v="VT" />
    <tag k="ref:vcgi:esiteid" v="217095" />
  </node>
  <node id="-247" visible="true" lat="43.1563034" lon="-73.21625518">
    <tag k="addr:city" v="Sandgate" />
    <tag k="addr:housenumber" v="1098" />
    <tag k="addr:street" v="West Sandgate Road" />
    <tag k="addr:state" v="VT" />
    <tag k="ref:vcgi:esiteid" v="217096" />
  </node>
  <node id="-248" visible="true" lat="43.15609597" lon="-73.22446462">
    <tag k="addr:city" v="Sandgate" />
    <tag k="addr:housenumber" v="104" />
    <tag k="addr:street" v="Tate Hill Road" />
    <tag k="addr:state" v="VT" />
    <tag k="ref:vcgi:esiteid" v="217097" />
  </node>
  <node id="-249" visible="true" lat="43.15602111" lon="-73.21796417">
    <tag k="addr:city" v="Sandgate" />
    <tag k="addr:housenumber" v="1140" />
    <tag k="addr:street" v="West Sandgate Road" />
    <tag k="addr:state" v="VT" />
    <tag k="ref:vcgi:esiteid" v="217098" />
  </node>
  <node id="-250" visible="true" lat="43.15559598" lon="-73.25964774">
    <tag k="addr:city" v="Sandgate" />
    <tag k="addr:housenumber" v="3810" />
    <tag k="addr:street" v="West Sandgate Road" />
    <tag k="addr:state" v="VT" />
    <tag k="ref:vcgi:esiteid" v="217099" />
  </node>
  <node id="-251" visible="true" lat="43.1557915" lon="-73.18426018">
    <tag k="addr:city" v="Sandgate" />
    <tag k="addr:housenumber" v="4233" />
    <tag k="addr:street" v="Sandgate Road" />
    <tag k="addr:state" v="VT" />
    <tag k="ref:vcgi:esiteid" v="217100" />
  </node>
  <node id="-252" visible="true" lat="43.15524555" lon="-73.26231778">
    <tag k="addr:city" v="Sandgate" />
    <tag k="addr:housenumber" v="3920" />
    <tag k="addr:street" v="West Sandgate Road" />
    <tag k="addr:state" v="VT" />
    <tag k="ref:vcgi:esiteid" v="217101" />
  </node>
  <node id="-253" visible="true" lat="43.1543559" lon="-73.26104533">
    <tag k="addr:city" v="Sandgate" />
    <tag k="addr:housenumber" v="3919" />
    <tag k="addr:street" v="West Sandgate Road" />
    <tag k="addr:state" v="VT" />
    <tag k="ref:vcgi:esiteid" v="217102" />
  </node>
  <node id="-254" visible="true" lat="43.15461885" lon="-73.18815102">
    <tag k="addr:city" v="Sandgate" />
    <tag k="addr:housenumber" v="4025" />
    <tag k="addr:street" v="Sandgate Road" />
    <tag k="addr:state" v="VT" />
    <tag k="ref:vcgi:esiteid" v="217103" />
  </node>
  <node id="-255" visible="true" lat="43.15366255" lon="-73.18718795">
    <tag k="addr:city" v="Sandgate" />
    <tag k="addr:housenumber" v="46" />
    <tag k="addr:street" v="Hamilton Hollow Road" />
    <tag k="addr:state" v="VT" />
    <tag k="ref:vcgi:esiteid" v="217104" />
  </node>
  <node id="-256" visible="true" lat="43.15321771" lon="-73.18554738">
    <tag k="addr:city" v="Sandgate" />
    <tag k="addr:housenumber" v="223" />
    <tag k="addr:street" v="Hamilton Hollow Road" />
    <tag k="addr:state" v="VT" />
    <tag k="ref:vcgi:esiteid" v="217105" />
  </node>
  <node id="-257" visible="true" lat="43.15308375" lon="-73.19033378">
    <tag k="addr:city" v="Sandgate" />
    <tag k="addr:housenumber" v="3826" />
    <tag k="addr:street" v="Sandgate Road" />
    <tag k="addr:state" v="VT" />
    <tag k="ref:vcgi:esiteid" v="217106" />
  </node>
  <node id="-258" visible="true" lat="43.15215258" lon="-73.19246468">
    <tag k="addr:city" v="Sandgate" />
    <tag k="addr:housenumber" v="3694" />
    <tag k="addr:street" v="Sandgate Road" />
    <tag k="addr:state" v="VT" />
    <tag k="ref:vcgi:esiteid" v="217107" />
  </node>
  <node id="-259" visible="true" lat="43.151037" lon="-73.25771806">
    <tag k="addr:city" v="Sandgate" />
    <tag k="addr:housenumber" v="342" />
    <tag k="addr:street" v="Weldon Drive" />
    <tag k="addr:state" v="VT" />
    <tag k="ref:vcgi:esiteid" v="217108" />
  </node>
  <node id="-260" visible="true" lat="43.15127254" lon="-73.19405667">
    <tag k="addr:city" v="Sandgate" />
    <tag k="addr:housenumber" v="3622" />
    <tag k="addr:street" v="Sandgate Road" />
    <tag k="addr:state" v="VT" />
    <tag k="ref:vcgi:esiteid" v="217109" />
  </node>
  <node id="-261" visible="true" lat="43.15212301" lon="-73.20917817">
    <tag k="addr:city" v="Sandgate" />
    <tag k="addr:housenumber" v="511" />
    <tag k="addr:street" v="West Sandgate Road" />
    <tag k="addr:state" v="VT" />
    <tag k="ref:vcgi:esiteid" v="217110" />
  </node>
  <node id="-262" visible="true" lat="43.15037978" lon="-73.25642639">
    <tag k="addr:city" v="Sandgate" />
    <tag k="addr:housenumber" v="391" />
    <tag k="addr:street" v="Weldon Drive" />
    <tag k="addr:state" v="VT" />
    <tag k="ref:vcgi:esiteid" v="217111" />
  </node>
  <node id="-263" visible="true" lat="43.15049716" lon="-73.19657749">
    <tag k="addr:city" v="Sandgate" />
    <tag k="addr:housenumber" v="3458" />
    <tag k="addr:street" v="Sandgate Road" />
    <tag k="addr:state" v="VT" />
    <tag k="ref:vcgi:esiteid" v="217112" />
  </node>
  <node id="-264" visible="true" lat="43.15047609" lon="-73.19716687">
    <tag k="addr:city" v="Sandgate" />
    <tag k="addr:housenumber" v="3433" />
    <tag k="addr:street" v="Sandgate Road" />
    <tag k="addr:state" v="VT" />
    <tag k="ref:vcgi:esiteid" v="217113" />
  </node>
  <node id="-265" visible="true" lat="43.15027787" lon="-73.19672332">
    <tag k="addr:city" v="Sandgate" />
    <tag k="addr:housenumber" v="3446" />
    <tag k="addr:street" v="Sandgate Road" />
    <tag k="addr:state" v="VT" />
    <tag k="ref:vcgi:esiteid" v="217114" />
  </node>
  <node id="-266" visible="true" lat="43.15041874" lon="-73.17950572">
    <tag k="addr:city" v="Sandgate" />
    <tag k="addr:housenumber" v="509" />
    <tag k="addr:street" v="Hamilton Hollow Road" />
    <tag k="addr:state" v="VT" />
    <tag k="ref:vcgi:esiteid" v="217115" />
  </node>
  <node id="-267" visible="true" lat="43.15000582" lon="-73.17769281">
    <tag k="addr:city" v="Sandgate" />
    <tag k="addr:housenumber" v="565" />
    <tag k="addr:street" v="Hamilton Hollow Road" />
    <tag k="addr:state" v="VT" />
    <tag k="ref:vcgi:esiteid" v="217116" />
  </node>
  <node id="-268" visible="true" lat="43.15011935" lon="-73.17857275">
    <tag k="addr:city" v="Sandgate" />
    <tag k="addr:housenumber" v="531" />
    <tag k="addr:street" v="Hamilton Hollow Road" />
    <tag k="addr:state" v="VT" />
    <tag k="ref:vcgi:esiteid" v="217117" />
  </node>
  <node id="-269" visible="true" lat="43.14977497" lon="-73.19715136">
    <tag k="addr:city" v="Sandgate" />
    <tag k="addr:housenumber" v="3402" />
    <tag k="addr:street" v="Sandgate Road" />
    <tag k="addr:state" v="VT" />
    <tag k="ref:vcgi:esiteid" v="217118" />
  </node>
  <node id="-270" visible="true" lat="43.14977462" lon="-73.19777062">
    <tag k="addr:city" v="Sandgate" />
    <tag k="addr:housenumber" v="3381" />
    <tag k="addr:street" v="Sandgate Road" />
    <tag k="addr:state" v="VT" />
    <tag k="ref:vcgi:esiteid" v="217119" />
  </node>
  <node id="-271" visible="true" lat="43.14982555" lon="-73.17722005">
    <tag k="addr:city" v="Sandgate" />
    <tag k="addr:housenumber" v="567" />
    <tag k="addr:street" v="Hamilton Hollow Road" />
    <tag k="addr:state" v="VT" />
    <tag k="ref:vcgi:esiteid" v="217120" />
  </node>
  <node id="-272" visible="true" lat="43.14892759" lon="-73.19760473">
    <tag k="addr:city" v="Sandgate" />
    <tag k="addr:housenumber" v="3336" />
    <tag k="addr:street" v="Sandgate Road" />
    <tag k="addr:state" v="VT" />
    <tag k="ref:vcgi:esiteid" v="217121" />
  </node>
  <node id="-273" visible="true" lat="43.14895764" lon="-73.17825953">
    <tag k="addr:city" v="Sandgate" />
    <tag k="addr:housenumber" v="640" />
    <tag k="addr:street" v="Hamilton Hollow Road" />
    <tag k="addr:state" v="VT" />
    <tag k="ref:vcgi:esiteid" v="217122" />
  </node>
  <node id="-274" visible="true" lat="43.14808416" lon="-73.26108126">
    <tag k="addr:city" v="Sandgate" />
    <tag k="addr:housenumber" v="524" />
    <tag k="addr:street" v="Weldon Drive" />
    <tag k="addr:state" v="VT" />
    <tag k="ref:vcgi:esiteid" v="217124" />
  </node>
  <node id="-275" visible="true" lat="43.14802672" lon="-73.19824973">
    <tag k="addr:city" v="Sandgate" />
    <tag k="addr:housenumber" v="3266" />
    <tag k="addr:street" v="Sandgate Road" />
    <tag k="addr:state" v="VT" />
    <tag k="ref:vcgi:esiteid" v="217125" />
  </node>
  <node id="-276" visible="true" lat="43.14801168" lon="-73.19907924">
    <tag k="addr:city" v="Sandgate" />
    <tag k="addr:housenumber" v="3217" />
    <tag k="addr:street" v="Sandgate Road" />
    <tag k="addr:state" v="VT" />
    <tag k="ref:vcgi:esiteid" v="217126" />
  </node>
  <node id="-277" visible="true" lat="43.14736202" lon="-73.22802461">
    <tag k="addr:city" v="Sandgate" />
    <tag k="addr:housenumber" v="803" />
    <tag k="addr:street" v="Tate Hill Road" />
    <tag k="addr:state" v="VT" />
    <tag k="ref:vcgi:esiteid" v="217128" />
  </node>
  <node id="-278" visible="true" lat="43.14709172" lon="-73.20497461">
    <tag k="addr:city" v="Sandgate" />
    <tag k="addr:housenumber" v="271" />
    <tag k="addr:street" v="West Sandgate Road" />
    <tag k="addr:state" v="VT" />
    <tag k="ref:vcgi:esiteid" v="217129" />
  </node>
  <node id="-279" visible="true" lat="43.14693564" lon="-73.20276156">
    <tag k="addr:city" v="Sandgate" />
    <tag k="addr:housenumber" v="92" />
    <tag k="addr:street" v="West Sandgate Road" />
    <tag k="addr:state" v="VT" />
    <tag k="ref:vcgi:esiteid" v="217130" />
  </node>
  <node id="-280" visible="true" lat="43.14621743" lon="-73.19937353">
    <tag k="addr:city" v="Sandgate" />
    <tag k="addr:housenumber" v="1333" />
    <tag k="addr:street" v="Woodcock Road" />
    <tag k="addr:state" v="VT" />
    <tag k="ref:vcgi:esiteid" v="217131" />
  </node>
  <node id="-281" visible="true" lat="43.14575702" lon="-73.20479132">
    <tag k="addr:city" v="Sandgate" />
    <tag k="addr:housenumber" v="190" />
    <tag k="addr:street" v="Swearing Hill Road" />
    <tag k="addr:state" v="VT" />
    <tag k="ref:vcgi:esiteid" v="217132" />
  </node>
  <node id="-282" visible="true" lat="43.14531697" lon="-73.20158647">
    <tag k="addr:city" v="Sandgate" />
    <tag k="addr:housenumber" v="3010" />
    <tag k="addr:street" v="Sandgate Road" />
    <tag k="addr:state" v="VT" />
    <tag k="ref:vcgi:esiteid" v="217133" />
  </node>
  <node id="-283" visible="true" lat="43.1454419" lon="-73.17437914">
    <tag k="addr:city" v="Sandgate" />
    <tag k="addr:housenumber" v="954" />
    <tag k="addr:street" v="Hamilton Hollow Road" />
    <tag k="addr:state" v="VT" />
    <tag k="ref:vcgi:esiteid" v="217134" />
  </node>
  <node id="-284" visible="true" lat="43.14551656" lon="-73.21805539">
    <tag k="addr:city" v="Sandgate" />
    <tag k="addr:housenumber" v="256" />
    <tag k="addr:street" v="Swearing Hill Road" />
    <tag k="addr:state" v="VT" />
    <tag k="ref:vcgi:esiteid" v="217135" />
  </node>
  <node id="-285" visible="true" lat="43.14524459" lon="-73.13500213">
    <tag k="addr:city" v="Sandgate" />
    <tag k="addr:housenumber" v="3225" />
    <tag k="addr:street" v="Skyline Drive" />
    <tag k="addr:state" v="VT" />
    <tag k="ref:vcgi:esiteid" v="217136" />
  </node>
  <node id="-286" visible="true" lat="43.14472059" lon="-73.20513121">
    <tag k="addr:city" v="Sandgate" />
    <tag k="addr:housenumber" v="283" />
    <tag k="addr:street" v="Swearing Hill Road" />
    <tag k="addr:state" v="VT" />
    <tag k="ref:vcgi:esiteid" v="217137" />
  </node>
  <node id="-287" visible="true" lat="43.1444891" lon="-73.20322511">
    <tag k="addr:city" v="Sandgate" />
    <tag k="addr:housenumber" v="61" />
    <tag k="addr:street" v="Swearing Hill Road" />
    <tag k="addr:state" v="VT" />
    <tag k="ref:vcgi:esiteid" v="217138" />
  </node>
  <node id="-288" visible="true" lat="43.14479803" lon="-73.21652396">
    <tag k="addr:city" v="Sandgate" />
    <tag k="addr:housenumber" v="258" />
    <tag k="addr:street" v="Swearing Hill Road" />
    <tag k="addr:state" v="VT" />
    <tag k="ref:vcgi:esiteid" v="217139" />
  </node>
  <node id="-289" visible="true" lat="43.14466941" lon="-73.21648772">
    <tag k="addr:city" v="Sandgate" />
    <tag k="addr:housenumber" v="260" />
    <tag k="addr:street" v="Swearing Hill Road" />
    <tag k="addr:state" v="VT" />
    <tag k="ref:vcgi:esiteid" v="217140" />
  </node>
  <node id="-290" visible="true" lat="43.14450507" lon="-73.17223845">
    <tag k="addr:city" v="Sandgate" />
    <tag k="addr:housenumber" v="1105" />
    <tag k="addr:street" v="Hamilton Hollow Road" />
    <tag k="addr:state" v="VT" />
    <tag k="ref:vcgi:esiteid" v="217141" />
  </node>
  <node id="-291" visible="true" lat="43.14375742" lon="-73.2035011">
    <tag k="addr:city" v="Sandgate" />
    <tag k="addr:housenumber" v="2925" />
    <tag k="addr:street" v="Sandgate Road" />
    <tag k="addr:state" v="VT" />
    <tag k="ref:vcgi:esiteid" v="217142" />
  </node>
  <node id="-292" visible="true" lat="43.14296121" lon="-73.21415943">
    <tag k="addr:city" v="Sandgate" />
    <tag k="addr:housenumber" v="793" />
    <tag k="addr:street" v="Tudor Road" />
    <tag k="addr:state" v="VT" />
    <tag k="ref:vcgi:esiteid" v="217143" />
  </node>
  <node id="-293" visible="true" lat="43.14265677" lon="-73.20225518">
    <tag k="addr:city" v="Sandgate" />
    <tag k="addr:housenumber" v="2742" />
    <tag k="addr:street" v="Sandgate Road" />
    <tag k="addr:state" v="VT" />
    <tag k="ref:vcgi:esiteid" v="217144" />
  </node>
  <node id="-294" visible="true" lat="43.14199613" lon="-73.20379216">
    <tag k="addr:city" v="Sandgate" />
    <tag k="addr:housenumber" v="2747" />
    <tag k="addr:street" v="Sandgate Road" />
    <tag k="addr:state" v="VT" />
    <tag k="ref:vcgi:esiteid" v="217145" />
  </node>
  <node id="-295" visible="true" lat="43.14209575" lon="-73.21091482">
    <tag k="addr:city" v="Sandgate" />
    <tag k="addr:housenumber" v="569" />
    <tag k="addr:street" v="Tudor Road" />
    <tag k="addr:state" v="VT" />
    <tag k="ref:vcgi:esiteid" v="217146" />
  </node>
  <node id="-296" visible="true" lat="43.14195814" lon="-73.20901587">
    <tag k="addr:city" v="Sandgate" />
    <tag k="addr:housenumber" v="410" />
    <tag k="addr:street" v="Tudor Road" />
    <tag k="addr:state" v="VT" />
    <tag k="ref:vcgi:esiteid" v="217147" />
  </node>
  <node id="-297" visible="true" lat="43.14177454" lon="-73.20332803">
    <tag k="addr:city" v="Sandgate" />
    <tag k="addr:housenumber" v="2740" />
    <tag k="addr:street" v="Sandgate Road" />
    <tag k="addr:state" v="VT" />
    <tag k="ref:vcgi:esiteid" v="217148" />
  </node>
  <node id="-298" visible="true" lat="43.14149141" lon="-73.20751003">
    <tag k="addr:city" v="Sandgate" />
    <tag k="addr:housenumber" v="310" />
    <tag k="addr:street" v="Tudor Road" />
    <tag k="addr:state" v="VT" />
    <tag k="ref:vcgi:esiteid" v="217149" />
  </node>
  <node id="-299" visible="true" lat="43.14065739" lon="-73.20984191">
    <tag k="addr:city" v="Sandgate" />
    <tag k="addr:housenumber" v="419" />
    <tag k="addr:street" v="Tudor Road" />
    <tag k="addr:state" v="VT" />
    <tag k="ref:vcgi:esiteid" v="217150" />
  </node>
  <node id="-300" visible="true" lat="43.14033643" lon="-73.20742235">
    <tag k="addr:city" v="Sandgate" />
    <tag k="addr:housenumber" v="16" />
    <tag k="addr:street" v="Mountainview Road" />
    <tag k="addr:state" v="VT" />
    <tag k="ref:vcgi:esiteid" v="217151" />
  </node>
  <node id="-301" visible="true" lat="43.14055444" lon="-73.20603584">
    <tag k="addr:city" v="Sandgate" />
    <tag k="addr:housenumber" v="252" />
    <tag k="addr:street" v="Tudor Road" />
    <tag k="addr:state" v="VT" />
    <tag k="ref:vcgi:esiteid" v="217152" />
  </node>
  <node id="-302" visible="true" lat="43.13991559" lon="-73.20884603">
    <tag k="addr:city" v="Sandgate" />
    <tag k="addr:housenumber" v="64" />
    <tag k="addr:street" v="Walsh Road" />
    <tag k="addr:state" v="VT" />
    <tag k="ref:vcgi:esiteid" v="217153" />
  </node>
  <node id="-303" visible="true" lat="43.13864342" lon="-73.19823856">
    <tag k="addr:city" v="Sandgate" />
    <tag k="addr:housenumber" v="798" />
    <tag k="addr:street" v="Woodcock Road" />
    <tag k="addr:state" v="VT" />
    <tag k="ref:vcgi:esiteid" v="217154" />
  </node>
  <node id="-304" visible="true" lat="43.13994159" lon="-73.20395193">
    <tag k="addr:city" v="Sandgate" />
    <tag k="addr:housenumber" v="2593" />
    <tag k="addr:street" v="Sandgate Road" />
    <tag k="addr:state" v="VT" />
    <tag k="ref:vcgi:esiteid" v="217155" />
  </node>
  <node id="-305" visible="true" lat="43.13974899" lon="-73.20760221">
    <tag k="addr:city" v="Sandgate" />
    <tag k="addr:housenumber" v="151" />
    <tag k="addr:street" v="Mountainview Road" />
    <tag k="addr:state" v="VT" />
    <tag k="ref:vcgi:esiteid" v="217156" />
  </node>
  <node id="-306" visible="true" lat="43.1398081" lon="-73.20403774">
    <tag k="addr:city" v="Sandgate" />
    <tag k="addr:housenumber" v="2581" />
    <tag k="addr:street" v="Sandgate Road" />
    <tag k="addr:state" v="VT" />
    <tag k="ref:vcgi:esiteid" v="217157" />
  </node>
  <node id="-307" visible="true" lat="43.13965471" lon="-73.20266795">
    <tag k="addr:city" v="Sandgate" />
    <tag k="addr:housenumber" v="2538" />
    <tag k="addr:street" v="Sandgate Road" />
    <tag k="addr:state" v="VT" />
    <tag k="ref:vcgi:esiteid" v="217158" />
  </node>
  <node id="-308" visible="true" lat="43.13942553" lon="-73.20902545">
    <tag k="addr:city" v="Sandgate" />
    <tag k="addr:housenumber" v="100" />
    <tag k="addr:street" v="Walsh Road" />
    <tag k="addr:state" v="VT" />
    <tag k="ref:vcgi:esiteid" v="217159" />
  </node>
  <node id="-309" visible="true" lat="43.13915497" lon="-73.20851845">
    <tag k="addr:city" v="Sandgate" />
    <tag k="addr:housenumber" v="125" />
    <tag k="addr:street" v="Walsh Road" />
    <tag k="addr:state" v="VT" />
    <tag k="ref:vcgi:esiteid" v="217160" />
  </node>
  <node id="-310" visible="true" lat="43.1388249" lon="-73.20924014">
    <tag k="addr:city" v="Sandgate" />
    <tag k="addr:housenumber" v="164" />
    <tag k="addr:street" v="Walsh Road" />
    <tag k="addr:state" v="VT" />
    <tag k="ref:vcgi:esiteid" v="217161" />
  </node>
  <node id="-311" visible="true" lat="43.13874654" lon="-73.20616396">
    <tag k="addr:city" v="Sandgate" />
    <tag k="addr:housenumber" v="231" />
    <tag k="addr:street" v="Tudor Road" />
    <tag k="addr:state" v="VT" />
    <tag k="ref:vcgi:esiteid" v="217162" />
  </node>
  <node id="-312" visible="true" lat="43.13890536" lon="-73.2028193">
    <tag k="addr:city" v="Sandgate" />
    <tag k="addr:housenumber" v="2536" />
    <tag k="addr:street" v="Sandgate Road" />
    <tag k="addr:state" v="VT" />
    <tag k="ref:vcgi:esiteid" v="217163" />
  </node>
  <node id="-313" visible="true" lat="43.13844373" lon="-73.20453192">
    <tag k="addr:city" v="Sandgate" />
    <tag k="addr:housenumber" v="101" />
    <tag k="addr:street" v="Tudor Road" />
    <tag k="addr:state" v="VT" />
    <tag k="ref:vcgi:esiteid" v="217164" />
  </node>
  <node id="-314" visible="true" lat="43.13820881" lon="-73.20364598">
    <tag k="addr:city" v="Sandgate" />
    <tag k="addr:housenumber" v="2498" />
    <tag k="addr:street" v="Sandgate Road" />
    <tag k="addr:state" v="VT" />
    <tag k="ref:vcgi:esiteid" v="217165" />
  </node>
  <node id="-315" visible="true" lat="43.13856887" lon="-73.1364746">
    <tag k="addr:city" v="Sandgate" />
    <tag k="addr:housenumber" v="2602" />
    <tag k="addr:street" v="Skyline Drive" />
    <tag k="addr:state" v="VT" />
    <tag k="ref:vcgi:esiteid" v="217166" />
  </node>
  <node id="-316" visible="true" lat="43.13809405" lon="-73.20446655">
    <tag k="addr:city" v="Sandgate" />
    <tag k="addr:housenumber" v="103" />
    <tag k="addr:street" v="Tudor Road" />
    <tag k="addr:state" v="VT" />
    <tag k="ref:vcgi:esiteid" v="217167" />
  </node>
  <node id="-317" visible="true" lat="43.13836669" lon="-73.14032745">
    <tag k="addr:city" v="Sandgate" />
    <tag k="addr:housenumber" v="1" />
    <tag k="addr:street" v="Saint Bruno Drive" />
    <tag k="addr:state" v="VT" />
    <tag k="ref:vcgi:esiteid" v="217168" />
  </node>
  <node id="-318" visible="true" lat="43.13758031" lon="-73.20424921">
    <tag k="addr:city" v="Sandgate" />
    <tag k="addr:housenumber" v="2461" />
    <tag k="addr:street" v="Sandgate Road" />
    <tag k="addr:state" v="VT" />
    <tag k="ref:vcgi:esiteid" v="217169" />
  </node>
  <node id="-319" visible="true" lat="43.13730801" lon="-73.19892056">
    <tag k="addr:city" v="Sandgate" />
    <tag k="addr:housenumber" v="727" />
    <tag k="addr:street" v="Woodcock Road" />
    <tag k="addr:state" v="VT" />
    <tag k="ref:vcgi:esiteid" v="217170" />
  </node>
  <node id="-320" visible="true" lat="43.13610109" lon="-73.20385693">
    <tag k="addr:city" v="Sandgate" />
    <tag k="addr:housenumber" v="2352" />
    <tag k="addr:street" v="Sandgate Road" />
    <tag k="addr:state" v="VT" />
    <tag k="ref:vcgi:esiteid" v="217171" />
  </node>
  <node id="-321" visible="true" lat="43.13487219" lon="-73.19851768">
    <tag k="addr:city" v="Sandgate" />
    <tag k="addr:housenumber" v="527" />
    <tag k="addr:street" v="Woodcock Road" />
    <tag k="addr:state" v="VT" />
    <tag k="ref:vcgi:esiteid" v="217172" />
  </node>
  <node id="-322" visible="true" lat="43.13391056" lon="-73.19786767">
    <tag k="addr:city" v="Sandgate" />
    <tag k="addr:housenumber" v="490" />
    <tag k="addr:street" v="Woodcock Road" />
    <tag k="addr:state" v="VT" />
    <tag k="ref:vcgi:esiteid" v="217173" />
  </node>
  <node id="-323" visible="true" lat="43.13367897" lon="-73.23889595">
    <tag k="addr:city" v="Sandgate" />
    <tag k="addr:housenumber" v="2363" />
    <tag k="addr:street" v="Tate Hill Road" />
    <tag k="addr:state" v="VT" />
    <tag k="ref:vcgi:esiteid" v="217174" />
  </node>
  <node id="-324" visible="true" lat="43.13481125" lon="-73.20455736">
    <tag k="addr:city" v="Sandgate" />
    <tag k="addr:housenumber" v="2155" />
    <tag k="addr:street" v="Sandgate Road" />
    <tag k="addr:state" v="VT" />
    <tag k="ref:vcgi:esiteid" v="217175" />
  </node>
  <node id="-325" visible="true" lat="43.1334982" lon="-73.20489503">
    <tag k="addr:city" v="Sandgate" />
    <tag k="addr:housenumber" v="2137" />
    <tag k="addr:street" v="Sandgate Road" />
    <tag k="addr:state" v="VT" />
    <tag k="ref:vcgi:esiteid" v="217176" />
  </node>
  <node id="-326" visible="true" lat="43.13290931" lon="-73.19920588">
    <tag k="addr:city" v="Sandgate" />
    <tag k="addr:housenumber" v="437" />
    <tag k="addr:street" v="Woodcock Road" />
    <tag k="addr:state" v="VT" />
    <tag k="ref:vcgi:esiteid" v="217177" />
  </node>
  <node id="-327" visible="true" lat="43.13146813" lon="-73.18043413">
    <tag k="addr:city" v="Sandgate" />
    <tag k="addr:housenumber" v="10" />
    <tag k="addr:street" v="Sullivan Lane" />
    <tag k="addr:state" v="VT" />
    <tag k="ref:vcgi:esiteid" v="217178" />
  </node>
  <node id="-328" visible="true" lat="43.13289619" lon="-73.20339918">
    <tag k="addr:city" v="Sandgate" />
    <tag k="addr:housenumber" v="1966" />
    <tag k="addr:street" v="Sandgate Road" />
    <tag k="addr:state" v="VT" />
    <tag k="ref:vcgi:esiteid" v="217179" />
  </node>
  <node id="-329" visible="true" lat="43.13264114" lon="-73.2057679">
    <tag k="addr:city" v="Sandgate" />
    <tag k="addr:housenumber" v="1971" />
    <tag k="addr:street" v="Sandgate Road" />
    <tag k="addr:state" v="VT" />
    <tag k="ref:vcgi:esiteid" v="217180" />
  </node>
  <node id="-330" visible="true" lat="43.13414091" lon="-73.20062866">
    <tag k="addr:city" v="Sandgate" />
    <tag k="addr:housenumber" v="441" />
    <tag k="addr:street" v="Woodcock Road" />
    <tag k="addr:state" v="VT" />
    <tag k="ref:vcgi:esiteid" v="217181" />
  </node>
  <node id="-331" visible="true" lat="43.1325204" lon="-73.18076913">
    <tag k="addr:city" v="Sandgate" />
    <tag k="addr:housenumber" v="1381" />
    <tag k="addr:street" v="Southeast Corners Road" />
    <tag k="addr:state" v="VT" />
    <tag k="ref:vcgi:esiteid" v="217182" />
  </node>
  <node id="-332" visible="true" lat="43.13217777" lon="-73.17882691">
    <tag k="addr:city" v="Sandgate" />
    <tag k="addr:housenumber" v="33" />
    <tag k="addr:street" v="Sullivan Lane" />
    <tag k="addr:state" v="VT" />
    <tag k="ref:vcgi:esiteid" v="217183" />
  </node>
  <node id="-333" visible="true" lat="43.13149845" lon="-73.20433817">
    <tag k="addr:city" v="Sandgate" />
    <tag k="addr:housenumber" v="1978" />
    <tag k="addr:street" v="Sandgate Road" />
    <tag k="addr:state" v="VT" />
    <tag k="ref:vcgi:esiteid" v="217184" />
  </node>
  <node id="-334" visible="true" lat="43.13124457" lon="-73.17881195">
    <tag k="addr:city" v="Sandgate" />
    <tag k="addr:housenumber" v="53" />
    <tag k="addr:street" v="Sullivan Lane" />
    <tag k="addr:state" v="VT" />
    <tag k="ref:vcgi:esiteid" v="217185" />
  </node>
  <node id="-335" visible="true" lat="43.13114619" lon="-73.18495703">
    <tag k="addr:city" v="Sandgate" />
    <tag k="addr:housenumber" v="1153" />
    <tag k="addr:street" v="Southeast Corners Road" />
    <tag k="addr:state" v="VT" />
    <tag k="ref:vcgi:esiteid" v="217187" />
  </node>
  <node id="-336" visible="true" lat="43.13106679" lon="-73.1954883">
    <tag k="addr:city" v="Sandgate" />
    <tag k="addr:housenumber" v="809" />
    <tag k="addr:street" v="Southeast Corners Road" />
    <tag k="addr:state" v="VT" />
    <tag k="ref:vcgi:esiteid" v="217188" />
  </node>
  <node id="-337" visible="true" lat="43.13064089" lon="-73.18451259">
    <tag k="addr:city" v="Sandgate" />
    <tag k="addr:housenumber" v="1130" />
    <tag k="addr:street" v="Southeast Corners Road" />
    <tag k="addr:state" v="VT" />
    <tag k="ref:vcgi:esiteid" v="217189" />
  </node>
  <node id="-338" visible="true" lat="43.13017938" lon="-73.20528776">
    <tag k="addr:city" v="Sandgate" />
    <tag k="addr:housenumber" v="1907" />
    <tag k="addr:street" v="Sandgate Road" />
    <tag k="addr:state" v="VT" />
    <tag k="ref:vcgi:esiteid" v="217190" />
  </node>
  <node id="-339" visible="true" lat="43.12929774" lon="-73.25524025">
    <tag k="addr:city" v="Sandgate" />
    <tag k="addr:housenumber" v="25" />
    <tag k="addr:street" v="Pantaleon Road" />
    <tag k="addr:state" v="VT" />
    <tag k="ref:vcgi:esiteid" v="217191" />
  </node>
  <node id="-340" visible="true" lat="43.12957382" lon="-73.18721008">
    <tag k="addr:city" v="Sandgate" />
    <tag k="addr:housenumber" v="982" />
    <tag k="addr:street" v="Southeast Corners Road" />
    <tag k="addr:state" v="VT" />
    <tag k="ref:vcgi:esiteid" v="217192" />
  </node>
  <node id="-341" visible="true" lat="43.12947574" lon="-73.20204999">
    <tag k="addr:city" v="Sandgate" />
    <tag k="addr:housenumber" v="114" />
    <tag k="addr:street" v="Woodcock Road" />
    <tag k="addr:state" v="VT" />
    <tag k="ref:vcgi:esiteid" v="217193" />
  </node>
  <node id="-342" visible="true" lat="43.12926049" lon="-73.2052063">
    <tag k="addr:city" v="Sandgate" />
    <tag k="addr:housenumber" v="9" />
    <tag k="addr:street" v="Southeast Corners Road" />
    <tag k="addr:state" v="VT" />
    <tag k="ref:vcgi:esiteid" v="217194" />
  </node>
  <node id="-343" visible="true" lat="43.12918451" lon="-73.19235602">
    <tag k="addr:city" v="Sandgate" />
    <tag k="addr:housenumber" v="807" />
    <tag k="addr:street" v="Southeast Corners Road" />
    <tag k="addr:state" v="VT" />
    <tag k="ref:vcgi:esiteid" v="217195" />
  </node>
  <node id="-344" visible="true" lat="43.12898723" lon="-73.20433431">
    <tag k="addr:city" v="Sandgate" />
    <tag k="addr:housenumber" v="47" />
    <tag k="addr:street" v="Southeast Corners Road" />
    <tag k="addr:state" v="VT" />
    <tag k="ref:vcgi:esiteid" v="217196" />
  </node>
  <node id="-345" visible="true" lat="43.1286601" lon="-73.20304565">
    <tag k="addr:city" v="Sandgate" />
    <tag k="addr:housenumber" v="18" />
    <tag k="addr:street" v="Woodcock Road" />
    <tag k="addr:state" v="VT" />
    <tag k="ref:vcgi:esiteid" v="217197" />
  </node>
  <node id="-346" visible="true" lat="43.12829019" lon="-73.20409676">
    <tag k="addr:city" v="Sandgate" />
    <tag k="addr:housenumber" v="104" />
    <tag k="addr:street" v="Southeast Corners Road" />
    <tag k="addr:state" v="VT" />
    <tag k="ref:vcgi:esiteid" v="217198" />
  </node>
  <node id="-347" visible="true" lat="43.12801193" lon="-73.2029338">
    <tag k="addr:city" v="Sandgate" />
    <tag k="addr:housenumber" v="158" />
    <tag k="addr:street" v="Southeast Corners Road" />
    <tag k="addr:state" v="VT" />
    <tag k="ref:vcgi:esiteid" v="217199" />
  </node>
  <node id="-348" visible="true" lat="43.12622955" lon="-73.25816842">
    <tag k="addr:city" v="Sandgate" />
    <tag k="addr:housenumber" v="125" />
    <tag k="addr:street" v="Chunks Brook Road" />
    <tag k="addr:state" v="VT" />
    <tag k="ref:vcgi:esiteid" v="217200" />
  </node>
  <node id="-349" visible="true" lat="43.12786209" lon="-73.25612744">
    <tag k="addr:city" v="Sandgate" />
    <tag k="addr:housenumber" v="1523" />
    <tag k="addr:street" v="Chunks Brook Road" />
    <tag k="addr:state" v="VT" />
    <tag k="ref:vcgi:esiteid" v="217201" />
  </node>
  <node id="-350" visible="true" lat="43.12820108" lon="-73.19707981">
    <tag k="addr:city" v="Sandgate" />
    <tag k="addr:housenumber" v="433" />
    <tag k="addr:street" v="Southeast Corners Road" />
    <tag k="addr:state" v="VT" />
    <tag k="ref:vcgi:esiteid" v="217202" />
  </node>
  <node id="-351" visible="true" lat="43.12807914" lon="-73.193252">
    <tag k="addr:city" v="Sandgate" />
    <tag k="addr:housenumber" v="703" />
    <tag k="addr:street" v="Southeast Corners Road" />
    <tag k="addr:state" v="VT" />
    <tag k="ref:vcgi:esiteid" v="217203" />
  </node>
  <node id="-352" visible="true" lat="43.12806827" lon="-73.1978493">
    <tag k="addr:city" v="Sandgate" />
    <tag k="addr:housenumber" v="419" />
    <tag k="addr:street" v="Southeast Corners Road" />
    <tag k="addr:state" v="VT" />
    <tag k="ref:vcgi:esiteid" v="217204" />
  </node>
  <node id="-353" visible="true" lat="43.12787246" lon="-73.19637298">
    <tag k="addr:city" v="Sandgate" />
    <tag k="addr:housenumber" v="491" />
    <tag k="addr:street" v="Southeast Corners Road" />
    <tag k="addr:state" v="VT" />
    <tag k="ref:vcgi:esiteid" v="217205" />
  </node>
  <node id="-354" visible="true" lat="43.12768936" lon="-73.19258117">
    <tag k="addr:city" v="Sandgate" />
    <tag k="addr:housenumber" v="680" />
    <tag k="addr:street" v="Southeast Corners Road" />
    <tag k="addr:state" v="VT" />
    <tag k="ref:vcgi:esiteid" v="217206" />
  </node>
  <node id="-355" visible="true" lat="43.12747047" lon="-73.1935764">
    <tag k="addr:city" v="Sandgate" />
    <tag k="addr:housenumber" v="620" />
    <tag k="addr:street" v="Southeast Corners Road" />
    <tag k="addr:state" v="VT" />
    <tag k="ref:vcgi:esiteid" v="217207" />
  </node>
  <node id="-356" visible="true" lat="43.1272454" lon="-73.20389798">
    <tag k="addr:city" v="Sandgate" />
    <tag k="addr:housenumber" v="84" />
    <tag k="addr:street" v="Bentley Road" />
    <tag k="addr:state" v="VT" />
    <tag k="ref:vcgi:esiteid" v="217208" />
  </node>
  <node id="-357" visible="true" lat="43.12721633" lon="-73.1925888">
    <tag k="addr:city" v="Sandgate" />
    <tag k="addr:housenumber" v="113" />
    <tag k="addr:street" v="Oxlot Road" />
    <tag k="addr:state" v="VT" />
    <tag k="ref:vcgi:esiteid" v="217209" />
  </node>
  <node id="-358" visible="true" lat="43.12679289" lon="-73.19112633">
    <tag k="addr:city" v="Sandgate" />
    <tag k="addr:housenumber" v="161" />
    <tag k="addr:street" v="Oxlot Road" />
    <tag k="addr:state" v="VT" />
    <tag k="ref:vcgi:esiteid" v="217210" />
  </node>
  <node id="-359" visible="true" lat="43.12639617" lon="-73.20657348">
    <tag k="addr:city" v="Sandgate" />
    <tag k="addr:housenumber" v="1647" />
    <tag k="addr:street" v="Sandgate Road" />
    <tag k="addr:state" v="VT" />
    <tag k="ref:vcgi:esiteid" v="217211" />
  </node>
  <node id="-360" visible="true" lat="43.12644008" lon="-73.19012041">
    <tag k="addr:city" v="Sandgate" />
    <tag k="addr:housenumber" v="247" />
    <tag k="addr:street" v="Oxlot Road" />
    <tag k="addr:state" v="VT" />
    <tag k="ref:vcgi:esiteid" v="217212" />
  </node>
  <node id="-361" visible="true" lat="43.12551879" lon="-73.25682067">
    <tag k="addr:city" v="Sandgate" />
    <tag k="addr:housenumber" v="1361" />
    <tag k="addr:street" v="Chunks Brook Road" />
    <tag k="addr:state" v="VT" />
    <tag k="ref:vcgi:esiteid" v="217213" />
  </node>
  <node id="-362" visible="true" lat="43.12512238" lon="-73.25696986">
    <tag k="addr:city" v="Sandgate" />
    <tag k="addr:housenumber" v="1337" />
    <tag k="addr:street" v="Chunks Brook Road" />
    <tag k="addr:state" v="VT" />
    <tag k="ref:vcgi:esiteid" v="217214" />
  </node>
  <node id="-363" visible="true" lat="43.12503309" lon="-73.25859953">
    <tag k="addr:city" v="Sandgate" />
    <tag k="addr:housenumber" v="123" />
    <tag k="addr:street" v="Chunks Brook Road" />
    <tag k="addr:state" v="VT" />
    <tag k="ref:vcgi:esiteid" v="217215" />
  </node>
  <node id="-364" visible="true" lat="43.12503056" lon="-73.20689827">
    <tag k="addr:city" v="Sandgate" />
    <tag k="addr:housenumber" v="1467" />
    <tag k="addr:street" v="Sandgate Road" />
    <tag k="addr:state" v="VT" />
    <tag k="ref:vcgi:esiteid" v="217217" />
  </node>
  <node id="-365" visible="true" lat="43.12453815" lon="-73.25984969">
    <tag k="addr:city" v="Sandgate" />
    <tag k="addr:housenumber" v="121" />
    <tag k="addr:street" v="Chunks Brook Road" />
    <tag k="addr:state" v="VT" />
    <tag k="ref:vcgi:esiteid" v="217218" />
  </node>
  <node id="-366" visible="true" lat="43.12408439" lon="-73.20588051">
    <tag k="addr:city" v="Sandgate" />
    <tag k="addr:housenumber" v="1494" />
    <tag k="addr:street" v="Sandgate Road" />
    <tag k="addr:state" v="VT" />
    <tag k="ref:vcgi:esiteid" v="217219" />
  </node>
  <node id="-367" visible="true" lat="43.12374391" lon="-73.20618148">
    <tag k="addr:city" v="Sandgate" />
    <tag k="addr:housenumber" v="1474" />
    <tag k="addr:street" v="Sandgate Road" />
    <tag k="addr:state" v="VT" />
    <tag k="ref:vcgi:esiteid" v="217220" />
  </node>
  <node id="-368" visible="true" lat="43.12389118" lon="-73.25729628">
    <tag k="addr:city" v="Sandgate" />
    <tag k="addr:housenumber" v="1212" />
    <tag k="addr:street" v="Chunks Brook Road" />
    <tag k="addr:state" v="VT" />
    <tag k="ref:vcgi:esiteid" v="217221" />
  </node>
  <node id="-369" visible="true" lat="43.12362322" lon="-73.13551504">
    <tag k="addr:city" v="Sandgate" />
    <tag k="addr:housenumber" v="1080" />
    <tag k="addr:street" v="Bentley Hill Road" />
    <tag k="addr:state" v="VT" />
    <tag k="ref:vcgi:esiteid" v="217222" />
  </node>
  <node id="-370" visible="true" lat="43.12216993" lon="-73.20777524">
    <tag k="addr:city" v="Sandgate" />
    <tag k="addr:housenumber" v="1327" />
    <tag k="addr:street" v="Sandgate Road" />
    <tag k="addr:state" v="VT" />
    <tag k="ref:vcgi:esiteid" v="217223" />
  </node>
  <node id="-371" visible="true" lat="43.15323724" lon="-73.26250059">
    <tag k="addr:city" v="Sandgate" />
    <tag k="addr:housenumber" v="4007" />
    <tag k="addr:street" v="West Sandgate Road" />
    <tag k="addr:state" v="VT" />
    <tag k="ref:vcgi:esiteid" v="217224" />
  </node>
  <node id="-372" visible="true" lat="43.12139582" lon="-73.21002708">
    <tag k="addr:city" v="Sandgate" />
    <tag k="addr:housenumber" v="219" />
    <tag k="addr:street" v="Shamrock Hill" />
    <tag k="addr:state" v="VT" />
    <tag k="ref:vcgi:esiteid" v="217225" />
  </node>
  <node id="-373" visible="true" lat="43.15978118" lon="-73.25707016">
    <tag k="addr:city" v="Sandgate" />
    <tag k="addr:housenumber" v="3478" />
    <tag k="addr:street" v="West Sandgate Road" />
    <tag k="addr:state" v="VT" />
    <tag k="ref:vcgi:esiteid" v="217226" />
  </node>
  <node id="-374" visible="true" lat="43.17705639" lon="-73.24470514">
    <tag k="addr:city" v="Sandgate" />
    <tag k="addr:housenumber" v="680" />
    <tag k="addr:street" v="Lincoln Lane" />
    <tag k="addr:state" v="VT" />
    <tag k="ref:vcgi:esiteid" v="217227" />
  </node>
  <node id="-375" visible="true" lat="43.16013651" lon="-73.23804765">
    <tag k="addr:city" v="Sandgate" />
    <tag k="addr:housenumber" v="2457" />
    <tag k="addr:street" v="West Sandgate Road" />
    <tag k="addr:state" v="VT" />
    <tag k="ref:vcgi:esiteid" v="217228" />
  </node>
  <node id="-376" visible="true" lat="43.16282083" lon="-73.23559939">
    <tag k="addr:city" v="Sandgate" />
    <tag k="addr:housenumber" v="2306" />
    <tag k="addr:street" v="West Sandgate Road" />
    <tag k="addr:state" v="VT" />
    <tag k="ref:vcgi:esiteid" v="217229" />
  </node>
  <node id="-377" visible="true" lat="43.16271615" lon="-73.23270642">
    <tag k="addr:city" v="Sandgate" />
    <tag k="addr:housenumber" v="2157" />
    <tag k="addr:street" v="West Sandgate Road" />
    <tag k="addr:state" v="VT" />
    <tag k="ref:vcgi:esiteid" v="217230" />
  </node>
  <node id="-378" visible="true" lat="43.1584602" lon="-73.22361918">
    <tag k="addr:city" v="Sandgate" />
    <tag k="addr:housenumber" v="1586" />
    <tag k="addr:street" v="West Sandgate Road" />
    <tag k="addr:state" v="VT" />
    <tag k="ref:vcgi:esiteid" v="217231" />
  </node>
  <node id="-379" visible="true" lat="43.15842358" lon="-73.22282483">
    <tag k="addr:city" v="Sandgate" />
    <tag k="addr:housenumber" v="1562" />
    <tag k="addr:street" v="West Sandgate Road" />
    <tag k="addr:state" v="VT" />
    <tag k="ref:vcgi:esiteid" v="217232" />
  </node>
  <node id="-380" visible="true" lat="43.1570964" lon="-73.22072268">
    <tag k="addr:city" v="Sandgate" />
    <tag k="addr:housenumber" v="1420" />
    <tag k="addr:street" v="West Sandgate Road" />
    <tag k="addr:state" v="VT" />
    <tag k="ref:vcgi:esiteid" v="217233" />
  </node>
  <node id="-381" visible="true" lat="43.15674213" lon="-73.2205443">
    <tag k="addr:city" v="Sandgate" />
    <tag k="addr:housenumber" v="1408" />
    <tag k="addr:street" v="West Sandgate Road" />
    <tag k="addr:state" v="VT" />
    <tag k="ref:vcgi:esiteid" v="217234" />
  </node>
  <node id="-382" visible="true" lat="43.15643725" lon="-73.22044535">
    <tag k="addr:city" v="Sandgate" />
    <tag k="addr:housenumber" v="1406" />
    <tag k="addr:street" v="West Sandgate Road" />
    <tag k="addr:state" v="VT" />
    <tag k="ref:vcgi:esiteid" v="217235" />
  </node>
  <node id="-383" visible="true" lat="43.15643693" lon="-73.22149482">
    <tag k="addr:city" v="Sandgate" />
    <tag k="addr:housenumber" v="1419" />
    <tag k="addr:street" v="West Sandgate Road" />
    <tag k="addr:state" v="VT" />
    <tag k="ref:vcgi:esiteid" v="217236" />
  </node>
  <node id="-384" visible="true" lat="43.14146489" lon="-73.20509397">
    <tag k="addr:city" v="Sandgate" />
    <tag k="addr:housenumber" v="2729" />
    <tag k="addr:street" v="Sandgate Road" />
    <tag k="addr:state" v="VT" />
    <tag k="ref:vcgi:esiteid" v="217237" />
  </node>
  <node id="-385" visible="true" lat="43.19917383" lon="-73.19781177">
    <tag k="addr:city" v="Sandgate" />
    <tag k="addr:housenumber" v="3293" />
    <tag k="addr:street" v="Rupert Road" />
    <tag k="addr:state" v="VT" />
    <tag k="ref:vcgi:esiteid" v="217238" />
  </node>
  <node id="-386" visible="true" lat="43.18216685" lon="-73.21233452">
    <tag k="addr:city" v="Sandgate" />
    <tag k="addr:housenumber" v="1823" />
    <tag k="addr:street" v="Rupert Road" />
    <tag k="addr:state" v="VT" />
    <tag k="ref:vcgi:esiteid" v="217239" />
  </node>
  <node id="-387" visible="true" lat="43.16266195" lon="-73.23065152">
    <tag k="addr:city" v="Sandgate" />
    <tag k="addr:housenumber" v="2044" />
    <tag k="addr:street" v="West Sandgate Road" />
    <tag k="addr:state" v="VT" />
    <tag k="ref:vcgi:esiteid" v="217240" />
  </node>
  <node id="-388" visible="true" lat="43.16310019" lon="-73.23868881">
    <tag k="addr:city" v="Sandgate" />
    <tag k="addr:housenumber" v="2472" />
    <tag k="addr:street" v="West Sandgate Road" />
    <tag k="addr:state" v="VT" />
    <tag k="ref:vcgi:esiteid" v="217241" />
  </node>
  <node id="-389" visible="true" lat="43.17319426" lon="-73.22811758">
    <tag k="addr:city" v="Sandgate" />
    <tag k="addr:housenumber" v="759" />
    <tag k="addr:street" v="West Road" />
    <tag k="addr:state" v="VT" />
    <tag k="ref:vcgi:esiteid" v="217242" />
  </node>
  <node id="-390" visible="true" lat="43.13919074" lon="-73.14659794">
    <tag k="addr:city" v="Sandgate" />
    <tag k="addr:housenumber" v="335" />
    <tag k="addr:street" v="Saint Bruno Drive" />
    <tag k="addr:state" v="VT" />
    <tag k="ref:vcgi:esiteid" v="217243" />
  </node>
  <node id="-391" visible="true" lat="43.13686069" lon="-73.15028835">
    <tag k="addr:city" v="Sandgate" />
    <tag k="addr:housenumber" v="591" />
    <tag k="addr:street" v="Saint Bruno Drive" />
    <tag k="addr:state" v="VT" />
    <tag k="ref:vcgi:esiteid" v="217244" />
  </node>
  <node id="-392" visible="true" lat="43.15912257" lon="-73.14894932">
    <tag k="addr:city" v="Sandgate" />
    <tag k="addr:housenumber" v="1800" />
    <tag k="addr:street" v="Beartown Road" />
    <tag k="addr:state" v="VT" />
    <tag k="ref:vcgi:esiteid" v="217245" />
  </node>
  <node id="-393" visible="true" lat="43.12687569" lon="-73.20656668">
    <tag k="addr:city" v="Sandgate" />
    <tag k="addr:housenumber" v="1667" />
    <tag k="addr:street" v="Sandgate Road" />
    <tag k="addr:state" v="VT" />
    <tag k="ref:vcgi:esiteid" v="217246" />
  </node>
  <node id="-394" visible="true" lat="43.13585038" lon="-73.16960257">
    <tag k="addr:city" v="Sandgate" />
    <tag k="addr:housenumber" v="2249" />
    <tag k="addr:street" v="Southeast Corners Road" />
    <tag k="addr:state" v="VT" />
    <tag k="ref:vcgi:esiteid" v="217247" />
  </node>
  <node id="-395" visible="true" lat="43.13607427" lon="-73.16907614">
    <tag k="addr:city" v="Sandgate" />
    <tag k="addr:housenumber" v="2251" />
    <tag k="addr:street" v="Southeast Corners Road" />
    <tag k="addr:state" v="VT" />
    <tag k="ref:vcgi:esiteid" v="217248" />
  </node>
  <node id="-396" visible="true" lat="43.13373638" lon="-73.25494498">
    <tag k="addr:city" v="Sandgate" />
    <tag k="addr:housenumber" v="131" />
    <tag k="addr:street" v="Pantaleon Road" />
    <tag k="addr:state" v="VT" />
    <tag k="ref:vcgi:esiteid" v="217249" />
  </node>
  <node id="-397" visible="true" lat="43.19522571" lon="-73.13334671">
    <tag k="addr:city" v="Sandgate" />
    <tag k="addr:housenumber" v="546" />
    <tag k="addr:street" v="Moffitt Hollow Road" />
    <tag k="addr:state" v="VT" />
    <tag k="ref:vcgi:esiteid" v="217250" />
  </node>
  <node id="-398" visible="true" lat="43.17501799" lon="-73.22635318">
    <tag k="addr:city" v="Sandgate" />
    <tag k="addr:housenumber" v="939" />
    <tag k="addr:street" v="West Road" />
    <tag k="addr:state" v="VT" />
    <tag k="ref:vcgi:esiteid" v="217251" />
  </node>
  <node id="-399" visible="true" lat="43.1544465" lon="-73.2565491">
    <tag k="addr:city" v="Sandgate" />
    <tag k="addr:housenumber" v="3785" />
    <tag k="addr:street" v="West Sandgate Road" />
    <tag k="addr:state" v="VT" />
    <tag k="ref:vcgi:esiteid" v="217252" />
  </node>
  <node id="-400" visible="true" lat="43.16843712" lon="-73.21908945">
    <tag k="addr:city" v="Sandgate" />
    <tag k="addr:housenumber" v="951" />
    <tag k="addr:street" v="Rupert Road" />
    <tag k="addr:state" v="VT" />
    <tag k="ref:vcgi:esiteid" v="217253" />
  </node>
  <node id="-401" visible="true" lat="43.16379721" lon="-73.17995699">
    <tag k="addr:city" v="Sandgate" />
    <tag k="addr:housenumber" v="276" />
    <tag k="addr:street" v="Wilcox Hollow Road" />
    <tag k="addr:state" v="VT" />
    <tag k="ref:vcgi:esiteid" v="217254" />
  </node>
  <node id="-402" visible="true" lat="43.17658813" lon="-73.16485994">
    <tag k="addr:city" v="Sandgate" />
    <tag k="addr:housenumber" v="5969" />
    <tag k="addr:street" v="Sandgate Road" />
    <tag k="addr:state" v="VT" />
    <tag k="ref:vcgi:esiteid" v="217255" />
  </node>
  <node id="-403" visible="true" lat="43.13873785" lon="-73.19980463">
    <tag k="addr:city" v="Sandgate" />
    <tag k="addr:housenumber" v="875" />
    <tag k="addr:street" v="Woodcock Road" />
    <tag k="addr:state" v="VT" />
    <tag k="ref:vcgi:esiteid" v="217256" />
  </node>
  <node id="-404" visible="true" lat="43.13299654" lon="-73.19779815">
    <tag k="addr:city" v="Sandgate" />
    <tag k="addr:housenumber" v="420" />
    <tag k="addr:street" v="Woodcock Road" />
    <tag k="addr:state" v="VT" />
    <tag k="ref:vcgi:esiteid" v="217257" />
  </node>
  <node id="-405" visible="true" lat="43.1341985" lon="-73.18023015">
    <tag k="addr:city" v="Sandgate" />
    <tag k="addr:housenumber" v="1543" />
    <tag k="addr:street" v="Southeast Corners Road" />
    <tag k="addr:state" v="VT" />
    <tag k="ref:vcgi:esiteid" v="311349" />
  </node>
  <node id="-406" visible="true" lat="43.12594126" lon="-73.25493166">
    <tag k="addr:city" v="Sandgate" />
    <tag k="addr:housenumber" v="1356" />
    <tag k="addr:street" v="Chunks Brook Road" />
    <tag k="addr:state" v="VT" />
    <tag k="ref:vcgi:esiteid" v="311350" />
  </node>
  <node id="-407" visible="true" lat="43.16500702" lon="-73.21958756">
    <tag k="addr:city" v="Sandgate" />
    <tag k="addr:housenumber" v="705" />
    <tag k="addr:street" v="Rupert Road" />
    <tag k="addr:state" v="VT" />
    <tag k="ref:vcgi:esiteid" v="311351" />
  </node>
  <node id="-408" visible="true" lat="43.15507987" lon="-73.19315726">
    <tag k="addr:city" v="Sandgate" />
    <tag k="addr:housenumber" v="3701" />
    <tag k="addr:street" v="Sandgate Road" />
    <tag k="addr:state" v="VT" />
    <tag k="ref:vcgi:esiteid" v="311352" />
  </node>
  <node id="-409" visible="true" lat="43.17423997" lon="-73.22399817">
    <tag k="addr:city" v="Sandgate" />
    <tag k="addr:housenumber" v="874" />
    <tag k="addr:street" v="West Road" />
    <tag k="addr:state" v="VT" />
    <tag k="ref:vcgi:esiteid" v="331688" />
  </node>
  <node id="-410" visible="true" lat="43.14771809" lon="-73.22742233">
    <tag k="addr:city" v="Sandgate" />
    <tag k="addr:housenumber" v="771" />
    <tag k="addr:street" v="Tate Hill Road" />
    <tag k="addr:state" v="VT" />
    <tag k="ref:vcgi:esiteid" v="331689" />
  </node>
  <node id="-411" visible="true" lat="43.21199681" lon="-73.22001765">
    <tag k="addr:city" v="Sandgate" />
    <tag k="addr:housenumber" v="4525" />
    <tag k="addr:street" v="Rupert Road" />
    <tag k="addr:state" v="VT" />
    <tag k="ref:vcgi:esiteid" v="331698" />
  </node>
  <node id="-414" visible="true" lat="43.14166823" lon="-73.16403636">
    <tag k="addr:city" v="Sandgate" />
    <tag k="addr:housenumber" v="1725" />
    <tag k="addr:street" v="Hopper Brook Road" />
    <tag k="addr:state" v="VT" />
    <tag k="ref:vcgi:esiteid" v="333324" />
  </node>
  <node id="-415" visible="true" lat="43.14109906" lon="-73.15472376">
    <tag k="addr:city" v="Sandgate" />
    <tag k="addr:housenumber" v="1243" />
    <tag k="addr:street" v="Hopper Brook Road" />
    <tag k="addr:state" v="VT" />
    <tag k="ref:vcgi:esiteid" v="333325" />
  </node>
  <node id="-417" visible="true" lat="43.16215131" lon="-73.18102536">
    <tag k="addr:city" v="Sandgate" />
    <tag k="addr:housenumber" v="168" />
    <tag k="addr:street" v="Stannards Road" />
    <tag k="addr:state" v="VT" />
    <tag k="ref:vcgi:esiteid" v="337054" />
  </node>
  <node id="-418" visible="true" lat="43.1595925" lon="-73.22500422">
    <tag k="addr:city" v="Sandgate" />
    <tag k="addr:housenumber" v="1702" />
    <tag k="addr:street" v="West Sandgate Road" />
    <tag k="addr:state" v="VT" />
    <tag k="ref:vcgi:esiteid" v="340220" />
  </node>
  <node id="-419" visible="true" lat="43.13948941" lon="-73.20525223">
    <tag k="addr:city" v="Sandgate" />
    <tag k="addr:housenumber" v="82" />
    <tag k="addr:street" v="Tudor Road" />
    <tag k="addr:state" v="VT" />
    <tag k="ref:vcgi:esiteid" v="340847" />
  </node>
  <node id="-420" visible="true" lat="43.15919704" lon="-73.22579589">
    <tag k="addr:city" v="Sandgate" />
    <tag k="addr:housenumber" v="1725" />
    <tag k="addr:street" v="West Sandgate Road" />
    <tag k="addr:state" v="VT" />
    <tag k="ref:vcgi:esiteid" v="343677" />
  </node>
  <node id="-421" visible="true" lat="43.18190895" lon="-73.21169603">
    <tag k="addr:city" v="Sandgate" />
    <tag k="addr:housenumber" v="1843" />
    <tag k="addr:street" v="Rupert Road" />
    <tag k="addr:state" v="VT" />
    <tag k="ref:vcgi:esiteid" v="343680" />
  </node>
  <node id="-422" visible="true" lat="43.1292089" lon="-73.25470417">
    <tag k="addr:city" v="Sandgate" />
    <tag k="addr:housenumber" v="23" />
    <tag k="addr:street" v="Pantaleon Road" />
    <tag k="addr:state" v="VT" />
    <tag k="ref:vcgi:esiteid" v="343682" />
  </node>
  <node id="-423" visible="true" lat="43.18853777" lon="-73.13354809">
    <tag k="addr:city" v="Sandgate" />
    <tag k="addr:housenumber" v="7860" />
    <tag k="addr:street" v="Sandgate Road" />
    <tag k="addr:state" v="VT" />
    <tag k="ref:vcgi:esiteid" v="343686" />
  </node>
  <node id="-424" visible="true" lat="43.14763593" lon="-73.199018">
    <tag k="addr:city" v="Sandgate" />
    <tag k="addr:housenumber" v="1431" />
    <tag k="addr:street" v="Woodcock Road" />
    <tag k="addr:state" v="VT" />
    <tag k="ref:vcgi:esiteid" v="345938" />
  </node>
  <node id="-425" visible="true" lat="43.15436935" lon="-73.25997699">
    <tag k="addr:city" v="Sandgate" />
    <tag k="addr:housenumber" v="54" />
    <tag k="addr:street" v="Weldon Drive" />
    <tag k="addr:state" v="VT" />
    <tag k="ref:vcgi:esiteid" v="365358" />
  </node>
  <node id="-426" visible="true" lat="43.16662557" lon="-73.1758669">
    <tag k="addr:city" v="Sandgate" />
    <tag k="addr:housenumber" v="5057" />
    <tag k="addr:street" v="Sandgate Road" />
    <tag k="addr:state" v="VT" />
    <tag k="ref:vcgi:esiteid" v="450124" />
  </node>
  <node id="-427" visible="true" lat="43.14851795" lon="-73.17363454">
    <tag k="addr:city" v="Sandgate" />
    <tag k="addr:housenumber" v="697" />
    <tag k="addr:street" v="Hamilton Hollow Road" />
    <tag k="addr:state" v="VT" />
    <tag k="ref:vcgi:esiteid" v="450198" />
  </node>
  <node id="-428" visible="true" lat="43.14717364" lon="-73.17585737">
    <tag k="addr:city" v="Sandgate" />
    <tag k="addr:housenumber" v="845" />
    <tag k="addr:street" v="Hamilton Hollow Road" />
    <tag k="addr:state" v="VT" />
    <tag k="ref:vcgi:esiteid" v="450199" />
  </node>
  <node id="-429" visible="true" lat="43.16253651" lon="-73.21676344">
    <tag k="addr:city" v="Sandgate" />
    <tag k="addr:housenumber" v="668" />
    <tag k="addr:street" v="Rupert Road" />
    <tag k="addr:state" v="VT" />
    <tag k="ref:vcgi:esiteid" v="450200" />
  </node>
  <node id="-431" visible="true" lat="43.18989971" lon="-73.13210641">
    <tag k="addr:city" v="Sandgate" />
    <tag k="addr:housenumber" v="90" />
    <tag k="addr:street" v="Woodsgift Lane" />
    <tag k="addr:state" v="VT" />
    <tag k="ref:vcgi:esiteid" v="450202" />
  </node>
  <node id="-432" visible="true" lat="43.20104603" lon="-73.1954916">
    <tag k="addr:city" v="Sandgate" />
    <tag k="addr:housenumber" v="3483" />
    <tag k="addr:street" v="Rupert Road" />
    <tag k="addr:state" v="VT" />
    <tag k="ref:vcgi:esiteid" v="450736" />
  </node>
  <node id="-434" visible="true" lat="43.18162991" lon="-73.15039643">
    <tag k="addr:city" v="Sandgate" />
    <tag k="addr:housenumber" v="6839" />
    <tag k="addr:street" v="Sandgate Road" />
    <tag k="addr:state" v="VT" />
    <tag k="ref:vcgi:esiteid" v="610453" />
  </node>
  <node id="-435" visible="true" lat="43.20645296" lon="-73.19775666">
    <tag k="addr:city" v="Sandgate" />
    <tag k="addr:housenumber" v="3852" />
    <tag k="addr:street" v="Rupert Road" />
    <tag k="addr:state" v="VT" />
    <tag k="ref:vcgi:esiteid" v="611901" />
  </node>
  <node id="-439" visible="true" lat="43.18876987" lon="-73.13228912">
    <tag k="addr:city" v="Sandgate" />
    <tag k="addr:housenumber" v="7920" />
    <tag k="addr:street" v="Sandgate Road" />
    <tag k="addr:state" v="VT" />
    <tag k="ref:vcgi:esiteid" v="613603" />
  </node>
  <node id="-440" visible="true" lat="43.17058922" lon="-73.16896071">
    <tag k="addr:city" v="Sandgate" />
    <tag k="addr:housenumber" v="5534" />
    <tag k="addr:street" v="Sandgate Road" />
    <tag k="addr:state" v="VT" />
    <tag k="ref:vcgi:esiteid" v="617581" />
  </node>
  <node id="-443" visible="true" lat="43.15525087" lon="-73.25426761">
    <tag k="addr:city" v="Sandgate" />
    <tag k="addr:housenumber" v="3767" />
    <tag k="addr:street" v="West Sandgate Road" />
    <tag k="addr:state" v="VT" />
    <tag k="ref:vcgi:esiteid" v="620885" />
  </node>
  <node id="-453" visible="true" lat="43.14679943" lon="-73.20025306">
    <tag k="addr:city" v="Sandgate" />
    <tag k="addr:housenumber" v="3130" />
    <tag k="addr:street" v="Sandgate Road" />
    <tag k="addr:state" v="VT" />
    <tag k="ref:vcgi:esiteid" v="758185" />
  </node>
  <node id="-454" visible="true" lat="43.16287363" lon="-73.2330903">
    <tag k="addr:city" v="Sandgate" />
    <tag k="addr:housenumber" v="2185" />
    <tag k="addr:street" v="West Sandgate Road" />
    <tag k="addr:state" v="VT" />
    <tag k="ref:vcgi:esiteid" v="758391" />
  </node>
  <node id="-455" visible="true" lat="43.17885484" lon="-73.17793437">
    <tag k="addr:city" v="Sandgate" />
    <tag k="addr:housenumber" v="762" />
    <tag k="addr:street" v="Wuerslin Road" />
    <tag k="addr:state" v="VT" />
    <tag k="ref:vcgi:esiteid" v="763450" />
  </node>
  <node id="-456" visible="true" lat="43.16014664" lon="-73.22265119">
    <tag k="addr:city" v="Sandgate" />
    <tag k="addr:housenumber" v="81" />
    <tag k="addr:street" v="Rupert Road" />
    <tag k="addr:state" v="VT" />
    <tag k="ref:vcgi:esiteid" v="764011" />
  </node>
  <node id="-457" visible="true" lat="43.20171115" lon="-73.13823672">
    <tag k="addr:city" v="Sandgate" />
    <tag k="addr:housenumber" v="1211" />
    <tag k="addr:street" v="Moffitt Hollow Road" />
    <tag k="addr:state" v="VT" />
    <tag k="ref:vcgi:esiteid" v="764012" />
  </node>
  <node id="-458" visible="true" lat="43.20359789" lon="-73.14203272">
    <tag k="addr:city" v="Sandgate" />
    <tag k="addr:housenumber" v="1440" />
    <tag k="addr:street" v="Moffitt Hollow Road" />
    <tag k="addr:state" v="VT" />
    <tag k="ref:vcgi:esiteid" v="764013" />
  </node>
  <node id="-459" visible="true" lat="43.15549948" lon="-73.25830892">
    <tag k="addr:city" v="Sandgate" />
    <tag k="addr:housenumber" v="3769" />
    <tag k="addr:street" v="West Sandgate Road" />
    <tag k="addr:state" v="VT" />
    <tag k="ref:vcgi:esiteid" v="1050305" />
  </node>
</osm>
