<?xml version="1.0" encoding="UTF-8"?>
<osm version="0.6" generator="JOSM">
  <node id="-100" visible="true" lat="43.5739493" lon="-72.9092453">
    <tag k="addr:city" v="Shrewsbury" />
    <tag k="addr:housenumber" v="1001" />
    <tag k="addr:street" v="North Branch Road" />
    <tag k="addr:state" v="VT" />
    <tag k="ref:vcgi:esiteid" v="153831" />
  </node>
  <node id="-101" visible="true" lat="43.48219238" lon="-72.85285459">
    <tag k="addr:city" v="Shrewsbury" />
    <tag k="addr:housenumber" v="131" />
    <tag k="addr:street" v="Lushus Acres Lane" />
    <tag k="addr:state" v="VT" />
    <tag k="ref:vcgi:esiteid" v="170981" />
  </node>
  <node id="-102" visible="true" lat="43.48259492" lon="-72.85213359">
    <tag k="addr:city" v="Shrewsbury" />
    <tag k="addr:housenumber" v="150" />
    <tag k="addr:street" v="Lushus Acres Lane" />
    <tag k="addr:state" v="VT" />
    <tag k="ref:vcgi:esiteid" v="226219" />
  </node>
  <node id="-103" visible="true" lat="43.5736119" lon="-72.90769259">
    <tag k="addr:city" v="Shrewsbury" />
    <tag k="addr:housenumber" v="958" />
    <tag k="addr:street" v="North Branch Road" />
    <tag k="addr:state" v="VT" />
    <tag k="ref:vcgi:esiteid" v="226220" />
  </node>
  <node id="-104" visible="true" lat="43.56696504" lon="-72.89833695">
    <tag k="addr:city" v="Shrewsbury" />
    <tag k="addr:housenumber" v="460" />
    <tag k="addr:street" v="Moonshine Lane" />
    <tag k="addr:state" v="VT" />
    <tag k="ref:vcgi:esiteid" v="226221" />
  </node>
  <node id="-105" visible="true" lat="43.56611223" lon="-72.92428709">
    <tag k="addr:city" v="Shrewsbury" />
    <tag k="addr:housenumber" v="3750" />
    <tag k="addr:street" v="Cold River Road" />
    <tag k="addr:state" v="VT" />
    <tag k="ref:vcgi:esiteid" v="226222" />
  </node>
  <node id="-106" visible="true" lat="43.56572557" lon="-72.89713275">
    <tag k="addr:city" v="Shrewsbury" />
    <tag k="addr:housenumber" v="370" />
    <tag k="addr:street" v="Moonshine Lane" />
    <tag k="addr:state" v="VT" />
    <tag k="ref:vcgi:esiteid" v="226223" />
  </node>
  <node id="-107" visible="true" lat="43.56458085" lon="-72.92424628">
    <tag k="addr:city" v="Shrewsbury" />
    <tag k="addr:housenumber" v="3678" />
    <tag k="addr:street" v="Cold River Road" />
    <tag k="addr:state" v="VT" />
    <tag k="ref:vcgi:esiteid" v="226224" />
  </node>
  <node id="-108" visible="true" lat="43.5643968" lon="-72.89902317">
    <tag k="addr:city" v="Shrewsbury" />
    <tag k="addr:housenumber" v="246" />
    <tag k="addr:street" v="Moonshine Lane" />
    <tag k="addr:state" v="VT" />
    <tag k="ref:vcgi:esiteid" v="226225" />
  </node>
  <node id="-109" visible="true" lat="43.56388138" lon="-72.92667582">
    <tag k="addr:city" v="Shrewsbury" />
    <tag k="addr:housenumber" v="3480" />
    <tag k="addr:street" v="Cold River Road" />
    <tag k="addr:state" v="VT" />
    <tag k="ref:vcgi:esiteid" v="226226" />
  </node>
  <node id="-110" visible="true" lat="43.56311416" lon="-72.91254425">
    <tag k="addr:city" v="Shrewsbury" />
    <tag k="addr:housenumber" v="647" />
    <tag k="addr:street" v="Upper Cold River Road" />
    <tag k="addr:state" v="VT" />
    <tag k="ref:vcgi:esiteid" v="226227" />
  </node>
  <node id="-111" visible="true" lat="43.56250624" lon="-72.92799548">
    <tag k="addr:city" v="Shrewsbury" />
    <tag k="addr:housenumber" v="9" />
    <tag k="addr:street" v="Wilderness Road" />
    <tag k="addr:state" v="VT" />
    <tag k="ref:vcgi:esiteid" v="226228" />
  </node>
  <node id="-112" visible="true" lat="43.56221945" lon="-72.91078304">
    <tag k="addr:city" v="Shrewsbury" />
    <tag k="addr:housenumber" v="713" />
    <tag k="addr:street" v="Upper Cold River Road" />
    <tag k="addr:state" v="VT" />
    <tag k="ref:vcgi:esiteid" v="226230" />
  </node>
  <node id="-113" visible="true" lat="43.56200962" lon="-72.93231622">
    <tag k="addr:city" v="Shrewsbury" />
    <tag k="addr:housenumber" v="3228" />
    <tag k="addr:street" v="Cold River Road" />
    <tag k="addr:state" v="VT" />
    <tag k="ref:vcgi:esiteid" v="226231" />
  </node>
  <node id="-114" visible="true" lat="43.56211748" lon="-72.9037755">
    <tag k="addr:city" v="Shrewsbury" />
    <tag k="addr:housenumber" v="1061" />
    <tag k="addr:street" v="Upper Cold River Road" />
    <tag k="addr:state" v="VT" />
    <tag k="ref:vcgi:esiteid" v="226232" />
  </node>
  <node id="-115" visible="true" lat="43.56180145" lon="-72.91166889">
    <tag k="addr:city" v="Shrewsbury" />
    <tag k="addr:housenumber" v="694" />
    <tag k="addr:street" v="Upper Cold River Road" />
    <tag k="addr:state" v="VT" />
    <tag k="ref:vcgi:esiteid" v="226233" />
  </node>
  <node id="-116" visible="true" lat="43.56153111" lon="-72.92849792">
    <tag k="addr:city" v="Shrewsbury" />
    <tag k="addr:housenumber" v="111" />
    <tag k="addr:street" v="Wilderness Road" />
    <tag k="addr:state" v="VT" />
    <tag k="ref:vcgi:esiteid" v="226234" />
  </node>
  <node id="-117" visible="true" lat="43.56105617" lon="-72.91878576">
    <tag k="addr:city" v="Shrewsbury" />
    <tag k="addr:housenumber" v="4470" />
    <tag k="addr:street" v="Cold River Road" />
    <tag k="addr:state" v="VT" />
    <tag k="ref:vcgi:esiteid" v="226236" />
  </node>
  <node id="-118" visible="true" lat="43.56151054" lon="-72.90505622">
    <tag k="addr:city" v="Shrewsbury" />
    <tag k="addr:housenumber" v="1049" />
    <tag k="addr:street" v="Upper Cold River Road" />
    <tag k="addr:state" v="VT" />
    <tag k="ref:vcgi:esiteid" v="226237" />
  </node>
  <node id="-119" visible="true" lat="43.56031455" lon="-72.93015413">
    <tag k="addr:city" v="Shrewsbury" />
    <tag k="addr:housenumber" v="217" />
    <tag k="addr:street" v="Wilderness Road" />
    <tag k="addr:state" v="VT" />
    <tag k="ref:vcgi:esiteid" v="226238" />
  </node>
  <node id="-120" visible="true" lat="43.55996107" lon="-72.88858049">
    <tag k="addr:city" v="Shrewsbury" />
    <tag k="addr:housenumber" v="1871" />
    <tag k="addr:street" v="Upper Cold River Road" />
    <tag k="addr:state" v="VT" />
    <tag k="ref:vcgi:esiteid" v="226239" />
  </node>
  <node id="-121" visible="true" lat="43.56008247" lon="-72.91664038">
    <tag k="addr:city" v="Shrewsbury" />
    <tag k="addr:housenumber" v="4635" />
    <tag k="addr:street" v="Cold River Road" />
    <tag k="addr:state" v="VT" />
    <tag k="ref:vcgi:esiteid" v="226240" />
  </node>
  <node id="-122" visible="true" lat="43.55968756" lon="-72.89391429">
    <tag k="addr:city" v="Shrewsbury" />
    <tag k="addr:housenumber" v="1598" />
    <tag k="addr:street" v="Upper Cold River Road" />
    <tag k="addr:state" v="VT" />
    <tag k="ref:vcgi:esiteid" v="226241" />
  </node>
  <node id="-123" visible="true" lat="43.55997313" lon="-72.89249618">
    <tag k="addr:city" v="Shrewsbury" />
    <tag k="addr:housenumber" v="1657" />
    <tag k="addr:street" v="Upper Cold River Road" />
    <tag k="addr:state" v="VT" />
    <tag k="ref:vcgi:esiteid" v="226242" />
  </node>
  <node id="-124" visible="true" lat="43.55954038" lon="-72.88591552">
    <tag k="addr:city" v="Shrewsbury" />
    <tag k="addr:housenumber" v="2059" />
    <tag k="addr:street" v="Upper Cold River Road" />
    <tag k="addr:state" v="VT" />
    <tag k="ref:vcgi:esiteid" v="226243" />
  </node>
  <node id="-125" visible="true" lat="43.55941701" lon="-72.91860761">
    <tag k="addr:city" v="Shrewsbury" />
    <tag k="addr:housenumber" v="77" />
    <tag k="addr:street" v="Wallace Road" />
    <tag k="addr:state" v="VT" />
    <tag k="ref:vcgi:esiteid" v="226244" />
  </node>
  <node id="-126" visible="true" lat="43.55945144" lon="-72.91429108">
    <tag k="addr:city" v="Shrewsbury" />
    <tag k="addr:housenumber" v="4755" />
    <tag k="addr:street" v="Cold River Road" />
    <tag k="addr:state" v="VT" />
    <tag k="ref:vcgi:esiteid" v="226245" />
  </node>
  <node id="-127" visible="true" lat="43.55884677" lon="-72.9160295">
    <tag k="addr:city" v="Shrewsbury" />
    <tag k="addr:housenumber" v="4660" />
    <tag k="addr:street" v="Cold River Road" />
    <tag k="addr:state" v="VT" />
    <tag k="ref:vcgi:esiteid" v="226246" />
  </node>
  <node id="-128" visible="true" lat="43.55907944" lon="-72.89122329">
    <tag k="addr:city" v="Shrewsbury" />
    <tag k="addr:housenumber" v="1722" />
    <tag k="addr:street" v="Upper Cold River Road" />
    <tag k="addr:state" v="VT" />
    <tag k="ref:vcgi:esiteid" v="226247" />
  </node>
  <node id="-129" visible="true" lat="43.55899025" lon="-72.91505395">
    <tag k="addr:city" v="Shrewsbury" />
    <tag k="addr:housenumber" v="4722" />
    <tag k="addr:street" v="Cold River Road" />
    <tag k="addr:state" v="VT" />
    <tag k="ref:vcgi:esiteid" v="226248" />
  </node>
  <node id="-130" visible="true" lat="43.55892846" lon="-72.9127885">
    <tag k="addr:city" v="Shrewsbury" />
    <tag k="addr:housenumber" v="4817" />
    <tag k="addr:street" v="Cold River Road" />
    <tag k="addr:state" v="VT" />
    <tag k="ref:vcgi:esiteid" v="226249" />
  </node>
  <node id="-131" visible="true" lat="43.55883296" lon="-72.93171481">
    <tag k="addr:city" v="Shrewsbury" />
    <tag k="addr:housenumber" v="342" />
    <tag k="addr:street" v="Wilderness Road" />
    <tag k="addr:state" v="VT" />
    <tag k="ref:vcgi:esiteid" v="226250" />
  </node>
  <node id="-132" visible="true" lat="43.55760472" lon="-72.91424069">
    <tag k="addr:city" v="Shrewsbury" />
    <tag k="addr:housenumber" v="4816" />
    <tag k="addr:street" v="Cold River Road" />
    <tag k="addr:state" v="VT" />
    <tag k="ref:vcgi:esiteid" v="226251" />
  </node>
  <node id="-133" visible="true" lat="43.55829354" lon="-72.88841099">
    <tag k="addr:city" v="Shrewsbury" />
    <tag k="addr:housenumber" v="1892" />
    <tag k="addr:street" v="Upper Cold River Road" />
    <tag k="addr:state" v="VT" />
    <tag k="ref:vcgi:esiteid" v="226252" />
  </node>
  <node id="-134" visible="true" lat="43.5582876" lon="-72.88714128">
    <tag k="addr:city" v="Shrewsbury" />
    <tag k="addr:housenumber" v="1951" />
    <tag k="addr:street" v="Upper Cold River Road" />
    <tag k="addr:state" v="VT" />
    <tag k="ref:vcgi:esiteid" v="226253" />
  </node>
  <node id="-135" visible="true" lat="43.55794143" lon="-72.92156219">
    <tag k="addr:city" v="Shrewsbury" />
    <tag k="addr:housenumber" v="321" />
    <tag k="addr:street" v="Wallace Road" />
    <tag k="addr:state" v="VT" />
    <tag k="ref:vcgi:esiteid" v="226254" />
  </node>
  <node id="-136" visible="true" lat="43.55793654" lon="-72.89435704">
    <tag k="addr:city" v="Shrewsbury" />
    <tag k="addr:housenumber" v="201" />
    <tag k="addr:street" v="Violet Page Road" />
    <tag k="addr:state" v="VT" />
    <tag k="ref:vcgi:esiteid" v="226255" />
  </node>
  <node id="-137" visible="true" lat="43.55796896" lon="-72.88773044">
    <tag k="addr:city" v="Shrewsbury" />
    <tag k="addr:housenumber" v="1944" />
    <tag k="addr:street" v="Upper Cold River Road" />
    <tag k="addr:state" v="VT" />
    <tag k="ref:vcgi:esiteid" v="226256" />
  </node>
  <node id="-138" visible="true" lat="43.55800059" lon="-72.9311614">
    <tag k="addr:city" v="Shrewsbury" />
    <tag k="addr:housenumber" v="413" />
    <tag k="addr:street" v="Wilderness Road" />
    <tag k="addr:state" v="VT" />
    <tag k="ref:vcgi:esiteid" v="226257" />
  </node>
  <node id="-139" visible="true" lat="43.55752944" lon="-72.9199829">
    <tag k="addr:city" v="Shrewsbury" />
    <tag k="addr:housenumber" v="209" />
    <tag k="addr:street" v="Wallace Road" />
    <tag k="addr:state" v="VT" />
    <tag k="ref:vcgi:esiteid" v="226258" />
  </node>
  <node id="-140" visible="true" lat="43.55734902" lon="-72.88632948">
    <tag k="addr:city" v="Shrewsbury" />
    <tag k="addr:housenumber" v="2020" />
    <tag k="addr:street" v="Upper Cold River Road" />
    <tag k="addr:state" v="VT" />
    <tag k="ref:vcgi:esiteid" v="226259" />
  </node>
  <node id="-141" visible="true" lat="43.55710728" lon="-72.88425675">
    <tag k="addr:city" v="Shrewsbury" />
    <tag k="addr:housenumber" v="2115" />
    <tag k="addr:street" v="Upper Cold River Road" />
    <tag k="addr:state" v="VT" />
    <tag k="ref:vcgi:esiteid" v="226260" />
  </node>
  <node id="-142" visible="true" lat="43.55681821" lon="-72.88291636">
    <tag k="addr:city" v="Shrewsbury" />
    <tag k="addr:housenumber" v="2183" />
    <tag k="addr:street" v="Upper Cold River Road" />
    <tag k="addr:state" v="VT" />
    <tag k="ref:vcgi:esiteid" v="226261" />
  </node>
  <node id="-143" visible="true" lat="43.55649563" lon="-72.87877873">
    <tag k="addr:city" v="Shrewsbury" />
    <tag k="addr:housenumber" v="2373" />
    <tag k="addr:street" v="Upper Cold River Road" />
    <tag k="addr:state" v="VT" />
    <tag k="ref:vcgi:esiteid" v="226262" />
  </node>
  <node id="-144" visible="true" lat="43.55650747" lon="-72.87585064">
    <tag k="addr:city" v="Shrewsbury" />
    <tag k="addr:housenumber" v="2451" />
    <tag k="addr:street" v="Upper Cold River Road" />
    <tag k="addr:state" v="VT" />
    <tag k="ref:vcgi:esiteid" v="226263" />
  </node>
  <node id="-145" visible="true" lat="43.55623925" lon="-72.93076882">
    <tag k="addr:city" v="Shrewsbury" />
    <tag k="addr:housenumber" v="47" />
    <tag k="addr:street" v="Nelson Road" />
    <tag k="addr:state" v="VT" />
    <tag k="ref:vcgi:esiteid" v="226264" />
  </node>
  <node id="-146" visible="true" lat="43.55613933" lon="-72.88186589">
    <tag k="addr:city" v="Shrewsbury" />
    <tag k="addr:housenumber" v="2252" />
    <tag k="addr:street" v="Upper Cold River Road" />
    <tag k="addr:state" v="VT" />
    <tag k="ref:vcgi:esiteid" v="226265" />
  </node>
  <node id="-147" visible="true" lat="43.55593363" lon="-72.90888997">
    <tag k="addr:city" v="Shrewsbury" />
    <tag k="addr:housenumber" v="5110" />
    <tag k="addr:street" v="Cold River Road" />
    <tag k="addr:state" v="VT" />
    <tag k="ref:vcgi:esiteid" v="226266" />
  </node>
  <node id="-148" visible="true" lat="43.55585848" lon="-72.90731135">
    <tag k="addr:city" v="Shrewsbury" />
    <tag k="addr:housenumber" v="5235" />
    <tag k="addr:street" v="Cold River Road" />
    <tag k="addr:state" v="VT" />
    <tag k="ref:vcgi:esiteid" v="226267" />
  </node>
  <node id="-149" visible="true" lat="43.55563677" lon="-72.83112611">
    <tag k="addr:city" v="Shrewsbury" />
    <tag k="addr:housenumber" v="1004" />
    <tag k="addr:street" v="Coldham Road" />
    <tag k="addr:state" v="VT" />
    <tag k="ref:vcgi:esiteid" v="226268" />
  </node>
  <node id="-150" visible="true" lat="43.55536524" lon="-72.87769225">
    <tag k="addr:city" v="Shrewsbury" />
    <tag k="addr:housenumber" v="2459" />
    <tag k="addr:street" v="Upper Cold River Road" />
    <tag k="addr:state" v="VT" />
    <tag k="ref:vcgi:esiteid" v="226269" />
  </node>
  <node id="-151" visible="true" lat="43.55507217" lon="-72.92858832">
    <tag k="addr:city" v="Shrewsbury" />
    <tag k="addr:housenumber" v="174" />
    <tag k="addr:street" v="Nelson Road" />
    <tag k="addr:state" v="VT" />
    <tag k="ref:vcgi:esiteid" v="226270" />
  </node>
  <node id="-152" visible="true" lat="43.55461606" lon="-72.93092321">
    <tag k="addr:city" v="Shrewsbury" />
    <tag k="addr:housenumber" v="52" />
    <tag k="addr:street" v="Nelson Road" />
    <tag k="addr:state" v="VT" />
    <tag k="ref:vcgi:esiteid" v="226271" />
  </node>
  <node id="-153" visible="true" lat="43.55433908" lon="-72.90696255">
    <tag k="addr:city" v="Shrewsbury" />
    <tag k="addr:housenumber" v="5290" />
    <tag k="addr:street" v="Cold River Road" />
    <tag k="addr:state" v="VT" />
    <tag k="ref:vcgi:esiteid" v="226272" />
  </node>
  <node id="-154" visible="true" lat="43.55444237" lon="-72.92823397">
    <tag k="addr:city" v="Shrewsbury" />
    <tag k="addr:housenumber" v="741" />
    <tag k="addr:street" v="Wilderness Road" />
    <tag k="addr:state" v="VT" />
    <tag k="ref:vcgi:esiteid" v="226273" />
  </node>
  <node id="-155" visible="true" lat="43.55350994" lon="-72.93144753">
    <tag k="addr:city" v="Shrewsbury" />
    <tag k="addr:housenumber" v="703" />
    <tag k="addr:street" v="Wilderness Road" />
    <tag k="addr:state" v="VT" />
    <tag k="ref:vcgi:esiteid" v="226274" />
  </node>
  <node id="-156" visible="true" lat="43.55271174" lon="-72.87564089">
    <tag k="addr:city" v="Shrewsbury" />
    <tag k="addr:housenumber" v="2646" />
    <tag k="addr:street" v="Upper Cold River Road" />
    <tag k="addr:state" v="VT" />
    <tag k="ref:vcgi:esiteid" v="226275" />
  </node>
  <node id="-157" visible="true" lat="43.55222702" lon="-72.90041351">
    <tag k="addr:city" v="Shrewsbury" />
    <tag k="addr:housenumber" v="5640" />
    <tag k="addr:street" v="Cold River Road" />
    <tag k="addr:state" v="VT" />
    <tag k="ref:vcgi:esiteid" v="226276" />
  </node>
  <node id="-158" visible="true" lat="43.55195238" lon="-72.87523759">
    <tag k="addr:city" v="Shrewsbury" />
    <tag k="addr:housenumber" v="883" />
    <tag k="addr:street" v="Wilmouth Hill Road" />
    <tag k="addr:state" v="VT" />
    <tag k="ref:vcgi:esiteid" v="226277" />
  </node>
  <node id="-159" visible="true" lat="43.55173149" lon="-72.89597758">
    <tag k="addr:city" v="Shrewsbury" />
    <tag k="addr:housenumber" v="5857" />
    <tag k="addr:street" v="Cold River Road" />
    <tag k="addr:state" v="VT" />
    <tag k="ref:vcgi:esiteid" v="226278" />
  </node>
  <node id="-160" visible="true" lat="43.55159378" lon="-72.89606475">
    <tag k="addr:city" v="Shrewsbury" />
    <tag k="addr:housenumber" v="5863" />
    <tag k="addr:street" v="Cold River Road" />
    <tag k="addr:state" v="VT" />
    <tag k="ref:vcgi:esiteid" v="226279" />
  </node>
  <node id="-161" visible="true" lat="43.55175524" lon="-72.8969446">
    <tag k="addr:city" v="Shrewsbury" />
    <tag k="addr:housenumber" v="5831" />
    <tag k="addr:street" v="Cold River Road" />
    <tag k="addr:state" v="VT" />
    <tag k="ref:vcgi:esiteid" v="226280" />
  </node>
  <node id="-162" visible="true" lat="43.55162522" lon="-72.87037913">
    <tag k="addr:city" v="Shrewsbury" />
    <tag k="addr:housenumber" v="2929" />
    <tag k="addr:street" v="Upper Cold River Road" />
    <tag k="addr:state" v="VT" />
    <tag k="ref:vcgi:esiteid" v="226281" />
  </node>
  <node id="-163" visible="true" lat="43.55126307" lon="-72.93041056">
    <tag k="addr:city" v="Shrewsbury" />
    <tag k="addr:housenumber" v="905" />
    <tag k="addr:street" v="Wilderness Road" />
    <tag k="addr:state" v="VT" />
    <tag k="ref:vcgi:esiteid" v="226282" />
  </node>
  <node id="-164" visible="true" lat="43.5510861" lon="-72.89535803">
    <tag k="addr:city" v="Shrewsbury" />
    <tag k="addr:housenumber" v="5917" />
    <tag k="addr:street" v="Cold River Road" />
    <tag k="addr:state" v="VT" />
    <tag k="ref:vcgi:esiteid" v="226283" />
  </node>
  <node id="-165" visible="true" lat="43.55098383" lon="-72.89691343">
    <tag k="addr:city" v="Shrewsbury" />
    <tag k="addr:housenumber" v="5872" />
    <tag k="addr:street" v="Cold River Road" />
    <tag k="addr:state" v="VT" />
    <tag k="ref:vcgi:esiteid" v="226284" />
  </node>
  <node id="-166" visible="true" lat="43.55064392" lon="-72.8946228">
    <tag k="addr:city" v="Shrewsbury" />
    <tag k="addr:housenumber" v="5953" />
    <tag k="addr:street" v="Cold River Road" />
    <tag k="addr:state" v="VT" />
    <tag k="ref:vcgi:esiteid" v="226285" />
  </node>
  <node id="-167" visible="true" lat="43.55066244" lon="-72.85431399">
    <tag k="addr:city" v="Shrewsbury" />
    <tag k="addr:housenumber" v="3773" />
    <tag k="addr:street" v="Upper Cold River Road" />
    <tag k="addr:state" v="VT" />
    <tag k="ref:vcgi:esiteid" v="226286" />
  </node>
  <node id="-168" visible="true" lat="43.55021983" lon="-72.86148163">
    <tag k="addr:city" v="Shrewsbury" />
    <tag k="addr:housenumber" v="3423" />
    <tag k="addr:street" v="Upper Cold River Road" />
    <tag k="addr:state" v="VT" />
    <tag k="ref:vcgi:esiteid" v="226287" />
  </node>
  <node id="-169" visible="true" lat="43.54990328" lon="-72.86041829">
    <tag k="addr:city" v="Shrewsbury" />
    <tag k="addr:housenumber" v="3448" />
    <tag k="addr:street" v="Upper Cold River Road" />
    <tag k="addr:state" v="VT" />
    <tag k="ref:vcgi:esiteid" v="226288" />
  </node>
  <node id="-170" visible="true" lat="43.54964712" lon="-72.87469123">
    <tag k="addr:city" v="Shrewsbury" />
    <tag k="addr:housenumber" v="711" />
    <tag k="addr:street" v="Wilmouth Hill Road" />
    <tag k="addr:state" v="VT" />
    <tag k="ref:vcgi:esiteid" v="226289" />
  </node>
  <node id="-171" visible="true" lat="43.54946524" lon="-72.89309314">
    <tag k="addr:city" v="Shrewsbury" />
    <tag k="addr:housenumber" v="6052" />
    <tag k="addr:street" v="Cold River Road" />
    <tag k="addr:state" v="VT" />
    <tag k="ref:vcgi:esiteid" v="226290" />
  </node>
  <node id="-172" visible="true" lat="43.54923604" lon="-72.92969821">
    <tag k="addr:city" v="Shrewsbury" />
    <tag k="addr:housenumber" v="1059" />
    <tag k="addr:street" v="Wilderness Road" />
    <tag k="addr:state" v="VT" />
    <tag k="ref:vcgi:esiteid" v="226291" />
  </node>
  <node id="-173" visible="true" lat="43.54922925" lon="-72.89423738">
    <tag k="addr:city" v="Shrewsbury" />
    <tag k="addr:housenumber" v="5998" />
    <tag k="addr:street" v="Cold River Road" />
    <tag k="addr:state" v="VT" />
    <tag k="ref:vcgi:esiteid" v="226292" />
  </node>
  <node id="-174" visible="true" lat="43.54910439" lon="-72.89082621">
    <tag k="addr:city" v="Shrewsbury" />
    <tag k="addr:housenumber" v="6180" />
    <tag k="addr:street" v="Cold River Road" />
    <tag k="addr:state" v="VT" />
    <tag k="ref:vcgi:esiteid" v="226293" />
  </node>
  <node id="-175" visible="true" lat="43.54916763" lon="-72.81806945">
    <tag k="addr:city" v="Shrewsbury" />
    <tag k="addr:housenumber" v="479" />
    <tag k="addr:street" v="Tin Shanty Road" />
    <tag k="addr:state" v="VT" />
    <tag k="ref:vcgi:esiteid" v="226294" />
  </node>
  <node id="-176" visible="true" lat="43.5488276" lon="-72.89053551">
    <tag k="addr:city" v="Shrewsbury" />
    <tag k="addr:housenumber" v="6206" />
    <tag k="addr:street" v="Cold River Road" />
    <tag k="addr:state" v="VT" />
    <tag k="ref:vcgi:esiteid" v="226295" />
  </node>
  <node id="-177" visible="true" lat="43.54865618" lon="-72.93067132">
    <tag k="addr:city" v="Shrewsbury" />
    <tag k="addr:housenumber" v="1052" />
    <tag k="addr:street" v="Wilderness Road" />
    <tag k="addr:state" v="VT" />
    <tag k="ref:vcgi:esiteid" v="226296" />
  </node>
  <node id="-178" visible="true" lat="43.54842807" lon="-72.87415107">
    <tag k="addr:city" v="Shrewsbury" />
    <tag k="addr:housenumber" v="631" />
    <tag k="addr:street" v="Wilmouth Hill Road" />
    <tag k="addr:state" v="VT" />
    <tag k="ref:vcgi:esiteid" v="226297" />
  </node>
  <node id="-179" visible="true" lat="43.54832867" lon="-72.89287853">
    <tag k="addr:city" v="Shrewsbury" />
    <tag k="addr:housenumber" v="6136" />
    <tag k="addr:street" v="Cold River Road" />
    <tag k="addr:state" v="VT" />
    <tag k="ref:vcgi:esiteid" v="226298" />
  </node>
  <node id="-180" visible="true" lat="43.548042" lon="-72.88932506">
    <tag k="addr:city" v="Shrewsbury" />
    <tag k="addr:housenumber" v="6286" />
    <tag k="addr:street" v="Cold River Road" />
    <tag k="addr:state" v="VT" />
    <tag k="ref:vcgi:esiteid" v="226299" />
  </node>
  <node id="-181" visible="true" lat="43.54759176" lon="-72.8885566">
    <tag k="addr:city" v="Shrewsbury" />
    <tag k="addr:housenumber" v="6324" />
    <tag k="addr:street" v="Cold River Road" />
    <tag k="addr:state" v="VT" />
    <tag k="ref:vcgi:esiteid" v="226300" />
  </node>
  <node id="-182" visible="true" lat="43.54758527" lon="-72.81626178">
    <tag k="addr:city" v="Shrewsbury" />
    <tag k="addr:housenumber" v="444" />
    <tag k="addr:street" v="Tin Shanty Road" />
    <tag k="addr:state" v="VT" />
    <tag k="ref:vcgi:esiteid" v="226301" />
  </node>
  <node id="-183" visible="true" lat="43.54735753" lon="-72.93058273">
    <tag k="addr:city" v="Shrewsbury" />
    <tag k="addr:housenumber" v="1158" />
    <tag k="addr:street" v="Wilderness Road" />
    <tag k="addr:state" v="VT" />
    <tag k="ref:vcgi:esiteid" v="226302" />
  </node>
  <node id="-184" visible="true" lat="43.54727612" lon="-72.92664978">
    <tag k="addr:city" v="Shrewsbury" />
    <tag k="addr:housenumber" v="1450" />
    <tag k="addr:street" v="Wilderness Road" />
    <tag k="addr:state" v="VT" />
    <tag k="ref:vcgi:esiteid" v="226303" />
  </node>
  <node id="-185" visible="true" lat="43.54709817" lon="-72.87394058">
    <tag k="addr:city" v="Shrewsbury" />
    <tag k="addr:housenumber" v="523" />
    <tag k="addr:street" v="Wilmouth Hill Road" />
    <tag k="addr:state" v="VT" />
    <tag k="ref:vcgi:esiteid" v="226304" />
  </node>
  <node id="-186" visible="true" lat="43.54729142" lon="-72.87247364">
    <tag k="addr:city" v="Shrewsbury" />
    <tag k="addr:housenumber" v="528" />
    <tag k="addr:street" v="Wilmouth Hill Road" />
    <tag k="addr:state" v="VT" />
    <tag k="ref:vcgi:esiteid" v="226305" />
  </node>
  <node id="-187" visible="true" lat="43.54701755" lon="-72.92796895">
    <tag k="addr:city" v="Shrewsbury" />
    <tag k="addr:housenumber" v="1139" />
    <tag k="addr:street" v="Wilderness Road" />
    <tag k="addr:state" v="VT" />
    <tag k="ref:vcgi:esiteid" v="226306" />
  </node>
  <node id="-188" visible="true" lat="43.54692618" lon="-72.86107366">
    <tag k="addr:city" v="Shrewsbury" />
    <tag k="addr:housenumber" v="211" />
    <tag k="addr:street" v="Kister Road" />
    <tag k="addr:state" v="VT" />
    <tag k="ref:vcgi:esiteid" v="226307" />
  </node>
  <node id="-189" visible="true" lat="43.54714607" lon="-72.83283152">
    <tag k="addr:city" v="Shrewsbury" />
    <tag k="addr:housenumber" v="407" />
    <tag k="addr:street" v="Coldham Road" />
    <tag k="addr:state" v="VT" />
    <tag k="ref:vcgi:esiteid" v="226308" />
  </node>
  <node id="-190" visible="true" lat="43.54617676" lon="-72.88718826">
    <tag k="addr:city" v="Shrewsbury" />
    <tag k="addr:housenumber" v="6464" />
    <tag k="addr:street" v="Cold River Road" />
    <tag k="addr:state" v="VT" />
    <tag k="ref:vcgi:esiteid" v="226309" />
  </node>
  <node id="-191" visible="true" lat="43.54515476" lon="-72.87451582">
    <tag k="addr:city" v="Shrewsbury" />
    <tag k="addr:housenumber" v="387" />
    <tag k="addr:street" v="Wilmouth Hill Road" />
    <tag k="addr:state" v="VT" />
    <tag k="ref:vcgi:esiteid" v="226310" />
  </node>
  <node id="-192" visible="true" lat="43.54509124" lon="-72.88412032">
    <tag k="addr:city" v="Shrewsbury" />
    <tag k="addr:housenumber" v="6673" />
    <tag k="addr:street" v="Cold River Road" />
    <tag k="addr:state" v="VT" />
    <tag k="ref:vcgi:esiteid" v="226311" />
  </node>
  <node id="-193" visible="true" lat="43.54483585" lon="-72.88313459">
    <tag k="addr:city" v="Shrewsbury" />
    <tag k="addr:housenumber" v="6718" />
    <tag k="addr:street" v="Cold River Road" />
    <tag k="addr:state" v="VT" />
    <tag k="ref:vcgi:esiteid" v="226312" />
  </node>
  <node id="-194" visible="true" lat="43.54454801" lon="-72.87298004">
    <tag k="addr:city" v="Shrewsbury" />
    <tag k="addr:housenumber" v="384" />
    <tag k="addr:street" v="Wilmouth Hill Road" />
    <tag k="addr:state" v="VT" />
    <tag k="ref:vcgi:esiteid" v="226313" />
  </node>
  <node id="-195" visible="true" lat="43.54434613" lon="-72.84519745">
    <tag k="addr:city" v="Shrewsbury" />
    <tag k="addr:housenumber" v="4446" />
    <tag k="addr:street" v="Upper Cold River Road" />
    <tag k="addr:state" v="VT" />
    <tag k="ref:vcgi:esiteid" v="226314" />
  </node>
  <node id="-196" visible="true" lat="43.54423866" lon="-72.88186449">
    <tag k="addr:city" v="Shrewsbury" />
    <tag k="addr:housenumber" v="6804" />
    <tag k="addr:street" v="Cold River Road" />
    <tag k="addr:state" v="VT" />
    <tag k="ref:vcgi:esiteid" v="226315" />
  </node>
  <node id="-197" visible="true" lat="43.54398101" lon="-72.8750156">
    <tag k="addr:city" v="Shrewsbury" />
    <tag k="addr:housenumber" v="295" />
    <tag k="addr:street" v="Wilmouth Hill Road" />
    <tag k="addr:state" v="VT" />
    <tag k="ref:vcgi:esiteid" v="226316" />
  </node>
  <node id="-198" visible="true" lat="43.54361002" lon="-72.83611041">
    <tag k="addr:city" v="Shrewsbury" />
    <tag k="addr:housenumber" v="116" />
    <tag k="addr:street" v="Coldham Road" />
    <tag k="addr:state" v="VT" />
    <tag k="ref:vcgi:esiteid" v="226317" />
  </node>
  <node id="-199" visible="true" lat="43.54200367" lon="-72.88027896">
    <tag k="addr:city" v="Shrewsbury" />
    <tag k="addr:housenumber" v="6946" />
    <tag k="addr:street" v="Cold River Road" />
    <tag k="addr:state" v="VT" />
    <tag k="ref:vcgi:esiteid" v="226318" />
  </node>
  <node id="-200" visible="true" lat="43.54274368" lon="-72.83499908">
    <tag k="addr:city" v="Shrewsbury" />
    <tag k="addr:housenumber" v="38" />
    <tag k="addr:street" v="Coldham Road" />
    <tag k="addr:state" v="VT" />
    <tag k="ref:vcgi:esiteid" v="226319" />
  </node>
  <node id="-201" visible="true" lat="43.54266226" lon="-72.87518153">
    <tag k="addr:city" v="Shrewsbury" />
    <tag k="addr:housenumber" v="203" />
    <tag k="addr:street" v="Wilmouth Hill Road" />
    <tag k="addr:state" v="VT" />
    <tag k="ref:vcgi:esiteid" v="226320" />
  </node>
  <node id="-202" visible="true" lat="43.54196074" lon="-72.83814031">
    <tag k="addr:city" v="Shrewsbury" />
    <tag k="addr:housenumber" v="4838" />
    <tag k="addr:street" v="Upper Cold River Road" />
    <tag k="addr:state" v="VT" />
    <tag k="ref:vcgi:esiteid" v="226321" />
  </node>
  <node id="-203" visible="true" lat="43.54159223" lon="-72.8165009">
    <tag k="addr:city" v="Shrewsbury" />
    <tag k="addr:housenumber" v="1300" />
    <tag k="addr:street" v="Ccc Road" />
    <tag k="addr:state" v="VT" />
    <tag k="ref:vcgi:esiteid" v="226322" />
  </node>
  <node id="-204" visible="true" lat="43.54139587" lon="-72.87476474">
    <tag k="addr:city" v="Shrewsbury" />
    <tag k="addr:housenumber" v="120" />
    <tag k="addr:street" v="Wilmouth Hill Road" />
    <tag k="addr:state" v="VT" />
    <tag k="ref:vcgi:esiteid" v="226323" />
  </node>
  <node id="-205" visible="true" lat="43.54009703" lon="-72.83445953">
    <tag k="addr:city" v="Shrewsbury" />
    <tag k="addr:housenumber" v="4953" />
    <tag k="addr:street" v="Upper Cold River Road" />
    <tag k="addr:state" v="VT" />
    <tag k="ref:vcgi:esiteid" v="226324" />
  </node>
  <node id="-206" visible="true" lat="43.54119875" lon="-72.81938469">
    <tag k="addr:city" v="Shrewsbury" />
    <tag k="addr:housenumber" v="1051" />
    <tag k="addr:street" v="Ccc Road" />
    <tag k="addr:state" v="VT" />
    <tag k="ref:vcgi:esiteid" v="226325" />
  </node>
  <node id="-207" visible="true" lat="43.54113649" lon="-72.8788984">
    <tag k="addr:city" v="Shrewsbury" />
    <tag k="addr:housenumber" v="7078" />
    <tag k="addr:street" v="Cold River Road" />
    <tag k="addr:state" v="VT" />
    <tag k="ref:vcgi:esiteid" v="226326" />
  </node>
  <node id="-208" visible="true" lat="43.54054481" lon="-72.81617574">
    <tag k="addr:city" v="Shrewsbury" />
    <tag k="addr:housenumber" v="898" />
    <tag k="addr:street" v="Ccc Road" />
    <tag k="addr:state" v="VT" />
    <tag k="ref:vcgi:esiteid" v="226327" />
  </node>
  <node id="-209" visible="true" lat="43.53997976" lon="-72.87798708">
    <tag k="addr:city" v="Shrewsbury" />
    <tag k="addr:housenumber" v="7154" />
    <tag k="addr:street" v="Cold River Road" />
    <tag k="addr:state" v="VT" />
    <tag k="ref:vcgi:esiteid" v="226328" />
  </node>
  <node id="-210" visible="true" lat="43.53977963" lon="-72.87664608">
    <tag k="addr:city" v="Shrewsbury" />
    <tag k="addr:housenumber" v="7202" />
    <tag k="addr:street" v="Cold River Road" />
    <tag k="addr:state" v="VT" />
    <tag k="ref:vcgi:esiteid" v="226329" />
  </node>
  <node id="-211" visible="true" lat="43.53939226" lon="-72.87561244">
    <tag k="addr:city" v="Shrewsbury" />
    <tag k="addr:housenumber" v="7262" />
    <tag k="addr:street" v="Cold River Road" />
    <tag k="addr:state" v="VT" />
    <tag k="ref:vcgi:esiteid" v="226330" />
  </node>
  <node id="-212" visible="true" lat="43.5390092" lon="-72.83708808">
    <tag k="addr:city" v="Shrewsbury" />
    <tag k="addr:housenumber" v="5098" />
    <tag k="addr:street" v="Upper Cold River Road" />
    <tag k="addr:state" v="VT" />
    <tag k="ref:vcgi:esiteid" v="226331" />
  </node>
  <node id="-213" visible="true" lat="43.53885269" lon="-72.874794">
    <tag k="addr:city" v="Shrewsbury" />
    <tag k="addr:housenumber" v="32" />
    <tag k="addr:street" v="Keiffer Road" />
    <tag k="addr:state" v="VT" />
    <tag k="ref:vcgi:esiteid" v="226332" />
  </node>
  <node id="-214" visible="true" lat="43.53813818" lon="-72.8725714">
    <tag k="addr:city" v="Shrewsbury" />
    <tag k="addr:housenumber" v="7443" />
    <tag k="addr:street" v="Cold River Road" />
    <tag k="addr:state" v="VT" />
    <tag k="ref:vcgi:esiteid" v="226333" />
  </node>
  <node id="-215" visible="true" lat="43.53808789" lon="-72.82325492">
    <tag k="addr:city" v="Shrewsbury" />
    <tag k="addr:housenumber" v="917" />
    <tag k="addr:street" v="Ccc Road" />
    <tag k="addr:state" v="VT" />
    <tag k="ref:vcgi:esiteid" v="226334" />
  </node>
  <node id="-216" visible="true" lat="43.53765126" lon="-72.871684">
    <tag k="addr:city" v="Shrewsbury" />
    <tag k="addr:housenumber" v="7495" />
    <tag k="addr:street" v="Cold River Road" />
    <tag k="addr:state" v="VT" />
    <tag k="ref:vcgi:esiteid" v="226335" />
  </node>
  <node id="-217" visible="true" lat="43.53704253" lon="-72.87779364">
    <tag k="addr:city" v="Shrewsbury" />
    <tag k="addr:housenumber" v="140" />
    <tag k="addr:street" v="Keiffer Road" />
    <tag k="addr:state" v="VT" />
    <tag k="ref:vcgi:esiteid" v="226336" />
  </node>
  <node id="-218" visible="true" lat="43.53714875" lon="-72.84591187">
    <tag k="addr:city" v="Shrewsbury" />
    <tag k="addr:housenumber" v="330" />
    <tag k="addr:street" v="Griffith Road" />
    <tag k="addr:state" v="VT" />
    <tag k="ref:vcgi:esiteid" v="226337" />
  </node>
  <node id="-219" visible="true" lat="43.53694305" lon="-72.86893404">
    <tag k="addr:city" v="Shrewsbury" />
    <tag k="addr:housenumber" v="7637" />
    <tag k="addr:street" v="Cold River Road" />
    <tag k="addr:state" v="VT" />
    <tag k="ref:vcgi:esiteid" v="226338" />
  </node>
  <node id="-220" visible="true" lat="43.53684498" lon="-72.82068395">
    <tag k="addr:city" v="Shrewsbury" />
    <tag k="addr:housenumber" v="813" />
    <tag k="addr:street" v="Ccc Road" />
    <tag k="addr:state" v="VT" />
    <tag k="ref:vcgi:esiteid" v="226339" />
  </node>
  <node id="-221" visible="true" lat="43.53672846" lon="-72.87028531">
    <tag k="addr:city" v="Shrewsbury" />
    <tag k="addr:housenumber" v="7601" />
    <tag k="addr:street" v="Cold River Road" />
    <tag k="addr:state" v="VT" />
    <tag k="ref:vcgi:esiteid" v="226340" />
  </node>
  <node id="-222" visible="true" lat="43.536489" lon="-72.83716014">
    <tag k="addr:city" v="Shrewsbury" />
    <tag k="addr:housenumber" v="5282" />
    <tag k="addr:street" v="Upper Cold River Road" />
    <tag k="addr:state" v="VT" />
    <tag k="ref:vcgi:esiteid" v="226341" />
  </node>
  <node id="-223" visible="true" lat="43.53618846" lon="-72.86803715">
    <tag k="addr:city" v="Shrewsbury" />
    <tag k="addr:housenumber" v="7717" />
    <tag k="addr:street" v="Cold River Road" />
    <tag k="addr:state" v="VT" />
    <tag k="ref:vcgi:esiteid" v="226343" />
  </node>
  <node id="-224" visible="true" lat="43.53589651" lon="-72.86892183">
    <tag k="addr:city" v="Shrewsbury" />
    <tag k="addr:housenumber" v="7682" />
    <tag k="addr:street" v="Cold River Road" />
    <tag k="addr:state" v="VT" />
    <tag k="ref:vcgi:esiteid" v="226344" />
  </node>
  <node id="-225" visible="true" lat="43.53595651" lon="-72.83295926">
    <tag k="addr:city" v="Shrewsbury" />
    <tag k="addr:housenumber" v="144" />
    <tag k="addr:street" v="Plumley Road" />
    <tag k="addr:state" v="VT" />
    <tag k="ref:vcgi:esiteid" v="226345" />
  </node>
  <node id="-226" visible="true" lat="43.53584889" lon="-72.86682931">
    <tag k="addr:city" v="Shrewsbury" />
    <tag k="addr:housenumber" v="7777" />
    <tag k="addr:street" v="Cold River Road" />
    <tag k="addr:state" v="VT" />
    <tag k="ref:vcgi:esiteid" v="226346" />
  </node>
  <node id="-227" visible="true" lat="43.53569669" lon="-72.86591826">
    <tag k="addr:city" v="Shrewsbury" />
    <tag k="addr:housenumber" v="7833" />
    <tag k="addr:street" v="Cold River Road" />
    <tag k="addr:state" v="VT" />
    <tag k="ref:vcgi:esiteid" v="226347" />
  </node>
  <node id="-228" visible="true" lat="43.53548879" lon="-72.86733303">
    <tag k="addr:city" v="Shrewsbury" />
    <tag k="addr:housenumber" v="7768" />
    <tag k="addr:street" v="Cold River Road" />
    <tag k="addr:state" v="VT" />
    <tag k="ref:vcgi:esiteid" v="226348" />
  </node>
  <node id="-229" visible="true" lat="43.53541562" lon="-72.86197937">
    <tag k="addr:city" v="Shrewsbury" />
    <tag k="addr:housenumber" v="7983" />
    <tag k="addr:street" v="Cold River Road" />
    <tag k="addr:state" v="VT" />
    <tag k="ref:vcgi:esiteid" v="226349" />
  </node>
  <node id="-230" visible="true" lat="43.53529997" lon="-72.83409314">
    <tag k="addr:city" v="Shrewsbury" />
    <tag k="addr:housenumber" v="67" />
    <tag k="addr:street" v="Plumley Road" />
    <tag k="addr:state" v="VT" />
    <tag k="ref:vcgi:esiteid" v="226350" />
  </node>
  <node id="-231" visible="true" lat="43.53503557" lon="-72.83354153">
    <tag k="addr:city" v="Shrewsbury" />
    <tag k="addr:housenumber" v="76" />
    <tag k="addr:street" v="Plumley Road" />
    <tag k="addr:state" v="VT" />
    <tag k="ref:vcgi:esiteid" v="226351" />
  </node>
  <node id="-232" visible="true" lat="43.53469575" lon="-72.83695682">
    <tag k="addr:city" v="Shrewsbury" />
    <tag k="addr:housenumber" v="5382" />
    <tag k="addr:street" v="Upper Cold River Road" />
    <tag k="addr:state" v="VT" />
    <tag k="ref:vcgi:esiteid" v="226352" />
  </node>
  <node id="-233" visible="true" lat="43.53456766" lon="-72.83368653">
    <tag k="addr:city" v="Shrewsbury" />
    <tag k="addr:housenumber" v="34" />
    <tag k="addr:street" v="Plumley Road" />
    <tag k="addr:state" v="VT" />
    <tag k="ref:vcgi:esiteid" v="226353" />
  </node>
  <node id="-234" visible="true" lat="43.53457825" lon="-72.83423409">
    <tag k="addr:city" v="Shrewsbury" />
    <tag k="addr:housenumber" v="35" />
    <tag k="addr:street" v="Plumley Road" />
    <tag k="addr:state" v="VT" />
    <tag k="ref:vcgi:esiteid" v="226354" />
  </node>
  <node id="-235" visible="true" lat="43.5343007" lon="-72.84563264">
    <tag k="addr:city" v="Shrewsbury" />
    <tag k="addr:housenumber" v="131" />
    <tag k="addr:street" v="Griffith Road" />
    <tag k="addr:state" v="VT" />
    <tag k="ref:vcgi:esiteid" v="226355" />
  </node>
  <node id="-236" visible="true" lat="43.53447341" lon="-72.8488388">
    <tag k="addr:city" v="Shrewsbury" />
    <tag k="addr:housenumber" v="8773" />
    <tag k="addr:street" v="Cold River Road" />
    <tag k="addr:state" v="VT" />
    <tag k="ref:vcgi:esiteid" v="226356" />
  </node>
  <node id="-237" visible="true" lat="43.53441023" lon="-72.82137164">
    <tag k="addr:city" v="Shrewsbury" />
    <tag k="addr:housenumber" v="505" />
    <tag k="addr:street" v="Ccc Road" />
    <tag k="addr:state" v="VT" />
    <tag k="ref:vcgi:esiteid" v="226357" />
  </node>
  <node id="-238" visible="true" lat="43.53425951" lon="-72.82186153">
    <tag k="addr:city" v="Shrewsbury" />
    <tag k="addr:housenumber" v="477" />
    <tag k="addr:street" v="Ccc Road" />
    <tag k="addr:state" v="VT" />
    <tag k="ref:vcgi:esiteid" v="226358" />
  </node>
  <node id="-239" visible="true" lat="43.53391006" lon="-72.83573317">
    <tag k="addr:city" v="Shrewsbury" />
    <tag k="addr:housenumber" v="5492" />
    <tag k="addr:street" v="Upper Cold River Road" />
    <tag k="addr:state" v="VT" />
    <tag k="ref:vcgi:esiteid" v="226359" />
  </node>
  <node id="-240" visible="true" lat="43.53461464" lon="-72.82342648">
    <tag k="addr:city" v="Shrewsbury" />
    <tag k="addr:housenumber" v="409" />
    <tag k="addr:street" v="Ccc Road" />
    <tag k="addr:state" v="VT" />
    <tag k="ref:vcgi:esiteid" v="226360" />
  </node>
  <node id="-241" visible="true" lat="43.5336195" lon="-72.84450603">
    <tag k="addr:city" v="Shrewsbury" />
    <tag k="addr:housenumber" v="68" />
    <tag k="addr:street" v="Griffith Road" />
    <tag k="addr:state" v="VT" />
    <tag k="ref:vcgi:esiteid" v="226361" />
  </node>
  <node id="-242" visible="true" lat="43.53359603" lon="-72.85980987">
    <tag k="addr:city" v="Shrewsbury" />
    <tag k="addr:housenumber" v="8177" />
    <tag k="addr:street" v="Cold River Road" />
    <tag k="addr:state" v="VT" />
    <tag k="ref:vcgi:esiteid" v="226362" />
  </node>
  <node id="-243" visible="true" lat="43.53331724" lon="-72.82191105">
    <tag k="addr:city" v="Shrewsbury" />
    <tag k="addr:housenumber" v="418" />
    <tag k="addr:street" v="Ccc Road" />
    <tag k="addr:state" v="VT" />
    <tag k="ref:vcgi:esiteid" v="226363" />
  </node>
  <node id="-244" visible="true" lat="43.53345579" lon="-72.84179907">
    <tag k="addr:city" v="Shrewsbury" />
    <tag k="addr:housenumber" v="9085" />
    <tag k="addr:street" v="Cold River Road" />
    <tag k="addr:state" v="VT" />
    <tag k="ref:vcgi:esiteid" v="226364" />
  </node>
  <node id="-245" visible="true" lat="43.53368677" lon="-72.83218948">
    <tag k="addr:city" v="Shrewsbury" />
    <tag k="addr:housenumber" v="5601" />
    <tag k="addr:street" v="Upper Cold River Road" />
    <tag k="addr:state" v="VT" />
    <tag k="ref:vcgi:esiteid" v="226365" />
  </node>
  <node id="-246" visible="true" lat="43.53337904" lon="-72.85917831">
    <tag k="addr:city" v="Shrewsbury" />
    <tag k="addr:housenumber" v="8207" />
    <tag k="addr:street" v="Cold River Road" />
    <tag k="addr:state" v="VT" />
    <tag k="ref:vcgi:esiteid" v="226366" />
  </node>
  <node id="-247" visible="true" lat="43.53318892" lon="-72.82248407">
    <tag k="addr:city" v="Shrewsbury" />
    <tag k="addr:housenumber" v="392" />
    <tag k="addr:street" v="Ccc Road" />
    <tag k="addr:state" v="VT" />
    <tag k="ref:vcgi:esiteid" v="226367" />
  </node>
  <node id="-248" visible="true" lat="43.53300857" lon="-72.87310028">
    <tag k="addr:city" v="Shrewsbury" />
    <tag k="addr:housenumber" v="458" />
    <tag k="addr:street" v="Keiffer Road" />
    <tag k="addr:state" v="VT" />
    <tag k="ref:vcgi:esiteid" v="226368" />
  </node>
  <node id="-249" visible="true" lat="43.53321074" lon="-72.82365688">
    <tag k="addr:city" v="Shrewsbury" />
    <tag k="addr:housenumber" v="355" />
    <tag k="addr:street" v="Ccc Road" />
    <tag k="addr:state" v="VT" />
    <tag k="ref:vcgi:esiteid" v="226369" />
  </node>
  <node id="-250" visible="true" lat="43.53279614" lon="-72.85698715">
    <tag k="addr:city" v="Shrewsbury" />
    <tag k="addr:housenumber" v="8327" />
    <tag k="addr:street" v="Cold River Road" />
    <tag k="addr:state" v="VT" />
    <tag k="ref:vcgi:esiteid" v="226370" />
  </node>
  <node id="-251" visible="true" lat="43.53272043" lon="-72.82325348">
    <tag k="addr:city" v="Shrewsbury" />
    <tag k="addr:housenumber" v="346" />
    <tag k="addr:street" v="Ccc Road" />
    <tag k="addr:state" v="VT" />
    <tag k="ref:vcgi:esiteid" v="226371" />
  </node>
  <node id="-252" visible="true" lat="43.53287441" lon="-72.84761455">
    <tag k="addr:city" v="Shrewsbury" />
    <tag k="addr:housenumber" v="8811" />
    <tag k="addr:street" v="Cold River Road" />
    <tag k="addr:state" v="VT" />
    <tag k="ref:vcgi:esiteid" v="226372" />
  </node>
  <node id="-253" visible="true" lat="43.53275926" lon="-72.82409662">
    <tag k="addr:city" v="Shrewsbury" />
    <tag k="addr:housenumber" v="323" />
    <tag k="addr:street" v="Ccc Road" />
    <tag k="addr:state" v="VT" />
    <tag k="ref:vcgi:esiteid" v="226373" />
  </node>
  <node id="-254" visible="true" lat="43.53268432" lon="-72.83209991">
    <tag k="addr:city" v="Shrewsbury" />
    <tag k="addr:housenumber" v="5641" />
    <tag k="addr:street" v="Upper Cold River Road" />
    <tag k="addr:state" v="VT" />
    <tag k="ref:vcgi:esiteid" v="226374" />
  </node>
  <node id="-255" visible="true" lat="43.53223972" lon="-72.9018485">
    <tag k="addr:city" v="Shrewsbury" />
    <tag k="addr:housenumber" v="2460" />
    <tag k="addr:street" v="Lottery Road" />
    <tag k="addr:state" v="VT" />
    <tag k="ref:vcgi:esiteid" v="226375" />
  </node>
  <node id="-256" visible="true" lat="43.53228215" lon="-72.85667294">
    <tag k="addr:city" v="Shrewsbury" />
    <tag k="addr:housenumber" v="8346" />
    <tag k="addr:street" v="Cold River Road" />
    <tag k="addr:state" v="VT" />
    <tag k="ref:vcgi:esiteid" v="226376" />
  </node>
  <node id="-257" visible="true" lat="43.53253131" lon="-72.84051688">
    <tag k="addr:city" v="Shrewsbury" />
    <tag k="addr:housenumber" v="9171" />
    <tag k="addr:street" v="Cold River Road" />
    <tag k="addr:state" v="VT" />
    <tag k="ref:vcgi:esiteid" v="226377" />
  </node>
  <node id="-258" visible="true" lat="43.53212301" lon="-72.90541411">
    <tag k="addr:city" v="Shrewsbury" />
    <tag k="addr:housenumber" v="2501" />
    <tag k="addr:street" v="Lottery Road" />
    <tag k="addr:state" v="VT" />
    <tag k="ref:vcgi:esiteid" v="226378" />
  </node>
  <node id="-259" visible="true" lat="43.5322934" lon="-72.82283747">
    <tag k="addr:city" v="Shrewsbury" />
    <tag k="addr:housenumber" v="348" />
    <tag k="addr:street" v="Ccc Road" />
    <tag k="addr:state" v="VT" />
    <tag k="ref:vcgi:esiteid" v="226379" />
  </node>
  <node id="-260" visible="true" lat="43.53234421" lon="-72.83064696">
    <tag k="addr:city" v="Shrewsbury" />
    <tag k="addr:housenumber" v="5669" />
    <tag k="addr:street" v="Upper Cold River Road" />
    <tag k="addr:state" v="VT" />
    <tag k="ref:vcgi:esiteid" v="226380" />
  </node>
  <node id="-261" visible="true" lat="43.53188871" lon="-72.8471938">
    <tag k="addr:city" v="Shrewsbury" />
    <tag k="addr:housenumber" v="8822" />
    <tag k="addr:street" v="Cold River Road" />
    <tag k="addr:state" v="VT" />
    <tag k="ref:vcgi:esiteid" v="226381" />
  </node>
  <node id="-262" visible="true" lat="43.5319062" lon="-72.83777609">
    <tag k="addr:city" v="Shrewsbury" />
    <tag k="addr:housenumber" v="9315" />
    <tag k="addr:street" v="Cold River Road" />
    <tag k="addr:state" v="VT" />
    <tag k="ref:vcgi:esiteid" v="226382" />
  </node>
  <node id="-263" visible="true" lat="43.53165326" lon="-72.8297244">
    <tag k="addr:city" v="Shrewsbury" />
    <tag k="addr:housenumber" v="5671" />
    <tag k="addr:street" v="Upper Cold River Road" />
    <tag k="addr:state" v="VT" />
    <tag k="ref:vcgi:esiteid" v="226383" />
  </node>
  <node id="-264" visible="true" lat="43.53125223" lon="-72.90473194">
    <tag k="addr:city" v="Shrewsbury" />
    <tag k="addr:housenumber" v="2433" />
    <tag k="addr:street" v="Lottery Road" />
    <tag k="addr:state" v="VT" />
    <tag k="ref:vcgi:esiteid" v="226384" />
  </node>
  <node id="-265" visible="true" lat="43.53213739" lon="-72.83697213">
    <tag k="addr:city" v="Shrewsbury" />
    <tag k="addr:housenumber" v="9417" />
    <tag k="addr:street" v="Cold River Road" />
    <tag k="addr:state" v="VT" />
    <tag k="ref:vcgi:esiteid" v="226385" />
  </node>
  <node id="-266" visible="true" lat="43.53170928" lon="-72.83474221">
    <tag k="addr:city" v="Shrewsbury" />
    <tag k="addr:housenumber" v="9499" />
    <tag k="addr:street" v="Cold River Road" />
    <tag k="addr:state" v="VT" />
    <tag k="ref:vcgi:esiteid" v="226386" />
  </node>
  <node id="-267" visible="true" lat="43.53119525" lon="-72.8340148">
    <tag k="addr:city" v="Shrewsbury" />
    <tag k="addr:housenumber" v="9547" />
    <tag k="addr:street" v="Cold River Road" />
    <tag k="addr:state" v="VT" />
    <tag k="ref:vcgi:esiteid" v="226387" />
  </node>
  <node id="-268" visible="true" lat="43.53074669" lon="-72.83790545">
    <tag k="addr:city" v="Shrewsbury" />
    <tag k="addr:housenumber" v="9334" />
    <tag k="addr:street" v="Cold River Road" />
    <tag k="addr:state" v="VT" />
    <tag k="ref:vcgi:esiteid" v="226388" />
  </node>
  <node id="-269" visible="true" lat="43.53091944" lon="-72.81702608">
    <tag k="addr:city" v="Shrewsbury" />
    <tag k="addr:housenumber" v="477" />
    <tag k="addr:street" v="Old Plymouth Road" />
    <tag k="addr:state" v="VT" />
    <tag k="ref:vcgi:esiteid" v="226389" />
  </node>
  <node id="-270" visible="true" lat="43.53096271" lon="-72.83335021">
    <tag k="addr:city" v="Shrewsbury" />
    <tag k="addr:housenumber" v="9567" />
    <tag k="addr:street" v="Cold River Road" />
    <tag k="addr:state" v="VT" />
    <tag k="ref:vcgi:esiteid" v="226390" />
  </node>
  <node id="-271" visible="true" lat="43.53069123" lon="-72.82531186">
    <tag k="addr:city" v="Shrewsbury" />
    <tag k="addr:housenumber" v="166" />
    <tag k="addr:street" v="Ccc Road" />
    <tag k="addr:state" v="VT" />
    <tag k="ref:vcgi:esiteid" v="226391" />
  </node>
  <node id="-272" visible="true" lat="43.53114524" lon="-72.83247877">
    <tag k="addr:city" v="Shrewsbury" />
    <tag k="addr:housenumber" v="9627" />
    <tag k="addr:street" v="Cold River Road" />
    <tag k="addr:state" v="VT" />
    <tag k="ref:vcgi:esiteid" v="226392" />
  </node>
  <node id="-273" visible="true" lat="43.53075067" lon="-72.81814521">
    <tag k="addr:city" v="Shrewsbury" />
    <tag k="addr:housenumber" v="421" />
    <tag k="addr:street" v="Old Plymouth Road" />
    <tag k="addr:state" v="VT" />
    <tag k="ref:vcgi:esiteid" v="226393" />
  </node>
  <node id="-274" visible="true" lat="43.53050693" lon="-72.82608256">
    <tag k="addr:city" v="Shrewsbury" />
    <tag k="addr:housenumber" v="137" />
    <tag k="addr:street" v="Ccc Road" />
    <tag k="addr:state" v="VT" />
    <tag k="ref:vcgi:esiteid" v="226394" />
  </node>
  <node id="-275" visible="true" lat="43.5301821" lon="-72.90311871">
    <tag k="addr:city" v="Shrewsbury" />
    <tag k="addr:housenumber" v="2318" />
    <tag k="addr:street" v="Lottery Road" />
    <tag k="addr:state" v="VT" />
    <tag k="ref:vcgi:esiteid" v="226395" />
  </node>
  <node id="-276" visible="true" lat="43.53070225" lon="-72.82424991">
    <tag k="addr:city" v="Shrewsbury" />
    <tag k="addr:housenumber" v="139" />
    <tag k="addr:street" v="Old Plymouth Road" />
    <tag k="addr:state" v="VT" />
    <tag k="ref:vcgi:esiteid" v="226396" />
  </node>
  <node id="-277" visible="true" lat="43.52979685" lon="-72.83551151">
    <tag k="addr:city" v="Shrewsbury" />
    <tag k="addr:housenumber" v="9440" />
    <tag k="addr:street" v="Cold River Road" />
    <tag k="addr:state" v="VT" />
    <tag k="ref:vcgi:esiteid" v="226398" />
  </node>
  <node id="-278" visible="true" lat="43.53027132" lon="-72.82212042">
    <tag k="addr:city" v="Shrewsbury" />
    <tag k="addr:housenumber" v="215" />
    <tag k="addr:street" v="Old Plymouth Road" />
    <tag k="addr:state" v="VT" />
    <tag k="ref:vcgi:esiteid" v="226399" />
  </node>
  <node id="-279" visible="true" lat="43.52983339" lon="-72.85104174">
    <tag k="addr:city" v="Shrewsbury" />
    <tag k="addr:housenumber" v="8534" />
    <tag k="addr:street" v="Cold River Road" />
    <tag k="addr:state" v="VT" />
    <tag k="ref:vcgi:esiteid" v="226400" />
  </node>
  <node id="-280" visible="true" lat="43.52949172" lon="-72.90385719">
    <tag k="addr:city" v="Shrewsbury" />
    <tag k="addr:housenumber" v="2317" />
    <tag k="addr:street" v="Lottery Road" />
    <tag k="addr:state" v="VT" />
    <tag k="ref:vcgi:esiteid" v="226401" />
  </node>
  <node id="-281" visible="true" lat="43.52981986" lon="-72.82935065">
    <tag k="addr:city" v="Shrewsbury" />
    <tag k="addr:housenumber" v="9765" />
    <tag k="addr:street" v="Cold River Road" />
    <tag k="addr:state" v="VT" />
    <tag k="ref:vcgi:esiteid" v="226402" />
  </node>
  <node id="-282" visible="true" lat="43.52973357" lon="-72.82641411">
    <tag k="addr:city" v="Shrewsbury" />
    <tag k="addr:housenumber" v="75" />
    <tag k="addr:street" v="Ccc Road" />
    <tag k="addr:state" v="VT" />
    <tag k="ref:vcgi:esiteid" v="226403" />
  </node>
  <node id="-283" visible="true" lat="43.52954456" lon="-72.83103555">
    <tag k="addr:city" v="Shrewsbury" />
    <tag k="addr:housenumber" v="31" />
    <tag k="addr:street" v="Birch Lane" />
    <tag k="addr:state" v="VT" />
    <tag k="ref:vcgi:esiteid" v="226404" />
  </node>
  <node id="-284" visible="true" lat="43.52928909" lon="-72.82897865">
    <tag k="addr:city" v="Shrewsbury" />
    <tag k="addr:housenumber" v="9800" />
    <tag k="addr:street" v="Cold River Road" />
    <tag k="addr:state" v="VT" />
    <tag k="ref:vcgi:esiteid" v="226405" />
  </node>
  <node id="-285" visible="true" lat="43.52930839" lon="-72.83172663">
    <tag k="addr:city" v="Shrewsbury" />
    <tag k="addr:housenumber" v="60" />
    <tag k="addr:street" v="Birch Lane" />
    <tag k="addr:state" v="VT" />
    <tag k="ref:vcgi:esiteid" v="226406" />
  </node>
  <node id="-286" visible="true" lat="43.52904892" lon="-72.87000274">
    <tag k="addr:city" v="Shrewsbury" />
    <tag k="addr:housenumber" v="772" />
    <tag k="addr:street" v="Keiffer Road" />
    <tag k="addr:state" v="VT" />
    <tag k="ref:vcgi:esiteid" v="226407" />
  </node>
  <node id="-287" visible="true" lat="43.52913273" lon="-72.82738232">
    <tag k="addr:city" v="Shrewsbury" />
    <tag k="addr:housenumber" v="9871" />
    <tag k="addr:street" v="Cold River Road" />
    <tag k="addr:state" v="VT" />
    <tag k="ref:vcgi:esiteid" v="226408" />
  </node>
  <node id="-288" visible="true" lat="43.5289367" lon="-72.82821013">
    <tag k="addr:city" v="Shrewsbury" />
    <tag k="addr:housenumber" v="9850" />
    <tag k="addr:street" v="Cold River Road" />
    <tag k="addr:state" v="VT" />
    <tag k="ref:vcgi:esiteid" v="226409" />
  </node>
  <node id="-289" visible="true" lat="43.52861132" lon="-72.83225577">
    <tag k="addr:city" v="Shrewsbury" />
    <tag k="addr:housenumber" v="94" />
    <tag k="addr:street" v="Birch Lane" />
    <tag k="addr:state" v="VT" />
    <tag k="ref:vcgi:esiteid" v="226410" />
  </node>
  <node id="-290" visible="true" lat="43.52867403" lon="-72.82724506">
    <tag k="addr:city" v="Shrewsbury" />
    <tag k="addr:housenumber" v="2658" />
    <tag k="addr:street" v="Northam Road" />
    <tag k="addr:state" v="VT" />
    <tag k="ref:vcgi:esiteid" v="226411" />
  </node>
  <node id="-291" visible="true" lat="43.52808537" lon="-72.82945993">
    <tag k="addr:city" v="Shrewsbury" />
    <tag k="addr:housenumber" v="2544" />
    <tag k="addr:street" v="Northam Road" />
    <tag k="addr:state" v="VT" />
    <tag k="ref:vcgi:esiteid" v="226412" />
  </node>
  <node id="-292" visible="true" lat="43.52790311" lon="-72.82807376">
    <tag k="addr:city" v="Shrewsbury" />
    <tag k="addr:housenumber" v="26" />
    <tag k="addr:street" v="Eastham Road" />
    <tag k="addr:state" v="VT" />
    <tag k="ref:vcgi:esiteid" v="226413" />
  </node>
  <node id="-293" visible="true" lat="43.52764085" lon="-72.83020974">
    <tag k="addr:city" v="Shrewsbury" />
    <tag k="addr:housenumber" v="2496" />
    <tag k="addr:street" v="Northam Road" />
    <tag k="addr:state" v="VT" />
    <tag k="ref:vcgi:esiteid" v="226414" />
  </node>
  <node id="-294" visible="true" lat="43.52695883" lon="-72.86848254">
    <tag k="addr:city" v="Shrewsbury" />
    <tag k="addr:housenumber" v="925" />
    <tag k="addr:street" v="Keiffer Road" />
    <tag k="addr:state" v="VT" />
    <tag k="ref:vcgi:esiteid" v="226415" />
  </node>
  <node id="-295" visible="true" lat="43.52671321" lon="-72.83282075">
    <tag k="addr:city" v="Shrewsbury" />
    <tag k="addr:housenumber" v="2337" />
    <tag k="addr:street" v="Northam Road" />
    <tag k="addr:state" v="VT" />
    <tag k="ref:vcgi:esiteid" v="226416" />
  </node>
  <node id="-296" visible="true" lat="43.52656835" lon="-72.82688062">
    <tag k="addr:city" v="Shrewsbury" />
    <tag k="addr:housenumber" v="45" />
    <tag k="addr:street" v="Eastham Road" />
    <tag k="addr:state" v="VT" />
    <tag k="ref:vcgi:esiteid" v="226417" />
  </node>
  <node id="-297" visible="true" lat="43.52554416" lon="-72.89595006">
    <tag k="addr:city" v="Shrewsbury" />
    <tag k="addr:housenumber" v="1846" />
    <tag k="addr:street" v="Lottery Road" />
    <tag k="addr:state" v="VT" />
    <tag k="ref:vcgi:esiteid" v="226418" />
  </node>
  <node id="-298" visible="true" lat="43.52411857" lon="-72.8279243">
    <tag k="addr:city" v="Shrewsbury" />
    <tag k="addr:housenumber" v="315" />
    <tag k="addr:street" v="Eastham Road" />
    <tag k="addr:state" v="VT" />
    <tag k="ref:vcgi:esiteid" v="226419" />
  </node>
  <node id="-299" visible="true" lat="43.52334827" lon="-72.89252364">
    <tag k="addr:city" v="Shrewsbury" />
    <tag k="addr:housenumber" v="1608" />
    <tag k="addr:street" v="Lottery Road" />
    <tag k="addr:state" v="VT" />
    <tag k="ref:vcgi:esiteid" v="226420" />
  </node>
  <node id="-300" visible="true" lat="43.52343713" lon="-72.83775038">
    <tag k="addr:city" v="Shrewsbury" />
    <tag k="addr:housenumber" v="1949" />
    <tag k="addr:street" v="Northam Road" />
    <tag k="addr:state" v="VT" />
    <tag k="ref:vcgi:esiteid" v="226421" />
  </node>
  <node id="-301" visible="true" lat="43.52306747" lon="-72.84988403">
    <tag k="addr:city" v="Shrewsbury" />
    <tag k="addr:housenumber" v="1413" />
    <tag k="addr:street" v="Northam Road" />
    <tag k="addr:state" v="VT" />
    <tag k="ref:vcgi:esiteid" v="226422" />
  </node>
  <node id="-302" visible="true" lat="43.5229319" lon="-72.83752935">
    <tag k="addr:city" v="Shrewsbury" />
    <tag k="addr:housenumber" v="1948" />
    <tag k="addr:street" v="Northam Road" />
    <tag k="addr:state" v="VT" />
    <tag k="ref:vcgi:esiteid" v="226423" />
  </node>
  <node id="-303" visible="true" lat="43.52296374" lon="-72.8391424">
    <tag k="addr:city" v="Shrewsbury" />
    <tag k="addr:housenumber" v="1879" />
    <tag k="addr:street" v="Northam Road" />
    <tag k="addr:state" v="VT" />
    <tag k="ref:vcgi:esiteid" v="226424" />
  </node>
  <node id="-304" visible="true" lat="43.52246475" lon="-72.840065">
    <tag k="addr:city" v="Shrewsbury" />
    <tag k="addr:housenumber" v="1819" />
    <tag k="addr:street" v="Northam Road" />
    <tag k="addr:state" v="VT" />
    <tag k="ref:vcgi:esiteid" v="226425" />
  </node>
  <node id="-305" visible="true" lat="43.52182009" lon="-72.84289497">
    <tag k="addr:city" v="Shrewsbury" />
    <tag k="addr:housenumber" v="1653" />
    <tag k="addr:street" v="Northam Road" />
    <tag k="addr:state" v="VT" />
    <tag k="ref:vcgi:esiteid" v="226426" />
  </node>
  <node id="-306" visible="true" lat="43.5216028" lon="-72.86603411">
    <tag k="addr:city" v="Shrewsbury" />
    <tag k="addr:housenumber" v="1357" />
    <tag k="addr:street" v="Keiffer Road" />
    <tag k="addr:state" v="VT" />
    <tag k="ref:vcgi:esiteid" v="226427" />
  </node>
  <node id="-307" visible="true" lat="43.52169946" lon="-72.84417573">
    <tag k="addr:city" v="Shrewsbury" />
    <tag k="addr:housenumber" v="1595" />
    <tag k="addr:street" v="Northam Road" />
    <tag k="addr:state" v="VT" />
    <tag k="ref:vcgi:esiteid" v="226428" />
  </node>
  <node id="-308" visible="true" lat="43.52071762" lon="-72.92254638">
    <tag k="addr:city" v="Shrewsbury" />
    <tag k="addr:housenumber" v="2183" />
    <tag k="addr:street" v="Vermont Route 103" />
    <tag k="addr:state" v="VT" />
    <tag k="ref:vcgi:esiteid" v="226429" />
  </node>
  <node id="-309" visible="true" lat="43.52107445" lon="-72.84432241">
    <tag k="addr:city" v="Shrewsbury" />
    <tag k="addr:housenumber" v="1534" />
    <tag k="addr:street" v="Northam Road" />
    <tag k="addr:state" v="VT" />
    <tag k="ref:vcgi:esiteid" v="226430" />
  </node>
  <node id="-310" visible="true" lat="43.52064895" lon="-72.90085601">
    <tag k="addr:city" v="Shrewsbury" />
    <tag k="addr:housenumber" v="321" />
    <tag k="addr:street" v="Adams Road" />
    <tag k="addr:state" v="VT" />
    <tag k="ref:vcgi:esiteid" v="226431" />
  </node>
  <node id="-311" visible="true" lat="43.52069139" lon="-72.86789697">
    <tag k="addr:city" v="Shrewsbury" />
    <tag k="addr:housenumber" v="1380" />
    <tag k="addr:street" v="Keiffer Road" />
    <tag k="addr:state" v="VT" />
    <tag k="ref:vcgi:esiteid" v="226432" />
  </node>
  <node id="-312" visible="true" lat="43.52007771" lon="-72.92181963">
    <tag k="addr:city" v="Shrewsbury" />
    <tag k="addr:housenumber" v="2235" />
    <tag k="addr:street" v="Vermont Route 103" />
    <tag k="addr:state" v="VT" />
    <tag k="ref:vcgi:esiteid" v="226433" />
  </node>
  <node id="-313" visible="true" lat="43.52001953" lon="-72.90377044">
    <tag k="addr:city" v="Shrewsbury" />
    <tag k="addr:housenumber" v="215" />
    <tag k="addr:street" v="Adams Road" />
    <tag k="addr:state" v="VT" />
    <tag k="ref:vcgi:esiteid" v="226434" />
  </node>
  <node id="-314" visible="true" lat="43.51983711" lon="-72.8680584">
    <tag k="addr:city" v="Shrewsbury" />
    <tag k="addr:housenumber" v="1460" />
    <tag k="addr:street" v="Keiffer Road" />
    <tag k="addr:state" v="VT" />
    <tag k="ref:vcgi:esiteid" v="226435" />
  </node>
  <node id="-315" visible="true" lat="43.51954761" lon="-72.86740677">
    <tag k="addr:city" v="Shrewsbury" />
    <tag k="addr:housenumber" v="1443" />
    <tag k="addr:street" v="Keiffer Road" />
    <tag k="addr:state" v="VT" />
    <tag k="ref:vcgi:esiteid" v="226436" />
  </node>
  <node id="-316" visible="true" lat="43.51905441" lon="-72.89633941">
    <tag k="addr:city" v="Shrewsbury" />
    <tag k="addr:housenumber" v="387" />
    <tag k="addr:street" v="Mitchell Road" />
    <tag k="addr:state" v="VT" />
    <tag k="ref:vcgi:esiteid" v="226437" />
  </node>
  <node id="-317" visible="true" lat="43.51878356" lon="-72.90160369">
    <tag k="addr:city" v="Shrewsbury" />
    <tag k="addr:housenumber" v="186" />
    <tag k="addr:street" v="Adams Road" />
    <tag k="addr:state" v="VT" />
    <tag k="ref:vcgi:esiteid" v="226438" />
  </node>
  <node id="-318" visible="true" lat="43.51870815" lon="-72.85139307">
    <tag k="addr:city" v="Shrewsbury" />
    <tag k="addr:housenumber" v="1169" />
    <tag k="addr:street" v="Northam Road" />
    <tag k="addr:state" v="VT" />
    <tag k="ref:vcgi:esiteid" v="226439" />
  </node>
  <node id="-319" visible="true" lat="43.51818374" lon="-72.92178686">
    <tag k="addr:city" v="Shrewsbury" />
    <tag k="addr:housenumber" v="2428" />
    <tag k="addr:street" v="Vermont Route 103" />
    <tag k="addr:state" v="VT" />
    <tag k="ref:vcgi:esiteid" v="226440" />
  </node>
  <node id="-320" visible="true" lat="43.51792756" lon="-72.85476683">
    <tag k="addr:city" v="Shrewsbury" />
    <tag k="addr:housenumber" v="969" />
    <tag k="addr:street" v="Northam Road" />
    <tag k="addr:state" v="VT" />
    <tag k="ref:vcgi:esiteid" v="226441" />
  </node>
  <node id="-321" visible="true" lat="43.51795196" lon="-72.9026947">
    <tag k="addr:city" v="Shrewsbury" />
    <tag k="addr:housenumber" v="149" />
    <tag k="addr:street" v="Adams Road" />
    <tag k="addr:state" v="VT" />
    <tag k="ref:vcgi:esiteid" v="226442" />
  </node>
  <node id="-322" visible="true" lat="43.51812419" lon="-72.85438008">
    <tag k="addr:city" v="Shrewsbury" />
    <tag k="addr:housenumber" v="971" />
    <tag k="addr:street" v="Northam Road" />
    <tag k="addr:state" v="VT" />
    <tag k="ref:vcgi:esiteid" v="226443" />
  </node>
  <node id="-323" visible="true" lat="43.5176773" lon="-72.90183258">
    <tag k="addr:city" v="Shrewsbury" />
    <tag k="addr:housenumber" v="104" />
    <tag k="addr:street" v="Adams Road" />
    <tag k="addr:state" v="VT" />
    <tag k="ref:vcgi:esiteid" v="226444" />
  </node>
  <node id="-324" visible="true" lat="43.51767422" lon="-72.85118728">
    <tag k="addr:city" v="Shrewsbury" />
    <tag k="addr:housenumber" v="1120" />
    <tag k="addr:street" v="Northam Road" />
    <tag k="addr:state" v="VT" />
    <tag k="ref:vcgi:esiteid" v="226445" />
  </node>
  <node id="-325" visible="true" lat="43.51745631" lon="-72.85153318">
    <tag k="addr:city" v="Shrewsbury" />
    <tag k="addr:housenumber" v="1112" />
    <tag k="addr:street" v="Northam Road" />
    <tag k="addr:state" v="VT" />
    <tag k="ref:vcgi:esiteid" v="226446" />
  </node>
  <node id="-326" visible="true" lat="43.51708221" lon="-72.8991394">
    <tag k="addr:city" v="Shrewsbury" />
    <tag k="addr:housenumber" v="223" />
    <tag k="addr:street" v="Mitchell Road" />
    <tag k="addr:state" v="VT" />
    <tag k="ref:vcgi:esiteid" v="226447" />
  </node>
  <node id="-327" visible="true" lat="43.51681137" lon="-72.903656">
    <tag k="addr:city" v="Shrewsbury" />
    <tag k="addr:housenumber" v="63" />
    <tag k="addr:street" v="Adams Road" />
    <tag k="addr:state" v="VT" />
    <tag k="ref:vcgi:esiteid" v="226448" />
  </node>
  <node id="-328" visible="true" lat="43.51683807" lon="-72.89626312">
    <tag k="addr:city" v="Shrewsbury" />
    <tag k="addr:housenumber" v="368" />
    <tag k="addr:street" v="Mitchell Road" />
    <tag k="addr:state" v="VT" />
    <tag k="ref:vcgi:esiteid" v="226449" />
  </node>
  <node id="-329" visible="true" lat="43.51683044" lon="-72.89230346">
    <tag k="addr:city" v="Shrewsbury" />
    <tag k="addr:housenumber" v="566" />
    <tag k="addr:street" v="Mitchell Road" />
    <tag k="addr:state" v="VT" />
    <tag k="ref:vcgi:esiteid" v="226450" />
  </node>
  <node id="-330" visible="true" lat="43.51670707" lon="-72.9179404">
    <tag k="addr:city" v="Shrewsbury" />
    <tag k="addr:housenumber" v="53" />
    <tag k="addr:street" v="Cheerio Hill" />
    <tag k="addr:state" v="VT" />
    <tag k="ref:vcgi:esiteid" v="226451" />
  </node>
  <node id="-331" visible="true" lat="43.51673942" lon="-72.91664906">
    <tag k="addr:city" v="Shrewsbury" />
    <tag k="addr:housenumber" v="103" />
    <tag k="addr:street" v="Cheerio Hill" />
    <tag k="addr:state" v="VT" />
    <tag k="ref:vcgi:esiteid" v="226452" />
  </node>
  <node id="-332" visible="true" lat="43.51653671" lon="-72.88603973">
    <tag k="addr:city" v="Shrewsbury" />
    <tag k="addr:housenumber" v="882" />
    <tag k="addr:street" v="Mitchell Road" />
    <tag k="addr:state" v="VT" />
    <tag k="ref:vcgi:esiteid" v="226453" />
  </node>
  <node id="-333" visible="true" lat="43.51641464" lon="-72.88667297">
    <tag k="addr:city" v="Shrewsbury" />
    <tag k="addr:housenumber" v="850" />
    <tag k="addr:street" v="Mitchell Road" />
    <tag k="addr:state" v="VT" />
    <tag k="ref:vcgi:esiteid" v="226454" />
  </node>
  <node id="-334" visible="true" lat="43.51619339" lon="-72.90977477">
    <tag k="addr:city" v="Shrewsbury" />
    <tag k="addr:housenumber" v="345" />
    <tag k="addr:street" v="Lincoln Hill Road" />
    <tag k="addr:state" v="VT" />
    <tag k="ref:vcgi:esiteid" v="226455" />
  </node>
  <node id="-335" visible="true" lat="43.51609583" lon="-72.9176425">
    <tag k="addr:city" v="Shrewsbury" />
    <tag k="addr:housenumber" v="68" />
    <tag k="addr:street" v="Cheerio Hill" />
    <tag k="addr:state" v="VT" />
    <tag k="ref:vcgi:esiteid" v="226456" />
  </node>
  <node id="-336" visible="true" lat="43.5160037" lon="-72.91675954">
    <tag k="addr:city" v="Shrewsbury" />
    <tag k="addr:housenumber" v="110" />
    <tag k="addr:street" v="Cheerio Hill" />
    <tag k="addr:state" v="VT" />
    <tag k="ref:vcgi:esiteid" v="226457" />
  </node>
  <node id="-337" visible="true" lat="43.51622802" lon="-72.81720312">
    <tag k="addr:city" v="Shrewsbury" />
    <tag k="addr:housenumber" v="1130" />
    <tag k="addr:street" v="Eastham Road" />
    <tag k="addr:state" v="VT" />
    <tag k="ref:vcgi:esiteid" v="226458" />
  </node>
  <node id="-338" visible="true" lat="43.51603651" lon="-72.85556411">
    <tag k="addr:city" v="Shrewsbury" />
    <tag k="addr:housenumber" v="879" />
    <tag k="addr:street" v="Northam Road" />
    <tag k="addr:state" v="VT" />
    <tag k="ref:vcgi:esiteid" v="226459" />
  </node>
  <node id="-339" visible="true" lat="43.51613405" lon="-72.81635032">
    <tag k="addr:city" v="Shrewsbury" />
    <tag k="addr:housenumber" v="1141" />
    <tag k="addr:street" v="Eastham Road" />
    <tag k="addr:state" v="VT" />
    <tag k="ref:vcgi:esiteid" v="226460" />
  </node>
  <node id="-340" visible="true" lat="43.51532745" lon="-72.90954589">
    <tag k="addr:city" v="Shrewsbury" />
    <tag k="addr:housenumber" v="350" />
    <tag k="addr:street" v="Lincoln Hill Road" />
    <tag k="addr:state" v="VT" />
    <tag k="ref:vcgi:esiteid" v="226462" />
  </node>
  <node id="-341" visible="true" lat="43.51547404" lon="-72.91281349">
    <tag k="addr:city" v="Shrewsbury" />
    <tag k="addr:housenumber" v="213" />
    <tag k="addr:street" v="Lincoln Hill Road" />
    <tag k="addr:state" v="VT" />
    <tag k="ref:vcgi:esiteid" v="226463" />
  </node>
  <node id="-342" visible="true" lat="43.51479312" lon="-72.91331342">
    <tag k="addr:city" v="Shrewsbury" />
    <tag k="addr:housenumber" v="167" />
    <tag k="addr:street" v="Lincoln Hill Road" />
    <tag k="addr:state" v="VT" />
    <tag k="ref:vcgi:esiteid" v="226464" />
  </node>
  <node id="-343" visible="true" lat="43.51467895" lon="-72.89843749">
    <tag k="addr:city" v="Shrewsbury" />
    <tag k="addr:housenumber" v="919" />
    <tag k="addr:street" v="Lincoln Hill Road" />
    <tag k="addr:state" v="VT" />
    <tag k="ref:vcgi:esiteid" v="226465" />
  </node>
  <node id="-344" visible="true" lat="43.5147486" lon="-72.85753217">
    <tag k="addr:city" v="Shrewsbury" />
    <tag k="addr:housenumber" v="757" />
    <tag k="addr:street" v="Northam Road" />
    <tag k="addr:state" v="VT" />
    <tag k="ref:vcgi:esiteid" v="226466" />
  </node>
  <node id="-345" visible="true" lat="43.51419269" lon="-72.90043321">
    <tag k="addr:city" v="Shrewsbury" />
    <tag k="addr:housenumber" v="826" />
    <tag k="addr:street" v="Lincoln Hill Road" />
    <tag k="addr:state" v="VT" />
    <tag k="ref:vcgi:esiteid" v="226467" />
  </node>
  <node id="-346" visible="true" lat="43.51414903" lon="-72.90236426">
    <tag k="addr:city" v="Shrewsbury" />
    <tag k="addr:housenumber" v="742" />
    <tag k="addr:street" v="Lincoln Hill Road" />
    <tag k="addr:state" v="VT" />
    <tag k="ref:vcgi:esiteid" v="226468" />
  </node>
  <node id="-347" visible="true" lat="43.51418479" lon="-72.91496687">
    <tag k="addr:city" v="Shrewsbury" />
    <tag k="addr:housenumber" v="75" />
    <tag k="addr:street" v="Lincoln Hill Road" />
    <tag k="addr:state" v="VT" />
    <tag k="ref:vcgi:esiteid" v="226469" />
  </node>
  <node id="-348" visible="true" lat="43.51398936" lon="-72.8554393">
    <tag k="addr:city" v="Shrewsbury" />
    <tag k="addr:housenumber" v="762" />
    <tag k="addr:street" v="Northam Road" />
    <tag k="addr:state" v="VT" />
    <tag k="ref:vcgi:esiteid" v="226470" />
  </node>
  <node id="-349" visible="true" lat="43.51405601" lon="-72.83845088">
    <tag k="addr:city" v="Shrewsbury" />
    <tag k="addr:housenumber" v="598" />
    <tag k="addr:street" v="Cannon Lane" />
    <tag k="addr:state" v="VT" />
    <tag k="ref:vcgi:esiteid" v="226471" />
  </node>
  <node id="-350" visible="true" lat="43.51376354" lon="-72.89674764">
    <tag k="addr:city" v="Shrewsbury" />
    <tag k="addr:housenumber" v="1023" />
    <tag k="addr:street" v="Lincoln Hill Road" />
    <tag k="addr:state" v="VT" />
    <tag k="ref:vcgi:esiteid" v="226472" />
  </node>
  <node id="-351" visible="true" lat="43.51360437" lon="-72.85670326">
    <tag k="addr:city" v="Shrewsbury" />
    <tag k="addr:housenumber" v="718" />
    <tag k="addr:street" v="Northam Road" />
    <tag k="addr:state" v="VT" />
    <tag k="ref:vcgi:esiteid" v="226473" />
  </node>
  <node id="-352" visible="true" lat="43.51366305" lon="-72.87491578">
    <tag k="addr:city" v="Shrewsbury" />
    <tag k="addr:housenumber" v="478" />
    <tag k="addr:street" v="Lottery Road" />
    <tag k="addr:state" v="VT" />
    <tag k="ref:vcgi:esiteid" v="226474" />
  </node>
  <node id="-353" visible="true" lat="43.51363933" lon="-72.81179237">
    <tag k="addr:city" v="Shrewsbury" />
    <tag k="addr:housenumber" v="293" />
    <tag k="addr:street" v="Hempstead Road" />
    <tag k="addr:state" v="VT" />
    <tag k="ref:vcgi:esiteid" v="226475" />
  </node>
  <node id="-354" visible="true" lat="43.51340873" lon="-72.8589402">
    <tag k="addr:city" v="Shrewsbury" />
    <tag k="addr:housenumber" v="657" />
    <tag k="addr:street" v="Northam Road" />
    <tag k="addr:state" v="VT" />
    <tag k="ref:vcgi:esiteid" v="226476" />
  </node>
  <node id="-355" visible="true" lat="43.51248039" lon="-72.89870458">
    <tag k="addr:city" v="Shrewsbury" />
    <tag k="addr:housenumber" v="876" />
    <tag k="addr:street" v="Lincoln Hill Road" />
    <tag k="addr:state" v="VT" />
    <tag k="ref:vcgi:esiteid" v="226477" />
  </node>
  <node id="-356" visible="true" lat="43.51238235" lon="-72.85881849">
    <tag k="addr:city" v="Shrewsbury" />
    <tag k="addr:housenumber" v="589" />
    <tag k="addr:street" v="Northam Road" />
    <tag k="addr:state" v="VT" />
    <tag k="ref:vcgi:esiteid" v="226478" />
  </node>
  <node id="-357" visible="true" lat="43.51191334" lon="-72.91346483">
    <tag k="addr:city" v="Shrewsbury" />
    <tag k="addr:housenumber" v="2944" />
    <tag k="addr:street" v="Vermont Route 103" />
    <tag k="addr:state" v="VT" />
    <tag k="ref:vcgi:esiteid" v="226479" />
  </node>
  <node id="-358" visible="true" lat="43.51190926" lon="-72.91126959">
    <tag k="addr:city" v="Shrewsbury" />
    <tag k="addr:housenumber" v="3125" />
    <tag k="addr:street" v="Vermont Route 103" />
    <tag k="addr:state" v="VT" />
    <tag k="ref:vcgi:esiteid" v="226480" />
  </node>
  <node id="-359" visible="true" lat="43.51226866" lon="-72.80998511">
    <tag k="addr:city" v="Shrewsbury" />
    <tag k="addr:housenumber" v="316" />
    <tag k="addr:street" v="Hempstead Road" />
    <tag k="addr:state" v="VT" />
    <tag k="ref:vcgi:esiteid" v="226481" />
  </node>
  <node id="-360" visible="true" lat="43.51179597" lon="-72.81458832">
    <tag k="addr:city" v="Shrewsbury" />
    <tag k="addr:housenumber" v="74" />
    <tag k="addr:street" v="Hempstead Road" />
    <tag k="addr:state" v="VT" />
    <tag k="ref:vcgi:esiteid" v="226482" />
  </node>
  <node id="-361" visible="true" lat="43.51156276" lon="-72.81346767">
    <tag k="addr:city" v="Shrewsbury" />
    <tag k="addr:housenumber" v="146" />
    <tag k="addr:street" v="Hempstead Road" />
    <tag k="addr:state" v="VT" />
    <tag k="ref:vcgi:esiteid" v="226483" />
  </node>
  <node id="-362" visible="true" lat="43.51135635" lon="-72.88942718">
    <tag k="addr:city" v="Shrewsbury" />
    <tag k="addr:housenumber" v="1449" />
    <tag k="addr:street" v="Lincoln Hill Road" />
    <tag k="addr:state" v="VT" />
    <tag k="ref:vcgi:esiteid" v="226484" />
  </node>
  <node id="-363" visible="true" lat="43.51141172" lon="-72.81655381">
    <tag k="addr:city" v="Shrewsbury" />
    <tag k="addr:housenumber" v="1452" />
    <tag k="addr:street" v="Eastham Road" />
    <tag k="addr:state" v="VT" />
    <tag k="ref:vcgi:esiteid" v="226485" />
  </node>
  <node id="-364" visible="true" lat="43.51126463" lon="-72.91164956">
    <tag k="addr:city" v="Shrewsbury" />
    <tag k="addr:housenumber" v="3049" />
    <tag k="addr:street" v="Vermont Route 103" />
    <tag k="addr:state" v="VT" />
    <tag k="ref:vcgi:esiteid" v="226486" />
  </node>
  <node id="-365" visible="true" lat="43.51113809" lon="-72.86781014">
    <tag k="addr:city" v="Shrewsbury" />
    <tag k="addr:housenumber" v="1958" />
    <tag k="addr:street" v="Keiffer Road" />
    <tag k="addr:state" v="VT" />
    <tag k="ref:vcgi:esiteid" v="226487" />
  </node>
  <node id="-366" visible="true" lat="43.51133652" lon="-72.88866829">
    <tag k="addr:city" v="Shrewsbury" />
    <tag k="addr:housenumber" v="1489" />
    <tag k="addr:street" v="Lincoln Hill Road" />
    <tag k="addr:state" v="VT" />
    <tag k="ref:vcgi:esiteid" v="226488" />
  </node>
  <node id="-367" visible="true" lat="43.5113449" lon="-72.8153305">
    <tag k="addr:city" v="Shrewsbury" />
    <tag k="addr:housenumber" v="42" />
    <tag k="addr:street" v="Hempstead Road" />
    <tag k="addr:state" v="VT" />
    <tag k="ref:vcgi:esiteid" v="226489" />
  </node>
  <node id="-368" visible="true" lat="43.51110076" lon="-72.89110565">
    <tag k="addr:city" v="Shrewsbury" />
    <tag k="addr:housenumber" v="1368" />
    <tag k="addr:street" v="Lincoln Hill Road" />
    <tag k="addr:state" v="VT" />
    <tag k="ref:vcgi:esiteid" v="226490" />
  </node>
  <node id="-369" visible="true" lat="43.51085498" lon="-72.89993098">
    <tag k="addr:city" v="Shrewsbury" />
    <tag k="addr:housenumber" v="996" />
    <tag k="addr:street" v="Lincoln Hill Road" />
    <tag k="addr:state" v="VT" />
    <tag k="ref:vcgi:esiteid" v="226491" />
  </node>
  <node id="-370" visible="true" lat="43.51075037" lon="-72.91221433">
    <tag k="addr:city" v="Shrewsbury" />
    <tag k="addr:housenumber" v="2996" />
    <tag k="addr:street" v="Vermont Route 103" />
    <tag k="addr:state" v="VT" />
    <tag k="ref:vcgi:esiteid" v="226492" />
  </node>
  <node id="-371" visible="true" lat="43.51054317" lon="-72.91206672">
    <tag k="addr:city" v="Shrewsbury" />
    <tag k="addr:housenumber" v="2998" />
    <tag k="addr:street" v="Vermont Route 103" />
    <tag k="addr:state" v="VT" />
    <tag k="ref:vcgi:esiteid" v="226493" />
  </node>
  <node id="-372" visible="true" lat="43.51061398" lon="-72.86578366">
    <tag k="addr:city" v="Shrewsbury" />
    <tag k="addr:housenumber" v="2101" />
    <tag k="addr:street" v="Keiffer Road" />
    <tag k="addr:state" v="VT" />
    <tag k="ref:vcgi:esiteid" v="226494" />
  </node>
  <node id="-373" visible="true" lat="43.5108769" lon="-72.81661157">
    <tag k="addr:city" v="Shrewsbury" />
    <tag k="addr:housenumber" v="1500" />
    <tag k="addr:street" v="Eastham Road" />
    <tag k="addr:state" v="VT" />
    <tag k="ref:vcgi:esiteid" v="226495" />
  </node>
  <node id="-374" visible="true" lat="43.51028022" lon="-72.8704836">
    <tag k="addr:city" v="Shrewsbury" />
    <tag k="addr:housenumber" v="153" />
    <tag k="addr:street" v="Lottery Road" />
    <tag k="addr:state" v="VT" />
    <tag k="ref:vcgi:esiteid" v="226496" />
  </node>
  <node id="-375" visible="true" lat="43.51003669" lon="-72.89703973">
    <tag k="addr:city" v="Shrewsbury" />
    <tag k="addr:housenumber" v="998" />
    <tag k="addr:street" v="Lincoln Hill Road" />
    <tag k="addr:state" v="VT" />
    <tag k="ref:vcgi:esiteid" v="226497" />
  </node>
  <node id="-376" visible="true" lat="43.51007428" lon="-72.81688324">
    <tag k="addr:city" v="Shrewsbury" />
    <tag k="addr:housenumber" v="1548" />
    <tag k="addr:street" v="Eastham Road" />
    <tag k="addr:state" v="VT" />
    <tag k="ref:vcgi:esiteid" v="226498" />
  </node>
  <node id="-377" visible="true" lat="43.50976678" lon="-72.86912219">
    <tag k="addr:city" v="Shrewsbury" />
    <tag k="addr:housenumber" v="88" />
    <tag k="addr:street" v="Lottery Road" />
    <tag k="addr:state" v="VT" />
    <tag k="ref:vcgi:esiteid" v="226499" />
  </node>
  <node id="-378" visible="true" lat="43.50959601" lon="-72.81567211">
    <tag k="addr:city" v="Shrewsbury" />
    <tag k="addr:housenumber" v="1567" />
    <tag k="addr:street" v="Eastham Road" />
    <tag k="addr:state" v="VT" />
    <tag k="ref:vcgi:esiteid" v="226500" />
  </node>
  <node id="-379" visible="true" lat="43.50952148" lon="-72.87893676">
    <tag k="addr:city" v="Shrewsbury" />
    <tag k="addr:housenumber" v="1993" />
    <tag k="addr:street" v="Lincoln Hill Road" />
    <tag k="addr:state" v="VT" />
    <tag k="ref:vcgi:esiteid" v="226501" />
  </node>
  <node id="-380" visible="true" lat="43.50945417" lon="-72.87040265">
    <tag k="addr:city" v="Shrewsbury" />
    <tag k="addr:housenumber" v="2435" />
    <tag k="addr:street" v="Lincoln Hill Road" />
    <tag k="addr:state" v="VT" />
    <tag k="ref:vcgi:esiteid" v="226502" />
  </node>
  <node id="-381" visible="true" lat="43.5095053" lon="-72.87003672">
    <tag k="addr:city" v="Shrewsbury" />
    <tag k="addr:housenumber" v="2443" />
    <tag k="addr:street" v="Lincoln Hill Road" />
    <tag k="addr:state" v="VT" />
    <tag k="ref:vcgi:esiteid" v="226503" />
  </node>
  <node id="-382" visible="true" lat="43.50930575" lon="-72.90600473">
    <tag k="addr:city" v="Shrewsbury" />
    <tag k="addr:housenumber" v="3313" />
    <tag k="addr:street" v="Vermont Route 103" />
    <tag k="addr:state" v="VT" />
    <tag k="ref:vcgi:esiteid" v="226504" />
  </node>
  <node id="-383" visible="true" lat="43.50925278" lon="-72.86692476">
    <tag k="addr:city" v="Shrewsbury" />
    <tag k="addr:housenumber" v="2202" />
    <tag k="addr:street" v="Keiffer Road" />
    <tag k="addr:state" v="VT" />
    <tag k="ref:vcgi:esiteid" v="226505" />
  </node>
  <node id="-384" visible="true" lat="43.50922488" lon="-72.86849809">
    <tag k="addr:city" v="Shrewsbury" />
    <tag k="addr:housenumber" v="20" />
    <tag k="addr:street" v="Lottery Road" />
    <tag k="addr:state" v="VT" />
    <tag k="ref:vcgi:esiteid" v="226506" />
  </node>
  <node id="-385" visible="true" lat="43.5090866" lon="-72.87720489">
    <tag k="addr:city" v="Shrewsbury" />
    <tag k="addr:housenumber" v="2084" />
    <tag k="addr:street" v="Lincoln Hill Road" />
    <tag k="addr:state" v="VT" />
    <tag k="ref:vcgi:esiteid" v="226507" />
  </node>
  <node id="-386" visible="true" lat="43.50874732" lon="-72.86868545">
    <tag k="addr:city" v="Shrewsbury" />
    <tag k="addr:housenumber" v="2512" />
    <tag k="addr:street" v="Lincoln Hill Road" />
    <tag k="addr:state" v="VT" />
    <tag k="ref:vcgi:esiteid" v="226508" />
  </node>
  <node id="-387" visible="true" lat="43.50890923" lon="-72.86671888">
    <tag k="addr:city" v="Shrewsbury" />
    <tag k="addr:housenumber" v="23" />
    <tag k="addr:street" v="Northam Road" />
    <tag k="addr:state" v="VT" />
    <tag k="ref:vcgi:esiteid" v="226509" />
  </node>
  <node id="-388" visible="true" lat="43.5087802" lon="-72.86835883">
    <tag k="addr:city" v="Shrewsbury" />
    <tag k="addr:housenumber" v="2536" />
    <tag k="addr:street" v="Lincoln Hill Road" />
    <tag k="addr:state" v="VT" />
    <tag k="ref:vcgi:esiteid" v="226510" />
  </node>
  <node id="-389" visible="true" lat="43.50874782" lon="-72.86496024">
    <tag k="addr:city" v="Shrewsbury" />
    <tag k="addr:housenumber" v="101" />
    <tag k="addr:street" v="Northam Road" />
    <tag k="addr:state" v="VT" />
    <tag k="ref:vcgi:esiteid" v="226511" />
  </node>
  <node id="-390" visible="true" lat="43.5082086" lon="-72.86742374">
    <tag k="addr:city" v="Shrewsbury" />
    <tag k="addr:housenumber" v="2568" />
    <tag k="addr:street" v="Lincoln Hill Road" />
    <tag k="addr:state" v="VT" />
    <tag k="ref:vcgi:esiteid" v="226512" />
  </node>
  <node id="-391" visible="true" lat="43.50813293" lon="-72.88243866">
    <tag k="addr:city" v="Shrewsbury" />
    <tag k="addr:housenumber" v="113" />
    <tag k="addr:street" v="Smith Lane" />
    <tag k="addr:state" v="VT" />
    <tag k="ref:vcgi:esiteid" v="226513" />
  </node>
  <node id="-392" visible="true" lat="43.50832502" lon="-72.81642598">
    <tag k="addr:city" v="Shrewsbury" />
    <tag k="addr:housenumber" v="1675" />
    <tag k="addr:street" v="Eastham Road" />
    <tag k="addr:state" v="VT" />
    <tag k="ref:vcgi:esiteid" v="226514" />
  </node>
  <node id="-393" visible="true" lat="43.50766196" lon="-72.86271369">
    <tag k="addr:city" v="Shrewsbury" />
    <tag k="addr:housenumber" v="214" />
    <tag k="addr:street" v="Northam Road" />
    <tag k="addr:state" v="VT" />
    <tag k="ref:vcgi:esiteid" v="226515" />
  </node>
  <node id="-394" visible="true" lat="43.50803825" lon="-72.8611137">
    <tag k="addr:city" v="Shrewsbury" />
    <tag k="addr:housenumber" v="1894" />
    <tag k="addr:street" v="Crown Point Road" />
    <tag k="addr:state" v="VT" />
    <tag k="ref:vcgi:esiteid" v="226516" />
  </node>
  <node id="-395" visible="true" lat="43.50775104" lon="-72.90461543">
    <tag k="addr:city" v="Shrewsbury" />
    <tag k="addr:housenumber" v="3495" />
    <tag k="addr:street" v="Vermont Route 103" />
    <tag k="addr:state" v="VT" />
    <tag k="ref:vcgi:esiteid" v="226517" />
  </node>
  <node id="-396" visible="true" lat="43.50759479" lon="-72.8667473">
    <tag k="addr:city" v="Shrewsbury" />
    <tag k="addr:housenumber" v="66" />
    <tag k="addr:street" v="Russellville Road" />
    <tag k="addr:state" v="VT" />
    <tag k="ref:vcgi:esiteid" v="226518" />
  </node>
  <node id="-397" visible="true" lat="43.50730537" lon="-72.90346808">
    <tag k="addr:city" v="Shrewsbury" />
    <tag k="addr:housenumber" v="3525" />
    <tag k="addr:street" v="Vermont Route 103" />
    <tag k="addr:state" v="VT" />
    <tag k="ref:vcgi:esiteid" v="226519" />
  </node>
  <node id="-398" visible="true" lat="43.50658775" lon="-72.81555038">
    <tag k="addr:city" v="Shrewsbury" />
    <tag k="addr:housenumber" v="94" />
    <tag k="addr:street" v="Bailey Road" />
    <tag k="addr:state" v="VT" />
    <tag k="ref:vcgi:esiteid" v="226520" />
  </node>
  <node id="-399" visible="true" lat="43.50652529" lon="-72.86605026">
    <tag k="addr:city" v="Shrewsbury" />
    <tag k="addr:housenumber" v="170" />
    <tag k="addr:street" v="Russellville Road" />
    <tag k="addr:state" v="VT" />
    <tag k="ref:vcgi:esiteid" v="226521" />
  </node>
  <node id="-400" visible="true" lat="43.50603816" lon="-72.9020526">
    <tag k="addr:city" v="Shrewsbury" />
    <tag k="addr:housenumber" v="3619" />
    <tag k="addr:street" v="Vermont Route 103" />
    <tag k="addr:state" v="VT" />
    <tag k="ref:vcgi:esiteid" v="226522" />
  </node>
  <node id="-401" visible="true" lat="43.50599731" lon="-72.85289823">
    <tag k="addr:city" v="Shrewsbury" />
    <tag k="addr:housenumber" v="1434" />
    <tag k="addr:street" v="Crown Point Road" />
    <tag k="addr:state" v="VT" />
    <tag k="ref:vcgi:esiteid" v="226523" />
  </node>
  <node id="-402" visible="true" lat="43.50499445" lon="-72.86438743">
    <tag k="addr:city" v="Shrewsbury" />
    <tag k="addr:housenumber" v="278" />
    <tag k="addr:street" v="Russellville Road" />
    <tag k="addr:state" v="VT" />
    <tag k="ref:vcgi:esiteid" v="226524" />
  </node>
  <node id="-403" visible="true" lat="43.50518595" lon="-72.9020851">
    <tag k="addr:city" v="Shrewsbury" />
    <tag k="addr:housenumber" v="3691" />
    <tag k="addr:street" v="Vermont Route 103" />
    <tag k="addr:state" v="VT" />
    <tag k="ref:vcgi:esiteid" v="226525" />
  </node>
  <node id="-404" visible="true" lat="43.50458896" lon="-72.90126127">
    <tag k="addr:city" v="Shrewsbury" />
    <tag k="addr:housenumber" v="3747" />
    <tag k="addr:street" v="Vermont Route 103" />
    <tag k="addr:state" v="VT" />
    <tag k="ref:vcgi:esiteid" v="226526" />
  </node>
  <node id="-405" visible="true" lat="43.50427238" lon="-72.90084138">
    <tag k="addr:city" v="Shrewsbury" />
    <tag k="addr:housenumber" v="3775" />
    <tag k="addr:street" v="Vermont Route 103" />
    <tag k="addr:state" v="VT" />
    <tag k="ref:vcgi:esiteid" v="226527" />
  </node>
  <node id="-406" visible="true" lat="43.50429399" lon="-72.84807342">
    <tag k="addr:city" v="Shrewsbury" />
    <tag k="addr:housenumber" v="1231" />
    <tag k="addr:street" v="Crown Point Road" />
    <tag k="addr:state" v="VT" />
    <tag k="ref:vcgi:esiteid" v="226528" />
  </node>
  <node id="-407" visible="true" lat="43.50402136" lon="-72.86403427">
    <tag k="addr:city" v="Shrewsbury" />
    <tag k="addr:housenumber" v="346" />
    <tag k="addr:street" v="Russellville Road" />
    <tag k="addr:state" v="VT" />
    <tag k="ref:vcgi:esiteid" v="226529" />
  </node>
  <node id="-408" visible="true" lat="43.50403797" lon="-72.884331">
    <tag k="addr:city" v="Shrewsbury" />
    <tag k="addr:housenumber" v="420" />
    <tag k="addr:street" v="Smith Lane" />
    <tag k="addr:state" v="VT" />
    <tag k="ref:vcgi:esiteid" v="226530" />
  </node>
  <node id="-409" visible="true" lat="43.50415851" lon="-72.86239848">
    <tag k="addr:city" v="Shrewsbury" />
    <tag k="addr:housenumber" v="411" />
    <tag k="addr:street" v="Russellville Road" />
    <tag k="addr:state" v="VT" />
    <tag k="ref:vcgi:esiteid" v="226531" />
  </node>
  <node id="-410" visible="true" lat="43.50336506" lon="-72.89732951">
    <tag k="addr:city" v="Shrewsbury" />
    <tag k="addr:housenumber" v="3887" />
    <tag k="addr:street" v="Vermont Route 103" />
    <tag k="addr:state" v="VT" />
    <tag k="ref:vcgi:esiteid" v="226532" />
  </node>
  <node id="-411" visible="true" lat="43.50288018" lon="-72.86262055">
    <tag k="addr:city" v="Shrewsbury" />
    <tag k="addr:housenumber" v="430" />
    <tag k="addr:street" v="Russellville Road" />
    <tag k="addr:state" v="VT" />
    <tag k="ref:vcgi:esiteid" v="226533" />
  </node>
  <node id="-412" visible="true" lat="43.50338179" lon="-72.86131988">
    <tag k="addr:city" v="Shrewsbury" />
    <tag k="addr:housenumber" v="467" />
    <tag k="addr:street" v="Russellville Road" />
    <tag k="addr:state" v="VT" />
    <tag k="ref:vcgi:esiteid" v="226534" />
  </node>
  <node id="-413" visible="true" lat="43.50182455" lon="-72.82139205">
    <tag k="addr:city" v="Shrewsbury" />
    <tag k="addr:housenumber" v="2208" />
    <tag k="addr:street" v="Eastham Road" />
    <tag k="addr:state" v="VT" />
    <tag k="ref:vcgi:esiteid" v="226535" />
  </node>
  <node id="-414" visible="true" lat="43.50148093" lon="-72.87085478">
    <tag k="addr:city" v="Shrewsbury" />
    <tag k="addr:housenumber" v="63" />
    <tag k="addr:street" v="Copperas Hill Road" />
    <tag k="addr:state" v="VT" />
    <tag k="ref:vcgi:esiteid" v="226536" />
  </node>
  <node id="-415" visible="true" lat="43.50084304" lon="-72.84492492">
    <tag k="addr:city" v="Shrewsbury" />
    <tag k="addr:housenumber" v="811" />
    <tag k="addr:street" v="Crown Point Road" />
    <tag k="addr:state" v="VT" />
    <tag k="ref:vcgi:esiteid" v="226538" />
  </node>
  <node id="-416" visible="true" lat="43.50087233" lon="-72.85670727">
    <tag k="addr:city" v="Shrewsbury" />
    <tag k="addr:housenumber" v="773" />
    <tag k="addr:street" v="Russellville Road" />
    <tag k="addr:state" v="VT" />
    <tag k="ref:vcgi:esiteid" v="226539" />
  </node>
  <node id="-417" visible="true" lat="43.50052966" lon="-72.89778467">
    <tag k="addr:city" v="Shrewsbury" />
    <tag k="addr:housenumber" v="4071" />
    <tag k="addr:street" v="Vermont Route 103" />
    <tag k="addr:state" v="VT" />
    <tag k="ref:vcgi:esiteid" v="226540" />
  </node>
  <node id="-418" visible="true" lat="43.50029915" lon="-72.87151072">
    <tag k="addr:city" v="Shrewsbury" />
    <tag k="addr:housenumber" v="133" />
    <tag k="addr:street" v="Copperas Hill Road" />
    <tag k="addr:state" v="VT" />
    <tag k="ref:vcgi:esiteid" v="226541" />
  </node>
  <node id="-419" visible="true" lat="43.50037978" lon="-72.85413825">
    <tag k="addr:city" v="Shrewsbury" />
    <tag k="addr:housenumber" v="879" />
    <tag k="addr:street" v="Russellville Road" />
    <tag k="addr:state" v="VT" />
    <tag k="ref:vcgi:esiteid" v="226542" />
  </node>
  <node id="-420" visible="true" lat="43.50005992" lon="-72.8592228">
    <tag k="addr:city" v="Shrewsbury" />
    <tag k="addr:housenumber" v="694" />
    <tag k="addr:street" v="Russellville Road" />
    <tag k="addr:state" v="VT" />
    <tag k="ref:vcgi:esiteid" v="226543" />
  </node>
  <node id="-421" visible="true" lat="43.49992429" lon="-72.89777183">
    <tag k="addr:city" v="Shrewsbury" />
    <tag k="addr:housenumber" v="4098" />
    <tag k="addr:street" v="Vermont Route 103" />
    <tag k="addr:state" v="VT" />
    <tag k="ref:vcgi:esiteid" v="226544" />
  </node>
  <node id="-422" visible="true" lat="43.49987207" lon="-72.8982406">
    <tag k="addr:city" v="Shrewsbury" />
    <tag k="addr:housenumber" v="4092" />
    <tag k="addr:street" v="Vermont Route 103" />
    <tag k="addr:state" v="VT" />
    <tag k="ref:vcgi:esiteid" v="226545" />
  </node>
  <node id="-423" visible="true" lat="43.50010306" lon="-72.84317654">
    <tag k="addr:city" v="Shrewsbury" />
    <tag k="addr:housenumber" v="712" />
    <tag k="addr:street" v="Crown Point Road" />
    <tag k="addr:state" v="VT" />
    <tag k="ref:vcgi:esiteid" v="226546" />
  </node>
  <node id="-424" visible="true" lat="43.49969333" lon="-72.89520203">
    <tag k="addr:city" v="Shrewsbury" />
    <tag k="addr:housenumber" v="4261" />
    <tag k="addr:street" v="Vermont Route 103" />
    <tag k="addr:state" v="VT" />
    <tag k="ref:vcgi:esiteid" v="226547" />
  </node>
  <node id="-425" visible="true" lat="43.50028407" lon="-72.80436553">
    <tag k="addr:city" v="Shrewsbury" />
    <tag k="addr:housenumber" v="856" />
    <tag k="addr:street" v="Bailey Road" />
    <tag k="addr:state" v="VT" />
    <tag k="ref:vcgi:esiteid" v="226548" />
  </node>
  <node id="-426" visible="true" lat="43.49984358" lon="-72.87848908">
    <tag k="addr:city" v="Shrewsbury" />
    <tag k="addr:housenumber" v="825" />
    <tag k="addr:street" v="Town Hill Road" />
    <tag k="addr:state" v="VT" />
    <tag k="ref:vcgi:esiteid" v="226549" />
  </node>
  <node id="-427" visible="true" lat="43.49958067" lon="-72.89729995">
    <tag k="addr:city" v="Shrewsbury" />
    <tag k="addr:housenumber" v="4132" />
    <tag k="addr:street" v="Vermont Route 103" />
    <tag k="addr:state" v="VT" />
    <tag k="ref:vcgi:esiteid" v="226550" />
  </node>
  <node id="-428" visible="true" lat="43.49945289" lon="-72.87226502">
    <tag k="addr:city" v="Shrewsbury" />
    <tag k="addr:housenumber" v="189" />
    <tag k="addr:street" v="Copperas Hill Road" />
    <tag k="addr:state" v="VT" />
    <tag k="ref:vcgi:esiteid" v="226551" />
  </node>
  <node id="-429" visible="true" lat="43.49863173" lon="-72.85372335">
    <tag k="addr:city" v="Shrewsbury" />
    <tag k="addr:housenumber" v="1013" />
    <tag k="addr:street" v="Russellville Road" />
    <tag k="addr:state" v="VT" />
    <tag k="ref:vcgi:esiteid" v="226552" />
  </node>
  <node id="-430" visible="true" lat="43.49862274" lon="-72.82392471">
    <tag k="addr:city" v="Shrewsbury" />
    <tag k="addr:housenumber" v="2579" />
    <tag k="addr:street" v="Eastham Road" />
    <tag k="addr:state" v="VT" />
    <tag k="ref:vcgi:esiteid" v="226553" />
  </node>
  <node id="-431" visible="true" lat="43.49811551" lon="-72.85365881">
    <tag k="addr:city" v="Shrewsbury" />
    <tag k="addr:housenumber" v="1011" />
    <tag k="addr:street" v="Russellville Road" />
    <tag k="addr:state" v="VT" />
    <tag k="ref:vcgi:esiteid" v="226554" />
  </node>
  <node id="-432" visible="true" lat="43.49826658" lon="-72.80105502">
    <tag k="addr:city" v="Shrewsbury" />
    <tag k="addr:housenumber" v="1037" />
    <tag k="addr:street" v="Bailey Road" />
    <tag k="addr:state" v="VT" />
    <tag k="ref:vcgi:esiteid" v="226555" />
  </node>
  <node id="-433" visible="true" lat="43.49781588" lon="-72.87673959">
    <tag k="addr:city" v="Shrewsbury" />
    <tag k="addr:housenumber" v="562" />
    <tag k="addr:street" v="Town Hill Road" />
    <tag k="addr:state" v="VT" />
    <tag k="ref:vcgi:esiteid" v="226556" />
  </node>
  <node id="-434" visible="true" lat="43.49743063" lon="-72.8440972">
    <tag k="addr:city" v="Shrewsbury" />
    <tag k="addr:housenumber" v="503" />
    <tag k="addr:street" v="Crown Point Road" />
    <tag k="addr:state" v="VT" />
    <tag k="ref:vcgi:esiteid" v="226557" />
  </node>
  <node id="-435" visible="true" lat="43.49749458" lon="-72.84079718">
    <tag k="addr:city" v="Shrewsbury" />
    <tag k="addr:housenumber" v="494" />
    <tag k="addr:street" v="Crown Point Road" />
    <tag k="addr:state" v="VT" />
    <tag k="ref:vcgi:esiteid" v="226558" />
  </node>
  <node id="-436" visible="true" lat="43.49743506" lon="-72.87905209">
    <tag k="addr:city" v="Shrewsbury" />
    <tag k="addr:housenumber" v="662" />
    <tag k="addr:street" v="Town Hill Road" />
    <tag k="addr:state" v="VT" />
    <tag k="ref:vcgi:esiteid" v="226559" />
  </node>
  <node id="-437" visible="true" lat="43.49745957" lon="-72.83109964">
    <tag k="addr:city" v="Shrewsbury" />
    <tag k="addr:housenumber" v="382" />
    <tag k="addr:street" v="Old Farm Road" />
    <tag k="addr:state" v="VT" />
    <tag k="ref:vcgi:esiteid" v="226560" />
  </node>
  <node id="-438" visible="true" lat="43.49683158" lon="-72.89480923">
    <tag k="addr:city" v="Shrewsbury" />
    <tag k="addr:housenumber" v="24" />
    <tag k="addr:street" v="Spring Lake Road" />
    <tag k="addr:state" v="VT" />
    <tag k="ref:vcgi:esiteid" v="226561" />
  </node>
  <node id="-439" visible="true" lat="43.49662781" lon="-72.83379633">
    <tag k="addr:city" v="Shrewsbury" />
    <tag k="addr:housenumber" v="329" />
    <tag k="addr:street" v="Old Farm Road" />
    <tag k="addr:state" v="VT" />
    <tag k="ref:vcgi:esiteid" v="226562" />
  </node>
  <node id="-440" visible="true" lat="43.49657862" lon="-72.89344205">
    <tag k="addr:city" v="Shrewsbury" />
    <tag k="addr:housenumber" v="4431" />
    <tag k="addr:street" v="Vermont Route 103" />
    <tag k="addr:state" v="VT" />
    <tag k="ref:vcgi:esiteid" v="226563" />
  </node>
  <node id="-441" visible="true" lat="43.49605369" lon="-72.89266767">
    <tag k="addr:city" v="Shrewsbury" />
    <tag k="addr:housenumber" v="4489" />
    <tag k="addr:street" v="Vermont Route 103" />
    <tag k="addr:state" v="VT" />
    <tag k="ref:vcgi:esiteid" v="226564" />
  </node>
  <node id="-442" visible="true" lat="43.49607049" lon="-72.84112892">
    <tag k="addr:city" v="Shrewsbury" />
    <tag k="addr:housenumber" v="399" />
    <tag k="addr:street" v="Crown Point Road" />
    <tag k="addr:state" v="VT" />
    <tag k="ref:vcgi:esiteid" v="226565" />
  </node>
  <node id="-443" visible="true" lat="43.49602252" lon="-72.81419483">
    <tag k="addr:city" v="Shrewsbury" />
    <tag k="addr:housenumber" v="3131" />
    <tag k="addr:street" v="Eastham Road" />
    <tag k="addr:state" v="VT" />
    <tag k="ref:vcgi:esiteid" v="226566" />
  </node>
  <node id="-444" visible="true" lat="43.49587757" lon="-72.80084848">
    <tag k="addr:city" v="Shrewsbury" />
    <tag k="addr:housenumber" v="1204" />
    <tag k="addr:street" v="Bailey Road" />
    <tag k="addr:state" v="VT" />
    <tag k="ref:vcgi:esiteid" v="226567" />
  </node>
  <node id="-445" visible="true" lat="43.49542212" lon="-72.88041065">
    <tag k="addr:city" v="Shrewsbury" />
    <tag k="addr:housenumber" v="521" />
    <tag k="addr:street" v="Town Hill Road" />
    <tag k="addr:state" v="VT" />
    <tag k="ref:vcgi:esiteid" v="226568" />
  </node>
  <node id="-446" visible="true" lat="43.49524202" lon="-72.85266461">
    <tag k="addr:city" v="Shrewsbury" />
    <tag k="addr:housenumber" v="1206" />
    <tag k="addr:street" v="Russellville Road" />
    <tag k="addr:state" v="VT" />
    <tag k="ref:vcgi:esiteid" v="226569" />
  </node>
  <node id="-447" visible="true" lat="43.49526434" lon="-72.88276721">
    <tag k="addr:city" v="Shrewsbury" />
    <tag k="addr:housenumber" v="112" />
    <tag k="addr:street" v="Stewart Lane" />
    <tag k="addr:state" v="VT" />
    <tag k="ref:vcgi:esiteid" v="226570" />
  </node>
  <node id="-448" visible="true" lat="43.49500821" lon="-72.8523037">
    <tag k="addr:city" v="Shrewsbury" />
    <tag k="addr:housenumber" v="1232" />
    <tag k="addr:street" v="Russellville Road" />
    <tag k="addr:state" v="VT" />
    <tag k="ref:vcgi:esiteid" v="226571" />
  </node>
  <node id="-449" visible="true" lat="43.49522412" lon="-72.88667201">
    <tag k="addr:city" v="Shrewsbury" />
    <tag k="addr:housenumber" v="307" />
    <tag k="addr:street" v="Stewart Lane" />
    <tag k="addr:state" v="VT" />
    <tag k="ref:vcgi:esiteid" v="226572" />
  </node>
  <node id="-450" visible="true" lat="43.49479008" lon="-72.88337397">
    <tag k="addr:city" v="Shrewsbury" />
    <tag k="addr:housenumber" v="114" />
    <tag k="addr:street" v="Stewart Lane" />
    <tag k="addr:state" v="VT" />
    <tag k="ref:vcgi:esiteid" v="226573" />
  </node>
  <node id="-451" visible="true" lat="43.49479479" lon="-72.88124904">
    <tag k="addr:city" v="Shrewsbury" />
    <tag k="addr:housenumber" v="465" />
    <tag k="addr:street" v="Town Hill Road" />
    <tag k="addr:state" v="VT" />
    <tag k="ref:vcgi:esiteid" v="226574" />
  </node>
  <node id="-452" visible="true" lat="43.49466835" lon="-72.85218899">
    <tag k="addr:city" v="Shrewsbury" />
    <tag k="addr:housenumber" v="1254" />
    <tag k="addr:street" v="Russellville Road" />
    <tag k="addr:state" v="VT" />
    <tag k="ref:vcgi:esiteid" v="226575" />
  </node>
  <node id="-453" visible="true" lat="43.49416298" lon="-72.88179553">
    <tag k="addr:city" v="Shrewsbury" />
    <tag k="addr:housenumber" v="72" />
    <tag k="addr:street" v="Stewart Lane" />
    <tag k="addr:state" v="VT" />
    <tag k="ref:vcgi:esiteid" v="226576" />
  </node>
  <node id="-454" visible="true" lat="43.49406153" lon="-72.8997336">
    <tag k="addr:city" v="Shrewsbury" />
    <tag k="addr:housenumber" v="430" />
    <tag k="addr:street" v="Spring Lake Road" />
    <tag k="addr:state" v="VT" />
    <tag k="ref:vcgi:esiteid" v="226577" />
  </node>
  <node id="-455" visible="true" lat="43.49433384" lon="-72.84261426">
    <tag k="addr:city" v="Shrewsbury" />
    <tag k="addr:housenumber" v="145" />
    <tag k="addr:street" v="Crown Point Road" />
    <tag k="addr:state" v="VT" />
    <tag k="ref:vcgi:esiteid" v="226578" />
  </node>
  <node id="-456" visible="true" lat="43.49407757" lon="-72.83440629">
    <tag k="addr:city" v="Shrewsbury" />
    <tag k="addr:housenumber" v="137" />
    <tag k="addr:street" v="Old Farm Road" />
    <tag k="addr:state" v="VT" />
    <tag k="ref:vcgi:esiteid" v="226579" />
  </node>
  <node id="-457" visible="true" lat="43.49391124" lon="-72.88262352">
    <tag k="addr:city" v="Shrewsbury" />
    <tag k="addr:housenumber" v="97" />
    <tag k="addr:street" v="Stewart Lane" />
    <tag k="addr:state" v="VT" />
    <tag k="ref:vcgi:esiteid" v="226580" />
  </node>
  <node id="-458" visible="true" lat="43.49428302" lon="-72.80949591">
    <tag k="addr:city" v="Shrewsbury" />
    <tag k="addr:housenumber" v="3389" />
    <tag k="addr:street" v="Eastham Road" />
    <tag k="addr:state" v="VT" />
    <tag k="ref:vcgi:esiteid" v="226581" />
  </node>
  <node id="-459" visible="true" lat="43.49395717" lon="-72.88952406">
    <tag k="addr:city" v="Shrewsbury" />
    <tag k="addr:housenumber" v="4709" />
    <tag k="addr:street" v="Vermont Route 103" />
    <tag k="addr:state" v="VT" />
    <tag k="ref:vcgi:esiteid" v="226582" />
  </node>
  <node id="-460" visible="true" lat="43.49432212" lon="-72.82838438">
    <tag k="addr:city" v="Shrewsbury" />
    <tag k="addr:housenumber" v="2666" />
    <tag k="addr:street" v="Russellville Road" />
    <tag k="addr:state" v="VT" />
    <tag k="ref:vcgi:esiteid" v="226583" />
  </node>
  <node id="-461" visible="true" lat="43.49392114" lon="-72.88034254">
    <tag k="addr:city" v="Shrewsbury" />
    <tag k="addr:housenumber" v="420" />
    <tag k="addr:street" v="Town Hill Road" />
    <tag k="addr:state" v="VT" />
    <tag k="ref:vcgi:esiteid" v="226584" />
  </node>
  <node id="-462" visible="true" lat="43.49372494" lon="-72.8900212">
    <tag k="addr:city" v="Shrewsbury" />
    <tag k="addr:housenumber" v="4698" />
    <tag k="addr:street" v="Vermont Route 103" />
    <tag k="addr:state" v="VT" />
    <tag k="ref:vcgi:esiteid" v="226585" />
  </node>
  <node id="-463" visible="true" lat="43.49363614" lon="-72.8805112">
    <tag k="addr:city" v="Shrewsbury" />
    <tag k="addr:housenumber" v="406" />
    <tag k="addr:street" v="Town Hill Road" />
    <tag k="addr:state" v="VT" />
    <tag k="ref:vcgi:esiteid" v="226586" />
  </node>
  <node id="-464" visible="true" lat="43.49362996" lon="-72.83918617">
    <tag k="addr:city" v="Shrewsbury" />
    <tag k="addr:housenumber" v="202" />
    <tag k="addr:street" v="Crown Point Road" />
    <tag k="addr:state" v="VT" />
    <tag k="ref:vcgi:esiteid" v="226587" />
  </node>
  <node id="-465" visible="true" lat="43.49349602" lon="-72.88880565">
    <tag k="addr:city" v="Shrewsbury" />
    <tag k="addr:housenumber" v="4757" />
    <tag k="addr:street" v="Vermont Route 103" />
    <tag k="addr:state" v="VT" />
    <tag k="ref:vcgi:esiteid" v="226588" />
  </node>
  <node id="-466" visible="true" lat="43.49307828" lon="-72.89179994">
    <tag k="addr:city" v="Shrewsbury" />
    <tag k="addr:housenumber" v="4636" />
    <tag k="addr:street" v="Vermont Route 103" />
    <tag k="addr:state" v="VT" />
    <tag k="ref:vcgi:esiteid" v="226589" />
  </node>
  <node id="-467" visible="true" lat="43.49296698" lon="-72.89786638">
    <tag k="addr:city" v="Shrewsbury" />
    <tag k="addr:housenumber" v="135" />
    <tag k="addr:street" v="Spring Lake Road" />
    <tag k="addr:state" v="VT" />
    <tag k="ref:vcgi:esiteid" v="226590" />
  </node>
  <node id="-468" visible="true" lat="43.493035" lon="-72.83054905">
    <tag k="addr:city" v="Shrewsbury" />
    <tag k="addr:housenumber" v="2566" />
    <tag k="addr:street" v="Russellville Road" />
    <tag k="addr:state" v="VT" />
    <tag k="ref:vcgi:esiteid" v="226591" />
  </node>
  <node id="-469" visible="true" lat="43.49295504" lon="-72.88148029">
    <tag k="addr:city" v="Shrewsbury" />
    <tag k="addr:housenumber" v="333" />
    <tag k="addr:street" v="Town Hill Road" />
    <tag k="addr:state" v="VT" />
    <tag k="ref:vcgi:esiteid" v="226592" />
  </node>
  <node id="-470" visible="true" lat="43.49273616" lon="-72.899436">
    <tag k="addr:city" v="Shrewsbury" />
    <tag k="addr:housenumber" v="405" />
    <tag k="addr:street" v="Spring Lake Road" />
    <tag k="addr:state" v="VT" />
    <tag k="ref:vcgi:esiteid" v="226593" />
  </node>
  <node id="-471" visible="true" lat="43.49276104" lon="-72.83927314">
    <tag k="addr:city" v="Shrewsbury" />
    <tag k="addr:housenumber" v="148" />
    <tag k="addr:street" v="Crown Point Road" />
    <tag k="addr:state" v="VT" />
    <tag k="ref:vcgi:esiteid" v="226594" />
  </node>
  <node id="-472" visible="true" lat="43.49244525" lon="-72.88838046">
    <tag k="addr:city" v="Shrewsbury" />
    <tag k="addr:housenumber" v="4808" />
    <tag k="addr:street" v="Vermont Route 103" />
    <tag k="addr:state" v="VT" />
    <tag k="ref:vcgi:esiteid" v="226595" />
  </node>
  <node id="-473" visible="true" lat="43.49291367" lon="-72.80488727">
    <tag k="addr:city" v="Shrewsbury" />
    <tag k="addr:housenumber" v="3661" />
    <tag k="addr:street" v="Eastham Road" />
    <tag k="addr:state" v="VT" />
    <tag k="ref:vcgi:esiteid" v="226596" />
  </node>
  <node id="-474" visible="true" lat="43.49290506" lon="-72.80341401">
    <tag k="addr:city" v="Shrewsbury" />
    <tag k="addr:housenumber" v="3723" />
    <tag k="addr:street" v="Eastham Road" />
    <tag k="addr:state" v="VT" />
    <tag k="ref:vcgi:esiteid" v="226597" />
  </node>
  <node id="-475" visible="true" lat="43.49282238" lon="-72.80227816">
    <tag k="addr:city" v="Shrewsbury" />
    <tag k="addr:housenumber" v="3783" />
    <tag k="addr:street" v="Eastham Road" />
    <tag k="addr:state" v="VT" />
    <tag k="ref:vcgi:esiteid" v="226598" />
  </node>
  <node id="-476" visible="true" lat="43.49249112" lon="-72.88084873">
    <tag k="addr:city" v="Shrewsbury" />
    <tag k="addr:housenumber" v="23" />
    <tag k="addr:street" v="Shunpike Road" />
    <tag k="addr:state" v="VT" />
    <tag k="ref:vcgi:esiteid" v="226599" />
  </node>
  <node id="-477" visible="true" lat="43.49252655" lon="-72.88016468">
    <tag k="addr:city" v="Shrewsbury" />
    <tag k="addr:housenumber" v="53" />
    <tag k="addr:street" v="Shunpike Road" />
    <tag k="addr:state" v="VT" />
    <tag k="ref:vcgi:esiteid" v="226600" />
  </node>
  <node id="-478" visible="true" lat="43.49231719" lon="-72.90023803">
    <tag k="addr:city" v="Shrewsbury" />
    <tag k="addr:housenumber" v="429" />
    <tag k="addr:street" v="Spring Lake Road" />
    <tag k="addr:state" v="VT" />
    <tag k="ref:vcgi:esiteid" v="226601" />
  </node>
  <node id="-479" visible="true" lat="43.49230617" lon="-72.88722154">
    <tag k="addr:city" v="Shrewsbury" />
    <tag k="addr:housenumber" v="4861" />
    <tag k="addr:street" v="Vermont Route 103" />
    <tag k="addr:state" v="VT" />
    <tag k="ref:vcgi:esiteid" v="226602" />
  </node>
  <node id="-480" visible="true" lat="43.49290024" lon="-72.80094335">
    <tag k="addr:city" v="Shrewsbury" />
    <tag k="addr:housenumber" v="33" />
    <tag k="addr:street" v="Tabor Road" />
    <tag k="addr:state" v="VT" />
    <tag k="ref:vcgi:esiteid" v="226603" />
  </node>
  <node id="-481" visible="true" lat="43.49304589" lon="-72.79927245">
    <tag k="addr:city" v="Shrewsbury" />
    <tag k="addr:housenumber" v="109" />
    <tag k="addr:street" v="Tabor Road" />
    <tag k="addr:state" v="VT" />
    <tag k="ref:vcgi:esiteid" v="226604" />
  </node>
  <node id="-482" visible="true" lat="43.4924124" lon="-72.7911048">
    <tag k="addr:city" v="Shrewsbury" />
    <tag k="addr:housenumber" v="571" />
    <tag k="addr:street" v="Tabor Road" />
    <tag k="addr:state" v="VT" />
    <tag k="ref:vcgi:esiteid" v="226605" />
  </node>
  <node id="-483" visible="true" lat="43.49153078" lon="-72.83315397">
    <tag k="addr:city" v="Shrewsbury" />
    <tag k="addr:housenumber" v="2398" />
    <tag k="addr:street" v="Russellville Road" />
    <tag k="addr:state" v="VT" />
    <tag k="ref:vcgi:esiteid" v="226606" />
  </node>
  <node id="-484" visible="true" lat="43.49160306" lon="-72.83798932">
    <tag k="addr:city" v="Shrewsbury" />
    <tag k="addr:housenumber" v="2161" />
    <tag k="addr:street" v="Russellville Road" />
    <tag k="addr:state" v="VT" />
    <tag k="ref:vcgi:esiteid" v="226607" />
  </node>
  <node id="-485" visible="true" lat="43.49185108" lon="-72.79780297">
    <tag k="addr:city" v="Shrewsbury" />
    <tag k="addr:housenumber" v="257" />
    <tag k="addr:street" v="Tabor Road" />
    <tag k="addr:state" v="VT" />
    <tag k="ref:vcgi:esiteid" v="226608" />
  </node>
  <node id="-486" visible="true" lat="43.49165209" lon="-72.79891677">
    <tag k="addr:city" v="Shrewsbury" />
    <tag k="addr:housenumber" v="173" />
    <tag k="addr:street" v="Tabor Road" />
    <tag k="addr:state" v="VT" />
    <tag k="ref:vcgi:esiteid" v="226609" />
  </node>
  <node id="-487" visible="true" lat="43.49120905" lon="-72.83796733">
    <tag k="addr:city" v="Shrewsbury" />
    <tag k="addr:housenumber" v="2158" />
    <tag k="addr:street" v="Russellville Road" />
    <tag k="addr:state" v="VT" />
    <tag k="ref:vcgi:esiteid" v="226610" />
  </node>
  <node id="-488" visible="true" lat="43.49157202" lon="-72.79352436">
    <tag k="addr:city" v="Shrewsbury" />
    <tag k="addr:housenumber" v="453" />
    <tag k="addr:street" v="Tabor Road" />
    <tag k="addr:state" v="VT" />
    <tag k="ref:vcgi:esiteid" v="226611" />
  </node>
  <node id="-489" visible="true" lat="43.49123195" lon="-72.80678427">
    <tag k="addr:city" v="Shrewsbury" />
    <tag k="addr:housenumber" v="151" />
    <tag k="addr:street" v="Mount Holly Road" />
    <tag k="addr:state" v="VT" />
    <tag k="ref:vcgi:esiteid" v="226612" />
  </node>
  <node id="-490" visible="true" lat="43.49117523" lon="-72.84336135">
    <tag k="addr:city" v="Shrewsbury" />
    <tag k="addr:housenumber" v="1783" />
    <tag k="addr:street" v="Russellville Road" />
    <tag k="addr:state" v="VT" />
    <tag k="ref:vcgi:esiteid" v="226613" />
  </node>
  <node id="-491" visible="true" lat="43.49119567" lon="-72.80462646">
    <tag k="addr:city" v="Shrewsbury" />
    <tag k="addr:housenumber" v="79" />
    <tag k="addr:street" v="Mount Holly Road" />
    <tag k="addr:state" v="VT" />
    <tag k="ref:vcgi:esiteid" v="226614" />
  </node>
  <node id="-492" visible="true" lat="43.49104173" lon="-72.80985239">
    <tag k="addr:city" v="Shrewsbury" />
    <tag k="addr:housenumber" v="125" />
    <tag k="addr:street" v="Sanderson Road" />
    <tag k="addr:state" v="VT" />
    <tag k="ref:vcgi:esiteid" v="226615" />
  </node>
  <node id="-493" visible="true" lat="43.49101524" lon="-72.81060911">
    <tag k="addr:city" v="Shrewsbury" />
    <tag k="addr:housenumber" v="163" />
    <tag k="addr:street" v="Sanderson Road" />
    <tag k="addr:state" v="VT" />
    <tag k="ref:vcgi:esiteid" v="226616" />
  </node>
  <node id="-494" visible="true" lat="43.49105199" lon="-72.79534082">
    <tag k="addr:city" v="Shrewsbury" />
    <tag k="addr:housenumber" v="358" />
    <tag k="addr:street" v="Tabor Road" />
    <tag k="addr:state" v="VT" />
    <tag k="ref:vcgi:esiteid" v="226617" />
  </node>
  <node id="-495" visible="true" lat="43.49110866" lon="-72.83929086">
    <tag k="addr:city" v="Shrewsbury" />
    <tag k="addr:housenumber" v="18" />
    <tag k="addr:street" v="Crown Point Road" />
    <tag k="addr:state" v="VT" />
    <tag k="ref:vcgi:esiteid" v="226618" />
  </node>
  <node id="-496" visible="true" lat="43.49071269" lon="-72.79309977">
    <tag k="addr:city" v="Shrewsbury" />
    <tag k="addr:housenumber" v="474" />
    <tag k="addr:street" v="Tabor Road" />
    <tag k="addr:state" v="VT" />
    <tag k="ref:vcgi:esiteid" v="226619" />
  </node>
  <node id="-497" visible="true" lat="43.49037788" lon="-72.84080306">
    <tag k="addr:city" v="Shrewsbury" />
    <tag k="addr:housenumber" v="2041" />
    <tag k="addr:street" v="Russellville Road" />
    <tag k="addr:state" v="VT" />
    <tag k="ref:vcgi:esiteid" v="226620" />
  </node>
  <node id="-498" visible="true" lat="43.49026933" lon="-72.88397993">
    <tag k="addr:city" v="Shrewsbury" />
    <tag k="addr:housenumber" v="5075" />
    <tag k="addr:street" v="Vermont Route 103" />
    <tag k="addr:state" v="VT" />
    <tag k="ref:vcgi:esiteid" v="226621" />
  </node>
  <node id="-499" visible="true" lat="43.49033752" lon="-72.81745876">
    <tag k="addr:city" v="Shrewsbury" />
    <tag k="addr:housenumber" v="515" />
    <tag k="addr:street" v="Sanderson Road" />
    <tag k="addr:state" v="VT" />
    <tag k="ref:vcgi:esiteid" v="226622" />
  </node>
  <node id="-500" visible="true" lat="43.48993143" lon="-72.87754399">
    <tag k="addr:city" v="Shrewsbury" />
    <tag k="addr:housenumber" v="262" />
    <tag k="addr:street" v="Shunpike Road" />
    <tag k="addr:state" v="VT" />
    <tag k="ref:vcgi:esiteid" v="226623" />
  </node>
  <node id="-501" visible="true" lat="43.49010166" lon="-72.91347758">
    <tag k="addr:city" v="Shrewsbury" />
    <tag k="addr:housenumber" v="1144" />
    <tag k="addr:street" v="Spring Lake Road" />
    <tag k="addr:state" v="VT" />
    <tag k="ref:vcgi:esiteid" v="226624" />
  </node>
  <node id="-502" visible="true" lat="43.48986293" lon="-72.88416398">
    <tag k="addr:city" v="Shrewsbury" />
    <tag k="addr:housenumber" v="5086" />
    <tag k="addr:street" v="Vermont Route 103" />
    <tag k="addr:state" v="VT" />
    <tag k="ref:vcgi:esiteid" v="226625" />
  </node>
  <node id="-503" visible="true" lat="43.49002235" lon="-72.87660399">
    <tag k="addr:city" v="Shrewsbury" />
    <tag k="addr:housenumber" v="297" />
    <tag k="addr:street" v="Shunpike Road" />
    <tag k="addr:state" v="VT" />
    <tag k="ref:vcgi:esiteid" v="226626" />
  </node>
  <node id="-504" visible="true" lat="43.48996547" lon="-72.8835135">
    <tag k="addr:city" v="Shrewsbury" />
    <tag k="addr:housenumber" v="5125" />
    <tag k="addr:street" v="Vermont Route 103" />
    <tag k="addr:state" v="VT" />
    <tag k="ref:vcgi:esiteid" v="226627" />
  </node>
  <node id="-505" visible="true" lat="43.48963477" lon="-72.90189492">
    <tag k="addr:city" v="Shrewsbury" />
    <tag k="addr:housenumber" v="246" />
    <tag k="addr:street" v="Button Hill Road" />
    <tag k="addr:state" v="VT" />
    <tag k="ref:vcgi:esiteid" v="226628" />
  </node>
  <node id="-506" visible="true" lat="43.48949813" lon="-72.91377258">
    <tag k="addr:city" v="Shrewsbury" />
    <tag k="addr:housenumber" v="1176" />
    <tag k="addr:street" v="Spring Lake Road" />
    <tag k="addr:state" v="VT" />
    <tag k="ref:vcgi:esiteid" v="226629" />
  </node>
  <node id="-507" visible="true" lat="43.48966193" lon="-72.88300996">
    <tag k="addr:city" v="Shrewsbury" />
    <tag k="addr:housenumber" v="5147" />
    <tag k="addr:street" v="Vermont Route 103" />
    <tag k="addr:state" v="VT" />
    <tag k="ref:vcgi:esiteid" v="226630" />
  </node>
  <node id="-508" visible="true" lat="43.48961184" lon="-72.88289216">
    <tag k="addr:city" v="Shrewsbury" />
    <tag k="addr:housenumber" v="5159" />
    <tag k="addr:street" v="Vermont Route 103" />
    <tag k="addr:state" v="VT" />
    <tag k="ref:vcgi:esiteid" v="226631" />
  </node>
  <node id="-509" visible="true" lat="43.48974946" lon="-72.84133708">
    <tag k="addr:city" v="Shrewsbury" />
    <tag k="addr:housenumber" v="1929" />
    <tag k="addr:street" v="Russellville Road" />
    <tag k="addr:state" v="VT" />
    <tag k="ref:vcgi:esiteid" v="226632" />
  </node>
  <node id="-510" visible="true" lat="43.4894014" lon="-72.88065085">
    <tag k="addr:city" v="Shrewsbury" />
    <tag k="addr:housenumber" v="98" />
    <tag k="addr:street" v="Town Hill Road" />
    <tag k="addr:state" v="VT" />
    <tag k="ref:vcgi:esiteid" v="226633" />
  </node>
  <node id="-511" visible="true" lat="43.48938371" lon="-72.88238879">
    <tag k="addr:city" v="Shrewsbury" />
    <tag k="addr:housenumber" v="5187" />
    <tag k="addr:street" v="Vermont Route 103" />
    <tag k="addr:state" v="VT" />
    <tag k="ref:vcgi:esiteid" v="226634" />
  </node>
  <node id="-512" visible="true" lat="43.48917201" lon="-72.91274527">
    <tag k="addr:city" v="Shrewsbury" />
    <tag k="addr:housenumber" v="1157" />
    <tag k="addr:street" v="Spring Lake Road" />
    <tag k="addr:state" v="VT" />
    <tag k="ref:vcgi:esiteid" v="226635" />
  </node>
  <node id="-513" visible="true" lat="43.48913074" lon="-72.8807989">
    <tag k="addr:city" v="Shrewsbury" />
    <tag k="addr:housenumber" v="80" />
    <tag k="addr:street" v="Town Hill Road" />
    <tag k="addr:state" v="VT" />
    <tag k="ref:vcgi:esiteid" v="226636" />
  </node>
  <node id="-514" visible="true" lat="43.48893534" lon="-72.91297843">
    <tag k="addr:city" v="Shrewsbury" />
    <tag k="addr:housenumber" v="1169" />
    <tag k="addr:street" v="Spring Lake Road" />
    <tag k="addr:state" v="VT" />
    <tag k="ref:vcgi:esiteid" v="226637" />
  </node>
  <node id="-515" visible="true" lat="43.48909026" lon="-72.88209714">
    <tag k="addr:city" v="Shrewsbury" />
    <tag k="addr:housenumber" v="5207" />
    <tag k="addr:street" v="Vermont Route 103" />
    <tag k="addr:state" v="VT" />
    <tag k="ref:vcgi:esiteid" v="226638" />
  </node>
  <node id="-516" visible="true" lat="43.48882755" lon="-72.91397728">
    <tag k="addr:city" v="Shrewsbury" />
    <tag k="addr:housenumber" v="1217" />
    <tag k="addr:street" v="Spring Lake Road" />
    <tag k="addr:state" v="VT" />
    <tag k="ref:vcgi:esiteid" v="226639" />
  </node>
  <node id="-517" visible="true" lat="43.48897726" lon="-72.88279359">
    <tag k="addr:city" v="Shrewsbury" />
    <tag k="addr:housenumber" v="5190" />
    <tag k="addr:street" v="Vermont Route 103" />
    <tag k="addr:state" v="VT" />
    <tag k="ref:vcgi:esiteid" v="226640" />
  </node>
  <node id="-518" visible="true" lat="43.48884897" lon="-72.91446144">
    <tag k="addr:city" v="Shrewsbury" />
    <tag k="addr:housenumber" v="1236" />
    <tag k="addr:street" v="Spring Lake Road" />
    <tag k="addr:state" v="VT" />
    <tag k="ref:vcgi:esiteid" v="226641" />
  </node>
  <node id="-519" visible="true" lat="43.48889993" lon="-72.88178432">
    <tag k="addr:city" v="Shrewsbury" />
    <tag k="addr:housenumber" v="5227" />
    <tag k="addr:street" v="Vermont Route 103" />
    <tag k="addr:state" v="VT" />
    <tag k="ref:vcgi:esiteid" v="226642" />
  </node>
  <node id="-520" visible="true" lat="43.48889953" lon="-72.88078951">
    <tag k="addr:city" v="Shrewsbury" />
    <tag k="addr:housenumber" v="58" />
    <tag k="addr:street" v="Town Hill Road" />
    <tag k="addr:state" v="VT" />
    <tag k="ref:vcgi:esiteid" v="226643" />
  </node>
  <node id="-521" visible="true" lat="43.48880566" lon="-72.88250324">
    <tag k="addr:city" v="Shrewsbury" />
    <tag k="addr:housenumber" v="5206" />
    <tag k="addr:street" v="Vermont Route 103" />
    <tag k="addr:state" v="VT" />
    <tag k="ref:vcgi:esiteid" v="226644" />
  </node>
  <node id="-522" visible="true" lat="43.48851607" lon="-72.91417487">
    <tag k="addr:city" v="Shrewsbury" />
    <tag k="addr:housenumber" v="1237" />
    <tag k="addr:street" v="Spring Lake Road" />
    <tag k="addr:state" v="VT" />
    <tag k="ref:vcgi:esiteid" v="226645" />
  </node>
  <node id="-523" visible="true" lat="43.48873362" lon="-72.91473262">
    <tag k="addr:city" v="Shrewsbury" />
    <tag k="addr:housenumber" v="1250" />
    <tag k="addr:street" v="Spring Lake Road" />
    <tag k="addr:state" v="VT" />
    <tag k="ref:vcgi:esiteid" v="226646" />
  </node>
  <node id="-524" visible="true" lat="43.48873918" lon="-72.88280589">
    <tag k="addr:city" v="Shrewsbury" />
    <tag k="addr:housenumber" v="5152" />
    <tag k="addr:street" v="Vermont Route 103" />
    <tag k="addr:state" v="VT" />
    <tag k="ref:vcgi:esiteid" v="226647" />
  </node>
  <node id="-525" visible="true" lat="43.48874562" lon="-72.83882753">
    <tag k="addr:city" v="Shrewsbury" />
    <tag k="addr:housenumber" v="77" />
    <tag k="addr:street" v="Frank Lord Road" />
    <tag k="addr:state" v="VT" />
    <tag k="ref:vcgi:esiteid" v="226648" />
  </node>
  <node id="-526" visible="true" lat="43.4886214" lon="-72.88082287">
    <tag k="addr:city" v="Shrewsbury" />
    <tag k="addr:housenumber" v="40" />
    <tag k="addr:street" v="Town Hill Road" />
    <tag k="addr:state" v="VT" />
    <tag k="ref:vcgi:esiteid" v="226649" />
  </node>
  <node id="-527" visible="true" lat="43.48849607" lon="-72.91632787">
    <tag k="addr:city" v="Shrewsbury" />
    <tag k="addr:housenumber" v="1384" />
    <tag k="addr:street" v="Spring Lake Road" />
    <tag k="addr:state" v="VT" />
    <tag k="ref:vcgi:esiteid" v="226650" />
  </node>
  <node id="-528" visible="true" lat="43.48824506" lon="-72.91449737">
    <tag k="addr:city" v="Shrewsbury" />
    <tag k="addr:housenumber" v="1261" />
    <tag k="addr:street" v="Spring Lake Road" />
    <tag k="addr:state" v="VT" />
    <tag k="ref:vcgi:esiteid" v="226651" />
  </node>
  <node id="-529" visible="true" lat="43.48848177" lon="-72.88079413">
    <tag k="addr:city" v="Shrewsbury" />
    <tag k="addr:housenumber" v="28" />
    <tag k="addr:street" v="Town Hill Road" />
    <tag k="addr:state" v="VT" />
    <tag k="ref:vcgi:esiteid" v="226652" />
  </node>
  <node id="-530" visible="true" lat="43.48831112" lon="-72.91369209">
    <tag k="addr:city" v="Shrewsbury" />
    <tag k="addr:housenumber" v="1247" />
    <tag k="addr:street" v="Spring Lake Road" />
    <tag k="addr:state" v="VT" />
    <tag k="ref:vcgi:esiteid" v="226653" />
  </node>
  <node id="-531" visible="true" lat="43.48814504" lon="-72.88220556">
    <tag k="addr:city" v="Shrewsbury" />
    <tag k="addr:housenumber" v="26" />
    <tag k="addr:street" v="Dodge Road" />
    <tag k="addr:state" v="VT" />
    <tag k="ref:vcgi:esiteid" v="226654" />
  </node>
  <node id="-532" visible="true" lat="43.48814275" lon="-72.88081394">
    <tag k="addr:city" v="Shrewsbury" />
    <tag k="addr:housenumber" v="5299" />
    <tag k="addr:street" v="Vermont Route 103" />
    <tag k="addr:state" v="VT" />
    <tag k="ref:vcgi:esiteid" v="226655" />
  </node>
  <node id="-533" visible="true" lat="43.48792412" lon="-72.88222845">
    <tag k="addr:city" v="Shrewsbury" />
    <tag k="addr:housenumber" v="40" />
    <tag k="addr:street" v="Dodge Road" />
    <tag k="addr:state" v="VT" />
    <tag k="ref:vcgi:esiteid" v="226656" />
  </node>
  <node id="-534" visible="true" lat="43.48792482" lon="-72.88068948">
    <tag k="addr:city" v="Shrewsbury" />
    <tag k="addr:housenumber" v="5309" />
    <tag k="addr:street" v="Vermont Route 103" />
    <tag k="addr:state" v="VT" />
    <tag k="ref:vcgi:esiteid" v="226657" />
  </node>
  <node id="-535" visible="true" lat="43.48758092" lon="-72.91798513">
    <tag k="addr:city" v="Shrewsbury" />
    <tag k="addr:housenumber" v="1425" />
    <tag k="addr:street" v="Spring Lake Road" />
    <tag k="addr:state" v="VT" />
    <tag k="ref:vcgi:esiteid" v="226658" />
  </node>
  <node id="-536" visible="true" lat="43.48793338" lon="-72.84990076">
    <tag k="addr:city" v="Shrewsbury" />
    <tag k="addr:housenumber" v="386" />
    <tag k="addr:street" v="Robinson Road" />
    <tag k="addr:state" v="VT" />
    <tag k="ref:vcgi:esiteid" v="226659" />
  </node>
  <node id="-537" visible="true" lat="43.48799622" lon="-72.83764464">
    <tag k="addr:city" v="Shrewsbury" />
    <tag k="addr:housenumber" v="209" />
    <tag k="addr:street" v="Frank Lord Road" />
    <tag k="addr:state" v="VT" />
    <tag k="ref:vcgi:esiteid" v="226660" />
  </node>
  <node id="-538" visible="true" lat="43.48748165" lon="-72.87113045">
    <tag k="addr:city" v="Shrewsbury" />
    <tag k="addr:housenumber" v="637" />
    <tag k="addr:street" v="Shunpike Road" />
    <tag k="addr:state" v="VT" />
    <tag k="ref:vcgi:esiteid" v="226661" />
  </node>
  <node id="-539" visible="true" lat="43.48734728" lon="-72.88097496">
    <tag k="addr:city" v="Shrewsbury" />
    <tag k="addr:housenumber" v="5342" />
    <tag k="addr:street" v="Vermont Route 103" />
    <tag k="addr:state" v="VT" />
    <tag k="ref:vcgi:esiteid" v="226662" />
  </node>
  <node id="-540" visible="true" lat="43.48701247" lon="-72.87269005">
    <tag k="addr:city" v="Shrewsbury" />
    <tag k="addr:housenumber" v="576" />
    <tag k="addr:street" v="Shunpike Road" />
    <tag k="addr:state" v="VT" />
    <tag k="ref:vcgi:esiteid" v="226663" />
  </node>
  <node id="-541" visible="true" lat="43.48702948" lon="-72.915071">
    <tag k="addr:city" v="Shrewsbury" />
    <tag k="addr:housenumber" v="1309" />
    <tag k="addr:street" v="Spring Lake Road" />
    <tag k="addr:state" v="VT" />
    <tag k="ref:vcgi:esiteid" v="226664" />
  </node>
  <node id="-542" visible="true" lat="43.48720698" lon="-72.88032629">
    <tag k="addr:city" v="Shrewsbury" />
    <tag k="addr:housenumber" v="5367" />
    <tag k="addr:street" v="Vermont Route 103" />
    <tag k="addr:state" v="VT" />
    <tag k="ref:vcgi:esiteid" v="226665" />
  </node>
  <node id="-543" visible="true" lat="43.486885" lon="-72.86679103">
    <tag k="addr:city" v="Shrewsbury" />
    <tag k="addr:housenumber" v="851" />
    <tag k="addr:street" v="Shunpike Road" />
    <tag k="addr:state" v="VT" />
    <tag k="ref:vcgi:esiteid" v="226666" />
  </node>
  <node id="-544" visible="true" lat="43.48679358" lon="-72.88069312">
    <tag k="addr:city" v="Shrewsbury" />
    <tag k="addr:housenumber" v="5390" />
    <tag k="addr:street" v="Vermont Route 103" />
    <tag k="addr:state" v="VT" />
    <tag k="ref:vcgi:esiteid" v="226667" />
  </node>
  <node id="-545" visible="true" lat="43.48650567" lon="-72.87983049">
    <tag k="addr:city" v="Shrewsbury" />
    <tag k="addr:housenumber" v="5419" />
    <tag k="addr:street" v="Vermont Route 103" />
    <tag k="addr:state" v="VT" />
    <tag k="ref:vcgi:esiteid" v="226668" />
  </node>
  <node id="-546" visible="true" lat="43.48581907" lon="-72.9028546">
    <tag k="addr:city" v="Shrewsbury" />
    <tag k="addr:housenumber" v="472" />
    <tag k="addr:street" v="Button Hill Road" />
    <tag k="addr:state" v="VT" />
    <tag k="ref:vcgi:esiteid" v="226669" />
  </node>
  <node id="-547" visible="true" lat="43.48618099" lon="-72.88016819">
    <tag k="addr:city" v="Shrewsbury" />
    <tag k="addr:housenumber" v="5442" />
    <tag k="addr:street" v="Vermont Route 103" />
    <tag k="addr:state" v="VT" />
    <tag k="ref:vcgi:esiteid" v="226670" />
  </node>
  <node id="-548" visible="true" lat="43.48581954" lon="-72.88090102">
    <tag k="addr:city" v="Shrewsbury" />
    <tag k="addr:housenumber" v="5444" />
    <tag k="addr:street" v="Vermont Route 103" />
    <tag k="addr:state" v="VT" />
    <tag k="ref:vcgi:esiteid" v="226671" />
  </node>
  <node id="-549" visible="true" lat="43.48580371" lon="-72.90461291">
    <tag k="addr:city" v="Shrewsbury" />
    <tag k="addr:housenumber" v="530" />
    <tag k="addr:street" v="Button Hill Road" />
    <tag k="addr:state" v="VT" />
    <tag k="ref:vcgi:esiteid" v="226672" />
  </node>
  <node id="-550" visible="true" lat="43.48580719" lon="-72.83485038">
    <tag k="addr:city" v="Shrewsbury" />
    <tag k="addr:housenumber" v="399" />
    <tag k="addr:street" v="Frank Lord Road" />
    <tag k="addr:state" v="VT" />
    <tag k="ref:vcgi:esiteid" v="226673" />
  </node>
  <node id="-551" visible="true" lat="43.48560238" lon="-72.88048271">
    <tag k="addr:city" v="Shrewsbury" />
    <tag k="addr:housenumber" v="5446" />
    <tag k="addr:street" v="Vermont Route 103" />
    <tag k="addr:state" v="VT" />
    <tag k="ref:vcgi:esiteid" v="226674" />
  </node>
  <node id="-552" visible="true" lat="43.48528533" lon="-72.83052779">
    <tag k="addr:city" v="Shrewsbury" />
    <tag k="addr:housenumber" v="595" />
    <tag k="addr:street" v="Frank Lord Road" />
    <tag k="addr:state" v="VT" />
    <tag k="ref:vcgi:esiteid" v="226675" />
  </node>
  <node id="-553" visible="true" lat="43.48496246" lon="-72.87961578">
    <tag k="addr:city" v="Shrewsbury" />
    <tag k="addr:housenumber" v="5518" />
    <tag k="addr:street" v="Vermont Route 103" />
    <tag k="addr:state" v="VT" />
    <tag k="ref:vcgi:esiteid" v="226676" />
  </node>
  <node id="-554" visible="true" lat="43.48412611" lon="-72.83569331">
    <tag k="addr:city" v="Shrewsbury" />
    <tag k="addr:housenumber" v="450" />
    <tag k="addr:street" v="Frank Lord Road" />
    <tag k="addr:state" v="VT" />
    <tag k="ref:vcgi:esiteid" v="226677" />
  </node>
  <node id="-555" visible="true" lat="43.48466822" lon="-72.90175396">
    <tag k="addr:city" v="Shrewsbury" />
    <tag k="addr:housenumber" v="641" />
    <tag k="addr:street" v="Button Hill Road" />
    <tag k="addr:state" v="VT" />
    <tag k="ref:vcgi:esiteid" v="226678" />
  </node>
  <node id="-556" visible="true" lat="43.48456524" lon="-72.87922825">
    <tag k="addr:city" v="Shrewsbury" />
    <tag k="addr:housenumber" v="5584" />
    <tag k="addr:street" v="Vermont Route 103" />
    <tag k="addr:state" v="VT" />
    <tag k="ref:vcgi:esiteid" v="226679" />
  </node>
  <node id="-557" visible="true" lat="43.48450278" lon="-72.87856293">
    <tag k="addr:city" v="Shrewsbury" />
    <tag k="addr:housenumber" v="5575" />
    <tag k="addr:street" v="Vermont Route 103" />
    <tag k="addr:state" v="VT" />
    <tag k="ref:vcgi:esiteid" v="226680" />
  </node>
  <node id="-558" visible="true" lat="43.4837943" lon="-72.87320664">
    <tag k="addr:city" v="Shrewsbury" />
    <tag k="addr:housenumber" v="258" />
    <tag k="addr:street" v="Nice Road" />
    <tag k="addr:state" v="VT" />
    <tag k="ref:vcgi:esiteid" v="226681" />
  </node>
  <node id="-559" visible="true" lat="43.48460253" lon="-72.83364475">
    <tag k="addr:city" v="Shrewsbury" />
    <tag k="addr:housenumber" v="508" />
    <tag k="addr:street" v="Frank Lord Road" />
    <tag k="addr:state" v="VT" />
    <tag k="ref:vcgi:esiteid" v="226682" />
  </node>
  <node id="-560" visible="true" lat="43.48357585" lon="-72.90293503">
    <tag k="addr:city" v="Shrewsbury" />
    <tag k="addr:housenumber" v="648" />
    <tag k="addr:street" v="Button Hill Road" />
    <tag k="addr:state" v="VT" />
    <tag k="ref:vcgi:esiteid" v="226683" />
  </node>
  <node id="-561" visible="true" lat="43.4835592" lon="-72.87707065">
    <tag k="addr:city" v="Shrewsbury" />
    <tag k="addr:housenumber" v="5593" />
    <tag k="addr:street" v="Vermont Route 103" />
    <tag k="addr:state" v="VT" />
    <tag k="ref:vcgi:esiteid" v="226684" />
  </node>
  <node id="-562" visible="true" lat="43.48286641" lon="-72.87710716">
    <tag k="addr:city" v="Shrewsbury" />
    <tag k="addr:housenumber" v="5707" />
    <tag k="addr:street" v="Vermont Route 103" />
    <tag k="addr:state" v="VT" />
    <tag k="ref:vcgi:esiteid" v="226685" />
  </node>
  <node id="-563" visible="true" lat="43.48285324" lon="-72.90293259">
    <tag k="addr:city" v="Shrewsbury" />
    <tag k="addr:housenumber" v="780" />
    <tag k="addr:street" v="Button Hill Road" />
    <tag k="addr:state" v="VT" />
    <tag k="ref:vcgi:esiteid" v="226686" />
  </node>
  <node id="-564" visible="true" lat="43.48312521" lon="-72.82843942">
    <tag k="addr:city" v="Shrewsbury" />
    <tag k="addr:housenumber" v="783" />
    <tag k="addr:street" v="Frank Lord Road" />
    <tag k="addr:state" v="VT" />
    <tag k="ref:vcgi:esiteid" v="226687" />
  </node>
  <node id="-565" visible="true" lat="43.48236106" lon="-72.87695882">
    <tag k="addr:city" v="Shrewsbury" />
    <tag k="addr:housenumber" v="5739" />
    <tag k="addr:street" v="Vermont Route 103" />
    <tag k="addr:state" v="VT" />
    <tag k="ref:vcgi:esiteid" v="226688" />
  </node>
  <node id="-566" visible="true" lat="43.48190134" lon="-72.87684733">
    <tag k="addr:city" v="Shrewsbury" />
    <tag k="addr:housenumber" v="5771" />
    <tag k="addr:street" v="Vermont Route 103" />
    <tag k="addr:state" v="VT" />
    <tag k="ref:vcgi:esiteid" v="226689" />
  </node>
  <node id="-567" visible="true" lat="43.48072609" lon="-72.90268659">
    <tag k="addr:city" v="Shrewsbury" />
    <tag k="addr:housenumber" v="899" />
    <tag k="addr:street" v="Button Hill Road" />
    <tag k="addr:state" v="VT" />
    <tag k="ref:vcgi:esiteid" v="226690" />
  </node>
  <node id="-568" visible="true" lat="43.56441873" lon="-72.92728268">
    <tag k="addr:city" v="Shrewsbury" />
    <tag k="addr:housenumber" v="3543" />
    <tag k="addr:street" v="Cold River Road" />
    <tag k="addr:state" v="VT" />
    <tag k="ref:vcgi:esiteid" v="226691" />
  </node>
  <node id="-569" visible="true" lat="43.56035398" lon="-72.89931827">
    <tag k="addr:city" v="Shrewsbury" />
    <tag k="addr:housenumber" v="1320" />
    <tag k="addr:street" v="Upper Cold River Road" />
    <tag k="addr:state" v="VT" />
    <tag k="ref:vcgi:esiteid" v="226692" />
  </node>
  <node id="-570" visible="true" lat="43.56240255" lon="-72.93248251">
    <tag k="addr:city" v="Shrewsbury" />
    <tag k="addr:housenumber" v="3227" />
    <tag k="addr:street" v="Cold River Road" />
    <tag k="addr:state" v="VT" />
    <tag k="ref:vcgi:esiteid" v="226693" />
  </node>
  <node id="-571" visible="true" lat="43.56089401" lon="-72.89450836">
    <tag k="addr:city" v="Shrewsbury" />
    <tag k="addr:housenumber" v="1551" />
    <tag k="addr:street" v="Upper Cold River Road" />
    <tag k="addr:state" v="VT" />
    <tag k="ref:vcgi:esiteid" v="226694" />
  </node>
  <node id="-572" visible="true" lat="43.56824874" lon="-72.8584671">
    <tag k="addr:city" v="Shrewsbury" />
    <tag k="addr:housenumber" v="1300" />
    <tag k="addr:street" v="Gilman Road" />
    <tag k="addr:state" v="VT" />
    <tag k="ref:vcgi:esiteid" v="226695" />
  </node>
  <node id="-573" visible="true" lat="43.55945086" lon="-72.92983241">
    <tag k="addr:city" v="Shrewsbury" />
    <tag k="addr:housenumber" v="343" />
    <tag k="addr:street" v="Wilderness Road" />
    <tag k="addr:state" v="VT" />
    <tag k="ref:vcgi:esiteid" v="226696" />
  </node>
  <node id="-574" visible="true" lat="43.55833945" lon="-72.92014847">
    <tag k="addr:city" v="Shrewsbury" />
    <tag k="addr:housenumber" v="240" />
    <tag k="addr:street" v="Wallace Road" />
    <tag k="addr:state" v="VT" />
    <tag k="ref:vcgi:esiteid" v="226697" />
  </node>
  <node id="-575" visible="true" lat="43.54938783" lon="-72.89765424">
    <tag k="addr:city" v="Shrewsbury" />
    <tag k="addr:housenumber" v="5996" />
    <tag k="addr:street" v="Cold River Road" />
    <tag k="addr:state" v="VT" />
    <tag k="ref:vcgi:esiteid" v="226698" />
  </node>
  <node id="-576" visible="true" lat="43.55635875" lon="-72.88304187">
    <tag k="addr:city" v="Shrewsbury" />
    <tag k="addr:housenumber" v="2200" />
    <tag k="addr:street" v="Upper Cold River Road" />
    <tag k="addr:state" v="VT" />
    <tag k="ref:vcgi:esiteid" v="226699" />
  </node>
  <node id="-577" visible="true" lat="43.55792344" lon="-72.85919049">
    <tag k="addr:city" v="Shrewsbury" />
    <tag k="addr:housenumber" v="599" />
    <tag k="addr:street" v="Gilman Road" />
    <tag k="addr:state" v="VT" />
    <tag k="ref:vcgi:esiteid" v="226700" />
  </node>
  <node id="-578" visible="true" lat="43.55301677" lon="-72.87774977">
    <tag k="addr:city" v="Shrewsbury" />
    <tag k="addr:housenumber" v="2540" />
    <tag k="addr:street" v="Upper Cold River Road" />
    <tag k="addr:state" v="VT" />
    <tag k="ref:vcgi:esiteid" v="226701" />
  </node>
  <node id="-579" visible="true" lat="43.5495843" lon="-72.83029542">
    <tag k="addr:city" v="Shrewsbury" />
    <tag k="addr:housenumber" v="630" />
    <tag k="addr:street" v="Coldham Road" />
    <tag k="addr:state" v="VT" />
    <tag k="ref:vcgi:esiteid" v="226702" />
  </node>
  <node id="-580" visible="true" lat="43.52202224" lon="-72.89935302">
    <tag k="addr:city" v="Shrewsbury" />
    <tag k="addr:housenumber" v="440" />
    <tag k="addr:street" v="Adams Road" />
    <tag k="addr:state" v="VT" />
    <tag k="ref:vcgi:esiteid" v="226703" />
  </node>
  <node id="-581" visible="true" lat="43.52657078" lon="-72.83197156">
    <tag k="addr:city" v="Shrewsbury" />
    <tag k="addr:housenumber" v="5" />
    <tag k="addr:street" v="Mountain School Road" />
    <tag k="addr:state" v="VT" />
    <tag k="ref:vcgi:esiteid" v="226704" />
  </node>
  <node id="-582" visible="true" lat="43.52550989" lon="-72.83046913">
    <tag k="addr:city" v="Shrewsbury" />
    <tag k="addr:housenumber" v="300" />
    <tag k="addr:street" v="Mountain School Road" />
    <tag k="addr:state" v="VT" />
    <tag k="ref:vcgi:esiteid" v="226705" />
  </node>
  <node id="-583" visible="true" lat="43.52545239" lon="-72.83297595">
    <tag k="addr:city" v="Shrewsbury" />
    <tag k="addr:housenumber" v="130" />
    <tag k="addr:street" v="Mountain School Road" />
    <tag k="addr:state" v="VT" />
    <tag k="ref:vcgi:esiteid" v="226706" />
  </node>
  <node id="-584" visible="true" lat="43.53734963" lon="-72.81692391">
    <tag k="addr:city" v="Shrewsbury" />
    <tag k="addr:housenumber" v="774" />
    <tag k="addr:street" v="Ccc Road" />
    <tag k="addr:state" v="VT" />
    <tag k="ref:vcgi:esiteid" v="226707" />
  </node>
  <node id="-585" visible="true" lat="43.53040644" lon="-72.81984972">
    <tag k="addr:city" v="Shrewsbury" />
    <tag k="addr:housenumber" v="371" />
    <tag k="addr:street" v="Old Plymouth Road" />
    <tag k="addr:state" v="VT" />
    <tag k="ref:vcgi:esiteid" v="226708" />
  </node>
  <node id="-586" visible="true" lat="43.5136559" lon="-72.86424004">
    <tag k="addr:city" v="Shrewsbury" />
    <tag k="addr:housenumber" v="1931" />
    <tag k="addr:street" v="Keiffer Road" />
    <tag k="addr:state" v="VT" />
    <tag k="ref:vcgi:esiteid" v="226709" />
  </node>
  <node id="-587" visible="true" lat="43.50067505" lon="-72.81662747">
    <tag k="addr:city" v="Shrewsbury" />
    <tag k="addr:housenumber" v="240" />
    <tag k="addr:street" v="Hinckley Road" />
    <tag k="addr:state" v="VT" />
    <tag k="ref:vcgi:esiteid" v="226710" />
  </node>
  <node id="-588" visible="true" lat="43.50495147" lon="-72.84420013">
    <tag k="addr:city" v="Shrewsbury" />
    <tag k="addr:housenumber" v="1020" />
    <tag k="addr:street" v="Crown Point Road" />
    <tag k="addr:state" v="VT" />
    <tag k="ref:vcgi:esiteid" v="226711" />
  </node>
  <node id="-589" visible="true" lat="43.50455093" lon="-72.84457397">
    <tag k="addr:city" v="Shrewsbury" />
    <tag k="addr:housenumber" v="1018" />
    <tag k="addr:street" v="Crown Point Road" />
    <tag k="addr:state" v="VT" />
    <tag k="ref:vcgi:esiteid" v="226712" />
  </node>
  <node id="-590" visible="true" lat="43.49409866" lon="-72.91756439">
    <tag k="addr:city" v="Shrewsbury" />
    <tag k="addr:housenumber" v="1976" />
    <tag k="addr:street" v="Spring Lake Road" />
    <tag k="addr:state" v="VT" />
    <tag k="ref:vcgi:esiteid" v="226713" />
  </node>
  <node id="-591" visible="true" lat="43.49527359" lon="-72.91680908">
    <tag k="addr:city" v="Shrewsbury" />
    <tag k="addr:housenumber" v="2020" />
    <tag k="addr:street" v="Spring Lake Road" />
    <tag k="addr:state" v="VT" />
    <tag k="ref:vcgi:esiteid" v="226714" />
  </node>
  <node id="-592" visible="true" lat="43.49340057" lon="-72.92331695">
    <tag k="addr:city" v="Shrewsbury" />
    <tag k="addr:housenumber" v="1733" />
    <tag k="addr:street" v="Spring Lake Road" />
    <tag k="addr:state" v="VT" />
    <tag k="ref:vcgi:esiteid" v="226715" />
  </node>
  <node id="-593" visible="true" lat="43.49210739" lon="-72.92271423">
    <tag k="addr:city" v="Shrewsbury" />
    <tag k="addr:housenumber" v="1731" />
    <tag k="addr:street" v="Spring Lake Road" />
    <tag k="addr:state" v="VT" />
    <tag k="ref:vcgi:esiteid" v="226716" />
  </node>
  <node id="-594" visible="true" lat="43.48728179" lon="-72.90075683">
    <tag k="addr:city" v="Shrewsbury" />
    <tag k="addr:housenumber" v="401" />
    <tag k="addr:street" v="Button Hill Road" />
    <tag k="addr:state" v="VT" />
    <tag k="ref:vcgi:esiteid" v="226717" />
  </node>
  <node id="-595" visible="true" lat="43.49157358" lon="-72.88951171">
    <tag k="addr:city" v="Shrewsbury" />
    <tag k="addr:housenumber" v="4860" />
    <tag k="addr:street" v="Vermont Route 103" />
    <tag k="addr:state" v="VT" />
    <tag k="ref:vcgi:esiteid" v="226718" />
  </node>
  <node id="-596" visible="true" lat="43.48657667" lon="-72.81815876">
    <tag k="addr:city" v="Shrewsbury" />
    <tag k="addr:housenumber" v="500" />
    <tag k="addr:street" v="Jesser Road" />
    <tag k="addr:state" v="VT" />
    <tag k="ref:vcgi:esiteid" v="226719" />
  </node>
  <node id="-597" visible="true" lat="43.48749699" lon="-72.88108917">
    <tag k="addr:city" v="Shrewsbury" />
    <tag k="addr:housenumber" v="5304" />
    <tag k="addr:street" v="Vermont Route 103" />
    <tag k="addr:state" v="VT" />
    <tag k="ref:vcgi:esiteid" v="226720" />
  </node>
  <node id="-598" visible="true" lat="43.55727698" lon="-72.87392748">
    <tag k="addr:city" v="Shrewsbury" />
    <tag k="addr:housenumber" v="300" />
    <tag k="addr:street" v="Stagecoach Road" />
    <tag k="addr:state" v="VT" />
    <tag k="ref:vcgi:esiteid" v="226721" />
  </node>
  <node id="-599" visible="true" lat="43.51835135" lon="-72.85696925">
    <tag k="addr:city" v="Shrewsbury" />
    <tag k="addr:housenumber" v="931" />
    <tag k="addr:street" v="Northam Road" />
    <tag k="addr:state" v="VT" />
    <tag k="ref:vcgi:esiteid" v="226722" />
  </node>
  <node id="-600" visible="true" lat="43.51319668" lon="-72.81040887">
    <tag k="addr:city" v="Shrewsbury" />
    <tag k="addr:housenumber" v="349" />
    <tag k="addr:street" v="Hempstead Road" />
    <tag k="addr:state" v="VT" />
    <tag k="ref:vcgi:esiteid" v="226723" />
  </node>
  <node id="-601" visible="true" lat="43.48988191" lon="-72.89864799">
    <tag k="addr:city" v="Shrewsbury" />
    <tag k="addr:housenumber" v="191" />
    <tag k="addr:street" v="Button Hill Road" />
    <tag k="addr:state" v="VT" />
    <tag k="ref:vcgi:esiteid" v="226724" />
  </node>
  <node id="-602" visible="true" lat="43.51887893" lon="-72.92243957">
    <tag k="addr:city" v="Shrewsbury" />
    <tag k="addr:housenumber" v="2296" />
    <tag k="addr:street" v="Vermont Route 103" />
    <tag k="addr:state" v="VT" />
    <tag k="ref:vcgi:esiteid" v="226725" />
  </node>
  <node id="-603" visible="true" lat="43.4906242" lon="-72.88026008">
    <tag k="addr:city" v="Shrewsbury" />
    <tag k="addr:housenumber" v="230" />
    <tag k="addr:street" v="Town Hill Road" />
    <tag k="addr:state" v="VT" />
    <tag k="ref:vcgi:esiteid" v="226726" />
  </node>
  <node id="-604" visible="true" lat="43.56051598" lon="-72.87636627">
    <tag k="addr:city" v="Shrewsbury" />
    <tag k="addr:housenumber" v="601" />
    <tag k="addr:street" v="Stagecoach Road" />
    <tag k="addr:state" v="VT" />
    <tag k="ref:vcgi:esiteid" v="226727" />
  </node>
  <node id="-605" visible="true" lat="43.53037442" lon="-72.83154945">
    <tag k="addr:city" v="Shrewsbury" />
    <tag k="addr:housenumber" v="9675" />
    <tag k="addr:street" v="Cold River Road" />
    <tag k="addr:state" v="VT" />
    <tag k="ref:vcgi:esiteid" v="226728" />
  </node>
  <node id="-606" visible="true" lat="43.5295362" lon="-72.82872274">
    <tag k="addr:city" v="Shrewsbury" />
    <tag k="addr:housenumber" v="9809" />
    <tag k="addr:street" v="Cold River Road" />
    <tag k="addr:state" v="VT" />
    <tag k="ref:vcgi:esiteid" v="226729" />
  </node>
  <node id="-607" visible="true" lat="43.52950728" lon="-72.82833023">
    <tag k="addr:city" v="Shrewsbury" />
    <tag k="addr:housenumber" v="9823" />
    <tag k="addr:street" v="Cold River Road" />
    <tag k="addr:state" v="VT" />
    <tag k="ref:vcgi:esiteid" v="226730" />
  </node>
  <node id="-608" visible="true" lat="43.50902557" lon="-72.90911102">
    <tag k="addr:city" v="Shrewsbury" />
    <tag k="addr:housenumber" v="3130" />
    <tag k="addr:street" v="Vermont Route 103" />
    <tag k="addr:state" v="VT" />
    <tag k="ref:vcgi:esiteid" v="226731" />
  </node>
  <node id="-609" visible="true" lat="43.50390191" lon="-72.80401516">
    <tag k="addr:city" v="Shrewsbury" />
    <tag k="addr:housenumber" v="481" />
    <tag k="addr:street" v="Saltash Road" />
    <tag k="addr:state" v="VT" />
    <tag k="ref:vcgi:esiteid" v="226732" />
  </node>
  <node id="-610" visible="true" lat="43.50663935" lon="-72.79952038">
    <tag k="addr:city" v="Shrewsbury" />
    <tag k="addr:housenumber" v="581" />
    <tag k="addr:street" v="Saltash Road" />
    <tag k="addr:state" v="VT" />
    <tag k="ref:vcgi:esiteid" v="226733" />
  </node>
  <node id="-611" visible="true" lat="43.51523041" lon="-72.90168208">
    <tag k="addr:city" v="Shrewsbury" />
    <tag k="addr:housenumber" v="745" />
    <tag k="addr:street" v="Lincoln Hill Road" />
    <tag k="addr:state" v="VT" />
    <tag k="ref:vcgi:esiteid" v="226735" />
  </node>
  <node id="-612" visible="true" lat="43.5516761" lon="-72.86063397">
    <tag k="addr:city" v="Shrewsbury" />
    <tag k="addr:housenumber" v="136" />
    <tag k="addr:street" v="Gilman Road" />
    <tag k="addr:state" v="VT" />
    <tag k="ref:vcgi:esiteid" v="226737" />
  </node>
  <node id="-613" visible="true" lat="43.55201185" lon="-72.86007509">
    <tag k="addr:city" v="Shrewsbury" />
    <tag k="addr:housenumber" v="138" />
    <tag k="addr:street" v="Gilman Road" />
    <tag k="addr:state" v="VT" />
    <tag k="ref:vcgi:esiteid" v="226738" />
  </node>
  <node id="-614" visible="true" lat="43.50632075" lon="-72.81244681">
    <tag k="addr:city" v="Shrewsbury" />
    <tag k="addr:housenumber" v="241" />
    <tag k="addr:street" v="Bailey Road" />
    <tag k="addr:state" v="VT" />
    <tag k="ref:vcgi:esiteid" v="226740" />
  </node>
  <node id="-615" visible="true" lat="43.50998892" lon="-72.90734757">
    <tag k="addr:city" v="Shrewsbury" />
    <tag k="addr:housenumber" v="67" />
    <tag k="addr:street" v="Marina Lane" />
    <tag k="addr:state" v="VT" />
    <tag k="ref:vcgi:esiteid" v="226741" />
  </node>
  <node id="-616" visible="true" lat="43.50964139" lon="-72.90804496">
    <tag k="addr:city" v="Shrewsbury" />
    <tag k="addr:housenumber" v="21" />
    <tag k="addr:street" v="Marina Lane" />
    <tag k="addr:state" v="VT" />
    <tag k="ref:vcgi:esiteid" v="226742" />
  </node>
  <node id="-617" visible="true" lat="43.56221027" lon="-72.93001104">
    <tag k="addr:city" v="Shrewsbury" />
    <tag k="addr:housenumber" v="3330" />
    <tag k="addr:street" v="Cold River Road" />
    <tag k="addr:state" v="VT" />
    <tag k="ref:vcgi:esiteid" v="226743" />
  </node>
  <node id="-618" visible="true" lat="43.53220257" lon="-72.85617806">
    <tag k="addr:city" v="Shrewsbury" />
    <tag k="addr:housenumber" v="8348" />
    <tag k="addr:street" v="Cold River Road" />
    <tag k="addr:state" v="VT" />
    <tag k="ref:vcgi:esiteid" v="226744" />
  </node>
  <node id="-619" visible="true" lat="43.50321492" lon="-72.86289082">
    <tag k="addr:city" v="Shrewsbury" />
    <tag k="addr:housenumber" v="428" />
    <tag k="addr:street" v="Russellville Road" />
    <tag k="addr:state" v="VT" />
    <tag k="ref:vcgi:esiteid" v="226745" />
  </node>
  <node id="-620" visible="true" lat="43.51571256" lon="-72.87966201">
    <tag k="addr:city" v="Shrewsbury" />
    <tag k="addr:housenumber" v="780" />
    <tag k="addr:street" v="Lottery Road" />
    <tag k="addr:state" v="VT" />
    <tag k="ref:vcgi:esiteid" v="226746" />
  </node>
  <node id="-621" visible="true" lat="43.48803804" lon="-72.91198083">
    <tag k="addr:city" v="Shrewsbury" />
    <tag k="addr:housenumber" v="1200" />
    <tag k="addr:street" v="Spring Lake Road" />
    <tag k="addr:state" v="VT" />
    <tag k="ref:vcgi:esiteid" v="226747" />
  </node>
  <node id="-622" visible="true" lat="43.49143012" lon="-72.88138599">
    <tag k="addr:city" v="Shrewsbury" />
    <tag k="addr:housenumber" v="231" />
    <tag k="addr:street" v="Town Hill Road" />
    <tag k="addr:state" v="VT" />
    <tag k="ref:vcgi:esiteid" v="226748" />
  </node>
  <node id="-623" visible="true" lat="43.55539596" lon="-72.91997976">
    <tag k="addr:city" v="Shrewsbury" />
    <tag k="addr:housenumber" v="400" />
    <tag k="addr:street" v="Wallace Road" />
    <tag k="addr:state" v="VT" />
    <tag k="ref:vcgi:esiteid" v="226751" />
  </node>
  <node id="-624" visible="true" lat="43.50791112" lon="-72.84989794">
    <tag k="addr:city" v="Shrewsbury" />
    <tag k="addr:housenumber" v="1250" />
    <tag k="addr:street" v="Crown Point Road" />
    <tag k="addr:state" v="VT" />
    <tag k="ref:vcgi:esiteid" v="226752" />
  </node>
  <node id="-625" visible="true" lat="43.55176728" lon="-72.8524316">
    <tag k="addr:city" v="Shrewsbury" />
    <tag k="addr:housenumber" v="3775" />
    <tag k="addr:street" v="Upper Cold River Road" />
    <tag k="addr:state" v="VT" />
    <tag k="ref:vcgi:esiteid" v="226753" />
  </node>
  <node id="-626" visible="true" lat="43.49433402" lon="-72.830037">
    <tag k="addr:city" v="Shrewsbury" />
    <tag k="addr:housenumber" v="2665" />
    <tag k="addr:street" v="Russellville Road" />
    <tag k="addr:state" v="VT" />
    <tag k="ref:vcgi:esiteid" v="226754" />
  </node>
  <node id="-627" visible="true" lat="43.49641006" lon="-72.84414978">
    <tag k="addr:city" v="Shrewsbury" />
    <tag k="addr:housenumber" v="415" />
    <tag k="addr:street" v="Crown Point Road" />
    <tag k="addr:state" v="VT" />
    <tag k="ref:vcgi:esiteid" v="226755" />
  </node>
  <node id="-628" visible="true" lat="43.49647428" lon="-72.81464805">
    <tag k="addr:city" v="Shrewsbury" />
    <tag k="addr:housenumber" v="3081" />
    <tag k="addr:street" v="Eastham Road" />
    <tag k="addr:state" v="VT" />
    <tag k="ref:vcgi:esiteid" v="226756" />
  </node>
  <node id="-629" visible="true" lat="43.56161138" lon="-72.89794424">
    <tag k="addr:city" v="Shrewsbury" />
    <tag k="addr:housenumber" v="100" />
    <tag k="addr:street" v="Moonshine Lane" />
    <tag k="addr:state" v="VT" />
    <tag k="ref:vcgi:esiteid" v="226757" />
  </node>
  <node id="-630" visible="true" lat="43.55332384" lon="-72.87059776">
    <tag k="addr:city" v="Shrewsbury" />
    <tag k="addr:housenumber" v="2859" />
    <tag k="addr:street" v="Upper Cold River Road" />
    <tag k="addr:state" v="VT" />
    <tag k="ref:vcgi:esiteid" v="226758" />
  </node>
  <node id="-631" visible="true" lat="43.5584634" lon="-72.8890488">
    <tag k="addr:city" v="Shrewsbury" />
    <tag k="addr:housenumber" v="1850" />
    <tag k="addr:street" v="Upper Cold River Road" />
    <tag k="addr:state" v="VT" />
    <tag k="ref:vcgi:esiteid" v="226759" />
  </node>
  <node id="-632" visible="true" lat="43.49174587" lon="-72.82810126">
    <tag k="addr:city" v="Shrewsbury" />
    <tag k="addr:housenumber" v="2600" />
    <tag k="addr:street" v="Russellville Road" />
    <tag k="addr:state" v="VT" />
    <tag k="ref:vcgi:esiteid" v="226761" />
  </node>
  <node id="-633" visible="true" lat="43.50776107" lon="-72.86845676">
    <tag k="addr:city" v="Shrewsbury" />
    <tag k="addr:housenumber" v="95" />
    <tag k="addr:street" v="Cemetery Road" />
    <tag k="addr:state" v="VT" />
    <tag k="ref:vcgi:esiteid" v="226762" />
  </node>
  <node id="-634" visible="true" lat="43.54968315" lon="-72.8664094">
    <tag k="addr:city" v="Shrewsbury" />
    <tag k="addr:housenumber" v="3180" />
    <tag k="addr:street" v="Upper Cold River Road" />
    <tag k="addr:state" v="VT" />
    <tag k="ref:vcgi:esiteid" v="226763" />
  </node>
  <node id="-635" visible="true" lat="43.49254314" lon="-72.79901971">
    <tag k="addr:city" v="Shrewsbury" />
    <tag k="addr:housenumber" v="111" />
    <tag k="addr:street" v="Tabor Road" />
    <tag k="addr:state" v="VT" />
    <tag k="ref:vcgi:esiteid" v="226764" />
  </node>
  <node id="-636" visible="true" lat="43.49112674" lon="-72.80122171">
    <tag k="addr:city" v="Shrewsbury" />
    <tag k="addr:housenumber" v="94" />
    <tag k="addr:street" v="Tabor Road" />
    <tag k="addr:state" v="VT" />
    <tag k="ref:vcgi:esiteid" v="226765" />
  </node>
  <node id="-637" visible="true" lat="43.48943626" lon="-72.80172187">
    <tag k="addr:city" v="Shrewsbury" />
    <tag k="addr:housenumber" v="96" />
    <tag k="addr:street" v="Tabor Road" />
    <tag k="addr:state" v="VT" />
    <tag k="ref:vcgi:esiteid" v="226766" />
  </node>
  <node id="-638" visible="true" lat="43.50599354" lon="-72.86304542">
    <tag k="addr:city" v="Shrewsbury" />
    <tag k="addr:housenumber" v="217" />
    <tag k="addr:street" v="Russellville Road" />
    <tag k="addr:state" v="VT" />
    <tag k="ref:vcgi:esiteid" v="226767" />
  </node>
  <node id="-639" visible="true" lat="43.50359045" lon="-72.87295497">
    <tag k="addr:city" v="Shrewsbury" />
    <tag k="addr:housenumber" v="1331" />
    <tag k="addr:street" v="Town Hill Road" />
    <tag k="addr:state" v="VT" />
    <tag k="ref:vcgi:esiteid" v="226768" />
  </node>
  <node id="-640" visible="true" lat="43.52821228" lon="-72.92996445">
    <tag k="addr:city" v="Shrewsbury" />
    <tag k="addr:housenumber" v="47" />
    <tag k="addr:street" v="Railroad Drive" />
    <tag k="addr:state" v="VT" />
    <tag k="ref:vcgi:esiteid" v="226769" />
  </node>
  <node id="-641" visible="true" lat="43.52538185" lon="-72.93048264">
    <tag k="addr:city" v="Shrewsbury" />
    <tag k="addr:housenumber" v="45" />
    <tag k="addr:street" v="Railroad Drive" />
    <tag k="addr:state" v="VT" />
    <tag k="ref:vcgi:esiteid" v="226770" />
  </node>
  <node id="-642" visible="true" lat="43.48565641" lon="-72.85026402">
    <tag k="addr:city" v="Shrewsbury" />
    <tag k="addr:housenumber" v="514" />
    <tag k="addr:street" v="Robinson Road" />
    <tag k="addr:state" v="VT" />
    <tag k="ref:vcgi:esiteid" v="226771" />
  </node>
  <node id="-643" visible="true" lat="43.48675701" lon="-72.853555">
    <tag k="addr:city" v="Shrewsbury" />
    <tag k="addr:housenumber" v="430" />
    <tag k="addr:street" v="Robinson Road" />
    <tag k="addr:state" v="VT" />
    <tag k="ref:vcgi:esiteid" v="226772" />
  </node>
  <node id="-644" visible="true" lat="43.51200342" lon="-72.8662665">
    <tag k="addr:city" v="Shrewsbury" />
    <tag k="addr:housenumber" v="2005" />
    <tag k="addr:street" v="Keiffer Road" />
    <tag k="addr:state" v="VT" />
    <tag k="ref:vcgi:esiteid" v="226773" />
  </node>
  <node id="-645" visible="true" lat="43.52171552" lon="-72.84759121">
    <tag k="addr:city" v="Shrewsbury" />
    <tag k="addr:housenumber" v="1411" />
    <tag k="addr:street" v="Northam Road" />
    <tag k="addr:state" v="VT" />
    <tag k="ref:vcgi:esiteid" v="226774" />
  </node>
  <node id="-646" visible="true" lat="43.5357132" lon="-72.86837696">
    <tag k="addr:city" v="Shrewsbury" />
    <tag k="addr:housenumber" v="7710" />
    <tag k="addr:street" v="Cold River Road" />
    <tag k="addr:state" v="VT" />
    <tag k="ref:vcgi:esiteid" v="226775" />
  </node>
  <node id="-647" visible="true" lat="43.54307653" lon="-72.80648725">
    <tag k="addr:city" v="Shrewsbury" />
    <tag k="addr:housenumber" v="1800" />
    <tag k="addr:street" v="Ccc Road" />
    <tag k="addr:state" v="VT" />
    <tag k="ref:vcgi:esiteid" v="226776" />
  </node>
  <node id="-648" visible="true" lat="43.56036335" lon="-72.89712975">
    <tag k="addr:city" v="Shrewsbury" />
    <tag k="addr:housenumber" v="1500" />
    <tag k="addr:street" v="Upper Cold River Road" />
    <tag k="addr:state" v="VT" />
    <tag k="ref:vcgi:esiteid" v="226777" />
  </node>
  <node id="-649" visible="true" lat="43.55771861" lon="-72.90395593">
    <tag k="addr:city" v="Shrewsbury" />
    <tag k="addr:housenumber" v="900" />
    <tag k="addr:street" v="Upper Cold River Road" />
    <tag k="addr:state" v="VT" />
    <tag k="ref:vcgi:esiteid" v="226778" />
  </node>
  <node id="-650" visible="true" lat="43.5618126" lon="-72.9016305">
    <tag k="addr:city" v="Shrewsbury" />
    <tag k="addr:housenumber" v="1101" />
    <tag k="addr:street" v="Upper Cold River Road" />
    <tag k="addr:state" v="VT" />
    <tag k="ref:vcgi:esiteid" v="226779" />
  </node>
  <node id="-651" visible="true" lat="43.55727579" lon="-72.89370441">
    <tag k="addr:city" v="Shrewsbury" />
    <tag k="addr:housenumber" v="203" />
    <tag k="addr:street" v="Violet Page Road" />
    <tag k="addr:state" v="VT" />
    <tag k="ref:vcgi:esiteid" v="226780" />
  </node>
  <node id="-652" visible="true" lat="43.53005529" lon="-72.83663005">
    <tag k="addr:city" v="Shrewsbury" />
    <tag k="addr:housenumber" v="9400" />
    <tag k="addr:street" v="Cold River Road" />
    <tag k="addr:state" v="VT" />
    <tag k="ref:vcgi:esiteid" v="226781" />
  </node>
  <node id="-653" visible="true" lat="43.52086604" lon="-72.92925684">
    <tag k="addr:city" v="Shrewsbury" />
    <tag k="addr:housenumber" v="1880" />
    <tag k="addr:street" v="Vermont Route 103" />
    <tag k="addr:state" v="VT" />
    <tag k="ref:vcgi:esiteid" v="226782" />
  </node>
  <node id="-654" visible="true" lat="43.48732812" lon="-72.80499832">
    <tag k="addr:city" v="Shrewsbury" />
    <tag k="addr:housenumber" v="501" />
    <tag k="addr:street" v="Mount Holly Road" />
    <tag k="addr:state" v="VT" />
    <tag k="ref:vcgi:esiteid" v="226783" />
  </node>
  <node id="-655" visible="true" lat="43.48781867" lon="-72.88181095">
    <tag k="addr:city" v="Shrewsbury" />
    <tag k="addr:housenumber" v="15" />
    <tag k="addr:street" v="Dodge Road" />
    <tag k="addr:state" v="VT" />
    <tag k="ref:vcgi:esiteid" v="226784" />
  </node>
  <node id="-656" visible="true" lat="43.53552335" lon="-72.90114479">
    <tag k="addr:city" v="Shrewsbury" />
    <tag k="addr:housenumber" v="3300" />
    <tag k="addr:street" v="Lottery Road" />
    <tag k="addr:state" v="VT" />
    <tag k="ref:vcgi:esiteid" v="226785" />
  </node>
  <node id="-657" visible="true" lat="43.50109823" lon="-72.8052645">
    <tag k="addr:city" v="Shrewsbury" />
    <tag k="addr:housenumber" v="780" />
    <tag k="addr:street" v="Bailey Road" />
    <tag k="addr:state" v="VT" />
    <tag k="ref:vcgi:esiteid" v="226786" />
  </node>
  <node id="-658" visible="true" lat="43.47889915" lon="-72.90574518">
    <tag k="addr:city" v="Shrewsbury" />
    <tag k="addr:housenumber" v="1000" />
    <tag k="addr:street" v="Button Hill Road" />
    <tag k="addr:state" v="VT" />
    <tag k="ref:vcgi:esiteid" v="226787" />
  </node>
  <node id="-659" visible="true" lat="43.56478427" lon="-72.92501721">
    <tag k="addr:city" v="Shrewsbury" />
    <tag k="addr:housenumber" v="3676" />
    <tag k="addr:street" v="Cold River Road" />
    <tag k="addr:state" v="VT" />
    <tag k="ref:vcgi:esiteid" v="226789" />
  </node>
  <node id="-660" visible="true" lat="43.49534949" lon="-72.84509484">
    <tag k="addr:city" v="Shrewsbury" />
    <tag k="addr:housenumber" v="417" />
    <tag k="addr:street" v="Crown Point Road" />
    <tag k="addr:state" v="VT" />
    <tag k="ref:vcgi:esiteid" v="226790" />
  </node>
  <node id="-661" visible="true" lat="43.48761607" lon="-72.83673426">
    <tag k="addr:city" v="Shrewsbury" />
    <tag k="addr:housenumber" v="211" />
    <tag k="addr:street" v="Frank Lord Road" />
    <tag k="addr:state" v="VT" />
    <tag k="ref:vcgi:esiteid" v="226791" />
  </node>
  <node id="-662" visible="true" lat="43.50911402" lon="-72.86797564">
    <tag k="addr:city" v="Shrewsbury" />
    <tag k="addr:housenumber" v="2541" />
    <tag k="addr:street" v="Lincoln Hill Road" />
    <tag k="addr:state" v="VT" />
    <tag k="ref:vcgi:esiteid" v="226792" />
  </node>
  <node id="-663" visible="true" lat="43.48981846" lon="-72.8743664">
    <tag k="addr:city" v="Shrewsbury" />
    <tag k="addr:housenumber" v="499" />
    <tag k="addr:street" v="Shunpike Road" />
    <tag k="addr:state" v="VT" />
    <tag k="ref:vcgi:esiteid" v="226793" />
  </node>
  <node id="-664" visible="true" lat="43.55780052" lon="-72.85186504">
    <tag k="addr:city" v="Shrewsbury" />
    <tag k="addr:housenumber" v="1200" />
    <tag k="addr:street" v="Clement Shelter Road" />
    <tag k="addr:state" v="VT" />
    <tag k="ref:vcgi:esiteid" v="226794" />
  </node>
  <node id="-665" visible="true" lat="43.52021951" lon="-72.82528536">
    <tag k="addr:city" v="Shrewsbury" />
    <tag k="addr:housenumber" v="560" />
    <tag k="addr:street" v="Eastham Road" />
    <tag k="addr:state" v="VT" />
    <tag k="ref:vcgi:esiteid" v="307038" />
  </node>
  <node id="-666" visible="true" lat="43.51929966" lon="-72.82396256">
    <tag k="addr:city" v="Shrewsbury" />
    <tag k="addr:housenumber" v="600" />
    <tag k="addr:street" v="Eastham Road" />
    <tag k="addr:state" v="VT" />
    <tag k="ref:vcgi:esiteid" v="307039" />
  </node>
  <node id="-667" visible="true" lat="43.51664862" lon="-72.87872981">
    <tag k="addr:city" v="Shrewsbury" />
    <tag k="addr:housenumber" v="700" />
    <tag k="addr:street" v="Lottery Road" />
    <tag k="addr:state" v="VT" />
    <tag k="ref:vcgi:esiteid" v="307040" />
  </node>
  <node id="-668" visible="true" lat="43.52319843" lon="-72.90276272">
    <tag k="addr:city" v="Shrewsbury" />
    <tag k="addr:housenumber" v="451" />
    <tag k="addr:street" v="Adams Road" />
    <tag k="addr:state" v="VT" />
    <tag k="ref:vcgi:esiteid" v="307042" />
  </node>
  <node id="-669" visible="true" lat="43.53921002" lon="-72.81721583">
    <tag k="addr:city" v="Shrewsbury" />
    <tag k="addr:housenumber" v="896" />
    <tag k="addr:street" v="Ccc Road" />
    <tag k="addr:state" v="VT" />
    <tag k="ref:vcgi:esiteid" v="309251" />
  </node>
  <node id="-670" visible="true" lat="43.47939055" lon="-72.87820562">
    <tag k="addr:city" v="Shrewsbury" />
    <tag k="addr:housenumber" v="6720" />
    <tag k="addr:street" v="Vermont Route 103" />
    <tag k="addr:state" v="VT" />
    <tag k="ref:vcgi:esiteid" v="309252" />
  </node>
  <node id="-671" visible="true" lat="43.5180867" lon="-72.91979444">
    <tag k="addr:city" v="Shrewsbury" />
    <tag k="addr:housenumber" v="2255" />
    <tag k="addr:street" v="Vermont Route 103" />
    <tag k="addr:state" v="VT" />
    <tag k="ref:vcgi:esiteid" v="315248" />
  </node>
  <node id="-672" visible="true" lat="43.55445632" lon="-72.87910482">
    <tag k="addr:city" v="Shrewsbury" />
    <tag k="addr:housenumber" v="2400" />
    <tag k="addr:street" v="Upper Cold River Road" />
    <tag k="addr:state" v="VT" />
    <tag k="ref:vcgi:esiteid" v="315324" />
  </node>
  <node id="-673" visible="true" lat="43.51044111" lon="-72.8802128">
    <tag k="addr:city" v="Shrewsbury" />
    <tag k="addr:housenumber" v="1907" />
    <tag k="addr:street" v="Lincoln Hill Road" />
    <tag k="addr:state" v="VT" />
    <tag k="ref:vcgi:esiteid" v="315325" />
  </node>
  <node id="-674" visible="true" lat="43.51183547" lon="-72.85971247">
    <tag k="addr:city" v="Shrewsbury" />
    <tag k="addr:housenumber" v="555" />
    <tag k="addr:street" v="Northam Road" />
    <tag k="addr:state" v="VT" />
    <tag k="ref:vcgi:esiteid" v="315326" />
  </node>
  <node id="-675" visible="true" lat="43.53850304" lon="-72.81942938">
    <tag k="addr:city" v="Shrewsbury" />
    <tag k="addr:housenumber" v="901" />
    <tag k="addr:street" v="Ccc Road" />
    <tag k="addr:state" v="VT" />
    <tag k="ref:vcgi:esiteid" v="315327" />
  </node>
  <node id="-676" visible="true" lat="43.51239929" lon="-72.81671824">
    <tag k="addr:city" v="Shrewsbury" />
    <tag k="addr:housenumber" v="1350" />
    <tag k="addr:street" v="Eastham Road" />
    <tag k="addr:state" v="VT" />
    <tag k="ref:vcgi:esiteid" v="315895" />
  </node>
  <node id="-677" visible="true" lat="43.48943081" lon="-72.91409139">
    <tag k="addr:city" v="Shrewsbury" />
    <tag k="addr:housenumber" v="1220" />
    <tag k="addr:street" v="Spring Lake Road" />
    <tag k="addr:state" v="VT" />
    <tag k="ref:vcgi:esiteid" v="316905" />
  </node>
  <node id="-678" visible="true" lat="43.53330927" lon="-72.83369012">
    <tag k="addr:city" v="Shrewsbury" />
    <tag k="addr:housenumber" v="5570" />
    <tag k="addr:street" v="Upper Cold River Road" />
    <tag k="addr:state" v="VT" />
    <tag k="ref:vcgi:esiteid" v="328325" />
  </node>
  <node id="-679" visible="true" lat="43.5328369" lon="-72.83314281">
    <tag k="addr:city" v="Shrewsbury" />
    <tag k="addr:housenumber" v="5610" />
    <tag k="addr:street" v="Upper Cold River Road" />
    <tag k="addr:state" v="VT" />
    <tag k="ref:vcgi:esiteid" v="328326" />
  </node>
  <node id="-680" visible="true" lat="43.55003433" lon="-72.85696463">
    <tag k="addr:city" v="Shrewsbury" />
    <tag k="addr:housenumber" v="3500" />
    <tag k="addr:street" v="Upper Cold River Road" />
    <tag k="addr:state" v="VT" />
    <tag k="ref:vcgi:esiteid" v="328327" />
  </node>
  <node id="-681" visible="true" lat="43.55703495" lon="-72.85485946">
    <tag k="addr:city" v="Shrewsbury" />
    <tag k="addr:housenumber" v="900" />
    <tag k="addr:street" v="Clement Shelter Road" />
    <tag k="addr:state" v="VT" />
    <tag k="ref:vcgi:esiteid" v="328328" />
  </node>
  <node id="-682" visible="true" lat="43.5376536" lon="-72.87234083">
    <tag k="addr:city" v="Shrewsbury" />
    <tag k="addr:housenumber" v="7500" />
    <tag k="addr:street" v="Cold River Road" />
    <tag k="addr:state" v="VT" />
    <tag k="ref:vcgi:esiteid" v="328329" />
  </node>
  <node id="-683" visible="true" lat="43.53507287" lon="-72.8744086">
    <tag k="addr:city" v="Shrewsbury" />
    <tag k="addr:housenumber" v="200" />
    <tag k="addr:street" v="Keiffer Road" />
    <tag k="addr:state" v="VT" />
    <tag k="ref:vcgi:esiteid" v="328330" />
  </node>
  <node id="-684" visible="true" lat="43.52781158" lon="-72.89971289">
    <tag k="addr:city" v="Shrewsbury" />
    <tag k="addr:housenumber" v="2000" />
    <tag k="addr:street" v="Lottery Road" />
    <tag k="addr:state" v="VT" />
    <tag k="ref:vcgi:esiteid" v="328331" />
  </node>
  <node id="-685" visible="true" lat="43.52119753" lon="-72.92525698">
    <tag k="addr:city" v="Shrewsbury" />
    <tag k="addr:housenumber" v="2000" />
    <tag k="addr:street" v="Vermont Route 103" />
    <tag k="addr:state" v="VT" />
    <tag k="ref:vcgi:esiteid" v="328333" />
  </node>
  <node id="-686" visible="true" lat="43.50864683" lon="-72.86944137">
    <tag k="addr:city" v="Shrewsbury" />
    <tag k="addr:housenumber" v="2450" />
    <tag k="addr:street" v="Lincoln Hill Road" />
    <tag k="addr:state" v="VT" />
    <tag k="ref:vcgi:esiteid" v="331026" />
  </node>
  <node id="-687" visible="true" lat="43.53210863" lon="-72.87134229">
    <tag k="addr:city" v="Shrewsbury" />
    <tag k="addr:housenumber" v="555" />
    <tag k="addr:street" v="Keiffer Road" />
    <tag k="addr:state" v="VT" />
    <tag k="ref:vcgi:esiteid" v="331269" />
  </node>
  <node id="-688" visible="true" lat="43.54322193" lon="-72.8734993">
    <tag k="addr:city" v="Shrewsbury" />
    <tag k="addr:housenumber" v="310" />
    <tag k="addr:street" v="Wilmouth Hill Road" />
    <tag k="addr:state" v="VT" />
    <tag k="ref:vcgi:esiteid" v="332302" />
  </node>
  <node id="-689" visible="true" lat="43.48939391" lon="-72.81245739">
    <tag k="addr:city" v="Shrewsbury" />
    <tag k="addr:housenumber" v="99" />
    <tag k="addr:street" v="Jesser Road" />
    <tag k="addr:state" v="VT" />
    <tag k="ref:vcgi:esiteid" v="332438" />
  </node>
  <node id="-690" visible="true" lat="43.50412064" lon="-72.79586276">
    <tag k="addr:city" v="Shrewsbury" />
    <tag k="addr:housenumber" v="900" />
    <tag k="addr:street" v="Saltash Road" />
    <tag k="addr:state" v="VT" />
    <tag k="ref:vcgi:esiteid" v="333954" />
  </node>
  <node id="-691" visible="true" lat="43.52734001" lon="-72.83303451">
    <tag k="addr:city" v="Shrewsbury" />
    <tag k="addr:housenumber" v="2339" />
    <tag k="addr:street" v="Northam Road" />
    <tag k="addr:state" v="VT" />
    <tag k="ref:vcgi:esiteid" v="338108" />
  </node>
  <node id="-692" visible="true" lat="43.51353087" lon="-72.80606737">
    <tag k="addr:city" v="Shrewsbury" />
    <tag k="addr:housenumber" v="461" />
    <tag k="addr:street" v="Hempstead Road" />
    <tag k="addr:state" v="VT" />
    <tag k="ref:vcgi:esiteid" v="338582" />
  </node>
  <node id="-693" visible="true" lat="43.49249629" lon="-72.80979544">
    <tag k="addr:city" v="Shrewsbury" />
    <tag k="addr:housenumber" v="3400" />
    <tag k="addr:street" v="Eastham Road" />
    <tag k="addr:state" v="VT" />
    <tag k="ref:vcgi:esiteid" v="338616" />
  </node>
  <node id="-694" visible="true" lat="43.48919245" lon="-72.90267632">
    <tag k="addr:city" v="Shrewsbury" />
    <tag k="addr:housenumber" v="300" />
    <tag k="addr:street" v="Button Hill Road" />
    <tag k="addr:state" v="VT" />
    <tag k="ref:vcgi:esiteid" v="339227" />
  </node>
  <node id="-695" visible="true" lat="43.52156144" lon="-72.83975292">
    <tag k="addr:city" v="Shrewsbury" />
    <tag k="addr:housenumber" v="1898" />
    <tag k="addr:street" v="Northam Road" />
    <tag k="addr:state" v="VT" />
    <tag k="ref:vcgi:esiteid" v="339966" />
  </node>
  <node id="-696" visible="true" lat="43.47990568" lon="-72.87761953">
    <tag k="addr:city" v="Shrewsbury" />
    <tag k="addr:housenumber" v="6101" />
    <tag k="addr:street" v="Vermont Route 103" />
    <tag k="addr:state" v="VT" />
    <tag k="ref:vcgi:esiteid" v="342384" />
  </node>
  <node id="-697" visible="true" lat="43.48721492" lon="-72.91668783">
    <tag k="addr:city" v="Shrewsbury" />
    <tag k="addr:housenumber" v="1427" />
    <tag k="addr:street" v="Spring Lake Road" />
    <tag k="addr:state" v="VT" />
    <tag k="ref:vcgi:esiteid" v="343664" />
  </node>
  <node id="-698" visible="true" lat="43.52460628" lon="-72.82892686">
    <tag k="addr:city" v="Shrewsbury" />
    <tag k="addr:housenumber" v="252" />
    <tag k="addr:street" v="Eastham Road" />
    <tag k="addr:state" v="VT" />
    <tag k="ref:vcgi:esiteid" v="344359" />
  </node>
  <node id="-699" visible="true" lat="43.48683882" lon="-72.83819035">
    <tag k="addr:city" v="Shrewsbury" />
    <tag k="addr:housenumber" v="224" />
    <tag k="addr:street" v="Frank Lord Road" />
    <tag k="addr:state" v="VT" />
    <tag k="ref:vcgi:esiteid" v="344947" />
  </node>
  <node id="-700" visible="true" lat="43.48360909" lon="-72.86163758">
    <tag k="addr:city" v="Shrewsbury" />
    <tag k="addr:housenumber" v="1150" />
    <tag k="addr:street" v="Shunpike Road" />
    <tag k="addr:state" v="VT" />
    <tag k="ref:vcgi:esiteid" v="365040" />
  </node>
  <node id="-702" visible="true" lat="43.5336436" lon="-72.82328648">
    <tag k="addr:city" v="Shrewsbury" />
    <tag k="addr:housenumber" v="407" />
    <tag k="addr:street" v="Ccc Road" />
    <tag k="addr:state" v="VT" />
    <tag k="ref:vcgi:esiteid" v="365502" />
  </node>
  <node id="-703" visible="true" lat="43.50544871" lon="-72.85251049">
    <tag k="addr:city" v="Shrewsbury" />
    <tag k="addr:housenumber" v="1431" />
    <tag k="addr:street" v="Crown Point Road" />
    <tag k="addr:state" v="VT" />
    <tag k="ref:vcgi:esiteid" v="446888" />
  </node>
  <node id="-704" visible="true" lat="43.48449378" lon="-72.863891">
    <tag k="addr:city" v="Shrewsbury" />
    <tag k="addr:housenumber" v="1050" />
    <tag k="addr:street" v="Shunpike Road" />
    <tag k="addr:state" v="VT" />
    <tag k="ref:vcgi:esiteid" v="448604" />
  </node>
  <node id="-705" visible="true" lat="43.48593203" lon="-72.87107078">
    <tag k="addr:city" v="Shrewsbury" />
    <tag k="addr:housenumber" v="48" />
    <tag k="addr:street" v="Nice Road" />
    <tag k="addr:state" v="VT" />
    <tag k="ref:vcgi:esiteid" v="448605" />
  </node>
  <node id="-706" visible="true" lat="43.48485614" lon="-72.87126535">
    <tag k="addr:city" v="Shrewsbury" />
    <tag k="addr:housenumber" v="101" />
    <tag k="addr:street" v="Nice Road" />
    <tag k="addr:state" v="VT" />
    <tag k="ref:vcgi:esiteid" v="448606" />
  </node>
  <node id="-707" visible="true" lat="43.50986952" lon="-72.86558893">
    <tag k="addr:city" v="Shrewsbury" />
    <tag k="addr:housenumber" v="2165" />
    <tag k="addr:street" v="Keiffer Road" />
    <tag k="addr:state" v="VT" />
    <tag k="ref:vcgi:esiteid" v="448607" />
  </node>
  <node id="-708" visible="true" lat="43.55157146" lon="-72.89892847">
    <tag k="addr:city" v="Shrewsbury" />
    <tag k="addr:housenumber" v="5728" />
    <tag k="addr:street" v="Cold River Road" />
    <tag k="addr:state" v="VT" />
    <tag k="ref:vcgi:esiteid" v="448608" />
  </node>
  <node id="-709" visible="true" lat="43.52303134" lon="-72.83564786">
    <tag k="addr:city" v="Shrewsbury" />
    <tag k="addr:housenumber" v="2100" />
    <tag k="addr:street" v="Northam Road" />
    <tag k="addr:state" v="VT" />
    <tag k="ref:vcgi:esiteid" v="451363" />
  </node>
  <node id="-710" visible="true" lat="43.5095937" lon="-72.81833062">
    <tag k="addr:city" v="Shrewsbury" />
    <tag k="addr:housenumber" v="1600" />
    <tag k="addr:street" v="Eastham Road" />
    <tag k="addr:state" v="VT" />
    <tag k="ref:vcgi:esiteid" v="452584" />
  </node>
  <node id="-711" visible="true" lat="43.4987628" lon="-72.82391721">
    <tag k="addr:city" v="Shrewsbury" />
    <tag k="addr:housenumber" v="2581" />
    <tag k="addr:street" v="Eastham Road" />
    <tag k="addr:state" v="VT" />
    <tag k="ref:vcgi:esiteid" v="455385" />
  </node>
  <node id="-715" visible="true" lat="43.51323273" lon="-72.86615865">
    <tag k="addr:city" v="Shrewsbury" />
    <tag k="addr:housenumber" v="1975" />
    <tag k="addr:street" v="Keiffer Road" />
    <tag k="addr:state" v="VT" />
    <tag k="ref:vcgi:esiteid" v="455774" />
  </node>
  <node id="-716" visible="true" lat="43.56114216" lon="-72.89307197">
    <tag k="addr:city" v="Shrewsbury" />
    <tag k="addr:housenumber" v="1601" />
    <tag k="addr:street" v="Upper Cold River Road" />
    <tag k="addr:state" v="VT" />
    <tag k="ref:vcgi:esiteid" v="455776" />
  </node>
  <node id="-717" visible="true" lat="43.55961426" lon="-72.89287816">
    <tag k="addr:city" v="Shrewsbury" />
    <tag k="addr:housenumber" v="1650" />
    <tag k="addr:street" v="Upper Cold River Road" />
    <tag k="addr:state" v="VT" />
    <tag k="ref:vcgi:esiteid" v="455777" />
  </node>
  <node id="-729" visible="true" lat="43.49013693" lon="-72.79228199">
    <tag k="addr:city" v="Shrewsbury" />
    <tag k="addr:housenumber" v="500" />
    <tag k="addr:street" v="Tabor Road" />
    <tag k="addr:state" v="VT" />
    <tag k="ref:vcgi:esiteid" v="455789" />
  </node>
  <node id="-730" visible="true" lat="43.49538846" lon="-72.89250103">
    <tag k="addr:city" v="Shrewsbury" />
    <tag k="addr:housenumber" v="4536" />
    <tag k="addr:street" v="Vermont Route 103" />
    <tag k="addr:state" v="VT" />
    <tag k="ref:vcgi:esiteid" v="610169" />
  </node>
  <node id="-731" visible="true" lat="43.51804693" lon="-72.82116236">
    <tag k="addr:city" v="Shrewsbury" />
    <tag k="addr:housenumber" v="790" />
    <tag k="addr:street" v="Eastham Road" />
    <tag k="addr:state" v="VT" />
    <tag k="ref:vcgi:esiteid" v="610525" />
  </node>
  <node id="-732" visible="true" lat="43.55223768" lon="-72.92958072">
    <tag k="addr:city" v="Shrewsbury" />
    <tag k="addr:housenumber" v="775" />
    <tag k="addr:street" v="Wilderness Road" />
    <tag k="addr:state" v="VT" />
    <tag k="ref:vcgi:esiteid" v="611106" />
  </node>
  <node id="-733" visible="true" lat="43.49314206" lon="-72.83995266">
    <tag k="addr:city" v="Shrewsbury" />
    <tag k="addr:housenumber" v="143" />
    <tag k="addr:street" v="Crown Point Road" />
    <tag k="addr:state" v="VT" />
    <tag k="ref:vcgi:esiteid" v="611341" />
  </node>
  <node id="-734" visible="true" lat="43.512981" lon="-72.81047804">
    <tag k="addr:city" v="Shrewsbury" />
    <tag k="addr:housenumber" v="347" />
    <tag k="addr:street" v="Hempstead Road" />
    <tag k="addr:state" v="VT" />
    <tag k="ref:vcgi:esiteid" v="611357" />
  </node>
  <node id="-735" visible="true" lat="43.49779817" lon="-72.85390885">
    <tag k="addr:city" v="Shrewsbury" />
    <tag k="addr:housenumber" v="1009" />
    <tag k="addr:street" v="Russellville Road" />
    <tag k="addr:state" v="VT" />
    <tag k="ref:vcgi:esiteid" v="611359" />
  </node>
  <node id="-736" visible="true" lat="43.49439874" lon="-72.87980587">
    <tag k="addr:city" v="Shrewsbury" />
    <tag k="addr:housenumber" v="464" />
    <tag k="addr:street" v="Town Hill Road" />
    <tag k="addr:state" v="VT" />
    <tag k="ref:vcgi:esiteid" v="611381" />
  </node>
  <node id="-737" visible="true" lat="43.47963282" lon="-72.9033463">
    <tag k="addr:city" v="Shrewsbury" />
    <tag k="addr:housenumber" v="1003" />
    <tag k="addr:street" v="Button Hill Road" />
    <tag k="addr:state" v="VT" />
    <tag k="ref:vcgi:esiteid" v="611478" />
  </node>
  <node id="-738" visible="true" lat="43.49293534" lon="-72.80429166">
    <tag k="addr:city" v="Shrewsbury" />
    <tag k="addr:housenumber" v="3663" />
    <tag k="addr:street" v="Eastham Road" />
    <tag k="addr:state" v="VT" />
    <tag k="ref:vcgi:esiteid" v="611760" />
  </node>
  <node id="-739" visible="true" lat="43.5585138" lon="-72.8515896">
    <tag k="addr:city" v="Shrewsbury" />
    <tag k="addr:housenumber" v="1450" />
    <tag k="addr:street" v="Clement Shelter Road" />
    <tag k="addr:state" v="VT" />
    <tag k="ref:vcgi:esiteid" v="612496" />
  </node>
  <node id="-740" visible="true" lat="43.53112389" lon="-72.83177115">
    <tag k="addr:city" v="Shrewsbury" />
    <tag k="addr:housenumber" v="5728" />
    <tag k="addr:street" v="Upper Cold River Road" />
    <tag k="addr:state" v="VT" />
    <tag k="ref:vcgi:esiteid" v="617583" />
  </node>
  <node id="-741" visible="true" lat="43.50056255" lon="-72.89914937">
    <tag k="addr:city" v="Shrewsbury" />
    <tag k="addr:housenumber" v="4066" />
    <tag k="addr:street" v="Vermont Route 103" />
    <tag k="addr:state" v="VT" />
    <tag k="ref:vcgi:esiteid" v="617584" />
  </node>
  <node id="-742" visible="true" lat="43.52282111" lon="-72.83662426">
    <tag k="addr:city" v="Shrewsbury" />
    <tag k="addr:housenumber" v="2006" />
    <tag k="addr:street" v="Northam Road" />
    <tag k="addr:state" v="VT" />
    <tag k="ref:vcgi:esiteid" v="617963" />
  </node>
  <node id="-743" visible="true" lat="43.56321337" lon="-72.93057016">
    <tag k="addr:city" v="Shrewsbury" />
    <tag k="addr:housenumber" v="3331" />
    <tag k="addr:street" v="Cold River Road" />
    <tag k="addr:state" v="VT" />
    <tag k="ref:vcgi:esiteid" v="620733" />
  </node>
  <node id="-745" visible="true" lat="43.51370204" lon="-72.91025371">
    <tag k="addr:city" v="Shrewsbury" />
    <tag k="addr:housenumber" v="316" />
    <tag k="addr:street" v="Lincoln Hill Road" />
    <tag k="addr:state" v="VT" />
    <tag k="ref:vcgi:esiteid" v="655949" />
  </node>
  <node id="-746" visible="true" lat="43.53644627" lon="-72.81089426">
    <tag k="addr:city" v="Shrewsbury" />
    <tag k="addr:housenumber" v="511" />
    <tag k="addr:street" v="Old Plymouth Road" />
    <tag k="addr:state" v="VT" />
    <tag k="ref:vcgi:esiteid" v="752914" />
  </node>
  <node id="-747" visible="true" lat="43.48061964" lon="-72.90441137">
    <tag k="addr:city" v="Shrewsbury" />
    <tag k="addr:housenumber" v="950" />
    <tag k="addr:street" v="Button Hill Road" />
    <tag k="addr:state" v="VT" />
    <tag k="ref:vcgi:esiteid" v="753432" />
  </node>
  <node id="-748" visible="true" lat="43.48276774" lon="-72.90206104">
    <tag k="addr:city" v="Shrewsbury" />
    <tag k="addr:housenumber" v="728" />
    <tag k="addr:street" v="Button Hill Road" />
    <tag k="addr:state" v="VT" />
    <tag k="ref:vcgi:esiteid" v="753433" />
  </node>
  <node id="-749" visible="true" lat="43.51902661" lon="-72.92262911">
    <tag k="addr:city" v="Shrewsbury" />
    <tag k="addr:housenumber" v="2294" />
    <tag k="addr:street" v="Vermont Route 103" />
    <tag k="addr:state" v="VT" />
    <tag k="ref:vcgi:esiteid" v="753983" />
  </node>
  <node id="-750" visible="true" lat="43.56020588" lon="-72.90025021">
    <tag k="addr:city" v="Shrewsbury" />
    <tag k="addr:housenumber" v="1262" />
    <tag k="addr:street" v="Upper Cold River Road" />
    <tag k="addr:state" v="VT" />
    <tag k="ref:vcgi:esiteid" v="756393" />
  </node>
  <node id="-751" visible="true" lat="43.49240585" lon="-72.87975024">
    <tag k="addr:city" v="Shrewsbury" />
    <tag k="addr:housenumber" v="63" />
    <tag k="addr:street" v="Shunpike Road" />
    <tag k="addr:state" v="VT" />
    <tag k="ref:vcgi:esiteid" v="756497" />
  </node>
  <node id="-752" visible="true" lat="43.56297838" lon="-72.91359805">
    <tag k="addr:city" v="Shrewsbury" />
    <tag k="addr:housenumber" v="601" />
    <tag k="addr:street" v="Upper Cold River Road" />
    <tag k="addr:state" v="VT" />
    <tag k="ref:vcgi:esiteid" v="756523" />
  </node>
  <node id="-753" visible="true" lat="43.56619295" lon="-72.91568993">
    <tag k="addr:city" v="Shrewsbury" />
    <tag k="addr:housenumber" v="603" />
    <tag k="addr:street" v="Upper Cold River Road" />
    <tag k="addr:state" v="VT" />
    <tag k="ref:vcgi:esiteid" v="756524" />
  </node>
  <node id="-754" visible="true" lat="43.52937039" lon="-72.91241835">
    <tag k="addr:city" v="Shrewsbury" />
    <tag k="addr:housenumber" v="556" />
    <tag k="addr:street" v="Gaynor Road" />
    <tag k="addr:state" v="VT" />
    <tag k="ref:vcgi:esiteid" v="757329" />
  </node>
  <node id="-755" visible="true" lat="43.52117897" lon="-72.91220106">
    <tag k="addr:city" v="Shrewsbury" />
    <tag k="addr:housenumber" v="1037" />
    <tag k="addr:street" v="Gaynor Road" />
    <tag k="addr:state" v="VT" />
    <tag k="ref:vcgi:esiteid" v="757342" />
  </node>
  <node id="-757" visible="true" lat="43.53033989" lon="-72.82321401">
    <tag k="addr:city" v="Shrewsbury" />
    <tag k="addr:housenumber" v="175" />
    <tag k="addr:street" v="Old Plymouth Road" />
    <tag k="addr:state" v="VT" />
    <tag k="ref:vcgi:esiteid" v="758193" />
  </node>
  <node id="-758" visible="true" lat="43.4949332" lon="-72.88495445">
    <tag k="addr:city" v="Shrewsbury" />
    <tag k="addr:housenumber" v="220" />
    <tag k="addr:street" v="Stewart Lane" />
    <tag k="addr:state" v="VT" />
    <tag k="ref:vcgi:esiteid" v="759030" />
  </node>
  <node id="-759" visible="true" lat="43.50331569" lon="-72.88300606">
    <tag k="addr:city" v="Shrewsbury" />
    <tag k="addr:housenumber" v="466" />
    <tag k="addr:street" v="Smith Lane" />
    <tag k="addr:state" v="VT" />
    <tag k="ref:vcgi:esiteid" v="759031" />
  </node>
  <node id="-760" visible="true" lat="43.4876583" lon="-72.8823974">
    <tag k="addr:city" v="Shrewsbury" />
    <tag k="addr:housenumber" v="72" />
    <tag k="addr:street" v="Dodge Road" />
    <tag k="addr:state" v="VT" />
    <tag k="ref:vcgi:esiteid" v="760002" />
  </node>
  <node id="-761" visible="true" lat="43.48595903" lon="-72.86117479">
    <tag k="addr:city" v="Shrewsbury" />
    <tag k="addr:housenumber" v="1143" />
    <tag k="addr:street" v="Shunpike Road" />
    <tag k="addr:state" v="VT" />
    <tag k="ref:vcgi:esiteid" v="760550" />
  </node>
  <node id="-763" visible="true" lat="43.55615008" lon="-72.91284688">
    <tag k="addr:city" v="Shrewsbury" />
    <tag k="addr:housenumber" v="4958" />
    <tag k="addr:street" v="Cold River Road" />
    <tag k="addr:state" v="VT" />
    <tag k="ref:vcgi:esiteid" v="766631" />
  </node>
  <node id="-764" visible="true" lat="43.5564815" lon="-72.91207633">
    <tag k="addr:city" v="Shrewsbury" />
    <tag k="addr:housenumber" v="4960" />
    <tag k="addr:street" v="Cold River Road" />
    <tag k="addr:state" v="VT" />
    <tag k="ref:vcgi:esiteid" v="766632" />
  </node>
  <node id="-765" visible="true" lat="43.56168724" lon="-72.91686668">
    <tag k="addr:city" v="Shrewsbury" />
    <tag k="addr:housenumber" v="4521" />
    <tag k="addr:street" v="Cold River Road" />
    <tag k="addr:state" v="VT" />
    <tag k="ref:vcgi:esiteid" v="767045" />
  </node>
  <node id="-766" visible="true" lat="43.54616354" lon="-72.87456466">
    <tag k="addr:city" v="Shrewsbury" />
    <tag k="addr:housenumber" v="461" />
    <tag k="addr:street" v="Wilmouth Hill Road" />
    <tag k="addr:state" v="VT" />
    <tag k="ref:vcgi:esiteid" v="767094" />
  </node>
  <node id="-767" visible="true" lat="43.53074231" lon="-72.90332625">
    <tag k="addr:city" v="Shrewsbury" />
    <tag k="addr:housenumber" v="2338" />
    <tag k="addr:street" v="Lottery Road" />
    <tag k="addr:state" v="VT" />
    <tag k="ref:vcgi:esiteid" v="767096" />
  </node>
  <node id="-768" visible="true" lat="43.53417165" lon="-72.82612046">
    <tag k="addr:city" v="Shrewsbury" />
    <tag k="addr:housenumber" v="281" />
    <tag k="addr:street" v="Ccc Road" />
    <tag k="addr:state" v="VT" />
    <tag k="ref:vcgi:esiteid" v="767694" />
  </node>
  <node id="-769" visible="true" lat="43.56227259" lon="-72.9315623">
    <tag k="addr:city" v="Shrewsbury" />
    <tag k="addr:housenumber" v="3230" />
    <tag k="addr:street" v="Cold River Road" />
    <tag k="addr:state" v="VT" />
    <tag k="ref:vcgi:esiteid" v="768315" />
  </node>
  <node id="-770" visible="true" lat="43.4956291" lon="-72.80032244">
    <tag k="addr:city" v="Shrewsbury" />
    <tag k="addr:housenumber" v="1219" />
    <tag k="addr:street" v="Bailey Road" />
    <tag k="addr:state" v="VT" />
    <tag k="ref:vcgi:esiteid" v="769878" />
  </node>
  <node id="-771" visible="true" lat="43.55829958" lon="-72.85213277">
    <tag k="addr:city" v="Shrewsbury" />
    <tag k="addr:housenumber" v="1259" />
    <tag k="addr:street" v="Clement Shelter Road" />
    <tag k="addr:state" v="VT" />
    <tag k="ref:vcgi:esiteid" v="900044" />
  </node>
  <node id="-772" visible="true" lat="43.52361421" lon="-72.91262942">
    <tag k="addr:city" v="Shrewsbury" />
    <tag k="addr:housenumber" v="867" />
    <tag k="addr:street" v="Gaynor Road" />
    <tag k="addr:state" v="VT" />
    <tag k="ref:vcgi:esiteid" v="1050961" />
  </node>
  <node id="-773" visible="true" lat="43.56456483" lon="-72.84832477">
    <tag k="addr:city" v="Shrewsbury" />
    <tag k="addr:housenumber" v="1951" />
    <tag k="addr:street" v="Clement Shelter Road" />
    <tag k="addr:state" v="VT" />
    <tag k="ref:vcgi:esiteid" v="1050982" />
  </node>
</osm>
