<?xml version="1.0" encoding="UTF-8"?>
<osm version="0.6" generator="JOSM">
  <node id="-100" visible="true" lat="43.11511295" lon="-72.91179985">
    <tag k="addr:city" v="Stratton" />
    <tag k="addr:housenumber" v="43" />
    <tag k="addr:street" v="Founders Hill Road" />
    <tag k="addr:state" v="VT" />
    <tag k="ref:vcgi:esiteid" v="252783" />
  </node>
  <node id="-101" visible="true" lat="43.1149007" lon="-72.91024767">
    <tag k="addr:city" v="Stratton" />
    <tag k="addr:housenumber" v="25" />
    <tag k="addr:street" v="Flowing Spring Road" />
    <tag k="addr:state" v="VT" />
    <tag k="ref:vcgi:esiteid" v="252785" />
  </node>
  <node id="-102" visible="true" lat="43.11566925" lon="-72.92132568">
    <tag k="addr:city" v="Stratton" />
    <tag k="addr:housenumber" v="20" />
    <tag k="addr:street" v="West Ridge Road" />
    <tag k="addr:state" v="VT" />
    <tag k="ref:vcgi:esiteid" v="252787" />
  </node>
  <node id="-103" visible="true" lat="43.1156578" lon="-72.92347717">
    <tag k="addr:city" v="Stratton" />
    <tag k="addr:housenumber" v="91" />
    <tag k="addr:street" v="West Ridge Road" />
    <tag k="addr:state" v="VT" />
    <tag k="ref:vcgi:esiteid" v="252788" />
  </node>
  <node id="-104" visible="true" lat="43.11522239" lon="-72.92206943">
    <tag k="addr:city" v="Stratton" />
    <tag k="addr:housenumber" v="19" />
    <tag k="addr:street" v="West Ridge Road" />
    <tag k="addr:state" v="VT" />
    <tag k="ref:vcgi:esiteid" v="252790" />
  </node>
  <node id="-105" visible="true" lat="43.11526105" lon="-72.91576435">
    <tag k="addr:city" v="Stratton" />
    <tag k="addr:housenumber" v="74" />
    <tag k="addr:street" v="North Brookwood Road" />
    <tag k="addr:state" v="VT" />
    <tag k="ref:vcgi:esiteid" v="252791" />
  </node>
  <node id="-106" visible="true" lat="43.1152807" lon="-72.91097099">
    <tag k="addr:city" v="Stratton" />
    <tag k="addr:housenumber" v="24" />
    <tag k="addr:street" v="Flowing Spring Road" />
    <tag k="addr:state" v="VT" />
    <tag k="ref:vcgi:esiteid" v="252792" />
  </node>
  <node id="-107" visible="true" lat="43.11520385" lon="-72.92086029">
    <tag k="addr:city" v="Stratton" />
    <tag k="addr:housenumber" v="8" />
    <tag k="addr:street" v="West Ridge Road" />
    <tag k="addr:state" v="VT" />
    <tag k="ref:vcgi:esiteid" v="252793" />
  </node>
  <node id="-108" visible="true" lat="43.11520001" lon="-72.91304829">
    <tag k="addr:city" v="Stratton" />
    <tag k="addr:housenumber" v="40" />
    <tag k="addr:street" v="Founders Hill Road" />
    <tag k="addr:state" v="VT" />
    <tag k="ref:vcgi:esiteid" v="252794" />
  </node>
  <node id="-109" visible="true" lat="43.11506058" lon="-72.92311231">
    <tag k="addr:city" v="Stratton" />
    <tag k="addr:housenumber" v="99" />
    <tag k="addr:street" v="West Ridge Road" />
    <tag k="addr:state" v="VT" />
    <tag k="ref:vcgi:esiteid" v="252795" />
  </node>
  <node id="-110" visible="true" lat="43.11506268" lon="-72.91391041">
    <tag k="addr:city" v="Stratton" />
    <tag k="addr:housenumber" v="57" />
    <tag k="addr:street" v="North Brookwood Road" />
    <tag k="addr:state" v="VT" />
    <tag k="ref:vcgi:esiteid" v="252797" />
  </node>
  <node id="-111" visible="true" lat="43.11482238" lon="-72.91468047">
    <tag k="addr:city" v="Stratton" />
    <tag k="addr:housenumber" v="63" />
    <tag k="addr:street" v="North Brookwood Road" />
    <tag k="addr:state" v="VT" />
    <tag k="ref:vcgi:esiteid" v="252798" />
  </node>
  <node id="-112" visible="true" lat="43.1148338" lon="-72.91106464">
    <tag k="addr:city" v="Stratton" />
    <tag k="addr:housenumber" v="57" />
    <tag k="addr:street" v="Founders Hill Road" />
    <tag k="addr:state" v="VT" />
    <tag k="ref:vcgi:esiteid" v="252799" />
  </node>
  <node id="-113" visible="true" lat="43.11475753" lon="-72.92060089">
    <tag k="addr:city" v="Stratton" />
    <tag k="addr:housenumber" v="200" />
    <tag k="addr:street" v="North Brookwood Road" />
    <tag k="addr:state" v="VT" />
    <tag k="ref:vcgi:esiteid" v="252800" />
  </node>
  <node id="-114" visible="true" lat="43.11466978" lon="-72.92181549">
    <tag k="addr:city" v="Stratton" />
    <tag k="addr:housenumber" v="11" />
    <tag k="addr:street" v="West Ridge Road" />
    <tag k="addr:state" v="VT" />
    <tag k="ref:vcgi:esiteid" v="252801" />
  </node>
  <node id="-115" visible="true" lat="43.11477279" lon="-72.90435791">
    <tag k="addr:city" v="Stratton" />
    <tag k="addr:housenumber" v="755" />
    <tag k="addr:street" v="Stratton Mountain Access Road" />
    <tag k="addr:state" v="VT" />
    <tag k="ref:vcgi:esiteid" v="252802" />
  </node>
  <node id="-116" visible="true" lat="43.11469268" lon="-72.91239929">
    <tag k="addr:city" v="Stratton" />
    <tag k="addr:housenumber" v="10" />
    <tag k="addr:street" v="Sawmill Road" />
    <tag k="addr:state" v="VT" />
    <tag k="ref:vcgi:esiteid" v="252803" />
  </node>
  <node id="-117" visible="true" lat="43.11470792" lon="-72.90506031">
    <tag k="addr:city" v="Stratton" />
    <tag k="addr:housenumber" v="749" />
    <tag k="addr:street" v="Stratton Mountain Access Road" />
    <tag k="addr:state" v="VT" />
    <tag k="ref:vcgi:esiteid" v="252804" />
  </node>
  <node id="-118" visible="true" lat="43.11463925" lon="-72.91597035">
    <tag k="addr:city" v="Stratton" />
    <tag k="addr:housenumber" v="82" />
    <tag k="addr:street" v="North Brookwood Road" />
    <tag k="addr:state" v="VT" />
    <tag k="ref:vcgi:esiteid" v="252805" />
  </node>
  <node id="-119" visible="true" lat="43.1146507" lon="-72.90718128">
    <tag k="addr:city" v="Stratton" />
    <tag k="addr:housenumber" v="94" />
    <tag k="addr:street" v="Founders Hill Road" />
    <tag k="addr:state" v="VT" />
    <tag k="ref:vcgi:esiteid" v="252806" />
  </node>
  <node id="-120" visible="true" lat="43.11457824" lon="-72.9197998">
    <tag k="addr:city" v="Stratton" />
    <tag k="addr:housenumber" v="192" />
    <tag k="addr:street" v="North Brookwood Road" />
    <tag k="addr:state" v="VT" />
    <tag k="ref:vcgi:esiteid" v="252807" />
  </node>
  <node id="-121" visible="true" lat="43.11461636" lon="-72.90171101">
    <tag k="addr:city" v="Stratton" />
    <tag k="addr:housenumber" v="61" />
    <tag k="addr:street" v="Middle Ridge Road" />
    <tag k="addr:state" v="VT" />
    <tag k="ref:vcgi:esiteid" v="252808" />
  </node>
  <node id="-122" visible="true" lat="43.11458587" lon="-72.90763854">
    <tag k="addr:city" v="Stratton" />
    <tag k="addr:housenumber" v="92" />
    <tag k="addr:street" v="Founders Hill Road" />
    <tag k="addr:state" v="VT" />
    <tag k="ref:vcgi:esiteid" v="252809" />
  </node>
  <node id="-123" visible="true" lat="43.11449614" lon="-72.91336998">
    <tag k="addr:city" v="Stratton" />
    <tag k="addr:housenumber" v="22" />
    <tag k="addr:street" v="Sawmill Road" />
    <tag k="addr:state" v="VT" />
    <tag k="ref:vcgi:esiteid" v="252810" />
  </node>
  <node id="-124" visible="true" lat="43.1144363" lon="-72.92268998">
    <tag k="addr:city" v="Stratton" />
    <tag k="addr:housenumber" v="107" />
    <tag k="addr:street" v="West Ridge Road" />
    <tag k="addr:state" v="VT" />
    <tag k="ref:vcgi:esiteid" v="252811" />
  </node>
  <node id="-125" visible="true" lat="43.1144638" lon="-72.91284942">
    <tag k="addr:city" v="Stratton" />
    <tag k="addr:housenumber" v="16" />
    <tag k="addr:street" v="Sawmill Road" />
    <tag k="addr:state" v="VT" />
    <tag k="ref:vcgi:esiteid" v="252812" />
  </node>
  <node id="-126" visible="true" lat="43.11444473" lon="-72.90793609">
    <tag k="addr:city" v="Stratton" />
    <tag k="addr:housenumber" v="90" />
    <tag k="addr:street" v="Founders Hill Road" />
    <tag k="addr:state" v="VT" />
    <tag k="ref:vcgi:esiteid" v="252813" />
  </node>
  <node id="-127" visible="true" lat="43.1143341" lon="-72.92350769">
    <tag k="addr:city" v="Stratton" />
    <tag k="addr:housenumber" v="106" />
    <tag k="addr:street" v="West Ridge Road" />
    <tag k="addr:state" v="VT" />
    <tag k="ref:vcgi:esiteid" v="252814" />
  </node>
  <node id="-128" visible="true" lat="43.11428833" lon="-72.92136383">
    <tag k="addr:city" v="Stratton" />
    <tag k="addr:housenumber" v="5" />
    <tag k="addr:street" v="West Ridge Road" />
    <tag k="addr:state" v="VT" />
    <tag k="ref:vcgi:esiteid" v="252815" />
  </node>
  <node id="-129" visible="true" lat="43.11428451" lon="-72.91905975">
    <tag k="addr:city" v="Stratton" />
    <tag k="addr:housenumber" v="186" />
    <tag k="addr:street" v="North Brookwood Road" />
    <tag k="addr:state" v="VT" />
    <tag k="ref:vcgi:esiteid" v="252816" />
  </node>
  <node id="-130" visible="true" lat="43.11435315" lon="-72.89923145">
    <tag k="addr:city" v="Stratton" />
    <tag k="addr:housenumber" v="133" />
    <tag k="addr:street" v="Quarter Mile Road" />
    <tag k="addr:state" v="VT" />
    <tag k="ref:vcgi:esiteid" v="252817" />
  </node>
  <node id="-131" visible="true" lat="43.1143074" lon="-72.89740753">
    <tag k="addr:city" v="Stratton" />
    <tag k="addr:housenumber" v="75" />
    <tag k="addr:street" v="East Birch Road" />
    <tag k="addr:state" v="VT" />
    <tag k="ref:vcgi:esiteid" v="252818" />
  </node>
  <node id="-132" visible="true" lat="43.11430358" lon="-72.89823913">
    <tag k="addr:city" v="Stratton" />
    <tag k="addr:housenumber" v="85" />
    <tag k="addr:street" v="East Birch Road" />
    <tag k="addr:state" v="VT" />
    <tag k="ref:vcgi:esiteid" v="252819" />
  </node>
  <node id="-133" visible="true" lat="43.11419677" lon="-72.91501617">
    <tag k="addr:city" v="Stratton" />
    <tag k="addr:housenumber" v="77" />
    <tag k="addr:street" v="North Brookwood Road" />
    <tag k="addr:state" v="VT" />
    <tag k="ref:vcgi:esiteid" v="252820" />
  </node>
  <node id="-134" visible="true" lat="43.11417007" lon="-72.91613769">
    <tag k="addr:city" v="Stratton" />
    <tag k="addr:housenumber" v="88" />
    <tag k="addr:street" v="North Brookwood Road" />
    <tag k="addr:state" v="VT" />
    <tag k="ref:vcgi:esiteid" v="252821" />
  </node>
  <node id="-135" visible="true" lat="43.1141777" lon="-72.91183471">
    <tag k="addr:city" v="Stratton" />
    <tag k="addr:housenumber" v="11" />
    <tag k="addr:street" v="Sawmill Road" />
    <tag k="addr:state" v="VT" />
    <tag k="ref:vcgi:esiteid" v="252822" />
  </node>
  <node id="-136" visible="true" lat="43.11419294" lon="-72.89662983">
    <tag k="addr:city" v="Stratton" />
    <tag k="addr:housenumber" v="65" />
    <tag k="addr:street" v="East Birch Road" />
    <tag k="addr:state" v="VT" />
    <tag k="ref:vcgi:esiteid" v="252823" />
  </node>
  <node id="-137" visible="true" lat="43.11399624" lon="-72.911427">
    <tag k="addr:city" v="Stratton" />
    <tag k="addr:housenumber" v="6" />
    <tag k="addr:street" v="Pond Road" />
    <tag k="addr:state" v="VT" />
    <tag k="ref:vcgi:esiteid" v="252824" />
  </node>
  <node id="-138" visible="true" lat="43.11396789" lon="-72.92190551">
    <tag k="addr:city" v="Stratton" />
    <tag k="addr:housenumber" v="212" />
    <tag k="addr:street" v="North Brookwood Road" />
    <tag k="addr:state" v="VT" />
    <tag k="ref:vcgi:esiteid" v="252825" />
  </node>
  <node id="-139" visible="true" lat="43.11396789" lon="-72.91405486">
    <tag k="addr:city" v="Stratton" />
    <tag k="addr:housenumber" v="24" />
    <tag k="addr:street" v="Sawmill Road" />
    <tag k="addr:state" v="VT" />
    <tag k="ref:vcgi:esiteid" v="252826" />
  </node>
  <node id="-140" visible="true" lat="43.113945" lon="-72.91969299">
    <tag k="addr:city" v="Stratton" />
    <tag k="addr:housenumber" v="189" />
    <tag k="addr:street" v="North Brookwood Road" />
    <tag k="addr:state" v="VT" />
    <tag k="ref:vcgi:esiteid" v="252827" />
  </node>
  <node id="-141" visible="true" lat="43.11377559" lon="-72.92272998">
    <tag k="addr:city" v="Stratton" />
    <tag k="addr:housenumber" v="119" />
    <tag k="addr:street" v="West Ridge Road" />
    <tag k="addr:state" v="VT" />
    <tag k="ref:vcgi:esiteid" v="252828" />
  </node>
  <node id="-142" visible="true" lat="43.11391448" lon="-72.92042541">
    <tag k="addr:city" v="Stratton" />
    <tag k="addr:housenumber" v="201" />
    <tag k="addr:street" v="North Brookwood Road" />
    <tag k="addr:state" v="VT" />
    <tag k="ref:vcgi:esiteid" v="252829" />
  </node>
  <node id="-143" visible="true" lat="43.11388397" lon="-72.91884612">
    <tag k="addr:city" v="Stratton" />
    <tag k="addr:housenumber" v="182" />
    <tag k="addr:street" v="North Brookwood Road" />
    <tag k="addr:state" v="VT" />
    <tag k="ref:vcgi:esiteid" v="252830" />
  </node>
  <node id="-144" visible="true" lat="43.11394753" lon="-72.87261621">
    <tag k="addr:city" v="Stratton" />
    <tag k="addr:housenumber" v="76" />
    <tag k="addr:street" v="Stone Cabin Road" />
    <tag k="addr:state" v="VT" />
    <tag k="ref:vcgi:esiteid" v="252831" />
  </node>
  <node id="-145" visible="true" lat="43.11379752" lon="-72.905137">
    <tag k="addr:city" v="Stratton" />
    <tag k="addr:housenumber" v="5" />
    <tag k="addr:street" v="Village Lodge Road" />
    <tag k="addr:state" v="VT" />
    <tag k="ref:vcgi:esiteid" v="252832" />
  </node>
  <node id="-146" visible="true" lat="43.11380004" lon="-72.89938354">
    <tag k="addr:city" v="Stratton" />
    <tag k="addr:housenumber" v="137" />
    <tag k="addr:street" v="Quarter Mile Road" />
    <tag k="addr:state" v="VT" />
    <tag k="ref:vcgi:esiteid" v="252833" />
  </node>
  <node id="-147" visible="true" lat="43.11372375" lon="-72.91272735">
    <tag k="addr:city" v="Stratton" />
    <tag k="addr:housenumber" v="25" />
    <tag k="addr:street" v="Sawmill Road" />
    <tag k="addr:state" v="VT" />
    <tag k="ref:vcgi:esiteid" v="252834" />
  </node>
  <node id="-148" visible="true" lat="43.11371231" lon="-72.90875244">
    <tag k="addr:city" v="Stratton" />
    <tag k="addr:housenumber" v="78" />
    <tag k="addr:street" v="Founders Hill Road" />
    <tag k="addr:state" v="VT" />
    <tag k="ref:vcgi:esiteid" v="252835" />
  </node>
  <node id="-149" visible="true" lat="43.1136856" lon="-72.9153366">
    <tag k="addr:city" v="Stratton" />
    <tag k="addr:housenumber" v="87" />
    <tag k="addr:street" v="North Brookwood Road" />
    <tag k="addr:state" v="VT" />
    <tag k="ref:vcgi:esiteid" v="252836" />
  </node>
  <node id="-150" visible="true" lat="43.11371231" lon="-72.90584564">
    <tag k="addr:city" v="Stratton" />
    <tag k="addr:housenumber" v="9" />
    <tag k="addr:street" v="Village Lodge Road" />
    <tag k="addr:state" v="VT" />
    <tag k="ref:vcgi:esiteid" v="252837" />
  </node>
  <node id="-151" visible="true" lat="43.11367507" lon="-72.90555793">
    <tag k="addr:city" v="Stratton" />
    <tag k="addr:housenumber" v="55" />
    <tag k="addr:street" v="Village Square" />
    <tag k="addr:state" v="VT" />
    <tag k="ref:vcgi:esiteid" v="252838" />
  </node>
  <node id="-152" visible="true" lat="43.11367034" lon="-72.90621948">
    <tag k="addr:city" v="Stratton" />
    <tag k="addr:housenumber" v="19" />
    <tag k="addr:street" v="Village Lodge Road" />
    <tag k="addr:state" v="VT" />
    <tag k="ref:vcgi:esiteid" v="252840" />
  </node>
  <node id="-153" visible="true" lat="43.11368806" lon="-72.89347055">
    <tag k="addr:city" v="Stratton" />
    <tag k="addr:housenumber" v="22" />
    <tag k="addr:street" v="High Point Drive" />
    <tag k="addr:state" v="VT" />
    <tag k="ref:vcgi:esiteid" v="252841" />
  </node>
  <node id="-154" visible="true" lat="43.11365127" lon="-72.90546417">
    <tag k="addr:city" v="Stratton" />
    <tag k="addr:housenumber" v="56" />
    <tag k="addr:street" v="Village Square" />
    <tag k="addr:state" v="VT" />
    <tag k="ref:vcgi:esiteid" v="252842" />
  </node>
  <node id="-155" visible="true" lat="43.11367797" lon="-72.89844512">
    <tag k="addr:city" v="Stratton" />
    <tag k="addr:housenumber" v="135" />
    <tag k="addr:street" v="Quarter Mile Road" />
    <tag k="addr:state" v="VT" />
    <tag k="ref:vcgi:esiteid" v="252843" />
  </node>
  <node id="-156" visible="true" lat="43.11364364" lon="-72.9068756">
    <tag k="addr:city" v="Stratton" />
    <tag k="addr:housenumber" v="49" />
    <tag k="addr:street" v="Village Lodge Road" />
    <tag k="addr:state" v="VT" />
    <tag k="ref:vcgi:esiteid" v="252844" />
  </node>
  <node id="-157" visible="true" lat="43.11361694" lon="-72.90589141">
    <tag k="addr:city" v="Stratton" />
    <tag k="addr:housenumber" v="52" />
    <tag k="addr:street" v="Village Square" />
    <tag k="addr:state" v="VT" />
    <tag k="ref:vcgi:esiteid" v="252845" />
  </node>
  <node id="-158" visible="true" lat="43.11361694" lon="-72.90538787">
    <tag k="addr:city" v="Stratton" />
    <tag k="addr:housenumber" v="57" />
    <tag k="addr:street" v="Village Square" />
    <tag k="addr:state" v="VT" />
    <tag k="ref:vcgi:esiteid" v="252846" />
  </node>
  <node id="-159" visible="true" lat="43.11360549" lon="-72.90579986">
    <tag k="addr:city" v="Stratton" />
    <tag k="addr:housenumber" v="53" />
    <tag k="addr:street" v="Village Square" />
    <tag k="addr:state" v="VT" />
    <tag k="ref:vcgi:esiteid" v="252847" />
  </node>
  <node id="-160" visible="true" lat="43.11363318" lon="-72.90569672">
    <tag k="addr:city" v="Stratton" />
    <tag k="addr:housenumber" v="54" />
    <tag k="addr:street" v="Village Square" />
    <tag k="addr:state" v="VT" />
    <tag k="ref:vcgi:esiteid" v="252848" />
  </node>
  <node id="-161" visible="true" lat="43.11359024" lon="-72.90531921">
    <tag k="addr:city" v="Stratton" />
    <tag k="addr:housenumber" v="58" />
    <tag k="addr:street" v="Village Square" />
    <tag k="addr:state" v="VT" />
    <tag k="ref:vcgi:esiteid" v="252849" />
  </node>
  <node id="-162" visible="true" lat="43.11357116" lon="-72.90614318">
    <tag k="addr:city" v="Stratton" />
    <tag k="addr:housenumber" v="50" />
    <tag k="addr:street" v="Village Square" />
    <tag k="addr:state" v="VT" />
    <tag k="ref:vcgi:esiteid" v="252850" />
  </node>
  <node id="-163" visible="true" lat="43.11355209" lon="-72.91207885">
    <tag k="addr:city" v="Stratton" />
    <tag k="addr:housenumber" v="15" />
    <tag k="addr:street" v="Sawmill Road" />
    <tag k="addr:state" v="VT" />
    <tag k="ref:vcgi:esiteid" v="252851" />
  </node>
  <node id="-164" visible="true" lat="43.11356735" lon="-72.90605926">
    <tag k="addr:city" v="Stratton" />
    <tag k="addr:housenumber" v="51" />
    <tag k="addr:street" v="Village Square" />
    <tag k="addr:state" v="VT" />
    <tag k="ref:vcgi:esiteid" v="252852" />
  </node>
  <node id="-165" visible="true" lat="43.11355972" lon="-72.90579986">
    <tag k="addr:city" v="Stratton" />
    <tag k="addr:housenumber" v="9" />
    <tag k="addr:street" v="Village Square" />
    <tag k="addr:state" v="VT" />
    <tag k="ref:vcgi:esiteid" v="252853" />
  </node>
  <node id="-166" visible="true" lat="43.1136636" lon="-72.90486804">
    <tag k="addr:city" v="Stratton" />
    <tag k="addr:housenumber" v="7" />
    <tag k="addr:street" v="Village Square" />
    <tag k="addr:state" v="VT" />
    <tag k="ref:vcgi:esiteid" v="252854" />
  </node>
  <node id="-167" visible="true" lat="43.11354827" lon="-72.90366363">
    <tag k="addr:city" v="Stratton" />
    <tag k="addr:housenumber" v="771" />
    <tag k="addr:street" v="Stratton Mountain Access Road" />
    <tag k="addr:state" v="VT" />
    <tag k="ref:vcgi:esiteid" v="252855" />
  </node>
  <node id="-168" visible="true" lat="43.11351776" lon="-72.91007232">
    <tag k="addr:city" v="Stratton" />
    <tag k="addr:housenumber" v="11" />
    <tag k="addr:street" v="Pond Road" />
    <tag k="addr:state" v="VT" />
    <tag k="ref:vcgi:esiteid" v="252856" />
  </node>
  <node id="-169" visible="true" lat="43.11352157" lon="-72.90615081">
    <tag k="addr:city" v="Stratton" />
    <tag k="addr:housenumber" v="10" />
    <tag k="addr:street" v="Village Square" />
    <tag k="addr:state" v="VT" />
    <tag k="ref:vcgi:esiteid" v="252857" />
  </node>
  <node id="-170" visible="true" lat="43.1135719" lon="-72.90520125">
    <tag k="addr:city" v="Stratton" />
    <tag k="addr:housenumber" v="8" />
    <tag k="addr:street" v="Village Square" />
    <tag k="addr:state" v="VT" />
    <tag k="ref:vcgi:esiteid" v="252858" />
  </node>
  <node id="-171" visible="true" lat="43.11347579" lon="-72.91629791">
    <tag k="addr:city" v="Stratton" />
    <tag k="addr:housenumber" v="98" />
    <tag k="addr:street" v="North Brookwood Road" />
    <tag k="addr:state" v="VT" />
    <tag k="ref:vcgi:esiteid" v="252859" />
  </node>
  <node id="-172" visible="true" lat="43.11357388" lon="-72.90650649">
    <tag k="addr:city" v="Stratton" />
    <tag k="addr:housenumber" v="11" />
    <tag k="addr:street" v="Village Square" />
    <tag k="addr:state" v="VT" />
    <tag k="ref:vcgi:esiteid" v="252860" />
  </node>
  <node id="-173" visible="true" lat="43.11344471" lon="-72.90575152">
    <tag k="addr:city" v="Stratton" />
    <tag k="addr:housenumber" v="4" />
    <tag k="addr:street" v="Village Square" />
    <tag k="addr:state" v="VT" />
    <tag k="ref:vcgi:esiteid" v="252861" />
  </node>
  <node id="-174" visible="true" lat="43.11344909" lon="-72.90812683">
    <tag k="addr:city" v="Stratton" />
    <tag k="addr:housenumber" v="10" />
    <tag k="addr:street" v="Base Lodge Road" />
    <tag k="addr:state" v="VT" />
    <tag k="ref:vcgi:esiteid" v="252862" />
  </node>
  <node id="-175" visible="true" lat="43.11345708" lon="-72.8926702">
    <tag k="addr:city" v="Stratton" />
    <tag k="addr:housenumber" v="20" />
    <tag k="addr:street" v="High Point Drive" />
    <tag k="addr:state" v="VT" />
    <tag k="ref:vcgi:esiteid" v="252863" />
  </node>
  <node id="-176" visible="true" lat="43.11341003" lon="-72.90472125">
    <tag k="addr:city" v="Stratton" />
    <tag k="addr:housenumber" v="6" />
    <tag k="addr:street" v="Village Square" />
    <tag k="addr:state" v="VT" />
    <tag k="ref:vcgi:esiteid" v="252864" />
  </node>
  <node id="-177" visible="true" lat="43.11331836" lon="-72.90541034">
    <tag k="addr:city" v="Stratton" />
    <tag k="addr:housenumber" v="5" />
    <tag k="addr:street" v="Village Square" />
    <tag k="addr:state" v="VT" />
    <tag k="ref:vcgi:esiteid" v="252865" />
  </node>
  <node id="-178" visible="true" lat="43.11336135" lon="-72.92106628">
    <tag k="addr:city" v="Stratton" />
    <tag k="addr:housenumber" v="211" />
    <tag k="addr:street" v="North Brookwood Road" />
    <tag k="addr:state" v="VT" />
    <tag k="ref:vcgi:esiteid" v="252866" />
  </node>
  <node id="-179" visible="true" lat="43.11341794" lon="-72.90565391">
    <tag k="addr:city" v="Stratton" />
    <tag k="addr:housenumber" v="42" />
    <tag k="addr:street" v="Mountain Reach Mews" />
    <tag k="addr:state" v="VT" />
    <tag k="ref:vcgi:esiteid" v="252867" />
  </node>
  <node id="-180" visible="true" lat="43.11339793" lon="-72.90592614">
    <tag k="addr:city" v="Stratton" />
    <tag k="addr:housenumber" v="3" />
    <tag k="addr:street" v="Village Square" />
    <tag k="addr:state" v="VT" />
    <tag k="ref:vcgi:esiteid" v="252868" />
  </node>
  <node id="-181" visible="true" lat="43.11334665" lon="-72.90550369">
    <tag k="addr:city" v="Stratton" />
    <tag k="addr:housenumber" v="41" />
    <tag k="addr:street" v="Mountain Reach Mews" />
    <tag k="addr:state" v="VT" />
    <tag k="ref:vcgi:esiteid" v="252869" />
  </node>
  <node id="-182" visible="true" lat="43.1134082" lon="-72.90622887">
    <tag k="addr:city" v="Stratton" />
    <tag k="addr:housenumber" v="2" />
    <tag k="addr:street" v="Village Square" />
    <tag k="addr:state" v="VT" />
    <tag k="ref:vcgi:esiteid" v="252870" />
  </node>
  <node id="-183" visible="true" lat="43.11330536" lon="-72.90531935">
    <tag k="addr:city" v="Stratton" />
    <tag k="addr:housenumber" v="40" />
    <tag k="addr:street" v="Mountain Reach Mews" />
    <tag k="addr:state" v="VT" />
    <tag k="ref:vcgi:esiteid" v="252871" />
  </node>
  <node id="-184" visible="true" lat="43.11337885" lon="-72.90492536">
    <tag k="addr:city" v="Stratton" />
    <tag k="addr:housenumber" v="35" />
    <tag k="addr:street" v="Mountain Reach Mews" />
    <tag k="addr:state" v="VT" />
    <tag k="ref:vcgi:esiteid" v="252872" />
  </node>
  <node id="-185" visible="true" lat="43.1133728" lon="-72.90186309">
    <tag k="addr:city" v="Stratton" />
    <tag k="addr:housenumber" v="81" />
    <tag k="addr:street" v="Middle Ridge Road" />
    <tag k="addr:state" v="VT" />
    <tag k="ref:vcgi:esiteid" v="252873" />
  </node>
  <node id="-186" visible="true" lat="43.1132965" lon="-72.92008972">
    <tag k="addr:city" v="Stratton" />
    <tag k="addr:housenumber" v="173" />
    <tag k="addr:street" v="North Brookwood Road" />
    <tag k="addr:state" v="VT" />
    <tag k="ref:vcgi:esiteid" v="252874" />
  </node>
  <node id="-187" visible="true" lat="43.11328628" lon="-72.90523543">
    <tag k="addr:city" v="Stratton" />
    <tag k="addr:housenumber" v="39" />
    <tag k="addr:street" v="Mountain Reach Mews" />
    <tag k="addr:state" v="VT" />
    <tag k="ref:vcgi:esiteid" v="252875" />
  </node>
  <node id="-188" visible="true" lat="43.11331712" lon="-72.90656159">
    <tag k="addr:city" v="Stratton" />
    <tag k="addr:housenumber" v="1" />
    <tag k="addr:street" v="Village Square" />
    <tag k="addr:state" v="VT" />
    <tag k="ref:vcgi:esiteid" v="252876" />
  </node>
  <node id="-189" visible="true" lat="43.11334577" lon="-72.90499904">
    <tag k="addr:city" v="Stratton" />
    <tag k="addr:housenumber" v="36" />
    <tag k="addr:street" v="Mountain Reach Mews" />
    <tag k="addr:state" v="VT" />
    <tag k="ref:vcgi:esiteid" v="252877" />
  </node>
  <node id="-190" visible="true" lat="43.11329868" lon="-72.90514041">
    <tag k="addr:city" v="Stratton" />
    <tag k="addr:housenumber" v="38" />
    <tag k="addr:street" v="Mountain Reach Mews" />
    <tag k="addr:state" v="VT" />
    <tag k="ref:vcgi:esiteid" v="252878" />
  </node>
  <node id="-191" visible="true" lat="43.11331437" lon="-72.90507106">
    <tag k="addr:city" v="Stratton" />
    <tag k="addr:housenumber" v="37" />
    <tag k="addr:street" v="Mountain Reach Mews" />
    <tag k="addr:state" v="VT" />
    <tag k="ref:vcgi:esiteid" v="252879" />
  </node>
  <node id="-192" visible="true" lat="43.11333194" lon="-72.90603601">
    <tag k="addr:city" v="Stratton" />
    <tag k="addr:housenumber" v="43" />
    <tag k="addr:street" v="Mountain Reach Mews" />
    <tag k="addr:state" v="VT" />
    <tag k="ref:vcgi:esiteid" v="252880" />
  </node>
  <node id="-193" visible="true" lat="43.11332702" lon="-72.89447784">
    <tag k="addr:city" v="Stratton" />
    <tag k="addr:housenumber" v="26" />
    <tag k="addr:street" v="High Point Drive" />
    <tag k="addr:state" v="VT" />
    <tag k="ref:vcgi:esiteid" v="252881" />
  </node>
  <node id="-194" visible="true" lat="43.11332431" lon="-72.90611993">
    <tag k="addr:city" v="Stratton" />
    <tag k="addr:housenumber" v="44" />
    <tag k="addr:street" v="Mountain Reach Mews" />
    <tag k="addr:state" v="VT" />
    <tag k="ref:vcgi:esiteid" v="252882" />
  </node>
  <node id="-195" visible="true" lat="43.1133167" lon="-72.90622187">
    <tag k="addr:city" v="Stratton" />
    <tag k="addr:housenumber" v="45" />
    <tag k="addr:street" v="Mountain Reach Mews" />
    <tag k="addr:state" v="VT" />
    <tag k="ref:vcgi:esiteid" v="252883" />
  </node>
  <node id="-196" visible="true" lat="43.1132431" lon="-72.9143753">
    <tag k="addr:city" v="Stratton" />
    <tag k="addr:housenumber" v="34" />
    <tag k="addr:street" v="Sawmill Road" />
    <tag k="addr:state" v="VT" />
    <tag k="ref:vcgi:esiteid" v="252884" />
  </node>
  <node id="-197" visible="true" lat="43.11322402" lon="-72.91905212">
    <tag k="addr:city" v="Stratton" />
    <tag k="addr:housenumber" v="170" />
    <tag k="addr:street" v="North Brookwood Road" />
    <tag k="addr:state" v="VT" />
    <tag k="ref:vcgi:esiteid" v="252885" />
  </node>
  <node id="-198" visible="true" lat="43.11330525" lon="-72.90632868">
    <tag k="addr:city" v="Stratton" />
    <tag k="addr:housenumber" v="46" />
    <tag k="addr:street" v="Mountain Reach Mews" />
    <tag k="addr:state" v="VT" />
    <tag k="ref:vcgi:esiteid" v="252886" />
  </node>
  <node id="-199" visible="true" lat="43.11325724" lon="-72.90646267">
    <tag k="addr:city" v="Stratton" />
    <tag k="addr:housenumber" v="47" />
    <tag k="addr:street" v="Mountain Reach Mews" />
    <tag k="addr:state" v="VT" />
    <tag k="ref:vcgi:esiteid" v="252887" />
  </node>
  <node id="-200" visible="true" lat="43.11327362" lon="-72.87358856">
    <tag k="addr:city" v="Stratton" />
    <tag k="addr:housenumber" v="54" />
    <tag k="addr:street" v="Stone Cabin Road" />
    <tag k="addr:state" v="VT" />
    <tag k="ref:vcgi:esiteid" v="252888" />
  </node>
  <node id="-201" visible="true" lat="43.11317713" lon="-72.90645504">
    <tag k="addr:city" v="Stratton" />
    <tag k="addr:housenumber" v="48" />
    <tag k="addr:street" v="Mountain Reach Mews" />
    <tag k="addr:state" v="VT" />
    <tag k="ref:vcgi:esiteid" v="252889" />
  </node>
  <node id="-202" visible="true" lat="43.11318206" lon="-72.89949798">
    <tag k="addr:city" v="Stratton" />
    <tag k="addr:housenumber" v="143" />
    <tag k="addr:street" v="Quarter Mile Road" />
    <tag k="addr:state" v="VT" />
    <tag k="ref:vcgi:esiteid" v="252890" />
  </node>
  <node id="-203" visible="true" lat="43.11315529" lon="-72.90561586">
    <tag k="addr:city" v="Stratton" />
    <tag k="addr:housenumber" v="15" />
    <tag k="addr:street" v="Mountain Reach Mews" />
    <tag k="addr:state" v="VT" />
    <tag k="ref:vcgi:esiteid" v="252891" />
  </node>
  <node id="-204" visible="true" lat="43.11308755" lon="-72.89513283">
    <tag k="addr:city" v="Stratton" />
    <tag k="addr:housenumber" v="40" />
    <tag k="addr:street" v="High Point Drive" />
    <tag k="addr:state" v="VT" />
    <tag k="ref:vcgi:esiteid" v="252892" />
  </node>
  <node id="-205" visible="true" lat="43.11309432" lon="-72.91326141">
    <tag k="addr:city" v="Stratton" />
    <tag k="addr:housenumber" v="35" />
    <tag k="addr:street" v="Sawmill Road" />
    <tag k="addr:state" v="VT" />
    <tag k="ref:vcgi:esiteid" v="252893" />
  </node>
  <node id="-206" visible="true" lat="43.1131134" lon="-72.90596771">
    <tag k="addr:city" v="Stratton" />
    <tag k="addr:housenumber" v="6" />
    <tag k="addr:street" v="Mountain Reach Mews" />
    <tag k="addr:state" v="VT" />
    <tag k="ref:vcgi:esiteid" v="252894" />
  </node>
  <node id="-207" visible="true" lat="43.11311721" lon="-72.90589141">
    <tag k="addr:city" v="Stratton" />
    <tag k="addr:housenumber" v="7" />
    <tag k="addr:street" v="Mountain Reach Mews" />
    <tag k="addr:state" v="VT" />
    <tag k="ref:vcgi:esiteid" v="252895" />
  </node>
  <node id="-208" visible="true" lat="43.11307144" lon="-72.91519165">
    <tag k="addr:city" v="Stratton" />
    <tag k="addr:housenumber" v="97" />
    <tag k="addr:street" v="North Brookwood Road" />
    <tag k="addr:state" v="VT" />
    <tag k="ref:vcgi:esiteid" v="252896" />
  </node>
  <node id="-209" visible="true" lat="43.11307823" lon="-72.90559145">
    <tag k="addr:city" v="Stratton" />
    <tag k="addr:housenumber" v="14" />
    <tag k="addr:street" v="Mountain Reach Mews" />
    <tag k="addr:state" v="VT" />
    <tag k="ref:vcgi:esiteid" v="252897" />
  </node>
  <node id="-210" visible="true" lat="43.11310789" lon="-72.90476287">
    <tag k="addr:city" v="Stratton" />
    <tag k="addr:housenumber" v="34" />
    <tag k="addr:street" v="Mountain Reach Mews" />
    <tag k="addr:state" v="VT" />
    <tag k="ref:vcgi:esiteid" v="252898" />
  </node>
  <node id="-211" visible="true" lat="43.11306298" lon="-72.90469452">
    <tag k="addr:city" v="Stratton" />
    <tag k="addr:housenumber" v="33" />
    <tag k="addr:street" v="Mountain Reach Mews" />
    <tag k="addr:state" v="VT" />
    <tag k="ref:vcgi:esiteid" v="252899" />
  </node>
  <node id="-212" visible="true" lat="43.11302185" lon="-72.90069579">
    <tag k="addr:city" v="Stratton" />
    <tag k="addr:housenumber" v="147" />
    <tag k="addr:street" v="Quarter Mile Road" />
    <tag k="addr:state" v="VT" />
    <tag k="ref:vcgi:esiteid" v="252900" />
  </node>
  <node id="-213" visible="true" lat="43.11302246" lon="-72.92259519">
    <tag k="addr:city" v="Stratton" />
    <tag k="addr:housenumber" v="125" />
    <tag k="addr:street" v="West Ridge Road" />
    <tag k="addr:state" v="VT" />
    <tag k="ref:vcgi:esiteid" v="252901" />
  </node>
  <node id="-214" visible="true" lat="43.11299766" lon="-72.89249124">
    <tag k="addr:city" v="Stratton" />
    <tag k="addr:housenumber" v="18" />
    <tag k="addr:street" v="High Point Drive" />
    <tag k="addr:state" v="VT" />
    <tag k="ref:vcgi:esiteid" v="252902" />
  </node>
  <node id="-215" visible="true" lat="43.11302085" lon="-72.92380812">
    <tag k="addr:city" v="Stratton" />
    <tag k="addr:housenumber" v="122" />
    <tag k="addr:street" v="West Ridge Road" />
    <tag k="addr:state" v="VT" />
    <tag k="ref:vcgi:esiteid" v="252903" />
  </node>
  <node id="-216" visible="true" lat="43.11305618" lon="-72.8871231">
    <tag k="addr:city" v="Stratton" />
    <tag k="addr:housenumber" v="82" />
    <tag k="addr:street" v="North Road" />
    <tag k="addr:state" v="VT" />
    <tag k="ref:vcgi:esiteid" v="252904" />
  </node>
  <node id="-217" visible="true" lat="43.1130839" lon="-72.90617301">
    <tag k="addr:city" v="Stratton" />
    <tag k="addr:housenumber" v="5" />
    <tag k="addr:street" v="Mountain Reach Mews" />
    <tag k="addr:state" v="VT" />
    <tag k="ref:vcgi:esiteid" v="252905" />
  </node>
  <node id="-218" visible="true" lat="43.11304073" lon="-72.90530599">
    <tag k="addr:city" v="Stratton" />
    <tag k="addr:housenumber" v="18" />
    <tag k="addr:street" v="Mountain Reach Mews" />
    <tag k="addr:state" v="VT" />
    <tag k="ref:vcgi:esiteid" v="252906" />
  </node>
  <node id="-219" visible="true" lat="43.11301432" lon="-72.90467654">
    <tag k="addr:city" v="Stratton" />
    <tag k="addr:housenumber" v="32" />
    <tag k="addr:street" v="Mountain Reach Mews" />
    <tag k="addr:state" v="VT" />
    <tag k="ref:vcgi:esiteid" v="252907" />
  </node>
  <node id="-220" visible="true" lat="43.11300441" lon="-72.90658358">
    <tag k="addr:city" v="Stratton" />
    <tag k="addr:housenumber" v="1" />
    <tag k="addr:street" v="Mountain Reach Mews" />
    <tag k="addr:state" v="VT" />
    <tag k="ref:vcgi:esiteid" v="252908" />
  </node>
  <node id="-221" visible="true" lat="43.11298755" lon="-72.90627166">
    <tag k="addr:city" v="Stratton" />
    <tag k="addr:housenumber" v="4" />
    <tag k="addr:street" v="Mountain Reach Mews" />
    <tag k="addr:state" v="VT" />
    <tag k="ref:vcgi:esiteid" v="252909" />
  </node>
  <node id="-222" visible="true" lat="43.11299944" lon="-72.90502144">
    <tag k="addr:city" v="Stratton" />
    <tag k="addr:housenumber" v="28" />
    <tag k="addr:street" v="Mountain Reach Mews" />
    <tag k="addr:state" v="VT" />
    <tag k="ref:vcgi:esiteid" v="252910" />
  </node>
  <node id="-223" visible="true" lat="43.11296251" lon="-72.90635879">
    <tag k="addr:city" v="Stratton" />
    <tag k="addr:housenumber" v="3" />
    <tag k="addr:street" v="Mountain Reach Mews" />
    <tag k="addr:state" v="VT" />
    <tag k="ref:vcgi:esiteid" v="252911" />
  </node>
  <node id="-224" visible="true" lat="43.11297183" lon="-72.90575728">
    <tag k="addr:city" v="Stratton" />
    <tag k="addr:housenumber" v="8" />
    <tag k="addr:street" v="Mountain Reach Mews" />
    <tag k="addr:state" v="VT" />
    <tag k="ref:vcgi:esiteid" v="252912" />
  </node>
  <node id="-225" visible="true" lat="43.11286163" lon="-72.92176818">
    <tag k="addr:city" v="Stratton" />
    <tag k="addr:housenumber" v="219" />
    <tag k="addr:street" v="North Brookwood Road" />
    <tag k="addr:state" v="VT" />
    <tag k="ref:vcgi:esiteid" v="252913" />
  </node>
  <node id="-226" visible="true" lat="43.11299507" lon="-72.90536178">
    <tag k="addr:city" v="Stratton" />
    <tag k="addr:housenumber" v="17" />
    <tag k="addr:street" v="Mountain Reach Mews" />
    <tag k="addr:state" v="VT" />
    <tag k="ref:vcgi:esiteid" v="252914" />
  </node>
  <node id="-227" visible="true" lat="43.11294246" lon="-72.90646607">
    <tag k="addr:city" v="Stratton" />
    <tag k="addr:housenumber" v="2" />
    <tag k="addr:street" v="Mountain Reach Mews" />
    <tag k="addr:state" v="VT" />
    <tag k="ref:vcgi:esiteid" v="252915" />
  </node>
  <node id="-228" visible="true" lat="43.11295591" lon="-72.90466128">
    <tag k="addr:city" v="Stratton" />
    <tag k="addr:housenumber" v="31" />
    <tag k="addr:street" v="Mountain Reach Mews" />
    <tag k="addr:state" v="VT" />
    <tag k="ref:vcgi:esiteid" v="252916" />
  </node>
  <node id="-229" visible="true" lat="43.11295171" lon="-72.90538835">
    <tag k="addr:city" v="Stratton" />
    <tag k="addr:housenumber" v="16" />
    <tag k="addr:street" v="Mountain Reach Mews" />
    <tag k="addr:state" v="VT" />
    <tag k="ref:vcgi:esiteid" v="252918" />
  </node>
  <node id="-230" visible="true" lat="43.11295299" lon="-72.90497799">
    <tag k="addr:city" v="Stratton" />
    <tag k="addr:housenumber" v="27" />
    <tag k="addr:street" v="Mountain Reach Mews" />
    <tag k="addr:state" v="VT" />
    <tag k="ref:vcgi:esiteid" v="252919" />
  </node>
  <node id="-231" visible="true" lat="43.11286544" lon="-72.90406799">
    <tag k="addr:city" v="Stratton" />
    <tag k="addr:housenumber" v="776" />
    <tag k="addr:street" v="Stratton Mountain Access Road" />
    <tag k="addr:state" v="VT" />
    <tag k="ref:vcgi:esiteid" v="252920" />
  </node>
  <node id="-232" visible="true" lat="43.11287941" lon="-72.90568746">
    <tag k="addr:city" v="Stratton" />
    <tag k="addr:housenumber" v="9" />
    <tag k="addr:street" v="Mountain Reach Mews" />
    <tag k="addr:state" v="VT" />
    <tag k="ref:vcgi:esiteid" v="252921" />
  </node>
  <node id="-233" visible="true" lat="43.11283343" lon="-72.90502553">
    <tag k="addr:city" v="Stratton" />
    <tag k="addr:housenumber" v="26" />
    <tag k="addr:street" v="Mountain Reach Mews" />
    <tag k="addr:state" v="VT" />
    <tag k="ref:vcgi:esiteid" v="252922" />
  </node>
  <node id="-234" visible="true" lat="43.11284006" lon="-72.90466117">
    <tag k="addr:city" v="Stratton" />
    <tag k="addr:housenumber" v="30" />
    <tag k="addr:street" v="Mountain Reach Mews" />
    <tag k="addr:state" v="VT" />
    <tag k="ref:vcgi:esiteid" v="252923" />
  </node>
  <node id="-235" visible="true" lat="43.11284079" lon="-72.90561847">
    <tag k="addr:city" v="Stratton" />
    <tag k="addr:housenumber" v="10" />
    <tag k="addr:street" v="Mountain Reach Mews" />
    <tag k="addr:state" v="VT" />
    <tag k="ref:vcgi:esiteid" v="252924" />
  </node>
  <node id="-236" visible="true" lat="43.11278611" lon="-72.9049653">
    <tag k="addr:city" v="Stratton" />
    <tag k="addr:housenumber" v="25" />
    <tag k="addr:street" v="Mountain Reach Mews" />
    <tag k="addr:state" v="VT" />
    <tag k="ref:vcgi:esiteid" v="252925" />
  </node>
  <node id="-237" visible="true" lat="43.11277958" lon="-72.90555033">
    <tag k="addr:city" v="Stratton" />
    <tag k="addr:housenumber" v="11" />
    <tag k="addr:street" v="Mountain Reach Mews" />
    <tag k="addr:state" v="VT" />
    <tag k="ref:vcgi:esiteid" v="252926" />
  </node>
  <node id="-238" visible="true" lat="43.112785" lon="-72.90464707">
    <tag k="addr:city" v="Stratton" />
    <tag k="addr:housenumber" v="29" />
    <tag k="addr:street" v="Mountain Reach Mews" />
    <tag k="addr:state" v="VT" />
    <tag k="ref:vcgi:esiteid" v="252927" />
  </node>
  <node id="-239" visible="true" lat="43.11273447" lon="-72.90548422">
    <tag k="addr:city" v="Stratton" />
    <tag k="addr:housenumber" v="12" />
    <tag k="addr:street" v="Mountain Reach Mews" />
    <tag k="addr:state" v="VT" />
    <tag k="ref:vcgi:esiteid" v="252928" />
  </node>
  <node id="-240" visible="true" lat="43.11276368" lon="-72.90535342">
    <tag k="addr:city" v="Stratton" />
    <tag k="addr:housenumber" v="13" />
    <tag k="addr:street" v="Mountain Reach Mews" />
    <tag k="addr:state" v="VT" />
    <tag k="ref:vcgi:esiteid" v="252929" />
  </node>
  <node id="-241" visible="true" lat="43.11265563" lon="-72.91642761">
    <tag k="addr:city" v="Stratton" />
    <tag k="addr:housenumber" v="102" />
    <tag k="addr:street" v="North Brookwood Road" />
    <tag k="addr:state" v="VT" />
    <tag k="ref:vcgi:esiteid" v="252930" />
  </node>
  <node id="-242" visible="true" lat="43.112648" lon="-72.91848754">
    <tag k="addr:city" v="Stratton" />
    <tag k="addr:housenumber" v="157" />
    <tag k="addr:street" v="North Brookwood Road" />
    <tag k="addr:state" v="VT" />
    <tag k="ref:vcgi:esiteid" v="252931" />
  </node>
  <node id="-243" visible="true" lat="43.11266708" lon="-72.9125595">
    <tag k="addr:city" v="Stratton" />
    <tag k="addr:housenumber" v="61" />
    <tag k="addr:street" v="Snowbridge Road" />
    <tag k="addr:state" v="VT" />
    <tag k="ref:vcgi:esiteid" v="252932" />
  </node>
  <node id="-244" visible="true" lat="43.11263656" lon="-72.91204071">
    <tag k="addr:city" v="Stratton" />
    <tag k="addr:housenumber" v="63" />
    <tag k="addr:street" v="Snowbridge Road" />
    <tag k="addr:state" v="VT" />
    <tag k="ref:vcgi:esiteid" v="252933" />
  </node>
  <node id="-245" visible="true" lat="43.11261367" lon="-72.91436767">
    <tag k="addr:city" v="Stratton" />
    <tag k="addr:housenumber" v="38" />
    <tag k="addr:street" v="Sawmill Road" />
    <tag k="addr:state" v="VT" />
    <tag k="ref:vcgi:esiteid" v="252934" />
  </node>
  <node id="-246" visible="true" lat="43.11265563" lon="-72.89999389">
    <tag k="addr:city" v="Stratton" />
    <tag k="addr:housenumber" v="145" />
    <tag k="addr:street" v="Quarter Mile Road" />
    <tag k="addr:state" v="VT" />
    <tag k="ref:vcgi:esiteid" v="252935" />
  </node>
  <node id="-247" visible="true" lat="43.11261026" lon="-72.90511117">
    <tag k="addr:city" v="Stratton" />
    <tag k="addr:housenumber" v="19" />
    <tag k="addr:street" v="Mountain Reach Mews" />
    <tag k="addr:state" v="VT" />
    <tag k="ref:vcgi:esiteid" v="252936" />
  </node>
  <node id="-248" visible="true" lat="43.11249542" lon="-72.92204284">
    <tag k="addr:city" v="Stratton" />
    <tag k="addr:housenumber" v="141" />
    <tag k="addr:street" v="West Ridge Road" />
    <tag k="addr:state" v="VT" />
    <tag k="ref:vcgi:esiteid" v="252937" />
  </node>
  <node id="-249" visible="true" lat="43.11254409" lon="-72.90498462">
    <tag k="addr:city" v="Stratton" />
    <tag k="addr:housenumber" v="20" />
    <tag k="addr:street" v="Mountain Reach Mews" />
    <tag k="addr:state" v="VT" />
    <tag k="ref:vcgi:esiteid" v="252938" />
  </node>
  <node id="-250" visible="true" lat="43.11259882" lon="-72.90457116">
    <tag k="addr:city" v="Stratton" />
    <tag k="addr:housenumber" v="24" />
    <tag k="addr:street" v="Mountain Reach Mews" />
    <tag k="addr:state" v="VT" />
    <tag k="ref:vcgi:esiteid" v="252939" />
  </node>
  <node id="-251" visible="true" lat="43.11252988" lon="-72.90487147">
    <tag k="addr:city" v="Stratton" />
    <tag k="addr:housenumber" v="21" />
    <tag k="addr:street" v="Mountain Reach Mews" />
    <tag k="addr:state" v="VT" />
    <tag k="ref:vcgi:esiteid" v="252940" />
  </node>
  <node id="-252" visible="true" lat="43.11252275" lon="-72.90477024">
    <tag k="addr:city" v="Stratton" />
    <tag k="addr:housenumber" v="22" />
    <tag k="addr:street" v="Mountain Reach Mews" />
    <tag k="addr:state" v="VT" />
    <tag k="ref:vcgi:esiteid" v="252941" />
  </node>
  <node id="-253" visible="true" lat="43.11252116" lon="-72.9046636">
    <tag k="addr:city" v="Stratton" />
    <tag k="addr:housenumber" v="23" />
    <tag k="addr:street" v="Mountain Reach Mews" />
    <tag k="addr:state" v="VT" />
    <tag k="ref:vcgi:esiteid" v="252942" />
  </node>
  <node id="-254" visible="true" lat="43.11240386" lon="-72.92375946">
    <tag k="addr:city" v="Stratton" />
    <tag k="addr:housenumber" v="130" />
    <tag k="addr:street" v="West Ridge Road" />
    <tag k="addr:state" v="VT" />
    <tag k="ref:vcgi:esiteid" v="252943" />
  </node>
  <node id="-255" visible="true" lat="43.11240386" lon="-72.92284393">
    <tag k="addr:city" v="Stratton" />
    <tag k="addr:housenumber" v="135" />
    <tag k="addr:street" v="West Ridge Road" />
    <tag k="addr:state" v="VT" />
    <tag k="ref:vcgi:esiteid" v="252944" />
  </node>
  <node id="-256" visible="true" lat="43.11240768" lon="-72.9156723">
    <tag k="addr:city" v="Stratton" />
    <tag k="addr:housenumber" v="103" />
    <tag k="addr:street" v="North Brookwood Road" />
    <tag k="addr:state" v="VT" />
    <tag k="ref:vcgi:esiteid" v="252945" />
  </node>
  <node id="-257" visible="true" lat="43.11241149" lon="-72.91286468">
    <tag k="addr:city" v="Stratton" />
    <tag k="addr:housenumber" v="59" />
    <tag k="addr:street" v="Snowbridge Road" />
    <tag k="addr:state" v="VT" />
    <tag k="ref:vcgi:esiteid" v="252946" />
  </node>
  <node id="-258" visible="true" lat="43.11253962" lon="-72.90360308">
    <tag k="addr:city" v="Stratton" />
    <tag k="addr:housenumber" v="778" />
    <tag k="addr:street" v="Stratton Mountain Access Road" />
    <tag k="addr:state" v="VT" />
    <tag k="ref:vcgi:esiteid" v="252947" />
  </node>
  <node id="-259" visible="true" lat="43.1123352" lon="-72.91171264">
    <tag k="addr:city" v="Stratton" />
    <tag k="addr:housenumber" v="62" />
    <tag k="addr:street" v="Snowbridge Road" />
    <tag k="addr:state" v="VT" />
    <tag k="ref:vcgi:esiteid" v="252948" />
  </node>
  <node id="-260" visible="true" lat="43.11235809" lon="-72.89286804">
    <tag k="addr:city" v="Stratton" />
    <tag k="addr:housenumber" v="16" />
    <tag k="addr:street" v="High Point Drive" />
    <tag k="addr:state" v="VT" />
    <tag k="ref:vcgi:esiteid" v="252949" />
  </node>
  <node id="-261" visible="true" lat="43.11225891" lon="-72.8938446">
    <tag k="addr:city" v="Stratton" />
    <tag k="addr:housenumber" v="43" />
    <tag k="addr:street" v="High Point Drive" />
    <tag k="addr:state" v="VT" />
    <tag k="ref:vcgi:esiteid" v="252950" />
  </node>
  <node id="-262" visible="true" lat="43.11213302" lon="-72.91313171">
    <tag k="addr:city" v="Stratton" />
    <tag k="addr:housenumber" v="53" />
    <tag k="addr:street" v="Snowbridge Road" />
    <tag k="addr:state" v="VT" />
    <tag k="ref:vcgi:esiteid" v="252951" />
  </node>
  <node id="-263" visible="true" lat="43.11211395" lon="-72.91705322">
    <tag k="addr:city" v="Stratton" />
    <tag k="addr:housenumber" v="130" />
    <tag k="addr:street" v="North Brookwood Road" />
    <tag k="addr:state" v="VT" />
    <tag k="ref:vcgi:esiteid" v="252952" />
  </node>
  <node id="-264" visible="true" lat="43.11199188" lon="-72.91175842">
    <tag k="addr:city" v="Stratton" />
    <tag k="addr:housenumber" v="60" />
    <tag k="addr:street" v="Snowbridge Road" />
    <tag k="addr:state" v="VT" />
    <tag k="ref:vcgi:esiteid" v="252953" />
  </node>
  <node id="-265" visible="true" lat="43.1120491" lon="-72.89113617">
    <tag k="addr:city" v="Stratton" />
    <tag k="addr:housenumber" v="43" />
    <tag k="addr:street" v="Styles Branch Road" />
    <tag k="addr:state" v="VT" />
    <tag k="ref:vcgi:esiteid" v="252954" />
  </node>
  <node id="-266" visible="true" lat="43.11199188" lon="-72.90393829">
    <tag k="addr:city" v="Stratton" />
    <tag k="addr:housenumber" v="790" />
    <tag k="addr:street" v="Stratton Mountain Access Road" />
    <tag k="addr:state" v="VT" />
    <tag k="ref:vcgi:esiteid" v="252955" />
  </node>
  <node id="-267" visible="true" lat="43.11191177" lon="-72.9033432">
    <tag k="addr:city" v="Stratton" />
    <tag k="addr:housenumber" v="792" />
    <tag k="addr:street" v="Stratton Mountain Access Road" />
    <tag k="addr:state" v="VT" />
    <tag k="ref:vcgi:esiteid" v="252956" />
  </node>
  <node id="-268" visible="true" lat="43.11186981" lon="-72.91344451">
    <tag k="addr:city" v="Stratton" />
    <tag k="addr:housenumber" v="47" />
    <tag k="addr:street" v="Snowbridge Road" />
    <tag k="addr:state" v="VT" />
    <tag k="ref:vcgi:esiteid" v="252957" />
  </node>
  <node id="-269" visible="true" lat="43.11178207" lon="-72.92351531">
    <tag k="addr:city" v="Stratton" />
    <tag k="addr:housenumber" v="136" />
    <tag k="addr:street" v="West Ridge Road" />
    <tag k="addr:state" v="VT" />
    <tag k="ref:vcgi:esiteid" v="252958" />
  </node>
  <node id="-270" visible="true" lat="43.1118164" lon="-72.91215515">
    <tag k="addr:city" v="Stratton" />
    <tag k="addr:housenumber" v="56" />
    <tag k="addr:street" v="Snowbridge Road" />
    <tag k="addr:state" v="VT" />
    <tag k="ref:vcgi:esiteid" v="252959" />
  </node>
  <node id="-271" visible="true" lat="43.11172485" lon="-72.92222595">
    <tag k="addr:city" v="Stratton" />
    <tag k="addr:housenumber" v="143" />
    <tag k="addr:street" v="West Ridge Road" />
    <tag k="addr:state" v="VT" />
    <tag k="ref:vcgi:esiteid" v="252960" />
  </node>
  <node id="-272" visible="true" lat="43.11177825" lon="-72.89287567">
    <tag k="addr:city" v="Stratton" />
    <tag k="addr:housenumber" v="6" />
    <tag k="addr:street" v="High Point Drive" />
    <tag k="addr:state" v="VT" />
    <tag k="ref:vcgi:esiteid" v="252961" />
  </node>
  <node id="-273" visible="true" lat="43.11173248" lon="-72.89399719">
    <tag k="addr:city" v="Stratton" />
    <tag k="addr:housenumber" v="45" />
    <tag k="addr:street" v="High Point Drive" />
    <tag k="addr:state" v="VT" />
    <tag k="ref:vcgi:esiteid" v="252962" />
  </node>
  <node id="-274" visible="true" lat="43.11163711" lon="-72.91254425">
    <tag k="addr:city" v="Stratton" />
    <tag k="addr:housenumber" v="52" />
    <tag k="addr:street" v="Snowbridge Road" />
    <tag k="addr:state" v="VT" />
    <tag k="ref:vcgi:esiteid" v="252963" />
  </node>
  <node id="-275" visible="true" lat="43.11154937" lon="-72.89112091">
    <tag k="addr:city" v="Stratton" />
    <tag k="addr:housenumber" v="45" />
    <tag k="addr:street" v="Styles Branch Road" />
    <tag k="addr:state" v="VT" />
    <tag k="ref:vcgi:esiteid" v="252964" />
  </node>
  <node id="-276" visible="true" lat="43.1115036" lon="-72.90219116">
    <tag k="addr:city" v="Stratton" />
    <tag k="addr:housenumber" v="16" />
    <tag k="addr:street" v="Ober Tal Drive" />
    <tag k="addr:state" v="VT" />
    <tag k="ref:vcgi:esiteid" v="252965" />
  </node>
  <node id="-277" visible="true" lat="43.11138534" lon="-72.91283416">
    <tag k="addr:city" v="Stratton" />
    <tag k="addr:housenumber" v="46" />
    <tag k="addr:street" v="Snowbridge Road" />
    <tag k="addr:state" v="VT" />
    <tag k="ref:vcgi:esiteid" v="252966" />
  </node>
  <node id="-278" visible="true" lat="43.11139679" lon="-72.90175628">
    <tag k="addr:city" v="Stratton" />
    <tag k="addr:housenumber" v="14" />
    <tag k="addr:street" v="Ober Tal Drive" />
    <tag k="addr:state" v="VT" />
    <tag k="ref:vcgi:esiteid" v="252967" />
  </node>
  <node id="-279" visible="true" lat="43.11141204" lon="-72.87831878">
    <tag k="addr:city" v="Stratton" />
    <tag k="addr:housenumber" v="431" />
    <tag k="addr:street" v="Pikes Falls Road" />
    <tag k="addr:state" v="VT" />
    <tag k="ref:vcgi:esiteid" v="252968" />
  </node>
  <node id="-280" visible="true" lat="43.11139586" lon="-72.90269491">
    <tag k="addr:city" v="Stratton" />
    <tag k="addr:housenumber" v="18" />
    <tag k="addr:street" v="Ober Tal Drive" />
    <tag k="addr:state" v="VT" />
    <tag k="ref:vcgi:esiteid" v="252969" />
  </node>
  <node id="-281" visible="true" lat="43.11125564" lon="-72.90136718">
    <tag k="addr:city" v="Stratton" />
    <tag k="addr:housenumber" v="12" />
    <tag k="addr:street" v="Ober Tal Drive" />
    <tag k="addr:state" v="VT" />
    <tag k="ref:vcgi:esiteid" v="252970" />
  </node>
  <node id="-282" visible="true" lat="43.1112442" lon="-72.90093231">
    <tag k="addr:city" v="Stratton" />
    <tag k="addr:housenumber" v="10" />
    <tag k="addr:street" v="Ober Tal Drive" />
    <tag k="addr:state" v="VT" />
    <tag k="ref:vcgi:esiteid" v="252971" />
  </node>
  <node id="-283" visible="true" lat="43.11117172" lon="-72.90039062">
    <tag k="addr:city" v="Stratton" />
    <tag k="addr:housenumber" v="8" />
    <tag k="addr:street" v="Ober Tal Drive" />
    <tag k="addr:state" v="VT" />
    <tag k="ref:vcgi:esiteid" v="252972" />
  </node>
  <node id="-284" visible="true" lat="43.11116409" lon="-72.89089965">
    <tag k="addr:city" v="Stratton" />
    <tag k="addr:housenumber" v="47" />
    <tag k="addr:street" v="Styles Branch Road" />
    <tag k="addr:state" v="VT" />
    <tag k="ref:vcgi:esiteid" v="252973" />
  </node>
  <node id="-285" visible="true" lat="43.1109978" lon="-72.91529353">
    <tag k="addr:city" v="Stratton" />
    <tag k="addr:housenumber" v="25" />
    <tag k="addr:street" v="Snowbridge Road" />
    <tag k="addr:state" v="VT" />
    <tag k="ref:vcgi:esiteid" v="252974" />
  </node>
  <node id="-286" visible="true" lat="43.11108398" lon="-72.90182495">
    <tag k="addr:city" v="Stratton" />
    <tag k="addr:housenumber" v="13" />
    <tag k="addr:street" v="Ober Tal Drive" />
    <tag k="addr:state" v="VT" />
    <tag k="ref:vcgi:esiteid" v="252975" />
  </node>
  <node id="-287" visible="true" lat="43.11081314" lon="-72.8942337">
    <tag k="addr:city" v="Stratton" />
    <tag k="addr:housenumber" v="16" />
    <tag k="addr:street" v="Styles Branch Road" />
    <tag k="addr:state" v="VT" />
    <tag k="ref:vcgi:esiteid" v="252976" />
  </node>
  <node id="-288" visible="true" lat="43.11075815" lon="-72.91411776">
    <tag k="addr:city" v="Stratton" />
    <tag k="addr:housenumber" v="5" />
    <tag k="addr:street" v="Upper Glades" />
    <tag k="addr:state" v="VT" />
    <tag k="ref:vcgi:esiteid" v="252977" />
  </node>
  <node id="-289" visible="true" lat="43.11077117" lon="-72.89259338">
    <tag k="addr:city" v="Stratton" />
    <tag k="addr:housenumber" v="30" />
    <tag k="addr:street" v="Styles Branch Road" />
    <tag k="addr:state" v="VT" />
    <tag k="ref:vcgi:esiteid" v="252978" />
  </node>
  <node id="-290" visible="true" lat="43.11073684" lon="-72.8960495">
    <tag k="addr:city" v="Stratton" />
    <tag k="addr:housenumber" v="14" />
    <tag k="addr:street" v="East Birch Road" />
    <tag k="addr:state" v="VT" />
    <tag k="ref:vcgi:esiteid" v="252979" />
  </node>
  <node id="-291" visible="true" lat="43.11064832" lon="-72.90298157">
    <tag k="addr:city" v="Stratton" />
    <tag k="addr:housenumber" v="76" />
    <tag k="addr:street" v="Shattarack Road" />
    <tag k="addr:state" v="VT" />
    <tag k="ref:vcgi:esiteid" v="252980" />
  </node>
  <node id="-292" visible="true" lat="43.1107327" lon="-72.87779247">
    <tag k="addr:city" v="Stratton" />
    <tag k="addr:housenumber" v="8" />
    <tag k="addr:street" v="North Road" />
    <tag k="addr:state" v="VT" />
    <tag k="ref:vcgi:esiteid" v="252981" />
  </node>
  <node id="-293" visible="true" lat="43.11063003" lon="-72.89329528">
    <tag k="addr:city" v="Stratton" />
    <tag k="addr:housenumber" v="28" />
    <tag k="addr:street" v="Styles Branch Road" />
    <tag k="addr:state" v="VT" />
    <tag k="ref:vcgi:esiteid" v="252982" />
  </node>
  <node id="-294" visible="true" lat="43.11062622" lon="-72.89068603">
    <tag k="addr:city" v="Stratton" />
    <tag k="addr:housenumber" v="49" />
    <tag k="addr:street" v="Styles Branch Road" />
    <tag k="addr:state" v="VT" />
    <tag k="ref:vcgi:esiteid" v="252983" />
  </node>
  <node id="-295" visible="true" lat="43.11054637" lon="-72.91502221">
    <tag k="addr:city" v="Stratton" />
    <tag k="addr:housenumber" v="6" />
    <tag k="addr:street" v="Upper Glades" />
    <tag k="addr:state" v="VT" />
    <tag k="ref:vcgi:esiteid" v="252984" />
  </node>
  <node id="-296" visible="true" lat="43.11043469" lon="-72.9028061">
    <tag k="addr:city" v="Stratton" />
    <tag k="addr:housenumber" v="74" />
    <tag k="addr:street" v="Shattarack Road" />
    <tag k="addr:state" v="VT" />
    <tag k="ref:vcgi:esiteid" v="252985" />
  </node>
  <node id="-297" visible="true" lat="43.11044139" lon="-72.91428647">
    <tag k="addr:city" v="Stratton" />
    <tag k="addr:housenumber" v="9" />
    <tag k="addr:street" v="Upper Glades" />
    <tag k="addr:state" v="VT" />
    <tag k="ref:vcgi:esiteid" v="252986" />
  </node>
  <node id="-298" visible="true" lat="43.11041181" lon="-72.90315705">
    <tag k="addr:city" v="Stratton" />
    <tag k="addr:housenumber" v="78" />
    <tag k="addr:street" v="Shattarack Road" />
    <tag k="addr:state" v="VT" />
    <tag k="ref:vcgi:esiteid" v="252987" />
  </node>
  <node id="-299" visible="true" lat="43.11046218" lon="-72.89966583">
    <tag k="addr:city" v="Stratton" />
    <tag k="addr:housenumber" v="22" />
    <tag k="addr:street" v="Shattarack Road" />
    <tag k="addr:state" v="VT" />
    <tag k="ref:vcgi:esiteid" v="252988" />
  </node>
  <node id="-300" visible="true" lat="43.11053466" lon="-72.87657165">
    <tag k="addr:city" v="Stratton" />
    <tag k="addr:housenumber" v="414" />
    <tag k="addr:street" v="Pikes Falls Road" />
    <tag k="addr:state" v="VT" />
    <tag k="ref:vcgi:esiteid" v="252989" />
  </node>
  <node id="-301" visible="true" lat="43.11045837" lon="-72.89473724">
    <tag k="addr:city" v="Stratton" />
    <tag k="addr:housenumber" v="14" />
    <tag k="addr:street" v="Styles Branch Road" />
    <tag k="addr:state" v="VT" />
    <tag k="ref:vcgi:esiteid" v="252990" />
  </node>
  <node id="-302" visible="true" lat="43.11048742" lon="-72.89146522">
    <tag k="addr:city" v="Stratton" />
    <tag k="addr:housenumber" v="51" />
    <tag k="addr:street" v="Styles Branch Road" />
    <tag k="addr:state" v="VT" />
    <tag k="ref:vcgi:esiteid" v="252991" />
  </node>
  <node id="-303" visible="true" lat="43.1103242" lon="-72.91545181">
    <tag k="addr:city" v="Stratton" />
    <tag k="addr:housenumber" v="12" />
    <tag k="addr:street" v="Upper Glades" />
    <tag k="addr:state" v="VT" />
    <tag k="ref:vcgi:esiteid" v="252992" />
  </node>
  <node id="-304" visible="true" lat="43.11041641" lon="-72.87818908">
    <tag k="addr:city" v="Stratton" />
    <tag k="addr:housenumber" v="11" />
    <tag k="addr:street" v="North Road" />
    <tag k="addr:state" v="VT" />
    <tag k="ref:vcgi:esiteid" v="252993" />
  </node>
  <node id="-305" visible="true" lat="43.11039733" lon="-72.87872314">
    <tag k="addr:city" v="Stratton" />
    <tag k="addr:housenumber" v="17" />
    <tag k="addr:street" v="North Road" />
    <tag k="addr:state" v="VT" />
    <tag k="ref:vcgi:esiteid" v="252994" />
  </node>
  <node id="-306" visible="true" lat="43.11031723" lon="-72.90000915">
    <tag k="addr:city" v="Stratton" />
    <tag k="addr:housenumber" v="24" />
    <tag k="addr:street" v="Shattarack Road" />
    <tag k="addr:state" v="VT" />
    <tag k="ref:vcgi:esiteid" v="252995" />
  </node>
  <node id="-307" visible="true" lat="43.11027145" lon="-72.90208435">
    <tag k="addr:city" v="Stratton" />
    <tag k="addr:housenumber" v="70" />
    <tag k="addr:street" v="Shattarack Road" />
    <tag k="addr:state" v="VT" />
    <tag k="ref:vcgi:esiteid" v="252996" />
  </node>
  <node id="-308" visible="true" lat="43.11022949" lon="-72.89595794">
    <tag k="addr:city" v="Stratton" />
    <tag k="addr:housenumber" v="8" />
    <tag k="addr:street" v="East Birch Road" />
    <tag k="addr:state" v="VT" />
    <tag k="ref:vcgi:esiteid" v="252997" />
  </node>
  <node id="-309" visible="true" lat="43.11020872" lon="-72.91468558">
    <tag k="addr:city" v="Stratton" />
    <tag k="addr:housenumber" v="15" />
    <tag k="addr:street" v="Upper Glades" />
    <tag k="addr:state" v="VT" />
    <tag k="ref:vcgi:esiteid" v="252998" />
  </node>
  <node id="-310" visible="true" lat="43.11008453" lon="-72.89257812">
    <tag k="addr:city" v="Stratton" />
    <tag k="addr:housenumber" v="54" />
    <tag k="addr:street" v="Styles Branch Road" />
    <tag k="addr:state" v="VT" />
    <tag k="ref:vcgi:esiteid" v="252999" />
  </node>
  <node id="-311" visible="true" lat="43.11006927" lon="-72.89323425">
    <tag k="addr:city" v="Stratton" />
    <tag k="addr:housenumber" v="56" />
    <tag k="addr:street" v="Styles Branch Road" />
    <tag k="addr:state" v="VT" />
    <tag k="ref:vcgi:esiteid" v="253000" />
  </node>
  <node id="-312" visible="true" lat="43.11009216" lon="-72.88037872">
    <tag k="addr:city" v="Stratton" />
    <tag k="addr:housenumber" v="5" />
    <tag k="addr:street" v="Dini Lane" />
    <tag k="addr:state" v="VT" />
    <tag k="ref:vcgi:esiteid" v="253001" />
  </node>
  <node id="-313" visible="true" lat="43.11006546" lon="-72.88511657">
    <tag k="addr:city" v="Stratton" />
    <tag k="addr:housenumber" v="92" />
    <tag k="addr:street" v="North Road" />
    <tag k="addr:state" v="VT" />
    <tag k="ref:vcgi:esiteid" v="253002" />
  </node>
  <node id="-314" visible="true" lat="43.1099846" lon="-72.91507471">
    <tag k="addr:city" v="Stratton" />
    <tag k="addr:housenumber" v="17" />
    <tag k="addr:street" v="Upper Glades" />
    <tag k="addr:state" v="VT" />
    <tag k="ref:vcgi:esiteid" v="253003" />
  </node>
  <node id="-315" visible="true" lat="43.10998041" lon="-72.90334905">
    <tag k="addr:city" v="Stratton" />
    <tag k="addr:housenumber" v="79" />
    <tag k="addr:street" v="Shattarack Road" />
    <tag k="addr:state" v="VT" />
    <tag k="ref:vcgi:esiteid" v="253004" />
  </node>
  <node id="-316" visible="true" lat="43.10995752" lon="-72.90287603">
    <tag k="addr:city" v="Stratton" />
    <tag k="addr:housenumber" v="75" />
    <tag k="addr:street" v="Shattarack Road" />
    <tag k="addr:state" v="VT" />
    <tag k="ref:vcgi:esiteid" v="253005" />
  </node>
  <node id="-317" visible="true" lat="43.10996246" lon="-72.89070892">
    <tag k="addr:city" v="Stratton" />
    <tag k="addr:housenumber" v="65" />
    <tag k="addr:street" v="Styles Branch Road" />
    <tag k="addr:state" v="VT" />
    <tag k="ref:vcgi:esiteid" v="253006" />
  </node>
  <node id="-318" visible="true" lat="43.1099205" lon="-72.90123748">
    <tag k="addr:city" v="Stratton" />
    <tag k="addr:housenumber" v="56" />
    <tag k="addr:street" v="Shattarack Road" />
    <tag k="addr:state" v="VT" />
    <tag k="ref:vcgi:esiteid" v="253007" />
  </node>
  <node id="-319" visible="true" lat="43.10992431" lon="-72.899971">
    <tag k="addr:city" v="Stratton" />
    <tag k="addr:housenumber" v="32" />
    <tag k="addr:street" v="Shattarack Road" />
    <tag k="addr:state" v="VT" />
    <tag k="ref:vcgi:esiteid" v="253008" />
  </node>
  <node id="-320" visible="true" lat="43.10984802" lon="-72.90031433">
    <tag k="addr:city" v="Stratton" />
    <tag k="addr:housenumber" v="38" />
    <tag k="addr:street" v="Shattarack Road" />
    <tag k="addr:state" v="VT" />
    <tag k="ref:vcgi:esiteid" v="253009" />
  </node>
  <node id="-321" visible="true" lat="43.10976791" lon="-72.90151977">
    <tag k="addr:city" v="Stratton" />
    <tag k="addr:housenumber" v="58" />
    <tag k="addr:street" v="Shattarack Road" />
    <tag k="addr:state" v="VT" />
    <tag k="ref:vcgi:esiteid" v="253010" />
  </node>
  <node id="-322" visible="true" lat="43.10976409" lon="-72.89715576">
    <tag k="addr:city" v="Stratton" />
    <tag k="addr:housenumber" v="858" />
    <tag k="addr:street" v="Stratton Mountain Access Road" />
    <tag k="addr:state" v="VT" />
    <tag k="ref:vcgi:esiteid" v="253011" />
  </node>
  <node id="-323" visible="true" lat="43.10974389" lon="-72.90313543">
    <tag k="addr:city" v="Stratton" />
    <tag k="addr:housenumber" v="77" />
    <tag k="addr:street" v="Shattarack Road" />
    <tag k="addr:state" v="VT" />
    <tag k="ref:vcgi:esiteid" v="253012" />
  </node>
  <node id="-324" visible="true" lat="43.10969179" lon="-72.91597263">
    <tag k="addr:city" v="Stratton" />
    <tag k="addr:housenumber" v="22" />
    <tag k="addr:street" v="Upper Glades" />
    <tag k="addr:state" v="VT" />
    <tag k="ref:vcgi:esiteid" v="253013" />
  </node>
  <node id="-325" visible="true" lat="43.1096878" lon="-72.89860534">
    <tag k="addr:city" v="Stratton" />
    <tag k="addr:housenumber" v="23" />
    <tag k="addr:street" v="Shattarack Road" />
    <tag k="addr:state" v="VT" />
    <tag k="ref:vcgi:esiteid" v="253014" />
  </node>
  <node id="-326" visible="true" lat="43.1096611" lon="-72.89996337">
    <tag k="addr:city" v="Stratton" />
    <tag k="addr:housenumber" v="36" />
    <tag k="addr:street" v="Shattarack Road" />
    <tag k="addr:state" v="VT" />
    <tag k="ref:vcgi:esiteid" v="253015" />
  </node>
  <node id="-327" visible="true" lat="43.10954666" lon="-72.90074157">
    <tag k="addr:city" v="Stratton" />
    <tag k="addr:housenumber" v="54" />
    <tag k="addr:street" v="Shattarack Road" />
    <tag k="addr:state" v="VT" />
    <tag k="ref:vcgi:esiteid" v="253016" />
  </node>
  <node id="-328" visible="true" lat="43.10948181" lon="-72.8921585">
    <tag k="addr:city" v="Stratton" />
    <tag k="addr:housenumber" v="66" />
    <tag k="addr:street" v="Styles Branch Road" />
    <tag k="addr:state" v="VT" />
    <tag k="ref:vcgi:esiteid" v="253017" />
  </node>
  <node id="-329" visible="true" lat="43.10936355" lon="-72.89873504">
    <tag k="addr:city" v="Stratton" />
    <tag k="addr:housenumber" v="25" />
    <tag k="addr:street" v="Shattarack Road" />
    <tag k="addr:state" v="VT" />
    <tag k="ref:vcgi:esiteid" v="253018" />
  </node>
  <node id="-330" visible="true" lat="43.10935592" lon="-72.8911972">
    <tag k="addr:city" v="Stratton" />
    <tag k="addr:housenumber" v="67" />
    <tag k="addr:street" v="Styles Branch Road" />
    <tag k="addr:state" v="VT" />
    <tag k="ref:vcgi:esiteid" v="253019" />
  </node>
  <node id="-331" visible="true" lat="43.109272" lon="-72.90095519">
    <tag k="addr:city" v="Stratton" />
    <tag k="addr:housenumber" v="50" />
    <tag k="addr:street" v="Shattarack Road" />
    <tag k="addr:state" v="VT" />
    <tag k="ref:vcgi:esiteid" v="253020" />
  </node>
  <node id="-332" visible="true" lat="43.10925674" lon="-72.90058136">
    <tag k="addr:city" v="Stratton" />
    <tag k="addr:housenumber" v="42" />
    <tag k="addr:street" v="Shattarack Road" />
    <tag k="addr:state" v="VT" />
    <tag k="ref:vcgi:esiteid" v="253021" />
  </node>
  <node id="-333" visible="true" lat="43.10875701" lon="-72.88096618">
    <tag k="addr:city" v="Stratton" />
    <tag k="addr:housenumber" v="19" />
    <tag k="addr:street" v="Dini Lane" />
    <tag k="addr:state" v="VT" />
    <tag k="ref:vcgi:esiteid" v="253022" />
  </node>
  <node id="-334" visible="true" lat="43.10873643" lon="-72.90132004">
    <tag k="addr:city" v="Stratton" />
    <tag k="addr:housenumber" v="7" />
    <tag k="addr:street" v="Tamarack Road" />
    <tag k="addr:state" v="VT" />
    <tag k="ref:vcgi:esiteid" v="253023" />
  </node>
  <node id="-335" visible="true" lat="43.1084958" lon="-72.90150337">
    <tag k="addr:city" v="Stratton" />
    <tag k="addr:housenumber" v="11" />
    <tag k="addr:street" v="Tamarack Road" />
    <tag k="addr:state" v="VT" />
    <tag k="ref:vcgi:esiteid" v="253024" />
  </node>
  <node id="-336" visible="true" lat="43.10839483" lon="-72.87697371">
    <tag k="addr:city" v="Stratton" />
    <tag k="addr:housenumber" v="143" />
    <tag k="addr:street" v="Brazers Way" />
    <tag k="addr:state" v="VT" />
    <tag k="ref:vcgi:esiteid" v="253025" />
  </node>
  <node id="-337" visible="true" lat="43.10825397" lon="-72.90245813">
    <tag k="addr:city" v="Stratton" />
    <tag k="addr:housenumber" v="19" />
    <tag k="addr:street" v="Tamarack Road" />
    <tag k="addr:state" v="VT" />
    <tag k="ref:vcgi:esiteid" v="253026" />
  </node>
  <node id="-338" visible="true" lat="43.10823635" lon="-72.90201489">
    <tag k="addr:city" v="Stratton" />
    <tag k="addr:housenumber" v="15" />
    <tag k="addr:street" v="Tamarack Road" />
    <tag k="addr:state" v="VT" />
    <tag k="ref:vcgi:esiteid" v="253027" />
  </node>
  <node id="-339" visible="true" lat="43.106781" lon="-72.87454223">
    <tag k="addr:city" v="Stratton" />
    <tag k="addr:housenumber" v="357" />
    <tag k="addr:street" v="Pikes Falls Road" />
    <tag k="addr:state" v="VT" />
    <tag k="ref:vcgi:esiteid" v="253028" />
  </node>
  <node id="-340" visible="true" lat="43.10598373" lon="-72.88902282">
    <tag k="addr:city" v="Stratton" />
    <tag k="addr:housenumber" v="5" />
    <tag k="addr:street" v="Brazers Way" />
    <tag k="addr:state" v="VT" />
    <tag k="ref:vcgi:esiteid" v="253029" />
  </node>
  <node id="-341" visible="true" lat="43.10533956" lon="-72.89109849">
    <tag k="addr:city" v="Stratton" />
    <tag k="addr:housenumber" v="928" />
    <tag k="addr:street" v="Garry West Way" />
    <tag k="addr:state" v="VT" />
    <tag k="ref:vcgi:esiteid" v="253030" />
  </node>
  <node id="-342" visible="true" lat="43.10484911" lon="-72.87529318">
    <tag k="addr:city" v="Stratton" />
    <tag k="addr:housenumber" v="39" />
    <tag k="addr:street" v="Acer Road" />
    <tag k="addr:state" v="VT" />
    <tag k="ref:vcgi:esiteid" v="253031" />
  </node>
  <node id="-343" visible="true" lat="43.10402802" lon="-72.87223038">
    <tag k="addr:city" v="Stratton" />
    <tag k="addr:housenumber" v="316" />
    <tag k="addr:street" v="Pikes Falls Road" />
    <tag k="addr:state" v="VT" />
    <tag k="ref:vcgi:esiteid" v="253032" />
  </node>
  <node id="-344" visible="true" lat="43.10402198" lon="-72.87386166">
    <tag k="addr:city" v="Stratton" />
    <tag k="addr:housenumber" v="20" />
    <tag k="addr:street" v="County Road" />
    <tag k="addr:state" v="VT" />
    <tag k="ref:vcgi:esiteid" v="253033" />
  </node>
  <node id="-345" visible="true" lat="43.10245513" lon="-72.87149047">
    <tag k="addr:city" v="Stratton" />
    <tag k="addr:housenumber" v="291" />
    <tag k="addr:street" v="Pikes Falls Road" />
    <tag k="addr:state" v="VT" />
    <tag k="ref:vcgi:esiteid" v="253034" />
  </node>
  <node id="-346" visible="true" lat="43.10229873" lon="-72.87406921">
    <tag k="addr:city" v="Stratton" />
    <tag k="addr:housenumber" v="82" />
    <tag k="addr:street" v="Acer Road" />
    <tag k="addr:state" v="VT" />
    <tag k="ref:vcgi:esiteid" v="253035" />
  </node>
  <node id="-347" visible="true" lat="43.10223226" lon="-72.87287451">
    <tag k="addr:city" v="Stratton" />
    <tag k="addr:housenumber" v="46" />
    <tag k="addr:street" v="County Road" />
    <tag k="addr:state" v="VT" />
    <tag k="ref:vcgi:esiteid" v="253036" />
  </node>
  <node id="-348" visible="true" lat="43.10099411" lon="-72.87252807">
    <tag k="addr:city" v="Stratton" />
    <tag k="addr:housenumber" v="66" />
    <tag k="addr:street" v="County Road" />
    <tag k="addr:state" v="VT" />
    <tag k="ref:vcgi:esiteid" v="253037" />
  </node>
  <node id="-349" visible="true" lat="43.0980343" lon="-72.88713737">
    <tag k="addr:city" v="Stratton" />
    <tag k="addr:housenumber" v="41" />
    <tag k="addr:street" v="Sun Bowl Road" />
    <tag k="addr:state" v="VT" />
    <tag k="ref:vcgi:esiteid" v="253038" />
  </node>
  <node id="-350" visible="true" lat="43.09762573" lon="-72.89003753">
    <tag k="addr:city" v="Stratton" />
    <tag k="addr:housenumber" v="60" />
    <tag k="addr:street" v="Sun Bowl Road" />
    <tag k="addr:state" v="VT" />
    <tag k="ref:vcgi:esiteid" v="253039" />
  </node>
  <node id="-351" visible="true" lat="43.09489378" lon="-72.8752633">
    <tag k="addr:city" v="Stratton" />
    <tag k="addr:housenumber" v="167" />
    <tag k="addr:street" v="County Road" />
    <tag k="addr:state" v="VT" />
    <tag k="ref:vcgi:esiteid" v="253040" />
  </node>
  <node id="-352" visible="true" lat="43.08139317" lon="-72.87180757">
    <tag k="addr:city" v="Stratton" />
    <tag k="addr:housenumber" v="31" />
    <tag k="addr:street" v="Pleasant Valley Road" />
    <tag k="addr:state" v="VT" />
    <tag k="ref:vcgi:esiteid" v="253041" />
  </node>
  <node id="-353" visible="true" lat="43.08010101" lon="-72.8714447">
    <tag k="addr:city" v="Stratton" />
    <tag k="addr:housenumber" v="16" />
    <tag k="addr:street" v="Pleasant Valley Road" />
    <tag k="addr:state" v="VT" />
    <tag k="ref:vcgi:esiteid" v="253042" />
  </node>
  <node id="-354" visible="true" lat="43.07614135" lon="-72.87680053">
    <tag k="addr:city" v="Stratton" />
    <tag k="addr:housenumber" v="507" />
    <tag k="addr:street" v="Mountain Road" />
    <tag k="addr:state" v="VT" />
    <tag k="ref:vcgi:esiteid" v="253044" />
  </node>
  <node id="-355" visible="true" lat="43.07197208" lon="-72.87207672">
    <tag k="addr:city" v="Stratton" />
    <tag k="addr:housenumber" v="124" />
    <tag k="addr:street" v="Forrester Road" />
    <tag k="addr:state" v="VT" />
    <tag k="ref:vcgi:esiteid" v="253045" />
  </node>
  <node id="-356" visible="true" lat="43.06620954" lon="-72.88988859">
    <tag k="addr:city" v="Stratton" />
    <tag k="addr:housenumber" v="104" />
    <tag k="addr:street" v="Bear Creek Road" />
    <tag k="addr:state" v="VT" />
    <tag k="ref:vcgi:esiteid" v="253046" />
  </node>
  <node id="-357" visible="true" lat="43.05958938" lon="-72.95974731">
    <tag k="addr:city" v="Stratton" />
    <tag k="addr:housenumber" v="1280" />
    <tag k="addr:street" v="Stratton Arlington Road" />
    <tag k="addr:state" v="VT" />
    <tag k="ref:vcgi:esiteid" v="253048" />
  </node>
  <node id="-358" visible="true" lat="43.05971592" lon="-72.90149727">
    <tag k="addr:city" v="Stratton" />
    <tag k="addr:housenumber" v="54" />
    <tag k="addr:street" v="Shepardson Road" />
    <tag k="addr:state" v="VT" />
    <tag k="ref:vcgi:esiteid" v="253049" />
  </node>
  <node id="-359" visible="true" lat="43.05950142" lon="-72.90243411">
    <tag k="addr:city" v="Stratton" />
    <tag k="addr:housenumber" v="55" />
    <tag k="addr:street" v="Shepardson Road" />
    <tag k="addr:state" v="VT" />
    <tag k="ref:vcgi:esiteid" v="253050" />
  </node>
  <node id="-360" visible="true" lat="43.05916976" lon="-72.95651245">
    <tag k="addr:city" v="Stratton" />
    <tag k="addr:housenumber" v="1246" />
    <tag k="addr:street" v="Stratton Arlington Road" />
    <tag k="addr:state" v="VT" />
    <tag k="ref:vcgi:esiteid" v="253051" />
  </node>
  <node id="-361" visible="true" lat="43.05881293" lon="-72.9014839">
    <tag k="addr:city" v="Stratton" />
    <tag k="addr:housenumber" v="43" />
    <tag k="addr:street" v="Shepardson Road" />
    <tag k="addr:state" v="VT" />
    <tag k="ref:vcgi:esiteid" v="253052" />
  </node>
  <node id="-362" visible="true" lat="43.05834579" lon="-72.90095519">
    <tag k="addr:city" v="Stratton" />
    <tag k="addr:housenumber" v="37" />
    <tag k="addr:street" v="Shepardson Road" />
    <tag k="addr:state" v="VT" />
    <tag k="ref:vcgi:esiteid" v="253053" />
  </node>
  <node id="-363" visible="true" lat="43.05731064" lon="-72.93630016">
    <tag k="addr:city" v="Stratton" />
    <tag k="addr:housenumber" v="1004" />
    <tag k="addr:street" v="Stratton Arlington Road" />
    <tag k="addr:state" v="VT" />
    <tag k="ref:vcgi:esiteid" v="253054" />
  </node>
  <node id="-364" visible="true" lat="43.05780792" lon="-72.90244293">
    <tag k="addr:city" v="Stratton" />
    <tag k="addr:housenumber" v="21" />
    <tag k="addr:street" v="Shepardson Road" />
    <tag k="addr:state" v="VT" />
    <tag k="ref:vcgi:esiteid" v="253055" />
  </node>
  <node id="-365" visible="true" lat="43.05734634" lon="-72.89890289">
    <tag k="addr:city" v="Stratton" />
    <tag k="addr:housenumber" v="14" />
    <tag k="addr:street" v="Shepardson Road" />
    <tag k="addr:state" v="VT" />
    <tag k="ref:vcgi:esiteid" v="253056" />
  </node>
  <node id="-366" visible="true" lat="43.05723571" lon="-72.8993988">
    <tag k="addr:city" v="Stratton" />
    <tag k="addr:housenumber" v="17" />
    <tag k="addr:street" v="Shepardson Road" />
    <tag k="addr:state" v="VT" />
    <tag k="ref:vcgi:esiteid" v="253057" />
  </node>
  <node id="-367" visible="true" lat="43.05706024" lon="-72.90029144">
    <tag k="addr:city" v="Stratton" />
    <tag k="addr:housenumber" v="19" />
    <tag k="addr:street" v="Shepardson Road" />
    <tag k="addr:state" v="VT" />
    <tag k="ref:vcgi:esiteid" v="253058" />
  </node>
  <node id="-368" visible="true" lat="43.0567398" lon="-72.89850616">
    <tag k="addr:city" v="Stratton" />
    <tag k="addr:housenumber" v="247" />
    <tag k="addr:street" v="West Jamaica Road" />
    <tag k="addr:state" v="VT" />
    <tag k="ref:vcgi:esiteid" v="253059" />
  </node>
  <node id="-369" visible="true" lat="43.05662155" lon="-72.89652252">
    <tag k="addr:city" v="Stratton" />
    <tag k="addr:housenumber" v="270" />
    <tag k="addr:street" v="West Jamaica Road" />
    <tag k="addr:state" v="VT" />
    <tag k="ref:vcgi:esiteid" v="253060" />
  </node>
  <node id="-370" visible="true" lat="43.05644009" lon="-72.89798345">
    <tag k="addr:city" v="Stratton" />
    <tag k="addr:housenumber" v="258" />
    <tag k="addr:street" v="West Jamaica Road" />
    <tag k="addr:state" v="VT" />
    <tag k="ref:vcgi:esiteid" v="253061" />
  </node>
  <node id="-371" visible="true" lat="43.05624008" lon="-72.89957428">
    <tag k="addr:city" v="Stratton" />
    <tag k="addr:housenumber" v="227" />
    <tag k="addr:street" v="West Jamaica Road" />
    <tag k="addr:state" v="VT" />
    <tag k="ref:vcgi:esiteid" v="253063" />
  </node>
  <node id="-372" visible="true" lat="43.0559082" lon="-72.93389892">
    <tag k="addr:city" v="Stratton" />
    <tag k="addr:housenumber" v="996" />
    <tag k="addr:street" v="Stratton Arlington Road" />
    <tag k="addr:state" v="VT" />
    <tag k="ref:vcgi:esiteid" v="253064" />
  </node>
  <node id="-373" visible="true" lat="43.05591964" lon="-72.89524841">
    <tag k="addr:city" v="Stratton" />
    <tag k="addr:housenumber" v="286" />
    <tag k="addr:street" v="West Jamaica Road" />
    <tag k="addr:state" v="VT" />
    <tag k="ref:vcgi:esiteid" v="253065" />
  </node>
  <node id="-374" visible="true" lat="43.0558815" lon="-72.89466857">
    <tag k="addr:city" v="Stratton" />
    <tag k="addr:housenumber" v="289" />
    <tag k="addr:street" v="West Jamaica Road" />
    <tag k="addr:state" v="VT" />
    <tag k="ref:vcgi:esiteid" v="253066" />
  </node>
  <node id="-375" visible="true" lat="43.05559286" lon="-72.89409982">
    <tag k="addr:city" v="Stratton" />
    <tag k="addr:housenumber" v="295" />
    <tag k="addr:street" v="West Jamaica Road" />
    <tag k="addr:state" v="VT" />
    <tag k="ref:vcgi:esiteid" v="253067" />
  </node>
  <node id="-376" visible="true" lat="43.05549621" lon="-72.8777008">
    <tag k="addr:city" v="Stratton" />
    <tag k="addr:housenumber" v="500" />
    <tag k="addr:street" v="West Jamaica Road" />
    <tag k="addr:state" v="VT" />
    <tag k="ref:vcgi:esiteid" v="253068" />
  </node>
  <node id="-377" visible="true" lat="43.05466461" lon="-72.89438629">
    <tag k="addr:city" v="Stratton" />
    <tag k="addr:housenumber" v="304" />
    <tag k="addr:street" v="West Jamaica Road" />
    <tag k="addr:state" v="VT" />
    <tag k="ref:vcgi:esiteid" v="253069" />
  </node>
  <node id="-378" visible="true" lat="43.05440902" lon="-72.8926773">
    <tag k="addr:city" v="Stratton" />
    <tag k="addr:housenumber" v="315" />
    <tag k="addr:street" v="West Jamaica Road" />
    <tag k="addr:state" v="VT" />
    <tag k="ref:vcgi:esiteid" v="253070" />
  </node>
  <node id="-379" visible="true" lat="43.05426788" lon="-72.89344024">
    <tag k="addr:city" v="Stratton" />
    <tag k="addr:housenumber" v="310" />
    <tag k="addr:street" v="West Jamaica Road" />
    <tag k="addr:state" v="VT" />
    <tag k="ref:vcgi:esiteid" v="253071" />
  </node>
  <node id="-380" visible="true" lat="43.05377207" lon="-72.89321616">
    <tag k="addr:city" v="Stratton" />
    <tag k="addr:housenumber" v="312" />
    <tag k="addr:street" v="West Jamaica Road" />
    <tag k="addr:state" v="VT" />
    <tag k="ref:vcgi:esiteid" v="253072" />
  </node>
  <node id="-381" visible="true" lat="43.05335164" lon="-72.89345984">
    <tag k="addr:city" v="Stratton" />
    <tag k="addr:housenumber" v="308" />
    <tag k="addr:street" v="West Jamaica Road" />
    <tag k="addr:state" v="VT" />
    <tag k="ref:vcgi:esiteid" v="253074" />
  </node>
  <node id="-382" visible="true" lat="43.05304336" lon="-72.90244293">
    <tag k="addr:city" v="Stratton" />
    <tag k="addr:housenumber" v="183" />
    <tag k="addr:street" v="West Jamaica Road" />
    <tag k="addr:state" v="VT" />
    <tag k="ref:vcgi:esiteid" v="253075" />
  </node>
  <node id="-383" visible="true" lat="43.05303955" lon="-72.88107299">
    <tag k="addr:city" v="Stratton" />
    <tag k="addr:housenumber" v="446" />
    <tag k="addr:street" v="West Jamaica Road" />
    <tag k="addr:state" v="VT" />
    <tag k="ref:vcgi:esiteid" v="253076" />
  </node>
  <node id="-384" visible="true" lat="43.05277252" lon="-72.88063812">
    <tag k="addr:city" v="Stratton" />
    <tag k="addr:housenumber" v="448" />
    <tag k="addr:street" v="West Jamaica Road" />
    <tag k="addr:state" v="VT" />
    <tag k="ref:vcgi:esiteid" v="253077" />
  </node>
  <node id="-385" visible="true" lat="43.05211639" lon="-72.90270996">
    <tag k="addr:city" v="Stratton" />
    <tag k="addr:housenumber" v="173" />
    <tag k="addr:street" v="West Jamaica Road" />
    <tag k="addr:state" v="VT" />
    <tag k="ref:vcgi:esiteid" v="253078" />
  </node>
  <node id="-386" visible="true" lat="43.05184036" lon="-72.89029922">
    <tag k="addr:city" v="Stratton" />
    <tag k="addr:housenumber" v="20" />
    <tag k="addr:street" v="Canedy Road" />
    <tag k="addr:state" v="VT" />
    <tag k="ref:vcgi:esiteid" v="253079" />
  </node>
  <node id="-387" visible="true" lat="43.05228481" lon="-72.90579849">
    <tag k="addr:city" v="Stratton" />
    <tag k="addr:housenumber" v="40" />
    <tag k="addr:street" v="Old Town Road" />
    <tag k="addr:state" v="VT" />
    <tag k="ref:vcgi:esiteid" v="253080" />
  </node>
  <node id="-388" visible="true" lat="43.05097757" lon="-72.88912488">
    <tag k="addr:city" v="Stratton" />
    <tag k="addr:housenumber" v="28" />
    <tag k="addr:street" v="Canedy Road" />
    <tag k="addr:state" v="VT" />
    <tag k="ref:vcgi:esiteid" v="253081" />
  </node>
  <node id="-389" visible="true" lat="43.05018169" lon="-72.89856731">
    <tag k="addr:city" v="Stratton" />
    <tag k="addr:housenumber" v="36" />
    <tag k="addr:street" v="Ball Farm Road" />
    <tag k="addr:state" v="VT" />
    <tag k="ref:vcgi:esiteid" v="253082" />
  </node>
  <node id="-390" visible="true" lat="43.04985046" lon="-72.88793945">
    <tag k="addr:city" v="Stratton" />
    <tag k="addr:housenumber" v="56" />
    <tag k="addr:street" v="Canedy Road" />
    <tag k="addr:state" v="VT" />
    <tag k="ref:vcgi:esiteid" v="253083" />
  </node>
  <node id="-391" visible="true" lat="43.04938125" lon="-72.92298126">
    <tag k="addr:city" v="Stratton" />
    <tag k="addr:housenumber" v="848" />
    <tag k="addr:street" v="Stratton Arlington Road" />
    <tag k="addr:state" v="VT" />
    <tag k="ref:vcgi:esiteid" v="253084" />
  </node>
  <node id="-392" visible="true" lat="43.05080131" lon="-72.87574924">
    <tag k="addr:city" v="Stratton" />
    <tag k="addr:housenumber" v="195" />
    <tag k="addr:street" v="Canedy Road" />
    <tag k="addr:state" v="VT" />
    <tag k="ref:vcgi:esiteid" v="253085" />
  </node>
  <node id="-393" visible="true" lat="43.0489331" lon="-72.90087973">
    <tag k="addr:city" v="Stratton" />
    <tag k="addr:housenumber" v="130" />
    <tag k="addr:street" v="West Jamaica Road" />
    <tag k="addr:state" v="VT" />
    <tag k="ref:vcgi:esiteid" v="253086" />
  </node>
  <node id="-394" visible="true" lat="43.04861348" lon="-72.92105808">
    <tag k="addr:city" v="Stratton" />
    <tag k="addr:housenumber" v="824" />
    <tag k="addr:street" v="Stratton Arlington Road" />
    <tag k="addr:state" v="VT" />
    <tag k="ref:vcgi:esiteid" v="253087" />
  </node>
  <node id="-395" visible="true" lat="43.0484227" lon="-72.88613928">
    <tag k="addr:city" v="Stratton" />
    <tag k="addr:housenumber" v="82" />
    <tag k="addr:street" v="Canedy Road" />
    <tag k="addr:state" v="VT" />
    <tag k="ref:vcgi:esiteid" v="253088" />
  </node>
  <node id="-396" visible="true" lat="43.04817576" lon="-72.88226116">
    <tag k="addr:city" v="Stratton" />
    <tag k="addr:housenumber" v="107" />
    <tag k="addr:street" v="Canedy Road" />
    <tag k="addr:state" v="VT" />
    <tag k="ref:vcgi:esiteid" v="253089" />
  </node>
  <node id="-397" visible="true" lat="43.04785156" lon="-72.91944885">
    <tag k="addr:city" v="Stratton" />
    <tag k="addr:housenumber" v="804" />
    <tag k="addr:street" v="Stratton Arlington Road" />
    <tag k="addr:state" v="VT" />
    <tag k="ref:vcgi:esiteid" v="253090" />
  </node>
  <node id="-398" visible="true" lat="43.04742431" lon="-72.91883087">
    <tag k="addr:city" v="Stratton" />
    <tag k="addr:housenumber" v="800" />
    <tag k="addr:street" v="Stratton Arlington Road" />
    <tag k="addr:state" v="VT" />
    <tag k="ref:vcgi:esiteid" v="253091" />
  </node>
  <node id="-399" visible="true" lat="43.04716873" lon="-72.91665649">
    <tag k="addr:city" v="Stratton" />
    <tag k="addr:housenumber" v="12" />
    <tag k="addr:street" v="Plimpton Road" />
    <tag k="addr:state" v="VT" />
    <tag k="ref:vcgi:esiteid" v="253092" />
  </node>
  <node id="-400" visible="true" lat="43.04708862" lon="-72.91768646">
    <tag k="addr:city" v="Stratton" />
    <tag k="addr:housenumber" v="788" />
    <tag k="addr:street" v="Stratton Arlington Road" />
    <tag k="addr:state" v="VT" />
    <tag k="ref:vcgi:esiteid" v="253093" />
  </node>
  <node id="-401" visible="true" lat="43.04688262" lon="-72.91721344">
    <tag k="addr:city" v="Stratton" />
    <tag k="addr:housenumber" v="5" />
    <tag k="addr:street" v="Plimpton Road" />
    <tag k="addr:state" v="VT" />
    <tag k="ref:vcgi:esiteid" v="253094" />
  </node>
  <node id="-402" visible="true" lat="43.04622846" lon="-72.88366368">
    <tag k="addr:city" v="Stratton" />
    <tag k="addr:housenumber" v="120" />
    <tag k="addr:street" v="Canedy Road" />
    <tag k="addr:state" v="VT" />
    <tag k="ref:vcgi:esiteid" v="253095" />
  </node>
  <node id="-403" visible="true" lat="43.04634857" lon="-72.91627502">
    <tag k="addr:city" v="Stratton" />
    <tag k="addr:housenumber" v="774" />
    <tag k="addr:street" v="Stratton Arlington Road" />
    <tag k="addr:state" v="VT" />
    <tag k="ref:vcgi:esiteid" v="253096" />
  </node>
  <node id="-404" visible="true" lat="43.04629898" lon="-72.91724395">
    <tag k="addr:city" v="Stratton" />
    <tag k="addr:housenumber" v="777" />
    <tag k="addr:street" v="Stratton Arlington Road" />
    <tag k="addr:state" v="VT" />
    <tag k="ref:vcgi:esiteid" v="253097" />
  </node>
  <node id="-405" visible="true" lat="43.04581069" lon="-72.91665649">
    <tag k="addr:city" v="Stratton" />
    <tag k="addr:housenumber" v="765" />
    <tag k="addr:street" v="Stratton Arlington Road" />
    <tag k="addr:state" v="VT" />
    <tag k="ref:vcgi:esiteid" v="253098" />
  </node>
  <node id="-406" visible="true" lat="43.04563522" lon="-72.9534912">
    <tag k="addr:city" v="Stratton" />
    <tag k="addr:housenumber" v="207" />
    <tag k="addr:street" v="Grout Pond Road" />
    <tag k="addr:state" v="VT" />
    <tag k="ref:vcgi:esiteid" v="253099" />
  </node>
  <node id="-407" visible="true" lat="43.04568862" lon="-72.91519165">
    <tag k="addr:city" v="Stratton" />
    <tag k="addr:housenumber" v="758" />
    <tag k="addr:street" v="Stratton Arlington Road" />
    <tag k="addr:state" v="VT" />
    <tag k="ref:vcgi:esiteid" v="253100" />
  </node>
  <node id="-408" visible="true" lat="43.04558563" lon="-72.91609954">
    <tag k="addr:city" v="Stratton" />
    <tag k="addr:housenumber" v="761" />
    <tag k="addr:street" v="Stratton Arlington Road" />
    <tag k="addr:state" v="VT" />
    <tag k="ref:vcgi:esiteid" v="253101" />
  </node>
  <node id="-409" visible="true" lat="43.04500961" lon="-72.91509246">
    <tag k="addr:city" v="Stratton" />
    <tag k="addr:housenumber" v="749" />
    <tag k="addr:street" v="Stratton Arlington Road" />
    <tag k="addr:state" v="VT" />
    <tag k="ref:vcgi:esiteid" v="253102" />
  </node>
  <node id="-410" visible="true" lat="43.04495842" lon="-72.91273306">
    <tag k="addr:city" v="Stratton" />
    <tag k="addr:housenumber" v="730" />
    <tag k="addr:street" v="Stratton Arlington Road" />
    <tag k="addr:state" v="VT" />
    <tag k="ref:vcgi:esiteid" v="253103" />
  </node>
  <node id="-411" visible="true" lat="43.04480108" lon="-72.90290924">
    <tag k="addr:city" v="Stratton" />
    <tag k="addr:housenumber" v="62" />
    <tag k="addr:street" v="West Jamaica Road" />
    <tag k="addr:state" v="VT" />
    <tag k="ref:vcgi:esiteid" v="253104" />
  </node>
  <node id="-412" visible="true" lat="43.04475587" lon="-72.91360747">
    <tag k="addr:city" v="Stratton" />
    <tag k="addr:housenumber" v="733" />
    <tag k="addr:street" v="Stratton Arlington Road" />
    <tag k="addr:state" v="VT" />
    <tag k="ref:vcgi:esiteid" v="253105" />
  </node>
  <node id="-413" visible="true" lat="43.0442146" lon="-72.87856564">
    <tag k="addr:city" v="Stratton" />
    <tag k="addr:housenumber" v="183" />
    <tag k="addr:street" v="Canedy Road" />
    <tag k="addr:state" v="VT" />
    <tag k="ref:vcgi:esiteid" v="253107" />
  </node>
  <node id="-414" visible="true" lat="43.0438712" lon="-72.91196589">
    <tag k="addr:city" v="Stratton" />
    <tag k="addr:housenumber" v="713" />
    <tag k="addr:street" v="Stratton Arlington Road" />
    <tag k="addr:state" v="VT" />
    <tag k="ref:vcgi:esiteid" v="253108" />
  </node>
  <node id="-415" visible="true" lat="43.04363772" lon="-72.91057639">
    <tag k="addr:city" v="Stratton" />
    <tag k="addr:housenumber" v="702" />
    <tag k="addr:street" v="Stratton Arlington Road" />
    <tag k="addr:state" v="VT" />
    <tag k="ref:vcgi:esiteid" v="253109" />
  </node>
  <node id="-416" visible="true" lat="43.04319" lon="-72.90897369">
    <tag k="addr:city" v="Stratton" />
    <tag k="addr:housenumber" v="9" />
    <tag k="addr:street" v="West Jamaica Road" />
    <tag k="addr:state" v="VT" />
    <tag k="ref:vcgi:esiteid" v="253110" />
  </node>
  <node id="-417" visible="true" lat="43.042984" lon="-72.9094696">
    <tag k="addr:city" v="Stratton" />
    <tag k="addr:housenumber" v="688" />
    <tag k="addr:street" v="Stratton Arlington Road" />
    <tag k="addr:state" v="VT" />
    <tag k="ref:vcgi:esiteid" v="253111" />
  </node>
  <node id="-418" visible="true" lat="43.04272079" lon="-72.90917968">
    <tag k="addr:city" v="Stratton" />
    <tag k="addr:housenumber" v="684" />
    <tag k="addr:street" v="Stratton Arlington Road" />
    <tag k="addr:state" v="VT" />
    <tag k="ref:vcgi:esiteid" v="253112" />
  </node>
  <node id="-419" visible="true" lat="43.04261398" lon="-72.90983581">
    <tag k="addr:city" v="Stratton" />
    <tag k="addr:housenumber" v="685" />
    <tag k="addr:street" v="Stratton Arlington Road" />
    <tag k="addr:state" v="VT" />
    <tag k="ref:vcgi:esiteid" v="253113" />
  </node>
  <node id="-420" visible="true" lat="43.04249522" lon="-72.90891548">
    <tag k="addr:city" v="Stratton" />
    <tag k="addr:housenumber" v="680" />
    <tag k="addr:street" v="Stratton Arlington Road" />
    <tag k="addr:state" v="VT" />
    <tag k="ref:vcgi:esiteid" v="253114" />
  </node>
  <node id="-421" visible="true" lat="43.04168701" lon="-72.90859222">
    <tag k="addr:city" v="Stratton" />
    <tag k="addr:housenumber" v="669" />
    <tag k="addr:street" v="Stratton Arlington Road" />
    <tag k="addr:state" v="VT" />
    <tag k="ref:vcgi:esiteid" v="253115" />
  </node>
  <node id="-422" visible="true" lat="43.0415039" lon="-72.9082489">
    <tag k="addr:city" v="Stratton" />
    <tag k="addr:housenumber" v="663" />
    <tag k="addr:street" v="Stratton Arlington Road" />
    <tag k="addr:state" v="VT" />
    <tag k="ref:vcgi:esiteid" v="253116" />
  </node>
  <node id="-423" visible="true" lat="43.04128966" lon="-72.89935018">
    <tag k="addr:city" v="Stratton" />
    <tag k="addr:housenumber" v="596" />
    <tag k="addr:street" v="Stratton Arlington Road" />
    <tag k="addr:state" v="VT" />
    <tag k="ref:vcgi:esiteid" v="253117" />
  </node>
  <node id="-424" visible="true" lat="43.04117705" lon="-72.90764551">
    <tag k="addr:city" v="Stratton" />
    <tag k="addr:housenumber" v="653" />
    <tag k="addr:street" v="Stratton Arlington Road" />
    <tag k="addr:state" v="VT" />
    <tag k="ref:vcgi:esiteid" v="253118" />
  </node>
  <node id="-425" visible="true" lat="43.04057753" lon="-72.90644134">
    <tag k="addr:city" v="Stratton" />
    <tag k="addr:housenumber" v="645" />
    <tag k="addr:street" v="Stratton Arlington Road" />
    <tag k="addr:state" v="VT" />
    <tag k="ref:vcgi:esiteid" v="253119" />
  </node>
  <node id="-426" visible="true" lat="43.04062271" lon="-72.90512085">
    <tag k="addr:city" v="Stratton" />
    <tag k="addr:housenumber" v="632" />
    <tag k="addr:street" v="Stratton Arlington Road" />
    <tag k="addr:state" v="VT" />
    <tag k="ref:vcgi:esiteid" v="253120" />
  </node>
  <node id="-427" visible="true" lat="43.04038238" lon="-72.90575408">
    <tag k="addr:city" v="Stratton" />
    <tag k="addr:housenumber" v="635" />
    <tag k="addr:street" v="Stratton Arlington Road" />
    <tag k="addr:state" v="VT" />
    <tag k="ref:vcgi:esiteid" v="253121" />
  </node>
  <node id="-428" visible="true" lat="43.03999328" lon="-72.90416717">
    <tag k="addr:city" v="Stratton" />
    <tag k="addr:housenumber" v="618" />
    <tag k="addr:street" v="Stratton Arlington Road" />
    <tag k="addr:state" v="VT" />
    <tag k="ref:vcgi:esiteid" v="253122" />
  </node>
  <node id="-429" visible="true" lat="43.03971556" lon="-72.89981823">
    <tag k="addr:city" v="Stratton" />
    <tag k="addr:housenumber" v="582" />
    <tag k="addr:street" v="Stratton Arlington Road" />
    <tag k="addr:state" v="VT" />
    <tag k="ref:vcgi:esiteid" v="253123" />
  </node>
  <node id="-430" visible="true" lat="43.03848362" lon="-72.89458346">
    <tag k="addr:city" v="Stratton" />
    <tag k="addr:housenumber" v="38" />
    <tag k="addr:street" v="Manicknung Lane" />
    <tag k="addr:state" v="VT" />
    <tag k="ref:vcgi:esiteid" v="253125" />
  </node>
  <node id="-431" visible="true" lat="43.03830279" lon="-72.89821048">
    <tag k="addr:city" v="Stratton" />
    <tag k="addr:housenumber" v="550" />
    <tag k="addr:street" v="Stratton Arlington Road" />
    <tag k="addr:state" v="VT" />
    <tag k="ref:vcgi:esiteid" v="253126" />
  </node>
  <node id="-432" visible="true" lat="43.03748252" lon="-72.89382341">
    <tag k="addr:city" v="Stratton" />
    <tag k="addr:housenumber" v="36" />
    <tag k="addr:street" v="Manicknung Lane" />
    <tag k="addr:state" v="VT" />
    <tag k="ref:vcgi:esiteid" v="253127" />
  </node>
  <node id="-433" visible="true" lat="43.03757869" lon="-72.89756964">
    <tag k="addr:city" v="Stratton" />
    <tag k="addr:housenumber" v="540" />
    <tag k="addr:street" v="Stratton Arlington Road" />
    <tag k="addr:state" v="VT" />
    <tag k="ref:vcgi:esiteid" v="253128" />
  </node>
  <node id="-434" visible="true" lat="43.03797905" lon="-72.89926485">
    <tag k="addr:city" v="Stratton" />
    <tag k="addr:housenumber" v="556" />
    <tag k="addr:street" v="Stratton Arlington Road" />
    <tag k="addr:state" v="VT" />
    <tag k="ref:vcgi:esiteid" v="253129" />
  </node>
  <node id="-435" visible="true" lat="43.03739792" lon="-72.87694552">
    <tag k="addr:city" v="Stratton" />
    <tag k="addr:housenumber" v="115" />
    <tag k="addr:street" v="Leon Stocker Drive" />
    <tag k="addr:state" v="VT" />
    <tag k="ref:vcgi:esiteid" v="253131" />
  </node>
  <node id="-436" visible="true" lat="43.03696554" lon="-72.89846704">
    <tag k="addr:city" v="Stratton" />
    <tag k="addr:housenumber" v="543" />
    <tag k="addr:street" v="Stratton Arlington Road" />
    <tag k="addr:state" v="VT" />
    <tag k="ref:vcgi:esiteid" v="253132" />
  </node>
  <node id="-437" visible="true" lat="43.03615738" lon="-72.87477318">
    <tag k="addr:city" v="Stratton" />
    <tag k="addr:housenumber" v="127" />
    <tag k="addr:street" v="Leon Stocker Drive" />
    <tag k="addr:state" v="VT" />
    <tag k="ref:vcgi:esiteid" v="253133" />
  </node>
  <node id="-438" visible="true" lat="43.03520356" lon="-72.89297847">
    <tag k="addr:city" v="Stratton" />
    <tag k="addr:housenumber" v="24" />
    <tag k="addr:street" v="Tudo Road" />
    <tag k="addr:state" v="VT" />
    <tag k="ref:vcgi:esiteid" v="253134" />
  </node>
  <node id="-439" visible="true" lat="43.03515782" lon="-72.89644731">
    <tag k="addr:city" v="Stratton" />
    <tag k="addr:housenumber" v="517" />
    <tag k="addr:street" v="Stratton Arlington Road" />
    <tag k="addr:state" v="VT" />
    <tag k="ref:vcgi:esiteid" v="253135" />
  </node>
  <node id="-440" visible="true" lat="43.03496524" lon="-72.87412088">
    <tag k="addr:city" v="Stratton" />
    <tag k="addr:housenumber" v="153" />
    <tag k="addr:street" v="Leon Stocker Drive" />
    <tag k="addr:state" v="VT" />
    <tag k="ref:vcgi:esiteid" v="253136" />
  </node>
  <node id="-441" visible="true" lat="43.03475952" lon="-72.89974975">
    <tag k="addr:city" v="Stratton" />
    <tag k="addr:housenumber" v="39" />
    <tag k="addr:street" v="Old Forrester Road" />
    <tag k="addr:state" v="VT" />
    <tag k="ref:vcgi:esiteid" v="253137" />
  </node>
  <node id="-442" visible="true" lat="43.03460823" lon="-72.89457561">
    <tag k="addr:city" v="Stratton" />
    <tag k="addr:housenumber" v="498" />
    <tag k="addr:street" v="Stratton Arlington Road" />
    <tag k="addr:state" v="VT" />
    <tag k="ref:vcgi:esiteid" v="253138" />
  </node>
  <node id="-443" visible="true" lat="43.03431953" lon="-72.89605145">
    <tag k="addr:city" v="Stratton" />
    <tag k="addr:housenumber" v="505" />
    <tag k="addr:street" v="Stratton Arlington Road" />
    <tag k="addr:state" v="VT" />
    <tag k="ref:vcgi:esiteid" v="253139" />
  </node>
  <node id="-444" visible="true" lat="43.03403854" lon="-72.8998413">
    <tag k="addr:city" v="Stratton" />
    <tag k="addr:housenumber" v="49" />
    <tag k="addr:street" v="Old Forrester Road" />
    <tag k="addr:state" v="VT" />
    <tag k="ref:vcgi:esiteid" v="253140" />
  </node>
  <node id="-445" visible="true" lat="43.03394029" lon="-72.88923599">
    <tag k="addr:city" v="Stratton" />
    <tag k="addr:housenumber" v="54" />
    <tag k="addr:street" v="Knowlton Farm Road" />
    <tag k="addr:state" v="VT" />
    <tag k="ref:vcgi:esiteid" v="253141" />
  </node>
  <node id="-446" visible="true" lat="43.03388255" lon="-72.87415395">
    <tag k="addr:city" v="Stratton" />
    <tag k="addr:housenumber" v="165" />
    <tag k="addr:street" v="Leon Stocker Drive" />
    <tag k="addr:state" v="VT" />
    <tag k="ref:vcgi:esiteid" v="253142" />
  </node>
  <node id="-447" visible="true" lat="43.03387146" lon="-72.88644028">
    <tag k="addr:city" v="Stratton" />
    <tag k="addr:housenumber" v="46" />
    <tag k="addr:street" v="Knowlton Farm Road" />
    <tag k="addr:state" v="VT" />
    <tag k="ref:vcgi:esiteid" v="253143" />
  </node>
  <node id="-448" visible="true" lat="43.033638" lon="-72.90032959">
    <tag k="addr:city" v="Stratton" />
    <tag k="addr:housenumber" v="57" />
    <tag k="addr:street" v="Old Forrester Road" />
    <tag k="addr:state" v="VT" />
    <tag k="ref:vcgi:esiteid" v="253144" />
  </node>
  <node id="-449" visible="true" lat="43.03398459" lon="-72.89175795">
    <tag k="addr:city" v="Stratton" />
    <tag k="addr:housenumber" v="470" />
    <tag k="addr:street" v="Stratton Arlington Road" />
    <tag k="addr:state" v="VT" />
    <tag k="ref:vcgi:esiteid" v="253145" />
  </node>
  <node id="-450" visible="true" lat="43.03357666" lon="-72.8784224">
    <tag k="addr:city" v="Stratton" />
    <tag k="addr:housenumber" v="18" />
    <tag k="addr:street" v="Leon Stocker Drive" />
    <tag k="addr:state" v="VT" />
    <tag k="ref:vcgi:esiteid" v="253146" />
  </node>
  <node id="-451" visible="true" lat="43.03384779" lon="-72.87967025">
    <tag k="addr:city" v="Stratton" />
    <tag k="addr:housenumber" v="35" />
    <tag k="addr:street" v="Leon Stocker Drive" />
    <tag k="addr:state" v="VT" />
    <tag k="ref:vcgi:esiteid" v="253147" />
  </node>
  <node id="-452" visible="true" lat="43.03327964" lon="-72.87453981">
    <tag k="addr:city" v="Stratton" />
    <tag k="addr:housenumber" v="167" />
    <tag k="addr:street" v="Leon Stocker Drive" />
    <tag k="addr:state" v="VT" />
    <tag k="ref:vcgi:esiteid" v="253148" />
  </node>
  <node id="-453" visible="true" lat="43.03299331" lon="-72.88783264">
    <tag k="addr:city" v="Stratton" />
    <tag k="addr:housenumber" v="44" />
    <tag k="addr:street" v="Knowlton Farm Road" />
    <tag k="addr:state" v="VT" />
    <tag k="ref:vcgi:esiteid" v="253149" />
  </node>
  <node id="-454" visible="true" lat="43.03267396" lon="-72.87691506">
    <tag k="addr:city" v="Stratton" />
    <tag k="addr:housenumber" v="11" />
    <tag k="addr:street" v="Leon Stocker Drive" />
    <tag k="addr:state" v="VT" />
    <tag k="ref:vcgi:esiteid" v="253150" />
  </node>
  <node id="-455" visible="true" lat="43.03241348" lon="-72.90068054">
    <tag k="addr:city" v="Stratton" />
    <tag k="addr:housenumber" v="71" />
    <tag k="addr:street" v="Old Forrester Road" />
    <tag k="addr:state" v="VT" />
    <tag k="ref:vcgi:esiteid" v="253151" />
  </node>
  <node id="-456" visible="true" lat="43.03217508" lon="-72.89104958">
    <tag k="addr:city" v="Stratton" />
    <tag k="addr:housenumber" v="440" />
    <tag k="addr:street" v="Stratton Arlington Road" />
    <tag k="addr:state" v="VT" />
    <tag k="ref:vcgi:esiteid" v="253152" />
  </node>
  <node id="-457" visible="true" lat="43.03201831" lon="-72.89260595">
    <tag k="addr:city" v="Stratton" />
    <tag k="addr:housenumber" v="6" />
    <tag k="addr:street" v="Bills Road" />
    <tag k="addr:state" v="VT" />
    <tag k="ref:vcgi:esiteid" v="253153" />
  </node>
  <node id="-458" visible="true" lat="43.03185701" lon="-72.87461185">
    <tag k="addr:city" v="Stratton" />
    <tag k="addr:housenumber" v="150" />
    <tag k="addr:street" v="Kerri Ann Lane" />
    <tag k="addr:state" v="VT" />
    <tag k="ref:vcgi:esiteid" v="253154" />
  </node>
  <node id="-459" visible="true" lat="43.03160476" lon="-72.87602996">
    <tag k="addr:city" v="Stratton" />
    <tag k="addr:housenumber" v="4" />
    <tag k="addr:street" v="Jennifer Drive" />
    <tag k="addr:state" v="VT" />
    <tag k="ref:vcgi:esiteid" v="253155" />
  </node>
  <node id="-460" visible="true" lat="43.03130246" lon="-72.89230246">
    <tag k="addr:city" v="Stratton" />
    <tag k="addr:housenumber" v="15" />
    <tag k="addr:street" v="Bills Road" />
    <tag k="addr:state" v="VT" />
    <tag k="ref:vcgi:esiteid" v="253156" />
  </node>
  <node id="-461" visible="true" lat="43.0310522" lon="-72.87454449">
    <tag k="addr:city" v="Stratton" />
    <tag k="addr:housenumber" v="143" />
    <tag k="addr:street" v="Kerri Ann Lane" />
    <tag k="addr:state" v="VT" />
    <tag k="ref:vcgi:esiteid" v="253157" />
  </node>
  <node id="-462" visible="true" lat="43.03093685" lon="-72.89412353">
    <tag k="addr:city" v="Stratton" />
    <tag k="addr:housenumber" v="30" />
    <tag k="addr:street" v="Bills Road" />
    <tag k="addr:state" v="VT" />
    <tag k="ref:vcgi:esiteid" v="253158" />
  </node>
  <node id="-463" visible="true" lat="43.03075936" lon="-72.88923822">
    <tag k="addr:city" v="Stratton" />
    <tag k="addr:housenumber" v="417" />
    <tag k="addr:street" v="Stratton Arlington Road" />
    <tag k="addr:state" v="VT" />
    <tag k="ref:vcgi:esiteid" v="253159" />
  </node>
  <node id="-464" visible="true" lat="43.03077255" lon="-72.87643458">
    <tag k="addr:city" v="Stratton" />
    <tag k="addr:housenumber" v="16" />
    <tag k="addr:street" v="Jennifer Drive" />
    <tag k="addr:state" v="VT" />
    <tag k="ref:vcgi:esiteid" v="253160" />
  </node>
  <node id="-465" visible="true" lat="43.0304826" lon="-72.87542198">
    <tag k="addr:city" v="Stratton" />
    <tag k="addr:housenumber" v="19" />
    <tag k="addr:street" v="Jennifer Drive" />
    <tag k="addr:state" v="VT" />
    <tag k="ref:vcgi:esiteid" v="253161" />
  </node>
  <node id="-466" visible="true" lat="43.02977371" lon="-72.88814544">
    <tag k="addr:city" v="Stratton" />
    <tag k="addr:housenumber" v="399" />
    <tag k="addr:street" v="Stratton Arlington Road" />
    <tag k="addr:state" v="VT" />
    <tag k="ref:vcgi:esiteid" v="253162" />
  </node>
  <node id="-467" visible="true" lat="43.0296173" lon="-72.88584899">
    <tag k="addr:city" v="Stratton" />
    <tag k="addr:housenumber" v="378" />
    <tag k="addr:street" v="Stratton Arlington Road" />
    <tag k="addr:state" v="VT" />
    <tag k="ref:vcgi:esiteid" v="253163" />
  </node>
  <node id="-468" visible="true" lat="43.02894936" lon="-72.88831078">
    <tag k="addr:city" v="Stratton" />
    <tag k="addr:housenumber" v="14" />
    <tag k="addr:street" v="Willis Cemetery Road" />
    <tag k="addr:state" v="VT" />
    <tag k="ref:vcgi:esiteid" v="253164" />
  </node>
  <node id="-469" visible="true" lat="43.02864314" lon="-72.88740281">
    <tag k="addr:city" v="Stratton" />
    <tag k="addr:housenumber" v="9" />
    <tag k="addr:street" v="Willis Cemetery Road" />
    <tag k="addr:state" v="VT" />
    <tag k="ref:vcgi:esiteid" v="253165" />
  </node>
  <node id="-470" visible="true" lat="43.02863751" lon="-72.88381173">
    <tag k="addr:city" v="Stratton" />
    <tag k="addr:housenumber" v="356" />
    <tag k="addr:street" v="Stratton Arlington Road" />
    <tag k="addr:state" v="VT" />
    <tag k="ref:vcgi:esiteid" v="253166" />
  </node>
  <node id="-471" visible="true" lat="43.02863608" lon="-72.88583942">
    <tag k="addr:city" v="Stratton" />
    <tag k="addr:housenumber" v="373" />
    <tag k="addr:street" v="Stratton Arlington Road" />
    <tag k="addr:state" v="VT" />
    <tag k="ref:vcgi:esiteid" v="253167" />
  </node>
  <node id="-472" visible="true" lat="43.02763748" lon="-72.88109588">
    <tag k="addr:city" v="Stratton" />
    <tag k="addr:housenumber" v="329" />
    <tag k="addr:street" v="Stratton Arlington Road" />
    <tag k="addr:state" v="VT" />
    <tag k="ref:vcgi:esiteid" v="253168" />
  </node>
  <node id="-473" visible="true" lat="43.02751541" lon="-72.88459777">
    <tag k="addr:city" v="Stratton" />
    <tag k="addr:housenumber" v="40" />
    <tag k="addr:street" v="Oakmont Lane" />
    <tag k="addr:state" v="VT" />
    <tag k="ref:vcgi:esiteid" v="253169" />
  </node>
  <node id="-474" visible="true" lat="43.02749633" lon="-72.8800888">
    <tag k="addr:city" v="Stratton" />
    <tag k="addr:housenumber" v="307" />
    <tag k="addr:street" v="Stratton Arlington Road" />
    <tag k="addr:state" v="VT" />
    <tag k="ref:vcgi:esiteid" v="253170" />
  </node>
  <node id="-475" visible="true" lat="43.02692177" lon="-72.88915429">
    <tag k="addr:city" v="Stratton" />
    <tag k="addr:housenumber" v="44" />
    <tag k="addr:street" v="Willis Cemetery Road" />
    <tag k="addr:state" v="VT" />
    <tag k="ref:vcgi:esiteid" v="253171" />
  </node>
  <node id="-476" visible="true" lat="43.02679061" lon="-72.87919616">
    <tag k="addr:city" v="Stratton" />
    <tag k="addr:housenumber" v="295" />
    <tag k="addr:street" v="Stratton Arlington Road" />
    <tag k="addr:state" v="VT" />
    <tag k="ref:vcgi:esiteid" v="253172" />
  </node>
  <node id="-477" visible="true" lat="43.02641683" lon="-72.88783357">
    <tag k="addr:city" v="Stratton" />
    <tag k="addr:housenumber" v="53" />
    <tag k="addr:street" v="Willis Cemetery Road" />
    <tag k="addr:state" v="VT" />
    <tag k="ref:vcgi:esiteid" v="253173" />
  </node>
  <node id="-478" visible="true" lat="43.02633633" lon="-72.88945495">
    <tag k="addr:city" v="Stratton" />
    <tag k="addr:housenumber" v="54" />
    <tag k="addr:street" v="Willis Cemetery Road" />
    <tag k="addr:state" v="VT" />
    <tag k="ref:vcgi:esiteid" v="253174" />
  </node>
  <node id="-479" visible="true" lat="43.02599334" lon="-72.87633514">
    <tag k="addr:city" v="Stratton" />
    <tag k="addr:housenumber" v="264" />
    <tag k="addr:street" v="Stratton Arlington Road" />
    <tag k="addr:state" v="VT" />
    <tag k="ref:vcgi:esiteid" v="253175" />
  </node>
  <node id="-480" visible="true" lat="43.02596282" lon="-72.87787628">
    <tag k="addr:city" v="Stratton" />
    <tag k="addr:housenumber" v="277" />
    <tag k="addr:street" v="Stratton Arlington Road" />
    <tag k="addr:state" v="VT" />
    <tag k="ref:vcgi:esiteid" v="253176" />
  </node>
  <node id="-481" visible="true" lat="43.0252037" lon="-72.87813568">
    <tag k="addr:city" v="Stratton" />
    <tag k="addr:housenumber" v="6" />
    <tag k="addr:street" v="Pike Hollow Road" />
    <tag k="addr:state" v="VT" />
    <tag k="ref:vcgi:esiteid" v="253177" />
  </node>
  <node id="-482" visible="true" lat="43.02494012" lon="-72.8775886">
    <tag k="addr:city" v="Stratton" />
    <tag k="addr:housenumber" v="15" />
    <tag k="addr:street" v="Pike Hollow Road" />
    <tag k="addr:state" v="VT" />
    <tag k="ref:vcgi:esiteid" v="253178" />
  </node>
  <node id="-483" visible="true" lat="43.02463965" lon="-72.89134829">
    <tag k="addr:city" v="Stratton" />
    <tag k="addr:housenumber" v="122" />
    <tag k="addr:street" v="Willis Cemetery Road" />
    <tag k="addr:state" v="VT" />
    <tag k="ref:vcgi:esiteid" v="253179" />
  </node>
  <node id="-484" visible="true" lat="43.02465622" lon="-72.87836884">
    <tag k="addr:city" v="Stratton" />
    <tag k="addr:housenumber" v="20" />
    <tag k="addr:street" v="Pike Hollow Road" />
    <tag k="addr:state" v="VT" />
    <tag k="ref:vcgi:esiteid" v="253180" />
  </node>
  <node id="-485" visible="true" lat="43.02419243" lon="-72.88970571">
    <tag k="addr:city" v="Stratton" />
    <tag k="addr:housenumber" v="82" />
    <tag k="addr:street" v="Willis Cemetery Road" />
    <tag k="addr:state" v="VT" />
    <tag k="ref:vcgi:esiteid" v="253181" />
  </node>
  <node id="-486" visible="true" lat="43.02448968" lon="-72.89270913">
    <tag k="addr:city" v="Stratton" />
    <tag k="addr:housenumber" v="134" />
    <tag k="addr:street" v="Willis Cemetery Road" />
    <tag k="addr:state" v="VT" />
    <tag k="ref:vcgi:esiteid" v="253182" />
  </node>
  <node id="-487" visible="true" lat="43.02343037" lon="-72.88992396">
    <tag k="addr:city" v="Stratton" />
    <tag k="addr:housenumber" v="106" />
    <tag k="addr:street" v="Willis Cemetery Road" />
    <tag k="addr:state" v="VT" />
    <tag k="ref:vcgi:esiteid" v="253183" />
  </node>
  <node id="-488" visible="true" lat="43.02314608" lon="-72.89279992">
    <tag k="addr:city" v="Stratton" />
    <tag k="addr:housenumber" v="125" />
    <tag k="addr:street" v="Willis Cemetery Road" />
    <tag k="addr:state" v="VT" />
    <tag k="ref:vcgi:esiteid" v="253184" />
  </node>
  <node id="-489" visible="true" lat="43.02293014" lon="-72.89084625">
    <tag k="addr:city" v="Stratton" />
    <tag k="addr:housenumber" v="111" />
    <tag k="addr:street" v="Willis Cemetery Road" />
    <tag k="addr:state" v="VT" />
    <tag k="ref:vcgi:esiteid" v="253185" />
  </node>
  <node id="-490" visible="true" lat="43.02291348" lon="-72.88890057">
    <tag k="addr:city" v="Stratton" />
    <tag k="addr:housenumber" v="99" />
    <tag k="addr:street" v="Willis Cemetery Road" />
    <tag k="addr:state" v="VT" />
    <tag k="ref:vcgi:esiteid" v="253186" />
  </node>
  <node id="-491" visible="true" lat="43.0227412" lon="-72.89010797">
    <tag k="addr:city" v="Stratton" />
    <tag k="addr:housenumber" v="101" />
    <tag k="addr:street" v="Willis Cemetery Road" />
    <tag k="addr:state" v="VT" />
    <tag k="ref:vcgi:esiteid" v="253187" />
  </node>
  <node id="-492" visible="true" lat="43.02332445" lon="-72.88117402">
    <tag k="addr:city" v="Stratton" />
    <tag k="addr:housenumber" v="68" />
    <tag k="addr:street" v="Pike Hollow Road" />
    <tag k="addr:state" v="VT" />
    <tag k="ref:vcgi:esiteid" v="253188" />
  </node>
  <node id="-493" visible="true" lat="43.02159653" lon="-72.88530581">
    <tag k="addr:city" v="Stratton" />
    <tag k="addr:housenumber" v="62" />
    <tag k="addr:street" v="Gagners Way" />
    <tag k="addr:state" v="VT" />
    <tag k="ref:vcgi:esiteid" v="253189" />
  </node>
  <node id="-494" visible="true" lat="43.02069088" lon="-72.88123825">
    <tag k="addr:city" v="Stratton" />
    <tag k="addr:housenumber" v="90" />
    <tag k="addr:street" v="Pike Hollow Road" />
    <tag k="addr:state" v="VT" />
    <tag k="ref:vcgi:esiteid" v="253190" />
  </node>
  <node id="-495" visible="true" lat="43.01990751" lon="-72.88002752">
    <tag k="addr:city" v="Stratton" />
    <tag k="addr:housenumber" v="218" />
    <tag k="addr:street" v="Penny Avenue" />
    <tag k="addr:state" v="VT" />
    <tag k="ref:vcgi:esiteid" v="253191" />
  </node>
  <node id="-496" visible="true" lat="43.01916997" lon="-72.88355687">
    <tag k="addr:city" v="Stratton" />
    <tag k="addr:housenumber" v="122" />
    <tag k="addr:street" v="Pike Hollow Road" />
    <tag k="addr:state" v="VT" />
    <tag k="ref:vcgi:esiteid" v="253192" />
  </node>
  <node id="-497" visible="true" lat="43.01840228" lon="-72.88510296">
    <tag k="addr:city" v="Stratton" />
    <tag k="addr:housenumber" v="146" />
    <tag k="addr:street" v="Pike Hollow Road" />
    <tag k="addr:state" v="VT" />
    <tag k="ref:vcgi:esiteid" v="253193" />
  </node>
  <node id="-498" visible="true" lat="43.01705984" lon="-72.88862106">
    <tag k="addr:city" v="Stratton" />
    <tag k="addr:housenumber" v="182" />
    <tag k="addr:street" v="Pike Hollow Road" />
    <tag k="addr:state" v="VT" />
    <tag k="ref:vcgi:esiteid" v="253194" />
  </node>
  <node id="-499" visible="true" lat="43.01682052" lon="-72.88613176">
    <tag k="addr:city" v="Stratton" />
    <tag k="addr:housenumber" v="171" />
    <tag k="addr:street" v="Pike Hollow Road" />
    <tag k="addr:state" v="VT" />
    <tag k="ref:vcgi:esiteid" v="253195" />
  </node>
  <node id="-500" visible="true" lat="43.01653401" lon="-72.88963402">
    <tag k="addr:city" v="Stratton" />
    <tag k="addr:housenumber" v="192" />
    <tag k="addr:street" v="Pike Hollow Road" />
    <tag k="addr:state" v="VT" />
    <tag k="ref:vcgi:esiteid" v="253196" />
  </node>
  <node id="-501" visible="true" lat="43.01527023" lon="-72.89299011">
    <tag k="addr:city" v="Stratton" />
    <tag k="addr:housenumber" v="230" />
    <tag k="addr:street" v="Pike Hollow Road" />
    <tag k="addr:state" v="VT" />
    <tag k="ref:vcgi:esiteid" v="253197" />
  </node>
  <node id="-502" visible="true" lat="43.01455688" lon="-72.89313507">
    <tag k="addr:city" v="Stratton" />
    <tag k="addr:housenumber" v="241" />
    <tag k="addr:street" v="Pike Hollow Road" />
    <tag k="addr:state" v="VT" />
    <tag k="ref:vcgi:esiteid" v="253198" />
  </node>
  <node id="-503" visible="true" lat="43.01253128" lon="-72.8812561">
    <tag k="addr:city" v="Stratton" />
    <tag k="addr:housenumber" v="111" />
    <tag k="addr:street" v="Penny Avenue" />
    <tag k="addr:state" v="VT" />
    <tag k="ref:vcgi:esiteid" v="253199" />
  </node>
  <node id="-504" visible="true" lat="43.00656508" lon="-72.88372552">
    <tag k="addr:city" v="Stratton" />
    <tag k="addr:housenumber" v="21" />
    <tag k="addr:street" v="Penny Avenue" />
    <tag k="addr:state" v="VT" />
    <tag k="ref:vcgi:esiteid" v="253200" />
  </node>
  <node id="-505" visible="true" lat="43.00623702" lon="-72.88330077">
    <tag k="addr:city" v="Stratton" />
    <tag k="addr:housenumber" v="20" />
    <tag k="addr:street" v="Penny Avenue" />
    <tag k="addr:state" v="VT" />
    <tag k="ref:vcgi:esiteid" v="253201" />
  </node>
  <node id="-506" visible="true" lat="43.00588606" lon="-72.88240823">
    <tag k="addr:city" v="Stratton" />
    <tag k="addr:housenumber" v="8" />
    <tag k="addr:street" v="Penny Avenue" />
    <tag k="addr:state" v="VT" />
    <tag k="ref:vcgi:esiteid" v="253202" />
  </node>
  <node id="-507" visible="true" lat="43.00247388" lon="-72.88566558">
    <tag k="addr:city" v="Stratton" />
    <tag k="addr:housenumber" v="749" />
    <tag k="addr:street" v="Vermont Route 100" />
    <tag k="addr:state" v="VT" />
    <tag k="ref:vcgi:esiteid" v="253203" />
  </node>
  <node id="-508" visible="true" lat="43.00224325" lon="-72.88576384">
    <tag k="addr:city" v="Stratton" />
    <tag k="addr:housenumber" v="743" />
    <tag k="addr:street" v="Vermont Route 100" />
    <tag k="addr:state" v="VT" />
    <tag k="ref:vcgi:esiteid" v="253204" />
  </node>
  <node id="-509" visible="true" lat="43.00140209" lon="-72.88603094">
    <tag k="addr:city" v="Stratton" />
    <tag k="addr:housenumber" v="731" />
    <tag k="addr:street" v="Vermont Route 100" />
    <tag k="addr:state" v="VT" />
    <tag k="ref:vcgi:esiteid" v="253205" />
  </node>
  <node id="-510" visible="true" lat="42.99918421" lon="-72.8851742">
    <tag k="addr:city" v="Stratton" />
    <tag k="addr:housenumber" v="706" />
    <tag k="addr:street" v="Vermont Route 100" />
    <tag k="addr:state" v="VT" />
    <tag k="ref:vcgi:esiteid" v="253206" />
  </node>
  <node id="-511" visible="true" lat="42.99808518" lon="-72.88634205">
    <tag k="addr:city" v="Stratton" />
    <tag k="addr:housenumber" v="682" />
    <tag k="addr:street" v="Vermont Route 100" />
    <tag k="addr:state" v="VT" />
    <tag k="ref:vcgi:esiteid" v="253207" />
  </node>
  <node id="-512" visible="true" lat="42.99680721" lon="-72.88691457">
    <tag k="addr:city" v="Stratton" />
    <tag k="addr:housenumber" v="664" />
    <tag k="addr:street" v="Vermont Route 100" />
    <tag k="addr:state" v="VT" />
    <tag k="ref:vcgi:esiteid" v="253208" />
  </node>
  <node id="-513" visible="true" lat="42.99466871" lon="-72.88835622">
    <tag k="addr:city" v="Stratton" />
    <tag k="addr:housenumber" v="633" />
    <tag k="addr:street" v="Vermont Route 100" />
    <tag k="addr:state" v="VT" />
    <tag k="ref:vcgi:esiteid" v="253210" />
  </node>
  <node id="-514" visible="true" lat="42.99488751" lon="-72.88820459">
    <tag k="addr:city" v="Stratton" />
    <tag k="addr:housenumber" v="635" />
    <tag k="addr:street" v="Vermont Route 100" />
    <tag k="addr:state" v="VT" />
    <tag k="ref:vcgi:esiteid" v="253211" />
  </node>
  <node id="-515" visible="true" lat="42.99445023" lon="-72.88883898">
    <tag k="addr:city" v="Stratton" />
    <tag k="addr:housenumber" v="623" />
    <tag k="addr:street" v="Vermont Route 100" />
    <tag k="addr:state" v="VT" />
    <tag k="ref:vcgi:esiteid" v="253212" />
  </node>
  <node id="-516" visible="true" lat="42.99395519" lon="-72.88901614">
    <tag k="addr:city" v="Stratton" />
    <tag k="addr:housenumber" v="617" />
    <tag k="addr:street" v="Vermont Route 100" />
    <tag k="addr:state" v="VT" />
    <tag k="ref:vcgi:esiteid" v="253213" />
  </node>
  <node id="-517" visible="true" lat="42.99365028" lon="-72.88882639">
    <tag k="addr:city" v="Stratton" />
    <tag k="addr:housenumber" v="615" />
    <tag k="addr:street" v="Vermont Route 100" />
    <tag k="addr:state" v="VT" />
    <tag k="ref:vcgi:esiteid" v="253214" />
  </node>
  <node id="-518" visible="true" lat="42.99418548" lon="-72.88386582">
    <tag k="addr:city" v="Stratton" />
    <tag k="addr:housenumber" v="61" />
    <tag k="addr:street" v="Forest Heights" />
    <tag k="addr:state" v="VT" />
    <tag k="ref:vcgi:esiteid" v="253215" />
  </node>
  <node id="-519" visible="true" lat="42.9932864" lon="-72.88758743">
    <tag k="addr:city" v="Stratton" />
    <tag k="addr:housenumber" v="618" />
    <tag k="addr:street" v="Vermont Route 100" />
    <tag k="addr:state" v="VT" />
    <tag k="ref:vcgi:esiteid" v="253216" />
  </node>
  <node id="-520" visible="true" lat="42.99306591" lon="-72.88895869">
    <tag k="addr:city" v="Stratton" />
    <tag k="addr:housenumber" v="605" />
    <tag k="addr:street" v="Vermont Route 100" />
    <tag k="addr:state" v="VT" />
    <tag k="ref:vcgi:esiteid" v="253217" />
  </node>
  <node id="-521" visible="true" lat="42.99295816" lon="-72.89019914">
    <tag k="addr:city" v="Stratton" />
    <tag k="addr:housenumber" v="589" />
    <tag k="addr:street" v="Vermont Route 100" />
    <tag k="addr:state" v="VT" />
    <tag k="ref:vcgi:esiteid" v="253218" />
  </node>
  <node id="-522" visible="true" lat="42.99275959" lon="-72.88926">
    <tag k="addr:city" v="Stratton" />
    <tag k="addr:housenumber" v="597" />
    <tag k="addr:street" v="Vermont Route 100" />
    <tag k="addr:state" v="VT" />
    <tag k="ref:vcgi:esiteid" v="253219" />
  </node>
  <node id="-523" visible="true" lat="42.99211009" lon="-72.88752834">
    <tag k="addr:city" v="Stratton" />
    <tag k="addr:housenumber" v="24" />
    <tag k="addr:street" v="Nutmeg Lane" />
    <tag k="addr:state" v="VT" />
    <tag k="ref:vcgi:esiteid" v="253220" />
  </node>
  <node id="-524" visible="true" lat="42.99205598" lon="-72.88825303">
    <tag k="addr:city" v="Stratton" />
    <tag k="addr:housenumber" v="592" />
    <tag k="addr:street" v="Vermont Route 100" />
    <tag k="addr:state" v="VT" />
    <tag k="ref:vcgi:esiteid" v="253221" />
  </node>
  <node id="-525" visible="true" lat="42.99174922" lon="-72.88729179">
    <tag k="addr:city" v="Stratton" />
    <tag k="addr:housenumber" v="22" />
    <tag k="addr:street" v="Nutmeg Lane" />
    <tag k="addr:state" v="VT" />
    <tag k="ref:vcgi:esiteid" v="253222" />
  </node>
  <node id="-526" visible="true" lat="42.99142899" lon="-72.88369808">
    <tag k="addr:city" v="Stratton" />
    <tag k="addr:housenumber" v="24" />
    <tag k="addr:street" v="Forest Heights" />
    <tag k="addr:state" v="VT" />
    <tag k="ref:vcgi:esiteid" v="253223" />
  </node>
  <node id="-527" visible="true" lat="43.11338043" lon="-72.91812133">
    <tag k="addr:city" v="Stratton" />
    <tag k="addr:housenumber" v="156" />
    <tag k="addr:street" v="North Brookwood Road" />
    <tag k="addr:state" v="VT" />
    <tag k="ref:vcgi:esiteid" v="253224" />
  </node>
  <node id="-528" visible="true" lat="43.11248016" lon="-72.89453887">
    <tag k="addr:city" v="Stratton" />
    <tag k="addr:housenumber" v="41" />
    <tag k="addr:street" v="High Point Drive" />
    <tag k="addr:state" v="VT" />
    <tag k="ref:vcgi:esiteid" v="253225" />
  </node>
  <node id="-529" visible="true" lat="43.11197662" lon="-72.89537048">
    <tag k="addr:city" v="Stratton" />
    <tag k="addr:housenumber" v="49" />
    <tag k="addr:street" v="High Point Drive" />
    <tag k="addr:state" v="VT" />
    <tag k="ref:vcgi:esiteid" v="253226" />
  </node>
  <node id="-530" visible="true" lat="43.11154556" lon="-72.89472961">
    <tag k="addr:city" v="Stratton" />
    <tag k="addr:housenumber" v="47" />
    <tag k="addr:street" v="High Point Drive" />
    <tag k="addr:state" v="VT" />
    <tag k="ref:vcgi:esiteid" v="253227" />
  </node>
  <node id="-531" visible="true" lat="43.11256072" lon="-72.8976512">
    <tag k="addr:city" v="Stratton" />
    <tag k="addr:housenumber" v="10" />
    <tag k="addr:street" v="Arbor Road" />
    <tag k="addr:state" v="VT" />
    <tag k="ref:vcgi:esiteid" v="253228" />
  </node>
  <node id="-532" visible="true" lat="43.06116867" lon="-72.96746826">
    <tag k="addr:city" v="Stratton" />
    <tag k="addr:housenumber" v="1376" />
    <tag k="addr:street" v="Stratton Arlington Road" />
    <tag k="addr:state" v="VT" />
    <tag k="ref:vcgi:esiteid" v="253229" />
  </node>
  <node id="-533" visible="true" lat="42.99398656" lon="-72.88523418">
    <tag k="addr:city" v="Stratton" />
    <tag k="addr:housenumber" v="47" />
    <tag k="addr:street" v="Forest Heights" />
    <tag k="addr:state" v="VT" />
    <tag k="ref:vcgi:esiteid" v="253230" />
  </node>
  <node id="-534" visible="true" lat="43.11143085" lon="-72.89753737">
    <tag k="addr:city" v="Stratton" />
    <tag k="addr:housenumber" v="5" />
    <tag k="addr:street" v="Arbor Road" />
    <tag k="addr:state" v="VT" />
    <tag k="ref:vcgi:esiteid" v="253231" />
  </node>
  <node id="-535" visible="true" lat="43.11173812" lon="-72.89814688">
    <tag k="addr:city" v="Stratton" />
    <tag k="addr:housenumber" v="7" />
    <tag k="addr:street" v="Arbor Road" />
    <tag k="addr:state" v="VT" />
    <tag k="ref:vcgi:esiteid" v="253232" />
  </node>
  <node id="-536" visible="true" lat="43.11199089" lon="-72.89882272">
    <tag k="addr:city" v="Stratton" />
    <tag k="addr:housenumber" v="9" />
    <tag k="addr:street" v="Arbor Road" />
    <tag k="addr:state" v="VT" />
    <tag k="ref:vcgi:esiteid" v="253233" />
  </node>
  <node id="-537" visible="true" lat="43.10916275" lon="-72.87862719">
    <tag k="addr:city" v="Stratton" />
    <tag k="addr:housenumber" v="141" />
    <tag k="addr:street" v="Brazers Way" />
    <tag k="addr:state" v="VT" />
    <tag k="ref:vcgi:esiteid" v="253234" />
  </node>
  <node id="-538" visible="true" lat="43.10653162" lon="-72.88781386">
    <tag k="addr:city" v="Stratton" />
    <tag k="addr:housenumber" v="20" />
    <tag k="addr:street" v="World Cup Circle" />
    <tag k="addr:state" v="VT" />
    <tag k="ref:vcgi:esiteid" v="253235" />
  </node>
  <node id="-539" visible="true" lat="43.10584303" lon="-72.88778996">
    <tag k="addr:city" v="Stratton" />
    <tag k="addr:housenumber" v="15" />
    <tag k="addr:street" v="World Cup Circle" />
    <tag k="addr:state" v="VT" />
    <tag k="ref:vcgi:esiteid" v="253236" />
  </node>
  <node id="-540" visible="true" lat="43.10540073" lon="-72.88762054">
    <tag k="addr:city" v="Stratton" />
    <tag k="addr:housenumber" v="7" />
    <tag k="addr:street" v="World Cup Circle" />
    <tag k="addr:state" v="VT" />
    <tag k="ref:vcgi:esiteid" v="253237" />
  </node>
  <node id="-541" visible="true" lat="43.08018308" lon="-72.87594423">
    <tag k="addr:city" v="Stratton" />
    <tag k="addr:housenumber" v="468" />
    <tag k="addr:street" v="Mountain Road" />
    <tag k="addr:state" v="VT" />
    <tag k="ref:vcgi:esiteid" v="253238" />
  </node>
  <node id="-542" visible="true" lat="43.11391449" lon="-72.90413665">
    <tag k="addr:city" v="Stratton" />
    <tag k="addr:housenumber" v="761" />
    <tag k="addr:street" v="Stratton Mountain Access Road" />
    <tag k="addr:state" v="VT" />
    <tag k="ref:vcgi:esiteid" v="253239" />
  </node>
  <node id="-543" visible="true" lat="43.11129304" lon="-72.89814399">
    <tag k="addr:city" v="Stratton" />
    <tag k="addr:housenumber" v="2" />
    <tag k="addr:street" v="Stratton Springs Road" />
    <tag k="addr:state" v="VT" />
    <tag k="ref:vcgi:esiteid" v="253240" />
  </node>
  <node id="-544" visible="true" lat="43.11144813" lon="-72.89881178">
    <tag k="addr:city" v="Stratton" />
    <tag k="addr:housenumber" v="1" />
    <tag k="addr:street" v="Stratton Springs Road" />
    <tag k="addr:state" v="VT" />
    <tag k="ref:vcgi:esiteid" v="253241" />
  </node>
  <node id="-545" visible="true" lat="43.1117882" lon="-72.89935483">
    <tag k="addr:city" v="Stratton" />
    <tag k="addr:housenumber" v="3" />
    <tag k="addr:street" v="Stratton Springs Road" />
    <tag k="addr:state" v="VT" />
    <tag k="ref:vcgi:esiteid" v="253242" />
  </node>
  <node id="-546" visible="true" lat="43.11315344" lon="-72.90220585">
    <tag k="addr:city" v="Stratton" />
    <tag k="addr:housenumber" v="85" />
    <tag k="addr:street" v="Middle Ridge Road" />
    <tag k="addr:state" v="VT" />
    <tag k="ref:vcgi:esiteid" v="253244" />
  </node>
  <node id="-547" visible="true" lat="43.08678648" lon="-72.8730199">
    <tag k="addr:city" v="Stratton" />
    <tag k="addr:housenumber" v="354" />
    <tag k="addr:street" v="Mountain Road" />
    <tag k="addr:state" v="VT" />
    <tag k="ref:vcgi:esiteid" v="253245" />
  </node>
  <node id="-548" visible="true" lat="43.0464258" lon="-72.95182419">
    <tag k="addr:city" v="Stratton" />
    <tag k="addr:housenumber" v="218" />
    <tag k="addr:street" v="Grout Pond Road" />
    <tag k="addr:state" v="VT" />
    <tag k="ref:vcgi:esiteid" v="253246" />
  </node>
  <node id="-549" visible="true" lat="43.04299214" lon="-72.87888252">
    <tag k="addr:city" v="Stratton" />
    <tag k="addr:housenumber" v="186" />
    <tag k="addr:street" v="Canedy Road" />
    <tag k="addr:state" v="VT" />
    <tag k="ref:vcgi:esiteid" v="253247" />
  </node>
  <node id="-550" visible="true" lat="43.04687997" lon="-72.91421887">
    <tag k="addr:city" v="Stratton" />
    <tag k="addr:housenumber" v="748" />
    <tag k="addr:street" v="Stratton Arlington Road" />
    <tag k="addr:state" v="VT" />
    <tag k="ref:vcgi:esiteid" v="253248" />
  </node>
  <node id="-551" visible="true" lat="43.05631845" lon="-72.88259112">
    <tag k="addr:city" v="Stratton" />
    <tag k="addr:housenumber" v="7" />
    <tag k="addr:street" v="Town Garage Road" />
    <tag k="addr:state" v="VT" />
    <tag k="ref:vcgi:esiteid" v="253250" />
  </node>
  <node id="-552" visible="true" lat="43.05656344" lon="-72.88300958">
    <tag k="addr:city" v="Stratton" />
    <tag k="addr:housenumber" v="8" />
    <tag k="addr:street" v="Town Garage Road" />
    <tag k="addr:state" v="VT" />
    <tag k="ref:vcgi:esiteid" v="253251" />
  </node>
  <node id="-553" visible="true" lat="43.09971445" lon="-72.89049442">
    <tag k="addr:city" v="Stratton" />
    <tag k="addr:housenumber" v="35" />
    <tag k="addr:street" v="Sun Bowl Ridge Road" />
    <tag k="addr:state" v="VT" />
    <tag k="ref:vcgi:esiteid" v="253257" />
  </node>
  <node id="-554" visible="true" lat="43.09981235" lon="-72.89086125">
    <tag k="addr:city" v="Stratton" />
    <tag k="addr:housenumber" v="37" />
    <tag k="addr:street" v="Sun Bowl Ridge Road" />
    <tag k="addr:state" v="VT" />
    <tag k="ref:vcgi:esiteid" v="253258" />
  </node>
  <node id="-555" visible="true" lat="43.10020472" lon="-72.89108684">
    <tag k="addr:city" v="Stratton" />
    <tag k="addr:housenumber" v="39" />
    <tag k="addr:street" v="Sun Bowl Ridge Road" />
    <tag k="addr:state" v="VT" />
    <tag k="ref:vcgi:esiteid" v="253259" />
  </node>
  <node id="-556" visible="true" lat="43.10052972" lon="-72.89116232">
    <tag k="addr:city" v="Stratton" />
    <tag k="addr:housenumber" v="43" />
    <tag k="addr:street" v="Sun Bowl Ridge Road" />
    <tag k="addr:state" v="VT" />
    <tag k="ref:vcgi:esiteid" v="253260" />
  </node>
  <node id="-557" visible="true" lat="43.10083076" lon="-72.89117598">
    <tag k="addr:city" v="Stratton" />
    <tag k="addr:housenumber" v="47" />
    <tag k="addr:street" v="Sun Bowl Ridge Road" />
    <tag k="addr:state" v="VT" />
    <tag k="ref:vcgi:esiteid" v="253261" />
  </node>
  <node id="-558" visible="true" lat="43.10118485" lon="-72.89129096">
    <tag k="addr:city" v="Stratton" />
    <tag k="addr:housenumber" v="55" />
    <tag k="addr:street" v="Sun Bowl Ridge Road" />
    <tag k="addr:state" v="VT" />
    <tag k="ref:vcgi:esiteid" v="253262" />
  </node>
  <node id="-559" visible="true" lat="43.10145335" lon="-72.89154251">
    <tag k="addr:city" v="Stratton" />
    <tag k="addr:housenumber" v="59" />
    <tag k="addr:street" v="Sun Bowl Ridge Road" />
    <tag k="addr:state" v="VT" />
    <tag k="ref:vcgi:esiteid" v="253263" />
  </node>
  <node id="-560" visible="true" lat="43.10172955" lon="-72.89179116">
    <tag k="addr:city" v="Stratton" />
    <tag k="addr:housenumber" v="63" />
    <tag k="addr:street" v="Sun Bowl Ridge Road" />
    <tag k="addr:state" v="VT" />
    <tag k="ref:vcgi:esiteid" v="253264" />
  </node>
  <node id="-561" visible="true" lat="43.10199038" lon="-72.89206822">
    <tag k="addr:city" v="Stratton" />
    <tag k="addr:housenumber" v="69" />
    <tag k="addr:street" v="Sun Bowl Ridge Road" />
    <tag k="addr:state" v="VT" />
    <tag k="ref:vcgi:esiteid" v="253265" />
  </node>
  <node id="-562" visible="true" lat="43.10232206" lon="-72.89233244">
    <tag k="addr:city" v="Stratton" />
    <tag k="addr:housenumber" v="73" />
    <tag k="addr:street" v="Sun Bowl Ridge Road" />
    <tag k="addr:state" v="VT" />
    <tag k="ref:vcgi:esiteid" v="253266" />
  </node>
  <node id="-563" visible="true" lat="43.10256534" lon="-72.89261397">
    <tag k="addr:city" v="Stratton" />
    <tag k="addr:housenumber" v="77" />
    <tag k="addr:street" v="Sun Bowl Ridge Road" />
    <tag k="addr:state" v="VT" />
    <tag k="ref:vcgi:esiteid" v="253267" />
  </node>
  <node id="-564" visible="true" lat="43.10283675" lon="-72.89292968">
    <tag k="addr:city" v="Stratton" />
    <tag k="addr:housenumber" v="81" />
    <tag k="addr:street" v="Sun Bowl Ridge Road" />
    <tag k="addr:state" v="VT" />
    <tag k="ref:vcgi:esiteid" v="253268" />
  </node>
  <node id="-565" visible="true" lat="43.10309786" lon="-72.89312772">
    <tag k="addr:city" v="Stratton" />
    <tag k="addr:housenumber" v="85" />
    <tag k="addr:street" v="Sun Bowl Ridge Road" />
    <tag k="addr:state" v="VT" />
    <tag k="ref:vcgi:esiteid" v="253269" />
  </node>
  <node id="-566" visible="true" lat="43.10339163" lon="-72.89332654">
    <tag k="addr:city" v="Stratton" />
    <tag k="addr:housenumber" v="89" />
    <tag k="addr:street" v="Sun Bowl Ridge Road" />
    <tag k="addr:state" v="VT" />
    <tag k="ref:vcgi:esiteid" v="253270" />
  </node>
  <node id="-567" visible="true" lat="43.10361436" lon="-72.89364575">
    <tag k="addr:city" v="Stratton" />
    <tag k="addr:housenumber" v="91" />
    <tag k="addr:street" v="Sun Bowl Ridge Road" />
    <tag k="addr:state" v="VT" />
    <tag k="ref:vcgi:esiteid" v="253271" />
  </node>
  <node id="-568" visible="true" lat="43.10431748" lon="-72.8934785">
    <tag k="addr:city" v="Stratton" />
    <tag k="addr:housenumber" v="99" />
    <tag k="addr:street" v="Sun Bowl Ridge Road" />
    <tag k="addr:state" v="VT" />
    <tag k="ref:vcgi:esiteid" v="253272" />
  </node>
  <node id="-569" visible="true" lat="43.10480945" lon="-72.89313531">
    <tag k="addr:city" v="Stratton" />
    <tag k="addr:housenumber" v="103" />
    <tag k="addr:street" v="Sun Bowl Ridge Road" />
    <tag k="addr:state" v="VT" />
    <tag k="ref:vcgi:esiteid" v="253273" />
  </node>
  <node id="-570" visible="true" lat="43.10510626" lon="-72.89245642">
    <tag k="addr:city" v="Stratton" />
    <tag k="addr:housenumber" v="111" />
    <tag k="addr:street" v="Sun Bowl Ridge Road" />
    <tag k="addr:state" v="VT" />
    <tag k="ref:vcgi:esiteid" v="253274" />
  </node>
  <node id="-571" visible="true" lat="43.10057454" lon="-72.89021126">
    <tag k="addr:city" v="Stratton" />
    <tag k="addr:housenumber" v="44" />
    <tag k="addr:street" v="Sun Bowl Ridge Road" />
    <tag k="addr:state" v="VT" />
    <tag k="ref:vcgi:esiteid" v="253275" />
  </node>
  <node id="-572" visible="true" lat="43.10088714" lon="-72.89023012">
    <tag k="addr:city" v="Stratton" />
    <tag k="addr:housenumber" v="46" />
    <tag k="addr:street" v="Sun Bowl Ridge Road" />
    <tag k="addr:state" v="VT" />
    <tag k="ref:vcgi:esiteid" v="253276" />
  </node>
  <node id="-573" visible="true" lat="43.10118842" lon="-72.89042387">
    <tag k="addr:city" v="Stratton" />
    <tag k="addr:housenumber" v="48" />
    <tag k="addr:street" v="Sun Bowl Ridge Road" />
    <tag k="addr:state" v="VT" />
    <tag k="ref:vcgi:esiteid" v="253277" />
  </node>
  <node id="-574" visible="true" lat="43.10149492" lon="-72.89064782">
    <tag k="addr:city" v="Stratton" />
    <tag k="addr:housenumber" v="52" />
    <tag k="addr:street" v="Sun Bowl Ridge Road" />
    <tag k="addr:state" v="VT" />
    <tag k="ref:vcgi:esiteid" v="253278" />
  </node>
  <node id="-575" visible="true" lat="43.10185904" lon="-72.89099553">
    <tag k="addr:city" v="Stratton" />
    <tag k="addr:housenumber" v="62" />
    <tag k="addr:street" v="Sun Bowl Ridge Road" />
    <tag k="addr:state" v="VT" />
    <tag k="ref:vcgi:esiteid" v="253279" />
  </node>
  <node id="-576" visible="true" lat="43.10225468" lon="-72.89116434">
    <tag k="addr:city" v="Stratton" />
    <tag k="addr:housenumber" v="64" />
    <tag k="addr:street" v="Sun Bowl Ridge Road" />
    <tag k="addr:state" v="VT" />
    <tag k="ref:vcgi:esiteid" v="253280" />
  </node>
  <node id="-577" visible="true" lat="43.10285462" lon="-72.89197904">
    <tag k="addr:city" v="Stratton" />
    <tag k="addr:housenumber" v="76" />
    <tag k="addr:street" v="Sun Bowl Ridge Road" />
    <tag k="addr:state" v="VT" />
    <tag k="ref:vcgi:esiteid" v="253281" />
  </node>
  <node id="-578" visible="true" lat="43.10320625" lon="-72.89224588">
    <tag k="addr:city" v="Stratton" />
    <tag k="addr:housenumber" v="80" />
    <tag k="addr:street" v="Sun Bowl Ridge Road" />
    <tag k="addr:state" v="VT" />
    <tag k="ref:vcgi:esiteid" v="253282" />
  </node>
  <node id="-579" visible="true" lat="43.1035254" lon="-72.89243927">
    <tag k="addr:city" v="Stratton" />
    <tag k="addr:housenumber" v="90" />
    <tag k="addr:street" v="Sun Bowl Ridge Road" />
    <tag k="addr:state" v="VT" />
    <tag k="ref:vcgi:esiteid" v="253283" />
  </node>
  <node id="-580" visible="true" lat="43.10383804" lon="-72.89255243">
    <tag k="addr:city" v="Stratton" />
    <tag k="addr:housenumber" v="96" />
    <tag k="addr:street" v="Sun Bowl Ridge Road" />
    <tag k="addr:state" v="VT" />
    <tag k="ref:vcgi:esiteid" v="253284" />
  </node>
  <node id="-581" visible="true" lat="43.1042703" lon="-72.89241697">
    <tag k="addr:city" v="Stratton" />
    <tag k="addr:housenumber" v="104" />
    <tag k="addr:street" v="Sun Bowl Ridge Road" />
    <tag k="addr:state" v="VT" />
    <tag k="ref:vcgi:esiteid" v="253285" />
  </node>
  <node id="-582" visible="true" lat="43.10430288" lon="-72.89195513">
    <tag k="addr:city" v="Stratton" />
    <tag k="addr:housenumber" v="116" />
    <tag k="addr:street" v="Sun Bowl Ridge Road" />
    <tag k="addr:state" v="VT" />
    <tag k="ref:vcgi:esiteid" v="253286" />
  </node>
  <node id="-583" visible="true" lat="43.10395807" lon="-72.89171709">
    <tag k="addr:city" v="Stratton" />
    <tag k="addr:housenumber" v="122" />
    <tag k="addr:street" v="Sun Bowl Ridge Road" />
    <tag k="addr:state" v="VT" />
    <tag k="ref:vcgi:esiteid" v="253287" />
  </node>
  <node id="-584" visible="true" lat="43.10359001" lon="-72.89154179">
    <tag k="addr:city" v="Stratton" />
    <tag k="addr:housenumber" v="130" />
    <tag k="addr:street" v="Sun Bowl Ridge Road" />
    <tag k="addr:state" v="VT" />
    <tag k="ref:vcgi:esiteid" v="253288" />
  </node>
  <node id="-585" visible="true" lat="43.10324512" lon="-72.89132734">
    <tag k="addr:city" v="Stratton" />
    <tag k="addr:housenumber" v="136" />
    <tag k="addr:street" v="Sun Bowl Ridge Road" />
    <tag k="addr:state" v="VT" />
    <tag k="ref:vcgi:esiteid" v="253289" />
  </node>
  <node id="-586" visible="true" lat="43.10288541" lon="-72.89110055">
    <tag k="addr:city" v="Stratton" />
    <tag k="addr:housenumber" v="138" />
    <tag k="addr:street" v="Sun Bowl Ridge Road" />
    <tag k="addr:state" v="VT" />
    <tag k="ref:vcgi:esiteid" v="253290" />
  </node>
  <node id="-587" visible="true" lat="43.10261808" lon="-72.89074253">
    <tag k="addr:city" v="Stratton" />
    <tag k="addr:housenumber" v="144" />
    <tag k="addr:street" v="Sun Bowl Ridge Road" />
    <tag k="addr:state" v="VT" />
    <tag k="ref:vcgi:esiteid" v="253291" />
  </node>
  <node id="-588" visible="true" lat="43.10235495" lon="-72.89054342">
    <tag k="addr:city" v="Stratton" />
    <tag k="addr:housenumber" v="148" />
    <tag k="addr:street" v="Sun Bowl Ridge Road" />
    <tag k="addr:state" v="VT" />
    <tag k="ref:vcgi:esiteid" v="253292" />
  </node>
  <node id="-589" visible="true" lat="43.10207622" lon="-72.8902125">
    <tag k="addr:city" v="Stratton" />
    <tag k="addr:housenumber" v="152" />
    <tag k="addr:street" v="Sun Bowl Ridge Road" />
    <tag k="addr:state" v="VT" />
    <tag k="ref:vcgi:esiteid" v="253293" />
  </node>
  <node id="-590" visible="true" lat="43.10182541" lon="-72.89003726">
    <tag k="addr:city" v="Stratton" />
    <tag k="addr:housenumber" v="158" />
    <tag k="addr:street" v="Sun Bowl Ridge Road" />
    <tag k="addr:state" v="VT" />
    <tag k="ref:vcgi:esiteid" v="253294" />
  </node>
  <node id="-591" visible="true" lat="43.10145357" lon="-72.88987675">
    <tag k="addr:city" v="Stratton" />
    <tag k="addr:housenumber" v="166" />
    <tag k="addr:street" v="Sun Bowl Ridge Road" />
    <tag k="addr:state" v="VT" />
    <tag k="ref:vcgi:esiteid" v="253295" />
  </node>
  <node id="-592" visible="true" lat="43.1011313" lon="-72.88972406">
    <tag k="addr:city" v="Stratton" />
    <tag k="addr:housenumber" v="168" />
    <tag k="addr:street" v="Sun Bowl Ridge Road" />
    <tag k="addr:state" v="VT" />
    <tag k="ref:vcgi:esiteid" v="253296" />
  </node>
  <node id="-593" visible="true" lat="43.09869915" lon="-72.87313181">
    <tag k="addr:city" v="Stratton" />
    <tag k="addr:housenumber" v="106" />
    <tag k="addr:street" v="County Road" />
    <tag k="addr:state" v="VT" />
    <tag k="ref:vcgi:esiteid" v="253297" />
  </node>
  <node id="-594" visible="true" lat="43.11344852" lon="-72.91147315">
    <tag k="addr:city" v="Stratton" />
    <tag k="addr:housenumber" v="10" />
    <tag k="addr:street" v="Pond Road" />
    <tag k="addr:state" v="VT" />
    <tag k="ref:vcgi:esiteid" v="253298" />
  </node>
  <node id="-595" visible="true" lat="43.10331347" lon="-72.87377623">
    <tag k="addr:city" v="Stratton" />
    <tag k="addr:housenumber" v="26" />
    <tag k="addr:street" v="County Road" />
    <tag k="addr:state" v="VT" />
    <tag k="ref:vcgi:esiteid" v="253299" />
  </node>
  <node id="-596" visible="true" lat="43.10744575" lon="-72.88136004">
    <tag k="addr:city" v="Stratton" />
    <tag k="addr:housenumber" v="111" />
    <tag k="addr:street" v="Brazers Way" />
    <tag k="addr:state" v="VT" />
    <tag k="ref:vcgi:esiteid" v="253300" />
  </node>
  <node id="-597" visible="true" lat="43.0991353" lon="-72.8784391">
    <tag k="addr:city" v="Stratton" />
    <tag k="addr:housenumber" v="200" />
    <tag k="addr:street" v="County Road" />
    <tag k="addr:state" v="VT" />
    <tag k="ref:vcgi:esiteid" v="253301" />
  </node>
  <node id="-598" visible="true" lat="43.03386433" lon="-72.90208401">
    <tag k="addr:city" v="Stratton" />
    <tag k="addr:housenumber" v="14" />
    <tag k="addr:street" v="Augusta Lane" />
    <tag k="addr:state" v="VT" />
    <tag k="ref:vcgi:esiteid" v="253302" />
  </node>
  <node id="-599" visible="true" lat="43.0963509" lon="-72.87592415">
    <tag k="addr:city" v="Stratton" />
    <tag k="addr:housenumber" v="178" />
    <tag k="addr:street" v="County Road" />
    <tag k="addr:state" v="VT" />
    <tag k="ref:vcgi:esiteid" v="253303" />
  </node>
  <node id="-600" visible="true" lat="42.9931222" lon="-72.88281487">
    <tag k="addr:city" v="Stratton" />
    <tag k="addr:housenumber" v="52" />
    <tag k="addr:street" v="Forest Heights" />
    <tag k="addr:state" v="VT" />
    <tag k="ref:vcgi:esiteid" v="253304" />
  </node>
  <node id="-601" visible="true" lat="43.04173325" lon="-72.87763811">
    <tag k="addr:city" v="Stratton" />
    <tag k="addr:housenumber" v="206" />
    <tag k="addr:street" v="Canedy Road" />
    <tag k="addr:state" v="VT" />
    <tag k="ref:vcgi:esiteid" v="253306" />
  </node>
  <node id="-602" visible="true" lat="43.03911855" lon="-72.90456946">
    <tag k="addr:city" v="Stratton" />
    <tag k="addr:housenumber" v="619" />
    <tag k="addr:street" v="Stratton Arlington Road" />
    <tag k="addr:state" v="VT" />
    <tag k="ref:vcgi:esiteid" v="253307" />
  </node>
  <node id="-603" visible="true" lat="43.11413655" lon="-72.91049466">
    <tag k="addr:city" v="Stratton" />
    <tag k="addr:housenumber" v="9" />
    <tag k="addr:street" v="Pond Road" />
    <tag k="addr:state" v="VT" />
    <tag k="ref:vcgi:esiteid" v="253308" />
  </node>
  <node id="-604" visible="true" lat="43.04772069" lon="-72.88894636">
    <tag k="addr:city" v="Stratton" />
    <tag k="addr:housenumber" v="100" />
    <tag k="addr:street" v="Canedy Road" />
    <tag k="addr:state" v="VT" />
    <tag k="ref:vcgi:esiteid" v="253309" />
  </node>
  <node id="-605" visible="true" lat="43.02933182" lon="-72.89525995">
    <tag k="addr:city" v="Stratton" />
    <tag k="addr:housenumber" v="42" />
    <tag k="addr:street" v="Bills Road" />
    <tag k="addr:state" v="VT" />
    <tag k="ref:vcgi:esiteid" v="253310" />
  </node>
  <node id="-606" visible="true" lat="43.03564328" lon="-72.89698091">
    <tag k="addr:city" v="Stratton" />
    <tag k="addr:housenumber" v="523" />
    <tag k="addr:street" v="Stratton Arlington Road" />
    <tag k="addr:state" v="VT" />
    <tag k="ref:vcgi:esiteid" v="253311" />
  </node>
  <node id="-607" visible="true" lat="43.09969177" lon="-72.87212865">
    <tag k="addr:city" v="Stratton" />
    <tag k="addr:housenumber" v="92" />
    <tag k="addr:street" v="County Road" />
    <tag k="addr:state" v="VT" />
    <tag k="ref:vcgi:esiteid" v="253312" />
  </node>
  <node id="-608" visible="true" lat="43.09620478" lon="-72.8797222">
    <tag k="addr:city" v="Stratton" />
    <tag k="addr:housenumber" v="216" />
    <tag k="addr:street" v="County Road" />
    <tag k="addr:state" v="VT" />
    <tag k="ref:vcgi:esiteid" v="253313" />
  </node>
  <node id="-609" visible="true" lat="43.08582896" lon="-72.88065373">
    <tag k="addr:city" v="Stratton" />
    <tag k="addr:housenumber" v="454" />
    <tag k="addr:street" v="Mountain Road" />
    <tag k="addr:state" v="VT" />
    <tag k="ref:vcgi:esiteid" v="253314" />
  </node>
  <node id="-610" visible="true" lat="43.04966854" lon="-72.88471691">
    <tag k="addr:city" v="Stratton" />
    <tag k="addr:housenumber" v="73" />
    <tag k="addr:street" v="Canedy Road" />
    <tag k="addr:state" v="VT" />
    <tag k="ref:vcgi:esiteid" v="253316" />
  </node>
  <node id="-611" visible="true" lat="43.02939473" lon="-72.87502905">
    <tag k="addr:city" v="Stratton" />
    <tag k="addr:housenumber" v="34" />
    <tag k="addr:street" v="Jennifer Drive" />
    <tag k="addr:state" v="VT" />
    <tag k="ref:vcgi:esiteid" v="253317" />
  </node>
  <node id="-612" visible="true" lat="43.03679309" lon="-72.87759986">
    <tag k="addr:city" v="Stratton" />
    <tag k="addr:housenumber" v="114" />
    <tag k="addr:street" v="Leon Stocker Drive" />
    <tag k="addr:state" v="VT" />
    <tag k="ref:vcgi:esiteid" v="253318" />
  </node>
  <node id="-613" visible="true" lat="43.0432091" lon="-72.88255604">
    <tag k="addr:city" v="Stratton" />
    <tag k="addr:housenumber" v="144" />
    <tag k="addr:street" v="Canedy Road" />
    <tag k="addr:state" v="VT" />
    <tag k="ref:vcgi:esiteid" v="253319" />
  </node>
  <node id="-614" visible="true" lat="43.07860282" lon="-72.87337334">
    <tag k="addr:city" v="Stratton" />
    <tag k="addr:housenumber" v="25" />
    <tag k="addr:street" v="Forrester Road" />
    <tag k="addr:state" v="VT" />
    <tag k="ref:vcgi:esiteid" v="253320" />
  </node>
  <node id="-615" visible="true" lat="42.99404394" lon="-72.88873717">
    <tag k="addr:city" v="Stratton" />
    <tag k="addr:housenumber" v="621" />
    <tag k="addr:street" v="Vermont Route 100" />
    <tag k="addr:state" v="VT" />
    <tag k="ref:vcgi:esiteid" v="253321" />
  </node>
  <node id="-616" visible="true" lat="43.11309572" lon="-72.90950428">
    <tag k="addr:city" v="Stratton" />
    <tag k="addr:housenumber" v="74" />
    <tag k="addr:street" v="Founders Hill Road" />
    <tag k="addr:state" v="VT" />
    <tag k="ref:vcgi:esiteid" v="253322" />
  </node>
  <node id="-617" visible="true" lat="43.1102996" lon="-72.88201559">
    <tag k="addr:city" v="Stratton" />
    <tag k="addr:housenumber" v="67" />
    <tag k="addr:street" v="North Road" />
    <tag k="addr:state" v="VT" />
    <tag k="ref:vcgi:esiteid" v="253324" />
  </node>
  <node id="-618" visible="true" lat="43.04476619" lon="-72.92380451">
    <tag k="addr:city" v="Stratton" />
    <tag k="addr:housenumber" v="58" />
    <tag k="addr:street" v="Red Hawk Rise" />
    <tag k="addr:state" v="VT" />
    <tag k="ref:vcgi:esiteid" v="253325" />
  </node>
  <node id="-619" visible="true" lat="43.03488203" lon="-72.87985936">
    <tag k="addr:city" v="Stratton" />
    <tag k="addr:housenumber" v="51" />
    <tag k="addr:street" v="Leon Stocker Drive" />
    <tag k="addr:state" v="VT" />
    <tag k="ref:vcgi:esiteid" v="253326" />
  </node>
  <node id="-620" visible="true" lat="43.03412965" lon="-72.87519101">
    <tag k="addr:city" v="Stratton" />
    <tag k="addr:housenumber" v="158" />
    <tag k="addr:street" v="Leon Stocker Drive" />
    <tag k="addr:state" v="VT" />
    <tag k="ref:vcgi:esiteid" v="253327" />
  </node>
  <node id="-621" visible="true" lat="43.03358914" lon="-72.87659479">
    <tag k="addr:city" v="Stratton" />
    <tag k="addr:housenumber" v="189" />
    <tag k="addr:street" v="Kerri Ann Lane" />
    <tag k="addr:state" v="VT" />
    <tag k="ref:vcgi:esiteid" v="253328" />
  </node>
  <node id="-622" visible="true" lat="43.03498293" lon="-72.8780036">
    <tag k="addr:city" v="Stratton" />
    <tag k="addr:housenumber" v="215" />
    <tag k="addr:street" v="Kerri Ann Lane" />
    <tag k="addr:state" v="VT" />
    <tag k="ref:vcgi:esiteid" v="253329" />
  </node>
  <node id="-623" visible="true" lat="43.0584798" lon="-72.88864679">
    <tag k="addr:city" v="Stratton" />
    <tag k="addr:housenumber" v="75" />
    <tag k="addr:street" v="Snowy Pond" />
    <tag k="addr:state" v="VT" />
    <tag k="ref:vcgi:esiteid" v="253330" />
  </node>
  <node id="-624" visible="true" lat="43.04711185" lon="-72.88000924">
    <tag k="addr:city" v="Stratton" />
    <tag k="addr:housenumber" v="127" />
    <tag k="addr:street" v="Canedy Road" />
    <tag k="addr:state" v="VT" />
    <tag k="ref:vcgi:esiteid" v="253331" />
  </node>
  <node id="-625" visible="true" lat="43.05615558" lon="-72.9012943">
    <tag k="addr:city" v="Stratton" />
    <tag k="addr:housenumber" v="225" />
    <tag k="addr:street" v="West Jamaica Road" />
    <tag k="addr:state" v="VT" />
    <tag k="ref:vcgi:esiteid" v="253332" />
  </node>
  <node id="-626" visible="true" lat="43.09793416" lon="-72.87019826">
    <tag k="addr:city" v="Stratton" />
    <tag k="addr:housenumber" v="107" />
    <tag k="addr:street" v="County Road" />
    <tag k="addr:state" v="VT" />
    <tag k="ref:vcgi:esiteid" v="253333" />
  </node>
  <node id="-627" visible="true" lat="43.1075589" lon="-72.87019795">
    <tag k="addr:city" v="Stratton" />
    <tag k="addr:housenumber" v="324" />
    <tag k="addr:street" v="Pikes Falls Road" />
    <tag k="addr:state" v="VT" />
    <tag k="ref:vcgi:esiteid" v="253335" />
  </node>
  <node id="-628" visible="true" lat="43.10562324" lon="-72.87347368">
    <tag k="addr:city" v="Stratton" />
    <tag k="addr:housenumber" v="342" />
    <tag k="addr:street" v="Pikes Falls Road" />
    <tag k="addr:state" v="VT" />
    <tag k="ref:vcgi:esiteid" v="253336" />
  </node>
  <node id="-629" visible="true" lat="43.10681372" lon="-72.89773918">
    <tag k="addr:city" v="Stratton" />
    <tag k="addr:housenumber" v="4" />
    <tag k="addr:street" v="Hardwood Hill" />
    <tag k="addr:state" v="VT" />
    <tag k="ref:vcgi:esiteid" v="253337" />
  </node>
  <node id="-630" visible="true" lat="43.10685931" lon="-72.89831089">
    <tag k="addr:city" v="Stratton" />
    <tag k="addr:housenumber" v="8" />
    <tag k="addr:street" v="Hardwood Hill" />
    <tag k="addr:state" v="VT" />
    <tag k="ref:vcgi:esiteid" v="253338" />
  </node>
  <node id="-631" visible="true" lat="43.10650863" lon="-72.89708952">
    <tag k="addr:city" v="Stratton" />
    <tag k="addr:housenumber" v="3" />
    <tag k="addr:street" v="Balsam Corner" />
    <tag k="addr:state" v="VT" />
    <tag k="ref:vcgi:esiteid" v="253339" />
  </node>
  <node id="-632" visible="true" lat="43.10640894" lon="-72.89662924">
    <tag k="addr:city" v="Stratton" />
    <tag k="addr:housenumber" v="7" />
    <tag k="addr:street" v="Balsam Corner" />
    <tag k="addr:state" v="VT" />
    <tag k="ref:vcgi:esiteid" v="253340" />
  </node>
  <node id="-633" visible="true" lat="43.10622275" lon="-72.8962179">
    <tag k="addr:city" v="Stratton" />
    <tag k="addr:housenumber" v="11" />
    <tag k="addr:street" v="Balsam Corner" />
    <tag k="addr:state" v="VT" />
    <tag k="ref:vcgi:esiteid" v="253341" />
  </node>
  <node id="-634" visible="true" lat="43.10613314" lon="-72.89763146">
    <tag k="addr:city" v="Stratton" />
    <tag k="addr:housenumber" v="3" />
    <tag k="addr:street" v="Woodfern Run" />
    <tag k="addr:state" v="VT" />
    <tag k="ref:vcgi:esiteid" v="253342" />
  </node>
  <node id="-635" visible="true" lat="43.10593065" lon="-72.89720703">
    <tag k="addr:city" v="Stratton" />
    <tag k="addr:housenumber" v="7" />
    <tag k="addr:street" v="Woodfern Run" />
    <tag k="addr:state" v="VT" />
    <tag k="ref:vcgi:esiteid" v="253343" />
  </node>
  <node id="-636" visible="true" lat="43.1057371" lon="-72.89677415">
    <tag k="addr:city" v="Stratton" />
    <tag k="addr:housenumber" v="11" />
    <tag k="addr:street" v="Woodfern Run" />
    <tag k="addr:state" v="VT" />
    <tag k="ref:vcgi:esiteid" v="253344" />
  </node>
  <node id="-637" visible="true" lat="43.10646433" lon="-72.90057849">
    <tag k="addr:city" v="Stratton" />
    <tag k="addr:housenumber" v="12" />
    <tag k="addr:street" v="Winterberry Heights" />
    <tag k="addr:state" v="VT" />
    <tag k="ref:vcgi:esiteid" v="253345" />
  </node>
  <node id="-638" visible="true" lat="43.10650525" lon="-72.90107527">
    <tag k="addr:city" v="Stratton" />
    <tag k="addr:housenumber" v="16" />
    <tag k="addr:street" v="Winterberry Heights" />
    <tag k="addr:state" v="VT" />
    <tag k="ref:vcgi:esiteid" v="253346" />
  </node>
  <node id="-639" visible="true" lat="43.10656879" lon="-72.90158959">
    <tag k="addr:city" v="Stratton" />
    <tag k="addr:housenumber" v="20" />
    <tag k="addr:street" v="Winterberry Heights" />
    <tag k="addr:state" v="VT" />
    <tag k="ref:vcgi:esiteid" v="253347" />
  </node>
  <node id="-640" visible="true" lat="43.10663998" lon="-72.90204573">
    <tag k="addr:city" v="Stratton" />
    <tag k="addr:housenumber" v="24" />
    <tag k="addr:street" v="Winterberry Heights" />
    <tag k="addr:state" v="VT" />
    <tag k="ref:vcgi:esiteid" v="253348" />
  </node>
  <node id="-641" visible="true" lat="43.1067125" lon="-72.90259239">
    <tag k="addr:city" v="Stratton" />
    <tag k="addr:housenumber" v="28" />
    <tag k="addr:street" v="Winterberry Heights" />
    <tag k="addr:state" v="VT" />
    <tag k="ref:vcgi:esiteid" v="253349" />
  </node>
  <node id="-642" visible="true" lat="43.10722827" lon="-72.90059538">
    <tag k="addr:city" v="Stratton" />
    <tag k="addr:housenumber" v="4" />
    <tag k="addr:street" v="Dogwood Trail" />
    <tag k="addr:state" v="VT" />
    <tag k="ref:vcgi:esiteid" v="253350" />
  </node>
  <node id="-643" visible="true" lat="43.10732554" lon="-72.90113454">
    <tag k="addr:city" v="Stratton" />
    <tag k="addr:housenumber" v="8" />
    <tag k="addr:street" v="Dogwood Trail" />
    <tag k="addr:state" v="VT" />
    <tag k="ref:vcgi:esiteid" v="253351" />
  </node>
  <node id="-644" visible="true" lat="43.10755764" lon="-72.90020497">
    <tag k="addr:city" v="Stratton" />
    <tag k="addr:housenumber" v="4" />
    <tag k="addr:street" v="Viburnum Way" />
    <tag k="addr:state" v="VT" />
    <tag k="ref:vcgi:esiteid" v="253352" />
  </node>
  <node id="-645" visible="true" lat="43.10755215" lon="-72.89858329">
    <tag k="addr:city" v="Stratton" />
    <tag k="addr:housenumber" v="4" />
    <tag k="addr:street" v="Basswood Row" />
    <tag k="addr:state" v="VT" />
    <tag k="ref:vcgi:esiteid" v="253354" />
  </node>
  <node id="-646" visible="true" lat="43.10773357" lon="-72.89910248">
    <tag k="addr:city" v="Stratton" />
    <tag k="addr:housenumber" v="8" />
    <tag k="addr:street" v="Basswood Row" />
    <tag k="addr:state" v="VT" />
    <tag k="ref:vcgi:esiteid" v="253355" />
  </node>
  <node id="-647" visible="true" lat="43.107753" lon="-72.89695908">
    <tag k="addr:city" v="Stratton" />
    <tag k="addr:housenumber" v="5" />
    <tag k="addr:street" v="Beechwood Drive" />
    <tag k="addr:state" v="VT" />
    <tag k="ref:vcgi:esiteid" v="253356" />
  </node>
  <node id="-648" visible="true" lat="43.10774947" lon="-72.89745606">
    <tag k="addr:city" v="Stratton" />
    <tag k="addr:housenumber" v="6" />
    <tag k="addr:street" v="Beechwood Drive" />
    <tag k="addr:state" v="VT" />
    <tag k="ref:vcgi:esiteid" v="253357" />
  </node>
  <node id="-649" visible="true" lat="43.10734243" lon="-72.8956005">
    <tag k="addr:city" v="Stratton" />
    <tag k="addr:housenumber" v="5" />
    <tag k="addr:street" v="Cranberry Court" />
    <tag k="addr:state" v="VT" />
    <tag k="ref:vcgi:esiteid" v="253358" />
  </node>
  <node id="-650" visible="true" lat="43.10757235" lon="-72.89600816">
    <tag k="addr:city" v="Stratton" />
    <tag k="addr:housenumber" v="6" />
    <tag k="addr:street" v="Cranberry Court" />
    <tag k="addr:state" v="VT" />
    <tag k="ref:vcgi:esiteid" v="253359" />
  </node>
  <node id="-651" visible="true" lat="43.10769608" lon="-72.89646021">
    <tag k="addr:city" v="Stratton" />
    <tag k="addr:housenumber" v="10" />
    <tag k="addr:street" v="Cranberry Court" />
    <tag k="addr:state" v="VT" />
    <tag k="ref:vcgi:esiteid" v="253360" />
  </node>
  <node id="-652" visible="true" lat="43.10834699" lon="-72.89697628">
    <tag k="addr:city" v="Stratton" />
    <tag k="addr:housenumber" v="12" />
    <tag k="addr:street" v="Juniper Lane" />
    <tag k="addr:state" v="VT" />
    <tag k="ref:vcgi:esiteid" v="253361" />
  </node>
  <node id="-653" visible="true" lat="43.10826806" lon="-72.89648171">
    <tag k="addr:city" v="Stratton" />
    <tag k="addr:housenumber" v="8" />
    <tag k="addr:street" v="Juniper Lane" />
    <tag k="addr:state" v="VT" />
    <tag k="ref:vcgi:esiteid" v="253362" />
  </node>
  <node id="-654" visible="true" lat="43.0493069" lon="-72.92800794">
    <tag k="addr:city" v="Stratton" />
    <tag k="addr:housenumber" v="873" />
    <tag k="addr:street" v="Stratton Arlington Road" />
    <tag k="addr:state" v="VT" />
    <tag k="ref:vcgi:esiteid" v="253363" />
  </node>
  <node id="-655" visible="true" lat="43.04826635" lon="-72.92884663">
    <tag k="addr:city" v="Stratton" />
    <tag k="addr:housenumber" v="871" />
    <tag k="addr:street" v="Stratton Arlington Road" />
    <tag k="addr:state" v="VT" />
    <tag k="ref:vcgi:esiteid" v="253364" />
  </node>
  <node id="-656" visible="true" lat="43.03402422" lon="-72.90506404">
    <tag k="addr:city" v="Stratton" />
    <tag k="addr:housenumber" v="43" />
    <tag k="addr:street" v="Augusta Lane" />
    <tag k="addr:state" v="VT" />
    <tag k="ref:vcgi:esiteid" v="253365" />
  </node>
  <node id="-657" visible="true" lat="43.02921631" lon="-72.89428315">
    <tag k="addr:city" v="Stratton" />
    <tag k="addr:housenumber" v="48" />
    <tag k="addr:street" v="Bills Road" />
    <tag k="addr:state" v="VT" />
    <tag k="ref:vcgi:esiteid" v="253366" />
  </node>
  <node id="-658" visible="true" lat="43.02070954" lon="-72.88910479">
    <tag k="addr:city" v="Stratton" />
    <tag k="addr:housenumber" v="23" />
    <tag k="addr:street" v="Catey Rose Lane" />
    <tag k="addr:state" v="VT" />
    <tag k="ref:vcgi:esiteid" v="253367" />
  </node>
  <node id="-659" visible="true" lat="43.01792801" lon="-72.88233549">
    <tag k="addr:city" v="Stratton" />
    <tag k="addr:housenumber" v="193" />
    <tag k="addr:street" v="Penny Avenue" />
    <tag k="addr:state" v="VT" />
    <tag k="ref:vcgi:esiteid" v="253368" />
  </node>
  <node id="-660" visible="true" lat="42.9937631" lon="-72.88286292">
    <tag k="addr:city" v="Stratton" />
    <tag k="addr:housenumber" v="60" />
    <tag k="addr:street" v="Forest Heights" />
    <tag k="addr:state" v="VT" />
    <tag k="ref:vcgi:esiteid" v="253369" />
  </node>
  <node id="-661" visible="true" lat="43.00714214" lon="-72.88107377">
    <tag k="addr:city" v="Stratton" />
    <tag k="addr:housenumber" v="831" />
    <tag k="addr:street" v="Vermont Route 100" />
    <tag k="addr:state" v="VT" />
    <tag k="ref:vcgi:esiteid" v="253370" />
  </node>
  <node id="-662" visible="true" lat="42.99972224" lon="-72.88794309">
    <tag k="addr:city" v="Stratton" />
    <tag k="addr:housenumber" v="695" />
    <tag k="addr:street" v="Vermont Route 100" />
    <tag k="addr:state" v="VT" />
    <tag k="ref:vcgi:esiteid" v="253371" />
  </node>
  <node id="-663" visible="true" lat="43.03725092" lon="-72.8759582">
    <tag k="addr:city" v="Stratton" />
    <tag k="addr:housenumber" v="119" />
    <tag k="addr:street" v="Leon Stocker Drive" />
    <tag k="addr:state" v="VT" />
    <tag k="ref:vcgi:esiteid" v="253372" />
  </node>
  <node id="-664" visible="true" lat="43.10246034" lon="-72.87792679">
    <tag k="addr:city" v="Stratton" />
    <tag k="addr:housenumber" v="42" />
    <tag k="addr:street" v="Acer Road" />
    <tag k="addr:state" v="VT" />
    <tag k="ref:vcgi:esiteid" v="253373" />
  </node>
  <node id="-665" visible="true" lat="43.03722972" lon="-72.87478914">
    <tag k="addr:city" v="Stratton" />
    <tag k="addr:housenumber" v="121" />
    <tag k="addr:street" v="Leon Stocker Drive" />
    <tag k="addr:state" v="VT" />
    <tag k="ref:vcgi:esiteid" v="253374" />
  </node>
  <node id="-666" visible="true" lat="43.10521825" lon="-72.88707761">
    <tag k="addr:city" v="Stratton" />
    <tag k="addr:housenumber" v="6" />
    <tag k="addr:street" v="World Cup Circle" />
    <tag k="addr:state" v="VT" />
    <tag k="ref:vcgi:esiteid" v="253375" />
  </node>
  <node id="-667" visible="true" lat="43.1055106" lon="-72.88697744">
    <tag k="addr:city" v="Stratton" />
    <tag k="addr:housenumber" v="10" />
    <tag k="addr:street" v="World Cup Circle" />
    <tag k="addr:state" v="VT" />
    <tag k="ref:vcgi:esiteid" v="253376" />
  </node>
  <node id="-668" visible="true" lat="43.03503705" lon="-72.87544141">
    <tag k="addr:city" v="Stratton" />
    <tag k="addr:housenumber" v="145" />
    <tag k="addr:street" v="Leon Stocker Drive" />
    <tag k="addr:state" v="VT" />
    <tag k="ref:vcgi:esiteid" v="253377" />
  </node>
  <node id="-669" visible="true" lat="43.1135041" lon="-72.90255647">
    <tag k="addr:city" v="Stratton" />
    <tag k="addr:housenumber" v="78" />
    <tag k="addr:street" v="Middle Ridge Road" />
    <tag k="addr:state" v="VT" />
    <tag k="ref:vcgi:esiteid" v="253378" />
  </node>
  <node id="-670" visible="true" lat="43.08329917" lon="-72.87639197">
    <tag k="addr:city" v="Stratton" />
    <tag k="addr:housenumber" v="452" />
    <tag k="addr:street" v="Mountain Road" />
    <tag k="addr:state" v="VT" />
    <tag k="ref:vcgi:esiteid" v="253379" />
  </node>
  <node id="-671" visible="true" lat="43.10251201" lon="-72.89167435">
    <tag k="addr:city" v="Stratton" />
    <tag k="addr:housenumber" v="70" />
    <tag k="addr:street" v="Sun Bowl Ridge Road" />
    <tag k="addr:state" v="VT" />
    <tag k="ref:vcgi:esiteid" v="253380" />
  </node>
  <node id="-672" visible="true" lat="43.00745678" lon="-72.88239395">
    <tag k="addr:city" v="Stratton" />
    <tag k="addr:housenumber" v="42" />
    <tag k="addr:street" v="Penny Avenue" />
    <tag k="addr:state" v="VT" />
    <tag k="ref:vcgi:esiteid" v="253381" />
  </node>
  <node id="-673" visible="true" lat="43.0362441" lon="-72.89459676">
    <tag k="addr:city" v="Stratton" />
    <tag k="addr:housenumber" v="6" />
    <tag k="addr:street" v="Manicknung Lane" />
    <tag k="addr:state" v="VT" />
    <tag k="ref:vcgi:esiteid" v="253382" />
  </node>
  <node id="-674" visible="true" lat="43.03999388" lon="-72.89643405">
    <tag k="addr:city" v="Stratton" />
    <tag k="addr:housenumber" v="33" />
    <tag k="addr:street" v="Manicknung Lane" />
    <tag k="addr:state" v="VT" />
    <tag k="ref:vcgi:esiteid" v="253383" />
  </node>
  <node id="-675" visible="true" lat="43.05753953" lon="-72.88861872">
    <tag k="addr:city" v="Stratton" />
    <tag k="addr:housenumber" v="72" />
    <tag k="addr:street" v="Snowy Pond" />
    <tag k="addr:state" v="VT" />
    <tag k="ref:vcgi:esiteid" v="253384" />
  </node>
  <node id="-676" visible="true" lat="43.11199043" lon="-72.9011729">
    <tag k="addr:city" v="Stratton" />
    <tag k="addr:housenumber" v="801" />
    <tag k="addr:street" v="Stratton Mountain Access Road" />
    <tag k="addr:state" v="VT" />
    <tag k="ref:vcgi:esiteid" v="253385" />
  </node>
  <node id="-677" visible="true" lat="43.02444654" lon="-72.89463305">
    <tag k="addr:city" v="Stratton" />
    <tag k="addr:housenumber" v="152" />
    <tag k="addr:street" v="Willis Cemetery Road" />
    <tag k="addr:state" v="VT" />
    <tag k="ref:vcgi:esiteid" v="253386" />
  </node>
  <node id="-678" visible="true" lat="43.03299499" lon="-72.87507358">
    <tag k="addr:city" v="Stratton" />
    <tag k="addr:housenumber" v="177" />
    <tag k="addr:street" v="Leon Stocker Drive" />
    <tag k="addr:state" v="VT" />
    <tag k="ref:vcgi:esiteid" v="253387" />
  </node>
  <node id="-679" visible="true" lat="43.03444383" lon="-72.87723824">
    <tag k="addr:city" v="Stratton" />
    <tag k="addr:housenumber" v="195" />
    <tag k="addr:street" v="Kerri Ann Lane" />
    <tag k="addr:state" v="VT" />
    <tag k="ref:vcgi:esiteid" v="305578" />
  </node>
  <node id="-680" visible="true" lat="43.04617265" lon="-72.87825548">
    <tag k="addr:city" v="Stratton" />
    <tag k="addr:housenumber" v="161" />
    <tag k="addr:street" v="Canedy Road" />
    <tag k="addr:state" v="VT" />
    <tag k="ref:vcgi:esiteid" v="306539" />
  </node>
  <node id="-681" visible="true" lat="43.04304399" lon="-72.92384822">
    <tag k="addr:city" v="Stratton" />
    <tag k="addr:housenumber" v="35" />
    <tag k="addr:street" v="Eagles Crest" />
    <tag k="addr:state" v="VT" />
    <tag k="ref:vcgi:esiteid" v="307073" />
  </node>
  <node id="-682" visible="true" lat="43.03425881" lon="-72.87877005">
    <tag k="addr:city" v="Stratton" />
    <tag k="addr:housenumber" v="46" />
    <tag k="addr:street" v="Leon Stocker Drive" />
    <tag k="addr:state" v="VT" />
    <tag k="ref:vcgi:esiteid" v="316007" />
  </node>
  <node id="-683" visible="true" lat="43.03715113" lon="-72.8795508">
    <tag k="addr:city" v="Stratton" />
    <tag k="addr:housenumber" v="83" />
    <tag k="addr:street" v="Leon Stocker Drive" />
    <tag k="addr:state" v="VT" />
    <tag k="ref:vcgi:esiteid" v="316008" />
  </node>
  <node id="-684" visible="true" lat="42.99468947" lon="-72.88874533">
    <tag k="addr:city" v="Stratton" />
    <tag k="addr:housenumber" v="631" />
    <tag k="addr:street" v="Vermont Route 100" />
    <tag k="addr:state" v="VT" />
    <tag k="ref:vcgi:esiteid" v="316009" />
  </node>
  <node id="-685" visible="true" lat="43.10691047" lon="-72.89994887">
    <tag k="addr:city" v="Stratton" />
    <tag k="addr:housenumber" v="98" />
    <tag k="addr:street" v="Tree Top Road" />
    <tag k="addr:state" v="VT" />
    <tag k="ref:vcgi:esiteid" v="316065" />
  </node>
  <node id="-686" visible="true" lat="43.11427682" lon="-72.90257148">
    <tag k="addr:city" v="Stratton" />
    <tag k="addr:housenumber" v="66" />
    <tag k="addr:street" v="Middle Ridge Road" />
    <tag k="addr:state" v="VT" />
    <tag k="ref:vcgi:esiteid" v="317237" />
  </node>
  <node id="-687" visible="true" lat="43.11310113" lon="-72.89710629">
    <tag k="addr:city" v="Stratton" />
    <tag k="addr:housenumber" v="43" />
    <tag k="addr:street" v="East Birch Road" />
    <tag k="addr:state" v="VT" />
    <tag k="ref:vcgi:esiteid" v="317576" />
  </node>
  <node id="-688" visible="true" lat="43.04596035" lon="-72.9232709">
    <tag k="addr:city" v="Stratton" />
    <tag k="addr:housenumber" v="14" />
    <tag k="addr:street" v="Talon Drive" />
    <tag k="addr:state" v="VT" />
    <tag k="ref:vcgi:esiteid" v="317643" />
  </node>
  <node id="-689" visible="true" lat="43.10590038" lon="-72.89189301">
    <tag k="addr:city" v="Stratton" />
    <tag k="addr:housenumber" v="914" />
    <tag k="addr:street" v="Garry West Way" />
    <tag k="addr:state" v="VT" />
    <tag k="ref:vcgi:esiteid" v="317644" />
  </node>
  <node id="-690" visible="true" lat="43.10538701" lon="-72.89049411">
    <tag k="addr:city" v="Stratton" />
    <tag k="addr:housenumber" v="933" />
    <tag k="addr:street" v="Garry West Way" />
    <tag k="addr:state" v="VT" />
    <tag k="ref:vcgi:esiteid" v="317645" />
  </node>
  <node id="-691" visible="true" lat="43.05580056" lon="-72.88997987">
    <tag k="addr:city" v="Stratton" />
    <tag k="addr:housenumber" v="43" />
    <tag k="addr:street" v="Snowy Pond" />
    <tag k="addr:state" v="VT" />
    <tag k="ref:vcgi:esiteid" v="317646" />
  </node>
  <node id="-692" visible="true" lat="43.03392556" lon="-72.89498228">
    <tag k="addr:city" v="Stratton" />
    <tag k="addr:housenumber" v="497" />
    <tag k="addr:street" v="Stratton Arlington Road" />
    <tag k="addr:state" v="VT" />
    <tag k="ref:vcgi:esiteid" v="325284" />
  </node>
  <node id="-693" visible="true" lat="43.11426614" lon="-72.90435625">
    <tag k="addr:city" v="Stratton" />
    <tag k="addr:housenumber" v="759" />
    <tag k="addr:street" v="Stratton Mountain Access Road" />
    <tag k="addr:state" v="VT" />
    <tag k="ref:vcgi:esiteid" v="326614" />
  </node>
  <node id="-694" visible="true" lat="43.00618116" lon="-72.88038555">
    <tag k="addr:city" v="Stratton" />
    <tag k="addr:housenumber" v="830" />
    <tag k="addr:street" v="Vermont Route 100" />
    <tag k="addr:state" v="VT" />
    <tag k="ref:vcgi:esiteid" v="328289" />
  </node>
  <node id="-695" visible="true" lat="43.11222056" lon="-72.89688531">
    <tag k="addr:city" v="Stratton" />
    <tag k="addr:housenumber" v="35" />
    <tag k="addr:street" v="East Birch Road" />
    <tag k="addr:state" v="VT" />
    <tag k="ref:vcgi:esiteid" v="329270" />
  </node>
  <node id="-696" visible="true" lat="43.10942068" lon="-72.90366217">
    <tag k="addr:city" v="Stratton" />
    <tag k="addr:housenumber" v="26" />
    <tag k="addr:street" v="Tamarack Road" />
    <tag k="addr:state" v="VT" />
    <tag k="ref:vcgi:esiteid" v="329271" />
  </node>
  <node id="-697" visible="true" lat="43.107946" lon="-72.90358825">
    <tag k="addr:city" v="Stratton" />
    <tag k="addr:housenumber" v="33" />
    <tag k="addr:street" v="Tamarack Road" />
    <tag k="addr:state" v="VT" />
    <tag k="ref:vcgi:esiteid" v="329272" />
  </node>
  <node id="-698" visible="true" lat="43.10781007" lon="-72.90402494">
    <tag k="addr:city" v="Stratton" />
    <tag k="addr:housenumber" v="35" />
    <tag k="addr:street" v="Tamarack Road" />
    <tag k="addr:state" v="VT" />
    <tag k="ref:vcgi:esiteid" v="329273" />
  </node>
  <node id="-699" visible="true" lat="43.10880179" lon="-72.90388378">
    <tag k="addr:city" v="Stratton" />
    <tag k="addr:housenumber" v="36" />
    <tag k="addr:street" v="Tamarack Road" />
    <tag k="addr:state" v="VT" />
    <tag k="ref:vcgi:esiteid" v="329274" />
  </node>
  <node id="-700" visible="true" lat="43.1093401" lon="-72.90452281">
    <tag k="addr:city" v="Stratton" />
    <tag k="addr:housenumber" v="44" />
    <tag k="addr:street" v="Tamarack Road" />
    <tag k="addr:state" v="VT" />
    <tag k="ref:vcgi:esiteid" v="329275" />
  </node>
  <node id="-701" visible="true" lat="43.10978344" lon="-72.90475625">
    <tag k="addr:city" v="Stratton" />
    <tag k="addr:housenumber" v="50" />
    <tag k="addr:street" v="Tamarack Road" />
    <tag k="addr:state" v="VT" />
    <tag k="ref:vcgi:esiteid" v="329276" />
  </node>
  <node id="-702" visible="true" lat="43.10860795" lon="-72.90561299">
    <tag k="addr:city" v="Stratton" />
    <tag k="addr:housenumber" v="47" />
    <tag k="addr:street" v="Tamarack Road" />
    <tag k="addr:state" v="VT" />
    <tag k="ref:vcgi:esiteid" v="329277" />
  </node>
  <node id="-703" visible="true" lat="43.10982973" lon="-72.90601882">
    <tag k="addr:city" v="Stratton" />
    <tag k="addr:housenumber" v="64" />
    <tag k="addr:street" v="Tamarack Road" />
    <tag k="addr:state" v="VT" />
    <tag k="ref:vcgi:esiteid" v="329278" />
  </node>
  <node id="-704" visible="true" lat="43.10899641" lon="-72.90669413">
    <tag k="addr:city" v="Stratton" />
    <tag k="addr:housenumber" v="71" />
    <tag k="addr:street" v="Tamarack Road" />
    <tag k="addr:state" v="VT" />
    <tag k="ref:vcgi:esiteid" v="329279" />
  </node>
  <node id="-705" visible="true" lat="43.10900321" lon="-72.90812819">
    <tag k="addr:city" v="Stratton" />
    <tag k="addr:housenumber" v="73" />
    <tag k="addr:street" v="Tamarack Road" />
    <tag k="addr:state" v="VT" />
    <tag k="ref:vcgi:esiteid" v="329280" />
  </node>
  <node id="-706" visible="true" lat="43.10879102" lon="-72.90738572">
    <tag k="addr:city" v="Stratton" />
    <tag k="addr:housenumber" v="75" />
    <tag k="addr:street" v="Tamarack Road" />
    <tag k="addr:state" v="VT" />
    <tag k="ref:vcgi:esiteid" v="329281" />
  </node>
  <node id="-707" visible="true" lat="43.10966991" lon="-72.90794953">
    <tag k="addr:city" v="Stratton" />
    <tag k="addr:housenumber" v="77" />
    <tag k="addr:street" v="Tamarack Road" />
    <tag k="addr:state" v="VT" />
    <tag k="ref:vcgi:esiteid" v="329282" />
  </node>
  <node id="-708" visible="true" lat="43.11488094" lon="-72.90336374">
    <tag k="addr:city" v="Stratton" />
    <tag k="addr:housenumber" v="43" />
    <tag k="addr:street" v="Middle Ridge Road" />
    <tag k="addr:state" v="VT" />
    <tag k="ref:vcgi:esiteid" v="329543" />
  </node>
  <node id="-709" visible="true" lat="43.11132313" lon="-72.8997932">
    <tag k="addr:city" v="Stratton" />
    <tag k="addr:housenumber" v="2" />
    <tag k="addr:street" v="Shattarack Road" />
    <tag k="addr:state" v="VT" />
    <tag k="ref:vcgi:esiteid" v="329869" />
  </node>
  <node id="-710" visible="true" lat="43.03555034" lon="-72.89452353">
    <tag k="addr:city" v="Stratton" />
    <tag k="addr:housenumber" v="9" />
    <tag k="addr:street" v="Tudo Road" />
    <tag k="addr:state" v="VT" />
    <tag k="ref:vcgi:esiteid" v="332371" />
  </node>
  <node id="-711" visible="true" lat="43.09576869" lon="-72.9204818">
    <tag k="addr:city" v="Stratton" />
    <tag k="addr:housenumber" v="2199" />
    <tag k="addr:street" v="Maintenance Road" />
    <tag k="addr:state" v="VT" />
    <tag k="ref:vcgi:esiteid" v="334079" />
  </node>
  <node id="-712" visible="true" lat="43.11441106" lon="-72.90862615">
    <tag k="addr:city" v="Stratton" />
    <tag k="addr:housenumber" v="91" />
    <tag k="addr:street" v="Founders Hill Road" />
    <tag k="addr:state" v="VT" />
    <tag k="ref:vcgi:esiteid" v="334847" />
  </node>
  <node id="-713" visible="true" lat="43.11138497" lon="-72.91657961">
    <tag k="addr:city" v="Stratton" />
    <tag k="addr:housenumber" v="127" />
    <tag k="addr:street" v="North Brookwood Road" />
    <tag k="addr:state" v="VT" />
    <tag k="ref:vcgi:esiteid" v="334848" />
  </node>
  <node id="-714" visible="true" lat="43.03769556" lon="-72.8999969">
    <tag k="addr:city" v="Stratton" />
    <tag k="addr:housenumber" v="573" />
    <tag k="addr:street" v="Stratton Arlington Road" />
    <tag k="addr:state" v="VT" />
    <tag k="ref:vcgi:esiteid" v="338031" />
  </node>
  <node id="-715" visible="true" lat="43.04037808" lon="-72.87695741">
    <tag k="addr:city" v="Stratton" />
    <tag k="addr:housenumber" v="216" />
    <tag k="addr:street" v="Canedy Road" />
    <tag k="addr:state" v="VT" />
    <tag k="ref:vcgi:esiteid" v="338109" />
  </node>
  <node id="-716" visible="true" lat="43.0155117" lon="-72.89251825">
    <tag k="addr:city" v="Stratton" />
    <tag k="addr:housenumber" v="226" />
    <tag k="addr:street" v="Pike Hollow Road" />
    <tag k="addr:state" v="VT" />
    <tag k="ref:vcgi:esiteid" v="338110" />
  </node>
  <node id="-717" visible="true" lat="43.11012558" lon="-72.8772381">
    <tag k="addr:city" v="Stratton" />
    <tag k="addr:housenumber" v="413" />
    <tag k="addr:street" v="Pikes Falls Road" />
    <tag k="addr:state" v="VT" />
    <tag k="ref:vcgi:esiteid" v="338111" />
  </node>
  <node id="-718" visible="true" lat="43.05328402" lon="-72.9163994">
    <tag k="addr:city" v="Stratton" />
    <tag k="addr:housenumber" v="137" />
    <tag k="addr:street" v="Old Town Road" />
    <tag k="addr:state" v="VT" />
    <tag k="ref:vcgi:esiteid" v="338113" />
  </node>
  <node id="-719" visible="true" lat="43.05120207" lon="-72.89843439">
    <tag k="addr:city" v="Stratton" />
    <tag k="addr:housenumber" v="35" />
    <tag k="addr:street" v="Ball Farm Road" />
    <tag k="addr:state" v="VT" />
    <tag k="ref:vcgi:esiteid" v="338114" />
  </node>
  <node id="-720" visible="true" lat="43.02311566" lon="-72.89775384">
    <tag k="addr:city" v="Stratton" />
    <tag k="addr:housenumber" v="190" />
    <tag k="addr:street" v="Willis Cemetery Road" />
    <tag k="addr:state" v="VT" />
    <tag k="ref:vcgi:esiteid" v="338115" />
  </node>
  <node id="-721" visible="true" lat="43.09462633" lon="-72.88621086">
    <tag k="addr:city" v="Stratton" />
    <tag k="addr:housenumber" v="25" />
    <tag k="addr:street" v="Stone Chimney Road" />
    <tag k="addr:state" v="VT" />
    <tag k="ref:vcgi:esiteid" v="338116" />
  </node>
  <node id="-722" visible="true" lat="43.10945764" lon="-72.877003">
    <tag k="addr:city" v="Stratton" />
    <tag k="addr:housenumber" v="391" />
    <tag k="addr:street" v="Pikes Falls Road" />
    <tag k="addr:state" v="VT" />
    <tag k="ref:vcgi:esiteid" v="339157" />
  </node>
  <node id="-723" visible="true" lat="43.03344113" lon="-72.89349568">
    <tag k="addr:city" v="Stratton" />
    <tag k="addr:housenumber" v="477" />
    <tag k="addr:street" v="Stratton Arlington Road" />
    <tag k="addr:state" v="VT" />
    <tag k="ref:vcgi:esiteid" v="340079" />
  </node>
  <node id="-724" visible="true" lat="43.05289464" lon="-72.88746945">
    <tag k="addr:city" v="Stratton" />
    <tag k="addr:housenumber" v="374" />
    <tag k="addr:street" v="West Jamaica Road" />
    <tag k="addr:state" v="VT" />
    <tag k="ref:vcgi:esiteid" v="341760" />
  </node>
  <node id="-725" visible="true" lat="43.04779887" lon="-72.91968216">
    <tag k="addr:city" v="Stratton" />
    <tag k="addr:housenumber" v="806" />
    <tag k="addr:street" v="Stratton Arlington Road" />
    <tag k="addr:state" v="VT" />
    <tag k="ref:vcgi:esiteid" v="344186" />
  </node>
  <node id="-726" visible="true" lat="43.10107717" lon="-72.87461727">
    <tag k="addr:city" v="Stratton" />
    <tag k="addr:housenumber" v="76" />
    <tag k="addr:street" v="County Road" />
    <tag k="addr:state" v="VT" />
    <tag k="ref:vcgi:esiteid" v="345787" />
  </node>
  <node id="-727" visible="true" lat="43.02400058" lon="-72.87839501">
    <tag k="addr:city" v="Stratton" />
    <tag k="addr:housenumber" v="44" />
    <tag k="addr:street" v="Pike Hollow Road" />
    <tag k="addr:state" v="VT" />
    <tag k="ref:vcgi:esiteid" v="447926" />
  </node>
  <node id="-728" visible="true" lat="43.05670891" lon="-72.89808721">
    <tag k="addr:city" v="Stratton" />
    <tag k="addr:housenumber" v="254" />
    <tag k="addr:street" v="West Jamaica Road" />
    <tag k="addr:state" v="VT" />
    <tag k="ref:vcgi:esiteid" v="449537" />
  </node>
  <node id="-729" visible="true" lat="43.03356385" lon="-72.87577766">
    <tag k="addr:city" v="Stratton" />
    <tag k="addr:housenumber" v="188" />
    <tag k="addr:street" v="Kerri Ann Lane" />
    <tag k="addr:state" v="VT" />
    <tag k="ref:vcgi:esiteid" v="450432" />
  </node>
  <node id="-730" visible="true" lat="43.10377279" lon="-72.89912499">
    <tag k="addr:city" v="Stratton" />
    <tag k="addr:housenumber" v="18" />
    <tag k="addr:street" v="Woodfern Run" />
    <tag k="addr:state" v="VT" />
    <tag k="ref:vcgi:esiteid" v="451505" />
  </node>
  <node id="-731" visible="true" lat="43.10609525" lon="-72.88702494">
    <tag k="addr:city" v="Stratton" />
    <tag k="addr:housenumber" v="14" />
    <tag k="addr:street" v="World Cup Circle" />
    <tag k="addr:state" v="VT" />
    <tag k="ref:vcgi:esiteid" v="453617" />
  </node>
  <node id="-732" visible="true" lat="43.05771298" lon="-72.88761516">
    <tag k="addr:city" v="Stratton" />
    <tag k="addr:housenumber" v="820" />
    <tag k="addr:street" v="Mountain Road" />
    <tag k="addr:state" v="VT" />
    <tag k="ref:vcgi:esiteid" v="454386" />
  </node>
  <node id="-733" visible="true" lat="43.09365352" lon="-72.87538755">
    <tag k="addr:city" v="Stratton" />
    <tag k="addr:housenumber" v="23" />
    <tag k="addr:street" v="Gold Medal Circle" />
    <tag k="addr:state" v="VT" />
    <tag k="ref:vcgi:esiteid" v="455560" />
  </node>
  <node id="-734" visible="true" lat="43.09202951" lon="-72.87913613">
    <tag k="addr:city" v="Stratton" />
    <tag k="addr:housenumber" v="234" />
    <tag k="addr:street" v="Mountain Road" />
    <tag k="addr:state" v="VT" />
    <tag k="ref:vcgi:esiteid" v="610579" />
  </node>
  <node id="-735" visible="true" lat="43.10168343" lon="-72.87498839">
    <tag k="addr:city" v="Stratton" />
    <tag k="addr:housenumber" v="86" />
    <tag k="addr:street" v="Acer Road" />
    <tag k="addr:state" v="VT" />
    <tag k="ref:vcgi:esiteid" v="610818" />
  </node>
  <node id="-736" visible="true" lat="43.0523311" lon="-72.90040627">
    <tag k="addr:city" v="Stratton" />
    <tag k="addr:housenumber" v="17" />
    <tag k="addr:street" v="Ball Farm Road" />
    <tag k="addr:state" v="VT" />
    <tag k="ref:vcgi:esiteid" v="613093" />
  </node>
  <node id="-737" visible="true" lat="43.05076764" lon="-72.90145745">
    <tag k="addr:city" v="Stratton" />
    <tag k="addr:housenumber" v="3" />
    <tag k="addr:street" v="Ball Farm Road" />
    <tag k="addr:state" v="VT" />
    <tag k="ref:vcgi:esiteid" v="613144" />
  </node>
  <node id="-740" visible="true" lat="43.03644054" lon="-72.8796066">
    <tag k="addr:city" v="Stratton" />
    <tag k="addr:housenumber" v="71" />
    <tag k="addr:street" v="Leon Stocker Drive" />
    <tag k="addr:state" v="VT" />
    <tag k="ref:vcgi:esiteid" v="617917" />
  </node>
  <node id="-741" visible="true" lat="43.11373215" lon="-72.92371633">
    <tag k="addr:city" v="Stratton" />
    <tag k="addr:housenumber" v="118" />
    <tag k="addr:street" v="West Ridge Road" />
    <tag k="addr:state" v="VT" />
    <tag k="ref:vcgi:esiteid" v="620378" />
  </node>
  <node id="-742" visible="true" lat="43.08587735" lon="-72.92480025">
    <tag k="addr:city" v="Stratton" />
    <tag k="addr:housenumber" v="2150" />
    <tag k="addr:street" v="Maintenance Road" />
    <tag k="addr:state" v="VT" />
    <tag k="ref:vcgi:esiteid" v="620757" />
  </node>
  <node id="-743" visible="true" lat="43.08619517" lon="-72.92496408">
    <tag k="addr:city" v="Stratton" />
    <tag k="addr:housenumber" v="2148" />
    <tag k="addr:street" v="Maintenance Road" />
    <tag k="addr:state" v="VT" />
    <tag k="ref:vcgi:esiteid" v="620758" />
  </node>
  <node id="-744" visible="true" lat="43.10565239" lon="-72.91089956">
    <tag k="addr:city" v="Stratton" />
    <tag k="addr:housenumber" v="630" />
    <tag k="addr:street" v="Maintenance Road" />
    <tag k="addr:state" v="VT" />
    <tag k="ref:vcgi:esiteid" v="620759" />
  </node>
  <node id="-745" visible="true" lat="43.10548152" lon="-72.91188542">
    <tag k="addr:city" v="Stratton" />
    <tag k="addr:housenumber" v="656" />
    <tag k="addr:street" v="Maintenance Road" />
    <tag k="addr:state" v="VT" />
    <tag k="ref:vcgi:esiteid" v="620760" />
  </node>
  <node id="-746" visible="true" lat="43.11277094" lon="-72.91071626">
    <tag k="addr:city" v="Stratton" />
    <tag k="addr:housenumber" v="14" />
    <tag k="addr:street" v="Base Lodge Road" />
    <tag k="addr:state" v="VT" />
    <tag k="ref:vcgi:esiteid" v="620761" />
  </node>
  <node id="-747" visible="true" lat="43.09447415" lon="-72.87718545">
    <tag k="addr:city" v="Stratton" />
    <tag k="addr:housenumber" v="12" />
    <tag k="addr:street" v="Gold Medal Circle" />
    <tag k="addr:state" v="VT" />
    <tag k="ref:vcgi:esiteid" v="621019" />
  </node>
  <node id="-748" visible="true" lat="43.02512608" lon="-72.8885478">
    <tag k="addr:city" v="Stratton" />
    <tag k="addr:housenumber" v="69" />
    <tag k="addr:street" v="Willis Cemetery Road" />
    <tag k="addr:state" v="VT" />
    <tag k="ref:vcgi:esiteid" v="656119" />
  </node>
  <node id="-749" visible="true" lat="43.03783337" lon="-72.87755074">
    <tag k="addr:city" v="Stratton" />
    <tag k="addr:housenumber" v="8" />
    <tag k="addr:street" v="Remy Lane" />
    <tag k="addr:state" v="VT" />
    <tag k="ref:vcgi:esiteid" v="656120" />
  </node>
  <node id="-750" visible="true" lat="43.03928013" lon="-72.87722842">
    <tag k="addr:city" v="Stratton" />
    <tag k="addr:housenumber" v="18" />
    <tag k="addr:street" v="Remy Lane" />
    <tag k="addr:state" v="VT" />
    <tag k="ref:vcgi:esiteid" v="656121" />
  </node>
  <node id="-751" visible="true" lat="43.03930631" lon="-72.8779559">
    <tag k="addr:city" v="Stratton" />
    <tag k="addr:housenumber" v="19" />
    <tag k="addr:street" v="Remy Lane" />
    <tag k="addr:state" v="VT" />
    <tag k="ref:vcgi:esiteid" v="656122" />
  </node>
  <node id="-752" visible="true" lat="42.99697789" lon="-72.88686518">
    <tag k="addr:city" v="Stratton" />
    <tag k="addr:housenumber" v="668" />
    <tag k="addr:street" v="Vermont Route 100" />
    <tag k="addr:state" v="VT" />
    <tag k="ref:vcgi:esiteid" v="656123" />
  </node>
  <node id="-753" visible="true" lat="43.04882208" lon="-72.95800368">
    <tag k="addr:city" v="Stratton" />
    <tag k="addr:housenumber" v="68" />
    <tag k="addr:street" v="Grout Pond Road" />
    <tag k="addr:state" v="VT" />
    <tag k="ref:vcgi:esiteid" v="656139" />
  </node>
  <node id="-754" visible="true" lat="43.04718616" lon="-72.95161817">
    <tag k="addr:city" v="Stratton" />
    <tag k="addr:housenumber" v="220" />
    <tag k="addr:street" v="Grout Pond Road" />
    <tag k="addr:state" v="VT" />
    <tag k="ref:vcgi:esiteid" v="656140" />
  </node>
  <node id="-755" visible="true" lat="43.04790234" lon="-72.87524736">
    <tag k="addr:city" v="Stratton" />
    <tag k="addr:housenumber" v="193" />
    <tag k="addr:street" v="Canedy Road" />
    <tag k="addr:state" v="VT" />
    <tag k="ref:vcgi:esiteid" v="656268" />
  </node>
  <node id="-756" visible="true" lat="43.1025953" lon="-72.87145171">
    <tag k="addr:city" v="Stratton" />
    <tag k="addr:housenumber" v="293" />
    <tag k="addr:street" v="Pikes Falls Road" />
    <tag k="addr:state" v="VT" />
    <tag k="ref:vcgi:esiteid" v="753964" />
  </node>
  <node id="-757" visible="true" lat="43.04118122" lon="-72.90560248">
    <tag k="addr:city" v="Stratton" />
    <tag k="addr:housenumber" v="636" />
    <tag k="addr:street" v="Stratton Arlington Road" />
    <tag k="addr:state" v="VT" />
    <tag k="ref:vcgi:esiteid" v="754489" />
  </node>
  <node id="-758" visible="true" lat="43.05027153" lon="-72.90121938">
    <tag k="addr:city" v="Stratton" />
    <tag k="addr:housenumber" v="4" />
    <tag k="addr:street" v="Ball Farm Road" />
    <tag k="addr:state" v="VT" />
    <tag k="ref:vcgi:esiteid" v="755387" />
  </node>
  <node id="-759" visible="true" lat="43.0358023" lon="-72.87471476">
    <tag k="addr:city" v="Stratton" />
    <tag k="addr:housenumber" v="131" />
    <tag k="addr:street" v="Leon Stocker Drive" />
    <tag k="addr:state" v="VT" />
    <tag k="ref:vcgi:esiteid" v="755682" />
  </node>
  <node id="-761" visible="true" lat="43.10580901" lon="-72.87674442">
    <tag k="addr:city" v="Stratton" />
    <tag k="addr:housenumber" v="25" />
    <tag k="addr:street" v="Acer Road" />
    <tag k="addr:state" v="VT" />
    <tag k="ref:vcgi:esiteid" v="757095" />
  </node>
  <node id="-762" visible="true" lat="43.00687225" lon="-72.89714699">
    <tag k="addr:city" v="Stratton" />
    <tag k="addr:housenumber" v="245" />
    <tag k="addr:street" v="Pike Hollow Road" />
    <tag k="addr:state" v="VT" />
    <tag k="ref:vcgi:esiteid" v="757636" />
  </node>
  <node id="-763" visible="true" lat="43.0223763" lon="-72.88919279">
    <tag k="addr:city" v="Stratton" />
    <tag k="addr:housenumber" v="5" />
    <tag k="addr:street" v="Catey Rose Lane" />
    <tag k="addr:state" v="VT" />
    <tag k="ref:vcgi:esiteid" v="758092" />
  </node>
  <node id="-764" visible="true" lat="43.05425599" lon="-72.90023267">
    <tag k="addr:city" v="Stratton" />
    <tag k="addr:housenumber" v="208" />
    <tag k="addr:street" v="West Jamaica Road" />
    <tag k="addr:state" v="VT" />
    <tag k="ref:vcgi:esiteid" v="759259" />
  </node>
  <node id="-765" visible="true" lat="43.0490533" lon="-72.91825756">
    <tag k="addr:city" v="Stratton" />
    <tag k="addr:housenumber" v="35" />
    <tag k="addr:street" v="Plimpton Road" />
    <tag k="addr:state" v="VT" />
    <tag k="ref:vcgi:esiteid" v="759386" />
  </node>
  <node id="-767" visible="true" lat="43.03449553" lon="-72.87611357">
    <tag k="addr:city" v="Stratton" />
    <tag k="addr:housenumber" v="198" />
    <tag k="addr:street" v="Kerri Ann Lane" />
    <tag k="addr:state" v="VT" />
    <tag k="ref:vcgi:esiteid" v="760138" />
  </node>
  <node id="-768" visible="true" lat="43.05334607" lon="-72.90075075">
    <tag k="addr:city" v="Stratton" />
    <tag k="addr:housenumber" v="198" />
    <tag k="addr:street" v="West Jamaica Road" />
    <tag k="addr:state" v="VT" />
    <tag k="ref:vcgi:esiteid" v="760504" />
  </node>
  <node id="-769" visible="true" lat="43.04966897" lon="-72.90070114">
    <tag k="addr:city" v="Stratton" />
    <tag k="addr:housenumber" v="140" />
    <tag k="addr:street" v="West Jamaica Road" />
    <tag k="addr:state" v="VT" />
    <tag k="ref:vcgi:esiteid" v="760914" />
  </node>
  <node id="-770" visible="true" lat="43.02576852" lon="-72.89177665">
    <tag k="addr:city" v="Stratton" />
    <tag k="addr:housenumber" v="64" />
    <tag k="addr:street" v="Willis Cemetery Road" />
    <tag k="addr:state" v="VT" />
    <tag k="ref:vcgi:esiteid" v="760915" />
  </node>
  <node id="-771" visible="true" lat="43.02444491" lon="-72.88809841">
    <tag k="addr:city" v="Stratton" />
    <tag k="addr:housenumber" v="11" />
    <tag k="addr:street" v="Gagners Way" />
    <tag k="addr:state" v="VT" />
    <tag k="ref:vcgi:esiteid" v="760916" />
  </node>
  <node id="-772" visible="true" lat="43.05664965" lon="-72.89714251">
    <tag k="addr:city" v="Stratton" />
    <tag k="addr:housenumber" v="264" />
    <tag k="addr:street" v="West Jamaica Road" />
    <tag k="addr:state" v="VT" />
    <tag k="ref:vcgi:esiteid" v="761131" />
  </node>
  <node id="-773" visible="true" lat="43.1031527" lon="-72.87255496">
    <tag k="addr:city" v="Stratton" />
    <tag k="addr:housenumber" v="303" />
    <tag k="addr:street" v="Pikes Falls Road" />
    <tag k="addr:state" v="VT" />
    <tag k="ref:vcgi:esiteid" v="761299" />
  </node>
  <node id="-774" visible="true" lat="43.00706629" lon="-72.87885618">
    <tag k="addr:city" v="Stratton" />
    <tag k="addr:housenumber" v="836" />
    <tag k="addr:street" v="Vermont Route 100" />
    <tag k="addr:state" v="VT" />
    <tag k="ref:vcgi:esiteid" v="761881" />
  </node>
  <node id="-775" visible="true" lat="43.1062868" lon="-72.88638934">
    <tag k="addr:city" v="Stratton" />
    <tag k="addr:housenumber" v="12" />
    <tag k="addr:street" v="World Cup Circle" />
    <tag k="addr:state" v="VT" />
    <tag k="ref:vcgi:esiteid" v="762139" />
  </node>
  <node id="-776" visible="true" lat="43.107085" lon="-72.88805052">
    <tag k="addr:city" v="Stratton" />
    <tag k="addr:housenumber" v="24" />
    <tag k="addr:street" v="World Cup Circle" />
    <tag k="addr:state" v="VT" />
    <tag k="ref:vcgi:esiteid" v="762140" />
  </node>
  <node id="-777" visible="true" lat="43.0479458" lon="-72.90096603">
    <tag k="addr:city" v="Stratton" />
    <tag k="addr:housenumber" v="116" />
    <tag k="addr:street" v="West Jamaica Road" />
    <tag k="addr:state" v="VT" />
    <tag k="ref:vcgi:esiteid" v="762303" />
  </node>
  <node id="-778" visible="true" lat="43.0352132" lon="-72.87680018">
    <tag k="addr:city" v="Stratton" />
    <tag k="addr:housenumber" v="218" />
    <tag k="addr:street" v="Kerri Ann Lane" />
    <tag k="addr:state" v="VT" />
    <tag k="ref:vcgi:esiteid" v="762986" />
  </node>
  <node id="-779" visible="true" lat="43.05136999" lon="-72.89930488">
    <tag k="addr:city" v="Stratton" />
    <tag k="addr:housenumber" v="29" />
    <tag k="addr:street" v="Ball Farm Road" />
    <tag k="addr:state" v="VT" />
    <tag k="ref:vcgi:esiteid" v="764069" />
  </node>
  <node id="-780" visible="true" lat="43.03851747" lon="-72.87574779">
    <tag k="addr:city" v="Stratton" />
    <tag k="addr:housenumber" v="54" />
    <tag k="addr:street" v="Remy Lane" />
    <tag k="addr:state" v="VT" />
    <tag k="ref:vcgi:esiteid" v="764070" />
  </node>
  <node id="-781" visible="true" lat="43.10044051" lon="-72.87039607">
    <tag k="addr:city" v="Stratton" />
    <tag k="addr:housenumber" v="77" />
    <tag k="addr:street" v="County Road" />
    <tag k="addr:state" v="VT" />
    <tag k="ref:vcgi:esiteid" v="764178" />
  </node>
  <node id="-782" visible="true" lat="43.04594848" lon="-72.93968387">
    <tag k="addr:city" v="Stratton" />
    <tag k="addr:housenumber" v="1160" />
    <tag k="addr:street" v="Grout Pond Road" />
    <tag k="addr:state" v="VT" />
    <tag k="ref:vcgi:esiteid" v="765457" />
  </node>
  <node id="-785" visible="true" lat="43.07551464" lon="-72.87481834">
    <tag k="addr:city" v="Stratton" />
    <tag k="addr:housenumber" v="42" />
    <tag k="addr:street" v="Forrester Road" />
    <tag k="addr:state" v="VT" />
    <tag k="ref:vcgi:esiteid" v="765957" />
  </node>
  <node id="-786" visible="true" lat="43.02667206" lon="-72.88477339">
    <tag k="addr:city" v="Stratton" />
    <tag k="addr:housenumber" v="92" />
    <tag k="addr:street" v="Oakmont Lane" />
    <tag k="addr:state" v="VT" />
    <tag k="ref:vcgi:esiteid" v="767300" />
  </node>
  <node id="-787" visible="true" lat="43.06163896" lon="-72.98677618">
    <tag k="addr:city" v="Stratton" />
    <tag k="addr:housenumber" v="1670" />
    <tag k="addr:street" v="Stratton Arlington Road" />
    <tag k="addr:state" v="VT" />
    <tag k="ref:vcgi:esiteid" v="768387" />
  </node>
  <node id="-788" visible="true" lat="43.03790376" lon="-72.87749681">
    <tag k="addr:city" v="Stratton" />
    <tag k="addr:housenumber" v="10" />
    <tag k="addr:street" v="Remy Lane" />
    <tag k="addr:state" v="VT" />
    <tag k="ref:vcgi:esiteid" v="768452" />
  </node>
  <node id="-789" visible="true" lat="43.02447223" lon="-72.89344351">
    <tag k="addr:city" v="Stratton" />
    <tag k="addr:housenumber" v="140" />
    <tag k="addr:street" v="Willis Cemetery Road" />
    <tag k="addr:state" v="VT" />
    <tag k="ref:vcgi:esiteid" v="769932" />
  </node>
  <node id="-790" visible="true" lat="43.05915004" lon="-72.9568036">
    <tag k="addr:city" v="Stratton" />
    <tag k="addr:housenumber" v="1248" />
    <tag k="addr:street" v="Stratton Arlington Road" />
    <tag k="addr:state" v="VT" />
    <tag k="ref:vcgi:esiteid" v="1050294" />
  </node>
  <node id="-791" visible="true" lat="43.05032595" lon="-72.90447811">
    <tag k="addr:city" v="Stratton" />
    <tag k="addr:housenumber" v="35" />
    <tag k="addr:street" v="Old Town Road" />
    <tag k="addr:state" v="VT" />
    <tag k="ref:vcgi:esiteid" v="1050295" />
  </node>
  <node id="-792" visible="true" lat="43.05001981" lon="-72.90484242">
    <tag k="addr:city" v="Stratton" />
    <tag k="addr:housenumber" v="37" />
    <tag k="addr:street" v="Old Town Road" />
    <tag k="addr:state" v="VT" />
    <tag k="ref:vcgi:esiteid" v="1050296" />
  </node>
  <node id="-793" visible="true" lat="43.0968981" lon="-72.88904672">
    <tag k="addr:city" v="Stratton" />
    <tag k="addr:housenumber" v="53" />
    <tag k="addr:street" v="Sun Bowl Road" />
    <tag k="addr:state" v="VT" />
    <tag k="ref:vcgi:esiteid" v="1050306" />
  </node>
  <node id="-794" visible="true" lat="43.10783" lon="-72.89267">
    <tag k="addr:city" v="Stratton" />
    <tag k="addr:housenumber" v="2411" />
    <tag k="addr:street" v="Stratton Mountain Access Road" />
    <tag k="addr:state" v="VT" />
    <tag k="ref:vcgi:esiteid" v="1050307" />
  </node>
  <node id="-795" visible="true" lat="43.1126666" lon="-72.89632517">
    <tag k="addr:city" v="Stratton" />
    <tag k="addr:housenumber" v="39" />
    <tag k="addr:street" v="East Birch Road" />
    <tag k="addr:state" v="VT" />
    <tag k="ref:vcgi:esiteid" v="1050308" />
  </node>
  <node id="-796" visible="true" lat="43.11094247" lon="-72.87570535">
    <tag k="addr:city" v="Stratton" />
    <tag k="addr:housenumber" v="412" />
    <tag k="addr:street" v="Pikes Falls Road" />
    <tag k="addr:state" v="VT" />
    <tag k="ref:vcgi:esiteid" v="1050309" />
  </node>
  <node id="-797" visible="true" lat="43.11217" lon="-72.901">
    <tag k="addr:city" v="Stratton" />
    <tag k="addr:housenumber" v="799" />
    <tag k="addr:street" v="Stratton Mountain Access Road" />
    <tag k="addr:state" v="VT" />
    <tag k="ref:vcgi:esiteid" v="1050310" />
  </node>
  <node id="-798" visible="true" lat="43.10719299" lon="-72.94003296">
    <tag k="addr:city" v="Stratton" />
    <tag k="addr:housenumber" v="144" />
    <tag k="addr:street" v="West Ridge Road" />
    <tag k="addr:state" v="VT" />
    <tag k="ref:vcgi:esiteid" v="1050334" />
  </node>
</osm>
