<?xml version="1.0" encoding="UTF-8"?>
<osm version="0.6" generator="JOSM">
  <node id="-100" visible="true" lat="43.49493012" lon="-73.07890696">
    <tag k="addr:city" v="Tinmouth" />
    <tag k="addr:housenumber" v="221" />
    <tag k="addr:street" v="Vermont Route 133 Morgan Road" />
    <tag k="addr:state" v="VT" />
    <tag k="ref:vcgi:esiteid" v="259917" />
  </node>
  <node id="-101" visible="true" lat="43.49374008" lon="-73.07761382">
    <tag k="addr:city" v="Tinmouth" />
    <tag k="addr:housenumber" v="189" />
    <tag k="addr:street" v="Vermont Route 133 Morgan Road" />
    <tag k="addr:state" v="VT" />
    <tag k="ref:vcgi:esiteid" v="259918" />
  </node>
  <node id="-102" visible="true" lat="43.49319839" lon="-73.07758331">
    <tag k="addr:city" v="Tinmouth" />
    <tag k="addr:housenumber" v="187" />
    <tag k="addr:street" v="Vermont Route 133 Morgan Road" />
    <tag k="addr:state" v="VT" />
    <tag k="ref:vcgi:esiteid" v="259919" />
  </node>
  <node id="-103" visible="true" lat="43.49275588" lon="-73.07655334">
    <tag k="addr:city" v="Tinmouth" />
    <tag k="addr:housenumber" v="184" />
    <tag k="addr:street" v="Vermont Route 133 Morgan Road" />
    <tag k="addr:state" v="VT" />
    <tag k="ref:vcgi:esiteid" v="259920" />
  </node>
  <node id="-104" visible="true" lat="43.49210739" lon="-73.07640075">
    <tag k="addr:city" v="Tinmouth" />
    <tag k="addr:housenumber" v="166" />
    <tag k="addr:street" v="Vermont Route 133 Morgan Road" />
    <tag k="addr:state" v="VT" />
    <tag k="ref:vcgi:esiteid" v="259921" />
  </node>
  <node id="-105" visible="true" lat="43.49050903" lon="-73.02010345">
    <tag k="addr:city" v="Tinmouth" />
    <tag k="addr:housenumber" v="537" />
    <tag k="addr:street" v="North End Road" />
    <tag k="addr:state" v="VT" />
    <tag k="ref:vcgi:esiteid" v="259922" />
  </node>
  <node id="-106" visible="true" lat="43.49008178" lon="-73.01425933">
    <tag k="addr:city" v="Tinmouth" />
    <tag k="addr:housenumber" v="595" />
    <tag k="addr:street" v="North East Road" />
    <tag k="addr:state" v="VT" />
    <tag k="ref:vcgi:esiteid" v="259923" />
  </node>
  <node id="-107" visible="true" lat="43.48978424" lon="-73.02328491">
    <tag k="addr:city" v="Tinmouth" />
    <tag k="addr:housenumber" v="515" />
    <tag k="addr:street" v="North End Road" />
    <tag k="addr:state" v="VT" />
    <tag k="ref:vcgi:esiteid" v="259924" />
  </node>
  <node id="-108" visible="true" lat="43.48871612" lon="-73.07605743">
    <tag k="addr:city" v="Tinmouth" />
    <tag k="addr:housenumber" v="113" />
    <tag k="addr:street" v="Vermont Route 133 Morgan Road" />
    <tag k="addr:state" v="VT" />
    <tag k="ref:vcgi:esiteid" v="259925" />
  </node>
  <node id="-109" visible="true" lat="43.48846817" lon="-73.07740783">
    <tag k="addr:city" v="Tinmouth" />
    <tag k="addr:housenumber" v="147" />
    <tag k="addr:street" v="Vermont Route 133 Morgan Road" />
    <tag k="addr:state" v="VT" />
    <tag k="ref:vcgi:esiteid" v="259926" />
  </node>
  <node id="-110" visible="true" lat="43.48830032" lon="-73.02713775">
    <tag k="addr:city" v="Tinmouth" />
    <tag k="addr:housenumber" v="482" />
    <tag k="addr:street" v="North End Road" />
    <tag k="addr:state" v="VT" />
    <tag k="ref:vcgi:esiteid" v="259927" />
  </node>
  <node id="-111" visible="true" lat="43.48831176" lon="-73.02215576">
    <tag k="addr:city" v="Tinmouth" />
    <tag k="addr:housenumber" v="535" />
    <tag k="addr:street" v="North End Road" />
    <tag k="addr:state" v="VT" />
    <tag k="ref:vcgi:esiteid" v="259928" />
  </node>
  <node id="-112" visible="true" lat="43.48790372" lon="-73.06416101">
    <tag k="addr:city" v="Tinmouth" />
    <tag k="addr:housenumber" v="160" />
    <tag k="addr:street" v="Northrup Road" />
    <tag k="addr:state" v="VT" />
    <tag k="ref:vcgi:esiteid" v="259929" />
  </node>
  <node id="-113" visible="true" lat="43.48788452" lon="-73.02470398">
    <tag k="addr:city" v="Tinmouth" />
    <tag k="addr:housenumber" v="516" />
    <tag k="addr:street" v="North End Road" />
    <tag k="addr:state" v="VT" />
    <tag k="ref:vcgi:esiteid" v="259930" />
  </node>
  <node id="-114" visible="true" lat="43.48670196" lon="-73.07312011">
    <tag k="addr:city" v="Tinmouth" />
    <tag k="addr:housenumber" v="76" />
    <tag k="addr:street" v="Vermont Route 133 Morgan Road" />
    <tag k="addr:state" v="VT" />
    <tag k="ref:vcgi:esiteid" v="259931" />
  </node>
  <node id="-115" visible="true" lat="43.48577499" lon="-73.07698822">
    <tag k="addr:city" v="Tinmouth" />
    <tag k="addr:housenumber" v="109" />
    <tag k="addr:street" v="Vermont Route 133 Morgan Road" />
    <tag k="addr:state" v="VT" />
    <tag k="ref:vcgi:esiteid" v="259932" />
  </node>
  <node id="-116" visible="true" lat="43.48541641" lon="-73.07321166">
    <tag k="addr:city" v="Tinmouth" />
    <tag k="addr:housenumber" v="74" />
    <tag k="addr:street" v="Vermont Route 133 Morgan Road" />
    <tag k="addr:state" v="VT" />
    <tag k="ref:vcgi:esiteid" v="259933" />
  </node>
  <node id="-117" visible="true" lat="43.4847145" lon="-73.04767608">
    <tag k="addr:city" v="Tinmouth" />
    <tag k="addr:housenumber" v="221" />
    <tag k="addr:street" v="North End Road" />
    <tag k="addr:state" v="VT" />
    <tag k="ref:vcgi:esiteid" v="259934" />
  </node>
  <node id="-118" visible="true" lat="43.48392868" lon="-73.01525116">
    <tag k="addr:city" v="Tinmouth" />
    <tag k="addr:housenumber" v="510" />
    <tag k="addr:street" v="North East Road" />
    <tag k="addr:state" v="VT" />
    <tag k="ref:vcgi:esiteid" v="259935" />
  </node>
  <node id="-119" visible="true" lat="43.48324966" lon="-73.07791137">
    <tag k="addr:city" v="Tinmouth" />
    <tag k="addr:housenumber" v="11" />
    <tag k="addr:street" v="Vermont Route 133 Morgan Road" />
    <tag k="addr:state" v="VT" />
    <tag k="ref:vcgi:esiteid" v="259936" />
  </node>
  <node id="-120" visible="true" lat="43.48333358" lon="-73.04235839">
    <tag k="addr:city" v="Tinmouth" />
    <tag k="addr:housenumber" v="231" />
    <tag k="addr:street" v="North End Road" />
    <tag k="addr:state" v="VT" />
    <tag k="ref:vcgi:esiteid" v="259937" />
  </node>
  <node id="-121" visible="true" lat="43.48199081" lon="-73.07811737">
    <tag k="addr:city" v="Tinmouth" />
    <tag k="addr:housenumber" v="26" />
    <tag k="addr:street" v="Maplebrook Lane" />
    <tag k="addr:state" v="VT" />
    <tag k="ref:vcgi:esiteid" v="259938" />
  </node>
  <node id="-122" visible="true" lat="43.48183059" lon="-73.07768249">
    <tag k="addr:city" v="Tinmouth" />
    <tag k="addr:housenumber" v="21" />
    <tag k="addr:street" v="Maplebrook Lane" />
    <tag k="addr:state" v="VT" />
    <tag k="ref:vcgi:esiteid" v="259939" />
  </node>
  <node id="-123" visible="true" lat="43.48179245" lon="-73.07482147">
    <tag k="addr:city" v="Tinmouth" />
    <tag k="addr:housenumber" v="1218" />
    <tag k="addr:street" v="Vermont Route 140" />
    <tag k="addr:state" v="VT" />
    <tag k="ref:vcgi:esiteid" v="259940" />
  </node>
  <node id="-124" visible="true" lat="43.48149871" lon="-73.07625579">
    <tag k="addr:city" v="Tinmouth" />
    <tag k="addr:housenumber" v="7" />
    <tag k="addr:street" v="Maplebrook Lane" />
    <tag k="addr:state" v="VT" />
    <tag k="ref:vcgi:esiteid" v="259941" />
  </node>
  <node id="-125" visible="true" lat="43.48140716" lon="-73.07570648">
    <tag k="addr:city" v="Tinmouth" />
    <tag k="addr:housenumber" v="1" />
    <tag k="addr:street" v="Maplebrook Lane" />
    <tag k="addr:state" v="VT" />
    <tag k="ref:vcgi:esiteid" v="259942" />
  </node>
  <node id="-126" visible="true" lat="43.48088836" lon="-73.07607269">
    <tag k="addr:city" v="Tinmouth" />
    <tag k="addr:housenumber" v="12" />
    <tag k="addr:street" v="McNamara Road" />
    <tag k="addr:state" v="VT" />
    <tag k="ref:vcgi:esiteid" v="259943" />
  </node>
  <node id="-127" visible="true" lat="43.48066711" lon="-73.07383728">
    <tag k="addr:city" v="Tinmouth" />
    <tag k="addr:housenumber" v="1199" />
    <tag k="addr:street" v="Vermont Route 140" />
    <tag k="addr:state" v="VT" />
    <tag k="ref:vcgi:esiteid" v="259944" />
  </node>
  <node id="-128" visible="true" lat="43.48067092" lon="-73.04489135">
    <tag k="addr:city" v="Tinmouth" />
    <tag k="addr:housenumber" v="219" />
    <tag k="addr:street" v="North End Road" />
    <tag k="addr:state" v="VT" />
    <tag k="ref:vcgi:esiteid" v="259945" />
  </node>
  <node id="-129" visible="true" lat="43.48007202" lon="-73.07299804">
    <tag k="addr:city" v="Tinmouth" />
    <tag k="addr:housenumber" v="1181" />
    <tag k="addr:street" v="Vermont Route 140" />
    <tag k="addr:state" v="VT" />
    <tag k="ref:vcgi:esiteid" v="259946" />
  </node>
  <node id="-130" visible="true" lat="43.47982025" lon="-73.07096099">
    <tag k="addr:city" v="Tinmouth" />
    <tag k="addr:housenumber" v="1166" />
    <tag k="addr:street" v="Vermont Route 140" />
    <tag k="addr:state" v="VT" />
    <tag k="ref:vcgi:esiteid" v="259947" />
  </node>
  <node id="-131" visible="true" lat="43.47943878" lon="-73.07173156">
    <tag k="addr:city" v="Tinmouth" />
    <tag k="addr:housenumber" v="1175" />
    <tag k="addr:street" v="Vermont Route 140" />
    <tag k="addr:state" v="VT" />
    <tag k="ref:vcgi:esiteid" v="259948" />
  </node>
  <node id="-132" visible="true" lat="43.47892761" lon="-73.06983185">
    <tag k="addr:city" v="Tinmouth" />
    <tag k="addr:housenumber" v="1148" />
    <tag k="addr:street" v="Vermont Route 140" />
    <tag k="addr:state" v="VT" />
    <tag k="ref:vcgi:esiteid" v="259949" />
  </node>
  <node id="-133" visible="true" lat="43.47771835" lon="-73.07027435">
    <tag k="addr:city" v="Tinmouth" />
    <tag k="addr:housenumber" v="1161" />
    <tag k="addr:street" v="Vermont Route 140" />
    <tag k="addr:state" v="VT" />
    <tag k="ref:vcgi:esiteid" v="259950" />
  </node>
  <node id="-134" visible="true" lat="43.47669669" lon="-73.04648499">
    <tag k="addr:city" v="Tinmouth" />
    <tag k="addr:housenumber" v="109" />
    <tag k="addr:street" v="Harrington Cross Road" />
    <tag k="addr:state" v="VT" />
    <tag k="ref:vcgi:esiteid" v="259951" />
  </node>
  <node id="-135" visible="true" lat="43.47671127" lon="-73.01889038">
    <tag k="addr:city" v="Tinmouth" />
    <tag k="addr:housenumber" v="403" />
    <tag k="addr:street" v="North East Road" />
    <tag k="addr:state" v="VT" />
    <tag k="ref:vcgi:esiteid" v="259952" />
  </node>
  <node id="-136" visible="true" lat="43.47597122" lon="-73.04403686">
    <tag k="addr:city" v="Tinmouth" />
    <tag k="addr:housenumber" v="133" />
    <tag k="addr:street" v="North End Road" />
    <tag k="addr:state" v="VT" />
    <tag k="ref:vcgi:esiteid" v="259953" />
  </node>
  <node id="-137" visible="true" lat="43.47575759" lon="-73.04611969">
    <tag k="addr:city" v="Tinmouth" />
    <tag k="addr:housenumber" v="106" />
    <tag k="addr:street" v="Harrington Cross Road" />
    <tag k="addr:state" v="VT" />
    <tag k="ref:vcgi:esiteid" v="259954" />
  </node>
  <node id="-138" visible="true" lat="43.47568511" lon="-73.04349517">
    <tag k="addr:city" v="Tinmouth" />
    <tag k="addr:housenumber" v="128" />
    <tag k="addr:street" v="North End Road" />
    <tag k="addr:state" v="VT" />
    <tag k="ref:vcgi:esiteid" v="259955" />
  </node>
  <node id="-139" visible="true" lat="43.47563171" lon="-73.05078887">
    <tag k="addr:city" v="Tinmouth" />
    <tag k="addr:housenumber" v="50" />
    <tag k="addr:street" v="Harrington Cross Road" />
    <tag k="addr:state" v="VT" />
    <tag k="ref:vcgi:esiteid" v="259956" />
  </node>
  <node id="-140" visible="true" lat="43.47515869" lon="-73.04257202">
    <tag k="addr:city" v="Tinmouth" />
    <tag k="addr:housenumber" v="122" />
    <tag k="addr:street" v="North End Road" />
    <tag k="addr:state" v="VT" />
    <tag k="ref:vcgi:esiteid" v="259957" />
  </node>
  <node id="-141" visible="true" lat="43.47388839" lon="-73.05387115">
    <tag k="addr:city" v="Tinmouth" />
    <tag k="addr:housenumber" v="6" />
    <tag k="addr:street" v="Harrington Cross Road" />
    <tag k="addr:state" v="VT" />
    <tag k="ref:vcgi:esiteid" v="259958" />
  </node>
  <node id="-142" visible="true" lat="43.47305297" lon="-73.04438018">
    <tag k="addr:city" v="Tinmouth" />
    <tag k="addr:housenumber" v="96" />
    <tag k="addr:street" v="North End Road" />
    <tag k="addr:state" v="VT" />
    <tag k="ref:vcgi:esiteid" v="259959" />
  </node>
  <node id="-143" visible="true" lat="43.47203063" lon="-73.07477569">
    <tag k="addr:city" v="Tinmouth" />
    <tag k="addr:housenumber" v="142" />
    <tag k="addr:street" v="McNamara Road" />
    <tag k="addr:state" v="VT" />
    <tag k="ref:vcgi:esiteid" v="259960" />
  </node>
  <node id="-144" visible="true" lat="43.47050857" lon="-73.06013488">
    <tag k="addr:city" v="Tinmouth" />
    <tag k="addr:housenumber" v="51" />
    <tag k="addr:street" v="Gulf Road" />
    <tag k="addr:state" v="VT" />
    <tag k="ref:vcgi:esiteid" v="259961" />
  </node>
  <node id="-145" visible="true" lat="43.47004699" lon="-73.07451629">
    <tag k="addr:city" v="Tinmouth" />
    <tag k="addr:housenumber" v="170" />
    <tag k="addr:street" v="McNamara Road" />
    <tag k="addr:state" v="VT" />
    <tag k="ref:vcgi:esiteid" v="259962" />
  </node>
  <node id="-146" visible="true" lat="43.4696083" lon="-73.07176208">
    <tag k="addr:city" v="Tinmouth" />
    <tag k="addr:housenumber" v="182" />
    <tag k="addr:street" v="Gulf Road" />
    <tag k="addr:state" v="VT" />
    <tag k="ref:vcgi:esiteid" v="259963" />
  </node>
  <node id="-147" visible="true" lat="43.46825027" lon="-73.07575988">
    <tag k="addr:city" v="Tinmouth" />
    <tag k="addr:housenumber" v="224" />
    <tag k="addr:street" v="Gulf Road" />
    <tag k="addr:state" v="VT" />
    <tag k="ref:vcgi:esiteid" v="259964" />
  </node>
  <node id="-148" visible="true" lat="43.46770858" lon="-73.07632446">
    <tag k="addr:city" v="Tinmouth" />
    <tag k="addr:housenumber" v="240" />
    <tag k="addr:street" v="Gulf Road" />
    <tag k="addr:state" v="VT" />
    <tag k="ref:vcgi:esiteid" v="259965" />
  </node>
  <node id="-149" visible="true" lat="43.46669769" lon="-73.07714843">
    <tag k="addr:city" v="Tinmouth" />
    <tag k="addr:housenumber" v="256" />
    <tag k="addr:street" v="Gulf Road" />
    <tag k="addr:state" v="VT" />
    <tag k="ref:vcgi:esiteid" v="259966" />
  </node>
  <node id="-150" visible="true" lat="43.46484374" lon="-73.07796478">
    <tag k="addr:city" v="Tinmouth" />
    <tag k="addr:housenumber" v="286" />
    <tag k="addr:street" v="Gulf Road" />
    <tag k="addr:state" v="VT" />
    <tag k="ref:vcgi:esiteid" v="259967" />
  </node>
  <node id="-151" visible="true" lat="43.46417999" lon="-73.07765198">
    <tag k="addr:city" v="Tinmouth" />
    <tag k="addr:housenumber" v="289" />
    <tag k="addr:street" v="Gulf Road" />
    <tag k="addr:state" v="VT" />
    <tag k="ref:vcgi:esiteid" v="259968" />
  </node>
  <node id="-152" visible="true" lat="43.46413421" lon="-73.07839965">
    <tag k="addr:city" v="Tinmouth" />
    <tag k="addr:housenumber" v="296" />
    <tag k="addr:street" v="Gulf Road" />
    <tag k="addr:state" v="VT" />
    <tag k="ref:vcgi:esiteid" v="259969" />
  </node>
  <node id="-153" visible="true" lat="43.463871" lon="-73.05091095">
    <tag k="addr:city" v="Tinmouth" />
    <tag k="addr:housenumber" v="789" />
    <tag k="addr:street" v="Vermont Route 140" />
    <tag k="addr:state" v="VT" />
    <tag k="ref:vcgi:esiteid" v="259970" />
  </node>
  <node id="-154" visible="true" lat="43.46364593" lon="-73.07969665">
    <tag k="addr:city" v="Tinmouth" />
    <tag k="addr:housenumber" v="312" />
    <tag k="addr:street" v="Gulf Road" />
    <tag k="addr:state" v="VT" />
    <tag k="ref:vcgi:esiteid" v="259971" />
  </node>
  <node id="-155" visible="true" lat="43.46334075" lon="-73.07785797">
    <tag k="addr:city" v="Tinmouth" />
    <tag k="addr:housenumber" v="9" />
    <tag k="addr:street" v="Upper Gulf Road" />
    <tag k="addr:state" v="VT" />
    <tag k="ref:vcgi:esiteid" v="259972" />
  </node>
  <node id="-156" visible="true" lat="43.46324157" lon="-73.08094787">
    <tag k="addr:city" v="Tinmouth" />
    <tag k="addr:housenumber" v="326" />
    <tag k="addr:street" v="Gulf Road" />
    <tag k="addr:state" v="VT" />
    <tag k="ref:vcgi:esiteid" v="259973" />
  </node>
  <node id="-157" visible="true" lat="43.46117019" lon="-73.02547454">
    <tag k="addr:city" v="Tinmouth" />
    <tag k="addr:housenumber" v="158" />
    <tag k="addr:street" v="North East Road" />
    <tag k="addr:state" v="VT" />
    <tag k="ref:vcgi:esiteid" v="259974" />
  </node>
  <node id="-158" visible="true" lat="43.46073532" lon="-73.07550811">
    <tag k="addr:city" v="Tinmouth" />
    <tag k="addr:housenumber" v="31" />
    <tag k="addr:street" v="Journeys End Road" />
    <tag k="addr:state" v="VT" />
    <tag k="ref:vcgi:esiteid" v="259975" />
  </node>
  <node id="-159" visible="true" lat="43.45985793" lon="-73.07413482">
    <tag k="addr:city" v="Tinmouth" />
    <tag k="addr:housenumber" v="42" />
    <tag k="addr:street" v="Journeys End Road" />
    <tag k="addr:state" v="VT" />
    <tag k="ref:vcgi:esiteid" v="259976" />
  </node>
  <node id="-160" visible="true" lat="43.46012497" lon="-73.01590728">
    <tag k="addr:city" v="Tinmouth" />
    <tag k="addr:housenumber" v="78" />
    <tag k="addr:street" v="Vermont Route 140" />
    <tag k="addr:state" v="VT" />
    <tag k="ref:vcgi:esiteid" v="259977" />
  </node>
  <node id="-161" visible="true" lat="43.45882034" lon="-73.07746887">
    <tag k="addr:city" v="Tinmouth" />
    <tag k="addr:housenumber" v="55" />
    <tag k="addr:street" v="Upper Gulf Road" />
    <tag k="addr:state" v="VT" />
    <tag k="ref:vcgi:esiteid" v="259978" />
  </node>
  <node id="-162" visible="true" lat="43.45885086" lon="-73.04751586">
    <tag k="addr:city" v="Tinmouth" />
    <tag k="addr:housenumber" v="712" />
    <tag k="addr:street" v="Vermont Route 140" />
    <tag k="addr:state" v="VT" />
    <tag k="ref:vcgi:esiteid" v="259979" />
  </node>
  <node id="-163" visible="true" lat="43.4570198" lon="-73.04821014">
    <tag k="addr:city" v="Tinmouth" />
    <tag k="addr:housenumber" v="692" />
    <tag k="addr:street" v="Vermont Route 140" />
    <tag k="addr:state" v="VT" />
    <tag k="ref:vcgi:esiteid" v="259980" />
  </node>
  <node id="-164" visible="true" lat="43.45653533" lon="-73.0273056">
    <tag k="addr:city" v="Tinmouth" />
    <tag k="addr:housenumber" v="87" />
    <tag k="addr:street" v="North East Road" />
    <tag k="addr:state" v="VT" />
    <tag k="ref:vcgi:esiteid" v="259981" />
  </node>
  <node id="-165" visible="true" lat="43.45619201" lon="-73.08132171">
    <tag k="addr:city" v="Tinmouth" />
    <tag k="addr:housenumber" v="123" />
    <tag k="addr:street" v="Upper Gulf Road" />
    <tag k="addr:state" v="VT" />
    <tag k="ref:vcgi:esiteid" v="259982" />
  </node>
  <node id="-166" visible="true" lat="43.45613861" lon="-73.07341766">
    <tag k="addr:city" v="Tinmouth" />
    <tag k="addr:housenumber" v="72" />
    <tag k="addr:street" v="Snow Mountain Lane" />
    <tag k="addr:state" v="VT" />
    <tag k="ref:vcgi:esiteid" v="259983" />
  </node>
  <node id="-167" visible="true" lat="43.45596695" lon="-73.04923248">
    <tag k="addr:city" v="Tinmouth" />
    <tag k="addr:housenumber" v="670" />
    <tag k="addr:street" v="Vermont Route 140" />
    <tag k="addr:state" v="VT" />
    <tag k="ref:vcgi:esiteid" v="259984" />
  </node>
  <node id="-168" visible="true" lat="43.45609664" lon="-73.01149749">
    <tag k="addr:city" v="Tinmouth" />
    <tag k="addr:housenumber" v="56" />
    <tag k="addr:street" v="Vermont Route 140" />
    <tag k="addr:state" v="VT" />
    <tag k="ref:vcgi:esiteid" v="259985" />
  </node>
  <node id="-169" visible="true" lat="43.45558548" lon="-73.00957489">
    <tag k="addr:city" v="Tinmouth" />
    <tag k="addr:housenumber" v="32" />
    <tag k="addr:street" v="Vermont Route 140" />
    <tag k="addr:state" v="VT" />
    <tag k="ref:vcgi:esiteid" v="259986" />
  </node>
  <node id="-170" visible="true" lat="43.45475006" lon="-73.00860595">
    <tag k="addr:city" v="Tinmouth" />
    <tag k="addr:housenumber" v="17" />
    <tag k="addr:street" v="Vermont Route 140" />
    <tag k="addr:state" v="VT" />
    <tag k="ref:vcgi:esiteid" v="259987" />
  </node>
  <node id="-171" visible="true" lat="43.45232391" lon="-73.04902648">
    <tag k="addr:city" v="Tinmouth" />
    <tag k="addr:housenumber" v="620" />
    <tag k="addr:street" v="Vermont Route 140" />
    <tag k="addr:state" v="VT" />
    <tag k="ref:vcgi:esiteid" v="259988" />
  </node>
  <node id="-172" visible="true" lat="43.45142364" lon="-73.04476165">
    <tag k="addr:city" v="Tinmouth" />
    <tag k="addr:housenumber" v="490" />
    <tag k="addr:street" v="Vermont Route 140" />
    <tag k="addr:state" v="VT" />
    <tag k="ref:vcgi:esiteid" v="259989" />
  </node>
  <node id="-173" visible="true" lat="43.45109939" lon="-73.0862503">
    <tag k="addr:city" v="Tinmouth" />
    <tag k="addr:housenumber" v="4" />
    <tag k="addr:street" v="Pent Road" />
    <tag k="addr:state" v="VT" />
    <tag k="ref:vcgi:esiteid" v="259990" />
  </node>
  <node id="-174" visible="true" lat="43.45091629" lon="-73.08532714">
    <tag k="addr:city" v="Tinmouth" />
    <tag k="addr:housenumber" v="6" />
    <tag k="addr:street" v="Pent Road" />
    <tag k="addr:state" v="VT" />
    <tag k="ref:vcgi:esiteid" v="259991" />
  </node>
  <node id="-175" visible="true" lat="43.4511795" lon="-73.02870178">
    <tag k="addr:city" v="Tinmouth" />
    <tag k="addr:housenumber" v="3" />
    <tag k="addr:street" v="North East Road" />
    <tag k="addr:state" v="VT" />
    <tag k="ref:vcgi:esiteid" v="259992" />
  </node>
  <node id="-176" visible="true" lat="43.45095062" lon="-73.05090331">
    <tag k="addr:city" v="Tinmouth" />
    <tag k="addr:housenumber" v="593" />
    <tag k="addr:street" v="Vermont Route 140" />
    <tag k="addr:state" v="VT" />
    <tag k="ref:vcgi:esiteid" v="259993" />
  </node>
  <node id="-177" visible="true" lat="43.45079422" lon="-73.0435028">
    <tag k="addr:city" v="Tinmouth" />
    <tag k="addr:housenumber" v="486" />
    <tag k="addr:street" v="Vermont Route 140" />
    <tag k="addr:state" v="VT" />
    <tag k="ref:vcgi:esiteid" v="259994" />
  </node>
  <node id="-178" visible="true" lat="43.45069885" lon="-73.04521179">
    <tag k="addr:city" v="Tinmouth" />
    <tag k="addr:housenumber" v="493" />
    <tag k="addr:street" v="Vermont Route 140" />
    <tag k="addr:state" v="VT" />
    <tag k="ref:vcgi:esiteid" v="259995" />
  </node>
  <node id="-179" visible="true" lat="43.45044326" lon="-73.05023956">
    <tag k="addr:city" v="Tinmouth" />
    <tag k="addr:housenumber" v="590" />
    <tag k="addr:street" v="Vermont Route 140" />
    <tag k="addr:state" v="VT" />
    <tag k="ref:vcgi:esiteid" v="259996" />
  </node>
  <node id="-180" visible="true" lat="43.45038604" lon="-73.04206848">
    <tag k="addr:city" v="Tinmouth" />
    <tag k="addr:housenumber" v="456" />
    <tag k="addr:street" v="Vermont Route 140" />
    <tag k="addr:state" v="VT" />
    <tag k="ref:vcgi:esiteid" v="259997" />
  </node>
  <node id="-181" visible="true" lat="43.45033264" lon="-73.02842712">
    <tag k="addr:city" v="Tinmouth" />
    <tag k="addr:housenumber" v="297" />
    <tag k="addr:street" v="Vermont Route 140" />
    <tag k="addr:state" v="VT" />
    <tag k="ref:vcgi:esiteid" v="259998" />
  </node>
  <node id="-182" visible="true" lat="43.44996643" lon="-73.09036254">
    <tag k="addr:city" v="Tinmouth" />
    <tag k="addr:housenumber" v="556" />
    <tag k="addr:street" v="Gulf Road" />
    <tag k="addr:state" v="VT" />
    <tag k="ref:vcgi:esiteid" v="259999" />
  </node>
  <node id="-183" visible="true" lat="43.44993972" lon="-73.05025482">
    <tag k="addr:city" v="Tinmouth" />
    <tag k="addr:housenumber" v="580" />
    <tag k="addr:street" v="Vermont Route 140" />
    <tag k="addr:state" v="VT" />
    <tag k="ref:vcgi:esiteid" v="260000" />
  </node>
  <node id="-184" visible="true" lat="43.44959785" lon="-73.04242124">
    <tag k="addr:city" v="Tinmouth" />
    <tag k="addr:housenumber" v="455" />
    <tag k="addr:street" v="Vermont Route 140" />
    <tag k="addr:state" v="VT" />
    <tag k="ref:vcgi:esiteid" v="260001" />
  </node>
  <node id="-185" visible="true" lat="43.44949722" lon="-73.05027771">
    <tag k="addr:city" v="Tinmouth" />
    <tag k="addr:housenumber" v="572" />
    <tag k="addr:street" v="Vermont Route 140" />
    <tag k="addr:state" v="VT" />
    <tag k="ref:vcgi:esiteid" v="260002" />
  </node>
  <node id="-186" visible="true" lat="43.44960359" lon="-73.05106399">
    <tag k="addr:city" v="Tinmouth" />
    <tag k="addr:housenumber" v="573" />
    <tag k="addr:street" v="Vermont Route 140" />
    <tag k="addr:state" v="VT" />
    <tag k="ref:vcgi:esiteid" v="260003" />
  </node>
  <node id="-187" visible="true" lat="43.44947433" lon="-73.05179595">
    <tag k="addr:city" v="Tinmouth" />
    <tag k="addr:housenumber" v="20" />
    <tag k="addr:street" v="Bliss Road" />
    <tag k="addr:state" v="VT" />
    <tag k="ref:vcgi:esiteid" v="260004" />
  </node>
  <node id="-188" visible="true" lat="43.44892501" lon="-73.05142211">
    <tag k="addr:city" v="Tinmouth" />
    <tag k="addr:housenumber" v="6" />
    <tag k="addr:street" v="Bliss Road" />
    <tag k="addr:state" v="VT" />
    <tag k="ref:vcgi:esiteid" v="260005" />
  </node>
  <node id="-189" visible="true" lat="43.4488449" lon="-73.04719543">
    <tag k="addr:city" v="Tinmouth" />
    <tag k="addr:housenumber" v="531" />
    <tag k="addr:street" v="Vermont Route 140" />
    <tag k="addr:state" v="VT" />
    <tag k="ref:vcgi:esiteid" v="260006" />
  </node>
  <node id="-190" visible="true" lat="43.44860076" lon="-73.04933929">
    <tag k="addr:city" v="Tinmouth" />
    <tag k="addr:housenumber" v="553" />
    <tag k="addr:street" v="Vermont Route 140" />
    <tag k="addr:state" v="VT" />
    <tag k="ref:vcgi:esiteid" v="260008" />
  </node>
  <node id="-191" visible="true" lat="43.44855499" lon="-73.04801177">
    <tag k="addr:city" v="Tinmouth" />
    <tag k="addr:housenumber" v="537" />
    <tag k="addr:street" v="Vermont Route 140" />
    <tag k="addr:state" v="VT" />
    <tag k="ref:vcgi:esiteid" v="260009" />
  </node>
  <node id="-192" visible="true" lat="43.44850921" lon="-73.04878997">
    <tag k="addr:city" v="Tinmouth" />
    <tag k="addr:housenumber" v="545" />
    <tag k="addr:street" v="Vermont Route 140" />
    <tag k="addr:state" v="VT" />
    <tag k="ref:vcgi:esiteid" v="260010" />
  </node>
  <node id="-193" visible="true" lat="43.44844055" lon="-73.05017852">
    <tag k="addr:city" v="Tinmouth" />
    <tag k="addr:housenumber" v="5" />
    <tag k="addr:street" v="Mountain View Road" />
    <tag k="addr:state" v="VT" />
    <tag k="ref:vcgi:esiteid" v="260011" />
  </node>
  <node id="-194" visible="true" lat="43.44837951" lon="-73.05574798">
    <tag k="addr:city" v="Tinmouth" />
    <tag k="addr:housenumber" v="56" />
    <tag k="addr:street" v="Bliss Road" />
    <tag k="addr:state" v="VT" />
    <tag k="ref:vcgi:esiteid" v="260012" />
  </node>
  <node id="-195" visible="true" lat="43.44835281" lon="-73.05177307">
    <tag k="addr:city" v="Tinmouth" />
    <tag k="addr:housenumber" v="13" />
    <tag k="addr:street" v="Bliss Road" />
    <tag k="addr:state" v="VT" />
    <tag k="ref:vcgi:esiteid" v="260013" />
  </node>
  <node id="-196" visible="true" lat="43.4481697" lon="-73.0502243">
    <tag k="addr:city" v="Tinmouth" />
    <tag k="addr:housenumber" v="9" />
    <tag k="addr:street" v="Mountain View Road" />
    <tag k="addr:state" v="VT" />
    <tag k="ref:vcgi:esiteid" v="260014" />
  </node>
  <node id="-197" visible="true" lat="43.44772338" lon="-73.08132171">
    <tag k="addr:city" v="Tinmouth" />
    <tag k="addr:housenumber" v="105" />
    <tag k="addr:street" v="Pent Road" />
    <tag k="addr:state" v="VT" />
    <tag k="ref:vcgi:esiteid" v="260015" />
  </node>
  <node id="-198" visible="true" lat="43.44771575" lon="-73.05030059">
    <tag k="addr:city" v="Tinmouth" />
    <tag k="addr:housenumber" v="11" />
    <tag k="addr:street" v="Mountain View Road" />
    <tag k="addr:state" v="VT" />
    <tag k="ref:vcgi:esiteid" v="260016" />
  </node>
  <node id="-199" visible="true" lat="43.44686889" lon="-73.04579162">
    <tag k="addr:city" v="Tinmouth" />
    <tag k="addr:housenumber" v="499" />
    <tag k="addr:street" v="Vermont Route 140" />
    <tag k="addr:state" v="VT" />
    <tag k="ref:vcgi:esiteid" v="260017" />
  </node>
  <node id="-200" visible="true" lat="43.44654464" lon="-73.05158233">
    <tag k="addr:city" v="Tinmouth" />
    <tag k="addr:housenumber" v="34" />
    <tag k="addr:street" v="Mountain View Road" />
    <tag k="addr:state" v="VT" />
    <tag k="ref:vcgi:esiteid" v="260018" />
  </node>
  <node id="-201" visible="true" lat="43.44543457" lon="-73.0296173">
    <tag k="addr:city" v="Tinmouth" />
    <tag k="addr:housenumber" v="59" />
    <tag k="addr:street" v="East Road" />
    <tag k="addr:state" v="VT" />
    <tag k="ref:vcgi:esiteid" v="260019" />
  </node>
  <node id="-202" visible="true" lat="43.44492721" lon="-73.02971649">
    <tag k="addr:city" v="Tinmouth" />
    <tag k="addr:housenumber" v="61" />
    <tag k="addr:street" v="East Road" />
    <tag k="addr:state" v="VT" />
    <tag k="ref:vcgi:esiteid" v="260020" />
  </node>
  <node id="-203" visible="true" lat="43.44404983" lon="-73.05070495">
    <tag k="addr:city" v="Tinmouth" />
    <tag k="addr:housenumber" v="67" />
    <tag k="addr:street" v="Mountain View Road" />
    <tag k="addr:state" v="VT" />
    <tag k="ref:vcgi:esiteid" v="260021" />
  </node>
  <node id="-204" visible="true" lat="43.44329452" lon="-73.04655456">
    <tag k="addr:city" v="Tinmouth" />
    <tag k="addr:housenumber" v="51" />
    <tag k="addr:street" v="Channel Road" />
    <tag k="addr:state" v="VT" />
    <tag k="ref:vcgi:esiteid" v="260022" />
  </node>
  <node id="-205" visible="true" lat="43.44277496" lon="-73.05087685">
    <tag k="addr:city" v="Tinmouth" />
    <tag k="addr:housenumber" v="95" />
    <tag k="addr:street" v="Mountain View Road" />
    <tag k="addr:state" v="VT" />
    <tag k="ref:vcgi:esiteid" v="260023" />
  </node>
  <node id="-206" visible="true" lat="43.44152832" lon="-73.05336761">
    <tag k="addr:city" v="Tinmouth" />
    <tag k="addr:housenumber" v="128" />
    <tag k="addr:street" v="Mountain View Road" />
    <tag k="addr:state" v="VT" />
    <tag k="ref:vcgi:esiteid" v="260024" />
  </node>
  <node id="-207" visible="true" lat="43.44143295" lon="-73.05112457">
    <tag k="addr:city" v="Tinmouth" />
    <tag k="addr:housenumber" v="105" />
    <tag k="addr:street" v="Mountain View Road" />
    <tag k="addr:state" v="VT" />
    <tag k="ref:vcgi:esiteid" v="260025" />
  </node>
  <node id="-208" visible="true" lat="43.44102478" lon="-73.0307312">
    <tag k="addr:city" v="Tinmouth" />
    <tag k="addr:housenumber" v="119" />
    <tag k="addr:street" v="East Road" />
    <tag k="addr:state" v="VT" />
    <tag k="ref:vcgi:esiteid" v="260026" />
  </node>
  <node id="-209" visible="true" lat="43.44079942" lon="-73.04109877">
    <tag k="addr:city" v="Tinmouth" />
    <tag k="addr:housenumber" v="143" />
    <tag k="addr:street" v="Channel Road" />
    <tag k="addr:state" v="VT" />
    <tag k="ref:vcgi:esiteid" v="260027" />
  </node>
  <node id="-210" visible="true" lat="43.4402275" lon="-73.03002929">
    <tag k="addr:city" v="Tinmouth" />
    <tag k="addr:housenumber" v="139" />
    <tag k="addr:street" v="East Road" />
    <tag k="addr:state" v="VT" />
    <tag k="ref:vcgi:esiteid" v="260028" />
  </node>
  <node id="-211" visible="true" lat="43.44015833" lon="-73.04095379">
    <tag k="addr:city" v="Tinmouth" />
    <tag k="addr:housenumber" v="148" />
    <tag k="addr:street" v="Channel Road" />
    <tag k="addr:state" v="VT" />
    <tag k="ref:vcgi:esiteid" v="260029" />
  </node>
  <node id="-212" visible="true" lat="43.43935775" lon="-73.04012298">
    <tag k="addr:city" v="Tinmouth" />
    <tag k="addr:housenumber" v="154" />
    <tag k="addr:street" v="Channel Road" />
    <tag k="addr:state" v="VT" />
    <tag k="ref:vcgi:esiteid" v="260030" />
  </node>
  <node id="-213" visible="true" lat="43.43868637" lon="-73.03149414">
    <tag k="addr:city" v="Tinmouth" />
    <tag k="addr:housenumber" v="141" />
    <tag k="addr:street" v="East Road" />
    <tag k="addr:state" v="VT" />
    <tag k="ref:vcgi:esiteid" v="260031" />
  </node>
  <node id="-214" visible="true" lat="43.43859863" lon="-73.03923034">
    <tag k="addr:city" v="Tinmouth" />
    <tag k="addr:housenumber" v="162" />
    <tag k="addr:street" v="Channel Road" />
    <tag k="addr:state" v="VT" />
    <tag k="ref:vcgi:esiteid" v="260032" />
  </node>
  <node id="-215" visible="true" lat="43.43599673" lon="-73.03054906">
    <tag k="addr:city" v="Tinmouth" />
    <tag k="addr:housenumber" v="44" />
    <tag k="addr:street" v="Crow Hill Road" />
    <tag k="addr:state" v="VT" />
    <tag k="ref:vcgi:esiteid" v="260033" />
  </node>
  <node id="-216" visible="true" lat="43.43574142" lon="-73.05464172">
    <tag k="addr:city" v="Tinmouth" />
    <tag k="addr:housenumber" v="26" />
    <tag k="addr:street" v="Pucker Street" />
    <tag k="addr:state" v="VT" />
    <tag k="ref:vcgi:esiteid" v="260034" />
  </node>
  <node id="-217" visible="true" lat="43.43507003" lon="-73.05240631">
    <tag k="addr:city" v="Tinmouth" />
    <tag k="addr:housenumber" v="4" />
    <tag k="addr:street" v="Gilmore Road" />
    <tag k="addr:state" v="VT" />
    <tag k="ref:vcgi:esiteid" v="260035" />
  </node>
  <node id="-218" visible="true" lat="43.43499374" lon="-73.0513153">
    <tag k="addr:city" v="Tinmouth" />
    <tag k="addr:housenumber" v="199" />
    <tag k="addr:street" v="Mountain View Road" />
    <tag k="addr:state" v="VT" />
    <tag k="ref:vcgi:esiteid" v="260036" />
  </node>
  <node id="-220" visible="true" lat="43.43471908" lon="-73.05332946">
    <tag k="addr:city" v="Tinmouth" />
    <tag k="addr:housenumber" v="12" />
    <tag k="addr:street" v="Gilmore Road" />
    <tag k="addr:state" v="VT" />
    <tag k="ref:vcgi:esiteid" v="260038" />
  </node>
  <node id="-221" visible="true" lat="43.43291854" lon="-73.05192565">
    <tag k="addr:city" v="Tinmouth" />
    <tag k="addr:housenumber" v="230" />
    <tag k="addr:street" v="Mountain View Road" />
    <tag k="addr:state" v="VT" />
    <tag k="ref:vcgi:esiteid" v="260040" />
  </node>
  <node id="-222" visible="true" lat="43.43285751" lon="-73.05824279">
    <tag k="addr:city" v="Tinmouth" />
    <tag k="addr:housenumber" v="62" />
    <tag k="addr:street" v="Gilmore Road" />
    <tag k="addr:state" v="VT" />
    <tag k="ref:vcgi:esiteid" v="260041" />
  </node>
  <node id="-223" visible="true" lat="43.43242263" lon="-73.05685424">
    <tag k="addr:city" v="Tinmouth" />
    <tag k="addr:housenumber" v="70" />
    <tag k="addr:street" v="Gilmore Road" />
    <tag k="addr:state" v="VT" />
    <tag k="ref:vcgi:esiteid" v="260042" />
  </node>
  <node id="-224" visible="true" lat="43.43172073" lon="-73.10935974">
    <tag k="addr:city" v="Tinmouth" />
    <tag k="addr:housenumber" v="914" />
    <tag k="addr:street" v="Gulf Road" />
    <tag k="addr:state" v="VT" />
    <tag k="ref:vcgi:esiteid" v="260043" />
  </node>
  <node id="-225" visible="true" lat="43.43125915" lon="-73.05696105">
    <tag k="addr:city" v="Tinmouth" />
    <tag k="addr:housenumber" v="86" />
    <tag k="addr:street" v="Gilmore Road" />
    <tag k="addr:state" v="VT" />
    <tag k="ref:vcgi:esiteid" v="260044" />
  </node>
  <node id="-226" visible="true" lat="43.43080902" lon="-73.05059814">
    <tag k="addr:city" v="Tinmouth" />
    <tag k="addr:housenumber" v="259" />
    <tag k="addr:street" v="Mountain View Road" />
    <tag k="addr:state" v="VT" />
    <tag k="ref:vcgi:esiteid" v="260045" />
  </node>
  <node id="-227" visible="true" lat="43.43054962" lon="-73.05695342">
    <tag k="addr:city" v="Tinmouth" />
    <tag k="addr:housenumber" v="88" />
    <tag k="addr:street" v="Gilmore Road" />
    <tag k="addr:state" v="VT" />
    <tag k="ref:vcgi:esiteid" v="260046" />
  </node>
  <node id="-228" visible="true" lat="43.42965316" lon="-73.05342865">
    <tag k="addr:city" v="Tinmouth" />
    <tag k="addr:housenumber" v="282" />
    <tag k="addr:street" v="Mountain View Road" />
    <tag k="addr:state" v="VT" />
    <tag k="ref:vcgi:esiteid" v="260048" />
  </node>
  <node id="-229" visible="true" lat="43.42930602" lon="-73.11465454">
    <tag k="addr:city" v="Tinmouth" />
    <tag k="addr:housenumber" v="57" />
    <tag k="addr:street" v="Vermont Route 133 W Tinmouth Road" />
    <tag k="addr:state" v="VT" />
    <tag k="ref:vcgi:esiteid" v="260049" />
  </node>
  <node id="-230" visible="true" lat="43.42871475" lon="-73.11512756">
    <tag k="addr:city" v="Tinmouth" />
    <tag k="addr:housenumber" v="61" />
    <tag k="addr:street" v="Vermont Route 133 W Tinmouth Road" />
    <tag k="addr:state" v="VT" />
    <tag k="ref:vcgi:esiteid" v="260050" />
  </node>
  <node id="-231" visible="true" lat="43.42889022" lon="-73.05083465">
    <tag k="addr:city" v="Tinmouth" />
    <tag k="addr:housenumber" v="283" />
    <tag k="addr:street" v="Mountain View Road" />
    <tag k="addr:state" v="VT" />
    <tag k="ref:vcgi:esiteid" v="260051" />
  </node>
  <node id="-232" visible="true" lat="43.42748508" lon="-73.11240102">
    <tag k="addr:city" v="Tinmouth" />
    <tag k="addr:housenumber" v="85" />
    <tag k="addr:street" v="Vermont Route 133 W Tinmouth Road" />
    <tag k="addr:state" v="VT" />
    <tag k="ref:vcgi:esiteid" v="260052" />
  </node>
  <node id="-233" visible="true" lat="43.42822265" lon="-73.1177597">
    <tag k="addr:city" v="Tinmouth" />
    <tag k="addr:housenumber" v="76" />
    <tag k="addr:street" v="Vermont Route 133 W Tinmouth Road" />
    <tag k="addr:state" v="VT" />
    <tag k="ref:vcgi:esiteid" v="260053" />
  </node>
  <node id="-234" visible="true" lat="43.42856979" lon="-73.02409362">
    <tag k="addr:city" v="Tinmouth" />
    <tag k="addr:housenumber" v="180" />
    <tag k="addr:street" v="Crow Hill Road" />
    <tag k="addr:state" v="VT" />
    <tag k="ref:vcgi:esiteid" v="260054" />
  </node>
  <node id="-235" visible="true" lat="43.42765808" lon="-73.116539">
    <tag k="addr:city" v="Tinmouth" />
    <tag k="addr:housenumber" v="84" />
    <tag k="addr:street" v="Vermont Route 133 W Tinmouth Road" />
    <tag k="addr:state" v="VT" />
    <tag k="ref:vcgi:esiteid" v="260055" />
  </node>
  <node id="-236" visible="true" lat="43.42607879" lon="-73.05443573">
    <tag k="addr:city" v="Tinmouth" />
    <tag k="addr:housenumber" v="26" />
    <tag k="addr:street" v="Merrill Spring Road" />
    <tag k="addr:state" v="VT" />
    <tag k="ref:vcgi:esiteid" v="260056" />
  </node>
  <node id="-237" visible="true" lat="43.42593765" lon="-73.05709838">
    <tag k="addr:city" v="Tinmouth" />
    <tag k="addr:housenumber" v="52" />
    <tag k="addr:street" v="Merrill Spring Road" />
    <tag k="addr:state" v="VT" />
    <tag k="ref:vcgi:esiteid" v="260057" />
  </node>
  <node id="-238" visible="true" lat="43.42567825" lon="-73.03778076">
    <tag k="addr:city" v="Tinmouth" />
    <tag k="addr:housenumber" v="372" />
    <tag k="addr:street" v="East Road" />
    <tag k="addr:state" v="VT" />
    <tag k="ref:vcgi:esiteid" v="260058" />
  </node>
  <node id="-239" visible="true" lat="43.42523193" lon="-73.03747558">
    <tag k="addr:city" v="Tinmouth" />
    <tag k="addr:housenumber" v="374" />
    <tag k="addr:street" v="East Road" />
    <tag k="addr:state" v="VT" />
    <tag k="ref:vcgi:esiteid" v="260059" />
  </node>
  <node id="-240" visible="true" lat="43.42440033" lon="-73.03549194">
    <tag k="addr:city" v="Tinmouth" />
    <tag k="addr:housenumber" v="367" />
    <tag k="addr:street" v="East Road" />
    <tag k="addr:state" v="VT" />
    <tag k="ref:vcgi:esiteid" v="260060" />
  </node>
  <node id="-241" visible="true" lat="43.42402267" lon="-73.05739593">
    <tag k="addr:city" v="Tinmouth" />
    <tag k="addr:housenumber" v="78" />
    <tag k="addr:street" v="Merrill Spring Road" />
    <tag k="addr:state" v="VT" />
    <tag k="ref:vcgi:esiteid" v="260061" />
  </node>
  <node id="-242" visible="true" lat="43.42341613" lon="-73.05086517">
    <tag k="addr:city" v="Tinmouth" />
    <tag k="addr:housenumber" v="367" />
    <tag k="addr:street" v="Mountain View Road" />
    <tag k="addr:state" v="VT" />
    <tag k="ref:vcgi:esiteid" v="260062" />
  </node>
  <node id="-243" visible="true" lat="43.42334821" lon="-73.03576096">
    <tag k="addr:city" v="Tinmouth" />
    <tag k="addr:housenumber" v="387" />
    <tag k="addr:street" v="East Road" />
    <tag k="addr:state" v="VT" />
    <tag k="ref:vcgi:esiteid" v="260063" />
  </node>
  <node id="-244" visible="true" lat="43.42286656" lon="-73.11818353">
    <tag k="addr:city" v="Tinmouth" />
    <tag k="addr:housenumber" v="155" />
    <tag k="addr:street" v="Vermont Route 133 W Tinmouth Road" />
    <tag k="addr:state" v="VT" />
    <tag k="ref:vcgi:esiteid" v="260064" />
  </node>
  <node id="-245" visible="true" lat="43.4221878" lon="-73.0363388">
    <tag k="addr:city" v="Tinmouth" />
    <tag k="addr:housenumber" v="412" />
    <tag k="addr:street" v="East Road" />
    <tag k="addr:state" v="VT" />
    <tag k="ref:vcgi:esiteid" v="260065" />
  </node>
  <node id="-246" visible="true" lat="43.42139434" lon="-73.03648376">
    <tag k="addr:city" v="Tinmouth" />
    <tag k="addr:housenumber" v="418" />
    <tag k="addr:street" v="East Road" />
    <tag k="addr:state" v="VT" />
    <tag k="ref:vcgi:esiteid" v="260066" />
  </node>
  <node id="-247" visible="true" lat="43.42107772" lon="-73.0376358">
    <tag k="addr:city" v="Tinmouth" />
    <tag k="addr:housenumber" v="424" />
    <tag k="addr:street" v="East Road" />
    <tag k="addr:state" v="VT" />
    <tag k="ref:vcgi:esiteid" v="260067" />
  </node>
  <node id="-248" visible="true" lat="43.42100524" lon="-73.05232238">
    <tag k="addr:city" v="Tinmouth" />
    <tag k="addr:housenumber" v="408" />
    <tag k="addr:street" v="Mountain View Road" />
    <tag k="addr:state" v="VT" />
    <tag k="ref:vcgi:esiteid" v="260068" />
  </node>
  <node id="-249" visible="true" lat="43.42067336" lon="-73.03662872">
    <tag k="addr:city" v="Tinmouth" />
    <tag k="addr:housenumber" v="426" />
    <tag k="addr:street" v="East Road" />
    <tag k="addr:state" v="VT" />
    <tag k="ref:vcgi:esiteid" v="260069" />
  </node>
  <node id="-250" visible="true" lat="43.42005298" lon="-73.11964833">
    <tag k="addr:city" v="Tinmouth" />
    <tag k="addr:housenumber" v="200" />
    <tag k="addr:street" v="Vermont Route 133 W Tinmouth Road" />
    <tag k="addr:state" v="VT" />
    <tag k="ref:vcgi:esiteid" v="260070" />
  </node>
  <node id="-251" visible="true" lat="43.41990661" lon="-73.11302947">
    <tag k="addr:city" v="Tinmouth" />
    <tag k="addr:housenumber" v="131" />
    <tag k="addr:street" v="McCoy Road" />
    <tag k="addr:state" v="VT" />
    <tag k="ref:vcgi:esiteid" v="260071" />
  </node>
  <node id="-252" visible="true" lat="43.42025375" lon="-73.03745269">
    <tag k="addr:city" v="Tinmouth" />
    <tag k="addr:housenumber" v="438" />
    <tag k="addr:street" v="East Road" />
    <tag k="addr:state" v="VT" />
    <tag k="ref:vcgi:esiteid" v="260072" />
  </node>
  <node id="-253" visible="true" lat="43.41929626" lon="-73.05194091">
    <tag k="addr:city" v="Tinmouth" />
    <tag k="addr:housenumber" v="434" />
    <tag k="addr:street" v="Mountain View Road" />
    <tag k="addr:state" v="VT" />
    <tag k="ref:vcgi:esiteid" v="260073" />
  </node>
  <node id="-254" visible="true" lat="43.41886901" lon="-73.03575134">
    <tag k="addr:city" v="Tinmouth" />
    <tag k="addr:housenumber" v="457" />
    <tag k="addr:street" v="East Road" />
    <tag k="addr:state" v="VT" />
    <tag k="ref:vcgi:esiteid" v="260074" />
  </node>
  <node id="-255" visible="true" lat="43.41829453" lon="-73.11879904">
    <tag k="addr:city" v="Tinmouth" />
    <tag k="addr:housenumber" v="225" />
    <tag k="addr:street" v="Vermont Route 133 W Tinmouth Road" />
    <tag k="addr:state" v="VT" />
    <tag k="ref:vcgi:esiteid" v="260075" />
  </node>
  <node id="-256" visible="true" lat="43.41825866" lon="-73.11499786">
    <tag k="addr:city" v="Tinmouth" />
    <tag k="addr:housenumber" v="95" />
    <tag k="addr:street" v="McCoy Road" />
    <tag k="addr:state" v="VT" />
    <tag k="ref:vcgi:esiteid" v="260076" />
  </node>
  <node id="-257" visible="true" lat="43.41785049" lon="-73.11988067">
    <tag k="addr:city" v="Tinmouth" />
    <tag k="addr:housenumber" v="226" />
    <tag k="addr:street" v="Vermont Route 133 W Tinmouth Road" />
    <tag k="addr:state" v="VT" />
    <tag k="ref:vcgi:esiteid" v="260077" />
  </node>
  <node id="-258" visible="true" lat="43.41814422" lon="-73.03626251">
    <tag k="addr:city" v="Tinmouth" />
    <tag k="addr:housenumber" v="464" />
    <tag k="addr:street" v="East Road" />
    <tag k="addr:state" v="VT" />
    <tag k="ref:vcgi:esiteid" v="260078" />
  </node>
  <node id="-259" visible="true" lat="43.41785812" lon="-73.05831909">
    <tag k="addr:city" v="Tinmouth" />
    <tag k="addr:housenumber" v="162" />
    <tag k="addr:street" v="Merrill Spring Road" />
    <tag k="addr:state" v="VT" />
    <tag k="ref:vcgi:esiteid" v="260079" />
  </node>
  <node id="-260" visible="true" lat="43.41775651" lon="-73.03631411">
    <tag k="addr:city" v="Tinmouth" />
    <tag k="addr:housenumber" v="466" />
    <tag k="addr:street" v="East Road" />
    <tag k="addr:state" v="VT" />
    <tag k="ref:vcgi:esiteid" v="260080" />
  </node>
  <node id="-261" visible="true" lat="43.41712951" lon="-73.11911773">
    <tag k="addr:city" v="Tinmouth" />
    <tag k="addr:housenumber" v="241" />
    <tag k="addr:street" v="Vermont Route 133 W Tinmouth Road" />
    <tag k="addr:state" v="VT" />
    <tag k="ref:vcgi:esiteid" v="260081" />
  </node>
  <node id="-262" visible="true" lat="43.41731262" lon="-73.05773925">
    <tag k="addr:city" v="Tinmouth" />
    <tag k="addr:housenumber" v="160" />
    <tag k="addr:street" v="Merrill Spring Road" />
    <tag k="addr:state" v="VT" />
    <tag k="ref:vcgi:esiteid" v="260082" />
  </node>
  <node id="-263" visible="true" lat="43.4170227" lon="-73.05133819">
    <tag k="addr:city" v="Tinmouth" />
    <tag k="addr:housenumber" v="463" />
    <tag k="addr:street" v="Mountain View Road" />
    <tag k="addr:state" v="VT" />
    <tag k="ref:vcgi:esiteid" v="260083" />
  </node>
  <node id="-264" visible="true" lat="43.41694641" lon="-73.03649902">
    <tag k="addr:city" v="Tinmouth" />
    <tag k="addr:housenumber" v="488" />
    <tag k="addr:street" v="East Road" />
    <tag k="addr:state" v="VT" />
    <tag k="ref:vcgi:esiteid" v="260084" />
  </node>
  <node id="-265" visible="true" lat="43.41651534" lon="-73.03541564">
    <tag k="addr:city" v="Tinmouth" />
    <tag k="addr:housenumber" v="493" />
    <tag k="addr:street" v="East Road" />
    <tag k="addr:state" v="VT" />
    <tag k="ref:vcgi:esiteid" v="260085" />
  </node>
  <node id="-266" visible="true" lat="43.41650772" lon="-73.03309631">
    <tag k="addr:city" v="Tinmouth" />
    <tag k="addr:housenumber" v="523" />
    <tag k="addr:street" v="East Road" />
    <tag k="addr:state" v="VT" />
    <tag k="ref:vcgi:esiteid" v="260086" />
  </node>
  <node id="-267" visible="true" lat="43.41640853" lon="-73.03251647">
    <tag k="addr:city" v="Tinmouth" />
    <tag k="addr:housenumber" v="525" />
    <tag k="addr:street" v="East Road" />
    <tag k="addr:state" v="VT" />
    <tag k="ref:vcgi:esiteid" v="260087" />
  </node>
  <node id="-268" visible="true" lat="43.41583633" lon="-73.11984252">
    <tag k="addr:city" v="Tinmouth" />
    <tag k="addr:housenumber" v="246" />
    <tag k="addr:street" v="Vermont Route 133 W Tinmouth Road" />
    <tag k="addr:state" v="VT" />
    <tag k="ref:vcgi:esiteid" v="260088" />
  </node>
  <node id="-269" visible="true" lat="43.41580131" lon="-73.11755536">
    <tag k="addr:city" v="Tinmouth" />
    <tag k="addr:housenumber" v="261" />
    <tag k="addr:street" v="Vermont Route 133 W Tinmouth Road" />
    <tag k="addr:state" v="VT" />
    <tag k="ref:vcgi:esiteid" v="260089" />
  </node>
  <node id="-270" visible="true" lat="43.41582107" lon="-73.03651428">
    <tag k="addr:city" v="Tinmouth" />
    <tag k="addr:housenumber" v="494" />
    <tag k="addr:street" v="East Road" />
    <tag k="addr:state" v="VT" />
    <tag k="ref:vcgi:esiteid" v="260090" />
  </node>
  <node id="-271" visible="true" lat="43.41470336" lon="-73.11598205">
    <tag k="addr:city" v="Tinmouth" />
    <tag k="addr:housenumber" v="24" />
    <tag k="addr:street" v="McCoy Road" />
    <tag k="addr:state" v="VT" />
    <tag k="ref:vcgi:esiteid" v="260091" />
  </node>
  <node id="-272" visible="true" lat="43.41465759" lon="-73.11808776">
    <tag k="addr:city" v="Tinmouth" />
    <tag k="addr:housenumber" v="279" />
    <tag k="addr:street" v="Vermont Route 133 W Tinmouth Road" />
    <tag k="addr:state" v="VT" />
    <tag k="ref:vcgi:esiteid" v="260092" />
  </node>
  <node id="-273" visible="true" lat="43.41440582" lon="-73.03675079">
    <tag k="addr:city" v="Tinmouth" />
    <tag k="addr:housenumber" v="522" />
    <tag k="addr:street" v="East Road" />
    <tag k="addr:state" v="VT" />
    <tag k="ref:vcgi:esiteid" v="260093" />
  </node>
  <node id="-274" visible="true" lat="43.41362762" lon="-73.11653137">
    <tag k="addr:city" v="Tinmouth" />
    <tag k="addr:housenumber" v="22" />
    <tag k="addr:street" v="McCoy Road" />
    <tag k="addr:state" v="VT" />
    <tag k="ref:vcgi:esiteid" v="260094" />
  </node>
  <node id="-275" visible="true" lat="43.41395365" lon="-73.03548254">
    <tag k="addr:city" v="Tinmouth" />
    <tag k="addr:housenumber" v="527" />
    <tag k="addr:street" v="East Road" />
    <tag k="addr:state" v="VT" />
    <tag k="ref:vcgi:esiteid" v="260095" />
  </node>
  <node id="-276" visible="true" lat="43.41302108" lon="-73.04824829">
    <tag k="addr:city" v="Tinmouth" />
    <tag k="addr:housenumber" v="535" />
    <tag k="addr:street" v="Mountain View Road" />
    <tag k="addr:state" v="VT" />
    <tag k="ref:vcgi:esiteid" v="260096" />
  </node>
  <node id="-277" visible="true" lat="43.41282272" lon="-73.05801391">
    <tag k="addr:city" v="Tinmouth" />
    <tag k="addr:housenumber" v="242" />
    <tag k="addr:street" v="Merrill Spring Road" />
    <tag k="addr:state" v="VT" />
    <tag k="ref:vcgi:esiteid" v="260097" />
  </node>
  <node id="-278" visible="true" lat="43.41242599" lon="-73.03079986">
    <tag k="addr:city" v="Tinmouth" />
    <tag k="addr:housenumber" v="91" />
    <tag k="addr:street" v="White Birch Drive" />
    <tag k="addr:state" v="VT" />
    <tag k="ref:vcgi:esiteid" v="260098" />
  </node>
  <node id="-279" visible="true" lat="43.41222763" lon="-73.047966">
    <tag k="addr:city" v="Tinmouth" />
    <tag k="addr:housenumber" v="545" />
    <tag k="addr:street" v="Mountain View Road" />
    <tag k="addr:state" v="VT" />
    <tag k="ref:vcgi:esiteid" v="260099" />
  </node>
  <node id="-280" visible="true" lat="43.4122734" lon="-73.03725433">
    <tag k="addr:city" v="Tinmouth" />
    <tag k="addr:housenumber" v="556" />
    <tag k="addr:street" v="East Road" />
    <tag k="addr:state" v="VT" />
    <tag k="ref:vcgi:esiteid" v="260100" />
  </node>
  <node id="-281" visible="true" lat="43.41219329" lon="-73.03256988">
    <tag k="addr:city" v="Tinmouth" />
    <tag k="addr:housenumber" v="75" />
    <tag k="addr:street" v="White Birch Drive" />
    <tag k="addr:state" v="VT" />
    <tag k="ref:vcgi:esiteid" v="260101" />
  </node>
  <node id="-282" visible="true" lat="43.41175842" lon="-73.11760711">
    <tag k="addr:city" v="Tinmouth" />
    <tag k="addr:housenumber" v="2" />
    <tag k="addr:street" v="McCoy Road" />
    <tag k="addr:state" v="VT" />
    <tag k="ref:vcgi:esiteid" v="260102" />
  </node>
  <node id="-283" visible="true" lat="43.41205215" lon="-73.03077697">
    <tag k="addr:city" v="Tinmouth" />
    <tag k="addr:housenumber" v="92" />
    <tag k="addr:street" v="White Birch Drive" />
    <tag k="addr:state" v="VT" />
    <tag k="ref:vcgi:esiteid" v="260103" />
  </node>
  <node id="-284" visible="true" lat="43.41200637" lon="-73.03193664">
    <tag k="addr:city" v="Tinmouth" />
    <tag k="addr:housenumber" v="74" />
    <tag k="addr:street" v="White Birch Drive" />
    <tag k="addr:state" v="VT" />
    <tag k="ref:vcgi:esiteid" v="260104" />
  </node>
  <node id="-285" visible="true" lat="43.41199111" lon="-73.03122711">
    <tag k="addr:city" v="Tinmouth" />
    <tag k="addr:housenumber" v="86" />
    <tag k="addr:street" v="White Birch Drive" />
    <tag k="addr:state" v="VT" />
    <tag k="ref:vcgi:esiteid" v="260105" />
  </node>
  <node id="-286" visible="true" lat="43.41177749" lon="-73.03224945">
    <tag k="addr:city" v="Tinmouth" />
    <tag k="addr:housenumber" v="70" />
    <tag k="addr:street" v="White Birch Drive" />
    <tag k="addr:state" v="VT" />
    <tag k="ref:vcgi:esiteid" v="260106" />
  </node>
  <node id="-287" visible="true" lat="43.41175842" lon="-73.03064727">
    <tag k="addr:city" v="Tinmouth" />
    <tag k="addr:housenumber" v="106" />
    <tag k="addr:street" v="White Birch Drive" />
    <tag k="addr:state" v="VT" />
    <tag k="ref:vcgi:esiteid" v="260107" />
  </node>
  <node id="-288" visible="true" lat="43.41179353" lon="-73.02994726">
    <tag k="addr:city" v="Tinmouth" />
    <tag k="addr:housenumber" v="105" />
    <tag k="addr:street" v="White Birch Drive" />
    <tag k="addr:state" v="VT" />
    <tag k="ref:vcgi:esiteid" v="260108" />
  </node>
  <node id="-289" visible="true" lat="43.41153635" lon="-73.03240561">
    <tag k="addr:city" v="Tinmouth" />
    <tag k="addr:housenumber" v="66" />
    <tag k="addr:street" v="White Birch Drive" />
    <tag k="addr:state" v="VT" />
    <tag k="ref:vcgi:esiteid" v="260109" />
  </node>
  <node id="-290" visible="true" lat="43.41141128" lon="-73.02978515">
    <tag k="addr:city" v="Tinmouth" />
    <tag k="addr:housenumber" v="109" />
    <tag k="addr:street" v="White Birch Drive" />
    <tag k="addr:state" v="VT" />
    <tag k="ref:vcgi:esiteid" v="260110" />
  </node>
  <node id="-291" visible="true" lat="43.4112837" lon="-73.03036405">
    <tag k="addr:city" v="Tinmouth" />
    <tag k="addr:housenumber" v="108" />
    <tag k="addr:street" v="White Birch Drive" />
    <tag k="addr:state" v="VT" />
    <tag k="ref:vcgi:esiteid" v="260111" />
  </node>
  <node id="-292" visible="true" lat="43.41104451" lon="-73.03906942">
    <tag k="addr:city" v="Tinmouth" />
    <tag k="addr:housenumber" v="580" />
    <tag k="addr:street" v="East Road" />
    <tag k="addr:state" v="VT" />
    <tag k="ref:vcgi:esiteid" v="260113" />
  </node>
  <node id="-293" visible="true" lat="43.41102798" lon="-73.0301434">
    <tag k="addr:city" v="Tinmouth" />
    <tag k="addr:housenumber" v="112" />
    <tag k="addr:street" v="White Birch Drive" />
    <tag k="addr:state" v="VT" />
    <tag k="ref:vcgi:esiteid" v="260114" />
  </node>
  <node id="-294" visible="true" lat="43.41098785" lon="-73.03245544">
    <tag k="addr:city" v="Tinmouth" />
    <tag k="addr:housenumber" v="58" />
    <tag k="addr:street" v="White Birch Drive" />
    <tag k="addr:state" v="VT" />
    <tag k="ref:vcgi:esiteid" v="260115" />
  </node>
  <node id="-295" visible="true" lat="43.41081237" lon="-73.02996826">
    <tag k="addr:city" v="Tinmouth" />
    <tag k="addr:housenumber" v="118" />
    <tag k="addr:street" v="White Birch Drive" />
    <tag k="addr:state" v="VT" />
    <tag k="ref:vcgi:esiteid" v="260116" />
  </node>
  <node id="-296" visible="true" lat="43.41067886" lon="-73.03241729">
    <tag k="addr:city" v="Tinmouth" />
    <tag k="addr:housenumber" v="54" />
    <tag k="addr:street" v="White Birch Drive" />
    <tag k="addr:state" v="VT" />
    <tag k="ref:vcgi:esiteid" v="260117" />
  </node>
  <node id="-297" visible="true" lat="43.41038894" lon="-73.04671478">
    <tag k="addr:city" v="Tinmouth" />
    <tag k="addr:housenumber" v="581" />
    <tag k="addr:street" v="Mountain View Road" />
    <tag k="addr:state" v="VT" />
    <tag k="ref:vcgi:esiteid" v="260118" />
  </node>
  <node id="-298" visible="true" lat="43.41044616" lon="-73.03245544">
    <tag k="addr:city" v="Tinmouth" />
    <tag k="addr:housenumber" v="50" />
    <tag k="addr:street" v="White Birch Drive" />
    <tag k="addr:state" v="VT" />
    <tag k="ref:vcgi:esiteid" v="260119" />
  </node>
  <node id="-299" visible="true" lat="43.41054014" lon="-73.02988058">
    <tag k="addr:city" v="Tinmouth" />
    <tag k="addr:housenumber" v="122" />
    <tag k="addr:street" v="White Birch Drive" />
    <tag k="addr:state" v="VT" />
    <tag k="ref:vcgi:esiteid" v="260120" />
  </node>
  <node id="-300" visible="true" lat="43.41033119" lon="-73.02981493">
    <tag k="addr:city" v="Tinmouth" />
    <tag k="addr:housenumber" v="124" />
    <tag k="addr:street" v="White Birch Drive" />
    <tag k="addr:state" v="VT" />
    <tag k="ref:vcgi:esiteid" v="260121" />
  </node>
  <node id="-301" visible="true" lat="43.41012191" lon="-73.03261566">
    <tag k="addr:city" v="Tinmouth" />
    <tag k="addr:housenumber" v="42" />
    <tag k="addr:street" v="White Birch Drive" />
    <tag k="addr:state" v="VT" />
    <tag k="ref:vcgi:esiteid" v="260122" />
  </node>
  <node id="-302" visible="true" lat="43.41007995" lon="-73.02971649">
    <tag k="addr:city" v="Tinmouth" />
    <tag k="addr:housenumber" v="126" />
    <tag k="addr:street" v="White Birch Drive" />
    <tag k="addr:state" v="VT" />
    <tag k="ref:vcgi:esiteid" v="260123" />
  </node>
  <node id="-303" visible="true" lat="43.40977131" lon="-73.02849366">
    <tag k="addr:city" v="Tinmouth" />
    <tag k="addr:housenumber" v="134" />
    <tag k="addr:street" v="White Birch Drive" />
    <tag k="addr:state" v="VT" />
    <tag k="ref:vcgi:esiteid" v="260124" />
  </node>
  <node id="-304" visible="true" lat="43.40953826" lon="-73.05190277">
    <tag k="addr:city" v="Tinmouth" />
    <tag k="addr:housenumber" v="84" />
    <tag k="addr:street" v="Wrights Road" />
    <tag k="addr:state" v="VT" />
    <tag k="ref:vcgi:esiteid" v="260125" />
  </node>
  <node id="-305" visible="true" lat="43.40954866" lon="-73.03783227">
    <tag k="addr:city" v="Tinmouth" />
    <tag k="addr:housenumber" v="594" />
    <tag k="addr:street" v="East Road" />
    <tag k="addr:state" v="VT" />
    <tag k="ref:vcgi:esiteid" v="260126" />
  </node>
  <node id="-306" visible="true" lat="43.40942382" lon="-73.02827453">
    <tag k="addr:city" v="Tinmouth" />
    <tag k="addr:housenumber" v="148" />
    <tag k="addr:street" v="White Birch Drive" />
    <tag k="addr:state" v="VT" />
    <tag k="ref:vcgi:esiteid" v="260127" />
  </node>
  <node id="-307" visible="true" lat="43.40932845" lon="-73.03352355">
    <tag k="addr:city" v="Tinmouth" />
    <tag k="addr:housenumber" v="64" />
    <tag k="addr:street" v="Chipmunk Crossing Drive" />
    <tag k="addr:state" v="VT" />
    <tag k="ref:vcgi:esiteid" v="260128" />
  </node>
  <node id="-308" visible="true" lat="43.40905761" lon="-73.02799224">
    <tag k="addr:city" v="Tinmouth" />
    <tag k="addr:housenumber" v="154" />
    <tag k="addr:street" v="White Birch Drive" />
    <tag k="addr:state" v="VT" />
    <tag k="ref:vcgi:esiteid" v="260129" />
  </node>
  <node id="-309" visible="true" lat="43.4088534" lon="-73.03439736">
    <tag k="addr:city" v="Tinmouth" />
    <tag k="addr:housenumber" v="48" />
    <tag k="addr:street" v="Chipmunk Crossing Drive" />
    <tag k="addr:state" v="VT" />
    <tag k="ref:vcgi:esiteid" v="260130" />
  </node>
  <node id="-310" visible="true" lat="43.40890543" lon="-73.02726872">
    <tag k="addr:city" v="Tinmouth" />
    <tag k="addr:housenumber" v="156" />
    <tag k="addr:street" v="White Birch Drive" />
    <tag k="addr:state" v="VT" />
    <tag k="ref:vcgi:esiteid" v="260131" />
  </node>
  <node id="-311" visible="true" lat="43.4086563" lon="-73.02696572">
    <tag k="addr:city" v="Tinmouth" />
    <tag k="addr:housenumber" v="162" />
    <tag k="addr:street" v="White Birch Drive" />
    <tag k="addr:state" v="VT" />
    <tag k="ref:vcgi:esiteid" v="260132" />
  </node>
  <node id="-312" visible="true" lat="43.40841311" lon="-73.04654297">
    <tag k="addr:city" v="Tinmouth" />
    <tag k="addr:housenumber" v="605" />
    <tag k="addr:street" v="Mountain View Road" />
    <tag k="addr:state" v="VT" />
    <tag k="ref:vcgi:esiteid" v="260133" />
  </node>
  <node id="-313" visible="true" lat="43.40831375" lon="-73.0346527">
    <tag k="addr:city" v="Tinmouth" />
    <tag k="addr:housenumber" v="32" />
    <tag k="addr:street" v="Chipmunk Crossing Drive" />
    <tag k="addr:state" v="VT" />
    <tag k="ref:vcgi:esiteid" v="260134" />
  </node>
  <node id="-314" visible="true" lat="43.4081993" lon="-73.0250473">
    <tag k="addr:city" v="Tinmouth" />
    <tag k="addr:housenumber" v="147" />
    <tag k="addr:street" v="White Birch Drive" />
    <tag k="addr:state" v="VT" />
    <tag k="ref:vcgi:esiteid" v="260135" />
  </node>
  <node id="-315" visible="true" lat="43.40812683" lon="-73.03804016">
    <tag k="addr:city" v="Tinmouth" />
    <tag k="addr:housenumber" v="618" />
    <tag k="addr:street" v="East Road" />
    <tag k="addr:state" v="VT" />
    <tag k="ref:vcgi:esiteid" v="260136" />
  </node>
  <node id="-316" visible="true" lat="43.4080745" lon="-73.02676843">
    <tag k="addr:city" v="Tinmouth" />
    <tag k="addr:housenumber" v="172" />
    <tag k="addr:street" v="White Birch Drive" />
    <tag k="addr:state" v="VT" />
    <tag k="ref:vcgi:esiteid" v="260137" />
  </node>
  <node id="-317" visible="true" lat="43.40795898" lon="-73.04664611">
    <tag k="addr:city" v="Tinmouth" />
    <tag k="addr:housenumber" v="609" />
    <tag k="addr:street" v="Mountain View Road" />
    <tag k="addr:state" v="VT" />
    <tag k="ref:vcgi:esiteid" v="260138" />
  </node>
  <node id="-318" visible="true" lat="43.40769958" lon="-73.04483032">
    <tag k="addr:city" v="Tinmouth" />
    <tag k="addr:housenumber" v="617" />
    <tag k="addr:street" v="Mountain View Road" />
    <tag k="addr:state" v="VT" />
    <tag k="ref:vcgi:esiteid" v="260139" />
  </node>
  <node id="-319" visible="true" lat="43.40738296" lon="-73.0349121">
    <tag k="addr:city" v="Tinmouth" />
    <tag k="addr:housenumber" v="100" />
    <tag k="addr:street" v="West Shore Drive" />
    <tag k="addr:state" v="VT" />
    <tag k="ref:vcgi:esiteid" v="260140" />
  </node>
  <node id="-320" visible="true" lat="43.40731048" lon="-73.03462219">
    <tag k="addr:city" v="Tinmouth" />
    <tag k="addr:housenumber" v="98" />
    <tag k="addr:street" v="West Shore Drive" />
    <tag k="addr:state" v="VT" />
    <tag k="ref:vcgi:esiteid" v="260141" />
  </node>
  <node id="-321" visible="true" lat="43.40726089" lon="-73.0381546">
    <tag k="addr:city" v="Tinmouth" />
    <tag k="addr:housenumber" v="628" />
    <tag k="addr:street" v="East Road" />
    <tag k="addr:state" v="VT" />
    <tag k="ref:vcgi:esiteid" v="260142" />
  </node>
  <node id="-322" visible="true" lat="43.40713119" lon="-73.04651641">
    <tag k="addr:city" v="Tinmouth" />
    <tag k="addr:housenumber" v="621" />
    <tag k="addr:street" v="Mountain View Road" />
    <tag k="addr:state" v="VT" />
    <tag k="ref:vcgi:esiteid" v="260143" />
  </node>
  <node id="-323" visible="true" lat="43.40716552" lon="-73.03462219">
    <tag k="addr:city" v="Tinmouth" />
    <tag k="addr:housenumber" v="96" />
    <tag k="addr:street" v="West Shore Drive" />
    <tag k="addr:state" v="VT" />
    <tag k="ref:vcgi:esiteid" v="260144" />
  </node>
  <node id="-324" visible="true" lat="43.40697479" lon="-73.03446197">
    <tag k="addr:city" v="Tinmouth" />
    <tag k="addr:housenumber" v="92" />
    <tag k="addr:street" v="West Shore Drive" />
    <tag k="addr:state" v="VT" />
    <tag k="ref:vcgi:esiteid" v="260145" />
  </node>
  <node id="-325" visible="true" lat="43.4078075" lon="-73.02685959">
    <tag k="addr:city" v="Tinmouth" />
    <tag k="addr:housenumber" v="176" />
    <tag k="addr:street" v="White Birch Drive" />
    <tag k="addr:state" v="VT" />
    <tag k="ref:vcgi:esiteid" v="260146" />
  </node>
  <node id="-326" visible="true" lat="43.40667724" lon="-73.02683258">
    <tag k="addr:city" v="Tinmouth" />
    <tag k="addr:housenumber" v="47" />
    <tag k="addr:street" v="East Shore Drive" />
    <tag k="addr:state" v="VT" />
    <tag k="ref:vcgi:esiteid" v="260147" />
  </node>
  <node id="-327" visible="true" lat="43.40662002" lon="-73.03409576">
    <tag k="addr:city" v="Tinmouth" />
    <tag k="addr:housenumber" v="86" />
    <tag k="addr:street" v="West Shore Drive" />
    <tag k="addr:state" v="VT" />
    <tag k="ref:vcgi:esiteid" v="260148" />
  </node>
  <node id="-328" visible="true" lat="43.40660858" lon="-73.03477477">
    <tag k="addr:city" v="Tinmouth" />
    <tag k="addr:housenumber" v="91" />
    <tag k="addr:street" v="West Shore Drive" />
    <tag k="addr:state" v="VT" />
    <tag k="ref:vcgi:esiteid" v="260149" />
  </node>
  <node id="-329" visible="true" lat="43.40642166" lon="-73.03389739">
    <tag k="addr:city" v="Tinmouth" />
    <tag k="addr:housenumber" v="82" />
    <tag k="addr:street" v="West Shore Drive" />
    <tag k="addr:state" v="VT" />
    <tag k="ref:vcgi:esiteid" v="260150" />
  </node>
  <node id="-330" visible="true" lat="43.40625381" lon="-73.0380249">
    <tag k="addr:city" v="Tinmouth" />
    <tag k="addr:housenumber" v="639" />
    <tag k="addr:street" v="East Road" />
    <tag k="addr:state" v="VT" />
    <tag k="ref:vcgi:esiteid" v="260151" />
  </node>
  <node id="-331" visible="true" lat="43.40625762" lon="-73.03359222">
    <tag k="addr:city" v="Tinmouth" />
    <tag k="addr:housenumber" v="76" />
    <tag k="addr:street" v="West Shore Drive" />
    <tag k="addr:state" v="VT" />
    <tag k="ref:vcgi:esiteid" v="260152" />
  </node>
  <node id="-332" visible="true" lat="43.40615463" lon="-73.03337859">
    <tag k="addr:city" v="Tinmouth" />
    <tag k="addr:housenumber" v="74" />
    <tag k="addr:street" v="West Shore Drive" />
    <tag k="addr:state" v="VT" />
    <tag k="ref:vcgi:esiteid" v="260153" />
  </node>
  <node id="-333" visible="true" lat="43.40611267" lon="-73.03956603">
    <tag k="addr:city" v="Tinmouth" />
    <tag k="addr:housenumber" v="638" />
    <tag k="addr:street" v="East Road" />
    <tag k="addr:state" v="VT" />
    <tag k="ref:vcgi:esiteid" v="260154" />
  </node>
  <node id="-334" visible="true" lat="43.40602111" lon="-73.03300475">
    <tag k="addr:city" v="Tinmouth" />
    <tag k="addr:housenumber" v="70" />
    <tag k="addr:street" v="West Shore Drive" />
    <tag k="addr:state" v="VT" />
    <tag k="ref:vcgi:esiteid" v="260155" />
  </node>
  <node id="-335" visible="true" lat="43.40589904" lon="-73.03285217">
    <tag k="addr:city" v="Tinmouth" />
    <tag k="addr:housenumber" v="64" />
    <tag k="addr:street" v="West Shore Drive" />
    <tag k="addr:state" v="VT" />
    <tag k="ref:vcgi:esiteid" v="260156" />
  </node>
  <node id="-336" visible="true" lat="43.40586471" lon="-73.03144073">
    <tag k="addr:city" v="Tinmouth" />
    <tag k="addr:housenumber" v="60" />
    <tag k="addr:street" v="West Shore Drive" />
    <tag k="addr:state" v="VT" />
    <tag k="ref:vcgi:esiteid" v="260157" />
  </node>
  <node id="-337" visible="true" lat="43.40604946" lon="-73.03187874">
    <tag k="addr:city" v="Tinmouth" />
    <tag k="addr:housenumber" v="62" />
    <tag k="addr:street" v="West Shore Drive" />
    <tag k="addr:state" v="VT" />
    <tag k="ref:vcgi:esiteid" v="260158" />
  </node>
  <node id="-338" visible="true" lat="43.40577677" lon="-73.02677307">
    <tag k="addr:city" v="Tinmouth" />
    <tag k="addr:housenumber" v="26" />
    <tag k="addr:street" v="Chipman Drive" />
    <tag k="addr:state" v="VT" />
    <tag k="ref:vcgi:esiteid" v="260159" />
  </node>
  <node id="-339" visible="true" lat="43.40554046" lon="-73.02648925">
    <tag k="addr:city" v="Tinmouth" />
    <tag k="addr:housenumber" v="31" />
    <tag k="addr:street" v="East Shore Drive" />
    <tag k="addr:state" v="VT" />
    <tag k="ref:vcgi:esiteid" v="260160" />
  </node>
  <node id="-340" visible="true" lat="43.40540538" lon="-73.0313978">
    <tag k="addr:city" v="Tinmouth" />
    <tag k="addr:housenumber" v="52" />
    <tag k="addr:street" v="West Shore Drive" />
    <tag k="addr:state" v="VT" />
    <tag k="ref:vcgi:esiteid" v="260161" />
  </node>
  <node id="-341" visible="true" lat="43.4052391" lon="-73.03135681">
    <tag k="addr:city" v="Tinmouth" />
    <tag k="addr:housenumber" v="50" />
    <tag k="addr:street" v="West Shore Drive" />
    <tag k="addr:state" v="VT" />
    <tag k="ref:vcgi:esiteid" v="260162" />
  </node>
  <node id="-342" visible="true" lat="43.40518569" lon="-73.03842926">
    <tag k="addr:city" v="Tinmouth" />
    <tag k="addr:housenumber" v="661" />
    <tag k="addr:street" v="East Road" />
    <tag k="addr:state" v="VT" />
    <tag k="ref:vcgi:esiteid" v="260163" />
  </node>
  <node id="-343" visible="true" lat="43.40521621" lon="-73.02650451">
    <tag k="addr:city" v="Tinmouth" />
    <tag k="addr:housenumber" v="20" />
    <tag k="addr:street" v="Chipman Drive" />
    <tag k="addr:state" v="VT" />
    <tag k="ref:vcgi:esiteid" v="260164" />
  </node>
  <node id="-344" visible="true" lat="43.40494971" lon="-73.03096877">
    <tag k="addr:city" v="Tinmouth" />
    <tag k="addr:housenumber" v="44" />
    <tag k="addr:street" v="West Shore Drive" />
    <tag k="addr:state" v="VT" />
    <tag k="ref:vcgi:esiteid" v="260165" />
  </node>
  <node id="-345" visible="true" lat="43.40508084" lon="-73.02084249">
    <tag k="addr:city" v="Tinmouth" />
    <tag k="addr:housenumber" v="198" />
    <tag k="addr:street" v="Tinmouth Pond Road" />
    <tag k="addr:state" v="VT" />
    <tag k="ref:vcgi:esiteid" v="260166" />
  </node>
  <node id="-346" visible="true" lat="43.40500691" lon="-73.03141851">
    <tag k="addr:city" v="Tinmouth" />
    <tag k="addr:housenumber" v="48" />
    <tag k="addr:street" v="West Shore Drive" />
    <tag k="addr:state" v="VT" />
    <tag k="ref:vcgi:esiteid" v="260167" />
  </node>
  <node id="-347" visible="true" lat="43.40493392" lon="-73.02637481">
    <tag k="addr:city" v="Tinmouth" />
    <tag k="addr:housenumber" v="16" />
    <tag k="addr:street" v="Chipman Drive" />
    <tag k="addr:state" v="VT" />
    <tag k="ref:vcgi:esiteid" v="260168" />
  </node>
  <node id="-348" visible="true" lat="43.40485382" lon="-73.03059387">
    <tag k="addr:city" v="Tinmouth" />
    <tag k="addr:housenumber" v="38" />
    <tag k="addr:street" v="West Shore Drive" />
    <tag k="addr:state" v="VT" />
    <tag k="ref:vcgi:esiteid" v="260169" />
  </node>
  <node id="-349" visible="true" lat="43.4046936" lon="-73.02246857">
    <tag k="addr:city" v="Tinmouth" />
    <tag k="addr:housenumber" v="176" />
    <tag k="addr:street" v="Tinmouth Pond Road" />
    <tag k="addr:state" v="VT" />
    <tag k="ref:vcgi:esiteid" v="260170" />
  </node>
  <node id="-350" visible="true" lat="43.40382532" lon="-73.03242941">
    <tag k="addr:city" v="Tinmouth" />
    <tag k="addr:housenumber" v="29" />
    <tag k="addr:street" v="West Shore Drive" />
    <tag k="addr:state" v="VT" />
    <tag k="ref:vcgi:esiteid" v="260171" />
  </node>
  <node id="-351" visible="true" lat="43.40447616" lon="-73.03010559">
    <tag k="addr:city" v="Tinmouth" />
    <tag k="addr:housenumber" v="36" />
    <tag k="addr:street" v="West Shore Drive" />
    <tag k="addr:state" v="VT" />
    <tag k="ref:vcgi:esiteid" v="260172" />
  </node>
  <node id="-352" visible="true" lat="43.40449142" lon="-73.02640533">
    <tag k="addr:city" v="Tinmouth" />
    <tag k="addr:housenumber" v="4" />
    <tag k="addr:street" v="Chipman Drive" />
    <tag k="addr:state" v="VT" />
    <tag k="ref:vcgi:esiteid" v="260173" />
  </node>
  <node id="-353" visible="true" lat="43.40428924" lon="-73.02666473">
    <tag k="addr:city" v="Tinmouth" />
    <tag k="addr:housenumber" v="2" />
    <tag k="addr:street" v="Chipman Drive" />
    <tag k="addr:state" v="VT" />
    <tag k="ref:vcgi:esiteid" v="260174" />
  </node>
  <node id="-354" visible="true" lat="43.40420532" lon="-73.03797149">
    <tag k="addr:city" v="Tinmouth" />
    <tag k="addr:housenumber" v="675" />
    <tag k="addr:street" v="East Road" />
    <tag k="addr:state" v="VT" />
    <tag k="ref:vcgi:esiteid" v="260175" />
  </node>
  <node id="-355" visible="true" lat="43.40406608" lon="-73.02725065">
    <tag k="addr:city" v="Tinmouth" />
    <tag k="addr:housenumber" v="115" />
    <tag k="addr:street" v="Tinmouth Pond Road" />
    <tag k="addr:state" v="VT" />
    <tag k="ref:vcgi:esiteid" v="260176" />
  </node>
  <node id="-356" visible="true" lat="43.40415027" lon="-73.02977483">
    <tag k="addr:city" v="Tinmouth" />
    <tag k="addr:housenumber" v="30" />
    <tag k="addr:street" v="West Shore Drive" />
    <tag k="addr:state" v="VT" />
    <tag k="ref:vcgi:esiteid" v="260177" />
  </node>
  <node id="-357" visible="true" lat="43.40396499" lon="-73.02942657">
    <tag k="addr:city" v="Tinmouth" />
    <tag k="addr:housenumber" v="26" />
    <tag k="addr:street" v="West Shore Drive" />
    <tag k="addr:state" v="VT" />
    <tag k="ref:vcgi:esiteid" v="260178" />
  </node>
  <node id="-358" visible="true" lat="43.40384674" lon="-73.03997039">
    <tag k="addr:city" v="Tinmouth" />
    <tag k="addr:housenumber" v="680" />
    <tag k="addr:street" v="East Road" />
    <tag k="addr:state" v="VT" />
    <tag k="ref:vcgi:esiteid" v="260179" />
  </node>
  <node id="-359" visible="true" lat="43.40372085" lon="-73.02922058">
    <tag k="addr:city" v="Tinmouth" />
    <tag k="addr:housenumber" v="24" />
    <tag k="addr:street" v="West Shore Drive" />
    <tag k="addr:state" v="VT" />
    <tag k="ref:vcgi:esiteid" v="260180" />
  </node>
  <node id="-360" visible="true" lat="43.40373993" lon="-73.02391815">
    <tag k="addr:city" v="Tinmouth" />
    <tag k="addr:housenumber" v="7" />
    <tag k="addr:street" v="Ezra Stone Road" />
    <tag k="addr:state" v="VT" />
    <tag k="ref:vcgi:esiteid" v="260181" />
  </node>
  <node id="-361" visible="true" lat="43.40370924" lon="-73.03037895">
    <tag k="addr:city" v="Tinmouth" />
    <tag k="addr:housenumber" v="25" />
    <tag k="addr:street" v="West Shore Drive" />
    <tag k="addr:state" v="VT" />
    <tag k="ref:vcgi:esiteid" v="260182" />
  </node>
  <node id="-362" visible="true" lat="43.40356064" lon="-73.02493286">
    <tag k="addr:city" v="Tinmouth" />
    <tag k="addr:housenumber" v="146" />
    <tag k="addr:street" v="Tinmouth Pond Road" />
    <tag k="addr:state" v="VT" />
    <tag k="ref:vcgi:esiteid" v="260183" />
  </node>
  <node id="-363" visible="true" lat="43.4034775" lon="-73.02818836">
    <tag k="addr:city" v="Tinmouth" />
    <tag k="addr:housenumber" v="113" />
    <tag k="addr:street" v="Tinmouth Pond Road" />
    <tag k="addr:state" v="VT" />
    <tag k="ref:vcgi:esiteid" v="260184" />
  </node>
  <node id="-364" visible="true" lat="43.40335845" lon="-73.0292282">
    <tag k="addr:city" v="Tinmouth" />
    <tag k="addr:housenumber" v="16" />
    <tag k="addr:street" v="West Shore Drive" />
    <tag k="addr:state" v="VT" />
    <tag k="ref:vcgi:esiteid" v="260185" />
  </node>
  <node id="-365" visible="true" lat="43.40333557" lon="-73.02822113">
    <tag k="addr:city" v="Tinmouth" />
    <tag k="addr:housenumber" v="111" />
    <tag k="addr:street" v="Tinmouth Pond Road" />
    <tag k="addr:state" v="VT" />
    <tag k="ref:vcgi:esiteid" v="260186" />
  </node>
  <node id="-366" visible="true" lat="43.40320205" lon="-73.04045105">
    <tag k="addr:city" v="Tinmouth" />
    <tag k="addr:housenumber" v="704" />
    <tag k="addr:street" v="East Road" />
    <tag k="addr:state" v="VT" />
    <tag k="ref:vcgi:esiteid" v="260187" />
  </node>
  <node id="-367" visible="true" lat="43.40307976" lon="-73.02831266">
    <tag k="addr:city" v="Tinmouth" />
    <tag k="addr:housenumber" v="107" />
    <tag k="addr:street" v="Tinmouth Pond Road" />
    <tag k="addr:state" v="VT" />
    <tag k="ref:vcgi:esiteid" v="260188" />
  </node>
  <node id="-368" visible="true" lat="43.40322494" lon="-73.02909851">
    <tag k="addr:city" v="Tinmouth" />
    <tag k="addr:housenumber" v="12" />
    <tag k="addr:street" v="West Shore Drive" />
    <tag k="addr:state" v="VT" />
    <tag k="ref:vcgi:esiteid" v="260189" />
  </node>
  <node id="-369" visible="true" lat="43.40317375" lon="-73.02588687">
    <tag k="addr:city" v="Tinmouth" />
    <tag k="addr:housenumber" v="126" />
    <tag k="addr:street" v="Tinmouth Pond Road" />
    <tag k="addr:state" v="VT" />
    <tag k="ref:vcgi:esiteid" v="260190" />
  </node>
  <node id="-370" visible="true" lat="43.40271405" lon="-73.02492687">
    <tag k="addr:city" v="Tinmouth" />
    <tag k="addr:housenumber" v="12" />
    <tag k="addr:street" v="Ezra Stone Road" />
    <tag k="addr:state" v="VT" />
    <tag k="ref:vcgi:esiteid" v="260191" />
  </node>
  <node id="-371" visible="true" lat="43.40299224" lon="-73.03829193">
    <tag k="addr:city" v="Tinmouth" />
    <tag k="addr:housenumber" v="685" />
    <tag k="addr:street" v="East Road" />
    <tag k="addr:state" v="VT" />
    <tag k="ref:vcgi:esiteid" v="260192" />
  </node>
  <node id="-372" visible="true" lat="43.40296561" lon="-73.02986914">
    <tag k="addr:city" v="Tinmouth" />
    <tag k="addr:housenumber" v="79" />
    <tag k="addr:street" v="Tinmouth Pond Road" />
    <tag k="addr:state" v="VT" />
    <tag k="ref:vcgi:esiteid" v="260193" />
  </node>
  <node id="-373" visible="true" lat="43.40275955" lon="-73.05404663">
    <tag k="addr:city" v="Tinmouth" />
    <tag k="addr:housenumber" v="192" />
    <tag k="addr:street" v="Wrights Road" />
    <tag k="addr:state" v="VT" />
    <tag k="ref:vcgi:esiteid" v="260194" />
  </node>
  <node id="-374" visible="true" lat="43.40280386" lon="-73.02905335">
    <tag k="addr:city" v="Tinmouth" />
    <tag k="addr:housenumber" v="9" />
    <tag k="addr:street" v="West Shore Drive" />
    <tag k="addr:state" v="VT" />
    <tag k="ref:vcgi:esiteid" v="260195" />
  </node>
  <node id="-375" visible="true" lat="43.40234756" lon="-73.03901672">
    <tag k="addr:city" v="Tinmouth" />
    <tag k="addr:housenumber" v="687" />
    <tag k="addr:street" v="East Road" />
    <tag k="addr:state" v="VT" />
    <tag k="ref:vcgi:esiteid" v="260196" />
  </node>
  <node id="-376" visible="true" lat="43.40234749" lon="-73.02876345">
    <tag k="addr:city" v="Tinmouth" />
    <tag k="addr:housenumber" v="3" />
    <tag k="addr:street" v="West Shore Drive" />
    <tag k="addr:state" v="VT" />
    <tag k="ref:vcgi:esiteid" v="260197" />
  </node>
  <node id="-377" visible="true" lat="43.40213807" lon="-73.04165781">
    <tag k="addr:city" v="Tinmouth" />
    <tag k="addr:housenumber" v="712" />
    <tag k="addr:street" v="East Road" />
    <tag k="addr:state" v="VT" />
    <tag k="ref:vcgi:esiteid" v="260198" />
  </node>
  <node id="-378" visible="true" lat="43.4021723" lon="-73.02801737">
    <tag k="addr:city" v="Tinmouth" />
    <tag k="addr:housenumber" v="96" />
    <tag k="addr:street" v="Tinmouth Pond Road" />
    <tag k="addr:state" v="VT" />
    <tag k="ref:vcgi:esiteid" v="260199" />
  </node>
  <node id="-379" visible="true" lat="43.40195263" lon="-73.05412357">
    <tag k="addr:city" v="Tinmouth" />
    <tag k="addr:housenumber" v="202" />
    <tag k="addr:street" v="Wrights Road" />
    <tag k="addr:state" v="VT" />
    <tag k="ref:vcgi:esiteid" v="260200" />
  </node>
  <node id="-380" visible="true" lat="43.40193687" lon="-73.03751334">
    <tag k="addr:city" v="Tinmouth" />
    <tag k="addr:housenumber" v="1" />
    <tag k="addr:street" v="Tinmouth Pond Road" />
    <tag k="addr:state" v="VT" />
    <tag k="ref:vcgi:esiteid" v="260201" />
  </node>
  <node id="-381" visible="true" lat="43.40165701" lon="-73.05408022">
    <tag k="addr:city" v="Tinmouth" />
    <tag k="addr:housenumber" v="2" />
    <tag k="addr:street" v="Ricketts Road" />
    <tag k="addr:state" v="VT" />
    <tag k="ref:vcgi:esiteid" v="260202" />
  </node>
  <node id="-382" visible="true" lat="43.40227541" lon="-73.02943143">
    <tag k="addr:city" v="Tinmouth" />
    <tag k="addr:housenumber" v="87" />
    <tag k="addr:street" v="Tinmouth Pond Road" />
    <tag k="addr:state" v="VT" />
    <tag k="ref:vcgi:esiteid" v="260203" />
  </node>
  <node id="-383" visible="true" lat="43.40145874" lon="-73.02146149">
    <tag k="addr:city" v="Tinmouth" />
    <tag k="addr:housenumber" v="43" />
    <tag k="addr:street" v="Ezra Stone Road" />
    <tag k="addr:state" v="VT" />
    <tag k="ref:vcgi:esiteid" v="260204" />
  </node>
  <node id="-384" visible="true" lat="43.40138122" lon="-73.04172104">
    <tag k="addr:city" v="Tinmouth" />
    <tag k="addr:housenumber" v="728" />
    <tag k="addr:street" v="East Road" />
    <tag k="addr:state" v="VT" />
    <tag k="ref:vcgi:esiteid" v="260205" />
  </node>
  <node id="-385" visible="true" lat="43.40124893" lon="-73.05559539">
    <tag k="addr:city" v="Tinmouth" />
    <tag k="addr:housenumber" v="15" />
    <tag k="addr:street" v="Ricketts Road" />
    <tag k="addr:state" v="VT" />
    <tag k="ref:vcgi:esiteid" v="260206" />
  </node>
  <node id="-386" visible="true" lat="43.4012831" lon="-73.03514589">
    <tag k="addr:city" v="Tinmouth" />
    <tag k="addr:housenumber" v="13" />
    <tag k="addr:street" v="Tinmouth Pond Road" />
    <tag k="addr:state" v="VT" />
    <tag k="ref:vcgi:esiteid" v="260207" />
  </node>
  <node id="-387" visible="true" lat="43.4011116" lon="-73.04532623">
    <tag k="addr:city" v="Tinmouth" />
    <tag k="addr:housenumber" v="714" />
    <tag k="addr:street" v="Mountain View Road" />
    <tag k="addr:state" v="VT" />
    <tag k="ref:vcgi:esiteid" v="260208" />
  </node>
  <node id="-388" visible="true" lat="43.40103912" lon="-73.03968811">
    <tag k="addr:city" v="Tinmouth" />
    <tag k="addr:housenumber" v="721" />
    <tag k="addr:street" v="East Road" />
    <tag k="addr:state" v="VT" />
    <tag k="ref:vcgi:esiteid" v="260209" />
  </node>
  <node id="-389" visible="true" lat="43.40107346" lon="-73.02466583">
    <tag k="addr:city" v="Tinmouth" />
    <tag k="addr:housenumber" v="34" />
    <tag k="addr:street" v="Ezra Stone Road" />
    <tag k="addr:state" v="VT" />
    <tag k="ref:vcgi:esiteid" v="260210" />
  </node>
  <node id="-390" visible="true" lat="43.40081405" lon="-73.04424285">
    <tag k="addr:city" v="Tinmouth" />
    <tag k="addr:housenumber" v="720" />
    <tag k="addr:street" v="Mountain View Road" />
    <tag k="addr:state" v="VT" />
    <tag k="ref:vcgi:esiteid" v="260212" />
  </node>
  <node id="-391" visible="true" lat="43.40090821" lon="-73.03076338">
    <tag k="addr:city" v="Tinmouth" />
    <tag k="addr:housenumber" v="69" />
    <tag k="addr:street" v="Tinmouth Pond Road" />
    <tag k="addr:state" v="VT" />
    <tag k="ref:vcgi:esiteid" v="260213" />
  </node>
  <node id="-392" visible="true" lat="43.40086727" lon="-73.02898788">
    <tag k="addr:city" v="Tinmouth" />
    <tag k="addr:housenumber" v="80" />
    <tag k="addr:street" v="Tinmouth Pond Road" />
    <tag k="addr:state" v="VT" />
    <tag k="ref:vcgi:esiteid" v="260214" />
  </node>
  <node id="-393" visible="true" lat="43.40044398" lon="-73.02957467">
    <tag k="addr:city" v="Tinmouth" />
    <tag k="addr:housenumber" v="68" />
    <tag k="addr:street" v="Tinmouth Pond Road" />
    <tag k="addr:state" v="VT" />
    <tag k="ref:vcgi:esiteid" v="260215" />
  </node>
  <node id="-394" visible="true" lat="43.40178101" lon="-73.03313781">
    <tag k="addr:city" v="Tinmouth" />
    <tag k="addr:housenumber" v="25" />
    <tag k="addr:street" v="Tinmouth Pond Road" />
    <tag k="addr:state" v="VT" />
    <tag k="ref:vcgi:esiteid" v="260216" />
  </node>
  <node id="-395" visible="true" lat="43.40335845" lon="-73.11930084">
    <tag k="addr:city" v="Tinmouth" />
    <tag k="addr:housenumber" v="441" />
    <tag k="addr:street" v="Vermont Route 133 W Tinmouth Road" />
    <tag k="addr:state" v="VT" />
    <tag k="ref:vcgi:esiteid" v="260218" />
  </node>
  <node id="-396" visible="true" lat="43.4028244" lon="-73.06867981">
    <tag k="addr:city" v="Tinmouth" />
    <tag k="addr:housenumber" v="10" />
    <tag k="addr:street" v="Tinmouth Mountain Drive" />
    <tag k="addr:state" v="VT" />
    <tag k="ref:vcgi:esiteid" v="260222" />
  </node>
  <node id="-397" visible="true" lat="43.4017601" lon="-73.06948089">
    <tag k="addr:city" v="Tinmouth" />
    <tag k="addr:housenumber" v="6" />
    <tag k="addr:street" v="Tinmouth Mountain Drive" />
    <tag k="addr:state" v="VT" />
    <tag k="ref:vcgi:esiteid" v="260223" />
  </node>
  <node id="-398" visible="true" lat="43.40169703" lon="-73.07769882">
    <tag k="addr:city" v="Tinmouth" />
    <tag k="addr:housenumber" v="100" />
    <tag k="addr:street" v="Tinmouth Mountain Drive" />
    <tag k="addr:state" v="VT" />
    <tag k="ref:vcgi:esiteid" v="260224" />
  </node>
  <node id="-399" visible="true" lat="43.49208324" lon="-73.07829968">
    <tag k="addr:city" v="Tinmouth" />
    <tag k="addr:housenumber" v="181" />
    <tag k="addr:street" v="Vermont Route 133 Morgan Road" />
    <tag k="addr:state" v="VT" />
    <tag k="ref:vcgi:esiteid" v="260225" />
  </node>
  <node id="-400" visible="true" lat="43.44174609" lon="-73.0478706">
    <tag k="addr:city" v="Tinmouth" />
    <tag k="addr:housenumber" v="52" />
    <tag k="addr:street" v="Channel Road" />
    <tag k="addr:state" v="VT" />
    <tag k="ref:vcgi:esiteid" v="260226" />
  </node>
  <node id="-401" visible="true" lat="43.44378229" lon="-73.0458617">
    <tag k="addr:city" v="Tinmouth" />
    <tag k="addr:housenumber" v="67" />
    <tag k="addr:street" v="Channel Road" />
    <tag k="addr:state" v="VT" />
    <tag k="ref:vcgi:esiteid" v="260227" />
  </node>
  <node id="-402" visible="true" lat="43.42756793" lon="-73.05340955">
    <tag k="addr:city" v="Tinmouth" />
    <tag k="addr:housenumber" v="286" />
    <tag k="addr:street" v="Mountain View Road" />
    <tag k="addr:state" v="VT" />
    <tag k="ref:vcgi:esiteid" v="260228" />
  </node>
  <node id="-403" visible="true" lat="43.40940161" lon="-73.03482089">
    <tag k="addr:city" v="Tinmouth" />
    <tag k="addr:housenumber" v="43" />
    <tag k="addr:street" v="Chipmunk Crossing Drive" />
    <tag k="addr:state" v="VT" />
    <tag k="ref:vcgi:esiteid" v="260229" />
  </node>
  <node id="-404" visible="true" lat="43.4383098" lon="-73.04984467">
    <tag k="addr:city" v="Tinmouth" />
    <tag k="addr:housenumber" v="155" />
    <tag k="addr:street" v="Mountain View Road" />
    <tag k="addr:state" v="VT" />
    <tag k="ref:vcgi:esiteid" v="260230" />
  </node>
  <node id="-405" visible="true" lat="43.44578386" lon="-73.05019358">
    <tag k="addr:city" v="Tinmouth" />
    <tag k="addr:housenumber" v="45" />
    <tag k="addr:street" v="Mountain View Road" />
    <tag k="addr:state" v="VT" />
    <tag k="ref:vcgi:esiteid" v="260231" />
  </node>
  <node id="-406" visible="true" lat="43.40149828" lon="-73.06964742">
    <tag k="addr:city" v="Tinmouth" />
    <tag k="addr:housenumber" v="2" />
    <tag k="addr:street" v="Tinmouth Mountain Drive" />
    <tag k="addr:state" v="VT" />
    <tag k="ref:vcgi:esiteid" v="260232" />
  </node>
  <node id="-407" visible="true" lat="43.4134536" lon="-73.03690602">
    <tag k="addr:city" v="Tinmouth" />
    <tag k="addr:housenumber" v="528" />
    <tag k="addr:street" v="East Road" />
    <tag k="addr:state" v="VT" />
    <tag k="ref:vcgi:esiteid" v="260233" />
  </node>
  <node id="-408" visible="true" lat="43.4036493" lon="-73.11295263">
    <tag k="addr:city" v="Tinmouth" />
    <tag k="addr:housenumber" v="2900" />
    <tag k="addr:street" v="Lilly Hill Road" />
    <tag k="addr:state" v="VT" />
    <tag k="ref:vcgi:esiteid" v="260234" />
  </node>
  <node id="-409" visible="true" lat="43.40323836" lon="-73.11520319">
    <tag k="addr:city" v="Tinmouth" />
    <tag k="addr:housenumber" v="2950" />
    <tag k="addr:street" v="Lilly Hill Road" />
    <tag k="addr:state" v="VT" />
    <tag k="ref:vcgi:esiteid" v="260235" />
  </node>
  <node id="-410" visible="true" lat="43.44143849" lon="-73.02978409">
    <tag k="addr:city" v="Tinmouth" />
    <tag k="addr:housenumber" v="117" />
    <tag k="addr:street" v="East Road" />
    <tag k="addr:state" v="VT" />
    <tag k="ref:vcgi:esiteid" v="260236" />
  </node>
  <node id="-411" visible="true" lat="43.42536309" lon="-73.05375327">
    <tag k="addr:city" v="Tinmouth" />
    <tag k="addr:housenumber" v="25" />
    <tag k="addr:street" v="Merrill Spring Road" />
    <tag k="addr:state" v="VT" />
    <tag k="ref:vcgi:esiteid" v="260237" />
  </node>
  <node id="-412" visible="true" lat="43.42371627" lon="-73.05574796">
    <tag k="addr:city" v="Tinmouth" />
    <tag k="addr:housenumber" v="67" />
    <tag k="addr:street" v="Merrill Spring Road" />
    <tag k="addr:state" v="VT" />
    <tag k="ref:vcgi:esiteid" v="260238" />
  </node>
  <node id="-413" visible="true" lat="43.40881159" lon="-73.1162694">
    <tag k="addr:city" v="Tinmouth" />
    <tag k="addr:housenumber" v="341" />
    <tag k="addr:street" v="Vermont Route 133 W Tinmouth Road" />
    <tag k="addr:state" v="VT" />
    <tag k="ref:vcgi:esiteid" v="260239" />
  </node>
  <node id="-414" visible="true" lat="43.40383743" lon="-73.07014637">
    <tag k="addr:city" v="Tinmouth" />
    <tag k="addr:housenumber" v="29" />
    <tag k="addr:street" v="Tinmouth Mountain Drive" />
    <tag k="addr:state" v="VT" />
    <tag k="ref:vcgi:esiteid" v="260240" />
  </node>
  <node id="-415" visible="true" lat="43.41100409" lon="-73.03498191">
    <tag k="addr:city" v="Tinmouth" />
    <tag k="addr:housenumber" v="25" />
    <tag k="addr:street" v="White Birch Drive" />
    <tag k="addr:state" v="VT" />
    <tag k="ref:vcgi:esiteid" v="260241" />
  </node>
  <node id="-416" visible="true" lat="43.45716234" lon="-73.07302028">
    <tag k="addr:city" v="Tinmouth" />
    <tag k="addr:housenumber" v="55" />
    <tag k="addr:street" v="Snow Mountain Lane" />
    <tag k="addr:state" v="VT" />
    <tag k="ref:vcgi:esiteid" v="260242" />
  </node>
  <node id="-417" visible="true" lat="43.47150699" lon="-73.05847872">
    <tag k="addr:city" v="Tinmouth" />
    <tag k="addr:housenumber" v="39" />
    <tag k="addr:street" v="Gulf Road" />
    <tag k="addr:state" v="VT" />
    <tag k="ref:vcgi:esiteid" v="260243" />
  </node>
  <node id="-418" visible="true" lat="43.45880521" lon="-73.08502759">
    <tag k="addr:city" v="Tinmouth" />
    <tag k="addr:housenumber" v="375" />
    <tag k="addr:street" v="Gulf Road" />
    <tag k="addr:state" v="VT" />
    <tag k="ref:vcgi:esiteid" v="260244" />
  </node>
  <node id="-419" visible="true" lat="43.44022612" lon="-73.05055836">
    <tag k="addr:city" v="Tinmouth" />
    <tag k="addr:housenumber" v="135" />
    <tag k="addr:street" v="Mountain View Road" />
    <tag k="addr:state" v="VT" />
    <tag k="ref:vcgi:esiteid" v="260245" />
  </node>
  <node id="-420" visible="true" lat="43.41031473" lon="-73.03267213">
    <tag k="addr:city" v="Tinmouth" />
    <tag k="addr:housenumber" v="48" />
    <tag k="addr:street" v="White Birch Drive" />
    <tag k="addr:state" v="VT" />
    <tag k="ref:vcgi:esiteid" v="260246" />
  </node>
  <node id="-421" visible="true" lat="43.43940568" lon="-73.04132233">
    <tag k="addr:city" v="Tinmouth" />
    <tag k="addr:housenumber" v="150" />
    <tag k="addr:street" v="Channel Road" />
    <tag k="addr:state" v="VT" />
    <tag k="ref:vcgi:esiteid" v="260247" />
  </node>
  <node id="-422" visible="true" lat="43.4257445" lon="-73.11615173">
    <tag k="addr:city" v="Tinmouth" />
    <tag k="addr:housenumber" v="133" />
    <tag k="addr:street" v="Vermont Route 133 W Tinmouth Road" />
    <tag k="addr:state" v="VT" />
    <tag k="ref:vcgi:esiteid" v="260248" />
  </node>
  <node id="-423" visible="true" lat="43.45850265" lon="-73.00689866">
    <tag k="addr:city" v="Tinmouth" />
    <tag k="addr:housenumber" v="2172" />
    <tag k="addr:street" v="Vermont Route 140 West" />
    <tag k="addr:state" v="VT" />
    <tag k="ref:vcgi:esiteid" v="269591" />
  </node>
  <node id="-424" visible="true" lat="43.45045985" lon="-73.00758179">
    <tag k="addr:city" v="Tinmouth" />
    <tag k="addr:housenumber" v="338" />
    <tag k="addr:street" v="West Hill Road" />
    <tag k="addr:state" v="VT" />
    <tag k="ref:vcgi:esiteid" v="269674" />
  </node>
  <node id="-425" visible="true" lat="43.44890445" lon="-73.00807082">
    <tag k="addr:city" v="Tinmouth" />
    <tag k="addr:housenumber" v="420" />
    <tag k="addr:street" v="West Hill Road" />
    <tag k="addr:state" v="VT" />
    <tag k="ref:vcgi:esiteid" v="269700" />
  </node>
  <node id="-426" visible="true" lat="43.45122821" lon="-73.00868061">
    <tag k="addr:city" v="Tinmouth" />
    <tag k="addr:housenumber" v="186" />
    <tag k="addr:street" v="West Hill Road" />
    <tag k="addr:state" v="VT" />
    <tag k="ref:vcgi:esiteid" v="270067" />
  </node>
  <node id="-427" visible="true" lat="43.40392566" lon="-73.12036934">
    <tag k="addr:city" v="Tinmouth" />
    <tag k="addr:housenumber" v="438" />
    <tag k="addr:street" v="Vermont Route 133 W Tinmouth Road" />
    <tag k="addr:state" v="VT" />
    <tag k="ref:vcgi:esiteid" v="278651" />
  </node>
  <node id="-428" visible="true" lat="43.45511758" lon="-73.07386379">
    <tag k="addr:city" v="Tinmouth" />
    <tag k="addr:housenumber" v="88" />
    <tag k="addr:street" v="Snow Mountain Lane" />
    <tag k="addr:state" v="VT" />
    <tag k="ref:vcgi:esiteid" v="306842" />
  </node>
  <node id="-429" visible="true" lat="43.4098972" lon="-73.04795894">
    <tag k="addr:city" v="Tinmouth" />
    <tag k="addr:housenumber" v="20" />
    <tag k="addr:street" v="October Hill Lane" />
    <tag k="addr:state" v="VT" />
    <tag k="ref:vcgi:esiteid" v="335614" />
  </node>
  <node id="-430" visible="true" lat="43.48098872" lon="-73.06514755">
    <tag k="addr:city" v="Tinmouth" />
    <tag k="addr:housenumber" v="41" />
    <tag k="addr:street" v="Northrup Road" />
    <tag k="addr:state" v="VT" />
    <tag k="ref:vcgi:esiteid" v="337566" />
  </node>
  <node id="-432" visible="true" lat="43.40132269" lon="-73.03164956">
    <tag k="addr:city" v="Tinmouth" />
    <tag k="addr:housenumber" v="29" />
    <tag k="addr:street" v="Tinmouth Pond Road" />
    <tag k="addr:state" v="VT" />
    <tag k="ref:vcgi:esiteid" v="337576" />
  </node>
  <node id="-433" visible="true" lat="43.42181702" lon="-73.11051601">
    <tag k="addr:city" v="Tinmouth" />
    <tag k="addr:housenumber" v="167" />
    <tag k="addr:street" v="McCoy Road" />
    <tag k="addr:state" v="VT" />
    <tag k="ref:vcgi:esiteid" v="341650" />
  </node>
  <node id="-434" visible="true" lat="43.40289835" lon="-73.04176914">
    <tag k="addr:city" v="Tinmouth" />
    <tag k="addr:housenumber" v="706" />
    <tag k="addr:street" v="East Road" />
    <tag k="addr:state" v="VT" />
    <tag k="ref:vcgi:esiteid" v="341688" />
  </node>
  <node id="-435" visible="true" lat="43.40101515" lon="-73.04385201">
    <tag k="addr:city" v="Tinmouth" />
    <tag k="addr:housenumber" v="732" />
    <tag k="addr:street" v="Mountain View Road" />
    <tag k="addr:state" v="VT" />
    <tag k="ref:vcgi:esiteid" v="341689" />
  </node>
  <node id="-436" visible="true" lat="43.40091069" lon="-73.04272595">
    <tag k="addr:city" v="Tinmouth" />
    <tag k="addr:housenumber" v="746" />
    <tag k="addr:street" v="Mountain View Road" />
    <tag k="addr:state" v="VT" />
    <tag k="ref:vcgi:esiteid" v="341690" />
  </node>
  <node id="-437" visible="true" lat="43.466703" lon="-73.07669594">
    <tag k="addr:city" v="Tinmouth" />
    <tag k="addr:housenumber" v="253" />
    <tag k="addr:street" v="Gulf Road" />
    <tag k="addr:state" v="VT" />
    <tag k="ref:vcgi:esiteid" v="343648" />
  </node>
  <node id="-438" visible="true" lat="43.42080898" lon="-73.03578782">
    <tag k="addr:city" v="Tinmouth" />
    <tag k="addr:housenumber" v="425" />
    <tag k="addr:street" v="East Road" />
    <tag k="addr:state" v="VT" />
    <tag k="ref:vcgi:esiteid" v="343649" />
  </node>
  <node id="-439" visible="true" lat="43.47611486" lon="-73.04620422">
    <tag k="addr:city" v="Tinmouth" />
    <tag k="addr:housenumber" v="101" />
    <tag k="addr:street" v="Harrington Cross Road" />
    <tag k="addr:state" v="VT" />
    <tag k="ref:vcgi:esiteid" v="343663" />
  </node>
  <node id="-440" visible="true" lat="43.40324539" lon="-73.1206855">
    <tag k="addr:city" v="Tinmouth" />
    <tag k="addr:housenumber" v="450" />
    <tag k="addr:street" v="Vermont Route 133 W Tinmouth Road" />
    <tag k="addr:state" v="VT" />
    <tag k="ref:vcgi:esiteid" v="451936" />
  </node>
  <node id="-441" visible="true" lat="43.4227384" lon="-73.1188588">
    <tag k="addr:city" v="Tinmouth" />
    <tag k="addr:housenumber" v="156" />
    <tag k="addr:street" v="Vermont Route 133 W Tinmouth Road" />
    <tag k="addr:state" v="VT" />
    <tag k="ref:vcgi:esiteid" v="453028" />
  </node>
  <node id="-442" visible="true" lat="43.47203438" lon="-73.04727362">
    <tag k="addr:city" v="Tinmouth" />
    <tag k="addr:housenumber" v="49" />
    <tag k="addr:street" v="North End Road" />
    <tag k="addr:state" v="VT" />
    <tag k="ref:vcgi:esiteid" v="454516" />
  </node>
  <node id="-443" visible="true" lat="43.42289329" lon="-73.03729728">
    <tag k="addr:city" v="Tinmouth" />
    <tag k="addr:housenumber" v="18" />
    <tag k="addr:street" v="Sugar House Lane" />
    <tag k="addr:state" v="VT" />
    <tag k="ref:vcgi:esiteid" v="454984" />
  </node>
  <node id="-444" visible="true" lat="43.42143643" lon="-73.03837654">
    <tag k="addr:city" v="Tinmouth" />
    <tag k="addr:housenumber" v="36" />
    <tag k="addr:street" v="Sugar House Lane" />
    <tag k="addr:state" v="VT" />
    <tag k="ref:vcgi:esiteid" v="454985" />
  </node>
  <node id="-445" visible="true" lat="43.42037777" lon="-73.03876343">
    <tag k="addr:city" v="Tinmouth" />
    <tag k="addr:housenumber" v="52" />
    <tag k="addr:street" v="Sugar House Lane" />
    <tag k="addr:state" v="VT" />
    <tag k="ref:vcgi:esiteid" v="454986" />
  </node>
  <node id="-446" visible="true" lat="43.41687611" lon="-73.03764154">
    <tag k="addr:city" v="Tinmouth" />
    <tag k="addr:housenumber" v="105" />
    <tag k="addr:street" v="Sugar House Lane" />
    <tag k="addr:state" v="VT" />
    <tag k="ref:vcgi:esiteid" v="454987" />
  </node>
  <node id="-447" visible="true" lat="43.404617" lon="-73.03953071">
    <tag k="addr:city" v="Tinmouth" />
    <tag k="addr:housenumber" v="672" />
    <tag k="addr:street" v="East Road" />
    <tag k="addr:state" v="VT" />
    <tag k="ref:vcgi:esiteid" v="454988" />
  </node>
  <node id="-448" visible="true" lat="43.46334045" lon="-73.07656091">
    <tag k="addr:city" v="Tinmouth" />
    <tag k="addr:housenumber" v="15" />
    <tag k="addr:street" v="Upper Gulf Road" />
    <tag k="addr:state" v="VT" />
    <tag k="ref:vcgi:esiteid" v="454989" />
  </node>
  <node id="-449" visible="true" lat="43.46165643" lon="-73.08361295">
    <tag k="addr:city" v="Tinmouth" />
    <tag k="addr:housenumber" v="360" />
    <tag k="addr:street" v="Gulf Road" />
    <tag k="addr:state" v="VT" />
    <tag k="ref:vcgi:esiteid" v="454990" />
  </node>
  <node id="-450" visible="true" lat="43.4575231" lon="-73.0899123">
    <tag k="addr:city" v="Tinmouth" />
    <tag k="addr:housenumber" v="430" />
    <tag k="addr:street" v="Gulf Road" />
    <tag k="addr:state" v="VT" />
    <tag k="ref:vcgi:esiteid" v="454991" />
  </node>
  <node id="-451" visible="true" lat="43.4212984" lon="-73.04860132">
    <tag k="addr:city" v="Tinmouth" />
    <tag k="addr:housenumber" v="393" />
    <tag k="addr:street" v="Mountain View Road" />
    <tag k="addr:state" v="VT" />
    <tag k="ref:vcgi:esiteid" v="454992" />
  </node>
  <node id="-452" visible="true" lat="43.49076213" lon="-73.07710052">
    <tag k="addr:city" v="Tinmouth" />
    <tag k="addr:housenumber" v="159" />
    <tag k="addr:street" v="Vermont Route 133 Morgan Road" />
    <tag k="addr:state" v="VT" />
    <tag k="ref:vcgi:esiteid" v="454993" />
  </node>
  <node id="-453" visible="true" lat="43.43584146" lon="-73.03186859">
    <tag k="addr:city" v="Tinmouth" />
    <tag k="addr:housenumber" v="22" />
    <tag k="addr:street" v="Crow Hill Road" />
    <tag k="addr:state" v="VT" />
    <tag k="ref:vcgi:esiteid" v="454994" />
  </node>
  <node id="-454" visible="true" lat="43.43652257" lon="-73.03330305">
    <tag k="addr:city" v="Tinmouth" />
    <tag k="addr:housenumber" v="2" />
    <tag k="addr:street" v="Crow Hill Road" />
    <tag k="addr:state" v="VT" />
    <tag k="ref:vcgi:esiteid" v="454995" />
  </node>
  <node id="-455" visible="true" lat="43.4865394" lon="-73.04268614">
    <tag k="addr:city" v="Tinmouth" />
    <tag k="addr:housenumber" v="293" />
    <tag k="addr:street" v="North End Road" />
    <tag k="addr:state" v="VT" />
    <tag k="ref:vcgi:esiteid" v="454996" />
  </node>
  <node id="-456" visible="true" lat="43.48969465" lon="-73.02469311">
    <tag k="addr:city" v="Tinmouth" />
    <tag k="addr:housenumber" v="513" />
    <tag k="addr:street" v="North End Road" />
    <tag k="addr:state" v="VT" />
    <tag k="ref:vcgi:esiteid" v="454997" />
  </node>
  <node id="-457" visible="true" lat="43.48671415" lon="-73.01675576">
    <tag k="addr:city" v="Tinmouth" />
    <tag k="addr:housenumber" v="608" />
    <tag k="addr:street" v="North End Road" />
    <tag k="addr:state" v="VT" />
    <tag k="ref:vcgi:esiteid" v="454998" />
  </node>
  <node id="-458" visible="true" lat="43.49120273" lon="-73.06611524">
    <tag k="addr:city" v="Tinmouth" />
    <tag k="addr:housenumber" v="200" />
    <tag k="addr:street" v="Northrup Road" />
    <tag k="addr:state" v="VT" />
    <tag k="ref:vcgi:esiteid" v="454999" />
  </node>
  <node id="-459" visible="true" lat="43.49411771" lon="-73.07027988">
    <tag k="addr:city" v="Tinmouth" />
    <tag k="addr:housenumber" v="174" />
    <tag k="addr:street" v="Vermont Route 133 Morgan Road" />
    <tag k="addr:state" v="VT" />
    <tag k="ref:vcgi:esiteid" v="455000" />
  </node>
  <node id="-460" visible="true" lat="43.45920544" lon="-73.0728039">
    <tag k="addr:city" v="Tinmouth" />
    <tag k="addr:housenumber" v="44" />
    <tag k="addr:street" v="Journeys End Road" />
    <tag k="addr:state" v="VT" />
    <tag k="ref:vcgi:esiteid" v="455001" />
  </node>
  <node id="-461" visible="true" lat="43.48122421" lon="-73.04220926">
    <tag k="addr:city" v="Tinmouth" />
    <tag k="addr:housenumber" v="214" />
    <tag k="addr:street" v="North End Road" />
    <tag k="addr:state" v="VT" />
    <tag k="ref:vcgi:esiteid" v="455002" />
  </node>
  <node id="-462" visible="true" lat="43.44395795" lon="-73.0809319">
    <tag k="addr:city" v="Tinmouth" />
    <tag k="addr:housenumber" v="141" />
    <tag k="addr:street" v="Pent Road" />
    <tag k="addr:state" v="VT" />
    <tag k="ref:vcgi:esiteid" v="455003" />
  </node>
  <node id="-463" visible="true" lat="43.45059361" lon="-73.02809617">
    <tag k="addr:city" v="Tinmouth" />
    <tag k="addr:housenumber" v="295" />
    <tag k="addr:street" v="Vermont Route 140" />
    <tag k="addr:state" v="VT" />
    <tag k="ref:vcgi:esiteid" v="455004" />
  </node>
  <node id="-464" visible="true" lat="43.40314801" lon="-73.05653147">
    <tag k="addr:city" v="Tinmouth" />
    <tag k="addr:housenumber" v="25" />
    <tag k="addr:street" v="Ricketts Road" />
    <tag k="addr:state" v="VT" />
    <tag k="ref:vcgi:esiteid" v="455005" />
  </node>
  <node id="-465" visible="true" lat="43.40694162" lon="-73.0268274">
    <tag k="addr:city" v="Tinmouth" />
    <tag k="addr:housenumber" v="188" />
    <tag k="addr:street" v="White Birch Drive" />
    <tag k="addr:state" v="VT" />
    <tag k="ref:vcgi:esiteid" v="455006" />
  </node>
  <node id="-466" visible="true" lat="43.40834227" lon="-73.02685006">
    <tag k="addr:city" v="Tinmouth" />
    <tag k="addr:housenumber" v="168" />
    <tag k="addr:street" v="White Birch Drive" />
    <tag k="addr:state" v="VT" />
    <tag k="ref:vcgi:esiteid" v="455007" />
  </node>
  <node id="-467" visible="true" lat="43.4074295" lon="-73.02689004">
    <tag k="addr:city" v="Tinmouth" />
    <tag k="addr:housenumber" v="182" />
    <tag k="addr:street" v="White Birch Drive" />
    <tag k="addr:state" v="VT" />
    <tag k="ref:vcgi:esiteid" v="455043" />
  </node>
  <node id="-468" visible="true" lat="43.48309056" lon="-73.06164049">
    <tag k="addr:city" v="Tinmouth" />
    <tag k="addr:housenumber" v="80" />
    <tag k="addr:street" v="Northrup Road" />
    <tag k="addr:state" v="VT" />
    <tag k="ref:vcgi:esiteid" v="455529" />
  </node>
  <node id="-469" visible="true" lat="43.48995234" lon="-73.02676636">
    <tag k="addr:city" v="Tinmouth" />
    <tag k="addr:housenumber" v="475" />
    <tag k="addr:street" v="North End Road" />
    <tag k="addr:state" v="VT" />
    <tag k="ref:vcgi:esiteid" v="455530" />
  </node>
  <node id="-470" visible="true" lat="43.47606676" lon="-73.04491343">
    <tag k="addr:city" v="Tinmouth" />
    <tag k="addr:housenumber" v="119" />
    <tag k="addr:street" v="Harrington Cross Road" />
    <tag k="addr:state" v="VT" />
    <tag k="ref:vcgi:esiteid" v="455531" />
  </node>
  <node id="-471" visible="true" lat="43.4661363" lon="-73.04519461">
    <tag k="addr:city" v="Tinmouth" />
    <tag k="addr:housenumber" v="836" />
    <tag k="addr:street" v="Vermont Route 140" />
    <tag k="addr:state" v="VT" />
    <tag k="ref:vcgi:esiteid" v="455532" />
  </node>
  <node id="-472" visible="true" lat="43.41783726" lon="-73.11377425">
    <tag k="addr:city" v="Tinmouth" />
    <tag k="addr:housenumber" v="96" />
    <tag k="addr:street" v="McCoy Road" />
    <tag k="addr:state" v="VT" />
    <tag k="ref:vcgi:esiteid" v="455533" />
  </node>
  <node id="-473" visible="true" lat="43.41291829" lon="-73.04946832">
    <tag k="addr:city" v="Tinmouth" />
    <tag k="addr:housenumber" v="530" />
    <tag k="addr:street" v="Mountain View Road" />
    <tag k="addr:state" v="VT" />
    <tag k="ref:vcgi:esiteid" v="455534" />
  </node>
  <node id="-476" visible="true" lat="43.46425447" lon="-73.04922307">
    <tag k="addr:city" v="Tinmouth" />
    <tag k="addr:housenumber" v="791" />
    <tag k="addr:street" v="Vermont Route 140" />
    <tag k="addr:state" v="VT" />
    <tag k="ref:vcgi:esiteid" v="616539" />
  </node>
  <node id="-477" visible="true" lat="43.49454776" lon="-73.07075369">
    <tag k="addr:city" v="Tinmouth" />
    <tag k="addr:housenumber" v="176" />
    <tag k="addr:street" v="Vermont Route 133 Morgan Road" />
    <tag k="addr:state" v="VT" />
    <tag k="ref:vcgi:esiteid" v="618095" />
  </node>
  <node id="-478" visible="true" lat="43.41892696" lon="-73.11857717">
    <tag k="addr:city" v="Tinmouth" />
    <tag k="addr:housenumber" v="223" />
    <tag k="addr:street" v="Vermont Route 133 W Tinmouth Road" />
    <tag k="addr:state" v="VT" />
    <tag k="ref:vcgi:esiteid" v="618405" />
  </node>
  <node id="-479" visible="true" lat="43.40715998" lon="-73.02646971">
    <tag k="addr:city" v="Tinmouth" />
    <tag k="addr:housenumber" v="185" />
    <tag k="addr:street" v="White Birch Drive" />
    <tag k="addr:state" v="VT" />
    <tag k="ref:vcgi:esiteid" v="618406" />
  </node>
  <node id="-480" visible="true" lat="43.47053241" lon="-73.07568079">
    <tag k="addr:city" v="Tinmouth" />
    <tag k="addr:housenumber" v="162" />
    <tag k="addr:street" v="McNamara Road" />
    <tag k="addr:state" v="VT" />
    <tag k="ref:vcgi:esiteid" v="757263" />
  </node>
  <node id="-481" visible="true" lat="43.41131282" lon="-73.03246521">
    <tag k="addr:city" v="Tinmouth" />
    <tag k="addr:housenumber" v="64" />
    <tag k="addr:street" v="White Birch Drive" />
    <tag k="addr:state" v="VT" />
    <tag k="ref:vcgi:esiteid" v="757496" />
  </node>
  <node id="-482" visible="true" lat="43.40425757" lon="-73.02567188">
    <tag k="addr:city" v="Tinmouth" />
    <tag k="addr:housenumber" v="9" />
    <tag k="addr:street" v="East Shore Drive" />
    <tag k="addr:state" v="VT" />
    <tag k="ref:vcgi:esiteid" v="759506" />
  </node>
  <node id="-483" visible="true" lat="43.40335731" lon="-73.02690918">
    <tag k="addr:city" v="Tinmouth" />
    <tag k="addr:housenumber" v="120" />
    <tag k="addr:street" v="Tinmouth Pond Road" />
    <tag k="addr:state" v="VT" />
    <tag k="ref:vcgi:esiteid" v="759507" />
  </node>
  <node id="-484" visible="true" lat="43.41817107" lon="-73.03772436">
    <tag k="addr:city" v="Tinmouth" />
    <tag k="addr:housenumber" v="75" />
    <tag k="addr:street" v="Sugar House Lane" />
    <tag k="addr:state" v="VT" />
    <tag k="ref:vcgi:esiteid" v="760446" />
  </node>
  <node id="-485" visible="true" lat="43.45629342" lon="-73.02076138">
    <tag k="addr:city" v="Tinmouth" />
    <tag k="addr:housenumber" v="145" />
    <tag k="addr:street" v="Vermont Route 140" />
    <tag k="addr:state" v="VT" />
    <tag k="ref:vcgi:esiteid" v="760447" />
  </node>
  <node id="-486" visible="true" lat="43.41162104" lon="-73.03759892">
    <tag k="addr:city" v="Tinmouth" />
    <tag k="addr:housenumber" v="568" />
    <tag k="addr:street" v="East Road" />
    <tag k="addr:state" v="VT" />
    <tag k="ref:vcgi:esiteid" v="760448" />
  </node>
  <node id="-488" visible="true" lat="43.47642051" lon="-73.07419221">
    <tag k="addr:city" v="Tinmouth" />
    <tag k="addr:housenumber" v="78" />
    <tag k="addr:street" v="McNamara Road" />
    <tag k="addr:state" v="VT" />
    <tag k="ref:vcgi:esiteid" v="900456" />
  </node>
  <node id="-489" visible="true" lat="43.41668675" lon="-73.03655365">
    <tag k="addr:city" v="Tinmouth" />
    <tag k="addr:housenumber" v="101" />
    <tag k="addr:street" v="Sugar House Lane" />
    <tag k="addr:state" v="VT" />
    <tag k="ref:vcgi:esiteid" v="1050725" />
  </node>
</osm>
