<?xml version="1.0" encoding="UTF-8"?>
<osm version="0.6" generator="JOSM" upload="false">
  <node id="-100" visible="true" lat="43.97192479" lon="-72.31830388">
    <tag k="addr:city" v="Vershire" />
    <tag k="addr:housenumber" v="297" />
    <tag k="addr:street" v="Sugar House Lane" />
    <tag k="addr:state" v="VT" />
    <tag k="ref:vcgi:esiteid" v="291" />
  </node>
  <node id="-101" visible="true" lat="43.97325998" lon="-72.32162198">
    <tag k="addr:city" v="Vershire" />
    <tag k="addr:housenumber" v="44" />
    <tag k="addr:street" v="Sugar House Lane" />
    <tag k="addr:state" v="VT" />
    <tag k="ref:vcgi:esiteid" v="360" />
  </node>
  <node id="-102" visible="true" lat="43.92641181" lon="-72.2945985">
    <tag k="addr:city" v="Vershire" />
    <tag k="addr:housenumber" v="2847" />
    <tag k="addr:street" v="Parker Road" />
    <tag k="addr:state" v="VT" />
    <tag k="ref:vcgi:esiteid" v="363" />
  </node>
  <node id="-103" visible="true" lat="44.00779948" lon="-72.37980839">
    <tag k="addr:city" v="Vershire" />
    <tag k="addr:housenumber" v="2203" />
    <tag k="addr:street" v="Private Rd 6" />
    <tag k="addr:state" v="VT" />
    <tag k="ref:vcgi:esiteid" v="77078" />
  </node>
  <node id="-104" visible="true" lat="44.00452423" lon="-72.37628936">
    <tag k="addr:city" v="Vershire" />
    <tag k="addr:housenumber" v="832" />
    <tag k="addr:street" v="Vershire Riding School Road" />
    <tag k="addr:state" v="VT" />
    <tag k="ref:vcgi:esiteid" v="266885" />
  </node>
  <node id="-105" visible="true" lat="44.00323104" lon="-72.36824035">
    <tag k="addr:city" v="Vershire" />
    <tag k="addr:housenumber" v="404" />
    <tag k="addr:street" v="Vershire Riding School Road" />
    <tag k="addr:state" v="VT" />
    <tag k="ref:vcgi:esiteid" v="266886" />
  </node>
  <node id="-106" visible="true" lat="44.0030632" lon="-72.37202453">
    <tag k="addr:city" v="Vershire" />
    <tag k="addr:housenumber" v="560" />
    <tag k="addr:street" v="Vershire Riding School Road" />
    <tag k="addr:state" v="VT" />
    <tag k="ref:vcgi:esiteid" v="266887" />
  </node>
  <node id="-107" visible="true" lat="44.00236129" lon="-72.37451934">
    <tag k="addr:city" v="Vershire" />
    <tag k="addr:housenumber" v="665" />
    <tag k="addr:street" v="Vershire Riding School Road" />
    <tag k="addr:state" v="VT" />
    <tag k="ref:vcgi:esiteid" v="266888" />
  </node>
  <node id="-108" visible="true" lat="44.00220296" lon="-72.35675626">
    <tag k="addr:city" v="Vershire" />
    <tag k="addr:housenumber" v="1303" />
    <tag k="addr:street" v="Goose Green Road" />
    <tag k="addr:state" v="VT" />
    <tag k="ref:vcgi:esiteid" v="266889" />
  </node>
  <node id="-109" visible="true" lat="44.00210952" lon="-72.36765289">
    <tag k="addr:city" v="Vershire" />
    <tag k="addr:housenumber" v="402" />
    <tag k="addr:street" v="Vershire Riding School Road" />
    <tag k="addr:state" v="VT" />
    <tag k="ref:vcgi:esiteid" v="266890" />
  </node>
  <node id="-110" visible="true" lat="44.00147748" lon="-72.36824797">
    <tag k="addr:city" v="Vershire" />
    <tag k="addr:housenumber" v="376" />
    <tag k="addr:street" v="Vershire Riding School Road" />
    <tag k="addr:state" v="VT" />
    <tag k="ref:vcgi:esiteid" v="266891" />
  </node>
  <node id="-111" visible="true" lat="44.00133499" lon="-72.36779807">
    <tag k="addr:city" v="Vershire" />
    <tag k="addr:housenumber" v="336" />
    <tag k="addr:street" v="Vershire Riding School Road" />
    <tag k="addr:state" v="VT" />
    <tag k="ref:vcgi:esiteid" v="266892" />
  </node>
  <node id="-112" visible="true" lat="44.00095697" lon="-72.36749427">
    <tag k="addr:city" v="Vershire" />
    <tag k="addr:housenumber" v="333" />
    <tag k="addr:street" v="Vershire Riding School Road" />
    <tag k="addr:state" v="VT" />
    <tag k="ref:vcgi:esiteid" v="266893" />
  </node>
  <node id="-113" visible="true" lat="44.00038528" lon="-72.37571716">
    <tag k="addr:city" v="Vershire" />
    <tag k="addr:housenumber" v="585" />
    <tag k="addr:street" v="Vershire Riding School Road" />
    <tag k="addr:state" v="VT" />
    <tag k="ref:vcgi:esiteid" v="266894" />
  </node>
  <node id="-114" visible="true" lat="44.00040717" lon="-72.35312415">
    <tag k="addr:city" v="Vershire" />
    <tag k="addr:housenumber" v="1410" />
    <tag k="addr:street" v="Goose Green Road" />
    <tag k="addr:state" v="VT" />
    <tag k="ref:vcgi:esiteid" v="266895" />
  </node>
  <node id="-115" visible="true" lat="43.99964702" lon="-72.35417806">
    <tag k="addr:city" v="Vershire" />
    <tag k="addr:housenumber" v="1310" />
    <tag k="addr:street" v="Goose Green Road" />
    <tag k="addr:state" v="VT" />
    <tag k="ref:vcgi:esiteid" v="266896" />
  </node>
  <node id="-116" visible="true" lat="43.99817657" lon="-72.36578369">
    <tag k="addr:city" v="Vershire" />
    <tag k="addr:housenumber" v="77" />
    <tag k="addr:street" v="Vershire Riding School Road" />
    <tag k="addr:state" v="VT" />
    <tag k="ref:vcgi:esiteid" v="266897" />
  </node>
  <node id="-117" visible="true" lat="43.99530991" lon="-72.36533007">
    <tag k="addr:city" v="Vershire" />
    <tag k="addr:housenumber" v="584" />
    <tag k="addr:street" v="Goose Green Road" />
    <tag k="addr:state" v="VT" />
    <tag k="ref:vcgi:esiteid" v="266898" />
  </node>
  <node id="-118" visible="true" lat="43.9951745" lon="-72.34054467">
    <tag k="addr:city" v="Vershire" />
    <tag k="addr:housenumber" v="1266" />
    <tag k="addr:street" v="Rowell Road" />
    <tag k="addr:state" v="VT" />
    <tag k="ref:vcgi:esiteid" v="266899" />
  </node>
  <node id="-119" visible="true" lat="43.99443054" lon="-72.33033752">
    <tag k="addr:city" v="Vershire" />
    <tag k="addr:housenumber" v="537" />
    <tag k="addr:street" v="Stacey Road" />
    <tag k="addr:state" v="VT" />
    <tag k="ref:vcgi:esiteid" v="266900" />
  </node>
  <node id="-120" visible="true" lat="43.99425125" lon="-72.34248352">
    <tag k="addr:city" v="Vershire" />
    <tag k="addr:housenumber" v="1295" />
    <tag k="addr:street" v="Rowell Road" />
    <tag k="addr:state" v="VT" />
    <tag k="ref:vcgi:esiteid" v="266901" />
  </node>
  <node id="-121" visible="true" lat="43.99273681" lon="-72.36373901">
    <tag k="addr:city" v="Vershire" />
    <tag k="addr:housenumber" v="442" />
    <tag k="addr:street" v="Goose Green Road" />
    <tag k="addr:state" v="VT" />
    <tag k="ref:vcgi:esiteid" v="266902" />
  </node>
  <node id="-122" visible="true" lat="43.99220275" lon="-72.38205719">
    <tag k="addr:city" v="Vershire" />
    <tag k="addr:housenumber" v="10312" />
    <tag k="addr:street" v="Vermont Route 113" />
    <tag k="addr:state" v="VT" />
    <tag k="ref:vcgi:esiteid" v="266903" />
  </node>
  <node id="-123" visible="true" lat="43.99209976" lon="-72.38134002">
    <tag k="addr:city" v="Vershire" />
    <tag k="addr:housenumber" v="10310" />
    <tag k="addr:street" v="Vermont Route 113" />
    <tag k="addr:state" v="VT" />
    <tag k="ref:vcgi:esiteid" v="266904" />
  </node>
  <node id="-124" visible="true" lat="43.99204128" lon="-72.38324528">
    <tag k="addr:city" v="Vershire" />
    <tag k="addr:housenumber" v="10368" />
    <tag k="addr:street" v="Vermont Route 113" />
    <tag k="addr:state" v="VT" />
    <tag k="ref:vcgi:esiteid" v="266905" />
  </node>
  <node id="-125" visible="true" lat="43.99165344" lon="-72.37858581">
    <tag k="addr:city" v="Vershire" />
    <tag k="addr:housenumber" v="10148" />
    <tag k="addr:street" v="Vermont Route 113" />
    <tag k="addr:state" v="VT" />
    <tag k="ref:vcgi:esiteid" v="266906" />
  </node>
  <node id="-126" visible="true" lat="43.99160385" lon="-72.36609649">
    <tag k="addr:city" v="Vershire" />
    <tag k="addr:housenumber" v="315" />
    <tag k="addr:street" v="Goose Green Road" />
    <tag k="addr:state" v="VT" />
    <tag k="ref:vcgi:esiteid" v="266907" />
  </node>
  <node id="-127" visible="true" lat="43.99104194" lon="-72.37573406">
    <tag k="addr:city" v="Vershire" />
    <tag k="addr:housenumber" v="131" />
    <tag k="addr:street" v="Private Rd 2" />
    <tag k="addr:state" v="VT" />
    <tag k="ref:vcgi:esiteid" v="266908" />
  </node>
  <node id="-128" visible="true" lat="43.99118423" lon="-72.36591339">
    <tag k="addr:city" v="Vershire" />
    <tag k="addr:housenumber" v="308" />
    <tag k="addr:street" v="Goose Green Road" />
    <tag k="addr:state" v="VT" />
    <tag k="ref:vcgi:esiteid" v="266909" />
  </node>
  <node id="-129" visible="true" lat="43.99125167" lon="-72.3379944">
    <tag k="addr:city" v="Vershire" />
    <tag k="addr:housenumber" v="934" />
    <tag k="addr:street" v="Rowell Road" />
    <tag k="addr:state" v="VT" />
    <tag k="ref:vcgi:esiteid" v="266910" />
  </node>
  <node id="-130" visible="true" lat="43.99035599" lon="-72.37534882">
    <tag k="addr:city" v="Vershire" />
    <tag k="addr:housenumber" v="81" />
    <tag k="addr:street" v="Private Rd 2" />
    <tag k="addr:state" v="VT" />
    <tag k="ref:vcgi:esiteid" v="266911" />
  </node>
  <node id="-131" visible="true" lat="43.99022674" lon="-72.36875915">
    <tag k="addr:city" v="Vershire" />
    <tag k="addr:housenumber" v="171" />
    <tag k="addr:street" v="Goose Green Road" />
    <tag k="addr:state" v="VT" />
    <tag k="ref:vcgi:esiteid" v="266912" />
  </node>
  <node id="-132" visible="true" lat="43.98996593" lon="-72.3753789">
    <tag k="addr:city" v="Vershire" />
    <tag k="addr:housenumber" v="39" />
    <tag k="addr:street" v="Private Rd 2" />
    <tag k="addr:state" v="VT" />
    <tag k="ref:vcgi:esiteid" v="266913" />
  </node>
  <node id="-133" visible="true" lat="43.98984551" lon="-72.3808808">
    <tag k="addr:city" v="Vershire" />
    <tag k="addr:housenumber" v="10215" />
    <tag k="addr:street" v="Vermont Route 113" />
    <tag k="addr:state" v="VT" />
    <tag k="ref:vcgi:esiteid" v="266914" />
  </node>
  <node id="-134" visible="true" lat="43.98978805" lon="-72.37621307">
    <tag k="addr:city" v="Vershire" />
    <tag k="addr:housenumber" v="9997" />
    <tag k="addr:street" v="Vermont Route 113" />
    <tag k="addr:state" v="VT" />
    <tag k="ref:vcgi:esiteid" v="266915" />
  </node>
  <node id="-135" visible="true" lat="43.98846727" lon="-72.29873007">
    <tag k="addr:city" v="Vershire" />
    <tag k="addr:housenumber" v="2095" />
    <tag k="addr:street" v="Eagle Hollow Road" />
    <tag k="addr:state" v="VT" />
    <tag k="ref:vcgi:esiteid" v="266916" />
  </node>
  <node id="-136" visible="true" lat="43.98888501" lon="-72.36648841">
    <tag k="addr:city" v="Vershire" />
    <tag k="addr:housenumber" v="131" />
    <tag k="addr:street" v="Private Rd 1" />
    <tag k="addr:state" v="VT" />
    <tag k="ref:vcgi:esiteid" v="266917" />
  </node>
  <node id="-137" visible="true" lat="43.9887152" lon="-72.36690616">
    <tag k="addr:city" v="Vershire" />
    <tag k="addr:housenumber" v="107" />
    <tag k="addr:street" v="Private Rd 1" />
    <tag k="addr:state" v="VT" />
    <tag k="ref:vcgi:esiteid" v="266918" />
  </node>
  <node id="-138" visible="true" lat="43.98845672" lon="-72.36044311">
    <tag k="addr:city" v="Vershire" />
    <tag k="addr:housenumber" v="429" />
    <tag k="addr:street" v="Private Rd 1" />
    <tag k="addr:state" v="VT" />
    <tag k="ref:vcgi:esiteid" v="266919" />
  </node>
  <node id="-139" visible="true" lat="43.98825836" lon="-72.35874938">
    <tag k="addr:city" v="Vershire" />
    <tag k="addr:housenumber" v="431" />
    <tag k="addr:street" v="Private Rd 1" />
    <tag k="addr:state" v="VT" />
    <tag k="ref:vcgi:esiteid" v="266920" />
  </node>
  <node id="-140" visible="true" lat="43.98790741" lon="-72.36634063">
    <tag k="addr:city" v="Vershire" />
    <tag k="addr:housenumber" v="156" />
    <tag k="addr:street" v="Private Rd 1" />
    <tag k="addr:state" v="VT" />
    <tag k="ref:vcgi:esiteid" v="266921" />
  </node>
  <node id="-141" visible="true" lat="43.9878253" lon="-72.36197677">
    <tag k="addr:city" v="Vershire" />
    <tag k="addr:housenumber" v="391" />
    <tag k="addr:street" v="Private Rd 1" />
    <tag k="addr:state" v="VT" />
    <tag k="ref:vcgi:esiteid" v="266922" />
  </node>
  <node id="-142" visible="true" lat="43.98781209" lon="-72.3637233">
    <tag k="addr:city" v="Vershire" />
    <tag k="addr:housenumber" v="301" />
    <tag k="addr:street" v="Private Rd 1" />
    <tag k="addr:state" v="VT" />
    <tag k="ref:vcgi:esiteid" v="266923" />
  </node>
  <node id="-143" visible="true" lat="43.98755645" lon="-72.36962127">
    <tag k="addr:city" v="Vershire" />
    <tag k="addr:housenumber" v="9615" />
    <tag k="addr:street" v="Vermont Route 113" />
    <tag k="addr:state" v="VT" />
    <tag k="ref:vcgi:esiteid" v="266924" />
  </node>
  <node id="-144" visible="true" lat="43.98741289" lon="-72.36383138">
    <tag k="addr:city" v="Vershire" />
    <tag k="addr:housenumber" v="300" />
    <tag k="addr:street" v="Private Rd 1" />
    <tag k="addr:state" v="VT" />
    <tag k="ref:vcgi:esiteid" v="266926" />
  </node>
  <node id="-145" visible="true" lat="43.98730037" lon="-72.36127561">
    <tag k="addr:city" v="Vershire" />
    <tag k="addr:housenumber" v="423" />
    <tag k="addr:street" v="Private Rd 1" />
    <tag k="addr:state" v="VT" />
    <tag k="ref:vcgi:esiteid" v="266927" />
  </node>
  <node id="-146" visible="true" lat="43.98729705" lon="-72.36891937">
    <tag k="addr:city" v="Vershire" />
    <tag k="addr:housenumber" v="9580" />
    <tag k="addr:street" v="Vermont Route 113" />
    <tag k="addr:state" v="VT" />
    <tag k="ref:vcgi:esiteid" v="266928" />
  </node>
  <node id="-147" visible="true" lat="43.98729324" lon="-72.36934661">
    <tag k="addr:city" v="Vershire" />
    <tag k="addr:housenumber" v="9593" />
    <tag k="addr:street" v="Vermont Route 113" />
    <tag k="addr:state" v="VT" />
    <tag k="ref:vcgi:esiteid" v="266929" />
  </node>
  <node id="-148" visible="true" lat="43.98665237" lon="-72.34764099">
    <tag k="addr:city" v="Vershire" />
    <tag k="addr:housenumber" v="1460" />
    <tag k="addr:street" v="Durgin Hill Road" />
    <tag k="addr:state" v="VT" />
    <tag k="ref:vcgi:esiteid" v="266930" />
  </node>
  <node id="-149" visible="true" lat="43.98709553" lon="-72.31899983">
    <tag k="addr:city" v="Vershire" />
    <tag k="addr:housenumber" v="1240" />
    <tag k="addr:street" v="North Road" />
    <tag k="addr:state" v="VT" />
    <tag k="ref:vcgi:esiteid" v="266931" />
  </node>
  <node id="-150" visible="true" lat="43.98632495" lon="-72.35985879">
    <tag k="addr:city" v="Vershire" />
    <tag k="addr:housenumber" v="436" />
    <tag k="addr:street" v="Private Rd 1" />
    <tag k="addr:state" v="VT" />
    <tag k="ref:vcgi:esiteid" v="266932" />
  </node>
  <node id="-151" visible="true" lat="43.98439442" lon="-72.28869299">
    <tag k="addr:city" v="Vershire" />
    <tag k="addr:housenumber" v="1896" />
    <tag k="addr:street" v="Eagle Hollow Road" />
    <tag k="addr:state" v="VT" />
    <tag k="ref:vcgi:esiteid" v="266933" />
  </node>
  <node id="-152" visible="true" lat="43.98616409" lon="-72.36765289">
    <tag k="addr:city" v="Vershire" />
    <tag k="addr:housenumber" v="9476" />
    <tag k="addr:street" v="Vermont Route 113" />
    <tag k="addr:state" v="VT" />
    <tag k="ref:vcgi:esiteid" v="266934" />
  </node>
  <node id="-153" visible="true" lat="43.98494227" lon="-72.31972251">
    <tag k="addr:city" v="Vershire" />
    <tag k="addr:housenumber" v="1152" />
    <tag k="addr:street" v="North Road" />
    <tag k="addr:state" v="VT" />
    <tag k="ref:vcgi:esiteid" v="266935" />
  </node>
  <node id="-154" visible="true" lat="43.98377227" lon="-72.36278533">
    <tag k="addr:city" v="Vershire" />
    <tag k="addr:housenumber" v="9246" />
    <tag k="addr:street" v="Vermont Route 113" />
    <tag k="addr:state" v="VT" />
    <tag k="ref:vcgi:esiteid" v="266936" />
  </node>
  <node id="-155" visible="true" lat="43.98377227" lon="-72.37345886">
    <tag k="addr:city" v="Vershire" />
    <tag k="addr:housenumber" v="397" />
    <tag k="addr:street" v="McIver Road" />
    <tag k="addr:state" v="VT" />
    <tag k="ref:vcgi:esiteid" v="266937" />
  </node>
  <node id="-156" visible="true" lat="43.98351901" lon="-72.34003767">
    <tag k="addr:city" v="Vershire" />
    <tag k="addr:housenumber" v="978" />
    <tag k="addr:street" v="Durgin Hill Road" />
    <tag k="addr:state" v="VT" />
    <tag k="ref:vcgi:esiteid" v="266938" />
  </node>
  <node id="-157" visible="true" lat="43.9833374" lon="-72.363945">
    <tag k="addr:city" v="Vershire" />
    <tag k="addr:housenumber" v="9287" />
    <tag k="addr:street" v="Vermont Route 113" />
    <tag k="addr:state" v="VT" />
    <tag k="ref:vcgi:esiteid" v="266939" />
  </node>
  <node id="-158" visible="true" lat="43.98306655" lon="-72.37804412">
    <tag k="addr:city" v="Vershire" />
    <tag k="addr:housenumber" v="654" />
    <tag k="addr:street" v="McIver Road" />
    <tag k="addr:state" v="VT" />
    <tag k="ref:vcgi:esiteid" v="266940" />
  </node>
  <node id="-159" visible="true" lat="43.98259735" lon="-72.37450409">
    <tag k="addr:city" v="Vershire" />
    <tag k="addr:housenumber" v="467" />
    <tag k="addr:street" v="McIver Road" />
    <tag k="addr:state" v="VT" />
    <tag k="ref:vcgi:esiteid" v="266941" />
  </node>
  <node id="-160" visible="true" lat="43.98236846" lon="-72.36083221">
    <tag k="addr:city" v="Vershire" />
    <tag k="addr:housenumber" v="9006" />
    <tag k="addr:street" v="Vermont Route 113" />
    <tag k="addr:state" v="VT" />
    <tag k="ref:vcgi:esiteid" v="266942" />
  </node>
  <node id="-161" visible="true" lat="43.98215866" lon="-72.33277893">
    <tag k="addr:city" v="Vershire" />
    <tag k="addr:housenumber" v="162" />
    <tag k="addr:street" v="Rowell Road" />
    <tag k="addr:state" v="VT" />
    <tag k="ref:vcgi:esiteid" v="266943" />
  </node>
  <node id="-162" visible="true" lat="43.98219177" lon="-72.33586378">
    <tag k="addr:city" v="Vershire" />
    <tag k="addr:housenumber" v="740" />
    <tag k="addr:street" v="Durgin Hill Road" />
    <tag k="addr:state" v="VT" />
    <tag k="ref:vcgi:esiteid" v="266944" />
  </node>
  <node id="-163" visible="true" lat="43.98167309" lon="-72.38086212">
    <tag k="addr:city" v="Vershire" />
    <tag k="addr:housenumber" v="762" />
    <tag k="addr:street" v="McIver Road" />
    <tag k="addr:state" v="VT" />
    <tag k="ref:vcgi:esiteid" v="266946" />
  </node>
  <node id="-164" visible="true" lat="43.98171021" lon="-72.36330818">
    <tag k="addr:city" v="Vershire" />
    <tag k="addr:housenumber" v="9111" />
    <tag k="addr:street" v="Vermont Route 113" />
    <tag k="addr:state" v="VT" />
    <tag k="ref:vcgi:esiteid" v="266947" />
  </node>
  <node id="-165" visible="true" lat="43.98161188" lon="-72.33616306">
    <tag k="addr:city" v="Vershire" />
    <tag k="addr:housenumber" v="759" />
    <tag k="addr:street" v="Durgin Hill Road" />
    <tag k="addr:state" v="VT" />
    <tag k="ref:vcgi:esiteid" v="266948" />
  </node>
  <node id="-166" visible="true" lat="43.98115158" lon="-72.3559494">
    <tag k="addr:city" v="Vershire" />
    <tag k="addr:housenumber" v="8798" />
    <tag k="addr:street" v="Vermont Route 113" />
    <tag k="addr:state" v="VT" />
    <tag k="ref:vcgi:esiteid" v="266949" />
  </node>
  <node id="-167" visible="true" lat="43.98114046" lon="-72.36628164">
    <tag k="addr:city" v="Vershire" />
    <tag k="addr:housenumber" v="9289" />
    <tag k="addr:street" v="Vermont Route 113" />
    <tag k="addr:state" v="VT" />
    <tag k="ref:vcgi:esiteid" v="266950" />
  </node>
  <node id="-168" visible="true" lat="43.98083495" lon="-72.35984039">
    <tag k="addr:city" v="Vershire" />
    <tag k="addr:housenumber" v="8931" />
    <tag k="addr:street" v="Vermont Route 113" />
    <tag k="addr:state" v="VT" />
    <tag k="ref:vcgi:esiteid" v="266951" />
  </node>
  <node id="-169" visible="true" lat="43.98089378" lon="-72.35781675">
    <tag k="addr:city" v="Vershire" />
    <tag k="addr:housenumber" v="8870" />
    <tag k="addr:street" v="Vermont Route 113" />
    <tag k="addr:state" v="VT" />
    <tag k="ref:vcgi:esiteid" v="266952" />
  </node>
  <node id="-170" visible="true" lat="43.98097901" lon="-72.32232904">
    <tag k="addr:city" v="Vershire" />
    <tag k="addr:housenumber" v="695" />
    <tag k="addr:street" v="North Road" />
    <tag k="addr:state" v="VT" />
    <tag k="ref:vcgi:esiteid" v="266953" />
  </node>
  <node id="-171" visible="true" lat="43.98063278" lon="-72.38214874">
    <tag k="addr:city" v="Vershire" />
    <tag k="addr:housenumber" v="876" />
    <tag k="addr:street" v="McIver Road" />
    <tag k="addr:state" v="VT" />
    <tag k="ref:vcgi:esiteid" v="266954" />
  </node>
  <node id="-172" visible="true" lat="43.98027801" lon="-72.35438537">
    <tag k="addr:city" v="Vershire" />
    <tag k="addr:housenumber" v="8690" />
    <tag k="addr:street" v="Vermont Route 113" />
    <tag k="addr:state" v="VT" />
    <tag k="ref:vcgi:esiteid" v="266955" />
  </node>
  <node id="-173" visible="true" lat="43.97996902" lon="-72.35912322">
    <tag k="addr:city" v="Vershire" />
    <tag k="addr:housenumber" v="8795" />
    <tag k="addr:street" v="Vermont Route 113" />
    <tag k="addr:state" v="VT" />
    <tag k="ref:vcgi:esiteid" v="266956" />
  </node>
  <node id="-174" visible="true" lat="43.97993469" lon="-72.33348083">
    <tag k="addr:city" v="Vershire" />
    <tag k="addr:housenumber" v="43" />
    <tag k="addr:street" v="Rowell Road" />
    <tag k="addr:state" v="VT" />
    <tag k="ref:vcgi:esiteid" v="266957" />
  </node>
  <node id="-175" visible="true" lat="43.97907257" lon="-72.26701355">
    <tag k="addr:city" v="Vershire" />
    <tag k="addr:housenumber" v="385" />
    <tag k="addr:street" v="South America Road" />
    <tag k="addr:state" v="VT" />
    <tag k="ref:vcgi:esiteid" v="266958" />
  </node>
  <node id="-176" visible="true" lat="43.97901535" lon="-72.26643371">
    <tag k="addr:city" v="Vershire" />
    <tag k="addr:housenumber" v="379" />
    <tag k="addr:street" v="South America Road" />
    <tag k="addr:state" v="VT" />
    <tag k="ref:vcgi:esiteid" v="266959" />
  </node>
  <node id="-177" visible="true" lat="43.97958056" lon="-72.31859411">
    <tag k="addr:city" v="Vershire" />
    <tag k="addr:housenumber" v="117" />
    <tag k="addr:street" v="Private Rd 4" />
    <tag k="addr:state" v="VT" />
    <tag k="ref:vcgi:esiteid" v="266960" />
  </node>
  <node id="-178" visible="true" lat="43.97876354" lon="-72.3561771">
    <tag k="addr:city" v="Vershire" />
    <tag k="addr:housenumber" v="8707" />
    <tag k="addr:street" v="Vermont Route 113" />
    <tag k="addr:state" v="VT" />
    <tag k="ref:vcgi:esiteid" v="266961" />
  </node>
  <node id="-179" visible="true" lat="43.97870635" lon="-72.34877777">
    <tag k="addr:city" v="Vershire" />
    <tag k="addr:housenumber" v="8440" />
    <tag k="addr:street" v="Vermont Route 113" />
    <tag k="addr:state" v="VT" />
    <tag k="ref:vcgi:esiteid" v="266962" />
  </node>
  <node id="-180" visible="true" lat="43.97810851" lon="-72.31588625">
    <tag k="addr:city" v="Vershire" />
    <tag k="addr:housenumber" v="127" />
    <tag k="addr:street" v="Private Rd 4" />
    <tag k="addr:state" v="VT" />
    <tag k="ref:vcgi:esiteid" v="266963" />
  </node>
  <node id="-181" visible="true" lat="43.97870919" lon="-72.32193346">
    <tag k="addr:city" v="Vershire" />
    <tag k="addr:housenumber" v="693" />
    <tag k="addr:street" v="North Road" />
    <tag k="addr:state" v="VT" />
    <tag k="ref:vcgi:esiteid" v="266964" />
  </node>
  <node id="-182" visible="true" lat="43.97867148" lon="-72.33210357">
    <tag k="addr:city" v="Vershire" />
    <tag k="addr:housenumber" v="454" />
    <tag k="addr:street" v="Durgin Hill Road" />
    <tag k="addr:state" v="VT" />
    <tag k="ref:vcgi:esiteid" v="266965" />
  </node>
  <node id="-183" visible="true" lat="43.97808456" lon="-72.35288238">
    <tag k="addr:city" v="Vershire" />
    <tag k="addr:housenumber" v="8522" />
    <tag k="addr:street" v="Vermont Route 113" />
    <tag k="addr:state" v="VT" />
    <tag k="ref:vcgi:esiteid" v="266966" />
  </node>
  <node id="-184" visible="true" lat="43.97784901" lon="-72.35513398">
    <tag k="addr:city" v="Vershire" />
    <tag k="addr:housenumber" v="8631" />
    <tag k="addr:street" v="Vermont Route 113" />
    <tag k="addr:state" v="VT" />
    <tag k="ref:vcgi:esiteid" v="266967" />
  </node>
  <node id="-185" visible="true" lat="43.97756195" lon="-72.35462951">
    <tag k="addr:city" v="Vershire" />
    <tag k="addr:housenumber" v="8595" />
    <tag k="addr:street" v="Vermont Route 113" />
    <tag k="addr:state" v="VT" />
    <tag k="ref:vcgi:esiteid" v="266968" />
  </node>
  <node id="-186" visible="true" lat="43.97773694" lon="-72.33173081">
    <tag k="addr:city" v="Vershire" />
    <tag k="addr:housenumber" v="408" />
    <tag k="addr:street" v="Durgin Hill Road" />
    <tag k="addr:state" v="VT" />
    <tag k="ref:vcgi:esiteid" v="266969" />
  </node>
  <node id="-187" visible="true" lat="43.9774896" lon="-72.32043874">
    <tag k="addr:city" v="Vershire" />
    <tag k="addr:housenumber" v="512" />
    <tag k="addr:street" v="North Road" />
    <tag k="addr:state" v="VT" />
    <tag k="ref:vcgi:esiteid" v="266970" />
  </node>
  <node id="-188" visible="true" lat="43.97717285" lon="-72.38205718">
    <tag k="addr:city" v="Vershire" />
    <tag k="addr:housenumber" v="985" />
    <tag k="addr:street" v="McIver Road" />
    <tag k="addr:state" v="VT" />
    <tag k="ref:vcgi:esiteid" v="266971" />
  </node>
  <node id="-189" visible="true" lat="43.97691726" lon="-72.37407684">
    <tag k="addr:city" v="Vershire" />
    <tag k="addr:housenumber" v="299" />
    <tag k="addr:street" v="Private Rd 3" />
    <tag k="addr:state" v="VT" />
    <tag k="ref:vcgi:esiteid" v="266972" />
  </node>
  <node id="-190" visible="true" lat="43.97690762" lon="-72.33641368">
    <tag k="addr:city" v="Vershire" />
    <tag k="addr:housenumber" v="729" />
    <tag k="addr:street" v="Durgin Hill Road" />
    <tag k="addr:state" v="VT" />
    <tag k="ref:vcgi:esiteid" v="266973" />
  </node>
  <node id="-191" visible="true" lat="43.97677612" lon="-72.34868621">
    <tag k="addr:city" v="Vershire" />
    <tag k="addr:housenumber" v="8306" />
    <tag k="addr:street" v="Vermont Route 113" />
    <tag k="addr:state" v="VT" />
    <tag k="ref:vcgi:esiteid" v="266974" />
  </node>
  <node id="-192" visible="true" lat="43.97712717" lon="-72.33158">
    <tag k="addr:city" v="Vershire" />
    <tag k="addr:housenumber" v="334" />
    <tag k="addr:street" v="Durgin Hill Road" />
    <tag k="addr:state" v="VT" />
    <tag k="ref:vcgi:esiteid" v="266975" />
  </node>
  <node id="-193" visible="true" lat="43.97590517" lon="-72.38343501">
    <tag k="addr:city" v="Vershire" />
    <tag k="addr:housenumber" v="1171" />
    <tag k="addr:street" v="McIver Road" />
    <tag k="addr:state" v="VT" />
    <tag k="ref:vcgi:esiteid" v="266976" />
  </node>
  <node id="-194" visible="true" lat="43.97630862" lon="-72.35042807">
    <tag k="addr:city" v="Vershire" />
    <tag k="addr:housenumber" v="8376" />
    <tag k="addr:street" v="Vermont Route 113" />
    <tag k="addr:state" v="VT" />
    <tag k="ref:vcgi:esiteid" v="266977" />
  </node>
  <node id="-195" visible="true" lat="43.97616195" lon="-72.35115051">
    <tag k="addr:city" v="Vershire" />
    <tag k="addr:housenumber" v="8403" />
    <tag k="addr:street" v="Vermont Route 113" />
    <tag k="addr:state" v="VT" />
    <tag k="ref:vcgi:esiteid" v="266978" />
  </node>
  <node id="-196" visible="true" lat="43.97595977" lon="-72.35958862">
    <tag k="addr:city" v="Vershire" />
    <tag k="addr:housenumber" v="8791" />
    <tag k="addr:street" v="Vermont Route 113" />
    <tag k="addr:state" v="VT" />
    <tag k="ref:vcgi:esiteid" v="266979" />
  </node>
  <node id="-197" visible="true" lat="43.97583007" lon="-72.33155059">
    <tag k="addr:city" v="Vershire" />
    <tag k="addr:housenumber" v="273" />
    <tag k="addr:street" v="Durgin Hill Road" />
    <tag k="addr:state" v="VT" />
    <tag k="ref:vcgi:esiteid" v="266980" />
  </node>
  <node id="-198" visible="true" lat="43.97613508" lon="-72.31581373">
    <tag k="addr:city" v="Vershire" />
    <tag k="addr:housenumber" v="406" />
    <tag k="addr:street" v="Private Rd 4" />
    <tag k="addr:state" v="VT" />
    <tag k="ref:vcgi:esiteid" v="266981" />
  </node>
  <node id="-199" visible="true" lat="43.97559901" lon="-72.29995388">
    <tag k="addr:city" v="Vershire" />
    <tag k="addr:housenumber" v="1011" />
    <tag k="addr:street" v="Eagle Hollow Road" />
    <tag k="addr:state" v="VT" />
    <tag k="ref:vcgi:esiteid" v="266982" />
  </node>
  <node id="-200" visible="true" lat="43.97560864" lon="-72.34617078">
    <tag k="addr:city" v="Vershire" />
    <tag k="addr:housenumber" v="8142" />
    <tag k="addr:street" v="Vermont Route 113" />
    <tag k="addr:state" v="VT" />
    <tag k="ref:vcgi:esiteid" v="266983" />
  </node>
  <node id="-201" visible="true" lat="43.97501032" lon="-72.34733806">
    <tag k="addr:city" v="Vershire" />
    <tag k="addr:housenumber" v="8231" />
    <tag k="addr:street" v="Vermont Route 113" />
    <tag k="addr:state" v="VT" />
    <tag k="ref:vcgi:esiteid" v="266984" />
  </node>
  <node id="-202" visible="true" lat="43.97448137" lon="-72.37523805">
    <tag k="addr:city" v="Vershire" />
    <tag k="addr:housenumber" v="476" />
    <tag k="addr:street" v="Private Rd 3" />
    <tag k="addr:state" v="VT" />
    <tag k="ref:vcgi:esiteid" v="266985" />
  </node>
  <node id="-203" visible="true" lat="43.97425079" lon="-72.2899475">
    <tag k="addr:city" v="Vershire" />
    <tag k="addr:housenumber" v="269" />
    <tag k="addr:street" v="Parshley Road" />
    <tag k="addr:state" v="VT" />
    <tag k="ref:vcgi:esiteid" v="266986" />
  </node>
  <node id="-204" visible="true" lat="43.97427656" lon="-72.32455732">
    <tag k="addr:city" v="Vershire" />
    <tag k="addr:housenumber" v="39" />
    <tag k="addr:street" v="North Road" />
    <tag k="addr:state" v="VT" />
    <tag k="ref:vcgi:esiteid" v="266987" />
  </node>
  <node id="-205" visible="true" lat="43.97416623" lon="-72.37661772">
    <tag k="addr:city" v="Vershire" />
    <tag k="addr:housenumber" v="474" />
    <tag k="addr:street" v="Private Rd 3" />
    <tag k="addr:state" v="VT" />
    <tag k="ref:vcgi:esiteid" v="266988" />
  </node>
  <node id="-206" visible="true" lat="43.97418652" lon="-72.32427296">
    <tag k="addr:city" v="Vershire" />
    <tag k="addr:housenumber" v="41" />
    <tag k="addr:street" v="North Road" />
    <tag k="addr:state" v="VT" />
    <tag k="ref:vcgi:esiteid" v="266989" />
  </node>
  <node id="-207" visible="true" lat="43.97431568" lon="-72.330504">
    <tag k="addr:city" v="Vershire" />
    <tag k="addr:housenumber" v="154" />
    <tag k="addr:street" v="Durgin Hill Road" />
    <tag k="addr:state" v="VT" />
    <tag k="ref:vcgi:esiteid" v="266990" />
  </node>
  <node id="-208" visible="true" lat="43.97303409" lon="-72.29734507">
    <tag k="addr:city" v="Vershire" />
    <tag k="addr:housenumber" v="786" />
    <tag k="addr:street" v="Eagle Hollow Road" />
    <tag k="addr:state" v="VT" />
    <tag k="ref:vcgi:esiteid" v="266991" />
  </node>
  <node id="-209" visible="true" lat="43.97304153" lon="-72.34279632">
    <tag k="addr:city" v="Vershire" />
    <tag k="addr:housenumber" v="72" />
    <tag k="addr:street" v="Brown Road" />
    <tag k="addr:state" v="VT" />
    <tag k="ref:vcgi:esiteid" v="266992" />
  </node>
  <node id="-210" visible="true" lat="43.97297349" lon="-72.32791358">
    <tag k="addr:city" v="Vershire" />
    <tag k="addr:housenumber" v="360" />
    <tag k="addr:street" v="Moon Meadow Drive" />
    <tag k="addr:state" v="VT" />
    <tag k="ref:vcgi:esiteid" v="266993" />
  </node>
  <node id="-211" visible="true" lat="43.97266905" lon="-72.32102169">
    <tag k="addr:city" v="Vershire" />
    <tag k="addr:housenumber" v="126" />
    <tag k="addr:street" v="Sugar House Lane" />
    <tag k="addr:state" v="VT" />
    <tag k="ref:vcgi:esiteid" v="266994" />
  </node>
  <node id="-212" visible="true" lat="43.97222471" lon="-72.33092793">
    <tag k="addr:city" v="Vershire" />
    <tag k="addr:housenumber" v="15" />
    <tag k="addr:street" v="Durgin Hill Road" />
    <tag k="addr:state" v="VT" />
    <tag k="ref:vcgi:esiteid" v="266995" />
  </node>
  <node id="-213" visible="true" lat="43.97187423" lon="-72.33476257">
    <tag k="addr:city" v="Vershire" />
    <tag k="addr:housenumber" v="92" />
    <tag k="addr:street" v="Richardson Road" />
    <tag k="addr:state" v="VT" />
    <tag k="ref:vcgi:esiteid" v="266996" />
  </node>
  <node id="-214" visible="true" lat="43.97149371" lon="-72.3294553">
    <tag k="addr:city" v="Vershire" />
    <tag k="addr:housenumber" v="7259" />
    <tag k="addr:street" v="Vermont Route 113" />
    <tag k="addr:state" v="VT" />
    <tag k="ref:vcgi:esiteid" v="266997" />
  </node>
  <node id="-215" visible="true" lat="43.97192512" lon="-72.31760403">
    <tag k="addr:city" v="Vershire" />
    <tag k="addr:housenumber" v="327" />
    <tag k="addr:street" v="Sugar House Lane" />
    <tag k="addr:state" v="VT" />
    <tag k="ref:vcgi:esiteid" v="266998" />
  </node>
  <node id="-216" visible="true" lat="43.97093963" lon="-72.2909317">
    <tag k="addr:city" v="Vershire" />
    <tag k="addr:housenumber" v="276" />
    <tag k="addr:street" v="Parshley Road" />
    <tag k="addr:state" v="VT" />
    <tag k="ref:vcgi:esiteid" v="266999" />
  </node>
  <node id="-217" visible="true" lat="43.97074922" lon="-72.32420403">
    <tag k="addr:city" v="Vershire" />
    <tag k="addr:housenumber" v="6946" />
    <tag k="addr:street" v="Vermont Route 113" />
    <tag k="addr:state" v="VT" />
    <tag k="ref:vcgi:esiteid" v="267000" />
  </node>
  <node id="-218" visible="true" lat="43.97046992" lon="-72.38508905">
    <tag k="addr:city" v="Vershire" />
    <tag k="addr:housenumber" v="1651" />
    <tag k="addr:street" v="McIver Road" />
    <tag k="addr:state" v="VT" />
    <tag k="ref:vcgi:esiteid" v="267001" />
  </node>
  <node id="-219" visible="true" lat="43.97068393" lon="-72.32526835">
    <tag k="addr:city" v="Vershire" />
    <tag k="addr:housenumber" v="16" />
    <tag k="addr:street" v="Vershire Center Road" />
    <tag k="addr:state" v="VT" />
    <tag k="ref:vcgi:esiteid" v="267002" />
  </node>
  <node id="-220" visible="true" lat="43.97046661" lon="-72.29164886">
    <tag k="addr:city" v="Vershire" />
    <tag k="addr:housenumber" v="226" />
    <tag k="addr:street" v="Parshley Road" />
    <tag k="addr:state" v="VT" />
    <tag k="ref:vcgi:esiteid" v="267003" />
  </node>
  <node id="-221" visible="true" lat="43.97052662" lon="-72.32265035">
    <tag k="addr:city" v="Vershire" />
    <tag k="addr:housenumber" v="17" />
    <tag k="addr:street" v="North Road" />
    <tag k="addr:state" v="VT" />
    <tag k="ref:vcgi:esiteid" v="267004" />
  </node>
  <node id="-222" visible="true" lat="43.97048002" lon="-72.32322739">
    <tag k="addr:city" v="Vershire" />
    <tag k="addr:housenumber" v="6894" />
    <tag k="addr:street" v="Vermont Route 113" />
    <tag k="addr:state" v="VT" />
    <tag k="ref:vcgi:esiteid" v="267005" />
  </node>
  <node id="-223" visible="true" lat="43.96981453" lon="-72.33067315">
    <tag k="addr:city" v="Vershire" />
    <tag k="addr:housenumber" v="350" />
    <tag k="addr:street" v="Vershire Center Road" />
    <tag k="addr:state" v="VT" />
    <tag k="ref:vcgi:esiteid" v="267006" />
  </node>
  <node id="-224" visible="true" lat="43.97087128" lon="-72.31982091">
    <tag k="addr:city" v="Vershire" />
    <tag k="addr:housenumber" v="74" />
    <tag k="addr:street" v="North Road" />
    <tag k="addr:state" v="VT" />
    <tag k="ref:vcgi:esiteid" v="267007" />
  </node>
  <node id="-225" visible="true" lat="43.97015874" lon="-72.32651745">
    <tag k="addr:city" v="Vershire" />
    <tag k="addr:housenumber" v="92" />
    <tag k="addr:street" v="Vershire Center Road" />
    <tag k="addr:state" v="VT" />
    <tag k="ref:vcgi:esiteid" v="267009" />
  </node>
  <node id="-226" visible="true" lat="43.97013869" lon="-72.32306998">
    <tag k="addr:city" v="Vershire" />
    <tag k="addr:housenumber" v="6881" />
    <tag k="addr:street" v="Vermont Route 113" />
    <tag k="addr:state" v="VT" />
    <tag k="ref:vcgi:esiteid" v="267010" />
  </node>
  <node id="-227" visible="true" lat="43.97020527" lon="-72.32235725">
    <tag k="addr:city" v="Vershire" />
    <tag k="addr:housenumber" v="6840" />
    <tag k="addr:street" v="Vermont Route 113" />
    <tag k="addr:state" v="VT" />
    <tag k="ref:vcgi:esiteid" v="267011" />
  </node>
  <node id="-228" visible="true" lat="43.9699448" lon="-72.32372066">
    <tag k="addr:city" v="Vershire" />
    <tag k="addr:housenumber" v="27" />
    <tag k="addr:street" v="Vershire Center Road" />
    <tag k="addr:state" v="VT" />
    <tag k="ref:vcgi:esiteid" v="267012" />
  </node>
  <node id="-229" visible="true" lat="43.96989658" lon="-72.32404114">
    <tag k="addr:city" v="Vershire" />
    <tag k="addr:housenumber" v="29" />
    <tag k="addr:street" v="Vershire Center Road" />
    <tag k="addr:state" v="VT" />
    <tag k="ref:vcgi:esiteid" v="267013" />
  </node>
  <node id="-230" visible="true" lat="43.97003008" lon="-72.32271457">
    <tag k="addr:city" v="Vershire" />
    <tag k="addr:housenumber" v="6857" />
    <tag k="addr:street" v="Vermont Route 113" />
    <tag k="addr:state" v="VT" />
    <tag k="ref:vcgi:esiteid" v="267014" />
  </node>
  <node id="-231" visible="true" lat="43.96991729" lon="-72.3251419">
    <tag k="addr:city" v="Vershire" />
    <tag k="addr:housenumber" v="55" />
    <tag k="addr:street" v="Vershire Center Road" />
    <tag k="addr:state" v="VT" />
    <tag k="ref:vcgi:esiteid" v="267015" />
  </node>
  <node id="-232" visible="true" lat="43.96984863" lon="-72.32092285">
    <tag k="addr:city" v="Vershire" />
    <tag k="addr:housenumber" v="6776" />
    <tag k="addr:street" v="Vermont Route 113" />
    <tag k="addr:state" v="VT" />
    <tag k="ref:vcgi:esiteid" v="267016" />
  </node>
  <node id="-233" visible="true" lat="43.96970748" lon="-72.29248046">
    <tag k="addr:city" v="Vershire" />
    <tag k="addr:housenumber" v="160" />
    <tag k="addr:street" v="Parshley Road" />
    <tag k="addr:state" v="VT" />
    <tag k="ref:vcgi:esiteid" v="267017" />
  </node>
  <node id="-234" visible="true" lat="43.96976089" lon="-72.36492157">
    <tag k="addr:city" v="Vershire" />
    <tag k="addr:housenumber" v="135" />
    <tag k="addr:street" v="Ewing Road" />
    <tag k="addr:state" v="VT" />
    <tag k="ref:vcgi:esiteid" v="267018" />
  </node>
  <node id="-235" visible="true" lat="43.96977512" lon="-72.32203963">
    <tag k="addr:city" v="Vershire" />
    <tag k="addr:housenumber" v="6811" />
    <tag k="addr:street" v="Vermont Route 113" />
    <tag k="addr:state" v="VT" />
    <tag k="ref:vcgi:esiteid" v="267019" />
  </node>
  <node id="-236" visible="true" lat="43.96955108" lon="-72.32133483">
    <tag k="addr:city" v="Vershire" />
    <tag k="addr:housenumber" v="6787" />
    <tag k="addr:street" v="Vermont Route 113" />
    <tag k="addr:state" v="VT" />
    <tag k="ref:vcgi:esiteid" v="267020" />
  </node>
  <node id="-237" visible="true" lat="43.96952819" lon="-72.31993103">
    <tag k="addr:city" v="Vershire" />
    <tag k="addr:housenumber" v="6722" />
    <tag k="addr:street" v="Vermont Route 113" />
    <tag k="addr:state" v="VT" />
    <tag k="ref:vcgi:esiteid" v="267021" />
  </node>
  <node id="-238" visible="true" lat="43.97033252" lon="-72.25095211">
    <tag k="addr:city" v="Vershire" />
    <tag k="addr:housenumber" v="31" />
    <tag k="addr:street" v="Hoth Lane" />
    <tag k="addr:state" v="VT" />
    <tag k="ref:vcgi:esiteid" v="267022" />
  </node>
  <node id="-239" visible="true" lat="43.9689064" lon="-72.33924102">
    <tag k="addr:city" v="Vershire" />
    <tag k="addr:housenumber" v="386" />
    <tag k="addr:street" v="Brown Road" />
    <tag k="addr:state" v="VT" />
    <tag k="ref:vcgi:esiteid" v="267023" />
  </node>
  <node id="-240" visible="true" lat="43.96878814" lon="-72.29292297">
    <tag k="addr:city" v="Vershire" />
    <tag k="addr:housenumber" v="88" />
    <tag k="addr:street" v="Parshley Road" />
    <tag k="addr:state" v="VT" />
    <tag k="ref:vcgi:esiteid" v="267024" />
  </node>
  <node id="-241" visible="true" lat="43.96867911" lon="-72.31879612">
    <tag k="addr:city" v="Vershire" />
    <tag k="addr:housenumber" v="6645" />
    <tag k="addr:street" v="Vermont Route 113" />
    <tag k="addr:state" v="VT" />
    <tag k="ref:vcgi:esiteid" v="267025" />
  </node>
  <node id="-242" visible="true" lat="43.96868896" lon="-72.31711578">
    <tag k="addr:city" v="Vershire" />
    <tag k="addr:housenumber" v="6570" />
    <tag k="addr:street" v="Vermont Route 113" />
    <tag k="addr:state" v="VT" />
    <tag k="ref:vcgi:esiteid" v="267026" />
  </node>
  <node id="-243" visible="true" lat="43.97203605" lon="-72.32135118">
    <tag k="addr:city" v="Vershire" />
    <tag k="addr:housenumber" v="184" />
    <tag k="addr:street" v="North Road" />
    <tag k="addr:state" v="VT" />
    <tag k="ref:vcgi:esiteid" v="267027" />
  </node>
  <node id="-244" visible="true" lat="43.96871025" lon="-72.31646557">
    <tag k="addr:city" v="Vershire" />
    <tag k="addr:housenumber" v="6470" />
    <tag k="addr:street" v="Vermont Route 113" />
    <tag k="addr:state" v="VT" />
    <tag k="ref:vcgi:esiteid" v="267028" />
  </node>
  <node id="-245" visible="true" lat="43.96828421" lon="-72.31697104">
    <tag k="addr:city" v="Vershire" />
    <tag k="addr:housenumber" v="6555" />
    <tag k="addr:street" v="Vermont Route 113" />
    <tag k="addr:state" v="VT" />
    <tag k="ref:vcgi:esiteid" v="267029" />
  </node>
  <node id="-246" visible="true" lat="43.9680192" lon="-72.31530123">
    <tag k="addr:city" v="Vershire" />
    <tag k="addr:housenumber" v="6460" />
    <tag k="addr:street" v="Vermont Route 113" />
    <tag k="addr:state" v="VT" />
    <tag k="ref:vcgi:esiteid" v="267030" />
  </node>
  <node id="-247" visible="true" lat="43.96797511" lon="-72.31326313">
    <tag k="addr:city" v="Vershire" />
    <tag k="addr:housenumber" v="6402" />
    <tag k="addr:street" v="Vermont Route 113" />
    <tag k="addr:state" v="VT" />
    <tag k="ref:vcgi:esiteid" v="267031" />
  </node>
  <node id="-248" visible="true" lat="43.96760417" lon="-72.31518679">
    <tag k="addr:city" v="Vershire" />
    <tag k="addr:housenumber" v="6451" />
    <tag k="addr:street" v="Vermont Route 113" />
    <tag k="addr:state" v="VT" />
    <tag k="ref:vcgi:esiteid" v="267032" />
  </node>
  <node id="-249" visible="true" lat="43.96769327" lon="-72.31463618">
    <tag k="addr:city" v="Vershire" />
    <tag k="addr:housenumber" v="6428" />
    <tag k="addr:street" v="Vermont Route 113" />
    <tag k="addr:state" v="VT" />
    <tag k="ref:vcgi:esiteid" v="267033" />
  </node>
  <node id="-250" visible="true" lat="43.96748932" lon="-72.31432941">
    <tag k="addr:city" v="Vershire" />
    <tag k="addr:housenumber" v="6410" />
    <tag k="addr:street" v="Vermont Route 113" />
    <tag k="addr:state" v="VT" />
    <tag k="ref:vcgi:esiteid" v="267034" />
  </node>
  <node id="-251" visible="true" lat="43.96682172" lon="-72.3143699">
    <tag k="addr:city" v="Vershire" />
    <tag k="addr:housenumber" v="6363" />
    <tag k="addr:street" v="Vermont Route 113" />
    <tag k="addr:state" v="VT" />
    <tag k="ref:vcgi:esiteid" v="267035" />
  </node>
  <node id="-252" visible="true" lat="43.96643465" lon="-72.31360926">
    <tag k="addr:city" v="Vershire" />
    <tag k="addr:housenumber" v="6335" />
    <tag k="addr:street" v="Vermont Route 113" />
    <tag k="addr:state" v="VT" />
    <tag k="ref:vcgi:esiteid" v="267036" />
  </node>
  <node id="-253" visible="true" lat="43.9665366" lon="-72.33735202">
    <tag k="addr:city" v="Vershire" />
    <tag k="addr:housenumber" v="537" />
    <tag k="addr:street" v="Brown Road" />
    <tag k="addr:state" v="VT" />
    <tag k="ref:vcgi:esiteid" v="267037" />
  </node>
  <node id="-254" visible="true" lat="43.96654959" lon="-72.35453115">
    <tag k="addr:city" v="Vershire" />
    <tag k="addr:housenumber" v="965" />
    <tag k="addr:street" v="Reed Road" />
    <tag k="addr:state" v="VT" />
    <tag k="ref:vcgi:esiteid" v="267038" />
  </node>
  <node id="-255" visible="true" lat="43.96643829" lon="-72.33287811">
    <tag k="addr:city" v="Vershire" />
    <tag k="addr:housenumber" v="523" />
    <tag k="addr:street" v="Vershire Center Road" />
    <tag k="addr:state" v="VT" />
    <tag k="ref:vcgi:esiteid" v="267039" />
  </node>
  <node id="-256" visible="true" lat="43.96646118" lon="-72.34889984">
    <tag k="addr:city" v="Vershire" />
    <tag k="addr:housenumber" v="684" />
    <tag k="addr:street" v="Reed Road" />
    <tag k="addr:state" v="VT" />
    <tag k="ref:vcgi:esiteid" v="267040" />
  </node>
  <node id="-257" visible="true" lat="43.96632679" lon="-72.3131913">
    <tag k="addr:city" v="Vershire" />
    <tag k="addr:housenumber" v="6319" />
    <tag k="addr:street" v="Vermont Route 113" />
    <tag k="addr:state" v="VT" />
    <tag k="ref:vcgi:esiteid" v="267041" />
  </node>
  <node id="-258" visible="true" lat="43.966362" lon="-72.3346939">
    <tag k="addr:city" v="Vershire" />
    <tag k="addr:housenumber" v="608" />
    <tag k="addr:street" v="Vershire Center Road" />
    <tag k="addr:state" v="VT" />
    <tag k="ref:vcgi:esiteid" v="267042" />
  </node>
  <node id="-259" visible="true" lat="43.9662048" lon="-72.31172471">
    <tag k="addr:city" v="Vershire" />
    <tag k="addr:housenumber" v="6246" />
    <tag k="addr:street" v="Vermont Route 113" />
    <tag k="addr:state" v="VT" />
    <tag k="ref:vcgi:esiteid" v="267043" />
  </node>
  <node id="-260" visible="true" lat="43.96560122" lon="-72.25358943">
    <tag k="addr:city" v="Vershire" />
    <tag k="addr:housenumber" v="567" />
    <tag k="addr:street" v="Powells Road" />
    <tag k="addr:state" v="VT" />
    <tag k="ref:vcgi:esiteid" v="267044" />
  </node>
  <node id="-261" visible="true" lat="43.96490173" lon="-72.32735159">
    <tag k="addr:city" v="Vershire" />
    <tag k="addr:housenumber" v="582" />
    <tag k="addr:street" v="Mud Lane" />
    <tag k="addr:state" v="VT" />
    <tag k="ref:vcgi:esiteid" v="267045" />
  </node>
  <node id="-262" visible="true" lat="43.96550096" lon="-72.31098759">
    <tag k="addr:city" v="Vershire" />
    <tag k="addr:housenumber" v="6195" />
    <tag k="addr:street" v="Vermont Route 113" />
    <tag k="addr:state" v="VT" />
    <tag k="ref:vcgi:esiteid" v="267046" />
  </node>
  <node id="-263" visible="true" lat="43.96547267" lon="-72.3493347">
    <tag k="addr:city" v="Vershire" />
    <tag k="addr:housenumber" v="673" />
    <tag k="addr:street" v="Reed Road" />
    <tag k="addr:state" v="VT" />
    <tag k="ref:vcgi:esiteid" v="267047" />
  </node>
  <node id="-264" visible="true" lat="43.96319304" lon="-72.34788058">
    <tag k="addr:city" v="Vershire" />
    <tag k="addr:housenumber" v="573" />
    <tag k="addr:street" v="Reed Road" />
    <tag k="addr:state" v="VT" />
    <tag k="ref:vcgi:esiteid" v="267048" />
  </node>
  <node id="-265" visible="true" lat="43.96471405" lon="-72.2900772">
    <tag k="addr:city" v="Vershire" />
    <tag k="addr:housenumber" v="148" />
    <tag k="addr:street" v="Eagle Hollow Road" />
    <tag k="addr:state" v="VT" />
    <tag k="ref:vcgi:esiteid" v="267049" />
  </node>
  <node id="-266" visible="true" lat="43.96466429" lon="-72.30939859">
    <tag k="addr:city" v="Vershire" />
    <tag k="addr:housenumber" v="6083" />
    <tag k="addr:street" v="Vermont Route 113" />
    <tag k="addr:state" v="VT" />
    <tag k="ref:vcgi:esiteid" v="267050" />
  </node>
  <node id="-267" visible="true" lat="43.9647291" lon="-72.34210843">
    <tag k="addr:city" v="Vershire" />
    <tag k="addr:housenumber" v="330" />
    <tag k="addr:street" v="Reed Road" />
    <tag k="addr:state" v="VT" />
    <tag k="ref:vcgi:esiteid" v="267051" />
  </node>
  <node id="-268" visible="true" lat="43.96362014" lon="-72.30729269">
    <tag k="addr:city" v="Vershire" />
    <tag k="addr:housenumber" v="5995" />
    <tag k="addr:street" v="Vermont Route 113" />
    <tag k="addr:state" v="VT" />
    <tag k="ref:vcgi:esiteid" v="267052" />
  </node>
  <node id="-269" visible="true" lat="43.96418753" lon="-72.3424704">
    <tag k="addr:city" v="Vershire" />
    <tag k="addr:housenumber" v="317" />
    <tag k="addr:street" v="Reed Road" />
    <tag k="addr:state" v="VT" />
    <tag k="ref:vcgi:esiteid" v="267053" />
  </node>
  <node id="-270" visible="true" lat="43.96407122" lon="-72.33745334">
    <tag k="addr:city" v="Vershire" />
    <tag k="addr:housenumber" v="818" />
    <tag k="addr:street" v="Vershire Center Road" />
    <tag k="addr:state" v="VT" />
    <tag k="ref:vcgi:esiteid" v="267054" />
  </node>
  <node id="-271" visible="true" lat="43.96416302" lon="-72.29188043">
    <tag k="addr:city" v="Vershire" />
    <tag k="addr:housenumber" v="96" />
    <tag k="addr:street" v="Eagle Hollow Road" />
    <tag k="addr:state" v="VT" />
    <tag k="ref:vcgi:esiteid" v="267055" />
  </node>
  <node id="-272" visible="true" lat="43.9642042" lon="-72.3359036">
    <tag k="addr:city" v="Vershire" />
    <tag k="addr:housenumber" v="815" />
    <tag k="addr:street" v="Vershire Center Road" />
    <tag k="addr:state" v="VT" />
    <tag k="ref:vcgi:esiteid" v="267056" />
  </node>
  <node id="-273" visible="true" lat="43.96377288" lon="-72.30650139">
    <tag k="addr:city" v="Vershire" />
    <tag k="addr:housenumber" v="5983" />
    <tag k="addr:street" v="Vermont Route 113" />
    <tag k="addr:state" v="VT" />
    <tag k="ref:vcgi:esiteid" v="267057" />
  </node>
  <node id="-274" visible="true" lat="43.96395027" lon="-72.29339888">
    <tag k="addr:city" v="Vershire" />
    <tag k="addr:housenumber" v="5174" />
    <tag k="addr:street" v="Vermont Route 113" />
    <tag k="addr:state" v="VT" />
    <tag k="ref:vcgi:esiteid" v="267058" />
  </node>
  <node id="-275" visible="true" lat="43.96344397" lon="-72.30959944">
    <tag k="addr:city" v="Vershire" />
    <tag k="addr:housenumber" v="76" />
    <tag k="addr:street" v="Darling Hill Road" />
    <tag k="addr:state" v="VT" />
    <tag k="ref:vcgi:esiteid" v="267059" />
  </node>
  <node id="-276" visible="true" lat="43.96304702" lon="-72.30582427">
    <tag k="addr:city" v="Vershire" />
    <tag k="addr:housenumber" v="5985" />
    <tag k="addr:street" v="Vermont Route 113" />
    <tag k="addr:state" v="VT" />
    <tag k="ref:vcgi:esiteid" v="267060" />
  </node>
  <node id="-277" visible="true" lat="43.96282577" lon="-72.29165649">
    <tag k="addr:city" v="Vershire" />
    <tag k="addr:housenumber" v="5096" />
    <tag k="addr:street" v="Vermont Route 113" />
    <tag k="addr:state" v="VT" />
    <tag k="ref:vcgi:esiteid" v="267061" />
  </node>
  <node id="-278" visible="true" lat="43.96292808" lon="-72.29351949">
    <tag k="addr:city" v="Vershire" />
    <tag k="addr:housenumber" v="5182" />
    <tag k="addr:street" v="Vermont Route 113" />
    <tag k="addr:state" v="VT" />
    <tag k="ref:vcgi:esiteid" v="267062" />
  </node>
  <node id="-279" visible="true" lat="43.96281814" lon="-72.32942962">
    <tag k="addr:city" v="Vershire" />
    <tag k="addr:housenumber" v="1216" />
    <tag k="addr:street" v="Darling Hill Road" />
    <tag k="addr:state" v="VT" />
    <tag k="ref:vcgi:esiteid" v="267063" />
  </node>
  <node id="-280" visible="true" lat="43.96258042" lon="-72.33705477">
    <tag k="addr:city" v="Vershire" />
    <tag k="addr:housenumber" v="938" />
    <tag k="addr:street" v="Vershire Center Road" />
    <tag k="addr:state" v="VT" />
    <tag k="ref:vcgi:esiteid" v="267064" />
  </node>
  <node id="-281" visible="true" lat="43.96258041" lon="-72.34042451">
    <tag k="addr:city" v="Vershire" />
    <tag k="addr:housenumber" v="181" />
    <tag k="addr:street" v="Reed Road" />
    <tag k="addr:state" v="VT" />
    <tag k="ref:vcgi:esiteid" v="267065" />
  </node>
  <node id="-282" visible="true" lat="43.96243286" lon="-72.3037033">
    <tag k="addr:city" v="Vershire" />
    <tag k="addr:housenumber" v="5763" />
    <tag k="addr:street" v="Vermont Route 113" />
    <tag k="addr:state" v="VT" />
    <tag k="ref:vcgi:esiteid" v="267066" />
  </node>
  <node id="-283" visible="true" lat="43.9624176" lon="-72.32801055">
    <tag k="addr:city" v="Vershire" />
    <tag k="addr:housenumber" v="1128" />
    <tag k="addr:street" v="Darling Hill Road" />
    <tag k="addr:state" v="VT" />
    <tag k="ref:vcgi:esiteid" v="267067" />
  </node>
  <node id="-284" visible="true" lat="43.9624176" lon="-72.35285186">
    <tag k="addr:city" v="Vershire" />
    <tag k="addr:housenumber" v="677" />
    <tag k="addr:street" v="Reed Road" />
    <tag k="addr:state" v="VT" />
    <tag k="ref:vcgi:esiteid" v="267068" />
  </node>
  <node id="-285" visible="true" lat="43.96207427" lon="-72.28814697">
    <tag k="addr:city" v="Vershire" />
    <tag k="addr:housenumber" v="4914" />
    <tag k="addr:street" v="Vermont Route 113" />
    <tag k="addr:state" v="VT" />
    <tag k="ref:vcgi:esiteid" v="267069" />
  </node>
  <node id="-286" visible="true" lat="43.96203231" lon="-72.32881927">
    <tag k="addr:city" v="Vershire" />
    <tag k="addr:housenumber" v="1155" />
    <tag k="addr:street" v="Darling Hill Road" />
    <tag k="addr:state" v="VT" />
    <tag k="ref:vcgi:esiteid" v="267070" />
  </node>
  <node id="-287" visible="true" lat="43.96186828" lon="-72.29164123">
    <tag k="addr:city" v="Vershire" />
    <tag k="addr:housenumber" v="5027" />
    <tag k="addr:street" v="Vermont Route 113" />
    <tag k="addr:state" v="VT" />
    <tag k="ref:vcgi:esiteid" v="267071" />
  </node>
  <node id="-288" visible="true" lat="43.96173457" lon="-72.28485532">
    <tag k="addr:city" v="Vershire" />
    <tag k="addr:housenumber" v="4742" />
    <tag k="addr:street" v="Vermont Route 113" />
    <tag k="addr:state" v="VT" />
    <tag k="ref:vcgi:esiteid" v="267072" />
  </node>
  <node id="-289" visible="true" lat="43.96208437" lon="-72.33480504">
    <tag k="addr:city" v="Vershire" />
    <tag k="addr:housenumber" v="93" />
    <tag k="addr:street" v="Mud Lane" />
    <tag k="addr:state" v="VT" />
    <tag k="ref:vcgi:esiteid" v="267073" />
  </node>
  <node id="-290" visible="true" lat="43.96172141" lon="-72.2968215">
    <tag k="addr:city" v="Vershire" />
    <tag k="addr:housenumber" v="5352" />
    <tag k="addr:street" v="Vermont Route 113" />
    <tag k="addr:state" v="VT" />
    <tag k="ref:vcgi:esiteid" v="267074" />
  </node>
  <node id="-291" visible="true" lat="43.96173095" lon="-72.28743743">
    <tag k="addr:city" v="Vershire" />
    <tag k="addr:housenumber" v="4872" />
    <tag k="addr:street" v="Vermont Route 113" />
    <tag k="addr:state" v="VT" />
    <tag k="ref:vcgi:esiteid" v="267075" />
  </node>
  <node id="-292" visible="true" lat="43.96189224" lon="-72.30142322">
    <tag k="addr:city" v="Vershire" />
    <tag k="addr:housenumber" v="5636" />
    <tag k="addr:street" v="Vermont Route 113" />
    <tag k="addr:state" v="VT" />
    <tag k="ref:vcgi:esiteid" v="267076" />
  </node>
  <node id="-293" visible="true" lat="43.96168136" lon="-72.318161">
    <tag k="addr:city" v="Vershire" />
    <tag k="addr:housenumber" v="558" />
    <tag k="addr:street" v="Darling Hill Road" />
    <tag k="addr:state" v="VT" />
    <tag k="ref:vcgi:esiteid" v="267077" />
  </node>
  <node id="-294" visible="true" lat="43.9616127" lon="-72.28840637">
    <tag k="addr:city" v="Vershire" />
    <tag k="addr:housenumber" v="4909" />
    <tag k="addr:street" v="Vermont Route 113" />
    <tag k="addr:state" v="VT" />
    <tag k="ref:vcgi:esiteid" v="267078" />
  </node>
  <node id="-295" visible="true" lat="43.96170436" lon="-72.33110079">
    <tag k="addr:city" v="Vershire" />
    <tag k="addr:housenumber" v="274" />
    <tag k="addr:street" v="Mud Lane" />
    <tag k="addr:state" v="VT" />
    <tag k="ref:vcgi:esiteid" v="267079" />
  </node>
  <node id="-296" visible="true" lat="43.96163177" lon="-72.32550048">
    <tag k="addr:city" v="Vershire" />
    <tag k="addr:housenumber" v="992" />
    <tag k="addr:street" v="Darling Hill Road" />
    <tag k="addr:state" v="VT" />
    <tag k="ref:vcgi:esiteid" v="267080" />
  </node>
  <node id="-297" visible="true" lat="43.96176248" lon="-72.33711653">
    <tag k="addr:city" v="Vershire" />
    <tag k="addr:housenumber" v="996" />
    <tag k="addr:street" v="Vershire Center Road" />
    <tag k="addr:state" v="VT" />
    <tag k="ref:vcgi:esiteid" v="267081" />
  </node>
  <node id="-298" visible="true" lat="43.96153259" lon="-72.31601715">
    <tag k="addr:city" v="Vershire" />
    <tag k="addr:housenumber" v="481" />
    <tag k="addr:street" v="Darling Hill Road" />
    <tag k="addr:state" v="VT" />
    <tag k="ref:vcgi:esiteid" v="267082" />
  </node>
  <node id="-299" visible="true" lat="43.96144104" lon="-72.31630706">
    <tag k="addr:city" v="Vershire" />
    <tag k="addr:housenumber" v="473" />
    <tag k="addr:street" v="Darling Hill Road" />
    <tag k="addr:state" v="VT" />
    <tag k="ref:vcgi:esiteid" v="267083" />
  </node>
  <node id="-300" visible="true" lat="43.96150058" lon="-72.29937371">
    <tag k="addr:city" v="Vershire" />
    <tag k="addr:housenumber" v="45" />
    <tag k="addr:street" v="Ricker Bridge Road" />
    <tag k="addr:state" v="VT" />
    <tag k="ref:vcgi:esiteid" v="267084" />
  </node>
  <node id="-301" visible="true" lat="43.96118545" lon="-72.30094909">
    <tag k="addr:city" v="Vershire" />
    <tag k="addr:housenumber" v="5601" />
    <tag k="addr:street" v="Vermont Route 113" />
    <tag k="addr:state" v="VT" />
    <tag k="ref:vcgi:esiteid" v="267085" />
  </node>
  <node id="-302" visible="true" lat="43.96127679" lon="-72.30025504">
    <tag k="addr:city" v="Vershire" />
    <tag k="addr:housenumber" v="5562" />
    <tag k="addr:street" v="Vermont Route 113" />
    <tag k="addr:state" v="VT" />
    <tag k="ref:vcgi:esiteid" v="267086" />
  </node>
  <node id="-303" visible="true" lat="43.96096006" lon="-72.29838441">
    <tag k="addr:city" v="Vershire" />
    <tag k="addr:housenumber" v="5456" />
    <tag k="addr:street" v="Vermont Route 113" />
    <tag k="addr:state" v="VT" />
    <tag k="ref:vcgi:esiteid" v="267087" />
  </node>
  <node id="-304" visible="true" lat="43.96063995" lon="-72.28481292">
    <tag k="addr:city" v="Vershire" />
    <tag k="addr:housenumber" v="4720" />
    <tag k="addr:street" v="Vermont Route 113" />
    <tag k="addr:state" v="VT" />
    <tag k="ref:vcgi:esiteid" v="267088" />
  </node>
  <node id="-305" visible="true" lat="43.9605751" lon="-72.32608795">
    <tag k="addr:city" v="Vershire" />
    <tag k="addr:housenumber" v="993" />
    <tag k="addr:street" v="Darling Hill Road" />
    <tag k="addr:state" v="VT" />
    <tag k="ref:vcgi:esiteid" v="267089" />
  </node>
  <node id="-306" visible="true" lat="43.96051788" lon="-72.29920196">
    <tag k="addr:city" v="Vershire" />
    <tag k="addr:housenumber" v="5505" />
    <tag k="addr:street" v="Vermont Route 113" />
    <tag k="addr:state" v="VT" />
    <tag k="ref:vcgi:esiteid" v="267090" />
  </node>
  <node id="-307" visible="true" lat="43.96048355" lon="-72.29843139">
    <tag k="addr:city" v="Vershire" />
    <tag k="addr:housenumber" v="5471" />
    <tag k="addr:street" v="Vermont Route 113" />
    <tag k="addr:state" v="VT" />
    <tag k="ref:vcgi:esiteid" v="267091" />
  </node>
  <node id="-308" visible="true" lat="43.96124481" lon="-72.36142999">
    <tag k="addr:city" v="Vershire" />
    <tag k="addr:housenumber" v="1360" />
    <tag k="addr:street" v="Taylor Valley Road" />
    <tag k="addr:state" v="VT" />
    <tag k="ref:vcgi:esiteid" v="267092" />
  </node>
  <node id="-309" visible="true" lat="43.96001454" lon="-72.33625756">
    <tag k="addr:city" v="Vershire" />
    <tag k="addr:housenumber" v="1113" />
    <tag k="addr:street" v="Vershire Center Road" />
    <tag k="addr:state" v="VT" />
    <tag k="ref:vcgi:esiteid" v="267093" />
  </node>
  <node id="-310" visible="true" lat="43.95997238" lon="-72.36302185">
    <tag k="addr:city" v="Vershire" />
    <tag k="addr:housenumber" v="1465" />
    <tag k="addr:street" v="Taylor Valley Road" />
    <tag k="addr:state" v="VT" />
    <tag k="ref:vcgi:esiteid" v="267094" />
  </node>
  <node id="-311" visible="true" lat="43.95989294" lon="-72.3376706">
    <tag k="addr:city" v="Vershire" />
    <tag k="addr:housenumber" v="1134" />
    <tag k="addr:street" v="Vershire Center Road" />
    <tag k="addr:state" v="VT" />
    <tag k="ref:vcgi:esiteid" v="267095" />
  </node>
  <node id="-312" visible="true" lat="43.95873806" lon="-72.33726936">
    <tag k="addr:city" v="Vershire" />
    <tag k="addr:housenumber" v="1238" />
    <tag k="addr:street" v="Vershire Center Road" />
    <tag k="addr:state" v="VT" />
    <tag k="ref:vcgi:esiteid" v="267096" />
  </node>
  <node id="-313" visible="true" lat="43.95806503" lon="-72.25535583">
    <tag k="addr:city" v="Vershire" />
    <tag k="addr:housenumber" v="1599" />
    <tag k="addr:street" v="Beaver Meadow Road" />
    <tag k="addr:state" v="VT" />
    <tag k="ref:vcgi:esiteid" v="267097" />
  </node>
  <node id="-314" visible="true" lat="43.95826109" lon="-72.35788042">
    <tag k="addr:city" v="Vershire" />
    <tag k="addr:housenumber" v="1110" />
    <tag k="addr:street" v="Taylor Valley Road" />
    <tag k="addr:state" v="VT" />
    <tag k="ref:vcgi:esiteid" v="267098" />
  </node>
  <node id="-315" visible="true" lat="43.957454" lon="-72.37180698">
    <tag k="addr:city" v="Vershire" />
    <tag k="addr:housenumber" v="2018" />
    <tag k="addr:street" v="Taylor Valley Road" />
    <tag k="addr:state" v="VT" />
    <tag k="ref:vcgi:esiteid" v="267099" />
  </node>
  <node id="-316" visible="true" lat="43.95619201" lon="-72.27855682">
    <tag k="addr:city" v="Vershire" />
    <tag k="addr:housenumber" v="4253" />
    <tag k="addr:street" v="Vermont Route 113" />
    <tag k="addr:state" v="VT" />
    <tag k="ref:vcgi:esiteid" v="267100" />
  </node>
  <node id="-317" visible="true" lat="43.95603179" lon="-72.33763885">
    <tag k="addr:city" v="Vershire" />
    <tag k="addr:housenumber" v="1393" />
    <tag k="addr:street" v="Vershire Center Road" />
    <tag k="addr:state" v="VT" />
    <tag k="ref:vcgi:esiteid" v="267101" />
  </node>
  <node id="-318" visible="true" lat="43.95585912" lon="-72.34887684">
    <tag k="addr:city" v="Vershire" />
    <tag k="addr:housenumber" v="662" />
    <tag k="addr:street" v="Taylor Valley Road" />
    <tag k="addr:state" v="VT" />
    <tag k="ref:vcgi:esiteid" v="267102" />
  </node>
  <node id="-319" visible="true" lat="43.95580134" lon="-72.33769546">
    <tag k="addr:city" v="Vershire" />
    <tag k="addr:housenumber" v="1413" />
    <tag k="addr:street" v="Vershire Center Road" />
    <tag k="addr:state" v="VT" />
    <tag k="ref:vcgi:esiteid" v="267103" />
  </node>
  <node id="-320" visible="true" lat="43.95504643" lon="-72.3333097">
    <tag k="addr:city" v="Vershire" />
    <tag k="addr:housenumber" v="278" />
    <tag k="addr:street" v="Mountain School Road" />
    <tag k="addr:state" v="VT" />
    <tag k="ref:vcgi:esiteid" v="267104" />
  </node>
  <node id="-321" visible="true" lat="43.954686" lon="-72.33306487">
    <tag k="addr:city" v="Vershire" />
    <tag k="addr:housenumber" v="264" />
    <tag k="addr:street" v="Mountain School Road" />
    <tag k="addr:state" v="VT" />
    <tag k="ref:vcgi:esiteid" v="267105" />
  </node>
  <node id="-322" visible="true" lat="43.95430427" lon="-72.33871949">
    <tag k="addr:city" v="Vershire" />
    <tag k="addr:housenumber" v="1510" />
    <tag k="addr:street" v="Vershire Center Road" />
    <tag k="addr:state" v="VT" />
    <tag k="ref:vcgi:esiteid" v="267106" />
  </node>
  <node id="-323" visible="true" lat="43.95436859" lon="-72.33609008">
    <tag k="addr:city" v="Vershire" />
    <tag k="addr:housenumber" v="151" />
    <tag k="addr:street" v="Mountain School Road" />
    <tag k="addr:state" v="VT" />
    <tag k="ref:vcgi:esiteid" v="267107" />
  </node>
  <node id="-324" visible="true" lat="43.95402908" lon="-72.33626556">
    <tag k="addr:city" v="Vershire" />
    <tag k="addr:housenumber" v="135" />
    <tag k="addr:street" v="Mountain School Road" />
    <tag k="addr:state" v="VT" />
    <tag k="ref:vcgi:esiteid" v="267108" />
  </node>
  <node id="-325" visible="true" lat="43.95357131" lon="-72.33609771">
    <tag k="addr:city" v="Vershire" />
    <tag k="addr:housenumber" v="110" />
    <tag k="addr:street" v="Mountain School Road" />
    <tag k="addr:state" v="VT" />
    <tag k="ref:vcgi:esiteid" v="267109" />
  </node>
  <node id="-326" visible="true" lat="43.95254581" lon="-72.33521198">
    <tag k="addr:city" v="Vershire" />
    <tag k="addr:housenumber" v="52" />
    <tag k="addr:street" v="Mountain School Road" />
    <tag k="addr:state" v="VT" />
    <tag k="ref:vcgi:esiteid" v="267110" />
  </node>
  <node id="-327" visible="true" lat="43.95248413" lon="-72.33712005">
    <tag k="addr:city" v="Vershire" />
    <tag k="addr:housenumber" v="26" />
    <tag k="addr:street" v="Mountain School Road" />
    <tag k="addr:state" v="VT" />
    <tag k="ref:vcgi:esiteid" v="267111" />
  </node>
  <node id="-328" visible="true" lat="43.95234563" lon="-72.33682428">
    <tag k="addr:city" v="Vershire" />
    <tag k="addr:housenumber" v="36" />
    <tag k="addr:street" v="Mountain School Road" />
    <tag k="addr:state" v="VT" />
    <tag k="ref:vcgi:esiteid" v="267112" />
  </node>
  <node id="-329" visible="true" lat="43.95213443" lon="-72.277281">
    <tag k="addr:city" v="Vershire" />
    <tag k="addr:housenumber" v="3935" />
    <tag k="addr:street" v="Vermont Route 113" />
    <tag k="addr:state" v="VT" />
    <tag k="ref:vcgi:esiteid" v="267113" />
  </node>
  <node id="-330" visible="true" lat="43.95214843" lon="-72.33901214">
    <tag k="addr:city" v="Vershire" />
    <tag k="addr:housenumber" v="85" />
    <tag k="addr:street" v="Taylor Valley Road" />
    <tag k="addr:state" v="VT" />
    <tag k="ref:vcgi:esiteid" v="267114" />
  </node>
  <node id="-331" visible="true" lat="43.95196533" lon="-72.30821991">
    <tag k="addr:city" v="Vershire" />
    <tag k="addr:housenumber" v="772" />
    <tag k="addr:street" v="Parker Road" />
    <tag k="addr:state" v="VT" />
    <tag k="ref:vcgi:esiteid" v="267115" />
  </node>
  <node id="-332" visible="true" lat="43.95186996" lon="-72.29927825">
    <tag k="addr:city" v="Vershire" />
    <tag k="addr:housenumber" v="1528" />
    <tag k="addr:street" v="Kingdom Road" />
    <tag k="addr:state" v="VT" />
    <tag k="ref:vcgi:esiteid" v="267116" />
  </node>
  <node id="-333" visible="true" lat="43.95180511" lon="-72.30835723">
    <tag k="addr:city" v="Vershire" />
    <tag k="addr:housenumber" v="782" />
    <tag k="addr:street" v="Parker Road" />
    <tag k="addr:state" v="VT" />
    <tag k="ref:vcgi:esiteid" v="267117" />
  </node>
  <node id="-334" visible="true" lat="43.95163351" lon="-72.25813619">
    <tag k="addr:city" v="Vershire" />
    <tag k="addr:housenumber" v="1099" />
    <tag k="addr:street" v="Beaver Meadow Road" />
    <tag k="addr:state" v="VT" />
    <tag k="ref:vcgi:esiteid" v="267118" />
  </node>
  <node id="-335" visible="true" lat="43.95155715" lon="-72.27596282">
    <tag k="addr:city" v="Vershire" />
    <tag k="addr:housenumber" v="3908" />
    <tag k="addr:street" v="Vermont Route 113" />
    <tag k="addr:state" v="VT" />
    <tag k="ref:vcgi:esiteid" v="267119" />
  </node>
  <node id="-336" visible="true" lat="43.95065688" lon="-72.27667236">
    <tag k="addr:city" v="Vershire" />
    <tag k="addr:housenumber" v="3863" />
    <tag k="addr:street" v="Vermont Route 113" />
    <tag k="addr:state" v="VT" />
    <tag k="ref:vcgi:esiteid" v="267120" />
  </node>
  <node id="-337" visible="true" lat="43.95073631" lon="-72.28750872">
    <tag k="addr:city" v="Vershire" />
    <tag k="addr:housenumber" v="864" />
    <tag k="addr:street" v="Kingdom Road" />
    <tag k="addr:state" v="VT" />
    <tag k="ref:vcgi:esiteid" v="267121" />
  </node>
  <node id="-338" visible="true" lat="43.95018386" lon="-72.34290313">
    <tag k="addr:city" v="Vershire" />
    <tag k="addr:housenumber" v="105" />
    <tag k="addr:street" v="Taylor Valley Road" />
    <tag k="addr:state" v="VT" />
    <tag k="ref:vcgi:esiteid" v="267122" />
  </node>
  <node id="-339" visible="true" lat="43.94975055" lon="-72.25895287">
    <tag k="addr:city" v="Vershire" />
    <tag k="addr:housenumber" v="1097" />
    <tag k="addr:street" v="Beaver Meadow Road" />
    <tag k="addr:state" v="VT" />
    <tag k="ref:vcgi:esiteid" v="267123" />
  </node>
  <node id="-340" visible="true" lat="43.94988266" lon="-72.28935341">
    <tag k="addr:city" v="Vershire" />
    <tag k="addr:housenumber" v="958" />
    <tag k="addr:street" v="Kingdom Road" />
    <tag k="addr:state" v="VT" />
    <tag k="ref:vcgi:esiteid" v="267124" />
  </node>
  <node id="-341" visible="true" lat="43.94975662" lon="-72.27618408">
    <tag k="addr:city" v="Vershire" />
    <tag k="addr:housenumber" v="59" />
    <tag k="addr:street" v="Kingdom Road" />
    <tag k="addr:state" v="VT" />
    <tag k="ref:vcgi:esiteid" v="267125" />
  </node>
  <node id="-342" visible="true" lat="43.94959315" lon="-72.2968892">
    <tag k="addr:city" v="Vershire" />
    <tag k="addr:housenumber" v="1337" />
    <tag k="addr:street" v="Kingdom Road" />
    <tag k="addr:state" v="VT" />
    <tag k="ref:vcgi:esiteid" v="267126" />
  </node>
  <node id="-343" visible="true" lat="43.94989297" lon="-72.30965929">
    <tag k="addr:city" v="Vershire" />
    <tag k="addr:housenumber" v="930" />
    <tag k="addr:street" v="Parker Road" />
    <tag k="addr:state" v="VT" />
    <tag k="ref:vcgi:esiteid" v="267127" />
  </node>
  <node id="-344" visible="true" lat="43.94890594" lon="-72.30136871">
    <tag k="addr:city" v="Vershire" />
    <tag k="addr:housenumber" v="1605" />
    <tag k="addr:street" v="Kingdom Road" />
    <tag k="addr:state" v="VT" />
    <tag k="ref:vcgi:esiteid" v="267128" />
  </node>
  <node id="-345" visible="true" lat="43.94878768" lon="-72.31030273">
    <tag k="addr:city" v="Vershire" />
    <tag k="addr:housenumber" v="996" />
    <tag k="addr:street" v="Parker Road" />
    <tag k="addr:state" v="VT" />
    <tag k="ref:vcgi:esiteid" v="267129" />
  </node>
  <node id="-346" visible="true" lat="43.94872261" lon="-72.33295874">
    <tag k="addr:city" v="Vershire" />
    <tag k="addr:housenumber" v="1985" />
    <tag k="addr:street" v="Vershire Center Road" />
    <tag k="addr:state" v="VT" />
    <tag k="ref:vcgi:esiteid" v="267130" />
  </node>
  <node id="-347" visible="true" lat="43.94826126" lon="-72.27455139">
    <tag k="addr:city" v="Vershire" />
    <tag k="addr:housenumber" v="3667" />
    <tag k="addr:street" v="Vermont Route 113" />
    <tag k="addr:state" v="VT" />
    <tag k="ref:vcgi:esiteid" v="267131" />
  </node>
  <node id="-348" visible="true" lat="43.94809534" lon="-72.30722256">
    <tag k="addr:city" v="Vershire" />
    <tag k="addr:housenumber" v="1936" />
    <tag k="addr:street" v="Kingdom Road" />
    <tag k="addr:state" v="VT" />
    <tag k="ref:vcgi:esiteid" v="267132" />
  </node>
  <node id="-349" visible="true" lat="43.94808959" lon="-72.30350494">
    <tag k="addr:city" v="Vershire" />
    <tag k="addr:housenumber" v="1751" />
    <tag k="addr:street" v="Kingdom Road" />
    <tag k="addr:state" v="VT" />
    <tag k="ref:vcgi:esiteid" v="267133" />
  </node>
  <node id="-350" visible="true" lat="43.94830129" lon="-72.30842851">
    <tag k="addr:city" v="Vershire" />
    <tag k="addr:housenumber" v="1998" />
    <tag k="addr:street" v="Kingdom Road" />
    <tag k="addr:state" v="VT" />
    <tag k="ref:vcgi:esiteid" v="267134" />
  </node>
  <node id="-351" visible="true" lat="43.9477806" lon="-72.30911254">
    <tag k="addr:city" v="Vershire" />
    <tag k="addr:housenumber" v="1062" />
    <tag k="addr:street" v="Parker Road" />
    <tag k="addr:state" v="VT" />
    <tag k="ref:vcgi:esiteid" v="267135" />
  </node>
  <node id="-352" visible="true" lat="43.94762765" lon="-72.30769065">
    <tag k="addr:city" v="Vershire" />
    <tag k="addr:housenumber" v="1929" />
    <tag k="addr:street" v="Kingdom Road" />
    <tag k="addr:state" v="VT" />
    <tag k="ref:vcgi:esiteid" v="267136" />
  </node>
  <node id="-353" visible="true" lat="43.94723129" lon="-72.30950927">
    <tag k="addr:city" v="Vershire" />
    <tag k="addr:housenumber" v="1110" />
    <tag k="addr:street" v="Parker Road" />
    <tag k="addr:state" v="VT" />
    <tag k="ref:vcgi:esiteid" v="267137" />
  </node>
  <node id="-354" visible="true" lat="43.94723013" lon="-72.32804379">
    <tag k="addr:city" v="Vershire" />
    <tag k="addr:housenumber" v="145" />
    <tag k="addr:street" v="Chamberlain Hill Road" />
    <tag k="addr:state" v="VT" />
    <tag k="ref:vcgi:esiteid" v="267138" />
  </node>
  <node id="-355" visible="true" lat="43.94704437" lon="-72.27405548">
    <tag k="addr:city" v="Vershire" />
    <tag k="addr:housenumber" v="3581" />
    <tag k="addr:street" v="Vermont Route 113" />
    <tag k="addr:state" v="VT" />
    <tag k="ref:vcgi:esiteid" v="267139" />
  </node>
  <node id="-356" visible="true" lat="43.94677906" lon="-72.32988225">
    <tag k="addr:city" v="Vershire" />
    <tag k="addr:housenumber" v="71" />
    <tag k="addr:street" v="Chamberlain Hill Road" />
    <tag k="addr:state" v="VT" />
    <tag k="ref:vcgi:esiteid" v="267140" />
  </node>
  <node id="-357" visible="true" lat="43.94649111" lon="-72.31277348">
    <tag k="addr:city" v="Vershire" />
    <tag k="addr:housenumber" v="1244" />
    <tag k="addr:street" v="Parker Road" />
    <tag k="addr:state" v="VT" />
    <tag k="ref:vcgi:esiteid" v="267141" />
  </node>
  <node id="-358" visible="true" lat="43.94647598" lon="-72.32982635">
    <tag k="addr:city" v="Vershire" />
    <tag k="addr:housenumber" v="85" />
    <tag k="addr:street" v="Chamberlain Hill Road" />
    <tag k="addr:state" v="VT" />
    <tag k="ref:vcgi:esiteid" v="267142" />
  </node>
  <node id="-359" visible="true" lat="43.94614835" lon="-72.31016006">
    <tag k="addr:city" v="Vershire" />
    <tag k="addr:housenumber" v="1174" />
    <tag k="addr:street" v="Parker Road" />
    <tag k="addr:state" v="VT" />
    <tag k="ref:vcgi:esiteid" v="267143" />
  </node>
  <node id="-360" visible="true" lat="43.94631957" lon="-72.32958221">
    <tag k="addr:city" v="Vershire" />
    <tag k="addr:housenumber" v="101" />
    <tag k="addr:street" v="Chamberlain Hill Road" />
    <tag k="addr:state" v="VT" />
    <tag k="ref:vcgi:esiteid" v="267144" />
  </node>
  <node id="-361" visible="true" lat="43.94625091" lon="-72.3091278">
    <tag k="addr:city" v="Vershire" />
    <tag k="addr:housenumber" v="1151" />
    <tag k="addr:street" v="Parker Road" />
    <tag k="addr:state" v="VT" />
    <tag k="ref:vcgi:esiteid" v="267145" />
  </node>
  <node id="-362" visible="true" lat="43.94618225" lon="-72.27328491">
    <tag k="addr:city" v="Vershire" />
    <tag k="addr:housenumber" v="3515" />
    <tag k="addr:street" v="Vermont Route 113" />
    <tag k="addr:state" v="VT" />
    <tag k="ref:vcgi:esiteid" v="267146" />
  </node>
  <node id="-363" visible="true" lat="43.94616317" lon="-72.27771759">
    <tag k="addr:city" v="Vershire" />
    <tag k="addr:housenumber" v="299" />
    <tag k="addr:street" v="Kingdom Road" />
    <tag k="addr:state" v="VT" />
    <tag k="ref:vcgi:esiteid" v="267147" />
  </node>
  <node id="-364" visible="true" lat="43.94602203" lon="-72.32812754">
    <tag k="addr:city" v="Vershire" />
    <tag k="addr:housenumber" v="181" />
    <tag k="addr:street" v="Chamberlain Hill Road" />
    <tag k="addr:state" v="VT" />
    <tag k="ref:vcgi:esiteid" v="267148" />
  </node>
  <node id="-365" visible="true" lat="43.94534326" lon="-72.33415797">
    <tag k="addr:city" v="Vershire" />
    <tag k="addr:housenumber" v="2100" />
    <tag k="addr:street" v="Vershire Center Road" />
    <tag k="addr:state" v="VT" />
    <tag k="ref:vcgi:esiteid" v="267149" />
  </node>
  <node id="-366" visible="true" lat="43.94508743" lon="-72.27194976">
    <tag k="addr:city" v="Vershire" />
    <tag k="addr:housenumber" v="3415" />
    <tag k="addr:street" v="Vermont Route 113" />
    <tag k="addr:state" v="VT" />
    <tag k="ref:vcgi:esiteid" v="267150" />
  </node>
  <node id="-367" visible="true" lat="43.9449501" lon="-72.32590484">
    <tag k="addr:city" v="Vershire" />
    <tag k="addr:housenumber" v="287" />
    <tag k="addr:street" v="Chamberlain Hill Road" />
    <tag k="addr:state" v="VT" />
    <tag k="ref:vcgi:esiteid" v="267151" />
  </node>
  <node id="-368" visible="true" lat="43.94484375" lon="-72.2707677">
    <tag k="addr:city" v="Vershire" />
    <tag k="addr:housenumber" v="3366" />
    <tag k="addr:street" v="Vermont Route 113" />
    <tag k="addr:state" v="VT" />
    <tag k="ref:vcgi:esiteid" v="267152" />
  </node>
  <node id="-369" visible="true" lat="43.94460009" lon="-72.2616249">
    <tag k="addr:city" v="Vershire" />
    <tag k="addr:housenumber" v="209" />
    <tag k="addr:street" v="Ravenwood Road" />
    <tag k="addr:state" v="VT" />
    <tag k="ref:vcgi:esiteid" v="267153" />
  </node>
  <node id="-370" visible="true" lat="43.94460678" lon="-72.30612945">
    <tag k="addr:city" v="Vershire" />
    <tag k="addr:housenumber" v="1243" />
    <tag k="addr:street" v="Parker Road" />
    <tag k="addr:state" v="VT" />
    <tag k="ref:vcgi:esiteid" v="267154" />
  </node>
  <node id="-371" visible="true" lat="43.94440841" lon="-72.26944732">
    <tag k="addr:city" v="Vershire" />
    <tag k="addr:housenumber" v="3286" />
    <tag k="addr:street" v="Vermont Route 113" />
    <tag k="addr:state" v="VT" />
    <tag k="ref:vcgi:esiteid" v="267155" />
  </node>
  <node id="-372" visible="true" lat="43.94421358" lon="-72.32818413">
    <tag k="addr:city" v="Vershire" />
    <tag k="addr:housenumber" v="254" />
    <tag k="addr:street" v="Chamberlain Hill Road" />
    <tag k="addr:state" v="VT" />
    <tag k="ref:vcgi:esiteid" v="267156" />
  </node>
  <node id="-373" visible="true" lat="43.94377899" lon="-72.26881408">
    <tag k="addr:city" v="Vershire" />
    <tag k="addr:housenumber" v="3226" />
    <tag k="addr:street" v="Vermont Route 113" />
    <tag k="addr:state" v="VT" />
    <tag k="ref:vcgi:esiteid" v="267157" />
  </node>
  <node id="-374" visible="true" lat="43.94350749" lon="-72.27170196">
    <tag k="addr:city" v="Vershire" />
    <tag k="addr:housenumber" v="3397" />
    <tag k="addr:street" v="Vermont Route 113" />
    <tag k="addr:state" v="VT" />
    <tag k="ref:vcgi:esiteid" v="267158" />
  </node>
  <node id="-375" visible="true" lat="43.94342097" lon="-72.32660104">
    <tag k="addr:city" v="Vershire" />
    <tag k="addr:housenumber" v="348" />
    <tag k="addr:street" v="Chamberlain Hill Road" />
    <tag k="addr:state" v="VT" />
    <tag k="ref:vcgi:esiteid" v="267159" />
  </node>
  <node id="-376" visible="true" lat="43.94328531" lon="-72.3290107">
    <tag k="addr:city" v="Vershire" />
    <tag k="addr:housenumber" v="2433" />
    <tag k="addr:street" v="Vershire Center Road" />
    <tag k="addr:state" v="VT" />
    <tag k="ref:vcgi:esiteid" v="267160" />
  </node>
  <node id="-377" visible="true" lat="43.94322321" lon="-72.32542904">
    <tag k="addr:city" v="Vershire" />
    <tag k="addr:housenumber" v="360" />
    <tag k="addr:street" v="Chamberlain Hill Road" />
    <tag k="addr:state" v="VT" />
    <tag k="ref:vcgi:esiteid" v="267161" />
  </node>
  <node id="-378" visible="true" lat="43.94314956" lon="-72.33028411">
    <tag k="addr:city" v="Vershire" />
    <tag k="addr:housenumber" v="2400" />
    <tag k="addr:street" v="Vershire Center Road" />
    <tag k="addr:state" v="VT" />
    <tag k="ref:vcgi:esiteid" v="267162" />
  </node>
  <node id="-379" visible="true" lat="43.94316931" lon="-72.32171412">
    <tag k="addr:city" v="Vershire" />
    <tag k="addr:housenumber" v="566" />
    <tag k="addr:street" v="Chamberlain Hill Road" />
    <tag k="addr:state" v="VT" />
    <tag k="ref:vcgi:esiteid" v="267163" />
  </node>
  <node id="-380" visible="true" lat="43.94272114" lon="-72.3282244">
    <tag k="addr:city" v="Vershire" />
    <tag k="addr:housenumber" v="2489" />
    <tag k="addr:street" v="Vershire Center Road" />
    <tag k="addr:state" v="VT" />
    <tag k="ref:vcgi:esiteid" v="267164" />
  </node>
  <node id="-381" visible="true" lat="43.94218826" lon="-72.26743316">
    <tag k="addr:city" v="Vershire" />
    <tag k="addr:housenumber" v="3146" />
    <tag k="addr:street" v="Vermont Route 113" />
    <tag k="addr:state" v="VT" />
    <tag k="ref:vcgi:esiteid" v="267165" />
  </node>
  <node id="-382" visible="true" lat="43.94164295" lon="-72.31015529">
    <tag k="addr:city" v="Vershire" />
    <tag k="addr:housenumber" v="1501" />
    <tag k="addr:street" v="Parker Road" />
    <tag k="addr:state" v="VT" />
    <tag k="ref:vcgi:esiteid" v="267166" />
  </node>
  <node id="-383" visible="true" lat="43.94159698" lon="-72.32668304">
    <tag k="addr:city" v="Vershire" />
    <tag k="addr:housenumber" v="2597" />
    <tag k="addr:street" v="Vershire Center Road" />
    <tag k="addr:state" v="VT" />
    <tag k="ref:vcgi:esiteid" v="267167" />
  </node>
  <node id="-384" visible="true" lat="43.94136428" lon="-72.31140899">
    <tag k="addr:city" v="Vershire" />
    <tag k="addr:housenumber" v="1536" />
    <tag k="addr:street" v="Parker Road" />
    <tag k="addr:state" v="VT" />
    <tag k="ref:vcgi:esiteid" v="267168" />
  </node>
  <node id="-385" visible="true" lat="43.94104973" lon="-72.32544589">
    <tag k="addr:city" v="Vershire" />
    <tag k="addr:housenumber" v="2695" />
    <tag k="addr:street" v="Vershire Center Road" />
    <tag k="addr:state" v="VT" />
    <tag k="ref:vcgi:esiteid" v="267169" />
  </node>
  <node id="-386" visible="true" lat="43.94086978" lon="-72.31359104">
    <tag k="addr:city" v="Vershire" />
    <tag k="addr:housenumber" v="1002" />
    <tag k="addr:street" v="Chamberlain Hill Road" />
    <tag k="addr:state" v="VT" />
    <tag k="ref:vcgi:esiteid" v="267170" />
  </node>
  <node id="-387" visible="true" lat="43.94081864" lon="-72.32786383">
    <tag k="addr:city" v="Vershire" />
    <tag k="addr:housenumber" v="2582" />
    <tag k="addr:street" v="Vershire Center Road" />
    <tag k="addr:state" v="VT" />
    <tag k="ref:vcgi:esiteid" v="267171" />
  </node>
  <node id="-388" visible="true" lat="43.94071197" lon="-72.31249237">
    <tag k="addr:city" v="Vershire" />
    <tag k="addr:housenumber" v="1054" />
    <tag k="addr:street" v="Chamberlain Hill Road" />
    <tag k="addr:state" v="VT" />
    <tag k="ref:vcgi:esiteid" v="267172" />
  </node>
  <node id="-389" visible="true" lat="43.94060516" lon="-72.26715087">
    <tag k="addr:city" v="Vershire" />
    <tag k="addr:housenumber" v="3011" />
    <tag k="addr:street" v="Vermont Route 113" />
    <tag k="addr:state" v="VT" />
    <tag k="ref:vcgi:esiteid" v="267173" />
  </node>
  <node id="-390" visible="true" lat="43.94055557" lon="-72.31430816">
    <tag k="addr:city" v="Vershire" />
    <tag k="addr:housenumber" v="976" />
    <tag k="addr:street" v="Chamberlain Hill Road" />
    <tag k="addr:state" v="VT" />
    <tag k="ref:vcgi:esiteid" v="267174" />
  </node>
  <node id="-391" visible="true" lat="43.93999481" lon="-72.26492309">
    <tag k="addr:city" v="Vershire" />
    <tag k="addr:housenumber" v="2984" />
    <tag k="addr:street" v="Vermont Route 113" />
    <tag k="addr:state" v="VT" />
    <tag k="ref:vcgi:esiteid" v="267175" />
  </node>
  <node id="-392" visible="true" lat="43.93996429" lon="-72.26456451">
    <tag k="addr:city" v="Vershire" />
    <tag k="addr:housenumber" v="2988" />
    <tag k="addr:street" v="Vermont Route 113" />
    <tag k="addr:state" v="VT" />
    <tag k="ref:vcgi:esiteid" v="267176" />
  </node>
  <node id="-393" visible="true" lat="43.93886184" lon="-72.26488494">
    <tag k="addr:city" v="Vershire" />
    <tag k="addr:housenumber" v="2908" />
    <tag k="addr:street" v="Vermont Route 113" />
    <tag k="addr:state" v="VT" />
    <tag k="ref:vcgi:esiteid" v="267177" />
  </node>
  <node id="-394" visible="true" lat="43.93894577" lon="-72.31388091">
    <tag k="addr:city" v="Vershire" />
    <tag k="addr:housenumber" v="1116" />
    <tag k="addr:street" v="Chamberlain Hill Road" />
    <tag k="addr:state" v="VT" />
    <tag k="ref:vcgi:esiteid" v="267178" />
  </node>
  <node id="-395" visible="true" lat="43.93886544" lon="-72.26554249">
    <tag k="addr:city" v="Vershire" />
    <tag k="addr:housenumber" v="2866" />
    <tag k="addr:street" v="Vermont Route 113" />
    <tag k="addr:state" v="VT" />
    <tag k="ref:vcgi:esiteid" v="267179" />
  </node>
  <node id="-396" visible="true" lat="43.93861169" lon="-72.26539611">
    <tag k="addr:city" v="Vershire" />
    <tag k="addr:housenumber" v="2852" />
    <tag k="addr:street" v="Vermont Route 113" />
    <tag k="addr:state" v="VT" />
    <tag k="ref:vcgi:esiteid" v="267181" />
  </node>
  <node id="-397" visible="true" lat="43.93864259" lon="-72.32486421">
    <tag k="addr:city" v="Vershire" />
    <tag k="addr:housenumber" v="2821" />
    <tag k="addr:street" v="Vershire Center Road" />
    <tag k="addr:state" v="VT" />
    <tag k="ref:vcgi:esiteid" v="267182" />
  </node>
  <node id="-398" visible="true" lat="43.93844499" lon="-72.30655749">
    <tag k="addr:city" v="Vershire" />
    <tag k="addr:housenumber" v="1897" />
    <tag k="addr:street" v="Parker Road" />
    <tag k="addr:state" v="VT" />
    <tag k="ref:vcgi:esiteid" v="267183" />
  </node>
  <node id="-399" visible="true" lat="43.93814513" lon="-72.30795391">
    <tag k="addr:city" v="Vershire" />
    <tag k="addr:housenumber" v="1848" />
    <tag k="addr:street" v="Parker Road" />
    <tag k="addr:state" v="VT" />
    <tag k="ref:vcgi:esiteid" v="267184" />
  </node>
  <node id="-400" visible="true" lat="43.93779373" lon="-72.2669754">
    <tag k="addr:city" v="Vershire" />
    <tag k="addr:housenumber" v="2743" />
    <tag k="addr:street" v="Vermont Route 113" />
    <tag k="addr:state" v="VT" />
    <tag k="ref:vcgi:esiteid" v="267185" />
  </node>
  <node id="-401" visible="true" lat="43.93774414" lon="-72.26641845">
    <tag k="addr:city" v="Vershire" />
    <tag k="addr:housenumber" v="2775" />
    <tag k="addr:street" v="Vermont Route 113" />
    <tag k="addr:state" v="VT" />
    <tag k="ref:vcgi:esiteid" v="267186" />
  </node>
  <node id="-402" visible="true" lat="43.93771362" lon="-72.32493591">
    <tag k="addr:city" v="Vershire" />
    <tag k="addr:housenumber" v="2876" />
    <tag k="addr:street" v="Vershire Center Road" />
    <tag k="addr:state" v="VT" />
    <tag k="ref:vcgi:esiteid" v="267187" />
  </node>
  <node id="-403" visible="true" lat="43.93749236" lon="-72.31044006">
    <tag k="addr:city" v="Vershire" />
    <tag k="addr:housenumber" v="1118" />
    <tag k="addr:street" v="Chamberlain Hill Road" />
    <tag k="addr:state" v="VT" />
    <tag k="ref:vcgi:esiteid" v="267189" />
  </node>
  <node id="-404" visible="true" lat="43.93688583" lon="-72.32465362">
    <tag k="addr:city" v="Vershire" />
    <tag k="addr:housenumber" v="2938" />
    <tag k="addr:street" v="Vershire Center Road" />
    <tag k="addr:state" v="VT" />
    <tag k="ref:vcgi:esiteid" v="267190" />
  </node>
  <node id="-405" visible="true" lat="43.93684772" lon="-72.32354909">
    <tag k="addr:city" v="Vershire" />
    <tag k="addr:housenumber" v="2995" />
    <tag k="addr:street" v="Vershire Center Road" />
    <tag k="addr:state" v="VT" />
    <tag k="ref:vcgi:esiteid" v="267191" />
  </node>
  <node id="-406" visible="true" lat="43.93649673" lon="-72.304039">
    <tag k="addr:city" v="Vershire" />
    <tag k="addr:housenumber" v="2043" />
    <tag k="addr:street" v="Parker Road" />
    <tag k="addr:state" v="VT" />
    <tag k="ref:vcgi:esiteid" v="267192" />
  </node>
  <node id="-407" visible="true" lat="43.93626022" lon="-72.29761505">
    <tag k="addr:city" v="Vershire" />
    <tag k="addr:housenumber" v="2345" />
    <tag k="addr:street" v="Parker Road" />
    <tag k="addr:state" v="VT" />
    <tag k="ref:vcgi:esiteid" v="267193" />
  </node>
  <node id="-408" visible="true" lat="43.93598938" lon="-72.29780578">
    <tag k="addr:city" v="Vershire" />
    <tag k="addr:housenumber" v="2343" />
    <tag k="addr:street" v="Parker Road" />
    <tag k="addr:state" v="VT" />
    <tag k="ref:vcgi:esiteid" v="267194" />
  </node>
  <node id="-409" visible="true" lat="43.93595895" lon="-72.32500907">
    <tag k="addr:city" v="Vershire" />
    <tag k="addr:housenumber" v="2996" />
    <tag k="addr:street" v="Vershire Center Road" />
    <tag k="addr:state" v="VT" />
    <tag k="ref:vcgi:esiteid" v="267195" />
  </node>
  <node id="-410" visible="true" lat="43.93563842" lon="-72.30576324">
    <tag k="addr:city" v="Vershire" />
    <tag k="addr:housenumber" v="2058" />
    <tag k="addr:street" v="Parker Road" />
    <tag k="addr:state" v="VT" />
    <tag k="ref:vcgi:esiteid" v="267196" />
  </node>
  <node id="-411" visible="true" lat="43.93451382" lon="-72.32291678">
    <tag k="addr:city" v="Vershire" />
    <tag k="addr:housenumber" v="3147" />
    <tag k="addr:street" v="Vershire Center Road" />
    <tag k="addr:state" v="VT" />
    <tag k="ref:vcgi:esiteid" v="267197" />
  </node>
  <node id="-412" visible="true" lat="43.93358612" lon="-72.32283783">
    <tag k="addr:city" v="Vershire" />
    <tag k="addr:housenumber" v="3180" />
    <tag k="addr:street" v="Vershire Center Road" />
    <tag k="addr:state" v="VT" />
    <tag k="ref:vcgi:esiteid" v="267198" />
  </node>
  <node id="-413" visible="true" lat="43.93350219" lon="-72.2980957">
    <tag k="addr:city" v="Vershire" />
    <tag k="addr:housenumber" v="2513" />
    <tag k="addr:street" v="Parker Road" />
    <tag k="addr:state" v="VT" />
    <tag k="ref:vcgi:esiteid" v="267199" />
  </node>
  <node id="-414" visible="true" lat="43.93266509" lon="-72.34183467">
    <tag k="addr:city" v="Vershire" />
    <tag k="addr:housenumber" v="1246" />
    <tag k="addr:street" v="Moody Hill Road" />
    <tag k="addr:state" v="VT" />
    <tag k="ref:vcgi:esiteid" v="267200" />
  </node>
  <node id="-415" visible="true" lat="43.93268496" lon="-72.32150526">
    <tag k="addr:city" v="Vershire" />
    <tag k="addr:housenumber" v="3283" />
    <tag k="addr:street" v="Vershire Center Road" />
    <tag k="addr:state" v="VT" />
    <tag k="ref:vcgi:esiteid" v="267201" />
  </node>
  <node id="-416" visible="true" lat="43.93200683" lon="-72.32219696">
    <tag k="addr:city" v="Vershire" />
    <tag k="addr:housenumber" v="3292" />
    <tag k="addr:street" v="Vershire Center Road" />
    <tag k="addr:state" v="VT" />
    <tag k="ref:vcgi:esiteid" v="267202" />
  </node>
  <node id="-417" visible="true" lat="43.93170166" lon="-72.29633331">
    <tag k="addr:city" v="Vershire" />
    <tag k="addr:housenumber" v="2545" />
    <tag k="addr:street" v="Parker Road" />
    <tag k="addr:state" v="VT" />
    <tag k="ref:vcgi:esiteid" v="267203" />
  </node>
  <node id="-418" visible="true" lat="43.93131637" lon="-72.2998352">
    <tag k="addr:city" v="Vershire" />
    <tag k="addr:housenumber" v="2476" />
    <tag k="addr:street" v="Parker Road" />
    <tag k="addr:state" v="VT" />
    <tag k="ref:vcgi:esiteid" v="267204" />
  </node>
  <node id="-419" visible="true" lat="43.93110761" lon="-72.32169943">
    <tag k="addr:city" v="Vershire" />
    <tag k="addr:housenumber" v="3350" />
    <tag k="addr:street" v="Vershire Center Road" />
    <tag k="addr:state" v="VT" />
    <tag k="ref:vcgi:esiteid" v="267205" />
  </node>
  <node id="-420" visible="true" lat="43.9311943" lon="-72.29695129">
    <tag k="addr:city" v="Vershire" />
    <tag k="addr:housenumber" v="2543" />
    <tag k="addr:street" v="Parker Road" />
    <tag k="addr:state" v="VT" />
    <tag k="ref:vcgi:esiteid" v="267206" />
  </node>
  <node id="-421" visible="true" lat="43.93102264" lon="-72.29856872">
    <tag k="addr:city" v="Vershire" />
    <tag k="addr:housenumber" v="2520" />
    <tag k="addr:street" v="Parker Road" />
    <tag k="addr:state" v="VT" />
    <tag k="ref:vcgi:esiteid" v="267207" />
  </node>
  <node id="-422" visible="true" lat="43.93047714" lon="-72.29749298">
    <tag k="addr:city" v="Vershire" />
    <tag k="addr:housenumber" v="2579" />
    <tag k="addr:street" v="Parker Road" />
    <tag k="addr:state" v="VT" />
    <tag k="ref:vcgi:esiteid" v="267208" />
  </node>
  <node id="-423" visible="true" lat="43.93040401" lon="-72.32127653">
    <tag k="addr:city" v="Vershire" />
    <tag k="addr:housenumber" v="3410" />
    <tag k="addr:street" v="Vershire Center Road" />
    <tag k="addr:state" v="VT" />
    <tag k="ref:vcgi:esiteid" v="267209" />
  </node>
  <node id="-424" visible="true" lat="43.93033012" lon="-72.32074608">
    <tag k="addr:city" v="Vershire" />
    <tag k="addr:housenumber" v="3421" />
    <tag k="addr:street" v="Vershire Center Road" />
    <tag k="addr:state" v="VT" />
    <tag k="ref:vcgi:esiteid" v="267210" />
  </node>
  <node id="-425" visible="true" lat="43.93007278" lon="-72.34190368">
    <tag k="addr:city" v="Vershire" />
    <tag k="addr:housenumber" v="1248" />
    <tag k="addr:street" v="Moody Hill Road" />
    <tag k="addr:state" v="VT" />
    <tag k="ref:vcgi:esiteid" v="267211" />
  </node>
  <node id="-426" visible="true" lat="43.92981338" lon="-72.29515838">
    <tag k="addr:city" v="Vershire" />
    <tag k="addr:housenumber" v="2675" />
    <tag k="addr:street" v="Parker Road" />
    <tag k="addr:state" v="VT" />
    <tag k="ref:vcgi:esiteid" v="267212" />
  </node>
  <node id="-427" visible="true" lat="43.92936706" lon="-72.29715728">
    <tag k="addr:city" v="Vershire" />
    <tag k="addr:housenumber" v="2654" />
    <tag k="addr:street" v="Parker Road" />
    <tag k="addr:state" v="VT" />
    <tag k="ref:vcgi:esiteid" v="267213" />
  </node>
  <node id="-428" visible="true" lat="43.92920303" lon="-72.29707336">
    <tag k="addr:city" v="Vershire" />
    <tag k="addr:housenumber" v="2666" />
    <tag k="addr:street" v="Parker Road" />
    <tag k="addr:state" v="VT" />
    <tag k="ref:vcgi:esiteid" v="267214" />
  </node>
  <node id="-429" visible="true" lat="43.92916107" lon="-72.32144928">
    <tag k="addr:city" v="Vershire" />
    <tag k="addr:housenumber" v="3506" />
    <tag k="addr:street" v="Vershire Center Road" />
    <tag k="addr:state" v="VT" />
    <tag k="ref:vcgi:esiteid" v="267215" />
  </node>
  <node id="-430" visible="true" lat="43.92875289" lon="-72.30110168">
    <tag k="addr:city" v="Vershire" />
    <tag k="addr:housenumber" v="2148" />
    <tag k="addr:street" v="Parker Road" />
    <tag k="addr:state" v="VT" />
    <tag k="ref:vcgi:esiteid" v="267216" />
  </node>
  <node id="-431" visible="true" lat="43.92868423" lon="-72.30164337">
    <tag k="addr:city" v="Vershire" />
    <tag k="addr:housenumber" v="2150" />
    <tag k="addr:street" v="Parker Road" />
    <tag k="addr:state" v="VT" />
    <tag k="ref:vcgi:esiteid" v="267217" />
  </node>
  <node id="-432" visible="true" lat="43.92763763" lon="-72.31692347">
    <tag k="addr:city" v="Vershire" />
    <tag k="addr:housenumber" v="340" />
    <tag k="addr:street" v="Eastman Cross Road" />
    <tag k="addr:state" v="VT" />
    <tag k="ref:vcgi:esiteid" v="267218" />
  </node>
  <node id="-433" visible="true" lat="43.92700958" lon="-72.29595947">
    <tag k="addr:city" v="Vershire" />
    <tag k="addr:housenumber" v="2826" />
    <tag k="addr:street" v="Parker Road" />
    <tag k="addr:state" v="VT" />
    <tag k="ref:vcgi:esiteid" v="267219" />
  </node>
  <node id="-434" visible="true" lat="43.92694854" lon="-72.31327056">
    <tag k="addr:city" v="Vershire" />
    <tag k="addr:housenumber" v="2770" />
    <tag k="addr:street" v="South Vershire Road" />
    <tag k="addr:state" v="VT" />
    <tag k="ref:vcgi:esiteid" v="267220" />
  </node>
  <node id="-435" visible="true" lat="43.92568588" lon="-72.3104782">
    <tag k="addr:city" v="Vershire" />
    <tag k="addr:housenumber" v="2768" />
    <tag k="addr:street" v="South Vershire Road" />
    <tag k="addr:state" v="VT" />
    <tag k="ref:vcgi:esiteid" v="267221" />
  </node>
  <node id="-436" visible="true" lat="43.92559051" lon="-72.31806945">
    <tag k="addr:city" v="Vershire" />
    <tag k="addr:housenumber" v="367" />
    <tag k="addr:street" v="Eastman Cross Road" />
    <tag k="addr:state" v="VT" />
    <tag k="ref:vcgi:esiteid" v="267222" />
  </node>
  <node id="-437" visible="true" lat="43.92496108" lon="-72.31344604">
    <tag k="addr:city" v="Vershire" />
    <tag k="addr:housenumber" v="2962" />
    <tag k="addr:street" v="South Vershire Road" />
    <tag k="addr:state" v="VT" />
    <tag k="ref:vcgi:esiteid" v="267223" />
  </node>
  <node id="-438" visible="true" lat="43.92491912" lon="-72.34357452">
    <tag k="addr:city" v="Vershire" />
    <tag k="addr:housenumber" v="717" />
    <tag k="addr:street" v="Moody Hill Road" />
    <tag k="addr:state" v="VT" />
    <tag k="ref:vcgi:esiteid" v="267224" />
  </node>
  <node id="-439" visible="true" lat="43.92483138" lon="-72.32355499">
    <tag k="addr:city" v="Vershire" />
    <tag k="addr:housenumber" v="3930" />
    <tag k="addr:street" v="Vershire Center Road" />
    <tag k="addr:state" v="VT" />
    <tag k="ref:vcgi:esiteid" v="267225" />
  </node>
  <node id="-440" visible="true" lat="43.92471694" lon="-72.31438446">
    <tag k="addr:city" v="Vershire" />
    <tag k="addr:housenumber" v="2964" />
    <tag k="addr:street" v="South Vershire Road" />
    <tag k="addr:state" v="VT" />
    <tag k="ref:vcgi:esiteid" v="267226" />
  </node>
  <node id="-441" visible="true" lat="43.92443466" lon="-72.31512451">
    <tag k="addr:city" v="Vershire" />
    <tag k="addr:housenumber" v="2966" />
    <tag k="addr:street" v="South Vershire Road" />
    <tag k="addr:state" v="VT" />
    <tag k="ref:vcgi:esiteid" v="267227" />
  </node>
  <node id="-442" visible="true" lat="43.92430496" lon="-72.31881713">
    <tag k="addr:city" v="Vershire" />
    <tag k="addr:housenumber" v="180" />
    <tag k="addr:street" v="Mountain Ash Road" />
    <tag k="addr:state" v="VT" />
    <tag k="ref:vcgi:esiteid" v="267228" />
  </node>
  <node id="-443" visible="true" lat="43.92412948" lon="-72.31150817">
    <tag k="addr:city" v="Vershire" />
    <tag k="addr:housenumber" v="2839" />
    <tag k="addr:street" v="South Vershire Road" />
    <tag k="addr:state" v="VT" />
    <tag k="ref:vcgi:esiteid" v="267229" />
  </node>
  <node id="-444" visible="true" lat="43.92413733" lon="-72.32298539">
    <tag k="addr:city" v="Vershire" />
    <tag k="addr:housenumber" v="3894" />
    <tag k="addr:street" v="Vershire Center Road" />
    <tag k="addr:state" v="VT" />
    <tag k="ref:vcgi:esiteid" v="267230" />
  </node>
  <node id="-445" visible="true" lat="43.92408752" lon="-72.31092834">
    <tag k="addr:city" v="Vershire" />
    <tag k="addr:housenumber" v="2813" />
    <tag k="addr:street" v="South Vershire Road" />
    <tag k="addr:state" v="VT" />
    <tag k="ref:vcgi:esiteid" v="267231" />
  </node>
  <node id="-446" visible="true" lat="43.923954" lon="-72.30980682">
    <tag k="addr:city" v="Vershire" />
    <tag k="addr:housenumber" v="2753" />
    <tag k="addr:street" v="South Vershire Road" />
    <tag k="addr:state" v="VT" />
    <tag k="ref:vcgi:esiteid" v="267232" />
  </node>
  <node id="-447" visible="true" lat="43.92381668" lon="-72.30135345">
    <tag k="addr:city" v="Vershire" />
    <tag k="addr:housenumber" v="2328" />
    <tag k="addr:street" v="South Vershire Road" />
    <tag k="addr:state" v="VT" />
    <tag k="ref:vcgi:esiteid" v="267233" />
  </node>
  <node id="-448" visible="true" lat="43.92376708" lon="-72.3080368">
    <tag k="addr:city" v="Vershire" />
    <tag k="addr:housenumber" v="2663" />
    <tag k="addr:street" v="South Vershire Road" />
    <tag k="addr:state" v="VT" />
    <tag k="ref:vcgi:esiteid" v="267234" />
  </node>
  <node id="-449" visible="true" lat="43.92371749" lon="-72.30553436">
    <tag k="addr:city" v="Vershire" />
    <tag k="addr:housenumber" v="2538" />
    <tag k="addr:street" v="South Vershire Road" />
    <tag k="addr:state" v="VT" />
    <tag k="ref:vcgi:esiteid" v="267235" />
  </node>
  <node id="-450" visible="true" lat="43.92372894" lon="-72.31735229">
    <tag k="addr:city" v="Vershire" />
    <tag k="addr:housenumber" v="100" />
    <tag k="addr:street" v="Mountain Ash Road" />
    <tag k="addr:state" v="VT" />
    <tag k="ref:vcgi:esiteid" v="267236" />
  </node>
  <node id="-451" visible="true" lat="43.92372131" lon="-72.31430816">
    <tag k="addr:city" v="Vershire" />
    <tag k="addr:housenumber" v="3025" />
    <tag k="addr:street" v="South Vershire Road" />
    <tag k="addr:state" v="VT" />
    <tag k="ref:vcgi:esiteid" v="267237" />
  </node>
  <node id="-452" visible="true" lat="43.92362911" lon="-72.32243484">
    <tag k="addr:city" v="Vershire" />
    <tag k="addr:housenumber" v="3893" />
    <tag k="addr:street" v="Vershire Center Road" />
    <tag k="addr:state" v="VT" />
    <tag k="ref:vcgi:esiteid" v="267238" />
  </node>
  <node id="-453" visible="true" lat="43.92315719" lon="-72.32321655">
    <tag k="addr:city" v="Vershire" />
    <tag k="addr:housenumber" v="3933" />
    <tag k="addr:street" v="Vershire Center Road" />
    <tag k="addr:state" v="VT" />
    <tag k="ref:vcgi:esiteid" v="267239" />
  </node>
  <node id="-454" visible="true" lat="43.92310714" lon="-72.3164978">
    <tag k="addr:city" v="Vershire" />
    <tag k="addr:housenumber" v="48" />
    <tag k="addr:street" v="Mountain Ash Road" />
    <tag k="addr:state" v="VT" />
    <tag k="ref:vcgi:esiteid" v="267240" />
  </node>
  <node id="-455" visible="true" lat="43.92263788" lon="-72.31952321">
    <tag k="addr:city" v="Vershire" />
    <tag k="addr:housenumber" v="3328" />
    <tag k="addr:street" v="South Vershire Road" />
    <tag k="addr:state" v="VT" />
    <tag k="ref:vcgi:esiteid" v="267241" />
  </node>
  <node id="-456" visible="true" lat="43.92279865" lon="-72.32348325">
    <tag k="addr:city" v="Vershire" />
    <tag k="addr:housenumber" v="3979" />
    <tag k="addr:street" v="Vershire Center Road" />
    <tag k="addr:state" v="VT" />
    <tag k="ref:vcgi:esiteid" v="267242" />
  </node>
  <node id="-457" visible="true" lat="43.92232131" lon="-72.36495208">
    <tag k="addr:city" v="Vershire" />
    <tag k="addr:housenumber" v="19" />
    <tag k="addr:street" v="Sawyer Mountain Road" />
    <tag k="addr:state" v="VT" />
    <tag k="ref:vcgi:esiteid" v="267243" />
  </node>
  <node id="-458" visible="true" lat="43.92204666" lon="-72.36269378">
    <tag k="addr:city" v="Vershire" />
    <tag k="addr:housenumber" v="2925" />
    <tag k="addr:street" v="Van Dyke Road" />
    <tag k="addr:state" v="VT" />
    <tag k="ref:vcgi:esiteid" v="267244" />
  </node>
  <node id="-459" visible="true" lat="43.92111529" lon="-72.31877948">
    <tag k="addr:city" v="Vershire" />
    <tag k="addr:housenumber" v="3349" />
    <tag k="addr:street" v="South Vershire Road" />
    <tag k="addr:state" v="VT" />
    <tag k="ref:vcgi:esiteid" v="267245" />
  </node>
  <node id="-460" visible="true" lat="43.92153167" lon="-72.32646179">
    <tag k="addr:city" v="Vershire" />
    <tag k="addr:housenumber" v="4130" />
    <tag k="addr:street" v="Vershire Center Road" />
    <tag k="addr:state" v="VT" />
    <tag k="ref:vcgi:esiteid" v="267246" />
  </node>
  <node id="-461" visible="true" lat="43.92163239" lon="-72.31584245">
    <tag k="addr:city" v="Vershire" />
    <tag k="addr:housenumber" v="89" />
    <tag k="addr:street" v="Ayers Road" />
    <tag k="addr:state" v="VT" />
    <tag k="ref:vcgi:esiteid" v="267247" />
  </node>
  <node id="-462" visible="true" lat="43.92103523" lon="-72.32560046">
    <tag k="addr:city" v="Vershire" />
    <tag k="addr:housenumber" v="4133" />
    <tag k="addr:street" v="Vershire Center Road" />
    <tag k="addr:state" v="VT" />
    <tag k="ref:vcgi:esiteid" v="267248" />
  </node>
  <node id="-463" visible="true" lat="43.92097619" lon="-72.31696644">
    <tag k="addr:city" v="Vershire" />
    <tag k="addr:housenumber" v="112" />
    <tag k="addr:street" v="Ayers Road" />
    <tag k="addr:state" v="VT" />
    <tag k="ref:vcgi:esiteid" v="267249" />
  </node>
  <node id="-464" visible="true" lat="43.91941266" lon="-72.33455629">
    <tag k="addr:city" v="Vershire" />
    <tag k="addr:housenumber" v="4512" />
    <tag k="addr:street" v="Vershire Center Road" />
    <tag k="addr:state" v="VT" />
    <tag k="ref:vcgi:esiteid" v="267250" />
  </node>
  <node id="-465" visible="true" lat="43.91844013" lon="-72.32742449">
    <tag k="addr:city" v="Vershire" />
    <tag k="addr:housenumber" v="4345" />
    <tag k="addr:street" v="Vershire Center Road" />
    <tag k="addr:state" v="VT" />
    <tag k="ref:vcgi:esiteid" v="267251" />
  </node>
  <node id="-466" visible="true" lat="43.9178753" lon="-72.28186061">
    <tag k="addr:city" v="Vershire" />
    <tag k="addr:housenumber" v="158" />
    <tag k="addr:street" v="Private Rd 5" />
    <tag k="addr:state" v="VT" />
    <tag k="ref:vcgi:esiteid" v="267252" />
  </node>
  <node id="-467" visible="true" lat="43.91802857" lon="-72.30017924">
    <tag k="addr:city" v="Vershire" />
    <tag k="addr:housenumber" v="534" />
    <tag k="addr:street" v="Mero Road" />
    <tag k="addr:state" v="VT" />
    <tag k="ref:vcgi:esiteid" v="267253" />
  </node>
  <node id="-468" visible="true" lat="43.91725017" lon="-72.34224571">
    <tag k="addr:city" v="Vershire" />
    <tag k="addr:housenumber" v="191" />
    <tag k="addr:street" v="Moody Hill Road" />
    <tag k="addr:state" v="VT" />
    <tag k="ref:vcgi:esiteid" v="267254" />
  </node>
  <node id="-469" visible="true" lat="43.91710336" lon="-72.28270872">
    <tag k="addr:city" v="Vershire" />
    <tag k="addr:housenumber" v="101" />
    <tag k="addr:street" v="Private Rd 5" />
    <tag k="addr:state" v="VT" />
    <tag k="ref:vcgi:esiteid" v="267255" />
  </node>
  <node id="-470" visible="true" lat="43.91702331" lon="-72.28214826">
    <tag k="addr:city" v="Vershire" />
    <tag k="addr:housenumber" v="86" />
    <tag k="addr:street" v="Private Rd 5" />
    <tag k="addr:state" v="VT" />
    <tag k="ref:vcgi:esiteid" v="267256" />
  </node>
  <node id="-471" visible="true" lat="43.9166849" lon="-72.31724408">
    <tag k="addr:city" v="Vershire" />
    <tag k="addr:housenumber" v="364" />
    <tag k="addr:street" v="Ayers Road" />
    <tag k="addr:state" v="VT" />
    <tag k="ref:vcgi:esiteid" v="267257" />
  </node>
  <node id="-472" visible="true" lat="43.91609194" lon="-72.2830743">
    <tag k="addr:city" v="Vershire" />
    <tag k="addr:housenumber" v="1144" />
    <tag k="addr:street" v="South Vershire Road" />
    <tag k="addr:state" v="VT" />
    <tag k="ref:vcgi:esiteid" v="267258" />
  </node>
  <node id="-473" visible="true" lat="43.91610503" lon="-72.3314395">
    <tag k="addr:city" v="Vershire" />
    <tag k="addr:housenumber" v="4555" />
    <tag k="addr:street" v="Vershire Center Road" />
    <tag k="addr:state" v="VT" />
    <tag k="ref:vcgi:esiteid" v="267259" />
  </node>
  <node id="-474" visible="true" lat="43.91552131" lon="-72.31693951">
    <tag k="addr:city" v="Vershire" />
    <tag k="addr:housenumber" v="374" />
    <tag k="addr:street" v="Ayers Road" />
    <tag k="addr:state" v="VT" />
    <tag k="ref:vcgi:esiteid" v="267260" />
  </node>
  <node id="-475" visible="true" lat="43.91527557" lon="-72.28138732">
    <tag k="addr:city" v="Vershire" />
    <tag k="addr:housenumber" v="1072" />
    <tag k="addr:street" v="South Vershire Road" />
    <tag k="addr:state" v="VT" />
    <tag k="ref:vcgi:esiteid" v="267261" />
  </node>
  <node id="-476" visible="true" lat="43.91481054" lon="-72.31323292">
    <tag k="addr:city" v="Vershire" />
    <tag k="addr:housenumber" v="605" />
    <tag k="addr:street" v="Ayers Road" />
    <tag k="addr:state" v="VT" />
    <tag k="ref:vcgi:esiteid" v="267262" />
  </node>
  <node id="-477" visible="true" lat="43.91213339" lon="-72.30896172">
    <tag k="addr:city" v="Vershire" />
    <tag k="addr:housenumber" v="841" />
    <tag k="addr:street" v="Ayers Road" />
    <tag k="addr:state" v="VT" />
    <tag k="ref:vcgi:esiteid" v="267263" />
  </node>
  <node id="-478" visible="true" lat="43.91163635" lon="-72.29301452">
    <tag k="addr:city" v="Vershire" />
    <tag k="addr:housenumber" v="286" />
    <tag k="addr:street" v="Barstow Road" />
    <tag k="addr:state" v="VT" />
    <tag k="ref:vcgi:esiteid" v="267264" />
  </node>
  <node id="-479" visible="true" lat="43.90778071" lon="-72.2877802">
    <tag k="addr:city" v="Vershire" />
    <tag k="addr:housenumber" v="643" />
    <tag k="addr:street" v="Miller Pond Road" />
    <tag k="addr:state" v="VT" />
    <tag k="ref:vcgi:esiteid" v="267267" />
  </node>
  <node id="-480" visible="true" lat="43.90525972" lon="-72.29185022">
    <tag k="addr:city" v="Vershire" />
    <tag k="addr:housenumber" v="906" />
    <tag k="addr:street" v="Miller Pond Road" />
    <tag k="addr:state" v="VT" />
    <tag k="ref:vcgi:esiteid" v="267268" />
  </node>
  <node id="-481" visible="true" lat="43.99387237" lon="-72.31304565">
    <tag k="addr:city" v="Vershire" />
    <tag k="addr:housenumber" v="591" />
    <tag k="addr:street" v="Tullar Road" />
    <tag k="addr:state" v="VT" />
    <tag k="ref:vcgi:esiteid" v="267269" />
  </node>
  <node id="-482" visible="true" lat="43.99147201" lon="-72.31529153">
    <tag k="addr:city" v="Vershire" />
    <tag k="addr:housenumber" v="828" />
    <tag k="addr:street" v="Tullar Road" />
    <tag k="addr:state" v="VT" />
    <tag k="ref:vcgi:esiteid" v="267270" />
  </node>
  <node id="-483" visible="true" lat="43.99880914" lon="-72.33857289">
    <tag k="addr:city" v="Vershire" />
    <tag k="addr:housenumber" v="921" />
    <tag k="addr:street" v="Cross Road" />
    <tag k="addr:state" v="VT" />
    <tag k="ref:vcgi:esiteid" v="267271" />
  </node>
  <node id="-484" visible="true" lat="43.95259857" lon="-72.336586">
    <tag k="addr:city" v="Vershire" />
    <tag k="addr:housenumber" v="40" />
    <tag k="addr:street" v="Mountain School Road" />
    <tag k="addr:state" v="VT" />
    <tag k="ref:vcgi:esiteid" v="267272" />
  </node>
  <node id="-485" visible="true" lat="43.95820962" lon="-72.25433605">
    <tag k="addr:city" v="Vershire" />
    <tag k="addr:housenumber" v="1608" />
    <tag k="addr:street" v="Beaver Meadow Road" />
    <tag k="addr:state" v="VT" />
    <tag k="ref:vcgi:esiteid" v="267273" />
  </node>
  <node id="-486" visible="true" lat="43.99623656" lon="-72.35680976">
    <tag k="addr:city" v="Vershire" />
    <tag k="addr:housenumber" v="1170" />
    <tag k="addr:street" v="Goose Green Road" />
    <tag k="addr:state" v="VT" />
    <tag k="ref:vcgi:esiteid" v="267274" />
  </node>
  <node id="-487" visible="true" lat="43.96329498" lon="-72.33145904">
    <tag k="addr:city" v="Vershire" />
    <tag k="addr:housenumber" v="391" />
    <tag k="addr:street" v="Mud Lane" />
    <tag k="addr:state" v="VT" />
    <tag k="ref:vcgi:esiteid" v="267275" />
  </node>
  <node id="-488" visible="true" lat="43.93702697" lon="-72.3047409">
    <tag k="addr:city" v="Vershire" />
    <tag k="addr:housenumber" v="1993" />
    <tag k="addr:street" v="Parker Road" />
    <tag k="addr:state" v="VT" />
    <tag k="ref:vcgi:esiteid" v="267276" />
  </node>
  <node id="-489" visible="true" lat="43.93962272" lon="-72.26571187">
    <tag k="addr:city" v="Vershire" />
    <tag k="addr:housenumber" v="2906" />
    <tag k="addr:street" v="Vermont Route 113" />
    <tag k="addr:state" v="VT" />
    <tag k="ref:vcgi:esiteid" v="267277" />
  </node>
  <node id="-490" visible="true" lat="43.95199561" lon="-72.34524985">
    <tag k="addr:city" v="Vershire" />
    <tag k="addr:housenumber" v="239" />
    <tag k="addr:street" v="Tenney Hill Road" />
    <tag k="addr:state" v="VT" />
    <tag k="ref:vcgi:esiteid" v="267278" />
  </node>
  <node id="-491" visible="true" lat="43.91633162" lon="-72.31426194">
    <tag k="addr:city" v="Vershire" />
    <tag k="addr:housenumber" v="415" />
    <tag k="addr:street" v="Ayers Road" />
    <tag k="addr:state" v="VT" />
    <tag k="ref:vcgi:esiteid" v="267279" />
  </node>
  <node id="-492" visible="true" lat="43.91285959" lon="-72.31425133">
    <tag k="addr:city" v="Vershire" />
    <tag k="addr:housenumber" v="766" />
    <tag k="addr:street" v="Ayers Road" />
    <tag k="addr:state" v="VT" />
    <tag k="ref:vcgi:esiteid" v="267280" />
  </node>
  <node id="-493" visible="true" lat="43.92432188" lon="-72.30967473">
    <tag k="addr:city" v="Vershire" />
    <tag k="addr:housenumber" v="2756" />
    <tag k="addr:street" v="South Vershire Road" />
    <tag k="addr:state" v="VT" />
    <tag k="ref:vcgi:esiteid" v="267281" />
  </node>
  <node id="-494" visible="true" lat="43.93461909" lon="-72.29964672">
    <tag k="addr:city" v="Vershire" />
    <tag k="addr:housenumber" v="2221" />
    <tag k="addr:street" v="Parker Road" />
    <tag k="addr:state" v="VT" />
    <tag k="ref:vcgi:esiteid" v="267282" />
  </node>
  <node id="-495" visible="true" lat="43.98757025" lon="-72.36585548">
    <tag k="addr:city" v="Vershire" />
    <tag k="addr:housenumber" v="176" />
    <tag k="addr:street" v="Private Rd 1" />
    <tag k="addr:state" v="VT" />
    <tag k="ref:vcgi:esiteid" v="267283" />
  </node>
  <node id="-496" visible="true" lat="43.96934236" lon="-72.28933193">
    <tag k="addr:city" v="Vershire" />
    <tag k="addr:housenumber" v="460" />
    <tag k="addr:street" v="Parshley Road" />
    <tag k="addr:state" v="VT" />
    <tag k="ref:vcgi:esiteid" v="267284" />
  </node>
  <node id="-497" visible="true" lat="43.98015855" lon="-72.30427021">
    <tag k="addr:city" v="Vershire" />
    <tag k="addr:housenumber" v="1355" />
    <tag k="addr:street" v="Eagle Hollow Road" />
    <tag k="addr:state" v="VT" />
    <tag k="ref:vcgi:esiteid" v="267285" />
  </node>
  <node id="-498" visible="true" lat="43.95586468" lon="-72.37286194">
    <tag k="addr:city" v="Vershire" />
    <tag k="addr:housenumber" v="2113" />
    <tag k="addr:street" v="Taylor Valley Road" />
    <tag k="addr:state" v="VT" />
    <tag k="ref:vcgi:esiteid" v="267286" />
  </node>
  <node id="-499" visible="true" lat="43.95553488" lon="-72.37541112">
    <tag k="addr:city" v="Vershire" />
    <tag k="addr:housenumber" v="2242" />
    <tag k="addr:street" v="Taylor Valley Road" />
    <tag k="addr:state" v="VT" />
    <tag k="ref:vcgi:esiteid" v="267287" />
  </node>
  <node id="-500" visible="true" lat="43.95391082" lon="-72.37623535">
    <tag k="addr:city" v="Vershire" />
    <tag k="addr:housenumber" v="2304" />
    <tag k="addr:street" v="Taylor Valley Road" />
    <tag k="addr:state" v="VT" />
    <tag k="ref:vcgi:esiteid" v="267288" />
  </node>
  <node id="-501" visible="true" lat="43.95183164" lon="-72.37649364">
    <tag k="addr:city" v="Vershire" />
    <tag k="addr:housenumber" v="2548" />
    <tag k="addr:street" v="Taylor Valley Road" />
    <tag k="addr:state" v="VT" />
    <tag k="ref:vcgi:esiteid" v="267289" />
  </node>
  <node id="-502" visible="true" lat="43.94697425" lon="-72.2724862">
    <tag k="addr:city" v="Vershire" />
    <tag k="addr:housenumber" v="3518" />
    <tag k="addr:street" v="Vermont Route 113" />
    <tag k="addr:state" v="VT" />
    <tag k="ref:vcgi:esiteid" v="267290" />
  </node>
  <node id="-503" visible="true" lat="43.92614017" lon="-72.32197102">
    <tag k="addr:city" v="Vershire" />
    <tag k="addr:housenumber" v="3748" />
    <tag k="addr:street" v="Vershire Center Road" />
    <tag k="addr:state" v="VT" />
    <tag k="ref:vcgi:esiteid" v="267291" />
  </node>
  <node id="-504" visible="true" lat="43.92441077" lon="-72.32197831">
    <tag k="addr:city" v="Vershire" />
    <tag k="addr:housenumber" v="3827" />
    <tag k="addr:street" v="Vershire Center Road" />
    <tag k="addr:state" v="VT" />
    <tag k="ref:vcgi:esiteid" v="267292" />
  </node>
  <node id="-505" visible="true" lat="43.99288021" lon="-72.37163717">
    <tag k="addr:city" v="Vershire" />
    <tag k="addr:housenumber" v="9788" />
    <tag k="addr:street" v="Vermont Route 113" />
    <tag k="addr:state" v="VT" />
    <tag k="ref:vcgi:esiteid" v="267293" />
  </node>
  <node id="-506" visible="true" lat="43.97819883" lon="-72.24699524">
    <tag k="addr:city" v="Vershire" />
    <tag k="addr:housenumber" v="2831" />
    <tag k="addr:street" v="Beaver Meadow Road" />
    <tag k="addr:state" v="VT" />
    <tag k="ref:vcgi:esiteid" v="267296" />
  </node>
  <node id="-507" visible="true" lat="43.93848374" lon="-72.312304">
    <tag k="addr:city" v="Vershire" />
    <tag k="addr:housenumber" v="1114" />
    <tag k="addr:street" v="Chamberlain Hill Road" />
    <tag k="addr:state" v="VT" />
    <tag k="ref:vcgi:esiteid" v="267297" />
  </node>
  <node id="-508" visible="true" lat="43.96680316" lon="-72.3066757">
    <tag k="addr:city" v="Vershire" />
    <tag k="addr:housenumber" v="6000" />
    <tag k="addr:street" v="Vermont Route 113" />
    <tag k="addr:state" v="VT" />
    <tag k="ref:vcgi:esiteid" v="267298" />
  </node>
  <node id="-509" visible="true" lat="43.91745014" lon="-72.28666941">
    <tag k="addr:city" v="Vershire" />
    <tag k="addr:housenumber" v="1515" />
    <tag k="addr:street" v="South Vershire Road" />
    <tag k="addr:state" v="VT" />
    <tag k="ref:vcgi:esiteid" v="267299" />
  </node>
  <node id="-510" visible="true" lat="43.92744376" lon="-72.31113768">
    <tag k="addr:city" v="Vershire" />
    <tag k="addr:housenumber" v="2772" />
    <tag k="addr:street" v="South Vershire Road" />
    <tag k="addr:state" v="VT" />
    <tag k="ref:vcgi:esiteid" v="267300" />
  </node>
  <node id="-511" visible="true" lat="43.95186964" lon="-72.34445416">
    <tag k="addr:city" v="Vershire" />
    <tag k="addr:housenumber" v="156" />
    <tag k="addr:street" v="Tenney Hill Road" />
    <tag k="addr:state" v="VT" />
    <tag k="ref:vcgi:esiteid" v="267301" />
  </node>
  <node id="-512" visible="true" lat="43.99047558" lon="-72.31352367">
    <tag k="addr:city" v="Vershire" />
    <tag k="addr:housenumber" v="42" />
    <tag k="addr:street" v="Private Rd 7" />
    <tag k="addr:state" v="VT" />
    <tag k="ref:vcgi:esiteid" v="267302" />
  </node>
  <node id="-513" visible="true" lat="43.98887791" lon="-72.31180518">
    <tag k="addr:city" v="Vershire" />
    <tag k="addr:housenumber" v="895" />
    <tag k="addr:street" v="Tullar Road" />
    <tag k="addr:state" v="VT" />
    <tag k="ref:vcgi:esiteid" v="267303" />
  </node>
  <node id="-514" visible="true" lat="43.94971276" lon="-72.3340474">
    <tag k="addr:city" v="Vershire" />
    <tag k="addr:housenumber" v="1903" />
    <tag k="addr:street" v="Vershire Center Road" />
    <tag k="addr:state" v="VT" />
    <tag k="ref:vcgi:esiteid" v="267304" />
  </node>
  <node id="-515" visible="true" lat="43.92896964" lon="-72.31555367">
    <tag k="addr:city" v="Vershire" />
    <tag k="addr:housenumber" v="322" />
    <tag k="addr:street" v="Eastman Cross Road" />
    <tag k="addr:state" v="VT" />
    <tag k="ref:vcgi:esiteid" v="267305" />
  </node>
  <node id="-516" visible="true" lat="43.94294206" lon="-72.33309343">
    <tag k="addr:city" v="Vershire" />
    <tag k="addr:housenumber" v="2312" />
    <tag k="addr:street" v="Vershire Center Road" />
    <tag k="addr:state" v="VT" />
    <tag k="ref:vcgi:esiteid" v="267306" />
  </node>
  <node id="-517" visible="true" lat="43.92147225" lon="-72.32748124">
    <tag k="addr:city" v="Vershire" />
    <tag k="addr:housenumber" v="4216" />
    <tag k="addr:street" v="Vershire Center Road" />
    <tag k="addr:state" v="VT" />
    <tag k="ref:vcgi:esiteid" v="267307" />
  </node>
  <node id="-518" visible="true" lat="43.91442706" lon="-72.28217334">
    <tag k="addr:city" v="Vershire" />
    <tag k="addr:housenumber" v="1075" />
    <tag k="addr:street" v="South Vershire Road" />
    <tag k="addr:state" v="VT" />
    <tag k="ref:vcgi:esiteid" v="267308" />
  </node>
  <node id="-519" visible="true" lat="43.95389651" lon="-72.3039056">
    <tag k="addr:city" v="Vershire" />
    <tag k="addr:housenumber" v="563" />
    <tag k="addr:street" v="Parker Road" />
    <tag k="addr:state" v="VT" />
    <tag k="ref:vcgi:esiteid" v="267309" />
  </node>
  <node id="-520" visible="true" lat="43.99940261" lon="-72.36463739">
    <tag k="addr:city" v="Vershire" />
    <tag k="addr:housenumber" v="156" />
    <tag k="addr:street" v="Vershire Riding School Road" />
    <tag k="addr:state" v="VT" />
    <tag k="ref:vcgi:esiteid" v="267310" />
  </node>
  <node id="-521" visible="true" lat="43.99252186" lon="-72.31017325">
    <tag k="addr:city" v="Vershire" />
    <tag k="addr:housenumber" v="148" />
    <tag k="addr:street" v="Private Rd 7" />
    <tag k="addr:state" v="VT" />
    <tag k="ref:vcgi:esiteid" v="267311" />
  </node>
  <node id="-522" visible="true" lat="43.97606269" lon="-72.32189738">
    <tag k="addr:city" v="Vershire" />
    <tag k="addr:housenumber" v="339" />
    <tag k="addr:street" v="North Road" />
    <tag k="addr:state" v="VT" />
    <tag k="ref:vcgi:esiteid" v="267312" />
  </node>
  <node id="-523" visible="true" lat="43.92344254" lon="-72.32387745">
    <tag k="addr:city" v="Vershire" />
    <tag k="addr:housenumber" v="3966" />
    <tag k="addr:street" v="Vershire Center Road" />
    <tag k="addr:state" v="VT" />
    <tag k="ref:vcgi:esiteid" v="267314" />
  </node>
  <node id="-524" visible="true" lat="43.92188165" lon="-72.2969811">
    <tag k="addr:city" v="Vershire" />
    <tag k="addr:housenumber" v="114" />
    <tag k="addr:street" v="Mero Road" />
    <tag k="addr:state" v="VT" />
    <tag k="ref:vcgi:esiteid" v="267315" />
  </node>
  <node id="-525" visible="true" lat="43.91889543" lon="-72.29470887">
    <tag k="addr:city" v="Vershire" />
    <tag k="addr:housenumber" v="111" />
    <tag k="addr:street" v="Mero Road" />
    <tag k="addr:state" v="VT" />
    <tag k="ref:vcgi:esiteid" v="267316" />
  </node>
  <node id="-526" visible="true" lat="43.96142337" lon="-72.25359357">
    <tag k="addr:city" v="Vershire" />
    <tag k="addr:housenumber" v="1728" />
    <tag k="addr:street" v="Beaver Meadow Road" />
    <tag k="addr:state" v="VT" />
    <tag k="ref:vcgi:esiteid" v="267317" />
  </node>
  <node id="-527" visible="true" lat="43.92874111" lon="-72.31894111">
    <tag k="addr:city" v="Vershire" />
    <tag k="addr:housenumber" v="420" />
    <tag k="addr:street" v="Eastman Cross Road" />
    <tag k="addr:state" v="VT" />
    <tag k="ref:vcgi:esiteid" v="267318" />
  </node>
  <node id="-528" visible="true" lat="43.98093633" lon="-72.36215102">
    <tag k="addr:city" v="Vershire" />
    <tag k="addr:housenumber" v="8989" />
    <tag k="addr:street" v="Vermont Route 113" />
    <tag k="addr:state" v="VT" />
    <tag k="ref:vcgi:esiteid" v="267319" />
  </node>
  <node id="-529" visible="true" lat="43.99922208" lon="-72.34903617">
    <tag k="addr:city" v="Vershire" />
    <tag k="addr:housenumber" v="1339" />
    <tag k="addr:street" v="Rowell Road" />
    <tag k="addr:state" v="VT" />
    <tag k="ref:vcgi:esiteid" v="267320" />
  </node>
  <node id="-530" visible="true" lat="43.99636327" lon="-72.33931387">
    <tag k="addr:city" v="Vershire" />
    <tag k="addr:housenumber" v="1428" />
    <tag k="addr:street" v="Rowell Road" />
    <tag k="addr:state" v="VT" />
    <tag k="ref:vcgi:esiteid" v="267321" />
  </node>
  <node id="-531" visible="true" lat="43.97294725" lon="-72.35625533">
    <tag k="addr:city" v="Vershire" />
    <tag k="addr:housenumber" v="8405" />
    <tag k="addr:street" v="Vermont Route 113" />
    <tag k="addr:state" v="VT" />
    <tag k="ref:vcgi:esiteid" v="267322" />
  </node>
  <node id="-532" visible="true" lat="43.97200576" lon="-72.35454074">
    <tag k="addr:city" v="Vershire" />
    <tag k="addr:housenumber" v="8407" />
    <tag k="addr:street" v="Vermont Route 113" />
    <tag k="addr:state" v="VT" />
    <tag k="ref:vcgi:esiteid" v="267323" />
  </node>
  <node id="-533" visible="true" lat="43.97229855" lon="-72.32872914">
    <tag k="addr:city" v="Vershire" />
    <tag k="addr:housenumber" v="161" />
    <tag k="addr:street" v="Moon Meadow Drive" />
    <tag k="addr:state" v="VT" />
    <tag k="ref:vcgi:esiteid" v="267324" />
  </node>
  <node id="-534" visible="true" lat="43.93974313" lon="-72.30996271">
    <tag k="addr:city" v="Vershire" />
    <tag k="addr:housenumber" v="1638" />
    <tag k="addr:street" v="Parker Road" />
    <tag k="addr:state" v="VT" />
    <tag k="ref:vcgi:esiteid" v="306128" />
  </node>
  <node id="-535" visible="true" lat="43.95987868" lon="-72.30041406">
    <tag k="addr:city" v="Vershire" />
    <tag k="addr:housenumber" v="102" />
    <tag k="addr:street" v="Parker Road" />
    <tag k="addr:state" v="VT" />
    <tag k="ref:vcgi:esiteid" v="306129" />
  </node>
  <node id="-536" visible="true" lat="43.96375978" lon="-72.3076908">
    <tag k="addr:city" v="Vershire" />
    <tag k="addr:housenumber" v="5997" />
    <tag k="addr:street" v="Vermont Route 113" />
    <tag k="addr:state" v="VT" />
    <tag k="ref:vcgi:esiteid" v="306844" />
  </node>
  <node id="-537" visible="true" lat="43.98587459" lon="-72.36806191">
    <tag k="addr:city" v="Vershire" />
    <tag k="addr:housenumber" v="9471" />
    <tag k="addr:street" v="Vermont Route 113" />
    <tag k="addr:state" v="VT" />
    <tag k="ref:vcgi:esiteid" v="309161" />
  </node>
  <node id="-538" visible="true" lat="43.98149652" lon="-72.37757709">
    <tag k="addr:city" v="Vershire" />
    <tag k="addr:housenumber" v="637" />
    <tag k="addr:street" v="McIver Road" />
    <tag k="addr:state" v="VT" />
    <tag k="ref:vcgi:esiteid" v="309162" />
  </node>
  <node id="-539" visible="true" lat="43.9614899" lon="-72.32327624">
    <tag k="addr:city" v="Vershire" />
    <tag k="addr:housenumber" v="890" />
    <tag k="addr:street" v="Darling Hill Road" />
    <tag k="addr:state" v="VT" />
    <tag k="ref:vcgi:esiteid" v="309163" />
  </node>
  <node id="-540" visible="true" lat="43.96234041" lon="-72.32728667">
    <tag k="addr:city" v="Vershire" />
    <tag k="addr:housenumber" v="1100" />
    <tag k="addr:street" v="Darling Hill Road" />
    <tag k="addr:state" v="VT" />
    <tag k="ref:vcgi:esiteid" v="309164" />
  </node>
  <node id="-541" visible="true" lat="43.9612415" lon="-72.33865377">
    <tag k="addr:city" v="Vershire" />
    <tag k="addr:housenumber" v="1026" />
    <tag k="addr:street" v="Vershire Center Road" />
    <tag k="addr:state" v="VT" />
    <tag k="ref:vcgi:esiteid" v="309165" />
  </node>
  <node id="-542" visible="true" lat="43.96069841" lon="-72.30037443">
    <tag k="addr:city" v="Vershire" />
    <tag k="addr:housenumber" v="30" />
    <tag k="addr:street" v="Parker Road" />
    <tag k="addr:state" v="VT" />
    <tag k="ref:vcgi:esiteid" v="309166" />
  </node>
  <node id="-543" visible="true" lat="43.94301759" lon="-72.31106438">
    <tag k="addr:city" v="Vershire" />
    <tag k="addr:housenumber" v="1464" />
    <tag k="addr:street" v="Parker Road" />
    <tag k="addr:state" v="VT" />
    <tag k="ref:vcgi:esiteid" v="309167" />
  </node>
  <node id="-544" visible="true" lat="43.91582102" lon="-72.31342974">
    <tag k="addr:city" v="Vershire" />
    <tag k="addr:housenumber" v="551" />
    <tag k="addr:street" v="Ayers Road" />
    <tag k="addr:state" v="VT" />
    <tag k="ref:vcgi:esiteid" v="309168" />
  </node>
  <node id="-545" visible="true" lat="43.91667638" lon="-72.31008563">
    <tag k="addr:city" v="Vershire" />
    <tag k="addr:housenumber" v="553" />
    <tag k="addr:street" v="Ayers Road" />
    <tag k="addr:state" v="VT" />
    <tag k="ref:vcgi:esiteid" v="309169" />
  </node>
  <node id="-546" visible="true" lat="43.92327347" lon="-72.31546683">
    <tag k="addr:city" v="Vershire" />
    <tag k="addr:housenumber" v="3092" />
    <tag k="addr:street" v="South Vershire Road" />
    <tag k="addr:state" v="VT" />
    <tag k="ref:vcgi:esiteid" v="309171" />
  </node>
  <node id="-547" visible="true" lat="43.96412381" lon="-72.35184019">
    <tag k="addr:city" v="Vershire" />
    <tag k="addr:housenumber" v="707" />
    <tag k="addr:street" v="Reed Road" />
    <tag k="addr:state" v="VT" />
    <tag k="ref:vcgi:esiteid" v="315250" />
  </node>
  <node id="-548" visible="true" lat="43.95936508" lon="-72.3028209">
    <tag k="addr:city" v="Vershire" />
    <tag k="addr:housenumber" v="36" />
    <tag k="addr:street" v="Parker Road" />
    <tag k="addr:state" v="VT" />
    <tag k="ref:vcgi:esiteid" v="325218" />
  </node>
  <node id="-549" visible="true" lat="44.00435111" lon="-72.38037984">
    <tag k="addr:city" v="Vershire" />
    <tag k="addr:housenumber" v="948" />
    <tag k="addr:street" v="Vershire Riding School Road" />
    <tag k="addr:state" v="VT" />
    <tag k="ref:vcgi:esiteid" v="325285" />
  </node>
  <node id="-550" visible="true" lat="44.00341635" lon="-72.38101218">
    <tag k="addr:city" v="Vershire" />
    <tag k="addr:housenumber" v="944" />
    <tag k="addr:street" v="Vershire Riding School Road" />
    <tag k="addr:state" v="VT" />
    <tag k="ref:vcgi:esiteid" v="325286" />
  </node>
  <node id="-551" visible="true" lat="44.00136386" lon="-72.37660323">
    <tag k="addr:city" v="Vershire" />
    <tag k="addr:housenumber" v="775" />
    <tag k="addr:street" v="Vershire Riding School Road" />
    <tag k="addr:state" v="VT" />
    <tag k="ref:vcgi:esiteid" v="325287" />
  </node>
  <node id="-552" visible="true" lat="43.96485617" lon="-72.33345701">
    <tag k="addr:city" v="Vershire" />
    <tag k="addr:housenumber" v="615" />
    <tag k="addr:street" v="Vershire Center Road" />
    <tag k="addr:state" v="VT" />
    <tag k="ref:vcgi:esiteid" v="326199" />
  </node>
  <node id="-553" visible="true" lat="43.961564" lon="-72.30074399">
    <tag k="addr:city" v="Vershire" />
    <tag k="addr:housenumber" v="5600" />
    <tag k="addr:street" v="Vermont Route 113" />
    <tag k="addr:state" v="VT" />
    <tag k="ref:vcgi:esiteid" v="326899" />
  </node>
  <node id="-554" visible="true" lat="43.92889803" lon="-72.3154893">
    <tag k="addr:city" v="Vershire" />
    <tag k="addr:housenumber" v="320" />
    <tag k="addr:street" v="Eastman Cross Road" />
    <tag k="addr:state" v="VT" />
    <tag k="ref:vcgi:esiteid" v="326900" />
  </node>
  <node id="-555" visible="true" lat="43.9276961" lon="-72.31559363">
    <tag k="addr:city" v="Vershire" />
    <tag k="addr:housenumber" v="318" />
    <tag k="addr:street" v="Eastman Cross Road" />
    <tag k="addr:state" v="VT" />
    <tag k="ref:vcgi:esiteid" v="328615" />
  </node>
  <node id="-556" visible="true" lat="43.97058283" lon="-72.32935263">
    <tag k="addr:city" v="Vershire" />
    <tag k="addr:housenumber" v="7269" />
    <tag k="addr:street" v="Vermont Route 113" />
    <tag k="addr:state" v="VT" />
    <tag k="ref:vcgi:esiteid" v="329258" />
  </node>
  <node id="-557" visible="true" lat="43.9842782" lon="-72.36044213">
    <tag k="addr:city" v="Vershire" />
    <tag k="addr:housenumber" v="9162" />
    <tag k="addr:street" v="Vermont Route 113" />
    <tag k="addr:state" v="VT" />
    <tag k="ref:vcgi:esiteid" v="331928" />
  </node>
  <node id="-558" visible="true" lat="43.93129223" lon="-72.32260513">
    <tag k="addr:city" v="Vershire" />
    <tag k="addr:housenumber" v="3390" />
    <tag k="addr:street" v="Vershire Center Road" />
    <tag k="addr:state" v="VT" />
    <tag k="ref:vcgi:esiteid" v="331929" />
  </node>
  <node id="-559" visible="true" lat="43.95879597" lon="-72.27815072">
    <tag k="addr:city" v="Vershire" />
    <tag k="addr:housenumber" v="4542" />
    <tag k="addr:street" v="Vermont Route 113" />
    <tag k="addr:state" v="VT" />
    <tag k="ref:vcgi:esiteid" v="332052" />
  </node>
  <node id="-560" visible="true" lat="43.9928152" lon="-72.37548484">
    <tag k="addr:city" v="Vershire" />
    <tag k="addr:housenumber" v="9894" />
    <tag k="addr:street" v="Vermont Route 113" />
    <tag k="addr:state" v="VT" />
    <tag k="ref:vcgi:esiteid" v="332294" />
  </node>
  <node id="-561" visible="true" lat="43.97661096" lon="-72.33124437">
    <tag k="addr:city" v="Vershire" />
    <tag k="addr:housenumber" v="298" />
    <tag k="addr:street" v="Durgin Hill Road" />
    <tag k="addr:state" v="VT" />
    <tag k="ref:vcgi:esiteid" v="332704" />
  </node>
  <node id="-562" visible="true" lat="43.95688431" lon="-72.35320474">
    <tag k="addr:city" v="Vershire" />
    <tag k="addr:housenumber" v="888" />
    <tag k="addr:street" v="Taylor Valley Road" />
    <tag k="addr:state" v="VT" />
    <tag k="ref:vcgi:esiteid" v="334768" />
  </node>
  <node id="-563" visible="true" lat="43.96143735" lon="-72.3420321">
    <tag k="addr:city" v="Vershire" />
    <tag k="addr:housenumber" v="275" />
    <tag k="addr:street" v="Reed Road" />
    <tag k="addr:state" v="VT" />
    <tag k="ref:vcgi:esiteid" v="337632" />
  </node>
  <node id="-564" visible="true" lat="43.94470964" lon="-72.26721328">
    <tag k="addr:city" v="Vershire" />
    <tag k="addr:housenumber" v="3284" />
    <tag k="addr:street" v="Vermont Route 113" />
    <tag k="addr:state" v="VT" />
    <tag k="ref:vcgi:esiteid" v="337806" />
  </node>
  <node id="-565" visible="true" lat="43.92770052" lon="-72.28497033">
    <tag k="addr:city" v="Vershire" />
    <tag k="addr:housenumber" v="1480" />
    <tag k="addr:street" v="South Vershire Road" />
    <tag k="addr:state" v="VT" />
    <tag k="ref:vcgi:esiteid" v="337807" />
  </node>
  <node id="-566" visible="true" lat="43.97622408" lon="-72.37622479">
    <tag k="addr:city" v="Vershire" />
    <tag k="addr:housenumber" v="453" />
    <tag k="addr:street" v="Private Rd 3" />
    <tag k="addr:state" v="VT" />
    <tag k="ref:vcgi:esiteid" v="338937" />
  </node>
  <node id="-567" visible="true" lat="43.99598041" lon="-72.3648272">
    <tag k="addr:city" v="Vershire" />
    <tag k="addr:housenumber" v="2510" />
    <tag k="addr:street" v="Durgin Hill Road" />
    <tag k="addr:state" v="VT" />
    <tag k="ref:vcgi:esiteid" v="340800" />
  </node>
  <node id="-568" visible="true" lat="43.94112372" lon="-72.26664256">
    <tag k="addr:city" v="Vershire" />
    <tag k="addr:housenumber" v="3054" />
    <tag k="addr:street" v="Vermont Route 113" />
    <tag k="addr:state" v="VT" />
    <tag k="ref:vcgi:esiteid" v="341360" />
  </node>
  <node id="-569" visible="true" lat="43.97808114" lon="-72.31969622">
    <tag k="addr:city" v="Vershire" />
    <tag k="addr:housenumber" v="6" />
    <tag k="addr:street" v="Private Rd 4" />
    <tag k="addr:state" v="VT" />
    <tag k="ref:vcgi:esiteid" v="344361" />
  </node>
  <node id="-570" visible="true" lat="43.9499896" lon="-72.2822413">
    <tag k="addr:city" v="Vershire" />
    <tag k="addr:housenumber" v="668" />
    <tag k="addr:street" v="Kingdom Road" />
    <tag k="addr:state" v="VT" />
    <tag k="ref:vcgi:esiteid" v="344388" />
  </node>
  <node id="-571" visible="true" lat="43.91664841" lon="-72.28502794">
    <tag k="addr:city" v="Vershire" />
    <tag k="addr:housenumber" v="1513" />
    <tag k="addr:street" v="South Vershire Road" />
    <tag k="addr:state" v="VT" />
    <tag k="ref:vcgi:esiteid" v="345968" />
  </node>
  <node id="-572" visible="true" lat="43.95661905" lon="-72.34693938">
    <tag k="addr:city" v="Vershire" />
    <tag k="addr:housenumber" v="560" />
    <tag k="addr:street" v="Taylor Valley Road" />
    <tag k="addr:state" v="VT" />
    <tag k="ref:vcgi:esiteid" v="446778" />
  </node>
  <node id="-573" visible="true" lat="43.96718884" lon="-72.34525753">
    <tag k="addr:city" v="Vershire" />
    <tag k="addr:housenumber" v="646" />
    <tag k="addr:street" v="Reed Road" />
    <tag k="addr:state" v="VT" />
    <tag k="ref:vcgi:esiteid" v="446779" />
  </node>
  <node id="-574" visible="true" lat="43.93156836" lon="-72.32115515">
    <tag k="addr:city" v="Vershire" />
    <tag k="addr:housenumber" v="3335" />
    <tag k="addr:street" v="Vershire Center Road" />
    <tag k="addr:state" v="VT" />
    <tag k="ref:vcgi:esiteid" v="450580" />
  </node>
  <node id="-575" visible="true" lat="43.94211969" lon="-72.31388985">
    <tag k="addr:city" v="Vershire" />
    <tag k="addr:housenumber" v="969" />
    <tag k="addr:street" v="Chamberlain Hill Road" />
    <tag k="addr:state" v="VT" />
    <tag k="ref:vcgi:esiteid" v="452541" />
  </node>
  <node id="-576" visible="true" lat="43.93801374" lon="-72.26561874">
    <tag k="addr:city" v="Vershire" />
    <tag k="addr:housenumber" v="2816" />
    <tag k="addr:street" v="Vermont Route 113" />
    <tag k="addr:state" v="VT" />
    <tag k="ref:vcgi:esiteid" v="453562" />
  </node>
  <node id="-577" visible="true" lat="43.97011406" lon="-72.2483121">
    <tag k="addr:city" v="Vershire" />
    <tag k="addr:housenumber" v="2524" />
    <tag k="addr:street" v="Beaver Meadow Road" />
    <tag k="addr:state" v="VT" />
    <tag k="ref:vcgi:esiteid" v="454559" />
  </node>
  <node id="-578" visible="true" lat="43.97625593" lon="-72.32267225">
    <tag k="addr:city" v="Vershire" />
    <tag k="addr:housenumber" v="317" />
    <tag k="addr:street" v="North Road" />
    <tag k="addr:state" v="VT" />
    <tag k="ref:vcgi:esiteid" v="455360" />
  </node>
  <node id="-579" visible="true" lat="43.92157769" lon="-72.29324451">
    <tag k="addr:city" v="Vershire" />
    <tag k="addr:housenumber" v="1886" />
    <tag k="addr:street" v="South Vershire Road" />
    <tag k="addr:state" v="VT" />
    <tag k="ref:vcgi:esiteid" v="611354" />
  </node>
  <node id="-580" visible="true" lat="43.99611205" lon="-72.36676776">
    <tag k="addr:city" v="Vershire" />
    <tag k="addr:housenumber" v="689" />
    <tag k="addr:street" v="Goose Green Road" />
    <tag k="addr:state" v="VT" />
    <tag k="ref:vcgi:esiteid" v="754448" />
  </node>
  <node id="-581" visible="true" lat="43.97401102" lon="-72.32807974">
    <tag k="addr:city" v="Vershire" />
    <tag k="addr:housenumber" v="359" />
    <tag k="addr:street" v="Moon Meadow Drive" />
    <tag k="addr:state" v="VT" />
    <tag k="ref:vcgi:esiteid" v="754449" />
  </node>
  <node id="-582" visible="true" lat="43.94579783" lon="-72.33103575">
    <tag k="addr:city" v="Vershire" />
    <tag k="addr:housenumber" v="2266" />
    <tag k="addr:street" v="Vershire Center Road" />
    <tag k="addr:state" v="VT" />
    <tag k="ref:vcgi:esiteid" v="756622" />
  </node>
  <node id="-583" visible="true" lat="43.94399982" lon="-72.2700236">
    <tag k="addr:city" v="Vershire" />
    <tag k="addr:housenumber" v="3295" />
    <tag k="addr:street" v="Vermont Route 113" />
    <tag k="addr:state" v="VT" />
    <tag k="ref:vcgi:esiteid" v="756623" />
  </node>
  <node id="-584" visible="true" lat="43.96242752" lon="-72.31392949">
    <tag k="addr:city" v="Vershire" />
    <tag k="addr:housenumber" v="328" />
    <tag k="addr:street" v="Darling Hill Road" />
    <tag k="addr:state" v="VT" />
    <tag k="ref:vcgi:esiteid" v="760846" />
  </node>
  <node id="-585" visible="true" lat="43.9342067" lon="-72.26730366">
    <tag k="addr:city" v="Vershire" />
    <tag k="addr:housenumber" v="2661" />
    <tag k="addr:street" v="Vermont Route 113" />
    <tag k="addr:state" v="VT" />
    <tag k="ref:vcgi:esiteid" v="765494" />
  </node>
  <node id="-586" visible="true" lat="43.98783808" lon="-72.3760166">
    <tag k="addr:city" v="Vershire" />
    <tag k="addr:housenumber" v="9909" />
    <tag k="addr:street" v="Vermont Route 113" />
    <tag k="addr:state" v="VT" />
    <tag k="ref:vcgi:esiteid" v="767485" />
  </node>
  <node id="-587" visible="true" lat="43.98899672" lon="-72.37347936">
    <tag k="addr:city" v="Vershire" />
    <tag k="addr:housenumber" v="9849" />
    <tag k="addr:street" v="Vermont Route 113" />
    <tag k="addr:state" v="VT" />
    <tag k="ref:vcgi:esiteid" v="767486" />
  </node>
  <node id="-588" visible="true" lat="43.91943858" lon="-72.31721436">
    <tag k="addr:city" v="Vershire" />
    <tag k="addr:housenumber" v="182" />
    <tag k="addr:street" v="Ayers Road" />
    <tag k="addr:state" v="VT" />
    <tag k="ref:vcgi:esiteid" v="767496" />
  </node>
  <node id="-589" visible="true" lat="43.95729502" lon="-72.25458755">
    <tag k="addr:city" v="Vershire" />
    <tag k="addr:housenumber" v="1574" />
    <tag k="addr:street" v="Beaver Meadow Road" />
    <tag k="addr:state" v="VT" />
    <tag k="ref:vcgi:esiteid" v="767497" />
  </node>
  <node id="-590" visible="true" lat="43.97909353" lon="-72.33389968">
    <tag k="addr:city" v="Vershire" />
    <tag k="addr:housenumber" v="403" />
    <tag k="addr:street" v="Durgin Hill Road" />
    <tag k="addr:state" v="VT" />
    <tag k="ref:vcgi:esiteid" v="767498" />
  </node>
  <node id="-591" visible="true" lat="43.98180238" lon="-72.33634347">
    <tag k="addr:city" v="Vershire" />
    <tag k="addr:housenumber" v="779" />
    <tag k="addr:street" v="Durgin Hill Road" />
    <tag k="addr:state" v="VT" />
    <tag k="ref:vcgi:esiteid" v="767499" />
  </node>
  <node id="-592" visible="true" lat="44.00027175" lon="-72.3665445">
    <tag k="addr:city" v="Vershire" />
    <tag k="addr:housenumber" v="249" />
    <tag k="addr:street" v="Vershire Riding School Road" />
    <tag k="addr:state" v="VT" />
    <tag k="ref:vcgi:esiteid" v="767500" />
  </node>
  <node id="-595" visible="true" lat="43.97098695" lon="-72.31395798">
    <tag k="addr:city" v="Vershire" />
    <tag k="addr:housenumber" v="6404" />
    <tag k="addr:street" v="Vermont Route 113" />
    <tag k="addr:state" v="VT" />
    <tag k="ref:vcgi:esiteid" v="900446" />
  </node>
  <node id="-596" visible="true" lat="43.92091748" lon="-72.31633742">
    <tag k="addr:city" v="Vershire" />
    <tag k="addr:housenumber" v="103" />
    <tag k="addr:street" v="Ayers Road" />
    <tag k="addr:state" v="VT" />
    <tag k="ref:vcgi:esiteid" v="1050719" />
  </node>
  <node id="-597" visible="true" lat="43.91875214" lon="-72.28529399">
    <tag k="addr:city" v="Vershire" />
    <tag k="addr:housenumber" v="1430" />
    <tag k="addr:street" v="South Vershire Road" />
    <tag k="addr:state" v="VT" />
    <tag k="ref:vcgi:esiteid" v="1050720" />
  </node>
  <node id="-598" visible="true" lat="43.93807773" lon="-72.30603459">
    <tag k="addr:city" v="Vershire" />
    <tag k="addr:housenumber" v="1895" />
    <tag k="addr:street" v="Parker Road" />
    <tag k="addr:state" v="VT" />
    <tag k="ref:vcgi:esiteid" v="1050721" />
  </node>
  <node id="-599" visible="true" lat="43.95318814" lon="-72.33689724">
    <tag k="addr:city" v="Vershire" />
    <tag k="addr:housenumber" v="87" />
    <tag k="addr:street" v="Mountain School Road" />
    <tag k="addr:state" v="VT" />
    <tag k="ref:vcgi:esiteid" v="1050835" />
  </node>
  <node id="-600" visible="true" lat="43.96607682" lon="-72.32963323">
    <tag k="addr:city" v="Vershire" />
    <tag k="addr:housenumber" v="600" />
    <tag k="addr:street" v="Mud Lane" />
    <tag k="addr:state" v="VT" />
    <tag k="ref:vcgi:esiteid" v="1050836" />
  </node>
  <node id="-601" visible="true" lat="43.96859413" lon="-72.29390254">
    <tag k="addr:city" v="Vershire" />
    <tag k="addr:housenumber" v="71" />
    <tag k="addr:street" v="Parshley Road" />
    <tag k="addr:state" v="VT" />
    <tag k="ref:vcgi:esiteid" v="1050837" />
  </node>
  <node id="-602" visible="true" lat="43.96960875" lon="-72.32351971">
    <tag k="addr:city" v="Vershire" />
    <tag k="addr:housenumber" v="23" />
    <tag k="addr:street" v="Vershire Center Road" />
    <tag k="addr:state" v="VT" />
    <tag k="ref:vcgi:esiteid" v="1050838" />
  </node>
  <node id="-603" visible="true" lat="44.00134435" lon="-72.36609377">
    <tag k="addr:city" v="Vershire" />
    <tag k="addr:housenumber" v="318" />
    <tag k="addr:street" v="Vershire Riding School Road" />
    <tag k="addr:state" v="VT" />
    <tag k="ref:vcgi:esiteid" v="1050839" />
  </node>
  <node id="-604" visible="true" lat="43.98185202" lon="-72.3629434">
    <tag k="addr:city" v="Vershire" />
    <tag k="addr:housenumber" v="9105" />
    <tag k="addr:street" v="Vermont Route 113" />
    <tag k="addr:state" v="VT" />
    <tag k="ref:vcgi:esiteid" v="1050841" />
  </node>
  <node id="-605" visible="true" lat="43.9353217" lon="-72.32386279">
    <tag k="addr:city" v="Vershire" />
    <tag k="addr:housenumber" v="3060" />
    <tag k="addr:street" v="Vershire Center Road" />
    <tag k="addr:state" v="VT" />
    <tag k="ref:vcgi:esiteid" v="1050842" />
  </node>
  <node id="-606" visible="true" lat="43.99127109" lon="-72.33916056">
    <tag k="addr:city" v="Vershire" />
    <tag k="addr:housenumber" v="987" />
    <tag k="addr:street" v="Rowell Road" />
    <tag k="addr:state" v="VT" />
    <tag k="ref:vcgi:esiteid" v="1050848" />
  </node>
  <node id="-607" visible="true" lat="43.97540225" lon="-72.24459463">
    <tag k="addr:city" v="Vershire" />
    <tag k="addr:housenumber" v="2830" />
    <tag k="addr:street" v="Beaver Meadow Road" />
    <tag k="addr:state" v="VT" />
    <tag k="ref:vcgi:esiteid" v="1051590" />
  </node>
</osm>
