<?xml version="1.0" encoding="UTF-8"?>
<osm version="0.6" generator="JOSM">
  <node id="-100" visible="true" lat="44.16310119" lon="-73.2373352">
    <tag k="addr:city" v="Waltham" />
    <tag k="addr:housenumber" v="73" />
    <tag k="addr:street" v="Church Street" />
    <tag k="addr:state" v="VT" />
    <tag k="ref:vcgi:esiteid" v="270090" />
  </node>
  <node id="-101" visible="true" lat="44.16303253" lon="-73.23428344">
    <tag k="addr:city" v="Waltham" />
    <tag k="addr:housenumber" v="48" />
    <tag k="addr:street" v="Plank Road" />
    <tag k="addr:state" v="VT" />
    <tag k="ref:vcgi:esiteid" v="270091" />
  </node>
  <node id="-102" visible="true" lat="44.16239547" lon="-73.23630523">
    <tag k="addr:city" v="Waltham" />
    <tag k="addr:housenumber" v="47" />
    <tag k="addr:street" v="Church Street" />
    <tag k="addr:state" v="VT" />
    <tag k="ref:vcgi:esiteid" v="270092" />
  </node>
  <node id="-103" visible="true" lat="44.16142654" lon="-73.23531341">
    <tag k="addr:city" v="Waltham" />
    <tag k="addr:housenumber" v="334" />
    <tag k="addr:street" v="U.S. Route 7" />
    <tag k="addr:state" v="VT" />
    <tag k="ref:vcgi:esiteid" v="270093" />
  </node>
  <node id="-104" visible="true" lat="44.16123132" lon="-73.23190633">
    <tag k="addr:city" v="Waltham" />
    <tag k="addr:housenumber" v="494" />
    <tag k="addr:street" v="U.S. Route 7" />
    <tag k="addr:state" v="VT" />
    <tag k="ref:vcgi:esiteid" v="270094" />
  </node>
  <node id="-105" visible="true" lat="44.1610794" lon="-73.227005">
    <tag k="addr:city" v="Waltham" />
    <tag k="addr:housenumber" v="442" />
    <tag k="addr:street" v="Plank Road" />
    <tag k="addr:state" v="VT" />
    <tag k="ref:vcgi:esiteid" v="270095" />
  </node>
  <node id="-106" visible="true" lat="44.16078334" lon="-73.23263162">
    <tag k="addr:city" v="Waltham" />
    <tag k="addr:housenumber" v="65" />
    <tag k="addr:street" v="Crosby Heights" />
    <tag k="addr:state" v="VT" />
    <tag k="ref:vcgi:esiteid" v="270096" />
  </node>
  <node id="-107" visible="true" lat="44.16066161" lon="-73.23418616">
    <tag k="addr:city" v="Waltham" />
    <tag k="addr:housenumber" v="150" />
    <tag k="addr:street" v="Crosby Heights" />
    <tag k="addr:state" v="VT" />
    <tag k="ref:vcgi:esiteid" v="270097" />
  </node>
  <node id="-108" visible="true" lat="44.16026919" lon="-73.23277832">
    <tag k="addr:city" v="Waltham" />
    <tag k="addr:housenumber" v="103" />
    <tag k="addr:street" v="Crosby Heights" />
    <tag k="addr:state" v="VT" />
    <tag k="ref:vcgi:esiteid" v="270098" />
  </node>
  <node id="-109" visible="true" lat="44.15995025" lon="-73.23046875">
    <tag k="addr:city" v="Waltham" />
    <tag k="addr:housenumber" v="26" />
    <tag k="addr:street" v="Woodman Court" />
    <tag k="addr:state" v="VT" />
    <tag k="ref:vcgi:esiteid" v="270099" />
  </node>
  <node id="-110" visible="true" lat="44.16013504" lon="-73.21976882">
    <tag k="addr:city" v="Waltham" />
    <tag k="addr:housenumber" v="808" />
    <tag k="addr:street" v="Plank Road" />
    <tag k="addr:state" v="VT" />
    <tag k="ref:vcgi:esiteid" v="270100" />
  </node>
  <node id="-111" visible="true" lat="44.1598777" lon="-73.2332597">
    <tag k="addr:city" v="Waltham" />
    <tag k="addr:housenumber" v="133" />
    <tag k="addr:street" v="Crosby Heights" />
    <tag k="addr:state" v="VT" />
    <tag k="ref:vcgi:esiteid" v="270101" />
  </node>
  <node id="-112" visible="true" lat="44.15951878" lon="-73.23347696">
    <tag k="addr:city" v="Waltham" />
    <tag k="addr:housenumber" v="153" />
    <tag k="addr:street" v="Crosby Heights" />
    <tag k="addr:state" v="VT" />
    <tag k="ref:vcgi:esiteid" v="270102" />
  </node>
  <node id="-113" visible="true" lat="44.15954208" lon="-73.23004913">
    <tag k="addr:city" v="Waltham" />
    <tag k="addr:housenumber" v="61" />
    <tag k="addr:street" v="Woodman Court" />
    <tag k="addr:state" v="VT" />
    <tag k="ref:vcgi:esiteid" v="270103" />
  </node>
  <node id="-114" visible="true" lat="44.15946464" lon="-73.23526516">
    <tag k="addr:city" v="Waltham" />
    <tag k="addr:housenumber" v="226" />
    <tag k="addr:street" v="Crosby Heights" />
    <tag k="addr:state" v="VT" />
    <tag k="ref:vcgi:esiteid" v="270104" />
  </node>
  <node id="-115" visible="true" lat="44.15920724" lon="-73.23411139">
    <tag k="addr:city" v="Waltham" />
    <tag k="addr:housenumber" v="177" />
    <tag k="addr:street" v="Crosby Heights" />
    <tag k="addr:state" v="VT" />
    <tag k="ref:vcgi:esiteid" v="270105" />
  </node>
  <node id="-116" visible="true" lat="44.1592377" lon="-73.22911305">
    <tag k="addr:city" v="Waltham" />
    <tag k="addr:housenumber" v="662" />
    <tag k="addr:street" v="U.S. Route 7" />
    <tag k="addr:state" v="VT" />
    <tag k="ref:vcgi:esiteid" v="270106" />
  </node>
  <node id="-117" visible="true" lat="44.15907287" lon="-73.23007202">
    <tag k="addr:city" v="Waltham" />
    <tag k="addr:housenumber" v="101" />
    <tag k="addr:street" v="Woodman Court" />
    <tag k="addr:state" v="VT" />
    <tag k="ref:vcgi:esiteid" v="270107" />
  </node>
  <node id="-118" visible="true" lat="44.15867996" lon="-73.2140274">
    <tag k="addr:city" v="Waltham" />
    <tag k="addr:housenumber" v="1111" />
    <tag k="addr:street" v="South Middlebrook Road" />
    <tag k="addr:state" v="VT" />
    <tag k="ref:vcgi:esiteid" v="270108" />
  </node>
  <node id="-119" visible="true" lat="44.1586302" lon="-73.2270982">
    <tag k="addr:city" v="Waltham" />
    <tag k="addr:housenumber" v="828" />
    <tag k="addr:street" v="U.S. Route 7" />
    <tag k="addr:state" v="VT" />
    <tag k="ref:vcgi:esiteid" v="270109" />
  </node>
  <node id="-120" visible="true" lat="44.15853756" lon="-73.23450174">
    <tag k="addr:city" v="Waltham" />
    <tag k="addr:housenumber" v="235" />
    <tag k="addr:street" v="Crosby Heights" />
    <tag k="addr:state" v="VT" />
    <tag k="ref:vcgi:esiteid" v="270110" />
  </node>
  <node id="-121" visible="true" lat="44.15859146" lon="-73.23585163">
    <tag k="addr:city" v="Waltham" />
    <tag k="addr:housenumber" v="294" />
    <tag k="addr:street" v="Crosby Heights" />
    <tag k="addr:state" v="VT" />
    <tag k="ref:vcgi:esiteid" v="270111" />
  </node>
  <node id="-122" visible="true" lat="44.15810775" lon="-73.225708">
    <tag k="addr:city" v="Waltham" />
    <tag k="addr:housenumber" v="862" />
    <tag k="addr:street" v="U.S. Route 7" />
    <tag k="addr:state" v="VT" />
    <tag k="ref:vcgi:esiteid" v="270112" />
  </node>
  <node id="-123" visible="true" lat="44.15757877" lon="-73.23628307">
    <tag k="addr:city" v="Waltham" />
    <tag k="addr:housenumber" v="334" />
    <tag k="addr:street" v="Crosby Heights" />
    <tag k="addr:state" v="VT" />
    <tag k="ref:vcgi:esiteid" v="270113" />
  </node>
  <node id="-124" visible="true" lat="44.15754314" lon="-73.216099">
    <tag k="addr:city" v="Waltham" />
    <tag k="addr:housenumber" v="1222" />
    <tag k="addr:street" v="South Middlebrook Road" />
    <tag k="addr:state" v="VT" />
    <tag k="ref:vcgi:esiteid" v="270114" />
  </node>
  <node id="-125" visible="true" lat="44.15700531" lon="-73.22528076">
    <tag k="addr:city" v="Waltham" />
    <tag k="addr:housenumber" v="908" />
    <tag k="addr:street" v="U.S. Route 7" />
    <tag k="addr:state" v="VT" />
    <tag k="ref:vcgi:esiteid" v="270115" />
  </node>
  <node id="-126" visible="true" lat="44.15664291" lon="-73.22514343">
    <tag k="addr:city" v="Waltham" />
    <tag k="addr:housenumber" v="936" />
    <tag k="addr:street" v="U.S. Route 7" />
    <tag k="addr:state" v="VT" />
    <tag k="ref:vcgi:esiteid" v="270116" />
  </node>
  <node id="-127" visible="true" lat="44.1566958" lon="-73.22110587">
    <tag k="addr:city" v="Waltham" />
    <tag k="addr:housenumber" v="1111" />
    <tag k="addr:street" v="U.S. Route 7" />
    <tag k="addr:state" v="VT" />
    <tag k="ref:vcgi:esiteid" v="270117" />
  </node>
  <node id="-128" visible="true" lat="44.15547794" lon="-73.21738428">
    <tag k="addr:city" v="Waltham" />
    <tag k="addr:housenumber" v="1382" />
    <tag k="addr:street" v="South Middlebrook Road" />
    <tag k="addr:state" v="VT" />
    <tag k="ref:vcgi:esiteid" v="270118" />
  </node>
  <node id="-129" visible="true" lat="44.15501463" lon="-73.22114883">
    <tag k="addr:city" v="Waltham" />
    <tag k="addr:housenumber" v="1292" />
    <tag k="addr:street" v="U.S. Route 7" />
    <tag k="addr:state" v="VT" />
    <tag k="ref:vcgi:esiteid" v="270119" />
  </node>
  <node id="-130" visible="true" lat="44.1549263" lon="-73.22451782">
    <tag k="addr:city" v="Waltham" />
    <tag k="addr:housenumber" v="1044" />
    <tag k="addr:street" v="U.S. Route 7" />
    <tag k="addr:state" v="VT" />
    <tag k="ref:vcgi:esiteid" v="270120" />
  </node>
  <node id="-131" visible="true" lat="44.1546437" lon="-73.24257312">
    <tag k="addr:city" v="Waltham" />
    <tag k="addr:housenumber" v="207" />
    <tag k="addr:street" v="Shorewood Road" />
    <tag k="addr:state" v="VT" />
    <tag k="ref:vcgi:esiteid" v="270121" />
  </node>
  <node id="-132" visible="true" lat="44.15455363" lon="-73.24820957">
    <tag k="addr:city" v="Waltham" />
    <tag k="addr:housenumber" v="34" />
    <tag k="addr:street" v="McKnight Lane" />
    <tag k="addr:state" v="VT" />
    <tag k="ref:vcgi:esiteid" v="270122" />
  </node>
  <node id="-133" visible="true" lat="44.15447933" lon="-73.24821001">
    <tag k="addr:city" v="Waltham" />
    <tag k="addr:housenumber" v="32" />
    <tag k="addr:street" v="McKnight Lane" />
    <tag k="addr:state" v="VT" />
    <tag k="ref:vcgi:esiteid" v="270123" />
  </node>
  <node id="-134" visible="true" lat="44.15457209" lon="-73.24792602">
    <tag k="addr:city" v="Waltham" />
    <tag k="addr:housenumber" v="22" />
    <tag k="addr:street" v="McKnight Lane" />
    <tag k="addr:state" v="VT" />
    <tag k="ref:vcgi:esiteid" v="270124" />
  </node>
  <node id="-135" visible="true" lat="44.15448744" lon="-73.24791516">
    <tag k="addr:city" v="Waltham" />
    <tag k="addr:housenumber" v="20" />
    <tag k="addr:street" v="McKnight Lane" />
    <tag k="addr:state" v="VT" />
    <tag k="ref:vcgi:esiteid" v="270125" />
  </node>
  <node id="-136" visible="true" lat="44.15458428" lon="-73.24766317">
    <tag k="addr:city" v="Waltham" />
    <tag k="addr:housenumber" v="10" />
    <tag k="addr:street" v="McKnight Lane" />
    <tag k="addr:state" v="VT" />
    <tag k="ref:vcgi:esiteid" v="270126" />
  </node>
  <node id="-137" visible="true" lat="44.15450256" lon="-73.24765135">
    <tag k="addr:city" v="Waltham" />
    <tag k="addr:housenumber" v="8" />
    <tag k="addr:street" v="McKnight Lane" />
    <tag k="addr:state" v="VT" />
    <tag k="ref:vcgi:esiteid" v="270127" />
  </node>
  <node id="-138" visible="true" lat="44.15438033" lon="-73.23884245">
    <tag k="addr:city" v="Waltham" />
    <tag k="addr:housenumber" v="946" />
    <tag k="addr:street" v="Green Street" />
    <tag k="addr:state" v="VT" />
    <tag k="ref:vcgi:esiteid" v="270128" />
  </node>
  <node id="-139" visible="true" lat="44.15427919" lon="-73.24867469">
    <tag k="addr:city" v="Waltham" />
    <tag k="addr:housenumber" v="57" />
    <tag k="addr:street" v="McKnight Lane" />
    <tag k="addr:state" v="VT" />
    <tag k="ref:vcgi:esiteid" v="270129" />
  </node>
  <node id="-140" visible="true" lat="44.15436721" lon="-73.24864084">
    <tag k="addr:city" v="Waltham" />
    <tag k="addr:housenumber" v="55" />
    <tag k="addr:street" v="McKnight Lane" />
    <tag k="addr:state" v="VT" />
    <tag k="ref:vcgi:esiteid" v="270130" />
  </node>
  <node id="-141" visible="true" lat="44.15422233" lon="-73.2483692">
    <tag k="addr:city" v="Waltham" />
    <tag k="addr:housenumber" v="43" />
    <tag k="addr:street" v="McKnight Lane" />
    <tag k="addr:state" v="VT" />
    <tag k="ref:vcgi:esiteid" v="270131" />
  </node>
  <node id="-142" visible="true" lat="44.15417809" lon="-73.24803663">
    <tag k="addr:city" v="Waltham" />
    <tag k="addr:housenumber" v="25" />
    <tag k="addr:street" v="McKnight Lane" />
    <tag k="addr:state" v="VT" />
    <tag k="ref:vcgi:esiteid" v="270132" />
  </node>
  <node id="-143" visible="true" lat="44.15432719" lon="-73.24834482">
    <tag k="addr:city" v="Waltham" />
    <tag k="addr:housenumber" v="41" />
    <tag k="addr:street" v="McKnight Lane" />
    <tag k="addr:state" v="VT" />
    <tag k="ref:vcgi:esiteid" v="270133" />
  </node>
  <node id="-144" visible="true" lat="44.154148" lon="-73.24768961">
    <tag k="addr:city" v="Waltham" />
    <tag k="addr:housenumber" v="9" />
    <tag k="addr:street" v="McKnight Lane" />
    <tag k="addr:state" v="VT" />
    <tag k="ref:vcgi:esiteid" v="270134" />
  </node>
  <node id="-145" visible="true" lat="44.15428302" lon="-73.24800131">
    <tag k="addr:city" v="Waltham" />
    <tag k="addr:housenumber" v="23" />
    <tag k="addr:street" v="McKnight Lane" />
    <tag k="addr:state" v="VT" />
    <tag k="ref:vcgi:esiteid" v="270135" />
  </node>
  <node id="-146" visible="true" lat="44.15424175" lon="-73.24766336">
    <tag k="addr:city" v="Waltham" />
    <tag k="addr:housenumber" v="7" />
    <tag k="addr:street" v="McKnight Lane" />
    <tag k="addr:state" v="VT" />
    <tag k="ref:vcgi:esiteid" v="270136" />
  </node>
  <node id="-147" visible="true" lat="44.15416145" lon="-73.21941453">
    <tag k="addr:city" v="Waltham" />
    <tag k="addr:housenumber" v="1344" />
    <tag k="addr:street" v="U.S. Route 7" />
    <tag k="addr:state" v="VT" />
    <tag k="ref:vcgi:esiteid" v="270137" />
  </node>
  <node id="-148" visible="true" lat="44.15390426" lon="-73.24689884">
    <tag k="addr:city" v="Waltham" />
    <tag k="addr:housenumber" v="427" />
    <tag k="addr:street" v="Maple Street" />
    <tag k="addr:state" v="VT" />
    <tag k="ref:vcgi:esiteid" v="270138" />
  </node>
  <node id="-149" visible="true" lat="44.15390369" lon="-73.24057679">
    <tag k="addr:city" v="Waltham" />
    <tag k="addr:housenumber" v="106" />
    <tag k="addr:street" v="Pine Oak Park" />
    <tag k="addr:state" v="VT" />
    <tag k="ref:vcgi:esiteid" v="270139" />
  </node>
  <node id="-150" visible="true" lat="44.15367662" lon="-73.2478124">
    <tag k="addr:city" v="Waltham" />
    <tag k="addr:housenumber" v="438" />
    <tag k="addr:street" v="Maple Street" />
    <tag k="addr:state" v="VT" />
    <tag k="ref:vcgi:esiteid" v="270140" />
  </node>
  <node id="-151" visible="true" lat="44.15352249" lon="-73.23801422">
    <tag k="addr:city" v="Waltham" />
    <tag k="addr:housenumber" v="1012" />
    <tag k="addr:street" v="Green Street" />
    <tag k="addr:state" v="VT" />
    <tag k="ref:vcgi:esiteid" v="270141" />
  </node>
  <node id="-152" visible="true" lat="44.15356615" lon="-73.21899157">
    <tag k="addr:city" v="Waltham" />
    <tag k="addr:housenumber" v="1548" />
    <tag k="addr:street" v="South Middlebrook Road" />
    <tag k="addr:state" v="VT" />
    <tag k="ref:vcgi:esiteid" v="270142" />
  </node>
  <node id="-153" visible="true" lat="44.15302658" lon="-73.23713684">
    <tag k="addr:city" v="Waltham" />
    <tag k="addr:housenumber" v="1058" />
    <tag k="addr:street" v="Green Street" />
    <tag k="addr:state" v="VT" />
    <tag k="ref:vcgi:esiteid" v="270143" />
  </node>
  <node id="-154" visible="true" lat="44.15292685" lon="-73.24130668">
    <tag k="addr:city" v="Waltham" />
    <tag k="addr:housenumber" v="69" />
    <tag k="addr:street" v="Shorewood Road" />
    <tag k="addr:state" v="VT" />
    <tag k="ref:vcgi:esiteid" v="270144" />
  </node>
  <node id="-155" visible="true" lat="44.15275913" lon="-73.23500814">
    <tag k="addr:city" v="Waltham" />
    <tag k="addr:housenumber" v="1147" />
    <tag k="addr:street" v="Green Street" />
    <tag k="addr:state" v="VT" />
    <tag k="ref:vcgi:esiteid" v="270145" />
  </node>
  <node id="-156" visible="true" lat="44.15280223" lon="-73.2341561">
    <tag k="addr:city" v="Waltham" />
    <tag k="addr:housenumber" v="1237" />
    <tag k="addr:street" v="Green Street" />
    <tag k="addr:state" v="VT" />
    <tag k="ref:vcgi:esiteid" v="270146" />
  </node>
  <node id="-157" visible="true" lat="44.15272239" lon="-73.23655436">
    <tag k="addr:city" v="Waltham" />
    <tag k="addr:housenumber" v="1110" />
    <tag k="addr:street" v="Green Street" />
    <tag k="addr:state" v="VT" />
    <tag k="ref:vcgi:esiteid" v="270147" />
  </node>
  <node id="-158" visible="true" lat="44.15209047" lon="-73.24355412">
    <tag k="addr:city" v="Waltham" />
    <tag k="addr:housenumber" v="591" />
    <tag k="addr:street" v="Maple Street" />
    <tag k="addr:state" v="VT" />
    <tag k="ref:vcgi:esiteid" v="270148" />
  </node>
  <node id="-159" visible="true" lat="44.1524607" lon="-73.23345427">
    <tag k="addr:city" v="Waltham" />
    <tag k="addr:housenumber" v="1245" />
    <tag k="addr:street" v="Green Street" />
    <tag k="addr:state" v="VT" />
    <tag k="ref:vcgi:esiteid" v="270149" />
  </node>
  <node id="-160" visible="true" lat="44.15254691" lon="-73.2191701">
    <tag k="addr:city" v="Waltham" />
    <tag k="addr:housenumber" v="1608" />
    <tag k="addr:street" v="South Middlebrook Road" />
    <tag k="addr:state" v="VT" />
    <tag k="ref:vcgi:esiteid" v="270150" />
  </node>
  <node id="-161" visible="true" lat="44.15223013" lon="-73.24758498">
    <tag k="addr:city" v="Waltham" />
    <tag k="addr:housenumber" v="564" />
    <tag k="addr:street" v="Maple Street" />
    <tag k="addr:state" v="VT" />
    <tag k="ref:vcgi:esiteid" v="270151" />
  </node>
  <node id="-162" visible="true" lat="44.15182791" lon="-73.24012921">
    <tag k="addr:city" v="Waltham" />
    <tag k="addr:housenumber" v="192" />
    <tag k="addr:street" v="Pine Oak Park" />
    <tag k="addr:state" v="VT" />
    <tag k="ref:vcgi:esiteid" v="270152" />
  </node>
  <node id="-163" visible="true" lat="44.15131403" lon="-73.23506063">
    <tag k="addr:city" v="Waltham" />
    <tag k="addr:housenumber" v="1202" />
    <tag k="addr:street" v="Green Street" />
    <tag k="addr:state" v="VT" />
    <tag k="ref:vcgi:esiteid" v="270153" />
  </node>
  <node id="-164" visible="true" lat="44.15107323" lon="-73.23330702">
    <tag k="addr:city" v="Waltham" />
    <tag k="addr:housenumber" v="1265" />
    <tag k="addr:street" v="Green Street" />
    <tag k="addr:state" v="VT" />
    <tag k="ref:vcgi:esiteid" v="270154" />
  </node>
  <node id="-165" visible="true" lat="44.15120653" lon="-73.23822946">
    <tag k="addr:city" v="Waltham" />
    <tag k="addr:housenumber" v="335" />
    <tag k="addr:street" v="Pine Oak Park" />
    <tag k="addr:state" v="VT" />
    <tag k="ref:vcgi:esiteid" v="270155" />
  </node>
  <node id="-166" visible="true" lat="44.15106156" lon="-73.23411738">
    <tag k="addr:city" v="Waltham" />
    <tag k="addr:housenumber" v="16" />
    <tag k="addr:street" v="High Manor Park" />
    <tag k="addr:state" v="VT" />
    <tag k="ref:vcgi:esiteid" v="270156" />
  </node>
  <node id="-167" visible="true" lat="44.15122481" lon="-73.24510473">
    <tag k="addr:city" v="Waltham" />
    <tag k="addr:housenumber" v="657" />
    <tag k="addr:street" v="Maple Street" />
    <tag k="addr:state" v="VT" />
    <tag k="ref:vcgi:esiteid" v="270157" />
  </node>
  <node id="-168" visible="true" lat="44.15088627" lon="-73.23414251">
    <tag k="addr:city" v="Waltham" />
    <tag k="addr:housenumber" v="28" />
    <tag k="addr:street" v="High Manor Park" />
    <tag k="addr:state" v="VT" />
    <tag k="ref:vcgi:esiteid" v="270158" />
  </node>
  <node id="-169" visible="true" lat="44.1507519" lon="-73.2451642">
    <tag k="addr:city" v="Waltham" />
    <tag k="addr:housenumber" v="659" />
    <tag k="addr:street" v="Maple Street" />
    <tag k="addr:state" v="VT" />
    <tag k="ref:vcgi:esiteid" v="270159" />
  </node>
  <node id="-170" visible="true" lat="44.1507932" lon="-73.23369344">
    <tag k="addr:city" v="Waltham" />
    <tag k="addr:housenumber" v="33" />
    <tag k="addr:street" v="High Manor Park" />
    <tag k="addr:state" v="VT" />
    <tag k="ref:vcgi:esiteid" v="270160" />
  </node>
  <node id="-171" visible="true" lat="44.15072652" lon="-73.23415352">
    <tag k="addr:city" v="Waltham" />
    <tag k="addr:housenumber" v="40" />
    <tag k="addr:street" v="High Manor Park" />
    <tag k="addr:state" v="VT" />
    <tag k="ref:vcgi:esiteid" v="270161" />
  </node>
  <node id="-172" visible="true" lat="44.15057646" lon="-73.23419418">
    <tag k="addr:city" v="Waltham" />
    <tag k="addr:housenumber" v="50" />
    <tag k="addr:street" v="High Manor Park" />
    <tag k="addr:state" v="VT" />
    <tag k="ref:vcgi:esiteid" v="270162" />
  </node>
  <node id="-173" visible="true" lat="44.15052085" lon="-73.23370977">
    <tag k="addr:city" v="Waltham" />
    <tag k="addr:housenumber" v="55" />
    <tag k="addr:street" v="High Manor Park" />
    <tag k="addr:state" v="VT" />
    <tag k="ref:vcgi:esiteid" v="270163" />
  </node>
  <node id="-174" visible="true" lat="44.15039868" lon="-73.23421601">
    <tag k="addr:city" v="Waltham" />
    <tag k="addr:housenumber" v="62" />
    <tag k="addr:street" v="High Manor Park" />
    <tag k="addr:state" v="VT" />
    <tag k="ref:vcgi:esiteid" v="270164" />
  </node>
  <node id="-175" visible="true" lat="44.1502858" lon="-73.24580088">
    <tag k="addr:city" v="Waltham" />
    <tag k="addr:housenumber" v="681" />
    <tag k="addr:street" v="Maple Street" />
    <tag k="addr:state" v="VT" />
    <tag k="ref:vcgi:esiteid" v="270165" />
  </node>
  <node id="-176" visible="true" lat="44.15021547" lon="-73.23373695">
    <tag k="addr:city" v="Waltham" />
    <tag k="addr:housenumber" v="73" />
    <tag k="addr:street" v="High Manor Park" />
    <tag k="addr:state" v="VT" />
    <tag k="ref:vcgi:esiteid" v="270166" />
  </node>
  <node id="-177" visible="true" lat="44.15023418" lon="-73.23422125">
    <tag k="addr:city" v="Waltham" />
    <tag k="addr:housenumber" v="80" />
    <tag k="addr:street" v="High Manor Park" />
    <tag k="addr:state" v="VT" />
    <tag k="ref:vcgi:esiteid" v="270167" />
  </node>
  <node id="-178" visible="true" lat="44.1500815" lon="-73.23425495">
    <tag k="addr:city" v="Waltham" />
    <tag k="addr:housenumber" v="86" />
    <tag k="addr:street" v="High Manor Park" />
    <tag k="addr:state" v="VT" />
    <tag k="ref:vcgi:esiteid" v="270168" />
  </node>
  <node id="-179" visible="true" lat="44.14991593" lon="-73.23466954">
    <tag k="addr:city" v="Waltham" />
    <tag k="addr:housenumber" v="230" />
    <tag k="addr:street" v="High Manor Park" />
    <tag k="addr:state" v="VT" />
    <tag k="ref:vcgi:esiteid" v="270169" />
  </node>
  <node id="-180" visible="true" lat="44.14993768" lon="-73.23493986">
    <tag k="addr:city" v="Waltham" />
    <tag k="addr:housenumber" v="222" />
    <tag k="addr:street" v="High Manor Park" />
    <tag k="addr:state" v="VT" />
    <tag k="ref:vcgi:esiteid" v="270170" />
  </node>
  <node id="-181" visible="true" lat="44.1499861" lon="-73.23377179">
    <tag k="addr:city" v="Waltham" />
    <tag k="addr:housenumber" v="93" />
    <tag k="addr:street" v="High Manor Park" />
    <tag k="addr:state" v="VT" />
    <tag k="ref:vcgi:esiteid" v="270171" />
  </node>
  <node id="-182" visible="true" lat="44.14983913" lon="-73.2471808">
    <tag k="addr:city" v="Waltham" />
    <tag k="addr:housenumber" v="724" />
    <tag k="addr:street" v="Maple Street" />
    <tag k="addr:state" v="VT" />
    <tag k="ref:vcgi:esiteid" v="270172" />
  </node>
  <node id="-183" visible="true" lat="44.14992662" lon="-73.23426002">
    <tag k="addr:city" v="Waltham" />
    <tag k="addr:housenumber" v="96" />
    <tag k="addr:street" v="High Manor Park" />
    <tag k="addr:state" v="VT" />
    <tag k="ref:vcgi:esiteid" v="270173" />
  </node>
  <node id="-184" visible="true" lat="44.14956781" lon="-73.23381542">
    <tag k="addr:city" v="Waltham" />
    <tag k="addr:housenumber" v="103" />
    <tag k="addr:street" v="High Manor Park" />
    <tag k="addr:state" v="VT" />
    <tag k="ref:vcgi:esiteid" v="270174" />
  </node>
  <node id="-185" visible="true" lat="44.14974827" lon="-73.23428006">
    <tag k="addr:city" v="Waltham" />
    <tag k="addr:housenumber" v="108" />
    <tag k="addr:street" v="High Manor Park" />
    <tag k="addr:state" v="VT" />
    <tag k="ref:vcgi:esiteid" v="270175" />
  </node>
  <node id="-186" visible="true" lat="44.14966289" lon="-73.23485577">
    <tag k="addr:city" v="Waltham" />
    <tag k="addr:housenumber" v="164" />
    <tag k="addr:street" v="High Manor Park" />
    <tag k="addr:state" v="VT" />
    <tag k="ref:vcgi:esiteid" v="270176" />
  </node>
  <node id="-187" visible="true" lat="44.14964089" lon="-73.23457276">
    <tag k="addr:city" v="Waltham" />
    <tag k="addr:housenumber" v="148" />
    <tag k="addr:street" v="High Manor Park" />
    <tag k="addr:state" v="VT" />
    <tag k="ref:vcgi:esiteid" v="270177" />
  </node>
  <node id="-188" visible="true" lat="44.14955139" lon="-73.22042083">
    <tag k="addr:city" v="Waltham" />
    <tag k="addr:housenumber" v="1814" />
    <tag k="addr:street" v="South Middlebrook Road" />
    <tag k="addr:state" v="VT" />
    <tag k="ref:vcgi:esiteid" v="270178" />
  </node>
  <node id="-189" visible="true" lat="44.14957305" lon="-73.23427853">
    <tag k="addr:city" v="Waltham" />
    <tag k="addr:housenumber" v="120" />
    <tag k="addr:street" v="High Manor Park" />
    <tag k="addr:state" v="VT" />
    <tag k="ref:vcgi:esiteid" v="270179" />
  </node>
  <node id="-190" visible="true" lat="44.14930378" lon="-73.23506912">
    <tag k="addr:city" v="Waltham" />
    <tag k="addr:housenumber" v="175" />
    <tag k="addr:street" v="High Manor Park" />
    <tag k="addr:state" v="VT" />
    <tag k="ref:vcgi:esiteid" v="270180" />
  </node>
  <node id="-191" visible="true" lat="44.14929459" lon="-73.23482652">
    <tag k="addr:city" v="Waltham" />
    <tag k="addr:housenumber" v="163" />
    <tag k="addr:street" v="High Manor Park" />
    <tag k="addr:state" v="VT" />
    <tag k="ref:vcgi:esiteid" v="270181" />
  </node>
  <node id="-192" visible="true" lat="44.14929203" lon="-73.23457829">
    <tag k="addr:city" v="Waltham" />
    <tag k="addr:housenumber" v="149" />
    <tag k="addr:street" v="High Manor Park" />
    <tag k="addr:state" v="VT" />
    <tag k="ref:vcgi:esiteid" v="270182" />
  </node>
  <node id="-193" visible="true" lat="44.14927972" lon="-73.23430253">
    <tag k="addr:city" v="Waltham" />
    <tag k="addr:housenumber" v="137" />
    <tag k="addr:street" v="High Manor Park" />
    <tag k="addr:state" v="VT" />
    <tag k="ref:vcgi:esiteid" v="270183" />
  </node>
  <node id="-194" visible="true" lat="44.14917183" lon="-73.24598049">
    <tag k="addr:city" v="Waltham" />
    <tag k="addr:housenumber" v="783" />
    <tag k="addr:street" v="Maple Street" />
    <tag k="addr:state" v="VT" />
    <tag k="ref:vcgi:esiteid" v="270184" />
  </node>
  <node id="-195" visible="true" lat="44.14897803" lon="-73.23033441">
    <tag k="addr:city" v="Waltham" />
    <tag k="addr:housenumber" v="1511" />
    <tag k="addr:street" v="Green Street" />
    <tag k="addr:state" v="VT" />
    <tag k="ref:vcgi:esiteid" v="270185" />
  </node>
  <node id="-196" visible="true" lat="44.14863869" lon="-73.24697816">
    <tag k="addr:city" v="Waltham" />
    <tag k="addr:housenumber" v="788" />
    <tag k="addr:street" v="Maple Street" />
    <tag k="addr:state" v="VT" />
    <tag k="ref:vcgi:esiteid" v="270186" />
  </node>
  <node id="-197" visible="true" lat="44.14865022" lon="-73.23448585">
    <tag k="addr:city" v="Waltham" />
    <tag k="addr:housenumber" v="125" />
    <tag k="addr:street" v="High Manor Park" />
    <tag k="addr:state" v="VT" />
    <tag k="ref:vcgi:esiteid" v="270187" />
  </node>
  <node id="-198" visible="true" lat="44.14755388" lon="-73.24127573">
    <tag k="addr:city" v="Waltham" />
    <tag k="addr:housenumber" v="897" />
    <tag k="addr:street" v="Maple Street" />
    <tag k="addr:state" v="VT" />
    <tag k="ref:vcgi:esiteid" v="270188" />
  </node>
  <node id="-199" visible="true" lat="44.1473999" lon="-73.22824096">
    <tag k="addr:city" v="Waltham" />
    <tag k="addr:housenumber" v="1643" />
    <tag k="addr:street" v="Green Street" />
    <tag k="addr:state" v="VT" />
    <tag k="ref:vcgi:esiteid" v="270189" />
  </node>
  <node id="-200" visible="true" lat="44.14732321" lon="-73.24672905">
    <tag k="addr:city" v="Waltham" />
    <tag k="addr:housenumber" v="906" />
    <tag k="addr:street" v="Maple Street" />
    <tag k="addr:state" v="VT" />
    <tag k="ref:vcgi:esiteid" v="270190" />
  </node>
  <node id="-201" visible="true" lat="44.14717483" lon="-73.23223113">
    <tag k="addr:city" v="Waltham" />
    <tag k="addr:housenumber" v="191" />
    <tag k="addr:street" v="Rabbit Run" />
    <tag k="addr:state" v="VT" />
    <tag k="ref:vcgi:esiteid" v="270191" />
  </node>
  <node id="-202" visible="true" lat="44.14719009" lon="-73.22076416">
    <tag k="addr:city" v="Waltham" />
    <tag k="addr:housenumber" v="2006" />
    <tag k="addr:street" v="South Middlebrook Road" />
    <tag k="addr:state" v="VT" />
    <tag k="ref:vcgi:esiteid" v="270192" />
  </node>
  <node id="-203" visible="true" lat="44.14698791" lon="-73.22922515">
    <tag k="addr:city" v="Waltham" />
    <tag k="addr:housenumber" v="17" />
    <tag k="addr:street" v="Rabbit Run" />
    <tag k="addr:state" v="VT" />
    <tag k="ref:vcgi:esiteid" v="270193" />
  </node>
  <node id="-204" visible="true" lat="44.14673138" lon="-73.24581076">
    <tag k="addr:city" v="Waltham" />
    <tag k="addr:housenumber" v="949" />
    <tag k="addr:street" v="Maple Street" />
    <tag k="addr:state" v="VT" />
    <tag k="ref:vcgi:esiteid" v="270194" />
  </node>
  <node id="-205" visible="true" lat="44.14656448" lon="-73.2312088">
    <tag k="addr:city" v="Waltham" />
    <tag k="addr:housenumber" v="119" />
    <tag k="addr:street" v="Rabbit Run" />
    <tag k="addr:state" v="VT" />
    <tag k="ref:vcgi:esiteid" v="270195" />
  </node>
  <node id="-206" visible="true" lat="44.1465079" lon="-73.22835368">
    <tag k="addr:city" v="Waltham" />
    <tag k="addr:housenumber" v="1680" />
    <tag k="addr:street" v="Green Street" />
    <tag k="addr:state" v="VT" />
    <tag k="ref:vcgi:esiteid" v="270196" />
  </node>
  <node id="-207" visible="true" lat="44.14639663" lon="-73.22863769">
    <tag k="addr:city" v="Waltham" />
    <tag k="addr:housenumber" v="1678" />
    <tag k="addr:street" v="Green Street" />
    <tag k="addr:state" v="VT" />
    <tag k="ref:vcgi:esiteid" v="270197" />
  </node>
  <node id="-208" visible="true" lat="44.14637463" lon="-73.24599353">
    <tag k="addr:city" v="Waltham" />
    <tag k="addr:housenumber" v="945" />
    <tag k="addr:street" v="Maple Street" />
    <tag k="addr:state" v="VT" />
    <tag k="ref:vcgi:esiteid" v="270198" />
  </node>
  <node id="-209" visible="true" lat="44.14640434" lon="-73.21995553">
    <tag k="addr:city" v="Waltham" />
    <tag k="addr:housenumber" v="2073" />
    <tag k="addr:street" v="South Middlebrook Road" />
    <tag k="addr:state" v="VT" />
    <tag k="ref:vcgi:esiteid" v="270199" />
  </node>
  <node id="-210" visible="true" lat="44.14381847" lon="-73.22878216">
    <tag k="addr:city" v="Waltham" />
    <tag k="addr:housenumber" v="1750" />
    <tag k="addr:street" v="Green Street" />
    <tag k="addr:state" v="VT" />
    <tag k="ref:vcgi:esiteid" v="270200" />
  </node>
  <node id="-211" visible="true" lat="44.14525222" lon="-73.24201202">
    <tag k="addr:city" v="Waltham" />
    <tag k="addr:housenumber" v="1057" />
    <tag k="addr:street" v="Maple Street" />
    <tag k="addr:state" v="VT" />
    <tag k="ref:vcgi:esiteid" v="270201" />
  </node>
  <node id="-212" visible="true" lat="44.14451824" lon="-73.24568258">
    <tag k="addr:city" v="Waltham" />
    <tag k="addr:housenumber" v="1087" />
    <tag k="addr:street" v="Maple Street" />
    <tag k="addr:state" v="VT" />
    <tag k="ref:vcgi:esiteid" v="270202" />
  </node>
  <node id="-213" visible="true" lat="44.14474869" lon="-73.22241211">
    <tag k="addr:city" v="Waltham" />
    <tag k="addr:housenumber" v="2192" />
    <tag k="addr:street" v="South Middlebrook Road" />
    <tag k="addr:state" v="VT" />
    <tag k="ref:vcgi:esiteid" v="270203" />
  </node>
  <node id="-214" visible="true" lat="44.14422607" lon="-73.22129058">
    <tag k="addr:city" v="Waltham" />
    <tag k="addr:housenumber" v="2169" />
    <tag k="addr:street" v="South Middlebrook Road" />
    <tag k="addr:state" v="VT" />
    <tag k="ref:vcgi:esiteid" v="270204" />
  </node>
  <node id="-215" visible="true" lat="44.14388275" lon="-73.21858978">
    <tag k="addr:city" v="Waltham" />
    <tag k="addr:housenumber" v="169" />
    <tag k="addr:street" v="Monroe Way" />
    <tag k="addr:state" v="VT" />
    <tag k="ref:vcgi:esiteid" v="270205" />
  </node>
  <node id="-216" visible="true" lat="44.14310836" lon="-73.22203826">
    <tag k="addr:city" v="Waltham" />
    <tag k="addr:housenumber" v="6" />
    <tag k="addr:street" v="Monroe Way" />
    <tag k="addr:state" v="VT" />
    <tag k="ref:vcgi:esiteid" v="270206" />
  </node>
  <node id="-217" visible="true" lat="44.14274307" lon="-73.24566386">
    <tag k="addr:city" v="Waltham" />
    <tag k="addr:housenumber" v="1261" />
    <tag k="addr:street" v="Maple Street" />
    <tag k="addr:state" v="VT" />
    <tag k="ref:vcgi:esiteid" v="270207" />
  </node>
  <node id="-218" visible="true" lat="44.14273834" lon="-73.21878051">
    <tag k="addr:city" v="Waltham" />
    <tag k="addr:housenumber" v="190" />
    <tag k="addr:street" v="Monroe Way" />
    <tag k="addr:state" v="VT" />
    <tag k="ref:vcgi:esiteid" v="270208" />
  </node>
  <node id="-219" visible="true" lat="44.14268215" lon="-73.22540299">
    <tag k="addr:city" v="Waltham" />
    <tag k="addr:housenumber" v="2098" />
    <tag k="addr:street" v="Green Street" />
    <tag k="addr:state" v="VT" />
    <tag k="ref:vcgi:esiteid" v="270209" />
  </node>
  <node id="-220" visible="true" lat="44.14145576" lon="-73.24297186">
    <tag k="addr:city" v="Waltham" />
    <tag k="addr:housenumber" v="1200" />
    <tag k="addr:street" v="Route 66" />
    <tag k="addr:state" v="VT" />
    <tag k="ref:vcgi:esiteid" v="270210" />
  </node>
  <node id="-221" visible="true" lat="44.14150381" lon="-73.22099722">
    <tag k="addr:city" v="Waltham" />
    <tag k="addr:housenumber" v="2191" />
    <tag k="addr:street" v="Green Street" />
    <tag k="addr:state" v="VT" />
    <tag k="ref:vcgi:esiteid" v="270212" />
  </node>
  <node id="-222" visible="true" lat="44.14126205" lon="-73.22846221">
    <tag k="addr:city" v="Waltham" />
    <tag k="addr:housenumber" v="500" />
    <tag k="addr:street" v="Route 66" />
    <tag k="addr:state" v="VT" />
    <tag k="ref:vcgi:esiteid" v="270213" />
  </node>
  <node id="-223" visible="true" lat="44.141241" lon="-73.23752201">
    <tag k="addr:city" v="Waltham" />
    <tag k="addr:housenumber" v="918" />
    <tag k="addr:street" v="Route 66" />
    <tag k="addr:state" v="VT" />
    <tag k="ref:vcgi:esiteid" v="270214" />
  </node>
  <node id="-224" visible="true" lat="44.14097976" lon="-73.22865295">
    <tag k="addr:city" v="Waltham" />
    <tag k="addr:housenumber" v="498" />
    <tag k="addr:street" v="Route 66" />
    <tag k="addr:state" v="VT" />
    <tag k="ref:vcgi:esiteid" v="270215" />
  </node>
  <node id="-225" visible="true" lat="44.14045426" lon="-73.24518865">
    <tag k="addr:city" v="Waltham" />
    <tag k="addr:housenumber" v="1379" />
    <tag k="addr:street" v="Maple Street" />
    <tag k="addr:state" v="VT" />
    <tag k="ref:vcgi:esiteid" v="270216" />
  </node>
  <node id="-226" visible="true" lat="44.14031495" lon="-73.23751705">
    <tag k="addr:city" v="Waltham" />
    <tag k="addr:housenumber" v="916" />
    <tag k="addr:street" v="Route 66" />
    <tag k="addr:state" v="VT" />
    <tag k="ref:vcgi:esiteid" v="270217" />
  </node>
  <node id="-227" visible="true" lat="44.14051108" lon="-73.21835517">
    <tag k="addr:city" v="Waltham" />
    <tag k="addr:housenumber" v="119" />
    <tag k="addr:street" v="Moonlit Meadows" />
    <tag k="addr:state" v="VT" />
    <tag k="ref:vcgi:esiteid" v="270218" />
  </node>
  <node id="-228" visible="true" lat="44.13999686" lon="-73.24171638">
    <tag k="addr:city" v="Waltham" />
    <tag k="addr:housenumber" v="1161" />
    <tag k="addr:street" v="Route 66" />
    <tag k="addr:state" v="VT" />
    <tag k="ref:vcgi:esiteid" v="270219" />
  </node>
  <node id="-229" visible="true" lat="44.13984551" lon="-73.2405956">
    <tag k="addr:city" v="Waltham" />
    <tag k="addr:housenumber" v="1099" />
    <tag k="addr:street" v="Route 66" />
    <tag k="addr:state" v="VT" />
    <tag k="ref:vcgi:esiteid" v="270220" />
  </node>
  <node id="-230" visible="true" lat="44.1397395" lon="-73.24617838">
    <tag k="addr:city" v="Waltham" />
    <tag k="addr:housenumber" v="1410" />
    <tag k="addr:street" v="Maple Street" />
    <tag k="addr:state" v="VT" />
    <tag k="ref:vcgi:esiteid" v="270221" />
  </node>
  <node id="-231" visible="true" lat="44.13961527" lon="-73.22545323">
    <tag k="addr:city" v="Waltham" />
    <tag k="addr:housenumber" v="306" />
    <tag k="addr:street" v="Route 66" />
    <tag k="addr:state" v="VT" />
    <tag k="ref:vcgi:esiteid" v="270222" />
  </node>
  <node id="-232" visible="true" lat="44.1393013" lon="-73.23469543">
    <tag k="addr:city" v="Waltham" />
    <tag k="addr:housenumber" v="821" />
    <tag k="addr:street" v="Route 66" />
    <tag k="addr:state" v="VT" />
    <tag k="ref:vcgi:esiteid" v="270223" />
  </node>
  <node id="-233" visible="true" lat="44.13921356" lon="-73.22676086">
    <tag k="addr:city" v="Waltham" />
    <tag k="addr:housenumber" v="388" />
    <tag k="addr:street" v="Route 66" />
    <tag k="addr:state" v="VT" />
    <tag k="ref:vcgi:esiteid" v="270224" />
  </node>
  <node id="-234" visible="true" lat="44.13906203" lon="-73.21350976">
    <tag k="addr:city" v="Waltham" />
    <tag k="addr:housenumber" v="333" />
    <tag k="addr:street" v="Schoolhouse Road" />
    <tag k="addr:state" v="VT" />
    <tag k="ref:vcgi:esiteid" v="270225" />
  </node>
  <node id="-235" visible="true" lat="44.13880787" lon="-73.21302767">
    <tag k="addr:city" v="Waltham" />
    <tag k="addr:housenumber" v="320" />
    <tag k="addr:street" v="Schoolhouse Road" />
    <tag k="addr:state" v="VT" />
    <tag k="ref:vcgi:esiteid" v="270226" />
  </node>
  <node id="-236" visible="true" lat="44.13843914" lon="-73.24533827">
    <tag k="addr:city" v="Waltham" />
    <tag k="addr:housenumber" v="1522" />
    <tag k="addr:street" v="Maple Street" />
    <tag k="addr:state" v="VT" />
    <tag k="ref:vcgi:esiteid" v="270227" />
  </node>
  <node id="-237" visible="true" lat="44.13852744" lon="-73.21637353">
    <tag k="addr:city" v="Waltham" />
    <tag k="addr:housenumber" v="139" />
    <tag k="addr:street" v="Schoolhouse Road" />
    <tag k="addr:state" v="VT" />
    <tag k="ref:vcgi:esiteid" v="270228" />
  </node>
  <node id="-238" visible="true" lat="44.13842698" lon="-73.21921358">
    <tag k="addr:city" v="Waltham" />
    <tag k="addr:housenumber" v="2431" />
    <tag k="addr:street" v="Green Street" />
    <tag k="addr:state" v="VT" />
    <tag k="ref:vcgi:esiteid" v="270229" />
  </node>
  <node id="-239" visible="true" lat="44.13801906" lon="-73.21875003">
    <tag k="addr:city" v="Waltham" />
    <tag k="addr:housenumber" v="2455" />
    <tag k="addr:street" v="Green Street" />
    <tag k="addr:state" v="VT" />
    <tag k="ref:vcgi:esiteid" v="270230" />
  </node>
  <node id="-240" visible="true" lat="44.13578421" lon="-73.24283586">
    <tag k="addr:city" v="Waltham" />
    <tag k="addr:housenumber" v="89" />
    <tag k="addr:street" v="Sparrow Hawk Road" />
    <tag k="addr:state" v="VT" />
    <tag k="ref:vcgi:esiteid" v="270231" />
  </node>
  <node id="-241" visible="true" lat="44.13547489" lon="-73.24677344">
    <tag k="addr:city" v="Waltham" />
    <tag k="addr:housenumber" v="1696" />
    <tag k="addr:street" v="Maple Street" />
    <tag k="addr:state" v="VT" />
    <tag k="ref:vcgi:esiteid" v="270232" />
  </node>
  <node id="-242" visible="true" lat="44.13514842" lon="-73.24218797">
    <tag k="addr:city" v="Waltham" />
    <tag k="addr:housenumber" v="211" />
    <tag k="addr:street" v="Sparrow Hawk Road" />
    <tag k="addr:state" v="VT" />
    <tag k="ref:vcgi:esiteid" v="270233" />
  </node>
  <node id="-243" visible="true" lat="44.13515331" lon="-73.23894206">
    <tag k="addr:city" v="Waltham" />
    <tag k="addr:housenumber" v="335" />
    <tag k="addr:street" v="Sparrow Hawk Road" />
    <tag k="addr:state" v="VT" />
    <tag k="ref:vcgi:esiteid" v="270234" />
  </node>
  <node id="-244" visible="true" lat="44.13430067" lon="-73.24636836">
    <tag k="addr:city" v="Waltham" />
    <tag k="addr:housenumber" v="1798" />
    <tag k="addr:street" v="Maple Street" />
    <tag k="addr:state" v="VT" />
    <tag k="ref:vcgi:esiteid" v="270235" />
  </node>
  <node id="-245" visible="true" lat="44.13435473" lon="-73.21744858">
    <tag k="addr:city" v="Waltham" />
    <tag k="addr:housenumber" v="2728" />
    <tag k="addr:street" v="Green Street" />
    <tag k="addr:state" v="VT" />
    <tag k="ref:vcgi:esiteid" v="270236" />
  </node>
  <node id="-246" visible="true" lat="44.13355481" lon="-73.21685567">
    <tag k="addr:city" v="Waltham" />
    <tag k="addr:housenumber" v="2784" />
    <tag k="addr:street" v="Green Street" />
    <tag k="addr:state" v="VT" />
    <tag k="ref:vcgi:esiteid" v="270237" />
  </node>
  <node id="-247" visible="true" lat="44.13310146" lon="-73.24603806">
    <tag k="addr:city" v="Waltham" />
    <tag k="addr:housenumber" v="1894" />
    <tag k="addr:street" v="Maple Street" />
    <tag k="addr:state" v="VT" />
    <tag k="ref:vcgi:esiteid" v="270238" />
  </node>
  <node id="-248" visible="true" lat="44.13322757" lon="-73.21570064">
    <tag k="addr:city" v="Waltham" />
    <tag k="addr:housenumber" v="2803" />
    <tag k="addr:street" v="Green Street" />
    <tag k="addr:state" v="VT" />
    <tag k="ref:vcgi:esiteid" v="270239" />
  </node>
  <node id="-249" visible="true" lat="44.13267646" lon="-73.21623786">
    <tag k="addr:city" v="Waltham" />
    <tag k="addr:housenumber" v="2856" />
    <tag k="addr:street" v="Green Street" />
    <tag k="addr:state" v="VT" />
    <tag k="ref:vcgi:esiteid" v="270240" />
  </node>
  <node id="-250" visible="true" lat="44.13201045" lon="-73.24135883">
    <tag k="addr:city" v="Waltham" />
    <tag k="addr:housenumber" v="170" />
    <tag k="addr:street" v="Buck Mountain Ridge" />
    <tag k="addr:state" v="VT" />
    <tag k="ref:vcgi:esiteid" v="270241" />
  </node>
  <node id="-251" visible="true" lat="44.13128775" lon="-73.24333568">
    <tag k="addr:city" v="Waltham" />
    <tag k="addr:housenumber" v="85" />
    <tag k="addr:street" v="Buck Mountain Ridge" />
    <tag k="addr:state" v="VT" />
    <tag k="ref:vcgi:esiteid" v="270242" />
  </node>
  <node id="-252" visible="true" lat="44.1295166" lon="-73.24335479">
    <tag k="addr:city" v="Waltham" />
    <tag k="addr:housenumber" v="2111" />
    <tag k="addr:street" v="Maple Street" />
    <tag k="addr:state" v="VT" />
    <tag k="ref:vcgi:esiteid" v="270243" />
  </node>
  <node id="-253" visible="true" lat="44.12964569" lon="-73.24520079">
    <tag k="addr:city" v="Waltham" />
    <tag k="addr:housenumber" v="2142" />
    <tag k="addr:street" v="Maple Street" />
    <tag k="addr:state" v="VT" />
    <tag k="ref:vcgi:esiteid" v="270244" />
  </node>
  <node id="-254" visible="true" lat="44.12897872" lon="-73.24375152">
    <tag k="addr:city" v="Waltham" />
    <tag k="addr:housenumber" v="2183" />
    <tag k="addr:street" v="Maple Street" />
    <tag k="addr:state" v="VT" />
    <tag k="ref:vcgi:esiteid" v="270245" />
  </node>
  <node id="-255" visible="true" lat="44.12824261" lon="-73.24362061">
    <tag k="addr:city" v="Waltham" />
    <tag k="addr:housenumber" v="2217" />
    <tag k="addr:street" v="Maple Street" />
    <tag k="addr:state" v="VT" />
    <tag k="ref:vcgi:esiteid" v="270246" />
  </node>
  <node id="-256" visible="true" lat="44.12707982" lon="-73.24418138">
    <tag k="addr:city" v="Waltham" />
    <tag k="addr:housenumber" v="2317" />
    <tag k="addr:street" v="Maple Street" />
    <tag k="addr:state" v="VT" />
    <tag k="ref:vcgi:esiteid" v="270247" />
  </node>
  <node id="-257" visible="true" lat="44.12661719" lon="-73.24381683">
    <tag k="addr:city" v="Waltham" />
    <tag k="addr:housenumber" v="2387" />
    <tag k="addr:street" v="Maple Street" />
    <tag k="addr:state" v="VT" />
    <tag k="ref:vcgi:esiteid" v="270248" />
  </node>
  <node id="-258" visible="true" lat="44.12587292" lon="-73.24551698">
    <tag k="addr:city" v="Waltham" />
    <tag k="addr:housenumber" v="2394" />
    <tag k="addr:street" v="Maple Street" />
    <tag k="addr:state" v="VT" />
    <tag k="ref:vcgi:esiteid" v="270250" />
  </node>
  <node id="-259" visible="true" lat="44.12551891" lon="-73.24554679">
    <tag k="addr:city" v="Waltham" />
    <tag k="addr:housenumber" v="2398" />
    <tag k="addr:street" v="Maple Street" />
    <tag k="addr:state" v="VT" />
    <tag k="ref:vcgi:esiteid" v="270251" />
  </node>
  <node id="-260" visible="true" lat="44.12535184" lon="-73.24256887">
    <tag k="addr:city" v="Waltham" />
    <tag k="addr:housenumber" v="2473" />
    <tag k="addr:street" v="Maple Street" />
    <tag k="addr:state" v="VT" />
    <tag k="ref:vcgi:esiteid" v="270252" />
  </node>
  <node id="-261" visible="true" lat="44.12525616" lon="-73.24439519">
    <tag k="addr:city" v="Waltham" />
    <tag k="addr:housenumber" v="2442" />
    <tag k="addr:street" v="Maple Street" />
    <tag k="addr:state" v="VT" />
    <tag k="ref:vcgi:esiteid" v="270253" />
  </node>
  <node id="-262" visible="true" lat="44.1242485" lon="-73.24260711">
    <tag k="addr:city" v="Waltham" />
    <tag k="addr:housenumber" v="2531" />
    <tag k="addr:street" v="Maple Street" />
    <tag k="addr:state" v="VT" />
    <tag k="ref:vcgi:esiteid" v="270254" />
  </node>
  <node id="-263" visible="true" lat="44.12356612" lon="-73.2442411">
    <tag k="addr:city" v="Waltham" />
    <tag k="addr:housenumber" v="2550" />
    <tag k="addr:street" v="Maple Street" />
    <tag k="addr:state" v="VT" />
    <tag k="ref:vcgi:esiteid" v="270255" />
  </node>
  <node id="-264" visible="true" lat="44.12311172" lon="-73.24346923">
    <tag k="addr:city" v="Waltham" />
    <tag k="addr:housenumber" v="2615" />
    <tag k="addr:street" v="Maple Street" />
    <tag k="addr:state" v="VT" />
    <tag k="ref:vcgi:esiteid" v="270256" />
  </node>
  <node id="-265" visible="true" lat="44.12155532" lon="-73.24395752">
    <tag k="addr:city" v="Waltham" />
    <tag k="addr:housenumber" v="2680" />
    <tag k="addr:street" v="Maple Street" />
    <tag k="addr:state" v="VT" />
    <tag k="ref:vcgi:esiteid" v="270257" />
  </node>
  <node id="-266" visible="true" lat="44.11978985" lon="-73.24141789">
    <tag k="addr:city" v="Waltham" />
    <tag k="addr:housenumber" v="2819" />
    <tag k="addr:street" v="Maple Street" />
    <tag k="addr:state" v="VT" />
    <tag k="ref:vcgi:esiteid" v="270258" />
  </node>
  <node id="-267" visible="true" lat="44.11961478" lon="-73.2121931">
    <tag k="addr:city" v="Waltham" />
    <tag k="addr:housenumber" v="3796" />
    <tag k="addr:street" v="Green Street" />
    <tag k="addr:state" v="VT" />
    <tag k="ref:vcgi:esiteid" v="270259" />
  </node>
  <node id="-268" visible="true" lat="44.11877982" lon="-73.2117297">
    <tag k="addr:city" v="Waltham" />
    <tag k="addr:housenumber" v="3846" />
    <tag k="addr:street" v="Green Street" />
    <tag k="addr:state" v="VT" />
    <tag k="ref:vcgi:esiteid" v="270260" />
  </node>
  <node id="-269" visible="true" lat="44.11754065" lon="-73.24376866">
    <tag k="addr:city" v="Waltham" />
    <tag k="addr:housenumber" v="2996" />
    <tag k="addr:street" v="Maple Street" />
    <tag k="addr:state" v="VT" />
    <tag k="ref:vcgi:esiteid" v="270261" />
  </node>
  <node id="-270" visible="true" lat="44.11715644" lon="-73.21009724">
    <tag k="addr:city" v="Waltham" />
    <tag k="addr:housenumber" v="3991" />
    <tag k="addr:street" v="Green Street" />
    <tag k="addr:state" v="VT" />
    <tag k="ref:vcgi:esiteid" v="270262" />
  </node>
  <node id="-271" visible="true" lat="44.11651498" lon="-73.24193329">
    <tag k="addr:city" v="Waltham" />
    <tag k="addr:housenumber" v="3059" />
    <tag k="addr:street" v="Maple Street" />
    <tag k="addr:state" v="VT" />
    <tag k="ref:vcgi:esiteid" v="270263" />
  </node>
  <node id="-272" visible="true" lat="44.11637901" lon="-73.21521506">
    <tag k="addr:city" v="Waltham" />
    <tag k="addr:housenumber" v="184" />
    <tag k="addr:street" v="Burnham Road" />
    <tag k="addr:state" v="VT" />
    <tag k="ref:vcgi:esiteid" v="270264" />
  </node>
  <node id="-273" visible="true" lat="44.11633981" lon="-73.21598133">
    <tag k="addr:city" v="Waltham" />
    <tag k="addr:housenumber" v="173" />
    <tag k="addr:street" v="Burnham Road" />
    <tag k="addr:state" v="VT" />
    <tag k="ref:vcgi:esiteid" v="270265" />
  </node>
  <node id="-274" visible="true" lat="44.11555643" lon="-73.24168349">
    <tag k="addr:city" v="Waltham" />
    <tag k="addr:housenumber" v="3123" />
    <tag k="addr:street" v="Maple Street" />
    <tag k="addr:state" v="VT" />
    <tag k="ref:vcgi:esiteid" v="270266" />
  </node>
  <node id="-275" visible="true" lat="44.11574487" lon="-73.21623891">
    <tag k="addr:city" v="Waltham" />
    <tag k="addr:housenumber" v="157" />
    <tag k="addr:street" v="Burnham Road" />
    <tag k="addr:state" v="VT" />
    <tag k="ref:vcgi:esiteid" v="270267" />
  </node>
  <node id="-276" visible="true" lat="44.11558914" lon="-73.2151947">
    <tag k="addr:city" v="Waltham" />
    <tag k="addr:housenumber" v="136" />
    <tag k="addr:street" v="Burnham Road" />
    <tag k="addr:state" v="VT" />
    <tag k="ref:vcgi:esiteid" v="270268" />
  </node>
  <node id="-277" visible="true" lat="44.11501312" lon="-73.24163818">
    <tag k="addr:city" v="Waltham" />
    <tag k="addr:housenumber" v="3155" />
    <tag k="addr:street" v="Maple Street" />
    <tag k="addr:state" v="VT" />
    <tag k="ref:vcgi:esiteid" v="270269" />
  </node>
  <node id="-278" visible="true" lat="44.11502718" lon="-73.20721288">
    <tag k="addr:city" v="Waltham" />
    <tag k="addr:housenumber" v="1311" />
    <tag k="addr:street" v="Otter Creek Highway" />
    <tag k="addr:state" v="VT" />
    <tag k="ref:vcgi:esiteid" v="270270" />
  </node>
  <node id="-279" visible="true" lat="44.11513272" lon="-73.20662343">
    <tag k="addr:city" v="Waltham" />
    <tag k="addr:housenumber" v="1309" />
    <tag k="addr:street" v="Otter Creek Highway" />
    <tag k="addr:state" v="VT" />
    <tag k="ref:vcgi:esiteid" v="270271" />
  </node>
  <node id="-280" visible="true" lat="44.1135903" lon="-73.21423631">
    <tag k="addr:city" v="Waltham" />
    <tag k="addr:housenumber" v="1683" />
    <tag k="addr:street" v="Otter Creek Highway" />
    <tag k="addr:state" v="VT" />
    <tag k="ref:vcgi:esiteid" v="270272" />
  </node>
  <node id="-281" visible="true" lat="44.11329827" lon="-73.21631372">
    <tag k="addr:city" v="Waltham" />
    <tag k="addr:housenumber" v="1800" />
    <tag k="addr:street" v="Otter Creek Highway" />
    <tag k="addr:state" v="VT" />
    <tag k="ref:vcgi:esiteid" v="270273" />
  </node>
  <node id="-282" visible="true" lat="44.11324876" lon="-73.2148205">
    <tag k="addr:city" v="Waltham" />
    <tag k="addr:housenumber" v="1745" />
    <tag k="addr:street" v="Otter Creek Highway" />
    <tag k="addr:state" v="VT" />
    <tag k="ref:vcgi:esiteid" v="270274" />
  </node>
  <node id="-283" visible="true" lat="44.11110142" lon="-73.24070239">
    <tag k="addr:city" v="Waltham" />
    <tag k="addr:housenumber" v="3435" />
    <tag k="addr:street" v="Maple Street" />
    <tag k="addr:state" v="VT" />
    <tag k="ref:vcgi:esiteid" v="270275" />
  </node>
  <node id="-284" visible="true" lat="44.10832621" lon="-73.24042121">
    <tag k="addr:city" v="Waltham" />
    <tag k="addr:housenumber" v="3613" />
    <tag k="addr:street" v="Maple Street" />
    <tag k="addr:state" v="VT" />
    <tag k="ref:vcgi:esiteid" v="270276" />
  </node>
  <node id="-285" visible="true" lat="44.10736846" lon="-73.24054718">
    <tag k="addr:city" v="Waltham" />
    <tag k="addr:housenumber" v="3689" />
    <tag k="addr:street" v="Maple Street" />
    <tag k="addr:state" v="VT" />
    <tag k="ref:vcgi:esiteid" v="270277" />
  </node>
  <node id="-286" visible="true" lat="44.15619013" lon="-73.22724095">
    <tag k="addr:city" v="Waltham" />
    <tag k="addr:housenumber" v="910" />
    <tag k="addr:street" v="U.S. Route 7" />
    <tag k="addr:state" v="VT" />
    <tag k="ref:vcgi:esiteid" v="270278" />
  </node>
  <node id="-287" visible="true" lat="44.16218109" lon="-73.23066982">
    <tag k="addr:city" v="Waltham" />
    <tag k="addr:housenumber" v="226" />
    <tag k="addr:street" v="Plank Road" />
    <tag k="addr:state" v="VT" />
    <tag k="ref:vcgi:esiteid" v="270279" />
  </node>
  <node id="-288" visible="true" lat="44.13094059" lon="-73.24463575">
    <tag k="addr:city" v="Waltham" />
    <tag k="addr:housenumber" v="2053" />
    <tag k="addr:street" v="Maple Street" />
    <tag k="addr:state" v="VT" />
    <tag k="ref:vcgi:esiteid" v="270281" />
  </node>
  <node id="-289" visible="true" lat="44.15924804" lon="-73.21480727">
    <tag k="addr:city" v="Waltham" />
    <tag k="addr:housenumber" v="1090" />
    <tag k="addr:street" v="South Middlebrook Road" />
    <tag k="addr:state" v="VT" />
    <tag k="ref:vcgi:esiteid" v="270282" />
  </node>
  <node id="-290" visible="true" lat="44.1565113" lon="-73.21713833">
    <tag k="addr:city" v="Waltham" />
    <tag k="addr:housenumber" v="1318" />
    <tag k="addr:street" v="South Middlebrook Road" />
    <tag k="addr:state" v="VT" />
    <tag k="ref:vcgi:esiteid" v="270283" />
  </node>
  <node id="-291" visible="true" lat="44.14003753" lon="-73.22345733">
    <tag k="addr:city" v="Waltham" />
    <tag k="addr:housenumber" v="190" />
    <tag k="addr:street" v="Route 66" />
    <tag k="addr:state" v="VT" />
    <tag k="ref:vcgi:esiteid" v="270284" />
  </node>
  <node id="-292" visible="true" lat="44.13897507" lon="-73.22081787">
    <tag k="addr:city" v="Waltham" />
    <tag k="addr:housenumber" v="2338" />
    <tag k="addr:street" v="Green Street" />
    <tag k="addr:state" v="VT" />
    <tag k="ref:vcgi:esiteid" v="270285" />
  </node>
  <node id="-293" visible="true" lat="44.12793582" lon="-73.21451866">
    <tag k="addr:city" v="Waltham" />
    <tag k="addr:housenumber" v="3204" />
    <tag k="addr:street" v="Green Street" />
    <tag k="addr:state" v="VT" />
    <tag k="ref:vcgi:esiteid" v="270286" />
  </node>
  <node id="-294" visible="true" lat="44.12715179" lon="-73.2142528">
    <tag k="addr:city" v="Waltham" />
    <tag k="addr:housenumber" v="3256" />
    <tag k="addr:street" v="Green Street" />
    <tag k="addr:state" v="VT" />
    <tag k="ref:vcgi:esiteid" v="270287" />
  </node>
  <node id="-295" visible="true" lat="44.14137938" lon="-73.21787434">
    <tag k="addr:city" v="Waltham" />
    <tag k="addr:housenumber" v="220" />
    <tag k="addr:street" v="Moonlit Meadows" />
    <tag k="addr:state" v="VT" />
    <tag k="ref:vcgi:esiteid" v="270288" />
  </node>
  <node id="-296" visible="true" lat="44.13734698" lon="-73.21829967">
    <tag k="addr:city" v="Waltham" />
    <tag k="addr:housenumber" v="25" />
    <tag k="addr:street" v="Schoolhouse Road" />
    <tag k="addr:state" v="VT" />
    <tag k="ref:vcgi:esiteid" v="270289" />
  </node>
  <node id="-297" visible="true" lat="44.13691224" lon="-73.21837088">
    <tag k="addr:city" v="Waltham" />
    <tag k="addr:housenumber" v="2527" />
    <tag k="addr:street" v="Green Street" />
    <tag k="addr:state" v="VT" />
    <tag k="ref:vcgi:esiteid" v="270290" />
  </node>
  <node id="-298" visible="true" lat="44.11659742" lon="-73.20979346">
    <tag k="addr:city" v="Waltham" />
    <tag k="addr:housenumber" v="4007" />
    <tag k="addr:street" v="Green Street" />
    <tag k="addr:state" v="VT" />
    <tag k="ref:vcgi:esiteid" v="318261" />
  </node>
  <node id="-299" visible="true" lat="44.15691864" lon="-73.23049056">
    <tag k="addr:city" v="Waltham" />
    <tag k="addr:housenumber" v="912" />
    <tag k="addr:street" v="U.S. Route 7" />
    <tag k="addr:state" v="VT" />
    <tag k="ref:vcgi:esiteid" v="341867" />
  </node>
  <node id="-300" visible="true" lat="44.15946163" lon="-73.21786557">
    <tag k="addr:city" v="Waltham" />
    <tag k="addr:housenumber" v="77" />
    <tag k="addr:street" v="Mossy Grove" />
    <tag k="addr:state" v="VT" />
    <tag k="ref:vcgi:esiteid" v="341868" />
  </node>
  <node id="-301" visible="true" lat="44.15857403" lon="-73.21832162">
    <tag k="addr:city" v="Waltham" />
    <tag k="addr:housenumber" v="121" />
    <tag k="addr:street" v="Mossy Grove" />
    <tag k="addr:state" v="VT" />
    <tag k="ref:vcgi:esiteid" v="341869" />
  </node>
  <node id="-302" visible="true" lat="44.14214376" lon="-73.22164601">
    <tag k="addr:city" v="Waltham" />
    <tag k="addr:housenumber" v="2111" />
    <tag k="addr:street" v="Green Street" />
    <tag k="addr:state" v="VT" />
    <tag k="ref:vcgi:esiteid" v="342495" />
  </node>
  <node id="-303" visible="true" lat="44.15154098" lon="-73.24805831">
    <tag k="addr:city" v="Waltham" />
    <tag k="addr:housenumber" v="592" />
    <tag k="addr:street" v="Maple Street" />
    <tag k="addr:state" v="VT" />
    <tag k="ref:vcgi:esiteid" v="342496" />
  </node>
  <node id="-304" visible="true" lat="44.14851643" lon="-73.24554288">
    <tag k="addr:city" v="Waltham" />
    <tag k="addr:housenumber" v="839" />
    <tag k="addr:street" v="Maple Street" />
    <tag k="addr:state" v="VT" />
    <tag k="ref:vcgi:esiteid" v="342497" />
  </node>
  <node id="-305" visible="true" lat="44.1481029" lon="-73.24701284">
    <tag k="addr:city" v="Waltham" />
    <tag k="addr:housenumber" v="844" />
    <tag k="addr:street" v="Maple Street" />
    <tag k="addr:state" v="VT" />
    <tag k="ref:vcgi:esiteid" v="342498" />
  </node>
  <node id="-306" visible="true" lat="44.14737812" lon="-73.25079539">
    <tag k="addr:city" v="Waltham" />
    <tag k="addr:housenumber" v="106" />
    <tag k="addr:street" v="Grey Heron Lane" />
    <tag k="addr:state" v="VT" />
    <tag k="ref:vcgi:esiteid" v="342499" />
  </node>
  <node id="-307" visible="true" lat="44.14388679" lon="-73.24660649">
    <tag k="addr:city" v="Waltham" />
    <tag k="addr:housenumber" v="1140" />
    <tag k="addr:street" v="Maple Street" />
    <tag k="addr:state" v="VT" />
    <tag k="ref:vcgi:esiteid" v="342501" />
  </node>
  <node id="-308" visible="true" lat="44.15679541" lon="-73.23561448">
    <tag k="addr:city" v="Waltham" />
    <tag k="addr:housenumber" v="369" />
    <tag k="addr:street" v="Crosby Heights" />
    <tag k="addr:state" v="VT" />
    <tag k="ref:vcgi:esiteid" v="446102" />
  </node>
  <node id="-309" visible="true" lat="44.11677242" lon="-73.20742896">
    <tag k="addr:city" v="Waltham" />
    <tag k="addr:housenumber" v="1310" />
    <tag k="addr:street" v="Otter Creek Highway" />
    <tag k="addr:state" v="VT" />
    <tag k="ref:vcgi:esiteid" v="446394" />
  </node>
  <node id="-310" visible="true" lat="44.12688381" lon="-73.2408584">
    <tag k="addr:city" v="Waltham" />
    <tag k="addr:housenumber" v="2397" />
    <tag k="addr:street" v="Maple Street" />
    <tag k="addr:state" v="VT" />
    <tag k="ref:vcgi:esiteid" v="448121" />
  </node>
  <node id="-311" visible="true" lat="44.1202119" lon="-73.24188239">
    <tag k="addr:city" v="Waltham" />
    <tag k="addr:housenumber" v="2811" />
    <tag k="addr:street" v="Maple Street" />
    <tag k="addr:state" v="VT" />
    <tag k="ref:vcgi:esiteid" v="448122" />
  </node>
  <node id="-312" visible="true" lat="44.14451386" lon="-73.2268427">
    <tag k="addr:city" v="Waltham" />
    <tag k="addr:housenumber" v="1752" />
    <tag k="addr:street" v="Green Street" />
    <tag k="addr:state" v="VT" />
    <tag k="ref:vcgi:esiteid" v="448123" />
  </node>
  <node id="-313" visible="true" lat="44.14241475" lon="-73.24667364">
    <tag k="addr:city" v="Waltham" />
    <tag k="addr:housenumber" v="1248" />
    <tag k="addr:street" v="Maple Street" />
    <tag k="addr:state" v="VT" />
    <tag k="ref:vcgi:esiteid" v="448509" />
  </node>
  <node id="-314" visible="true" lat="44.15463869" lon="-73.24238737">
    <tag k="addr:city" v="Waltham" />
    <tag k="addr:housenumber" v="205" />
    <tag k="addr:street" v="Shorewood Road" />
    <tag k="addr:state" v="VT" />
    <tag k="ref:vcgi:esiteid" v="448688" />
  </node>
  <node id="-315" visible="true" lat="44.11519123" lon="-73.20976984">
    <tag k="addr:city" v="Waltham" />
    <tag k="addr:housenumber" v="3" />
    <tag k="addr:street" v="Pearson Road" />
    <tag k="addr:state" v="VT" />
    <tag k="ref:vcgi:esiteid" v="449638" />
  </node>
  <node id="-316" visible="true" lat="44.16001773" lon="-73.21765728">
    <tag k="addr:city" v="Waltham" />
    <tag k="addr:housenumber" v="23" />
    <tag k="addr:street" v="Mossy Grove" />
    <tag k="addr:state" v="VT" />
    <tag k="ref:vcgi:esiteid" v="449639" />
  </node>
  <node id="-317" visible="true" lat="44.12777433" lon="-73.21459836">
    <tag k="addr:city" v="Waltham" />
    <tag k="addr:housenumber" v="3210" />
    <tag k="addr:street" v="Green Street" />
    <tag k="addr:state" v="VT" />
    <tag k="ref:vcgi:esiteid" v="449640" />
  </node>
  <node id="-318" visible="true" lat="44.12766579" lon="-73.213608">
    <tag k="addr:city" v="Waltham" />
    <tag k="addr:housenumber" v="3243" />
    <tag k="addr:street" v="Green Street" />
    <tag k="addr:state" v="VT" />
    <tag k="ref:vcgi:esiteid" v="449641" />
  </node>
  <node id="-319" visible="true" lat="44.12662021" lon="-73.21419487">
    <tag k="addr:city" v="Waltham" />
    <tag k="addr:housenumber" v="3282" />
    <tag k="addr:street" v="Green Street" />
    <tag k="addr:state" v="VT" />
    <tag k="ref:vcgi:esiteid" v="449642" />
  </node>
  <node id="-320" visible="true" lat="44.15147784" lon="-73.21895936">
    <tag k="addr:city" v="Waltham" />
    <tag k="addr:housenumber" v="1651" />
    <tag k="addr:street" v="South Middlebrook Road" />
    <tag k="addr:state" v="VT" />
    <tag k="ref:vcgi:esiteid" v="449643" />
  </node>
  <node id="-321" visible="true" lat="44.14415151" lon="-73.21923159">
    <tag k="addr:city" v="Waltham" />
    <tag k="addr:housenumber" v="171" />
    <tag k="addr:street" v="Monroe Way" />
    <tag k="addr:state" v="VT" />
    <tag k="ref:vcgi:esiteid" v="449644" />
  </node>
  <node id="-322" visible="true" lat="44.11378247" lon="-73.24106788">
    <tag k="addr:city" v="Waltham" />
    <tag k="addr:housenumber" v="3235" />
    <tag k="addr:street" v="Maple Street" />
    <tag k="addr:state" v="VT" />
    <tag k="ref:vcgi:esiteid" v="451449" />
  </node>
  <node id="-323" visible="true" lat="44.12768215" lon="-73.2416413">
    <tag k="addr:city" v="Waltham" />
    <tag k="addr:housenumber" v="2219" />
    <tag k="addr:street" v="Maple Street" />
    <tag k="addr:state" v="VT" />
    <tag k="ref:vcgi:esiteid" v="452399" />
  </node>
  <node id="-324" visible="true" lat="44.14477372" lon="-73.21127165">
    <tag k="addr:city" v="Waltham" />
    <tag k="addr:housenumber" v="160" />
    <tag k="addr:street" v="Hidden Meadows Lane" />
    <tag k="addr:state" v="VT" />
    <tag k="ref:vcgi:esiteid" v="453059" />
  </node>
  <node id="-325" visible="true" lat="44.14532767" lon="-73.21097345">
    <tag k="addr:city" v="Waltham" />
    <tag k="addr:housenumber" v="152" />
    <tag k="addr:street" v="Hidden Meadows Lane" />
    <tag k="addr:state" v="VT" />
    <tag k="ref:vcgi:esiteid" v="453060" />
  </node>
  <node id="-326" visible="true" lat="44.1180078" lon="-73.2129421">
    <tag k="addr:city" v="Waltham" />
    <tag k="addr:housenumber" v="3884" />
    <tag k="addr:street" v="Green Street" />
    <tag k="addr:state" v="VT" />
    <tag k="ref:vcgi:esiteid" v="453570" />
  </node>
  <node id="-327" visible="true" lat="44.14975346" lon="-73.23990947">
    <tag k="addr:city" v="Waltham" />
    <tag k="addr:housenumber" v="246" />
    <tag k="addr:street" v="Pine Oak Park" />
    <tag k="addr:state" v="VT" />
    <tag k="ref:vcgi:esiteid" v="453572" />
  </node>
  <node id="-328" visible="true" lat="44.12678635" lon="-73.21346555">
    <tag k="addr:city" v="Waltham" />
    <tag k="addr:housenumber" v="3289" />
    <tag k="addr:street" v="Green Street" />
    <tag k="addr:state" v="VT" />
    <tag k="ref:vcgi:esiteid" v="454413" />
  </node>
  <node id="-329" visible="true" lat="44.16138307" lon="-73.22584385">
    <tag k="addr:city" v="Waltham" />
    <tag k="addr:housenumber" v="488" />
    <tag k="addr:street" v="Plank Road" />
    <tag k="addr:state" v="VT" />
    <tag k="ref:vcgi:esiteid" v="617135" />
  </node>
  <node id="-330" visible="true" lat="44.16086615" lon="-73.22923799">
    <tag k="addr:city" v="Waltham" />
    <tag k="addr:housenumber" v="605" />
    <tag k="addr:street" v="U.S. Route 7" />
    <tag k="addr:state" v="VT" />
    <tag k="ref:vcgi:esiteid" v="617136" />
  </node>
  <node id="-331" visible="true" lat="44.1602186" lon="-73.22772165">
    <tag k="addr:city" v="Waltham" />
    <tag k="addr:housenumber" v="739" />
    <tag k="addr:street" v="U.S. Route 7" />
    <tag k="addr:state" v="VT" />
    <tag k="ref:vcgi:esiteid" v="617137" />
  </node>
  <node id="-332" visible="true" lat="44.12371382" lon="-73.24098528">
    <tag k="addr:city" v="Waltham" />
    <tag k="addr:housenumber" v="2695" />
    <tag k="addr:street" v="Maple Street" />
    <tag k="addr:state" v="VT" />
    <tag k="ref:vcgi:esiteid" v="619533" />
  </node>
  <node id="-333" visible="true" lat="44.14356741" lon="-73.21508133">
    <tag k="addr:city" v="Waltham" />
    <tag k="addr:housenumber" v="232" />
    <tag k="addr:street" v="Hidden Meadows Lane" />
    <tag k="addr:state" v="VT" />
    <tag k="ref:vcgi:esiteid" v="619534" />
  </node>
  <node id="-334" visible="true" lat="44.11530409" lon="-73.2433592">
    <tag k="addr:city" v="Waltham" />
    <tag k="addr:housenumber" v="3020" />
    <tag k="addr:street" v="Maple Street" />
    <tag k="addr:state" v="VT" />
    <tag k="ref:vcgi:esiteid" v="655760" />
  </node>
  <node id="-335" visible="true" lat="44.11516242" lon="-73.24299054">
    <tag k="addr:city" v="Waltham" />
    <tag k="addr:housenumber" v="3022" />
    <tag k="addr:street" v="Maple Street" />
    <tag k="addr:state" v="VT" />
    <tag k="ref:vcgi:esiteid" v="655761" />
  </node>
  <node id="-336" visible="true" lat="44.12765196" lon="-73.21211518">
    <tag k="addr:city" v="Waltham" />
    <tag k="addr:housenumber" v="3245" />
    <tag k="addr:street" v="Green Street" />
    <tag k="addr:state" v="VT" />
    <tag k="ref:vcgi:esiteid" v="656360" />
  </node>
  <node id="-337" visible="true" lat="44.1089196" lon="-73.22089755">
    <tag k="addr:city" v="Waltham" />
    <tag k="addr:housenumber" v="2190" />
    <tag k="addr:street" v="Otter Creek Highway" />
    <tag k="addr:state" v="VT" />
    <tag k="ref:vcgi:esiteid" v="752765" />
  </node>
  <node id="-338" visible="true" lat="44.16062943" lon="-73.22367145">
    <tag k="addr:city" v="Waltham" />
    <tag k="addr:housenumber" v="620" />
    <tag k="addr:street" v="Plank Road" />
    <tag k="addr:state" v="VT" />
    <tag k="ref:vcgi:esiteid" v="761192" />
  </node>
  <node id="-339" visible="true" lat="44.1603629" lon="-73.22310369">
    <tag k="addr:city" v="Waltham" />
    <tag k="addr:housenumber" v="622" />
    <tag k="addr:street" v="Plank Road" />
    <tag k="addr:state" v="VT" />
    <tag k="ref:vcgi:esiteid" v="761193" />
  </node>
  <node id="-340" visible="true" lat="44.16056297" lon="-73.2217554">
    <tag k="addr:city" v="Waltham" />
    <tag k="addr:housenumber" v="718" />
    <tag k="addr:street" v="Plank Road" />
    <tag k="addr:state" v="VT" />
    <tag k="ref:vcgi:esiteid" v="761194" />
  </node>
  <node id="-341" visible="true" lat="44.15792387" lon="-73.22223923">
    <tag k="addr:city" v="Waltham" />
    <tag k="addr:housenumber" v="720" />
    <tag k="addr:street" v="Plank Road" />
    <tag k="addr:state" v="VT" />
    <tag k="ref:vcgi:esiteid" v="761195" />
  </node>
  <node id="-342" visible="true" lat="44.12183327" lon="-73.2127391">
    <tag k="addr:city" v="Waltham" />
    <tag k="addr:housenumber" v="3626" />
    <tag k="addr:street" v="Green Street" />
    <tag k="addr:state" v="VT" />
    <tag k="ref:vcgi:esiteid" v="766163" />
  </node>
  <node id="-343" visible="true" lat="44.1215206" lon="-73.21133231">
    <tag k="addr:city" v="Waltham" />
    <tag k="addr:housenumber" v="3705" />
    <tag k="addr:street" v="Green Street" />
    <tag k="addr:state" v="VT" />
    <tag k="ref:vcgi:esiteid" v="766164" />
  </node>
  <node id="-344" visible="true" lat="44.11271663" lon="-73.24100314">
    <tag k="addr:city" v="Waltham" />
    <tag k="addr:housenumber" v="3289" />
    <tag k="addr:street" v="Maple Street" />
    <tag k="addr:state" v="VT" />
    <tag k="ref:vcgi:esiteid" v="766165" />
  </node>
  <node id="-345" visible="true" lat="44.111804" lon="-73.217099">
    <tag k="addr:city" v="Waltham" />
    <tag k="addr:housenumber" v="1825" />
    <tag k="addr:street" v="Otter Creek Highway" />
    <tag k="addr:state" v="VT" />
    <tag k="ref:vcgi:esiteid" v="767254" />
  </node>
  <node id="-347" visible="true" lat="44.1149446" lon="-73.21615051">
    <tag k="addr:city" v="Waltham" />
    <tag k="addr:housenumber" v="155" />
    <tag k="addr:street" v="Burnham Road" />
    <tag k="addr:state" v="VT" />
    <tag k="ref:vcgi:esiteid" v="768346" />
  </node>
  <node id="-349" visible="true" lat="44.13327176" lon="-73.24151795">
    <tag k="addr:city" v="Waltham" />
    <tag k="addr:housenumber" v="303" />
    <tag k="addr:street" v="Buck Mountain Ridge" />
    <tag k="addr:state" v="VT" />
    <tag k="ref:vcgi:esiteid" v="768548" />
  </node>
  <node id="-350" visible="true" lat="44.14639355" lon="-73.25324887">
    <tag k="addr:city" v="Waltham" />
    <tag k="addr:housenumber" v="335" />
    <tag k="addr:street" v="Grey Heron Lane" />
    <tag k="addr:state" v="VT" />
    <tag k="ref:vcgi:esiteid" v="769984" />
  </node>
  <node id="-351" visible="true" lat="44.14607996" lon="-73.24785396">
    <tag k="addr:city" v="Waltham" />
    <tag k="addr:housenumber" v="86" />
    <tag k="addr:street" v="Grey Heron Lane" />
    <tag k="addr:state" v="VT" />
    <tag k="ref:vcgi:esiteid" v="769985" />
  </node>
  <node id="-352" visible="true" lat="44.13870198" lon="-73.22676331">
    <tag k="addr:city" v="Waltham" />
    <tag k="addr:housenumber" v="361" />
    <tag k="addr:street" v="Route 66" />
    <tag k="addr:state" v="VT" />
    <tag k="ref:vcgi:esiteid" v="1050135" />
  </node>
</osm>
