<?xml version="1.0" encoding="UTF-8"?>
<osm version="0.6" generator="JOSM" upload="false">
  <node id="-100" visible="true" lat="44.01265013" lon="-72.39192019">
    <tag k="addr:housenumber" v="203" />
    <tag k="addr:street" v="Corinth Road" />
    <tag k="addr:state" v="VT" />
    <tag k="ref:vcgi:esiteid" v="65809" />
  </node>
  <node id="-101" visible="true" lat="44.12908936" lon="-72.44528198">
    <tag k="addr:housenumber" v="1528" />
    <tag k="addr:street" v="Lowery Road" />
    <tag k="addr:state" v="VT" />
    <tag k="ref:vcgi:esiteid" v="272676" />
  </node>
  <node id="-102" visible="true" lat="44.12880605" lon="-72.45771274">
    <tag k="addr:housenumber" v="840" />
    <tag k="addr:street" v="Lambert Road" />
    <tag k="addr:state" v="VT" />
    <tag k="ref:vcgi:esiteid" v="272677" />
  </node>
  <node id="-103" visible="true" lat="44.12872792" lon="-72.45638934">
    <tag k="addr:housenumber" v="780" />
    <tag k="addr:street" v="Lambert Road" />
    <tag k="addr:state" v="VT" />
    <tag k="ref:vcgi:esiteid" v="272678" />
  </node>
  <node id="-104" visible="true" lat="44.12876507" lon="-72.4569498">
    <tag k="addr:housenumber" v="800" />
    <tag k="addr:street" v="Lambert Road" />
    <tag k="addr:state" v="VT" />
    <tag k="ref:vcgi:esiteid" v="272679" />
  </node>
  <node id="-105" visible="true" lat="44.12868212" lon="-72.45507707">
    <tag k="addr:housenumber" v="718" />
    <tag k="addr:street" v="Lambert Road" />
    <tag k="addr:state" v="VT" />
    <tag k="ref:vcgi:esiteid" v="272680" />
  </node>
  <node id="-106" visible="true" lat="44.12819676" lon="-72.45674436">
    <tag k="addr:housenumber" v="781" />
    <tag k="addr:street" v="Lambert Road" />
    <tag k="addr:state" v="VT" />
    <tag k="ref:vcgi:esiteid" v="272681" />
  </node>
  <node id="-107" visible="true" lat="44.1281662" lon="-72.45737457">
    <tag k="addr:housenumber" v="825" />
    <tag k="addr:street" v="Lambert Road" />
    <tag k="addr:state" v="VT" />
    <tag k="ref:vcgi:esiteid" v="272682" />
  </node>
  <node id="-108" visible="true" lat="44.12801079" lon="-72.45764613">
    <tag k="addr:housenumber" v="827" />
    <tag k="addr:street" v="Lambert Road" />
    <tag k="addr:state" v="VT" />
    <tag k="ref:vcgi:esiteid" v="272683" />
  </node>
  <node id="-109" visible="true" lat="44.12714547" lon="-72.45094939">
    <tag k="addr:housenumber" v="483" />
    <tag k="addr:street" v="Lambert Road" />
    <tag k="addr:state" v="VT" />
    <tag k="ref:vcgi:esiteid" v="272684" />
  </node>
  <node id="-110" visible="true" lat="44.12693324" lon="-72.44988283">
    <tag k="addr:housenumber" v="437" />
    <tag k="addr:street" v="Lambert Road" />
    <tag k="addr:state" v="VT" />
    <tag k="ref:vcgi:esiteid" v="272685" />
  </node>
  <node id="-111" visible="true" lat="44.12417244" lon="-72.4306032">
    <tag k="addr:housenumber" v="1800" />
    <tag k="addr:street" v="Vermont Route 110" />
    <tag k="addr:state" v="VT" />
    <tag k="ref:vcgi:esiteid" v="272686" />
  </node>
  <node id="-112" visible="true" lat="44.12383859" lon="-72.43483353">
    <tag k="addr:housenumber" v="1914" />
    <tag k="addr:street" v="Vermont Route 110" />
    <tag k="addr:state" v="VT" />
    <tag k="ref:vcgi:esiteid" v="272687" />
  </node>
  <node id="-113" visible="true" lat="44.12366485" lon="-72.43099212">
    <tag k="addr:housenumber" v="1842" />
    <tag k="addr:street" v="Vermont Route 110" />
    <tag k="addr:state" v="VT" />
    <tag k="ref:vcgi:esiteid" v="272688" />
  </node>
  <node id="-114" visible="true" lat="44.1223866" lon="-72.44187206">
    <tag k="addr:housenumber" v="1986" />
    <tag k="addr:street" v="Lowery Road" />
    <tag k="addr:state" v="VT" />
    <tag k="ref:vcgi:esiteid" v="272689" />
  </node>
  <node id="-115" visible="true" lat="44.12311023" lon="-72.43024918">
    <tag k="addr:housenumber" v="1853" />
    <tag k="addr:street" v="Vermont Route 110" />
    <tag k="addr:state" v="VT" />
    <tag k="ref:vcgi:esiteid" v="272690" />
  </node>
  <node id="-116" visible="true" lat="44.12308109" lon="-72.43111962">
    <tag k="addr:housenumber" v="1908" />
    <tag k="addr:street" v="Vermont Route 110" />
    <tag k="addr:state" v="VT" />
    <tag k="ref:vcgi:esiteid" v="272691" />
  </node>
  <node id="-117" visible="true" lat="44.12220601" lon="-72.42880232">
    <tag k="addr:housenumber" v="1903" />
    <tag k="addr:street" v="Vermont Route 110" />
    <tag k="addr:state" v="VT" />
    <tag k="ref:vcgi:esiteid" v="272692" />
  </node>
  <node id="-118" visible="true" lat="44.12155171" lon="-72.43962074">
    <tag k="addr:housenumber" v="2159" />
    <tag k="addr:street" v="Lowery Road" />
    <tag k="addr:state" v="VT" />
    <tag k="ref:vcgi:esiteid" v="272693" />
  </node>
  <node id="-119" visible="true" lat="44.12144339" lon="-72.42251912">
    <tag k="addr:housenumber" v="725" />
    <tag k="addr:street" v="Creamery Road" />
    <tag k="addr:state" v="VT" />
    <tag k="ref:vcgi:esiteid" v="272694" />
  </node>
  <node id="-120" visible="true" lat="44.1213366" lon="-72.43196432">
    <tag k="addr:housenumber" v="2016" />
    <tag k="addr:street" v="Vermont Route 110" />
    <tag k="addr:state" v="VT" />
    <tag k="ref:vcgi:esiteid" v="272695" />
  </node>
  <node id="-121" visible="true" lat="44.12097484" lon="-72.44010808">
    <tag k="addr:housenumber" v="2174" />
    <tag k="addr:street" v="Lowery Road" />
    <tag k="addr:state" v="VT" />
    <tag k="ref:vcgi:esiteid" v="272696" />
  </node>
  <node id="-122" visible="true" lat="44.12091827" lon="-72.42302703">
    <tag k="addr:housenumber" v="665" />
    <tag k="addr:street" v="Creamery Road" />
    <tag k="addr:state" v="VT" />
    <tag k="ref:vcgi:esiteid" v="272697" />
  </node>
  <node id="-123" visible="true" lat="44.12070298" lon="-72.421214">
    <tag k="addr:housenumber" v="700" />
    <tag k="addr:street" v="Creamery Road" />
    <tag k="addr:state" v="VT" />
    <tag k="ref:vcgi:esiteid" v="272698" />
  </node>
  <node id="-124" visible="true" lat="44.12084973" lon="-72.4237967">
    <tag k="addr:housenumber" v="625" />
    <tag k="addr:street" v="Creamery Road" />
    <tag k="addr:state" v="VT" />
    <tag k="ref:vcgi:esiteid" v="272699" />
  </node>
  <node id="-125" visible="true" lat="44.12050247" lon="-72.46044922">
    <tag k="addr:housenumber" v="1706" />
    <tag k="addr:street" v="Carrier Road" />
    <tag k="addr:state" v="VT" />
    <tag k="ref:vcgi:esiteid" v="272700" />
  </node>
  <node id="-126" visible="true" lat="44.12030498" lon="-72.45939783">
    <tag k="addr:housenumber" v="1648" />
    <tag k="addr:street" v="Carrier Road" />
    <tag k="addr:state" v="VT" />
    <tag k="ref:vcgi:esiteid" v="272701" />
  </node>
  <node id="-127" visible="true" lat="44.12019729" lon="-72.46067047">
    <tag k="addr:housenumber" v="1709" />
    <tag k="addr:street" v="Carrier Road" />
    <tag k="addr:state" v="VT" />
    <tag k="ref:vcgi:esiteid" v="272702" />
  </node>
  <node id="-128" visible="true" lat="44.12030169" lon="-72.44139464">
    <tag k="addr:housenumber" v="2210" />
    <tag k="addr:street" v="Lowery Road" />
    <tag k="addr:state" v="VT" />
    <tag k="ref:vcgi:esiteid" v="272703" />
  </node>
  <node id="-129" visible="true" lat="44.11982251" lon="-72.43080767">
    <tag k="addr:housenumber" v="2081" />
    <tag k="addr:street" v="Vermont Route 110" />
    <tag k="addr:state" v="VT" />
    <tag k="ref:vcgi:esiteid" v="272704" />
  </node>
  <node id="-130" visible="true" lat="44.11977315" lon="-72.43921581">
    <tag k="addr:housenumber" v="2278" />
    <tag k="addr:street" v="Lowery Road" />
    <tag k="addr:state" v="VT" />
    <tag k="ref:vcgi:esiteid" v="272705" />
  </node>
  <node id="-131" visible="true" lat="44.11962509" lon="-72.4384613">
    <tag k="addr:housenumber" v="2291" />
    <tag k="addr:street" v="Lowery Road" />
    <tag k="addr:state" v="VT" />
    <tag k="ref:vcgi:esiteid" v="272706" />
  </node>
  <node id="-132" visible="true" lat="44.11950683" lon="-72.42536163">
    <tag k="addr:housenumber" v="512" />
    <tag k="addr:street" v="Creamery Road" />
    <tag k="addr:state" v="VT" />
    <tag k="ref:vcgi:esiteid" v="272707" />
  </node>
  <node id="-133" visible="true" lat="44.11919403" lon="-72.43865966">
    <tag k="addr:housenumber" v="2314" />
    <tag k="addr:street" v="Lowery Road" />
    <tag k="addr:state" v="VT" />
    <tag k="ref:vcgi:esiteid" v="272708" />
  </node>
  <node id="-134" visible="true" lat="44.11912899" lon="-72.45849458">
    <tag k="addr:housenumber" v="1599" />
    <tag k="addr:street" v="Carrier Road" />
    <tag k="addr:state" v="VT" />
    <tag k="ref:vcgi:esiteid" v="272709" />
  </node>
  <node id="-135" visible="true" lat="44.11896133" lon="-72.43766021">
    <tag k="addr:housenumber" v="2345" />
    <tag k="addr:street" v="Lowery Road" />
    <tag k="addr:state" v="VT" />
    <tag k="ref:vcgi:esiteid" v="272710" />
  </node>
  <node id="-136" visible="true" lat="44.11869812" lon="-72.4525299">
    <tag k="addr:housenumber" v="1294" />
    <tag k="addr:street" v="Carrier Road" />
    <tag k="addr:state" v="VT" />
    <tag k="ref:vcgi:esiteid" v="272711" />
  </node>
  <node id="-137" visible="true" lat="44.11858367" lon="-72.43845367">
    <tag k="addr:housenumber" v="2370" />
    <tag k="addr:street" v="Lowery Road" />
    <tag k="addr:state" v="VT" />
    <tag k="ref:vcgi:esiteid" v="272712" />
  </node>
  <node id="-138" visible="true" lat="44.11867915" lon="-72.42663442">
    <tag k="addr:housenumber" v="410" />
    <tag k="addr:street" v="Creamery Road" />
    <tag k="addr:state" v="VT" />
    <tag k="ref:vcgi:esiteid" v="272713" />
  </node>
  <node id="-139" visible="true" lat="44.11858913" lon="-72.41390019">
    <tag k="addr:housenumber" v="775" />
    <tag k="addr:street" v="Morrie Road" />
    <tag k="addr:state" v="VT" />
    <tag k="ref:vcgi:esiteid" v="272714" />
  </node>
  <node id="-140" visible="true" lat="44.11856098" lon="-72.43320698">
    <tag k="addr:housenumber" v="2224" />
    <tag k="addr:street" v="Vermont Route 110" />
    <tag k="addr:state" v="VT" />
    <tag k="ref:vcgi:esiteid" v="272715" />
  </node>
  <node id="-141" visible="true" lat="44.11823075" lon="-72.4130428">
    <tag k="addr:housenumber" v="798" />
    <tag k="addr:street" v="Morrie Road" />
    <tag k="addr:state" v="VT" />
    <tag k="ref:vcgi:esiteid" v="272716" />
  </node>
  <node id="-142" visible="true" lat="44.11848153" lon="-72.43622361">
    <tag k="addr:housenumber" v="2519" />
    <tag k="addr:street" v="Lowery Road" />
    <tag k="addr:state" v="VT" />
    <tag k="ref:vcgi:esiteid" v="272717" />
  </node>
  <node id="-143" visible="true" lat="44.11846368" lon="-72.43675428">
    <tag k="addr:housenumber" v="2467" />
    <tag k="addr:street" v="Lowery Road" />
    <tag k="addr:state" v="VT" />
    <tag k="ref:vcgi:esiteid" v="272718" />
  </node>
  <node id="-144" visible="true" lat="44.11823021" lon="-72.43272035">
    <tag k="addr:housenumber" v="2225" />
    <tag k="addr:street" v="Vermont Route 110" />
    <tag k="addr:state" v="VT" />
    <tag k="ref:vcgi:esiteid" v="272719" />
  </node>
  <node id="-145" visible="true" lat="44.1180725" lon="-72.42739105">
    <tag k="addr:housenumber" v="380" />
    <tag k="addr:street" v="Creamery Road" />
    <tag k="addr:state" v="VT" />
    <tag k="ref:vcgi:esiteid" v="272720" />
  </node>
  <node id="-146" visible="true" lat="44.1179035" lon="-72.43353737">
    <tag k="addr:housenumber" v="2268" />
    <tag k="addr:street" v="Vermont Route 110" />
    <tag k="addr:state" v="VT" />
    <tag k="ref:vcgi:esiteid" v="272721" />
  </node>
  <node id="-147" visible="true" lat="44.117733" lon="-72.43309021">
    <tag k="addr:housenumber" v="2261" />
    <tag k="addr:street" v="Vermont Route 110" />
    <tag k="addr:state" v="VT" />
    <tag k="ref:vcgi:esiteid" v="272722" />
  </node>
  <node id="-148" visible="true" lat="44.11748123" lon="-72.45309448">
    <tag k="addr:housenumber" v="1225" />
    <tag k="addr:street" v="Carrier Road" />
    <tag k="addr:state" v="VT" />
    <tag k="ref:vcgi:esiteid" v="272723" />
  </node>
  <node id="-149" visible="true" lat="44.11742681" lon="-72.43430254">
    <tag k="addr:housenumber" v="2575" />
    <tag k="addr:street" v="Lowery Road" />
    <tag k="addr:state" v="VT" />
    <tag k="ref:vcgi:esiteid" v="272724" />
  </node>
  <node id="-150" visible="true" lat="44.11732774" lon="-72.43203986">
    <tag k="addr:housenumber" v="45" />
    <tag k="addr:street" v="Creamery Road" />
    <tag k="addr:state" v="VT" />
    <tag k="ref:vcgi:esiteid" v="272725" />
  </node>
  <node id="-151" visible="true" lat="44.11713409" lon="-72.45298767">
    <tag k="addr:housenumber" v="1203" />
    <tag k="addr:street" v="Carrier Road" />
    <tag k="addr:state" v="VT" />
    <tag k="ref:vcgi:esiteid" v="272726" />
  </node>
  <node id="-152" visible="true" lat="44.11703872" lon="-72.43171691">
    <tag k="addr:housenumber" v="83" />
    <tag k="addr:street" v="Creamery Road" />
    <tag k="addr:state" v="VT" />
    <tag k="ref:vcgi:esiteid" v="272727" />
  </node>
  <node id="-153" visible="true" lat="44.11696624" lon="-72.43382263">
    <tag k="addr:housenumber" v="2611" />
    <tag k="addr:street" v="Lowery Road" />
    <tag k="addr:state" v="VT" />
    <tag k="ref:vcgi:esiteid" v="272728" />
  </node>
  <node id="-154" visible="true" lat="44.11709862" lon="-72.45200034">
    <tag k="addr:housenumber" v="1192" />
    <tag k="addr:street" v="Carrier Road" />
    <tag k="addr:state" v="VT" />
    <tag k="ref:vcgi:esiteid" v="272729" />
  </node>
  <node id="-155" visible="true" lat="44.1166395" lon="-72.42875087">
    <tag k="addr:housenumber" v="270" />
    <tag k="addr:street" v="Creamery Road" />
    <tag k="addr:state" v="VT" />
    <tag k="ref:vcgi:esiteid" v="272730" />
  </node>
  <node id="-156" visible="true" lat="44.11665344" lon="-72.45372772">
    <tag k="addr:housenumber" v="1071" />
    <tag k="addr:street" v="Carrier Road" />
    <tag k="addr:state" v="VT" />
    <tag k="ref:vcgi:esiteid" v="272731" />
  </node>
  <node id="-157" visible="true" lat="44.11639977" lon="-72.43081433">
    <tag k="addr:housenumber" v="127" />
    <tag k="addr:street" v="Creamery Road" />
    <tag k="addr:state" v="VT" />
    <tag k="ref:vcgi:esiteid" v="272732" />
  </node>
  <node id="-158" visible="true" lat="44.1161245" lon="-72.43662061">
    <tag k="addr:housenumber" v="2520" />
    <tag k="addr:street" v="Lowery Road" />
    <tag k="addr:state" v="VT" />
    <tag k="ref:vcgi:esiteid" v="272733" />
  </node>
  <node id="-159" visible="true" lat="44.11624527" lon="-72.45207214">
    <tag k="addr:housenumber" v="1138" />
    <tag k="addr:street" v="Carrier Road" />
    <tag k="addr:state" v="VT" />
    <tag k="ref:vcgi:esiteid" v="272734" />
  </node>
  <node id="-160" visible="true" lat="44.11626078" lon="-72.43698715">
    <tag k="addr:housenumber" v="2522" />
    <tag k="addr:street" v="Lowery Road" />
    <tag k="addr:state" v="VT" />
    <tag k="ref:vcgi:esiteid" v="272735" />
  </node>
  <node id="-161" visible="true" lat="44.11605821" lon="-72.45405085">
    <tag k="addr:housenumber" v="1069" />
    <tag k="addr:street" v="Carrier Road" />
    <tag k="addr:state" v="VT" />
    <tag k="ref:vcgi:esiteid" v="272736" />
  </node>
  <node id="-162" visible="true" lat="44.11592864" lon="-72.42978668">
    <tag k="addr:housenumber" v="198" />
    <tag k="addr:street" v="Creamery Road" />
    <tag k="addr:state" v="VT" />
    <tag k="ref:vcgi:esiteid" v="272737" />
  </node>
  <node id="-163" visible="true" lat="44.1156582" lon="-72.43302966">
    <tag k="addr:housenumber" v="2409" />
    <tag k="addr:street" v="Vermont Route 110" />
    <tag k="addr:state" v="VT" />
    <tag k="ref:vcgi:esiteid" v="272738" />
  </node>
  <node id="-164" visible="true" lat="44.11562992" lon="-72.45141513">
    <tag k="addr:housenumber" v="1092" />
    <tag k="addr:street" v="Carrier Road" />
    <tag k="addr:state" v="VT" />
    <tag k="ref:vcgi:esiteid" v="272739" />
  </node>
  <node id="-165" visible="true" lat="44.11508178" lon="-72.42929077">
    <tag k="addr:housenumber" v="218" />
    <tag k="addr:street" v="Creamery Road" />
    <tag k="addr:state" v="VT" />
    <tag k="ref:vcgi:esiteid" v="272740" />
  </node>
  <node id="-166" visible="true" lat="44.11415237" lon="-72.41683359">
    <tag k="addr:housenumber" v="446" />
    <tag k="addr:street" v="Morrie Road" />
    <tag k="addr:state" v="VT" />
    <tag k="ref:vcgi:esiteid" v="272741" />
  </node>
  <node id="-167" visible="true" lat="44.11418708" lon="-72.45483321">
    <tag k="addr:housenumber" v="120" />
    <tag k="addr:street" v="Hyland Hill Road" />
    <tag k="addr:state" v="VT" />
    <tag k="ref:vcgi:esiteid" v="272742" />
  </node>
  <node id="-168" visible="true" lat="44.11401367" lon="-72.45333099">
    <tag k="addr:housenumber" v="52" />
    <tag k="addr:street" v="Hyland Hill Road" />
    <tag k="addr:state" v="VT" />
    <tag k="ref:vcgi:esiteid" v="272743" />
  </node>
  <node id="-169" visible="true" lat="44.11378097" lon="-72.46228027">
    <tag k="addr:housenumber" v="537" />
    <tag k="addr:street" v="Hyland Hill Road" />
    <tag k="addr:state" v="VT" />
    <tag k="ref:vcgi:esiteid" v="272744" />
  </node>
  <node id="-170" visible="true" lat="44.11373901" lon="-72.45804595">
    <tag k="addr:housenumber" v="289" />
    <tag k="addr:street" v="Hyland Hill Road" />
    <tag k="addr:state" v="VT" />
    <tag k="ref:vcgi:esiteid" v="272745" />
  </node>
  <node id="-171" visible="true" lat="44.11372424" lon="-72.46050978">
    <tag k="addr:housenumber" v="449" />
    <tag k="addr:street" v="Hyland Hill Road" />
    <tag k="addr:state" v="VT" />
    <tag k="ref:vcgi:esiteid" v="272746" />
  </node>
  <node id="-172" visible="true" lat="44.11360168" lon="-72.45501709">
    <tag k="addr:housenumber" v="143" />
    <tag k="addr:street" v="Hyland Hill Road" />
    <tag k="addr:state" v="VT" />
    <tag k="ref:vcgi:esiteid" v="272747" />
  </node>
  <node id="-173" visible="true" lat="44.11362113" lon="-72.43405193">
    <tag k="addr:housenumber" v="2560" />
    <tag k="addr:street" v="Vermont Route 110" />
    <tag k="addr:state" v="VT" />
    <tag k="ref:vcgi:esiteid" v="272748" />
  </node>
  <node id="-174" visible="true" lat="44.11362351" lon="-72.43831369">
    <tag k="addr:housenumber" v="40" />
    <tag k="addr:street" v="Lindsay Lane" />
    <tag k="addr:state" v="VT" />
    <tag k="ref:vcgi:esiteid" v="272749" />
  </node>
  <node id="-175" visible="true" lat="44.11328808" lon="-72.4385978">
    <tag k="addr:housenumber" v="45" />
    <tag k="addr:street" v="Lindsay Lane" />
    <tag k="addr:state" v="VT" />
    <tag k="ref:vcgi:esiteid" v="272750" />
  </node>
  <node id="-176" visible="true" lat="44.11340352" lon="-72.43807835">
    <tag k="addr:housenumber" v="28" />
    <tag k="addr:street" v="Lindsay Lane" />
    <tag k="addr:state" v="VT" />
    <tag k="ref:vcgi:esiteid" v="272751" />
  </node>
  <node id="-177" visible="true" lat="44.11344199" lon="-72.43788557">
    <tag k="addr:housenumber" v="14" />
    <tag k="addr:street" v="Lindsay Lane" />
    <tag k="addr:state" v="VT" />
    <tag k="ref:vcgi:esiteid" v="272752" />
  </node>
  <node id="-178" visible="true" lat="44.11320739" lon="-72.43918146">
    <tag k="addr:housenumber" v="63" />
    <tag k="addr:street" v="Lindsay Lane" />
    <tag k="addr:state" v="VT" />
    <tag k="ref:vcgi:esiteid" v="272753" />
  </node>
  <node id="-179" visible="true" lat="44.11330631" lon="-72.43666501">
    <tag k="addr:housenumber" v="162" />
    <tag k="addr:street" v="Donna Lane" />
    <tag k="addr:state" v="VT" />
    <tag k="ref:vcgi:esiteid" v="272754" />
  </node>
  <node id="-180" visible="true" lat="44.11322266" lon="-72.43888698">
    <tag k="addr:housenumber" v="55" />
    <tag k="addr:street" v="Lindsay Lane" />
    <tag k="addr:state" v="VT" />
    <tag k="ref:vcgi:esiteid" v="272755" />
  </node>
  <node id="-181" visible="true" lat="44.11338003" lon="-72.43744661">
    <tag k="addr:housenumber" v="196" />
    <tag k="addr:street" v="Donna Lane" />
    <tag k="addr:state" v="VT" />
    <tag k="ref:vcgi:esiteid" v="272756" />
  </node>
  <node id="-182" visible="true" lat="44.11334894" lon="-72.43701832">
    <tag k="addr:housenumber" v="180" />
    <tag k="addr:street" v="Donna Lane" />
    <tag k="addr:state" v="VT" />
    <tag k="ref:vcgi:esiteid" v="272757" />
  </node>
  <node id="-183" visible="true" lat="44.11314515" lon="-72.43821247">
    <tag k="addr:housenumber" v="19" />
    <tag k="addr:street" v="Lindsay Lane" />
    <tag k="addr:state" v="VT" />
    <tag k="ref:vcgi:esiteid" v="272758" />
  </node>
  <node id="-184" visible="true" lat="44.11324512" lon="-72.43762878">
    <tag k="addr:housenumber" v="210" />
    <tag k="addr:street" v="Donna Lane" />
    <tag k="addr:state" v="VT" />
    <tag k="ref:vcgi:esiteid" v="272759" />
  </node>
  <node id="-185" visible="true" lat="44.11307748" lon="-72.43554842">
    <tag k="addr:housenumber" v="46" />
    <tag k="addr:street" v="Donna Lane" />
    <tag k="addr:state" v="VT" />
    <tag k="ref:vcgi:esiteid" v="272760" />
  </node>
  <node id="-186" visible="true" lat="44.1129707" lon="-72.43661718">
    <tag k="addr:housenumber" v="160" />
    <tag k="addr:street" v="Donna Lane" />
    <tag k="addr:state" v="VT" />
    <tag k="ref:vcgi:esiteid" v="272761" />
  </node>
  <node id="-187" visible="true" lat="44.11291337" lon="-72.43759165">
    <tag k="addr:housenumber" v="7" />
    <tag k="addr:street" v="Linnea Lane" />
    <tag k="addr:state" v="VT" />
    <tag k="ref:vcgi:esiteid" v="272762" />
  </node>
  <node id="-188" visible="true" lat="44.11302574" lon="-72.43851241">
    <tag k="addr:housenumber" v="24" />
    <tag k="addr:street" v="Linnea Lane" />
    <tag k="addr:state" v="VT" />
    <tag k="ref:vcgi:esiteid" v="272763" />
  </node>
  <node id="-189" visible="true" lat="44.11270904" lon="-72.46430969">
    <tag k="addr:housenumber" v="663" />
    <tag k="addr:street" v="Hyland Hill Road" />
    <tag k="addr:state" v="VT" />
    <tag k="ref:vcgi:esiteid" v="272764" />
  </node>
  <node id="-190" visible="true" lat="44.11273533" lon="-72.43648894">
    <tag k="addr:housenumber" v="144" />
    <tag k="addr:street" v="Donna Lane" />
    <tag k="addr:state" v="VT" />
    <tag k="ref:vcgi:esiteid" v="272765" />
  </node>
  <node id="-191" visible="true" lat="44.11269785" lon="-72.43849134">
    <tag k="addr:housenumber" v="40" />
    <tag k="addr:street" v="Linnea Lane" />
    <tag k="addr:state" v="VT" />
    <tag k="ref:vcgi:esiteid" v="272766" />
  </node>
  <node id="-192" visible="true" lat="44.11259841" lon="-72.43795013">
    <tag k="addr:housenumber" v="33" />
    <tag k="addr:street" v="Linnea Lane" />
    <tag k="addr:state" v="VT" />
    <tag k="ref:vcgi:esiteid" v="272767" />
  </node>
  <node id="-193" visible="true" lat="44.11255353" lon="-72.43616632">
    <tag k="addr:housenumber" v="114" />
    <tag k="addr:street" v="Donna Lane" />
    <tag k="addr:state" v="VT" />
    <tag k="ref:vcgi:esiteid" v="272768" />
  </node>
  <node id="-194" visible="true" lat="44.1124353" lon="-72.43800976">
    <tag k="addr:housenumber" v="57" />
    <tag k="addr:street" v="Linnea Lane" />
    <tag k="addr:state" v="VT" />
    <tag k="ref:vcgi:esiteid" v="272769" />
  </node>
  <node id="-195" visible="true" lat="44.11231087" lon="-72.43620028">
    <tag k="addr:housenumber" v="113" />
    <tag k="addr:street" v="Donna Lane" />
    <tag k="addr:state" v="VT" />
    <tag k="ref:vcgi:esiteid" v="272770" />
  </node>
  <node id="-196" visible="true" lat="44.11224121" lon="-72.43580417">
    <tag k="addr:housenumber" v="95" />
    <tag k="addr:street" v="Donna Lane" />
    <tag k="addr:state" v="VT" />
    <tag k="ref:vcgi:esiteid" v="272771" />
  </node>
  <node id="-197" visible="true" lat="44.11218585" lon="-72.43342712">
    <tag k="addr:housenumber" v="2651" />
    <tag k="addr:street" v="Vermont Route 110" />
    <tag k="addr:state" v="VT" />
    <tag k="ref:vcgi:esiteid" v="272772" />
  </node>
  <node id="-198" visible="true" lat="44.1118796" lon="-72.43412038">
    <tag k="addr:housenumber" v="2670" />
    <tag k="addr:street" v="Vermont Route 110" />
    <tag k="addr:state" v="VT" />
    <tag k="ref:vcgi:esiteid" v="272773" />
  </node>
  <node id="-199" visible="true" lat="44.11183166" lon="-72.4215393">
    <tag k="addr:housenumber" v="183" />
    <tag k="addr:street" v="Morrie Road" />
    <tag k="addr:state" v="VT" />
    <tag k="ref:vcgi:esiteid" v="272775" />
  </node>
  <node id="-200" visible="true" lat="44.11180286" lon="-72.43831559">
    <tag k="addr:housenumber" v="90" />
    <tag k="addr:street" v="Linnea Lane" />
    <tag k="addr:state" v="VT" />
    <tag k="ref:vcgi:esiteid" v="272776" />
  </node>
  <node id="-201" visible="true" lat="44.11170959" lon="-72.42178344">
    <tag k="addr:housenumber" v="185" />
    <tag k="addr:street" v="Morrie Road" />
    <tag k="addr:state" v="VT" />
    <tag k="ref:vcgi:esiteid" v="272777" />
  </node>
  <node id="-202" visible="true" lat="44.11146842" lon="-72.43347076">
    <tag k="addr:housenumber" v="2697" />
    <tag k="addr:street" v="Vermont Route 110" />
    <tag k="addr:state" v="VT" />
    <tag k="ref:vcgi:esiteid" v="272778" />
  </node>
  <node id="-203" visible="true" lat="44.11154976" lon="-72.43404935">
    <tag k="addr:housenumber" v="2700" />
    <tag k="addr:street" v="Vermont Route 110" />
    <tag k="addr:state" v="VT" />
    <tag k="ref:vcgi:esiteid" v="272779" />
  </node>
  <node id="-204" visible="true" lat="44.11054308" lon="-72.43358196">
    <tag k="addr:housenumber" v="2769" />
    <tag k="addr:street" v="Vermont Route 110" />
    <tag k="addr:state" v="VT" />
    <tag k="ref:vcgi:esiteid" v="272780" />
  </node>
  <node id="-205" visible="true" lat="44.11050262" lon="-72.43403482">
    <tag k="addr:housenumber" v="2774" />
    <tag k="addr:street" v="Vermont Route 110" />
    <tag k="addr:state" v="VT" />
    <tag k="ref:vcgi:esiteid" v="272781" />
  </node>
  <node id="-206" visible="true" lat="44.11033673" lon="-72.43356657">
    <tag k="addr:housenumber" v="2777" />
    <tag k="addr:street" v="Vermont Route 110" />
    <tag k="addr:state" v="VT" />
    <tag k="ref:vcgi:esiteid" v="272782" />
  </node>
  <node id="-207" visible="true" lat="44.11022688" lon="-72.43400632">
    <tag k="addr:housenumber" v="2796" />
    <tag k="addr:street" v="Vermont Route 110" />
    <tag k="addr:state" v="VT" />
    <tag k="ref:vcgi:esiteid" v="272783" />
  </node>
  <node id="-208" visible="true" lat="44.11008678" lon="-72.43356138">
    <tag k="addr:housenumber" v="2801" />
    <tag k="addr:street" v="Vermont Route 110" />
    <tag k="addr:state" v="VT" />
    <tag k="ref:vcgi:esiteid" v="272784" />
  </node>
  <node id="-209" visible="true" lat="44.10999055" lon="-72.44818545">
    <tag k="addr:housenumber" v="618" />
    <tag k="addr:street" v="Carrier Road" />
    <tag k="addr:state" v="VT" />
    <tag k="ref:vcgi:esiteid" v="272785" />
  </node>
  <node id="-210" visible="true" lat="44.10982357" lon="-72.44760993">
    <tag k="addr:housenumber" v="612" />
    <tag k="addr:street" v="Carrier Road" />
    <tag k="addr:state" v="VT" />
    <tag k="ref:vcgi:esiteid" v="272786" />
  </node>
  <node id="-211" visible="true" lat="44.10984077" lon="-72.43353703">
    <tag k="addr:housenumber" v="2815" />
    <tag k="addr:street" v="Vermont Route 110" />
    <tag k="addr:state" v="VT" />
    <tag k="ref:vcgi:esiteid" v="272787" />
  </node>
  <node id="-212" visible="true" lat="44.10985172" lon="-72.434026">
    <tag k="addr:housenumber" v="2816" />
    <tag k="addr:street" v="Vermont Route 110" />
    <tag k="addr:state" v="VT" />
    <tag k="ref:vcgi:esiteid" v="272788" />
  </node>
  <node id="-213" visible="true" lat="44.10944561" lon="-72.44729122">
    <tag k="addr:housenumber" v="590" />
    <tag k="addr:street" v="Carrier Road" />
    <tag k="addr:state" v="VT" />
    <tag k="ref:vcgi:esiteid" v="272789" />
  </node>
  <node id="-214" visible="true" lat="44.10956325" lon="-72.43408501">
    <tag k="addr:housenumber" v="2830" />
    <tag k="addr:street" v="Vermont Route 110" />
    <tag k="addr:state" v="VT" />
    <tag k="ref:vcgi:esiteid" v="272790" />
  </node>
  <node id="-215" visible="true" lat="44.10954691" lon="-72.4336248">
    <tag k="addr:housenumber" v="2837" />
    <tag k="addr:street" v="Vermont Route 110" />
    <tag k="addr:state" v="VT" />
    <tag k="ref:vcgi:esiteid" v="272791" />
  </node>
  <node id="-216" visible="true" lat="44.1094292" lon="-72.43292944">
    <tag k="addr:housenumber" v="2889" />
    <tag k="addr:street" v="Vermont Route 110" />
    <tag k="addr:state" v="VT" />
    <tag k="ref:vcgi:esiteid" v="272792" />
  </node>
  <node id="-217" visible="true" lat="44.10901641" lon="-72.43389129">
    <tag k="addr:housenumber" v="2868" />
    <tag k="addr:street" v="Vermont Route 110" />
    <tag k="addr:state" v="VT" />
    <tag k="ref:vcgi:esiteid" v="272793" />
  </node>
  <node id="-218" visible="true" lat="44.10919903" lon="-72.45218341">
    <tag k="addr:housenumber" v="186" />
    <tag k="addr:street" v="Downing Road" />
    <tag k="addr:state" v="VT" />
    <tag k="ref:vcgi:esiteid" v="272794" />
  </node>
  <node id="-219" visible="true" lat="44.10903144" lon="-72.43352036">
    <tag k="addr:housenumber" v="2881" />
    <tag k="addr:street" v="Vermont Route 110" />
    <tag k="addr:state" v="VT" />
    <tag k="ref:vcgi:esiteid" v="272795" />
  </node>
  <node id="-220" visible="true" lat="44.10875662" lon="-72.43335451">
    <tag k="addr:housenumber" v="2895" />
    <tag k="addr:street" v="Vermont Route 110" />
    <tag k="addr:state" v="VT" />
    <tag k="ref:vcgi:esiteid" v="272796" />
  </node>
  <node id="-221" visible="true" lat="44.10863831" lon="-72.43384265">
    <tag k="addr:housenumber" v="2892" />
    <tag k="addr:street" v="Vermont Route 110" />
    <tag k="addr:state" v="VT" />
    <tag k="ref:vcgi:esiteid" v="272797" />
  </node>
  <node id="-222" visible="true" lat="44.10869918" lon="-72.43641943">
    <tag k="addr:housenumber" v="50" />
    <tag k="addr:street" v="Firehouse Road" />
    <tag k="addr:state" v="VT" />
    <tag k="ref:vcgi:esiteid" v="272798" />
  </node>
  <node id="-223" visible="true" lat="44.10850524" lon="-72.42028045">
    <tag k="addr:housenumber" v="577" />
    <tag k="addr:street" v="Woodchuck Hollow Road" />
    <tag k="addr:state" v="VT" />
    <tag k="ref:vcgi:esiteid" v="272799" />
  </node>
  <node id="-224" visible="true" lat="44.10845724" lon="-72.44477978">
    <tag k="addr:housenumber" v="422" />
    <tag k="addr:street" v="Carrier Road" />
    <tag k="addr:state" v="VT" />
    <tag k="ref:vcgi:esiteid" v="272800" />
  </node>
  <node id="-225" visible="true" lat="44.10837173" lon="-72.42211151">
    <tag k="addr:housenumber" v="27" />
    <tag k="addr:street" v="Morrie Road" />
    <tag k="addr:state" v="VT" />
    <tag k="ref:vcgi:esiteid" v="272801" />
  </node>
  <node id="-226" visible="true" lat="44.10838826" lon="-72.41938847">
    <tag k="addr:housenumber" v="634" />
    <tag k="addr:street" v="Woodchuck Hollow Road" />
    <tag k="addr:state" v="VT" />
    <tag k="ref:vcgi:esiteid" v="272802" />
  </node>
  <node id="-227" visible="true" lat="44.10832667" lon="-72.43379027">
    <tag k="addr:housenumber" v="2920" />
    <tag k="addr:street" v="Vermont Route 110" />
    <tag k="addr:state" v="VT" />
    <tag k="ref:vcgi:esiteid" v="272803" />
  </node>
  <node id="-228" visible="true" lat="44.10814911" lon="-72.41974846">
    <tag k="addr:housenumber" v="584" />
    <tag k="addr:street" v="Woodchuck Hollow Road" />
    <tag k="addr:state" v="VT" />
    <tag k="ref:vcgi:esiteid" v="272804" />
  </node>
  <node id="-229" visible="true" lat="44.10821151" lon="-72.41361236">
    <tag k="addr:housenumber" v="901" />
    <tag k="addr:street" v="Woodchuck Hollow Road" />
    <tag k="addr:state" v="VT" />
    <tag k="ref:vcgi:esiteid" v="272805" />
  </node>
  <node id="-230" visible="true" lat="44.10812245" lon="-72.43381164">
    <tag k="addr:housenumber" v="2930" />
    <tag k="addr:street" v="Vermont Route 110" />
    <tag k="addr:state" v="VT" />
    <tag k="ref:vcgi:esiteid" v="272806" />
  </node>
  <node id="-231" visible="true" lat="44.10803852" lon="-72.43370483">
    <tag k="addr:housenumber" v="2938" />
    <tag k="addr:street" v="Vermont Route 110" />
    <tag k="addr:state" v="VT" />
    <tag k="ref:vcgi:esiteid" v="272807" />
  </node>
  <node id="-232" visible="true" lat="44.10801696" lon="-72.43327331">
    <tag k="addr:housenumber" v="2941" />
    <tag k="addr:street" v="Vermont Route 110" />
    <tag k="addr:state" v="VT" />
    <tag k="ref:vcgi:esiteid" v="272808" />
  </node>
  <node id="-233" visible="true" lat="44.10799408" lon="-72.40644073">
    <tag k="addr:housenumber" v="1351" />
    <tag k="addr:street" v="Woodchuck Hollow Road" />
    <tag k="addr:state" v="VT" />
    <tag k="ref:vcgi:esiteid" v="272809" />
  </node>
  <node id="-234" visible="true" lat="44.10814004" lon="-72.45181261">
    <tag k="addr:housenumber" v="228" />
    <tag k="addr:street" v="Downing Road" />
    <tag k="addr:state" v="VT" />
    <tag k="ref:vcgi:esiteid" v="272810" />
  </node>
  <node id="-235" visible="true" lat="44.10785293" lon="-72.42157745">
    <tag k="addr:housenumber" v="499" />
    <tag k="addr:street" v="Woodchuck Hollow Road" />
    <tag k="addr:state" v="VT" />
    <tag k="ref:vcgi:esiteid" v="272811" />
  </node>
  <node id="-236" visible="true" lat="44.10797137" lon="-72.43450703">
    <tag k="addr:housenumber" v="44" />
    <tag k="addr:street" v="Firehouse Road" />
    <tag k="addr:state" v="VT" />
    <tag k="ref:vcgi:esiteid" v="272812" />
  </node>
  <node id="-237" visible="true" lat="44.10764312" lon="-72.41005706">
    <tag k="addr:housenumber" v="1157" />
    <tag k="addr:street" v="Woodchuck Hollow Road" />
    <tag k="addr:state" v="VT" />
    <tag k="ref:vcgi:esiteid" v="272814" />
  </node>
  <node id="-238" visible="true" lat="44.10765838" lon="-72.43518066">
    <tag k="addr:housenumber" v="48" />
    <tag k="addr:street" v="Firehouse Road" />
    <tag k="addr:state" v="VT" />
    <tag k="ref:vcgi:esiteid" v="272815" />
  </node>
  <node id="-239" visible="true" lat="44.10765075" lon="-72.43344879">
    <tag k="addr:housenumber" v="2964" />
    <tag k="addr:street" v="Vermont Route 110" />
    <tag k="addr:state" v="VT" />
    <tag k="ref:vcgi:esiteid" v="272816" />
  </node>
  <node id="-240" visible="true" lat="44.10756672" lon="-72.43295724">
    <tag k="addr:housenumber" v="2973" />
    <tag k="addr:street" v="Vermont Route 110" />
    <tag k="addr:state" v="VT" />
    <tag k="ref:vcgi:esiteid" v="272817" />
  </node>
  <node id="-241" visible="true" lat="44.10752105" lon="-72.42523956">
    <tag k="addr:housenumber" v="291" />
    <tag k="addr:street" v="Woodchuck Hollow Road" />
    <tag k="addr:state" v="VT" />
    <tag k="ref:vcgi:esiteid" v="272818" />
  </node>
  <node id="-242" visible="true" lat="44.10741269" lon="-72.43427361">
    <tag k="addr:housenumber" v="51" />
    <tag k="addr:street" v="Firehouse Road" />
    <tag k="addr:state" v="VT" />
    <tag k="ref:vcgi:esiteid" v="272820" />
  </node>
  <node id="-243" visible="true" lat="44.10742568" lon="-72.41210174">
    <tag k="addr:housenumber" v="1009" />
    <tag k="addr:street" v="Woodchuck Hollow Road" />
    <tag k="addr:state" v="VT" />
    <tag k="ref:vcgi:esiteid" v="272821" />
  </node>
  <node id="-244" visible="true" lat="44.1074028" lon="-72.43351745">
    <tag k="addr:housenumber" v="2980" />
    <tag k="addr:street" v="Vermont Route 110" />
    <tag k="addr:state" v="VT" />
    <tag k="ref:vcgi:esiteid" v="272822" />
  </node>
  <node id="-245" visible="true" lat="44.1074053" lon="-72.43293319">
    <tag k="addr:housenumber" v="2985" />
    <tag k="addr:street" v="Vermont Route 110" />
    <tag k="addr:state" v="VT" />
    <tag k="ref:vcgi:esiteid" v="272823" />
  </node>
  <node id="-246" visible="true" lat="44.10716143" lon="-72.4345249">
    <tag k="addr:housenumber" v="79" />
    <tag k="addr:street" v="Firehouse Road" />
    <tag k="addr:state" v="VT" />
    <tag k="ref:vcgi:esiteid" v="272825" />
  </node>
  <node id="-247" visible="true" lat="44.10717773" lon="-72.43336486">
    <tag k="addr:housenumber" v="2996" />
    <tag k="addr:street" v="Vermont Route 110" />
    <tag k="addr:state" v="VT" />
    <tag k="ref:vcgi:esiteid" v="272826" />
  </node>
  <node id="-248" visible="true" lat="44.10711489" lon="-72.4352473">
    <tag k="addr:housenumber" v="96" />
    <tag k="addr:street" v="Firehouse Road" />
    <tag k="addr:state" v="VT" />
    <tag k="ref:vcgi:esiteid" v="272827" />
  </node>
  <node id="-249" visible="true" lat="44.10713958" lon="-72.42239379">
    <tag k="addr:housenumber" v="436" />
    <tag k="addr:street" v="Woodchuck Hollow Road" />
    <tag k="addr:state" v="VT" />
    <tag k="ref:vcgi:esiteid" v="272828" />
  </node>
  <node id="-250" visible="true" lat="44.10707855" lon="-72.41431427">
    <tag k="addr:housenumber" v="64" />
    <tag k="addr:street" v="Davis Lane" />
    <tag k="addr:state" v="VT" />
    <tag k="ref:vcgi:esiteid" v="272829" />
  </node>
  <node id="-251" visible="true" lat="44.10707092" lon="-72.41277313">
    <tag k="addr:housenumber" v="1008" />
    <tag k="addr:street" v="Woodchuck Hollow Road" />
    <tag k="addr:state" v="VT" />
    <tag k="ref:vcgi:esiteid" v="272830" />
  </node>
  <node id="-252" visible="true" lat="44.10707473" lon="-72.43292999">
    <tag k="addr:housenumber" v="3009" />
    <tag k="addr:street" v="Vermont Route 110" />
    <tag k="addr:state" v="VT" />
    <tag k="ref:vcgi:esiteid" v="272831" />
  </node>
  <node id="-253" visible="true" lat="44.1070671" lon="-72.42992401">
    <tag k="addr:housenumber" v="73" />
    <tag k="addr:street" v="Fairgrounds Road" />
    <tag k="addr:state" v="VT" />
    <tag k="ref:vcgi:esiteid" v="272832" />
  </node>
  <node id="-254" visible="true" lat="44.10699833" lon="-72.43335779">
    <tag k="addr:housenumber" v="3008" />
    <tag k="addr:street" v="Vermont Route 110" />
    <tag k="addr:state" v="VT" />
    <tag k="ref:vcgi:esiteid" v="272833" />
  </node>
  <node id="-255" visible="true" lat="44.10688781" lon="-72.42363739">
    <tag k="addr:housenumber" v="372" />
    <tag k="addr:street" v="Woodchuck Hollow Road" />
    <tag k="addr:state" v="VT" />
    <tag k="ref:vcgi:esiteid" v="272834" />
  </node>
  <node id="-256" visible="true" lat="44.106884" lon="-72.43330383">
    <tag k="addr:housenumber" v="3018" />
    <tag k="addr:street" v="Vermont Route 110" />
    <tag k="addr:state" v="VT" />
    <tag k="ref:vcgi:esiteid" v="272835" />
  </node>
  <node id="-257" visible="true" lat="44.10684096" lon="-72.43277631">
    <tag k="addr:housenumber" v="3029" />
    <tag k="addr:street" v="Vermont Route 110" />
    <tag k="addr:state" v="VT" />
    <tag k="ref:vcgi:esiteid" v="272836" />
  </node>
  <node id="-258" visible="true" lat="44.10677719" lon="-72.4300003">
    <tag k="addr:housenumber" v="57" />
    <tag k="addr:street" v="Fairgrounds Road" />
    <tag k="addr:state" v="VT" />
    <tag k="ref:vcgi:esiteid" v="272837" />
  </node>
  <node id="-259" visible="true" lat="44.10673904" lon="-72.42964172">
    <tag k="addr:housenumber" v="56" />
    <tag k="addr:street" v="Fairgrounds Road" />
    <tag k="addr:state" v="VT" />
    <tag k="ref:vcgi:esiteid" v="272838" />
  </node>
  <node id="-260" visible="true" lat="44.10673904" lon="-72.43541717">
    <tag k="addr:housenumber" v="130" />
    <tag k="addr:street" v="Firehouse Road" />
    <tag k="addr:state" v="VT" />
    <tag k="ref:vcgi:esiteid" v="272839" />
  </node>
  <node id="-261" visible="true" lat="44.10671615" lon="-72.4331665">
    <tag k="addr:housenumber" v="3030" />
    <tag k="addr:street" v="Vermont Route 110" />
    <tag k="addr:state" v="VT" />
    <tag k="ref:vcgi:esiteid" v="272840" />
  </node>
  <node id="-262" visible="true" lat="44.10663986" lon="-72.41082">
    <tag k="addr:housenumber" v="1093" />
    <tag k="addr:street" v="Woodchuck Hollow Road" />
    <tag k="addr:state" v="VT" />
    <tag k="ref:vcgi:esiteid" v="272841" />
  </node>
  <node id="-263" visible="true" lat="44.10662841" lon="-72.43045806">
    <tag k="addr:housenumber" v="33" />
    <tag k="addr:street" v="Woodchuck Hollow Road" />
    <tag k="addr:state" v="VT" />
    <tag k="ref:vcgi:esiteid" v="272842" />
  </node>
  <node id="-264" visible="true" lat="44.1066246" lon="-72.45134734">
    <tag k="addr:housenumber" v="255" />
    <tag k="addr:street" v="Downing Road" />
    <tag k="addr:state" v="VT" />
    <tag k="ref:vcgi:esiteid" v="272843" />
  </node>
  <node id="-265" visible="true" lat="44.10659408" lon="-72.43283081">
    <tag k="addr:housenumber" v="3043" />
    <tag k="addr:street" v="Vermont Route 110" />
    <tag k="addr:state" v="VT" />
    <tag k="ref:vcgi:esiteid" v="272844" />
  </node>
  <node id="-266" visible="true" lat="44.10671091" lon="-72.42684199">
    <tag k="addr:housenumber" v="205" />
    <tag k="addr:street" v="Woodchuck Hollow Road" />
    <tag k="addr:state" v="VT" />
    <tag k="ref:vcgi:esiteid" v="272845" />
  </node>
  <node id="-267" visible="true" lat="44.10656867" lon="-72.42569352">
    <tag k="addr:housenumber" v="257" />
    <tag k="addr:street" v="Woodchuck Hollow Road" />
    <tag k="addr:state" v="VT" />
    <tag k="ref:vcgi:esiteid" v="272846" />
  </node>
  <node id="-268" visible="true" lat="44.10650253" lon="-72.43272399">
    <tag k="addr:housenumber" v="3049" />
    <tag k="addr:street" v="Vermont Route 110" />
    <tag k="addr:state" v="VT" />
    <tag k="ref:vcgi:esiteid" v="272847" />
  </node>
  <node id="-269" visible="true" lat="44.10648345" lon="-72.41150665">
    <tag k="addr:housenumber" v="1082" />
    <tag k="addr:street" v="Woodchuck Hollow Road" />
    <tag k="addr:state" v="VT" />
    <tag k="ref:vcgi:esiteid" v="272848" />
  </node>
  <node id="-270" visible="true" lat="44.10691879" lon="-72.45393892">
    <tag k="addr:housenumber" v="256" />
    <tag k="addr:street" v="Downing Road" />
    <tag k="addr:state" v="VT" />
    <tag k="ref:vcgi:esiteid" v="272849" />
  </node>
  <node id="-271" visible="true" lat="44.10644531" lon="-72.42481231">
    <tag k="addr:housenumber" v="306" />
    <tag k="addr:street" v="Woodchuck Hollow Road" />
    <tag k="addr:state" v="VT" />
    <tag k="ref:vcgi:esiteid" v="272850" />
  </node>
  <node id="-272" visible="true" lat="44.10651187" lon="-72.4331943">
    <tag k="addr:housenumber" v="3052" />
    <tag k="addr:street" v="Vermont Route 110" />
    <tag k="addr:state" v="VT" />
    <tag k="ref:vcgi:esiteid" v="272851" />
  </node>
  <node id="-273" visible="true" lat="44.10658719" lon="-72.42841659">
    <tag k="addr:housenumber" v="117" />
    <tag k="addr:street" v="Woodchuck Hollow Road" />
    <tag k="addr:state" v="VT" />
    <tag k="ref:vcgi:esiteid" v="272852" />
  </node>
  <node id="-274" visible="true" lat="44.10630752" lon="-72.43313538">
    <tag k="addr:housenumber" v="3056" />
    <tag k="addr:street" v="Vermont Route 110" />
    <tag k="addr:state" v="VT" />
    <tag k="ref:vcgi:esiteid" v="272854" />
  </node>
  <node id="-275" visible="true" lat="44.10629653" lon="-72.40892791">
    <tag k="addr:housenumber" v="1196" />
    <tag k="addr:street" v="Woodchuck Hollow Road" />
    <tag k="addr:state" v="VT" />
    <tag k="ref:vcgi:esiteid" v="272855" />
  </node>
  <node id="-276" visible="true" lat="44.10627746" lon="-72.4303894">
    <tag k="addr:housenumber" v="31" />
    <tag k="addr:street" v="Woodchuck Hollow Road" />
    <tag k="addr:state" v="VT" />
    <tag k="ref:vcgi:esiteid" v="272856" />
  </node>
  <node id="-277" visible="true" lat="44.1062575" lon="-72.40168729">
    <tag k="addr:housenumber" v="1560" />
    <tag k="addr:street" v="Woodchuck Hollow Road" />
    <tag k="addr:state" v="VT" />
    <tag k="ref:vcgi:esiteid" v="272857" />
  </node>
  <node id="-278" visible="true" lat="44.1062622" lon="-72.43262481">
    <tag k="addr:housenumber" v="3067" />
    <tag k="addr:street" v="Vermont Route 110" />
    <tag k="addr:state" v="VT" />
    <tag k="ref:vcgi:esiteid" v="272858" />
  </node>
  <node id="-279" visible="true" lat="44.10625839" lon="-72.4307022">
    <tag k="addr:housenumber" v="29" />
    <tag k="addr:street" v="Woodchuck Hollow Road" />
    <tag k="addr:state" v="VT" />
    <tag k="ref:vcgi:esiteid" v="272859" />
  </node>
  <node id="-280" visible="true" lat="44.10625076" lon="-72.42814636">
    <tag k="addr:housenumber" v="141" />
    <tag k="addr:street" v="Woodchuck Hollow Road" />
    <tag k="addr:state" v="VT" />
    <tag k="ref:vcgi:esiteid" v="272860" />
  </node>
  <node id="-281" visible="true" lat="44.10617446" lon="-72.4102478">
    <tag k="addr:housenumber" v="1128" />
    <tag k="addr:street" v="Woodchuck Hollow Road" />
    <tag k="addr:state" v="VT" />
    <tag k="ref:vcgi:esiteid" v="272861" />
  </node>
  <node id="-282" visible="true" lat="44.10621737" lon="-72.42898308">
    <tag k="addr:housenumber" v="93" />
    <tag k="addr:street" v="Woodchuck Hollow Road" />
    <tag k="addr:state" v="VT" />
    <tag k="ref:vcgi:esiteid" v="272862" />
  </node>
  <node id="-283" visible="true" lat="44.10612487" lon="-72.40419006">
    <tag k="addr:housenumber" v="1420" />
    <tag k="addr:street" v="Woodchuck Hollow Road" />
    <tag k="addr:state" v="VT" />
    <tag k="ref:vcgi:esiteid" v="272863" />
  </node>
  <node id="-284" visible="true" lat="44.10622917" lon="-72.3975319">
    <tag k="addr:housenumber" v="1801" />
    <tag k="addr:street" v="Woodchuck Hollow Road" />
    <tag k="addr:state" v="VT" />
    <tag k="ref:vcgi:esiteid" v="272864" />
  </node>
  <node id="-285" visible="true" lat="44.10608291" lon="-72.43250274">
    <tag k="addr:housenumber" v="3081" />
    <tag k="addr:street" v="Vermont Route 110" />
    <tag k="addr:state" v="VT" />
    <tag k="ref:vcgi:esiteid" v="272865" />
  </node>
  <node id="-286" visible="true" lat="44.10612581" lon="-72.43175709">
    <tag k="addr:housenumber" v="41" />
    <tag k="addr:street" v="West Corinth Road" />
    <tag k="addr:state" v="VT" />
    <tag k="ref:vcgi:esiteid" v="272866" />
  </node>
  <node id="-287" visible="true" lat="44.10607528" lon="-72.43311309">
    <tag k="addr:housenumber" v="3074" />
    <tag k="addr:street" v="Vermont Route 110" />
    <tag k="addr:state" v="VT" />
    <tag k="ref:vcgi:esiteid" v="272867" />
  </node>
  <node id="-288" visible="true" lat="44.10591401" lon="-72.40593749">
    <tag k="addr:housenumber" v="1324" />
    <tag k="addr:street" v="Woodchuck Hollow Road" />
    <tag k="addr:state" v="VT" />
    <tag k="ref:vcgi:esiteid" v="272868" />
  </node>
  <node id="-289" visible="true" lat="44.10602561" lon="-72.43006228">
    <tag k="addr:housenumber" v="39" />
    <tag k="addr:street" v="Woodchuck Hollow Road" />
    <tag k="addr:state" v="VT" />
    <tag k="ref:vcgi:esiteid" v="272869" />
  </node>
  <node id="-290" visible="true" lat="44.10597228" lon="-72.437294">
    <tag k="addr:housenumber" v="218" />
    <tag k="addr:street" v="Firehouse Road" />
    <tag k="addr:state" v="VT" />
    <tag k="ref:vcgi:esiteid" v="272871" />
  </node>
  <node id="-291" visible="true" lat="44.10591888" lon="-72.42874145">
    <tag k="addr:housenumber" v="110" />
    <tag k="addr:street" v="Woodchuck Hollow Road" />
    <tag k="addr:state" v="VT" />
    <tag k="ref:vcgi:esiteid" v="272872" />
  </node>
  <node id="-292" visible="true" lat="44.10585784" lon="-72.43824005">
    <tag k="addr:housenumber" v="272" />
    <tag k="addr:street" v="Firehouse Road" />
    <tag k="addr:state" v="VT" />
    <tag k="ref:vcgi:esiteid" v="272874" />
  </node>
  <node id="-293" visible="true" lat="44.10583877" lon="-72.43656921">
    <tag k="addr:housenumber" v="216" />
    <tag k="addr:street" v="Firehouse Road" />
    <tag k="addr:state" v="VT" />
    <tag k="ref:vcgi:esiteid" v="272875" />
  </node>
  <node id="-294" visible="true" lat="44.1058197" lon="-72.43285369">
    <tag k="addr:housenumber" v="3094" />
    <tag k="addr:street" v="Vermont Route 110" />
    <tag k="addr:state" v="VT" />
    <tag k="ref:vcgi:esiteid" v="272876" />
  </node>
  <node id="-295" visible="true" lat="44.10577011" lon="-72.43144989">
    <tag k="addr:housenumber" v="64" />
    <tag k="addr:street" v="West Corinth Road" />
    <tag k="addr:state" v="VT" />
    <tag k="ref:vcgi:esiteid" v="272877" />
  </node>
  <node id="-296" visible="true" lat="44.10576248" lon="-72.42562866">
    <tag k="addr:housenumber" v="157" />
    <tag k="addr:street" v="Vermette Lane" />
    <tag k="addr:state" v="VT" />
    <tag k="ref:vcgi:esiteid" v="272878" />
  </node>
  <node id="-297" visible="true" lat="44.1057434" lon="-72.43208313">
    <tag k="addr:housenumber" v="32" />
    <tag k="addr:street" v="West Corinth Road" />
    <tag k="addr:state" v="VT" />
    <tag k="ref:vcgi:esiteid" v="272879" />
  </node>
  <node id="-298" visible="true" lat="44.10573196" lon="-72.42461395">
    <tag k="addr:housenumber" v="209" />
    <tag k="addr:street" v="Vermette Lane" />
    <tag k="addr:state" v="VT" />
    <tag k="ref:vcgi:esiteid" v="272880" />
  </node>
  <node id="-299" visible="true" lat="44.10567474" lon="-72.4303894">
    <tag k="addr:housenumber" v="16" />
    <tag k="addr:street" v="Woodchuck Hollow Road" />
    <tag k="addr:state" v="VT" />
    <tag k="ref:vcgi:esiteid" v="272881" />
  </node>
  <node id="-300" visible="true" lat="44.10557831" lon="-72.4329582">
    <tag k="addr:housenumber" v="3106" />
    <tag k="addr:street" v="Vermont Route 110" />
    <tag k="addr:state" v="VT" />
    <tag k="ref:vcgi:esiteid" v="272882" />
  </node>
  <node id="-301" visible="true" lat="44.10565948" lon="-72.43253326">
    <tag k="addr:housenumber" v="3109" />
    <tag k="addr:street" v="Vermont Route 110" />
    <tag k="addr:state" v="VT" />
    <tag k="ref:vcgi:esiteid" v="272883" />
  </node>
  <node id="-302" visible="true" lat="44.10564422" lon="-72.43097686">
    <tag k="addr:housenumber" v="116" />
    <tag k="addr:street" v="West Corinth Road" />
    <tag k="addr:state" v="VT" />
    <tag k="ref:vcgi:esiteid" v="272884" />
  </node>
  <node id="-303" visible="true" lat="44.10560226" lon="-72.42386627">
    <tag k="addr:housenumber" v="247" />
    <tag k="addr:street" v="Vermette Lane" />
    <tag k="addr:state" v="VT" />
    <tag k="ref:vcgi:esiteid" v="272885" />
  </node>
  <node id="-304" visible="true" lat="44.10548919" lon="-72.43721192">
    <tag k="addr:housenumber" v="258" />
    <tag k="addr:street" v="Firehouse Road" />
    <tag k="addr:state" v="VT" />
    <tag k="ref:vcgi:esiteid" v="272886" />
  </node>
  <node id="-305" visible="true" lat="44.10548106" lon="-72.42673553">
    <tag k="addr:housenumber" v="111" />
    <tag k="addr:street" v="Vermette Lane" />
    <tag k="addr:state" v="VT" />
    <tag k="ref:vcgi:esiteid" v="272887" />
  </node>
  <node id="-306" visible="true" lat="44.10525131" lon="-72.43238067">
    <tag k="addr:housenumber" v="3139" />
    <tag k="addr:street" v="Vermont Route 110" />
    <tag k="addr:state" v="VT" />
    <tag k="ref:vcgi:esiteid" v="272888" />
  </node>
  <node id="-307" visible="true" lat="44.10523223" lon="-72.4228363">
    <tag k="addr:housenumber" v="289" />
    <tag k="addr:street" v="Vermette Lane" />
    <tag k="addr:state" v="VT" />
    <tag k="ref:vcgi:esiteid" v="272889" />
  </node>
  <node id="-308" visible="true" lat="44.10521697" lon="-72.43285369">
    <tag k="addr:housenumber" v="3138" />
    <tag k="addr:street" v="Vermont Route 110" />
    <tag k="addr:state" v="VT" />
    <tag k="ref:vcgi:esiteid" v="272890" />
  </node>
  <node id="-309" visible="true" lat="44.10521316" lon="-72.42571258">
    <tag k="addr:housenumber" v="106" />
    <tag k="addr:street" v="Vermette Lane" />
    <tag k="addr:state" v="VT" />
    <tag k="ref:vcgi:esiteid" v="272891" />
  </node>
  <node id="-310" visible="true" lat="44.10514852" lon="-72.44092914">
    <tag k="addr:housenumber" v="119" />
    <tag k="addr:street" v="Carrier Road" />
    <tag k="addr:state" v="VT" />
    <tag k="ref:vcgi:esiteid" v="272892" />
  </node>
  <node id="-311" visible="true" lat="44.10491325" lon="-72.43796441">
    <tag k="addr:housenumber" v="290" />
    <tag k="addr:street" v="Firehouse Road" />
    <tag k="addr:state" v="VT" />
    <tag k="ref:vcgi:esiteid" v="272893" />
  </node>
  <node id="-312" visible="true" lat="44.10477447" lon="-72.42378997">
    <tag k="addr:housenumber" v="330" />
    <tag k="addr:street" v="Vermette Lane" />
    <tag k="addr:state" v="VT" />
    <tag k="ref:vcgi:esiteid" v="272894" />
  </node>
  <node id="-313" visible="true" lat="44.10454845" lon="-72.43696809">
    <tag k="addr:housenumber" v="299" />
    <tag k="addr:street" v="Firehouse Road" />
    <tag k="addr:state" v="VT" />
    <tag k="ref:vcgi:esiteid" v="272895" />
  </node>
  <node id="-314" visible="true" lat="44.10479908" lon="-72.42701692">
    <tag k="addr:housenumber" v="53" />
    <tag k="addr:street" v="Vermette Lane" />
    <tag k="addr:state" v="VT" />
    <tag k="ref:vcgi:esiteid" v="272896" />
  </node>
  <node id="-315" visible="true" lat="44.10451888" lon="-72.44937133">
    <tag k="addr:housenumber" v="364" />
    <tag k="addr:street" v="Macdonald Road" />
    <tag k="addr:state" v="VT" />
    <tag k="ref:vcgi:esiteid" v="272897" />
  </node>
  <node id="-316" visible="true" lat="44.10459637" lon="-72.42611919">
    <tag k="addr:housenumber" v="60" />
    <tag k="addr:street" v="Vermette Lane" />
    <tag k="addr:state" v="VT" />
    <tag k="ref:vcgi:esiteid" v="272898" />
  </node>
  <node id="-317" visible="true" lat="44.10426712" lon="-72.42803192">
    <tag k="addr:housenumber" v="273" />
    <tag k="addr:street" v="West Corinth Road" />
    <tag k="addr:state" v="VT" />
    <tag k="ref:vcgi:esiteid" v="272899" />
  </node>
  <node id="-318" visible="true" lat="44.10414123" lon="-72.42734527">
    <tag k="addr:housenumber" v="13" />
    <tag k="addr:street" v="Vermette Lane" />
    <tag k="addr:state" v="VT" />
    <tag k="ref:vcgi:esiteid" v="272900" />
  </node>
  <node id="-319" visible="true" lat="44.10419709" lon="-72.43960117">
    <tag k="addr:housenumber" v="203" />
    <tag k="addr:street" v="Carrier Road East" />
    <tag k="addr:state" v="VT" />
    <tag k="ref:vcgi:esiteid" v="272901" />
  </node>
  <node id="-320" visible="true" lat="44.10406875" lon="-72.44198608">
    <tag k="addr:housenumber" v="111" />
    <tag k="addr:street" v="Macdonald Road" />
    <tag k="addr:state" v="VT" />
    <tag k="ref:vcgi:esiteid" v="272902" />
  </node>
  <node id="-321" visible="true" lat="44.10366821" lon="-72.44374847">
    <tag k="addr:housenumber" v="201" />
    <tag k="addr:street" v="Macdonald Road" />
    <tag k="addr:state" v="VT" />
    <tag k="ref:vcgi:esiteid" v="272904" />
  </node>
  <node id="-322" visible="true" lat="44.10358047" lon="-72.42624664">
    <tag k="addr:housenumber" v="373" />
    <tag k="addr:street" v="West Corinth Road" />
    <tag k="addr:state" v="VT" />
    <tag k="ref:vcgi:esiteid" v="272905" />
  </node>
  <node id="-323" visible="true" lat="44.10356275" lon="-72.42719102">
    <tag k="addr:housenumber" v="338" />
    <tag k="addr:street" v="West Corinth Road" />
    <tag k="addr:state" v="VT" />
    <tag k="ref:vcgi:esiteid" v="272906" />
  </node>
  <node id="-324" visible="true" lat="44.10350392" lon="-72.43587664">
    <tag k="addr:housenumber" v="42" />
    <tag k="addr:street" v="Carrier Road East" />
    <tag k="addr:state" v="VT" />
    <tag k="ref:vcgi:esiteid" v="272907" />
  </node>
  <node id="-325" visible="true" lat="44.10340881" lon="-72.44493865">
    <tag k="addr:housenumber" v="261" />
    <tag k="addr:street" v="Macdonald Road" />
    <tag k="addr:state" v="VT" />
    <tag k="ref:vcgi:esiteid" v="272908" />
  </node>
  <node id="-326" visible="true" lat="44.10342523" lon="-72.40560392">
    <tag k="addr:housenumber" v="255" />
    <tag k="addr:street" v="Driscoll Lane" />
    <tag k="addr:state" v="VT" />
    <tag k="ref:vcgi:esiteid" v="272909" />
  </node>
  <node id="-327" visible="true" lat="44.10329818" lon="-72.44467163">
    <tag k="addr:housenumber" v="251" />
    <tag k="addr:street" v="Macdonald Road" />
    <tag k="addr:state" v="VT" />
    <tag k="ref:vcgi:esiteid" v="272910" />
  </node>
  <node id="-328" visible="true" lat="44.10338676" lon="-72.43533543">
    <tag k="addr:housenumber" v="3338" />
    <tag k="addr:street" v="Vermont Route 110" />
    <tag k="addr:state" v="VT" />
    <tag k="ref:vcgi:esiteid" v="272911" />
  </node>
  <node id="-329" visible="true" lat="44.10330388" lon="-72.40689515">
    <tag k="addr:housenumber" v="306" />
    <tag k="addr:street" v="Driscoll Lane" />
    <tag k="addr:state" v="VT" />
    <tag k="ref:vcgi:esiteid" v="272912" />
  </node>
  <node id="-330" visible="true" lat="44.10313797" lon="-72.41310119">
    <tag k="addr:housenumber" v="335" />
    <tag k="addr:street" v="Davis Lane" />
    <tag k="addr:state" v="VT" />
    <tag k="ref:vcgi:esiteid" v="272913" />
  </node>
  <node id="-331" visible="true" lat="44.1032148" lon="-72.43455203">
    <tag k="addr:housenumber" v="3317" />
    <tag k="addr:street" v="Vermont Route 110" />
    <tag k="addr:state" v="VT" />
    <tag k="ref:vcgi:esiteid" v="272914" />
  </node>
  <node id="-332" visible="true" lat="44.10313415" lon="-72.42539215">
    <tag k="addr:housenumber" v="423" />
    <tag k="addr:street" v="West Corinth Road" />
    <tag k="addr:state" v="VT" />
    <tag k="ref:vcgi:esiteid" v="272915" />
  </node>
  <node id="-333" visible="true" lat="44.10310363" lon="-72.44553375">
    <tag k="addr:housenumber" v="303" />
    <tag k="addr:street" v="Macdonald Road" />
    <tag k="addr:state" v="VT" />
    <tag k="ref:vcgi:esiteid" v="272916" />
  </node>
  <node id="-334" visible="true" lat="44.10322098" lon="-72.42354868">
    <tag k="addr:housenumber" v="449" />
    <tag k="addr:street" v="Vermette Lane" />
    <tag k="addr:state" v="VT" />
    <tag k="ref:vcgi:esiteid" v="272917" />
  </node>
  <node id="-335" visible="true" lat="44.10284222" lon="-72.43512939">
    <tag k="addr:housenumber" v="3353" />
    <tag k="addr:street" v="Vermont Route 110" />
    <tag k="addr:state" v="VT" />
    <tag k="ref:vcgi:esiteid" v="272918" />
  </node>
  <node id="-336" visible="true" lat="44.10301759" lon="-72.43609442">
    <tag k="addr:housenumber" v="3382" />
    <tag k="addr:street" v="Vermont Route 110" />
    <tag k="addr:state" v="VT" />
    <tag k="ref:vcgi:esiteid" v="272919" />
  </node>
  <node id="-337" visible="true" lat="44.10282598" lon="-72.42575583">
    <tag k="addr:housenumber" v="440" />
    <tag k="addr:street" v="West Corinth Road" />
    <tag k="addr:state" v="VT" />
    <tag k="ref:vcgi:esiteid" v="272920" />
  </node>
  <node id="-338" visible="true" lat="44.10250091" lon="-72.42477416">
    <tag k="addr:housenumber" v="477" />
    <tag k="addr:street" v="West Corinth Road" />
    <tag k="addr:state" v="VT" />
    <tag k="ref:vcgi:esiteid" v="272921" />
  </node>
  <node id="-339" visible="true" lat="44.10248565" lon="-72.46517181">
    <tag k="addr:housenumber" v="1368" />
    <tag k="addr:street" v="Macdonald Road" />
    <tag k="addr:state" v="VT" />
    <tag k="ref:vcgi:esiteid" v="272922" />
  </node>
  <node id="-340" visible="true" lat="44.10258976" lon="-72.44113707">
    <tag k="addr:housenumber" v="3576" />
    <tag k="addr:street" v="Vermont Route 110" />
    <tag k="addr:state" v="VT" />
    <tag k="ref:vcgi:esiteid" v="272923" />
  </node>
  <node id="-341" visible="true" lat="44.10241497" lon="-72.44924704">
    <tag k="addr:housenumber" v="478" />
    <tag k="addr:street" v="Macdonald Road" />
    <tag k="addr:state" v="VT" />
    <tag k="ref:vcgi:esiteid" v="272924" />
  </node>
  <node id="-342" visible="true" lat="44.10232925" lon="-72.42518615">
    <tag k="addr:housenumber" v="474" />
    <tag k="addr:street" v="West Corinth Road" />
    <tag k="addr:state" v="VT" />
    <tag k="ref:vcgi:esiteid" v="272925" />
  </node>
  <node id="-343" visible="true" lat="44.10255115" lon="-72.4601901">
    <tag k="addr:housenumber" v="114" />
    <tag k="addr:street" v="Moran Road" />
    <tag k="addr:state" v="VT" />
    <tag k="ref:vcgi:esiteid" v="272926" />
  </node>
  <node id="-344" visible="true" lat="44.10220336" lon="-72.41500854">
    <tag k="addr:housenumber" v="419" />
    <tag k="addr:street" v="Davis Lane" />
    <tag k="addr:state" v="VT" />
    <tag k="ref:vcgi:esiteid" v="272927" />
  </node>
  <node id="-345" visible="true" lat="44.10216522" lon="-72.42384338">
    <tag k="addr:housenumber" v="505" />
    <tag k="addr:street" v="Vermette Lane" />
    <tag k="addr:state" v="VT" />
    <tag k="ref:vcgi:esiteid" v="272928" />
  </node>
  <node id="-346" visible="true" lat="44.10189056" lon="-72.42471313">
    <tag k="addr:housenumber" v="512" />
    <tag k="addr:street" v="West Corinth Road" />
    <tag k="addr:state" v="VT" />
    <tag k="ref:vcgi:esiteid" v="272929" />
  </node>
  <node id="-347" visible="true" lat="44.10182067" lon="-72.43701294">
    <tag k="addr:housenumber" v="3463" />
    <tag k="addr:street" v="Vermont Route 110" />
    <tag k="addr:state" v="VT" />
    <tag k="ref:vcgi:esiteid" v="272930" />
  </node>
  <node id="-348" visible="true" lat="44.1019048" lon="-72.44979469">
    <tag k="addr:housenumber" v="560" />
    <tag k="addr:street" v="Macdonald Road" />
    <tag k="addr:state" v="VT" />
    <tag k="ref:vcgi:esiteid" v="272931" />
  </node>
  <node id="-349" visible="true" lat="44.10180664" lon="-72.46830749">
    <tag k="addr:housenumber" v="1534" />
    <tag k="addr:street" v="Macdonald Road" />
    <tag k="addr:state" v="VT" />
    <tag k="ref:vcgi:esiteid" v="272932" />
  </node>
  <node id="-350" visible="true" lat="44.10174179" lon="-72.43526458">
    <tag k="addr:housenumber" v="88" />
    <tag k="addr:street" v="Turnpike Road" />
    <tag k="addr:state" v="VT" />
    <tag k="ref:vcgi:esiteid" v="272933" />
  </node>
  <node id="-351" visible="true" lat="44.10148362" lon="-72.42451051">
    <tag k="addr:housenumber" v="530" />
    <tag k="addr:street" v="West Corinth Road" />
    <tag k="addr:state" v="VT" />
    <tag k="ref:vcgi:esiteid" v="272934" />
  </node>
  <node id="-352" visible="true" lat="44.10158286" lon="-72.44919175">
    <tag k="addr:housenumber" v="524" />
    <tag k="addr:street" v="Macdonald Road" />
    <tag k="addr:state" v="VT" />
    <tag k="ref:vcgi:esiteid" v="272935" />
  </node>
  <node id="-353" visible="true" lat="44.10145751" lon="-72.45093834">
    <tag k="addr:housenumber" v="624" />
    <tag k="addr:street" v="Macdonald Road" />
    <tag k="addr:state" v="VT" />
    <tag k="ref:vcgi:esiteid" v="272936" />
  </node>
  <node id="-354" visible="true" lat="44.10136795" lon="-72.4629898">
    <tag k="addr:housenumber" v="1230" />
    <tag k="addr:street" v="Macdonald Road" />
    <tag k="addr:state" v="VT" />
    <tag k="ref:vcgi:esiteid" v="272937" />
  </node>
  <node id="-355" visible="true" lat="44.1013298" lon="-72.45034027">
    <tag k="addr:housenumber" v="564" />
    <tag k="addr:street" v="Macdonald Road" />
    <tag k="addr:state" v="VT" />
    <tag k="ref:vcgi:esiteid" v="272938" />
  </node>
  <node id="-356" visible="true" lat="44.10141831" lon="-72.46015366">
    <tag k="addr:housenumber" v="1066" />
    <tag k="addr:street" v="Macdonald Road" />
    <tag k="addr:state" v="VT" />
    <tag k="ref:vcgi:esiteid" v="272939" />
  </node>
  <node id="-357" visible="true" lat="44.10116343" lon="-72.45315593">
    <tag k="addr:housenumber" v="696" />
    <tag k="addr:street" v="Macdonald Road" />
    <tag k="addr:state" v="VT" />
    <tag k="ref:vcgi:esiteid" v="272940" />
  </node>
  <node id="-358" visible="true" lat="44.10099792" lon="-72.46401977">
    <tag k="addr:housenumber" v="1277" />
    <tag k="addr:street" v="Macdonald Road" />
    <tag k="addr:state" v="VT" />
    <tag k="ref:vcgi:esiteid" v="272941" />
  </node>
  <node id="-359" visible="true" lat="44.10084152" lon="-72.45552062">
    <tag k="addr:housenumber" v="854" />
    <tag k="addr:street" v="Macdonald Road" />
    <tag k="addr:state" v="VT" />
    <tag k="ref:vcgi:esiteid" v="272942" />
  </node>
  <node id="-360" visible="true" lat="44.10101726" lon="-72.43389531">
    <tag k="addr:housenumber" v="185" />
    <tag k="addr:street" v="Turnpike Road" />
    <tag k="addr:state" v="VT" />
    <tag k="ref:vcgi:esiteid" v="272943" />
  </node>
  <node id="-361" visible="true" lat="44.10082626" lon="-72.45631408">
    <tag k="addr:housenumber" v="898" />
    <tag k="addr:street" v="Macdonald Road" />
    <tag k="addr:state" v="VT" />
    <tag k="ref:vcgi:esiteid" v="272944" />
  </node>
  <node id="-362" visible="true" lat="44.10155974" lon="-72.37803383">
    <tag k="addr:housenumber" v="3371" />
    <tag k="addr:street" v="Woodchuck Hollow Road" />
    <tag k="addr:state" v="VT" />
    <tag k="ref:vcgi:esiteid" v="272945" />
  </node>
  <node id="-363" visible="true" lat="44.0988883" lon="-72.38864566">
    <tag k="addr:housenumber" v="2570" />
    <tag k="addr:street" v="Woodchuck Hollow Road" />
    <tag k="addr:state" v="VT" />
    <tag k="ref:vcgi:esiteid" v="272946" />
  </node>
  <node id="-364" visible="true" lat="44.09973144" lon="-72.46385192">
    <tag k="addr:housenumber" v="129" />
    <tag k="addr:street" v="Johnson Lane" />
    <tag k="addr:state" v="VT" />
    <tag k="ref:vcgi:esiteid" v="272947" />
  </node>
  <node id="-365" visible="true" lat="44.09942425" lon="-72.37395537">
    <tag k="addr:housenumber" v="3369" />
    <tag k="addr:street" v="Woodchuck Hollow Road" />
    <tag k="addr:state" v="VT" />
    <tag k="ref:vcgi:esiteid" v="272948" />
  </node>
  <node id="-366" visible="true" lat="44.09920883" lon="-72.42442321">
    <tag k="addr:housenumber" v="745" />
    <tag k="addr:street" v="West Corinth Road" />
    <tag k="addr:state" v="VT" />
    <tag k="ref:vcgi:esiteid" v="272949" />
  </node>
  <node id="-367" visible="true" lat="44.09887695" lon="-72.44566345">
    <tag k="addr:housenumber" v="3966" />
    <tag k="addr:street" v="Vermont Route 110" />
    <tag k="addr:state" v="VT" />
    <tag k="ref:vcgi:esiteid" v="272950" />
  </node>
  <node id="-368" visible="true" lat="44.09801347" lon="-72.37582165">
    <tag k="addr:housenumber" v="3282" />
    <tag k="addr:street" v="Woodchuck Hollow Road" />
    <tag k="addr:state" v="VT" />
    <tag k="ref:vcgi:esiteid" v="272951" />
  </node>
  <node id="-369" visible="true" lat="44.09833505" lon="-72.43489373">
    <tag k="addr:housenumber" v="418" />
    <tag k="addr:street" v="Turnpike Road" />
    <tag k="addr:state" v="VT" />
    <tag k="ref:vcgi:esiteid" v="272952" />
  </node>
  <node id="-370" visible="true" lat="44.09809493" lon="-72.42007446">
    <tag k="addr:housenumber" v="171" />
    <tag k="addr:street" v="Plumb Lane" />
    <tag k="addr:state" v="VT" />
    <tag k="ref:vcgi:esiteid" v="272953" />
  </node>
  <node id="-371" visible="true" lat="44.09820717" lon="-72.43069351">
    <tag k="addr:housenumber" v="261" />
    <tag k="addr:street" v="Hart Hollow Road" />
    <tag k="addr:state" v="VT" />
    <tag k="ref:vcgi:esiteid" v="272954" />
  </node>
  <node id="-372" visible="true" lat="44.09770965" lon="-72.44884491">
    <tag k="addr:housenumber" v="4168" />
    <tag k="addr:street" v="Vermont Route 110" />
    <tag k="addr:state" v="VT" />
    <tag k="ref:vcgi:esiteid" v="272955" />
  </node>
  <node id="-373" visible="true" lat="44.0976448" lon="-72.37187194">
    <tag k="addr:housenumber" v="3519" />
    <tag k="addr:street" v="Woodchuck Hollow Road" />
    <tag k="addr:state" v="VT" />
    <tag k="ref:vcgi:esiteid" v="272956" />
  </node>
  <node id="-374" visible="true" lat="44.09751892" lon="-72.42147064">
    <tag k="addr:housenumber" v="95" />
    <tag k="addr:street" v="Plumb Lane" />
    <tag k="addr:state" v="VT" />
    <tag k="ref:vcgi:esiteid" v="272957" />
  </node>
  <node id="-375" visible="true" lat="44.09752644" lon="-72.44774715">
    <tag k="addr:housenumber" v="4133" />
    <tag k="addr:street" v="Vermont Route 110" />
    <tag k="addr:state" v="VT" />
    <tag k="ref:vcgi:esiteid" v="272958" />
  </node>
  <node id="-376" visible="true" lat="44.09748458" lon="-72.44243621">
    <tag k="addr:housenumber" v="207" />
    <tag k="addr:street" v="Cheney Road" />
    <tag k="addr:state" v="VT" />
    <tag k="ref:vcgi:esiteid" v="272959" />
  </node>
  <node id="-377" visible="true" lat="44.0974121" lon="-72.42206573">
    <tag k="addr:housenumber" v="55" />
    <tag k="addr:street" v="Plumb Lane" />
    <tag k="addr:state" v="VT" />
    <tag k="ref:vcgi:esiteid" v="272960" />
  </node>
  <node id="-378" visible="true" lat="44.09740066" lon="-72.41723632">
    <tag k="addr:housenumber" v="305" />
    <tag k="addr:street" v="Plumb Lane" />
    <tag k="addr:state" v="VT" />
    <tag k="ref:vcgi:esiteid" v="272961" />
  </node>
  <node id="-379" visible="true" lat="44.09706115" lon="-72.44385528">
    <tag k="addr:housenumber" v="132" />
    <tag k="addr:street" v="Cheney Road" />
    <tag k="addr:state" v="VT" />
    <tag k="ref:vcgi:esiteid" v="272962" />
  </node>
  <node id="-380" visible="true" lat="44.09715908" lon="-72.43775775">
    <tag k="addr:housenumber" v="419" />
    <tag k="addr:street" v="Cheney Road" />
    <tag k="addr:state" v="VT" />
    <tag k="ref:vcgi:esiteid" v="272963" />
  </node>
  <node id="-381" visible="true" lat="44.09625928" lon="-72.42921349">
    <tag k="addr:housenumber" v="411" />
    <tag k="addr:street" v="Hart Hollow Road" />
    <tag k="addr:state" v="VT" />
    <tag k="ref:vcgi:esiteid" v="272964" />
  </node>
  <node id="-382" visible="true" lat="44.09461563" lon="-72.42185845">
    <tag k="addr:housenumber" v="1078" />
    <tag k="addr:street" v="West Corinth Road" />
    <tag k="addr:state" v="VT" />
    <tag k="ref:vcgi:esiteid" v="272965" />
  </node>
  <node id="-383" visible="true" lat="44.09589767" lon="-72.37055969">
    <tag k="addr:housenumber" v="3653" />
    <tag k="addr:street" v="Woodchuck Hollow Road" />
    <tag k="addr:state" v="VT" />
    <tag k="ref:vcgi:esiteid" v="272966" />
  </node>
  <node id="-384" visible="true" lat="44.09571299" lon="-72.42857854">
    <tag k="addr:housenumber" v="449" />
    <tag k="addr:street" v="Hart Hollow Road" />
    <tag k="addr:state" v="VT" />
    <tag k="ref:vcgi:esiteid" v="272967" />
  </node>
  <node id="-385" visible="true" lat="44.09549713" lon="-72.39865112">
    <tag k="addr:housenumber" v="913" />
    <tag k="addr:street" v="East Orange Road" />
    <tag k="addr:state" v="VT" />
    <tag k="ref:vcgi:esiteid" v="272968" />
  </node>
  <node id="-386" visible="true" lat="44.09477029" lon="-72.34886931">
    <tag k="addr:housenumber" v="3961" />
    <tag k="addr:street" v="East Orange Road" />
    <tag k="addr:state" v="VT" />
    <tag k="ref:vcgi:esiteid" v="272970" />
  </node>
  <node id="-387" visible="true" lat="44.09451181" lon="-72.34818162">
    <tag k="addr:housenumber" v="3976" />
    <tag k="addr:street" v="East Orange Road" />
    <tag k="addr:state" v="VT" />
    <tag k="ref:vcgi:esiteid" v="272971" />
  </node>
  <node id="-388" visible="true" lat="44.09450531" lon="-72.3685379">
    <tag k="addr:housenumber" v="643" />
    <tag k="addr:street" v="Notch Road" />
    <tag k="addr:state" v="VT" />
    <tag k="ref:vcgi:esiteid" v="272972" />
  </node>
  <node id="-389" visible="true" lat="44.09448242" lon="-72.36373138">
    <tag k="addr:housenumber" v="4055" />
    <tag k="addr:street" v="Woodchuck Hollow Road Extension" />
    <tag k="addr:state" v="VT" />
    <tag k="ref:vcgi:esiteid" v="272973" />
  </node>
  <node id="-390" visible="true" lat="44.09392616" lon="-72.3491135">
    <tag k="addr:housenumber" v="3918" />
    <tag k="addr:street" v="East Orange Road" />
    <tag k="addr:state" v="VT" />
    <tag k="ref:vcgi:esiteid" v="272974" />
  </node>
  <node id="-391" visible="true" lat="44.09416961" lon="-72.39964294">
    <tag k="addr:housenumber" v="859" />
    <tag k="addr:street" v="East Orange Road" />
    <tag k="addr:state" v="VT" />
    <tag k="ref:vcgi:esiteid" v="272975" />
  </node>
  <node id="-392" visible="true" lat="44.09406784" lon="-72.42843252">
    <tag k="addr:housenumber" v="510" />
    <tag k="addr:street" v="Hart Hollow Road" />
    <tag k="addr:state" v="VT" />
    <tag k="ref:vcgi:esiteid" v="272976" />
  </node>
  <node id="-393" visible="true" lat="44.09388351" lon="-72.45728301">
    <tag k="addr:housenumber" v="4670" />
    <tag k="addr:street" v="Vermont Route 110" />
    <tag k="addr:state" v="VT" />
    <tag k="ref:vcgi:esiteid" v="272977" />
  </node>
  <node id="-394" visible="true" lat="44.09359878" lon="-72.35044988">
    <tag k="addr:housenumber" v="3841" />
    <tag k="addr:street" v="East Orange Road" />
    <tag k="addr:state" v="VT" />
    <tag k="ref:vcgi:esiteid" v="272978" />
  </node>
  <node id="-395" visible="true" lat="44.09354391" lon="-72.3497545">
    <tag k="addr:housenumber" v="3854" />
    <tag k="addr:street" v="East Orange Road" />
    <tag k="addr:state" v="VT" />
    <tag k="ref:vcgi:esiteid" v="272979" />
  </node>
  <node id="-396" visible="true" lat="44.09213332" lon="-72.35097103">
    <tag k="addr:housenumber" v="3754" />
    <tag k="addr:street" v="East Orange Road" />
    <tag k="addr:state" v="VT" />
    <tag k="ref:vcgi:esiteid" v="272981" />
  </node>
  <node id="-397" visible="true" lat="44.09195709" lon="-72.3910675">
    <tag k="addr:housenumber" v="1351" />
    <tag k="addr:street" v="East Orange Road" />
    <tag k="addr:state" v="VT" />
    <tag k="ref:vcgi:esiteid" v="272982" />
  </node>
  <node id="-398" visible="true" lat="44.09167861" lon="-72.35211181">
    <tag k="addr:housenumber" v="3693" />
    <tag k="addr:street" v="East Orange Road" />
    <tag k="addr:state" v="VT" />
    <tag k="ref:vcgi:esiteid" v="272983" />
  </node>
  <node id="-399" visible="true" lat="44.0915184" lon="-72.35741424">
    <tag k="addr:housenumber" v="4433" />
    <tag k="addr:street" v="Woodchuck Hollow Road Extension" />
    <tag k="addr:state" v="VT" />
    <tag k="ref:vcgi:esiteid" v="272984" />
  </node>
  <node id="-400" visible="true" lat="44.09156417" lon="-72.4155426">
    <tag k="addr:housenumber" v="1474" />
    <tag k="addr:street" v="West Corinth Road" />
    <tag k="addr:state" v="VT" />
    <tag k="ref:vcgi:esiteid" v="272985" />
  </node>
  <node id="-401" visible="true" lat="44.09122466" lon="-72.37137603">
    <tag k="addr:housenumber" v="202" />
    <tag k="addr:street" v="Mason Road" />
    <tag k="addr:state" v="VT" />
    <tag k="ref:vcgi:esiteid" v="272986" />
  </node>
  <node id="-402" visible="true" lat="44.09121322" lon="-72.41612243">
    <tag k="addr:housenumber" v="1490" />
    <tag k="addr:street" v="West Corinth Road" />
    <tag k="addr:state" v="VT" />
    <tag k="ref:vcgi:esiteid" v="272987" />
  </node>
  <node id="-403" visible="true" lat="44.09115218" lon="-72.41524505">
    <tag k="addr:housenumber" v="1506" />
    <tag k="addr:street" v="West Corinth Road" />
    <tag k="addr:state" v="VT" />
    <tag k="ref:vcgi:esiteid" v="272988" />
  </node>
  <node id="-404" visible="true" lat="44.09104538" lon="-72.3528366">
    <tag k="addr:housenumber" v="3639" />
    <tag k="addr:street" v="East Orange Road" />
    <tag k="addr:state" v="VT" />
    <tag k="ref:vcgi:esiteid" v="272989" />
  </node>
  <node id="-405" visible="true" lat="44.0910263" lon="-72.43856048">
    <tag k="addr:housenumber" v="924" />
    <tag k="addr:street" v="Turnpike Road" />
    <tag k="addr:state" v="VT" />
    <tag k="ref:vcgi:esiteid" v="272990" />
  </node>
  <node id="-406" visible="true" lat="44.09044647" lon="-72.40135955">
    <tag k="addr:housenumber" v="487" />
    <tag k="addr:street" v="East Orange Road" />
    <tag k="addr:state" v="VT" />
    <tag k="ref:vcgi:esiteid" v="272991" />
  </node>
  <node id="-407" visible="true" lat="44.09043996" lon="-72.45956535">
    <tag k="addr:housenumber" v="42" />
    <tag k="addr:street" v="Richardson Road" />
    <tag k="addr:state" v="VT" />
    <tag k="ref:vcgi:esiteid" v="272992" />
  </node>
  <node id="-408" visible="true" lat="44.09014892" lon="-72.41156768">
    <tag k="addr:housenumber" v="1685" />
    <tag k="addr:street" v="West Corinth Road" />
    <tag k="addr:state" v="VT" />
    <tag k="ref:vcgi:esiteid" v="272993" />
  </node>
  <node id="-409" visible="true" lat="44.09031748" lon="-72.43407596">
    <tag k="addr:housenumber" v="915" />
    <tag k="addr:street" v="Turnpike Road" />
    <tag k="addr:state" v="VT" />
    <tag k="ref:vcgi:esiteid" v="272994" />
  </node>
  <node id="-410" visible="true" lat="44.08967208" lon="-72.43875122">
    <tag k="addr:housenumber" v="1014" />
    <tag k="addr:street" v="Turnpike Road" />
    <tag k="addr:state" v="VT" />
    <tag k="ref:vcgi:esiteid" v="272995" />
  </node>
  <node id="-411" visible="true" lat="44.08958816" lon="-72.35603332">
    <tag k="addr:housenumber" v="3433" />
    <tag k="addr:street" v="East Orange Road" />
    <tag k="addr:state" v="VT" />
    <tag k="ref:vcgi:esiteid" v="272996" />
  </node>
  <node id="-412" visible="true" lat="44.08953476" lon="-72.4139328">
    <tag k="addr:housenumber" v="1634" />
    <tag k="addr:street" v="West Corinth Road" />
    <tag k="addr:state" v="VT" />
    <tag k="ref:vcgi:esiteid" v="272997" />
  </node>
  <node id="-413" visible="true" lat="44.08917617" lon="-72.38529968">
    <tag k="addr:housenumber" v="1705" />
    <tag k="addr:street" v="East Orange Road" />
    <tag k="addr:state" v="VT" />
    <tag k="ref:vcgi:esiteid" v="272998" />
  </node>
  <node id="-414" visible="true" lat="44.08860015" lon="-72.4388504">
    <tag k="addr:housenumber" v="1087" />
    <tag k="addr:street" v="Turnpike Road" />
    <tag k="addr:state" v="VT" />
    <tag k="ref:vcgi:esiteid" v="272999" />
  </node>
  <node id="-415" visible="true" lat="44.08813476" lon="-72.43875885">
    <tag k="addr:housenumber" v="1117" />
    <tag k="addr:street" v="Turnpike Road" />
    <tag k="addr:state" v="VT" />
    <tag k="ref:vcgi:esiteid" v="273000" />
  </node>
  <node id="-416" visible="true" lat="44.08785231" lon="-72.41058258">
    <tag k="addr:housenumber" v="1849" />
    <tag k="addr:street" v="West Corinth Road" />
    <tag k="addr:state" v="VT" />
    <tag k="ref:vcgi:esiteid" v="273001" />
  </node>
  <node id="-417" visible="true" lat="44.08714675" lon="-72.40956878">
    <tag k="addr:housenumber" v="20" />
    <tag k="addr:street" v="East Orange Road" />
    <tag k="addr:state" v="VT" />
    <tag k="ref:vcgi:esiteid" v="273003" />
  </node>
  <node id="-418" visible="true" lat="44.08707434" lon="-72.41046793">
    <tag k="addr:housenumber" v="1876" />
    <tag k="addr:street" v="West Corinth Road" />
    <tag k="addr:state" v="VT" />
    <tag k="ref:vcgi:esiteid" v="273004" />
  </node>
  <node id="-419" visible="true" lat="44.08695983" lon="-72.36574554">
    <tag k="addr:housenumber" v="2749" />
    <tag k="addr:street" v="East Orange Road" />
    <tag k="addr:state" v="VT" />
    <tag k="ref:vcgi:esiteid" v="273005" />
  </node>
  <node id="-420" visible="true" lat="44.08582936" lon="-72.43030264">
    <tag k="addr:housenumber" v="1112" />
    <tag k="addr:street" v="Hart Hollow Road" />
    <tag k="addr:state" v="VT" />
    <tag k="ref:vcgi:esiteid" v="273006" />
  </node>
  <node id="-421" visible="true" lat="44.08651351" lon="-72.41003418">
    <tag k="addr:housenumber" v="1928" />
    <tag k="addr:street" v="West Corinth Road" />
    <tag k="addr:state" v="VT" />
    <tag k="ref:vcgi:esiteid" v="273007" />
  </node>
  <node id="-422" visible="true" lat="44.08607864" lon="-72.40899658">
    <tag k="addr:housenumber" v="1979" />
    <tag k="addr:street" v="West Corinth Road" />
    <tag k="addr:state" v="VT" />
    <tag k="ref:vcgi:esiteid" v="273008" />
  </node>
  <node id="-423" visible="true" lat="44.08589553" lon="-72.36357879">
    <tag k="addr:housenumber" v="2861" />
    <tag k="addr:street" v="East Orange Road" />
    <tag k="addr:state" v="VT" />
    <tag k="ref:vcgi:esiteid" v="273009" />
  </node>
  <node id="-424" visible="true" lat="44.08559799" lon="-72.43908691">
    <tag k="addr:housenumber" v="1287" />
    <tag k="addr:street" v="Turnpike Road" />
    <tag k="addr:state" v="VT" />
    <tag k="ref:vcgi:esiteid" v="273010" />
  </node>
  <node id="-425" visible="true" lat="44.08505249" lon="-72.46414184">
    <tag k="addr:housenumber" v="455" />
    <tag k="addr:street" v="Richardson Road" />
    <tag k="addr:state" v="VT" />
    <tag k="ref:vcgi:esiteid" v="273011" />
  </node>
  <node id="-426" visible="true" lat="44.08469574" lon="-72.40547153">
    <tag k="addr:housenumber" v="2007" />
    <tag k="addr:street" v="West Corinth Road" />
    <tag k="addr:state" v="VT" />
    <tag k="ref:vcgi:esiteid" v="273012" />
  </node>
  <node id="-427" visible="true" lat="44.08372361" lon="-72.40702487">
    <tag k="addr:housenumber" v="2181" />
    <tag k="addr:street" v="West Corinth Road" />
    <tag k="addr:state" v="VT" />
    <tag k="ref:vcgi:esiteid" v="273013" />
  </node>
  <node id="-428" visible="true" lat="44.08342731" lon="-72.42923983">
    <tag k="addr:housenumber" v="1359" />
    <tag k="addr:street" v="Hart Hollow Road" />
    <tag k="addr:state" v="VT" />
    <tag k="ref:vcgi:esiteid" v="273014" />
  </node>
  <node id="-429" visible="true" lat="44.08325576" lon="-72.40718078">
    <tag k="addr:housenumber" v="2195" />
    <tag k="addr:street" v="West Corinth Road" />
    <tag k="addr:state" v="VT" />
    <tag k="ref:vcgi:esiteid" v="273015" />
  </node>
  <node id="-430" visible="true" lat="44.08308243" lon="-72.4022278">
    <tag k="addr:housenumber" v="2009" />
    <tag k="addr:street" v="West Corinth Road" />
    <tag k="addr:state" v="VT" />
    <tag k="ref:vcgi:esiteid" v="273016" />
  </node>
  <node id="-431" visible="true" lat="44.08283233" lon="-72.40670013">
    <tag k="addr:housenumber" v="2231" />
    <tag k="addr:street" v="West Corinth Road" />
    <tag k="addr:state" v="VT" />
    <tag k="ref:vcgi:esiteid" v="273017" />
  </node>
  <node id="-432" visible="true" lat="44.08122449" lon="-72.36720361">
    <tag k="addr:housenumber" v="242" />
    <tag k="addr:street" v="Green Road" />
    <tag k="addr:state" v="VT" />
    <tag k="ref:vcgi:esiteid" v="273018" />
  </node>
  <node id="-433" visible="true" lat="44.08219405" lon="-72.40625925">
    <tag k="addr:housenumber" v="2297" />
    <tag k="addr:street" v="West Corinth Road" />
    <tag k="addr:state" v="VT" />
    <tag k="ref:vcgi:esiteid" v="273019" />
  </node>
  <node id="-434" visible="true" lat="44.08141388" lon="-72.40485161">
    <tag k="addr:housenumber" v="2359" />
    <tag k="addr:street" v="West Corinth Road" />
    <tag k="addr:state" v="VT" />
    <tag k="ref:vcgi:esiteid" v="273020" />
  </node>
  <node id="-435" visible="true" lat="44.08124058" lon="-72.4321175">
    <tag k="addr:housenumber" v="1588" />
    <tag k="addr:street" v="Hart Hollow Road" />
    <tag k="addr:state" v="VT" />
    <tag k="ref:vcgi:esiteid" v="273021" />
  </node>
  <node id="-436" visible="true" lat="44.08039855" lon="-72.44133758">
    <tag k="addr:housenumber" v="1683" />
    <tag k="addr:street" v="Turnpike Road" />
    <tag k="addr:state" v="VT" />
    <tag k="ref:vcgi:esiteid" v="273022" />
  </node>
  <node id="-437" visible="true" lat="44.08163312" lon="-72.39567947">
    <tag k="addr:housenumber" v="355" />
    <tag k="addr:street" v="Dow Road" />
    <tag k="addr:state" v="VT" />
    <tag k="ref:vcgi:esiteid" v="273023" />
  </node>
  <node id="-438" visible="true" lat="44.07862658" lon="-72.46343613">
    <tag k="addr:housenumber" v="5770" />
    <tag k="addr:street" v="Vermont Route 110" />
    <tag k="addr:state" v="VT" />
    <tag k="ref:vcgi:esiteid" v="273024" />
  </node>
  <node id="-439" visible="true" lat="44.0761105" lon="-72.43954466">
    <tag k="addr:housenumber" v="20" />
    <tag k="addr:street" v="Back Pasture Lane" />
    <tag k="addr:state" v="VT" />
    <tag k="ref:vcgi:esiteid" v="273025" />
  </node>
  <node id="-440" visible="true" lat="44.07605883" lon="-72.4387453">
    <tag k="addr:housenumber" v="22" />
    <tag k="addr:street" v="Back Pasture Lane" />
    <tag k="addr:state" v="VT" />
    <tag k="ref:vcgi:esiteid" v="273026" />
  </node>
  <node id="-441" visible="true" lat="44.07620875" lon="-72.39597647">
    <tag k="addr:housenumber" v="405" />
    <tag k="addr:street" v="Dow Road" />
    <tag k="addr:state" v="VT" />
    <tag k="ref:vcgi:esiteid" v="273027" />
  </node>
  <node id="-442" visible="true" lat="44.07600752" lon="-72.39771823">
    <tag k="addr:housenumber" v="321" />
    <tag k="addr:street" v="Dow Road" />
    <tag k="addr:state" v="VT" />
    <tag k="ref:vcgi:esiteid" v="273028" />
  </node>
  <node id="-443" visible="true" lat="44.07577105" lon="-72.40247409">
    <tag k="addr:housenumber" v="2765" />
    <tag k="addr:street" v="West Corinth Road" />
    <tag k="addr:state" v="VT" />
    <tag k="ref:vcgi:esiteid" v="273029" />
  </node>
  <node id="-444" visible="true" lat="44.0750885" lon="-72.40309905">
    <tag k="addr:housenumber" v="2806" />
    <tag k="addr:street" v="West Corinth Road" />
    <tag k="addr:state" v="VT" />
    <tag k="ref:vcgi:esiteid" v="273030" />
  </node>
  <node id="-445" visible="true" lat="44.07430453" lon="-72.39946096">
    <tag k="addr:housenumber" v="208" />
    <tag k="addr:street" v="Dow Road" />
    <tag k="addr:state" v="VT" />
    <tag k="ref:vcgi:esiteid" v="273031" />
  </node>
  <node id="-446" visible="true" lat="44.07431782" lon="-72.4031383">
    <tag k="addr:housenumber" v="2866" />
    <tag k="addr:street" v="West Corinth Road" />
    <tag k="addr:state" v="VT" />
    <tag k="ref:vcgi:esiteid" v="273032" />
  </node>
  <node id="-447" visible="true" lat="44.0736885" lon="-72.40259551">
    <tag k="addr:housenumber" v="25" />
    <tag k="addr:street" v="Dow Road" />
    <tag k="addr:state" v="VT" />
    <tag k="ref:vcgi:esiteid" v="273033" />
  </node>
  <node id="-448" visible="true" lat="44.07334224" lon="-72.4022917">
    <tag k="addr:housenumber" v="56" />
    <tag k="addr:street" v="Dow Road" />
    <tag k="addr:state" v="VT" />
    <tag k="ref:vcgi:esiteid" v="273034" />
  </node>
  <node id="-449" visible="true" lat="44.07304763" lon="-72.46242523">
    <tag k="addr:housenumber" v="6120" />
    <tag k="addr:street" v="Vermont Route 110" />
    <tag k="addr:state" v="VT" />
    <tag k="ref:vcgi:esiteid" v="273035" />
  </node>
  <node id="-450" visible="true" lat="44.07091522" lon="-72.46443176">
    <tag k="addr:housenumber" v="6408" />
    <tag k="addr:street" v="Vermont Route 110" />
    <tag k="addr:state" v="VT" />
    <tag k="ref:vcgi:esiteid" v="273036" />
  </node>
  <node id="-451" visible="true" lat="44.0682373" lon="-72.47185516">
    <tag k="addr:housenumber" v="463" />
    <tag k="addr:street" v="Tilton Road" />
    <tag k="addr:state" v="VT" />
    <tag k="ref:vcgi:esiteid" v="273037" />
  </node>
  <node id="-452" visible="true" lat="44.06779298" lon="-72.48434687">
    <tag k="addr:housenumber" v="1325" />
    <tag k="addr:street" v="Poor Farm Road" />
    <tag k="addr:state" v="VT" />
    <tag k="ref:vcgi:esiteid" v="273038" />
  </node>
  <node id="-453" visible="true" lat="44.06723418" lon="-72.48395452">
    <tag k="addr:housenumber" v="1267" />
    <tag k="addr:street" v="Poor Farm Road" />
    <tag k="addr:state" v="VT" />
    <tag k="ref:vcgi:esiteid" v="273039" />
  </node>
  <node id="-454" visible="true" lat="44.0657463" lon="-72.4934616">
    <tag k="addr:housenumber" v="1734" />
    <tag k="addr:street" v="Williamstown Road" />
    <tag k="addr:state" v="VT" />
    <tag k="ref:vcgi:esiteid" v="273040" />
  </node>
  <node id="-455" visible="true" lat="44.0649132" lon="-72.49218602">
    <tag k="addr:housenumber" v="1656" />
    <tag k="addr:street" v="Williamstown Road" />
    <tag k="addr:state" v="VT" />
    <tag k="ref:vcgi:esiteid" v="273041" />
  </node>
  <node id="-456" visible="true" lat="44.06399618" lon="-72.46814257">
    <tag k="addr:housenumber" v="59" />
    <tag k="addr:street" v="Tilton Road" />
    <tag k="addr:state" v="VT" />
    <tag k="ref:vcgi:esiteid" v="273042" />
  </node>
  <node id="-457" visible="true" lat="44.06378763" lon="-72.45625946">
    <tag k="addr:housenumber" v="669" />
    <tag k="addr:street" v="Sky Acres Road" />
    <tag k="addr:state" v="VT" />
    <tag k="ref:vcgi:esiteid" v="273043" />
  </node>
  <node id="-458" visible="true" lat="44.06365203" lon="-72.49246215">
    <tag k="addr:housenumber" v="1645" />
    <tag k="addr:street" v="Williamstown Road" />
    <tag k="addr:state" v="VT" />
    <tag k="ref:vcgi:esiteid" v="273044" />
  </node>
  <node id="-459" visible="true" lat="44.06309889" lon="-72.46755275">
    <tag k="addr:housenumber" v="6918" />
    <tag k="addr:street" v="Vermont Route 110" />
    <tag k="addr:state" v="VT" />
    <tag k="ref:vcgi:esiteid" v="273045" />
  </node>
  <node id="-460" visible="true" lat="44.06289484" lon="-72.46706773">
    <tag k="addr:housenumber" v="6920" />
    <tag k="addr:street" v="Vermont Route 110" />
    <tag k="addr:state" v="VT" />
    <tag k="ref:vcgi:esiteid" v="273046" />
  </node>
  <node id="-461" visible="true" lat="44.06264279" lon="-72.46536074">
    <tag k="addr:housenumber" v="6985" />
    <tag k="addr:street" v="Vermont Route 110" />
    <tag k="addr:state" v="VT" />
    <tag k="ref:vcgi:esiteid" v="273047" />
  </node>
  <node id="-462" visible="true" lat="44.06217506" lon="-72.49079244">
    <tag k="addr:housenumber" v="1545" />
    <tag k="addr:street" v="Williamstown Road" />
    <tag k="addr:state" v="VT" />
    <tag k="ref:vcgi:esiteid" v="273048" />
  </node>
  <node id="-463" visible="true" lat="44.0607605" lon="-72.48656464">
    <tag k="addr:housenumber" v="1356" />
    <tag k="addr:street" v="Williamstown Road" />
    <tag k="addr:state" v="VT" />
    <tag k="ref:vcgi:esiteid" v="273049" />
  </node>
  <node id="-464" visible="true" lat="44.05934906" lon="-72.46381378">
    <tag k="addr:housenumber" v="7164" />
    <tag k="addr:street" v="Vermont Route 110" />
    <tag k="addr:state" v="VT" />
    <tag k="ref:vcgi:esiteid" v="273050" />
  </node>
  <node id="-465" visible="true" lat="44.0592575" lon="-72.43145844">
    <tag k="addr:housenumber" v="3239" />
    <tag k="addr:street" v="Hart Hollow Road" />
    <tag k="addr:state" v="VT" />
    <tag k="ref:vcgi:esiteid" v="273051" />
  </node>
  <node id="-466" visible="true" lat="44.05916976" lon="-72.39585876">
    <tag k="addr:housenumber" v="3985" />
    <tag k="addr:street" v="West Corinth Road" />
    <tag k="addr:state" v="VT" />
    <tag k="ref:vcgi:esiteid" v="273052" />
  </node>
  <node id="-467" visible="true" lat="44.05869277" lon="-72.45571873">
    <tag k="addr:housenumber" v="327" />
    <tag k="addr:street" v="Keene Road" />
    <tag k="addr:state" v="VT" />
    <tag k="ref:vcgi:esiteid" v="273053" />
  </node>
  <node id="-468" visible="true" lat="44.05845642" lon="-72.48596191">
    <tag k="addr:housenumber" v="1184" />
    <tag k="addr:street" v="Williamstown Road" />
    <tag k="addr:state" v="VT" />
    <tag k="ref:vcgi:esiteid" v="273054" />
  </node>
  <node id="-469" visible="true" lat="44.05792617" lon="-72.43710327">
    <tag k="addr:housenumber" v="3546" />
    <tag k="addr:street" v="Hart Hollow Road" />
    <tag k="addr:state" v="VT" />
    <tag k="ref:vcgi:esiteid" v="273055" />
  </node>
  <node id="-470" visible="true" lat="44.05751037" lon="-72.47747802">
    <tag k="addr:housenumber" v="523" />
    <tag k="addr:street" v="Poor Farm Road" />
    <tag k="addr:state" v="VT" />
    <tag k="ref:vcgi:esiteid" v="273056" />
  </node>
  <node id="-471" visible="true" lat="44.05687692" lon="-72.45573254">
    <tag k="addr:housenumber" v="481" />
    <tag k="addr:street" v="Keene Road" />
    <tag k="addr:state" v="VT" />
    <tag k="ref:vcgi:esiteid" v="273057" />
  </node>
  <node id="-472" visible="true" lat="44.0568695" lon="-72.43066406">
    <tag k="addr:housenumber" v="3365" />
    <tag k="addr:street" v="Hart Hollow Road" />
    <tag k="addr:state" v="VT" />
    <tag k="ref:vcgi:esiteid" v="273058" />
  </node>
  <node id="-473" visible="true" lat="44.0561492" lon="-72.45696384">
    <tag k="addr:housenumber" v="540" />
    <tag k="addr:street" v="Keene Road" />
    <tag k="addr:state" v="VT" />
    <tag k="ref:vcgi:esiteid" v="273059" />
  </node>
  <node id="-474" visible="true" lat="44.05571786" lon="-72.45702786">
    <tag k="addr:housenumber" v="554" />
    <tag k="addr:street" v="Keene Road" />
    <tag k="addr:state" v="VT" />
    <tag k="ref:vcgi:esiteid" v="273060" />
  </node>
  <node id="-475" visible="true" lat="44.05579468" lon="-72.49614775">
    <tag k="addr:housenumber" v="752" />
    <tag k="addr:street" v="Stellar Road" />
    <tag k="addr:state" v="VT" />
    <tag k="ref:vcgi:esiteid" v="273061" />
  </node>
  <node id="-476" visible="true" lat="44.05462794" lon="-72.45587276">
    <tag k="addr:housenumber" v="547" />
    <tag k="addr:street" v="Keene Road" />
    <tag k="addr:state" v="VT" />
    <tag k="ref:vcgi:esiteid" v="273062" />
  </node>
  <node id="-477" visible="true" lat="44.05494664" lon="-72.49691275">
    <tag k="addr:housenumber" v="750" />
    <tag k="addr:street" v="Stellar Road" />
    <tag k="addr:state" v="VT" />
    <tag k="ref:vcgi:esiteid" v="273063" />
  </node>
  <node id="-478" visible="true" lat="44.0549469" lon="-72.48432923">
    <tag k="addr:housenumber" v="986" />
    <tag k="addr:street" v="Williamstown Road" />
    <tag k="addr:state" v="VT" />
    <tag k="ref:vcgi:esiteid" v="273064" />
  </node>
  <node id="-479" visible="true" lat="44.05475997" lon="-72.43519592">
    <tag k="addr:housenumber" v="3544" />
    <tag k="addr:street" v="Hart Hollow Road" />
    <tag k="addr:state" v="VT" />
    <tag k="ref:vcgi:esiteid" v="273065" />
  </node>
  <node id="-480" visible="true" lat="44.05412292" lon="-72.39968109">
    <tag k="addr:housenumber" v="288" />
    <tag k="addr:street" v="Scales Hill Road" />
    <tag k="addr:state" v="VT" />
    <tag k="ref:vcgi:esiteid" v="273066" />
  </node>
  <node id="-481" visible="true" lat="44.05282053" lon="-72.46867132">
    <tag k="addr:housenumber" v="7731" />
    <tag k="addr:street" v="Vermont Route 110" />
    <tag k="addr:state" v="VT" />
    <tag k="ref:vcgi:esiteid" v="273067" />
  </node>
  <node id="-482" visible="true" lat="44.05359268" lon="-72.49372863">
    <tag k="addr:housenumber" v="558" />
    <tag k="addr:street" v="Stellar Road" />
    <tag k="addr:state" v="VT" />
    <tag k="ref:vcgi:esiteid" v="273068" />
  </node>
  <node id="-483" visible="true" lat="44.05342669" lon="-72.4364028">
    <tag k="addr:housenumber" v="3726" />
    <tag k="addr:street" v="Hart Hollow Road" />
    <tag k="addr:state" v="VT" />
    <tag k="ref:vcgi:esiteid" v="273069" />
  </node>
  <node id="-484" visible="true" lat="44.05319123" lon="-72.45839268">
    <tag k="addr:housenumber" v="773" />
    <tag k="addr:street" v="Keene Road" />
    <tag k="addr:state" v="VT" />
    <tag k="ref:vcgi:esiteid" v="273070" />
  </node>
  <node id="-485" visible="true" lat="44.05293655" lon="-72.45919036">
    <tag k="addr:housenumber" v="802" />
    <tag k="addr:street" v="Keene Road" />
    <tag k="addr:state" v="VT" />
    <tag k="ref:vcgi:esiteid" v="273071" />
  </node>
  <node id="-486" visible="true" lat="44.05221176" lon="-72.47338867">
    <tag k="addr:housenumber" v="86" />
    <tag k="addr:street" v="Poor Farm Road" />
    <tag k="addr:state" v="VT" />
    <tag k="ref:vcgi:esiteid" v="273072" />
  </node>
  <node id="-487" visible="true" lat="44.05177777" lon="-72.48573395">
    <tag k="addr:housenumber" v="102" />
    <tag k="addr:street" v="Stellar Road" />
    <tag k="addr:state" v="VT" />
    <tag k="ref:vcgi:esiteid" v="273073" />
  </node>
  <node id="-488" visible="true" lat="44.05161653" lon="-72.46084924">
    <tag k="addr:housenumber" v="930" />
    <tag k="addr:street" v="Keene Road" />
    <tag k="addr:state" v="VT" />
    <tag k="ref:vcgi:esiteid" v="273074" />
  </node>
  <node id="-489" visible="true" lat="44.05141919" lon="-72.4586083">
    <tag k="addr:housenumber" v="943" />
    <tag k="addr:street" v="Keene Road" />
    <tag k="addr:state" v="VT" />
    <tag k="ref:vcgi:esiteid" v="273075" />
  </node>
  <node id="-490" visible="true" lat="44.05109063" lon="-72.43918558">
    <tag k="addr:housenumber" v="4040" />
    <tag k="addr:street" v="Hart Hollow Road" />
    <tag k="addr:state" v="VT" />
    <tag k="ref:vcgi:esiteid" v="273076" />
  </node>
  <node id="-491" visible="true" lat="44.0505905" lon="-72.46075262">
    <tag k="addr:housenumber" v="1008" />
    <tag k="addr:street" v="Keene Road" />
    <tag k="addr:state" v="VT" />
    <tag k="ref:vcgi:esiteid" v="273077" />
  </node>
  <node id="-492" visible="true" lat="44.04677315" lon="-72.38767123">
    <tag k="addr:housenumber" v="76" />
    <tag k="addr:street" v="State Forest Road" />
    <tag k="addr:state" v="VT" />
    <tag k="ref:vcgi:esiteid" v="273079" />
  </node>
  <node id="-493" visible="true" lat="44.04937001" lon="-72.47949634">
    <tag k="addr:housenumber" v="385" />
    <tag k="addr:street" v="Williamstown Road" />
    <tag k="addr:state" v="VT" />
    <tag k="ref:vcgi:esiteid" v="273080" />
  </node>
  <node id="-494" visible="true" lat="44.04938507" lon="-72.43868255">
    <tag k="addr:housenumber" v="4037" />
    <tag k="addr:street" v="Hart Hollow Road" />
    <tag k="addr:state" v="VT" />
    <tag k="ref:vcgi:esiteid" v="273081" />
  </node>
  <node id="-495" visible="true" lat="44.04973541" lon="-72.45852803">
    <tag k="addr:housenumber" v="1173" />
    <tag k="addr:street" v="Keene Road" />
    <tag k="addr:state" v="VT" />
    <tag k="ref:vcgi:esiteid" v="273082" />
  </node>
  <node id="-496" visible="true" lat="44.04810988" lon="-72.4386322">
    <tag k="addr:housenumber" v="4075" />
    <tag k="addr:street" v="Hart Hollow Road" />
    <tag k="addr:state" v="VT" />
    <tag k="ref:vcgi:esiteid" v="273083" />
  </node>
  <node id="-497" visible="true" lat="44.04808807" lon="-72.47671509">
    <tag k="addr:housenumber" v="201" />
    <tag k="addr:street" v="Williamstown Road" />
    <tag k="addr:state" v="VT" />
    <tag k="ref:vcgi:esiteid" v="273084" />
  </node>
  <node id="-498" visible="true" lat="44.04749298" lon="-72.43959808">
    <tag k="addr:housenumber" v="4099" />
    <tag k="addr:street" v="Hart Hollow Road" />
    <tag k="addr:state" v="VT" />
    <tag k="ref:vcgi:esiteid" v="273085" />
  </node>
  <node id="-499" visible="true" lat="44.04674911" lon="-72.44290923">
    <tag k="addr:housenumber" v="4310" />
    <tag k="addr:street" v="Hart Hollow Road" />
    <tag k="addr:state" v="VT" />
    <tag k="ref:vcgi:esiteid" v="273086" />
  </node>
  <node id="-500" visible="true" lat="44.04682755" lon="-72.46271391">
    <tag k="addr:housenumber" v="291" />
    <tag k="addr:street" v="Bobuchon Lane" />
    <tag k="addr:state" v="VT" />
    <tag k="ref:vcgi:esiteid" v="273087" />
  </node>
  <node id="-501" visible="true" lat="44.04672623" lon="-72.47410584">
    <tag k="addr:housenumber" v="8373" />
    <tag k="addr:street" v="Vermont Route 110" />
    <tag k="addr:state" v="VT" />
    <tag k="ref:vcgi:esiteid" v="273088" />
  </node>
  <node id="-502" visible="true" lat="44.04553705" lon="-72.47495036">
    <tag k="addr:housenumber" v="13" />
    <tag k="addr:street" v="Williamstown Road" />
    <tag k="addr:state" v="VT" />
    <tag k="ref:vcgi:esiteid" v="273089" />
  </node>
  <node id="-503" visible="true" lat="44.04534052" lon="-72.4623294">
    <tag k="addr:housenumber" v="213" />
    <tag k="addr:street" v="Bobuchon Lane" />
    <tag k="addr:state" v="VT" />
    <tag k="ref:vcgi:esiteid" v="273090" />
  </node>
  <node id="-504" visible="true" lat="44.04562186" lon="-72.47434675">
    <tag k="addr:housenumber" v="8495" />
    <tag k="addr:street" v="Vermont Route 110" />
    <tag k="addr:state" v="VT" />
    <tag k="ref:vcgi:esiteid" v="273091" />
  </node>
  <node id="-505" visible="true" lat="44.04506683" lon="-72.44727325">
    <tag k="addr:housenumber" v="4604" />
    <tag k="addr:street" v="Hart Hollow Road" />
    <tag k="addr:state" v="VT" />
    <tag k="ref:vcgi:esiteid" v="273092" />
  </node>
  <node id="-506" visible="true" lat="44.04487486" lon="-72.45437295">
    <tag k="addr:housenumber" v="655" />
    <tag k="addr:street" v="Doyle Road" />
    <tag k="addr:state" v="VT" />
    <tag k="ref:vcgi:esiteid" v="273093" />
  </node>
  <node id="-507" visible="true" lat="44.04450044" lon="-72.42598238">
    <tag k="addr:housenumber" v="3191" />
    <tag k="addr:street" v="Pepper Road" />
    <tag k="addr:state" v="VT" />
    <tag k="ref:vcgi:esiteid" v="273094" />
  </node>
  <node id="-508" visible="true" lat="44.0445168" lon="-72.42839529">
    <tag k="addr:housenumber" v="3190" />
    <tag k="addr:street" v="Pepper Road" />
    <tag k="addr:state" v="VT" />
    <tag k="ref:vcgi:esiteid" v="273095" />
  </node>
  <node id="-509" visible="true" lat="44.0460562" lon="-72.45035014">
    <tag k="addr:housenumber" v="663" />
    <tag k="addr:street" v="Doyle Road" />
    <tag k="addr:state" v="VT" />
    <tag k="ref:vcgi:esiteid" v="273096" />
  </node>
  <node id="-510" visible="true" lat="44.04383468" lon="-72.39631652">
    <tag k="addr:housenumber" v="918" />
    <tag k="addr:street" v="Scales Hill Road" />
    <tag k="addr:state" v="VT" />
    <tag k="ref:vcgi:esiteid" v="273097" />
  </node>
  <node id="-511" visible="true" lat="44.04299926" lon="-72.46686553">
    <tag k="addr:housenumber" v="320" />
    <tag k="addr:street" v="Hill Farm Road" />
    <tag k="addr:state" v="VT" />
    <tag k="ref:vcgi:esiteid" v="273098" />
  </node>
  <node id="-512" visible="true" lat="44.04248809" lon="-72.42795562">
    <tag k="addr:housenumber" v="3354" />
    <tag k="addr:street" v="Pepper Road" />
    <tag k="addr:state" v="VT" />
    <tag k="ref:vcgi:esiteid" v="273099" />
  </node>
  <node id="-513" visible="true" lat="44.04134368" lon="-72.46894836">
    <tag k="addr:housenumber" v="149" />
    <tag k="addr:street" v="Hill Farm Road" />
    <tag k="addr:state" v="VT" />
    <tag k="ref:vcgi:esiteid" v="273100" />
  </node>
  <node id="-514" visible="true" lat="44.04015267" lon="-72.45388476">
    <tag k="addr:housenumber" v="654" />
    <tag k="addr:street" v="Doyle Road" />
    <tag k="addr:state" v="VT" />
    <tag k="ref:vcgi:esiteid" v="273101" />
  </node>
  <node id="-515" visible="true" lat="44.03951953" lon="-72.39322009">
    <tag k="addr:housenumber" v="1248" />
    <tag k="addr:street" v="Scales Hill Road" />
    <tag k="addr:state" v="VT" />
    <tag k="ref:vcgi:esiteid" v="273102" />
  </node>
  <node id="-516" visible="true" lat="44.03928756" lon="-72.41197204">
    <tag k="addr:housenumber" v="825" />
    <tag k="addr:street" v="White Hill Road" />
    <tag k="addr:state" v="VT" />
    <tag k="ref:vcgi:esiteid" v="273103" />
  </node>
  <node id="-517" visible="true" lat="44.03821945" lon="-72.3920288">
    <tag k="addr:housenumber" v="1340" />
    <tag k="addr:street" v="Scales Hill Road" />
    <tag k="addr:state" v="VT" />
    <tag k="ref:vcgi:esiteid" v="273104" />
  </node>
  <node id="-518" visible="true" lat="44.03726595" lon="-72.431056">
    <tag k="addr:housenumber" v="3758" />
    <tag k="addr:street" v="Pepper Road" />
    <tag k="addr:state" v="VT" />
    <tag k="ref:vcgi:esiteid" v="273105" />
  </node>
  <node id="-519" visible="true" lat="44.03707885" lon="-72.39554595">
    <tag k="addr:housenumber" v="1638" />
    <tag k="addr:street" v="Scales Hill Road" />
    <tag k="addr:state" v="VT" />
    <tag k="ref:vcgi:esiteid" v="273106" />
  </node>
  <node id="-520" visible="true" lat="44.03696823" lon="-72.41443634">
    <tag k="addr:housenumber" v="621" />
    <tag k="addr:street" v="White Hill Road" />
    <tag k="addr:state" v="VT" />
    <tag k="ref:vcgi:esiteid" v="273107" />
  </node>
  <node id="-521" visible="true" lat="44.0369606" lon="-72.40190124">
    <tag k="addr:housenumber" v="1956" />
    <tag k="addr:street" v="Scales Hill Road" />
    <tag k="addr:state" v="VT" />
    <tag k="ref:vcgi:esiteid" v="273108" />
  </node>
  <node id="-522" visible="true" lat="44.03605558" lon="-72.39892635">
    <tag k="addr:housenumber" v="1847" />
    <tag k="addr:street" v="Scales Hill Road" />
    <tag k="addr:state" v="VT" />
    <tag k="ref:vcgi:esiteid" v="273109" />
  </node>
  <node id="-523" visible="true" lat="44.03570692" lon="-72.45374104">
    <tag k="addr:housenumber" v="142" />
    <tag k="addr:street" v="Doyle Road" />
    <tag k="addr:state" v="VT" />
    <tag k="ref:vcgi:esiteid" v="273110" />
  </node>
  <node id="-524" visible="true" lat="44.03500366" lon="-72.41389465">
    <tag k="addr:housenumber" v="510" />
    <tag k="addr:street" v="White Hill Road" />
    <tag k="addr:state" v="VT" />
    <tag k="ref:vcgi:esiteid" v="273111" />
  </node>
  <node id="-525" visible="true" lat="44.03434371" lon="-72.40480041">
    <tag k="addr:housenumber" v="2188" />
    <tag k="addr:street" v="Scales Hill Road" />
    <tag k="addr:state" v="VT" />
    <tag k="ref:vcgi:esiteid" v="273112" />
  </node>
  <node id="-526" visible="true" lat="44.03361129" lon="-72.41629791">
    <tag k="addr:housenumber" v="369" />
    <tag k="addr:street" v="White Hill Road" />
    <tag k="addr:state" v="VT" />
    <tag k="ref:vcgi:esiteid" v="273113" />
  </node>
  <node id="-527" visible="true" lat="44.03321456" lon="-72.41634368">
    <tag k="addr:housenumber" v="367" />
    <tag k="addr:street" v="White Hill Road" />
    <tag k="addr:state" v="VT" />
    <tag k="ref:vcgi:esiteid" v="273114" />
  </node>
  <node id="-528" visible="true" lat="44.03302216" lon="-72.38233236">
    <tag k="addr:housenumber" v="364" />
    <tag k="addr:street" v="Clermont Road" />
    <tag k="addr:state" v="VT" />
    <tag k="ref:vcgi:esiteid" v="273115" />
  </node>
  <node id="-529" visible="true" lat="44.03275255" lon="-72.39049062">
    <tag k="addr:housenumber" v="320" />
    <tag k="addr:street" v="Sargent Road North" />
    <tag k="addr:state" v="VT" />
    <tag k="ref:vcgi:esiteid" v="273116" />
  </node>
  <node id="-530" visible="true" lat="44.0326004" lon="-72.41436004">
    <tag k="addr:housenumber" v="330" />
    <tag k="addr:street" v="White Hill Road" />
    <tag k="addr:state" v="VT" />
    <tag k="ref:vcgi:esiteid" v="273117" />
  </node>
  <node id="-531" visible="true" lat="44.032135" lon="-72.43538665">
    <tag k="addr:housenumber" v="4192" />
    <tag k="addr:street" v="Pepper Road" />
    <tag k="addr:state" v="VT" />
    <tag k="ref:vcgi:esiteid" v="273118" />
  </node>
  <node id="-532" visible="true" lat="44.03105064" lon="-72.37528752">
    <tag k="addr:housenumber" v="770" />
    <tag k="addr:street" v="Clermont Road" />
    <tag k="addr:state" v="VT" />
    <tag k="ref:vcgi:esiteid" v="273119" />
  </node>
  <node id="-533" visible="true" lat="44.03158929" lon="-72.44315917">
    <tag k="addr:housenumber" v="463" />
    <tag k="addr:street" v="Bear Hoot Hollow" />
    <tag k="addr:state" v="VT" />
    <tag k="ref:vcgi:esiteid" v="273120" />
  </node>
  <node id="-534" visible="true" lat="44.03100059" lon="-72.44045586">
    <tag k="addr:housenumber" v="292" />
    <tag k="addr:street" v="Bear Hoot Hollow" />
    <tag k="addr:state" v="VT" />
    <tag k="ref:vcgi:esiteid" v="273121" />
  </node>
  <node id="-535" visible="true" lat="44.03100967" lon="-72.41390228">
    <tag k="addr:housenumber" v="218" />
    <tag k="addr:street" v="White Hill Road" />
    <tag k="addr:state" v="VT" />
    <tag k="ref:vcgi:esiteid" v="273122" />
  </node>
  <node id="-536" visible="true" lat="44.03035959" lon="-72.44024789">
    <tag k="addr:housenumber" v="247" />
    <tag k="addr:street" v="Bear Hoot Hollow" />
    <tag k="addr:state" v="VT" />
    <tag k="ref:vcgi:esiteid" v="273123" />
  </node>
  <node id="-537" visible="true" lat="44.03040357" lon="-72.43541467">
    <tag k="addr:housenumber" v="4307" />
    <tag k="addr:street" v="Pepper Road" />
    <tag k="addr:state" v="VT" />
    <tag k="ref:vcgi:esiteid" v="273124" />
  </node>
  <node id="-538" visible="true" lat="44.03013621" lon="-72.39991177">
    <tag k="addr:housenumber" v="371" />
    <tag k="addr:street" v="Sargent Road" />
    <tag k="addr:state" v="VT" />
    <tag k="ref:vcgi:esiteid" v="273125" />
  </node>
  <node id="-539" visible="true" lat="44.02982774" lon="-72.43561567">
    <tag k="addr:housenumber" v="4341" />
    <tag k="addr:street" v="Pepper Road" />
    <tag k="addr:state" v="VT" />
    <tag k="ref:vcgi:esiteid" v="273126" />
  </node>
  <node id="-540" visible="true" lat="44.02937667" lon="-72.43755085">
    <tag k="addr:housenumber" v="25" />
    <tag k="addr:street" v="Bear Hoot Hollow" />
    <tag k="addr:state" v="VT" />
    <tag k="ref:vcgi:esiteid" v="273127" />
  </node>
  <node id="-541" visible="true" lat="44.0293045" lon="-72.41277313">
    <tag k="addr:housenumber" v="72" />
    <tag k="addr:street" v="White Hill Road" />
    <tag k="addr:state" v="VT" />
    <tag k="ref:vcgi:esiteid" v="273128" />
  </node>
  <node id="-542" visible="true" lat="44.02873147" lon="-72.39747393">
    <tag k="addr:housenumber" v="541" />
    <tag k="addr:street" v="Sargent Road" />
    <tag k="addr:state" v="VT" />
    <tag k="ref:vcgi:esiteid" v="273130" />
  </node>
  <node id="-543" visible="true" lat="44.02844238" lon="-72.39218902">
    <tag k="addr:housenumber" v="861" />
    <tag k="addr:street" v="Sargent Road" />
    <tag k="addr:state" v="VT" />
    <tag k="ref:vcgi:esiteid" v="273131" />
  </node>
  <node id="-544" visible="true" lat="44.02841568" lon="-72.40918731">
    <tag k="addr:housenumber" v="2661" />
    <tag k="addr:street" v="Scales Hill Road" />
    <tag k="addr:state" v="VT" />
    <tag k="ref:vcgi:esiteid" v="273132" />
  </node>
  <node id="-545" visible="true" lat="44.02784993" lon="-72.43517915">
    <tag k="addr:housenumber" v="4479" />
    <tag k="addr:street" v="Pepper Road" />
    <tag k="addr:state" v="VT" />
    <tag k="ref:vcgi:esiteid" v="273133" />
  </node>
  <node id="-546" visible="true" lat="44.02804614" lon="-72.40838275">
    <tag k="addr:housenumber" v="6" />
    <tag k="addr:street" v="Sargent Road" />
    <tag k="addr:state" v="VT" />
    <tag k="ref:vcgi:esiteid" v="273134" />
  </node>
  <node id="-547" visible="true" lat="44.02803304" lon="-72.41323832">
    <tag k="addr:housenumber" v="13" />
    <tag k="addr:street" v="White Hill Road" />
    <tag k="addr:state" v="VT" />
    <tag k="ref:vcgi:esiteid" v="273135" />
  </node>
  <node id="-548" visible="true" lat="44.02769968" lon="-72.43655124">
    <tag k="addr:housenumber" v="4509" />
    <tag k="addr:street" v="Pepper Road" />
    <tag k="addr:state" v="VT" />
    <tag k="ref:vcgi:esiteid" v="273136" />
  </node>
  <node id="-549" visible="true" lat="44.02767382" lon="-72.40907076">
    <tag k="addr:housenumber" v="76" />
    <tag k="addr:street" v="Dudley Road" />
    <tag k="addr:state" v="VT" />
    <tag k="ref:vcgi:esiteid" v="273137" />
  </node>
  <node id="-550" visible="true" lat="44.02709959" lon="-72.40917081">
    <tag k="addr:housenumber" v="114" />
    <tag k="addr:street" v="Dudley Road" />
    <tag k="addr:state" v="VT" />
    <tag k="ref:vcgi:esiteid" v="273138" />
  </node>
  <node id="-551" visible="true" lat="44.02585918" lon="-72.40883209">
    <tag k="addr:housenumber" v="209" />
    <tag k="addr:street" v="Dudley Road" />
    <tag k="addr:state" v="VT" />
    <tag k="ref:vcgi:esiteid" v="273139" />
  </node>
  <node id="-552" visible="true" lat="44.02565383" lon="-72.42053985">
    <tag k="addr:housenumber" v="3240" />
    <tag k="addr:street" v="Scales Hill Road" />
    <tag k="addr:state" v="VT" />
    <tag k="ref:vcgi:esiteid" v="273140" />
  </node>
  <node id="-553" visible="true" lat="44.02513193" lon="-72.41869958">
    <tag k="addr:housenumber" v="3238" />
    <tag k="addr:street" v="Scales Hill Road" />
    <tag k="addr:state" v="VT" />
    <tag k="ref:vcgi:esiteid" v="273141" />
  </node>
  <node id="-554" visible="true" lat="44.02487182" lon="-72.41965484">
    <tag k="addr:housenumber" v="3258" />
    <tag k="addr:street" v="Scales Hill Road" />
    <tag k="addr:state" v="VT" />
    <tag k="ref:vcgi:esiteid" v="273142" />
  </node>
  <node id="-555" visible="true" lat="44.02374267" lon="-72.42174529">
    <tag k="addr:housenumber" v="3380" />
    <tag k="addr:street" v="Scales Hill Road" />
    <tag k="addr:state" v="VT" />
    <tag k="ref:vcgi:esiteid" v="273143" />
  </node>
  <node id="-556" visible="true" lat="44.02263093" lon="-72.41019841">
    <tag k="addr:housenumber" v="125" />
    <tag k="addr:street" v="Coddington Road" />
    <tag k="addr:state" v="VT" />
    <tag k="ref:vcgi:esiteid" v="273144" />
  </node>
  <node id="-557" visible="true" lat="44.0224196" lon="-72.41160268">
    <tag k="addr:housenumber" v="52" />
    <tag k="addr:street" v="Coddington Road" />
    <tag k="addr:state" v="VT" />
    <tag k="ref:vcgi:esiteid" v="273145" />
  </node>
  <node id="-558" visible="true" lat="44.01538917" lon="-72.38721325">
    <tag k="addr:housenumber" v="1416" />
    <tag k="addr:street" v="Coddington Road" />
    <tag k="addr:state" v="VT" />
    <tag k="ref:vcgi:esiteid" v="273146" />
  </node>
  <node id="-559" visible="true" lat="44.01497885" lon="-72.37985884">
    <tag k="addr:housenumber" v="189" />
    <tag k="addr:street" v="Chelsea Corinth Road" />
    <tag k="addr:state" v="VT" />
    <tag k="ref:vcgi:esiteid" v="273147" />
  </node>
  <node id="-560" visible="true" lat="44.01388861" lon="-72.38045487">
    <tag k="addr:housenumber" v="299" />
    <tag k="addr:street" v="Chelsea Corinth Road" />
    <tag k="addr:state" v="VT" />
    <tag k="ref:vcgi:esiteid" v="273148" />
  </node>
  <node id="-561" visible="true" lat="44.01272706" lon="-72.38116799">
    <tag k="addr:housenumber" v="366" />
    <tag k="addr:street" v="Chelsea Corinth Road" />
    <tag k="addr:state" v="VT" />
    <tag k="ref:vcgi:esiteid" v="273149" />
  </node>
  <node id="-562" visible="true" lat="44.1076622" lon="-72.43251037">
    <tag k="addr:housenumber" v="40" />
    <tag k="addr:street" v="School Lane" />
    <tag k="addr:state" v="VT" />
    <tag k="ref:vcgi:esiteid" v="273150" />
  </node>
  <node id="-563" visible="true" lat="44.08471584" lon="-72.36509456">
    <tag k="addr:housenumber" v="52" />
    <tag k="addr:street" v="Green Road" />
    <tag k="addr:state" v="VT" />
    <tag k="ref:vcgi:esiteid" v="273151" />
  </node>
  <node id="-564" visible="true" lat="44.10786978" lon="-72.43155883">
    <tag k="addr:housenumber" v="72" />
    <tag k="addr:street" v="School Lane" />
    <tag k="addr:state" v="VT" />
    <tag k="ref:vcgi:esiteid" v="273152" />
  </node>
  <node id="-565" visible="true" lat="44.06421661" lon="-72.39383697">
    <tag k="addr:housenumber" v="237" />
    <tag k="addr:street" v="Duff Road" />
    <tag k="addr:state" v="VT" />
    <tag k="ref:vcgi:esiteid" v="273153" />
  </node>
  <node id="-566" visible="true" lat="44.06238937" lon="-72.39756012">
    <tag k="addr:housenumber" v="42" />
    <tag k="addr:street" v="Duff Road" />
    <tag k="addr:state" v="VT" />
    <tag k="ref:vcgi:esiteid" v="273154" />
  </node>
  <node id="-567" visible="true" lat="44.06609151" lon="-72.36399976">
    <tag k="addr:housenumber" v="1999" />
    <tag k="addr:street" v="Beaver Brook Road" />
    <tag k="addr:state" v="VT" />
    <tag k="ref:vcgi:esiteid" v="273156" />
  </node>
  <node id="-568" visible="true" lat="44.06138017" lon="-72.36156973">
    <tag k="addr:housenumber" v="1087" />
    <tag k="addr:street" v="Beaver Brook Road" />
    <tag k="addr:state" v="VT" />
    <tag k="ref:vcgi:esiteid" v="273158" />
  </node>
  <node id="-569" visible="true" lat="44.09841284" lon="-72.38010834">
    <tag k="addr:housenumber" v="3072" />
    <tag k="addr:street" v="Woodchuck Hollow Road" />
    <tag k="addr:state" v="VT" />
    <tag k="ref:vcgi:esiteid" v="273159" />
  </node>
  <node id="-570" visible="true" lat="44.09758411" lon="-72.38117928">
    <tag k="addr:housenumber" v="2986" />
    <tag k="addr:street" v="Woodchuck Hollow Road" />
    <tag k="addr:state" v="VT" />
    <tag k="ref:vcgi:esiteid" v="273160" />
  </node>
  <node id="-571" visible="true" lat="44.06041066" lon="-72.42267741">
    <tag k="addr:housenumber" v="2100" />
    <tag k="addr:street" v="Pepper Road" />
    <tag k="addr:state" v="VT" />
    <tag k="ref:vcgi:esiteid" v="273161" />
  </node>
  <node id="-572" visible="true" lat="44.11516249" lon="-72.45982822">
    <tag k="addr:housenumber" v="356" />
    <tag k="addr:street" v="Hyland Hill Road" />
    <tag k="addr:state" v="VT" />
    <tag k="ref:vcgi:esiteid" v="273162" />
  </node>
  <node id="-573" visible="true" lat="44.1192776" lon="-72.45637278">
    <tag k="addr:housenumber" v="1435" />
    <tag k="addr:street" v="Carrier Road" />
    <tag k="addr:state" v="VT" />
    <tag k="ref:vcgi:esiteid" v="273163" />
  </node>
  <node id="-574" visible="true" lat="44.09352097" lon="-72.45418197">
    <tag k="addr:housenumber" v="129" />
    <tag k="addr:street" v="Cyr Heights" />
    <tag k="addr:state" v="VT" />
    <tag k="ref:vcgi:esiteid" v="273164" />
  </node>
  <node id="-575" visible="true" lat="44.10434868" lon="-72.44507667">
    <tag k="addr:housenumber" v="248" />
    <tag k="addr:street" v="Macdonald Road" />
    <tag k="addr:state" v="VT" />
    <tag k="ref:vcgi:esiteid" v="273166" />
  </node>
  <node id="-576" visible="true" lat="44.105963" lon="-72.41481791">
    <tag k="addr:housenumber" v="170" />
    <tag k="addr:street" v="Davis Lane" />
    <tag k="addr:state" v="VT" />
    <tag k="ref:vcgi:esiteid" v="273167" />
  </node>
  <node id="-577" visible="true" lat="44.10577806" lon="-72.41852334">
    <tag k="addr:housenumber" v="766" />
    <tag k="addr:street" v="Woodchuck Hollow Road" />
    <tag k="addr:state" v="VT" />
    <tag k="ref:vcgi:esiteid" v="273168" />
  </node>
  <node id="-578" visible="true" lat="44.1046603" lon="-72.40253028">
    <tag k="addr:housenumber" v="1606" />
    <tag k="addr:street" v="Woodchuck Hollow Road" />
    <tag k="addr:state" v="VT" />
    <tag k="ref:vcgi:esiteid" v="273169" />
  </node>
  <node id="-579" visible="true" lat="44.09120728" lon="-72.39364331">
    <tag k="addr:housenumber" v="1230" />
    <tag k="addr:street" v="East Orange Road" />
    <tag k="addr:state" v="VT" />
    <tag k="ref:vcgi:esiteid" v="273170" />
  </node>
  <node id="-580" visible="true" lat="44.08396913" lon="-72.43884492">
    <tag k="addr:housenumber" v="1447" />
    <tag k="addr:street" v="Turnpike Road" />
    <tag k="addr:state" v="VT" />
    <tag k="ref:vcgi:esiteid" v="273172" />
  </node>
  <node id="-581" visible="true" lat="44.06374832" lon="-72.45588815">
    <tag k="addr:housenumber" v="670" />
    <tag k="addr:street" v="Sky Acres Road" />
    <tag k="addr:state" v="VT" />
    <tag k="ref:vcgi:esiteid" v="273173" />
  </node>
  <node id="-582" visible="true" lat="44.05089261" lon="-72.4314364">
    <tag k="addr:housenumber" v="2932" />
    <tag k="addr:street" v="Pepper Road" />
    <tag k="addr:state" v="VT" />
    <tag k="ref:vcgi:esiteid" v="273174" />
  </node>
  <node id="-583" visible="true" lat="44.04835163" lon="-72.42778939">
    <tag k="addr:housenumber" v="2940" />
    <tag k="addr:street" v="Pepper Road" />
    <tag k="addr:state" v="VT" />
    <tag k="ref:vcgi:esiteid" v="273175" />
  </node>
  <node id="-584" visible="true" lat="44.04662396" lon="-72.42672909">
    <tag k="addr:housenumber" v="3072" />
    <tag k="addr:street" v="Pepper Road" />
    <tag k="addr:state" v="VT" />
    <tag k="ref:vcgi:esiteid" v="273176" />
  </node>
  <node id="-585" visible="true" lat="44.03977849" lon="-72.4294907">
    <tag k="addr:housenumber" v="3570" />
    <tag k="addr:street" v="Pepper Road" />
    <tag k="addr:state" v="VT" />
    <tag k="ref:vcgi:esiteid" v="273177" />
  </node>
  <node id="-586" visible="true" lat="44.05127894" lon="-72.40837482">
    <tag k="addr:housenumber" v="399" />
    <tag k="addr:street" v="Jail House Road" />
    <tag k="addr:state" v="VT" />
    <tag k="ref:vcgi:esiteid" v="273178" />
  </node>
  <node id="-587" visible="true" lat="44.04928895" lon="-72.43996597">
    <tag k="addr:housenumber" v="4035" />
    <tag k="addr:street" v="Hart Hollow Road" />
    <tag k="addr:state" v="VT" />
    <tag k="ref:vcgi:esiteid" v="273179" />
  </node>
  <node id="-588" visible="true" lat="44.03505152" lon="-72.38837615">
    <tag k="addr:housenumber" v="121" />
    <tag k="addr:street" v="Clermont Road" />
    <tag k="addr:state" v="VT" />
    <tag k="ref:vcgi:esiteid" v="273180" />
  </node>
  <node id="-589" visible="true" lat="44.03415209" lon="-72.37768759">
    <tag k="addr:housenumber" v="616" />
    <tag k="addr:street" v="Clermont Road" />
    <tag k="addr:state" v="VT" />
    <tag k="ref:vcgi:esiteid" v="273181" />
  </node>
  <node id="-590" visible="true" lat="44.02584901" lon="-72.41792327">
    <tag k="addr:housenumber" v="3182" />
    <tag k="addr:street" v="Scales Hill Road" />
    <tag k="addr:state" v="VT" />
    <tag k="ref:vcgi:esiteid" v="273182" />
  </node>
  <node id="-591" visible="true" lat="44.06119885" lon="-72.41110908">
    <tag k="addr:housenumber" v="1000" />
    <tag k="addr:street" v="Jail House Road" />
    <tag k="addr:state" v="VT" />
    <tag k="ref:vcgi:esiteid" v="273183" />
  </node>
  <node id="-592" visible="true" lat="44.02656913" lon="-72.40868128">
    <tag k="addr:housenumber" v="147" />
    <tag k="addr:street" v="Dudley Road" />
    <tag k="addr:state" v="VT" />
    <tag k="ref:vcgi:esiteid" v="273184" />
  </node>
  <node id="-593" visible="true" lat="44.11823879" lon="-72.45651307">
    <tag k="addr:housenumber" v="1503" />
    <tag k="addr:street" v="Carrier Road" />
    <tag k="addr:state" v="VT" />
    <tag k="ref:vcgi:esiteid" v="273186" />
  </node>
  <node id="-594" visible="true" lat="44.12014123" lon="-72.45677211">
    <tag k="addr:housenumber" v="1566" />
    <tag k="addr:street" v="Carrier Road" />
    <tag k="addr:state" v="VT" />
    <tag k="ref:vcgi:esiteid" v="273187" />
  </node>
  <node id="-595" visible="true" lat="44.12623766" lon="-72.4561521">
    <tag k="addr:housenumber" v="745" />
    <tag k="addr:street" v="Lambert Road" />
    <tag k="addr:state" v="VT" />
    <tag k="ref:vcgi:esiteid" v="273188" />
  </node>
  <node id="-596" visible="true" lat="44.04549701" lon="-72.47507672">
    <tag k="addr:housenumber" v="15" />
    <tag k="addr:street" v="Williamstown Road" />
    <tag k="addr:state" v="VT" />
    <tag k="ref:vcgi:esiteid" v="273189" />
  </node>
  <node id="-597" visible="true" lat="44.0159837" lon="-72.37932555">
    <tag k="addr:housenumber" v="147" />
    <tag k="addr:street" v="Chelsea Corinth Road" />
    <tag k="addr:state" v="VT" />
    <tag k="ref:vcgi:esiteid" v="273190" />
  </node>
  <node id="-598" visible="true" lat="44.11339558" lon="-72.46566213">
    <tag k="addr:housenumber" v="764" />
    <tag k="addr:street" v="Hyland Hill Road" />
    <tag k="addr:state" v="VT" />
    <tag k="ref:vcgi:esiteid" v="273191" />
  </node>
  <node id="-599" visible="true" lat="44.12049255" lon="-72.42404318">
    <tag k="addr:housenumber" v="621" />
    <tag k="addr:street" v="Creamery Road" />
    <tag k="addr:state" v="VT" />
    <tag k="ref:vcgi:esiteid" v="273192" />
  </node>
  <node id="-600" visible="true" lat="44.09731351" lon="-72.45459598">
    <tag k="addr:housenumber" v="4362" />
    <tag k="addr:street" v="Vermont Route 110" />
    <tag k="addr:state" v="VT" />
    <tag k="ref:vcgi:esiteid" v="273193" />
  </node>
  <node id="-601" visible="true" lat="44.08737297" lon="-72.41111166">
    <tag k="addr:housenumber" v="1850" />
    <tag k="addr:street" v="West Corinth Road" />
    <tag k="addr:state" v="VT" />
    <tag k="ref:vcgi:esiteid" v="273194" />
  </node>
  <node id="-602" visible="true" lat="44.04958124" lon="-72.38755679">
    <tag k="addr:housenumber" v="45" />
    <tag k="addr:street" v="State Forest Road" />
    <tag k="addr:state" v="VT" />
    <tag k="ref:vcgi:esiteid" v="273195" />
  </node>
  <node id="-603" visible="true" lat="44.04700887" lon="-72.44140834">
    <tag k="addr:housenumber" v="4243" />
    <tag k="addr:street" v="Hart Hollow Road" />
    <tag k="addr:state" v="VT" />
    <tag k="ref:vcgi:esiteid" v="273196" />
  </node>
  <node id="-604" visible="true" lat="44.12662768" lon="-72.45591506">
    <tag k="addr:housenumber" v="743" />
    <tag k="addr:street" v="Lambert Road" />
    <tag k="addr:state" v="VT" />
    <tag k="ref:vcgi:esiteid" v="273197" />
  </node>
  <node id="-605" visible="true" lat="44.05509888" lon="-72.39465374">
    <tag k="addr:housenumber" v="4301" />
    <tag k="addr:street" v="West Corinth Road" />
    <tag k="addr:state" v="VT" />
    <tag k="ref:vcgi:esiteid" v="273198" />
  </node>
  <node id="-606" visible="true" lat="44.09449362" lon="-72.45492837">
    <tag k="addr:housenumber" v="4609" />
    <tag k="addr:street" v="Vermont Route 110" />
    <tag k="addr:state" v="VT" />
    <tag k="ref:vcgi:esiteid" v="273199" />
  </node>
  <node id="-607" visible="true" lat="44.08546833" lon="-72.44938406">
    <tag k="addr:housenumber" v="784" />
    <tag k="addr:street" v="Cyr Heights" />
    <tag k="addr:state" v="VT" />
    <tag k="ref:vcgi:esiteid" v="273200" />
  </node>
  <node id="-608" visible="true" lat="44.08798806" lon="-72.45014993">
    <tag k="addr:housenumber" v="573" />
    <tag k="addr:street" v="Cyr Heights" />
    <tag k="addr:state" v="VT" />
    <tag k="ref:vcgi:esiteid" v="273201" />
  </node>
  <node id="-609" visible="true" lat="44.11337355" lon="-72.43327233">
    <tag k="addr:housenumber" v="2581" />
    <tag k="addr:street" v="Vermont Route 110" />
    <tag k="addr:state" v="VT" />
    <tag k="ref:vcgi:esiteid" v="273202" />
  </node>
  <node id="-610" visible="true" lat="44.1082207" lon="-72.44964291">
    <tag k="addr:housenumber" v="113" />
    <tag k="addr:street" v="Downing Road" />
    <tag k="addr:state" v="VT" />
    <tag k="ref:vcgi:esiteid" v="273203" />
  </node>
  <node id="-611" visible="true" lat="44.10120931" lon="-72.45210968">
    <tag k="addr:housenumber" v="694" />
    <tag k="addr:street" v="Macdonald Road" />
    <tag k="addr:state" v="VT" />
    <tag k="ref:vcgi:esiteid" v="273204" />
  </node>
  <node id="-612" visible="true" lat="44.09948358" lon="-72.40544033">
    <tag k="addr:housenumber" v="527" />
    <tag k="addr:street" v="Driscoll Lane" />
    <tag k="addr:state" v="VT" />
    <tag k="ref:vcgi:esiteid" v="273206" />
  </node>
  <node id="-613" visible="true" lat="44.09558213" lon="-72.34879253">
    <tag k="addr:housenumber" v="75" />
    <tag k="addr:street" v="Notch End Road" />
    <tag k="addr:state" v="VT" />
    <tag k="ref:vcgi:esiteid" v="273207" />
  </node>
  <node id="-614" visible="true" lat="44.09567947" lon="-72.3523257">
    <tag k="addr:housenumber" v="209" />
    <tag k="addr:street" v="Hutchinson Way" />
    <tag k="addr:state" v="VT" />
    <tag k="ref:vcgi:esiteid" v="273208" />
  </node>
  <node id="-615" visible="true" lat="44.07900997" lon="-72.3611798">
    <tag k="addr:housenumber" v="630" />
    <tag k="addr:street" v="Denton Road" />
    <tag k="addr:state" v="VT" />
    <tag k="ref:vcgi:esiteid" v="273210" />
  </node>
  <node id="-616" visible="true" lat="44.05501304" lon="-72.47143678">
    <tag k="addr:housenumber" v="130" />
    <tag k="addr:street" v="Poor Farm Road" />
    <tag k="addr:state" v="VT" />
    <tag k="ref:vcgi:esiteid" v="273211" />
  </node>
  <node id="-617" visible="true" lat="44.05137391" lon="-72.3773208">
    <tag k="addr:housenumber" v="5325" />
    <tag k="addr:street" v="West Corinth Road" />
    <tag k="addr:state" v="VT" />
    <tag k="ref:vcgi:esiteid" v="273212" />
  </node>
  <node id="-618" visible="true" lat="44.04772766" lon="-72.477644">
    <tag k="addr:housenumber" v="175" />
    <tag k="addr:street" v="Williamstown Road" />
    <tag k="addr:state" v="VT" />
    <tag k="ref:vcgi:esiteid" v="273213" />
  </node>
  <node id="-619" visible="true" lat="44.04695825" lon="-72.47349003">
    <tag k="addr:housenumber" v="8371" />
    <tag k="addr:street" v="Vermont Route 110" />
    <tag k="addr:state" v="VT" />
    <tag k="ref:vcgi:esiteid" v="273214" />
  </node>
  <node id="-620" visible="true" lat="44.09864147" lon="-72.42307742">
    <tag k="addr:housenumber" v="799" />
    <tag k="addr:street" v="West Corinth Road" />
    <tag k="addr:state" v="VT" />
    <tag k="ref:vcgi:esiteid" v="305672" />
  </node>
  <node id="-621" visible="true" lat="44.04826871" lon="-72.4414932">
    <tag k="addr:housenumber" v="4200" />
    <tag k="addr:street" v="Hart Hollow Road" />
    <tag k="addr:state" v="VT" />
    <tag k="ref:vcgi:esiteid" v="305673" />
  </node>
  <node id="-622" visible="true" lat="44.11539787" lon="-72.45402548">
    <tag k="addr:housenumber" v="1041" />
    <tag k="addr:street" v="Carrier Road" />
    <tag k="addr:state" v="VT" />
    <tag k="ref:vcgi:esiteid" v="305674" />
  </node>
  <node id="-623" visible="true" lat="44.08001219" lon="-72.4146684">
    <tag k="addr:housenumber" v="577" />
    <tag k="addr:street" v="Pepper Road" />
    <tag k="addr:state" v="VT" />
    <tag k="ref:vcgi:esiteid" v="309999" />
  </node>
  <node id="-624" visible="true" lat="44.05116829" lon="-72.43098052">
    <tag k="addr:housenumber" v="2936" />
    <tag k="addr:street" v="Pepper Road" />
    <tag k="addr:state" v="VT" />
    <tag k="ref:vcgi:esiteid" v="310000" />
  </node>
  <node id="-625" visible="true" lat="44.04861052" lon="-72.42813707">
    <tag k="addr:housenumber" v="2940" />
    <tag k="addr:street" v="Pepper Road" />
    <tag k="addr:state" v="VT" />
    <tag k="ref:vcgi:esiteid" v="310001" />
  </node>
  <node id="-626" visible="true" lat="44.04955972" lon="-72.42545684">
    <tag k="addr:housenumber" v="2858" />
    <tag k="addr:street" v="Pepper Road" />
    <tag k="addr:state" v="VT" />
    <tag k="ref:vcgi:esiteid" v="310002" />
  </node>
  <node id="-627" visible="true" lat="44.05098932" lon="-72.42505845">
    <tag k="addr:housenumber" v="2744" />
    <tag k="addr:street" v="Pepper Road" />
    <tag k="addr:state" v="VT" />
    <tag k="ref:vcgi:esiteid" v="310003" />
  </node>
  <node id="-628" visible="true" lat="44.08739249" lon="-72.39975307">
    <tag k="addr:housenumber" v="472" />
    <tag k="addr:street" v="East Orange Road" />
    <tag k="addr:state" v="VT" />
    <tag k="ref:vcgi:esiteid" v="310004" />
  </node>
  <node id="-629" visible="true" lat="44.10068637" lon="-72.39126305">
    <tag k="addr:housenumber" v="2227" />
    <tag k="addr:street" v="Woodchuck Hollow Road" />
    <tag k="addr:state" v="VT" />
    <tag k="ref:vcgi:esiteid" v="310005" />
  </node>
  <node id="-630" visible="true" lat="44.09891706" lon="-72.38973306">
    <tag k="addr:housenumber" v="2474" />
    <tag k="addr:street" v="Woodchuck Hollow Road" />
    <tag k="addr:state" v="VT" />
    <tag k="ref:vcgi:esiteid" v="310006" />
  </node>
  <node id="-631" visible="true" lat="44.04031996" lon="-72.43685557">
    <tag k="addr:housenumber" v="300" />
    <tag k="addr:street" v="Grass Road" />
    <tag k="addr:state" v="VT" />
    <tag k="ref:vcgi:esiteid" v="310007" />
  </node>
  <node id="-632" visible="true" lat="44.09247683" lon="-72.35146087">
    <tag k="addr:housenumber" v="25" />
    <tag k="addr:street" v="Hutchinson Way" />
    <tag k="addr:state" v="VT" />
    <tag k="ref:vcgi:esiteid" v="310008" />
  </node>
  <node id="-633" visible="true" lat="44.09344733" lon="-72.35154562">
    <tag k="addr:housenumber" v="51" />
    <tag k="addr:street" v="Hutchinson Way" />
    <tag k="addr:state" v="VT" />
    <tag k="ref:vcgi:esiteid" v="310009" />
  </node>
  <node id="-634" visible="true" lat="44.09552977" lon="-72.35232963">
    <tag k="addr:housenumber" v="233" />
    <tag k="addr:street" v="Hutchinson Way" />
    <tag k="addr:state" v="VT" />
    <tag k="ref:vcgi:esiteid" v="310010" />
  </node>
  <node id="-635" visible="true" lat="44.09383005" lon="-72.39888337">
    <tag k="addr:housenumber" v="848" />
    <tag k="addr:street" v="East Orange Road" />
    <tag k="addr:state" v="VT" />
    <tag k="ref:vcgi:esiteid" v="310012" />
  </node>
  <node id="-636" visible="true" lat="44.08195251" lon="-72.45200816">
    <tag k="addr:housenumber" v="958" />
    <tag k="addr:street" v="Batchelder Road" />
    <tag k="addr:state" v="VT" />
    <tag k="ref:vcgi:esiteid" v="310013" />
  </node>
  <node id="-637" visible="true" lat="44.0833783" lon="-72.45576445">
    <tag k="addr:housenumber" v="714" />
    <tag k="addr:street" v="Batchelder Road" />
    <tag k="addr:state" v="VT" />
    <tag k="ref:vcgi:esiteid" v="310014" />
  </node>
  <node id="-638" visible="true" lat="44.06110495" lon="-72.46432008">
    <tag k="addr:housenumber" v="7098" />
    <tag k="addr:street" v="Vermont Route 110" />
    <tag k="addr:state" v="VT" />
    <tag k="ref:vcgi:esiteid" v="310015" />
  </node>
  <node id="-639" visible="true" lat="44.11597677" lon="-72.43446348">
    <tag k="addr:housenumber" v="2544" />
    <tag k="addr:street" v="Lowery Road" />
    <tag k="addr:state" v="VT" />
    <tag k="ref:vcgi:esiteid" v="310016" />
  </node>
  <node id="-640" visible="true" lat="44.08119919" lon="-72.40474122">
    <tag k="addr:housenumber" v="2361" />
    <tag k="addr:street" v="West Corinth Road" />
    <tag k="addr:state" v="VT" />
    <tag k="ref:vcgi:esiteid" v="310017" />
  </node>
  <node id="-641" visible="true" lat="44.10283627" lon="-72.42802884">
    <tag k="addr:housenumber" v="272" />
    <tag k="addr:street" v="West Corinth Road" />
    <tag k="addr:state" v="VT" />
    <tag k="ref:vcgi:esiteid" v="310018" />
  </node>
  <node id="-642" visible="true" lat="44.04515671" lon="-72.36883285">
    <tag k="addr:housenumber" v="5962" />
    <tag k="addr:street" v="West Corinth Road" />
    <tag k="addr:state" v="VT" />
    <tag k="ref:vcgi:esiteid" v="310019" />
  </node>
  <node id="-643" visible="true" lat="44.07760231" lon="-72.403557">
    <tag k="addr:housenumber" v="2619" />
    <tag k="addr:street" v="West Corinth Road" />
    <tag k="addr:state" v="VT" />
    <tag k="ref:vcgi:esiteid" v="310020" />
  </node>
  <node id="-644" visible="true" lat="44.06428332" lon="-72.43111747">
    <tag k="addr:housenumber" v="2892" />
    <tag k="addr:street" v="Hart Hollow Road" />
    <tag k="addr:state" v="VT" />
    <tag k="ref:vcgi:esiteid" v="310021" />
  </node>
  <node id="-645" visible="true" lat="44.0815811" lon="-72.41413724">
    <tag k="addr:housenumber" v="463" />
    <tag k="addr:street" v="Pepper Road" />
    <tag k="addr:state" v="VT" />
    <tag k="ref:vcgi:esiteid" v="310022" />
  </node>
  <node id="-646" visible="true" lat="44.08667538" lon="-72.35925248">
    <tag k="addr:housenumber" v="30" />
    <tag k="addr:street" v="Denton Road" />
    <tag k="addr:state" v="VT" />
    <tag k="ref:vcgi:esiteid" v="310023" />
  </node>
  <node id="-647" visible="true" lat="44.07952718" lon="-72.36096629">
    <tag k="addr:housenumber" v="590" />
    <tag k="addr:street" v="Denton Road" />
    <tag k="addr:state" v="VT" />
    <tag k="ref:vcgi:esiteid" v="310024" />
  </node>
  <node id="-648" visible="true" lat="44.0987631" lon="-72.38172302">
    <tag k="addr:housenumber" v="2947" />
    <tag k="addr:street" v="Woodchuck Hollow Road" />
    <tag k="addr:state" v="VT" />
    <tag k="ref:vcgi:esiteid" v="310025" />
  </node>
  <node id="-649" visible="true" lat="44.04797218" lon="-72.47782007">
    <tag k="addr:housenumber" v="179" />
    <tag k="addr:street" v="Williamstown Road" />
    <tag k="addr:state" v="VT" />
    <tag k="ref:vcgi:esiteid" v="310026" />
  </node>
  <node id="-650" visible="true" lat="44.05324642" lon="-72.41306156">
    <tag k="addr:housenumber" v="701" />
    <tag k="addr:street" v="Jail House Road" />
    <tag k="addr:state" v="VT" />
    <tag k="ref:vcgi:esiteid" v="310027" />
  </node>
  <node id="-651" visible="true" lat="44.04274893" lon="-72.42285495">
    <tag k="addr:housenumber" v="600" />
    <tag k="addr:street" v="Roberts Road" />
    <tag k="addr:state" v="VT" />
    <tag k="ref:vcgi:esiteid" v="310028" />
  </node>
  <node id="-652" visible="true" lat="44.10104353" lon="-72.44882599">
    <tag k="addr:housenumber" v="487" />
    <tag k="addr:street" v="Macdonald Road" />
    <tag k="addr:state" v="VT" />
    <tag k="ref:vcgi:esiteid" v="310029" />
  </node>
  <node id="-653" visible="true" lat="44.09454054" lon="-72.47294113">
    <tag k="addr:housenumber" v="450" />
    <tag k="addr:street" v="Poor Farm Road" />
    <tag k="addr:state" v="VT" />
    <tag k="ref:vcgi:esiteid" v="310030" />
  </node>
  <node id="-654" visible="true" lat="44.11121728" lon="-72.43351875">
    <tag k="addr:housenumber" v="2721" />
    <tag k="addr:street" v="Vermont Route 110" />
    <tag k="addr:state" v="VT" />
    <tag k="ref:vcgi:esiteid" v="310031" />
  </node>
  <node id="-655" visible="true" lat="44.10284084" lon="-72.43796057">
    <tag k="addr:housenumber" v="107" />
    <tag k="addr:street" v="Carrier Road East" />
    <tag k="addr:state" v="VT" />
    <tag k="ref:vcgi:esiteid" v="310032" />
  </node>
  <node id="-656" visible="true" lat="44.06927943" lon="-72.4647193">
    <tag k="addr:housenumber" v="6491" />
    <tag k="addr:street" v="Vermont Route 110" />
    <tag k="addr:state" v="VT" />
    <tag k="ref:vcgi:esiteid" v="310033" />
  </node>
  <node id="-657" visible="true" lat="44.02883587" lon="-72.43416528">
    <tag k="addr:housenumber" v="4429" />
    <tag k="addr:street" v="Pepper Road" />
    <tag k="addr:state" v="VT" />
    <tag k="ref:vcgi:esiteid" v="310034" />
  </node>
  <node id="-658" visible="true" lat="44.10062268" lon="-72.46390149">
    <tag k="addr:housenumber" v="1141" />
    <tag k="addr:street" v="Macdonald Road" />
    <tag k="addr:state" v="VT" />
    <tag k="ref:vcgi:esiteid" v="310035" />
  </node>
  <node id="-659" visible="true" lat="44.11681251" lon="-72.43334651">
    <tag k="addr:housenumber" v="2337" />
    <tag k="addr:street" v="Vermont Route 110" />
    <tag k="addr:state" v="VT" />
    <tag k="ref:vcgi:esiteid" v="310036" />
  </node>
  <node id="-660" visible="true" lat="44.09655159" lon="-72.35063037">
    <tag k="addr:housenumber" v="195" />
    <tag k="addr:street" v="Notch End Road" />
    <tag k="addr:state" v="VT" />
    <tag k="ref:vcgi:esiteid" v="315471" />
  </node>
  <node id="-661" visible="true" lat="44.12301006" lon="-72.43989566">
    <tag k="addr:housenumber" v="2053" />
    <tag k="addr:street" v="Lowery Road" />
    <tag k="addr:state" v="VT" />
    <tag k="ref:vcgi:esiteid" v="316740" />
  </node>
  <node id="-662" visible="true" lat="44.05211845" lon="-72.48973985">
    <tag k="addr:housenumber" v="164" />
    <tag k="addr:street" v="Stellar Road" />
    <tag k="addr:state" v="VT" />
    <tag k="ref:vcgi:esiteid" v="316741" />
  </node>
  <node id="-663" visible="true" lat="44.0749309" lon="-72.43371585">
    <tag k="addr:housenumber" v="273" />
    <tag k="addr:street" v="Back Pasture Lane" />
    <tag k="addr:state" v="VT" />
    <tag k="ref:vcgi:esiteid" v="316742" />
  </node>
  <node id="-664" visible="true" lat="44.09722648" lon="-72.45326031">
    <tag k="addr:housenumber" v="4360" />
    <tag k="addr:street" v="Vermont Route 110" />
    <tag k="addr:state" v="VT" />
    <tag k="ref:vcgi:esiteid" v="324337" />
  </node>
  <node id="-665" visible="true" lat="44.04787722" lon="-72.49194812">
    <tag k="addr:housenumber" v="118" />
    <tag k="addr:street" v="Edwards Road" />
    <tag k="addr:state" v="VT" />
    <tag k="ref:vcgi:esiteid" v="332455" />
  </node>
  <node id="-666" visible="true" lat="44.09909194" lon="-72.42192334">
    <tag k="addr:housenumber" v="21" />
    <tag k="addr:street" v="Plumb Lane" />
    <tag k="addr:state" v="VT" />
    <tag k="ref:vcgi:esiteid" v="345622" />
  </node>
  <node id="-667" visible="true" lat="44.0628593" lon="-72.45911573">
    <tag k="addr:housenumber" v="498" />
    <tag k="addr:street" v="Sky Acres Road" />
    <tag k="addr:state" v="VT" />
    <tag k="ref:vcgi:esiteid" v="365168" />
  </node>
  <node id="-668" visible="true" lat="44.06283634" lon="-72.46385333">
    <tag k="addr:housenumber" v="7017" />
    <tag k="addr:street" v="Vermont Route 110" />
    <tag k="addr:state" v="VT" />
    <tag k="ref:vcgi:esiteid" v="365169" />
  </node>
  <node id="-669" visible="true" lat="44.09713808" lon="-72.41980814">
    <tag k="addr:housenumber" v="108" />
    <tag k="addr:street" v="Plumb Lane" />
    <tag k="addr:state" v="VT" />
    <tag k="ref:vcgi:esiteid" v="445438" />
  </node>
  <node id="-670" visible="true" lat="44.05836648" lon="-72.46333145">
    <tag k="addr:housenumber" v="7331" />
    <tag k="addr:street" v="Vermont Route 110" />
    <tag k="addr:state" v="VT" />
    <tag k="ref:vcgi:esiteid" v="446154" />
  </node>
  <node id="-671" visible="true" lat="44.10341222" lon="-72.42986656">
    <tag k="addr:housenumber" v="160" />
    <tag k="addr:street" v="West Corinth Road" />
    <tag k="addr:state" v="VT" />
    <tag k="ref:vcgi:esiteid" v="446975" />
  </node>
  <node id="-672" visible="true" lat="44.0999068" lon="-72.42362029">
    <tag k="addr:housenumber" v="661" />
    <tag k="addr:street" v="West Corinth Road" />
    <tag k="addr:state" v="VT" />
    <tag k="ref:vcgi:esiteid" v="446976" />
  </node>
  <node id="-673" visible="true" lat="44.10132849" lon="-72.4237176">
    <tag k="addr:housenumber" v="565" />
    <tag k="addr:street" v="West Corinth Road" />
    <tag k="addr:state" v="VT" />
    <tag k="ref:vcgi:esiteid" v="446977" />
  </node>
  <node id="-674" visible="true" lat="44.11237853" lon="-72.45148067">
    <tag k="addr:housenumber" v="863" />
    <tag k="addr:street" v="Carrier Road" />
    <tag k="addr:state" v="VT" />
    <tag k="ref:vcgi:esiteid" v="446978" />
  </node>
  <node id="-675" visible="true" lat="44.06373716" lon="-72.46888365">
    <tag k="addr:housenumber" v="77" />
    <tag k="addr:street" v="Tilton Road" />
    <tag k="addr:state" v="VT" />
    <tag k="ref:vcgi:esiteid" v="447073" />
  </node>
  <node id="-676" visible="true" lat="44.05220356" lon="-72.48156422">
    <tag k="addr:housenumber" v="694" />
    <tag k="addr:street" v="Williamstown Road" />
    <tag k="addr:state" v="VT" />
    <tag k="ref:vcgi:esiteid" v="447074" />
  </node>
  <node id="-677" visible="true" lat="44.03649631" lon="-72.41289514">
    <tag k="addr:housenumber" v="606" />
    <tag k="addr:street" v="White Hill Road" />
    <tag k="addr:state" v="VT" />
    <tag k="ref:vcgi:esiteid" v="447075" />
  </node>
  <node id="-678" visible="true" lat="44.04725175" lon="-72.41377108">
    <tag k="addr:housenumber" v="378" />
    <tag k="addr:street" v="Roberts Road" />
    <tag k="addr:state" v="VT" />
    <tag k="ref:vcgi:esiteid" v="447076" />
  </node>
  <node id="-679" visible="true" lat="44.04050252" lon="-72.42741796">
    <tag k="addr:housenumber" v="921" />
    <tag k="addr:street" v="Roberts Road" />
    <tag k="addr:state" v="VT" />
    <tag k="ref:vcgi:esiteid" v="447077" />
  </node>
  <node id="-680" visible="true" lat="44.12147074" lon="-72.44059966">
    <tag k="addr:housenumber" v="2160" />
    <tag k="addr:street" v="Lowery Road" />
    <tag k="addr:state" v="VT" />
    <tag k="ref:vcgi:esiteid" v="447078" />
  </node>
  <node id="-681" visible="true" lat="44.12709697" lon="-72.45051367">
    <tag k="addr:housenumber" v="449" />
    <tag k="addr:street" v="Lambert Road" />
    <tag k="addr:state" v="VT" />
    <tag k="ref:vcgi:esiteid" v="447079" />
  </node>
  <node id="-682" visible="true" lat="44.1157857" lon="-72.45516041">
    <tag k="addr:housenumber" v="140" />
    <tag k="addr:street" v="Hyland Hill Road" />
    <tag k="addr:state" v="VT" />
    <tag k="ref:vcgi:esiteid" v="447081" />
  </node>
  <node id="-683" visible="true" lat="44.10357226" lon="-72.46134063">
    <tag k="addr:housenumber" v="195" />
    <tag k="addr:street" v="Moran Road" />
    <tag k="addr:state" v="VT" />
    <tag k="ref:vcgi:esiteid" v="447082" />
  </node>
  <node id="-684" visible="true" lat="44.09646906" lon="-72.45008558">
    <tag k="addr:housenumber" v="4247" />
    <tag k="addr:street" v="Vermont Route 110" />
    <tag k="addr:state" v="VT" />
    <tag k="ref:vcgi:esiteid" v="447083" />
  </node>
  <node id="-685" visible="true" lat="44.0930774" lon="-72.35266484">
    <tag k="addr:housenumber" v="31" />
    <tag k="addr:street" v="Hutchinson Way" />
    <tag k="addr:state" v="VT" />
    <tag k="ref:vcgi:esiteid" v="447085" />
  </node>
  <node id="-686" visible="true" lat="44.10614318" lon="-72.42635951">
    <tag k="addr:housenumber" v="228" />
    <tag k="addr:street" v="Woodchuck Hollow Road" />
    <tag k="addr:state" v="VT" />
    <tag k="ref:vcgi:esiteid" v="447090" />
  </node>
  <node id="-687" visible="true" lat="44.09806573" lon="-72.37539647">
    <tag k="addr:housenumber" v="3284" />
    <tag k="addr:street" v="Woodchuck Hollow Road" />
    <tag k="addr:state" v="VT" />
    <tag k="ref:vcgi:esiteid" v="447091" />
  </node>
  <node id="-688" visible="true" lat="44.06549551" lon="-72.49303819">
    <tag k="addr:housenumber" v="1736" />
    <tag k="addr:street" v="Williamstown Road" />
    <tag k="addr:state" v="VT" />
    <tag k="ref:vcgi:esiteid" v="448643" />
  </node>
  <node id="-689" visible="true" lat="44.10642082" lon="-72.45243019">
    <tag k="addr:housenumber" v="279" />
    <tag k="addr:street" v="Downing Road" />
    <tag k="addr:state" v="VT" />
    <tag k="ref:vcgi:esiteid" v="449303" />
  </node>
  <node id="-690" visible="true" lat="44.10199311" lon="-72.4601713">
    <tag k="addr:housenumber" v="96" />
    <tag k="addr:street" v="Moran Road" />
    <tag k="addr:state" v="VT" />
    <tag k="ref:vcgi:esiteid" v="449619" />
  </node>
  <node id="-692" visible="true" lat="44.10457942" lon="-72.46088834">
    <tag k="addr:housenumber" v="197" />
    <tag k="addr:street" v="Moran Road" />
    <tag k="addr:state" v="VT" />
    <tag k="ref:vcgi:esiteid" v="449622" />
  </node>
  <node id="-693" visible="true" lat="44.0549458" lon="-72.45686972">
    <tag k="addr:housenumber" v="595" />
    <tag k="addr:street" v="Keene Road" />
    <tag k="addr:state" v="VT" />
    <tag k="ref:vcgi:esiteid" v="450628" />
  </node>
  <node id="-694" visible="true" lat="44.07116461" lon="-72.41141664">
    <tag k="addr:housenumber" v="1800" />
    <tag k="addr:street" v="Jail House Road" />
    <tag k="addr:state" v="VT" />
    <tag k="ref:vcgi:esiteid" v="450629" />
  </node>
  <node id="-695" visible="true" lat="44.07344215" lon="-72.40968578">
    <tag k="addr:housenumber" v="2930" />
    <tag k="addr:street" v="West Corinth Road" />
    <tag k="addr:state" v="VT" />
    <tag k="ref:vcgi:esiteid" v="450630" />
  </node>
  <node id="-696" visible="true" lat="44.03491549" lon="-72.3914732">
    <tag k="addr:housenumber" v="196" />
    <tag k="addr:street" v="Sargent Road North" />
    <tag k="addr:state" v="VT" />
    <tag k="ref:vcgi:esiteid" v="450631" />
  </node>
  <node id="-697" visible="true" lat="44.04649431" lon="-72.45781815">
    <tag k="addr:housenumber" v="1182" />
    <tag k="addr:street" v="Keene Road" />
    <tag k="addr:state" v="VT" />
    <tag k="ref:vcgi:esiteid" v="451549" />
  </node>
  <node id="-699" visible="true" lat="44.0282169" lon="-72.41491776">
    <tag k="addr:housenumber" v="3030" />
    <tag k="addr:street" v="Scales Hill Road" />
    <tag k="addr:state" v="VT" />
    <tag k="ref:vcgi:esiteid" v="451970" />
  </node>
  <node id="-700" visible="true" lat="44.08548275" lon="-72.41293196">
    <tag k="addr:housenumber" v="152" />
    <tag k="addr:street" v="Pepper Road" />
    <tag k="addr:state" v="VT" />
    <tag k="ref:vcgi:esiteid" v="452188" />
  </node>
  <node id="-701" visible="true" lat="44.11742782" lon="-72.43466832">
    <tag k="addr:housenumber" v="2563" />
    <tag k="addr:street" v="Lowery Road" />
    <tag k="addr:state" v="VT" />
    <tag k="ref:vcgi:esiteid" v="452644" />
  </node>
  <node id="-702" visible="true" lat="44.09320566" lon="-72.4530451">
    <tag k="addr:housenumber" v="175" />
    <tag k="addr:street" v="Cyr Heights" />
    <tag k="addr:state" v="VT" />
    <tag k="ref:vcgi:esiteid" v="452645" />
  </node>
  <node id="-703" visible="true" lat="44.11213105" lon="-72.43790379">
    <tag k="addr:housenumber" v="95" />
    <tag k="addr:street" v="Linnea Lane" />
    <tag k="addr:state" v="VT" />
    <tag k="ref:vcgi:esiteid" v="452646" />
  </node>
  <node id="-704" visible="true" lat="44.09862086" lon="-72.46562247">
    <tag k="addr:housenumber" v="126" />
    <tag k="addr:street" v="Johnson Lane" />
    <tag k="addr:state" v="VT" />
    <tag k="ref:vcgi:esiteid" v="452692" />
  </node>
  <node id="-705" visible="true" lat="44.09669902" lon="-72.43524238">
    <tag k="addr:housenumber" v="488" />
    <tag k="addr:street" v="Turnpike Road" />
    <tag k="addr:state" v="VT" />
    <tag k="ref:vcgi:esiteid" v="452693" />
  </node>
  <node id="-706" visible="true" lat="44.07689551" lon="-72.39629094">
    <tag k="addr:housenumber" v="231" />
    <tag k="addr:street" v="Blood Mountain Road" />
    <tag k="addr:state" v="VT" />
    <tag k="ref:vcgi:esiteid" v="453007" />
  </node>
  <node id="-707" visible="true" lat="44.07664468" lon="-72.39541604">
    <tag k="addr:housenumber" v="149" />
    <tag k="addr:street" v="Blood Mountain Road" />
    <tag k="addr:state" v="VT" />
    <tag k="ref:vcgi:esiteid" v="453008" />
  </node>
  <node id="-708" visible="true" lat="44.07677226" lon="-72.39495338">
    <tag k="addr:housenumber" v="103" />
    <tag k="addr:street" v="Blood Mountain Road" />
    <tag k="addr:state" v="VT" />
    <tag k="ref:vcgi:esiteid" v="453009" />
  </node>
  <node id="-709" visible="true" lat="44.05870811" lon="-72.45426167">
    <tag k="addr:housenumber" v="269" />
    <tag k="addr:street" v="Keene Road" />
    <tag k="addr:state" v="VT" />
    <tag k="ref:vcgi:esiteid" v="453010" />
  </node>
  <node id="-710" visible="true" lat="44.10183461" lon="-72.43816438">
    <tag k="addr:housenumber" v="3593" />
    <tag k="addr:street" v="Vermont Route 110" />
    <tag k="addr:state" v="VT" />
    <tag k="ref:vcgi:esiteid" v="453521" />
  </node>
  <node id="-711" visible="true" lat="44.09549659" lon="-72.43743908">
    <tag k="addr:housenumber" v="460" />
    <tag k="addr:street" v="Cheney Road" />
    <tag k="addr:state" v="VT" />
    <tag k="ref:vcgi:esiteid" v="453622" />
  </node>
  <node id="-712" visible="true" lat="44.10564545" lon="-72.43999045">
    <tag k="addr:housenumber" v="128" />
    <tag k="addr:street" v="Carrier Road" />
    <tag k="addr:state" v="VT" />
    <tag k="ref:vcgi:esiteid" v="453623" />
  </node>
  <node id="-713" visible="true" lat="44.06105076" lon="-72.47885576">
    <tag k="addr:housenumber" v="816" />
    <tag k="addr:street" v="Poor Farm Road" />
    <tag k="addr:state" v="VT" />
    <tag k="ref:vcgi:esiteid" v="454237" />
  </node>
  <node id="-714" visible="true" lat="44.03627849" lon="-72.40020215">
    <tag k="addr:housenumber" v="1863" />
    <tag k="addr:street" v="Scales Hill Road" />
    <tag k="addr:state" v="VT" />
    <tag k="ref:vcgi:esiteid" v="454238" />
  </node>
  <node id="-715" visible="true" lat="44.05921905" lon="-72.45466167">
    <tag k="addr:housenumber" v="323" />
    <tag k="addr:street" v="Keene Road" />
    <tag k="addr:state" v="VT" />
    <tag k="ref:vcgi:esiteid" v="454239" />
  </node>
  <node id="-716" visible="true" lat="44.06802799" lon="-72.47149646">
    <tag k="addr:housenumber" v="462" />
    <tag k="addr:street" v="Tilton Road" />
    <tag k="addr:state" v="VT" />
    <tag k="ref:vcgi:esiteid" v="454535" />
  </node>
  <node id="-717" visible="true" lat="44.07077109" lon="-72.47093696">
    <tag k="addr:housenumber" v="630" />
    <tag k="addr:street" v="Tilton Road" />
    <tag k="addr:state" v="VT" />
    <tag k="ref:vcgi:esiteid" v="454536" />
  </node>
  <node id="-718" visible="true" lat="44.11031958" lon="-72.44632146">
    <tag k="addr:housenumber" v="522" />
    <tag k="addr:street" v="Carrier Road" />
    <tag k="addr:state" v="VT" />
    <tag k="ref:vcgi:esiteid" v="455178" />
  </node>
  <node id="-719" visible="true" lat="44.08755505" lon="-72.36273264">
    <tag k="addr:housenumber" v="16" />
    <tag k="addr:street" v="Notch Road" />
    <tag k="addr:state" v="VT" />
    <tag k="ref:vcgi:esiteid" v="455179" />
  </node>
  <node id="-720" visible="true" lat="44.04357013" lon="-72.45990218">
    <tag k="addr:housenumber" v="175" />
    <tag k="addr:street" v="Bobuchon Lane" />
    <tag k="addr:state" v="VT" />
    <tag k="ref:vcgi:esiteid" v="455180" />
  </node>
  <node id="-721" visible="true" lat="44.03796306" lon="-72.4139979">
    <tag k="addr:housenumber" v="695" />
    <tag k="addr:street" v="White Hill Road" />
    <tag k="addr:state" v="VT" />
    <tag k="ref:vcgi:esiteid" v="455371" />
  </node>
  <node id="-722" visible="true" lat="44.04893775" lon="-72.36935032">
    <tag k="addr:housenumber" v="313" />
    <tag k="addr:street" v="Beaver Brook Road" />
    <tag k="addr:state" v="VT" />
    <tag k="ref:vcgi:esiteid" v="455528" />
  </node>
  <node id="-723" visible="true" lat="44.04844824" lon="-72.47116612">
    <tag k="addr:housenumber" v="8181" />
    <tag k="addr:street" v="Vermont Route 110" />
    <tag k="addr:state" v="VT" />
    <tag k="ref:vcgi:esiteid" v="610798" />
  </node>
  <node id="-724" visible="true" lat="44.12908918" lon="-72.44433342">
    <tag k="addr:housenumber" v="1571" />
    <tag k="addr:street" v="Lowery Road" />
    <tag k="addr:state" v="VT" />
    <tag k="ref:vcgi:esiteid" v="611448" />
  </node>
  <node id="-725" visible="true" lat="44.1013843" lon="-72.43223598">
    <tag k="addr:housenumber" v="97" />
    <tag k="addr:street" v="Hart Hollow Road" />
    <tag k="addr:state" v="VT" />
    <tag k="ref:vcgi:esiteid" v="612825" />
  </node>
  <node id="-726" visible="true" lat="44.08627793" lon="-72.46242193">
    <tag k="addr:housenumber" v="273" />
    <tag k="addr:street" v="Richardson Road" />
    <tag k="addr:state" v="VT" />
    <tag k="ref:vcgi:esiteid" v="612826" />
  </node>
  <node id="-727" visible="true" lat="44.09850445" lon="-72.36964532">
    <tag k="addr:housenumber" v="905" />
    <tag k="addr:street" v="Notch Road" />
    <tag k="addr:state" v="VT" />
    <tag k="ref:vcgi:esiteid" v="613427" />
  </node>
  <node id="-728" visible="true" lat="44.10060463" lon="-72.45148483">
    <tag k="addr:housenumber" v="661" />
    <tag k="addr:street" v="Macdonald Road" />
    <tag k="addr:state" v="VT" />
    <tag k="ref:vcgi:esiteid" v="614604" />
  </node>
  <node id="-729" visible="true" lat="44.07858719" lon="-72.40400117">
    <tag k="addr:housenumber" v="2597" />
    <tag k="addr:street" v="West Corinth Road" />
    <tag k="addr:state" v="VT" />
    <tag k="ref:vcgi:esiteid" v="617387" />
  </node>
  <node id="-730" visible="true" lat="44.04764943" lon="-72.46372377">
    <tag k="addr:housenumber" v="442" />
    <tag k="addr:street" v="Bobuchon Lane" />
    <tag k="addr:state" v="VT" />
    <tag k="ref:vcgi:esiteid" v="617643" />
  </node>
  <node id="-731" visible="true" lat="44.04182383" lon="-72.46111783">
    <tag k="addr:housenumber" v="177" />
    <tag k="addr:street" v="Bobuchon Lane" />
    <tag k="addr:state" v="VT" />
    <tag k="ref:vcgi:esiteid" v="617644" />
  </node>
  <node id="-732" visible="true" lat="44.08778427" lon="-72.35736162">
    <tag k="addr:housenumber" v="95" />
    <tag k="addr:street" v="Denton Road" />
    <tag k="addr:state" v="VT" />
    <tag k="ref:vcgi:esiteid" v="750477" />
  </node>
  <node id="-733" visible="true" lat="44.02624191" lon="-72.41642623">
    <tag k="addr:housenumber" v="3088" />
    <tag k="addr:street" v="Scales Hill Road" />
    <tag k="addr:state" v="VT" />
    <tag k="ref:vcgi:esiteid" v="753546" />
  </node>
  <node id="-734" visible="true" lat="44.08896706" lon="-72.3983037">
    <tag k="addr:housenumber" v="588" />
    <tag k="addr:street" v="East Orange Road" />
    <tag k="addr:state" v="VT" />
    <tag k="ref:vcgi:esiteid" v="754970" />
  </node>
  <node id="-735" visible="true" lat="44.09677129" lon="-72.42488629">
    <tag k="addr:housenumber" v="940" />
    <tag k="addr:street" v="West Corinth Road" />
    <tag k="addr:state" v="VT" />
    <tag k="ref:vcgi:esiteid" v="754971" />
  </node>
  <node id="-736" visible="true" lat="44.12043233" lon="-72.42235038">
    <tag k="addr:housenumber" v="690" />
    <tag k="addr:street" v="Creamery Road" />
    <tag k="addr:state" v="VT" />
    <tag k="ref:vcgi:esiteid" v="756178" />
  </node>
  <node id="-737" visible="true" lat="44.08904443" lon="-72.41094984">
    <tag k="addr:housenumber" v="1841" />
    <tag k="addr:street" v="West Corinth Road" />
    <tag k="addr:state" v="VT" />
    <tag k="ref:vcgi:esiteid" v="756470" />
  </node>
  <node id="-738" visible="true" lat="44.05255278" lon="-72.43920382">
    <tag k="addr:housenumber" v="3844" />
    <tag k="addr:street" v="Hart Hollow Road" />
    <tag k="addr:state" v="VT" />
    <tag k="ref:vcgi:esiteid" v="756604" />
  </node>
  <node id="-739" visible="true" lat="44.05180388" lon="-72.47403244">
    <tag k="addr:housenumber" v="59" />
    <tag k="addr:street" v="Poor Farm Road" />
    <tag k="addr:state" v="VT" />
    <tag k="ref:vcgi:esiteid" v="756637" />
  </node>
  <node id="-740" visible="true" lat="44.09043536" lon="-72.39799092">
    <tag k="addr:housenumber" v="592" />
    <tag k="addr:street" v="East Orange Road" />
    <tag k="addr:state" v="VT" />
    <tag k="ref:vcgi:esiteid" v="756638" />
  </node>
  <node id="-741" visible="true" lat="44.05940398" lon="-72.48989094">
    <tag k="addr:housenumber" v="1505" />
    <tag k="addr:street" v="Williamstown Road" />
    <tag k="addr:state" v="VT" />
    <tag k="ref:vcgi:esiteid" v="756748" />
  </node>
  <node id="-742" visible="true" lat="44.09702896" lon="-72.46256026">
    <tag k="addr:housenumber" v="1071" />
    <tag k="addr:street" v="Macdonald Road" />
    <tag k="addr:state" v="VT" />
    <tag k="ref:vcgi:esiteid" v="757198" />
  </node>
  <node id="-743" visible="true" lat="44.10105513" lon="-72.45443189">
    <tag k="addr:housenumber" v="796" />
    <tag k="addr:street" v="Macdonald Road" />
    <tag k="addr:state" v="VT" />
    <tag k="ref:vcgi:esiteid" v="757199" />
  </node>
  <node id="-744" visible="true" lat="44.10187229" lon="-72.45890171">
    <tag k="addr:housenumber" v="1010" />
    <tag k="addr:street" v="Macdonald Road" />
    <tag k="addr:state" v="VT" />
    <tag k="ref:vcgi:esiteid" v="757301" />
  </node>
  <node id="-746" visible="true" lat="44.09571915" lon="-72.34842356">
    <tag k="addr:housenumber" v="70" />
    <tag k="addr:street" v="Notch End Road" />
    <tag k="addr:state" v="VT" />
    <tag k="ref:vcgi:esiteid" v="759343" />
  </node>
  <node id="-747" visible="true" lat="44.11733404" lon="-72.43604163">
    <tag k="addr:housenumber" v="2504" />
    <tag k="addr:street" v="Lowery Road" />
    <tag k="addr:state" v="VT" />
    <tag k="ref:vcgi:esiteid" v="760509" />
  </node>
  <node id="-748" visible="true" lat="44.11441946" lon="-72.45109127">
    <tag k="addr:housenumber" v="1062" />
    <tag k="addr:street" v="Carrier Road" />
    <tag k="addr:state" v="VT" />
    <tag k="ref:vcgi:esiteid" v="760623" />
  </node>
  <node id="-749" visible="true" lat="44.05406017" lon="-72.38771651">
    <tag k="addr:housenumber" v="290" />
    <tag k="addr:street" v="Huntington Road" />
    <tag k="addr:state" v="VT" />
    <tag k="ref:vcgi:esiteid" v="761783" />
  </node>
  <node id="-750" visible="true" lat="44.05299258" lon="-72.38814446">
    <tag k="addr:housenumber" v="281" />
    <tag k="addr:street" v="Huntington Road" />
    <tag k="addr:state" v="VT" />
    <tag k="ref:vcgi:esiteid" v="761784" />
  </node>
  <node id="-751" visible="true" lat="44.02853482" lon="-72.40025847">
    <tag k="addr:housenumber" v="370" />
    <tag k="addr:street" v="Sargent Road" />
    <tag k="addr:state" v="VT" />
    <tag k="ref:vcgi:esiteid" v="761923" />
  </node>
  <node id="-752" visible="true" lat="44.06644396" lon="-72.47858871">
    <tag k="addr:housenumber" v="1028" />
    <tag k="addr:street" v="Poor Farm Road" />
    <tag k="addr:state" v="VT" />
    <tag k="ref:vcgi:esiteid" v="761947" />
  </node>
  <node id="-753" visible="true" lat="44.08009793" lon="-72.40770458">
    <tag k="addr:housenumber" v="2302" />
    <tag k="addr:street" v="West Corinth Road" />
    <tag k="addr:state" v="VT" />
    <tag k="ref:vcgi:esiteid" v="761948" />
  </node>
  <node id="-754" visible="true" lat="44.05966969" lon="-72.412441">
    <tag k="addr:housenumber" v="901" />
    <tag k="addr:street" v="Jail House Road" />
    <tag k="addr:state" v="VT" />
    <tag k="ref:vcgi:esiteid" v="761949" />
  </node>
  <node id="-755" visible="true" lat="44.04079453" lon="-72.39256686">
    <tag k="addr:housenumber" v="1225" />
    <tag k="addr:street" v="Scales Hill Road" />
    <tag k="addr:state" v="VT" />
    <tag k="ref:vcgi:esiteid" v="762664" />
  </node>
  <node id="-756" visible="true" lat="44.04026268" lon="-72.3908888">
    <tag k="addr:housenumber" v="1335" />
    <tag k="addr:street" v="Scales Hill Road" />
    <tag k="addr:state" v="VT" />
    <tag k="ref:vcgi:esiteid" v="762665" />
  </node>
  <node id="-757" visible="true" lat="44.11255348" lon="-72.41486365">
    <tag k="addr:housenumber" v="344" />
    <tag k="addr:street" v="Morrie Road" />
    <tag k="addr:state" v="VT" />
    <tag k="ref:vcgi:esiteid" v="763577" />
  </node>
  <node id="-758" visible="true" lat="44.06864538" lon="-72.45921764">
    <tag k="addr:housenumber" v="313" />
    <tag k="addr:street" v="Sky Acres Road" />
    <tag k="addr:state" v="VT" />
    <tag k="ref:vcgi:esiteid" v="764237" />
  </node>
  <node id="-759" visible="true" lat="44.0741538" lon="-72.39883435">
    <tag k="addr:housenumber" v="212" />
    <tag k="addr:street" v="Dow Road" />
    <tag k="addr:state" v="VT" />
    <tag k="ref:vcgi:esiteid" v="765279" />
  </node>
  <node id="-760" visible="true" lat="44.07409527" lon="-72.39728864">
    <tag k="addr:housenumber" v="232" />
    <tag k="addr:street" v="Dow Road" />
    <tag k="addr:state" v="VT" />
    <tag k="ref:vcgi:esiteid" v="765280" />
  </node>
  <node id="-763" visible="true" lat="44.05171479" lon="-72.48654326">
    <tag k="addr:housenumber" v="128" />
    <tag k="addr:street" v="Stellar Road" />
    <tag k="addr:state" v="VT" />
    <tag k="ref:vcgi:esiteid" v="766623" />
  </node>
  <node id="-764" visible="true" lat="44.02798835" lon="-72.39883663">
    <tag k="addr:housenumber" v="460" />
    <tag k="addr:street" v="Sargent Road" />
    <tag k="addr:state" v="VT" />
    <tag k="ref:vcgi:esiteid" v="767439" />
  </node>
  <node id="-765" visible="true" lat="44.1090231" lon="-72.41633292">
    <tag k="addr:housenumber" v="759" />
    <tag k="addr:street" v="Woodchuck Hollow Road" />
    <tag k="addr:state" v="VT" />
    <tag k="ref:vcgi:esiteid" v="767440" />
  </node>
  <node id="-766" visible="true" lat="44.05443495" lon="-72.43913975">
    <tag k="addr:housenumber" v="3790" />
    <tag k="addr:street" v="Hart Hollow Road" />
    <tag k="addr:state" v="VT" />
    <tag k="ref:vcgi:esiteid" v="800087" />
  </node>
</osm>
