<?xml version="1.0" encoding="UTF-8"?>
<osm version="0.6" generator="JOSM">
  <node id="-100" visible="true" lat="43.26344571" lon="-72.81933624">
    <tag k="addr:city" v="Weston" />
    <tag k="addr:housenumber" v="5" />
    <tag k="addr:street" v="Shaw Knoll Road" />
    <tag k="addr:state" v="VT" />
    <tag k="ref:vcgi:esiteid" v="139327" />
  </node>
  <node id="-101" visible="true" lat="43.25033229" lon="-72.79740043">
    <tag k="addr:city" v="Weston" />
    <tag k="addr:housenumber" v="7587" />
    <tag k="addr:street" v="Vermont Route 100" />
    <tag k="addr:state" v="VT" />
    <tag k="ref:vcgi:esiteid" v="140667" />
  </node>
  <node id="-102" visible="true" lat="43.35611166" lon="-72.7700869">
    <tag k="addr:city" v="Weston" />
    <tag k="addr:housenumber" v="99" />
    <tag k="addr:street" v="Slawson Road" />
    <tag k="addr:state" v="VT" />
    <tag k="ref:vcgi:esiteid" v="284573" />
  </node>
  <node id="-103" visible="true" lat="43.35602184" lon="-72.76807948">
    <tag k="addr:city" v="Weston" />
    <tag k="addr:housenumber" v="85" />
    <tag k="addr:street" v="Slawson Road" />
    <tag k="addr:state" v="VT" />
    <tag k="ref:vcgi:esiteid" v="284574" />
  </node>
  <node id="-104" visible="true" lat="43.35527985" lon="-72.76817233">
    <tag k="addr:city" v="Weston" />
    <tag k="addr:housenumber" v="82" />
    <tag k="addr:street" v="Slawson Road" />
    <tag k="addr:state" v="VT" />
    <tag k="ref:vcgi:esiteid" v="284575" />
  </node>
  <node id="-105" visible="true" lat="43.35531989" lon="-72.76686183">
    <tag k="addr:city" v="Weston" />
    <tag k="addr:housenumber" v="69" />
    <tag k="addr:street" v="Slawson Road" />
    <tag k="addr:state" v="VT" />
    <tag k="ref:vcgi:esiteid" v="284576" />
  </node>
  <node id="-106" visible="true" lat="43.35428195" lon="-72.76729669">
    <tag k="addr:city" v="Weston" />
    <tag k="addr:housenumber" v="62" />
    <tag k="addr:street" v="Slawson Road" />
    <tag k="addr:state" v="VT" />
    <tag k="ref:vcgi:esiteid" v="284577" />
  </node>
  <node id="-107" visible="true" lat="43.3541659" lon="-72.76531335">
    <tag k="addr:city" v="Weston" />
    <tag k="addr:housenumber" v="47" />
    <tag k="addr:street" v="Slawson Road" />
    <tag k="addr:state" v="VT" />
    <tag k="ref:vcgi:esiteid" v="284578" />
  </node>
  <node id="-108" visible="true" lat="43.35367787" lon="-72.76747292">
    <tag k="addr:city" v="Weston" />
    <tag k="addr:housenumber" v="144" />
    <tag k="addr:street" v="Slawson Road" />
    <tag k="addr:state" v="VT" />
    <tag k="ref:vcgi:esiteid" v="284579" />
  </node>
  <node id="-109" visible="true" lat="43.353731" lon="-72.76610691">
    <tag k="addr:city" v="Weston" />
    <tag k="addr:housenumber" v="44" />
    <tag k="addr:street" v="Slawson Road" />
    <tag k="addr:state" v="VT" />
    <tag k="ref:vcgi:esiteid" v="284580" />
  </node>
  <node id="-110" visible="true" lat="43.35354036" lon="-72.76959834">
    <tag k="addr:city" v="Weston" />
    <tag k="addr:housenumber" v="123" />
    <tag k="addr:street" v="Slawson Road" />
    <tag k="addr:state" v="VT" />
    <tag k="ref:vcgi:esiteid" v="284581" />
  </node>
  <node id="-111" visible="true" lat="43.35309222" lon="-72.7688215">
    <tag k="addr:city" v="Weston" />
    <tag k="addr:housenumber" v="129" />
    <tag k="addr:street" v="Slawson Road" />
    <tag k="addr:state" v="VT" />
    <tag k="ref:vcgi:esiteid" v="284582" />
  </node>
  <node id="-112" visible="true" lat="43.35282705" lon="-72.76608">
    <tag k="addr:city" v="Weston" />
    <tag k="addr:housenumber" v="29" />
    <tag k="addr:street" v="Slawson Road" />
    <tag k="addr:state" v="VT" />
    <tag k="ref:vcgi:esiteid" v="284583" />
  </node>
  <node id="-113" visible="true" lat="43.35161788" lon="-72.76794109">
    <tag k="addr:city" v="Weston" />
    <tag k="addr:housenumber" v="5" />
    <tag k="addr:street" v="Slawson Road" />
    <tag k="addr:state" v="VT" />
    <tag k="ref:vcgi:esiteid" v="284584" />
  </node>
  <node id="-114" visible="true" lat="43.35142615" lon="-72.76033761">
    <tag k="addr:city" v="Weston" />
    <tag k="addr:housenumber" v="1766" />
    <tag k="addr:street" v="Vermont Route 100" />
    <tag k="addr:state" v="VT" />
    <tag k="ref:vcgi:esiteid" v="284585" />
  </node>
  <node id="-115" visible="true" lat="43.35120113" lon="-72.82240996">
    <tag k="addr:city" v="Weston" />
    <tag k="addr:housenumber" v="698" />
    <tag k="addr:street" v="Greendale Road" />
    <tag k="addr:state" v="VT" />
    <tag k="ref:vcgi:esiteid" v="284586" />
  </node>
  <node id="-116" visible="true" lat="43.35150361" lon="-72.76877024">
    <tag k="addr:city" v="Weston" />
    <tag k="addr:housenumber" v="2" />
    <tag k="addr:street" v="Slawson Road" />
    <tag k="addr:state" v="VT" />
    <tag k="ref:vcgi:esiteid" v="284587" />
  </node>
  <node id="-117" visible="true" lat="43.35128784" lon="-72.76111603">
    <tag k="addr:city" v="Weston" />
    <tag k="addr:housenumber" v="1756" />
    <tag k="addr:street" v="Vermont Route 100" />
    <tag k="addr:state" v="VT" />
    <tag k="ref:vcgi:esiteid" v="284588" />
  </node>
  <node id="-118" visible="true" lat="43.35123253" lon="-72.76405708">
    <tag k="addr:city" v="Weston" />
    <tag k="addr:housenumber" v="1727" />
    <tag k="addr:street" v="Vermont Route 100" />
    <tag k="addr:state" v="VT" />
    <tag k="ref:vcgi:esiteid" v="284589" />
  </node>
  <node id="-119" visible="true" lat="43.35122103" lon="-72.76994372">
    <tag k="addr:city" v="Weston" />
    <tag k="addr:housenumber" v="1658" />
    <tag k="addr:street" v="Vermont Route 100" />
    <tag k="addr:state" v="VT" />
    <tag k="ref:vcgi:esiteid" v="284590" />
  </node>
  <node id="-120" visible="true" lat="43.35093971" lon="-72.82018693">
    <tag k="addr:city" v="Weston" />
    <tag k="addr:housenumber" v="685" />
    <tag k="addr:street" v="Greendale Road" />
    <tag k="addr:state" v="VT" />
    <tag k="ref:vcgi:esiteid" v="284591" />
  </node>
  <node id="-121" visible="true" lat="43.35087714" lon="-72.77167532">
    <tag k="addr:city" v="Weston" />
    <tag k="addr:housenumber" v="1642" />
    <tag k="addr:street" v="Vermont Route 100" />
    <tag k="addr:state" v="VT" />
    <tag k="ref:vcgi:esiteid" v="284592" />
  </node>
  <node id="-122" visible="true" lat="43.35089305" lon="-72.76772789">
    <tag k="addr:city" v="Weston" />
    <tag k="addr:housenumber" v="1671" />
    <tag k="addr:street" v="Vermont Route 100" />
    <tag k="addr:state" v="VT" />
    <tag k="ref:vcgi:esiteid" v="284593" />
  </node>
  <node id="-123" visible="true" lat="43.35050587" lon="-72.7704845">
    <tag k="addr:city" v="Weston" />
    <tag k="addr:housenumber" v="1646" />
    <tag k="addr:street" v="Vermont Route 100" />
    <tag k="addr:state" v="VT" />
    <tag k="ref:vcgi:esiteid" v="284594" />
  </node>
  <node id="-124" visible="true" lat="43.34851074" lon="-72.77339172">
    <tag k="addr:city" v="Weston" />
    <tag k="addr:housenumber" v="1600" />
    <tag k="addr:street" v="Vermont Route 100" />
    <tag k="addr:state" v="VT" />
    <tag k="ref:vcgi:esiteid" v="284596" />
  </node>
  <node id="-125" visible="true" lat="43.34790986" lon="-72.77447058">
    <tag k="addr:city" v="Weston" />
    <tag k="addr:housenumber" v="1596" />
    <tag k="addr:street" v="Vermont Route 100" />
    <tag k="addr:state" v="VT" />
    <tag k="ref:vcgi:esiteid" v="284597" />
  </node>
  <node id="-126" visible="true" lat="43.34578708" lon="-72.77613288">
    <tag k="addr:city" v="Weston" />
    <tag k="addr:housenumber" v="1556" />
    <tag k="addr:street" v="Vermont Route 100" />
    <tag k="addr:state" v="VT" />
    <tag k="ref:vcgi:esiteid" v="284598" />
  </node>
  <node id="-127" visible="true" lat="43.34568307" lon="-72.77740139">
    <tag k="addr:city" v="Weston" />
    <tag k="addr:housenumber" v="1550" />
    <tag k="addr:street" v="Vermont Route 100" />
    <tag k="addr:state" v="VT" />
    <tag k="ref:vcgi:esiteid" v="284599" />
  </node>
  <node id="-128" visible="true" lat="43.34564208" lon="-72.78895058">
    <tag k="addr:city" v="Weston" />
    <tag k="addr:housenumber" v="18" />
    <tag k="addr:street" v="Ettinger Road" />
    <tag k="addr:state" v="VT" />
    <tag k="ref:vcgi:esiteid" v="284600" />
  </node>
  <node id="-129" visible="true" lat="43.3450794" lon="-72.77786773">
    <tag k="addr:city" v="Weston" />
    <tag k="addr:housenumber" v="1536" />
    <tag k="addr:street" v="Vermont Route 100" />
    <tag k="addr:state" v="VT" />
    <tag k="ref:vcgi:esiteid" v="284602" />
  </node>
  <node id="-130" visible="true" lat="43.34517144" lon="-72.77859182">
    <tag k="addr:city" v="Weston" />
    <tag k="addr:housenumber" v="1530" />
    <tag k="addr:street" v="Vermont Route 100" />
    <tag k="addr:state" v="VT" />
    <tag k="ref:vcgi:esiteid" v="284603" />
  </node>
  <node id="-131" visible="true" lat="43.34453768" lon="-72.77919466">
    <tag k="addr:city" v="Weston" />
    <tag k="addr:housenumber" v="1520" />
    <tag k="addr:street" v="Vermont Route 100" />
    <tag k="addr:state" v="VT" />
    <tag k="ref:vcgi:esiteid" v="284604" />
  </node>
  <node id="-132" visible="true" lat="43.34422308" lon="-72.78014055">
    <tag k="addr:city" v="Weston" />
    <tag k="addr:housenumber" v="1510" />
    <tag k="addr:street" v="Vermont Route 100" />
    <tag k="addr:state" v="VT" />
    <tag k="ref:vcgi:esiteid" v="284605" />
  </node>
  <node id="-133" visible="true" lat="43.34396005" lon="-72.7806154">
    <tag k="addr:city" v="Weston" />
    <tag k="addr:housenumber" v="1500" />
    <tag k="addr:street" v="Vermont Route 100" />
    <tag k="addr:state" v="VT" />
    <tag k="ref:vcgi:esiteid" v="284606" />
  </node>
  <node id="-134" visible="true" lat="43.34371961" lon="-72.77839252">
    <tag k="addr:city" v="Weston" />
    <tag k="addr:housenumber" v="20" />
    <tag k="addr:street" v="Cider Mill Road" />
    <tag k="addr:state" v="VT" />
    <tag k="ref:vcgi:esiteid" v="284607" />
  </node>
  <node id="-135" visible="true" lat="43.34348499" lon="-72.77979157">
    <tag k="addr:city" v="Weston" />
    <tag k="addr:housenumber" v="1507" />
    <tag k="addr:street" v="Vermont Route 100" />
    <tag k="addr:state" v="VT" />
    <tag k="ref:vcgi:esiteid" v="284608" />
  </node>
  <node id="-136" visible="true" lat="43.34285546" lon="-72.77893062">
    <tag k="addr:city" v="Weston" />
    <tag k="addr:housenumber" v="13" />
    <tag k="addr:street" v="Cider Mill Road" />
    <tag k="addr:state" v="VT" />
    <tag k="ref:vcgi:esiteid" v="284609" />
  </node>
  <node id="-137" visible="true" lat="43.34280209" lon="-72.7797771">
    <tag k="addr:city" v="Weston" />
    <tag k="addr:housenumber" v="11" />
    <tag k="addr:street" v="Cider Mill Road" />
    <tag k="addr:state" v="VT" />
    <tag k="ref:vcgi:esiteid" v="284610" />
  </node>
  <node id="-138" visible="true" lat="43.3424415" lon="-72.78789299">
    <tag k="addr:city" v="Weston" />
    <tag k="addr:housenumber" v="79" />
    <tag k="addr:street" v="Vermont Route 155" />
    <tag k="addr:state" v="VT" />
    <tag k="ref:vcgi:esiteid" v="284611" />
  </node>
  <node id="-139" visible="true" lat="43.3418541" lon="-72.78279114">
    <tag k="addr:city" v="Weston" />
    <tag k="addr:housenumber" v="1468" />
    <tag k="addr:street" v="Vermont Route 100" />
    <tag k="addr:state" v="VT" />
    <tag k="ref:vcgi:esiteid" v="284612" />
  </node>
  <node id="-140" visible="true" lat="43.34079205" lon="-72.82804657">
    <tag k="addr:city" v="Weston" />
    <tag k="addr:housenumber" v="286" />
    <tag k="addr:street" v="Jenny Coolidge Road" />
    <tag k="addr:state" v="VT" />
    <tag k="ref:vcgi:esiteid" v="284613" />
  </node>
  <node id="-141" visible="true" lat="43.33982509" lon="-72.80980443">
    <tag k="addr:city" v="Weston" />
    <tag k="addr:housenumber" v="431" />
    <tag k="addr:street" v="Greendale Road" />
    <tag k="addr:state" v="VT" />
    <tag k="ref:vcgi:esiteid" v="284614" />
  </node>
  <node id="-142" visible="true" lat="43.33905117" lon="-72.78423705">
    <tag k="addr:city" v="Weston" />
    <tag k="addr:housenumber" v="1422" />
    <tag k="addr:street" v="Vermont Route 100" />
    <tag k="addr:state" v="VT" />
    <tag k="ref:vcgi:esiteid" v="284615" />
  </node>
  <node id="-143" visible="true" lat="43.3388171" lon="-72.80901667">
    <tag k="addr:city" v="Weston" />
    <tag k="addr:housenumber" v="420" />
    <tag k="addr:street" v="Greendale Road" />
    <tag k="addr:state" v="VT" />
    <tag k="ref:vcgi:esiteid" v="284616" />
  </node>
  <node id="-144" visible="true" lat="43.33834103" lon="-72.78283022">
    <tag k="addr:city" v="Weston" />
    <tag k="addr:housenumber" v="17" />
    <tag k="addr:street" v="Cascade Farm Road" />
    <tag k="addr:state" v="VT" />
    <tag k="ref:vcgi:esiteid" v="284618" />
  </node>
  <node id="-145" visible="true" lat="43.33852145" lon="-72.78335084">
    <tag k="addr:city" v="Weston" />
    <tag k="addr:housenumber" v="15" />
    <tag k="addr:street" v="Cascade Farm Road" />
    <tag k="addr:state" v="VT" />
    <tag k="ref:vcgi:esiteid" v="284619" />
  </node>
  <node id="-146" visible="true" lat="43.33821485" lon="-72.78844463">
    <tag k="addr:city" v="Weston" />
    <tag k="addr:housenumber" v="24" />
    <tag k="addr:street" v="Priory Hill Road" />
    <tag k="addr:state" v="VT" />
    <tag k="ref:vcgi:esiteid" v="284620" />
  </node>
  <node id="-147" visible="true" lat="43.33793561" lon="-72.79231595">
    <tag k="addr:city" v="Weston" />
    <tag k="addr:housenumber" v="58" />
    <tag k="addr:street" v="Priory Hill Road" />
    <tag k="addr:state" v="VT" />
    <tag k="ref:vcgi:esiteid" v="284621" />
  </node>
  <node id="-148" visible="true" lat="43.33683206" lon="-72.78542792">
    <tag k="addr:city" v="Weston" />
    <tag k="addr:housenumber" v="1385" />
    <tag k="addr:street" v="Vermont Route 100" />
    <tag k="addr:state" v="VT" />
    <tag k="ref:vcgi:esiteid" v="284622" />
  </node>
  <node id="-149" visible="true" lat="43.3345441" lon="-72.77522359">
    <tag k="addr:city" v="Weston" />
    <tag k="addr:housenumber" v="112" />
    <tag k="addr:street" v="Kile Road" />
    <tag k="addr:state" v="VT" />
    <tag k="ref:vcgi:esiteid" v="284623" />
  </node>
  <node id="-150" visible="true" lat="43.33403219" lon="-72.78409825">
    <tag k="addr:city" v="Weston" />
    <tag k="addr:housenumber" v="1333" />
    <tag k="addr:street" v="Vermont Route 100" />
    <tag k="addr:state" v="VT" />
    <tag k="ref:vcgi:esiteid" v="284624" />
  </node>
  <node id="-151" visible="true" lat="43.3337623" lon="-72.77885733">
    <tag k="addr:city" v="Weston" />
    <tag k="addr:housenumber" v="74" />
    <tag k="addr:street" v="Kile Road" />
    <tag k="addr:state" v="VT" />
    <tag k="ref:vcgi:esiteid" v="284625" />
  </node>
  <node id="-152" visible="true" lat="43.33387564" lon="-72.79205226">
    <tag k="addr:city" v="Weston" />
    <tag k="addr:housenumber" v="272" />
    <tag k="addr:street" v="Old County Road" />
    <tag k="addr:state" v="VT" />
    <tag k="ref:vcgi:esiteid" v="284626" />
  </node>
  <node id="-153" visible="true" lat="43.33327288" lon="-72.77710781">
    <tag k="addr:city" v="Weston" />
    <tag k="addr:housenumber" v="85" />
    <tag k="addr:street" v="Kile Road" />
    <tag k="addr:state" v="VT" />
    <tag k="ref:vcgi:esiteid" v="284627" />
  </node>
  <node id="-154" visible="true" lat="43.33255671" lon="-72.79134752">
    <tag k="addr:city" v="Weston" />
    <tag k="addr:housenumber" v="232" />
    <tag k="addr:street" v="Old County Road" />
    <tag k="addr:state" v="VT" />
    <tag k="ref:vcgi:esiteid" v="284628" />
  </node>
  <node id="-155" visible="true" lat="43.33216953" lon="-72.79071035">
    <tag k="addr:city" v="Weston" />
    <tag k="addr:housenumber" v="225" />
    <tag k="addr:street" v="Old County Road" />
    <tag k="addr:state" v="VT" />
    <tag k="ref:vcgi:esiteid" v="284629" />
  </node>
  <node id="-156" visible="true" lat="43.33162027" lon="-72.77972742">
    <tag k="addr:city" v="Weston" />
    <tag k="addr:housenumber" v="38" />
    <tag k="addr:street" v="Kile Road" />
    <tag k="addr:state" v="VT" />
    <tag k="ref:vcgi:esiteid" v="284630" />
  </node>
  <node id="-157" visible="true" lat="43.33012134" lon="-72.78980165">
    <tag k="addr:city" v="Weston" />
    <tag k="addr:housenumber" v="203" />
    <tag k="addr:street" v="Old County Road" />
    <tag k="addr:state" v="VT" />
    <tag k="ref:vcgi:esiteid" v="284631" />
  </node>
  <node id="-158" visible="true" lat="43.33010683" lon="-72.78261101">
    <tag k="addr:city" v="Weston" />
    <tag k="addr:housenumber" v="1278" />
    <tag k="addr:street" v="Vermont Route 100" />
    <tag k="addr:state" v="VT" />
    <tag k="ref:vcgi:esiteid" v="284632" />
  </node>
  <node id="-159" visible="true" lat="43.33001329" lon="-72.79135911">
    <tag k="addr:city" v="Weston" />
    <tag k="addr:housenumber" v="194" />
    <tag k="addr:street" v="Old County Road" />
    <tag k="addr:state" v="VT" />
    <tag k="ref:vcgi:esiteid" v="284633" />
  </node>
  <node id="-160" visible="true" lat="43.32964142" lon="-72.79135098">
    <tag k="addr:city" v="Weston" />
    <tag k="addr:housenumber" v="192" />
    <tag k="addr:street" v="Old County Road" />
    <tag k="addr:state" v="VT" />
    <tag k="ref:vcgi:esiteid" v="284634" />
  </node>
  <node id="-161" visible="true" lat="43.32886799" lon="-72.78264163">
    <tag k="addr:city" v="Weston" />
    <tag k="addr:housenumber" v="38" />
    <tag k="addr:street" v="Stevens Loop" />
    <tag k="addr:state" v="VT" />
    <tag k="ref:vcgi:esiteid" v="284635" />
  </node>
  <node id="-162" visible="true" lat="43.3287431" lon="-72.78147391">
    <tag k="addr:city" v="Weston" />
    <tag k="addr:housenumber" v="1256" />
    <tag k="addr:street" v="Vermont Route 100" />
    <tag k="addr:state" v="VT" />
    <tag k="ref:vcgi:esiteid" v="284636" />
  </node>
  <node id="-163" visible="true" lat="43.32817852" lon="-72.76933168">
    <tag k="addr:city" v="Weston" />
    <tag k="addr:housenumber" v="192" />
    <tag k="addr:street" v="Felton Road" />
    <tag k="addr:state" v="VT" />
    <tag k="ref:vcgi:esiteid" v="284638" />
  </node>
  <node id="-164" visible="true" lat="43.32795229" lon="-72.78154817">
    <tag k="addr:city" v="Weston" />
    <tag k="addr:housenumber" v="30" />
    <tag k="addr:street" v="Stevens Loop" />
    <tag k="addr:state" v="VT" />
    <tag k="ref:vcgi:esiteid" v="284639" />
  </node>
  <node id="-165" visible="true" lat="43.32753744" lon="-72.79077234">
    <tag k="addr:city" v="Weston" />
    <tag k="addr:housenumber" v="159" />
    <tag k="addr:street" v="Old County Road" />
    <tag k="addr:state" v="VT" />
    <tag k="ref:vcgi:esiteid" v="284640" />
  </node>
  <node id="-166" visible="true" lat="43.32662576" lon="-72.81593317">
    <tag k="addr:city" v="Weston" />
    <tag k="addr:housenumber" v="457" />
    <tag k="addr:street" v="Moses Pond Road" />
    <tag k="addr:state" v="VT" />
    <tag k="ref:vcgi:esiteid" v="284641" />
  </node>
  <node id="-167" visible="true" lat="43.32675839" lon="-72.77097208">
    <tag k="addr:city" v="Weston" />
    <tag k="addr:housenumber" v="161" />
    <tag k="addr:street" v="Felton Road" />
    <tag k="addr:state" v="VT" />
    <tag k="ref:vcgi:esiteid" v="284642" />
  </node>
  <node id="-168" visible="true" lat="43.32594329" lon="-72.81731516">
    <tag k="addr:city" v="Weston" />
    <tag k="addr:housenumber" v="468" />
    <tag k="addr:street" v="Moses Pond Road" />
    <tag k="addr:state" v="VT" />
    <tag k="ref:vcgi:esiteid" v="284643" />
  </node>
  <node id="-169" visible="true" lat="43.32596766" lon="-72.79109305">
    <tag k="addr:city" v="Weston" />
    <tag k="addr:housenumber" v="141" />
    <tag k="addr:street" v="Old County Road" />
    <tag k="addr:state" v="VT" />
    <tag k="ref:vcgi:esiteid" v="284644" />
  </node>
  <node id="-170" visible="true" lat="43.32594802" lon="-72.77208805">
    <tag k="addr:city" v="Weston" />
    <tag k="addr:housenumber" v="147" />
    <tag k="addr:street" v="Felton Road" />
    <tag k="addr:state" v="VT" />
    <tag k="ref:vcgi:esiteid" v="284645" />
  </node>
  <node id="-171" visible="true" lat="43.32555175" lon="-72.77897075">
    <tag k="addr:city" v="Weston" />
    <tag k="addr:housenumber" v="64" />
    <tag k="addr:street" v="Felton Road" />
    <tag k="addr:state" v="VT" />
    <tag k="ref:vcgi:esiteid" v="284646" />
  </node>
  <node id="-172" visible="true" lat="43.32507128" lon="-72.81553781">
    <tag k="addr:city" v="Weston" />
    <tag k="addr:housenumber" v="446" />
    <tag k="addr:street" v="Moses Pond Road" />
    <tag k="addr:state" v="VT" />
    <tag k="ref:vcgi:esiteid" v="284647" />
  </node>
  <node id="-173" visible="true" lat="43.32486578" lon="-72.81498493">
    <tag k="addr:city" v="Weston" />
    <tag k="addr:housenumber" v="440" />
    <tag k="addr:street" v="Moses Pond Road" />
    <tag k="addr:state" v="VT" />
    <tag k="ref:vcgi:esiteid" v="284648" />
  </node>
  <node id="-174" visible="true" lat="43.32487353" lon="-72.79175915">
    <tag k="addr:city" v="Weston" />
    <tag k="addr:housenumber" v="124" />
    <tag k="addr:street" v="Old County Road" />
    <tag k="addr:state" v="VT" />
    <tag k="ref:vcgi:esiteid" v="284649" />
  </node>
  <node id="-175" visible="true" lat="43.32489291" lon="-72.78164745">
    <tag k="addr:city" v="Weston" />
    <tag k="addr:housenumber" v="1190" />
    <tag k="addr:street" v="Vermont Route 100" />
    <tag k="addr:state" v="VT" />
    <tag k="ref:vcgi:esiteid" v="284650" />
  </node>
  <node id="-176" visible="true" lat="43.32313257" lon="-72.78121516">
    <tag k="addr:city" v="Weston" />
    <tag k="addr:housenumber" v="24" />
    <tag k="addr:street" v="Felton Road" />
    <tag k="addr:state" v="VT" />
    <tag k="ref:vcgi:esiteid" v="284651" />
  </node>
  <node id="-177" visible="true" lat="43.32305989" lon="-72.79039122">
    <tag k="addr:city" v="Weston" />
    <tag k="addr:housenumber" v="91" />
    <tag k="addr:street" v="Old County Road" />
    <tag k="addr:state" v="VT" />
    <tag k="ref:vcgi:esiteid" v="284652" />
  </node>
  <node id="-178" visible="true" lat="43.32281495" lon="-72.78182239">
    <tag k="addr:city" v="Weston" />
    <tag k="addr:housenumber" v="14" />
    <tag k="addr:street" v="Felton Road" />
    <tag k="addr:state" v="VT" />
    <tag k="ref:vcgi:esiteid" v="284653" />
  </node>
  <node id="-179" visible="true" lat="43.32288973" lon="-72.78310487">
    <tag k="addr:city" v="Weston" />
    <tag k="addr:housenumber" v="1166" />
    <tag k="addr:street" v="Vermont Route 100" />
    <tag k="addr:state" v="VT" />
    <tag k="ref:vcgi:esiteid" v="284654" />
  </node>
  <node id="-180" visible="true" lat="43.32261378" lon="-72.78120346">
    <tag k="addr:city" v="Weston" />
    <tag k="addr:housenumber" v="25" />
    <tag k="addr:street" v="Felton Road" />
    <tag k="addr:state" v="VT" />
    <tag k="ref:vcgi:esiteid" v="284655" />
  </node>
  <node id="-181" visible="true" lat="43.32224505" lon="-72.78243578">
    <tag k="addr:city" v="Weston" />
    <tag k="addr:housenumber" v="7" />
    <tag k="addr:street" v="Felton Road" />
    <tag k="addr:state" v="VT" />
    <tag k="ref:vcgi:esiteid" v="284656" />
  </node>
  <node id="-182" visible="true" lat="43.32215065" lon="-72.79506825">
    <tag k="addr:city" v="Weston" />
    <tag k="addr:housenumber" v="121" />
    <tag k="addr:street" v="Greendale Road" />
    <tag k="addr:state" v="VT" />
    <tag k="ref:vcgi:esiteid" v="284657" />
  </node>
  <node id="-183" visible="true" lat="43.32148316" lon="-72.78440875">
    <tag k="addr:city" v="Weston" />
    <tag k="addr:housenumber" v="1138" />
    <tag k="addr:street" v="Vermont Route 100" />
    <tag k="addr:state" v="VT" />
    <tag k="ref:vcgi:esiteid" v="284658" />
  </node>
  <node id="-184" visible="true" lat="43.32145287" lon="-72.78280324">
    <tag k="addr:city" v="Weston" />
    <tag k="addr:housenumber" v="1143" />
    <tag k="addr:street" v="Vermont Route 100" />
    <tag k="addr:state" v="VT" />
    <tag k="ref:vcgi:esiteid" v="284659" />
  </node>
  <node id="-185" visible="true" lat="43.32136337" lon="-72.79475728">
    <tag k="addr:city" v="Weston" />
    <tag k="addr:housenumber" v="111" />
    <tag k="addr:street" v="Greendale Road" />
    <tag k="addr:state" v="VT" />
    <tag k="ref:vcgi:esiteid" v="284660" />
  </node>
  <node id="-186" visible="true" lat="43.3209533" lon="-72.82706274">
    <tag k="addr:city" v="Weston" />
    <tag k="addr:housenumber" v="150" />
    <tag k="addr:street" v="Turner Road" />
    <tag k="addr:state" v="VT" />
    <tag k="ref:vcgi:esiteid" v="284661" />
  </node>
  <node id="-187" visible="true" lat="43.32094016" lon="-72.78934039">
    <tag k="addr:city" v="Weston" />
    <tag k="addr:housenumber" v="61" />
    <tag k="addr:street" v="Old County Road" />
    <tag k="addr:state" v="VT" />
    <tag k="ref:vcgi:esiteid" v="284662" />
  </node>
  <node id="-188" visible="true" lat="43.3204048" lon="-72.79474078">
    <tag k="addr:city" v="Weston" />
    <tag k="addr:housenumber" v="98" />
    <tag k="addr:street" v="Greendale Road" />
    <tag k="addr:state" v="VT" />
    <tag k="ref:vcgi:esiteid" v="284663" />
  </node>
  <node id="-189" visible="true" lat="43.32020104" lon="-72.78942324">
    <tag k="addr:city" v="Weston" />
    <tag k="addr:housenumber" v="50" />
    <tag k="addr:street" v="Old County Road" />
    <tag k="addr:state" v="VT" />
    <tag k="ref:vcgi:esiteid" v="284664" />
  </node>
  <node id="-190" visible="true" lat="43.31980027" lon="-72.82495574">
    <tag k="addr:city" v="Weston" />
    <tag k="addr:housenumber" v="151" />
    <tag k="addr:street" v="Turner Road" />
    <tag k="addr:state" v="VT" />
    <tag k="ref:vcgi:esiteid" v="284665" />
  </node>
  <node id="-191" visible="true" lat="43.31954722" lon="-72.78563791">
    <tag k="addr:city" v="Weston" />
    <tag k="addr:housenumber" v="1100" />
    <tag k="addr:street" v="Vermont Route 100" />
    <tag k="addr:state" v="VT" />
    <tag k="ref:vcgi:esiteid" v="284666" />
  </node>
  <node id="-192" visible="true" lat="43.31935037" lon="-72.82769301">
    <tag k="addr:city" v="Weston" />
    <tag k="addr:housenumber" v="124" />
    <tag k="addr:street" v="Turner Road" />
    <tag k="addr:state" v="VT" />
    <tag k="ref:vcgi:esiteid" v="284667" />
  </node>
  <node id="-193" visible="true" lat="43.3194046" lon="-72.78608704">
    <tag k="addr:city" v="Weston" />
    <tag k="addr:housenumber" v="1086" />
    <tag k="addr:street" v="Vermont Route 100" />
    <tag k="addr:state" v="VT" />
    <tag k="ref:vcgi:esiteid" v="284668" />
  </node>
  <node id="-194" visible="true" lat="43.31911331" lon="-72.79243476">
    <tag k="addr:city" v="Weston" />
    <tag k="addr:housenumber" v="65" />
    <tag k="addr:street" v="Greendale Road" />
    <tag k="addr:state" v="VT" />
    <tag k="ref:vcgi:esiteid" v="284669" />
  </node>
  <node id="-195" visible="true" lat="43.31880328" lon="-72.79118029">
    <tag k="addr:city" v="Weston" />
    <tag k="addr:housenumber" v="53" />
    <tag k="addr:street" v="Greendale Road" />
    <tag k="addr:state" v="VT" />
    <tag k="ref:vcgi:esiteid" v="284670" />
  </node>
  <node id="-196" visible="true" lat="43.31858311" lon="-72.78800866">
    <tag k="addr:city" v="Weston" />
    <tag k="addr:housenumber" v="19" />
    <tag k="addr:street" v="Old County Road" />
    <tag k="addr:state" v="VT" />
    <tag k="ref:vcgi:esiteid" v="284671" />
  </node>
  <node id="-197" visible="true" lat="43.31841676" lon="-72.78598398">
    <tag k="addr:city" v="Weston" />
    <tag k="addr:housenumber" v="1087" />
    <tag k="addr:street" v="Vermont Route 100" />
    <tag k="addr:state" v="VT" />
    <tag k="ref:vcgi:esiteid" v="284672" />
  </node>
  <node id="-198" visible="true" lat="43.31828904" lon="-72.79494144">
    <tag k="addr:city" v="Weston" />
    <tag k="addr:housenumber" v="96" />
    <tag k="addr:street" v="Greendale Road" />
    <tag k="addr:state" v="VT" />
    <tag k="ref:vcgi:esiteid" v="284673" />
  </node>
  <node id="-199" visible="true" lat="43.31837076" lon="-72.79084039">
    <tag k="addr:city" v="Weston" />
    <tag k="addr:housenumber" v="43" />
    <tag k="addr:street" v="Greendale Road" />
    <tag k="addr:state" v="VT" />
    <tag k="ref:vcgi:esiteid" v="284674" />
  </node>
  <node id="-200" visible="true" lat="43.31798156" lon="-72.79128423">
    <tag k="addr:city" v="Weston" />
    <tag k="addr:housenumber" v="48" />
    <tag k="addr:street" v="Greendale Road" />
    <tag k="addr:state" v="VT" />
    <tag k="ref:vcgi:esiteid" v="284675" />
  </node>
  <node id="-201" visible="true" lat="43.31789941" lon="-72.78815599">
    <tag k="addr:city" v="Weston" />
    <tag k="addr:housenumber" v="12" />
    <tag k="addr:street" v="Old County Road" />
    <tag k="addr:state" v="VT" />
    <tag k="ref:vcgi:esiteid" v="284676" />
  </node>
  <node id="-202" visible="true" lat="43.31784448" lon="-72.78646003">
    <tag k="addr:city" v="Weston" />
    <tag k="addr:housenumber" v="1081" />
    <tag k="addr:street" v="Vermont Route 100" />
    <tag k="addr:state" v="VT" />
    <tag k="ref:vcgi:esiteid" v="284677" />
  </node>
  <node id="-203" visible="true" lat="43.31860466" lon="-72.80991579">
    <tag k="addr:city" v="Weston" />
    <tag k="addr:housenumber" v="31" />
    <tag k="addr:street" v="Peabody Hill Road" />
    <tag k="addr:state" v="VT" />
    <tag k="ref:vcgi:esiteid" v="284678" />
  </node>
  <node id="-204" visible="true" lat="43.31770475" lon="-72.78828521">
    <tag k="addr:city" v="Weston" />
    <tag k="addr:housenumber" v="2" />
    <tag k="addr:street" v="Old County Road" />
    <tag k="addr:state" v="VT" />
    <tag k="ref:vcgi:esiteid" v="284679" />
  </node>
  <node id="-205" visible="true" lat="43.31755267" lon="-72.78939835">
    <tag k="addr:city" v="Weston" />
    <tag k="addr:housenumber" v="26" />
    <tag k="addr:street" v="Greendale Road" />
    <tag k="addr:state" v="VT" />
    <tag k="ref:vcgi:esiteid" v="284680" />
  </node>
  <node id="-206" visible="true" lat="43.31723399" lon="-72.78735371">
    <tag k="addr:city" v="Weston" />
    <tag k="addr:housenumber" v="7" />
    <tag k="addr:street" v="Greendale Road" />
    <tag k="addr:state" v="VT" />
    <tag k="ref:vcgi:esiteid" v="284681" />
  </node>
  <node id="-207" visible="true" lat="43.31749573" lon="-72.82790223">
    <tag k="addr:city" v="Weston" />
    <tag k="addr:housenumber" v="94" />
    <tag k="addr:street" v="Turner Road" />
    <tag k="addr:state" v="VT" />
    <tag k="ref:vcgi:esiteid" v="284682" />
  </node>
  <node id="-208" visible="true" lat="43.31687332" lon="-72.79185537">
    <tag k="addr:city" v="Weston" />
    <tag k="addr:housenumber" v="426" />
    <tag k="addr:street" v="Lawrence Hill Road" />
    <tag k="addr:state" v="VT" />
    <tag k="ref:vcgi:esiteid" v="284683" />
  </node>
  <node id="-209" visible="true" lat="43.31647878" lon="-72.82608751">
    <tag k="addr:city" v="Weston" />
    <tag k="addr:housenumber" v="87" />
    <tag k="addr:street" v="Turner Road" />
    <tag k="addr:state" v="VT" />
    <tag k="ref:vcgi:esiteid" v="284684" />
  </node>
  <node id="-210" visible="true" lat="43.31648386" lon="-72.78966629">
    <tag k="addr:city" v="Weston" />
    <tag k="addr:housenumber" v="427" />
    <tag k="addr:street" v="Lawrence Hill Road" />
    <tag k="addr:state" v="VT" />
    <tag k="ref:vcgi:esiteid" v="284685" />
  </node>
  <node id="-211" visible="true" lat="43.31637586" lon="-72.78780489">
    <tag k="addr:city" v="Weston" />
    <tag k="addr:housenumber" v="1052" />
    <tag k="addr:street" v="Vermont Route 100" />
    <tag k="addr:state" v="VT" />
    <tag k="ref:vcgi:esiteid" v="284686" />
  </node>
  <node id="-212" visible="true" lat="43.31586307" lon="-72.79206891">
    <tag k="addr:city" v="Weston" />
    <tag k="addr:housenumber" v="416" />
    <tag k="addr:street" v="Lawrence Hill Road" />
    <tag k="addr:state" v="VT" />
    <tag k="ref:vcgi:esiteid" v="284687" />
  </node>
  <node id="-213" visible="true" lat="43.31512361" lon="-72.78593264">
    <tag k="addr:city" v="Weston" />
    <tag k="addr:housenumber" v="1031" />
    <tag k="addr:street" v="Vermont Route 100" />
    <tag k="addr:state" v="VT" />
    <tag k="ref:vcgi:esiteid" v="284689" />
  </node>
  <node id="-214" visible="true" lat="43.31471918" lon="-72.79069903">
    <tag k="addr:city" v="Weston" />
    <tag k="addr:housenumber" v="405" />
    <tag k="addr:street" v="Lawrence Hill Road" />
    <tag k="addr:state" v="VT" />
    <tag k="ref:vcgi:esiteid" v="284690" />
  </node>
  <node id="-215" visible="true" lat="43.31433777" lon="-72.79087037">
    <tag k="addr:city" v="Weston" />
    <tag k="addr:housenumber" v="401" />
    <tag k="addr:street" v="Lawrence Hill Road" />
    <tag k="addr:state" v="VT" />
    <tag k="ref:vcgi:esiteid" v="284691" />
  </node>
  <node id="-216" visible="true" lat="43.31418695" lon="-72.83992859">
    <tag k="addr:city" v="Weston" />
    <tag k="addr:housenumber" v="526" />
    <tag k="addr:street" v="Trout Club Road" />
    <tag k="addr:state" v="VT" />
    <tag k="ref:vcgi:esiteid" v="284692" />
  </node>
  <node id="-217" visible="true" lat="43.31363778" lon="-72.79373891">
    <tag k="addr:city" v="Weston" />
    <tag k="addr:housenumber" v="370" />
    <tag k="addr:street" v="Lawrence Hill Road" />
    <tag k="addr:state" v="VT" />
    <tag k="ref:vcgi:esiteid" v="284693" />
  </node>
  <node id="-218" visible="true" lat="43.31370639" lon="-72.79336638">
    <tag k="addr:city" v="Weston" />
    <tag k="addr:housenumber" v="372" />
    <tag k="addr:street" v="Lawrence Hill Road" />
    <tag k="addr:state" v="VT" />
    <tag k="ref:vcgi:esiteid" v="284694" />
  </node>
  <node id="-219" visible="true" lat="43.31347378" lon="-72.78706294">
    <tag k="addr:city" v="Weston" />
    <tag k="addr:housenumber" v="1019" />
    <tag k="addr:street" v="Vermont Route 100" />
    <tag k="addr:state" v="VT" />
    <tag k="ref:vcgi:esiteid" v="284695" />
  </node>
  <node id="-220" visible="true" lat="43.31335543" lon="-72.79462428">
    <tag k="addr:city" v="Weston" />
    <tag k="addr:housenumber" v="352" />
    <tag k="addr:street" v="Lawrence Hill Road" />
    <tag k="addr:state" v="VT" />
    <tag k="ref:vcgi:esiteid" v="284696" />
  </node>
  <node id="-221" visible="true" lat="43.31315194" lon="-72.78798336">
    <tag k="addr:city" v="Weston" />
    <tag k="addr:housenumber" v="1010" />
    <tag k="addr:street" v="Vermont Route 100" />
    <tag k="addr:state" v="VT" />
    <tag k="ref:vcgi:esiteid" v="284697" />
  </node>
  <node id="-222" visible="true" lat="43.31308214" lon="-72.83073626">
    <tag k="addr:city" v="Weston" />
    <tag k="addr:housenumber" v="453" />
    <tag k="addr:street" v="Trout Club Road" />
    <tag k="addr:state" v="VT" />
    <tag k="ref:vcgi:esiteid" v="284698" />
  </node>
  <node id="-223" visible="true" lat="43.31319811" lon="-72.79432635">
    <tag k="addr:city" v="Weston" />
    <tag k="addr:housenumber" v="354" />
    <tag k="addr:street" v="Lawrence Hill Road" />
    <tag k="addr:state" v="VT" />
    <tag k="ref:vcgi:esiteid" v="284699" />
  </node>
  <node id="-224" visible="true" lat="43.31296338" lon="-72.83329188">
    <tag k="addr:city" v="Weston" />
    <tag k="addr:housenumber" v="478" />
    <tag k="addr:street" v="Trout Club Road" />
    <tag k="addr:state" v="VT" />
    <tag k="ref:vcgi:esiteid" v="284700" />
  </node>
  <node id="-225" visible="true" lat="43.31309131" lon="-72.79198807">
    <tag k="addr:city" v="Weston" />
    <tag k="addr:housenumber" v="385" />
    <tag k="addr:street" v="Lawrence Hill Road" />
    <tag k="addr:state" v="VT" />
    <tag k="ref:vcgi:esiteid" v="284701" />
  </node>
  <node id="-226" visible="true" lat="43.31282244" lon="-72.8399593">
    <tag k="addr:city" v="Weston" />
    <tag k="addr:housenumber" v="524" />
    <tag k="addr:street" v="Trout Club Road" />
    <tag k="addr:state" v="VT" />
    <tag k="ref:vcgi:esiteid" v="284702" />
  </node>
  <node id="-227" visible="true" lat="43.31260761" lon="-72.82771438">
    <tag k="addr:city" v="Weston" />
    <tag k="addr:housenumber" v="26" />
    <tag k="addr:street" v="Turner Road" />
    <tag k="addr:state" v="VT" />
    <tag k="ref:vcgi:esiteid" v="284703" />
  </node>
  <node id="-228" visible="true" lat="43.31256594" lon="-72.78773326">
    <tag k="addr:city" v="Weston" />
    <tag k="addr:housenumber" v="996" />
    <tag k="addr:street" v="Vermont Route 100" />
    <tag k="addr:state" v="VT" />
    <tag k="ref:vcgi:esiteid" v="284704" />
  </node>
  <node id="-229" visible="true" lat="43.31233686" lon="-72.83228615">
    <tag k="addr:city" v="Weston" />
    <tag k="addr:housenumber" v="474" />
    <tag k="addr:street" v="Trout Club Road" />
    <tag k="addr:state" v="VT" />
    <tag k="ref:vcgi:esiteid" v="284705" />
  </node>
  <node id="-230" visible="true" lat="43.31205746" lon="-72.82911716">
    <tag k="addr:city" v="Weston" />
    <tag k="addr:housenumber" v="427" />
    <tag k="addr:street" v="Trout Club Road" />
    <tag k="addr:state" v="VT" />
    <tag k="ref:vcgi:esiteid" v="284707" />
  </node>
  <node id="-231" visible="true" lat="43.31202396" lon="-72.79422186">
    <tag k="addr:city" v="Weston" />
    <tag k="addr:housenumber" v="349" />
    <tag k="addr:street" v="Lawrence Hill Road" />
    <tag k="addr:state" v="VT" />
    <tag k="ref:vcgi:esiteid" v="284708" />
  </node>
  <node id="-232" visible="true" lat="43.31192692" lon="-72.78784897">
    <tag k="addr:city" v="Weston" />
    <tag k="addr:housenumber" v="988" />
    <tag k="addr:street" v="Vermont Route 100" />
    <tag k="addr:state" v="VT" />
    <tag k="ref:vcgi:esiteid" v="284709" />
  </node>
  <node id="-233" visible="true" lat="43.31188795" lon="-72.82577312">
    <tag k="addr:city" v="Weston" />
    <tag k="addr:housenumber" v="21" />
    <tag k="addr:street" v="Turner Road" />
    <tag k="addr:state" v="VT" />
    <tag k="ref:vcgi:esiteid" v="284710" />
  </node>
  <node id="-234" visible="true" lat="43.31175614" lon="-72.78630438">
    <tag k="addr:city" v="Weston" />
    <tag k="addr:housenumber" v="987" />
    <tag k="addr:street" v="Vermont Route 100" />
    <tag k="addr:state" v="VT" />
    <tag k="ref:vcgi:esiteid" v="284711" />
  </node>
  <node id="-235" visible="true" lat="43.31161111" lon="-72.8297888">
    <tag k="addr:city" v="Weston" />
    <tag k="addr:housenumber" v="432" />
    <tag k="addr:street" v="Trout Club Road" />
    <tag k="addr:state" v="VT" />
    <tag k="ref:vcgi:esiteid" v="284712" />
  </node>
  <node id="-236" visible="true" lat="43.31140954" lon="-72.83364554">
    <tag k="addr:city" v="Weston" />
    <tag k="addr:housenumber" v="492" />
    <tag k="addr:street" v="Trout Club Road" />
    <tag k="addr:state" v="VT" />
    <tag k="ref:vcgi:esiteid" v="284713" />
  </node>
  <node id="-237" visible="true" lat="43.31148542" lon="-72.78549047">
    <tag k="addr:city" v="Weston" />
    <tag k="addr:housenumber" v="30" />
    <tag k="addr:street" v="Maple Hill Road" />
    <tag k="addr:state" v="VT" />
    <tag k="ref:vcgi:esiteid" v="284714" />
  </node>
  <node id="-238" visible="true" lat="43.31120196" lon="-72.82825594">
    <tag k="addr:city" v="Weston" />
    <tag k="addr:housenumber" v="10" />
    <tag k="addr:street" v="Turner Road" />
    <tag k="addr:state" v="VT" />
    <tag k="ref:vcgi:esiteid" v="284715" />
  </node>
  <node id="-239" visible="true" lat="43.31114002" lon="-72.78646139">
    <tag k="addr:city" v="Weston" />
    <tag k="addr:housenumber" v="979" />
    <tag k="addr:street" v="Vermont Route 100" />
    <tag k="addr:state" v="VT" />
    <tag k="ref:vcgi:esiteid" v="284716" />
  </node>
  <node id="-240" visible="true" lat="43.31117443" lon="-72.78480855">
    <tag k="addr:city" v="Weston" />
    <tag k="addr:housenumber" v="33" />
    <tag k="addr:street" v="Maple Hill Road" />
    <tag k="addr:state" v="VT" />
    <tag k="ref:vcgi:esiteid" v="284717" />
  </node>
  <node id="-241" visible="true" lat="43.31108872" lon="-72.78754676">
    <tag k="addr:city" v="Weston" />
    <tag k="addr:housenumber" v="982" />
    <tag k="addr:street" v="Vermont Route 100" />
    <tag k="addr:state" v="VT" />
    <tag k="ref:vcgi:esiteid" v="284718" />
  </node>
  <node id="-242" visible="true" lat="43.3107967" lon="-72.82777441">
    <tag k="addr:city" v="Weston" />
    <tag k="addr:housenumber" v="411" />
    <tag k="addr:street" v="Trout Club Road" />
    <tag k="addr:state" v="VT" />
    <tag k="ref:vcgi:esiteid" v="284719" />
  </node>
  <node id="-243" visible="true" lat="43.31082056" lon="-72.78593452">
    <tag k="addr:city" v="Weston" />
    <tag k="addr:housenumber" v="22" />
    <tag k="addr:street" v="Maple Hill Road" />
    <tag k="addr:state" v="VT" />
    <tag k="ref:vcgi:esiteid" v="284720" />
  </node>
  <node id="-244" visible="true" lat="43.31038078" lon="-72.78723645">
    <tag k="addr:city" v="Weston" />
    <tag k="addr:housenumber" v="970" />
    <tag k="addr:street" v="Vermont Route 100" />
    <tag k="addr:state" v="VT" />
    <tag k="ref:vcgi:esiteid" v="284721" />
  </node>
  <node id="-245" visible="true" lat="43.3104945" lon="-72.78666984">
    <tag k="addr:city" v="Weston" />
    <tag k="addr:housenumber" v="967" />
    <tag k="addr:street" v="Vermont Route 100" />
    <tag k="addr:state" v="VT" />
    <tag k="ref:vcgi:esiteid" v="284722" />
  </node>
  <node id="-246" visible="true" lat="43.31031426" lon="-72.78549887">
    <tag k="addr:city" v="Weston" />
    <tag k="addr:housenumber" v="17" />
    <tag k="addr:street" v="Maple Hill Road" />
    <tag k="addr:state" v="VT" />
    <tag k="ref:vcgi:esiteid" v="284723" />
  </node>
  <node id="-247" visible="true" lat="43.31023965" lon="-72.78479522">
    <tag k="addr:city" v="Weston" />
    <tag k="addr:housenumber" v="13" />
    <tag k="addr:street" v="Maple Hill Road" />
    <tag k="addr:state" v="VT" />
    <tag k="ref:vcgi:esiteid" v="284724" />
  </node>
  <node id="-248" visible="true" lat="43.31010528" lon="-72.78664065">
    <tag k="addr:city" v="Weston" />
    <tag k="addr:housenumber" v="963" />
    <tag k="addr:street" v="Vermont Route 100" />
    <tag k="addr:state" v="VT" />
    <tag k="ref:vcgi:esiteid" v="284725" />
  </node>
  <node id="-249" visible="true" lat="43.30995851" lon="-72.79494818">
    <tag k="addr:city" v="Weston" />
    <tag k="addr:housenumber" v="321" />
    <tag k="addr:street" v="Lawrence Hill Road" />
    <tag k="addr:state" v="VT" />
    <tag k="ref:vcgi:esiteid" v="284726" />
  </node>
  <node id="-250" visible="true" lat="43.3094737" lon="-72.78728768">
    <tag k="addr:city" v="Weston" />
    <tag k="addr:housenumber" v="950" />
    <tag k="addr:street" v="Vermont Route 100" />
    <tag k="addr:state" v="VT" />
    <tag k="ref:vcgi:esiteid" v="284728" />
  </node>
  <node id="-251" visible="true" lat="43.3093529" lon="-72.81754283">
    <tag k="addr:city" v="Weston" />
    <tag k="addr:housenumber" v="311" />
    <tag k="addr:street" v="Trout Club Road" />
    <tag k="addr:state" v="VT" />
    <tag k="ref:vcgi:esiteid" v="284729" />
  </node>
  <node id="-252" visible="true" lat="43.30919366" lon="-72.78498078">
    <tag k="addr:city" v="Weston" />
    <tag k="addr:housenumber" v="11" />
    <tag k="addr:street" v="Maple Hill Road" />
    <tag k="addr:state" v="VT" />
    <tag k="ref:vcgi:esiteid" v="284730" />
  </node>
  <node id="-253" visible="true" lat="43.30904217" lon="-72.84615549">
    <tag k="addr:city" v="Weston" />
    <tag k="addr:housenumber" v="232" />
    <tag k="addr:street" v="Jaquith Road" />
    <tag k="addr:state" v="VT" />
    <tag k="ref:vcgi:esiteid" v="284731" />
  </node>
  <node id="-254" visible="true" lat="43.30891251" lon="-72.77735299">
    <tag k="addr:city" v="Weston" />
    <tag k="addr:housenumber" v="63" />
    <tag k="addr:street" v="Bailey Road" />
    <tag k="addr:state" v="VT" />
    <tag k="ref:vcgi:esiteid" v="284732" />
  </node>
  <node id="-255" visible="true" lat="43.30900386" lon="-72.78644092">
    <tag k="addr:city" v="Weston" />
    <tag k="addr:housenumber" v="947" />
    <tag k="addr:street" v="Vermont Route 100" />
    <tag k="addr:state" v="VT" />
    <tag k="ref:vcgi:esiteid" v="284733" />
  </node>
  <node id="-256" visible="true" lat="43.30866623" lon="-72.81815338">
    <tag k="addr:city" v="Weston" />
    <tag k="addr:housenumber" v="309" />
    <tag k="addr:street" v="Trout Club Road" />
    <tag k="addr:state" v="VT" />
    <tag k="ref:vcgi:esiteid" v="284734" />
  </node>
  <node id="-257" visible="true" lat="43.30858807" lon="-72.79512745">
    <tag k="addr:city" v="Weston" />
    <tag k="addr:housenumber" v="297" />
    <tag k="addr:street" v="Lawrence Hill Road" />
    <tag k="addr:state" v="VT" />
    <tag k="ref:vcgi:esiteid" v="284735" />
  </node>
  <node id="-258" visible="true" lat="43.3081611" lon="-72.78496972">
    <tag k="addr:city" v="Weston" />
    <tag k="addr:housenumber" v="7" />
    <tag k="addr:street" v="Maple Hill Road" />
    <tag k="addr:state" v="VT" />
    <tag k="ref:vcgi:esiteid" v="284736" />
  </node>
  <node id="-259" visible="true" lat="43.30796891" lon="-72.79646469">
    <tag k="addr:city" v="Weston" />
    <tag k="addr:housenumber" v="278" />
    <tag k="addr:street" v="Lawrence Hill Road" />
    <tag k="addr:state" v="VT" />
    <tag k="ref:vcgi:esiteid" v="284737" />
  </node>
  <node id="-260" visible="true" lat="43.30797399" lon="-72.78423141">
    <tag k="addr:city" v="Weston" />
    <tag k="addr:housenumber" v="9" />
    <tag k="addr:street" v="Maple Hill Road" />
    <tag k="addr:state" v="VT" />
    <tag k="ref:vcgi:esiteid" v="284738" />
  </node>
  <node id="-261" visible="true" lat="43.30795523" lon="-72.80663586">
    <tag k="addr:city" v="Weston" />
    <tag k="addr:housenumber" v="124" />
    <tag k="addr:street" v="Parker Lane" />
    <tag k="addr:state" v="VT" />
    <tag k="ref:vcgi:esiteid" v="284739" />
  </node>
  <node id="-262" visible="true" lat="43.30798838" lon="-72.82159198">
    <tag k="addr:city" v="Weston" />
    <tag k="addr:housenumber" v="331" />
    <tag k="addr:street" v="Trout Club Road" />
    <tag k="addr:state" v="VT" />
    <tag k="ref:vcgi:esiteid" v="284740" />
  </node>
  <node id="-263" visible="true" lat="43.30789683" lon="-72.7768684">
    <tag k="addr:city" v="Weston" />
    <tag k="addr:housenumber" v="61" />
    <tag k="addr:street" v="Bailey Road" />
    <tag k="addr:state" v="VT" />
    <tag k="ref:vcgi:esiteid" v="284741" />
  </node>
  <node id="-264" visible="true" lat="43.30780998" lon="-72.78627999">
    <tag k="addr:city" v="Weston" />
    <tag k="addr:housenumber" v="929" />
    <tag k="addr:street" v="Vermont Route 100" />
    <tag k="addr:state" v="VT" />
    <tag k="ref:vcgi:esiteid" v="284742" />
  </node>
  <node id="-265" visible="true" lat="43.3072949" lon="-72.79561967">
    <tag k="addr:city" v="Weston" />
    <tag k="addr:housenumber" v="275" />
    <tag k="addr:street" v="Lawrence Hill Road" />
    <tag k="addr:state" v="VT" />
    <tag k="ref:vcgi:esiteid" v="284743" />
  </node>
  <node id="-266" visible="true" lat="43.30702014" lon="-72.77139102">
    <tag k="addr:city" v="Weston" />
    <tag k="addr:housenumber" v="196" />
    <tag k="addr:street" v="Burton Road" />
    <tag k="addr:state" v="VT" />
    <tag k="ref:vcgi:esiteid" v="284744" />
  </node>
  <node id="-267" visible="true" lat="43.30696095" lon="-72.79630747">
    <tag k="addr:city" v="Weston" />
    <tag k="addr:housenumber" v="270" />
    <tag k="addr:street" v="Lawrence Hill Road" />
    <tag k="addr:state" v="VT" />
    <tag k="ref:vcgi:esiteid" v="284745" />
  </node>
  <node id="-268" visible="true" lat="43.30694066" lon="-72.78690677">
    <tag k="addr:city" v="Weston" />
    <tag k="addr:housenumber" v="920" />
    <tag k="addr:street" v="Vermont Route 100" />
    <tag k="addr:state" v="VT" />
    <tag k="ref:vcgi:esiteid" v="284746" />
  </node>
  <node id="-269" visible="true" lat="43.30719295" lon="-72.7973499">
    <tag k="addr:city" v="Weston" />
    <tag k="addr:housenumber" v="266" />
    <tag k="addr:street" v="Lawrence Hill Road" />
    <tag k="addr:state" v="VT" />
    <tag k="ref:vcgi:esiteid" v="284747" />
  </node>
  <node id="-270" visible="true" lat="43.3067229" lon="-72.78585936">
    <tag k="addr:city" v="Weston" />
    <tag k="addr:housenumber" v="913" />
    <tag k="addr:street" v="Vermont Route 100" />
    <tag k="addr:state" v="VT" />
    <tag k="ref:vcgi:esiteid" v="284748" />
  </node>
  <node id="-271" visible="true" lat="43.3064891" lon="-72.79538235">
    <tag k="addr:city" v="Weston" />
    <tag k="addr:housenumber" v="261" />
    <tag k="addr:street" v="Lawrence Hill Road" />
    <tag k="addr:state" v="VT" />
    <tag k="ref:vcgi:esiteid" v="284749" />
  </node>
  <node id="-272" visible="true" lat="43.30624392" lon="-72.78608608">
    <tag k="addr:city" v="Weston" />
    <tag k="addr:housenumber" v="905" />
    <tag k="addr:street" v="Vermont Route 100" />
    <tag k="addr:state" v="VT" />
    <tag k="ref:vcgi:esiteid" v="284750" />
  </node>
  <node id="-273" visible="true" lat="43.3060006" lon="-72.79543026">
    <tag k="addr:city" v="Weston" />
    <tag k="addr:housenumber" v="251" />
    <tag k="addr:street" v="Lawrence Hill Road" />
    <tag k="addr:state" v="VT" />
    <tag k="ref:vcgi:esiteid" v="284751" />
  </node>
  <node id="-274" visible="true" lat="43.30577855" lon="-72.7726691">
    <tag k="addr:city" v="Weston" />
    <tag k="addr:housenumber" v="179" />
    <tag k="addr:street" v="Burton Road" />
    <tag k="addr:state" v="VT" />
    <tag k="ref:vcgi:esiteid" v="284752" />
  </node>
  <node id="-275" visible="true" lat="43.30563981" lon="-72.81525292">
    <tag k="addr:city" v="Weston" />
    <tag k="addr:housenumber" v="237" />
    <tag k="addr:street" v="Trout Club Road" />
    <tag k="addr:state" v="VT" />
    <tag k="ref:vcgi:esiteid" v="284753" />
  </node>
  <node id="-276" visible="true" lat="43.30558005" lon="-72.80861025">
    <tag k="addr:city" v="Weston" />
    <tag k="addr:housenumber" v="88" />
    <tag k="addr:street" v="Parker Lane" />
    <tag k="addr:state" v="VT" />
    <tag k="ref:vcgi:esiteid" v="284754" />
  </node>
  <node id="-277" visible="true" lat="43.30550039" lon="-72.80352768">
    <tag k="addr:city" v="Weston" />
    <tag k="addr:housenumber" v="95" />
    <tag k="addr:street" v="Parker Lane" />
    <tag k="addr:state" v="VT" />
    <tag k="ref:vcgi:esiteid" v="284755" />
  </node>
  <node id="-278" visible="true" lat="43.30529734" lon="-72.78594427">
    <tag k="addr:city" v="Weston" />
    <tag k="addr:housenumber" v="891" />
    <tag k="addr:street" v="Vermont Route 100" />
    <tag k="addr:state" v="VT" />
    <tag k="ref:vcgi:esiteid" v="284756" />
  </node>
  <node id="-279" visible="true" lat="43.30493906" lon="-72.81820333">
    <tag k="addr:city" v="Weston" />
    <tag k="addr:housenumber" v="276" />
    <tag k="addr:street" v="Trout Club Road" />
    <tag k="addr:state" v="VT" />
    <tag k="ref:vcgi:esiteid" v="284758" />
  </node>
  <node id="-280" visible="true" lat="43.30516846" lon="-72.81538207">
    <tag k="addr:city" v="Weston" />
    <tag k="addr:housenumber" v="249" />
    <tag k="addr:street" v="Trout Club Road" />
    <tag k="addr:state" v="VT" />
    <tag k="ref:vcgi:esiteid" v="284759" />
  </node>
  <node id="-281" visible="true" lat="43.30490497" lon="-72.77359982">
    <tag k="addr:city" v="Weston" />
    <tag k="addr:housenumber" v="151" />
    <tag k="addr:street" v="Burton Road" />
    <tag k="addr:state" v="VT" />
    <tag k="ref:vcgi:esiteid" v="284760" />
  </node>
  <node id="-282" visible="true" lat="43.30479441" lon="-72.7956648">
    <tag k="addr:city" v="Weston" />
    <tag k="addr:housenumber" v="239" />
    <tag k="addr:street" v="Lawrence Hill Road" />
    <tag k="addr:state" v="VT" />
    <tag k="ref:vcgi:esiteid" v="284761" />
  </node>
  <node id="-283" visible="true" lat="43.30466448" lon="-72.81739596">
    <tag k="addr:city" v="Weston" />
    <tag k="addr:housenumber" v="268" />
    <tag k="addr:street" v="Trout Club Road" />
    <tag k="addr:state" v="VT" />
    <tag k="ref:vcgi:esiteid" v="284762" />
  </node>
  <node id="-284" visible="true" lat="43.30464091" lon="-72.81668999">
    <tag k="addr:city" v="Weston" />
    <tag k="addr:housenumber" v="264" />
    <tag k="addr:street" v="Trout Club Road" />
    <tag k="addr:state" v="VT" />
    <tag k="ref:vcgi:esiteid" v="284763" />
  </node>
  <node id="-285" visible="true" lat="43.30476644" lon="-72.77546138">
    <tag k="addr:city" v="Weston" />
    <tag k="addr:housenumber" v="138" />
    <tag k="addr:street" v="Burton Road" />
    <tag k="addr:state" v="VT" />
    <tag k="ref:vcgi:esiteid" v="284764" />
  </node>
  <node id="-286" visible="true" lat="43.30467252" lon="-72.80608097">
    <tag k="addr:city" v="Weston" />
    <tag k="addr:housenumber" v="86" />
    <tag k="addr:street" v="Parker Lane" />
    <tag k="addr:state" v="VT" />
    <tag k="ref:vcgi:esiteid" v="284765" />
  </node>
  <node id="-287" visible="true" lat="43.3046779" lon="-72.77162454">
    <tag k="addr:city" v="Weston" />
    <tag k="addr:housenumber" v="44" />
    <tag k="addr:street" v="Obed Moore Road" />
    <tag k="addr:state" v="VT" />
    <tag k="ref:vcgi:esiteid" v="284766" />
  </node>
  <node id="-288" visible="true" lat="43.3045645" lon="-72.78643581">
    <tag k="addr:city" v="Weston" />
    <tag k="addr:housenumber" v="886" />
    <tag k="addr:street" v="Vermont Route 100" />
    <tag k="addr:state" v="VT" />
    <tag k="ref:vcgi:esiteid" v="284767" />
  </node>
  <node id="-289" visible="true" lat="43.30452627" lon="-72.79659695">
    <tag k="addr:city" v="Weston" />
    <tag k="addr:housenumber" v="234" />
    <tag k="addr:street" v="Lawrence Hill Road" />
    <tag k="addr:state" v="VT" />
    <tag k="ref:vcgi:esiteid" v="284768" />
  </node>
  <node id="-290" visible="true" lat="43.30449312" lon="-72.77265519">
    <tag k="addr:city" v="Weston" />
    <tag k="addr:housenumber" v="18" />
    <tag k="addr:street" v="Obed Moore Road" />
    <tag k="addr:state" v="VT" />
    <tag k="ref:vcgi:esiteid" v="284769" />
  </node>
  <node id="-291" visible="true" lat="43.30435661" lon="-72.78538411">
    <tag k="addr:city" v="Weston" />
    <tag k="addr:housenumber" v="881" />
    <tag k="addr:street" v="Vermont Route 100" />
    <tag k="addr:state" v="VT" />
    <tag k="ref:vcgi:esiteid" v="284770" />
  </node>
  <node id="-292" visible="true" lat="43.30406375" lon="-72.77006573">
    <tag k="addr:city" v="Weston" />
    <tag k="addr:housenumber" v="58" />
    <tag k="addr:street" v="Obed Moore Road" />
    <tag k="addr:state" v="VT" />
    <tag k="ref:vcgi:esiteid" v="284771" />
  </node>
  <node id="-293" visible="true" lat="43.30402845" lon="-72.78324799">
    <tag k="addr:city" v="Weston" />
    <tag k="addr:housenumber" v="50" />
    <tag k="addr:street" v="Burton Road" />
    <tag k="addr:state" v="VT" />
    <tag k="ref:vcgi:esiteid" v="284772" />
  </node>
  <node id="-294" visible="true" lat="43.30396508" lon="-72.78077055">
    <tag k="addr:city" v="Weston" />
    <tag k="addr:housenumber" v="70" />
    <tag k="addr:street" v="Burton Road" />
    <tag k="addr:state" v="VT" />
    <tag k="ref:vcgi:esiteid" v="284773" />
  </node>
  <node id="-295" visible="true" lat="43.30396423" lon="-72.77764149">
    <tag k="addr:city" v="Weston" />
    <tag k="addr:housenumber" v="104" />
    <tag k="addr:street" v="Burton Road" />
    <tag k="addr:state" v="VT" />
    <tag k="ref:vcgi:esiteid" v="284774" />
  </node>
  <node id="-296" visible="true" lat="43.30385598" lon="-72.77131828">
    <tag k="addr:city" v="Weston" />
    <tag k="addr:housenumber" v="57" />
    <tag k="addr:street" v="Obed Moore Road" />
    <tag k="addr:state" v="VT" />
    <tag k="ref:vcgi:esiteid" v="284775" />
  </node>
  <node id="-297" visible="true" lat="43.30375093" lon="-72.77341743">
    <tag k="addr:city" v="Weston" />
    <tag k="addr:housenumber" v="19" />
    <tag k="addr:street" v="Obed Moore Road" />
    <tag k="addr:state" v="VT" />
    <tag k="ref:vcgi:esiteid" v="284776" />
  </node>
  <node id="-298" visible="true" lat="43.30339996" lon="-72.79590288">
    <tag k="addr:city" v="Weston" />
    <tag k="addr:housenumber" v="213" />
    <tag k="addr:street" v="Lawrence Hill Road" />
    <tag k="addr:state" v="VT" />
    <tag k="ref:vcgi:esiteid" v="284777" />
  </node>
  <node id="-299" visible="true" lat="43.30330287" lon="-72.76974385">
    <tag k="addr:city" v="Weston" />
    <tag k="addr:housenumber" v="74" />
    <tag k="addr:street" v="Obed Moore Road" />
    <tag k="addr:state" v="VT" />
    <tag k="ref:vcgi:esiteid" v="284778" />
  </node>
  <node id="-300" visible="true" lat="43.30326755" lon="-72.78259718">
    <tag k="addr:city" v="Weston" />
    <tag k="addr:housenumber" v="49" />
    <tag k="addr:street" v="Burton Road" />
    <tag k="addr:state" v="VT" />
    <tag k="ref:vcgi:esiteid" v="284779" />
  </node>
  <node id="-301" visible="true" lat="43.30283692" lon="-72.78113781">
    <tag k="addr:city" v="Weston" />
    <tag k="addr:housenumber" v="69" />
    <tag k="addr:street" v="Burton Road" />
    <tag k="addr:state" v="VT" />
    <tag k="ref:vcgi:esiteid" v="284780" />
  </node>
  <node id="-302" visible="true" lat="43.30259795" lon="-72.81421683">
    <tag k="addr:city" v="Weston" />
    <tag k="addr:housenumber" v="206" />
    <tag k="addr:street" v="Trout Club Road" />
    <tag k="addr:state" v="VT" />
    <tag k="ref:vcgi:esiteid" v="284781" />
  </node>
  <node id="-303" visible="true" lat="43.30259519" lon="-72.79494043">
    <tag k="addr:city" v="Weston" />
    <tag k="addr:housenumber" v="205" />
    <tag k="addr:street" v="Lawrence Hill Road" />
    <tag k="addr:state" v="VT" />
    <tag k="ref:vcgi:esiteid" v="284782" />
  </node>
  <node id="-304" visible="true" lat="43.30260369" lon="-72.79524243">
    <tag k="addr:city" v="Weston" />
    <tag k="addr:housenumber" v="203" />
    <tag k="addr:street" v="Lawrence Hill Road" />
    <tag k="addr:state" v="VT" />
    <tag k="ref:vcgi:esiteid" v="284783" />
  </node>
  <node id="-305" visible="true" lat="43.30248307" lon="-72.80122938">
    <tag k="addr:city" v="Weston" />
    <tag k="addr:housenumber" v="74" />
    <tag k="addr:street" v="Moses Pond Road" />
    <tag k="addr:state" v="VT" />
    <tag k="ref:vcgi:esiteid" v="284784" />
  </node>
  <node id="-306" visible="true" lat="43.30260565" lon="-72.77992854">
    <tag k="addr:city" v="Weston" />
    <tag k="addr:housenumber" v="79" />
    <tag k="addr:street" v="Burton Road" />
    <tag k="addr:state" v="VT" />
    <tag k="ref:vcgi:esiteid" v="284785" />
  </node>
  <node id="-307" visible="true" lat="43.302394" lon="-72.79682068">
    <tag k="addr:city" v="Weston" />
    <tag k="addr:housenumber" v="212" />
    <tag k="addr:street" v="Lawrence Hill Road" />
    <tag k="addr:state" v="VT" />
    <tag k="ref:vcgi:esiteid" v="284786" />
  </node>
  <node id="-308" visible="true" lat="43.3023491" lon="-72.77054074">
    <tag k="addr:city" v="Weston" />
    <tag k="addr:housenumber" v="79" />
    <tag k="addr:street" v="Obed Moore Road" />
    <tag k="addr:state" v="VT" />
    <tag k="ref:vcgi:esiteid" v="284787" />
  </node>
  <node id="-309" visible="true" lat="43.30226244" lon="-72.7852446">
    <tag k="addr:city" v="Weston" />
    <tag k="addr:housenumber" v="24" />
    <tag k="addr:street" v="Burton Road" />
    <tag k="addr:state" v="VT" />
    <tag k="ref:vcgi:esiteid" v="284788" />
  </node>
  <node id="-310" visible="true" lat="43.30198395" lon="-72.79580152">
    <tag k="addr:city" v="Weston" />
    <tag k="addr:housenumber" v="193" />
    <tag k="addr:street" v="Lawrence Hill Road" />
    <tag k="addr:state" v="VT" />
    <tag k="ref:vcgi:esiteid" v="284789" />
  </node>
  <node id="-311" visible="true" lat="43.30174203" lon="-72.80108751">
    <tag k="addr:city" v="Weston" />
    <tag k="addr:housenumber" v="10" />
    <tag k="addr:street" v="Parker Lane" />
    <tag k="addr:state" v="VT" />
    <tag k="ref:vcgi:esiteid" v="284791" />
  </node>
  <node id="-312" visible="true" lat="43.30167122" lon="-72.81059804">
    <tag k="addr:city" v="Weston" />
    <tag k="addr:housenumber" v="183" />
    <tag k="addr:street" v="Trout Club Road" />
    <tag k="addr:state" v="VT" />
    <tag k="ref:vcgi:esiteid" v="284792" />
  </node>
  <node id="-313" visible="true" lat="43.30182074" lon="-72.76667937">
    <tag k="addr:city" v="Weston" />
    <tag k="addr:housenumber" v="129" />
    <tag k="addr:street" v="Obed Moore Road" />
    <tag k="addr:state" v="VT" />
    <tag k="ref:vcgi:esiteid" v="284793" />
  </node>
  <node id="-314" visible="true" lat="43.30157697" lon="-72.77547682">
    <tag k="addr:city" v="Weston" />
    <tag k="addr:housenumber" v="139" />
    <tag k="addr:street" v="Burton Road" />
    <tag k="addr:state" v="VT" />
    <tag k="ref:vcgi:esiteid" v="284794" />
  </node>
  <node id="-315" visible="true" lat="43.30114524" lon="-72.8486642">
    <tag k="addr:city" v="Weston" />
    <tag k="addr:housenumber" v="123" />
    <tag k="addr:street" v="Jaquith Road" />
    <tag k="addr:state" v="VT" />
    <tag k="ref:vcgi:esiteid" v="284796" />
  </node>
  <node id="-316" visible="true" lat="43.30127984" lon="-72.8447431">
    <tag k="addr:city" v="Weston" />
    <tag k="addr:housenumber" v="108" />
    <tag k="addr:street" v="Jaquith Road" />
    <tag k="addr:state" v="VT" />
    <tag k="ref:vcgi:esiteid" v="284797" />
  </node>
  <node id="-317" visible="true" lat="43.30137573" lon="-72.80383618">
    <tag k="addr:city" v="Weston" />
    <tag k="addr:housenumber" v="38" />
    <tag k="addr:street" v="Parker Lane" />
    <tag k="addr:state" v="VT" />
    <tag k="ref:vcgi:esiteid" v="284798" />
  </node>
  <node id="-318" visible="true" lat="43.30130395" lon="-72.77011775">
    <tag k="addr:city" v="Weston" />
    <tag k="addr:housenumber" v="93" />
    <tag k="addr:street" v="Obed Moore Road" />
    <tag k="addr:state" v="VT" />
    <tag k="ref:vcgi:esiteid" v="284799" />
  </node>
  <node id="-319" visible="true" lat="43.30081217" lon="-72.8112729">
    <tag k="addr:city" v="Weston" />
    <tag k="addr:housenumber" v="180" />
    <tag k="addr:street" v="Trout Club Road" />
    <tag k="addr:state" v="VT" />
    <tag k="ref:vcgi:esiteid" v="284800" />
  </node>
  <node id="-320" visible="true" lat="43.30093576" lon="-72.79490245">
    <tag k="addr:city" v="Weston" />
    <tag k="addr:housenumber" v="187" />
    <tag k="addr:street" v="Lawrence Hill Road" />
    <tag k="addr:state" v="VT" />
    <tag k="ref:vcgi:esiteid" v="284801" />
  </node>
  <node id="-321" visible="true" lat="43.30047989" lon="-72.76849365">
    <tag k="addr:city" v="Weston" />
    <tag k="addr:housenumber" v="111" />
    <tag k="addr:street" v="Obed Moore Road" />
    <tag k="addr:state" v="VT" />
    <tag k="ref:vcgi:esiteid" v="284802" />
  </node>
  <node id="-322" visible="true" lat="43.30033493" lon="-72.78526306">
    <tag k="addr:city" v="Weston" />
    <tag k="addr:housenumber" v="815" />
    <tag k="addr:street" v="Vermont Route 100" />
    <tag k="addr:state" v="VT" />
    <tag k="ref:vcgi:esiteid" v="284803" />
  </node>
  <node id="-323" visible="true" lat="43.29991816" lon="-72.79556667">
    <tag k="addr:city" v="Weston" />
    <tag k="addr:housenumber" v="177" />
    <tag k="addr:street" v="Lawrence Hill Road" />
    <tag k="addr:state" v="VT" />
    <tag k="ref:vcgi:esiteid" v="284804" />
  </node>
  <node id="-324" visible="true" lat="43.29956116" lon="-72.80293284">
    <tag k="addr:city" v="Weston" />
    <tag k="addr:housenumber" v="36" />
    <tag k="addr:street" v="Moses Pond Road" />
    <tag k="addr:state" v="VT" />
    <tag k="ref:vcgi:esiteid" v="284805" />
  </node>
  <node id="-325" visible="true" lat="43.29981223" lon="-72.79789796">
    <tag k="addr:city" v="Weston" />
    <tag k="addr:housenumber" v="162" />
    <tag k="addr:street" v="Lawrence Hill Road" />
    <tag k="addr:state" v="VT" />
    <tag k="ref:vcgi:esiteid" v="284806" />
  </node>
  <node id="-326" visible="true" lat="43.29969513" lon="-72.80839781">
    <tag k="addr:city" v="Weston" />
    <tag k="addr:housenumber" v="139" />
    <tag k="addr:street" v="Trout Club Road" />
    <tag k="addr:state" v="VT" />
    <tag k="ref:vcgi:esiteid" v="284807" />
  </node>
  <node id="-327" visible="true" lat="43.29923196" lon="-72.80711147">
    <tag k="addr:city" v="Weston" />
    <tag k="addr:housenumber" v="129" />
    <tag k="addr:street" v="Trout Club Road" />
    <tag k="addr:state" v="VT" />
    <tag k="ref:vcgi:esiteid" v="284808" />
  </node>
  <node id="-328" visible="true" lat="43.29902954" lon="-72.80124497">
    <tag k="addr:city" v="Weston" />
    <tag k="addr:housenumber" v="24" />
    <tag k="addr:street" v="Moses Pond Road" />
    <tag k="addr:state" v="VT" />
    <tag k="ref:vcgi:esiteid" v="284809" />
  </node>
  <node id="-329" visible="true" lat="43.29836553" lon="-72.78693707">
    <tag k="addr:city" v="Weston" />
    <tag k="addr:housenumber" v="790" />
    <tag k="addr:street" v="Vermont Route 100" />
    <tag k="addr:state" v="VT" />
    <tag k="ref:vcgi:esiteid" v="284810" />
  </node>
  <node id="-330" visible="true" lat="43.29795884" lon="-72.80660339">
    <tag k="addr:city" v="Weston" />
    <tag k="addr:housenumber" v="99" />
    <tag k="addr:street" v="Trout Club Road" />
    <tag k="addr:state" v="VT" />
    <tag k="ref:vcgi:esiteid" v="284811" />
  </node>
  <node id="-331" visible="true" lat="43.29797894" lon="-72.80122381">
    <tag k="addr:city" v="Weston" />
    <tag k="addr:housenumber" v="134" />
    <tag k="addr:street" v="Lawrence Hill Road" />
    <tag k="addr:state" v="VT" />
    <tag k="ref:vcgi:esiteid" v="284812" />
  </node>
  <node id="-332" visible="true" lat="43.29785528" lon="-72.79993888">
    <tag k="addr:city" v="Weston" />
    <tag k="addr:housenumber" v="132" />
    <tag k="addr:street" v="Lawrence Hill Road" />
    <tag k="addr:state" v="VT" />
    <tag k="ref:vcgi:esiteid" v="284813" />
  </node>
  <node id="-333" visible="true" lat="43.29766797" lon="-72.80489438">
    <tag k="addr:city" v="Weston" />
    <tag k="addr:housenumber" v="83" />
    <tag k="addr:street" v="Trout Club Road" />
    <tag k="addr:state" v="VT" />
    <tag k="ref:vcgi:esiteid" v="284814" />
  </node>
  <node id="-334" visible="true" lat="43.29674433" lon="-72.79461562">
    <tag k="addr:city" v="Weston" />
    <tag k="addr:housenumber" v="18" />
    <tag k="addr:street" v="Wildes Way" />
    <tag k="addr:state" v="VT" />
    <tag k="ref:vcgi:esiteid" v="284816" />
  </node>
  <node id="-335" visible="true" lat="43.2967362" lon="-72.7754307">
    <tag k="addr:city" v="Weston" />
    <tag k="addr:housenumber" v="150" />
    <tag k="addr:street" v="Chester Mountain Road" />
    <tag k="addr:state" v="VT" />
    <tag k="ref:vcgi:esiteid" v="284817" />
  </node>
  <node id="-336" visible="true" lat="43.29813491" lon="-72.79631859">
    <tag k="addr:city" v="Weston" />
    <tag k="addr:housenumber" v="20" />
    <tag k="addr:street" v="Wildes Way" />
    <tag k="addr:state" v="VT" />
    <tag k="ref:vcgi:esiteid" v="284818" />
  </node>
  <node id="-337" visible="true" lat="43.29666787" lon="-72.80555061">
    <tag k="addr:city" v="Weston" />
    <tag k="addr:housenumber" v="84" />
    <tag k="addr:street" v="Trout Club Road" />
    <tag k="addr:state" v="VT" />
    <tag k="ref:vcgi:esiteid" v="284819" />
  </node>
  <node id="-338" visible="true" lat="43.29672012" lon="-72.78177663">
    <tag k="addr:city" v="Weston" />
    <tag k="addr:housenumber" v="80" />
    <tag k="addr:street" v="Chester Mountain Road" />
    <tag k="addr:state" v="VT" />
    <tag k="ref:vcgi:esiteid" v="284820" />
  </node>
  <node id="-339" visible="true" lat="43.29652777" lon="-72.79868972">
    <tag k="addr:city" v="Weston" />
    <tag k="addr:housenumber" v="110" />
    <tag k="addr:street" v="Lawrence Hill Road" />
    <tag k="addr:state" v="VT" />
    <tag k="ref:vcgi:esiteid" v="284821" />
  </node>
  <node id="-340" visible="true" lat="43.29634796" lon="-72.80001942">
    <tag k="addr:city" v="Weston" />
    <tag k="addr:housenumber" v="100" />
    <tag k="addr:street" v="Lawrence Hill Road" />
    <tag k="addr:state" v="VT" />
    <tag k="ref:vcgi:esiteid" v="284822" />
  </node>
  <node id="-341" visible="true" lat="43.29585986" lon="-72.80424038">
    <tag k="addr:city" v="Weston" />
    <tag k="addr:housenumber" v="68" />
    <tag k="addr:street" v="Trout Club Road" />
    <tag k="addr:state" v="VT" />
    <tag k="ref:vcgi:esiteid" v="284823" />
  </node>
  <node id="-342" visible="true" lat="43.29586136" lon="-72.80221016">
    <tag k="addr:city" v="Weston" />
    <tag k="addr:housenumber" v="49" />
    <tag k="addr:street" v="Trout Club Road" />
    <tag k="addr:state" v="VT" />
    <tag k="ref:vcgi:esiteid" v="284824" />
  </node>
  <node id="-343" visible="true" lat="43.29583641" lon="-72.80023973">
    <tag k="addr:city" v="Weston" />
    <tag k="addr:housenumber" v="23" />
    <tag k="addr:street" v="Trout Club Road" />
    <tag k="addr:state" v="VT" />
    <tag k="ref:vcgi:esiteid" v="284825" />
  </node>
  <node id="-344" visible="true" lat="43.29550374" lon="-72.78212198">
    <tag k="addr:city" v="Weston" />
    <tag k="addr:housenumber" v="85" />
    <tag k="addr:street" v="Chester Mountain Road" />
    <tag k="addr:state" v="VT" />
    <tag k="ref:vcgi:esiteid" v="284826" />
  </node>
  <node id="-345" visible="true" lat="43.29573189" lon="-72.79790864">
    <tag k="addr:city" v="Weston" />
    <tag k="addr:housenumber" v="93" />
    <tag k="addr:street" v="Lawrence Hill Road" />
    <tag k="addr:state" v="VT" />
    <tag k="ref:vcgi:esiteid" v="284827" />
  </node>
  <node id="-346" visible="true" lat="43.29578304" lon="-72.78808831">
    <tag k="addr:city" v="Weston" />
    <tag k="addr:housenumber" v="749" />
    <tag k="addr:street" v="Main Street" />
    <tag k="addr:state" v="VT" />
    <tag k="ref:vcgi:esiteid" v="284828" />
  </node>
  <node id="-347" visible="true" lat="43.29567042" lon="-72.80281158">
    <tag k="addr:city" v="Weston" />
    <tag k="addr:housenumber" v="56" />
    <tag k="addr:street" v="Trout Club Road" />
    <tag k="addr:state" v="VT" />
    <tag k="ref:vcgi:esiteid" v="284829" />
  </node>
  <node id="-348" visible="true" lat="43.2956979" lon="-72.7985915">
    <tag k="addr:city" v="Weston" />
    <tag k="addr:housenumber" v="98" />
    <tag k="addr:street" v="Lawrence Hill Road" />
    <tag k="addr:state" v="VT" />
    <tag k="ref:vcgi:esiteid" v="284830" />
  </node>
  <node id="-349" visible="true" lat="43.2955364" lon="-72.78355074">
    <tag k="addr:city" v="Weston" />
    <tag k="addr:housenumber" v="67" />
    <tag k="addr:street" v="Chester Mountain Road" />
    <tag k="addr:state" v="VT" />
    <tag k="ref:vcgi:esiteid" v="284832" />
  </node>
  <node id="-350" visible="true" lat="43.29545692" lon="-72.78562739">
    <tag k="addr:city" v="Weston" />
    <tag k="addr:housenumber" v="46" />
    <tag k="addr:street" v="Chester Mountain Road" />
    <tag k="addr:state" v="VT" />
    <tag k="ref:vcgi:esiteid" v="284833" />
  </node>
  <node id="-351" visible="true" lat="43.29530013" lon="-72.79779217">
    <tag k="addr:city" v="Weston" />
    <tag k="addr:housenumber" v="87" />
    <tag k="addr:street" v="Lawrence Hill Road" />
    <tag k="addr:state" v="VT" />
    <tag k="ref:vcgi:esiteid" v="284834" />
  </node>
  <node id="-352" visible="true" lat="43.2951021" lon="-72.79849898">
    <tag k="addr:city" v="Weston" />
    <tag k="addr:housenumber" v="84" />
    <tag k="addr:street" v="Lawrence Hill Road" />
    <tag k="addr:state" v="VT" />
    <tag k="ref:vcgi:esiteid" v="284836" />
  </node>
  <node id="-353" visible="true" lat="43.29509081" lon="-72.78413191">
    <tag k="addr:city" v="Weston" />
    <tag k="addr:housenumber" v="57" />
    <tag k="addr:street" v="Chester Mountain Road" />
    <tag k="addr:state" v="VT" />
    <tag k="ref:vcgi:esiteid" v="284837" />
  </node>
  <node id="-354" visible="true" lat="43.29509498" lon="-72.80004264">
    <tag k="addr:city" v="Weston" />
    <tag k="addr:housenumber" v="21" />
    <tag k="addr:street" v="Trout Club Road" />
    <tag k="addr:state" v="VT" />
    <tag k="ref:vcgi:esiteid" v="284838" />
  </node>
  <node id="-355" visible="true" lat="43.29492046" lon="-72.78923027">
    <tag k="addr:city" v="Weston" />
    <tag k="addr:housenumber" v="734" />
    <tag k="addr:street" v="Main Street" />
    <tag k="addr:state" v="VT" />
    <tag k="ref:vcgi:esiteid" v="284839" />
  </node>
  <node id="-356" visible="true" lat="43.29495475" lon="-72.77885447">
    <tag k="addr:city" v="Weston" />
    <tag k="addr:housenumber" v="125" />
    <tag k="addr:street" v="Chester Mountain Road" />
    <tag k="addr:state" v="VT" />
    <tag k="ref:vcgi:esiteid" v="284840" />
  </node>
  <node id="-357" visible="true" lat="43.29487965" lon="-72.78863881">
    <tag k="addr:city" v="Weston" />
    <tag k="addr:housenumber" v="735" />
    <tag k="addr:street" v="Main Street" />
    <tag k="addr:state" v="VT" />
    <tag k="ref:vcgi:esiteid" v="284841" />
  </node>
  <node id="-358" visible="true" lat="43.2947731" lon="-72.78762817">
    <tag k="addr:city" v="Weston" />
    <tag k="addr:housenumber" v="24" />
    <tag k="addr:street" v="Chester Mountain Road" />
    <tag k="addr:state" v="VT" />
    <tag k="ref:vcgi:esiteid" v="284843" />
  </node>
  <node id="-359" visible="true" lat="43.29481922" lon="-72.79771365">
    <tag k="addr:city" v="Weston" />
    <tag k="addr:housenumber" v="81" />
    <tag k="addr:street" v="Lawrence Hill Road" />
    <tag k="addr:state" v="VT" />
    <tag k="ref:vcgi:esiteid" v="284844" />
  </node>
  <node id="-360" visible="true" lat="43.29461957" lon="-72.7760426">
    <tag k="addr:city" v="Weston" />
    <tag k="addr:housenumber" v="149" />
    <tag k="addr:street" v="Chester Mountain Road" />
    <tag k="addr:state" v="VT" />
    <tag k="ref:vcgi:esiteid" v="284845" />
  </node>
  <node id="-361" visible="true" lat="43.29427049" lon="-72.78751186">
    <tag k="addr:city" v="Weston" />
    <tag k="addr:housenumber" v="23" />
    <tag k="addr:street" v="Chester Mountain Road" />
    <tag k="addr:state" v="VT" />
    <tag k="ref:vcgi:esiteid" v="284846" />
  </node>
  <node id="-362" visible="true" lat="43.29442054" lon="-72.79977433">
    <tag k="addr:city" v="Weston" />
    <tag k="addr:housenumber" v="24" />
    <tag k="addr:street" v="Trout Club Road" />
    <tag k="addr:state" v="VT" />
    <tag k="ref:vcgi:esiteid" v="284847" />
  </node>
  <node id="-363" visible="true" lat="43.29430727" lon="-72.78911163">
    <tag k="addr:city" v="Weston" />
    <tag k="addr:housenumber" v="725" />
    <tag k="addr:street" v="Main Street" />
    <tag k="addr:state" v="VT" />
    <tag k="ref:vcgi:esiteid" v="284848" />
  </node>
  <node id="-364" visible="true" lat="43.29427579" lon="-72.79723495">
    <tag k="addr:city" v="Weston" />
    <tag k="addr:housenumber" v="75" />
    <tag k="addr:street" v="Lawrence Hill Road" />
    <tag k="addr:state" v="VT" />
    <tag k="ref:vcgi:esiteid" v="284849" />
  </node>
  <node id="-365" visible="true" lat="43.29410261" lon="-72.78976316">
    <tag k="addr:city" v="Weston" />
    <tag k="addr:housenumber" v="722" />
    <tag k="addr:street" v="Main Street" />
    <tag k="addr:state" v="VT" />
    <tag k="ref:vcgi:esiteid" v="284850" />
  </node>
  <node id="-366" visible="true" lat="43.29408959" lon="-72.79808162">
    <tag k="addr:city" v="Weston" />
    <tag k="addr:housenumber" v="2" />
    <tag k="addr:street" v="Trout Club Road" />
    <tag k="addr:state" v="VT" />
    <tag k="ref:vcgi:esiteid" v="284851" />
  </node>
  <node id="-367" visible="true" lat="43.29402341" lon="-72.80176623">
    <tag k="addr:city" v="Weston" />
    <tag k="addr:housenumber" v="39" />
    <tag k="addr:street" v="Landgrove Road" />
    <tag k="addr:state" v="VT" />
    <tag k="ref:vcgi:esiteid" v="284852" />
  </node>
  <node id="-368" visible="true" lat="43.29397956" lon="-72.78913915">
    <tag k="addr:city" v="Weston" />
    <tag k="addr:housenumber" v="719" />
    <tag k="addr:street" v="Main Street" />
    <tag k="addr:state" v="VT" />
    <tag k="ref:vcgi:esiteid" v="284853" />
  </node>
  <node id="-369" visible="true" lat="43.29390322" lon="-72.78998836">
    <tag k="addr:city" v="Weston" />
    <tag k="addr:housenumber" v="720" />
    <tag k="addr:street" v="Main Street" />
    <tag k="addr:state" v="VT" />
    <tag k="ref:vcgi:esiteid" v="284854" />
  </node>
  <node id="-370" visible="true" lat="43.29384673" lon="-72.78993316">
    <tag k="addr:city" v="Weston" />
    <tag k="addr:housenumber" v="714" />
    <tag k="addr:street" v="Main Street" />
    <tag k="addr:state" v="VT" />
    <tag k="ref:vcgi:esiteid" v="284855" />
  </node>
  <node id="-371" visible="true" lat="43.29367171" lon="-72.80715132">
    <tag k="addr:city" v="Weston" />
    <tag k="addr:housenumber" v="111" />
    <tag k="addr:street" v="Landgrove Road" />
    <tag k="addr:state" v="VT" />
    <tag k="ref:vcgi:esiteid" v="284856" />
  </node>
  <node id="-372" visible="true" lat="43.29363126" lon="-72.79026323">
    <tag k="addr:city" v="Weston" />
    <tag k="addr:housenumber" v="710" />
    <tag k="addr:street" v="Main Street" />
    <tag k="addr:state" v="VT" />
    <tag k="ref:vcgi:esiteid" v="284858" />
  </node>
  <node id="-373" visible="true" lat="43.29349111" lon="-72.79043768">
    <tag k="addr:city" v="Weston" />
    <tag k="addr:housenumber" v="708" />
    <tag k="addr:street" v="Main Street" />
    <tag k="addr:state" v="VT" />
    <tag k="ref:vcgi:esiteid" v="284859" />
  </node>
  <node id="-374" visible="true" lat="43.29330069" lon="-72.79682607">
    <tag k="addr:city" v="Weston" />
    <tag k="addr:housenumber" v="53" />
    <tag k="addr:street" v="Lawrence Hill Road" />
    <tag k="addr:state" v="VT" />
    <tag k="ref:vcgi:esiteid" v="284860" />
  </node>
  <node id="-375" visible="true" lat="43.29307929" lon="-72.79103375">
    <tag k="addr:city" v="Weston" />
    <tag k="addr:housenumber" v="700" />
    <tag k="addr:street" v="Main Street" />
    <tag k="addr:state" v="VT" />
    <tag k="ref:vcgi:esiteid" v="284861" />
  </node>
  <node id="-376" visible="true" lat="43.29306408" lon="-72.79845455">
    <tag k="addr:city" v="Weston" />
    <tag k="addr:housenumber" v="16" />
    <tag k="addr:street" v="Landgrove Road" />
    <tag k="addr:state" v="VT" />
    <tag k="ref:vcgi:esiteid" v="284862" />
  </node>
  <node id="-377" visible="true" lat="43.29309672" lon="-72.79047776">
    <tag k="addr:city" v="Weston" />
    <tag k="addr:housenumber" v="703" />
    <tag k="addr:street" v="Main Street" />
    <tag k="addr:state" v="VT" />
    <tag k="ref:vcgi:esiteid" v="284863" />
  </node>
  <node id="-378" visible="true" lat="43.29268844" lon="-72.79067566">
    <tag k="addr:city" v="Weston" />
    <tag k="addr:housenumber" v="699" />
    <tag k="addr:street" v="Main Street" />
    <tag k="addr:state" v="VT" />
    <tag k="ref:vcgi:esiteid" v="284864" />
  </node>
  <node id="-379" visible="true" lat="43.29277682" lon="-72.79092705">
    <tag k="addr:city" v="Weston" />
    <tag k="addr:housenumber" v="697" />
    <tag k="addr:street" v="Main Street" />
    <tag k="addr:state" v="VT" />
    <tag k="ref:vcgi:esiteid" v="284865" />
  </node>
  <node id="-380" visible="true" lat="43.29265212" lon="-72.79607913">
    <tag k="addr:city" v="Weston" />
    <tag k="addr:housenumber" v="43" />
    <tag k="addr:street" v="Lawrence Hill Road" />
    <tag k="addr:state" v="VT" />
    <tag k="ref:vcgi:esiteid" v="284866" />
  </node>
  <node id="-381" visible="true" lat="43.29262423" lon="-72.79183495">
    <tag k="addr:city" v="Weston" />
    <tag k="addr:housenumber" v="690" />
    <tag k="addr:street" v="Main Street" />
    <tag k="addr:state" v="VT" />
    <tag k="ref:vcgi:esiteid" v="284867" />
  </node>
  <node id="-382" visible="true" lat="43.29264077" lon="-72.79265038">
    <tag k="addr:city" v="Weston" />
    <tag k="addr:housenumber" v="680" />
    <tag k="addr:street" v="Main Street" />
    <tag k="addr:state" v="VT" />
    <tag k="ref:vcgi:esiteid" v="284868" />
  </node>
  <node id="-383" visible="true" lat="43.29277728" lon="-72.79236726">
    <tag k="addr:city" v="Weston" />
    <tag k="addr:housenumber" v="682" />
    <tag k="addr:street" v="Main Street" />
    <tag k="addr:state" v="VT" />
    <tag k="ref:vcgi:esiteid" v="284869" />
  </node>
  <node id="-384" visible="true" lat="43.29269336" lon="-72.79220209">
    <tag k="addr:city" v="Weston" />
    <tag k="addr:housenumber" v="684" />
    <tag k="addr:street" v="Main Street" />
    <tag k="addr:state" v="VT" />
    <tag k="ref:vcgi:esiteid" v="284870" />
  </node>
  <node id="-385" visible="true" lat="43.29252505" lon="-72.79210198">
    <tag k="addr:city" v="Weston" />
    <tag k="addr:housenumber" v="686" />
    <tag k="addr:street" v="Main Street" />
    <tag k="addr:state" v="VT" />
    <tag k="ref:vcgi:esiteid" v="284871" />
  </node>
  <node id="-386" visible="true" lat="43.29245257" lon="-72.79125512">
    <tag k="addr:city" v="Weston" />
    <tag k="addr:housenumber" v="691" />
    <tag k="addr:street" v="Main Street" />
    <tag k="addr:state" v="VT" />
    <tag k="ref:vcgi:esiteid" v="284872" />
  </node>
  <node id="-387" visible="true" lat="43.29243849" lon="-72.79579684">
    <tag k="addr:city" v="Weston" />
    <tag k="addr:housenumber" v="41" />
    <tag k="addr:street" v="Lawrence Hill Road" />
    <tag k="addr:state" v="VT" />
    <tag k="ref:vcgi:esiteid" v="284873" />
  </node>
  <node id="-388" visible="true" lat="43.29239535" lon="-72.79156792">
    <tag k="addr:city" v="Weston" />
    <tag k="addr:housenumber" v="689" />
    <tag k="addr:street" v="Main Street" />
    <tag k="addr:state" v="VT" />
    <tag k="ref:vcgi:esiteid" v="284874" />
  </node>
  <node id="-389" visible="true" lat="43.29235076" lon="-72.79561374">
    <tag k="addr:city" v="Weston" />
    <tag k="addr:housenumber" v="39" />
    <tag k="addr:street" v="Lawrence Hill Road" />
    <tag k="addr:state" v="VT" />
    <tag k="ref:vcgi:esiteid" v="284875" />
  </node>
  <node id="-390" visible="true" lat="43.29232257" lon="-72.79323646">
    <tag k="addr:city" v="Weston" />
    <tag k="addr:housenumber" v="12" />
    <tag k="addr:street" v="Park Street" />
    <tag k="addr:state" v="VT" />
    <tag k="ref:vcgi:esiteid" v="284876" />
  </node>
  <node id="-391" visible="true" lat="43.29228442" lon="-72.7927024">
    <tag k="addr:city" v="Weston" />
    <tag k="addr:housenumber" v="678" />
    <tag k="addr:street" v="Main Street" />
    <tag k="addr:state" v="VT" />
    <tag k="ref:vcgi:esiteid" v="284877" />
  </node>
  <node id="-392" visible="true" lat="43.29224658" lon="-72.79188073">
    <tag k="addr:city" v="Weston" />
    <tag k="addr:housenumber" v="685" />
    <tag k="addr:street" v="Main Street" />
    <tag k="addr:state" v="VT" />
    <tag k="ref:vcgi:esiteid" v="284879" />
  </node>
  <node id="-393" visible="true" lat="43.29223435" lon="-72.80018165">
    <tag k="addr:city" v="Weston" />
    <tag k="addr:housenumber" v="40" />
    <tag k="addr:street" v="Landgrove Road" />
    <tag k="addr:state" v="VT" />
    <tag k="ref:vcgi:esiteid" v="284880" />
  </node>
  <node id="-394" visible="true" lat="43.29217528" lon="-72.79553744">
    <tag k="addr:city" v="Weston" />
    <tag k="addr:housenumber" v="37" />
    <tag k="addr:street" v="Lawrence Hill Road" />
    <tag k="addr:state" v="VT" />
    <tag k="ref:vcgi:esiteid" v="284881" />
  </node>
  <node id="-395" visible="true" lat="43.29204183" lon="-72.79223915">
    <tag k="addr:city" v="Weston" />
    <tag k="addr:housenumber" v="4" />
    <tag k="addr:street" v="Markham Lane" />
    <tag k="addr:state" v="VT" />
    <tag k="ref:vcgi:esiteid" v="284882" />
  </node>
  <node id="-396" visible="true" lat="43.29209611" lon="-72.79375881">
    <tag k="addr:city" v="Weston" />
    <tag k="addr:housenumber" v="8" />
    <tag k="addr:street" v="Park Street" />
    <tag k="addr:state" v="VT" />
    <tag k="ref:vcgi:esiteid" v="284883" />
  </node>
  <node id="-397" visible="true" lat="43.29174248" lon="-72.8041871">
    <tag k="addr:city" v="Weston" />
    <tag k="addr:housenumber" v="83" />
    <tag k="addr:street" v="Landgrove Road" />
    <tag k="addr:state" v="VT" />
    <tag k="ref:vcgi:esiteid" v="284884" />
  </node>
  <node id="-398" visible="true" lat="43.29188108" lon="-72.7949767">
    <tag k="addr:city" v="Weston" />
    <tag k="addr:housenumber" v="25" />
    <tag k="addr:street" v="Lawrence Hill Road" />
    <tag k="addr:state" v="VT" />
    <tag k="ref:vcgi:esiteid" v="284885" />
  </node>
  <node id="-399" visible="true" lat="43.29180687" lon="-72.7939431">
    <tag k="addr:city" v="Weston" />
    <tag k="addr:housenumber" v="4" />
    <tag k="addr:street" v="Park Street" />
    <tag k="addr:state" v="VT" />
    <tag k="ref:vcgi:esiteid" v="284887" />
  </node>
  <node id="-400" visible="true" lat="43.29177483" lon="-72.78924236">
    <tag k="addr:city" v="Weston" />
    <tag k="addr:housenumber" v="8" />
    <tag k="addr:street" v="Orton Lane" />
    <tag k="addr:state" v="VT" />
    <tag k="ref:vcgi:esiteid" v="284888" />
  </node>
  <node id="-401" visible="true" lat="43.29153265" lon="-72.79239529">
    <tag k="addr:city" v="Weston" />
    <tag k="addr:housenumber" v="3" />
    <tag k="addr:street" v="Markham Lane" />
    <tag k="addr:state" v="VT" />
    <tag k="ref:vcgi:esiteid" v="284889" />
  </node>
  <node id="-402" visible="true" lat="43.29142374" lon="-72.79098893">
    <tag k="addr:city" v="Weston" />
    <tag k="addr:housenumber" v="20" />
    <tag k="addr:street" v="Markham Lane" />
    <tag k="addr:state" v="VT" />
    <tag k="ref:vcgi:esiteid" v="284890" />
  </node>
  <node id="-403" visible="true" lat="43.29156289" lon="-72.79121775">
    <tag k="addr:city" v="Weston" />
    <tag k="addr:housenumber" v="16" />
    <tag k="addr:street" v="Markham Lane" />
    <tag k="addr:state" v="VT" />
    <tag k="ref:vcgi:esiteid" v="284891" />
  </node>
  <node id="-404" visible="true" lat="43.29146957" lon="-72.79471588">
    <tag k="addr:city" v="Weston" />
    <tag k="addr:housenumber" v="24" />
    <tag k="addr:street" v="Lawrence Hill Road" />
    <tag k="addr:state" v="VT" />
    <tag k="ref:vcgi:esiteid" v="284892" />
  </node>
  <node id="-405" visible="true" lat="43.29137974" lon="-72.79006645">
    <tag k="addr:city" v="Weston" />
    <tag k="addr:housenumber" v="6" />
    <tag k="addr:street" v="Orton Lane" />
    <tag k="addr:state" v="VT" />
    <tag k="ref:vcgi:esiteid" v="284893" />
  </node>
  <node id="-406" visible="true" lat="43.29136274" lon="-72.79460929">
    <tag k="addr:city" v="Weston" />
    <tag k="addr:housenumber" v="20" />
    <tag k="addr:street" v="Lawrence Hill Road" />
    <tag k="addr:state" v="VT" />
    <tag k="ref:vcgi:esiteid" v="284894" />
  </node>
  <node id="-407" visible="true" lat="43.2911911" lon="-72.81932068">
    <tag k="addr:city" v="Weston" />
    <tag k="addr:housenumber" v="255" />
    <tag k="addr:street" v="Landgrove Road" />
    <tag k="addr:state" v="VT" />
    <tag k="ref:vcgi:esiteid" v="284895" />
  </node>
  <node id="-408" visible="true" lat="43.29120015" lon="-72.79257044">
    <tag k="addr:city" v="Weston" />
    <tag k="addr:housenumber" v="665" />
    <tag k="addr:street" v="Main Street" />
    <tag k="addr:state" v="VT" />
    <tag k="ref:vcgi:esiteid" v="284896" />
  </node>
  <node id="-409" visible="true" lat="43.29124651" lon="-72.79165051">
    <tag k="addr:city" v="Weston" />
    <tag k="addr:housenumber" v="13" />
    <tag k="addr:street" v="Markham Lane" />
    <tag k="addr:state" v="VT" />
    <tag k="ref:vcgi:esiteid" v="284897" />
  </node>
  <node id="-410" visible="true" lat="43.29122922" lon="-72.79408285">
    <tag k="addr:city" v="Weston" />
    <tag k="addr:housenumber" v="12" />
    <tag k="addr:street" v="Lawrence Hill Road" />
    <tag k="addr:state" v="VT" />
    <tag k="ref:vcgi:esiteid" v="284898" />
  </node>
  <node id="-411" visible="true" lat="43.29103479" lon="-72.81817309">
    <tag k="addr:city" v="Weston" />
    <tag k="addr:housenumber" v="245" />
    <tag k="addr:street" v="Landgrove Road" />
    <tag k="addr:state" v="VT" />
    <tag k="ref:vcgi:esiteid" v="284899" />
  </node>
  <node id="-412" visible="true" lat="43.29113767" lon="-72.79316733">
    <tag k="addr:city" v="Weston" />
    <tag k="addr:housenumber" v="664" />
    <tag k="addr:street" v="Main Street" />
    <tag k="addr:state" v="VT" />
    <tag k="ref:vcgi:esiteid" v="284900" />
  </node>
  <node id="-413" visible="true" lat="43.29102342" lon="-72.7912558">
    <tag k="addr:city" v="Weston" />
    <tag k="addr:housenumber" v="15" />
    <tag k="addr:street" v="Markham Lane" />
    <tag k="addr:state" v="VT" />
    <tag k="ref:vcgi:esiteid" v="284901" />
  </node>
  <node id="-414" visible="true" lat="43.29092617" lon="-72.79969154">
    <tag k="addr:city" v="Weston" />
    <tag k="addr:housenumber" v="54" />
    <tag k="addr:street" v="Landgrove Road" />
    <tag k="addr:state" v="VT" />
    <tag k="ref:vcgi:esiteid" v="284902" />
  </node>
  <node id="-415" visible="true" lat="43.29103849" lon="-72.79364798">
    <tag k="addr:city" v="Weston" />
    <tag k="addr:housenumber" v="8" />
    <tag k="addr:street" v="Lawrence Hill Road" />
    <tag k="addr:state" v="VT" />
    <tag k="ref:vcgi:esiteid" v="284903" />
  </node>
  <node id="-416" visible="true" lat="43.290968" lon="-72.79271135">
    <tag k="addr:city" v="Weston" />
    <tag k="addr:housenumber" v="661" />
    <tag k="addr:street" v="Main Street" />
    <tag k="addr:state" v="VT" />
    <tag k="ref:vcgi:esiteid" v="284904" />
  </node>
  <node id="-417" visible="true" lat="43.29097364" lon="-72.79318259">
    <tag k="addr:city" v="Weston" />
    <tag k="addr:housenumber" v="660" />
    <tag k="addr:street" v="Main Street" />
    <tag k="addr:state" v="VT" />
    <tag k="ref:vcgi:esiteid" v="284905" />
  </node>
  <node id="-418" visible="true" lat="43.29074484" lon="-72.81706699">
    <tag k="addr:city" v="Weston" />
    <tag k="addr:housenumber" v="233" />
    <tag k="addr:street" v="Landgrove Road" />
    <tag k="addr:state" v="VT" />
    <tag k="ref:vcgi:esiteid" v="284907" />
  </node>
  <node id="-419" visible="true" lat="43.29070864" lon="-72.79265529">
    <tag k="addr:city" v="Weston" />
    <tag k="addr:housenumber" v="657" />
    <tag k="addr:street" v="Main Street" />
    <tag k="addr:state" v="VT" />
    <tag k="ref:vcgi:esiteid" v="284908" />
  </node>
  <node id="-420" visible="true" lat="43.29068367" lon="-72.79009325">
    <tag k="addr:city" v="Weston" />
    <tag k="addr:housenumber" v="29" />
    <tag k="addr:street" v="Markham Lane" />
    <tag k="addr:state" v="VT" />
    <tag k="ref:vcgi:esiteid" v="284909" />
  </node>
  <node id="-421" visible="true" lat="43.2906704" lon="-72.79320264">
    <tag k="addr:city" v="Weston" />
    <tag k="addr:housenumber" v="656" />
    <tag k="addr:street" v="Main Street" />
    <tag k="addr:state" v="VT" />
    <tag k="ref:vcgi:esiteid" v="284910" />
  </node>
  <node id="-422" visible="true" lat="43.29079203" lon="-72.809327">
    <tag k="addr:city" v="Weston" />
    <tag k="addr:housenumber" v="141" />
    <tag k="addr:street" v="Landgrove Road" />
    <tag k="addr:state" v="VT" />
    <tag k="ref:vcgi:esiteid" v="284911" />
  </node>
  <node id="-423" visible="true" lat="43.29055605" lon="-72.79267055">
    <tag k="addr:city" v="Weston" />
    <tag k="addr:housenumber" v="651" />
    <tag k="addr:street" v="Main Street" />
    <tag k="addr:state" v="VT" />
    <tag k="ref:vcgi:esiteid" v="284912" />
  </node>
  <node id="-424" visible="true" lat="43.29036532" lon="-72.79267055">
    <tag k="addr:city" v="Weston" />
    <tag k="addr:housenumber" v="649" />
    <tag k="addr:street" v="Main Street" />
    <tag k="addr:state" v="VT" />
    <tag k="ref:vcgi:esiteid" v="284913" />
  </node>
  <node id="-425" visible="true" lat="43.29027857" lon="-72.81187347">
    <tag k="addr:city" v="Weston" />
    <tag k="addr:housenumber" v="169" />
    <tag k="addr:street" v="Landgrove Road" />
    <tag k="addr:state" v="VT" />
    <tag k="ref:vcgi:esiteid" v="284914" />
  </node>
  <node id="-426" visible="true" lat="43.29030807" lon="-72.81867917">
    <tag k="addr:city" v="Weston" />
    <tag k="addr:housenumber" v="250" />
    <tag k="addr:street" v="Landgrove Road" />
    <tag k="addr:state" v="VT" />
    <tag k="ref:vcgi:esiteid" v="284915" />
  </node>
  <node id="-427" visible="true" lat="43.29033853" lon="-72.79318738">
    <tag k="addr:city" v="Weston" />
    <tag k="addr:housenumber" v="652" />
    <tag k="addr:street" v="Main Street" />
    <tag k="addr:state" v="VT" />
    <tag k="ref:vcgi:esiteid" v="284916" />
  </node>
  <node id="-428" visible="true" lat="43.29028857" lon="-72.79573193">
    <tag k="addr:city" v="Weston" />
    <tag k="addr:housenumber" v="28" />
    <tag k="addr:street" v="Lawrence Hill Road" />
    <tag k="addr:state" v="VT" />
    <tag k="ref:vcgi:esiteid" v="284917" />
  </node>
  <node id="-429" visible="true" lat="43.29011346" lon="-72.79322553">
    <tag k="addr:city" v="Weston" />
    <tag k="addr:housenumber" v="650" />
    <tag k="addr:street" v="Main Street" />
    <tag k="addr:state" v="VT" />
    <tag k="ref:vcgi:esiteid" v="284918" />
  </node>
  <node id="-430" visible="true" lat="43.29004093" lon="-72.79277593">
    <tag k="addr:city" v="Weston" />
    <tag k="addr:housenumber" v="647" />
    <tag k="addr:street" v="Main Street" />
    <tag k="addr:state" v="VT" />
    <tag k="ref:vcgi:esiteid" v="284919" />
  </node>
  <node id="-431" visible="true" lat="43.28989796" lon="-72.81764441">
    <tag k="addr:city" v="Weston" />
    <tag k="addr:housenumber" v="236" />
    <tag k="addr:street" v="Landgrove Road" />
    <tag k="addr:state" v="VT" />
    <tag k="ref:vcgi:esiteid" v="284920" />
  </node>
  <node id="-432" visible="true" lat="43.28993798" lon="-72.79324079">
    <tag k="addr:city" v="Weston" />
    <tag k="addr:housenumber" v="646" />
    <tag k="addr:street" v="Main Street" />
    <tag k="addr:state" v="VT" />
    <tag k="ref:vcgi:esiteid" v="284921" />
  </node>
  <node id="-433" visible="true" lat="43.28989605" lon="-72.79059326">
    <tag k="addr:city" v="Weston" />
    <tag k="addr:housenumber" v="35" />
    <tag k="addr:street" v="Markham Lane" />
    <tag k="addr:state" v="VT" />
    <tag k="ref:vcgi:esiteid" v="284922" />
  </node>
  <node id="-434" visible="true" lat="43.28978928" lon="-72.8083689">
    <tag k="addr:city" v="Weston" />
    <tag k="addr:housenumber" v="136" />
    <tag k="addr:street" v="Landgrove Road" />
    <tag k="addr:state" v="VT" />
    <tag k="ref:vcgi:esiteid" v="284923" />
  </node>
  <node id="-435" visible="true" lat="43.28980065" lon="-72.78985616">
    <tag k="addr:city" v="Weston" />
    <tag k="addr:housenumber" v="37" />
    <tag k="addr:street" v="Markham Lane" />
    <tag k="addr:state" v="VT" />
    <tag k="ref:vcgi:esiteid" v="284924" />
  </node>
  <node id="-436" visible="true" lat="43.28980447" lon="-72.79337049">
    <tag k="addr:city" v="Weston" />
    <tag k="addr:housenumber" v="644" />
    <tag k="addr:street" v="Main Street" />
    <tag k="addr:state" v="VT" />
    <tag k="ref:vcgi:esiteid" v="284925" />
  </node>
  <node id="-437" visible="true" lat="43.28950311" lon="-72.7927754">
    <tag k="addr:city" v="Weston" />
    <tag k="addr:housenumber" v="639" />
    <tag k="addr:street" v="Main Street" />
    <tag k="addr:state" v="VT" />
    <tag k="ref:vcgi:esiteid" v="284926" />
  </node>
  <node id="-438" visible="true" lat="43.28946114" lon="-72.79340864">
    <tag k="addr:city" v="Weston" />
    <tag k="addr:housenumber" v="640" />
    <tag k="addr:street" v="Main Street" />
    <tag k="addr:state" v="VT" />
    <tag k="ref:vcgi:esiteid" v="284927" />
  </node>
  <node id="-439" visible="true" lat="43.28902245" lon="-72.79282117">
    <tag k="addr:city" v="Weston" />
    <tag k="addr:housenumber" v="633" />
    <tag k="addr:street" v="Main Street" />
    <tag k="addr:state" v="VT" />
    <tag k="ref:vcgi:esiteid" v="284928" />
  </node>
  <node id="-440" visible="true" lat="43.28882409" lon="-72.79284406">
    <tag k="addr:city" v="Weston" />
    <tag k="addr:housenumber" v="629" />
    <tag k="addr:street" v="Main Street" />
    <tag k="addr:state" v="VT" />
    <tag k="ref:vcgi:esiteid" v="284929" />
  </node>
  <node id="-441" visible="true" lat="43.2887916" lon="-72.7934904">
    <tag k="addr:city" v="Weston" />
    <tag k="addr:housenumber" v="630" />
    <tag k="addr:street" v="Main Street" />
    <tag k="addr:state" v="VT" />
    <tag k="ref:vcgi:esiteid" v="284930" />
  </node>
  <node id="-442" visible="true" lat="43.28867532" lon="-72.79287458">
    <tag k="addr:city" v="Weston" />
    <tag k="addr:housenumber" v="627" />
    <tag k="addr:street" v="Main Street" />
    <tag k="addr:state" v="VT" />
    <tag k="ref:vcgi:esiteid" v="284931" />
  </node>
  <node id="-443" visible="true" lat="43.2884884" lon="-72.79288221">
    <tag k="addr:city" v="Weston" />
    <tag k="addr:housenumber" v="623" />
    <tag k="addr:street" v="Main Street" />
    <tag k="addr:state" v="VT" />
    <tag k="ref:vcgi:esiteid" v="284932" />
  </node>
  <node id="-444" visible="true" lat="43.28845607" lon="-72.79385287">
    <tag k="addr:city" v="Weston" />
    <tag k="addr:housenumber" v="7" />
    <tag k="addr:street" v="Mill Lane" />
    <tag k="addr:state" v="VT" />
    <tag k="ref:vcgi:esiteid" v="284933" />
  </node>
  <node id="-445" visible="true" lat="43.28845619" lon="-72.79418225">
    <tag k="addr:city" v="Weston" />
    <tag k="addr:housenumber" v="9" />
    <tag k="addr:street" v="Mill Lane" />
    <tag k="addr:state" v="VT" />
    <tag k="ref:vcgi:esiteid" v="284934" />
  </node>
  <node id="-446" visible="true" lat="43.28821942" lon="-72.79389214">
    <tag k="addr:city" v="Weston" />
    <tag k="addr:housenumber" v="8" />
    <tag k="addr:street" v="Mill Lane" />
    <tag k="addr:state" v="VT" />
    <tag k="ref:vcgi:esiteid" v="284935" />
  </node>
  <node id="-447" visible="true" lat="43.28819654" lon="-72.79338097">
    <tag k="addr:city" v="Weston" />
    <tag k="addr:housenumber" v="620" />
    <tag k="addr:street" v="Main Street" />
    <tag k="addr:state" v="VT" />
    <tag k="ref:vcgi:esiteid" v="284936" />
  </node>
  <node id="-448" visible="true" lat="43.288044" lon="-72.81544214">
    <tag k="addr:city" v="Weston" />
    <tag k="addr:housenumber" v="40" />
    <tag k="addr:street" v="Holden Hill Road" />
    <tag k="addr:state" v="VT" />
    <tag k="ref:vcgi:esiteid" v="284937" />
  </node>
  <node id="-449" visible="true" lat="43.28797907" lon="-72.81730714">
    <tag k="addr:city" v="Weston" />
    <tag k="addr:housenumber" v="31" />
    <tag k="addr:street" v="Holden Hill Road" />
    <tag k="addr:state" v="VT" />
    <tag k="ref:vcgi:esiteid" v="284938" />
  </node>
  <node id="-450" visible="true" lat="43.28791806" lon="-72.79336571">
    <tag k="addr:city" v="Weston" />
    <tag k="addr:housenumber" v="616" />
    <tag k="addr:street" v="Main Street" />
    <tag k="addr:state" v="VT" />
    <tag k="ref:vcgi:esiteid" v="284939" />
  </node>
  <node id="-451" visible="true" lat="43.28787811" lon="-72.79293491">
    <tag k="addr:city" v="Weston" />
    <tag k="addr:housenumber" v="613" />
    <tag k="addr:street" v="Main Street" />
    <tag k="addr:state" v="VT" />
    <tag k="ref:vcgi:esiteid" v="284940" />
  </node>
  <node id="-452" visible="true" lat="43.28767774" lon="-72.79335808">
    <tag k="addr:city" v="Weston" />
    <tag k="addr:housenumber" v="614" />
    <tag k="addr:street" v="Main Street" />
    <tag k="addr:state" v="VT" />
    <tag k="ref:vcgi:esiteid" v="284941" />
  </node>
  <node id="-453" visible="true" lat="43.2875249" lon="-72.80532827">
    <tag k="addr:city" v="Weston" />
    <tag k="addr:housenumber" v="51" />
    <tag k="addr:street" v="Morgan Hill Road" />
    <tag k="addr:state" v="VT" />
    <tag k="ref:vcgi:esiteid" v="284942" />
  </node>
  <node id="-454" visible="true" lat="43.2864247" lon="-72.81574579">
    <tag k="addr:city" v="Weston" />
    <tag k="addr:housenumber" v="48" />
    <tag k="addr:street" v="Holden Hill Road" />
    <tag k="addr:state" v="VT" />
    <tag k="ref:vcgi:esiteid" v="284944" />
  </node>
  <node id="-455" visible="true" lat="43.2863866" lon="-72.78923697">
    <tag k="addr:city" v="Weston" />
    <tag k="addr:housenumber" v="74" />
    <tag k="addr:street" v="Piper Hill Road" />
    <tag k="addr:state" v="VT" />
    <tag k="ref:vcgi:esiteid" v="284945" />
  </node>
  <node id="-456" visible="true" lat="43.28615209" lon="-72.80553251">
    <tag k="addr:city" v="Weston" />
    <tag k="addr:housenumber" v="75" />
    <tag k="addr:street" v="Morgan Hill Road" />
    <tag k="addr:state" v="VT" />
    <tag k="ref:vcgi:esiteid" v="284946" />
  </node>
  <node id="-457" visible="true" lat="43.28619962" lon="-72.79263509">
    <tag k="addr:city" v="Weston" />
    <tag k="addr:housenumber" v="14" />
    <tag k="addr:street" v="Piper Hill Road" />
    <tag k="addr:state" v="VT" />
    <tag k="ref:vcgi:esiteid" v="284947" />
  </node>
  <node id="-458" visible="true" lat="43.28546215" lon="-72.81825841">
    <tag k="addr:city" v="Weston" />
    <tag k="addr:housenumber" v="79" />
    <tag k="addr:street" v="Holden Hill Road" />
    <tag k="addr:state" v="VT" />
    <tag k="ref:vcgi:esiteid" v="284948" />
  </node>
  <node id="-459" visible="true" lat="43.28552051" lon="-72.79178122">
    <tag k="addr:city" v="Weston" />
    <tag k="addr:housenumber" v="16" />
    <tag k="addr:street" v="Piper Hill Road" />
    <tag k="addr:state" v="VT" />
    <tag k="ref:vcgi:esiteid" v="284949" />
  </node>
  <node id="-460" visible="true" lat="43.28474833" lon="-72.81633567">
    <tag k="addr:city" v="Weston" />
    <tag k="addr:housenumber" v="80" />
    <tag k="addr:street" v="Holden Hill Road" />
    <tag k="addr:state" v="VT" />
    <tag k="ref:vcgi:esiteid" v="284950" />
  </node>
  <node id="-461" visible="true" lat="43.2849099" lon="-72.79129259">
    <tag k="addr:city" v="Weston" />
    <tag k="addr:housenumber" v="26" />
    <tag k="addr:street" v="Piper Hill Road" />
    <tag k="addr:state" v="VT" />
    <tag k="ref:vcgi:esiteid" v="284951" />
  </node>
  <node id="-462" visible="true" lat="43.28428853" lon="-72.79073988">
    <tag k="addr:city" v="Weston" />
    <tag k="addr:housenumber" v="38" />
    <tag k="addr:street" v="Piper Hill Road" />
    <tag k="addr:state" v="VT" />
    <tag k="ref:vcgi:esiteid" v="284952" />
  </node>
  <node id="-463" visible="true" lat="43.28388902" lon="-72.81572922">
    <tag k="addr:city" v="Weston" />
    <tag k="addr:housenumber" v="96" />
    <tag k="addr:street" v="Holden Hill Road" />
    <tag k="addr:state" v="VT" />
    <tag k="ref:vcgi:esiteid" v="284953" />
  </node>
  <node id="-464" visible="true" lat="43.28350439" lon="-72.78755262">
    <tag k="addr:city" v="Weston" />
    <tag k="addr:housenumber" v="84" />
    <tag k="addr:street" v="Piper Hill Road" />
    <tag k="addr:state" v="VT" />
    <tag k="ref:vcgi:esiteid" v="284954" />
  </node>
  <node id="-465" visible="true" lat="43.28340443" lon="-72.81723608">
    <tag k="addr:city" v="Weston" />
    <tag k="addr:housenumber" v="99" />
    <tag k="addr:street" v="Holden Hill Road" />
    <tag k="addr:state" v="VT" />
    <tag k="ref:vcgi:esiteid" v="284955" />
  </node>
  <node id="-466" visible="true" lat="43.28324709" lon="-72.79008925">
    <tag k="addr:city" v="Weston" />
    <tag k="addr:housenumber" v="50" />
    <tag k="addr:street" v="Piper Hill Road" />
    <tag k="addr:state" v="VT" />
    <tag k="ref:vcgi:esiteid" v="284956" />
  </node>
  <node id="-467" visible="true" lat="43.28271289" lon="-72.78937066">
    <tag k="addr:city" v="Weston" />
    <tag k="addr:housenumber" v="64" />
    <tag k="addr:street" v="Piper Hill Road" />
    <tag k="addr:state" v="VT" />
    <tag k="ref:vcgi:esiteid" v="284957" />
  </node>
  <node id="-468" visible="true" lat="43.28256293" lon="-72.80517827">
    <tag k="addr:city" v="Weston" />
    <tag k="addr:housenumber" v="125" />
    <tag k="addr:street" v="Morgan Hill Road" />
    <tag k="addr:state" v="VT" />
    <tag k="ref:vcgi:esiteid" v="284958" />
  </node>
  <node id="-469" visible="true" lat="43.28252222" lon="-72.78656738">
    <tag k="addr:city" v="Weston" />
    <tag k="addr:housenumber" v="116" />
    <tag k="addr:street" v="Piper Hill Road" />
    <tag k="addr:state" v="VT" />
    <tag k="ref:vcgi:esiteid" v="284959" />
  </node>
  <node id="-470" visible="true" lat="43.28189751" lon="-72.81719309">
    <tag k="addr:city" v="Weston" />
    <tag k="addr:housenumber" v="123" />
    <tag k="addr:street" v="Holden Hill Road" />
    <tag k="addr:state" v="VT" />
    <tag k="ref:vcgi:esiteid" v="284960" />
  </node>
  <node id="-471" visible="true" lat="43.28156474" lon="-72.78711419">
    <tag k="addr:city" v="Weston" />
    <tag k="addr:housenumber" v="88" />
    <tag k="addr:street" v="Piper Hill Road" />
    <tag k="addr:state" v="VT" />
    <tag k="ref:vcgi:esiteid" v="284961" />
  </node>
  <node id="-472" visible="true" lat="43.28143881" lon="-72.78794365">
    <tag k="addr:city" v="Weston" />
    <tag k="addr:housenumber" v="83" />
    <tag k="addr:street" v="Piper Hill Road" />
    <tag k="addr:state" v="VT" />
    <tag k="ref:vcgi:esiteid" v="284962" />
  </node>
  <node id="-473" visible="true" lat="43.28135304" lon="-72.7864351">
    <tag k="addr:city" v="Weston" />
    <tag k="addr:housenumber" v="114" />
    <tag k="addr:street" v="Piper Hill Road" />
    <tag k="addr:state" v="VT" />
    <tag k="ref:vcgi:esiteid" v="284963" />
  </node>
  <node id="-474" visible="true" lat="43.2804948" lon="-72.78335458">
    <tag k="addr:city" v="Weston" />
    <tag k="addr:housenumber" v="142" />
    <tag k="addr:street" v="Piper Hill Road" />
    <tag k="addr:state" v="VT" />
    <tag k="ref:vcgi:esiteid" v="284965" />
  </node>
  <node id="-475" visible="true" lat="43.28027858" lon="-72.79282793">
    <tag k="addr:city" v="Weston" />
    <tag k="addr:housenumber" v="496" />
    <tag k="addr:street" v="Vermont Route 100" />
    <tag k="addr:state" v="VT" />
    <tag k="ref:vcgi:esiteid" v="284966" />
  </node>
  <node id="-476" visible="true" lat="43.27963494" lon="-72.81860679">
    <tag k="addr:city" v="Weston" />
    <tag k="addr:housenumber" v="155" />
    <tag k="addr:street" v="Holden Hill Road" />
    <tag k="addr:state" v="VT" />
    <tag k="ref:vcgi:esiteid" v="284967" />
  </node>
  <node id="-477" visible="true" lat="43.27970507" lon="-72.78523482">
    <tag k="addr:city" v="Weston" />
    <tag k="addr:housenumber" v="123" />
    <tag k="addr:street" v="Piper Hill Road" />
    <tag k="addr:state" v="VT" />
    <tag k="ref:vcgi:esiteid" v="284968" />
  </node>
  <node id="-478" visible="true" lat="43.27954866" lon="-72.81286972">
    <tag k="addr:city" v="Weston" />
    <tag k="addr:housenumber" v="146" />
    <tag k="addr:street" v="Holden Hill Road" />
    <tag k="addr:state" v="VT" />
    <tag k="ref:vcgi:esiteid" v="284969" />
  </node>
  <node id="-479" visible="true" lat="43.2787136" lon="-72.81712509">
    <tag k="addr:city" v="Weston" />
    <tag k="addr:housenumber" v="170" />
    <tag k="addr:street" v="Holden Hill Road" />
    <tag k="addr:state" v="VT" />
    <tag k="ref:vcgi:esiteid" v="284970" />
  </node>
  <node id="-480" visible="true" lat="43.27876096" lon="-72.78415624">
    <tag k="addr:city" v="Weston" />
    <tag k="addr:housenumber" v="137" />
    <tag k="addr:street" v="Piper Hill Road" />
    <tag k="addr:state" v="VT" />
    <tag k="ref:vcgi:esiteid" v="284971" />
  </node>
  <node id="-481" visible="true" lat="43.27796079" lon="-72.81105422">
    <tag k="addr:city" v="Weston" />
    <tag k="addr:housenumber" v="148" />
    <tag k="addr:street" v="Holden Hill Road" />
    <tag k="addr:state" v="VT" />
    <tag k="ref:vcgi:esiteid" v="284972" />
  </node>
  <node id="-482" visible="true" lat="43.2776778" lon="-72.8180079">
    <tag k="addr:city" v="Weston" />
    <tag k="addr:housenumber" v="185" />
    <tag k="addr:street" v="Holden Hill Road" />
    <tag k="addr:state" v="VT" />
    <tag k="ref:vcgi:esiteid" v="284973" />
  </node>
  <node id="-483" visible="true" lat="43.27764469" lon="-72.816901">
    <tag k="addr:city" v="Weston" />
    <tag k="addr:housenumber" v="186" />
    <tag k="addr:street" v="Holden Hill Road" />
    <tag k="addr:state" v="VT" />
    <tag k="ref:vcgi:esiteid" v="284974" />
  </node>
  <node id="-484" visible="true" lat="43.27650235" lon="-72.77977235">
    <tag k="addr:city" v="Weston" />
    <tag k="addr:housenumber" v="198" />
    <tag k="addr:street" v="Piper Hill Road" />
    <tag k="addr:state" v="VT" />
    <tag k="ref:vcgi:esiteid" v="284975" />
  </node>
  <node id="-485" visible="true" lat="43.27638729" lon="-72.78964546">
    <tag k="addr:city" v="Weston" />
    <tag k="addr:housenumber" v="440" />
    <tag k="addr:street" v="Vermont Route 100" />
    <tag k="addr:state" v="VT" />
    <tag k="ref:vcgi:esiteid" v="284976" />
  </node>
  <node id="-486" visible="true" lat="43.27642491" lon="-72.77582773">
    <tag k="addr:city" v="Weston" />
    <tag k="addr:housenumber" v="240" />
    <tag k="addr:street" v="Piper Hill Road" />
    <tag k="addr:state" v="VT" />
    <tag k="ref:vcgi:esiteid" v="284977" />
  </node>
  <node id="-487" visible="true" lat="43.27621449" lon="-72.81723376">
    <tag k="addr:city" v="Weston" />
    <tag k="addr:housenumber" v="208" />
    <tag k="addr:street" v="Holden Hill Road" />
    <tag k="addr:state" v="VT" />
    <tag k="ref:vcgi:esiteid" v="284978" />
  </node>
  <node id="-488" visible="true" lat="43.27614746" lon="-72.81798554">
    <tag k="addr:city" v="Weston" />
    <tag k="addr:housenumber" v="209" />
    <tag k="addr:street" v="Holden Hill Road" />
    <tag k="addr:state" v="VT" />
    <tag k="ref:vcgi:esiteid" v="284979" />
  </node>
  <node id="-489" visible="true" lat="43.27590859" lon="-72.81749447">
    <tag k="addr:city" v="Weston" />
    <tag k="addr:housenumber" v="210" />
    <tag k="addr:street" v="Holden Hill Road" />
    <tag k="addr:state" v="VT" />
    <tag k="ref:vcgi:esiteid" v="284980" />
  </node>
  <node id="-490" visible="true" lat="43.27595045" lon="-72.77957112">
    <tag k="addr:city" v="Weston" />
    <tag k="addr:housenumber" v="203" />
    <tag k="addr:street" v="Piper Hill Road" />
    <tag k="addr:state" v="VT" />
    <tag k="ref:vcgi:esiteid" v="284981" />
  </node>
  <node id="-491" visible="true" lat="43.27543451" lon="-72.7768325">
    <tag k="addr:city" v="Weston" />
    <tag k="addr:housenumber" v="234" />
    <tag k="addr:street" v="Piper Hill Road" />
    <tag k="addr:state" v="VT" />
    <tag k="ref:vcgi:esiteid" v="284982" />
  </node>
  <node id="-492" visible="true" lat="43.27504381" lon="-72.81731241">
    <tag k="addr:city" v="Weston" />
    <tag k="addr:housenumber" v="222" />
    <tag k="addr:street" v="Holden Hill Road" />
    <tag k="addr:state" v="VT" />
    <tag k="ref:vcgi:esiteid" v="284983" />
  </node>
  <node id="-493" visible="true" lat="43.27511315" lon="-72.77585548">
    <tag k="addr:city" v="Weston" />
    <tag k="addr:housenumber" v="248" />
    <tag k="addr:street" v="Piper Hill Road" />
    <tag k="addr:state" v="VT" />
    <tag k="ref:vcgi:esiteid" v="284984" />
  </node>
  <node id="-494" visible="true" lat="43.2740172" lon="-72.77722317">
    <tag k="addr:city" v="Weston" />
    <tag k="addr:housenumber" v="273" />
    <tag k="addr:street" v="Piper Hill Road" />
    <tag k="addr:state" v="VT" />
    <tag k="ref:vcgi:esiteid" v="284987" />
  </node>
  <node id="-495" visible="true" lat="43.27340694" lon="-72.81666354">
    <tag k="addr:city" v="Weston" />
    <tag k="addr:housenumber" v="246" />
    <tag k="addr:street" v="Holden Hill Road" />
    <tag k="addr:state" v="VT" />
    <tag k="ref:vcgi:esiteid" v="284988" />
  </node>
  <node id="-496" visible="true" lat="43.2734719" lon="-72.78754353">
    <tag k="addr:city" v="Weston" />
    <tag k="addr:housenumber" v="14" />
    <tag k="addr:street" v="Dale Road" />
    <tag k="addr:state" v="VT" />
    <tag k="ref:vcgi:esiteid" v="284989" />
  </node>
  <node id="-497" visible="true" lat="43.27338694" lon="-72.78615954">
    <tag k="addr:city" v="Weston" />
    <tag k="addr:housenumber" v="26" />
    <tag k="addr:street" v="Dale Road" />
    <tag k="addr:state" v="VT" />
    <tag k="ref:vcgi:esiteid" v="284990" />
  </node>
  <node id="-498" visible="true" lat="43.27321927" lon="-72.77193339">
    <tag k="addr:city" v="Weston" />
    <tag k="addr:housenumber" v="282" />
    <tag k="addr:street" v="Piper Hill Road" />
    <tag k="addr:state" v="VT" />
    <tag k="ref:vcgi:esiteid" v="284991" />
  </node>
  <node id="-499" visible="true" lat="43.27322184" lon="-72.7892353">
    <tag k="addr:city" v="Weston" />
    <tag k="addr:housenumber" v="392" />
    <tag k="addr:street" v="Vermont Route 100" />
    <tag k="addr:state" v="VT" />
    <tag k="ref:vcgi:esiteid" v="284992" />
  </node>
  <node id="-500" visible="true" lat="43.2722016" lon="-72.78512901">
    <tag k="addr:city" v="Weston" />
    <tag k="addr:housenumber" v="39" />
    <tag k="addr:street" v="Dale Road" />
    <tag k="addr:state" v="VT" />
    <tag k="ref:vcgi:esiteid" v="284994" />
  </node>
  <node id="-501" visible="true" lat="43.27223371" lon="-72.78298404">
    <tag k="addr:city" v="Weston" />
    <tag k="addr:housenumber" v="62" />
    <tag k="addr:street" v="Dale Road" />
    <tag k="addr:state" v="VT" />
    <tag k="ref:vcgi:esiteid" v="284995" />
  </node>
  <node id="-502" visible="true" lat="43.27211864" lon="-72.78472073">
    <tag k="addr:city" v="Weston" />
    <tag k="addr:housenumber" v="45" />
    <tag k="addr:street" v="Dale Road" />
    <tag k="addr:state" v="VT" />
    <tag k="ref:vcgi:esiteid" v="284996" />
  </node>
  <node id="-503" visible="true" lat="43.27208131" lon="-72.78667102">
    <tag k="addr:city" v="Weston" />
    <tag k="addr:housenumber" v="17" />
    <tag k="addr:street" v="Dale Road" />
    <tag k="addr:state" v="VT" />
    <tag k="ref:vcgi:esiteid" v="284997" />
  </node>
  <node id="-504" visible="true" lat="43.27168729" lon="-72.817292">
    <tag k="addr:city" v="Weston" />
    <tag k="addr:housenumber" v="270" />
    <tag k="addr:street" v="Holden Hill Road" />
    <tag k="addr:state" v="VT" />
    <tag k="ref:vcgi:esiteid" v="284998" />
  </node>
  <node id="-505" visible="true" lat="43.27151108" lon="-72.79854624">
    <tag k="addr:city" v="Weston" />
    <tag k="addr:housenumber" v="294" />
    <tag k="addr:street" v="Vermont Route 100" />
    <tag k="addr:state" v="VT" />
    <tag k="ref:vcgi:esiteid" v="284999" />
  </node>
  <node id="-506" visible="true" lat="43.2712937" lon="-72.81433513">
    <tag k="addr:city" v="Weston" />
    <tag k="addr:housenumber" v="30" />
    <tag k="addr:street" v="Summit Trail Road" />
    <tag k="addr:state" v="VT" />
    <tag k="ref:vcgi:esiteid" v="285000" />
  </node>
  <node id="-507" visible="true" lat="43.27137145" lon="-72.77799944">
    <tag k="addr:city" v="Weston" />
    <tag k="addr:housenumber" v="128" />
    <tag k="addr:street" v="Dale Road" />
    <tag k="addr:state" v="VT" />
    <tag k="ref:vcgi:esiteid" v="285002" />
  </node>
  <node id="-508" visible="true" lat="43.27102306" lon="-72.77951365">
    <tag k="addr:city" v="Weston" />
    <tag k="addr:housenumber" v="100" />
    <tag k="addr:street" v="Dale Road" />
    <tag k="addr:state" v="VT" />
    <tag k="ref:vcgi:esiteid" v="285003" />
  </node>
  <node id="-509" visible="true" lat="43.27082741" lon="-72.77614488">
    <tag k="addr:city" v="Weston" />
    <tag k="addr:housenumber" v="307" />
    <tag k="addr:street" v="Piper Hill Road" />
    <tag k="addr:state" v="VT" />
    <tag k="ref:vcgi:esiteid" v="285004" />
  </node>
  <node id="-510" visible="true" lat="43.27076361" lon="-72.8156703">
    <tag k="addr:city" v="Weston" />
    <tag k="addr:housenumber" v="26" />
    <tag k="addr:street" v="Summit Trail Road" />
    <tag k="addr:state" v="VT" />
    <tag k="ref:vcgi:esiteid" v="285005" />
  </node>
  <node id="-511" visible="true" lat="43.27058327" lon="-72.8142992">
    <tag k="addr:city" v="Weston" />
    <tag k="addr:housenumber" v="36" />
    <tag k="addr:street" v="Summit Trail Road" />
    <tag k="addr:state" v="VT" />
    <tag k="ref:vcgi:esiteid" v="285006" />
  </node>
  <node id="-512" visible="true" lat="43.27052222" lon="-72.81294125">
    <tag k="addr:city" v="Weston" />
    <tag k="addr:housenumber" v="54" />
    <tag k="addr:street" v="Summit Trail Road" />
    <tag k="addr:state" v="VT" />
    <tag k="ref:vcgi:esiteid" v="285007" />
  </node>
  <node id="-513" visible="true" lat="43.27037378" lon="-72.81158991">
    <tag k="addr:city" v="Weston" />
    <tag k="addr:housenumber" v="66" />
    <tag k="addr:street" v="Summit Trail Road" />
    <tag k="addr:state" v="VT" />
    <tag k="ref:vcgi:esiteid" v="285008" />
  </node>
  <node id="-514" visible="true" lat="43.27030988" lon="-72.77282148">
    <tag k="addr:city" v="Weston" />
    <tag k="addr:housenumber" v="178" />
    <tag k="addr:street" v="Dale Road" />
    <tag k="addr:state" v="VT" />
    <tag k="ref:vcgi:esiteid" v="285009" />
  </node>
  <node id="-515" visible="true" lat="43.26979154" lon="-72.81067447">
    <tag k="addr:city" v="Weston" />
    <tag k="addr:housenumber" v="76" />
    <tag k="addr:street" v="Summit Trail Road" />
    <tag k="addr:state" v="VT" />
    <tag k="ref:vcgi:esiteid" v="285010" />
  </node>
  <node id="-516" visible="true" lat="43.26979833" lon="-72.77656874">
    <tag k="addr:city" v="Weston" />
    <tag k="addr:housenumber" v="139" />
    <tag k="addr:street" v="Dale Road" />
    <tag k="addr:state" v="VT" />
    <tag k="ref:vcgi:esiteid" v="285011" />
  </node>
  <node id="-517" visible="true" lat="43.26961819" lon="-72.81407242">
    <tag k="addr:city" v="Weston" />
    <tag k="addr:housenumber" v="45" />
    <tag k="addr:street" v="Summit Trail Road" />
    <tag k="addr:state" v="VT" />
    <tag k="ref:vcgi:esiteid" v="285012" />
  </node>
  <node id="-518" visible="true" lat="43.26937863" lon="-72.78841425">
    <tag k="addr:city" v="Weston" />
    <tag k="addr:housenumber" v="335" />
    <tag k="addr:street" v="Vermont Route 100" />
    <tag k="addr:state" v="VT" />
    <tag k="ref:vcgi:esiteid" v="285013" />
  </node>
  <node id="-519" visible="true" lat="43.26914211" lon="-72.8127344">
    <tag k="addr:city" v="Weston" />
    <tag k="addr:housenumber" v="63" />
    <tag k="addr:street" v="Summit Trail Road" />
    <tag k="addr:state" v="VT" />
    <tag k="ref:vcgi:esiteid" v="285014" />
  </node>
  <node id="-520" visible="true" lat="43.26906392" lon="-72.8176908">
    <tag k="addr:city" v="Weston" />
    <tag k="addr:housenumber" v="306" />
    <tag k="addr:street" v="Holden Hill Road" />
    <tag k="addr:state" v="VT" />
    <tag k="ref:vcgi:esiteid" v="285015" />
  </node>
  <node id="-521" visible="true" lat="43.26906742" lon="-72.78980565">
    <tag k="addr:city" v="Weston" />
    <tag k="addr:housenumber" v="324" />
    <tag k="addr:street" v="Vermont Route 100" />
    <tag k="addr:state" v="VT" />
    <tag k="ref:vcgi:esiteid" v="285016" />
  </node>
  <node id="-522" visible="true" lat="43.26863174" lon="-72.81113351">
    <tag k="addr:city" v="Weston" />
    <tag k="addr:housenumber" v="81" />
    <tag k="addr:street" v="Summit Trail Road" />
    <tag k="addr:state" v="VT" />
    <tag k="ref:vcgi:esiteid" v="285017" />
  </node>
  <node id="-523" visible="true" lat="43.26862185" lon="-72.81326222">
    <tag k="addr:city" v="Weston" />
    <tag k="addr:housenumber" v="37" />
    <tag k="addr:street" v="Loop Road" />
    <tag k="addr:state" v="VT" />
    <tag k="ref:vcgi:esiteid" v="285018" />
  </node>
  <node id="-524" visible="true" lat="43.26875112" lon="-72.77529906">
    <tag k="addr:city" v="Weston" />
    <tag k="addr:housenumber" v="336" />
    <tag k="addr:street" v="Piper Hill Road" />
    <tag k="addr:state" v="VT" />
    <tag k="ref:vcgi:esiteid" v="285019" />
  </node>
  <node id="-525" visible="true" lat="43.26857949" lon="-72.77024571">
    <tag k="addr:city" v="Weston" />
    <tag k="addr:housenumber" v="204" />
    <tag k="addr:street" v="Dale Road" />
    <tag k="addr:state" v="VT" />
    <tag k="ref:vcgi:esiteid" v="285020" />
  </node>
  <node id="-526" visible="true" lat="43.2683851" lon="-72.77592566">
    <tag k="addr:city" v="Weston" />
    <tag k="addr:housenumber" v="341" />
    <tag k="addr:street" v="Piper Hill Road" />
    <tag k="addr:state" v="VT" />
    <tag k="ref:vcgi:esiteid" v="285021" />
  </node>
  <node id="-527" visible="true" lat="43.26834876" lon="-72.77403161">
    <tag k="addr:city" v="Weston" />
    <tag k="addr:housenumber" v="17" />
    <tag k="addr:street" v="Wadleigh Lane" />
    <tag k="addr:state" v="VT" />
    <tag k="ref:vcgi:esiteid" v="285022" />
  </node>
  <node id="-528" visible="true" lat="43.26813509" lon="-72.81414106">
    <tag k="addr:city" v="Weston" />
    <tag k="addr:housenumber" v="31" />
    <tag k="addr:street" v="Loop Road" />
    <tag k="addr:state" v="VT" />
    <tag k="ref:vcgi:esiteid" v="285023" />
  </node>
  <node id="-529" visible="true" lat="43.26803588" lon="-72.809811">
    <tag k="addr:city" v="Weston" />
    <tag k="addr:housenumber" v="95" />
    <tag k="addr:street" v="Summit Trail Road" />
    <tag k="addr:state" v="VT" />
    <tag k="ref:vcgi:esiteid" v="285024" />
  </node>
  <node id="-530" visible="true" lat="43.26796536" lon="-72.787971">
    <tag k="addr:city" v="Weston" />
    <tag k="addr:housenumber" v="315" />
    <tag k="addr:street" v="Vermont Route 100" />
    <tag k="addr:state" v="VT" />
    <tag k="ref:vcgi:esiteid" v="285025" />
  </node>
  <node id="-531" visible="true" lat="43.26771366" lon="-72.77539699">
    <tag k="addr:city" v="Weston" />
    <tag k="addr:housenumber" v="352" />
    <tag k="addr:street" v="Piper Hill Road" />
    <tag k="addr:state" v="VT" />
    <tag k="ref:vcgi:esiteid" v="285026" />
  </node>
  <node id="-532" visible="true" lat="43.26727306" lon="-72.81563451">
    <tag k="addr:city" v="Weston" />
    <tag k="addr:housenumber" v="316" />
    <tag k="addr:street" v="Holden Hill Road" />
    <tag k="addr:state" v="VT" />
    <tag k="ref:vcgi:esiteid" v="285027" />
  </node>
  <node id="-533" visible="true" lat="43.26689335" lon="-72.81570717">
    <tag k="addr:city" v="Weston" />
    <tag k="addr:housenumber" v="314" />
    <tag k="addr:street" v="Holden Hill Road" />
    <tag k="addr:state" v="VT" />
    <tag k="ref:vcgi:esiteid" v="285028" />
  </node>
  <node id="-534" visible="true" lat="43.26700213" lon="-72.77644058">
    <tag k="addr:city" v="Weston" />
    <tag k="addr:housenumber" v="365" />
    <tag k="addr:street" v="Piper Hill Road" />
    <tag k="addr:state" v="VT" />
    <tag k="ref:vcgi:esiteid" v="285029" />
  </node>
  <node id="-535" visible="true" lat="43.26707454" lon="-72.76352024">
    <tag k="addr:city" v="Weston" />
    <tag k="addr:housenumber" v="294" />
    <tag k="addr:street" v="Dale Road" />
    <tag k="addr:state" v="VT" />
    <tag k="ref:vcgi:esiteid" v="285030" />
  </node>
  <node id="-536" visible="true" lat="43.26697363" lon="-72.77597416">
    <tag k="addr:city" v="Weston" />
    <tag k="addr:housenumber" v="363" />
    <tag k="addr:street" v="Piper Hill Road" />
    <tag k="addr:state" v="VT" />
    <tag k="ref:vcgi:esiteid" v="285031" />
  </node>
  <node id="-537" visible="true" lat="43.26680758" lon="-72.7763948">
    <tag k="addr:city" v="Weston" />
    <tag k="addr:housenumber" v="367" />
    <tag k="addr:street" v="Piper Hill Road" />
    <tag k="addr:state" v="VT" />
    <tag k="ref:vcgi:esiteid" v="285032" />
  </node>
  <node id="-538" visible="true" lat="43.26663028" lon="-72.77816413">
    <tag k="addr:city" v="Weston" />
    <tag k="addr:housenumber" v="377" />
    <tag k="addr:street" v="Piper Hill Road" />
    <tag k="addr:state" v="VT" />
    <tag k="ref:vcgi:esiteid" v="285033" />
  </node>
  <node id="-539" visible="true" lat="43.26657147" lon="-72.78758592">
    <tag k="addr:city" v="Weston" />
    <tag k="addr:housenumber" v="287" />
    <tag k="addr:street" v="Vermont Route 100" />
    <tag k="addr:state" v="VT" />
    <tag k="ref:vcgi:esiteid" v="285034" />
  </node>
  <node id="-540" visible="true" lat="43.26635536" lon="-72.78832387">
    <tag k="addr:city" v="Weston" />
    <tag k="addr:housenumber" v="288" />
    <tag k="addr:street" v="Vermont Route 100" />
    <tag k="addr:state" v="VT" />
    <tag k="ref:vcgi:esiteid" v="285035" />
  </node>
  <node id="-541" visible="true" lat="43.26631926" lon="-72.77625281">
    <tag k="addr:city" v="Weston" />
    <tag k="addr:housenumber" v="371" />
    <tag k="addr:street" v="Piper Hill Road" />
    <tag k="addr:state" v="VT" />
    <tag k="ref:vcgi:esiteid" v="285036" />
  </node>
  <node id="-542" visible="true" lat="43.26597589" lon="-72.80964205">
    <tag k="addr:city" v="Weston" />
    <tag k="addr:housenumber" v="88" />
    <tag k="addr:street" v="Highland View Road" />
    <tag k="addr:state" v="VT" />
    <tag k="ref:vcgi:esiteid" v="285037" />
  </node>
  <node id="-543" visible="true" lat="43.26604842" lon="-72.77501166">
    <tag k="addr:city" v="Weston" />
    <tag k="addr:housenumber" v="380" />
    <tag k="addr:street" v="Piper Hill Road" />
    <tag k="addr:state" v="VT" />
    <tag k="ref:vcgi:esiteid" v="285038" />
  </node>
  <node id="-544" visible="true" lat="43.26602174" lon="-72.75761731">
    <tag k="addr:city" v="Weston" />
    <tag k="addr:housenumber" v="360" />
    <tag k="addr:street" v="Dale Road" />
    <tag k="addr:state" v="VT" />
    <tag k="ref:vcgi:esiteid" v="285039" />
  </node>
  <node id="-545" visible="true" lat="43.26602021" lon="-72.77804329">
    <tag k="addr:city" v="Weston" />
    <tag k="addr:housenumber" v="391" />
    <tag k="addr:street" v="Piper Hill Road" />
    <tag k="addr:state" v="VT" />
    <tag k="ref:vcgi:esiteid" v="285040" />
  </node>
  <node id="-546" visible="true" lat="43.26549749" lon="-72.78818038">
    <tag k="addr:city" v="Weston" />
    <tag k="addr:housenumber" v="278" />
    <tag k="addr:street" v="Vermont Route 100" />
    <tag k="addr:state" v="VT" />
    <tag k="ref:vcgi:esiteid" v="285041" />
  </node>
  <node id="-547" visible="true" lat="43.2656821" lon="-72.76212965">
    <tag k="addr:city" v="Weston" />
    <tag k="addr:housenumber" v="310" />
    <tag k="addr:street" v="Dale Road" />
    <tag k="addr:state" v="VT" />
    <tag k="ref:vcgi:esiteid" v="285042" />
  </node>
  <node id="-548" visible="true" lat="43.26558799" lon="-72.76422712">
    <tag k="addr:city" v="Weston" />
    <tag k="addr:housenumber" v="293" />
    <tag k="addr:street" v="Dale Road" />
    <tag k="addr:state" v="VT" />
    <tag k="ref:vcgi:esiteid" v="285043" />
  </node>
  <node id="-549" visible="true" lat="43.2651916" lon="-72.80768174">
    <tag k="addr:city" v="Weston" />
    <tag k="addr:housenumber" v="106" />
    <tag k="addr:street" v="Highland View Road" />
    <tag k="addr:state" v="VT" />
    <tag k="ref:vcgi:esiteid" v="285044" />
  </node>
  <node id="-550" visible="true" lat="43.26509469" lon="-72.8097413">
    <tag k="addr:city" v="Weston" />
    <tag k="addr:housenumber" v="84" />
    <tag k="addr:street" v="Highland View Road" />
    <tag k="addr:state" v="VT" />
    <tag k="ref:vcgi:esiteid" v="285045" />
  </node>
  <node id="-551" visible="true" lat="43.26518264" lon="-72.77509919">
    <tag k="addr:city" v="Weston" />
    <tag k="addr:housenumber" v="392" />
    <tag k="addr:street" v="Piper Hill Road" />
    <tag k="addr:state" v="VT" />
    <tag k="ref:vcgi:esiteid" v="285046" />
  </node>
  <node id="-552" visible="true" lat="43.26491763" lon="-72.80641188">
    <tag k="addr:city" v="Weston" />
    <tag k="addr:housenumber" v="118" />
    <tag k="addr:street" v="Highland View Road" />
    <tag k="addr:state" v="VT" />
    <tag k="ref:vcgi:esiteid" v="285047" />
  </node>
  <node id="-553" visible="true" lat="43.26461412" lon="-72.80867501">
    <tag k="addr:city" v="Weston" />
    <tag k="addr:housenumber" v="85" />
    <tag k="addr:street" v="Highland View Road" />
    <tag k="addr:state" v="VT" />
    <tag k="ref:vcgi:esiteid" v="285048" />
  </node>
  <node id="-554" visible="true" lat="43.26406856" lon="-72.81038952">
    <tag k="addr:city" v="Weston" />
    <tag k="addr:housenumber" v="72" />
    <tag k="addr:street" v="Highland View Road" />
    <tag k="addr:state" v="VT" />
    <tag k="ref:vcgi:esiteid" v="285049" />
  </node>
  <node id="-555" visible="true" lat="43.26396735" lon="-72.81656023">
    <tag k="addr:city" v="Weston" />
    <tag k="addr:housenumber" v="383" />
    <tag k="addr:street" v="Holden Hill Road" />
    <tag k="addr:state" v="VT" />
    <tag k="ref:vcgi:esiteid" v="285050" />
  </node>
  <node id="-556" visible="true" lat="43.26414292" lon="-72.78644043">
    <tag k="addr:city" v="Weston" />
    <tag k="addr:housenumber" v="255" />
    <tag k="addr:street" v="Vermont Route 100" />
    <tag k="addr:state" v="VT" />
    <tag k="ref:vcgi:esiteid" v="285051" />
  </node>
  <node id="-557" visible="true" lat="43.26375035" lon="-72.80630499">
    <tag k="addr:city" v="Weston" />
    <tag k="addr:housenumber" v="119" />
    <tag k="addr:street" v="Highland View Road" />
    <tag k="addr:state" v="VT" />
    <tag k="ref:vcgi:esiteid" v="285052" />
  </node>
  <node id="-558" visible="true" lat="43.26384407" lon="-72.787564">
    <tag k="addr:city" v="Weston" />
    <tag k="addr:housenumber" v="252" />
    <tag k="addr:street" v="Vermont Route 100" />
    <tag k="addr:state" v="VT" />
    <tag k="ref:vcgi:esiteid" v="285053" />
  </node>
  <node id="-559" visible="true" lat="43.26356553" lon="-72.80828434">
    <tag k="addr:city" v="Weston" />
    <tag k="addr:housenumber" v="53" />
    <tag k="addr:street" v="Highland View Road" />
    <tag k="addr:state" v="VT" />
    <tag k="ref:vcgi:esiteid" v="285054" />
  </node>
  <node id="-560" visible="true" lat="43.26355272" lon="-72.80392536">
    <tag k="addr:city" v="Weston" />
    <tag k="addr:housenumber" v="142" />
    <tag k="addr:street" v="Highland View Road" />
    <tag k="addr:state" v="VT" />
    <tag k="ref:vcgi:esiteid" v="285055" />
  </node>
  <node id="-561" visible="true" lat="43.26339722" lon="-72.75948977">
    <tag k="addr:city" v="Weston" />
    <tag k="addr:housenumber" v="345" />
    <tag k="addr:street" v="Dale Road" />
    <tag k="addr:state" v="VT" />
    <tag k="ref:vcgi:esiteid" v="285056" />
  </node>
  <node id="-562" visible="true" lat="43.26326748" lon="-72.81392951">
    <tag k="addr:city" v="Weston" />
    <tag k="addr:housenumber" v="419" />
    <tag k="addr:street" v="Holden Hill Road" />
    <tag k="addr:state" v="VT" />
    <tag k="ref:vcgi:esiteid" v="285057" />
  </node>
  <node id="-563" visible="true" lat="43.26308269" lon="-72.80930699">
    <tag k="addr:city" v="Weston" />
    <tag k="addr:housenumber" v="62" />
    <tag k="addr:street" v="Highland View Road" />
    <tag k="addr:state" v="VT" />
    <tag k="ref:vcgi:esiteid" v="285058" />
  </node>
  <node id="-564" visible="true" lat="43.26279411" lon="-72.80367135">
    <tag k="addr:city" v="Weston" />
    <tag k="addr:housenumber" v="150" />
    <tag k="addr:street" v="Highland View Road" />
    <tag k="addr:state" v="VT" />
    <tag k="ref:vcgi:esiteid" v="285059" />
  </node>
  <node id="-565" visible="true" lat="43.26264377" lon="-72.80754129">
    <tag k="addr:city" v="Weston" />
    <tag k="addr:housenumber" v="41" />
    <tag k="addr:street" v="Highland View Road" />
    <tag k="addr:state" v="VT" />
    <tag k="ref:vcgi:esiteid" v="285060" />
  </node>
  <node id="-566" visible="true" lat="43.26258752" lon="-72.78681594">
    <tag k="addr:city" v="Weston" />
    <tag k="addr:housenumber" v="231" />
    <tag k="addr:street" v="Vermont Route 100" />
    <tag k="addr:state" v="VT" />
    <tag k="ref:vcgi:esiteid" v="285061" />
  </node>
  <node id="-567" visible="true" lat="43.26246635" lon="-72.81022957">
    <tag k="addr:city" v="Weston" />
    <tag k="addr:housenumber" v="466" />
    <tag k="addr:street" v="Holden Hill Road" />
    <tag k="addr:state" v="VT" />
    <tag k="ref:vcgi:esiteid" v="285062" />
  </node>
  <node id="-568" visible="true" lat="43.26200272" lon="-72.8072147">
    <tag k="addr:city" v="Weston" />
    <tag k="addr:housenumber" v="31" />
    <tag k="addr:street" v="Highland View Road" />
    <tag k="addr:state" v="VT" />
    <tag k="ref:vcgi:esiteid" v="285063" />
  </node>
  <node id="-569" visible="true" lat="43.26162175" lon="-72.8042541">
    <tag k="addr:city" v="Weston" />
    <tag k="addr:housenumber" v="16" />
    <tag k="addr:street" v="Middle Road" />
    <tag k="addr:state" v="VT" />
    <tag k="ref:vcgi:esiteid" v="285064" />
  </node>
  <node id="-570" visible="true" lat="43.26157586" lon="-72.80803007">
    <tag k="addr:city" v="Weston" />
    <tag k="addr:housenumber" v="32" />
    <tag k="addr:street" v="Highland View Road" />
    <tag k="addr:state" v="VT" />
    <tag k="ref:vcgi:esiteid" v="285065" />
  </node>
  <node id="-571" visible="true" lat="43.26156311" lon="-72.7766134">
    <tag k="addr:city" v="Weston" />
    <tag k="addr:housenumber" v="443" />
    <tag k="addr:street" v="Piper Hill Road" />
    <tag k="addr:state" v="VT" />
    <tag k="ref:vcgi:esiteid" v="285066" />
  </node>
  <node id="-572" visible="true" lat="43.26149128" lon="-72.80553176">
    <tag k="addr:city" v="Weston" />
    <tag k="addr:housenumber" v="25" />
    <tag k="addr:street" v="Middle Road" />
    <tag k="addr:state" v="VT" />
    <tag k="ref:vcgi:esiteid" v="285067" />
  </node>
  <node id="-573" visible="true" lat="43.26100551" lon="-72.81136234">
    <tag k="addr:city" v="Weston" />
    <tag k="addr:housenumber" v="461" />
    <tag k="addr:street" v="Holden Hill Road" />
    <tag k="addr:state" v="VT" />
    <tag k="ref:vcgi:esiteid" v="285068" />
  </node>
  <node id="-574" visible="true" lat="43.26116386" lon="-72.75742563">
    <tag k="addr:city" v="Weston" />
    <tag k="addr:housenumber" v="379" />
    <tag k="addr:street" v="Dale Road" />
    <tag k="addr:state" v="VT" />
    <tag k="ref:vcgi:esiteid" v="285069" />
  </node>
  <node id="-575" visible="true" lat="43.26097088" lon="-72.80686351">
    <tag k="addr:city" v="Weston" />
    <tag k="addr:housenumber" v="15" />
    <tag k="addr:street" v="Highland View Road" />
    <tag k="addr:state" v="VT" />
    <tag k="ref:vcgi:esiteid" v="285070" />
  </node>
  <node id="-576" visible="true" lat="43.26074198" lon="-72.80344418">
    <tag k="addr:city" v="Weston" />
    <tag k="addr:housenumber" v="189" />
    <tag k="addr:street" v="Highland View Road" />
    <tag k="addr:state" v="VT" />
    <tag k="ref:vcgi:esiteid" v="285071" />
  </node>
  <node id="-577" visible="true" lat="43.26060389" lon="-72.80247318">
    <tag k="addr:city" v="Weston" />
    <tag k="addr:housenumber" v="184" />
    <tag k="addr:street" v="Highland View Road" />
    <tag k="addr:state" v="VT" />
    <tag k="ref:vcgi:esiteid" v="285072" />
  </node>
  <node id="-578" visible="true" lat="43.26031624" lon="-72.80606733">
    <tag k="addr:city" v="Weston" />
    <tag k="addr:housenumber" v="41" />
    <tag k="addr:street" v="Middle Road" />
    <tag k="addr:state" v="VT" />
    <tag k="ref:vcgi:esiteid" v="285073" />
  </node>
  <node id="-579" visible="true" lat="43.26071401" lon="-72.80478059">
    <tag k="addr:city" v="Weston" />
    <tag k="addr:housenumber" v="30" />
    <tag k="addr:street" v="Middle Road" />
    <tag k="addr:state" v="VT" />
    <tag k="ref:vcgi:esiteid" v="285074" />
  </node>
  <node id="-580" visible="true" lat="43.25985742" lon="-72.80862191">
    <tag k="addr:city" v="Weston" />
    <tag k="addr:housenumber" v="495" />
    <tag k="addr:street" v="Holden Hill Road" />
    <tag k="addr:state" v="VT" />
    <tag k="ref:vcgi:esiteid" v="285075" />
  </node>
  <node id="-581" visible="true" lat="43.25977868" lon="-72.8068924">
    <tag k="addr:city" v="Weston" />
    <tag k="addr:housenumber" v="167" />
    <tag k="addr:street" v="Johnson Hill Road" />
    <tag k="addr:state" v="VT" />
    <tag k="ref:vcgi:esiteid" v="285076" />
  </node>
  <node id="-582" visible="true" lat="43.25968025" lon="-72.80254827">
    <tag k="addr:city" v="Weston" />
    <tag k="addr:housenumber" v="198" />
    <tag k="addr:street" v="Highland View Road" />
    <tag k="addr:state" v="VT" />
    <tag k="ref:vcgi:esiteid" v="285077" />
  </node>
  <node id="-583" visible="true" lat="43.25974013" lon="-72.78931554">
    <tag k="addr:city" v="Weston" />
    <tag k="addr:housenumber" v="192" />
    <tag k="addr:street" v="Vermont Route 100" />
    <tag k="addr:state" v="VT" />
    <tag k="ref:vcgi:esiteid" v="285078" />
  </node>
  <node id="-584" visible="true" lat="43.25954238" lon="-72.76811513">
    <tag k="addr:city" v="Weston" />
    <tag k="addr:housenumber" v="254" />
    <tag k="addr:street" v="Old Tavern Road" />
    <tag k="addr:state" v="VT" />
    <tag k="ref:vcgi:esiteid" v="285079" />
  </node>
  <node id="-585" visible="true" lat="43.25943169" lon="-72.76123282">
    <tag k="addr:city" v="Weston" />
    <tag k="addr:housenumber" v="326" />
    <tag k="addr:street" v="Old Tavern Road" />
    <tag k="addr:state" v="VT" />
    <tag k="ref:vcgi:esiteid" v="285080" />
  </node>
  <node id="-586" visible="true" lat="43.2589743" lon="-72.80174489">
    <tag k="addr:city" v="Weston" />
    <tag k="addr:housenumber" v="210" />
    <tag k="addr:street" v="Highland View Road" />
    <tag k="addr:state" v="VT" />
    <tag k="ref:vcgi:esiteid" v="285081" />
  </node>
  <node id="-587" visible="true" lat="43.25893986" lon="-72.76718775">
    <tag k="addr:city" v="Weston" />
    <tag k="addr:housenumber" v="266" />
    <tag k="addr:street" v="Old Tavern Road" />
    <tag k="addr:state" v="VT" />
    <tag k="ref:vcgi:esiteid" v="285082" />
  </node>
  <node id="-588" visible="true" lat="43.25882027" lon="-72.80480615">
    <tag k="addr:city" v="Weston" />
    <tag k="addr:housenumber" v="149" />
    <tag k="addr:street" v="Johnson Hill Road" />
    <tag k="addr:state" v="VT" />
    <tag k="ref:vcgi:esiteid" v="285083" />
  </node>
  <node id="-589" visible="true" lat="43.25885202" lon="-72.77272754">
    <tag k="addr:city" v="Weston" />
    <tag k="addr:housenumber" v="205" />
    <tag k="addr:street" v="Old Tavern Road" />
    <tag k="addr:state" v="VT" />
    <tag k="ref:vcgi:esiteid" v="285084" />
  </node>
  <node id="-590" visible="true" lat="43.25868797" lon="-72.80880225">
    <tag k="addr:city" v="Weston" />
    <tag k="addr:housenumber" v="19" />
    <tag k="addr:street" v="Hells Peak Road" />
    <tag k="addr:state" v="VT" />
    <tag k="ref:vcgi:esiteid" v="285085" />
  </node>
  <node id="-591" visible="true" lat="43.25868231" lon="-72.7733153">
    <tag k="addr:city" v="Weston" />
    <tag k="addr:housenumber" v="197" />
    <tag k="addr:street" v="Old Tavern Road" />
    <tag k="addr:state" v="VT" />
    <tag k="ref:vcgi:esiteid" v="285086" />
  </node>
  <node id="-592" visible="true" lat="43.25866705" lon="-72.78923377">
    <tag k="addr:city" v="Weston" />
    <tag k="addr:housenumber" v="168" />
    <tag k="addr:street" v="Vermont Route 100" />
    <tag k="addr:state" v="VT" />
    <tag k="ref:vcgi:esiteid" v="285087" />
  </node>
  <node id="-593" visible="true" lat="43.25862045" lon="-72.77123509">
    <tag k="addr:city" v="Weston" />
    <tag k="addr:housenumber" v="217" />
    <tag k="addr:street" v="Old Tavern Road" />
    <tag k="addr:state" v="VT" />
    <tag k="ref:vcgi:esiteid" v="285088" />
  </node>
  <node id="-594" visible="true" lat="43.25860997" lon="-72.76062437">
    <tag k="addr:city" v="Weston" />
    <tag k="addr:housenumber" v="12" />
    <tag k="addr:street" v="Rogers Lane" />
    <tag k="addr:state" v="VT" />
    <tag k="ref:vcgi:esiteid" v="285089" />
  </node>
  <node id="-595" visible="true" lat="43.25848884" lon="-72.78769896">
    <tag k="addr:city" v="Weston" />
    <tag k="addr:housenumber" v="171" />
    <tag k="addr:street" v="Vermont Route 100" />
    <tag k="addr:state" v="VT" />
    <tag k="ref:vcgi:esiteid" v="285090" />
  </node>
  <node id="-596" visible="true" lat="43.25853153" lon="-72.76959786">
    <tag k="addr:city" v="Weston" />
    <tag k="addr:housenumber" v="239" />
    <tag k="addr:street" v="Old Tavern Road" />
    <tag k="addr:state" v="VT" />
    <tag k="ref:vcgi:esiteid" v="285091" />
  </node>
  <node id="-597" visible="true" lat="43.25841531" lon="-72.77390206">
    <tag k="addr:city" v="Weston" />
    <tag k="addr:housenumber" v="187" />
    <tag k="addr:street" v="Old Tavern Road" />
    <tag k="addr:state" v="VT" />
    <tag k="ref:vcgi:esiteid" v="285092" />
  </node>
  <node id="-598" visible="true" lat="43.25839744" lon="-72.78430124">
    <tag k="addr:city" v="Weston" />
    <tag k="addr:housenumber" v="25" />
    <tag k="addr:street" v="Alans Way" />
    <tag k="addr:state" v="VT" />
    <tag k="ref:vcgi:esiteid" v="285093" />
  </node>
  <node id="-599" visible="true" lat="43.25826455" lon="-72.80192808">
    <tag k="addr:city" v="Weston" />
    <tag k="addr:housenumber" v="105" />
    <tag k="addr:street" v="Johnson Hill Road" />
    <tag k="addr:state" v="VT" />
    <tag k="ref:vcgi:esiteid" v="285094" />
  </node>
  <node id="-600" visible="true" lat="43.25831814" lon="-72.80096892">
    <tag k="addr:city" v="Weston" />
    <tag k="addr:housenumber" v="101" />
    <tag k="addr:street" v="Johnson Hill Road" />
    <tag k="addr:state" v="VT" />
    <tag k="ref:vcgi:esiteid" v="285095" />
  </node>
  <node id="-601" visible="true" lat="43.25828551" lon="-72.8062817">
    <tag k="addr:city" v="Weston" />
    <tag k="addr:housenumber" v="10" />
    <tag k="addr:street" v="Hells Peak Road" />
    <tag k="addr:state" v="VT" />
    <tag k="ref:vcgi:esiteid" v="285096" />
  </node>
  <node id="-602" visible="true" lat="43.2583031" lon="-72.76188216">
    <tag k="addr:city" v="Weston" />
    <tag k="addr:housenumber" v="321" />
    <tag k="addr:street" v="Old Tavern Road" />
    <tag k="addr:state" v="VT" />
    <tag k="ref:vcgi:esiteid" v="285097" />
  </node>
  <node id="-603" visible="true" lat="43.2582876" lon="-72.76626904">
    <tag k="addr:city" v="Weston" />
    <tag k="addr:housenumber" v="275" />
    <tag k="addr:street" v="Old Tavern Road" />
    <tag k="addr:state" v="VT" />
    <tag k="ref:vcgi:esiteid" v="285098" />
  </node>
  <node id="-604" visible="true" lat="43.25826826" lon="-72.7644001">
    <tag k="addr:city" v="Weston" />
    <tag k="addr:housenumber" v="295" />
    <tag k="addr:street" v="Old Tavern Road" />
    <tag k="addr:state" v="VT" />
    <tag k="ref:vcgi:esiteid" v="285099" />
  </node>
  <node id="-605" visible="true" lat="43.25827598" lon="-72.76337669">
    <tag k="addr:city" v="Weston" />
    <tag k="addr:housenumber" v="303" />
    <tag k="addr:street" v="Old Tavern Road" />
    <tag k="addr:state" v="VT" />
    <tag k="ref:vcgi:esiteid" v="285100" />
  </node>
  <node id="-606" visible="true" lat="43.25819635" lon="-72.78554143">
    <tag k="addr:city" v="Weston" />
    <tag k="addr:housenumber" v="26" />
    <tag k="addr:street" v="Alans Way" />
    <tag k="addr:state" v="VT" />
    <tag k="ref:vcgi:esiteid" v="285101" />
  </node>
  <node id="-607" visible="true" lat="43.25809476" lon="-72.775406">
    <tag k="addr:city" v="Weston" />
    <tag k="addr:housenumber" v="177" />
    <tag k="addr:street" v="Old Tavern Road" />
    <tag k="addr:state" v="VT" />
    <tag k="ref:vcgi:esiteid" v="285102" />
  </node>
  <node id="-608" visible="true" lat="43.25787149" lon="-72.80674604">
    <tag k="addr:city" v="Weston" />
    <tag k="addr:housenumber" v="28" />
    <tag k="addr:street" v="Hells Peak Road" />
    <tag k="addr:state" v="VT" />
    <tag k="ref:vcgi:esiteid" v="285103" />
  </node>
  <node id="-609" visible="true" lat="43.26041751" lon="-72.79662239">
    <tag k="addr:city" v="Weston" />
    <tag k="addr:housenumber" v="3" />
    <tag k="addr:street" v="Johnson Hill Road" />
    <tag k="addr:state" v="VT" />
    <tag k="ref:vcgi:esiteid" v="285104" />
  </node>
  <node id="-610" visible="true" lat="43.25771628" lon="-72.80014116">
    <tag k="addr:city" v="Weston" />
    <tag k="addr:housenumber" v="85" />
    <tag k="addr:street" v="Johnson Hill Road" />
    <tag k="addr:state" v="VT" />
    <tag k="ref:vcgi:esiteid" v="285105" />
  </node>
  <node id="-611" visible="true" lat="43.2574389" lon="-72.78286488">
    <tag k="addr:city" v="Weston" />
    <tag k="addr:housenumber" v="100" />
    <tag k="addr:street" v="Old Tavern Road" />
    <tag k="addr:state" v="VT" />
    <tag k="ref:vcgi:esiteid" v="285106" />
  </node>
  <node id="-612" visible="true" lat="43.25751872" lon="-72.75997587">
    <tag k="addr:city" v="Weston" />
    <tag k="addr:housenumber" v="16" />
    <tag k="addr:street" v="Rogers Lane" />
    <tag k="addr:state" v="VT" />
    <tag k="ref:vcgi:esiteid" v="285107" />
  </node>
  <node id="-613" visible="true" lat="43.25709189" lon="-72.77734516">
    <tag k="addr:city" v="Weston" />
    <tag k="addr:housenumber" v="143" />
    <tag k="addr:street" v="Old Tavern Road" />
    <tag k="addr:state" v="VT" />
    <tag k="ref:vcgi:esiteid" v="285108" />
  </node>
  <node id="-614" visible="true" lat="43.2572338" lon="-72.79789655">
    <tag k="addr:city" v="Weston" />
    <tag k="addr:housenumber" v="41" />
    <tag k="addr:street" v="Johnson Hill Road" />
    <tag k="addr:state" v="VT" />
    <tag k="ref:vcgi:esiteid" v="285109" />
  </node>
  <node id="-615" visible="true" lat="43.25663771" lon="-72.8080177">
    <tag k="addr:city" v="Weston" />
    <tag k="addr:housenumber" v="39" />
    <tag k="addr:street" v="Hells Peak Road" />
    <tag k="addr:state" v="VT" />
    <tag k="ref:vcgi:esiteid" v="285110" />
  </node>
  <node id="-616" visible="true" lat="43.25643923" lon="-72.79962365">
    <tag k="addr:city" v="Weston" />
    <tag k="addr:housenumber" v="79" />
    <tag k="addr:street" v="Johnson Hill Road" />
    <tag k="addr:state" v="VT" />
    <tag k="ref:vcgi:esiteid" v="285111" />
  </node>
  <node id="-617" visible="true" lat="43.2563991" lon="-72.79718825">
    <tag k="addr:city" v="Weston" />
    <tag k="addr:housenumber" v="35" />
    <tag k="addr:street" v="Johnson Hill Road" />
    <tag k="addr:state" v="VT" />
    <tag k="ref:vcgi:esiteid" v="285112" />
  </node>
  <node id="-618" visible="true" lat="43.25638767" lon="-72.78524291">
    <tag k="addr:city" v="Weston" />
    <tag k="addr:housenumber" v="68" />
    <tag k="addr:street" v="Old Tavern Road" />
    <tag k="addr:state" v="VT" />
    <tag k="ref:vcgi:esiteid" v="285113" />
  </node>
  <node id="-619" visible="true" lat="43.25631" lon="-72.79660194">
    <tag k="addr:city" v="Weston" />
    <tag k="addr:housenumber" v="25" />
    <tag k="addr:street" v="Johnson Hill Road" />
    <tag k="addr:state" v="VT" />
    <tag k="ref:vcgi:esiteid" v="285114" />
  </node>
  <node id="-620" visible="true" lat="43.25617788" lon="-72.79842397">
    <tag k="addr:city" v="Weston" />
    <tag k="addr:housenumber" v="48" />
    <tag k="addr:street" v="Johnson Hill Road" />
    <tag k="addr:state" v="VT" />
    <tag k="ref:vcgi:esiteid" v="285115" />
  </node>
  <node id="-621" visible="true" lat="43.25624276" lon="-72.77563033">
    <tag k="addr:city" v="Weston" />
    <tag k="addr:housenumber" v="520" />
    <tag k="addr:street" v="Piper Hill Road" />
    <tag k="addr:state" v="VT" />
    <tag k="ref:vcgi:esiteid" v="285116" />
  </node>
  <node id="-622" visible="true" lat="43.25614737" lon="-72.78289283">
    <tag k="addr:city" v="Weston" />
    <tag k="addr:housenumber" v="93" />
    <tag k="addr:street" v="Old Tavern Road" />
    <tag k="addr:state" v="VT" />
    <tag k="ref:vcgi:esiteid" v="285117" />
  </node>
  <node id="-623" visible="true" lat="43.25615689" lon="-72.78254457">
    <tag k="addr:city" v="Weston" />
    <tag k="addr:housenumber" v="95" />
    <tag k="addr:street" v="Old Tavern Road" />
    <tag k="addr:state" v="VT" />
    <tag k="ref:vcgi:esiteid" v="285118" />
  </node>
  <node id="-624" visible="true" lat="43.25605581" lon="-72.79751607">
    <tag k="addr:city" v="Weston" />
    <tag k="addr:housenumber" v="36" />
    <tag k="addr:street" v="Johnson Hill Road" />
    <tag k="addr:state" v="VT" />
    <tag k="ref:vcgi:esiteid" v="285119" />
  </node>
  <node id="-625" visible="true" lat="43.25600052" lon="-72.81027222">
    <tag k="addr:city" v="Weston" />
    <tag k="addr:housenumber" v="37" />
    <tag k="addr:street" v="Hells Peak Road" />
    <tag k="addr:state" v="VT" />
    <tag k="ref:vcgi:esiteid" v="285120" />
  </node>
  <node id="-626" visible="true" lat="43.25588204" lon="-72.79697669">
    <tag k="addr:city" v="Weston" />
    <tag k="addr:housenumber" v="30" />
    <tag k="addr:street" v="Johnson Hill Road" />
    <tag k="addr:state" v="VT" />
    <tag k="ref:vcgi:esiteid" v="285121" />
  </node>
  <node id="-627" visible="true" lat="43.25576464" lon="-72.77719653">
    <tag k="addr:city" v="Weston" />
    <tag k="addr:housenumber" v="519" />
    <tag k="addr:street" v="Piper Hill Road" />
    <tag k="addr:state" v="VT" />
    <tag k="ref:vcgi:esiteid" v="285122" />
  </node>
  <node id="-628" visible="true" lat="43.25544978" lon="-72.79355007">
    <tag k="addr:city" v="Weston" />
    <tag k="addr:housenumber" v="98" />
    <tag k="addr:street" v="Vermont Route 100" />
    <tag k="addr:state" v="VT" />
    <tag k="ref:vcgi:esiteid" v="285123" />
  </node>
  <node id="-629" visible="true" lat="43.25554666" lon="-72.79275919">
    <tag k="addr:city" v="Weston" />
    <tag k="addr:housenumber" v="106" />
    <tag k="addr:street" v="Vermont Route 100" />
    <tag k="addr:state" v="VT" />
    <tag k="ref:vcgi:esiteid" v="285124" />
  </node>
  <node id="-630" visible="true" lat="43.2554705" lon="-72.7929947">
    <tag k="addr:city" v="Weston" />
    <tag k="addr:housenumber" v="104" />
    <tag k="addr:street" v="Vermont Route 100" />
    <tag k="addr:state" v="VT" />
    <tag k="ref:vcgi:esiteid" v="285125" />
  </node>
  <node id="-631" visible="true" lat="43.25526762" lon="-72.78418355">
    <tag k="addr:city" v="Weston" />
    <tag k="addr:housenumber" v="69" />
    <tag k="addr:street" v="Old Tavern Road" />
    <tag k="addr:state" v="VT" />
    <tag k="ref:vcgi:esiteid" v="285126" />
  </node>
  <node id="-632" visible="true" lat="43.25516908" lon="-72.79236209">
    <tag k="addr:city" v="Weston" />
    <tag k="addr:housenumber" v="107" />
    <tag k="addr:street" v="Vermont Route 100" />
    <tag k="addr:state" v="VT" />
    <tag k="ref:vcgi:esiteid" v="285127" />
  </node>
  <node id="-633" visible="true" lat="43.25514312" lon="-72.7972917">
    <tag k="addr:city" v="Weston" />
    <tag k="addr:housenumber" v="13" />
    <tag k="addr:street" v="Holbrook Road" />
    <tag k="addr:state" v="VT" />
    <tag k="ref:vcgi:esiteid" v="285128" />
  </node>
  <node id="-634" visible="true" lat="43.25512986" lon="-72.79336221">
    <tag k="addr:city" v="Weston" />
    <tag k="addr:housenumber" v="97" />
    <tag k="addr:street" v="Vermont Route 100" />
    <tag k="addr:state" v="VT" />
    <tag k="ref:vcgi:esiteid" v="285129" />
  </node>
  <node id="-635" visible="true" lat="43.25507827" lon="-72.78630185">
    <tag k="addr:city" v="Weston" />
    <tag k="addr:housenumber" v="47" />
    <tag k="addr:street" v="Old Tavern Road" />
    <tag k="addr:state" v="VT" />
    <tag k="ref:vcgi:esiteid" v="285130" />
  </node>
  <node id="-636" visible="true" lat="43.25510972" lon="-72.77317086">
    <tag k="addr:city" v="Weston" />
    <tag k="addr:housenumber" v="542" />
    <tag k="addr:street" v="Piper Hill Road" />
    <tag k="addr:state" v="VT" />
    <tag k="ref:vcgi:esiteid" v="285131" />
  </node>
  <node id="-637" visible="true" lat="43.25472122" lon="-72.79762948">
    <tag k="addr:city" v="Weston" />
    <tag k="addr:housenumber" v="21" />
    <tag k="addr:street" v="Holbrook Road" />
    <tag k="addr:state" v="VT" />
    <tag k="ref:vcgi:esiteid" v="285132" />
  </node>
  <node id="-638" visible="true" lat="43.25464178" lon="-72.79486783">
    <tag k="addr:city" v="Weston" />
    <tag k="addr:housenumber" v="10" />
    <tag k="addr:street" v="Longley Loop" />
    <tag k="addr:state" v="VT" />
    <tag k="ref:vcgi:esiteid" v="285133" />
  </node>
  <node id="-639" visible="true" lat="43.25428694" lon="-72.79139831">
    <tag k="addr:city" v="Weston" />
    <tag k="addr:housenumber" v="16" />
    <tag k="addr:street" v="Fields Road" />
    <tag k="addr:state" v="VT" />
    <tag k="ref:vcgi:esiteid" v="285134" />
  </node>
  <node id="-640" visible="true" lat="43.25445535" lon="-72.79511436">
    <tag k="addr:city" v="Weston" />
    <tag k="addr:housenumber" v="11" />
    <tag k="addr:street" v="Longley Loop" />
    <tag k="addr:state" v="VT" />
    <tag k="ref:vcgi:esiteid" v="285135" />
  </node>
  <node id="-641" visible="true" lat="43.25424008" lon="-72.79030756">
    <tag k="addr:city" v="Weston" />
    <tag k="addr:housenumber" v="5" />
    <tag k="addr:street" v="Fields Road" />
    <tag k="addr:state" v="VT" />
    <tag k="ref:vcgi:esiteid" v="285136" />
  </node>
  <node id="-642" visible="true" lat="43.25384883" lon="-72.78892699">
    <tag k="addr:city" v="Weston" />
    <tag k="addr:housenumber" v="8" />
    <tag k="addr:street" v="School House Lane" />
    <tag k="addr:state" v="VT" />
    <tag k="ref:vcgi:esiteid" v="285138" />
  </node>
  <node id="-643" visible="true" lat="43.25363163" lon="-72.78618479">
    <tag k="addr:city" v="Weston" />
    <tag k="addr:housenumber" v="15" />
    <tag k="addr:street" v="Casper Lane" />
    <tag k="addr:state" v="VT" />
    <tag k="ref:vcgi:esiteid" v="285139" />
  </node>
  <node id="-644" visible="true" lat="43.25348809" lon="-72.78921944">
    <tag k="addr:city" v="Weston" />
    <tag k="addr:housenumber" v="46" />
    <tag k="addr:street" v="Boynton Road" />
    <tag k="addr:state" v="VT" />
    <tag k="ref:vcgi:esiteid" v="285140" />
  </node>
  <node id="-645" visible="true" lat="43.25340172" lon="-72.78753616">
    <tag k="addr:city" v="Weston" />
    <tag k="addr:housenumber" v="11" />
    <tag k="addr:street" v="Old Tavern Road" />
    <tag k="addr:state" v="VT" />
    <tag k="ref:vcgi:esiteid" v="285141" />
  </node>
  <node id="-646" visible="true" lat="43.25325584" lon="-72.80537948">
    <tag k="addr:city" v="Weston" />
    <tag k="addr:housenumber" v="98" />
    <tag k="addr:street" v="Hells Peak Road" />
    <tag k="addr:state" v="VT" />
    <tag k="ref:vcgi:esiteid" v="285142" />
  </node>
  <node id="-647" visible="true" lat="43.25309359" lon="-72.80745067">
    <tag k="addr:city" v="Weston" />
    <tag k="addr:housenumber" v="85" />
    <tag k="addr:street" v="Hells Peak Road" />
    <tag k="addr:state" v="VT" />
    <tag k="ref:vcgi:esiteid" v="285143" />
  </node>
  <node id="-648" visible="true" lat="43.25203718" lon="-72.7743315">
    <tag k="addr:city" v="Weston" />
    <tag k="addr:housenumber" v="585" />
    <tag k="addr:street" v="Piper Hill Road" />
    <tag k="addr:state" v="VT" />
    <tag k="ref:vcgi:esiteid" v="285144" />
  </node>
  <node id="-649" visible="true" lat="43.25174261" lon="-72.80028142">
    <tag k="addr:city" v="Weston" />
    <tag k="addr:housenumber" v="315" />
    <tag k="addr:street" v="Hobart Road" />
    <tag k="addr:state" v="VT" />
    <tag k="ref:vcgi:esiteid" v="285145" />
  </node>
  <node id="-650" visible="true" lat="43.25105668" lon="-72.7885023">
    <tag k="addr:city" v="Weston" />
    <tag k="addr:housenumber" v="82" />
    <tag k="addr:street" v="Boynton Road" />
    <tag k="addr:state" v="VT" />
    <tag k="ref:vcgi:esiteid" v="285146" />
  </node>
  <node id="-651" visible="true" lat="43.25012983" lon="-72.79606262">
    <tag k="addr:city" v="Weston" />
    <tag k="addr:housenumber" v="6" />
    <tag k="addr:street" v="Vermont Route 100" />
    <tag k="addr:state" v="VT" />
    <tag k="ref:vcgi:esiteid" v="285147" />
  </node>
  <node id="-652" visible="true" lat="43.24923886" lon="-72.78636803">
    <tag k="addr:city" v="Weston" />
    <tag k="addr:housenumber" v="116" />
    <tag k="addr:street" v="Boynton Road" />
    <tag k="addr:state" v="VT" />
    <tag k="ref:vcgi:esiteid" v="285148" />
  </node>
  <node id="-653" visible="true" lat="43.31993724" lon="-72.78678156">
    <tag k="addr:city" v="Weston" />
    <tag k="addr:housenumber" v="29" />
    <tag k="addr:street" v="Old County Road" />
    <tag k="addr:state" v="VT" />
    <tag k="ref:vcgi:esiteid" v="285150" />
  </node>
  <node id="-654" visible="true" lat="43.32030367" lon="-72.78598984">
    <tag k="addr:city" v="Weston" />
    <tag k="addr:housenumber" v="27" />
    <tag k="addr:street" v="Old County Road" />
    <tag k="addr:state" v="VT" />
    <tag k="ref:vcgi:esiteid" v="285151" />
  </node>
  <node id="-655" visible="true" lat="43.29298784" lon="-72.79719524">
    <tag k="addr:city" v="Weston" />
    <tag k="addr:housenumber" v="2" />
    <tag k="addr:street" v="Landgrove Road" />
    <tag k="addr:state" v="VT" />
    <tag k="ref:vcgi:esiteid" v="285153" />
  </node>
  <node id="-656" visible="true" lat="43.29294964" lon="-72.79790524">
    <tag k="addr:city" v="Weston" />
    <tag k="addr:housenumber" v="10" />
    <tag k="addr:street" v="Landgrove Road" />
    <tag k="addr:state" v="VT" />
    <tag k="ref:vcgi:esiteid" v="285154" />
  </node>
  <node id="-657" visible="true" lat="43.29221033" lon="-72.79499787">
    <tag k="addr:city" v="Weston" />
    <tag k="addr:housenumber" v="27" />
    <tag k="addr:street" v="Lawrence Hill Road" />
    <tag k="addr:state" v="VT" />
    <tag k="ref:vcgi:esiteid" v="285155" />
  </node>
  <node id="-658" visible="true" lat="43.27787694" lon="-72.78153887">
    <tag k="addr:city" v="Weston" />
    <tag k="addr:housenumber" v="170" />
    <tag k="addr:street" v="Piper Hill Road" />
    <tag k="addr:state" v="VT" />
    <tag k="ref:vcgi:esiteid" v="285156" />
  </node>
  <node id="-659" visible="true" lat="43.27798276" lon="-72.78105259">
    <tag k="addr:city" v="Weston" />
    <tag k="addr:housenumber" v="172" />
    <tag k="addr:street" v="Piper Hill Road" />
    <tag k="addr:state" v="VT" />
    <tag k="ref:vcgi:esiteid" v="285157" />
  </node>
  <node id="-660" visible="true" lat="43.24871656" lon="-72.78746857">
    <tag k="addr:city" v="Weston" />
    <tag k="addr:housenumber" v="117" />
    <tag k="addr:street" v="Boynton Road" />
    <tag k="addr:state" v="VT" />
    <tag k="ref:vcgi:esiteid" v="285158" />
  </node>
  <node id="-661" visible="true" lat="43.31463412" lon="-72.7883619">
    <tag k="addr:city" v="Weston" />
    <tag k="addr:housenumber" v="9" />
    <tag k="addr:street" v="Benson Lane" />
    <tag k="addr:state" v="VT" />
    <tag k="ref:vcgi:esiteid" v="285159" />
  </node>
  <node id="-662" visible="true" lat="43.31331604" lon="-72.78964083">
    <tag k="addr:city" v="Weston" />
    <tag k="addr:housenumber" v="25" />
    <tag k="addr:street" v="Benson Lane" />
    <tag k="addr:state" v="VT" />
    <tag k="ref:vcgi:esiteid" v="285160" />
  </node>
  <node id="-663" visible="true" lat="43.31404782" lon="-72.78831831">
    <tag k="addr:city" v="Weston" />
    <tag k="addr:housenumber" v="10" />
    <tag k="addr:street" v="Benson Lane" />
    <tag k="addr:state" v="VT" />
    <tag k="ref:vcgi:esiteid" v="285161" />
  </node>
  <node id="-664" visible="true" lat="43.31369514" lon="-72.78868286">
    <tag k="addr:city" v="Weston" />
    <tag k="addr:housenumber" v="14" />
    <tag k="addr:street" v="Benson Lane" />
    <tag k="addr:state" v="VT" />
    <tag k="ref:vcgi:esiteid" v="285162" />
  </node>
  <node id="-665" visible="true" lat="43.25624046" lon="-72.78005106">
    <tag k="addr:city" v="Weston" />
    <tag k="addr:housenumber" v="119" />
    <tag k="addr:street" v="Old Tavern Road" />
    <tag k="addr:state" v="VT" />
    <tag k="ref:vcgi:esiteid" v="285163" />
  </node>
  <node id="-666" visible="true" lat="43.29298864" lon="-72.81459336">
    <tag k="addr:city" v="Weston" />
    <tag k="addr:housenumber" v="215" />
    <tag k="addr:street" v="Landgrove Road" />
    <tag k="addr:state" v="VT" />
    <tag k="ref:vcgi:esiteid" v="285164" />
  </node>
  <node id="-667" visible="true" lat="43.35574592" lon="-72.76733323">
    <tag k="addr:city" v="Weston" />
    <tag k="addr:housenumber" v="83" />
    <tag k="addr:street" v="Slawson Road" />
    <tag k="addr:state" v="VT" />
    <tag k="ref:vcgi:esiteid" v="285165" />
  </node>
  <node id="-668" visible="true" lat="43.35399147" lon="-72.76856613">
    <tag k="addr:city" v="Weston" />
    <tag k="addr:housenumber" v="118" />
    <tag k="addr:street" v="Slawson Road" />
    <tag k="addr:state" v="VT" />
    <tag k="ref:vcgi:esiteid" v="285166" />
  </node>
  <node id="-669" visible="true" lat="43.24963126" lon="-72.7934228">
    <tag k="addr:city" v="Weston" />
    <tag k="addr:housenumber" v="50" />
    <tag k="addr:street" v="Woodcock Lane" />
    <tag k="addr:state" v="VT" />
    <tag k="ref:vcgi:esiteid" v="285167" />
  </node>
  <node id="-670" visible="true" lat="43.25431333" lon="-72.78533095">
    <tag k="addr:city" v="Weston" />
    <tag k="addr:housenumber" v="26" />
    <tag k="addr:street" v="Casper Lane" />
    <tag k="addr:state" v="VT" />
    <tag k="ref:vcgi:esiteid" v="285168" />
  </node>
  <node id="-671" visible="true" lat="43.25286914" lon="-72.7858334">
    <tag k="addr:city" v="Weston" />
    <tag k="addr:housenumber" v="35" />
    <tag k="addr:street" v="Casper Lane" />
    <tag k="addr:state" v="VT" />
    <tag k="ref:vcgi:esiteid" v="285169" />
  </node>
  <node id="-672" visible="true" lat="43.31587897" lon="-72.82931157">
    <tag k="addr:city" v="Weston" />
    <tag k="addr:housenumber" v="74" />
    <tag k="addr:street" v="Turner Road" />
    <tag k="addr:state" v="VT" />
    <tag k="ref:vcgi:esiteid" v="285170" />
  </node>
  <node id="-673" visible="true" lat="43.30231874" lon="-72.84446165">
    <tag k="addr:city" v="Weston" />
    <tag k="addr:housenumber" v="110" />
    <tag k="addr:street" v="Jaquith Road" />
    <tag k="addr:state" v="VT" />
    <tag k="ref:vcgi:esiteid" v="285171" />
  </node>
  <node id="-674" visible="true" lat="43.27315425" lon="-72.78066417">
    <tag k="addr:city" v="Weston" />
    <tag k="addr:housenumber" v="90" />
    <tag k="addr:street" v="Dale Road" />
    <tag k="addr:state" v="VT" />
    <tag k="ref:vcgi:esiteid" v="285172" />
  </node>
  <node id="-675" visible="true" lat="43.26309019" lon="-72.80230149">
    <tag k="addr:city" v="Weston" />
    <tag k="addr:housenumber" v="176" />
    <tag k="addr:street" v="Highland View Road" />
    <tag k="addr:state" v="VT" />
    <tag k="ref:vcgi:esiteid" v="285173" />
  </node>
  <node id="-676" visible="true" lat="43.25506934" lon="-72.79297947">
    <tag k="addr:city" v="Weston" />
    <tag k="addr:housenumber" v="105" />
    <tag k="addr:street" v="Vermont Route 100" />
    <tag k="addr:state" v="VT" />
    <tag k="ref:vcgi:esiteid" v="285174" />
  </node>
  <node id="-677" visible="true" lat="43.28879104" lon="-72.81416927">
    <tag k="addr:city" v="Weston" />
    <tag k="addr:housenumber" v="8" />
    <tag k="addr:street" v="Holden Hill Road" />
    <tag k="addr:state" v="VT" />
    <tag k="ref:vcgi:esiteid" v="285175" />
  </node>
  <node id="-678" visible="true" lat="43.32732493" lon="-72.78184815">
    <tag k="addr:city" v="Weston" />
    <tag k="addr:housenumber" v="18" />
    <tag k="addr:street" v="Stevens Loop" />
    <tag k="addr:state" v="VT" />
    <tag k="ref:vcgi:esiteid" v="285176" />
  </node>
  <node id="-679" visible="true" lat="43.28466631" lon="-72.79202981">
    <tag k="addr:city" v="Weston" />
    <tag k="addr:housenumber" v="19" />
    <tag k="addr:street" v="Piper Hill Road" />
    <tag k="addr:state" v="VT" />
    <tag k="ref:vcgi:esiteid" v="285177" />
  </node>
  <node id="-680" visible="true" lat="43.2892599" lon="-72.81129669">
    <tag k="addr:city" v="Weston" />
    <tag k="addr:housenumber" v="170" />
    <tag k="addr:street" v="Landgrove Road" />
    <tag k="addr:state" v="VT" />
    <tag k="ref:vcgi:esiteid" v="285178" />
  </node>
  <node id="-681" visible="true" lat="43.26587147" lon="-72.80691643">
    <tag k="addr:city" v="Weston" />
    <tag k="addr:housenumber" v="140" />
    <tag k="addr:street" v="Summit Trail Road" />
    <tag k="addr:state" v="VT" />
    <tag k="ref:vcgi:esiteid" v="285179" />
  </node>
  <node id="-682" visible="true" lat="43.25115553" lon="-72.79314683">
    <tag k="addr:city" v="Weston" />
    <tag k="addr:housenumber" v="30" />
    <tag k="addr:street" v="Woodcock Lane" />
    <tag k="addr:state" v="VT" />
    <tag k="ref:vcgi:esiteid" v="285180" />
  </node>
  <node id="-683" visible="true" lat="43.25305486" lon="-72.78385962">
    <tag k="addr:city" v="Weston" />
    <tag k="addr:housenumber" v="45" />
    <tag k="addr:street" v="Casper Lane" />
    <tag k="addr:state" v="VT" />
    <tag k="ref:vcgi:esiteid" v="285181" />
  </node>
  <node id="-684" visible="true" lat="43.25231271" lon="-72.78363871">
    <tag k="addr:city" v="Weston" />
    <tag k="addr:housenumber" v="49" />
    <tag k="addr:street" v="Casper Lane" />
    <tag k="addr:state" v="VT" />
    <tag k="ref:vcgi:esiteid" v="285182" />
  </node>
  <node id="-685" visible="true" lat="43.25519213" lon="-72.76041325">
    <tag k="addr:city" v="Weston" />
    <tag k="addr:housenumber" v="23" />
    <tag k="addr:street" v="Rogers Lane" />
    <tag k="addr:state" v="VT" />
    <tag k="ref:vcgi:esiteid" v="285183" />
  </node>
  <node id="-686" visible="true" lat="43.35645931" lon="-72.76880869">
    <tag k="addr:city" v="Weston" />
    <tag k="addr:housenumber" v="91" />
    <tag k="addr:street" v="Slawson Road" />
    <tag k="addr:state" v="VT" />
    <tag k="ref:vcgi:esiteid" v="285184" />
  </node>
  <node id="-687" visible="true" lat="43.25365145" lon="-72.78469864">
    <tag k="addr:city" v="Weston" />
    <tag k="addr:housenumber" v="28" />
    <tag k="addr:street" v="Casper Lane" />
    <tag k="addr:state" v="VT" />
    <tag k="ref:vcgi:esiteid" v="285185" />
  </node>
  <node id="-688" visible="true" lat="43.26802707" lon="-72.8075015">
    <tag k="addr:city" v="Weston" />
    <tag k="addr:housenumber" v="100" />
    <tag k="addr:street" v="Summit Trail Road" />
    <tag k="addr:state" v="VT" />
    <tag k="ref:vcgi:esiteid" v="285186" />
  </node>
  <node id="-689" visible="true" lat="43.26004726" lon="-72.80490766">
    <tag k="addr:city" v="Weston" />
    <tag k="addr:housenumber" v="40" />
    <tag k="addr:street" v="Middle Road" />
    <tag k="addr:state" v="VT" />
    <tag k="ref:vcgi:esiteid" v="285187" />
  </node>
  <node id="-690" visible="true" lat="43.25208754" lon="-72.79695008">
    <tag k="addr:city" v="Weston" />
    <tag k="addr:housenumber" v="38" />
    <tag k="addr:street" v="Vermont Route 100" />
    <tag k="addr:state" v="VT" />
    <tag k="ref:vcgi:esiteid" v="285188" />
  </node>
  <node id="-691" visible="true" lat="43.29375681" lon="-72.79521927">
    <tag k="addr:city" v="Weston" />
    <tag k="addr:housenumber" v="18" />
    <tag k="addr:street" v="Serene Lane" />
    <tag k="addr:state" v="VT" />
    <tag k="ref:vcgi:esiteid" v="285189" />
  </node>
  <node id="-692" visible="true" lat="43.29607421" lon="-72.77748266">
    <tag k="addr:city" v="Weston" />
    <tag k="addr:housenumber" v="126" />
    <tag k="addr:street" v="Chester Mountain Road" />
    <tag k="addr:state" v="VT" />
    <tag k="ref:vcgi:esiteid" v="285190" />
  </node>
  <node id="-693" visible="true" lat="43.26240175" lon="-72.75800364">
    <tag k="addr:city" v="Weston" />
    <tag k="addr:housenumber" v="369" />
    <tag k="addr:street" v="Dale Road" />
    <tag k="addr:state" v="VT" />
    <tag k="ref:vcgi:esiteid" v="285191" />
  </node>
  <node id="-694" visible="true" lat="43.29218903" lon="-72.79666337">
    <tag k="addr:city" v="Weston" />
    <tag k="addr:housenumber" v="4" />
    <tag k="addr:street" v="Landgrove Road" />
    <tag k="addr:state" v="VT" />
    <tag k="ref:vcgi:esiteid" v="285192" />
  </node>
  <node id="-695" visible="true" lat="43.26679755" lon="-72.76817232">
    <tag k="addr:city" v="Weston" />
    <tag k="addr:housenumber" v="231" />
    <tag k="addr:street" v="Dale Road" />
    <tag k="addr:state" v="VT" />
    <tag k="ref:vcgi:esiteid" v="285193" />
  </node>
  <node id="-696" visible="true" lat="43.25840225" lon="-72.80402727">
    <tag k="addr:city" v="Weston" />
    <tag k="addr:housenumber" v="135" />
    <tag k="addr:street" v="Johnson Hill Road" />
    <tag k="addr:state" v="VT" />
    <tag k="ref:vcgi:esiteid" v="285194" />
  </node>
  <node id="-697" visible="true" lat="43.26855146" lon="-72.76372204">
    <tag k="addr:city" v="Weston" />
    <tag k="addr:housenumber" v="256" />
    <tag k="addr:street" v="Dale Road" />
    <tag k="addr:state" v="VT" />
    <tag k="ref:vcgi:esiteid" v="285195" />
  </node>
  <node id="-698" visible="true" lat="43.25300714" lon="-72.79500236">
    <tag k="addr:city" v="Weston" />
    <tag k="addr:housenumber" v="4" />
    <tag k="addr:street" v="Woodcock Lane" />
    <tag k="addr:state" v="VT" />
    <tag k="ref:vcgi:esiteid" v="285196" />
  </node>
  <node id="-699" visible="true" lat="43.30143155" lon="-72.78967103">
    <tag k="addr:city" v="Weston" />
    <tag k="addr:housenumber" v="770" />
    <tag k="addr:street" v="Vermont Route 100" />
    <tag k="addr:state" v="VT" />
    <tag k="ref:vcgi:esiteid" v="285197" />
  </node>
  <node id="-700" visible="true" lat="43.27030312" lon="-72.77857064">
    <tag k="addr:city" v="Weston" />
    <tag k="addr:housenumber" v="115" />
    <tag k="addr:street" v="Dale Road" />
    <tag k="addr:state" v="VT" />
    <tag k="ref:vcgi:esiteid" v="307420" />
  </node>
  <node id="-701" visible="true" lat="43.27219753" lon="-72.81278494">
    <tag k="addr:city" v="Weston" />
    <tag k="addr:housenumber" v="250" />
    <tag k="addr:street" v="Holden Hill Road" />
    <tag k="addr:state" v="VT" />
    <tag k="ref:vcgi:esiteid" v="307421" />
  </node>
  <node id="-702" visible="true" lat="43.3553211" lon="-72.76593216">
    <tag k="addr:city" v="Weston" />
    <tag k="addr:housenumber" v="61" />
    <tag k="addr:street" v="Slawson Road" />
    <tag k="addr:state" v="VT" />
    <tag k="ref:vcgi:esiteid" v="307422" />
  </node>
  <node id="-703" visible="true" lat="43.30636386" lon="-72.79650269">
    <tag k="addr:city" v="Weston" />
    <tag k="addr:housenumber" v="256" />
    <tag k="addr:street" v="Lawrence Hill Road" />
    <tag k="addr:state" v="VT" />
    <tag k="ref:vcgi:esiteid" v="315338" />
  </node>
  <node id="-704" visible="true" lat="43.29147319" lon="-72.78805043">
    <tag k="addr:city" v="Weston" />
    <tag k="addr:housenumber" v="50" />
    <tag k="addr:street" v="Markham Lane" />
    <tag k="addr:state" v="VT" />
    <tag k="ref:vcgi:esiteid" v="315339" />
  </node>
  <node id="-705" visible="true" lat="43.30308167" lon="-72.77188288">
    <tag k="addr:city" v="Weston" />
    <tag k="addr:housenumber" v="33" />
    <tag k="addr:street" v="Obed Moore Road" />
    <tag k="addr:state" v="VT" />
    <tag k="ref:vcgi:esiteid" v="315340" />
  </node>
  <node id="-706" visible="true" lat="43.2883821" lon="-72.80475648">
    <tag k="addr:city" v="Weston" />
    <tag k="addr:housenumber" v="44" />
    <tag k="addr:street" v="Morgan Hill Road" />
    <tag k="addr:state" v="VT" />
    <tag k="ref:vcgi:esiteid" v="317506" />
  </node>
  <node id="-707" visible="true" lat="43.28814475" lon="-72.80483513">
    <tag k="addr:city" v="Weston" />
    <tag k="addr:housenumber" v="46" />
    <tag k="addr:street" v="Morgan Hill Road" />
    <tag k="addr:state" v="VT" />
    <tag k="ref:vcgi:esiteid" v="317507" />
  </node>
  <node id="-708" visible="true" lat="43.28787433" lon="-72.80482752">
    <tag k="addr:city" v="Weston" />
    <tag k="addr:housenumber" v="52" />
    <tag k="addr:street" v="Morgan Hill Road" />
    <tag k="addr:state" v="VT" />
    <tag k="ref:vcgi:esiteid" v="317508" />
  </node>
  <node id="-709" visible="true" lat="43.27657072" lon="-72.81523262">
    <tag k="addr:city" v="Weston" />
    <tag k="addr:housenumber" v="194" />
    <tag k="addr:street" v="Holden Hill Road" />
    <tag k="addr:state" v="VT" />
    <tag k="ref:vcgi:esiteid" v="318251" />
  </node>
  <node id="-710" visible="true" lat="43.27529819" lon="-72.81530555">
    <tag k="addr:city" v="Weston" />
    <tag k="addr:housenumber" v="196" />
    <tag k="addr:street" v="Holden Hill Road" />
    <tag k="addr:state" v="VT" />
    <tag k="ref:vcgi:esiteid" v="318252" />
  </node>
  <node id="-711" visible="true" lat="43.29106417" lon="-72.78914606">
    <tag k="addr:city" v="Weston" />
    <tag k="addr:housenumber" v="7" />
    <tag k="addr:street" v="Orton Lane" />
    <tag k="addr:state" v="VT" />
    <tag k="ref:vcgi:esiteid" v="326868" />
  </node>
  <node id="-712" visible="true" lat="43.25985207" lon="-72.75670185">
    <tag k="addr:city" v="Weston" />
    <tag k="addr:housenumber" v="519" />
    <tag k="addr:street" v="Dale Road" />
    <tag k="addr:state" v="VT" />
    <tag k="ref:vcgi:esiteid" v="328404" />
  </node>
  <node id="-713" visible="true" lat="43.29846767" lon="-72.79511796">
    <tag k="addr:city" v="Weston" />
    <tag k="addr:housenumber" v="14" />
    <tag k="addr:street" v="Wildes Way" />
    <tag k="addr:state" v="VT" />
    <tag k="ref:vcgi:esiteid" v="336069" />
  </node>
  <node id="-714" visible="true" lat="43.25894018" lon="-72.78062557">
    <tag k="addr:city" v="Weston" />
    <tag k="addr:housenumber" v="126" />
    <tag k="addr:street" v="Old Tavern Road" />
    <tag k="addr:state" v="VT" />
    <tag k="ref:vcgi:esiteid" v="336566" />
  </node>
  <node id="-715" visible="true" lat="43.2634995" lon="-72.80526167">
    <tag k="addr:city" v="Weston" />
    <tag k="addr:housenumber" v="133" />
    <tag k="addr:street" v="Highland View Road" />
    <tag k="addr:state" v="VT" />
    <tag k="ref:vcgi:esiteid" v="336685" />
  </node>
  <node id="-716" visible="true" lat="43.30693675" lon="-72.804186">
    <tag k="addr:city" v="Weston" />
    <tag k="addr:housenumber" v="100" />
    <tag k="addr:street" v="Moses Pond Road" />
    <tag k="addr:state" v="VT" />
    <tag k="ref:vcgi:esiteid" v="336740" />
  </node>
  <node id="-717" visible="true" lat="43.25968399" lon="-72.77089767">
    <tag k="addr:city" v="Weston" />
    <tag k="addr:housenumber" v="226" />
    <tag k="addr:street" v="Old Tavern Road" />
    <tag k="addr:state" v="VT" />
    <tag k="ref:vcgi:esiteid" v="338520" />
  </node>
  <node id="-718" visible="true" lat="43.29199025" lon="-72.80095413">
    <tag k="addr:city" v="Weston" />
    <tag k="addr:housenumber" v="52" />
    <tag k="addr:street" v="Landgrove Road" />
    <tag k="addr:state" v="VT" />
    <tag k="ref:vcgi:esiteid" v="341805" />
  </node>
  <node id="-719" visible="true" lat="43.26379554" lon="-72.81515231">
    <tag k="addr:city" v="Weston" />
    <tag k="addr:housenumber" v="407" />
    <tag k="addr:street" v="Holden Hill Road" />
    <tag k="addr:state" v="VT" />
    <tag k="ref:vcgi:esiteid" v="345626" />
  </node>
  <node id="-720" visible="true" lat="43.25987118" lon="-72.77306743">
    <tag k="addr:city" v="Weston" />
    <tag k="addr:housenumber" v="210" />
    <tag k="addr:street" v="Old Tavern Road" />
    <tag k="addr:state" v="VT" />
    <tag k="ref:vcgi:esiteid" v="345868" />
  </node>
  <node id="-721" visible="true" lat="43.3323032" lon="-72.80310572">
    <tag k="addr:city" v="Weston" />
    <tag k="addr:housenumber" v="304" />
    <tag k="addr:street" v="Greendale Road" />
    <tag k="addr:state" v="VT" />
    <tag k="ref:vcgi:esiteid" v="451121" />
  </node>
  <node id="-722" visible="true" lat="43.27383658" lon="-72.8179555">
    <tag k="addr:city" v="Weston" />
    <tag k="addr:housenumber" v="239" />
    <tag k="addr:street" v="Holden Hill Road" />
    <tag k="addr:state" v="VT" />
    <tag k="ref:vcgi:esiteid" v="451124" />
  </node>
  <node id="-723" visible="true" lat="43.32867866" lon="-72.79167483">
    <tag k="addr:city" v="Weston" />
    <tag k="addr:housenumber" v="174" />
    <tag k="addr:street" v="Old County Road" />
    <tag k="addr:state" v="VT" />
    <tag k="ref:vcgi:esiteid" v="611077" />
  </node>
  <node id="-727" visible="true" lat="43.29446972" lon="-72.78132948">
    <tag k="addr:city" v="Weston" />
    <tag k="addr:housenumber" v="93" />
    <tag k="addr:street" v="Chester Mountain Road" />
    <tag k="addr:state" v="VT" />
    <tag k="ref:vcgi:esiteid" v="616583" />
  </node>
  <node id="-728" visible="true" lat="43.29385328" lon="-72.77516132">
    <tag k="addr:city" v="Weston" />
    <tag k="addr:housenumber" v="163" />
    <tag k="addr:street" v="Chester Mountain Road" />
    <tag k="addr:state" v="VT" />
    <tag k="ref:vcgi:esiteid" v="617042" />
  </node>
  <node id="-729" visible="true" lat="43.28189235" lon="-72.81644652">
    <tag k="addr:city" v="Weston" />
    <tag k="addr:housenumber" v="124" />
    <tag k="addr:street" v="Holden Hill Road" />
    <tag k="addr:state" v="VT" />
    <tag k="ref:vcgi:esiteid" v="617043" />
  </node>
  <node id="-730" visible="true" lat="43.28931546" lon="-72.80476838">
    <tag k="addr:city" v="Weston" />
    <tag k="addr:housenumber" v="30" />
    <tag k="addr:street" v="Morgan Hill Road" />
    <tag k="addr:state" v="VT" />
    <tag k="ref:vcgi:esiteid" v="617044" />
  </node>
  <node id="-731" visible="true" lat="43.27087259" lon="-72.78041326">
    <tag k="addr:city" v="Weston" />
    <tag k="addr:housenumber" v="93" />
    <tag k="addr:street" v="Dale Road" />
    <tag k="addr:state" v="VT" />
    <tag k="ref:vcgi:esiteid" v="617045" />
  </node>
  <node id="-732" visible="true" lat="43.35455836" lon="-72.76234849">
    <tag k="addr:city" v="Weston" />
    <tag k="addr:housenumber" v="1722" />
    <tag k="addr:street" v="Vermont Route 100" />
    <tag k="addr:state" v="VT" />
    <tag k="ref:vcgi:esiteid" v="617118" />
  </node>
  <node id="-733" visible="true" lat="43.32431541" lon="-72.77988371">
    <tag k="addr:city" v="Weston" />
    <tag k="addr:housenumber" v="50" />
    <tag k="addr:street" v="Felton Road" />
    <tag k="addr:state" v="VT" />
    <tag k="ref:vcgi:esiteid" v="617940" />
  </node>
  <node id="-815" visible="true" lat="43.26582084" lon="-72.77293126">
    <tag k="addr:city" v="Weston" />
    <tag k="addr:housenumber" v="386" />
    <tag k="addr:street" v="Piper Hill Road" />
    <tag k="addr:state" v="VT" />
    <tag k="ref:vcgi:esiteid" v="619193" />
  </node>
  <node id="-838" visible="true" lat="43.26876276" lon="-72.78819966">
    <tag k="addr:city" v="Weston" />
    <tag k="addr:housenumber" v="329" />
    <tag k="addr:street" v="Vermont Route 100" />
    <tag k="addr:state" v="VT" />
    <tag k="ref:vcgi:esiteid" v="750536" />
  </node>
  <node id="-841" visible="true" lat="43.33959134" lon="-72.81255113">
    <tag k="addr:city" v="Weston" />
    <tag k="addr:housenumber" v="11" />
    <tag k="addr:street" v="Jenny Coolidge Road" />
    <tag k="addr:state" v="VT" />
    <tag k="ref:vcgi:esiteid" v="752040" />
  </node>
  <node id="-842" visible="true" lat="43.2914058" lon="-72.79539464">
    <tag k="addr:city" v="Weston" />
    <tag k="addr:housenumber" v="26" />
    <tag k="addr:street" v="Lawrence Hill Road" />
    <tag k="addr:state" v="VT" />
    <tag k="ref:vcgi:esiteid" v="752041" />
  </node>
  <node id="-844" visible="true" lat="43.34272733" lon="-72.78082148">
    <tag k="addr:city" v="Weston" />
    <tag k="addr:housenumber" v="7" />
    <tag k="addr:street" v="Cider Mill Road" />
    <tag k="addr:state" v="VT" />
    <tag k="ref:vcgi:esiteid" v="752183" />
  </node>
  <node id="-845" visible="true" lat="43.29343273" lon="-72.7889624">
    <tag k="addr:city" v="Weston" />
    <tag k="addr:housenumber" v="705" />
    <tag k="addr:street" v="Main Street" />
    <tag k="addr:state" v="VT" />
    <tag k="ref:vcgi:esiteid" v="753200" />
  </node>
  <node id="-846" visible="true" lat="43.26136886" lon="-72.80264123">
    <tag k="addr:city" v="Weston" />
    <tag k="addr:housenumber" v="178" />
    <tag k="addr:street" v="Highland View Road" />
    <tag k="addr:state" v="VT" />
    <tag k="ref:vcgi:esiteid" v="756161" />
  </node>
  <node id="-847" visible="true" lat="43.26342495" lon="-72.77825637">
    <tag k="addr:city" v="Weston" />
    <tag k="addr:housenumber" v="415" />
    <tag k="addr:street" v="Piper Hill Road" />
    <tag k="addr:state" v="VT" />
    <tag k="ref:vcgi:esiteid" v="756388" />
  </node>
  <node id="-848" visible="true" lat="43.26320408" lon="-72.77572848">
    <tag k="addr:city" v="Weston" />
    <tag k="addr:housenumber" v="420" />
    <tag k="addr:street" v="Piper Hill Road" />
    <tag k="addr:state" v="VT" />
    <tag k="ref:vcgi:esiteid" v="756389" />
  </node>
  <node id="-849" visible="true" lat="43.26125563" lon="-72.80898135">
    <tag k="addr:city" v="Weston" />
    <tag k="addr:housenumber" v="480" />
    <tag k="addr:street" v="Holden Hill Road" />
    <tag k="addr:state" v="VT" />
    <tag k="ref:vcgi:esiteid" v="756390" />
  </node>
  <node id="-850" visible="true" lat="43.25956986" lon="-72.80389107">
    <tag k="addr:city" v="Weston" />
    <tag k="addr:housenumber" v="197" />
    <tag k="addr:street" v="Highland View Road" />
    <tag k="addr:state" v="VT" />
    <tag k="ref:vcgi:esiteid" v="759227" />
  </node>
  <node id="-851" visible="true" lat="43.27671137" lon="-72.7816451">
    <tag k="addr:city" v="Weston" />
    <tag k="addr:housenumber" v="173" />
    <tag k="addr:street" v="Piper Hill Road" />
    <tag k="addr:state" v="VT" />
    <tag k="ref:vcgi:esiteid" v="760776" />
  </node>
  <node id="-853" visible="true" lat="43.2609435" lon="-72.77561277">
    <tag k="addr:city" v="Weston" />
    <tag k="addr:housenumber" v="452" />
    <tag k="addr:street" v="Piper Hill Road" />
    <tag k="addr:state" v="VT" />
    <tag k="ref:vcgi:esiteid" v="761369" />
  </node>
  <node id="-854" visible="true" lat="43.25896546" lon="-72.7776319">
    <tag k="addr:city" v="Weston" />
    <tag k="addr:housenumber" v="463" />
    <tag k="addr:street" v="Piper Hill Road" />
    <tag k="addr:state" v="VT" />
    <tag k="ref:vcgi:esiteid" v="761370" />
  </node>
  <node id="-855" visible="true" lat="43.26763098" lon="-72.80716444">
    <tag k="addr:city" v="Weston" />
    <tag k="addr:housenumber" v="114" />
    <tag k="addr:street" v="Summit Trail Road" />
    <tag k="addr:state" v="VT" />
    <tag k="ref:vcgi:esiteid" v="761467" />
  </node>
  <node id="-856" visible="true" lat="43.29647557" lon="-72.78685643">
    <tag k="addr:city" v="Weston" />
    <tag k="addr:housenumber" v="763" />
    <tag k="addr:street" v="Vermont Route 100" />
    <tag k="addr:state" v="VT" />
    <tag k="ref:vcgi:esiteid" v="761893" />
  </node>
  <node id="-857" visible="true" lat="43.26497674" lon="-72.77704054">
    <tag k="addr:city" v="Weston" />
    <tag k="addr:housenumber" v="401" />
    <tag k="addr:street" v="Piper Hill Road" />
    <tag k="addr:state" v="VT" />
    <tag k="ref:vcgi:esiteid" v="764061" />
  </node>
  <node id="-858" visible="true" lat="43.26703921" lon="-72.7753959">
    <tag k="addr:city" v="Weston" />
    <tag k="addr:housenumber" v="364" />
    <tag k="addr:street" v="Piper Hill Road" />
    <tag k="addr:state" v="VT" />
    <tag k="ref:vcgi:esiteid" v="764325" />
  </node>
  <node id="-859" visible="true" lat="43.32792199" lon="-72.79180991">
    <tag k="addr:city" v="Weston" />
    <tag k="addr:housenumber" v="168" />
    <tag k="addr:street" v="Old County Road" />
    <tag k="addr:state" v="VT" />
    <tag k="ref:vcgi:esiteid" v="765930" />
  </node>
  <node id="-860" visible="true" lat="43.35504576" lon="-72.77013443">
    <tag k="addr:city" v="Weston" />
    <tag k="addr:housenumber" v="107" />
    <tag k="addr:street" v="Slawson Road" />
    <tag k="addr:state" v="VT" />
    <tag k="ref:vcgi:esiteid" v="768729" />
  </node>
  <node id="-861" visible="true" lat="43.25287307" lon="-72.78614313">
    <tag k="addr:city" v="Weston" />
    <tag k="addr:housenumber" v="33" />
    <tag k="addr:street" v="Casper Lane" />
    <tag k="addr:state" v="VT" />
    <tag k="ref:vcgi:esiteid" v="768899" />
  </node>
  <node id="-862" visible="true" lat="43.26887555" lon="-72.77609321">
    <tag k="addr:city" v="Weston" />
    <tag k="addr:housenumber" v="333" />
    <tag k="addr:street" v="Piper Hill Road" />
    <tag k="addr:state" v="VT" />
    <tag k="ref:vcgi:esiteid" v="768923" />
  </node>
  <node id="-863" visible="true" lat="43.26307346" lon="-72.81278455">
    <tag k="addr:city" v="Weston" />
    <tag k="addr:housenumber" v="427" />
    <tag k="addr:street" v="Holden Hill Road" />
    <tag k="addr:state" v="VT" />
    <tag k="ref:vcgi:esiteid" v="800018" />
  </node>
  <node id="-864" visible="true" lat="43.36253724" lon="-72.79488565">
    <tag k="addr:city" v="Weston" />
    <tag k="addr:housenumber" v="392" />
    <tag k="addr:street" v="Vermont Route 155" />
    <tag k="addr:state" v="VT" />
    <tag k="ref:vcgi:esiteid" v="800157" />
  </node>
  <node id="-865" visible="true" lat="43.25399437" lon="-72.79163609">
    <tag k="addr:city" v="Weston" />
    <tag k="addr:housenumber" v="18" />
    <tag k="addr:street" v="Fields Road" />
    <tag k="addr:state" v="VT" />
    <tag k="ref:vcgi:esiteid" v="1050328" />
  </node>
  <node id="-866" visible="true" lat="43.30046023" lon="-72.78642656">
    <tag k="addr:city" v="Weston" />
    <tag k="addr:housenumber" v="826" />
    <tag k="addr:street" v="Vermont Route 100" />
    <tag k="addr:state" v="VT" />
    <tag k="ref:vcgi:esiteid" v="1050329" />
  </node>
  <node id="-867" visible="true" lat="43.31660354" lon="-72.79087323">
    <tag k="addr:city" v="Weston" />
    <tag k="addr:housenumber" v="424" />
    <tag k="addr:street" v="Lawrence Hill Road" />
    <tag k="addr:state" v="VT" />
    <tag k="ref:vcgi:esiteid" v="1050330" />
  </node>
</osm>
