<?xml version="1.0" encoding="UTF-8"?>
<osm version="0.6" generator="JOSM">
  <node id="-100" visible="true" lat="44.0817667" lon="-73.24969367">
    <tag k="addr:city" v="Weybridge" />
    <tag k="addr:housenumber" v="7228" />
    <tag k="addr:street" v="Weybridge Road" />
    <tag k="addr:state" v="VT" />
    <tag k="ref:vcgi:esiteid" v="285199" />
  </node>
  <node id="-101" visible="true" lat="44.08000076" lon="-73.2498552">
    <tag k="addr:city" v="Weybridge" />
    <tag k="addr:housenumber" v="7080" />
    <tag k="addr:street" v="Weybridge Road" />
    <tag k="addr:state" v="VT" />
    <tag k="ref:vcgi:esiteid" v="285200" />
  </node>
  <node id="-102" visible="true" lat="44.07896041" lon="-73.25344848">
    <tag k="addr:city" v="Weybridge" />
    <tag k="addr:housenumber" v="6795" />
    <tag k="addr:street" v="Weybridge Road" />
    <tag k="addr:state" v="VT" />
    <tag k="ref:vcgi:esiteid" v="285201" />
  </node>
  <node id="-103" visible="true" lat="44.07752606" lon="-73.25548683">
    <tag k="addr:city" v="Weybridge" />
    <tag k="addr:housenumber" v="6785" />
    <tag k="addr:street" v="Weybridge Road" />
    <tag k="addr:state" v="VT" />
    <tag k="ref:vcgi:esiteid" v="285202" />
  </node>
  <node id="-104" visible="true" lat="44.07642838" lon="-73.25417249">
    <tag k="addr:city" v="Weybridge" />
    <tag k="addr:housenumber" v="6051" />
    <tag k="addr:street" v="Snake Mountain Road" />
    <tag k="addr:state" v="VT" />
    <tag k="ref:vcgi:esiteid" v="285203" />
  </node>
  <node id="-105" visible="true" lat="44.07575225" lon="-73.23732469">
    <tag k="addr:city" v="Weybridge" />
    <tag k="addr:housenumber" v="3460" />
    <tag k="addr:street" v="Quaker Village Road" />
    <tag k="addr:state" v="VT" />
    <tag k="ref:vcgi:esiteid" v="285204" />
  </node>
  <node id="-106" visible="true" lat="44.0757201" lon="-73.25512781">
    <tag k="addr:city" v="Weybridge" />
    <tag k="addr:housenumber" v="5971" />
    <tag k="addr:street" v="Snake Mountain Road" />
    <tag k="addr:state" v="VT" />
    <tag k="ref:vcgi:esiteid" v="285205" />
  </node>
  <node id="-107" visible="true" lat="44.0753148" lon="-73.23732355">
    <tag k="addr:city" v="Weybridge" />
    <tag k="addr:housenumber" v="3398" />
    <tag k="addr:street" v="Quaker Village Road" />
    <tag k="addr:state" v="VT" />
    <tag k="ref:vcgi:esiteid" v="285206" />
  </node>
  <node id="-108" visible="true" lat="44.07456479" lon="-73.23760039">
    <tag k="addr:city" v="Weybridge" />
    <tag k="addr:housenumber" v="3376" />
    <tag k="addr:street" v="Quaker Village Road" />
    <tag k="addr:state" v="VT" />
    <tag k="ref:vcgi:esiteid" v="285207" />
  </node>
  <node id="-109" visible="true" lat="44.07422965" lon="-73.2565903">
    <tag k="addr:city" v="Weybridge" />
    <tag k="addr:housenumber" v="5931" />
    <tag k="addr:street" v="Snake Mountain Road" />
    <tag k="addr:state" v="VT" />
    <tag k="ref:vcgi:esiteid" v="285208" />
  </node>
  <node id="-110" visible="true" lat="44.07340224" lon="-73.25672389">
    <tag k="addr:city" v="Weybridge" />
    <tag k="addr:housenumber" v="5825" />
    <tag k="addr:street" v="Snake Mountain Road" />
    <tag k="addr:state" v="VT" />
    <tag k="ref:vcgi:esiteid" v="285209" />
  </node>
  <node id="-111" visible="true" lat="44.07279737" lon="-73.2510768">
    <tag k="addr:city" v="Weybridge" />
    <tag k="addr:housenumber" v="6462" />
    <tag k="addr:street" v="Weybridge Road" />
    <tag k="addr:state" v="VT" />
    <tag k="ref:vcgi:esiteid" v="285210" />
  </node>
  <node id="-112" visible="true" lat="44.07174405" lon="-73.25803579">
    <tag k="addr:city" v="Weybridge" />
    <tag k="addr:housenumber" v="5691" />
    <tag k="addr:street" v="Snake Mountain Road" />
    <tag k="addr:state" v="VT" />
    <tag k="ref:vcgi:esiteid" v="285211" />
  </node>
  <node id="-113" visible="true" lat="44.07031393" lon="-73.23998799">
    <tag k="addr:city" v="Weybridge" />
    <tag k="addr:housenumber" v="3143" />
    <tag k="addr:street" v="Quaker Village Road" />
    <tag k="addr:state" v="VT" />
    <tag k="ref:vcgi:esiteid" v="285212" />
  </node>
  <node id="-114" visible="true" lat="44.07071625" lon="-73.23507209">
    <tag k="addr:city" v="Weybridge" />
    <tag k="addr:housenumber" v="3082" />
    <tag k="addr:street" v="Quaker Village Road" />
    <tag k="addr:state" v="VT" />
    <tag k="ref:vcgi:esiteid" v="285213" />
  </node>
  <node id="-115" visible="true" lat="44.07085416" lon="-73.22036114">
    <tag k="addr:city" v="Weybridge" />
    <tag k="addr:housenumber" v="303" />
    <tag k="addr:street" v="Field Days Road" />
    <tag k="addr:state" v="VT" />
    <tag k="ref:vcgi:esiteid" v="285214" />
  </node>
  <node id="-116" visible="true" lat="44.07044846" lon="-73.23565372">
    <tag k="addr:city" v="Weybridge" />
    <tag k="addr:housenumber" v="3066" />
    <tag k="addr:street" v="Quaker Village Road" />
    <tag k="addr:state" v="VT" />
    <tag k="ref:vcgi:esiteid" v="285215" />
  </node>
  <node id="-117" visible="true" lat="44.06997257" lon="-73.23592209">
    <tag k="addr:city" v="Weybridge" />
    <tag k="addr:housenumber" v="3045" />
    <tag k="addr:street" v="Quaker Village Road" />
    <tag k="addr:state" v="VT" />
    <tag k="ref:vcgi:esiteid" v="285217" />
  </node>
  <node id="-118" visible="true" lat="44.07025892" lon="-73.19640029">
    <tag k="addr:city" v="Weybridge" />
    <tag k="addr:housenumber" v="3291" />
    <tag k="addr:street" v="Morgan Horse Farm Road" />
    <tag k="addr:state" v="VT" />
    <tag k="ref:vcgi:esiteid" v="285218" />
  </node>
  <node id="-119" visible="true" lat="44.0698035" lon="-73.22083583">
    <tag k="addr:city" v="Weybridge" />
    <tag k="addr:housenumber" v="223" />
    <tag k="addr:street" v="Field Days Road" />
    <tag k="addr:state" v="VT" />
    <tag k="ref:vcgi:esiteid" v="285219" />
  </node>
  <node id="-120" visible="true" lat="44.06922665" lon="-73.25887699">
    <tag k="addr:city" v="Weybridge" />
    <tag k="addr:housenumber" v="5605" />
    <tag k="addr:street" v="Snake Mountain Road" />
    <tag k="addr:state" v="VT" />
    <tag k="ref:vcgi:esiteid" v="285220" />
  </node>
  <node id="-121" visible="true" lat="44.06977528" lon="-73.19467615">
    <tag k="addr:city" v="Weybridge" />
    <tag k="addr:housenumber" v="3267" />
    <tag k="addr:street" v="Morgan Horse Farm Road" />
    <tag k="addr:state" v="VT" />
    <tag k="ref:vcgi:esiteid" v="285221" />
  </node>
  <node id="-122" visible="true" lat="44.06854078" lon="-73.25968812">
    <tag k="addr:city" v="Weybridge" />
    <tag k="addr:housenumber" v="5431" />
    <tag k="addr:street" v="Snake Mountain Road" />
    <tag k="addr:state" v="VT" />
    <tag k="ref:vcgi:esiteid" v="285222" />
  </node>
  <node id="-123" visible="true" lat="44.06834003" lon="-73.2344141">
    <tag k="addr:city" v="Weybridge" />
    <tag k="addr:housenumber" v="2911" />
    <tag k="addr:street" v="Quaker Village Road" />
    <tag k="addr:state" v="VT" />
    <tag k="ref:vcgi:esiteid" v="285223" />
  </node>
  <node id="-124" visible="true" lat="44.06870864" lon="-73.19576859">
    <tag k="addr:city" v="Weybridge" />
    <tag k="addr:housenumber" v="3193" />
    <tag k="addr:street" v="Morgan Horse Farm Road" />
    <tag k="addr:state" v="VT" />
    <tag k="ref:vcgi:esiteid" v="285224" />
  </node>
  <node id="-125" visible="true" lat="44.06771132" lon="-73.23824022">
    <tag k="addr:city" v="Weybridge" />
    <tag k="addr:housenumber" v="206" />
    <tag k="addr:street" v="Gooseneck Bend Road" />
    <tag k="addr:state" v="VT" />
    <tag k="ref:vcgi:esiteid" v="285225" />
  </node>
  <node id="-126" visible="true" lat="44.06756986" lon="-73.22005229">
    <tag k="addr:city" v="Weybridge" />
    <tag k="addr:housenumber" v="125" />
    <tag k="addr:street" v="Field Days Road" />
    <tag k="addr:state" v="VT" />
    <tag k="ref:vcgi:esiteid" v="285226" />
  </node>
  <node id="-127" visible="true" lat="44.06701304" lon="-73.23766853">
    <tag k="addr:city" v="Weybridge" />
    <tag k="addr:housenumber" v="191" />
    <tag k="addr:street" v="Gooseneck Bend Road" />
    <tag k="addr:state" v="VT" />
    <tag k="ref:vcgi:esiteid" v="285227" />
  </node>
  <node id="-128" visible="true" lat="44.06728241" lon="-73.19310523">
    <tag k="addr:city" v="Weybridge" />
    <tag k="addr:housenumber" v="3036" />
    <tag k="addr:street" v="Morgan Horse Farm Road" />
    <tag k="addr:state" v="VT" />
    <tag k="ref:vcgi:esiteid" v="285228" />
  </node>
  <node id="-129" visible="true" lat="44.06670379" lon="-73.26081848">
    <tag k="addr:city" v="Weybridge" />
    <tag k="addr:housenumber" v="5373" />
    <tag k="addr:street" v="Snake Mountain Road" />
    <tag k="addr:state" v="VT" />
    <tag k="ref:vcgi:esiteid" v="285229" />
  </node>
  <node id="-130" visible="true" lat="44.06692506" lon="-73.19493496">
    <tag k="addr:city" v="Weybridge" />
    <tag k="addr:housenumber" v="3071" />
    <tag k="addr:street" v="Morgan Horse Farm Road" />
    <tag k="addr:state" v="VT" />
    <tag k="ref:vcgi:esiteid" v="285230" />
  </node>
  <node id="-131" visible="true" lat="44.06650508" lon="-73.21589322">
    <tag k="addr:city" v="Weybridge" />
    <tag k="addr:housenumber" v="19" />
    <tag k="addr:street" v="Water Street" />
    <tag k="addr:state" v="VT" />
    <tag k="ref:vcgi:esiteid" v="285231" />
  </node>
  <node id="-132" visible="true" lat="44.06605529" lon="-73.26342773">
    <tag k="addr:city" v="Weybridge" />
    <tag k="addr:housenumber" v="5273" />
    <tag k="addr:street" v="Snake Mountain Road" />
    <tag k="addr:state" v="VT" />
    <tag k="ref:vcgi:esiteid" v="285232" />
  </node>
  <node id="-133" visible="true" lat="44.0664069" lon="-73.20337964">
    <tag k="addr:city" v="Weybridge" />
    <tag k="addr:housenumber" v="310" />
    <tag k="addr:street" v="Pine Ridge Lane" />
    <tag k="addr:state" v="VT" />
    <tag k="ref:vcgi:esiteid" v="285233" />
  </node>
  <node id="-134" visible="true" lat="44.06635284" lon="-73.19512176">
    <tag k="addr:city" v="Weybridge" />
    <tag k="addr:housenumber" v="3031" />
    <tag k="addr:street" v="Morgan Horse Farm Road" />
    <tag k="addr:state" v="VT" />
    <tag k="ref:vcgi:esiteid" v="285234" />
  </node>
  <node id="-135" visible="true" lat="44.06618615" lon="-73.22635061">
    <tag k="addr:city" v="Weybridge" />
    <tag k="addr:housenumber" v="2448" />
    <tag k="addr:street" v="Quaker Village Road" />
    <tag k="addr:state" v="VT" />
    <tag k="ref:vcgi:esiteid" v="285235" />
  </node>
  <node id="-136" visible="true" lat="44.06607572" lon="-73.21766438">
    <tag k="addr:city" v="Weybridge" />
    <tag k="addr:housenumber" v="2023" />
    <tag k="addr:street" v="Quaker Village Road" />
    <tag k="addr:state" v="VT" />
    <tag k="ref:vcgi:esiteid" v="285236" />
  </node>
  <node id="-137" visible="true" lat="44.06617028" lon="-73.19718446">
    <tag k="addr:city" v="Weybridge" />
    <tag k="addr:housenumber" v="3109" />
    <tag k="addr:street" v="Morgan Horse Farm Road" />
    <tag k="addr:state" v="VT" />
    <tag k="ref:vcgi:esiteid" v="285237" />
  </node>
  <node id="-138" visible="true" lat="44.06593591" lon="-73.22401846">
    <tag k="addr:city" v="Weybridge" />
    <tag k="addr:housenumber" v="2345" />
    <tag k="addr:street" v="Quaker Village Road" />
    <tag k="addr:state" v="VT" />
    <tag k="ref:vcgi:esiteid" v="285238" />
  </node>
  <node id="-139" visible="true" lat="44.06587005" lon="-73.21569812">
    <tag k="addr:city" v="Weybridge" />
    <tag k="addr:housenumber" v="1903" />
    <tag k="addr:street" v="Quaker Village Road" />
    <tag k="addr:state" v="VT" />
    <tag k="ref:vcgi:esiteid" v="285239" />
  </node>
  <node id="-140" visible="true" lat="44.06612004" lon="-73.21649237">
    <tag k="addr:city" v="Weybridge" />
    <tag k="addr:housenumber" v="1973" />
    <tag k="addr:street" v="Quaker Village Road" />
    <tag k="addr:state" v="VT" />
    <tag k="ref:vcgi:esiteid" v="285240" />
  </node>
  <node id="-141" visible="true" lat="44.06608779" lon="-73.19515001">
    <tag k="addr:city" v="Weybridge" />
    <tag k="addr:housenumber" v="3013" />
    <tag k="addr:street" v="Morgan Horse Farm Road" />
    <tag k="addr:state" v="VT" />
    <tag k="ref:vcgi:esiteid" v="285241" />
  </node>
  <node id="-142" visible="true" lat="44.06572461" lon="-73.22558985">
    <tag k="addr:city" v="Weybridge" />
    <tag k="addr:housenumber" v="2425" />
    <tag k="addr:street" v="Quaker Village Road" />
    <tag k="addr:state" v="VT" />
    <tag k="ref:vcgi:esiteid" v="285242" />
  </node>
  <node id="-143" visible="true" lat="44.06530553" lon="-73.25929665">
    <tag k="addr:city" v="Weybridge" />
    <tag k="addr:housenumber" v="5224" />
    <tag k="addr:street" v="Snake Mountain Road" />
    <tag k="addr:state" v="VT" />
    <tag k="ref:vcgi:esiteid" v="285243" />
  </node>
  <node id="-144" visible="true" lat="44.06511379" lon="-73.22584219">
    <tag k="addr:city" v="Weybridge" />
    <tag k="addr:housenumber" v="2439" />
    <tag k="addr:street" v="Quaker Village Road" />
    <tag k="addr:state" v="VT" />
    <tag k="ref:vcgi:esiteid" v="285244" />
  </node>
  <node id="-145" visible="true" lat="44.06536613" lon="-73.22029227">
    <tag k="addr:city" v="Weybridge" />
    <tag k="addr:housenumber" v="66" />
    <tag k="addr:street" v="Meetinghouse Lane" />
    <tag k="addr:state" v="VT" />
    <tag k="ref:vcgi:esiteid" v="285245" />
  </node>
  <node id="-146" visible="true" lat="44.06541824" lon="-73.21823883">
    <tag k="addr:city" v="Weybridge" />
    <tag k="addr:housenumber" v="2041" />
    <tag k="addr:street" v="Quaker Village Road" />
    <tag k="addr:state" v="VT" />
    <tag k="ref:vcgi:esiteid" v="285246" />
  </node>
  <node id="-147" visible="true" lat="44.0655841" lon="-73.19679095">
    <tag k="addr:city" v="Weybridge" />
    <tag k="addr:housenumber" v="88" />
    <tag k="addr:street" v="Pine Ridge Lane" />
    <tag k="addr:state" v="VT" />
    <tag k="ref:vcgi:esiteid" v="285247" />
  </node>
  <node id="-148" visible="true" lat="44.06555595" lon="-73.1952214">
    <tag k="addr:city" v="Weybridge" />
    <tag k="addr:housenumber" v="2963" />
    <tag k="addr:street" v="Morgan Horse Farm Road" />
    <tag k="addr:state" v="VT" />
    <tag k="ref:vcgi:esiteid" v="285249" />
  </node>
  <node id="-149" visible="true" lat="44.06519107" lon="-73.2283496">
    <tag k="addr:city" v="Weybridge" />
    <tag k="addr:housenumber" v="60" />
    <tag k="addr:street" v="Oxbow Lane" />
    <tag k="addr:state" v="VT" />
    <tag k="ref:vcgi:esiteid" v="285250" />
  </node>
  <node id="-150" visible="true" lat="44.06459901" lon="-73.25999881">
    <tag k="addr:city" v="Weybridge" />
    <tag k="addr:housenumber" v="5197" />
    <tag k="addr:street" v="Snake Mountain Road" />
    <tag k="addr:state" v="VT" />
    <tag k="ref:vcgi:esiteid" v="285251" />
  </node>
  <node id="-151" visible="true" lat="44.06494505" lon="-73.21556962">
    <tag k="addr:city" v="Weybridge" />
    <tag k="addr:housenumber" v="1835" />
    <tag k="addr:street" v="Quaker Village Road" />
    <tag k="addr:state" v="VT" />
    <tag k="ref:vcgi:esiteid" v="285252" />
  </node>
  <node id="-152" visible="true" lat="44.0647444" lon="-73.21555151">
    <tag k="addr:city" v="Weybridge" />
    <tag k="addr:housenumber" v="1827" />
    <tag k="addr:street" v="Quaker Village Road" />
    <tag k="addr:state" v="VT" />
    <tag k="ref:vcgi:esiteid" v="285253" />
  </node>
  <node id="-153" visible="true" lat="44.06475448" lon="-73.21954345">
    <tag k="addr:city" v="Weybridge" />
    <tag k="addr:housenumber" v="80" />
    <tag k="addr:street" v="Meetinghouse Lane" />
    <tag k="addr:state" v="VT" />
    <tag k="ref:vcgi:esiteid" v="285254" />
  </node>
  <node id="-154" visible="true" lat="44.06455727" lon="-73.21554118">
    <tag k="addr:city" v="Weybridge" />
    <tag k="addr:housenumber" v="1809" />
    <tag k="addr:street" v="Quaker Village Road" />
    <tag k="addr:state" v="VT" />
    <tag k="ref:vcgi:esiteid" v="285255" />
  </node>
  <node id="-155" visible="true" lat="44.06436058" lon="-73.1952029">
    <tag k="addr:city" v="Weybridge" />
    <tag k="addr:housenumber" v="33" />
    <tag k="addr:street" v="Pine Ridge Lane" />
    <tag k="addr:state" v="VT" />
    <tag k="ref:vcgi:esiteid" v="285256" />
  </node>
  <node id="-156" visible="true" lat="44.06428527" lon="-73.2154541">
    <tag k="addr:city" v="Weybridge" />
    <tag k="addr:housenumber" v="1787" />
    <tag k="addr:street" v="Quaker Village Road" />
    <tag k="addr:state" v="VT" />
    <tag k="ref:vcgi:esiteid" v="285257" />
  </node>
  <node id="-157" visible="true" lat="44.06396414" lon="-73.20194585">
    <tag k="addr:city" v="Weybridge" />
    <tag k="addr:housenumber" v="257" />
    <tag k="addr:street" v="Pine Ridge Lane" />
    <tag k="addr:state" v="VT" />
    <tag k="ref:vcgi:esiteid" v="285259" />
  </node>
  <node id="-158" visible="true" lat="44.0640099" lon="-73.19731744">
    <tag k="addr:city" v="Weybridge" />
    <tag k="addr:housenumber" v="99" />
    <tag k="addr:street" v="Pine Ridge Lane" />
    <tag k="addr:state" v="VT" />
    <tag k="ref:vcgi:esiteid" v="285260" />
  </node>
  <node id="-159" visible="true" lat="44.06406743" lon="-73.19391513">
    <tag k="addr:city" v="Weybridge" />
    <tag k="addr:housenumber" v="2872" />
    <tag k="addr:street" v="Morgan Horse Farm Road" />
    <tag k="addr:state" v="VT" />
    <tag k="ref:vcgi:esiteid" v="285261" />
  </node>
  <node id="-160" visible="true" lat="44.06384725" lon="-73.19441235">
    <tag k="addr:city" v="Weybridge" />
    <tag k="addr:housenumber" v="2853" />
    <tag k="addr:street" v="Morgan Horse Farm Road" />
    <tag k="addr:state" v="VT" />
    <tag k="ref:vcgi:esiteid" v="285262" />
  </node>
  <node id="-161" visible="true" lat="44.06364164" lon="-73.21369154">
    <tag k="addr:city" v="Weybridge" />
    <tag k="addr:housenumber" v="1736" />
    <tag k="addr:street" v="Quaker Village Road" />
    <tag k="addr:state" v="VT" />
    <tag k="ref:vcgi:esiteid" v="285263" />
  </node>
  <node id="-162" visible="true" lat="44.06348635" lon="-73.21547323">
    <tag k="addr:city" v="Weybridge" />
    <tag k="addr:housenumber" v="1727" />
    <tag k="addr:street" v="Quaker Village Road" />
    <tag k="addr:state" v="VT" />
    <tag k="ref:vcgi:esiteid" v="285264" />
  </node>
  <node id="-163" visible="true" lat="44.06352321" lon="-73.24245383">
    <tag k="addr:city" v="Weybridge" />
    <tag k="addr:housenumber" v="5514" />
    <tag k="addr:street" v="Weybridge Road" />
    <tag k="addr:state" v="VT" />
    <tag k="ref:vcgi:esiteid" v="285265" />
  </node>
  <node id="-164" visible="true" lat="44.06310653" lon="-73.24425506">
    <tag k="addr:city" v="Weybridge" />
    <tag k="addr:housenumber" v="5612" />
    <tag k="addr:street" v="Weybridge Road" />
    <tag k="addr:state" v="VT" />
    <tag k="ref:vcgi:esiteid" v="285266" />
  </node>
  <node id="-165" visible="true" lat="44.06287262" lon="-73.26025991">
    <tag k="addr:city" v="Weybridge" />
    <tag k="addr:housenumber" v="5085" />
    <tag k="addr:street" v="Snake Mountain Road" />
    <tag k="addr:state" v="VT" />
    <tag k="ref:vcgi:esiteid" v="285267" />
  </node>
  <node id="-166" visible="true" lat="44.06318288" lon="-73.21492429">
    <tag k="addr:city" v="Weybridge" />
    <tag k="addr:housenumber" v="1712" />
    <tag k="addr:street" v="Quaker Village Road" />
    <tag k="addr:state" v="VT" />
    <tag k="ref:vcgi:esiteid" v="285268" />
  </node>
  <node id="-167" visible="true" lat="44.06301778" lon="-73.25723882">
    <tag k="addr:city" v="Weybridge" />
    <tag k="addr:housenumber" v="402" />
    <tag k="addr:street" v="Thompson Hill Road" />
    <tag k="addr:state" v="VT" />
    <tag k="ref:vcgi:esiteid" v="285269" />
  </node>
  <node id="-168" visible="true" lat="44.06276729" lon="-73.24517059">
    <tag k="addr:city" v="Weybridge" />
    <tag k="addr:housenumber" v="5643" />
    <tag k="addr:street" v="Weybridge Road" />
    <tag k="addr:state" v="VT" />
    <tag k="ref:vcgi:esiteid" v="285270" />
  </node>
  <node id="-169" visible="true" lat="44.06234811" lon="-73.24473521">
    <tag k="addr:city" v="Weybridge" />
    <tag k="addr:housenumber" v="5607" />
    <tag k="addr:street" v="Weybridge Road" />
    <tag k="addr:state" v="VT" />
    <tag k="ref:vcgi:esiteid" v="285271" />
  </node>
  <node id="-170" visible="true" lat="44.06292795" lon="-73.2153963">
    <tag k="addr:city" v="Weybridge" />
    <tag k="addr:housenumber" v="1699" />
    <tag k="addr:street" v="Quaker Village Road" />
    <tag k="addr:state" v="VT" />
    <tag k="ref:vcgi:esiteid" v="285272" />
  </node>
  <node id="-171" visible="true" lat="44.06276272" lon="-73.25508599">
    <tag k="addr:city" v="Weybridge" />
    <tag k="addr:housenumber" v="340" />
    <tag k="addr:street" v="Thompson Hill Road" />
    <tag k="addr:state" v="VT" />
    <tag k="ref:vcgi:esiteid" v="285273" />
  </node>
  <node id="-172" visible="true" lat="44.063171" lon="-73.19464618">
    <tag k="addr:city" v="Weybridge" />
    <tag k="addr:housenumber" v="2813" />
    <tag k="addr:street" v="Morgan Horse Farm Road" />
    <tag k="addr:state" v="VT" />
    <tag k="ref:vcgi:esiteid" v="285274" />
  </node>
  <node id="-173" visible="true" lat="44.06269914" lon="-73.21425333">
    <tag k="addr:city" v="Weybridge" />
    <tag k="addr:housenumber" v="1666" />
    <tag k="addr:street" v="Quaker Village Road" />
    <tag k="addr:state" v="VT" />
    <tag k="ref:vcgi:esiteid" v="285275" />
  </node>
  <node id="-175" visible="true" lat="44.06234433" lon="-73.25881345">
    <tag k="addr:city" v="Weybridge" />
    <tag k="addr:housenumber" v="504" />
    <tag k="addr:street" v="Thompson Hill Road" />
    <tag k="addr:state" v="VT" />
    <tag k="ref:vcgi:esiteid" v="285277" />
  </node>
  <node id="-176" visible="true" lat="44.06232007" lon="-73.21544001">
    <tag k="addr:city" v="Weybridge" />
    <tag k="addr:housenumber" v="1651" />
    <tag k="addr:street" v="Quaker Village Road" />
    <tag k="addr:state" v="VT" />
    <tag k="ref:vcgi:esiteid" v="285278" />
  </node>
  <node id="-177" visible="true" lat="44.06187826" lon="-73.23680767">
    <tag k="addr:city" v="Weybridge" />
    <tag k="addr:housenumber" v="5244" />
    <tag k="addr:street" v="Weybridge Road" />
    <tag k="addr:state" v="VT" />
    <tag k="ref:vcgi:esiteid" v="285279" />
  </node>
  <node id="-178" visible="true" lat="44.06186297" lon="-73.224943">
    <tag k="addr:city" v="Weybridge" />
    <tag k="addr:housenumber" v="337" />
    <tag k="addr:street" v="Oxbow Lane" />
    <tag k="addr:state" v="VT" />
    <tag k="ref:vcgi:esiteid" v="285280" />
  </node>
  <node id="-179" visible="true" lat="44.06210566" lon="-73.21179583">
    <tag k="addr:city" v="Weybridge" />
    <tag k="addr:housenumber" v="1572" />
    <tag k="addr:street" v="Quaker Village Road" />
    <tag k="addr:state" v="VT" />
    <tag k="ref:vcgi:esiteid" v="285281" />
  </node>
  <node id="-180" visible="true" lat="44.06084282" lon="-73.21514577">
    <tag k="addr:city" v="Weybridge" />
    <tag k="addr:housenumber" v="1555" />
    <tag k="addr:street" v="Quaker Village Road" />
    <tag k="addr:state" v="VT" />
    <tag k="ref:vcgi:esiteid" v="285282" />
  </node>
  <node id="-181" visible="true" lat="44.06085867" lon="-73.2144961">
    <tag k="addr:city" v="Weybridge" />
    <tag k="addr:housenumber" v="1538" />
    <tag k="addr:street" v="Quaker Village Road" />
    <tag k="addr:state" v="VT" />
    <tag k="ref:vcgi:esiteid" v="285283" />
  </node>
  <node id="-182" visible="true" lat="44.05986378" lon="-73.25617782">
    <tag k="addr:city" v="Weybridge" />
    <tag k="addr:housenumber" v="4818" />
    <tag k="addr:street" v="Snake Mountain Road" />
    <tag k="addr:state" v="VT" />
    <tag k="ref:vcgi:esiteid" v="285284" />
  </node>
  <node id="-183" visible="true" lat="44.05921281" lon="-73.2563481">
    <tag k="addr:city" v="Weybridge" />
    <tag k="addr:housenumber" v="4774" />
    <tag k="addr:street" v="Snake Mountain Road" />
    <tag k="addr:state" v="VT" />
    <tag k="ref:vcgi:esiteid" v="285285" />
  </node>
  <node id="-184" visible="true" lat="44.05910122" lon="-73.23466098">
    <tag k="addr:city" v="Weybridge" />
    <tag k="addr:housenumber" v="5025" />
    <tag k="addr:street" v="Weybridge Road" />
    <tag k="addr:state" v="VT" />
    <tag k="ref:vcgi:esiteid" v="285286" />
  </node>
  <node id="-185" visible="true" lat="44.05790234" lon="-73.25865544">
    <tag k="addr:city" v="Weybridge" />
    <tag k="addr:housenumber" v="4677" />
    <tag k="addr:street" v="Snake Mountain Road" />
    <tag k="addr:state" v="VT" />
    <tag k="ref:vcgi:esiteid" v="285287" />
  </node>
  <node id="-186" visible="true" lat="44.05864496" lon="-73.2150005">
    <tag k="addr:city" v="Weybridge" />
    <tag k="addr:housenumber" v="1351" />
    <tag k="addr:street" v="Quaker Village Road" />
    <tag k="addr:state" v="VT" />
    <tag k="ref:vcgi:esiteid" v="285288" />
  </node>
  <node id="-187" visible="true" lat="44.05805795" lon="-73.19995173">
    <tag k="addr:city" v="Weybridge" />
    <tag k="addr:housenumber" v="42" />
    <tag k="addr:street" v="Lafountain Lane" />
    <tag k="addr:state" v="VT" />
    <tag k="ref:vcgi:esiteid" v="285289" />
  </node>
  <node id="-188" visible="true" lat="44.05797195" lon="-73.19166564">
    <tag k="addr:city" v="Weybridge" />
    <tag k="addr:housenumber" v="2439" />
    <tag k="addr:street" v="Morgan Horse Farm Road" />
    <tag k="addr:state" v="VT" />
    <tag k="ref:vcgi:esiteid" v="285290" />
  </node>
  <node id="-189" visible="true" lat="44.05774968" lon="-73.21407199">
    <tag k="addr:city" v="Weybridge" />
    <tag k="addr:housenumber" v="1336" />
    <tag k="addr:street" v="Quaker Village Road" />
    <tag k="addr:state" v="VT" />
    <tag k="ref:vcgi:esiteid" v="285291" />
  </node>
  <node id="-190" visible="true" lat="44.05723267" lon="-73.23198179">
    <tag k="addr:city" v="Weybridge" />
    <tag k="addr:housenumber" v="4840" />
    <tag k="addr:street" v="Weybridge Road" />
    <tag k="addr:state" v="VT" />
    <tag k="ref:vcgi:esiteid" v="285292" />
  </node>
  <node id="-191" visible="true" lat="44.0569388" lon="-73.21259162">
    <tag k="addr:city" v="Weybridge" />
    <tag k="addr:housenumber" v="1284" />
    <tag k="addr:street" v="Quaker Village Road" />
    <tag k="addr:state" v="VT" />
    <tag k="ref:vcgi:esiteid" v="285293" />
  </node>
  <node id="-192" visible="true" lat="44.05656589" lon="-73.25555167">
    <tag k="addr:city" v="Weybridge" />
    <tag k="addr:housenumber" v="4550" />
    <tag k="addr:street" v="Snake Mountain Road" />
    <tag k="addr:state" v="VT" />
    <tag k="ref:vcgi:esiteid" v="285294" />
  </node>
  <node id="-193" visible="true" lat="44.05682551" lon="-73.20081864">
    <tag k="addr:city" v="Weybridge" />
    <tag k="addr:housenumber" v="95" />
    <tag k="addr:street" v="Lafountain Lane" />
    <tag k="addr:state" v="VT" />
    <tag k="ref:vcgi:esiteid" v="285295" />
  </node>
  <node id="-194" visible="true" lat="44.05652301" lon="-73.19776157">
    <tag k="addr:city" v="Weybridge" />
    <tag k="addr:housenumber" v="100" />
    <tag k="addr:street" v="Bunny Lane" />
    <tag k="addr:state" v="VT" />
    <tag k="ref:vcgi:esiteid" v="285296" />
  </node>
  <node id="-195" visible="true" lat="44.05665438" lon="-73.19122613">
    <tag k="addr:city" v="Weybridge" />
    <tag k="addr:housenumber" v="2309" />
    <tag k="addr:street" v="Morgan Horse Farm Road" />
    <tag k="addr:state" v="VT" />
    <tag k="ref:vcgi:esiteid" v="285297" />
  </node>
  <node id="-196" visible="true" lat="44.05643503" lon="-73.20015636">
    <tag k="addr:city" v="Weybridge" />
    <tag k="addr:housenumber" v="58" />
    <tag k="addr:street" v="Lafountain Lane" />
    <tag k="addr:state" v="VT" />
    <tag k="ref:vcgi:esiteid" v="285298" />
  </node>
  <node id="-197" visible="true" lat="44.05627956" lon="-73.19895071">
    <tag k="addr:city" v="Weybridge" />
    <tag k="addr:housenumber" v="964" />
    <tag k="addr:street" v="Cave Road" />
    <tag k="addr:state" v="VT" />
    <tag k="ref:vcgi:esiteid" v="285299" />
  </node>
  <node id="-198" visible="true" lat="44.05587118" lon="-73.23168556">
    <tag k="addr:city" v="Weybridge" />
    <tag k="addr:housenumber" v="4754" />
    <tag k="addr:street" v="Weybridge Road" />
    <tag k="addr:state" v="VT" />
    <tag k="ref:vcgi:esiteid" v="285300" />
  </node>
  <node id="-199" visible="true" lat="44.05589045" lon="-73.19903317">
    <tag k="addr:city" v="Weybridge" />
    <tag k="addr:housenumber" v="952" />
    <tag k="addr:street" v="Cave Road" />
    <tag k="addr:state" v="VT" />
    <tag k="ref:vcgi:esiteid" v="285301" />
  </node>
  <node id="-200" visible="true" lat="44.05566719" lon="-73.18995061">
    <tag k="addr:city" v="Weybridge" />
    <tag k="addr:housenumber" v="2249" />
    <tag k="addr:street" v="Morgan Horse Farm Road" />
    <tag k="addr:state" v="VT" />
    <tag k="ref:vcgi:esiteid" v="285302" />
  </node>
  <node id="-201" visible="true" lat="44.05535864" lon="-73.19941854">
    <tag k="addr:city" v="Weybridge" />
    <tag k="addr:housenumber" v="924" />
    <tag k="addr:street" v="Cave Road" />
    <tag k="addr:state" v="VT" />
    <tag k="ref:vcgi:esiteid" v="285303" />
  </node>
  <node id="-202" visible="true" lat="44.05503618" lon="-73.20077845">
    <tag k="addr:city" v="Weybridge" />
    <tag k="addr:housenumber" v="871" />
    <tag k="addr:street" v="Cave Road" />
    <tag k="addr:state" v="VT" />
    <tag k="ref:vcgi:esiteid" v="285304" />
  </node>
  <node id="-203" visible="true" lat="44.05482634" lon="-73.19772063">
    <tag k="addr:city" v="Weybridge" />
    <tag k="addr:housenumber" v="942" />
    <tag k="addr:street" v="Cave Road" />
    <tag k="addr:state" v="VT" />
    <tag k="ref:vcgi:esiteid" v="285305" />
  </node>
  <node id="-204" visible="true" lat="44.05450432" lon="-73.25516899">
    <tag k="addr:city" v="Weybridge" />
    <tag k="addr:housenumber" v="4424" />
    <tag k="addr:street" v="Snake Mountain Road" />
    <tag k="addr:state" v="VT" />
    <tag k="ref:vcgi:esiteid" v="285306" />
  </node>
  <node id="-205" visible="true" lat="44.05429583" lon="-73.19956339">
    <tag k="addr:city" v="Weybridge" />
    <tag k="addr:housenumber" v="854" />
    <tag k="addr:street" v="Cave Road" />
    <tag k="addr:state" v="VT" />
    <tag k="ref:vcgi:esiteid" v="285307" />
  </node>
  <node id="-206" visible="true" lat="44.05443573" lon="-73.20076751">
    <tag k="addr:city" v="Weybridge" />
    <tag k="addr:housenumber" v="843" />
    <tag k="addr:street" v="Cave Road" />
    <tag k="addr:state" v="VT" />
    <tag k="ref:vcgi:esiteid" v="285308" />
  </node>
  <node id="-207" visible="true" lat="44.05386445" lon="-73.2029571">
    <tag k="addr:city" v="Weybridge" />
    <tag k="addr:housenumber" v="763" />
    <tag k="addr:street" v="Cave Road" />
    <tag k="addr:state" v="VT" />
    <tag k="ref:vcgi:esiteid" v="285309" />
  </node>
  <node id="-208" visible="true" lat="44.05354758" lon="-73.21230928">
    <tag k="addr:city" v="Weybridge" />
    <tag k="addr:housenumber" v="1154" />
    <tag k="addr:street" v="Quaker Village Road" />
    <tag k="addr:state" v="VT" />
    <tag k="ref:vcgi:esiteid" v="285310" />
  </node>
  <node id="-209" visible="true" lat="44.05304952" lon="-73.2563308">
    <tag k="addr:city" v="Weybridge" />
    <tag k="addr:housenumber" v="4341" />
    <tag k="addr:street" v="Snake Mountain Road" />
    <tag k="addr:state" v="VT" />
    <tag k="ref:vcgi:esiteid" v="285311" />
  </node>
  <node id="-210" visible="true" lat="44.05306198" lon="-73.23196291">
    <tag k="addr:city" v="Weybridge" />
    <tag k="addr:housenumber" v="4552" />
    <tag k="addr:street" v="Weybridge Road" />
    <tag k="addr:state" v="VT" />
    <tag k="ref:vcgi:esiteid" v="285312" />
  </node>
  <node id="-211" visible="true" lat="44.05280759" lon="-73.19977396">
    <tag k="addr:city" v="Weybridge" />
    <tag k="addr:housenumber" v="718" />
    <tag k="addr:street" v="Cave Road" />
    <tag k="addr:state" v="VT" />
    <tag k="ref:vcgi:esiteid" v="285313" />
  </node>
  <node id="-212" visible="true" lat="44.05211639" lon="-73.255867">
    <tag k="addr:city" v="Weybridge" />
    <tag k="addr:housenumber" v="4281" />
    <tag k="addr:street" v="Snake Mountain Road" />
    <tag k="addr:state" v="VT" />
    <tag k="ref:vcgi:esiteid" v="285314" />
  </node>
  <node id="-213" visible="true" lat="44.05202137" lon="-73.19970149">
    <tag k="addr:city" v="Weybridge" />
    <tag k="addr:housenumber" v="678" />
    <tag k="addr:street" v="Cave Road" />
    <tag k="addr:state" v="VT" />
    <tag k="ref:vcgi:esiteid" v="285315" />
  </node>
  <node id="-214" visible="true" lat="44.05154523" lon="-73.20093603">
    <tag k="addr:city" v="Weybridge" />
    <tag k="addr:housenumber" v="609" />
    <tag k="addr:street" v="Cave Road" />
    <tag k="addr:state" v="VT" />
    <tag k="ref:vcgi:esiteid" v="285316" />
  </node>
  <node id="-215" visible="true" lat="44.0511437" lon="-73.21453805">
    <tag k="addr:city" v="Weybridge" />
    <tag k="addr:housenumber" v="831" />
    <tag k="addr:street" v="Quaker Village Road" />
    <tag k="addr:state" v="VT" />
    <tag k="ref:vcgi:esiteid" v="285317" />
  </node>
  <node id="-216" visible="true" lat="44.05081861" lon="-73.23229749">
    <tag k="addr:city" v="Weybridge" />
    <tag k="addr:housenumber" v="26" />
    <tag k="addr:street" v="Prunier Road" />
    <tag k="addr:state" v="VT" />
    <tag k="ref:vcgi:esiteid" v="285318" />
  </node>
  <node id="-217" visible="true" lat="44.05036926" lon="-73.25875854">
    <tag k="addr:city" v="Weybridge" />
    <tag k="addr:housenumber" v="4167" />
    <tag k="addr:street" v="Snake Mountain Road" />
    <tag k="addr:state" v="VT" />
    <tag k="ref:vcgi:esiteid" v="285319" />
  </node>
  <node id="-218" visible="true" lat="44.05071946" lon="-73.21349649">
    <tag k="addr:city" v="Weybridge" />
    <tag k="addr:housenumber" v="830" />
    <tag k="addr:street" v="Quaker Village Road" />
    <tag k="addr:state" v="VT" />
    <tag k="ref:vcgi:esiteid" v="285320" />
  </node>
  <node id="-219" visible="true" lat="44.05070363" lon="-73.19924036">
    <tag k="addr:city" v="Weybridge" />
    <tag k="addr:housenumber" v="564" />
    <tag k="addr:street" v="Cave Road" />
    <tag k="addr:state" v="VT" />
    <tag k="ref:vcgi:esiteid" v="285321" />
  </node>
  <node id="-220" visible="true" lat="44.05027125" lon="-73.23218087">
    <tag k="addr:city" v="Weybridge" />
    <tag k="addr:housenumber" v="27" />
    <tag k="addr:street" v="Prunier Road" />
    <tag k="addr:state" v="VT" />
    <tag k="ref:vcgi:esiteid" v="285322" />
  </node>
  <node id="-221" visible="true" lat="44.05022386" lon="-73.23182131">
    <tag k="addr:city" v="Weybridge" />
    <tag k="addr:housenumber" v="7" />
    <tag k="addr:street" v="Prunier Road" />
    <tag k="addr:state" v="VT" />
    <tag k="ref:vcgi:esiteid" v="285323" />
  </node>
  <node id="-222" visible="true" lat="44.05020067" lon="-73.20244097">
    <tag k="addr:city" v="Weybridge" />
    <tag k="addr:housenumber" v="563" />
    <tag k="addr:street" v="Cave Road" />
    <tag k="addr:state" v="VT" />
    <tag k="ref:vcgi:esiteid" v="285324" />
  </node>
  <node id="-223" visible="true" lat="44.04992388" lon="-73.23171815">
    <tag k="addr:city" v="Weybridge" />
    <tag k="addr:housenumber" v="29" />
    <tag k="addr:street" v="Prunier Road" />
    <tag k="addr:state" v="VT" />
    <tag k="ref:vcgi:esiteid" v="285325" />
  </node>
  <node id="-224" visible="true" lat="44.04970112" lon="-73.25384681">
    <tag k="addr:city" v="Weybridge" />
    <tag k="addr:housenumber" v="4050" />
    <tag k="addr:street" v="Snake Mountain Road" />
    <tag k="addr:state" v="VT" />
    <tag k="ref:vcgi:esiteid" v="285326" />
  </node>
  <node id="-225" visible="true" lat="44.04980245" lon="-73.23801849">
    <tag k="addr:city" v="Weybridge" />
    <tag k="addr:housenumber" v="346" />
    <tag k="addr:street" v="Prunier Road" />
    <tag k="addr:state" v="VT" />
    <tag k="ref:vcgi:esiteid" v="285327" />
  </node>
  <node id="-226" visible="true" lat="44.0497073" lon="-73.2387863">
    <tag k="addr:city" v="Weybridge" />
    <tag k="addr:housenumber" v="366" />
    <tag k="addr:street" v="Prunier Road" />
    <tag k="addr:state" v="VT" />
    <tag k="ref:vcgi:esiteid" v="285328" />
  </node>
  <node id="-227" visible="true" lat="44.04913993" lon="-73.23849128">
    <tag k="addr:city" v="Weybridge" />
    <tag k="addr:housenumber" v="357" />
    <tag k="addr:street" v="Prunier Road" />
    <tag k="addr:state" v="VT" />
    <tag k="ref:vcgi:esiteid" v="285329" />
  </node>
  <node id="-228" visible="true" lat="44.04918731" lon="-73.23217094">
    <tag k="addr:city" v="Weybridge" />
    <tag k="addr:housenumber" v="31" />
    <tag k="addr:street" v="Prunier Road" />
    <tag k="addr:state" v="VT" />
    <tag k="ref:vcgi:esiteid" v="285330" />
  </node>
  <node id="-229" visible="true" lat="44.04930904" lon="-73.19842103">
    <tag k="addr:city" v="Weybridge" />
    <tag k="addr:housenumber" v="540" />
    <tag k="addr:street" v="Cave Road" />
    <tag k="addr:state" v="VT" />
    <tag k="ref:vcgi:esiteid" v="285331" />
  </node>
  <node id="-230" visible="true" lat="44.04948566" lon="-73.18846757">
    <tag k="addr:city" v="Weybridge" />
    <tag k="addr:housenumber" v="1816" />
    <tag k="addr:street" v="Morgan Horse Farm Road" />
    <tag k="addr:state" v="VT" />
    <tag k="ref:vcgi:esiteid" v="285332" />
  </node>
  <node id="-231" visible="true" lat="44.04929492" lon="-73.19877034">
    <tag k="addr:city" v="Weybridge" />
    <tag k="addr:housenumber" v="538" />
    <tag k="addr:street" v="Cave Road" />
    <tag k="addr:state" v="VT" />
    <tag k="ref:vcgi:esiteid" v="285333" />
  </node>
  <node id="-232" visible="true" lat="44.04873902" lon="-73.21452759">
    <tag k="addr:city" v="Weybridge" />
    <tag k="addr:housenumber" v="735" />
    <tag k="addr:street" v="Quaker Village Road" />
    <tag k="addr:state" v="VT" />
    <tag k="ref:vcgi:esiteid" v="285334" />
  </node>
  <node id="-233" visible="true" lat="44.04885482" lon="-73.20137787">
    <tag k="addr:city" v="Weybridge" />
    <tag k="addr:housenumber" v="455" />
    <tag k="addr:street" v="Cave Road" />
    <tag k="addr:state" v="VT" />
    <tag k="ref:vcgi:esiteid" v="285335" />
  </node>
  <node id="-234" visible="true" lat="44.04872131" lon="-73.20387268">
    <tag k="addr:city" v="Weybridge" />
    <tag k="addr:housenumber" v="363" />
    <tag k="addr:street" v="Cave Road" />
    <tag k="addr:state" v="VT" />
    <tag k="ref:vcgi:esiteid" v="285336" />
  </node>
  <node id="-235" visible="true" lat="44.04799356" lon="-73.22012485">
    <tag k="addr:city" v="Weybridge" />
    <tag k="addr:housenumber" v="3503" />
    <tag k="addr:street" v="Weybridge Road" />
    <tag k="addr:state" v="VT" />
    <tag k="ref:vcgi:esiteid" v="285337" />
  </node>
  <node id="-236" visible="true" lat="44.0478089" lon="-73.24971905">
    <tag k="addr:city" v="Weybridge" />
    <tag k="addr:housenumber" v="930" />
    <tag k="addr:street" v="Prunier Road" />
    <tag k="addr:state" v="VT" />
    <tag k="ref:vcgi:esiteid" v="285338" />
  </node>
  <node id="-237" visible="true" lat="44.04751063" lon="-73.21488655">
    <tag k="addr:city" v="Weybridge" />
    <tag k="addr:housenumber" v="577" />
    <tag k="addr:street" v="Quaker Village Road" />
    <tag k="addr:state" v="VT" />
    <tag k="ref:vcgi:esiteid" v="285340" />
  </node>
  <node id="-238" visible="true" lat="44.04771119" lon="-73.1907026">
    <tag k="addr:city" v="Weybridge" />
    <tag k="addr:housenumber" v="1299" />
    <tag k="addr:street" v="Hamilton Road" />
    <tag k="addr:state" v="VT" />
    <tag k="ref:vcgi:esiteid" v="285341" />
  </node>
  <node id="-239" visible="true" lat="44.04720912" lon="-73.24322364">
    <tag k="addr:city" v="Weybridge" />
    <tag k="addr:housenumber" v="649" />
    <tag k="addr:street" v="Prunier Road" />
    <tag k="addr:state" v="VT" />
    <tag k="ref:vcgi:esiteid" v="285342" />
  </node>
  <node id="-240" visible="true" lat="44.04703999" lon="-73.22011904">
    <tag k="addr:city" v="Weybridge" />
    <tag k="addr:housenumber" v="3469" />
    <tag k="addr:street" v="Weybridge Road" />
    <tag k="addr:state" v="VT" />
    <tag k="ref:vcgi:esiteid" v="285343" />
  </node>
  <node id="-241" visible="true" lat="44.04708128" lon="-73.21323499">
    <tag k="addr:city" v="Weybridge" />
    <tag k="addr:housenumber" v="590" />
    <tag k="addr:street" v="Quaker Village Road" />
    <tag k="addr:state" v="VT" />
    <tag k="ref:vcgi:esiteid" v="285344" />
  </node>
  <node id="-242" visible="true" lat="44.04722285" lon="-73.18849529">
    <tag k="addr:city" v="Weybridge" />
    <tag k="addr:housenumber" v="1641" />
    <tag k="addr:street" v="Morgan Horse Farm Road" />
    <tag k="addr:state" v="VT" />
    <tag k="ref:vcgi:esiteid" v="285345" />
  </node>
  <node id="-243" visible="true" lat="44.04684264" lon="-73.21945598">
    <tag k="addr:city" v="Weybridge" />
    <tag k="addr:housenumber" v="3467" />
    <tag k="addr:street" v="Weybridge Road" />
    <tag k="addr:state" v="VT" />
    <tag k="ref:vcgi:esiteid" v="285346" />
  </node>
  <node id="-244" visible="true" lat="44.04647755" lon="-73.21454231">
    <tag k="addr:city" v="Weybridge" />
    <tag k="addr:housenumber" v="567" />
    <tag k="addr:street" v="Quaker Village Road" />
    <tag k="addr:state" v="VT" />
    <tag k="ref:vcgi:esiteid" v="285347" />
  </node>
  <node id="-245" visible="true" lat="44.04626375" lon="-73.213272">
    <tag k="addr:city" v="Weybridge" />
    <tag k="addr:housenumber" v="524" />
    <tag k="addr:street" v="Quaker Village Road" />
    <tag k="addr:state" v="VT" />
    <tag k="ref:vcgi:esiteid" v="285348" />
  </node>
  <node id="-246" visible="true" lat="44.0459374" lon="-73.21301046">
    <tag k="addr:city" v="Weybridge" />
    <tag k="addr:housenumber" v="484" />
    <tag k="addr:street" v="Quaker Village Road" />
    <tag k="addr:state" v="VT" />
    <tag k="ref:vcgi:esiteid" v="285349" />
  </node>
  <node id="-247" visible="true" lat="44.04564365" lon="-73.21399355">
    <tag k="addr:city" v="Weybridge" />
    <tag k="addr:housenumber" v="499" />
    <tag k="addr:street" v="Quaker Village Road" />
    <tag k="addr:state" v="VT" />
    <tag k="ref:vcgi:esiteid" v="285350" />
  </node>
  <node id="-248" visible="true" lat="44.0471143" lon="-73.18948484">
    <tag k="addr:city" v="Weybridge" />
    <tag k="addr:housenumber" v="1382" />
    <tag k="addr:street" v="Hamilton Road" />
    <tag k="addr:state" v="VT" />
    <tag k="ref:vcgi:esiteid" v="285351" />
  </node>
  <node id="-249" visible="true" lat="44.0456047" lon="-73.21474456">
    <tag k="addr:city" v="Weybridge" />
    <tag k="addr:housenumber" v="463" />
    <tag k="addr:street" v="Quaker Village Road" />
    <tag k="addr:state" v="VT" />
    <tag k="ref:vcgi:esiteid" v="285352" />
  </node>
  <node id="-250" visible="true" lat="44.04529117" lon="-73.21689032">
    <tag k="addr:city" v="Weybridge" />
    <tag k="addr:housenumber" v="3320" />
    <tag k="addr:street" v="Weybridge Road" />
    <tag k="addr:state" v="VT" />
    <tag k="ref:vcgi:esiteid" v="285353" />
  </node>
  <node id="-251" visible="true" lat="44.04541512" lon="-73.19643971">
    <tag k="addr:city" v="Weybridge" />
    <tag k="addr:housenumber" v="935" />
    <tag k="addr:street" v="Hamilton Road" />
    <tag k="addr:state" v="VT" />
    <tag k="ref:vcgi:esiteid" v="285354" />
  </node>
  <node id="-252" visible="true" lat="44.04527654" lon="-73.21296609">
    <tag k="addr:city" v="Weybridge" />
    <tag k="addr:housenumber" v="460" />
    <tag k="addr:street" v="Quaker Village Road" />
    <tag k="addr:state" v="VT" />
    <tag k="ref:vcgi:esiteid" v="285355" />
  </node>
  <node id="-253" visible="true" lat="44.04485615" lon="-73.21400939">
    <tag k="addr:city" v="Weybridge" />
    <tag k="addr:housenumber" v="459" />
    <tag k="addr:street" v="Quaker Village Road" />
    <tag k="addr:state" v="VT" />
    <tag k="ref:vcgi:esiteid" v="285356" />
  </node>
  <node id="-254" visible="true" lat="44.04598832" lon="-73.18928571">
    <tag k="addr:city" v="Weybridge" />
    <tag k="addr:housenumber" v="1567" />
    <tag k="addr:street" v="Morgan Horse Farm Road" />
    <tag k="addr:state" v="VT" />
    <tag k="ref:vcgi:esiteid" v="285357" />
  </node>
  <node id="-255" visible="true" lat="44.044658" lon="-73.21211982">
    <tag k="addr:city" v="Weybridge" />
    <tag k="addr:housenumber" v="424" />
    <tag k="addr:street" v="Quaker Village Road" />
    <tag k="addr:state" v="VT" />
    <tag k="ref:vcgi:esiteid" v="285358" />
  </node>
  <node id="-256" visible="true" lat="44.04401358" lon="-73.21378485">
    <tag k="addr:city" v="Weybridge" />
    <tag k="addr:housenumber" v="383" />
    <tag k="addr:street" v="Quaker Village Road" />
    <tag k="addr:state" v="VT" />
    <tag k="ref:vcgi:esiteid" v="285359" />
  </node>
  <node id="-257" visible="true" lat="44.04343268" lon="-73.21522778">
    <tag k="addr:city" v="Weybridge" />
    <tag k="addr:housenumber" v="3130" />
    <tag k="addr:street" v="Weybridge Road" />
    <tag k="addr:state" v="VT" />
    <tag k="ref:vcgi:esiteid" v="285361" />
  </node>
  <node id="-258" visible="true" lat="44.04329329" lon="-73.19859494">
    <tag k="addr:city" v="Weybridge" />
    <tag k="addr:housenumber" v="787" />
    <tag k="addr:street" v="Hamilton Road" />
    <tag k="addr:state" v="VT" />
    <tag k="ref:vcgi:esiteid" v="285362" />
  </node>
  <node id="-259" visible="true" lat="44.04339696" lon="-73.20327072">
    <tag k="addr:city" v="Weybridge" />
    <tag k="addr:housenumber" v="30" />
    <tag k="addr:street" v="Cave Road" />
    <tag k="addr:state" v="VT" />
    <tag k="ref:vcgi:esiteid" v="285363" />
  </node>
  <node id="-260" visible="true" lat="44.04285049" lon="-73.21231842">
    <tag k="addr:city" v="Weybridge" />
    <tag k="addr:housenumber" v="270" />
    <tag k="addr:street" v="Quaker Village Road" />
    <tag k="addr:state" v="VT" />
    <tag k="ref:vcgi:esiteid" v="285364" />
  </node>
  <node id="-261" visible="true" lat="44.04276868" lon="-73.21355949">
    <tag k="addr:city" v="Weybridge" />
    <tag k="addr:housenumber" v="301" />
    <tag k="addr:street" v="Quaker Village Road" />
    <tag k="addr:state" v="VT" />
    <tag k="ref:vcgi:esiteid" v="285365" />
  </node>
  <node id="-262" visible="true" lat="44.04265867" lon="-73.20241506">
    <tag k="addr:city" v="Weybridge" />
    <tag k="addr:housenumber" v="584" />
    <tag k="addr:street" v="Hamilton Road" />
    <tag k="addr:state" v="VT" />
    <tag k="ref:vcgi:esiteid" v="285366" />
  </node>
  <node id="-263" visible="true" lat="44.04228906" lon="-73.21619467">
    <tag k="addr:city" v="Weybridge" />
    <tag k="addr:housenumber" v="3103" />
    <tag k="addr:street" v="Weybridge Road" />
    <tag k="addr:state" v="VT" />
    <tag k="ref:vcgi:esiteid" v="285368" />
  </node>
  <node id="-264" visible="true" lat="44.04214351" lon="-73.21336223">
    <tag k="addr:city" v="Weybridge" />
    <tag k="addr:housenumber" v="241" />
    <tag k="addr:street" v="Quaker Village Road" />
    <tag k="addr:state" v="VT" />
    <tag k="ref:vcgi:esiteid" v="285369" />
  </node>
  <node id="-265" visible="true" lat="44.04196845" lon="-73.21468893">
    <tag k="addr:city" v="Weybridge" />
    <tag k="addr:housenumber" v="3068" />
    <tag k="addr:street" v="Weybridge Road" />
    <tag k="addr:state" v="VT" />
    <tag k="ref:vcgi:esiteid" v="285370" />
  </node>
  <node id="-266" visible="true" lat="44.04178143" lon="-73.21234925">
    <tag k="addr:city" v="Weybridge" />
    <tag k="addr:housenumber" v="210" />
    <tag k="addr:street" v="Quaker Village Road" />
    <tag k="addr:state" v="VT" />
    <tag k="ref:vcgi:esiteid" v="285371" />
  </node>
  <node id="-267" visible="true" lat="44.0419445" lon="-73.18276395">
    <tag k="addr:city" v="Weybridge" />
    <tag k="addr:housenumber" v="122" />
    <tag k="addr:street" v="Battell Drive" />
    <tag k="addr:state" v="VT" />
    <tag k="ref:vcgi:esiteid" v="285372" />
  </node>
  <node id="-268" visible="true" lat="44.04137396" lon="-73.21524467">
    <tag k="addr:city" v="Weybridge" />
    <tag k="addr:housenumber" v="3029" />
    <tag k="addr:street" v="Weybridge Road" />
    <tag k="addr:state" v="VT" />
    <tag k="ref:vcgi:esiteid" v="285373" />
  </node>
  <node id="-269" visible="true" lat="44.04123477" lon="-73.1983086">
    <tag k="addr:city" v="Weybridge" />
    <tag k="addr:housenumber" v="754" />
    <tag k="addr:street" v="Hamilton Road" />
    <tag k="addr:state" v="VT" />
    <tag k="ref:vcgi:esiteid" v="285374" />
  </node>
  <node id="-270" visible="true" lat="44.0411126" lon="-73.1834412">
    <tag k="addr:city" v="Weybridge" />
    <tag k="addr:housenumber" v="74" />
    <tag k="addr:street" v="Battell Drive" />
    <tag k="addr:state" v="VT" />
    <tag k="ref:vcgi:esiteid" v="285375" />
  </node>
  <node id="-271" visible="true" lat="44.0410527" lon="-73.20682044">
    <tag k="addr:city" v="Weybridge" />
    <tag k="addr:housenumber" v="306" />
    <tag k="addr:street" v="Hamilton Road" />
    <tag k="addr:state" v="VT" />
    <tag k="ref:vcgi:esiteid" v="285376" />
  </node>
  <node id="-272" visible="true" lat="44.04076384" lon="-73.21484982">
    <tag k="addr:city" v="Weybridge" />
    <tag k="addr:housenumber" v="2989" />
    <tag k="addr:street" v="Weybridge Road" />
    <tag k="addr:state" v="VT" />
    <tag k="ref:vcgi:esiteid" v="285377" />
  </node>
  <node id="-273" visible="true" lat="44.04077552" lon="-73.2100965">
    <tag k="addr:city" v="Weybridge" />
    <tag k="addr:housenumber" v="203" />
    <tag k="addr:street" v="Hamilton Road" />
    <tag k="addr:state" v="VT" />
    <tag k="ref:vcgi:esiteid" v="285378" />
  </node>
  <node id="-274" visible="true" lat="44.04105004" lon="-73.18322794">
    <tag k="addr:city" v="Weybridge" />
    <tag k="addr:housenumber" v="50" />
    <tag k="addr:street" v="Bennington Way" />
    <tag k="addr:state" v="VT" />
    <tag k="ref:vcgi:esiteid" v="285379" />
  </node>
  <node id="-275" visible="true" lat="44.04031915" lon="-73.21446181">
    <tag k="addr:city" v="Weybridge" />
    <tag k="addr:housenumber" v="2953" />
    <tag k="addr:street" v="Weybridge Road" />
    <tag k="addr:state" v="VT" />
    <tag k="ref:vcgi:esiteid" v="285380" />
  </node>
  <node id="-276" visible="true" lat="44.04038797" lon="-73.1831803">
    <tag k="addr:city" v="Weybridge" />
    <tag k="addr:housenumber" v="99" />
    <tag k="addr:street" v="Bennington Way" />
    <tag k="addr:state" v="VT" />
    <tag k="ref:vcgi:esiteid" v="285381" />
  </node>
  <node id="-277" visible="true" lat="44.04024291" lon="-73.20620735">
    <tag k="addr:city" v="Weybridge" />
    <tag k="addr:housenumber" v="286" />
    <tag k="addr:street" v="Hamilton Road" />
    <tag k="addr:state" v="VT" />
    <tag k="ref:vcgi:esiteid" v="285382" />
  </node>
  <node id="-278" visible="true" lat="44.04010741" lon="-73.19358066">
    <tag k="addr:city" v="Weybridge" />
    <tag k="addr:housenumber" v="1279" />
    <tag k="addr:street" v="Sheep Farm Road" />
    <tag k="addr:state" v="VT" />
    <tag k="ref:vcgi:esiteid" v="285383" />
  </node>
  <node id="-279" visible="true" lat="44.04001999" lon="-73.18318154">
    <tag k="addr:city" v="Weybridge" />
    <tag k="addr:housenumber" v="121" />
    <tag k="addr:street" v="Bennington Way" />
    <tag k="addr:state" v="VT" />
    <tag k="ref:vcgi:esiteid" v="285384" />
  </node>
  <node id="-280" visible="true" lat="44.03987298" lon="-73.25601008">
    <tag k="addr:city" v="Weybridge" />
    <tag k="addr:housenumber" v="3321" />
    <tag k="addr:street" v="Snake Mountain Road" />
    <tag k="addr:state" v="VT" />
    <tag k="ref:vcgi:esiteid" v="285385" />
  </node>
  <node id="-281" visible="true" lat="44.04078773" lon="-73.21348818">
    <tag k="addr:city" v="Weybridge" />
    <tag k="addr:housenumber" v="2872" />
    <tag k="addr:street" v="Weybridge Road" />
    <tag k="addr:state" v="VT" />
    <tag k="ref:vcgi:esiteid" v="285387" />
  </node>
  <node id="-282" visible="true" lat="44.03938577" lon="-73.19328479">
    <tag k="addr:city" v="Weybridge" />
    <tag k="addr:housenumber" v="1227" />
    <tag k="addr:street" v="Sheep Farm Road" />
    <tag k="addr:state" v="VT" />
    <tag k="ref:vcgi:esiteid" v="285388" />
  </node>
  <node id="-283" visible="true" lat="44.03920101" lon="-73.21232">
    <tag k="addr:city" v="Weybridge" />
    <tag k="addr:housenumber" v="52" />
    <tag k="addr:street" v="Quaker Village Road" />
    <tag k="addr:state" v="VT" />
    <tag k="ref:vcgi:esiteid" v="285389" />
  </node>
  <node id="-284" visible="true" lat="44.03908538" lon="-73.21316528">
    <tag k="addr:city" v="Weybridge" />
    <tag k="addr:housenumber" v="2855" />
    <tag k="addr:street" v="Weybridge Road" />
    <tag k="addr:state" v="VT" />
    <tag k="ref:vcgi:esiteid" v="285390" />
  </node>
  <node id="-285" visible="true" lat="44.03873226" lon="-73.25586561">
    <tag k="addr:city" v="Weybridge" />
    <tag k="addr:housenumber" v="3271" />
    <tag k="addr:street" v="Snake Mountain Road" />
    <tag k="addr:state" v="VT" />
    <tag k="ref:vcgi:esiteid" v="285391" />
  </node>
  <node id="-287" visible="true" lat="44.03873973" lon="-73.21226735">
    <tag k="addr:city" v="Weybridge" />
    <tag k="addr:housenumber" v="2792" />
    <tag k="addr:street" v="Weybridge Road" />
    <tag k="addr:state" v="VT" />
    <tag k="ref:vcgi:esiteid" v="285393" />
  </node>
  <node id="-288" visible="true" lat="44.03870329" lon="-73.19309699">
    <tag k="addr:city" v="Weybridge" />
    <tag k="addr:housenumber" v="1177" />
    <tag k="addr:street" v="Sheep Farm Road" />
    <tag k="addr:state" v="VT" />
    <tag k="ref:vcgi:esiteid" v="285394" />
  </node>
  <node id="-289" visible="true" lat="44.03850251" lon="-73.21303965">
    <tag k="addr:city" v="Weybridge" />
    <tag k="addr:housenumber" v="2175" />
    <tag k="addr:street" v="James Road" />
    <tag k="addr:state" v="VT" />
    <tag k="ref:vcgi:esiteid" v="285395" />
  </node>
  <node id="-290" visible="true" lat="44.03829829" lon="-73.1929884">
    <tag k="addr:city" v="Weybridge" />
    <tag k="addr:housenumber" v="1149" />
    <tag k="addr:street" v="Sheep Farm Road" />
    <tag k="addr:state" v="VT" />
    <tag k="ref:vcgi:esiteid" v="285396" />
  </node>
  <node id="-291" visible="true" lat="44.03812789" lon="-73.21101635">
    <tag k="addr:city" v="Weybridge" />
    <tag k="addr:housenumber" v="2722" />
    <tag k="addr:street" v="Weybridge Road" />
    <tag k="addr:state" v="VT" />
    <tag k="ref:vcgi:esiteid" v="285397" />
  </node>
  <node id="-292" visible="true" lat="44.03787995" lon="-73.21033088">
    <tag k="addr:city" v="Weybridge" />
    <tag k="addr:housenumber" v="2672" />
    <tag k="addr:street" v="Weybridge Road" />
    <tag k="addr:state" v="VT" />
    <tag k="ref:vcgi:esiteid" v="285398" />
  </node>
  <node id="-293" visible="true" lat="44.03779675" lon="-73.21282114">
    <tag k="addr:city" v="Weybridge" />
    <tag k="addr:housenumber" v="2141" />
    <tag k="addr:street" v="James Road" />
    <tag k="addr:state" v="VT" />
    <tag k="ref:vcgi:esiteid" v="285399" />
  </node>
  <node id="-294" visible="true" lat="44.03797656" lon="-73.19305101">
    <tag k="addr:city" v="Weybridge" />
    <tag k="addr:housenumber" v="1117" />
    <tag k="addr:street" v="Sheep Farm Road" />
    <tag k="addr:state" v="VT" />
    <tag k="ref:vcgi:esiteid" v="285400" />
  </node>
  <node id="-295" visible="true" lat="44.03750532" lon="-73.2558163">
    <tag k="addr:city" v="Weybridge" />
    <tag k="addr:housenumber" v="3191" />
    <tag k="addr:street" v="Snake Mountain Road" />
    <tag k="addr:state" v="VT" />
    <tag k="ref:vcgi:esiteid" v="285401" />
  </node>
  <node id="-296" visible="true" lat="44.03760122" lon="-73.20957366">
    <tag k="addr:city" v="Weybridge" />
    <tag k="addr:housenumber" v="2642" />
    <tag k="addr:street" v="Weybridge Road" />
    <tag k="addr:state" v="VT" />
    <tag k="ref:vcgi:esiteid" v="285402" />
  </node>
  <node id="-297" visible="true" lat="44.037242" lon="-73.21268613">
    <tag k="addr:city" v="Weybridge" />
    <tag k="addr:housenumber" v="2107" />
    <tag k="addr:street" v="James Road" />
    <tag k="addr:state" v="VT" />
    <tag k="ref:vcgi:esiteid" v="285403" />
  </node>
  <node id="-298" visible="true" lat="44.03671688" lon="-73.25537134">
    <tag k="addr:city" v="Weybridge" />
    <tag k="addr:housenumber" v="3134" />
    <tag k="addr:street" v="Snake Mountain Road" />
    <tag k="addr:state" v="VT" />
    <tag k="ref:vcgi:esiteid" v="285404" />
  </node>
  <node id="-299" visible="true" lat="44.03682083" lon="-73.19095513">
    <tag k="addr:city" v="Weybridge" />
    <tag k="addr:housenumber" v="1030" />
    <tag k="addr:street" v="Sheep Farm Road" />
    <tag k="addr:state" v="VT" />
    <tag k="ref:vcgi:esiteid" v="285405" />
  </node>
  <node id="-300" visible="true" lat="44.03665414" lon="-73.21178639">
    <tag k="addr:city" v="Weybridge" />
    <tag k="addr:housenumber" v="2032" />
    <tag k="addr:street" v="James Road" />
    <tag k="addr:state" v="VT" />
    <tag k="ref:vcgi:esiteid" v="285406" />
  </node>
  <node id="-301" visible="true" lat="44.03664775" lon="-73.19148165">
    <tag k="addr:city" v="Weybridge" />
    <tag k="addr:housenumber" v="1026" />
    <tag k="addr:street" v="Sheep Farm Road" />
    <tag k="addr:state" v="VT" />
    <tag k="ref:vcgi:esiteid" v="285407" />
  </node>
  <node id="-302" visible="true" lat="44.03548854" lon="-73.20886954">
    <tag k="addr:city" v="Weybridge" />
    <tag k="addr:housenumber" v="2537" />
    <tag k="addr:street" v="Weybridge Road" />
    <tag k="addr:state" v="VT" />
    <tag k="ref:vcgi:esiteid" v="285408" />
  </node>
  <node id="-303" visible="true" lat="44.0353057" lon="-73.21710551">
    <tag k="addr:city" v="Weybridge" />
    <tag k="addr:housenumber" v="254" />
    <tag k="addr:street" v="Bittersweet Falls Road" />
    <tag k="addr:state" v="VT" />
    <tag k="ref:vcgi:esiteid" v="285409" />
  </node>
  <node id="-304" visible="true" lat="44.03483503" lon="-73.25506198">
    <tag k="addr:city" v="Weybridge" />
    <tag k="addr:housenumber" v="3004" />
    <tag k="addr:street" v="Snake Mountain Road" />
    <tag k="addr:state" v="VT" />
    <tag k="ref:vcgi:esiteid" v="285410" />
  </node>
  <node id="-305" visible="true" lat="44.03472191" lon="-73.20454591">
    <tag k="addr:city" v="Weybridge" />
    <tag k="addr:housenumber" v="2334" />
    <tag k="addr:street" v="Weybridge Road" />
    <tag k="addr:state" v="VT" />
    <tag k="ref:vcgi:esiteid" v="285411" />
  </node>
  <node id="-306" visible="true" lat="44.03367993" lon="-73.20663328">
    <tag k="addr:city" v="Weybridge" />
    <tag k="addr:housenumber" v="2479" />
    <tag k="addr:street" v="Weybridge Road" />
    <tag k="addr:state" v="VT" />
    <tag k="ref:vcgi:esiteid" v="285412" />
  </node>
  <node id="-307" visible="true" lat="44.03275777" lon="-73.25493535">
    <tag k="addr:city" v="Weybridge" />
    <tag k="addr:housenumber" v="2866" />
    <tag k="addr:street" v="Snake Mountain Road" />
    <tag k="addr:state" v="VT" />
    <tag k="ref:vcgi:esiteid" v="285413" />
  </node>
  <node id="-308" visible="true" lat="44.03276062" lon="-73.20532226">
    <tag k="addr:city" v="Weybridge" />
    <tag k="addr:housenumber" v="2199" />
    <tag k="addr:street" v="Weybridge Road" />
    <tag k="addr:state" v="VT" />
    <tag k="ref:vcgi:esiteid" v="285414" />
  </node>
  <node id="-309" visible="true" lat="44.03256124" lon="-73.18895709">
    <tag k="addr:city" v="Weybridge" />
    <tag k="addr:housenumber" v="758" />
    <tag k="addr:street" v="Sheep Farm Road" />
    <tag k="addr:state" v="VT" />
    <tag k="ref:vcgi:esiteid" v="285415" />
  </node>
  <node id="-310" visible="true" lat="44.03196564" lon="-73.18246157">
    <tag k="addr:city" v="Weybridge" />
    <tag k="addr:housenumber" v="552" />
    <tag k="addr:street" v="Morgan Horse Farm Road" />
    <tag k="addr:state" v="VT" />
    <tag k="ref:vcgi:esiteid" v="285416" />
  </node>
  <node id="-311" visible="true" lat="44.03037814" lon="-73.18407627">
    <tag k="addr:city" v="Weybridge" />
    <tag k="addr:housenumber" v="575" />
    <tag k="addr:street" v="Morgan Horse Farm Road" />
    <tag k="addr:state" v="VT" />
    <tag k="ref:vcgi:esiteid" v="285417" />
  </node>
  <node id="-312" visible="true" lat="44.03132489" lon="-73.18948757">
    <tag k="addr:city" v="Weybridge" />
    <tag k="addr:housenumber" v="640" />
    <tag k="addr:street" v="Sheep Farm Road" />
    <tag k="addr:state" v="VT" />
    <tag k="ref:vcgi:esiteid" v="285418" />
  </node>
  <node id="-313" visible="true" lat="44.03069255" lon="-73.2550863">
    <tag k="addr:city" v="Weybridge" />
    <tag k="addr:housenumber" v="2718" />
    <tag k="addr:street" v="Snake Mountain Road" />
    <tag k="addr:state" v="VT" />
    <tag k="ref:vcgi:esiteid" v="285419" />
  </node>
  <node id="-314" visible="true" lat="44.03102111" lon="-73.20973968">
    <tag k="addr:city" v="Weybridge" />
    <tag k="addr:housenumber" v="1628" />
    <tag k="addr:street" v="James Road" />
    <tag k="addr:state" v="VT" />
    <tag k="ref:vcgi:esiteid" v="285420" />
  </node>
  <node id="-315" visible="true" lat="44.03064497" lon="-73.20203671">
    <tag k="addr:city" v="Weybridge" />
    <tag k="addr:housenumber" v="2035" />
    <tag k="addr:street" v="Weybridge Road" />
    <tag k="addr:state" v="VT" />
    <tag k="ref:vcgi:esiteid" v="285421" />
  </node>
  <node id="-316" visible="true" lat="44.03005599" lon="-73.21831512">
    <tag k="addr:city" v="Weybridge" />
    <tag k="addr:housenumber" v="617" />
    <tag k="addr:street" v="Bittersweet Falls Road" />
    <tag k="addr:state" v="VT" />
    <tag k="ref:vcgi:esiteid" v="285423" />
  </node>
  <node id="-317" visible="true" lat="44.03022594" lon="-73.18149943">
    <tag k="addr:city" v="Weybridge" />
    <tag k="addr:housenumber" v="414" />
    <tag k="addr:street" v="Morgan Horse Farm Road" />
    <tag k="addr:state" v="VT" />
    <tag k="ref:vcgi:esiteid" v="285424" />
  </node>
  <node id="-318" visible="true" lat="44.02961444" lon="-73.21054826">
    <tag k="addr:city" v="Weybridge" />
    <tag k="addr:housenumber" v="1560" />
    <tag k="addr:street" v="James Road" />
    <tag k="addr:state" v="VT" />
    <tag k="ref:vcgi:esiteid" v="285425" />
  </node>
  <node id="-319" visible="true" lat="44.0294872" lon="-73.21098843">
    <tag k="addr:city" v="Weybridge" />
    <tag k="addr:housenumber" v="1551" />
    <tag k="addr:street" v="James Road" />
    <tag k="addr:state" v="VT" />
    <tag k="ref:vcgi:esiteid" v="285426" />
  </node>
  <node id="-320" visible="true" lat="44.02952966" lon="-73.19976636">
    <tag k="addr:city" v="Weybridge" />
    <tag k="addr:housenumber" v="1898" />
    <tag k="addr:street" v="Weybridge Road" />
    <tag k="addr:state" v="VT" />
    <tag k="ref:vcgi:esiteid" v="285427" />
  </node>
  <node id="-321" visible="true" lat="44.02931362" lon="-73.20026827">
    <tag k="addr:city" v="Weybridge" />
    <tag k="addr:housenumber" v="1907" />
    <tag k="addr:street" v="Weybridge Road" />
    <tag k="addr:state" v="VT" />
    <tag k="ref:vcgi:esiteid" v="285428" />
  </node>
  <node id="-322" visible="true" lat="44.02870182" lon="-73.20927632">
    <tag k="addr:city" v="Weybridge" />
    <tag k="addr:housenumber" v="1470" />
    <tag k="addr:street" v="James Road" />
    <tag k="addr:state" v="VT" />
    <tag k="ref:vcgi:esiteid" v="285429" />
  </node>
  <node id="-323" visible="true" lat="44.02879378" lon="-73.18214552">
    <tag k="addr:city" v="Weybridge" />
    <tag k="addr:housenumber" v="319" />
    <tag k="addr:street" v="Morgan Horse Farm Road" />
    <tag k="addr:state" v="VT" />
    <tag k="ref:vcgi:esiteid" v="285430" />
  </node>
  <node id="-324" visible="true" lat="44.02851016" lon="-73.18966197">
    <tag k="addr:city" v="Weybridge" />
    <tag k="addr:housenumber" v="443" />
    <tag k="addr:street" v="Sheep Farm Road" />
    <tag k="addr:state" v="VT" />
    <tag k="ref:vcgi:esiteid" v="285431" />
  </node>
  <node id="-325" visible="true" lat="44.02819536" lon="-73.21118925">
    <tag k="addr:city" v="Weybridge" />
    <tag k="addr:housenumber" v="1471" />
    <tag k="addr:street" v="James Road" />
    <tag k="addr:state" v="VT" />
    <tag k="ref:vcgi:esiteid" v="285432" />
  </node>
  <node id="-326" visible="true" lat="44.02818642" lon="-73.18784153">
    <tag k="addr:city" v="Weybridge" />
    <tag k="addr:housenumber" v="178" />
    <tag k="addr:street" v="Terrace Heights" />
    <tag k="addr:state" v="VT" />
    <tag k="ref:vcgi:esiteid" v="285433" />
  </node>
  <node id="-327" visible="true" lat="44.02811296" lon="-73.18897102">
    <tag k="addr:city" v="Weybridge" />
    <tag k="addr:housenumber" v="228" />
    <tag k="addr:street" v="Terrace Heights" />
    <tag k="addr:state" v="VT" />
    <tag k="ref:vcgi:esiteid" v="285434" />
  </node>
  <node id="-328" visible="true" lat="44.0281281" lon="-73.18831649">
    <tag k="addr:city" v="Weybridge" />
    <tag k="addr:housenumber" v="200" />
    <tag k="addr:street" v="Terrace Heights" />
    <tag k="addr:state" v="VT" />
    <tag k="ref:vcgi:esiteid" v="285435" />
  </node>
  <node id="-329" visible="true" lat="44.02785987" lon="-73.1869595">
    <tag k="addr:city" v="Weybridge" />
    <tag k="addr:housenumber" v="156" />
    <tag k="addr:street" v="Terrace Heights" />
    <tag k="addr:state" v="VT" />
    <tag k="ref:vcgi:esiteid" v="285436" />
  </node>
  <node id="-330" visible="true" lat="44.02766995" lon="-73.18829192">
    <tag k="addr:city" v="Weybridge" />
    <tag k="addr:housenumber" v="209" />
    <tag k="addr:street" v="Terrace Heights" />
    <tag k="addr:state" v="VT" />
    <tag k="ref:vcgi:esiteid" v="285437" />
  </node>
  <node id="-331" visible="true" lat="44.02754915" lon="-73.18898167">
    <tag k="addr:city" v="Weybridge" />
    <tag k="addr:housenumber" v="245" />
    <tag k="addr:street" v="Terrace Heights" />
    <tag k="addr:state" v="VT" />
    <tag k="ref:vcgi:esiteid" v="285438" />
  </node>
  <node id="-332" visible="true" lat="44.02744272" lon="-73.21015522">
    <tag k="addr:city" v="Weybridge" />
    <tag k="addr:housenumber" v="1416" />
    <tag k="addr:street" v="James Road" />
    <tag k="addr:state" v="VT" />
    <tag k="ref:vcgi:esiteid" v="285439" />
  </node>
  <node id="-333" visible="true" lat="44.02752531" lon="-73.18695397">
    <tag k="addr:city" v="Weybridge" />
    <tag k="addr:housenumber" v="136" />
    <tag k="addr:street" v="Terrace Heights" />
    <tag k="addr:state" v="VT" />
    <tag k="ref:vcgi:esiteid" v="285440" />
  </node>
  <node id="-334" visible="true" lat="44.02747344" lon="-73.18039703">
    <tag k="addr:city" v="Weybridge" />
    <tag k="addr:housenumber" v="224" />
    <tag k="addr:street" v="Morgan Horse Farm Road" />
    <tag k="addr:state" v="VT" />
    <tag k="ref:vcgi:esiteid" v="285441" />
  </node>
  <node id="-335" visible="true" lat="44.02713539" lon="-73.19768121">
    <tag k="addr:city" v="Weybridge" />
    <tag k="addr:housenumber" v="1709" />
    <tag k="addr:street" v="Weybridge Road" />
    <tag k="addr:state" v="VT" />
    <tag k="ref:vcgi:esiteid" v="285442" />
  </node>
  <node id="-336" visible="true" lat="44.02722904" lon="-73.18784897">
    <tag k="addr:city" v="Weybridge" />
    <tag k="addr:housenumber" v="67" />
    <tag k="addr:street" v="Terrace Heights" />
    <tag k="addr:state" v="VT" />
    <tag k="ref:vcgi:esiteid" v="285443" />
  </node>
  <node id="-337" visible="true" lat="44.02724531" lon="-73.18091095">
    <tag k="addr:city" v="Weybridge" />
    <tag k="addr:housenumber" v="225" />
    <tag k="addr:street" v="Morgan Horse Farm Road" />
    <tag k="addr:state" v="VT" />
    <tag k="ref:vcgi:esiteid" v="285444" />
  </node>
  <node id="-338" visible="true" lat="44.02722063" lon="-73.18839475">
    <tag k="addr:city" v="Weybridge" />
    <tag k="addr:housenumber" v="41" />
    <tag k="addr:street" v="Terrace Heights" />
    <tag k="addr:state" v="VT" />
    <tag k="ref:vcgi:esiteid" v="285445" />
  </node>
  <node id="-339" visible="true" lat="44.02697601" lon="-73.18690927">
    <tag k="addr:city" v="Weybridge" />
    <tag k="addr:housenumber" v="96" />
    <tag k="addr:street" v="Terrace Heights" />
    <tag k="addr:state" v="VT" />
    <tag k="ref:vcgi:esiteid" v="285447" />
  </node>
  <node id="-340" visible="true" lat="44.02721635" lon="-73.1889271">
    <tag k="addr:city" v="Weybridge" />
    <tag k="addr:housenumber" v="15" />
    <tag k="addr:street" v="Terrace Heights" />
    <tag k="addr:state" v="VT" />
    <tag k="ref:vcgi:esiteid" v="285448" />
  </node>
  <node id="-341" visible="true" lat="44.02699939" lon="-73.18065562">
    <tag k="addr:city" v="Weybridge" />
    <tag k="addr:housenumber" v="201" />
    <tag k="addr:street" v="Morgan Horse Farm Road" />
    <tag k="addr:state" v="VT" />
    <tag k="ref:vcgi:esiteid" v="285449" />
  </node>
  <node id="-342" visible="true" lat="44.026674" lon="-73.1883531">
    <tag k="addr:city" v="Weybridge" />
    <tag k="addr:housenumber" v="52" />
    <tag k="addr:street" v="Terrace Heights" />
    <tag k="addr:state" v="VT" />
    <tag k="ref:vcgi:esiteid" v="285450" />
  </node>
  <node id="-343" visible="true" lat="44.02674896" lon="-73.19699289">
    <tag k="addr:city" v="Weybridge" />
    <tag k="addr:housenumber" v="1663" />
    <tag k="addr:street" v="Weybridge Road" />
    <tag k="addr:state" v="VT" />
    <tag k="ref:vcgi:esiteid" v="285451" />
  </node>
  <node id="-344" visible="true" lat="44.02664259" lon="-73.18888977">
    <tag k="addr:city" v="Weybridge" />
    <tag k="addr:housenumber" v="22" />
    <tag k="addr:street" v="Terrace Heights" />
    <tag k="addr:state" v="VT" />
    <tag k="ref:vcgi:esiteid" v="285452" />
  </node>
  <node id="-345" visible="true" lat="44.02670609" lon="-73.18772557">
    <tag k="addr:city" v="Weybridge" />
    <tag k="addr:housenumber" v="16" />
    <tag k="addr:street" v="Meadow Lane" />
    <tag k="addr:state" v="VT" />
    <tag k="ref:vcgi:esiteid" v="285453" />
  </node>
  <node id="-346" visible="true" lat="44.02668145" lon="-73.18691813">
    <tag k="addr:city" v="Weybridge" />
    <tag k="addr:housenumber" v="17" />
    <tag k="addr:street" v="Meadow Lane" />
    <tag k="addr:state" v="VT" />
    <tag k="ref:vcgi:esiteid" v="285454" />
  </node>
  <node id="-347" visible="true" lat="44.02648624" lon="-73.18274724">
    <tag k="addr:city" v="Weybridge" />
    <tag k="addr:housenumber" v="274" />
    <tag k="addr:street" v="Orchard Lane" />
    <tag k="addr:state" v="VT" />
    <tag k="ref:vcgi:esiteid" v="285455" />
  </node>
  <node id="-348" visible="true" lat="44.02673168" lon="-73.21452702">
    <tag k="addr:city" v="Weybridge" />
    <tag k="addr:housenumber" v="1331" />
    <tag k="addr:street" v="James Road" />
    <tag k="addr:state" v="VT" />
    <tag k="ref:vcgi:esiteid" v="285456" />
  </node>
  <node id="-349" visible="true" lat="44.02628714" lon="-73.20991464">
    <tag k="addr:city" v="Weybridge" />
    <tag k="addr:housenumber" v="1324" />
    <tag k="addr:street" v="James Road" />
    <tag k="addr:state" v="VT" />
    <tag k="ref:vcgi:esiteid" v="285457" />
  </node>
  <node id="-350" visible="true" lat="44.02630923" lon="-73.18771531">
    <tag k="addr:city" v="Weybridge" />
    <tag k="addr:housenumber" v="44" />
    <tag k="addr:street" v="Meadow Lane" />
    <tag k="addr:state" v="VT" />
    <tag k="ref:vcgi:esiteid" v="285458" />
  </node>
  <node id="-351" visible="true" lat="44.02643415" lon="-73.17929387">
    <tag k="addr:city" v="Weybridge" />
    <tag k="addr:housenumber" v="134" />
    <tag k="addr:street" v="Morgan Horse Farm Road" />
    <tag k="addr:state" v="VT" />
    <tag k="ref:vcgi:esiteid" v="285459" />
  </node>
  <node id="-352" visible="true" lat="44.02619319" lon="-73.18688249">
    <tag k="addr:city" v="Weybridge" />
    <tag k="addr:housenumber" v="47" />
    <tag k="addr:street" v="Meadow Lane" />
    <tag k="addr:state" v="VT" />
    <tag k="ref:vcgi:esiteid" v="285460" />
  </node>
  <node id="-353" visible="true" lat="44.02620326" lon="-73.20278812">
    <tag k="addr:city" v="Weybridge" />
    <tag k="addr:housenumber" v="420" />
    <tag k="addr:street" v="Perkins Road" />
    <tag k="addr:state" v="VT" />
    <tag k="ref:vcgi:esiteid" v="285461" />
  </node>
  <node id="-354" visible="true" lat="44.02607875" lon="-73.1898071">
    <tag k="addr:city" v="Weybridge" />
    <tag k="addr:housenumber" v="291" />
    <tag k="addr:street" v="Sheep Farm Road" />
    <tag k="addr:state" v="VT" />
    <tag k="ref:vcgi:esiteid" v="285462" />
  </node>
  <node id="-355" visible="true" lat="44.0259595" lon="-73.2202432">
    <tag k="addr:city" v="Weybridge" />
    <tag k="addr:housenumber" v="961" />
    <tag k="addr:street" v="Bittersweet Falls Road" />
    <tag k="addr:state" v="VT" />
    <tag k="ref:vcgi:esiteid" v="285463" />
  </node>
  <node id="-356" visible="true" lat="44.02569506" lon="-73.20958996">
    <tag k="addr:city" v="Weybridge" />
    <tag k="addr:housenumber" v="1294" />
    <tag k="addr:street" v="James Road" />
    <tag k="addr:state" v="VT" />
    <tag k="ref:vcgi:esiteid" v="285464" />
  </node>
  <node id="-357" visible="true" lat="44.02576033" lon="-73.18765508">
    <tag k="addr:city" v="Weybridge" />
    <tag k="addr:housenumber" v="82" />
    <tag k="addr:street" v="Meadow Lane" />
    <tag k="addr:state" v="VT" />
    <tag k="ref:vcgi:esiteid" v="285465" />
  </node>
  <node id="-358" visible="true" lat="44.02559099" lon="-73.18688406">
    <tag k="addr:city" v="Weybridge" />
    <tag k="addr:housenumber" v="91" />
    <tag k="addr:street" v="Meadow Lane" />
    <tag k="addr:state" v="VT" />
    <tag k="ref:vcgi:esiteid" v="285466" />
  </node>
  <node id="-359" visible="true" lat="44.02551976" lon="-73.18323252">
    <tag k="addr:city" v="Weybridge" />
    <tag k="addr:housenumber" v="275" />
    <tag k="addr:street" v="Orchard Lane" />
    <tag k="addr:state" v="VT" />
    <tag k="ref:vcgi:esiteid" v="285467" />
  </node>
  <node id="-360" visible="true" lat="44.0252779" lon="-73.20953542">
    <tag k="addr:city" v="Weybridge" />
    <tag k="addr:housenumber" v="1274" />
    <tag k="addr:street" v="James Road" />
    <tag k="addr:state" v="VT" />
    <tag k="ref:vcgi:esiteid" v="285468" />
  </node>
  <node id="-361" visible="true" lat="44.02578154" lon="-73.17999109">
    <tag k="addr:city" v="Weybridge" />
    <tag k="addr:housenumber" v="75" />
    <tag k="addr:street" v="Morgan Horse Farm Road" />
    <tag k="addr:state" v="VT" />
    <tag k="ref:vcgi:esiteid" v="285469" />
  </node>
  <node id="-362" visible="true" lat="44.02521117" lon="-73.1790641">
    <tag k="addr:city" v="Weybridge" />
    <tag k="addr:housenumber" v="57" />
    <tag k="addr:street" v="Morgan Horse Farm Road" />
    <tag k="addr:state" v="VT" />
    <tag k="ref:vcgi:esiteid" v="285470" />
  </node>
  <node id="-363" visible="true" lat="44.02533715" lon="-73.22034249">
    <tag k="addr:city" v="Weybridge" />
    <tag k="addr:housenumber" v="1003" />
    <tag k="addr:street" v="Bittersweet Falls Road" />
    <tag k="addr:state" v="VT" />
    <tag k="ref:vcgi:esiteid" v="285471" />
  </node>
  <node id="-364" visible="true" lat="44.02561143" lon="-73.20647399">
    <tag k="addr:city" v="Weybridge" />
    <tag k="addr:housenumber" v="608" />
    <tag k="addr:street" v="Perkins Road" />
    <tag k="addr:state" v="VT" />
    <tag k="ref:vcgi:esiteid" v="285472" />
  </node>
  <node id="-365" visible="true" lat="44.02521133" lon="-73.17850494">
    <tag k="addr:city" v="Weybridge" />
    <tag k="addr:housenumber" v="42" />
    <tag k="addr:street" v="Morgan Horse Farm Road" />
    <tag k="addr:state" v="VT" />
    <tag k="ref:vcgi:esiteid" v="285473" />
  </node>
  <node id="-366" visible="true" lat="44.02483749" lon="-73.20459747">
    <tag k="addr:city" v="Weybridge" />
    <tag k="addr:housenumber" v="512" />
    <tag k="addr:street" v="Perkins Road" />
    <tag k="addr:state" v="VT" />
    <tag k="ref:vcgi:esiteid" v="285474" />
  </node>
  <node id="-367" visible="true" lat="44.02494877" lon="-73.18171425">
    <tag k="addr:city" v="Weybridge" />
    <tag k="addr:housenumber" v="224" />
    <tag k="addr:street" v="Orchard Lane" />
    <tag k="addr:state" v="VT" />
    <tag k="ref:vcgi:esiteid" v="285475" />
  </node>
  <node id="-368" visible="true" lat="44.02493106" lon="-73.17879806">
    <tag k="addr:city" v="Weybridge" />
    <tag k="addr:housenumber" v="27" />
    <tag k="addr:street" v="Morgan Horse Farm Road" />
    <tag k="addr:state" v="VT" />
    <tag k="ref:vcgi:esiteid" v="285476" />
  </node>
  <node id="-369" visible="true" lat="44.02473244" lon="-73.19484765">
    <tag k="addr:city" v="Weybridge" />
    <tag k="addr:housenumber" v="1507" />
    <tag k="addr:street" v="Weybridge Road" />
    <tag k="addr:state" v="VT" />
    <tag k="ref:vcgi:esiteid" v="285477" />
  </node>
  <node id="-370" visible="true" lat="44.02436707" lon="-73.20279042">
    <tag k="addr:city" v="Weybridge" />
    <tag k="addr:housenumber" v="433" />
    <tag k="addr:street" v="Perkins Road" />
    <tag k="addr:state" v="VT" />
    <tag k="ref:vcgi:esiteid" v="285478" />
  </node>
  <node id="-371" visible="true" lat="44.0247253" lon="-73.17886471">
    <tag k="addr:city" v="Weybridge" />
    <tag k="addr:housenumber" v="399" />
    <tag k="addr:street" v="Pulp Mill Bridge Road" />
    <tag k="addr:state" v="VT" />
    <tag k="ref:vcgi:esiteid" v="285479" />
  </node>
  <node id="-372" visible="true" lat="44.02456214" lon="-73.20760224">
    <tag k="addr:city" v="Weybridge" />
    <tag k="addr:housenumber" v="638" />
    <tag k="addr:street" v="Perkins Road" />
    <tag k="addr:state" v="VT" />
    <tag k="ref:vcgi:esiteid" v="285480" />
  </node>
  <node id="-373" visible="true" lat="44.02441551" lon="-73.20839389">
    <tag k="addr:city" v="Weybridge" />
    <tag k="addr:housenumber" v="706" />
    <tag k="addr:street" v="Perkins Road" />
    <tag k="addr:state" v="VT" />
    <tag k="ref:vcgi:esiteid" v="285482" />
  </node>
  <node id="-374" visible="true" lat="44.0245177" lon="-73.18308131">
    <tag k="addr:city" v="Weybridge" />
    <tag k="addr:housenumber" v="159" />
    <tag k="addr:street" v="Orchard Lane" />
    <tag k="addr:state" v="VT" />
    <tag k="ref:vcgi:esiteid" v="285483" />
  </node>
  <node id="-375" visible="true" lat="44.0239761" lon="-73.19732296">
    <tag k="addr:city" v="Weybridge" />
    <tag k="addr:housenumber" v="147" />
    <tag k="addr:street" v="Perkins Road" />
    <tag k="addr:state" v="VT" />
    <tag k="ref:vcgi:esiteid" v="285484" />
  </node>
  <node id="-376" visible="true" lat="44.02426251" lon="-73.20939091">
    <tag k="addr:city" v="Weybridge" />
    <tag k="addr:housenumber" v="742" />
    <tag k="addr:street" v="Perkins Road" />
    <tag k="addr:state" v="VT" />
    <tag k="ref:vcgi:esiteid" v="285485" />
  </node>
  <node id="-377" visible="true" lat="44.02430343" lon="-73.17799377">
    <tag k="addr:city" v="Weybridge" />
    <tag k="addr:housenumber" v="426" />
    <tag k="addr:street" v="Pulp Mill Bridge Road" />
    <tag k="addr:state" v="VT" />
    <tag k="ref:vcgi:esiteid" v="285486" />
  </node>
  <node id="-378" visible="true" lat="44.0242545" lon="-73.17890322">
    <tag k="addr:city" v="Weybridge" />
    <tag k="addr:housenumber" v="367" />
    <tag k="addr:street" v="Pulp Mill Bridge Road" />
    <tag k="addr:state" v="VT" />
    <tag k="ref:vcgi:esiteid" v="285487" />
  </node>
  <node id="-379" visible="true" lat="44.02414374" lon="-73.18844134">
    <tag k="addr:city" v="Weybridge" />
    <tag k="addr:housenumber" v="124" />
    <tag k="addr:street" v="Sheep Farm Road" />
    <tag k="addr:state" v="VT" />
    <tag k="ref:vcgi:esiteid" v="285488" />
  </node>
  <node id="-380" visible="true" lat="44.02363432" lon="-73.1782956">
    <tag k="addr:city" v="Weybridge" />
    <tag k="addr:housenumber" v="346" />
    <tag k="addr:street" v="Pulp Mill Bridge Road" />
    <tag k="addr:state" v="VT" />
    <tag k="ref:vcgi:esiteid" v="285489" />
  </node>
  <node id="-381" visible="true" lat="44.02376139" lon="-73.19114339">
    <tag k="addr:city" v="Weybridge" />
    <tag k="addr:housenumber" v="1308" />
    <tag k="addr:street" v="Weybridge Road" />
    <tag k="addr:state" v="VT" />
    <tag k="ref:vcgi:esiteid" v="285490" />
  </node>
  <node id="-382" visible="true" lat="44.02369887" lon="-73.18117425">
    <tag k="addr:city" v="Weybridge" />
    <tag k="addr:housenumber" v="108" />
    <tag k="addr:street" v="Orchard Lane" />
    <tag k="addr:state" v="VT" />
    <tag k="ref:vcgi:esiteid" v="285491" />
  </node>
  <node id="-383" visible="true" lat="44.02368122" lon="-73.17906022">
    <tag k="addr:city" v="Weybridge" />
    <tag k="addr:housenumber" v="319" />
    <tag k="addr:street" v="Pulp Mill Bridge Road" />
    <tag k="addr:state" v="VT" />
    <tag k="ref:vcgi:esiteid" v="285492" />
  </node>
  <node id="-384" visible="true" lat="44.02312469" lon="-73.18873596">
    <tag k="addr:city" v="Weybridge" />
    <tag k="addr:housenumber" v="71" />
    <tag k="addr:street" v="Sheep Farm Road" />
    <tag k="addr:state" v="VT" />
    <tag k="ref:vcgi:esiteid" v="285493" />
  </node>
  <node id="-385" visible="true" lat="44.02336601" lon="-73.17913061">
    <tag k="addr:city" v="Weybridge" />
    <tag k="addr:housenumber" v="293" />
    <tag k="addr:street" v="Pulp Mill Bridge Road" />
    <tag k="addr:state" v="VT" />
    <tag k="ref:vcgi:esiteid" v="285494" />
  </node>
  <node id="-386" visible="true" lat="44.02273062" lon="-73.22423814">
    <tag k="addr:city" v="Weybridge" />
    <tag k="addr:housenumber" v="1242" />
    <tag k="addr:street" v="Bittersweet Falls Road" />
    <tag k="addr:state" v="VT" />
    <tag k="ref:vcgi:esiteid" v="285495" />
  </node>
  <node id="-387" visible="true" lat="44.02291652" lon="-73.17870623">
    <tag k="addr:city" v="Weybridge" />
    <tag k="addr:housenumber" v="284" />
    <tag k="addr:street" v="Pulp Mill Bridge Road" />
    <tag k="addr:state" v="VT" />
    <tag k="ref:vcgi:esiteid" v="285496" />
  </node>
  <node id="-388" visible="true" lat="44.02285862" lon="-73.18821749">
    <tag k="addr:city" v="Weybridge" />
    <tag k="addr:housenumber" v="50" />
    <tag k="addr:street" v="Sheep Farm Road" />
    <tag k="addr:state" v="VT" />
    <tag k="ref:vcgi:esiteid" v="285497" />
  </node>
  <node id="-389" visible="true" lat="44.02266355" lon="-73.18239803">
    <tag k="addr:city" v="Weybridge" />
    <tag k="addr:housenumber" v="137" />
    <tag k="addr:street" v="Orchard Lane" />
    <tag k="addr:state" v="VT" />
    <tag k="ref:vcgi:esiteid" v="285498" />
  </node>
  <node id="-390" visible="true" lat="44.02260818" lon="-73.17881536">
    <tag k="addr:city" v="Weybridge" />
    <tag k="addr:housenumber" v="266" />
    <tag k="addr:street" v="Pulp Mill Bridge Road" />
    <tag k="addr:state" v="VT" />
    <tag k="ref:vcgi:esiteid" v="285499" />
  </node>
  <node id="-391" visible="true" lat="44.02254365" lon="-73.18881669">
    <tag k="addr:city" v="Weybridge" />
    <tag k="addr:housenumber" v="31" />
    <tag k="addr:street" v="Sheep Farm Road" />
    <tag k="addr:state" v="VT" />
    <tag k="ref:vcgi:esiteid" v="285500" />
  </node>
  <node id="-392" visible="true" lat="44.02243391" lon="-73.18050071">
    <tag k="addr:city" v="Weybridge" />
    <tag k="addr:housenumber" v="61" />
    <tag k="addr:street" v="Orchard Lane" />
    <tag k="addr:state" v="VT" />
    <tag k="ref:vcgi:esiteid" v="285501" />
  </node>
  <node id="-393" visible="true" lat="44.02214348" lon="-73.23124739">
    <tag k="addr:city" v="Weybridge" />
    <tag k="addr:housenumber" v="74" />
    <tag k="addr:street" v="Denisville Lane" />
    <tag k="addr:state" v="VT" />
    <tag k="ref:vcgi:esiteid" v="285502" />
  </node>
  <node id="-394" visible="true" lat="44.0219339" lon="-73.18877237">
    <tag k="addr:city" v="Weybridge" />
    <tag k="addr:housenumber" v="1179" />
    <tag k="addr:street" v="Weybridge Road" />
    <tag k="addr:state" v="VT" />
    <tag k="ref:vcgi:esiteid" v="285504" />
  </node>
  <node id="-395" visible="true" lat="44.02218988" lon="-73.17897029">
    <tag k="addr:city" v="Weybridge" />
    <tag k="addr:housenumber" v="234" />
    <tag k="addr:street" v="Pulp Mill Bridge Road" />
    <tag k="addr:state" v="VT" />
    <tag k="ref:vcgi:esiteid" v="285505" />
  </node>
  <node id="-396" visible="true" lat="44.02209854" lon="-73.17851257">
    <tag k="addr:city" v="Weybridge" />
    <tag k="addr:housenumber" v="98" />
    <tag k="addr:street" v="Otter Creek Lane" />
    <tag k="addr:state" v="VT" />
    <tag k="ref:vcgi:esiteid" v="285506" />
  </node>
  <node id="-397" visible="true" lat="44.02176183" lon="-73.23182692">
    <tag k="addr:city" v="Weybridge" />
    <tag k="addr:housenumber" v="49" />
    <tag k="addr:street" v="Denisville Lane" />
    <tag k="addr:state" v="VT" />
    <tag k="ref:vcgi:esiteid" v="285507" />
  </node>
  <node id="-398" visible="true" lat="44.02217047" lon="-73.17800327">
    <tag k="addr:city" v="Weybridge" />
    <tag k="addr:housenumber" v="92" />
    <tag k="addr:street" v="Otter Creek Lane" />
    <tag k="addr:state" v="VT" />
    <tag k="ref:vcgi:esiteid" v="285508" />
  </node>
  <node id="-399" visible="true" lat="44.02192001" lon="-73.18056681">
    <tag k="addr:city" v="Weybridge" />
    <tag k="addr:housenumber" v="181" />
    <tag k="addr:street" v="Pleasant View Terrace" />
    <tag k="addr:state" v="VT" />
    <tag k="ref:vcgi:esiteid" v="285509" />
  </node>
  <node id="-400" visible="true" lat="44.02177562" lon="-73.17803872">
    <tag k="addr:city" v="Weybridge" />
    <tag k="addr:housenumber" v="86" />
    <tag k="addr:street" v="Otter Creek Lane" />
    <tag k="addr:state" v="VT" />
    <tag k="ref:vcgi:esiteid" v="285510" />
  </node>
  <node id="-401" visible="true" lat="44.02135066" lon="-73.23122609">
    <tag k="addr:city" v="Weybridge" />
    <tag k="addr:housenumber" v="24" />
    <tag k="addr:street" v="Denisville Lane" />
    <tag k="addr:state" v="VT" />
    <tag k="ref:vcgi:esiteid" v="285511" />
  </node>
  <node id="-402" visible="true" lat="44.02177583" lon="-73.18125476">
    <tag k="addr:city" v="Weybridge" />
    <tag k="addr:housenumber" v="167" />
    <tag k="addr:street" v="Pleasant View Terrace" />
    <tag k="addr:state" v="VT" />
    <tag k="ref:vcgi:esiteid" v="285512" />
  </node>
  <node id="-403" visible="true" lat="44.02173613" lon="-73.18174537">
    <tag k="addr:city" v="Weybridge" />
    <tag k="addr:housenumber" v="141" />
    <tag k="addr:street" v="Pleasant View Terrace" />
    <tag k="addr:state" v="VT" />
    <tag k="ref:vcgi:esiteid" v="285513" />
  </node>
  <node id="-404" visible="true" lat="44.0216345" lon="-73.17933381">
    <tag k="addr:city" v="Weybridge" />
    <tag k="addr:housenumber" v="194" />
    <tag k="addr:street" v="Pulp Mill Bridge Road" />
    <tag k="addr:state" v="VT" />
    <tag k="ref:vcgi:esiteid" v="285514" />
  </node>
  <node id="-405" visible="true" lat="44.02159025" lon="-73.18008617">
    <tag k="addr:city" v="Weybridge" />
    <tag k="addr:housenumber" v="177" />
    <tag k="addr:street" v="Pulp Mill Bridge Road" />
    <tag k="addr:state" v="VT" />
    <tag k="ref:vcgi:esiteid" v="285515" />
  </node>
  <node id="-406" visible="true" lat="44.0214805" lon="-73.17823993">
    <tag k="addr:city" v="Weybridge" />
    <tag k="addr:housenumber" v="76" />
    <tag k="addr:street" v="Otter Creek Lane" />
    <tag k="addr:state" v="VT" />
    <tag k="ref:vcgi:esiteid" v="285516" />
  </node>
  <node id="-407" visible="true" lat="44.02144401" lon="-73.21207099">
    <tag k="addr:city" v="Weybridge" />
    <tag k="addr:housenumber" v="955" />
    <tag k="addr:street" v="James Road" />
    <tag k="addr:state" v="VT" />
    <tag k="ref:vcgi:esiteid" v="285517" />
  </node>
  <node id="-408" visible="true" lat="44.021647" lon="-73.17883971">
    <tag k="addr:city" v="Weybridge" />
    <tag k="addr:housenumber" v="63" />
    <tag k="addr:street" v="Otter Creek Lane" />
    <tag k="addr:state" v="VT" />
    <tag k="ref:vcgi:esiteid" v="285518" />
  </node>
  <node id="-409" visible="true" lat="44.02162468" lon="-73.18839457">
    <tag k="addr:city" v="Weybridge" />
    <tag k="addr:housenumber" v="1097" />
    <tag k="addr:street" v="Weybridge Road" />
    <tag k="addr:state" v="VT" />
    <tag k="ref:vcgi:esiteid" v="285519" />
  </node>
  <node id="-410" visible="true" lat="44.02117811" lon="-73.23182884">
    <tag k="addr:city" v="Weybridge" />
    <tag k="addr:housenumber" v="21" />
    <tag k="addr:street" v="Denisville Lane" />
    <tag k="addr:state" v="VT" />
    <tag k="ref:vcgi:esiteid" v="285520" />
  </node>
  <node id="-411" visible="true" lat="44.02123948" lon="-73.18821174">
    <tag k="addr:city" v="Weybridge" />
    <tag k="addr:housenumber" v="1091" />
    <tag k="addr:street" v="Weybridge Road" />
    <tag k="addr:state" v="VT" />
    <tag k="ref:vcgi:esiteid" v="285521" />
  </node>
  <node id="-412" visible="true" lat="44.02120093" lon="-73.18107176">
    <tag k="addr:city" v="Weybridge" />
    <tag k="addr:housenumber" v="168" />
    <tag k="addr:street" v="Pleasant View Terrace" />
    <tag k="addr:state" v="VT" />
    <tag k="ref:vcgi:esiteid" v="285522" />
  </node>
  <node id="-413" visible="true" lat="44.02135881" lon="-73.18029288">
    <tag k="addr:city" v="Weybridge" />
    <tag k="addr:housenumber" v="159" />
    <tag k="addr:street" v="Pulp Mill Bridge Road" />
    <tag k="addr:state" v="VT" />
    <tag k="ref:vcgi:esiteid" v="285523" />
  </node>
  <node id="-414" visible="true" lat="44.02114146" lon="-73.1786821">
    <tag k="addr:city" v="Weybridge" />
    <tag k="addr:housenumber" v="54" />
    <tag k="addr:street" v="Otter Creek Lane" />
    <tag k="addr:state" v="VT" />
    <tag k="ref:vcgi:esiteid" v="285524" />
  </node>
  <node id="-415" visible="true" lat="44.02125332" lon="-73.18185866">
    <tag k="addr:city" v="Weybridge" />
    <tag k="addr:housenumber" v="116" />
    <tag k="addr:street" v="Pleasant View Terrace" />
    <tag k="addr:state" v="VT" />
    <tag k="ref:vcgi:esiteid" v="285525" />
  </node>
  <node id="-416" visible="true" lat="44.02127832" lon="-73.18242165">
    <tag k="addr:city" v="Weybridge" />
    <tag k="addr:housenumber" v="107" />
    <tag k="addr:street" v="Pleasant View Terrace" />
    <tag k="addr:state" v="VT" />
    <tag k="ref:vcgi:esiteid" v="285526" />
  </node>
  <node id="-417" visible="true" lat="44.02115852" lon="-73.1791254">
    <tag k="addr:city" v="Weybridge" />
    <tag k="addr:housenumber" v="40" />
    <tag k="addr:street" v="Otter Creek Lane" />
    <tag k="addr:state" v="VT" />
    <tag k="ref:vcgi:esiteid" v="285527" />
  </node>
  <node id="-418" visible="true" lat="44.02115824" lon="-73.18043334">
    <tag k="addr:city" v="Weybridge" />
    <tag k="addr:housenumber" v="145" />
    <tag k="addr:street" v="Pulp Mill Bridge Road" />
    <tag k="addr:state" v="VT" />
    <tag k="ref:vcgi:esiteid" v="285528" />
  </node>
  <node id="-419" visible="true" lat="44.02068754" lon="-73.23204847">
    <tag k="addr:city" v="Weybridge" />
    <tag k="addr:housenumber" v="1601" />
    <tag k="addr:street" v="Lemon Fair Road" />
    <tag k="addr:state" v="VT" />
    <tag k="ref:vcgi:esiteid" v="285529" />
  </node>
  <node id="-420" visible="true" lat="44.02097516" lon="-73.18255679">
    <tag k="addr:city" v="Weybridge" />
    <tag k="addr:housenumber" v="85" />
    <tag k="addr:street" v="Pleasant View Terrace" />
    <tag k="addr:state" v="VT" />
    <tag k="ref:vcgi:esiteid" v="285530" />
  </node>
  <node id="-421" visible="true" lat="44.02087783" lon="-73.18061828">
    <tag k="addr:city" v="Weybridge" />
    <tag k="addr:housenumber" v="119" />
    <tag k="addr:street" v="Pulp Mill Bridge Road" />
    <tag k="addr:state" v="VT" />
    <tag k="ref:vcgi:esiteid" v="285531" />
  </node>
  <node id="-422" visible="true" lat="44.02010134" lon="-73.23199417">
    <tag k="addr:city" v="Weybridge" />
    <tag k="addr:housenumber" v="1623" />
    <tag k="addr:street" v="Lemon Fair Road" />
    <tag k="addr:state" v="VT" />
    <tag k="ref:vcgi:esiteid" v="285532" />
  </node>
  <node id="-423" visible="true" lat="44.0206765" lon="-73.18209717">
    <tag k="addr:city" v="Weybridge" />
    <tag k="addr:housenumber" v="74" />
    <tag k="addr:street" v="Pleasant View Terrace" />
    <tag k="addr:state" v="VT" />
    <tag k="ref:vcgi:esiteid" v="285533" />
  </node>
  <node id="-424" visible="true" lat="44.02040945" lon="-73.23100919">
    <tag k="addr:city" v="Weybridge" />
    <tag k="addr:housenumber" v="1571" />
    <tag k="addr:street" v="Lemon Fair Road" />
    <tag k="addr:state" v="VT" />
    <tag k="ref:vcgi:esiteid" v="285534" />
  </node>
  <node id="-425" visible="true" lat="44.02065558" lon="-73.18076976">
    <tag k="addr:city" v="Weybridge" />
    <tag k="addr:housenumber" v="103" />
    <tag k="addr:street" v="Pulp Mill Bridge Road" />
    <tag k="addr:state" v="VT" />
    <tag k="ref:vcgi:esiteid" v="285535" />
  </node>
  <node id="-426" visible="true" lat="44.02060869" lon="-73.18265077">
    <tag k="addr:city" v="Weybridge" />
    <tag k="addr:housenumber" v="57" />
    <tag k="addr:street" v="Pleasant View Terrace" />
    <tag k="addr:state" v="VT" />
    <tag k="ref:vcgi:esiteid" v="285536" />
  </node>
  <node id="-427" visible="true" lat="44.02038783" lon="-73.18099255">
    <tag k="addr:city" v="Weybridge" />
    <tag k="addr:housenumber" v="83" />
    <tag k="addr:street" v="Pulp Mill Bridge Road" />
    <tag k="addr:state" v="VT" />
    <tag k="ref:vcgi:esiteid" v="285537" />
  </node>
  <node id="-428" visible="true" lat="44.02038201" lon="-73.18217211">
    <tag k="addr:city" v="Weybridge" />
    <tag k="addr:housenumber" v="48" />
    <tag k="addr:street" v="Pleasant View Terrace" />
    <tag k="addr:state" v="VT" />
    <tag k="ref:vcgi:esiteid" v="285538" />
  </node>
  <node id="-430" visible="true" lat="44.02016804" lon="-73.18116831">
    <tag k="addr:city" v="Weybridge" />
    <tag k="addr:housenumber" v="61" />
    <tag k="addr:street" v="Pulp Mill Bridge Road" />
    <tag k="addr:state" v="VT" />
    <tag k="ref:vcgi:esiteid" v="285540" />
  </node>
  <node id="-431" visible="true" lat="44.0198967" lon="-73.21205966">
    <tag k="addr:city" v="Weybridge" />
    <tag k="addr:housenumber" v="869" />
    <tag k="addr:street" v="James Road" />
    <tag k="addr:state" v="VT" />
    <tag k="ref:vcgi:esiteid" v="285541" />
  </node>
  <node id="-432" visible="true" lat="44.01989878" lon="-73.18241263">
    <tag k="addr:city" v="Weybridge" />
    <tag k="addr:housenumber" v="782" />
    <tag k="addr:street" v="Weybridge Road" />
    <tag k="addr:state" v="VT" />
    <tag k="ref:vcgi:esiteid" v="285542" />
  </node>
  <node id="-433" visible="true" lat="44.01993875" lon="-73.18134935">
    <tag k="addr:city" v="Weybridge" />
    <tag k="addr:housenumber" v="37" />
    <tag k="addr:street" v="Pulp Mill Bridge Road" />
    <tag k="addr:state" v="VT" />
    <tag k="ref:vcgi:esiteid" v="285543" />
  </node>
  <node id="-434" visible="true" lat="44.01948597" lon="-73.1827939">
    <tag k="addr:city" v="Weybridge" />
    <tag k="addr:housenumber" v="807" />
    <tag k="addr:street" v="Weybridge Road" />
    <tag k="addr:state" v="VT" />
    <tag k="ref:vcgi:esiteid" v="285544" />
  </node>
  <node id="-435" visible="true" lat="44.01971267" lon="-73.1815187">
    <tag k="addr:city" v="Weybridge" />
    <tag k="addr:housenumber" v="25" />
    <tag k="addr:street" v="Pulp Mill Bridge Road" />
    <tag k="addr:state" v="VT" />
    <tag k="ref:vcgi:esiteid" v="285545" />
  </node>
  <node id="-436" visible="true" lat="44.01972761" lon="-73.18187035">
    <tag k="addr:city" v="Weybridge" />
    <tag k="addr:housenumber" v="770" />
    <tag k="addr:street" v="Weybridge Road" />
    <tag k="addr:state" v="VT" />
    <tag k="ref:vcgi:esiteid" v="285546" />
  </node>
  <node id="-437" visible="true" lat="44.01892438" lon="-73.22328976">
    <tag k="addr:city" v="Weybridge" />
    <tag k="addr:housenumber" v="1049" />
    <tag k="addr:street" v="Lemon Fair Road" />
    <tag k="addr:state" v="VT" />
    <tag k="ref:vcgi:esiteid" v="285547" />
  </node>
  <node id="-438" visible="true" lat="44.01878116" lon="-73.24922628">
    <tag k="addr:city" v="Weybridge" />
    <tag k="addr:housenumber" v="2464" />
    <tag k="addr:street" v="Lemon Fair Road" />
    <tag k="addr:state" v="VT" />
    <tag k="ref:vcgi:esiteid" v="285548" />
  </node>
  <node id="-439" visible="true" lat="44.01843451" lon="-73.24975372">
    <tag k="addr:city" v="Weybridge" />
    <tag k="addr:housenumber" v="2488" />
    <tag k="addr:street" v="Lemon Fair Road" />
    <tag k="addr:state" v="VT" />
    <tag k="ref:vcgi:esiteid" v="285549" />
  </node>
  <node id="-440" visible="true" lat="44.01794579" lon="-73.21361126">
    <tag k="addr:city" v="Weybridge" />
    <tag k="addr:housenumber" v="186" />
    <tag k="addr:street" v="Cow Hill Road" />
    <tag k="addr:state" v="VT" />
    <tag k="ref:vcgi:esiteid" v="285550" />
  </node>
  <node id="-441" visible="true" lat="44.01779174" lon="-73.21183776">
    <tag k="addr:city" v="Weybridge" />
    <tag k="addr:housenumber" v="755" />
    <tag k="addr:street" v="James Road" />
    <tag k="addr:state" v="VT" />
    <tag k="ref:vcgi:esiteid" v="285551" />
  </node>
  <node id="-442" visible="true" lat="44.01728057" lon="-73.21845245">
    <tag k="addr:city" v="Weybridge" />
    <tag k="addr:housenumber" v="822" />
    <tag k="addr:street" v="Lemon Fair Road" />
    <tag k="addr:state" v="VT" />
    <tag k="ref:vcgi:esiteid" v="285552" />
  </node>
  <node id="-443" visible="true" lat="44.0169439" lon="-73.21543429">
    <tag k="addr:city" v="Weybridge" />
    <tag k="addr:housenumber" v="303" />
    <tag k="addr:street" v="Cow Hill Road" />
    <tag k="addr:state" v="VT" />
    <tag k="ref:vcgi:esiteid" v="285553" />
  </node>
  <node id="-444" visible="true" lat="44.01707012" lon="-73.21116459">
    <tag k="addr:city" v="Weybridge" />
    <tag k="addr:housenumber" v="710" />
    <tag k="addr:street" v="James Road" />
    <tag k="addr:state" v="VT" />
    <tag k="ref:vcgi:esiteid" v="285554" />
  </node>
  <node id="-445" visible="true" lat="44.01632466" lon="-73.22032278">
    <tag k="addr:city" v="Weybridge" />
    <tag k="addr:housenumber" v="820" />
    <tag k="addr:street" v="Lemon Fair Road" />
    <tag k="addr:state" v="VT" />
    <tag k="ref:vcgi:esiteid" v="285556" />
  </node>
  <node id="-446" visible="true" lat="44.06690216" lon="-73.21781921">
    <tag k="addr:city" v="Weybridge" />
    <tag k="addr:housenumber" v="30" />
    <tag k="addr:street" v="Field Days Road" />
    <tag k="addr:state" v="VT" />
    <tag k="ref:vcgi:esiteid" v="285561" />
  </node>
  <node id="-447" visible="true" lat="44.06538783" lon="-73.21494585">
    <tag k="addr:city" v="Weybridge" />
    <tag k="addr:housenumber" v="1856" />
    <tag k="addr:street" v="Quaker Village Road" />
    <tag k="addr:state" v="VT" />
    <tag k="ref:vcgi:esiteid" v="285562" />
  </node>
  <node id="-448" visible="true" lat="44.06612429" lon="-73.21517835">
    <tag k="addr:city" v="Weybridge" />
    <tag k="addr:housenumber" v="1910" />
    <tag k="addr:street" v="Quaker Village Road" />
    <tag k="addr:state" v="VT" />
    <tag k="ref:vcgi:esiteid" v="285563" />
  </node>
  <node id="-449" visible="true" lat="44.06583997" lon="-73.21521461">
    <tag k="addr:city" v="Weybridge" />
    <tag k="addr:housenumber" v="1896" />
    <tag k="addr:street" v="Quaker Village Road" />
    <tag k="addr:state" v="VT" />
    <tag k="ref:vcgi:esiteid" v="285564" />
  </node>
  <node id="-450" visible="true" lat="44.06698986" lon="-73.21524765">
    <tag k="addr:city" v="Weybridge" />
    <tag k="addr:housenumber" v="72" />
    <tag k="addr:street" v="Water Street" />
    <tag k="addr:state" v="VT" />
    <tag k="ref:vcgi:esiteid" v="285565" />
  </node>
  <node id="-451" visible="true" lat="44.06671365" lon="-73.21527659">
    <tag k="addr:city" v="Weybridge" />
    <tag k="addr:housenumber" v="50" />
    <tag k="addr:street" v="Water Street" />
    <tag k="addr:state" v="VT" />
    <tag k="ref:vcgi:esiteid" v="285566" />
  </node>
  <node id="-452" visible="true" lat="44.05651659" lon="-73.20096579">
    <tag k="addr:city" v="Weybridge" />
    <tag k="addr:housenumber" v="83" />
    <tag k="addr:street" v="Lafountain Lane" />
    <tag k="addr:state" v="VT" />
    <tag k="ref:vcgi:esiteid" v="285568" />
  </node>
  <node id="-453" visible="true" lat="44.05754089" lon="-73.20049285">
    <tag k="addr:city" v="Weybridge" />
    <tag k="addr:housenumber" v="40" />
    <tag k="addr:street" v="Lafountain Lane" />
    <tag k="addr:state" v="VT" />
    <tag k="ref:vcgi:esiteid" v="285569" />
  </node>
  <node id="-454" visible="true" lat="44.05734406" lon="-73.19907005">
    <tag k="addr:city" v="Weybridge" />
    <tag k="addr:housenumber" v="49" />
    <tag k="addr:street" v="Bunny Lane" />
    <tag k="addr:state" v="VT" />
    <tag k="ref:vcgi:esiteid" v="285570" />
  </node>
  <node id="-455" visible="true" lat="44.05702261" lon="-73.199522">
    <tag k="addr:city" v="Weybridge" />
    <tag k="addr:housenumber" v="17" />
    <tag k="addr:street" v="Bunny Lane" />
    <tag k="addr:state" v="VT" />
    <tag k="ref:vcgi:esiteid" v="285571" />
  </node>
  <node id="-456" visible="true" lat="44.03758154" lon="-73.21223509">
    <tag k="addr:city" v="Weybridge" />
    <tag k="addr:housenumber" v="2120" />
    <tag k="addr:street" v="James Road" />
    <tag k="addr:state" v="VT" />
    <tag k="ref:vcgi:esiteid" v="285572" />
  </node>
  <node id="-457" visible="true" lat="44.03793028" lon="-73.21221643">
    <tag k="addr:city" v="Weybridge" />
    <tag k="addr:housenumber" v="2136" />
    <tag k="addr:street" v="James Road" />
    <tag k="addr:state" v="VT" />
    <tag k="ref:vcgi:esiteid" v="285573" />
  </node>
  <node id="-458" visible="true" lat="44.06595213" lon="-73.21900249">
    <tag k="addr:city" v="Weybridge" />
    <tag k="addr:housenumber" v="120" />
    <tag k="addr:street" v="Meetinghouse Lane" />
    <tag k="addr:state" v="VT" />
    <tag k="ref:vcgi:esiteid" v="285574" />
  </node>
  <node id="-459" visible="true" lat="44.065838" lon="-73.22059293">
    <tag k="addr:city" v="Weybridge" />
    <tag k="addr:housenumber" v="44" />
    <tag k="addr:street" v="Meetinghouse Lane" />
    <tag k="addr:state" v="VT" />
    <tag k="ref:vcgi:esiteid" v="285575" />
  </node>
  <node id="-460" visible="true" lat="44.05119626" lon="-73.25452284">
    <tag k="addr:city" v="Weybridge" />
    <tag k="addr:housenumber" v="4194" />
    <tag k="addr:street" v="Snake Mountain Road" />
    <tag k="addr:state" v="VT" />
    <tag k="ref:vcgi:esiteid" v="285576" />
  </node>
  <node id="-461" visible="true" lat="44.03560069" lon="-73.25891441">
    <tag k="addr:city" v="Weybridge" />
    <tag k="addr:housenumber" v="208" />
    <tag k="addr:street" v="Raymond Drive" />
    <tag k="addr:state" v="VT" />
    <tag k="ref:vcgi:esiteid" v="285577" />
  </node>
  <node id="-462" visible="true" lat="44.03860955" lon="-73.21226279">
    <tag k="addr:city" v="Weybridge" />
    <tag k="addr:housenumber" v="2790" />
    <tag k="addr:street" v="Weybridge Road" />
    <tag k="addr:state" v="VT" />
    <tag k="ref:vcgi:esiteid" v="285578" />
  </node>
  <node id="-463" visible="true" lat="44.01918501" lon="-73.21286274">
    <tag k="addr:city" v="Weybridge" />
    <tag k="addr:housenumber" v="801" />
    <tag k="addr:street" v="James Road" />
    <tag k="addr:state" v="VT" />
    <tag k="ref:vcgi:esiteid" v="285579" />
  </node>
  <node id="-464" visible="true" lat="44.06236365" lon="-73.24110441">
    <tag k="addr:city" v="Weybridge" />
    <tag k="addr:housenumber" v="5431" />
    <tag k="addr:street" v="Weybridge Road" />
    <tag k="addr:state" v="VT" />
    <tag k="ref:vcgi:esiteid" v="285581" />
  </node>
  <node id="-465" visible="true" lat="44.05596304" lon="-73.2582022">
    <tag k="addr:city" v="Weybridge" />
    <tag k="addr:housenumber" v="4655" />
    <tag k="addr:street" v="Snake Mountain Road" />
    <tag k="addr:state" v="VT" />
    <tag k="ref:vcgi:esiteid" v="285582" />
  </node>
  <node id="-466" visible="true" lat="44.08618271" lon="-73.24710607">
    <tag k="addr:city" v="Weybridge" />
    <tag k="addr:housenumber" v="44" />
    <tag k="addr:street" v="Vermont Route 17" />
    <tag k="addr:state" v="VT" />
    <tag k="ref:vcgi:esiteid" v="285584" />
  </node>
  <node id="-467" visible="true" lat="44.02233388" lon="-73.2249796">
    <tag k="addr:city" v="Weybridge" />
    <tag k="addr:housenumber" v="1216" />
    <tag k="addr:street" v="Lemon Fair Road" />
    <tag k="addr:state" v="VT" />
    <tag k="ref:vcgi:esiteid" v="285585" />
  </node>
  <node id="-468" visible="true" lat="44.06089559" lon="-73.25717938">
    <tag k="addr:city" v="Weybridge" />
    <tag k="addr:housenumber" v="4898" />
    <tag k="addr:street" v="Snake Mountain Road" />
    <tag k="addr:state" v="VT" />
    <tag k="ref:vcgi:esiteid" v="285586" />
  </node>
  <node id="-469" visible="true" lat="44.06970486" lon="-73.21858967">
    <tag k="addr:city" v="Weybridge" />
    <tag k="addr:housenumber" v="220" />
    <tag k="addr:street" v="Field Days Road" />
    <tag k="addr:state" v="VT" />
    <tag k="ref:vcgi:esiteid" v="285587" />
  </node>
  <node id="-470" visible="true" lat="44.06848815" lon="-73.22037627">
    <tag k="addr:city" v="Weybridge" />
    <tag k="addr:housenumber" v="185" />
    <tag k="addr:street" v="Field Days Road" />
    <tag k="addr:state" v="VT" />
    <tag k="ref:vcgi:esiteid" v="285588" />
  </node>
  <node id="-471" visible="true" lat="44.06659657" lon="-73.20484278">
    <tag k="addr:city" v="Weybridge" />
    <tag k="addr:housenumber" v="501" />
    <tag k="addr:street" v="Baker Court" />
    <tag k="addr:state" v="VT" />
    <tag k="ref:vcgi:esiteid" v="285589" />
  </node>
  <node id="-472" visible="true" lat="44.05234107" lon="-73.25520271">
    <tag k="addr:city" v="Weybridge" />
    <tag k="addr:housenumber" v="4310" />
    <tag k="addr:street" v="Snake Mountain Road" />
    <tag k="addr:state" v="VT" />
    <tag k="ref:vcgi:esiteid" v="285590" />
  </node>
  <node id="-473" visible="true" lat="44.04681426" lon="-73.20393625">
    <tag k="addr:city" v="Weybridge" />
    <tag k="addr:housenumber" v="301" />
    <tag k="addr:street" v="Cave Road" />
    <tag k="addr:state" v="VT" />
    <tag k="ref:vcgi:esiteid" v="285592" />
  </node>
  <node id="-474" visible="true" lat="44.05997857" lon="-73.19380243">
    <tag k="addr:city" v="Weybridge" />
    <tag k="addr:housenumber" v="2605" />
    <tag k="addr:street" v="Morgan Horse Farm Road" />
    <tag k="addr:state" v="VT" />
    <tag k="ref:vcgi:esiteid" v="285593" />
  </node>
  <node id="-475" visible="true" lat="44.02798483" lon="-73.20612809">
    <tag k="addr:city" v="Weybridge" />
    <tag k="addr:housenumber" v="1969" />
    <tag k="addr:street" v="Weybridge Road" />
    <tag k="addr:state" v="VT" />
    <tag k="ref:vcgi:esiteid" v="285594" />
  </node>
  <node id="-476" visible="true" lat="44.07099549" lon="-73.2602966">
    <tag k="addr:city" v="Weybridge" />
    <tag k="addr:housenumber" v="5625" />
    <tag k="addr:street" v="Snake Mountain Road" />
    <tag k="addr:state" v="VT" />
    <tag k="ref:vcgi:esiteid" v="285595" />
  </node>
  <node id="-477" visible="true" lat="44.04548661" lon="-73.20396478">
    <tag k="addr:city" v="Weybridge" />
    <tag k="addr:housenumber" v="125" />
    <tag k="addr:street" v="Cave Road" />
    <tag k="addr:state" v="VT" />
    <tag k="ref:vcgi:esiteid" v="285596" />
  </node>
  <node id="-478" visible="true" lat="44.03589536" lon="-73.19249872">
    <tag k="addr:city" v="Weybridge" />
    <tag k="addr:housenumber" v="1043" />
    <tag k="addr:street" v="Sheep Farm Road" />
    <tag k="addr:state" v="VT" />
    <tag k="ref:vcgi:esiteid" v="285597" />
  </node>
  <node id="-479" visible="true" lat="44.03922735" lon="-73.20888557">
    <tag k="addr:city" v="Weybridge" />
    <tag k="addr:housenumber" v="140" />
    <tag k="addr:street" v="Hamilton Road" />
    <tag k="addr:state" v="VT" />
    <tag k="ref:vcgi:esiteid" v="285598" />
  </node>
  <node id="-480" visible="true" lat="44.06868192" lon="-73.23337254">
    <tag k="addr:city" v="Weybridge" />
    <tag k="addr:housenumber" v="2938" />
    <tag k="addr:street" v="Quaker Village Road" />
    <tag k="addr:state" v="VT" />
    <tag k="ref:vcgi:esiteid" v="285600" />
  </node>
  <node id="-481" visible="true" lat="44.05068653" lon="-73.21145093">
    <tag k="addr:city" v="Weybridge" />
    <tag k="addr:housenumber" v="930" />
    <tag k="addr:street" v="Quaker Village Road" />
    <tag k="addr:state" v="VT" />
    <tag k="ref:vcgi:esiteid" v="285601" />
  </node>
  <node id="-482" visible="true" lat="44.02172678" lon="-73.18258381">
    <tag k="addr:city" v="Weybridge" />
    <tag k="addr:housenumber" v="129" />
    <tag k="addr:street" v="Pleasant View Terrace" />
    <tag k="addr:state" v="VT" />
    <tag k="ref:vcgi:esiteid" v="285602" />
  </node>
  <node id="-483" visible="true" lat="44.03153708" lon="-73.19133871">
    <tag k="addr:city" v="Weybridge" />
    <tag k="addr:housenumber" v="703" />
    <tag k="addr:street" v="Sheep Farm Road" />
    <tag k="addr:state" v="VT" />
    <tag k="ref:vcgi:esiteid" v="285603" />
  </node>
  <node id="-484" visible="true" lat="44.02725555" lon="-73.19023691">
    <tag k="addr:city" v="Weybridge" />
    <tag k="addr:housenumber" v="319" />
    <tag k="addr:street" v="Sheep Farm Road" />
    <tag k="addr:state" v="VT" />
    <tag k="ref:vcgi:esiteid" v="285604" />
  </node>
  <node id="-485" visible="true" lat="44.06604485" lon="-73.199478">
    <tag k="addr:city" v="Weybridge" />
    <tag k="addr:housenumber" v="256" />
    <tag k="addr:street" v="Pine Ridge Lane" />
    <tag k="addr:state" v="VT" />
    <tag k="ref:vcgi:esiteid" v="285605" />
  </node>
  <node id="-486" visible="true" lat="44.07296187" lon="-73.23695984">
    <tag k="addr:city" v="Weybridge" />
    <tag k="addr:housenumber" v="3242" />
    <tag k="addr:street" v="Quaker Village Road" />
    <tag k="addr:state" v="VT" />
    <tag k="ref:vcgi:esiteid" v="285606" />
  </node>
  <node id="-487" visible="true" lat="44.07230242" lon="-73.23648585">
    <tag k="addr:city" v="Weybridge" />
    <tag k="addr:housenumber" v="3224" />
    <tag k="addr:street" v="Quaker Village Road" />
    <tag k="addr:state" v="VT" />
    <tag k="ref:vcgi:esiteid" v="285607" />
  </node>
  <node id="-488" visible="true" lat="44.07452054" lon="-73.23881192">
    <tag k="addr:city" v="Weybridge" />
    <tag k="addr:housenumber" v="3345" />
    <tag k="addr:street" v="Quaker Village Road" />
    <tag k="addr:state" v="VT" />
    <tag k="ref:vcgi:esiteid" v="285608" />
  </node>
  <node id="-489" visible="true" lat="44.03339253" lon="-73.19143288">
    <tag k="addr:city" v="Weybridge" />
    <tag k="addr:housenumber" v="803" />
    <tag k="addr:street" v="Sheep Farm Road" />
    <tag k="addr:state" v="VT" />
    <tag k="ref:vcgi:esiteid" v="285609" />
  </node>
  <node id="-490" visible="true" lat="44.07384838" lon="-73.23709301">
    <tag k="addr:city" v="Weybridge" />
    <tag k="addr:housenumber" v="3340" />
    <tag k="addr:street" v="Quaker Village Road" />
    <tag k="addr:state" v="VT" />
    <tag k="ref:vcgi:esiteid" v="285610" />
  </node>
  <node id="-491" visible="true" lat="44.05707904" lon="-73.19840862">
    <tag k="addr:city" v="Weybridge" />
    <tag k="addr:housenumber" v="71" />
    <tag k="addr:street" v="Bunny Lane" />
    <tag k="addr:state" v="VT" />
    <tag k="ref:vcgi:esiteid" v="285611" />
  </node>
  <node id="-492" visible="true" lat="44.02941748" lon="-73.18870263">
    <tag k="addr:city" v="Weybridge" />
    <tag k="addr:housenumber" v="500" />
    <tag k="addr:street" v="Sheep Farm Road" />
    <tag k="addr:state" v="VT" />
    <tag k="ref:vcgi:esiteid" v="285612" />
  </node>
  <node id="-493" visible="true" lat="44.07575992" lon="-73.25427026">
    <tag k="addr:city" v="Weybridge" />
    <tag k="addr:housenumber" v="6050" />
    <tag k="addr:street" v="Snake Mountain Road" />
    <tag k="addr:state" v="VT" />
    <tag k="ref:vcgi:esiteid" v="285613" />
  </node>
  <node id="-494" visible="true" lat="44.08605763" lon="-73.249551">
    <tag k="addr:city" v="Weybridge" />
    <tag k="addr:housenumber" v="95" />
    <tag k="addr:street" v="Vermont Route 17" />
    <tag k="addr:state" v="VT" />
    <tag k="ref:vcgi:esiteid" v="285614" />
  </node>
  <node id="-495" visible="true" lat="44.03815222" lon="-73.21251616">
    <tag k="addr:city" v="Weybridge" />
    <tag k="addr:housenumber" v="2160" />
    <tag k="addr:street" v="James Road" />
    <tag k="addr:state" v="VT" />
    <tag k="ref:vcgi:esiteid" v="285615" />
  </node>
  <node id="-496" visible="true" lat="44.03487854" lon="-73.1864609">
    <tag k="addr:city" v="Weybridge" />
    <tag k="addr:housenumber" v="765" />
    <tag k="addr:street" v="Morgan Horse Farm Road" />
    <tag k="addr:state" v="VT" />
    <tag k="ref:vcgi:esiteid" v="285616" />
  </node>
  <node id="-497" visible="true" lat="44.02517453" lon="-73.19476632">
    <tag k="addr:city" v="Weybridge" />
    <tag k="addr:housenumber" v="1505" />
    <tag k="addr:street" v="Weybridge Road" />
    <tag k="addr:state" v="VT" />
    <tag k="ref:vcgi:esiteid" v="285617" />
  </node>
  <node id="-498" visible="true" lat="44.04272432" lon="-73.21505458">
    <tag k="addr:city" v="Weybridge" />
    <tag k="addr:housenumber" v="3126" />
    <tag k="addr:street" v="Weybridge Road" />
    <tag k="addr:state" v="VT" />
    <tag k="ref:vcgi:esiteid" v="326220" />
  </node>
  <node id="-499" visible="true" lat="44.02325982" lon="-73.17844027">
    <tag k="addr:city" v="Weybridge" />
    <tag k="addr:housenumber" v="310" />
    <tag k="addr:street" v="Pulp Mill Bridge Road" />
    <tag k="addr:state" v="VT" />
    <tag k="ref:vcgi:esiteid" v="326221" />
  </node>
  <node id="-500" visible="true" lat="44.05883735" lon="-73.26043891">
    <tag k="addr:city" v="Weybridge" />
    <tag k="addr:housenumber" v="4825" />
    <tag k="addr:street" v="Snake Mountain Road" />
    <tag k="addr:state" v="VT" />
    <tag k="ref:vcgi:esiteid" v="326222" />
  </node>
  <node id="-501" visible="true" lat="44.03299332" lon="-73.21034407">
    <tag k="addr:city" v="Weybridge" />
    <tag k="addr:housenumber" v="1800" />
    <tag k="addr:street" v="James Road" />
    <tag k="addr:state" v="VT" />
    <tag k="ref:vcgi:esiteid" v="332607" />
  </node>
  <node id="-502" visible="true" lat="44.02804612" lon="-73.1904183">
    <tag k="addr:city" v="Weybridge" />
    <tag k="addr:housenumber" v="383" />
    <tag k="addr:street" v="Sheep Farm Road" />
    <tag k="addr:state" v="VT" />
    <tag k="ref:vcgi:esiteid" v="332608" />
  </node>
  <node id="-503" visible="true" lat="44.06286111" lon="-73.25224451">
    <tag k="addr:city" v="Weybridge" />
    <tag k="addr:housenumber" v="181" />
    <tag k="addr:street" v="Thompson Hill Road" />
    <tag k="addr:state" v="VT" />
    <tag k="ref:vcgi:esiteid" v="332609" />
  </node>
  <node id="-504" visible="true" lat="44.02087293" lon="-73.17997229">
    <tag k="addr:city" v="Weybridge" />
    <tag k="addr:housenumber" v="136" />
    <tag k="addr:street" v="Pulp Mill Bridge Road" />
    <tag k="addr:state" v="VT" />
    <tag k="ref:vcgi:esiteid" v="332610" />
  </node>
  <node id="-505" visible="true" lat="44.0242718" lon="-73.20148705">
    <tag k="addr:city" v="Weybridge" />
    <tag k="addr:housenumber" v="345" />
    <tag k="addr:street" v="Perkins Road" />
    <tag k="addr:state" v="VT" />
    <tag k="ref:vcgi:esiteid" v="332611" />
  </node>
  <node id="-506" visible="true" lat="44.05546837" lon="-73.19728889">
    <tag k="addr:city" v="Weybridge" />
    <tag k="addr:housenumber" v="946" />
    <tag k="addr:street" v="Cave Road" />
    <tag k="addr:state" v="VT" />
    <tag k="ref:vcgi:esiteid" v="332612" />
  </node>
  <node id="-507" visible="true" lat="44.03190494" lon="-73.1844981">
    <tag k="addr:city" v="Weybridge" />
    <tag k="addr:housenumber" v="571" />
    <tag k="addr:street" v="Morgan Horse Farm Road" />
    <tag k="addr:state" v="VT" />
    <tag k="ref:vcgi:esiteid" v="332613" />
  </node>
  <node id="-508" visible="true" lat="44.01992263" lon="-73.19773713">
    <tag k="addr:city" v="Weybridge" />
    <tag k="addr:housenumber" v="225" />
    <tag k="addr:street" v="Perkins Road" />
    <tag k="addr:state" v="VT" />
    <tag k="ref:vcgi:esiteid" v="335479" />
  </node>
  <node id="-509" visible="true" lat="44.04436339" lon="-73.21208922">
    <tag k="addr:city" v="Weybridge" />
    <tag k="addr:housenumber" v="422" />
    <tag k="addr:street" v="Quaker Village Road" />
    <tag k="addr:state" v="VT" />
    <tag k="ref:vcgi:esiteid" v="337945" />
  </node>
  <node id="-510" visible="true" lat="44.06931021" lon="-73.19393328">
    <tag k="addr:city" v="Weybridge" />
    <tag k="addr:housenumber" v="3180" />
    <tag k="addr:street" v="Morgan Horse Farm Road" />
    <tag k="addr:state" v="VT" />
    <tag k="ref:vcgi:esiteid" v="342792" />
  </node>
  <node id="-511" visible="true" lat="44.03680331" lon="-73.20708679">
    <tag k="addr:city" v="Weybridge" />
    <tag k="addr:housenumber" v="2546" />
    <tag k="addr:street" v="Weybridge Road" />
    <tag k="addr:state" v="VT" />
    <tag k="ref:vcgi:esiteid" v="342793" />
  </node>
  <node id="-512" visible="true" lat="44.04666923" lon="-73.21898887">
    <tag k="addr:city" v="Weybridge" />
    <tag k="addr:housenumber" v="3415" />
    <tag k="addr:street" v="Weybridge Road" />
    <tag k="addr:state" v="VT" />
    <tag k="ref:vcgi:esiteid" v="342794" />
  </node>
  <node id="-513" visible="true" lat="44.06516927" lon="-73.22518289">
    <tag k="addr:city" v="Weybridge" />
    <tag k="addr:housenumber" v="2427" />
    <tag k="addr:street" v="Quaker Village Road" />
    <tag k="addr:state" v="VT" />
    <tag k="ref:vcgi:esiteid" v="342795" />
  </node>
  <node id="-514" visible="true" lat="44.04712034" lon="-73.24328695">
    <tag k="addr:city" v="Weybridge" />
    <tag k="addr:housenumber" v="651" />
    <tag k="addr:street" v="Prunier Road" />
    <tag k="addr:state" v="VT" />
    <tag k="ref:vcgi:esiteid" v="446421" />
  </node>
  <node id="-515" visible="true" lat="44.08072282" lon="-73.25009303">
    <tag k="addr:city" v="Weybridge" />
    <tag k="addr:housenumber" v="7076" />
    <tag k="addr:street" v="Weybridge Road" />
    <tag k="addr:state" v="VT" />
    <tag k="ref:vcgi:esiteid" v="447976" />
  </node>
  <node id="-516" visible="true" lat="44.04994496" lon="-73.21466968">
    <tag k="addr:city" v="Weybridge" />
    <tag k="addr:housenumber" v="775" />
    <tag k="addr:street" v="Quaker Village Road" />
    <tag k="addr:state" v="VT" />
    <tag k="ref:vcgi:esiteid" v="447978" />
  </node>
  <node id="-519" visible="true" lat="44.06716168" lon="-73.20747982">
    <tag k="addr:city" v="Weybridge" />
    <tag k="addr:housenumber" v="417" />
    <tag k="addr:street" v="Baker Court" />
    <tag k="addr:state" v="VT" />
    <tag k="ref:vcgi:esiteid" v="452661" />
  </node>
  <node id="-520" visible="true" lat="44.05830613" lon="-73.21422536">
    <tag k="addr:city" v="Weybridge" />
    <tag k="addr:housenumber" v="1360" />
    <tag k="addr:street" v="Quaker Village Road" />
    <tag k="addr:state" v="VT" />
    <tag k="ref:vcgi:esiteid" v="453072" />
  </node>
  <node id="-521" visible="true" lat="44.04535407" lon="-73.21181637">
    <tag k="addr:city" v="Weybridge" />
    <tag k="addr:housenumber" v="456" />
    <tag k="addr:street" v="Quaker Village Road" />
    <tag k="addr:state" v="VT" />
    <tag k="ref:vcgi:esiteid" v="453165" />
  </node>
  <node id="-525" visible="true" lat="44.04623072" lon="-73.22016766">
    <tag k="addr:city" v="Weybridge" />
    <tag k="addr:housenumber" v="3395" />
    <tag k="addr:street" v="Weybridge Road" />
    <tag k="addr:state" v="VT" />
    <tag k="ref:vcgi:esiteid" v="453169" />
  </node>
  <node id="-526" visible="true" lat="44.04740096" lon="-73.21312546">
    <tag k="addr:city" v="Weybridge" />
    <tag k="addr:housenumber" v="622" />
    <tag k="addr:street" v="Quaker Village Road" />
    <tag k="addr:state" v="VT" />
    <tag k="ref:vcgi:esiteid" v="453172" />
  </node>
  <node id="-527" visible="true" lat="44.07043842" lon="-73.19462531">
    <tag k="addr:city" v="Weybridge" />
    <tag k="addr:housenumber" v="3339" />
    <tag k="addr:street" v="Morgan Horse Farm Road" />
    <tag k="addr:state" v="VT" />
    <tag k="ref:vcgi:esiteid" v="453175" />
  </node>
  <node id="-528" visible="true" lat="44.01668041" lon="-73.21185227">
    <tag k="addr:city" v="Weybridge" />
    <tag k="addr:housenumber" v="655" />
    <tag k="addr:street" v="James Road" />
    <tag k="addr:state" v="VT" />
    <tag k="ref:vcgi:esiteid" v="453176" />
  </node>
  <node id="-529" visible="true" lat="44.08176507" lon="-73.25001032">
    <tag k="addr:city" v="Weybridge" />
    <tag k="addr:housenumber" v="7226" />
    <tag k="addr:street" v="Weybridge Road" />
    <tag k="addr:state" v="VT" />
    <tag k="ref:vcgi:esiteid" v="454029" />
  </node>
  <node id="-530" visible="true" lat="44.0229725" lon="-73.17840015">
    <tag k="addr:city" v="Weybridge" />
    <tag k="addr:housenumber" v="286" />
    <tag k="addr:street" v="Pulp Mill Bridge Road" />
    <tag k="addr:state" v="VT" />
    <tag k="ref:vcgi:esiteid" v="455148" />
  </node>
  <node id="-531" visible="true" lat="44.07316685" lon="-73.25785049">
    <tag k="addr:city" v="Weybridge" />
    <tag k="addr:housenumber" v="5767" />
    <tag k="addr:street" v="Snake Mountain Road" />
    <tag k="addr:state" v="VT" />
    <tag k="ref:vcgi:esiteid" v="610518" />
  </node>
  <node id="-532" visible="true" lat="44.02685207" lon="-73.21487731">
    <tag k="addr:city" v="Weybridge" />
    <tag k="addr:housenumber" v="1329" />
    <tag k="addr:street" v="James Road" />
    <tag k="addr:state" v="VT" />
    <tag k="ref:vcgi:esiteid" v="610822" />
  </node>
  <node id="-533" visible="true" lat="44.03212057" lon="-73.18948789">
    <tag k="addr:city" v="Weybridge" />
    <tag k="addr:housenumber" v="700" />
    <tag k="addr:street" v="Sheep Farm Road" />
    <tag k="addr:state" v="VT" />
    <tag k="ref:vcgi:esiteid" v="611383" />
  </node>
  <node id="-534" visible="true" lat="44.03945661" lon="-73.21373248">
    <tag k="addr:city" v="Weybridge" />
    <tag k="addr:housenumber" v="28" />
    <tag k="addr:street" v="Thunder Road" />
    <tag k="addr:state" v="VT" />
    <tag k="ref:vcgi:esiteid" v="611553" />
  </node>
  <node id="-535" visible="true" lat="44.03948468" lon="-73.21533715">
    <tag k="addr:city" v="Weybridge" />
    <tag k="addr:housenumber" v="110" />
    <tag k="addr:street" v="Thunder Road" />
    <tag k="addr:state" v="VT" />
    <tag k="ref:vcgi:esiteid" v="611554" />
  </node>
  <node id="-536" visible="true" lat="44.08601745" lon="-73.24810008">
    <tag k="addr:city" v="Weybridge" />
    <tag k="addr:housenumber" v="60" />
    <tag k="addr:street" v="Vermont Route 17" />
    <tag k="addr:state" v="VT" />
    <tag k="ref:vcgi:esiteid" v="617673" />
  </node>
  <node id="-537" visible="true" lat="44.03019252" lon="-73.18805922">
    <tag k="addr:city" v="Weybridge" />
    <tag k="addr:housenumber" v="538" />
    <tag k="addr:street" v="Sheep Farm Road" />
    <tag k="addr:state" v="VT" />
    <tag k="ref:vcgi:esiteid" v="618038" />
  </node>
  <node id="-538" visible="true" lat="44.02587044" lon="-73.25541052">
    <tag k="addr:city" v="Weybridge" />
    <tag k="addr:housenumber" v="2576" />
    <tag k="addr:street" v="Snake Mountain Road" />
    <tag k="addr:state" v="VT" />
    <tag k="ref:vcgi:esiteid" v="618138" />
  </node>
  <node id="-540" visible="true" lat="44.02521518" lon="-73.21477092">
    <tag k="addr:city" v="Weybridge" />
    <tag k="addr:housenumber" v="1289" />
    <tag k="addr:street" v="James Road" />
    <tag k="addr:state" v="VT" />
    <tag k="ref:vcgi:esiteid" v="752109" />
  </node>
  <node id="-541" visible="true" lat="44.03047579" lon="-73.18919487">
    <tag k="addr:city" v="Weybridge" />
    <tag k="addr:housenumber" v="540" />
    <tag k="addr:street" v="Sheep Farm Road" />
    <tag k="addr:state" v="VT" />
    <tag k="ref:vcgi:esiteid" v="752110" />
  </node>
  <node id="-542" visible="true" lat="44.06651925" lon="-73.2174334">
    <tag k="addr:city" v="Weybridge" />
    <tag k="addr:housenumber" v="2000" />
    <tag k="addr:street" v="Quaker Village Road" />
    <tag k="addr:state" v="VT" />
    <tag k="ref:vcgi:esiteid" v="754307" />
  </node>
  <node id="-543" visible="true" lat="44.01618204" lon="-73.25633771">
    <tag k="addr:city" v="Weybridge" />
    <tag k="addr:housenumber" v="1728" />
    <tag k="addr:street" v="Snake Mountain Road" />
    <tag k="addr:state" v="VT" />
    <tag k="ref:vcgi:esiteid" v="756162" />
  </node>
  <node id="-544" visible="true" lat="44.01495257" lon="-73.25626079">
    <tag k="addr:city" v="Weybridge" />
    <tag k="addr:housenumber" v="1662" />
    <tag k="addr:street" v="Snake Mountain Road" />
    <tag k="addr:state" v="VT" />
    <tag k="ref:vcgi:esiteid" v="756163" />
  </node>
  <node id="-546" visible="true" lat="44.04880792" lon="-73.21081632">
    <tag k="addr:city" v="Weybridge" />
    <tag k="addr:housenumber" v="225" />
    <tag k="addr:street" v="Piper Ridge" />
    <tag k="addr:state" v="VT" />
    <tag k="ref:vcgi:esiteid" v="756337" />
  </node>
  <node id="-547" visible="true" lat="44.0304285" lon="-73.22022583">
    <tag k="addr:city" v="Weybridge" />
    <tag k="addr:housenumber" v="680" />
    <tag k="addr:street" v="Bittersweet Falls Road" />
    <tag k="addr:state" v="VT" />
    <tag k="ref:vcgi:esiteid" v="756536" />
  </node>
  <node id="-548" visible="true" lat="44.03345959" lon="-73.18954029">
    <tag k="addr:city" v="Weybridge" />
    <tag k="addr:housenumber" v="778" />
    <tag k="addr:street" v="Sheep Farm Road" />
    <tag k="addr:state" v="VT" />
    <tag k="ref:vcgi:esiteid" v="758087" />
  </node>
  <node id="-550" visible="true" lat="44.03413419" lon="-73.18999579">
    <tag k="addr:city" v="Weybridge" />
    <tag k="addr:housenumber" v="812" />
    <tag k="addr:street" v="Sheep Farm Road" />
    <tag k="addr:state" v="VT" />
    <tag k="ref:vcgi:esiteid" v="758140" />
  </node>
  <node id="-551" visible="true" lat="44.0330432" lon="-73.20476899">
    <tag k="addr:city" v="Weybridge" />
    <tag k="addr:housenumber" v="2201" />
    <tag k="addr:street" v="Weybridge Road" />
    <tag k="addr:state" v="VT" />
    <tag k="ref:vcgi:esiteid" v="758163" />
  </node>
  <node id="-552" visible="true" lat="44.04542214" lon="-73.20830966">
    <tag k="addr:city" v="Weybridge" />
    <tag k="addr:housenumber" v="429" />
    <tag k="addr:street" v="Hamilton Road" />
    <tag k="addr:state" v="VT" />
    <tag k="ref:vcgi:esiteid" v="758265" />
  </node>
  <node id="-554" visible="true" lat="44.068782" lon="-73.25769293">
    <tag k="addr:city" v="Weybridge" />
    <tag k="addr:housenumber" v="5440" />
    <tag k="addr:street" v="Snake Mountain Road" />
    <tag k="addr:state" v="VT" />
    <tag k="ref:vcgi:esiteid" v="760105" />
  </node>
  <node id="-555" visible="true" lat="44.03083191" lon="-73.18085857">
    <tag k="addr:city" v="Weybridge" />
    <tag k="addr:housenumber" v="458" />
    <tag k="addr:street" v="Morgan Horse Farm Road" />
    <tag k="addr:state" v="VT" />
    <tag k="ref:vcgi:esiteid" v="760407" />
  </node>
  <node id="-556" visible="true" lat="44.06296284" lon="-73.22487691">
    <tag k="addr:city" v="Weybridge" />
    <tag k="addr:housenumber" v="335" />
    <tag k="addr:street" v="Oxbow Lane" />
    <tag k="addr:state" v="VT" />
    <tag k="ref:vcgi:esiteid" v="760819" />
  </node>
  <node id="-557" visible="true" lat="44.06541916" lon="-73.19248438">
    <tag k="addr:city" v="Weybridge" />
    <tag k="addr:housenumber" v="2970" />
    <tag k="addr:street" v="Morgan Horse Farm Road" />
    <tag k="addr:state" v="VT" />
    <tag k="ref:vcgi:esiteid" v="760908" />
  </node>
  <node id="-558" visible="true" lat="44.06618582" lon="-73.25911213">
    <tag k="addr:city" v="Weybridge" />
    <tag k="addr:housenumber" v="5282" />
    <tag k="addr:street" v="Snake Mountain Road" />
    <tag k="addr:state" v="VT" />
    <tag k="ref:vcgi:esiteid" v="761585" />
  </node>
  <node id="-559" visible="true" lat="44.05566484" lon="-73.25576882">
    <tag k="addr:city" v="Weybridge" />
    <tag k="addr:housenumber" v="4542" />
    <tag k="addr:street" v="Snake Mountain Road" />
    <tag k="addr:state" v="VT" />
    <tag k="ref:vcgi:esiteid" v="761586" />
  </node>
  <node id="-560" visible="true" lat="44.02405571" lon="-73.20014227">
    <tag k="addr:city" v="Weybridge" />
    <tag k="addr:housenumber" v="311" />
    <tag k="addr:street" v="Perkins Road" />
    <tag k="addr:state" v="VT" />
    <tag k="ref:vcgi:esiteid" v="762638" />
  </node>
  <node id="-561" visible="true" lat="44.05897323" lon="-73.21506781">
    <tag k="addr:city" v="Weybridge" />
    <tag k="addr:housenumber" v="1353" />
    <tag k="addr:street" v="Quaker Village Road" />
    <tag k="addr:state" v="VT" />
    <tag k="ref:vcgi:esiteid" v="762958" />
  </node>
  <node id="-562" visible="true" lat="44.06168597" lon="-73.25654195">
    <tag k="addr:city" v="Weybridge" />
    <tag k="addr:housenumber" v="407" />
    <tag k="addr:street" v="Thompson Hill Road" />
    <tag k="addr:state" v="VT" />
    <tag k="ref:vcgi:esiteid" v="763301" />
  </node>
  <node id="-563" visible="true" lat="44.0462971" lon="-73.21697564">
    <tag k="addr:city" v="Weybridge" />
    <tag k="addr:housenumber" v="3380" />
    <tag k="addr:street" v="Weybridge Road" />
    <tag k="addr:state" v="VT" />
    <tag k="ref:vcgi:esiteid" v="765511" />
  </node>
  <node id="-564" visible="true" lat="44.02829684" lon="-73.18716583">
    <tag k="addr:city" v="Weybridge" />
    <tag k="addr:housenumber" v="166" />
    <tag k="addr:street" v="Terrace Heights" />
    <tag k="addr:state" v="VT" />
    <tag k="ref:vcgi:esiteid" v="767308" />
  </node>
  <node id="-565" visible="true" lat="44.02195515" lon="-73.17986059">
    <tag k="addr:city" v="Weybridge" />
    <tag k="addr:housenumber" v="207" />
    <tag k="addr:street" v="Pulp Mill Bridge Road" />
    <tag k="addr:state" v="VT" />
    <tag k="ref:vcgi:esiteid" v="768175" />
  </node>
  <node id="-566" visible="true" lat="44.07368569" lon="-73.23834095">
    <tag k="addr:city" v="Weybridge" />
    <tag k="addr:housenumber" v="3319" />
    <tag k="addr:street" v="Quaker Village Road" />
    <tag k="addr:state" v="VT" />
    <tag k="ref:vcgi:esiteid" v="768727" />
  </node>
  <node id="-567" visible="true" lat="44.02553651" lon="-73.19743786">
    <tag k="addr:city" v="Weybridge" />
    <tag k="addr:housenumber" v="138" />
    <tag k="addr:street" v="Perkins Road" />
    <tag k="addr:state" v="VT" />
    <tag k="ref:vcgi:esiteid" v="769000" />
  </node>
  <node id="-568" visible="true" lat="44.02412462" lon="-73.18913278">
    <tag k="addr:city" v="Weybridge" />
    <tag k="addr:housenumber" v="149" />
    <tag k="addr:street" v="Sheep Farm Road" />
    <tag k="addr:state" v="VT" />
    <tag k="ref:vcgi:esiteid" v="769119" />
  </node>
  <node id="-569" visible="true" lat="44.07096133" lon="-73.24002213">
    <tag k="addr:city" v="Weybridge" />
    <tag k="addr:housenumber" v="3147" />
    <tag k="addr:street" v="Quaker Village Road" />
    <tag k="addr:state" v="VT" />
    <tag k="ref:vcgi:esiteid" v="769670" />
  </node>
  <node id="-570" visible="true" lat="44.02768669" lon="-73.18793858">
    <tag k="addr:city" v="Weybridge" />
    <tag k="addr:housenumber" v="185" />
    <tag k="addr:street" v="Terrace Heights" />
    <tag k="addr:state" v="VT" />
    <tag k="ref:vcgi:esiteid" v="769983" />
  </node>
  <node id="-571" visible="true" lat="44.07020071" lon="-73.25908532">
    <tag k="addr:city" v="Weybridge" />
    <tag k="addr:housenumber" v="5607" />
    <tag k="addr:street" v="Snake Mountain Road" />
    <tag k="addr:state" v="VT" />
    <tag k="ref:vcgi:esiteid" v="770596" />
  </node>
  <node id="-572" visible="true" lat="44.07313157" lon="-73.2576701">
    <tag k="addr:city" v="Weybridge" />
    <tag k="addr:housenumber" v="5765" />
    <tag k="addr:street" v="Snake Mountain Road" />
    <tag k="addr:state" v="VT" />
    <tag k="ref:vcgi:esiteid" v="800002" />
  </node>
  <node id="-573" visible="true" lat="44.0348285" lon="-73.19076391">
    <tag k="addr:city" v="Weybridge" />
    <tag k="addr:housenumber" v="824" />
    <tag k="addr:street" v="Sheep Farm Road" />
    <tag k="addr:state" v="VT" />
    <tag k="ref:vcgi:esiteid" v="800042" />
  </node>
  <node id="-574" visible="true" lat="44.03628329" lon="-73.25604775">
    <tag k="addr:city" v="Weybridge" />
    <tag k="addr:housenumber" v="3013" />
    <tag k="addr:street" v="Snake Mountain Road" />
    <tag k="addr:state" v="VT" />
    <tag k="ref:vcgi:esiteid" v="800066" />
  </node>
  <node id="-575" visible="true" lat="44.03845743" lon="-73.21592217">
    <tag k="addr:city" v="Weybridge" />
    <tag k="addr:housenumber" v="105" />
    <tag k="addr:street" v="Thunder Road" />
    <tag k="addr:state" v="VT" />
    <tag k="ref:vcgi:esiteid" v="900040" />
  </node>
</osm>
