<?xml version="1.0" encoding="UTF-8"?>
<osm version="0.6" generator="JOSM">
  <node id="-100" visible="true" lat="44.52115408" lon="-72.14199586">
    <tag k="addr:city" v="Wheelock" />
    <tag k="addr:housenumber" v="501" />
    <tag k="addr:street" v="Horne Road" />
    <tag k="addr:state" v="VT" />
    <tag k="ref:vcgi:esiteid" v="12" />
  </node>
  <node id="-101" visible="true" lat="44.58675505" lon="-72.09298176">
    <tag k="addr:city" v="Wheelock" />
    <tag k="addr:housenumber" v="216" />
    <tag k="addr:street" v="Vertical Mile Road" />
    <tag k="addr:state" v="VT" />
    <tag k="ref:vcgi:esiteid" v="220190" />
  </node>
  <node id="-102" visible="true" lat="44.61620712" lon="-72.18202972">
    <tag k="addr:city" v="Wheelock" />
    <tag k="addr:housenumber" v="1107" />
    <tag k="addr:street" v="Gilbert Road" />
    <tag k="addr:state" v="VT" />
    <tag k="ref:vcgi:esiteid" v="285620" />
  </node>
  <node id="-103" visible="true" lat="44.61577606" lon="-72.18206024">
    <tag k="addr:city" v="Wheelock" />
    <tag k="addr:housenumber" v="1096" />
    <tag k="addr:street" v="Gilbert Road" />
    <tag k="addr:state" v="VT" />
    <tag k="ref:vcgi:esiteid" v="285621" />
  </node>
  <node id="-104" visible="true" lat="44.61529372" lon="-72.18331573">
    <tag k="addr:city" v="Wheelock" />
    <tag k="addr:housenumber" v="1033" />
    <tag k="addr:street" v="Gilbert Road" />
    <tag k="addr:state" v="VT" />
    <tag k="ref:vcgi:esiteid" v="285622" />
  </node>
  <node id="-105" visible="true" lat="44.61393737" lon="-72.18322753">
    <tag k="addr:city" v="Wheelock" />
    <tag k="addr:housenumber" v="967" />
    <tag k="addr:street" v="Gilbert Road" />
    <tag k="addr:state" v="VT" />
    <tag k="ref:vcgi:esiteid" v="285623" />
  </node>
  <node id="-106" visible="true" lat="44.61366192" lon="-72.17868474">
    <tag k="addr:city" v="Wheelock" />
    <tag k="addr:housenumber" v="835" />
    <tag k="addr:street" v="Gilbert Road" />
    <tag k="addr:state" v="VT" />
    <tag k="ref:vcgi:esiteid" v="285624" />
  </node>
  <node id="-107" visible="true" lat="44.61348804" lon="-72.17861844">
    <tag k="addr:city" v="Wheelock" />
    <tag k="addr:housenumber" v="837" />
    <tag k="addr:street" v="Gilbert Road" />
    <tag k="addr:state" v="VT" />
    <tag k="ref:vcgi:esiteid" v="285625" />
  </node>
  <node id="-108" visible="true" lat="44.59880515" lon="-72.13671238">
    <tag k="addr:city" v="Wheelock" />
    <tag k="addr:housenumber" v="849" />
    <tag k="addr:street" v="Dane Road" />
    <tag k="addr:state" v="VT" />
    <tag k="ref:vcgi:esiteid" v="285626" />
  </node>
  <node id="-109" visible="true" lat="44.61836242" lon="-72.20529174">
    <tag k="addr:city" v="Wheelock" />
    <tag k="addr:housenumber" v="6366" />
    <tag k="addr:street" v="Vermont Route 16" />
    <tag k="addr:state" v="VT" />
    <tag k="ref:vcgi:esiteid" v="285627" />
  </node>
  <node id="-110" visible="true" lat="44.61749599" lon="-72.19294268">
    <tag k="addr:city" v="Wheelock" />
    <tag k="addr:housenumber" v="1340" />
    <tag k="addr:street" v="Quarry Road" />
    <tag k="addr:state" v="VT" />
    <tag k="ref:vcgi:esiteid" v="285628" />
  </node>
  <node id="-111" visible="true" lat="44.61374488" lon="-72.18324757">
    <tag k="addr:city" v="Wheelock" />
    <tag k="addr:housenumber" v="963" />
    <tag k="addr:street" v="Gilbert Road" />
    <tag k="addr:state" v="VT" />
    <tag k="ref:vcgi:esiteid" v="285629" />
  </node>
  <node id="-112" visible="true" lat="44.61328327" lon="-72.18086996">
    <tag k="addr:city" v="Wheelock" />
    <tag k="addr:housenumber" v="873" />
    <tag k="addr:street" v="Gilbert Road" />
    <tag k="addr:state" v="VT" />
    <tag k="ref:vcgi:esiteid" v="285630" />
  </node>
  <node id="-113" visible="true" lat="44.61198751" lon="-72.17101253">
    <tag k="addr:city" v="Wheelock" />
    <tag k="addr:housenumber" v="407" />
    <tag k="addr:street" v="Hams Camp Road" />
    <tag k="addr:state" v="VT" />
    <tag k="ref:vcgi:esiteid" v="285631" />
  </node>
  <node id="-114" visible="true" lat="44.60528045" lon="-72.1547174">
    <tag k="addr:city" v="Wheelock" />
    <tag k="addr:housenumber" v="624" />
    <tag k="addr:street" v="Gilman Field Road" />
    <tag k="addr:state" v="VT" />
    <tag k="ref:vcgi:esiteid" v="285632" />
  </node>
  <node id="-115" visible="true" lat="44.60103607" lon="-72.14302825">
    <tag k="addr:city" v="Wheelock" />
    <tag k="addr:housenumber" v="1058" />
    <tag k="addr:street" v="Kenniston Hill Road" />
    <tag k="addr:state" v="VT" />
    <tag k="ref:vcgi:esiteid" v="285633" />
  </node>
  <node id="-116" visible="true" lat="44.59880828" lon="-72.14555358">
    <tag k="addr:city" v="Wheelock" />
    <tag k="addr:housenumber" v="1269" />
    <tag k="addr:street" v="Kenniston Hill Road" />
    <tag k="addr:state" v="VT" />
    <tag k="ref:vcgi:esiteid" v="285635" />
  </node>
  <node id="-117" visible="true" lat="44.59878539" lon="-72.14564514">
    <tag k="addr:city" v="Wheelock" />
    <tag k="addr:housenumber" v="1273" />
    <tag k="addr:street" v="Kenniston Hill Road" />
    <tag k="addr:state" v="VT" />
    <tag k="ref:vcgi:esiteid" v="285636" />
  </node>
  <node id="-118" visible="true" lat="44.59831697" lon="-72.06052175">
    <tag k="addr:city" v="Wheelock" />
    <tag k="addr:housenumber" v="1428" />
    <tag k="addr:street" v="Sutton Road" />
    <tag k="addr:state" v="VT" />
    <tag k="ref:vcgi:esiteid" v="285637" />
  </node>
  <node id="-119" visible="true" lat="44.59733998" lon="-72.06335188">
    <tag k="addr:city" v="Wheelock" />
    <tag k="addr:housenumber" v="1257" />
    <tag k="addr:street" v="Sutton Road" />
    <tag k="addr:state" v="VT" />
    <tag k="ref:vcgi:esiteid" v="285638" />
  </node>
  <node id="-120" visible="true" lat="44.59564296" lon="-72.06252793">
    <tag k="addr:city" v="Wheelock" />
    <tag k="addr:housenumber" v="1242" />
    <tag k="addr:street" v="Sutton Road" />
    <tag k="addr:state" v="VT" />
    <tag k="ref:vcgi:esiteid" v="285639" />
  </node>
  <node id="-121" visible="true" lat="44.59539209" lon="-72.13089746">
    <tag k="addr:city" v="Wheelock" />
    <tag k="addr:housenumber" v="382" />
    <tag k="addr:street" v="Allard Hill Road" />
    <tag k="addr:state" v="VT" />
    <tag k="ref:vcgi:esiteid" v="285640" />
  </node>
  <node id="-122" visible="true" lat="44.5943756" lon="-72.13354492">
    <tag k="addr:city" v="Wheelock" />
    <tag k="addr:housenumber" v="520" />
    <tag k="addr:street" v="Allard Hill Road" />
    <tag k="addr:state" v="VT" />
    <tag k="ref:vcgi:esiteid" v="285641" />
  </node>
  <node id="-123" visible="true" lat="44.59188079" lon="-72.16104125">
    <tag k="addr:city" v="Wheelock" />
    <tag k="addr:housenumber" v="2218" />
    <tag k="addr:street" v="Kenniston Hill Road" />
    <tag k="addr:state" v="VT" />
    <tag k="ref:vcgi:esiteid" v="285642" />
  </node>
  <node id="-124" visible="true" lat="44.5909233" lon="-72.13463592">
    <tag k="addr:city" v="Wheelock" />
    <tag k="addr:housenumber" v="740" />
    <tag k="addr:street" v="Allard Hill Road" />
    <tag k="addr:state" v="VT" />
    <tag k="ref:vcgi:esiteid" v="285644" />
  </node>
  <node id="-125" visible="true" lat="44.5905131" lon="-72.07206138">
    <tag k="addr:city" v="Wheelock" />
    <tag k="addr:housenumber" v="651" />
    <tag k="addr:street" v="Sutton Road" />
    <tag k="addr:state" v="VT" />
    <tag k="ref:vcgi:esiteid" v="285645" />
  </node>
  <node id="-126" visible="true" lat="44.59087371" lon="-72.16285705">
    <tag k="addr:city" v="Wheelock" />
    <tag k="addr:housenumber" v="2368" />
    <tag k="addr:street" v="Kenniston Hill Road" />
    <tag k="addr:state" v="VT" />
    <tag k="ref:vcgi:esiteid" v="285646" />
  </node>
  <node id="-127" visible="true" lat="44.59043513" lon="-72.08905814">
    <tag k="addr:city" v="Wheelock" />
    <tag k="addr:housenumber" v="140" />
    <tag k="addr:street" v="Sulfur Spring Road" />
    <tag k="addr:state" v="VT" />
    <tag k="ref:vcgi:esiteid" v="285647" />
  </node>
  <node id="-128" visible="true" lat="44.59087456" lon="-72.22368623">
    <tag k="addr:city" v="Wheelock" />
    <tag k="addr:housenumber" v="523" />
    <tag k="addr:street" v="Sparhawk Road" />
    <tag k="addr:state" v="VT" />
    <tag k="ref:vcgi:esiteid" v="285648" />
  </node>
  <node id="-129" visible="true" lat="44.59043121" lon="-72.16111755">
    <tag k="addr:city" v="Wheelock" />
    <tag k="addr:housenumber" v="2295" />
    <tag k="addr:street" v="Kenniston Hill Road" />
    <tag k="addr:state" v="VT" />
    <tag k="ref:vcgi:esiteid" v="285649" />
  </node>
  <node id="-130" visible="true" lat="44.59008407" lon="-72.13540649">
    <tag k="addr:city" v="Wheelock" />
    <tag k="addr:housenumber" v="802" />
    <tag k="addr:street" v="Allard Hill Road" />
    <tag k="addr:state" v="VT" />
    <tag k="ref:vcgi:esiteid" v="285650" />
  </node>
  <node id="-131" visible="true" lat="44.58987808" lon="-72.09014893">
    <tag k="addr:city" v="Wheelock" />
    <tag k="addr:housenumber" v="1568" />
    <tag k="addr:street" v="Vermont Route 122" />
    <tag k="addr:state" v="VT" />
    <tag k="ref:vcgi:esiteid" v="285651" />
  </node>
  <node id="-132" visible="true" lat="44.5895175" lon="-72.07398209">
    <tag k="addr:city" v="Wheelock" />
    <tag k="addr:housenumber" v="514" />
    <tag k="addr:street" v="Sutton Road" />
    <tag k="addr:state" v="VT" />
    <tag k="ref:vcgi:esiteid" v="285652" />
  </node>
  <node id="-133" visible="true" lat="44.58979797" lon="-72.16518402">
    <tag k="addr:city" v="Wheelock" />
    <tag k="addr:housenumber" v="2484" />
    <tag k="addr:street" v="Kenniston Hill Road" />
    <tag k="addr:state" v="VT" />
    <tag k="ref:vcgi:esiteid" v="285653" />
  </node>
  <node id="-134" visible="true" lat="44.58922334" lon="-72.07421689">
    <tag k="addr:city" v="Wheelock" />
    <tag k="addr:housenumber" v="482" />
    <tag k="addr:street" v="Sutton Road" />
    <tag k="addr:state" v="VT" />
    <tag k="ref:vcgi:esiteid" v="285654" />
  </node>
  <node id="-135" visible="true" lat="44.58912285" lon="-72.07517615">
    <tag k="addr:city" v="Wheelock" />
    <tag k="addr:housenumber" v="440" />
    <tag k="addr:street" v="Sutton Road" />
    <tag k="addr:state" v="VT" />
    <tag k="ref:vcgi:esiteid" v="285655" />
  </node>
  <node id="-136" visible="true" lat="44.58935928" lon="-72.11690521">
    <tag k="addr:city" v="Wheelock" />
    <tag k="addr:housenumber" v="951" />
    <tag k="addr:street" v="Chesley Hill Road" />
    <tag k="addr:state" v="VT" />
    <tag k="ref:vcgi:esiteid" v="285656" />
  </node>
  <node id="-137" visible="true" lat="44.58923721" lon="-72.08480071">
    <tag k="addr:city" v="Wheelock" />
    <tag k="addr:housenumber" v="1264" />
    <tag k="addr:street" v="Vermont Route 122" />
    <tag k="addr:state" v="VT" />
    <tag k="ref:vcgi:esiteid" v="285657" />
  </node>
  <node id="-138" visible="true" lat="44.58914184" lon="-72.07710266">
    <tag k="addr:city" v="Wheelock" />
    <tag k="addr:housenumber" v="290" />
    <tag k="addr:street" v="Sutton Road" />
    <tag k="addr:state" v="VT" />
    <tag k="ref:vcgi:esiteid" v="285658" />
  </node>
  <node id="-139" visible="true" lat="44.58907318" lon="-72.12139892">
    <tag k="addr:city" v="Wheelock" />
    <tag k="addr:housenumber" v="1275" />
    <tag k="addr:street" v="Chesley Hill Road" />
    <tag k="addr:state" v="VT" />
    <tag k="ref:vcgi:esiteid" v="285659" />
  </node>
  <node id="-140" visible="true" lat="44.58889094" lon="-72.08831055">
    <tag k="addr:city" v="Wheelock" />
    <tag k="addr:housenumber" v="14" />
    <tag k="addr:street" v="Sulfur Spring Road" />
    <tag k="addr:state" v="VT" />
    <tag k="ref:vcgi:esiteid" v="285660" />
  </node>
  <node id="-141" visible="true" lat="44.58886312" lon="-72.08893764">
    <tag k="addr:city" v="Wheelock" />
    <tag k="addr:housenumber" v="1464" />
    <tag k="addr:street" v="Vermont Route 122" />
    <tag k="addr:state" v="VT" />
    <tag k="ref:vcgi:esiteid" v="285661" />
  </node>
  <node id="-142" visible="true" lat="44.58859739" lon="-72.08678716">
    <tag k="addr:city" v="Wheelock" />
    <tag k="addr:housenumber" v="1360" />
    <tag k="addr:street" v="Vermont Route 122" />
    <tag k="addr:state" v="VT" />
    <tag k="ref:vcgi:esiteid" v="285663" />
  </node>
  <node id="-143" visible="true" lat="44.58860778" lon="-72.08757781">
    <tag k="addr:city" v="Wheelock" />
    <tag k="addr:housenumber" v="1398" />
    <tag k="addr:street" v="Vermont Route 122" />
    <tag k="addr:state" v="VT" />
    <tag k="ref:vcgi:esiteid" v="285664" />
  </node>
  <node id="-144" visible="true" lat="44.58859252" lon="-72.08719635">
    <tag k="addr:city" v="Wheelock" />
    <tag k="addr:housenumber" v="1380" />
    <tag k="addr:street" v="Vermont Route 122" />
    <tag k="addr:state" v="VT" />
    <tag k="ref:vcgi:esiteid" v="285665" />
  </node>
  <node id="-145" visible="true" lat="44.58865582" lon="-72.08779821">
    <tag k="addr:city" v="Wheelock" />
    <tag k="addr:housenumber" v="1404" />
    <tag k="addr:street" v="Vermont Route 122" />
    <tag k="addr:state" v="VT" />
    <tag k="ref:vcgi:esiteid" v="285666" />
  </node>
  <node id="-146" visible="true" lat="44.58884203" lon="-72.08624518">
    <tag k="addr:city" v="Wheelock" />
    <tag k="addr:housenumber" v="1330" />
    <tag k="addr:street" v="Vermont Route 122" />
    <tag k="addr:state" v="VT" />
    <tag k="ref:vcgi:esiteid" v="285667" />
  </node>
  <node id="-147" visible="true" lat="44.58813619" lon="-72.08674726">
    <tag k="addr:city" v="Wheelock" />
    <tag k="addr:housenumber" v="1353" />
    <tag k="addr:street" v="Vermont Route 122" />
    <tag k="addr:state" v="VT" />
    <tag k="ref:vcgi:esiteid" v="285669" />
  </node>
  <node id="-148" visible="true" lat="44.58827754" lon="-72.08543101">
    <tag k="addr:city" v="Wheelock" />
    <tag k="addr:housenumber" v="1294" />
    <tag k="addr:street" v="Vermont Route 122" />
    <tag k="addr:state" v="VT" />
    <tag k="ref:vcgi:esiteid" v="285670" />
  </node>
  <node id="-149" visible="true" lat="44.58847469" lon="-72.13431756">
    <tag k="addr:city" v="Wheelock" />
    <tag k="addr:housenumber" v="917" />
    <tag k="addr:street" v="Allard Hill Road" />
    <tag k="addr:state" v="VT" />
    <tag k="ref:vcgi:esiteid" v="285671" />
  </node>
  <node id="-150" visible="true" lat="44.58823591" lon="-72.08240486">
    <tag k="addr:city" v="Wheelock" />
    <tag k="addr:housenumber" v="65" />
    <tag k="addr:street" v="Sutton Road" />
    <tag k="addr:state" v="VT" />
    <tag k="ref:vcgi:esiteid" v="285672" />
  </node>
  <node id="-151" visible="true" lat="44.58798069" lon="-72.08145421">
    <tag k="addr:city" v="Wheelock" />
    <tag k="addr:housenumber" v="104" />
    <tag k="addr:street" v="Sutton Road" />
    <tag k="addr:state" v="VT" />
    <tag k="ref:vcgi:esiteid" v="285673" />
  </node>
  <node id="-152" visible="true" lat="44.58804582" lon="-72.08601824">
    <tag k="addr:city" v="Wheelock" />
    <tag k="addr:housenumber" v="1311" />
    <tag k="addr:street" v="Vermont Route 122" />
    <tag k="addr:state" v="VT" />
    <tag k="ref:vcgi:esiteid" v="285675" />
  </node>
  <node id="-153" visible="true" lat="44.58805466" lon="-72.08582306">
    <tag k="addr:city" v="Wheelock" />
    <tag k="addr:housenumber" v="1305" />
    <tag k="addr:street" v="Vermont Route 122" />
    <tag k="addr:state" v="VT" />
    <tag k="ref:vcgi:esiteid" v="285676" />
  </node>
  <node id="-154" visible="true" lat="44.58810089" lon="-72.08375522">
    <tag k="addr:city" v="Wheelock" />
    <tag k="addr:housenumber" v="3" />
    <tag k="addr:street" v="Sutton Road" />
    <tag k="addr:state" v="VT" />
    <tag k="ref:vcgi:esiteid" v="285677" />
  </node>
  <node id="-155" visible="true" lat="44.5880515" lon="-72.09111881">
    <tag k="addr:city" v="Wheelock" />
    <tag k="addr:housenumber" v="70" />
    <tag k="addr:street" v="Vertical Mile Road" />
    <tag k="addr:state" v="VT" />
    <tag k="ref:vcgi:esiteid" v="285678" />
  </node>
  <node id="-156" visible="true" lat="44.58798599" lon="-72.08547211">
    <tag k="addr:city" v="Wheelock" />
    <tag k="addr:housenumber" v="1287" />
    <tag k="addr:street" v="Vermont Route 122" />
    <tag k="addr:state" v="VT" />
    <tag k="ref:vcgi:esiteid" v="285679" />
  </node>
  <node id="-157" visible="true" lat="44.58804706" lon="-72.0889271">
    <tag k="addr:city" v="Wheelock" />
    <tag k="addr:housenumber" v="57" />
    <tag k="addr:street" v="Peak Road" />
    <tag k="addr:state" v="VT" />
    <tag k="ref:vcgi:esiteid" v="285680" />
  </node>
  <node id="-158" visible="true" lat="44.5879595" lon="-72.08816697">
    <tag k="addr:city" v="Wheelock" />
    <tag k="addr:housenumber" v="39" />
    <tag k="addr:street" v="Peak Road" />
    <tag k="addr:state" v="VT" />
    <tag k="ref:vcgi:esiteid" v="285681" />
  </node>
  <node id="-159" visible="true" lat="44.58772814" lon="-72.08414837">
    <tag k="addr:city" v="Wheelock" />
    <tag k="addr:housenumber" v="1219" />
    <tag k="addr:street" v="Vermont Route 122" />
    <tag k="addr:state" v="VT" />
    <tag k="ref:vcgi:esiteid" v="285682" />
  </node>
  <node id="-160" visible="true" lat="44.5881195" lon="-72.16706085">
    <tag k="addr:city" v="Wheelock" />
    <tag k="addr:housenumber" v="2644" />
    <tag k="addr:street" v="Kenniston Hill Road" />
    <tag k="addr:state" v="VT" />
    <tag k="ref:vcgi:esiteid" v="285683" />
  </node>
  <node id="-161" visible="true" lat="44.58776208" lon="-72.08183999">
    <tag k="addr:city" v="Wheelock" />
    <tag k="addr:housenumber" v="68" />
    <tag k="addr:street" v="Sutton Road" />
    <tag k="addr:state" v="VT" />
    <tag k="ref:vcgi:esiteid" v="285684" />
  </node>
  <node id="-162" visible="true" lat="44.58774158" lon="-72.08871604">
    <tag k="addr:city" v="Wheelock" />
    <tag k="addr:housenumber" v="67" />
    <tag k="addr:street" v="Peak Road" />
    <tag k="addr:state" v="VT" />
    <tag k="ref:vcgi:esiteid" v="285685" />
  </node>
  <node id="-163" visible="true" lat="44.58803253" lon="-72.22712466">
    <tag k="addr:city" v="Wheelock" />
    <tag k="addr:housenumber" v="243" />
    <tag k="addr:street" v="Leblanc Road" />
    <tag k="addr:state" v="VT" />
    <tag k="ref:vcgi:esiteid" v="285686" />
  </node>
  <node id="-164" visible="true" lat="44.58767715" lon="-72.08958689">
    <tag k="addr:city" v="Wheelock" />
    <tag k="addr:housenumber" v="78" />
    <tag k="addr:street" v="Peak Road" />
    <tag k="addr:state" v="VT" />
    <tag k="ref:vcgi:esiteid" v="285687" />
  </node>
  <node id="-165" visible="true" lat="44.58747482" lon="-72.0833435">
    <tag k="addr:city" v="Wheelock" />
    <tag k="addr:housenumber" v="1171" />
    <tag k="addr:street" v="Vermont Route 122" />
    <tag k="addr:state" v="VT" />
    <tag k="ref:vcgi:esiteid" v="285688" />
  </node>
  <node id="-166" visible="true" lat="44.58781192" lon="-72.22518892">
    <tag k="addr:city" v="Wheelock" />
    <tag k="addr:housenumber" v="167" />
    <tag k="addr:street" v="Leblanc Road" />
    <tag k="addr:state" v="VT" />
    <tag k="ref:vcgi:esiteid" v="285689" />
  </node>
  <node id="-167" visible="true" lat="44.58738563" lon="-72.08918489">
    <tag k="addr:city" v="Wheelock" />
    <tag k="addr:housenumber" v="88" />
    <tag k="addr:street" v="Peak Road" />
    <tag k="addr:state" v="VT" />
    <tag k="ref:vcgi:esiteid" v="285690" />
  </node>
  <node id="-168" visible="true" lat="44.58755874" lon="-72.11887359">
    <tag k="addr:city" v="Wheelock" />
    <tag k="addr:housenumber" v="21" />
    <tag k="addr:street" v="Morgan Road West" />
    <tag k="addr:state" v="VT" />
    <tag k="ref:vcgi:esiteid" v="285691" />
  </node>
  <node id="-169" visible="true" lat="44.58741378" lon="-72.08220672">
    <tag k="addr:city" v="Wheelock" />
    <tag k="addr:housenumber" v="1122" />
    <tag k="addr:street" v="Vermont Route 122" />
    <tag k="addr:state" v="VT" />
    <tag k="ref:vcgi:esiteid" v="285692" />
  </node>
  <node id="-170" visible="true" lat="44.58744049" lon="-72.1208496">
    <tag k="addr:city" v="Wheelock" />
    <tag k="addr:housenumber" v="1159" />
    <tag k="addr:street" v="Chesley Hill Road" />
    <tag k="addr:state" v="VT" />
    <tag k="ref:vcgi:esiteid" v="285693" />
  </node>
  <node id="-171" visible="true" lat="44.58724594" lon="-72.09080505">
    <tag k="addr:city" v="Wheelock" />
    <tag k="addr:housenumber" v="99" />
    <tag k="addr:street" v="Vertical Mile Road" />
    <tag k="addr:state" v="VT" />
    <tag k="ref:vcgi:esiteid" v="285694" />
  </node>
  <node id="-172" visible="true" lat="44.58719981" lon="-72.08493838">
    <tag k="addr:city" v="Wheelock" />
    <tag k="addr:housenumber" v="4048" />
    <tag k="addr:street" v="Fall Brook Road" />
    <tag k="addr:state" v="VT" />
    <tag k="ref:vcgi:esiteid" v="285695" />
  </node>
  <node id="-173" visible="true" lat="44.58712768" lon="-72.09175872">
    <tag k="addr:city" v="Wheelock" />
    <tag k="addr:housenumber" v="161" />
    <tag k="addr:street" v="Vertical Mile Road" />
    <tag k="addr:state" v="VT" />
    <tag k="ref:vcgi:esiteid" v="285696" />
  </node>
  <node id="-174" visible="true" lat="44.58678576" lon="-72.12030794">
    <tag k="addr:city" v="Wheelock" />
    <tag k="addr:housenumber" v="6" />
    <tag k="addr:street" v="Morgan Road West" />
    <tag k="addr:state" v="VT" />
    <tag k="ref:vcgi:esiteid" v="285697" />
  </node>
  <node id="-175" visible="true" lat="44.58705433" lon="-72.08140479">
    <tag k="addr:city" v="Wheelock" />
    <tag k="addr:housenumber" v="1120" />
    <tag k="addr:street" v="Vermont Route 122" />
    <tag k="addr:state" v="VT" />
    <tag k="ref:vcgi:esiteid" v="285698" />
  </node>
  <node id="-176" visible="true" lat="44.58725822" lon="-72.21696474">
    <tag k="addr:city" v="Wheelock" />
    <tag k="addr:housenumber" v="948" />
    <tag k="addr:street" v="Sparhawk Road" />
    <tag k="addr:state" v="VT" />
    <tag k="ref:vcgi:esiteid" v="285699" />
  </node>
  <node id="-177" visible="true" lat="44.58634948" lon="-72.08863067">
    <tag k="addr:city" v="Wheelock" />
    <tag k="addr:housenumber" v="150" />
    <tag k="addr:street" v="Peak Road" />
    <tag k="addr:state" v="VT" />
    <tag k="ref:vcgi:esiteid" v="285700" />
  </node>
  <node id="-178" visible="true" lat="44.5865763" lon="-72.21532395">
    <tag k="addr:city" v="Wheelock" />
    <tag k="addr:housenumber" v="1014" />
    <tag k="addr:street" v="Sparhawk Road" />
    <tag k="addr:state" v="VT" />
    <tag k="ref:vcgi:esiteid" v="285701" />
  </node>
  <node id="-179" visible="true" lat="44.58452078" lon="-72.2161334">
    <tag k="addr:city" v="Wheelock" />
    <tag k="addr:housenumber" v="1002" />
    <tag k="addr:street" v="Sparhawk Road" />
    <tag k="addr:state" v="VT" />
    <tag k="ref:vcgi:esiteid" v="285702" />
  </node>
  <node id="-180" visible="true" lat="44.58456802" lon="-72.0785675">
    <tag k="addr:city" v="Wheelock" />
    <tag k="addr:housenumber" v="867" />
    <tag k="addr:street" v="Vermont Route 122" />
    <tag k="addr:state" v="VT" />
    <tag k="ref:vcgi:esiteid" v="285704" />
  </node>
  <node id="-181" visible="true" lat="44.584317" lon="-72.07694872">
    <tag k="addr:city" v="Wheelock" />
    <tag k="addr:housenumber" v="796" />
    <tag k="addr:street" v="Vermont Route 122" />
    <tag k="addr:state" v="VT" />
    <tag k="ref:vcgi:esiteid" v="285705" />
  </node>
  <node id="-182" visible="true" lat="44.58438491" lon="-72.13363647">
    <tag k="addr:city" v="Wheelock" />
    <tag k="addr:housenumber" v="1205" />
    <tag k="addr:street" v="Allard Hill Road" />
    <tag k="addr:state" v="VT" />
    <tag k="ref:vcgi:esiteid" v="285706" />
  </node>
  <node id="-183" visible="true" lat="44.58394406" lon="-72.09408649">
    <tag k="addr:city" v="Wheelock" />
    <tag k="addr:housenumber" v="517" />
    <tag k="addr:street" v="Vertical Mile Road" />
    <tag k="addr:state" v="VT" />
    <tag k="ref:vcgi:esiteid" v="285707" />
  </node>
  <node id="-184" visible="true" lat="44.5841484" lon="-72.15484619">
    <tag k="addr:city" v="Wheelock" />
    <tag k="addr:housenumber" v="792" />
    <tag k="addr:street" v="Welch Road" />
    <tag k="addr:state" v="VT" />
    <tag k="ref:vcgi:esiteid" v="285708" />
  </node>
  <node id="-185" visible="true" lat="44.58387698" lon="-72.20558237">
    <tag k="addr:city" v="Wheelock" />
    <tag k="addr:housenumber" v="1711" />
    <tag k="addr:street" v="Sparhawk Road" />
    <tag k="addr:state" v="VT" />
    <tag k="ref:vcgi:esiteid" v="285709" />
  </node>
  <node id="-186" visible="true" lat="44.58349303" lon="-72.07503208">
    <tag k="addr:city" v="Wheelock" />
    <tag k="addr:housenumber" v="698" />
    <tag k="addr:street" v="Vermont Route 122" />
    <tag k="addr:state" v="VT" />
    <tag k="ref:vcgi:esiteid" v="285710" />
  </node>
  <node id="-187" visible="true" lat="44.58329391" lon="-72.1307373">
    <tag k="addr:city" v="Wheelock" />
    <tag k="addr:housenumber" v="1361" />
    <tag k="addr:street" v="Allard Hill Road" />
    <tag k="addr:state" v="VT" />
    <tag k="ref:vcgi:esiteid" v="285711" />
  </node>
  <node id="-188" visible="true" lat="44.58262162" lon="-72.07445761">
    <tag k="addr:city" v="Wheelock" />
    <tag k="addr:housenumber" v="694" />
    <tag k="addr:street" v="Vermont Route 122" />
    <tag k="addr:state" v="VT" />
    <tag k="ref:vcgi:esiteid" v="285712" />
  </node>
  <node id="-189" visible="true" lat="44.58227494" lon="-72.07222725">
    <tag k="addr:city" v="Wheelock" />
    <tag k="addr:housenumber" v="470" />
    <tag k="addr:street" v="Vermont Route 122" />
    <tag k="addr:state" v="VT" />
    <tag k="ref:vcgi:esiteid" v="285713" />
  </node>
  <node id="-190" visible="true" lat="44.58190625" lon="-72.08783389">
    <tag k="addr:city" v="Wheelock" />
    <tag k="addr:housenumber" v="512" />
    <tag k="addr:street" v="Peak Road" />
    <tag k="addr:state" v="VT" />
    <tag k="ref:vcgi:esiteid" v="285714" />
  </node>
  <node id="-191" visible="true" lat="44.58189027" lon="-72.07279542">
    <tag k="addr:city" v="Wheelock" />
    <tag k="addr:housenumber" v="472" />
    <tag k="addr:street" v="Vermont Route 122" />
    <tag k="addr:state" v="VT" />
    <tag k="ref:vcgi:esiteid" v="285715" />
  </node>
  <node id="-192" visible="true" lat="44.58186721" lon="-72.13288116">
    <tag k="addr:city" v="Wheelock" />
    <tag k="addr:housenumber" v="1384" />
    <tag k="addr:street" v="Allard Hill Road" />
    <tag k="addr:state" v="VT" />
    <tag k="ref:vcgi:esiteid" v="285716" />
  </node>
  <node id="-193" visible="true" lat="44.58117345" lon="-72.07073973">
    <tag k="addr:city" v="Wheelock" />
    <tag k="addr:housenumber" v="374" />
    <tag k="addr:street" v="Vermont Route 122" />
    <tag k="addr:state" v="VT" />
    <tag k="ref:vcgi:esiteid" v="285717" />
  </node>
  <node id="-194" visible="true" lat="44.58125275" lon="-72.0879306">
    <tag k="addr:city" v="Wheelock" />
    <tag k="addr:housenumber" v="60" />
    <tag k="addr:street" v="Hudson Drive" />
    <tag k="addr:state" v="VT" />
    <tag k="ref:vcgi:esiteid" v="285718" />
  </node>
  <node id="-195" visible="true" lat="44.58094406" lon="-72.0965805">
    <tag k="addr:city" v="Wheelock" />
    <tag k="addr:housenumber" v="47" />
    <tag k="addr:street" v="Morgan Road East" />
    <tag k="addr:state" v="VT" />
    <tag k="ref:vcgi:esiteid" v="285719" />
  </node>
  <node id="-196" visible="true" lat="44.58083725" lon="-72.09954833">
    <tag k="addr:city" v="Wheelock" />
    <tag k="addr:housenumber" v="200" />
    <tag k="addr:street" v="Morgan Road East" />
    <tag k="addr:state" v="VT" />
    <tag k="ref:vcgi:esiteid" v="285720" />
  </node>
  <node id="-197" visible="true" lat="44.58078002" lon="-72.08609008">
    <tag k="addr:city" v="Wheelock" />
    <tag k="addr:housenumber" v="589" />
    <tag k="addr:street" v="Peak Road" />
    <tag k="addr:state" v="VT" />
    <tag k="ref:vcgi:esiteid" v="285721" />
  </node>
  <node id="-198" visible="true" lat="44.58086811" lon="-72.09029692">
    <tag k="addr:city" v="Wheelock" />
    <tag k="addr:housenumber" v="196" />
    <tag k="addr:street" v="Hudson Drive" />
    <tag k="addr:state" v="VT" />
    <tag k="ref:vcgi:esiteid" v="285722" />
  </node>
  <node id="-199" visible="true" lat="44.58063888" lon="-72.08844757">
    <tag k="addr:city" v="Wheelock" />
    <tag k="addr:housenumber" v="106" />
    <tag k="addr:street" v="Hudson Drive" />
    <tag k="addr:state" v="VT" />
    <tag k="ref:vcgi:esiteid" v="285723" />
  </node>
  <node id="-200" visible="true" lat="44.58039242" lon="-72.06860215">
    <tag k="addr:city" v="Wheelock" />
    <tag k="addr:housenumber" v="278" />
    <tag k="addr:street" v="Vermont Route 122" />
    <tag k="addr:state" v="VT" />
    <tag k="ref:vcgi:esiteid" v="285724" />
  </node>
  <node id="-201" visible="true" lat="44.58070839" lon="-72.2031479">
    <tag k="addr:city" v="Wheelock" />
    <tag k="addr:housenumber" v="1170" />
    <tag k="addr:street" v="West Wheelock Road" />
    <tag k="addr:state" v="VT" />
    <tag k="ref:vcgi:esiteid" v="285725" />
  </node>
  <node id="-202" visible="true" lat="44.58016828" lon="-72.06724275">
    <tag k="addr:city" v="Wheelock" />
    <tag k="addr:housenumber" v="226" />
    <tag k="addr:street" v="Vermont Route 122" />
    <tag k="addr:state" v="VT" />
    <tag k="ref:vcgi:esiteid" v="285726" />
  </node>
  <node id="-203" visible="true" lat="44.58015159" lon="-72.08672018">
    <tag k="addr:city" v="Wheelock" />
    <tag k="addr:housenumber" v="646" />
    <tag k="addr:street" v="Peak Road" />
    <tag k="addr:state" v="VT" />
    <tag k="ref:vcgi:esiteid" v="285727" />
  </node>
  <node id="-204" visible="true" lat="44.5796177" lon="-72.06575333">
    <tag k="addr:city" v="Wheelock" />
    <tag k="addr:housenumber" v="122" />
    <tag k="addr:street" v="Vermont Route 122" />
    <tag k="addr:state" v="VT" />
    <tag k="ref:vcgi:esiteid" v="285728" />
  </node>
  <node id="-205" visible="true" lat="44.57948303" lon="-72.10275268">
    <tag k="addr:city" v="Wheelock" />
    <tag k="addr:housenumber" v="303" />
    <tag k="addr:street" v="Morgan Road East" />
    <tag k="addr:state" v="VT" />
    <tag k="ref:vcgi:esiteid" v="285729" />
  </node>
  <node id="-206" visible="true" lat="44.5785942" lon="-72.11016082">
    <tag k="addr:city" v="Wheelock" />
    <tag k="addr:housenumber" v="739" />
    <tag k="addr:street" v="Morgan Road East" />
    <tag k="addr:state" v="VT" />
    <tag k="ref:vcgi:esiteid" v="285730" />
  </node>
  <node id="-207" visible="true" lat="44.57680029" lon="-72.19245572">
    <tag k="addr:city" v="Wheelock" />
    <tag k="addr:housenumber" v="653" />
    <tag k="addr:street" v="Piperville Road" />
    <tag k="addr:state" v="VT" />
    <tag k="ref:vcgi:esiteid" v="285731" />
  </node>
  <node id="-208" visible="true" lat="44.57706521" lon="-72.08746338">
    <tag k="addr:city" v="Wheelock" />
    <tag k="addr:housenumber" v="858" />
    <tag k="addr:street" v="Peak Road" />
    <tag k="addr:state" v="VT" />
    <tag k="ref:vcgi:esiteid" v="285732" />
  </node>
  <node id="-209" visible="true" lat="44.57779876" lon="-72.12370548">
    <tag k="addr:city" v="Wheelock" />
    <tag k="addr:housenumber" v="224" />
    <tag k="addr:street" v="Blodgett Road" />
    <tag k="addr:state" v="VT" />
    <tag k="ref:vcgi:esiteid" v="285733" />
  </node>
  <node id="-210" visible="true" lat="44.57672881" lon="-72.13391876">
    <tag k="addr:city" v="Wheelock" />
    <tag k="addr:housenumber" v="1750" />
    <tag k="addr:street" v="Allard Hill Road" />
    <tag k="addr:state" v="VT" />
    <tag k="ref:vcgi:esiteid" v="285734" />
  </node>
  <node id="-211" visible="true" lat="44.57622471" lon="-72.08686782">
    <tag k="addr:city" v="Wheelock" />
    <tag k="addr:housenumber" v="905" />
    <tag k="addr:street" v="Peak Road" />
    <tag k="addr:state" v="VT" />
    <tag k="ref:vcgi:esiteid" v="285735" />
  </node>
  <node id="-212" visible="true" lat="44.5761123" lon="-72.08743632">
    <tag k="addr:city" v="Wheelock" />
    <tag k="addr:housenumber" v="912" />
    <tag k="addr:street" v="Peak Road" />
    <tag k="addr:state" v="VT" />
    <tag k="ref:vcgi:esiteid" v="285736" />
  </node>
  <node id="-213" visible="true" lat="44.57582631" lon="-72.12269443">
    <tag k="addr:city" v="Wheelock" />
    <tag k="addr:housenumber" v="216" />
    <tag k="addr:street" v="Blodgett Road" />
    <tag k="addr:state" v="VT" />
    <tag k="ref:vcgi:esiteid" v="285738" />
  </node>
  <node id="-214" visible="true" lat="44.5758171" lon="-72.13488006">
    <tag k="addr:city" v="Wheelock" />
    <tag k="addr:housenumber" v="1832" />
    <tag k="addr:street" v="Allard Hill Road" />
    <tag k="addr:state" v="VT" />
    <tag k="ref:vcgi:esiteid" v="285739" />
  </node>
  <node id="-215" visible="true" lat="44.57514765" lon="-72.0877518">
    <tag k="addr:city" v="Wheelock" />
    <tag k="addr:housenumber" v="980" />
    <tag k="addr:street" v="Peak Road" />
    <tag k="addr:state" v="VT" />
    <tag k="ref:vcgi:esiteid" v="285740" />
  </node>
  <node id="-216" visible="true" lat="44.57486862" lon="-72.13304236">
    <tag k="addr:city" v="Wheelock" />
    <tag k="addr:housenumber" v="1736" />
    <tag k="addr:street" v="Ramsey Road" />
    <tag k="addr:state" v="VT" />
    <tag k="ref:vcgi:esiteid" v="285741" />
  </node>
  <node id="-217" visible="true" lat="44.57445907" lon="-72.08763122">
    <tag k="addr:city" v="Wheelock" />
    <tag k="addr:housenumber" v="1032" />
    <tag k="addr:street" v="Peak Road" />
    <tag k="addr:state" v="VT" />
    <tag k="ref:vcgi:esiteid" v="285742" />
  </node>
  <node id="-218" visible="true" lat="44.57393264" lon="-72.0874176">
    <tag k="addr:city" v="Wheelock" />
    <tag k="addr:housenumber" v="1068" />
    <tag k="addr:street" v="Peak Road" />
    <tag k="addr:state" v="VT" />
    <tag k="ref:vcgi:esiteid" v="285743" />
  </node>
  <node id="-219" visible="true" lat="44.57328807" lon="-72.08739163">
    <tag k="addr:city" v="Wheelock" />
    <tag k="addr:housenumber" v="1102" />
    <tag k="addr:street" v="Peak Road" />
    <tag k="addr:state" v="VT" />
    <tag k="ref:vcgi:esiteid" v="285744" />
  </node>
  <node id="-220" visible="true" lat="44.57330322" lon="-72.07250213">
    <tag k="addr:city" v="Wheelock" />
    <tag k="addr:housenumber" v="2915" />
    <tag k="addr:street" v="Fall Brook Road" />
    <tag k="addr:state" v="VT" />
    <tag k="ref:vcgi:esiteid" v="285745" />
  </node>
  <node id="-221" visible="true" lat="44.57359305" lon="-72.2197715">
    <tag k="addr:city" v="Wheelock" />
    <tag k="addr:housenumber" v="299" />
    <tag k="addr:street" v="Little Deer Drive" />
    <tag k="addr:state" v="VT" />
    <tag k="ref:vcgi:esiteid" v="285746" />
  </node>
  <node id="-222" visible="true" lat="44.57329559" lon="-72.12791442">
    <tag k="addr:city" v="Wheelock" />
    <tag k="addr:housenumber" v="1444" />
    <tag k="addr:street" v="Ramsey Road" />
    <tag k="addr:state" v="VT" />
    <tag k="ref:vcgi:esiteid" v="285747" />
  </node>
  <node id="-223" visible="true" lat="44.57301857" lon="-72.21658374">
    <tag k="addr:city" v="Wheelock" />
    <tag k="addr:housenumber" v="410" />
    <tag k="addr:street" v="Little Deer Drive" />
    <tag k="addr:state" v="VT" />
    <tag k="ref:vcgi:esiteid" v="285748" />
  </node>
  <node id="-224" visible="true" lat="44.57304063" lon="-72.22002753">
    <tag k="addr:city" v="Wheelock" />
    <tag k="addr:housenumber" v="295" />
    <tag k="addr:street" v="Little Deer Drive" />
    <tag k="addr:state" v="VT" />
    <tag k="ref:vcgi:esiteid" v="285749" />
  </node>
  <node id="-225" visible="true" lat="44.57160774" lon="-72.21813997">
    <tag k="addr:city" v="Wheelock" />
    <tag k="addr:housenumber" v="296" />
    <tag k="addr:street" v="Little Deer Drive" />
    <tag k="addr:state" v="VT" />
    <tag k="ref:vcgi:esiteid" v="285750" />
  </node>
  <node id="-226" visible="true" lat="44.57195547" lon="-72.06587885">
    <tag k="addr:city" v="Wheelock" />
    <tag k="addr:housenumber" v="2573" />
    <tag k="addr:street" v="Fall Brook Road" />
    <tag k="addr:state" v="VT" />
    <tag k="ref:vcgi:esiteid" v="285751" />
  </node>
  <node id="-227" visible="true" lat="44.57206344" lon="-72.08617401">
    <tag k="addr:city" v="Wheelock" />
    <tag k="addr:housenumber" v="1199" />
    <tag k="addr:street" v="Peak Road" />
    <tag k="addr:state" v="VT" />
    <tag k="ref:vcgi:esiteid" v="285752" />
  </node>
  <node id="-228" visible="true" lat="44.57215587" lon="-72.20759049">
    <tag k="addr:city" v="Wheelock" />
    <tag k="addr:housenumber" v="524" />
    <tag k="addr:street" v="West Wheelock Road" />
    <tag k="addr:state" v="VT" />
    <tag k="ref:vcgi:esiteid" v="285753" />
  </node>
  <node id="-229" visible="true" lat="44.57171578" lon="-72.20939318">
    <tag k="addr:city" v="Wheelock" />
    <tag k="addr:housenumber" v="433" />
    <tag k="addr:street" v="West Wheelock Road" />
    <tag k="addr:state" v="VT" />
    <tag k="ref:vcgi:esiteid" v="285754" />
  </node>
  <node id="-230" visible="true" lat="44.57088851" lon="-72.08671569">
    <tag k="addr:city" v="Wheelock" />
    <tag k="addr:housenumber" v="1271" />
    <tag k="addr:street" v="Peak Road" />
    <tag k="addr:state" v="VT" />
    <tag k="ref:vcgi:esiteid" v="285755" />
  </node>
  <node id="-231" visible="true" lat="44.57031249" lon="-72.10024261">
    <tag k="addr:city" v="Wheelock" />
    <tag k="addr:housenumber" v="1514" />
    <tag k="addr:street" v="Vertical Mile Road" />
    <tag k="addr:state" v="VT" />
    <tag k="ref:vcgi:esiteid" v="285756" />
  </node>
  <node id="-232" visible="true" lat="44.56927108" lon="-72.08538055">
    <tag k="addr:city" v="Wheelock" />
    <tag k="addr:housenumber" v="1371" />
    <tag k="addr:street" v="Peak Road" />
    <tag k="addr:state" v="VT" />
    <tag k="ref:vcgi:esiteid" v="285757" />
  </node>
  <node id="-233" visible="true" lat="44.56580676" lon="-72.1319019">
    <tag k="addr:city" v="Wheelock" />
    <tag k="addr:housenumber" v="1367" />
    <tag k="addr:street" v="Ramsey Road" />
    <tag k="addr:state" v="VT" />
    <tag k="ref:vcgi:esiteid" v="285758" />
  </node>
  <node id="-234" visible="true" lat="44.5677948" lon="-72.08772277">
    <tag k="addr:city" v="Wheelock" />
    <tag k="addr:housenumber" v="1480" />
    <tag k="addr:street" v="Peak Road" />
    <tag k="addr:state" v="VT" />
    <tag k="ref:vcgi:esiteid" v="285759" />
  </node>
  <node id="-235" visible="true" lat="44.56846535" lon="-72.10269048">
    <tag k="addr:city" v="Wheelock" />
    <tag k="addr:housenumber" v="1714" />
    <tag k="addr:street" v="Vertical Mile Road" />
    <tag k="addr:state" v="VT" />
    <tag k="ref:vcgi:esiteid" v="285760" />
  </node>
  <node id="-236" visible="true" lat="44.56653976" lon="-72.08836364">
    <tag k="addr:city" v="Wheelock" />
    <tag k="addr:housenumber" v="1588" />
    <tag k="addr:street" v="Peak Road" />
    <tag k="addr:state" v="VT" />
    <tag k="ref:vcgi:esiteid" v="285762" />
  </node>
  <node id="-237" visible="true" lat="44.56628953" lon="-72.1021648">
    <tag k="addr:city" v="Wheelock" />
    <tag k="addr:housenumber" v="1798" />
    <tag k="addr:street" v="Vertical Mile Road" />
    <tag k="addr:state" v="VT" />
    <tag k="ref:vcgi:esiteid" v="285763" />
  </node>
  <node id="-238" visible="true" lat="44.56497955" lon="-72.08812713">
    <tag k="addr:city" v="Wheelock" />
    <tag k="addr:housenumber" v="1710" />
    <tag k="addr:street" v="Peak Road" />
    <tag k="addr:state" v="VT" />
    <tag k="ref:vcgi:esiteid" v="285764" />
  </node>
  <node id="-239" visible="true" lat="44.56439528" lon="-72.14574284">
    <tag k="addr:city" v="Wheelock" />
    <tag k="addr:housenumber" v="2831" />
    <tag k="addr:street" v="Allard Hill Road" />
    <tag k="addr:state" v="VT" />
    <tag k="ref:vcgi:esiteid" v="285765" />
  </node>
  <node id="-240" visible="true" lat="44.56299591" lon="-72.08981323">
    <tag k="addr:city" v="Wheelock" />
    <tag k="addr:housenumber" v="1896" />
    <tag k="addr:street" v="Peak Road" />
    <tag k="addr:state" v="VT" />
    <tag k="ref:vcgi:esiteid" v="285766" />
  </node>
  <node id="-241" visible="true" lat="44.55894851" lon="-72.09454345">
    <tag k="addr:city" v="Wheelock" />
    <tag k="addr:housenumber" v="228" />
    <tag k="addr:street" v="John Rock Road" />
    <tag k="addr:state" v="VT" />
    <tag k="ref:vcgi:esiteid" v="285767" />
  </node>
  <node id="-242" visible="true" lat="44.55826568" lon="-72.09724426">
    <tag k="addr:city" v="Wheelock" />
    <tag k="addr:housenumber" v="333" />
    <tag k="addr:street" v="John Rock Road" />
    <tag k="addr:state" v="VT" />
    <tag k="ref:vcgi:esiteid" v="285768" />
  </node>
  <node id="-243" visible="true" lat="44.55816268" lon="-72.09602355">
    <tag k="addr:city" v="Wheelock" />
    <tag k="addr:housenumber" v="297" />
    <tag k="addr:street" v="John Rock Road" />
    <tag k="addr:state" v="VT" />
    <tag k="ref:vcgi:esiteid" v="285769" />
  </node>
  <node id="-244" visible="true" lat="44.55812454" lon="-72.09499359">
    <tag k="addr:city" v="Wheelock" />
    <tag k="addr:housenumber" v="229" />
    <tag k="addr:street" v="John Rock Road" />
    <tag k="addr:state" v="VT" />
    <tag k="ref:vcgi:esiteid" v="285770" />
  </node>
  <node id="-245" visible="true" lat="44.55711746" lon="-72.0936737">
    <tag k="addr:city" v="Wheelock" />
    <tag k="addr:housenumber" v="115" />
    <tag k="addr:street" v="John Rock Road" />
    <tag k="addr:state" v="VT" />
    <tag k="ref:vcgi:esiteid" v="285771" />
  </node>
  <node id="-246" visible="true" lat="44.55679691" lon="-72.11456011">
    <tag k="addr:city" v="Wheelock" />
    <tag k="addr:housenumber" v="499" />
    <tag k="addr:street" v="Red Schoolhouse Road" />
    <tag k="addr:state" v="VT" />
    <tag k="ref:vcgi:esiteid" v="285772" />
  </node>
  <node id="-247" visible="true" lat="44.55668258" lon="-72.0951538">
    <tag k="addr:city" v="Wheelock" />
    <tag k="addr:housenumber" v="231" />
    <tag k="addr:street" v="John Rock Road" />
    <tag k="addr:state" v="VT" />
    <tag k="ref:vcgi:esiteid" v="285773" />
  </node>
  <node id="-248" visible="true" lat="44.55660247" lon="-72.11427307">
    <tag k="addr:city" v="Wheelock" />
    <tag k="addr:housenumber" v="471" />
    <tag k="addr:street" v="Red Schoolhouse Road" />
    <tag k="addr:state" v="VT" />
    <tag k="ref:vcgi:esiteid" v="285774" />
  </node>
  <node id="-249" visible="true" lat="44.55651153" lon="-72.12897861">
    <tag k="addr:city" v="Wheelock" />
    <tag k="addr:housenumber" v="864" />
    <tag k="addr:street" v="Wolf Den Road" />
    <tag k="addr:state" v="VT" />
    <tag k="ref:vcgi:esiteid" v="285775" />
  </node>
  <node id="-250" visible="true" lat="44.55639266" lon="-72.11372375">
    <tag k="addr:city" v="Wheelock" />
    <tag k="addr:housenumber" v="439" />
    <tag k="addr:street" v="Red Schoolhouse Road" />
    <tag k="addr:state" v="VT" />
    <tag k="ref:vcgi:esiteid" v="285776" />
  </node>
  <node id="-251" visible="true" lat="44.55529403" lon="-72.09233093">
    <tag k="addr:city" v="Wheelock" />
    <tag k="addr:housenumber" v="2424" />
    <tag k="addr:street" v="Peak Road" />
    <tag k="addr:state" v="VT" />
    <tag k="ref:vcgi:esiteid" v="285777" />
  </node>
  <node id="-252" visible="true" lat="44.55515486" lon="-72.11153321">
    <tag k="addr:city" v="Wheelock" />
    <tag k="addr:housenumber" v="315" />
    <tag k="addr:street" v="Red Schoolhouse Road" />
    <tag k="addr:state" v="VT" />
    <tag k="ref:vcgi:esiteid" v="285778" />
  </node>
  <node id="-253" visible="true" lat="44.55512237" lon="-72.11837005">
    <tag k="addr:city" v="Wheelock" />
    <tag k="addr:housenumber" v="515" />
    <tag k="addr:street" v="Red Schoolhouse Road" />
    <tag k="addr:state" v="VT" />
    <tag k="ref:vcgi:esiteid" v="285779" />
  </node>
  <node id="-254" visible="true" lat="44.55456642" lon="-72.11078055">
    <tag k="addr:city" v="Wheelock" />
    <tag k="addr:housenumber" v="255" />
    <tag k="addr:street" v="Red Schoolhouse Road" />
    <tag k="addr:state" v="VT" />
    <tag k="ref:vcgi:esiteid" v="285780" />
  </node>
  <node id="-255" visible="true" lat="44.55402755" lon="-72.11053466">
    <tag k="addr:city" v="Wheelock" />
    <tag k="addr:housenumber" v="203" />
    <tag k="addr:street" v="Red Schoolhouse Road" />
    <tag k="addr:state" v="VT" />
    <tag k="ref:vcgi:esiteid" v="285781" />
  </node>
  <node id="-256" visible="true" lat="44.55361798" lon="-72.09154632">
    <tag k="addr:city" v="Wheelock" />
    <tag k="addr:housenumber" v="2486" />
    <tag k="addr:street" v="Peak Road" />
    <tag k="addr:state" v="VT" />
    <tag k="ref:vcgi:esiteid" v="285782" />
  </node>
  <node id="-257" visible="true" lat="44.55345153" lon="-72.11014556">
    <tag k="addr:city" v="Wheelock" />
    <tag k="addr:housenumber" v="141" />
    <tag k="addr:street" v="Red Schoolhouse Road" />
    <tag k="addr:state" v="VT" />
    <tag k="ref:vcgi:esiteid" v="285783" />
  </node>
  <node id="-258" visible="true" lat="44.55323852" lon="-72.09634633">
    <tag k="addr:city" v="Wheelock" />
    <tag k="addr:housenumber" v="79" />
    <tag k="addr:street" v="Ballfield Drive" />
    <tag k="addr:state" v="VT" />
    <tag k="ref:vcgi:esiteid" v="285784" />
  </node>
  <node id="-259" visible="true" lat="44.55319976" lon="-72.10998535">
    <tag k="addr:city" v="Wheelock" />
    <tag k="addr:housenumber" v="133" />
    <tag k="addr:street" v="Red Schoolhouse Road" />
    <tag k="addr:state" v="VT" />
    <tag k="ref:vcgi:esiteid" v="285785" />
  </node>
  <node id="-260" visible="true" lat="44.55279143" lon="-72.1071697">
    <tag k="addr:city" v="Wheelock" />
    <tag k="addr:housenumber" v="324" />
    <tag k="addr:street" v="Minister Hill Road" />
    <tag k="addr:state" v="VT" />
    <tag k="ref:vcgi:esiteid" v="285786" />
  </node>
  <node id="-261" visible="true" lat="44.5518074" lon="-72.10939025">
    <tag k="addr:city" v="Wheelock" />
    <tag k="addr:housenumber" v="36" />
    <tag k="addr:street" v="Red Schoolhouse Road" />
    <tag k="addr:state" v="VT" />
    <tag k="ref:vcgi:esiteid" v="285787" />
  </node>
  <node id="-262" visible="true" lat="44.55100286" lon="-72.08952274">
    <tag k="addr:city" v="Wheelock" />
    <tag k="addr:housenumber" v="2690" />
    <tag k="addr:street" v="Peak Road" />
    <tag k="addr:state" v="VT" />
    <tag k="ref:vcgi:esiteid" v="285788" />
  </node>
  <node id="-263" visible="true" lat="44.55079571" lon="-72.11024306">
    <tag k="addr:city" v="Wheelock" />
    <tag k="addr:housenumber" v="127" />
    <tag k="addr:street" v="Minister Hill Road" />
    <tag k="addr:state" v="VT" />
    <tag k="ref:vcgi:esiteid" v="285789" />
  </node>
  <node id="-264" visible="true" lat="44.54962019" lon="-72.10963971">
    <tag k="addr:city" v="Wheelock" />
    <tag k="addr:housenumber" v="52" />
    <tag k="addr:street" v="Minister Hill Road" />
    <tag k="addr:state" v="VT" />
    <tag k="ref:vcgi:esiteid" v="285791" />
  </node>
  <node id="-265" visible="true" lat="44.54945755" lon="-72.08712005">
    <tag k="addr:city" v="Wheelock" />
    <tag k="addr:housenumber" v="2819" />
    <tag k="addr:street" v="Peak Road" />
    <tag k="addr:state" v="VT" />
    <tag k="ref:vcgi:esiteid" v="285792" />
  </node>
  <node id="-266" visible="true" lat="44.54937323" lon="-72.09380108">
    <tag k="addr:city" v="Wheelock" />
    <tag k="addr:housenumber" v="85" />
    <tag k="addr:street" v="Ballfield Drive" />
    <tag k="addr:state" v="VT" />
    <tag k="ref:vcgi:esiteid" v="285793" />
  </node>
  <node id="-267" visible="true" lat="44.54886627" lon="-72.08752441">
    <tag k="addr:city" v="Wheelock" />
    <tag k="addr:housenumber" v="2867" />
    <tag k="addr:street" v="Peak Road" />
    <tag k="addr:state" v="VT" />
    <tag k="ref:vcgi:esiteid" v="285794" />
  </node>
  <node id="-268" visible="true" lat="44.54885752" lon="-72.09376134">
    <tag k="addr:city" v="Wheelock" />
    <tag k="addr:housenumber" v="50" />
    <tag k="addr:street" v="Ballfield Drive" />
    <tag k="addr:state" v="VT" />
    <tag k="ref:vcgi:esiteid" v="285795" />
  </node>
  <node id="-269" visible="true" lat="44.54854965" lon="-72.1103363">
    <tag k="addr:city" v="Wheelock" />
    <tag k="addr:housenumber" v="24" />
    <tag k="addr:street" v="Jills Hill Road" />
    <tag k="addr:state" v="VT" />
    <tag k="ref:vcgi:esiteid" v="285796" />
  </node>
  <node id="-270" visible="true" lat="44.54849957" lon="-72.12272199">
    <tag k="addr:city" v="Wheelock" />
    <tag k="addr:housenumber" v="6882" />
    <tag k="addr:street" v="South Wheelock Road" />
    <tag k="addr:state" v="VT" />
    <tag k="ref:vcgi:esiteid" v="285797" />
  </node>
  <node id="-271" visible="true" lat="44.54838384" lon="-72.09352835">
    <tag k="addr:city" v="Wheelock" />
    <tag k="addr:housenumber" v="6" />
    <tag k="addr:street" v="Ballfield Drive" />
    <tag k="addr:state" v="VT" />
    <tag k="ref:vcgi:esiteid" v="285798" />
  </node>
  <node id="-272" visible="true" lat="44.54824969" lon="-72.09242136">
    <tag k="addr:city" v="Wheelock" />
    <tag k="addr:housenumber" v="5196" />
    <tag k="addr:street" v="South Wheelock Road" />
    <tag k="addr:state" v="VT" />
    <tag k="ref:vcgi:esiteid" v="285799" />
  </node>
  <node id="-273" visible="true" lat="44.54733176" lon="-72.13666489">
    <tag k="addr:city" v="Wheelock" />
    <tag k="addr:housenumber" v="183" />
    <tag k="addr:street" v="Sherburne Road" />
    <tag k="addr:state" v="VT" />
    <tag k="ref:vcgi:esiteid" v="285800" />
  </node>
  <node id="-274" visible="true" lat="44.54989156" lon="-72.18920113">
    <tag k="addr:city" v="Wheelock" />
    <tag k="addr:housenumber" v="3094" />
    <tag k="addr:street" v="Stannard Mountain Road" />
    <tag k="addr:state" v="VT" />
    <tag k="ref:vcgi:esiteid" v="285801" />
  </node>
  <node id="-275" visible="true" lat="44.54643967" lon="-72.08780391">
    <tag k="addr:city" v="Wheelock" />
    <tag k="addr:housenumber" v="3043" />
    <tag k="addr:street" v="Peak Road" />
    <tag k="addr:state" v="VT" />
    <tag k="ref:vcgi:esiteid" v="285802" />
  </node>
  <node id="-276" visible="true" lat="44.54587679" lon="-72.13564421">
    <tag k="addr:city" v="Wheelock" />
    <tag k="addr:housenumber" v="70" />
    <tag k="addr:street" v="Stannard Mountain Road" />
    <tag k="addr:state" v="VT" />
    <tag k="ref:vcgi:esiteid" v="285803" />
  </node>
  <node id="-277" visible="true" lat="44.5459263" lon="-72.11991747">
    <tag k="addr:city" v="Wheelock" />
    <tag k="addr:housenumber" v="76" />
    <tag k="addr:street" v="Leroux Road" />
    <tag k="addr:state" v="VT" />
    <tag k="ref:vcgi:esiteid" v="285804" />
  </node>
  <node id="-278" visible="true" lat="44.54565811" lon="-72.13656616">
    <tag k="addr:city" v="Wheelock" />
    <tag k="addr:housenumber" v="122" />
    <tag k="addr:street" v="Stannard Mountain Road" />
    <tag k="addr:state" v="VT" />
    <tag k="ref:vcgi:esiteid" v="285806" />
  </node>
  <node id="-279" visible="true" lat="44.5453897" lon="-72.08868205">
    <tag k="addr:city" v="Wheelock" />
    <tag k="addr:housenumber" v="32" />
    <tag k="addr:street" v="Burroughs Road" />
    <tag k="addr:state" v="VT" />
    <tag k="ref:vcgi:esiteid" v="285807" />
  </node>
  <node id="-280" visible="true" lat="44.54511763" lon="-72.13406369">
    <tag k="addr:city" v="Wheelock" />
    <tag k="addr:housenumber" v="109" />
    <tag k="addr:street" v="Blakely Road" />
    <tag k="addr:state" v="VT" />
    <tag k="ref:vcgi:esiteid" v="285808" />
  </node>
  <node id="-281" visible="true" lat="44.54523036" lon="-72.14107356">
    <tag k="addr:city" v="Wheelock" />
    <tag k="addr:housenumber" v="386" />
    <tag k="addr:street" v="Stannard Mountain Road" />
    <tag k="addr:state" v="VT" />
    <tag k="ref:vcgi:esiteid" v="285809" />
  </node>
  <node id="-282" visible="true" lat="44.54513108" lon="-72.13873601">
    <tag k="addr:city" v="Wheelock" />
    <tag k="addr:housenumber" v="246" />
    <tag k="addr:street" v="Stannard Mountain Road" />
    <tag k="addr:state" v="VT" />
    <tag k="ref:vcgi:esiteid" v="285810" />
  </node>
  <node id="-283" visible="true" lat="44.54434204" lon="-72.13420104">
    <tag k="addr:city" v="Wheelock" />
    <tag k="addr:housenumber" v="154" />
    <tag k="addr:street" v="Blakely Road" />
    <tag k="addr:state" v="VT" />
    <tag k="ref:vcgi:esiteid" v="285811" />
  </node>
  <node id="-284" visible="true" lat="44.5440979" lon="-72.14150238">
    <tag k="addr:city" v="Wheelock" />
    <tag k="addr:housenumber" v="381" />
    <tag k="addr:street" v="Stannard Mountain Road" />
    <tag k="addr:state" v="VT" />
    <tag k="ref:vcgi:esiteid" v="285812" />
  </node>
  <node id="-285" visible="true" lat="44.54388831" lon="-72.1198953">
    <tag k="addr:city" v="Wheelock" />
    <tag k="addr:housenumber" v="188" />
    <tag k="addr:street" v="Leroux Road" />
    <tag k="addr:state" v="VT" />
    <tag k="ref:vcgi:esiteid" v="285813" />
  </node>
  <node id="-286" visible="true" lat="44.5436325" lon="-72.13327026">
    <tag k="addr:city" v="Wheelock" />
    <tag k="addr:housenumber" v="221" />
    <tag k="addr:street" v="Blakely Road" />
    <tag k="addr:state" v="VT" />
    <tag k="ref:vcgi:esiteid" v="285814" />
  </node>
  <node id="-287" visible="true" lat="44.54302048" lon="-72.1198228">
    <tag k="addr:city" v="Wheelock" />
    <tag k="addr:housenumber" v="280" />
    <tag k="addr:street" v="Leroux Road" />
    <tag k="addr:state" v="VT" />
    <tag k="ref:vcgi:esiteid" v="285815" />
  </node>
  <node id="-288" visible="true" lat="44.54263305" lon="-72.13294982">
    <tag k="addr:city" v="Wheelock" />
    <tag k="addr:housenumber" v="285" />
    <tag k="addr:street" v="Blakely Road" />
    <tag k="addr:state" v="VT" />
    <tag k="ref:vcgi:esiteid" v="285816" />
  </node>
  <node id="-289" visible="true" lat="44.54236127" lon="-72.1189779">
    <tag k="addr:city" v="Wheelock" />
    <tag k="addr:housenumber" v="313" />
    <tag k="addr:street" v="Leroux Road" />
    <tag k="addr:state" v="VT" />
    <tag k="ref:vcgi:esiteid" v="285817" />
  </node>
  <node id="-290" visible="true" lat="44.54242214" lon="-72.11081105">
    <tag k="addr:city" v="Wheelock" />
    <tag k="addr:housenumber" v="432" />
    <tag k="addr:street" v="Jills Hill Road" />
    <tag k="addr:state" v="VT" />
    <tag k="ref:vcgi:esiteid" v="285818" />
  </node>
  <node id="-291" visible="true" lat="44.5419468" lon="-72.12031575">
    <tag k="addr:city" v="Wheelock" />
    <tag k="addr:housenumber" v="332" />
    <tag k="addr:street" v="Leroux Road" />
    <tag k="addr:state" v="VT" />
    <tag k="ref:vcgi:esiteid" v="285819" />
  </node>
  <node id="-292" visible="true" lat="44.54197311" lon="-72.11914062">
    <tag k="addr:city" v="Wheelock" />
    <tag k="addr:housenumber" v="347" />
    <tag k="addr:street" v="Leroux Road" />
    <tag k="addr:state" v="VT" />
    <tag k="ref:vcgi:esiteid" v="285820" />
  </node>
  <node id="-293" visible="true" lat="44.54057615" lon="-72.10987673">
    <tag k="addr:city" v="Wheelock" />
    <tag k="addr:housenumber" v="638" />
    <tag k="addr:street" v="Jills Hill Road" />
    <tag k="addr:state" v="VT" />
    <tag k="ref:vcgi:esiteid" v="285821" />
  </node>
  <node id="-294" visible="true" lat="44.54009541" lon="-72.12103946">
    <tag k="addr:city" v="Wheelock" />
    <tag k="addr:housenumber" v="512" />
    <tag k="addr:street" v="Leroux Road" />
    <tag k="addr:state" v="VT" />
    <tag k="ref:vcgi:esiteid" v="285822" />
  </node>
  <node id="-295" visible="true" lat="44.5398526" lon="-72.14949936">
    <tag k="addr:city" v="Wheelock" />
    <tag k="addr:housenumber" v="903" />
    <tag k="addr:street" v="Stannard Mountain Road" />
    <tag k="addr:state" v="VT" />
    <tag k="ref:vcgi:esiteid" v="285823" />
  </node>
  <node id="-296" visible="true" lat="44.53982808" lon="-72.12175142">
    <tag k="addr:city" v="Wheelock" />
    <tag k="addr:housenumber" v="514" />
    <tag k="addr:street" v="Leroux Road" />
    <tag k="addr:state" v="VT" />
    <tag k="ref:vcgi:esiteid" v="285824" />
  </node>
  <node id="-297" visible="true" lat="44.53918125" lon="-72.15003893">
    <tag k="addr:city" v="Wheelock" />
    <tag k="addr:housenumber" v="855" />
    <tag k="addr:street" v="Stannard Mountain Road" />
    <tag k="addr:state" v="VT" />
    <tag k="ref:vcgi:esiteid" v="285825" />
  </node>
  <node id="-298" visible="true" lat="44.53891754" lon="-72.11997222">
    <tag k="addr:city" v="Wheelock" />
    <tag k="addr:housenumber" v="543" />
    <tag k="addr:street" v="Leroux Road" />
    <tag k="addr:state" v="VT" />
    <tag k="ref:vcgi:esiteid" v="285826" />
  </node>
  <node id="-299" visible="true" lat="44.53917803" lon="-72.15980771">
    <tag k="addr:city" v="Wheelock" />
    <tag k="addr:housenumber" v="1450" />
    <tag k="addr:street" v="Stannard Mountain Road" />
    <tag k="addr:state" v="VT" />
    <tag k="ref:vcgi:esiteid" v="285827" />
  </node>
  <node id="-300" visible="true" lat="44.53851318" lon="-72.13471221">
    <tag k="addr:city" v="Wheelock" />
    <tag k="addr:housenumber" v="572" />
    <tag k="addr:street" v="Blakely Road" />
    <tag k="addr:state" v="VT" />
    <tag k="ref:vcgi:esiteid" v="285828" />
  </node>
  <node id="-301" visible="true" lat="44.53810464" lon="-72.08964798">
    <tag k="addr:city" v="Wheelock" />
    <tag k="addr:housenumber" v="528" />
    <tag k="addr:street" v="Burroughs Road" />
    <tag k="addr:state" v="VT" />
    <tag k="ref:vcgi:esiteid" v="285829" />
  </node>
  <node id="-302" visible="true" lat="44.53888083" lon="-72.16376049">
    <tag k="addr:city" v="Wheelock" />
    <tag k="addr:housenumber" v="1654" />
    <tag k="addr:street" v="Stannard Mountain Road" />
    <tag k="addr:state" v="VT" />
    <tag k="ref:vcgi:esiteid" v="285830" />
  </node>
  <node id="-303" visible="true" lat="44.53775606" lon="-72.1210117">
    <tag k="addr:city" v="Wheelock" />
    <tag k="addr:housenumber" v="676" />
    <tag k="addr:street" v="Leroux Road" />
    <tag k="addr:state" v="VT" />
    <tag k="ref:vcgi:esiteid" v="285831" />
  </node>
  <node id="-304" visible="true" lat="44.53771395" lon="-72.16010208">
    <tag k="addr:city" v="Wheelock" />
    <tag k="addr:housenumber" v="1433" />
    <tag k="addr:street" v="Stannard Mountain Road" />
    <tag k="addr:state" v="VT" />
    <tag k="ref:vcgi:esiteid" v="285832" />
  </node>
  <node id="-305" visible="true" lat="44.53728866" lon="-72.13495635">
    <tag k="addr:city" v="Wheelock" />
    <tag k="addr:housenumber" v="592" />
    <tag k="addr:street" v="Blakely Road" />
    <tag k="addr:state" v="VT" />
    <tag k="ref:vcgi:esiteid" v="285833" />
  </node>
  <node id="-306" visible="true" lat="44.53721526" lon="-72.12535757">
    <tag k="addr:city" v="Wheelock" />
    <tag k="addr:housenumber" v="930" />
    <tag k="addr:street" v="Leroux Road" />
    <tag k="addr:state" v="VT" />
    <tag k="ref:vcgi:esiteid" v="285834" />
  </node>
  <node id="-307" visible="true" lat="44.53689179" lon="-72.08887829">
    <tag k="addr:city" v="Wheelock" />
    <tag k="addr:housenumber" v="587" />
    <tag k="addr:street" v="Burroughs Road" />
    <tag k="addr:state" v="VT" />
    <tag k="ref:vcgi:esiteid" v="285835" />
  </node>
  <node id="-308" visible="true" lat="44.53656875" lon="-72.12110977">
    <tag k="addr:city" v="Wheelock" />
    <tag k="addr:housenumber" v="695" />
    <tag k="addr:street" v="Leroux Road" />
    <tag k="addr:state" v="VT" />
    <tag k="ref:vcgi:esiteid" v="285836" />
  </node>
  <node id="-309" visible="true" lat="44.53609716" lon="-72.08947967">
    <tag k="addr:city" v="Wheelock" />
    <tag k="addr:housenumber" v="2620" />
    <tag k="addr:street" v="Cold Hill Road" />
    <tag k="addr:state" v="VT" />
    <tag k="ref:vcgi:esiteid" v="285837" />
  </node>
  <node id="-310" visible="true" lat="44.53575568" lon="-72.12772887">
    <tag k="addr:city" v="Wheelock" />
    <tag k="addr:housenumber" v="1033" />
    <tag k="addr:street" v="Leroux Road" />
    <tag k="addr:state" v="VT" />
    <tag k="ref:vcgi:esiteid" v="285838" />
  </node>
  <node id="-311" visible="true" lat="44.53494778" lon="-72.11085458">
    <tag k="addr:city" v="Wheelock" />
    <tag k="addr:housenumber" v="1014" />
    <tag k="addr:street" v="Jills Hill Road" />
    <tag k="addr:state" v="VT" />
    <tag k="ref:vcgi:esiteid" v="285839" />
  </node>
  <node id="-312" visible="true" lat="44.53463824" lon="-72.12309391">
    <tag k="addr:city" v="Wheelock" />
    <tag k="addr:housenumber" v="785" />
    <tag k="addr:street" v="Leroux Road" />
    <tag k="addr:state" v="VT" />
    <tag k="ref:vcgi:esiteid" v="285840" />
  </node>
  <node id="-313" visible="true" lat="44.5332658" lon="-72.11160779">
    <tag k="addr:city" v="Wheelock" />
    <tag k="addr:housenumber" v="1116" />
    <tag k="addr:street" v="Jills Hill Road" />
    <tag k="addr:state" v="VT" />
    <tag k="ref:vcgi:esiteid" v="285841" />
  </node>
  <node id="-314" visible="true" lat="44.53186035" lon="-72.08943176">
    <tag k="addr:city" v="Wheelock" />
    <tag k="addr:housenumber" v="921" />
    <tag k="addr:street" v="Burroughs Road" />
    <tag k="addr:state" v="VT" />
    <tag k="ref:vcgi:esiteid" v="285842" />
  </node>
  <node id="-315" visible="true" lat="44.53151982" lon="-72.11193583">
    <tag k="addr:city" v="Wheelock" />
    <tag k="addr:housenumber" v="1218" />
    <tag k="addr:street" v="Jills Hill Road" />
    <tag k="addr:state" v="VT" />
    <tag k="ref:vcgi:esiteid" v="285843" />
  </node>
  <node id="-316" visible="true" lat="44.53160095" lon="-72.09137725">
    <tag k="addr:city" v="Wheelock" />
    <tag k="addr:housenumber" v="981" />
    <tag k="addr:street" v="Burroughs Road" />
    <tag k="addr:state" v="VT" />
    <tag k="ref:vcgi:esiteid" v="285844" />
  </node>
  <node id="-317" visible="true" lat="44.53137969" lon="-72.13385772">
    <tag k="addr:city" v="Wheelock" />
    <tag k="addr:housenumber" v="1141" />
    <tag k="addr:street" v="Blakely Road" />
    <tag k="addr:state" v="VT" />
    <tag k="ref:vcgi:esiteid" v="285845" />
  </node>
  <node id="-318" visible="true" lat="44.53088482" lon="-72.11138428">
    <tag k="addr:city" v="Wheelock" />
    <tag k="addr:housenumber" v="1283" />
    <tag k="addr:street" v="Jills Hill Road" />
    <tag k="addr:state" v="VT" />
    <tag k="ref:vcgi:esiteid" v="285846" />
  </node>
  <node id="-319" visible="true" lat="44.53066251" lon="-72.11111505">
    <tag k="addr:city" v="Wheelock" />
    <tag k="addr:housenumber" v="1285" />
    <tag k="addr:street" v="Jills Hill Road" />
    <tag k="addr:state" v="VT" />
    <tag k="ref:vcgi:esiteid" v="285847" />
  </node>
  <node id="-320" visible="true" lat="44.53018951" lon="-72.0905075">
    <tag k="addr:city" v="Wheelock" />
    <tag k="addr:housenumber" v="1073" />
    <tag k="addr:street" v="Burroughs Road" />
    <tag k="addr:state" v="VT" />
    <tag k="ref:vcgi:esiteid" v="285848" />
  </node>
  <node id="-321" visible="true" lat="44.53023396" lon="-72.11312629">
    <tag k="addr:city" v="Wheelock" />
    <tag k="addr:housenumber" v="1308" />
    <tag k="addr:street" v="Jills Hill Road" />
    <tag k="addr:state" v="VT" />
    <tag k="ref:vcgi:esiteid" v="285849" />
  </node>
  <node id="-322" visible="true" lat="44.52950286" lon="-72.09131622">
    <tag k="addr:city" v="Wheelock" />
    <tag k="addr:housenumber" v="1155" />
    <tag k="addr:street" v="Burroughs Road" />
    <tag k="addr:state" v="VT" />
    <tag k="ref:vcgi:esiteid" v="285850" />
  </node>
  <node id="-323" visible="true" lat="44.52893066" lon="-72.09223175">
    <tag k="addr:city" v="Wheelock" />
    <tag k="addr:housenumber" v="1241" />
    <tag k="addr:street" v="Burroughs Road" />
    <tag k="addr:state" v="VT" />
    <tag k="ref:vcgi:esiteid" v="285851" />
  </node>
  <node id="-324" visible="true" lat="44.52810669" lon="-72.09644317">
    <tag k="addr:city" v="Wheelock" />
    <tag k="addr:housenumber" v="257" />
    <tag k="addr:street" v="Coral Drive" />
    <tag k="addr:state" v="VT" />
    <tag k="ref:vcgi:esiteid" v="285852" />
  </node>
  <node id="-325" visible="true" lat="44.52779388" lon="-72.09415435">
    <tag k="addr:city" v="Wheelock" />
    <tag k="addr:housenumber" v="1295" />
    <tag k="addr:street" v="Burroughs Road" />
    <tag k="addr:state" v="VT" />
    <tag k="ref:vcgi:esiteid" v="285853" />
  </node>
  <node id="-326" visible="true" lat="44.5237503" lon="-72.0928955">
    <tag k="addr:city" v="Wheelock" />
    <tag k="addr:housenumber" v="1589" />
    <tag k="addr:street" v="Burroughs Road" />
    <tag k="addr:state" v="VT" />
    <tag k="ref:vcgi:esiteid" v="285854" />
  </node>
  <node id="-327" visible="true" lat="44.52355303" lon="-72.13327798">
    <tag k="addr:city" v="Wheelock" />
    <tag k="addr:housenumber" v="5028" />
    <tag k="addr:street" v="McDowell Road" />
    <tag k="addr:state" v="VT" />
    <tag k="ref:vcgi:esiteid" v="285855" />
  </node>
  <node id="-328" visible="true" lat="44.52230243" lon="-72.13590685">
    <tag k="addr:city" v="Wheelock" />
    <tag k="addr:housenumber" v="126" />
    <tag k="addr:street" v="Horne Road" />
    <tag k="addr:state" v="VT" />
    <tag k="ref:vcgi:esiteid" v="285857" />
  </node>
  <node id="-329" visible="true" lat="44.51931086" lon="-72.11477214">
    <tag k="addr:city" v="Wheelock" />
    <tag k="addr:housenumber" v="4403" />
    <tag k="addr:street" v="Tampico Road" />
    <tag k="addr:state" v="VT" />
    <tag k="ref:vcgi:esiteid" v="285859" />
  </node>
  <node id="-330" visible="true" lat="44.51793289" lon="-72.12629699">
    <tag k="addr:city" v="Wheelock" />
    <tag k="addr:housenumber" v="4474" />
    <tag k="addr:street" v="McDowell Road" />
    <tag k="addr:state" v="VT" />
    <tag k="ref:vcgi:esiteid" v="285860" />
  </node>
  <node id="-331" visible="true" lat="44.60663605" lon="-72.15980753">
    <tag k="addr:city" v="Wheelock" />
    <tag k="addr:housenumber" v="198" />
    <tag k="addr:street" v="Gilman Field Road" />
    <tag k="addr:state" v="VT" />
    <tag k="ref:vcgi:esiteid" v="285862" />
  </node>
  <node id="-332" visible="true" lat="44.593015" lon="-72.11870646">
    <tag k="addr:city" v="Wheelock" />
    <tag k="addr:housenumber" v="552" />
    <tag k="addr:street" v="Chesley Hill Road" />
    <tag k="addr:state" v="VT" />
    <tag k="ref:vcgi:esiteid" v="285863" />
  </node>
  <node id="-333" visible="true" lat="44.57333943" lon="-72.21745085">
    <tag k="addr:city" v="Wheelock" />
    <tag k="addr:housenumber" v="385" />
    <tag k="addr:street" v="Little Deer Drive" />
    <tag k="addr:state" v="VT" />
    <tag k="ref:vcgi:esiteid" v="285864" />
  </node>
  <node id="-334" visible="true" lat="44.58473966" lon="-72.14514644">
    <tag k="addr:city" v="Wheelock" />
    <tag k="addr:housenumber" v="582" />
    <tag k="addr:street" v="Hubbard Hill Road" />
    <tag k="addr:state" v="VT" />
    <tag k="ref:vcgi:esiteid" v="285865" />
  </node>
  <node id="-335" visible="true" lat="44.58454373" lon="-72.14131151">
    <tag k="addr:city" v="Wheelock" />
    <tag k="addr:housenumber" v="399" />
    <tag k="addr:street" v="Hubbard Hill Road" />
    <tag k="addr:state" v="VT" />
    <tag k="ref:vcgi:esiteid" v="285866" />
  </node>
  <node id="-336" visible="true" lat="44.5827696" lon="-72.13356236">
    <tag k="addr:city" v="Wheelock" />
    <tag k="addr:housenumber" v="1280" />
    <tag k="addr:street" v="Allard Hill Road" />
    <tag k="addr:state" v="VT" />
    <tag k="ref:vcgi:esiteid" v="285867" />
  </node>
  <node id="-337" visible="true" lat="44.58232278" lon="-72.10439626">
    <tag k="addr:city" v="Wheelock" />
    <tag k="addr:housenumber" v="420" />
    <tag k="addr:street" v="Morgan Road East" />
    <tag k="addr:state" v="VT" />
    <tag k="ref:vcgi:esiteid" v="285868" />
  </node>
  <node id="-338" visible="true" lat="44.57226079" lon="-72.13020842">
    <tag k="addr:city" v="Wheelock" />
    <tag k="addr:housenumber" v="1453" />
    <tag k="addr:street" v="Ramsey Road" />
    <tag k="addr:state" v="VT" />
    <tag k="ref:vcgi:esiteid" v="285869" />
  </node>
  <node id="-339" visible="true" lat="44.57564466" lon="-72.12460117">
    <tag k="addr:city" v="Wheelock" />
    <tag k="addr:housenumber" v="228" />
    <tag k="addr:street" v="Blodgett Road" />
    <tag k="addr:state" v="VT" />
    <tag k="ref:vcgi:esiteid" v="285870" />
  </node>
  <node id="-340" visible="true" lat="44.57569921" lon="-72.12603579">
    <tag k="addr:city" v="Wheelock" />
    <tag k="addr:housenumber" v="226" />
    <tag k="addr:street" v="Blodgett Road" />
    <tag k="addr:state" v="VT" />
    <tag k="ref:vcgi:esiteid" v="285871" />
  </node>
  <node id="-341" visible="true" lat="44.57466338" lon="-72.12646171">
    <tag k="addr:city" v="Wheelock" />
    <tag k="addr:housenumber" v="230" />
    <tag k="addr:street" v="Blodgett Road" />
    <tag k="addr:state" v="VT" />
    <tag k="ref:vcgi:esiteid" v="285872" />
  </node>
  <node id="-342" visible="true" lat="44.57349993" lon="-72.12288792">
    <tag k="addr:city" v="Wheelock" />
    <tag k="addr:housenumber" v="1164" />
    <tag k="addr:street" v="Ramsey Road" />
    <tag k="addr:state" v="VT" />
    <tag k="ref:vcgi:esiteid" v="285873" />
  </node>
  <node id="-343" visible="true" lat="44.57173712" lon="-72.1145865">
    <tag k="addr:city" v="Wheelock" />
    <tag k="addr:housenumber" v="741" />
    <tag k="addr:street" v="Ramsey Road" />
    <tag k="addr:state" v="VT" />
    <tag k="ref:vcgi:esiteid" v="285874" />
  </node>
  <node id="-344" visible="true" lat="44.57050323" lon="-72.11211395">
    <tag k="addr:city" v="Wheelock" />
    <tag k="addr:housenumber" v="583" />
    <tag k="addr:street" v="Ramsey Road" />
    <tag k="addr:state" v="VT" />
    <tag k="ref:vcgi:esiteid" v="285875" />
  </node>
  <node id="-345" visible="true" lat="44.57024383" lon="-72.10218047">
    <tag k="addr:city" v="Wheelock" />
    <tag k="addr:housenumber" v="121" />
    <tag k="addr:street" v="Ramsey Road" />
    <tag k="addr:state" v="VT" />
    <tag k="ref:vcgi:esiteid" v="285876" />
  </node>
  <node id="-346" visible="true" lat="44.57750889" lon="-72.09848784">
    <tag k="addr:city" v="Wheelock" />
    <tag k="addr:housenumber" v="1040" />
    <tag k="addr:street" v="Vertical Mile Road" />
    <tag k="addr:state" v="VT" />
    <tag k="ref:vcgi:esiteid" v="285877" />
  </node>
  <node id="-347" visible="true" lat="44.56379189" lon="-72.09984558">
    <tag k="addr:city" v="Wheelock" />
    <tag k="addr:housenumber" v="1959" />
    <tag k="addr:street" v="Vertical Mile Road" />
    <tag k="addr:state" v="VT" />
    <tag k="ref:vcgi:esiteid" v="285879" />
  </node>
  <node id="-348" visible="true" lat="44.55135563" lon="-72.08817223">
    <tag k="addr:city" v="Wheelock" />
    <tag k="addr:housenumber" v="1496" />
    <tag k="addr:street" v="Bean Pond Road" />
    <tag k="addr:state" v="VT" />
    <tag k="ref:vcgi:esiteid" v="285880" />
  </node>
  <node id="-349" visible="true" lat="44.55205129" lon="-72.09044831">
    <tag k="addr:city" v="Wheelock" />
    <tag k="addr:housenumber" v="2606" />
    <tag k="addr:street" v="Peak Road" />
    <tag k="addr:state" v="VT" />
    <tag k="ref:vcgi:esiteid" v="285881" />
  </node>
  <node id="-350" visible="true" lat="44.54875606" lon="-72.08946475">
    <tag k="addr:city" v="Wheelock" />
    <tag k="addr:housenumber" v="2868" />
    <tag k="addr:street" v="Peak Road" />
    <tag k="addr:state" v="VT" />
    <tag k="ref:vcgi:esiteid" v="285882" />
  </node>
  <node id="-351" visible="true" lat="44.53933636" lon="-72.1185458">
    <tag k="addr:city" v="Wheelock" />
    <tag k="addr:housenumber" v="511" />
    <tag k="addr:street" v="Leroux Road" />
    <tag k="addr:state" v="VT" />
    <tag k="ref:vcgi:esiteid" v="285883" />
  </node>
  <node id="-352" visible="true" lat="44.58493042" lon="-72.08268737">
    <tag k="addr:city" v="Wheelock" />
    <tag k="addr:housenumber" v="3838" />
    <tag k="addr:street" v="Fall Brook Road" />
    <tag k="addr:state" v="VT" />
    <tag k="ref:vcgi:esiteid" v="285885" />
  </node>
  <node id="-353" visible="true" lat="44.5834921" lon="-72.0819371">
    <tag k="addr:city" v="Wheelock" />
    <tag k="addr:housenumber" v="3715" />
    <tag k="addr:street" v="Fall Brook Road" />
    <tag k="addr:state" v="VT" />
    <tag k="ref:vcgi:esiteid" v="285886" />
  </node>
  <node id="-354" visible="true" lat="44.59677678" lon="-72.06345608">
    <tag k="addr:city" v="Wheelock" />
    <tag k="addr:housenumber" v="1255" />
    <tag k="addr:street" v="Sutton Road" />
    <tag k="addr:state" v="VT" />
    <tag k="ref:vcgi:esiteid" v="285887" />
  </node>
  <node id="-355" visible="true" lat="44.55373196" lon="-72.09029612">
    <tag k="addr:city" v="Wheelock" />
    <tag k="addr:housenumber" v="2469" />
    <tag k="addr:street" v="Peak Road" />
    <tag k="addr:state" v="VT" />
    <tag k="ref:vcgi:esiteid" v="285888" />
  </node>
  <node id="-356" visible="true" lat="44.5326657" lon="-72.085519">
    <tag k="addr:city" v="Wheelock" />
    <tag k="addr:housenumber" v="2301" />
    <tag k="addr:street" v="Cold Hill Road" />
    <tag k="addr:state" v="VT" />
    <tag k="ref:vcgi:esiteid" v="285889" />
  </node>
  <node id="-357" visible="true" lat="44.54835659" lon="-72.10561048">
    <tag k="addr:city" v="Wheelock" />
    <tag k="addr:housenumber" v="5904" />
    <tag k="addr:street" v="South Wheelock Road" />
    <tag k="addr:state" v="VT" />
    <tag k="ref:vcgi:esiteid" v="285890" />
  </node>
  <node id="-358" visible="true" lat="44.54375743" lon="-72.1090125">
    <tag k="addr:city" v="Wheelock" />
    <tag k="addr:housenumber" v="374" />
    <tag k="addr:street" v="Jills Hill Road" />
    <tag k="addr:state" v="VT" />
    <tag k="ref:vcgi:esiteid" v="285891" />
  </node>
  <node id="-359" visible="true" lat="44.56908283" lon="-72.12857719">
    <tag k="addr:city" v="Wheelock" />
    <tag k="addr:housenumber" v="1363" />
    <tag k="addr:street" v="Ramsey Road" />
    <tag k="addr:state" v="VT" />
    <tag k="ref:vcgi:esiteid" v="285892" />
  </node>
  <node id="-360" visible="true" lat="44.56702408" lon="-72.21948193">
    <tag k="addr:city" v="Wheelock" />
    <tag k="addr:housenumber" v="1596" />
    <tag k="addr:street" v="Gonyaw Road" />
    <tag k="addr:state" v="VT" />
    <tag k="ref:vcgi:esiteid" v="285893" />
  </node>
  <node id="-361" visible="true" lat="44.54679473" lon="-72.1072333">
    <tag k="addr:city" v="Wheelock" />
    <tag k="addr:housenumber" v="115" />
    <tag k="addr:street" v="Jills Hill Road" />
    <tag k="addr:state" v="VT" />
    <tag k="ref:vcgi:esiteid" v="285894" />
  </node>
  <node id="-362" visible="true" lat="44.54498202" lon="-72.10948914">
    <tag k="addr:city" v="Wheelock" />
    <tag k="addr:housenumber" v="268" />
    <tag k="addr:street" v="Jills Hill Road" />
    <tag k="addr:state" v="VT" />
    <tag k="ref:vcgi:esiteid" v="285895" />
  </node>
  <node id="-363" visible="true" lat="44.54524078" lon="-72.10888356">
    <tag k="addr:city" v="Wheelock" />
    <tag k="addr:housenumber" v="245" />
    <tag k="addr:street" v="Jills Hill Road" />
    <tag k="addr:state" v="VT" />
    <tag k="ref:vcgi:esiteid" v="285896" />
  </node>
  <node id="-364" visible="true" lat="44.54635471" lon="-72.10910917">
    <tag k="addr:city" v="Wheelock" />
    <tag k="addr:housenumber" v="181" />
    <tag k="addr:street" v="Jills Hill Road" />
    <tag k="addr:state" v="VT" />
    <tag k="ref:vcgi:esiteid" v="285897" />
  </node>
  <node id="-365" visible="true" lat="44.54945167" lon="-72.10099989">
    <tag k="addr:city" v="Wheelock" />
    <tag k="addr:housenumber" v="5628" />
    <tag k="addr:street" v="South Wheelock Road" />
    <tag k="addr:state" v="VT" />
    <tag k="ref:vcgi:esiteid" v="285898" />
  </node>
  <node id="-366" visible="true" lat="44.53239111" lon="-72.08475902">
    <tag k="addr:city" v="Wheelock" />
    <tag k="addr:housenumber" v="2265" />
    <tag k="addr:street" v="Cold Hill Road" />
    <tag k="addr:state" v="VT" />
    <tag k="ref:vcgi:esiteid" v="285899" />
  </node>
  <node id="-367" visible="true" lat="44.57701439" lon="-72.10006431">
    <tag k="addr:city" v="Wheelock" />
    <tag k="addr:housenumber" v="1128" />
    <tag k="addr:street" v="Vertical Mile Road" />
    <tag k="addr:state" v="VT" />
    <tag k="ref:vcgi:esiteid" v="285900" />
  </node>
  <node id="-368" visible="true" lat="44.53803782" lon="-72.16399315">
    <tag k="addr:city" v="Wheelock" />
    <tag k="addr:housenumber" v="1631" />
    <tag k="addr:street" v="Stannard Mountain Road" />
    <tag k="addr:state" v="VT" />
    <tag k="ref:vcgi:esiteid" v="285901" />
  </node>
  <node id="-369" visible="true" lat="44.58948683" lon="-72.22287476">
    <tag k="addr:city" v="Wheelock" />
    <tag k="addr:housenumber" v="9" />
    <tag k="addr:street" v="Leblanc Road" />
    <tag k="addr:state" v="VT" />
    <tag k="ref:vcgi:esiteid" v="285902" />
  </node>
  <node id="-370" visible="true" lat="44.58792496" lon="-72.08492279">
    <tag k="addr:city" v="Wheelock" />
    <tag k="addr:housenumber" v="1261" />
    <tag k="addr:street" v="Vermont Route 122" />
    <tag k="addr:state" v="VT" />
    <tag k="ref:vcgi:esiteid" v="285903" />
  </node>
  <node id="-371" visible="true" lat="44.58769161" lon="-72.0845566">
    <tag k="addr:city" v="Wheelock" />
    <tag k="addr:housenumber" v="1241" />
    <tag k="addr:street" v="Vermont Route 122" />
    <tag k="addr:state" v="VT" />
    <tag k="ref:vcgi:esiteid" v="285904" />
  </node>
  <node id="-372" visible="true" lat="44.54661559" lon="-72.13200378">
    <tag k="addr:city" v="Wheelock" />
    <tag k="addr:housenumber" v="65" />
    <tag k="addr:street" v="Wolf Den Road" />
    <tag k="addr:state" v="VT" />
    <tag k="ref:vcgi:esiteid" v="285905" />
  </node>
  <node id="-373" visible="true" lat="44.61309772" lon="-72.20836353">
    <tag k="addr:city" v="Wheelock" />
    <tag k="addr:housenumber" v="5955" />
    <tag k="addr:street" v="Vermont Route 16" />
    <tag k="addr:state" v="VT" />
    <tag k="ref:vcgi:esiteid" v="285906" />
  </node>
  <node id="-374" visible="true" lat="44.60985946" lon="-72.2080841">
    <tag k="addr:city" v="Wheelock" />
    <tag k="addr:housenumber" v="5731" />
    <tag k="addr:street" v="Vermont Route 16" />
    <tag k="addr:state" v="VT" />
    <tag k="ref:vcgi:esiteid" v="285907" />
  </node>
  <node id="-375" visible="true" lat="44.60837173" lon="-72.20872497">
    <tag k="addr:city" v="Wheelock" />
    <tag k="addr:housenumber" v="5627" />
    <tag k="addr:street" v="Vermont Route 16" />
    <tag k="addr:state" v="VT" />
    <tag k="ref:vcgi:esiteid" v="285908" />
  </node>
  <node id="-376" visible="true" lat="44.60712865" lon="-72.20786152">
    <tag k="addr:city" v="Wheelock" />
    <tag k="addr:housenumber" v="5555" />
    <tag k="addr:street" v="Vermont Route 16" />
    <tag k="addr:state" v="VT" />
    <tag k="ref:vcgi:esiteid" v="285909" />
  </node>
  <node id="-377" visible="true" lat="44.60338211" lon="-72.21418762">
    <tag k="addr:city" v="Wheelock" />
    <tag k="addr:housenumber" v="5069" />
    <tag k="addr:street" v="Vermont Route 16" />
    <tag k="addr:state" v="VT" />
    <tag k="ref:vcgi:esiteid" v="285910" />
  </node>
  <node id="-378" visible="true" lat="44.60278078" lon="-72.21509893">
    <tag k="addr:city" v="Wheelock" />
    <tag k="addr:housenumber" v="5031" />
    <tag k="addr:street" v="Vermont Route 16" />
    <tag k="addr:state" v="VT" />
    <tag k="ref:vcgi:esiteid" v="285911" />
  </node>
  <node id="-379" visible="true" lat="44.59479141" lon="-72.07759094">
    <tag k="addr:city" v="Wheelock" />
    <tag k="addr:housenumber" v="454" />
    <tag k="addr:street" v="Aldrich Lane" />
    <tag k="addr:state" v="VT" />
    <tag k="ref:vcgi:esiteid" v="285912" />
  </node>
  <node id="-380" visible="true" lat="44.5946312" lon="-72.07284095">
    <tag k="addr:city" v="Wheelock" />
    <tag k="addr:housenumber" v="264" />
    <tag k="addr:street" v="Aldrich Lane" />
    <tag k="addr:state" v="VT" />
    <tag k="ref:vcgi:esiteid" v="285913" />
  </node>
  <node id="-381" visible="true" lat="44.59363937" lon="-72.0698471">
    <tag k="addr:city" v="Wheelock" />
    <tag k="addr:housenumber" v="12" />
    <tag k="addr:street" v="Aldrich Lane" />
    <tag k="addr:state" v="VT" />
    <tag k="ref:vcgi:esiteid" v="285914" />
  </node>
  <node id="-382" visible="true" lat="44.59366226" lon="-72.07644653">
    <tag k="addr:city" v="Wheelock" />
    <tag k="addr:housenumber" v="337" />
    <tag k="addr:street" v="Aldrich Lane" />
    <tag k="addr:state" v="VT" />
    <tag k="ref:vcgi:esiteid" v="285915" />
  </node>
  <node id="-383" visible="true" lat="44.59318898" lon="-72.07530221">
    <tag k="addr:city" v="Wheelock" />
    <tag k="addr:housenumber" v="303" />
    <tag k="addr:street" v="Aldrich Lane" />
    <tag k="addr:state" v="VT" />
    <tag k="ref:vcgi:esiteid" v="285916" />
  </node>
  <node id="-384" visible="true" lat="44.59201812" lon="-72.07269287">
    <tag k="addr:city" v="Wheelock" />
    <tag k="addr:housenumber" v="139" />
    <tag k="addr:street" v="Aldrich Lane" />
    <tag k="addr:state" v="VT" />
    <tag k="ref:vcgi:esiteid" v="285917" />
  </node>
  <node id="-385" visible="true" lat="44.59062492" lon="-72.22547359">
    <tag k="addr:city" v="Wheelock" />
    <tag k="addr:housenumber" v="502" />
    <tag k="addr:street" v="Sparhawk Road" />
    <tag k="addr:state" v="VT" />
    <tag k="ref:vcgi:esiteid" v="285918" />
  </node>
  <node id="-386" visible="true" lat="44.58881816" lon="-72.22053126">
    <tag k="addr:city" v="Wheelock" />
    <tag k="addr:housenumber" v="756" />
    <tag k="addr:street" v="Sparhawk Road" />
    <tag k="addr:state" v="VT" />
    <tag k="ref:vcgi:esiteid" v="285919" />
  </node>
  <node id="-387" visible="true" lat="44.58776219" lon="-72.08263702">
    <tag k="addr:city" v="Wheelock" />
    <tag k="addr:housenumber" v="1192" />
    <tag k="addr:street" v="Vermont Route 122" />
    <tag k="addr:state" v="VT" />
    <tag k="ref:vcgi:esiteid" v="285920" />
  </node>
  <node id="-388" visible="true" lat="44.58733518" lon="-72.06112121">
    <tag k="addr:city" v="Wheelock" />
    <tag k="addr:housenumber" v="2091" />
    <tag k="addr:street" v="Mathewson Hill Road" />
    <tag k="addr:state" v="VT" />
    <tag k="ref:vcgi:esiteid" v="285921" />
  </node>
  <node id="-389" visible="true" lat="44.58209991" lon="-72.13044738">
    <tag k="addr:city" v="Wheelock" />
    <tag k="addr:housenumber" v="1363" />
    <tag k="addr:street" v="Allard Hill Road" />
    <tag k="addr:state" v="VT" />
    <tag k="ref:vcgi:esiteid" v="285922" />
  </node>
  <node id="-390" visible="true" lat="44.56948852" lon="-72.08158874">
    <tag k="addr:city" v="Wheelock" />
    <tag k="addr:housenumber" v="1104" />
    <tag k="addr:street" v="Buchler Road" />
    <tag k="addr:state" v="VT" />
    <tag k="ref:vcgi:esiteid" v="285923" />
  </node>
  <node id="-391" visible="true" lat="44.56822967" lon="-72.08348846">
    <tag k="addr:city" v="Wheelock" />
    <tag k="addr:housenumber" v="1150" />
    <tag k="addr:street" v="Buchler Road" />
    <tag k="addr:state" v="VT" />
    <tag k="ref:vcgi:esiteid" v="285924" />
  </node>
  <node id="-392" visible="true" lat="44.56798934" lon="-72.07975769">
    <tag k="addr:city" v="Wheelock" />
    <tag k="addr:housenumber" v="956" />
    <tag k="addr:street" v="Buchler Road" />
    <tag k="addr:state" v="VT" />
    <tag k="ref:vcgi:esiteid" v="285925" />
  </node>
  <node id="-393" visible="true" lat="44.56699752" lon="-72.08338928">
    <tag k="addr:city" v="Wheelock" />
    <tag k="addr:housenumber" v="1185" />
    <tag k="addr:street" v="Buchler Road" />
    <tag k="addr:state" v="VT" />
    <tag k="ref:vcgi:esiteid" v="285926" />
  </node>
  <node id="-394" visible="true" lat="44.56645965" lon="-72.07768249">
    <tag k="addr:city" v="Wheelock" />
    <tag k="addr:housenumber" v="843" />
    <tag k="addr:street" v="Buchler Road" />
    <tag k="addr:state" v="VT" />
    <tag k="ref:vcgi:esiteid" v="285927" />
  </node>
  <node id="-395" visible="true" lat="44.56614303" lon="-72.07170867">
    <tag k="addr:city" v="Wheelock" />
    <tag k="addr:housenumber" v="550" />
    <tag k="addr:street" v="Buchler Road" />
    <tag k="addr:state" v="VT" />
    <tag k="ref:vcgi:esiteid" v="285928" />
  </node>
  <node id="-396" visible="true" lat="44.56604385" lon="-72.07932281">
    <tag k="addr:city" v="Wheelock" />
    <tag k="addr:housenumber" v="931" />
    <tag k="addr:street" v="Buchler Road" />
    <tag k="addr:state" v="VT" />
    <tag k="ref:vcgi:esiteid" v="285929" />
  </node>
  <node id="-397" visible="true" lat="44.56489562" lon="-72.07597351">
    <tag k="addr:city" v="Wheelock" />
    <tag k="addr:housenumber" v="731" />
    <tag k="addr:street" v="Buchler Road" />
    <tag k="addr:state" v="VT" />
    <tag k="ref:vcgi:esiteid" v="285930" />
  </node>
  <node id="-398" visible="true" lat="44.55409319" lon="-72.07964606">
    <tag k="addr:city" v="Wheelock" />
    <tag k="addr:housenumber" v="934" />
    <tag k="addr:street" v="Bean Pond Road" />
    <tag k="addr:state" v="VT" />
    <tag k="ref:vcgi:esiteid" v="285931" />
  </node>
  <node id="-399" visible="true" lat="44.55217426" lon="-72.07886005">
    <tag k="addr:city" v="Wheelock" />
    <tag k="addr:housenumber" v="978" />
    <tag k="addr:street" v="Bean Pond Road" />
    <tag k="addr:state" v="VT" />
    <tag k="ref:vcgi:esiteid" v="285932" />
  </node>
  <node id="-400" visible="true" lat="44.55107257" lon="-72.07875259">
    <tag k="addr:city" v="Wheelock" />
    <tag k="addr:housenumber" v="1011" />
    <tag k="addr:street" v="Bean Pond Road" />
    <tag k="addr:state" v="VT" />
    <tag k="ref:vcgi:esiteid" v="285933" />
  </node>
  <node id="-401" visible="true" lat="44.54984523" lon="-72.07454569">
    <tag k="addr:city" v="Wheelock" />
    <tag k="addr:housenumber" v="793" />
    <tag k="addr:street" v="Bean Pond Road" />
    <tag k="addr:state" v="VT" />
    <tag k="ref:vcgi:esiteid" v="285934" />
  </node>
  <node id="-402" visible="true" lat="44.54933306" lon="-72.1117109">
    <tag k="addr:city" v="Wheelock" />
    <tag k="addr:housenumber" v="6216" />
    <tag k="addr:street" v="South Wheelock Road" />
    <tag k="addr:state" v="VT" />
    <tag k="ref:vcgi:esiteid" v="285935" />
  </node>
  <node id="-403" visible="true" lat="44.54910112" lon="-72.09824538">
    <tag k="addr:city" v="Wheelock" />
    <tag k="addr:housenumber" v="5492" />
    <tag k="addr:street" v="South Wheelock Road" />
    <tag k="addr:state" v="VT" />
    <tag k="ref:vcgi:esiteid" v="285936" />
  </node>
  <node id="-404" visible="true" lat="44.54872432" lon="-72.09605636">
    <tag k="addr:city" v="Wheelock" />
    <tag k="addr:housenumber" v="5390" />
    <tag k="addr:street" v="South Wheelock Road" />
    <tag k="addr:state" v="VT" />
    <tag k="ref:vcgi:esiteid" v="285937" />
  </node>
  <node id="-405" visible="true" lat="44.54852294" lon="-72.10205078">
    <tag k="addr:city" v="Wheelock" />
    <tag k="addr:housenumber" v="5698" />
    <tag k="addr:street" v="South Wheelock Road" />
    <tag k="addr:state" v="VT" />
    <tag k="ref:vcgi:esiteid" v="285938" />
  </node>
  <node id="-406" visible="true" lat="44.54846954" lon="-72.09991455">
    <tag k="addr:city" v="Wheelock" />
    <tag k="addr:housenumber" v="5589" />
    <tag k="addr:street" v="South Wheelock Road" />
    <tag k="addr:state" v="VT" />
    <tag k="ref:vcgi:esiteid" v="285939" />
  </node>
  <node id="-407" visible="true" lat="44.54830169" lon="-72.10219574">
    <tag k="addr:city" v="Wheelock" />
    <tag k="addr:housenumber" v="5700" />
    <tag k="addr:street" v="South Wheelock Road" />
    <tag k="addr:state" v="VT" />
    <tag k="ref:vcgi:esiteid" v="285940" />
  </node>
  <node id="-408" visible="true" lat="44.54829738" lon="-72.11476782">
    <tag k="addr:city" v="Wheelock" />
    <tag k="addr:housenumber" v="6391" />
    <tag k="addr:street" v="South Wheelock Road" />
    <tag k="addr:state" v="VT" />
    <tag k="ref:vcgi:esiteid" v="285941" />
  </node>
  <node id="-409" visible="true" lat="44.54825973" lon="-72.11392974">
    <tag k="addr:city" v="Wheelock" />
    <tag k="addr:housenumber" v="6301" />
    <tag k="addr:street" v="South Wheelock Road" />
    <tag k="addr:state" v="VT" />
    <tag k="ref:vcgi:esiteid" v="285942" />
  </node>
  <node id="-410" visible="true" lat="44.54809951" lon="-72.10189056">
    <tag k="addr:city" v="Wheelock" />
    <tag k="addr:housenumber" v="5697" />
    <tag k="addr:street" v="South Wheelock Road" />
    <tag k="addr:state" v="VT" />
    <tag k="ref:vcgi:esiteid" v="285943" />
  </node>
  <node id="-411" visible="true" lat="44.54737194" lon="-72.10474541">
    <tag k="addr:city" v="Wheelock" />
    <tag k="addr:housenumber" v="5853" />
    <tag k="addr:street" v="South Wheelock Road" />
    <tag k="addr:state" v="VT" />
    <tag k="ref:vcgi:esiteid" v="285944" />
  </node>
  <node id="-412" visible="true" lat="44.54760151" lon="-72.09614269">
    <tag k="addr:city" v="Wheelock" />
    <tag k="addr:housenumber" v="5391" />
    <tag k="addr:street" v="South Wheelock Road" />
    <tag k="addr:state" v="VT" />
    <tag k="ref:vcgi:esiteid" v="285945" />
  </node>
  <node id="-413" visible="true" lat="44.54717122" lon="-72.10366794">
    <tag k="addr:city" v="Wheelock" />
    <tag k="addr:housenumber" v="5789" />
    <tag k="addr:street" v="South Wheelock Road" />
    <tag k="addr:state" v="VT" />
    <tag k="ref:vcgi:esiteid" v="285946" />
  </node>
  <node id="-414" visible="true" lat="44.54680329" lon="-72.08951139">
    <tag k="addr:city" v="Wheelock" />
    <tag k="addr:housenumber" v="5042" />
    <tag k="addr:street" v="South Wheelock Road" />
    <tag k="addr:state" v="VT" />
    <tag k="ref:vcgi:esiteid" v="285947" />
  </node>
  <node id="-415" visible="true" lat="44.54679489" lon="-72.12412262">
    <tag k="addr:city" v="Wheelock" />
    <tag k="addr:housenumber" v="6893" />
    <tag k="addr:street" v="South Wheelock Road" />
    <tag k="addr:state" v="VT" />
    <tag k="ref:vcgi:esiteid" v="285948" />
  </node>
  <node id="-416" visible="true" lat="44.54615482" lon="-72.08962044">
    <tag k="addr:city" v="Wheelock" />
    <tag k="addr:housenumber" v="5019" />
    <tag k="addr:street" v="South Wheelock Road" />
    <tag k="addr:state" v="VT" />
    <tag k="ref:vcgi:esiteid" v="285949" />
  </node>
  <node id="-417" visible="true" lat="44.54602324" lon="-72.08937527">
    <tag k="addr:city" v="Wheelock" />
    <tag k="addr:housenumber" v="5009" />
    <tag k="addr:street" v="South Wheelock Road" />
    <tag k="addr:state" v="VT" />
    <tag k="ref:vcgi:esiteid" v="285950" />
  </node>
  <node id="-418" visible="true" lat="44.54629647" lon="-72.13145592">
    <tag k="addr:city" v="Wheelock" />
    <tag k="addr:housenumber" v="58" />
    <tag k="addr:street" v="Wolf Den Road" />
    <tag k="addr:state" v="VT" />
    <tag k="ref:vcgi:esiteid" v="285951" />
  </node>
  <node id="-419" visible="true" lat="44.5460968" lon="-72.08846283">
    <tag k="addr:city" v="Wheelock" />
    <tag k="addr:housenumber" v="4972" />
    <tag k="addr:street" v="South Wheelock Road" />
    <tag k="addr:state" v="VT" />
    <tag k="ref:vcgi:esiteid" v="285952" />
  </node>
  <node id="-420" visible="true" lat="44.54588733" lon="-72.08902851">
    <tag k="addr:city" v="Wheelock" />
    <tag k="addr:housenumber" v="4993" />
    <tag k="addr:street" v="South Wheelock Road" />
    <tag k="addr:state" v="VT" />
    <tag k="ref:vcgi:esiteid" v="285953" />
  </node>
  <node id="-421" visible="true" lat="44.54591751" lon="-72.08795166">
    <tag k="addr:city" v="Wheelock" />
    <tag k="addr:housenumber" v="4944" />
    <tag k="addr:street" v="South Wheelock Road" />
    <tag k="addr:state" v="VT" />
    <tag k="ref:vcgi:esiteid" v="285954" />
  </node>
  <node id="-422" visible="true" lat="44.54569462" lon="-72.13100746">
    <tag k="addr:city" v="Wheelock" />
    <tag k="addr:housenumber" v="7258" />
    <tag k="addr:street" v="South Wheelock Road" />
    <tag k="addr:state" v="VT" />
    <tag k="ref:vcgi:esiteid" v="285955" />
  </node>
  <node id="-423" visible="true" lat="44.5455513" lon="-72.12884521">
    <tag k="addr:city" v="Wheelock" />
    <tag k="addr:housenumber" v="7142" />
    <tag k="addr:street" v="South Wheelock Road" />
    <tag k="addr:state" v="VT" />
    <tag k="ref:vcgi:esiteid" v="285956" />
  </node>
  <node id="-424" visible="true" lat="44.5452309" lon="-72.08739074">
    <tag k="addr:city" v="Wheelock" />
    <tag k="addr:housenumber" v="4905" />
    <tag k="addr:street" v="South Wheelock Road" />
    <tag k="addr:state" v="VT" />
    <tag k="ref:vcgi:esiteid" v="285957" />
  </node>
  <node id="-425" visible="true" lat="44.5454863" lon="-72.12994427">
    <tag k="addr:city" v="Wheelock" />
    <tag k="addr:housenumber" v="7206" />
    <tag k="addr:street" v="South Wheelock Road" />
    <tag k="addr:state" v="VT" />
    <tag k="ref:vcgi:esiteid" v="285958" />
  </node>
  <node id="-426" visible="true" lat="44.54546219" lon="-72.12935927">
    <tag k="addr:city" v="Wheelock" />
    <tag k="addr:housenumber" v="7166" />
    <tag k="addr:street" v="South Wheelock Road" />
    <tag k="addr:state" v="VT" />
    <tag k="ref:vcgi:esiteid" v="285959" />
  </node>
  <node id="-427" visible="true" lat="44.54524612" lon="-72.08621215">
    <tag k="addr:city" v="Wheelock" />
    <tag k="addr:housenumber" v="4848" />
    <tag k="addr:street" v="South Wheelock Road" />
    <tag k="addr:state" v="VT" />
    <tag k="ref:vcgi:esiteid" v="285960" />
  </node>
  <node id="-428" visible="true" lat="44.54526676" lon="-72.12850106">
    <tag k="addr:city" v="Wheelock" />
    <tag k="addr:housenumber" v="7123" />
    <tag k="addr:street" v="South Wheelock Road" />
    <tag k="addr:state" v="VT" />
    <tag k="ref:vcgi:esiteid" v="285961" />
  </node>
  <node id="-429" visible="true" lat="44.54462051" lon="-72.08415222">
    <tag k="addr:city" v="Wheelock" />
    <tag k="addr:housenumber" v="4716" />
    <tag k="addr:street" v="South Wheelock Road" />
    <tag k="addr:state" v="VT" />
    <tag k="ref:vcgi:esiteid" v="285962" />
  </node>
  <node id="-430" visible="true" lat="44.54430007" lon="-72.08564758">
    <tag k="addr:city" v="Wheelock" />
    <tag k="addr:housenumber" v="4781" />
    <tag k="addr:street" v="South Wheelock Road" />
    <tag k="addr:state" v="VT" />
    <tag k="ref:vcgi:esiteid" v="285963" />
  </node>
  <node id="-431" visible="true" lat="44.5411911" lon="-72.08036804">
    <tag k="addr:city" v="Wheelock" />
    <tag k="addr:housenumber" v="4380" />
    <tag k="addr:street" v="South Wheelock Road" />
    <tag k="addr:state" v="VT" />
    <tag k="ref:vcgi:esiteid" v="285964" />
  </node>
  <node id="-432" visible="true" lat="44.54051589" lon="-72.07749176">
    <tag k="addr:city" v="Wheelock" />
    <tag k="addr:housenumber" v="4258" />
    <tag k="addr:street" v="South Wheelock Road" />
    <tag k="addr:state" v="VT" />
    <tag k="ref:vcgi:esiteid" v="285965" />
  </node>
  <node id="-433" visible="true" lat="44.5407662" lon="-72.08344109">
    <tag k="addr:city" v="Wheelock" />
    <tag k="addr:housenumber" v="4511" />
    <tag k="addr:street" v="South Wheelock Road" />
    <tag k="addr:state" v="VT" />
    <tag k="ref:vcgi:esiteid" v="285966" />
  </node>
  <node id="-434" visible="true" lat="44.53963979" lon="-72.09392907">
    <tag k="addr:city" v="Wheelock" />
    <tag k="addr:housenumber" v="326" />
    <tag k="addr:street" v="Chandler Pond Road" />
    <tag k="addr:state" v="VT" />
    <tag k="ref:vcgi:esiteid" v="285967" />
  </node>
  <node id="-435" visible="true" lat="44.53917165" lon="-72.07658686">
    <tag k="addr:city" v="Wheelock" />
    <tag k="addr:housenumber" v="4228" />
    <tag k="addr:street" v="South Wheelock Road" />
    <tag k="addr:state" v="VT" />
    <tag k="ref:vcgi:esiteid" v="285968" />
  </node>
  <node id="-436" visible="true" lat="44.53552153" lon="-72.0884594">
    <tag k="addr:city" v="Wheelock" />
    <tag k="addr:housenumber" v="2558" />
    <tag k="addr:street" v="Cold Hill Road" />
    <tag k="addr:state" v="VT" />
    <tag k="ref:vcgi:esiteid" v="285969" />
  </node>
  <node id="-437" visible="true" lat="44.53492905" lon="-72.08757323">
    <tag k="addr:city" v="Wheelock" />
    <tag k="addr:housenumber" v="2522" />
    <tag k="addr:street" v="Cold Hill Road" />
    <tag k="addr:state" v="VT" />
    <tag k="ref:vcgi:esiteid" v="285970" />
  </node>
  <node id="-438" visible="true" lat="44.53419103" lon="-72.08645272">
    <tag k="addr:city" v="Wheelock" />
    <tag k="addr:housenumber" v="2420" />
    <tag k="addr:street" v="Cold Hill Road" />
    <tag k="addr:state" v="VT" />
    <tag k="ref:vcgi:esiteid" v="285971" />
  </node>
  <node id="-439" visible="true" lat="44.53333355" lon="-72.08534895">
    <tag k="addr:city" v="Wheelock" />
    <tag k="addr:housenumber" v="2348" />
    <tag k="addr:street" v="Cold Hill Road" />
    <tag k="addr:state" v="VT" />
    <tag k="ref:vcgi:esiteid" v="285972" />
  </node>
  <node id="-440" visible="true" lat="44.53124375" lon="-72.08209255">
    <tag k="addr:city" v="Wheelock" />
    <tag k="addr:housenumber" v="2124" />
    <tag k="addr:street" v="Cold Hill Road" />
    <tag k="addr:state" v="VT" />
    <tag k="ref:vcgi:esiteid" v="285973" />
  </node>
  <node id="-441" visible="true" lat="44.53052469" lon="-72.07889635">
    <tag k="addr:city" v="Wheelock" />
    <tag k="addr:housenumber" v="1946" />
    <tag k="addr:street" v="Cold Hill Road" />
    <tag k="addr:state" v="VT" />
    <tag k="ref:vcgi:esiteid" v="285974" />
  </node>
  <node id="-442" visible="true" lat="44.53036514" lon="-72.08245214">
    <tag k="addr:city" v="Wheelock" />
    <tag k="addr:housenumber" v="2149" />
    <tag k="addr:street" v="Cold Hill Road" />
    <tag k="addr:state" v="VT" />
    <tag k="ref:vcgi:esiteid" v="285975" />
  </node>
  <node id="-443" visible="true" lat="44.59297943" lon="-72.07216644">
    <tag k="addr:city" v="Wheelock" />
    <tag k="addr:housenumber" v="154" />
    <tag k="addr:street" v="Aldrich Lane" />
    <tag k="addr:state" v="VT" />
    <tag k="ref:vcgi:esiteid" v="285976" />
  </node>
  <node id="-444" visible="true" lat="44.53705584" lon="-72.11857659">
    <tag k="addr:city" v="Wheelock" />
    <tag k="addr:housenumber" v="649" />
    <tag k="addr:street" v="Leroux Road" />
    <tag k="addr:state" v="VT" />
    <tag k="ref:vcgi:esiteid" v="285977" />
  </node>
  <node id="-445" visible="true" lat="44.57401616" lon="-72.12098058">
    <tag k="addr:city" v="Wheelock" />
    <tag k="addr:housenumber" v="1098" />
    <tag k="addr:street" v="Ramsey Road" />
    <tag k="addr:state" v="VT" />
    <tag k="ref:vcgi:esiteid" v="285978" />
  </node>
  <node id="-446" visible="true" lat="44.52792458" lon="-72.13359722">
    <tag k="addr:city" v="Wheelock" />
    <tag k="addr:housenumber" v="1343" />
    <tag k="addr:street" v="Blakely Road" />
    <tag k="addr:state" v="VT" />
    <tag k="ref:vcgi:esiteid" v="285979" />
  </node>
  <node id="-447" visible="true" lat="44.54805561" lon="-72.13996658">
    <tag k="addr:city" v="Wheelock" />
    <tag k="addr:housenumber" v="329" />
    <tag k="addr:street" v="Sherburne Road" />
    <tag k="addr:state" v="VT" />
    <tag k="ref:vcgi:esiteid" v="285980" />
  </node>
  <node id="-448" visible="true" lat="44.58685112" lon="-72.08140921">
    <tag k="addr:city" v="Wheelock" />
    <tag k="addr:housenumber" v="1090" />
    <tag k="addr:street" v="Vermont Route 122" />
    <tag k="addr:state" v="VT" />
    <tag k="ref:vcgi:esiteid" v="285981" />
  </node>
  <node id="-449" visible="true" lat="44.58284212" lon="-72.07667239">
    <tag k="addr:city" v="Wheelock" />
    <tag k="addr:housenumber" v="699" />
    <tag k="addr:street" v="Vermont Route 122" />
    <tag k="addr:state" v="VT" />
    <tag k="ref:vcgi:esiteid" v="285982" />
  </node>
  <node id="-450" visible="true" lat="44.53451776" lon="-72.08726441">
    <tag k="addr:city" v="Wheelock" />
    <tag k="addr:housenumber" v="2440" />
    <tag k="addr:street" v="Cold Hill Road" />
    <tag k="addr:state" v="VT" />
    <tag k="ref:vcgi:esiteid" v="285983" />
  </node>
  <node id="-451" visible="true" lat="44.57479617" lon="-72.09895433">
    <tag k="addr:city" v="Wheelock" />
    <tag k="addr:housenumber" v="1180" />
    <tag k="addr:street" v="Vertical Mile Road" />
    <tag k="addr:state" v="VT" />
    <tag k="ref:vcgi:esiteid" v="285984" />
  </node>
  <node id="-452" visible="true" lat="44.54440367" lon="-72.08781249">
    <tag k="addr:city" v="Wheelock" />
    <tag k="addr:housenumber" v="25" />
    <tag k="addr:street" v="Leach Lane" />
    <tag k="addr:state" v="VT" />
    <tag k="ref:vcgi:esiteid" v="285985" />
  </node>
  <node id="-453" visible="true" lat="44.54384526" lon="-72.08636498">
    <tag k="addr:city" v="Wheelock" />
    <tag k="addr:housenumber" v="107" />
    <tag k="addr:street" v="Leach Lane" />
    <tag k="addr:state" v="VT" />
    <tag k="ref:vcgi:esiteid" v="285986" />
  </node>
  <node id="-454" visible="true" lat="44.55918321" lon="-72.11552222">
    <tag k="addr:city" v="Wheelock" />
    <tag k="addr:housenumber" v="681" />
    <tag k="addr:street" v="Red Schoolhouse Road" />
    <tag k="addr:state" v="VT" />
    <tag k="ref:vcgi:esiteid" v="285987" />
  </node>
  <node id="-455" visible="true" lat="44.54659518" lon="-72.11825648">
    <tag k="addr:city" v="Wheelock" />
    <tag k="addr:housenumber" v="6575" />
    <tag k="addr:street" v="South Wheelock Road" />
    <tag k="addr:state" v="VT" />
    <tag k="ref:vcgi:esiteid" v="285988" />
  </node>
  <node id="-456" visible="true" lat="44.54678876" lon="-72.13388919">
    <tag k="addr:city" v="Wheelock" />
    <tag k="addr:housenumber" v="42" />
    <tag k="addr:street" v="Sherburne Road" />
    <tag k="addr:state" v="VT" />
    <tag k="ref:vcgi:esiteid" v="285989" />
  </node>
  <node id="-457" visible="true" lat="44.5622377" lon="-72.19477232">
    <tag k="addr:city" v="Wheelock" />
    <tag k="addr:housenumber" v="2101" />
    <tag k="addr:street" v="Olney Road" />
    <tag k="addr:state" v="VT" />
    <tag k="ref:vcgi:esiteid" v="285990" />
  </node>
  <node id="-458" visible="true" lat="44.53891436" lon="-72.12260732">
    <tag k="addr:city" v="Wheelock" />
    <tag k="addr:housenumber" v="628" />
    <tag k="addr:street" v="Leroux Road" />
    <tag k="addr:state" v="VT" />
    <tag k="ref:vcgi:esiteid" v="285991" />
  </node>
  <node id="-459" visible="true" lat="44.59743486" lon="-72.07926371">
    <tag k="addr:city" v="Wheelock" />
    <tag k="addr:housenumber" v="660" />
    <tag k="addr:street" v="Aldrich Lane" />
    <tag k="addr:state" v="VT" />
    <tag k="ref:vcgi:esiteid" v="285992" />
  </node>
  <node id="-460" visible="true" lat="44.55654153" lon="-72.14135577">
    <tag k="addr:city" v="Wheelock" />
    <tag k="addr:housenumber" v="965" />
    <tag k="addr:street" v="Sherburne Road" />
    <tag k="addr:state" v="VT" />
    <tag k="ref:vcgi:esiteid" v="285993" />
  </node>
  <node id="-461" visible="true" lat="44.54045486" lon="-72.13296508">
    <tag k="addr:city" v="Wheelock" />
    <tag k="addr:housenumber" v="409" />
    <tag k="addr:street" v="Blakely Road" />
    <tag k="addr:state" v="VT" />
    <tag k="ref:vcgi:esiteid" v="285994" />
  </node>
  <node id="-462" visible="true" lat="44.54942259" lon="-72.11741197">
    <tag k="addr:city" v="Wheelock" />
    <tag k="addr:housenumber" v="6220" />
    <tag k="addr:street" v="South Wheelock Road" />
    <tag k="addr:state" v="VT" />
    <tag k="ref:vcgi:esiteid" v="285995" />
  </node>
  <node id="-463" visible="true" lat="44.53688049" lon="-72.12400055">
    <tag k="addr:city" v="Wheelock" />
    <tag k="addr:housenumber" v="837" />
    <tag k="addr:street" v="Leroux Road" />
    <tag k="addr:state" v="VT" />
    <tag k="ref:vcgi:esiteid" v="285996" />
  </node>
  <node id="-464" visible="true" lat="44.548281" lon="-72.13727438">
    <tag k="addr:city" v="Wheelock" />
    <tag k="addr:housenumber" v="268" />
    <tag k="addr:street" v="Sherburne Road" />
    <tag k="addr:state" v="VT" />
    <tag k="ref:vcgi:esiteid" v="285997" />
  </node>
  <node id="-465" visible="true" lat="44.59695134" lon="-72.06251749">
    <tag k="addr:city" v="Wheelock" />
    <tag k="addr:housenumber" v="1309" />
    <tag k="addr:street" v="Sutton Road" />
    <tag k="addr:state" v="VT" />
    <tag k="ref:vcgi:esiteid" v="285998" />
  </node>
  <node id="-466" visible="true" lat="44.56911603" lon="-72.14235108">
    <tag k="addr:city" v="Wheelock" />
    <tag k="addr:housenumber" v="2606" />
    <tag k="addr:street" v="Allard Hill Road" />
    <tag k="addr:state" v="VT" />
    <tag k="ref:vcgi:esiteid" v="285999" />
  </node>
  <node id="-467" visible="true" lat="44.55654518" lon="-72.10227937">
    <tag k="addr:city" v="Wheelock" />
    <tag k="addr:housenumber" v="726" />
    <tag k="addr:street" v="Minister Hill Road" />
    <tag k="addr:state" v="VT" />
    <tag k="ref:vcgi:esiteid" v="286000" />
  </node>
  <node id="-468" visible="true" lat="44.56743099" lon="-72.11282221">
    <tag k="addr:city" v="Wheelock" />
    <tag k="addr:housenumber" v="1223" />
    <tag k="addr:street" v="Red Schoolhouse Road" />
    <tag k="addr:state" v="VT" />
    <tag k="ref:vcgi:esiteid" v="286001" />
  </node>
  <node id="-469" visible="true" lat="44.54939768" lon="-72.07415153">
    <tag k="addr:city" v="Wheelock" />
    <tag k="addr:housenumber" v="789" />
    <tag k="addr:street" v="Bean Pond Road" />
    <tag k="addr:state" v="VT" />
    <tag k="ref:vcgi:esiteid" v="286002" />
  </node>
  <node id="-470" visible="true" lat="44.55767132" lon="-72.09167443">
    <tag k="addr:city" v="Wheelock" />
    <tag k="addr:housenumber" v="79" />
    <tag k="addr:street" v="John Rock Road" />
    <tag k="addr:state" v="VT" />
    <tag k="ref:vcgi:esiteid" v="286003" />
  </node>
  <node id="-471" visible="true" lat="44.54304098" lon="-72.10800084">
    <tag k="addr:city" v="Wheelock" />
    <tag k="addr:housenumber" v="403" />
    <tag k="addr:street" v="Jills Hill Road" />
    <tag k="addr:state" v="VT" />
    <tag k="ref:vcgi:esiteid" v="286004" />
  </node>
  <node id="-472" visible="true" lat="44.52655057" lon="-72.13345001">
    <tag k="addr:city" v="Wheelock" />
    <tag k="addr:housenumber" v="1485" />
    <tag k="addr:street" v="Blakely Road" />
    <tag k="addr:state" v="VT" />
    <tag k="ref:vcgi:esiteid" v="286005" />
  </node>
  <node id="-473" visible="true" lat="44.52515853" lon="-72.13624969">
    <tag k="addr:city" v="Wheelock" />
    <tag k="addr:housenumber" v="1620" />
    <tag k="addr:street" v="Blakely Road" />
    <tag k="addr:state" v="VT" />
    <tag k="ref:vcgi:esiteid" v="286006" />
  </node>
  <node id="-474" visible="true" lat="44.51519413" lon="-72.10929797">
    <tag k="addr:city" v="Wheelock" />
    <tag k="addr:housenumber" v="4121" />
    <tag k="addr:street" v="Tampico Road" />
    <tag k="addr:state" v="VT" />
    <tag k="ref:vcgi:esiteid" v="286007" />
  </node>
  <node id="-475" visible="true" lat="44.53521621" lon="-72.08811711">
    <tag k="addr:city" v="Wheelock" />
    <tag k="addr:housenumber" v="2524" />
    <tag k="addr:street" v="Cold Hill Road" />
    <tag k="addr:state" v="VT" />
    <tag k="ref:vcgi:esiteid" v="286008" />
  </node>
  <node id="-476" visible="true" lat="44.56688085" lon="-72.08176226">
    <tag k="addr:city" v="Wheelock" />
    <tag k="addr:housenumber" v="1079" />
    <tag k="addr:street" v="Buchler Road" />
    <tag k="addr:state" v="VT" />
    <tag k="ref:vcgi:esiteid" v="286010" />
  </node>
  <node id="-477" visible="true" lat="44.57806429" lon="-72.10772053">
    <tag k="addr:city" v="Wheelock" />
    <tag k="addr:housenumber" v="625" />
    <tag k="addr:street" v="Morgan Road East" />
    <tag k="addr:state" v="VT" />
    <tag k="ref:vcgi:esiteid" v="286011" />
  </node>
  <node id="-478" visible="true" lat="44.55643534" lon="-72.07411052">
    <tag k="addr:city" v="Wheelock" />
    <tag k="addr:housenumber" v="223" />
    <tag k="addr:street" v="Townsend Road" />
    <tag k="addr:state" v="VT" />
    <tag k="ref:vcgi:esiteid" v="286012" />
  </node>
  <node id="-479" visible="true" lat="44.5882462" lon="-72.08742011">
    <tag k="addr:city" v="Wheelock" />
    <tag k="addr:housenumber" v="1385" />
    <tag k="addr:street" v="Vermont Route 122" />
    <tag k="addr:state" v="VT" />
    <tag k="ref:vcgi:esiteid" v="286013" />
  </node>
  <node id="-480" visible="true" lat="44.5675743" lon="-72.21685505">
    <tag k="addr:city" v="Wheelock" />
    <tag k="addr:housenumber" v="1735" />
    <tag k="addr:street" v="Gonyaw Road" />
    <tag k="addr:state" v="VT" />
    <tag k="ref:vcgi:esiteid" v="286014" />
  </node>
  <node id="-481" visible="true" lat="44.5819275" lon="-72.09300441">
    <tag k="addr:city" v="Wheelock" />
    <tag k="addr:housenumber" v="615" />
    <tag k="addr:street" v="Vertical Mile Road" />
    <tag k="addr:state" v="VT" />
    <tag k="ref:vcgi:esiteid" v="286015" />
  </node>
  <node id="-482" visible="true" lat="44.55255832" lon="-72.07171458">
    <tag k="addr:city" v="Wheelock" />
    <tag k="addr:housenumber" v="84" />
    <tag k="addr:street" v="Townsend Road" />
    <tag k="addr:state" v="VT" />
    <tag k="ref:vcgi:esiteid" v="286016" />
  </node>
  <node id="-483" visible="true" lat="44.54764076" lon="-72.09100645">
    <tag k="addr:city" v="Wheelock" />
    <tag k="addr:housenumber" v="5170" />
    <tag k="addr:street" v="South Wheelock Road" />
    <tag k="addr:state" v="VT" />
    <tag k="ref:vcgi:esiteid" v="286017" />
  </node>
  <node id="-484" visible="true" lat="44.54461348" lon="-72.10867918">
    <tag k="addr:city" v="Wheelock" />
    <tag k="addr:housenumber" v="301" />
    <tag k="addr:street" v="Jills Hill Road" />
    <tag k="addr:state" v="VT" />
    <tag k="ref:vcgi:esiteid" v="286018" />
  </node>
  <node id="-485" visible="true" lat="44.55148436" lon="-72.08522962">
    <tag k="addr:city" v="Wheelock" />
    <tag k="addr:housenumber" v="1374" />
    <tag k="addr:street" v="Bean Pond Road" />
    <tag k="addr:state" v="VT" />
    <tag k="ref:vcgi:esiteid" v="286019" />
  </node>
  <node id="-486" visible="true" lat="44.58354373" lon="-72.11095634">
    <tag k="addr:city" v="Wheelock" />
    <tag k="addr:housenumber" v="1049" />
    <tag k="addr:street" v="Morgan Road East" />
    <tag k="addr:state" v="VT" />
    <tag k="ref:vcgi:esiteid" v="286020" />
  </node>
  <node id="-487" visible="true" lat="44.55510135" lon="-72.08582045">
    <tag k="addr:city" v="Wheelock" />
    <tag k="addr:housenumber" v="2335" />
    <tag k="addr:street" v="Peak Road" />
    <tag k="addr:state" v="VT" />
    <tag k="ref:vcgi:esiteid" v="286021" />
  </node>
  <node id="-488" visible="true" lat="44.58750071" lon="-72.09047787">
    <tag k="addr:city" v="Wheelock" />
    <tag k="addr:housenumber" v="79" />
    <tag k="addr:street" v="Vertical Mile Road" />
    <tag k="addr:state" v="VT" />
    <tag k="ref:vcgi:esiteid" v="286022" />
  </node>
  <node id="-489" visible="true" lat="44.55196654" lon="-72.07295531">
    <tag k="addr:city" v="Wheelock" />
    <tag k="addr:housenumber" v="696" />
    <tag k="addr:street" v="Bean Pond Road" />
    <tag k="addr:state" v="VT" />
    <tag k="ref:vcgi:esiteid" v="286023" />
  </node>
  <node id="-490" visible="true" lat="44.54054168" lon="-72.1196146">
    <tag k="addr:city" v="Wheelock" />
    <tag k="addr:housenumber" v="457" />
    <tag k="addr:street" v="Leroux Road" />
    <tag k="addr:state" v="VT" />
    <tag k="ref:vcgi:esiteid" v="286024" />
  </node>
  <node id="-491" visible="true" lat="44.54642688" lon="-72.14782902">
    <tag k="addr:city" v="Wheelock" />
    <tag k="addr:housenumber" v="398" />
    <tag k="addr:street" v="Ide Mountain Drive" />
    <tag k="addr:state" v="VT" />
    <tag k="ref:vcgi:esiteid" v="286025" />
  </node>
  <node id="-492" visible="true" lat="44.55433102" lon="-72.07535728">
    <tag k="addr:city" v="Wheelock" />
    <tag k="addr:housenumber" v="760" />
    <tag k="addr:street" v="Bean Pond Road" />
    <tag k="addr:state" v="VT" />
    <tag k="ref:vcgi:esiteid" v="286026" />
  </node>
  <node id="-493" visible="true" lat="44.59330941" lon="-72.06612893">
    <tag k="addr:city" v="Wheelock" />
    <tag k="addr:housenumber" v="1004" />
    <tag k="addr:street" v="Sutton Road" />
    <tag k="addr:state" v="VT" />
    <tag k="ref:vcgi:esiteid" v="286027" />
  </node>
  <node id="-494" visible="true" lat="44.58424307" lon="-72.09687672">
    <tag k="addr:city" v="Wheelock" />
    <tag k="addr:housenumber" v="522" />
    <tag k="addr:street" v="Vertical Mile Road" />
    <tag k="addr:state" v="VT" />
    <tag k="ref:vcgi:esiteid" v="286028" />
  </node>
  <node id="-495" visible="true" lat="44.58894718" lon="-72.11895741">
    <tag k="addr:city" v="Wheelock" />
    <tag k="addr:housenumber" v="1018" />
    <tag k="addr:street" v="Chesley Hill Road" />
    <tag k="addr:state" v="VT" />
    <tag k="ref:vcgi:esiteid" v="286029" />
  </node>
  <node id="-496" visible="true" lat="44.57290675" lon="-72.08263209">
    <tag k="addr:city" v="Wheelock" />
    <tag k="addr:housenumber" v="1137" />
    <tag k="addr:street" v="Peak Road" />
    <tag k="addr:state" v="VT" />
    <tag k="ref:vcgi:esiteid" v="286030" />
  </node>
  <node id="-497" visible="true" lat="44.55859002" lon="-72.11586847">
    <tag k="addr:city" v="Wheelock" />
    <tag k="addr:housenumber" v="579" />
    <tag k="addr:street" v="Red Schoolhouse Road" />
    <tag k="addr:state" v="VT" />
    <tag k="ref:vcgi:esiteid" v="286031" />
  </node>
  <node id="-498" visible="true" lat="44.57676552" lon="-72.08634008">
    <tag k="addr:city" v="Wheelock" />
    <tag k="addr:housenumber" v="857" />
    <tag k="addr:street" v="Peak Road" />
    <tag k="addr:state" v="VT" />
    <tag k="ref:vcgi:esiteid" v="286032" />
  </node>
  <node id="-499" visible="true" lat="44.5675167" lon="-72.22005126">
    <tag k="addr:city" v="Wheelock" />
    <tag k="addr:housenumber" v="1555" />
    <tag k="addr:street" v="Gonyaw Road" />
    <tag k="addr:state" v="VT" />
    <tag k="ref:vcgi:esiteid" v="286033" />
  </node>
  <node id="-500" visible="true" lat="44.54954851" lon="-72.08861129">
    <tag k="addr:city" v="Wheelock" />
    <tag k="addr:housenumber" v="2854" />
    <tag k="addr:street" v="Peak Road" />
    <tag k="addr:state" v="VT" />
    <tag k="ref:vcgi:esiteid" v="286034" />
  </node>
  <node id="-501" visible="true" lat="44.53454658" lon="-72.08988229">
    <tag k="addr:city" v="Wheelock" />
    <tag k="addr:housenumber" v="785" />
    <tag k="addr:street" v="Burroughs Road" />
    <tag k="addr:state" v="VT" />
    <tag k="ref:vcgi:esiteid" v="286035" />
  </node>
  <node id="-502" visible="true" lat="44.54366008" lon="-72.14333429">
    <tag k="addr:city" v="Wheelock" />
    <tag k="addr:housenumber" v="477" />
    <tag k="addr:street" v="Stannard Mountain Road" />
    <tag k="addr:state" v="VT" />
    <tag k="ref:vcgi:esiteid" v="286036" />
  </node>
  <node id="-503" visible="true" lat="44.56297978" lon="-72.21470675">
    <tag k="addr:city" v="Wheelock" />
    <tag k="addr:housenumber" v="35" />
    <tag k="addr:street" v="Flagg Pond Road" />
    <tag k="addr:state" v="VT" />
    <tag k="ref:vcgi:esiteid" v="286037" />
  </node>
  <node id="-504" visible="true" lat="44.56825223" lon="-72.22438299">
    <tag k="addr:city" v="Wheelock" />
    <tag k="addr:housenumber" v="1385" />
    <tag k="addr:street" v="Gonyaw Road" />
    <tag k="addr:state" v="VT" />
    <tag k="ref:vcgi:esiteid" v="286038" />
  </node>
  <node id="-505" visible="true" lat="44.56251868" lon="-72.21296776">
    <tag k="addr:city" v="Wheelock" />
    <tag k="addr:housenumber" v="77" />
    <tag k="addr:street" v="Flagg Pond Road" />
    <tag k="addr:state" v="VT" />
    <tag k="ref:vcgi:esiteid" v="286039" />
  </node>
  <node id="-506" visible="true" lat="44.54833187" lon="-72.15679119">
    <tag k="addr:city" v="Wheelock" />
    <tag k="addr:housenumber" v="823" />
    <tag k="addr:street" v="Ide Mountain Drive" />
    <tag k="addr:state" v="VT" />
    <tag k="ref:vcgi:esiteid" v="286040" />
  </node>
  <node id="-507" visible="true" lat="44.53089513" lon="-72.08037539">
    <tag k="addr:city" v="Wheelock" />
    <tag k="addr:housenumber" v="2002" />
    <tag k="addr:street" v="Cold Hill Road" />
    <tag k="addr:state" v="VT" />
    <tag k="ref:vcgi:esiteid" v="286041" />
  </node>
  <node id="-508" visible="true" lat="44.54546598" lon="-72.08812972">
    <tag k="addr:city" v="Wheelock" />
    <tag k="addr:housenumber" v="4945" />
    <tag k="addr:street" v="South Wheelock Road" />
    <tag k="addr:state" v="VT" />
    <tag k="ref:vcgi:esiteid" v="286042" />
  </node>
  <node id="-509" visible="true" lat="44.5954285" lon="-72.07390425">
    <tag k="addr:city" v="Wheelock" />
    <tag k="addr:housenumber" v="268" />
    <tag k="addr:street" v="Aldrich Lane" />
    <tag k="addr:state" v="VT" />
    <tag k="ref:vcgi:esiteid" v="286043" />
  </node>
  <node id="-510" visible="true" lat="44.59273482" lon="-72.07388266">
    <tag k="addr:city" v="Wheelock" />
    <tag k="addr:housenumber" v="223" />
    <tag k="addr:street" v="Aldrich Lane" />
    <tag k="addr:state" v="VT" />
    <tag k="ref:vcgi:esiteid" v="286044" />
  </node>
  <node id="-511" visible="true" lat="44.54710303" lon="-72.13554649">
    <tag k="addr:city" v="Wheelock" />
    <tag k="addr:housenumber" v="128" />
    <tag k="addr:street" v="Sherburne Road" />
    <tag k="addr:state" v="VT" />
    <tag k="ref:vcgi:esiteid" v="286045" />
  </node>
  <node id="-512" visible="true" lat="44.55345496" lon="-72.10906886">
    <tag k="addr:city" v="Wheelock" />
    <tag k="addr:housenumber" v="204" />
    <tag k="addr:street" v="Red Schoolhouse Road" />
    <tag k="addr:state" v="VT" />
    <tag k="ref:vcgi:esiteid" v="286046" />
  </node>
  <node id="-513" visible="true" lat="44.5887605" lon="-72.12072142">
    <tag k="addr:city" v="Wheelock" />
    <tag k="addr:housenumber" v="1256" />
    <tag k="addr:street" v="Chesley Hill Road" />
    <tag k="addr:state" v="VT" />
    <tag k="ref:vcgi:esiteid" v="286047" />
  </node>
  <node id="-514" visible="true" lat="44.55475114" lon="-72.08948577">
    <tag k="addr:city" v="Wheelock" />
    <tag k="addr:housenumber" v="2425" />
    <tag k="addr:street" v="Peak Road" />
    <tag k="addr:state" v="VT" />
    <tag k="ref:vcgi:esiteid" v="286049" />
  </node>
  <node id="-515" visible="true" lat="44.5731594" lon="-72.06652599">
    <tag k="addr:city" v="Wheelock" />
    <tag k="addr:housenumber" v="2628" />
    <tag k="addr:street" v="Fall Brook Road" />
    <tag k="addr:state" v="VT" />
    <tag k="ref:vcgi:esiteid" v="286050" />
  </node>
  <node id="-516" visible="true" lat="44.53321591" lon="-72.08772539">
    <tag k="addr:city" v="Wheelock" />
    <tag k="addr:housenumber" v="2487" />
    <tag k="addr:street" v="Cold Hill Road" />
    <tag k="addr:state" v="VT" />
    <tag k="ref:vcgi:esiteid" v="286051" />
  </node>
  <node id="-517" visible="true" lat="44.54025671" lon="-72.15516068">
    <tag k="addr:city" v="Wheelock" />
    <tag k="addr:housenumber" v="1134" />
    <tag k="addr:street" v="Stannard Mountain Road" />
    <tag k="addr:state" v="VT" />
    <tag k="ref:vcgi:esiteid" v="286052" />
  </node>
  <node id="-518" visible="true" lat="44.53061777" lon="-72.12746656">
    <tag k="addr:city" v="Wheelock" />
    <tag k="addr:housenumber" v="969" />
    <tag k="addr:street" v="Leroux Road" />
    <tag k="addr:state" v="VT" />
    <tag k="ref:vcgi:esiteid" v="286053" />
  </node>
  <node id="-519" visible="true" lat="44.54584567" lon="-72.14832905">
    <tag k="addr:city" v="Wheelock" />
    <tag k="addr:housenumber" v="366" />
    <tag k="addr:street" v="Ide Mountain Drive" />
    <tag k="addr:state" v="VT" />
    <tag k="ref:vcgi:esiteid" v="286054" />
  </node>
  <node id="-520" visible="true" lat="44.52436972" lon="-72.12799258">
    <tag k="addr:city" v="Wheelock" />
    <tag k="addr:housenumber" v="4400" />
    <tag k="addr:street" v="McDowell Road Extension" />
    <tag k="addr:state" v="VT" />
    <tag k="ref:vcgi:esiteid" v="286055" />
  </node>
  <node id="-521" visible="true" lat="44.52362881" lon="-72.12699893">
    <tag k="addr:city" v="Wheelock" />
    <tag k="addr:housenumber" v="4310" />
    <tag k="addr:street" v="McDowell Road Extension" />
    <tag k="addr:state" v="VT" />
    <tag k="ref:vcgi:esiteid" v="286056" />
  </node>
  <node id="-522" visible="true" lat="44.59658085" lon="-72.07924952">
    <tag k="addr:city" v="Wheelock" />
    <tag k="addr:housenumber" v="600" />
    <tag k="addr:street" v="Aldrich Lane" />
    <tag k="addr:state" v="VT" />
    <tag k="ref:vcgi:esiteid" v="286057" />
  </node>
  <node id="-523" visible="true" lat="44.59431777" lon="-72.06679266">
    <tag k="addr:city" v="Wheelock" />
    <tag k="addr:housenumber" v="1005" />
    <tag k="addr:street" v="Sutton Road" />
    <tag k="addr:state" v="VT" />
    <tag k="ref:vcgi:esiteid" v="286058" />
  </node>
  <node id="-524" visible="true" lat="44.59589943" lon="-72.06470021">
    <tag k="addr:city" v="Wheelock" />
    <tag k="addr:housenumber" v="1157" />
    <tag k="addr:street" v="Sutton Road" />
    <tag k="addr:state" v="VT" />
    <tag k="ref:vcgi:esiteid" v="286059" />
  </node>
  <node id="-525" visible="true" lat="44.57207976" lon="-72.21025513">
    <tag k="addr:city" v="Wheelock" />
    <tag k="addr:housenumber" v="483" />
    <tag k="addr:street" v="West Wheelock Road" />
    <tag k="addr:state" v="VT" />
    <tag k="ref:vcgi:esiteid" v="286060" />
  </node>
  <node id="-526" visible="true" lat="44.58800679" lon="-72.14537873">
    <tag k="addr:city" v="Wheelock" />
    <tag k="addr:housenumber" v="518" />
    <tag k="addr:street" v="Hubbard Hill Road" />
    <tag k="addr:state" v="VT" />
    <tag k="ref:vcgi:esiteid" v="286061" />
  </node>
  <node id="-527" visible="true" lat="44.54431753" lon="-72.08706177">
    <tag k="addr:city" v="Wheelock" />
    <tag k="addr:housenumber" v="45" />
    <tag k="addr:street" v="Leach Lane" />
    <tag k="addr:state" v="VT" />
    <tag k="ref:vcgi:esiteid" v="286064" />
  </node>
  <node id="-528" visible="true" lat="44.54182455" lon="-72.14386062">
    <tag k="addr:city" v="Wheelock" />
    <tag k="addr:housenumber" v="641" />
    <tag k="addr:street" v="Stannard Mountain Road" />
    <tag k="addr:state" v="VT" />
    <tag k="ref:vcgi:esiteid" v="306854" />
  </node>
  <node id="-529" visible="true" lat="44.53859909" lon="-72.15697076">
    <tag k="addr:city" v="Wheelock" />
    <tag k="addr:housenumber" v="1267" />
    <tag k="addr:street" v="Stannard Mountain Road" />
    <tag k="addr:state" v="VT" />
    <tag k="ref:vcgi:esiteid" v="306855" />
  </node>
  <node id="-530" visible="true" lat="44.54087772" lon="-72.07890499">
    <tag k="addr:city" v="Wheelock" />
    <tag k="addr:housenumber" v="4350" />
    <tag k="addr:street" v="South Wheelock Road" />
    <tag k="addr:state" v="VT" />
    <tag k="ref:vcgi:esiteid" v="306856" />
  </node>
  <node id="-531" visible="true" lat="44.54811542" lon="-72.10965116">
    <tag k="addr:city" v="Wheelock" />
    <tag k="addr:housenumber" v="45" />
    <tag k="addr:street" v="Jills Hill Road" />
    <tag k="addr:state" v="VT" />
    <tag k="ref:vcgi:esiteid" v="306858" />
  </node>
  <node id="-532" visible="true" lat="44.56505872" lon="-72.08956782">
    <tag k="addr:city" v="Wheelock" />
    <tag k="addr:housenumber" v="1754" />
    <tag k="addr:street" v="Peak Road" />
    <tag k="addr:state" v="VT" />
    <tag k="ref:vcgi:esiteid" v="306859" />
  </node>
  <node id="-533" visible="true" lat="44.54080172" lon="-72.14415218">
    <tag k="addr:city" v="Wheelock" />
    <tag k="addr:housenumber" v="647" />
    <tag k="addr:street" v="Stannard Mountain Road" />
    <tag k="addr:state" v="VT" />
    <tag k="ref:vcgi:esiteid" v="310759" />
  </node>
  <node id="-534" visible="true" lat="44.5835162" lon="-72.11061977">
    <tag k="addr:city" v="Wheelock" />
    <tag k="addr:housenumber" v="1047" />
    <tag k="addr:street" v="Morgan Road East" />
    <tag k="addr:state" v="VT" />
    <tag k="ref:vcgi:esiteid" v="310760" />
  </node>
  <node id="-535" visible="true" lat="44.57249735" lon="-72.11908232">
    <tag k="addr:city" v="Wheelock" />
    <tag k="addr:housenumber" v="961" />
    <tag k="addr:street" v="Ramsey Road" />
    <tag k="addr:state" v="VT" />
    <tag k="ref:vcgi:esiteid" v="310761" />
  </node>
  <node id="-536" visible="true" lat="44.54930612" lon="-72.0815077">
    <tag k="addr:city" v="Wheelock" />
    <tag k="addr:housenumber" v="1081" />
    <tag k="addr:street" v="Bean Pond Road" />
    <tag k="addr:state" v="VT" />
    <tag k="ref:vcgi:esiteid" v="310762" />
  </node>
  <node id="-537" visible="true" lat="44.58840063" lon="-72.08579893">
    <tag k="addr:city" v="Wheelock" />
    <tag k="addr:housenumber" v="1316" />
    <tag k="addr:street" v="Vermont Route 122" />
    <tag k="addr:state" v="VT" />
    <tag k="ref:vcgi:esiteid" v="312167" />
  </node>
  <node id="-538" visible="true" lat="44.56909583" lon="-72.21786917">
    <tag k="addr:city" v="Wheelock" />
    <tag k="addr:housenumber" v="158" />
    <tag k="addr:street" v="Little Deer Drive" />
    <tag k="addr:state" v="VT" />
    <tag k="ref:vcgi:esiteid" v="313793" />
  </node>
  <node id="-539" visible="true" lat="44.52905007" lon="-72.08147704">
    <tag k="addr:city" v="Wheelock" />
    <tag k="addr:housenumber" v="2111" />
    <tag k="addr:street" v="Cold Hill Road" />
    <tag k="addr:state" v="VT" />
    <tag k="ref:vcgi:esiteid" v="313794" />
  </node>
  <node id="-540" visible="true" lat="44.53142126" lon="-72.08438854">
    <tag k="addr:city" v="Wheelock" />
    <tag k="addr:housenumber" v="42" />
    <tag k="addr:street" v="Derricks Drive" />
    <tag k="addr:state" v="VT" />
    <tag k="ref:vcgi:esiteid" v="313795" />
  </node>
  <node id="-541" visible="true" lat="44.53079027" lon="-72.08459075">
    <tag k="addr:city" v="Wheelock" />
    <tag k="addr:housenumber" v="76" />
    <tag k="addr:street" v="Derricks Drive" />
    <tag k="addr:state" v="VT" />
    <tag k="ref:vcgi:esiteid" v="313796" />
  </node>
  <node id="-542" visible="true" lat="44.54035632" lon="-72.14473555">
    <tag k="addr:city" v="Wheelock" />
    <tag k="addr:housenumber" v="741" />
    <tag k="addr:street" v="Stannard Mountain Road" />
    <tag k="addr:state" v="VT" />
    <tag k="ref:vcgi:esiteid" v="315257" />
  </node>
  <node id="-543" visible="true" lat="44.53195867" lon="-72.0899306">
    <tag k="addr:city" v="Wheelock" />
    <tag k="addr:housenumber" v="917" />
    <tag k="addr:street" v="Burroughs Road" />
    <tag k="addr:state" v="VT" />
    <tag k="ref:vcgi:esiteid" v="316906" />
  </node>
  <node id="-544" visible="true" lat="44.58496752" lon="-72.08765748">
    <tag k="addr:city" v="Wheelock" />
    <tag k="addr:housenumber" v="312" />
    <tag k="addr:street" v="Peak Road" />
    <tag k="addr:state" v="VT" />
    <tag k="ref:vcgi:esiteid" v="326650" />
  </node>
  <node id="-545" visible="true" lat="44.58381942" lon="-72.0872537">
    <tag k="addr:city" v="Wheelock" />
    <tag k="addr:housenumber" v="394" />
    <tag k="addr:street" v="Peak Road" />
    <tag k="addr:state" v="VT" />
    <tag k="ref:vcgi:esiteid" v="326651" />
  </node>
  <node id="-546" visible="true" lat="44.58286065" lon="-72.08652932">
    <tag k="addr:city" v="Wheelock" />
    <tag k="addr:housenumber" v="444" />
    <tag k="addr:street" v="Peak Road" />
    <tag k="addr:state" v="VT" />
    <tag k="ref:vcgi:esiteid" v="326652" />
  </node>
  <node id="-547" visible="true" lat="44.54126616" lon="-72.14861739">
    <tag k="addr:city" v="Wheelock" />
    <tag k="addr:housenumber" v="904" />
    <tag k="addr:street" v="Stannard Mountain Road" />
    <tag k="addr:state" v="VT" />
    <tag k="ref:vcgi:esiteid" v="327648" />
  </node>
  <node id="-548" visible="true" lat="44.54577181" lon="-72.13210282">
    <tag k="addr:city" v="Wheelock" />
    <tag k="addr:housenumber" v="7300" />
    <tag k="addr:street" v="South Wheelock Road" />
    <tag k="addr:state" v="VT" />
    <tag k="ref:vcgi:esiteid" v="328257" />
  </node>
  <node id="-549" visible="true" lat="44.58194102" lon="-72.08575555">
    <tag k="addr:city" v="Wheelock" />
    <tag k="addr:housenumber" v="483" />
    <tag k="addr:street" v="Peak Road" />
    <tag k="addr:state" v="VT" />
    <tag k="ref:vcgi:esiteid" v="328735" />
  </node>
  <node id="-550" visible="true" lat="44.54798775" lon="-72.11052865">
    <tag k="addr:city" v="Wheelock" />
    <tag k="addr:housenumber" v="52" />
    <tag k="addr:street" v="Jills Hill Road" />
    <tag k="addr:state" v="VT" />
    <tag k="ref:vcgi:esiteid" v="328736" />
  </node>
  <node id="-551" visible="true" lat="44.58117827" lon="-72.08595164">
    <tag k="addr:city" v="Wheelock" />
    <tag k="addr:housenumber" v="545" />
    <tag k="addr:street" v="Peak Road" />
    <tag k="addr:state" v="VT" />
    <tag k="ref:vcgi:esiteid" v="329873" />
  </node>
  <node id="-552" visible="true" lat="44.54859267" lon="-72.13779828">
    <tag k="addr:city" v="Wheelock" />
    <tag k="addr:housenumber" v="298" />
    <tag k="addr:street" v="Sherburne Road" />
    <tag k="addr:state" v="VT" />
    <tag k="ref:vcgi:esiteid" v="331011" />
  </node>
  <node id="-553" visible="true" lat="44.58020925" lon="-72.09948717">
    <tag k="addr:city" v="Wheelock" />
    <tag k="addr:housenumber" v="211" />
    <tag k="addr:street" v="Morgan Road East" />
    <tag k="addr:state" v="VT" />
    <tag k="ref:vcgi:esiteid" v="332922" />
  </node>
  <node id="-554" visible="true" lat="44.55913568" lon="-72.08757772">
    <tag k="addr:city" v="Wheelock" />
    <tag k="addr:housenumber" v="2183" />
    <tag k="addr:street" v="Peak Road" />
    <tag k="addr:state" v="VT" />
    <tag k="ref:vcgi:esiteid" v="332923" />
  </node>
  <node id="-555" visible="true" lat="44.51109312" lon="-72.08701698">
    <tag k="addr:city" v="Wheelock" />
    <tag k="addr:housenumber" v="539" />
    <tag k="addr:street" v="Private Drive" />
    <tag k="addr:state" v="VT" />
    <tag k="ref:vcgi:esiteid" v="338070" />
  </node>
  <node id="-556" visible="true" lat="44.55323706" lon="-72.09021453">
    <tag k="addr:city" v="Wheelock" />
    <tag k="addr:housenumber" v="2523" />
    <tag k="addr:street" v="Peak Road" />
    <tag k="addr:state" v="VT" />
    <tag k="ref:vcgi:esiteid" v="338071" />
  </node>
  <node id="-557" visible="true" lat="44.5172526" lon="-72.10845632">
    <tag k="addr:city" v="Wheelock" />
    <tag k="addr:housenumber" v="4367" />
    <tag k="addr:street" v="Tampico Road" />
    <tag k="addr:state" v="VT" />
    <tag k="ref:vcgi:esiteid" v="338657" />
  </node>
  <node id="-558" visible="true" lat="44.6032938" lon="-72.05986883">
    <tag k="addr:city" v="Wheelock" />
    <tag k="addr:housenumber" v="1717" />
    <tag k="addr:street" v="Sutton Road" />
    <tag k="addr:state" v="VT" />
    <tag k="ref:vcgi:esiteid" v="338940" />
  </node>
  <node id="-559" visible="true" lat="44.58607559" lon="-72.15425165">
    <tag k="addr:city" v="Wheelock" />
    <tag k="addr:housenumber" v="707" />
    <tag k="addr:street" v="Welch Road" />
    <tag k="addr:state" v="VT" />
    <tag k="ref:vcgi:esiteid" v="339697" />
  </node>
  <node id="-560" visible="true" lat="44.55361756" lon="-72.10562796">
    <tag k="addr:city" v="Wheelock" />
    <tag k="addr:housenumber" v="426" />
    <tag k="addr:street" v="Minister Hill Road" />
    <tag k="addr:state" v="VT" />
    <tag k="ref:vcgi:esiteid" v="339924" />
  </node>
  <node id="-561" visible="true" lat="44.58661179" lon="-72.08038014">
    <tag k="addr:city" v="Wheelock" />
    <tag k="addr:housenumber" v="1006" />
    <tag k="addr:street" v="Vermont Route 122" />
    <tag k="addr:state" v="VT" />
    <tag k="ref:vcgi:esiteid" v="340011" />
  </node>
  <node id="-562" visible="true" lat="44.58378741" lon="-72.10696341">
    <tag k="addr:city" v="Wheelock" />
    <tag k="addr:housenumber" v="1240" />
    <tag k="addr:street" v="Morgan Road East" />
    <tag k="addr:state" v="VT" />
    <tag k="ref:vcgi:esiteid" v="340024" />
  </node>
  <node id="-563" visible="true" lat="44.5847935" lon="-72.07889188">
    <tag k="addr:city" v="Wheelock" />
    <tag k="addr:housenumber" v="881" />
    <tag k="addr:street" v="Vermont Route 122" />
    <tag k="addr:state" v="VT" />
    <tag k="ref:vcgi:esiteid" v="340089" />
  </node>
  <node id="-564" visible="true" lat="44.56810802" lon="-72.10278873">
    <tag k="addr:city" v="Wheelock" />
    <tag k="addr:housenumber" v="1716" />
    <tag k="addr:street" v="Vertical Mile Road" />
    <tag k="addr:state" v="VT" />
    <tag k="ref:vcgi:esiteid" v="340090" />
  </node>
  <node id="-565" visible="true" lat="44.52540092" lon="-72.13272358">
    <tag k="addr:city" v="Wheelock" />
    <tag k="addr:housenumber" v="1619" />
    <tag k="addr:street" v="Blakely Road" />
    <tag k="addr:state" v="VT" />
    <tag k="ref:vcgi:esiteid" v="340824" />
  </node>
  <node id="-566" visible="true" lat="44.58414521" lon="-72.10927298">
    <tag k="addr:city" v="Wheelock" />
    <tag k="addr:housenumber" v="1090" />
    <tag k="addr:street" v="Morgan Road East" />
    <tag k="addr:state" v="VT" />
    <tag k="ref:vcgi:esiteid" v="340873" />
  </node>
  <node id="-567" visible="true" lat="44.55966703" lon="-72.08902258">
    <tag k="addr:city" v="Wheelock" />
    <tag k="addr:housenumber" v="2045" />
    <tag k="addr:street" v="Peak Road" />
    <tag k="addr:state" v="VT" />
    <tag k="ref:vcgi:esiteid" v="341274" />
  </node>
  <node id="-568" visible="true" lat="44.51195538" lon="-72.08318565">
    <tag k="addr:city" v="Wheelock" />
    <tag k="addr:housenumber" v="862" />
    <tag k="addr:street" v="Private Drive" />
    <tag k="addr:state" v="VT" />
    <tag k="ref:vcgi:esiteid" v="341307" />
  </node>
  <node id="-569" visible="true" lat="44.59347703" lon="-72.07362552">
    <tag k="addr:city" v="Wheelock" />
    <tag k="addr:housenumber" v="260" />
    <tag k="addr:street" v="Aldrich Lane" />
    <tag k="addr:state" v="VT" />
    <tag k="ref:vcgi:esiteid" v="341397" />
  </node>
  <node id="-570" visible="true" lat="44.5365104" lon="-72.12461258">
    <tag k="addr:city" v="Wheelock" />
    <tag k="addr:housenumber" v="885" />
    <tag k="addr:street" v="Leroux Road" />
    <tag k="addr:state" v="VT" />
    <tag k="ref:vcgi:esiteid" v="342167" />
  </node>
  <node id="-571" visible="true" lat="44.58327912" lon="-72.08145443">
    <tag k="addr:city" v="Wheelock" />
    <tag k="addr:housenumber" v="3713" />
    <tag k="addr:street" v="Fall Brook Road" />
    <tag k="addr:state" v="VT" />
    <tag k="ref:vcgi:esiteid" v="342425" />
  </node>
  <node id="-572" visible="true" lat="44.57821909" lon="-72.07757433">
    <tag k="addr:city" v="Wheelock" />
    <tag k="addr:housenumber" v="3415" />
    <tag k="addr:street" v="Fall Brook Road" />
    <tag k="addr:state" v="VT" />
    <tag k="ref:vcgi:esiteid" v="342427" />
  </node>
  <node id="-573" visible="true" lat="44.57900358" lon="-72.07838243">
    <tag k="addr:city" v="Wheelock" />
    <tag k="addr:housenumber" v="3455" />
    <tag k="addr:street" v="Fall Brook Road" />
    <tag k="addr:state" v="VT" />
    <tag k="ref:vcgi:esiteid" v="342428" />
  </node>
  <node id="-574" visible="true" lat="44.58051427" lon="-72.08022341">
    <tag k="addr:city" v="Wheelock" />
    <tag k="addr:housenumber" v="3579" />
    <tag k="addr:street" v="Fall Brook Road" />
    <tag k="addr:state" v="VT" />
    <tag k="ref:vcgi:esiteid" v="342429" />
  </node>
  <node id="-575" visible="true" lat="44.52273323" lon="-72.13392172">
    <tag k="addr:city" v="Wheelock" />
    <tag k="addr:housenumber" v="5029" />
    <tag k="addr:street" v="McDowell Road" />
    <tag k="addr:state" v="VT" />
    <tag k="ref:vcgi:esiteid" v="342430" />
  </node>
  <node id="-576" visible="true" lat="44.54494492" lon="-72.10757744">
    <tag k="addr:city" v="Wheelock" />
    <tag k="addr:housenumber" v="289" />
    <tag k="addr:street" v="Jills Hill Road" />
    <tag k="addr:state" v="VT" />
    <tag k="ref:vcgi:esiteid" v="342431" />
  </node>
  <node id="-577" visible="true" lat="44.5188446" lon="-72.12186035">
    <tag k="addr:city" v="Wheelock" />
    <tag k="addr:housenumber" v="4035" />
    <tag k="addr:street" v="McDowell Road Extension" />
    <tag k="addr:state" v="VT" />
    <tag k="ref:vcgi:esiteid" v="343966" />
  </node>
  <node id="-578" visible="true" lat="44.57583974" lon="-72.10942054">
    <tag k="addr:city" v="Wheelock" />
    <tag k="addr:housenumber" v="173" />
    <tag k="addr:street" v="Folsom Road" />
    <tag k="addr:state" v="VT" />
    <tag k="ref:vcgi:esiteid" v="343970" />
  </node>
  <node id="-579" visible="true" lat="44.54774083" lon="-72.09638155">
    <tag k="addr:city" v="Wheelock" />
    <tag k="addr:housenumber" v="5393" />
    <tag k="addr:street" v="South Wheelock Road" />
    <tag k="addr:state" v="VT" />
    <tag k="ref:vcgi:esiteid" v="344345" />
  </node>
  <node id="-580" visible="true" lat="44.59424115" lon="-72.13151404">
    <tag k="addr:city" v="Wheelock" />
    <tag k="addr:housenumber" v="455" />
    <tag k="addr:street" v="Allard Hill Road" />
    <tag k="addr:state" v="VT" />
    <tag k="ref:vcgi:esiteid" v="344365" />
  </node>
  <node id="-581" visible="true" lat="44.59325877" lon="-72.13260542">
    <tag k="addr:city" v="Wheelock" />
    <tag k="addr:housenumber" v="545" />
    <tag k="addr:street" v="Allard Hill Road" />
    <tag k="addr:state" v="VT" />
    <tag k="ref:vcgi:esiteid" v="344366" />
  </node>
  <node id="-582" visible="true" lat="44.59199734" lon="-72.13290016">
    <tag k="addr:city" v="Wheelock" />
    <tag k="addr:housenumber" v="647" />
    <tag k="addr:street" v="Allard Hill Road" />
    <tag k="addr:state" v="VT" />
    <tag k="ref:vcgi:esiteid" v="344367" />
  </node>
  <node id="-583" visible="true" lat="44.59118668" lon="-72.13316911">
    <tag k="addr:city" v="Wheelock" />
    <tag k="addr:housenumber" v="703" />
    <tag k="addr:street" v="Allard Hill Road" />
    <tag k="addr:state" v="VT" />
    <tag k="ref:vcgi:esiteid" v="344368" />
  </node>
  <node id="-584" visible="true" lat="44.56872312" lon="-72.09753719">
    <tag k="addr:city" v="Wheelock" />
    <tag k="addr:housenumber" v="1627" />
    <tag k="addr:street" v="Vertical Mile Road" />
    <tag k="addr:state" v="VT" />
    <tag k="ref:vcgi:esiteid" v="345147" />
  </node>
  <node id="-585" visible="true" lat="44.5236029" lon="-72.12759976">
    <tag k="addr:city" v="Wheelock" />
    <tag k="addr:housenumber" v="4339" />
    <tag k="addr:street" v="McDowell Road Extension" />
    <tag k="addr:state" v="VT" />
    <tag k="ref:vcgi:esiteid" v="345148" />
  </node>
  <node id="-586" visible="true" lat="44.59144861" lon="-72.16298338">
    <tag k="addr:city" v="Wheelock" />
    <tag k="addr:housenumber" v="2364" />
    <tag k="addr:street" v="Kenniston Hill Road" />
    <tag k="addr:state" v="VT" />
    <tag k="ref:vcgi:esiteid" v="345149" />
  </node>
  <node id="-587" visible="true" lat="44.52809235" lon="-72.13554836">
    <tag k="addr:city" v="Wheelock" />
    <tag k="addr:housenumber" v="1498" />
    <tag k="addr:street" v="Blakely Road" />
    <tag k="addr:state" v="VT" />
    <tag k="ref:vcgi:esiteid" v="345152" />
  </node>
  <node id="-588" visible="true" lat="44.5648861" lon="-72.11471418">
    <tag k="addr:city" v="Wheelock" />
    <tag k="addr:housenumber" v="945" />
    <tag k="addr:street" v="Red Schoolhouse Road" />
    <tag k="addr:state" v="VT" />
    <tag k="ref:vcgi:esiteid" v="345454" />
  </node>
  <node id="-589" visible="true" lat="44.54151062" lon="-72.0907351">
    <tag k="addr:city" v="Wheelock" />
    <tag k="addr:housenumber" v="294" />
    <tag k="addr:street" v="Burroughs Road" />
    <tag k="addr:state" v="VT" />
    <tag k="ref:vcgi:esiteid" v="345455" />
  </node>
  <node id="-590" visible="true" lat="44.59948747" lon="-72.08268116">
    <tag k="addr:city" v="Wheelock" />
    <tag k="addr:housenumber" v="765" />
    <tag k="addr:street" v="Mosher Road" />
    <tag k="addr:state" v="VT" />
    <tag k="ref:vcgi:esiteid" v="345456" />
  </node>
  <node id="-591" visible="true" lat="44.57745975" lon="-72.13017542">
    <tag k="addr:city" v="Wheelock" />
    <tag k="addr:housenumber" v="1527" />
    <tag k="addr:street" v="Allard Hill Road" />
    <tag k="addr:state" v="VT" />
    <tag k="ref:vcgi:esiteid" v="345457" />
  </node>
  <node id="-592" visible="true" lat="44.57638151" lon="-72.12682581">
    <tag k="addr:city" v="Wheelock" />
    <tag k="addr:housenumber" v="285" />
    <tag k="addr:street" v="Blodgett Road" />
    <tag k="addr:state" v="VT" />
    <tag k="ref:vcgi:esiteid" v="345458" />
  </node>
  <node id="-593" visible="true" lat="44.57996298" lon="-72.10106362">
    <tag k="addr:city" v="Wheelock" />
    <tag k="addr:housenumber" v="267" />
    <tag k="addr:street" v="Morgan Road East" />
    <tag k="addr:state" v="VT" />
    <tag k="ref:vcgi:esiteid" v="345459" />
  </node>
  <node id="-594" visible="true" lat="44.58807367" lon="-72.08409659">
    <tag k="addr:city" v="Wheelock" />
    <tag k="addr:housenumber" v="1218" />
    <tag k="addr:street" v="Vermont Route 122" />
    <tag k="addr:state" v="VT" />
    <tag k="ref:vcgi:esiteid" v="345460" />
  </node>
  <node id="-595" visible="true" lat="44.61256453" lon="-72.20852193">
    <tag k="addr:city" v="Wheelock" />
    <tag k="addr:housenumber" v="5953" />
    <tag k="addr:street" v="Vermont Route 16" />
    <tag k="addr:state" v="VT" />
    <tag k="ref:vcgi:esiteid" v="345995" />
  </node>
  <node id="-596" visible="true" lat="44.55117925" lon="-72.19328838">
    <tag k="addr:city" v="Wheelock" />
    <tag k="addr:housenumber" v="3098" />
    <tag k="addr:street" v="Stannard Mountain Road" />
    <tag k="addr:state" v="VT" />
    <tag k="ref:vcgi:esiteid" v="365429" />
  </node>
  <node id="-597" visible="true" lat="44.57142286" lon="-72.11399728">
    <tag k="addr:city" v="Wheelock" />
    <tag k="addr:housenumber" v="715" />
    <tag k="addr:street" v="Ramsey Road" />
    <tag k="addr:state" v="VT" />
    <tag k="ref:vcgi:esiteid" v="446455" />
  </node>
  <node id="-598" visible="true" lat="44.57574704" lon="-72.1334558">
    <tag k="addr:city" v="Wheelock" />
    <tag k="addr:housenumber" v="1749" />
    <tag k="addr:street" v="Allard Hill Road" />
    <tag k="addr:state" v="VT" />
    <tag k="ref:vcgi:esiteid" v="446531" />
  </node>
  <node id="-599" visible="true" lat="44.55245981" lon="-72.08917872">
    <tag k="addr:city" v="Wheelock" />
    <tag k="addr:housenumber" v="2599" />
    <tag k="addr:street" v="Peak Road" />
    <tag k="addr:state" v="VT" />
    <tag k="ref:vcgi:esiteid" v="447000" />
  </node>
  <node id="-600" visible="true" lat="44.58905221" lon="-72.08844852">
    <tag k="addr:city" v="Wheelock" />
    <tag k="addr:housenumber" v="34" />
    <tag k="addr:street" v="Sulfur Spring Road" />
    <tag k="addr:state" v="VT" />
    <tag k="ref:vcgi:esiteid" v="447877" />
  </node>
  <node id="-601" visible="true" lat="44.54582617" lon="-72.1337415">
    <tag k="addr:city" v="Wheelock" />
    <tag k="addr:housenumber" v="31" />
    <tag k="addr:street" v="Blakely Road" />
    <tag k="addr:state" v="VT" />
    <tag k="ref:vcgi:esiteid" v="447929" />
  </node>
  <node id="-602" visible="true" lat="44.59682718" lon="-72.05980807">
    <tag k="addr:city" v="Wheelock" />
    <tag k="addr:housenumber" v="1352" />
    <tag k="addr:street" v="Sutton Road" />
    <tag k="addr:state" v="VT" />
    <tag k="ref:vcgi:esiteid" v="447935" />
  </node>
  <node id="-603" visible="true" lat="44.59345894" lon="-72.0811482">
    <tag k="addr:city" v="Wheelock" />
    <tag k="addr:housenumber" v="421" />
    <tag k="addr:street" v="Aldrich Lane" />
    <tag k="addr:state" v="VT" />
    <tag k="ref:vcgi:esiteid" v="448316" />
  </node>
  <node id="-604" visible="true" lat="44.57207129" lon="-72.09741114">
    <tag k="addr:city" v="Wheelock" />
    <tag k="addr:housenumber" v="1319" />
    <tag k="addr:street" v="Vertical Mile Road" />
    <tag k="addr:state" v="VT" />
    <tag k="ref:vcgi:esiteid" v="448348" />
  </node>
  <node id="-605" visible="true" lat="44.57138449" lon="-72.10016399">
    <tag k="addr:city" v="Wheelock" />
    <tag k="addr:housenumber" v="1428" />
    <tag k="addr:street" v="Vertical Mile Road" />
    <tag k="addr:state" v="VT" />
    <tag k="ref:vcgi:esiteid" v="448349" />
  </node>
  <node id="-606" visible="true" lat="44.5427173" lon="-72.10654707">
    <tag k="addr:city" v="Wheelock" />
    <tag k="addr:housenumber" v="988" />
    <tag k="addr:street" v="Chandler Pond Road" />
    <tag k="addr:state" v="VT" />
    <tag k="ref:vcgi:esiteid" v="448426" />
  </node>
  <node id="-607" visible="true" lat="44.58675003" lon="-72.11883892">
    <tag k="addr:city" v="Wheelock" />
    <tag k="addr:housenumber" v="14" />
    <tag k="addr:street" v="Morgan Road West" />
    <tag k="addr:state" v="VT" />
    <tag k="ref:vcgi:esiteid" v="449946" />
  </node>
  <node id="-608" visible="true" lat="44.57826556" lon="-72.13365596">
    <tag k="addr:city" v="Wheelock" />
    <tag k="addr:housenumber" v="1606" />
    <tag k="addr:street" v="Allard Hill Road" />
    <tag k="addr:state" v="VT" />
    <tag k="ref:vcgi:esiteid" v="451461" />
  </node>
  <node id="-609" visible="true" lat="44.55185865" lon="-72.08636274">
    <tag k="addr:city" v="Wheelock" />
    <tag k="addr:housenumber" v="1412" />
    <tag k="addr:street" v="Bean Pond Road" />
    <tag k="addr:state" v="VT" />
    <tag k="ref:vcgi:esiteid" v="451580" />
  </node>
  <node id="-610" visible="true" lat="44.58272429" lon="-72.20171695">
    <tag k="addr:city" v="Wheelock" />
    <tag k="addr:housenumber" v="52" />
    <tag k="addr:street" v="Piperville Road" />
    <tag k="addr:state" v="VT" />
    <tag k="ref:vcgi:esiteid" v="452024" />
  </node>
  <node id="-611" visible="true" lat="44.57964675" lon="-72.19342278">
    <tag k="addr:city" v="Wheelock" />
    <tag k="addr:housenumber" v="494" />
    <tag k="addr:street" v="Piperville Road" />
    <tag k="addr:state" v="VT" />
    <tag k="ref:vcgi:esiteid" v="452051" />
  </node>
  <node id="-612" visible="true" lat="44.51543201" lon="-72.10539751">
    <tag k="addr:city" v="Wheelock" />
    <tag k="addr:housenumber" v="4142" />
    <tag k="addr:street" v="Tampico Road" />
    <tag k="addr:state" v="VT" />
    <tag k="ref:vcgi:esiteid" v="452085" />
  </node>
  <node id="-613" visible="true" lat="44.6011804" lon="-72.05928293">
    <tag k="addr:city" v="Wheelock" />
    <tag k="addr:housenumber" v="1640" />
    <tag k="addr:street" v="Sutton Road" />
    <tag k="addr:state" v="VT" />
    <tag k="ref:vcgi:esiteid" v="452461" />
  </node>
  <node id="-614" visible="true" lat="44.51861764" lon="-72.1081052">
    <tag k="addr:city" v="Wheelock" />
    <tag k="addr:housenumber" v="4452" />
    <tag k="addr:street" v="Tampico Road" />
    <tag k="addr:state" v="VT" />
    <tag k="ref:vcgi:esiteid" v="452647" />
  </node>
  <node id="-616" visible="true" lat="44.55344209" lon="-72.14001033">
    <tag k="addr:city" v="Wheelock" />
    <tag k="addr:housenumber" v="664" />
    <tag k="addr:street" v="Sherburne Road" />
    <tag k="addr:state" v="VT" />
    <tag k="ref:vcgi:esiteid" v="452959" />
  </node>
  <node id="-618" visible="true" lat="44.55718655" lon="-72.1412111">
    <tag k="addr:city" v="Wheelock" />
    <tag k="addr:housenumber" v="995" />
    <tag k="addr:street" v="Sherburne Road" />
    <tag k="addr:state" v="VT" />
    <tag k="ref:vcgi:esiteid" v="452961" />
  </node>
  <node id="-620" visible="true" lat="44.53204923" lon="-72.1127757">
    <tag k="addr:city" v="Wheelock" />
    <tag k="addr:housenumber" v="1185" />
    <tag k="addr:street" v="Jills Hill Road" />
    <tag k="addr:state" v="VT" />
    <tag k="ref:vcgi:esiteid" v="453018" />
  </node>
  <node id="-621" visible="true" lat="44.53435498" lon="-72.11258019">
    <tag k="addr:city" v="Wheelock" />
    <tag k="addr:housenumber" v="1032" />
    <tag k="addr:street" v="Jills Hill Road" />
    <tag k="addr:state" v="VT" />
    <tag k="ref:vcgi:esiteid" v="453019" />
  </node>
  <node id="-622" visible="true" lat="44.54610096" lon="-72.09046156">
    <tag k="addr:city" v="Wheelock" />
    <tag k="addr:housenumber" v="5069" />
    <tag k="addr:street" v="South Wheelock Road" />
    <tag k="addr:state" v="VT" />
    <tag k="ref:vcgi:esiteid" v="453256" />
  </node>
  <node id="-623" visible="true" lat="44.59083694" lon="-72.08892246">
    <tag k="addr:city" v="Wheelock" />
    <tag k="addr:housenumber" v="184" />
    <tag k="addr:street" v="Sulfur Spring Road" />
    <tag k="addr:state" v="VT" />
    <tag k="ref:vcgi:esiteid" v="453495" />
  </node>
  <node id="-624" visible="true" lat="44.58701455" lon="-72.08279864">
    <tag k="addr:city" v="Wheelock" />
    <tag k="addr:housenumber" v="1165" />
    <tag k="addr:street" v="Vermont Route 122" />
    <tag k="addr:state" v="VT" />
    <tag k="ref:vcgi:esiteid" v="453496" />
  </node>
  <node id="-625" visible="true" lat="44.58776044" lon="-72.13625605">
    <tag k="addr:city" v="Wheelock" />
    <tag k="addr:housenumber" v="982" />
    <tag k="addr:street" v="Allard Hill Road" />
    <tag k="addr:state" v="VT" />
    <tag k="ref:vcgi:esiteid" v="454539" />
  </node>
  <node id="-626" visible="true" lat="44.58677806" lon="-72.13707562">
    <tag k="addr:city" v="Wheelock" />
    <tag k="addr:housenumber" v="1088" />
    <tag k="addr:street" v="Allard Hill Road" />
    <tag k="addr:state" v="VT" />
    <tag k="ref:vcgi:esiteid" v="454540" />
  </node>
  <node id="-627" visible="true" lat="44.5853944" lon="-72.13622539">
    <tag k="addr:city" v="Wheelock" />
    <tag k="addr:housenumber" v="1126" />
    <tag k="addr:street" v="Allard Hill Road" />
    <tag k="addr:state" v="VT" />
    <tag k="ref:vcgi:esiteid" v="454541" />
  </node>
  <node id="-628" visible="true" lat="44.60883187" lon="-72.16185486">
    <tag k="addr:city" v="Wheelock" />
    <tag k="addr:housenumber" v="67" />
    <tag k="addr:street" v="Gilman Field Road" />
    <tag k="addr:state" v="VT" />
    <tag k="ref:vcgi:esiteid" v="454622" />
  </node>
  <node id="-629" visible="true" lat="44.57304802" lon="-72.12394515">
    <tag k="addr:city" v="Wheelock" />
    <tag k="addr:housenumber" v="1195" />
    <tag k="addr:street" v="Ramsey Road" />
    <tag k="addr:state" v="VT" />
    <tag k="ref:vcgi:esiteid" v="454626" />
  </node>
  <node id="-630" visible="true" lat="44.56351449" lon="-72.11404143">
    <tag k="addr:city" v="Wheelock" />
    <tag k="addr:housenumber" v="801" />
    <tag k="addr:street" v="Red Schoolhouse Road" />
    <tag k="addr:state" v="VT" />
    <tag k="ref:vcgi:esiteid" v="454627" />
  </node>
  <node id="-631" visible="true" lat="44.57324769" lon="-72.10009644">
    <tag k="addr:city" v="Wheelock" />
    <tag k="addr:housenumber" v="1426" />
    <tag k="addr:street" v="Vertical Mile Road" />
    <tag k="addr:state" v="VT" />
    <tag k="ref:vcgi:esiteid" v="611129" />
  </node>
  <node id="-632" visible="true" lat="44.55635598" lon="-72.08768633">
    <tag k="addr:city" v="Wheelock" />
    <tag k="addr:housenumber" v="2315" />
    <tag k="addr:street" v="Peak Road" />
    <tag k="addr:state" v="VT" />
    <tag k="ref:vcgi:esiteid" v="611175" />
  </node>
  <node id="-633" visible="true" lat="44.53895365" lon="-72.16044466">
    <tag k="addr:city" v="Wheelock" />
    <tag k="addr:housenumber" v="1452" />
    <tag k="addr:street" v="Stannard Mountain Road" />
    <tag k="addr:state" v="VT" />
    <tag k="ref:vcgi:esiteid" v="611483" />
  </node>
  <node id="-634" visible="true" lat="44.56291569" lon="-72.21521572">
    <tag k="addr:city" v="Wheelock" />
    <tag k="addr:housenumber" v="34" />
    <tag k="addr:street" v="Flagg Pond Road" />
    <tag k="addr:state" v="VT" />
    <tag k="ref:vcgi:esiteid" v="611663" />
  </node>
  <node id="-635" visible="true" lat="44.54189487" lon="-72.15209313">
    <tag k="addr:city" v="Wheelock" />
    <tag k="addr:housenumber" v="978" />
    <tag k="addr:street" v="Stannard Mountain Road" />
    <tag k="addr:state" v="VT" />
    <tag k="ref:vcgi:esiteid" v="611796" />
  </node>
  <node id="-636" visible="true" lat="44.57516983" lon="-72.10968364">
    <tag k="addr:city" v="Wheelock" />
    <tag k="addr:housenumber" v="245" />
    <tag k="addr:street" v="Folsom Road" />
    <tag k="addr:state" v="VT" />
    <tag k="ref:vcgi:esiteid" v="613441" />
  </node>
  <node id="-637" visible="true" lat="44.58430095" lon="-72.10119394">
    <tag k="addr:city" v="Wheelock" />
    <tag k="addr:housenumber" v="346" />
    <tag k="addr:street" v="Morgan Road East" />
    <tag k="addr:state" v="VT" />
    <tag k="ref:vcgi:esiteid" v="617121" />
  </node>
  <node id="-638" visible="true" lat="44.54499536" lon="-72.14772488">
    <tag k="addr:city" v="Wheelock" />
    <tag k="addr:housenumber" v="319" />
    <tag k="addr:street" v="Ide Mountain Drive" />
    <tag k="addr:state" v="VT" />
    <tag k="ref:vcgi:esiteid" v="618050" />
  </node>
  <node id="-639" visible="true" lat="44.5886281" lon="-72.2263143">
    <tag k="addr:city" v="Wheelock" />
    <tag k="addr:housenumber" v="192" />
    <tag k="addr:street" v="Leblanc Road" />
    <tag k="addr:state" v="VT" />
    <tag k="ref:vcgi:esiteid" v="620570" />
  </node>
  <node id="-640" visible="true" lat="44.55571636" lon="-72.11279683">
    <tag k="addr:city" v="Wheelock" />
    <tag k="addr:housenumber" v="387" />
    <tag k="addr:street" v="Red Schoolhouse Road" />
    <tag k="addr:state" v="VT" />
    <tag k="ref:vcgi:esiteid" v="750985" />
  </node>
  <node id="-641" visible="true" lat="44.57688642" lon="-72.1453105">
    <tag k="addr:city" v="Wheelock" />
    <tag k="addr:housenumber" v="3275" />
    <tag k="addr:street" v="Piperville Road" />
    <tag k="addr:state" v="VT" />
    <tag k="ref:vcgi:esiteid" v="751374" />
  </node>
  <node id="-642" visible="true" lat="44.57038668" lon="-72.10872128">
    <tag k="addr:city" v="Wheelock" />
    <tag k="addr:housenumber" v="445" />
    <tag k="addr:street" v="Ramsey Road" />
    <tag k="addr:state" v="VT" />
    <tag k="ref:vcgi:esiteid" v="753933" />
  </node>
  <node id="-643" visible="true" lat="44.59091874" lon="-72.0894379">
    <tag k="addr:city" v="Wheelock" />
    <tag k="addr:housenumber" v="182" />
    <tag k="addr:street" v="Sulfur Spring Road" />
    <tag k="addr:state" v="VT" />
    <tag k="ref:vcgi:esiteid" v="754041" />
  </node>
  <node id="-644" visible="true" lat="44.56553947" lon="-72.11292223">
    <tag k="addr:city" v="Wheelock" />
    <tag k="addr:housenumber" v="1091" />
    <tag k="addr:street" v="Red Schoolhouse Road" />
    <tag k="addr:state" v="VT" />
    <tag k="ref:vcgi:esiteid" v="754491" />
  </node>
  <node id="-645" visible="true" lat="44.51637886" lon="-72.10663865">
    <tag k="addr:city" v="Wheelock" />
    <tag k="addr:housenumber" v="4368" />
    <tag k="addr:street" v="Tampico Road" />
    <tag k="addr:state" v="VT" />
    <tag k="ref:vcgi:esiteid" v="754686" />
  </node>
  <node id="-646" visible="true" lat="44.57373417" lon="-72.09943735">
    <tag k="addr:city" v="Wheelock" />
    <tag k="addr:housenumber" v="1300" />
    <tag k="addr:street" v="Vertical Mile Road" />
    <tag k="addr:state" v="VT" />
    <tag k="ref:vcgi:esiteid" v="754718" />
  </node>
  <node id="-647" visible="true" lat="44.55114761" lon="-72.10916565">
    <tag k="addr:city" v="Wheelock" />
    <tag k="addr:housenumber" v="142" />
    <tag k="addr:street" v="Minister Hill Road" />
    <tag k="addr:state" v="VT" />
    <tag k="ref:vcgi:esiteid" v="755896" />
  </node>
  <node id="-648" visible="true" lat="44.53869881" lon="-72.15060177">
    <tag k="addr:city" v="Wheelock" />
    <tag k="addr:housenumber" v="859" />
    <tag k="addr:street" v="Stannard Mountain Road" />
    <tag k="addr:state" v="VT" />
    <tag k="ref:vcgi:esiteid" v="756245" />
  </node>
  <node id="-649" visible="true" lat="44.54274953" lon="-72.11688626">
    <tag k="addr:city" v="Wheelock" />
    <tag k="addr:housenumber" v="193" />
    <tag k="addr:street" v="Leroux Road" />
    <tag k="addr:state" v="VT" />
    <tag k="ref:vcgi:esiteid" v="756392" />
  </node>
  <node id="-650" visible="true" lat="44.59526159" lon="-72.12914974">
    <tag k="addr:city" v="Wheelock" />
    <tag k="addr:housenumber" v="353" />
    <tag k="addr:street" v="Allard Hill Road" />
    <tag k="addr:state" v="VT" />
    <tag k="ref:vcgi:esiteid" v="756877" />
  </node>
  <node id="-652" visible="true" lat="44.58777459" lon="-72.22545737">
    <tag k="addr:city" v="Wheelock" />
    <tag k="addr:housenumber" v="165" />
    <tag k="addr:street" v="Leblanc Road" />
    <tag k="addr:state" v="VT" />
    <tag k="ref:vcgi:esiteid" v="757424" />
  </node>
  <node id="-653" visible="true" lat="44.59542931" lon="-72.14154072">
    <tag k="addr:city" v="Wheelock" />
    <tag k="addr:housenumber" v="519" />
    <tag k="addr:street" v="Smith Road" />
    <tag k="addr:state" v="VT" />
    <tag k="ref:vcgi:esiteid" v="757425" />
  </node>
  <node id="-654" visible="true" lat="44.54606312" lon="-72.08789724">
    <tag k="addr:city" v="Wheelock" />
    <tag k="addr:housenumber" v="3061" />
    <tag k="addr:street" v="Peak Road" />
    <tag k="addr:state" v="VT" />
    <tag k="ref:vcgi:esiteid" v="759346" />
  </node>
  <node id="-655" visible="true" lat="44.58041127" lon="-72.08588225">
    <tag k="addr:city" v="Wheelock" />
    <tag k="addr:housenumber" v="615" />
    <tag k="addr:street" v="Peak Road" />
    <tag k="addr:state" v="VT" />
    <tag k="ref:vcgi:esiteid" v="760140" />
  </node>
  <node id="-656" visible="true" lat="44.57762242" lon="-72.08428097">
    <tag k="addr:city" v="Wheelock" />
    <tag k="addr:housenumber" v="777" />
    <tag k="addr:street" v="Peak Road" />
    <tag k="addr:state" v="VT" />
    <tag k="ref:vcgi:esiteid" v="760141" />
  </node>
  <node id="-660" visible="true" lat="44.60590223" lon="-72.20987471">
    <tag k="addr:city" v="Wheelock" />
    <tag k="addr:housenumber" v="5461" />
    <tag k="addr:street" v="Vermont Route 16" />
    <tag k="addr:state" v="VT" />
    <tag k="ref:vcgi:esiteid" v="763070" />
  </node>
  <node id="-661" visible="true" lat="44.57560696" lon="-72.07171746">
    <tag k="addr:city" v="Wheelock" />
    <tag k="addr:housenumber" v="2898" />
    <tag k="addr:street" v="Fall Brook Road" />
    <tag k="addr:state" v="VT" />
    <tag k="ref:vcgi:esiteid" v="764575" />
  </node>
  <node id="-663" visible="true" lat="44.5420555" lon="-72.09084127">
    <tag k="addr:city" v="Wheelock" />
    <tag k="addr:housenumber" v="292" />
    <tag k="addr:street" v="Burroughs Road" />
    <tag k="addr:state" v="VT" />
    <tag k="ref:vcgi:esiteid" v="1050979" />
  </node>
  <node id="-664" visible="true" lat="44.58213625" lon="-72.08005746">
    <tag k="addr:city" v="Wheelock" />
    <tag k="addr:housenumber" v="3619" />
    <tag k="addr:street" v="Fall Brook Road" />
    <tag k="addr:state" v="VT" />
    <tag k="ref:vcgi:esiteid" v="1051038" />
  </node>
  <node id="-665" visible="true" lat="44.58244658" lon="-72.08027178">
    <tag k="addr:city" v="Wheelock" />
    <tag k="addr:housenumber" v="3631" />
    <tag k="addr:street" v="Fall Brook Road" />
    <tag k="addr:state" v="VT" />
    <tag k="ref:vcgi:esiteid" v="1051039" />
  </node>
</osm>
