<?xml version="1.0" encoding="UTF-8"?>
<osm version="0.6" generator="JOSM">
  <node id="-100" visible="true" lat="43.1407052" lon="-72.76272206">
    <tag k="addr:housenumber" v="2936" />
    <tag k="addr:street" v="West Windham Road" />
    <tag k="addr:state" v="VT" />
    <tag k="ref:vcgi:esiteid" v="294942" />
  </node>
  <node id="-101" visible="true" lat="43.22888183" lon="-72.72418975">
    <tag k="addr:housenumber" v="173" />
    <tag k="addr:street" v="Horsenail Hill Road" />
    <tag k="addr:state" v="VT" />
    <tag k="ref:vcgi:esiteid" v="294943" />
  </node>
  <node id="-102" visible="true" lat="43.228199" lon="-72.72113799">
    <tag k="addr:housenumber" v="63" />
    <tag k="addr:street" v="Town Highway 4" />
    <tag k="addr:state" v="VT" />
    <tag k="ref:vcgi:esiteid" v="294944" />
  </node>
  <node id="-103" visible="true" lat="43.22797891" lon="-72.70984444">
    <tag k="addr:housenumber" v="418" />
    <tag k="addr:street" v="Howard Hill Road" />
    <tag k="addr:state" v="VT" />
    <tag k="ref:vcgi:esiteid" v="294945" />
  </node>
  <node id="-104" visible="true" lat="43.22793197" lon="-72.72276306">
    <tag k="addr:housenumber" v="274" />
    <tag k="addr:street" v="Horsenail Hill Road" />
    <tag k="addr:state" v="VT" />
    <tag k="ref:vcgi:esiteid" v="294946" />
  </node>
  <node id="-105" visible="true" lat="43.22749317" lon="-72.71255904">
    <tag k="addr:housenumber" v="365" />
    <tag k="addr:street" v="Howard Hill Road" />
    <tag k="addr:state" v="VT" />
    <tag k="ref:vcgi:esiteid" v="294947" />
  </node>
  <node id="-106" visible="true" lat="43.22690582" lon="-72.72650909">
    <tag k="addr:housenumber" v="7508" />
    <tag k="addr:street" v="Vermont Route 11" />
    <tag k="addr:state" v="VT" />
    <tag k="ref:vcgi:esiteid" v="294948" />
  </node>
  <node id="-107" visible="true" lat="43.22679901" lon="-72.72196197">
    <tag k="addr:housenumber" v="370" />
    <tag k="addr:street" v="Horsenail Hill Road" />
    <tag k="addr:state" v="VT" />
    <tag k="ref:vcgi:esiteid" v="294949" />
  </node>
  <node id="-108" visible="true" lat="43.22658157" lon="-72.7249298">
    <tag k="addr:housenumber" v="7510" />
    <tag k="addr:street" v="Vermont Route 11" />
    <tag k="addr:state" v="VT" />
    <tag k="ref:vcgi:esiteid" v="294950" />
  </node>
  <node id="-109" visible="true" lat="43.22621917" lon="-72.72167205">
    <tag k="addr:housenumber" v="412" />
    <tag k="addr:street" v="Horsenail Hill Road" />
    <tag k="addr:state" v="VT" />
    <tag k="ref:vcgi:esiteid" v="294951" />
  </node>
  <node id="-110" visible="true" lat="43.2261734" lon="-72.72078704">
    <tag k="addr:housenumber" v="451" />
    <tag k="addr:street" v="Horsenail Hill Road" />
    <tag k="addr:state" v="VT" />
    <tag k="ref:vcgi:esiteid" v="294952" />
  </node>
  <node id="-111" visible="true" lat="43.22586441" lon="-72.72737884">
    <tag k="addr:housenumber" v="7452" />
    <tag k="addr:street" v="Vermont Route 11" />
    <tag k="addr:state" v="VT" />
    <tag k="ref:vcgi:esiteid" v="294953" />
  </node>
  <node id="-112" visible="true" lat="43.22586441" lon="-72.72161102">
    <tag k="addr:housenumber" v="436" />
    <tag k="addr:street" v="Horsenail Hill Road" />
    <tag k="addr:state" v="VT" />
    <tag k="ref:vcgi:esiteid" v="294954" />
  </node>
  <node id="-113" visible="true" lat="43.2253685" lon="-72.72130584">
    <tag k="addr:housenumber" v="474" />
    <tag k="addr:street" v="Horsenail Hill Road" />
    <tag k="addr:state" v="VT" />
    <tag k="ref:vcgi:esiteid" v="294955" />
  </node>
  <node id="-114" visible="true" lat="43.22533416" lon="-72.72003936">
    <tag k="addr:housenumber" v="483" />
    <tag k="addr:street" v="Horsenail Hill Road" />
    <tag k="addr:state" v="VT" />
    <tag k="ref:vcgi:esiteid" v="294956" />
  </node>
  <node id="-115" visible="true" lat="43.22507476" lon="-72.72151184">
    <tag k="addr:housenumber" v="492" />
    <tag k="addr:street" v="Horsenail Hill Road" />
    <tag k="addr:state" v="VT" />
    <tag k="ref:vcgi:esiteid" v="294957" />
  </node>
  <node id="-116" visible="true" lat="43.22489547" lon="-72.72108459">
    <tag k="addr:housenumber" v="510" />
    <tag k="addr:street" v="Horsenail Hill Road" />
    <tag k="addr:state" v="VT" />
    <tag k="ref:vcgi:esiteid" v="294958" />
  </node>
  <node id="-117" visible="true" lat="43.22457122" lon="-72.72101592">
    <tag k="addr:housenumber" v="532" />
    <tag k="addr:street" v="Horsenail Hill Road" />
    <tag k="addr:state" v="VT" />
    <tag k="ref:vcgi:esiteid" v="294959" />
  </node>
  <node id="-118" visible="true" lat="43.2233963" lon="-72.72076415">
    <tag k="addr:housenumber" v="616" />
    <tag k="addr:street" v="Horsenail Hill Road" />
    <tag k="addr:state" v="VT" />
    <tag k="ref:vcgi:esiteid" v="294960" />
  </node>
  <node id="-119" visible="true" lat="43.22319412" lon="-72.70125579">
    <tag k="addr:housenumber" v="6186" />
    <tag k="addr:street" v="Popple Dungeon Road" />
    <tag k="addr:state" v="VT" />
    <tag k="ref:vcgi:esiteid" v="294961" />
  </node>
  <node id="-120" visible="true" lat="43.22308731" lon="-72.70871734">
    <tag k="addr:housenumber" v="6558" />
    <tag k="addr:street" v="Popple Dungeon Road" />
    <tag k="addr:state" v="VT" />
    <tag k="ref:vcgi:esiteid" v="294962" />
  </node>
  <node id="-121" visible="true" lat="43.22302627" lon="-72.70683288">
    <tag k="addr:housenumber" v="6463" />
    <tag k="addr:street" v="Popple Dungeon Road" />
    <tag k="addr:state" v="VT" />
    <tag k="ref:vcgi:esiteid" v="294963" />
  </node>
  <node id="-122" visible="true" lat="43.22164557" lon="-72.70351929">
    <tag k="addr:housenumber" v="6247" />
    <tag k="addr:street" v="Popple Dungeon Road" />
    <tag k="addr:state" v="VT" />
    <tag k="ref:vcgi:esiteid" v="294964" />
  </node>
  <node id="-123" visible="true" lat="43.2226448" lon="-72.7036972">
    <tag k="addr:housenumber" v="6305" />
    <tag k="addr:street" v="Popple Dungeon Road" />
    <tag k="addr:state" v="VT" />
    <tag k="ref:vcgi:esiteid" v="294965" />
  </node>
  <node id="-124" visible="true" lat="43.2223587" lon="-72.69906616">
    <tag k="addr:housenumber" v="6028" />
    <tag k="addr:street" v="Popple Dungeon Road" />
    <tag k="addr:state" v="VT" />
    <tag k="ref:vcgi:esiteid" v="294966" />
  </node>
  <node id="-125" visible="true" lat="43.223674" lon="-72.69335583">
    <tag k="addr:housenumber" v="5718" />
    <tag k="addr:street" v="Popple Dungeon Road" />
    <tag k="addr:state" v="VT" />
    <tag k="ref:vcgi:esiteid" v="294967" />
  </node>
  <node id="-126" visible="true" lat="43.2222478" lon="-72.71306759">
    <tag k="addr:housenumber" v="6802" />
    <tag k="addr:street" v="Popple Dungeon Road" />
    <tag k="addr:state" v="VT" />
    <tag k="ref:vcgi:esiteid" v="294968" />
  </node>
  <node id="-127" visible="true" lat="43.22206115" lon="-72.70923614">
    <tag k="addr:housenumber" v="6651" />
    <tag k="addr:street" v="Popple Dungeon Road" />
    <tag k="addr:state" v="VT" />
    <tag k="ref:vcgi:esiteid" v="294969" />
  </node>
  <node id="-128" visible="true" lat="43.22172546" lon="-72.71197509">
    <tag k="addr:housenumber" v="6743" />
    <tag k="addr:street" v="Popple Dungeon Road" />
    <tag k="addr:state" v="VT" />
    <tag k="ref:vcgi:esiteid" v="294970" />
  </node>
  <node id="-129" visible="true" lat="43.22173309" lon="-72.70484161">
    <tag k="addr:housenumber" v="197" />
    <tag k="addr:street" v="Edson Drive" />
    <tag k="addr:state" v="VT" />
    <tag k="ref:vcgi:esiteid" v="294971" />
  </node>
  <node id="-130" visible="true" lat="43.22171783" lon="-72.71295166">
    <tag k="addr:housenumber" v="6791" />
    <tag k="addr:street" v="Popple Dungeon Road" />
    <tag k="addr:state" v="VT" />
    <tag k="ref:vcgi:esiteid" v="294972" />
  </node>
  <node id="-131" visible="true" lat="43.2213974" lon="-72.70378875">
    <tag k="addr:housenumber" v="257" />
    <tag k="addr:street" v="Edson Drive" />
    <tag k="addr:state" v="VT" />
    <tag k="ref:vcgi:esiteid" v="294973" />
  </node>
  <node id="-132" visible="true" lat="43.22122151" lon="-72.71970312">
    <tag k="addr:housenumber" v="7142" />
    <tag k="addr:street" v="Popple Dungeon Road" />
    <tag k="addr:state" v="VT" />
    <tag k="ref:vcgi:esiteid" v="294974" />
  </node>
  <node id="-133" visible="true" lat="43.22089004" lon="-72.70894622">
    <tag k="addr:housenumber" v="72" />
    <tag k="addr:street" v="Edson Drive" />
    <tag k="addr:state" v="VT" />
    <tag k="ref:vcgi:esiteid" v="294975" />
  </node>
  <node id="-134" visible="true" lat="43.22046759" lon="-72.73506819">
    <tag k="addr:housenumber" v="39" />
    <tag k="addr:street" v="Scott Pet Road" />
    <tag k="addr:state" v="VT" />
    <tag k="ref:vcgi:esiteid" v="294976" />
  </node>
  <node id="-135" visible="true" lat="43.22063446" lon="-72.71629333">
    <tag k="addr:housenumber" v="7073" />
    <tag k="addr:street" v="Popple Dungeon Road" />
    <tag k="addr:state" v="VT" />
    <tag k="ref:vcgi:esiteid" v="294977" />
  </node>
  <node id="-136" visible="true" lat="43.22011184" lon="-72.72097015">
    <tag k="addr:housenumber" v="22" />
    <tag k="addr:street" v="White Road" />
    <tag k="addr:state" v="VT" />
    <tag k="ref:vcgi:esiteid" v="294978" />
  </node>
  <node id="-137" visible="true" lat="43.21923828" lon="-72.72888946">
    <tag k="addr:housenumber" v="420" />
    <tag k="addr:street" v="Scott Pet Road" />
    <tag k="addr:state" v="VT" />
    <tag k="ref:vcgi:esiteid" v="294979" />
  </node>
  <node id="-138" visible="true" lat="43.21905517" lon="-72.72670745">
    <tag k="addr:housenumber" v="536" />
    <tag k="addr:street" v="Scott Pet Road" />
    <tag k="addr:state" v="VT" />
    <tag k="ref:vcgi:esiteid" v="294980" />
  </node>
  <node id="-139" visible="true" lat="43.21897125" lon="-72.7253952">
    <tag k="addr:housenumber" v="612" />
    <tag k="addr:street" v="Scott Pet Road" />
    <tag k="addr:state" v="VT" />
    <tag k="ref:vcgi:esiteid" v="294981" />
  </node>
  <node id="-140" visible="true" lat="43.21894836" lon="-72.72982788">
    <tag k="addr:housenumber" v="410" />
    <tag k="addr:street" v="Scott Pet Road" />
    <tag k="addr:state" v="VT" />
    <tag k="ref:vcgi:esiteid" v="294982" />
  </node>
  <node id="-141" visible="true" lat="43.21889877" lon="-72.73171997">
    <tag k="addr:housenumber" v="274" />
    <tag k="addr:street" v="Scott Pet Road" />
    <tag k="addr:state" v="VT" />
    <tag k="ref:vcgi:esiteid" v="294983" />
  </node>
  <node id="-142" visible="true" lat="43.21897773" lon="-72.72141777">
    <tag k="addr:housenumber" v="841" />
    <tag k="addr:street" v="Scott Pet Road" />
    <tag k="addr:state" v="VT" />
    <tag k="ref:vcgi:esiteid" v="294984" />
  </node>
  <node id="-143" visible="true" lat="43.21861267" lon="-72.72340393">
    <tag k="addr:housenumber" v="678" />
    <tag k="addr:street" v="Scott Pet Road" />
    <tag k="addr:state" v="VT" />
    <tag k="ref:vcgi:esiteid" v="294985" />
  </node>
  <node id="-144" visible="true" lat="43.21618959" lon="-72.72198165">
    <tag k="addr:housenumber" v="290" />
    <tag k="addr:street" v="White Road" />
    <tag k="addr:state" v="VT" />
    <tag k="ref:vcgi:esiteid" v="294986" />
  </node>
  <node id="-145" visible="true" lat="43.21613311" lon="-72.72393798">
    <tag k="addr:housenumber" v="286" />
    <tag k="addr:street" v="White Road" />
    <tag k="addr:state" v="VT" />
    <tag k="ref:vcgi:esiteid" v="294987" />
  </node>
  <node id="-146" visible="true" lat="43.21516306" lon="-72.72014181">
    <tag k="addr:housenumber" v="391" />
    <tag k="addr:street" v="White Road" />
    <tag k="addr:state" v="VT" />
    <tag k="ref:vcgi:esiteid" v="294988" />
  </node>
  <node id="-147" visible="true" lat="43.21440887" lon="-72.71953582">
    <tag k="addr:housenumber" v="449" />
    <tag k="addr:street" v="White Road" />
    <tag k="addr:state" v="VT" />
    <tag k="ref:vcgi:esiteid" v="294989" />
  </node>
  <node id="-148" visible="true" lat="43.21281814" lon="-72.71723937">
    <tag k="addr:housenumber" v="589" />
    <tag k="addr:street" v="White Road" />
    <tag k="addr:state" v="VT" />
    <tag k="ref:vcgi:esiteid" v="294990" />
  </node>
  <node id="-149" visible="true" lat="43.21192162" lon="-72.71137659">
    <tag k="addr:housenumber" v="166" />
    <tag k="addr:street" v="Hidden Newton Road" />
    <tag k="addr:state" v="VT" />
    <tag k="ref:vcgi:esiteid" v="294991" />
  </node>
  <node id="-150" visible="true" lat="43.21139617" lon="-72.71414124">
    <tag k="addr:housenumber" v="53" />
    <tag k="addr:street" v="Hidden Newton Road" />
    <tag k="addr:state" v="VT" />
    <tag k="ref:vcgi:esiteid" v="294992" />
  </node>
  <node id="-151" visible="true" lat="43.21115493" lon="-72.72129058">
    <tag k="addr:housenumber" v="951" />
    <tag k="addr:street" v="Hitchcock Hill Road" />
    <tag k="addr:state" v="VT" />
    <tag k="ref:vcgi:esiteid" v="294993" />
  </node>
  <node id="-152" visible="true" lat="43.21083697" lon="-72.71235553">
    <tag k="addr:housenumber" v="56" />
    <tag k="addr:street" v="Hidden Newton Road" />
    <tag k="addr:state" v="VT" />
    <tag k="ref:vcgi:esiteid" v="294994" />
  </node>
  <node id="-153" visible="true" lat="43.21073503" lon="-72.71517375">
    <tag k="addr:housenumber" v="794" />
    <tag k="addr:street" v="White Road" />
    <tag k="addr:state" v="VT" />
    <tag k="ref:vcgi:esiteid" v="294995" />
  </node>
  <node id="-154" visible="true" lat="43.21050642" lon="-72.73710683">
    <tag k="addr:housenumber" v="528" />
    <tag k="addr:street" v="Route 121" />
    <tag k="addr:state" v="VT" />
    <tag k="ref:vcgi:esiteid" v="294996" />
  </node>
  <node id="-155" visible="true" lat="43.21019744" lon="-72.72216796">
    <tag k="addr:housenumber" v="859" />
    <tag k="addr:street" v="Hitchcock Hill Road" />
    <tag k="addr:state" v="VT" />
    <tag k="ref:vcgi:esiteid" v="294997" />
  </node>
  <node id="-156" visible="true" lat="43.21021262" lon="-72.71269969">
    <tag k="addr:housenumber" v="977" />
    <tag k="addr:street" v="White Road" />
    <tag k="addr:state" v="VT" />
    <tag k="ref:vcgi:esiteid" v="294998" />
  </node>
  <node id="-157" visible="true" lat="43.20956067" lon="-72.72058015">
    <tag k="addr:housenumber" v="832" />
    <tag k="addr:street" v="Hitchcock Hill Road" />
    <tag k="addr:state" v="VT" />
    <tag k="ref:vcgi:esiteid" v="294999" />
  </node>
  <node id="-158" visible="true" lat="43.2085217" lon="-72.70751715">
    <tag k="addr:housenumber" v="1033" />
    <tag k="addr:street" v="White Road" />
    <tag k="addr:state" v="VT" />
    <tag k="ref:vcgi:esiteid" v="295000" />
  </node>
  <node id="-159" visible="true" lat="43.20877838" lon="-72.73489379">
    <tag k="addr:housenumber" v="695" />
    <tag k="addr:street" v="Route 121" />
    <tag k="addr:state" v="VT" />
    <tag k="ref:vcgi:esiteid" v="295001" />
  </node>
  <node id="-160" visible="true" lat="43.20867156" lon="-72.71942901">
    <tag k="addr:housenumber" v="774" />
    <tag k="addr:street" v="Hitchcock Hill Road" />
    <tag k="addr:state" v="VT" />
    <tag k="ref:vcgi:esiteid" v="295002" />
  </node>
  <node id="-161" visible="true" lat="43.20878416" lon="-72.72164842">
    <tag k="addr:housenumber" v="777" />
    <tag k="addr:street" v="Hitchcock Hill Road" />
    <tag k="addr:state" v="VT" />
    <tag k="ref:vcgi:esiteid" v="295003" />
  </node>
  <node id="-162" visible="true" lat="43.20729064" lon="-72.72234344">
    <tag k="addr:housenumber" v="711" />
    <tag k="addr:street" v="Hitchcock Hill Road" />
    <tag k="addr:state" v="VT" />
    <tag k="ref:vcgi:esiteid" v="295004" />
  </node>
  <node id="-163" visible="true" lat="43.20679473" lon="-72.73394012">
    <tag k="addr:housenumber" v="831" />
    <tag k="addr:street" v="Route 121" />
    <tag k="addr:state" v="VT" />
    <tag k="ref:vcgi:esiteid" v="295005" />
  </node>
  <node id="-164" visible="true" lat="43.20655441" lon="-72.70938873">
    <tag k="addr:housenumber" v="1220" />
    <tag k="addr:street" v="White Road" />
    <tag k="addr:state" v="VT" />
    <tag k="ref:vcgi:esiteid" v="295006" />
  </node>
  <node id="-165" visible="true" lat="43.20636749" lon="-72.72119903">
    <tag k="addr:housenumber" v="627" />
    <tag k="addr:street" v="Hitchcock Hill Road" />
    <tag k="addr:state" v="VT" />
    <tag k="ref:vcgi:esiteid" v="295007" />
  </node>
  <node id="-166" visible="true" lat="43.20620346" lon="-72.72031402">
    <tag k="addr:housenumber" v="604" />
    <tag k="addr:street" v="Hitchcock Hill Road" />
    <tag k="addr:state" v="VT" />
    <tag k="ref:vcgi:esiteid" v="295008" />
  </node>
  <node id="-167" visible="true" lat="43.20601272" lon="-72.71803283">
    <tag k="addr:housenumber" v="578" />
    <tag k="addr:street" v="Hitchcock Hill Road" />
    <tag k="addr:state" v="VT" />
    <tag k="ref:vcgi:esiteid" v="295009" />
  </node>
  <node id="-168" visible="true" lat="43.20574951" lon="-72.71899414">
    <tag k="addr:housenumber" v="576" />
    <tag k="addr:street" v="Hitchcock Hill Road" />
    <tag k="addr:state" v="VT" />
    <tag k="ref:vcgi:esiteid" v="295010" />
  </node>
  <node id="-169" visible="true" lat="43.20570373" lon="-72.72180938">
    <tag k="addr:housenumber" v="599" />
    <tag k="addr:street" v="Hitchcock Hill Road" />
    <tag k="addr:state" v="VT" />
    <tag k="ref:vcgi:esiteid" v="295011" />
  </node>
  <node id="-170" visible="true" lat="43.20541" lon="-72.73304748">
    <tag k="addr:housenumber" v="937" />
    <tag k="addr:street" v="Route 121" />
    <tag k="addr:state" v="VT" />
    <tag k="ref:vcgi:esiteid" v="295012" />
  </node>
  <node id="-171" visible="true" lat="43.20522689" lon="-72.71961212">
    <tag k="addr:housenumber" v="530" />
    <tag k="addr:street" v="Hitchcock Hill Road" />
    <tag k="addr:state" v="VT" />
    <tag k="ref:vcgi:esiteid" v="295013" />
  </node>
  <node id="-172" visible="true" lat="43.20515441" lon="-72.73208618">
    <tag k="addr:housenumber" v="977" />
    <tag k="addr:street" v="Route 121" />
    <tag k="addr:state" v="VT" />
    <tag k="ref:vcgi:esiteid" v="295014" />
  </node>
  <node id="-173" visible="true" lat="43.20515441" lon="-72.72076415">
    <tag k="addr:housenumber" v="559" />
    <tag k="addr:street" v="Hitchcock Hill Road" />
    <tag k="addr:state" v="VT" />
    <tag k="ref:vcgi:esiteid" v="295015" />
  </node>
  <node id="-174" visible="true" lat="43.20458602" lon="-72.70481872">
    <tag k="addr:housenumber" v="1483" />
    <tag k="addr:street" v="White Road" />
    <tag k="addr:state" v="VT" />
    <tag k="ref:vcgi:esiteid" v="295016" />
  </node>
  <node id="-175" visible="true" lat="43.20445632" lon="-72.71982574">
    <tag k="addr:housenumber" v="482" />
    <tag k="addr:street" v="Hitchcock Hill Road" />
    <tag k="addr:state" v="VT" />
    <tag k="ref:vcgi:esiteid" v="295017" />
  </node>
  <node id="-176" visible="true" lat="43.20437621" lon="-72.7313385">
    <tag k="addr:housenumber" v="1035" />
    <tag k="addr:street" v="Route 121" />
    <tag k="addr:state" v="VT" />
    <tag k="ref:vcgi:esiteid" v="295018" />
  </node>
  <node id="-177" visible="true" lat="43.20426559" lon="-72.73247528">
    <tag k="addr:housenumber" v="1019" />
    <tag k="addr:street" v="Route 121" />
    <tag k="addr:state" v="VT" />
    <tag k="ref:vcgi:esiteid" v="295019" />
  </node>
  <node id="-178" visible="true" lat="43.20405959" lon="-72.72061157">
    <tag k="addr:housenumber" v="473" />
    <tag k="addr:street" v="Hitchcock Hill Road" />
    <tag k="addr:state" v="VT" />
    <tag k="ref:vcgi:esiteid" v="295020" />
  </node>
  <node id="-179" visible="true" lat="43.20372772" lon="-72.73224639">
    <tag k="addr:housenumber" v="1057" />
    <tag k="addr:street" v="Route 121" />
    <tag k="addr:state" v="VT" />
    <tag k="ref:vcgi:esiteid" v="295021" />
  </node>
  <node id="-180" visible="true" lat="43.20362472" lon="-72.73849487">
    <tag k="addr:housenumber" v="694" />
    <tag k="addr:street" v="Windham Springs" />
    <tag k="addr:state" v="VT" />
    <tag k="ref:vcgi:esiteid" v="295022" />
  </node>
  <node id="-181" visible="true" lat="43.20342254" lon="-72.71942138">
    <tag k="addr:housenumber" v="408" />
    <tag k="addr:street" v="Hitchcock Hill Road" />
    <tag k="addr:state" v="VT" />
    <tag k="ref:vcgi:esiteid" v="295023" />
  </node>
  <node id="-182" visible="true" lat="43.20299911" lon="-72.73269653">
    <tag k="addr:housenumber" v="1104" />
    <tag k="addr:street" v="Route 121" />
    <tag k="addr:state" v="VT" />
    <tag k="ref:vcgi:esiteid" v="295024" />
  </node>
  <node id="-183" visible="true" lat="43.20297621" lon="-72.73908285">
    <tag k="addr:housenumber" v="667" />
    <tag k="addr:street" v="Windham Springs" />
    <tag k="addr:state" v="VT" />
    <tag k="ref:vcgi:esiteid" v="295025" />
  </node>
  <node id="-184" visible="true" lat="43.2025299" lon="-72.73805236">
    <tag k="addr:housenumber" v="660" />
    <tag k="addr:street" v="Windham Springs" />
    <tag k="addr:state" v="VT" />
    <tag k="ref:vcgi:esiteid" v="295026" />
  </node>
  <node id="-185" visible="true" lat="43.20151138" lon="-72.73864745">
    <tag k="addr:housenumber" v="563" />
    <tag k="addr:street" v="Windham Springs" />
    <tag k="addr:state" v="VT" />
    <tag k="ref:vcgi:esiteid" v="295027" />
  </node>
  <node id="-186" visible="true" lat="43.20068358" lon="-72.73739675">
    <tag k="addr:housenumber" v="474" />
    <tag k="addr:street" v="Windham Springs" />
    <tag k="addr:state" v="VT" />
    <tag k="ref:vcgi:esiteid" v="295028" />
  </node>
  <node id="-187" visible="true" lat="43.20066833" lon="-72.72998809">
    <tag k="addr:housenumber" v="1355" />
    <tag k="addr:street" v="Route 121" />
    <tag k="addr:state" v="VT" />
    <tag k="ref:vcgi:esiteid" v="295029" />
  </node>
  <node id="-188" visible="true" lat="43.20051956" lon="-72.73227691">
    <tag k="addr:housenumber" v="1268" />
    <tag k="addr:street" v="Route 121" />
    <tag k="addr:state" v="VT" />
    <tag k="ref:vcgi:esiteid" v="295030" />
  </node>
  <node id="-189" visible="true" lat="43.20032119" lon="-72.73709869">
    <tag k="addr:housenumber" v="472" />
    <tag k="addr:street" v="Windham Springs" />
    <tag k="addr:state" v="VT" />
    <tag k="ref:vcgi:esiteid" v="295031" />
  </node>
  <node id="-190" visible="true" lat="43.20032882" lon="-72.72927856">
    <tag k="addr:housenumber" v="1449" />
    <tag k="addr:street" v="Route 121" />
    <tag k="addr:state" v="VT" />
    <tag k="ref:vcgi:esiteid" v="295032" />
  </node>
  <node id="-191" visible="true" lat="43.20001983" lon="-72.73159027">
    <tag k="addr:housenumber" v="1306" />
    <tag k="addr:street" v="Route 121" />
    <tag k="addr:state" v="VT" />
    <tag k="ref:vcgi:esiteid" v="295033" />
  </node>
  <node id="-192" visible="true" lat="43.19941328" lon="-72.73304799">
    <tag k="addr:housenumber" v="190" />
    <tag k="addr:street" v="Windham Springs" />
    <tag k="addr:state" v="VT" />
    <tag k="ref:vcgi:esiteid" v="295034" />
  </node>
  <node id="-193" visible="true" lat="43.19947433" lon="-72.69467926">
    <tag k="addr:housenumber" v="2105" />
    <tag k="addr:street" v="White Road" />
    <tag k="addr:state" v="VT" />
    <tag k="ref:vcgi:esiteid" v="295035" />
  </node>
  <node id="-194" visible="true" lat="43.19932554" lon="-72.73235372">
    <tag k="addr:housenumber" v="154" />
    <tag k="addr:street" v="Windham Springs" />
    <tag k="addr:state" v="VT" />
    <tag k="ref:vcgi:esiteid" v="295036" />
  </node>
  <node id="-195" visible="true" lat="43.19927597" lon="-72.73174285">
    <tag k="addr:housenumber" v="122" />
    <tag k="addr:street" v="Windham Springs" />
    <tag k="addr:state" v="VT" />
    <tag k="ref:vcgi:esiteid" v="295037" />
  </node>
  <node id="-196" visible="true" lat="43.19926834" lon="-72.7300415">
    <tag k="addr:housenumber" v="1400" />
    <tag k="addr:street" v="Route 121" />
    <tag k="addr:state" v="VT" />
    <tag k="ref:vcgi:esiteid" v="295038" />
  </node>
  <node id="-197" visible="true" lat="43.19910048" lon="-72.73278097">
    <tag k="addr:housenumber" v="173" />
    <tag k="addr:street" v="Windham Springs" />
    <tag k="addr:state" v="VT" />
    <tag k="ref:vcgi:esiteid" v="295039" />
  </node>
  <node id="-198" visible="true" lat="43.19898223" lon="-72.73367309">
    <tag k="addr:housenumber" v="229" />
    <tag k="addr:street" v="Windham Springs" />
    <tag k="addr:state" v="VT" />
    <tag k="ref:vcgi:esiteid" v="295040" />
  </node>
  <node id="-199" visible="true" lat="43.19896698" lon="-72.73555755">
    <tag k="addr:housenumber" v="315" />
    <tag k="addr:street" v="Windham Springs" />
    <tag k="addr:state" v="VT" />
    <tag k="ref:vcgi:esiteid" v="295041" />
  </node>
  <node id="-200" visible="true" lat="43.19900512" lon="-72.69350433">
    <tag k="addr:housenumber" v="2181" />
    <tag k="addr:street" v="White Road" />
    <tag k="addr:state" v="VT" />
    <tag k="ref:vcgi:esiteid" v="295042" />
  </node>
  <node id="-201" visible="true" lat="43.19895887" lon="-72.67827608">
    <tag k="addr:housenumber" v="4287" />
    <tag k="addr:street" v="Route 121" />
    <tag k="addr:state" v="VT" />
    <tag k="ref:vcgi:esiteid" v="295043" />
  </node>
  <node id="-202" visible="true" lat="43.19887924" lon="-72.69624328">
    <tag k="addr:housenumber" v="111" />
    <tag k="addr:street" v="Mercy Lane" />
    <tag k="addr:state" v="VT" />
    <tag k="ref:vcgi:esiteid" v="295044" />
  </node>
  <node id="-203" visible="true" lat="43.19886016" lon="-72.69728088">
    <tag k="addr:housenumber" v="3133" />
    <tag k="addr:street" v="Route 121" />
    <tag k="addr:state" v="VT" />
    <tag k="ref:vcgi:esiteid" v="295045" />
  </node>
  <node id="-204" visible="true" lat="43.19877243" lon="-72.73169708">
    <tag k="addr:housenumber" v="121" />
    <tag k="addr:street" v="Windham Springs" />
    <tag k="addr:state" v="VT" />
    <tag k="ref:vcgi:esiteid" v="295046" />
  </node>
  <node id="-205" visible="true" lat="43.1988182" lon="-72.69824218">
    <tag k="addr:housenumber" v="3091" />
    <tag k="addr:street" v="Route 121" />
    <tag k="addr:state" v="VT" />
    <tag k="ref:vcgi:esiteid" v="295047" />
  </node>
  <node id="-206" visible="true" lat="43.1985054" lon="-72.73050689">
    <tag k="addr:housenumber" v="68" />
    <tag k="addr:street" v="Glebe Mountain Road" />
    <tag k="addr:state" v="VT" />
    <tag k="ref:vcgi:esiteid" v="295048" />
  </node>
  <node id="-207" visible="true" lat="43.19849777" lon="-72.72894287">
    <tag k="addr:housenumber" v="27" />
    <tag k="addr:street" v="Glebe Mountain Road" />
    <tag k="addr:state" v="VT" />
    <tag k="ref:vcgi:esiteid" v="295049" />
  </node>
  <node id="-208" visible="true" lat="43.19836044" lon="-72.69230651">
    <tag k="addr:housenumber" v="2253" />
    <tag k="addr:street" v="White Road" />
    <tag k="addr:state" v="VT" />
    <tag k="ref:vcgi:esiteid" v="295050" />
  </node>
  <node id="-209" visible="true" lat="43.19814682" lon="-72.72931671">
    <tag k="addr:housenumber" v="55" />
    <tag k="addr:street" v="Glebe Mountain Road" />
    <tag k="addr:state" v="VT" />
    <tag k="ref:vcgi:esiteid" v="295051" />
  </node>
  <node id="-210" visible="true" lat="43.19802474" lon="-72.72774505">
    <tag k="addr:housenumber" v="34" />
    <tag k="addr:street" v="Timber Ridge Road" />
    <tag k="addr:state" v="VT" />
    <tag k="ref:vcgi:esiteid" v="295052" />
  </node>
  <node id="-211" visible="true" lat="43.19792645" lon="-72.72656951">
    <tag k="addr:housenumber" v="31" />
    <tag k="addr:street" v="Timber Ridge Road" />
    <tag k="addr:state" v="VT" />
    <tag k="ref:vcgi:esiteid" v="295053" />
  </node>
  <node id="-212" visible="true" lat="43.19778059" lon="-72.73391775">
    <tag k="addr:housenumber" v="756" />
    <tag k="addr:street" v="Birch Hill Road" />
    <tag k="addr:state" v="VT" />
    <tag k="ref:vcgi:esiteid" v="295054" />
  </node>
  <node id="-213" visible="true" lat="43.1975975" lon="-72.73268127">
    <tag k="addr:housenumber" v="710" />
    <tag k="addr:street" v="Birch Hill Road" />
    <tag k="addr:state" v="VT" />
    <tag k="ref:vcgi:esiteid" v="295055" />
  </node>
  <node id="-214" visible="true" lat="43.19758224" lon="-72.71921539">
    <tag k="addr:housenumber" v="1963" />
    <tag k="addr:street" v="Route 121" />
    <tag k="addr:state" v="VT" />
    <tag k="ref:vcgi:esiteid" v="295056" />
  </node>
  <node id="-215" visible="true" lat="43.19741439" lon="-72.71991729">
    <tag k="addr:housenumber" v="8273" />
    <tag k="addr:street" v="Windham Hill Road" />
    <tag k="addr:state" v="VT" />
    <tag k="ref:vcgi:esiteid" v="295057" />
  </node>
  <node id="-216" visible="true" lat="43.19723128" lon="-72.73243001">
    <tag k="addr:housenumber" v="688" />
    <tag k="addr:street" v="Birch Hill Road" />
    <tag k="addr:state" v="VT" />
    <tag k="ref:vcgi:esiteid" v="295058" />
  </node>
  <node id="-217" visible="true" lat="43.19715881" lon="-72.72841644">
    <tag k="addr:housenumber" v="166" />
    <tag k="addr:street" v="Timber Ridge Road" />
    <tag k="addr:state" v="VT" />
    <tag k="ref:vcgi:esiteid" v="295059" />
  </node>
  <node id="-218" visible="true" lat="43.19699859" lon="-72.72775268">
    <tag k="addr:housenumber" v="98" />
    <tag k="addr:street" v="Timber Ridge Road" />
    <tag k="addr:state" v="VT" />
    <tag k="ref:vcgi:esiteid" v="295060" />
  </node>
  <node id="-219" visible="true" lat="43.19696426" lon="-72.72678375">
    <tag k="addr:housenumber" v="87" />
    <tag k="addr:street" v="Timber Ridge Road" />
    <tag k="addr:state" v="VT" />
    <tag k="ref:vcgi:esiteid" v="295061" />
  </node>
  <node id="-220" visible="true" lat="43.19690703" lon="-72.73338369">
    <tag k="addr:housenumber" v="727" />
    <tag k="addr:street" v="Birch Hill Road" />
    <tag k="addr:state" v="VT" />
    <tag k="ref:vcgi:esiteid" v="295062" />
  </node>
  <node id="-221" visible="true" lat="43.19678878" lon="-72.70433807">
    <tag k="addr:housenumber" v="115" />
    <tag k="addr:street" v="Dillon Drive" />
    <tag k="addr:state" v="VT" />
    <tag k="ref:vcgi:esiteid" v="295063" />
  </node>
  <node id="-222" visible="true" lat="43.19655607" lon="-72.73449758">
    <tag k="addr:housenumber" v="848" />
    <tag k="addr:street" v="Birch Hill Road" />
    <tag k="addr:state" v="VT" />
    <tag k="ref:vcgi:esiteid" v="295064" />
  </node>
  <node id="-223" visible="true" lat="43.19640464" lon="-72.72868629">
    <tag k="addr:housenumber" v="175" />
    <tag k="addr:street" v="Timber Ridge Road" />
    <tag k="addr:state" v="VT" />
    <tag k="ref:vcgi:esiteid" v="295065" />
  </node>
  <node id="-224" visible="true" lat="43.19628143" lon="-72.72941589">
    <tag k="addr:housenumber" v="237" />
    <tag k="addr:street" v="Timber Ridge Road" />
    <tag k="addr:state" v="VT" />
    <tag k="ref:vcgi:esiteid" v="295066" />
  </node>
  <node id="-225" visible="true" lat="43.19602583" lon="-72.73458913">
    <tag k="addr:housenumber" v="940" />
    <tag k="addr:street" v="Birch Hill Road" />
    <tag k="addr:state" v="VT" />
    <tag k="ref:vcgi:esiteid" v="295067" />
  </node>
  <node id="-226" visible="true" lat="43.19588087" lon="-72.73288015">
    <tag k="addr:housenumber" v="631" />
    <tag k="addr:street" v="Birch Hill Road" />
    <tag k="addr:state" v="VT" />
    <tag k="ref:vcgi:esiteid" v="295068" />
  </node>
  <node id="-227" visible="true" lat="43.19586191" lon="-72.72857399">
    <tag k="addr:housenumber" v="65" />
    <tag k="addr:street" v="Big Buck Lane" />
    <tag k="addr:state" v="VT" />
    <tag k="ref:vcgi:esiteid" v="295069" />
  </node>
  <node id="-228" visible="true" lat="43.1957321" lon="-72.73146108">
    <tag k="addr:housenumber" v="578" />
    <tag k="addr:street" v="Birch Hill Road" />
    <tag k="addr:state" v="VT" />
    <tag k="ref:vcgi:esiteid" v="295070" />
  </node>
  <node id="-229" visible="true" lat="43.19540023" lon="-72.72763824">
    <tag k="addr:housenumber" v="19" />
    <tag k="addr:street" v="Big Buck Lane" />
    <tag k="addr:state" v="VT" />
    <tag k="ref:vcgi:esiteid" v="295071" />
  </node>
  <node id="-230" visible="true" lat="43.19530486" lon="-72.73387145">
    <tag k="addr:housenumber" v="901" />
    <tag k="addr:street" v="Birch Hill Road" />
    <tag k="addr:state" v="VT" />
    <tag k="ref:vcgi:esiteid" v="295072" />
  </node>
  <node id="-231" visible="true" lat="43.19518661" lon="-72.73213195">
    <tag k="addr:housenumber" v="561" />
    <tag k="addr:street" v="Birch Hill Road" />
    <tag k="addr:state" v="VT" />
    <tag k="ref:vcgi:esiteid" v="295073" />
  </node>
  <node id="-232" visible="true" lat="43.19515991" lon="-72.72097778">
    <tag k="addr:housenumber" v="8117" />
    <tag k="addr:street" v="Windham Hill Road" />
    <tag k="addr:state" v="VT" />
    <tag k="ref:vcgi:esiteid" v="295074" />
  </node>
  <node id="-233" visible="true" lat="43.19501875" lon="-72.73414663">
    <tag k="addr:housenumber" v="1021" />
    <tag k="addr:street" v="Birch Hill Road" />
    <tag k="addr:state" v="VT" />
    <tag k="ref:vcgi:esiteid" v="295075" />
  </node>
  <node id="-234" visible="true" lat="43.19494247" lon="-72.73439025">
    <tag k="addr:housenumber" v="1019" />
    <tag k="addr:street" v="Birch Hill Road" />
    <tag k="addr:state" v="VT" />
    <tag k="ref:vcgi:esiteid" v="295076" />
  </node>
  <node id="-235" visible="true" lat="43.19480514" lon="-72.73451995">
    <tag k="addr:housenumber" v="1017" />
    <tag k="addr:street" v="Birch Hill Road" />
    <tag k="addr:state" v="VT" />
    <tag k="ref:vcgi:esiteid" v="295077" />
  </node>
  <node id="-236" visible="true" lat="43.19477842" lon="-72.73410848">
    <tag k="addr:housenumber" v="1023" />
    <tag k="addr:street" v="Birch Hill Road" />
    <tag k="addr:state" v="VT" />
    <tag k="ref:vcgi:esiteid" v="295078" />
  </node>
  <node id="-237" visible="true" lat="43.19478988" lon="-72.72736358">
    <tag k="addr:housenumber" v="174" />
    <tag k="addr:street" v="Spruce Road" />
    <tag k="addr:state" v="VT" />
    <tag k="ref:vcgi:esiteid" v="295079" />
  </node>
  <node id="-238" visible="true" lat="43.19456863" lon="-72.70390319">
    <tag k="addr:housenumber" v="130" />
    <tag k="addr:street" v="Dillon Drive" />
    <tag k="addr:state" v="VT" />
    <tag k="ref:vcgi:esiteid" v="295080" />
  </node>
  <node id="-239" visible="true" lat="43.19456481" lon="-72.701622">
    <tag k="addr:housenumber" v="184" />
    <tag k="addr:street" v="Dillon Drive" />
    <tag k="addr:state" v="VT" />
    <tag k="ref:vcgi:esiteid" v="295081" />
  </node>
  <node id="-240" visible="true" lat="43.19437408" lon="-72.7264328">
    <tag k="addr:housenumber" v="205" />
    <tag k="addr:street" v="Spruce Road" />
    <tag k="addr:state" v="VT" />
    <tag k="ref:vcgi:esiteid" v="295082" />
  </node>
  <node id="-241" visible="true" lat="43.19438645" lon="-72.72749916">
    <tag k="addr:housenumber" v="206" />
    <tag k="addr:street" v="Spruce Road" />
    <tag k="addr:state" v="VT" />
    <tag k="ref:vcgi:esiteid" v="295083" />
  </node>
  <node id="-242" visible="true" lat="43.19394683" lon="-72.72215271">
    <tag k="addr:housenumber" v="7995" />
    <tag k="addr:street" v="Windham Hill Road" />
    <tag k="addr:state" v="VT" />
    <tag k="ref:vcgi:esiteid" v="295084" />
  </node>
  <node id="-243" visible="true" lat="43.19371795" lon="-72.72621917">
    <tag k="addr:housenumber" v="221" />
    <tag k="addr:street" v="Spruce Road" />
    <tag k="addr:state" v="VT" />
    <tag k="ref:vcgi:esiteid" v="295086" />
  </node>
  <node id="-244" visible="true" lat="43.19298553" lon="-72.72223663">
    <tag k="addr:housenumber" v="7937" />
    <tag k="addr:street" v="Windham Hill Road" />
    <tag k="addr:state" v="VT" />
    <tag k="ref:vcgi:esiteid" v="295087" />
  </node>
  <node id="-245" visible="true" lat="43.19283645" lon="-72.7297705">
    <tag k="addr:housenumber" v="472" />
    <tag k="addr:street" v="Glebe Mountain Road" />
    <tag k="addr:state" v="VT" />
    <tag k="ref:vcgi:esiteid" v="295088" />
  </node>
  <node id="-246" visible="true" lat="43.19252014" lon="-72.72641754">
    <tag k="addr:housenumber" v="321" />
    <tag k="addr:street" v="Spruce Road" />
    <tag k="addr:state" v="VT" />
    <tag k="ref:vcgi:esiteid" v="295089" />
  </node>
  <node id="-247" visible="true" lat="43.19209289" lon="-72.72306823">
    <tag k="addr:housenumber" v="1147" />
    <tag k="addr:street" v="Harrington Road" />
    <tag k="addr:state" v="VT" />
    <tag k="ref:vcgi:esiteid" v="295090" />
  </node>
  <node id="-248" visible="true" lat="43.19204711" lon="-72.72964477">
    <tag k="addr:housenumber" v="471" />
    <tag k="addr:street" v="Glebe Mountain Road" />
    <tag k="addr:state" v="VT" />
    <tag k="ref:vcgi:esiteid" v="295091" />
  </node>
  <node id="-249" visible="true" lat="43.19174957" lon="-72.73085784">
    <tag k="addr:housenumber" v="566" />
    <tag k="addr:street" v="Glebe Mountain Road" />
    <tag k="addr:state" v="VT" />
    <tag k="ref:vcgi:esiteid" v="295092" />
  </node>
  <node id="-250" visible="true" lat="43.19128799" lon="-72.72877502">
    <tag k="addr:housenumber" v="473" />
    <tag k="addr:street" v="Glebe Mountain Road" />
    <tag k="addr:state" v="VT" />
    <tag k="ref:vcgi:esiteid" v="295093" />
  </node>
  <node id="-251" visible="true" lat="43.19112777" lon="-72.72173309">
    <tag k="addr:housenumber" v="7798" />
    <tag k="addr:street" v="Windham Hill Road" />
    <tag k="addr:state" v="VT" />
    <tag k="ref:vcgi:esiteid" v="295094" />
  </node>
  <node id="-252" visible="true" lat="43.1909828" lon="-72.73022512">
    <tag k="addr:housenumber" v="603" />
    <tag k="addr:street" v="Glebe Mountain Road" />
    <tag k="addr:state" v="VT" />
    <tag k="ref:vcgi:esiteid" v="295095" />
  </node>
  <node id="-253" visible="true" lat="43.19069288" lon="-72.73133138">
    <tag k="addr:housenumber" v="632" />
    <tag k="addr:street" v="Glebe Mountain Road" />
    <tag k="addr:state" v="VT" />
    <tag k="ref:vcgi:esiteid" v="295096" />
  </node>
  <node id="-254" visible="true" lat="43.1898384" lon="-72.72689819">
    <tag k="addr:housenumber" v="861" />
    <tag k="addr:street" v="Glebe Mountain Road" />
    <tag k="addr:state" v="VT" />
    <tag k="ref:vcgi:esiteid" v="295097" />
  </node>
  <node id="-255" visible="true" lat="43.18946075" lon="-72.72587585">
    <tag k="addr:housenumber" v="879" />
    <tag k="addr:street" v="Glebe Mountain Road" />
    <tag k="addr:state" v="VT" />
    <tag k="ref:vcgi:esiteid" v="295098" />
  </node>
  <node id="-256" visible="true" lat="43.18925475" lon="-72.72860769">
    <tag k="addr:housenumber" v="738" />
    <tag k="addr:street" v="Glebe Mountain Road" />
    <tag k="addr:state" v="VT" />
    <tag k="ref:vcgi:esiteid" v="295099" />
  </node>
  <node id="-257" visible="true" lat="43.18917465" lon="-72.72782897">
    <tag k="addr:housenumber" v="814" />
    <tag k="addr:street" v="Glebe Mountain Road" />
    <tag k="addr:state" v="VT" />
    <tag k="ref:vcgi:esiteid" v="295100" />
  </node>
  <node id="-258" visible="true" lat="43.18882369" lon="-72.72708892">
    <tag k="addr:housenumber" v="926" />
    <tag k="addr:street" v="Glebe Mountain Road" />
    <tag k="addr:state" v="VT" />
    <tag k="ref:vcgi:esiteid" v="295101" />
  </node>
  <node id="-259" visible="true" lat="43.18592834" lon="-72.71968078">
    <tag k="addr:housenumber" v="7368" />
    <tag k="addr:street" v="Windham Hill Road" />
    <tag k="addr:state" v="VT" />
    <tag k="ref:vcgi:esiteid" v="295102" />
  </node>
  <node id="-260" visible="true" lat="43.18547821" lon="-72.72071075">
    <tag k="addr:housenumber" v="7406" />
    <tag k="addr:street" v="Windham Hill Road" />
    <tag k="addr:state" v="VT" />
    <tag k="ref:vcgi:esiteid" v="295103" />
  </node>
  <node id="-261" visible="true" lat="43.18524551" lon="-72.72142791">
    <tag k="addr:housenumber" v="7393" />
    <tag k="addr:street" v="Windham Hill Road" />
    <tag k="addr:state" v="VT" />
    <tag k="ref:vcgi:esiteid" v="295104" />
  </node>
  <node id="-262" visible="true" lat="43.18403244" lon="-72.72256469">
    <tag k="addr:housenumber" v="7271" />
    <tag k="addr:street" v="Windham Hill Road" />
    <tag k="addr:state" v="VT" />
    <tag k="ref:vcgi:esiteid" v="295105" />
  </node>
  <node id="-263" visible="true" lat="43.18368829" lon="-72.72672172">
    <tag k="addr:housenumber" v="254" />
    <tag k="addr:street" v="Harrington Road" />
    <tag k="addr:state" v="VT" />
    <tag k="ref:vcgi:esiteid" v="295106" />
  </node>
  <node id="-264" visible="true" lat="43.18276214" lon="-72.72343444">
    <tag k="addr:housenumber" v="7173" />
    <tag k="addr:street" v="Windham Hill Road" />
    <tag k="addr:state" v="VT" />
    <tag k="ref:vcgi:esiteid" v="295107" />
  </node>
  <node id="-265" visible="true" lat="43.18195341" lon="-72.7276006">
    <tag k="addr:housenumber" v="176" />
    <tag k="addr:street" v="Harrington Road" />
    <tag k="addr:state" v="VT" />
    <tag k="ref:vcgi:esiteid" v="295108" />
  </node>
  <node id="-266" visible="true" lat="43.18170166" lon="-72.72481536">
    <tag k="addr:housenumber" v="7071" />
    <tag k="addr:street" v="Windham Hill Road" />
    <tag k="addr:state" v="VT" />
    <tag k="ref:vcgi:esiteid" v="295109" />
  </node>
  <node id="-267" visible="true" lat="43.181324" lon="-72.72423553">
    <tag k="addr:housenumber" v="7072" />
    <tag k="addr:street" v="Windham Hill Road" />
    <tag k="addr:state" v="VT" />
    <tag k="ref:vcgi:esiteid" v="295111" />
  </node>
  <node id="-268" visible="true" lat="43.18117236" lon="-72.72685179">
    <tag k="addr:housenumber" v="100" />
    <tag k="addr:street" v="Harrington Road" />
    <tag k="addr:state" v="VT" />
    <tag k="ref:vcgi:esiteid" v="295112" />
  </node>
  <node id="-269" visible="true" lat="43.18101882" lon="-72.72470092">
    <tag k="addr:housenumber" v="7038" />
    <tag k="addr:street" v="Windham Hill Road" />
    <tag k="addr:state" v="VT" />
    <tag k="ref:vcgi:esiteid" v="295114" />
  </node>
  <node id="-270" visible="true" lat="43.18067932" lon="-72.72640991">
    <tag k="addr:housenumber" v="54" />
    <tag k="addr:street" v="Harrington Road" />
    <tag k="addr:state" v="VT" />
    <tag k="ref:vcgi:esiteid" v="295115" />
  </node>
  <node id="-271" visible="true" lat="43.18069816" lon="-72.72579613">
    <tag k="addr:housenumber" v="26" />
    <tag k="addr:street" v="Harrington Road" />
    <tag k="addr:state" v="VT" />
    <tag k="ref:vcgi:esiteid" v="295116" />
  </node>
  <node id="-272" visible="true" lat="43.18032455" lon="-72.72503662">
    <tag k="addr:housenumber" v="6984" />
    <tag k="addr:street" v="Windham Hill Road" />
    <tag k="addr:state" v="VT" />
    <tag k="ref:vcgi:esiteid" v="295118" />
  </node>
  <node id="-273" visible="true" lat="43.1801981" lon="-72.72601904">
    <tag k="addr:housenumber" v="19" />
    <tag k="addr:street" v="Harrington Road" />
    <tag k="addr:state" v="VT" />
    <tag k="ref:vcgi:esiteid" v="295119" />
  </node>
  <node id="-274" visible="true" lat="43.17978286" lon="-72.7260971">
    <tag k="addr:housenumber" v="6929" />
    <tag k="addr:street" v="Windham Hill Road" />
    <tag k="addr:state" v="VT" />
    <tag k="ref:vcgi:esiteid" v="295120" />
  </node>
  <node id="-275" visible="true" lat="43.17972677" lon="-72.72666103">
    <tag k="addr:housenumber" v="48" />
    <tag k="addr:street" v="Corn Hill Road" />
    <tag k="addr:state" v="VT" />
    <tag k="ref:vcgi:esiteid" v="295121" />
  </node>
  <node id="-276" visible="true" lat="43.17958934" lon="-72.72618988">
    <tag k="addr:housenumber" v="22" />
    <tag k="addr:street" v="Corn Hill Road" />
    <tag k="addr:state" v="VT" />
    <tag k="ref:vcgi:esiteid" v="295122" />
  </node>
  <node id="-277" visible="true" lat="43.17932886" lon="-72.72625507">
    <tag k="addr:housenumber" v="11" />
    <tag k="addr:street" v="Corn Hill Road" />
    <tag k="addr:state" v="VT" />
    <tag k="ref:vcgi:esiteid" v="295123" />
  </node>
  <node id="-278" visible="true" lat="43.17921637" lon="-72.72556283">
    <tag k="addr:housenumber" v="6900" />
    <tag k="addr:street" v="Windham Hill Road" />
    <tag k="addr:state" v="VT" />
    <tag k="ref:vcgi:esiteid" v="295124" />
  </node>
  <node id="-279" visible="true" lat="43.17886564" lon="-72.72657506">
    <tag k="addr:housenumber" v="6865" />
    <tag k="addr:street" v="Windham Hill Road" />
    <tag k="addr:state" v="VT" />
    <tag k="ref:vcgi:esiteid" v="295125" />
  </node>
  <node id="-280" visible="true" lat="43.17847824" lon="-72.72593688">
    <tag k="addr:housenumber" v="6844" />
    <tag k="addr:street" v="Windham Hill Road" />
    <tag k="addr:state" v="VT" />
    <tag k="ref:vcgi:esiteid" v="295126" />
  </node>
  <node id="-281" visible="true" lat="43.17742919" lon="-72.72654724">
    <tag k="addr:housenumber" v="6769" />
    <tag k="addr:street" v="Windham Hill Road" />
    <tag k="addr:state" v="VT" />
    <tag k="ref:vcgi:esiteid" v="295127" />
  </node>
  <node id="-282" visible="true" lat="43.17648696" lon="-72.72601318">
    <tag k="addr:housenumber" v="6706" />
    <tag k="addr:street" v="Windham Hill Road" />
    <tag k="addr:state" v="VT" />
    <tag k="ref:vcgi:esiteid" v="295128" />
  </node>
  <node id="-283" visible="true" lat="43.17558288" lon="-72.72668456">
    <tag k="addr:housenumber" v="6641" />
    <tag k="addr:street" v="Windham Hill Road" />
    <tag k="addr:state" v="VT" />
    <tag k="ref:vcgi:esiteid" v="295129" />
  </node>
  <node id="-284" visible="true" lat="43.175354" lon="-72.72621154">
    <tag k="addr:housenumber" v="6626" />
    <tag k="addr:street" v="Windham Hill Road" />
    <tag k="addr:state" v="VT" />
    <tag k="ref:vcgi:esiteid" v="295130" />
  </node>
  <node id="-285" visible="true" lat="43.17530058" lon="-72.7351003">
    <tag k="addr:housenumber" v="542" />
    <tag k="addr:street" v="Old Farm Road" />
    <tag k="addr:state" v="VT" />
    <tag k="ref:vcgi:esiteid" v="295131" />
  </node>
  <node id="-286" visible="true" lat="43.17425154" lon="-72.72591451">
    <tag k="addr:housenumber" v="6564" />
    <tag k="addr:street" v="Windham Hill Road" />
    <tag k="addr:state" v="VT" />
    <tag k="ref:vcgi:esiteid" v="295132" />
  </node>
  <node id="-287" visible="true" lat="43.17111968" lon="-72.71528625">
    <tag k="addr:housenumber" v="406" />
    <tag k="addr:street" v="Woodburn Road" />
    <tag k="addr:state" v="VT" />
    <tag k="ref:vcgi:esiteid" v="295134" />
  </node>
  <node id="-288" visible="true" lat="43.17095946" lon="-72.72801259">
    <tag k="addr:housenumber" v="84" />
    <tag k="addr:street" v="Stone Bridge Road" />
    <tag k="addr:state" v="VT" />
    <tag k="ref:vcgi:esiteid" v="295135" />
  </node>
  <node id="-289" visible="true" lat="43.17069948" lon="-72.71613767">
    <tag k="addr:housenumber" v="355" />
    <tag k="addr:street" v="Woodburn Road" />
    <tag k="addr:state" v="VT" />
    <tag k="ref:vcgi:esiteid" v="295136" />
  </node>
  <node id="-290" visible="true" lat="43.17035293" lon="-72.72868347">
    <tag k="addr:housenumber" v="103" />
    <tag k="addr:street" v="Stone Bridge Road" />
    <tag k="addr:state" v="VT" />
    <tag k="ref:vcgi:esiteid" v="295137" />
  </node>
  <node id="-291" visible="true" lat="43.16972144" lon="-72.71611">
    <tag k="addr:housenumber" v="306" />
    <tag k="addr:street" v="Woodburn Road" />
    <tag k="addr:state" v="VT" />
    <tag k="ref:vcgi:esiteid" v="295138" />
  </node>
  <node id="-292" visible="true" lat="43.16935729" lon="-72.71740722">
    <tag k="addr:housenumber" v="34" />
    <tag k="addr:street" v="Cross Road" />
    <tag k="addr:state" v="VT" />
    <tag k="ref:vcgi:esiteid" v="295139" />
  </node>
  <node id="-293" visible="true" lat="43.16918945" lon="-72.71652221">
    <tag k="addr:housenumber" v="254" />
    <tag k="addr:street" v="Woodburn Road" />
    <tag k="addr:state" v="VT" />
    <tag k="ref:vcgi:esiteid" v="295140" />
  </node>
  <node id="-294" visible="true" lat="43.16901397" lon="-72.71598815">
    <tag k="addr:housenumber" v="256" />
    <tag k="addr:street" v="Woodburn Road" />
    <tag k="addr:state" v="VT" />
    <tag k="ref:vcgi:esiteid" v="295141" />
  </node>
  <node id="-295" visible="true" lat="43.16876983" lon="-72.71678924">
    <tag k="addr:housenumber" v="212" />
    <tag k="addr:street" v="Woodburn Road" />
    <tag k="addr:state" v="VT" />
    <tag k="ref:vcgi:esiteid" v="295142" />
  </node>
  <node id="-296" visible="true" lat="43.16862869" lon="-72.71736907">
    <tag k="addr:housenumber" v="219" />
    <tag k="addr:street" v="Woodburn Road" />
    <tag k="addr:state" v="VT" />
    <tag k="ref:vcgi:esiteid" v="295143" />
  </node>
  <node id="-297" visible="true" lat="43.16863809" lon="-72.72709196">
    <tag k="addr:housenumber" v="6149" />
    <tag k="addr:street" v="Windham Hill Road" />
    <tag k="addr:state" v="VT" />
    <tag k="ref:vcgi:esiteid" v="295144" />
  </node>
  <node id="-298" visible="true" lat="43.16776657" lon="-72.71694183">
    <tag k="addr:housenumber" v="147" />
    <tag k="addr:street" v="Woodburn Road" />
    <tag k="addr:state" v="VT" />
    <tag k="ref:vcgi:esiteid" v="295145" />
  </node>
  <node id="-299" visible="true" lat="43.16765067" lon="-72.71502175">
    <tag k="addr:housenumber" v="527" />
    <tag k="addr:street" v="Abbott Road" />
    <tag k="addr:state" v="VT" />
    <tag k="ref:vcgi:esiteid" v="295146" />
  </node>
  <node id="-300" visible="true" lat="43.16628648" lon="-72.72538497">
    <tag k="addr:housenumber" v="5976" />
    <tag k="addr:street" v="Windham Hill Road" />
    <tag k="addr:state" v="VT" />
    <tag k="ref:vcgi:esiteid" v="295147" />
  </node>
  <node id="-301" visible="true" lat="43.16619873" lon="-72.71587371">
    <tag k="addr:housenumber" v="32" />
    <tag k="addr:street" v="Woodburn Road" />
    <tag k="addr:state" v="VT" />
    <tag k="ref:vcgi:esiteid" v="295149" />
  </node>
  <node id="-302" visible="true" lat="43.1658123" lon="-72.7253125">
    <tag k="addr:housenumber" v="5940" />
    <tag k="addr:street" v="Windham Hill Road" />
    <tag k="addr:state" v="VT" />
    <tag k="ref:vcgi:esiteid" v="295150" />
  </node>
  <node id="-303" visible="true" lat="43.16558333" lon="-72.71669444">
    <tag k="addr:housenumber" v="429" />
    <tag k="addr:street" v="Abbott Road" />
    <tag k="addr:state" v="VT" />
    <tag k="ref:vcgi:esiteid" v="295152" />
  </node>
  <node id="-304" visible="true" lat="43.16525204" lon="-72.71605546">
    <tag k="addr:housenumber" v="424" />
    <tag k="addr:street" v="Abbott Road" />
    <tag k="addr:state" v="VT" />
    <tag k="ref:vcgi:esiteid" v="295153" />
  </node>
  <node id="-305" visible="true" lat="43.16507339" lon="-72.72069549">
    <tag k="addr:housenumber" v="197" />
    <tag k="addr:street" v="Abbott Road" />
    <tag k="addr:state" v="VT" />
    <tag k="ref:vcgi:esiteid" v="295154" />
  </node>
  <node id="-306" visible="true" lat="43.16464232" lon="-72.72026112">
    <tag k="addr:housenumber" v="223" />
    <tag k="addr:street" v="Abbott Road" />
    <tag k="addr:state" v="VT" />
    <tag k="ref:vcgi:esiteid" v="295155" />
  </node>
  <node id="-307" visible="true" lat="43.16452406" lon="-72.72468617">
    <tag k="addr:housenumber" v="5852" />
    <tag k="addr:street" v="Windham Hill Road" />
    <tag k="addr:state" v="VT" />
    <tag k="ref:vcgi:esiteid" v="295156" />
  </node>
  <node id="-308" visible="true" lat="43.16451645" lon="-72.72097015">
    <tag k="addr:housenumber" v="187" />
    <tag k="addr:street" v="Abbott Road" />
    <tag k="addr:state" v="VT" />
    <tag k="ref:vcgi:esiteid" v="295157" />
  </node>
  <node id="-309" visible="true" lat="43.16423414" lon="-72.7204366">
    <tag k="addr:housenumber" v="210" />
    <tag k="addr:street" v="Abbott Road" />
    <tag k="addr:state" v="VT" />
    <tag k="ref:vcgi:esiteid" v="295158" />
  </node>
  <node id="-310" visible="true" lat="43.16413115" lon="-72.72107747">
    <tag k="addr:housenumber" v="176" />
    <tag k="addr:street" v="Abbott Road" />
    <tag k="addr:state" v="VT" />
    <tag k="ref:vcgi:esiteid" v="295159" />
  </node>
  <node id="-311" visible="true" lat="43.16388701" lon="-72.72213033">
    <tag k="addr:housenumber" v="118" />
    <tag k="addr:street" v="Abbott Road" />
    <tag k="addr:state" v="VT" />
    <tag k="ref:vcgi:esiteid" v="295160" />
  </node>
  <node id="-312" visible="true" lat="43.16377258" lon="-72.72259521">
    <tag k="addr:housenumber" v="92" />
    <tag k="addr:street" v="Abbott Road" />
    <tag k="addr:state" v="VT" />
    <tag k="ref:vcgi:esiteid" v="295161" />
  </node>
  <node id="-313" visible="true" lat="43.16362381" lon="-72.72302246">
    <tag k="addr:housenumber" v="68" />
    <tag k="addr:street" v="Abbott Road" />
    <tag k="addr:state" v="VT" />
    <tag k="ref:vcgi:esiteid" v="295162" />
  </node>
  <node id="-314" visible="true" lat="43.16403494" lon="-72.73974591">
    <tag k="addr:housenumber" v="781" />
    <tag k="addr:street" v="Ingalls Road" />
    <tag k="addr:state" v="VT" />
    <tag k="ref:vcgi:esiteid" v="295163" />
  </node>
  <node id="-315" visible="true" lat="43.16344069" lon="-72.72348836">
    <tag k="addr:housenumber" v="42" />
    <tag k="addr:street" v="Abbott Road" />
    <tag k="addr:state" v="VT" />
    <tag k="ref:vcgi:esiteid" v="295164" />
  </node>
  <node id="-316" visible="true" lat="43.16331863" lon="-72.71179962">
    <tag k="addr:housenumber" v="756" />
    <tag k="addr:street" v="Abbott Road" />
    <tag k="addr:state" v="VT" />
    <tag k="ref:vcgi:esiteid" v="295165" />
  </node>
  <node id="-317" visible="true" lat="43.16285704" lon="-72.72397664">
    <tag k="addr:housenumber" v="5736" />
    <tag k="addr:street" v="Windham Hill Road" />
    <tag k="addr:state" v="VT" />
    <tag k="ref:vcgi:esiteid" v="295166" />
  </node>
  <node id="-318" visible="true" lat="43.16218948" lon="-72.72402953">
    <tag k="addr:housenumber" v="5690" />
    <tag k="addr:street" v="Windham Hill Road" />
    <tag k="addr:state" v="VT" />
    <tag k="ref:vcgi:esiteid" v="295167" />
  </node>
  <node id="-319" visible="true" lat="43.16186904" lon="-72.72547149">
    <tag k="addr:housenumber" v="1739" />
    <tag k="addr:street" v="Burbee Pond Road" />
    <tag k="addr:state" v="VT" />
    <tag k="ref:vcgi:esiteid" v="295168" />
  </node>
  <node id="-320" visible="true" lat="43.16138076" lon="-72.72283935">
    <tag k="addr:housenumber" v="5622" />
    <tag k="addr:street" v="Windham Hill Road" />
    <tag k="addr:state" v="VT" />
    <tag k="ref:vcgi:esiteid" v="295169" />
  </node>
  <node id="-321" visible="true" lat="43.16072845" lon="-72.71031189">
    <tag k="addr:housenumber" v="950" />
    <tag k="addr:street" v="Abbott Road" />
    <tag k="addr:state" v="VT" />
    <tag k="ref:vcgi:esiteid" v="295170" />
  </node>
  <node id="-322" visible="true" lat="43.16043472" lon="-72.74204254">
    <tag k="addr:housenumber" v="503" />
    <tag k="addr:street" v="Ingalls Road" />
    <tag k="addr:state" v="VT" />
    <tag k="ref:vcgi:esiteid" v="295171" />
  </node>
  <node id="-323" visible="true" lat="43.16006088" lon="-72.72601318">
    <tag k="addr:housenumber" v="1614" />
    <tag k="addr:street" v="Burbee Pond Road" />
    <tag k="addr:state" v="VT" />
    <tag k="ref:vcgi:esiteid" v="295172" />
  </node>
  <node id="-324" visible="true" lat="43.15953826" lon="-72.7263031">
    <tag k="addr:housenumber" v="1574" />
    <tag k="addr:street" v="Burbee Pond Road" />
    <tag k="addr:state" v="VT" />
    <tag k="ref:vcgi:esiteid" v="295173" />
  </node>
  <node id="-325" visible="true" lat="43.15859603" lon="-72.72271155">
    <tag k="addr:housenumber" v="5458" />
    <tag k="addr:street" v="Windham Hill Road" />
    <tag k="addr:state" v="VT" />
    <tag k="ref:vcgi:esiteid" v="295174" />
  </node>
  <node id="-326" visible="true" lat="43.15828514" lon="-72.72983418">
    <tag k="addr:housenumber" v="1353" />
    <tag k="addr:street" v="Burbee Pond Road" />
    <tag k="addr:state" v="VT" />
    <tag k="ref:vcgi:esiteid" v="295175" />
  </node>
  <node id="-327" visible="true" lat="43.15812301" lon="-72.72464752">
    <tag k="addr:housenumber" v="5433" />
    <tag k="addr:street" v="Windham Hill Road" />
    <tag k="addr:state" v="VT" />
    <tag k="ref:vcgi:esiteid" v="295176" />
  </node>
  <node id="-328" visible="true" lat="43.15757122" lon="-72.72229645">
    <tag k="addr:housenumber" v="5388" />
    <tag k="addr:street" v="Windham Hill Road" />
    <tag k="addr:state" v="VT" />
    <tag k="ref:vcgi:esiteid" v="295177" />
  </node>
  <node id="-329" visible="true" lat="43.15716934" lon="-72.70602417">
    <tag k="addr:housenumber" v="1225" />
    <tag k="addr:street" v="Abbott Road" />
    <tag k="addr:state" v="VT" />
    <tag k="ref:vcgi:esiteid" v="295178" />
  </node>
  <node id="-330" visible="true" lat="43.1571083" lon="-72.72731781">
    <tag k="addr:housenumber" v="1397" />
    <tag k="addr:street" v="Burbee Pond Road" />
    <tag k="addr:state" v="VT" />
    <tag k="ref:vcgi:esiteid" v="295179" />
  </node>
  <node id="-331" visible="true" lat="43.1571083" lon="-72.70825195">
    <tag k="addr:housenumber" v="1230" />
    <tag k="addr:street" v="Abbott Road" />
    <tag k="addr:state" v="VT" />
    <tag k="ref:vcgi:esiteid" v="295180" />
  </node>
  <node id="-332" visible="true" lat="43.15703201" lon="-72.73036193">
    <tag k="addr:housenumber" v="1351" />
    <tag k="addr:street" v="Burbee Pond Road" />
    <tag k="addr:state" v="VT" />
    <tag k="ref:vcgi:esiteid" v="295181" />
  </node>
  <node id="-333" visible="true" lat="43.1567955" lon="-72.7258377">
    <tag k="addr:housenumber" v="1388" />
    <tag k="addr:street" v="Burbee Pond Road" />
    <tag k="addr:state" v="VT" />
    <tag k="ref:vcgi:esiteid" v="295182" />
  </node>
  <node id="-334" visible="true" lat="43.15673049" lon="-72.72420972">
    <tag k="addr:housenumber" v="5303" />
    <tag k="addr:street" v="Windham Hill Road" />
    <tag k="addr:state" v="VT" />
    <tag k="ref:vcgi:esiteid" v="295183" />
  </node>
  <node id="-335" visible="true" lat="43.15665807" lon="-72.72287937">
    <tag k="addr:housenumber" v="5300" />
    <tag k="addr:street" v="Windham Hill Road" />
    <tag k="addr:state" v="VT" />
    <tag k="ref:vcgi:esiteid" v="295184" />
  </node>
  <node id="-336" visible="true" lat="43.15659331" lon="-72.73959401">
    <tag k="addr:housenumber" v="308" />
    <tag k="addr:street" v="Ingalls Road" />
    <tag k="addr:state" v="VT" />
    <tag k="ref:vcgi:esiteid" v="295185" />
  </node>
  <node id="-337" visible="true" lat="43.15639114" lon="-72.75611877">
    <tag k="addr:housenumber" v="718" />
    <tag k="addr:street" v="Golding Road" />
    <tag k="addr:state" v="VT" />
    <tag k="ref:vcgi:esiteid" v="295186" />
  </node>
  <node id="-338" visible="true" lat="43.15620039" lon="-72.74889424">
    <tag k="addr:housenumber" v="376" />
    <tag k="addr:street" v="Golding Road" />
    <tag k="addr:state" v="VT" />
    <tag k="ref:vcgi:esiteid" v="295187" />
  </node>
  <node id="-339" visible="true" lat="43.15609116" lon="-72.72346895">
    <tag k="addr:housenumber" v="5271" />
    <tag k="addr:street" v="Windham Hill Road" />
    <tag k="addr:state" v="VT" />
    <tag k="ref:vcgi:esiteid" v="295188" />
  </node>
  <node id="-340" visible="true" lat="43.15608596" lon="-72.72668457">
    <tag k="addr:housenumber" v="1334" />
    <tag k="addr:street" v="Burbee Pond Road" />
    <tag k="addr:state" v="VT" />
    <tag k="ref:vcgi:esiteid" v="295189" />
  </node>
  <node id="-341" visible="true" lat="43.15591812" lon="-72.75093841">
    <tag k="addr:housenumber" v="454" />
    <tag k="addr:street" v="Golding Road" />
    <tag k="addr:state" v="VT" />
    <tag k="ref:vcgi:esiteid" v="295190" />
  </node>
  <node id="-342" visible="true" lat="43.15592575" lon="-72.70381164">
    <tag k="addr:housenumber" v="1247" />
    <tag k="addr:street" v="Abbott Road" />
    <tag k="addr:state" v="VT" />
    <tag k="ref:vcgi:esiteid" v="295191" />
  </node>
  <node id="-343" visible="true" lat="43.15580749" lon="-72.72332763">
    <tag k="addr:housenumber" v="5245" />
    <tag k="addr:street" v="Windham Hill Road" />
    <tag k="addr:state" v="VT" />
    <tag k="ref:vcgi:esiteid" v="295192" />
  </node>
  <node id="-344" visible="true" lat="43.15545272" lon="-72.72484588">
    <tag k="addr:housenumber" v="1288" />
    <tag k="addr:street" v="Burbee Pond Road" />
    <tag k="addr:state" v="VT" />
    <tag k="ref:vcgi:esiteid" v="295193" />
  </node>
  <node id="-345" visible="true" lat="43.15539932" lon="-72.72244262">
    <tag k="addr:housenumber" v="5204" />
    <tag k="addr:street" v="Windham Hill Road" />
    <tag k="addr:state" v="VT" />
    <tag k="ref:vcgi:esiteid" v="295194" />
  </node>
  <node id="-346" visible="true" lat="43.15508846" lon="-72.73890246">
    <tag k="addr:housenumber" v="198" />
    <tag k="addr:street" v="Ingalls Road" />
    <tag k="addr:state" v="VT" />
    <tag k="ref:vcgi:esiteid" v="295195" />
  </node>
  <node id="-347" visible="true" lat="43.15514372" lon="-72.7475591">
    <tag k="addr:housenumber" v="278" />
    <tag k="addr:street" v="Golding Road" />
    <tag k="addr:state" v="VT" />
    <tag k="ref:vcgi:esiteid" v="295196" />
  </node>
  <node id="-348" visible="true" lat="43.15518951" lon="-72.72305297">
    <tag k="addr:housenumber" v="5203" />
    <tag k="addr:street" v="Windham Hill Road" />
    <tag k="addr:state" v="VT" />
    <tag k="ref:vcgi:esiteid" v="295197" />
  </node>
  <node id="-349" visible="true" lat="43.15494155" lon="-72.72728729">
    <tag k="addr:housenumber" v="1250" />
    <tag k="addr:street" v="Burbee Pond Road" />
    <tag k="addr:state" v="VT" />
    <tag k="ref:vcgi:esiteid" v="295198" />
  </node>
  <node id="-350" visible="true" lat="43.15493392" lon="-72.72798156">
    <tag k="addr:housenumber" v="1245" />
    <tag k="addr:street" v="Burbee Pond Road" />
    <tag k="addr:state" v="VT" />
    <tag k="ref:vcgi:esiteid" v="295199" />
  </node>
  <node id="-351" visible="true" lat="43.15480804" lon="-72.72045898">
    <tag k="addr:housenumber" v="5042" />
    <tag k="addr:street" v="Windham Hill Road" />
    <tag k="addr:state" v="VT" />
    <tag k="ref:vcgi:esiteid" v="295200" />
  </node>
  <node id="-352" visible="true" lat="43.1545372" lon="-72.72722625">
    <tag k="addr:housenumber" v="1224" />
    <tag k="addr:street" v="Burbee Pond Road" />
    <tag k="addr:state" v="VT" />
    <tag k="ref:vcgi:esiteid" v="295201" />
  </node>
  <node id="-353" visible="true" lat="43.15383911" lon="-72.7275238">
    <tag k="addr:housenumber" v="1174" />
    <tag k="addr:street" v="Burbee Pond Road" />
    <tag k="addr:state" v="VT" />
    <tag k="ref:vcgi:esiteid" v="295202" />
  </node>
  <node id="-354" visible="true" lat="43.15370559" lon="-72.70609283">
    <tag k="addr:housenumber" v="1513" />
    <tag k="addr:street" v="Abbott Road" />
    <tag k="addr:state" v="VT" />
    <tag k="ref:vcgi:esiteid" v="295203" />
  </node>
  <node id="-355" visible="true" lat="43.15328215" lon="-72.74386647">
    <tag k="addr:housenumber" v="51" />
    <tag k="addr:street" v="Golding Road" />
    <tag k="addr:state" v="VT" />
    <tag k="ref:vcgi:esiteid" v="295204" />
  </node>
  <node id="-356" visible="true" lat="43.15318067" lon="-72.72872776">
    <tag k="addr:housenumber" v="1109" />
    <tag k="addr:street" v="Burbee Pond Road" />
    <tag k="addr:state" v="VT" />
    <tag k="ref:vcgi:esiteid" v="295205" />
  </node>
  <node id="-357" visible="true" lat="43.15279884" lon="-72.71983556">
    <tag k="addr:housenumber" v="4980" />
    <tag k="addr:street" v="Windham Hill Road" />
    <tag k="addr:state" v="VT" />
    <tag k="ref:vcgi:esiteid" v="295206" />
  </node>
  <node id="-358" visible="true" lat="43.15267562" lon="-72.7280426">
    <tag k="addr:housenumber" v="1130" />
    <tag k="addr:street" v="Burbee Pond Road" />
    <tag k="addr:state" v="VT" />
    <tag k="ref:vcgi:esiteid" v="295207" />
  </node>
  <node id="-359" visible="true" lat="43.15265958" lon="-72.74383427">
    <tag k="addr:housenumber" v="875" />
    <tag k="addr:street" v="West Windham Road" />
    <tag k="addr:state" v="VT" />
    <tag k="ref:vcgi:esiteid" v="295208" />
  </node>
  <node id="-360" visible="true" lat="43.15222167" lon="-72.72940826">
    <tag k="addr:housenumber" v="1039" />
    <tag k="addr:street" v="Burbee Pond Road" />
    <tag k="addr:state" v="VT" />
    <tag k="ref:vcgi:esiteid" v="295209" />
  </node>
  <node id="-361" visible="true" lat="43.15213012" lon="-72.74244689">
    <tag k="addr:housenumber" v="773" />
    <tag k="addr:street" v="West Windham Road" />
    <tag k="addr:state" v="VT" />
    <tag k="ref:vcgi:esiteid" v="295210" />
  </node>
  <node id="-362" visible="true" lat="43.15228221" lon="-72.74879838">
    <tag k="addr:housenumber" v="1142" />
    <tag k="addr:street" v="West Windham Road" />
    <tag k="addr:state" v="VT" />
    <tag k="ref:vcgi:esiteid" v="295211" />
  </node>
  <node id="-363" visible="true" lat="43.15206909" lon="-72.74084472">
    <tag k="addr:housenumber" v="673" />
    <tag k="addr:street" v="West Windham Road" />
    <tag k="addr:state" v="VT" />
    <tag k="ref:vcgi:esiteid" v="295212" />
  </node>
  <node id="-364" visible="true" lat="43.15218601" lon="-72.73559817">
    <tag k="addr:housenumber" v="376" />
    <tag k="addr:street" v="West Windham Road" />
    <tag k="addr:state" v="VT" />
    <tag k="ref:vcgi:esiteid" v="295213" />
  </node>
  <node id="-365" visible="true" lat="43.15183273" lon="-72.72806402">
    <tag k="addr:housenumber" v="1000" />
    <tag k="addr:street" v="Burbee Pond Road" />
    <tag k="addr:state" v="VT" />
    <tag k="ref:vcgi:esiteid" v="295214" />
  </node>
  <node id="-366" visible="true" lat="43.15120315" lon="-72.74682617">
    <tag k="addr:housenumber" v="1001" />
    <tag k="addr:street" v="West Windham Road" />
    <tag k="addr:state" v="VT" />
    <tag k="ref:vcgi:esiteid" v="295215" />
  </node>
  <node id="-367" visible="true" lat="43.15117318" lon="-72.73887728">
    <tag k="addr:housenumber" v="551" />
    <tag k="addr:street" v="West Windham Road" />
    <tag k="addr:state" v="VT" />
    <tag k="ref:vcgi:esiteid" v="295216" />
  </node>
  <node id="-368" visible="true" lat="43.15117645" lon="-72.73670959">
    <tag k="addr:housenumber" v="457" />
    <tag k="addr:street" v="West Windham Road" />
    <tag k="addr:state" v="VT" />
    <tag k="ref:vcgi:esiteid" v="295217" />
  </node>
  <node id="-369" visible="true" lat="43.1506872" lon="-72.71942371">
    <tag k="addr:housenumber" v="4856" />
    <tag k="addr:street" v="Windham Hill Road" />
    <tag k="addr:state" v="VT" />
    <tag k="ref:vcgi:esiteid" v="295218" />
  </node>
  <node id="-370" visible="true" lat="43.15062713" lon="-72.72895049">
    <tag k="addr:housenumber" v="916" />
    <tag k="addr:street" v="Burbee Pond Road" />
    <tag k="addr:state" v="VT" />
    <tag k="ref:vcgi:esiteid" v="295219" />
  </node>
  <node id="-371" visible="true" lat="43.15030205" lon="-72.75321476">
    <tag k="addr:housenumber" v="1417" />
    <tag k="addr:street" v="West Windham Road" />
    <tag k="addr:state" v="VT" />
    <tag k="ref:vcgi:esiteid" v="295220" />
  </node>
  <node id="-372" visible="true" lat="43.14951324" lon="-72.70388793">
    <tag k="addr:housenumber" v="1810" />
    <tag k="addr:street" v="Abbott Road" />
    <tag k="addr:state" v="VT" />
    <tag k="ref:vcgi:esiteid" v="295221" />
  </node>
  <node id="-373" visible="true" lat="43.1494522" lon="-72.72933959">
    <tag k="addr:housenumber" v="894" />
    <tag k="addr:street" v="Burbee Pond Road" />
    <tag k="addr:state" v="VT" />
    <tag k="ref:vcgi:esiteid" v="295222" />
  </node>
  <node id="-374" visible="true" lat="43.14920806" lon="-72.75613403">
    <tag k="addr:housenumber" v="1566" />
    <tag k="addr:street" v="West Windham Road" />
    <tag k="addr:state" v="VT" />
    <tag k="ref:vcgi:esiteid" v="295223" />
  </node>
  <node id="-375" visible="true" lat="43.14930345" lon="-72.75805904">
    <tag k="addr:housenumber" v="52" />
    <tag k="addr:street" v="Toad Road" />
    <tag k="addr:state" v="VT" />
    <tag k="ref:vcgi:esiteid" v="295224" />
  </node>
  <node id="-376" visible="true" lat="43.14879226" lon="-72.72348785">
    <tag k="addr:housenumber" v="4575" />
    <tag k="addr:street" v="Windham Hill Road" />
    <tag k="addr:state" v="VT" />
    <tag k="ref:vcgi:esiteid" v="295225" />
  </node>
  <node id="-377" visible="true" lat="43.14865875" lon="-72.70322418">
    <tag k="addr:housenumber" v="1876" />
    <tag k="addr:street" v="Abbott Road" />
    <tag k="addr:state" v="VT" />
    <tag k="ref:vcgi:esiteid" v="295226" />
  </node>
  <node id="-378" visible="true" lat="43.14821624" lon="-72.72051238">
    <tag k="addr:housenumber" v="4677" />
    <tag k="addr:street" v="Windham Hill Road" />
    <tag k="addr:state" v="VT" />
    <tag k="ref:vcgi:esiteid" v="295227" />
  </node>
  <node id="-379" visible="true" lat="43.14733505" lon="-72.70330047">
    <tag k="addr:housenumber" v="2008" />
    <tag k="addr:street" v="Abbott Road" />
    <tag k="addr:state" v="VT" />
    <tag k="ref:vcgi:esiteid" v="295228" />
  </node>
  <node id="-380" visible="true" lat="43.14705276" lon="-72.7302246">
    <tag k="addr:housenumber" v="681" />
    <tag k="addr:street" v="Burbee Pond Road" />
    <tag k="addr:state" v="VT" />
    <tag k="ref:vcgi:esiteid" v="295229" />
  </node>
  <node id="-381" visible="true" lat="43.14639663" lon="-72.73117065">
    <tag k="addr:housenumber" v="631" />
    <tag k="addr:street" v="Burbee Pond Road" />
    <tag k="addr:state" v="VT" />
    <tag k="ref:vcgi:esiteid" v="295230" />
  </node>
  <node id="-382" visible="true" lat="43.14630744" lon="-72.76866415">
    <tag k="addr:housenumber" v="983" />
    <tag k="addr:street" v="Toad Road" />
    <tag k="addr:state" v="VT" />
    <tag k="ref:vcgi:esiteid" v="295231" />
  </node>
  <node id="-383" visible="true" lat="43.14549636" lon="-72.72901153">
    <tag k="addr:housenumber" v="544" />
    <tag k="addr:street" v="Burbee Pond Road" />
    <tag k="addr:state" v="VT" />
    <tag k="ref:vcgi:esiteid" v="295232" />
  </node>
  <node id="-384" visible="true" lat="43.14526367" lon="-72.75499725">
    <tag k="addr:housenumber" v="1831" />
    <tag k="addr:street" v="West Windham Road" />
    <tag k="addr:state" v="VT" />
    <tag k="ref:vcgi:esiteid" v="295233" />
  </node>
  <node id="-385" visible="true" lat="43.14539592" lon="-72.70090289">
    <tag k="addr:housenumber" v="2148" />
    <tag k="addr:street" v="Abbott Road" />
    <tag k="addr:state" v="VT" />
    <tag k="ref:vcgi:esiteid" v="295234" />
  </node>
  <node id="-386" visible="true" lat="43.1446293" lon="-72.7289506">
    <tag k="addr:housenumber" v="531" />
    <tag k="addr:street" v="Burbee Pond Road" />
    <tag k="addr:state" v="VT" />
    <tag k="ref:vcgi:esiteid" v="295235" />
  </node>
  <node id="-387" visible="true" lat="43.14440134" lon="-72.69842104">
    <tag k="addr:housenumber" v="2277" />
    <tag k="addr:street" v="Abbott Road" />
    <tag k="addr:state" v="VT" />
    <tag k="ref:vcgi:esiteid" v="295236" />
  </node>
  <node id="-388" visible="true" lat="43.14377212" lon="-72.71962738">
    <tag k="addr:housenumber" v="4364" />
    <tag k="addr:street" v="Windham Hill Road" />
    <tag k="addr:state" v="VT" />
    <tag k="ref:vcgi:esiteid" v="295237" />
  </node>
  <node id="-389" visible="true" lat="43.14361802" lon="-72.76491385">
    <tag k="addr:housenumber" v="742" />
    <tag k="addr:street" v="Toad Road" />
    <tag k="addr:state" v="VT" />
    <tag k="ref:vcgi:esiteid" v="295238" />
  </node>
  <node id="-390" visible="true" lat="43.14325699" lon="-72.72274083">
    <tag k="addr:housenumber" v="185" />
    <tag k="addr:street" v="Burbee Pond Road" />
    <tag k="addr:state" v="VT" />
    <tag k="ref:vcgi:esiteid" v="295239" />
  </node>
  <node id="-391" visible="true" lat="43.14331286" lon="-72.69617777">
    <tag k="addr:housenumber" v="1222" />
    <tag k="addr:street" v="Wheeler Road" />
    <tag k="addr:state" v="VT" />
    <tag k="ref:vcgi:esiteid" v="295240" />
  </node>
  <node id="-392" visible="true" lat="43.14336335" lon="-72.72818761">
    <tag k="addr:housenumber" v="1777" />
    <tag k="addr:street" v="Old Cheney Road" />
    <tag k="addr:state" v="VT" />
    <tag k="ref:vcgi:esiteid" v="295241" />
  </node>
  <node id="-393" visible="true" lat="43.14328384" lon="-72.7627182">
    <tag k="addr:housenumber" v="544" />
    <tag k="addr:street" v="Toad Road" />
    <tag k="addr:state" v="VT" />
    <tag k="ref:vcgi:esiteid" v="295242" />
  </node>
  <node id="-394" visible="true" lat="43.1428337" lon="-72.70581054">
    <tag k="addr:housenumber" v="693" />
    <tag k="addr:street" v="Wheeler Road" />
    <tag k="addr:state" v="VT" />
    <tag k="ref:vcgi:esiteid" v="295243" />
  </node>
  <node id="-395" visible="true" lat="43.1427536" lon="-72.69792175">
    <tag k="addr:housenumber" v="1206" />
    <tag k="addr:street" v="Wheeler Road" />
    <tag k="addr:state" v="VT" />
    <tag k="ref:vcgi:esiteid" v="295244" />
  </node>
  <node id="-396" visible="true" lat="43.14238738" lon="-72.70857238">
    <tag k="addr:housenumber" v="593" />
    <tag k="addr:street" v="Wheeler Road" />
    <tag k="addr:state" v="VT" />
    <tag k="ref:vcgi:esiteid" v="295245" />
  </node>
  <node id="-397" visible="true" lat="43.14215087" lon="-72.75572967">
    <tag k="addr:housenumber" v="2045" />
    <tag k="addr:street" v="West Windham Road" />
    <tag k="addr:state" v="VT" />
    <tag k="ref:vcgi:esiteid" v="295246" />
  </node>
  <node id="-398" visible="true" lat="43.1421051" lon="-72.70724487">
    <tag k="addr:housenumber" v="662" />
    <tag k="addr:street" v="Wheeler Road" />
    <tag k="addr:state" v="VT" />
    <tag k="ref:vcgi:esiteid" v="295247" />
  </node>
  <node id="-399" visible="true" lat="43.14193461" lon="-72.72819768">
    <tag k="addr:housenumber" v="1683" />
    <tag k="addr:street" v="Old Cheney Road" />
    <tag k="addr:state" v="VT" />
    <tag k="ref:vcgi:esiteid" v="295248" />
  </node>
  <node id="-400" visible="true" lat="43.14181518" lon="-72.71057891">
    <tag k="addr:housenumber" v="466" />
    <tag k="addr:street" v="Wheeler Road" />
    <tag k="addr:state" v="VT" />
    <tag k="ref:vcgi:esiteid" v="295249" />
  </node>
  <node id="-401" visible="true" lat="43.14169691" lon="-72.76780751">
    <tag k="addr:housenumber" v="166" />
    <tag k="addr:street" v="Leonards Road" />
    <tag k="addr:state" v="VT" />
    <tag k="ref:vcgi:esiteid" v="295250" />
  </node>
  <node id="-402" visible="true" lat="43.14140319" lon="-72.71087646">
    <tag k="addr:housenumber" v="432" />
    <tag k="addr:street" v="Wheeler Road" />
    <tag k="addr:state" v="VT" />
    <tag k="ref:vcgi:esiteid" v="295251" />
  </node>
  <node id="-403" visible="true" lat="43.14099283" lon="-72.72662311">
    <tag k="addr:housenumber" v="1612" />
    <tag k="addr:street" v="Old Cheney Road" />
    <tag k="addr:state" v="VT" />
    <tag k="ref:vcgi:esiteid" v="295252" />
  </node>
  <node id="-404" visible="true" lat="43.14101028" lon="-72.70656585">
    <tag k="addr:housenumber" v="712" />
    <tag k="addr:street" v="Wheeler Road" />
    <tag k="addr:state" v="VT" />
    <tag k="ref:vcgi:esiteid" v="295253" />
  </node>
  <node id="-405" visible="true" lat="43.14100646" lon="-72.70401">
    <tag k="addr:housenumber" v="834" />
    <tag k="addr:street" v="Wheeler Road" />
    <tag k="addr:state" v="VT" />
    <tag k="ref:vcgi:esiteid" v="295254" />
  </node>
  <node id="-406" visible="true" lat="43.14098739" lon="-72.70283508">
    <tag k="addr:housenumber" v="902" />
    <tag k="addr:street" v="Wheeler Road" />
    <tag k="addr:state" v="VT" />
    <tag k="ref:vcgi:esiteid" v="295255" />
  </node>
  <node id="-407" visible="true" lat="43.14077377" lon="-72.71764373">
    <tag k="addr:housenumber" v="4131" />
    <tag k="addr:street" v="Windham Hill Road" />
    <tag k="addr:state" v="VT" />
    <tag k="ref:vcgi:esiteid" v="295256" />
  </node>
  <node id="-408" visible="true" lat="43.1403656" lon="-72.70435333">
    <tag k="addr:housenumber" v="818" />
    <tag k="addr:street" v="Wheeler Road" />
    <tag k="addr:state" v="VT" />
    <tag k="ref:vcgi:esiteid" v="295257" />
  </node>
  <node id="-409" visible="true" lat="43.14002989" lon="-72.75753739">
    <tag k="addr:housenumber" v="2226" />
    <tag k="addr:street" v="West Windham Road" />
    <tag k="addr:state" v="VT" />
    <tag k="ref:vcgi:esiteid" v="295258" />
  </node>
  <node id="-410" visible="true" lat="43.13841617" lon="-72.71702783">
    <tag k="addr:housenumber" v="3999" />
    <tag k="addr:street" v="Windham Hill Road" />
    <tag k="addr:state" v="VT" />
    <tag k="ref:vcgi:esiteid" v="295259" />
  </node>
  <node id="-411" visible="true" lat="43.13814544" lon="-72.71020507">
    <tag k="addr:housenumber" v="342" />
    <tag k="addr:street" v="Wheeler Road" />
    <tag k="addr:state" v="VT" />
    <tag k="ref:vcgi:esiteid" v="295260" />
  </node>
  <node id="-412" visible="true" lat="43.13781356" lon="-72.72737121">
    <tag k="addr:housenumber" v="1401" />
    <tag k="addr:street" v="Old Cheney Road" />
    <tag k="addr:state" v="VT" />
    <tag k="ref:vcgi:esiteid" v="295261" />
  </node>
  <node id="-413" visible="true" lat="43.13695144" lon="-72.71445465">
    <tag k="addr:housenumber" v="68" />
    <tag k="addr:street" v="Wheeler Road" />
    <tag k="addr:state" v="VT" />
    <tag k="ref:vcgi:esiteid" v="295262" />
  </node>
  <node id="-414" visible="true" lat="43.13378738" lon="-72.72604823">
    <tag k="addr:housenumber" v="1113" />
    <tag k="addr:street" v="Old Cheney Road" />
    <tag k="addr:state" v="VT" />
    <tag k="ref:vcgi:esiteid" v="295263" />
  </node>
  <node id="-415" visible="true" lat="43.13389587" lon="-72.71458435">
    <tag k="addr:housenumber" v="3628" />
    <tag k="addr:street" v="Windham Hill Road" />
    <tag k="addr:state" v="VT" />
    <tag k="ref:vcgi:esiteid" v="295264" />
  </node>
  <node id="-416" visible="true" lat="43.13336181" lon="-72.71011352">
    <tag k="addr:housenumber" v="199" />
    <tag k="addr:street" v="Farr Lane" />
    <tag k="addr:state" v="VT" />
    <tag k="ref:vcgi:esiteid" v="295265" />
  </node>
  <node id="-417" visible="true" lat="43.13320915" lon="-72.71401117">
    <tag k="addr:housenumber" v="3576" />
    <tag k="addr:street" v="Windham Hill Road" />
    <tag k="addr:state" v="VT" />
    <tag k="ref:vcgi:esiteid" v="295266" />
  </node>
  <node id="-418" visible="true" lat="43.13314401" lon="-72.70910098">
    <tag k="addr:housenumber" v="213" />
    <tag k="addr:street" v="Farr Lane" />
    <tag k="addr:state" v="VT" />
    <tag k="ref:vcgi:esiteid" v="295267" />
  </node>
  <node id="-419" visible="true" lat="43.13306795" lon="-72.71148609">
    <tag k="addr:housenumber" v="111" />
    <tag k="addr:street" v="Farr Lane" />
    <tag k="addr:state" v="VT" />
    <tag k="ref:vcgi:esiteid" v="295268" />
  </node>
  <node id="-420" visible="true" lat="43.13235439" lon="-72.70937464">
    <tag k="addr:housenumber" v="212" />
    <tag k="addr:street" v="Farr Lane" />
    <tag k="addr:state" v="VT" />
    <tag k="ref:vcgi:esiteid" v="295269" />
  </node>
  <node id="-421" visible="true" lat="43.13224411" lon="-72.71037292">
    <tag k="addr:housenumber" v="160" />
    <tag k="addr:street" v="Farr Lane" />
    <tag k="addr:state" v="VT" />
    <tag k="ref:vcgi:esiteid" v="295270" />
  </node>
  <node id="-422" visible="true" lat="43.13206481" lon="-72.71377563">
    <tag k="addr:housenumber" v="3492" />
    <tag k="addr:street" v="Windham Hill Road" />
    <tag k="addr:state" v="VT" />
    <tag k="ref:vcgi:esiteid" v="295271" />
  </node>
  <node id="-423" visible="true" lat="43.13178253" lon="-72.72423553">
    <tag k="addr:housenumber" v="956" />
    <tag k="addr:street" v="Old Cheney Road" />
    <tag k="addr:state" v="VT" />
    <tag k="ref:vcgi:esiteid" v="295272" />
  </node>
  <node id="-424" visible="true" lat="43.1315225" lon="-72.7119269">
    <tag k="addr:housenumber" v="84" />
    <tag k="addr:street" v="Farr Lane" />
    <tag k="addr:state" v="VT" />
    <tag k="ref:vcgi:esiteid" v="295273" />
  </node>
  <node id="-425" visible="true" lat="43.13081741" lon="-72.71340179">
    <tag k="addr:housenumber" v="3407" />
    <tag k="addr:street" v="Windham Hill Road" />
    <tag k="addr:state" v="VT" />
    <tag k="ref:vcgi:esiteid" v="295274" />
  </node>
  <node id="-426" visible="true" lat="43.13035201" lon="-72.71303558">
    <tag k="addr:housenumber" v="3369" />
    <tag k="addr:street" v="Windham Hill Road" />
    <tag k="addr:state" v="VT" />
    <tag k="ref:vcgi:esiteid" v="295275" />
  </node>
  <node id="-427" visible="true" lat="43.12989807" lon="-72.71158599">
    <tag k="addr:housenumber" v="3278" />
    <tag k="addr:street" v="Windham Hill Road" />
    <tag k="addr:state" v="VT" />
    <tag k="ref:vcgi:esiteid" v="295276" />
  </node>
  <node id="-428" visible="true" lat="43.12957763" lon="-72.70006561">
    <tag k="addr:housenumber" v="623" />
    <tag k="addr:street" v="Chase Road" />
    <tag k="addr:state" v="VT" />
    <tag k="ref:vcgi:esiteid" v="295277" />
  </node>
  <node id="-429" visible="true" lat="43.12955474" lon="-72.70336914">
    <tag k="addr:housenumber" v="443" />
    <tag k="addr:street" v="Chase Road" />
    <tag k="addr:state" v="VT" />
    <tag k="ref:vcgi:esiteid" v="295278" />
  </node>
  <node id="-430" visible="true" lat="43.12921523" lon="-72.70859527">
    <tag k="addr:housenumber" v="179" />
    <tag k="addr:street" v="Chase Road" />
    <tag k="addr:state" v="VT" />
    <tag k="ref:vcgi:esiteid" v="295279" />
  </node>
  <node id="-431" visible="true" lat="43.12907791" lon="-72.71183776">
    <tag k="addr:housenumber" v="3264" />
    <tag k="addr:street" v="Windham Hill Road" />
    <tag k="addr:state" v="VT" />
    <tag k="ref:vcgi:esiteid" v="295280" />
  </node>
  <node id="-432" visible="true" lat="43.12887573" lon="-72.71237945">
    <tag k="addr:housenumber" v="3261" />
    <tag k="addr:street" v="Windham Hill Road" />
    <tag k="addr:state" v="VT" />
    <tag k="ref:vcgi:esiteid" v="295281" />
  </node>
  <node id="-433" visible="true" lat="43.12874984" lon="-72.71163177">
    <tag k="addr:housenumber" v="3240" />
    <tag k="addr:street" v="Windham Hill Road" />
    <tag k="addr:state" v="VT" />
    <tag k="ref:vcgi:esiteid" v="295282" />
  </node>
  <node id="-434" visible="true" lat="43.12853622" lon="-72.70511627">
    <tag k="addr:housenumber" v="338" />
    <tag k="addr:street" v="Chase Road" />
    <tag k="addr:state" v="VT" />
    <tag k="ref:vcgi:esiteid" v="295283" />
  </node>
  <node id="-435" visible="true" lat="43.12854003" lon="-72.69811248">
    <tag k="addr:housenumber" v="715" />
    <tag k="addr:street" v="Chase Road" />
    <tag k="addr:state" v="VT" />
    <tag k="ref:vcgi:esiteid" v="295284" />
  </node>
  <node id="-436" visible="true" lat="43.12828064" lon="-72.71121215">
    <tag k="addr:housenumber" v="27" />
    <tag k="addr:street" v="Chase Road" />
    <tag k="addr:state" v="VT" />
    <tag k="ref:vcgi:esiteid" v="295285" />
  </node>
  <node id="-437" visible="true" lat="43.12828064" lon="-72.70997619">
    <tag k="addr:housenumber" v="87" />
    <tag k="addr:street" v="Chase Road" />
    <tag k="addr:state" v="VT" />
    <tag k="ref:vcgi:esiteid" v="295286" />
  </node>
  <node id="-438" visible="true" lat="43.12823104" lon="-72.71199798">
    <tag k="addr:housenumber" v="3211" />
    <tag k="addr:street" v="Windham Hill Road" />
    <tag k="addr:state" v="VT" />
    <tag k="ref:vcgi:esiteid" v="295287" />
  </node>
  <node id="-439" visible="true" lat="43.12818908" lon="-72.70810699">
    <tag k="addr:housenumber" v="174" />
    <tag k="addr:street" v="Chase Road" />
    <tag k="addr:state" v="VT" />
    <tag k="ref:vcgi:esiteid" v="295288" />
  </node>
  <node id="-440" visible="true" lat="43.12802124" lon="-72.71120452">
    <tag k="addr:housenumber" v="24" />
    <tag k="addr:street" v="Chase Road" />
    <tag k="addr:state" v="VT" />
    <tag k="ref:vcgi:esiteid" v="295289" />
  </node>
  <node id="-441" visible="true" lat="43.12726211" lon="-72.71160888">
    <tag k="addr:housenumber" v="3142" />
    <tag k="addr:street" v="Windham Hill Road" />
    <tag k="addr:state" v="VT" />
    <tag k="ref:vcgi:esiteid" v="295290" />
  </node>
  <node id="-442" visible="true" lat="43.12722396" lon="-72.6945877">
    <tag k="addr:housenumber" v="911" />
    <tag k="addr:street" v="Chase Road" />
    <tag k="addr:state" v="VT" />
    <tag k="ref:vcgi:esiteid" v="295291" />
  </node>
  <node id="-443" visible="true" lat="43.12706756" lon="-72.7120285">
    <tag k="addr:housenumber" v="3125" />
    <tag k="addr:street" v="Windham Hill Road" />
    <tag k="addr:state" v="VT" />
    <tag k="ref:vcgi:esiteid" v="295292" />
  </node>
  <node id="-444" visible="true" lat="43.12704849" lon="-72.71163177">
    <tag k="addr:housenumber" v="3128" />
    <tag k="addr:street" v="Windham Hill Road" />
    <tag k="addr:state" v="VT" />
    <tag k="ref:vcgi:esiteid" v="295293" />
  </node>
  <node id="-445" visible="true" lat="43.21829986" lon="-72.72169494">
    <tag k="addr:housenumber" v="120" />
    <tag k="addr:street" v="White Road" />
    <tag k="addr:state" v="VT" />
    <tag k="ref:vcgi:esiteid" v="295294" />
  </node>
  <node id="-446" visible="true" lat="43.221671" lon="-72.70008503">
    <tag k="addr:housenumber" v="6147" />
    <tag k="addr:street" v="Popple Dungeon Road" />
    <tag k="addr:state" v="VT" />
    <tag k="ref:vcgi:esiteid" v="295295" />
  </node>
  <node id="-447" visible="true" lat="43.22205962" lon="-72.70547672">
    <tag k="addr:housenumber" v="6397" />
    <tag k="addr:street" v="Popple Dungeon Road" />
    <tag k="addr:state" v="VT" />
    <tag k="ref:vcgi:esiteid" v="295296" />
  </node>
  <node id="-448" visible="true" lat="43.21336143" lon="-72.73768506">
    <tag k="addr:housenumber" v="339" />
    <tag k="addr:street" v="Route 121" />
    <tag k="addr:state" v="VT" />
    <tag k="ref:vcgi:esiteid" v="295297" />
  </node>
  <node id="-449" visible="true" lat="43.15541456" lon="-72.74089101">
    <tag k="addr:housenumber" v="171" />
    <tag k="addr:street" v="Ingalls Road" />
    <tag k="addr:state" v="VT" />
    <tag k="ref:vcgi:esiteid" v="295298" />
  </node>
  <node id="-450" visible="true" lat="43.15134811" lon="-72.73568725">
    <tag k="addr:housenumber" v="403" />
    <tag k="addr:street" v="West Windham Road" />
    <tag k="addr:state" v="VT" />
    <tag k="ref:vcgi:esiteid" v="295299" />
  </node>
  <node id="-451" visible="true" lat="43.15390199" lon="-72.7283225">
    <tag k="addr:housenumber" v="1175" />
    <tag k="addr:street" v="Burbee Pond Road" />
    <tag k="addr:state" v="VT" />
    <tag k="ref:vcgi:esiteid" v="295300" />
  </node>
  <node id="-452" visible="true" lat="43.1585884" lon="-72.70916748">
    <tag k="addr:housenumber" v="1114" />
    <tag k="addr:street" v="Abbott Road" />
    <tag k="addr:state" v="VT" />
    <tag k="ref:vcgi:esiteid" v="295301" />
  </node>
  <node id="-453" visible="true" lat="43.16789485" lon="-72.70967023">
    <tag k="addr:housenumber" v="529" />
    <tag k="addr:street" v="Abbott Road" />
    <tag k="addr:state" v="VT" />
    <tag k="ref:vcgi:esiteid" v="295302" />
  </node>
  <node id="-454" visible="true" lat="43.16893952" lon="-72.72567896">
    <tag k="addr:housenumber" v="6206" />
    <tag k="addr:street" v="Windham Hill Road" />
    <tag k="addr:state" v="VT" />
    <tag k="ref:vcgi:esiteid" v="295303" />
  </node>
  <node id="-455" visible="true" lat="43.16260433" lon="-72.71262817">
    <tag k="addr:housenumber" v="722" />
    <tag k="addr:street" v="Abbott Road" />
    <tag k="addr:state" v="VT" />
    <tag k="ref:vcgi:esiteid" v="295304" />
  </node>
  <node id="-456" visible="true" lat="43.14353217" lon="-72.75496981">
    <tag k="addr:housenumber" v="2037" />
    <tag k="addr:street" v="West Windham Road" />
    <tag k="addr:state" v="VT" />
    <tag k="ref:vcgi:esiteid" v="295305" />
  </node>
  <node id="-457" visible="true" lat="43.14519951" lon="-72.72425126">
    <tag k="addr:housenumber" v="236" />
    <tag k="addr:street" v="Burbee Pond Road" />
    <tag k="addr:state" v="VT" />
    <tag k="ref:vcgi:esiteid" v="295306" />
  </node>
  <node id="-458" visible="true" lat="43.19930267" lon="-72.72673797">
    <tag k="addr:housenumber" v="1603" />
    <tag k="addr:street" v="Route 121" />
    <tag k="addr:state" v="VT" />
    <tag k="ref:vcgi:esiteid" v="295307" />
  </node>
  <node id="-459" visible="true" lat="43.17859959" lon="-72.72838392">
    <tag k="addr:housenumber" v="99" />
    <tag k="addr:street" v="Old Farm Road" />
    <tag k="addr:state" v="VT" />
    <tag k="ref:vcgi:esiteid" v="295308" />
  </node>
  <node id="-460" visible="true" lat="43.1569252" lon="-72.72383117">
    <tag k="addr:housenumber" v="5305" />
    <tag k="addr:street" v="Windham Hill Road" />
    <tag k="addr:state" v="VT" />
    <tag k="ref:vcgi:esiteid" v="295309" />
  </node>
  <node id="-461" visible="true" lat="43.14196112" lon="-72.72616909">
    <tag k="addr:housenumber" v="375" />
    <tag k="addr:street" v="Burbee Pond Road" />
    <tag k="addr:state" v="VT" />
    <tag k="ref:vcgi:esiteid" v="295311" />
  </node>
  <node id="-462" visible="true" lat="43.14299867" lon="-72.71713691">
    <tag k="addr:housenumber" v="4240" />
    <tag k="addr:street" v="Windham Hill Road" />
    <tag k="addr:state" v="VT" />
    <tag k="ref:vcgi:esiteid" v="295312" />
  </node>
  <node id="-463" visible="true" lat="43.13027191" lon="-72.71238708">
    <tag k="addr:housenumber" v="3350" />
    <tag k="addr:street" v="Windham Hill Road" />
    <tag k="addr:state" v="VT" />
    <tag k="ref:vcgi:esiteid" v="295313" />
  </node>
  <node id="-464" visible="true" lat="43.14215469" lon="-72.71083068">
    <tag k="addr:housenumber" v="465" />
    <tag k="addr:street" v="Wheeler Road" />
    <tag k="addr:state" v="VT" />
    <tag k="ref:vcgi:esiteid" v="295314" />
  </node>
  <node id="-465" visible="true" lat="43.19782211" lon="-72.73093766">
    <tag k="addr:housenumber" v="32" />
    <tag k="addr:street" v="Lower Birch Circle" />
    <tag k="addr:state" v="VT" />
    <tag k="ref:vcgi:esiteid" v="295315" />
  </node>
  <node id="-466" visible="true" lat="43.197205" lon="-72.73046448">
    <tag k="addr:housenumber" v="71" />
    <tag k="addr:street" v="Lower Birch Circle" />
    <tag k="addr:state" v="VT" />
    <tag k="ref:vcgi:esiteid" v="295316" />
  </node>
  <node id="-467" visible="true" lat="43.19605883" lon="-72.73069289">
    <tag k="addr:housenumber" v="98" />
    <tag k="addr:street" v="Lower Birch Circle" />
    <tag k="addr:state" v="VT" />
    <tag k="ref:vcgi:esiteid" v="295317" />
  </node>
  <node id="-468" visible="true" lat="43.19514785" lon="-72.73073945">
    <tag k="addr:housenumber" v="46" />
    <tag k="addr:street" v="Upper Birch Circle" />
    <tag k="addr:state" v="VT" />
    <tag k="ref:vcgi:esiteid" v="295318" />
  </node>
  <node id="-469" visible="true" lat="43.19465364" lon="-72.73062804">
    <tag k="addr:housenumber" v="78" />
    <tag k="addr:street" v="Upper Birch Circle" />
    <tag k="addr:state" v="VT" />
    <tag k="ref:vcgi:esiteid" v="295319" />
  </node>
  <node id="-470" visible="true" lat="43.1953125" lon="-72.72533416">
    <tag k="addr:housenumber" v="50" />
    <tag k="addr:street" v="Hemlock Road" />
    <tag k="addr:state" v="VT" />
    <tag k="ref:vcgi:esiteid" v="295320" />
  </node>
  <node id="-471" visible="true" lat="43.19595336" lon="-72.72530364">
    <tag k="addr:housenumber" v="83" />
    <tag k="addr:street" v="Hemlock Road" />
    <tag k="addr:state" v="VT" />
    <tag k="ref:vcgi:esiteid" v="295321" />
  </node>
  <node id="-472" visible="true" lat="43.1735115" lon="-72.72408294">
    <tag k="addr:housenumber" v="450" />
    <tag k="addr:street" v="Cross Road" />
    <tag k="addr:state" v="VT" />
    <tag k="ref:vcgi:esiteid" v="295322" />
  </node>
  <node id="-473" visible="true" lat="43.17173384" lon="-72.72448781">
    <tag k="addr:housenumber" v="449" />
    <tag k="addr:street" v="Cross Road" />
    <tag k="addr:state" v="VT" />
    <tag k="ref:vcgi:esiteid" v="295323" />
  </node>
  <node id="-474" visible="true" lat="43.14576525" lon="-72.6972452">
    <tag k="addr:housenumber" v="140" />
    <tag k="addr:street" v="Kimball Hill Lane" />
    <tag k="addr:state" v="VT" />
    <tag k="ref:vcgi:esiteid" v="295324" />
  </node>
  <node id="-475" visible="true" lat="43.15122116" lon="-72.69462869">
    <tag k="addr:housenumber" v="900" />
    <tag k="addr:street" v="Kimball Hill Lane" />
    <tag k="addr:state" v="VT" />
    <tag k="ref:vcgi:esiteid" v="295325" />
  </node>
  <node id="-476" visible="true" lat="43.21755599" lon="-72.72238922">
    <tag k="addr:housenumber" v="268" />
    <tag k="addr:street" v="White Road" />
    <tag k="addr:state" v="VT" />
    <tag k="ref:vcgi:esiteid" v="295326" />
  </node>
  <node id="-477" visible="true" lat="43.21712875" lon="-72.72187805">
    <tag k="addr:housenumber" v="264" />
    <tag k="addr:street" v="White Road" />
    <tag k="addr:state" v="VT" />
    <tag k="ref:vcgi:esiteid" v="295327" />
  </node>
  <node id="-478" visible="true" lat="43.21683502" lon="-72.72179412">
    <tag k="addr:housenumber" v="266" />
    <tag k="addr:street" v="White Road" />
    <tag k="addr:state" v="VT" />
    <tag k="ref:vcgi:esiteid" v="295328" />
  </node>
  <node id="-479" visible="true" lat="43.15107054" lon="-72.72139466">
    <tag k="addr:housenumber" v="4841" />
    <tag k="addr:street" v="Windham Hill Road" />
    <tag k="addr:state" v="VT" />
    <tag k="ref:vcgi:esiteid" v="295329" />
  </node>
  <node id="-480" visible="true" lat="43.17018287" lon="-72.7165674">
    <tag k="addr:housenumber" v="315" />
    <tag k="addr:street" v="Woodburn Road" />
    <tag k="addr:state" v="VT" />
    <tag k="ref:vcgi:esiteid" v="295330" />
  </node>
  <node id="-481" visible="true" lat="43.2212488" lon="-72.70308371">
    <tag k="addr:housenumber" v="277" />
    <tag k="addr:street" v="Edson Drive" />
    <tag k="addr:state" v="VT" />
    <tag k="ref:vcgi:esiteid" v="295331" />
  </node>
  <node id="-482" visible="true" lat="43.17216862" lon="-72.72792809">
    <tag k="addr:housenumber" v="6377" />
    <tag k="addr:street" v="Windham Hill Road" />
    <tag k="addr:state" v="VT" />
    <tag k="ref:vcgi:esiteid" v="295333" />
  </node>
  <node id="-483" visible="true" lat="43.13634938" lon="-72.72527205">
    <tag k="addr:housenumber" v="1300" />
    <tag k="addr:street" v="Old Cheney Road" />
    <tag k="addr:state" v="VT" />
    <tag k="ref:vcgi:esiteid" v="295334" />
  </node>
  <node id="-484" visible="true" lat="43.22382856" lon="-72.71894257">
    <tag k="addr:housenumber" v="655" />
    <tag k="addr:street" v="Horsenail Hill Road" />
    <tag k="addr:state" v="VT" />
    <tag k="ref:vcgi:esiteid" v="295335" />
  </node>
  <node id="-485" visible="true" lat="43.22090666" lon="-72.72177927">
    <tag k="addr:housenumber" v="736" />
    <tag k="addr:street" v="Horsenail Hill Road" />
    <tag k="addr:state" v="VT" />
    <tag k="ref:vcgi:esiteid" v="295336" />
  </node>
  <node id="-486" visible="true" lat="43.18201177" lon="-72.7235147">
    <tag k="addr:housenumber" v="7140" />
    <tag k="addr:street" v="Windham Hill Road" />
    <tag k="addr:state" v="VT" />
    <tag k="ref:vcgi:esiteid" v="295337" />
  </node>
  <node id="-487" visible="true" lat="43.21992024" lon="-72.72187229">
    <tag k="addr:housenumber" v="792" />
    <tag k="addr:street" v="Horsenail Hill Road" />
    <tag k="addr:state" v="VT" />
    <tag k="ref:vcgi:esiteid" v="295338" />
  </node>
  <node id="-488" visible="true" lat="43.21925371" lon="-72.72818662">
    <tag k="addr:housenumber" v="458" />
    <tag k="addr:street" v="Scott Pet Road" />
    <tag k="addr:state" v="VT" />
    <tag k="ref:vcgi:esiteid" v="295339" />
  </node>
  <node id="-489" visible="true" lat="43.22185359" lon="-72.72144535">
    <tag k="addr:housenumber" v="700" />
    <tag k="addr:street" v="Horsenail Hill Road" />
    <tag k="addr:state" v="VT" />
    <tag k="ref:vcgi:esiteid" v="295340" />
  </node>
  <node id="-490" visible="true" lat="43.22412627" lon="-72.69721683">
    <tag k="addr:housenumber" v="5970" />
    <tag k="addr:street" v="Popple Dungeon Road" />
    <tag k="addr:state" v="VT" />
    <tag k="ref:vcgi:esiteid" v="295341" />
  </node>
  <node id="-491" visible="true" lat="43.19522262" lon="-72.71567943">
    <tag k="addr:housenumber" v="2198" />
    <tag k="addr:street" v="Route 121" />
    <tag k="addr:state" v="VT" />
    <tag k="ref:vcgi:esiteid" v="295343" />
  </node>
  <node id="-492" visible="true" lat="43.19843142" lon="-72.7076369">
    <tag k="addr:housenumber" v="2615" />
    <tag k="addr:street" v="Route 121" />
    <tag k="addr:state" v="VT" />
    <tag k="ref:vcgi:esiteid" v="295344" />
  </node>
  <node id="-493" visible="true" lat="43.16035028" lon="-72.72444768">
    <tag k="addr:housenumber" v="5551" />
    <tag k="addr:street" v="Windham Hill Road" />
    <tag k="addr:state" v="VT" />
    <tag k="ref:vcgi:esiteid" v="295345" />
  </node>
  <node id="-494" visible="true" lat="43.22165655" lon="-72.71528943">
    <tag k="addr:housenumber" v="6905" />
    <tag k="addr:street" v="Popple Dungeon Road" />
    <tag k="addr:state" v="VT" />
    <tag k="ref:vcgi:esiteid" v="295346" />
  </node>
  <node id="-495" visible="true" lat="43.22140518" lon="-72.69225429">
    <tag k="addr:housenumber" v="5721" />
    <tag k="addr:street" v="Popple Dungeon Road" />
    <tag k="addr:state" v="VT" />
    <tag k="ref:vcgi:esiteid" v="295347" />
  </node>
  <node id="-496" visible="true" lat="43.13319448" lon="-72.72409975">
    <tag k="addr:housenumber" v="1094" />
    <tag k="addr:street" v="Old Cheney Road" />
    <tag k="addr:state" v="VT" />
    <tag k="ref:vcgi:esiteid" v="295348" />
  </node>
  <node id="-497" visible="true" lat="43.18731935" lon="-72.72904497">
    <tag k="addr:housenumber" v="564" />
    <tag k="addr:street" v="Harrington Road" />
    <tag k="addr:state" v="VT" />
    <tag k="ref:vcgi:esiteid" v="295349" />
  </node>
  <node id="-498" visible="true" lat="43.12555964" lon="-72.69235328">
    <tag k="addr:housenumber" v="1042" />
    <tag k="addr:street" v="Chase Road" />
    <tag k="addr:state" v="VT" />
    <tag k="ref:vcgi:esiteid" v="295350" />
  </node>
  <node id="-499" visible="true" lat="43.16165054" lon="-72.72467806">
    <tag k="addr:housenumber" v="5655" />
    <tag k="addr:street" v="Windham Hill Road" />
    <tag k="addr:state" v="VT" />
    <tag k="ref:vcgi:esiteid" v="295351" />
  </node>
  <node id="-500" visible="true" lat="43.1957034" lon="-72.72682549">
    <tag k="addr:housenumber" v="113" />
    <tag k="addr:street" v="Spruce Road" />
    <tag k="addr:state" v="VT" />
    <tag k="ref:vcgi:esiteid" v="295352" />
  </node>
  <node id="-501" visible="true" lat="43.19664629" lon="-72.73200987">
    <tag k="addr:housenumber" v="650" />
    <tag k="addr:street" v="Birch Hill Road" />
    <tag k="addr:state" v="VT" />
    <tag k="ref:vcgi:esiteid" v="295353" />
  </node>
  <node id="-502" visible="true" lat="43.19704543" lon="-72.71581387">
    <tag k="addr:housenumber" v="2105" />
    <tag k="addr:street" v="Route 121" />
    <tag k="addr:state" v="VT" />
    <tag k="ref:vcgi:esiteid" v="295354" />
  </node>
  <node id="-503" visible="true" lat="43.13429151" lon="-72.72487576">
    <tag k="addr:housenumber" v="1150" />
    <tag k="addr:street" v="Old Cheney Road" />
    <tag k="addr:state" v="VT" />
    <tag k="ref:vcgi:esiteid" v="295355" />
  </node>
  <node id="-504" visible="true" lat="43.22239495" lon="-72.71735266">
    <tag k="addr:housenumber" v="7048" />
    <tag k="addr:street" v="Popple Dungeon Road" />
    <tag k="addr:state" v="VT" />
    <tag k="ref:vcgi:esiteid" v="295356" />
  </node>
  <node id="-505" visible="true" lat="43.22350655" lon="-72.71754145">
    <tag k="addr:housenumber" v="7050" />
    <tag k="addr:street" v="Popple Dungeon Road" />
    <tag k="addr:state" v="VT" />
    <tag k="ref:vcgi:esiteid" v="295357" />
  </node>
  <node id="-506" visible="true" lat="43.17239797" lon="-72.71741135">
    <tag k="addr:housenumber" v="507" />
    <tag k="addr:street" v="Woodburn Road" />
    <tag k="addr:state" v="VT" />
    <tag k="ref:vcgi:esiteid" v="295358" />
  </node>
  <node id="-507" visible="true" lat="43.14077692" lon="-72.71610094">
    <tag k="addr:housenumber" v="4072" />
    <tag k="addr:street" v="Windham Hill Road" />
    <tag k="addr:state" v="VT" />
    <tag k="ref:vcgi:esiteid" v="295359" />
  </node>
  <node id="-508" visible="true" lat="43.15757205" lon="-72.72827572">
    <tag k="addr:housenumber" v="1455" />
    <tag k="addr:street" v="Burbee Pond Road" />
    <tag k="addr:state" v="VT" />
    <tag k="ref:vcgi:esiteid" v="295360" />
  </node>
  <node id="-509" visible="true" lat="43.2014335" lon="-72.73179147">
    <tag k="addr:housenumber" v="1203" />
    <tag k="addr:street" v="Route 121" />
    <tag k="addr:state" v="VT" />
    <tag k="ref:vcgi:esiteid" v="295361" />
  </node>
  <node id="-510" visible="true" lat="43.16410099" lon="-72.72559977">
    <tag k="addr:housenumber" v="5855" />
    <tag k="addr:street" v="Windham Hill Road" />
    <tag k="addr:state" v="VT" />
    <tag k="ref:vcgi:esiteid" v="295362" />
  </node>
  <node id="-511" visible="true" lat="43.17354203" lon="-72.71764816">
    <tag k="addr:housenumber" v="593" />
    <tag k="addr:street" v="Woodburn Road" />
    <tag k="addr:state" v="VT" />
    <tag k="ref:vcgi:esiteid" v="295363" />
  </node>
  <node id="-512" visible="true" lat="43.1270758" lon="-72.69739305">
    <tag k="addr:housenumber" v="820" />
    <tag k="addr:street" v="Chase Road" />
    <tag k="addr:state" v="VT" />
    <tag k="ref:vcgi:esiteid" v="306234" />
  </node>
  <node id="-513" visible="true" lat="43.13498722" lon="-72.71603119">
    <tag k="addr:housenumber" v="3709" />
    <tag k="addr:street" v="Windham Hill Road" />
    <tag k="addr:state" v="VT" />
    <tag k="ref:vcgi:esiteid" v="307539" />
  </node>
  <node id="-514" visible="true" lat="43.21037935" lon="-72.71792927">
    <tag k="addr:housenumber" v="1044" />
    <tag k="addr:street" v="Hitchcock Hill Road" />
    <tag k="addr:state" v="VT" />
    <tag k="ref:vcgi:esiteid" v="310037" />
  </node>
  <node id="-515" visible="true" lat="43.22217957" lon="-72.68705921">
    <tag k="addr:housenumber" v="5491" />
    <tag k="addr:street" v="Popple Dungeon Road" />
    <tag k="addr:state" v="VT" />
    <tag k="ref:vcgi:esiteid" v="310038" />
  </node>
  <node id="-516" visible="true" lat="43.1975104" lon="-72.72772187">
    <tag k="addr:housenumber" v="48" />
    <tag k="addr:street" v="Timber Ridge Road" />
    <tag k="addr:state" v="VT" />
    <tag k="ref:vcgi:esiteid" v="310772" />
  </node>
  <node id="-517" visible="true" lat="43.19862043" lon="-72.73483325">
    <tag k="addr:housenumber" v="291" />
    <tag k="addr:street" v="Windham Springs" />
    <tag k="addr:state" v="VT" />
    <tag k="ref:vcgi:esiteid" v="310773" />
  </node>
  <node id="-518" visible="true" lat="43.21892716" lon="-72.73039431">
    <tag k="addr:housenumber" v="328" />
    <tag k="addr:street" v="Scott Pet Road" />
    <tag k="addr:state" v="VT" />
    <tag k="ref:vcgi:esiteid" v="315259" />
  </node>
  <node id="-519" visible="true" lat="43.20723869" lon="-72.73150891">
    <tag k="addr:housenumber" v="861" />
    <tag k="addr:street" v="Route 121" />
    <tag k="addr:state" v="VT" />
    <tag k="ref:vcgi:esiteid" v="316069" />
  </node>
  <node id="-520" visible="true" lat="43.19779476" lon="-72.73445102">
    <tag k="addr:housenumber" v="796" />
    <tag k="addr:street" v="Birch Hill Road" />
    <tag k="addr:state" v="VT" />
    <tag k="ref:vcgi:esiteid" v="318127" />
  </node>
  <node id="-521" visible="true" lat="43.22193123" lon="-72.71895391">
    <tag k="addr:housenumber" v="7090" />
    <tag k="addr:street" v="Popple Dungeon Road" />
    <tag k="addr:state" v="VT" />
    <tag k="ref:vcgi:esiteid" v="327653" />
  </node>
  <node id="-522" visible="true" lat="43.20736868" lon="-72.7086638">
    <tag k="addr:housenumber" v="1177" />
    <tag k="addr:street" v="White Road" />
    <tag k="addr:state" v="VT" />
    <tag k="ref:vcgi:esiteid" v="328318" />
  </node>
  <node id="-523" visible="true" lat="43.1416465" lon="-72.70846917">
    <tag k="addr:housenumber" v="594" />
    <tag k="addr:street" v="Wheeler Road" />
    <tag k="addr:state" v="VT" />
    <tag k="ref:vcgi:esiteid" v="330058" />
  </node>
  <node id="-524" visible="true" lat="43.21581656" lon="-72.71580652">
    <tag k="addr:housenumber" v="300" />
    <tag k="addr:street" v="Fairway Meadows" />
    <tag k="addr:state" v="VT" />
    <tag k="ref:vcgi:esiteid" v="331119" />
  </node>
  <node id="-525" visible="true" lat="43.13303658" lon="-72.71742888">
    <tag k="addr:housenumber" v="3587" />
    <tag k="addr:street" v="Windham Hill Road" />
    <tag k="addr:state" v="VT" />
    <tag k="ref:vcgi:esiteid" v="336349" />
  </node>
  <node id="-526" visible="true" lat="43.22702452" lon="-72.70671066">
    <tag k="addr:housenumber" v="308" />
    <tag k="addr:street" v="Howard Hill Road" />
    <tag k="addr:state" v="VT" />
    <tag k="ref:vcgi:esiteid" v="336531" />
  </node>
  <node id="-527" visible="true" lat="43.16313484" lon="-72.723894">
    <tag k="addr:housenumber" v="2" />
    <tag k="addr:street" v="Abbott Road" />
    <tag k="addr:state" v="VT" />
    <tag k="ref:vcgi:esiteid" v="338209" />
  </node>
  <node id="-528" visible="true" lat="43.14182096" lon="-72.71732109">
    <tag k="addr:housenumber" v="4228" />
    <tag k="addr:street" v="Windham Hill Road" />
    <tag k="addr:state" v="VT" />
    <tag k="ref:vcgi:esiteid" v="341580" />
  </node>
  <node id="-529" visible="true" lat="43.2231152" lon="-72.68815055">
    <tag k="addr:housenumber" v="5540" />
    <tag k="addr:street" v="Popple Dungeon Road" />
    <tag k="addr:state" v="VT" />
    <tag k="ref:vcgi:esiteid" v="341653" />
  </node>
  <node id="-530" visible="true" lat="43.22252904" lon="-72.68567287">
    <tag k="addr:housenumber" v="5390" />
    <tag k="addr:street" v="Popple Dungeon Road" />
    <tag k="addr:state" v="VT" />
    <tag k="ref:vcgi:esiteid" v="341654" />
  </node>
  <node id="-531" visible="true" lat="43.13629439" lon="-72.72635348">
    <tag k="addr:housenumber" v="1275" />
    <tag k="addr:street" v="Old Cheney Road" />
    <tag k="addr:state" v="VT" />
    <tag k="ref:vcgi:esiteid" v="342582" />
  </node>
  <node id="-532" visible="true" lat="43.197996" lon="-72.73084842">
    <tag k="addr:housenumber" v="30" />
    <tag k="addr:street" v="Lower Birch Circle" />
    <tag k="addr:state" v="VT" />
    <tag k="ref:vcgi:esiteid" v="343546" />
  </node>
  <node id="-533" visible="true" lat="43.17463899" lon="-72.71610793">
    <tag k="addr:housenumber" v="652" />
    <tag k="addr:street" v="Woodburn Road" />
    <tag k="addr:state" v="VT" />
    <tag k="ref:vcgi:esiteid" v="345387" />
  </node>
  <node id="-534" visible="true" lat="43.15967281" lon="-72.72246936">
    <tag k="addr:housenumber" v="5530" />
    <tag k="addr:street" v="Windham Hill Road" />
    <tag k="addr:state" v="VT" />
    <tag k="ref:vcgi:esiteid" v="345388" />
  </node>
  <node id="-535" visible="true" lat="43.21745311" lon="-72.71974815">
    <tag k="addr:housenumber" v="90" />
    <tag k="addr:street" v="Fairway Meadows" />
    <tag k="addr:state" v="VT" />
    <tag k="ref:vcgi:esiteid" v="445963" />
  </node>
  <node id="-536" visible="true" lat="43.20520498" lon="-72.70681206">
    <tag k="addr:housenumber" v="1376" />
    <tag k="addr:street" v="White Road" />
    <tag k="addr:state" v="VT" />
    <tag k="ref:vcgi:esiteid" v="446070" />
  </node>
  <node id="-537" visible="true" lat="43.15194651" lon="-72.72231242">
    <tag k="addr:housenumber" v="4983" />
    <tag k="addr:street" v="Windham Hill Road" />
    <tag k="addr:state" v="VT" />
    <tag k="ref:vcgi:esiteid" v="448199" />
  </node>
  <node id="-538" visible="true" lat="43.14259712" lon="-72.7277249">
    <tag k="addr:housenumber" v="1751" />
    <tag k="addr:street" v="Old Cheney Road" />
    <tag k="addr:state" v="VT" />
    <tag k="ref:vcgi:esiteid" v="449578" />
  </node>
  <node id="-539" visible="true" lat="43.17690144" lon="-72.73124306">
    <tag k="addr:housenumber" v="249" />
    <tag k="addr:street" v="Old Farm Road" />
    <tag k="addr:state" v="VT" />
    <tag k="ref:vcgi:esiteid" v="451277" />
  </node>
  <node id="-540" visible="true" lat="43.19374649" lon="-72.72969777">
    <tag k="addr:housenumber" v="431" />
    <tag k="addr:street" v="Glebe Mountain Road" />
    <tag k="addr:state" v="VT" />
    <tag k="ref:vcgi:esiteid" v="451374" />
  </node>
  <node id="-541" visible="true" lat="43.22817414" lon="-72.7288557">
    <tag k="addr:housenumber" v="7511" />
    <tag k="addr:street" v="Vermont Route 11" />
    <tag k="addr:state" v="VT" />
    <tag k="ref:vcgi:esiteid" v="452648" />
  </node>
  <node id="-542" visible="true" lat="43.20984172" lon="-72.73553146">
    <tag k="addr:housenumber" v="595" />
    <tag k="addr:street" v="Route 121" />
    <tag k="addr:state" v="VT" />
    <tag k="ref:vcgi:esiteid" v="452649" />
  </node>
  <node id="-543" visible="true" lat="43.2196416" lon="-72.70374357">
    <tag k="addr:housenumber" v="200" />
    <tag k="addr:street" v="Edson Drive" />
    <tag k="addr:state" v="VT" />
    <tag k="ref:vcgi:esiteid" v="454513" />
  </node>
  <node id="-544" visible="true" lat="43.1582792" lon="-72.73058195">
    <tag k="addr:housenumber" v="1355" />
    <tag k="addr:street" v="Burbee Pond Road" />
    <tag k="addr:state" v="VT" />
    <tag k="ref:vcgi:esiteid" v="454514" />
  </node>
  <node id="-545" visible="true" lat="43.16581635" lon="-72.73679402">
    <tag k="addr:housenumber" v="880" />
    <tag k="addr:street" v="Ingalls Road" />
    <tag k="addr:state" v="VT" />
    <tag k="ref:vcgi:esiteid" v="454515" />
  </node>
  <node id="-546" visible="true" lat="43.22025934" lon="-72.70771703">
    <tag k="addr:housenumber" v="70" />
    <tag k="addr:street" v="Edson Drive" />
    <tag k="addr:state" v="VT" />
    <tag k="ref:vcgi:esiteid" v="610871" />
  </node>
  <node id="-547" visible="true" lat="43.21561665" lon="-72.7197478">
    <tag k="addr:housenumber" v="361" />
    <tag k="addr:street" v="White Road" />
    <tag k="addr:state" v="VT" />
    <tag k="ref:vcgi:esiteid" v="612060" />
  </node>
  <node id="-548" visible="true" lat="43.21646032" lon="-72.71998989">
    <tag k="addr:housenumber" v="267" />
    <tag k="addr:street" v="White Road" />
    <tag k="addr:state" v="VT" />
    <tag k="ref:vcgi:esiteid" v="612061" />
  </node>
  <node id="-549" visible="true" lat="43.20353576" lon="-72.72054409">
    <tag k="addr:housenumber" v="421" />
    <tag k="addr:street" v="Hitchcock Hill Road" />
    <tag k="addr:state" v="VT" />
    <tag k="ref:vcgi:esiteid" v="612062" />
  </node>
  <node id="-550" visible="true" lat="43.19767271" lon="-72.73327773">
    <tag k="addr:housenumber" v="732" />
    <tag k="addr:street" v="Birch Hill Road" />
    <tag k="addr:state" v="VT" />
    <tag k="ref:vcgi:esiteid" v="613051" />
  </node>
  <node id="-557" visible="true" lat="43.21936473" lon="-72.70061601">
    <tag k="addr:housenumber" v="377" />
    <tag k="addr:street" v="Edson Drive" />
    <tag k="addr:state" v="VT" />
    <tag k="ref:vcgi:esiteid" v="617460" />
  </node>
  <node id="-558" visible="true" lat="43.15411697" lon="-72.70796957">
    <tag k="addr:housenumber" v="1400" />
    <tag k="addr:street" v="Abbott Road" />
    <tag k="addr:state" v="VT" />
    <tag k="ref:vcgi:esiteid" v="618046" />
  </node>
  <node id="-559" visible="true" lat="43.17532884" lon="-72.73264063">
    <tag k="addr:housenumber" v="355" />
    <tag k="addr:street" v="Old Farm Road" />
    <tag k="addr:state" v="VT" />
    <tag k="ref:vcgi:esiteid" v="620683" />
  </node>
  <node id="-560" visible="true" lat="43.1513492" lon="-72.75186385">
    <tag k="addr:housenumber" v="1311" />
    <tag k="addr:street" v="West Windham Road" />
    <tag k="addr:state" v="VT" />
    <tag k="ref:vcgi:esiteid" v="750253" />
  </node>
  <node id="-561" visible="true" lat="43.15037519" lon="-72.72076877">
    <tag k="addr:housenumber" v="4817" />
    <tag k="addr:street" v="Windham Hill Road" />
    <tag k="addr:state" v="VT" />
    <tag k="ref:vcgi:esiteid" v="750254" />
  </node>
  <node id="-563" visible="true" lat="43.21832947" lon="-72.71914637">
    <tag k="addr:housenumber" v="95" />
    <tag k="addr:street" v="Fairway Meadows" />
    <tag k="addr:state" v="VT" />
    <tag k="ref:vcgi:esiteid" v="751725" />
  </node>
  <node id="-564" visible="true" lat="43.15126928" lon="-72.74942151">
    <tag k="addr:housenumber" v="1163" />
    <tag k="addr:street" v="West Windham Road" />
    <tag k="addr:state" v="VT" />
    <tag k="ref:vcgi:esiteid" v="752166" />
  </node>
  <node id="-565" visible="true" lat="43.19642412" lon="-72.72685963">
    <tag k="addr:housenumber" v="97" />
    <tag k="addr:street" v="Spruce Road" />
    <tag k="addr:state" v="VT" />
    <tag k="ref:vcgi:esiteid" v="752538" />
  </node>
  <node id="-566" visible="true" lat="43.19008121" lon="-72.72888669">
    <tag k="addr:housenumber" v="757" />
    <tag k="addr:street" v="Glebe Mountain Road" />
    <tag k="addr:state" v="VT" />
    <tag k="ref:vcgi:esiteid" v="753146" />
  </node>
  <node id="-567" visible="true" lat="43.23251397" lon="-72.72865817">
    <tag k="addr:housenumber" v="7851" />
    <tag k="addr:street" v="Vermont Route 11" />
    <tag k="addr:state" v="VT" />
    <tag k="ref:vcgi:esiteid" v="756088" />
  </node>
  <node id="-568" visible="true" lat="43.13196071" lon="-72.71100412">
    <tag k="addr:housenumber" v="120" />
    <tag k="addr:street" v="Farr Lane" />
    <tag k="addr:state" v="VT" />
    <tag k="ref:vcgi:esiteid" v="758273" />
  </node>
  <node id="-569" visible="true" lat="43.1355206" lon="-72.725301">
    <tag k="addr:housenumber" v="1224" />
    <tag k="addr:street" v="Old Cheney Road" />
    <tag k="addr:state" v="VT" />
    <tag k="ref:vcgi:esiteid" v="758731" />
  </node>
  <node id="-572" visible="true" lat="43.17357154" lon="-72.71566829">
    <tag k="addr:housenumber" v="646" />
    <tag k="addr:street" v="Woodburn Road" />
    <tag k="addr:state" v="VT" />
    <tag k="ref:vcgi:esiteid" v="762433" />
  </node>
  <node id="-573" visible="true" lat="43.15142516" lon="-72.74852329">
    <tag k="addr:housenumber" v="1139" />
    <tag k="addr:street" v="West Windham Road" />
    <tag k="addr:state" v="VT" />
    <tag k="ref:vcgi:esiteid" v="766325" />
  </node>
  <node id="-574" visible="true" lat="43.21242518" lon="-72.7233052">
    <tag k="addr:housenumber" v="1095" />
    <tag k="addr:street" v="Hitchcock Hill Road" />
    <tag k="addr:state" v="VT" />
    <tag k="ref:vcgi:esiteid" v="766653" />
  </node>
  <node id="-576" visible="true" lat="43.22185677" lon="-72.71999829">
    <tag k="addr:housenumber" v="717" />
    <tag k="addr:street" v="Horsenail Hill Road" />
    <tag k="addr:state" v="VT" />
    <tag k="ref:vcgi:esiteid" v="767169" />
  </node>
  <node id="-577" visible="true" lat="43.16515434" lon="-72.73582924">
    <tag k="addr:housenumber" v="890" />
    <tag k="addr:street" v="Ingalls Road" />
    <tag k="addr:state" v="VT" />
    <tag k="ref:vcgi:esiteid" v="767524" />
  </node>
  <node id="-578" visible="true" lat="43.14928908" lon="-72.76957825">
    <tag k="addr:housenumber" v="1144" />
    <tag k="addr:street" v="Toad Road" />
    <tag k="addr:state" v="VT" />
    <tag k="ref:vcgi:esiteid" v="768287" />
  </node>
  <node id="-579" visible="true" lat="43.16803572" lon="-72.71615183">
    <tag k="addr:housenumber" v="172" />
    <tag k="addr:street" v="Woodburn Road" />
    <tag k="addr:state" v="VT" />
    <tag k="ref:vcgi:esiteid" v="769477" />
  </node>
  <node id="-580" visible="true" lat="43.21212288" lon="-72.71070479">
    <tag k="addr:housenumber" v="150" />
    <tag k="addr:street" v="Hidden Newton Road" />
    <tag k="addr:state" v="VT" />
    <tag k="ref:vcgi:esiteid" v="770300" />
  </node>
  <node id="-581" visible="true" lat="43.21246087" lon="-72.71222874">
    <tag k="addr:housenumber" v="129" />
    <tag k="addr:street" v="Hidden Newton Road" />
    <tag k="addr:state" v="VT" />
    <tag k="ref:vcgi:esiteid" v="770301" />
  </node>
  <node id="-582" visible="true" lat="43.16586892" lon="-72.72487989">
    <tag k="addr:housenumber" v="5934" />
    <tag k="addr:street" v="Windham Hill Road" />
    <tag k="addr:state" v="VT" />
    <tag k="ref:vcgi:esiteid" v="1050244" />
  </node>
  <node id="-583" visible="true" lat="43.14918647" lon="-72.75579744">
    <tag k="addr:housenumber" v="1560" />
    <tag k="addr:street" v="West Windham Road" />
    <tag k="addr:state" v="VT" />
    <tag k="ref:vcgi:esiteid" v="1050245" />
  </node>
  <node id="-584" visible="true" lat="43.22138487" lon="-72.71359447">
    <tag k="addr:housenumber" v="6825" />
    <tag k="addr:street" v="Popple Dungeon Road" />
    <tag k="addr:state" v="VT" />
    <tag k="ref:vcgi:esiteid" v="1050359" />
  </node>
  <node id="-585" visible="true" lat="43.22863029" lon="-72.72746676">
    <tag k="addr:housenumber" v="4" />
    <tag k="addr:street" v="Horsenail Hill Road" />
    <tag k="addr:state" v="VT" />
    <tag k="ref:vcgi:esiteid" v="1050360" />
  </node>
</osm>
