<?xml version="1.0" encoding="UTF-8"?>
<osm version="0.6" generator="JOSM">
  <node id="-100" visible="true" lat="44.37382329" lon="-72.57979917">
    <tag k="addr:city" v="Worcester" />
    <tag k="addr:housenumber" v="218" />
    <tag k="addr:street" v="Mackenzie Drive" />
    <tag k="addr:state" v="VT" />
    <tag k="ref:vcgi:esiteid" v="1437" />
  </node>
  <node id="-101" visible="true" lat="44.44559478" lon="-72.54482269">
    <tag k="addr:city" v="Worcester" />
    <tag k="addr:housenumber" v="1244" />
    <tag k="addr:street" v="Elmore Road" />
    <tag k="addr:state" v="VT" />
    <tag k="ref:vcgi:esiteid" v="304252" />
  </node>
  <node id="-102" visible="true" lat="44.43671585" lon="-72.53559977">
    <tag k="addr:city" v="Worcester" />
    <tag k="addr:housenumber" v="1063" />
    <tag k="addr:street" v="Elmore Road" />
    <tag k="addr:state" v="VT" />
    <tag k="ref:vcgi:esiteid" v="304253" />
  </node>
  <node id="-103" visible="true" lat="44.43132781" lon="-72.55425262">
    <tag k="addr:city" v="Worcester" />
    <tag k="addr:housenumber" v="762" />
    <tag k="addr:street" v="Hampshire Hill Road" />
    <tag k="addr:state" v="VT" />
    <tag k="ref:vcgi:esiteid" v="304254" />
  </node>
  <node id="-104" visible="true" lat="44.43122443" lon="-72.53476018">
    <tag k="addr:city" v="Worcester" />
    <tag k="addr:housenumber" v="980" />
    <tag k="addr:street" v="Elmore Road" />
    <tag k="addr:state" v="VT" />
    <tag k="ref:vcgi:esiteid" v="304255" />
  </node>
  <node id="-105" visible="true" lat="44.43087768" lon="-72.55408477">
    <tag k="addr:city" v="Worcester" />
    <tag k="addr:housenumber" v="760" />
    <tag k="addr:street" v="Hampshire Hill Road" />
    <tag k="addr:state" v="VT" />
    <tag k="ref:vcgi:esiteid" v="304256" />
  </node>
  <node id="-106" visible="true" lat="44.4300003" lon="-72.53371429">
    <tag k="addr:city" v="Worcester" />
    <tag k="addr:housenumber" v="962" />
    <tag k="addr:street" v="Elmore Road" />
    <tag k="addr:state" v="VT" />
    <tag k="ref:vcgi:esiteid" v="304257" />
  </node>
  <node id="-107" visible="true" lat="44.42979812" lon="-72.53331756">
    <tag k="addr:city" v="Worcester" />
    <tag k="addr:housenumber" v="960" />
    <tag k="addr:street" v="Elmore Road" />
    <tag k="addr:state" v="VT" />
    <tag k="ref:vcgi:esiteid" v="304258" />
  </node>
  <node id="-108" visible="true" lat="44.42601013" lon="-72.56207275">
    <tag k="addr:city" v="Worcester" />
    <tag k="addr:housenumber" v="624" />
    <tag k="addr:street" v="Hampshire Hill Road" />
    <tag k="addr:state" v="VT" />
    <tag k="ref:vcgi:esiteid" v="304259" />
  </node>
  <node id="-109" visible="true" lat="44.42435229" lon="-72.56455192">
    <tag k="addr:city" v="Worcester" />
    <tag k="addr:housenumber" v="588" />
    <tag k="addr:street" v="Hampshire Hill Road" />
    <tag k="addr:state" v="VT" />
    <tag k="ref:vcgi:esiteid" v="304260" />
  </node>
  <node id="-110" visible="true" lat="44.42368316" lon="-72.53964233">
    <tag k="addr:city" v="Worcester" />
    <tag k="addr:housenumber" v="936" />
    <tag k="addr:street" v="Elmore Road" />
    <tag k="addr:state" v="VT" />
    <tag k="ref:vcgi:esiteid" v="304261" />
  </node>
  <node id="-111" visible="true" lat="44.42338889" lon="-72.56429203">
    <tag k="addr:city" v="Worcester" />
    <tag k="addr:housenumber" v="579" />
    <tag k="addr:street" v="Hampshire Hill Road" />
    <tag k="addr:state" v="VT" />
    <tag k="ref:vcgi:esiteid" v="304262" />
  </node>
  <node id="-112" visible="true" lat="44.42435989" lon="-72.56805501">
    <tag k="addr:city" v="Worcester" />
    <tag k="addr:housenumber" v="576" />
    <tag k="addr:street" v="Hampshire Hill Road" />
    <tag k="addr:state" v="VT" />
    <tag k="ref:vcgi:esiteid" v="304263" />
  </node>
  <node id="-113" visible="true" lat="44.42312534" lon="-72.56534806">
    <tag k="addr:city" v="Worcester" />
    <tag k="addr:housenumber" v="572" />
    <tag k="addr:street" v="Hampshire Hill Road" />
    <tag k="addr:state" v="VT" />
    <tag k="ref:vcgi:esiteid" v="304264" />
  </node>
  <node id="-114" visible="true" lat="44.42304611" lon="-72.56467437">
    <tag k="addr:city" v="Worcester" />
    <tag k="addr:housenumber" v="573" />
    <tag k="addr:street" v="Hampshire Hill Road" />
    <tag k="addr:state" v="VT" />
    <tag k="ref:vcgi:esiteid" v="304265" />
  </node>
  <node id="-115" visible="true" lat="44.42340516" lon="-72.56858192">
    <tag k="addr:city" v="Worcester" />
    <tag k="addr:housenumber" v="568" />
    <tag k="addr:street" v="Hampshire Hill Road" />
    <tag k="addr:state" v="VT" />
    <tag k="ref:vcgi:esiteid" v="304266" />
  </node>
  <node id="-116" visible="true" lat="44.42251205" lon="-72.56494053">
    <tag k="addr:city" v="Worcester" />
    <tag k="addr:housenumber" v="567" />
    <tag k="addr:street" v="Hampshire Hill Road" />
    <tag k="addr:state" v="VT" />
    <tag k="ref:vcgi:esiteid" v="304267" />
  </node>
  <node id="-117" visible="true" lat="44.42260031" lon="-72.56878358">
    <tag k="addr:city" v="Worcester" />
    <tag k="addr:housenumber" v="25" />
    <tag k="addr:street" v="Wilder Road" />
    <tag k="addr:state" v="VT" />
    <tag k="ref:vcgi:esiteid" v="304268" />
  </node>
  <node id="-118" visible="true" lat="44.4223109" lon="-72.56819691">
    <tag k="addr:city" v="Worcester" />
    <tag k="addr:housenumber" v="21" />
    <tag k="addr:street" v="Wilder Road" />
    <tag k="addr:state" v="VT" />
    <tag k="ref:vcgi:esiteid" v="304269" />
  </node>
  <node id="-119" visible="true" lat="44.42164414" lon="-72.56765395">
    <tag k="addr:city" v="Worcester" />
    <tag k="addr:housenumber" v="10" />
    <tag k="addr:street" v="Wilder Road" />
    <tag k="addr:state" v="VT" />
    <tag k="ref:vcgi:esiteid" v="304270" />
  </node>
  <node id="-120" visible="true" lat="44.42164993" lon="-72.56881713">
    <tag k="addr:city" v="Worcester" />
    <tag k="addr:housenumber" v="518" />
    <tag k="addr:street" v="Hampshire Hill Road" />
    <tag k="addr:state" v="VT" />
    <tag k="ref:vcgi:esiteid" v="304271" />
  </node>
  <node id="-121" visible="true" lat="44.42114257" lon="-72.56729888">
    <tag k="addr:city" v="Worcester" />
    <tag k="addr:housenumber" v="534" />
    <tag k="addr:street" v="Hampshire Hill Road" />
    <tag k="addr:state" v="VT" />
    <tag k="ref:vcgi:esiteid" v="304272" />
  </node>
  <node id="-122" visible="true" lat="44.42086551" lon="-72.57247877">
    <tag k="addr:city" v="Worcester" />
    <tag k="addr:housenumber" v="40" />
    <tag k="addr:street" v="Mountain Road" />
    <tag k="addr:state" v="VT" />
    <tag k="ref:vcgi:esiteid" v="304273" />
  </node>
  <node id="-123" visible="true" lat="44.42058935" lon="-72.57193592">
    <tag k="addr:city" v="Worcester" />
    <tag k="addr:housenumber" v="23" />
    <tag k="addr:street" v="Mountain Road" />
    <tag k="addr:state" v="VT" />
    <tag k="ref:vcgi:esiteid" v="304274" />
  </node>
  <node id="-124" visible="true" lat="44.42032951" lon="-72.57222595">
    <tag k="addr:city" v="Worcester" />
    <tag k="addr:housenumber" v="24" />
    <tag k="addr:street" v="Mountain Road" />
    <tag k="addr:state" v="VT" />
    <tag k="ref:vcgi:esiteid" v="304275" />
  </node>
  <node id="-125" visible="true" lat="44.42019794" lon="-72.56770655">
    <tag k="addr:city" v="Worcester" />
    <tag k="addr:housenumber" v="519" />
    <tag k="addr:street" v="Hampshire Hill Road" />
    <tag k="addr:state" v="VT" />
    <tag k="ref:vcgi:esiteid" v="304276" />
  </node>
  <node id="-126" visible="true" lat="44.4201844" lon="-72.5716114">
    <tag k="addr:city" v="Worcester" />
    <tag k="addr:housenumber" v="21" />
    <tag k="addr:street" v="Mountain Road" />
    <tag k="addr:state" v="VT" />
    <tag k="ref:vcgi:esiteid" v="304277" />
  </node>
  <node id="-127" visible="true" lat="44.41993942" lon="-72.56916067">
    <tag k="addr:city" v="Worcester" />
    <tag k="addr:housenumber" v="508" />
    <tag k="addr:street" v="Hampshire Hill Road" />
    <tag k="addr:state" v="VT" />
    <tag k="ref:vcgi:esiteid" v="304278" />
  </node>
  <node id="-128" visible="true" lat="44.41925145" lon="-72.54491496">
    <tag k="addr:city" v="Worcester" />
    <tag k="addr:housenumber" v="754" />
    <tag k="addr:street" v="Elmore Road" />
    <tag k="addr:state" v="VT" />
    <tag k="ref:vcgi:esiteid" v="304279" />
  </node>
  <node id="-129" visible="true" lat="44.41926193" lon="-72.57071685">
    <tag k="addr:city" v="Worcester" />
    <tag k="addr:housenumber" v="3" />
    <tag k="addr:street" v="Mountain Road" />
    <tag k="addr:state" v="VT" />
    <tag k="ref:vcgi:esiteid" v="304280" />
  </node>
  <node id="-130" visible="true" lat="44.4180099" lon="-72.56969958">
    <tag k="addr:city" v="Worcester" />
    <tag k="addr:housenumber" v="10" />
    <tag k="addr:street" v="Upper Hancock Brook Road" />
    <tag k="addr:state" v="VT" />
    <tag k="ref:vcgi:esiteid" v="304281" />
  </node>
  <node id="-131" visible="true" lat="44.41786303" lon="-72.54347944">
    <tag k="addr:city" v="Worcester" />
    <tag k="addr:housenumber" v="735" />
    <tag k="addr:street" v="Elmore Road" />
    <tag k="addr:state" v="VT" />
    <tag k="ref:vcgi:esiteid" v="304282" />
  </node>
  <node id="-132" visible="true" lat="44.41741007" lon="-72.57097261">
    <tag k="addr:city" v="Worcester" />
    <tag k="addr:housenumber" v="458" />
    <tag k="addr:street" v="Hampshire Hill Road" />
    <tag k="addr:state" v="VT" />
    <tag k="ref:vcgi:esiteid" v="304283" />
  </node>
  <node id="-133" visible="true" lat="44.41729772" lon="-72.56872398">
    <tag k="addr:city" v="Worcester" />
    <tag k="addr:housenumber" v="26" />
    <tag k="addr:street" v="Upper Hancock Brook Road" />
    <tag k="addr:state" v="VT" />
    <tag k="ref:vcgi:esiteid" v="304284" />
  </node>
  <node id="-134" visible="true" lat="44.41682052" lon="-72.56423187">
    <tag k="addr:city" v="Worcester" />
    <tag k="addr:housenumber" v="73" />
    <tag k="addr:street" v="Carlson Road" />
    <tag k="addr:state" v="VT" />
    <tag k="ref:vcgi:esiteid" v="304285" />
  </node>
  <node id="-135" visible="true" lat="44.41644779" lon="-72.56971185">
    <tag k="addr:city" v="Worcester" />
    <tag k="addr:housenumber" v="451" />
    <tag k="addr:street" v="Hampshire Hill Road" />
    <tag k="addr:state" v="VT" />
    <tag k="ref:vcgi:esiteid" v="304286" />
  </node>
  <node id="-136" visible="true" lat="44.41664941" lon="-72.56207849">
    <tag k="addr:city" v="Worcester" />
    <tag k="addr:housenumber" v="89" />
    <tag k="addr:street" v="Carlson Road" />
    <tag k="addr:state" v="VT" />
    <tag k="ref:vcgi:esiteid" v="304287" />
  </node>
  <node id="-137" visible="true" lat="44.41636919" lon="-72.571602">
    <tag k="addr:city" v="Worcester" />
    <tag k="addr:housenumber" v="444" />
    <tag k="addr:street" v="Hampshire Hill Road" />
    <tag k="addr:state" v="VT" />
    <tag k="ref:vcgi:esiteid" v="304288" />
  </node>
  <node id="-138" visible="true" lat="44.415802" lon="-72.56283569">
    <tag k="addr:city" v="Worcester" />
    <tag k="addr:housenumber" v="85" />
    <tag k="addr:street" v="Carlson Road" />
    <tag k="addr:state" v="VT" />
    <tag k="ref:vcgi:esiteid" v="304289" />
  </node>
  <node id="-139" visible="true" lat="44.41748888" lon="-72.54818416">
    <tag k="addr:city" v="Worcester" />
    <tag k="addr:housenumber" v="688" />
    <tag k="addr:street" v="Elmore Road" />
    <tag k="addr:state" v="VT" />
    <tag k="ref:vcgi:esiteid" v="304290" />
  </node>
  <node id="-140" visible="true" lat="44.41518536" lon="-72.54755755">
    <tag k="addr:city" v="Worcester" />
    <tag k="addr:housenumber" v="686" />
    <tag k="addr:street" v="Elmore Road" />
    <tag k="addr:state" v="VT" />
    <tag k="ref:vcgi:esiteid" v="304291" />
  </node>
  <node id="-141" visible="true" lat="44.4146567" lon="-72.57092918">
    <tag k="addr:city" v="Worcester" />
    <tag k="addr:housenumber" v="414" />
    <tag k="addr:street" v="Hampshire Hill Road" />
    <tag k="addr:state" v="VT" />
    <tag k="ref:vcgi:esiteid" v="304292" />
  </node>
  <node id="-142" visible="true" lat="44.41436779" lon="-72.56631607">
    <tag k="addr:city" v="Worcester" />
    <tag k="addr:housenumber" v="80" />
    <tag k="addr:street" v="Upper Hancock Brook Road" />
    <tag k="addr:state" v="VT" />
    <tag k="ref:vcgi:esiteid" v="304293" />
  </node>
  <node id="-143" visible="true" lat="44.41291381" lon="-72.52568133">
    <tag k="addr:city" v="Worcester" />
    <tag k="addr:housenumber" v="430" />
    <tag k="addr:street" v="Eagle Ledge Trail" />
    <tag k="addr:state" v="VT" />
    <tag k="ref:vcgi:esiteid" v="304294" />
  </node>
  <node id="-144" visible="true" lat="44.41229244" lon="-72.54948469">
    <tag k="addr:city" v="Worcester" />
    <tag k="addr:housenumber" v="638" />
    <tag k="addr:street" v="Elmore Road" />
    <tag k="addr:state" v="VT" />
    <tag k="ref:vcgi:esiteid" v="304295" />
  </node>
  <node id="-145" visible="true" lat="44.41152954" lon="-72.57305145">
    <tag k="addr:city" v="Worcester" />
    <tag k="addr:housenumber" v="366" />
    <tag k="addr:street" v="Hampshire Hill Road" />
    <tag k="addr:state" v="VT" />
    <tag k="ref:vcgi:esiteid" v="304296" />
  </node>
  <node id="-146" visible="true" lat="44.41104049" lon="-72.54946653">
    <tag k="addr:city" v="Worcester" />
    <tag k="addr:housenumber" v="630" />
    <tag k="addr:street" v="Elmore Road" />
    <tag k="addr:state" v="VT" />
    <tag k="ref:vcgi:esiteid" v="304297" />
  </node>
  <node id="-147" visible="true" lat="44.40973138" lon="-72.56531501">
    <tag k="addr:city" v="Worcester" />
    <tag k="addr:housenumber" v="148" />
    <tag k="addr:street" v="Upper Hancock Brook Road" />
    <tag k="addr:state" v="VT" />
    <tag k="ref:vcgi:esiteid" v="304298" />
  </node>
  <node id="-148" visible="true" lat="44.40972882" lon="-72.5239131">
    <tag k="addr:city" v="Worcester" />
    <tag k="addr:housenumber" v="365" />
    <tag k="addr:street" v="Eagle Ledge Road" />
    <tag k="addr:state" v="VT" />
    <tag k="ref:vcgi:esiteid" v="304299" />
  </node>
  <node id="-149" visible="true" lat="44.40954589" lon="-72.57335662">
    <tag k="addr:city" v="Worcester" />
    <tag k="addr:housenumber" v="339" />
    <tag k="addr:street" v="Hampshire Hill Road" />
    <tag k="addr:state" v="VT" />
    <tag k="ref:vcgi:esiteid" v="304300" />
  </node>
  <node id="-150" visible="true" lat="44.4082087" lon="-72.56472737">
    <tag k="addr:city" v="Worcester" />
    <tag k="addr:housenumber" v="159" />
    <tag k="addr:street" v="Upper Hancock Brook Road" />
    <tag k="addr:state" v="VT" />
    <tag k="ref:vcgi:esiteid" v="304301" />
  </node>
  <node id="-151" visible="true" lat="44.40942979" lon="-72.59832354">
    <tag k="addr:city" v="Worcester" />
    <tag k="addr:housenumber" v="781" />
    <tag k="addr:street" v="Minister Brook Road" />
    <tag k="addr:state" v="VT" />
    <tag k="ref:vcgi:esiteid" v="304302" />
  </node>
  <node id="-152" visible="true" lat="44.40834808" lon="-72.52658843">
    <tag k="addr:city" v="Worcester" />
    <tag k="addr:housenumber" v="372" />
    <tag k="addr:street" v="Eagle Ledge Road" />
    <tag k="addr:state" v="VT" />
    <tag k="ref:vcgi:esiteid" v="304303" />
  </node>
  <node id="-153" visible="true" lat="44.40732511" lon="-72.57579974">
    <tag k="addr:city" v="Worcester" />
    <tag k="addr:housenumber" v="302" />
    <tag k="addr:street" v="Hampshire Hill Road" />
    <tag k="addr:state" v="VT" />
    <tag k="ref:vcgi:esiteid" v="304304" />
  </node>
  <node id="-154" visible="true" lat="44.40544823" lon="-72.52471198">
    <tag k="addr:city" v="Worcester" />
    <tag k="addr:housenumber" v="327" />
    <tag k="addr:street" v="Eagle Ledge Road" />
    <tag k="addr:state" v="VT" />
    <tag k="ref:vcgi:esiteid" v="304305" />
  </node>
  <node id="-155" visible="true" lat="44.4056247" lon="-72.55289952">
    <tag k="addr:city" v="Worcester" />
    <tag k="addr:housenumber" v="11" />
    <tag k="addr:street" v="Moose Hollow Road" />
    <tag k="addr:state" v="VT" />
    <tag k="ref:vcgi:esiteid" v="304306" />
  </node>
  <node id="-156" visible="true" lat="44.40530776" lon="-72.59890747">
    <tag k="addr:city" v="Worcester" />
    <tag k="addr:housenumber" v="728" />
    <tag k="addr:street" v="Minister Brook Road" />
    <tag k="addr:state" v="VT" />
    <tag k="ref:vcgi:esiteid" v="304307" />
  </node>
  <node id="-157" visible="true" lat="44.40521621" lon="-72.59255981">
    <tag k="addr:city" v="Worcester" />
    <tag k="addr:housenumber" v="667" />
    <tag k="addr:street" v="Minister Brook Road" />
    <tag k="addr:state" v="VT" />
    <tag k="ref:vcgi:esiteid" v="304308" />
  </node>
  <node id="-158" visible="true" lat="44.40490079" lon="-72.52572111">
    <tag k="addr:city" v="Worcester" />
    <tag k="addr:housenumber" v="324" />
    <tag k="addr:street" v="Eagle Ledge Road" />
    <tag k="addr:state" v="VT" />
    <tag k="ref:vcgi:esiteid" v="304309" />
  </node>
  <node id="-159" visible="true" lat="44.40483093" lon="-72.58818817">
    <tag k="addr:city" v="Worcester" />
    <tag k="addr:housenumber" v="627" />
    <tag k="addr:street" v="Minister Brook Road" />
    <tag k="addr:state" v="VT" />
    <tag k="ref:vcgi:esiteid" v="304310" />
  </node>
  <node id="-160" visible="true" lat="44.40492468" lon="-72.55168895">
    <tag k="addr:city" v="Worcester" />
    <tag k="addr:housenumber" v="27" />
    <tag k="addr:street" v="Moose Hollow Road" />
    <tag k="addr:state" v="VT" />
    <tag k="ref:vcgi:esiteid" v="304311" />
  </node>
  <node id="-161" visible="true" lat="44.40450735" lon="-72.57484613">
    <tag k="addr:city" v="Worcester" />
    <tag k="addr:housenumber" v="258" />
    <tag k="addr:street" v="Hampshire Hill Road" />
    <tag k="addr:state" v="VT" />
    <tag k="ref:vcgi:esiteid" v="304312" />
  </node>
  <node id="-162" visible="true" lat="44.40461968" lon="-72.5533438">
    <tag k="addr:city" v="Worcester" />
    <tag k="addr:housenumber" v="30" />
    <tag k="addr:street" v="Moose Hollow Road" />
    <tag k="addr:state" v="VT" />
    <tag k="ref:vcgi:esiteid" v="304313" />
  </node>
  <node id="-163" visible="true" lat="44.40419006" lon="-72.59685516">
    <tag k="addr:city" v="Worcester" />
    <tag k="addr:housenumber" v="699" />
    <tag k="addr:street" v="Minister Brook Road" />
    <tag k="addr:state" v="VT" />
    <tag k="ref:vcgi:esiteid" v="304314" />
  </node>
  <node id="-164" visible="true" lat="44.40369421" lon="-72.52517325">
    <tag k="addr:city" v="Worcester" />
    <tag k="addr:housenumber" v="303" />
    <tag k="addr:street" v="Eagle Ledge Road" />
    <tag k="addr:state" v="VT" />
    <tag k="ref:vcgi:esiteid" v="304315" />
  </node>
  <node id="-165" visible="true" lat="44.40368652" lon="-72.59603881">
    <tag k="addr:city" v="Worcester" />
    <tag k="addr:housenumber" v="693" />
    <tag k="addr:street" v="Minister Brook Road" />
    <tag k="addr:state" v="VT" />
    <tag k="ref:vcgi:esiteid" v="304316" />
  </node>
  <node id="-166" visible="true" lat="44.40358081" lon="-72.55006797">
    <tag k="addr:city" v="Worcester" />
    <tag k="addr:housenumber" v="497" />
    <tag k="addr:street" v="Elmore Road" />
    <tag k="addr:state" v="VT" />
    <tag k="ref:vcgi:esiteid" v="304317" />
  </node>
  <node id="-167" visible="true" lat="44.40354716" lon="-72.51628949">
    <tag k="addr:city" v="Worcester" />
    <tag k="addr:housenumber" v="142" />
    <tag k="addr:street" v="Harris Hill Road" />
    <tag k="addr:state" v="VT" />
    <tag k="ref:vcgi:esiteid" v="304318" />
  </node>
  <node id="-168" visible="true" lat="44.40340423" lon="-72.59329223">
    <tag k="addr:city" v="Worcester" />
    <tag k="addr:housenumber" v="665" />
    <tag k="addr:street" v="Minister Brook Road" />
    <tag k="addr:state" v="VT" />
    <tag k="ref:vcgi:esiteid" v="304319" />
  </node>
  <node id="-169" visible="true" lat="44.40327039" lon="-72.52738194">
    <tag k="addr:city" v="Worcester" />
    <tag k="addr:housenumber" v="296" />
    <tag k="addr:street" v="Eagle Ledge Road" />
    <tag k="addr:state" v="VT" />
    <tag k="ref:vcgi:esiteid" v="304320" />
  </node>
  <node id="-170" visible="true" lat="44.40333938" lon="-72.59555816">
    <tag k="addr:city" v="Worcester" />
    <tag k="addr:housenumber" v="689" />
    <tag k="addr:street" v="Minister Brook Road" />
    <tag k="addr:state" v="VT" />
    <tag k="ref:vcgi:esiteid" v="304321" />
  </node>
  <node id="-171" visible="true" lat="44.40317512" lon="-72.52534759">
    <tag k="addr:city" v="Worcester" />
    <tag k="addr:housenumber" v="291" />
    <tag k="addr:street" v="Eagle Ledge Road" />
    <tag k="addr:state" v="VT" />
    <tag k="ref:vcgi:esiteid" v="304322" />
  </node>
  <node id="-172" visible="true" lat="44.40309282" lon="-72.55126489">
    <tag k="addr:city" v="Worcester" />
    <tag k="addr:housenumber" v="3" />
    <tag k="addr:street" v="Moose Hollow Road" />
    <tag k="addr:state" v="VT" />
    <tag k="ref:vcgi:esiteid" v="304323" />
  </node>
  <node id="-173" visible="true" lat="44.40296936" lon="-72.58994293">
    <tag k="addr:city" v="Worcester" />
    <tag k="addr:housenumber" v="625" />
    <tag k="addr:street" v="Minister Brook Road" />
    <tag k="addr:state" v="VT" />
    <tag k="ref:vcgi:esiteid" v="304324" />
  </node>
  <node id="-174" visible="true" lat="44.40279369" lon="-72.52534447">
    <tag k="addr:city" v="Worcester" />
    <tag k="addr:housenumber" v="289" />
    <tag k="addr:street" v="Eagle Ledge Road" />
    <tag k="addr:state" v="VT" />
    <tag k="ref:vcgi:esiteid" v="304325" />
  </node>
  <node id="-175" visible="true" lat="44.40256881" lon="-72.5562973">
    <tag k="addr:city" v="Worcester" />
    <tag k="addr:housenumber" v="48" />
    <tag k="addr:street" v="Lower Hancock Brook Road" />
    <tag k="addr:state" v="VT" />
    <tag k="ref:vcgi:esiteid" v="304326" />
  </node>
  <node id="-176" visible="true" lat="44.40229797" lon="-72.55198669">
    <tag k="addr:city" v="Worcester" />
    <tag k="addr:housenumber" v="472" />
    <tag k="addr:street" v="Elmore Road" />
    <tag k="addr:state" v="VT" />
    <tag k="ref:vcgi:esiteid" v="304327" />
  </node>
  <node id="-177" visible="true" lat="44.40224838" lon="-72.52671051">
    <tag k="addr:city" v="Worcester" />
    <tag k="addr:housenumber" v="270" />
    <tag k="addr:street" v="Eagle Ledge Road" />
    <tag k="addr:state" v="VT" />
    <tag k="ref:vcgi:esiteid" v="304328" />
  </node>
  <node id="-178" visible="true" lat="44.40213861" lon="-72.5857452">
    <tag k="addr:city" v="Worcester" />
    <tag k="addr:housenumber" v="581" />
    <tag k="addr:street" v="Minister Brook Road" />
    <tag k="addr:state" v="VT" />
    <tag k="ref:vcgi:esiteid" v="304329" />
  </node>
  <node id="-179" visible="true" lat="44.40210483" lon="-72.59223704">
    <tag k="addr:city" v="Worcester" />
    <tag k="addr:housenumber" v="645" />
    <tag k="addr:street" v="Minister Brook Road" />
    <tag k="addr:state" v="VT" />
    <tag k="ref:vcgi:esiteid" v="304330" />
  </node>
  <node id="-180" visible="true" lat="44.40194101" lon="-72.59325149">
    <tag k="addr:city" v="Worcester" />
    <tag k="addr:housenumber" v="648" />
    <tag k="addr:street" v="Minister Brook Road" />
    <tag k="addr:state" v="VT" />
    <tag k="ref:vcgi:esiteid" v="304331" />
  </node>
  <node id="-181" visible="true" lat="44.40176179" lon="-72.55246696">
    <tag k="addr:city" v="Worcester" />
    <tag k="addr:housenumber" v="3" />
    <tag k="addr:street" v="Lower Hancock Brook Road" />
    <tag k="addr:state" v="VT" />
    <tag k="ref:vcgi:esiteid" v="304332" />
  </node>
  <node id="-182" visible="true" lat="44.40150292" lon="-72.57776468">
    <tag k="addr:city" v="Worcester" />
    <tag k="addr:housenumber" v="220" />
    <tag k="addr:street" v="Hampshire Hill Road" />
    <tag k="addr:state" v="VT" />
    <tag k="ref:vcgi:esiteid" v="304333" />
  </node>
  <node id="-183" visible="true" lat="44.40178205" lon="-72.5916701">
    <tag k="addr:city" v="Worcester" />
    <tag k="addr:housenumber" v="639" />
    <tag k="addr:street" v="Minister Brook Road" />
    <tag k="addr:state" v="VT" />
    <tag k="ref:vcgi:esiteid" v="304334" />
  </node>
  <node id="-184" visible="true" lat="44.40167047" lon="-72.59363287">
    <tag k="addr:city" v="Worcester" />
    <tag k="addr:housenumber" v="650" />
    <tag k="addr:street" v="Minister Brook Road" />
    <tag k="addr:state" v="VT" />
    <tag k="ref:vcgi:esiteid" v="304335" />
  </node>
  <node id="-185" visible="true" lat="44.40135574" lon="-72.57371521">
    <tag k="addr:city" v="Worcester" />
    <tag k="addr:housenumber" v="211" />
    <tag k="addr:street" v="Hampshire Hill Road" />
    <tag k="addr:state" v="VT" />
    <tag k="ref:vcgi:esiteid" v="304336" />
  </node>
  <node id="-186" visible="true" lat="44.4012947" lon="-72.52694702">
    <tag k="addr:city" v="Worcester" />
    <tag k="addr:housenumber" v="266" />
    <tag k="addr:street" v="Eagle Ledge Road" />
    <tag k="addr:state" v="VT" />
    <tag k="ref:vcgi:esiteid" v="304337" />
  </node>
  <node id="-187" visible="true" lat="44.40117645" lon="-72.59181213">
    <tag k="addr:city" v="Worcester" />
    <tag k="addr:housenumber" v="636" />
    <tag k="addr:street" v="Minister Brook Road" />
    <tag k="addr:state" v="VT" />
    <tag k="ref:vcgi:esiteid" v="304338" />
  </node>
  <node id="-188" visible="true" lat="44.40089797" lon="-72.57362365">
    <tag k="addr:city" v="Worcester" />
    <tag k="addr:housenumber" v="205" />
    <tag k="addr:street" v="Hampshire Hill Road" />
    <tag k="addr:state" v="VT" />
    <tag k="ref:vcgi:esiteid" v="304339" />
  </node>
  <node id="-189" visible="true" lat="44.40075328" lon="-72.58703712">
    <tag k="addr:city" v="Worcester" />
    <tag k="addr:housenumber" v="579" />
    <tag k="addr:street" v="Minister Brook Road" />
    <tag k="addr:state" v="VT" />
    <tag k="ref:vcgi:esiteid" v="304340" />
  </node>
  <node id="-190" visible="true" lat="44.40079012" lon="-72.5266153">
    <tag k="addr:city" v="Worcester" />
    <tag k="addr:housenumber" v="249" />
    <tag k="addr:street" v="Eagle Ledge Road" />
    <tag k="addr:state" v="VT" />
    <tag k="ref:vcgi:esiteid" v="304341" />
  </node>
  <node id="-191" visible="true" lat="44.40080607" lon="-72.52569772">
    <tag k="addr:city" v="Worcester" />
    <tag k="addr:housenumber" v="28" />
    <tag k="addr:street" v="Frantz Road" />
    <tag k="addr:state" v="VT" />
    <tag k="ref:vcgi:esiteid" v="304342" />
  </node>
  <node id="-192" visible="true" lat="44.40029039" lon="-72.59028371">
    <tag k="addr:city" v="Worcester" />
    <tag k="addr:housenumber" v="621" />
    <tag k="addr:street" v="Minister Brook Road" />
    <tag k="addr:state" v="VT" />
    <tag k="ref:vcgi:esiteid" v="304343" />
  </node>
  <node id="-193" visible="true" lat="44.40038293" lon="-72.5267738">
    <tag k="addr:city" v="Worcester" />
    <tag k="addr:housenumber" v="245" />
    <tag k="addr:street" v="Eagle Ledge Road" />
    <tag k="addr:state" v="VT" />
    <tag k="ref:vcgi:esiteid" v="304344" />
  </node>
  <node id="-194" visible="true" lat="44.39998803" lon="-72.55292146">
    <tag k="addr:city" v="Worcester" />
    <tag k="addr:housenumber" v="439" />
    <tag k="addr:street" v="Elmore Road" />
    <tag k="addr:state" v="VT" />
    <tag k="ref:vcgi:esiteid" v="304345" />
  </node>
  <node id="-195" visible="true" lat="44.39949478" lon="-72.55172974">
    <tag k="addr:city" v="Worcester" />
    <tag k="addr:housenumber" v="441" />
    <tag k="addr:street" v="Elmore Road" />
    <tag k="addr:state" v="VT" />
    <tag k="ref:vcgi:esiteid" v="304346" />
  </node>
  <node id="-196" visible="true" lat="44.39941979" lon="-72.52644293">
    <tag k="addr:city" v="Worcester" />
    <tag k="addr:housenumber" v="2" />
    <tag k="addr:street" v="Frantz Road" />
    <tag k="addr:state" v="VT" />
    <tag k="ref:vcgi:esiteid" v="304347" />
  </node>
  <node id="-197" visible="true" lat="44.39931498" lon="-72.52582079">
    <tag k="addr:city" v="Worcester" />
    <tag k="addr:housenumber" v="7" />
    <tag k="addr:street" v="Frantz Road" />
    <tag k="addr:state" v="VT" />
    <tag k="ref:vcgi:esiteid" v="304348" />
  </node>
  <node id="-198" visible="true" lat="44.39945822" lon="-72.51614574">
    <tag k="addr:city" v="Worcester" />
    <tag k="addr:housenumber" v="101" />
    <tag k="addr:street" v="Harris Hill Road" />
    <tag k="addr:state" v="VT" />
    <tag k="ref:vcgi:esiteid" v="304349" />
  </node>
  <node id="-199" visible="true" lat="44.39920806" lon="-72.57280731">
    <tag k="addr:city" v="Worcester" />
    <tag k="addr:housenumber" v="181" />
    <tag k="addr:street" v="Hampshire Hill Road" />
    <tag k="addr:state" v="VT" />
    <tag k="ref:vcgi:esiteid" v="304350" />
  </node>
  <node id="-200" visible="true" lat="44.39930272" lon="-72.58995564">
    <tag k="addr:city" v="Worcester" />
    <tag k="addr:housenumber" v="587" />
    <tag k="addr:street" v="Minister Brook Road" />
    <tag k="addr:state" v="VT" />
    <tag k="ref:vcgi:esiteid" v="304351" />
  </node>
  <node id="-201" visible="true" lat="44.39903125" lon="-72.55376338">
    <tag k="addr:city" v="Worcester" />
    <tag k="addr:housenumber" v="417" />
    <tag k="addr:street" v="Elmore Road" />
    <tag k="addr:state" v="VT" />
    <tag k="ref:vcgi:esiteid" v="304352" />
  </node>
  <node id="-202" visible="true" lat="44.39844821" lon="-72.52702094">
    <tag k="addr:city" v="Worcester" />
    <tag k="addr:housenumber" v="222" />
    <tag k="addr:street" v="Eagle Ledge Road" />
    <tag k="addr:state" v="VT" />
    <tag k="ref:vcgi:esiteid" v="304353" />
  </node>
  <node id="-203" visible="true" lat="44.39867782" lon="-72.57466125">
    <tag k="addr:city" v="Worcester" />
    <tag k="addr:housenumber" v="166" />
    <tag k="addr:street" v="Hampshire Hill Road" />
    <tag k="addr:state" v="VT" />
    <tag k="ref:vcgi:esiteid" v="304354" />
  </node>
  <node id="-204" visible="true" lat="44.39827346" lon="-72.55382537">
    <tag k="addr:city" v="Worcester" />
    <tag k="addr:housenumber" v="7" />
    <tag k="addr:street" v="Lee Road" />
    <tag k="addr:state" v="VT" />
    <tag k="ref:vcgi:esiteid" v="304355" />
  </node>
  <node id="-205" visible="true" lat="44.39811325" lon="-72.55498504">
    <tag k="addr:city" v="Worcester" />
    <tag k="addr:housenumber" v="399" />
    <tag k="addr:street" v="Elmore Road" />
    <tag k="addr:state" v="VT" />
    <tag k="ref:vcgi:esiteid" v="304356" />
  </node>
  <node id="-206" visible="true" lat="44.39799118" lon="-72.55245208">
    <tag k="addr:city" v="Worcester" />
    <tag k="addr:housenumber" v="25" />
    <tag k="addr:street" v="Lee Road" />
    <tag k="addr:state" v="VT" />
    <tag k="ref:vcgi:esiteid" v="304357" />
  </node>
  <node id="-207" visible="true" lat="44.39790601" lon="-72.57126787">
    <tag k="addr:city" v="Worcester" />
    <tag k="addr:housenumber" v="159" />
    <tag k="addr:street" v="Hampshire Hill Road" />
    <tag k="addr:state" v="VT" />
    <tag k="ref:vcgi:esiteid" v="304358" />
  </node>
  <node id="-208" visible="true" lat="44.39780702" lon="-72.58975563">
    <tag k="addr:city" v="Worcester" />
    <tag k="addr:housenumber" v="580" />
    <tag k="addr:street" v="Minister Brook Road" />
    <tag k="addr:state" v="VT" />
    <tag k="ref:vcgi:esiteid" v="304359" />
  </node>
  <node id="-209" visible="true" lat="44.39777755" lon="-72.55173492">
    <tag k="addr:city" v="Worcester" />
    <tag k="addr:housenumber" v="35" />
    <tag k="addr:street" v="Lee Road" />
    <tag k="addr:state" v="VT" />
    <tag k="ref:vcgi:esiteid" v="304360" />
  </node>
  <node id="-210" visible="true" lat="44.39750289" lon="-72.55133819">
    <tag k="addr:city" v="Worcester" />
    <tag k="addr:housenumber" v="39" />
    <tag k="addr:street" v="Lee Road" />
    <tag k="addr:state" v="VT" />
    <tag k="ref:vcgi:esiteid" v="304361" />
  </node>
  <node id="-211" visible="true" lat="44.39724191" lon="-72.58841788">
    <tag k="addr:city" v="Worcester" />
    <tag k="addr:housenumber" v="565" />
    <tag k="addr:street" v="Minister Brook Road" />
    <tag k="addr:state" v="VT" />
    <tag k="ref:vcgi:esiteid" v="304363" />
  </node>
  <node id="-212" visible="true" lat="44.39681879" lon="-72.52197594">
    <tag k="addr:city" v="Worcester" />
    <tag k="addr:housenumber" v="37" />
    <tag k="addr:street" v="Harris Hill Road" />
    <tag k="addr:state" v="VT" />
    <tag k="ref:vcgi:esiteid" v="304364" />
  </node>
  <node id="-213" visible="true" lat="44.39657954" lon="-72.55539281">
    <tag k="addr:city" v="Worcester" />
    <tag k="addr:housenumber" v="381" />
    <tag k="addr:street" v="Elmore Road" />
    <tag k="addr:state" v="VT" />
    <tag k="ref:vcgi:esiteid" v="304365" />
  </node>
  <node id="-214" visible="true" lat="44.39675885" lon="-72.52643393">
    <tag k="addr:city" v="Worcester" />
    <tag k="addr:housenumber" v="13" />
    <tag k="addr:street" v="Brown Road" />
    <tag k="addr:state" v="VT" />
    <tag k="ref:vcgi:esiteid" v="304366" />
  </node>
  <node id="-215" visible="true" lat="44.39659118" lon="-72.55625152">
    <tag k="addr:city" v="Worcester" />
    <tag k="addr:housenumber" v="376" />
    <tag k="addr:street" v="Elmore Road" />
    <tag k="addr:state" v="VT" />
    <tag k="ref:vcgi:esiteid" v="304367" />
  </node>
  <node id="-216" visible="true" lat="44.39658922" lon="-72.57357706">
    <tag k="addr:city" v="Worcester" />
    <tag k="addr:housenumber" v="144" />
    <tag k="addr:street" v="Hampshire Hill Road" />
    <tag k="addr:state" v="VT" />
    <tag k="ref:vcgi:esiteid" v="304368" />
  </node>
  <node id="-217" visible="true" lat="44.39616393" lon="-72.52738189">
    <tag k="addr:city" v="Worcester" />
    <tag k="addr:housenumber" v="25" />
    <tag k="addr:street" v="Brown Road" />
    <tag k="addr:state" v="VT" />
    <tag k="ref:vcgi:esiteid" v="304369" />
  </node>
  <node id="-218" visible="true" lat="44.39579927" lon="-72.52282414">
    <tag k="addr:city" v="Worcester" />
    <tag k="addr:housenumber" v="14" />
    <tag k="addr:street" v="Harris Hill Road" />
    <tag k="addr:state" v="VT" />
    <tag k="ref:vcgi:esiteid" v="304370" />
  </node>
  <node id="-219" visible="true" lat="44.39577865" lon="-72.55661773">
    <tag k="addr:city" v="Worcester" />
    <tag k="addr:housenumber" v="372" />
    <tag k="addr:street" v="Elmore Road" />
    <tag k="addr:state" v="VT" />
    <tag k="ref:vcgi:esiteid" v="304371" />
  </node>
  <node id="-220" visible="true" lat="44.39544556" lon="-72.58173035">
    <tag k="addr:city" v="Worcester" />
    <tag k="addr:housenumber" v="39" />
    <tag k="addr:street" v="Sand Hill Road" />
    <tag k="addr:state" v="VT" />
    <tag k="ref:vcgi:esiteid" v="304372" />
  </node>
  <node id="-221" visible="true" lat="44.39542389" lon="-72.55677795">
    <tag k="addr:city" v="Worcester" />
    <tag k="addr:housenumber" v="358" />
    <tag k="addr:street" v="Elmore Road" />
    <tag k="addr:state" v="VT" />
    <tag k="ref:vcgi:esiteid" v="304373" />
  </node>
  <node id="-222" visible="true" lat="44.39514845" lon="-72.59163012">
    <tag k="addr:city" v="Worcester" />
    <tag k="addr:housenumber" v="84" />
    <tag k="addr:street" v="Kimball Road" />
    <tag k="addr:state" v="VT" />
    <tag k="ref:vcgi:esiteid" v="304374" />
  </node>
  <node id="-223" visible="true" lat="44.3952454" lon="-72.58767188">
    <tag k="addr:city" v="Worcester" />
    <tag k="addr:housenumber" v="539" />
    <tag k="addr:street" v="Minister Brook Road" />
    <tag k="addr:state" v="VT" />
    <tag k="ref:vcgi:esiteid" v="304375" />
  </node>
  <node id="-224" visible="true" lat="44.3949229" lon="-72.58966112">
    <tag k="addr:city" v="Worcester" />
    <tag k="addr:housenumber" v="20" />
    <tag k="addr:street" v="Kimball Road" />
    <tag k="addr:state" v="VT" />
    <tag k="ref:vcgi:esiteid" v="304376" />
  </node>
  <node id="-225" visible="true" lat="44.39489584" lon="-72.57483971">
    <tag k="addr:city" v="Worcester" />
    <tag k="addr:housenumber" v="120" />
    <tag k="addr:street" v="Hampshire Hill Road" />
    <tag k="addr:state" v="VT" />
    <tag k="ref:vcgi:esiteid" v="304377" />
  </node>
  <node id="-226" visible="true" lat="44.3951352" lon="-72.57413674">
    <tag k="addr:city" v="Worcester" />
    <tag k="addr:housenumber" v="122" />
    <tag k="addr:street" v="Hampshire Hill Road" />
    <tag k="addr:state" v="VT" />
    <tag k="ref:vcgi:esiteid" v="304378" />
  </node>
  <node id="-227" visible="true" lat="44.39430236" lon="-72.58735656">
    <tag k="addr:city" v="Worcester" />
    <tag k="addr:housenumber" v="516" />
    <tag k="addr:street" v="Minister Brook Road" />
    <tag k="addr:state" v="VT" />
    <tag k="ref:vcgi:esiteid" v="304379" />
  </node>
  <node id="-228" visible="true" lat="44.39414982" lon="-72.5841836">
    <tag k="addr:city" v="Worcester" />
    <tag k="addr:housenumber" v="7" />
    <tag k="addr:street" v="Sand Hill Road" />
    <tag k="addr:state" v="VT" />
    <tag k="ref:vcgi:esiteid" v="304380" />
  </node>
  <node id="-229" visible="true" lat="44.39400482" lon="-72.52224731">
    <tag k="addr:city" v="Worcester" />
    <tag k="addr:housenumber" v="137" />
    <tag k="addr:street" v="Eagle Ledge Road" />
    <tag k="addr:state" v="VT" />
    <tag k="ref:vcgi:esiteid" v="304381" />
  </node>
  <node id="-230" visible="true" lat="44.39398956" lon="-72.556427">
    <tag k="addr:city" v="Worcester" />
    <tag k="addr:housenumber" v="339" />
    <tag k="addr:street" v="Elmore Road" />
    <tag k="addr:state" v="VT" />
    <tag k="ref:vcgi:esiteid" v="304382" />
  </node>
  <node id="-231" visible="true" lat="44.39376068" lon="-72.57302093">
    <tag k="addr:city" v="Worcester" />
    <tag k="addr:housenumber" v="103" />
    <tag k="addr:street" v="Hampshire Hill Road" />
    <tag k="addr:state" v="VT" />
    <tag k="ref:vcgi:esiteid" v="304383" />
  </node>
  <node id="-232" visible="true" lat="44.39365895" lon="-72.52498019">
    <tag k="addr:city" v="Worcester" />
    <tag k="addr:housenumber" v="126" />
    <tag k="addr:street" v="Eagle Ledge Road" />
    <tag k="addr:state" v="VT" />
    <tag k="ref:vcgi:esiteid" v="304384" />
  </node>
  <node id="-233" visible="true" lat="44.39331918" lon="-72.58407144">
    <tag k="addr:city" v="Worcester" />
    <tag k="addr:housenumber" v="489" />
    <tag k="addr:street" v="Minister Brook Road" />
    <tag k="addr:state" v="VT" />
    <tag k="ref:vcgi:esiteid" v="304385" />
  </node>
  <node id="-234" visible="true" lat="44.39326612" lon="-72.58584573">
    <tag k="addr:city" v="Worcester" />
    <tag k="addr:housenumber" v="500" />
    <tag k="addr:street" v="Minister Brook Road" />
    <tag k="addr:state" v="VT" />
    <tag k="ref:vcgi:esiteid" v="304386" />
  </node>
  <node id="-235" visible="true" lat="44.39273804" lon="-72.58425287">
    <tag k="addr:city" v="Worcester" />
    <tag k="addr:housenumber" v="484" />
    <tag k="addr:street" v="Minister Brook Road" />
    <tag k="addr:state" v="VT" />
    <tag k="ref:vcgi:esiteid" v="304388" />
  </node>
  <node id="-236" visible="true" lat="44.39289474" lon="-72.55734252">
    <tag k="addr:city" v="Worcester" />
    <tag k="addr:housenumber" v="326" />
    <tag k="addr:street" v="Elmore Road" />
    <tag k="addr:state" v="VT" />
    <tag k="ref:vcgi:esiteid" v="304389" />
  </node>
  <node id="-237" visible="true" lat="44.39287201" lon="-72.58307359">
    <tag k="addr:city" v="Worcester" />
    <tag k="addr:housenumber" v="471" />
    <tag k="addr:street" v="Minister Brook Road" />
    <tag k="addr:state" v="VT" />
    <tag k="ref:vcgi:esiteid" v="304390" />
  </node>
  <node id="-238" visible="true" lat="44.39261543" lon="-72.58374473">
    <tag k="addr:city" v="Worcester" />
    <tag k="addr:housenumber" v="476" />
    <tag k="addr:street" v="Minister Brook Road" />
    <tag k="addr:state" v="VT" />
    <tag k="ref:vcgi:esiteid" v="304391" />
  </node>
  <node id="-239" visible="true" lat="44.39259966" lon="-72.58226063">
    <tag k="addr:city" v="Worcester" />
    <tag k="addr:housenumber" v="465" />
    <tag k="addr:street" v="Minister Brook Road" />
    <tag k="addr:state" v="VT" />
    <tag k="ref:vcgi:esiteid" v="304392" />
  </node>
  <node id="-240" visible="true" lat="44.39247131" lon="-72.57367706">
    <tag k="addr:city" v="Worcester" />
    <tag k="addr:housenumber" v="86" />
    <tag k="addr:street" v="Hampshire Hill Road" />
    <tag k="addr:state" v="VT" />
    <tag k="ref:vcgi:esiteid" v="304393" />
  </node>
  <node id="-241" visible="true" lat="44.39192055" lon="-72.58148987">
    <tag k="addr:city" v="Worcester" />
    <tag k="addr:housenumber" v="449" />
    <tag k="addr:street" v="Minister Brook Road" />
    <tag k="addr:state" v="VT" />
    <tag k="ref:vcgi:esiteid" v="304394" />
  </node>
  <node id="-242" visible="true" lat="44.39171233" lon="-72.58228019">
    <tag k="addr:city" v="Worcester" />
    <tag k="addr:housenumber" v="456" />
    <tag k="addr:street" v="Minister Brook Road" />
    <tag k="addr:state" v="VT" />
    <tag k="ref:vcgi:esiteid" v="304395" />
  </node>
  <node id="-243" visible="true" lat="44.39135631" lon="-72.5807659">
    <tag k="addr:city" v="Worcester" />
    <tag k="addr:housenumber" v="441" />
    <tag k="addr:street" v="Minister Brook Road" />
    <tag k="addr:state" v="VT" />
    <tag k="ref:vcgi:esiteid" v="304396" />
  </node>
  <node id="-244" visible="true" lat="44.39103698" lon="-72.52055358">
    <tag k="addr:city" v="Worcester" />
    <tag k="addr:housenumber" v="83" />
    <tag k="addr:street" v="Eagle Ledge Road" />
    <tag k="addr:state" v="VT" />
    <tag k="ref:vcgi:esiteid" v="304397" />
  </node>
  <node id="-245" visible="true" lat="44.39091491" lon="-72.57198333">
    <tag k="addr:city" v="Worcester" />
    <tag k="addr:housenumber" v="59" />
    <tag k="addr:street" v="Hampshire Hill Road" />
    <tag k="addr:state" v="VT" />
    <tag k="ref:vcgi:esiteid" v="304398" />
  </node>
  <node id="-246" visible="true" lat="44.39083099" lon="-72.57966613">
    <tag k="addr:city" v="Worcester" />
    <tag k="addr:housenumber" v="427" />
    <tag k="addr:street" v="Minister Brook Road" />
    <tag k="addr:state" v="VT" />
    <tag k="ref:vcgi:esiteid" v="304399" />
  </node>
  <node id="-247" visible="true" lat="44.39072418" lon="-72.58846282">
    <tag k="addr:city" v="Worcester" />
    <tag k="addr:housenumber" v="207" />
    <tag k="addr:street" v="West Hill Road" />
    <tag k="addr:state" v="VT" />
    <tag k="ref:vcgi:esiteid" v="304400" />
  </node>
  <node id="-248" visible="true" lat="44.3905049" lon="-72.53672103">
    <tag k="addr:city" v="Worcester" />
    <tag k="addr:housenumber" v="145" />
    <tag k="addr:street" v="Pratt Road" />
    <tag k="addr:state" v="VT" />
    <tag k="ref:vcgi:esiteid" v="304401" />
  </node>
  <node id="-249" visible="true" lat="44.39025474" lon="-72.52225399">
    <tag k="addr:city" v="Worcester" />
    <tag k="addr:housenumber" v="16" />
    <tag k="addr:street" v="Ira B Road" />
    <tag k="addr:state" v="VT" />
    <tag k="ref:vcgi:esiteid" v="304402" />
  </node>
  <node id="-250" visible="true" lat="44.39016437" lon="-72.53750915">
    <tag k="addr:city" v="Worcester" />
    <tag k="addr:housenumber" v="127" />
    <tag k="addr:street" v="Pratt Road" />
    <tag k="addr:state" v="VT" />
    <tag k="ref:vcgi:esiteid" v="304403" />
  </node>
  <node id="-251" visible="true" lat="44.39010238" lon="-72.5576477">
    <tag k="addr:city" v="Worcester" />
    <tag k="addr:housenumber" v="278" />
    <tag k="addr:street" v="Elmore Road" />
    <tag k="addr:state" v="VT" />
    <tag k="ref:vcgi:esiteid" v="304404" />
  </node>
  <node id="-252" visible="true" lat="44.38995042" lon="-72.52294324">
    <tag k="addr:city" v="Worcester" />
    <tag k="addr:housenumber" v="23" />
    <tag k="addr:street" v="Ira B Road" />
    <tag k="addr:state" v="VT" />
    <tag k="ref:vcgi:esiteid" v="304405" />
  </node>
  <node id="-253" visible="true" lat="44.38945778" lon="-72.57286647">
    <tag k="addr:city" v="Worcester" />
    <tag k="addr:housenumber" v="36" />
    <tag k="addr:street" v="Hampshire Hill Road" />
    <tag k="addr:state" v="VT" />
    <tag k="ref:vcgi:esiteid" v="304406" />
  </node>
  <node id="-254" visible="true" lat="44.38955758" lon="-72.520729">
    <tag k="addr:city" v="Worcester" />
    <tag k="addr:housenumber" v="59" />
    <tag k="addr:street" v="Eagle Ledge Road" />
    <tag k="addr:state" v="VT" />
    <tag k="ref:vcgi:esiteid" v="304407" />
  </node>
  <node id="-255" visible="true" lat="44.38967895" lon="-72.57944488">
    <tag k="addr:city" v="Worcester" />
    <tag k="addr:housenumber" v="414" />
    <tag k="addr:street" v="Minister Brook Road" />
    <tag k="addr:state" v="VT" />
    <tag k="ref:vcgi:esiteid" v="304408" />
  </node>
  <node id="-256" visible="true" lat="44.38962936" lon="-72.57894134">
    <tag k="addr:city" v="Worcester" />
    <tag k="addr:housenumber" v="409" />
    <tag k="addr:street" v="Minister Brook Road" />
    <tag k="addr:state" v="VT" />
    <tag k="ref:vcgi:esiteid" v="304409" />
  </node>
  <node id="-257" visible="true" lat="44.38969118" lon="-72.53896086">
    <tag k="addr:city" v="Worcester" />
    <tag k="addr:housenumber" v="120" />
    <tag k="addr:street" v="Pratt Road" />
    <tag k="addr:state" v="VT" />
    <tag k="ref:vcgi:esiteid" v="304410" />
  </node>
  <node id="-258" visible="true" lat="44.38930445" lon="-72.57371653">
    <tag k="addr:city" v="Worcester" />
    <tag k="addr:housenumber" v="38" />
    <tag k="addr:street" v="Hampshire Hill Road" />
    <tag k="addr:state" v="VT" />
    <tag k="ref:vcgi:esiteid" v="304411" />
  </node>
  <node id="-259" visible="true" lat="44.38928389" lon="-72.53737254">
    <tag k="addr:city" v="Worcester" />
    <tag k="addr:housenumber" v="119" />
    <tag k="addr:street" v="Pratt Road" />
    <tag k="addr:state" v="VT" />
    <tag k="ref:vcgi:esiteid" v="304412" />
  </node>
  <node id="-260" visible="true" lat="44.38907241" lon="-72.57833862">
    <tag k="addr:city" v="Worcester" />
    <tag k="addr:housenumber" v="397" />
    <tag k="addr:street" v="Minister Brook Road" />
    <tag k="addr:state" v="VT" />
    <tag k="ref:vcgi:esiteid" v="304413" />
  </node>
  <node id="-261" visible="true" lat="44.38908502" lon="-72.53789182">
    <tag k="addr:city" v="Worcester" />
    <tag k="addr:housenumber" v="117" />
    <tag k="addr:street" v="Pratt Road" />
    <tag k="addr:state" v="VT" />
    <tag k="ref:vcgi:esiteid" v="304414" />
  </node>
  <node id="-262" visible="true" lat="44.38894362" lon="-72.51945722">
    <tag k="addr:city" v="Worcester" />
    <tag k="addr:housenumber" v="436" />
    <tag k="addr:street" v="Calais Road" />
    <tag k="addr:state" v="VT" />
    <tag k="ref:vcgi:esiteid" v="304415" />
  </node>
  <node id="-263" visible="true" lat="44.38839721" lon="-72.5773468">
    <tag k="addr:city" v="Worcester" />
    <tag k="addr:housenumber" v="380" />
    <tag k="addr:street" v="Minister Brook Road" />
    <tag k="addr:state" v="VT" />
    <tag k="ref:vcgi:esiteid" v="304416" />
  </node>
  <node id="-264" visible="true" lat="44.38826018" lon="-72.5713245">
    <tag k="addr:city" v="Worcester" />
    <tag k="addr:housenumber" v="25" />
    <tag k="addr:street" v="Hampshire Hill Road" />
    <tag k="addr:state" v="VT" />
    <tag k="ref:vcgi:esiteid" v="304417" />
  </node>
  <node id="-265" visible="true" lat="44.3883628" lon="-72.5199119">
    <tag k="addr:city" v="Worcester" />
    <tag k="addr:housenumber" v="434" />
    <tag k="addr:street" v="Calais Road" />
    <tag k="addr:state" v="VT" />
    <tag k="ref:vcgi:esiteid" v="304418" />
  </node>
  <node id="-266" visible="true" lat="44.38831005" lon="-72.53677583">
    <tag k="addr:city" v="Worcester" />
    <tag k="addr:housenumber" v="85" />
    <tag k="addr:street" v="Pratt Road" />
    <tag k="addr:state" v="VT" />
    <tag k="ref:vcgi:esiteid" v="304419" />
  </node>
  <node id="-267" visible="true" lat="44.38796895" lon="-72.53732359">
    <tag k="addr:city" v="Worcester" />
    <tag k="addr:housenumber" v="87" />
    <tag k="addr:street" v="Pratt Road" />
    <tag k="addr:state" v="VT" />
    <tag k="ref:vcgi:esiteid" v="304420" />
  </node>
  <node id="-268" visible="true" lat="44.38798522" lon="-72.53836822">
    <tag k="addr:city" v="Worcester" />
    <tag k="addr:housenumber" v="95" />
    <tag k="addr:street" v="Pratt Road" />
    <tag k="addr:state" v="VT" />
    <tag k="ref:vcgi:esiteid" v="304421" />
  </node>
  <node id="-269" visible="true" lat="44.38791754" lon="-72.5208148">
    <tag k="addr:city" v="Worcester" />
    <tag k="addr:housenumber" v="23" />
    <tag k="addr:street" v="Eagle Ledge Road" />
    <tag k="addr:state" v="VT" />
    <tag k="ref:vcgi:esiteid" v="304422" />
  </node>
  <node id="-270" visible="true" lat="44.38784027" lon="-72.52003479">
    <tag k="addr:city" v="Worcester" />
    <tag k="addr:housenumber" v="424" />
    <tag k="addr:street" v="Calais Road" />
    <tag k="addr:state" v="VT" />
    <tag k="ref:vcgi:esiteid" v="304423" />
  </node>
  <node id="-271" visible="true" lat="44.387808" lon="-72.55507107">
    <tag k="addr:city" v="Worcester" />
    <tag k="addr:housenumber" v="241" />
    <tag k="addr:street" v="Elmore Road" />
    <tag k="addr:state" v="VT" />
    <tag k="ref:vcgi:esiteid" v="304424" />
  </node>
  <node id="-272" visible="true" lat="44.38761142" lon="-72.55573236">
    <tag k="addr:city" v="Worcester" />
    <tag k="addr:housenumber" v="242" />
    <tag k="addr:street" v="Elmore Road" />
    <tag k="addr:state" v="VT" />
    <tag k="ref:vcgi:esiteid" v="304425" />
  </node>
  <node id="-273" visible="true" lat="44.38720321" lon="-72.57446288">
    <tag k="addr:city" v="Worcester" />
    <tag k="addr:housenumber" v="347" />
    <tag k="addr:street" v="Minister Brook Road" />
    <tag k="addr:state" v="VT" />
    <tag k="ref:vcgi:esiteid" v="304426" />
  </node>
  <node id="-274" visible="true" lat="44.38787547" lon="-72.58693615">
    <tag k="addr:city" v="Worcester" />
    <tag k="addr:housenumber" v="205" />
    <tag k="addr:street" v="West Hill Road" />
    <tag k="addr:state" v="VT" />
    <tag k="ref:vcgi:esiteid" v="304427" />
  </node>
  <node id="-275" visible="true" lat="44.38692093" lon="-72.55484771">
    <tag k="addr:city" v="Worcester" />
    <tag k="addr:housenumber" v="232" />
    <tag k="addr:street" v="Elmore Road" />
    <tag k="addr:state" v="VT" />
    <tag k="ref:vcgi:esiteid" v="304428" />
  </node>
  <node id="-276" visible="true" lat="44.38672065" lon="-72.58549929">
    <tag k="addr:city" v="Worcester" />
    <tag k="addr:housenumber" v="204" />
    <tag k="addr:street" v="West Hill Road" />
    <tag k="addr:state" v="VT" />
    <tag k="ref:vcgi:esiteid" v="304429" />
  </node>
  <node id="-277" visible="true" lat="44.38661956" lon="-72.58786773">
    <tag k="addr:city" v="Worcester" />
    <tag k="addr:housenumber" v="211" />
    <tag k="addr:street" v="West Hill Road" />
    <tag k="addr:state" v="VT" />
    <tag k="ref:vcgi:esiteid" v="304430" />
  </node>
  <node id="-278" visible="true" lat="44.38626039" lon="-72.55425475">
    <tag k="addr:city" v="Worcester" />
    <tag k="addr:housenumber" v="228" />
    <tag k="addr:street" v="Elmore Road" />
    <tag k="addr:state" v="VT" />
    <tag k="ref:vcgi:esiteid" v="304431" />
  </node>
  <node id="-279" visible="true" lat="44.38620816" lon="-72.52184797">
    <tag k="addr:city" v="Worcester" />
    <tag k="addr:housenumber" v="201" />
    <tag k="addr:street" v="Collar Hill Road" />
    <tag k="addr:state" v="VT" />
    <tag k="ref:vcgi:esiteid" v="304432" />
  </node>
  <node id="-280" visible="true" lat="44.38614611" lon="-72.5724278">
    <tag k="addr:city" v="Worcester" />
    <tag k="addr:housenumber" v="13" />
    <tag k="addr:street" v="West Hill Road" />
    <tag k="addr:state" v="VT" />
    <tag k="ref:vcgi:esiteid" v="304433" />
  </node>
  <node id="-281" visible="true" lat="44.38598879" lon="-72.57122697">
    <tag k="addr:city" v="Worcester" />
    <tag k="addr:housenumber" v="12" />
    <tag k="addr:street" v="West Hill Road" />
    <tag k="addr:state" v="VT" />
    <tag k="ref:vcgi:esiteid" v="304434" />
  </node>
  <node id="-282" visible="true" lat="44.38602249" lon="-72.52472837">
    <tag k="addr:city" v="Worcester" />
    <tag k="addr:housenumber" v="374" />
    <tag k="addr:street" v="Calais Road" />
    <tag k="addr:state" v="VT" />
    <tag k="ref:vcgi:esiteid" v="304435" />
  </node>
  <node id="-283" visible="true" lat="44.38595746" lon="-72.57234992">
    <tag k="addr:city" v="Worcester" />
    <tag k="addr:housenumber" v="15" />
    <tag k="addr:street" v="West Hill Road" />
    <tag k="addr:state" v="VT" />
    <tag k="ref:vcgi:esiteid" v="304436" />
  </node>
  <node id="-284" visible="true" lat="44.38338009" lon="-72.5383748">
    <tag k="addr:city" v="Worcester" />
    <tag k="addr:housenumber" v="28" />
    <tag k="addr:street" v="Pratt Road" />
    <tag k="addr:state" v="VT" />
    <tag k="ref:vcgi:esiteid" v="304437" />
  </node>
  <node id="-285" visible="true" lat="44.38577284" lon="-72.58371394">
    <tag k="addr:city" v="Worcester" />
    <tag k="addr:housenumber" v="159" />
    <tag k="addr:street" v="West Hill Road" />
    <tag k="addr:state" v="VT" />
    <tag k="ref:vcgi:esiteid" v="304438" />
  </node>
  <node id="-286" visible="true" lat="44.38536325" lon="-72.56919558">
    <tag k="addr:city" v="Worcester" />
    <tag k="addr:housenumber" v="276" />
    <tag k="addr:street" v="Minister Brook Road" />
    <tag k="addr:state" v="VT" />
    <tag k="ref:vcgi:esiteid" v="304439" />
  </node>
  <node id="-287" visible="true" lat="44.38541961" lon="-72.5685185">
    <tag k="addr:city" v="Worcester" />
    <tag k="addr:housenumber" v="273" />
    <tag k="addr:street" v="Minister Brook Road" />
    <tag k="addr:state" v="VT" />
    <tag k="ref:vcgi:esiteid" v="304440" />
  </node>
  <node id="-288" visible="true" lat="44.38539866" lon="-72.57906164">
    <tag k="addr:city" v="Worcester" />
    <tag k="addr:housenumber" v="95" />
    <tag k="addr:street" v="West Hill Road" />
    <tag k="addr:state" v="VT" />
    <tag k="ref:vcgi:esiteid" v="304441" />
  </node>
  <node id="-289" visible="true" lat="44.38516159" lon="-72.58734701">
    <tag k="addr:city" v="Worcester" />
    <tag k="addr:housenumber" v="248" />
    <tag k="addr:street" v="West Hill Road" />
    <tag k="addr:state" v="VT" />
    <tag k="ref:vcgi:esiteid" v="304442" />
  </node>
  <node id="-290" visible="true" lat="44.38505419" lon="-72.54122677">
    <tag k="addr:city" v="Worcester" />
    <tag k="addr:housenumber" v="96" />
    <tag k="addr:street" v="Pratt Road" />
    <tag k="addr:state" v="VT" />
    <tag k="ref:vcgi:esiteid" v="304443" />
  </node>
  <node id="-291" visible="true" lat="44.38506584" lon="-72.56898638">
    <tag k="addr:city" v="Worcester" />
    <tag k="addr:housenumber" v="274" />
    <tag k="addr:street" v="Minister Brook Road" />
    <tag k="addr:state" v="VT" />
    <tag k="ref:vcgi:esiteid" v="304444" />
  </node>
  <node id="-292" visible="true" lat="44.38498846" lon="-72.58915124">
    <tag k="addr:city" v="Worcester" />
    <tag k="addr:housenumber" v="245" />
    <tag k="addr:street" v="West Hill Road" />
    <tag k="addr:state" v="VT" />
    <tag k="ref:vcgi:esiteid" v="304445" />
  </node>
  <node id="-293" visible="true" lat="44.38503351" lon="-72.58211466">
    <tag k="addr:city" v="Worcester" />
    <tag k="addr:housenumber" v="139" />
    <tag k="addr:street" v="West Hill Road" />
    <tag k="addr:state" v="VT" />
    <tag k="ref:vcgi:esiteid" v="304446" />
  </node>
  <node id="-294" visible="true" lat="44.38458633" lon="-72.56801605">
    <tag k="addr:city" v="Worcester" />
    <tag k="addr:housenumber" v="259" />
    <tag k="addr:street" v="Minister Brook Road" />
    <tag k="addr:state" v="VT" />
    <tag k="ref:vcgi:esiteid" v="304447" />
  </node>
  <node id="-295" visible="true" lat="44.38513748" lon="-72.55090396">
    <tag k="addr:city" v="Worcester" />
    <tag k="addr:housenumber" v="26" />
    <tag k="addr:street" v="Mill Road" />
    <tag k="addr:state" v="VT" />
    <tag k="ref:vcgi:esiteid" v="304448" />
  </node>
  <node id="-296" visible="true" lat="44.38449859" lon="-72.55378723">
    <tag k="addr:city" v="Worcester" />
    <tag k="addr:housenumber" v="192" />
    <tag k="addr:street" v="Elmore Road" />
    <tag k="addr:state" v="VT" />
    <tag k="ref:vcgi:esiteid" v="304449" />
  </node>
  <node id="-297" visible="true" lat="44.38444137" lon="-72.5823059">
    <tag k="addr:city" v="Worcester" />
    <tag k="addr:housenumber" v="142" />
    <tag k="addr:street" v="West Hill Road" />
    <tag k="addr:state" v="VT" />
    <tag k="ref:vcgi:esiteid" v="304450" />
  </node>
  <node id="-298" visible="true" lat="44.38450473" lon="-72.55231975">
    <tag k="addr:city" v="Worcester" />
    <tag k="addr:housenumber" v="18" />
    <tag k="addr:street" v="Mill Road" />
    <tag k="addr:state" v="VT" />
    <tag k="ref:vcgi:esiteid" v="304451" />
  </node>
  <node id="-299" visible="true" lat="44.38437271" lon="-72.55148315">
    <tag k="addr:city" v="Worcester" />
    <tag k="addr:housenumber" v="21" />
    <tag k="addr:street" v="Mill Road" />
    <tag k="addr:state" v="VT" />
    <tag k="ref:vcgi:esiteid" v="304452" />
  </node>
  <node id="-300" visible="true" lat="44.38426589" lon="-72.55182647">
    <tag k="addr:city" v="Worcester" />
    <tag k="addr:housenumber" v="17" />
    <tag k="addr:street" v="Mill Road" />
    <tag k="addr:state" v="VT" />
    <tag k="ref:vcgi:esiteid" v="304453" />
  </node>
  <node id="-301" visible="true" lat="44.38404195" lon="-72.58251173">
    <tag k="addr:city" v="Worcester" />
    <tag k="addr:housenumber" v="140" />
    <tag k="addr:street" v="West Hill Road" />
    <tag k="addr:state" v="VT" />
    <tag k="ref:vcgi:esiteid" v="304455" />
  </node>
  <node id="-302" visible="true" lat="44.38385077" lon="-72.57279352">
    <tag k="addr:city" v="Worcester" />
    <tag k="addr:housenumber" v="22" />
    <tag k="addr:street" v="Frazier Road" />
    <tag k="addr:state" v="VT" />
    <tag k="ref:vcgi:esiteid" v="304456" />
  </node>
  <node id="-303" visible="true" lat="44.38389719" lon="-72.5369594">
    <tag k="addr:city" v="Worcester" />
    <tag k="addr:housenumber" v="45" />
    <tag k="addr:street" v="Pratt Road" />
    <tag k="addr:state" v="VT" />
    <tag k="ref:vcgi:esiteid" v="304457" />
  </node>
  <node id="-304" visible="true" lat="44.38388241" lon="-72.55323771">
    <tag k="addr:city" v="Worcester" />
    <tag k="addr:housenumber" v="4" />
    <tag k="addr:street" v="Mill Road" />
    <tag k="addr:state" v="VT" />
    <tag k="ref:vcgi:esiteid" v="304458" />
  </node>
  <node id="-305" visible="true" lat="44.3835633" lon="-72.57573104">
    <tag k="addr:city" v="Worcester" />
    <tag k="addr:housenumber" v="94" />
    <tag k="addr:street" v="West Hill Road" />
    <tag k="addr:state" v="VT" />
    <tag k="ref:vcgi:esiteid" v="304459" />
  </node>
  <node id="-306" visible="true" lat="44.3834288" lon="-72.56569713">
    <tag k="addr:city" v="Worcester" />
    <tag k="addr:housenumber" v="253" />
    <tag k="addr:street" v="Minister Brook Road" />
    <tag k="addr:state" v="VT" />
    <tag k="ref:vcgi:esiteid" v="304460" />
  </node>
  <node id="-307" visible="true" lat="44.38344955" lon="-72.55351257">
    <tag k="addr:city" v="Worcester" />
    <tag k="addr:housenumber" v="178" />
    <tag k="addr:street" v="Elmore Road" />
    <tag k="addr:state" v="VT" />
    <tag k="ref:vcgi:esiteid" v="304461" />
  </node>
  <node id="-308" visible="true" lat="44.38340377" lon="-72.58869934">
    <tag k="addr:city" v="Worcester" />
    <tag k="addr:housenumber" v="272" />
    <tag k="addr:street" v="West Hill Road" />
    <tag k="addr:state" v="VT" />
    <tag k="ref:vcgi:esiteid" v="304462" />
  </node>
  <node id="-309" visible="true" lat="44.38313382" lon="-72.57324726">
    <tag k="addr:city" v="Worcester" />
    <tag k="addr:housenumber" v="31" />
    <tag k="addr:street" v="Frazier Road" />
    <tag k="addr:state" v="VT" />
    <tag k="ref:vcgi:esiteid" v="304463" />
  </node>
  <node id="-310" visible="true" lat="44.38314523" lon="-72.52665148">
    <tag k="addr:city" v="Worcester" />
    <tag k="addr:housenumber" v="323" />
    <tag k="addr:street" v="Calais Road" />
    <tag k="addr:state" v="VT" />
    <tag k="ref:vcgi:esiteid" v="304464" />
  </node>
  <node id="-311" visible="true" lat="44.38292228" lon="-72.54342315">
    <tag k="addr:city" v="Worcester" />
    <tag k="addr:housenumber" v="98" />
    <tag k="addr:street" v="Pratt Road" />
    <tag k="addr:state" v="VT" />
    <tag k="ref:vcgi:esiteid" v="304465" />
  </node>
  <node id="-312" visible="true" lat="44.38250325" lon="-72.53166642">
    <tag k="addr:city" v="Worcester" />
    <tag k="addr:housenumber" v="283" />
    <tag k="addr:street" v="Calais Road" />
    <tag k="addr:state" v="VT" />
    <tag k="ref:vcgi:esiteid" v="304466" />
  </node>
  <node id="-313" visible="true" lat="44.38248779" lon="-72.52981088">
    <tag k="addr:city" v="Worcester" />
    <tag k="addr:housenumber" v="299" />
    <tag k="addr:street" v="Calais Road" />
    <tag k="addr:state" v="VT" />
    <tag k="ref:vcgi:esiteid" v="304467" />
  </node>
  <node id="-314" visible="true" lat="44.38272857" lon="-72.59011077">
    <tag k="addr:city" v="Worcester" />
    <tag k="addr:housenumber" v="281" />
    <tag k="addr:street" v="West Hill Road" />
    <tag k="addr:state" v="VT" />
    <tag k="ref:vcgi:esiteid" v="304468" />
  </node>
  <node id="-315" visible="true" lat="44.38282007" lon="-72.57113715">
    <tag k="addr:city" v="Worcester" />
    <tag k="addr:housenumber" v="48" />
    <tag k="addr:street" v="Frazier Road" />
    <tag k="addr:state" v="VT" />
    <tag k="ref:vcgi:esiteid" v="304469" />
  </node>
  <node id="-316" visible="true" lat="44.38213059" lon="-72.56900174">
    <tag k="addr:city" v="Worcester" />
    <tag k="addr:housenumber" v="50" />
    <tag k="addr:street" v="Frazier Road" />
    <tag k="addr:state" v="VT" />
    <tag k="ref:vcgi:esiteid" v="304470" />
  </node>
  <node id="-317" visible="true" lat="44.38236016" lon="-72.58977951">
    <tag k="addr:city" v="Worcester" />
    <tag k="addr:housenumber" v="288" />
    <tag k="addr:street" v="West Hill Road" />
    <tag k="addr:state" v="VT" />
    <tag k="ref:vcgi:esiteid" v="304471" />
  </node>
  <node id="-318" visible="true" lat="44.38238494" lon="-72.55278079">
    <tag k="addr:city" v="Worcester" />
    <tag k="addr:housenumber" v="160" />
    <tag k="addr:street" v="Elmore Road" />
    <tag k="addr:state" v="VT" />
    <tag k="ref:vcgi:esiteid" v="304472" />
  </node>
  <node id="-319" visible="true" lat="44.38208369" lon="-72.5378705">
    <tag k="addr:city" v="Worcester" />
    <tag k="addr:housenumber" v="10" />
    <tag k="addr:street" v="Pratt Road" />
    <tag k="addr:state" v="VT" />
    <tag k="ref:vcgi:esiteid" v="304473" />
  </node>
  <node id="-320" visible="true" lat="44.38174514" lon="-72.55329243">
    <tag k="addr:city" v="Worcester" />
    <tag k="addr:housenumber" v="158" />
    <tag k="addr:street" v="Elmore Road" />
    <tag k="addr:state" v="VT" />
    <tag k="ref:vcgi:esiteid" v="304474" />
  </node>
  <node id="-321" visible="true" lat="44.38192129" lon="-72.53418256">
    <tag k="addr:city" v="Worcester" />
    <tag k="addr:housenumber" v="223" />
    <tag k="addr:street" v="Calais Road" />
    <tag k="addr:state" v="VT" />
    <tag k="ref:vcgi:esiteid" v="304475" />
  </node>
  <node id="-322" visible="true" lat="44.38180522" lon="-72.55165398">
    <tag k="addr:city" v="Worcester" />
    <tag k="addr:housenumber" v="145" />
    <tag k="addr:street" v="Elmore Road" />
    <tag k="addr:state" v="VT" />
    <tag k="ref:vcgi:esiteid" v="304476" />
  </node>
  <node id="-323" visible="true" lat="44.38179847" lon="-72.57337204">
    <tag k="addr:city" v="Worcester" />
    <tag k="addr:housenumber" v="55" />
    <tag k="addr:street" v="Frazier Road" />
    <tag k="addr:state" v="VT" />
    <tag k="ref:vcgi:esiteid" v="304477" />
  </node>
  <node id="-324" visible="true" lat="44.38171117" lon="-72.58091182">
    <tag k="addr:city" v="Worcester" />
    <tag k="addr:housenumber" v="48" />
    <tag k="addr:street" v="Mackenzie Drive" />
    <tag k="addr:state" v="VT" />
    <tag k="ref:vcgi:esiteid" v="304478" />
  </node>
  <node id="-325" visible="true" lat="44.38172618" lon="-72.56639007">
    <tag k="addr:city" v="Worcester" />
    <tag k="addr:housenumber" v="216" />
    <tag k="addr:street" v="Minister Brook Road" />
    <tag k="addr:state" v="VT" />
    <tag k="ref:vcgi:esiteid" v="304479" />
  </node>
  <node id="-326" visible="true" lat="44.38166046" lon="-72.57183074">
    <tag k="addr:city" v="Worcester" />
    <tag k="addr:housenumber" v="52" />
    <tag k="addr:street" v="Frazier Road" />
    <tag k="addr:state" v="VT" />
    <tag k="ref:vcgi:esiteid" v="304480" />
  </node>
  <node id="-327" visible="true" lat="44.38155365" lon="-72.60225677">
    <tag k="addr:city" v="Worcester" />
    <tag k="addr:housenumber" v="100" />
    <tag k="addr:street" v="Hults Road" />
    <tag k="addr:state" v="VT" />
    <tag k="ref:vcgi:esiteid" v="304481" />
  </node>
  <node id="-328" visible="true" lat="44.38170019" lon="-72.55140327">
    <tag k="addr:city" v="Worcester" />
    <tag k="addr:housenumber" v="143" />
    <tag k="addr:street" v="Elmore Road" />
    <tag k="addr:state" v="VT" />
    <tag k="ref:vcgi:esiteid" v="304482" />
  </node>
  <node id="-329" visible="true" lat="44.38139734" lon="-72.59045698">
    <tag k="addr:city" v="Worcester" />
    <tag k="addr:housenumber" v="298" />
    <tag k="addr:street" v="West Hill Road" />
    <tag k="addr:state" v="VT" />
    <tag k="ref:vcgi:esiteid" v="304483" />
  </node>
  <node id="-330" visible="true" lat="44.38144705" lon="-72.55111902">
    <tag k="addr:city" v="Worcester" />
    <tag k="addr:housenumber" v="139" />
    <tag k="addr:street" v="Elmore Road" />
    <tag k="addr:state" v="VT" />
    <tag k="ref:vcgi:esiteid" v="304484" />
  </node>
  <node id="-331" visible="true" lat="44.38122558" lon="-72.59774017">
    <tag k="addr:city" v="Worcester" />
    <tag k="addr:housenumber" v="53" />
    <tag k="addr:street" v="Hults Road" />
    <tag k="addr:state" v="VT" />
    <tag k="ref:vcgi:esiteid" v="304485" />
  </node>
  <node id="-332" visible="true" lat="44.38256245" lon="-72.59919754">
    <tag k="addr:city" v="Worcester" />
    <tag k="addr:housenumber" v="93" />
    <tag k="addr:street" v="Hults Road" />
    <tag k="addr:state" v="VT" />
    <tag k="ref:vcgi:esiteid" v="304486" />
  </node>
  <node id="-333" visible="true" lat="44.38071991" lon="-72.56521187">
    <tag k="addr:city" v="Worcester" />
    <tag k="addr:housenumber" v="190" />
    <tag k="addr:street" v="Minister Brook Road" />
    <tag k="addr:state" v="VT" />
    <tag k="ref:vcgi:esiteid" v="304487" />
  </node>
  <node id="-334" visible="true" lat="44.38061637" lon="-72.53545175">
    <tag k="addr:city" v="Worcester" />
    <tag k="addr:housenumber" v="197" />
    <tag k="addr:street" v="Calais Road" />
    <tag k="addr:state" v="VT" />
    <tag k="ref:vcgi:esiteid" v="304488" />
  </node>
  <node id="-335" visible="true" lat="44.38064193" lon="-72.56457519">
    <tag k="addr:city" v="Worcester" />
    <tag k="addr:housenumber" v="189" />
    <tag k="addr:street" v="Minister Brook Road" />
    <tag k="addr:state" v="VT" />
    <tag k="ref:vcgi:esiteid" v="304489" />
  </node>
  <node id="-336" visible="true" lat="44.38061571" lon="-72.54984207">
    <tag k="addr:city" v="Worcester" />
    <tag k="addr:housenumber" v="117" />
    <tag k="addr:street" v="Elmore Road" />
    <tag k="addr:state" v="VT" />
    <tag k="ref:vcgi:esiteid" v="304490" />
  </node>
  <node id="-337" visible="true" lat="44.38033676" lon="-72.57404327">
    <tag k="addr:city" v="Worcester" />
    <tag k="addr:housenumber" v="77" />
    <tag k="addr:street" v="Frazier Road" />
    <tag k="addr:state" v="VT" />
    <tag k="ref:vcgi:esiteid" v="304491" />
  </node>
  <node id="-338" visible="true" lat="44.38030242" lon="-72.59717559">
    <tag k="addr:city" v="Worcester" />
    <tag k="addr:housenumber" v="39" />
    <tag k="addr:street" v="Hults Road" />
    <tag k="addr:state" v="VT" />
    <tag k="ref:vcgi:esiteid" v="304492" />
  </node>
  <node id="-339" visible="true" lat="44.3799101" lon="-72.58994578">
    <tag k="addr:city" v="Worcester" />
    <tag k="addr:housenumber" v="312" />
    <tag k="addr:street" v="West Hill Road" />
    <tag k="addr:state" v="VT" />
    <tag k="ref:vcgi:esiteid" v="304493" />
  </node>
  <node id="-340" visible="true" lat="44.37972259" lon="-72.59738922">
    <tag k="addr:city" v="Worcester" />
    <tag k="addr:housenumber" v="34" />
    <tag k="addr:street" v="Hults Road" />
    <tag k="addr:state" v="VT" />
    <tag k="ref:vcgi:esiteid" v="304494" />
  </node>
  <node id="-341" visible="true" lat="44.3795993" lon="-72.57283957">
    <tag k="addr:city" v="Worcester" />
    <tag k="addr:housenumber" v="86" />
    <tag k="addr:street" v="Frazier Road" />
    <tag k="addr:state" v="VT" />
    <tag k="ref:vcgi:esiteid" v="304495" />
  </node>
  <node id="-342" visible="true" lat="44.37967781" lon="-72.57451782">
    <tag k="addr:city" v="Worcester" />
    <tag k="addr:housenumber" v="87" />
    <tag k="addr:street" v="Frazier Road" />
    <tag k="addr:state" v="VT" />
    <tag k="ref:vcgi:esiteid" v="304496" />
  </node>
  <node id="-343" visible="true" lat="44.37934136" lon="-72.58127499">
    <tag k="addr:city" v="Worcester" />
    <tag k="addr:housenumber" v="130" />
    <tag k="addr:street" v="Mackenzie Drive" />
    <tag k="addr:state" v="VT" />
    <tag k="ref:vcgi:esiteid" v="304497" />
  </node>
  <node id="-344" visible="true" lat="44.37917193" lon="-72.59485783">
    <tag k="addr:city" v="Worcester" />
    <tag k="addr:housenumber" v="11" />
    <tag k="addr:street" v="Hults Road" />
    <tag k="addr:state" v="VT" />
    <tag k="ref:vcgi:esiteid" v="304498" />
  </node>
  <node id="-345" visible="true" lat="44.37909133" lon="-72.59220678">
    <tag k="addr:city" v="Worcester" />
    <tag k="addr:housenumber" v="342" />
    <tag k="addr:street" v="West Hill Road" />
    <tag k="addr:state" v="VT" />
    <tag k="ref:vcgi:esiteid" v="304499" />
  </node>
  <node id="-346" visible="true" lat="44.37917335" lon="-72.53776719">
    <tag k="addr:city" v="Worcester" />
    <tag k="addr:housenumber" v="195" />
    <tag k="addr:street" v="Calais Road" />
    <tag k="addr:state" v="VT" />
    <tag k="ref:vcgi:esiteid" v="304500" />
  </node>
  <node id="-347" visible="true" lat="44.37856489" lon="-72.57310184">
    <tag k="addr:city" v="Worcester" />
    <tag k="addr:housenumber" v="115" />
    <tag k="addr:street" v="Frazier Road" />
    <tag k="addr:state" v="VT" />
    <tag k="ref:vcgi:esiteid" v="304501" />
  </node>
  <node id="-348" visible="true" lat="44.37865845" lon="-72.5937382">
    <tag k="addr:city" v="Worcester" />
    <tag k="addr:housenumber" v="356" />
    <tag k="addr:street" v="West Hill Road" />
    <tag k="addr:state" v="VT" />
    <tag k="ref:vcgi:esiteid" v="304502" />
  </node>
  <node id="-349" visible="true" lat="44.3841931" lon="-72.55196511">
    <tag k="addr:city" v="Worcester" />
    <tag k="addr:housenumber" v="15" />
    <tag k="addr:street" v="Mill Road" />
    <tag k="addr:state" v="VT" />
    <tag k="ref:vcgi:esiteid" v="304503" />
  </node>
  <node id="-350" visible="true" lat="44.37839682" lon="-72.5714498">
    <tag k="addr:city" v="Worcester" />
    <tag k="addr:housenumber" v="133" />
    <tag k="addr:street" v="Frazier Road" />
    <tag k="addr:state" v="VT" />
    <tag k="ref:vcgi:esiteid" v="304504" />
  </node>
  <node id="-351" visible="true" lat="44.37833448" lon="-72.57039747">
    <tag k="addr:city" v="Worcester" />
    <tag k="addr:housenumber" v="145" />
    <tag k="addr:street" v="Frazier Road" />
    <tag k="addr:state" v="VT" />
    <tag k="ref:vcgi:esiteid" v="304505" />
  </node>
  <node id="-352" visible="true" lat="44.37762177" lon="-72.56917909">
    <tag k="addr:city" v="Worcester" />
    <tag k="addr:housenumber" v="20" />
    <tag k="addr:street" v="Hill Top Drive" />
    <tag k="addr:state" v="VT" />
    <tag k="ref:vcgi:esiteid" v="304506" />
  </node>
  <node id="-353" visible="true" lat="44.3780899" lon="-72.56101226">
    <tag k="addr:city" v="Worcester" />
    <tag k="addr:housenumber" v="135" />
    <tag k="addr:street" v="Minister Brook Road" />
    <tag k="addr:state" v="VT" />
    <tag k="ref:vcgi:esiteid" v="304507" />
  </node>
  <node id="-354" visible="true" lat="44.37802123" lon="-72.56843566">
    <tag k="addr:city" v="Worcester" />
    <tag k="addr:housenumber" v="172" />
    <tag k="addr:street" v="Frazier Road" />
    <tag k="addr:state" v="VT" />
    <tag k="ref:vcgi:esiteid" v="304508" />
  </node>
  <node id="-355" visible="true" lat="44.37813449" lon="-72.54271764">
    <tag k="addr:city" v="Worcester" />
    <tag k="addr:housenumber" v="140" />
    <tag k="addr:street" v="Calais Road" />
    <tag k="addr:state" v="VT" />
    <tag k="ref:vcgi:esiteid" v="304509" />
  </node>
  <node id="-356" visible="true" lat="44.37784598" lon="-72.54946511">
    <tag k="addr:city" v="Worcester" />
    <tag k="addr:housenumber" v="66" />
    <tag k="addr:street" v="Elmore Road" />
    <tag k="addr:state" v="VT" />
    <tag k="ref:vcgi:esiteid" v="304510" />
  </node>
  <node id="-357" visible="true" lat="44.37767943" lon="-72.59856095">
    <tag k="addr:city" v="Worcester" />
    <tag k="addr:housenumber" v="385" />
    <tag k="addr:street" v="West Hill Road" />
    <tag k="addr:state" v="VT" />
    <tag k="ref:vcgi:esiteid" v="304511" />
  </node>
  <node id="-358" visible="true" lat="44.37669356" lon="-72.53815676">
    <tag k="addr:city" v="Worcester" />
    <tag k="addr:housenumber" v="193" />
    <tag k="addr:street" v="Calais Road" />
    <tag k="addr:state" v="VT" />
    <tag k="ref:vcgi:esiteid" v="304513" />
  </node>
  <node id="-359" visible="true" lat="44.37688863" lon="-72.54160322">
    <tag k="addr:city" v="Worcester" />
    <tag k="addr:housenumber" v="128" />
    <tag k="addr:street" v="Calais Road" />
    <tag k="addr:state" v="VT" />
    <tag k="ref:vcgi:esiteid" v="304514" />
  </node>
  <node id="-360" visible="true" lat="44.37656784" lon="-72.54953002">
    <tag k="addr:city" v="Worcester" />
    <tag k="addr:housenumber" v="52" />
    <tag k="addr:street" v="Elmore Road" />
    <tag k="addr:state" v="VT" />
    <tag k="ref:vcgi:esiteid" v="304515" />
  </node>
  <node id="-361" visible="true" lat="44.37638597" lon="-72.54238225">
    <tag k="addr:city" v="Worcester" />
    <tag k="addr:housenumber" v="126" />
    <tag k="addr:street" v="Calais Road" />
    <tag k="addr:state" v="VT" />
    <tag k="ref:vcgi:esiteid" v="304516" />
  </node>
  <node id="-362" visible="true" lat="44.37630655" lon="-72.54965941">
    <tag k="addr:city" v="Worcester" />
    <tag k="addr:housenumber" v="50" />
    <tag k="addr:street" v="Elmore Road" />
    <tag k="addr:state" v="VT" />
    <tag k="ref:vcgi:esiteid" v="304517" />
  </node>
  <node id="-363" visible="true" lat="44.37605667" lon="-72.5411911">
    <tag k="addr:city" v="Worcester" />
    <tag k="addr:housenumber" v="121" />
    <tag k="addr:street" v="Calais Road" />
    <tag k="addr:state" v="VT" />
    <tag k="ref:vcgi:esiteid" v="304518" />
  </node>
  <node id="-364" visible="true" lat="44.37592801" lon="-72.55654147">
    <tag k="addr:city" v="Worcester" />
    <tag k="addr:housenumber" v="83" />
    <tag k="addr:street" v="Minister Brook Road" />
    <tag k="addr:state" v="VT" />
    <tag k="ref:vcgi:esiteid" v="304519" />
  </node>
  <node id="-365" visible="true" lat="44.3757283" lon="-72.54176949">
    <tag k="addr:city" v="Worcester" />
    <tag k="addr:housenumber" v="112" />
    <tag k="addr:street" v="Calais Road" />
    <tag k="addr:state" v="VT" />
    <tag k="ref:vcgi:esiteid" v="304520" />
  </node>
  <node id="-366" visible="true" lat="44.37512729" lon="-72.53728322">
    <tag k="addr:city" v="Worcester" />
    <tag k="addr:housenumber" v="115" />
    <tag k="addr:street" v="Calais Road" />
    <tag k="addr:state" v="VT" />
    <tag k="ref:vcgi:esiteid" v="304521" />
  </node>
  <node id="-367" visible="true" lat="44.3755571" lon="-72.54948421">
    <tag k="addr:city" v="Worcester" />
    <tag k="addr:housenumber" v="36" />
    <tag k="addr:street" v="Elmore Road" />
    <tag k="addr:state" v="VT" />
    <tag k="ref:vcgi:esiteid" v="304522" />
  </node>
  <node id="-368" visible="true" lat="44.37537694" lon="-72.54145291">
    <tag k="addr:city" v="Worcester" />
    <tag k="addr:housenumber" v="107" />
    <tag k="addr:street" v="Calais Road" />
    <tag k="addr:state" v="VT" />
    <tag k="ref:vcgi:esiteid" v="304523" />
  </node>
  <node id="-369" visible="true" lat="44.37536972" lon="-72.54196652">
    <tag k="addr:city" v="Worcester" />
    <tag k="addr:housenumber" v="106" />
    <tag k="addr:street" v="Calais Road" />
    <tag k="addr:state" v="VT" />
    <tag k="ref:vcgi:esiteid" v="304524" />
  </node>
  <node id="-370" visible="true" lat="44.37531964" lon="-72.54244276">
    <tag k="addr:city" v="Worcester" />
    <tag k="addr:housenumber" v="102" />
    <tag k="addr:street" v="Calais Road" />
    <tag k="addr:state" v="VT" />
    <tag k="ref:vcgi:esiteid" v="304525" />
  </node>
  <node id="-371" visible="true" lat="44.37489417" lon="-72.58241136">
    <tag k="addr:city" v="Worcester" />
    <tag k="addr:housenumber" v="186" />
    <tag k="addr:street" v="Mackenzie Drive" />
    <tag k="addr:state" v="VT" />
    <tag k="ref:vcgi:esiteid" v="304526" />
  </node>
  <node id="-372" visible="true" lat="44.3748703" lon="-72.54811096">
    <tag k="addr:city" v="Worcester" />
    <tag k="addr:housenumber" v="39" />
    <tag k="addr:street" v="Elmore Road" />
    <tag k="addr:state" v="VT" />
    <tag k="ref:vcgi:esiteid" v="304527" />
  </node>
  <node id="-373" visible="true" lat="44.37491031" lon="-72.55413555">
    <tag k="addr:city" v="Worcester" />
    <tag k="addr:housenumber" v="51" />
    <tag k="addr:street" v="Minister Brook Road" />
    <tag k="addr:state" v="VT" />
    <tag k="ref:vcgi:esiteid" v="304528" />
  </node>
  <node id="-374" visible="true" lat="44.3748665" lon="-72.59486657">
    <tag k="addr:city" v="Worcester" />
    <tag k="addr:housenumber" v="416" />
    <tag k="addr:street" v="West Hill Road" />
    <tag k="addr:state" v="VT" />
    <tag k="ref:vcgi:esiteid" v="304529" />
  </node>
  <node id="-375" visible="true" lat="44.37484485" lon="-72.55352313">
    <tag k="addr:city" v="Worcester" />
    <tag k="addr:housenumber" v="3" />
    <tag k="addr:street" v="Maxham Drive" />
    <tag k="addr:state" v="VT" />
    <tag k="ref:vcgi:esiteid" v="304530" />
  </node>
  <node id="-376" visible="true" lat="44.37472078" lon="-72.55027066">
    <tag k="addr:city" v="Worcester" />
    <tag k="addr:housenumber" v="10" />
    <tag k="addr:street" v="Elmore Road" />
    <tag k="addr:state" v="VT" />
    <tag k="ref:vcgi:esiteid" v="304531" />
  </node>
  <node id="-377" visible="true" lat="44.37446324" lon="-72.58420776">
    <tag k="addr:city" v="Worcester" />
    <tag k="addr:housenumber" v="199" />
    <tag k="addr:street" v="Mackenzie Drive" />
    <tag k="addr:state" v="VT" />
    <tag k="ref:vcgi:esiteid" v="304532" />
  </node>
  <node id="-378" visible="true" lat="44.37456647" lon="-72.54303999">
    <tag k="addr:city" v="Worcester" />
    <tag k="addr:housenumber" v="92" />
    <tag k="addr:street" v="Calais Road" />
    <tag k="addr:state" v="VT" />
    <tag k="ref:vcgi:esiteid" v="304533" />
  </node>
  <node id="-379" visible="true" lat="44.37438407" lon="-72.54208306">
    <tag k="addr:city" v="Worcester" />
    <tag k="addr:housenumber" v="95" />
    <tag k="addr:street" v="Calais Road" />
    <tag k="addr:state" v="VT" />
    <tag k="ref:vcgi:esiteid" v="304534" />
  </node>
  <node id="-380" visible="true" lat="44.37449431" lon="-72.5980401">
    <tag k="addr:city" v="Worcester" />
    <tag k="addr:housenumber" v="451" />
    <tag k="addr:street" v="West Hill Road" />
    <tag k="addr:state" v="VT" />
    <tag k="ref:vcgi:esiteid" v="304535" />
  </node>
  <node id="-381" visible="true" lat="44.37442501" lon="-72.55682459">
    <tag k="addr:city" v="Worcester" />
    <tag k="addr:housenumber" v="33" />
    <tag k="addr:street" v="Hersey Road" />
    <tag k="addr:state" v="VT" />
    <tag k="ref:vcgi:esiteid" v="304536" />
  </node>
  <node id="-382" visible="true" lat="44.37427182" lon="-72.55209223">
    <tag k="addr:city" v="Worcester" />
    <tag k="addr:housenumber" v="25" />
    <tag k="addr:street" v="Minister Brook Road" />
    <tag k="addr:state" v="VT" />
    <tag k="ref:vcgi:esiteid" v="304537" />
  </node>
  <node id="-383" visible="true" lat="44.37441325" lon="-72.55083858">
    <tag k="addr:city" v="Worcester" />
    <tag k="addr:housenumber" v="8" />
    <tag k="addr:street" v="Elmore Road" />
    <tag k="addr:state" v="VT" />
    <tag k="ref:vcgi:esiteid" v="304538" />
  </node>
  <node id="-384" visible="true" lat="44.37422595" lon="-72.55193569">
    <tag k="addr:city" v="Worcester" />
    <tag k="addr:housenumber" v="21" />
    <tag k="addr:street" v="Minister Brook Road" />
    <tag k="addr:state" v="VT" />
    <tag k="ref:vcgi:esiteid" v="304539" />
  </node>
  <node id="-385" visible="true" lat="44.37418932" lon="-72.54350846">
    <tag k="addr:city" v="Worcester" />
    <tag k="addr:housenumber" v="82" />
    <tag k="addr:street" v="Calais Road" />
    <tag k="addr:state" v="VT" />
    <tag k="ref:vcgi:esiteid" v="304540" />
  </node>
  <node id="-386" visible="true" lat="44.3742286" lon="-72.5551529">
    <tag k="addr:city" v="Worcester" />
    <tag k="addr:housenumber" v="19" />
    <tag k="addr:street" v="Hersey Road" />
    <tag k="addr:state" v="VT" />
    <tag k="ref:vcgi:esiteid" v="304541" />
  </node>
  <node id="-387" visible="true" lat="44.37405776" lon="-72.55162048">
    <tag k="addr:city" v="Worcester" />
    <tag k="addr:housenumber" v="13" />
    <tag k="addr:street" v="Minister Brook Road" />
    <tag k="addr:state" v="VT" />
    <tag k="ref:vcgi:esiteid" v="304542" />
  </node>
  <node id="-388" visible="true" lat="44.37397777" lon="-72.55297576">
    <tag k="addr:city" v="Worcester" />
    <tag k="addr:housenumber" v="28" />
    <tag k="addr:street" v="Minister Brook Road" />
    <tag k="addr:state" v="VT" />
    <tag k="ref:vcgi:esiteid" v="304543" />
  </node>
  <node id="-389" visible="true" lat="44.37400055" lon="-72.58472442">
    <tag k="addr:city" v="Worcester" />
    <tag k="addr:housenumber" v="213" />
    <tag k="addr:street" v="Mackenzie Drive" />
    <tag k="addr:state" v="VT" />
    <tag k="ref:vcgi:esiteid" v="304544" />
  </node>
  <node id="-390" visible="true" lat="44.37375855" lon="-72.59751406">
    <tag k="addr:city" v="Worcester" />
    <tag k="addr:housenumber" v="450" />
    <tag k="addr:street" v="West Hill Road" />
    <tag k="addr:state" v="VT" />
    <tag k="ref:vcgi:esiteid" v="304545" />
  </node>
  <node id="-391" visible="true" lat="44.37395858" lon="-72.55237579">
    <tag k="addr:city" v="Worcester" />
    <tag k="addr:housenumber" v="24" />
    <tag k="addr:street" v="Minister Brook Road" />
    <tag k="addr:state" v="VT" />
    <tag k="ref:vcgi:esiteid" v="304546" />
  </node>
  <node id="-392" visible="true" lat="44.37393951" lon="-72.5510559">
    <tag k="addr:city" v="Worcester" />
    <tag k="addr:housenumber" v="7" />
    <tag k="addr:street" v="Minister Brook Road" />
    <tag k="addr:state" v="VT" />
    <tag k="ref:vcgi:esiteid" v="304547" />
  </node>
  <node id="-393" visible="true" lat="44.37375074" lon="-72.55178729">
    <tag k="addr:city" v="Worcester" />
    <tag k="addr:housenumber" v="16" />
    <tag k="addr:street" v="Minister Brook Road" />
    <tag k="addr:state" v="VT" />
    <tag k="ref:vcgi:esiteid" v="304549" />
  </node>
  <node id="-394" visible="true" lat="44.37389758" lon="-72.55050643">
    <tag k="addr:city" v="Worcester" />
    <tag k="addr:housenumber" v="1" />
    <tag k="addr:street" v="Minister Brook Road" />
    <tag k="addr:state" v="VT" />
    <tag k="ref:vcgi:esiteid" v="304550" />
  </node>
  <node id="-395" visible="true" lat="44.37376403" lon="-72.55532074">
    <tag k="addr:city" v="Worcester" />
    <tag k="addr:housenumber" v="20" />
    <tag k="addr:street" v="Hersey Road" />
    <tag k="addr:state" v="VT" />
    <tag k="ref:vcgi:esiteid" v="304551" />
  </node>
  <node id="-396" visible="true" lat="44.3737139" lon="-72.54991238">
    <tag k="addr:city" v="Worcester" />
    <tag k="addr:housenumber" v="1" />
    <tag k="addr:street" v="Elmore Road" />
    <tag k="addr:state" v="VT" />
    <tag k="ref:vcgi:esiteid" v="304552" />
  </node>
  <node id="-397" visible="true" lat="44.37351226" lon="-72.54386901">
    <tag k="addr:city" v="Worcester" />
    <tag k="addr:housenumber" v="73" />
    <tag k="addr:street" v="Calais Road" />
    <tag k="addr:state" v="VT" />
    <tag k="ref:vcgi:esiteid" v="304554" />
  </node>
  <node id="-398" visible="true" lat="44.37352765" lon="-72.59984794">
    <tag k="addr:city" v="Worcester" />
    <tag k="addr:housenumber" v="469" />
    <tag k="addr:street" v="West Hill Road" />
    <tag k="addr:state" v="VT" />
    <tag k="ref:vcgi:esiteid" v="304555" />
  </node>
  <node id="-399" visible="true" lat="44.37344463" lon="-72.55058027">
    <tag k="addr:city" v="Worcester" />
    <tag k="addr:housenumber" v="5" />
    <tag k="addr:street" v="Worcester Village Road" />
    <tag k="addr:state" v="VT" />
    <tag k="ref:vcgi:esiteid" v="304556" />
  </node>
  <node id="-400" visible="true" lat="44.37335932" lon="-72.54994186">
    <tag k="addr:city" v="Worcester" />
    <tag k="addr:housenumber" v="6" />
    <tag k="addr:street" v="Calais Road" />
    <tag k="addr:state" v="VT" />
    <tag k="ref:vcgi:esiteid" v="304557" />
  </node>
  <node id="-401" visible="true" lat="44.3733122" lon="-72.5494539">
    <tag k="addr:city" v="Worcester" />
    <tag k="addr:housenumber" v="12" />
    <tag k="addr:street" v="Calais Road" />
    <tag k="addr:state" v="VT" />
    <tag k="ref:vcgi:esiteid" v="304558" />
  </node>
  <node id="-402" visible="true" lat="44.3731975" lon="-72.55061696">
    <tag k="addr:city" v="Worcester" />
    <tag k="addr:housenumber" v="9" />
    <tag k="addr:street" v="Worcester Village Road" />
    <tag k="addr:state" v="VT" />
    <tag k="ref:vcgi:esiteid" v="304559" />
  </node>
  <node id="-403" visible="true" lat="44.37334859" lon="-72.54794862">
    <tag k="addr:city" v="Worcester" />
    <tag k="addr:housenumber" v="24" />
    <tag k="addr:street" v="Calais Road" />
    <tag k="addr:state" v="VT" />
    <tag k="ref:vcgi:esiteid" v="304560" />
  </node>
  <node id="-404" visible="true" lat="44.37313695" lon="-72.54905862">
    <tag k="addr:city" v="Worcester" />
    <tag k="addr:housenumber" v="16" />
    <tag k="addr:street" v="Calais Road" />
    <tag k="addr:state" v="VT" />
    <tag k="ref:vcgi:esiteid" v="304561" />
  </node>
  <node id="-405" visible="true" lat="44.37293147" lon="-72.59836122">
    <tag k="addr:city" v="Worcester" />
    <tag k="addr:housenumber" v="458" />
    <tag k="addr:street" v="West Hill Road" />
    <tag k="addr:state" v="VT" />
    <tag k="ref:vcgi:esiteid" v="304562" />
  </node>
  <node id="-406" visible="true" lat="44.3729156" lon="-72.54993844">
    <tag k="addr:city" v="Worcester" />
    <tag k="addr:housenumber" v="12" />
    <tag k="addr:street" v="Worcester Village Road" />
    <tag k="addr:state" v="VT" />
    <tag k="ref:vcgi:esiteid" v="304563" />
  </node>
  <node id="-407" visible="true" lat="44.37295321" lon="-72.5471726">
    <tag k="addr:city" v="Worcester" />
    <tag k="addr:housenumber" v="36" />
    <tag k="addr:street" v="Calais Road" />
    <tag k="addr:state" v="VT" />
    <tag k="ref:vcgi:esiteid" v="304565" />
  </node>
  <node id="-408" visible="true" lat="44.37287908" lon="-72.5443603">
    <tag k="addr:city" v="Worcester" />
    <tag k="addr:housenumber" v="4" />
    <tag k="addr:street" v="Gould Hill Road" />
    <tag k="addr:state" v="VT" />
    <tag k="ref:vcgi:esiteid" v="304566" />
  </node>
  <node id="-409" visible="true" lat="44.37288454" lon="-72.5466004">
    <tag k="addr:city" v="Worcester" />
    <tag k="addr:housenumber" v="40" />
    <tag k="addr:street" v="Calais Road" />
    <tag k="addr:state" v="VT" />
    <tag k="ref:vcgi:esiteid" v="304568" />
  </node>
  <node id="-410" visible="true" lat="44.37266153" lon="-72.54833475">
    <tag k="addr:city" v="Worcester" />
    <tag k="addr:housenumber" v="23" />
    <tag k="addr:street" v="Calais Road" />
    <tag k="addr:state" v="VT" />
    <tag k="ref:vcgi:esiteid" v="304569" />
  </node>
  <node id="-411" visible="true" lat="44.37287888" lon="-72.55070903">
    <tag k="addr:city" v="Worcester" />
    <tag k="addr:housenumber" v="15" />
    <tag k="addr:street" v="Worcester Village Road" />
    <tag k="addr:state" v="VT" />
    <tag k="ref:vcgi:esiteid" v="304570" />
  </node>
  <node id="-412" visible="true" lat="44.37260136" lon="-72.54869664">
    <tag k="addr:city" v="Worcester" />
    <tag k="addr:housenumber" v="17" />
    <tag k="addr:street" v="Calais Road" />
    <tag k="addr:state" v="VT" />
    <tag k="ref:vcgi:esiteid" v="304574" />
  </node>
  <node id="-413" visible="true" lat="44.37255456" lon="-72.55082848">
    <tag k="addr:city" v="Worcester" />
    <tag k="addr:housenumber" v="17" />
    <tag k="addr:street" v="Worcester Village Road" />
    <tag k="addr:state" v="VT" />
    <tag k="ref:vcgi:esiteid" v="304575" />
  </node>
  <node id="-414" visible="true" lat="44.37266922" lon="-72.54742431">
    <tag k="addr:city" v="Worcester" />
    <tag k="addr:housenumber" v="31" />
    <tag k="addr:street" v="Calais Road" />
    <tag k="addr:state" v="VT" />
    <tag k="ref:vcgi:esiteid" v="304576" />
  </node>
  <node id="-415" visible="true" lat="44.37263039" lon="-72.55009972">
    <tag k="addr:city" v="Worcester" />
    <tag k="addr:housenumber" v="18" />
    <tag k="addr:street" v="Worcester Village Road" />
    <tag k="addr:state" v="VT" />
    <tag k="ref:vcgi:esiteid" v="304577" />
  </node>
  <node id="-416" visible="true" lat="44.37254715" lon="-72.60108184">
    <tag k="addr:city" v="Worcester" />
    <tag k="addr:housenumber" v="489" />
    <tag k="addr:street" v="West Hill Road" />
    <tag k="addr:state" v="VT" />
    <tag k="ref:vcgi:esiteid" v="304578" />
  </node>
  <node id="-417" visible="true" lat="44.37247085" lon="-72.59954834">
    <tag k="addr:city" v="Worcester" />
    <tag k="addr:housenumber" v="476" />
    <tag k="addr:street" v="West Hill Road" />
    <tag k="addr:state" v="VT" />
    <tag k="ref:vcgi:esiteid" v="304579" />
  </node>
  <node id="-418" visible="true" lat="44.3723156" lon="-72.54580341">
    <tag k="addr:city" v="Worcester" />
    <tag k="addr:housenumber" v="43" />
    <tag k="addr:street" v="Calais Road" />
    <tag k="addr:state" v="VT" />
    <tag k="ref:vcgi:esiteid" v="304580" />
  </node>
  <node id="-419" visible="true" lat="44.37245941" lon="-72.54509735">
    <tag k="addr:city" v="Worcester" />
    <tag k="addr:housenumber" v="1" />
    <tag k="addr:street" v="Gould Hill Road" />
    <tag k="addr:state" v="VT" />
    <tag k="ref:vcgi:esiteid" v="304581" />
  </node>
  <node id="-420" visible="true" lat="44.37231539" lon="-72.55009284">
    <tag k="addr:city" v="Worcester" />
    <tag k="addr:housenumber" v="20" />
    <tag k="addr:street" v="Worcester Village Road" />
    <tag k="addr:state" v="VT" />
    <tag k="ref:vcgi:esiteid" v="304582" />
  </node>
  <node id="-421" visible="true" lat="44.37219247" lon="-72.59991978">
    <tag k="addr:city" v="Worcester" />
    <tag k="addr:housenumber" v="484" />
    <tag k="addr:street" v="West Hill Road" />
    <tag k="addr:state" v="VT" />
    <tag k="ref:vcgi:esiteid" v="304583" />
  </node>
  <node id="-422" visible="true" lat="44.37231664" lon="-72.55079311">
    <tag k="addr:city" v="Worcester" />
    <tag k="addr:housenumber" v="19" />
    <tag k="addr:street" v="Worcester Village Road" />
    <tag k="addr:state" v="VT" />
    <tag k="ref:vcgi:esiteid" v="304584" />
  </node>
  <node id="-423" visible="true" lat="44.37208623" lon="-72.55086948">
    <tag k="addr:city" v="Worcester" />
    <tag k="addr:housenumber" v="25" />
    <tag k="addr:street" v="Worcester Village Road" />
    <tag k="addr:state" v="VT" />
    <tag k="ref:vcgi:esiteid" v="304585" />
  </node>
  <node id="-424" visible="true" lat="44.37198654" lon="-72.55019706">
    <tag k="addr:city" v="Worcester" />
    <tag k="addr:housenumber" v="26" />
    <tag k="addr:street" v="Worcester Village Road" />
    <tag k="addr:state" v="VT" />
    <tag k="ref:vcgi:esiteid" v="304586" />
  </node>
  <node id="-425" visible="true" lat="44.37184143" lon="-72.55081939">
    <tag k="addr:city" v="Worcester" />
    <tag k="addr:housenumber" v="29" />
    <tag k="addr:street" v="Worcester Village Road" />
    <tag k="addr:state" v="VT" />
    <tag k="ref:vcgi:esiteid" v="304587" />
  </node>
  <node id="-426" visible="true" lat="44.37180184" lon="-72.55028848">
    <tag k="addr:city" v="Worcester" />
    <tag k="addr:housenumber" v="30" />
    <tag k="addr:street" v="Worcester Village Road" />
    <tag k="addr:state" v="VT" />
    <tag k="ref:vcgi:esiteid" v="304588" />
  </node>
  <node id="-427" visible="true" lat="44.37182106" lon="-72.54405177">
    <tag k="addr:city" v="Worcester" />
    <tag k="addr:housenumber" v="19" />
    <tag k="addr:street" v="Gould Hill Road" />
    <tag k="addr:state" v="VT" />
    <tag k="ref:vcgi:esiteid" v="304589" />
  </node>
  <node id="-428" visible="true" lat="44.37150284" lon="-72.59948307">
    <tag k="addr:city" v="Worcester" />
    <tag k="addr:housenumber" v="492" />
    <tag k="addr:street" v="West Hill Road" />
    <tag k="addr:state" v="VT" />
    <tag k="ref:vcgi:esiteid" v="304590" />
  </node>
  <node id="-429" visible="true" lat="44.37150429" lon="-72.55032662">
    <tag k="addr:city" v="Worcester" />
    <tag k="addr:housenumber" v="32" />
    <tag k="addr:street" v="Worcester Village Road" />
    <tag k="addr:state" v="VT" />
    <tag k="ref:vcgi:esiteid" v="304591" />
  </node>
  <node id="-430" visible="true" lat="44.37147715" lon="-72.55104578">
    <tag k="addr:city" v="Worcester" />
    <tag k="addr:housenumber" v="35" />
    <tag k="addr:street" v="Worcester Village Road" />
    <tag k="addr:state" v="VT" />
    <tag k="ref:vcgi:esiteid" v="304592" />
  </node>
  <node id="-431" visible="true" lat="44.37131522" lon="-72.55037541">
    <tag k="addr:city" v="Worcester" />
    <tag k="addr:housenumber" v="34" />
    <tag k="addr:street" v="Worcester Village Road" />
    <tag k="addr:state" v="VT" />
    <tag k="ref:vcgi:esiteid" v="304594" />
  </node>
  <node id="-432" visible="true" lat="44.37118716" lon="-72.54283854">
    <tag k="addr:city" v="Worcester" />
    <tag k="addr:housenumber" v="30" />
    <tag k="addr:street" v="Gould Hill Road" />
    <tag k="addr:state" v="VT" />
    <tag k="ref:vcgi:esiteid" v="304595" />
  </node>
  <node id="-433" visible="true" lat="44.37110812" lon="-72.55106064">
    <tag k="addr:city" v="Worcester" />
    <tag k="addr:housenumber" v="39" />
    <tag k="addr:street" v="Worcester Village Road" />
    <tag k="addr:state" v="VT" />
    <tag k="ref:vcgi:esiteid" v="304596" />
  </node>
  <node id="-434" visible="true" lat="44.37097753" lon="-72.55035855">
    <tag k="addr:city" v="Worcester" />
    <tag k="addr:housenumber" v="44" />
    <tag k="addr:street" v="Worcester Village Road" />
    <tag k="addr:state" v="VT" />
    <tag k="ref:vcgi:esiteid" v="304597" />
  </node>
  <node id="-435" visible="true" lat="44.36973771" lon="-72.54849475">
    <tag k="addr:city" v="Worcester" />
    <tag k="addr:housenumber" v="66" />
    <tag k="addr:street" v="Worcester Village Road" />
    <tag k="addr:state" v="VT" />
    <tag k="ref:vcgi:esiteid" v="304598" />
  </node>
  <node id="-436" visible="true" lat="44.37055201" lon="-72.55122981">
    <tag k="addr:city" v="Worcester" />
    <tag k="addr:housenumber" v="55" />
    <tag k="addr:street" v="Worcester Village Road" />
    <tag k="addr:state" v="VT" />
    <tag k="ref:vcgi:esiteid" v="304599" />
  </node>
  <node id="-437" visible="true" lat="44.37035994" lon="-72.55047658">
    <tag k="addr:city" v="Worcester" />
    <tag k="addr:housenumber" v="60" />
    <tag k="addr:street" v="Worcester Village Road" />
    <tag k="addr:state" v="VT" />
    <tag k="ref:vcgi:esiteid" v="304600" />
  </node>
  <node id="-438" visible="true" lat="44.37016528" lon="-72.55127554">
    <tag k="addr:city" v="Worcester" />
    <tag k="addr:housenumber" v="63" />
    <tag k="addr:street" v="Worcester Village Road" />
    <tag k="addr:state" v="VT" />
    <tag k="ref:vcgi:esiteid" v="304601" />
  </node>
  <node id="-439" visible="true" lat="44.37007141" lon="-72.54281616">
    <tag k="addr:city" v="Worcester" />
    <tag k="addr:housenumber" v="45" />
    <tag k="addr:street" v="Gould Hill Road" />
    <tag k="addr:state" v="VT" />
    <tag k="ref:vcgi:esiteid" v="304602" />
  </node>
  <node id="-440" visible="true" lat="44.36985008" lon="-72.55150794">
    <tag k="addr:city" v="Worcester" />
    <tag k="addr:housenumber" v="67" />
    <tag k="addr:street" v="Worcester Village Road" />
    <tag k="addr:state" v="VT" />
    <tag k="ref:vcgi:esiteid" v="304603" />
  </node>
  <node id="-441" visible="true" lat="44.36957931" lon="-72.54218292">
    <tag k="addr:city" v="Worcester" />
    <tag k="addr:housenumber" v="60" />
    <tag k="addr:street" v="Gould Hill Road" />
    <tag k="addr:state" v="VT" />
    <tag k="ref:vcgi:esiteid" v="304604" />
  </node>
  <node id="-442" visible="true" lat="44.36956024" lon="-72.55036163">
    <tag k="addr:city" v="Worcester" />
    <tag k="addr:housenumber" v="64" />
    <tag k="addr:street" v="Worcester Village Road" />
    <tag k="addr:state" v="VT" />
    <tag k="ref:vcgi:esiteid" v="304605" />
  </node>
  <node id="-443" visible="true" lat="44.36949077" lon="-72.55114298">
    <tag k="addr:city" v="Worcester" />
    <tag k="addr:housenumber" v="72" />
    <tag k="addr:street" v="Worcester Village Road" />
    <tag k="addr:state" v="VT" />
    <tag k="ref:vcgi:esiteid" v="304606" />
  </node>
  <node id="-444" visible="true" lat="44.36904575" lon="-72.58291427">
    <tag k="addr:city" v="Worcester" />
    <tag k="addr:housenumber" v="406" />
    <tag k="addr:street" v="Wood Road" />
    <tag k="addr:state" v="VT" />
    <tag k="ref:vcgi:esiteid" v="304607" />
  </node>
  <node id="-445" visible="true" lat="44.36934288" lon="-72.55191358">
    <tag k="addr:city" v="Worcester" />
    <tag k="addr:housenumber" v="75" />
    <tag k="addr:street" v="Worcester Village Road" />
    <tag k="addr:state" v="VT" />
    <tag k="ref:vcgi:esiteid" v="304608" />
  </node>
  <node id="-446" visible="true" lat="44.36901855" lon="-72.5515213">
    <tag k="addr:city" v="Worcester" />
    <tag k="addr:housenumber" v="78" />
    <tag k="addr:street" v="Worcester Village Road" />
    <tag k="addr:state" v="VT" />
    <tag k="ref:vcgi:esiteid" v="304609" />
  </node>
  <node id="-447" visible="true" lat="44.36865311" lon="-72.55165822">
    <tag k="addr:city" v="Worcester" />
    <tag k="addr:housenumber" v="84" />
    <tag k="addr:street" v="Worcester Village Road" />
    <tag k="addr:state" v="VT" />
    <tag k="ref:vcgi:esiteid" v="304610" />
  </node>
  <node id="-448" visible="true" lat="44.36862564" lon="-72.55241393">
    <tag k="addr:city" v="Worcester" />
    <tag k="addr:housenumber" v="89" />
    <tag k="addr:street" v="Worcester Village Road" />
    <tag k="addr:state" v="VT" />
    <tag k="ref:vcgi:esiteid" v="304611" />
  </node>
  <node id="-449" visible="true" lat="44.36849594" lon="-72.55547332">
    <tag k="addr:city" v="Worcester" />
    <tag k="addr:housenumber" v="121" />
    <tag k="addr:street" v="Worcester Village Road" />
    <tag k="addr:state" v="VT" />
    <tag k="ref:vcgi:esiteid" v="304612" />
  </node>
  <node id="-450" visible="true" lat="44.36838912" lon="-72.54256439">
    <tag k="addr:city" v="Worcester" />
    <tag k="addr:housenumber" v="69" />
    <tag k="addr:street" v="Gould Hill Road" />
    <tag k="addr:state" v="VT" />
    <tag k="ref:vcgi:esiteid" v="304614" />
  </node>
  <node id="-451" visible="true" lat="44.36830621" lon="-72.55270702">
    <tag k="addr:city" v="Worcester" />
    <tag k="addr:housenumber" v="95" />
    <tag k="addr:street" v="Worcester Village Road" />
    <tag k="addr:state" v="VT" />
    <tag k="ref:vcgi:esiteid" v="304615" />
  </node>
  <node id="-452" visible="true" lat="44.36828204" lon="-72.57270242">
    <tag k="addr:city" v="Worcester" />
    <tag k="addr:housenumber" v="165" />
    <tag k="addr:street" v="Downs Road" />
    <tag k="addr:state" v="VT" />
    <tag k="ref:vcgi:esiteid" v="304616" />
  </node>
  <node id="-453" visible="true" lat="44.36759948" lon="-72.55283355">
    <tag k="addr:city" v="Worcester" />
    <tag k="addr:housenumber" v="104" />
    <tag k="addr:street" v="Worcester Village Road" />
    <tag k="addr:state" v="VT" />
    <tag k="ref:vcgi:esiteid" v="304617" />
  </node>
  <node id="-454" visible="true" lat="44.36679495" lon="-72.55343004">
    <tag k="addr:city" v="Worcester" />
    <tag k="addr:housenumber" v="116" />
    <tag k="addr:street" v="Worcester Village Road" />
    <tag k="addr:state" v="VT" />
    <tag k="ref:vcgi:esiteid" v="304618" />
  </node>
  <node id="-455" visible="true" lat="44.36656951" lon="-72.54185485">
    <tag k="addr:city" v="Worcester" />
    <tag k="addr:housenumber" v="102" />
    <tag k="addr:street" v="Gould Hill Road" />
    <tag k="addr:state" v="VT" />
    <tag k="ref:vcgi:esiteid" v="304619" />
  </node>
  <node id="-456" visible="true" lat="44.36653518" lon="-72.55513763">
    <tag k="addr:city" v="Worcester" />
    <tag k="addr:housenumber" v="129" />
    <tag k="addr:street" v="Worcester Village Road" />
    <tag k="addr:state" v="VT" />
    <tag k="ref:vcgi:esiteid" v="304620" />
  </node>
  <node id="-457" visible="true" lat="44.36624526" lon="-72.55406188">
    <tag k="addr:city" v="Worcester" />
    <tag k="addr:housenumber" v="124" />
    <tag k="addr:street" v="Worcester Village Road" />
    <tag k="addr:state" v="VT" />
    <tag k="ref:vcgi:esiteid" v="304621" />
  </node>
  <node id="-458" visible="true" lat="44.36604403" lon="-72.55587358">
    <tag k="addr:city" v="Worcester" />
    <tag k="addr:housenumber" v="139" />
    <tag k="addr:street" v="Worcester Village Road" />
    <tag k="addr:state" v="VT" />
    <tag k="ref:vcgi:esiteid" v="304622" />
  </node>
  <node id="-459" visible="true" lat="44.36594772" lon="-72.55467224">
    <tag k="addr:city" v="Worcester" />
    <tag k="addr:housenumber" v="136" />
    <tag k="addr:street" v="Worcester Village Road" />
    <tag k="addr:state" v="VT" />
    <tag k="ref:vcgi:esiteid" v="304623" />
  </node>
  <node id="-460" visible="true" lat="44.36559295" lon="-72.58129882">
    <tag k="addr:city" v="Worcester" />
    <tag k="addr:housenumber" v="356" />
    <tag k="addr:street" v="Wood Road" />
    <tag k="addr:state" v="VT" />
    <tag k="ref:vcgi:esiteid" v="304625" />
  </node>
  <node id="-461" visible="true" lat="44.36546609" lon="-72.53828357">
    <tag k="addr:city" v="Worcester" />
    <tag k="addr:housenumber" v="35" />
    <tag k="addr:street" v="Dugar Road" />
    <tag k="addr:state" v="VT" />
    <tag k="ref:vcgi:esiteid" v="304626" />
  </node>
  <node id="-462" visible="true" lat="44.36543387" lon="-72.55559949">
    <tag k="addr:city" v="Worcester" />
    <tag k="addr:housenumber" v="146" />
    <tag k="addr:street" v="Worcester Village Road" />
    <tag k="addr:state" v="VT" />
    <tag k="ref:vcgi:esiteid" v="304627" />
  </node>
  <node id="-463" visible="true" lat="44.36532029" lon="-72.53951187">
    <tag k="addr:city" v="Worcester" />
    <tag k="addr:housenumber" v="27" />
    <tag k="addr:street" v="Dugar Road" />
    <tag k="addr:state" v="VT" />
    <tag k="ref:vcgi:esiteid" v="304628" />
  </node>
  <node id="-464" visible="true" lat="44.36534135" lon="-72.5414376">
    <tag k="addr:city" v="Worcester" />
    <tag k="addr:housenumber" v="6" />
    <tag k="addr:street" v="Dugar Road" />
    <tag k="addr:state" v="VT" />
    <tag k="ref:vcgi:esiteid" v="304629" />
  </node>
  <node id="-465" visible="true" lat="44.36497497" lon="-72.54135894">
    <tag k="addr:city" v="Worcester" />
    <tag k="addr:housenumber" v="1" />
    <tag k="addr:street" v="Dugar Road" />
    <tag k="addr:state" v="VT" />
    <tag k="ref:vcgi:esiteid" v="304630" />
  </node>
  <node id="-466" visible="true" lat="44.36497118" lon="-72.55723615">
    <tag k="addr:city" v="Worcester" />
    <tag k="addr:housenumber" v="159" />
    <tag k="addr:street" v="Worcester Village Road" />
    <tag k="addr:state" v="VT" />
    <tag k="ref:vcgi:esiteid" v="304631" />
  </node>
  <node id="-467" visible="true" lat="44.36487579" lon="-72.54055786">
    <tag k="addr:city" v="Worcester" />
    <tag k="addr:housenumber" v="7" />
    <tag k="addr:street" v="Dugar Extension" />
    <tag k="addr:state" v="VT" />
    <tag k="ref:vcgi:esiteid" v="304632" />
  </node>
  <node id="-468" visible="true" lat="44.36479474" lon="-72.54123383">
    <tag k="addr:city" v="Worcester" />
    <tag k="addr:housenumber" v="3" />
    <tag k="addr:street" v="Dugar Road" />
    <tag k="addr:state" v="VT" />
    <tag k="ref:vcgi:esiteid" v="304633" />
  </node>
  <node id="-469" visible="true" lat="44.36396369" lon="-72.55732534">
    <tag k="addr:city" v="Worcester" />
    <tag k="addr:housenumber" v="174" />
    <tag k="addr:street" v="Worcester Village Road" />
    <tag k="addr:state" v="VT" />
    <tag k="ref:vcgi:esiteid" v="304634" />
  </node>
  <node id="-470" visible="true" lat="44.36390282" lon="-72.55849559">
    <tag k="addr:city" v="Worcester" />
    <tag k="addr:housenumber" v="179" />
    <tag k="addr:street" v="Worcester Village Road" />
    <tag k="addr:state" v="VT" />
    <tag k="ref:vcgi:esiteid" v="304635" />
  </node>
  <node id="-471" visible="true" lat="44.36318969" lon="-72.55793762">
    <tag k="addr:city" v="Worcester" />
    <tag k="addr:housenumber" v="188" />
    <tag k="addr:street" v="Worcester Village Road" />
    <tag k="addr:state" v="VT" />
    <tag k="ref:vcgi:esiteid" v="304636" />
  </node>
  <node id="-472" visible="true" lat="44.36285781" lon="-72.56327056">
    <tag k="addr:city" v="Worcester" />
    <tag k="addr:housenumber" v="9" />
    <tag k="addr:street" v="Keyser Road" />
    <tag k="addr:state" v="VT" />
    <tag k="ref:vcgi:esiteid" v="304637" />
  </node>
  <node id="-473" visible="true" lat="44.36261813" lon="-72.54306085">
    <tag k="addr:city" v="Worcester" />
    <tag k="addr:housenumber" v="160" />
    <tag k="addr:street" v="Gould Hill Road" />
    <tag k="addr:state" v="VT" />
    <tag k="ref:vcgi:esiteid" v="304638" />
  </node>
  <node id="-474" visible="true" lat="44.36261319" lon="-72.5601137">
    <tag k="addr:city" v="Worcester" />
    <tag k="addr:housenumber" v="187" />
    <tag k="addr:street" v="Worcester Village Road" />
    <tag k="addr:state" v="VT" />
    <tag k="ref:vcgi:esiteid" v="304639" />
  </node>
  <node id="-475" visible="true" lat="44.36236585" lon="-72.54584948">
    <tag k="addr:city" v="Worcester" />
    <tag k="addr:housenumber" v="171" />
    <tag k="addr:street" v="Gould Hill Road" />
    <tag k="addr:state" v="VT" />
    <tag k="ref:vcgi:esiteid" v="304640" />
  </node>
  <node id="-476" visible="true" lat="44.36132049" lon="-72.58036804">
    <tag k="addr:city" v="Worcester" />
    <tag k="addr:housenumber" v="284" />
    <tag k="addr:street" v="Wood Road" />
    <tag k="addr:state" v="VT" />
    <tag k="ref:vcgi:esiteid" v="304641" />
  </node>
  <node id="-477" visible="true" lat="44.35987212" lon="-72.56277042">
    <tag k="addr:city" v="Worcester" />
    <tag k="addr:housenumber" v="8" />
    <tag k="addr:street" v="Keyser Road" />
    <tag k="addr:state" v="VT" />
    <tag k="ref:vcgi:esiteid" v="304642" />
  </node>
  <node id="-478" visible="true" lat="44.35852845" lon="-72.54714739">
    <tag k="addr:city" v="Worcester" />
    <tag k="addr:housenumber" v="241" />
    <tag k="addr:street" v="Gould Hill Road" />
    <tag k="addr:state" v="VT" />
    <tag k="ref:vcgi:esiteid" v="304643" />
  </node>
  <node id="-479" visible="true" lat="44.35876539" lon="-72.54969765">
    <tag k="addr:city" v="Worcester" />
    <tag k="addr:housenumber" v="334" />
    <tag k="addr:street" v="Norton Road" />
    <tag k="addr:state" v="VT" />
    <tag k="ref:vcgi:esiteid" v="304644" />
  </node>
  <node id="-480" visible="true" lat="44.35854041" lon="-72.54166408">
    <tag k="addr:city" v="Worcester" />
    <tag k="addr:housenumber" v="26" />
    <tag k="addr:street" v="Kaeding Road" />
    <tag k="addr:state" v="VT" />
    <tag k="ref:vcgi:esiteid" v="304645" />
  </node>
  <node id="-481" visible="true" lat="44.35807367" lon="-72.56745023">
    <tag k="addr:city" v="Worcester" />
    <tag k="addr:housenumber" v="34" />
    <tag k="addr:street" v="Downs Road" />
    <tag k="addr:state" v="VT" />
    <tag k="ref:vcgi:esiteid" v="304646" />
  </node>
  <node id="-482" visible="true" lat="44.35751493" lon="-72.56532337">
    <tag k="addr:city" v="Worcester" />
    <tag k="addr:housenumber" v="4" />
    <tag k="addr:street" v="Downs Road" />
    <tag k="addr:state" v="VT" />
    <tag k="ref:vcgi:esiteid" v="304647" />
  </node>
  <node id="-483" visible="true" lat="44.35716607" lon="-72.55544247">
    <tag k="addr:city" v="Worcester" />
    <tag k="addr:housenumber" v="242" />
    <tag k="addr:street" v="Norton Road" />
    <tag k="addr:state" v="VT" />
    <tag k="ref:vcgi:esiteid" v="304648" />
  </node>
  <node id="-484" visible="true" lat="44.35702459" lon="-72.55670402">
    <tag k="addr:city" v="Worcester" />
    <tag k="addr:housenumber" v="228" />
    <tag k="addr:street" v="Norton Road" />
    <tag k="addr:state" v="VT" />
    <tag k="ref:vcgi:esiteid" v="304649" />
  </node>
  <node id="-485" visible="true" lat="44.3563189" lon="-72.55777201">
    <tag k="addr:city" v="Worcester" />
    <tag k="addr:housenumber" v="226" />
    <tag k="addr:street" v="Norton Road" />
    <tag k="addr:state" v="VT" />
    <tag k="ref:vcgi:esiteid" v="304650" />
  </node>
  <node id="-486" visible="true" lat="44.35601521" lon="-72.55651123">
    <tag k="addr:city" v="Worcester" />
    <tag k="addr:housenumber" v="232" />
    <tag k="addr:street" v="Norton Road" />
    <tag k="addr:state" v="VT" />
    <tag k="ref:vcgi:esiteid" v="304651" />
  </node>
  <node id="-487" visible="true" lat="44.35581733" lon="-72.5538605">
    <tag k="addr:city" v="Worcester" />
    <tag k="addr:housenumber" v="259" />
    <tag k="addr:street" v="Norton Road" />
    <tag k="addr:state" v="VT" />
    <tag k="ref:vcgi:esiteid" v="304652" />
  </node>
  <node id="-488" visible="true" lat="44.3557662" lon="-72.55914115">
    <tag k="addr:city" v="Worcester" />
    <tag k="addr:housenumber" v="218" />
    <tag k="addr:street" v="Norton Road" />
    <tag k="addr:state" v="VT" />
    <tag k="ref:vcgi:esiteid" v="304653" />
  </node>
  <node id="-489" visible="true" lat="44.35574912" lon="-72.56503627">
    <tag k="addr:city" v="Worcester" />
    <tag k="addr:housenumber" v="355" />
    <tag k="addr:street" v="Worcester Village Road" />
    <tag k="addr:state" v="VT" />
    <tag k="ref:vcgi:esiteid" v="304654" />
  </node>
  <node id="-490" visible="true" lat="44.35378186" lon="-72.56497089">
    <tag k="addr:city" v="Worcester" />
    <tag k="addr:housenumber" v="383" />
    <tag k="addr:street" v="Worcester Village Road" />
    <tag k="addr:state" v="VT" />
    <tag k="ref:vcgi:esiteid" v="304655" />
  </node>
  <node id="-491" visible="true" lat="44.35349844" lon="-72.55992492">
    <tag k="addr:city" v="Worcester" />
    <tag k="addr:housenumber" v="188" />
    <tag k="addr:street" v="Norton Road" />
    <tag k="addr:state" v="VT" />
    <tag k="ref:vcgi:esiteid" v="304656" />
  </node>
  <node id="-492" visible="true" lat="44.352217" lon="-72.55795251">
    <tag k="addr:city" v="Worcester" />
    <tag k="addr:housenumber" v="149" />
    <tag k="addr:street" v="Norton Road" />
    <tag k="addr:state" v="VT" />
    <tag k="ref:vcgi:esiteid" v="304657" />
  </node>
  <node id="-493" visible="true" lat="44.35110092" lon="-72.55782318">
    <tag k="addr:city" v="Worcester" />
    <tag k="addr:housenumber" v="127" />
    <tag k="addr:street" v="Norton Road" />
    <tag k="addr:state" v="VT" />
    <tag k="ref:vcgi:esiteid" v="304658" />
  </node>
  <node id="-494" visible="true" lat="44.35105027" lon="-72.55838982">
    <tag k="addr:city" v="Worcester" />
    <tag k="addr:housenumber" v="126" />
    <tag k="addr:street" v="Norton Road" />
    <tag k="addr:state" v="VT" />
    <tag k="ref:vcgi:esiteid" v="304659" />
  </node>
  <node id="-495" visible="true" lat="44.3507815" lon="-72.56045081">
    <tag k="addr:city" v="Worcester" />
    <tag k="addr:housenumber" v="108" />
    <tag k="addr:street" v="Norton Road" />
    <tag k="addr:state" v="VT" />
    <tag k="ref:vcgi:esiteid" v="304660" />
  </node>
  <node id="-496" visible="true" lat="44.35046005" lon="-72.55809783">
    <tag k="addr:city" v="Worcester" />
    <tag k="addr:housenumber" v="115" />
    <tag k="addr:street" v="Norton Road" />
    <tag k="addr:state" v="VT" />
    <tag k="ref:vcgi:esiteid" v="304661" />
  </node>
  <node id="-497" visible="true" lat="44.34936874" lon="-72.55741271">
    <tag k="addr:city" v="Worcester" />
    <tag k="addr:housenumber" v="107" />
    <tag k="addr:street" v="Norton Road" />
    <tag k="addr:state" v="VT" />
    <tag k="ref:vcgi:esiteid" v="304662" />
  </node>
  <node id="-498" visible="true" lat="44.37966305" lon="-72.56274726">
    <tag k="addr:city" v="Worcester" />
    <tag k="addr:housenumber" v="159" />
    <tag k="addr:street" v="Minister Brook Road" />
    <tag k="addr:state" v="VT" />
    <tag k="ref:vcgi:esiteid" v="304663" />
  </node>
  <node id="-499" visible="true" lat="44.36683806" lon="-72.53787466">
    <tag k="addr:city" v="Worcester" />
    <tag k="addr:housenumber" v="36" />
    <tag k="addr:street" v="Dugar Road" />
    <tag k="addr:state" v="VT" />
    <tag k="ref:vcgi:esiteid" v="304664" />
  </node>
  <node id="-500" visible="true" lat="44.3854923" lon="-72.58838339">
    <tag k="addr:city" v="Worcester" />
    <tag k="addr:housenumber" v="233" />
    <tag k="addr:street" v="West Hill Road" />
    <tag k="addr:state" v="VT" />
    <tag k="ref:vcgi:esiteid" v="304665" />
  </node>
  <node id="-501" visible="true" lat="44.37401901" lon="-72.58373049">
    <tag k="addr:city" v="Worcester" />
    <tag k="addr:housenumber" v="208" />
    <tag k="addr:street" v="Mackenzie Drive" />
    <tag k="addr:state" v="VT" />
    <tag k="ref:vcgi:esiteid" v="304666" />
  </node>
  <node id="-502" visible="true" lat="44.38418006" lon="-72.57987884">
    <tag k="addr:city" v="Worcester" />
    <tag k="addr:housenumber" v="114" />
    <tag k="addr:street" v="West Hill Road" />
    <tag k="addr:state" v="VT" />
    <tag k="ref:vcgi:esiteid" v="304667" />
  </node>
  <node id="-503" visible="true" lat="44.37882795" lon="-72.57051643">
    <tag k="addr:city" v="Worcester" />
    <tag k="addr:housenumber" v="140" />
    <tag k="addr:street" v="Frazier Road" />
    <tag k="addr:state" v="VT" />
    <tag k="ref:vcgi:esiteid" v="304668" />
  </node>
  <node id="-504" visible="true" lat="44.39063739" lon="-72.51945014">
    <tag k="addr:city" v="Worcester" />
    <tag k="addr:housenumber" v="69" />
    <tag k="addr:street" v="Eagle Ledge Road" />
    <tag k="addr:state" v="VT" />
    <tag k="ref:vcgi:esiteid" v="304669" />
  </node>
  <node id="-505" visible="true" lat="44.39114322" lon="-72.52038308">
    <tag k="addr:city" v="Worcester" />
    <tag k="addr:housenumber" v="85" />
    <tag k="addr:street" v="Eagle Ledge Road" />
    <tag k="addr:state" v="VT" />
    <tag k="ref:vcgi:esiteid" v="304670" />
  </node>
  <node id="-506" visible="true" lat="44.39606905" lon="-72.5680247">
    <tag k="addr:city" v="Worcester" />
    <tag k="addr:housenumber" v="65" />
    <tag k="addr:street" v="Trl 18" />
    <tag k="addr:state" v="VT" />
    <tag k="ref:vcgi:esiteid" v="304671" />
  </node>
  <node id="-507" visible="true" lat="44.3995059" lon="-72.55325248">
    <tag k="addr:city" v="Worcester" />
    <tag k="addr:housenumber" v="423" />
    <tag k="addr:street" v="Elmore Road" />
    <tag k="addr:state" v="VT" />
    <tag k="ref:vcgi:esiteid" v="304672" />
  </node>
  <node id="-508" visible="true" lat="44.36972267" lon="-72.5493612">
    <tag k="addr:city" v="Worcester" />
    <tag k="addr:housenumber" v="62" />
    <tag k="addr:street" v="Worcester Village Road" />
    <tag k="addr:state" v="VT" />
    <tag k="ref:vcgi:esiteid" v="304673" />
  </node>
  <node id="-509" visible="true" lat="44.37505474" lon="-72.55297689">
    <tag k="addr:city" v="Worcester" />
    <tag k="addr:housenumber" v="11" />
    <tag k="addr:street" v="Maxham Drive" />
    <tag k="addr:state" v="VT" />
    <tag k="ref:vcgi:esiteid" v="304674" />
  </node>
  <node id="-510" visible="true" lat="44.3752872" lon="-72.55304643">
    <tag k="addr:city" v="Worcester" />
    <tag k="addr:housenumber" v="13" />
    <tag k="addr:street" v="Maxham Drive" />
    <tag k="addr:state" v="VT" />
    <tag k="ref:vcgi:esiteid" v="304675" />
  </node>
  <node id="-511" visible="true" lat="44.36403396" lon="-72.5828424">
    <tag k="addr:city" v="Worcester" />
    <tag k="addr:housenumber" v="320" />
    <tag k="addr:street" v="Wood Road" />
    <tag k="addr:state" v="VT" />
    <tag k="ref:vcgi:esiteid" v="304676" />
  </node>
  <node id="-512" visible="true" lat="44.38787262" lon="-72.58547725">
    <tag k="addr:city" v="Worcester" />
    <tag k="addr:housenumber" v="203" />
    <tag k="addr:street" v="West Hill Road" />
    <tag k="addr:state" v="VT" />
    <tag k="ref:vcgi:esiteid" v="304677" />
  </node>
  <node id="-513" visible="true" lat="44.40050111" lon="-72.5544602">
    <tag k="addr:city" v="Worcester" />
    <tag k="addr:housenumber" v="436" />
    <tag k="addr:street" v="Elmore Road" />
    <tag k="addr:state" v="VT" />
    <tag k="ref:vcgi:esiteid" v="304678" />
  </node>
  <node id="-514" visible="true" lat="44.38406991" lon="-72.58114462">
    <tag k="addr:city" v="Worcester" />
    <tag k="addr:housenumber" v="12" />
    <tag k="addr:street" v="Mackenzie Drive" />
    <tag k="addr:state" v="VT" />
    <tag k="ref:vcgi:esiteid" v="304680" />
  </node>
  <node id="-515" visible="true" lat="44.38180452" lon="-72.57439695">
    <tag k="addr:city" v="Worcester" />
    <tag k="addr:housenumber" v="61" />
    <tag k="addr:street" v="Frazier Road" />
    <tag k="addr:state" v="VT" />
    <tag k="ref:vcgi:esiteid" v="304681" />
  </node>
  <node id="-516" visible="true" lat="44.38504228" lon="-72.53769264">
    <tag k="addr:city" v="Worcester" />
    <tag k="addr:housenumber" v="46" />
    <tag k="addr:street" v="Pratt Road" />
    <tag k="addr:state" v="VT" />
    <tag k="ref:vcgi:esiteid" v="304682" />
  </node>
  <node id="-517" visible="true" lat="44.38651569" lon="-72.53754496">
    <tag k="addr:city" v="Worcester" />
    <tag k="addr:housenumber" v="74" />
    <tag k="addr:street" v="Pratt Road" />
    <tag k="addr:state" v="VT" />
    <tag k="ref:vcgi:esiteid" v="304683" />
  </node>
  <node id="-518" visible="true" lat="44.41068215" lon="-72.57225733">
    <tag k="addr:city" v="Worcester" />
    <tag k="addr:housenumber" v="363" />
    <tag k="addr:street" v="Hampshire Hill Road" />
    <tag k="addr:state" v="VT" />
    <tag k="ref:vcgi:esiteid" v="304684" />
  </node>
  <node id="-519" visible="true" lat="44.3647445" lon="-72.5370233">
    <tag k="addr:city" v="Worcester" />
    <tag k="addr:housenumber" v="49" />
    <tag k="addr:street" v="Dugar Extension" />
    <tag k="addr:state" v="VT" />
    <tag k="ref:vcgi:esiteid" v="304685" />
  </node>
  <node id="-520" visible="true" lat="44.40084681" lon="-72.55380469">
    <tag k="addr:city" v="Worcester" />
    <tag k="addr:housenumber" v="438" />
    <tag k="addr:street" v="Elmore Road" />
    <tag k="addr:state" v="VT" />
    <tag k="ref:vcgi:esiteid" v="304686" />
  </node>
  <node id="-521" visible="true" lat="44.40159248" lon="-72.55325212">
    <tag k="addr:city" v="Worcester" />
    <tag k="addr:housenumber" v="4" />
    <tag k="addr:street" v="Lower Hancock Brook Road" />
    <tag k="addr:state" v="VT" />
    <tag k="ref:vcgi:esiteid" v="304688" />
  </node>
  <node id="-522" visible="true" lat="44.3960638" lon="-72.59541767">
    <tag k="addr:city" v="Worcester" />
    <tag k="addr:housenumber" v="87" />
    <tag k="addr:street" v="Kimball Road" />
    <tag k="addr:state" v="VT" />
    <tag k="ref:vcgi:esiteid" v="304689" />
  </node>
  <node id="-523" visible="true" lat="44.38458398" lon="-72.53793613">
    <tag k="addr:city" v="Worcester" />
    <tag k="addr:housenumber" v="30" />
    <tag k="addr:street" v="Pratt Road" />
    <tag k="addr:state" v="VT" />
    <tag k="ref:vcgi:esiteid" v="304690" />
  </node>
  <node id="-524" visible="true" lat="44.41724438" lon="-72.57184511">
    <tag k="addr:city" v="Worcester" />
    <tag k="addr:housenumber" v="456" />
    <tag k="addr:street" v="Hampshire Hill Road" />
    <tag k="addr:state" v="VT" />
    <tag k="ref:vcgi:esiteid" v="304691" />
  </node>
  <node id="-525" visible="true" lat="44.39021826" lon="-72.5735234">
    <tag k="addr:city" v="Worcester" />
    <tag k="addr:housenumber" v="58" />
    <tag k="addr:street" v="Hampshire Hill Road" />
    <tag k="addr:state" v="VT" />
    <tag k="ref:vcgi:esiteid" v="304692" />
  </node>
  <node id="-526" visible="true" lat="44.39078389" lon="-72.5731265">
    <tag k="addr:city" v="Worcester" />
    <tag k="addr:housenumber" v="60" />
    <tag k="addr:street" v="Hampshire Hill Road" />
    <tag k="addr:state" v="VT" />
    <tag k="ref:vcgi:esiteid" v="304693" />
  </node>
  <node id="-527" visible="true" lat="44.38712845" lon="-72.58660451">
    <tag k="addr:city" v="Worcester" />
    <tag k="addr:housenumber" v="201" />
    <tag k="addr:street" v="West Hill Road" />
    <tag k="addr:state" v="VT" />
    <tag k="ref:vcgi:esiteid" v="304694" />
  </node>
  <node id="-528" visible="true" lat="44.38190471" lon="-72.56669044">
    <tag k="addr:city" v="Worcester" />
    <tag k="addr:housenumber" v="218" />
    <tag k="addr:street" v="Minister Brook Road" />
    <tag k="addr:state" v="VT" />
    <tag k="ref:vcgi:esiteid" v="304695" />
  </node>
  <node id="-529" visible="true" lat="44.37569742" lon="-72.5484884">
    <tag k="addr:city" v="Worcester" />
    <tag k="addr:housenumber" v="37" />
    <tag k="addr:street" v="Elmore Road" />
    <tag k="addr:state" v="VT" />
    <tag k="ref:vcgi:esiteid" v="304696" />
  </node>
  <node id="-530" visible="true" lat="44.37129228" lon="-72.5504458">
    <tag k="addr:city" v="Worcester" />
    <tag k="addr:housenumber" v="36" />
    <tag k="addr:street" v="Worcester Village Road" />
    <tag k="addr:state" v="VT" />
    <tag k="ref:vcgi:esiteid" v="304698" />
  </node>
  <node id="-531" visible="true" lat="44.3754663" lon="-72.55275582">
    <tag k="addr:city" v="Worcester" />
    <tag k="addr:housenumber" v="19" />
    <tag k="addr:street" v="Maxham Drive" />
    <tag k="addr:state" v="VT" />
    <tag k="ref:vcgi:esiteid" v="312329" />
  </node>
  <node id="-532" visible="true" lat="44.39825836" lon="-72.52551392">
    <tag k="addr:city" v="Worcester" />
    <tag k="addr:housenumber" v="207" />
    <tag k="addr:street" v="Eagle Ledge Road" />
    <tag k="addr:state" v="VT" />
    <tag k="ref:vcgi:esiteid" v="312331" />
  </node>
  <node id="-533" visible="true" lat="44.37084583" lon="-72.5498679">
    <tag k="addr:city" v="Worcester" />
    <tag k="addr:housenumber" v="46" />
    <tag k="addr:street" v="Worcester Village Road" />
    <tag k="addr:state" v="VT" />
    <tag k="ref:vcgi:esiteid" v="312332" />
  </node>
  <node id="-534" visible="true" lat="44.36626064" lon="-72.54300069">
    <tag k="addr:city" v="Worcester" />
    <tag k="addr:housenumber" v="81" />
    <tag k="addr:street" v="Gould Hill Road" />
    <tag k="addr:state" v="VT" />
    <tag k="ref:vcgi:esiteid" v="312333" />
  </node>
  <node id="-535" visible="true" lat="44.4143827" lon="-72.52208287">
    <tag k="addr:city" v="Worcester" />
    <tag k="addr:housenumber" v="473" />
    <tag k="addr:street" v="Eagle Ledge Trail" />
    <tag k="addr:state" v="VT" />
    <tag k="ref:vcgi:esiteid" v="312334" />
  </node>
  <node id="-536" visible="true" lat="44.41657927" lon="-72.52087284">
    <tag k="addr:city" v="Worcester" />
    <tag k="addr:housenumber" v="513" />
    <tag k="addr:street" v="Shepard Hill Road" />
    <tag k="addr:state" v="VT" />
    <tag k="ref:vcgi:esiteid" v="312335" />
  </node>
  <node id="-537" visible="true" lat="44.41607334" lon="-72.51920568">
    <tag k="addr:city" v="Worcester" />
    <tag k="addr:housenumber" v="535" />
    <tag k="addr:street" v="Shepard Hill Road" />
    <tag k="addr:state" v="VT" />
    <tag k="ref:vcgi:esiteid" v="312336" />
  </node>
  <node id="-538" visible="true" lat="44.41744785" lon="-72.5184657">
    <tag k="addr:city" v="Worcester" />
    <tag k="addr:housenumber" v="579" />
    <tag k="addr:street" v="Shepard Hill Road" />
    <tag k="addr:state" v="VT" />
    <tag k="ref:vcgi:esiteid" v="312337" />
  </node>
  <node id="-539" visible="true" lat="44.41960383" lon="-72.51851388">
    <tag k="addr:city" v="Worcester" />
    <tag k="addr:housenumber" v="600" />
    <tag k="addr:street" v="Shepard Hill Road" />
    <tag k="addr:state" v="VT" />
    <tag k="ref:vcgi:esiteid" v="312338" />
  </node>
  <node id="-540" visible="true" lat="44.4193337" lon="-72.51585436">
    <tag k="addr:city" v="Worcester" />
    <tag k="addr:housenumber" v="683" />
    <tag k="addr:street" v="Shepard Hill Road" />
    <tag k="addr:state" v="VT" />
    <tag k="ref:vcgi:esiteid" v="312339" />
  </node>
  <node id="-541" visible="true" lat="44.41925262" lon="-72.52186975">
    <tag k="addr:city" v="Worcester" />
    <tag k="addr:housenumber" v="536" />
    <tag k="addr:street" v="Eagle Ledge Trail" />
    <tag k="addr:state" v="VT" />
    <tag k="ref:vcgi:esiteid" v="312340" />
  </node>
  <node id="-542" visible="true" lat="44.42186642" lon="-72.51860039">
    <tag k="addr:city" v="Worcester" />
    <tag k="addr:housenumber" v="578" />
    <tag k="addr:street" v="Eagle Ledge Trail" />
    <tag k="addr:state" v="VT" />
    <tag k="ref:vcgi:esiteid" v="312341" />
  </node>
  <node id="-543" visible="true" lat="44.42860549" lon="-72.51560053">
    <tag k="addr:city" v="Worcester" />
    <tag k="addr:housenumber" v="684" />
    <tag k="addr:street" v="Eagle Ledge Trail" />
    <tag k="addr:state" v="VT" />
    <tag k="ref:vcgi:esiteid" v="312342" />
  </node>
  <node id="-544" visible="true" lat="44.41767119" lon="-72.51993286">
    <tag k="addr:city" v="Worcester" />
    <tag k="addr:housenumber" v="522" />
    <tag k="addr:street" v="Shepard Hill Road" />
    <tag k="addr:state" v="VT" />
    <tag k="ref:vcgi:esiteid" v="312343" />
  </node>
  <node id="-545" visible="true" lat="44.42274345" lon="-72.50185381">
    <tag k="addr:city" v="Worcester" />
    <tag k="addr:housenumber" v="767" />
    <tag k="addr:street" v="Shepard Hill Road" />
    <tag k="addr:state" v="VT" />
    <tag k="ref:vcgi:esiteid" v="312344" />
  </node>
  <node id="-546" visible="true" lat="44.42626033" lon="-72.49952021">
    <tag k="addr:city" v="Worcester" />
    <tag k="addr:housenumber" v="809" />
    <tag k="addr:street" v="Shepard Hill Road" />
    <tag k="addr:state" v="VT" />
    <tag k="ref:vcgi:esiteid" v="312345" />
  </node>
  <node id="-547" visible="true" lat="44.41980551" lon="-72.52004499">
    <tag k="addr:city" v="Worcester" />
    <tag k="addr:housenumber" v="537" />
    <tag k="addr:street" v="Eagle Ledge Trail" />
    <tag k="addr:state" v="VT" />
    <tag k="ref:vcgi:esiteid" v="313473" />
  </node>
  <node id="-548" visible="true" lat="44.36197477" lon="-72.5473512">
    <tag k="addr:city" v="Worcester" />
    <tag k="addr:housenumber" v="177" />
    <tag k="addr:street" v="Gould Hill Road" />
    <tag k="addr:state" v="VT" />
    <tag k="ref:vcgi:esiteid" v="327654" />
  </node>
  <node id="-549" visible="true" lat="44.37163523" lon="-72.59828027">
    <tag k="addr:city" v="Worcester" />
    <tag k="addr:housenumber" v="486" />
    <tag k="addr:street" v="West Hill Road" />
    <tag k="addr:state" v="VT" />
    <tag k="ref:vcgi:esiteid" v="327655" />
  </node>
  <node id="-550" visible="true" lat="44.40206955" lon="-72.57383701">
    <tag k="addr:city" v="Worcester" />
    <tag k="addr:housenumber" v="225" />
    <tag k="addr:street" v="Hampshire Hill Road" />
    <tag k="addr:state" v="VT" />
    <tag k="ref:vcgi:esiteid" v="327656" />
  </node>
  <node id="-551" visible="true" lat="44.36385148" lon="-72.54322975">
    <tag k="addr:city" v="Worcester" />
    <tag k="addr:housenumber" v="145" />
    <tag k="addr:street" v="Gould Hill Road" />
    <tag k="addr:state" v="VT" />
    <tag k="ref:vcgi:esiteid" v="328832" />
  </node>
  <node id="-552" visible="true" lat="44.36341889" lon="-72.54403927">
    <tag k="addr:city" v="Worcester" />
    <tag k="addr:housenumber" v="151" />
    <tag k="addr:street" v="Gould Hill Road" />
    <tag k="addr:state" v="VT" />
    <tag k="ref:vcgi:esiteid" v="328833" />
  </node>
  <node id="-553" visible="true" lat="44.39660018" lon="-72.52441906">
    <tag k="addr:city" v="Worcester" />
    <tag k="addr:housenumber" v="167" />
    <tag k="addr:street" v="Eagle Ledge Road" />
    <tag k="addr:state" v="VT" />
    <tag k="ref:vcgi:esiteid" v="328834" />
  </node>
  <node id="-554" visible="true" lat="44.37816002" lon="-72.57522296">
    <tag k="addr:city" v="Worcester" />
    <tag k="addr:housenumber" v="101" />
    <tag k="addr:street" v="Frazier Road" />
    <tag k="addr:state" v="VT" />
    <tag k="ref:vcgi:esiteid" v="335711" />
  </node>
  <node id="-555" visible="true" lat="44.36431149" lon="-72.55830786">
    <tag k="addr:city" v="Worcester" />
    <tag k="addr:housenumber" v="177" />
    <tag k="addr:street" v="Worcester Village Road" />
    <tag k="addr:state" v="VT" />
    <tag k="ref:vcgi:esiteid" v="337394" />
  </node>
  <node id="-556" visible="true" lat="44.38044022" lon="-72.59673084">
    <tag k="addr:city" v="Worcester" />
    <tag k="addr:housenumber" v="31" />
    <tag k="addr:street" v="Hults Road" />
    <tag k="addr:state" v="VT" />
    <tag k="ref:vcgi:esiteid" v="337808" />
  </node>
  <node id="-557" visible="true" lat="44.37688399" lon="-72.56919825">
    <tag k="addr:city" v="Worcester" />
    <tag k="addr:housenumber" v="80" />
    <tag k="addr:street" v="Hill Top Drive" />
    <tag k="addr:state" v="VT" />
    <tag k="ref:vcgi:esiteid" v="340098" />
  </node>
  <node id="-558" visible="true" lat="44.40075646" lon="-72.55548525">
    <tag k="addr:city" v="Worcester" />
    <tag k="addr:housenumber" v="434" />
    <tag k="addr:street" v="Elmore Road" />
    <tag k="addr:state" v="VT" />
    <tag k="ref:vcgi:esiteid" v="340704" />
  </node>
  <node id="-559" visible="true" lat="44.3639777" lon="-72.53770258">
    <tag k="addr:city" v="Worcester" />
    <tag k="addr:housenumber" v="39" />
    <tag k="addr:street" v="Dugar Extension" />
    <tag k="addr:state" v="VT" />
    <tag k="ref:vcgi:esiteid" v="365263" />
  </node>
  <node id="-560" visible="true" lat="44.39639163" lon="-72.57242152">
    <tag k="addr:city" v="Worcester" />
    <tag k="addr:housenumber" v="139" />
    <tag k="addr:street" v="Hampshire Hill Road" />
    <tag k="addr:state" v="VT" />
    <tag k="ref:vcgi:esiteid" v="365351" />
  </node>
  <node id="-561" visible="true" lat="44.39637289" lon="-72.57192748">
    <tag k="addr:city" v="Worcester" />
    <tag k="addr:housenumber" v="141" />
    <tag k="addr:street" v="Hampshire Hill Road" />
    <tag k="addr:state" v="VT" />
    <tag k="ref:vcgi:esiteid" v="365352" />
  </node>
  <node id="-562" visible="true" lat="44.4210311" lon="-72.56915878">
    <tag k="addr:city" v="Worcester" />
    <tag k="addr:housenumber" v="516" />
    <tag k="addr:street" v="Hampshire Hill Road" />
    <tag k="addr:state" v="VT" />
    <tag k="ref:vcgi:esiteid" v="365353" />
  </node>
  <node id="-563" visible="true" lat="44.40513643" lon="-72.5234541">
    <tag k="addr:city" v="Worcester" />
    <tag k="addr:housenumber" v="321" />
    <tag k="addr:street" v="Eagle Ledge Road" />
    <tag k="addr:state" v="VT" />
    <tag k="ref:vcgi:esiteid" v="365430" />
  </node>
  <node id="-564" visible="true" lat="44.40392368" lon="-72.54952684">
    <tag k="addr:city" v="Worcester" />
    <tag k="addr:housenumber" v="505" />
    <tag k="addr:street" v="Elmore Road" />
    <tag k="addr:state" v="VT" />
    <tag k="ref:vcgi:esiteid" v="446100" />
  </node>
  <node id="-565" visible="true" lat="44.3582055" lon="-72.54150088">
    <tag k="addr:city" v="Worcester" />
    <tag k="addr:housenumber" v="56" />
    <tag k="addr:street" v="Kaeding Road" />
    <tag k="addr:state" v="VT" />
    <tag k="ref:vcgi:esiteid" v="446422" />
  </node>
  <node id="-566" visible="true" lat="44.38108278" lon="-72.57577173">
    <tag k="addr:city" v="Worcester" />
    <tag k="addr:housenumber" v="75" />
    <tag k="addr:street" v="Frazier Road" />
    <tag k="addr:state" v="VT" />
    <tag k="ref:vcgi:esiteid" v="446569" />
  </node>
  <node id="-567" visible="true" lat="44.3656871" lon="-72.53656963">
    <tag k="addr:city" v="Worcester" />
    <tag k="addr:housenumber" v="60" />
    <tag k="addr:street" v="Dugar Extension" />
    <tag k="addr:state" v="VT" />
    <tag k="ref:vcgi:esiteid" v="446570" />
  </node>
  <node id="-568" visible="true" lat="44.36549777" lon="-72.53639018">
    <tag k="addr:city" v="Worcester" />
    <tag k="addr:housenumber" v="59" />
    <tag k="addr:street" v="Dugar Extension" />
    <tag k="addr:state" v="VT" />
    <tag k="ref:vcgi:esiteid" v="446664" />
  </node>
  <node id="-569" visible="true" lat="44.36596803" lon="-72.53599007">
    <tag k="addr:city" v="Worcester" />
    <tag k="addr:housenumber" v="67" />
    <tag k="addr:street" v="Dugar Extension" />
    <tag k="addr:state" v="VT" />
    <tag k="ref:vcgi:esiteid" v="446665" />
  </node>
  <node id="-570" visible="true" lat="44.40566098" lon="-72.57105309">
    <tag k="addr:city" v="Worcester" />
    <tag k="addr:housenumber" v="255" />
    <tag k="addr:street" v="Hampshire Hill Road" />
    <tag k="addr:state" v="VT" />
    <tag k="ref:vcgi:esiteid" v="448070" />
  </node>
  <node id="-571" visible="true" lat="44.37669175" lon="-72.56781014">
    <tag k="addr:city" v="Worcester" />
    <tag k="addr:housenumber" v="175" />
    <tag k="addr:street" v="Frazier Road" />
    <tag k="addr:state" v="VT" />
    <tag k="ref:vcgi:esiteid" v="448071" />
  </node>
  <node id="-572" visible="true" lat="44.36712382" lon="-72.53763863">
    <tag k="addr:city" v="Worcester" />
    <tag k="addr:housenumber" v="38" />
    <tag k="addr:street" v="Dugar Road" />
    <tag k="addr:state" v="VT" />
    <tag k="ref:vcgi:esiteid" v="451278" />
  </node>
  <node id="-573" visible="true" lat="44.38450507" lon="-72.61689575">
    <tag k="addr:city" v="Worcester" />
    <tag k="addr:housenumber" v="135" />
    <tag k="addr:street" v="Hults Road" />
    <tag k="addr:state" v="VT" />
    <tag k="ref:vcgi:esiteid" v="451296" />
  </node>
  <node id="-574" visible="true" lat="44.37630718" lon="-72.54163516">
    <tag k="addr:city" v="Worcester" />
    <tag k="addr:housenumber" v="124" />
    <tag k="addr:street" v="Calais Road" />
    <tag k="addr:state" v="VT" />
    <tag k="ref:vcgi:esiteid" v="453547" />
  </node>
  <node id="-575" visible="true" lat="44.38840932" lon="-72.53788476">
    <tag k="addr:city" v="Worcester" />
    <tag k="addr:housenumber" v="111" />
    <tag k="addr:street" v="Pratt Road" />
    <tag k="addr:state" v="VT" />
    <tag k="ref:vcgi:esiteid" v="453616" />
  </node>
  <node id="-576" visible="true" lat="44.3664907" lon="-72.53657438">
    <tag k="addr:city" v="Worcester" />
    <tag k="addr:housenumber" v="78" />
    <tag k="addr:street" v="Dugar Extension" />
    <tag k="addr:state" v="VT" />
    <tag k="ref:vcgi:esiteid" v="453725" />
  </node>
  <node id="-577" visible="true" lat="44.43305768" lon="-72.51098404">
    <tag k="addr:city" v="Worcester" />
    <tag k="addr:housenumber" v="790" />
    <tag k="addr:street" v="Eagle Ledge Trail" />
    <tag k="addr:state" v="VT" />
    <tag k="ref:vcgi:esiteid" v="453735" />
  </node>
  <node id="-578" visible="true" lat="44.40868294" lon="-72.52456631">
    <tag k="addr:city" v="Worcester" />
    <tag k="addr:housenumber" v="363" />
    <tag k="addr:street" v="Eagle Ledge Road" />
    <tag k="addr:state" v="VT" />
    <tag k="ref:vcgi:esiteid" v="453736" />
  </node>
  <node id="-580" visible="true" lat="44.39724239" lon="-72.58970248">
    <tag k="addr:city" v="Worcester" />
    <tag k="addr:housenumber" v="564" />
    <tag k="addr:street" v="Minister Brook Road" />
    <tag k="addr:state" v="VT" />
    <tag k="ref:vcgi:esiteid" v="455365" />
  </node>
  <node id="-581" visible="true" lat="44.3750504" lon="-72.55377955">
    <tag k="addr:city" v="Worcester" />
    <tag k="addr:housenumber" v="6" />
    <tag k="addr:street" v="Maxham Drive" />
    <tag k="addr:state" v="VT" />
    <tag k="ref:vcgi:esiteid" v="612112" />
  </node>
  <node id="-582" visible="true" lat="44.41256161" lon="-72.56661011">
    <tag k="addr:city" v="Worcester" />
    <tag k="addr:housenumber" v="99" />
    <tag k="addr:street" v="Upper Hancock Brook Road" />
    <tag k="addr:state" v="VT" />
    <tag k="ref:vcgi:esiteid" v="617031" />
  </node>
  <node id="-583" visible="true" lat="44.38551205" lon="-72.58759116">
    <tag k="addr:city" v="Worcester" />
    <tag k="addr:housenumber" v="236" />
    <tag k="addr:street" v="West Hill Road" />
    <tag k="addr:state" v="VT" />
    <tag k="ref:vcgi:esiteid" v="618392" />
  </node>
  <node id="-584" visible="true" lat="44.37711969" lon="-72.57179315">
    <tag k="addr:city" v="Worcester" />
    <tag k="addr:housenumber" v="235" />
    <tag k="addr:street" v="Hill Top Drive" />
    <tag k="addr:state" v="VT" />
    <tag k="ref:vcgi:esiteid" v="618393" />
  </node>
  <node id="-585" visible="true" lat="44.40952605" lon="-72.54703129">
    <tag k="addr:city" v="Worcester" />
    <tag k="addr:housenumber" v="596" />
    <tag k="addr:street" v="Elmore Road" />
    <tag k="addr:state" v="VT" />
    <tag k="ref:vcgi:esiteid" v="618394" />
  </node>
  <node id="-586" visible="true" lat="44.41073907" lon="-72.54863685">
    <tag k="addr:city" v="Worcester" />
    <tag k="addr:housenumber" v="618" />
    <tag k="addr:street" v="Elmore Road" />
    <tag k="addr:state" v="VT" />
    <tag k="ref:vcgi:esiteid" v="618395" />
  </node>
  <node id="-587" visible="true" lat="44.4110176" lon="-72.54785836">
    <tag k="addr:city" v="Worcester" />
    <tag k="addr:housenumber" v="615" />
    <tag k="addr:street" v="Elmore Road" />
    <tag k="addr:state" v="VT" />
    <tag k="ref:vcgi:esiteid" v="618396" />
  </node>
  <node id="-588" visible="true" lat="44.39669648" lon="-72.59535014">
    <tag k="addr:city" v="Worcester" />
    <tag k="addr:housenumber" v="91" />
    <tag k="addr:street" v="Kimball Road" />
    <tag k="addr:state" v="VT" />
    <tag k="ref:vcgi:esiteid" v="618397" />
  </node>
  <node id="-590" visible="true" lat="44.39878295" lon="-72.57242986">
    <tag k="addr:city" v="Worcester" />
    <tag k="addr:housenumber" v="169" />
    <tag k="addr:street" v="Hampshire Hill Road" />
    <tag k="addr:state" v="VT" />
    <tag k="ref:vcgi:esiteid" v="700098" />
  </node>
  <node id="-591" visible="true" lat="44.41915852" lon="-72.56362719">
    <tag k="addr:city" v="Worcester" />
    <tag k="addr:housenumber" v="48" />
    <tag k="addr:street" v="Carlson Road" />
    <tag k="addr:state" v="VT" />
    <tag k="ref:vcgi:esiteid" v="752118" />
  </node>
  <node id="-592" visible="true" lat="44.40184653" lon="-72.55362387">
    <tag k="addr:city" v="Worcester" />
    <tag k="addr:housenumber" v="440" />
    <tag k="addr:street" v="Elmore Road" />
    <tag k="addr:state" v="VT" />
    <tag k="ref:vcgi:esiteid" v="752880" />
  </node>
  <node id="-593" visible="true" lat="44.40790186" lon="-72.56261489">
    <tag k="addr:city" v="Worcester" />
    <tag k="addr:housenumber" v="176" />
    <tag k="addr:street" v="Upper Hancock Brook Road" />
    <tag k="addr:state" v="VT" />
    <tag k="ref:vcgi:esiteid" v="754224" />
  </node>
  <node id="-594" visible="true" lat="44.3850009" lon="-72.58464179">
    <tag k="addr:city" v="Worcester" />
    <tag k="addr:housenumber" v="176" />
    <tag k="addr:street" v="West Hill Road" />
    <tag k="addr:state" v="VT" />
    <tag k="ref:vcgi:esiteid" v="755102" />
  </node>
  <node id="-595" visible="true" lat="44.39823854" lon="-72.56559697">
    <tag k="addr:city" v="Worcester" />
    <tag k="addr:housenumber" v="66" />
    <tag k="addr:street" v="Trl 18" />
    <tag k="addr:state" v="VT" />
    <tag k="ref:vcgi:esiteid" v="758085" />
  </node>
  <node id="-596" visible="true" lat="44.37718434" lon="-72.59900278">
    <tag k="addr:city" v="Worcester" />
    <tag k="addr:housenumber" v="387" />
    <tag k="addr:street" v="West Hill Road" />
    <tag k="addr:state" v="VT" />
    <tag k="ref:vcgi:esiteid" v="758277" />
  </node>
  <node id="-597" visible="true" lat="44.38372699" lon="-72.55443703">
    <tag k="addr:city" v="Worcester" />
    <tag k="addr:housenumber" v="180" />
    <tag k="addr:street" v="Elmore Road" />
    <tag k="addr:state" v="VT" />
    <tag k="ref:vcgi:esiteid" v="760800" />
  </node>
  <node id="-598" visible="true" lat="44.37012656" lon="-72.57689753">
    <tag k="addr:city" v="Worcester" />
    <tag k="addr:housenumber" v="233" />
    <tag k="addr:street" v="Downs Road" />
    <tag k="addr:state" v="VT" />
    <tag k="ref:vcgi:esiteid" v="763638" />
  </node>
  <node id="-599" visible="true" lat="44.37023454" lon="-72.57564866">
    <tag k="addr:city" v="Worcester" />
    <tag k="addr:housenumber" v="231" />
    <tag k="addr:street" v="Downs Road" />
    <tag k="addr:state" v="VT" />
    <tag k="ref:vcgi:esiteid" v="763639" />
  </node>
  <node id="-600" visible="true" lat="44.36998674" lon="-72.57578316">
    <tag k="addr:city" v="Worcester" />
    <tag k="addr:housenumber" v="229" />
    <tag k="addr:street" v="Downs Road" />
    <tag k="addr:state" v="VT" />
    <tag k="ref:vcgi:esiteid" v="764316" />
  </node>
  <node id="-601" visible="true" lat="44.38886403" lon="-72.56978531">
    <tag k="addr:city" v="Worcester" />
    <tag k="addr:housenumber" v="106" />
    <tag k="addr:street" v="Milos Place" />
    <tag k="addr:state" v="VT" />
    <tag k="ref:vcgi:esiteid" v="764317" />
  </node>
  <node id="-602" visible="true" lat="44.38463258" lon="-72.58789823">
    <tag k="addr:city" v="Worcester" />
    <tag k="addr:housenumber" v="260" />
    <tag k="addr:street" v="West Hill Road" />
    <tag k="addr:state" v="VT" />
    <tag k="ref:vcgi:esiteid" v="900232" />
  </node>
  <node id="-603" visible="true" lat="44.37253905" lon="-72.54918117">
    <tag k="addr:city" v="Worcester" />
    <tag k="addr:housenumber" v="15" />
    <tag k="addr:street" v="Calais Road" />
    <tag k="addr:state" v="VT" />
    <tag k="ref:vcgi:esiteid" v="1050735" />
  </node>
</osm>
