<?xml version="1.0" encoding="UTF-8"?>
<osm version="0.6" generator="JOSM">
  <node id="-100" visible="true" lat="44.11899142" lon="-73.29469276">
    <tag k="addr:city" v="Addison"/>
    <tag k="addr:housenumber" v="2916"/>
    <tag k="addr:street" v="Vermont Route 22A"/>
    <tag k="addr:state" v="VT"/>
    <tag k="ref:vcgi:esiteid" v="421"/>
  </node>
  <node id="-101" visible="true" lat="44.1182718" lon="-73.29392213">
    <tag k="addr:city" v="Addison"/>
    <tag k="addr:housenumber" v="2852"/>
    <tag k="addr:street" v="Vermont Route 22A"/>
    <tag k="addr:state" v="VT"/>
    <tag k="ref:vcgi:esiteid" v="422"/>
  </node>
  <node id="-102" visible="true" lat="44.11835533" lon="-73.28882105">
    <tag k="addr:city" v="Addison"/>
    <tag k="addr:housenumber" v="2847"/>
    <tag k="addr:street" v="Vermont Route 22A"/>
    <tag k="addr:state" v="VT"/>
    <tag k="ref:vcgi:esiteid" v="423"/>
  </node>
  <node id="-103" visible="true" lat="44.11811166" lon="-73.29484625">
    <tag k="addr:city" v="Addison"/>
    <tag k="addr:housenumber" v="2914"/>
    <tag k="addr:street" v="Vermont Route 22A"/>
    <tag k="addr:state" v="VT"/>
    <tag k="ref:vcgi:esiteid" v="424"/>
  </node>
  <node id="-104" visible="true" lat="44.11794172" lon="-73.29320154">
    <tag k="addr:city" v="Addison"/>
    <tag k="addr:housenumber" v="2879"/>
    <tag k="addr:street" v="Vermont Route 22A"/>
    <tag k="addr:state" v="VT"/>
    <tag k="ref:vcgi:esiteid" v="425"/>
  </node>
  <node id="-105" visible="true" lat="44.11658308" lon="-73.29145554">
    <tag k="addr:city" v="Addison"/>
    <tag k="addr:housenumber" v="2979"/>
    <tag k="addr:street" v="Vermont Route 22A"/>
    <tag k="addr:state" v="VT"/>
    <tag k="ref:vcgi:esiteid" v="426"/>
  </node>
  <node id="-106" visible="true" lat="44.1162389" lon="-73.2940778">
    <tag k="addr:city" v="Addison"/>
    <tag k="addr:housenumber" v="2956"/>
    <tag k="addr:street" v="Vermont Route 22A"/>
    <tag k="addr:state" v="VT"/>
    <tag k="ref:vcgi:esiteid" v="427"/>
  </node>
  <node id="-107" visible="true" lat="44.11289299" lon="-73.29195365">
    <tag k="addr:city" v="Addison"/>
    <tag k="addr:housenumber" v="3051"/>
    <tag k="addr:street" v="Vermont Route 22A"/>
    <tag k="addr:state" v="VT"/>
    <tag k="ref:vcgi:esiteid" v="428"/>
  </node>
  <node id="-110" visible="true" lat="44.1111941" lon="-73.29464058">
    <tag k="addr:city" v="Addison"/>
    <tag k="addr:housenumber" v="3344"/>
    <tag k="addr:street" v="Vermont Route 22A"/>
    <tag k="addr:state" v="VT"/>
    <tag k="ref:vcgi:esiteid" v="431"/>
  </node>
  <node id="-118" visible="true" lat="44.10777241" lon="-73.29496209">
    <tag k="addr:city" v="Addison"/>
    <tag k="addr:housenumber" v="3585"/>
    <tag k="addr:street" v="Vermont Route 22A"/>
    <tag k="addr:state" v="VT"/>
    <tag k="ref:vcgi:esiteid" v="439"/>
  </node>
  <node id="-122" visible="true" lat="44.10709674" lon="-73.29578104">
    <tag k="addr:city" v="Addison"/>
    <tag k="addr:housenumber" v="3640"/>
    <tag k="addr:street" v="Vermont Route 22A"/>
    <tag k="addr:state" v="VT"/>
    <tag k="ref:vcgi:esiteid" v="443"/>
  </node>
  <node id="-132" visible="true" lat="44.10447731" lon="-73.29392349">
    <tag k="addr:city" v="Addison"/>
    <tag k="addr:housenumber" v="3851"/>
    <tag k="addr:street" v="Vermont Route 22A"/>
    <tag k="addr:state" v="VT"/>
    <tag k="ref:vcgi:esiteid" v="454"/>
  </node>
  <node id="-136" visible="true" lat="44.10216176" lon="-73.29666731">
    <tag k="addr:city" v="Addison"/>
    <tag k="addr:housenumber" v="3968"/>
    <tag k="addr:street" v="Vermont Route 22A"/>
    <tag k="addr:state" v="VT"/>
    <tag k="ref:vcgi:esiteid" v="458"/>
  </node>
  <node id="-139" visible="true" lat="44.10084142" lon="-73.29663867">
    <tag k="addr:city" v="Addison"/>
    <tag k="addr:housenumber" v="4059"/>
    <tag k="addr:street" v="Vermont Route 22A"/>
    <tag k="addr:state" v="VT"/>
    <tag k="ref:vcgi:esiteid" v="461"/>
  </node>
  <node id="-142" visible="true" lat="44.09927185" lon="-73.29925263">
    <tag k="addr:city" v="Addison"/>
    <tag k="addr:housenumber" v="4224"/>
    <tag k="addr:street" v="Vermont Route 22A"/>
    <tag k="addr:state" v="VT"/>
    <tag k="ref:vcgi:esiteid" v="464"/>
  </node>
  <node id="-145" visible="true" lat="44.09762803" lon="-73.29989524">
    <tag k="addr:city" v="Addison"/>
    <tag k="addr:housenumber" v="4338"/>
    <tag k="addr:street" v="Vermont Route 22A"/>
    <tag k="addr:state" v="VT"/>
    <tag k="ref:vcgi:esiteid" v="467"/>
  </node>
  <node id="-149" visible="true" lat="44.09669442" lon="-73.3003621">
    <tag k="addr:city" v="Addison"/>
    <tag k="addr:housenumber" v="4404"/>
    <tag k="addr:street" v="Vermont Route 22A"/>
    <tag k="addr:state" v="VT"/>
    <tag k="ref:vcgi:esiteid" v="472"/>
  </node>
  <node id="-156" visible="true" lat="44.09556133" lon="-73.30097902">
    <tag k="addr:city" v="Addison"/>
    <tag k="addr:housenumber" v="4486"/>
    <tag k="addr:street" v="Vermont Route 22A"/>
    <tag k="addr:state" v="VT"/>
    <tag k="ref:vcgi:esiteid" v="479"/>
  </node>
  <node id="-167" visible="true" lat="44.09430254" lon="-73.30129213">
    <tag k="addr:city" v="Addison"/>
    <tag k="addr:housenumber" v="4582"/>
    <tag k="addr:street" v="Vermont Route 22A"/>
    <tag k="addr:state" v="VT"/>
    <tag k="ref:vcgi:esiteid" v="490"/>
  </node>
  <node id="-169" visible="true" lat="44.09401475" lon="-73.30047737">
    <tag k="addr:city" v="Addison"/>
    <tag k="addr:housenumber" v="4581"/>
    <tag k="addr:street" v="Vermont Route 22A"/>
    <tag k="addr:state" v="VT"/>
    <tag k="ref:vcgi:esiteid" v="492"/>
  </node>
  <node id="-171" visible="true" lat="44.09382381" lon="-73.30158181">
    <tag k="addr:city" v="Addison"/>
    <tag k="addr:housenumber" v="4616"/>
    <tag k="addr:street" v="Vermont Route 22A"/>
    <tag k="addr:state" v="VT"/>
    <tag k="ref:vcgi:esiteid" v="494"/>
  </node>
  <node id="-173" visible="true" lat="44.09347721" lon="-73.30054672">
    <tag k="addr:city" v="Addison"/>
    <tag k="addr:housenumber" v="4617"/>
    <tag k="addr:street" v="Vermont Route 22A"/>
    <tag k="addr:state" v="VT"/>
    <tag k="ref:vcgi:esiteid" v="496"/>
  </node>
  <node id="-174" visible="true" lat="44.09307807" lon="-73.30173597">
    <tag k="addr:city" v="Addison"/>
    <tag k="addr:housenumber" v="4658"/>
    <tag k="addr:street" v="Vermont Route 22A"/>
    <tag k="addr:state" v="VT"/>
    <tag k="ref:vcgi:esiteid" v="498"/>
  </node>
  <node id="-178" visible="true" lat="44.09300247" lon="-73.30052344">
    <tag k="addr:city" v="Addison"/>
    <tag k="addr:housenumber" v="4691"/>
    <tag k="addr:street" v="Vermont Route 22A"/>
    <tag k="addr:state" v="VT"/>
    <tag k="ref:vcgi:esiteid" v="502"/>
  </node>
  <node id="-184" visible="true" lat="44.09234237" lon="-73.30013275">
    <tag k="addr:city" v="Addison"/>
    <tag k="addr:housenumber" v="4693"/>
    <tag k="addr:street" v="Vermont Route 22A"/>
    <tag k="addr:state" v="VT"/>
    <tag k="ref:vcgi:esiteid" v="508"/>
  </node>
  <node id="-193" visible="true" lat="44.09215904" lon="-73.30201806">
    <tag k="addr:city" v="Addison"/>
    <tag k="addr:housenumber" v="4732"/>
    <tag k="addr:street" v="Vermont Route 22A"/>
    <tag k="addr:state" v="VT"/>
    <tag k="ref:vcgi:esiteid" v="517"/>
  </node>
  <node id="-198" visible="true" lat="44.09133103" lon="-73.3014415">
    <tag k="addr:city" v="Addison"/>
    <tag k="addr:housenumber" v="4773"/>
    <tag k="addr:street" v="Vermont Route 22A"/>
    <tag k="addr:state" v="VT"/>
    <tag k="ref:vcgi:esiteid" v="522"/>
  </node>
  <node id="-202" visible="true" lat="44.09089828" lon="-73.30141398">
    <tag k="addr:city" v="Addison"/>
    <tag k="addr:housenumber" v="4811"/>
    <tag k="addr:street" v="Vermont Route 22A"/>
    <tag k="addr:state" v="VT"/>
    <tag k="ref:vcgi:esiteid" v="526"/>
  </node>
  <node id="-206" visible="true" lat="44.09035133" lon="-73.30243603">
    <tag k="addr:city" v="Addison"/>
    <tag k="addr:housenumber" v="4856"/>
    <tag k="addr:street" v="Vermont Route 22A"/>
    <tag k="addr:state" v="VT"/>
    <tag k="ref:vcgi:esiteid" v="530"/>
  </node>
  <node id="-208" visible="true" lat="44.09015516" lon="-73.30181433">
    <tag k="addr:city" v="Addison"/>
    <tag k="addr:housenumber" v="4869"/>
    <tag k="addr:street" v="Vermont Route 22A"/>
    <tag k="addr:state" v="VT"/>
    <tag k="ref:vcgi:esiteid" v="532"/>
  </node>
  <node id="-212" visible="true" lat="44.08956876" lon="-73.30185642">
    <tag k="addr:city" v="Addison"/>
    <tag k="addr:housenumber" v="4901"/>
    <tag k="addr:street" v="Vermont Route 22A"/>
    <tag k="addr:state" v="VT"/>
    <tag k="ref:vcgi:esiteid" v="536"/>
  </node>
  <node id="-213" visible="true" lat="44.08963232" lon="-73.30244564">
    <tag k="addr:city" v="Addison"/>
    <tag k="addr:housenumber" v="4904"/>
    <tag k="addr:street" v="Vermont Route 22A"/>
    <tag k="addr:state" v="VT"/>
    <tag k="ref:vcgi:esiteid" v="537"/>
  </node>
  <node id="-215" visible="true" lat="44.08925924" lon="-73.30194382">
    <tag k="addr:city" v="Addison"/>
    <tag k="addr:housenumber" v="4923"/>
    <tag k="addr:street" v="Vermont Route 22A"/>
    <tag k="addr:state" v="VT"/>
    <tag k="ref:vcgi:esiteid" v="539"/>
  </node>
  <node id="-222" visible="true" lat="44.08887462" lon="-73.30279512">
    <tag k="addr:city" v="Addison"/>
    <tag k="addr:housenumber" v="13"/>
    <tag k="addr:street" v="Vermont Route 17 West"/>
    <tag k="addr:state" v="VT"/>
    <tag k="ref:vcgi:esiteid" v="548"/>
  </node>
  <node id="-228" visible="true" lat="44.08858788" lon="-73.30154514">
    <tag k="addr:city" v="Addison"/>
    <tag k="addr:housenumber" v="164"/>
    <tag k="addr:street" v="King Hill Road"/>
    <tag k="addr:state" v="VT"/>
    <tag k="ref:vcgi:esiteid" v="554"/>
  </node>
  <node id="-231" visible="true" lat="44.08824257" lon="-73.3022028">
    <tag k="addr:city" v="Addison"/>
    <tag k="addr:housenumber" v="183"/>
    <tag k="addr:street" v="King Hill Road"/>
    <tag k="addr:state" v="VT"/>
    <tag k="ref:vcgi:esiteid" v="557"/>
  </node>
  <node id="-233" visible="true" lat="44.08819748" lon="-73.30277083">
    <tag k="addr:city" v="Addison"/>
    <tag k="addr:housenumber" v="5018"/>
    <tag k="addr:street" v="Vermont Route 22A"/>
    <tag k="addr:state" v="VT"/>
    <tag k="ref:vcgi:esiteid" v="559"/>
  </node>
  <node id="-279" visible="true" lat="44.08406533" lon="-73.30312201">
    <tag k="addr:city" v="Addison"/>
    <tag k="addr:housenumber" v="5292"/>
    <tag k="addr:street" v="Vermont Route 22A"/>
    <tag k="addr:state" v="VT"/>
    <tag k="ref:vcgi:esiteid" v="609"/>
  </node>
  <node id="-317" visible="true" lat="44.08174241" lon="-73.30053292">
    <tag k="addr:city" v="Addison"/>
    <tag k="addr:housenumber" v="122"/>
    <tag k="addr:street" v="Danyow Drive"/>
    <tag k="addr:state" v="VT"/>
    <tag k="ref:vcgi:esiteid" v="648"/>
  </node>
  <node id="-320" visible="true" lat="44.0815919" lon="-73.30242342">
    <tag k="addr:city" v="Addison"/>
    <tag k="addr:housenumber" v="37"/>
    <tag k="addr:street" v="Danyow Drive"/>
    <tag k="addr:state" v="VT"/>
    <tag k="ref:vcgi:esiteid" v="651"/>
  </node>
  <node id="-332" visible="true" lat="44.08080154" lon="-73.3021664">
    <tag k="addr:city" v="Addison"/>
    <tag k="addr:housenumber" v="56"/>
    <tag k="addr:street" v="Danyow Drive"/>
    <tag k="addr:state" v="VT"/>
    <tag k="ref:vcgi:esiteid" v="663"/>
  </node>
  <node id="-334" visible="true" lat="44.08048364" lon="-73.3044748">
    <tag k="addr:city" v="Addison"/>
    <tag k="addr:housenumber" v="5490"/>
    <tag k="addr:street" v="Vermont Route 22A"/>
    <tag k="addr:state" v="VT"/>
    <tag k="ref:vcgi:esiteid" v="665"/>
  </node>
  <node id="-339" visible="true" lat="44.0801538" lon="-73.30241065">
    <tag k="addr:city" v="Addison"/>
    <tag k="addr:housenumber" v="5551"/>
    <tag k="addr:street" v="Vermont Route 22A"/>
    <tag k="addr:state" v="VT"/>
    <tag k="ref:vcgi:esiteid" v="670"/>
  </node>
  <node id="-414" visible="true" lat="44.06978294" lon="-73.3026594">
    <tag k="addr:city" v="Addison"/>
    <tag k="addr:housenumber" v="85"/>
    <tag k="addr:street" v="Whitford Road"/>
    <tag k="addr:state" v="VT"/>
    <tag k="ref:vcgi:esiteid" v="746"/>
  </node>
  <node id="-423" visible="true" lat="44.0697324" lon="-73.2987747">
    <tag k="addr:city" v="Addison"/>
    <tag k="addr:housenumber" v="271"/>
    <tag k="addr:street" v="Whitford Road"/>
    <tag k="addr:state" v="VT"/>
    <tag k="ref:vcgi:esiteid" v="756"/>
  </node>
  <node id="-424" visible="true" lat="44.06992271" lon="-73.30018374">
    <tag k="addr:city" v="Addison"/>
    <tag k="addr:housenumber" v="209"/>
    <tag k="addr:street" v="Whitford Road"/>
    <tag k="addr:state" v="VT"/>
    <tag k="ref:vcgi:esiteid" v="757"/>
  </node>
  <node id="-427" visible="true" lat="44.06886662" lon="-73.3025287">
    <tag k="addr:city" v="Addison"/>
    <tag k="addr:housenumber" v="80"/>
    <tag k="addr:street" v="Whitford Road"/>
    <tag k="addr:state" v="VT"/>
    <tag k="ref:vcgi:esiteid" v="760"/>
  </node>
  <node id="-428" visible="true" lat="44.06925045" lon="-73.29509637">
    <tag k="addr:city" v="Addison"/>
    <tag k="addr:housenumber" v="465"/>
    <tag k="addr:street" v="Whitford Road"/>
    <tag k="addr:state" v="VT"/>
    <tag k="ref:vcgi:esiteid" v="761"/>
  </node>
  <node id="-430" visible="true" lat="44.0687987" lon="-73.29882126">
    <tag k="addr:city" v="Addison"/>
    <tag k="addr:housenumber" v="274"/>
    <tag k="addr:street" v="Whitford Road"/>
    <tag k="addr:state" v="VT"/>
    <tag k="ref:vcgi:esiteid" v="767"/>
  </node>
  <node id="-433" visible="true" lat="44.06890288" lon="-73.30075923">
    <tag k="addr:city" v="Addison"/>
    <tag k="addr:housenumber" v="196"/>
    <tag k="addr:street" v="Whitford Road"/>
    <tag k="addr:state" v="VT"/>
    <tag k="ref:vcgi:esiteid" v="770"/>
  </node>
  <node id="-436" visible="true" lat="44.06836058" lon="-73.29608158">
    <tag k="addr:city" v="Addison"/>
    <tag k="addr:housenumber" v="434"/>
    <tag k="addr:street" v="Whitford Road"/>
    <tag k="addr:state" v="VT"/>
    <tag k="ref:vcgi:esiteid" v="773"/>
  </node>
  <node id="-468" visible="true" lat="44.0638379" lon="-73.30445831">
    <tag k="addr:city" v="Addison"/>
    <tag k="addr:housenumber" v="56"/>
    <tag k="addr:street" v="Nortontown Road"/>
    <tag k="addr:state" v="VT"/>
    <tag k="ref:vcgi:esiteid" v="806"/>
  </node>
  <node id="-482" visible="true" lat="44.06288701" lon="-73.30386422">
    <tag k="addr:city" v="Addison"/>
    <tag k="addr:housenumber" v="37"/>
    <tag k="addr:street" v="Nortontown Road"/>
    <tag k="addr:state" v="VT"/>
    <tag k="ref:vcgi:esiteid" v="820"/>
  </node>
  <node id="-488" visible="true" lat="44.0621558" lon="-73.30459707">
    <tag k="addr:city" v="Addison"/>
    <tag k="addr:housenumber" v="83"/>
    <tag k="addr:street" v="Nortontown Road"/>
    <tag k="addr:state" v="VT"/>
    <tag k="ref:vcgi:esiteid" v="826"/>
  </node>
  <node id="-530" visible="true" lat="44.05829136" lon="-73.38014171">
    <tag k="addr:city" v="Addison"/>
    <tag k="addr:housenumber" v="789"/>
    <tag k="addr:street" v="Jersey Street South"/>
    <tag k="addr:state" v="VT"/>
    <tag k="ref:vcgi:esiteid" v="868"/>
  </node>
  <node id="-536" visible="true" lat="44.05738776" lon="-73.38000117">
    <tag k="addr:city" v="Addison"/>
    <tag k="addr:housenumber" v="836"/>
    <tag k="addr:street" v="Jersey Street South"/>
    <tag k="addr:state" v="VT"/>
    <tag k="ref:vcgi:esiteid" v="874"/>
  </node>
  <node id="-544" visible="true" lat="44.05617094" lon="-73.37844013">
    <tag k="addr:city" v="Addison"/>
    <tag k="addr:housenumber" v="968"/>
    <tag k="addr:street" v="Jersey Street South"/>
    <tag k="addr:state" v="VT"/>
    <tag k="ref:vcgi:esiteid" v="882"/>
  </node>
  <node id="-546" visible="true" lat="44.05488369" lon="-73.38113237">
    <tag k="addr:city" v="Addison"/>
    <tag k="addr:housenumber" v="228"/>
    <tag k="addr:street" v="Country Club Road"/>
    <tag k="addr:state" v="VT"/>
    <tag k="ref:vcgi:esiteid" v="884"/>
  </node>
  <node id="-548" visible="true" lat="44.0550933" lon="-73.37586974">
    <tag k="addr:city" v="Addison"/>
    <tag k="addr:housenumber" v="1125"/>
    <tag k="addr:street" v="Jersey Street South"/>
    <tag k="addr:state" v="VT"/>
    <tag k="ref:vcgi:esiteid" v="886"/>
  </node>
  <node id="-551" visible="true" lat="44.05468999" lon="-73.37644292">
    <tag k="addr:city" v="Addison"/>
    <tag k="addr:housenumber" v="1114"/>
    <tag k="addr:street" v="Jersey Street South"/>
    <tag k="addr:state" v="VT"/>
    <tag k="ref:vcgi:esiteid" v="889"/>
  </node>
  <node id="-554" visible="true" lat="44.0543213" lon="-73.37595421">
    <tag k="addr:city" v="Addison"/>
    <tag k="addr:housenumber" v="1133"/>
    <tag k="addr:street" v="Jersey Street South"/>
    <tag k="addr:state" v="VT"/>
    <tag k="ref:vcgi:esiteid" v="892"/>
  </node>
  <node id="-558" visible="true" lat="44.05341466" lon="-73.37598568">
    <tag k="addr:city" v="Addison"/>
    <tag k="addr:housenumber" v="1197"/>
    <tag k="addr:street" v="Jersey Street South"/>
    <tag k="addr:state" v="VT"/>
    <tag k="ref:vcgi:esiteid" v="896"/>
  </node>
  <node id="-582" visible="true" lat="44.04838526" lon="-73.37729973">
    <tag k="addr:city" v="Addison"/>
    <tag k="addr:housenumber" v="1546"/>
    <tag k="addr:street" v="Jersey Street South"/>
    <tag k="addr:state" v="VT"/>
    <tag k="ref:vcgi:esiteid" v="920"/>
  </node>
  <node id="-585" visible="true" lat="44.04795189" lon="-73.37762513">
    <tag k="addr:city" v="Addison"/>
    <tag k="addr:housenumber" v="1578"/>
    <tag k="addr:street" v="Jersey Street South"/>
    <tag k="addr:state" v="VT"/>
    <tag k="ref:vcgi:esiteid" v="923"/>
  </node>
  <node id="-588" visible="true" lat="44.04778364" lon="-73.3764627">
    <tag k="addr:city" v="Addison"/>
    <tag k="addr:housenumber" v="1603"/>
    <tag k="addr:street" v="Jersey Street South"/>
    <tag k="addr:state" v="VT"/>
    <tag k="ref:vcgi:esiteid" v="927"/>
  </node>
  <node id="-604" visible="true" lat="44.04647805" lon="-73.37600242">
    <tag k="addr:city" v="Addison"/>
    <tag k="addr:housenumber" v="1679"/>
    <tag k="addr:street" v="Jersey Street South"/>
    <tag k="addr:state" v="VT"/>
    <tag k="ref:vcgi:esiteid" v="943"/>
  </node>
  <node id="-631" visible="true" lat="44.043062" lon="-73.37518977">
    <tag k="addr:city" v="Addison"/>
    <tag k="addr:housenumber" v="1900"/>
    <tag k="addr:street" v="Jersey Street South"/>
    <tag k="addr:state" v="VT"/>
    <tag k="ref:vcgi:esiteid" v="970"/>
  </node>
  <node id="-649" visible="true" lat="44.03931352" lon="-73.37005189">
    <tag k="addr:city" v="Addison"/>
    <tag k="addr:housenumber" v="2283"/>
    <tag k="addr:street" v="Jersey Street South"/>
    <tag k="addr:state" v="VT"/>
    <tag k="ref:vcgi:esiteid" v="989"/>
  </node>
  <node id="-654" visible="true" lat="44.03695894" lon="-73.36932051">
    <tag k="addr:city" v="Addison"/>
    <tag k="addr:housenumber" v="2439"/>
    <tag k="addr:street" v="Jersey Street South"/>
    <tag k="addr:state" v="VT"/>
    <tag k="ref:vcgi:esiteid" v="995"/>
  </node>
  <node id="-669" visible="true" lat="44.03410694" lon="-73.3140715">
    <tag k="addr:city" v="Addison"/>
    <tag k="addr:housenumber" v="216"/>
    <tag k="addr:street" v="Stickle Road"/>
    <tag k="addr:state" v="VT"/>
    <tag k="ref:vcgi:esiteid" v="1011"/>
  </node>
  <node id="-705" visible="true" lat="44.03023731" lon="-73.30788339">
    <tag k="addr:city" v="Addison"/>
    <tag k="addr:housenumber" v="682"/>
    <tag k="addr:street" v="Town Line Road"/>
    <tag k="addr:state" v="VT"/>
    <tag k="ref:vcgi:esiteid" v="1048"/>
  </node>
  <node id="-719" visible="true" lat="44.05708375" lon="-73.29724833">
    <tag k="addr:city" v="Addison"/>
    <tag k="addr:housenumber" v="149"/>
    <tag k="addr:street" v="Grandview Lane"/>
    <tag k="addr:state" v="VT"/>
    <tag k="ref:vcgi:esiteid" v="1065"/>
  </node>
  <node id="-723" visible="true" lat="44.05761169" lon="-73.29702851">
    <tag k="addr:city" v="Addison"/>
    <tag k="addr:housenumber" v="143"/>
    <tag k="addr:street" v="Grandview Lane"/>
    <tag k="addr:state" v="VT"/>
    <tag k="ref:vcgi:esiteid" v="1069"/>
  </node>
  <node id="-726" visible="true" lat="44.06803186" lon="-73.29394401">
    <tag k="addr:city" v="Addison"/>
    <tag k="addr:housenumber" v="1240"/>
    <tag k="addr:street" v="Mountain Road"/>
    <tag k="addr:state" v="VT"/>
    <tag k="ref:vcgi:esiteid" v="1072"/>
  </node>
  <node id="-745" visible="true" lat="44.05343418" lon="-73.38183118">
    <tag k="addr:city" v="Addison"/>
    <tag k="addr:housenumber" v="227"/>
    <tag k="addr:street" v="Country Club Road"/>
    <tag k="addr:state" v="VT"/>
    <tag k="ref:vcgi:esiteid" v="1095"/>
  </node>
  <node id="-771" visible="true" lat="44.0528174" lon="-73.37680768">
    <tag k="addr:city" v="Addison"/>
    <tag k="addr:housenumber" v="1246"/>
    <tag k="addr:street" v="Jersey Street South"/>
    <tag k="addr:state" v="VT"/>
    <tag k="ref:vcgi:esiteid" v="1123"/>
  </node>
  <node id="-782" visible="true" lat="44.1066246" lon="-73.29501929">
    <tag k="addr:city" v="Addison"/>
    <tag k="addr:housenumber" v="3661"/>
    <tag k="addr:street" v="Vermont Route 22A"/>
    <tag k="addr:state" v="VT"/>
    <tag k="ref:vcgi:esiteid" v="1134"/>
  </node>
  <node id="-783" visible="true" lat="44.09130988" lon="-73.30247012">
    <tag k="addr:city" v="Addison"/>
    <tag k="addr:housenumber" v="4792"/>
    <tag k="addr:street" v="Vermont Route 22A"/>
    <tag k="addr:state" v="VT"/>
    <tag k="ref:vcgi:esiteid" v="1135"/>
  </node>
  <node id="-790" visible="true" lat="44.1118225" lon="-73.29056192">
    <tag k="addr:city" v="Addison"/>
    <tag k="addr:housenumber" v="3345"/>
    <tag k="addr:street" v="Vermont Route 22A"/>
    <tag k="addr:state" v="VT"/>
    <tag k="ref:vcgi:esiteid" v="1142"/>
  </node>
  <node id="-791" visible="true" lat="44.11529147" lon="-73.29261445">
    <tag k="addr:city" v="Addison"/>
    <tag k="addr:housenumber" v="3029"/>
    <tag k="addr:street" v="Vermont Route 22A"/>
    <tag k="addr:state" v="VT"/>
    <tag k="ref:vcgi:esiteid" v="1143"/>
  </node>
  <node id="-793" visible="true" lat="44.05476593" lon="-73.38495743">
    <tag k="addr:city" v="Addison"/>
    <tag k="addr:housenumber" v="408"/>
    <tag k="addr:street" v="Country Club Road"/>
    <tag k="addr:state" v="VT"/>
    <tag k="ref:vcgi:esiteid" v="1145"/>
  </node>
  <node id="-794" visible="true" lat="44.05458133" lon="-73.38721211">
    <tag k="addr:city" v="Addison"/>
    <tag k="addr:housenumber" v="520"/>
    <tag k="addr:street" v="Country Club Road"/>
    <tag k="addr:state" v="VT"/>
    <tag k="ref:vcgi:esiteid" v="1146"/>
  </node>
  <node id="-801" visible="true" lat="44.04622277" lon="-73.37877318">
    <tag k="addr:city" v="Addison"/>
    <tag k="addr:housenumber" v="1742"/>
    <tag k="addr:street" v="Jersey Street South"/>
    <tag k="addr:state" v="VT"/>
    <tag k="ref:vcgi:esiteid" v="1153"/>
  </node>
  <node id="-815" visible="true" lat="44.08122189" lon="-73.30834161">
    <tag k="addr:city" v="Addison"/>
    <tag k="addr:housenumber" v="5470"/>
    <tag k="addr:street" v="Vermont Route 22A"/>
    <tag k="addr:state" v="VT"/>
    <tag k="ref:vcgi:esiteid" v="1167"/>
  </node>
  <node id="-820" visible="true" lat="44.05647923" lon="-73.29970371">
    <tag k="addr:city" v="Addison"/>
    <tag k="addr:housenumber" v="76"/>
    <tag k="addr:street" v="Grandview Lane"/>
    <tag k="addr:state" v="VT"/>
    <tag k="ref:vcgi:esiteid" v="2107"/>
  </node>
  <node id="-845" visible="true" lat="44.1030283" lon="-73.29368178">
    <tag k="addr:city" v="Addison"/>
    <tag k="addr:housenumber" v="3857"/>
    <tag k="addr:street" v="Vermont Route 22A"/>
    <tag k="addr:state" v="VT"/>
    <tag k="ref:vcgi:esiteid" v="332365"/>
  </node>
  <node id="-849" visible="true" lat="44.03432089" lon="-73.31163595">
    <tag k="addr:city" v="Addison"/>
    <tag k="addr:housenumber" v="90"/>
    <tag k="addr:street" v="Stickle Road"/>
    <tag k="addr:state" v="VT"/>
    <tag k="ref:vcgi:esiteid" v="335603"/>
  </node>
  <node id="-853" visible="true" lat="44.05202623" lon="-73.3760706">
    <tag k="addr:city" v="Addison"/>
    <tag k="addr:housenumber" v="1245"/>
    <tag k="addr:street" v="Jersey Street South"/>
    <tag k="addr:state" v="VT"/>
    <tag k="ref:vcgi:esiteid" v="337619"/>
  </node>
  <node id="-854" visible="true" lat="44.0455601" lon="-73.37775925">
    <tag k="addr:city" v="Addison"/>
    <tag k="addr:housenumber" v="1780"/>
    <tag k="addr:street" v="Jersey Street South"/>
    <tag k="addr:state" v="VT"/>
    <tag k="ref:vcgi:esiteid" v="337620"/>
  </node>
  <node id="-857" visible="true" lat="44.03097172" lon="-73.30605311">
    <tag k="addr:city" v="Addison"/>
    <tag k="addr:housenumber" v="480"/>
    <tag k="addr:street" v="Town Line Road"/>
    <tag k="addr:state" v="VT"/>
    <tag k="ref:vcgi:esiteid" v="337623"/>
  </node>
  <node id="-858" visible="true" lat="44.10715337" lon="-73.2950081">
    <tag k="addr:city" v="Addison"/>
    <tag k="addr:housenumber" v="3641"/>
    <tag k="addr:street" v="Vermont Route 22A"/>
    <tag k="addr:state" v="VT"/>
    <tag k="ref:vcgi:esiteid" v="338919"/>
  </node>
  <node id="-861" visible="true" lat="44.0817873" lon="-73.30702255">
    <tag k="addr:city" v="Addison"/>
    <tag k="addr:housenumber" v="5468"/>
    <tag k="addr:street" v="Vermont Route 22A"/>
    <tag k="addr:state" v="VT"/>
    <tag k="ref:vcgi:esiteid" v="340013"/>
  </node>
  <node id="-865" visible="true" lat="44.06856209" lon="-73.29455012">
    <tag k="addr:city" v="Addison"/>
    <tag k="addr:housenumber" v="484"/>
    <tag k="addr:street" v="Whitford Road"/>
    <tag k="addr:state" v="VT"/>
    <tag k="ref:vcgi:esiteid" v="365214"/>
  </node>
  <node id="-873" visible="true" lat="44.11469554" lon="-73.2903902">
    <tag k="addr:city" v="Addison"/>
    <tag k="addr:housenumber" v="3043"/>
    <tag k="addr:street" v="Vermont Route 22A"/>
    <tag k="addr:state" v="VT"/>
    <tag k="ref:vcgi:esiteid" v="446285"/>
  </node>
  <node id="-874" visible="true" lat="44.11572185" lon="-73.29109175">
    <tag k="addr:city" v="Addison"/>
    <tag k="addr:housenumber" v="3035"/>
    <tag k="addr:street" v="Vermont Route 22A"/>
    <tag k="addr:state" v="VT"/>
    <tag k="ref:vcgi:esiteid" v="446289"/>
  </node>
  <node id="-881" visible="true" lat="44.05407039" lon="-73.37525518">
    <tag k="addr:city" v="Addison"/>
    <tag k="addr:housenumber" v="1161"/>
    <tag k="addr:street" v="Jersey Street South"/>
    <tag k="addr:state" v="VT"/>
    <tag k="ref:vcgi:esiteid" v="448587"/>
  </node>
  <node id="-957" visible="true" lat="44.0690228" lon="-73.30387434">
    <tag k="addr:city" v="Addison"/>
    <tag k="addr:housenumber" v="26"/>
    <tag k="addr:street" v="Whitford Road"/>
    <tag k="addr:state" v="VT"/>
    <tag k="ref:vcgi:esiteid" v="453530"/>
  </node>
  <node id="-1011" visible="true" lat="44.10297058" lon="-73.29648387">
    <tag k="addr:city" v="Addison"/>
    <tag k="addr:housenumber" v="3912"/>
    <tag k="addr:street" v="Vermont Route 22A"/>
    <tag k="addr:state" v="VT"/>
    <tag k="ref:vcgi:esiteid" v="754104"/>
  </node>
  <node id="-1012" visible="true" lat="44.10252793" lon="-73.29746931">
    <tag k="addr:city" v="Addison"/>
    <tag k="addr:housenumber" v="3940"/>
    <tag k="addr:street" v="Vermont Route 22A"/>
    <tag k="addr:state" v="VT"/>
    <tag k="ref:vcgi:esiteid" v="754105"/>
  </node>
</osm>
