<?xml version="1.0" encoding="UTF-8"?>
<osm version="0.6" generator="JOSM">
  <node id="-100" visible="true" lat="44.77274968" lon="-72.32755597">
    <tag k="addr:city" v="Albany"/>
    <tag k="addr:housenumber" v="568"/>
    <tag k="addr:street" v="Vermont Route 14 North"/>
    <tag k="addr:state" v="VT"/>
    <tag k="ref:vcgi:esiteid" v="11"/>
  </node>
  <node id="-101" visible="true" lat="44.77803999" lon="-72.33618308">
    <tag k="addr:city" v="Albany"/>
    <tag k="addr:housenumber" v="189"/>
    <tag k="addr:street" v="Maxfield Drive"/>
    <tag k="addr:state" v="VT"/>
    <tag k="ref:vcgi:esiteid" v="1172"/>
  </node>
  <node id="-102" visible="true" lat="44.77612345" lon="-72.31756158">
    <tag k="addr:city" v="Albany"/>
    <tag k="addr:housenumber" v="75"/>
    <tag k="addr:street" v="Vermont Route 14 North"/>
    <tag k="addr:state" v="VT"/>
    <tag k="ref:vcgi:esiteid" v="1173"/>
  </node>
  <node id="-103" visible="true" lat="44.77560424" lon="-72.37346649">
    <tag k="addr:city" v="Albany"/>
    <tag k="addr:housenumber" v="1580"/>
    <tag k="addr:street" v="Shuteville Road"/>
    <tag k="addr:state" v="VT"/>
    <tag k="ref:vcgi:esiteid" v="1174"/>
  </node>
  <node id="-104" visible="true" lat="44.77538498" lon="-72.31923222">
    <tag k="addr:city" v="Albany"/>
    <tag k="addr:housenumber" v="129"/>
    <tag k="addr:street" v="Vermont Route 14 North"/>
    <tag k="addr:state" v="VT"/>
    <tag k="ref:vcgi:esiteid" v="1175"/>
  </node>
  <node id="-105" visible="true" lat="44.77413964" lon="-72.33386719">
    <tag k="addr:city" v="Albany"/>
    <tag k="addr:housenumber" v="87"/>
    <tag k="addr:street" v="Maxfield Drive"/>
    <tag k="addr:state" v="VT"/>
    <tag k="ref:vcgi:esiteid" v="1176"/>
  </node>
  <node id="-106" visible="true" lat="44.78173144" lon="-72.36366721">
    <tag k="addr:city" v="Albany"/>
    <tag k="addr:housenumber" v="881"/>
    <tag k="addr:street" v="Horace Way Road"/>
    <tag k="addr:state" v="VT"/>
    <tag k="ref:vcgi:esiteid" v="1177"/>
  </node>
  <node id="-107" visible="true" lat="44.77351298" lon="-72.34026732">
    <tag k="addr:city" v="Albany"/>
    <tag k="addr:housenumber" v="593"/>
    <tag k="addr:street" v="Bonneau Drive"/>
    <tag k="addr:state" v="VT"/>
    <tag k="ref:vcgi:esiteid" v="1178"/>
  </node>
  <node id="-108" visible="true" lat="44.77374865" lon="-72.3203055">
    <tag k="addr:city" v="Albany"/>
    <tag k="addr:housenumber" v="43"/>
    <tag k="addr:street" v="Griggs Road West"/>
    <tag k="addr:state" v="VT"/>
    <tag k="ref:vcgi:esiteid" v="1179"/>
  </node>
  <node id="-109" visible="true" lat="44.77366638" lon="-72.35868835">
    <tag k="addr:city" v="Albany"/>
    <tag k="addr:housenumber" v="1568"/>
    <tag k="addr:street" v="Burbank Road"/>
    <tag k="addr:state" v="VT"/>
    <tag k="ref:vcgi:esiteid" v="1180"/>
  </node>
  <node id="-110" visible="true" lat="44.77341208" lon="-72.32122668">
    <tag k="addr:city" v="Albany"/>
    <tag k="addr:housenumber" v="303"/>
    <tag k="addr:street" v="Vermont Route 14 North"/>
    <tag k="addr:state" v="VT"/>
    <tag k="ref:vcgi:esiteid" v="1181"/>
  </node>
  <node id="-111" visible="true" lat="44.77328109" lon="-72.32042694">
    <tag k="addr:city" v="Albany"/>
    <tag k="addr:housenumber" v="50"/>
    <tag k="addr:street" v="Griggs Road West"/>
    <tag k="addr:state" v="VT"/>
    <tag k="ref:vcgi:esiteid" v="1182"/>
  </node>
  <node id="-112" visible="true" lat="44.77236842" lon="-72.32146632">
    <tag k="addr:city" v="Albany"/>
    <tag k="addr:housenumber" v="397"/>
    <tag k="addr:street" v="Vermont Route 14 North"/>
    <tag k="addr:state" v="VT"/>
    <tag k="ref:vcgi:esiteid" v="1183"/>
  </node>
  <node id="-113" visible="true" lat="44.77205523" lon="-72.32976771">
    <tag k="addr:city" v="Albany"/>
    <tag k="addr:housenumber" v="66"/>
    <tag k="addr:street" v="Bonneau Drive"/>
    <tag k="addr:state" v="VT"/>
    <tag k="ref:vcgi:esiteid" v="1185"/>
  </node>
  <node id="-114" visible="true" lat="44.77102469" lon="-72.33163569">
    <tag k="addr:city" v="Albany"/>
    <tag k="addr:housenumber" v="872"/>
    <tag k="addr:street" v="Vermont Route 14 North"/>
    <tag k="addr:state" v="VT"/>
    <tag k="ref:vcgi:esiteid" v="1186"/>
  </node>
  <node id="-115" visible="true" lat="44.77140361" lon="-72.32495906">
    <tag k="addr:city" v="Albany"/>
    <tag k="addr:housenumber" v="1"/>
    <tag k="addr:street" v="Delano Road"/>
    <tag k="addr:state" v="VT"/>
    <tag k="ref:vcgi:esiteid" v="1187"/>
  </node>
  <node id="-116" visible="true" lat="44.77166122" lon="-72.32917194">
    <tag k="addr:city" v="Albany"/>
    <tag k="addr:housenumber" v="54"/>
    <tag k="addr:street" v="Bonneau Drive"/>
    <tag k="addr:state" v="VT"/>
    <tag k="ref:vcgi:esiteid" v="1188"/>
  </node>
  <node id="-117" visible="true" lat="44.77135899" lon="-72.32617221">
    <tag k="addr:city" v="Albany"/>
    <tag k="addr:housenumber" v="60"/>
    <tag k="addr:street" v="Delano Road"/>
    <tag k="addr:state" v="VT"/>
    <tag k="ref:vcgi:esiteid" v="1189"/>
  </node>
  <node id="-118" visible="true" lat="44.77101429" lon="-72.32896812">
    <tag k="addr:city" v="Albany"/>
    <tag k="addr:housenumber" v="722"/>
    <tag k="addr:street" v="Vermont Route 14 North"/>
    <tag k="addr:state" v="VT"/>
    <tag k="ref:vcgi:esiteid" v="1190"/>
  </node>
  <node id="-119" visible="true" lat="44.77081441" lon="-72.33023919">
    <tag k="addr:city" v="Albany"/>
    <tag k="addr:housenumber" v="780"/>
    <tag k="addr:street" v="Vermont Route 14 North"/>
    <tag k="addr:state" v="VT"/>
    <tag k="ref:vcgi:esiteid" v="1191"/>
  </node>
  <node id="-120" visible="true" lat="44.77070652" lon="-72.32912623">
    <tag k="addr:city" v="Albany"/>
    <tag k="addr:housenumber" v="733"/>
    <tag k="addr:street" v="Vermont Route 14 North"/>
    <tag k="addr:state" v="VT"/>
    <tag k="ref:vcgi:esiteid" v="1192"/>
  </node>
  <node id="-121" visible="true" lat="44.77016133" lon="-72.33071444">
    <tag k="addr:city" v="Albany"/>
    <tag k="addr:housenumber" v="819"/>
    <tag k="addr:street" v="Vermont Route 14 North"/>
    <tag k="addr:state" v="VT"/>
    <tag k="ref:vcgi:esiteid" v="1193"/>
  </node>
  <node id="-122" visible="true" lat="44.7698037" lon="-72.368171">
    <tag k="addr:city" v="Albany"/>
    <tag k="addr:housenumber" v="946"/>
    <tag k="addr:street" v="Shuteville Road"/>
    <tag k="addr:state" v="VT"/>
    <tag k="ref:vcgi:esiteid" v="1194"/>
  </node>
  <node id="-123" visible="true" lat="44.76994293" lon="-72.33518768">
    <tag k="addr:city" v="Albany"/>
    <tag k="addr:housenumber" v="982"/>
    <tag k="addr:street" v="Vermont Route 14 North"/>
    <tag k="addr:state" v="VT"/>
    <tag k="ref:vcgi:esiteid" v="1195"/>
  </node>
  <node id="-124" visible="true" lat="44.76921601" lon="-72.33645521">
    <tag k="addr:city" v="Albany"/>
    <tag k="addr:housenumber" v="1106"/>
    <tag k="addr:street" v="Vermont Route 14 North"/>
    <tag k="addr:state" v="VT"/>
    <tag k="ref:vcgi:esiteid" v="1196"/>
  </node>
  <node id="-125" visible="true" lat="44.76859538" lon="-72.32596714">
    <tag k="addr:city" v="Albany"/>
    <tag k="addr:housenumber" v="279"/>
    <tag k="addr:street" v="Delano Road"/>
    <tag k="addr:state" v="VT"/>
    <tag k="ref:vcgi:esiteid" v="1197"/>
  </node>
  <node id="-126" visible="true" lat="44.76824875" lon="-72.33648942">
    <tag k="addr:city" v="Albany"/>
    <tag k="addr:housenumber" v="1130"/>
    <tag k="addr:street" v="Vermont Route 14 North"/>
    <tag k="addr:state" v="VT"/>
    <tag k="ref:vcgi:esiteid" v="1198"/>
  </node>
  <node id="-127" visible="true" lat="44.76822085" lon="-72.29565208">
    <tag k="addr:city" v="Albany"/>
    <tag k="addr:housenumber" v="234"/>
    <tag k="addr:street" v="Demick Drive"/>
    <tag k="addr:state" v="VT"/>
    <tag k="ref:vcgi:esiteid" v="1199"/>
  </node>
  <node id="-128" visible="true" lat="44.76804412" lon="-72.29652034">
    <tag k="addr:city" v="Albany"/>
    <tag k="addr:housenumber" v="159"/>
    <tag k="addr:street" v="Demick Drive"/>
    <tag k="addr:state" v="VT"/>
    <tag k="ref:vcgi:esiteid" v="1200"/>
  </node>
  <node id="-129" visible="true" lat="44.76796722" lon="-72.34194946">
    <tag k="addr:city" v="Albany"/>
    <tag k="addr:housenumber" v="136"/>
    <tag k="addr:street" v="Pray Drive"/>
    <tag k="addr:state" v="VT"/>
    <tag k="ref:vcgi:esiteid" v="1201"/>
  </node>
  <node id="-130" visible="true" lat="44.76731934" lon="-72.32493077">
    <tag k="addr:city" v="Albany"/>
    <tag k="addr:housenumber" v="383"/>
    <tag k="addr:street" v="Delano Road"/>
    <tag k="addr:state" v="VT"/>
    <tag k="ref:vcgi:esiteid" v="1203"/>
  </node>
  <node id="-131" visible="true" lat="44.76729653" lon="-72.33999458">
    <tag k="addr:city" v="Albany"/>
    <tag k="addr:housenumber" v="1328"/>
    <tag k="addr:street" v="Vermont Route 14 North"/>
    <tag k="addr:state" v="VT"/>
    <tag k="ref:vcgi:esiteid" v="1204"/>
  </node>
  <node id="-132" visible="true" lat="44.76695632" lon="-72.3423767">
    <tag k="addr:city" v="Albany"/>
    <tag k="addr:housenumber" v="253"/>
    <tag k="addr:street" v="Pray Drive"/>
    <tag k="addr:state" v="VT"/>
    <tag k="ref:vcgi:esiteid" v="1205"/>
  </node>
  <node id="-133" visible="true" lat="44.76670287" lon="-72.34088906">
    <tag k="addr:city" v="Albany"/>
    <tag k="addr:housenumber" v="43"/>
    <tag k="addr:street" v="Pray Drive"/>
    <tag k="addr:state" v="VT"/>
    <tag k="ref:vcgi:esiteid" v="1206"/>
  </node>
  <node id="-134" visible="true" lat="44.76663589" lon="-72.32607269">
    <tag k="addr:city" v="Albany"/>
    <tag k="addr:housenumber" v="376"/>
    <tag k="addr:street" v="Delano Road"/>
    <tag k="addr:state" v="VT"/>
    <tag k="ref:vcgi:esiteid" v="1207"/>
  </node>
  <node id="-135" visible="true" lat="44.76625572" lon="-72.3460935">
    <tag k="addr:city" v="Albany"/>
    <tag k="addr:housenumber" v="422"/>
    <tag k="addr:street" v="Pray Drive"/>
    <tag k="addr:state" v="VT"/>
    <tag k="ref:vcgi:esiteid" v="1208"/>
  </node>
  <node id="-136" visible="true" lat="44.76595412" lon="-72.34376644">
    <tag k="addr:city" v="Albany"/>
    <tag k="addr:housenumber" v="303"/>
    <tag k="addr:street" v="Pray Drive"/>
    <tag k="addr:state" v="VT"/>
    <tag k="ref:vcgi:esiteid" v="1209"/>
  </node>
  <node id="-137" visible="true" lat="44.7655495" lon="-72.36501206">
    <tag k="addr:city" v="Albany"/>
    <tag k="addr:housenumber" v="874"/>
    <tag k="addr:street" v="Burbank Road"/>
    <tag k="addr:state" v="VT"/>
    <tag k="ref:vcgi:esiteid" v="1210"/>
  </node>
  <node id="-138" visible="true" lat="44.76553021" lon="-72.34891663">
    <tag k="addr:city" v="Albany"/>
    <tag k="addr:housenumber" v="159"/>
    <tag k="addr:street" v="Cubitville Drive"/>
    <tag k="addr:state" v="VT"/>
    <tag k="ref:vcgi:esiteid" v="1211"/>
  </node>
  <node id="-139" visible="true" lat="44.7654402" lon="-72.342983">
    <tag k="addr:city" v="Albany"/>
    <tag k="addr:housenumber" v="1498"/>
    <tag k="addr:street" v="Vermont Route 14 North"/>
    <tag k="addr:state" v="VT"/>
    <tag k="ref:vcgi:esiteid" v="1212"/>
  </node>
  <node id="-140" visible="true" lat="44.76483843" lon="-72.34262034">
    <tag k="addr:city" v="Albany"/>
    <tag k="addr:housenumber" v="1501"/>
    <tag k="addr:street" v="Vermont Route 14 North"/>
    <tag k="addr:state" v="VT"/>
    <tag k="ref:vcgi:esiteid" v="1213"/>
  </node>
  <node id="-141" visible="true" lat="44.76496861" lon="-72.32464304">
    <tag k="addr:city" v="Albany"/>
    <tag k="addr:housenumber" v="530"/>
    <tag k="addr:street" v="Delano Road"/>
    <tag k="addr:state" v="VT"/>
    <tag k="ref:vcgi:esiteid" v="1214"/>
  </node>
  <node id="-142" visible="true" lat="44.76505783" lon="-72.32537722">
    <tag k="addr:city" v="Albany"/>
    <tag k="addr:housenumber" v="532"/>
    <tag k="addr:street" v="Delano Road"/>
    <tag k="addr:state" v="VT"/>
    <tag k="ref:vcgi:esiteid" v="1215"/>
  </node>
  <node id="-143" visible="true" lat="44.76480655" lon="-72.34761031">
    <tag k="addr:city" v="Albany"/>
    <tag k="addr:housenumber" v="150"/>
    <tag k="addr:street" v="Cubitville Drive"/>
    <tag k="addr:state" v="VT"/>
    <tag k="ref:vcgi:esiteid" v="1216"/>
  </node>
  <node id="-144" visible="true" lat="44.76479269" lon="-72.344167">
    <tag k="addr:city" v="Albany"/>
    <tag k="addr:housenumber" v="1582"/>
    <tag k="addr:street" v="Vermont Route 14 North"/>
    <tag k="addr:state" v="VT"/>
    <tag k="ref:vcgi:esiteid" v="1217"/>
  </node>
  <node id="-146" visible="true" lat="44.76516763" lon="-72.36997981">
    <tag k="addr:city" v="Albany"/>
    <tag k="addr:housenumber" v="715"/>
    <tag k="addr:street" v="Shuteville Road"/>
    <tag k="addr:state" v="VT"/>
    <tag k="ref:vcgi:esiteid" v="1219"/>
  </node>
  <node id="-147" visible="true" lat="44.76425933" lon="-72.29554748">
    <tag k="addr:city" v="Albany"/>
    <tag k="addr:housenumber" v="280"/>
    <tag k="addr:street" v="Creek Road"/>
    <tag k="addr:state" v="VT"/>
    <tag k="ref:vcgi:esiteid" v="1220"/>
  </node>
  <node id="-148" visible="true" lat="44.76409912" lon="-72.32492065">
    <tag k="addr:city" v="Albany"/>
    <tag k="addr:housenumber" v="604"/>
    <tag k="addr:street" v="Delano Road"/>
    <tag k="addr:state" v="VT"/>
    <tag k="ref:vcgi:esiteid" v="1221"/>
  </node>
  <node id="-149" visible="true" lat="44.76379394" lon="-72.29286193">
    <tag k="addr:city" v="Albany"/>
    <tag k="addr:housenumber" v="81"/>
    <tag k="addr:street" v="Wells Road"/>
    <tag k="addr:state" v="VT"/>
    <tag k="ref:vcgi:esiteid" v="1222"/>
  </node>
  <node id="-150" visible="true" lat="44.7638359" lon="-72.32189941">
    <tag k="addr:city" v="Albany"/>
    <tag k="addr:housenumber" v="569"/>
    <tag k="addr:street" v="Delano Road"/>
    <tag k="addr:state" v="VT"/>
    <tag k="ref:vcgi:esiteid" v="1223"/>
  </node>
  <node id="-151" visible="true" lat="44.76377469" lon="-72.36834314">
    <tag k="addr:city" v="Albany"/>
    <tag k="addr:housenumber" v="726"/>
    <tag k="addr:street" v="Shuteville Road"/>
    <tag k="addr:state" v="VT"/>
    <tag k="ref:vcgi:esiteid" v="1224"/>
  </node>
  <node id="-153" visible="true" lat="44.76290711" lon="-72.34789856">
    <tag k="addr:city" v="Albany"/>
    <tag k="addr:housenumber" v="1796"/>
    <tag k="addr:street" v="Vermont Route 14 North"/>
    <tag k="addr:state" v="VT"/>
    <tag k="ref:vcgi:esiteid" v="1226"/>
  </node>
  <node id="-154" visible="true" lat="44.76242065" lon="-72.32552337">
    <tag k="addr:city" v="Albany"/>
    <tag k="addr:housenumber" v="724"/>
    <tag k="addr:street" v="Delano Road"/>
    <tag k="addr:state" v="VT"/>
    <tag k="ref:vcgi:esiteid" v="1227"/>
  </node>
  <node id="-155" visible="true" lat="44.76228737" lon="-72.29329065">
    <tag k="addr:city" v="Albany"/>
    <tag k="addr:housenumber" v="151"/>
    <tag k="addr:street" v="Wells Road"/>
    <tag k="addr:state" v="VT"/>
    <tag k="ref:vcgi:esiteid" v="1228"/>
  </node>
  <node id="-156" visible="true" lat="44.76166943" lon="-72.29351938">
    <tag k="addr:city" v="Albany"/>
    <tag k="addr:housenumber" v="128"/>
    <tag k="addr:street" v="Wells Road"/>
    <tag k="addr:state" v="VT"/>
    <tag k="ref:vcgi:esiteid" v="1229"/>
  </node>
  <node id="-158" visible="true" lat="44.76167297" lon="-72.35653686">
    <tag k="addr:city" v="Albany"/>
    <tag k="addr:housenumber" v="79"/>
    <tag k="addr:street" v="Chicoine Drive"/>
    <tag k="addr:state" v="VT"/>
    <tag k="ref:vcgi:esiteid" v="1231"/>
  </node>
  <node id="-159" visible="true" lat="44.76170019" lon="-72.35566688">
    <tag k="addr:city" v="Albany"/>
    <tag k="addr:housenumber" v="124"/>
    <tag k="addr:street" v="Chicoine Drive"/>
    <tag k="addr:state" v="VT"/>
    <tag k="ref:vcgi:esiteid" v="1232"/>
  </node>
  <node id="-160" visible="true" lat="44.76142235" lon="-72.32888138">
    <tag k="addr:city" v="Albany"/>
    <tag k="addr:housenumber" v="832"/>
    <tag k="addr:street" v="Delano Road"/>
    <tag k="addr:state" v="VT"/>
    <tag k="ref:vcgi:esiteid" v="1233"/>
  </node>
  <node id="-161" visible="true" lat="44.7614146" lon="-72.35248997">
    <tag k="addr:city" v="Albany"/>
    <tag k="addr:housenumber" v="2070"/>
    <tag k="addr:street" v="Vermont Route 14 North"/>
    <tag k="addr:state" v="VT"/>
    <tag k="ref:vcgi:esiteid" v="1234"/>
  </node>
  <node id="-162" visible="true" lat="44.76086425" lon="-72.32647705">
    <tag k="addr:city" v="Albany"/>
    <tag k="addr:housenumber" v="859"/>
    <tag k="addr:street" v="Delano Road"/>
    <tag k="addr:state" v="VT"/>
    <tag k="ref:vcgi:esiteid" v="1235"/>
  </node>
  <node id="-163" visible="true" lat="44.76064682" lon="-72.28373718">
    <tag k="addr:city" v="Albany"/>
    <tag k="addr:housenumber" v="657"/>
    <tag k="addr:street" v="Wells Road"/>
    <tag k="addr:state" v="VT"/>
    <tag k="ref:vcgi:esiteid" v="1236"/>
  </node>
  <node id="-164" visible="true" lat="44.76039985" lon="-72.35300709">
    <tag k="addr:city" v="Albany"/>
    <tag k="addr:housenumber" v="2117"/>
    <tag k="addr:street" v="Vermont Route 14 North"/>
    <tag k="addr:state" v="VT"/>
    <tag k="ref:vcgi:esiteid" v="1237"/>
  </node>
  <node id="-165" visible="true" lat="44.76043172" lon="-72.3547943">
    <tag k="addr:city" v="Albany"/>
    <tag k="addr:housenumber" v="22"/>
    <tag k="addr:street" v="Chicoine Drive"/>
    <tag k="addr:state" v="VT"/>
    <tag k="ref:vcgi:esiteid" v="1238"/>
  </node>
  <node id="-167" visible="true" lat="44.75980262" lon="-72.35595723">
    <tag k="addr:city" v="Albany"/>
    <tag k="addr:housenumber" v="2278"/>
    <tag k="addr:street" v="Vermont Route 14 North"/>
    <tag k="addr:state" v="VT"/>
    <tag k="ref:vcgi:esiteid" v="1240"/>
  </node>
  <node id="-169" visible="true" lat="44.75957142" lon="-72.36775971">
    <tag k="addr:city" v="Albany"/>
    <tag k="addr:housenumber" v="408"/>
    <tag k="addr:street" v="Shuteville Road"/>
    <tag k="addr:state" v="VT"/>
    <tag k="ref:vcgi:esiteid" v="1242"/>
  </node>
  <node id="-170" visible="true" lat="44.75928399" lon="-72.35684717">
    <tag k="addr:city" v="Albany"/>
    <tag k="addr:housenumber" v="2308"/>
    <tag k="addr:street" v="Vermont Route 14 North"/>
    <tag k="addr:state" v="VT"/>
    <tag k="ref:vcgi:esiteid" v="1243"/>
  </node>
  <node id="-171" visible="true" lat="44.75920486" lon="-72.32860565">
    <tag k="addr:city" v="Albany"/>
    <tag k="addr:housenumber" v="1020"/>
    <tag k="addr:street" v="Delano Road"/>
    <tag k="addr:state" v="VT"/>
    <tag k="ref:vcgi:esiteid" v="1244"/>
  </node>
  <node id="-175" visible="true" lat="44.75891495" lon="-72.29856872">
    <tag k="addr:city" v="Albany"/>
    <tag k="addr:housenumber" v="677"/>
    <tag k="addr:street" v="Creek Road"/>
    <tag k="addr:state" v="VT"/>
    <tag k="ref:vcgi:esiteid" v="1248"/>
  </node>
  <node id="-177" visible="true" lat="44.75871658" lon="-72.32781219">
    <tag k="addr:city" v="Albany"/>
    <tag k="addr:housenumber" v="1033"/>
    <tag k="addr:street" v="Delano Road"/>
    <tag k="addr:state" v="VT"/>
    <tag k="ref:vcgi:esiteid" v="1250"/>
  </node>
  <node id="-178" visible="true" lat="44.75882279" lon="-72.3576915">
    <tag k="addr:city" v="Albany"/>
    <tag k="addr:housenumber" v="2364"/>
    <tag k="addr:street" v="Vermont Route 14 North"/>
    <tag k="addr:state" v="VT"/>
    <tag k="ref:vcgi:esiteid" v="1251"/>
  </node>
  <node id="-179" visible="true" lat="44.75841065" lon="-72.358743">
    <tag k="addr:city" v="Albany"/>
    <tag k="addr:housenumber" v="2444"/>
    <tag k="addr:street" v="Vermont Route 14 North"/>
    <tag k="addr:state" v="VT"/>
    <tag k="ref:vcgi:esiteid" v="1252"/>
  </node>
  <node id="-180" visible="true" lat="44.75767296" lon="-72.29975831">
    <tag k="addr:city" v="Albany"/>
    <tag k="addr:housenumber" v="770"/>
    <tag k="addr:street" v="Creek Road"/>
    <tag k="addr:state" v="VT"/>
    <tag k="ref:vcgi:esiteid" v="1253"/>
  </node>
  <node id="-182" visible="true" lat="44.75701763" lon="-72.29986491">
    <tag k="addr:city" v="Albany"/>
    <tag k="addr:housenumber" v="830"/>
    <tag k="addr:street" v="Creek Road"/>
    <tag k="addr:state" v="VT"/>
    <tag k="ref:vcgi:esiteid" v="1255"/>
  </node>
  <node id="-183" visible="true" lat="44.75701522" lon="-72.32891845">
    <tag k="addr:city" v="Albany"/>
    <tag k="addr:housenumber" v="1153"/>
    <tag k="addr:street" v="Delano Road"/>
    <tag k="addr:state" v="VT"/>
    <tag k="ref:vcgi:esiteid" v="1256"/>
  </node>
  <node id="-184" visible="true" lat="44.75675395" lon="-72.35981191">
    <tag k="addr:city" v="Albany"/>
    <tag k="addr:housenumber" v="2539"/>
    <tag k="addr:street" v="Vermont Route 14 North"/>
    <tag k="addr:state" v="VT"/>
    <tag k="ref:vcgi:esiteid" v="1257"/>
  </node>
  <node id="-187" visible="true" lat="44.75630655" lon="-72.29982681">
    <tag k="addr:city" v="Albany"/>
    <tag k="addr:housenumber" v="870"/>
    <tag k="addr:street" v="Creek Road"/>
    <tag k="addr:state" v="VT"/>
    <tag k="ref:vcgi:esiteid" v="1260"/>
  </node>
  <node id="-188" visible="true" lat="44.75630397" lon="-72.33013094">
    <tag k="addr:city" v="Albany"/>
    <tag k="addr:housenumber" v="1229"/>
    <tag k="addr:street" v="Delano Road"/>
    <tag k="addr:state" v="VT"/>
    <tag k="ref:vcgi:esiteid" v="1261"/>
  </node>
  <node id="-189" visible="true" lat="44.75589135" lon="-72.26839016">
    <tag k="addr:city" v="Albany"/>
    <tag k="addr:housenumber" v="1268"/>
    <tag k="addr:street" v="Johnson Road North"/>
    <tag k="addr:state" v="VT"/>
    <tag k="ref:vcgi:esiteid" v="1262"/>
  </node>
  <node id="-190" visible="true" lat="44.75594595" lon="-72.35912133">
    <tag k="addr:city" v="Albany"/>
    <tag k="addr:housenumber" v="107"/>
    <tag k="addr:street" v="Vance Road West"/>
    <tag k="addr:state" v="VT"/>
    <tag k="ref:vcgi:esiteid" v="1263"/>
  </node>
  <node id="-194" visible="true" lat="44.75495228" lon="-72.36336916">
    <tag k="addr:city" v="Albany"/>
    <tag k="addr:housenumber" v="2744"/>
    <tag k="addr:street" v="Vermont Route 14 North"/>
    <tag k="addr:state" v="VT"/>
    <tag k="ref:vcgi:esiteid" v="1267"/>
  </node>
  <node id="-195" visible="true" lat="44.75472898" lon="-72.35800571">
    <tag k="addr:city" v="Albany"/>
    <tag k="addr:housenumber" v="202"/>
    <tag k="addr:street" v="Vance Road West"/>
    <tag k="addr:state" v="VT"/>
    <tag k="ref:vcgi:esiteid" v="1268"/>
  </node>
  <node id="-196" visible="true" lat="44.75467704" lon="-72.35723155">
    <tag k="addr:city" v="Albany"/>
    <tag k="addr:housenumber" v="201"/>
    <tag k="addr:street" v="Vance Road West"/>
    <tag k="addr:state" v="VT"/>
    <tag k="ref:vcgi:esiteid" v="1269"/>
  </node>
  <node id="-198" visible="true" lat="44.7535057" lon="-72.35584259">
    <tag k="addr:city" v="Albany"/>
    <tag k="addr:housenumber" v="317"/>
    <tag k="addr:street" v="Vance Road West"/>
    <tag k="addr:state" v="VT"/>
    <tag k="ref:vcgi:esiteid" v="1271"/>
  </node>
  <node id="-200" visible="true" lat="44.75338033" lon="-72.35547854">
    <tag k="addr:city" v="Albany"/>
    <tag k="addr:housenumber" v="351"/>
    <tag k="addr:street" v="Vance Road West"/>
    <tag k="addr:state" v="VT"/>
    <tag k="ref:vcgi:esiteid" v="1273"/>
  </node>
  <node id="-203" visible="true" lat="44.75276008" lon="-72.36648387">
    <tag k="addr:city" v="Albany"/>
    <tag k="addr:housenumber" v="2958"/>
    <tag k="addr:street" v="Vermont Route 14 North"/>
    <tag k="addr:state" v="VT"/>
    <tag k="ref:vcgi:esiteid" v="1276"/>
  </node>
  <node id="-206" visible="true" lat="44.75243377" lon="-72.33214569">
    <tag k="addr:city" v="Albany"/>
    <tag k="addr:housenumber" v="1511"/>
    <tag k="addr:street" v="Delano Road"/>
    <tag k="addr:state" v="VT"/>
    <tag k="ref:vcgi:esiteid" v="1279"/>
  </node>
  <node id="-208" visible="true" lat="44.75232709" lon="-72.33367441">
    <tag k="addr:city" v="Albany"/>
    <tag k="addr:housenumber" v="1558"/>
    <tag k="addr:street" v="Delano Road"/>
    <tag k="addr:state" v="VT"/>
    <tag k="ref:vcgi:esiteid" v="1281"/>
  </node>
  <node id="-210" visible="true" lat="44.7513227" lon="-72.30160983">
    <tag k="addr:city" v="Albany"/>
    <tag k="addr:housenumber" v="1247"/>
    <tag k="addr:street" v="Creek Road"/>
    <tag k="addr:state" v="VT"/>
    <tag k="ref:vcgi:esiteid" v="1283"/>
  </node>
  <node id="-211" visible="true" lat="44.75133788" lon="-72.3666119">
    <tag k="addr:city" v="Albany"/>
    <tag k="addr:housenumber" v="3048"/>
    <tag k="addr:street" v="Vermont Route 14 North"/>
    <tag k="addr:state" v="VT"/>
    <tag k="ref:vcgi:esiteid" v="1284"/>
  </node>
  <node id="-212" visible="true" lat="44.75065124" lon="-72.32764729">
    <tag k="addr:city" v="Albany"/>
    <tag k="addr:housenumber" v="2080"/>
    <tag k="addr:street" v="Chamberlin Hill Road"/>
    <tag k="addr:state" v="VT"/>
    <tag k="ref:vcgi:esiteid" v="1285"/>
  </node>
  <node id="-214" visible="true" lat="44.75011772" lon="-72.33434614">
    <tag k="addr:city" v="Albany"/>
    <tag k="addr:housenumber" v="1723"/>
    <tag k="addr:street" v="Delano Road"/>
    <tag k="addr:state" v="VT"/>
    <tag k="ref:vcgi:esiteid" v="1287"/>
  </node>
  <node id="-215" visible="true" lat="44.74996992" lon="-72.35105053">
    <tag k="addr:city" v="Albany"/>
    <tag k="addr:housenumber" v="663"/>
    <tag k="addr:street" v="Vance Road West"/>
    <tag k="addr:state" v="VT"/>
    <tag k="ref:vcgi:esiteid" v="1288"/>
  </node>
  <node id="-216" visible="true" lat="44.74970988" lon="-72.30259002">
    <tag k="addr:city" v="Albany"/>
    <tag k="addr:housenumber" v="1367"/>
    <tag k="addr:street" v="Creek Road"/>
    <tag k="addr:state" v="VT"/>
    <tag k="ref:vcgi:esiteid" v="1289"/>
  </node>
  <node id="-218" visible="true" lat="44.74914141" lon="-72.30305971">
    <tag k="addr:city" v="Albany"/>
    <tag k="addr:housenumber" v="1411"/>
    <tag k="addr:street" v="Creek Road"/>
    <tag k="addr:state" v="VT"/>
    <tag k="ref:vcgi:esiteid" v="1291"/>
  </node>
  <node id="-219" visible="true" lat="44.7486604" lon="-72.33573184">
    <tag k="addr:city" v="Albany"/>
    <tag k="addr:housenumber" v="1821"/>
    <tag k="addr:street" v="Delano Road"/>
    <tag k="addr:state" v="VT"/>
    <tag k="ref:vcgi:esiteid" v="1292"/>
  </node>
  <node id="-220" visible="true" lat="44.74846542" lon="-72.368787">
    <tag k="addr:city" v="Albany"/>
    <tag k="addr:housenumber" v="3276"/>
    <tag k="addr:street" v="Vermont Route 14 North"/>
    <tag k="addr:state" v="VT"/>
    <tag k="ref:vcgi:esiteid" v="1293"/>
  </node>
  <node id="-221" visible="true" lat="44.74676733" lon="-72.32500535">
    <tag k="addr:city" v="Albany"/>
    <tag k="addr:housenumber" v="2241"/>
    <tag k="addr:street" v="Chamberlin Hill Road"/>
    <tag k="addr:state" v="VT"/>
    <tag k="ref:vcgi:esiteid" v="1294"/>
  </node>
  <node id="-223" visible="true" lat="44.74758734" lon="-72.30498701">
    <tag k="addr:city" v="Albany"/>
    <tag k="addr:housenumber" v="1540"/>
    <tag k="addr:street" v="Creek Road"/>
    <tag k="addr:state" v="VT"/>
    <tag k="ref:vcgi:esiteid" v="1296"/>
  </node>
  <node id="-227" visible="true" lat="44.74597964" lon="-72.37190223">
    <tag k="addr:city" v="Albany"/>
    <tag k="addr:housenumber" v="3514"/>
    <tag k="addr:street" v="Vermont Route 14 North"/>
    <tag k="addr:state" v="VT"/>
    <tag k="ref:vcgi:esiteid" v="1300"/>
  </node>
  <node id="-228" visible="true" lat="44.74562665" lon="-72.33978318">
    <tag k="addr:city" v="Albany"/>
    <tag k="addr:housenumber" v="2110"/>
    <tag k="addr:street" v="Delano Road"/>
    <tag k="addr:state" v="VT"/>
    <tag k="ref:vcgi:esiteid" v="1301"/>
  </node>
  <node id="-229" visible="true" lat="44.74558683" lon="-72.30648829">
    <tag k="addr:city" v="Albany"/>
    <tag k="addr:housenumber" v="1708"/>
    <tag k="addr:street" v="Creek Road"/>
    <tag k="addr:state" v="VT"/>
    <tag k="ref:vcgi:esiteid" v="1302"/>
  </node>
  <node id="-233" visible="true" lat="44.74458519" lon="-72.30024893">
    <tag k="addr:city" v="Albany"/>
    <tag k="addr:housenumber" v="1633"/>
    <tag k="addr:street" v="Creek Road"/>
    <tag k="addr:state" v="VT"/>
    <tag k="ref:vcgi:esiteid" v="1306"/>
  </node>
  <node id="-235" visible="true" lat="44.74460759" lon="-72.3068948">
    <tag k="addr:city" v="Albany"/>
    <tag k="addr:housenumber" v="1776"/>
    <tag k="addr:street" v="Creek Road"/>
    <tag k="addr:state" v="VT"/>
    <tag k="ref:vcgi:esiteid" v="1308"/>
  </node>
  <node id="-239" visible="true" lat="44.7435379" lon="-72.28956604">
    <tag k="addr:city" v="Albany"/>
    <tag k="addr:housenumber" v="1304"/>
    <tag k="addr:street" v="Kingdom Road"/>
    <tag k="addr:state" v="VT"/>
    <tag k="ref:vcgi:esiteid" v="1312"/>
  </node>
  <node id="-241" visible="true" lat="44.743159" lon="-72.37563653">
    <tag k="addr:city" v="Albany"/>
    <tag k="addr:housenumber" v="3790"/>
    <tag k="addr:street" v="Vermont Route 14 North"/>
    <tag k="addr:state" v="VT"/>
    <tag k="ref:vcgi:esiteid" v="1314"/>
  </node>
  <node id="-243" visible="true" lat="44.74255652" lon="-72.37601931">
    <tag k="addr:city" v="Albany"/>
    <tag k="addr:housenumber" v="10"/>
    <tag k="addr:street" v="Main Street"/>
    <tag k="addr:state" v="VT"/>
    <tag k="ref:vcgi:esiteid" v="1316"/>
  </node>
  <node id="-244" visible="true" lat="44.7421723" lon="-72.28200192">
    <tag k="addr:city" v="Albany"/>
    <tag k="addr:housenumber" v="2093"/>
    <tag k="addr:street" v="Barton Road"/>
    <tag k="addr:state" v="VT"/>
    <tag k="ref:vcgi:esiteid" v="1317"/>
  </node>
  <node id="-246" visible="true" lat="44.74211839" lon="-72.35962355">
    <tag k="addr:city" v="Albany"/>
    <tag k="addr:housenumber" v="775"/>
    <tag k="addr:street" v="Town Farm Road West"/>
    <tag k="addr:state" v="VT"/>
    <tag k="ref:vcgi:esiteid" v="1319"/>
  </node>
  <node id="-249" visible="true" lat="44.74170328" lon="-72.30891679">
    <tag k="addr:city" v="Albany"/>
    <tag k="addr:housenumber" v="2015"/>
    <tag k="addr:street" v="Creek Road"/>
    <tag k="addr:state" v="VT"/>
    <tag k="ref:vcgi:esiteid" v="1322"/>
  </node>
  <node id="-253" visible="true" lat="44.74152755" lon="-72.35829162">
    <tag k="addr:city" v="Albany"/>
    <tag k="addr:housenumber" v="777"/>
    <tag k="addr:street" v="Town Farm Road West"/>
    <tag k="addr:state" v="VT"/>
    <tag k="ref:vcgi:esiteid" v="1326"/>
  </node>
  <node id="-254" visible="true" lat="44.74122665" lon="-72.28049712">
    <tag k="addr:city" v="Albany"/>
    <tag k="addr:housenumber" v="2226"/>
    <tag k="addr:street" v="Barton Road"/>
    <tag k="addr:state" v="VT"/>
    <tag k="ref:vcgi:esiteid" v="1327"/>
  </node>
  <node id="-255" visible="true" lat="44.74125173" lon="-72.36026358">
    <tag k="addr:city" v="Albany"/>
    <tag k="addr:housenumber" v="723"/>
    <tag k="addr:street" v="Town Farm Road West"/>
    <tag k="addr:state" v="VT"/>
    <tag k="ref:vcgi:esiteid" v="1328"/>
  </node>
  <node id="-256" visible="true" lat="44.74085362" lon="-72.27893474">
    <tag k="addr:city" v="Albany"/>
    <tag k="addr:housenumber" v="2277"/>
    <tag k="addr:street" v="Barton Road"/>
    <tag k="addr:state" v="VT"/>
    <tag k="ref:vcgi:esiteid" v="1329"/>
  </node>
  <node id="-258" visible="true" lat="44.74063265" lon="-72.27843915">
    <tag k="addr:city" v="Albany"/>
    <tag k="addr:housenumber" v="2317"/>
    <tag k="addr:street" v="Barton Road"/>
    <tag k="addr:state" v="VT"/>
    <tag k="ref:vcgi:esiteid" v="1331"/>
  </node>
  <node id="-260" visible="true" lat="44.74026624" lon="-72.36342027">
    <tag k="addr:city" v="Albany"/>
    <tag k="addr:housenumber" v="478"/>
    <tag k="addr:street" v="Town Farm Road West"/>
    <tag k="addr:state" v="VT"/>
    <tag k="ref:vcgi:esiteid" v="1333"/>
  </node>
  <node id="-262" visible="true" lat="44.73922513" lon="-72.37771131">
    <tag k="addr:city" v="Albany"/>
    <tag k="addr:housenumber" v="260"/>
    <tag k="addr:street" v="Main Street"/>
    <tag k="addr:state" v="VT"/>
    <tag k="ref:vcgi:esiteid" v="1335"/>
  </node>
  <node id="-263" visible="true" lat="44.73888043" lon="-72.4036439">
    <tag k="addr:city" v="Albany"/>
    <tag k="addr:housenumber" v="126"/>
    <tag k="addr:street" v="Bailey Hazen Road West"/>
    <tag k="addr:state" v="VT"/>
    <tag k="ref:vcgi:esiteid" v="1336"/>
  </node>
  <node id="-266" visible="true" lat="44.73800164" lon="-72.33151244">
    <tag k="addr:city" v="Albany"/>
    <tag k="addr:housenumber" v="992"/>
    <tag k="addr:street" v="Daniels Road West"/>
    <tag k="addr:state" v="VT"/>
    <tag k="ref:vcgi:esiteid" v="1339"/>
  </node>
  <node id="-268" visible="true" lat="44.73790447" lon="-72.28979904">
    <tag k="addr:city" v="Albany"/>
    <tag k="addr:housenumber" v="1607"/>
    <tag k="addr:street" v="Barton Road"/>
    <tag k="addr:state" v="VT"/>
    <tag k="ref:vcgi:esiteid" v="1341"/>
  </node>
  <node id="-269" visible="true" lat="44.7379401" lon="-72.37810376">
    <tag k="addr:city" v="Albany"/>
    <tag k="addr:housenumber" v="362"/>
    <tag k="addr:street" v="Main Street"/>
    <tag k="addr:state" v="VT"/>
    <tag k="ref:vcgi:esiteid" v="1342"/>
  </node>
  <node id="-270" visible="true" lat="44.73757036" lon="-72.37760946">
    <tag k="addr:city" v="Albany"/>
    <tag k="addr:housenumber" v="371"/>
    <tag k="addr:street" v="Main Street"/>
    <tag k="addr:state" v="VT"/>
    <tag k="ref:vcgi:esiteid" v="1343"/>
  </node>
  <node id="-272" visible="true" lat="44.73756832" lon="-72.40029507">
    <tag k="addr:city" v="Albany"/>
    <tag k="addr:housenumber" v="325"/>
    <tag k="addr:street" v="Bailey Hazen Road West"/>
    <tag k="addr:state" v="VT"/>
    <tag k="ref:vcgi:esiteid" v="1345"/>
  </node>
  <node id="-274" visible="true" lat="44.73656082" lon="-72.40483856">
    <tag k="addr:city" v="Albany"/>
    <tag k="addr:housenumber" v="232"/>
    <tag k="addr:street" v="Eden Road"/>
    <tag k="addr:state" v="VT"/>
    <tag k="ref:vcgi:esiteid" v="1347"/>
  </node>
  <node id="-275" visible="true" lat="44.7365036" lon="-72.39961242">
    <tag k="addr:city" v="Albany"/>
    <tag k="addr:housenumber" v="391"/>
    <tag k="addr:street" v="Bailey Hazen Road West"/>
    <tag k="addr:state" v="VT"/>
    <tag k="ref:vcgi:esiteid" v="1348"/>
  </node>
  <node id="-277" visible="true" lat="44.73638402" lon="-72.33622894">
    <tag k="addr:city" v="Albany"/>
    <tag k="addr:housenumber" v="811"/>
    <tag k="addr:street" v="Daniels Road West"/>
    <tag k="addr:state" v="VT"/>
    <tag k="ref:vcgi:esiteid" v="1350"/>
  </node>
  <node id="-279" visible="true" lat="44.73613686" lon="-72.40092566">
    <tag k="addr:city" v="Albany"/>
    <tag k="addr:housenumber" v="33"/>
    <tag k="addr:street" v="Eden Road"/>
    <tag k="addr:state" v="VT"/>
    <tag k="ref:vcgi:esiteid" v="1352"/>
  </node>
  <node id="-280" visible="true" lat="44.73610306" lon="-72.33356476">
    <tag k="addr:city" v="Albany"/>
    <tag k="addr:housenumber" v="990"/>
    <tag k="addr:street" v="Daniels Road West"/>
    <tag k="addr:state" v="VT"/>
    <tag k="ref:vcgi:esiteid" v="1353"/>
  </node>
  <node id="-281" visible="true" lat="44.73594431" lon="-72.40343185">
    <tag k="addr:city" v="Albany"/>
    <tag k="addr:housenumber" v="159"/>
    <tag k="addr:street" v="Eden Road"/>
    <tag k="addr:state" v="VT"/>
    <tag k="ref:vcgi:esiteid" v="1354"/>
  </node>
  <node id="-283" visible="true" lat="44.73588548" lon="-72.40239732">
    <tag k="addr:city" v="Albany"/>
    <tag k="addr:housenumber" v="111"/>
    <tag k="addr:street" v="Eden Road"/>
    <tag k="addr:state" v="VT"/>
    <tag k="ref:vcgi:esiteid" v="1356"/>
  </node>
  <node id="-286" visible="true" lat="44.73525248" lon="-72.40610518">
    <tag k="addr:city" v="Albany"/>
    <tag k="addr:housenumber" v="281"/>
    <tag k="addr:street" v="Eden Road"/>
    <tag k="addr:state" v="VT"/>
    <tag k="ref:vcgi:esiteid" v="1359"/>
  </node>
  <node id="-294" visible="true" lat="44.73473739" lon="-72.38931274">
    <tag k="addr:city" v="Albany"/>
    <tag k="addr:housenumber" v="28"/>
    <tag k="addr:street" v="Goddard Lot Road"/>
    <tag k="addr:state" v="VT"/>
    <tag k="ref:vcgi:esiteid" v="1368"/>
  </node>
  <node id="-295" visible="true" lat="44.73462038" lon="-72.39832141">
    <tag k="addr:city" v="Albany"/>
    <tag k="addr:housenumber" v="529"/>
    <tag k="addr:street" v="Bailey Hazen Road West"/>
    <tag k="addr:state" v="VT"/>
    <tag k="ref:vcgi:esiteid" v="1369"/>
  </node>
  <node id="-298" visible="true" lat="44.7344597" lon="-72.40821003">
    <tag k="addr:city" v="Albany"/>
    <tag k="addr:housenumber" v="365"/>
    <tag k="addr:street" v="Eden Road"/>
    <tag k="addr:state" v="VT"/>
    <tag k="ref:vcgi:esiteid" v="1372"/>
  </node>
  <node id="-300" visible="true" lat="44.73395919" lon="-72.3926239">
    <tag k="addr:city" v="Albany"/>
    <tag k="addr:housenumber" v="118"/>
    <tag k="addr:street" v="Larabee Hill Road"/>
    <tag k="addr:state" v="VT"/>
    <tag k="ref:vcgi:esiteid" v="1374"/>
  </node>
  <node id="-307" visible="true" lat="44.73350118" lon="-72.39082533">
    <tag k="addr:city" v="Albany"/>
    <tag k="addr:housenumber" v="31"/>
    <tag k="addr:street" v="Larabee Hill Road"/>
    <tag k="addr:state" v="VT"/>
    <tag k="ref:vcgi:esiteid" v="1381"/>
  </node>
  <node id="-312" visible="true" lat="44.73326103" lon="-72.37621183">
    <tag k="addr:city" v="Albany"/>
    <tag k="addr:housenumber" v="126"/>
    <tag k="addr:street" v="Pleasant View Drive"/>
    <tag k="addr:state" v="VT"/>
    <tag k="ref:vcgi:esiteid" v="1386"/>
  </node>
  <node id="-315" visible="true" lat="44.73309297" lon="-72.37927539">
    <tag k="addr:city" v="Albany"/>
    <tag k="addr:housenumber" v="690"/>
    <tag k="addr:street" v="Main Street"/>
    <tag k="addr:state" v="VT"/>
    <tag k="ref:vcgi:esiteid" v="1389"/>
  </node>
  <node id="-324" visible="true" lat="44.73231215" lon="-72.38486873">
    <tag k="addr:city" v="Albany"/>
    <tag k="addr:housenumber" v="271"/>
    <tag k="addr:street" v="Old Street"/>
    <tag k="addr:state" v="VT"/>
    <tag k="ref:vcgi:esiteid" v="1399"/>
  </node>
  <node id="-326" visible="true" lat="44.73242383" lon="-72.3914108">
    <tag k="addr:city" v="Albany"/>
    <tag k="addr:housenumber" v="279"/>
    <tag k="addr:street" v="Cowles Road"/>
    <tag k="addr:state" v="VT"/>
    <tag k="ref:vcgi:esiteid" v="1401"/>
  </node>
  <node id="-344" visible="true" lat="44.73163604" lon="-72.39865112">
    <tag k="addr:city" v="Albany"/>
    <tag k="addr:housenumber" v="748"/>
    <tag k="addr:street" v="Bailey Hazen Road West"/>
    <tag k="addr:state" v="VT"/>
    <tag k="ref:vcgi:esiteid" v="1419"/>
  </node>
  <node id="-349" visible="true" lat="44.73138809" lon="-72.37928772">
    <tag k="addr:city" v="Albany"/>
    <tag k="addr:housenumber" v="803"/>
    <tag k="addr:street" v="Main Street"/>
    <tag k="addr:state" v="VT"/>
    <tag k="ref:vcgi:esiteid" v="1424"/>
  </node>
  <node id="-354" visible="true" lat="44.73111718" lon="-72.38007893">
    <tag k="addr:city" v="Albany"/>
    <tag k="addr:housenumber" v="830"/>
    <tag k="addr:street" v="Main Street"/>
    <tag k="addr:state" v="VT"/>
    <tag k="ref:vcgi:esiteid" v="1430"/>
  </node>
  <node id="-366" visible="true" lat="44.7302798" lon="-72.38051968">
    <tag k="addr:city" v="Albany"/>
    <tag k="addr:housenumber" v="906"/>
    <tag k="addr:street" v="Main Street"/>
    <tag k="addr:state" v="VT"/>
    <tag k="ref:vcgi:esiteid" v="1444"/>
  </node>
  <node id="-367" visible="true" lat="44.72995408" lon="-72.38067178">
    <tag k="addr:city" v="Albany"/>
    <tag k="addr:housenumber" v="914"/>
    <tag k="addr:street" v="Main Street"/>
    <tag k="addr:state" v="VT"/>
    <tag k="ref:vcgi:esiteid" v="1445"/>
  </node>
  <node id="-368" visible="true" lat="44.72968849" lon="-72.37969359">
    <tag k="addr:city" v="Albany"/>
    <tag k="addr:housenumber" v="909"/>
    <tag k="addr:street" v="Main Street"/>
    <tag k="addr:state" v="VT"/>
    <tag k="ref:vcgi:esiteid" v="1446"/>
  </node>
  <node id="-370" visible="true" lat="44.72958787" lon="-72.38079759">
    <tag k="addr:city" v="Albany"/>
    <tag k="addr:housenumber" v="942"/>
    <tag k="addr:street" v="Main Street"/>
    <tag k="addr:state" v="VT"/>
    <tag k="ref:vcgi:esiteid" v="1448"/>
  </node>
  <node id="-371" visible="true" lat="44.7294621" lon="-72.38005606">
    <tag k="addr:city" v="Albany"/>
    <tag k="addr:housenumber" v="939"/>
    <tag k="addr:street" v="Main Street"/>
    <tag k="addr:state" v="VT"/>
    <tag k="ref:vcgi:esiteid" v="1449"/>
  </node>
  <node id="-375" visible="true" lat="44.72924812" lon="-72.38098462">
    <tag k="addr:city" v="Albany"/>
    <tag k="addr:housenumber" v="966"/>
    <tag k="addr:street" v="Main Street"/>
    <tag k="addr:state" v="VT"/>
    <tag k="ref:vcgi:esiteid" v="1453"/>
  </node>
  <node id="-376" visible="true" lat="44.72913211" lon="-72.38039527">
    <tag k="addr:city" v="Albany"/>
    <tag k="addr:housenumber" v="963"/>
    <tag k="addr:street" v="Main Street"/>
    <tag k="addr:state" v="VT"/>
    <tag k="ref:vcgi:esiteid" v="1454"/>
  </node>
  <node id="-377" visible="true" lat="44.72908449" lon="-72.38093013">
    <tag k="addr:city" v="Albany"/>
    <tag k="addr:housenumber" v="980"/>
    <tag k="addr:street" v="Main Street"/>
    <tag k="addr:state" v="VT"/>
    <tag k="ref:vcgi:esiteid" v="1455"/>
  </node>
  <node id="-379" visible="true" lat="44.72884798" lon="-72.38109035">
    <tag k="addr:city" v="Albany"/>
    <tag k="addr:housenumber" v="998"/>
    <tag k="addr:street" v="Main Street"/>
    <tag k="addr:state" v="VT"/>
    <tag k="ref:vcgi:esiteid" v="1457"/>
  </node>
  <node id="-386" visible="true" lat="44.72845417" lon="-72.38155517">
    <tag k="addr:city" v="Albany"/>
    <tag k="addr:housenumber" v="1030"/>
    <tag k="addr:street" v="Main Street"/>
    <tag k="addr:state" v="VT"/>
    <tag k="ref:vcgi:esiteid" v="1464"/>
  </node>
  <node id="-396" visible="true" lat="44.72778732" lon="-72.27169475">
    <tag k="addr:city" v="Albany"/>
    <tag k="addr:housenumber" v="2688"/>
    <tag k="addr:street" v="County Road"/>
    <tag k="addr:state" v="VT"/>
    <tag k="ref:vcgi:esiteid" v="1474"/>
  </node>
  <node id="-408" visible="true" lat="44.72670777" lon="-72.31124027">
    <tag k="addr:city" v="Albany"/>
    <tag k="addr:housenumber" v="282"/>
    <tag k="addr:street" v="Centebar Road"/>
    <tag k="addr:state" v="VT"/>
    <tag k="ref:vcgi:esiteid" v="1487"/>
  </node>
  <node id="-410" visible="true" lat="44.72558887" lon="-72.30935628">
    <tag k="addr:city" v="Albany"/>
    <tag k="addr:housenumber" v="363"/>
    <tag k="addr:street" v="Centebar Road"/>
    <tag k="addr:state" v="VT"/>
    <tag k="ref:vcgi:esiteid" v="1489"/>
  </node>
  <node id="-411" visible="true" lat="44.72533817" lon="-72.3614715">
    <tag k="addr:city" v="Albany"/>
    <tag k="addr:housenumber" v="740"/>
    <tag k="addr:street" v="Center Road"/>
    <tag k="addr:state" v="VT"/>
    <tag k="ref:vcgi:esiteid" v="1490"/>
  </node>
  <node id="-413" visible="true" lat="44.72462119" lon="-72.31178272">
    <tag k="addr:city" v="Albany"/>
    <tag k="addr:housenumber" v="448"/>
    <tag k="addr:street" v="Centebar Road"/>
    <tag k="addr:state" v="VT"/>
    <tag k="ref:vcgi:esiteid" v="1492"/>
  </node>
  <node id="-415" visible="true" lat="44.72400597" lon="-72.35080305">
    <tag k="addr:city" v="Albany"/>
    <tag k="addr:housenumber" v="789"/>
    <tag k="addr:street" v="Pitkin Road South"/>
    <tag k="addr:state" v="VT"/>
    <tag k="ref:vcgi:esiteid" v="1494"/>
  </node>
  <node id="-419" visible="true" lat="44.72333976" lon="-72.31188711">
    <tag k="addr:city" v="Albany"/>
    <tag k="addr:housenumber" v="506"/>
    <tag k="addr:street" v="Centebar Road"/>
    <tag k="addr:state" v="VT"/>
    <tag k="ref:vcgi:esiteid" v="1498"/>
  </node>
  <node id="-421" visible="true" lat="44.72303391" lon="-72.36241913">
    <tag k="addr:city" v="Albany"/>
    <tag k="addr:housenumber" v="573"/>
    <tag k="addr:street" v="Center Road"/>
    <tag k="addr:state" v="VT"/>
    <tag k="ref:vcgi:esiteid" v="1500"/>
  </node>
  <node id="-422" visible="true" lat="44.72266257" lon="-72.27665511">
    <tag k="addr:city" v="Albany"/>
    <tag k="addr:housenumber" v="3166"/>
    <tag k="addr:street" v="County Road"/>
    <tag k="addr:state" v="VT"/>
    <tag k="ref:vcgi:esiteid" v="1501"/>
  </node>
  <node id="-424" visible="true" lat="44.72185516" lon="-72.30983734">
    <tag k="addr:city" v="Albany"/>
    <tag k="addr:housenumber" v="609"/>
    <tag k="addr:street" v="Centebar Road"/>
    <tag k="addr:state" v="VT"/>
    <tag k="ref:vcgi:esiteid" v="1503"/>
  </node>
  <node id="-426" visible="true" lat="44.72147953" lon="-72.2796685">
    <tag k="addr:city" v="Albany"/>
    <tag k="addr:housenumber" v="3332"/>
    <tag k="addr:street" v="County Road"/>
    <tag k="addr:state" v="VT"/>
    <tag k="ref:vcgi:esiteid" v="1505"/>
  </node>
  <node id="-428" visible="true" lat="44.72005081" lon="-72.31085967">
    <tag k="addr:city" v="Albany"/>
    <tag k="addr:housenumber" v="736"/>
    <tag k="addr:street" v="Centebar Road"/>
    <tag k="addr:state" v="VT"/>
    <tag k="ref:vcgi:esiteid" v="1507"/>
  </node>
  <node id="-429" visible="true" lat="44.72008325" lon="-72.27680151">
    <tag k="addr:city" v="Albany"/>
    <tag k="addr:housenumber" v="3325"/>
    <tag k="addr:street" v="County Road"/>
    <tag k="addr:state" v="VT"/>
    <tag k="ref:vcgi:esiteid" v="1508"/>
  </node>
  <node id="-431" visible="true" lat="44.71874723" lon="-72.31102255">
    <tag k="addr:city" v="Albany"/>
    <tag k="addr:housenumber" v="822"/>
    <tag k="addr:street" v="Centebar Road"/>
    <tag k="addr:state" v="VT"/>
    <tag k="ref:vcgi:esiteid" v="1510"/>
  </node>
  <node id="-432" visible="true" lat="44.71879003" lon="-72.38510319">
    <tag k="addr:city" v="Albany"/>
    <tag k="addr:housenumber" v="642"/>
    <tag k="addr:street" v="Vermont Route 14 South"/>
    <tag k="addr:state" v="VT"/>
    <tag k="ref:vcgi:esiteid" v="1511"/>
  </node>
  <node id="-433" visible="true" lat="44.71834371" lon="-72.27895495">
    <tag k="addr:city" v="Albany"/>
    <tag k="addr:housenumber" v="3491"/>
    <tag k="addr:street" v="County Road"/>
    <tag k="addr:state" v="VT"/>
    <tag k="ref:vcgi:esiteid" v="1512"/>
  </node>
  <node id="-435" visible="true" lat="44.71834087" lon="-72.37099709">
    <tag k="addr:city" v="Albany"/>
    <tag k="addr:housenumber" v="787"/>
    <tag k="addr:street" v="Hitchcock Hill Road"/>
    <tag k="addr:state" v="VT"/>
    <tag k="ref:vcgi:esiteid" v="1514"/>
  </node>
  <node id="-439" visible="true" lat="44.7171321" lon="-72.36714953">
    <tag k="addr:city" v="Albany"/>
    <tag k="addr:housenumber" v="110"/>
    <tag k="addr:street" v="Center Road"/>
    <tag k="addr:state" v="VT"/>
    <tag k="ref:vcgi:esiteid" v="1518"/>
  </node>
  <node id="-440" visible="true" lat="44.71693535" lon="-72.38556061">
    <tag k="addr:city" v="Albany"/>
    <tag k="addr:housenumber" v="725"/>
    <tag k="addr:street" v="Vermont Route 14 South"/>
    <tag k="addr:state" v="VT"/>
    <tag k="ref:vcgi:esiteid" v="1519"/>
  </node>
  <node id="-442" visible="true" lat="44.71682187" lon="-72.38978282">
    <tag k="addr:city" v="Albany"/>
    <tag k="addr:housenumber" v="215"/>
    <tag k="addr:street" v="Bailey Hazen Road East"/>
    <tag k="addr:state" v="VT"/>
    <tag k="ref:vcgi:esiteid" v="1521"/>
  </node>
  <node id="-444" visible="true" lat="44.71636199" lon="-72.28205871">
    <tag k="addr:city" v="Albany"/>
    <tag k="addr:housenumber" v="3590"/>
    <tag k="addr:street" v="County Road"/>
    <tag k="addr:state" v="VT"/>
    <tag k="ref:vcgi:esiteid" v="1523"/>
  </node>
  <node id="-445" visible="true" lat="44.71238623" lon="-72.31452507">
    <tag k="addr:city" v="Albany"/>
    <tag k="addr:housenumber" v="968"/>
    <tag k="addr:street" v="Centebar Road"/>
    <tag k="addr:state" v="VT"/>
    <tag k="ref:vcgi:esiteid" v="1524"/>
  </node>
  <node id="-446" visible="true" lat="44.71638169" lon="-72.38985736">
    <tag k="addr:city" v="Albany"/>
    <tag k="addr:housenumber" v="183"/>
    <tag k="addr:street" v="Bailey Hazen Road East"/>
    <tag k="addr:state" v="VT"/>
    <tag k="ref:vcgi:esiteid" v="1525"/>
  </node>
  <node id="-447" visible="true" lat="44.71627808" lon="-72.36630259">
    <tag k="addr:city" v="Albany"/>
    <tag k="addr:housenumber" v="73"/>
    <tag k="addr:street" v="Page Pond Road"/>
    <tag k="addr:state" v="VT"/>
    <tag k="ref:vcgi:esiteid" v="1526"/>
  </node>
  <node id="-449" visible="true" lat="44.71551141" lon="-72.36326795">
    <tag k="addr:city" v="Albany"/>
    <tag k="addr:housenumber" v="211"/>
    <tag k="addr:street" v="Page Pond Road"/>
    <tag k="addr:state" v="VT"/>
    <tag k="ref:vcgi:esiteid" v="1528"/>
  </node>
  <node id="-450" visible="true" lat="44.71529006" lon="-72.31031036">
    <tag k="addr:city" v="Albany"/>
    <tag k="addr:housenumber" v="1048"/>
    <tag k="addr:street" v="Centebar Road"/>
    <tag k="addr:state" v="VT"/>
    <tag k="ref:vcgi:esiteid" v="1529"/>
  </node>
  <node id="-451" visible="true" lat="44.71517681" lon="-72.38970489">
    <tag k="addr:city" v="Albany"/>
    <tag k="addr:housenumber" v="111"/>
    <tag k="addr:street" v="Bailey Hazen Road East"/>
    <tag k="addr:state" v="VT"/>
    <tag k="ref:vcgi:esiteid" v="1530"/>
  </node>
  <node id="-452" visible="true" lat="44.71490096" lon="-72.28067016">
    <tag k="addr:city" v="Albany"/>
    <tag k="addr:housenumber" v="3751"/>
    <tag k="addr:street" v="County Road"/>
    <tag k="addr:state" v="VT"/>
    <tag k="ref:vcgi:esiteid" v="1531"/>
  </node>
  <node id="-453" visible="true" lat="44.71476764" lon="-72.36865795">
    <tag k="addr:city" v="Albany"/>
    <tag k="addr:housenumber" v="82"/>
    <tag k="addr:street" v="Cheney Road"/>
    <tag k="addr:state" v="VT"/>
    <tag k="ref:vcgi:esiteid" v="1532"/>
  </node>
  <node id="-455" visible="true" lat="44.71426772" lon="-72.28121185">
    <tag k="addr:city" v="Albany"/>
    <tag k="addr:housenumber" v="3814"/>
    <tag k="addr:street" v="County Road"/>
    <tag k="addr:state" v="VT"/>
    <tag k="ref:vcgi:esiteid" v="1534"/>
  </node>
  <node id="-460" visible="true" lat="44.71370336" lon="-72.38762724">
    <tag k="addr:city" v="Albany"/>
    <tag k="addr:housenumber" v="1001"/>
    <tag k="addr:street" v="Vermont Route 14 South"/>
    <tag k="addr:state" v="VT"/>
    <tag k="ref:vcgi:esiteid" v="1539"/>
  </node>
  <node id="-463" visible="true" lat="44.71320932" lon="-72.29637784">
    <tag k="addr:city" v="Albany"/>
    <tag k="addr:housenumber" v="1711"/>
    <tag k="addr:street" v="Lafont Road"/>
    <tag k="addr:state" v="VT"/>
    <tag k="ref:vcgi:esiteid" v="1542"/>
  </node>
  <node id="-464" visible="true" lat="44.71338676" lon="-72.36885019">
    <tag k="addr:city" v="Albany"/>
    <tag k="addr:housenumber" v="175"/>
    <tag k="addr:street" v="Cheney Road"/>
    <tag k="addr:state" v="VT"/>
    <tag k="ref:vcgi:esiteid" v="1543"/>
  </node>
  <node id="-467" visible="true" lat="44.71312399" lon="-72.37094688">
    <tag k="addr:city" v="Albany"/>
    <tag k="addr:housenumber" v="256"/>
    <tag k="addr:street" v="Cheney Road"/>
    <tag k="addr:state" v="VT"/>
    <tag k="ref:vcgi:esiteid" v="1546"/>
  </node>
  <node id="-470" visible="true" lat="44.71208256" lon="-72.36946667">
    <tag k="addr:city" v="Albany"/>
    <tag k="addr:housenumber" v="277"/>
    <tag k="addr:street" v="Cheney Road"/>
    <tag k="addr:state" v="VT"/>
    <tag k="ref:vcgi:esiteid" v="1549"/>
  </node>
  <node id="-471" visible="true" lat="44.711483" lon="-72.37038422">
    <tag k="addr:city" v="Albany"/>
    <tag k="addr:housenumber" v="316"/>
    <tag k="addr:street" v="Cheney Road"/>
    <tag k="addr:state" v="VT"/>
    <tag k="ref:vcgi:esiteid" v="1550"/>
  </node>
  <node id="-472" visible="true" lat="44.71111679" lon="-72.34780121">
    <tag k="addr:city" v="Albany"/>
    <tag k="addr:housenumber" v="1222"/>
    <tag k="addr:street" v="Page Pond Road"/>
    <tag k="addr:state" v="VT"/>
    <tag k="ref:vcgi:esiteid" v="1551"/>
  </node>
  <node id="-473" visible="true" lat="44.7108257" lon="-72.37108302">
    <tag k="addr:city" v="Albany"/>
    <tag k="addr:housenumber" v="378"/>
    <tag k="addr:street" v="Cheney Road"/>
    <tag k="addr:state" v="VT"/>
    <tag k="ref:vcgi:esiteid" v="1552"/>
  </node>
  <node id="-475" visible="true" lat="44.70997158" lon="-72.38998511">
    <tag k="addr:city" v="Albany"/>
    <tag k="addr:housenumber" v="1260"/>
    <tag k="addr:street" v="Vermont Route 14 South"/>
    <tag k="addr:state" v="VT"/>
    <tag k="ref:vcgi:esiteid" v="1554"/>
  </node>
  <node id="-478" visible="true" lat="44.70807823" lon="-72.29098412">
    <tag k="addr:city" v="Albany"/>
    <tag k="addr:housenumber" v="1591"/>
    <tag k="addr:street" v="Hartwell Pond Road"/>
    <tag k="addr:state" v="VT"/>
    <tag k="ref:vcgi:esiteid" v="1557"/>
  </node>
  <node id="-479" visible="true" lat="44.70803396" lon="-72.2864113">
    <tag k="addr:city" v="Albany"/>
    <tag k="addr:housenumber" v="1799"/>
    <tag k="addr:street" v="Hartwell Pond Road"/>
    <tag k="addr:state" v="VT"/>
    <tag k="ref:vcgi:esiteid" v="1558"/>
  </node>
  <node id="-480" visible="true" lat="44.7079469" lon="-72.35643277">
    <tag k="addr:city" v="Albany"/>
    <tag k="addr:housenumber" v="678"/>
    <tag k="addr:street" v="Page Pond Road"/>
    <tag k="addr:state" v="VT"/>
    <tag k="ref:vcgi:esiteid" v="1559"/>
  </node>
  <node id="-482" visible="true" lat="44.70685959" lon="-72.34703827">
    <tag k="addr:city" v="Albany"/>
    <tag k="addr:housenumber" v="142"/>
    <tag k="addr:street" v="Lost Nation Road"/>
    <tag k="addr:state" v="VT"/>
    <tag k="ref:vcgi:esiteid" v="1562"/>
  </node>
  <node id="-483" visible="true" lat="44.70651544" lon="-72.29179236">
    <tag k="addr:city" v="Albany"/>
    <tag k="addr:housenumber" v="1506"/>
    <tag k="addr:street" v="Hartwell Pond Road"/>
    <tag k="addr:state" v="VT"/>
    <tag k="ref:vcgi:esiteid" v="1563"/>
  </node>
  <node id="-484" visible="true" lat="44.70584487" lon="-72.2930603">
    <tag k="addr:city" v="Albany"/>
    <tag k="addr:housenumber" v="1434"/>
    <tag k="addr:street" v="Hartwell Pond Road"/>
    <tag k="addr:state" v="VT"/>
    <tag k="ref:vcgi:esiteid" v="1564"/>
  </node>
  <node id="-485" visible="true" lat="44.70559692" lon="-72.2933197">
    <tag k="addr:city" v="Albany"/>
    <tag k="addr:housenumber" v="1404"/>
    <tag k="addr:street" v="Hartwell Pond Road"/>
    <tag k="addr:state" v="VT"/>
    <tag k="ref:vcgi:esiteid" v="1565"/>
  </node>
  <node id="-486" visible="true" lat="44.70567604" lon="-72.39006445">
    <tag k="addr:city" v="Albany"/>
    <tag k="addr:housenumber" v="1598"/>
    <tag k="addr:street" v="Vermont Route 14 South"/>
    <tag k="addr:state" v="VT"/>
    <tag k="ref:vcgi:esiteid" v="1566"/>
  </node>
  <node id="-489" visible="true" lat="44.70381036" lon="-72.38669128">
    <tag k="addr:city" v="Albany"/>
    <tag k="addr:housenumber" v="2721"/>
    <tag k="addr:street" v="Wylie Hill Road"/>
    <tag k="addr:state" v="VT"/>
    <tag k="ref:vcgi:esiteid" v="1569"/>
  </node>
  <node id="-490" visible="true" lat="44.70289586" lon="-72.29774434">
    <tag k="addr:city" v="Albany"/>
    <tag k="addr:housenumber" v="1069"/>
    <tag k="addr:street" v="Hartwell Pond Road"/>
    <tag k="addr:state" v="VT"/>
    <tag k="ref:vcgi:esiteid" v="1570"/>
  </node>
  <node id="-491" visible="true" lat="44.70269012" lon="-72.29492187">
    <tag k="addr:city" v="Albany"/>
    <tag k="addr:housenumber" v="1214"/>
    <tag k="addr:street" v="Hartwell Pond Road"/>
    <tag k="addr:state" v="VT"/>
    <tag k="ref:vcgi:esiteid" v="1571"/>
  </node>
  <node id="-493" visible="true" lat="44.70226163" lon="-72.29493776">
    <tag k="addr:city" v="Albany"/>
    <tag k="addr:housenumber" v="94"/>
    <tag k="addr:street" v="Labounty Lane"/>
    <tag k="addr:state" v="VT"/>
    <tag k="ref:vcgi:esiteid" v="1573"/>
  </node>
  <node id="-494" visible="true" lat="44.70214568" lon="-72.35718584">
    <tag k="addr:city" v="Albany"/>
    <tag k="addr:housenumber" v="674"/>
    <tag k="addr:street" v="Lost Nation Road"/>
    <tag k="addr:state" v="VT"/>
    <tag k="ref:vcgi:esiteid" v="1574"/>
  </node>
  <node id="-495" visible="true" lat="44.70195395" lon="-72.29943447">
    <tag k="addr:city" v="Albany"/>
    <tag k="addr:housenumber" v="1011"/>
    <tag k="addr:street" v="Hartwell Pond Road"/>
    <tag k="addr:state" v="VT"/>
    <tag k="ref:vcgi:esiteid" v="1575"/>
  </node>
  <node id="-496" visible="true" lat="44.70184326" lon="-72.2947998">
    <tag k="addr:city" v="Albany"/>
    <tag k="addr:housenumber" v="92"/>
    <tag k="addr:street" v="Labounty Lane"/>
    <tag k="addr:state" v="VT"/>
    <tag k="ref:vcgi:esiteid" v="1576"/>
  </node>
  <node id="-497" visible="true" lat="44.70138168" lon="-72.29851532">
    <tag k="addr:city" v="Albany"/>
    <tag k="addr:housenumber" v="1010"/>
    <tag k="addr:street" v="Hartwell Pond Road"/>
    <tag k="addr:state" v="VT"/>
    <tag k="ref:vcgi:esiteid" v="1577"/>
  </node>
  <node id="-498" visible="true" lat="44.70133029" lon="-72.34992866">
    <tag k="addr:city" v="Albany"/>
    <tag k="addr:housenumber" v="575"/>
    <tag k="addr:street" v="Lost Nation Road"/>
    <tag k="addr:state" v="VT"/>
    <tag k="ref:vcgi:esiteid" v="1578"/>
  </node>
  <node id="-501" visible="true" lat="44.69993591" lon="-72.29921722">
    <tag k="addr:city" v="Albany"/>
    <tag k="addr:housenumber" v="952"/>
    <tag k="addr:street" v="Hartwell Pond Road"/>
    <tag k="addr:state" v="VT"/>
    <tag k="ref:vcgi:esiteid" v="1582"/>
  </node>
  <node id="-505" visible="true" lat="44.69839418" lon="-72.32148719">
    <tag k="addr:city" v="Albany"/>
    <tag k="addr:housenumber" v="815"/>
    <tag k="addr:street" v="South Albany Road"/>
    <tag k="addr:state" v="VT"/>
    <tag k="ref:vcgi:esiteid" v="1586"/>
  </node>
  <node id="-506" visible="true" lat="44.697576" lon="-72.30268829">
    <tag k="addr:city" v="Albany"/>
    <tag k="addr:housenumber" v="656"/>
    <tag k="addr:street" v="Hartwell Pond Road"/>
    <tag k="addr:state" v="VT"/>
    <tag k="ref:vcgi:esiteid" v="1587"/>
  </node>
  <node id="-507" visible="true" lat="44.69764421" lon="-72.30864946">
    <tag k="addr:city" v="Albany"/>
    <tag k="addr:housenumber" v="2482"/>
    <tag k="addr:street" v="Centebar Road"/>
    <tag k="addr:state" v="VT"/>
    <tag k="ref:vcgi:esiteid" v="1588"/>
  </node>
  <node id="-508" visible="true" lat="44.69761183" lon="-72.35522494">
    <tag k="addr:city" v="Albany"/>
    <tag k="addr:housenumber" v="243"/>
    <tag k="addr:street" v="Hosmer Point Lane"/>
    <tag k="addr:state" v="VT"/>
    <tag k="ref:vcgi:esiteid" v="1589"/>
  </node>
  <node id="-511" visible="true" lat="44.69629709" lon="-72.30987401">
    <tag k="addr:city" v="Albany"/>
    <tag k="addr:housenumber" v="2590"/>
    <tag k="addr:street" v="Centebar Road"/>
    <tag k="addr:state" v="VT"/>
    <tag k="ref:vcgi:esiteid" v="1592"/>
  </node>
  <node id="-512" visible="true" lat="44.69513321" lon="-72.3686142">
    <tag k="addr:city" v="Albany"/>
    <tag k="addr:housenumber" v="1523"/>
    <tag k="addr:street" v="Cheney Road"/>
    <tag k="addr:state" v="VT"/>
    <tag k="ref:vcgi:esiteid" v="1593"/>
  </node>
  <node id="-517" visible="true" lat="44.69335472" lon="-72.30014357">
    <tag k="addr:city" v="Albany"/>
    <tag k="addr:housenumber" v="329"/>
    <tag k="addr:street" v="Rowell Road"/>
    <tag k="addr:state" v="VT"/>
    <tag k="ref:vcgi:esiteid" v="1598"/>
  </node>
  <node id="-518" visible="true" lat="44.69332813" lon="-72.35788554">
    <tag k="addr:city" v="Albany"/>
    <tag k="addr:housenumber" v="1235"/>
    <tag k="addr:street" v="Lost Nation Road"/>
    <tag k="addr:state" v="VT"/>
    <tag k="ref:vcgi:esiteid" v="1599"/>
  </node>
  <node id="-520" visible="true" lat="44.69295777" lon="-72.3386552">
    <tag k="addr:city" v="Albany"/>
    <tag k="addr:housenumber" v="5805"/>
    <tag k="addr:street" v="Creek Road"/>
    <tag k="addr:state" v="VT"/>
    <tag k="ref:vcgi:esiteid" v="1601"/>
  </node>
  <node id="-526" visible="true" lat="44.6915536" lon="-72.3586431">
    <tag k="addr:city" v="Albany"/>
    <tag k="addr:housenumber" v="1529"/>
    <tag k="addr:street" v="Lost Nation Road"/>
    <tag k="addr:state" v="VT"/>
    <tag k="ref:vcgi:esiteid" v="1607"/>
  </node>
  <node id="-533" visible="true" lat="44.68871218" lon="-72.31469833">
    <tag k="addr:city" v="Albany"/>
    <tag k="addr:housenumber" v="82"/>
    <tag k="addr:street" v="Urie Road"/>
    <tag k="addr:state" v="VT"/>
    <tag k="ref:vcgi:esiteid" v="1614"/>
  </node>
  <node id="-534" visible="true" lat="44.68808752" lon="-72.33918246">
    <tag k="addr:city" v="Albany"/>
    <tag k="addr:housenumber" v="6123"/>
    <tag k="addr:street" v="Creek Road"/>
    <tag k="addr:state" v="VT"/>
    <tag k="ref:vcgi:esiteid" v="1615"/>
  </node>
  <node id="-535" visible="true" lat="44.68743062" lon="-72.31282238">
    <tag k="addr:city" v="Albany"/>
    <tag k="addr:housenumber" v="1808"/>
    <tag k="addr:street" v="South Albany Road"/>
    <tag k="addr:state" v="VT"/>
    <tag k="ref:vcgi:esiteid" v="1616"/>
  </node>
  <node id="-537" visible="true" lat="44.68205261" lon="-72.3241806">
    <tag k="addr:city" v="Albany"/>
    <tag k="addr:housenumber" v="778"/>
    <tag k="addr:street" v="Urie Road"/>
    <tag k="addr:state" v="VT"/>
    <tag k="ref:vcgi:esiteid" v="1618"/>
  </node>
  <node id="-538" visible="true" lat="44.6815051" lon="-72.31085971">
    <tag k="addr:city" v="Albany"/>
    <tag k="addr:housenumber" v="2228"/>
    <tag k="addr:street" v="South Albany Road"/>
    <tag k="addr:state" v="VT"/>
    <tag k="ref:vcgi:esiteid" v="1619"/>
  </node>
  <node id="-539" visible="true" lat="44.67863399" lon="-72.30947139">
    <tag k="addr:city" v="Albany"/>
    <tag k="addr:housenumber" v="2423"/>
    <tag k="addr:street" v="South Albany Road"/>
    <tag k="addr:state" v="VT"/>
    <tag k="ref:vcgi:esiteid" v="1620"/>
  </node>
  <node id="-540" visible="true" lat="44.72502608" lon="-72.30346404">
    <tag k="addr:city" v="Albany"/>
    <tag k="addr:housenumber" v="271"/>
    <tag k="addr:street" v="Gluck Road"/>
    <tag k="addr:state" v="VT"/>
    <tag k="ref:vcgi:esiteid" v="1622"/>
  </node>
  <node id="-542" visible="true" lat="44.76601298" lon="-72.34253206">
    <tag k="addr:city" v="Albany"/>
    <tag k="addr:housenumber" v="1490"/>
    <tag k="addr:street" v="Vermont Route 14 North"/>
    <tag k="addr:state" v="VT"/>
    <tag k="ref:vcgi:esiteid" v="1624"/>
  </node>
  <node id="-543" visible="true" lat="44.72283043" lon="-72.30273539">
    <tag k="addr:city" v="Albany"/>
    <tag k="addr:housenumber" v="189"/>
    <tag k="addr:street" v="Orchard Terrace"/>
    <tag k="addr:state" v="VT"/>
    <tag k="ref:vcgi:esiteid" v="1625"/>
  </node>
  <node id="-545" visible="true" lat="44.70419444" lon="-72.35641678">
    <tag k="addr:city" v="Albany"/>
    <tag k="addr:housenumber" v="650"/>
    <tag k="addr:street" v="Lost Nation Road"/>
    <tag k="addr:state" v="VT"/>
    <tag k="ref:vcgi:esiteid" v="1627"/>
  </node>
  <node id="-546" visible="true" lat="44.73300364" lon="-72.40419119">
    <tag k="addr:city" v="Albany"/>
    <tag k="addr:housenumber" v="237"/>
    <tag k="addr:street" v="Goodrich Road"/>
    <tag k="addr:state" v="VT"/>
    <tag k="ref:vcgi:esiteid" v="1629"/>
  </node>
  <node id="-547" visible="true" lat="44.73359404" lon="-72.40540788">
    <tag k="addr:city" v="Albany"/>
    <tag k="addr:housenumber" v="218"/>
    <tag k="addr:street" v="Goodrich Road"/>
    <tag k="addr:state" v="VT"/>
    <tag k="ref:vcgi:esiteid" v="1630"/>
  </node>
  <node id="-548" visible="true" lat="44.74287194" lon="-72.3690401">
    <tag k="addr:city" v="Albany"/>
    <tag k="addr:housenumber" v="193"/>
    <tag k="addr:street" v="Town Farm Road West"/>
    <tag k="addr:state" v="VT"/>
    <tag k="ref:vcgi:esiteid" v="1631"/>
  </node>
  <node id="-553" visible="true" lat="44.73397242" lon="-72.39861782">
    <tag k="addr:city" v="Albany"/>
    <tag k="addr:housenumber" v="568"/>
    <tag k="addr:street" v="Bailey Hazen Road West"/>
    <tag k="addr:state" v="VT"/>
    <tag k="ref:vcgi:esiteid" v="1636"/>
  </node>
  <node id="-554" visible="true" lat="44.71866674" lon="-72.38289497">
    <tag k="addr:city" v="Albany"/>
    <tag k="addr:housenumber" v="527"/>
    <tag k="addr:street" v="Vermont Route 14 South"/>
    <tag k="addr:state" v="VT"/>
    <tag k="ref:vcgi:esiteid" v="1637"/>
  </node>
  <node id="-555" visible="true" lat="44.76631378" lon="-72.34153203">
    <tag k="addr:city" v="Albany"/>
    <tag k="addr:housenumber" v="1432"/>
    <tag k="addr:street" v="Vermont Route 14 North"/>
    <tag k="addr:state" v="VT"/>
    <tag k="ref:vcgi:esiteid" v="1638"/>
  </node>
  <node id="-556" visible="true" lat="44.74981195" lon="-72.33597082">
    <tag k="addr:city" v="Albany"/>
    <tag k="addr:housenumber" v="1812"/>
    <tag k="addr:street" v="Delano Road"/>
    <tag k="addr:state" v="VT"/>
    <tag k="ref:vcgi:esiteid" v="1639"/>
  </node>
  <node id="-559" visible="true" lat="44.74732067" lon="-72.37030219">
    <tag k="addr:city" v="Albany"/>
    <tag k="addr:housenumber" v="3395"/>
    <tag k="addr:street" v="Vermont Route 14 North"/>
    <tag k="addr:state" v="VT"/>
    <tag k="ref:vcgi:esiteid" v="1642"/>
  </node>
  <node id="-560" visible="true" lat="44.72406286" lon="-72.3726347">
    <tag k="addr:city" v="Albany"/>
    <tag k="addr:housenumber" v="38"/>
    <tag k="addr:street" v="Hitchcock Hill Road"/>
    <tag k="addr:state" v="VT"/>
    <tag k="ref:vcgi:esiteid" v="1643"/>
  </node>
  <node id="-561" visible="true" lat="44.7296568" lon="-72.35982647">
    <tag k="addr:city" v="Albany"/>
    <tag k="addr:housenumber" v="1090"/>
    <tag k="addr:street" v="Center Road"/>
    <tag k="addr:state" v="VT"/>
    <tag k="ref:vcgi:esiteid" v="1644"/>
  </node>
  <node id="-562" visible="true" lat="44.71688756" lon="-72.38657856">
    <tag k="addr:city" v="Albany"/>
    <tag k="addr:housenumber" v="734"/>
    <tag k="addr:street" v="Vermont Route 14 South"/>
    <tag k="addr:state" v="VT"/>
    <tag k="ref:vcgi:esiteid" v="1645"/>
  </node>
  <node id="-564" visible="true" lat="44.76015189" lon="-72.32915502">
    <tag k="addr:city" v="Albany"/>
    <tag k="addr:housenumber" v="916"/>
    <tag k="addr:street" v="Delano Road"/>
    <tag k="addr:state" v="VT"/>
    <tag k="ref:vcgi:esiteid" v="1647"/>
  </node>
  <node id="-565" visible="true" lat="44.75307066" lon="-72.33323786">
    <tag k="addr:city" v="Albany"/>
    <tag k="addr:housenumber" v="1518"/>
    <tag k="addr:street" v="Delano Road"/>
    <tag k="addr:state" v="VT"/>
    <tag k="ref:vcgi:esiteid" v="1649"/>
  </node>
  <node id="-566" visible="true" lat="44.70967407" lon="-72.37198376">
    <tag k="addr:city" v="Albany"/>
    <tag k="addr:housenumber" v="454"/>
    <tag k="addr:street" v="Cheney Road"/>
    <tag k="addr:state" v="VT"/>
    <tag k="ref:vcgi:esiteid" v="1650"/>
  </node>
  <node id="-567" visible="true" lat="44.73649181" lon="-72.37843468">
    <tag k="addr:city" v="Albany"/>
    <tag k="addr:housenumber" v="452"/>
    <tag k="addr:street" v="Main Street"/>
    <tag k="addr:state" v="VT"/>
    <tag k="ref:vcgi:esiteid" v="1651"/>
  </node>
  <node id="-568" visible="true" lat="44.77092874" lon="-72.3296386">
    <tag k="addr:city" v="Albany"/>
    <tag k="addr:housenumber" v="9"/>
    <tag k="addr:street" v="Bonneau Drive"/>
    <tag k="addr:state" v="VT"/>
    <tag k="ref:vcgi:esiteid" v="1652"/>
  </node>
  <node id="-570" visible="true" lat="44.70061474" lon="-72.3377992">
    <tag k="addr:city" v="Albany"/>
    <tag k="addr:housenumber" v="37"/>
    <tag k="addr:street" v="South Albany Road"/>
    <tag k="addr:state" v="VT"/>
    <tag k="ref:vcgi:esiteid" v="1654"/>
  </node>
  <node id="-571" visible="true" lat="44.72309624" lon="-72.38482783">
    <tag k="addr:city" v="Albany"/>
    <tag k="addr:housenumber" v="1206"/>
    <tag k="addr:street" v="Main Street"/>
    <tag k="addr:state" v="VT"/>
    <tag k="ref:vcgi:esiteid" v="1655"/>
  </node>
  <node id="-572" visible="true" lat="44.74023912" lon="-72.37402824">
    <tag k="addr:city" v="Albany"/>
    <tag k="addr:housenumber" v="19"/>
    <tag k="addr:street" v="Main Street"/>
    <tag k="addr:state" v="VT"/>
    <tag k="ref:vcgi:esiteid" v="1656"/>
  </node>
  <node id="-573" visible="true" lat="44.77158546" lon="-72.3375287">
    <tag k="addr:city" v="Albany"/>
    <tag k="addr:housenumber" v="503"/>
    <tag k="addr:street" v="Bonneau Drive"/>
    <tag k="addr:state" v="VT"/>
    <tag k="ref:vcgi:esiteid" v="1657"/>
  </node>
  <node id="-574" visible="true" lat="44.77117496" lon="-72.3350799">
    <tag k="addr:city" v="Albany"/>
    <tag k="addr:housenumber" v="467"/>
    <tag k="addr:street" v="Bonneau Drive"/>
    <tag k="addr:state" v="VT"/>
    <tag k="ref:vcgi:esiteid" v="1658"/>
  </node>
  <node id="-575" visible="true" lat="44.74518769" lon="-72.37545989">
    <tag k="addr:city" v="Albany"/>
    <tag k="addr:housenumber" v="225"/>
    <tag k="addr:street" v="Dyer Road"/>
    <tag k="addr:state" v="VT"/>
    <tag k="ref:vcgi:esiteid" v="1659"/>
  </node>
  <node id="-576" visible="true" lat="44.74240365" lon="-72.28201077">
    <tag k="addr:city" v="Albany"/>
    <tag k="addr:housenumber" v="33"/>
    <tag k="addr:street" v="Johnson Road South"/>
    <tag k="addr:state" v="VT"/>
    <tag k="ref:vcgi:esiteid" v="1660"/>
  </node>
  <node id="-577" visible="true" lat="44.77395047" lon="-72.36557032">
    <tag k="addr:city" v="Albany"/>
    <tag k="addr:housenumber" v="299"/>
    <tag k="addr:street" v="Horace Way Road"/>
    <tag k="addr:state" v="VT"/>
    <tag k="ref:vcgi:esiteid" v="1661"/>
  </node>
  <node id="-578" visible="true" lat="44.7748587" lon="-72.36633911">
    <tag k="addr:city" v="Albany"/>
    <tag k="addr:housenumber" v="343"/>
    <tag k="addr:street" v="Horace Way Road"/>
    <tag k="addr:state" v="VT"/>
    <tag k="ref:vcgi:esiteid" v="1662"/>
  </node>
  <node id="-579" visible="true" lat="44.70983001" lon="-72.36978433">
    <tag k="addr:city" v="Albany"/>
    <tag k="addr:housenumber" v="387"/>
    <tag k="addr:street" v="Cheney Road"/>
    <tag k="addr:state" v="VT"/>
    <tag k="ref:vcgi:esiteid" v="1663"/>
  </node>
  <node id="-582" visible="true" lat="44.74142755" lon="-72.26257234">
    <tag k="addr:city" v="Albany"/>
    <tag k="addr:housenumber" v="3192"/>
    <tag k="addr:street" v="Barton Road"/>
    <tag k="addr:state" v="VT"/>
    <tag k="ref:vcgi:esiteid" v="1667"/>
  </node>
  <node id="-583" visible="true" lat="44.74744023" lon="-72.30444658">
    <tag k="addr:city" v="Albany"/>
    <tag k="addr:housenumber" v="1535"/>
    <tag k="addr:street" v="Creek Road"/>
    <tag k="addr:state" v="VT"/>
    <tag k="ref:vcgi:esiteid" v="1668"/>
  </node>
  <node id="-584" visible="true" lat="44.71764842" lon="-72.37278077">
    <tag k="addr:city" v="Albany"/>
    <tag k="addr:housenumber" v="648"/>
    <tag k="addr:street" v="Hitchcock Hill Road"/>
    <tag k="addr:state" v="VT"/>
    <tag k="ref:vcgi:esiteid" v="1669"/>
  </node>
  <node id="-585" visible="true" lat="44.75599773" lon="-72.3311129">
    <tag k="addr:city" v="Albany"/>
    <tag k="addr:housenumber" v="1204"/>
    <tag k="addr:street" v="Delano Road"/>
    <tag k="addr:state" v="VT"/>
    <tag k="ref:vcgi:esiteid" v="1670"/>
  </node>
  <node id="-586" visible="true" lat="44.73428032" lon="-72.40225129">
    <tag k="addr:city" v="Albany"/>
    <tag k="addr:housenumber" v="95"/>
    <tag k="addr:street" v="Goodrich Road"/>
    <tag k="addr:state" v="VT"/>
    <tag k="ref:vcgi:esiteid" v="1671"/>
  </node>
  <node id="-587" visible="true" lat="44.69726235" lon="-72.3241319">
    <tag k="addr:city" v="Albany"/>
    <tag k="addr:housenumber" v="813"/>
    <tag k="addr:street" v="South Albany Road"/>
    <tag k="addr:state" v="VT"/>
    <tag k="ref:vcgi:esiteid" v="1672"/>
  </node>
  <node id="-588" visible="true" lat="44.69887685" lon="-72.33721497">
    <tag k="addr:city" v="Albany"/>
    <tag k="addr:housenumber" v="5363"/>
    <tag k="addr:street" v="Creek Road"/>
    <tag k="addr:state" v="VT"/>
    <tag k="ref:vcgi:esiteid" v="1673"/>
  </node>
  <node id="-589" visible="true" lat="44.72636583" lon="-72.36124458">
    <tag k="addr:city" v="Albany"/>
    <tag k="addr:housenumber" v="816"/>
    <tag k="addr:street" v="Center Road"/>
    <tag k="addr:state" v="VT"/>
    <tag k="ref:vcgi:esiteid" v="1674"/>
  </node>
  <node id="-593" visible="true" lat="44.75168363" lon="-72.334545">
    <tag k="addr:city" v="Albany"/>
    <tag k="addr:housenumber" v="1608"/>
    <tag k="addr:street" v="Delano Road"/>
    <tag k="addr:state" v="VT"/>
    <tag k="ref:vcgi:esiteid" v="1678"/>
  </node>
  <node id="-594" visible="true" lat="44.69419394" lon="-72.31039857">
    <tag k="addr:city" v="Albany"/>
    <tag k="addr:housenumber" v="2710"/>
    <tag k="addr:street" v="Centebar Road"/>
    <tag k="addr:state" v="VT"/>
    <tag k="ref:vcgi:esiteid" v="1679"/>
  </node>
  <node id="-597" visible="true" lat="44.7429746" lon="-72.30870777">
    <tag k="addr:city" v="Albany"/>
    <tag k="addr:housenumber" v="1988"/>
    <tag k="addr:street" v="Creek Road"/>
    <tag k="addr:state" v="VT"/>
    <tag k="ref:vcgi:esiteid" v="1682"/>
  </node>
  <node id="-600" visible="true" lat="44.77752285" lon="-72.33983226">
    <tag k="addr:city" v="Albany"/>
    <tag k="addr:housenumber" v="1094"/>
    <tag k="addr:street" v="Bonneau Drive"/>
    <tag k="addr:state" v="VT"/>
    <tag k="ref:vcgi:esiteid" v="1685"/>
  </node>
  <node id="-601" visible="true" lat="44.76773858" lon="-72.36303403">
    <tag k="addr:city" v="Albany"/>
    <tag k="addr:housenumber" v="1066"/>
    <tag k="addr:street" v="Burbank Road"/>
    <tag k="addr:state" v="VT"/>
    <tag k="ref:vcgi:esiteid" v="1686"/>
  </node>
  <node id="-602" visible="true" lat="44.73697442" lon="-72.29251444">
    <tag k="addr:city" v="Albany"/>
    <tag k="addr:housenumber" v="1323"/>
    <tag k="addr:street" v="Barton Road"/>
    <tag k="addr:state" v="VT"/>
    <tag k="ref:vcgi:esiteid" v="1688"/>
  </node>
  <node id="-604" visible="true" lat="44.73976999" lon="-72.31145795">
    <tag k="addr:city" v="Albany"/>
    <tag k="addr:housenumber" v="2196"/>
    <tag k="addr:street" v="Creek Road"/>
    <tag k="addr:state" v="VT"/>
    <tag k="ref:vcgi:esiteid" v="1690"/>
  </node>
  <node id="-608" visible="true" lat="44.72435283" lon="-72.39740673">
    <tag k="addr:city" v="Albany"/>
    <tag k="addr:housenumber" v="1257"/>
    <tag k="addr:street" v="Bailey Hazen Road West"/>
    <tag k="addr:state" v="VT"/>
    <tag k="ref:vcgi:esiteid" v="1694"/>
  </node>
  <node id="-609" visible="true" lat="44.75443872" lon="-72.35804604">
    <tag k="addr:city" v="Albany"/>
    <tag k="addr:housenumber" v="222"/>
    <tag k="addr:street" v="Vance Road West"/>
    <tag k="addr:state" v="VT"/>
    <tag k="ref:vcgi:esiteid" v="1695"/>
  </node>
  <node id="-610" visible="true" lat="44.70355479" lon="-72.3919783">
    <tag k="addr:city" v="Albany"/>
    <tag k="addr:housenumber" v="1758"/>
    <tag k="addr:street" v="Vermont Route 14 South"/>
    <tag k="addr:state" v="VT"/>
    <tag k="ref:vcgi:esiteid" v="1696"/>
  </node>
  <node id="-615" visible="true" lat="44.75040525" lon="-72.25497725">
    <tag k="addr:city" v="Albany"/>
    <tag k="addr:housenumber" v="2318"/>
    <tag k="addr:street" v="East Albany Road"/>
    <tag k="addr:state" v="VT"/>
    <tag k="ref:vcgi:esiteid" v="15648"/>
  </node>
  <node id="-616" visible="true" lat="44.73393384" lon="-72.37740381">
    <tag k="addr:city" v="Albany"/>
    <tag k="addr:housenumber" v="609"/>
    <tag k="addr:street" v="Main Street"/>
    <tag k="addr:state" v="VT"/>
    <tag k="ref:vcgi:esiteid" v="60458"/>
  </node>
  <node id="-617" visible="true" lat="44.76362444" lon="-72.34642173">
    <tag k="addr:city" v="Albany"/>
    <tag k="addr:housenumber" v="1736"/>
    <tag k="addr:street" v="Vermont Route 14 North"/>
    <tag k="addr:state" v="VT"/>
    <tag k="ref:vcgi:esiteid" v="306687"/>
  </node>
  <node id="-619" visible="true" lat="44.72659531" lon="-72.32161161">
    <tag k="addr:city" v="Albany"/>
    <tag k="addr:housenumber" v="3272"/>
    <tag k="addr:street" v="Creek Road"/>
    <tag k="addr:state" v="VT"/>
    <tag k="ref:vcgi:esiteid" v="311708"/>
  </node>
  <node id="-620" visible="true" lat="44.73546031" lon="-72.37530311">
    <tag k="addr:city" v="Albany"/>
    <tag k="addr:housenumber" v="481"/>
    <tag k="addr:street" v="Main Street"/>
    <tag k="addr:state" v="VT"/>
    <tag k="ref:vcgi:esiteid" v="312180"/>
  </node>
  <node id="-623" visible="true" lat="44.75979316" lon="-72.35925699">
    <tag k="addr:city" v="Albany"/>
    <tag k="addr:housenumber" v="2350"/>
    <tag k="addr:street" v="Vermont Route 14 North"/>
    <tag k="addr:state" v="VT"/>
    <tag k="ref:vcgi:esiteid" v="324351"/>
  </node>
  <node id="-624" visible="true" lat="44.74641275" lon="-72.30504088">
    <tag k="addr:city" v="Albany"/>
    <tag k="addr:housenumber" v="1617"/>
    <tag k="addr:street" v="Creek Road"/>
    <tag k="addr:state" v="VT"/>
    <tag k="ref:vcgi:esiteid" v="324753"/>
  </node>
  <node id="-625" visible="true" lat="44.70450282" lon="-72.29207557">
    <tag k="addr:city" v="Albany"/>
    <tag k="addr:housenumber" v="410"/>
    <tag k="addr:street" v="Andersonville Road"/>
    <tag k="addr:state" v="VT"/>
    <tag k="ref:vcgi:esiteid" v="325746"/>
  </node>
  <node id="-626" visible="true" lat="44.75737584" lon="-72.36522101">
    <tag k="addr:city" v="Albany"/>
    <tag k="addr:housenumber" v="404"/>
    <tag k="addr:street" v="Shuteville Road"/>
    <tag k="addr:state" v="VT"/>
    <tag k="ref:vcgi:esiteid" v="326226"/>
  </node>
  <node id="-627" visible="true" lat="44.736638" lon="-72.37739911">
    <tag k="addr:city" v="Albany"/>
    <tag k="addr:housenumber" v="439"/>
    <tag k="addr:street" v="Main Street"/>
    <tag k="addr:state" v="VT"/>
    <tag k="ref:vcgi:esiteid" v="326340"/>
  </node>
  <node id="-628" visible="true" lat="44.68877628" lon="-72.31328292">
    <tag k="addr:city" v="Albany"/>
    <tag k="addr:housenumber" v="1724"/>
    <tag k="addr:street" v="South Albany Road"/>
    <tag k="addr:state" v="VT"/>
    <tag k="ref:vcgi:esiteid" v="326464"/>
  </node>
  <node id="-629" visible="true" lat="44.77135799" lon="-72.33070081">
    <tag k="addr:city" v="Albany"/>
    <tag k="addr:housenumber" v="63"/>
    <tag k="addr:street" v="Bonneau Drive"/>
    <tag k="addr:state" v="VT"/>
    <tag k="ref:vcgi:esiteid" v="326552"/>
  </node>
  <node id="-631" visible="true" lat="44.77544447" lon="-72.31987908">
    <tag k="addr:city" v="Albany"/>
    <tag k="addr:housenumber" v="136"/>
    <tag k="addr:street" v="Vermont Route 14 North"/>
    <tag k="addr:state" v="VT"/>
    <tag k="ref:vcgi:esiteid" v="331888"/>
  </node>
  <node id="-632" visible="true" lat="44.72374932" lon="-72.27496935">
    <tag k="addr:city" v="Albany"/>
    <tag k="addr:housenumber" v="3088"/>
    <tag k="addr:street" v="County Road"/>
    <tag k="addr:state" v="VT"/>
    <tag k="ref:vcgi:esiteid" v="332441"/>
  </node>
  <node id="-633" visible="true" lat="44.74082941" lon="-72.31082707">
    <tag k="addr:city" v="Albany"/>
    <tag k="addr:housenumber" v="2110"/>
    <tag k="addr:street" v="Creek Road"/>
    <tag k="addr:state" v="VT"/>
    <tag k="ref:vcgi:esiteid" v="333188"/>
  </node>
  <node id="-634" visible="true" lat="44.69783682" lon="-72.32912852">
    <tag k="addr:city" v="Albany"/>
    <tag k="addr:housenumber" v="509"/>
    <tag k="addr:street" v="South Albany Road"/>
    <tag k="addr:state" v="VT"/>
    <tag k="ref:vcgi:esiteid" v="333976"/>
  </node>
  <node id="-636" visible="true" lat="44.76159008" lon="-72.28312495">
    <tag k="addr:city" v="Albany"/>
    <tag k="addr:housenumber" v="105"/>
    <tag k="addr:street" v="Aughenrong Drive"/>
    <tag k="addr:state" v="VT"/>
    <tag k="ref:vcgi:esiteid" v="336433"/>
  </node>
  <node id="-637" visible="true" lat="44.72792976" lon="-72.31320256">
    <tag k="addr:city" v="Albany"/>
    <tag k="addr:housenumber" v="132"/>
    <tag k="addr:street" v="Centebar Road"/>
    <tag k="addr:state" v="VT"/>
    <tag k="ref:vcgi:esiteid" v="336949"/>
  </node>
  <node id="-638" visible="true" lat="44.76141469" lon="-72.35493303">
    <tag k="addr:city" v="Albany"/>
    <tag k="addr:housenumber" v="110"/>
    <tag k="addr:street" v="Chicoine Drive"/>
    <tag k="addr:state" v="VT"/>
    <tag k="ref:vcgi:esiteid" v="337253"/>
  </node>
  <node id="-640" visible="true" lat="44.76774551" lon="-72.34106293">
    <tag k="addr:city" v="Albany"/>
    <tag k="addr:housenumber" v="53"/>
    <tag k="addr:street" v="Pray Drive"/>
    <tag k="addr:state" v="VT"/>
    <tag k="ref:vcgi:esiteid" v="337954"/>
  </node>
  <node id="-641" visible="true" lat="44.69700269" lon="-72.30517789">
    <tag k="addr:city" v="Albany"/>
    <tag k="addr:housenumber" v="526"/>
    <tag k="addr:street" v="Hartwell Pond Road"/>
    <tag k="addr:state" v="VT"/>
    <tag k="ref:vcgi:esiteid" v="338357"/>
  </node>
  <node id="-642" visible="true" lat="44.70390468" lon="-72.29473178">
    <tag k="addr:city" v="Albany"/>
    <tag k="addr:housenumber" v="1234"/>
    <tag k="addr:street" v="Hartwell Pond Road"/>
    <tag k="addr:state" v="VT"/>
    <tag k="ref:vcgi:esiteid" v="338658"/>
  </node>
  <node id="-643" visible="true" lat="44.72184721" lon="-72.36259477">
    <tag k="addr:city" v="Albany"/>
    <tag k="addr:housenumber" v="433"/>
    <tag k="addr:street" v="Center Road"/>
    <tag k="addr:state" v="VT"/>
    <tag k="ref:vcgi:esiteid" v="339864"/>
  </node>
  <node id="-644" visible="true" lat="44.76278968" lon="-72.29156984">
    <tag k="addr:city" v="Albany"/>
    <tag k="addr:housenumber" v="209"/>
    <tag k="addr:street" v="Wells Road"/>
    <tag k="addr:state" v="VT"/>
    <tag k="ref:vcgi:esiteid" v="340670"/>
  </node>
  <node id="-645" visible="true" lat="44.75320372" lon="-72.35786299">
    <tag k="addr:city" v="Albany"/>
    <tag k="addr:housenumber" v="260"/>
    <tag k="addr:street" v="Vance Road West"/>
    <tag k="addr:state" v="VT"/>
    <tag k="ref:vcgi:esiteid" v="340776"/>
  </node>
  <node id="-646" visible="true" lat="44.77804551" lon="-72.334081">
    <tag k="addr:city" v="Albany"/>
    <tag k="addr:housenumber" v="187"/>
    <tag k="addr:street" v="Maxfield Drive"/>
    <tag k="addr:state" v="VT"/>
    <tag k="ref:vcgi:esiteid" v="340838"/>
  </node>
  <node id="-647" visible="true" lat="44.74847957" lon="-72.30442829">
    <tag k="addr:city" v="Albany"/>
    <tag k="addr:housenumber" v="1468"/>
    <tag k="addr:street" v="Creek Road"/>
    <tag k="addr:state" v="VT"/>
    <tag k="ref:vcgi:esiteid" v="341445"/>
  </node>
  <node id="-649" visible="true" lat="44.75977134" lon="-72.3329185">
    <tag k="addr:city" v="Albany"/>
    <tag k="addr:housenumber" v="918"/>
    <tag k="addr:street" v="Delano Road"/>
    <tag k="addr:state" v="VT"/>
    <tag k="ref:vcgi:esiteid" v="341772"/>
  </node>
  <node id="-650" visible="true" lat="44.76229977" lon="-72.33804236">
    <tag k="addr:city" v="Albany"/>
    <tag k="addr:housenumber" v="920"/>
    <tag k="addr:street" v="Delano Road"/>
    <tag k="addr:state" v="VT"/>
    <tag k="ref:vcgi:esiteid" v="341773"/>
  </node>
  <node id="-651" visible="true" lat="44.74964519" lon="-72.33511793">
    <tag k="addr:city" v="Albany"/>
    <tag k="addr:housenumber" v="1793"/>
    <tag k="addr:street" v="Delano Road"/>
    <tag k="addr:state" v="VT"/>
    <tag k="ref:vcgi:esiteid" v="342249"/>
  </node>
  <node id="-653" visible="true" lat="44.77597752" lon="-72.34088303">
    <tag k="addr:city" v="Albany"/>
    <tag k="addr:housenumber" v="893"/>
    <tag k="addr:street" v="Bonneau Drive"/>
    <tag k="addr:state" v="VT"/>
    <tag k="ref:vcgi:esiteid" v="342740"/>
  </node>
  <node id="-654" visible="true" lat="44.69773231" lon="-72.35724897">
    <tag k="addr:city" v="Albany"/>
    <tag k="addr:housenumber" v="178"/>
    <tag k="addr:street" v="Waterfront Lane"/>
    <tag k="addr:state" v="VT"/>
    <tag k="ref:vcgi:esiteid" v="343362"/>
  </node>
  <node id="-655" visible="true" lat="44.69738518" lon="-72.35589742">
    <tag k="addr:city" v="Albany"/>
    <tag k="addr:housenumber" v="274"/>
    <tag k="addr:street" v="Hosmer Point Lane"/>
    <tag k="addr:state" v="VT"/>
    <tag k="ref:vcgi:esiteid" v="343363"/>
  </node>
  <node id="-656" visible="true" lat="44.69712876" lon="-72.35413444">
    <tag k="addr:city" v="Albany"/>
    <tag k="addr:housenumber" v="32"/>
    <tag k="addr:street" v="Hosmer Point Lane"/>
    <tag k="addr:state" v="VT"/>
    <tag k="ref:vcgi:esiteid" v="343364"/>
  </node>
  <node id="-657" visible="true" lat="44.69652289" lon="-72.35434613">
    <tag k="addr:city" v="Albany"/>
    <tag k="addr:housenumber" v="21"/>
    <tag k="addr:street" v="Hosmer Point Lane"/>
    <tag k="addr:state" v="VT"/>
    <tag k="ref:vcgi:esiteid" v="343365"/>
  </node>
  <node id="-658" visible="true" lat="44.69890242" lon="-72.35481535">
    <tag k="addr:city" v="Albany"/>
    <tag k="addr:housenumber" v="162"/>
    <tag k="addr:street" v="Hosmer Point Lane"/>
    <tag k="addr:state" v="VT"/>
    <tag k="ref:vcgi:esiteid" v="343366"/>
  </node>
  <node id="-660" visible="true" lat="44.755549" lon="-72.35839246">
    <tag k="addr:city" v="Albany"/>
    <tag k="addr:housenumber" v="151"/>
    <tag k="addr:street" v="Vance Road West"/>
    <tag k="addr:state" v="VT"/>
    <tag k="ref:vcgi:esiteid" v="345154"/>
  </node>
  <node id="-663" visible="true" lat="44.69884557" lon="-72.35661369">
    <tag k="addr:city" v="Albany"/>
    <tag k="addr:housenumber" v="91"/>
    <tag k="addr:street" v="Waterfront Lane"/>
    <tag k="addr:state" v="VT"/>
    <tag k="ref:vcgi:esiteid" v="445266"/>
  </node>
  <node id="-664" visible="true" lat="44.69910786" lon="-72.35691684">
    <tag k="addr:city" v="Albany"/>
    <tag k="addr:housenumber" v="98"/>
    <tag k="addr:street" v="Waterfront Lane"/>
    <tag k="addr:state" v="VT"/>
    <tag k="ref:vcgi:esiteid" v="445267"/>
  </node>
  <node id="-665" visible="true" lat="44.69889373" lon="-72.35704422">
    <tag k="addr:city" v="Albany"/>
    <tag k="addr:housenumber" v="100"/>
    <tag k="addr:street" v="Waterfront Lane"/>
    <tag k="addr:state" v="VT"/>
    <tag k="ref:vcgi:esiteid" v="445268"/>
  </node>
  <node id="-666" visible="true" lat="44.69832718" lon="-72.35715244">
    <tag k="addr:city" v="Albany"/>
    <tag k="addr:housenumber" v="132"/>
    <tag k="addr:street" v="Waterfront Lane"/>
    <tag k="addr:state" v="VT"/>
    <tag k="ref:vcgi:esiteid" v="445269"/>
  </node>
  <node id="-667" visible="true" lat="44.69849383" lon="-72.35713868">
    <tag k="addr:city" v="Albany"/>
    <tag k="addr:housenumber" v="120"/>
    <tag k="addr:street" v="Waterfront Lane"/>
    <tag k="addr:state" v="VT"/>
    <tag k="ref:vcgi:esiteid" v="445270"/>
  </node>
  <node id="-668" visible="true" lat="44.69884155" lon="-72.35721127">
    <tag k="addr:city" v="Albany"/>
    <tag k="addr:housenumber" v="108"/>
    <tag k="addr:street" v="Waterfront Lane"/>
    <tag k="addr:state" v="VT"/>
    <tag k="ref:vcgi:esiteid" v="445271"/>
  </node>
  <node id="-669" visible="true" lat="44.69902265" lon="-72.35732433">
    <tag k="addr:city" v="Albany"/>
    <tag k="addr:housenumber" v="102"/>
    <tag k="addr:street" v="Waterfront Lane"/>
    <tag k="addr:state" v="VT"/>
    <tag k="ref:vcgi:esiteid" v="445272"/>
  </node>
  <node id="-670" visible="true" lat="44.6986889" lon="-72.35699799">
    <tag k="addr:city" v="Albany"/>
    <tag k="addr:housenumber" v="110"/>
    <tag k="addr:street" v="Waterfront Lane"/>
    <tag k="addr:state" v="VT"/>
    <tag k="ref:vcgi:esiteid" v="445273"/>
  </node>
  <node id="-671" visible="true" lat="44.69852214" lon="-72.35692496">
    <tag k="addr:city" v="Albany"/>
    <tag k="addr:housenumber" v="118"/>
    <tag k="addr:street" v="Waterfront Lane"/>
    <tag k="addr:state" v="VT"/>
    <tag k="ref:vcgi:esiteid" v="445274"/>
  </node>
  <node id="-672" visible="true" lat="44.6975175" lon="-72.35704761">
    <tag k="addr:city" v="Albany"/>
    <tag k="addr:housenumber" v="170"/>
    <tag k="addr:street" v="Waterfront Lane"/>
    <tag k="addr:state" v="VT"/>
    <tag k="ref:vcgi:esiteid" v="445275"/>
  </node>
  <node id="-673" visible="true" lat="44.69752259" lon="-72.35730798">
    <tag k="addr:city" v="Albany"/>
    <tag k="addr:housenumber" v="190"/>
    <tag k="addr:street" v="Waterfront Lane"/>
    <tag k="addr:state" v="VT"/>
    <tag k="ref:vcgi:esiteid" v="445276"/>
  </node>
  <node id="-674" visible="true" lat="44.69720356" lon="-72.35732879">
    <tag k="addr:city" v="Albany"/>
    <tag k="addr:housenumber" v="204"/>
    <tag k="addr:street" v="Waterfront Lane"/>
    <tag k="addr:state" v="VT"/>
    <tag k="ref:vcgi:esiteid" v="445277"/>
  </node>
  <node id="-675" visible="true" lat="44.69712747" lon="-72.35741577">
    <tag k="addr:city" v="Albany"/>
    <tag k="addr:housenumber" v="206"/>
    <tag k="addr:street" v="Waterfront Lane"/>
    <tag k="addr:state" v="VT"/>
    <tag k="ref:vcgi:esiteid" v="445278"/>
  </node>
  <node id="-676" visible="true" lat="44.69701768" lon="-72.3572024">
    <tag k="addr:city" v="Albany"/>
    <tag k="addr:housenumber" v="218"/>
    <tag k="addr:street" v="Waterfront Lane"/>
    <tag k="addr:state" v="VT"/>
    <tag k="ref:vcgi:esiteid" v="445280"/>
  </node>
  <node id="-677" visible="true" lat="44.69623643" lon="-72.35603484">
    <tag k="addr:city" v="Albany"/>
    <tag k="addr:housenumber" v="278"/>
    <tag k="addr:street" v="Waterfront Lane"/>
    <tag k="addr:state" v="VT"/>
    <tag k="ref:vcgi:esiteid" v="445281"/>
  </node>
  <node id="-678" visible="true" lat="44.69807324" lon="-72.35358108">
    <tag k="addr:city" v="Albany"/>
    <tag k="addr:housenumber" v="110"/>
    <tag k="addr:street" v="Hosmer Point Lane"/>
    <tag k="addr:state" v="VT"/>
    <tag k="ref:vcgi:esiteid" v="445282"/>
  </node>
  <node id="-679" visible="true" lat="44.69819919" lon="-72.3552566">
    <tag k="addr:city" v="Albany"/>
    <tag k="addr:housenumber" v="209"/>
    <tag k="addr:street" v="Hosmer Point Lane"/>
    <tag k="addr:state" v="VT"/>
    <tag k="ref:vcgi:esiteid" v="445283"/>
  </node>
  <node id="-680" visible="true" lat="44.69775244" lon="-72.35595207">
    <tag k="addr:city" v="Albany"/>
    <tag k="addr:housenumber" v="250"/>
    <tag k="addr:street" v="Hosmer Point Lane"/>
    <tag k="addr:state" v="VT"/>
    <tag k="ref:vcgi:esiteid" v="445284"/>
  </node>
  <node id="-681" visible="true" lat="44.69763824" lon="-72.3560258">
    <tag k="addr:city" v="Albany"/>
    <tag k="addr:housenumber" v="254"/>
    <tag k="addr:street" v="Hosmer Point Lane"/>
    <tag k="addr:state" v="VT"/>
    <tag k="ref:vcgi:esiteid" v="445285"/>
  </node>
  <node id="-682" visible="true" lat="44.69913599" lon="-72.35799172">
    <tag k="addr:city" v="Albany"/>
    <tag k="addr:housenumber" v="131"/>
    <tag k="addr:street" v="Point Lane"/>
    <tag k="addr:state" v="VT"/>
    <tag k="ref:vcgi:esiteid" v="445286"/>
  </node>
  <node id="-683" visible="true" lat="44.6990551" lon="-72.35804533">
    <tag k="addr:city" v="Albany"/>
    <tag k="addr:housenumber" v="137"/>
    <tag k="addr:street" v="Point Lane"/>
    <tag k="addr:state" v="VT"/>
    <tag k="ref:vcgi:esiteid" v="445287"/>
  </node>
  <node id="-684" visible="true" lat="44.69893618" lon="-72.35815245">
    <tag k="addr:city" v="Albany"/>
    <tag k="addr:housenumber" v="147"/>
    <tag k="addr:street" v="Point Lane"/>
    <tag k="addr:state" v="VT"/>
    <tag k="ref:vcgi:esiteid" v="445288"/>
  </node>
  <node id="-685" visible="true" lat="44.69869826" lon="-72.35829992">
    <tag k="addr:city" v="Albany"/>
    <tag k="addr:housenumber" v="165"/>
    <tag k="addr:street" v="Point Lane"/>
    <tag k="addr:state" v="VT"/>
    <tag k="ref:vcgi:esiteid" v="445289"/>
  </node>
  <node id="-686" visible="true" lat="44.6988369" lon="-72.35873356">
    <tag k="addr:city" v="Albany"/>
    <tag k="addr:housenumber" v="164"/>
    <tag k="addr:street" v="Point Lane"/>
    <tag k="addr:state" v="VT"/>
    <tag k="ref:vcgi:esiteid" v="445290"/>
  </node>
  <node id="-687" visible="true" lat="44.69860791" lon="-72.35840029">
    <tag k="addr:city" v="Albany"/>
    <tag k="addr:housenumber" v="173"/>
    <tag k="addr:street" v="Point Lane"/>
    <tag k="addr:state" v="VT"/>
    <tag k="ref:vcgi:esiteid" v="445291"/>
  </node>
  <node id="-688" visible="true" lat="44.69839385" lon="-72.35858776">
    <tag k="addr:city" v="Albany"/>
    <tag k="addr:housenumber" v="185"/>
    <tag k="addr:street" v="Point Lane"/>
    <tag k="addr:state" v="VT"/>
    <tag k="ref:vcgi:esiteid" v="445292"/>
  </node>
  <node id="-689" visible="true" lat="44.69825596" lon="-72.35875501">
    <tag k="addr:city" v="Albany"/>
    <tag k="addr:housenumber" v="191"/>
    <tag k="addr:street" v="Point Lane"/>
    <tag k="addr:state" v="VT"/>
    <tag k="ref:vcgi:esiteid" v="445293"/>
  </node>
  <node id="-690" visible="true" lat="44.69818467" lon="-72.35887536">
    <tag k="addr:city" v="Albany"/>
    <tag k="addr:housenumber" v="193"/>
    <tag k="addr:street" v="Point Lane"/>
    <tag k="addr:state" v="VT"/>
    <tag k="ref:vcgi:esiteid" v="445294"/>
  </node>
  <node id="-691" visible="true" lat="44.6981133" lon="-72.35892227">
    <tag k="addr:city" v="Albany"/>
    <tag k="addr:housenumber" v="195"/>
    <tag k="addr:street" v="Point Lane"/>
    <tag k="addr:state" v="VT"/>
    <tag k="ref:vcgi:esiteid" v="445295"/>
  </node>
  <node id="-692" visible="true" lat="44.69814696" lon="-72.35918257">
    <tag k="addr:city" v="Albany"/>
    <tag k="addr:housenumber" v="196"/>
    <tag k="addr:street" v="Point Lane"/>
    <tag k="addr:state" v="VT"/>
    <tag k="ref:vcgi:esiteid" v="445296"/>
  </node>
  <node id="-693" visible="true" lat="44.69837994" lon="-72.35889491">
    <tag k="addr:city" v="Albany"/>
    <tag k="addr:housenumber" v="192"/>
    <tag k="addr:street" v="Point Lane"/>
    <tag k="addr:state" v="VT"/>
    <tag k="ref:vcgi:esiteid" v="445297"/>
  </node>
  <node id="-694" visible="true" lat="44.69846078" lon="-72.35880125">
    <tag k="addr:city" v="Albany"/>
    <tag k="addr:housenumber" v="188"/>
    <tag k="addr:street" v="Point Lane"/>
    <tag k="addr:state" v="VT"/>
    <tag k="ref:vcgi:esiteid" v="445298"/>
  </node>
  <node id="-695" visible="true" lat="44.69851304" lon="-72.35870097">
    <tag k="addr:city" v="Albany"/>
    <tag k="addr:housenumber" v="184"/>
    <tag k="addr:street" v="Point Lane"/>
    <tag k="addr:state" v="VT"/>
    <tag k="ref:vcgi:esiteid" v="445299"/>
  </node>
  <node id="-696" visible="true" lat="44.69867978" lon="-72.35876065">
    <tag k="addr:city" v="Albany"/>
    <tag k="addr:housenumber" v="172"/>
    <tag k="addr:street" v="Point Lane"/>
    <tag k="addr:state" v="VT"/>
    <tag k="ref:vcgi:esiteid" v="445300"/>
  </node>
  <node id="-697" visible="true" lat="44.6969196" lon="-72.35730947">
    <tag k="addr:city" v="Albany"/>
    <tag k="addr:housenumber" v="216"/>
    <tag k="addr:street" v="Waterfront Lane"/>
    <tag k="addr:state" v="VT"/>
    <tag k="ref:vcgi:esiteid" v="445301"/>
  </node>
  <node id="-699" visible="true" lat="44.77820362" lon="-72.32546801">
    <tag k="addr:city" v="Albany"/>
    <tag k="addr:housenumber" v="710"/>
    <tag k="addr:street" v="Maxfield Drive"/>
    <tag k="addr:state" v="VT"/>
    <tag k="ref:vcgi:esiteid" v="448924"/>
  </node>
  <node id="-700" visible="true" lat="44.76680184" lon="-72.34449113">
    <tag k="addr:city" v="Albany"/>
    <tag k="addr:housenumber" v="334"/>
    <tag k="addr:street" v="Pray Drive"/>
    <tag k="addr:state" v="VT"/>
    <tag k="ref:vcgi:esiteid" v="448926"/>
  </node>
  <node id="-702" visible="true" lat="44.75923813" lon="-72.39020512">
    <tag k="addr:city" v="Albany"/>
    <tag k="addr:housenumber" v="1449"/>
    <tag k="addr:street" v="Dyer Road"/>
    <tag k="addr:state" v="VT"/>
    <tag k="ref:vcgi:esiteid" v="448930"/>
  </node>
  <node id="-703" visible="true" lat="44.75339014" lon="-72.38676139">
    <tag k="addr:city" v="Albany"/>
    <tag k="addr:housenumber" v="932"/>
    <tag k="addr:street" v="Dyer Road"/>
    <tag k="addr:state" v="VT"/>
    <tag k="ref:vcgi:esiteid" v="448932"/>
  </node>
  <node id="-704" visible="true" lat="44.74779294" lon="-72.37684942">
    <tag k="addr:city" v="Albany"/>
    <tag k="addr:housenumber" v="374"/>
    <tag k="addr:street" v="Dyer Road"/>
    <tag k="addr:state" v="VT"/>
    <tag k="ref:vcgi:esiteid" v="448933"/>
  </node>
  <node id="-705" visible="true" lat="44.74115776" lon="-72.35962127">
    <tag k="addr:city" v="Albany"/>
    <tag k="addr:housenumber" v="773"/>
    <tag k="addr:street" v="Town Farm Road West"/>
    <tag k="addr:state" v="VT"/>
    <tag k="ref:vcgi:esiteid" v="448934"/>
  </node>
  <node id="-706" visible="true" lat="44.74073797" lon="-72.3939071">
    <tag k="addr:city" v="Albany"/>
    <tag k="addr:housenumber" v="651"/>
    <tag k="addr:street" v="Goddard Lot Road"/>
    <tag k="addr:state" v="VT"/>
    <tag k="ref:vcgi:esiteid" v="448935"/>
  </node>
  <node id="-707" visible="true" lat="44.7224607" lon="-72.37053789">
    <tag k="addr:city" v="Albany"/>
    <tag k="addr:housenumber" v="523"/>
    <tag k="addr:street" v="Hitchcock Hill Road"/>
    <tag k="addr:state" v="VT"/>
    <tag k="ref:vcgi:esiteid" v="448936"/>
  </node>
  <node id="-709" visible="true" lat="44.70332827" lon="-72.29257172">
    <tag k="addr:city" v="Albany"/>
    <tag k="addr:housenumber" v="408"/>
    <tag k="addr:street" v="Andersonville Road"/>
    <tag k="addr:state" v="VT"/>
    <tag k="ref:vcgi:esiteid" v="448952"/>
  </node>
  <node id="-710" visible="true" lat="44.76153174" lon="-72.36813816">
    <tag k="addr:city" v="Albany"/>
    <tag k="addr:housenumber" v="546"/>
    <tag k="addr:street" v="Shuteville Road"/>
    <tag k="addr:state" v="VT"/>
    <tag k="ref:vcgi:esiteid" v="449294"/>
  </node>
  <node id="-712" visible="true" lat="44.71356127" lon="-72.36331929">
    <tag k="addr:city" v="Albany"/>
    <tag k="addr:housenumber" v="272"/>
    <tag k="addr:street" v="Page Pond Road"/>
    <tag k="addr:state" v="VT"/>
    <tag k="ref:vcgi:esiteid" v="451445"/>
  </node>
  <node id="-713" visible="true" lat="44.7331201" lon="-72.34085279">
    <tag k="addr:city" v="Albany"/>
    <tag k="addr:housenumber" v="526"/>
    <tag k="addr:street" v="Daniels Road West"/>
    <tag k="addr:state" v="VT"/>
    <tag k="ref:vcgi:esiteid" v="452770"/>
  </node>
  <node id="-714" visible="true" lat="44.74469194" lon="-72.28472181">
    <tag k="addr:city" v="Albany"/>
    <tag k="addr:housenumber" v="1399"/>
    <tag k="addr:street" v="Kingdom Road"/>
    <tag k="addr:state" v="VT"/>
    <tag k="ref:vcgi:esiteid" v="452809"/>
  </node>
  <node id="-715" visible="true" lat="44.75510724" lon="-72.33453728">
    <tag k="addr:city" v="Albany"/>
    <tag k="addr:housenumber" v="1318"/>
    <tag k="addr:street" v="Delano Road"/>
    <tag k="addr:state" v="VT"/>
    <tag k="ref:vcgi:esiteid" v="453051"/>
  </node>
  <node id="-717" visible="true" lat="44.71803407" lon="-72.36335888">
    <tag k="addr:city" v="Albany"/>
    <tag k="addr:housenumber" v="431"/>
    <tag k="addr:street" v="Center Road"/>
    <tag k="addr:state" v="VT"/>
    <tag k="ref:vcgi:esiteid" v="454236"/>
  </node>
  <node id="-719" visible="true" lat="44.71873224" lon="-72.39820275">
    <tag k="addr:city" v="Albany"/>
    <tag k="addr:housenumber" v="405"/>
    <tag k="addr:street" v="Bailey Hazen Road East"/>
    <tag k="addr:state" v="VT"/>
    <tag k="ref:vcgi:esiteid" v="610289"/>
  </node>
  <node id="-720" visible="true" lat="44.74113646" lon="-72.27243311">
    <tag k="addr:city" v="Albany"/>
    <tag k="addr:housenumber" v="2693"/>
    <tag k="addr:street" v="Barton Road"/>
    <tag k="addr:state" v="VT"/>
    <tag k="ref:vcgi:esiteid" v="611870"/>
  </node>
  <node id="-722" visible="true" lat="44.72765242" lon="-72.39652612">
    <tag k="addr:city" v="Albany"/>
    <tag k="addr:housenumber" v="1010"/>
    <tag k="addr:street" v="Bailey Hazen Road West"/>
    <tag k="addr:state" v="VT"/>
    <tag k="ref:vcgi:esiteid" v="612459"/>
  </node>
  <node id="-723" visible="true" lat="44.73884487" lon="-72.39417967">
    <tag k="addr:city" v="Albany"/>
    <tag k="addr:housenumber" v="401"/>
    <tag k="addr:street" v="Goddard Lot Road"/>
    <tag k="addr:state" v="VT"/>
    <tag k="ref:vcgi:esiteid" v="612460"/>
  </node>
  <node id="-724" visible="true" lat="44.73736562" lon="-72.38608485">
    <tag k="addr:city" v="Albany"/>
    <tag k="addr:housenumber" v="234"/>
    <tag k="addr:street" v="Goddard Lot Road"/>
    <tag k="addr:state" v="VT"/>
    <tag k="ref:vcgi:esiteid" v="612461"/>
  </node>
  <node id="-725" visible="true" lat="44.73413891" lon="-72.37859678">
    <tag k="addr:city" v="Albany"/>
    <tag k="addr:housenumber" v="615"/>
    <tag k="addr:street" v="Main Street"/>
    <tag k="addr:state" v="VT"/>
    <tag k="ref:vcgi:esiteid" v="612726"/>
  </node>
  <node id="-726" visible="true" lat="44.74837116" lon="-72.36831347">
    <tag k="addr:city" v="Albany"/>
    <tag k="addr:housenumber" v="3275"/>
    <tag k="addr:street" v="Vermont Route 14 North"/>
    <tag k="addr:state" v="VT"/>
    <tag k="ref:vcgi:esiteid" v="617179"/>
  </node>
  <node id="-727" visible="true" lat="44.7337536" lon="-72.37893933">
    <tag k="addr:city" v="Albany"/>
    <tag k="addr:housenumber" v="640"/>
    <tag k="addr:street" v="Main Street"/>
    <tag k="addr:state" v="VT"/>
    <tag k="ref:vcgi:esiteid" v="617333"/>
  </node>
  <node id="-728" visible="true" lat="44.74469759" lon="-72.39161657">
    <tag k="addr:city" v="Albany"/>
    <tag k="addr:housenumber" v="693"/>
    <tag k="addr:street" v="Goddard Lot Road"/>
    <tag k="addr:state" v="VT"/>
    <tag k="ref:vcgi:esiteid" v="618090"/>
  </node>
  <node id="-729" visible="true" lat="44.77232763" lon="-72.33443201">
    <tag k="addr:city" v="Albany"/>
    <tag k="addr:housenumber" v="326"/>
    <tag k="addr:street" v="Bonneau Drive"/>
    <tag k="addr:state" v="VT"/>
    <tag k="ref:vcgi:esiteid" v="618520"/>
  </node>
  <node id="-734" visible="true" lat="44.76639938" lon="-72.36558581">
    <tag k="addr:city" v="Albany"/>
    <tag k="addr:housenumber" v="846"/>
    <tag k="addr:street" v="Burbank Road"/>
    <tag k="addr:state" v="VT"/>
    <tag k="ref:vcgi:esiteid" v="618526"/>
  </node>
  <node id="-750" visible="true" lat="44.73863063" lon="-72.27732995">
    <tag k="addr:city" v="Albany"/>
    <tag k="addr:housenumber" v="2392"/>
    <tag k="addr:street" v="Barton Road"/>
    <tag k="addr:state" v="VT"/>
    <tag k="ref:vcgi:esiteid" v="618542"/>
  </node>
  <node id="-752" visible="true" lat="44.7410776" lon="-72.27942391">
    <tag k="addr:city" v="Albany"/>
    <tag k="addr:housenumber" v="2275"/>
    <tag k="addr:street" v="Barton Road"/>
    <tag k="addr:state" v="VT"/>
    <tag k="ref:vcgi:esiteid" v="618544"/>
  </node>
  <node id="-762" visible="true" lat="44.70791397" lon="-72.29048481">
    <tag k="addr:city" v="Albany"/>
    <tag k="addr:housenumber" v="1615"/>
    <tag k="addr:street" v="Hartwell Pond Road"/>
    <tag k="addr:state" v="VT"/>
    <tag k="ref:vcgi:esiteid" v="620548"/>
  </node>
  <node id="-763" visible="true" lat="44.76778879" lon="-72.34019541">
    <tag k="addr:city" v="Albany"/>
    <tag k="addr:housenumber" v="84"/>
    <tag k="addr:street" v="Pray Drive"/>
    <tag k="addr:state" v="VT"/>
    <tag k="ref:vcgi:esiteid" v="655700"/>
  </node>
  <node id="-764" visible="true" lat="44.69007344" lon="-72.31246462">
    <tag k="addr:city" v="Albany"/>
    <tag k="addr:housenumber" v="1593"/>
    <tag k="addr:street" v="South Albany Road"/>
    <tag k="addr:state" v="VT"/>
    <tag k="ref:vcgi:esiteid" v="656324"/>
  </node>
  <node id="-765" visible="true" lat="44.69686943" lon="-72.30533845">
    <tag k="addr:city" v="Albany"/>
    <tag k="addr:housenumber" v="524"/>
    <tag k="addr:street" v="Hartwell Pond Road"/>
    <tag k="addr:state" v="VT"/>
    <tag k="ref:vcgi:esiteid" v="656325"/>
  </node>
  <node id="-766" visible="true" lat="44.7484972" lon="-72.30262436">
    <tag k="addr:city" v="Albany"/>
    <tag k="addr:housenumber" v="1413"/>
    <tag k="addr:street" v="Creek Road"/>
    <tag k="addr:state" v="VT"/>
    <tag k="ref:vcgi:esiteid" v="656326"/>
  </node>
  <node id="-767" visible="true" lat="44.74584477" lon="-72.39066101">
    <tag k="addr:city" v="Albany"/>
    <tag k="addr:housenumber" v="877"/>
    <tag k="addr:street" v="Goddard Lot Road"/>
    <tag k="addr:state" v="VT"/>
    <tag k="ref:vcgi:esiteid" v="752716"/>
  </node>
  <node id="-768" visible="true" lat="44.71086013" lon="-72.35927394">
    <tag k="addr:city" v="Albany"/>
    <tag k="addr:housenumber" v="458"/>
    <tag k="addr:street" v="Page Pond Road"/>
    <tag k="addr:state" v="VT"/>
    <tag k="ref:vcgi:esiteid" v="753217"/>
  </node>
  <node id="-769" visible="true" lat="44.75603502" lon="-72.35934062">
    <tag k="addr:city" v="Albany"/>
    <tag k="addr:housenumber" v="85"/>
    <tag k="addr:street" v="Vance Road West"/>
    <tag k="addr:state" v="VT"/>
    <tag k="ref:vcgi:esiteid" v="753819"/>
  </node>
  <node id="-772" visible="true" lat="44.73407651" lon="-72.32391154">
    <tag k="addr:city" v="Albany"/>
    <tag k="addr:housenumber" v="351"/>
    <tag k="addr:street" v="Daniels Road East"/>
    <tag k="addr:state" v="VT"/>
    <tag k="ref:vcgi:esiteid" v="756334"/>
  </node>
  <node id="-774" visible="true" lat="44.69104202" lon="-72.35924712">
    <tag k="addr:city" v="Albany"/>
    <tag k="addr:housenumber" v="1531"/>
    <tag k="addr:street" v="Lost Nation Road"/>
    <tag k="addr:state" v="VT"/>
    <tag k="ref:vcgi:esiteid" v="756336"/>
  </node>
  <node id="-775" visible="true" lat="44.76095997" lon="-72.35333748">
    <tag k="addr:city" v="Albany"/>
    <tag k="addr:housenumber" v="2100"/>
    <tag k="addr:street" v="Vermont Route 14 North"/>
    <tag k="addr:state" v="VT"/>
    <tag k="ref:vcgi:esiteid" v="756529"/>
  </node>
  <node id="-776" visible="true" lat="44.7107401" lon="-72.3884856">
    <tag k="addr:city" v="Albany"/>
    <tag k="addr:housenumber" v="1245"/>
    <tag k="addr:street" v="Vermont Route 14 South"/>
    <tag k="addr:state" v="VT"/>
    <tag k="ref:vcgi:esiteid" v="757410"/>
  </node>
  <node id="-777" visible="true" lat="44.74088774" lon="-72.35036504">
    <tag k="addr:city" v="Albany"/>
    <tag k="addr:housenumber" v="201"/>
    <tag k="addr:street" v="Vance Road East"/>
    <tag k="addr:state" v="VT"/>
    <tag k="ref:vcgi:esiteid" v="758652"/>
  </node>
  <node id="-778" visible="true" lat="44.69532155" lon="-72.31592958">
    <tag k="addr:city" v="Albany"/>
    <tag k="addr:housenumber" v="185"/>
    <tag k="addr:street" v="Richardson Drive"/>
    <tag k="addr:state" v="VT"/>
    <tag k="ref:vcgi:esiteid" v="758653"/>
  </node>
  <node id="-779" visible="true" lat="44.76916562" lon="-72.33231477">
    <tag k="addr:city" v="Albany"/>
    <tag k="addr:housenumber" v="847"/>
    <tag k="addr:street" v="Vermont Route 14 North"/>
    <tag k="addr:state" v="VT"/>
    <tag k="ref:vcgi:esiteid" v="759082"/>
  </node>
  <node id="-781" visible="true" lat="44.71445491" lon="-72.36361238">
    <tag k="addr:city" v="Albany"/>
    <tag k="addr:housenumber" v="252"/>
    <tag k="addr:street" v="Page Pond Road"/>
    <tag k="addr:state" v="VT"/>
    <tag k="ref:vcgi:esiteid" v="760535"/>
  </node>
  <node id="-782" visible="true" lat="44.69581437" lon="-72.307842">
    <tag k="addr:city" v="Albany"/>
    <tag k="addr:housenumber" v="2575"/>
    <tag k="addr:street" v="Centebar Road"/>
    <tag k="addr:state" v="VT"/>
    <tag k="ref:vcgi:esiteid" v="760631"/>
  </node>
  <node id="-783" visible="true" lat="44.73365434" lon="-72.38143156">
    <tag k="addr:city" v="Albany"/>
    <tag k="addr:housenumber" v="616"/>
    <tag k="addr:street" v="Main Street"/>
    <tag k="addr:state" v="VT"/>
    <tag k="ref:vcgi:esiteid" v="760868"/>
  </node>
  <node id="-784" visible="true" lat="44.74345112" lon="-72.25965889">
    <tag k="addr:city" v="Albany"/>
    <tag k="addr:housenumber" v="3436"/>
    <tag k="addr:street" v="Barton Road"/>
    <tag k="addr:state" v="VT"/>
    <tag k="ref:vcgi:esiteid" v="761213"/>
  </node>
  <node id="-785" visible="true" lat="44.69734883" lon="-72.31810983">
    <tag k="addr:city" v="Albany"/>
    <tag k="addr:housenumber" v="1059"/>
    <tag k="addr:street" v="South Albany Road"/>
    <tag k="addr:state" v="VT"/>
    <tag k="ref:vcgi:esiteid" v="761287"/>
  </node>
  <node id="-786" visible="true" lat="44.77901242" lon="-72.36654178">
    <tag k="addr:city" v="Albany"/>
    <tag k="addr:housenumber" v="639"/>
    <tag k="addr:street" v="Horace Way Road"/>
    <tag k="addr:state" v="VT"/>
    <tag k="ref:vcgi:esiteid" v="761653"/>
  </node>
  <node id="-787" visible="true" lat="44.77432877" lon="-72.36533916">
    <tag k="addr:city" v="Albany"/>
    <tag k="addr:housenumber" v="320"/>
    <tag k="addr:street" v="Horace Way Road"/>
    <tag k="addr:state" v="VT"/>
    <tag k="ref:vcgi:esiteid" v="761654"/>
  </node>
  <node id="-788" visible="true" lat="44.72720779" lon="-72.3112549">
    <tag k="addr:city" v="Albany"/>
    <tag k="addr:housenumber" v="242"/>
    <tag k="addr:street" v="Centebar Road"/>
    <tag k="addr:state" v="VT"/>
    <tag k="ref:vcgi:esiteid" v="761655"/>
  </node>
  <node id="-789" visible="true" lat="44.76217135" lon="-72.30893201">
    <tag k="addr:city" v="Albany"/>
    <tag k="addr:housenumber" v="702"/>
    <tag k="addr:street" v="Chamberlin Hill Road"/>
    <tag k="addr:state" v="VT"/>
    <tag k="ref:vcgi:esiteid" v="761689"/>
  </node>
  <node id="-791" visible="true" lat="44.71434207" lon="-72.33271692">
    <tag k="addr:city" v="Albany"/>
    <tag k="addr:housenumber" v="4180"/>
    <tag k="addr:street" v="Creek Road"/>
    <tag k="addr:state" v="VT"/>
    <tag k="ref:vcgi:esiteid" v="761831"/>
  </node>
  <node id="-792" visible="true" lat="44.75735919" lon="-72.32933215">
    <tag k="addr:city" v="Albany"/>
    <tag k="addr:housenumber" v="1151"/>
    <tag k="addr:street" v="Delano Road"/>
    <tag k="addr:state" v="VT"/>
    <tag k="ref:vcgi:esiteid" v="762096"/>
  </node>
  <node id="-793" visible="true" lat="44.76009215" lon="-72.29583633">
    <tag k="addr:city" v="Albany"/>
    <tag k="addr:housenumber" v="583"/>
    <tag k="addr:street" v="Creek Road"/>
    <tag k="addr:state" v="VT"/>
    <tag k="ref:vcgi:esiteid" v="762103"/>
  </node>
  <node id="-794" visible="true" lat="44.74183504" lon="-72.3083216">
    <tag k="addr:city" v="Albany"/>
    <tag k="addr:housenumber" v="2013"/>
    <tag k="addr:street" v="Creek Road"/>
    <tag k="addr:state" v="VT"/>
    <tag k="ref:vcgi:esiteid" v="762104"/>
  </node>
  <node id="-795" visible="true" lat="44.69276769" lon="-72.33827036">
    <tag k="addr:city" v="Albany"/>
    <tag k="addr:housenumber" v="5807"/>
    <tag k="addr:street" v="Creek Road"/>
    <tag k="addr:state" v="VT"/>
    <tag k="ref:vcgi:esiteid" v="762105"/>
  </node>
  <node id="-796" visible="true" lat="44.77450506" lon="-72.31661453">
    <tag k="addr:city" v="Albany"/>
    <tag k="addr:housenumber" v="171"/>
    <tag k="addr:street" v="Vermont Route 14 North"/>
    <tag k="addr:state" v="VT"/>
    <tag k="ref:vcgi:esiteid" v="762556"/>
  </node>
  <node id="-797" visible="true" lat="44.70406148" lon="-72.38571109">
    <tag k="addr:city" v="Albany"/>
    <tag k="addr:housenumber" v="2723"/>
    <tag k="addr:street" v="Wylie Hill Road"/>
    <tag k="addr:state" v="VT"/>
    <tag k="ref:vcgi:esiteid" v="762813"/>
  </node>
  <node id="-798" visible="true" lat="44.68594225" lon="-72.30870178">
    <tag k="addr:city" v="Albany"/>
    <tag k="addr:housenumber" v="1951"/>
    <tag k="addr:street" v="South Albany Road"/>
    <tag k="addr:state" v="VT"/>
    <tag k="ref:vcgi:esiteid" v="762819"/>
  </node>
  <node id="-799" visible="true" lat="44.75424101" lon="-72.26973677">
    <tag k="addr:city" v="Albany"/>
    <tag k="addr:housenumber" v="1294"/>
    <tag k="addr:street" v="Johnson Road North"/>
    <tag k="addr:state" v="VT"/>
    <tag k="ref:vcgi:esiteid" v="763079"/>
  </node>
  <node id="-800" visible="true" lat="44.75541282" lon="-72.26991256">
    <tag k="addr:city" v="Albany"/>
    <tag k="addr:housenumber" v="1309"/>
    <tag k="addr:street" v="Johnson Road North"/>
    <tag k="addr:state" v="VT"/>
    <tag k="ref:vcgi:esiteid" v="763080"/>
  </node>
  <node id="-801" visible="true" lat="44.71326135" lon="-72.36139941">
    <tag k="addr:city" v="Albany"/>
    <tag k="addr:housenumber" v="384"/>
    <tag k="addr:street" v="Page Pond Road"/>
    <tag k="addr:state" v="VT"/>
    <tag k="ref:vcgi:esiteid" v="763320"/>
  </node>
  <node id="-803" visible="true" lat="44.71842005" lon="-72.38549676">
    <tag k="addr:city" v="Albany"/>
    <tag k="addr:housenumber" v="640"/>
    <tag k="addr:street" v="Vermont Route 14 South"/>
    <tag k="addr:state" v="VT"/>
    <tag k="ref:vcgi:esiteid" v="763322"/>
  </node>
  <node id="-804" visible="true" lat="44.71952507" lon="-72.38337064">
    <tag k="addr:city" v="Albany"/>
    <tag k="addr:housenumber" v="525"/>
    <tag k="addr:street" v="Vermont Route 14 South"/>
    <tag k="addr:state" v="VT"/>
    <tag k="ref:vcgi:esiteid" v="763323"/>
  </node>
  <node id="-805" visible="true" lat="44.71662025" lon="-72.38574074">
    <tag k="addr:city" v="Albany"/>
    <tag k="addr:housenumber" v="727"/>
    <tag k="addr:street" v="Vermont Route 14 South"/>
    <tag k="addr:state" v="VT"/>
    <tag k="ref:vcgi:esiteid" v="763324"/>
  </node>
  <node id="-806" visible="true" lat="44.71855732" lon="-72.34839452">
    <tag k="addr:city" v="Albany"/>
    <tag k="addr:housenumber" v="348"/>
    <tag k="addr:street" v="Pitkin Road South"/>
    <tag k="addr:state" v="VT"/>
    <tag k="ref:vcgi:esiteid" v="763850"/>
  </node>
  <node id="-807" visible="true" lat="44.77588362" lon="-72.33990791">
    <tag k="addr:city" v="Albany"/>
    <tag k="addr:housenumber" v="805"/>
    <tag k="addr:street" v="Bonneau Drive"/>
    <tag k="addr:state" v="VT"/>
    <tag k="ref:vcgi:esiteid" v="766344"/>
  </node>
  <node id="-808" visible="true" lat="44.76081674" lon="-72.29782192">
    <tag k="addr:city" v="Albany"/>
    <tag k="addr:housenumber" v="494"/>
    <tag k="addr:street" v="Creek Road"/>
    <tag k="addr:state" v="VT"/>
    <tag k="ref:vcgi:esiteid" v="766602"/>
  </node>
  <node id="-809" visible="true" lat="44.76069691" lon="-72.29618576">
    <tag k="addr:city" v="Albany"/>
    <tag k="addr:housenumber" v="581"/>
    <tag k="addr:street" v="Creek Road"/>
    <tag k="addr:state" v="VT"/>
    <tag k="ref:vcgi:esiteid" v="766603"/>
  </node>
  <node id="-810" visible="true" lat="44.71530961" lon="-72.36929774">
    <tag k="addr:city" v="Albany"/>
    <tag k="addr:housenumber" v="920"/>
    <tag k="addr:street" v="Hitchcock Hill Road"/>
    <tag k="addr:state" v="VT"/>
    <tag k="ref:vcgi:esiteid" v="766605"/>
  </node>
  <node id="-811" visible="true" lat="44.72997447" lon="-72.34304856">
    <tag k="addr:city" v="Albany"/>
    <tag k="addr:housenumber" v="261"/>
    <tag k="addr:street" v="Pitkin Road North"/>
    <tag k="addr:state" v="VT"/>
    <tag k="ref:vcgi:esiteid" v="767543"/>
  </node>
  <node id="-812" visible="true" lat="44.74229093" lon="-72.37543174">
    <tag k="addr:city" v="Albany"/>
    <tag k="addr:housenumber" v="11"/>
    <tag k="addr:street" v="Main Street"/>
    <tag k="addr:state" v="VT"/>
    <tag k="ref:vcgi:esiteid" v="768821"/>
  </node>
  <node id="-813" visible="true" lat="44.69567931" lon="-72.30813657">
    <tag k="addr:city" v="Albany"/>
    <tag k="addr:housenumber" v="2577"/>
    <tag k="addr:street" v="Centebar Road"/>
    <tag k="addr:state" v="VT"/>
    <tag k="ref:vcgi:esiteid" v="769377"/>
  </node>
  <node id="-814" visible="true" lat="44.75324532" lon="-72.31522385">
    <tag k="addr:city" v="Albany"/>
    <tag k="addr:housenumber" v="1593"/>
    <tag k="addr:street" v="Chamberlin Hill Road"/>
    <tag k="addr:state" v="VT"/>
    <tag k="ref:vcgi:esiteid" v="769928"/>
  </node>
  <node id="-815" visible="true" lat="44.77382097" lon="-72.32227756">
    <tag k="addr:city" v="Albany"/>
    <tag k="addr:housenumber" v="454"/>
    <tag k="addr:street" v="Vermont Route 14 North"/>
    <tag k="addr:state" v="VT"/>
    <tag k="ref:vcgi:esiteid" v="800062"/>
  </node>
  <node id="-816" visible="true" lat="44.77189809" lon="-72.32222545">
    <tag k="addr:city" v="Albany"/>
    <tag k="addr:housenumber" v="395"/>
    <tag k="addr:street" v="Vermont Route 14 North"/>
    <tag k="addr:state" v="VT"/>
    <tag k="ref:vcgi:esiteid" v="800063"/>
  </node>
  <node id="-817" visible="true" lat="44.69496198" lon="-72.30319797">
    <tag k="addr:city" v="Albany"/>
    <tag k="addr:housenumber" v="173"/>
    <tag k="addr:street" v="Rowell Road"/>
    <tag k="addr:state" v="VT"/>
    <tag k="ref:vcgi:esiteid" v="1051189"/>
  </node>
  <node id="-818" visible="true" lat="44.75567156" lon="-72.33018302">
    <tag k="addr:city" v="Albany"/>
    <tag k="addr:housenumber" v="1193"/>
    <tag k="addr:street" v="Delano Road"/>
    <tag k="addr:state" v="VT"/>
    <tag k="ref:vcgi:esiteid" v="1051811"/>
  </node>
</osm>
