<?xml version="1.0" encoding="UTF-8"?>
<osm version="0.6" generator="JOSM">
  <node id="-145" visible="true" lat="44.7646141" lon="-72.31323242">
    <tag k="addr:city" v="Albany"/>
    <tag k="addr:housenumber" v="75"/>
    <tag k="addr:street" v="Griggs Road East"/>
    <tag k="addr:state" v="VT"/>
    <tag k="ref:vcgi:esiteid" v="1218"/>
  </node>
  <node id="-152" visible="true" lat="44.76333612" lon="-72.31406005">
    <tag k="addr:city" v="Albany"/>
    <tag k="addr:housenumber" v="946"/>
    <tag k="addr:street" v="Chamberlin Hill Road"/>
    <tag k="addr:state" v="VT"/>
    <tag k="ref:vcgi:esiteid" v="1225"/>
  </node>
  <node id="-157" visible="true" lat="44.76164245" lon="-72.30861663">
    <tag k="addr:city" v="Albany"/>
    <tag k="addr:housenumber" v="610"/>
    <tag k="addr:street" v="Chamberlin Hill Road"/>
    <tag k="addr:state" v="VT"/>
    <tag k="ref:vcgi:esiteid" v="1230"/>
  </node>
  <node id="-166" visible="true" lat="44.75995254" lon="-72.297966">
    <tag k="addr:city" v="Albany"/>
    <tag k="addr:housenumber" v="602"/>
    <tag k="addr:street" v="Creek Road"/>
    <tag k="addr:state" v="VT"/>
    <tag k="ref:vcgi:esiteid" v="1239"/>
  </node>
  <node id="-168" visible="true" lat="44.75964435" lon="-72.29740546">
    <tag k="addr:city" v="Albany"/>
    <tag k="addr:housenumber" v="623"/>
    <tag k="addr:street" v="Creek Road"/>
    <tag k="addr:state" v="VT"/>
    <tag k="ref:vcgi:esiteid" v="1241"/>
  </node>
  <node id="-172" visible="true" lat="44.75904739" lon="-72.29823403">
    <tag k="addr:city" v="Albany"/>
    <tag k="addr:housenumber" v="657"/>
    <tag k="addr:street" v="Creek Road"/>
    <tag k="addr:state" v="VT"/>
    <tag k="ref:vcgi:esiteid" v="1245"/>
  </node>
  <node id="-173" visible="true" lat="44.75892651" lon="-72.31591507">
    <tag k="addr:city" v="Albany"/>
    <tag k="addr:housenumber" v="1238"/>
    <tag k="addr:street" v="Chamberlin Hill Road"/>
    <tag k="addr:state" v="VT"/>
    <tag k="ref:vcgi:esiteid" v="1246"/>
  </node>
  <node id="-174" visible="true" lat="44.75906404" lon="-72.31434566">
    <tag k="addr:city" v="Albany"/>
    <tag k="addr:housenumber" v="1243"/>
    <tag k="addr:street" v="Chamberlin Hill Road"/>
    <tag k="addr:state" v="VT"/>
    <tag k="ref:vcgi:esiteid" v="1247"/>
  </node>
  <node id="-176" visible="true" lat="44.75886416" lon="-72.29916435">
    <tag k="addr:city" v="Albany"/>
    <tag k="addr:housenumber" v="702"/>
    <tag k="addr:street" v="Creek Road"/>
    <tag k="addr:state" v="VT"/>
    <tag k="ref:vcgi:esiteid" v="1249"/>
  </node>
  <node id="-181" visible="true" lat="44.75733807" lon="-72.31719547">
    <tag k="addr:city" v="Albany"/>
    <tag k="addr:housenumber" v="1376"/>
    <tag k="addr:street" v="Chamberlin Hill Road"/>
    <tag k="addr:state" v="VT"/>
    <tag k="ref:vcgi:esiteid" v="1254"/>
  </node>
  <node id="-185" visible="true" lat="44.75688836" lon="-72.29592505">
    <tag k="addr:city" v="Albany"/>
    <tag k="addr:housenumber" v="201"/>
    <tag k="addr:street" v="Kingdom Road"/>
    <tag k="addr:state" v="VT"/>
    <tag k="ref:vcgi:esiteid" v="1258"/>
  </node>
  <node id="-186" visible="true" lat="44.75656969" lon="-72.31565444">
    <tag k="addr:city" v="Albany"/>
    <tag k="addr:housenumber" v="1411"/>
    <tag k="addr:street" v="Chamberlin Hill Road"/>
    <tag k="addr:state" v="VT"/>
    <tag k="ref:vcgi:esiteid" v="1259"/>
  </node>
  <node id="-191" visible="true" lat="44.75533885" lon="-72.29393455">
    <tag k="addr:city" v="Albany"/>
    <tag k="addr:housenumber" v="339"/>
    <tag k="addr:street" v="Kingdom Road"/>
    <tag k="addr:state" v="VT"/>
    <tag k="ref:vcgi:esiteid" v="1264"/>
  </node>
  <node id="-192" visible="true" lat="44.75520317" lon="-72.30035982">
    <tag k="addr:city" v="Albany"/>
    <tag k="addr:housenumber" v="978"/>
    <tag k="addr:street" v="Creek Road"/>
    <tag k="addr:state" v="VT"/>
    <tag k="ref:vcgi:esiteid" v="1265"/>
  </node>
  <node id="-193" visible="true" lat="44.75497375" lon="-72.3179106">
    <tag k="addr:city" v="Albany"/>
    <tag k="addr:housenumber" v="1573"/>
    <tag k="addr:street" v="Chamberlin Hill Road"/>
    <tag k="addr:state" v="VT"/>
    <tag k="ref:vcgi:esiteid" v="1266"/>
  </node>
  <node id="-197" visible="true" lat="44.75403407" lon="-72.29975348">
    <tag k="addr:city" v="Albany"/>
    <tag k="addr:housenumber" v="1029"/>
    <tag k="addr:street" v="Creek Road"/>
    <tag k="addr:state" v="VT"/>
    <tag k="ref:vcgi:esiteid" v="1270"/>
  </node>
  <node id="-199" visible="true" lat="44.75347279" lon="-72.28999158">
    <tag k="addr:city" v="Albany"/>
    <tag k="addr:housenumber" v="581"/>
    <tag k="addr:street" v="Kingdom Road"/>
    <tag k="addr:state" v="VT"/>
    <tag k="ref:vcgi:esiteid" v="1272"/>
  </node>
  <node id="-201" visible="true" lat="44.75319568" lon="-72.30091448">
    <tag k="addr:city" v="Albany"/>
    <tag k="addr:housenumber" v="1110"/>
    <tag k="addr:street" v="Creek Road"/>
    <tag k="addr:state" v="VT"/>
    <tag k="ref:vcgi:esiteid" v="1274"/>
  </node>
  <node id="-202" visible="true" lat="44.75279043" lon="-72.32190756">
    <tag k="addr:city" v="Albany"/>
    <tag k="addr:housenumber" v="1789"/>
    <tag k="addr:street" v="Chamberlin Hill Road"/>
    <tag k="addr:state" v="VT"/>
    <tag k="ref:vcgi:esiteid" v="1275"/>
  </node>
  <node id="-204" visible="true" lat="44.75259018" lon="-72.28484344">
    <tag k="addr:city" v="Albany"/>
    <tag k="addr:housenumber" v="170"/>
    <tag k="addr:street" v="Noyes Road"/>
    <tag k="addr:state" v="VT"/>
    <tag k="ref:vcgi:esiteid" v="1277"/>
  </node>
  <node id="-205" visible="true" lat="44.75248337" lon="-72.28937531">
    <tag k="addr:city" v="Albany"/>
    <tag k="addr:housenumber" v="652"/>
    <tag k="addr:street" v="Kingdom Road"/>
    <tag k="addr:state" v="VT"/>
    <tag k="ref:vcgi:esiteid" v="1278"/>
  </node>
  <node id="-207" visible="true" lat="44.75226291" lon="-72.28876343">
    <tag k="addr:city" v="Albany"/>
    <tag k="addr:housenumber" v="696"/>
    <tag k="addr:street" v="Kingdom Road"/>
    <tag k="addr:state" v="VT"/>
    <tag k="ref:vcgi:esiteid" v="1280"/>
  </node>
  <node id="-209" visible="true" lat="44.75173037" lon="-72.28650255">
    <tag k="addr:city" v="Albany"/>
    <tag k="addr:housenumber" v="93"/>
    <tag k="addr:street" v="Noyes Road"/>
    <tag k="addr:state" v="VT"/>
    <tag k="ref:vcgi:esiteid" v="1282"/>
  </node>
  <node id="-213" visible="true" lat="44.75026139" lon="-72.32566701">
    <tag k="addr:city" v="Albany"/>
    <tag k="addr:housenumber" v="2081"/>
    <tag k="addr:street" v="Chamberlin Hill Road"/>
    <tag k="addr:state" v="VT"/>
    <tag k="ref:vcgi:esiteid" v="1286"/>
  </node>
  <node id="-217" visible="true" lat="44.74981402" lon="-72.32766642">
    <tag k="addr:city" v="Albany"/>
    <tag k="addr:housenumber" v="2146"/>
    <tag k="addr:street" v="Chamberlin Hill Road"/>
    <tag k="addr:state" v="VT"/>
    <tag k="ref:vcgi:esiteid" v="1290"/>
  </node>
  <node id="-222" visible="true" lat="44.74788925" lon="-72.28967504">
    <tag k="addr:city" v="Albany"/>
    <tag k="addr:housenumber" v="994"/>
    <tag k="addr:street" v="Kingdom Road"/>
    <tag k="addr:state" v="VT"/>
    <tag k="ref:vcgi:esiteid" v="1295"/>
  </node>
  <node id="-224" visible="true" lat="44.74656212" lon="-72.33248412">
    <tag k="addr:city" v="Albany"/>
    <tag k="addr:housenumber" v="2514"/>
    <tag k="addr:street" v="Chamberlin Hill Road"/>
    <tag k="addr:state" v="VT"/>
    <tag k="ref:vcgi:esiteid" v="1297"/>
  </node>
  <node id="-225" visible="true" lat="44.7464416" lon="-72.29034024">
    <tag k="addr:city" v="Albany"/>
    <tag k="addr:housenumber" v="1108"/>
    <tag k="addr:street" v="Kingdom Road"/>
    <tag k="addr:state" v="VT"/>
    <tag k="ref:vcgi:esiteid" v="1298"/>
  </node>
  <node id="-226" visible="true" lat="44.74615495" lon="-72.25866537">
    <tag k="addr:city" v="Albany"/>
    <tag k="addr:housenumber" v="3471"/>
    <tag k="addr:street" v="Barton Road"/>
    <tag k="addr:state" v="VT"/>
    <tag k="ref:vcgi:esiteid" v="1299"/>
  </node>
  <node id="-230" visible="true" lat="44.74503099" lon="-72.33963272">
    <tag k="addr:city" v="Albany"/>
    <tag k="addr:housenumber" v="2920"/>
    <tag k="addr:street" v="Chamberlin Hill Road"/>
    <tag k="addr:state" v="VT"/>
    <tag k="ref:vcgi:esiteid" v="1303"/>
  </node>
  <node id="-231" visible="true" lat="44.74489582" lon="-72.26069375">
    <tag k="addr:city" v="Albany"/>
    <tag k="addr:housenumber" v="3329"/>
    <tag k="addr:street" v="Barton Road"/>
    <tag k="addr:state" v="VT"/>
    <tag k="ref:vcgi:esiteid" v="1304"/>
  </node>
  <node id="-232" visible="true" lat="44.74488449" lon="-72.33899688">
    <tag k="addr:city" v="Albany"/>
    <tag k="addr:housenumber" v="2872"/>
    <tag k="addr:street" v="Chamberlin Hill Road"/>
    <tag k="addr:state" v="VT"/>
    <tag k="ref:vcgi:esiteid" v="1305"/>
  </node>
  <node id="-234" visible="true" lat="44.7446152" lon="-72.26313665">
    <tag k="addr:city" v="Albany"/>
    <tag k="addr:housenumber" v="3211"/>
    <tag k="addr:street" v="Barton Road"/>
    <tag k="addr:state" v="VT"/>
    <tag k="ref:vcgi:esiteid" v="1307"/>
  </node>
  <node id="-236" visible="true" lat="44.74435424" lon="-72.26076507">
    <tag k="addr:city" v="Albany"/>
    <tag k="addr:housenumber" v="3308"/>
    <tag k="addr:street" v="Barton Road"/>
    <tag k="addr:state" v="VT"/>
    <tag k="ref:vcgi:esiteid" v="1309"/>
  </node>
  <node id="-237" visible="true" lat="44.74396395" lon="-72.26516742">
    <tag k="addr:city" v="Albany"/>
    <tag k="addr:housenumber" v="3105"/>
    <tag k="addr:street" v="Barton Road"/>
    <tag k="addr:state" v="VT"/>
    <tag k="ref:vcgi:esiteid" v="1310"/>
  </node>
  <node id="-238" visible="true" lat="44.74366807" lon="-72.28776379">
    <tag k="addr:city" v="Albany"/>
    <tag k="addr:housenumber" v="1361"/>
    <tag k="addr:street" v="Kingdom Road"/>
    <tag k="addr:state" v="VT"/>
    <tag k="ref:vcgi:esiteid" v="1311"/>
  </node>
  <node id="-240" visible="true" lat="44.74316314" lon="-72.26417349">
    <tag k="addr:city" v="Albany"/>
    <tag k="addr:housenumber" v="3112"/>
    <tag k="addr:street" v="Barton Road"/>
    <tag k="addr:state" v="VT"/>
    <tag k="ref:vcgi:esiteid" v="1313"/>
  </node>
  <node id="-242" visible="true" lat="44.7428912" lon="-72.34062308">
    <tag k="addr:city" v="Albany"/>
    <tag k="addr:housenumber" v="2296"/>
    <tag k="addr:street" v="Center Road"/>
    <tag k="addr:state" v="VT"/>
    <tag k="ref:vcgi:esiteid" v="1315"/>
  </node>
  <node id="-245" visible="true" lat="44.74187471" lon="-72.26534587">
    <tag k="addr:city" v="Albany"/>
    <tag k="addr:housenumber" v="3068"/>
    <tag k="addr:street" v="Barton Road"/>
    <tag k="addr:state" v="VT"/>
    <tag k="ref:vcgi:esiteid" v="1318"/>
  </node>
  <node id="-247" visible="true" lat="44.74210785" lon="-72.34393075">
    <tag k="addr:city" v="Albany"/>
    <tag k="addr:housenumber" v="2185"/>
    <tag k="addr:street" v="Center Road"/>
    <tag k="addr:state" v="VT"/>
    <tag k="ref:vcgi:esiteid" v="1320"/>
  </node>
  <node id="-248" visible="true" lat="44.74140705" lon="-72.35032613">
    <tag k="addr:city" v="Albany"/>
    <tag k="addr:housenumber" v="267"/>
    <tag k="addr:street" v="Vance Road East"/>
    <tag k="addr:state" v="VT"/>
    <tag k="ref:vcgi:esiteid" v="1321"/>
  </node>
  <node id="-250" visible="true" lat="44.741547" lon="-72.26783287">
    <tag k="addr:city" v="Albany"/>
    <tag k="addr:housenumber" v="2926"/>
    <tag k="addr:street" v="Barton Road"/>
    <tag k="addr:state" v="VT"/>
    <tag k="ref:vcgi:esiteid" v="1323"/>
  </node>
  <node id="-251" visible="true" lat="44.74143006" lon="-72.28591626">
    <tag k="addr:city" v="Albany"/>
    <tag k="addr:housenumber" v="1536"/>
    <tag k="addr:street" v="Kingdom Road"/>
    <tag k="addr:state" v="VT"/>
    <tag k="ref:vcgi:esiteid" v="1324"/>
  </node>
  <node id="-257" visible="true" lat="44.74077369" lon="-72.2902388">
    <tag k="addr:city" v="Albany"/>
    <tag k="addr:housenumber" v="1765"/>
    <tag k="addr:street" v="Barton Road"/>
    <tag k="addr:state" v="VT"/>
    <tag k="ref:vcgi:esiteid" v="1330"/>
  </node>
  <node id="-259" visible="true" lat="44.74023833" lon="-72.27318276">
    <tag k="addr:city" v="Albany"/>
    <tag k="addr:housenumber" v="2625"/>
    <tag k="addr:street" v="Barton Road"/>
    <tag k="addr:state" v="VT"/>
    <tag k="ref:vcgi:esiteid" v="1332"/>
  </node>
  <node id="-261" visible="true" lat="44.74007627" lon="-72.34634411">
    <tag k="addr:city" v="Albany"/>
    <tag k="addr:housenumber" v="2005"/>
    <tag k="addr:street" v="Center Road"/>
    <tag k="addr:state" v="VT"/>
    <tag k="ref:vcgi:esiteid" v="1334"/>
  </node>
  <node id="-264" visible="true" lat="44.73872756" lon="-72.34789276">
    <tag k="addr:city" v="Albany"/>
    <tag k="addr:housenumber" v="1883"/>
    <tag k="addr:street" v="Center Road"/>
    <tag k="addr:state" v="VT"/>
    <tag k="ref:vcgi:esiteid" v="1337"/>
  </node>
  <node id="-265" visible="true" lat="44.73837308" lon="-72.32584375">
    <tag k="addr:city" v="Albany"/>
    <tag k="addr:housenumber" v="728"/>
    <tag k="addr:street" v="Daniels Road East"/>
    <tag k="addr:state" v="VT"/>
    <tag k="ref:vcgi:esiteid" v="1338"/>
  </node>
  <node id="-267" visible="true" lat="44.73818251" lon="-72.37670466">
    <tag k="addr:city" v="Albany"/>
    <tag k="addr:housenumber" v="351"/>
    <tag k="addr:street" v="Main Street"/>
    <tag k="addr:state" v="VT"/>
    <tag k="ref:vcgi:esiteid" v="1340"/>
  </node>
  <node id="-271" visible="true" lat="44.73738861" lon="-72.28427886">
    <tag k="addr:city" v="Albany"/>
    <tag k="addr:housenumber" v="287"/>
    <tag k="addr:street" v="Sinon Road"/>
    <tag k="addr:state" v="VT"/>
    <tag k="ref:vcgi:esiteid" v="1344"/>
  </node>
  <node id="-273" visible="true" lat="44.73710632" lon="-72.35049438">
    <tag k="addr:city" v="Albany"/>
    <tag k="addr:housenumber" v="1708"/>
    <tag k="addr:street" v="Center Road"/>
    <tag k="addr:state" v="VT"/>
    <tag k="ref:vcgi:esiteid" v="1346"/>
  </node>
  <node id="-276" visible="true" lat="44.73640823" lon="-72.34925079">
    <tag k="addr:city" v="Albany"/>
    <tag k="addr:housenumber" v="15"/>
    <tag k="addr:street" v="Daniels Road West"/>
    <tag k="addr:state" v="VT"/>
    <tag k="ref:vcgi:esiteid" v="1349"/>
  </node>
  <node id="-278" visible="true" lat="44.7360506" lon="-72.28562343">
    <tag k="addr:city" v="Albany"/>
    <tag k="addr:housenumber" v="260"/>
    <tag k="addr:street" v="Sinon Road"/>
    <tag k="addr:state" v="VT"/>
    <tag k="ref:vcgi:esiteid" v="1351"/>
  </node>
  <node id="-282" visible="true" lat="44.73599243" lon="-72.34940338">
    <tag k="addr:city" v="Albany"/>
    <tag k="addr:housenumber" v="34"/>
    <tag k="addr:street" v="Daniels Road West"/>
    <tag k="addr:state" v="VT"/>
    <tag k="ref:vcgi:esiteid" v="1355"/>
  </node>
  <node id="-284" visible="true" lat="44.7360599" lon="-72.30039402">
    <tag k="addr:city" v="Albany"/>
    <tag k="addr:housenumber" v="919"/>
    <tag k="addr:street" v="Barton Road"/>
    <tag k="addr:state" v="VT"/>
    <tag k="ref:vcgi:esiteid" v="1357"/>
  </node>
  <node id="-285" visible="true" lat="44.73517943" lon="-72.29931748">
    <tag k="addr:city" v="Albany"/>
    <tag k="addr:housenumber" v="1056"/>
    <tag k="addr:street" v="Barton Road"/>
    <tag k="addr:state" v="VT"/>
    <tag k="ref:vcgi:esiteid" v="1358"/>
  </node>
  <node id="-287" visible="true" lat="44.73555329" lon="-72.31371914">
    <tag k="addr:city" v="Albany"/>
    <tag k="addr:housenumber" v="2527"/>
    <tag k="addr:street" v="Creek Road"/>
    <tag k="addr:state" v="VT"/>
    <tag k="ref:vcgi:esiteid" v="1360"/>
  </node>
  <node id="-288" visible="true" lat="44.73521378" lon="-72.35140006">
    <tag k="addr:city" v="Albany"/>
    <tag k="addr:housenumber" v="1586"/>
    <tag k="addr:street" v="Center Road"/>
    <tag k="addr:state" v="VT"/>
    <tag k="ref:vcgi:esiteid" v="1361"/>
  </node>
  <node id="-289" visible="true" lat="44.73512867" lon="-72.34833466">
    <tag k="addr:city" v="Albany"/>
    <tag k="addr:housenumber" v="108"/>
    <tag k="addr:street" v="Daniels Road West"/>
    <tag k="addr:state" v="VT"/>
    <tag k="ref:vcgi:esiteid" v="1362"/>
  </node>
  <node id="-290" visible="true" lat="44.73499065" lon="-72.30284017">
    <tag k="addr:city" v="Albany"/>
    <tag k="addr:housenumber" v="891"/>
    <tag k="addr:street" v="Barton Road"/>
    <tag k="addr:state" v="VT"/>
    <tag k="ref:vcgi:esiteid" v="1363"/>
  </node>
  <node id="-291" visible="true" lat="44.73515715" lon="-72.37893581">
    <tag k="addr:city" v="Albany"/>
    <tag k="addr:housenumber" v="540"/>
    <tag k="addr:street" v="Main Street"/>
    <tag k="addr:state" v="VT"/>
    <tag k="ref:vcgi:esiteid" v="1364"/>
  </node>
  <node id="-292" visible="true" lat="44.73500639" lon="-72.3481076">
    <tag k="addr:city" v="Albany"/>
    <tag k="addr:housenumber" v="120"/>
    <tag k="addr:street" v="Daniels Road West"/>
    <tag k="addr:state" v="VT"/>
    <tag k="ref:vcgi:esiteid" v="1365"/>
  </node>
  <node id="-293" visible="true" lat="44.73481781" lon="-72.35648298">
    <tag k="addr:city" v="Albany"/>
    <tag k="addr:housenumber" v="963"/>
    <tag k="addr:street" v="Center Hill Road"/>
    <tag k="addr:state" v="VT"/>
    <tag k="ref:vcgi:esiteid" v="1367"/>
  </node>
  <node id="-296" visible="true" lat="44.73444748" lon="-72.34872436">
    <tag k="addr:city" v="Albany"/>
    <tag k="addr:housenumber" v="95"/>
    <tag k="addr:street" v="Pitkin Road North"/>
    <tag k="addr:state" v="VT"/>
    <tag k="ref:vcgi:esiteid" v="1370"/>
  </node>
  <node id="-297" visible="true" lat="44.73438263" lon="-72.36051177">
    <tag k="addr:city" v="Albany"/>
    <tag k="addr:housenumber" v="769"/>
    <tag k="addr:street" v="Center Hill Road"/>
    <tag k="addr:state" v="VT"/>
    <tag k="ref:vcgi:esiteid" v="1371"/>
  </node>
  <node id="-299" visible="true" lat="44.73422081" lon="-72.37906186">
    <tag k="addr:city" v="Albany"/>
    <tag k="addr:housenumber" v="610"/>
    <tag k="addr:street" v="Main Street"/>
    <tag k="addr:state" v="VT"/>
    <tag k="ref:vcgi:esiteid" v="1373"/>
  </node>
  <node id="-301" visible="true" lat="44.73386708" lon="-72.35329627">
    <tag k="addr:city" v="Albany"/>
    <tag k="addr:housenumber" v="1456"/>
    <tag k="addr:street" v="Center Road"/>
    <tag k="addr:state" v="VT"/>
    <tag k="ref:vcgi:esiteid" v="1375"/>
  </node>
  <node id="-302" visible="true" lat="44.73385422" lon="-72.37856937">
    <tag k="addr:city" v="Albany"/>
    <tag k="addr:housenumber" v="13"/>
    <tag k="addr:street" v="Pleasant View Drive"/>
    <tag k="addr:state" v="VT"/>
    <tag k="ref:vcgi:esiteid" v="1376"/>
  </node>
  <node id="-303" visible="true" lat="44.7337532" lon="-72.3622055">
    <tag k="addr:city" v="Albany"/>
    <tag k="addr:housenumber" v="687"/>
    <tag k="addr:street" v="Center Hill Road"/>
    <tag k="addr:state" v="VT"/>
    <tag k="ref:vcgi:esiteid" v="1377"/>
  </node>
  <node id="-304" visible="true" lat="44.73375955" lon="-72.3780543">
    <tag k="addr:city" v="Albany"/>
    <tag k="addr:housenumber" v="33"/>
    <tag k="addr:street" v="Pleasant View Drive"/>
    <tag k="addr:state" v="VT"/>
    <tag k="ref:vcgi:esiteid" v="1378"/>
  </node>
  <node id="-305" visible="true" lat="44.73363145" lon="-72.37751448">
    <tag k="addr:city" v="Albany"/>
    <tag k="addr:housenumber" v="59"/>
    <tag k="addr:street" v="Pleasant View Drive"/>
    <tag k="addr:state" v="VT"/>
    <tag k="ref:vcgi:esiteid" v="1379"/>
  </node>
  <node id="-306" visible="true" lat="44.73347788" lon="-72.37861667">
    <tag k="addr:city" v="Albany"/>
    <tag k="addr:housenumber" v="16"/>
    <tag k="addr:street" v="Pleasant View Drive"/>
    <tag k="addr:state" v="VT"/>
    <tag k="ref:vcgi:esiteid" v="1380"/>
  </node>
  <node id="-308" visible="true" lat="44.73351115" lon="-72.37709899">
    <tag k="addr:city" v="Albany"/>
    <tag k="addr:housenumber" v="95"/>
    <tag k="addr:street" v="Pleasant View Drive"/>
    <tag k="addr:state" v="VT"/>
    <tag k="ref:vcgi:esiteid" v="1382"/>
  </node>
  <node id="-309" visible="true" lat="44.73327669" lon="-72.37782735">
    <tag k="addr:city" v="Albany"/>
    <tag k="addr:housenumber" v="50"/>
    <tag k="addr:street" v="Pleasant View Drive"/>
    <tag k="addr:state" v="VT"/>
    <tag k="ref:vcgi:esiteid" v="1383"/>
  </node>
  <node id="-310" visible="true" lat="44.73316422" lon="-72.37727245">
    <tag k="addr:city" v="Albany"/>
    <tag k="addr:housenumber" v="84"/>
    <tag k="addr:street" v="Pleasant View Drive"/>
    <tag k="addr:state" v="VT"/>
    <tag k="ref:vcgi:esiteid" v="1384"/>
  </node>
  <node id="-311" visible="true" lat="44.73321813" lon="-72.37834559">
    <tag k="addr:city" v="Albany"/>
    <tag k="addr:housenumber" v="695"/>
    <tag k="addr:street" v="Main Street"/>
    <tag k="addr:state" v="VT"/>
    <tag k="ref:vcgi:esiteid" v="1385"/>
  </node>
  <node id="-313" visible="true" lat="44.73309326" lon="-72.3193512">
    <tag k="addr:city" v="Albany"/>
    <tag k="addr:housenumber" v="231"/>
    <tag k="addr:street" v="Daniels Road East"/>
    <tag k="addr:state" v="VT"/>
    <tag k="ref:vcgi:esiteid" v="1387"/>
  </node>
  <node id="-314" visible="true" lat="44.73315037" lon="-72.38365348">
    <tag k="addr:city" v="Albany"/>
    <tag k="addr:housenumber" v="226"/>
    <tag k="addr:street" v="New Street"/>
    <tag k="addr:state" v="VT"/>
    <tag k="ref:vcgi:esiteid" v="1388"/>
  </node>
  <node id="-316" visible="true" lat="44.73272854" lon="-72.29117002">
    <tag k="addr:city" v="Albany"/>
    <tag k="addr:housenumber" v="270"/>
    <tag k="addr:street" v="Lafont Road"/>
    <tag k="addr:state" v="VT"/>
    <tag k="ref:vcgi:esiteid" v="1391"/>
  </node>
  <node id="-317" visible="true" lat="44.7329816" lon="-72.37851241">
    <tag k="addr:city" v="Albany"/>
    <tag k="addr:housenumber" v="699"/>
    <tag k="addr:street" v="Main Street"/>
    <tag k="addr:state" v="VT"/>
    <tag k="ref:vcgi:esiteid" v="1392"/>
  </node>
  <node id="-318" visible="true" lat="44.73258528" lon="-72.37935423">
    <tag k="addr:city" v="Albany"/>
    <tag k="addr:housenumber" v="720"/>
    <tag k="addr:street" v="Main Street"/>
    <tag k="addr:state" v="VT"/>
    <tag k="ref:vcgi:esiteid" v="1393"/>
  </node>
  <node id="-319" visible="true" lat="44.73258534" lon="-72.37877882">
    <tag k="addr:city" v="Albany"/>
    <tag k="addr:housenumber" v="717"/>
    <tag k="addr:street" v="Main Street"/>
    <tag k="addr:state" v="VT"/>
    <tag k="ref:vcgi:esiteid" v="1394"/>
  </node>
  <node id="-320" visible="true" lat="44.73255693" lon="-72.3828316">
    <tag k="addr:city" v="Albany"/>
    <tag k="addr:housenumber" v="171"/>
    <tag k="addr:street" v="New Street"/>
    <tag k="addr:state" v="VT"/>
    <tag k="ref:vcgi:esiteid" v="1395"/>
  </node>
  <node id="-321" visible="true" lat="44.73264437" lon="-72.38228812">
    <tag k="addr:city" v="Albany"/>
    <tag k="addr:housenumber" v="154"/>
    <tag k="addr:street" v="New Street"/>
    <tag k="addr:state" v="VT"/>
    <tag k="ref:vcgi:esiteid" v="1396"/>
  </node>
  <node id="-322" visible="true" lat="44.73253631" lon="-72.36396789">
    <tag k="addr:city" v="Albany"/>
    <tag k="addr:housenumber" v="547"/>
    <tag k="addr:street" v="Center Hill Road"/>
    <tag k="addr:state" v="VT"/>
    <tag k="ref:vcgi:esiteid" v="1397"/>
  </node>
  <node id="-323" visible="true" lat="44.73248873" lon="-72.38168424">
    <tag k="addr:city" v="Albany"/>
    <tag k="addr:housenumber" v="122"/>
    <tag k="addr:street" v="New Street"/>
    <tag k="addr:state" v="VT"/>
    <tag k="ref:vcgi:esiteid" v="1398"/>
  </node>
  <node id="-325" visible="true" lat="44.73239244" lon="-72.38135845">
    <tag k="addr:city" v="Albany"/>
    <tag k="addr:housenumber" v="106"/>
    <tag k="addr:street" v="New Street"/>
    <tag k="addr:state" v="VT"/>
    <tag k="ref:vcgi:esiteid" v="1400"/>
  </node>
  <node id="-327" visible="true" lat="44.73231124" lon="-72.38224029">
    <tag k="addr:city" v="Albany"/>
    <tag k="addr:housenumber" v="8"/>
    <tag k="addr:street" v="Locke Drive"/>
    <tag k="addr:state" v="VT"/>
    <tag k="ref:vcgi:esiteid" v="1402"/>
  </node>
  <node id="-328" visible="true" lat="44.73233774" lon="-72.37945888">
    <tag k="addr:city" v="Albany"/>
    <tag k="addr:housenumber" v="756"/>
    <tag k="addr:street" v="Main Street"/>
    <tag k="addr:state" v="VT"/>
    <tag k="ref:vcgi:esiteid" v="1403"/>
  </node>
  <node id="-329" visible="true" lat="44.73219564" lon="-72.38199517">
    <tag k="addr:city" v="Albany"/>
    <tag k="addr:housenumber" v="127"/>
    <tag k="addr:street" v="New Street"/>
    <tag k="addr:state" v="VT"/>
    <tag k="ref:vcgi:esiteid" v="1404"/>
  </node>
  <node id="-330" visible="true" lat="44.73228212" lon="-72.38100963">
    <tag k="addr:city" v="Albany"/>
    <tag k="addr:housenumber" v="84"/>
    <tag k="addr:street" v="New Street"/>
    <tag k="addr:state" v="VT"/>
    <tag k="ref:vcgi:esiteid" v="1405"/>
  </node>
  <node id="-331" visible="true" lat="44.73228025" lon="-72.37888608">
    <tag k="addr:city" v="Albany"/>
    <tag k="addr:housenumber" v="751"/>
    <tag k="addr:street" v="Main Street"/>
    <tag k="addr:state" v="VT"/>
    <tag k="ref:vcgi:esiteid" v="1406"/>
  </node>
  <node id="-332" visible="true" lat="44.73206503" lon="-72.3816334">
    <tag k="addr:city" v="Albany"/>
    <tag k="addr:housenumber" v="103"/>
    <tag k="addr:street" v="New Street"/>
    <tag k="addr:state" v="VT"/>
    <tag k="ref:vcgi:esiteid" v="1407"/>
  </node>
  <node id="-333" visible="true" lat="44.73208618" lon="-72.3657608">
    <tag k="addr:city" v="Albany"/>
    <tag k="addr:housenumber" v="461"/>
    <tag k="addr:street" v="Center Hill Road"/>
    <tag k="addr:state" v="VT"/>
    <tag k="ref:vcgi:esiteid" v="1408"/>
  </node>
  <node id="-334" visible="true" lat="44.73217171" lon="-72.38058996">
    <tag k="addr:city" v="Albany"/>
    <tag k="addr:housenumber" v="58"/>
    <tag k="addr:street" v="New Street"/>
    <tag k="addr:state" v="VT"/>
    <tag k="ref:vcgi:esiteid" v="1409"/>
  </node>
  <node id="-335" visible="true" lat="44.73203658" lon="-72.36400604">
    <tag k="addr:city" v="Albany"/>
    <tag k="addr:housenumber" v="550"/>
    <tag k="addr:street" v="Center Hill Road"/>
    <tag k="addr:state" v="VT"/>
    <tag k="ref:vcgi:esiteid" v="1410"/>
  </node>
  <node id="-336" visible="true" lat="44.73195076" lon="-72.38098277">
    <tag k="addr:city" v="Albany"/>
    <tag k="addr:housenumber" v="81"/>
    <tag k="addr:street" v="New Street"/>
    <tag k="addr:state" v="VT"/>
    <tag k="ref:vcgi:esiteid" v="1411"/>
  </node>
  <node id="-337" visible="true" lat="44.73203976" lon="-72.37876014">
    <tag k="addr:city" v="Albany"/>
    <tag k="addr:housenumber" v="755"/>
    <tag k="addr:street" v="Main Street"/>
    <tag k="addr:state" v="VT"/>
    <tag k="ref:vcgi:esiteid" v="1412"/>
  </node>
  <node id="-338" visible="true" lat="44.73200424" lon="-72.38272406">
    <tag k="addr:city" v="Albany"/>
    <tag k="addr:housenumber" v="38"/>
    <tag k="addr:street" v="Locke Drive"/>
    <tag k="addr:state" v="VT"/>
    <tag k="ref:vcgi:esiteid" v="1413"/>
  </node>
  <node id="-339" visible="true" lat="44.73190683" lon="-72.31589279">
    <tag k="addr:city" v="Albany"/>
    <tag k="addr:housenumber" v="2778"/>
    <tag k="addr:street" v="Creek Road"/>
    <tag k="addr:state" v="VT"/>
    <tag k="ref:vcgi:esiteid" v="1414"/>
  </node>
  <node id="-340" visible="true" lat="44.73199345" lon="-72.37972652">
    <tag k="addr:city" v="Albany"/>
    <tag k="addr:housenumber" v="18"/>
    <tag k="addr:street" v="New Street"/>
    <tag k="addr:state" v="VT"/>
    <tag k="ref:vcgi:esiteid" v="1415"/>
  </node>
  <node id="-341" visible="true" lat="44.73181749" lon="-72.37912335">
    <tag k="addr:city" v="Albany"/>
    <tag k="addr:housenumber" v="767"/>
    <tag k="addr:street" v="Main Street"/>
    <tag k="addr:state" v="VT"/>
    <tag k="ref:vcgi:esiteid" v="1416"/>
  </node>
  <node id="-342" visible="true" lat="44.7317951" lon="-72.38052599">
    <tag k="addr:city" v="Albany"/>
    <tag k="addr:housenumber" v="53"/>
    <tag k="addr:street" v="New Street"/>
    <tag k="addr:state" v="VT"/>
    <tag k="ref:vcgi:esiteid" v="1417"/>
  </node>
  <node id="-343" visible="true" lat="44.73174428" lon="-72.38234697">
    <tag k="addr:city" v="Albany"/>
    <tag k="addr:housenumber" v="130"/>
    <tag k="addr:street" v="Old Street"/>
    <tag k="addr:state" v="VT"/>
    <tag k="ref:vcgi:esiteid" v="1418"/>
  </node>
  <node id="-345" visible="true" lat="44.73167134" lon="-72.37921135">
    <tag k="addr:city" v="Albany"/>
    <tag k="addr:housenumber" v="789"/>
    <tag k="addr:street" v="Main Street"/>
    <tag k="addr:state" v="VT"/>
    <tag k="ref:vcgi:esiteid" v="1420"/>
  </node>
  <node id="-346" visible="true" lat="44.73159271" lon="-72.38279319">
    <tag k="addr:city" v="Albany"/>
    <tag k="addr:housenumber" v="151"/>
    <tag k="addr:street" v="Old Street"/>
    <tag k="addr:state" v="VT"/>
    <tag k="ref:vcgi:esiteid" v="1421"/>
  </node>
  <node id="-347" visible="true" lat="44.73151266" lon="-72.31634356">
    <tag k="addr:city" v="Albany"/>
    <tag k="addr:housenumber" v="36"/>
    <tag k="addr:street" v="Daniels Road East"/>
    <tag k="addr:state" v="VT"/>
    <tag k="ref:vcgi:esiteid" v="1422"/>
  </node>
  <node id="-348" visible="true" lat="44.73151874" lon="-72.3798794">
    <tag k="addr:city" v="Albany"/>
    <tag k="addr:housenumber" v="806"/>
    <tag k="addr:street" v="Main Street"/>
    <tag k="addr:state" v="VT"/>
    <tag k="ref:vcgi:esiteid" v="1423"/>
  </node>
  <node id="-350" visible="true" lat="44.73146176" lon="-72.38165061">
    <tag k="addr:city" v="Albany"/>
    <tag k="addr:housenumber" v="94"/>
    <tag k="addr:street" v="Old Street"/>
    <tag k="addr:state" v="VT"/>
    <tag k="ref:vcgi:esiteid" v="1425"/>
  </node>
  <node id="-351" visible="true" lat="44.73126483" lon="-72.38221208">
    <tag k="addr:city" v="Albany"/>
    <tag k="addr:housenumber" v="117"/>
    <tag k="addr:street" v="Old Street"/>
    <tag k="addr:state" v="VT"/>
    <tag k="ref:vcgi:esiteid" v="1426"/>
  </node>
  <node id="-352" visible="true" lat="44.73112342" lon="-72.3810581">
    <tag k="addr:city" v="Albany"/>
    <tag k="addr:housenumber" v="50"/>
    <tag k="addr:street" v="Old Street"/>
    <tag k="addr:state" v="VT"/>
    <tag k="ref:vcgi:esiteid" v="1427"/>
  </node>
  <node id="-353" visible="true" lat="44.73104157" lon="-72.36828242">
    <tag k="addr:city" v="Albany"/>
    <tag k="addr:housenumber" v="322"/>
    <tag k="addr:street" v="Center Hill Road"/>
    <tag k="addr:state" v="VT"/>
    <tag k="ref:vcgi:esiteid" v="1428"/>
  </node>
  <node id="-355" visible="true" lat="44.73095322" lon="-72.31595611">
    <tag k="addr:city" v="Albany"/>
    <tag k="addr:housenumber" v="13"/>
    <tag k="addr:street" v="Barton Road"/>
    <tag k="addr:state" v="VT"/>
    <tag k="ref:vcgi:esiteid" v="1431"/>
  </node>
  <node id="-356" visible="true" lat="44.73099376" lon="-72.37934881">
    <tag k="addr:city" v="Albany"/>
    <tag k="addr:housenumber" v="833"/>
    <tag k="addr:street" v="Main Street"/>
    <tag k="addr:state" v="VT"/>
    <tag k="ref:vcgi:esiteid" v="1432"/>
  </node>
  <node id="-357" visible="true" lat="44.7308362" lon="-72.38152999">
    <tag k="addr:city" v="Albany"/>
    <tag k="addr:housenumber" v="87"/>
    <tag k="addr:street" v="Old Street"/>
    <tag k="addr:state" v="VT"/>
    <tag k="ref:vcgi:esiteid" v="1433"/>
  </node>
  <node id="-358" visible="true" lat="44.73091876" lon="-72.38004516">
    <tag k="addr:city" v="Albany"/>
    <tag k="addr:housenumber" v="842"/>
    <tag k="addr:street" v="Main Street"/>
    <tag k="addr:state" v="VT"/>
    <tag k="ref:vcgi:esiteid" v="1434"/>
  </node>
  <node id="-359" visible="true" lat="44.73114982" lon="-72.38049829">
    <tag k="addr:city" v="Albany"/>
    <tag k="addr:housenumber" v="28"/>
    <tag k="addr:street" v="Old Street"/>
    <tag k="addr:state" v="VT"/>
    <tag k="ref:vcgi:esiteid" v="1436"/>
  </node>
  <node id="-360" visible="true" lat="44.73070019" lon="-72.38092598">
    <tag k="addr:city" v="Albany"/>
    <tag k="addr:housenumber" v="43"/>
    <tag k="addr:street" v="Old Street"/>
    <tag k="addr:state" v="VT"/>
    <tag k="ref:vcgi:esiteid" v="1438"/>
  </node>
  <node id="-361" visible="true" lat="44.73073066" lon="-72.37956115">
    <tag k="addr:city" v="Albany"/>
    <tag k="addr:housenumber" v="855"/>
    <tag k="addr:street" v="Main Street"/>
    <tag k="addr:state" v="VT"/>
    <tag k="ref:vcgi:esiteid" v="1439"/>
  </node>
  <node id="-362" visible="true" lat="44.73046796" lon="-72.31599793">
    <tag k="addr:city" v="Albany"/>
    <tag k="addr:housenumber" v="2881"/>
    <tag k="addr:street" v="Creek Road"/>
    <tag k="addr:state" v="VT"/>
    <tag k="ref:vcgi:esiteid" v="1440"/>
  </node>
  <node id="-363" visible="true" lat="44.73043823" lon="-72.29485321">
    <tag k="addr:city" v="Albany"/>
    <tag k="addr:housenumber" v="538"/>
    <tag k="addr:street" v="Lafont Road"/>
    <tag k="addr:state" v="VT"/>
    <tag k="ref:vcgi:esiteid" v="1441"/>
  </node>
  <node id="-364" visible="true" lat="44.73049099" lon="-72.3796566">
    <tag k="addr:city" v="Albany"/>
    <tag k="addr:housenumber" v="895"/>
    <tag k="addr:street" v="Main Street"/>
    <tag k="addr:state" v="VT"/>
    <tag k="ref:vcgi:esiteid" v="1442"/>
  </node>
  <node id="-365" visible="true" lat="44.73033724" lon="-72.31731174">
    <tag k="addr:city" v="Albany"/>
    <tag k="addr:housenumber" v="2924"/>
    <tag k="addr:street" v="Creek Road"/>
    <tag k="addr:state" v="VT"/>
    <tag k="ref:vcgi:esiteid" v="1443"/>
  </node>
  <node id="-369" visible="true" lat="44.72954598" lon="-72.3695712">
    <tag k="addr:city" v="Albany"/>
    <tag k="addr:housenumber" v="150"/>
    <tag k="addr:street" v="Center Hill Road"/>
    <tag k="addr:state" v="VT"/>
    <tag k="ref:vcgi:esiteid" v="1447"/>
  </node>
  <node id="-372" visible="true" lat="44.72935057" lon="-72.31188763">
    <tag k="addr:city" v="Albany"/>
    <tag k="addr:housenumber" v="56"/>
    <tag k="addr:street" v="Centebar Road"/>
    <tag k="addr:state" v="VT"/>
    <tag k="ref:vcgi:esiteid" v="1450"/>
  </node>
  <node id="-373" visible="true" lat="44.72928237" lon="-72.30770111">
    <tag k="addr:city" v="Albany"/>
    <tag k="addr:housenumber" v="426"/>
    <tag k="addr:street" v="Barton Road"/>
    <tag k="addr:state" v="VT"/>
    <tag k="ref:vcgi:esiteid" v="1451"/>
  </node>
  <node id="-374" visible="true" lat="44.72921165" lon="-72.31646801">
    <tag k="addr:city" v="Albany"/>
    <tag k="addr:housenumber" v="2973"/>
    <tag k="addr:street" v="Creek Road"/>
    <tag k="addr:state" v="VT"/>
    <tag k="ref:vcgi:esiteid" v="1452"/>
  </node>
  <node id="-378" visible="true" lat="44.72841178" lon="-72.30920038">
    <tag k="addr:city" v="Albany"/>
    <tag k="addr:housenumber" v="109"/>
    <tag k="addr:street" v="Centebar Road"/>
    <tag k="addr:state" v="VT"/>
    <tag k="ref:vcgi:esiteid" v="1456"/>
  </node>
  <node id="-380" visible="true" lat="44.72861008" lon="-72.37895865">
    <tag k="addr:city" v="Albany"/>
    <tag k="addr:housenumber" v="89"/>
    <tag k="addr:street" v="Water Street"/>
    <tag k="addr:state" v="VT"/>
    <tag k="ref:vcgi:esiteid" v="1458"/>
  </node>
  <node id="-381" visible="true" lat="44.7285618" lon="-72.37876319">
    <tag k="addr:city" v="Albany"/>
    <tag k="addr:housenumber" v="101"/>
    <tag k="addr:street" v="Water Street"/>
    <tag k="addr:state" v="VT"/>
    <tag k="ref:vcgi:esiteid" v="1459"/>
  </node>
  <node id="-382" visible="true" lat="44.72854689" lon="-72.32006381">
    <tag k="addr:city" v="Albany"/>
    <tag k="addr:housenumber" v="3094"/>
    <tag k="addr:street" v="Creek Road"/>
    <tag k="addr:state" v="VT"/>
    <tag k="ref:vcgi:esiteid" v="1460"/>
  </node>
  <node id="-383" visible="true" lat="44.72851262" lon="-72.37360913">
    <tag k="addr:city" v="Albany"/>
    <tag k="addr:housenumber" v="351"/>
    <tag k="addr:street" v="Water Street"/>
    <tag k="addr:state" v="VT"/>
    <tag k="ref:vcgi:esiteid" v="1461"/>
  </node>
  <node id="-384" visible="true" lat="44.72839158" lon="-72.34749085">
    <tag k="addr:city" v="Albany"/>
    <tag k="addr:housenumber" v="1140"/>
    <tag k="addr:street" v="Pitkin Road South"/>
    <tag k="addr:state" v="VT"/>
    <tag k="ref:vcgi:esiteid" v="1462"/>
  </node>
  <node id="-385" visible="true" lat="44.7285179" lon="-72.37815638">
    <tag k="addr:city" v="Albany"/>
    <tag k="addr:housenumber" v="141"/>
    <tag k="addr:street" v="Water Street"/>
    <tag k="addr:state" v="VT"/>
    <tag k="ref:vcgi:esiteid" v="1463"/>
  </node>
  <node id="-387" visible="true" lat="44.72830667" lon="-72.37901505">
    <tag k="addr:city" v="Albany"/>
    <tag k="addr:housenumber" v="94"/>
    <tag k="addr:street" v="Water Street"/>
    <tag k="addr:state" v="VT"/>
    <tag k="ref:vcgi:esiteid" v="1465"/>
  </node>
  <node id="-388" visible="true" lat="44.7282156" lon="-72.37867625">
    <tag k="addr:city" v="Albany"/>
    <tag k="addr:housenumber" v="102"/>
    <tag k="addr:street" v="Water Street"/>
    <tag k="addr:state" v="VT"/>
    <tag k="ref:vcgi:esiteid" v="1466"/>
  </node>
  <node id="-389" visible="true" lat="44.72838711" lon="-72.37723281">
    <tag k="addr:city" v="Albany"/>
    <tag k="addr:housenumber" v="181"/>
    <tag k="addr:street" v="Water Street"/>
    <tag k="addr:state" v="VT"/>
    <tag k="ref:vcgi:esiteid" v="1467"/>
  </node>
  <node id="-390" visible="true" lat="44.72828946" lon="-72.3758304">
    <tag k="addr:city" v="Albany"/>
    <tag k="addr:housenumber" v="249"/>
    <tag k="addr:street" v="Water Street"/>
    <tag k="addr:state" v="VT"/>
    <tag k="ref:vcgi:esiteid" v="1468"/>
  </node>
  <node id="-391" visible="true" lat="44.72822637" lon="-72.37528432">
    <tag k="addr:city" v="Albany"/>
    <tag k="addr:housenumber" v="277"/>
    <tag k="addr:street" v="Water Street"/>
    <tag k="addr:state" v="VT"/>
    <tag k="ref:vcgi:esiteid" v="1469"/>
  </node>
  <node id="-392" visible="true" lat="44.72792937" lon="-72.37624925">
    <tag k="addr:city" v="Albany"/>
    <tag k="addr:housenumber" v="216"/>
    <tag k="addr:street" v="Water Street"/>
    <tag k="addr:state" v="VT"/>
    <tag k="ref:vcgi:esiteid" v="1470"/>
  </node>
  <node id="-393" visible="true" lat="44.7281249" lon="-72.37481251">
    <tag k="addr:city" v="Albany"/>
    <tag k="addr:housenumber" v="299"/>
    <tag k="addr:street" v="Water Street"/>
    <tag k="addr:state" v="VT"/>
    <tag k="ref:vcgi:esiteid" v="1471"/>
  </node>
  <node id="-394" visible="true" lat="44.72808113" lon="-72.37434731">
    <tag k="addr:city" v="Albany"/>
    <tag k="addr:housenumber" v="323"/>
    <tag k="addr:street" v="Water Street"/>
    <tag k="addr:state" v="VT"/>
    <tag k="ref:vcgi:esiteid" v="1472"/>
  </node>
  <node id="-395" visible="true" lat="44.7280993" lon="-72.3713007">
    <tag k="addr:city" v="Albany"/>
    <tag k="addr:housenumber" v="13"/>
    <tag k="addr:street" v="Center Hill Road"/>
    <tag k="addr:state" v="VT"/>
    <tag k="ref:vcgi:esiteid" v="1473"/>
  </node>
  <node id="-397" visible="true" lat="44.72785564" lon="-72.37557188">
    <tag k="addr:city" v="Albany"/>
    <tag k="addr:housenumber" v="260"/>
    <tag k="addr:street" v="Water Street"/>
    <tag k="addr:state" v="VT"/>
    <tag k="ref:vcgi:esiteid" v="1475"/>
  </node>
  <node id="-398" visible="true" lat="44.72793581" lon="-72.37276365">
    <tag k="addr:city" v="Albany"/>
    <tag k="addr:housenumber" v="399"/>
    <tag k="addr:street" v="Water Street"/>
    <tag k="addr:state" v="VT"/>
    <tag k="ref:vcgi:esiteid" v="1476"/>
  </node>
  <node id="-399" visible="true" lat="44.72788747" lon="-72.37207322">
    <tag k="addr:city" v="Albany"/>
    <tag k="addr:housenumber" v="433"/>
    <tag k="addr:street" v="Water Street"/>
    <tag k="addr:state" v="VT"/>
    <tag k="ref:vcgi:esiteid" v="1477"/>
  </node>
  <node id="-400" visible="true" lat="44.72780609" lon="-72.3750534">
    <tag k="addr:city" v="Albany"/>
    <tag k="addr:housenumber" v="290"/>
    <tag k="addr:street" v="Water Street"/>
    <tag k="addr:state" v="VT"/>
    <tag k="ref:vcgi:esiteid" v="1478"/>
  </node>
  <node id="-401" visible="true" lat="44.72758049" lon="-72.37371452">
    <tag k="addr:city" v="Albany"/>
    <tag k="addr:housenumber" v="358"/>
    <tag k="addr:street" v="Water Street"/>
    <tag k="addr:state" v="VT"/>
    <tag k="ref:vcgi:esiteid" v="1479"/>
  </node>
  <node id="-402" visible="true" lat="44.72735866" lon="-72.37351241">
    <tag k="addr:city" v="Albany"/>
    <tag k="addr:housenumber" v="374"/>
    <tag k="addr:street" v="Water Street"/>
    <tag k="addr:state" v="VT"/>
    <tag k="ref:vcgi:esiteid" v="1480"/>
  </node>
  <node id="-403" visible="true" lat="44.72745053" lon="-72.37270968">
    <tag k="addr:city" v="Albany"/>
    <tag k="addr:housenumber" v="410"/>
    <tag k="addr:street" v="Water Street"/>
    <tag k="addr:state" v="VT"/>
    <tag k="ref:vcgi:esiteid" v="1481"/>
  </node>
  <node id="-404" visible="true" lat="44.72743783" lon="-72.37222961">
    <tag k="addr:city" v="Albany"/>
    <tag k="addr:housenumber" v="424"/>
    <tag k="addr:street" v="Water Street"/>
    <tag k="addr:state" v="VT"/>
    <tag k="ref:vcgi:esiteid" v="1482"/>
  </node>
  <node id="-405" visible="true" lat="44.72735502" lon="-72.37243581">
    <tag k="addr:city" v="Albany"/>
    <tag k="addr:housenumber" v="428"/>
    <tag k="addr:street" v="Water Street"/>
    <tag k="addr:state" v="VT"/>
    <tag k="ref:vcgi:esiteid" v="1484"/>
  </node>
  <node id="-406" visible="true" lat="44.72742757" lon="-72.32116704">
    <tag k="addr:city" v="Albany"/>
    <tag k="addr:housenumber" v="3214"/>
    <tag k="addr:street" v="Creek Road"/>
    <tag k="addr:state" v="VT"/>
    <tag k="ref:vcgi:esiteid" v="1485"/>
  </node>
  <node id="-407" visible="true" lat="44.72707521" lon="-72.37486369">
    <tag k="addr:city" v="Albany"/>
    <tag k="addr:housenumber" v="322"/>
    <tag k="addr:street" v="Water Street"/>
    <tag k="addr:state" v="VT"/>
    <tag k="ref:vcgi:esiteid" v="1486"/>
  </node>
  <node id="-409" visible="true" lat="44.72558054" lon="-72.32112163">
    <tag k="addr:city" v="Albany"/>
    <tag k="addr:housenumber" v="3327"/>
    <tag k="addr:street" v="Creek Road"/>
    <tag k="addr:state" v="VT"/>
    <tag k="ref:vcgi:esiteid" v="1488"/>
  </node>
  <node id="-412" visible="true" lat="44.72530152" lon="-72.32245326">
    <tag k="addr:city" v="Albany"/>
    <tag k="addr:housenumber" v="3360"/>
    <tag k="addr:street" v="Creek Road"/>
    <tag k="addr:state" v="VT"/>
    <tag k="ref:vcgi:esiteid" v="1491"/>
  </node>
  <node id="-414" visible="true" lat="44.72412535" lon="-72.3218937">
    <tag k="addr:city" v="Albany"/>
    <tag k="addr:housenumber" v="3427"/>
    <tag k="addr:street" v="Creek Road"/>
    <tag k="addr:state" v="VT"/>
    <tag k="ref:vcgi:esiteid" v="1493"/>
  </node>
  <node id="-416" visible="true" lat="44.72357941" lon="-72.34934235">
    <tag k="addr:city" v="Albany"/>
    <tag k="addr:housenumber" v="754"/>
    <tag k="addr:street" v="Pitkin Road South"/>
    <tag k="addr:state" v="VT"/>
    <tag k="ref:vcgi:esiteid" v="1495"/>
  </node>
  <node id="-417" visible="true" lat="44.72312013" lon="-72.32280724">
    <tag k="addr:city" v="Albany"/>
    <tag k="addr:housenumber" v="3493"/>
    <tag k="addr:street" v="Creek Road"/>
    <tag k="addr:state" v="VT"/>
    <tag k="ref:vcgi:esiteid" v="1496"/>
  </node>
  <node id="-418" visible="true" lat="44.72330215" lon="-72.29337535">
    <tag k="addr:city" v="Albany"/>
    <tag k="addr:housenumber" v="998"/>
    <tag k="addr:street" v="Lafont Road"/>
    <tag k="addr:state" v="VT"/>
    <tag k="ref:vcgi:esiteid" v="1497"/>
  </node>
  <node id="-420" visible="true" lat="44.72303191" lon="-72.32426555">
    <tag k="addr:city" v="Albany"/>
    <tag k="addr:housenumber" v="3540"/>
    <tag k="addr:street" v="Creek Road"/>
    <tag k="addr:state" v="VT"/>
    <tag k="ref:vcgi:esiteid" v="1499"/>
  </node>
  <node id="-423" visible="true" lat="44.72236252" lon="-72.35116577">
    <tag k="addr:city" v="Albany"/>
    <tag k="addr:housenumber" v="667"/>
    <tag k="addr:street" v="Pitkin Road South"/>
    <tag k="addr:state" v="VT"/>
    <tag k="ref:vcgi:esiteid" v="1502"/>
  </node>
  <node id="-425" visible="true" lat="44.72143177" lon="-72.32659748">
    <tag k="addr:city" v="Albany"/>
    <tag k="addr:housenumber" v="3614"/>
    <tag k="addr:street" v="Creek Road"/>
    <tag k="addr:state" v="VT"/>
    <tag k="ref:vcgi:esiteid" v="1504"/>
  </node>
  <node id="-427" visible="true" lat="44.72028229" lon="-72.35155884">
    <tag k="addr:city" v="Albany"/>
    <tag k="addr:housenumber" v="583"/>
    <tag k="addr:street" v="Pitkin Road South"/>
    <tag k="addr:state" v="VT"/>
    <tag k="ref:vcgi:esiteid" v="1506"/>
  </node>
  <node id="-430" visible="true" lat="44.71938144" lon="-72.32700255">
    <tag k="addr:city" v="Albany"/>
    <tag k="addr:housenumber" v="3830"/>
    <tag k="addr:street" v="Creek Road"/>
    <tag k="addr:state" v="VT"/>
    <tag k="ref:vcgi:esiteid" v="1509"/>
  </node>
  <node id="-436" visible="true" lat="44.71793773" lon="-72.32793474">
    <tag k="addr:city" v="Albany"/>
    <tag k="addr:housenumber" v="3938"/>
    <tag k="addr:street" v="Creek Road"/>
    <tag k="addr:state" v="VT"/>
    <tag k="ref:vcgi:esiteid" v="1515"/>
  </node>
  <node id="-437" visible="true" lat="44.71784549" lon="-72.35150003">
    <tag k="addr:city" v="Albany"/>
    <tag k="addr:housenumber" v="369"/>
    <tag k="addr:street" v="Pitkin Road South"/>
    <tag k="addr:state" v="VT"/>
    <tag k="ref:vcgi:esiteid" v="1516"/>
  </node>
  <node id="-438" visible="true" lat="44.71705677" lon="-72.29651277">
    <tag k="addr:city" v="Albany"/>
    <tag k="addr:housenumber" v="1489"/>
    <tag k="addr:street" v="Lafont Road"/>
    <tag k="addr:state" v="VT"/>
    <tag k="ref:vcgi:esiteid" v="1517"/>
  </node>
  <node id="-441" visible="true" lat="44.71672044" lon="-72.32810954">
    <tag k="addr:city" v="Albany"/>
    <tag k="addr:housenumber" v="4031"/>
    <tag k="addr:street" v="Creek Road"/>
    <tag k="addr:state" v="VT"/>
    <tag k="ref:vcgi:esiteid" v="1520"/>
  </node>
  <node id="-443" visible="true" lat="44.71660128" lon="-72.35022789">
    <tag k="addr:city" v="Albany"/>
    <tag k="addr:housenumber" v="244"/>
    <tag k="addr:street" v="Pitkin Road South"/>
    <tag k="addr:state" v="VT"/>
    <tag k="ref:vcgi:esiteid" v="1522"/>
  </node>
  <node id="-448" visible="true" lat="44.71605346" lon="-72.32862925">
    <tag k="addr:city" v="Albany"/>
    <tag k="addr:housenumber" v="4043"/>
    <tag k="addr:street" v="Creek Road"/>
    <tag k="addr:state" v="VT"/>
    <tag k="ref:vcgi:esiteid" v="1527"/>
  </node>
  <node id="-454" visible="true" lat="44.71479088" lon="-72.35501128">
    <tag k="addr:city" v="Albany"/>
    <tag k="addr:housenumber" v="109"/>
    <tag k="addr:street" v="Clark Drive"/>
    <tag k="addr:state" v="VT"/>
    <tag k="ref:vcgi:esiteid" v="1533"/>
  </node>
  <node id="-456" visible="true" lat="44.71417647" lon="-72.33056563">
    <tag k="addr:city" v="Albany"/>
    <tag k="addr:housenumber" v="4222"/>
    <tag k="addr:street" v="Creek Road"/>
    <tag k="addr:state" v="VT"/>
    <tag k="ref:vcgi:esiteid" v="1535"/>
  </node>
  <node id="-457" visible="true" lat="44.71406937" lon="-72.35649109">
    <tag k="addr:city" v="Albany"/>
    <tag k="addr:housenumber" v="87"/>
    <tag k="addr:street" v="Clark Drive"/>
    <tag k="addr:state" v="VT"/>
    <tag k="ref:vcgi:esiteid" v="1536"/>
  </node>
  <node id="-458" visible="true" lat="44.71393842" lon="-72.36101626">
    <tag k="addr:city" v="Albany"/>
    <tag k="addr:housenumber" v="383"/>
    <tag k="addr:street" v="Page Pond Road"/>
    <tag k="addr:state" v="VT"/>
    <tag k="ref:vcgi:esiteid" v="1537"/>
  </node>
  <node id="-459" visible="true" lat="44.71376632" lon="-72.36020497">
    <tag k="addr:city" v="Albany"/>
    <tag k="addr:housenumber" v="415"/>
    <tag k="addr:street" v="Page Pond Road"/>
    <tag k="addr:state" v="VT"/>
    <tag k="ref:vcgi:esiteid" v="1538"/>
  </node>
  <node id="-461" visible="true" lat="44.71356548" lon="-72.33109657">
    <tag k="addr:city" v="Albany"/>
    <tag k="addr:housenumber" v="4268"/>
    <tag k="addr:street" v="Creek Road"/>
    <tag k="addr:state" v="VT"/>
    <tag k="ref:vcgi:esiteid" v="1540"/>
  </node>
  <node id="-462" visible="true" lat="44.71333658" lon="-72.30401949">
    <tag k="addr:city" v="Albany"/>
    <tag k="addr:housenumber" v="1942"/>
    <tag k="addr:street" v="Lafont Road"/>
    <tag k="addr:state" v="VT"/>
    <tag k="ref:vcgi:esiteid" v="1541"/>
  </node>
  <node id="-465" visible="true" lat="44.71299531" lon="-72.33149731">
    <tag k="addr:city" v="Albany"/>
    <tag k="addr:housenumber" v="4316"/>
    <tag k="addr:street" v="Creek Road"/>
    <tag k="addr:state" v="VT"/>
    <tag k="ref:vcgi:esiteid" v="1544"/>
  </node>
  <node id="-466" visible="true" lat="44.7127304" lon="-72.34989929">
    <tag k="addr:city" v="Albany"/>
    <tag k="addr:housenumber" v="1062"/>
    <tag k="addr:street" v="Page Pond Road"/>
    <tag k="addr:state" v="VT"/>
    <tag k="ref:vcgi:esiteid" v="1545"/>
  </node>
  <node id="-468" visible="true" lat="44.71243286" lon="-72.33088684">
    <tag k="addr:city" v="Albany"/>
    <tag k="addr:housenumber" v="4347"/>
    <tag k="addr:street" v="Creek Road"/>
    <tag k="addr:state" v="VT"/>
    <tag k="ref:vcgi:esiteid" v="1547"/>
  </node>
  <node id="-469" visible="true" lat="44.71200003" lon="-72.35666187">
    <tag k="addr:city" v="Albany"/>
    <tag k="addr:housenumber" v="630"/>
    <tag k="addr:street" v="Page Pond Road"/>
    <tag k="addr:state" v="VT"/>
    <tag k="ref:vcgi:esiteid" v="1548"/>
  </node>
  <node id="-474" visible="true" lat="44.71092564" lon="-72.3229791">
    <tag k="addr:city" v="Albany"/>
    <tag k="addr:housenumber" v="4359"/>
    <tag k="addr:street" v="Creek Road"/>
    <tag k="addr:state" v="VT"/>
    <tag k="ref:vcgi:esiteid" v="1553"/>
  </node>
  <node id="-476" visible="true" lat="44.70966339" lon="-72.33513641">
    <tag k="addr:city" v="Albany"/>
    <tag k="addr:housenumber" v="4558"/>
    <tag k="addr:street" v="Creek Road"/>
    <tag k="addr:state" v="VT"/>
    <tag k="ref:vcgi:esiteid" v="1555"/>
  </node>
  <node id="-477" visible="true" lat="44.70819451" lon="-72.30556572">
    <tag k="addr:city" v="Albany"/>
    <tag k="addr:housenumber" v="1710"/>
    <tag k="addr:street" v="Centebar Road"/>
    <tag k="addr:state" v="VT"/>
    <tag k="ref:vcgi:esiteid" v="1556"/>
  </node>
  <node id="-481" visible="true" lat="44.70783233" lon="-72.30340576">
    <tag k="addr:city" v="Albany"/>
    <tag k="addr:housenumber" v="1793"/>
    <tag k="addr:street" v="Centebar Road"/>
    <tag k="addr:state" v="VT"/>
    <tag k="ref:vcgi:esiteid" v="1560"/>
  </node>
  <node id="-487" visible="true" lat="44.70484928" lon="-72.33674908">
    <tag k="addr:city" v="Albany"/>
    <tag k="addr:housenumber" v="4955"/>
    <tag k="addr:street" v="Creek Road"/>
    <tag k="addr:state" v="VT"/>
    <tag k="ref:vcgi:esiteid" v="1567"/>
  </node>
  <node id="-488" visible="true" lat="44.70488559" lon="-72.33735956">
    <tag k="addr:city" v="Albany"/>
    <tag k="addr:housenumber" v="4950"/>
    <tag k="addr:street" v="Creek Road"/>
    <tag k="addr:state" v="VT"/>
    <tag k="ref:vcgi:esiteid" v="1568"/>
  </node>
  <node id="-492" visible="true" lat="44.70282232" lon="-72.33705318">
    <tag k="addr:city" v="Albany"/>
    <tag k="addr:housenumber" v="5139"/>
    <tag k="addr:street" v="Creek Road"/>
    <tag k="addr:state" v="VT"/>
    <tag k="ref:vcgi:esiteid" v="1572"/>
  </node>
  <node id="-499" visible="true" lat="44.70121781" lon="-72.33801887">
    <tag k="addr:city" v="Albany"/>
    <tag k="addr:housenumber" v="5221"/>
    <tag k="addr:street" v="Creek Road"/>
    <tag k="addr:state" v="VT"/>
    <tag k="ref:vcgi:esiteid" v="1579"/>
  </node>
  <node id="-500" visible="true" lat="44.70041391" lon="-72.30791212">
    <tag k="addr:city" v="Albany"/>
    <tag k="addr:housenumber" v="2278"/>
    <tag k="addr:street" v="Centebar Road"/>
    <tag k="addr:state" v="VT"/>
    <tag k="ref:vcgi:esiteid" v="1581"/>
  </node>
  <node id="-502" visible="true" lat="44.70008436" lon="-72.33151649">
    <tag k="addr:city" v="Albany"/>
    <tag k="addr:housenumber" v="335"/>
    <tag k="addr:street" v="South Albany Road"/>
    <tag k="addr:state" v="VT"/>
    <tag k="ref:vcgi:esiteid" v="1583"/>
  </node>
  <node id="-503" visible="true" lat="44.69955249" lon="-72.33032994">
    <tag k="addr:city" v="Albany"/>
    <tag k="addr:housenumber" v="407"/>
    <tag k="addr:street" v="South Albany Road"/>
    <tag k="addr:state" v="VT"/>
    <tag k="ref:vcgi:esiteid" v="1584"/>
  </node>
  <node id="-504" visible="true" lat="44.6996772" lon="-72.32880958">
    <tag k="addr:city" v="Albany"/>
    <tag k="addr:housenumber" v="487"/>
    <tag k="addr:street" v="South Albany Road"/>
    <tag k="addr:state" v="VT"/>
    <tag k="ref:vcgi:esiteid" v="1585"/>
  </node>
  <node id="-509" visible="true" lat="44.6972084" lon="-72.31496429">
    <tag k="addr:city" v="Albany"/>
    <tag k="addr:housenumber" v="360"/>
    <tag k="addr:street" v="Richardson Drive"/>
    <tag k="addr:state" v="VT"/>
    <tag k="ref:vcgi:esiteid" v="1590"/>
  </node>
  <node id="-510" visible="true" lat="44.69681436" lon="-72.32775708">
    <tag k="addr:city" v="Albany"/>
    <tag k="addr:housenumber" v="613"/>
    <tag k="addr:street" v="South Albany Road"/>
    <tag k="addr:state" v="VT"/>
    <tag k="ref:vcgi:esiteid" v="1591"/>
  </node>
  <node id="-513" visible="true" lat="44.69487864" lon="-72.32095526">
    <tag k="addr:city" v="Albany"/>
    <tag k="addr:housenumber" v="981"/>
    <tag k="addr:street" v="South Albany Road"/>
    <tag k="addr:state" v="VT"/>
    <tag k="ref:vcgi:esiteid" v="1594"/>
  </node>
  <node id="-514" visible="true" lat="44.69424057" lon="-72.32589722">
    <tag k="addr:city" v="Albany"/>
    <tag k="addr:housenumber" v="688"/>
    <tag k="addr:street" v="South Albany Road"/>
    <tag k="addr:state" v="VT"/>
    <tag k="ref:vcgi:esiteid" v="1595"/>
  </node>
  <node id="-515" visible="true" lat="44.693867" lon="-72.31951652">
    <tag k="addr:city" v="Albany"/>
    <tag k="addr:housenumber" v="1068"/>
    <tag k="addr:street" v="South Albany Road"/>
    <tag k="addr:state" v="VT"/>
    <tag k="ref:vcgi:esiteid" v="1596"/>
  </node>
  <node id="-516" visible="true" lat="44.69432661" lon="-72.31670138">
    <tag k="addr:city" v="Albany"/>
    <tag k="addr:housenumber" v="135"/>
    <tag k="addr:street" v="Richardson Drive"/>
    <tag k="addr:state" v="VT"/>
    <tag k="ref:vcgi:esiteid" v="1597"/>
  </node>
  <node id="-519" visible="true" lat="44.69297596" lon="-72.30545211">
    <tag k="addr:city" v="Albany"/>
    <tag k="addr:housenumber" v="245"/>
    <tag k="addr:street" v="Rowell Road"/>
    <tag k="addr:state" v="VT"/>
    <tag k="ref:vcgi:esiteid" v="1600"/>
  </node>
  <node id="-521" visible="true" lat="44.69234778" lon="-72.31368913">
    <tag k="addr:city" v="Albany"/>
    <tag k="addr:housenumber" v="1375"/>
    <tag k="addr:street" v="South Albany Road"/>
    <tag k="addr:state" v="VT"/>
    <tag k="ref:vcgi:esiteid" v="1602"/>
  </node>
  <node id="-522" visible="true" lat="44.69225814" lon="-72.31332061">
    <tag k="addr:city" v="Albany"/>
    <tag k="addr:housenumber" v="1393"/>
    <tag k="addr:street" v="South Albany Road"/>
    <tag k="addr:state" v="VT"/>
    <tag k="ref:vcgi:esiteid" v="1603"/>
  </node>
  <node id="-523" visible="true" lat="44.69167145" lon="-72.31096218">
    <tag k="addr:city" v="Albany"/>
    <tag k="addr:housenumber" v="16"/>
    <tag k="addr:street" v="Hartwell Pond Road"/>
    <tag k="addr:state" v="VT"/>
    <tag k="ref:vcgi:esiteid" v="1604"/>
  </node>
  <node id="-524" visible="true" lat="44.69134132" lon="-72.31320244">
    <tag k="addr:city" v="Albany"/>
    <tag k="addr:housenumber" v="26"/>
    <tag k="addr:street" v="Sawmill Lane"/>
    <tag k="addr:state" v="VT"/>
    <tag k="ref:vcgi:esiteid" v="1605"/>
  </node>
  <node id="-525" visible="true" lat="44.69138119" lon="-72.3117534">
    <tag k="addr:city" v="Albany"/>
    <tag k="addr:housenumber" v="1502"/>
    <tag k="addr:street" v="South Albany Road"/>
    <tag k="addr:state" v="VT"/>
    <tag k="ref:vcgi:esiteid" v="1606"/>
  </node>
  <node id="-527" visible="true" lat="44.69141256" lon="-72.31224369">
    <tag k="addr:city" v="Albany"/>
    <tag k="addr:housenumber" v="1474"/>
    <tag k="addr:street" v="South Albany Road"/>
    <tag k="addr:state" v="VT"/>
    <tag k="ref:vcgi:esiteid" v="1608"/>
  </node>
  <node id="-528" visible="true" lat="44.69122278" lon="-72.31130974">
    <tag k="addr:city" v="Albany"/>
    <tag k="addr:housenumber" v="1507"/>
    <tag k="addr:street" v="South Albany Road"/>
    <tag k="addr:state" v="VT"/>
    <tag k="ref:vcgi:esiteid" v="1609"/>
  </node>
  <node id="-529" visible="true" lat="44.69116048" lon="-72.31285424">
    <tag k="addr:city" v="Albany"/>
    <tag k="addr:housenumber" v="61"/>
    <tag k="addr:street" v="Sawmill Lane"/>
    <tag k="addr:state" v="VT"/>
    <tag k="ref:vcgi:esiteid" v="1610"/>
  </node>
  <node id="-530" visible="true" lat="44.69106186" lon="-72.31190034">
    <tag k="addr:city" v="Albany"/>
    <tag k="addr:housenumber" v="1534"/>
    <tag k="addr:street" v="South Albany Road"/>
    <tag k="addr:state" v="VT"/>
    <tag k="ref:vcgi:esiteid" v="1611"/>
  </node>
  <node id="-531" visible="true" lat="44.69053379" lon="-72.31187997">
    <tag k="addr:city" v="Albany"/>
    <tag k="addr:housenumber" v="1543"/>
    <tag k="addr:street" v="South Albany Road"/>
    <tag k="addr:state" v="VT"/>
    <tag k="ref:vcgi:esiteid" v="1612"/>
  </node>
  <node id="-532" visible="true" lat="44.69022179" lon="-72.31221769">
    <tag k="addr:city" v="Albany"/>
    <tag k="addr:housenumber" v="1587"/>
    <tag k="addr:street" v="South Albany Road"/>
    <tag k="addr:state" v="VT"/>
    <tag k="ref:vcgi:esiteid" v="1613"/>
  </node>
  <node id="-536" visible="true" lat="44.68545092" lon="-72.30862399">
    <tag k="addr:city" v="Albany"/>
    <tag k="addr:housenumber" v="1953"/>
    <tag k="addr:street" v="South Albany Road"/>
    <tag k="addr:state" v="VT"/>
    <tag k="ref:vcgi:esiteid" v="1617"/>
  </node>
  <node id="-541" visible="true" lat="44.717792" lon="-72.32299324">
    <tag k="addr:city" v="Albany"/>
    <tag k="addr:housenumber" v="3691"/>
    <tag k="addr:street" v="Creek Road"/>
    <tag k="addr:state" v="VT"/>
    <tag k="ref:vcgi:esiteid" v="1623"/>
  </node>
  <node id="-544" visible="true" lat="44.71877524" lon="-72.32194715">
    <tag k="addr:city" v="Albany"/>
    <tag k="addr:housenumber" v="3689"/>
    <tag k="addr:street" v="Creek Road"/>
    <tag k="addr:state" v="VT"/>
    <tag k="ref:vcgi:esiteid" v="1626"/>
  </node>
  <node id="-549" visible="true" lat="44.72676391" lon="-72.29179856">
    <tag k="addr:city" v="Albany"/>
    <tag k="addr:housenumber" v="250"/>
    <tag k="addr:street" v="Holliday Road"/>
    <tag k="addr:state" v="VT"/>
    <tag k="ref:vcgi:esiteid" v="1632"/>
  </node>
  <node id="-550" visible="true" lat="44.72771238" lon="-72.37418706">
    <tag k="addr:city" v="Albany"/>
    <tag k="addr:housenumber" v="304"/>
    <tag k="addr:street" v="Water Street"/>
    <tag k="addr:state" v="VT"/>
    <tag k="ref:vcgi:esiteid" v="1633"/>
  </node>
  <node id="-551" visible="true" lat="44.73223973" lon="-72.37962783">
    <tag k="addr:city" v="Albany"/>
    <tag k="addr:housenumber" v="762"/>
    <tag k="addr:street" v="Main Street"/>
    <tag k="addr:state" v="VT"/>
    <tag k="ref:vcgi:esiteid" v="1634"/>
  </node>
  <node id="-552" visible="true" lat="44.71744855" lon="-72.32834752">
    <tag k="addr:city" v="Albany"/>
    <tag k="addr:housenumber" v="3944"/>
    <tag k="addr:street" v="Creek Road"/>
    <tag k="addr:state" v="VT"/>
    <tag k="ref:vcgi:esiteid" v="1635"/>
  </node>
  <node id="-557" visible="true" lat="44.72805645" lon="-72.37344095">
    <tag k="addr:city" v="Albany"/>
    <tag k="addr:housenumber" v="361"/>
    <tag k="addr:street" v="Water Street"/>
    <tag k="addr:state" v="VT"/>
    <tag k="ref:vcgi:esiteid" v="1640"/>
  </node>
  <node id="-558" visible="true" lat="44.75674797" lon="-72.29884329">
    <tag k="addr:city" v="Albany"/>
    <tag k="addr:housenumber" v="833"/>
    <tag k="addr:street" v="Creek Road"/>
    <tag k="addr:state" v="VT"/>
    <tag k="ref:vcgi:esiteid" v="1641"/>
  </node>
  <node id="-563" visible="true" lat="44.70315647" lon="-72.33964906">
    <tag k="addr:city" v="Albany"/>
    <tag k="addr:housenumber" v="5088"/>
    <tag k="addr:street" v="Creek Road"/>
    <tag k="addr:state" v="VT"/>
    <tag k="ref:vcgi:esiteid" v="1646"/>
  </node>
  <node id="-569" visible="true" lat="44.75864077" lon="-72.29845735">
    <tag k="addr:city" v="Albany"/>
    <tag k="addr:housenumber" v="691"/>
    <tag k="addr:street" v="Creek Road"/>
    <tag k="addr:state" v="VT"/>
    <tag k="ref:vcgi:esiteid" v="1653"/>
  </node>
  <node id="-580" visible="true" lat="44.73551781" lon="-72.30156468">
    <tag k="addr:city" v="Albany"/>
    <tag k="addr:housenumber" v="913"/>
    <tag k="addr:street" v="Barton Road"/>
    <tag k="addr:state" v="VT"/>
    <tag k="ref:vcgi:esiteid" v="1665"/>
  </node>
  <node id="-581" visible="true" lat="44.75523928" lon="-72.31862968">
    <tag k="addr:city" v="Albany"/>
    <tag k="addr:housenumber" v="1552"/>
    <tag k="addr:street" v="Chamberlin Hill Road"/>
    <tag k="addr:state" v="VT"/>
    <tag k="ref:vcgi:esiteid" v="1666"/>
  </node>
  <node id="-590" visible="true" lat="44.7276551" lon="-72.37016086">
    <tag k="addr:city" v="Albany"/>
    <tag k="addr:housenumber" v="103"/>
    <tag k="addr:street" v="Hitchcock Hill Road"/>
    <tag k="addr:state" v="VT"/>
    <tag k="ref:vcgi:esiteid" v="1675"/>
  </node>
  <node id="-591" visible="true" lat="44.71138698" lon="-72.35543563">
    <tag k="addr:city" v="Albany"/>
    <tag k="addr:housenumber" v="676"/>
    <tag k="addr:street" v="Page Pond Road"/>
    <tag k="addr:state" v="VT"/>
    <tag k="ref:vcgi:esiteid" v="1676"/>
  </node>
  <node id="-592" visible="true" lat="44.72736763" lon="-72.37426504">
    <tag k="addr:city" v="Albany"/>
    <tag k="addr:housenumber" v="316"/>
    <tag k="addr:street" v="Water Street"/>
    <tag k="addr:state" v="VT"/>
    <tag k="ref:vcgi:esiteid" v="1677"/>
  </node>
  <node id="-595" visible="true" lat="44.7349375" lon="-72.34796508">
    <tag k="addr:city" v="Albany"/>
    <tag k="addr:housenumber" v="126"/>
    <tag k="addr:street" v="Daniels Road West"/>
    <tag k="addr:state" v="VT"/>
    <tag k="ref:vcgi:esiteid" v="1680"/>
  </node>
  <node id="-596" visible="true" lat="44.73539499" lon="-72.29210585">
    <tag k="addr:city" v="Albany"/>
    <tag k="addr:housenumber" v="1356"/>
    <tag k="addr:street" v="Barton Road"/>
    <tag k="addr:state" v="VT"/>
    <tag k="ref:vcgi:esiteid" v="1681"/>
  </node>
  <node id="-598" visible="true" lat="44.73266312" lon="-72.29040242">
    <tag k="addr:city" v="Albany"/>
    <tag k="addr:housenumber" v="321"/>
    <tag k="addr:street" v="Lafont Road"/>
    <tag k="addr:state" v="VT"/>
    <tag k="ref:vcgi:esiteid" v="1683"/>
  </node>
  <node id="-599" visible="true" lat="44.70170818" lon="-72.33887247">
    <tag k="addr:city" v="Albany"/>
    <tag k="addr:housenumber" v="5202"/>
    <tag k="addr:street" v="Creek Road"/>
    <tag k="addr:state" v="VT"/>
    <tag k="ref:vcgi:esiteid" v="1684"/>
  </node>
  <node id="-603" visible="true" lat="44.70120155" lon="-72.33508926">
    <tag k="addr:city" v="Albany"/>
    <tag k="addr:housenumber" v="241"/>
    <tag k="addr:street" v="South Albany Road"/>
    <tag k="addr:state" v="VT"/>
    <tag k="ref:vcgi:esiteid" v="1689"/>
  </node>
  <node id="-605" visible="true" lat="44.74702781" lon="-72.28948301">
    <tag k="addr:city" v="Albany"/>
    <tag k="addr:housenumber" v="1049"/>
    <tag k="addr:street" v="Kingdom Road"/>
    <tag k="addr:state" v="VT"/>
    <tag k="ref:vcgi:esiteid" v="1691"/>
  </node>
  <node id="-606" visible="true" lat="44.73607828" lon="-72.35274731">
    <tag k="addr:city" v="Albany"/>
    <tag k="addr:housenumber" v="1067"/>
    <tag k="addr:street" v="Center Hill Road"/>
    <tag k="addr:state" v="VT"/>
    <tag k="ref:vcgi:esiteid" v="1692"/>
  </node>
  <node id="-607" visible="true" lat="44.700867" lon="-72.33268983">
    <tag k="addr:city" v="Albany"/>
    <tag k="addr:housenumber" v="301"/>
    <tag k="addr:street" v="South Albany Road"/>
    <tag k="addr:state" v="VT"/>
    <tag k="ref:vcgi:esiteid" v="1693"/>
  </node>
  <node id="-611" visible="true" lat="44.76017424" lon="-72.29658164">
    <tag k="addr:city" v="Albany"/>
    <tag k="addr:housenumber" v="585"/>
    <tag k="addr:street" v="Creek Road"/>
    <tag k="addr:state" v="VT"/>
    <tag k="ref:vcgi:esiteid" v="1697"/>
  </node>
  <node id="-612" visible="true" lat="44.72930917" lon="-72.31874677">
    <tag k="addr:city" v="Albany"/>
    <tag k="addr:housenumber" v="3026"/>
    <tag k="addr:street" v="Creek Road"/>
    <tag k="addr:state" v="VT"/>
    <tag k="ref:vcgi:esiteid" v="1698"/>
  </node>
  <node id="-613" visible="true" lat="44.75731294" lon="-72.29684867">
    <tag k="addr:city" v="Albany"/>
    <tag k="addr:housenumber" v="149"/>
    <tag k="addr:street" v="Kingdom Road"/>
    <tag k="addr:state" v="VT"/>
    <tag k="ref:vcgi:esiteid" v="1699"/>
  </node>
  <node id="-614" visible="true" lat="44.72750802" lon="-72.29782166">
    <tag k="addr:city" v="Albany"/>
    <tag k="addr:housenumber" v="91"/>
    <tag k="addr:street" v="Gluck Road"/>
    <tag k="addr:state" v="VT"/>
    <tag k="ref:vcgi:esiteid" v="1701"/>
  </node>
  <node id="-618" visible="true" lat="44.73178901" lon="-72.36851581">
    <tag k="addr:city" v="Albany"/>
    <tag k="addr:housenumber" v="299"/>
    <tag k="addr:street" v="Center Hill Road"/>
    <tag k="addr:state" v="VT"/>
    <tag k="ref:vcgi:esiteid" v="306688"/>
  </node>
  <node id="-621" visible="true" lat="44.7296716" lon="-72.37065484">
    <tag k="addr:city" v="Albany"/>
    <tag k="addr:housenumber" v="181"/>
    <tag k="addr:street" v="Center Hill Road"/>
    <tag k="addr:state" v="VT"/>
    <tag k="ref:vcgi:esiteid" v="315260"/>
  </node>
  <node id="-622" visible="true" lat="44.75325055" lon="-72.2927166">
    <tag k="addr:city" v="Albany"/>
    <tag k="addr:housenumber" v="444"/>
    <tag k="addr:street" v="Kingdom Road"/>
    <tag k="addr:state" v="VT"/>
    <tag k="ref:vcgi:esiteid" v="316756"/>
  </node>
  <node id="-630" visible="true" lat="44.73598568" lon="-72.28743361">
    <tag k="addr:city" v="Albany"/>
    <tag k="addr:housenumber" v="162"/>
    <tag k="addr:street" v="Sinon Road"/>
    <tag k="addr:state" v="VT"/>
    <tag k="ref:vcgi:esiteid" v="328259"/>
  </node>
  <node id="-635" visible="true" lat="44.70380319" lon="-72.33752543">
    <tag k="addr:city" v="Albany"/>
    <tag k="addr:housenumber" v="5069"/>
    <tag k="addr:street" v="Creek Road"/>
    <tag k="addr:state" v="VT"/>
    <tag k="ref:vcgi:esiteid" v="335425"/>
  </node>
  <node id="-639" visible="true" lat="44.73119304" lon="-72.37906136">
    <tag k="addr:city" v="Albany"/>
    <tag k="addr:housenumber" v="827"/>
    <tag k="addr:street" v="Main Street"/>
    <tag k="addr:state" v="VT"/>
    <tag k="ref:vcgi:esiteid" v="337624"/>
  </node>
  <node id="-648" visible="true" lat="44.73633346" lon="-72.3512343">
    <tag k="addr:city" v="Albany"/>
    <tag k="addr:housenumber" v="1105"/>
    <tag k="addr:street" v="Center Hill Road"/>
    <tag k="addr:state" v="VT"/>
    <tag k="ref:vcgi:esiteid" v="341759"/>
  </node>
  <node id="-652" visible="true" lat="44.74037012" lon="-72.27095215">
    <tag k="addr:city" v="Albany"/>
    <tag k="addr:housenumber" v="2742"/>
    <tag k="addr:street" v="Barton Road"/>
    <tag k="addr:state" v="VT"/>
    <tag k="ref:vcgi:esiteid" v="342567"/>
  </node>
  <node id="-659" visible="true" lat="44.69214878" lon="-72.30760032">
    <tag k="addr:city" v="Albany"/>
    <tag k="addr:housenumber" v="98"/>
    <tag k="addr:street" v="Rowell Road"/>
    <tag k="addr:state" v="VT"/>
    <tag k="ref:vcgi:esiteid" v="344409"/>
  </node>
  <node id="-661" visible="true" lat="44.71529745" lon="-72.35027207">
    <tag k="addr:city" v="Albany"/>
    <tag k="addr:housenumber" v="144"/>
    <tag k="addr:street" v="Pitkin Road South"/>
    <tag k="addr:state" v="VT"/>
    <tag k="ref:vcgi:esiteid" v="345155"/>
  </node>
  <node id="-662" visible="true" lat="44.76264283" lon="-72.31650608">
    <tag k="addr:city" v="Albany"/>
    <tag k="addr:housenumber" v="1174"/>
    <tag k="addr:street" v="Chamberlin Hill Road"/>
    <tag k="addr:state" v="VT"/>
    <tag k="ref:vcgi:esiteid" v="365045"/>
  </node>
  <node id="-698" visible="true" lat="44.67951155" lon="-72.32194647">
    <tag k="addr:city" v="Albany"/>
    <tag k="addr:housenumber" v="807"/>
    <tag k="addr:street" v="Urie Road"/>
    <tag k="addr:state" v="VT"/>
    <tag k="ref:vcgi:esiteid" v="448413"/>
  </node>
  <node id="-701" visible="true" lat="44.74451328" lon="-72.33392528">
    <tag k="addr:city" v="Albany"/>
    <tag k="addr:housenumber" v="2595"/>
    <tag k="addr:street" v="Chamberlin Hill Road"/>
    <tag k="addr:state" v="VT"/>
    <tag k="ref:vcgi:esiteid" v="448927"/>
  </node>
  <node id="-708" visible="true" lat="44.71534298" lon="-72.35139338">
    <tag k="addr:city" v="Albany"/>
    <tag k="addr:housenumber" v="145"/>
    <tag k="addr:street" v="Pitkin Road South"/>
    <tag k="addr:state" v="VT"/>
    <tag k="ref:vcgi:esiteid" v="448937"/>
  </node>
  <node id="-711" visible="true" lat="44.74032417" lon="-72.28704812">
    <tag k="addr:city" v="Albany"/>
    <tag k="addr:housenumber" v="1828"/>
    <tag k="addr:street" v="Barton Road"/>
    <tag k="addr:state" v="VT"/>
    <tag k="ref:vcgi:esiteid" v="449902"/>
  </node>
  <node id="-716" visible="true" lat="44.72743885" lon="-72.37583801">
    <tag k="addr:city" v="Albany"/>
    <tag k="addr:housenumber" v="274"/>
    <tag k="addr:street" v="Water Street"/>
    <tag k="addr:state" v="VT"/>
    <tag k="ref:vcgi:esiteid" v="453831"/>
  </node>
  <node id="-718" visible="true" lat="44.69379877" lon="-72.31501268">
    <tag k="addr:city" v="Albany"/>
    <tag k="addr:housenumber" v="1289"/>
    <tag k="addr:street" v="South Albany Road"/>
    <tag k="addr:state" v="VT"/>
    <tag k="ref:vcgi:esiteid" v="455366"/>
  </node>
  <node id="-760" visible="true" lat="44.72998831" lon="-72.29439716">
    <tag k="addr:city" v="Albany"/>
    <tag k="addr:housenumber" v="536"/>
    <tag k="addr:street" v="Lafont Road"/>
    <tag k="addr:state" v="VT"/>
    <tag k="ref:vcgi:esiteid" v="618552"/>
  </node>
  <node id="-771" visible="true" lat="44.69350052" lon="-72.31713694">
    <tag k="addr:city" v="Albany"/>
    <tag k="addr:housenumber" v="1171"/>
    <tag k="addr:street" v="South Albany Road"/>
    <tag k="addr:state" v="VT"/>
    <tag k="ref:vcgi:esiteid" v="754748"/>
  </node>
  <node id="-773" visible="true" lat="44.73845391" lon="-72.32540989">
    <tag k="addr:city" v="Albany"/>
    <tag k="addr:housenumber" v="726"/>
    <tag k="addr:street" v="Daniels Road East"/>
    <tag k="addr:state" v="VT"/>
    <tag k="ref:vcgi:esiteid" v="756335"/>
  </node>
</osm>
