<?xml version="1.0" encoding="UTF-8"?>
<osm version="0.6" generator="JOSM" upload="false">
  <node id="-115" visible="true" lat="44.88792644" lon="-73.28465191">
    <!-- conflict: "36 Vermont Route 129, Alburgh, VT" No match in OSM, but a different address exists <5m away: "36 Vt Route 129, Alburgh, VT" -->
    <tag k="addr:city" v="Alburgh"/>
    <tag k="addr:housenumber" v="36"/>
    <tag k="addr:street" v="Vermont Route 129"/>
    <tag k="addr:state" v="VT"/>
    <tag k="ref:vcgi:esiteid" v="1714"/>
  </node>
  <node id="-118" visible="true" lat="44.89249878" lon="-73.27937518">
    <!-- conflict: "7250 U.S. Route 2 South, Alburgh, VT" Fuzzy match to "7250 US Route 2 South, Alburgh, VT" -->
    <tag k="addr:city" v="Alburgh"/>
    <tag k="addr:housenumber" v="7250"/>
    <tag k="addr:street" v="U.S. Route 2 South"/>
    <tag k="addr:state" v="VT"/>
    <tag k="ref:vcgi:esiteid" v="1717"/>
  </node>
  <node id="-126" visible="true" lat="44.95094971" lon="-73.27079386">
    <!-- conflict: "2911 U.S. Route 2 South, Alburgh, VT" No match in OSM, but a different address exists <5m away: "307 U.S. Route 2 South, Alburgh, VT" -->
    <tag k="addr:city" v="Alburgh"/>
    <tag k="addr:housenumber" v="2911"/>
    <tag k="addr:street" v="U.S. Route 2 South"/>
    <tag k="addr:state" v="VT"/>
    <tag k="ref:vcgi:esiteid" v="1725"/>
  </node>
  <node id="-137" visible="true" lat="44.86615553" lon="-73.30307684">
    <!-- conflict: "244 Dunes Drive, Alburgh, VT" No match in OSM, but a different address exists <5m away: "151 Coon Point Road, Alburgh, VT" -->
    <tag k="addr:city" v="Alburgh"/>
    <tag k="addr:housenumber" v="244"/>
    <tag k="addr:street" v="Dunes Drive"/>
    <tag k="addr:state" v="VT"/>
    <tag k="ref:vcgi:esiteid" v="1736"/>
  </node>
  <node id="-172" visible="true" lat="44.88117839" lon="-73.30431534">
    <!-- conflict: "475 Palmers Sand Beach Road, Alburgh, VT" No match in OSM, but a different address exists <5m away: "51 Coon Point Road, Alburgh, VT" -->
    <tag k="addr:city" v="Alburgh"/>
    <tag k="addr:housenumber" v="475"/>
    <tag k="addr:street" v="Palmers Sand Beach Road"/>
    <tag k="addr:state" v="VT"/>
    <tag k="ref:vcgi:esiteid" v="1771"/>
  </node>
  <node id="-189" visible="true" lat="44.88876861" lon="-73.27770578">
    <!-- conflict: "7519 U.S. Route 2 South, Alburgh, VT" Fuzzy match to "7519 US Route 2 South, Alburgh, VT" -->
    <tag k="addr:city" v="Alburgh"/>
    <tag k="addr:housenumber" v="7519"/>
    <tag k="addr:street" v="U.S. Route 2 South"/>
    <tag k="addr:state" v="VT"/>
    <tag k="ref:vcgi:esiteid" v="1788"/>
  </node>
  <node id="-190" visible="true" lat="44.88902567" lon="-73.27772042">
    <!-- conflict: "7509 U.S. Route 2 South, Alburgh, VT" Fuzzy match to "7509 US Route 2 South, Alburgh, VT" -->
    <tag k="addr:city" v="Alburgh"/>
    <tag k="addr:housenumber" v="7509"/>
    <tag k="addr:street" v="U.S. Route 2 South"/>
    <tag k="addr:state" v="VT"/>
    <tag k="ref:vcgi:esiteid" v="1789"/>
  </node>
  <node id="-191" visible="true" lat="44.88982153" lon="-73.27774037">
    <!-- conflict: "7453 U.S. Route 2 South, Alburgh, VT" Fuzzy match to "7453 US Route 2 South, Alburgh, VT" -->
    <tag k="addr:city" v="Alburgh"/>
    <tag k="addr:housenumber" v="7453"/>
    <tag k="addr:street" v="U.S. Route 2 South"/>
    <tag k="addr:state" v="VT"/>
    <tag k="ref:vcgi:esiteid" v="1790"/>
  </node>
  <node id="-192" visible="true" lat="44.88942684" lon="-73.27780448">
    <!-- conflict: "7459 U.S. Route 2 South, Alburgh, VT" Fuzzy match to "7459 US Route 2 South, Alburgh, VT" -->
    <tag k="addr:city" v="Alburgh"/>
    <tag k="addr:housenumber" v="7459"/>
    <tag k="addr:street" v="U.S. Route 2 South"/>
    <tag k="addr:state" v="VT"/>
    <tag k="ref:vcgi:esiteid" v="1791"/>
  </node>
  <node id="-193" visible="true" lat="44.88919758" lon="-73.27787038">
    <!-- conflict: "7481 U.S. Route 2 South, Alburgh, VT" Fuzzy match to "7481 US Route 2 South, Alburgh, VT" -->
    <tag k="addr:city" v="Alburgh"/>
    <tag k="addr:housenumber" v="7481"/>
    <tag k="addr:street" v="U.S. Route 2 South"/>
    <tag k="addr:state" v="VT"/>
    <tag k="ref:vcgi:esiteid" v="1792"/>
  </node>
  <node id="-194" visible="true" lat="44.95509225" lon="-73.26529841">
    <!-- conflict: "81 Center Bay Road North, Alburgh, VT" No match in OSM, but a different address exists <5m away: "1 Center Bay North, Alburgh, VT" -->
    <tag k="addr:city" v="Alburgh"/>
    <tag k="addr:housenumber" v="81"/>
    <tag k="addr:street" v="Center Bay Road North"/>
    <tag k="addr:state" v="VT"/>
    <tag k="ref:vcgi:esiteid" v="1793"/>
  </node>
  <node id="-195" visible="true" lat="44.95602269" lon="-73.26544103">
    <!-- conflict: "143 Center Bay Road North, Alburgh, VT" No match in OSM, but a different address exists <5m away: "9 Center Bay Road North, Alburgh, VT" -->
    <tag k="addr:city" v="Alburgh"/>
    <tag k="addr:housenumber" v="143"/>
    <tag k="addr:street" v="Center Bay Road North"/>
    <tag k="addr:state" v="VT"/>
    <tag k="ref:vcgi:esiteid" v="1794"/>
  </node>
  <node id="-196" visible="true" lat="44.95584037" lon="-73.2654119">
    <!-- conflict: "129 Center Bay Road North, Alburgh, VT" No match in OSM, but a different address exists <5m away: "7 Center Bay Road North, Alburgh, VT" -->
    <tag k="addr:city" v="Alburgh"/>
    <tag k="addr:housenumber" v="129"/>
    <tag k="addr:street" v="Center Bay Road North"/>
    <tag k="addr:state" v="VT"/>
    <tag k="ref:vcgi:esiteid" v="1795"/>
  </node>
  <node id="-197" visible="true" lat="44.95562374" lon="-73.26540376">
    <!-- conflict: "109 Center Bay Road North, Alburgh, VT" No match in OSM, but a different address exists <5m away: "5 Center Bay Road North, Alburgh, VT" -->
    <tag k="addr:city" v="Alburgh"/>
    <tag k="addr:housenumber" v="109"/>
    <tag k="addr:street" v="Center Bay Road North"/>
    <tag k="addr:state" v="VT"/>
    <tag k="ref:vcgi:esiteid" v="1796"/>
  </node>
  <node id="-198" visible="true" lat="44.95529455" lon="-73.26530259">
    <!-- conflict: "95 Center Bay Road North, Alburgh, VT" No match in OSM, but a different address exists <5m away: "3 Center Bay North, Alburgh, VT" -->
    <tag k="addr:city" v="Alburgh"/>
    <tag k="addr:housenumber" v="95"/>
    <tag k="addr:street" v="Center Bay Road North"/>
    <tag k="addr:state" v="VT"/>
    <tag k="ref:vcgi:esiteid" v="1797"/>
  </node>
  <node id="-199" visible="true" lat="44.95628357" lon="-73.26568603">
    <!-- conflict: "161 Center Bay Road North, Alburgh, VT" No match in OSM, but a different address exists <5m away: "11 Center Bay North, Alburgh, VT" -->
    <tag k="addr:city" v="Alburgh"/>
    <tag k="addr:housenumber" v="161"/>
    <tag k="addr:street" v="Center Bay Road North"/>
    <tag k="addr:state" v="VT"/>
    <tag k="ref:vcgi:esiteid" v="1798"/>
  </node>
  <node id="-305" visible="true" lat="44.85660656" lon="-73.2902567">
    <!-- conflict: "228 Poor Farm Road Extension, Alburgh, VT" Fuzzy match to "228 Poor Farm Rd Extension, Alburgh, VT" -->
    <tag k="addr:city" v="Alburgh"/>
    <tag k="addr:housenumber" v="228"/>
    <tag k="addr:street" v="Poor Farm Road Extension"/>
    <tag k="addr:state" v="VT"/>
    <tag k="ref:vcgi:esiteid" v="1908"/>
  </node>
  <node id="-306" visible="true" lat="44.85656198" lon="-73.28977551">
    <!-- conflict: "229 Poor Farm Road Extension, Alburgh, VT" Fuzzy match to "229 Poor Farm Rd Extension, Alburgh, VT" -->
    <tag k="addr:city" v="Alburgh"/>
    <tag k="addr:housenumber" v="229"/>
    <tag k="addr:street" v="Poor Farm Road Extension"/>
    <tag k="addr:state" v="VT"/>
    <tag k="ref:vcgi:esiteid" v="1909"/>
  </node>
  <node id="-308" visible="true" lat="44.85636843" lon="-73.2898273">
    <!-- conflict: "233 Poor Farm Road Extension, Alburgh, VT" Fuzzy match to "233 Poor Farm Rd Extension, Alburgh, VT" -->
    <tag k="addr:city" v="Alburgh"/>
    <tag k="addr:housenumber" v="233"/>
    <tag k="addr:street" v="Poor Farm Road Extension"/>
    <tag k="addr:state" v="VT"/>
    <tag k="ref:vcgi:esiteid" v="1911"/>
  </node>
  <node id="-321" visible="true" lat="44.95500812" lon="-73.26573401">
    <!-- conflict: "60 Mooney Drive, Alburgh, VT" No match in OSM, but a different address exists <5m away: "6 Mooney Drive, Alburgh, VT" -->
    <tag k="addr:city" v="Alburgh"/>
    <tag k="addr:housenumber" v="60"/>
    <tag k="addr:street" v="Mooney Drive"/>
    <tag k="addr:state" v="VT"/>
    <tag k="ref:vcgi:esiteid" v="1924"/>
  </node>
  <node id="-322" visible="true" lat="44.95514993" lon="-73.26572791">
    <!-- conflict: "78 Mooney Drive, Alburgh, VT" No match in OSM, but a different address exists <5m away: "8 Mooney Drive, Alburgh, VT" -->
    <tag k="addr:city" v="Alburgh"/>
    <tag k="addr:housenumber" v="78"/>
    <tag k="addr:street" v="Mooney Drive"/>
    <tag k="addr:state" v="VT"/>
    <tag k="ref:vcgi:esiteid" v="1925"/>
  </node>
  <node id="-323" visible="true" lat="44.95543802" lon="-73.26587558">
    <!-- conflict: "92 Mooney Drive, Alburgh, VT" No match in OSM, but a different address exists <5m away: "10 Mooney Drive, Alburgh, VT" -->
    <tag k="addr:city" v="Alburgh"/>
    <tag k="addr:housenumber" v="92"/>
    <tag k="addr:street" v="Mooney Drive"/>
    <tag k="addr:state" v="VT"/>
    <tag k="ref:vcgi:esiteid" v="1926"/>
  </node>
  <node id="-324" visible="true" lat="44.9555979" lon="-73.2659382">
    <!-- conflict: "104 Mooney Drive, Alburgh, VT" No match in OSM, but a different address exists <5m away: "12 Mooney Drive, Alburgh, VT" -->
    <tag k="addr:city" v="Alburgh"/>
    <tag k="addr:housenumber" v="104"/>
    <tag k="addr:street" v="Mooney Drive"/>
    <tag k="addr:state" v="VT"/>
    <tag k="ref:vcgi:esiteid" v="1927"/>
  </node>
  <node id="-325" visible="true" lat="44.95518494" lon="-73.26614207">
    <!-- conflict: "77 Mooney Drive, Alburgh, VT" No match in OSM, but a different address exists <5m away: "9 Mooney Drive, Alburgh, VT" -->
    <tag k="addr:city" v="Alburgh"/>
    <tag k="addr:housenumber" v="77"/>
    <tag k="addr:street" v="Mooney Drive"/>
    <tag k="addr:state" v="VT"/>
    <tag k="ref:vcgi:esiteid" v="1928"/>
  </node>
  <node id="-326" visible="true" lat="44.95551192" lon="-73.26626253">
    <!-- conflict: "99 Mooney Drive, Alburgh, VT" No match in OSM, but a different address exists <5m away: "11 Mooney Drive, Alburgh, VT" -->
    <tag k="addr:city" v="Alburgh"/>
    <tag k="addr:housenumber" v="99"/>
    <tag k="addr:street" v="Mooney Drive"/>
    <tag k="addr:state" v="VT"/>
    <tag k="ref:vcgi:esiteid" v="1929"/>
  </node>
  <node id="-327" visible="true" lat="44.95493892" lon="-73.266063">
    <!-- conflict: "65 Mooney Drive, Alburgh, VT" No match in OSM, but a different address exists <5m away: "7 Mooney Drive, Alburgh, VT" -->
    <tag k="addr:city" v="Alburgh"/>
    <tag k="addr:housenumber" v="65"/>
    <tag k="addr:street" v="Mooney Drive"/>
    <tag k="addr:state" v="VT"/>
    <tag k="ref:vcgi:esiteid" v="1930"/>
  </node>
  <node id="-328" visible="true" lat="44.95477111" lon="-73.26598987">
    <!-- conflict: "51 Mooney Drive, Alburgh, VT" No match in OSM, but a different address exists <5m away: "5 Mooney Drive, Alburgh, VT" -->
    <tag k="addr:city" v="Alburgh"/>
    <tag k="addr:housenumber" v="51"/>
    <tag k="addr:street" v="Mooney Drive"/>
    <tag k="addr:state" v="VT"/>
    <tag k="ref:vcgi:esiteid" v="1931"/>
  </node>
  <node id="-329" visible="true" lat="44.95457584" lon="-73.26593191">
    <!-- conflict: "41 Mooney Drive, Alburgh, VT" No match in OSM, but a different address exists <5m away: "3 Mooney Drive, Alburgh, VT" -->
    <tag k="addr:city" v="Alburgh"/>
    <tag k="addr:housenumber" v="41"/>
    <tag k="addr:street" v="Mooney Drive"/>
    <tag k="addr:state" v="VT"/>
    <tag k="ref:vcgi:esiteid" v="1932"/>
  </node>
  <node id="-330" visible="true" lat="44.9544496" lon="-73.26602526">
    <!-- conflict: "23 Mooney Drive, Alburgh, VT" No match in OSM, but a different address exists <5m away: "1 Mooney Drive, Alburgh, VT" -->
    <tag k="addr:city" v="Alburgh"/>
    <tag k="addr:housenumber" v="23"/>
    <tag k="addr:street" v="Mooney Drive"/>
    <tag k="addr:state" v="VT"/>
    <tag k="ref:vcgi:esiteid" v="1933"/>
  </node>
  <node id="-332" visible="true" lat="44.95498954" lon="-73.26652926">
    <!-- conflict: "54 Center Cemetery Road, Alburgh, VT" No match in OSM, but a different address exists <5m away: "4 Center Cemetery Road, Alburgh, VT" -->
    <tag k="addr:city" v="Alburgh"/>
    <tag k="addr:housenumber" v="54"/>
    <tag k="addr:street" v="Center Cemetery Road"/>
    <tag k="addr:state" v="VT"/>
    <tag k="ref:vcgi:esiteid" v="1935"/>
  </node>
  <node id="-333" visible="true" lat="44.95425849" lon="-73.26580086">
    <!-- conflict: "255 Center Bay Road, Alburgh, VT" No match in OSM, but a different address exists <5m away: "25 Center Bay Road, Alburgh, VT" -->
    <tag k="addr:city" v="Alburgh"/>
    <tag k="addr:housenumber" v="255"/>
    <tag k="addr:street" v="Center Bay Road"/>
    <tag k="addr:state" v="VT"/>
    <tag k="ref:vcgi:esiteid" v="1936"/>
  </node>
  <node id="-334" visible="true" lat="44.95428701" lon="-73.2666618">
    <!-- conflict: "213 Center Bay Road, Alburgh, VT" No match in OSM, but a different address exists <5m away: "21 Center Bay Road, Alburgh, VT" -->
    <tag k="addr:city" v="Alburgh"/>
    <tag k="addr:housenumber" v="213"/>
    <tag k="addr:street" v="Center Bay Road"/>
    <tag k="addr:state" v="VT"/>
    <tag k="ref:vcgi:esiteid" v="1937"/>
  </node>
  <node id="-335" visible="true" lat="44.95436168" lon="-73.26767282">
    <!-- conflict: "157 Center Bay Road, Alburgh, VT" No match in OSM, but a different address exists <5m away: "15 Center Bay Road, Alburgh, VT" -->
    <tag k="addr:city" v="Alburgh"/>
    <tag k="addr:housenumber" v="157"/>
    <tag k="addr:street" v="Center Bay Road"/>
    <tag k="addr:state" v="VT"/>
    <tag k="ref:vcgi:esiteid" v="1938"/>
  </node>
  <node id="-337" visible="true" lat="44.95386255" lon="-73.27040273">
    <!-- conflict: "32 Center Bay Road, Alburgh, VT" No match in OSM, but a different address exists <5m away: "4 Center Bay Road, Alburgh, VT" -->
    <tag k="addr:city" v="Alburgh"/>
    <tag k="addr:housenumber" v="32"/>
    <tag k="addr:street" v="Center Bay Road"/>
    <tag k="addr:state" v="VT"/>
    <tag k="ref:vcgi:esiteid" v="1940"/>
  </node>
  <node id="-339" visible="true" lat="44.9533647" lon="-73.26499314">
    <!-- conflict: "61 Center Bay Road South, Alburgh, VT" No match in OSM, but a different address exists <5m away: "13 Center Bay South, Alburgh, VT" -->
    <tag k="addr:city" v="Alburgh"/>
    <tag k="addr:housenumber" v="61"/>
    <tag k="addr:street" v="Center Bay Road South"/>
    <tag k="addr:state" v="VT"/>
    <tag k="ref:vcgi:esiteid" v="1942"/>
  </node>
  <node id="-388" visible="true" lat="44.85004965" lon="-73.29268319">
    <!-- conflict: "85 Cedarvale Estate, Alburgh, VT" Fuzzy match to "85 Cedarvale Estates, Alburgh, VT" -->
    <tag k="addr:city" v="Alburgh"/>
    <tag k="addr:housenumber" v="85"/>
    <tag k="addr:street" v="Cedarvale Estate"/>
    <tag k="addr:state" v="VT"/>
    <tag k="ref:vcgi:esiteid" v="1993"/>
  </node>
  <node id="-410" visible="true" lat="44.88725301" lon="-73.27895652">
    <!-- conflict: "1 Vermont Route 129, Alburgh, VT" No match in OSM, but a different address exists <5m away: "1 Vt Route 129, Alburgh, VT" -->
    <tag k="addr:city" v="Alburgh"/>
    <tag k="addr:housenumber" v="1"/>
    <tag k="addr:street" v="Vermont Route 129"/>
    <tag k="addr:state" v="VT"/>
    <tag k="ref:vcgi:esiteid" v="2015"/>
  </node>
  <node id="-458" visible="true" lat="44.93952272" lon="-73.27812024">
    <!-- conflict: "1985 Middle Road, Alburgh, VT" No match in OSM, but a different address exists <5m away: "207 Middle Road, Alburgh, VT" -->
    <tag k="addr:city" v="Alburgh"/>
    <tag k="addr:housenumber" v="1985"/>
    <tag k="addr:street" v="Middle Road"/>
    <tag k="addr:state" v="VT"/>
    <tag k="ref:vcgi:esiteid" v="2064"/>
  </node>
  <node id="-462" visible="true" lat="44.8872396" lon="-73.27978927">
    <!-- conflict: "5 Vermont Route 129, Alburgh, VT" No match in OSM, but a different address exists <5m away: "5 Vt Route 129, Alburgh, VT" -->
    <tag k="addr:city" v="Alburgh"/>
    <tag k="addr:housenumber" v="5"/>
    <tag k="addr:street" v="Vermont Route 129"/>
    <tag k="addr:state" v="VT"/>
    <tag k="ref:vcgi:esiteid" v="2068"/>
  </node>
  <node id="-463" visible="true" lat="44.88777354" lon="-73.28218616">
    <!-- conflict: "18 Vermont Route 129, Alburgh, VT" No match in OSM, but a different address exists <5m away: "18 Vt Route 129, Alburgh, VT" -->
    <tag k="addr:city" v="Alburgh"/>
    <tag k="addr:housenumber" v="18"/>
    <tag k="addr:street" v="Vermont Route 129"/>
    <tag k="addr:state" v="VT"/>
    <tag k="ref:vcgi:esiteid" v="2069"/>
  </node>
  <node id="-465" visible="true" lat="44.88669945" lon="-73.28354762">
    <!-- conflict: "25 Vermont Route 129, Alburgh, VT" No match in OSM, but a different address exists <5m away: "25 Vt Route 129, Alburgh, VT" -->
    <tag k="addr:city" v="Alburgh"/>
    <tag k="addr:housenumber" v="25"/>
    <tag k="addr:street" v="Vermont Route 129"/>
    <tag k="addr:state" v="VT"/>
    <tag k="ref:vcgi:esiteid" v="2071"/>
  </node>
  <node id="-466" visible="true" lat="44.88864258" lon="-73.29291287">
    <!-- conflict: "78 Vermont Route 129, Alburgh, VT" No match in OSM, but a different address exists <5m away: "78 Vt Route 129, Alburgh, VT" -->
    <tag k="addr:city" v="Alburgh"/>
    <tag k="addr:housenumber" v="78"/>
    <tag k="addr:street" v="Vermont Route 129"/>
    <tag k="addr:state" v="VT"/>
    <tag k="ref:vcgi:esiteid" v="2072"/>
  </node>
  <node id="-468" visible="true" lat="44.90814523" lon="-73.30557181">
    <!-- conflict: "230 Vermont Route 129, Alburgh, VT" No match in OSM, but a different address exists <5m away: "230 Vt Route 129, Alburgh, VT" -->
    <tag k="addr:city" v="Alburgh"/>
    <tag k="addr:housenumber" v="230"/>
    <tag k="addr:street" v="Vermont Route 129"/>
    <tag k="addr:state" v="VT"/>
    <tag k="ref:vcgi:esiteid" v="2074"/>
  </node>
  <node id="-469" visible="true" lat="44.88928747" lon="-73.30304726">
    <!-- conflict: "134 Vermont Route 129, Alburgh, VT" No match in OSM, but a different address exists <5m away: "134 Vt Route 129, Alburgh, VT" -->
    <tag k="addr:city" v="Alburgh"/>
    <tag k="addr:housenumber" v="134"/>
    <tag k="addr:street" v="Vermont Route 129"/>
    <tag k="addr:state" v="VT"/>
    <tag k="ref:vcgi:esiteid" v="2075"/>
  </node>
  <node id="-470" visible="true" lat="44.88946689" lon="-73.30337558">
    <!-- conflict: "136 Vermont Route 129, Alburgh, VT" No match in OSM, but a different address exists <5m away: "136 Vt Route 129, Alburgh, VT" -->
    <tag k="addr:city" v="Alburgh"/>
    <tag k="addr:housenumber" v="136"/>
    <tag k="addr:street" v="Vermont Route 129"/>
    <tag k="addr:state" v="VT"/>
    <tag k="ref:vcgi:esiteid" v="2076"/>
  </node>
  <node id="-471" visible="true" lat="44.88988166" lon="-73.30336276">
    <!-- conflict: "138 Vermont Route 129, Alburgh, VT" No match in OSM, but a different address exists <5m away: "138 Vt Route 129, Alburgh, VT" -->
    <tag k="addr:city" v="Alburgh"/>
    <tag k="addr:housenumber" v="138"/>
    <tag k="addr:street" v="Vermont Route 129"/>
    <tag k="addr:state" v="VT"/>
    <tag k="ref:vcgi:esiteid" v="2077"/>
  </node>
  <node id="-472" visible="true" lat="44.89012134" lon="-73.30395551">
    <!-- conflict: "139 Vermont Route 129, Alburgh, VT" No match in OSM, but a different address exists <5m away: "139 Vt Route 129, Alburgh, VT" -->
    <tag k="addr:city" v="Alburgh"/>
    <tag k="addr:housenumber" v="139"/>
    <tag k="addr:street" v="Vermont Route 129"/>
    <tag k="addr:state" v="VT"/>
    <tag k="ref:vcgi:esiteid" v="2078"/>
  </node>
  <node id="-473" visible="true" lat="44.89024893" lon="-73.3031464">
    <!-- conflict: "142 Vermont Route 129, Alburgh, VT" No match in OSM, but a different address exists <5m away: "142 Vt Route 129, Alburgh, VT" -->
    <tag k="addr:city" v="Alburgh"/>
    <tag k="addr:housenumber" v="142"/>
    <tag k="addr:street" v="Vermont Route 129"/>
    <tag k="addr:state" v="VT"/>
    <tag k="ref:vcgi:esiteid" v="2079"/>
  </node>
  <node id="-474" visible="true" lat="44.89067078" lon="-73.30369952">
    <!-- conflict: "144 Vermont Route 129, Alburgh, VT" No match in OSM, but a different address exists <5m away: "144 Vt Route 129, Alburgh, VT" -->
    <tag k="addr:city" v="Alburgh"/>
    <tag k="addr:housenumber" v="144"/>
    <tag k="addr:street" v="Vermont Route 129"/>
    <tag k="addr:state" v="VT"/>
    <tag k="ref:vcgi:esiteid" v="2080"/>
  </node>
  <node id="-475" visible="true" lat="44.89100619" lon="-73.30293062">
    <!-- conflict: "146 Vermont Route 129, Alburgh, VT" No match in OSM, but a different address exists <5m away: "146 Vt Route 129, Alburgh, VT" -->
    <tag k="addr:city" v="Alburgh"/>
    <tag k="addr:housenumber" v="146"/>
    <tag k="addr:street" v="Vermont Route 129"/>
    <tag k="addr:state" v="VT"/>
    <tag k="ref:vcgi:esiteid" v="2081"/>
  </node>
  <node id="-477" visible="true" lat="44.89127828" lon="-73.3041442">
    <!-- conflict: "150 Vermont Route 129, Alburgh, VT" No match in OSM, but a different address exists <5m away: "150 Vt Route 129, Alburgh, VT" -->
    <tag k="addr:city" v="Alburgh"/>
    <tag k="addr:housenumber" v="150"/>
    <tag k="addr:street" v="Vermont Route 129"/>
    <tag k="addr:state" v="VT"/>
    <tag k="ref:vcgi:esiteid" v="2083"/>
  </node>
  <node id="-480" visible="true" lat="44.89230633" lon="-73.30457419">
    <!-- conflict: "156 Vermont Route 129, Alburgh, VT" No match in OSM, but a different address exists <5m away: "156 Vt Route 129, Alburgh, VT" -->
    <tag k="addr:city" v="Alburgh"/>
    <tag k="addr:housenumber" v="156"/>
    <tag k="addr:street" v="Vermont Route 129"/>
    <tag k="addr:state" v="VT"/>
    <tag k="ref:vcgi:esiteid" v="2086"/>
  </node>
  <node id="-481" visible="true" lat="44.8925384" lon="-73.30470752">
    <!-- conflict: "160 Vermont Route 129, Alburgh, VT" No match in OSM, but a different address exists <5m away: "160 Vt Route 129, Alburgh, VT" -->
    <tag k="addr:city" v="Alburgh"/>
    <tag k="addr:housenumber" v="160"/>
    <tag k="addr:street" v="Vermont Route 129"/>
    <tag k="addr:state" v="VT"/>
    <tag k="ref:vcgi:esiteid" v="2087"/>
  </node>
  <node id="-482" visible="true" lat="44.8928337" lon="-73.30472564">
    <!-- conflict: "162 Vermont Route 129, Alburgh, VT" No match in OSM, but a different address exists <5m away: "162 Vt Route 129, Alburgh, VT" -->
    <tag k="addr:city" v="Alburgh"/>
    <tag k="addr:housenumber" v="162"/>
    <tag k="addr:street" v="Vermont Route 129"/>
    <tag k="addr:state" v="VT"/>
    <tag k="ref:vcgi:esiteid" v="2088"/>
  </node>
  <node id="-483" visible="true" lat="44.89364148" lon="-73.30447986">
    <!-- conflict: "166 Vermont Route 129, Alburgh, VT" No match in OSM, but a different address exists <5m away: "166 Vt Route 129, Alburgh, VT" -->
    <tag k="addr:city" v="Alburgh"/>
    <tag k="addr:housenumber" v="166"/>
    <tag k="addr:street" v="Vermont Route 129"/>
    <tag k="addr:state" v="VT"/>
    <tag k="ref:vcgi:esiteid" v="2089"/>
  </node>
  <node id="-484" visible="true" lat="44.89921074" lon="-73.30400917">
    <!-- conflict: "209 Vermont Route 129, Alburgh, VT" No match in OSM, but a different address exists <5m away: "209 Vt Route 129, Alburgh, VT" -->
    <tag k="addr:city" v="Alburgh"/>
    <tag k="addr:housenumber" v="209"/>
    <tag k="addr:street" v="Vermont Route 129"/>
    <tag k="addr:state" v="VT"/>
    <tag k="ref:vcgi:esiteid" v="2090"/>
  </node>
  <node id="-485" visible="true" lat="44.89940112" lon="-73.30358734">
    <!-- conflict: "210 Vermont Route 129, Alburgh, VT" No match in OSM, but a different address exists <5m away: "210 Vt Route 129, Alburgh, VT" -->
    <tag k="addr:city" v="Alburgh"/>
    <tag k="addr:housenumber" v="210"/>
    <tag k="addr:street" v="Vermont Route 129"/>
    <tag k="addr:state" v="VT"/>
    <tag k="ref:vcgi:esiteid" v="2091"/>
  </node>
  <node id="-486" visible="true" lat="44.89946042" lon="-73.30409764">
    <!-- conflict: "213 Vermont Route 129, Alburgh, VT" No match in OSM, but a different address exists <5m away: "213 Vt Route 129, Alburgh, VT" -->
    <tag k="addr:city" v="Alburgh"/>
    <tag k="addr:housenumber" v="213"/>
    <tag k="addr:street" v="Vermont Route 129"/>
    <tag k="addr:state" v="VT"/>
    <tag k="ref:vcgi:esiteid" v="2092"/>
  </node>
  <node id="-487" visible="true" lat="44.90013343" lon="-73.30393217">
    <!-- conflict: "214 Vermont Route 129, Alburgh, VT" No match in OSM, but a different address exists <5m away: "214 Vt Route 129, Alburgh, VT" -->
    <tag k="addr:city" v="Alburgh"/>
    <tag k="addr:housenumber" v="214"/>
    <tag k="addr:street" v="Vermont Route 129"/>
    <tag k="addr:state" v="VT"/>
    <tag k="ref:vcgi:esiteid" v="2093"/>
  </node>
  <node id="-488" visible="true" lat="44.90058119" lon="-73.30394232">
    <!-- conflict: "216 Vermont Route 129, Alburgh, VT" No match in OSM, but a different address exists <5m away: "216 Vt Route 129, Alburgh, VT" -->
    <tag k="addr:city" v="Alburgh"/>
    <tag k="addr:housenumber" v="216"/>
    <tag k="addr:street" v="Vermont Route 129"/>
    <tag k="addr:state" v="VT"/>
    <tag k="ref:vcgi:esiteid" v="2094"/>
  </node>
  <node id="-489" visible="true" lat="44.90095621" lon="-73.30355006">
    <!-- conflict: "218 Vermont Route 129, Alburgh, VT" No match in OSM, but a different address exists <5m away: "218 Vt Route 129, Alburgh, VT" -->
    <tag k="addr:city" v="Alburgh"/>
    <tag k="addr:housenumber" v="218"/>
    <tag k="addr:street" v="Vermont Route 129"/>
    <tag k="addr:state" v="VT"/>
    <tag k="ref:vcgi:esiteid" v="2095"/>
  </node>
  <node id="-492" visible="true" lat="44.901328" lon="-73.30357728">
    <!-- conflict: "224 Vermont Route 129, Alburgh, VT" No match in OSM, but a different address exists <5m away: "224 Vt Route 129, Alburgh, VT" -->
    <tag k="addr:city" v="Alburgh"/>
    <tag k="addr:housenumber" v="224"/>
    <tag k="addr:street" v="Vermont Route 129"/>
    <tag k="addr:state" v="VT"/>
    <tag k="ref:vcgi:esiteid" v="2098"/>
  </node>
  <node id="-510" visible="true" lat="44.95422322" lon="-73.27071863">
    <!-- conflict: "23 Center Bay Road, Alburgh, VT" No match in OSM, but a different address exists <5m away: "1 Center Bay Road, Alburgh, VT" -->
    <tag k="addr:city" v="Alburgh"/>
    <tag k="addr:housenumber" v="23"/>
    <tag k="addr:street" v="Center Bay Road"/>
    <tag k="addr:state" v="VT"/>
    <tag k="ref:vcgi:esiteid" v="2118"/>
  </node>
  <node id="-512" visible="true" lat="44.95371302" lon="-73.26982127">
    <!-- conflict: "74 Center Bay Road, Alburgh, VT" No match in OSM, but a different address exists <5m away: "8 Center Bay Road, Alburgh, VT" -->
    <tag k="addr:city" v="Alburgh"/>
    <tag k="addr:housenumber" v="74"/>
    <tag k="addr:street" v="Center Bay Road"/>
    <tag k="addr:state" v="VT"/>
    <tag k="ref:vcgi:esiteid" v="2120"/>
  </node>
  <node id="-649" visible="true" lat="44.95427491" lon="-73.2715609">
    <!-- conflict: "2672 U.S. Route 2 South, Alburgh, VT" No match in OSM, but a different address exists <5m away: "284 U.S. Route 2 South, Alburgh, VT" -->
    <tag k="addr:city" v="Alburgh"/>
    <tag k="addr:housenumber" v="2672"/>
    <tag k="addr:street" v="U.S. Route 2 South"/>
    <tag k="addr:state" v="VT"/>
    <tag k="ref:vcgi:esiteid" v="2261"/>
  </node>
  <node id="-650" visible="true" lat="44.95403726" lon="-73.27135397">
    <!-- conflict: "2692 U.S. Route 2 South, Alburgh, VT" No match in OSM, but a different address exists <5m away: "286 U.S. Route 2 South, Alburgh, VT" -->
    <tag k="addr:city" v="Alburgh"/>
    <tag k="addr:housenumber" v="2692"/>
    <tag k="addr:street" v="U.S. Route 2 South"/>
    <tag k="addr:state" v="VT"/>
    <tag k="ref:vcgi:esiteid" v="2262"/>
  </node>
  <node id="-651" visible="true" lat="44.95164677" lon="-73.27065009">
    <!-- conflict: "2855 U.S. Route 2 South, Alburgh, VT" No match in OSM, but a different address exists <5m away: "301 U.S. Route 2 South, Alburgh, VT" -->
    <tag k="addr:city" v="Alburgh"/>
    <tag k="addr:housenumber" v="2855"/>
    <tag k="addr:street" v="U.S. Route 2 South"/>
    <tag k="addr:state" v="VT"/>
    <tag k="ref:vcgi:esiteid" v="2263"/>
  </node>
  <node id="-652" visible="true" lat="44.95227738" lon="-73.27053161">
    <!-- conflict: "2835 U.S. Route 2 South, Alburgh, VT" Fuzzy match to "2835 US Route 2 South, Alburgh, VT" -->
    <tag k="addr:city" v="Alburgh"/>
    <tag k="addr:housenumber" v="2835"/>
    <tag k="addr:street" v="U.S. Route 2 South"/>
    <tag k="addr:state" v="VT"/>
    <tag k="ref:vcgi:esiteid" v="2264"/>
  </node>
  <node id="-653" visible="true" lat="44.95261732" lon="-73.27037827">
    <!-- conflict: "91 Carpenter Lane, Alburgh, VT" No match in OSM, but a different address exists <5m away: "295 U.S. Route 2 South, Alburgh, VT" -->
    <tag k="addr:city" v="Alburgh"/>
    <tag k="addr:housenumber" v="91"/>
    <tag k="addr:street" v="Carpenter Lane"/>
    <tag k="addr:state" v="VT"/>
    <tag k="ref:vcgi:esiteid" v="2265"/>
  </node>
  <node id="-654" visible="true" lat="44.94973051" lon="-73.27257829">
    <!-- conflict: "3022 U.S. Route 2 South, Alburgh, VT" No match in OSM, but a different address exists <5m away: "320 U.S. Route 2 South, Alburgh, VT" -->
    <tag k="addr:city" v="Alburgh"/>
    <tag k="addr:housenumber" v="3022"/>
    <tag k="addr:street" v="U.S. Route 2 South"/>
    <tag k="addr:state" v="VT"/>
    <tag k="ref:vcgi:esiteid" v="2266"/>
  </node>
  <node id="-655" visible="true" lat="44.94847143" lon="-73.27217195">
    <!-- conflict: "3125 U.S. Route 2 South, Alburgh, VT" No match in OSM, but a different address exists <5m away: "329 U.S. Route 2 South, Alburgh, VT" -->
    <tag k="addr:city" v="Alburgh"/>
    <tag k="addr:housenumber" v="3125"/>
    <tag k="addr:street" v="U.S. Route 2 South"/>
    <tag k="addr:state" v="VT"/>
    <tag k="ref:vcgi:esiteid" v="2267"/>
  </node>
  <node id="-656" visible="true" lat="44.9488006" lon="-73.27195324">
    <!-- conflict: "3071 U.S. Route 2 South, Alburgh, VT" No match in OSM, but a different address exists <5m away: "323 U.S. Route 2 South, Alburgh, VT" -->
    <tag k="addr:city" v="Alburgh"/>
    <tag k="addr:housenumber" v="3071"/>
    <tag k="addr:street" v="U.S. Route 2 South"/>
    <tag k="addr:state" v="VT"/>
    <tag k="ref:vcgi:esiteid" v="2268"/>
  </node>
  <node id="-665" visible="true" lat="44.94849019" lon="-73.27329396">
    <!-- conflict: "3102 U.S. Route 2 South, Alburgh, VT" No match in OSM, but a different address exists <5m away: "328 U.S. Route 2 South, Alburgh, VT" -->
    <tag k="addr:city" v="Alburgh"/>
    <tag k="addr:housenumber" v="3102"/>
    <tag k="addr:street" v="U.S. Route 2 South"/>
    <tag k="addr:state" v="VT"/>
    <tag k="ref:vcgi:esiteid" v="2277"/>
  </node>
  <node id="-666" visible="true" lat="44.94898847" lon="-73.27293577">
    <!-- conflict: "3082 U.S. Route 2 South, Alburgh, VT" No match in OSM, but a different address exists <5m away: "326 U.S. Route 2 South, Alburgh, VT" -->
    <tag k="addr:city" v="Alburgh"/>
    <tag k="addr:housenumber" v="3082"/>
    <tag k="addr:street" v="U.S. Route 2 South"/>
    <tag k="addr:state" v="VT"/>
    <tag k="ref:vcgi:esiteid" v="2278"/>
  </node>
  <node id="-765" visible="true" lat="44.97519317" lon="-73.30053713">
    <!-- conflict: "113 South Main Street, Alburgh, VT" No match in OSM, but a different address exists <5m away: "13 South Main Street, Alburgh, " -->
    <tag k="addr:city" v="Alburgh"/>
    <tag k="addr:housenumber" v="113"/>
    <tag k="addr:street" v="South Main Street"/>
    <tag k="addr:state" v="VT"/>
    <tag k="ref:vcgi:esiteid" v="2380"/>
  </node>
  <node id="-1015" visible="true" lat="44.90501466" lon="-73.27368864">
    <!-- conflict: "6359 U.S. Route 2 South, Alburgh, VT" Fuzzy match to "6359 US Route 2 South, Alburgh, VT" -->
    <tag k="addr:city" v="Alburgh"/>
    <tag k="addr:housenumber" v="6359"/>
    <tag k="addr:street" v="U.S. Route 2 South"/>
    <tag k="addr:state" v="VT"/>
    <tag k="ref:vcgi:esiteid" v="2645"/>
  </node>
  <node id="-1017" visible="true" lat="44.94317671" lon="-73.27510174">
    <!-- conflict: "3470 U.S. Route 2 South, Alburgh, VT" No match in OSM, but a different address exists <5m away: "368 U.S. Route 2 South, Alburgh, VT" -->
    <tag k="addr:city" v="Alburgh"/>
    <tag k="addr:housenumber" v="3470"/>
    <tag k="addr:street" v="U.S. Route 2 South"/>
    <tag k="addr:state" v="VT"/>
    <tag k="ref:vcgi:esiteid" v="2647"/>
  </node>
  <node id="-1030" visible="true" lat="44.90980634" lon="-73.28044671">
    <!-- conflict: "5882 U.S. Route 2 South, Alburgh, VT" Fuzzy match to "5882 US Route 2 South, Alburgh, VT" -->
    <tag k="addr:city" v="Alburgh"/>
    <tag k="addr:housenumber" v="5882"/>
    <tag k="addr:street" v="U.S. Route 2 South"/>
    <tag k="addr:state" v="VT"/>
    <tag k="ref:vcgi:esiteid" v="2663"/>
  </node>
  <node id="-1031" visible="true" lat="44.91058808" lon="-73.27973263">
    <!-- conflict: "5821 U.S. Route 2 South, Alburgh, VT" Fuzzy match to "5821 US Route 2 South, Alburgh, VT" -->
    <tag k="addr:city" v="Alburgh"/>
    <tag k="addr:housenumber" v="5821"/>
    <tag k="addr:street" v="U.S. Route 2 South"/>
    <tag k="addr:state" v="VT"/>
    <tag k="ref:vcgi:esiteid" v="2664"/>
  </node>
  <node id="-1032" visible="true" lat="44.90585708" lon="-73.27857208">
    <!-- conflict: "6132 U.S. Route 2 South, Alburgh, VT" Fuzzy match to "6132 US Route 2 South, Alburgh, VT" -->
    <tag k="addr:city" v="Alburgh"/>
    <tag k="addr:housenumber" v="6132"/>
    <tag k="addr:street" v="U.S. Route 2 South"/>
    <tag k="addr:state" v="VT"/>
    <tag k="ref:vcgi:esiteid" v="2665"/>
  </node>
  <node id="-1033" visible="true" lat="44.90656138" lon="-73.27861212">
    <!-- conflict: "6111 U.S. Route 2 South, Alburgh, VT" Fuzzy match to "6111 US Route 2 South, Alburgh, VT" -->
    <tag k="addr:city" v="Alburgh"/>
    <tag k="addr:housenumber" v="6111"/>
    <tag k="addr:street" v="U.S. Route 2 South"/>
    <tag k="addr:state" v="VT"/>
    <tag k="ref:vcgi:esiteid" v="2666"/>
  </node>
  <node id="-1034" visible="true" lat="44.90627565" lon="-73.2790429">
    <!-- conflict: "6104 U.S. Route 2 South, Alburgh, VT" Fuzzy match to "6104 US Route 2 South, Alburgh, VT" -->
    <tag k="addr:city" v="Alburgh"/>
    <tag k="addr:housenumber" v="6104"/>
    <tag k="addr:street" v="U.S. Route 2 South"/>
    <tag k="addr:state" v="VT"/>
    <tag k="ref:vcgi:esiteid" v="2667"/>
  </node>
  <node id="-1035" visible="true" lat="44.90652922" lon="-73.27955607">
    <!-- conflict: "6100 U.S. Route 2 South, Alburgh, VT" Fuzzy match to "6100 US Route 2 South, Alburgh, VT" -->
    <tag k="addr:city" v="Alburgh"/>
    <tag k="addr:housenumber" v="6100"/>
    <tag k="addr:street" v="U.S. Route 2 South"/>
    <tag k="addr:state" v="VT"/>
    <tag k="ref:vcgi:esiteid" v="2668"/>
  </node>
  <node id="-1036" visible="true" lat="44.90671717" lon="-73.27796845">
    <!-- conflict: "6153 U.S. Route 2 South, Alburgh, VT" Fuzzy match to "6153 US Route 2 South, Alburgh, VT" -->
    <tag k="addr:city" v="Alburgh"/>
    <tag k="addr:housenumber" v="6153"/>
    <tag k="addr:street" v="U.S. Route 2 South"/>
    <tag k="addr:state" v="VT"/>
    <tag k="ref:vcgi:esiteid" v="2669"/>
  </node>
  <node id="-1037" visible="true" lat="44.90560312" lon="-73.27745454">
    <!-- conflict: "6200 U.S. Route 2 South, Alburgh, VT" Fuzzy match to "6200 US Route 2 South, Alburgh, VT" -->
    <tag k="addr:city" v="Alburgh"/>
    <tag k="addr:housenumber" v="6200"/>
    <tag k="addr:street" v="U.S. Route 2 South"/>
    <tag k="addr:state" v="VT"/>
    <tag k="ref:vcgi:esiteid" v="2670"/>
  </node>
  <node id="-1038" visible="true" lat="44.90078916" lon="-73.27423392">
    <!-- conflict: "6670 U.S. Route 2 South, Alburgh, VT" Fuzzy match to "6670 US Route 2 South, Alburgh, VT" -->
    <tag k="addr:city" v="Alburgh"/>
    <tag k="addr:housenumber" v="6670"/>
    <tag k="addr:street" v="U.S. Route 2 South"/>
    <tag k="addr:state" v="VT"/>
    <tag k="ref:vcgi:esiteid" v="2671"/>
  </node>
  <node id="-1039" visible="true" lat="44.89405312" lon="-73.27763682">
    <!-- conflict: "7146 U.S. Route 2 South, Alburgh, VT" Fuzzy match to "7146 US Route 2 South, Alburgh, VT" -->
    <tag k="addr:city" v="Alburgh"/>
    <tag k="addr:housenumber" v="7146"/>
    <tag k="addr:street" v="U.S. Route 2 South"/>
    <tag k="addr:state" v="VT"/>
    <tag k="ref:vcgi:esiteid" v="2672"/>
  </node>
  <node id="-1040" visible="true" lat="44.89343021" lon="-73.27843505">
    <!-- conflict: "7200 U.S. Route 2 South, Alburgh, VT" Fuzzy match to "7200 US Route 2 South, Alburgh, VT" -->
    <tag k="addr:city" v="Alburgh"/>
    <tag k="addr:housenumber" v="7200"/>
    <tag k="addr:street" v="U.S. Route 2 South"/>
    <tag k="addr:state" v="VT"/>
    <tag k="ref:vcgi:esiteid" v="2673"/>
  </node>
  <node id="-1041" visible="true" lat="44.89316489" lon="-73.27812082">
    <!-- conflict: "7222 U.S. Route 2 South, Alburgh, VT" Fuzzy match to "7222 US Route 2 South, Alburgh, VT" -->
    <tag k="addr:city" v="Alburgh"/>
    <tag k="addr:housenumber" v="7222"/>
    <tag k="addr:street" v="U.S. Route 2 South"/>
    <tag k="addr:state" v="VT"/>
    <tag k="ref:vcgi:esiteid" v="2674"/>
  </node>
  <node id="-1042" visible="true" lat="44.89192962" lon="-73.27947235">
    <!-- conflict: "7290 U.S. Route 2 South, Alburgh, VT" Fuzzy match to "7290 US Route 2 South, Alburgh, VT" -->
    <tag k="addr:city" v="Alburgh"/>
    <tag k="addr:housenumber" v="7290"/>
    <tag k="addr:street" v="U.S. Route 2 South"/>
    <tag k="addr:state" v="VT"/>
    <tag k="ref:vcgi:esiteid" v="2675"/>
  </node>
  <node id="-1043" visible="true" lat="44.88742277" lon="-73.27811963">
    <!-- conflict: "7609 U.S. Route 2 South, Alburgh, VT" Fuzzy match to "7609 US Route 2 South, Alburgh, VT" -->
    <tag k="addr:city" v="Alburgh"/>
    <tag k="addr:housenumber" v="7609"/>
    <tag k="addr:street" v="U.S. Route 2 South"/>
    <tag k="addr:state" v="VT"/>
    <tag k="ref:vcgi:esiteid" v="2676"/>
  </node>
  <node id="-1044" visible="true" lat="44.88783524" lon="-73.27802687">
    <!-- conflict: "7605 U.S. Route 2 South, Alburgh, VT" Fuzzy match to "7605 US Route 2 South, Alburgh, VT" -->
    <tag k="addr:city" v="Alburgh"/>
    <tag k="addr:housenumber" v="7605"/>
    <tag k="addr:street" v="U.S. Route 2 South"/>
    <tag k="addr:state" v="VT"/>
    <tag k="ref:vcgi:esiteid" v="2677"/>
  </node>
  <node id="-1045" visible="true" lat="44.88835381" lon="-73.27810969">
    <!-- conflict: "7549 U.S. Route 2 South, Alburgh, VT" Fuzzy match to "7549 US Route 2 South, Alburgh, VT" -->
    <tag k="addr:city" v="Alburgh"/>
    <tag k="addr:housenumber" v="7549"/>
    <tag k="addr:street" v="U.S. Route 2 South"/>
    <tag k="addr:state" v="VT"/>
    <tag k="ref:vcgi:esiteid" v="2679"/>
  </node>
  <node id="-1046" visible="true" lat="44.8888455" lon="-73.27934911">
    <!-- conflict: "7532 U.S. Route 2 South, Alburgh, VT" Fuzzy match to "7532 US Route 2 South, Alburgh, VT" -->
    <tag k="addr:city" v="Alburgh"/>
    <tag k="addr:housenumber" v="7532"/>
    <tag k="addr:street" v="U.S. Route 2 South"/>
    <tag k="addr:state" v="VT"/>
    <tag k="ref:vcgi:esiteid" v="2680"/>
  </node>
  <node id="-1047" visible="true" lat="44.89146804" lon="-73.27854919">
    <!-- conflict: "7348 U.S. Route 2 South, Alburgh, VT" Fuzzy match to "7348 US Route 2 South, Alburgh, VT" -->
    <tag k="addr:city" v="Alburgh"/>
    <tag k="addr:housenumber" v="7348"/>
    <tag k="addr:street" v="U.S. Route 2 South"/>
    <tag k="addr:state" v="VT"/>
    <tag k="ref:vcgi:esiteid" v="2681"/>
  </node>
  <node id="-1048" visible="true" lat="44.89040143" lon="-73.27959803">
    <!-- conflict: "7418 U.S. Route 2 South, Alburgh, VT" Fuzzy match to "7418 US Route 2 South, Alburgh, VT" -->
    <tag k="addr:city" v="Alburgh"/>
    <tag k="addr:housenumber" v="7418"/>
    <tag k="addr:street" v="U.S. Route 2 South"/>
    <tag k="addr:state" v="VT"/>
    <tag k="ref:vcgi:esiteid" v="2682"/>
  </node>
  <node id="-1049" visible="true" lat="44.88608523" lon="-73.27816029">
    <!-- conflict: "6 Poor Farm Road, Alburgh, VT" No match in OSM, but a different address exists <5m away: "20 Poor Farm Road, Alburgh, VT" -->
    <tag k="addr:city" v="Alburgh"/>
    <tag k="addr:housenumber" v="6"/>
    <tag k="addr:street" v="Poor Farm Road"/>
    <tag k="addr:state" v="VT"/>
    <tag k="ref:vcgi:esiteid" v="2683"/>
  </node>
  <node id="-1094" visible="true" lat="44.85871403" lon="-73.29159362">
    <!-- conflict: "20 Point Of Tongue, Alburgh, VT" Fuzzy match to "20 Point of Tongue, Alburgh, VT" -->
    <tag k="addr:city" v="Alburgh"/>
    <tag k="addr:housenumber" v="20"/>
    <tag k="addr:street" v="Point Of Tongue"/>
    <tag k="addr:state" v="VT"/>
    <tag k="ref:vcgi:esiteid" v="2730"/>
  </node>
  <node id="-1095" visible="true" lat="44.85807418" lon="-73.29199981">
    <!-- conflict: "24 Point Of Tongue, Alburgh, VT" Fuzzy match to "24 Point of Tongue, Alburgh, VT" -->
    <tag k="addr:city" v="Alburgh"/>
    <tag k="addr:housenumber" v="24"/>
    <tag k="addr:street" v="Point Of Tongue"/>
    <tag k="addr:state" v="VT"/>
    <tag k="ref:vcgi:esiteid" v="2731"/>
  </node>
  <node id="-1096" visible="true" lat="44.8578263" lon="-73.29202585">
    <!-- conflict: "28 Point Of Tongue, Alburgh, VT" Fuzzy match to "28 Point of Tongue, Alburgh, VT" -->
    <tag k="addr:city" v="Alburgh"/>
    <tag k="addr:housenumber" v="28"/>
    <tag k="addr:street" v="Point Of Tongue"/>
    <tag k="addr:state" v="VT"/>
    <tag k="ref:vcgi:esiteid" v="2732"/>
  </node>
  <node id="-1113" visible="true" lat="44.88247113" lon="-73.30303064">
    <!-- conflict: "71 Isle View Drive, Alburgh, VT" No match in OSM, but a different address exists <5m away: "21 Coon Point Road, Alburgh, VT" -->
    <tag k="addr:city" v="Alburgh"/>
    <tag k="addr:housenumber" v="71"/>
    <tag k="addr:street" v="Isle View Drive"/>
    <tag k="addr:state" v="VT"/>
    <tag k="ref:vcgi:esiteid" v="2749"/>
  </node>
  <node id="-1114" visible="true" lat="44.8751417" lon="-73.30172138">
    <!-- conflict: "1015 Palmers Sand Beach Road, Alburgh, VT" No match in OSM, but a different address exists <5m away: "111 Coon Point Road, Alburgh, VT" -->
    <tag k="addr:city" v="Alburgh"/>
    <tag k="addr:housenumber" v="1015"/>
    <tag k="addr:street" v="Palmers Sand Beach Road"/>
    <tag k="addr:state" v="VT"/>
    <tag k="ref:vcgi:esiteid" v="2750"/>
  </node>
  <node id="-1115" visible="true" lat="44.86642681" lon="-73.30491088">
    <!-- conflict: "1615 Palmers Sand Beach Road, Alburgh, VT" No match in OSM, but a different address exists <5m away: "173 Coon Point Road, Alburgh, VT" -->
    <tag k="addr:city" v="Alburgh"/>
    <tag k="addr:housenumber" v="1615"/>
    <tag k="addr:street" v="Palmers Sand Beach Road"/>
    <tag k="addr:state" v="VT"/>
    <tag k="ref:vcgi:esiteid" v="2751"/>
  </node>
  <node id="-1155" visible="true" lat="44.89117813" lon="-73.2796936">
    <!-- conflict: "7360 U.S. Route 2 South, Alburgh, VT" Fuzzy match to "7360 US Route 2 South, Alburgh, VT" -->
    <tag k="addr:city" v="Alburgh"/>
    <tag k="addr:housenumber" v="7360"/>
    <tag k="addr:street" v="U.S. Route 2 South"/>
    <tag k="addr:state" v="VT"/>
    <tag k="ref:vcgi:esiteid" v="2794"/>
  </node>
  <node id="-1168" visible="true" lat="44.90350399" lon="-73.27287411">
    <!-- conflict: "15A Bruleys Trailer Park, Alburgh, VT" Fuzzy match to "15 A Bruleys Trailer Park, Alburgh, VT" -->
    <tag k="addr:city" v="Alburgh"/>
    <tag k="addr:housenumber" v="15A"/>
    <tag k="addr:street" v="Bruleys Trailer Park"/>
    <tag k="addr:state" v="VT"/>
    <tag k="ref:vcgi:esiteid" v="2809"/>
  </node>
  <node id="-1182" visible="true" lat="44.90589516" lon="-73.2790213">
    <!-- conflict: "6130 U.S. Route 2 South, Alburgh, VT" Fuzzy match to "6130 US Route 2 South, Alburgh, VT" -->
    <tag k="addr:city" v="Alburgh"/>
    <tag k="addr:housenumber" v="6130"/>
    <tag k="addr:street" v="U.S. Route 2 South"/>
    <tag k="addr:state" v="VT"/>
    <tag k="ref:vcgi:esiteid" v="2826"/>
  </node>
  <node id="-1204" visible="true" lat="44.8879777" lon="-73.27932406">
    <!-- conflict: "7586 U.S. Route 2 South, Alburgh, VT" Fuzzy match to "7586 US Route 2 South, Alburgh, VT" -->
    <tag k="addr:city" v="Alburgh"/>
    <tag k="addr:housenumber" v="7586"/>
    <tag k="addr:street" v="U.S. Route 2 South"/>
    <tag k="addr:state" v="VT"/>
    <tag k="ref:vcgi:esiteid" v="2854"/>
  </node>
  <node id="-1205" visible="true" lat="44.88791047" lon="-73.27885923">
    <!-- conflict: "7584 U.S. Route 2 South, Alburgh, VT" Fuzzy match to "7584 US Route 2 South, Alburgh, VT" -->
    <tag k="addr:city" v="Alburgh"/>
    <tag k="addr:housenumber" v="7584"/>
    <tag k="addr:street" v="U.S. Route 2 South"/>
    <tag k="addr:state" v="VT"/>
    <tag k="ref:vcgi:esiteid" v="2855"/>
  </node>
  <node id="-1208" visible="true" lat="44.88861842" lon="-73.27811183">
    <!-- conflict: "7521 U.S. Route 2 South, Alburgh, VT" Fuzzy match to "7521 US Route 2 South, Alburgh, VT" -->
    <tag k="addr:city" v="Alburgh"/>
    <tag k="addr:housenumber" v="7521"/>
    <tag k="addr:street" v="U.S. Route 2 South"/>
    <tag k="addr:state" v="VT"/>
    <tag k="ref:vcgi:esiteid" v="2858"/>
  </node>
  <node id="-1209" visible="true" lat="44.88900359" lon="-73.27811307">
    <!-- conflict: "7507 U.S. Route 2 South, Alburgh, VT" Fuzzy match to "7507 US Route 2 South, Alburgh, VT" -->
    <tag k="addr:city" v="Alburgh"/>
    <tag k="addr:housenumber" v="7507"/>
    <tag k="addr:street" v="U.S. Route 2 South"/>
    <tag k="addr:state" v="VT"/>
    <tag k="ref:vcgi:esiteid" v="2859"/>
  </node>
  <node id="-1212" visible="true" lat="44.90701097" lon="-73.30511535">
    <!-- conflict: "230 Vermont Route 129, Alburgh, VT" No match in OSM, but a different address exists <5m away: "230 Vt Route 129, Alburgh, VT" -->
    <tag k="addr:city" v="Alburgh"/>
    <tag k="addr:housenumber" v="230"/>
    <tag k="addr:street" v="Vermont Route 129"/>
    <tag k="addr:state" v="VT"/>
    <tag k="ref:vcgi:esiteid" v="2863"/>
  </node>
  <node id="-1214" visible="true" lat="44.87470499" lon="-73.28157943">
    <!-- conflict: "86A Poor Farm Road, Alburgh, VT" Fuzzy match to "86 A Poor Farm Road, Alburgh, VT" -->
    <tag k="addr:city" v="Alburgh"/>
    <tag k="addr:housenumber" v="86A"/>
    <tag k="addr:street" v="Poor Farm Road"/>
    <tag k="addr:state" v="VT"/>
    <tag k="ref:vcgi:esiteid" v="2866"/>
  </node>
  <node id="-1217" visible="true" lat="44.88079695" lon="-73.30452864">
    <!-- conflict: "511 Palmers Sand Beach Road, Alburgh, VT" No match in OSM, but a different address exists <5m away: "53 Coon Point Road, Alburgh, VT" -->
    <tag k="addr:city" v="Alburgh"/>
    <tag k="addr:housenumber" v="511"/>
    <tag k="addr:street" v="Palmers Sand Beach Road"/>
    <tag k="addr:state" v="VT"/>
    <tag k="ref:vcgi:esiteid" v="2870"/>
  </node>
  <node id="-1236" visible="true" lat="44.88214987" lon="-73.30439829">
    <!-- conflict: "424 Palmers Sand Beach Road, Alburgh, VT" No match in OSM, but a different address exists <5m away: "46 Coon Point Road, Alburgh, VT" -->
    <tag k="addr:city" v="Alburgh"/>
    <tag k="addr:housenumber" v="424"/>
    <tag k="addr:street" v="Palmers Sand Beach Road"/>
    <tag k="addr:state" v="VT"/>
    <tag k="ref:vcgi:esiteid" v="2899"/>
  </node>
  <node id="-1237" visible="true" lat="44.88197859" lon="-73.30453057">
    <!-- conflict: "428 Palmers Sand Beach Road, Alburgh, VT" No match in OSM, but a different address exists <5m away: "48 Coon Point Road, Alburgh, VT" -->
    <tag k="addr:city" v="Alburgh"/>
    <tag k="addr:housenumber" v="428"/>
    <tag k="addr:street" v="Palmers Sand Beach Road"/>
    <tag k="addr:state" v="VT"/>
    <tag k="ref:vcgi:esiteid" v="2900"/>
  </node>
  <node id="-1238" visible="true" lat="44.88178472" lon="-73.30467522">
    <!-- conflict: "444 Palmers Sand Beach Road, Alburgh, VT" No match in OSM, but a different address exists <5m away: "50 Coon Point Road, Alburgh, VT" -->
    <tag k="addr:city" v="Alburgh"/>
    <tag k="addr:housenumber" v="444"/>
    <tag k="addr:street" v="Palmers Sand Beach Road"/>
    <tag k="addr:state" v="VT"/>
    <tag k="ref:vcgi:esiteid" v="2901"/>
  </node>
  <node id="-1239" visible="true" lat="44.88212289" lon="-73.3039047">
    <!-- conflict: "109 Isle View Drive, Alburgh, VT" No match in OSM, but a different address exists <5m away: "49 Coon Point Road, Alburgh, VT" -->
    <tag k="addr:city" v="Alburgh"/>
    <tag k="addr:housenumber" v="109"/>
    <tag k="addr:street" v="Isle View Drive"/>
    <tag k="addr:state" v="VT"/>
    <tag k="ref:vcgi:esiteid" v="2902"/>
  </node>
  <node id="-1240" visible="true" lat="44.88260984" lon="-73.30287864">
    <!-- conflict: "61 Isle View Drive, Alburgh, VT" No match in OSM, but a different address exists <5m away: "19 Coon Point Road, Alburgh, VT" -->
    <tag k="addr:city" v="Alburgh"/>
    <tag k="addr:housenumber" v="61"/>
    <tag k="addr:street" v="Isle View Drive"/>
    <tag k="addr:state" v="VT"/>
    <tag k="ref:vcgi:esiteid" v="2903"/>
  </node>
  <node id="-1241" visible="true" lat="44.88272138" lon="-73.30276031">
    <!-- conflict: "49 Isle View Drive, Alburgh, VT" No match in OSM, but a different address exists <5m away: "17 Coon Point Road, Alburgh, VT" -->
    <tag k="addr:city" v="Alburgh"/>
    <tag k="addr:housenumber" v="49"/>
    <tag k="addr:street" v="Isle View Drive"/>
    <tag k="addr:state" v="VT"/>
    <tag k="ref:vcgi:esiteid" v="2904"/>
  </node>
  <node id="-1242" visible="true" lat="44.88284962" lon="-73.3026511">
    <!-- conflict: "39 Isle View Drive, Alburgh, VT" No match in OSM, but a different address exists <5m away: "15 Coon Point Road, Alburgh, VT" -->
    <tag k="addr:city" v="Alburgh"/>
    <tag k="addr:housenumber" v="39"/>
    <tag k="addr:street" v="Isle View Drive"/>
    <tag k="addr:state" v="VT"/>
    <tag k="ref:vcgi:esiteid" v="2905"/>
  </node>
  <node id="-1243" visible="true" lat="44.88271331" lon="-73.30353546">
    <!-- conflict: "68 Isle View Drive, Alburgh, VT" No match in OSM, but a different address exists <5m away: "13 Coon Point Road, Alburgh, VT" -->
    <tag k="addr:city" v="Alburgh"/>
    <tag k="addr:housenumber" v="68"/>
    <tag k="addr:street" v="Isle View Drive"/>
    <tag k="addr:state" v="VT"/>
    <tag k="ref:vcgi:esiteid" v="2906"/>
  </node>
  <node id="-1244" visible="true" lat="44.8828463" lon="-73.30342626">
    <!-- conflict: "58 Isle View Drive, Alburgh, VT" No match in OSM, but a different address exists <5m away: "11 Coon Point Road, Alburgh, VT" -->
    <tag k="addr:city" v="Alburgh"/>
    <tag k="addr:housenumber" v="58"/>
    <tag k="addr:street" v="Isle View Drive"/>
    <tag k="addr:state" v="VT"/>
    <tag k="ref:vcgi:esiteid" v="2907"/>
  </node>
  <node id="-1245" visible="true" lat="44.88298009" lon="-73.30334825">
    <!-- conflict: "46 Isle View Drive, Alburgh, VT" No match in OSM, but a different address exists <5m away: "9 Coon Point Road, Alburgh, VT" -->
    <tag k="addr:city" v="Alburgh"/>
    <tag k="addr:housenumber" v="46"/>
    <tag k="addr:street" v="Isle View Drive"/>
    <tag k="addr:state" v="VT"/>
    <tag k="ref:vcgi:esiteid" v="2908"/>
  </node>
  <node id="-1246" visible="true" lat="44.88313194" lon="-73.30329208">
    <!-- conflict: "14 Isle View Drive, Alburgh, VT" No match in OSM, but a different address exists <5m away: "7 Coon Point Road, Alburgh, VT" -->
    <tag k="addr:city" v="Alburgh"/>
    <tag k="addr:housenumber" v="14"/>
    <tag k="addr:street" v="Isle View Drive"/>
    <tag k="addr:state" v="VT"/>
    <tag k="ref:vcgi:esiteid" v="2909"/>
  </node>
  <node id="-1247" visible="true" lat="44.95057973" lon="-73.27200234">
    <!-- conflict: "2946 U.S. Route 2 South, Alburgh, VT" No match in OSM, but a different address exists <5m away: "310 U.S. Route 2 South, Alburgh, VT" -->
    <tag k="addr:city" v="Alburgh"/>
    <tag k="addr:housenumber" v="2946"/>
    <tag k="addr:street" v="U.S. Route 2 South"/>
    <tag k="addr:state" v="VT"/>
    <tag k="ref:vcgi:esiteid" v="2910"/>
  </node>
  <node id="-1508" visible="true" lat="44.95137682" lon="-73.27080188">
    <!-- conflict: "2905 U.S. Route 2 South, Alburgh, VT" No match in OSM, but a different address exists <5m away: "305 U.S. Route 2 South, Alburgh, VT" -->
    <tag k="addr:city" v="Alburgh"/>
    <tag k="addr:housenumber" v="2905"/>
    <tag k="addr:street" v="U.S. Route 2 South"/>
    <tag k="addr:state" v="VT"/>
    <tag k="ref:vcgi:esiteid" v="3176"/>
  </node>
  <node id="-1509" visible="true" lat="44.9500885" lon="-73.27158355">
    <!-- conflict: "2983 U.S. Route 2 South, Alburgh, VT" No match in OSM, but a different address exists <5m away: "315 U.S. Route 2 South, Alburgh, VT" -->
    <tag k="addr:city" v="Alburgh"/>
    <tag k="addr:housenumber" v="2983"/>
    <tag k="addr:street" v="U.S. Route 2 South"/>
    <tag k="addr:state" v="VT"/>
    <tag k="ref:vcgi:esiteid" v="3177"/>
  </node>
  <node id="-1510" visible="true" lat="44.94937641" lon="-73.27185467">
    <!-- conflict: "3025 U.S. Route 2 South, Alburgh, VT" No match in OSM, but a different address exists <5m away: "319 U.S. Route 2 South, Alburgh, VT" -->
    <tag k="addr:city" v="Alburgh"/>
    <tag k="addr:housenumber" v="3025"/>
    <tag k="addr:street" v="U.S. Route 2 South"/>
    <tag k="addr:state" v="VT"/>
    <tag k="ref:vcgi:esiteid" v="3178"/>
  </node>
  <node id="-1521" visible="true" lat="44.91284323" lon="-73.280535">
    <!-- conflict: "5700 U.S. Route 2 South, Alburgh, VT" Fuzzy match to "5700 US Route 2 South, Alburgh, VT" -->
    <tag k="addr:city" v="Alburgh"/>
    <tag k="addr:housenumber" v="5700"/>
    <tag k="addr:street" v="U.S. Route 2 South"/>
    <tag k="addr:state" v="VT"/>
    <tag k="ref:vcgi:esiteid" v="3190"/>
  </node>
  <node id="-1522" visible="true" lat="44.90027951" lon="-73.27444525">
    <!-- conflict: "6700 U.S. Route 2 South, Alburgh, VT" Fuzzy match to "6700 US Route 2 South, Alburgh, VT" -->
    <tag k="addr:city" v="Alburgh"/>
    <tag k="addr:housenumber" v="6700"/>
    <tag k="addr:street" v="U.S. Route 2 South"/>
    <tag k="addr:state" v="VT"/>
    <tag k="ref:vcgi:esiteid" v="3191"/>
  </node>
  <node id="-1547" visible="true" lat="44.95046804" lon="-73.27150686">
    <!-- conflict: "2943 U.S. Route 2 South, Alburgh, VT" No match in OSM, but a different address exists <5m away: "309 U.S. Route 2 South, Alburgh, VT" -->
    <tag k="addr:city" v="Alburgh"/>
    <tag k="addr:housenumber" v="2943"/>
    <tag k="addr:street" v="U.S. Route 2 South"/>
    <tag k="addr:state" v="VT"/>
    <tag k="ref:vcgi:esiteid" v="3219"/>
  </node>
  <node id="-1550" visible="true" lat="44.89966716" lon="-73.30335748">
    <!-- conflict: "212 Vermont Route 129, Alburgh, VT" No match in OSM, but a different address exists <5m away: "212 Vt Route 129, Alburgh, VT" -->
    <tag k="addr:city" v="Alburgh"/>
    <tag k="addr:housenumber" v="212"/>
    <tag k="addr:street" v="Vermont Route 129"/>
    <tag k="addr:state" v="VT"/>
    <tag k="ref:vcgi:esiteid" v="3222"/>
  </node>
  <node id="-1554" visible="true" lat="44.85732821" lon="-73.2919755">
    <!-- conflict: "30 Point Of Tongue, Alburgh, VT" Fuzzy match to "30 Point of Tongue, Alburgh, VT" -->
    <tag k="addr:city" v="Alburgh"/>
    <tag k="addr:housenumber" v="30"/>
    <tag k="addr:street" v="Point Of Tongue"/>
    <tag k="addr:state" v="VT"/>
    <tag k="ref:vcgi:esiteid" v="3227"/>
  </node>
  <node id="-1555" visible="true" lat="44.86068382" lon="-73.291126">
    <!-- conflict: "4 Point Of Tongue, Alburgh, VT" Fuzzy match to "4 Point of Tongue, Alburgh, VT" -->
    <tag k="addr:city" v="Alburgh"/>
    <tag k="addr:housenumber" v="4"/>
    <tag k="addr:street" v="Point Of Tongue"/>
    <tag k="addr:state" v="VT"/>
    <tag k="ref:vcgi:esiteid" v="3228"/>
  </node>
  <node id="-1580" visible="true" lat="44.95386933" lon="-73.2661087">
    <!-- conflict: "234 Center Bay Road, Alburgh, VT" No match in OSM, but a different address exists <5m away: "24 Center Bay Road, Alburgh, VT" -->
    <tag k="addr:city" v="Alburgh"/>
    <tag k="addr:housenumber" v="234"/>
    <tag k="addr:street" v="Center Bay Road"/>
    <tag k="addr:state" v="VT"/>
    <tag k="ref:vcgi:esiteid" v="3257"/>
  </node>
  <node id="-1582" visible="true" lat="44.88629211" lon="-73.27769256">
    <!-- conflict: "2 Poor Farm Road, Alburgh, VT" No match in OSM, but a different address exists <5m away: "2 A Poor Farm Road, Alburgh, VT" -->
    <tag k="addr:city" v="Alburgh"/>
    <tag k="addr:housenumber" v="2"/>
    <tag k="addr:street" v="Poor Farm Road"/>
    <tag k="addr:state" v="VT"/>
    <tag k="ref:vcgi:esiteid" v="3259"/>
  </node>
  <node id="-1588" visible="true" lat="44.89592493" lon="-73.30382105">
    <!-- conflict: "180 Vermont Route 129, Alburgh, VT" No match in OSM, but a different address exists <5m away: "180 Vt Route 129, Alburgh, VT" -->
    <tag k="addr:city" v="Alburgh"/>
    <tag k="addr:housenumber" v="180"/>
    <tag k="addr:street" v="Vermont Route 129"/>
    <tag k="addr:state" v="VT"/>
    <tag k="ref:vcgi:esiteid" v="3269"/>
  </node>
  <node id="-1589" visible="true" lat="44.89498601" lon="-73.29909826">
    <!-- conflict: "178 Vermont Route 129, Alburgh, VT" No match in OSM, but a different address exists <5m away: "178 Vt Route 129, Alburgh, VT" -->
    <tag k="addr:city" v="Alburgh"/>
    <tag k="addr:housenumber" v="178"/>
    <tag k="addr:street" v="Vermont Route 129"/>
    <tag k="addr:state" v="VT"/>
    <tag k="ref:vcgi:esiteid" v="3270"/>
  </node>
  <node id="-1650" visible="true" lat="44.88700148" lon="-73.28235916">
    <!-- conflict: "19 Vermont Route 129, Alburgh, VT" No match in OSM, but a different address exists <5m away: "19 Vt Route 129, Alburgh, VT" -->
    <tag k="addr:city" v="Alburgh"/>
    <tag k="addr:housenumber" v="19"/>
    <tag k="addr:street" v="Vermont Route 129"/>
    <tag k="addr:state" v="VT"/>
    <tag k="ref:vcgi:esiteid" v="307190"/>
  </node>
  <node id="-1651" visible="true" lat="44.88825289" lon="-73.29767069">
    <!-- conflict: "88 Vermont Route 129, Alburgh, VT" No match in OSM, but a different address exists <5m away: "88 Vt Route 129, Alburgh, VT" -->
    <tag k="addr:city" v="Alburgh"/>
    <tag k="addr:housenumber" v="88"/>
    <tag k="addr:street" v="Vermont Route 129"/>
    <tag k="addr:state" v="VT"/>
    <tag k="ref:vcgi:esiteid" v="307191"/>
  </node>
  <node id="-1701" visible="true" lat="44.90169127" lon="-73.30367369">
    <!-- conflict: "226 Vermont Route 129, Alburgh, VT" No match in OSM, but a different address exists <5m away: "226 Vt Route 129, Alburgh, VT" -->
    <tag k="addr:city" v="Alburgh"/>
    <tag k="addr:housenumber" v="226"/>
    <tag k="addr:street" v="Vermont Route 129"/>
    <tag k="addr:state" v="VT"/>
    <tag k="ref:vcgi:esiteid" v="328102"/>
  </node>
  <node id="-1714" visible="true" lat="44.95421805" lon="-73.27019468">
    <!-- conflict: "45 Center Bay Road, Alburgh, VT" No match in OSM, but a different address exists <5m away: "3 Center Bay Road, Alburgh, VT" -->
    <tag k="addr:city" v="Alburgh"/>
    <tag k="addr:housenumber" v="45"/>
    <tag k="addr:street" v="Center Bay Road"/>
    <tag k="addr:state" v="VT"/>
    <tag k="ref:vcgi:esiteid" v="328123"/>
  </node>
  <node id="-1715" visible="true" lat="44.94960083" lon="-73.26992626">
    <!-- conflict: "3023 U.S. Route 2 South, Alburgh, VT" No match in OSM, but a different address exists <5m away: "317 U.S. Route 2 South, Alburgh, VT" -->
    <tag k="addr:city" v="Alburgh"/>
    <tag k="addr:housenumber" v="3023"/>
    <tag k="addr:street" v="U.S. Route 2 South"/>
    <tag k="addr:state" v="VT"/>
    <tag k="ref:vcgi:esiteid" v="332382"/>
  </node>
  <node id="-1717" visible="true" lat="44.90272177" lon="-73.2728559">
    <!-- conflict: "20A Bruleys Trailer Park, Alburgh, VT" Fuzzy match to "20 A Bruleys Trailer Park, Alburgh, VT" -->
    <tag k="addr:city" v="Alburgh"/>
    <tag k="addr:housenumber" v="20A"/>
    <tag k="addr:street" v="Bruleys Trailer Park"/>
    <tag k="addr:state" v="VT"/>
    <tag k="ref:vcgi:esiteid" v="332451"/>
  </node>
  <node id="-1848" visible="true" lat="44.85907033" lon="-73.29124858">
    <!-- conflict: "18 Point Of Tongue, Alburgh, VT" Fuzzy match to "18 Point of Tongue, Alburgh, VT" -->
    <tag k="addr:city" v="Alburgh"/>
    <tag k="addr:housenumber" v="18"/>
    <tag k="addr:street" v="Point Of Tongue"/>
    <tag k="addr:state" v="VT"/>
    <tag k="ref:vcgi:esiteid" v="454370"/>
  </node>
  <node id="-1849" visible="true" lat="44.8594125" lon="-73.291347">
    <!-- conflict: "16 Point Of Tongue, Alburgh, VT" Fuzzy match to "16 Point of Tongue, Alburgh, VT" -->
    <tag k="addr:city" v="Alburgh"/>
    <tag k="addr:housenumber" v="16"/>
    <tag k="addr:street" v="Point Of Tongue"/>
    <tag k="addr:state" v="VT"/>
    <tag k="ref:vcgi:esiteid" v="454371"/>
  </node>
  <node id="-1850" visible="true" lat="44.86005839" lon="-73.29159688">
    <!-- conflict: "8 Point Of Tongue, Alburgh, VT" Fuzzy match to "8 Point of Tongue, Alburgh, VT" -->
    <tag k="addr:city" v="Alburgh"/>
    <tag k="addr:housenumber" v="8"/>
    <tag k="addr:street" v="Point Of Tongue"/>
    <tag k="addr:state" v="VT"/>
    <tag k="ref:vcgi:esiteid" v="454372"/>
  </node>
  <node id="-2047" visible="true" lat="44.92435269" lon="-73.2752914">
    <!-- conflict: "4752 U.S. Route 2 South, Alburgh, VT" Fuzzy match to "4752 US Route 2 South, Alburgh, VT" -->
    <tag k="addr:city" v="Alburgh"/>
    <tag k="addr:housenumber" v="4752"/>
    <tag k="addr:street" v="U.S. Route 2 South"/>
    <tag k="addr:state" v="VT"/>
    <tag k="ref:vcgi:esiteid" v="613294"/>
  </node>
  <node id="-2048" visible="true" lat="44.90698221" lon="-73.27762591">
    <!-- conflict: "6155 U.S. Route 2 South, Alburgh, VT" Fuzzy match to "6155 US Route 2 South, Alburgh, VT" -->
    <tag k="addr:city" v="Alburgh"/>
    <tag k="addr:housenumber" v="6155"/>
    <tag k="addr:street" v="U.S. Route 2 South"/>
    <tag k="addr:state" v="VT"/>
    <tag k="ref:vcgi:esiteid" v="613295"/>
  </node>
  <node id="-2051" visible="true" lat="44.90057652" lon="-73.27451016">
    <!-- conflict: "6672 U.S. Route 2 South, Alburgh, VT" Fuzzy match to "6672 US Route 2 South, Alburgh, VT" -->
    <tag k="addr:city" v="Alburgh"/>
    <tag k="addr:housenumber" v="6672"/>
    <tag k="addr:street" v="U.S. Route 2 South"/>
    <tag k="addr:state" v="VT"/>
    <tag k="ref:vcgi:esiteid" v="613303"/>
  </node>
  <node id="-2053" visible="true" lat="44.893976" lon="-73.27977022">
    <!-- conflict: "7174 U.S. Route 2 South, Alburgh, VT" Fuzzy match to "7174 US Route 2 South, Alburgh, VT" -->
    <tag k="addr:city" v="Alburgh"/>
    <tag k="addr:housenumber" v="7174"/>
    <tag k="addr:street" v="U.S. Route 2 South"/>
    <tag k="addr:state" v="VT"/>
    <tag k="ref:vcgi:esiteid" v="613307"/>
  </node>
  <node id="-2076" visible="true" lat="44.85369768" lon="-73.29177091">
    <!-- conflict: "58 Cedarvale Estate, Alburgh, VT" No match in OSM, but a different address exists <5m away: " Cedarvale Estate, Alburgh, VT" -->
    <tag k="addr:city" v="Alburgh"/>
    <tag k="addr:housenumber" v="58"/>
    <tag k="addr:street" v="Cedarvale Estate"/>
    <tag k="addr:state" v="VT"/>
    <tag k="ref:vcgi:esiteid" v="618562"/>
  </node>
  <node id="-2128" visible="true" lat="44.97482499" lon="-73.30981033">
    <!-- conflict: "421 Lake Street, Alburgh, VT" No match in OSM, but a different address exists <5m away: "141 Lake Street, Alburgh, VT" -->
    <tag k="addr:city" v="Alburgh"/>
    <tag k="addr:housenumber" v="421"/>
    <tag k="addr:street" v="Lake Street"/>
    <tag k="addr:state" v="VT"/>
    <tag k="ref:vcgi:esiteid" v="750007"/>
  </node>
  <node id="-2360" visible="true" lat="44.89652503" lon="-73.28035957">
    <!-- conflict: "7362 U.S. Route 2 South, Alburgh, VT" Fuzzy match to "7362 US Route 2 South, Alburgh, VT" -->
    <tag k="addr:city" v="Alburgh"/>
    <tag k="addr:housenumber" v="7362"/>
    <tag k="addr:street" v="U.S. Route 2 South"/>
    <tag k="addr:state" v="VT"/>
    <tag k="ref:vcgi:esiteid" v="752072"/>
  </node>
  <node id="-2415" visible="true" lat="44.90898058" lon="-73.30960001">
    <!-- conflict: "284 Terrapin Lane, Alburgh, VT" No match in OSM, but a different address exists <5m away: "288 Terrapin Lane, Alburgh, VT" -->
    <tag k="addr:city" v="Alburgh"/>
    <tag k="addr:housenumber" v="284"/>
    <tag k="addr:street" v="Terrapin Lane"/>
    <tag k="addr:state" v="VT"/>
    <tag k="ref:vcgi:esiteid" v="759459"/>
  </node>
</osm>
