<?xml version="1.0" encoding="UTF-8"?>
<osm version="0.6" generator="JOSM" upload="false">
  <node id="-219" visible="true" lat="43.29297628" lon="-72.73066024">
    <tag k="addr:housenumber" v="604"/>
    <tag k="addr:street" v="North Hill Road"/>
    <tag k="addr:state" v="VT"/>
    <tag k="ref:vcgi:esiteid" v="3390"/>
  </node>
  <node id="-221" visible="true" lat="43.29278184" lon="-72.76217425">
    <tag k="addr:housenumber" v="203"/>
    <tag k="addr:street" v="Andover Ridge Road"/>
    <tag k="addr:state" v="VT"/>
    <tag k="ref:vcgi:esiteid" v="3392"/>
  </node>
  <node id="-224" visible="true" lat="43.29228738" lon="-72.7322437">
    <tag k="addr:housenumber" v="561"/>
    <tag k="addr:street" v="North Hill Road"/>
    <tag k="addr:state" v="VT"/>
    <tag k="ref:vcgi:esiteid" v="3395"/>
  </node>
  <node id="-226" visible="true" lat="43.29182711" lon="-72.76236878">
    <tag k="addr:housenumber" v="129"/>
    <tag k="addr:street" v="Andover Ridge Road"/>
    <tag k="addr:state" v="VT"/>
    <tag k="ref:vcgi:esiteid" v="3397"/>
  </node>
  <node id="-227" visible="true" lat="43.29127917" lon="-72.76299281">
    <tag k="addr:housenumber" v="4828"/>
    <tag k="addr:street" v="Weston Andover Road"/>
    <tag k="addr:state" v="VT"/>
    <tag k="ref:vcgi:esiteid" v="3398"/>
  </node>
  <node id="-229" visible="true" lat="43.29004398" lon="-72.73216214">
    <tag k="addr:housenumber" v="417"/>
    <tag k="addr:street" v="North Hill Road"/>
    <tag k="addr:state" v="VT"/>
    <tag k="ref:vcgi:esiteid" v="3400"/>
  </node>
  <node id="-230" visible="true" lat="43.28969169" lon="-72.7385674">
    <tag k="addr:housenumber" v="463"/>
    <tag k="addr:street" v="Arrau Road"/>
    <tag k="addr:state" v="VT"/>
    <tag k="ref:vcgi:esiteid" v="3402"/>
  </node>
  <node id="-235" visible="true" lat="43.28677368" lon="-72.73190679">
    <tag k="addr:housenumber" v="77"/>
    <tag k="addr:street" v="Arrau Road"/>
    <tag k="addr:state" v="VT"/>
    <tag k="ref:vcgi:esiteid" v="3407"/>
  </node>
  <node id="-239" visible="true" lat="43.28636838" lon="-72.74082206">
    <!-- match: "168 Willies Lane, , VT"  ignoring street punctuation to "168 Willie's Lane, Weston, VT" -->
    <tag k="addr:housenumber" v="168"/>
    <tag k="addr:street" v="Willies Lane"/>
    <tag k="addr:state" v="VT"/>
    <tag k="ref:vcgi:esiteid" v="3411"/>
  </node>
  <node id="-240" visible="true" lat="43.28613304" lon="-72.73092707">
    <tag k="addr:housenumber" v="19"/>
    <tag k="addr:street" v="Arrau Road"/>
    <tag k="addr:state" v="VT"/>
    <tag k="ref:vcgi:esiteid" v="3412"/>
  </node>
  <node id="-242" visible="true" lat="43.28534501" lon="-72.73079121">
    <tag k="addr:housenumber" v="93"/>
    <tag k="addr:street" v="North Hill Road"/>
    <tag k="addr:state" v="VT"/>
    <tag k="ref:vcgi:esiteid" v="3414"/>
  </node>
  <node id="-243" visible="true" lat="43.28557037" lon="-72.73991455">
    <!-- match: "112 Willies Lane, , VT"  ignoring street punctuation to "112 Willie's Lane, Weston, VT" -->
    <tag k="addr:housenumber" v="112"/>
    <tag k="addr:street" v="Willies Lane"/>
    <tag k="addr:state" v="VT"/>
    <tag k="ref:vcgi:esiteid" v="3415"/>
  </node>
  <node id="-250" visible="true" lat="43.28481013" lon="-72.74093966">
    <!-- match: "59 Willies Lane, , VT"  ignoring street punctuation to "59 Willie's Lane, Weston, VT" -->
    <tag k="addr:housenumber" v="59"/>
    <tag k="addr:street" v="Willies Lane"/>
    <tag k="addr:state" v="VT"/>
    <tag k="ref:vcgi:esiteid" v="3422"/>
  </node>
  <node id="-274" visible="true" lat="43.28030965" lon="-72.69471993">
    <tag k="addr:housenumber" v="88"/>
    <tag k="addr:street" v="Plumb Road"/>
    <tag k="addr:state" v="VT"/>
    <tag k="ref:vcgi:esiteid" v="3446"/>
  </node>
  <node id="-276" visible="true" lat="43.27937768" lon="-72.69733723">
    <tag k="addr:housenumber" v="181"/>
    <tag k="addr:street" v="Pettengill Road"/>
    <tag k="addr:state" v="VT"/>
    <tag k="ref:vcgi:esiteid" v="3448"/>
  </node>
  <node id="-277" visible="true" lat="43.27925724" lon="-72.69260826">
    <tag k="addr:housenumber" v="230"/>
    <tag k="addr:street" v="Plumb Road"/>
    <tag k="addr:state" v="VT"/>
    <tag k="ref:vcgi:esiteid" v="3449"/>
  </node>
  <node id="-281" visible="true" lat="43.27861048" lon="-72.69008196">
    <tag k="addr:housenumber" v="366"/>
    <tag k="addr:street" v="Plumb Road"/>
    <tag k="addr:state" v="VT"/>
    <tag k="ref:vcgi:esiteid" v="3453"/>
  </node>
  <node id="-282" visible="true" lat="43.27855119" lon="-72.69510197">
    <tag k="addr:housenumber" v="102"/>
    <tag k="addr:street" v="Pettengill Road"/>
    <tag k="addr:state" v="VT"/>
    <tag k="ref:vcgi:esiteid" v="3454"/>
  </node>
  <node id="-283" visible="true" lat="43.27858733" lon="-72.69548268">
    <tag k="addr:housenumber" v="99"/>
    <tag k="addr:street" v="Pettengill Road"/>
    <tag k="addr:state" v="VT"/>
    <tag k="ref:vcgi:esiteid" v="3455"/>
  </node>
  <node id="-286" visible="true" lat="43.27805716" lon="-72.69864025">
    <tag k="addr:housenumber" v="928"/>
    <tag k="addr:street" v="Weston Andover Road"/>
    <tag k="addr:state" v="VT"/>
    <tag k="ref:vcgi:esiteid" v="3458"/>
  </node>
  <node id="-287" visible="true" lat="43.27811986" lon="-72.69834175">
    <tag k="addr:housenumber" v="910"/>
    <tag k="addr:street" v="Weston Andover Road"/>
    <tag k="addr:state" v="VT"/>
    <tag k="ref:vcgi:esiteid" v="3459"/>
  </node>
  <node id="-288" visible="true" lat="43.2778413" lon="-72.69785375">
    <tag k="addr:housenumber" v="876"/>
    <tag k="addr:street" v="Weston Andover Road"/>
    <tag k="addr:state" v="VT"/>
    <tag k="ref:vcgi:esiteid" v="3460"/>
  </node>
  <node id="-290" visible="true" lat="43.27770366" lon="-72.69985594">
    <tag k="addr:housenumber" v="1001"/>
    <tag k="addr:street" v="Weston Andover Road"/>
    <tag k="addr:state" v="VT"/>
    <tag k="ref:vcgi:esiteid" v="3462"/>
  </node>
  <node id="-291" visible="true" lat="43.27760324" lon="-72.69671818">
    <tag k="addr:housenumber" v="824"/>
    <tag k="addr:street" v="Weston Andover Road"/>
    <tag k="addr:state" v="VT"/>
    <tag k="ref:vcgi:esiteid" v="3463"/>
  </node>
  <node id="-292" visible="true" lat="43.27758214" lon="-72.69588661">
    <tag k="addr:housenumber" v="18"/>
    <tag k="addr:street" v="Pettengill Road"/>
    <tag k="addr:state" v="VT"/>
    <tag k="ref:vcgi:esiteid" v="3464"/>
  </node>
  <node id="-293" visible="true" lat="43.2773361" lon="-72.69548561">
    <tag k="addr:housenumber" v="758"/>
    <tag k="addr:street" v="Weston Andover Road"/>
    <tag k="addr:state" v="VT"/>
    <tag k="ref:vcgi:esiteid" v="3465"/>
  </node>
  <node id="-298" visible="true" lat="43.27684028" lon="-72.69396097">
    <tag k="addr:housenumber" v="678"/>
    <tag k="addr:street" v="Weston Andover Road"/>
    <tag k="addr:state" v="VT"/>
    <tag k="ref:vcgi:esiteid" v="3470"/>
  </node>
  <node id="-299" visible="true" lat="43.27656931" lon="-72.69331652">
    <tag k="addr:housenumber" v="638"/>
    <tag k="addr:street" v="Weston Andover Road"/>
    <tag k="addr:state" v="VT"/>
    <tag k="ref:vcgi:esiteid" v="3471"/>
  </node>
  <node id="-300" visible="true" lat="43.27580257" lon="-72.70153607">
    <tag k="addr:housenumber" v="1255"/>
    <tag k="addr:street" v="Hill Top Road"/>
    <tag k="addr:state" v="VT"/>
    <tag k="ref:vcgi:esiteid" v="3472"/>
  </node>
  <node id="-301" visible="true" lat="43.27552518" lon="-72.69201962">
    <tag k="addr:housenumber" v="550"/>
    <tag k="addr:street" v="Weston Andover Road"/>
    <tag k="addr:state" v="VT"/>
    <tag k="ref:vcgi:esiteid" v="3473"/>
  </node>
  <node id="-302" visible="true" lat="43.27534709" lon="-72.70065622">
    <tag k="addr:housenumber" v="1226"/>
    <tag k="addr:street" v="Hill Top Road"/>
    <tag k="addr:state" v="VT"/>
    <tag k="ref:vcgi:esiteid" v="3474"/>
  </node>
  <node id="-428" visible="true" lat="43.22472642" lon="-72.68975665">
    <tag k="addr:housenumber" v="5540"/>
    <tag k="addr:street" v="Popple Dungeon Road"/>
    <tag k="addr:state" v="VT"/>
    <tag k="ref:vcgi:esiteid" v="3604"/>
  </node>
  <node id="-434" visible="true" lat="43.28819373" lon="-72.73197561">
    <tag k="addr:housenumber" v="124"/>
    <tag k="addr:street" v="Arrau Road"/>
    <tag k="addr:state" v="VT"/>
    <tag k="ref:vcgi:esiteid" v="3611"/>
  </node>
  <node id="-456" visible="true" lat="43.28460034" lon="-72.73733642">
    <tag k="addr:housenumber" v="3422"/>
    <tag k="addr:street" v="Weston Andover Road"/>
    <tag k="addr:state" v="VT"/>
    <tag k="ref:vcgi:esiteid" v="3635"/>
  </node>
  <node id="-468" visible="true" lat="43.28548745" lon="-72.7369484">
    <tag k="addr:housenumber" v="3424"/>
    <tag k="addr:street" v="Weston Andover Road"/>
    <tag k="addr:state" v="VT"/>
    <tag k="ref:vcgi:esiteid" v="3647"/>
  </node>
  <node id="-471" visible="true" lat="43.27303136" lon="-72.69540597">
    <tag k="addr:housenumber" v="671"/>
    <tag k="addr:street" v="Weston Andover Road"/>
    <tag k="addr:state" v="VT"/>
    <tag k="ref:vcgi:esiteid" v="3650"/>
  </node>
  <node id="-519" visible="true" lat="43.29593314" lon="-72.73199793">
    <tag k="addr:housenumber" v="810"/>
    <tag k="addr:street" v="North Hill Road"/>
    <tag k="addr:state" v="VT"/>
    <tag k="ref:vcgi:esiteid" v="316013"/>
  </node>
  <node id="-523" visible="true" lat="43.28690602" lon="-72.73207773">
    <tag k="addr:housenumber" v="89"/>
    <tag k="addr:street" v="Arrau Road"/>
    <tag k="addr:state" v="VT"/>
    <tag k="ref:vcgi:esiteid" v="316802"/>
  </node>
  <node id="-531" visible="true" lat="43.28738967" lon="-72.73402123">
    <tag k="addr:housenumber" v="203"/>
    <tag k="addr:street" v="Arrau Road"/>
    <tag k="addr:state" v="VT"/>
    <tag k="ref:vcgi:esiteid" v="329197"/>
  </node>
  <node id="-707" visible="true" lat="43.2961065" lon="-72.73379825">
    <tag k="addr:housenumber" v="803"/>
    <tag k="addr:street" v="North Hill Road"/>
    <tag k="addr:state" v="VT"/>
    <tag k="ref:vcgi:esiteid" v="754094"/>
  </node>
</osm>
