<?xml version="1.0" encoding="UTF-8"?>
<osm version="0.6" generator="JOSM">
  <node id="-231" visible="true" lat="43.1046359" lon="-73.2242705">
    <!-- conflict: "4372 Vermont Route 313 West, Arlington, VT" No match in OSM, but a different address exists <5m away: "4372 Batten Kill Road, Arlington, VT" -->
    <tag k="addr:city" v="Arlington"/>
    <tag k="addr:housenumber" v="4372"/>
    <tag k="addr:street" v="Vermont Route 313 West"/>
    <tag k="addr:state" v="VT"/>
    <tag k="ref:vcgi:esiteid" v="3815"/>
  </node>
  <node id="-287" visible="true" lat="43.10166181" lon="-73.13622172">
    <!-- conflict: "6156 Vermont Route 7A, Arlington, VT" No match in OSM, but a different address exists <5m away: "6156 Vt Route 7A, Arlington, VT" -->
    <tag k="addr:city" v="Arlington"/>
    <tag k="addr:housenumber" v="6156"/>
    <tag k="addr:street" v="Vermont Route 7A"/>
    <tag k="addr:state" v="VT"/>
    <tag k="ref:vcgi:esiteid" v="3871"/>
  </node>
  <node id="-291" visible="true" lat="43.10141157" lon="-73.13666732">
    <!-- conflict: "6112 Vermont Route 7A, Arlington, VT" No match in OSM, but a different address exists <5m away: "6112 Vt Route 7A, Arlington, VT" -->
    <tag k="addr:city" v="Arlington"/>
    <tag k="addr:housenumber" v="6112"/>
    <tag k="addr:street" v="Vermont Route 7A"/>
    <tag k="addr:state" v="VT"/>
    <tag k="ref:vcgi:esiteid" v="3875"/>
  </node>
  <node id="-321" visible="true" lat="43.09882202" lon="-73.20549426">
    <!-- conflict: "3307 Vermont Route 313 West, Arlington, VT" No match in OSM, but a different address exists <5m away: "3307 Batten Kill Road, Arlington, VT" -->
    <tag k="addr:city" v="Arlington"/>
    <tag k="addr:housenumber" v="3307"/>
    <tag k="addr:street" v="Vermont Route 313 West"/>
    <tag k="addr:state" v="VT"/>
    <tag k="ref:vcgi:esiteid" v="3905"/>
  </node>
  <node id="-461" visible="true" lat="43.08391968" lon="-73.14548775">
    <!-- conflict: "48 Camping On The Battenkill, Arlington, VT" Fuzzy match to "48 Camping on the Battenkill, , " -->
    <tag k="addr:city" v="Arlington"/>
    <tag k="addr:housenumber" v="48"/>
    <tag k="addr:street" v="Camping On The Battenkill"/>
    <tag k="addr:state" v="VT"/>
    <tag k="ref:vcgi:esiteid" v="4046"/>
  </node>
  <node id="-560" visible="true" lat="43.07579" lon="-73.15940683">
    <!-- conflict: "311 Vermont Route 313 West, Arlington, VT" No match in OSM, but a different address exists <5m away: "311 Batten Kill Road;Vermont Route 313 West, Arlington, VT" -->
    <tag k="addr:city" v="Arlington"/>
    <tag k="addr:housenumber" v="311"/>
    <tag k="addr:street" v="Vermont Route 313 West"/>
    <tag k="addr:state" v="VT"/>
    <tag k="ref:vcgi:esiteid" v="4145"/>
  </node>
  <node id="-569" visible="true" lat="43.07584975" lon="-73.1634836">
    <!-- conflict: "530 Vermont Route 313 West, Arlington, VT" No match in OSM, but a different address exists <5m away: "530 Batten Kill Road, Arlington, VT" -->
    <tag k="addr:city" v="Arlington"/>
    <tag k="addr:housenumber" v="530"/>
    <tag k="addr:street" v="Vermont Route 313 West"/>
    <tag k="addr:state" v="VT"/>
    <tag k="ref:vcgi:esiteid" v="4154"/>
  </node>
  <node id="-628" visible="true" lat="43.07302466" lon="-73.15418448">
    <!-- conflict: "3784 Vermont Route 7A, Arlington, VT" No match in OSM, but a different address exists <5m away: "3784 Vt Route 7A, Arlington, VT" -->
    <tag k="addr:city" v="Arlington"/>
    <tag k="addr:housenumber" v="3784"/>
    <tag k="addr:street" v="Vermont Route 7A"/>
    <tag k="addr:state" v="VT"/>
    <tag k="ref:vcgi:esiteid" v="4220"/>
  </node>
  <node id="-637" visible="true" lat="43.07278344" lon="-73.15439906">
    <!-- conflict: "3772 Vermont Route 7A, Arlington, VT" No match in OSM, but a different address exists <5m away: "3772 Vt Route 7A, Arlington, VT" -->
    <tag k="addr:city" v="Arlington"/>
    <tag k="addr:housenumber" v="3772"/>
    <tag k="addr:street" v="Vermont Route 7A"/>
    <tag k="addr:state" v="VT"/>
    <tag k="ref:vcgi:esiteid" v="4229"/>
  </node>
  <node id="-658" visible="true" lat="43.07190622" lon="-73.15494791">
    <!-- conflict: "3698 Vermont Route 7A, Arlington, VT" No match in OSM, but a different address exists <5m away: "3698 Vt Route 7A, Arlington, VT" -->
    <tag k="addr:city" v="Arlington"/>
    <tag k="addr:housenumber" v="3698"/>
    <tag k="addr:street" v="Vermont Route 7A"/>
    <tag k="addr:state" v="VT"/>
    <tag k="ref:vcgi:esiteid" v="4251"/>
  </node>
  <node id="-718" visible="true" lat="43.07036141" lon="-73.16355974">
    <!-- conflict: "212 No Name Road, Arlington, VT" Fuzzy match to "212 NoName Road, Arlington, VT" -->
    <tag k="addr:city" v="Arlington"/>
    <tag k="addr:housenumber" v="212"/>
    <tag k="addr:street" v="No Name Road"/>
    <tag k="addr:state" v="VT"/>
    <tag k="ref:vcgi:esiteid" v="4315"/>
  </node>
  <node id="-732" visible="true" lat="43.06776805" lon="-73.1389928">
    <!-- conflict: "18 Walker Meadows, Arlington, VT" Fuzzy match to "18 Walker Meadow, Arlington, VT" -->
    <tag k="addr:city" v="Arlington"/>
    <tag k="addr:housenumber" v="18"/>
    <tag k="addr:street" v="Walker Meadows"/>
    <tag k="addr:state" v="VT"/>
    <tag k="ref:vcgi:esiteid" v="4329"/>
  </node>
  <node id="-1222" visible="true" lat="43.10326271" lon="-73.21268844">
    <!-- conflict: "3815 Vermont Route 313 West, Arlington, VT" No match in OSM, but a different address exists <5m away: "3831 Vermont Route 313 West, Arlington, VT" -->
    <tag k="addr:city" v="Arlington"/>
    <tag k="addr:housenumber" v="3815"/>
    <tag k="addr:street" v="Vermont Route 313 West"/>
    <tag k="addr:state" v="VT"/>
    <tag k="ref:vcgi:esiteid" v="4839"/>
  </node>
  <node id="-1243" visible="true" lat="43.05410989" lon="-73.15477068">
    <!-- conflict: "81 Paradise Hill, Arlington, VT" Fuzzy match to "81 Paradise Hollow, Arlington, VT" -->
    <tag k="addr:city" v="Arlington"/>
    <tag k="addr:housenumber" v="81"/>
    <tag k="addr:street" v="Paradise Hill"/>
    <tag k="addr:state" v="VT"/>
    <tag k="ref:vcgi:esiteid" v="4863"/>
  </node>
  <node id="-1343" visible="true" lat="43.05423416" lon="-73.1570157">
    <!-- conflict: "196 Paradise Hill, Arlington, VT" Fuzzy match to "196 Paradise Hollow, Arlington, VT" -->
    <tag k="addr:city" v="Arlington"/>
    <tag k="addr:housenumber" v="196"/>
    <tag k="addr:street" v="Paradise Hill"/>
    <tag k="addr:state" v="VT"/>
    <tag k="ref:vcgi:esiteid" v="4971"/>
  </node>
  <node id="-1364" visible="true" lat="43.05357614" lon="-73.15747054">
    <!-- conflict: "212 Paradise Hill, Arlington, VT" Fuzzy match to "212 Paradise Hollow, Arlington, VT" -->
    <tag k="addr:city" v="Arlington"/>
    <tag k="addr:housenumber" v="212"/>
    <tag k="addr:street" v="Paradise Hill"/>
    <tag k="addr:state" v="VT"/>
    <tag k="ref:vcgi:esiteid" v="4992"/>
  </node>
  <node id="-1365" visible="true" lat="43.05396974" lon="-73.15739582">
    <!-- conflict: "208 Paradise Hill, Arlington, VT" Fuzzy match to "208 Paradise Hollow, Arlington, VT" -->
    <tag k="addr:city" v="Arlington"/>
    <tag k="addr:housenumber" v="208"/>
    <tag k="addr:street" v="Paradise Hill"/>
    <tag k="addr:state" v="VT"/>
    <tag k="ref:vcgi:esiteid" v="4993"/>
  </node>
  <node id="-1453" visible="true" lat="43.12114882" lon="-73.21005514">
    <!-- conflict: "219 Shamrock Hill, Arlington, VT" Fuzzy match to "219 Shamrock Hill, Sandgate, VT" -->
    <tag k="addr:city" v="Arlington"/>
    <tag k="addr:housenumber" v="219"/>
    <tag k="addr:street" v="Shamrock Hill"/>
    <tag k="addr:state" v="VT"/>
    <tag k="ref:vcgi:esiteid" v="613099"/>
  </node>
</osm>
