<?xml version="1.0" encoding="UTF-8"?>
<osm version="0.6" generator="JOSM" upload="false">
  <node id="-172" visible="true" lat="43.10818435" lon="-73.26263515">
    <tag k="addr:city" v="Arlington"/>
    <tag k="addr:housenumber" v="6634"/>
    <tag k="addr:street" v="Vermont Route 313 West"/>
    <tag k="addr:state" v="VT"/>
    <tag k="ref:vcgi:esiteid" v="3756"/>
  </node>
  <node id="-177" visible="true" lat="43.10779897" lon="-73.26179307">
    <tag k="addr:city" v="Arlington"/>
    <tag k="addr:housenumber" v="6474"/>
    <tag k="addr:street" v="Vermont Route 313 West"/>
    <tag k="addr:state" v="VT"/>
    <tag k="ref:vcgi:esiteid" v="3761"/>
  </node>
  <node id="-183" visible="true" lat="43.10757402" lon="-73.26131162">
    <tag k="addr:city" v="Arlington"/>
    <tag k="addr:housenumber" v="6430"/>
    <tag k="addr:street" v="Vermont Route 313 West"/>
    <tag k="addr:state" v="VT"/>
    <tag k="ref:vcgi:esiteid" v="3767"/>
  </node>
  <node id="-186" visible="true" lat="43.10767133" lon="-73.22341863">
    <tag k="addr:city" v="Arlington"/>
    <tag k="addr:housenumber" v="4504"/>
    <tag k="addr:street" v="Vermont Route 313 West"/>
    <tag k="addr:state" v="VT"/>
    <tag k="ref:vcgi:esiteid" v="3770"/>
  </node>
  <node id="-189" visible="true" lat="43.10707963" lon="-73.26031109">
    <tag k="addr:city" v="Arlington"/>
    <tag k="addr:housenumber" v="6432"/>
    <tag k="addr:street" v="Vermont Route 313 West"/>
    <tag k="addr:state" v="VT"/>
    <tag k="ref:vcgi:esiteid" v="3773"/>
  </node>
  <node id="-198" visible="true" lat="43.10658204" lon="-73.25908457">
    <tag k="addr:city" v="Arlington"/>
    <tag k="addr:housenumber" v="6316"/>
    <tag k="addr:street" v="Vermont Route 313 West"/>
    <tag k="addr:state" v="VT"/>
    <tag k="ref:vcgi:esiteid" v="3782"/>
  </node>
  <node id="-203" visible="true" lat="43.10636096" lon="-73.25839649">
    <tag k="addr:city" v="Arlington"/>
    <tag k="addr:housenumber" v="6256"/>
    <tag k="addr:street" v="Vermont Route 313 West"/>
    <tag k="addr:state" v="VT"/>
    <tag k="ref:vcgi:esiteid" v="3787"/>
  </node>
  <node id="-206" visible="true" lat="43.10623285" lon="-73.25786849">
    <tag k="addr:city" v="Arlington"/>
    <tag k="addr:housenumber" v="6234"/>
    <tag k="addr:street" v="Vermont Route 313 West"/>
    <tag k="addr:state" v="VT"/>
    <tag k="ref:vcgi:esiteid" v="3790"/>
  </node>
  <node id="-212" visible="true" lat="43.10560575" lon="-73.25637763">
    <tag k="addr:city" v="Arlington"/>
    <tag k="addr:housenumber" v="6152"/>
    <tag k="addr:street" v="Vermont Route 313 West"/>
    <tag k="addr:state" v="VT"/>
    <tag k="ref:vcgi:esiteid" v="3796"/>
  </node>
  <node id="-217" visible="true" lat="43.10513941" lon="-73.22750943">
    <tag k="addr:city" v="Arlington"/>
    <tag k="addr:housenumber" v="4560"/>
    <tag k="addr:street" v="Vermont Route 313 West"/>
    <tag k="addr:state" v="VT"/>
    <tag k="ref:vcgi:esiteid" v="3801"/>
  </node>
  <node id="-219" visible="true" lat="43.10490924" lon="-73.21659919">
    <tag k="addr:city" v="Arlington"/>
    <tag k="addr:housenumber" v="4022"/>
    <tag k="addr:street" v="Vermont Route 313 West"/>
    <tag k="addr:state" v="VT"/>
    <tag k="ref:vcgi:esiteid" v="3803"/>
  </node>
  <node id="-220" visible="true" lat="43.10474171" lon="-73.23135238">
    <tag k="addr:city" v="Arlington"/>
    <tag k="addr:housenumber" v="4748"/>
    <tag k="addr:street" v="Vermont Route 313 West"/>
    <tag k="addr:state" v="VT"/>
    <tag k="ref:vcgi:esiteid" v="3804"/>
  </node>
  <node id="-221" visible="true" lat="43.10485362" lon="-73.23718205">
    <tag k="addr:city" v="Arlington"/>
    <tag k="addr:housenumber" v="5108"/>
    <tag k="addr:street" v="Vermont Route 313 West"/>
    <tag k="addr:state" v="VT"/>
    <tag k="ref:vcgi:esiteid" v="3805"/>
  </node>
  <node id="-225" visible="true" lat="43.10466003" lon="-73.22740173">
    <tag k="addr:city" v="Arlington"/>
    <tag k="addr:housenumber" v="4588"/>
    <tag k="addr:street" v="Vermont Route 313 West"/>
    <tag k="addr:state" v="VT"/>
    <tag k="ref:vcgi:esiteid" v="3809"/>
  </node>
  <node id="-226" visible="true" lat="43.10453405" lon="-73.25388104">
    <tag k="addr:city" v="Arlington"/>
    <tag k="addr:housenumber" v="6002"/>
    <tag k="addr:street" v="Vermont Route 313 West"/>
    <tag k="addr:state" v="VT"/>
    <tag k="ref:vcgi:esiteid" v="3810"/>
  </node>
  <node id="-227" visible="true" lat="43.10459425" lon="-73.21828816">
    <tag k="addr:city" v="Arlington"/>
    <tag k="addr:housenumber" v="4109"/>
    <tag k="addr:street" v="Vermont Route 313 West"/>
    <tag k="addr:state" v="VT"/>
    <tag k="ref:vcgi:esiteid" v="3811"/>
  </node>
  <node id="-229" visible="true" lat="43.10455528" lon="-73.21748835">
    <tag k="addr:city" v="Arlington"/>
    <tag k="addr:housenumber" v="4061"/>
    <tag k="addr:street" v="Vermont Route 313 West"/>
    <tag k="addr:state" v="VT"/>
    <tag k="ref:vcgi:esiteid" v="3813"/>
  </node>
  <node id="-230" visible="true" lat="43.10455577" lon="-73.21770042">
    <tag k="addr:city" v="Arlington"/>
    <tag k="addr:housenumber" v="4087"/>
    <tag k="addr:street" v="Vermont Route 313 West"/>
    <tag k="addr:state" v="VT"/>
    <tag k="ref:vcgi:esiteid" v="3814"/>
  </node>
  <node id="-232" visible="true" lat="43.10449038" lon="-73.23337305">
    <tag k="addr:city" v="Arlington"/>
    <tag k="addr:housenumber" v="4860"/>
    <tag k="addr:street" v="Vermont Route 313 West"/>
    <tag k="addr:state" v="VT"/>
    <tag k="ref:vcgi:esiteid" v="3816"/>
  </node>
  <node id="-233" visible="true" lat="43.10500953" lon="-73.13634054">
    <tag k="addr:city" v="Arlington"/>
    <tag k="addr:housenumber" v="101"/>
    <tag k="addr:street" v="Private Hill Road"/>
    <tag k="addr:state" v="VT"/>
    <tag k="ref:vcgi:esiteid" v="3817"/>
  </node>
  <node id="-235" visible="true" lat="43.10459727" lon="-73.22216396">
    <tag k="addr:city" v="Arlington"/>
    <tag k="addr:housenumber" v="4328"/>
    <tag k="addr:street" v="Vermont Route 313 West"/>
    <tag k="addr:state" v="VT"/>
    <tag k="ref:vcgi:esiteid" v="3819"/>
  </node>
  <node id="-236" visible="true" lat="43.10433959" lon="-73.23288726">
    <tag k="addr:city" v="Arlington"/>
    <tag k="addr:housenumber" v="4862"/>
    <tag k="addr:street" v="Vermont Route 313 West"/>
    <tag k="addr:state" v="VT"/>
    <tag k="ref:vcgi:esiteid" v="3820"/>
  </node>
  <node id="-237" visible="true" lat="43.1041597" lon="-73.23929851">
    <tag k="addr:city" v="Arlington"/>
    <tag k="addr:housenumber" v="5172"/>
    <tag k="addr:street" v="Vermont Route 313 West"/>
    <tag k="addr:state" v="VT"/>
    <tag k="ref:vcgi:esiteid" v="3821"/>
  </node>
  <node id="-238" visible="true" lat="43.10415362" lon="-73.23809963">
    <tag k="addr:city" v="Arlington"/>
    <tag k="addr:housenumber" v="5110"/>
    <tag k="addr:street" v="Vermont Route 313 West"/>
    <tag k="addr:state" v="VT"/>
    <tag k="ref:vcgi:esiteid" v="3822"/>
  </node>
  <node id="-239" visible="true" lat="43.10392558" lon="-73.25162806">
    <tag k="addr:city" v="Arlington"/>
    <tag k="addr:housenumber" v="5892"/>
    <tag k="addr:street" v="Vermont Route 313 West"/>
    <tag k="addr:state" v="VT"/>
    <tag k="ref:vcgi:esiteid" v="3823"/>
  </node>
  <node id="-243" visible="true" lat="43.10404923" lon="-73.21815963">
    <tag k="addr:city" v="Arlington"/>
    <tag k="addr:housenumber" v="4117"/>
    <tag k="addr:street" v="Vermont Route 313 West"/>
    <tag k="addr:state" v="VT"/>
    <tag k="ref:vcgi:esiteid" v="3827"/>
  </node>
  <node id="-245" visible="true" lat="43.1043109" lon="-73.21420784">
    <tag k="addr:city" v="Arlington"/>
    <tag k="addr:housenumber" v="3894"/>
    <tag k="addr:street" v="Vermont Route 313 West"/>
    <tag k="addr:state" v="VT"/>
    <tag k="ref:vcgi:esiteid" v="3829"/>
  </node>
  <node id="-246" visible="true" lat="43.1045494" lon="-73.13622283">
    <tag k="addr:city" v="Arlington"/>
    <tag k="addr:housenumber" v="102"/>
    <tag k="addr:street" v="Private Hill Road"/>
    <tag k="addr:state" v="VT"/>
    <tag k="ref:vcgi:esiteid" v="3830"/>
  </node>
  <node id="-247" visible="true" lat="43.10388743" lon="-73.25387841">
    <tag k="addr:city" v="Arlington"/>
    <tag k="addr:housenumber" v="5613"/>
    <tag k="addr:street" v="River Road"/>
    <tag k="addr:state" v="VT"/>
    <tag k="ref:vcgi:esiteid" v="3831"/>
  </node>
  <node id="-248" visible="true" lat="43.10370932" lon="-73.23556105">
    <tag k="addr:city" v="Arlington"/>
    <tag k="addr:housenumber" v="4991"/>
    <tag k="addr:street" v="Vermont Route 313 West"/>
    <tag k="addr:state" v="VT"/>
    <tag k="ref:vcgi:esiteid" v="3832"/>
  </node>
  <node id="-249" visible="true" lat="43.10379507" lon="-73.21291183">
    <tag k="addr:city" v="Arlington"/>
    <tag k="addr:housenumber" v="27"/>
    <tag k="addr:street" v="Sandgate Road"/>
    <tag k="addr:state" v="VT"/>
    <tag k="ref:vcgi:esiteid" v="3833"/>
  </node>
  <node id="-250" visible="true" lat="43.10362825" lon="-73.23618977">
    <tag k="addr:city" v="Arlington"/>
    <tag k="addr:housenumber" v="5007"/>
    <tag k="addr:street" v="Vermont Route 313 West"/>
    <tag k="addr:state" v="VT"/>
    <tag k="ref:vcgi:esiteid" v="3834"/>
  </node>
  <node id="-251" visible="true" lat="43.10374732" lon="-73.21425181">
    <tag k="addr:city" v="Arlington"/>
    <tag k="addr:housenumber" v="3885"/>
    <tag k="addr:street" v="Vermont Route 313 West"/>
    <tag k="addr:state" v="VT"/>
    <tag k="ref:vcgi:esiteid" v="3835"/>
  </node>
  <node id="-252" visible="true" lat="43.10370095" lon="-73.22056094">
    <tag k="addr:city" v="Arlington"/>
    <tag k="addr:housenumber" v="62"/>
    <tag k="addr:street" v="Covered Bridge Road"/>
    <tag k="addr:state" v="VT"/>
    <tag k="ref:vcgi:esiteid" v="3836"/>
  </node>
  <node id="-255" visible="true" lat="43.10363821" lon="-73.21391678">
    <tag k="addr:city" v="Arlington"/>
    <tag k="addr:housenumber" v="3871"/>
    <tag k="addr:street" v="Vermont Route 313 West"/>
    <tag k="addr:state" v="VT"/>
    <tag k="ref:vcgi:esiteid" v="3839"/>
  </node>
  <node id="-257" visible="true" lat="43.10362667" lon="-73.21990575">
    <tag k="addr:city" v="Arlington"/>
    <tag k="addr:housenumber" v="67"/>
    <tag k="addr:street" v="Covered Bridge Road"/>
    <tag k="addr:state" v="VT"/>
    <tag k="ref:vcgi:esiteid" v="3841"/>
  </node>
  <node id="-259" visible="true" lat="43.1033549" lon="-73.24913196">
    <tag k="addr:city" v="Arlington"/>
    <tag k="addr:housenumber" v="5754"/>
    <tag k="addr:street" v="Vermont Route 313 West"/>
    <tag k="addr:state" v="VT"/>
    <tag k="ref:vcgi:esiteid" v="3843"/>
  </node>
  <node id="-261" visible="true" lat="43.10338558" lon="-73.21332729">
    <tag k="addr:city" v="Arlington"/>
    <tag k="addr:housenumber" v="3833"/>
    <tag k="addr:street" v="Vermont Route 313 West"/>
    <tag k="addr:state" v="VT"/>
    <tag k="ref:vcgi:esiteid" v="3845"/>
  </node>
  <node id="-262" visible="true" lat="43.10317906" lon="-73.25086869">
    <tag k="addr:city" v="Arlington"/>
    <tag k="addr:housenumber" v="5827"/>
    <tag k="addr:street" v="Vermont Route 313 West"/>
    <tag k="addr:state" v="VT"/>
    <tag k="ref:vcgi:esiteid" v="3846"/>
  </node>
  <node id="-263" visible="true" lat="43.1035383" lon="-73.21144746">
    <tag k="addr:city" v="Arlington"/>
    <tag k="addr:housenumber" v="3740"/>
    <tag k="addr:street" v="Vermont Route 313 West"/>
    <tag k="addr:state" v="VT"/>
    <tag k="ref:vcgi:esiteid" v="3847"/>
  </node>
  <node id="-265" visible="true" lat="43.10308342" lon="-73.21198129">
    <tag k="addr:city" v="Arlington"/>
    <tag k="addr:housenumber" v="3775"/>
    <tag k="addr:street" v="Vermont Route 313 West"/>
    <tag k="addr:state" v="VT"/>
    <tag k="ref:vcgi:esiteid" v="3849"/>
  </node>
  <node id="-267" visible="true" lat="43.10266915" lon="-73.21989401">
    <tag k="addr:city" v="Arlington"/>
    <tag k="addr:housenumber" v="3551"/>
    <tag k="addr:street" v="River Road"/>
    <tag k="addr:state" v="VT"/>
    <tag k="ref:vcgi:esiteid" v="3851"/>
  </node>
  <node id="-268" visible="true" lat="43.1026865" lon="-73.22043865">
    <tag k="addr:city" v="Arlington"/>
    <tag k="addr:housenumber" v="3587"/>
    <tag k="addr:street" v="River Road"/>
    <tag k="addr:state" v="VT"/>
    <tag k="ref:vcgi:esiteid" v="3852"/>
  </node>
  <node id="-269" visible="true" lat="43.10252059" lon="-73.24858111">
    <tag k="addr:city" v="Arlington"/>
    <tag k="addr:housenumber" v="5697"/>
    <tag k="addr:street" v="Vermont Route 313 West"/>
    <tag k="addr:state" v="VT"/>
    <tag k="ref:vcgi:esiteid" v="3853"/>
  </node>
  <node id="-271" visible="true" lat="43.10246563" lon="-73.24660201">
    <tag k="addr:city" v="Arlington"/>
    <tag k="addr:housenumber" v="5610"/>
    <tag k="addr:street" v="Vermont Route 313 West"/>
    <tag k="addr:state" v="VT"/>
    <tag k="ref:vcgi:esiteid" v="3855"/>
  </node>
  <node id="-272" visible="true" lat="43.10253793" lon="-73.20887792">
    <tag k="addr:city" v="Arlington"/>
    <tag k="addr:housenumber" v="3564"/>
    <tag k="addr:street" v="Vermont Route 313 West"/>
    <tag k="addr:state" v="VT"/>
    <tag k="ref:vcgi:esiteid" v="3856"/>
  </node>
  <node id="-278" visible="true" lat="43.10217116" lon="-73.20793991">
    <tag k="addr:city" v="Arlington"/>
    <tag k="addr:housenumber" v="41"/>
    <tag k="addr:street" v="Berwal Road"/>
    <tag k="addr:state" v="VT"/>
    <tag k="ref:vcgi:esiteid" v="3862"/>
  </node>
  <node id="-286" visible="true" lat="43.10153683" lon="-73.20787868">
    <tag k="addr:city" v="Arlington"/>
    <tag k="addr:housenumber" v="3524"/>
    <tag k="addr:street" v="Vermont Route 313 West"/>
    <tag k="addr:state" v="VT"/>
    <tag k="ref:vcgi:esiteid" v="3870"/>
  </node>
  <node id="-287" visible="true" lat="43.10166181" lon="-73.13622172">
    <tag k="addr:city" v="Arlington"/>
    <tag k="addr:housenumber" v="6156"/>
    <tag k="addr:street" v="Vermont Route 7A"/>
    <tag k="addr:state" v="VT"/>
    <tag k="ref:vcgi:esiteid" v="3871"/>
  </node>
  <node id="-291" visible="true" lat="43.10141157" lon="-73.13666732">
    <tag k="addr:city" v="Arlington"/>
    <tag k="addr:housenumber" v="6112"/>
    <tag k="addr:street" v="Vermont Route 7A"/>
    <tag k="addr:state" v="VT"/>
    <tag k="ref:vcgi:esiteid" v="3875"/>
  </node>
  <node id="-293" visible="true" lat="43.10118684" lon="-73.13896919">
    <tag k="addr:city" v="Arlington"/>
    <tag k="addr:housenumber" v="6015"/>
    <tag k="addr:street" v="Vermont Route 7A"/>
    <tag k="addr:state" v="VT"/>
    <tag k="ref:vcgi:esiteid" v="3877"/>
  </node>
  <node id="-295" visible="true" lat="43.10110734" lon="-73.13725724">
    <tag k="addr:city" v="Arlington"/>
    <tag k="addr:housenumber" v="6058"/>
    <tag k="addr:street" v="Vermont Route 7A"/>
    <tag k="addr:state" v="VT"/>
    <tag k="ref:vcgi:esiteid" v="3879"/>
  </node>
  <node id="-297" visible="true" lat="43.10090215" lon="-73.19900008">
    <tag k="addr:city" v="Arlington"/>
    <tag k="addr:housenumber" v="399"/>
    <tag k="addr:street" v="Rabbit Run"/>
    <tag k="addr:state" v="VT"/>
    <tag k="ref:vcgi:esiteid" v="3881"/>
  </node>
  <node id="-298" visible="true" lat="43.1006351" lon="-73.2061304">
    <tag k="addr:city" v="Arlington"/>
    <tag k="addr:housenumber" v="3404"/>
    <tag k="addr:street" v="Vermont Route 313 West"/>
    <tag k="addr:state" v="VT"/>
    <tag k="ref:vcgi:esiteid" v="3882"/>
  </node>
  <node id="-303" visible="true" lat="43.10036897" lon="-73.20632742">
    <tag k="addr:city" v="Arlington"/>
    <tag k="addr:housenumber" v="3402"/>
    <tag k="addr:street" v="Vermont Route 313 West"/>
    <tag k="addr:state" v="VT"/>
    <tag k="ref:vcgi:esiteid" v="3887"/>
  </node>
  <node id="-313" visible="true" lat="43.09983197" lon="-73.20681903">
    <tag k="addr:city" v="Arlington"/>
    <tag k="addr:housenumber" v="3383"/>
    <tag k="addr:street" v="Vermont Route 313 West"/>
    <tag k="addr:state" v="VT"/>
    <tag k="ref:vcgi:esiteid" v="3897"/>
  </node>
  <node id="-318" visible="true" lat="43.09943112" lon="-73.20622457">
    <tag k="addr:city" v="Arlington"/>
    <tag k="addr:housenumber" v="3351"/>
    <tag k="addr:street" v="Vermont Route 313 West"/>
    <tag k="addr:state" v="VT"/>
    <tag k="ref:vcgi:esiteid" v="3902"/>
  </node>
  <node id="-319" visible="true" lat="43.0994319" lon="-73.20467463">
    <tag k="addr:city" v="Arlington"/>
    <tag k="addr:housenumber" v="3300"/>
    <tag k="addr:street" v="Vermont Route 313 West"/>
    <tag k="addr:state" v="VT"/>
    <tag k="ref:vcgi:esiteid" v="3903"/>
  </node>
  <node id="-320" visible="true" lat="43.09902578" lon="-73.20597135">
    <tag k="addr:city" v="Arlington"/>
    <tag k="addr:housenumber" v="3353"/>
    <tag k="addr:street" v="Vermont Route 313 West"/>
    <tag k="addr:state" v="VT"/>
    <tag k="ref:vcgi:esiteid" v="3904"/>
  </node>
  <node id="-323" visible="true" lat="43.0987067" lon="-73.20225919">
    <tag k="addr:city" v="Arlington"/>
    <tag k="addr:housenumber" v="106"/>
    <tag k="addr:street" v="Rabbit Run"/>
    <tag k="addr:state" v="VT"/>
    <tag k="ref:vcgi:esiteid" v="3907"/>
  </node>
  <node id="-325" visible="true" lat="43.09872189" lon="-73.20468278">
    <tag k="addr:city" v="Arlington"/>
    <tag k="addr:housenumber" v="3270"/>
    <tag k="addr:street" v="Vermont Route 313 West"/>
    <tag k="addr:state" v="VT"/>
    <tag k="ref:vcgi:esiteid" v="3909"/>
  </node>
  <node id="-327" visible="true" lat="43.09828392" lon="-73.20319775">
    <tag k="addr:city" v="Arlington"/>
    <tag k="addr:housenumber" v="68"/>
    <tag k="addr:street" v="Rabbit Run"/>
    <tag k="addr:state" v="VT"/>
    <tag k="ref:vcgi:esiteid" v="3911"/>
  </node>
  <node id="-337" visible="true" lat="43.09766282" lon="-73.2043356">
    <tag k="addr:city" v="Arlington"/>
    <tag k="addr:housenumber" v="3205"/>
    <tag k="addr:street" v="Vermont Route 313 West"/>
    <tag k="addr:state" v="VT"/>
    <tag k="ref:vcgi:esiteid" v="3921"/>
  </node>
  <node id="-340" visible="true" lat="43.09751179" lon="-73.20392678">
    <tag k="addr:city" v="Arlington"/>
    <tag k="addr:housenumber" v="3173"/>
    <tag k="addr:street" v="Vermont Route 313 West"/>
    <tag k="addr:state" v="VT"/>
    <tag k="ref:vcgi:esiteid" v="3924"/>
  </node>
  <node id="-342" visible="true" lat="43.0971913" lon="-73.20296975">
    <tag k="addr:city" v="Arlington"/>
    <tag k="addr:housenumber" v="3136"/>
    <tag k="addr:street" v="Vermont Route 313 West"/>
    <tag k="addr:state" v="VT"/>
    <tag k="ref:vcgi:esiteid" v="3926"/>
  </node>
  <node id="-346" visible="true" lat="43.09697431" lon="-73.20261003">
    <tag k="addr:city" v="Arlington"/>
    <tag k="addr:housenumber" v="3104"/>
    <tag k="addr:street" v="Vermont Route 313 West"/>
    <tag k="addr:state" v="VT"/>
    <tag k="ref:vcgi:esiteid" v="3930"/>
  </node>
  <node id="-348" visible="true" lat="43.09669371" lon="-73.20224248">
    <tag k="addr:city" v="Arlington"/>
    <tag k="addr:housenumber" v="3092"/>
    <tag k="addr:street" v="Vermont Route 313 West"/>
    <tag k="addr:state" v="VT"/>
    <tag k="ref:vcgi:esiteid" v="3932"/>
  </node>
  <node id="-354" visible="true" lat="43.09639119" lon="-73.20184839">
    <tag k="addr:city" v="Arlington"/>
    <tag k="addr:housenumber" v="3068"/>
    <tag k="addr:street" v="Vermont Route 313 West"/>
    <tag k="addr:state" v="VT"/>
    <tag k="ref:vcgi:esiteid" v="3938"/>
  </node>
  <node id="-355" visible="true" lat="43.09690896" lon="-73.13622502">
    <tag k="addr:city" v="Arlington"/>
    <tag k="addr:housenumber" v="243"/>
    <tag k="addr:street" v="Dunham Road"/>
    <tag k="addr:state" v="VT"/>
    <tag k="ref:vcgi:esiteid" v="3939"/>
  </node>
  <node id="-357" visible="true" lat="43.09644537" lon="-73.2034141">
    <tag k="addr:city" v="Arlington"/>
    <tag k="addr:housenumber" v="3095"/>
    <tag k="addr:street" v="Vermont Route 313 West"/>
    <tag k="addr:state" v="VT"/>
    <tag k="ref:vcgi:esiteid" v="3941"/>
  </node>
  <node id="-359" visible="true" lat="43.09651092" lon="-73.13649035">
    <tag k="addr:city" v="Arlington"/>
    <tag k="addr:housenumber" v="231"/>
    <tag k="addr:street" v="Dunham Road"/>
    <tag k="addr:state" v="VT"/>
    <tag k="ref:vcgi:esiteid" v="3943"/>
  </node>
  <node id="-360" visible="true" lat="43.09596252" lon="-73.20168304">
    <tag k="addr:city" v="Arlington"/>
    <tag k="addr:housenumber" v="3046"/>
    <tag k="addr:street" v="Vermont Route 313 West"/>
    <tag k="addr:state" v="VT"/>
    <tag k="ref:vcgi:esiteid" v="3944"/>
  </node>
  <node id="-361" visible="true" lat="43.09582824" lon="-73.20290593">
    <tag k="addr:city" v="Arlington"/>
    <tag k="addr:housenumber" v="3045"/>
    <tag k="addr:street" v="Vermont Route 313 West"/>
    <tag k="addr:state" v="VT"/>
    <tag k="ref:vcgi:esiteid" v="3945"/>
  </node>
  <node id="-363" visible="true" lat="43.09575867" lon="-73.2014864">
    <tag k="addr:city" v="Arlington"/>
    <tag k="addr:housenumber" v="3004"/>
    <tag k="addr:street" v="Vermont Route 313 West"/>
    <tag k="addr:state" v="VT"/>
    <tag k="ref:vcgi:esiteid" v="3947"/>
  </node>
  <node id="-364" visible="true" lat="43.09552467" lon="-73.2012631">
    <tag k="addr:city" v="Arlington"/>
    <tag k="addr:housenumber" v="2984"/>
    <tag k="addr:street" v="Vermont Route 313 West"/>
    <tag k="addr:state" v="VT"/>
    <tag k="ref:vcgi:esiteid" v="3948"/>
  </node>
  <node id="-366" visible="true" lat="43.09535627" lon="-73.20087819">
    <tag k="addr:city" v="Arlington"/>
    <tag k="addr:housenumber" v="2986"/>
    <tag k="addr:street" v="Vermont Route 313 West"/>
    <tag k="addr:state" v="VT"/>
    <tag k="ref:vcgi:esiteid" v="3950"/>
  </node>
  <node id="-368" visible="true" lat="43.09513884" lon="-73.20207025">
    <tag k="addr:city" v="Arlington"/>
    <tag k="addr:housenumber" v="2989"/>
    <tag k="addr:street" v="Vermont Route 313 West"/>
    <tag k="addr:state" v="VT"/>
    <tag k="ref:vcgi:esiteid" v="3952"/>
  </node>
  <node id="-371" visible="true" lat="43.09499975" lon="-73.20090978">
    <tag k="addr:city" v="Arlington"/>
    <tag k="addr:housenumber" v="2946"/>
    <tag k="addr:street" v="Vermont Route 313 West"/>
    <tag k="addr:state" v="VT"/>
    <tag k="ref:vcgi:esiteid" v="3955"/>
  </node>
  <node id="-383" visible="true" lat="43.0939715" lon="-73.19969815">
    <tag k="addr:city" v="Arlington"/>
    <tag k="addr:housenumber" v="2836"/>
    <tag k="addr:street" v="Vermont Route 313 West"/>
    <tag k="addr:state" v="VT"/>
    <tag k="ref:vcgi:esiteid" v="3967"/>
  </node>
  <node id="-386" visible="true" lat="43.0935898" lon="-73.20041">
    <tag k="addr:city" v="Arlington"/>
    <tag k="addr:housenumber" v="2843"/>
    <tag k="addr:street" v="Vermont Route 313 West"/>
    <tag k="addr:state" v="VT"/>
    <tag k="ref:vcgi:esiteid" v="3970"/>
  </node>
  <node id="-394" visible="true" lat="43.09308605" lon="-73.19979435">
    <tag k="addr:city" v="Arlington"/>
    <tag k="addr:housenumber" v="2819"/>
    <tag k="addr:street" v="Vermont Route 313 West"/>
    <tag k="addr:state" v="VT"/>
    <tag k="ref:vcgi:esiteid" v="3978"/>
  </node>
  <node id="-395" visible="true" lat="43.09281248" lon="-73.1994313">
    <tag k="addr:city" v="Arlington"/>
    <tag k="addr:housenumber" v="2803"/>
    <tag k="addr:street" v="Vermont Route 313 West"/>
    <tag k="addr:state" v="VT"/>
    <tag k="ref:vcgi:esiteid" v="3979"/>
  </node>
  <node id="-396" visible="true" lat="43.09300407" lon="-73.19748766">
    <tag k="addr:city" v="Arlington"/>
    <tag k="addr:housenumber" v="2752"/>
    <tag k="addr:street" v="Vermont Route 313 West"/>
    <tag k="addr:state" v="VT"/>
    <tag k="ref:vcgi:esiteid" v="3980"/>
  </node>
  <node id="-397" visible="true" lat="43.09307185" lon="-73.19873898">
    <tag k="addr:city" v="Arlington"/>
    <tag k="addr:housenumber" v="2760"/>
    <tag k="addr:street" v="Vermont Route 313 West"/>
    <tag k="addr:state" v="VT"/>
    <tag k="ref:vcgi:esiteid" v="3981"/>
  </node>
  <node id="-400" visible="true" lat="43.09259167" lon="-73.19913223">
    <tag k="addr:city" v="Arlington"/>
    <tag k="addr:housenumber" v="2767"/>
    <tag k="addr:street" v="Vermont Route 313 West"/>
    <tag k="addr:state" v="VT"/>
    <tag k="ref:vcgi:esiteid" v="3984"/>
  </node>
  <node id="-403" visible="true" lat="43.09218302" lon="-73.19882478">
    <tag k="addr:city" v="Arlington"/>
    <tag k="addr:housenumber" v="2711"/>
    <tag k="addr:street" v="Vermont Route 313 West"/>
    <tag k="addr:state" v="VT"/>
    <tag k="ref:vcgi:esiteid" v="3987"/>
  </node>
  <node id="-410" visible="true" lat="43.09143647" lon="-73.19671214">
    <tag k="addr:city" v="Arlington"/>
    <tag k="addr:housenumber" v="2636"/>
    <tag k="addr:street" v="Vermont Route 313 West"/>
    <tag k="addr:state" v="VT"/>
    <tag k="ref:vcgi:esiteid" v="3994"/>
  </node>
  <node id="-419" visible="true" lat="43.08966241" lon="-73.19527111">
    <tag k="addr:city" v="Arlington"/>
    <tag k="addr:housenumber" v="2487"/>
    <tag k="addr:street" v="Vermont Route 313 West"/>
    <tag k="addr:state" v="VT"/>
    <tag k="ref:vcgi:esiteid" v="4003"/>
  </node>
  <node id="-432" visible="true" lat="43.08788387" lon="-73.19303821">
    <tag k="addr:city" v="Arlington"/>
    <tag k="addr:housenumber" v="89"/>
    <tag k="addr:street" v="Heritage Hill"/>
    <tag k="addr:state" v="VT"/>
    <tag k="ref:vcgi:esiteid" v="4016"/>
  </node>
  <node id="-435" visible="true" lat="43.08723582" lon="-73.19280763">
    <tag k="addr:city" v="Arlington"/>
    <tag k="addr:housenumber" v="86"/>
    <tag k="addr:street" v="Heritage Hill"/>
    <tag k="addr:state" v="VT"/>
    <tag k="ref:vcgi:esiteid" v="4019"/>
  </node>
  <node id="-438" visible="true" lat="43.08662218" lon="-73.19337018">
    <tag k="addr:city" v="Arlington"/>
    <tag k="addr:housenumber" v="2241"/>
    <tag k="addr:street" v="Vermont Route 313 West"/>
    <tag k="addr:state" v="VT"/>
    <tag k="ref:vcgi:esiteid" v="4022"/>
  </node>
  <node id="-440" visible="true" lat="43.08629989" lon="-73.19134027">
    <tag k="addr:city" v="Arlington"/>
    <tag k="addr:housenumber" v="112"/>
    <tag k="addr:street" v="Heritage Hill"/>
    <tag k="addr:state" v="VT"/>
    <tag k="ref:vcgi:esiteid" v="4024"/>
  </node>
  <node id="-447" visible="true" lat="43.08561226" lon="-73.19084381">
    <tag k="addr:city" v="Arlington"/>
    <tag k="addr:housenumber" v="1936"/>
    <tag k="addr:street" v="Vermont Route 313 West"/>
    <tag k="addr:state" v="VT"/>
    <tag k="ref:vcgi:esiteid" v="4031"/>
  </node>
  <node id="-449" visible="true" lat="43.08514657" lon="-73.19149008">
    <tag k="addr:city" v="Arlington"/>
    <tag k="addr:housenumber" v="2163"/>
    <tag k="addr:street" v="Vermont Route 313 West"/>
    <tag k="addr:state" v="VT"/>
    <tag k="ref:vcgi:esiteid" v="4033"/>
  </node>
  <node id="-456" visible="true" lat="43.08412944" lon="-73.1887475">
    <tag k="addr:city" v="Arlington"/>
    <tag k="addr:housenumber" v="1955"/>
    <tag k="addr:street" v="Vermont Route 313 West"/>
    <tag k="addr:state" v="VT"/>
    <tag k="ref:vcgi:esiteid" v="4041"/>
  </node>
  <node id="-457" visible="true" lat="43.08414731" lon="-73.18737076">
    <tag k="addr:city" v="Arlington"/>
    <tag k="addr:housenumber" v="1924"/>
    <tag k="addr:street" v="Vermont Route 313 West"/>
    <tag k="addr:state" v="VT"/>
    <tag k="ref:vcgi:esiteid" v="4042"/>
  </node>
  <node id="-472" visible="true" lat="43.08243286" lon="-73.17995309">
    <tag k="addr:city" v="Arlington"/>
    <tag k="addr:housenumber" v="1654"/>
    <tag k="addr:street" v="Vermont Route 313 West"/>
    <tag k="addr:state" v="VT"/>
    <tag k="ref:vcgi:esiteid" v="4057"/>
  </node>
  <node id="-511" visible="true" lat="43.07965682" lon="-73.17228628">
    <tag k="addr:city" v="Arlington"/>
    <tag k="addr:housenumber" v="1027"/>
    <tag k="addr:street" v="Vermont Route 313 West"/>
    <tag k="addr:state" v="VT"/>
    <tag k="ref:vcgi:esiteid" v="4096"/>
  </node>
  <node id="-516" visible="true" lat="43.07899037" lon="-73.16879998">
    <tag k="addr:city" v="Arlington"/>
    <tag k="addr:housenumber" v="888"/>
    <tag k="addr:street" v="Vermont Route 313 West"/>
    <tag k="addr:state" v="VT"/>
    <tag k="ref:vcgi:esiteid" v="4101"/>
  </node>
  <node id="-517" visible="true" lat="43.07857972" lon="-73.16801283">
    <tag k="addr:city" v="Arlington"/>
    <tag k="addr:housenumber" v="806"/>
    <tag k="addr:street" v="Vermont Route 313 West"/>
    <tag k="addr:state" v="VT"/>
    <tag k="ref:vcgi:esiteid" v="4102"/>
  </node>
  <node id="-521" visible="true" lat="43.07806924" lon="-73.16628801">
    <tag k="addr:city" v="Arlington"/>
    <tag k="addr:housenumber" v="167"/>
    <tag k="addr:street" v="Hillside Road"/>
    <tag k="addr:state" v="VT"/>
    <tag k="ref:vcgi:esiteid" v="4106"/>
  </node>
  <node id="-524" visible="true" lat="43.07761529" lon="-73.16733932">
    <tag k="addr:city" v="Arlington"/>
    <tag k="addr:housenumber" v="771"/>
    <tag k="addr:street" v="Vermont Route 313 West"/>
    <tag k="addr:state" v="VT"/>
    <tag k="ref:vcgi:esiteid" v="4109"/>
  </node>
  <node id="-526" visible="true" lat="43.07728871" lon="-73.16699875">
    <tag k="addr:city" v="Arlington"/>
    <tag k="addr:housenumber" v="737"/>
    <tag k="addr:street" v="Vermont Route 313 West"/>
    <tag k="addr:state" v="VT"/>
    <tag k="ref:vcgi:esiteid" v="4111"/>
  </node>
  <node id="-530" visible="true" lat="43.07707602" lon="-73.16676338">
    <tag k="addr:city" v="Arlington"/>
    <tag k="addr:housenumber" v="735"/>
    <tag k="addr:street" v="Vermont Route 313 West"/>
    <tag k="addr:state" v="VT"/>
    <tag k="ref:vcgi:esiteid" v="4115"/>
  </node>
  <node id="-533" visible="true" lat="43.07688844" lon="-73.1652363">
    <tag k="addr:city" v="Arlington"/>
    <tag k="addr:housenumber" v="109"/>
    <tag k="addr:street" v="Hillside Road"/>
    <tag k="addr:state" v="VT"/>
    <tag k="ref:vcgi:esiteid" v="4118"/>
  </node>
  <node id="-536" visible="true" lat="43.07679338" lon="-73.16573576">
    <tag k="addr:city" v="Arlington"/>
    <tag k="addr:housenumber" v="664"/>
    <tag k="addr:street" v="Vermont Route 313 West"/>
    <tag k="addr:state" v="VT"/>
    <tag k="ref:vcgi:esiteid" v="4121"/>
  </node>
  <node id="-545" visible="true" lat="43.07663815" lon="-73.16625908">
    <tag k="addr:city" v="Arlington"/>
    <tag k="addr:housenumber" v="30"/>
    <tag k="addr:street" v="River Road"/>
    <tag k="addr:state" v="VT"/>
    <tag k="ref:vcgi:esiteid" v="4130"/>
  </node>
  <node id="-546" visible="true" lat="43.0763677" lon="-73.15766095">
    <tag k="addr:city" v="Arlington"/>
    <tag k="addr:housenumber" v="223"/>
    <tag k="addr:street" v="Vermont Route 313 West"/>
    <tag k="addr:state" v="VT"/>
    <tag k="ref:vcgi:esiteid" v="4131"/>
  </node>
  <node id="-547" visible="true" lat="43.07644802" lon="-73.15885796">
    <tag k="addr:city" v="Arlington"/>
    <tag k="addr:housenumber" v="268"/>
    <tag k="addr:street" v="Vermont Route 313 West"/>
    <tag k="addr:state" v="VT"/>
    <tag k="ref:vcgi:esiteid" v="4132"/>
  </node>
  <node id="-548" visible="true" lat="43.07625167" lon="-73.15812203">
    <tag k="addr:city" v="Arlington"/>
    <tag k="addr:housenumber" v="245"/>
    <tag k="addr:street" v="Vermont Route 313 West"/>
    <tag k="addr:state" v="VT"/>
    <tag k="ref:vcgi:esiteid" v="4133"/>
  </node>
  <node id="-549" visible="true" lat="43.07635577" lon="-73.15937823">
    <tag k="addr:city" v="Arlington"/>
    <tag k="addr:housenumber" v="308"/>
    <tag k="addr:street" v="Vermont Route 313 West"/>
    <tag k="addr:state" v="VT"/>
    <tag k="ref:vcgi:esiteid" v="4134"/>
  </node>
  <node id="-552" visible="true" lat="43.07611893" lon="-73.1599383">
    <tag k="addr:city" v="Arlington"/>
    <tag k="addr:housenumber" v="322"/>
    <tag k="addr:street" v="Vermont Route 313 West"/>
    <tag k="addr:state" v="VT"/>
    <tag k="ref:vcgi:esiteid" v="4137"/>
  </node>
  <node id="-553" visible="true" lat="43.07612795" lon="-73.15839824">
    <tag k="addr:city" v="Arlington"/>
    <tag k="addr:housenumber" v="267"/>
    <tag k="addr:street" v="Vermont Route 313 West"/>
    <tag k="addr:state" v="VT"/>
    <tag k="ref:vcgi:esiteid" v="4138"/>
  </node>
  <node id="-554" visible="true" lat="43.07590756" lon="-73.15895454">
    <tag k="addr:city" v="Arlington"/>
    <tag k="addr:housenumber" v="297"/>
    <tag k="addr:street" v="Vermont Route 313 West"/>
    <tag k="addr:state" v="VT"/>
    <tag k="ref:vcgi:esiteid" v="4139"/>
  </node>
  <node id="-556" visible="true" lat="43.07601548" lon="-73.15862463">
    <tag k="addr:city" v="Arlington"/>
    <tag k="addr:housenumber" v="279"/>
    <tag k="addr:street" v="Vermont Route 313 West"/>
    <tag k="addr:state" v="VT"/>
    <tag k="ref:vcgi:esiteid" v="4141"/>
  </node>
  <node id="-557" visible="true" lat="43.07592828" lon="-73.16116559">
    <tag k="addr:city" v="Arlington"/>
    <tag k="addr:housenumber" v="27"/>
    <tag k="addr:street" v="Bentley Lane"/>
    <tag k="addr:state" v="VT"/>
    <tag k="ref:vcgi:esiteid" v="4142"/>
  </node>
  <node id="-558" visible="true" lat="43.076036" lon="-73.16058324">
    <tag k="addr:city" v="Arlington"/>
    <tag k="addr:housenumber" v="366"/>
    <tag k="addr:street" v="Vermont Route 313 West"/>
    <tag k="addr:state" v="VT"/>
    <tag k="ref:vcgi:esiteid" v="4143"/>
  </node>
  <node id="-561" visible="true" lat="43.0759518" lon="-73.1639306">
    <tag k="addr:city" v="Arlington"/>
    <tag k="addr:housenumber" v="548"/>
    <tag k="addr:street" v="Vermont Route 313 West"/>
    <tag k="addr:state" v="VT"/>
    <tag k="ref:vcgi:esiteid" v="4146"/>
  </node>
  <node id="-562" visible="true" lat="43.07582867" lon="-73.16214026">
    <tag k="addr:city" v="Arlington"/>
    <tag k="addr:housenumber" v="24"/>
    <tag k="addr:street" v="Tory Lane South"/>
    <tag k="addr:state" v="VT"/>
    <tag k="ref:vcgi:esiteid" v="4147"/>
  </node>
  <node id="-563" visible="true" lat="43.07574545" lon="-73.16262338">
    <tag k="addr:city" v="Arlington"/>
    <tag k="addr:housenumber" v="21"/>
    <tag k="addr:street" v="Tory Lane South"/>
    <tag k="addr:state" v="VT"/>
    <tag k="ref:vcgi:esiteid" v="4148"/>
  </node>
  <node id="-564" visible="true" lat="43.0759628" lon="-73.16020643">
    <tag k="addr:city" v="Arlington"/>
    <tag k="addr:housenumber" v="360"/>
    <tag k="addr:street" v="Vermont Route 313 West"/>
    <tag k="addr:state" v="VT"/>
    <tag k="ref:vcgi:esiteid" v="4149"/>
  </node>
  <node id="-565" visible="true" lat="43.07579925" lon="-73.15572068">
    <tag k="addr:city" v="Arlington"/>
    <tag k="addr:housenumber" v="114"/>
    <tag k="addr:street" v="Vermont Route 313 West"/>
    <tag k="addr:state" v="VT"/>
    <tag k="ref:vcgi:esiteid" v="4150"/>
  </node>
  <node id="-566" visible="true" lat="43.07585217" lon="-73.16183089">
    <tag k="addr:city" v="Arlington"/>
    <tag k="addr:housenumber" v="436"/>
    <tag k="addr:street" v="Vermont Route 313 West"/>
    <tag k="addr:state" v="VT"/>
    <tag k="ref:vcgi:esiteid" v="4151"/>
  </node>
  <node id="-568" visible="true" lat="43.0758784" lon="-73.16147668">
    <tag k="addr:city" v="Arlington"/>
    <tag k="addr:housenumber" v="426"/>
    <tag k="addr:street" v="Vermont Route 313 West"/>
    <tag k="addr:state" v="VT"/>
    <tag k="ref:vcgi:esiteid" v="4153"/>
  </node>
  <node id="-570" visible="true" lat="43.0756656" lon="-73.1599019">
    <tag k="addr:city" v="Arlington"/>
    <tag k="addr:housenumber" v="349"/>
    <tag k="addr:street" v="Vermont Route 313 West"/>
    <tag k="addr:state" v="VT"/>
    <tag k="ref:vcgi:esiteid" v="4155"/>
  </node>
  <node id="-571" visible="true" lat="43.07555395" lon="-73.16018068">
    <tag k="addr:city" v="Arlington"/>
    <tag k="addr:housenumber" v="367"/>
    <tag k="addr:street" v="Vermont Route 313 West"/>
    <tag k="addr:state" v="VT"/>
    <tag k="ref:vcgi:esiteid" v="4158"/>
  </node>
  <node id="-573" visible="true" lat="43.07561459" lon="-73.16421403">
    <tag k="addr:city" v="Arlington"/>
    <tag k="addr:housenumber" v="549"/>
    <tag k="addr:street" v="Vermont Route 313 West"/>
    <tag k="addr:state" v="VT"/>
    <tag k="ref:vcgi:esiteid" v="4160"/>
  </node>
  <node id="-574" visible="true" lat="43.07547547" lon="-73.15493411">
    <tag k="addr:city" v="Arlington"/>
    <tag k="addr:housenumber" v="66"/>
    <tag k="addr:street" v="Vermont Route 313 West"/>
    <tag k="addr:state" v="VT"/>
    <tag k="ref:vcgi:esiteid" v="4161"/>
  </node>
  <node id="-576" visible="true" lat="43.07550214" lon="-73.16049124">
    <tag k="addr:city" v="Arlington"/>
    <tag k="addr:housenumber" v="7"/>
    <tag k="addr:street" v="Battenkill Lane"/>
    <tag k="addr:state" v="VT"/>
    <tag k="ref:vcgi:esiteid" v="4163"/>
  </node>
  <node id="-578" visible="true" lat="43.07556" lon="-73.15517292">
    <tag k="addr:city" v="Arlington"/>
    <tag k="addr:housenumber" v="70"/>
    <tag k="addr:street" v="Vermont Route 313 West"/>
    <tag k="addr:state" v="VT"/>
    <tag k="ref:vcgi:esiteid" v="4165"/>
  </node>
  <node id="-579" visible="true" lat="43.07541034" lon="-73.15987711">
    <tag k="addr:city" v="Arlington"/>
    <tag k="addr:housenumber" v="351"/>
    <tag k="addr:street" v="Vermont Route 313 West"/>
    <tag k="addr:state" v="VT"/>
    <tag k="ref:vcgi:esiteid" v="4166"/>
  </node>
  <node id="-581" visible="true" lat="43.07533591" lon="-73.16099129">
    <tag k="addr:city" v="Arlington"/>
    <tag k="addr:housenumber" v="409"/>
    <tag k="addr:street" v="Vermont Route 313 West"/>
    <tag k="addr:state" v="VT"/>
    <tag k="ref:vcgi:esiteid" v="4168"/>
  </node>
  <node id="-582" visible="true" lat="43.07534093" lon="-73.16212077">
    <tag k="addr:city" v="Arlington"/>
    <tag k="addr:housenumber" v="453"/>
    <tag k="addr:street" v="Vermont Route 313 West"/>
    <tag k="addr:state" v="VT"/>
    <tag k="ref:vcgi:esiteid" v="4169"/>
  </node>
  <node id="-583" visible="true" lat="43.07535893" lon="-73.16151033">
    <tag k="addr:city" v="Arlington"/>
    <tag k="addr:housenumber" v="431"/>
    <tag k="addr:street" v="Vermont Route 313 West"/>
    <tag k="addr:state" v="VT"/>
    <tag k="ref:vcgi:esiteid" v="4170"/>
  </node>
  <node id="-585" visible="true" lat="43.07513504" lon="-73.16078897">
    <tag k="addr:city" v="Arlington"/>
    <tag k="addr:housenumber" v="30"/>
    <tag k="addr:street" v="Battenkill Lane"/>
    <tag k="addr:state" v="VT"/>
    <tag k="ref:vcgi:esiteid" v="4172"/>
  </node>
  <node id="-586" visible="true" lat="43.07518633" lon="-73.15428484">
    <tag k="addr:city" v="Arlington"/>
    <tag k="addr:housenumber" v="3929"/>
    <tag k="addr:street" v="Vermont Route 7A"/>
    <tag k="addr:state" v="VT"/>
    <tag k="ref:vcgi:esiteid" v="4173"/>
  </node>
  <node id="-587" visible="true" lat="43.0752659" lon="-73.15540503">
    <tag k="addr:city" v="Arlington"/>
    <tag k="addr:housenumber" v="14"/>
    <tag k="addr:street" v="School Street"/>
    <tag k="addr:state" v="VT"/>
    <tag k="ref:vcgi:esiteid" v="4174"/>
  </node>
  <node id="-588" visible="true" lat="43.074868" lon="-73.16047845">
    <tag k="addr:city" v="Arlington"/>
    <tag k="addr:housenumber" v="45"/>
    <tag k="addr:street" v="Battenkill Lane"/>
    <tag k="addr:state" v="VT"/>
    <tag k="ref:vcgi:esiteid" v="4176"/>
  </node>
  <node id="-590" visible="true" lat="43.07492898" lon="-73.14848473">
    <tag k="addr:city" v="Arlington"/>
    <tag k="addr:housenumber" v="167"/>
    <tag k="addr:street" v="Woodchuck Hill"/>
    <tag k="addr:state" v="VT"/>
    <tag k="ref:vcgi:esiteid" v="4178"/>
  </node>
  <node id="-595" visible="true" lat="43.07475693" lon="-73.14865294">
    <tag k="addr:city" v="Arlington"/>
    <tag k="addr:housenumber" v="147"/>
    <tag k="addr:street" v="Woodchuck Hill"/>
    <tag k="addr:state" v="VT"/>
    <tag k="ref:vcgi:esiteid" v="4183"/>
  </node>
  <node id="-597" visible="true" lat="43.07462042" lon="-73.14755569">
    <tag k="addr:city" v="Arlington"/>
    <tag k="addr:housenumber" v="234"/>
    <tag k="addr:street" v="Woodchuck Hill"/>
    <tag k="addr:state" v="VT"/>
    <tag k="ref:vcgi:esiteid" v="4185"/>
  </node>
  <node id="-598" visible="true" lat="43.07507432" lon="-73.14528561">
    <tag k="addr:city" v="Arlington"/>
    <tag k="addr:housenumber" v="301"/>
    <tag k="addr:street" v="Woodchuck Hill"/>
    <tag k="addr:state" v="VT"/>
    <tag k="ref:vcgi:esiteid" v="4186"/>
  </node>
  <node id="-599" visible="true" lat="43.0742796" lon="-73.15562358">
    <tag k="addr:city" v="Arlington"/>
    <tag k="addr:housenumber" v="67"/>
    <tag k="addr:street" v="School Street"/>
    <tag k="addr:state" v="VT"/>
    <tag k="ref:vcgi:esiteid" v="4187"/>
  </node>
  <node id="-601" visible="true" lat="43.07439216" lon="-73.15601536">
    <tag k="addr:city" v="Arlington"/>
    <tag k="addr:housenumber" v="84"/>
    <tag k="addr:street" v="School Street"/>
    <tag k="addr:state" v="VT"/>
    <tag k="ref:vcgi:esiteid" v="4189"/>
  </node>
  <node id="-603" visible="true" lat="43.07426156" lon="-73.15083374">
    <tag k="addr:city" v="Arlington"/>
    <tag k="addr:housenumber" v="310"/>
    <tag k="addr:street" v="Chittenden Drive"/>
    <tag k="addr:state" v="VT"/>
    <tag k="ref:vcgi:esiteid" v="4191"/>
  </node>
  <node id="-604" visible="true" lat="43.07421171" lon="-73.15619033">
    <tag k="addr:city" v="Arlington"/>
    <tag k="addr:housenumber" v="96"/>
    <tag k="addr:street" v="School Street"/>
    <tag k="addr:state" v="VT"/>
    <tag k="ref:vcgi:esiteid" v="4192"/>
  </node>
  <node id="-606" visible="true" lat="43.07398589" lon="-73.15547706">
    <tag k="addr:city" v="Arlington"/>
    <tag k="addr:housenumber" v="85"/>
    <tag k="addr:street" v="School Street"/>
    <tag k="addr:state" v="VT"/>
    <tag k="ref:vcgi:esiteid" v="4194"/>
  </node>
  <node id="-607" visible="true" lat="43.07413871" lon="-73.15466538">
    <tag k="addr:city" v="Arlington"/>
    <tag k="addr:housenumber" v="74"/>
    <tag k="addr:street" v="Church Street"/>
    <tag k="addr:state" v="VT"/>
    <tag k="ref:vcgi:esiteid" v="4195"/>
  </node>
  <node id="-608" visible="true" lat="43.07391384" lon="-73.15589467">
    <tag k="addr:city" v="Arlington"/>
    <tag k="addr:housenumber" v="105"/>
    <tag k="addr:street" v="School Street"/>
    <tag k="addr:state" v="VT"/>
    <tag k="ref:vcgi:esiteid" v="4196"/>
  </node>
  <node id="-610" visible="true" lat="43.0738801" lon="-73.15682635">
    <tag k="addr:city" v="Arlington"/>
    <tag k="addr:housenumber" v="120"/>
    <tag k="addr:street" v="School Street"/>
    <tag k="addr:state" v="VT"/>
    <tag k="ref:vcgi:esiteid" v="4199"/>
  </node>
  <node id="-611" visible="true" lat="43.0738182" lon="-73.15159607">
    <tag k="addr:city" v="Arlington"/>
    <tag k="addr:housenumber" v="287"/>
    <tag k="addr:street" v="Chittenden Drive"/>
    <tag k="addr:state" v="VT"/>
    <tag k="ref:vcgi:esiteid" v="4200"/>
  </node>
  <node id="-613" visible="true" lat="43.07360324" lon="-73.14557119">
    <tag k="addr:city" v="Arlington"/>
    <tag k="addr:housenumber" v="303"/>
    <tag k="addr:street" v="Woodchuck Hill"/>
    <tag k="addr:state" v="VT"/>
    <tag k="ref:vcgi:esiteid" v="4202"/>
  </node>
  <node id="-614" visible="true" lat="43.07356301" lon="-73.15610804">
    <tag k="addr:city" v="Arlington"/>
    <tag k="addr:housenumber" v="121"/>
    <tag k="addr:street" v="School Street"/>
    <tag k="addr:state" v="VT"/>
    <tag k="ref:vcgi:esiteid" v="4203"/>
  </node>
  <node id="-616" visible="true" lat="43.0735699" lon="-73.1567023">
    <tag k="addr:city" v="Arlington"/>
    <tag k="addr:housenumber" v="140"/>
    <tag k="addr:street" v="School Street"/>
    <tag k="addr:state" v="VT"/>
    <tag k="ref:vcgi:esiteid" v="4205"/>
  </node>
  <node id="-617" visible="true" lat="43.0732812" lon="-73.15624183">
    <tag k="addr:city" v="Arlington"/>
    <tag k="addr:housenumber" v="139"/>
    <tag k="addr:street" v="School Street"/>
    <tag k="addr:state" v="VT"/>
    <tag k="ref:vcgi:esiteid" v="4208"/>
  </node>
  <node id="-618" visible="true" lat="43.07343793" lon="-73.1512355">
    <tag k="addr:city" v="Arlington"/>
    <tag k="addr:housenumber" v="156"/>
    <tag k="addr:street" v="Munn Terrace"/>
    <tag k="addr:state" v="VT"/>
    <tag k="ref:vcgi:esiteid" v="4209"/>
  </node>
  <node id="-620" visible="true" lat="43.07339819" lon="-73.15089646">
    <tag k="addr:city" v="Arlington"/>
    <tag k="addr:housenumber" v="142"/>
    <tag k="addr:street" v="Munn Terrace"/>
    <tag k="addr:state" v="VT"/>
    <tag k="ref:vcgi:esiteid" v="4212"/>
  </node>
  <node id="-621" visible="true" lat="43.07331627" lon="-73.15058794">
    <tag k="addr:city" v="Arlington"/>
    <tag k="addr:housenumber" v="128"/>
    <tag k="addr:street" v="Munn Terrace"/>
    <tag k="addr:state" v="VT"/>
    <tag k="ref:vcgi:esiteid" v="4213"/>
  </node>
  <node id="-622" visible="true" lat="43.07332219" lon="-73.15685669">
    <tag k="addr:city" v="Arlington"/>
    <tag k="addr:housenumber" v="170"/>
    <tag k="addr:street" v="School Street"/>
    <tag k="addr:state" v="VT"/>
    <tag k="ref:vcgi:esiteid" v="4214"/>
  </node>
  <node id="-624" visible="true" lat="43.07314682" lon="-73.15301536">
    <tag k="addr:city" v="Arlington"/>
    <tag k="addr:housenumber" v="79"/>
    <tag k="addr:street" v="East Arlington Road"/>
    <tag k="addr:state" v="VT"/>
    <tag k="ref:vcgi:esiteid" v="4216"/>
  </node>
  <node id="-626" visible="true" lat="43.07307644" lon="-73.15508199">
    <tag k="addr:city" v="Arlington"/>
    <tag k="addr:housenumber" v="9"/>
    <tag k="addr:street" v="Church Street"/>
    <tag k="addr:state" v="VT"/>
    <tag k="ref:vcgi:esiteid" v="4219"/>
  </node>
  <node id="-629" visible="true" lat="43.07311523" lon="-73.15704758">
    <tag k="addr:city" v="Arlington"/>
    <tag k="addr:housenumber" v="190"/>
    <tag k="addr:street" v="School Street"/>
    <tag k="addr:state" v="VT"/>
    <tag k="ref:vcgi:esiteid" v="4222"/>
  </node>
  <node id="-630" visible="true" lat="43.07298272" lon="-73.15658897">
    <tag k="addr:city" v="Arlington"/>
    <tag k="addr:housenumber" v="179"/>
    <tag k="addr:street" v="School Street"/>
    <tag k="addr:state" v="VT"/>
    <tag k="ref:vcgi:esiteid" v="4223"/>
  </node>
  <node id="-631" visible="true" lat="43.07297692" lon="-73.1505741">
    <tag k="addr:city" v="Arlington"/>
    <tag k="addr:housenumber" v="121"/>
    <tag k="addr:street" v="Munn Terrace"/>
    <tag k="addr:state" v="VT"/>
    <tag k="ref:vcgi:esiteid" v="4224"/>
  </node>
  <node id="-632" visible="true" lat="43.07300716" lon="-73.15088063">
    <tag k="addr:city" v="Arlington"/>
    <tag k="addr:housenumber" v="135"/>
    <tag k="addr:street" v="Munn Terrace"/>
    <tag k="addr:state" v="VT"/>
    <tag k="ref:vcgi:esiteid" v="4225"/>
  </node>
  <node id="-633" visible="true" lat="43.07304916" lon="-73.15127751">
    <tag k="addr:city" v="Arlington"/>
    <tag k="addr:housenumber" v="13"/>
    <tag k="addr:street" v="Munn Terrace"/>
    <tag k="addr:state" v="VT"/>
    <tag k="ref:vcgi:esiteid" v="4226"/>
  </node>
  <node id="-634" visible="true" lat="43.07304311" lon="-73.15577571">
    <tag k="addr:city" v="Arlington"/>
    <tag k="addr:housenumber" v="48"/>
    <tag k="addr:street" v="Russell Street"/>
    <tag k="addr:state" v="VT"/>
    <tag k="ref:vcgi:esiteid" v="4227"/>
  </node>
  <node id="-635" visible="true" lat="43.07313577" lon="-73.15179919">
    <tag k="addr:city" v="Arlington"/>
    <tag k="addr:housenumber" v="227"/>
    <tag k="addr:street" v="Chittenden Drive"/>
    <tag k="addr:state" v="VT"/>
    <tag k="ref:vcgi:esiteid" v="4228"/>
  </node>
  <node id="-637" visible="true" lat="43.07270699" lon="-73.15597785">
    <tag k="addr:city" v="Arlington"/>
    <tag k="addr:housenumber" v="51"/>
    <tag k="addr:street" v="Russell Street"/>
    <tag k="addr:state" v="VT"/>
    <tag k="ref:vcgi:esiteid" v="4230"/>
  </node>
  <node id="-638" visible="true" lat="43.07276128" lon="-73.14986436">
    <tag k="addr:city" v="Arlington"/>
    <tag k="addr:housenumber" v="86"/>
    <tag k="addr:street" v="Munn Terrace"/>
    <tag k="addr:state" v="VT"/>
    <tag k="ref:vcgi:esiteid" v="4231"/>
  </node>
  <node id="-639" visible="true" lat="43.07287614" lon="-73.15544123">
    <tag k="addr:city" v="Arlington"/>
    <tag k="addr:housenumber" v="24"/>
    <tag k="addr:street" v="Russell Street"/>
    <tag k="addr:state" v="VT"/>
    <tag k="ref:vcgi:esiteid" v="4232"/>
  </node>
  <node id="-640" visible="true" lat="43.07281394" lon="-73.14904473">
    <tag k="addr:city" v="Arlington"/>
    <tag k="addr:housenumber" v="20"/>
    <tag k="addr:street" v="Woodchuck Hill"/>
    <tag k="addr:state" v="VT"/>
    <tag k="ref:vcgi:esiteid" v="4233"/>
  </node>
  <node id="-642" visible="true" lat="43.0724689" lon="-73.15526114">
    <tag k="addr:city" v="Arlington"/>
    <tag k="addr:housenumber" v="13"/>
    <tag k="addr:street" v="Russell Street"/>
    <tag k="addr:state" v="VT"/>
    <tag k="ref:vcgi:esiteid" v="4235"/>
  </node>
  <node id="-643" visible="true" lat="43.0725975" lon="-73.14996337">
    <tag k="addr:city" v="Arlington"/>
    <tag k="addr:housenumber" v="74"/>
    <tag k="addr:street" v="Munn Terrace"/>
    <tag k="addr:state" v="VT"/>
    <tag k="ref:vcgi:esiteid" v="4236"/>
  </node>
  <node id="-644" visible="true" lat="43.07251304" lon="-73.15453052">
    <tag k="addr:city" v="Arlington"/>
    <tag k="addr:housenumber" v="23"/>
    <tag k="addr:street" v="East Arlington Road"/>
    <tag k="addr:state" v="VT"/>
    <tag k="ref:vcgi:esiteid" v="4237"/>
  </node>
  <node id="-649" visible="true" lat="43.07217025" lon="-73.15151977">
    <tag k="addr:city" v="Arlington"/>
    <tag k="addr:housenumber" v="178"/>
    <tag k="addr:street" v="Chittenden Drive"/>
    <tag k="addr:state" v="VT"/>
    <tag k="ref:vcgi:esiteid" v="4242"/>
  </node>
  <node id="-651" visible="true" lat="43.07234399" lon="-73.15386954">
    <tag k="addr:city" v="Arlington"/>
    <tag k="addr:housenumber" v="59"/>
    <tag k="addr:street" v="East Arlington Road"/>
    <tag k="addr:state" v="VT"/>
    <tag k="ref:vcgi:esiteid" v="4244"/>
  </node>
  <node id="-652" visible="true" lat="43.07223888" lon="-73.15302125">
    <tag k="addr:city" v="Arlington"/>
    <tag k="addr:housenumber" v="85"/>
    <tag k="addr:street" v="East Arlington Road"/>
    <tag k="addr:state" v="VT"/>
    <tag k="ref:vcgi:esiteid" v="4245"/>
  </node>
  <node id="-654" visible="true" lat="43.07187268" lon="-73.15386469">
    <tag k="addr:city" v="Arlington"/>
    <tag k="addr:housenumber" v="72"/>
    <tag k="addr:street" v="East Arlington Road"/>
    <tag k="addr:state" v="VT"/>
    <tag k="ref:vcgi:esiteid" v="4247"/>
  </node>
  <node id="-656" visible="true" lat="43.07191285" lon="-73.15414184">
    <tag k="addr:city" v="Arlington"/>
    <tag k="addr:housenumber" v="62"/>
    <tag k="addr:street" v="East Arlington Road"/>
    <tag k="addr:state" v="VT"/>
    <tag k="ref:vcgi:esiteid" v="4249"/>
  </node>
  <node id="-660" visible="true" lat="43.07177389" lon="-73.15370488">
    <tag k="addr:city" v="Arlington"/>
    <tag k="addr:housenumber" v="88"/>
    <tag k="addr:street" v="East Arlington Road"/>
    <tag k="addr:state" v="VT"/>
    <tag k="ref:vcgi:esiteid" v="4256"/>
  </node>
  <node id="-662" visible="true" lat="43.07178974" lon="-73.149493">
    <tag k="addr:city" v="Arlington"/>
    <tag k="addr:housenumber" v="60"/>
    <tag k="addr:street" v="Joy Lane"/>
    <tag k="addr:state" v="VT"/>
    <tag k="ref:vcgi:esiteid" v="4258"/>
  </node>
  <node id="-666" visible="true" lat="43.07137845" lon="-73.15222454">
    <tag k="addr:city" v="Arlington"/>
    <tag k="addr:housenumber" v="122"/>
    <tag k="addr:street" v="Chittenden Drive"/>
    <tag k="addr:state" v="VT"/>
    <tag k="ref:vcgi:esiteid" v="4262"/>
  </node>
  <node id="-784" visible="true" lat="43.06503215" lon="-73.1526763">
    <tag k="addr:city" v="Arlington"/>
    <tag k="addr:housenumber" v="528"/>
    <tag k="addr:street" v="East Arlington Road"/>
    <tag k="addr:state" v="VT"/>
    <tag k="ref:vcgi:esiteid" v="4388"/>
  </node>
  <node id="-830" visible="true" lat="43.06330412" lon="-73.14913742">
    <tag k="addr:city" v="Arlington"/>
    <tag k="addr:housenumber" v="777"/>
    <tag k="addr:street" v="East Arlington Road"/>
    <tag k="addr:state" v="VT"/>
    <tag k="ref:vcgi:esiteid" v="4438"/>
  </node>
  <node id="-835" visible="true" lat="43.06336517" lon="-73.14952827">
    <tag k="addr:city" v="Arlington"/>
    <tag k="addr:housenumber" v="761"/>
    <tag k="addr:street" v="East Arlington Road"/>
    <tag k="addr:state" v="VT"/>
    <tag k="ref:vcgi:esiteid" v="4444"/>
  </node>
  <node id="-841" visible="true" lat="43.06309982" lon="-73.14880321">
    <tag k="addr:city" v="Arlington"/>
    <tag k="addr:housenumber" v="797"/>
    <tag k="addr:street" v="East Arlington Road"/>
    <tag k="addr:state" v="VT"/>
    <tag k="ref:vcgi:esiteid" v="4450"/>
  </node>
  <node id="-847" visible="true" lat="43.06293306" lon="-73.14847718">
    <tag k="addr:city" v="Arlington"/>
    <tag k="addr:housenumber" v="817"/>
    <tag k="addr:street" v="East Arlington Road"/>
    <tag k="addr:state" v="VT"/>
    <tag k="ref:vcgi:esiteid" v="4456"/>
  </node>
  <node id="-850" visible="true" lat="43.06286743" lon="-73.14816202">
    <tag k="addr:city" v="Arlington"/>
    <tag k="addr:housenumber" v="833"/>
    <tag k="addr:street" v="East Arlington Road"/>
    <tag k="addr:state" v="VT"/>
    <tag k="ref:vcgi:esiteid" v="4459"/>
  </node>
  <node id="-852" visible="true" lat="43.0628091" lon="-73.14631475">
    <tag k="addr:city" v="Arlington"/>
    <tag k="addr:housenumber" v="945"/>
    <tag k="addr:street" v="East Arlington Road"/>
    <tag k="addr:state" v="VT"/>
    <tag k="ref:vcgi:esiteid" v="4461"/>
  </node>
  <node id="-855" visible="true" lat="43.06279256" lon="-73.1477744">
    <tag k="addr:city" v="Arlington"/>
    <tag k="addr:housenumber" v="855"/>
    <tag k="addr:street" v="East Arlington Road"/>
    <tag k="addr:state" v="VT"/>
    <tag k="ref:vcgi:esiteid" v="4464"/>
  </node>
  <node id="-857" visible="true" lat="43.06271411" lon="-73.14737518">
    <tag k="addr:city" v="Arlington"/>
    <tag k="addr:housenumber" v="877"/>
    <tag k="addr:street" v="East Arlington Road"/>
    <tag k="addr:state" v="VT"/>
    <tag k="ref:vcgi:esiteid" v="4466"/>
  </node>
  <node id="-858" visible="true" lat="43.06264722" lon="-73.14699094">
    <tag k="addr:city" v="Arlington"/>
    <tag k="addr:housenumber" v="907"/>
    <tag k="addr:street" v="East Arlington Road"/>
    <tag k="addr:state" v="VT"/>
    <tag k="ref:vcgi:esiteid" v="4467"/>
  </node>
  <node id="-864" visible="true" lat="43.06255132" lon="-73.14402645">
    <tag k="addr:city" v="Arlington"/>
    <tag k="addr:housenumber" v="1073"/>
    <tag k="addr:street" v="East Arlington Road"/>
    <tag k="addr:state" v="VT"/>
    <tag k="ref:vcgi:esiteid" v="4473"/>
  </node>
  <node id="-868" visible="true" lat="43.06247584" lon="-73.14460994">
    <tag k="addr:city" v="Arlington"/>
    <tag k="addr:housenumber" v="1023"/>
    <tag k="addr:street" v="East Arlington Road"/>
    <tag k="addr:state" v="VT"/>
    <tag k="ref:vcgi:esiteid" v="4479"/>
  </node>
  <node id="-872" visible="true" lat="43.06246662" lon="-73.14425082">
    <tag k="addr:city" v="Arlington"/>
    <tag k="addr:housenumber" v="1047"/>
    <tag k="addr:street" v="East Arlington Road"/>
    <tag k="addr:state" v="VT"/>
    <tag k="ref:vcgi:esiteid" v="4483"/>
  </node>
  <node id="-884" visible="true" lat="43.06223598" lon="-73.14503732">
    <tag k="addr:city" v="Arlington"/>
    <tag k="addr:housenumber" v="1012"/>
    <tag k="addr:street" v="East Arlington Road"/>
    <tag k="addr:state" v="VT"/>
    <tag k="ref:vcgi:esiteid" v="4495"/>
  </node>
  <node id="-902" visible="true" lat="43.06166351" lon="-73.1445319">
    <tag k="addr:city" v="Arlington"/>
    <tag k="addr:housenumber" v="58"/>
    <tag k="addr:street" v="Pleasant Street"/>
    <tag k="addr:state" v="VT"/>
    <tag k="ref:vcgi:esiteid" v="4513"/>
  </node>
  <node id="-906" visible="true" lat="43.06149373" lon="-73.14408013">
    <tag k="addr:city" v="Arlington"/>
    <tag k="addr:housenumber" v="63"/>
    <tag k="addr:street" v="Pleasant Street"/>
    <tag k="addr:state" v="VT"/>
    <tag k="ref:vcgi:esiteid" v="4517"/>
  </node>
  <node id="-984" visible="true" lat="43.05808931" lon="-73.14885634">
    <tag k="addr:city" v="Arlington"/>
    <tag k="addr:housenumber" v="310"/>
    <tag k="addr:street" v="Warm Brook Road"/>
    <tag k="addr:state" v="VT"/>
    <tag k="ref:vcgi:esiteid" v="4600"/>
  </node>
  <node id="-988" visible="true" lat="43.05759168" lon="-73.16058312">
    <tag k="addr:city" v="Arlington"/>
    <tag k="addr:housenumber" v="29"/>
    <tag k="addr:street" v="Short Street"/>
    <tag k="addr:state" v="VT"/>
    <tag k="ref:vcgi:esiteid" v="4604"/>
  </node>
  <node id="-991" visible="true" lat="43.05715912" lon="-73.14872384">
    <tag k="addr:city" v="Arlington"/>
    <tag k="addr:housenumber" v="379"/>
    <tag k="addr:street" v="Warm Brook Road"/>
    <tag k="addr:state" v="VT"/>
    <tag k="ref:vcgi:esiteid" v="4607"/>
  </node>
  <node id="-995" visible="true" lat="43.05696154" lon="-73.14883581">
    <tag k="addr:city" v="Arlington"/>
    <tag k="addr:housenumber" v="395"/>
    <tag k="addr:street" v="Warm Brook Road"/>
    <tag k="addr:state" v="VT"/>
    <tag k="ref:vcgi:esiteid" v="4611"/>
  </node>
  <node id="-996" visible="true" lat="43.05674028" lon="-73.1489261">
    <tag k="addr:city" v="Arlington"/>
    <tag k="addr:housenumber" v="413"/>
    <tag k="addr:street" v="Warm Brook Road"/>
    <tag k="addr:state" v="VT"/>
    <tag k="ref:vcgi:esiteid" v="4612"/>
  </node>
  <node id="-1002" visible="true" lat="43.05613379" lon="-73.1521598">
    <tag k="addr:city" v="Arlington"/>
    <tag k="addr:housenumber" v="532"/>
    <tag k="addr:street" v="Warm Brook Road"/>
    <tag k="addr:state" v="VT"/>
    <tag k="ref:vcgi:esiteid" v="4618"/>
  </node>
  <node id="-1004" visible="true" lat="43.0562319" lon="-73.16191866">
    <tag k="addr:city" v="Arlington"/>
    <tag k="addr:housenumber" v="138"/>
    <tag k="addr:street" v="Short Street"/>
    <tag k="addr:state" v="VT"/>
    <tag k="ref:vcgi:esiteid" v="4620"/>
  </node>
  <node id="-1005" visible="true" lat="43.05555217" lon="-73.15245421">
    <tag k="addr:city" v="Arlington"/>
    <tag k="addr:housenumber" v="534"/>
    <tag k="addr:street" v="Warm Brook Road"/>
    <tag k="addr:state" v="VT"/>
    <tag k="ref:vcgi:esiteid" v="4621"/>
  </node>
  <node id="-1009" visible="true" lat="43.0557758" lon="-73.14963268">
    <tag k="addr:city" v="Arlington"/>
    <tag k="addr:housenumber" v="487"/>
    <tag k="addr:street" v="Warm Brook Road"/>
    <tag k="addr:state" v="VT"/>
    <tag k="ref:vcgi:esiteid" v="4626"/>
  </node>
  <node id="-1014" visible="true" lat="43.05551591" lon="-73.15001216">
    <tag k="addr:city" v="Arlington"/>
    <tag k="addr:housenumber" v="505"/>
    <tag k="addr:street" v="Warm Brook Road"/>
    <tag k="addr:state" v="VT"/>
    <tag k="ref:vcgi:esiteid" v="4631"/>
  </node>
  <node id="-1017" visible="true" lat="43.0551506" lon="-73.15052746">
    <tag k="addr:city" v="Arlington"/>
    <tag k="addr:housenumber" v="539"/>
    <tag k="addr:street" v="Warm Brook Road"/>
    <tag k="addr:state" v="VT"/>
    <tag k="ref:vcgi:esiteid" v="4634"/>
  </node>
  <node id="-1020" visible="true" lat="43.05517387" lon="-73.15138342">
    <tag k="addr:city" v="Arlington"/>
    <tag k="addr:housenumber" v="568"/>
    <tag k="addr:street" v="Warm Brook Road"/>
    <tag k="addr:state" v="VT"/>
    <tag k="ref:vcgi:esiteid" v="4637"/>
  </node>
  <node id="-1033" visible="true" lat="43.05318648" lon="-73.15400784">
    <tag k="addr:city" v="Arlington"/>
    <tag k="addr:housenumber" v="750"/>
    <tag k="addr:street" v="Warm Brook Road"/>
    <tag k="addr:state" v="VT"/>
    <tag k="ref:vcgi:esiteid" v="4650"/>
  </node>
  <node id="-1049" visible="true" lat="43.04919557" lon="-73.16383535">
    <tag k="addr:city" v="Arlington"/>
    <tag k="addr:housenumber" v="1999"/>
    <tag k="addr:street" v="Vermont Route 7A"/>
    <tag k="addr:state" v="VT"/>
    <tag k="ref:vcgi:esiteid" v="4666"/>
  </node>
  <node id="-1217" visible="true" lat="43.10352339" lon="-73.24034083">
    <tag k="addr:city" v="Arlington"/>
    <tag k="addr:housenumber" v="5277"/>
    <tag k="addr:street" v="Vermont Route 313 West"/>
    <tag k="addr:state" v="VT"/>
    <tag k="ref:vcgi:esiteid" v="4836"/>
  </node>
  <node id="-1219" visible="true" lat="43.10457876" lon="-73.21798234">
    <tag k="addr:city" v="Arlington"/>
    <tag k="addr:housenumber" v="4093"/>
    <tag k="addr:street" v="Vermont Route 313 West"/>
    <tag k="addr:state" v="VT"/>
    <tag k="ref:vcgi:esiteid" v="4838"/>
  </node>
  <node id="-1221" visible="true" lat="43.09933239" lon="-73.20533277">
    <tag k="addr:city" v="Arlington"/>
    <tag k="addr:housenumber" v="3320"/>
    <tag k="addr:street" v="Vermont Route 313 West"/>
    <tag k="addr:state" v="VT"/>
    <tag k="ref:vcgi:esiteid" v="4841"/>
  </node>
  <node id="-1224" visible="true" lat="43.08538495" lon="-73.19180644">
    <tag k="addr:city" v="Arlington"/>
    <tag k="addr:housenumber" v="2165"/>
    <tag k="addr:street" v="Vermont Route 313 West"/>
    <tag k="addr:state" v="VT"/>
    <tag k="ref:vcgi:esiteid" v="4844"/>
  </node>
  <node id="-1234" visible="true" lat="43.07622336" lon="-73.16520747">
    <tag k="addr:city" v="Arlington"/>
    <tag k="addr:housenumber" v="20"/>
    <tag k="addr:street" v="Hillside Road"/>
    <tag k="addr:state" v="VT"/>
    <tag k="ref:vcgi:esiteid" v="4854"/>
  </node>
  <node id="-1235" visible="true" lat="43.07750378" lon="-73.16558712">
    <tag k="addr:city" v="Arlington"/>
    <tag k="addr:housenumber" v="127"/>
    <tag k="addr:street" v="Hillside Road"/>
    <tag k="addr:state" v="VT"/>
    <tag k="ref:vcgi:esiteid" v="4855"/>
  </node>
  <node id="-1236" visible="true" lat="43.0732791" lon="-73.15499123">
    <tag k="addr:city" v="Arlington"/>
    <tag k="addr:housenumber" v="18"/>
    <tag k="addr:street" v="Church Street"/>
    <tag k="addr:state" v="VT"/>
    <tag k="ref:vcgi:esiteid" v="4858"/>
  </node>
  <node id="-1238" visible="true" lat="43.07295133" lon="-73.15036175">
    <tag k="addr:city" v="Arlington"/>
    <tag k="addr:housenumber" v="109"/>
    <tag k="addr:street" v="Munn Terrace"/>
    <tag k="addr:state" v="VT"/>
    <tag k="ref:vcgi:esiteid" v="4860"/>
  </node>
  <node id="-1249" visible="true" lat="43.07501448" lon="-73.15490897">
    <tag k="addr:city" v="Arlington"/>
    <tag k="addr:housenumber" v="25"/>
    <tag k="addr:street" v="School Street"/>
    <tag k="addr:state" v="VT"/>
    <tag k="ref:vcgi:esiteid" v="4873"/>
  </node>
  <node id="-1251" visible="true" lat="43.05681294" lon="-73.16122997">
    <tag k="addr:city" v="Arlington"/>
    <tag k="addr:housenumber" v="57"/>
    <tag k="addr:street" v="Short Street"/>
    <tag k="addr:state" v="VT"/>
    <tag k="ref:vcgi:esiteid" v="4875"/>
  </node>
  <node id="-1260" visible="true" lat="43.10648382" lon="-73.21485943">
    <tag k="addr:city" v="Arlington"/>
    <tag k="addr:housenumber" v="144"/>
    <tag k="addr:street" v="Fox Run Road"/>
    <tag k="addr:state" v="VT"/>
    <tag k="ref:vcgi:esiteid" v="4885"/>
  </node>
  <node id="-1264" visible="true" lat="43.10563155" lon="-73.21462491">
    <tag k="addr:city" v="Arlington"/>
    <tag k="addr:housenumber" v="136"/>
    <tag k="addr:street" v="Fox Run Road"/>
    <tag k="addr:state" v="VT"/>
    <tag k="ref:vcgi:esiteid" v="4889"/>
  </node>
  <node id="-1265" visible="true" lat="43.1077549" lon="-73.21488241">
    <tag k="addr:city" v="Arlington"/>
    <tag k="addr:housenumber" v="156"/>
    <tag k="addr:street" v="Fox Run Road"/>
    <tag k="addr:state" v="VT"/>
    <tag k="ref:vcgi:esiteid" v="4890"/>
  </node>
  <node id="-1272" visible="true" lat="43.09932293" lon="-73.20145474">
    <tag k="addr:city" v="Arlington"/>
    <tag k="addr:housenumber" v="146"/>
    <tag k="addr:street" v="Rabbit Run"/>
    <tag k="addr:state" v="VT"/>
    <tag k="ref:vcgi:esiteid" v="4898"/>
  </node>
  <node id="-1300" visible="true" lat="43.09618657" lon="-73.2011583">
    <tag k="addr:city" v="Arlington"/>
    <tag k="addr:housenumber" v="3048"/>
    <tag k="addr:street" v="Vermont Route 313 West"/>
    <tag k="addr:state" v="VT"/>
    <tag k="ref:vcgi:esiteid" v="4929"/>
  </node>
  <node id="-1307" visible="true" lat="43.07155397" lon="-73.15389782">
    <tag k="addr:city" v="Arlington"/>
    <tag k="addr:housenumber" v="20"/>
    <tag k="addr:street" v="Center Lane"/>
    <tag k="addr:state" v="VT"/>
    <tag k="ref:vcgi:esiteid" v="4936"/>
  </node>
  <node id="-1308" visible="true" lat="43.07167693" lon="-73.1540912">
    <tag k="addr:city" v="Arlington"/>
    <tag k="addr:housenumber" v="22"/>
    <tag k="addr:street" v="Center Lane"/>
    <tag k="addr:state" v="VT"/>
    <tag k="ref:vcgi:esiteid" v="4937"/>
  </node>
  <node id="-1309" visible="true" lat="43.07171165" lon="-73.15420957">
    <tag k="addr:city" v="Arlington"/>
    <tag k="addr:housenumber" v="24"/>
    <tag k="addr:street" v="Center Lane"/>
    <tag k="addr:state" v="VT"/>
    <tag k="ref:vcgi:esiteid" v="4938"/>
  </node>
  <node id="-1310" visible="true" lat="43.07174243" lon="-73.15434319">
    <tag k="addr:city" v="Arlington"/>
    <tag k="addr:housenumber" v="26"/>
    <tag k="addr:street" v="Center Lane"/>
    <tag k="addr:state" v="VT"/>
    <tag k="ref:vcgi:esiteid" v="4939"/>
  </node>
  <node id="-1320" visible="true" lat="43.0767065" lon="-73.15781915">
    <tag k="addr:city" v="Arlington"/>
    <tag k="addr:housenumber" v="226"/>
    <tag k="addr:street" v="Vermont Route 313 West"/>
    <tag k="addr:state" v="VT"/>
    <tag k="ref:vcgi:esiteid" v="4950"/>
  </node>
  <node id="-1348" visible="true" lat="43.07514895" lon="-73.16045637">
    <tag k="addr:city" v="Arlington"/>
    <tag k="addr:housenumber" v="31"/>
    <tag k="addr:street" v="Battenkill Lane"/>
    <tag k="addr:state" v="VT"/>
    <tag k="ref:vcgi:esiteid" v="4978"/>
  </node>
  <node id="-1349" visible="true" lat="43.07535757" lon="-73.16174535">
    <tag k="addr:city" v="Arlington"/>
    <tag k="addr:housenumber" v="433"/>
    <tag k="addr:street" v="Vermont Route 313 West"/>
    <tag k="addr:state" v="VT"/>
    <tag k="ref:vcgi:esiteid" v="4979"/>
  </node>
  <node id="-1371" visible="true" lat="43.09562823" lon="-73.15509934">
    <tag k="addr:city" v="Arlington"/>
    <tag k="addr:housenumber" v="390"/>
    <tag k="addr:street" v="Tory Lane North"/>
    <tag k="addr:state" v="VT"/>
    <tag k="ref:vcgi:esiteid" v="306966"/>
  </node>
  <node id="-1373" visible="true" lat="43.08672452" lon="-73.19186917">
    <tag k="addr:city" v="Arlington"/>
    <tag k="addr:housenumber" v="104"/>
    <tag k="addr:street" v="Heritage Hill"/>
    <tag k="addr:state" v="VT"/>
    <tag k="ref:vcgi:esiteid" v="308686"/>
  </node>
  <node id="-1375" visible="true" lat="43.10552448" lon="-73.25588429">
    <tag k="addr:city" v="Arlington"/>
    <tag k="addr:housenumber" v="1"/>
    <tag k="addr:street" v="Far View Road"/>
    <tag k="addr:state" v="VT"/>
    <tag k="ref:vcgi:esiteid" v="308848"/>
  </node>
  <node id="-1385" visible="true" lat="43.10779607" lon="-73.25419949">
    <tag k="addr:city" v="Arlington"/>
    <tag k="addr:housenumber" v="275"/>
    <tag k="addr:street" v="Far View Road"/>
    <tag k="addr:state" v="VT"/>
    <tag k="ref:vcgi:esiteid" v="313741"/>
  </node>
  <node id="-1386" visible="true" lat="43.10631388" lon="-73.255704">
    <tag k="addr:city" v="Arlington"/>
    <tag k="addr:housenumber" v="123"/>
    <tag k="addr:street" v="Far View Road"/>
    <tag k="addr:state" v="VT"/>
    <tag k="ref:vcgi:esiteid" v="314367"/>
  </node>
  <node id="-1397" visible="true" lat="43.08562049" lon="-73.19242251">
    <tag k="addr:city" v="Arlington"/>
    <tag k="addr:housenumber" v="2167"/>
    <tag k="addr:street" v="Vermont Route 313 West"/>
    <tag k="addr:state" v="VT"/>
    <tag k="ref:vcgi:esiteid" v="332059"/>
  </node>
  <node id="-1402" visible="true" lat="43.11089949" lon="-73.25211247">
    <tag k="addr:city" v="Arlington"/>
    <tag k="addr:housenumber" v="318"/>
    <tag k="addr:street" v="Far View Road"/>
    <tag k="addr:state" v="VT"/>
    <tag k="ref:vcgi:esiteid" v="332915"/>
  </node>
  <node id="-1403" visible="true" lat="43.07041084" lon="-73.13918599">
    <tag k="addr:city" v="Arlington"/>
    <tag k="addr:housenumber" v="158"/>
    <tag k="addr:street" v="Town Line Road"/>
    <tag k="addr:state" v="VT"/>
    <tag k="ref:vcgi:esiteid" v="333490"/>
  </node>
  <node id="-1408" visible="true" lat="43.10205953" lon="-73.24685665">
    <tag k="addr:city" v="Arlington"/>
    <tag k="addr:housenumber" v="5645"/>
    <tag k="addr:street" v="Vermont Route 313 West"/>
    <tag k="addr:state" v="VT"/>
    <tag k="ref:vcgi:esiteid" v="336557"/>
  </node>
  <node id="-1412" visible="true" lat="43.0710504" lon="-73.13804103">
    <tag k="addr:city" v="Arlington"/>
    <tag k="addr:housenumber" v="108"/>
    <tag k="addr:street" v="Town Line Road"/>
    <tag k="addr:state" v="VT"/>
    <tag k="ref:vcgi:esiteid" v="339265"/>
  </node>
  <node id="-1426" visible="true" lat="43.0965703" lon="-73.20009786">
    <tag k="addr:city" v="Arlington"/>
    <tag k="addr:housenumber" v="3050"/>
    <tag k="addr:street" v="Vermont Route 313 West"/>
    <tag k="addr:state" v="VT"/>
    <tag k="ref:vcgi:esiteid" v="449337"/>
  </node>
  <node id="-1428" visible="true" lat="43.08844667" lon="-73.19490355">
    <tag k="addr:city" v="Arlington"/>
    <tag k="addr:housenumber" v="2267"/>
    <tag k="addr:street" v="Vermont Route 313 West"/>
    <tag k="addr:state" v="VT"/>
    <tag k="ref:vcgi:esiteid" v="452086"/>
  </node>
  <node id="-1453" visible="true" lat="43.10381591" lon="-73.25262016">
    <tag k="addr:city" v="Arlington"/>
    <tag k="addr:housenumber" v="5953"/>
    <tag k="addr:street" v="Vermont Route 313 West"/>
    <tag k="addr:state" v="VT"/>
    <tag k="ref:vcgi:esiteid" v="618108"/>
  </node>
  <node id="-1764" visible="true" lat="43.04655212" lon="-73.14278184">
    <tag k="addr:city" v="Arlington"/>
    <tag k="addr:housenumber" v="441"/>
    <tag k="addr:street" v="Butternut Gutter"/>
    <tag k="addr:state" v="VT"/>
    <tag k="ref:vcgi:esiteid" v="751525"/>
  </node>
  <node id="-1765" visible="true" lat="43.10598595" lon="-73.25821792">
    <tag k="addr:city" v="Arlington"/>
    <tag k="addr:housenumber" v="6239"/>
    <tag k="addr:street" v="Vermont Route 313 West"/>
    <tag k="addr:state" v="VT"/>
    <tag k="ref:vcgi:esiteid" v="751856"/>
  </node>
  <node id="-1792" visible="true" lat="43.06943126" lon="-73.13838113">
    <tag k="addr:city" v="Arlington"/>
    <tag k="addr:housenumber" v="19"/>
    <tag k="addr:street" v="Town Line Road"/>
    <tag k="addr:state" v="VT"/>
    <tag k="ref:vcgi:esiteid" v="900414"/>
  </node>
</osm>
