<?xml version="1.0" encoding="UTF-8"?>
<osm version="0.6" generator="JOSM" upload="false">
  <node id="-110" visible="true" lat="43.13795801" lon="-72.60327927">
    <tag k="addr:city" v="Athens"/>
    <tag k="addr:housenumber" v="124"/>
    <tag k="addr:street" v="Walker Road"/>
    <tag k="addr:state" v="VT"/>
    <tag k="ref:vcgi:esiteid" v="5006"/>
  </node>
  <node id="-116" visible="true" lat="43.13191438" lon="-72.60235779">
    <tag k="addr:city" v="Athens"/>
    <tag k="addr:housenumber" v="77"/>
    <tag k="addr:street" v="Walker Road"/>
    <tag k="addr:state" v="VT"/>
    <tag k="ref:vcgi:esiteid" v="5012"/>
  </node>
  <node id="-117" visible="true" lat="43.13117998" lon="-72.60292066">
    <tag k="addr:city" v="Athens"/>
    <tag k="addr:housenumber" v="75"/>
    <tag k="addr:street" v="Walker Road"/>
    <tag k="addr:state" v="VT"/>
    <tag k="ref:vcgi:esiteid" v="5013"/>
  </node>
  <node id="-131" visible="true" lat="43.12636925" lon="-72.58848183">
    <tag k="addr:city" v="Athens"/>
    <tag k="addr:housenumber" v="260"/>
    <tag k="addr:street" v="Route 35"/>
    <tag k="addr:state" v="VT"/>
    <tag k="ref:vcgi:esiteid" v="5027"/>
  </node>
  <node id="-133" visible="true" lat="43.12555099" lon="-72.57192101">
    <tag k="addr:city" v="Athens"/>
    <tag k="addr:housenumber" v="165"/>
    <tag k="addr:street" v="Route 35"/>
    <tag k="addr:state" v="VT"/>
    <tag k="ref:vcgi:esiteid" v="5029"/>
  </node>
  <node id="-135" visible="true" lat="43.12469129" lon="-72.58549026">
    <tag k="addr:city" v="Athens"/>
    <tag k="addr:housenumber" v="254"/>
    <tag k="addr:street" v="Route 35"/>
    <tag k="addr:state" v="VT"/>
    <tag k="ref:vcgi:esiteid" v="5031"/>
  </node>
  <node id="-136" visible="true" lat="43.12464938" lon="-72.58516616">
    <tag k="addr:city" v="Athens"/>
    <tag k="addr:housenumber" v="252"/>
    <tag k="addr:street" v="Route 35"/>
    <tag k="addr:state" v="VT"/>
    <tag k="ref:vcgi:esiteid" v="5032"/>
  </node>
  <node id="-137" visible="true" lat="43.1245059" lon="-72.58871446">
    <tag k="addr:city" v="Athens"/>
    <tag k="addr:housenumber" v="2"/>
    <tag k="addr:street" v="Reed Road"/>
    <tag k="addr:state" v="VT"/>
    <tag k="ref:vcgi:esiteid" v="5033"/>
  </node>
  <node id="-138" visible="true" lat="43.12423445" lon="-72.58353185">
    <tag k="addr:city" v="Athens"/>
    <tag k="addr:housenumber" v="246"/>
    <tag k="addr:street" v="Route 35"/>
    <tag k="addr:state" v="VT"/>
    <tag k="ref:vcgi:esiteid" v="5034"/>
  </node>
  <node id="-139" visible="true" lat="43.12435668" lon="-72.58687459">
    <tag k="addr:city" v="Athens"/>
    <tag k="addr:housenumber" v="259"/>
    <tag k="addr:street" v="Route 35"/>
    <tag k="addr:state" v="VT"/>
    <tag k="ref:vcgi:esiteid" v="5035"/>
  </node>
  <node id="-140" visible="true" lat="43.12411398" lon="-72.58094357">
    <tag k="addr:city" v="Athens"/>
    <tag k="addr:housenumber" v="230"/>
    <tag k="addr:street" v="Route 35"/>
    <tag k="addr:state" v="VT"/>
    <tag k="ref:vcgi:esiteid" v="5036"/>
  </node>
  <node id="-141" visible="true" lat="43.12401768" lon="-72.57367886">
    <tag k="addr:city" v="Athens"/>
    <tag k="addr:housenumber" v="178"/>
    <tag k="addr:street" v="Route 35"/>
    <tag k="addr:state" v="VT"/>
    <tag k="ref:vcgi:esiteid" v="5037"/>
  </node>
  <node id="-142" visible="true" lat="43.12397224" lon="-72.57984203">
    <tag k="addr:city" v="Athens"/>
    <tag k="addr:housenumber" v="17"/>
    <tag k="addr:street" v="Meetinghouse Road"/>
    <tag k="addr:state" v="VT"/>
    <tag k="ref:vcgi:esiteid" v="5039"/>
  </node>
  <node id="-143" visible="true" lat="43.12372762" lon="-72.57334258">
    <tag k="addr:city" v="Athens"/>
    <tag k="addr:housenumber" v="177"/>
    <tag k="addr:street" v="Route 35"/>
    <tag k="addr:state" v="VT"/>
    <tag k="ref:vcgi:esiteid" v="5040"/>
  </node>
  <node id="-144" visible="true" lat="43.12371427" lon="-72.58842526">
    <tag k="addr:city" v="Athens"/>
    <tag k="addr:housenumber" v="7"/>
    <tag k="addr:street" v="Reed Road"/>
    <tag k="addr:state" v="VT"/>
    <tag k="ref:vcgi:esiteid" v="5041"/>
  </node>
  <node id="-145" visible="true" lat="43.12336335" lon="-72.58202155">
    <tag k="addr:city" v="Athens"/>
    <tag k="addr:housenumber" v="239"/>
    <tag k="addr:street" v="Route 35"/>
    <tag k="addr:state" v="VT"/>
    <tag k="ref:vcgi:esiteid" v="5042"/>
  </node>
  <node id="-147" visible="true" lat="43.12300351" lon="-72.57826603">
    <tag k="addr:city" v="Athens"/>
    <tag k="addr:housenumber" v="6"/>
    <tag k="addr:street" v="Meetinghouse Road"/>
    <tag k="addr:state" v="VT"/>
    <tag k="ref:vcgi:esiteid" v="5045"/>
  </node>
  <node id="-148" visible="true" lat="43.12228577" lon="-72.60033769">
    <tag k="addr:city" v="Athens"/>
    <tag k="addr:housenumber" v="332"/>
    <tag k="addr:street" v="Route 35"/>
    <tag k="addr:state" v="VT"/>
    <tag k="ref:vcgi:esiteid" v="5046"/>
  </node>
  <node id="-149" visible="true" lat="43.12237859" lon="-72.57813487">
    <tag k="addr:city" v="Athens"/>
    <tag k="addr:housenumber" v="2"/>
    <tag k="addr:street" v="Meetinghouse Road"/>
    <tag k="addr:state" v="VT"/>
    <tag k="ref:vcgi:esiteid" v="5047"/>
  </node>
  <node id="-150" visible="true" lat="43.12218178" lon="-72.59033866">
    <tag k="addr:city" v="Athens"/>
    <tag k="addr:housenumber" v="52"/>
    <tag k="addr:street" v="McKusker Road"/>
    <tag k="addr:state" v="VT"/>
    <tag k="ref:vcgi:esiteid" v="5048"/>
  </node>
  <node id="-151" visible="true" lat="43.12222449" lon="-72.57606319">
    <tag k="addr:city" v="Athens"/>
    <tag k="addr:housenumber" v="200"/>
    <tag k="addr:street" v="Route 35"/>
    <tag k="addr:state" v="VT"/>
    <tag k="ref:vcgi:esiteid" v="5049"/>
  </node>
  <node id="-152" visible="true" lat="43.12191028" lon="-72.59758212">
    <tag k="addr:city" v="Athens"/>
    <tag k="addr:housenumber" v="15"/>
    <tag k="addr:street" v="McKusker Road"/>
    <tag k="addr:state" v="VT"/>
    <tag k="ref:vcgi:esiteid" v="5050"/>
  </node>
  <node id="-153" visible="true" lat="43.12186237" lon="-72.57512133">
    <tag k="addr:city" v="Athens"/>
    <tag k="addr:housenumber" v="195"/>
    <tag k="addr:street" v="Route 35"/>
    <tag k="addr:state" v="VT"/>
    <tag k="ref:vcgi:esiteid" v="5051"/>
  </node>
  <node id="-154" visible="true" lat="43.12201481" lon="-72.57453496">
    <tag k="addr:city" v="Athens"/>
    <tag k="addr:housenumber" v="193"/>
    <tag k="addr:street" v="Route 35"/>
    <tag k="addr:state" v="VT"/>
    <tag k="ref:vcgi:esiteid" v="5052"/>
  </node>
  <node id="-155" visible="true" lat="43.12166607" lon="-72.59655198">
    <tag k="addr:city" v="Athens"/>
    <tag k="addr:housenumber" v="20"/>
    <tag k="addr:street" v="McKusker Road"/>
    <tag k="addr:state" v="VT"/>
    <tag k="ref:vcgi:esiteid" v="5053"/>
  </node>
  <node id="-156" visible="true" lat="43.12177151" lon="-72.57783418">
    <tag k="addr:city" v="Athens"/>
    <tag k="addr:housenumber" v="1"/>
    <tag k="addr:street" v="Meetinghouse Road"/>
    <tag k="addr:state" v="VT"/>
    <tag k="ref:vcgi:esiteid" v="5054"/>
  </node>
  <node id="-157" visible="true" lat="43.12158381" lon="-72.58728033">
    <tag k="addr:city" v="Athens"/>
    <tag k="addr:housenumber" v="50"/>
    <tag k="addr:street" v="Ernst Road"/>
    <tag k="addr:state" v="VT"/>
    <tag k="ref:vcgi:esiteid" v="5055"/>
  </node>
  <node id="-159" visible="true" lat="43.12141399" lon="-72.58839266">
    <tag k="addr:city" v="Athens"/>
    <tag k="addr:housenumber" v="24"/>
    <tag k="addr:street" v="Reed Road"/>
    <tag k="addr:state" v="VT"/>
    <tag k="ref:vcgi:esiteid" v="5057"/>
  </node>
  <node id="-160" visible="true" lat="43.12122722" lon="-72.58570072">
    <tag k="addr:city" v="Athens"/>
    <tag k="addr:housenumber" v="42"/>
    <tag k="addr:street" v="Ernst Road"/>
    <tag k="addr:state" v="VT"/>
    <tag k="ref:vcgi:esiteid" v="5058"/>
  </node>
  <node id="-161" visible="true" lat="43.12132761" lon="-72.57817008">
    <tag k="addr:city" v="Athens"/>
    <tag k="addr:housenumber" v="209"/>
    <tag k="addr:street" v="Route 35"/>
    <tag k="addr:state" v="VT"/>
    <tag k="ref:vcgi:esiteid" v="5059"/>
  </node>
  <node id="-164" visible="true" lat="43.12031359" lon="-72.5830447">
    <tag k="addr:city" v="Athens"/>
    <tag k="addr:housenumber" v="26"/>
    <tag k="addr:street" v="Ernst Road"/>
    <tag k="addr:state" v="VT"/>
    <tag k="ref:vcgi:esiteid" v="5062"/>
  </node>
  <node id="-165" visible="true" lat="43.12035348" lon="-72.57558894">
    <tag k="addr:city" v="Athens"/>
    <tag k="addr:housenumber" v="38"/>
    <tag k="addr:street" v="Mill Hill"/>
    <tag k="addr:state" v="VT"/>
    <tag k="ref:vcgi:esiteid" v="5063"/>
  </node>
  <node id="-166" visible="true" lat="43.12005223" lon="-72.5764584">
    <tag k="addr:city" v="Athens"/>
    <tag k="addr:housenumber" v="37"/>
    <tag k="addr:street" v="Mill Hill"/>
    <tag k="addr:state" v="VT"/>
    <tag k="ref:vcgi:esiteid" v="5064"/>
  </node>
  <node id="-167" visible="true" lat="43.11963725" lon="-72.61682939">
    <tag k="addr:city" v="Athens"/>
    <tag k="addr:housenumber" v="60"/>
    <tag k="addr:street" v="Herring Hill Road"/>
    <tag k="addr:state" v="VT"/>
    <tag k="ref:vcgi:esiteid" v="5065"/>
  </node>
  <node id="-170" visible="true" lat="43.11839755" lon="-72.61789627">
    <tag k="addr:city" v="Athens"/>
    <tag k="addr:housenumber" v="53"/>
    <tag k="addr:street" v="Herring Hill Road"/>
    <tag k="addr:state" v="VT"/>
    <tag k="ref:vcgi:esiteid" v="5068"/>
  </node>
  <node id="-172" visible="true" lat="43.11753255" lon="-72.56360278">
    <tag k="addr:city" v="Athens"/>
    <tag k="addr:housenumber" v="41"/>
    <tag k="addr:street" v="Miller Road"/>
    <tag k="addr:state" v="VT"/>
    <tag k="ref:vcgi:esiteid" v="5070"/>
  </node>
  <node id="-177" visible="true" lat="43.11702911" lon="-72.5887449">
    <tag k="addr:city" v="Athens"/>
    <tag k="addr:housenumber" v="55"/>
    <tag k="addr:street" v="Reed Road"/>
    <tag k="addr:state" v="VT"/>
    <tag k="ref:vcgi:esiteid" v="5075"/>
  </node>
  <node id="-179" visible="true" lat="43.11673635" lon="-72.57082597">
    <tag k="addr:city" v="Athens"/>
    <tag k="addr:housenumber" v="1"/>
    <tag k="addr:street" v="Miller Road"/>
    <tag k="addr:state" v="VT"/>
    <tag k="ref:vcgi:esiteid" v="5077"/>
  </node>
  <node id="-180" visible="true" lat="43.11673939" lon="-72.56581419">
    <tag k="addr:city" v="Athens"/>
    <tag k="addr:housenumber" v="21"/>
    <tag k="addr:street" v="Miller Road"/>
    <tag k="addr:state" v="VT"/>
    <tag k="ref:vcgi:esiteid" v="5078"/>
  </node>
  <node id="-184" visible="true" lat="43.11650303" lon="-72.56756652">
    <tag k="addr:city" v="Athens"/>
    <tag k="addr:housenumber" v="19"/>
    <tag k="addr:street" v="Miller Road"/>
    <tag k="addr:state" v="VT"/>
    <tag k="ref:vcgi:esiteid" v="5082"/>
  </node>
  <node id="-185" visible="true" lat="43.11624961" lon="-72.5708211">
    <tag k="addr:city" v="Athens"/>
    <tag k="addr:housenumber" v="121"/>
    <tag k="addr:street" v="Brookline Road"/>
    <tag k="addr:state" v="VT"/>
    <tag k="ref:vcgi:esiteid" v="5083"/>
  </node>
  <node id="-187" visible="true" lat="43.11615929" lon="-72.57423418">
    <tag k="addr:city" v="Athens"/>
    <tag k="addr:housenumber" v="13"/>
    <tag k="addr:street" v="Taylor Hill"/>
    <tag k="addr:state" v="VT"/>
    <tag k="ref:vcgi:esiteid" v="5085"/>
  </node>
  <node id="-189" visible="true" lat="43.11604676" lon="-72.56243265">
    <tag k="addr:city" v="Athens"/>
    <tag k="addr:housenumber" v="45"/>
    <tag k="addr:street" v="Miller Road"/>
    <tag k="addr:state" v="VT"/>
    <tag k="ref:vcgi:esiteid" v="5087"/>
  </node>
  <node id="-190" visible="true" lat="43.11562499" lon="-72.57192264">
    <tag k="addr:city" v="Athens"/>
    <tag k="addr:housenumber" v="126"/>
    <tag k="addr:street" v="Brookline Road"/>
    <tag k="addr:state" v="VT"/>
    <tag k="ref:vcgi:esiteid" v="5088"/>
  </node>
  <node id="-191" visible="true" lat="43.11552621" lon="-72.57611616">
    <tag k="addr:city" v="Athens"/>
    <tag k="addr:housenumber" v="28"/>
    <tag k="addr:street" v="Taylor Hill"/>
    <tag k="addr:state" v="VT"/>
    <tag k="ref:vcgi:esiteid" v="5089"/>
  </node>
  <node id="-192" visible="true" lat="43.1152831" lon="-72.57255704">
    <tag k="addr:city" v="Athens"/>
    <tag k="addr:housenumber" v="128"/>
    <tag k="addr:street" v="Brookline Road"/>
    <tag k="addr:state" v="VT"/>
    <tag k="ref:vcgi:esiteid" v="5090"/>
  </node>
  <node id="-193" visible="true" lat="43.11503511" lon="-72.57631387">
    <tag k="addr:city" v="Athens"/>
    <tag k="addr:housenumber" v="34"/>
    <tag k="addr:street" v="Taylor Hill"/>
    <tag k="addr:state" v="VT"/>
    <tag k="ref:vcgi:esiteid" v="5091"/>
  </node>
  <node id="-194" visible="true" lat="43.11474814" lon="-72.58999529">
    <tag k="addr:city" v="Athens"/>
    <tag k="addr:housenumber" v="73"/>
    <tag k="addr:street" v="Reed Road"/>
    <tag k="addr:state" v="VT"/>
    <tag k="ref:vcgi:esiteid" v="5092"/>
  </node>
  <node id="-195" visible="true" lat="43.11476058" lon="-72.61227558">
    <tag k="addr:city" v="Athens"/>
    <tag k="addr:housenumber" v="1"/>
    <tag k="addr:street" v="Herring Hill Road"/>
    <tag k="addr:state" v="VT"/>
    <tag k="ref:vcgi:esiteid" v="5093"/>
  </node>
  <node id="-196" visible="true" lat="43.11427984" lon="-72.57585989">
    <tag k="addr:city" v="Athens"/>
    <tag k="addr:housenumber" v="33"/>
    <tag k="addr:street" v="Taylor Hill"/>
    <tag k="addr:state" v="VT"/>
    <tag k="ref:vcgi:esiteid" v="5094"/>
  </node>
  <node id="-197" visible="true" lat="43.11408418" lon="-72.59678156">
    <tag k="addr:city" v="Athens"/>
    <tag k="addr:housenumber" v="102"/>
    <tag k="addr:street" v="Reed Road"/>
    <tag k="addr:state" v="VT"/>
    <tag k="ref:vcgi:esiteid" v="5095"/>
  </node>
  <node id="-198" visible="true" lat="43.11365211" lon="-72.5990721">
    <tag k="addr:city" v="Athens"/>
    <tag k="addr:housenumber" v="116"/>
    <tag k="addr:street" v="Reed Road"/>
    <tag k="addr:state" v="VT"/>
    <tag k="ref:vcgi:esiteid" v="5097"/>
  </node>
  <node id="-199" visible="true" lat="43.11344049" lon="-72.60398658">
    <tag k="addr:city" v="Athens"/>
    <tag k="addr:housenumber" v="144"/>
    <tag k="addr:street" v="Reed Road"/>
    <tag k="addr:state" v="VT"/>
    <tag k="ref:vcgi:esiteid" v="5098"/>
  </node>
  <node id="-200" visible="true" lat="43.11332552" lon="-72.57132064">
    <tag k="addr:city" v="Athens"/>
    <tag k="addr:housenumber" v="141"/>
    <tag k="addr:street" v="Brookline Road"/>
    <tag k="addr:state" v="VT"/>
    <tag k="ref:vcgi:esiteid" v="5099"/>
  </node>
  <node id="-201" visible="true" lat="43.11332836" lon="-72.57811962">
    <tag k="addr:city" v="Athens"/>
    <tag k="addr:housenumber" v="43"/>
    <tag k="addr:street" v="Taylor Hill"/>
    <tag k="addr:state" v="VT"/>
    <tag k="ref:vcgi:esiteid" v="5100"/>
  </node>
  <node id="-202" visible="true" lat="43.11324672" lon="-72.6000866">
    <tag k="addr:city" v="Athens"/>
    <tag k="addr:housenumber" v="126"/>
    <tag k="addr:street" v="Reed Road"/>
    <tag k="addr:state" v="VT"/>
    <tag k="ref:vcgi:esiteid" v="5101"/>
  </node>
  <node id="-203" visible="true" lat="43.11313044" lon="-72.59835462">
    <tag k="addr:city" v="Athens"/>
    <tag k="addr:housenumber" v="115"/>
    <tag k="addr:street" v="Reed Road"/>
    <tag k="addr:state" v="VT"/>
    <tag k="ref:vcgi:esiteid" v="5102"/>
  </node>
  <node id="-204" visible="true" lat="43.11304744" lon="-72.57186555">
    <tag k="addr:city" v="Athens"/>
    <tag k="addr:housenumber" v="2"/>
    <tag k="addr:street" v="M And M Farm Road"/>
    <tag k="addr:state" v="VT"/>
    <tag k="ref:vcgi:esiteid" v="5103"/>
  </node>
  <node id="-205" visible="true" lat="43.11271718" lon="-72.5724562">
    <tag k="addr:city" v="Athens"/>
    <tag k="addr:housenumber" v="3"/>
    <tag k="addr:street" v="M And M Farm Road"/>
    <tag k="addr:state" v="VT"/>
    <tag k="ref:vcgi:esiteid" v="5104"/>
  </node>
  <node id="-206" visible="true" lat="43.11280339" lon="-72.60478644">
    <tag k="addr:city" v="Athens"/>
    <tag k="addr:housenumber" v="148"/>
    <tag k="addr:street" v="Reed Road"/>
    <tag k="addr:state" v="VT"/>
    <tag k="ref:vcgi:esiteid" v="5105"/>
  </node>
  <node id="-207" visible="true" lat="43.11256046" lon="-72.61535876">
    <tag k="addr:city" v="Athens"/>
    <tag k="addr:housenumber" v="434"/>
    <tag k="addr:street" v="Route 35"/>
    <tag k="addr:state" v="VT"/>
    <tag k="ref:vcgi:esiteid" v="5106"/>
  </node>
  <node id="-208" visible="true" lat="43.11250728" lon="-72.57192484">
    <tag k="addr:city" v="Athens"/>
    <tag k="addr:housenumber" v="1"/>
    <tag k="addr:street" v="M And M Farm Road"/>
    <tag k="addr:state" v="VT"/>
    <tag k="ref:vcgi:esiteid" v="5107"/>
  </node>
  <node id="-209" visible="true" lat="43.11246992" lon="-72.60318841">
    <tag k="addr:city" v="Athens"/>
    <tag k="addr:housenumber" v="142"/>
    <tag k="addr:street" v="Reed Road"/>
    <tag k="addr:state" v="VT"/>
    <tag k="ref:vcgi:esiteid" v="5108"/>
  </node>
  <node id="-210" visible="true" lat="43.11221969" lon="-72.60164986">
    <tag k="addr:city" v="Athens"/>
    <tag k="addr:housenumber" v="140"/>
    <tag k="addr:street" v="Reed Road"/>
    <tag k="addr:state" v="VT"/>
    <tag k="ref:vcgi:esiteid" v="5109"/>
  </node>
  <node id="-211" visible="true" lat="43.11217282" lon="-72.60526592">
    <tag k="addr:city" v="Athens"/>
    <tag k="addr:housenumber" v="154"/>
    <tag k="addr:street" v="Reed Road"/>
    <tag k="addr:state" v="VT"/>
    <tag k="ref:vcgi:esiteid" v="5110"/>
  </node>
  <node id="-212" visible="true" lat="43.11194858" lon="-72.57137238">
    <tag k="addr:city" v="Athens"/>
    <tag k="addr:housenumber" v="152"/>
    <tag k="addr:street" v="Brookline Road"/>
    <tag k="addr:state" v="VT"/>
    <tag k="ref:vcgi:esiteid" v="5111"/>
  </node>
  <node id="-213" visible="true" lat="43.11172623" lon="-72.57142111">
    <tag k="addr:city" v="Athens"/>
    <tag k="addr:housenumber" v="153"/>
    <tag k="addr:street" v="Brookline Road"/>
    <tag k="addr:state" v="VT"/>
    <tag k="ref:vcgi:esiteid" v="5112"/>
  </node>
  <node id="-214" visible="true" lat="43.11148356" lon="-72.60741704">
    <tag k="addr:city" v="Athens"/>
    <tag k="addr:housenumber" v="164"/>
    <tag k="addr:street" v="Reed Road"/>
    <tag k="addr:state" v="VT"/>
    <tag k="ref:vcgi:esiteid" v="5113"/>
  </node>
  <node id="-215" visible="true" lat="43.11149797" lon="-72.5714759">
    <tag k="addr:city" v="Athens"/>
    <tag k="addr:housenumber" v="154"/>
    <tag k="addr:street" v="Brookline Road"/>
    <tag k="addr:state" v="VT"/>
    <tag k="ref:vcgi:esiteid" v="5114"/>
  </node>
  <node id="-216" visible="true" lat="43.11129913" lon="-72.57157038">
    <tag k="addr:city" v="Athens"/>
    <tag k="addr:housenumber" v="155"/>
    <tag k="addr:street" v="Brookline Road"/>
    <tag k="addr:state" v="VT"/>
    <tag k="ref:vcgi:esiteid" v="5115"/>
  </node>
  <node id="-218" visible="true" lat="43.11095449" lon="-72.60554937">
    <tag k="addr:city" v="Athens"/>
    <tag k="addr:housenumber" v="155"/>
    <tag k="addr:street" v="Reed Road"/>
    <tag k="addr:state" v="VT"/>
    <tag k="ref:vcgi:esiteid" v="5117"/>
  </node>
  <node id="-219" visible="true" lat="43.11048926" lon="-72.57147379">
    <tag k="addr:city" v="Athens"/>
    <tag k="addr:housenumber" v="157"/>
    <tag k="addr:street" v="Brookline Road"/>
    <tag k="addr:state" v="VT"/>
    <tag k="ref:vcgi:esiteid" v="5118"/>
  </node>
  <node id="-220" visible="true" lat="43.11037235" lon="-72.60152303">
    <tag k="addr:city" v="Athens"/>
    <tag k="addr:housenumber" v="131"/>
    <tag k="addr:street" v="Reed Road"/>
    <tag k="addr:state" v="VT"/>
    <tag k="ref:vcgi:esiteid" v="5119"/>
  </node>
  <node id="-221" visible="true" lat="43.11016516" lon="-72.57193367">
    <tag k="addr:city" v="Athens"/>
    <tag k="addr:housenumber" v="163"/>
    <tag k="addr:street" v="Brookline Road"/>
    <tag k="addr:state" v="VT"/>
    <tag k="ref:vcgi:esiteid" v="5120"/>
  </node>
  <node id="-222" visible="true" lat="43.11010152" lon="-72.60827698">
    <tag k="addr:city" v="Athens"/>
    <tag k="addr:housenumber" v="171"/>
    <tag k="addr:street" v="Reed Road"/>
    <tag k="addr:state" v="VT"/>
    <tag k="ref:vcgi:esiteid" v="5121"/>
  </node>
  <node id="-223" visible="true" lat="43.10986839" lon="-72.5732727">
    <tag k="addr:city" v="Athens"/>
    <tag k="addr:housenumber" v="3"/>
    <tag k="addr:street" v="Trinity Drive"/>
    <tag k="addr:state" v="VT"/>
    <tag k="ref:vcgi:esiteid" v="5122"/>
  </node>
  <node id="-224" visible="true" lat="43.11005099" lon="-72.60684312">
    <tag k="addr:city" v="Athens"/>
    <tag k="addr:housenumber" v="9"/>
    <tag k="addr:street" v="Christian Road"/>
    <tag k="addr:state" v="VT"/>
    <tag k="ref:vcgi:esiteid" v="5123"/>
  </node>
  <node id="-225" visible="true" lat="43.11006124" lon="-72.56939763">
    <tag k="addr:city" v="Athens"/>
    <tag k="addr:housenumber" v="161"/>
    <tag k="addr:street" v="Brookline Road"/>
    <tag k="addr:state" v="VT"/>
    <tag k="ref:vcgi:esiteid" v="5124"/>
  </node>
  <node id="-226" visible="true" lat="43.10981292" lon="-72.5716421">
    <tag k="addr:city" v="Athens"/>
    <tag k="addr:housenumber" v="5"/>
    <tag k="addr:street" v="Tenneyville Drive"/>
    <tag k="addr:state" v="VT"/>
    <tag k="ref:vcgi:esiteid" v="5125"/>
  </node>
  <node id="-227" visible="true" lat="43.10985571" lon="-72.57194932">
    <tag k="addr:city" v="Athens"/>
    <tag k="addr:housenumber" v="1"/>
    <tag k="addr:street" v="Tenneyville Drive"/>
    <tag k="addr:state" v="VT"/>
    <tag k="ref:vcgi:esiteid" v="5126"/>
  </node>
  <node id="-228" visible="true" lat="43.10980545" lon="-72.57145918">
    <tag k="addr:city" v="Athens"/>
    <tag k="addr:housenumber" v="7"/>
    <tag k="addr:street" v="Tenneyville Drive"/>
    <tag k="addr:state" v="VT"/>
    <tag k="ref:vcgi:esiteid" v="5127"/>
  </node>
  <node id="-229" visible="true" lat="43.10938999" lon="-72.57139973">
    <tag k="addr:city" v="Athens"/>
    <tag k="addr:housenumber" v="6"/>
    <tag k="addr:street" v="Tenneyville Drive"/>
    <tag k="addr:state" v="VT"/>
    <tag k="ref:vcgi:esiteid" v="5128"/>
  </node>
  <node id="-230" visible="true" lat="43.10953089" lon="-72.57344618">
    <tag k="addr:city" v="Athens"/>
    <tag k="addr:housenumber" v="1"/>
    <tag k="addr:street" v="Trinity Drive"/>
    <tag k="addr:state" v="VT"/>
    <tag k="ref:vcgi:esiteid" v="5129"/>
  </node>
  <node id="-231" visible="true" lat="43.10949974" lon="-72.57211635">
    <tag k="addr:city" v="Athens"/>
    <tag k="addr:housenumber" v="2"/>
    <tag k="addr:street" v="Tenneyville Drive"/>
    <tag k="addr:state" v="VT"/>
    <tag k="ref:vcgi:esiteid" v="5130"/>
  </node>
  <node id="-232" visible="true" lat="43.10915893" lon="-72.5733496">
    <tag k="addr:city" v="Athens"/>
    <tag k="addr:housenumber" v="174"/>
    <tag k="addr:street" v="Brookline Road"/>
    <tag k="addr:state" v="VT"/>
    <tag k="ref:vcgi:esiteid" v="5131"/>
  </node>
  <node id="-233" visible="true" lat="43.10908874" lon="-72.57181974">
    <tag k="addr:city" v="Athens"/>
    <tag k="addr:housenumber" v="171"/>
    <tag k="addr:street" v="Brookline Road"/>
    <tag k="addr:state" v="VT"/>
    <tag k="ref:vcgi:esiteid" v="5132"/>
  </node>
  <node id="-234" visible="true" lat="43.10899432" lon="-72.57385544">
    <tag k="addr:city" v="Athens"/>
    <tag k="addr:housenumber" v="178"/>
    <tag k="addr:street" v="Brookline Road"/>
    <tag k="addr:state" v="VT"/>
    <tag k="ref:vcgi:esiteid" v="5133"/>
  </node>
  <node id="-235" visible="true" lat="43.10871576" lon="-72.5725207">
    <tag k="addr:city" v="Athens"/>
    <tag k="addr:housenumber" v="3"/>
    <tag k="addr:street" v="Valley Cemetery Road"/>
    <tag k="addr:state" v="VT"/>
    <tag k="ref:vcgi:esiteid" v="5134"/>
  </node>
  <node id="-236" visible="true" lat="43.10854169" lon="-72.57452476">
    <tag k="addr:city" v="Athens"/>
    <tag k="addr:housenumber" v="182"/>
    <tag k="addr:street" v="Brookline Road"/>
    <tag k="addr:state" v="VT"/>
    <tag k="ref:vcgi:esiteid" v="5135"/>
  </node>
  <node id="-237" visible="true" lat="43.10831145" lon="-72.57280242">
    <tag k="addr:city" v="Athens"/>
    <tag k="addr:housenumber" v="1"/>
    <tag k="addr:street" v="Valley Cemetery Road"/>
    <tag k="addr:state" v="VT"/>
    <tag k="ref:vcgi:esiteid" v="5136"/>
  </node>
  <node id="-238" visible="true" lat="43.10835161" lon="-72.57362945">
    <tag k="addr:city" v="Athens"/>
    <tag k="addr:housenumber" v="179"/>
    <tag k="addr:street" v="Brookline Road"/>
    <tag k="addr:state" v="VT"/>
    <tag k="ref:vcgi:esiteid" v="5137"/>
  </node>
  <node id="-239" visible="true" lat="43.10520708" lon="-72.57436435">
    <tag k="addr:city" v="Athens"/>
    <tag k="addr:housenumber" v="25"/>
    <tag k="addr:street" v="Valley Cemetery Road"/>
    <tag k="addr:state" v="VT"/>
    <tag k="ref:vcgi:esiteid" v="5138"/>
  </node>
  <node id="-240" visible="true" lat="43.10452647" lon="-72.57957536">
    <tag k="addr:city" v="Athens"/>
    <tag k="addr:housenumber" v="220"/>
    <tag k="addr:street" v="Brookline Road"/>
    <tag k="addr:state" v="VT"/>
    <tag k="ref:vcgi:esiteid" v="5139"/>
  </node>
  <node id="-241" visible="true" lat="43.10437656" lon="-72.57435672">
    <tag k="addr:city" v="Athens"/>
    <tag k="addr:housenumber" v="29"/>
    <tag k="addr:street" v="Valley Cemetery Road"/>
    <tag k="addr:state" v="VT"/>
    <tag k="ref:vcgi:esiteid" v="5140"/>
  </node>
  <node id="-242" visible="true" lat="43.10352469" lon="-72.58062814">
    <tag k="addr:city" v="Athens"/>
    <tag k="addr:housenumber" v="229"/>
    <tag k="addr:street" v="Brookline Road"/>
    <tag k="addr:state" v="VT"/>
    <tag k="ref:vcgi:esiteid" v="5141"/>
  </node>
  <node id="-243" visible="true" lat="43.10247985" lon="-72.57662699">
    <tag k="addr:city" v="Athens"/>
    <tag k="addr:housenumber" v="48"/>
    <tag k="addr:street" v="Valley Cemetery Road"/>
    <tag k="addr:state" v="VT"/>
    <tag k="ref:vcgi:esiteid" v="5142"/>
  </node>
  <node id="-244" visible="true" lat="43.10242787" lon="-72.58149775">
    <tag k="addr:city" v="Athens"/>
    <tag k="addr:housenumber" v="238"/>
    <tag k="addr:street" v="Brookline Road"/>
    <tag k="addr:state" v="VT"/>
    <tag k="ref:vcgi:esiteid" v="5143"/>
  </node>
  <node id="-245" visible="true" lat="43.10168807" lon="-72.5750433">
    <tag k="addr:city" v="Athens"/>
    <tag k="addr:housenumber" v="53"/>
    <tag k="addr:street" v="Valley Cemetery Road"/>
    <tag k="addr:state" v="VT"/>
    <tag k="ref:vcgi:esiteid" v="5144"/>
  </node>
  <node id="-246" visible="true" lat="43.10140589" lon="-72.58292547">
    <tag k="addr:city" v="Athens"/>
    <tag k="addr:housenumber" v="248"/>
    <tag k="addr:street" v="Brookline Road"/>
    <tag k="addr:state" v="VT"/>
    <tag k="ref:vcgi:esiteid" v="5145"/>
  </node>
  <node id="-247" visible="true" lat="43.10039648" lon="-72.57475444">
    <tag k="addr:city" v="Athens"/>
    <tag k="addr:housenumber" v="62"/>
    <tag k="addr:street" v="Valley Cemetery Road"/>
    <tag k="addr:state" v="VT"/>
    <tag k="ref:vcgi:esiteid" v="5146"/>
  </node>
  <node id="-248" visible="true" lat="43.10045604" lon="-72.58304608">
    <tag k="addr:city" v="Athens"/>
    <tag k="addr:housenumber" v="250"/>
    <tag k="addr:street" v="Brookline Road"/>
    <tag k="addr:state" v="VT"/>
    <tag k="ref:vcgi:esiteid" v="5147"/>
  </node>
  <node id="-249" visible="true" lat="43.10020431" lon="-72.57434558">
    <tag k="addr:city" v="Athens"/>
    <tag k="addr:housenumber" v="65"/>
    <tag k="addr:street" v="Valley Cemetery Road"/>
    <tag k="addr:state" v="VT"/>
    <tag k="ref:vcgi:esiteid" v="5148"/>
  </node>
  <node id="-250" visible="true" lat="43.09998153" lon="-72.58165121">
    <tag k="addr:city" v="Athens"/>
    <tag k="addr:housenumber" v="259"/>
    <tag k="addr:street" v="Brookline Road"/>
    <tag k="addr:state" v="VT"/>
    <tag k="ref:vcgi:esiteid" v="5149"/>
  </node>
  <node id="-251" visible="true" lat="43.09986644" lon="-72.58285765">
    <tag k="addr:city" v="Athens"/>
    <tag k="addr:housenumber" v="256"/>
    <tag k="addr:street" v="Brookline Road"/>
    <tag k="addr:state" v="VT"/>
    <tag k="ref:vcgi:esiteid" v="5150"/>
  </node>
  <node id="-252" visible="true" lat="43.0994022" lon="-72.57548443">
    <tag k="addr:city" v="Athens"/>
    <tag k="addr:housenumber" v="72"/>
    <tag k="addr:street" v="Valley Cemetery Road"/>
    <tag k="addr:state" v="VT"/>
    <tag k="ref:vcgi:esiteid" v="5151"/>
  </node>
  <node id="-253" visible="true" lat="43.09917692" lon="-72.57176149">
    <tag k="addr:city" v="Athens"/>
    <tag k="addr:housenumber" v="3"/>
    <tag k="addr:street" v="Old County Road"/>
    <tag k="addr:state" v="VT"/>
    <tag k="ref:vcgi:esiteid" v="5152"/>
  </node>
  <node id="-254" visible="true" lat="43.09829548" lon="-72.57544079">
    <tag k="addr:city" v="Athens"/>
    <tag k="addr:housenumber" v="76"/>
    <tag k="addr:street" v="Valley Cemetery Road"/>
    <tag k="addr:state" v="VT"/>
    <tag k="ref:vcgi:esiteid" v="5153"/>
  </node>
  <node id="-255" visible="true" lat="43.09854982" lon="-72.57438133">
    <tag k="addr:city" v="Athens"/>
    <tag k="addr:housenumber" v="71"/>
    <tag k="addr:street" v="Valley Cemetery Road"/>
    <tag k="addr:state" v="VT"/>
    <tag k="ref:vcgi:esiteid" v="5154"/>
  </node>
  <node id="-256" visible="true" lat="43.09813864" lon="-72.58222039">
    <tag k="addr:city" v="Athens"/>
    <tag k="addr:housenumber" v="267"/>
    <tag k="addr:street" v="Brookline Road"/>
    <tag k="addr:state" v="VT"/>
    <tag k="ref:vcgi:esiteid" v="5155"/>
  </node>
  <node id="-257" visible="true" lat="43.09767147" lon="-72.57581656">
    <tag k="addr:city" v="Athens"/>
    <tag k="addr:housenumber" v="82"/>
    <tag k="addr:street" v="Valley Cemetery Road"/>
    <tag k="addr:state" v="VT"/>
    <tag k="ref:vcgi:esiteid" v="5156"/>
  </node>
  <node id="-258" visible="true" lat="43.09599897" lon="-72.57512136">
    <tag k="addr:city" v="Athens"/>
    <tag k="addr:housenumber" v="95"/>
    <tag k="addr:street" v="Valley Cemetery Road"/>
    <tag k="addr:state" v="VT"/>
    <tag k="ref:vcgi:esiteid" v="5157"/>
  </node>
  <node id="-259" visible="true" lat="43.09591535" lon="-72.57652905">
    <tag k="addr:city" v="Athens"/>
    <tag k="addr:housenumber" v="92"/>
    <tag k="addr:street" v="Valley Cemetery Road"/>
    <tag k="addr:state" v="VT"/>
    <tag k="ref:vcgi:esiteid" v="5158"/>
  </node>
  <node id="-260" visible="true" lat="43.09586317" lon="-72.5830545">
    <tag k="addr:city" v="Athens"/>
    <tag k="addr:housenumber" v="284"/>
    <tag k="addr:street" v="Brookline Road"/>
    <tag k="addr:state" v="VT"/>
    <tag k="ref:vcgi:esiteid" v="5159"/>
  </node>
  <node id="-261" visible="true" lat="43.09568533" lon="-72.58282977">
    <tag k="addr:city" v="Athens"/>
    <tag k="addr:housenumber" v="285"/>
    <tag k="addr:street" v="Brookline Road"/>
    <tag k="addr:state" v="VT"/>
    <tag k="ref:vcgi:esiteid" v="5160"/>
  </node>
  <node id="-262" visible="true" lat="43.09551453" lon="-72.58334789">
    <tag k="addr:city" v="Athens"/>
    <tag k="addr:housenumber" v="286"/>
    <tag k="addr:street" v="Brookline Road"/>
    <tag k="addr:state" v="VT"/>
    <tag k="ref:vcgi:esiteid" v="5161"/>
  </node>
  <node id="-263" visible="true" lat="43.09458463" lon="-72.57558254">
    <tag k="addr:city" v="Athens"/>
    <tag k="addr:housenumber" v="105"/>
    <tag k="addr:street" v="Valley Cemetery Road"/>
    <tag k="addr:state" v="VT"/>
    <tag k="ref:vcgi:esiteid" v="5162"/>
  </node>
  <node id="-264" visible="true" lat="43.09413748" lon="-72.5861707">
    <tag k="addr:city" v="Athens"/>
    <tag k="addr:housenumber" v="18"/>
    <tag k="addr:street" v="Sam Farr Road"/>
    <tag k="addr:state" v="VT"/>
    <tag k="ref:vcgi:esiteid" v="5163"/>
  </node>
  <node id="-265" visible="true" lat="43.09402377" lon="-72.58231361">
    <tag k="addr:city" v="Athens"/>
    <tag k="addr:housenumber" v="297"/>
    <tag k="addr:street" v="Brookline Road"/>
    <tag k="addr:state" v="VT"/>
    <tag k="ref:vcgi:esiteid" v="5164"/>
  </node>
  <node id="-266" visible="true" lat="43.09337492" lon="-72.57534256">
    <tag k="addr:city" v="Athens"/>
    <tag k="addr:housenumber" v="115"/>
    <tag k="addr:street" v="Valley Cemetery Road"/>
    <tag k="addr:state" v="VT"/>
    <tag k="ref:vcgi:esiteid" v="5165"/>
  </node>
  <node id="-267" visible="true" lat="43.09344088" lon="-72.58198678">
    <tag k="addr:city" v="Athens"/>
    <tag k="addr:housenumber" v="302"/>
    <tag k="addr:street" v="Brookline Road"/>
    <tag k="addr:state" v="VT"/>
    <tag k="ref:vcgi:esiteid" v="5166"/>
  </node>
  <node id="-268" visible="true" lat="43.0932959" lon="-72.58192577">
    <tag k="addr:city" v="Athens"/>
    <tag k="addr:housenumber" v="304"/>
    <tag k="addr:street" v="Brookline Road"/>
    <tag k="addr:state" v="VT"/>
    <tag k="ref:vcgi:esiteid" v="5167"/>
  </node>
  <node id="-269" visible="true" lat="43.0927051" lon="-72.57595791">
    <tag k="addr:city" v="Athens"/>
    <tag k="addr:housenumber" v="118"/>
    <tag k="addr:street" v="Valley Cemetery Road"/>
    <tag k="addr:state" v="VT"/>
    <tag k="ref:vcgi:esiteid" v="5168"/>
  </node>
  <node id="-270" visible="true" lat="43.09213029" lon="-72.57509057">
    <tag k="addr:city" v="Athens"/>
    <tag k="addr:housenumber" v="121"/>
    <tag k="addr:street" v="Valley Cemetery Road"/>
    <tag k="addr:state" v="VT"/>
    <tag k="ref:vcgi:esiteid" v="5169"/>
  </node>
  <node id="-271" visible="true" lat="43.09149396" lon="-72.57507032">
    <tag k="addr:city" v="Athens"/>
    <tag k="addr:housenumber" v="125"/>
    <tag k="addr:street" v="Valley Cemetery Road"/>
    <tag k="addr:state" v="VT"/>
    <tag k="ref:vcgi:esiteid" v="5170"/>
  </node>
  <node id="-272" visible="true" lat="43.09183066" lon="-72.58083202">
    <tag k="addr:city" v="Athens"/>
    <tag k="addr:housenumber" v="320"/>
    <tag k="addr:street" v="Brookline Road"/>
    <tag k="addr:state" v="VT"/>
    <tag k="ref:vcgi:esiteid" v="5171"/>
  </node>
  <node id="-273" visible="true" lat="43.09148343" lon="-72.57588553">
    <tag k="addr:city" v="Athens"/>
    <tag k="addr:housenumber" v="124"/>
    <tag k="addr:street" v="Valley Cemetery Road"/>
    <tag k="addr:state" v="VT"/>
    <tag k="ref:vcgi:esiteid" v="5172"/>
  </node>
  <node id="-274" visible="true" lat="43.09143168" lon="-72.57458634">
    <tag k="addr:city" v="Athens"/>
    <tag k="addr:housenumber" v="127"/>
    <tag k="addr:street" v="Valley Cemetery Road"/>
    <tag k="addr:state" v="VT"/>
    <tag k="ref:vcgi:esiteid" v="5173"/>
  </node>
  <node id="-275" visible="true" lat="43.09094709" lon="-72.57493633">
    <tag k="addr:city" v="Athens"/>
    <tag k="addr:housenumber" v="131"/>
    <tag k="addr:street" v="Valley Cemetery Road"/>
    <tag k="addr:state" v="VT"/>
    <tag k="ref:vcgi:esiteid" v="5174"/>
  </node>
  <node id="-276" visible="true" lat="43.09068875" lon="-72.57464799">
    <tag k="addr:city" v="Athens"/>
    <tag k="addr:housenumber" v="133"/>
    <tag k="addr:street" v="Valley Cemetery Road"/>
    <tag k="addr:state" v="VT"/>
    <tag k="ref:vcgi:esiteid" v="5175"/>
  </node>
  <node id="-277" visible="true" lat="43.09070793" lon="-72.57432585">
    <tag k="addr:city" v="Athens"/>
    <tag k="addr:housenumber" v="135"/>
    <tag k="addr:street" v="Valley Cemetery Road"/>
    <tag k="addr:state" v="VT"/>
    <tag k="ref:vcgi:esiteid" v="5176"/>
  </node>
  <node id="-278" visible="true" lat="43.09061475" lon="-72.57787993">
    <tag k="addr:city" v="Athens"/>
    <tag k="addr:housenumber" v="138"/>
    <tag k="addr:street" v="Valley Cemetery Road"/>
    <tag k="addr:state" v="VT"/>
    <tag k="ref:vcgi:esiteid" v="5177"/>
  </node>
  <node id="-279" visible="true" lat="43.09034345" lon="-72.57483773">
    <tag k="addr:city" v="Athens"/>
    <tag k="addr:housenumber" v="137"/>
    <tag k="addr:street" v="Valley Cemetery Road"/>
    <tag k="addr:state" v="VT"/>
    <tag k="ref:vcgi:esiteid" v="5178"/>
  </node>
  <node id="-280" visible="true" lat="43.09025357" lon="-72.57938127">
    <tag k="addr:city" v="Athens"/>
    <tag k="addr:housenumber" v="328"/>
    <tag k="addr:street" v="Brookline Road"/>
    <tag k="addr:state" v="VT"/>
    <tag k="ref:vcgi:esiteid" v="5179"/>
  </node>
  <node id="-281" visible="true" lat="43.09011256" lon="-72.57581628">
    <tag k="addr:city" v="Athens"/>
    <tag k="addr:housenumber" v="139"/>
    <tag k="addr:street" v="Valley Cemetery Road"/>
    <tag k="addr:state" v="VT"/>
    <tag k="ref:vcgi:esiteid" v="5180"/>
  </node>
  <node id="-282" visible="true" lat="43.08970621" lon="-72.5790606">
    <tag k="addr:city" v="Athens"/>
    <tag k="addr:housenumber" v="330"/>
    <tag k="addr:street" v="Brookline Road"/>
    <tag k="addr:state" v="VT"/>
    <tag k="ref:vcgi:esiteid" v="5181"/>
  </node>
  <node id="-283" visible="true" lat="43.08920724" lon="-72.57670631">
    <tag k="addr:city" v="Athens"/>
    <tag k="addr:housenumber" v="146"/>
    <tag k="addr:street" v="Valley Cemetery Road"/>
    <tag k="addr:state" v="VT"/>
    <tag k="ref:vcgi:esiteid" v="5182"/>
  </node>
  <node id="-284" visible="true" lat="43.08846372" lon="-72.57869259">
    <tag k="addr:city" v="Athens"/>
    <tag k="addr:housenumber" v="340"/>
    <tag k="addr:street" v="Brookline Road"/>
    <tag k="addr:state" v="VT"/>
    <tag k="ref:vcgi:esiteid" v="5183"/>
  </node>
  <node id="-285" visible="true" lat="43.08838172" lon="-72.58394226">
    <tag k="addr:city" v="Athens"/>
    <tag k="addr:housenumber" v="39"/>
    <tag k="addr:street" v="Whitney Hill Road"/>
    <tag k="addr:state" v="VT"/>
    <tag k="ref:vcgi:esiteid" v="5184"/>
  </node>
  <node id="-286" visible="true" lat="43.08780976" lon="-72.57637661">
    <tag k="addr:city" v="Athens"/>
    <tag k="addr:housenumber" v="345"/>
    <tag k="addr:street" v="Brookline Road"/>
    <tag k="addr:state" v="VT"/>
    <tag k="ref:vcgi:esiteid" v="5185"/>
  </node>
  <node id="-287" visible="true" lat="43.08780761" lon="-72.57599654">
    <tag k="addr:city" v="Athens"/>
    <tag k="addr:housenumber" v="351"/>
    <tag k="addr:street" v="Brookline Road"/>
    <tag k="addr:state" v="VT"/>
    <tag k="ref:vcgi:esiteid" v="5186"/>
  </node>
  <node id="-288" visible="true" lat="43.08586862" lon="-72.57680324">
    <tag k="addr:city" v="Athens"/>
    <tag k="addr:housenumber" v="373"/>
    <tag k="addr:street" v="Brookline Road"/>
    <tag k="addr:state" v="VT"/>
    <tag k="ref:vcgi:esiteid" v="5187"/>
  </node>
  <node id="-289" visible="true" lat="43.08446539" lon="-72.57828097">
    <tag k="addr:city" v="Athens"/>
    <tag k="addr:housenumber" v="374"/>
    <tag k="addr:street" v="Brookline Road"/>
    <tag k="addr:state" v="VT"/>
    <tag k="ref:vcgi:esiteid" v="5188"/>
  </node>
  <node id="-290" visible="true" lat="43.08237788" lon="-72.57673736">
    <tag k="addr:city" v="Athens"/>
    <tag k="addr:housenumber" v="389"/>
    <tag k="addr:street" v="Brookline Road"/>
    <tag k="addr:state" v="VT"/>
    <tag k="ref:vcgi:esiteid" v="5189"/>
  </node>
  <node id="-291" visible="true" lat="43.07476993" lon="-72.58131982">
    <tag k="addr:city" v="Athens"/>
    <tag k="addr:housenumber" v="442"/>
    <tag k="addr:street" v="Brookline Road"/>
    <tag k="addr:state" v="VT"/>
    <tag k="ref:vcgi:esiteid" v="5190"/>
  </node>
  <node id="-292" visible="true" lat="43.07364441" lon="-72.58121002">
    <tag k="addr:city" v="Athens"/>
    <tag k="addr:housenumber" v="456"/>
    <tag k="addr:street" v="Brookline Road"/>
    <tag k="addr:state" v="VT"/>
    <tag k="ref:vcgi:esiteid" v="5191"/>
  </node>
  <node id="-293" visible="true" lat="43.07257191" lon="-72.58012089">
    <tag k="addr:city" v="Athens"/>
    <tag k="addr:housenumber" v="459"/>
    <tag k="addr:street" v="Brookline Road"/>
    <tag k="addr:state" v="VT"/>
    <tag k="ref:vcgi:esiteid" v="5192"/>
  </node>
  <node id="-294" visible="true" lat="43.10829552" lon="-72.60922893">
    <tag k="addr:city" v="Athens"/>
    <tag k="addr:housenumber" v="179"/>
    <tag k="addr:street" v="Reed Road"/>
    <tag k="addr:state" v="VT"/>
    <tag k="ref:vcgi:esiteid" v="5193"/>
  </node>
  <node id="-296" visible="true" lat="43.09515581" lon="-72.57466446">
    <tag k="addr:city" v="Athens"/>
    <tag k="addr:housenumber" v="103"/>
    <tag k="addr:street" v="Valley Cemetery Road"/>
    <tag k="addr:state" v="VT"/>
    <tag k="ref:vcgi:esiteid" v="5195"/>
  </node>
  <node id="-297" visible="true" lat="43.08883845" lon="-72.57645499">
    <tag k="addr:city" v="Athens"/>
    <tag k="addr:housenumber" v="147"/>
    <tag k="addr:street" v="Valley Cemetery Road"/>
    <tag k="addr:state" v="VT"/>
    <tag k="ref:vcgi:esiteid" v="5196"/>
  </node>
  <node id="-298" visible="true" lat="43.07498241" lon="-72.57975641">
    <tag k="addr:city" v="Athens"/>
    <tag k="addr:housenumber" v="431"/>
    <tag k="addr:street" v="Brookline Road"/>
    <tag k="addr:state" v="VT"/>
    <tag k="ref:vcgi:esiteid" v="5197"/>
  </node>
  <node id="-299" visible="true" lat="43.11023405" lon="-72.57259481">
    <tag k="addr:city" v="Athens"/>
    <tag k="addr:housenumber" v="5"/>
    <tag k="addr:street" v="Trinity Drive"/>
    <tag k="addr:state" v="VT"/>
    <tag k="ref:vcgi:esiteid" v="5200"/>
  </node>
  <node id="-300" visible="true" lat="43.11413702" lon="-72.57883435">
    <tag k="addr:city" v="Athens"/>
    <tag k="addr:housenumber" v="45"/>
    <tag k="addr:street" v="Taylor Hill"/>
    <tag k="addr:state" v="VT"/>
    <tag k="ref:vcgi:esiteid" v="5201"/>
  </node>
  <node id="-301" visible="true" lat="43.1168215" lon="-72.58074257">
    <tag k="addr:city" v="Athens"/>
    <tag k="addr:housenumber" v="52"/>
    <tag k="addr:street" v="Taylor Hill"/>
    <tag k="addr:state" v="VT"/>
    <tag k="ref:vcgi:esiteid" v="5202"/>
  </node>
  <node id="-302" visible="true" lat="43.11498708" lon="-72.58059757">
    <tag k="addr:city" v="Athens"/>
    <tag k="addr:housenumber" v="55"/>
    <tag k="addr:street" v="Taylor Hill"/>
    <tag k="addr:state" v="VT"/>
    <tag k="ref:vcgi:esiteid" v="5203"/>
  </node>
  <node id="-303" visible="true" lat="43.11561938" lon="-72.58186169">
    <tag k="addr:city" v="Athens"/>
    <tag k="addr:housenumber" v="57"/>
    <tag k="addr:street" v="Taylor Hill"/>
    <tag k="addr:state" v="VT"/>
    <tag k="ref:vcgi:esiteid" v="5204"/>
  </node>
  <node id="-304" visible="true" lat="43.10982546" lon="-72.57180433">
    <tag k="addr:city" v="Athens"/>
    <tag k="addr:housenumber" v="3"/>
    <tag k="addr:street" v="Tenneyville Drive"/>
    <tag k="addr:state" v="VT"/>
    <tag k="ref:vcgi:esiteid" v="5205"/>
  </node>
  <node id="-305" visible="true" lat="43.09015374" lon="-72.56898447">
    <tag k="addr:city" v="Athens"/>
    <tag k="addr:housenumber" v="30"/>
    <tag k="addr:street" v="Old County Road"/>
    <tag k="addr:state" v="VT"/>
    <tag k="ref:vcgi:esiteid" v="5208"/>
  </node>
  <node id="-306" visible="true" lat="43.11047457" lon="-72.57111926">
    <tag k="addr:city" v="Athens"/>
    <tag k="addr:housenumber" v="159"/>
    <tag k="addr:street" v="Brookline Road"/>
    <tag k="addr:state" v="VT"/>
    <tag k="ref:vcgi:esiteid" v="5209"/>
  </node>
  <node id="-307" visible="true" lat="43.11500026" lon="-72.57839802">
    <tag k="addr:city" v="Athens"/>
    <tag k="addr:housenumber" v="48"/>
    <tag k="addr:street" v="Taylor Hill"/>
    <tag k="addr:state" v="VT"/>
    <tag k="ref:vcgi:esiteid" v="5211"/>
  </node>
  <node id="-308" visible="true" lat="43.1262488" lon="-72.63903924">
    <tag k="addr:city" v="Athens"/>
    <tag k="addr:housenumber" v="3627"/>
    <tag k="addr:street" v="Townshend Road"/>
    <tag k="addr:state" v="VT"/>
    <tag k="ref:vcgi:esiteid" v="113202"/>
  </node>
  <node id="-309" visible="true" lat="43.08522207" lon="-72.56939152">
    <tag k="addr:city" v="Athens"/>
    <tag k="addr:housenumber" v="1964"/>
    <tag k="addr:street" v="Old Athens Road"/>
    <tag k="addr:state" v="VT"/>
    <tag k="ref:vcgi:esiteid" v="283081"/>
  </node>
  <node id="-310" visible="true" lat="43.09227312" lon="-72.58199051">
    <tag k="addr:city" v="Athens"/>
    <tag k="addr:housenumber" v="1"/>
    <tag k="addr:street" v="Whitney Hill Road"/>
    <tag k="addr:state" v="VT"/>
    <tag k="ref:vcgi:esiteid" v="317759"/>
  </node>
  <node id="-311" visible="true" lat="43.09412398" lon="-72.58341439">
    <tag k="addr:city" v="Athens"/>
    <tag k="addr:housenumber" v="2"/>
    <tag k="addr:street" v="Sam Farr Road"/>
    <tag k="addr:state" v="VT"/>
    <tag k="ref:vcgi:esiteid" v="329703"/>
  </node>
  <node id="-312" visible="true" lat="43.12279981" lon="-72.57921059">
    <tag k="addr:city" v="Athens"/>
    <tag k="addr:housenumber" v="5"/>
    <tag k="addr:street" v="Meetinghouse Road"/>
    <tag k="addr:state" v="VT"/>
    <tag k="ref:vcgi:esiteid" v="337039"/>
  </node>
  <node id="-313" visible="true" lat="43.1071308" lon="-72.57281611">
    <tag k="addr:city" v="Athens"/>
    <tag k="addr:housenumber" v="9"/>
    <tag k="addr:street" v="Valley Cemetery Road"/>
    <tag k="addr:state" v="VT"/>
    <tag k="ref:vcgi:esiteid" v="337040"/>
  </node>
  <node id="-314" visible="true" lat="43.10701349" lon="-72.57188277">
    <tag k="addr:city" v="Athens"/>
    <tag k="addr:housenumber" v="11"/>
    <tag k="addr:street" v="Valley Cemetery Road"/>
    <tag k="addr:state" v="VT"/>
    <tag k="ref:vcgi:esiteid" v="337041"/>
  </node>
  <node id="-315" visible="true" lat="43.11290183" lon="-72.60625271">
    <tag k="addr:city" v="Athens"/>
    <tag k="addr:housenumber" v="150"/>
    <tag k="addr:street" v="Reed Road"/>
    <tag k="addr:state" v="VT"/>
    <tag k="ref:vcgi:esiteid" v="337042"/>
  </node>
  <node id="-316" visible="true" lat="43.11363529" lon="-72.60680016">
    <tag k="addr:city" v="Athens"/>
    <tag k="addr:housenumber" v="152"/>
    <tag k="addr:street" v="Reed Road"/>
    <tag k="addr:state" v="VT"/>
    <tag k="ref:vcgi:esiteid" v="337043"/>
  </node>
  <node id="-317" visible="true" lat="43.12685808" lon="-72.60425446">
    <tag k="addr:city" v="Athens"/>
    <tag k="addr:housenumber" v="23"/>
    <tag k="addr:street" v="Walker Road"/>
    <tag k="addr:state" v="VT"/>
    <tag k="ref:vcgi:esiteid" v="337044"/>
  </node>
  <node id="-318" visible="true" lat="43.13314555" lon="-72.60284357">
    <tag k="addr:city" v="Athens"/>
    <tag k="addr:housenumber" v="79"/>
    <tag k="addr:street" v="Walker Road"/>
    <tag k="addr:state" v="VT"/>
    <tag k="ref:vcgi:esiteid" v="337045"/>
  </node>
  <node id="-319" visible="true" lat="43.13320792" lon="-72.60091757">
    <tag k="addr:city" v="Athens"/>
    <tag k="addr:housenumber" v="80"/>
    <tag k="addr:street" v="Walker Road"/>
    <tag k="addr:state" v="VT"/>
    <tag k="ref:vcgi:esiteid" v="338372"/>
  </node>
  <node id="-320" visible="true" lat="43.13571913" lon="-72.60346195">
    <tag k="addr:city" v="Athens"/>
    <tag k="addr:housenumber" v="89"/>
    <tag k="addr:street" v="Walker Road"/>
    <tag k="addr:state" v="VT"/>
    <tag k="ref:vcgi:esiteid" v="338373"/>
  </node>
  <node id="-321" visible="true" lat="43.13590359" lon="-72.59957722">
    <tag k="addr:city" v="Athens"/>
    <tag k="addr:housenumber" v="86"/>
    <tag k="addr:street" v="Walker Road"/>
    <tag k="addr:state" v="VT"/>
    <tag k="ref:vcgi:esiteid" v="338374"/>
  </node>
  <node id="-322" visible="true" lat="43.10501658" lon="-72.57542411">
    <tag k="addr:city" v="Athens"/>
    <tag k="addr:housenumber" v="28"/>
    <tag k="addr:street" v="Valley Cemetery Road"/>
    <tag k="addr:state" v="VT"/>
    <tag k="ref:vcgi:esiteid" v="341918"/>
  </node>
  <node id="-323" visible="true" lat="43.10384372" lon="-72.57636503">
    <tag k="addr:city" v="Athens"/>
    <tag k="addr:housenumber" v="30"/>
    <tag k="addr:street" v="Valley Cemetery Road"/>
    <tag k="addr:state" v="VT"/>
    <tag k="ref:vcgi:esiteid" v="341919"/>
  </node>
  <node id="-324" visible="true" lat="43.13005504" lon="-72.60127162">
    <tag k="addr:city" v="Athens"/>
    <tag k="addr:housenumber" v="68"/>
    <tag k="addr:street" v="Walker Road"/>
    <tag k="addr:state" v="VT"/>
    <tag k="ref:vcgi:esiteid" v="341920"/>
  </node>
  <node id="-325" visible="true" lat="43.10191343" lon="-72.58034414">
    <tag k="addr:city" v="Athens"/>
    <tag k="addr:housenumber" v="239"/>
    <tag k="addr:street" v="Brookline Road"/>
    <tag k="addr:state" v="VT"/>
    <tag k="ref:vcgi:esiteid" v="342190"/>
  </node>
  <node id="-326" visible="true" lat="43.13065346" lon="-72.56810853">
    <tag k="addr:city" v="Athens"/>
    <tag k="addr:housenumber" v="109"/>
    <tag k="addr:street" v="Route 35"/>
    <tag k="addr:state" v="VT"/>
    <tag k="ref:vcgi:esiteid" v="445454"/>
  </node>
  <node id="-330" visible="true" lat="43.12406521" lon="-72.57846877">
    <tag k="addr:city" v="Athens"/>
    <tag k="addr:housenumber" v="16"/>
    <tag k="addr:street" v="Meetinghouse Road"/>
    <tag k="addr:state" v="VT"/>
    <tag k="ref:vcgi:esiteid" v="450936"/>
  </node>
  <node id="-332" visible="true" lat="43.12128799" lon="-72.59640622">
    <tag k="addr:city" v="Athens"/>
    <tag k="addr:housenumber" v="22"/>
    <tag k="addr:street" v="McKusker Road"/>
    <tag k="addr:state" v="VT"/>
    <tag k="ref:vcgi:esiteid" v="454066"/>
  </node>
  <node id="-333" visible="true" lat="43.11291385" lon="-72.57314941">
    <tag k="addr:city" v="Athens"/>
    <tag k="addr:housenumber" v="5"/>
    <tag k="addr:street" v="M And M Farm Road"/>
    <tag k="addr:state" v="VT"/>
    <tag k="ref:vcgi:esiteid" v="454067"/>
  </node>
  <node id="-334" visible="true" lat="43.08741335" lon="-72.57638873">
    <tag k="addr:city" v="Athens"/>
    <tag k="addr:housenumber" v="349"/>
    <tag k="addr:street" v="Brookline Road"/>
    <tag k="addr:state" v="VT"/>
    <tag k="ref:vcgi:esiteid" v="454068"/>
  </node>
  <node id="-335" visible="true" lat="43.07916407" lon="-72.5781905">
    <tag k="addr:city" v="Athens"/>
    <tag k="addr:housenumber" v="400"/>
    <tag k="addr:street" v="Brookline Road"/>
    <tag k="addr:state" v="VT"/>
    <tag k="ref:vcgi:esiteid" v="454069"/>
  </node>
  <node id="-336" visible="true" lat="43.09039205" lon="-72.57628119">
    <tag k="addr:city" v="Athens"/>
    <tag k="addr:housenumber" v="126"/>
    <tag k="addr:street" v="Valley Cemetery Road"/>
    <tag k="addr:state" v="VT"/>
    <tag k="ref:vcgi:esiteid" v="454070"/>
  </node>
  <node id="-337" visible="true" lat="43.08978284" lon="-72.57551156">
    <tag k="addr:city" v="Athens"/>
    <tag k="addr:housenumber" v="141"/>
    <tag k="addr:street" v="Valley Cemetery Road"/>
    <tag k="addr:state" v="VT"/>
    <tag k="ref:vcgi:esiteid" v="454071"/>
  </node>
  <node id="-338" visible="true" lat="43.12713498" lon="-72.59061195">
    <tag k="addr:city" v="Athens"/>
    <tag k="addr:housenumber" v="92"/>
    <tag k="addr:street" v="Shady Ridge Drive"/>
    <tag k="addr:state" v="VT"/>
    <tag k="ref:vcgi:esiteid" v="454909"/>
  </node>
  <node id="-339" visible="true" lat="43.13721716" lon="-72.60244539">
    <tag k="addr:city" v="Athens"/>
    <tag k="addr:housenumber" v="116"/>
    <tag k="addr:street" v="Walker Road"/>
    <tag k="addr:state" v="VT"/>
    <tag k="ref:vcgi:esiteid" v="612276"/>
  </node>
  <node id="-340" visible="true" lat="43.1363847" lon="-72.60415826">
    <tag k="addr:city" v="Athens"/>
    <tag k="addr:housenumber" v="115"/>
    <tag k="addr:street" v="Walker Road"/>
    <tag k="addr:state" v="VT"/>
    <tag k="ref:vcgi:esiteid" v="612277"/>
  </node>
  <node id="-341" visible="true" lat="43.12837569" lon="-72.60876655">
    <tag k="addr:city" v="Athens"/>
    <tag k="addr:housenumber" v="83"/>
    <tag k="addr:street" v="Walker Road"/>
    <tag k="addr:state" v="VT"/>
    <tag k="ref:vcgi:esiteid" v="612278"/>
  </node>
  <node id="-353" visible="true" lat="43.12052589" lon="-72.5876592">
    <tag k="addr:city" v="Athens"/>
    <tag k="addr:housenumber" v="25"/>
    <tag k="addr:street" v="Reed Road"/>
    <tag k="addr:state" v="VT"/>
    <tag k="ref:vcgi:esiteid" v="613689"/>
  </node>
  <node id="-354" visible="true" lat="43.12114112" lon="-72.58791238">
    <tag k="addr:city" v="Athens"/>
    <tag k="addr:housenumber" v="23"/>
    <tag k="addr:street" v="Reed Road"/>
    <tag k="addr:state" v="VT"/>
    <tag k="ref:vcgi:esiteid" v="613690"/>
  </node>
  <node id="-383" visible="true" lat="43.12259593" lon="-72.59120226">
    <tag k="addr:city" v="Athens"/>
    <tag k="addr:housenumber" v="51"/>
    <tag k="addr:street" v="McKusker Road"/>
    <tag k="addr:state" v="VT"/>
    <tag k="ref:vcgi:esiteid" v="613722"/>
  </node>
  <node id="-384" visible="true" lat="43.12245512" lon="-72.59073273">
    <tag k="addr:city" v="Athens"/>
    <tag k="addr:housenumber" v="53"/>
    <tag k="addr:street" v="McKusker Road"/>
    <tag k="addr:state" v="VT"/>
    <tag k="ref:vcgi:esiteid" v="613723"/>
  </node>
  <node id="-387" visible="true" lat="43.07656498" lon="-72.57967124">
    <tag k="addr:city" v="Athens"/>
    <tag k="addr:housenumber" v="425"/>
    <tag k="addr:street" v="Brookline Road"/>
    <tag k="addr:state" v="VT"/>
    <tag k="ref:vcgi:esiteid" v="613727"/>
  </node>
  <node id="-390" visible="true" lat="43.08841996" lon="-72.57641883">
    <tag k="addr:city" v="Athens"/>
    <tag k="addr:housenumber" v="343"/>
    <tag k="addr:street" v="Brookline Road"/>
    <tag k="addr:state" v="VT"/>
    <tag k="ref:vcgi:esiteid" v="613730"/>
  </node>
  <node id="-399" visible="true" lat="43.09071843" lon="-72.5999813">
    <tag k="addr:city" v="Athens"/>
    <tag k="addr:housenumber" v="799"/>
    <tag k="addr:street" v="Billy Smith Road"/>
    <tag k="addr:state" v="VT"/>
    <tag k="ref:vcgi:esiteid" v="613740"/>
  </node>
  <node id="-408" visible="true" lat="43.10189245" lon="-72.58134205">
    <tag k="addr:city" v="Athens"/>
    <tag k="addr:housenumber" v="237"/>
    <tag k="addr:street" v="Brookline Road"/>
    <tag k="addr:state" v="VT"/>
    <tag k="ref:vcgi:esiteid" v="613750"/>
  </node>
  <node id="-409" visible="true" lat="43.10233924" lon="-72.5810951">
    <tag k="addr:city" v="Athens"/>
    <tag k="addr:housenumber" v="235"/>
    <tag k="addr:street" v="Brookline Road"/>
    <tag k="addr:state" v="VT"/>
    <tag k="ref:vcgi:esiteid" v="613751"/>
  </node>
  <node id="-417" visible="true" lat="43.10504931" lon="-72.57397276">
    <tag k="addr:city" v="Athens"/>
    <tag k="addr:housenumber" v="27"/>
    <tag k="addr:street" v="Valley Cemetery Road"/>
    <tag k="addr:state" v="VT"/>
    <tag k="ref:vcgi:esiteid" v="613761"/>
  </node>
  <node id="-434" visible="true" lat="43.11555176" lon="-72.57131396">
    <tag k="addr:city" v="Athens"/>
    <tag k="addr:housenumber" v="125"/>
    <tag k="addr:street" v="Brookline Road"/>
    <tag k="addr:state" v="VT"/>
    <tag k="ref:vcgi:esiteid" v="613786"/>
  </node>
  <node id="-471" visible="true" lat="43.135707" lon="-72.56703096">
    <tag k="addr:city" v="Athens"/>
    <tag k="addr:housenumber" v="91"/>
    <tag k="addr:street" v="Route 35"/>
    <tag k="addr:state" v="VT"/>
    <tag k="ref:vcgi:esiteid" v="613832"/>
  </node>
  <node id="-474" visible="true" lat="43.14208763" lon="-72.5628931">
    <tag k="addr:city" v="Athens"/>
    <tag k="addr:housenumber" v="39"/>
    <tag k="addr:street" v="Route 35"/>
    <tag k="addr:state" v="VT"/>
    <tag k="ref:vcgi:esiteid" v="613842"/>
  </node>
  <node id="-478" visible="true" lat="43.1062791" lon="-72.57396258">
    <tag k="addr:city" v="Athens"/>
    <tag k="addr:housenumber" v="19"/>
    <tag k="addr:street" v="Valley Cemetery Road"/>
    <tag k="addr:state" v="VT"/>
    <tag k="ref:vcgi:esiteid" v="613963"/>
  </node>
  <node id="-479" visible="true" lat="43.12327763" lon="-72.60251398">
    <tag k="addr:city" v="Athens"/>
    <tag k="addr:housenumber" v="11"/>
    <tag k="addr:street" v="Walker Road"/>
    <tag k="addr:state" v="VT"/>
    <tag k="ref:vcgi:esiteid" v="655788"/>
  </node>
  <node id="-480" visible="true" lat="43.12457681" lon="-72.60244272">
    <tag k="addr:city" v="Athens"/>
    <tag k="addr:housenumber" v="13"/>
    <tag k="addr:street" v="Walker Road"/>
    <tag k="addr:state" v="VT"/>
    <tag k="ref:vcgi:esiteid" v="655789"/>
  </node>
  <node id="-481" visible="true" lat="43.11549402" lon="-72.57096458">
    <tag k="addr:city" v="Athens"/>
    <tag k="addr:housenumber" v="127"/>
    <tag k="addr:street" v="Brookline Road"/>
    <tag k="addr:state" v="VT"/>
    <tag k="ref:vcgi:esiteid" v="655893"/>
  </node>
  <node id="-482" visible="true" lat="43.11446117" lon="-72.57121306">
    <tag k="addr:city" v="Athens"/>
    <tag k="addr:housenumber" v="133"/>
    <tag k="addr:street" v="Brookline Road"/>
    <tag k="addr:state" v="VT"/>
    <tag k="ref:vcgi:esiteid" v="655894"/>
  </node>
  <node id="-483" visible="true" lat="43.12661402" lon="-72.59348249">
    <tag k="addr:city" v="Athens"/>
    <tag k="addr:housenumber" v="220"/>
    <tag k="addr:street" v="Shady Ridge Drive"/>
    <tag k="addr:state" v="VT"/>
    <tag k="ref:vcgi:esiteid" v="753569"/>
  </node>
  <node id="-484" visible="true" lat="43.11551332" lon="-72.60891659">
    <tag k="addr:city" v="Athens"/>
    <tag k="addr:housenumber" v="383"/>
    <tag k="addr:street" v="Route 35"/>
    <tag k="addr:state" v="VT"/>
    <tag k="ref:vcgi:esiteid" v="756193"/>
  </node>
  <node id="-485" visible="true" lat="43.11374517" lon="-72.58154172">
    <tag k="addr:city" v="Athens"/>
    <tag k="addr:housenumber" v="53"/>
    <tag k="addr:street" v="Taylor Hill"/>
    <tag k="addr:state" v="VT"/>
    <tag k="ref:vcgi:esiteid" v="756745"/>
  </node>
  <node id="-486" visible="true" lat="43.09022465" lon="-72.58023743">
    <tag k="addr:city" v="Athens"/>
    <tag k="addr:housenumber" v="326"/>
    <tag k="addr:street" v="Brookline Road"/>
    <tag k="addr:state" v="VT"/>
    <tag k="ref:vcgi:esiteid" v="756998"/>
  </node>
  <node id="-487" visible="true" lat="43.08880713" lon="-72.59558531">
    <tag k="addr:city" v="Athens"/>
    <tag k="addr:housenumber" v="870"/>
    <tag k="addr:street" v="Billy Smith Road"/>
    <tag k="addr:state" v="VT"/>
    <tag k="ref:vcgi:esiteid" v="757466"/>
  </node>
  <node id="-488" visible="true" lat="43.11773059" lon="-72.57701834">
    <tag k="addr:city" v="Athens"/>
    <tag k="addr:housenumber" v="14"/>
    <tag k="addr:street" v="Taylor Hill"/>
    <tag k="addr:state" v="VT"/>
    <tag k="ref:vcgi:esiteid" v="758598"/>
  </node>
  <node id="-489" visible="true" lat="43.11247846" lon="-72.57564308">
    <tag k="addr:city" v="Athens"/>
    <tag k="addr:housenumber" v="41"/>
    <tag k="addr:street" v="Taylor Hill"/>
    <tag k="addr:state" v="VT"/>
    <tag k="ref:vcgi:esiteid" v="758599"/>
  </node>
  <node id="-490" visible="true" lat="43.11444318" lon="-72.57210254">
    <tag k="addr:city" v="Athens"/>
    <tag k="addr:housenumber" v="130"/>
    <tag k="addr:street" v="Brookline Road"/>
    <tag k="addr:state" v="VT"/>
    <tag k="ref:vcgi:esiteid" v="760929"/>
  </node>
  <node id="-491" visible="true" lat="43.09748909" lon="-72.58181278">
    <tag k="addr:city" v="Athens"/>
    <tag k="addr:housenumber" v="269"/>
    <tag k="addr:street" v="Brookline Road"/>
    <tag k="addr:state" v="VT"/>
    <tag k="ref:vcgi:esiteid" v="760930"/>
  </node>
  <node id="-492" visible="true" lat="43.12822624" lon="-72.57936948">
    <tag k="addr:city" v="Athens"/>
    <tag k="addr:housenumber" v="40"/>
    <tag k="addr:street" v="Meetinghouse Road"/>
    <tag k="addr:state" v="VT"/>
    <tag k="ref:vcgi:esiteid" v="763297"/>
  </node>
  <node id="-493" visible="true" lat="43.12726049" lon="-72.59417961">
    <tag k="addr:city" v="Athens"/>
    <tag k="addr:housenumber" v="290"/>
    <tag k="addr:street" v="Shady Ridge Drive"/>
    <tag k="addr:state" v="VT"/>
    <tag k="ref:vcgi:esiteid" v="764161"/>
  </node>
  <node id="-494" visible="true" lat="43.10865918" lon="-72.61752869">
    <tag k="addr:city" v="Athens"/>
    <tag k="addr:housenumber" v="215"/>
    <tag k="addr:street" v="Reed Road"/>
    <tag k="addr:state" v="VT"/>
    <tag k="ref:vcgi:esiteid" v="766110"/>
  </node>
  <node id="-495" visible="true" lat="43.13477938" lon="-72.59607195">
    <tag k="addr:city" v="Athens"/>
    <tag k="addr:housenumber" v="82"/>
    <tag k="addr:street" v="Walker Road"/>
    <tag k="addr:state" v="VT"/>
    <tag k="ref:vcgi:esiteid" v="766496"/>
  </node>
  <node id="-496" visible="true" lat="43.09219387" lon="-72.58017227">
    <tag k="addr:city" v="Athens"/>
    <tag k="addr:housenumber" v="315"/>
    <tag k="addr:street" v="Brookline Road"/>
    <tag k="addr:state" v="VT"/>
    <tag k="ref:vcgi:esiteid" v="767276"/>
  </node>
  <node id="-497" visible="true" lat="43.07153848" lon="-72.58159018">
    <tag k="addr:city" v="Athens"/>
    <tag k="addr:housenumber" v="466"/>
    <tag k="addr:street" v="Brookline Road"/>
    <tag k="addr:state" v="VT"/>
    <tag k="ref:vcgi:esiteid" v="767277"/>
  </node>
  <node id="-498" visible="true" lat="43.07353323" lon="-72.58060479">
    <tag k="addr:city" v="Athens"/>
    <tag k="addr:housenumber" v="451"/>
    <tag k="addr:street" v="Brookline Road"/>
    <tag k="addr:state" v="VT"/>
    <tag k="ref:vcgi:esiteid" v="768165"/>
  </node>
  <node id="-499" visible="true" lat="43.12484708" lon="-72.60337001">
    <tag k="addr:city" v="Athens"/>
    <tag k="addr:housenumber" v="17"/>
    <tag k="addr:street" v="Walker Road"/>
    <tag k="addr:state" v="VT"/>
    <tag k="ref:vcgi:esiteid" v="768730"/>
  </node>
  <node id="-501" visible="true" lat="43.14395409" lon="-72.5629186">
    <tag k="addr:city" v="Athens"/>
    <tag k="addr:housenumber" v="30"/>
    <tag k="addr:street" v="Route 35"/>
    <tag k="addr:state" v="VT"/>
    <tag k="ref:vcgi:esiteid" v="1050059"/>
  </node>
  <node id="-502" visible="true" lat="43.10325795" lon="-72.57567627">
    <tag k="addr:city" v="Athens"/>
    <tag k="addr:housenumber" v="37"/>
    <tag k="addr:street" v="Valley Cemetery Road"/>
    <tag k="addr:state" v="VT"/>
    <tag k="ref:vcgi:esiteid" v="1050060"/>
  </node>
  <node id="-503" visible="true" lat="43.087509" lon="-72.57598223">
    <tag k="addr:city" v="Athens"/>
    <tag k="addr:housenumber" v="347"/>
    <tag k="addr:street" v="Brookline Road"/>
    <tag k="addr:state" v="VT"/>
    <tag k="ref:vcgi:esiteid" v="1050063"/>
  </node>
</osm>
