<?xml version="1.0" encoding="UTF-8"?>
<osm version="0.6" generator="JOSM">
  <node id="-116" visible="true" lat="44.99237002" lon="-71.70216874">
    <!-- conflict: "560 Cottage Road, Averill, VT" No match in OSM, but a different address exists <5m away: " Cottage Road, Averill, VT" -->
    <tag k="addr:city" v="Averill"/>
    <tag k="addr:housenumber" v="560"/>
    <tag k="addr:street" v="Cottage Road"/>
    <tag k="addr:state" v="VT"/>
    <tag k="ref:vcgi:esiteid" v="112597"/>
  </node>
  <node id="-139" visible="true" lat="44.98742687" lon="-71.71770661">
    <!-- conflict: "15 Jackson Road, Averill, VT" No match in OSM, but a different address exists <5m away: "129 Ed Bates Road, Averill, VT" -->
    <tag k="addr:city" v="Averill"/>
    <tag k="addr:housenumber" v="15"/>
    <tag k="addr:street" v="Jackson Road"/>
    <tag k="addr:state" v="VT"/>
    <tag k="ref:vcgi:esiteid" v="112620"/>
  </node>
  <node id="-195" visible="true" lat="44.96947142" lon="-71.67834379">
    <!-- conflict: "1539 Hatchery Brook Road, Averill, VT" No match in OSM, but a different address exists <5m away: " , Averill, VT" -->
    <tag k="addr:city" v="Averill"/>
    <tag k="addr:housenumber" v="1539"/>
    <tag k="addr:street" v="Hatchery Brook Road"/>
    <tag k="addr:state" v="VT"/>
    <tag k="ref:vcgi:esiteid" v="112677"/>
  </node>
  <node id="-272" visible="true" lat="44.95546521" lon="-71.66304555">
    <!-- conflict: "1356 Dale Potter Road, Averill, VT" No match in OSM, but a different address exists <5m away: " Dale Potter Road, Averill, VT" -->
    <tag k="addr:city" v="Averill"/>
    <tag k="addr:housenumber" v="1356"/>
    <tag k="addr:street" v="Dale Potter Road"/>
    <tag k="addr:state" v="VT"/>
    <tag k="ref:vcgi:esiteid" v="112757"/>
  </node>
  <node id="-274" visible="true" lat="44.92178096" lon="-71.70631336">
    <!-- conflict: "3563 East Branch Road, Averill, VT" No match in OSM, but a different address exists <5m away: " , Averill, VT" -->
    <tag k="addr:city" v="Averill"/>
    <tag k="addr:housenumber" v="3563"/>
    <tag k="addr:street" v="East Branch Road"/>
    <tag k="addr:state" v="VT"/>
    <tag k="ref:vcgi:esiteid" v="112759"/>
  </node>
  <node id="-311" visible="true" lat="44.95509704" lon="-71.70903246">
    <!-- conflict: "600 Rodin Road, Averill, VT" No match in OSM, but a different address exists <5m away: " Rodin Road, Averill, VT" -->
    <tag k="addr:city" v="Averill"/>
    <tag k="addr:housenumber" v="600"/>
    <tag k="addr:street" v="Rodin Road"/>
    <tag k="addr:state" v="VT"/>
    <tag k="ref:vcgi:esiteid" v="445465"/>
  </node>
  <node id="-350" visible="true" lat="44.94659718" lon="-71.71382539">
    <!-- conflict: "1165 Dana Moore Road, Averill, VT" No match in OSM, but a different address exists <5m away: "2160 East Branch Road, Averill, VT" -->
    <tag k="addr:city" v="Averill"/>
    <tag k="addr:housenumber" v="1165"/>
    <tag k="addr:street" v="Dana Moore Road"/>
    <tag k="addr:state" v="VT"/>
    <tag k="ref:vcgi:esiteid" v="452212"/>
  </node>
</osm>
