<?xml version="1.0" encoding="UTF-8"?>
<osm version="0.6" generator="JOSM" upload="false">
  <node id="-100" visible="true" lat="44.9965286" lon="-71.70975176">
    <tag k="addr:city" v="Averill"/>
    <tag k="addr:housenumber" v="422"/>
    <tag k="addr:street" v="Lake View Road"/>
    <tag k="addr:state" v="VT"/>
    <tag k="ref:vcgi:esiteid" v="300"/>
  </node>
  <node id="-103" visible="true" lat="44.99944076" lon="-71.70546354">
    <tag k="addr:city" v="Averill"/>
    <tag k="addr:housenumber" v="119"/>
    <tag k="addr:street" v="Forest Lake Road"/>
    <tag k="addr:state" v="VT"/>
    <tag k="ref:vcgi:esiteid" v="112584"/>
  </node>
  <node id="-104" visible="true" lat="44.99711227" lon="-71.70696258">
    <tag k="addr:city" v="Averill"/>
    <tag k="addr:housenumber" v="157"/>
    <tag k="addr:street" v="Cottage Road"/>
    <tag k="addr:state" v="VT"/>
    <tag k="ref:vcgi:esiteid" v="112585"/>
  </node>
  <node id="-105" visible="true" lat="44.99658744" lon="-71.70796106">
    <tag k="addr:city" v="Averill"/>
    <tag k="addr:housenumber" v="110"/>
    <tag k="addr:street" v="Cottage Road"/>
    <tag k="addr:state" v="VT"/>
    <tag k="ref:vcgi:esiteid" v="112586"/>
  </node>
  <node id="-106" visible="true" lat="44.9963684" lon="-71.70708465">
    <tag k="addr:city" v="Averill"/>
    <tag k="addr:housenumber" v="210"/>
    <tag k="addr:street" v="Cottage Road"/>
    <tag k="addr:state" v="VT"/>
    <tag k="ref:vcgi:esiteid" v="112587"/>
  </node>
  <node id="-107" visible="true" lat="44.99621376" lon="-71.70674566">
    <tag k="addr:city" v="Averill"/>
    <tag k="addr:housenumber" v="212"/>
    <tag k="addr:street" v="Cottage Road"/>
    <tag k="addr:state" v="VT"/>
    <tag k="ref:vcgi:esiteid" v="112588"/>
  </node>
  <node id="-108" visible="true" lat="44.9955565" lon="-71.70496456">
    <tag k="addr:city" v="Averill"/>
    <tag k="addr:housenumber" v="279"/>
    <tag k="addr:street" v="Cottage Road"/>
    <tag k="addr:state" v="VT"/>
    <tag k="ref:vcgi:esiteid" v="112589"/>
  </node>
  <node id="-109" visible="true" lat="44.99485397" lon="-71.70583343">
    <tag k="addr:city" v="Averill"/>
    <tag k="addr:housenumber" v="304"/>
    <tag k="addr:street" v="Cottage Road"/>
    <tag k="addr:state" v="VT"/>
    <tag k="ref:vcgi:esiteid" v="112590"/>
  </node>
  <node id="-111" visible="true" lat="44.99327115" lon="-71.70368024">
    <tag k="addr:city" v="Averill"/>
    <tag k="addr:housenumber" v="436"/>
    <tag k="addr:street" v="Cottage Road"/>
    <tag k="addr:state" v="VT"/>
    <tag k="ref:vcgi:esiteid" v="112592"/>
  </node>
  <node id="-112" visible="true" lat="44.99306902" lon="-71.70322317">
    <tag k="addr:city" v="Averill"/>
    <tag k="addr:housenumber" v="458"/>
    <tag k="addr:street" v="Cottage Road"/>
    <tag k="addr:state" v="VT"/>
    <tag k="ref:vcgi:esiteid" v="112593"/>
  </node>
  <node id="-113" visible="true" lat="44.99296569" lon="-71.70305633">
    <tag k="addr:city" v="Averill"/>
    <tag k="addr:housenumber" v="508"/>
    <tag k="addr:street" v="Cottage Road"/>
    <tag k="addr:state" v="VT"/>
    <tag k="ref:vcgi:esiteid" v="112594"/>
  </node>
  <node id="-115" visible="true" lat="44.99248209" lon="-71.70245328">
    <tag k="addr:city" v="Averill"/>
    <tag k="addr:housenumber" v="540"/>
    <tag k="addr:street" v="Cottage Road"/>
    <tag k="addr:state" v="VT"/>
    <tag k="ref:vcgi:esiteid" v="112596"/>
  </node>
  <node id="-117" visible="true" lat="44.99226379" lon="-71.70173644">
    <tag k="addr:city" v="Averill"/>
    <tag k="addr:housenumber" v="586"/>
    <tag k="addr:street" v="Cottage Road"/>
    <tag k="addr:state" v="VT"/>
    <tag k="ref:vcgi:esiteid" v="112598"/>
  </node>
  <node id="-118" visible="true" lat="44.99195209" lon="-71.70177404">
    <tag k="addr:city" v="Averill"/>
    <tag k="addr:housenumber" v="592"/>
    <tag k="addr:street" v="Cottage Road"/>
    <tag k="addr:state" v="VT"/>
    <tag k="ref:vcgi:esiteid" v="112599"/>
  </node>
  <node id="-119" visible="true" lat="44.99214762" lon="-71.70143087">
    <tag k="addr:city" v="Averill"/>
    <tag k="addr:housenumber" v="604"/>
    <tag k="addr:street" v="Cottage Road"/>
    <tag k="addr:state" v="VT"/>
    <tag k="ref:vcgi:esiteid" v="112600"/>
  </node>
  <node id="-120" visible="true" lat="44.99190162" lon="-71.70124918">
    <tag k="addr:city" v="Averill"/>
    <tag k="addr:housenumber" v="618"/>
    <tag k="addr:street" v="Cottage Road"/>
    <tag k="addr:state" v="VT"/>
    <tag k="ref:vcgi:esiteid" v="112601"/>
  </node>
  <node id="-121" visible="true" lat="44.99178614" lon="-71.70158401">
    <tag k="addr:city" v="Averill"/>
    <tag k="addr:housenumber" v="624"/>
    <tag k="addr:street" v="Cottage Road"/>
    <tag k="addr:state" v="VT"/>
    <tag k="ref:vcgi:esiteid" v="112602"/>
  </node>
  <node id="-122" visible="true" lat="44.99155224" lon="-71.70130312">
    <tag k="addr:city" v="Averill"/>
    <tag k="addr:housenumber" v="642"/>
    <tag k="addr:street" v="Cottage Road"/>
    <tag k="addr:state" v="VT"/>
    <tag k="ref:vcgi:esiteid" v="112603"/>
  </node>
  <node id="-123" visible="true" lat="44.99133132" lon="-71.70099573">
    <tag k="addr:city" v="Averill"/>
    <tag k="addr:housenumber" v="654"/>
    <tag k="addr:street" v="Cottage Road"/>
    <tag k="addr:state" v="VT"/>
    <tag k="ref:vcgi:esiteid" v="112604"/>
  </node>
  <node id="-124" visible="true" lat="44.99123382" lon="-71.70057678">
    <tag k="addr:city" v="Averill"/>
    <tag k="addr:housenumber" v="680"/>
    <tag k="addr:street" v="Cottage Road"/>
    <tag k="addr:state" v="VT"/>
    <tag k="ref:vcgi:esiteid" v="112605"/>
  </node>
  <node id="-125" visible="true" lat="44.99090957" lon="-71.70030212">
    <tag k="addr:city" v="Averill"/>
    <tag k="addr:housenumber" v="694"/>
    <tag k="addr:street" v="Cottage Road"/>
    <tag k="addr:state" v="VT"/>
    <tag k="ref:vcgi:esiteid" v="112606"/>
  </node>
  <node id="-126" visible="true" lat="44.99069837" lon="-71.70014459">
    <tag k="addr:city" v="Averill"/>
    <tag k="addr:housenumber" v="736"/>
    <tag k="addr:street" v="Cottage Road"/>
    <tag k="addr:state" v="VT"/>
    <tag k="ref:vcgi:esiteid" v="112607"/>
  </node>
  <node id="-127" visible="true" lat="44.99010085" lon="-71.69939422">
    <tag k="addr:city" v="Averill"/>
    <tag k="addr:housenumber" v="754"/>
    <tag k="addr:street" v="Cottage Road"/>
    <tag k="addr:state" v="VT"/>
    <tag k="ref:vcgi:esiteid" v="112608"/>
  </node>
  <node id="-128" visible="true" lat="44.99037933" lon="-71.69984436">
    <tag k="addr:city" v="Averill"/>
    <tag k="addr:housenumber" v="744"/>
    <tag k="addr:street" v="Cottage Road"/>
    <tag k="addr:state" v="VT"/>
    <tag k="ref:vcgi:esiteid" v="112609"/>
  </node>
  <node id="-129" visible="true" lat="44.99028778" lon="-71.69961547">
    <tag k="addr:city" v="Averill"/>
    <tag k="addr:housenumber" v="752"/>
    <tag k="addr:street" v="Cottage Road"/>
    <tag k="addr:state" v="VT"/>
    <tag k="ref:vcgi:esiteid" v="112610"/>
  </node>
  <node id="-130" visible="true" lat="44.98986995" lon="-71.69906024">
    <tag k="addr:city" v="Averill"/>
    <tag k="addr:housenumber" v="780"/>
    <tag k="addr:street" v="Cottage Road"/>
    <tag k="addr:state" v="VT"/>
    <tag k="ref:vcgi:esiteid" v="112611"/>
  </node>
  <node id="-131" visible="true" lat="44.98964718" lon="-71.6987704">
    <tag k="addr:city" v="Averill"/>
    <tag k="addr:housenumber" v="822"/>
    <tag k="addr:street" v="Cottage Road"/>
    <tag k="addr:state" v="VT"/>
    <tag k="ref:vcgi:esiteid" v="112612"/>
  </node>
  <node id="-132" visible="true" lat="44.98946779" lon="-71.69858448">
    <tag k="addr:city" v="Averill"/>
    <tag k="addr:housenumber" v="838"/>
    <tag k="addr:street" v="Cottage Road"/>
    <tag k="addr:state" v="VT"/>
    <tag k="ref:vcgi:esiteid" v="112613"/>
  </node>
  <node id="-133" visible="true" lat="44.98924636" lon="-71.69831848">
    <tag k="addr:city" v="Averill"/>
    <tag k="addr:housenumber" v="850"/>
    <tag k="addr:street" v="Cottage Road"/>
    <tag k="addr:state" v="VT"/>
    <tag k="ref:vcgi:esiteid" v="112614"/>
  </node>
  <node id="-134" visible="true" lat="44.98896908" lon="-71.69808751">
    <tag k="addr:city" v="Averill"/>
    <tag k="addr:housenumber" v="878"/>
    <tag k="addr:street" v="Cottage Road"/>
    <tag k="addr:state" v="VT"/>
    <tag k="ref:vcgi:esiteid" v="112615"/>
  </node>
  <node id="-135" visible="true" lat="44.9886148" lon="-71.69766197">
    <tag k="addr:city" v="Averill"/>
    <tag k="addr:housenumber" v="904"/>
    <tag k="addr:street" v="Cottage Road"/>
    <tag k="addr:state" v="VT"/>
    <tag k="ref:vcgi:esiteid" v="112616"/>
  </node>
  <node id="-136" visible="true" lat="44.9883253" lon="-71.69737871">
    <tag k="addr:city" v="Averill"/>
    <tag k="addr:housenumber" v="930"/>
    <tag k="addr:street" v="Cottage Road"/>
    <tag k="addr:state" v="VT"/>
    <tag k="ref:vcgi:esiteid" v="112617"/>
  </node>
  <node id="-137" visible="true" lat="44.98806738" lon="-71.696687">
    <tag k="addr:city" v="Averill"/>
    <tag k="addr:housenumber" v="958"/>
    <tag k="addr:street" v="Cottage Road"/>
    <tag k="addr:state" v="VT"/>
    <tag k="ref:vcgi:esiteid" v="112618"/>
  </node>
  <node id="-138" visible="true" lat="44.98712716" lon="-71.69594552">
    <tag k="addr:city" v="Averill"/>
    <tag k="addr:housenumber" v="974"/>
    <tag k="addr:street" v="Cottage Road"/>
    <tag k="addr:state" v="VT"/>
    <tag k="ref:vcgi:esiteid" v="112619"/>
  </node>
  <node id="-140" visible="true" lat="44.98651013" lon="-71.69519927">
    <tag k="addr:city" v="Averill"/>
    <tag k="addr:housenumber" v="1048"/>
    <tag k="addr:street" v="Cottage Road"/>
    <tag k="addr:state" v="VT"/>
    <tag k="ref:vcgi:esiteid" v="112621"/>
  </node>
  <node id="-141" visible="true" lat="44.98712537" lon="-71.71737833">
    <tag k="addr:city" v="Averill"/>
    <tag k="addr:housenumber" v="127"/>
    <tag k="addr:street" v="Ed Bates Road"/>
    <tag k="addr:state" v="VT"/>
    <tag k="ref:vcgi:esiteid" v="112622"/>
  </node>
  <node id="-142" visible="true" lat="44.9859562" lon="-71.69460704">
    <tag k="addr:city" v="Averill"/>
    <tag k="addr:housenumber" v="1096"/>
    <tag k="addr:street" v="Cottage Road"/>
    <tag k="addr:state" v="VT"/>
    <tag k="ref:vcgi:esiteid" v="112623"/>
  </node>
  <node id="-143" visible="true" lat="44.98671173" lon="-71.71691123">
    <tag k="addr:city" v="Averill"/>
    <tag k="addr:housenumber" v="126"/>
    <tag k="addr:street" v="Ed Bates Road"/>
    <tag k="addr:state" v="VT"/>
    <tag k="ref:vcgi:esiteid" v="112624"/>
  </node>
  <node id="-144" visible="true" lat="44.98576818" lon="-71.69427196">
    <tag k="addr:city" v="Averill"/>
    <tag k="addr:housenumber" v="1150"/>
    <tag k="addr:street" v="Cottage Road"/>
    <tag k="addr:state" v="VT"/>
    <tag k="ref:vcgi:esiteid" v="112625"/>
  </node>
  <node id="-146" visible="true" lat="44.98585128" lon="-71.71567535">
    <tag k="addr:city" v="Averill"/>
    <tag k="addr:housenumber" v="42"/>
    <tag k="addr:street" v="Ed Bates Road"/>
    <tag k="addr:state" v="VT"/>
    <tag k="ref:vcgi:esiteid" v="112628"/>
  </node>
  <node id="-147" visible="true" lat="44.98523226" lon="-71.69386337">
    <tag k="addr:city" v="Averill"/>
    <tag k="addr:housenumber" v="1216"/>
    <tag k="addr:street" v="Cottage Road"/>
    <tag k="addr:state" v="VT"/>
    <tag k="ref:vcgi:esiteid" v="112629"/>
  </node>
  <node id="-148" visible="true" lat="44.98525833" lon="-71.71462242">
    <tag k="addr:city" v="Averill"/>
    <tag k="addr:housenumber" v="273"/>
    <tag k="addr:street" v="Jackson Road"/>
    <tag k="addr:state" v="VT"/>
    <tag k="ref:vcgi:esiteid" v="112630"/>
  </node>
  <node id="-149" visible="true" lat="44.98516678" lon="-71.71566764">
    <tag k="addr:city" v="Averill"/>
    <tag k="addr:housenumber" v="177"/>
    <tag k="addr:street" v="Jackson Road"/>
    <tag k="addr:state" v="VT"/>
    <tag k="ref:vcgi:esiteid" v="112631"/>
  </node>
  <node id="-150" visible="true" lat="44.98492438" lon="-71.69368966">
    <tag k="addr:city" v="Averill"/>
    <tag k="addr:housenumber" v="1236"/>
    <tag k="addr:street" v="Cottage Road"/>
    <tag k="addr:state" v="VT"/>
    <tag k="ref:vcgi:esiteid" v="112632"/>
  </node>
  <node id="-151" visible="true" lat="44.98440479" lon="-71.69306734">
    <tag k="addr:city" v="Averill"/>
    <tag k="addr:housenumber" v="1280"/>
    <tag k="addr:street" v="Cottage Road"/>
    <tag k="addr:state" v="VT"/>
    <tag k="ref:vcgi:esiteid" v="112633"/>
  </node>
  <node id="-152" visible="true" lat="44.98422455" lon="-71.71298973">
    <tag k="addr:city" v="Averill"/>
    <tag k="addr:housenumber" v="349"/>
    <tag k="addr:street" v="Jackson Road"/>
    <tag k="addr:state" v="VT"/>
    <tag k="ref:vcgi:esiteid" v="112634"/>
  </node>
  <node id="-153" visible="true" lat="44.98390713" lon="-71.69276239">
    <tag k="addr:city" v="Averill"/>
    <tag k="addr:housenumber" v="1332"/>
    <tag k="addr:street" v="Cottage Road"/>
    <tag k="addr:state" v="VT"/>
    <tag k="ref:vcgi:esiteid" v="112635"/>
  </node>
  <node id="-156" visible="true" lat="44.98361801" lon="-71.7111663">
    <tag k="addr:city" v="Averill"/>
    <tag k="addr:housenumber" v="63"/>
    <tag k="addr:street" v="Bradley Road"/>
    <tag k="addr:state" v="VT"/>
    <tag k="ref:vcgi:esiteid" v="112638"/>
  </node>
  <node id="-157" visible="true" lat="44.98341202" lon="-71.71045677">
    <tag k="addr:city" v="Averill"/>
    <tag k="addr:housenumber" v="83"/>
    <tag k="addr:street" v="Bradley Road"/>
    <tag k="addr:state" v="VT"/>
    <tag k="ref:vcgi:esiteid" v="112639"/>
  </node>
  <node id="-158" visible="true" lat="44.98303524" lon="-71.69249533">
    <tag k="addr:city" v="Averill"/>
    <tag k="addr:housenumber" v="1392"/>
    <tag k="addr:street" v="Cottage Road"/>
    <tag k="addr:state" v="VT"/>
    <tag k="ref:vcgi:esiteid" v="112640"/>
  </node>
  <node id="-159" visible="true" lat="44.98275887" lon="-71.69223161">
    <tag k="addr:city" v="Averill"/>
    <tag k="addr:housenumber" v="1404"/>
    <tag k="addr:street" v="Cottage Road"/>
    <tag k="addr:state" v="VT"/>
    <tag k="ref:vcgi:esiteid" v="112641"/>
  </node>
  <node id="-160" visible="true" lat="44.98285126" lon="-71.70937339">
    <tag k="addr:city" v="Averill"/>
    <tag k="addr:housenumber" v="521"/>
    <tag k="addr:street" v="Jackson Road"/>
    <tag k="addr:state" v="VT"/>
    <tag k="ref:vcgi:esiteid" v="112642"/>
  </node>
  <node id="-162" visible="true" lat="44.98238479" lon="-71.70905541">
    <tag k="addr:city" v="Averill"/>
    <tag k="addr:housenumber" v="553"/>
    <tag k="addr:street" v="Jackson Road"/>
    <tag k="addr:state" v="VT"/>
    <tag k="ref:vcgi:esiteid" v="112644"/>
  </node>
  <node id="-163" visible="true" lat="44.98183655" lon="-71.70871726">
    <tag k="addr:city" v="Averill"/>
    <tag k="addr:housenumber" v="585"/>
    <tag k="addr:street" v="Jackson Road"/>
    <tag k="addr:state" v="VT"/>
    <tag k="ref:vcgi:esiteid" v="112645"/>
  </node>
  <node id="-164" visible="true" lat="44.98126715" lon="-71.70841285">
    <tag k="addr:city" v="Averill"/>
    <tag k="addr:housenumber" v="623"/>
    <tag k="addr:street" v="Jackson Road"/>
    <tag k="addr:state" v="VT"/>
    <tag k="ref:vcgi:esiteid" v="112646"/>
  </node>
  <node id="-165" visible="true" lat="44.98032689" lon="-71.70787831">
    <tag k="addr:city" v="Averill"/>
    <tag k="addr:housenumber" v="731"/>
    <tag k="addr:street" v="Jackson Road"/>
    <tag k="addr:state" v="VT"/>
    <tag k="ref:vcgi:esiteid" v="112647"/>
  </node>
  <node id="-167" visible="true" lat="44.97991394" lon="-71.70742027">
    <tag k="addr:city" v="Averill"/>
    <tag k="addr:housenumber" v="735"/>
    <tag k="addr:street" v="Jackson Road"/>
    <tag k="addr:state" v="VT"/>
    <tag k="ref:vcgi:esiteid" v="112649"/>
  </node>
  <node id="-168" visible="true" lat="44.97974467" lon="-71.65235926">
    <tag k="addr:city" v="Averill"/>
    <tag k="addr:housenumber" v="1589"/>
    <tag k="addr:street" v="Canaan Hill Road"/>
    <tag k="addr:state" v="VT"/>
    <tag k="ref:vcgi:esiteid" v="112650"/>
  </node>
  <node id="-169" visible="true" lat="44.97934937" lon="-71.70717613">
    <tag k="addr:city" v="Averill"/>
    <tag k="addr:housenumber" v="809"/>
    <tag k="addr:street" v="Jackson Road"/>
    <tag k="addr:state" v="VT"/>
    <tag k="ref:vcgi:esiteid" v="112651"/>
  </node>
  <node id="-170" visible="true" lat="44.9788916" lon="-71.70671836">
    <tag k="addr:city" v="Averill"/>
    <tag k="addr:housenumber" v="837"/>
    <tag k="addr:street" v="Jackson Road"/>
    <tag k="addr:state" v="VT"/>
    <tag k="ref:vcgi:esiteid" v="112652"/>
  </node>
  <node id="-171" visible="true" lat="44.97807879" lon="-71.65128106">
    <tag k="addr:city" v="Averill"/>
    <tag k="addr:housenumber" v="1697"/>
    <tag k="addr:street" v="Canaan Hill Road"/>
    <tag k="addr:state" v="VT"/>
    <tag k="ref:vcgi:esiteid" v="112653"/>
  </node>
  <node id="-172" visible="true" lat="44.97796845" lon="-71.7057952">
    <tag k="addr:city" v="Averill"/>
    <tag k="addr:housenumber" v="917"/>
    <tag k="addr:street" v="Jackson Road"/>
    <tag k="addr:state" v="VT"/>
    <tag k="ref:vcgi:esiteid" v="112654"/>
  </node>
  <node id="-173" visible="true" lat="44.976341" lon="-71.65256421">
    <tag k="addr:city" v="Averill"/>
    <tag k="addr:housenumber" v="1738"/>
    <tag k="addr:street" v="Canaan Hill Road"/>
    <tag k="addr:state" v="VT"/>
    <tag k="ref:vcgi:esiteid" v="112655"/>
  </node>
  <node id="-174" visible="true" lat="44.97758757" lon="-71.70530301">
    <tag k="addr:city" v="Averill"/>
    <tag k="addr:housenumber" v="957"/>
    <tag k="addr:street" v="Jackson Road"/>
    <tag k="addr:state" v="VT"/>
    <tag k="ref:vcgi:esiteid" v="112656"/>
  </node>
  <node id="-175" visible="true" lat="44.97707199" lon="-71.70494071">
    <tag k="addr:city" v="Averill"/>
    <tag k="addr:housenumber" v="989"/>
    <tag k="addr:street" v="Jackson Road"/>
    <tag k="addr:state" v="VT"/>
    <tag k="ref:vcgi:esiteid" v="112657"/>
  </node>
  <node id="-176" visible="true" lat="44.97610866" lon="-71.64879677">
    <tag k="addr:city" v="Averill"/>
    <tag k="addr:housenumber" v="1890"/>
    <tag k="addr:street" v="Canaan Hill Road"/>
    <tag k="addr:state" v="VT"/>
    <tag k="ref:vcgi:esiteid" v="112658"/>
  </node>
  <node id="-177" visible="true" lat="44.97674128" lon="-71.70433505">
    <tag k="addr:city" v="Averill"/>
    <tag k="addr:housenumber" v="1031"/>
    <tag k="addr:street" v="Jackson Road"/>
    <tag k="addr:state" v="VT"/>
    <tag k="ref:vcgi:esiteid" v="112659"/>
  </node>
  <node id="-179" visible="true" lat="44.9758551" lon="-71.70333854">
    <tag k="addr:city" v="Averill"/>
    <tag k="addr:housenumber" v="1097"/>
    <tag k="addr:street" v="Jackson Road"/>
    <tag k="addr:state" v="VT"/>
    <tag k="ref:vcgi:esiteid" v="112661"/>
  </node>
  <node id="-180" visible="true" lat="44.97547363" lon="-71.70278922">
    <tag k="addr:city" v="Averill"/>
    <tag k="addr:housenumber" v="1151"/>
    <tag k="addr:street" v="Jackson Road"/>
    <tag k="addr:state" v="VT"/>
    <tag k="ref:vcgi:esiteid" v="112662"/>
  </node>
  <node id="-181" visible="true" lat="44.97491157" lon="-71.70237244">
    <tag k="addr:city" v="Averill"/>
    <tag k="addr:housenumber" v="1175"/>
    <tag k="addr:street" v="Jackson Road"/>
    <tag k="addr:state" v="VT"/>
    <tag k="ref:vcgi:esiteid" v="112663"/>
  </node>
  <node id="-182" visible="true" lat="44.97465347" lon="-71.70211784">
    <tag k="addr:city" v="Averill"/>
    <tag k="addr:housenumber" v="1209"/>
    <tag k="addr:street" v="Jackson Road"/>
    <tag k="addr:state" v="VT"/>
    <tag k="ref:vcgi:esiteid" v="112664"/>
  </node>
  <node id="-183" visible="true" lat="44.97415375" lon="-71.70172111">
    <tag k="addr:city" v="Averill"/>
    <tag k="addr:housenumber" v="1251"/>
    <tag k="addr:street" v="Jackson Road"/>
    <tag k="addr:state" v="VT"/>
    <tag k="ref:vcgi:esiteid" v="112665"/>
  </node>
  <node id="-185" visible="true" lat="44.97395046" lon="-71.70103185">
    <tag k="addr:city" v="Averill"/>
    <tag k="addr:housenumber" v="1287"/>
    <tag k="addr:street" v="Jackson Road"/>
    <tag k="addr:state" v="VT"/>
    <tag k="ref:vcgi:esiteid" v="112667"/>
  </node>
  <node id="-186" visible="true" lat="44.97260691" lon="-71.63991091">
    <tag k="addr:city" v="Averill"/>
    <tag k="addr:housenumber" v="2421"/>
    <tag k="addr:street" v="Canaan Hill Road"/>
    <tag k="addr:state" v="VT"/>
    <tag k="ref:vcgi:esiteid" v="112668"/>
  </node>
  <node id="-187" visible="true" lat="44.97091785" lon="-71.68628365">
    <tag k="addr:city" v="Averill"/>
    <tag k="addr:housenumber" v="306"/>
    <tag k="addr:street" v="Beach Road"/>
    <tag k="addr:state" v="VT"/>
    <tag k="ref:vcgi:esiteid" v="112669"/>
  </node>
  <node id="-188" visible="true" lat="44.97032275" lon="-71.63515219">
    <tag k="addr:city" v="Averill"/>
    <tag k="addr:housenumber" v="2705"/>
    <tag k="addr:street" v="Canaan Hill Road"/>
    <tag k="addr:state" v="VT"/>
    <tag k="ref:vcgi:esiteid" v="112670"/>
  </node>
  <node id="-189" visible="true" lat="44.970484" lon="-71.68578677">
    <tag k="addr:city" v="Averill"/>
    <tag k="addr:housenumber" v="264"/>
    <tag k="addr:street" v="Beach Road"/>
    <tag k="addr:state" v="VT"/>
    <tag k="ref:vcgi:esiteid" v="112671"/>
  </node>
  <node id="-190" visible="true" lat="44.97032136" lon="-71.68667662">
    <tag k="addr:city" v="Averill"/>
    <tag k="addr:housenumber" v="277"/>
    <tag k="addr:street" v="Beach Road"/>
    <tag k="addr:state" v="VT"/>
    <tag k="ref:vcgi:esiteid" v="112672"/>
  </node>
  <node id="-191" visible="true" lat="44.96997833" lon="-71.68566894">
    <tag k="addr:city" v="Averill"/>
    <tag k="addr:housenumber" v="238"/>
    <tag k="addr:street" v="Beach Road"/>
    <tag k="addr:state" v="VT"/>
    <tag k="ref:vcgi:esiteid" v="112673"/>
  </node>
  <node id="-192" visible="true" lat="44.97005081" lon="-71.69838714">
    <tag k="addr:city" v="Averill"/>
    <tag k="addr:housenumber" v="1594"/>
    <tag k="addr:street" v="Jackson Road"/>
    <tag k="addr:state" v="VT"/>
    <tag k="ref:vcgi:esiteid" v="112674"/>
  </node>
  <node id="-193" visible="true" lat="44.9698212" lon="-71.68641365">
    <tag k="addr:city" v="Averill"/>
    <tag k="addr:housenumber" v="237"/>
    <tag k="addr:street" v="Beach Road"/>
    <tag k="addr:state" v="VT"/>
    <tag k="ref:vcgi:esiteid" v="112675"/>
  </node>
  <node id="-194" visible="true" lat="44.96947097" lon="-71.68518829">
    <tag k="addr:city" v="Averill"/>
    <tag k="addr:housenumber" v="198"/>
    <tag k="addr:street" v="Beach Road"/>
    <tag k="addr:state" v="VT"/>
    <tag k="ref:vcgi:esiteid" v="112676"/>
  </node>
  <node id="-196" visible="true" lat="44.96917515" lon="-71.68606127">
    <tag k="addr:city" v="Averill"/>
    <tag k="addr:housenumber" v="199"/>
    <tag k="addr:street" v="Beach Road"/>
    <tag k="addr:state" v="VT"/>
    <tag k="ref:vcgi:esiteid" v="112678"/>
  </node>
  <node id="-197" visible="true" lat="44.96935653" lon="-71.69844818">
    <tag k="addr:city" v="Averill"/>
    <tag k="addr:housenumber" v="1640"/>
    <tag k="addr:street" v="Jackson Road"/>
    <tag k="addr:state" v="VT"/>
    <tag k="ref:vcgi:esiteid" v="112679"/>
  </node>
  <node id="-198" visible="true" lat="44.96902084" lon="-71.68492126">
    <tag k="addr:city" v="Averill"/>
    <tag k="addr:housenumber" v="160"/>
    <tag k="addr:street" v="Beach Road"/>
    <tag k="addr:state" v="VT"/>
    <tag k="ref:vcgi:esiteid" v="112680"/>
  </node>
  <node id="-199" visible="true" lat="44.96886444" lon="-71.69867706">
    <tag k="addr:city" v="Averill"/>
    <tag k="addr:housenumber" v="1688"/>
    <tag k="addr:street" v="Jackson Road"/>
    <tag k="addr:state" v="VT"/>
    <tag k="ref:vcgi:esiteid" v="112681"/>
  </node>
  <node id="-200" visible="true" lat="44.96867185" lon="-71.68564082">
    <tag k="addr:city" v="Averill"/>
    <tag k="addr:housenumber" v="157"/>
    <tag k="addr:street" v="Beach Road"/>
    <tag k="addr:state" v="VT"/>
    <tag k="ref:vcgi:esiteid" v="112682"/>
  </node>
  <node id="-201" visible="true" lat="44.96851344" lon="-71.68473211">
    <tag k="addr:city" v="Averill"/>
    <tag k="addr:housenumber" v="118"/>
    <tag k="addr:street" v="Beach Road"/>
    <tag k="addr:state" v="VT"/>
    <tag k="ref:vcgi:esiteid" v="112683"/>
  </node>
  <node id="-202" visible="true" lat="44.96816005" lon="-71.68525206">
    <tag k="addr:city" v="Averill"/>
    <tag k="addr:housenumber" v="123"/>
    <tag k="addr:street" v="Beach Road"/>
    <tag k="addr:state" v="VT"/>
    <tag k="ref:vcgi:esiteid" v="112684"/>
  </node>
  <node id="-203" visible="true" lat="44.96818618" lon="-71.6839342">
    <tag k="addr:city" v="Averill"/>
    <tag k="addr:housenumber" v="78"/>
    <tag k="addr:street" v="Beach Road"/>
    <tag k="addr:state" v="VT"/>
    <tag k="ref:vcgi:esiteid" v="112686"/>
  </node>
  <node id="-204" visible="true" lat="44.96765514" lon="-71.68476776">
    <tag k="addr:city" v="Averill"/>
    <tag k="addr:housenumber" v="81"/>
    <tag k="addr:street" v="Beach Road"/>
    <tag k="addr:state" v="VT"/>
    <tag k="ref:vcgi:esiteid" v="112687"/>
  </node>
  <node id="-205" visible="true" lat="44.96763443" lon="-71.6983184">
    <tag k="addr:city" v="Averill"/>
    <tag k="addr:housenumber" v="1759"/>
    <tag k="addr:street" v="Jackson Road"/>
    <tag k="addr:state" v="VT"/>
    <tag k="ref:vcgi:esiteid" v="112688"/>
  </node>
  <node id="-206" visible="true" lat="44.96748352" lon="-71.6836853">
    <tag k="addr:city" v="Averill"/>
    <tag k="addr:housenumber" v="46"/>
    <tag k="addr:street" v="Beach Road"/>
    <tag k="addr:state" v="VT"/>
    <tag k="ref:vcgi:esiteid" v="112689"/>
  </node>
  <node id="-207" visible="true" lat="44.96758939" lon="-71.68236019">
    <tag k="addr:city" v="Averill"/>
    <tag k="addr:housenumber" v="1271"/>
    <tag k="addr:street" v="Hatchery Brook Road"/>
    <tag k="addr:state" v="VT"/>
    <tag k="ref:vcgi:esiteid" v="112690"/>
  </node>
  <node id="-208" visible="true" lat="44.96719765" lon="-71.68429357">
    <tag k="addr:city" v="Averill"/>
    <tag k="addr:housenumber" v="49"/>
    <tag k="addr:street" v="Beach Road"/>
    <tag k="addr:state" v="VT"/>
    <tag k="ref:vcgi:esiteid" v="112691"/>
  </node>
  <node id="-209" visible="true" lat="44.96737893" lon="-71.68306328">
    <tag k="addr:city" v="Averill"/>
    <tag k="addr:housenumber" v="1235"/>
    <tag k="addr:street" v="Hatchery Brook Road"/>
    <tag k="addr:state" v="VT"/>
    <tag k="ref:vcgi:esiteid" v="112692"/>
  </node>
  <node id="-210" visible="true" lat="44.96715876" lon="-71.69878994">
    <tag k="addr:city" v="Averill"/>
    <tag k="addr:housenumber" v="1785"/>
    <tag k="addr:street" v="Jackson Road"/>
    <tag k="addr:state" v="VT"/>
    <tag k="ref:vcgi:esiteid" v="112693"/>
  </node>
  <node id="-211" visible="true" lat="44.96754026" lon="-71.69444824">
    <tag k="addr:city" v="Averill"/>
    <tag k="addr:housenumber" v="399"/>
    <tag k="addr:street" v="Loop Road"/>
    <tag k="addr:state" v="VT"/>
    <tag k="ref:vcgi:esiteid" v="112694"/>
  </node>
  <node id="-212" visible="true" lat="44.96761003" lon="-71.69927535">
    <tag k="addr:city" v="Averill"/>
    <tag k="addr:housenumber" v="1800"/>
    <tag k="addr:street" v="Jackson Road"/>
    <tag k="addr:state" v="VT"/>
    <tag k="ref:vcgi:esiteid" v="112695"/>
  </node>
  <node id="-213" visible="true" lat="44.96737213" lon="-71.69017696">
    <tag k="addr:city" v="Averill"/>
    <tag k="addr:housenumber" v="61"/>
    <tag k="addr:street" v="Loop Road Extension"/>
    <tag k="addr:state" v="VT"/>
    <tag k="ref:vcgi:esiteid" v="112696"/>
  </node>
  <node id="-214" visible="true" lat="44.9671669" lon="-71.69396972">
    <tag k="addr:city" v="Averill"/>
    <tag k="addr:housenumber" v="414"/>
    <tag k="addr:street" v="Loop Road"/>
    <tag k="addr:state" v="VT"/>
    <tag k="ref:vcgi:esiteid" v="112697"/>
  </node>
  <node id="-215" visible="true" lat="44.96724793" lon="-71.69253906">
    <tag k="addr:city" v="Averill"/>
    <tag k="addr:housenumber" v="461"/>
    <tag k="addr:street" v="Loop Road"/>
    <tag k="addr:state" v="VT"/>
    <tag k="ref:vcgi:esiteid" v="112698"/>
  </node>
  <node id="-216" visible="true" lat="44.96677568" lon="-71.69033769">
    <tag k="addr:city" v="Averill"/>
    <tag k="addr:housenumber" v="82"/>
    <tag k="addr:street" v="Loop Road Extension"/>
    <tag k="addr:state" v="VT"/>
    <tag k="ref:vcgi:esiteid" v="112699"/>
  </node>
  <node id="-217" visible="true" lat="44.96693189" lon="-71.69190835">
    <tag k="addr:city" v="Averill"/>
    <tag k="addr:housenumber" v="7"/>
    <tag k="addr:street" v="Loop Road Extension"/>
    <tag k="addr:state" v="VT"/>
    <tag k="ref:vcgi:esiteid" v="112700"/>
  </node>
  <node id="-218" visible="true" lat="44.96665328" lon="-71.69230124">
    <tag k="addr:city" v="Averill"/>
    <tag k="addr:housenumber" v="498"/>
    <tag k="addr:street" v="Loop Road"/>
    <tag k="addr:state" v="VT"/>
    <tag k="ref:vcgi:esiteid" v="112702"/>
  </node>
  <node id="-219" visible="true" lat="44.96656799" lon="-71.68569946">
    <tag k="addr:city" v="Averill"/>
    <tag k="addr:housenumber" v="1095"/>
    <tag k="addr:street" v="Hatchery Brook Road"/>
    <tag k="addr:state" v="VT"/>
    <tag k="ref:vcgi:esiteid" v="112703"/>
  </node>
  <node id="-220" visible="true" lat="44.96661114" lon="-71.69116248">
    <tag k="addr:city" v="Averill"/>
    <tag k="addr:housenumber" v="527"/>
    <tag k="addr:street" v="Loop Road"/>
    <tag k="addr:state" v="VT"/>
    <tag k="ref:vcgi:esiteid" v="112704"/>
  </node>
  <node id="-221" visible="true" lat="44.96622586" lon="-71.69190795">
    <tag k="addr:city" v="Averill"/>
    <tag k="addr:housenumber" v="534"/>
    <tag k="addr:street" v="Loop Road"/>
    <tag k="addr:state" v="VT"/>
    <tag k="ref:vcgi:esiteid" v="112705"/>
  </node>
  <node id="-222" visible="true" lat="44.96626536" lon="-71.6863442">
    <tag k="addr:city" v="Averill"/>
    <tag k="addr:housenumber" v="1047"/>
    <tag k="addr:street" v="Hatchery Brook Road"/>
    <tag k="addr:state" v="VT"/>
    <tag k="ref:vcgi:esiteid" v="112706"/>
  </node>
  <node id="-223" visible="true" lat="44.96621098" lon="-71.6906854">
    <tag k="addr:city" v="Averill"/>
    <tag k="addr:housenumber" v="559"/>
    <tag k="addr:street" v="Loop Road"/>
    <tag k="addr:state" v="VT"/>
    <tag k="ref:vcgi:esiteid" v="112707"/>
  </node>
  <node id="-224" visible="true" lat="44.96586801" lon="-71.69145984">
    <tag k="addr:city" v="Averill"/>
    <tag k="addr:housenumber" v="574"/>
    <tag k="addr:street" v="Loop Road"/>
    <tag k="addr:state" v="VT"/>
    <tag k="ref:vcgi:esiteid" v="112708"/>
  </node>
  <node id="-225" visible="true" lat="44.96595493" lon="-71.68802592">
    <tag k="addr:city" v="Averill"/>
    <tag k="addr:housenumber" v="965"/>
    <tag k="addr:street" v="Hatchery Brook Road"/>
    <tag k="addr:state" v="VT"/>
    <tag k="ref:vcgi:esiteid" v="112709"/>
  </node>
  <node id="-226" visible="true" lat="44.9657923" lon="-71.68970704">
    <tag k="addr:city" v="Averill"/>
    <tag k="addr:housenumber" v="875"/>
    <tag k="addr:street" v="Hatchery Brook Road"/>
    <tag k="addr:state" v="VT"/>
    <tag k="ref:vcgi:esiteid" v="112710"/>
  </node>
  <node id="-227" visible="true" lat="44.96553039" lon="-71.70343017">
    <tag k="addr:city" v="Averill"/>
    <tag k="addr:housenumber" v="2008"/>
    <tag k="addr:street" v="Jackson Road"/>
    <tag k="addr:state" v="VT"/>
    <tag k="ref:vcgi:esiteid" v="112711"/>
  </node>
  <node id="-228" visible="true" lat="44.96577407" lon="-71.69398569">
    <tag k="addr:city" v="Averill"/>
    <tag k="addr:housenumber" v="261"/>
    <tag k="addr:street" v="Loop Road"/>
    <tag k="addr:state" v="VT"/>
    <tag k="ref:vcgi:esiteid" v="112712"/>
  </node>
  <node id="-229" visible="true" lat="44.96550491" lon="-71.69056451">
    <tag k="addr:city" v="Averill"/>
    <tag k="addr:housenumber" v="839"/>
    <tag k="addr:street" v="Hatchery Brook Road"/>
    <tag k="addr:state" v="VT"/>
    <tag k="ref:vcgi:esiteid" v="112713"/>
  </node>
  <node id="-231" visible="true" lat="44.96531368" lon="-71.69131018">
    <tag k="addr:city" v="Averill"/>
    <tag k="addr:housenumber" v="610"/>
    <tag k="addr:street" v="Loop Road"/>
    <tag k="addr:state" v="VT"/>
    <tag k="ref:vcgi:esiteid" v="112715"/>
  </node>
  <node id="-232" visible="true" lat="44.96514432" lon="-71.69240372">
    <tag k="addr:city" v="Averill"/>
    <tag k="addr:housenumber" v="240"/>
    <tag k="addr:street" v="Loop Road"/>
    <tag k="addr:state" v="VT"/>
    <tag k="ref:vcgi:esiteid" v="112716"/>
  </node>
  <node id="-233" visible="true" lat="44.96491843" lon="-71.69404633">
    <tag k="addr:city" v="Averill"/>
    <tag k="addr:housenumber" v="197"/>
    <tag k="addr:street" v="Loop Road"/>
    <tag k="addr:state" v="VT"/>
    <tag k="ref:vcgi:esiteid" v="112717"/>
  </node>
  <node id="-234" visible="true" lat="44.9641017" lon="-71.69246004">
    <tag k="addr:city" v="Averill"/>
    <tag k="addr:housenumber" v="747"/>
    <tag k="addr:street" v="Hatchery Brook Road"/>
    <tag k="addr:state" v="VT"/>
    <tag k="ref:vcgi:esiteid" v="112718"/>
  </node>
  <node id="-235" visible="true" lat="44.96485205" lon="-71.69286374">
    <tag k="addr:city" v="Averill"/>
    <tag k="addr:housenumber" v="196"/>
    <tag k="addr:street" v="Loop Road"/>
    <tag k="addr:state" v="VT"/>
    <tag k="ref:vcgi:esiteid" v="112719"/>
  </node>
  <node id="-236" visible="true" lat="44.96439828" lon="-71.69222425">
    <tag k="addr:city" v="Averill"/>
    <tag k="addr:housenumber" v="757"/>
    <tag k="addr:street" v="Hatchery Brook Road"/>
    <tag k="addr:state" v="VT"/>
    <tag k="ref:vcgi:esiteid" v="112720"/>
  </node>
  <node id="-237" visible="true" lat="44.96420239" lon="-71.69464551">
    <tag k="addr:city" v="Averill"/>
    <tag k="addr:housenumber" v="141"/>
    <tag k="addr:street" v="Loop Road"/>
    <tag k="addr:state" v="VT"/>
    <tag k="ref:vcgi:esiteid" v="112721"/>
  </node>
  <node id="-238" visible="true" lat="44.96444261" lon="-71.69310113">
    <tag k="addr:city" v="Averill"/>
    <tag k="addr:housenumber" v="180"/>
    <tag k="addr:street" v="Loop Road"/>
    <tag k="addr:state" v="VT"/>
    <tag k="ref:vcgi:esiteid" v="112722"/>
  </node>
  <node id="-239" visible="true" lat="44.96382326" lon="-71.69279959">
    <tag k="addr:city" v="Averill"/>
    <tag k="addr:housenumber" v="711"/>
    <tag k="addr:street" v="Hatchery Brook Road"/>
    <tag k="addr:state" v="VT"/>
    <tag k="ref:vcgi:esiteid" v="112723"/>
  </node>
  <node id="-241" visible="true" lat="44.96396828" lon="-71.70712888">
    <tag k="addr:city" v="Averill"/>
    <tag k="addr:housenumber" v="2281"/>
    <tag k="addr:street" v="Jackson Road"/>
    <tag k="addr:state" v="VT"/>
    <tag k="ref:vcgi:esiteid" v="112725"/>
  </node>
  <node id="-242" visible="true" lat="44.96376295" lon="-71.69394108">
    <tag k="addr:city" v="Averill"/>
    <tag k="addr:housenumber" v="138"/>
    <tag k="addr:street" v="Loop Road"/>
    <tag k="addr:state" v="VT"/>
    <tag k="ref:vcgi:esiteid" v="112726"/>
  </node>
  <node id="-243" visible="true" lat="44.96359445" lon="-71.71143988">
    <tag k="addr:city" v="Averill"/>
    <tag k="addr:housenumber" v="2499"/>
    <tag k="addr:street" v="Jackson Road"/>
    <tag k="addr:state" v="VT"/>
    <tag k="ref:vcgi:esiteid" v="112727"/>
  </node>
  <node id="-244" visible="true" lat="44.96368789" lon="-71.70088195">
    <tag k="addr:city" v="Averill"/>
    <tag k="addr:housenumber" v="209"/>
    <tag k="addr:street" v="Hatchery Brook Road"/>
    <tag k="addr:state" v="VT"/>
    <tag k="ref:vcgi:esiteid" v="112728"/>
  </node>
  <node id="-245" visible="true" lat="44.96363067" lon="-71.71026611">
    <tag k="addr:city" v="Averill"/>
    <tag k="addr:housenumber" v="2431"/>
    <tag k="addr:street" v="Jackson Road"/>
    <tag k="addr:state" v="VT"/>
    <tag k="ref:vcgi:esiteid" v="112729"/>
  </node>
  <node id="-246" visible="true" lat="44.96323083" lon="-71.69360601">
    <tag k="addr:city" v="Averill"/>
    <tag k="addr:housenumber" v="663"/>
    <tag k="addr:street" v="Hatchery Brook Road"/>
    <tag k="addr:state" v="VT"/>
    <tag k="ref:vcgi:esiteid" v="112730"/>
  </node>
  <node id="-247" visible="true" lat="44.96366643" lon="-71.70761178">
    <tag k="addr:city" v="Averill"/>
    <tag k="addr:housenumber" v="2317"/>
    <tag k="addr:street" v="Jackson Road"/>
    <tag k="addr:state" v="VT"/>
    <tag k="ref:vcgi:esiteid" v="112731"/>
  </node>
  <node id="-248" visible="true" lat="44.96326318" lon="-71.71202906">
    <tag k="addr:city" v="Averill"/>
    <tag k="addr:housenumber" v="2543"/>
    <tag k="addr:street" v="Jackson Road"/>
    <tag k="addr:state" v="VT"/>
    <tag k="ref:vcgi:esiteid" v="112732"/>
  </node>
  <node id="-249" visible="true" lat="44.96346371" lon="-71.69413556">
    <tag k="addr:city" v="Averill"/>
    <tag k="addr:housenumber" v="104"/>
    <tag k="addr:street" v="Loop Road"/>
    <tag k="addr:state" v="VT"/>
    <tag k="ref:vcgi:esiteid" v="112733"/>
  </node>
  <node id="-250" visible="true" lat="44.96342978" lon="-71.69528948">
    <tag k="addr:city" v="Averill"/>
    <tag k="addr:housenumber" v="79"/>
    <tag k="addr:street" v="Loop Road"/>
    <tag k="addr:state" v="VT"/>
    <tag k="ref:vcgi:esiteid" v="112734"/>
  </node>
  <node id="-251" visible="true" lat="44.9630118" lon="-71.69460206">
    <tag k="addr:city" v="Averill"/>
    <tag k="addr:housenumber" v="92"/>
    <tag k="addr:street" v="Loop Road"/>
    <tag k="addr:state" v="VT"/>
    <tag k="ref:vcgi:esiteid" v="112735"/>
  </node>
  <node id="-252" visible="true" lat="44.96333349" lon="-71.70957203">
    <tag k="addr:city" v="Averill"/>
    <tag k="addr:housenumber" v="2429"/>
    <tag k="addr:street" v="Jackson Road"/>
    <tag k="addr:state" v="VT"/>
    <tag k="ref:vcgi:esiteid" v="112736"/>
  </node>
  <node id="-253" visible="true" lat="44.96326481" lon="-71.69939507">
    <tag k="addr:city" v="Averill"/>
    <tag k="addr:housenumber" v="361"/>
    <tag k="addr:street" v="Hatchery Brook Road"/>
    <tag k="addr:state" v="VT"/>
    <tag k="ref:vcgi:esiteid" v="112737"/>
  </node>
  <node id="-254" visible="true" lat="44.9631958" lon="-71.70788574">
    <tag k="addr:city" v="Averill"/>
    <tag k="addr:housenumber" v="2327"/>
    <tag k="addr:street" v="Jackson Road"/>
    <tag k="addr:state" v="VT"/>
    <tag k="ref:vcgi:esiteid" v="112738"/>
  </node>
  <node id="-255" visible="true" lat="44.96299656" lon="-71.70619118">
    <tag k="addr:city" v="Averill"/>
    <tag k="addr:housenumber" v="122"/>
    <tag k="addr:street" v="Cowan Road"/>
    <tag k="addr:state" v="VT"/>
    <tag k="ref:vcgi:esiteid" v="112739"/>
  </node>
  <node id="-256" visible="true" lat="44.96334424" lon="-71.69785704">
    <tag k="addr:city" v="Averill"/>
    <tag k="addr:housenumber" v="399"/>
    <tag k="addr:street" v="Hatchery Brook Road"/>
    <tag k="addr:state" v="VT"/>
    <tag k="ref:vcgi:esiteid" v="112740"/>
  </node>
  <node id="-257" visible="true" lat="44.9629334" lon="-71.70903761">
    <tag k="addr:city" v="Averill"/>
    <tag k="addr:housenumber" v="2349"/>
    <tag k="addr:street" v="Jackson Road"/>
    <tag k="addr:state" v="VT"/>
    <tag k="ref:vcgi:esiteid" v="112741"/>
  </node>
  <node id="-258" visible="true" lat="44.96309926" lon="-71.70843634">
    <tag k="addr:city" v="Averill"/>
    <tag k="addr:housenumber" v="2343"/>
    <tag k="addr:street" v="Jackson Road"/>
    <tag k="addr:state" v="VT"/>
    <tag k="ref:vcgi:esiteid" v="112742"/>
  </node>
  <node id="-259" visible="true" lat="44.9628306" lon="-71.71332766">
    <tag k="addr:city" v="Averill"/>
    <tag k="addr:housenumber" v="2631"/>
    <tag k="addr:street" v="Jackson Road"/>
    <tag k="addr:state" v="VT"/>
    <tag k="ref:vcgi:esiteid" v="112743"/>
  </node>
  <node id="-260" visible="true" lat="44.963123" lon="-71.7127274">
    <tag k="addr:city" v="Averill"/>
    <tag k="addr:housenumber" v="2551"/>
    <tag k="addr:street" v="Jackson Road"/>
    <tag k="addr:state" v="VT"/>
    <tag k="ref:vcgi:esiteid" v="112744"/>
  </node>
  <node id="-261" visible="true" lat="44.96284518" lon="-71.69371988">
    <tag k="addr:city" v="Averill"/>
    <tag k="addr:housenumber" v="589"/>
    <tag k="addr:street" v="Hatchery Brook Road"/>
    <tag k="addr:state" v="VT"/>
    <tag k="ref:vcgi:esiteid" v="112745"/>
  </node>
  <node id="-262" visible="true" lat="44.96255519" lon="-71.69613525">
    <tag k="addr:city" v="Averill"/>
    <tag k="addr:housenumber" v="445"/>
    <tag k="addr:street" v="Hatchery Brook Road"/>
    <tag k="addr:state" v="VT"/>
    <tag k="ref:vcgi:esiteid" v="112746"/>
  </node>
  <node id="-263" visible="true" lat="44.96240853" lon="-71.70640681">
    <tag k="addr:city" v="Averill"/>
    <tag k="addr:housenumber" v="154"/>
    <tag k="addr:street" v="Cowan Road"/>
    <tag k="addr:state" v="VT"/>
    <tag k="ref:vcgi:esiteid" v="112747"/>
  </node>
  <node id="-264" visible="true" lat="44.96238647" lon="-71.71404202">
    <tag k="addr:city" v="Averill"/>
    <tag k="addr:housenumber" v="2641"/>
    <tag k="addr:street" v="Jackson Road"/>
    <tag k="addr:state" v="VT"/>
    <tag k="ref:vcgi:esiteid" v="112748"/>
  </node>
  <node id="-265" visible="true" lat="44.96218246" lon="-71.71460387">
    <tag k="addr:city" v="Averill"/>
    <tag k="addr:housenumber" v="2709"/>
    <tag k="addr:street" v="Jackson Road"/>
    <tag k="addr:state" v="VT"/>
    <tag k="ref:vcgi:esiteid" v="112749"/>
  </node>
  <node id="-266" visible="true" lat="44.96146059" lon="-71.72195849">
    <tag k="addr:city" v="Averill"/>
    <tag k="addr:housenumber" v="2969"/>
    <tag k="addr:street" v="Jackson Road"/>
    <tag k="addr:state" v="VT"/>
    <tag k="ref:vcgi:esiteid" v="112750"/>
  </node>
  <node id="-267" visible="true" lat="44.9612606" lon="-71.7060857">
    <tag k="addr:city" v="Averill"/>
    <tag k="addr:housenumber" v="248"/>
    <tag k="addr:street" v="Cowan Road"/>
    <tag k="addr:state" v="VT"/>
    <tag k="ref:vcgi:esiteid" v="112751"/>
  </node>
  <node id="-268" visible="true" lat="44.96048344" lon="-71.70664277">
    <tag k="addr:city" v="Averill"/>
    <tag k="addr:housenumber" v="310"/>
    <tag k="addr:street" v="Cowan Road"/>
    <tag k="addr:state" v="VT"/>
    <tag k="ref:vcgi:esiteid" v="112752"/>
  </node>
  <node id="-269" visible="true" lat="44.96000231" lon="-71.70665395">
    <tag k="addr:city" v="Averill"/>
    <tag k="addr:housenumber" v="318"/>
    <tag k="addr:street" v="Cowan Road"/>
    <tag k="addr:state" v="VT"/>
    <tag k="ref:vcgi:esiteid" v="112753"/>
  </node>
  <node id="-270" visible="true" lat="44.95956805" lon="-71.7062061">
    <tag k="addr:city" v="Averill"/>
    <tag k="addr:housenumber" v="350"/>
    <tag k="addr:street" v="Cowan Road"/>
    <tag k="addr:state" v="VT"/>
    <tag k="ref:vcgi:esiteid" v="112754"/>
  </node>
  <node id="-271" visible="true" lat="44.95872443" lon="-71.70637978">
    <tag k="addr:city" v="Averill"/>
    <tag k="addr:housenumber" v="447"/>
    <tag k="addr:street" v="Cowan Road"/>
    <tag k="addr:state" v="VT"/>
    <tag k="ref:vcgi:esiteid" v="112755"/>
  </node>
  <node id="-273" visible="true" lat="44.92584486" lon="-71.67431757">
    <tag k="addr:city" v="Averill"/>
    <tag k="addr:housenumber" v="1751"/>
    <tag k="addr:street" v="Sable Mountain Road"/>
    <tag k="addr:state" v="VT"/>
    <tag k="ref:vcgi:esiteid" v="112758"/>
  </node>
  <node id="-275" visible="true" lat="44.91671738" lon="-71.67201965">
    <tag k="addr:city" v="Averill"/>
    <tag k="addr:housenumber" v="2671"/>
    <tag k="addr:street" v="Sable Mountain Road"/>
    <tag k="addr:state" v="VT"/>
    <tag k="ref:vcgi:esiteid" v="112760"/>
  </node>
  <node id="-276" visible="true" lat="44.98092452" lon="-71.68968992">
    <tag k="addr:city" v="Averill"/>
    <tag k="addr:housenumber" v="1566"/>
    <tag k="addr:street" v="Cottage Road"/>
    <tag k="addr:state" v="VT"/>
    <tag k="ref:vcgi:esiteid" v="112765"/>
  </node>
  <node id="-279" visible="true" lat="44.96245538" lon="-71.71782988">
    <tag k="addr:city" v="Averill"/>
    <tag k="addr:housenumber" v="2833"/>
    <tag k="addr:street" v="Jackson Road"/>
    <tag k="addr:state" v="VT"/>
    <tag k="ref:vcgi:esiteid" v="112769"/>
  </node>
  <node id="-281" visible="true" lat="44.98492739" lon="-71.71403835">
    <tag k="addr:city" v="Averill"/>
    <tag k="addr:housenumber" v="277"/>
    <tag k="addr:street" v="Jackson Road"/>
    <tag k="addr:state" v="VT"/>
    <tag k="ref:vcgi:esiteid" v="307599"/>
  </node>
  <node id="-282" visible="true" lat="44.98095015" lon="-71.70806798">
    <tag k="addr:city" v="Averill"/>
    <tag k="addr:housenumber" v="669"/>
    <tag k="addr:street" v="Jackson Road"/>
    <tag k="addr:state" v="VT"/>
    <tag k="ref:vcgi:esiteid" v="307600"/>
  </node>
  <node id="-283" visible="true" lat="44.99661505" lon="-71.70572308">
    <tag k="addr:city" v="Averill"/>
    <tag k="addr:housenumber" v="227"/>
    <tag k="addr:street" v="Cottage Road"/>
    <tag k="addr:state" v="VT"/>
    <tag k="ref:vcgi:esiteid" v="307601"/>
  </node>
  <node id="-284" visible="true" lat="44.99618819" lon="-71.70472057">
    <tag k="addr:city" v="Averill"/>
    <tag k="addr:housenumber" v="251"/>
    <tag k="addr:street" v="Cottage Road"/>
    <tag k="addr:state" v="VT"/>
    <tag k="ref:vcgi:esiteid" v="307602"/>
  </node>
  <node id="-285" visible="true" lat="44.99370029" lon="-71.70422096">
    <tag k="addr:city" v="Averill"/>
    <tag k="addr:housenumber" v="414"/>
    <tag k="addr:street" v="Cottage Road"/>
    <tag k="addr:state" v="VT"/>
    <tag k="ref:vcgi:esiteid" v="307603"/>
  </node>
  <node id="-287" visible="true" lat="44.99242277" lon="-71.70182722">
    <tag k="addr:city" v="Averill"/>
    <tag k="addr:housenumber" v="580"/>
    <tag k="addr:street" v="Cottage Road"/>
    <tag k="addr:state" v="VT"/>
    <tag k="ref:vcgi:esiteid" v="307605"/>
  </node>
  <node id="-288" visible="true" lat="44.9693658" lon="-71.69767608">
    <tag k="addr:city" v="Averill"/>
    <tag k="addr:housenumber" v="1645"/>
    <tag k="addr:street" v="Jackson Road"/>
    <tag k="addr:state" v="VT"/>
    <tag k="ref:vcgi:esiteid" v="307606"/>
  </node>
  <node id="-289" visible="true" lat="44.96830269" lon="-71.69881302">
    <tag k="addr:city" v="Averill"/>
    <tag k="addr:housenumber" v="1740"/>
    <tag k="addr:street" v="Jackson Road"/>
    <tag k="addr:state" v="VT"/>
    <tag k="ref:vcgi:esiteid" v="307607"/>
  </node>
  <node id="-290" visible="true" lat="44.96290103" lon="-71.69679022">
    <tag k="addr:city" v="Averill"/>
    <tag k="addr:housenumber" v="415"/>
    <tag k="addr:street" v="Hatchery Brook Road"/>
    <tag k="addr:state" v="VT"/>
    <tag k="ref:vcgi:esiteid" v="307608"/>
  </node>
  <node id="-291" visible="true" lat="44.96376418" lon="-71.69495941">
    <tag k="addr:city" v="Averill"/>
    <tag k="addr:housenumber" v="111"/>
    <tag k="addr:street" v="Loop Road"/>
    <tag k="addr:state" v="VT"/>
    <tag k="ref:vcgi:esiteid" v="307609"/>
  </node>
  <node id="-292" visible="true" lat="44.96340321" lon="-71.69297288">
    <tag k="addr:city" v="Averill"/>
    <tag k="addr:housenumber" v="687"/>
    <tag k="addr:street" v="Hatchery Brook Road"/>
    <tag k="addr:state" v="VT"/>
    <tag k="ref:vcgi:esiteid" v="307610"/>
  </node>
  <node id="-293" visible="true" lat="44.96464912" lon="-71.69171934">
    <tag k="addr:city" v="Averill"/>
    <tag k="addr:housenumber" v="801"/>
    <tag k="addr:street" v="Hatchery Brook Road"/>
    <tag k="addr:state" v="VT"/>
    <tag k="ref:vcgi:esiteid" v="307611"/>
  </node>
  <node id="-294" visible="true" lat="44.96659086" lon="-71.69288056">
    <tag k="addr:city" v="Averill"/>
    <tag k="addr:housenumber" v="470"/>
    <tag k="addr:street" v="Loop Road"/>
    <tag k="addr:state" v="VT"/>
    <tag k="ref:vcgi:esiteid" v="307612"/>
  </node>
  <node id="-295" visible="true" lat="44.96692566" lon="-71.6933416">
    <tag k="addr:city" v="Averill"/>
    <tag k="addr:housenumber" v="442"/>
    <tag k="addr:street" v="Loop Road"/>
    <tag k="addr:state" v="VT"/>
    <tag k="ref:vcgi:esiteid" v="307613"/>
  </node>
  <node id="-296" visible="true" lat="44.96754197" lon="-71.69271108">
    <tag k="addr:city" v="Averill"/>
    <tag k="addr:housenumber" v="441"/>
    <tag k="addr:street" v="Loop Road"/>
    <tag k="addr:state" v="VT"/>
    <tag k="ref:vcgi:esiteid" v="307615"/>
  </node>
  <node id="-297" visible="true" lat="44.96661756" lon="-71.69378366">
    <tag k="addr:city" v="Averill"/>
    <tag k="addr:housenumber" v="370"/>
    <tag k="addr:street" v="Loop Road"/>
    <tag k="addr:state" v="VT"/>
    <tag k="ref:vcgi:esiteid" v="307616"/>
  </node>
  <node id="-298" visible="true" lat="44.96553447" lon="-71.69312964">
    <tag k="addr:city" v="Averill"/>
    <tag k="addr:housenumber" v="270"/>
    <tag k="addr:street" v="Loop Road"/>
    <tag k="addr:state" v="VT"/>
    <tag k="ref:vcgi:esiteid" v="307617"/>
  </node>
  <node id="-299" visible="true" lat="44.96617159" lon="-71.68717413">
    <tag k="addr:city" v="Averill"/>
    <tag k="addr:housenumber" v="1025"/>
    <tag k="addr:street" v="Hatchery Brook Road"/>
    <tag k="addr:state" v="VT"/>
    <tag k="ref:vcgi:esiteid" v="307618"/>
  </node>
  <node id="-300" visible="true" lat="44.97510544" lon="-71.64759447">
    <tag k="addr:city" v="Averill"/>
    <tag k="addr:housenumber" v="1920"/>
    <tag k="addr:street" v="Canaan Hill Road"/>
    <tag k="addr:state" v="VT"/>
    <tag k="ref:vcgi:esiteid" v="307620"/>
  </node>
  <node id="-301" visible="true" lat="44.97481796" lon="-71.64298719">
    <tag k="addr:city" v="Averill"/>
    <tag k="addr:housenumber" v="2191"/>
    <tag k="addr:street" v="Canaan Hill Road"/>
    <tag k="addr:state" v="VT"/>
    <tag k="ref:vcgi:esiteid" v="307622"/>
  </node>
  <node id="-302" visible="true" lat="44.96764654" lon="-71.63286204">
    <tag k="addr:city" v="Averill"/>
    <tag k="addr:housenumber" v="2896"/>
    <tag k="addr:street" v="Canaan Hill Road"/>
    <tag k="addr:state" v="VT"/>
    <tag k="ref:vcgi:esiteid" v="307624"/>
  </node>
  <node id="-303" visible="true" lat="44.96091622" lon="-71.70638111">
    <tag k="addr:city" v="Averill"/>
    <tag k="addr:housenumber" v="278"/>
    <tag k="addr:street" v="Cowan Road"/>
    <tag k="addr:state" v="VT"/>
    <tag k="ref:vcgi:esiteid" v="307625"/>
  </node>
  <node id="-304" visible="true" lat="44.96410352" lon="-71.69317038">
    <tag k="addr:city" v="Averill"/>
    <tag k="addr:housenumber" v="164"/>
    <tag k="addr:street" v="Loop Road"/>
    <tag k="addr:state" v="VT"/>
    <tag k="ref:vcgi:esiteid" v="327134"/>
  </node>
  <node id="-305" visible="true" lat="44.96631216" lon="-71.68988406">
    <tag k="addr:city" v="Averill"/>
    <tag k="addr:housenumber" v="156"/>
    <tag k="addr:street" v="Loop Road Extension"/>
    <tag k="addr:state" v="VT"/>
    <tag k="ref:vcgi:esiteid" v="327136"/>
  </node>
  <node id="-307" visible="true" lat="44.96450834" lon="-71.69408282">
    <tag k="addr:city" v="Averill"/>
    <tag k="addr:housenumber" v="169"/>
    <tag k="addr:street" v="Loop Road"/>
    <tag k="addr:state" v="VT"/>
    <tag k="ref:vcgi:esiteid" v="340857"/>
  </node>
  <node id="-308" visible="true" lat="44.96347791" lon="-71.70008843">
    <tag k="addr:city" v="Averill"/>
    <tag k="addr:housenumber" v="285"/>
    <tag k="addr:street" v="Hatchery Brook Road"/>
    <tag k="addr:state" v="VT"/>
    <tag k="ref:vcgi:esiteid" v="341252"/>
  </node>
  <node id="-310" visible="true" lat="44.9529643" lon="-71.70824625">
    <tag k="addr:city" v="Averill"/>
    <tag k="addr:housenumber" v="870"/>
    <tag k="addr:street" v="Rodin Road"/>
    <tag k="addr:state" v="VT"/>
    <tag k="ref:vcgi:esiteid" v="345597"/>
  </node>
  <node id="-312" visible="true" lat="44.95761935" lon="-71.72871909">
    <tag k="addr:city" v="Averill"/>
    <tag k="addr:housenumber" v="3689"/>
    <tag k="addr:street" v="Jackson Road"/>
    <tag k="addr:state" v="VT"/>
    <tag k="ref:vcgi:esiteid" v="445911"/>
  </node>
  <node id="-315" visible="true" lat="44.95316605" lon="-71.72388743">
    <tag k="addr:city" v="Averill"/>
    <tag k="addr:housenumber" v="307"/>
    <tag k="addr:street" v="Dana Moore Road"/>
    <tag k="addr:state" v="VT"/>
    <tag k="ref:vcgi:esiteid" v="445939"/>
  </node>
  <node id="-316" visible="true" lat="44.96730695" lon="-71.69103996">
    <tag k="addr:city" v="Averill"/>
    <tag k="addr:housenumber" v="35"/>
    <tag k="addr:street" v="Loop Road Extension"/>
    <tag k="addr:state" v="VT"/>
    <tag k="ref:vcgi:esiteid" v="445940"/>
  </node>
  <node id="-317" visible="true" lat="44.95377575" lon="-71.72426482">
    <tag k="addr:city" v="Averill"/>
    <tag k="addr:housenumber" v="263"/>
    <tag k="addr:street" v="Dana Moore Road"/>
    <tag k="addr:state" v="VT"/>
    <tag k="ref:vcgi:esiteid" v="446015"/>
  </node>
  <node id="-318" visible="true" lat="44.95438162" lon="-71.72583262">
    <tag k="addr:city" v="Averill"/>
    <tag k="addr:housenumber" v="259"/>
    <tag k="addr:street" v="Dana Moore Road"/>
    <tag k="addr:state" v="VT"/>
    <tag k="ref:vcgi:esiteid" v="446016"/>
  </node>
  <node id="-319" visible="true" lat="44.96213093" lon="-71.71876622">
    <tag k="addr:city" v="Averill"/>
    <tag k="addr:housenumber" v="2887"/>
    <tag k="addr:street" v="Jackson Road"/>
    <tag k="addr:state" v="VT"/>
    <tag k="ref:vcgi:esiteid" v="446017"/>
  </node>
  <node id="-320" visible="true" lat="44.97651864" lon="-71.7038299">
    <tag k="addr:city" v="Averill"/>
    <tag k="addr:housenumber" v="1065"/>
    <tag k="addr:street" v="Jackson Road"/>
    <tag k="addr:state" v="VT"/>
    <tag k="ref:vcgi:esiteid" v="446019"/>
  </node>
  <node id="-377" visible="true" lat="44.96337405" lon="-71.70581368">
    <tag k="addr:city" v="Averill"/>
    <tag k="addr:housenumber" v="106"/>
    <tag k="addr:street" v="Cowan Road"/>
    <tag k="addr:state" v="VT"/>
    <tag k="ref:vcgi:esiteid" v="754933"/>
  </node>
  <node id="-385" visible="true" lat="44.96722688" lon="-71.69524957">
    <tag k="addr:city" v="Averill"/>
    <tag k="addr:housenumber" v="385"/>
    <tag k="addr:street" v="Loop Road"/>
    <tag k="addr:state" v="VT"/>
    <tag k="ref:vcgi:esiteid" v="761785"/>
  </node>
  <node id="-389" visible="true" lat="44.97697658" lon="-71.65072659">
    <tag k="addr:city" v="Averill"/>
    <tag k="addr:housenumber" v="1766"/>
    <tag k="addr:street" v="Canaan Hill Road"/>
    <tag k="addr:state" v="VT"/>
    <tag k="ref:vcgi:esiteid" v="764568"/>
  </node>
</osm>
