<?xml version="1.0" encoding="UTF-8"?>
<osm version="0.6" generator="JOSM">
  <node id="-284" visible="true" lat="44.79227066" lon="-72.7993164">
    <tag k="addr:city" v="Bakersfield"/>
    <tag k="addr:housenumber" v="200"/>
    <tag k="addr:street" v="Kimberly Hill Farm Road"/>
    <tag k="addr:state" v="VT"/>
    <tag k="ref:vcgi:esiteid" v="5397"/>
  </node>
  <node id="-290" visible="true" lat="44.79065784" lon="-72.79847789">
    <tag k="addr:city" v="Bakersfield"/>
    <tag k="addr:housenumber" v="618"/>
    <tag k="addr:street" v="Main Street North"/>
    <tag k="addr:state" v="VT"/>
    <tag k="ref:vcgi:esiteid" v="5403"/>
  </node>
  <node id="-291" visible="true" lat="44.79039938" lon="-72.79845988">
    <tag k="addr:city" v="Bakersfield"/>
    <tag k="addr:housenumber" v="604"/>
    <tag k="addr:street" v="Main Street North"/>
    <tag k="addr:state" v="VT"/>
    <tag k="ref:vcgi:esiteid" v="5404"/>
  </node>
  <node id="-295" visible="true" lat="44.78993607" lon="-72.79880353">
    <tag k="addr:city" v="Bakersfield"/>
    <tag k="addr:housenumber" v="568"/>
    <tag k="addr:street" v="Main Street North"/>
    <tag k="addr:state" v="VT"/>
    <tag k="ref:vcgi:esiteid" v="5409"/>
  </node>
  <node id="-299" visible="true" lat="44.78953933" lon="-72.7989273">
    <tag k="addr:city" v="Bakersfield"/>
    <tag k="addr:housenumber" v="536"/>
    <tag k="addr:street" v="Main Street North"/>
    <tag k="addr:state" v="VT"/>
    <tag k="ref:vcgi:esiteid" v="5413"/>
  </node>
  <node id="-300" visible="true" lat="44.78956013" lon="-72.79951703">
    <tag k="addr:city" v="Bakersfield"/>
    <tag k="addr:housenumber" v="513"/>
    <tag k="addr:street" v="Main Street North"/>
    <tag k="addr:state" v="VT"/>
    <tag k="ref:vcgi:esiteid" v="5414"/>
  </node>
  <node id="-302" visible="true" lat="44.78917345" lon="-72.79907427">
    <tag k="addr:city" v="Bakersfield"/>
    <tag k="addr:housenumber" v="508"/>
    <tag k="addr:street" v="Main Street North"/>
    <tag k="addr:state" v="VT"/>
    <tag k="ref:vcgi:esiteid" v="5416"/>
  </node>
  <node id="-304" visible="true" lat="44.78881655" lon="-72.79926963">
    <tag k="addr:city" v="Bakersfield"/>
    <tag k="addr:housenumber" v="484"/>
    <tag k="addr:street" v="Main Street North"/>
    <tag k="addr:state" v="VT"/>
    <tag k="ref:vcgi:esiteid" v="5418"/>
  </node>
  <node id="-307" visible="true" lat="44.78874969" lon="-72.80212402">
    <tag k="addr:city" v="Bakersfield"/>
    <tag k="addr:housenumber" v="5061"/>
    <tag k="addr:street" v="Egypt Road"/>
    <tag k="addr:state" v="VT"/>
    <tag k="ref:vcgi:esiteid" v="5421"/>
  </node>
  <node id="-313" visible="true" lat="44.78856277" lon="-72.80197906">
    <tag k="addr:city" v="Bakersfield"/>
    <tag k="addr:housenumber" v="5077"/>
    <tag k="addr:street" v="Egypt Road"/>
    <tag k="addr:state" v="VT"/>
    <tag k="ref:vcgi:esiteid" v="5427"/>
  </node>
  <node id="-314" visible="true" lat="44.78850145" lon="-72.79950534">
    <tag k="addr:city" v="Bakersfield"/>
    <tag k="addr:housenumber" v="462"/>
    <tag k="addr:street" v="Main Street North"/>
    <tag k="addr:state" v="VT"/>
    <tag k="ref:vcgi:esiteid" v="5429"/>
  </node>
  <node id="-320" visible="true" lat="44.788324" lon="-72.80004541">
    <tag k="addr:city" v="Bakersfield"/>
    <tag k="addr:housenumber" v="425"/>
    <tag k="addr:street" v="Main Street North"/>
    <tag k="addr:state" v="VT"/>
    <tag k="ref:vcgi:esiteid" v="5437"/>
  </node>
  <node id="-321" visible="true" lat="44.78813059" lon="-72.80187763">
    <tag k="addr:city" v="Bakersfield"/>
    <tag k="addr:housenumber" v="5094"/>
    <tag k="addr:street" v="Egypt Road"/>
    <tag k="addr:state" v="VT"/>
    <tag k="ref:vcgi:esiteid" v="5438"/>
  </node>
  <node id="-323" visible="true" lat="44.78797531" lon="-72.80046844">
    <tag k="addr:city" v="Bakersfield"/>
    <tag k="addr:housenumber" v="5165"/>
    <tag k="addr:street" v="Egypt Road"/>
    <tag k="addr:state" v="VT"/>
    <tag k="ref:vcgi:esiteid" v="5440"/>
  </node>
  <node id="-324" visible="true" lat="44.78815112" lon="-72.80018036">
    <tag k="addr:city" v="Bakersfield"/>
    <tag k="addr:housenumber" v="409"/>
    <tag k="addr:street" v="Main Street North"/>
    <tag k="addr:state" v="VT"/>
    <tag k="ref:vcgi:esiteid" v="5442"/>
  </node>
  <node id="-325" visible="true" lat="44.78792354" lon="-72.79964106">
    <tag k="addr:city" v="Bakersfield"/>
    <tag k="addr:housenumber" v="418"/>
    <tag k="addr:street" v="Main Street North"/>
    <tag k="addr:state" v="VT"/>
    <tag k="ref:vcgi:esiteid" v="5444"/>
  </node>
  <node id="-327" visible="true" lat="44.78780365" lon="-72.80142974">
    <tag k="addr:city" v="Bakersfield"/>
    <tag k="addr:housenumber" v="5116"/>
    <tag k="addr:street" v="Egypt Road"/>
    <tag k="addr:state" v="VT"/>
    <tag k="ref:vcgi:esiteid" v="5446"/>
  </node>
  <node id="-330" visible="true" lat="44.78767395" lon="-72.80042266">
    <tag k="addr:city" v="Bakersfield"/>
    <tag k="addr:housenumber" v="5172"/>
    <tag k="addr:street" v="Egypt Road"/>
    <tag k="addr:state" v="VT"/>
    <tag k="ref:vcgi:esiteid" v="5449"/>
  </node>
  <node id="-334" visible="true" lat="44.78741808" lon="-72.7995875">
    <tag k="addr:city" v="Bakersfield"/>
    <tag k="addr:housenumber" v="380"/>
    <tag k="addr:street" v="Main Street North"/>
    <tag k="addr:state" v="VT"/>
    <tag k="ref:vcgi:esiteid" v="5453"/>
  </node>
  <node id="-341" visible="true" lat="44.78703469" lon="-72.80003613">
    <tag k="addr:city" v="Bakersfield"/>
    <tag k="addr:housenumber" v="352"/>
    <tag k="addr:street" v="Main Street North"/>
    <tag k="addr:state" v="VT"/>
    <tag k="ref:vcgi:esiteid" v="5460"/>
  </node>
  <node id="-344" visible="true" lat="44.7867734" lon="-72.80010536">
    <tag k="addr:city" v="Bakersfield"/>
    <tag k="addr:housenumber" v="338"/>
    <tag k="addr:street" v="Main Street North"/>
    <tag k="addr:state" v="VT"/>
    <tag k="ref:vcgi:esiteid" v="5463"/>
  </node>
  <node id="-346" visible="true" lat="44.78651249" lon="-72.80061545">
    <tag k="addr:city" v="Bakersfield"/>
    <tag k="addr:housenumber" v="307"/>
    <tag k="addr:street" v="Main Street North"/>
    <tag k="addr:state" v="VT"/>
    <tag k="ref:vcgi:esiteid" v="5466"/>
  </node>
  <node id="-349" visible="true" lat="44.78626034" lon="-72.80023436">
    <tag k="addr:city" v="Bakersfield"/>
    <tag k="addr:housenumber" v="308"/>
    <tag k="addr:street" v="Main Street North"/>
    <tag k="addr:state" v="VT"/>
    <tag k="ref:vcgi:esiteid" v="5469"/>
  </node>
  <node id="-350" visible="true" lat="44.78624348" lon="-72.80078948">
    <tag k="addr:city" v="Bakersfield"/>
    <tag k="addr:housenumber" v="287"/>
    <tag k="addr:street" v="Main Street North"/>
    <tag k="addr:state" v="VT"/>
    <tag k="ref:vcgi:esiteid" v="5470"/>
  </node>
  <node id="-352" visible="true" lat="44.78599521" lon="-72.80026695">
    <tag k="addr:city" v="Bakersfield"/>
    <tag k="addr:housenumber" v="278"/>
    <tag k="addr:street" v="Main Street North"/>
    <tag k="addr:state" v="VT"/>
    <tag k="ref:vcgi:esiteid" v="5473"/>
  </node>
  <node id="-354" visible="true" lat="44.7856516" lon="-72.80016837">
    <tag k="addr:city" v="Bakersfield"/>
    <tag k="addr:housenumber" v="260"/>
    <tag k="addr:street" v="Main Street North"/>
    <tag k="addr:state" v="VT"/>
    <tag k="ref:vcgi:esiteid" v="5475"/>
  </node>
  <node id="-355" visible="true" lat="44.78567504" lon="-72.80094146">
    <tag k="addr:city" v="Bakersfield"/>
    <tag k="addr:housenumber" v="251"/>
    <tag k="addr:street" v="Main Street North"/>
    <tag k="addr:state" v="VT"/>
    <tag k="ref:vcgi:esiteid" v="5476"/>
  </node>
  <node id="-356" visible="true" lat="44.78540801" lon="-72.80096435">
    <tag k="addr:city" v="Bakersfield"/>
    <tag k="addr:housenumber" v="233"/>
    <tag k="addr:street" v="Main Street North"/>
    <tag k="addr:state" v="VT"/>
    <tag k="ref:vcgi:esiteid" v="5477"/>
  </node>
  <node id="-358" visible="true" lat="44.78545086" lon="-72.80032119">
    <tag k="addr:city" v="Bakersfield"/>
    <tag k="addr:housenumber" v="232"/>
    <tag k="addr:street" v="Main Street North"/>
    <tag k="addr:state" v="VT"/>
    <tag k="ref:vcgi:esiteid" v="5479"/>
  </node>
  <node id="-360" visible="true" lat="44.78525161" lon="-72.80208587">
    <tag k="addr:city" v="Bakersfield"/>
    <tag k="addr:housenumber" v="62"/>
    <tag k="addr:street" v="Avenue"/>
    <tag k="addr:state" v="VT"/>
    <tag k="ref:vcgi:esiteid" v="5481"/>
  </node>
  <node id="-362" visible="true" lat="44.78518676" lon="-72.80171203">
    <tag k="addr:city" v="Bakersfield"/>
    <tag k="addr:housenumber" v="42"/>
    <tag k="addr:street" v="Avenue"/>
    <tag k="addr:state" v="VT"/>
    <tag k="ref:vcgi:esiteid" v="5484"/>
  </node>
  <node id="-363" visible="true" lat="44.7851181" lon="-72.80117797">
    <tag k="addr:city" v="Bakersfield"/>
    <tag k="addr:housenumber" v="211"/>
    <tag k="addr:street" v="Main Street North"/>
    <tag k="addr:state" v="VT"/>
    <tag k="ref:vcgi:esiteid" v="5485"/>
  </node>
  <node id="-366" visible="true" lat="44.7849884" lon="-72.80300903">
    <tag k="addr:city" v="Bakersfield"/>
    <tag k="addr:housenumber" v="99"/>
    <tag k="addr:street" v="Avenue"/>
    <tag k="addr:state" v="VT"/>
    <tag k="ref:vcgi:esiteid" v="5489"/>
  </node>
  <node id="-397" visible="true" lat="44.78261749" lon="-72.80168391">
    <tag k="addr:city" v="Bakersfield"/>
    <tag k="addr:housenumber" v="31"/>
    <tag k="addr:street" v="Main Street North"/>
    <tag k="addr:state" v="VT"/>
    <tag k="ref:vcgi:esiteid" v="5524"/>
  </node>
  <node id="-404" visible="true" lat="44.78242602" lon="-72.80208002">
    <tag k="addr:city" v="Bakersfield"/>
    <tag k="addr:housenumber" v="4"/>
    <tag k="addr:street" v="Fairfield Road"/>
    <tag k="addr:state" v="VT"/>
    <tag k="ref:vcgi:esiteid" v="5532"/>
  </node>
  <node id="-415" visible="true" lat="44.7817963" lon="-72.8012794">
    <tag k="addr:city" v="Bakersfield"/>
    <tag k="addr:housenumber" v="26"/>
    <tag k="addr:street" v="East Bakersfield Road"/>
    <tag k="addr:state" v="VT"/>
    <tag k="ref:vcgi:esiteid" v="5543"/>
  </node>
  <node id="-418" visible="true" lat="44.78150298" lon="-72.79209846">
    <tag k="addr:city" v="Bakersfield"/>
    <tag k="addr:housenumber" v="112"/>
    <tag k="addr:street" v="King Road"/>
    <tag k="addr:state" v="VT"/>
    <tag k="ref:vcgi:esiteid" v="5548"/>
  </node>
  <node id="-426" visible="true" lat="44.7809256" lon="-72.79239108">
    <tag k="addr:city" v="Bakersfield"/>
    <tag k="addr:housenumber" v="84"/>
    <tag k="addr:street" v="King Road"/>
    <tag k="addr:state" v="VT"/>
    <tag k="ref:vcgi:esiteid" v="5557"/>
  </node>
  <node id="-432" visible="true" lat="44.78070284" lon="-72.79054633">
    <tag k="addr:city" v="Bakersfield"/>
    <tag k="addr:housenumber" v="629"/>
    <tag k="addr:street" v="East Bakersfield Road"/>
    <tag k="addr:state" v="VT"/>
    <tag k="ref:vcgi:esiteid" v="5564"/>
  </node>
  <node id="-434" visible="true" lat="44.78068193" lon="-72.78988119">
    <tag k="addr:city" v="Bakersfield"/>
    <tag k="addr:housenumber" v="653"/>
    <tag k="addr:street" v="East Bakersfield Road"/>
    <tag k="addr:state" v="VT"/>
    <tag k="ref:vcgi:esiteid" v="5566"/>
  </node>
  <node id="-436" visible="true" lat="44.78048324" lon="-72.79380798">
    <tag k="addr:city" v="Bakersfield"/>
    <tag k="addr:housenumber" v="473"/>
    <tag k="addr:street" v="East Bakersfield Road"/>
    <tag k="addr:state" v="VT"/>
    <tag k="ref:vcgi:esiteid" v="5568"/>
  </node>
  <node id="-437" visible="true" lat="44.78041968" lon="-72.78736027">
    <tag k="addr:city" v="Bakersfield"/>
    <tag k="addr:housenumber" v="771"/>
    <tag k="addr:street" v="East Bakersfield Road"/>
    <tag k="addr:state" v="VT"/>
    <tag k="ref:vcgi:esiteid" v="5569"/>
  </node>
  <node id="-438" visible="true" lat="44.78054697" lon="-72.789255">
    <tag k="addr:city" v="Bakersfield"/>
    <tag k="addr:housenumber" v="697"/>
    <tag k="addr:street" v="East Bakersfield Road"/>
    <tag k="addr:state" v="VT"/>
    <tag k="ref:vcgi:esiteid" v="5570"/>
  </node>
  <node id="-440" visible="true" lat="44.78031647" lon="-72.79837857">
    <tag k="addr:city" v="Bakersfield"/>
    <tag k="addr:housenumber" v="208"/>
    <tag k="addr:street" v="East Bakersfield Road"/>
    <tag k="addr:state" v="VT"/>
    <tag k="ref:vcgi:esiteid" v="5572"/>
  </node>
  <node id="-441" visible="true" lat="44.78026906" lon="-72.79067493">
    <tag k="addr:city" v="Bakersfield"/>
    <tag k="addr:housenumber" v="620"/>
    <tag k="addr:street" v="East Bakersfield Road"/>
    <tag k="addr:state" v="VT"/>
    <tag k="ref:vcgi:esiteid" v="5575"/>
  </node>
  <node id="-443" visible="true" lat="44.78017551" lon="-72.79122034">
    <tag k="addr:city" v="Bakersfield"/>
    <tag k="addr:housenumber" v="16"/>
    <tag k="addr:street" v="Trobridge Road"/>
    <tag k="addr:state" v="VT"/>
    <tag k="ref:vcgi:esiteid" v="5577"/>
  </node>
  <node id="-447" visible="true" lat="44.77985312" lon="-72.79113617">
    <tag k="addr:city" v="Bakersfield"/>
    <tag k="addr:housenumber" v="36"/>
    <tag k="addr:street" v="Trobridge Road"/>
    <tag k="addr:state" v="VT"/>
    <tag k="ref:vcgi:esiteid" v="5582"/>
  </node>
  <node id="-449" visible="true" lat="44.77992932" lon="-72.79757793">
    <tag k="addr:city" v="Bakersfield"/>
    <tag k="addr:housenumber" v="29"/>
    <tag k="addr:street" v="Kings Hill Road"/>
    <tag k="addr:state" v="VT"/>
    <tag k="ref:vcgi:esiteid" v="5584"/>
  </node>
  <node id="-452" visible="true" lat="44.77992942" lon="-72.78826984">
    <tag k="addr:city" v="Bakersfield"/>
    <tag k="addr:housenumber" v="742"/>
    <tag k="addr:street" v="East Bakersfield Road"/>
    <tag k="addr:state" v="VT"/>
    <tag k="ref:vcgi:esiteid" v="5587"/>
  </node>
  <node id="-454" visible="true" lat="44.77977848" lon="-72.78896302">
    <tag k="addr:city" v="Bakersfield"/>
    <tag k="addr:housenumber" v="700"/>
    <tag k="addr:street" v="East Bakersfield Road"/>
    <tag k="addr:state" v="VT"/>
    <tag k="ref:vcgi:esiteid" v="5589"/>
  </node>
  <node id="-459" visible="true" lat="44.77960108" lon="-72.79029162">
    <tag k="addr:city" v="Bakersfield"/>
    <tag k="addr:housenumber" v="75"/>
    <tag k="addr:street" v="Trobridge Road"/>
    <tag k="addr:state" v="VT"/>
    <tag k="ref:vcgi:esiteid" v="5594"/>
  </node>
  <node id="-460" visible="true" lat="44.77951332" lon="-72.79709412">
    <tag k="addr:city" v="Bakersfield"/>
    <tag k="addr:housenumber" v="272"/>
    <tag k="addr:street" v="East Bakersfield Road"/>
    <tag k="addr:state" v="VT"/>
    <tag k="ref:vcgi:esiteid" v="5595"/>
  </node>
  <node id="-462" visible="true" lat="44.77921579" lon="-72.79619249">
    <tag k="addr:city" v="Bakersfield"/>
    <tag k="addr:housenumber" v="83"/>
    <tag k="addr:street" v="Kings Hill Road"/>
    <tag k="addr:state" v="VT"/>
    <tag k="ref:vcgi:esiteid" v="5597"/>
  </node>
  <node id="-463" visible="true" lat="44.77916072" lon="-72.79483413">
    <tag k="addr:city" v="Bakersfield"/>
    <tag k="addr:housenumber" v="376"/>
    <tag k="addr:street" v="East Bakersfield Road"/>
    <tag k="addr:state" v="VT"/>
    <tag k="ref:vcgi:esiteid" v="5598"/>
  </node>
  <node id="-465" visible="true" lat="44.77892323" lon="-72.79684511">
    <tag k="addr:city" v="Bakersfield"/>
    <tag k="addr:housenumber" v="97"/>
    <tag k="addr:street" v="Kings Hill Road"/>
    <tag k="addr:state" v="VT"/>
    <tag k="ref:vcgi:esiteid" v="5601"/>
  </node>
  <node id="-479" visible="true" lat="44.77749249" lon="-72.79815796">
    <tag k="addr:city" v="Bakersfield"/>
    <tag k="addr:housenumber" v="189"/>
    <tag k="addr:street" v="Kings Hill Road"/>
    <tag k="addr:state" v="VT"/>
    <tag k="ref:vcgi:esiteid" v="5617"/>
  </node>
  <node id="-490" visible="true" lat="44.77477805" lon="-72.79037451">
    <tag k="addr:city" v="Bakersfield"/>
    <tag k="addr:housenumber" v="699"/>
    <tag k="addr:street" v="Kings Hill Road"/>
    <tag k="addr:state" v="VT"/>
    <tag k="ref:vcgi:esiteid" v="5630"/>
  </node>
  <node id="-607" visible="true" lat="44.78049348" lon="-72.78523088">
    <tag k="addr:city" v="Bakersfield"/>
    <tag k="addr:housenumber" v="802"/>
    <tag k="addr:street" v="East Bakersfield Road"/>
    <tag k="addr:state" v="VT"/>
    <tag k="ref:vcgi:esiteid" v="5753"/>
  </node>
  <node id="-613" visible="true" lat="44.78130926" lon="-72.79302461">
    <tag k="addr:city" v="Bakersfield"/>
    <tag k="addr:housenumber" v="63"/>
    <tag k="addr:street" v="King Road"/>
    <tag k="addr:state" v="VT"/>
    <tag k="ref:vcgi:esiteid" v="5759"/>
  </node>
  <node id="-629" visible="true" lat="44.77361236" lon="-72.78724693">
    <tag k="addr:city" v="Bakersfield"/>
    <tag k="addr:housenumber" v="680"/>
    <tag k="addr:street" v="Waterville Mountain Road"/>
    <tag k="addr:state" v="VT"/>
    <tag k="ref:vcgi:esiteid" v="5778"/>
  </node>
  <node id="-643" visible="true" lat="44.79181218" lon="-72.79958691">
    <tag k="addr:city" v="Bakersfield"/>
    <tag k="addr:housenumber" v="191"/>
    <tag k="addr:street" v="Kimberly Hill Farm Road"/>
    <tag k="addr:state" v="VT"/>
    <tag k="ref:vcgi:esiteid" v="5793"/>
  </node>
  <node id="-654" visible="true" lat="44.78828523" lon="-72.80074771">
    <tag k="addr:city" v="Bakersfield"/>
    <tag k="addr:housenumber" v="5139"/>
    <tag k="addr:street" v="Egypt Road"/>
    <tag k="addr:state" v="VT"/>
    <tag k="ref:vcgi:esiteid" v="5806"/>
  </node>
  <node id="-667" visible="true" lat="44.78234237" lon="-72.80175671">
    <tag k="addr:city" v="Bakersfield"/>
    <tag k="addr:housenumber" v="3"/>
    <tag k="addr:street" v="Main Street North"/>
    <tag k="addr:state" v="VT"/>
    <tag k="ref:vcgi:esiteid" v="5819"/>
  </node>
  <node id="-672" visible="true" lat="44.78573878" lon="-72.80034613">
    <tag k="addr:city" v="Bakersfield"/>
    <tag k="addr:housenumber" v="266"/>
    <tag k="addr:street" v="Main Street North"/>
    <tag k="addr:state" v="VT"/>
    <tag k="ref:vcgi:esiteid" v="5826"/>
  </node>
  <node id="-715" visible="true" lat="44.78476893" lon="-72.79788448">
    <tag k="addr:city" v="Bakersfield"/>
    <tag k="addr:housenumber" v="204"/>
    <tag k="addr:street" v="Main Street North"/>
    <tag k="addr:state" v="VT"/>
    <tag k="ref:vcgi:esiteid" v="328126"/>
  </node>
</osm>
