<?xml version="1.0" encoding="UTF-8"?>
<osm version="0.6" generator="JOSM" upload="false">
  <node id="-357" visible="true" lat="43.74657464" lon="-72.54250411">
    <tag k="addr:housenumber" v="5240"/>
    <tag k="addr:street" v="Broad Brook Road"/>
    <tag k="addr:state" v="VT"/>
    <tag k="ref:vcgi:esiteid" v="6197"/>
  </node>
  <node id="-366" visible="true" lat="43.74600979" lon="-72.54444599">
    <tag k="addr:housenumber" v="98"/>
    <tag k="addr:street" v="East Barnard Road"/>
    <tag k="addr:state" v="VT"/>
    <tag k="ref:vcgi:esiteid" v="6206"/>
  </node>
  <node id="-368" visible="true" lat="43.74598178" lon="-72.5434522">
    <tag k="addr:housenumber" v="52"/>
    <tag k="addr:street" v="East Barnard Road"/>
    <tag k="addr:state" v="VT"/>
    <tag k="ref:vcgi:esiteid" v="6208"/>
  </node>
  <node id="-370" visible="true" lat="43.74578857" lon="-72.54252624">
    <tag k="addr:housenumber" v="4"/>
    <tag k="addr:street" v="East Barnard Road"/>
    <tag k="addr:state" v="VT"/>
    <tag k="ref:vcgi:esiteid" v="6210"/>
  </node>
  <node id="-373" visible="true" lat="43.74558823" lon="-72.54415022">
    <tag k="addr:housenumber" v="75"/>
    <tag k="addr:street" v="East Barnard Road"/>
    <tag k="addr:state" v="VT"/>
    <tag k="ref:vcgi:esiteid" v="6213"/>
  </node>
  <node id="-375" visible="true" lat="43.74547717" lon="-72.54222427">
    <tag k="addr:housenumber" v="5313"/>
    <tag k="addr:street" v="Broad Brook Road"/>
    <tag k="addr:state" v="VT"/>
    <tag k="ref:vcgi:esiteid" v="6215"/>
  </node>
  <node id="-376" visible="true" lat="43.74537963" lon="-72.54309194">
    <tag k="addr:housenumber" v="23"/>
    <tag k="addr:street" v="East Barnard Road"/>
    <tag k="addr:state" v="VT"/>
    <tag k="ref:vcgi:esiteid" v="6216"/>
  </node>
  <node id="-377" visible="true" lat="43.74518216" lon="-72.54264998">
    <tag k="addr:housenumber" v="5324"/>
    <tag k="addr:street" v="Broad Brook Road"/>
    <tag k="addr:state" v="VT"/>
    <tag k="ref:vcgi:esiteid" v="6217"/>
  </node>
  <node id="-425" visible="true" lat="43.73555755" lon="-72.57644653">
    <tag k="addr:housenumber" v="661"/>
    <tag k="addr:street" v="Sayer Road"/>
    <tag k="addr:state" v="VT"/>
    <tag k="ref:vcgi:esiteid" v="6265"/>
  </node>
  <node id="-430" visible="true" lat="43.73494338" lon="-72.62363433">
    <tag k="addr:housenumber" v="138"/>
    <tag k="addr:street" v="Davis Road"/>
    <tag k="addr:state" v="VT"/>
    <tag k="ref:vcgi:esiteid" v="6270"/>
  </node>
  <node id="-433" visible="true" lat="43.73415374" lon="-72.62472534">
    <tag k="addr:housenumber" v="6714"/>
    <tag k="addr:street" v="Vermont Route 12"/>
    <tag k="addr:state" v="VT"/>
    <tag k="ref:vcgi:esiteid" v="6273"/>
  </node>
  <node id="-434" visible="true" lat="43.7338562" lon="-72.62313079">
    <tag k="addr:housenumber" v="74"/>
    <tag k="addr:street" v="Davis Road"/>
    <tag k="addr:state" v="VT"/>
    <tag k="ref:vcgi:esiteid" v="6274"/>
  </node>
  <node id="-440" visible="true" lat="43.73274511" lon="-72.59358778">
    <tag k="addr:housenumber" v="1063"/>
    <tag k="addr:street" v="Royalton Turnpike"/>
    <tag k="addr:state" v="VT"/>
    <tag k="ref:vcgi:esiteid" v="6280"/>
  </node>
  <node id="-441" visible="true" lat="43.73255799" lon="-72.62340954">
    <tag k="addr:housenumber" v="6531"/>
    <tag k="addr:street" v="Vermont Route 12"/>
    <tag k="addr:state" v="VT"/>
    <tag k="ref:vcgi:esiteid" v="6281"/>
  </node>
  <node id="-443" visible="true" lat="43.73260879" lon="-72.57357025">
    <tag k="addr:housenumber" v="853"/>
    <tag k="addr:street" v="Sayer Road"/>
    <tag k="addr:state" v="VT"/>
    <tag k="ref:vcgi:esiteid" v="6283"/>
  </node>
  <node id="-444" visible="true" lat="43.7324617" lon="-72.59067476">
    <tag k="addr:housenumber" v="967"/>
    <tag k="addr:street" v="Royalton Turnpike"/>
    <tag k="addr:state" v="VT"/>
    <tag k="ref:vcgi:esiteid" v="6284"/>
  </node>
  <node id="-446" visible="true" lat="43.7322866" lon="-72.62164423">
    <tag k="addr:housenumber" v="6444"/>
    <tag k="addr:street" v="Vermont Route 12"/>
    <tag k="addr:state" v="VT"/>
    <tag k="ref:vcgi:esiteid" v="6286"/>
  </node>
  <node id="-449" visible="true" lat="43.73142792" lon="-72.62201631">
    <tag k="addr:housenumber" v="6415"/>
    <tag k="addr:street" v="Vermont Route 12"/>
    <tag k="addr:state" v="VT"/>
    <tag k="ref:vcgi:esiteid" v="6289"/>
  </node>
  <node id="-451" visible="true" lat="43.73134231" lon="-72.62126159">
    <tag k="addr:housenumber" v="6386"/>
    <tag k="addr:street" v="Vermont Route 12"/>
    <tag k="addr:state" v="VT"/>
    <tag k="ref:vcgi:esiteid" v="6291"/>
  </node>
  <node id="-453" visible="true" lat="43.73118378" lon="-72.61460054">
    <tag k="addr:housenumber" v="104"/>
    <tag k="addr:street" v="State Park Beach Road"/>
    <tag k="addr:state" v="VT"/>
    <tag k="ref:vcgi:esiteid" v="6293"/>
  </node>
  <node id="-455" visible="true" lat="43.73086716" lon="-72.62147463">
    <tag k="addr:housenumber" v="6363"/>
    <tag k="addr:street" v="Vermont Route 12"/>
    <tag k="addr:state" v="VT"/>
    <tag k="ref:vcgi:esiteid" v="6295"/>
  </node>
  <node id="-456" visible="true" lat="43.73072616" lon="-72.62076284">
    <tag k="addr:housenumber" v="6342"/>
    <tag k="addr:street" v="Vermont Route 12"/>
    <tag k="addr:state" v="VT"/>
    <tag k="ref:vcgi:esiteid" v="6296"/>
  </node>
  <node id="-458" visible="true" lat="43.73039309" lon="-72.62071752">
    <tag k="addr:housenumber" v="6316"/>
    <tag k="addr:street" v="Vermont Route 12"/>
    <tag k="addr:state" v="VT"/>
    <tag k="ref:vcgi:esiteid" v="6299"/>
  </node>
  <node id="-459" visible="true" lat="43.7304461" lon="-72.59135209">
    <tag k="addr:housenumber" v="863"/>
    <tag k="addr:street" v="Royalton Turnpike"/>
    <tag k="addr:state" v="VT"/>
    <tag k="ref:vcgi:esiteid" v="6300"/>
  </node>
  <node id="-460" visible="true" lat="43.73014741" lon="-72.62115923">
    <tag k="addr:housenumber" v="6297"/>
    <tag k="addr:street" v="Vermont Route 12"/>
    <tag k="addr:state" v="VT"/>
    <tag k="ref:vcgi:esiteid" v="6301"/>
  </node>
  <node id="-461" visible="true" lat="43.73028367" lon="-72.61705847">
    <tag k="addr:housenumber" v="156"/>
    <tag k="addr:street" v="North Road"/>
    <tag k="addr:state" v="VT"/>
    <tag k="ref:vcgi:esiteid" v="6302"/>
  </node>
  <node id="-462" visible="true" lat="43.7303017" lon="-72.61840196">
    <tag k="addr:housenumber" v="115"/>
    <tag k="addr:street" v="North Road"/>
    <tag k="addr:state" v="VT"/>
    <tag k="ref:vcgi:esiteid" v="6303"/>
  </node>
  <node id="-464" visible="true" lat="43.72990748" lon="-72.62107104">
    <tag k="addr:housenumber" v="6291"/>
    <tag k="addr:street" v="Vermont Route 12"/>
    <tag k="addr:state" v="VT"/>
    <tag k="ref:vcgi:esiteid" v="6305"/>
  </node>
  <node id="-465" visible="true" lat="43.73008507" lon="-72.62050711">
    <tag k="addr:housenumber" v="6282"/>
    <tag k="addr:street" v="Vermont Route 12"/>
    <tag k="addr:state" v="VT"/>
    <tag k="ref:vcgi:esiteid" v="6306"/>
  </node>
  <node id="-466" visible="true" lat="43.7298355" lon="-72.6183319">
    <tag k="addr:housenumber" v="95"/>
    <tag k="addr:street" v="North Road"/>
    <tag k="addr:state" v="VT"/>
    <tag k="ref:vcgi:esiteid" v="6307"/>
  </node>
  <node id="-467" visible="true" lat="43.7298613" lon="-72.62039361">
    <tag k="addr:housenumber" v="6268"/>
    <tag k="addr:street" v="Vermont Route 12"/>
    <tag k="addr:state" v="VT"/>
    <tag k="ref:vcgi:esiteid" v="6308"/>
  </node>
  <node id="-468" visible="true" lat="43.72977299" lon="-72.6167821">
    <tag k="addr:housenumber" v="134"/>
    <tag k="addr:street" v="North Road"/>
    <tag k="addr:state" v="VT"/>
    <tag k="ref:vcgi:esiteid" v="6309"/>
  </node>
  <node id="-469" visible="true" lat="43.72962522" lon="-72.62026979">
    <tag k="addr:housenumber" v="6256"/>
    <tag k="addr:street" v="Vermont Route 12"/>
    <tag k="addr:state" v="VT"/>
    <tag k="ref:vcgi:esiteid" v="6310"/>
  </node>
  <node id="-471" visible="true" lat="43.72955812" lon="-72.61861439">
    <tag k="addr:housenumber" v="67"/>
    <tag k="addr:street" v="North Road"/>
    <tag k="addr:state" v="VT"/>
    <tag k="ref:vcgi:esiteid" v="6312"/>
  </node>
  <node id="-472" visible="true" lat="43.72931333" lon="-72.6190524">
    <tag k="addr:housenumber" v="53"/>
    <tag k="addr:street" v="North Road"/>
    <tag k="addr:state" v="VT"/>
    <tag k="ref:vcgi:esiteid" v="6314"/>
  </node>
  <node id="-473" visible="true" lat="43.72936582" lon="-72.61808015">
    <tag k="addr:housenumber" v="74"/>
    <tag k="addr:street" v="North Road"/>
    <tag k="addr:state" v="VT"/>
    <tag k="ref:vcgi:esiteid" v="6315"/>
  </node>
  <node id="-474" visible="true" lat="43.72947247" lon="-72.57203592">
    <tag k="addr:housenumber" v="1055"/>
    <tag k="addr:street" v="Sayer Road"/>
    <tag k="addr:state" v="VT"/>
    <tag k="ref:vcgi:esiteid" v="6316"/>
  </node>
  <node id="-479" visible="true" lat="43.72905126" lon="-72.61834649">
    <tag k="addr:housenumber" v="50"/>
    <tag k="addr:street" v="North Road"/>
    <tag k="addr:state" v="VT"/>
    <tag k="ref:vcgi:esiteid" v="6321"/>
  </node>
  <node id="-482" visible="true" lat="43.72865628" lon="-72.62044527">
    <tag k="addr:housenumber" v="44"/>
    <tag k="addr:street" v="Adams Road"/>
    <tag k="addr:state" v="VT"/>
    <tag k="ref:vcgi:esiteid" v="6324"/>
  </node>
  <node id="-483" visible="true" lat="43.72873733" lon="-72.58815894">
    <tag k="addr:housenumber" v="762"/>
    <tag k="addr:street" v="Royalton Turnpike"/>
    <tag k="addr:state" v="VT"/>
    <tag k="ref:vcgi:esiteid" v="6325"/>
  </node>
  <node id="-484" visible="true" lat="43.72851516" lon="-72.62011707">
    <tag k="addr:housenumber" v="11"/>
    <tag k="addr:street" v="Lili Lane"/>
    <tag k="addr:state" v="VT"/>
    <tag k="ref:vcgi:esiteid" v="6326"/>
  </node>
  <node id="-485" visible="true" lat="43.72865822" lon="-72.60501937">
    <tag k="addr:housenumber" v="323"/>
    <tag k="addr:street" v="Grove Road"/>
    <tag k="addr:state" v="VT"/>
    <tag k="ref:vcgi:esiteid" v="6327"/>
  </node>
  <node id="-486" visible="true" lat="43.72851133" lon="-72.62097932">
    <tag k="addr:housenumber" v="72"/>
    <tag k="addr:street" v="Adams Road"/>
    <tag k="addr:state" v="VT"/>
    <tag k="ref:vcgi:esiteid" v="6329"/>
  </node>
  <node id="-487" visible="true" lat="43.72851914" lon="-72.60503388">
    <tag k="addr:housenumber" v="325"/>
    <tag k="addr:street" v="Grove Road"/>
    <tag k="addr:state" v="VT"/>
    <tag k="ref:vcgi:esiteid" v="6330"/>
  </node>
  <node id="-488" visible="true" lat="43.72840297" lon="-72.60463638">
    <tag k="addr:housenumber" v="321"/>
    <tag k="addr:street" v="Grove Road"/>
    <tag k="addr:state" v="VT"/>
    <tag k="ref:vcgi:esiteid" v="6331"/>
  </node>
  <node id="-491" visible="true" lat="43.72830688" lon="-72.61683027">
    <tag k="addr:housenumber" v="6396"/>
    <tag k="addr:street" v="Stage Road"/>
    <tag k="addr:state" v="VT"/>
    <tag k="ref:vcgi:esiteid" v="6336"/>
  </node>
  <node id="-492" visible="true" lat="43.72827062" lon="-72.61661441">
    <tag k="addr:housenumber" v="6386"/>
    <tag k="addr:street" v="Stage Road"/>
    <tag k="addr:state" v="VT"/>
    <tag k="ref:vcgi:esiteid" v="6337"/>
  </node>
  <node id="-493" visible="true" lat="43.72818141" lon="-72.60465001">
    <tag k="addr:housenumber" v="305"/>
    <tag k="addr:street" v="Grove Road"/>
    <tag k="addr:state" v="VT"/>
    <tag k="ref:vcgi:esiteid" v="6338"/>
  </node>
  <node id="-494" visible="true" lat="43.72819458" lon="-72.58488016">
    <tag k="addr:housenumber" v="130"/>
    <tag k="addr:street" v="Sugar House Hill North"/>
    <tag k="addr:state" v="VT"/>
    <tag k="ref:vcgi:esiteid" v="6339"/>
  </node>
  <node id="-495" visible="true" lat="43.72802896" lon="-72.60390101">
    <tag k="addr:housenumber" v="306"/>
    <tag k="addr:street" v="Grove Road"/>
    <tag k="addr:state" v="VT"/>
    <tag k="ref:vcgi:esiteid" v="6340"/>
  </node>
  <node id="-498" visible="true" lat="43.72809554" lon="-72.61651339">
    <tag k="addr:housenumber" v="6372"/>
    <tag k="addr:street" v="Stage Road"/>
    <tag k="addr:state" v="VT"/>
    <tag k="ref:vcgi:esiteid" v="6343"/>
  </node>
  <node id="-499" visible="true" lat="43.72802046" lon="-72.62004435">
    <tag k="addr:housenumber" v="31"/>
    <tag k="addr:street" v="Lili Lane"/>
    <tag k="addr:state" v="VT"/>
    <tag k="ref:vcgi:esiteid" v="6344"/>
  </node>
  <node id="-500" visible="true" lat="43.72797938" lon="-72.60461351">
    <tag k="addr:housenumber" v="291"/>
    <tag k="addr:street" v="Grove Road"/>
    <tag k="addr:state" v="VT"/>
    <tag k="ref:vcgi:esiteid" v="6345"/>
  </node>
  <node id="-502" visible="true" lat="43.72792519" lon="-72.61393447">
    <tag k="addr:housenumber" v="6248"/>
    <tag k="addr:street" v="Stage Road"/>
    <tag k="addr:state" v="VT"/>
    <tag k="ref:vcgi:esiteid" v="6347"/>
  </node>
  <node id="-504" visible="true" lat="43.72787139" lon="-72.62039402">
    <tag k="addr:housenumber" v="24"/>
    <tag k="addr:street" v="Lili Lane"/>
    <tag k="addr:state" v="VT"/>
    <tag k="ref:vcgi:esiteid" v="6349"/>
  </node>
  <node id="-506" visible="true" lat="43.72785428" lon="-72.59146161">
    <tag k="addr:housenumber" v="661"/>
    <tag k="addr:street" v="Royalton Turnpike"/>
    <tag k="addr:state" v="VT"/>
    <tag k="ref:vcgi:esiteid" v="6351"/>
  </node>
  <node id="-507" visible="true" lat="43.72781323" lon="-72.60481818">
    <tag k="addr:housenumber" v="267"/>
    <tag k="addr:street" v="Grove Road"/>
    <tag k="addr:state" v="VT"/>
    <tag k="ref:vcgi:esiteid" v="6352"/>
  </node>
  <node id="-509" visible="true" lat="43.72776054" lon="-72.61589829">
    <tag k="addr:housenumber" v="6332"/>
    <tag k="addr:street" v="Stage Road"/>
    <tag k="addr:state" v="VT"/>
    <tag k="ref:vcgi:esiteid" v="6354"/>
  </node>
  <node id="-510" visible="true" lat="43.72777842" lon="-72.61514185">
    <tag k="addr:housenumber" v="6298"/>
    <tag k="addr:street" v="Stage Road"/>
    <tag k="addr:state" v="VT"/>
    <tag k="ref:vcgi:esiteid" v="6355"/>
  </node>
  <node id="-511" visible="true" lat="43.72779325" lon="-72.58467886">
    <tag k="addr:housenumber" v="106"/>
    <tag k="addr:street" v="Sugar House Hill North"/>
    <tag k="addr:state" v="VT"/>
    <tag k="ref:vcgi:esiteid" v="6356"/>
  </node>
  <node id="-513" visible="true" lat="43.72760009" lon="-72.61365509">
    <tag k="addr:housenumber" v="6236"/>
    <tag k="addr:street" v="Stage Road"/>
    <tag k="addr:state" v="VT"/>
    <tag k="ref:vcgi:esiteid" v="6358"/>
  </node>
  <node id="-514" visible="true" lat="43.72770268" lon="-72.60490911">
    <tag k="addr:housenumber" v="253"/>
    <tag k="addr:street" v="Grove Road"/>
    <tag k="addr:state" v="VT"/>
    <tag k="ref:vcgi:esiteid" v="6359"/>
  </node>
  <node id="-515" visible="true" lat="43.7276679" lon="-72.61949833">
    <tag k="addr:housenumber" v="6077"/>
    <tag k="addr:street" v="Vermont Route 12"/>
    <tag k="addr:state" v="VT"/>
    <tag k="ref:vcgi:esiteid" v="6360"/>
  </node>
  <node id="-516" visible="true" lat="43.72776293" lon="-72.5832652">
    <tag k="addr:housenumber" v="321"/>
    <tag k="addr:street" v="Sugar House Hill Road"/>
    <tag k="addr:state" v="VT"/>
    <tag k="ref:vcgi:esiteid" v="6361"/>
  </node>
  <node id="-518" visible="true" lat="43.72751209" lon="-72.61883267">
    <tag k="addr:housenumber" v="6082"/>
    <tag k="addr:street" v="Vermont Route 12"/>
    <tag k="addr:state" v="VT"/>
    <tag k="ref:vcgi:esiteid" v="6363"/>
  </node>
  <node id="-520" visible="true" lat="43.72752735" lon="-72.60426913">
    <tag k="addr:housenumber" v="276"/>
    <tag k="addr:street" v="Grove Road"/>
    <tag k="addr:state" v="VT"/>
    <tag k="ref:vcgi:esiteid" v="6365"/>
  </node>
  <node id="-521" visible="true" lat="43.72746061" lon="-72.60518543">
    <tag k="addr:housenumber" v="239"/>
    <tag k="addr:street" v="Grove Road"/>
    <tag k="addr:state" v="VT"/>
    <tag k="ref:vcgi:esiteid" v="6366"/>
  </node>
  <node id="-522" visible="true" lat="43.72741651" lon="-72.6166382">
    <tag k="addr:housenumber" v="6365"/>
    <tag k="addr:street" v="Stage Road"/>
    <tag k="addr:state" v="VT"/>
    <tag k="ref:vcgi:esiteid" v="6367"/>
  </node>
  <node id="-523" visible="true" lat="43.72741549" lon="-72.58997028">
    <tag k="addr:housenumber" v="29"/>
    <tag k="addr:street" v="Sugar House Hill Road"/>
    <tag k="addr:state" v="VT"/>
    <tag k="ref:vcgi:esiteid" v="6368"/>
  </node>
  <node id="-525" visible="true" lat="43.72740037" lon="-72.58474694">
    <tag k="addr:housenumber" v="66"/>
    <tag k="addr:street" v="Sugar House Hill North"/>
    <tag k="addr:state" v="VT"/>
    <tag k="ref:vcgi:esiteid" v="6370"/>
  </node>
  <node id="-526" visible="true" lat="43.72728313" lon="-72.6054283">
    <tag k="addr:housenumber" v="219"/>
    <tag k="addr:street" v="Grove Road"/>
    <tag k="addr:state" v="VT"/>
    <tag k="ref:vcgi:esiteid" v="6371"/>
  </node>
  <node id="-528" visible="true" lat="43.72726564" lon="-72.5907686">
    <tag k="addr:housenumber" v="599"/>
    <tag k="addr:street" v="Royalton Turnpike"/>
    <tag k="addr:state" v="VT"/>
    <tag k="ref:vcgi:esiteid" v="6373"/>
  </node>
  <node id="-532" visible="true" lat="43.72707531" lon="-72.60560841">
    <tag k="addr:housenumber" v="203"/>
    <tag k="addr:street" v="Grove Road"/>
    <tag k="addr:state" v="VT"/>
    <tag k="ref:vcgi:esiteid" v="6377"/>
  </node>
  <node id="-533" visible="true" lat="43.72710145" lon="-72.61968308">
    <tag k="addr:housenumber" v="6041"/>
    <tag k="addr:street" v="Vermont Route 12"/>
    <tag k="addr:state" v="VT"/>
    <tag k="ref:vcgi:esiteid" v="6378"/>
  </node>
  <node id="-534" visible="true" lat="43.72714471" lon="-72.5853144">
    <tag k="addr:housenumber" v="77"/>
    <tag k="addr:street" v="Sugar House Hill North"/>
    <tag k="addr:state" v="VT"/>
    <tag k="ref:vcgi:esiteid" v="6379"/>
  </node>
  <node id="-535" visible="true" lat="43.72697402" lon="-72.60586688">
    <tag k="addr:housenumber" v="189"/>
    <tag k="addr:street" v="Grove Road"/>
    <tag k="addr:state" v="VT"/>
    <tag k="ref:vcgi:esiteid" v="6380"/>
  </node>
  <node id="-536" visible="true" lat="43.72690983" lon="-72.58469351">
    <tag k="addr:housenumber" v="21"/>
    <tag k="addr:street" v="Sugar House Hill North"/>
    <tag k="addr:state" v="VT"/>
    <tag k="ref:vcgi:esiteid" v="6382"/>
  </node>
  <node id="-537" visible="true" lat="43.72691048" lon="-72.60773826">
    <tag k="addr:housenumber" v="62"/>
    <tag k="addr:street" v="Hickey Lane"/>
    <tag k="addr:state" v="VT"/>
    <tag k="ref:vcgi:esiteid" v="6383"/>
  </node>
  <node id="-539" visible="true" lat="43.72690915" lon="-72.60807384">
    <tag k="addr:housenumber" v="68"/>
    <tag k="addr:street" v="Hickey Lane"/>
    <tag k="addr:state" v="VT"/>
    <tag k="ref:vcgi:esiteid" v="6386"/>
  </node>
  <node id="-540" visible="true" lat="43.72688033" lon="-72.60599999">
    <tag k="addr:housenumber" v="181"/>
    <tag k="addr:street" v="Grove Road"/>
    <tag k="addr:state" v="VT"/>
    <tag k="ref:vcgi:esiteid" v="6387"/>
  </node>
  <node id="-541" visible="true" lat="43.72680055" lon="-72.60755466">
    <tag k="addr:housenumber" v="52"/>
    <tag k="addr:street" v="Hickey Lane"/>
    <tag k="addr:state" v="VT"/>
    <tag k="ref:vcgi:esiteid" v="6388"/>
  </node>
  <node id="-542" visible="true" lat="43.72683305" lon="-72.60527014">
    <tag k="addr:housenumber" v="200"/>
    <tag k="addr:street" v="Grove Road"/>
    <tag k="addr:state" v="VT"/>
    <tag k="ref:vcgi:esiteid" v="6389"/>
  </node>
  <node id="-543" visible="true" lat="43.72686108" lon="-72.61905979">
    <tag k="addr:housenumber" v="6034"/>
    <tag k="addr:street" v="Vermont Route 12"/>
    <tag k="addr:state" v="VT"/>
    <tag k="ref:vcgi:esiteid" v="6390"/>
  </node>
  <node id="-544" visible="true" lat="43.72679242" lon="-72.60618734">
    <tag k="addr:housenumber" v="169"/>
    <tag k="addr:street" v="Grove Road"/>
    <tag k="addr:state" v="VT"/>
    <tag k="ref:vcgi:esiteid" v="6391"/>
  </node>
  <node id="-545" visible="true" lat="43.72679958" lon="-72.60649428">
    <tag k="addr:housenumber" v="151"/>
    <tag k="addr:street" v="Grove Road"/>
    <tag k="addr:state" v="VT"/>
    <tag k="ref:vcgi:esiteid" v="6392"/>
  </node>
  <node id="-546" visible="true" lat="43.72670914" lon="-72.60672701">
    <tag k="addr:housenumber" v="141"/>
    <tag k="addr:street" v="Grove Road"/>
    <tag k="addr:state" v="VT"/>
    <tag k="ref:vcgi:esiteid" v="6394"/>
  </node>
  <node id="-547" visible="true" lat="43.72660195" lon="-72.58376419">
    <tag k="addr:housenumber" v="334"/>
    <tag k="addr:street" v="Sugar House Hill Road"/>
    <tag k="addr:state" v="VT"/>
    <tag k="ref:vcgi:esiteid" v="6395"/>
  </node>
  <node id="-548" visible="true" lat="43.72679727" lon="-72.58881314">
    <tag k="addr:housenumber" v="67"/>
    <tag k="addr:street" v="Sugar House Hill Road"/>
    <tag k="addr:state" v="VT"/>
    <tag k="ref:vcgi:esiteid" v="6396"/>
  </node>
  <node id="-549" visible="true" lat="43.72650898" lon="-72.60724563">
    <tag k="addr:housenumber" v="26"/>
    <tag k="addr:street" v="Hickey Lane"/>
    <tag k="addr:state" v="VT"/>
    <tag k="ref:vcgi:esiteid" v="6397"/>
  </node>
  <node id="-550" visible="true" lat="43.72666763" lon="-72.58243926">
    <tag k="addr:housenumber" v="341"/>
    <tag k="addr:street" v="Sugar House Hill Road"/>
    <tag k="addr:state" v="VT"/>
    <tag k="ref:vcgi:esiteid" v="6398"/>
  </node>
  <node id="-551" visible="true" lat="43.72669863" lon="-72.61396061">
    <tag k="addr:housenumber" v="6235"/>
    <tag k="addr:street" v="Stage Road"/>
    <tag k="addr:state" v="VT"/>
    <tag k="ref:vcgi:esiteid" v="6399"/>
  </node>
  <node id="-552" visible="true" lat="43.72645933" lon="-72.60697868">
    <tag k="addr:housenumber" v="123"/>
    <tag k="addr:street" v="Grove Road"/>
    <tag k="addr:state" v="VT"/>
    <tag k="ref:vcgi:esiteid" v="6400"/>
  </node>
  <node id="-553" visible="true" lat="43.72652222" lon="-72.60618532">
    <tag k="addr:housenumber" v="160"/>
    <tag k="addr:street" v="Grove Road"/>
    <tag k="addr:state" v="VT"/>
    <tag k="ref:vcgi:esiteid" v="6401"/>
  </node>
  <node id="-554" visible="true" lat="43.72652603" lon="-72.58726442">
    <tag k="addr:housenumber" v="125"/>
    <tag k="addr:street" v="Sugar House Hill Road"/>
    <tag k="addr:state" v="VT"/>
    <tag k="ref:vcgi:esiteid" v="6402"/>
  </node>
  <node id="-555" visible="true" lat="43.72643306" lon="-72.61618227">
    <tag k="addr:housenumber" v="6431"/>
    <tag k="addr:street" v="Stage Road"/>
    <tag k="addr:state" v="VT"/>
    <tag k="ref:vcgi:esiteid" v="6403"/>
  </node>
  <node id="-556" visible="true" lat="43.72643892" lon="-72.58324919">
    <tag k="addr:housenumber" v="372"/>
    <tag k="addr:street" v="Sugar House Hill Road"/>
    <tag k="addr:state" v="VT"/>
    <tag k="ref:vcgi:esiteid" v="6404"/>
  </node>
  <node id="-557" visible="true" lat="43.72631123" lon="-72.62049169">
    <tag k="addr:housenumber" v="5979"/>
    <tag k="addr:street" v="Vermont Route 12"/>
    <tag k="addr:state" v="VT"/>
    <tag k="ref:vcgi:esiteid" v="6405"/>
  </node>
  <node id="-558" visible="true" lat="43.72624375" lon="-72.5845331">
    <tag k="addr:housenumber" v="254"/>
    <tag k="addr:street" v="Sugar House Hill Road"/>
    <tag k="addr:state" v="VT"/>
    <tag k="ref:vcgi:esiteid" v="6406"/>
  </node>
  <node id="-559" visible="true" lat="43.72635733" lon="-72.55460599">
    <tag k="addr:housenumber" v="2373"/>
    <tag k="addr:street" v="Lime Pond Road"/>
    <tag k="addr:state" v="VT"/>
    <tag k="ref:vcgi:esiteid" v="6407"/>
  </node>
  <node id="-560" visible="true" lat="43.72621334" lon="-72.61939485">
    <tag k="addr:housenumber" v="5986"/>
    <tag k="addr:street" v="Vermont Route 12"/>
    <tag k="addr:state" v="VT"/>
    <tag k="ref:vcgi:esiteid" v="6408"/>
  </node>
  <node id="-561" visible="true" lat="43.72621259" lon="-72.58115207">
    <tag k="addr:housenumber" v="82"/>
    <tag k="addr:street" v="Button Hook Lane"/>
    <tag k="addr:state" v="VT"/>
    <tag k="ref:vcgi:esiteid" v="6409"/>
  </node>
  <node id="-562" visible="true" lat="43.72626426" lon="-72.61221405">
    <tag k="addr:housenumber" v="6125"/>
    <tag k="addr:street" v="Stage Road"/>
    <tag k="addr:state" v="VT"/>
    <tag k="ref:vcgi:esiteid" v="6410"/>
  </node>
  <node id="-563" visible="true" lat="43.72587503" lon="-72.58340218">
    <tag k="addr:housenumber" v="394"/>
    <tag k="addr:street" v="Sugar House Hill Road"/>
    <tag k="addr:state" v="VT"/>
    <tag k="ref:vcgi:esiteid" v="6412"/>
  </node>
  <node id="-565" visible="true" lat="43.72589326" lon="-72.59124926">
    <tag k="addr:housenumber" v="441"/>
    <tag k="addr:street" v="Royalton Turnpike"/>
    <tag k="addr:state" v="VT"/>
    <tag k="ref:vcgi:esiteid" v="6414"/>
  </node>
  <node id="-566" visible="true" lat="43.7252408" lon="-72.58931141">
    <tag k="addr:housenumber" v="8"/>
    <tag k="addr:street" v="Sugar House Hill Road"/>
    <tag k="addr:state" v="VT"/>
    <tag k="ref:vcgi:esiteid" v="6415"/>
  </node>
  <node id="-569" visible="true" lat="43.72585718" lon="-72.61094772">
    <tag k="addr:housenumber" v="6061"/>
    <tag k="addr:street" v="Stage Road"/>
    <tag k="addr:state" v="VT"/>
    <tag k="ref:vcgi:esiteid" v="6418"/>
  </node>
  <node id="-570" visible="true" lat="43.72589273" lon="-72.58743475">
    <tag k="addr:housenumber" v="112"/>
    <tag k="addr:street" v="Sugar House Hill Road"/>
    <tag k="addr:state" v="VT"/>
    <tag k="ref:vcgi:esiteid" v="6419"/>
  </node>
  <node id="-571" visible="true" lat="43.72566836" lon="-72.6196506">
    <tag k="addr:housenumber" v="5954"/>
    <tag k="addr:street" v="Vermont Route 12"/>
    <tag k="addr:state" v="VT"/>
    <tag k="ref:vcgi:esiteid" v="6420"/>
  </node>
  <node id="-572" visible="true" lat="43.72584836" lon="-72.61456917">
    <tag k="addr:housenumber" v="6249"/>
    <tag k="addr:street" v="Stage Road"/>
    <tag k="addr:state" v="VT"/>
    <tag k="ref:vcgi:esiteid" v="6421"/>
  </node>
  <node id="-574" visible="true" lat="43.72554554" lon="-72.58329414">
    <tag k="addr:housenumber" v="418"/>
    <tag k="addr:street" v="Sugar House Hill Road"/>
    <tag k="addr:state" v="VT"/>
    <tag k="ref:vcgi:esiteid" v="6423"/>
  </node>
  <node id="-576" visible="true" lat="43.72568961" lon="-72.55275376">
    <tag k="addr:housenumber" v="2986"/>
    <tag k="addr:street" v="Webster Hill Road"/>
    <tag k="addr:state" v="VT"/>
    <tag k="ref:vcgi:esiteid" v="6425"/>
  </node>
  <node id="-577" visible="true" lat="43.72550335" lon="-72.60534468">
    <tag k="addr:housenumber" v="5770"/>
    <tag k="addr:street" v="Stage Road"/>
    <tag k="addr:state" v="VT"/>
    <tag k="ref:vcgi:esiteid" v="6426"/>
  </node>
  <node id="-578" visible="true" lat="43.72560235" lon="-72.61041353">
    <tag k="addr:housenumber" v="6039"/>
    <tag k="addr:street" v="Stage Road"/>
    <tag k="addr:state" v="VT"/>
    <tag k="ref:vcgi:esiteid" v="6427"/>
  </node>
  <node id="-579" visible="true" lat="43.72533878" lon="-72.58146733">
    <tag k="addr:housenumber" v="24"/>
    <tag k="addr:street" v="Button Hook Lane"/>
    <tag k="addr:state" v="VT"/>
    <tag k="ref:vcgi:esiteid" v="6428"/>
  </node>
  <node id="-580" visible="true" lat="43.72534521" lon="-72.6034631">
    <tag k="addr:housenumber" v="5678"/>
    <tag k="addr:street" v="Stage Road"/>
    <tag k="addr:state" v="VT"/>
    <tag k="ref:vcgi:esiteid" v="6430"/>
  </node>
  <node id="-582" visible="true" lat="43.72527294" lon="-72.55611158">
    <tag k="addr:housenumber" v="2368"/>
    <tag k="addr:street" v="Lime Pond Road"/>
    <tag k="addr:state" v="VT"/>
    <tag k="ref:vcgi:esiteid" v="6432"/>
  </node>
  <node id="-583" visible="true" lat="43.72505998" lon="-72.61399906">
    <tag k="addr:housenumber" v="6183"/>
    <tag k="addr:street" v="Stage Road"/>
    <tag k="addr:state" v="VT"/>
    <tag k="ref:vcgi:esiteid" v="6433"/>
  </node>
  <node id="-586" visible="true" lat="43.72467704" lon="-72.61585452">
    <tag k="addr:housenumber" v="5890"/>
    <tag k="addr:street" v="Vermont Route 12"/>
    <tag k="addr:state" v="VT"/>
    <tag k="ref:vcgi:esiteid" v="6436"/>
  </node>
  <node id="-589" visible="true" lat="43.72434971" lon="-72.61867391">
    <tag k="addr:housenumber" v="5862"/>
    <tag k="addr:street" v="Vermont Route 12"/>
    <tag k="addr:state" v="VT"/>
    <tag k="ref:vcgi:esiteid" v="6440"/>
  </node>
  <node id="-590" visible="true" lat="43.72426243" lon="-72.602972">
    <tag k="addr:housenumber" v="5613"/>
    <tag k="addr:street" v="Stage Road"/>
    <tag k="addr:state" v="VT"/>
    <tag k="ref:vcgi:esiteid" v="6441"/>
  </node>
  <node id="-591" visible="true" lat="43.72417999" lon="-72.58138216">
    <tag k="addr:housenumber" v="541"/>
    <tag k="addr:street" v="Sugar House Hill Road"/>
    <tag k="addr:state" v="VT"/>
    <tag k="ref:vcgi:esiteid" v="6442"/>
  </node>
  <node id="-592" visible="true" lat="43.72435504" lon="-72.61945307">
    <tag k="addr:housenumber" v="5860"/>
    <tag k="addr:street" v="Vermont Route 12"/>
    <tag k="addr:state" v="VT"/>
    <tag k="ref:vcgi:esiteid" v="6443"/>
  </node>
  <node id="-594" visible="true" lat="43.72420802" lon="-72.6040911">
    <tag k="addr:housenumber" v="3450"/>
    <tag k="addr:street" v="North Perry Road"/>
    <tag k="addr:state" v="VT"/>
    <tag k="ref:vcgi:esiteid" v="6446"/>
  </node>
  <node id="-595" visible="true" lat="43.72394652" lon="-72.62067237">
    <tag k="addr:housenumber" v="5821"/>
    <tag k="addr:street" v="Vermont Route 12"/>
    <tag k="addr:state" v="VT"/>
    <tag k="ref:vcgi:esiteid" v="6447"/>
  </node>
  <node id="-598" visible="true" lat="43.72367275" lon="-72.62855863">
    <tag k="addr:housenumber" v="411"/>
    <tag k="addr:street" v="Bennett Road"/>
    <tag k="addr:state" v="VT"/>
    <tag k="ref:vcgi:esiteid" v="6450"/>
  </node>
  <node id="-599" visible="true" lat="43.7233087" lon="-72.60473759">
    <tag k="addr:housenumber" v="3431"/>
    <tag k="addr:street" v="North Perry Road"/>
    <tag k="addr:state" v="VT"/>
    <tag k="ref:vcgi:esiteid" v="6451"/>
  </node>
  <node id="-601" visible="true" lat="43.72361441" lon="-72.60166478">
    <tag k="addr:housenumber" v="5521"/>
    <tag k="addr:street" v="Stage Road"/>
    <tag k="addr:state" v="VT"/>
    <tag k="ref:vcgi:esiteid" v="6453"/>
  </node>
  <node id="-602" visible="true" lat="43.72326651" lon="-72.59971428">
    <tag k="addr:housenumber" v="5393"/>
    <tag k="addr:street" v="Stage Road"/>
    <tag k="addr:state" v="VT"/>
    <tag k="ref:vcgi:esiteid" v="6454"/>
  </node>
  <node id="-604" visible="true" lat="43.72315168" lon="-72.62014009">
    <tag k="addr:housenumber" v="5778"/>
    <tag k="addr:street" v="Vermont Route 12"/>
    <tag k="addr:state" v="VT"/>
    <tag k="ref:vcgi:esiteid" v="6456"/>
  </node>
  <node id="-605" visible="true" lat="43.72292661" lon="-72.61092378">
    <tag k="addr:housenumber" v="5987"/>
    <tag k="addr:street" v="Stage Road"/>
    <tag k="addr:state" v="VT"/>
    <tag k="ref:vcgi:esiteid" v="6457"/>
  </node>
  <node id="-606" visible="true" lat="43.72285549" lon="-72.59848976">
    <tag k="addr:housenumber" v="5395"/>
    <tag k="addr:street" v="Stage Road"/>
    <tag k="addr:state" v="VT"/>
    <tag k="ref:vcgi:esiteid" v="6458"/>
  </node>
  <node id="-607" visible="true" lat="43.72262906" lon="-72.62140657">
    <tag k="addr:housenumber" v="5723"/>
    <tag k="addr:street" v="Vermont Route 12"/>
    <tag k="addr:state" v="VT"/>
    <tag k="ref:vcgi:esiteid" v="6460"/>
  </node>
  <node id="-611" visible="true" lat="43.72212934" lon="-72.59759523">
    <tag k="addr:housenumber" v="5269"/>
    <tag k="addr:street" v="Stage Road"/>
    <tag k="addr:state" v="VT"/>
    <tag k="ref:vcgi:esiteid" v="6464"/>
  </node>
  <node id="-615" visible="true" lat="43.72134818" lon="-72.60120853">
    <tag k="addr:housenumber" v="3188"/>
    <tag k="addr:street" v="North Perry Road"/>
    <tag k="addr:state" v="VT"/>
    <tag k="ref:vcgi:esiteid" v="6468"/>
  </node>
  <node id="-618" visible="true" lat="43.72002362" lon="-72.62290956">
    <tag k="addr:housenumber" v="26"/>
    <tag k="addr:street" v="Bennett Road"/>
    <tag k="addr:state" v="VT"/>
    <tag k="ref:vcgi:esiteid" v="6471"/>
  </node>
  <node id="-619" visible="true" lat="43.71970918" lon="-72.62196136">
    <tag k="addr:housenumber" v="5518"/>
    <tag k="addr:street" v="Vermont Route 12"/>
    <tag k="addr:state" v="VT"/>
    <tag k="ref:vcgi:esiteid" v="6472"/>
  </node>
  <node id="-620" visible="true" lat="43.71965778" lon="-72.62466995">
    <tag k="addr:housenumber" v="129"/>
    <tag k="addr:street" v="Bennett Road"/>
    <tag k="addr:state" v="VT"/>
    <tag k="ref:vcgi:esiteid" v="6473"/>
  </node>
  <node id="-621" visible="true" lat="43.7196836" lon="-72.62791324">
    <tag k="addr:housenumber" v="285"/>
    <tag k="addr:street" v="Bennett Road"/>
    <tag k="addr:state" v="VT"/>
    <tag k="ref:vcgi:esiteid" v="6474"/>
  </node>
  <node id="-622" visible="true" lat="43.71917824" lon="-72.60211215">
    <tag k="addr:housenumber" v="3128"/>
    <tag k="addr:street" v="North Perry Road"/>
    <tag k="addr:state" v="VT"/>
    <tag k="ref:vcgi:esiteid" v="6475"/>
  </node>
  <node id="-623" visible="true" lat="43.71930258" lon="-72.59862741">
    <tag k="addr:housenumber" v="84"/>
    <tag k="addr:street" v="Garnet Hill"/>
    <tag k="addr:state" v="VT"/>
    <tag k="ref:vcgi:esiteid" v="6476"/>
  </node>
  <node id="-627" visible="true" lat="43.71852866" lon="-72.5979478">
    <tag k="addr:housenumber" v="71"/>
    <tag k="addr:street" v="Garnet Hill"/>
    <tag k="addr:state" v="VT"/>
    <tag k="ref:vcgi:esiteid" v="6480"/>
  </node>
  <node id="-628" visible="true" lat="43.71789936" lon="-72.64077934">
    <tag k="addr:housenumber" v="326"/>
    <tag k="addr:street" v="Angell Road"/>
    <tag k="addr:state" v="VT"/>
    <tag k="ref:vcgi:esiteid" v="6481"/>
  </node>
  <node id="-629" visible="true" lat="43.71792494" lon="-72.5969787">
    <tag k="addr:housenumber" v="19"/>
    <tag k="addr:street" v="Garnet Hill"/>
    <tag k="addr:state" v="VT"/>
    <tag k="ref:vcgi:esiteid" v="6482"/>
  </node>
  <node id="-630" visible="true" lat="43.7176152" lon="-72.62389009">
    <tag k="addr:housenumber" v="5363"/>
    <tag k="addr:street" v="Vermont Route 12"/>
    <tag k="addr:state" v="VT"/>
    <tag k="ref:vcgi:esiteid" v="6483"/>
  </node>
  <node id="-631" visible="true" lat="43.71739131" lon="-72.59374887">
    <tag k="addr:housenumber" v="4828"/>
    <tag k="addr:street" v="Stage Road"/>
    <tag k="addr:state" v="VT"/>
    <tag k="ref:vcgi:esiteid" v="6484"/>
  </node>
  <node id="-634" visible="true" lat="43.71589032" lon="-72.64541833">
    <tag k="addr:housenumber" v="43"/>
    <tag k="addr:street" v="Angell Road"/>
    <tag k="addr:state" v="VT"/>
    <tag k="ref:vcgi:esiteid" v="6487"/>
  </node>
  <node id="-635" visible="true" lat="43.715759" lon="-72.59041916">
    <tag k="addr:housenumber" v="4621"/>
    <tag k="addr:street" v="Stage Road"/>
    <tag k="addr:state" v="VT"/>
    <tag k="ref:vcgi:esiteid" v="6488"/>
  </node>
  <node id="-636" visible="true" lat="43.71492337" lon="-72.6198578">
    <tag k="addr:housenumber" v="5132"/>
    <tag k="addr:street" v="Vermont Route 12"/>
    <tag k="addr:state" v="VT"/>
    <tag k="ref:vcgi:esiteid" v="6489"/>
  </node>
  <node id="-637" visible="true" lat="43.71495224" lon="-72.57170809">
    <tag k="addr:housenumber" v="130"/>
    <tag k="addr:street" v="Turkey Hollow Lane"/>
    <tag k="addr:state" v="VT"/>
    <tag k="ref:vcgi:esiteid" v="6490"/>
  </node>
  <node id="-639" visible="true" lat="43.71435715" lon="-72.58746279">
    <tag k="addr:housenumber" v="4452"/>
    <tag k="addr:street" v="Stage Road"/>
    <tag k="addr:state" v="VT"/>
    <tag k="ref:vcgi:esiteid" v="6492"/>
  </node>
  <node id="-640" visible="true" lat="43.71407239" lon="-72.59502843">
    <tag k="addr:housenumber" v="321"/>
    <tag k="addr:street" v="Eastman Road"/>
    <tag k="addr:state" v="VT"/>
    <tag k="ref:vcgi:esiteid" v="6493"/>
  </node>
  <node id="-642" visible="true" lat="43.71401166" lon="-72.62377168">
    <tag k="addr:housenumber" v="5115"/>
    <tag k="addr:street" v="Vermont Route 12"/>
    <tag k="addr:state" v="VT"/>
    <tag k="ref:vcgi:esiteid" v="6495"/>
  </node>
  <node id="-643" visible="true" lat="43.7137468" lon="-72.57165469">
    <tag k="addr:housenumber" v="47"/>
    <tag k="addr:street" v="Turkey Hollow Lane"/>
    <tag k="addr:state" v="VT"/>
    <tag k="ref:vcgi:esiteid" v="6496"/>
  </node>
  <node id="-645" visible="true" lat="43.71179151" lon="-72.6251526">
    <tag k="addr:housenumber" v="1539"/>
    <tag k="addr:street" v="Gulf Road"/>
    <tag k="addr:state" v="VT"/>
    <tag k="ref:vcgi:esiteid" v="6498"/>
  </node>
  <node id="-646" visible="true" lat="43.70966454" lon="-72.59265559">
    <tag k="addr:housenumber" v="575"/>
    <tag k="addr:street" v="Eastman Road"/>
    <tag k="addr:state" v="VT"/>
    <tag k="ref:vcgi:esiteid" v="6500"/>
  </node>
  <node id="-647" visible="true" lat="43.71045853" lon="-72.57359255">
    <tag k="addr:housenumber" v="487"/>
    <tag k="addr:street" v="Lime Pond Road"/>
    <tag k="addr:state" v="VT"/>
    <tag k="ref:vcgi:esiteid" v="6501"/>
  </node>
  <node id="-648" visible="true" lat="43.71040677" lon="-72.62283327">
    <tag k="addr:housenumber" v="4891"/>
    <tag k="addr:street" v="Vermont Route 12"/>
    <tag k="addr:state" v="VT"/>
    <tag k="ref:vcgi:esiteid" v="6502"/>
  </node>
  <node id="-649" visible="true" lat="43.71054361" lon="-72.59672704">
    <tag k="addr:housenumber" v="546"/>
    <tag k="addr:street" v="Eastman Road"/>
    <tag k="addr:state" v="VT"/>
    <tag k="ref:vcgi:esiteid" v="6503"/>
  </node>
  <node id="-651" visible="true" lat="43.70951248" lon="-72.57516421">
    <tag k="addr:housenumber" v="453"/>
    <tag k="addr:street" v="Lime Pond Road"/>
    <tag k="addr:state" v="VT"/>
    <tag k="ref:vcgi:esiteid" v="6505"/>
  </node>
  <node id="-652" visible="true" lat="43.70927381" lon="-72.62040712">
    <tag k="addr:housenumber" v="4761"/>
    <tag k="addr:street" v="Vermont Route 12"/>
    <tag k="addr:state" v="VT"/>
    <tag k="ref:vcgi:esiteid" v="6506"/>
  </node>
  <node id="-654" visible="true" lat="43.7086482" lon="-72.62084199">
    <tag k="addr:housenumber" v="4763"/>
    <tag k="addr:street" v="Vermont Route 12"/>
    <tag k="addr:state" v="VT"/>
    <tag k="ref:vcgi:esiteid" v="6508"/>
  </node>
  <node id="-655" visible="true" lat="43.70855118" lon="-72.58233584">
    <tag k="addr:housenumber" v="3951"/>
    <tag k="addr:street" v="Stage Road"/>
    <tag k="addr:state" v="VT"/>
    <tag k="ref:vcgi:esiteid" v="6509"/>
  </node>
  <node id="-657" visible="true" lat="43.70809507" lon="-72.62638094">
    <tag k="addr:housenumber" v="1277"/>
    <tag k="addr:street" v="Gulf Road"/>
    <tag k="addr:state" v="VT"/>
    <tag k="ref:vcgi:esiteid" v="6511"/>
  </node>
  <node id="-658" visible="true" lat="43.70777463" lon="-72.62516023">
    <tag k="addr:housenumber" v="1214"/>
    <tag k="addr:street" v="Gulf Road"/>
    <tag k="addr:state" v="VT"/>
    <tag k="ref:vcgi:esiteid" v="6512"/>
  </node>
  <node id="-659" visible="true" lat="43.7066095" lon="-72.57569064">
    <tag k="addr:housenumber" v="284"/>
    <tag k="addr:street" v="Lime Pond Road"/>
    <tag k="addr:state" v="VT"/>
    <tag k="ref:vcgi:esiteid" v="6513"/>
  </node>
  <node id="-662" visible="true" lat="43.70440842" lon="-72.57778872">
    <tag k="addr:housenumber" v="3521"/>
    <tag k="addr:street" v="Stage Road"/>
    <tag k="addr:state" v="VT"/>
    <tag k="ref:vcgi:esiteid" v="6516"/>
  </node>
  <node id="-664" visible="true" lat="43.70404701" lon="-72.65264342">
    <tag k="addr:housenumber" v="4760"/>
    <tag k="addr:street" v="Chateauguay Road"/>
    <tag k="addr:state" v="VT"/>
    <tag k="ref:vcgi:esiteid" v="6518"/>
  </node>
  <node id="-665" visible="true" lat="43.70339899" lon="-72.596314">
    <tag k="addr:housenumber" v="1096"/>
    <tag k="addr:street" v="Eastman Road"/>
    <tag k="addr:state" v="VT"/>
    <tag k="ref:vcgi:esiteid" v="6519"/>
  </node>
  <node id="-666" visible="true" lat="43.70260953" lon="-72.589386">
    <tag k="addr:housenumber" v="329"/>
    <tag k="addr:street" v="Gray Camp Road"/>
    <tag k="addr:state" v="VT"/>
    <tag k="ref:vcgi:esiteid" v="6520"/>
  </node>
  <node id="-667" visible="true" lat="43.70256757" lon="-72.6178055">
    <tag k="addr:housenumber" v="4322"/>
    <tag k="addr:street" v="Vermont Route 12"/>
    <tag k="addr:state" v="VT"/>
    <tag k="ref:vcgi:esiteid" v="6521"/>
  </node>
  <node id="-668" visible="true" lat="43.70189813" lon="-72.58689309">
    <tag k="addr:housenumber" v="468"/>
    <tag k="addr:street" v="Gray Camp Road"/>
    <tag k="addr:state" v="VT"/>
    <tag k="ref:vcgi:esiteid" v="6522"/>
  </node>
  <node id="-670" visible="true" lat="43.7016771" lon="-72.57661379">
    <tag k="addr:housenumber" v="3376"/>
    <tag k="addr:street" v="Stage Road"/>
    <tag k="addr:state" v="VT"/>
    <tag k="ref:vcgi:esiteid" v="6524"/>
  </node>
  <node id="-671" visible="true" lat="43.70157193" lon="-72.58530427">
    <tag k="addr:housenumber" v="522"/>
    <tag k="addr:street" v="Gray Camp Road"/>
    <tag k="addr:state" v="VT"/>
    <tag k="ref:vcgi:esiteid" v="6525"/>
  </node>
  <node id="-672" visible="true" lat="43.70139869" lon="-72.62007294">
    <tag k="addr:housenumber" v="4105"/>
    <tag k="addr:street" v="Vermont Route 12"/>
    <tag k="addr:state" v="VT"/>
    <tag k="ref:vcgi:esiteid" v="6526"/>
  </node>
  <node id="-673" visible="true" lat="43.70147787" lon="-72.61850387">
    <tag k="addr:housenumber" v="4108"/>
    <tag k="addr:street" v="Vermont Route 12"/>
    <tag k="addr:state" v="VT"/>
    <tag k="ref:vcgi:esiteid" v="6527"/>
  </node>
  <node id="-674" visible="true" lat="43.70110273" lon="-72.64592745">
    <tag k="addr:housenumber" v="4411"/>
    <tag k="addr:street" v="Chateauguay Road"/>
    <tag k="addr:state" v="VT"/>
    <tag k="ref:vcgi:esiteid" v="6528"/>
  </node>
  <node id="-676" visible="true" lat="43.7009921" lon="-72.58634187">
    <tag k="addr:housenumber" v="492"/>
    <tag k="addr:street" v="Gray Camp Road"/>
    <tag k="addr:state" v="VT"/>
    <tag k="ref:vcgi:esiteid" v="6530"/>
  </node>
  <node id="-677" visible="true" lat="43.70082052" lon="-72.62966305">
    <tag k="addr:housenumber" v="817"/>
    <tag k="addr:street" v="Gulf Road"/>
    <tag k="addr:state" v="VT"/>
    <tag k="ref:vcgi:esiteid" v="6531"/>
  </node>
  <node id="-678" visible="true" lat="43.70050217" lon="-72.57566775">
    <tag k="addr:housenumber" v="3290"/>
    <tag k="addr:street" v="Stage Road"/>
    <tag k="addr:state" v="VT"/>
    <tag k="ref:vcgi:esiteid" v="6532"/>
  </node>
  <node id="-679" visible="true" lat="43.70017194" lon="-72.5788498">
    <tag k="addr:housenumber" v="3409"/>
    <tag k="addr:street" v="Stage Road"/>
    <tag k="addr:state" v="VT"/>
    <tag k="ref:vcgi:esiteid" v="6533"/>
  </node>
  <node id="-680" visible="true" lat="43.69994687" lon="-72.6172104">
    <tag k="addr:housenumber" v="3990"/>
    <tag k="addr:street" v="Vermont Route 12"/>
    <tag k="addr:state" v="VT"/>
    <tag k="ref:vcgi:esiteid" v="6534"/>
  </node>
  <node id="-681" visible="true" lat="43.70000161" lon="-72.6211179">
    <tag k="addr:housenumber" v="4107"/>
    <tag k="addr:street" v="Vermont Route 12"/>
    <tag k="addr:state" v="VT"/>
    <tag k="ref:vcgi:esiteid" v="6535"/>
  </node>
  <node id="-682" visible="true" lat="43.69988419" lon="-72.57601107">
    <tag k="addr:housenumber" v="3250"/>
    <tag k="addr:street" v="Stage Road"/>
    <tag k="addr:state" v="VT"/>
    <tag k="ref:vcgi:esiteid" v="6536"/>
  </node>
  <node id="-683" visible="true" lat="43.69819233" lon="-72.61878986">
    <tag k="addr:housenumber" v="298"/>
    <tag k="addr:street" v="Gulf Road"/>
    <tag k="addr:state" v="VT"/>
    <tag k="ref:vcgi:esiteid" v="6537"/>
  </node>
  <node id="-685" visible="true" lat="43.69770218" lon="-72.57509555">
    <tag k="addr:housenumber" v="3134"/>
    <tag k="addr:street" v="Stage Road"/>
    <tag k="addr:state" v="VT"/>
    <tag k="ref:vcgi:esiteid" v="6539"/>
  </node>
  <node id="-687" visible="true" lat="43.69685315" lon="-72.57452393">
    <tag k="addr:housenumber" v="3006"/>
    <tag k="addr:street" v="Stage Road"/>
    <tag k="addr:state" v="VT"/>
    <tag k="ref:vcgi:esiteid" v="6541"/>
  </node>
  <node id="-688" visible="true" lat="43.69669758" lon="-72.61434252">
    <tag k="addr:housenumber" v="3752"/>
    <tag k="addr:street" v="Vermont Route 12"/>
    <tag k="addr:state" v="VT"/>
    <tag k="ref:vcgi:esiteid" v="6542"/>
  </node>
  <node id="-689" visible="true" lat="43.69627332" lon="-72.57399751">
    <tag k="addr:housenumber" v="3004"/>
    <tag k="addr:street" v="Stage Road"/>
    <tag k="addr:state" v="VT"/>
    <tag k="ref:vcgi:esiteid" v="6543"/>
  </node>
  <node id="-690" visible="true" lat="43.69501757" lon="-72.57402491">
    <tag k="addr:housenumber" v="2858"/>
    <tag k="addr:street" v="Stage Road"/>
    <tag k="addr:state" v="VT"/>
    <tag k="ref:vcgi:esiteid" v="6544"/>
  </node>
  <node id="-691" visible="true" lat="43.69428975" lon="-72.57486547">
    <tag k="addr:housenumber" v="2849"/>
    <tag k="addr:street" v="Stage Road"/>
    <tag k="addr:state" v="VT"/>
    <tag k="ref:vcgi:esiteid" v="6545"/>
  </node>
  <node id="-692" visible="true" lat="43.69289848" lon="-72.57420231">
    <tag k="addr:housenumber" v="2743"/>
    <tag k="addr:street" v="Stage Road"/>
    <tag k="addr:state" v="VT"/>
    <tag k="ref:vcgi:esiteid" v="6546"/>
  </node>
  <node id="-693" visible="true" lat="43.69194432" lon="-72.59440439">
    <tag k="addr:housenumber" v="1026"/>
    <tag k="addr:street" v="South Perry Road"/>
    <tag k="addr:state" v="VT"/>
    <tag k="ref:vcgi:esiteid" v="6547"/>
  </node>
  <node id="-694" visible="true" lat="43.69184986" lon="-72.59766408">
    <tag k="addr:housenumber" v="1027"/>
    <tag k="addr:street" v="South Perry Road"/>
    <tag k="addr:state" v="VT"/>
    <tag k="ref:vcgi:esiteid" v="6548"/>
  </node>
  <node id="-695" visible="true" lat="43.69167661" lon="-72.59636689">
    <tag k="addr:housenumber" v="1004"/>
    <tag k="addr:street" v="South Perry Road"/>
    <tag k="addr:state" v="VT"/>
    <tag k="ref:vcgi:esiteid" v="6549"/>
  </node>
  <node id="-696" visible="true" lat="43.69082975" lon="-72.60713197">
    <tag k="addr:housenumber" v="3130"/>
    <tag k="addr:street" v="Vermont Route 12"/>
    <tag k="addr:state" v="VT"/>
    <tag k="ref:vcgi:esiteid" v="6550"/>
  </node>
  <node id="-698" visible="true" lat="43.69055637" lon="-72.60509456">
    <tag k="addr:housenumber" v="3018"/>
    <tag k="addr:street" v="Vermont Route 12"/>
    <tag k="addr:state" v="VT"/>
    <tag k="ref:vcgi:esiteid" v="6552"/>
  </node>
  <node id="-699" visible="true" lat="43.69028446" lon="-72.60230206">
    <tag k="addr:housenumber" v="2912"/>
    <tag k="addr:street" v="Vermont Route 12"/>
    <tag k="addr:state" v="VT"/>
    <tag k="ref:vcgi:esiteid" v="6553"/>
  </node>
  <node id="-700" visible="true" lat="43.6898837" lon="-72.59643556">
    <tag k="addr:housenumber" v="895"/>
    <tag k="addr:street" v="South Perry Road"/>
    <tag k="addr:state" v="VT"/>
    <tag k="ref:vcgi:esiteid" v="6554"/>
  </node>
  <node id="-702" visible="true" lat="43.68904518" lon="-72.60459657">
    <tag k="addr:housenumber" v="2968"/>
    <tag k="addr:street" v="Vermont Route 12"/>
    <tag k="addr:state" v="VT"/>
    <tag k="ref:vcgi:esiteid" v="6556"/>
  </node>
  <node id="-703" visible="true" lat="43.6881175" lon="-72.60679628">
    <tag k="addr:housenumber" v="3045"/>
    <tag k="addr:street" v="Vermont Route 12"/>
    <tag k="addr:state" v="VT"/>
    <tag k="ref:vcgi:esiteid" v="6557"/>
  </node>
  <node id="-704" visible="true" lat="43.68792295" lon="-72.59400178">
    <tag k="addr:housenumber" v="718"/>
    <tag k="addr:street" v="South Perry Road"/>
    <tag k="addr:state" v="VT"/>
    <tag k="ref:vcgi:esiteid" v="6558"/>
  </node>
  <node id="-705" visible="true" lat="43.68801793" lon="-72.59649481">
    <tag k="addr:housenumber" v="731"/>
    <tag k="addr:street" v="South Perry Road"/>
    <tag k="addr:state" v="VT"/>
    <tag k="ref:vcgi:esiteid" v="6559"/>
  </node>
  <node id="-706" visible="true" lat="43.68781777" lon="-72.60134421">
    <tag k="addr:housenumber" v="2762"/>
    <tag k="addr:street" v="Vermont Route 12"/>
    <tag k="addr:state" v="VT"/>
    <tag k="ref:vcgi:esiteid" v="6560"/>
  </node>
  <node id="-707" visible="true" lat="43.68697347" lon="-72.62899882">
    <tag k="addr:housenumber" v="1862"/>
    <tag k="addr:street" v="Lakota Road"/>
    <tag k="addr:state" v="VT"/>
    <tag k="ref:vcgi:esiteid" v="6561"/>
  </node>
  <node id="-708" visible="true" lat="43.6866641" lon="-72.6263199">
    <tag k="addr:housenumber" v="1702"/>
    <tag k="addr:street" v="Lakota Road"/>
    <tag k="addr:state" v="VT"/>
    <tag k="ref:vcgi:esiteid" v="6562"/>
  </node>
  <node id="-709" visible="true" lat="43.68640271" lon="-72.61527267">
    <tag k="addr:housenumber" v="1082"/>
    <tag k="addr:street" v="Lakota Road"/>
    <tag k="addr:state" v="VT"/>
    <tag k="ref:vcgi:esiteid" v="6563"/>
  </node>
  <node id="-710" visible="true" lat="43.68638132" lon="-72.6416387">
    <tag k="addr:housenumber" v="2561"/>
    <tag k="addr:street" v="Lakota Road"/>
    <tag k="addr:state" v="VT"/>
    <tag k="ref:vcgi:esiteid" v="6564"/>
  </node>
  <node id="-711" visible="true" lat="43.68624829" lon="-72.59274293">
    <tag k="addr:housenumber" v="574"/>
    <tag k="addr:street" v="South Perry Road"/>
    <tag k="addr:state" v="VT"/>
    <tag k="ref:vcgi:esiteid" v="6565"/>
  </node>
  <node id="-712" visible="true" lat="43.6863029" lon="-72.62590486">
    <tag k="addr:housenumber" v="1700"/>
    <tag k="addr:street" v="Lakota Road"/>
    <tag k="addr:state" v="VT"/>
    <tag k="ref:vcgi:esiteid" v="6566"/>
  </node>
  <node id="-713" visible="true" lat="43.68594693" lon="-72.59463502">
    <tag k="addr:housenumber" v="687"/>
    <tag k="addr:street" v="South Perry Road"/>
    <tag k="addr:state" v="VT"/>
    <tag k="ref:vcgi:esiteid" v="6567"/>
  </node>
  <node id="-714" visible="true" lat="43.68598021" lon="-72.61915402">
    <tag k="addr:housenumber" v="1306"/>
    <tag k="addr:street" v="Lakota Road"/>
    <tag k="addr:state" v="VT"/>
    <tag k="ref:vcgi:esiteid" v="6568"/>
  </node>
  <node id="-715" visible="true" lat="43.68535147" lon="-72.60067834">
    <tag k="addr:housenumber" v="2649"/>
    <tag k="addr:street" v="Vermont Route 12"/>
    <tag k="addr:state" v="VT"/>
    <tag k="ref:vcgi:esiteid" v="6569"/>
  </node>
  <node id="-716" visible="true" lat="43.68485591" lon="-72.5924896">
    <tag k="addr:housenumber" v="481"/>
    <tag k="addr:street" v="South Perry Road"/>
    <tag k="addr:state" v="VT"/>
    <tag k="ref:vcgi:esiteid" v="6570"/>
  </node>
  <node id="-717" visible="true" lat="43.68492654" lon="-72.61601636">
    <tag k="addr:housenumber" v="1143"/>
    <tag k="addr:street" v="Lakota Road"/>
    <tag k="addr:state" v="VT"/>
    <tag k="ref:vcgi:esiteid" v="6571"/>
  </node>
  <node id="-718" visible="true" lat="43.6847439" lon="-72.59906018">
    <tag k="addr:housenumber" v="2568"/>
    <tag k="addr:street" v="Vermont Route 12"/>
    <tag k="addr:state" v="VT"/>
    <tag k="ref:vcgi:esiteid" v="6572"/>
  </node>
  <node id="-719" visible="true" lat="43.68483768" lon="-72.61176609">
    <tag k="addr:housenumber" v="924"/>
    <tag k="addr:street" v="Lakota Road"/>
    <tag k="addr:state" v="VT"/>
    <tag k="ref:vcgi:esiteid" v="6573"/>
  </node>
  <node id="-720" visible="true" lat="43.68425491" lon="-72.59780274">
    <tag k="addr:housenumber" v="2504"/>
    <tag k="addr:street" v="Vermont Route 12"/>
    <tag k="addr:state" v="VT"/>
    <tag k="ref:vcgi:esiteid" v="6574"/>
  </node>
  <node id="-721" visible="true" lat="43.683556" lon="-72.59777929">
    <tag k="addr:housenumber" v="2458"/>
    <tag k="addr:street" v="Vermont Route 12"/>
    <tag k="addr:state" v="VT"/>
    <tag k="ref:vcgi:esiteid" v="6575"/>
  </node>
  <node id="-722" visible="true" lat="43.68293519" lon="-72.60605564">
    <tag k="addr:housenumber" v="610"/>
    <tag k="addr:street" v="Lakota Road"/>
    <tag k="addr:state" v="VT"/>
    <tag k="ref:vcgi:esiteid" v="6576"/>
  </node>
  <node id="-723" visible="true" lat="43.68300511" lon="-72.60801654">
    <tag k="addr:housenumber" v="703"/>
    <tag k="addr:street" v="Lakota Road"/>
    <tag k="addr:state" v="VT"/>
    <tag k="ref:vcgi:esiteid" v="6577"/>
  </node>
  <node id="-724" visible="true" lat="43.68263317" lon="-72.60315616">
    <tag k="addr:housenumber" v="428"/>
    <tag k="addr:street" v="Lakota Road"/>
    <tag k="addr:state" v="VT"/>
    <tag k="ref:vcgi:esiteid" v="6578"/>
  </node>
  <node id="-725" visible="true" lat="43.67316238" lon="-72.58547249">
    <tag k="addr:housenumber" v="34"/>
    <tag k="addr:street" v="Midsomer Meadows Lane"/>
    <tag k="addr:state" v="VT"/>
    <tag k="ref:vcgi:esiteid" v="6579"/>
  </node>
  <node id="-726" visible="true" lat="43.68259" lon="-72.60395814">
    <tag k="addr:housenumber" v="464"/>
    <tag k="addr:street" v="Lakota Road"/>
    <tag k="addr:state" v="VT"/>
    <tag k="ref:vcgi:esiteid" v="6580"/>
  </node>
  <node id="-727" visible="true" lat="43.6820712" lon="-72.60305025">
    <tag k="addr:housenumber" v="444"/>
    <tag k="addr:street" v="Lakota Road"/>
    <tag k="addr:state" v="VT"/>
    <tag k="ref:vcgi:esiteid" v="6581"/>
  </node>
  <node id="-728" visible="true" lat="43.68221191" lon="-72.59144929">
    <tag k="addr:housenumber" v="269"/>
    <tag k="addr:street" v="South Perry Road"/>
    <tag k="addr:state" v="VT"/>
    <tag k="ref:vcgi:esiteid" v="6582"/>
  </node>
  <node id="-729" visible="true" lat="43.68135241" lon="-72.59069455">
    <tag k="addr:housenumber" v="217"/>
    <tag k="addr:street" v="South Perry Road"/>
    <tag k="addr:state" v="VT"/>
    <tag k="ref:vcgi:esiteid" v="6583"/>
  </node>
  <node id="-730" visible="true" lat="43.68083143" lon="-72.59594728">
    <tag k="addr:housenumber" v="36"/>
    <tag k="addr:street" v="Lakota Road"/>
    <tag k="addr:state" v="VT"/>
    <tag k="ref:vcgi:esiteid" v="6584"/>
  </node>
  <node id="-731" visible="true" lat="43.68053006" lon="-72.5929413">
    <tag k="addr:housenumber" v="2114"/>
    <tag k="addr:street" v="Vermont Route 12"/>
    <tag k="addr:state" v="VT"/>
    <tag k="ref:vcgi:esiteid" v="6585"/>
  </node>
  <node id="-732" visible="true" lat="43.68045377" lon="-72.5924759">
    <tag k="addr:housenumber" v="2112"/>
    <tag k="addr:street" v="Vermont Route 12"/>
    <tag k="addr:state" v="VT"/>
    <tag k="ref:vcgi:esiteid" v="6586"/>
  </node>
  <node id="-733" visible="true" lat="43.68036783" lon="-72.59890831">
    <tag k="addr:housenumber" v="202"/>
    <tag k="addr:street" v="Lakota Road"/>
    <tag k="addr:state" v="VT"/>
    <tag k="ref:vcgi:esiteid" v="6587"/>
  </node>
  <node id="-734" visible="true" lat="43.68036368" lon="-72.595582">
    <tag k="addr:housenumber" v="31"/>
    <tag k="addr:street" v="Lakota Road"/>
    <tag k="addr:state" v="VT"/>
    <tag k="ref:vcgi:esiteid" v="6588"/>
  </node>
  <node id="-735" visible="true" lat="43.68030243" lon="-72.59674086">
    <tag k="addr:housenumber" v="92"/>
    <tag k="addr:street" v="Lakota Road"/>
    <tag k="addr:state" v="VT"/>
    <tag k="ref:vcgi:esiteid" v="6589"/>
  </node>
  <node id="-736" visible="true" lat="43.68031482" lon="-72.59741551">
    <tag k="addr:housenumber" v="126"/>
    <tag k="addr:street" v="Lakota Road"/>
    <tag k="addr:state" v="VT"/>
    <tag k="ref:vcgi:esiteid" v="6590"/>
  </node>
  <node id="-737" visible="true" lat="43.67993879" lon="-72.58993531">
    <tag k="addr:housenumber" v="117"/>
    <tag k="addr:street" v="South Perry Road"/>
    <tag k="addr:state" v="VT"/>
    <tag k="ref:vcgi:esiteid" v="6591"/>
  </node>
  <node id="-738" visible="true" lat="43.68004385" lon="-72.59480954">
    <tag k="addr:housenumber" v="2175"/>
    <tag k="addr:street" v="Vermont Route 12"/>
    <tag k="addr:state" v="VT"/>
    <tag k="ref:vcgi:esiteid" v="6592"/>
  </node>
  <node id="-739" visible="true" lat="43.67928647" lon="-72.59005738">
    <tag k="addr:housenumber" v="63"/>
    <tag k="addr:street" v="South Perry Road"/>
    <tag k="addr:state" v="VT"/>
    <tag k="ref:vcgi:esiteid" v="6593"/>
  </node>
  <node id="-740" visible="true" lat="43.67874799" lon="-72.58947349">
    <tag k="addr:housenumber" v="36"/>
    <tag k="addr:street" v="South Perry Road"/>
    <tag k="addr:state" v="VT"/>
    <tag k="ref:vcgi:esiteid" v="6594"/>
  </node>
  <node id="-741" visible="true" lat="43.67871294" lon="-72.59862943">
    <tag k="addr:housenumber" v="122"/>
    <tag k="addr:street" v="Schoolhouse Hill Road"/>
    <tag k="addr:state" v="VT"/>
    <tag k="ref:vcgi:esiteid" v="6595"/>
  </node>
  <node id="-742" visible="true" lat="43.6787088" lon="-72.59768905">
    <tag k="addr:housenumber" v="105"/>
    <tag k="addr:street" v="Schoolhouse Hill Road"/>
    <tag k="addr:state" v="VT"/>
    <tag k="ref:vcgi:esiteid" v="6596"/>
  </node>
  <node id="-743" visible="true" lat="43.6827963" lon="-72.59018759">
    <tag k="addr:housenumber" v="296"/>
    <tag k="addr:street" v="South Perry Road"/>
    <tag k="addr:state" v="VT"/>
    <tag k="ref:vcgi:esiteid" v="6597"/>
  </node>
  <node id="-744" visible="true" lat="43.67774533" lon="-72.59812928">
    <tag k="addr:housenumber" v="173"/>
    <tag k="addr:street" v="Schoolhouse Hill Road"/>
    <tag k="addr:state" v="VT"/>
    <tag k="ref:vcgi:esiteid" v="6598"/>
  </node>
  <node id="-745" visible="true" lat="43.67731046" lon="-72.60073091">
    <tag k="addr:housenumber" v="240"/>
    <tag k="addr:street" v="Schoolhouse Hill Road"/>
    <tag k="addr:state" v="VT"/>
    <tag k="ref:vcgi:esiteid" v="6599"/>
  </node>
  <node id="-746" visible="true" lat="43.67711972" lon="-72.59827424">
    <tag k="addr:housenumber" v="215"/>
    <tag k="addr:street" v="Schoolhouse Hill Road"/>
    <tag k="addr:state" v="VT"/>
    <tag k="ref:vcgi:esiteid" v="6600"/>
  </node>
  <node id="-747" visible="true" lat="43.67670322" lon="-72.58685728">
    <tag k="addr:housenumber" v="1727"/>
    <tag k="addr:street" v="Vermont Route 12"/>
    <tag k="addr:state" v="VT"/>
    <tag k="ref:vcgi:esiteid" v="6601"/>
  </node>
  <node id="-748" visible="true" lat="43.67640869" lon="-72.58562455">
    <tag k="addr:housenumber" v="1667"/>
    <tag k="addr:street" v="Vermont Route 12"/>
    <tag k="addr:state" v="VT"/>
    <tag k="ref:vcgi:esiteid" v="6602"/>
  </node>
  <node id="-749" visible="true" lat="43.6758685" lon="-72.59955598">
    <tag k="addr:housenumber" v="321"/>
    <tag k="addr:street" v="Schoolhouse Hill Road"/>
    <tag k="addr:state" v="VT"/>
    <tag k="ref:vcgi:esiteid" v="6603"/>
  </node>
  <node id="-750" visible="true" lat="43.6758418" lon="-72.60009004">
    <tag k="addr:housenumber" v="328"/>
    <tag k="addr:street" v="Schoolhouse Hill Road"/>
    <tag k="addr:state" v="VT"/>
    <tag k="ref:vcgi:esiteid" v="6604"/>
  </node>
  <node id="-754" visible="true" lat="43.67484101" lon="-72.60467262">
    <tag k="addr:housenumber" v="260"/>
    <tag k="addr:street" v="Green Gate Road"/>
    <tag k="addr:state" v="VT"/>
    <tag k="ref:vcgi:esiteid" v="6608"/>
  </node>
  <node id="-755" visible="true" lat="43.67492674" lon="-72.58101697">
    <tag k="addr:housenumber" v="1412"/>
    <tag k="addr:street" v="Vermont Route 12"/>
    <tag k="addr:state" v="VT"/>
    <tag k="ref:vcgi:esiteid" v="6609"/>
  </node>
  <node id="-759" visible="true" lat="43.67398404" lon="-72.60114289">
    <tag k="addr:housenumber" v="14"/>
    <tag k="addr:street" v="Green Gate Road"/>
    <tag k="addr:state" v="VT"/>
    <tag k="ref:vcgi:esiteid" v="6613"/>
  </node>
  <node id="-760" visible="true" lat="43.67387342" lon="-72.62149812">
    <tag k="addr:housenumber" v="1082"/>
    <tag k="addr:street" v="Green Gate Road"/>
    <tag k="addr:state" v="VT"/>
    <tag k="ref:vcgi:esiteid" v="6614"/>
  </node>
  <node id="-761" visible="true" lat="43.67383755" lon="-72.60418276">
    <tag k="addr:housenumber" v="121"/>
    <tag k="addr:street" v="Green Gate Road"/>
    <tag k="addr:state" v="VT"/>
    <tag k="ref:vcgi:esiteid" v="6615"/>
  </node>
  <node id="-762" visible="true" lat="43.67354941" lon="-72.58236867">
    <tag k="addr:housenumber" v="106"/>
    <tag k="addr:street" v="Midsomer Meadows Lane"/>
    <tag k="addr:state" v="VT"/>
    <tag k="ref:vcgi:esiteid" v="6616"/>
  </node>
  <node id="-765" visible="true" lat="43.69319526" lon="-72.57419642">
    <tag k="addr:housenumber" v="2751"/>
    <tag k="addr:street" v="Stage Road"/>
    <tag k="addr:state" v="VT"/>
    <tag k="ref:vcgi:esiteid" v="6620"/>
  </node>
  <node id="-766" visible="true" lat="43.69152134" lon="-72.5737726">
    <tag k="addr:housenumber" v="2655"/>
    <tag k="addr:street" v="Stage Road"/>
    <tag k="addr:state" v="VT"/>
    <tag k="ref:vcgi:esiteid" v="6621"/>
  </node>
  <node id="-785" visible="true" lat="43.71758909" lon="-72.61763426">
    <tag k="addr:housenumber" v="5460"/>
    <tag k="addr:street" v="Vermont Route 12"/>
    <tag k="addr:state" v="VT"/>
    <tag k="ref:vcgi:esiteid" v="6641"/>
  </node>
  <node id="-795" visible="true" lat="43.71237359" lon="-72.62346295">
    <tag k="addr:housenumber" v="1598"/>
    <tag k="addr:street" v="Gulf Road"/>
    <tag k="addr:state" v="VT"/>
    <tag k="ref:vcgi:esiteid" v="6651"/>
  </node>
  <node id="-796" visible="true" lat="43.72244228" lon="-72.62681425">
    <tag k="addr:housenumber" v="316"/>
    <tag k="addr:street" v="Bennett Road"/>
    <tag k="addr:state" v="VT"/>
    <tag k="ref:vcgi:esiteid" v="6652"/>
  </node>
  <node id="-799" visible="true" lat="43.72373171" lon="-72.6108953">
    <tag k="addr:housenumber" v="5985"/>
    <tag k="addr:street" v="Stage Road"/>
    <tag k="addr:state" v="VT"/>
    <tag k="ref:vcgi:esiteid" v="6656"/>
  </node>
  <node id="-800" visible="true" lat="43.72222781" lon="-72.60810796">
    <tag k="addr:housenumber" v="5893"/>
    <tag k="addr:street" v="Stage Road"/>
    <tag k="addr:state" v="VT"/>
    <tag k="ref:vcgi:esiteid" v="6657"/>
  </node>
  <node id="-802" visible="true" lat="43.72834234" lon="-72.55154629">
    <tag k="addr:housenumber" v="6790"/>
    <tag k="addr:street" v="Broad Brook Road"/>
    <tag k="addr:state" v="VT"/>
    <tag k="ref:vcgi:esiteid" v="6659"/>
  </node>
  <node id="-803" visible="true" lat="43.70866324" lon="-72.59410535">
    <tag k="addr:housenumber" v="579"/>
    <tag k="addr:street" v="Eastman Road"/>
    <tag k="addr:state" v="VT"/>
    <tag k="ref:vcgi:esiteid" v="6660"/>
  </node>
  <node id="-804" visible="true" lat="43.71426933" lon="-72.56848007">
    <tag k="addr:housenumber" v="982"/>
    <tag k="addr:street" v="Lime Pond Road"/>
    <tag k="addr:state" v="VT"/>
    <tag k="ref:vcgi:esiteid" v="6661"/>
  </node>
  <node id="-805" visible="true" lat="43.70134927" lon="-72.629794">
    <tag k="addr:housenumber" v="819"/>
    <tag k="addr:street" v="Gulf Road"/>
    <tag k="addr:state" v="VT"/>
    <tag k="ref:vcgi:esiteid" v="6662"/>
  </node>
  <node id="-806" visible="true" lat="43.69905261" lon="-72.61972546">
    <tag k="addr:housenumber" v="378"/>
    <tag k="addr:street" v="Gulf Road"/>
    <tag k="addr:state" v="VT"/>
    <tag k="ref:vcgi:esiteid" v="6663"/>
  </node>
  <node id="-807" visible="true" lat="43.70106487" lon="-72.61893157">
    <tag k="addr:housenumber" v="4106"/>
    <tag k="addr:street" v="Vermont Route 12"/>
    <tag k="addr:state" v="VT"/>
    <tag k="ref:vcgi:esiteid" v="6664"/>
  </node>
  <node id="-808" visible="true" lat="43.68085824" lon="-72.60944017">
    <tag k="addr:housenumber" v="725"/>
    <tag k="addr:street" v="Lakota Road"/>
    <tag k="addr:state" v="VT"/>
    <tag k="ref:vcgi:esiteid" v="6665"/>
  </node>
  <node id="-809" visible="true" lat="43.69369149" lon="-72.61526211">
    <tag k="addr:housenumber" v="11"/>
    <tag k="addr:street" v="Gulf Road"/>
    <tag k="addr:state" v="VT"/>
    <tag k="ref:vcgi:esiteid" v="6666"/>
  </node>
  <node id="-810" visible="true" lat="43.67388702" lon="-72.60586307">
    <tag k="addr:housenumber" v="227"/>
    <tag k="addr:street" v="Green Gate Road"/>
    <tag k="addr:state" v="VT"/>
    <tag k="ref:vcgi:esiteid" v="6667"/>
  </node>
  <node id="-812" visible="true" lat="43.73015485" lon="-72.57668508">
    <tag k="addr:housenumber" v="1044"/>
    <tag k="addr:street" v="Sayer Road"/>
    <tag k="addr:state" v="VT"/>
    <tag k="ref:vcgi:esiteid" v="6669"/>
  </node>
  <node id="-818" visible="true" lat="43.71400456" lon="-72.6463258">
    <tag k="addr:housenumber" v="3450"/>
    <tag k="addr:street" v="Chateauguay Road"/>
    <tag k="addr:state" v="VT"/>
    <tag k="ref:vcgi:esiteid" v="6675"/>
  </node>
  <node id="-822" visible="true" lat="43.78494234" lon="-72.64993727">
    <!-- match: "578 Masterson Road, , VT"  ignoring missing state when matching to "578 Masterson Road, , " -->
    <tag k="addr:housenumber" v="578"/>
    <tag k="addr:street" v="Masterson Road"/>
    <tag k="addr:state" v="VT"/>
    <tag k="ref:vcgi:esiteid" v="6680"/>
  </node>
  <node id="-825" visible="true" lat="43.70746319" lon="-72.64130744">
    <tag k="addr:housenumber" v="390"/>
    <tag k="addr:street" v="Morgan Road"/>
    <tag k="addr:state" v="VT"/>
    <tag k="ref:vcgi:esiteid" v="6685"/>
  </node>
  <node id="-826" visible="true" lat="43.70923551" lon="-72.63883108">
    <tag k="addr:housenumber" v="531"/>
    <tag k="addr:street" v="Morgan Road"/>
    <tag k="addr:state" v="VT"/>
    <tag k="ref:vcgi:esiteid" v="6686"/>
  </node>
  <node id="-827" visible="true" lat="43.71157255" lon="-72.63601909">
    <tag k="addr:housenumber" v="815"/>
    <tag k="addr:street" v="Morgan Road"/>
    <tag k="addr:state" v="VT"/>
    <tag k="ref:vcgi:esiteid" v="6687"/>
  </node>
  <node id="-836" visible="true" lat="43.73641928" lon="-72.62577048">
    <tag k="addr:housenumber" v="248"/>
    <tag k="addr:street" v="Davis Road"/>
    <tag k="addr:state" v="VT"/>
    <tag k="ref:vcgi:esiteid" v="6697"/>
  </node>
  <node id="-845" visible="true" lat="43.72508778" lon="-72.62077816">
    <tag k="addr:housenumber" v="5891"/>
    <tag k="addr:street" v="Vermont Route 12"/>
    <tag k="addr:state" v="VT"/>
    <tag k="ref:vcgi:esiteid" v="336472"/>
  </node>
  <node id="-846" visible="true" lat="43.72208942" lon="-72.62208264">
    <tag k="addr:housenumber" v="5685"/>
    <tag k="addr:street" v="Vermont Route 12"/>
    <tag k="addr:state" v="VT"/>
    <tag k="ref:vcgi:esiteid" v="336473"/>
  </node>
  <node id="-848" visible="true" lat="43.67453227" lon="-72.58673272">
    <tag k="addr:housenumber" v="16"/>
    <tag k="addr:street" v="Midsomer Meadows Lane"/>
    <tag k="addr:state" v="VT"/>
    <tag k="ref:vcgi:esiteid" v="336475"/>
  </node>
  <node id="-849" visible="true" lat="43.72253906" lon="-72.63150697">
    <tag k="addr:housenumber" v="287"/>
    <tag k="addr:street" v="Bennett Road"/>
    <tag k="addr:state" v="VT"/>
    <tag k="ref:vcgi:esiteid" v="336476"/>
  </node>
  <node id="-852" visible="true" lat="43.69042998" lon="-72.59551601">
    <tag k="addr:housenumber" v="944"/>
    <tag k="addr:street" v="South Perry Road"/>
    <tag k="addr:state" v="VT"/>
    <tag k="ref:vcgi:esiteid" v="336479"/>
  </node>
  <node id="-857" visible="true" lat="43.71597342" lon="-72.5948832">
    <tag k="addr:housenumber" v="4829"/>
    <tag k="addr:street" v="Stage Road"/>
    <tag k="addr:state" v="VT"/>
    <tag k="ref:vcgi:esiteid" v="336484"/>
  </node>
  <node id="-860" visible="true" lat="43.7069329" lon="-72.63204998">
    <tag k="addr:housenumber" v="1213"/>
    <tag k="addr:street" v="Gulf Road"/>
    <tag k="addr:state" v="VT"/>
    <tag k="ref:vcgi:esiteid" v="338422"/>
  </node>
  <node id="-861" visible="true" lat="43.69486055" lon="-72.5972418">
    <tag k="addr:housenumber" v="1202"/>
    <tag k="addr:street" v="South Perry Road"/>
    <tag k="addr:state" v="VT"/>
    <tag k="ref:vcgi:esiteid" v="343390"/>
  </node>
  <node id="-862" visible="true" lat="43.72456089" lon="-72.62139631">
    <tag k="addr:housenumber" v="5843"/>
    <tag k="addr:street" v="Vermont Route 12"/>
    <tag k="addr:state" v="VT"/>
    <tag k="ref:vcgi:esiteid" v="343391"/>
  </node>
  <node id="-870" visible="true" lat="43.67395734" lon="-72.58312417">
    <tag k="addr:housenumber" v="86"/>
    <tag k="addr:street" v="Midsomer Meadows Lane"/>
    <tag k="addr:state" v="VT"/>
    <tag k="ref:vcgi:esiteid" v="452703"/>
  </node>
  <node id="-875" visible="true" lat="43.70118401" lon="-72.6258752">
    <tag k="addr:housenumber" v="726"/>
    <tag k="addr:street" v="Gulf Road"/>
    <tag k="addr:state" v="VT"/>
    <tag k="ref:vcgi:esiteid" v="452708"/>
  </node>
  <node id="-878" visible="true" lat="43.73293884" lon="-72.61797562">
    <!-- match: "118 Birchwood Lane, , VT"  ignoring missing state when matching to "118 Birchwood Lane, , " -->
    <tag k="addr:housenumber" v="118"/>
    <tag k="addr:street" v="Birchwood Lane"/>
    <tag k="addr:state" v="VT"/>
    <tag k="ref:vcgi:esiteid" v="611085"/>
  </node>
  <node id="-881" visible="true" lat="43.67175163" lon="-72.60717904">
    <tag k="addr:housenumber" v="229"/>
    <tag k="addr:street" v="Green Gate Road"/>
    <tag k="addr:state" v="VT"/>
    <tag k="ref:vcgi:esiteid" v="617182"/>
  </node>
  <node id="-887" visible="true" lat="43.71019692" lon="-72.62429036">
    <tag k="addr:housenumber" v="1464"/>
    <tag k="addr:street" v="Gulf Road"/>
    <tag k="addr:state" v="VT"/>
    <tag k="ref:vcgi:esiteid" v="618073"/>
  </node>
  <node id="-895" visible="true" lat="43.70602521" lon="-72.6440859">
    <tag k="addr:housenumber" v="145"/>
    <tag k="addr:street" v="Morgan Road"/>
    <tag k="addr:state" v="VT"/>
    <tag k="ref:vcgi:esiteid" v="754096"/>
  </node>
  <node id="-896" visible="true" lat="43.70498859" lon="-72.64608469">
    <tag k="addr:housenumber" v="15"/>
    <tag k="addr:street" v="Morgan Road"/>
    <tag k="addr:state" v="VT"/>
    <tag k="ref:vcgi:esiteid" v="754097"/>
  </node>
  <node id="-905" visible="true" lat="43.67858185" lon="-72.59210878">
    <tag k="addr:housenumber" v="2015"/>
    <tag k="addr:street" v="Vermont Route 12"/>
    <tag k="addr:state" v="VT"/>
    <tag k="ref:vcgi:esiteid" v="755367"/>
  </node>
  <node id="-908" visible="true" lat="43.70466842" lon="-72.64426113">
    <tag k="addr:housenumber" v="98"/>
    <tag k="addr:street" v="Morgan Road"/>
    <tag k="addr:state" v="VT"/>
    <tag k="ref:vcgi:esiteid" v="756471"/>
  </node>
  <node id="-909" visible="true" lat="43.69292649" lon="-72.65600913">
    <tag k="addr:housenumber" v="5411"/>
    <tag k="addr:street" v="Chateauguay Road"/>
    <tag k="addr:state" v="VT"/>
    <tag k="ref:vcgi:esiteid" v="757191"/>
  </node>
  <node id="-916" visible="true" lat="43.69812295" lon="-72.60208377">
    <tag k="addr:housenumber" v="1545"/>
    <tag k="addr:street" v="North Perry Road"/>
    <tag k="addr:state" v="VT"/>
    <tag k="ref:vcgi:esiteid" v="758145"/>
  </node>
  <node id="-963" visible="true" lat="43.67885554" lon="-72.63841425">
    <tag k="addr:housenumber" v="1485"/>
    <tag k="addr:street" v="Green Gate Road"/>
    <tag k="addr:state" v="VT"/>
    <tag k="ref:vcgi:esiteid" v="1050953"/>
  </node>
</osm>
