<?xml version="1.0" encoding="UTF-8"?>
<osm version="0.6" generator="JOSM">
  <node id="-436" visible="true" lat="44.31062432" lon="-72.14085144">
    <tag k="addr:city" v="Barnet"/>
    <tag k="addr:housenumber" v="158"/>
    <tag k="addr:street" v="Old West Road"/>
    <tag k="addr:state" v="VT"/>
    <tag k="ref:vcgi:esiteid" v="7050"/>
  </node>
  <node id="-439" visible="true" lat="44.31059691" lon="-72.14124713">
    <tag k="addr:city" v="Barnet"/>
    <tag k="addr:housenumber" v="174"/>
    <tag k="addr:street" v="Old West Road"/>
    <tag k="addr:state" v="VT"/>
    <tag k="ref:vcgi:esiteid" v="7053"/>
  </node>
  <node id="-440" visible="true" lat="44.31051801" lon="-72.13975035">
    <tag k="addr:city" v="Barnet"/>
    <tag k="addr:housenumber" v="98"/>
    <tag k="addr:street" v="Old West Road"/>
    <tag k="addr:state" v="VT"/>
    <tag k="ref:vcgi:esiteid" v="7054"/>
  </node>
  <node id="-441" visible="true" lat="44.31053136" lon="-72.14272378">
    <tag k="addr:city" v="Barnet"/>
    <tag k="addr:housenumber" v="246"/>
    <tag k="addr:street" v="Old West Road"/>
    <tag k="addr:state" v="VT"/>
    <tag k="ref:vcgi:esiteid" v="7055"/>
  </node>
  <node id="-443" visible="true" lat="44.31013296" lon="-72.13710809">
    <tag k="addr:city" v="Barnet"/>
    <tag k="addr:housenumber" v="281"/>
    <tag k="addr:street" v="West Main Street"/>
    <tag k="addr:state" v="VT"/>
    <tag k="ref:vcgi:esiteid" v="7057"/>
  </node>
  <node id="-444" visible="true" lat="44.31029636" lon="-72.13689309">
    <tag k="addr:city" v="Barnet"/>
    <tag k="addr:housenumber" v="279"/>
    <tag k="addr:street" v="West Main Street"/>
    <tag k="addr:state" v="VT"/>
    <tag k="ref:vcgi:esiteid" v="7058"/>
  </node>
  <node id="-446" visible="true" lat="44.31016143" lon="-72.14295279">
    <tag k="addr:city" v="Barnet"/>
    <tag k="addr:housenumber" v="259"/>
    <tag k="addr:street" v="Old West Road"/>
    <tag k="addr:state" v="VT"/>
    <tag k="ref:vcgi:esiteid" v="7060"/>
  </node>
  <node id="-447" visible="true" lat="44.31034664" lon="-72.1387679">
    <tag k="addr:city" v="Barnet"/>
    <tag k="addr:housenumber" v="50"/>
    <tag k="addr:street" v="Old West Road"/>
    <tag k="addr:state" v="VT"/>
    <tag k="ref:vcgi:esiteid" v="7061"/>
  </node>
  <node id="-448" visible="true" lat="44.31023788" lon="-72.13968658">
    <tag k="addr:city" v="Barnet"/>
    <tag k="addr:housenumber" v="97"/>
    <tag k="addr:street" v="Old West Road"/>
    <tag k="addr:state" v="VT"/>
    <tag k="ref:vcgi:esiteid" v="7062"/>
  </node>
  <node id="-450" visible="true" lat="44.31022987" lon="-72.1381951">
    <tag k="addr:city" v="Barnet"/>
    <tag k="addr:housenumber" v="24"/>
    <tag k="addr:street" v="Old West Road"/>
    <tag k="addr:state" v="VT"/>
    <tag k="ref:vcgi:esiteid" v="7064"/>
  </node>
  <node id="-453" visible="true" lat="44.31016204" lon="-72.14085047">
    <tag k="addr:city" v="Barnet"/>
    <tag k="addr:housenumber" v="155"/>
    <tag k="addr:street" v="Old West Road"/>
    <tag k="addr:state" v="VT"/>
    <tag k="ref:vcgi:esiteid" v="7067"/>
  </node>
  <node id="-456" visible="true" lat="44.30999907" lon="-72.13702677">
    <tag k="addr:city" v="Barnet"/>
    <tag k="addr:housenumber" v="297"/>
    <tag k="addr:street" v="West Main Street"/>
    <tag k="addr:state" v="VT"/>
    <tag k="ref:vcgi:esiteid" v="7070"/>
  </node>
  <node id="-457" visible="true" lat="44.309906" lon="-72.13847351">
    <tag k="addr:city" v="Barnet"/>
    <tag k="addr:housenumber" v="350"/>
    <tag k="addr:street" v="West Main Street"/>
    <tag k="addr:state" v="VT"/>
    <tag k="ref:vcgi:esiteid" v="7071"/>
  </node>
  <node id="-458" visible="true" lat="44.30981056" lon="-72.13791515">
    <tag k="addr:city" v="Barnet"/>
    <tag k="addr:housenumber" v="329"/>
    <tag k="addr:street" v="West Main Street"/>
    <tag k="addr:state" v="VT"/>
    <tag k="ref:vcgi:esiteid" v="7072"/>
  </node>
  <node id="-460" visible="true" lat="44.30981213" lon="-72.13734929">
    <tag k="addr:city" v="Barnet"/>
    <tag k="addr:housenumber" v="307"/>
    <tag k="addr:street" v="West Main Street"/>
    <tag k="addr:state" v="VT"/>
    <tag k="ref:vcgi:esiteid" v="7074"/>
  </node>
  <node id="-461" visible="true" lat="44.30982534" lon="-72.13864205">
    <tag k="addr:city" v="Barnet"/>
    <tag k="addr:housenumber" v="360"/>
    <tag k="addr:street" v="West Main Street"/>
    <tag k="addr:state" v="VT"/>
    <tag k="ref:vcgi:esiteid" v="7075"/>
  </node>
  <node id="-462" visible="true" lat="44.30962743" lon="-72.13644899">
    <tag k="addr:city" v="Barnet"/>
    <tag k="addr:housenumber" v="4693"/>
    <tag k="addr:street" v="Garland Hill"/>
    <tag k="addr:state" v="VT"/>
    <tag k="ref:vcgi:esiteid" v="7076"/>
  </node>
  <node id="-463" visible="true" lat="44.30968802" lon="-72.13882847">
    <tag k="addr:city" v="Barnet"/>
    <tag k="addr:housenumber" v="376"/>
    <tag k="addr:street" v="West Main Street"/>
    <tag k="addr:state" v="VT"/>
    <tag k="ref:vcgi:esiteid" v="7077"/>
  </node>
  <node id="-468" visible="true" lat="44.30921554" lon="-72.13960266">
    <tag k="addr:city" v="Barnet"/>
    <tag k="addr:housenumber" v="418"/>
    <tag k="addr:street" v="West Main Street"/>
    <tag k="addr:state" v="VT"/>
    <tag k="ref:vcgi:esiteid" v="7083"/>
  </node>
  <node id="-470" visible="true" lat="44.30907228" lon="-72.13893579">
    <tag k="addr:city" v="Barnet"/>
    <tag k="addr:housenumber" v="405"/>
    <tag k="addr:street" v="West Main Street"/>
    <tag k="addr:state" v="VT"/>
    <tag k="ref:vcgi:esiteid" v="7085"/>
  </node>
  <node id="-476" visible="true" lat="44.30877416" lon="-72.13986121">
    <tag k="addr:city" v="Barnet"/>
    <tag k="addr:housenumber" v="454"/>
    <tag k="addr:street" v="West Main Street"/>
    <tag k="addr:state" v="VT"/>
    <tag k="ref:vcgi:esiteid" v="7091"/>
  </node>
  <node id="-477" visible="true" lat="44.30852065" lon="-72.13952904">
    <tag k="addr:city" v="Barnet"/>
    <tag k="addr:housenumber" v="457"/>
    <tag k="addr:street" v="West Main Street"/>
    <tag k="addr:state" v="VT"/>
    <tag k="ref:vcgi:esiteid" v="7092"/>
  </node>
  <node id="-481" visible="true" lat="44.30835294" lon="-72.14174759">
    <tag k="addr:city" v="Barnet"/>
    <tag k="addr:housenumber" v="532"/>
    <tag k="addr:street" v="West Main Street"/>
    <tag k="addr:state" v="VT"/>
    <tag k="ref:vcgi:esiteid" v="7096"/>
  </node>
  <node id="-484" visible="true" lat="44.30828757" lon="-72.13970384">
    <tag k="addr:city" v="Barnet"/>
    <tag k="addr:housenumber" v="477"/>
    <tag k="addr:street" v="West Main Street"/>
    <tag k="addr:state" v="VT"/>
    <tag k="ref:vcgi:esiteid" v="7099"/>
  </node>
  <node id="-486" visible="true" lat="44.30798288" lon="-72.14007121">
    <tag k="addr:city" v="Barnet"/>
    <tag k="addr:housenumber" v="503"/>
    <tag k="addr:street" v="West Main Street"/>
    <tag k="addr:state" v="VT"/>
    <tag k="ref:vcgi:esiteid" v="7101"/>
  </node>
  <node id="-487" visible="true" lat="44.30803932" lon="-72.14074325">
    <tag k="addr:city" v="Barnet"/>
    <tag k="addr:housenumber" v="520"/>
    <tag k="addr:street" v="West Main Street"/>
    <tag k="addr:state" v="VT"/>
    <tag k="ref:vcgi:esiteid" v="7102"/>
  </node>
  <node id="-489" visible="true" lat="44.30790681" lon="-72.1421593">
    <tag k="addr:city" v="Barnet"/>
    <tag k="addr:housenumber" v="612"/>
    <tag k="addr:street" v="West Main Street"/>
    <tag k="addr:state" v="VT"/>
    <tag k="ref:vcgi:esiteid" v="7104"/>
  </node>
  <node id="-491" visible="true" lat="44.30773544" lon="-72.14125824">
    <tag k="addr:city" v="Barnet"/>
    <tag k="addr:housenumber" v="554"/>
    <tag k="addr:street" v="West Main Street"/>
    <tag k="addr:state" v="VT"/>
    <tag k="ref:vcgi:esiteid" v="7106"/>
  </node>
  <node id="-495" visible="true" lat="44.30736139" lon="-72.0807785">
    <tag k="addr:city" v="Barnet"/>
    <tag k="addr:housenumber" v="163"/>
    <tag k="addr:street" v="Kid Row"/>
    <tag k="addr:state" v="VT"/>
    <tag k="ref:vcgi:esiteid" v="7110"/>
  </node>
  <node id="-589" visible="true" lat="44.29978956" lon="-72.05155575">
    <tag k="addr:city" v="Barnet"/>
    <tag k="addr:housenumber" v="219"/>
    <tag k="addr:street" v="Anderson Street"/>
    <tag k="addr:state" v="VT"/>
    <tag k="ref:vcgi:esiteid" v="7206"/>
  </node>
  <node id="-598" visible="true" lat="44.29955882" lon="-72.05141873">
    <tag k="addr:city" v="Barnet"/>
    <tag k="addr:housenumber" v="205"/>
    <tag k="addr:street" v="Anderson Street"/>
    <tag k="addr:state" v="VT"/>
    <tag k="ref:vcgi:esiteid" v="7216"/>
  </node>
  <node id="-599" visible="true" lat="44.29964832" lon="-72.0507695">
    <tag k="addr:city" v="Barnet"/>
    <tag k="addr:housenumber" v="176"/>
    <tag k="addr:street" v="Anderson Street"/>
    <tag k="addr:state" v="VT"/>
    <tag k="ref:vcgi:esiteid" v="7217"/>
  </node>
  <node id="-615" visible="true" lat="44.29915957" lon="-72.05061894">
    <tag k="addr:city" v="Barnet"/>
    <tag k="addr:housenumber" v="164"/>
    <tag k="addr:street" v="Anderson Street"/>
    <tag k="addr:state" v="VT"/>
    <tag k="ref:vcgi:esiteid" v="7235"/>
  </node>
  <node id="-617" visible="true" lat="44.2991675" lon="-72.04615665">
    <tag k="addr:city" v="Barnet"/>
    <tag k="addr:housenumber" v="1573"/>
    <tag k="addr:street" v="U.S. Route 5 South"/>
    <tag k="addr:state" v="VT"/>
    <tag k="ref:vcgi:esiteid" v="7237"/>
  </node>
  <node id="-625" visible="true" lat="44.29882461" lon="-72.04630571">
    <tag k="addr:city" v="Barnet"/>
    <tag k="addr:housenumber" v="1591"/>
    <tag k="addr:street" v="U.S. Route 5 South"/>
    <tag k="addr:state" v="VT"/>
    <tag k="ref:vcgi:esiteid" v="7245"/>
  </node>
  <node id="-632" visible="true" lat="44.29869647" lon="-72.04906652">
    <tag k="addr:city" v="Barnet"/>
    <tag k="addr:housenumber" v="52"/>
    <tag k="addr:street" v="Anderson Street"/>
    <tag k="addr:state" v="VT"/>
    <tag k="ref:vcgi:esiteid" v="7252"/>
  </node>
  <node id="-635" visible="true" lat="44.29845416" lon="-72.04898625">
    <tag k="addr:city" v="Barnet"/>
    <tag k="addr:housenumber" v="50"/>
    <tag k="addr:street" v="Anderson Street"/>
    <tag k="addr:state" v="VT"/>
    <tag k="ref:vcgi:esiteid" v="7255"/>
  </node>
  <node id="-648" visible="true" lat="44.29842125" lon="-72.04813749">
    <tag k="addr:city" v="Barnet"/>
    <tag k="addr:housenumber" v="55"/>
    <tag k="addr:street" v="Gilchrest Lane"/>
    <tag k="addr:state" v="VT"/>
    <tag k="ref:vcgi:esiteid" v="7268"/>
  </node>
  <node id="-651" visible="true" lat="44.29828442" lon="-72.04676939">
    <tag k="addr:city" v="Barnet"/>
    <tag k="addr:housenumber" v="1637"/>
    <tag k="addr:street" v="U.S. Route 5 South"/>
    <tag k="addr:state" v="VT"/>
    <tag k="ref:vcgi:esiteid" v="7271"/>
  </node>
  <node id="-653" visible="true" lat="44.29825419" lon="-72.04621558">
    <tag k="addr:city" v="Barnet"/>
    <tag k="addr:housenumber" v="1623"/>
    <tag k="addr:street" v="U.S. Route 5 South"/>
    <tag k="addr:state" v="VT"/>
    <tag k="ref:vcgi:esiteid" v="7273"/>
  </node>
  <node id="-654" visible="true" lat="44.29822884" lon="-72.05001423">
    <tag k="addr:city" v="Barnet"/>
    <tag k="addr:housenumber" v="92"/>
    <tag k="addr:street" v="Anderson Street"/>
    <tag k="addr:state" v="VT"/>
    <tag k="ref:vcgi:esiteid" v="7274"/>
  </node>
  <node id="-665" visible="true" lat="44.2975406" lon="-72.04998166">
    <tag k="addr:city" v="Barnet"/>
    <tag k="addr:housenumber" v="51"/>
    <tag k="addr:street" v="Anderson Street"/>
    <tag k="addr:state" v="VT"/>
    <tag k="ref:vcgi:esiteid" v="7286"/>
  </node>
  <node id="-667" visible="true" lat="44.2974472" lon="-72.04773712">
    <tag k="addr:city" v="Barnet"/>
    <tag k="addr:housenumber" v="1711"/>
    <tag k="addr:street" v="U.S. Route 5 South"/>
    <tag k="addr:state" v="VT"/>
    <tag k="ref:vcgi:esiteid" v="7288"/>
  </node>
  <node id="-669" visible="true" lat="44.29742793" lon="-72.05507773">
    <tag k="addr:city" v="Barnet"/>
    <tag k="addr:housenumber" v="276"/>
    <tag k="addr:street" v="Church Street"/>
    <tag k="addr:state" v="VT"/>
    <tag k="ref:vcgi:esiteid" v="7290"/>
  </node>
  <node id="-671" visible="true" lat="44.29710006" lon="-72.0482254">
    <tag k="addr:city" v="Barnet"/>
    <tag k="addr:housenumber" v="1743"/>
    <tag k="addr:street" v="U.S. Route 5 South"/>
    <tag k="addr:state" v="VT"/>
    <tag k="ref:vcgi:esiteid" v="7292"/>
  </node>
  <node id="-672" visible="true" lat="44.2970418" lon="-72.05227996">
    <tag k="addr:city" v="Barnet"/>
    <tag k="addr:housenumber" v="136"/>
    <tag k="addr:street" v="Church Street"/>
    <tag k="addr:state" v="VT"/>
    <tag k="ref:vcgi:esiteid" v="7293"/>
  </node>
  <node id="-673" visible="true" lat="44.29682316" lon="-72.04983722">
    <tag k="addr:city" v="Barnet"/>
    <tag k="addr:housenumber" v="64"/>
    <tag k="addr:street" v="Monument Circle"/>
    <tag k="addr:state" v="VT"/>
    <tag k="ref:vcgi:esiteid" v="7294"/>
  </node>
  <node id="-675" visible="true" lat="44.2968734" lon="-72.04962795">
    <tag k="addr:city" v="Barnet"/>
    <tag k="addr:housenumber" v="60"/>
    <tag k="addr:street" v="Monument Circle"/>
    <tag k="addr:state" v="VT"/>
    <tag k="ref:vcgi:esiteid" v="7296"/>
  </node>
  <node id="-679" visible="true" lat="44.29667663" lon="-72.05339813">
    <tag k="addr:city" v="Barnet"/>
    <tag k="addr:housenumber" v="186"/>
    <tag k="addr:street" v="Church Street"/>
    <tag k="addr:state" v="VT"/>
    <tag k="ref:vcgi:esiteid" v="7300"/>
  </node>
  <node id="-680" visible="true" lat="44.29660034" lon="-72.05425262">
    <tag k="addr:city" v="Barnet"/>
    <tag k="addr:housenumber" v="219"/>
    <tag k="addr:street" v="Church Street"/>
    <tag k="addr:state" v="VT"/>
    <tag k="ref:vcgi:esiteid" v="7301"/>
  </node>
  <node id="-683" visible="true" lat="44.29664424" lon="-72.05300215">
    <tag k="addr:city" v="Barnet"/>
    <tag k="addr:housenumber" v="160"/>
    <tag k="addr:street" v="Church Street"/>
    <tag k="addr:state" v="VT"/>
    <tag k="ref:vcgi:esiteid" v="7304"/>
  </node>
  <node id="-684" visible="true" lat="44.29652404" lon="-72.05046844">
    <tag k="addr:city" v="Barnet"/>
    <tag k="addr:housenumber" v="30"/>
    <tag k="addr:street" v="Church Street"/>
    <tag k="addr:state" v="VT"/>
    <tag k="ref:vcgi:esiteid" v="7305"/>
  </node>
  <node id="-685" visible="true" lat="44.29658781" lon="-72.0528516">
    <tag k="addr:city" v="Barnet"/>
    <tag k="addr:housenumber" v="154"/>
    <tag k="addr:street" v="Church Street"/>
    <tag k="addr:state" v="VT"/>
    <tag k="ref:vcgi:esiteid" v="7306"/>
  </node>
  <node id="-686" visible="true" lat="44.29649756" lon="-72.05241249">
    <tag k="addr:city" v="Barnet"/>
    <tag k="addr:housenumber" v="128"/>
    <tag k="addr:street" v="Church Street"/>
    <tag k="addr:state" v="VT"/>
    <tag k="ref:vcgi:esiteid" v="7307"/>
  </node>
  <node id="-687" visible="true" lat="44.29652722" lon="-72.05156741">
    <tag k="addr:city" v="Barnet"/>
    <tag k="addr:housenumber" v="100"/>
    <tag k="addr:street" v="Church Street"/>
    <tag k="addr:state" v="VT"/>
    <tag k="ref:vcgi:esiteid" v="7309"/>
  </node>
  <node id="-688" visible="true" lat="44.29646445" lon="-72.05371611">
    <tag k="addr:city" v="Barnet"/>
    <tag k="addr:housenumber" v="185"/>
    <tag k="addr:street" v="Church Street"/>
    <tag k="addr:state" v="VT"/>
    <tag k="ref:vcgi:esiteid" v="7310"/>
  </node>
  <node id="-689" visible="true" lat="44.29644012" lon="-72.05200958">
    <tag k="addr:city" v="Barnet"/>
    <tag k="addr:housenumber" v="110"/>
    <tag k="addr:street" v="Church Street"/>
    <tag k="addr:state" v="VT"/>
    <tag k="ref:vcgi:esiteid" v="7311"/>
  </node>
  <node id="-693" visible="true" lat="44.29643415" lon="-72.05082591">
    <tag k="addr:city" v="Barnet"/>
    <tag k="addr:housenumber" v="52"/>
    <tag k="addr:street" v="Church Street"/>
    <tag k="addr:state" v="VT"/>
    <tag k="ref:vcgi:esiteid" v="7315"/>
  </node>
  <node id="-694" visible="true" lat="44.29634725" lon="-72.04872332">
    <tag k="addr:city" v="Barnet"/>
    <tag k="addr:housenumber" v="1803"/>
    <tag k="addr:street" v="U.S. Route 5 South"/>
    <tag k="addr:state" v="VT"/>
    <tag k="ref:vcgi:esiteid" v="7316"/>
  </node>
  <node id="-695" visible="true" lat="44.29625601" lon="-72.05326364">
    <tag k="addr:city" v="Barnet"/>
    <tag k="addr:housenumber" v="171"/>
    <tag k="addr:street" v="Church Street"/>
    <tag k="addr:state" v="VT"/>
    <tag k="ref:vcgi:esiteid" v="7317"/>
  </node>
  <node id="-696" visible="true" lat="44.29614571" lon="-72.05243807">
    <tag k="addr:city" v="Barnet"/>
    <tag k="addr:housenumber" v="127"/>
    <tag k="addr:street" v="Church Street"/>
    <tag k="addr:state" v="VT"/>
    <tag k="ref:vcgi:esiteid" v="7318"/>
  </node>
  <node id="-698" visible="true" lat="44.29609994" lon="-72.05207949">
    <tag k="addr:city" v="Barnet"/>
    <tag k="addr:housenumber" v="109"/>
    <tag k="addr:street" v="Church Street"/>
    <tag k="addr:state" v="VT"/>
    <tag k="ref:vcgi:esiteid" v="7321"/>
  </node>
  <node id="-699" visible="true" lat="44.2961556" lon="-72.0509667">
    <tag k="addr:city" v="Barnet"/>
    <tag k="addr:housenumber" v="57"/>
    <tag k="addr:street" v="Church Street"/>
    <tag k="addr:state" v="VT"/>
    <tag k="ref:vcgi:esiteid" v="7322"/>
  </node>
  <node id="-703" visible="true" lat="44.29608358" lon="-72.05137805">
    <tag k="addr:city" v="Barnet"/>
    <tag k="addr:housenumber" v="77"/>
    <tag k="addr:street" v="Church Street"/>
    <tag k="addr:state" v="VT"/>
    <tag k="ref:vcgi:esiteid" v="7326"/>
  </node>
  <node id="-706" visible="true" lat="44.29603747" lon="-72.05032165">
    <tag k="addr:city" v="Barnet"/>
    <tag k="addr:housenumber" v="1872"/>
    <tag k="addr:street" v="U.S. Route 5 South"/>
    <tag k="addr:state" v="VT"/>
    <tag k="ref:vcgi:esiteid" v="7329"/>
  </node>
  <node id="-708" visible="true" lat="44.29585206" lon="-72.0529129">
    <tag k="addr:city" v="Barnet"/>
    <tag k="addr:housenumber" v="147"/>
    <tag k="addr:street" v="Church Street"/>
    <tag k="addr:state" v="VT"/>
    <tag k="ref:vcgi:esiteid" v="7331"/>
  </node>
  <node id="-710" visible="true" lat="44.29576925" lon="-72.04889865">
    <tag k="addr:city" v="Barnet"/>
    <tag k="addr:housenumber" v="37"/>
    <tag k="addr:street" v="Mill Hill"/>
    <tag k="addr:state" v="VT"/>
    <tag k="ref:vcgi:esiteid" v="7333"/>
  </node>
  <node id="-711" visible="true" lat="44.29585194" lon="-72.05060226">
    <tag k="addr:city" v="Barnet"/>
    <tag k="addr:housenumber" v="1894"/>
    <tag k="addr:street" v="U.S. Route 5 South"/>
    <tag k="addr:state" v="VT"/>
    <tag k="ref:vcgi:esiteid" v="7334"/>
  </node>
  <node id="-712" visible="true" lat="44.29560933" lon="-72.04768593">
    <tag k="addr:city" v="Barnet"/>
    <tag k="addr:housenumber" v="392"/>
    <tag k="addr:street" v="Carter Street"/>
    <tag k="addr:state" v="VT"/>
    <tag k="ref:vcgi:esiteid" v="7335"/>
  </node>
  <node id="-713" visible="true" lat="44.29560089" lon="-72.04863739">
    <tag k="addr:city" v="Barnet"/>
    <tag k="addr:housenumber" v="347"/>
    <tag k="addr:street" v="Carter Street"/>
    <tag k="addr:state" v="VT"/>
    <tag k="ref:vcgi:esiteid" v="7336"/>
  </node>
  <node id="-717" visible="true" lat="44.29541299" lon="-72.04846883">
    <tag k="addr:city" v="Barnet"/>
    <tag k="addr:housenumber" v="350"/>
    <tag k="addr:street" v="Carter Street"/>
    <tag k="addr:state" v="VT"/>
    <tag k="ref:vcgi:esiteid" v="7340"/>
  </node>
  <node id="-722" visible="true" lat="44.2952309" lon="-72.04901143">
    <tag k="addr:city" v="Barnet"/>
    <tag k="addr:housenumber" v="320"/>
    <tag k="addr:street" v="Carter Street"/>
    <tag k="addr:state" v="VT"/>
    <tag k="ref:vcgi:esiteid" v="7345"/>
  </node>
  <node id="-724" visible="true" lat="44.29518523" lon="-72.04991262">
    <tag k="addr:city" v="Barnet"/>
    <tag k="addr:housenumber" v="88"/>
    <tag k="addr:street" v="Mill Hill"/>
    <tag k="addr:state" v="VT"/>
    <tag k="ref:vcgi:esiteid" v="7347"/>
  </node>
  <node id="-725" visible="true" lat="44.29510767" lon="-72.04924767">
    <tag k="addr:city" v="Barnet"/>
    <tag k="addr:housenumber" v="306"/>
    <tag k="addr:street" v="Carter Street"/>
    <tag k="addr:state" v="VT"/>
    <tag k="ref:vcgi:esiteid" v="7348"/>
  </node>
  <node id="-728" visible="true" lat="44.29487798" lon="-72.04961453">
    <tag k="addr:city" v="Barnet"/>
    <tag k="addr:housenumber" v="286"/>
    <tag k="addr:street" v="Carter Street"/>
    <tag k="addr:state" v="VT"/>
    <tag k="ref:vcgi:esiteid" v="7351"/>
  </node>
  <node id="-730" visible="true" lat="44.29504383" lon="-72.05018793">
    <tag k="addr:city" v="Barnet"/>
    <tag k="addr:housenumber" v="259"/>
    <tag k="addr:street" v="Carter Street"/>
    <tag k="addr:state" v="VT"/>
    <tag k="ref:vcgi:esiteid" v="7353"/>
  </node>
  <node id="-967" visible="true" lat="44.25630943" lon="-72.06023042">
    <tag k="addr:city" v="Barnet"/>
    <tag k="addr:housenumber" v="4975"/>
    <tag k="addr:street" v="U.S. Route 5 South"/>
    <tag k="addr:state" v="VT"/>
    <tag k="ref:vcgi:esiteid" v="7591"/>
  </node>
  <node id="-968" visible="true" lat="44.25548604" lon="-72.06087127">
    <tag k="addr:city" v="Barnet"/>
    <tag k="addr:housenumber" v="5157"/>
    <tag k="addr:street" v="U.S. Route 5 South"/>
    <tag k="addr:state" v="VT"/>
    <tag k="ref:vcgi:esiteid" v="7592"/>
  </node>
  <node id="-1008" visible="true" lat="44.29972164" lon="-72.04678058">
    <tag k="addr:city" v="Barnet"/>
    <tag k="addr:housenumber" v="1550"/>
    <tag k="addr:street" v="U.S. Route 5 South"/>
    <tag k="addr:state" v="VT"/>
    <tag k="ref:vcgi:esiteid" v="7632"/>
  </node>
  <node id="-1018" visible="true" lat="44.29524404" lon="-72.05033556">
    <tag k="addr:city" v="Barnet"/>
    <tag k="addr:housenumber" v="1913"/>
    <tag k="addr:street" v="U.S. Route 5 South"/>
    <tag k="addr:state" v="VT"/>
    <tag k="ref:vcgi:esiteid" v="7642"/>
  </node>
  <node id="-1066" visible="true" lat="44.28485153" lon="-72.17657126">
    <tag k="addr:city" v="Barnet"/>
    <tag k="addr:housenumber" v="300"/>
    <tag k="addr:street" v="Field Road"/>
    <tag k="addr:state" v="VT"/>
    <tag k="ref:vcgi:esiteid" v="7693"/>
  </node>
  <node id="-1118" visible="true" lat="44.29621939" lon="-72.05069286">
    <tag k="addr:city" v="Barnet"/>
    <tag k="addr:housenumber" v="43"/>
    <tag k="addr:street" v="Church Street"/>
    <tag k="addr:state" v="VT"/>
    <tag k="ref:vcgi:esiteid" v="339380"/>
  </node>
  <node id="-1147" visible="true" lat="44.31451373" lon="-72.14384105">
    <tag k="addr:city" v="Barnet"/>
    <tag k="addr:housenumber" v="280"/>
    <tag k="addr:street" v="Old West Road"/>
    <tag k="addr:state" v="VT"/>
    <tag k="ref:vcgi:esiteid" v="449920"/>
  </node>
  <node id="-1152" visible="true" lat="44.29603014" lon="-72.05078878">
    <tag k="addr:city" v="Barnet"/>
    <tag k="addr:housenumber" v="43"/>
    <tag k="addr:street" v="Farman Road"/>
    <tag k="addr:state" v="VT"/>
    <tag k="ref:vcgi:esiteid" v="449925"/>
  </node>
</osm>
