<?xml version="1.0" encoding="UTF-8"?>
<osm version="0.6" generator="JOSM" upload="false">
  <node id="-115" visible="true" lat="44.21312446" lon="-72.5213468">
    <tag k="addr:city" v="Barre"/>
    <tag k="addr:housenumber" v="755"/>
    <tag k="addr:street" v="North Main Street"/>
    <tag k="addr:state" v="VT"/>
    <tag k="ref:vcgi:esiteid" v="7728"/>
  </node>
  <node id="-134" visible="true" lat="44.21112823" lon="-72.49761962">
    <tag k="addr:city" v="Barre"/>
    <tag k="addr:housenumber" v="201"/>
    <tag k="addr:street" v="Maple Avenue"/>
    <tag k="addr:state" v="VT"/>
    <tag k="ref:vcgi:esiteid" v="7756"/>
  </node>
  <node id="-144" visible="true" lat="44.2107982" lon="-72.50356811">
    <tag k="addr:city" v="Barre"/>
    <tag k="addr:housenumber" v="66"/>
    <tag k="addr:street" v="Farwell Street"/>
    <tag k="addr:state" v="VT"/>
    <tag k="ref:vcgi:esiteid" v="7768"/>
  </node>
  <node id="-149" visible="true" lat="44.21026762" lon="-72.50389991">
    <tag k="addr:city" v="Barre"/>
    <tag k="addr:housenumber" v="58"/>
    <tag k="addr:street" v="Farwell Street"/>
    <tag k="addr:state" v="VT"/>
    <tag k="ref:vcgi:esiteid" v="7773"/>
  </node>
  <node id="-154" visible="true" lat="44.21013641" lon="-72.50401306">
    <tag k="addr:city" v="Barre"/>
    <tag k="addr:housenumber" v="56"/>
    <tag k="addr:street" v="Farwell Street"/>
    <tag k="addr:state" v="VT"/>
    <tag k="ref:vcgi:esiteid" v="7778"/>
  </node>
  <node id="-159" visible="true" lat="44.20998764" lon="-72.5040512">
    <tag k="addr:city" v="Barre"/>
    <tag k="addr:housenumber" v="54"/>
    <tag k="addr:street" v="Farwell Street"/>
    <tag k="addr:state" v="VT"/>
    <tag k="ref:vcgi:esiteid" v="7784"/>
  </node>
  <node id="-168" visible="true" lat="44.20973338" lon="-72.50841473">
    <tag k="addr:city" v="Barre"/>
    <tag k="addr:housenumber" v="58"/>
    <tag k="addr:street" v="Colby Street"/>
    <tag k="addr:state" v="VT"/>
    <tag k="ref:vcgi:esiteid" v="7795"/>
  </node>
  <node id="-171" visible="true" lat="44.20970916" lon="-72.50493621">
    <tag k="addr:city" v="Barre"/>
    <tag k="addr:housenumber" v="110"/>
    <tag k="addr:street" v="Elmwood Avenue"/>
    <tag k="addr:state" v="VT"/>
    <tag k="ref:vcgi:esiteid" v="7798"/>
  </node>
  <node id="-176" visible="true" lat="44.20959001" lon="-72.50460654">
    <tag k="addr:city" v="Barre"/>
    <tag k="addr:housenumber" v="109"/>
    <tag k="addr:street" v="Elmwood Avenue"/>
    <tag k="addr:state" v="VT"/>
    <tag k="ref:vcgi:esiteid" v="7804"/>
  </node>
  <node id="-177" visible="true" lat="44.20940846" lon="-72.5066355">
    <tag k="addr:city" v="Barre"/>
    <tag k="addr:housenumber" v="32"/>
    <tag k="addr:street" v="Beech Street"/>
    <tag k="addr:state" v="VT"/>
    <tag k="ref:vcgi:esiteid" v="7806"/>
  </node>
  <node id="-180" visible="true" lat="44.20930272" lon="-72.50851601">
    <tag k="addr:city" v="Barre"/>
    <tag k="addr:housenumber" v="40"/>
    <tag k="addr:street" v="Colby Street"/>
    <tag k="addr:state" v="VT"/>
    <tag k="ref:vcgi:esiteid" v="7809"/>
  </node>
  <node id="-181" visible="true" lat="44.20936508" lon="-72.50609433">
    <tag k="addr:city" v="Barre"/>
    <tag k="addr:housenumber" v="6"/>
    <tag k="addr:street" v="Pine Street"/>
    <tag k="addr:state" v="VT"/>
    <tag k="ref:vcgi:esiteid" v="7810"/>
  </node>
  <node id="-183" visible="true" lat="44.20932387" lon="-72.50529618">
    <tag k="addr:city" v="Barre"/>
    <tag k="addr:housenumber" v="100"/>
    <tag k="addr:street" v="Elmwood Avenue"/>
    <tag k="addr:state" v="VT"/>
    <tag k="ref:vcgi:esiteid" v="7812"/>
  </node>
  <node id="-189" visible="true" lat="44.20913236" lon="-72.50679269">
    <tag k="addr:city" v="Barre"/>
    <tag k="addr:housenumber" v="30"/>
    <tag k="addr:street" v="Beech Street"/>
    <tag k="addr:state" v="VT"/>
    <tag k="ref:vcgi:esiteid" v="7818"/>
  </node>
  <node id="-195" visible="true" lat="44.20908137" lon="-72.50629752">
    <tag k="addr:city" v="Barre"/>
    <tag k="addr:housenumber" v="4"/>
    <tag k="addr:street" v="Pine Street"/>
    <tag k="addr:state" v="VT"/>
    <tag k="ref:vcgi:esiteid" v="7828"/>
  </node>
  <node id="-199" visible="true" lat="44.20898176" lon="-72.50702693">
    <tag k="addr:city" v="Barre"/>
    <tag k="addr:housenumber" v="22"/>
    <tag k="addr:street" v="Beech Street"/>
    <tag k="addr:state" v="VT"/>
    <tag k="ref:vcgi:esiteid" v="7832"/>
  </node>
  <node id="-200" visible="true" lat="44.20917795" lon="-72.513367">
    <tag k="addr:city" v="Barre"/>
    <tag k="addr:housenumber" v="12"/>
    <tag k="addr:street" v="Fourth Street"/>
    <tag k="addr:state" v="VT"/>
    <tag k="ref:vcgi:esiteid" v="7833"/>
  </node>
  <node id="-202" visible="true" lat="44.20895547" lon="-72.50582294">
    <tag k="addr:city" v="Barre"/>
    <tag k="addr:housenumber" v="5"/>
    <tag k="addr:street" v="Pine Street"/>
    <tag k="addr:state" v="VT"/>
    <tag k="ref:vcgi:esiteid" v="7835"/>
  </node>
  <node id="-203" visible="true" lat="44.20891571" lon="-72.51106262">
    <tag k="addr:city" v="Barre"/>
    <tag k="addr:housenumber" v="83"/>
    <tag k="addr:street" v="Beckley Street"/>
    <tag k="addr:state" v="VT"/>
    <tag k="ref:vcgi:esiteid" v="7836"/>
  </node>
  <node id="-206" visible="true" lat="44.2088771" lon="-72.5086538">
    <tag k="addr:city" v="Barre"/>
    <tag k="addr:housenumber" v="26"/>
    <tag k="addr:street" v="Colby Street"/>
    <tag k="addr:state" v="VT"/>
    <tag k="ref:vcgi:esiteid" v="7839"/>
  </node>
  <node id="-208" visible="true" lat="44.20866331" lon="-72.50707627">
    <tag k="addr:city" v="Barre"/>
    <tag k="addr:housenumber" v="16"/>
    <tag k="addr:street" v="Beech Street"/>
    <tag k="addr:state" v="VT"/>
    <tag k="ref:vcgi:esiteid" v="7841"/>
  </node>
  <node id="-209" visible="true" lat="44.20887408" lon="-72.50521227">
    <tag k="addr:city" v="Barre"/>
    <tag k="addr:housenumber" v="83"/>
    <tag k="addr:street" v="Elmwood Avenue"/>
    <tag k="addr:state" v="VT"/>
    <tag k="ref:vcgi:esiteid" v="7843"/>
  </node>
  <node id="-211" visible="true" lat="44.20874023" lon="-72.50730133">
    <tag k="addr:city" v="Barre"/>
    <tag k="addr:housenumber" v="44"/>
    <tag k="addr:street" v="Newton Street"/>
    <tag k="addr:state" v="VT"/>
    <tag k="ref:vcgi:esiteid" v="7849"/>
  </node>
  <node id="-215" visible="true" lat="44.20875712" lon="-72.50826426">
    <tag k="addr:city" v="Barre"/>
    <tag k="addr:housenumber" v="25"/>
    <tag k="addr:street" v="Colby Street"/>
    <tag k="addr:state" v="VT"/>
    <tag k="ref:vcgi:esiteid" v="7853"/>
  </node>
  <node id="-219" visible="true" lat="44.20874511" lon="-72.50653429">
    <tag k="addr:city" v="Barre"/>
    <tag k="addr:housenumber" v="35"/>
    <tag k="addr:street" v="Newton Street"/>
    <tag k="addr:state" v="VT"/>
    <tag k="ref:vcgi:esiteid" v="7857"/>
  </node>
  <node id="-220" visible="true" lat="44.20880048" lon="-72.50465445">
    <tag k="addr:city" v="Barre"/>
    <tag k="addr:housenumber" v="30"/>
    <tag k="addr:street" v="Farwell Street"/>
    <tag k="addr:state" v="VT"/>
    <tag k="ref:vcgi:esiteid" v="7858"/>
  </node>
  <node id="-223" visible="true" lat="44.20856475" lon="-72.50583648">
    <tag k="addr:city" v="Barre"/>
    <tag k="addr:housenumber" v="68"/>
    <tag k="addr:street" v="Elmwood Avenue"/>
    <tag k="addr:state" v="VT"/>
    <tag k="ref:vcgi:esiteid" v="7861"/>
  </node>
  <node id="-226" visible="true" lat="44.20853042" lon="-72.50872802">
    <tag k="addr:city" v="Barre"/>
    <tag k="addr:housenumber" v="20"/>
    <tag k="addr:street" v="Colby Street"/>
    <tag k="addr:state" v="VT"/>
    <tag k="ref:vcgi:esiteid" v="7865"/>
  </node>
  <node id="-231" visible="true" lat="44.20850367" lon="-72.50833223">
    <tag k="addr:city" v="Barre"/>
    <tag k="addr:housenumber" v="21"/>
    <tag k="addr:street" v="Colby Street"/>
    <tag k="addr:state" v="VT"/>
    <tag k="ref:vcgi:esiteid" v="7870"/>
  </node>
  <node id="-236" visible="true" lat="44.20844607" lon="-72.50722073">
    <tag k="addr:city" v="Barre"/>
    <tag k="addr:housenumber" v="10"/>
    <tag k="addr:street" v="Beech Street"/>
    <tag k="addr:state" v="VT"/>
    <tag k="ref:vcgi:esiteid" v="7876"/>
  </node>
  <node id="-237" visible="true" lat="44.20839968" lon="-72.50526927">
    <tag k="addr:city" v="Barre"/>
    <tag k="addr:housenumber" v="15"/>
    <tag k="addr:street" v="Newton Street"/>
    <tag k="addr:state" v="VT"/>
    <tag k="ref:vcgi:esiteid" v="7877"/>
  </node>
  <node id="-238" visible="true" lat="44.20833631" lon="-72.50885032">
    <tag k="addr:city" v="Barre"/>
    <tag k="addr:housenumber" v="10"/>
    <tag k="addr:street" v="Colby Street"/>
    <tag k="addr:state" v="VT"/>
    <tag k="ref:vcgi:esiteid" v="7878"/>
  </node>
  <node id="-240" visible="true" lat="44.20833587" lon="-72.50465393">
    <tag k="addr:city" v="Barre"/>
    <tag k="addr:housenumber" v="28"/>
    <tag k="addr:street" v="Farwell Street"/>
    <tag k="addr:state" v="VT"/>
    <tag k="ref:vcgi:esiteid" v="7882"/>
  </node>
  <node id="-242" visible="true" lat="44.20830917" lon="-72.50603485">
    <tag k="addr:city" v="Barre"/>
    <tag k="addr:housenumber" v="66"/>
    <tag k="addr:street" v="Elmwood Avenue"/>
    <tag k="addr:state" v="VT"/>
    <tag k="ref:vcgi:esiteid" v="7884"/>
  </node>
  <node id="-249" visible="true" lat="44.2081871" lon="-72.50575256">
    <tag k="addr:city" v="Barre"/>
    <tag k="addr:housenumber" v="65"/>
    <tag k="addr:street" v="Elmwood Avenue"/>
    <tag k="addr:state" v="VT"/>
    <tag k="ref:vcgi:esiteid" v="7892"/>
  </node>
  <node id="-250" visible="true" lat="44.20818328" lon="-72.50852203">
    <tag k="addr:city" v="Barre"/>
    <tag k="addr:housenumber" v="5"/>
    <tag k="addr:street" v="Colby Street"/>
    <tag k="addr:state" v="VT"/>
    <tag k="ref:vcgi:esiteid" v="7893"/>
  </node>
  <node id="-251" visible="true" lat="44.20818394" lon="-72.50475632">
    <tag k="addr:city" v="Barre"/>
    <tag k="addr:housenumber" v="1"/>
    <tag k="addr:street" v="Newton Street"/>
    <tag k="addr:state" v="VT"/>
    <tag k="ref:vcgi:esiteid" v="7894"/>
  </node>
  <node id="-252" visible="true" lat="44.20828734" lon="-72.50777695">
    <tag k="addr:city" v="Barre"/>
    <tag k="addr:housenumber" v="54"/>
    <tag k="addr:street" v="Perrin Street"/>
    <tag k="addr:state" v="VT"/>
    <tag k="ref:vcgi:esiteid" v="7895"/>
  </node>
  <node id="-258" visible="true" lat="44.20816284" lon="-72.50744961">
    <tag k="addr:city" v="Barre"/>
    <tag k="addr:housenumber" v="70"/>
    <tag k="addr:street" v="Perrin Street"/>
    <tag k="addr:state" v="VT"/>
    <tag k="ref:vcgi:esiteid" v="7903"/>
  </node>
  <node id="-259" visible="true" lat="44.20805953" lon="-72.50517803">
    <tag k="addr:city" v="Barre"/>
    <tag k="addr:housenumber" v="6"/>
    <tag k="addr:street" v="Newton Street"/>
    <tag k="addr:state" v="VT"/>
    <tag k="ref:vcgi:esiteid" v="7905"/>
  </node>
  <node id="-260" visible="true" lat="44.20807275" lon="-72.50696331">
    <tag k="addr:city" v="Barre"/>
    <tag k="addr:housenumber" v="5"/>
    <tag k="addr:street" v="Beech Street"/>
    <tag k="addr:state" v="VT"/>
    <tag k="ref:vcgi:esiteid" v="7906"/>
  </node>
  <node id="-265" visible="true" lat="44.20798492" lon="-72.50805663">
    <tag k="addr:city" v="Barre"/>
    <tag k="addr:housenumber" v="55"/>
    <tag k="addr:street" v="Perrin Street"/>
    <tag k="addr:state" v="VT"/>
    <tag k="ref:vcgi:esiteid" v="7912"/>
  </node>
  <node id="-267" visible="true" lat="44.20795822" lon="-72.51348113">
    <tag k="addr:city" v="Barre"/>
    <tag k="addr:housenumber" v="535"/>
    <tag k="addr:street" v="North Main Street"/>
    <tag k="addr:state" v="VT"/>
    <tag k="ref:vcgi:esiteid" v="7915"/>
  </node>
  <node id="-272" visible="true" lat="44.20788574" lon="-72.50585174">
    <tag k="addr:city" v="Barre"/>
    <tag k="addr:housenumber" v="59"/>
    <tag k="addr:street" v="Elmwood Avenue"/>
    <tag k="addr:state" v="VT"/>
    <tag k="ref:vcgi:esiteid" v="7922"/>
  </node>
  <node id="-273" visible="true" lat="44.20787048" lon="-72.50445556">
    <tag k="addr:city" v="Barre"/>
    <tag k="addr:housenumber" v="25"/>
    <tag k="addr:street" v="Farwell Street"/>
    <tag k="addr:state" v="VT"/>
    <tag k="ref:vcgi:esiteid" v="7923"/>
  </node>
  <node id="-274" visible="true" lat="44.20786285" lon="-72.51309966">
    <tag k="addr:city" v="Barre"/>
    <tag k="addr:housenumber" v="1"/>
    <tag k="addr:street" v="Third Street"/>
    <tag k="addr:state" v="VT"/>
    <tag k="ref:vcgi:esiteid" v="7924"/>
  </node>
  <node id="-290" visible="true" lat="44.20760193" lon="-72.51255492">
    <tag k="addr:city" v="Barre"/>
    <tag k="addr:housenumber" v="6"/>
    <tag k="addr:street" v="Second Street"/>
    <tag k="addr:state" v="VT"/>
    <tag k="ref:vcgi:esiteid" v="7942"/>
  </node>
  <node id="-293" visible="true" lat="44.20813755" lon="-72.50037489">
    <tag k="addr:city" v="Barre"/>
    <tag k="addr:housenumber" v="190"/>
    <tag k="addr:street" v="Merchant Street"/>
    <tag k="addr:state" v="VT"/>
    <tag k="ref:vcgi:esiteid" v="7945"/>
  </node>
  <node id="-297" visible="true" lat="44.20752523" lon="-72.51274016">
    <tag k="addr:city" v="Barre"/>
    <tag k="addr:housenumber" v="2"/>
    <tag k="addr:street" v="Second Street"/>
    <tag k="addr:state" v="VT"/>
    <tag k="ref:vcgi:esiteid" v="7949"/>
  </node>
  <node id="-309" visible="true" lat="44.20744995" lon="-72.51290698">
    <tag k="addr:city" v="Barre"/>
    <tag k="addr:housenumber" v="521"/>
    <tag k="addr:street" v="North Main Street"/>
    <tag k="addr:state" v="VT"/>
    <tag k="ref:vcgi:esiteid" v="7964"/>
  </node>
  <node id="-336" visible="true" lat="44.20711129" lon="-72.51198239">
    <tag k="addr:city" v="Barre"/>
    <tag k="addr:housenumber" v="14"/>
    <tag k="addr:street" v="First Street"/>
    <tag k="addr:state" v="VT"/>
    <tag k="ref:vcgi:esiteid" v="7993"/>
  </node>
  <node id="-353" visible="true" lat="44.20687866" lon="-72.51178741">
    <tag k="addr:city" v="Barre"/>
    <tag k="addr:housenumber" v="11"/>
    <tag k="addr:street" v="First Street"/>
    <tag k="addr:state" v="VT"/>
    <tag k="ref:vcgi:esiteid" v="8012"/>
  </node>
  <node id="-356" visible="true" lat="44.20678477" lon="-72.51191219">
    <tag k="addr:city" v="Barre"/>
    <tag k="addr:housenumber" v="9"/>
    <tag k="addr:street" v="First Street"/>
    <tag k="addr:state" v="VT"/>
    <tag k="ref:vcgi:esiteid" v="8015"/>
  </node>
  <node id="-359" visible="true" lat="44.2068576" lon="-72.51157781">
    <tag k="addr:city" v="Barre"/>
    <tag k="addr:housenumber" v="20"/>
    <tag k="addr:street" v="Beckley Street"/>
    <tag k="addr:state" v="VT"/>
    <tag k="ref:vcgi:esiteid" v="8018"/>
  </node>
  <node id="-375" visible="true" lat="44.20679003" lon="-72.5168822">
    <tag k="addr:city" v="Barre"/>
    <tag k="addr:housenumber" v="33"/>
    <tag k="addr:street" v="West Second Street"/>
    <tag k="addr:state" v="VT"/>
    <tag k="ref:vcgi:esiteid" v="8035"/>
  </node>
  <node id="-398" visible="true" lat="44.20631174" lon="-72.51071266">
    <tag k="addr:city" v="Barre"/>
    <tag k="addr:housenumber" v="90"/>
    <tag k="addr:street" v="Pleasant Street"/>
    <tag k="addr:state" v="VT"/>
    <tag k="ref:vcgi:esiteid" v="8060"/>
  </node>
  <node id="-592" visible="true" lat="44.2049226" lon="-72.5097">
    <tag k="addr:city" v="Barre"/>
    <tag k="addr:housenumber" v="439"/>
    <tag k="addr:street" v="North Main Street"/>
    <tag k="addr:state" v="VT"/>
    <tag k="ref:vcgi:esiteid" v="8274"/>
  </node>
  <node id="-630" visible="true" lat="44.20470935" lon="-72.50950822">
    <tag k="addr:city" v="Barre"/>
    <tag k="addr:housenumber" v="435"/>
    <tag k="addr:street" v="North Main Street"/>
    <tag k="addr:state" v="VT"/>
    <tag k="ref:vcgi:esiteid" v="8317"/>
  </node>
  <node id="-643" visible="true" lat="44.20429181" lon="-72.51402186">
    <tag k="addr:city" v="Barre"/>
    <tag k="addr:housenumber" v="70"/>
    <tag k="addr:street" v="Smith Street"/>
    <tag k="addr:state" v="VT"/>
    <tag k="ref:vcgi:esiteid" v="8331"/>
  </node>
  <node id="-665" visible="true" lat="44.20425227" lon="-72.51365847">
    <tag k="addr:city" v="Barre"/>
    <tag k="addr:housenumber" v="60"/>
    <tag k="addr:street" v="Smith Street"/>
    <tag k="addr:state" v="VT"/>
    <tag k="ref:vcgi:esiteid" v="8356"/>
  </node>
  <node id="-714" visible="true" lat="44.20373154" lon="-72.50764331">
    <tag k="addr:city" v="Barre"/>
    <tag k="addr:housenumber" v="15"/>
    <tag k="addr:street" v="Brook Street"/>
    <tag k="addr:state" v="VT"/>
    <tag k="ref:vcgi:esiteid" v="8411"/>
  </node>
  <node id="-721" visible="true" lat="44.20364379" lon="-72.5094757">
    <tag k="addr:city" v="Barre"/>
    <tag k="addr:housenumber" v="3"/>
    <tag k="addr:street" v="Blackwell Street"/>
    <tag k="addr:state" v="VT"/>
    <tag k="ref:vcgi:esiteid" v="8418"/>
  </node>
  <node id="-735" visible="true" lat="44.20346832" lon="-72.50898742">
    <tag k="addr:city" v="Barre"/>
    <tag k="addr:housenumber" v="408"/>
    <tag k="addr:street" v="North Main Street"/>
    <tag k="addr:state" v="VT"/>
    <tag k="ref:vcgi:esiteid" v="8434"/>
  </node>
  <node id="-743" visible="true" lat="44.20341208" lon="-72.50728972">
    <tag k="addr:city" v="Barre"/>
    <tag k="addr:housenumber" v="13"/>
    <tag k="addr:street" v="Corti Street"/>
    <tag k="addr:state" v="VT"/>
    <tag k="ref:vcgi:esiteid" v="8444"/>
  </node>
  <node id="-746" visible="true" lat="44.20331095" lon="-72.5079903">
    <tag k="addr:city" v="Barre"/>
    <tag k="addr:housenumber" v="5"/>
    <tag k="addr:street" v="Brook Street"/>
    <tag k="addr:state" v="VT"/>
    <tag k="ref:vcgi:esiteid" v="8449"/>
  </node>
  <node id="-750" visible="true" lat="44.20319335" lon="-72.50391887">
    <tag k="addr:city" v="Barre"/>
    <tag k="addr:housenumber" v="20"/>
    <tag k="addr:street" v="Auditorium Hill"/>
    <tag k="addr:state" v="VT"/>
    <tag k="ref:vcgi:esiteid" v="8455"/>
  </node>
  <node id="-757" visible="true" lat="44.20329763" lon="-72.50718291">
    <tag k="addr:city" v="Barre"/>
    <tag k="addr:housenumber" v="5"/>
    <tag k="addr:street" v="Corti Street"/>
    <tag k="addr:state" v="VT"/>
    <tag k="ref:vcgi:esiteid" v="8463"/>
  </node>
  <node id="-768" visible="true" lat="44.20325105" lon="-72.50785828">
    <tag k="addr:city" v="Barre"/>
    <tag k="addr:housenumber" v="20"/>
    <tag k="addr:street" v="Corti Street"/>
    <tag k="addr:state" v="VT"/>
    <tag k="ref:vcgi:esiteid" v="8475"/>
  </node>
  <node id="-772" visible="true" lat="44.20311312" lon="-72.50731864">
    <tag k="addr:city" v="Barre"/>
    <tag k="addr:housenumber" v="6"/>
    <tag k="addr:street" v="Corti Street"/>
    <tag k="addr:state" v="VT"/>
    <tag k="ref:vcgi:esiteid" v="8481"/>
  </node>
  <node id="-775" visible="true" lat="44.20310974" lon="-72.50801849">
    <tag k="addr:city" v="Barre"/>
    <tag k="addr:housenumber" v="399"/>
    <tag k="addr:street" v="North Main Street"/>
    <tag k="addr:state" v="VT"/>
    <tag k="ref:vcgi:esiteid" v="8485"/>
  </node>
  <node id="-776" visible="true" lat="44.20306663" lon="-72.50888642">
    <tag k="addr:city" v="Barre"/>
    <tag k="addr:housenumber" v="398"/>
    <tag k="addr:street" v="North Main Street"/>
    <tag k="addr:state" v="VT"/>
    <tag k="ref:vcgi:esiteid" v="8486"/>
  </node>
  <node id="-782" visible="true" lat="44.20299463" lon="-72.50871409">
    <tag k="addr:city" v="Barre"/>
    <tag k="addr:housenumber" v="396"/>
    <tag k="addr:street" v="North Main Street"/>
    <tag k="addr:state" v="VT"/>
    <tag k="ref:vcgi:esiteid" v="8493"/>
  </node>
  <node id="-810" visible="true" lat="44.20274737" lon="-72.50851407">
    <tag k="addr:city" v="Barre"/>
    <tag k="addr:housenumber" v="386"/>
    <tag k="addr:street" v="North Main Street"/>
    <tag k="addr:state" v="VT"/>
    <tag k="ref:vcgi:esiteid" v="8527"/>
  </node>
  <node id="-830" visible="true" lat="44.20257283" lon="-72.5082395">
    <tag k="addr:city" v="Barre"/>
    <tag k="addr:housenumber" v="372"/>
    <tag k="addr:street" v="North Main Street"/>
    <tag k="addr:state" v="VT"/>
    <tag k="ref:vcgi:esiteid" v="8547"/>
  </node>
  <node id="-832" visible="true" lat="44.20260782" lon="-72.50705761">
    <tag k="addr:city" v="Barre"/>
    <tag k="addr:housenumber" v="3"/>
    <tag k="addr:street" v="Maple Avenue"/>
    <tag k="addr:state" v="VT"/>
    <tag k="ref:vcgi:esiteid" v="8549"/>
  </node>
  <node id="-848" visible="true" lat="44.20239046" lon="-72.50863029">
    <tag k="addr:city" v="Barre"/>
    <tag k="addr:housenumber" v="8"/>
    <tag k="addr:street" v="Horace Lane"/>
    <tag k="addr:state" v="VT"/>
    <tag k="ref:vcgi:esiteid" v="8569"/>
  </node>
  <node id="-1003" visible="true" lat="44.20090866" lon="-72.5109024">
    <tag k="addr:city" v="Barre"/>
    <tag k="addr:housenumber" v="5"/>
    <tag k="addr:street" v="Howard Street"/>
    <tag k="addr:state" v="VT"/>
    <tag k="ref:vcgi:esiteid" v="8750"/>
  </node>
  <node id="-1025" visible="true" lat="44.20065657" lon="-72.49646495">
    <tag k="addr:city" v="Barre"/>
    <tag k="addr:housenumber" v="144"/>
    <tag k="addr:street" v="Elm Street"/>
    <tag k="addr:state" v="VT"/>
    <tag k="ref:vcgi:esiteid" v="8775"/>
  </node>
  <node id="-1091" visible="true" lat="44.2004216" lon="-72.50507156">
    <tag k="addr:city" v="Barre"/>
    <tag k="addr:housenumber" v="301"/>
    <tag k="addr:street" v="North Main Street"/>
    <tag k="addr:state" v="VT"/>
    <tag k="ref:vcgi:esiteid" v="8849"/>
  </node>
  <node id="-1190" visible="true" lat="44.19971701" lon="-72.49003534">
    <tag k="addr:city" v="Barre"/>
    <tag k="addr:housenumber" v="8"/>
    <tag k="addr:street" v="Veeder Avenue"/>
    <tag k="addr:state" v="VT"/>
    <tag k="ref:vcgi:esiteid" v="8958"/>
  </node>
  <node id="-1208" visible="true" lat="44.19963073" lon="-72.48793792">
    <tag k="addr:city" v="Barre"/>
    <tag k="addr:housenumber" v="223"/>
    <tag k="addr:street" v="Camp Street"/>
    <tag k="addr:state" v="VT"/>
    <tag k="ref:vcgi:esiteid" v="8981"/>
  </node>
  <node id="-1223" visible="true" lat="44.19950866" lon="-72.48900604">
    <tag k="addr:city" v="Barre"/>
    <tag k="addr:housenumber" v="2"/>
    <tag k="addr:street" v="Veeder Avenue"/>
    <tag k="addr:state" v="VT"/>
    <tag k="ref:vcgi:esiteid" v="9000"/>
  </node>
  <node id="-1243" visible="true" lat="44.19939804" lon="-72.48853301">
    <tag k="addr:city" v="Barre"/>
    <tag k="addr:housenumber" v="214"/>
    <tag k="addr:street" v="Camp Street"/>
    <tag k="addr:state" v="VT"/>
    <tag k="ref:vcgi:esiteid" v="9023"/>
  </node>
  <node id="-1275" visible="true" lat="44.19921112" lon="-72.48809051">
    <tag k="addr:city" v="Barre"/>
    <tag k="addr:housenumber" v="211"/>
    <tag k="addr:street" v="Camp Street"/>
    <tag k="addr:state" v="VT"/>
    <tag k="ref:vcgi:esiteid" v="9063"/>
  </node>
  <node id="-1328" visible="true" lat="44.19899487" lon="-72.50309493">
    <tag k="addr:city" v="Barre"/>
    <tag k="addr:housenumber" v="185"/>
    <tag k="addr:street" v="North Main Street"/>
    <tag k="addr:state" v="VT"/>
    <tag k="ref:vcgi:esiteid" v="9118"/>
  </node>
  <node id="-1335" visible="true" lat="44.19883069" lon="-72.49782503">
    <tag k="addr:city" v="Barre"/>
    <tag k="addr:housenumber" v="13"/>
    <tag k="addr:street" v="Eastern Avenue"/>
    <tag k="addr:state" v="VT"/>
    <tag k="ref:vcgi:esiteid" v="9125"/>
  </node>
  <node id="-1372" visible="true" lat="44.19861667" lon="-72.50421732">
    <tag k="addr:city" v="Barre"/>
    <tag k="addr:housenumber" v="56"/>
    <tag k="addr:street" v="Depot Square"/>
    <tag k="addr:state" v="VT"/>
    <tag k="ref:vcgi:esiteid" v="9169"/>
  </node>
  <node id="-1714" visible="true" lat="44.19641704" lon="-72.50103829">
    <tag k="addr:city" v="Barre"/>
    <tag k="addr:housenumber" v="1"/>
    <tag k="addr:street" v="Church Street"/>
    <tag k="addr:state" v="VT"/>
    <tag k="ref:vcgi:esiteid" v="9558"/>
  </node>
  <node id="-1792" visible="true" lat="44.19581826" lon="-72.49519833">
    <tag k="addr:city" v="Barre"/>
    <tag k="addr:housenumber" v="27"/>
    <tag k="addr:street" v="Highland Avenue"/>
    <tag k="addr:state" v="VT"/>
    <tag k="ref:vcgi:esiteid" v="9647"/>
  </node>
  <node id="-1803" visible="true" lat="44.19576306" lon="-72.49125041">
    <tag k="addr:city" v="Barre"/>
    <tag k="addr:housenumber" v="11"/>
    <tag k="addr:street" v="Delmont Avenue"/>
    <tag k="addr:state" v="VT"/>
    <tag k="ref:vcgi:esiteid" v="9660"/>
  </node>
  <node id="-1817" visible="true" lat="44.19566936" lon="-72.49549179">
    <tag k="addr:city" v="Barre"/>
    <tag k="addr:housenumber" v="21"/>
    <tag k="addr:street" v="Highland Avenue"/>
    <tag k="addr:state" v="VT"/>
    <tag k="ref:vcgi:esiteid" v="9674"/>
  </node>
  <node id="-1822" visible="true" lat="44.19547157" lon="-72.4908053">
    <tag k="addr:city" v="Barre"/>
    <tag k="addr:housenumber" v="15"/>
    <tag k="addr:street" v="Delmont Avenue"/>
    <tag k="addr:state" v="VT"/>
    <tag k="ref:vcgi:esiteid" v="9680"/>
  </node>
  <node id="-1841" visible="true" lat="44.19550708" lon="-72.4957268">
    <tag k="addr:city" v="Barre"/>
    <tag k="addr:housenumber" v="19"/>
    <tag k="addr:street" v="Highland Avenue"/>
    <tag k="addr:state" v="VT"/>
    <tag k="ref:vcgi:esiteid" v="9703"/>
  </node>
  <node id="-1863" visible="true" lat="44.19532833" lon="-72.49586779">
    <tag k="addr:city" v="Barre"/>
    <tag k="addr:housenumber" v="15"/>
    <tag k="addr:street" v="Highland Avenue"/>
    <tag k="addr:state" v="VT"/>
    <tag k="ref:vcgi:esiteid" v="9728"/>
  </node>
  <node id="-1885" visible="true" lat="44.19517588" lon="-72.49611732">
    <tag k="addr:city" v="Barre"/>
    <tag k="addr:housenumber" v="11"/>
    <tag k="addr:street" v="Highland Avenue"/>
    <tag k="addr:state" v="VT"/>
    <tag k="ref:vcgi:esiteid" v="9754"/>
  </node>
  <node id="-1889" visible="true" lat="44.19507314" lon="-72.49679007">
    <tag k="addr:city" v="Barre"/>
    <tag k="addr:housenumber" v="90"/>
    <tag k="addr:street" v="Washington Street"/>
    <tag k="addr:state" v="VT"/>
    <tag k="ref:vcgi:esiteid" v="9758"/>
  </node>
  <node id="-1899" visible="true" lat="44.19494387" lon="-72.49620622">
    <tag k="addr:city" v="Barre"/>
    <tag k="addr:housenumber" v="7"/>
    <tag k="addr:street" v="Highland Avenue"/>
    <tag k="addr:state" v="VT"/>
    <tag k="ref:vcgi:esiteid" v="9768"/>
  </node>
  <node id="-1924" visible="true" lat="44.19490729" lon="-72.49576468">
    <tag k="addr:city" v="Barre"/>
    <tag k="addr:housenumber" v="12"/>
    <tag k="addr:street" v="Bolster Avenue"/>
    <tag k="addr:state" v="VT"/>
    <tag k="ref:vcgi:esiteid" v="9798"/>
  </node>
  <node id="-1935" visible="true" lat="44.19468953" lon="-72.49547179">
    <tag k="addr:city" v="Barre"/>
    <tag k="addr:housenumber" v="11"/>
    <tag k="addr:street" v="Bolster Avenue"/>
    <tag k="addr:state" v="VT"/>
    <tag k="ref:vcgi:esiteid" v="9811"/>
  </node>
  <node id="-1937" visible="true" lat="44.19470472" lon="-72.49597774">
    <tag k="addr:city" v="Barre"/>
    <tag k="addr:housenumber" v="6"/>
    <tag k="addr:street" v="Bolster Avenue"/>
    <tag k="addr:state" v="VT"/>
    <tag k="ref:vcgi:esiteid" v="9813"/>
  </node>
  <node id="-1941" visible="true" lat="44.19475771" lon="-72.49639258">
    <tag k="addr:city" v="Barre"/>
    <tag k="addr:housenumber" v="98"/>
    <tag k="addr:street" v="Washington Street"/>
    <tag k="addr:state" v="VT"/>
    <tag k="ref:vcgi:esiteid" v="9817"/>
  </node>
  <node id="-1956" visible="true" lat="44.1945321" lon="-72.49567004">
    <tag k="addr:city" v="Barre"/>
    <tag k="addr:housenumber" v="5"/>
    <tag k="addr:street" v="Bolster Avenue"/>
    <tag k="addr:state" v="VT"/>
    <tag k="ref:vcgi:esiteid" v="9834"/>
  </node>
  <node id="-1961" visible="true" lat="44.19448671" lon="-72.49612791">
    <tag k="addr:city" v="Barre"/>
    <tag k="addr:housenumber" v="102"/>
    <tag k="addr:street" v="Washington Street"/>
    <tag k="addr:state" v="VT"/>
    <tag k="ref:vcgi:esiteid" v="9839"/>
  </node>
  <node id="-1970" visible="true" lat="44.194294" lon="-72.49116403">
    <tag k="addr:city" v="Barre"/>
    <tag k="addr:housenumber" v="70"/>
    <tag k="addr:street" v="Camp Street"/>
    <tag k="addr:state" v="VT"/>
    <tag k="ref:vcgi:esiteid" v="9850"/>
  </node>
  <node id="-1973" visible="true" lat="44.19434203" lon="-72.49580747">
    <tag k="addr:city" v="Barre"/>
    <tag k="addr:housenumber" v="108"/>
    <tag k="addr:street" v="Washington Street"/>
    <tag k="addr:state" v="VT"/>
    <tag k="ref:vcgi:esiteid" v="9853"/>
  </node>
  <node id="-1982" visible="true" lat="44.19421954" lon="-72.49570735">
    <tag k="addr:city" v="Barre"/>
    <tag k="addr:housenumber" v="112"/>
    <tag k="addr:street" v="Washington Street"/>
    <tag k="addr:state" v="VT"/>
    <tag k="ref:vcgi:esiteid" v="9862"/>
  </node>
  <node id="-2007" visible="true" lat="44.19395065" lon="-72.49735259">
    <tag k="addr:city" v="Barre"/>
    <tag k="addr:housenumber" v="14"/>
    <tag k="addr:street" v="French Street"/>
    <tag k="addr:state" v="VT"/>
    <tag k="ref:vcgi:esiteid" v="9889"/>
  </node>
  <node id="-2013" visible="true" lat="44.1939091" lon="-72.49780476">
    <tag k="addr:city" v="Barre"/>
    <tag k="addr:housenumber" v="17"/>
    <tag k="addr:street" v="French Street"/>
    <tag k="addr:state" v="VT"/>
    <tag k="ref:vcgi:esiteid" v="9895"/>
  </node>
  <node id="-2018" visible="true" lat="44.1938858" lon="-72.48613738">
    <tag k="addr:city" v="Barre"/>
    <tag k="addr:housenumber" v="18"/>
    <tag k="addr:street" v="Woodland Drive"/>
    <tag k="addr:state" v="VT"/>
    <tag k="ref:vcgi:esiteid" v="9900"/>
  </node>
  <node id="-2019" visible="true" lat="44.19390483" lon="-72.50065686">
    <tag k="addr:city" v="Barre"/>
    <tag k="addr:housenumber" v="50"/>
    <tag k="addr:street" v="South Main Street"/>
    <tag k="addr:state" v="VT"/>
    <tag k="ref:vcgi:esiteid" v="9902"/>
  </node>
  <node id="-2021" visible="true" lat="44.19384765" lon="-72.4961853">
    <tag k="addr:city" v="Barre"/>
    <tag k="addr:housenumber" v="7"/>
    <tag k="addr:street" v="Liberty Street"/>
    <tag k="addr:state" v="VT"/>
    <tag k="ref:vcgi:esiteid" v="9904"/>
  </node>
  <node id="-2022" visible="true" lat="44.19384384" lon="-72.4965744">
    <tag k="addr:city" v="Barre"/>
    <tag k="addr:housenumber" v="8"/>
    <tag k="addr:street" v="College Street"/>
    <tag k="addr:state" v="VT"/>
    <tag k="ref:vcgi:esiteid" v="9905"/>
  </node>
  <node id="-2023" visible="true" lat="44.19384383" lon="-72.49046278">
    <tag k="addr:city" v="Barre"/>
    <tag k="addr:housenumber" v="53"/>
    <tag k="addr:street" v="Camp Street"/>
    <tag k="addr:state" v="VT"/>
    <tag k="ref:vcgi:esiteid" v="9906"/>
  </node>
  <node id="-2026" visible="true" lat="44.1938095" lon="-72.49693298">
    <tag k="addr:city" v="Barre"/>
    <tag k="addr:housenumber" v="13"/>
    <tag k="addr:street" v="College Street"/>
    <tag k="addr:state" v="VT"/>
    <tag k="ref:vcgi:esiteid" v="9909"/>
  </node>
  <node id="-2027" visible="true" lat="44.19385719" lon="-72.49841078">
    <tag k="addr:city" v="Barre"/>
    <tag k="addr:housenumber" v="40"/>
    <tag k="addr:street" v="Perry Street"/>
    <tag k="addr:state" v="VT"/>
    <tag k="ref:vcgi:esiteid" v="9911"/>
  </node>
  <node id="-2028" visible="true" lat="44.19381808" lon="-72.49738659">
    <tag k="addr:city" v="Barre"/>
    <tag k="addr:housenumber" v="16"/>
    <tag k="addr:street" v="French Street"/>
    <tag k="addr:state" v="VT"/>
    <tag k="ref:vcgi:esiteid" v="9912"/>
  </node>
  <node id="-2031" visible="true" lat="44.1938434" lon="-72.49796776">
    <tag k="addr:city" v="Barre"/>
    <tag k="addr:housenumber" v="19"/>
    <tag k="addr:street" v="French Street"/>
    <tag k="addr:state" v="VT"/>
    <tag k="ref:vcgi:esiteid" v="9915"/>
  </node>
  <node id="-2037" visible="true" lat="44.19368743" lon="-72.49549102">
    <tag k="addr:city" v="Barre"/>
    <tag k="addr:housenumber" v="123"/>
    <tag k="addr:street" v="Washington Street"/>
    <tag k="addr:state" v="VT"/>
    <tag k="ref:vcgi:esiteid" v="9922"/>
  </node>
  <node id="-2038" visible="true" lat="44.19368362" lon="-72.49659729">
    <tag k="addr:city" v="Barre"/>
    <tag k="addr:housenumber" v="14"/>
    <tag k="addr:street" v="College Street"/>
    <tag k="addr:state" v="VT"/>
    <tag k="ref:vcgi:esiteid" v="9923"/>
  </node>
  <node id="-2040" visible="true" lat="44.19369348" lon="-72.49619449">
    <tag k="addr:city" v="Barre"/>
    <tag k="addr:housenumber" v="9"/>
    <tag k="addr:street" v="Liberty Street"/>
    <tag k="addr:state" v="VT"/>
    <tag k="ref:vcgi:esiteid" v="9925"/>
  </node>
  <node id="-2043" visible="true" lat="44.19367822" lon="-72.4970032">
    <tag k="addr:city" v="Barre"/>
    <tag k="addr:housenumber" v="19"/>
    <tag k="addr:street" v="College Street"/>
    <tag k="addr:state" v="VT"/>
    <tag k="ref:vcgi:esiteid" v="9929"/>
  </node>
  <node id="-2052" visible="true" lat="44.19359342" lon="-72.49793079">
    <tag k="addr:city" v="Barre"/>
    <tag k="addr:housenumber" v="21"/>
    <tag k="addr:street" v="French Street"/>
    <tag k="addr:state" v="VT"/>
    <tag k="ref:vcgi:esiteid" v="9938"/>
  </node>
  <node id="-2055" visible="true" lat="44.19355773" lon="-72.49749755">
    <tag k="addr:city" v="Barre"/>
    <tag k="addr:housenumber" v="22"/>
    <tag k="addr:street" v="French Street"/>
    <tag k="addr:state" v="VT"/>
    <tag k="ref:vcgi:esiteid" v="9941"/>
  </node>
  <node id="-2056" visible="true" lat="44.193715" lon="-72.4914932">
    <tag k="addr:city" v="Barre"/>
    <tag k="addr:housenumber" v="120"/>
    <tag k="addr:street" v="Hill Street"/>
    <tag k="addr:state" v="VT"/>
    <tag k="ref:vcgi:esiteid" v="9942"/>
  </node>
  <node id="-2057" visible="true" lat="44.19348418" lon="-72.49667889">
    <tag k="addr:city" v="Barre"/>
    <tag k="addr:housenumber" v="18"/>
    <tag k="addr:street" v="College Street"/>
    <tag k="addr:state" v="VT"/>
    <tag k="ref:vcgi:esiteid" v="9943"/>
  </node>
  <node id="-2059" visible="true" lat="44.19340764" lon="-72.49025231">
    <tag k="addr:city" v="Barre"/>
    <tag k="addr:housenumber" v="10"/>
    <tag k="addr:street" v="Berkeley Street"/>
    <tag k="addr:state" v="VT"/>
    <tag k="ref:vcgi:esiteid" v="9945"/>
  </node>
  <node id="-2060" visible="true" lat="44.1934967" lon="-72.4962387">
    <tag k="addr:city" v="Barre"/>
    <tag k="addr:housenumber" v="15"/>
    <tag k="addr:street" v="Liberty Street"/>
    <tag k="addr:state" v="VT"/>
    <tag k="ref:vcgi:esiteid" v="9946"/>
  </node>
  <node id="-2066" visible="true" lat="44.19343948" lon="-72.49712497">
    <tag k="addr:city" v="Barre"/>
    <tag k="addr:housenumber" v="23"/>
    <tag k="addr:street" v="College Street"/>
    <tag k="addr:state" v="VT"/>
    <tag k="ref:vcgi:esiteid" v="9953"/>
  </node>
  <node id="-2068" visible="true" lat="44.19342422" lon="-72.49853515">
    <tag k="addr:city" v="Barre"/>
    <tag k="addr:housenumber" v="48"/>
    <tag k="addr:street" v="Perry Street"/>
    <tag k="addr:state" v="VT"/>
    <tag k="ref:vcgi:esiteid" v="9955"/>
  </node>
  <node id="-2077" visible="true" lat="44.19342236" lon="-72.49749364">
    <tag k="addr:city" v="Barre"/>
    <tag k="addr:housenumber" v="24"/>
    <tag k="addr:street" v="French Street"/>
    <tag k="addr:state" v="VT"/>
    <tag k="ref:vcgi:esiteid" v="9964"/>
  </node>
  <node id="-2078" visible="true" lat="44.19333844" lon="-72.51851496">
    <tag k="addr:city" v="Barre"/>
    <tag k="addr:housenumber" v="44"/>
    <tag k="addr:street" v="Palmisano Plaza"/>
    <tag k="addr:state" v="VT"/>
    <tag k="ref:vcgi:esiteid" v="9965"/>
  </node>
  <node id="-2082" visible="true" lat="44.19331741" lon="-72.49674224">
    <tag k="addr:city" v="Barre"/>
    <tag k="addr:housenumber" v="24"/>
    <tag k="addr:street" v="College Street"/>
    <tag k="addr:state" v="VT"/>
    <tag k="ref:vcgi:esiteid" v="9970"/>
  </node>
  <node id="-2083" visible="true" lat="44.19319939" lon="-72.49321633">
    <tag k="addr:city" v="Barre"/>
    <tag k="addr:housenumber" v="105"/>
    <tag k="addr:street" v="Hill Street"/>
    <tag k="addr:state" v="VT"/>
    <tag k="ref:vcgi:esiteid" v="9971"/>
  </node>
  <node id="-2085" visible="true" lat="44.1932907" lon="-72.49084472">
    <tag k="addr:city" v="Barre"/>
    <tag k="addr:housenumber" v="33"/>
    <tag k="addr:street" v="Camp Street"/>
    <tag k="addr:state" v="VT"/>
    <tag k="ref:vcgi:esiteid" v="9973"/>
  </node>
  <node id="-2087" visible="true" lat="44.1931473" lon="-72.49282249">
    <tag k="addr:city" v="Barre"/>
    <tag k="addr:housenumber" v="113"/>
    <tag k="addr:street" v="Hill Street"/>
    <tag k="addr:state" v="VT"/>
    <tag k="ref:vcgi:esiteid" v="9975"/>
  </node>
  <node id="-2088" visible="true" lat="44.19335562" lon="-72.49630935">
    <tag k="addr:city" v="Barre"/>
    <tag k="addr:housenumber" v="19"/>
    <tag k="addr:street" v="Liberty Street"/>
    <tag k="addr:state" v="VT"/>
    <tag k="ref:vcgi:esiteid" v="9976"/>
  </node>
  <node id="-2089" visible="true" lat="44.19330051" lon="-72.49799443">
    <tag k="addr:city" v="Barre"/>
    <tag k="addr:housenumber" v="27"/>
    <tag k="addr:street" v="French Street"/>
    <tag k="addr:state" v="VT"/>
    <tag k="ref:vcgi:esiteid" v="9977"/>
  </node>
  <node id="-2090" visible="true" lat="44.1933205" lon="-72.49717074">
    <tag k="addr:city" v="Barre"/>
    <tag k="addr:housenumber" v="25"/>
    <tag k="addr:street" v="College Street"/>
    <tag k="addr:state" v="VT"/>
    <tag k="ref:vcgi:esiteid" v="9978"/>
  </node>
  <node id="-2095" visible="true" lat="44.19321441" lon="-72.49856567">
    <tag k="addr:city" v="Barre"/>
    <tag k="addr:housenumber" v="60"/>
    <tag k="addr:street" v="Perry Street"/>
    <tag k="addr:state" v="VT"/>
    <tag k="ref:vcgi:esiteid" v="9984"/>
  </node>
  <node id="-2098" visible="true" lat="44.19320683" lon="-72.49630614">
    <tag k="addr:city" v="Barre"/>
    <tag k="addr:housenumber" v="23"/>
    <tag k="addr:street" v="Liberty Street"/>
    <tag k="addr:state" v="VT"/>
    <tag k="ref:vcgi:esiteid" v="9987"/>
  </node>
  <node id="-2099" visible="true" lat="44.19321513" lon="-72.49410195">
    <tag k="addr:city" v="Barre"/>
    <tag k="addr:housenumber" v="140"/>
    <tag k="addr:street" v="Washington Street"/>
    <tag k="addr:state" v="VT"/>
    <tag k="ref:vcgi:esiteid" v="9988"/>
  </node>
  <node id="-2100" visible="true" lat="44.19319673" lon="-72.49046105">
    <tag k="addr:city" v="Barre"/>
    <tag k="addr:housenumber" v="148"/>
    <tag k="addr:street" v="Hill Street"/>
    <tag k="addr:state" v="VT"/>
    <tag k="ref:vcgi:esiteid" v="9989"/>
  </node>
  <node id="-2102" visible="true" lat="44.19309822" lon="-72.49680514">
    <tag k="addr:city" v="Barre"/>
    <tag k="addr:housenumber" v="26"/>
    <tag k="addr:street" v="College Street"/>
    <tag k="addr:state" v="VT"/>
    <tag k="ref:vcgi:esiteid" v="9991"/>
  </node>
  <node id="-2103" visible="true" lat="44.19307749" lon="-72.49459524">
    <tag k="addr:city" v="Barre"/>
    <tag k="addr:housenumber" v="135"/>
    <tag k="addr:street" v="Washington Street"/>
    <tag k="addr:state" v="VT"/>
    <tag k="ref:vcgi:esiteid" v="9992"/>
  </node>
  <node id="-2104" visible="true" lat="44.19308249" lon="-72.49491367">
    <tag k="addr:city" v="Barre"/>
    <tag k="addr:housenumber" v="83"/>
    <tag k="addr:street" v="Hill Street"/>
    <tag k="addr:state" v="VT"/>
    <tag k="ref:vcgi:esiteid" v="9993"/>
  </node>
  <node id="-2106" visible="true" lat="44.1931076" lon="-72.51859283">
    <tag k="addr:city" v="Barre"/>
    <tag k="addr:housenumber" v="48"/>
    <tag k="addr:street" v="Palmisano Plaza"/>
    <tag k="addr:state" v="VT"/>
    <tag k="ref:vcgi:esiteid" v="9995"/>
  </node>
  <node id="-2107" visible="true" lat="44.19309617" lon="-72.50210136">
    <tag k="addr:city" v="Barre"/>
    <tag k="addr:housenumber" v="71"/>
    <tag k="addr:street" v="Brooklyn Street"/>
    <tag k="addr:state" v="VT"/>
    <tag k="ref:vcgi:esiteid" v="9996"/>
  </node>
  <node id="-2108" visible="true" lat="44.19311741" lon="-72.49804784">
    <tag k="addr:city" v="Barre"/>
    <tag k="addr:housenumber" v="29"/>
    <tag k="addr:street" v="French Street"/>
    <tag k="addr:state" v="VT"/>
    <tag k="ref:vcgi:esiteid" v="9997"/>
  </node>
  <node id="-2110" visible="true" lat="44.19304876" lon="-72.486464">
    <tag k="addr:city" v="Barre"/>
    <tag k="addr:housenumber" v="6"/>
    <tag k="addr:street" v="Woodland Drive"/>
    <tag k="addr:state" v="VT"/>
    <tag k="ref:vcgi:esiteid" v="10000"/>
  </node>
  <node id="-2113" visible="true" lat="44.19307708" lon="-72.49520873">
    <tag k="addr:city" v="Barre"/>
    <tag k="addr:housenumber" v="81"/>
    <tag k="addr:street" v="Hill Street"/>
    <tag k="addr:state" v="VT"/>
    <tag k="ref:vcgi:esiteid" v="10003"/>
  </node>
  <node id="-2115" visible="true" lat="44.19301223" lon="-72.49551391">
    <tag k="addr:city" v="Barre"/>
    <tag k="addr:housenumber" v="73"/>
    <tag k="addr:street" v="Hill Street"/>
    <tag k="addr:state" v="VT"/>
    <tag k="ref:vcgi:esiteid" v="10007"/>
  </node>
  <node id="-2117" visible="true" lat="44.19295486" lon="-72.49434566">
    <tag k="addr:city" v="Barre"/>
    <tag k="addr:housenumber" v="141"/>
    <tag k="addr:street" v="Washington Street"/>
    <tag k="addr:state" v="VT"/>
    <tag k="ref:vcgi:esiteid" v="10009"/>
  </node>
  <node id="-2118" visible="true" lat="44.19305794" lon="-72.48993995">
    <tag k="addr:city" v="Barre"/>
    <tag k="addr:housenumber" v="160"/>
    <tag k="addr:street" v="Hill Street"/>
    <tag k="addr:state" v="VT"/>
    <tag k="ref:vcgi:esiteid" v="10010"/>
  </node>
  <node id="-2119" visible="true" lat="44.19294027" lon="-72.49575945">
    <tag k="addr:city" v="Barre"/>
    <tag k="addr:housenumber" v="69"/>
    <tag k="addr:street" v="Hill Street"/>
    <tag k="addr:state" v="VT"/>
    <tag k="ref:vcgi:esiteid" v="10011"/>
  </node>
  <node id="-2121" visible="true" lat="44.19291491" lon="-72.49596358">
    <tag k="addr:city" v="Barre"/>
    <tag k="addr:housenumber" v="65"/>
    <tag k="addr:street" v="Hill Street"/>
    <tag k="addr:state" v="VT"/>
    <tag k="ref:vcgi:esiteid" v="10013"/>
  </node>
  <node id="-2122" visible="true" lat="44.19292519" lon="-72.49847924">
    <tag k="addr:city" v="Barre"/>
    <tag k="addr:housenumber" v="36"/>
    <tag k="addr:street" v="Hill Street"/>
    <tag k="addr:state" v="VT"/>
    <tag k="ref:vcgi:esiteid" v="10014"/>
  </node>
  <node id="-2123" visible="true" lat="44.19299813" lon="-72.48961163">
    <tag k="addr:city" v="Barre"/>
    <tag k="addr:housenumber" v="166"/>
    <tag k="addr:street" v="Hill Street"/>
    <tag k="addr:state" v="VT"/>
    <tag k="ref:vcgi:esiteid" v="10015"/>
  </node>
  <node id="-2124" visible="true" lat="44.19285035" lon="-72.49627692">
    <tag k="addr:city" v="Barre"/>
    <tag k="addr:housenumber" v="63"/>
    <tag k="addr:street" v="Hill Street"/>
    <tag k="addr:state" v="VT"/>
    <tag k="ref:vcgi:esiteid" v="10016"/>
  </node>
  <node id="-2125" visible="true" lat="44.19297214" lon="-72.50207147">
    <tag k="addr:city" v="Barre"/>
    <tag k="addr:housenumber" v="75"/>
    <tag k="addr:street" v="Brooklyn Street"/>
    <tag k="addr:state" v="VT"/>
    <tag k="ref:vcgi:esiteid" v="10017"/>
  </node>
  <node id="-2126" visible="true" lat="44.19296189" lon="-72.4925686">
    <tag k="addr:city" v="Barre"/>
    <tag k="addr:housenumber" v="121"/>
    <tag k="addr:street" v="Hill Street"/>
    <tag k="addr:state" v="VT"/>
    <tag k="ref:vcgi:esiteid" v="10018"/>
  </node>
  <node id="-2131" visible="true" lat="44.19282389" lon="-72.49681614">
    <tag k="addr:city" v="Barre"/>
    <tag k="addr:housenumber" v="53"/>
    <tag k="addr:street" v="Hill Street"/>
    <tag k="addr:state" v="VT"/>
    <tag k="ref:vcgi:esiteid" v="10023"/>
  </node>
  <node id="-2134" visible="true" lat="44.19291539" lon="-72.49460433">
    <tag k="addr:city" v="Barre"/>
    <tag k="addr:housenumber" v="10"/>
    <tag k="addr:street" v="Mount Vernon Place"/>
    <tag k="addr:state" v="VT"/>
    <tag k="ref:vcgi:esiteid" v="10027"/>
  </node>
  <node id="-2135" visible="true" lat="44.19288041" lon="-72.49422569">
    <tag k="addr:city" v="Barre"/>
    <tag k="addr:housenumber" v="143"/>
    <tag k="addr:street" v="Washington Street"/>
    <tag k="addr:state" v="VT"/>
    <tag k="ref:vcgi:esiteid" v="10028"/>
  </node>
  <node id="-2137" visible="true" lat="44.19283269" lon="-72.49659236">
    <tag k="addr:city" v="Barre"/>
    <tag k="addr:housenumber" v="57"/>
    <tag k="addr:street" v="Hill Street"/>
    <tag k="addr:state" v="VT"/>
    <tag k="ref:vcgi:esiteid" v="10030"/>
  </node>
  <node id="-2138" visible="true" lat="44.19297565" lon="-72.48935285">
    <tag k="addr:city" v="Barre"/>
    <tag k="addr:housenumber" v="168"/>
    <tag k="addr:street" v="Hill Street"/>
    <tag k="addr:state" v="VT"/>
    <tag k="ref:vcgi:esiteid" v="10031"/>
  </node>
  <node id="-2140" visible="true" lat="44.19292614" lon="-72.49354814">
    <tag k="addr:city" v="Barre"/>
    <tag k="addr:housenumber" v="148"/>
    <tag k="addr:street" v="Washington Street"/>
    <tag k="addr:state" v="VT"/>
    <tag k="ref:vcgi:esiteid" v="10033"/>
  </node>
  <node id="-2142" visible="true" lat="44.19286727" lon="-72.51872253">
    <tag k="addr:city" v="Barre"/>
    <tag k="addr:housenumber" v="52"/>
    <tag k="addr:street" v="Palmisano Plaza"/>
    <tag k="addr:state" v="VT"/>
    <tag k="ref:vcgi:esiteid" v="10035"/>
  </node>
  <node id="-2144" visible="true" lat="44.19276304" lon="-72.49715503">
    <tag k="addr:city" v="Barre"/>
    <tag k="addr:housenumber" v="51"/>
    <tag k="addr:street" v="Hill Street"/>
    <tag k="addr:state" v="VT"/>
    <tag k="ref:vcgi:esiteid" v="10037"/>
  </node>
  <node id="-2146" visible="true" lat="44.1927508" lon="-72.49773255">
    <tag k="addr:city" v="Barre"/>
    <tag k="addr:housenumber" v="45"/>
    <tag k="addr:street" v="Hill Street"/>
    <tag k="addr:state" v="VT"/>
    <tag k="ref:vcgi:esiteid" v="10039"/>
  </node>
  <node id="-2147" visible="true" lat="44.19279493" lon="-72.49733336">
    <tag k="addr:city" v="Barre"/>
    <tag k="addr:housenumber" v="49"/>
    <tag k="addr:street" v="Hill Street"/>
    <tag k="addr:state" v="VT"/>
    <tag k="ref:vcgi:esiteid" v="10040"/>
  </node>
  <node id="-2149" visible="true" lat="44.19273256" lon="-72.49797879">
    <tag k="addr:city" v="Barre"/>
    <tag k="addr:housenumber" v="41"/>
    <tag k="addr:street" v="Hill Street"/>
    <tag k="addr:state" v="VT"/>
    <tag k="ref:vcgi:esiteid" v="10042"/>
  </node>
  <node id="-2150" visible="true" lat="44.19270586" lon="-72.49820004">
    <tag k="addr:city" v="Barre"/>
    <tag k="addr:housenumber" v="37"/>
    <tag k="addr:street" v="Hill Street"/>
    <tag k="addr:state" v="VT"/>
    <tag k="ref:vcgi:esiteid" v="10044"/>
  </node>
  <node id="-2151" visible="true" lat="44.19277572" lon="-72.49403381">
    <tag k="addr:city" v="Barre"/>
    <tag k="addr:housenumber" v="145"/>
    <tag k="addr:street" v="Washington Street"/>
    <tag k="addr:state" v="VT"/>
    <tag k="ref:vcgi:esiteid" v="10045"/>
  </node>
  <node id="-2155" visible="true" lat="44.19284095" lon="-72.4875819">
    <tag k="addr:city" v="Barre"/>
    <tag k="addr:housenumber" v="204"/>
    <tag k="addr:street" v="Hill Street"/>
    <tag k="addr:state" v="VT"/>
    <tag k="ref:vcgi:esiteid" v="10049"/>
  </node>
  <node id="-2161" visible="true" lat="44.19268232" lon="-72.48661512">
    <tag k="addr:city" v="Barre"/>
    <tag k="addr:housenumber" v="2"/>
    <tag k="addr:street" v="Woodland Drive"/>
    <tag k="addr:state" v="VT"/>
    <tag k="ref:vcgi:esiteid" v="10055"/>
  </node>
  <node id="-2164" visible="true" lat="44.19264819" lon="-72.49384756">
    <tag k="addr:city" v="Barre"/>
    <tag k="addr:housenumber" v="147"/>
    <tag k="addr:street" v="Washington Street"/>
    <tag k="addr:state" v="VT"/>
    <tag k="ref:vcgi:esiteid" v="10058"/>
  </node>
  <node id="-2169" visible="true" lat="44.19273012" lon="-72.49559746">
    <tag k="addr:city" v="Barre"/>
    <tag k="addr:housenumber" v="6"/>
    <tag k="addr:street" v="Webster Street"/>
    <tag k="addr:state" v="VT"/>
    <tag k="ref:vcgi:esiteid" v="10063"/>
  </node>
  <node id="-2170" visible="true" lat="44.19272786" lon="-72.49320491">
    <tag k="addr:city" v="Barre"/>
    <tag k="addr:housenumber" v="150"/>
    <tag k="addr:street" v="Washington Street"/>
    <tag k="addr:state" v="VT"/>
    <tag k="ref:vcgi:esiteid" v="10065"/>
  </node>
  <node id="-2171" visible="true" lat="44.19262785" lon="-72.49627428">
    <tag k="addr:city" v="Barre"/>
    <tag k="addr:housenumber" v="35"/>
    <tag k="addr:street" v="Liberty Street"/>
    <tag k="addr:state" v="VT"/>
    <tag k="ref:vcgi:esiteid" v="10066"/>
  </node>
  <node id="-2172" visible="true" lat="44.19225664" lon="-72.49787803">
    <tag k="addr:city" v="Barre"/>
    <tag k="addr:housenumber" v="43"/>
    <tag k="addr:street" v="Hill Street"/>
    <tag k="addr:state" v="VT"/>
    <tag k="ref:vcgi:esiteid" v="10067"/>
  </node>
  <node id="-2176" visible="true" lat="44.19269004" lon="-72.48702625">
    <tag k="addr:city" v="Barre"/>
    <tag k="addr:housenumber" v="210"/>
    <tag k="addr:street" v="Hill Street"/>
    <tag k="addr:state" v="VT"/>
    <tag k="ref:vcgi:esiteid" v="10073"/>
  </node>
  <node id="-2177" visible="true" lat="44.19259864" lon="-72.51825943">
    <tag k="addr:city" v="Barre"/>
    <tag k="addr:housenumber" v="63"/>
    <tag k="addr:street" v="Westwood Parkway"/>
    <tag k="addr:state" v="VT"/>
    <tag k="ref:vcgi:esiteid" v="10074"/>
  </node>
  <node id="-2178" visible="true" lat="44.19258499" lon="-72.49498748">
    <tag k="addr:city" v="Barre"/>
    <tag k="addr:housenumber" v="18"/>
    <tag k="addr:street" v="Webster Street"/>
    <tag k="addr:state" v="VT"/>
    <tag k="ref:vcgi:esiteid" v="10075"/>
  </node>
  <node id="-2180" visible="true" lat="44.19254544" lon="-72.49289269">
    <tag k="addr:city" v="Barre"/>
    <tag k="addr:housenumber" v="160"/>
    <tag k="addr:street" v="Washington Street"/>
    <tag k="addr:state" v="VT"/>
    <tag k="ref:vcgi:esiteid" v="10077"/>
  </node>
  <node id="-2182" visible="true" lat="44.19252711" lon="-72.49381">
    <tag k="addr:city" v="Barre"/>
    <tag k="addr:housenumber" v="149"/>
    <tag k="addr:street" v="Washington Street"/>
    <tag k="addr:state" v="VT"/>
    <tag k="ref:vcgi:esiteid" v="10079"/>
  </node>
  <node id="-2186" visible="true" lat="44.1925499" lon="-72.49713724">
    <tag k="addr:city" v="Barre"/>
    <tag k="addr:housenumber" v="28"/>
    <tag k="addr:street" v="Hilltop Avenue"/>
    <tag k="addr:state" v="VT"/>
    <tag k="ref:vcgi:esiteid" v="10084"/>
  </node>
  <node id="-2187" visible="true" lat="44.19256166" lon="-72.48603056">
    <tag k="addr:city" v="Barre"/>
    <tag k="addr:housenumber" v="214"/>
    <tag k="addr:street" v="Hill Street"/>
    <tag k="addr:state" v="VT"/>
    <tag k="ref:vcgi:esiteid" v="10086"/>
  </node>
  <node id="-2189" visible="true" lat="44.19246124" lon="-72.49626003">
    <tag k="addr:city" v="Barre"/>
    <tag k="addr:housenumber" v="41"/>
    <tag k="addr:street" v="Liberty Street"/>
    <tag k="addr:state" v="VT"/>
    <tag k="ref:vcgi:esiteid" v="10088"/>
  </node>
  <node id="-2194" visible="true" lat="44.19248505" lon="-72.49768302">
    <tag k="addr:city" v="Barre"/>
    <tag k="addr:housenumber" v="5"/>
    <tag k="addr:street" v="Hilltop Avenue"/>
    <tag k="addr:state" v="VT"/>
    <tag k="ref:vcgi:esiteid" v="10093"/>
  </node>
  <node id="-2200" visible="true" lat="44.19242573" lon="-72.49265691">
    <tag k="addr:city" v="Barre"/>
    <tag k="addr:housenumber" v="164"/>
    <tag k="addr:street" v="Washington Street"/>
    <tag k="addr:state" v="VT"/>
    <tag k="ref:vcgi:esiteid" v="10100"/>
  </node>
  <node id="-2204" visible="true" lat="44.19243944" lon="-72.51939575">
    <tag k="addr:city" v="Barre"/>
    <tag k="addr:housenumber" v="59"/>
    <tag k="addr:street" v="Palmisano Plaza"/>
    <tag k="addr:state" v="VT"/>
    <tag k="ref:vcgi:esiteid" v="10105"/>
  </node>
  <node id="-2210" visible="true" lat="44.19240717" lon="-72.49666788">
    <tag k="addr:city" v="Barre"/>
    <tag k="addr:housenumber" v="29"/>
    <tag k="addr:street" v="Hilltop Avenue"/>
    <tag k="addr:state" v="VT"/>
    <tag k="ref:vcgi:esiteid" v="10112"/>
  </node>
  <node id="-2213" visible="true" lat="44.19224655" lon="-72.49629224">
    <tag k="addr:city" v="Barre"/>
    <tag k="addr:housenumber" v="45"/>
    <tag k="addr:street" v="Liberty Street"/>
    <tag k="addr:state" v="VT"/>
    <tag k="ref:vcgi:esiteid" v="10117"/>
  </node>
  <node id="-2218" visible="true" lat="44.19236516" lon="-72.49855253">
    <tag k="addr:city" v="Barre"/>
    <tag k="addr:housenumber" v="21"/>
    <tag k="addr:street" v="Hill Street"/>
    <tag k="addr:state" v="VT"/>
    <tag k="ref:vcgi:esiteid" v="10123"/>
  </node>
  <node id="-2224" visible="true" lat="44.19226074" lon="-72.49761615">
    <tag k="addr:city" v="Barre"/>
    <tag k="addr:housenumber" v="11"/>
    <tag k="addr:street" v="Hilltop Avenue"/>
    <tag k="addr:state" v="VT"/>
    <tag k="ref:vcgi:esiteid" v="10129"/>
  </node>
  <node id="-2225" visible="true" lat="44.19234891" lon="-72.49722963">
    <tag k="addr:city" v="Barre"/>
    <tag k="addr:housenumber" v="18"/>
    <tag k="addr:street" v="Hilltop Avenue"/>
    <tag k="addr:state" v="VT"/>
    <tag k="ref:vcgi:esiteid" v="10130"/>
  </node>
  <node id="-2229" visible="true" lat="44.19235292" lon="-72.49705675">
    <tag k="addr:city" v="Barre"/>
    <tag k="addr:housenumber" v="20"/>
    <tag k="addr:street" v="Hilltop Avenue"/>
    <tag k="addr:state" v="VT"/>
    <tag k="ref:vcgi:esiteid" v="10135"/>
  </node>
  <node id="-2233" visible="true" lat="44.19223935" lon="-72.49676467">
    <tag k="addr:city" v="Barre"/>
    <tag k="addr:housenumber" v="25"/>
    <tag k="addr:street" v="Hilltop Avenue"/>
    <tag k="addr:state" v="VT"/>
    <tag k="ref:vcgi:esiteid" v="10140"/>
  </node>
  <node id="-2241" visible="true" lat="44.19214248" lon="-72.49166107">
    <tag k="addr:city" v="Barre"/>
    <tag k="addr:housenumber" v="6"/>
    <tag k="addr:street" v="Camp Street"/>
    <tag k="addr:state" v="VT"/>
    <tag k="ref:vcgi:esiteid" v="10148"/>
  </node>
  <node id="-2252" visible="true" lat="44.19207333" lon="-72.49720027">
    <tag k="addr:city" v="Barre"/>
    <tag k="addr:housenumber" v="17"/>
    <tag k="addr:street" v="Hilltop Avenue"/>
    <tag k="addr:state" v="VT"/>
    <tag k="ref:vcgi:esiteid" v="10161"/>
  </node>
  <node id="-2256" visible="true" lat="44.19208105" lon="-72.49343959">
    <tag k="addr:city" v="Barre"/>
    <tag k="addr:housenumber" v="58"/>
    <tag k="addr:street" v="Webster Street"/>
    <tag k="addr:state" v="VT"/>
    <tag k="ref:vcgi:esiteid" v="10165"/>
  </node>
  <node id="-2257" visible="true" lat="44.1921756" lon="-72.49852835">
    <tag k="addr:city" v="Barre"/>
    <tag k="addr:housenumber" v="19"/>
    <tag k="addr:street" v="Hill Street"/>
    <tag k="addr:state" v="VT"/>
    <tag k="ref:vcgi:esiteid" v="10166"/>
  </node>
  <node id="-2293" visible="true" lat="44.19200703" lon="-72.4985806">
    <tag k="addr:city" v="Barre"/>
    <tag k="addr:housenumber" v="15"/>
    <tag k="addr:street" v="Hill Street"/>
    <tag k="addr:state" v="VT"/>
    <tag k="ref:vcgi:esiteid" v="10208"/>
  </node>
  <node id="-2316" visible="true" lat="44.19149398" lon="-72.49971008">
    <tag k="addr:city" v="Barre"/>
    <tag k="addr:housenumber" v="95"/>
    <tag k="addr:street" v="South Main Street"/>
    <tag k="addr:state" v="VT"/>
    <tag k="ref:vcgi:esiteid" v="10232"/>
  </node>
  <node id="-2364" visible="true" lat="44.19091152" lon="-72.49310461">
    <tag k="addr:city" v="Barre"/>
    <tag k="addr:housenumber" v="75"/>
    <tag k="addr:street" v="Orange Street"/>
    <tag k="addr:state" v="VT"/>
    <tag k="ref:vcgi:esiteid" v="10285"/>
  </node>
  <node id="-2399" visible="true" lat="44.19090457" lon="-72.50204102">
    <tag k="addr:city" v="Barre"/>
    <tag k="addr:housenumber" v="111"/>
    <tag k="addr:street" v="Brooklyn Street"/>
    <tag k="addr:state" v="VT"/>
    <tag k="ref:vcgi:esiteid" v="10321"/>
  </node>
  <node id="-2468" visible="true" lat="44.19005584" lon="-72.50327301">
    <tag k="addr:city" v="Barre"/>
    <tag k="addr:housenumber" v="22"/>
    <tag k="addr:street" v="Leonard Street"/>
    <tag k="addr:state" v="VT"/>
    <tag k="ref:vcgi:esiteid" v="10403"/>
  </node>
  <node id="-2476" visible="true" lat="44.18990325" lon="-72.50376891">
    <tag k="addr:city" v="Barre"/>
    <tag k="addr:housenumber" v="29"/>
    <tag k="addr:street" v="Leonard Street"/>
    <tag k="addr:state" v="VT"/>
    <tag k="ref:vcgi:esiteid" v="10411"/>
  </node>
  <node id="-2481" visible="true" lat="44.18988511" lon="-72.49372538">
    <tag k="addr:city" v="Barre"/>
    <tag k="addr:housenumber" v="151"/>
    <tag k="addr:street" v="Ayers Street"/>
    <tag k="addr:state" v="VT"/>
    <tag k="ref:vcgi:esiteid" v="10416"/>
  </node>
  <node id="-2483" visible="true" lat="44.18984222" lon="-72.50321525">
    <tag k="addr:city" v="Barre"/>
    <tag k="addr:housenumber" v="30"/>
    <tag k="addr:street" v="Leonard Street"/>
    <tag k="addr:state" v="VT"/>
    <tag k="ref:vcgi:esiteid" v="10418"/>
  </node>
  <node id="-2485" visible="true" lat="44.18971259" lon="-72.50389147">
    <tag k="addr:city" v="Barre"/>
    <tag k="addr:housenumber" v="35"/>
    <tag k="addr:street" v="Leonard Street"/>
    <tag k="addr:state" v="VT"/>
    <tag k="ref:vcgi:esiteid" v="10420"/>
  </node>
  <node id="-2488" visible="true" lat="44.18957592" lon="-72.50331215">
    <tag k="addr:city" v="Barre"/>
    <tag k="addr:housenumber" v="36"/>
    <tag k="addr:street" v="Leonard Street"/>
    <tag k="addr:state" v="VT"/>
    <tag k="ref:vcgi:esiteid" v="10425"/>
  </node>
  <node id="-2491" visible="true" lat="44.18954467" lon="-72.48859405">
    <tag k="addr:city" v="Barre"/>
    <tag k="addr:housenumber" v="257"/>
    <tag k="addr:street" v="Washington Street"/>
    <tag k="addr:state" v="VT"/>
    <tag k="ref:vcgi:esiteid" v="10430"/>
  </node>
  <node id="-2521" visible="true" lat="44.18792724" lon="-72.49081421">
    <tag k="addr:city" v="Barre"/>
    <tag k="addr:housenumber" v="8"/>
    <tag k="addr:street" v="Circle Street"/>
    <tag k="addr:state" v="VT"/>
    <tag k="ref:vcgi:esiteid" v="10468"/>
  </node>
  <node id="-2594" visible="true" lat="44.186203" lon="-72.49283599">
    <tag k="addr:city" v="Barre"/>
    <tag k="addr:housenumber" v="9"/>
    <tag k="addr:street" v="Green Street"/>
    <tag k="addr:state" v="VT"/>
    <tag k="ref:vcgi:esiteid" v="10555"/>
  </node>
  <node id="-2611" visible="true" lat="44.1858673" lon="-72.50177764">
    <tag k="addr:city" v="Barre"/>
    <tag k="addr:housenumber" v="1"/>
    <tag k="addr:street" v="Blodgett Avenue"/>
    <tag k="addr:state" v="VT"/>
    <tag k="ref:vcgi:esiteid" v="10573"/>
  </node>
  <node id="-2694" visible="true" lat="44.18383092" lon="-72.50260344">
    <tag k="addr:city" v="Barre"/>
    <tag k="addr:housenumber" v="45"/>
    <tag k="addr:street" v="Parkside Terrace"/>
    <tag k="addr:state" v="VT"/>
    <tag k="ref:vcgi:esiteid" v="10669"/>
  </node>
  <node id="-2778" visible="true" lat="44.18151474" lon="-72.49879455">
    <tag k="addr:city" v="Barre"/>
    <tag k="addr:housenumber" v="6"/>
    <tag k="addr:street" v="Pouliot Avenue"/>
    <tag k="addr:state" v="VT"/>
    <tag k="ref:vcgi:esiteid" v="10759"/>
  </node>
  <node id="-2794" visible="true" lat="44.21091689" lon="-72.52304691">
    <tag k="addr:city" v="Barre"/>
    <tag k="addr:housenumber" v="88"/>
    <tag k="addr:street" v="Treatment Plant Drive"/>
    <tag k="addr:state" v="VT"/>
    <tag k="ref:vcgi:esiteid" v="10780"/>
  </node>
  <node id="-2797" visible="true" lat="44.21039618" lon="-72.52018534">
    <tag k="addr:city" v="Barre"/>
    <tag k="addr:housenumber" v="59"/>
    <tag k="addr:street" v="Treatment Plant Drive"/>
    <tag k="addr:state" v="VT"/>
    <tag k="ref:vcgi:esiteid" v="10783"/>
  </node>
  <node id="-2830" visible="true" lat="44.19359149" lon="-72.48893967">
    <tag k="addr:city" v="Barre"/>
    <tag k="addr:housenumber" v="86"/>
    <tag k="addr:street" v="Nelson Street"/>
    <tag k="addr:state" v="VT"/>
    <tag k="ref:vcgi:esiteid" v="10824"/>
  </node>
  <node id="-2845" visible="true" lat="44.20419028" lon="-72.50039419">
    <tag k="addr:city" v="Barre"/>
    <tag k="addr:housenumber" v="15"/>
    <tag k="addr:street" v="Midway Street"/>
    <tag k="addr:state" v="VT"/>
    <tag k="ref:vcgi:esiteid" v="10842"/>
  </node>
  <node id="-2867" visible="true" lat="44.20666706" lon="-72.50242572">
    <tag k="addr:city" v="Barre"/>
    <tag k="addr:housenumber" v="11"/>
    <tag k="addr:street" v="Lindbergh Avenue"/>
    <tag k="addr:state" v="VT"/>
    <tag k="ref:vcgi:esiteid" v="10866"/>
  </node>
  <node id="-2868" visible="true" lat="44.18962406" lon="-72.49329227">
    <tag k="addr:city" v="Barre"/>
    <tag k="addr:housenumber" v="153"/>
    <tag k="addr:street" v="Ayers Street"/>
    <tag k="addr:state" v="VT"/>
    <tag k="ref:vcgi:esiteid" v="10867"/>
  </node>
  <node id="-2872" visible="true" lat="44.19247333" lon="-72.51669459">
    <tag k="addr:city" v="Barre"/>
    <tag k="addr:housenumber" v="39"/>
    <tag k="addr:street" v="Fecteau Circle"/>
    <tag k="addr:state" v="VT"/>
    <tag k="ref:vcgi:esiteid" v="10874"/>
  </node>
  <node id="-2886" visible="true" lat="44.18878409" lon="-72.48734301">
    <tag k="addr:city" v="Barre"/>
    <tag k="addr:housenumber" v="335"/>
    <tag k="addr:street" v="Washington Street"/>
    <tag k="addr:state" v="VT"/>
    <tag k="ref:vcgi:esiteid" v="10888"/>
  </node>
  <node id="-2906" visible="true" lat="44.20669646" lon="-72.50271403">
    <tag k="addr:city" v="Barre"/>
    <tag k="addr:housenumber" v="15"/>
    <tag k="addr:street" v="Lindbergh Avenue"/>
    <tag k="addr:state" v="VT"/>
    <tag k="ref:vcgi:esiteid" v="10908"/>
  </node>
  <node id="-2939" visible="true" lat="44.19276822" lon="-72.49497202">
    <tag k="addr:city" v="Barre"/>
    <tag k="addr:housenumber" v="13"/>
    <tag k="addr:street" v="Mount Vernon Place"/>
    <tag k="addr:state" v="VT"/>
    <tag k="ref:vcgi:esiteid" v="317832"/>
  </node>
  <node id="-2997" visible="true" lat="44.20321577" lon="-72.50782109">
    <tag k="addr:city" v="Barre"/>
    <tag k="addr:housenumber" v="18"/>
    <tag k="addr:street" v="Corti Street"/>
    <tag k="addr:state" v="VT"/>
    <tag k="ref:vcgi:esiteid" v="342210"/>
  </node>
  <node id="-2998" visible="true" lat="44.20306248" lon="-72.50960123">
    <tag k="addr:city" v="Barre"/>
    <tag k="addr:housenumber" v="10"/>
    <tag k="addr:street" v="Blackwell Street"/>
    <tag k="addr:state" v="VT"/>
    <tag k="ref:vcgi:esiteid" v="342211"/>
  </node>
  <node id="-3016" visible="true" lat="44.21264467" lon="-72.50178979">
    <tag k="addr:city" v="Barre"/>
    <tag k="addr:housenumber" v="127"/>
    <tag k="addr:street" v="Farwell Street"/>
    <tag k="addr:state" v="VT"/>
    <tag k="ref:vcgi:esiteid" v="345769"/>
  </node>
  <node id="-3019" visible="true" lat="44.20150062" lon="-72.51103434">
    <tag k="addr:city" v="Barre"/>
    <tag k="addr:housenumber" v="41"/>
    <tag k="addr:street" v="Center Street"/>
    <tag k="addr:state" v="VT"/>
    <tag k="ref:vcgi:esiteid" v="365626"/>
  </node>
  <node id="-3020" visible="true" lat="44.19311623" lon="-72.48950835">
    <tag k="addr:city" v="Barre"/>
    <tag k="addr:housenumber" v="164"/>
    <tag k="addr:street" v="Hill Street"/>
    <tag k="addr:state" v="VT"/>
    <tag k="ref:vcgi:esiteid" v="446349"/>
  </node>
  <node id="-3027" visible="true" lat="44.20845671" lon="-72.50669435">
    <tag k="addr:city" v="Barre"/>
    <tag k="addr:housenumber" v="38"/>
    <tag k="addr:street" v="Newton Street"/>
    <tag k="addr:state" v="VT"/>
    <tag k="ref:vcgi:esiteid" v="448837"/>
  </node>
  <node id="-3032" visible="true" lat="44.19314107" lon="-72.49721338">
    <tag k="addr:city" v="Barre"/>
    <tag k="addr:housenumber" v="31"/>
    <tag k="addr:street" v="College Street"/>
    <tag k="addr:state" v="VT"/>
    <tag k="ref:vcgi:esiteid" v="452227"/>
  </node>
  <node id="-3033" visible="true" lat="44.1993932" lon="-72.50293445">
    <tag k="addr:city" v="Barre"/>
    <tag k="addr:housenumber" v="207"/>
    <tag k="addr:street" v="North Main Street"/>
    <tag k="addr:state" v="VT"/>
    <tag k="ref:vcgi:esiteid" v="452234"/>
  </node>
  <node id="-3041" visible="true" lat="44.1924536" lon="-72.52259664">
    <tag k="addr:city" v="Barre"/>
    <tag k="addr:housenumber" v="445"/>
    <tag k="addr:street" v="Prospect Street"/>
    <tag k="addr:state" v="VT"/>
    <tag k="ref:vcgi:esiteid" v="455391"/>
  </node>
  <node id="-3042" visible="true" lat="44.1927289" lon="-72.52249548">
    <tag k="addr:city" v="Barre"/>
    <tag k="addr:housenumber" v="433"/>
    <tag k="addr:street" v="Prospect Street"/>
    <tag k="addr:state" v="VT"/>
    <tag k="ref:vcgi:esiteid" v="455392"/>
  </node>
  <node id="-3044" visible="true" lat="44.20265334" lon="-72.50865298">
    <tag k="addr:city" v="Barre"/>
    <tag k="addr:housenumber" v="388"/>
    <tag k="addr:street" v="North Main Street"/>
    <tag k="addr:state" v="VT"/>
    <tag k="ref:vcgi:esiteid" v="610151"/>
  </node>
  <node id="-3045" visible="true" lat="44.1989208" lon="-72.50467835">
    <tag k="addr:city" v="Barre"/>
    <tag k="addr:housenumber" v="58"/>
    <tag k="addr:street" v="Depot Square"/>
    <tag k="addr:state" v="VT"/>
    <tag k="ref:vcgi:esiteid" v="611135"/>
  </node>
  <node id="-3046" visible="true" lat="44.20772251" lon="-72.50021482">
    <tag k="addr:city" v="Barre"/>
    <tag k="addr:housenumber" v="184"/>
    <tag k="addr:street" v="Merchant Street"/>
    <tag k="addr:state" v="VT"/>
    <tag k="ref:vcgi:esiteid" v="611178"/>
  </node>
  <node id="-3054" visible="true" lat="44.19198639" lon="-72.51670872">
    <tag k="addr:city" v="Barre"/>
    <tag k="addr:housenumber" v="29"/>
    <tag k="addr:street" v="Fecteau Circle"/>
    <tag k="addr:state" v="VT"/>
    <tag k="ref:vcgi:esiteid" v="617744"/>
  </node>
  <node id="-3056" visible="true" lat="44.19906797" lon="-72.51236197">
    <tag k="addr:city" v="Barre"/>
    <tag k="addr:housenumber" v="34"/>
    <tag k="addr:street" v="Thomas Street"/>
    <tag k="addr:state" v="VT"/>
    <tag k="ref:vcgi:esiteid" v="655782"/>
  </node>
  <node id="-3057" visible="true" lat="44.18991385" lon="-72.51032877">
    <tag k="addr:city" v="Barre"/>
    <tag k="addr:housenumber" v="107"/>
    <tag k="addr:street" v="Allen Street"/>
    <tag k="addr:state" v="VT"/>
    <tag k="ref:vcgi:esiteid" v="655979"/>
  </node>
  <node id="-3058" visible="true" lat="44.20293974" lon="-72.51765893">
    <tag k="addr:city" v="Barre"/>
    <tag k="addr:housenumber" v="25"/>
    <tag k="addr:street" v="Angela Avenue"/>
    <tag k="addr:state" v="VT"/>
    <tag k="ref:vcgi:esiteid" v="656033"/>
  </node>
  <node id="-3071" visible="true" lat="44.18122862" lon="-72.49890703">
    <tag k="addr:city" v="Barre"/>
    <tag k="addr:housenumber" v="12"/>
    <tag k="addr:street" v="Pouliot Avenue"/>
    <tag k="addr:state" v="VT"/>
    <tag k="ref:vcgi:esiteid" v="756513"/>
  </node>
  <node id="-3075" visible="true" lat="44.19032874" lon="-72.4977165">
    <tag k="addr:city" v="Barre"/>
    <tag k="addr:housenumber" v="5"/>
    <tag k="addr:street" v="Crimson Tide Way"/>
    <tag k="addr:state" v="VT"/>
    <tag k="ref:vcgi:esiteid" v="758941"/>
  </node>
  <node id="-3078" visible="true" lat="44.20892493" lon="-72.50820356">
    <tag k="addr:city" v="Barre"/>
    <tag k="addr:housenumber" v="27"/>
    <tag k="addr:street" v="Colby Street"/>
    <tag k="addr:state" v="VT"/>
    <tag k="ref:vcgi:esiteid" v="759861"/>
  </node>
  <node id="-3079" visible="true" lat="44.1899954" lon="-72.50677084">
    <tag k="addr:city" v="Barre"/>
    <tag k="addr:housenumber" v="103"/>
    <tag k="addr:street" v="Allen Street"/>
    <tag k="addr:state" v="VT"/>
    <tag k="ref:vcgi:esiteid" v="761315"/>
  </node>
  <node id="-3080" visible="true" lat="44.19414808" lon="-72.50712944">
    <tag k="addr:city" v="Barre"/>
    <tag k="addr:housenumber" v="3"/>
    <tag k="addr:street" v="Stowe Street"/>
    <tag k="addr:state" v="VT"/>
    <tag k="ref:vcgi:esiteid" v="761752"/>
  </node>
  <node id="-3081" visible="true" lat="44.19495733" lon="-72.49355945">
    <tag k="addr:city" v="Barre"/>
    <tag k="addr:housenumber" v="128"/>
    <tag k="addr:street" v="Washington Street"/>
    <tag k="addr:state" v="VT"/>
    <tag k="ref:vcgi:esiteid" v="762121"/>
  </node>
  <node id="-3082" visible="true" lat="44.21328757" lon="-72.52667934">
    <tag k="addr:city" v="Barre"/>
    <tag k="addr:housenumber" v="854"/>
    <tag k="addr:street" v="North Main Street"/>
    <tag k="addr:state" v="VT"/>
    <tag k="ref:vcgi:esiteid" v="762353"/>
  </node>
  <node id="-3083" visible="true" lat="44.18811712" lon="-72.49641089">
    <tag k="addr:city" v="Barre"/>
    <tag k="addr:housenumber" v="68"/>
    <tag k="addr:street" v="Boynton Street"/>
    <tag k="addr:state" v="VT"/>
    <tag k="ref:vcgi:esiteid" v="762434"/>
  </node>
  <node id="-3084" visible="true" lat="44.19759431" lon="-72.52116875">
    <tag k="addr:city" v="Barre"/>
    <tag k="addr:housenumber" v="36"/>
    <tag k="addr:street" v="Bailey Street"/>
    <tag k="addr:state" v="VT"/>
    <tag k="ref:vcgi:esiteid" v="763830"/>
  </node>
  <node id="-3085" visible="true" lat="44.1994253" lon="-72.50258033">
    <tag k="addr:city" v="Barre"/>
    <tag k="addr:housenumber" v="30"/>
    <tag k="addr:street" v="Summer Street"/>
    <tag k="addr:state" v="VT"/>
    <tag k="ref:vcgi:esiteid" v="768988"/>
  </node>
  <node id="-3087" visible="true" lat="44.19349645" lon="-72.48619171">
    <tag k="addr:city" v="Barre"/>
    <tag k="addr:housenumber" v="12"/>
    <tag k="addr:street" v="Woodland Drive"/>
    <tag k="addr:state" v="VT"/>
    <tag k="ref:vcgi:esiteid" v="769821"/>
  </node>
  <node id="-3088" visible="true" lat="44.2009039" lon="-72.50476234">
    <tag k="addr:city" v="Barre"/>
    <tag k="addr:housenumber" v="11"/>
    <tag k="addr:street" v="Seminary Street"/>
    <tag k="addr:state" v="VT"/>
    <tag k="ref:vcgi:esiteid" v="769967"/>
  </node>
</osm>
