<?xml version="1.0" encoding="UTF-8"?>
<osm version="0.6" generator="JOSM" upload="false">
  <node id="-100" visible="true" lat="44.16419915" lon="-72.47156822">
    <tag k="addr:housenumber" v="227"/>
    <tag k="addr:street" v="Websterville Road"/>
    <tag k="addr:state" v="VT"/>
    <tag k="ref:vcgi:esiteid" v="1"/>
  </node>
  <node id="-102" visible="true" lat="44.18356728" lon="-72.48978985">
    <tag k="addr:housenumber" v="100"/>
    <tag k="addr:street" v="Fisher Road"/>
    <tag k="addr:state" v="VT"/>
    <tag k="ref:vcgi:esiteid" v="218"/>
  </node>
  <node id="-103" visible="true" lat="44.21601567" lon="-72.43542091">
    <tag k="addr:housenumber" v="101"/>
    <tag k="addr:street" v="Curtis Road"/>
    <tag k="addr:state" v="VT"/>
    <tag k="ref:vcgi:esiteid" v="295"/>
  </node>
  <node id="-111" visible="true" lat="44.23442459" lon="-72.5007019">
    <tag k="addr:housenumber" v="423"/>
    <tag k="addr:street" v="Farwell Street"/>
    <tag k="addr:state" v="VT"/>
    <tag k="ref:vcgi:esiteid" v="10917"/>
  </node>
  <node id="-120" visible="true" lat="44.23337855" lon="-72.48805417">
    <tag k="addr:housenumber" v="551"/>
    <tag k="addr:street" v="East Montpelier Road"/>
    <tag k="addr:state" v="VT"/>
    <tag k="ref:vcgi:esiteid" v="10926"/>
  </node>
  <node id="-122" visible="true" lat="44.23353138" lon="-72.4899503">
    <tag k="addr:housenumber" v="11"/>
    <tag k="addr:street" v="Sunbay Road"/>
    <tag k="addr:state" v="VT"/>
    <tag k="ref:vcgi:esiteid" v="10928"/>
  </node>
  <node id="-127" visible="true" lat="44.23300933" lon="-72.49971008">
    <tag k="addr:housenumber" v="401"/>
    <tag k="addr:street" v="Farwell Street"/>
    <tag k="addr:state" v="VT"/>
    <tag k="ref:vcgi:esiteid" v="10933"/>
  </node>
  <node id="-135" visible="true" lat="44.23223925" lon="-72.47360056">
    <tag k="addr:housenumber" v="24"/>
    <tag k="addr:street" v="Mitchell Nursery Road"/>
    <tag k="addr:state" v="VT"/>
    <tag k="ref:vcgi:esiteid" v="10941"/>
  </node>
  <node id="-161" visible="true" lat="44.22954457" lon="-72.49880508">
    <tag k="addr:housenumber" v="344"/>
    <tag k="addr:street" v="Farwell Street"/>
    <tag k="addr:state" v="VT"/>
    <tag k="ref:vcgi:esiteid" v="10967"/>
  </node>
  <node id="-164" visible="true" lat="44.22920996" lon="-72.48684556">
    <tag k="addr:housenumber" v="27"/>
    <tag k="addr:street" v="Pine Ridge Road"/>
    <tag k="addr:state" v="VT"/>
    <tag k="ref:vcgi:esiteid" v="10970"/>
  </node>
  <node id="-165" visible="true" lat="44.22918319" lon="-72.47065734">
    <tag k="addr:housenumber" v="267"/>
    <tag k="addr:street" v="Plainfield Brook Road"/>
    <tag k="addr:state" v="VT"/>
    <tag k="ref:vcgi:esiteid" v="10971"/>
  </node>
  <node id="-166" visible="true" lat="44.22905935" lon="-72.49730121">
    <tag k="addr:housenumber" v="341"/>
    <tag k="addr:street" v="Farwell Street"/>
    <tag k="addr:state" v="VT"/>
    <tag k="ref:vcgi:esiteid" v="10972"/>
  </node>
  <node id="-182" visible="true" lat="44.22803749" lon="-72.47871004">
    <tag k="addr:housenumber" v="43"/>
    <tag k="addr:street" v="Spruce Mountain View Drive"/>
    <tag k="addr:state" v="VT"/>
    <tag k="ref:vcgi:esiteid" v="10988"/>
  </node>
  <node id="-199" visible="true" lat="44.22689056" lon="-72.51142883">
    <tag k="addr:housenumber" v="241"/>
    <tag k="addr:street" v="School Road"/>
    <tag k="addr:state" v="VT"/>
    <tag k="ref:vcgi:esiteid" v="11005"/>
  </node>
  <node id="-202" visible="true" lat="44.22656875" lon="-72.4886762">
    <tag k="addr:housenumber" v="5"/>
    <tag k="addr:street" v="Clark Road"/>
    <tag k="addr:state" v="VT"/>
    <tag k="ref:vcgi:esiteid" v="11008"/>
  </node>
  <node id="-216" visible="true" lat="44.22496704" lon="-72.48885207">
    <tag k="addr:housenumber" v="431"/>
    <tag k="addr:street" v="East Montpelier Road"/>
    <tag k="addr:state" v="VT"/>
    <tag k="ref:vcgi:esiteid" v="11023"/>
  </node>
  <node id="-220" visible="true" lat="44.22459791" lon="-72.48874473">
    <tag k="addr:housenumber" v="423"/>
    <tag k="addr:street" v="East Montpelier Road"/>
    <tag k="addr:state" v="VT"/>
    <tag k="ref:vcgi:esiteid" v="11027"/>
  </node>
  <node id="-227" visible="true" lat="44.22399703" lon="-72.48996575">
    <tag k="addr:housenumber" v="414"/>
    <tag k="addr:street" v="East Montpelier Road"/>
    <tag k="addr:state" v="VT"/>
    <tag k="ref:vcgi:esiteid" v="11034"/>
  </node>
  <node id="-234" visible="true" lat="44.22358322" lon="-72.50955963">
    <tag k="addr:housenumber" v="344"/>
    <tag k="addr:street" v="Beckley Hill Road"/>
    <tag k="addr:state" v="VT"/>
    <tag k="ref:vcgi:esiteid" v="11041"/>
  </node>
  <node id="-235" visible="true" lat="44.22348636" lon="-72.49311481">
    <tag k="addr:housenumber" v="19"/>
    <tag k="addr:street" v="Hartley Road"/>
    <tag k="addr:state" v="VT"/>
    <tag k="ref:vcgi:esiteid" v="11042"/>
  </node>
  <node id="-245" visible="true" lat="44.22285981" lon="-72.5035816">
    <tag k="addr:housenumber" v="136"/>
    <tag k="addr:street" v="Nichols Road"/>
    <tag k="addr:state" v="VT"/>
    <tag k="ref:vcgi:esiteid" v="11052"/>
  </node>
  <node id="-246" visible="true" lat="44.22290498" lon="-72.48850301">
    <tag k="addr:housenumber" v="403"/>
    <tag k="addr:street" v="East Montpelier Road"/>
    <tag k="addr:state" v="VT"/>
    <tag k="ref:vcgi:esiteid" v="11053"/>
  </node>
  <node id="-247" visible="true" lat="44.22277069" lon="-72.5092926">
    <tag k="addr:housenumber" v="333"/>
    <tag k="addr:street" v="Beckley Hill Road"/>
    <tag k="addr:state" v="VT"/>
    <tag k="ref:vcgi:esiteid" v="11054"/>
  </node>
  <node id="-253" visible="true" lat="44.22238998" lon="-72.4930814">
    <tag k="addr:housenumber" v="7"/>
    <tag k="addr:street" v="Hartley Road"/>
    <tag k="addr:state" v="VT"/>
    <tag k="ref:vcgi:esiteid" v="11060"/>
  </node>
  <node id="-256" visible="true" lat="44.22244644" lon="-72.48999786">
    <tag k="addr:housenumber" v="390"/>
    <tag k="addr:street" v="East Montpelier Road"/>
    <tag k="addr:state" v="VT"/>
    <tag k="ref:vcgi:esiteid" v="11063"/>
  </node>
  <node id="-260" visible="true" lat="44.22221756" lon="-72.50939178">
    <tag k="addr:housenumber" v="325"/>
    <tag k="addr:street" v="Beckley Hill Road"/>
    <tag k="addr:state" v="VT"/>
    <tag k="ref:vcgi:esiteid" v="11067"/>
  </node>
  <node id="-263" visible="true" lat="44.22210693" lon="-72.49569702">
    <tag k="addr:housenumber" v="53"/>
    <tag k="addr:street" v="Pine Hill Road"/>
    <tag k="addr:state" v="VT"/>
    <tag k="ref:vcgi:esiteid" v="11070"/>
  </node>
  <node id="-264" visible="true" lat="44.22192675" lon="-72.49016529">
    <tag k="addr:housenumber" v="380"/>
    <tag k="addr:street" v="East Montpelier Road"/>
    <tag k="addr:state" v="VT"/>
    <tag k="ref:vcgi:esiteid" v="11071"/>
  </node>
  <node id="-266" visible="true" lat="44.22180175" lon="-72.49655914">
    <tag k="addr:housenumber" v="62"/>
    <tag k="addr:street" v="Pine Hill Road"/>
    <tag k="addr:state" v="VT"/>
    <tag k="ref:vcgi:esiteid" v="11073"/>
  </node>
  <node id="-268" visible="true" lat="44.22175598" lon="-72.49452972">
    <tag k="addr:housenumber" v="40"/>
    <tag k="addr:street" v="Pine Hill Road"/>
    <tag k="addr:state" v="VT"/>
    <tag k="ref:vcgi:esiteid" v="11075"/>
  </node>
  <node id="-271" visible="true" lat="44.22166061" lon="-72.49356842">
    <tag k="addr:housenumber" v="30"/>
    <tag k="addr:street" v="Pine Hill Road"/>
    <tag k="addr:state" v="VT"/>
    <tag k="ref:vcgi:esiteid" v="11078"/>
  </node>
  <node id="-272" visible="true" lat="44.22165679" lon="-72.49507903">
    <tag k="addr:housenumber" v="46"/>
    <tag k="addr:street" v="Pine Hill Road"/>
    <tag k="addr:state" v="VT"/>
    <tag k="ref:vcgi:esiteid" v="11079"/>
  </node>
  <node id="-276" visible="true" lat="44.22165888" lon="-72.50846101">
    <tag k="addr:housenumber" v="311"/>
    <tag k="addr:street" v="Beckley Hill Road"/>
    <tag k="addr:state" v="VT"/>
    <tag k="ref:vcgi:esiteid" v="11083"/>
  </node>
  <node id="-277" visible="true" lat="44.22151184" lon="-72.49295806">
    <tag k="addr:housenumber" v="24"/>
    <tag k="addr:street" v="Pine Hill Road"/>
    <tag k="addr:state" v="VT"/>
    <tag k="ref:vcgi:esiteid" v="11084"/>
  </node>
  <node id="-278" visible="true" lat="44.22145369" lon="-72.49097586">
    <tag k="addr:housenumber" v="7"/>
    <tag k="addr:street" v="Pine Hill Road"/>
    <tag k="addr:state" v="VT"/>
    <tag k="ref:vcgi:esiteid" v="11085"/>
  </node>
  <node id="-285" visible="true" lat="44.22101608" lon="-72.4902041">
    <tag k="addr:housenumber" v="369"/>
    <tag k="addr:street" v="East Montpelier Road"/>
    <tag k="addr:state" v="VT"/>
    <tag k="ref:vcgi:esiteid" v="11092"/>
  </node>
  <node id="-295" visible="true" lat="44.22003518" lon="-72.50029488">
    <tag k="addr:housenumber" v="213"/>
    <tag k="addr:street" v="Farwell Street"/>
    <tag k="addr:state" v="VT"/>
    <tag k="ref:vcgi:esiteid" v="11102"/>
  </node>
  <node id="-339" visible="true" lat="44.21923446" lon="-72.48777008">
    <tag k="addr:housenumber" v="24"/>
    <tag k="addr:street" v="Plainfield Brook Road"/>
    <tag k="addr:state" v="VT"/>
    <tag k="ref:vcgi:esiteid" v="11147"/>
  </node>
  <node id="-431" visible="true" lat="44.2169342" lon="-72.49440765">
    <tag k="addr:housenumber" v="296"/>
    <tag k="addr:street" v="East Montpelier Road"/>
    <tag k="addr:state" v="VT"/>
    <tag k="ref:vcgi:esiteid" v="11240"/>
  </node>
  <node id="-439" visible="true" lat="44.21682852" lon="-72.49353702">
    <tag k="addr:housenumber" v="299"/>
    <tag k="addr:street" v="East Montpelier Road"/>
    <tag k="addr:state" v="VT"/>
    <tag k="ref:vcgi:esiteid" v="11248"/>
  </node>
  <node id="-442" visible="true" lat="44.21675491" lon="-72.4945755">
    <tag k="addr:housenumber" v="294"/>
    <tag k="addr:street" v="East Montpelier Road"/>
    <tag k="addr:state" v="VT"/>
    <tag k="ref:vcgi:esiteid" v="11251"/>
  </node>
  <node id="-456" visible="true" lat="44.21652603" lon="-72.49476785">
    <tag k="addr:housenumber" v="290"/>
    <tag k="addr:street" v="East Montpelier Road"/>
    <tag k="addr:state" v="VT"/>
    <tag k="ref:vcgi:esiteid" v="11265"/>
  </node>
  <node id="-474" visible="true" lat="44.21620178" lon="-72.495018">
    <tag k="addr:housenumber" v="284"/>
    <tag k="addr:street" v="East Montpelier Road"/>
    <tag k="addr:state" v="VT"/>
    <tag k="ref:vcgi:esiteid" v="11283"/>
  </node>
  <node id="-480" visible="true" lat="44.21606937" lon="-72.49446027">
    <tag k="addr:housenumber" v="283"/>
    <tag k="addr:street" v="East Montpelier Road"/>
    <tag k="addr:state" v="VT"/>
    <tag k="ref:vcgi:esiteid" v="11289"/>
  </node>
  <node id="-486" visible="true" lat="44.2158189" lon="-72.43905349">
    <tag k="addr:housenumber" v="66"/>
    <tag k="addr:street" v="Curtis Road"/>
    <tag k="addr:state" v="VT"/>
    <tag k="ref:vcgi:esiteid" v="11295"/>
  </node>
  <node id="-490" visible="true" lat="44.21594486" lon="-72.49552651">
    <tag k="addr:housenumber" v="280"/>
    <tag k="addr:street" v="East Montpelier Road"/>
    <tag k="addr:state" v="VT"/>
    <tag k="ref:vcgi:esiteid" v="11299"/>
  </node>
  <node id="-492" visible="true" lat="44.21592325" lon="-72.4952277">
    <tag k="addr:housenumber" v="282"/>
    <tag k="addr:street" v="East Montpelier Road"/>
    <tag k="addr:state" v="VT"/>
    <tag k="ref:vcgi:esiteid" v="11301"/>
  </node>
  <node id="-501" visible="true" lat="44.21554317" lon="-72.49481036">
    <tag k="addr:housenumber" v="275"/>
    <tag k="addr:street" v="East Montpelier Road"/>
    <tag k="addr:state" v="VT"/>
    <tag k="ref:vcgi:esiteid" v="11310"/>
  </node>
  <node id="-507" visible="true" lat="44.21542739" lon="-72.45806884">
    <tag k="addr:housenumber" v="180"/>
    <tag k="addr:street" v="Sunset Road"/>
    <tag k="addr:state" v="VT"/>
    <tag k="ref:vcgi:esiteid" v="11317"/>
  </node>
  <node id="-532" visible="true" lat="44.21479797" lon="-72.48663329">
    <tag k="addr:housenumber" v="230"/>
    <tag k="addr:street" v="Cassie Street"/>
    <tag k="addr:state" v="VT"/>
    <tag k="ref:vcgi:esiteid" v="11342"/>
  </node>
  <node id="-555" visible="true" lat="44.21401799" lon="-72.496782">
    <tag k="addr:housenumber" v="236"/>
    <tag k="addr:street" v="East Montpelier Road"/>
    <tag k="addr:state" v="VT"/>
    <tag k="ref:vcgi:esiteid" v="11365"/>
  </node>
  <node id="-571" visible="true" lat="44.21347427" lon="-72.45839691">
    <tag k="addr:housenumber" v="178"/>
    <tag k="addr:street" v="Sunset Road"/>
    <tag k="addr:state" v="VT"/>
    <tag k="ref:vcgi:esiteid" v="11381"/>
  </node>
  <node id="-586" visible="true" lat="44.21317712" lon="-72.49092215">
    <tag k="addr:housenumber" v="45"/>
    <tag k="addr:street" v="Grand View Farm Road"/>
    <tag k="addr:state" v="VT"/>
    <tag k="ref:vcgi:esiteid" v="11396"/>
  </node>
  <node id="-618" visible="true" lat="44.20774613" lon="-72.46935193">
    <tag k="addr:housenumber" v="269"/>
    <tag k="addr:street" v="Windy Wood Road"/>
    <tag k="addr:state" v="VT"/>
    <tag k="ref:vcgi:esiteid" v="11430"/>
  </node>
  <node id="-633" visible="true" lat="44.20650482" lon="-72.48105621">
    <tag k="addr:housenumber" v="355"/>
    <tag k="addr:street" v="Camp Street"/>
    <tag k="addr:state" v="VT"/>
    <tag k="ref:vcgi:esiteid" v="11445"/>
  </node>
  <node id="-646" visible="true" lat="44.20608902" lon="-72.4731903">
    <tag k="addr:housenumber" v="216"/>
    <tag k="addr:street" v="Windy Wood Road"/>
    <tag k="addr:state" v="VT"/>
    <tag k="ref:vcgi:esiteid" v="11458"/>
  </node>
  <node id="-664" visible="true" lat="44.20555094" lon="-72.49172312">
    <tag k="addr:housenumber" v="98"/>
    <tag k="addr:street" v="Aljen Acres Drive"/>
    <tag k="addr:state" v="VT"/>
    <tag k="ref:vcgi:esiteid" v="11478"/>
  </node>
  <node id="-689" visible="true" lat="44.20500505" lon="-72.49257982">
    <tag k="addr:housenumber" v="28"/>
    <tag k="addr:street" v="Hillcrest Lane"/>
    <tag k="addr:state" v="VT"/>
    <tag k="ref:vcgi:esiteid" v="11503"/>
  </node>
  <node id="-721" visible="true" lat="44.20407914" lon="-72.48091736">
    <tag k="addr:housenumber" v="43"/>
    <tag k="addr:street" v="Lisa Drive"/>
    <tag k="addr:state" v="VT"/>
    <tag k="ref:vcgi:esiteid" v="11536"/>
  </node>
  <node id="-738" visible="true" lat="44.20362472" lon="-72.47561645">
    <tag k="addr:housenumber" v="180"/>
    <tag k="addr:street" v="Windy Wood Road"/>
    <tag k="addr:state" v="VT"/>
    <tag k="ref:vcgi:esiteid" v="11553"/>
  </node>
  <node id="-934" visible="true" lat="44.19422531" lon="-72.45126342">
    <tag k="addr:housenumber" v="102"/>
    <tag k="addr:street" v="Brule Road"/>
    <tag k="addr:state" v="VT"/>
    <tag k="ref:vcgi:esiteid" v="11752"/>
  </node>
  <node id="-980" visible="true" lat="44.19320297" lon="-72.45250701">
    <tag k="addr:housenumber" v="82"/>
    <tag k="addr:street" v="Brule Road"/>
    <tag k="addr:state" v="VT"/>
    <tag k="ref:vcgi:esiteid" v="11801"/>
  </node>
  <node id="-995" visible="true" lat="44.19306564" lon="-72.4789505">
    <tag k="addr:housenumber" v="5"/>
    <tag k="addr:street" v="Willow Drive"/>
    <tag k="addr:state" v="VT"/>
    <tag k="ref:vcgi:esiteid" v="11816"/>
  </node>
  <node id="-1013" visible="true" lat="44.19248953" lon="-72.48553804">
    <tag k="addr:housenumber" v="218"/>
    <tag k="addr:street" v="Hill Street"/>
    <tag k="addr:state" v="VT"/>
    <tag k="ref:vcgi:esiteid" v="11834"/>
  </node>
  <node id="-1014" visible="true" lat="44.19241714" lon="-72.45291137">
    <tag k="addr:housenumber" v="62"/>
    <tag k="addr:street" v="Brule Road"/>
    <tag k="addr:state" v="VT"/>
    <tag k="ref:vcgi:esiteid" v="11835"/>
  </node>
  <node id="-1039" visible="true" lat="44.19201899" lon="-72.48574106">
    <tag k="addr:housenumber" v="219"/>
    <tag k="addr:street" v="Hill Street"/>
    <tag k="addr:state" v="VT"/>
    <tag k="ref:vcgi:esiteid" v="11861"/>
  </node>
  <node id="-1061" visible="true" lat="44.19168472" lon="-72.45480346">
    <tag k="addr:housenumber" v="35"/>
    <tag k="addr:street" v="Phelps Road"/>
    <tag k="addr:state" v="VT"/>
    <tag k="ref:vcgi:esiteid" v="11884"/>
  </node>
  <node id="-1076" visible="true" lat="44.19118808" lon="-72.48504519">
    <tag k="addr:housenumber" v="7"/>
    <tag k="addr:street" v="Wark Street"/>
    <tag k="addr:state" v="VT"/>
    <tag k="ref:vcgi:esiteid" v="11899"/>
  </node>
  <node id="-1176" visible="true" lat="44.18878173" lon="-72.45529174">
    <tag k="addr:housenumber" v="536"/>
    <tag k="addr:street" v="Anderson Road"/>
    <tag k="addr:state" v="VT"/>
    <tag k="ref:vcgi:esiteid" v="12003"/>
  </node>
  <node id="-1177" visible="true" lat="44.18874545" lon="-72.43519825">
    <tag k="addr:housenumber" v="49"/>
    <tag k="addr:street" v="Maplecrest Road"/>
    <tag k="addr:state" v="VT"/>
    <tag k="ref:vcgi:esiteid" v="12004"/>
  </node>
  <node id="-1188" visible="true" lat="44.18862307" lon="-72.45551618">
    <tag k="addr:housenumber" v="546"/>
    <tag k="addr:street" v="Anderson Road"/>
    <tag k="addr:state" v="VT"/>
    <tag k="ref:vcgi:esiteid" v="12015"/>
  </node>
  <node id="-1215" visible="true" lat="44.18739271" lon="-72.47814911">
    <tag k="addr:housenumber" v="71"/>
    <tag k="addr:street" v="West Cobble Hill Road"/>
    <tag k="addr:state" v="VT"/>
    <tag k="ref:vcgi:esiteid" v="12043"/>
  </node>
  <node id="-1220" visible="true" lat="44.18729219" lon="-72.48117256">
    <tag k="addr:housenumber" v="1"/>
    <tag k="addr:street" v="Windridge Drive"/>
    <tag k="addr:state" v="VT"/>
    <tag k="ref:vcgi:esiteid" v="12049"/>
  </node>
  <node id="-1236" visible="true" lat="44.18668365" lon="-72.43984985">
    <tag k="addr:housenumber" v="20"/>
    <tag k="addr:street" v="Maplecrest Road"/>
    <tag k="addr:state" v="VT"/>
    <tag k="ref:vcgi:esiteid" v="12065"/>
  </node>
  <node id="-1254" visible="true" lat="44.18635177" lon="-72.52008056">
    <tag k="addr:housenumber" v="229"/>
    <tag k="addr:street" v="Morrison Road"/>
    <tag k="addr:state" v="VT"/>
    <tag k="ref:vcgi:esiteid" v="12083"/>
  </node>
  <node id="-1277" visible="true" lat="44.18590744" lon="-72.47116633">
    <tag k="addr:housenumber" v="11"/>
    <tag k="addr:street" v="Cobble Hill Meadows Road"/>
    <tag k="addr:state" v="VT"/>
    <tag k="ref:vcgi:esiteid" v="12107"/>
  </node>
  <node id="-1312" visible="true" lat="44.18493257" lon="-72.4461567">
    <tag k="addr:housenumber" v="57"/>
    <tag k="addr:street" v="Lyman Road"/>
    <tag k="addr:state" v="VT"/>
    <tag k="ref:vcgi:esiteid" v="12145"/>
  </node>
  <node id="-1341" visible="true" lat="44.18388641" lon="-72.44493473">
    <tag k="addr:housenumber" v="69"/>
    <tag k="addr:street" v="Lyman Road"/>
    <tag k="addr:state" v="VT"/>
    <tag k="ref:vcgi:esiteid" v="12175"/>
  </node>
  <node id="-1344" visible="true" lat="44.18355516" lon="-72.45129781">
    <tag k="addr:housenumber" v="38"/>
    <tag k="addr:street" v="Taplin Road"/>
    <tag k="addr:state" v="VT"/>
    <tag k="ref:vcgi:esiteid" v="12178"/>
  </node>
  <node id="-1355" visible="true" lat="44.18294525" lon="-72.44187164">
    <tag k="addr:housenumber" v="99"/>
    <tag k="addr:street" v="Lyman Road"/>
    <tag k="addr:state" v="VT"/>
    <tag k="ref:vcgi:esiteid" v="12190"/>
  </node>
  <node id="-1356" visible="true" lat="44.18274598" lon="-72.44590471">
    <tag k="addr:housenumber" v="74"/>
    <tag k="addr:street" v="Lyman Road"/>
    <tag k="addr:state" v="VT"/>
    <tag k="ref:vcgi:esiteid" v="12191"/>
  </node>
  <node id="-1378" visible="true" lat="44.18135668" lon="-72.44409317">
    <tag k="addr:housenumber" v="106"/>
    <tag k="addr:street" v="Lyman Road"/>
    <tag k="addr:state" v="VT"/>
    <tag k="ref:vcgi:esiteid" v="12216"/>
  </node>
  <node id="-1388" visible="true" lat="44.18075942" lon="-72.44067382">
    <tag k="addr:housenumber" v="29"/>
    <tag k="addr:street" v="Stagecoach Road"/>
    <tag k="addr:state" v="VT"/>
    <tag k="ref:vcgi:esiteid" v="12227"/>
  </node>
  <node id="-1397" visible="true" lat="44.18042755" lon="-72.5274887">
    <tag k="addr:housenumber" v="140"/>
    <tag k="addr:street" v="Lower Usle Road"/>
    <tag k="addr:state" v="VT"/>
    <tag k="ref:vcgi:esiteid" v="12236"/>
  </node>
  <node id="-1449" visible="true" lat="44.17827273" lon="-72.48836787">
    <tag k="addr:housenumber" v="11"/>
    <tag k="addr:street" v="Patch Road"/>
    <tag k="addr:state" v="VT"/>
    <tag k="ref:vcgi:esiteid" v="12295"/>
  </node>
  <node id="-1554" visible="true" lat="44.17531189" lon="-72.53556986">
    <tag k="addr:housenumber" v="166"/>
    <tag k="addr:street" v="Miller Road"/>
    <tag k="addr:state" v="VT"/>
    <tag k="ref:vcgi:esiteid" v="12408"/>
  </node>
  <node id="-1564" visible="true" lat="44.17488194" lon="-72.50183906">
    <tag k="addr:housenumber" v="43"/>
    <tag k="addr:street" v="Sterling Hill Road"/>
    <tag k="addr:state" v="VT"/>
    <tag k="ref:vcgi:esiteid" v="12419"/>
  </node>
  <node id="-1613" visible="true" lat="44.17337365" lon="-72.45798348">
    <tag k="addr:housenumber" v="192"/>
    <tag k="addr:street" v="East Cobble Hill Road"/>
    <tag k="addr:state" v="VT"/>
    <tag k="ref:vcgi:esiteid" v="12469"/>
  </node>
  <node id="-1628" visible="true" lat="44.17308886" lon="-72.52446145">
    <tag k="addr:housenumber" v="100"/>
    <tag k="addr:street" v="Cheney Road"/>
    <tag k="addr:state" v="VT"/>
    <tag k="ref:vcgi:esiteid" v="12489"/>
  </node>
  <node id="-1637" visible="true" lat="44.17279052" lon="-72.45590209">
    <tag k="addr:housenumber" v="225"/>
    <tag k="addr:street" v="East Cobble Hill Road"/>
    <tag k="addr:state" v="VT"/>
    <tag k="ref:vcgi:esiteid" v="12498"/>
  </node>
  <node id="-1652" visible="true" lat="44.17264136" lon="-72.51186216">
    <tag k="addr:housenumber" v="50"/>
    <tag k="addr:street" v="Snowbridge Road"/>
    <tag k="addr:state" v="VT"/>
    <tag k="ref:vcgi:esiteid" v="12516"/>
  </node>
  <node id="-1653" visible="true" lat="44.17257671" lon="-72.50587029">
    <tag k="addr:housenumber" v="8"/>
    <tag k="addr:street" v="Wilmuth Street"/>
    <tag k="addr:state" v="VT"/>
    <tag k="ref:vcgi:esiteid" v="12517"/>
  </node>
  <node id="-1654" visible="true" lat="44.17263125" lon="-72.51274598">
    <tag k="addr:housenumber" v="52"/>
    <tag k="addr:street" v="Snowbridge Road"/>
    <tag k="addr:state" v="VT"/>
    <tag k="ref:vcgi:esiteid" v="12518"/>
  </node>
  <node id="-1659" visible="true" lat="44.1723807" lon="-72.51370629">
    <tag k="addr:housenumber" v="56"/>
    <tag k="addr:street" v="Snowbridge Road"/>
    <tag k="addr:state" v="VT"/>
    <tag k="ref:vcgi:esiteid" v="12524"/>
  </node>
  <node id="-1660" visible="true" lat="44.17239379" lon="-72.51538085">
    <tag k="addr:housenumber" v="70"/>
    <tag k="addr:street" v="Snowbridge Road"/>
    <tag k="addr:state" v="VT"/>
    <tag k="ref:vcgi:esiteid" v="12525"/>
  </node>
  <node id="-1674" visible="true" lat="44.17218528" lon="-72.52557983">
    <tag k="addr:housenumber" v="86"/>
    <tag k="addr:street" v="Cheney Road"/>
    <tag k="addr:state" v="VT"/>
    <tag k="ref:vcgi:esiteid" v="12542"/>
  </node>
  <node id="-1679" visible="true" lat="44.17195855" lon="-72.4567606">
    <tag k="addr:housenumber" v="230"/>
    <tag k="addr:street" v="East Cobble Hill Road"/>
    <tag k="addr:state" v="VT"/>
    <tag k="ref:vcgi:esiteid" v="12547"/>
  </node>
  <node id="-1680" visible="true" lat="44.17206121" lon="-72.52245101">
    <tag k="addr:housenumber" v="120"/>
    <tag k="addr:street" v="Cheney Road"/>
    <tag k="addr:state" v="VT"/>
    <tag k="ref:vcgi:esiteid" v="12549"/>
  </node>
  <node id="-1690" visible="true" lat="44.17188659" lon="-72.53852727">
    <tag k="addr:housenumber" v="220"/>
    <tag k="addr:street" v="Miller Road"/>
    <tag k="addr:state" v="VT"/>
    <tag k="ref:vcgi:esiteid" v="12560"/>
  </node>
  <node id="-1696" visible="true" lat="44.17182987" lon="-72.51253703">
    <tag k="addr:housenumber" v="44"/>
    <tag k="addr:street" v="Snowbridge Road"/>
    <tag k="addr:state" v="VT"/>
    <tag k="ref:vcgi:esiteid" v="12566"/>
  </node>
  <node id="-1699" visible="true" lat="44.17183993" lon="-72.51218212">
    <tag k="addr:housenumber" v="42"/>
    <tag k="addr:street" v="Snowbridge Road"/>
    <tag k="addr:state" v="VT"/>
    <tag k="ref:vcgi:esiteid" v="12569"/>
  </node>
  <node id="-1700" visible="true" lat="44.17156851" lon="-72.52312517">
    <tag k="addr:housenumber" v="107"/>
    <tag k="addr:street" v="Cheney Road"/>
    <tag k="addr:state" v="VT"/>
    <tag k="ref:vcgi:esiteid" v="12570"/>
  </node>
  <node id="-1711" visible="true" lat="44.17150424" lon="-72.51315632">
    <tag k="addr:housenumber" v="39"/>
    <tag k="addr:street" v="Snowbridge Road"/>
    <tag k="addr:state" v="VT"/>
    <tag k="ref:vcgi:esiteid" v="12581"/>
  </node>
  <node id="-1731" visible="true" lat="44.17108906" lon="-72.53901614">
    <tag k="addr:housenumber" v="240"/>
    <tag k="addr:street" v="Miller Road"/>
    <tag k="addr:state" v="VT"/>
    <tag k="ref:vcgi:esiteid" v="12604"/>
  </node>
  <node id="-1954" visible="true" lat="44.16609554" lon="-72.47281842">
    <tag k="addr:housenumber" v="22"/>
    <tag k="addr:street" v="Buick Street"/>
    <tag k="addr:state" v="VT"/>
    <tag k="ref:vcgi:esiteid" v="12845"/>
  </node>
  <node id="-1955" visible="true" lat="44.16601739" lon="-72.47314839">
    <tag k="addr:housenumber" v="20"/>
    <tag k="addr:street" v="Buick Street"/>
    <tag k="addr:state" v="VT"/>
    <tag k="ref:vcgi:esiteid" v="12846"/>
  </node>
  <node id="-2024" visible="true" lat="44.16282272" lon="-72.47058105">
    <tag k="addr:housenumber" v="260"/>
    <tag k="addr:street" v="Websterville Road"/>
    <tag k="addr:state" v="VT"/>
    <tag k="ref:vcgi:esiteid" v="12919"/>
  </node>
  <node id="-2149" visible="true" lat="44.1605606" lon="-72.53968811">
    <tag k="addr:housenumber" v="74"/>
    <tag k="addr:street" v="West Road"/>
    <tag k="addr:state" v="VT"/>
    <tag k="ref:vcgi:esiteid" v="13054"/>
  </node>
  <node id="-2214" visible="true" lat="44.15966658" lon="-72.53882551">
    <tag k="addr:housenumber" v="80"/>
    <tag k="addr:street" v="West Road"/>
    <tag k="addr:state" v="VT"/>
    <tag k="ref:vcgi:esiteid" v="13126"/>
  </node>
  <node id="-2299" visible="true" lat="44.15880697" lon="-72.53886192">
    <tag k="addr:housenumber" v="92"/>
    <tag k="addr:street" v="West Road"/>
    <tag k="addr:state" v="VT"/>
    <tag k="ref:vcgi:esiteid" v="13221"/>
  </node>
  <node id="-2318" visible="true" lat="44.15831958" lon="-72.45233723">
    <tag k="addr:housenumber" v="155"/>
    <tag k="addr:street" v="Mill Street"/>
    <tag k="addr:state" v="VT"/>
    <tag k="ref:vcgi:esiteid" v="13241"/>
  </node>
  <node id="-2368" visible="true" lat="44.15766525" lon="-72.44808959">
    <tag k="addr:housenumber" v="11"/>
    <tag k="addr:street" v="Pleasant Street"/>
    <tag k="addr:state" v="VT"/>
    <tag k="ref:vcgi:esiteid" v="13294"/>
  </node>
  <node id="-2387" visible="true" lat="44.15666083" lon="-72.4423236">
    <tag k="addr:housenumber" v="1083"/>
    <tag k="addr:street" v="East Barre Road"/>
    <tag k="addr:state" v="VT"/>
    <tag k="ref:vcgi:esiteid" v="13314"/>
  </node>
  <node id="-2394" visible="true" lat="44.15739354" lon="-72.44781941">
    <tag k="addr:housenumber" v="12"/>
    <tag k="addr:street" v="Prospect Street"/>
    <tag k="addr:state" v="VT"/>
    <tag k="ref:vcgi:esiteid" v="13322"/>
  </node>
  <node id="-2491" visible="true" lat="44.1551346" lon="-72.47350198">
    <tag k="addr:housenumber" v="130"/>
    <tag k="addr:street" v="Church Hill Road"/>
    <tag k="addr:state" v="VT"/>
    <tag k="ref:vcgi:esiteid" v="13427"/>
  </node>
  <node id="-2612" visible="true" lat="44.15209942" lon="-72.48624742">
    <tag k="addr:housenumber" v="32"/>
    <tag k="addr:street" v="McLeod Hill Road"/>
    <tag k="addr:state" v="VT"/>
    <tag k="ref:vcgi:esiteid" v="13562"/>
  </node>
  <node id="-2873" visible="true" lat="44.17296736" lon="-72.53797494">
    <tag k="addr:housenumber" v="208"/>
    <tag k="addr:street" v="Miller Road"/>
    <tag k="addr:state" v="VT"/>
    <tag k="ref:vcgi:esiteid" v="13842"/>
  </node>
  <node id="-2899" visible="true" lat="44.15618815" lon="-72.44656406">
    <tag k="addr:housenumber" v="22"/>
    <tag k="addr:street" v="Central Street"/>
    <tag k="addr:state" v="VT"/>
    <tag k="ref:vcgi:esiteid" v="13868"/>
  </node>
  <node id="-2910" visible="true" lat="44.20656754" lon="-72.45689264">
    <tag k="addr:housenumber" v="252"/>
    <tag k="addr:street" v="Phelps Road"/>
    <tag k="addr:state" v="VT"/>
    <tag k="ref:vcgi:esiteid" v="13879"/>
  </node>
  <node id="-2943" visible="true" lat="44.20482" lon="-72.47594902">
    <tag k="addr:housenumber" v="9"/>
    <tag k="addr:street" v="Countryside Drive"/>
    <tag k="addr:state" v="VT"/>
    <tag k="ref:vcgi:esiteid" v="13914"/>
  </node>
  <node id="-2951" visible="true" lat="44.17925877" lon="-72.53111802">
    <tag k="addr:housenumber" v="183"/>
    <tag k="addr:street" v="Lower Usle Road"/>
    <tag k="addr:state" v="VT"/>
    <tag k="ref:vcgi:esiteid" v="13922"/>
  </node>
  <node id="-3036" visible="true" lat="44.14313663" lon="-72.45590241">
    <tag k="addr:housenumber" v="294"/>
    <tag k="addr:street" v="Lowery Road"/>
    <tag k="addr:state" v="VT"/>
    <tag k="ref:vcgi:esiteid" v="14010"/>
  </node>
  <node id="-3041" visible="true" lat="44.16623265" lon="-72.54021628">
    <tag k="addr:housenumber" v="310"/>
    <tag k="addr:street" v="Miller Road"/>
    <tag k="addr:state" v="VT"/>
    <tag k="ref:vcgi:esiteid" v="14015"/>
  </node>
  <node id="-3128" visible="true" lat="44.20443628" lon="-72.47418272">
    <tag k="addr:housenumber" v="193"/>
    <tag k="addr:street" v="Windy Wood Road"/>
    <tag k="addr:state" v="VT"/>
    <tag k="ref:vcgi:esiteid" v="14106"/>
  </node>
  <node id="-3182" visible="true" lat="44.17411303" lon="-72.46027179">
    <tag k="addr:housenumber" v="182"/>
    <tag k="addr:street" v="East Cobble Hill Road"/>
    <tag k="addr:state" v="VT"/>
    <tag k="ref:vcgi:esiteid" v="14162"/>
  </node>
  <node id="-3209" visible="true" lat="44.17072752" lon="-72.45689992">
    <tag k="addr:housenumber" v="248"/>
    <tag k="addr:street" v="East Cobble Hill Road"/>
    <tag k="addr:state" v="VT"/>
    <tag k="ref:vcgi:esiteid" v="14189"/>
  </node>
  <node id="-3210" visible="true" lat="44.1714732" lon="-72.457458">
    <tag k="addr:housenumber" v="246"/>
    <tag k="addr:street" v="East Cobble Hill Road"/>
    <tag k="addr:state" v="VT"/>
    <tag k="ref:vcgi:esiteid" v="14190"/>
  </node>
  <node id="-3220" visible="true" lat="44.1544897" lon="-72.44501375">
    <tag k="addr:housenumber" v="109"/>
    <tag k="addr:street" v="Washington Road"/>
    <tag k="addr:state" v="VT"/>
    <tag k="ref:vcgi:esiteid" v="14201"/>
  </node>
  <node id="-3224" visible="true" lat="44.22711045" lon="-72.50681098">
    <tag k="addr:housenumber" v="20"/>
    <tag k="addr:street" v="Mollys Trail"/>
    <tag k="addr:state" v="VT"/>
    <tag k="ref:vcgi:esiteid" v="14205"/>
  </node>
  <node id="-3280" visible="true" lat="44.1724421" lon="-72.52344971">
    <tag k="addr:housenumber" v="104"/>
    <tag k="addr:street" v="Cheney Road"/>
    <tag k="addr:state" v="VT"/>
    <tag k="ref:vcgi:esiteid" v="328880"/>
  </node>
  <node id="-3281" visible="true" lat="44.17276883" lon="-72.52068865">
    <tag k="addr:housenumber" v="106"/>
    <tag k="addr:street" v="Cheney Road"/>
    <tag k="addr:state" v="VT"/>
    <tag k="ref:vcgi:esiteid" v="328881"/>
  </node>
  <node id="-3282" visible="true" lat="44.17226006" lon="-72.52182211">
    <tag k="addr:housenumber" v="108"/>
    <tag k="addr:street" v="Cheney Road"/>
    <tag k="addr:state" v="VT"/>
    <tag k="ref:vcgi:esiteid" v="328882"/>
  </node>
  <node id="-3308" visible="true" lat="44.19344898" lon="-72.44840854">
    <tag k="addr:housenumber" v="77"/>
    <tag k="addr:street" v="Jalbert Road"/>
    <tag k="addr:state" v="VT"/>
    <tag k="ref:vcgi:esiteid" v="328914"/>
  </node>
  <node id="-3329" visible="true" lat="44.22273484" lon="-72.48950934">
    <tag k="addr:housenumber" v="397"/>
    <tag k="addr:street" v="East Montpelier Road"/>
    <tag k="addr:state" v="VT"/>
    <tag k="ref:vcgi:esiteid" v="329593"/>
  </node>
  <node id="-3334" visible="true" lat="44.18562396" lon="-72.47153468">
    <tag k="addr:housenumber" v="6"/>
    <tag k="addr:street" v="Cobble Hill Meadows Road"/>
    <tag k="addr:state" v="VT"/>
    <tag k="ref:vcgi:esiteid" v="329672"/>
  </node>
  <node id="-3339" visible="true" lat="44.16739944" lon="-72.45278092">
    <tag k="addr:housenumber" v="302"/>
    <tag k="addr:street" v="East Cobble Hill Road"/>
    <tag k="addr:state" v="VT"/>
    <tag k="ref:vcgi:esiteid" v="329679"/>
  </node>
  <node id="-3359" visible="true" lat="44.1622376" lon="-72.49191519">
    <tag k="addr:housenumber" v="453"/>
    <tag k="addr:street" v="Graniteville Road"/>
    <tag k="addr:state" v="VT"/>
    <tag k="ref:vcgi:esiteid" v="337033"/>
  </node>
  <node id="-3365" visible="true" lat="44.19011474" lon="-72.46530921">
    <tag k="addr:housenumber" v="443"/>
    <tag k="addr:street" v="Sierra Lavin Road"/>
    <tag k="addr:state" v="VT"/>
    <tag k="ref:vcgi:esiteid" v="338794"/>
  </node>
  <node id="-3394" visible="true" lat="44.18137845" lon="-72.52866296">
    <tag k="addr:housenumber" v="56"/>
    <tag k="addr:street" v="Upper Usle Road"/>
    <tag k="addr:state" v="VT"/>
    <tag k="ref:vcgi:esiteid" v="345055"/>
  </node>
  <node id="-3398" visible="true" lat="44.18032515" lon="-72.52483237">
    <tag k="addr:housenumber" v="22"/>
    <tag k="addr:street" v="Upper Usle Road"/>
    <tag k="addr:state" v="VT"/>
    <tag k="ref:vcgi:esiteid" v="345062"/>
  </node>
  <node id="-3401" visible="true" lat="44.1796209" lon="-72.45148849">
    <tag k="addr:housenumber" v="90"/>
    <tag k="addr:street" v="Taplin Road"/>
    <tag k="addr:state" v="VT"/>
    <tag k="ref:vcgi:esiteid" v="345145"/>
  </node>
  <node id="-3404" visible="true" lat="44.18232645" lon="-72.4701623">
    <tag k="addr:housenumber" v="6"/>
    <tag k="addr:street" v="Tanglewood Drive"/>
    <tag k="addr:state" v="VT"/>
    <tag k="ref:vcgi:esiteid" v="365281"/>
  </node>
  <node id="-3406" visible="true" lat="44.23045224" lon="-72.52165367">
    <tag k="addr:housenumber" v="9"/>
    <tag k="addr:street" v="Richards Farm Lane"/>
    <tag k="addr:state" v="VT"/>
    <tag k="ref:vcgi:esiteid" v="365283"/>
  </node>
  <node id="-3407" visible="true" lat="44.12979611" lon="-72.44557414">
    <tag k="addr:housenumber" v="540"/>
    <tag k="addr:street" v="Lowery Road"/>
    <tag k="addr:state" v="VT"/>
    <tag k="ref:vcgi:esiteid" v="365284"/>
  </node>
  <node id="-3408" visible="true" lat="44.17663879" lon="-72.4950061">
    <tag k="addr:housenumber" v="3"/>
    <tag k="addr:street" v="Barre View Street"/>
    <tag k="addr:state" v="VT"/>
    <tag k="ref:vcgi:esiteid" v="365285"/>
  </node>
  <node id="-3409" visible="true" lat="44.22632152" lon="-72.52107966">
    <tag k="addr:housenumber" v="256"/>
    <tag k="addr:street" v="Richardson Road"/>
    <tag k="addr:state" v="VT"/>
    <tag k="ref:vcgi:esiteid" v="365537"/>
  </node>
  <node id="-3421" visible="true" lat="44.22270888" lon="-72.50037231">
    <tag k="addr:housenumber" v="246"/>
    <tag k="addr:street" v="Farwell Street"/>
    <tag k="addr:state" v="VT"/>
    <tag k="ref:vcgi:esiteid" v="450600"/>
  </node>
  <node id="-3427" visible="true" lat="44.23598434" lon="-72.52191457">
    <tag k="addr:housenumber" v="97"/>
    <tag k="addr:street" v="Barre Gun Club Road"/>
    <tag k="addr:state" v="VT"/>
    <tag k="ref:vcgi:esiteid" v="450606"/>
  </node>
  <node id="-3430" visible="true" lat="44.21405792" lon="-72.46649125">
    <tag k="addr:housenumber" v="364"/>
    <tag k="addr:street" v="Windy Wood Road"/>
    <tag k="addr:state" v="VT"/>
    <tag k="ref:vcgi:esiteid" v="450609"/>
  </node>
  <node id="-3449" visible="true" lat="44.2029073" lon="-72.47633707">
    <tag k="addr:housenumber" v="6"/>
    <tag k="addr:street" v="Smith Farm Road"/>
    <tag k="addr:state" v="VT"/>
    <tag k="ref:vcgi:esiteid" v="452218"/>
  </node>
  <node id="-3452" visible="true" lat="44.17924012" lon="-72.52522924">
    <tag k="addr:housenumber" v="117"/>
    <tag k="addr:street" v="Lower Usle Road"/>
    <tag k="addr:state" v="VT"/>
    <tag k="ref:vcgi:esiteid" v="452365"/>
  </node>
  <node id="-3496" visible="true" lat="44.17138981" lon="-72.45494121">
    <tag k="addr:housenumber" v="245"/>
    <tag k="addr:street" v="East Cobble Hill Road"/>
    <tag k="addr:state" v="VT"/>
    <tag k="ref:vcgi:esiteid" v="617574"/>
  </node>
  <node id="-3502" visible="true" lat="44.18543836" lon="-72.47174088">
    <tag k="addr:housenumber" v="4"/>
    <tag k="addr:street" v="Cobble Hill Meadows Road"/>
    <tag k="addr:state" v="VT"/>
    <tag k="ref:vcgi:esiteid" v="617580"/>
  </node>
  <node id="-3510" visible="true" lat="44.18666573" lon="-72.47341361">
    <tag k="addr:housenumber" v="131"/>
    <tag k="addr:street" v="West Cobble Hill Road"/>
    <tag k="addr:state" v="VT"/>
    <tag k="ref:vcgi:esiteid" v="620914"/>
  </node>
  <node id="-3511" visible="true" lat="44.21747779" lon="-72.48230934">
    <tag k="addr:housenumber" v="283"/>
    <tag k="addr:street" v="Cassie Street"/>
    <tag k="addr:state" v="VT"/>
    <tag k="ref:vcgi:esiteid" v="655233"/>
  </node>
  <node id="-3512" visible="true" lat="44.20252825" lon="-72.42478569">
    <tag k="addr:housenumber" v="591"/>
    <tag k="addr:street" v="Cutler Corner Road"/>
    <tag k="addr:state" v="VT"/>
    <tag k="ref:vcgi:esiteid" v="655247"/>
  </node>
  <node id="-3513" visible="true" lat="44.14317077" lon="-72.46634611">
    <tag k="addr:housenumber" v="268"/>
    <tag k="addr:street" v="Donahue Road"/>
    <tag k="addr:state" v="VT"/>
    <tag k="ref:vcgi:esiteid" v="655285"/>
  </node>
  <node id="-3514" visible="true" lat="44.1529506" lon="-72.49563776">
    <tag k="addr:housenumber" v="34"/>
    <tag k="addr:street" v="Orchard Terrace"/>
    <tag k="addr:state" v="VT"/>
    <tag k="ref:vcgi:esiteid" v="655317"/>
  </node>
  <node id="-3515" visible="true" lat="44.19462666" lon="-72.48073025">
    <tag k="addr:housenumber" v="24"/>
    <tag k="addr:street" v="Skylark Terrace"/>
    <tag k="addr:state" v="VT"/>
    <tag k="ref:vcgi:esiteid" v="655326"/>
  </node>
  <node id="-3516" visible="true" lat="44.21444115" lon="-72.51170429">
    <tag k="addr:housenumber" v="85"/>
    <tag k="addr:street" v="Ivan Drive"/>
    <tag k="addr:state" v="VT"/>
    <tag k="ref:vcgi:esiteid" v="655351"/>
  </node>
  <node id="-3517" visible="true" lat="44.20462984" lon="-72.47515199">
    <tag k="addr:housenumber" v="3"/>
    <tag k="addr:street" v="Countryside Drive"/>
    <tag k="addr:state" v="VT"/>
    <tag k="ref:vcgi:esiteid" v="655436"/>
  </node>
  <node id="-3518" visible="true" lat="44.20399272" lon="-72.47602761">
    <tag k="addr:housenumber" v="6"/>
    <tag k="addr:street" v="Countryside Drive"/>
    <tag k="addr:state" v="VT"/>
    <tag k="ref:vcgi:esiteid" v="655437"/>
  </node>
  <node id="-3519" visible="true" lat="44.21534464" lon="-72.51173166">
    <tag k="addr:housenumber" v="83"/>
    <tag k="addr:street" v="Ivan Drive"/>
    <tag k="addr:state" v="VT"/>
    <tag k="ref:vcgi:esiteid" v="655444"/>
  </node>
  <node id="-3520" visible="true" lat="44.22587723" lon="-72.49707703">
    <tag k="addr:housenumber" v="295"/>
    <tag k="addr:street" v="Farwell Street"/>
    <tag k="addr:state" v="VT"/>
    <tag k="ref:vcgi:esiteid" v="655849"/>
  </node>
  <node id="-3521" visible="true" lat="44.22462708" lon="-72.51767479">
    <tag k="addr:housenumber" v="245"/>
    <tag k="addr:street" v="Richardson Road"/>
    <tag k="addr:state" v="VT"/>
    <tag k="ref:vcgi:esiteid" v="656034"/>
  </node>
  <node id="-3522" visible="true" lat="44.21777121" lon="-72.48383309">
    <tag k="addr:housenumber" v="279"/>
    <tag k="addr:street" v="Cassie Street"/>
    <tag k="addr:state" v="VT"/>
    <tag k="ref:vcgi:esiteid" v="656148"/>
  </node>
  <node id="-3523" visible="true" lat="44.16916627" lon="-72.52301881">
    <tag k="addr:housenumber" v="164"/>
    <tag k="addr:street" v="Snowbridge Road"/>
    <tag k="addr:state" v="VT"/>
    <tag k="ref:vcgi:esiteid" v="656258"/>
  </node>
  <node id="-3524" visible="true" lat="44.1642868" lon="-72.46954123">
    <tag k="addr:housenumber" v="259"/>
    <tag k="addr:street" v="Websterville Road"/>
    <tag k="addr:state" v="VT"/>
    <tag k="ref:vcgi:esiteid" v="656259"/>
  </node>
  <node id="-3525" visible="true" lat="44.1644568" lon="-72.48954202">
    <tag k="addr:housenumber" v="54"/>
    <tag k="addr:street" v="Graniteville Road"/>
    <tag k="addr:state" v="VT"/>
    <tag k="ref:vcgi:esiteid" v="656361"/>
  </node>
  <node id="-3532" visible="true" lat="44.22369188" lon="-72.46155371">
    <tag k="addr:housenumber" v="518"/>
    <tag k="addr:street" v="Cummings Road"/>
    <tag k="addr:state" v="VT"/>
    <tag k="ref:vcgi:esiteid" v="750978"/>
  </node>
  <node id="-3536" visible="true" lat="44.21998383" lon="-72.49515349">
    <tag k="addr:housenumber" v="217"/>
    <tag k="addr:street" v="Farwell Street"/>
    <tag k="addr:state" v="VT"/>
    <tag k="ref:vcgi:esiteid" v="751750"/>
  </node>
  <node id="-3540" visible="true" lat="44.16166329" lon="-72.53469771">
    <tag k="addr:housenumber" v="43"/>
    <tag k="addr:street" v="West Road"/>
    <tag k="addr:state" v="VT"/>
    <tag k="ref:vcgi:esiteid" v="752715"/>
  </node>
  <node id="-3549" visible="true" lat="44.20151849" lon="-72.47886822">
    <tag k="addr:housenumber" v="15"/>
    <tag k="addr:street" v="Chestnut Lane"/>
    <tag k="addr:state" v="VT"/>
    <tag k="ref:vcgi:esiteid" v="755646"/>
  </node>
  <node id="-3556" visible="true" lat="44.22125108" lon="-72.51228484">
    <tag k="addr:housenumber" v="12"/>
    <tag k="addr:street" v="Alnita Lane"/>
    <tag k="addr:state" v="VT"/>
    <tag k="ref:vcgi:esiteid" v="756236"/>
  </node>
  <node id="-3557" visible="true" lat="44.19342878" lon="-72.4318587">
    <tag k="addr:housenumber" v="1"/>
    <tag k="addr:street" v="Belding Road"/>
    <tag k="addr:state" v="VT"/>
    <tag k="ref:vcgi:esiteid" v="756499"/>
  </node>
  <node id="-3558" visible="true" lat="44.16250708" lon="-72.53688996">
    <tag k="addr:housenumber" v="37"/>
    <tag k="addr:street" v="West Road"/>
    <tag k="addr:state" v="VT"/>
    <tag k="ref:vcgi:esiteid" v="756503"/>
  </node>
  <node id="-3560" visible="true" lat="44.20577187" lon="-72.48065198">
    <tag k="addr:housenumber" v="10"/>
    <tag k="addr:street" v="Lisa Drive"/>
    <tag k="addr:state" v="VT"/>
    <tag k="ref:vcgi:esiteid" v="756793"/>
  </node>
  <node id="-3561" visible="true" lat="44.20545281" lon="-72.48080966">
    <tag k="addr:housenumber" v="24"/>
    <tag k="addr:street" v="Lisa Drive"/>
    <tag k="addr:state" v="VT"/>
    <tag k="ref:vcgi:esiteid" v="756794"/>
  </node>
  <node id="-3566" visible="true" lat="44.22463587" lon="-72.43440596">
    <tag k="addr:housenumber" v="910"/>
    <tag k="addr:street" v="Gonyeau Road"/>
    <tag k="addr:state" v="VT"/>
    <tag k="ref:vcgi:esiteid" v="757297"/>
  </node>
  <node id="-3576" visible="true" lat="44.17131014" lon="-72.54053534">
    <tag k="addr:housenumber" v="93"/>
    <tag k="addr:street" v="Birchwood Park Drive"/>
    <tag k="addr:state" v="VT"/>
    <tag k="ref:vcgi:esiteid" v="758332"/>
  </node>
  <node id="-3582" visible="true" lat="44.17541502" lon="-72.49222398">
    <tag k="addr:housenumber" v="59"/>
    <tag k="addr:street" v="Conti Circle"/>
    <tag k="addr:state" v="VT"/>
    <tag k="ref:vcgi:esiteid" v="758583"/>
  </node>
  <node id="-3588" visible="true" lat="44.21779093" lon="-72.48445917">
    <tag k="addr:housenumber" v="273"/>
    <tag k="addr:street" v="Cassie Street"/>
    <tag k="addr:state" v="VT"/>
    <tag k="ref:vcgi:esiteid" v="758986"/>
  </node>
  <node id="-3589" visible="true" lat="44.17910826" lon="-72.5274711">
    <tag k="addr:housenumber" v="135"/>
    <tag k="addr:street" v="Lower Usle Road"/>
    <tag k="addr:state" v="VT"/>
    <tag k="ref:vcgi:esiteid" v="759081"/>
  </node>
  <node id="-3626" visible="true" lat="44.21439236" lon="-72.51298893">
    <tag k="addr:housenumber" v="88"/>
    <tag k="addr:street" v="Blake Drive"/>
    <tag k="addr:state" v="VT"/>
    <tag k="ref:vcgi:esiteid" v="759166"/>
  </node>
  <node id="-3631" visible="true" lat="44.21482395" lon="-72.51222808">
    <tag k="addr:housenumber" v="30"/>
    <tag k="addr:street" v="Ivan Drive"/>
    <tag k="addr:state" v="VT"/>
    <tag k="ref:vcgi:esiteid" v="759171"/>
  </node>
  <node id="-3636" visible="true" lat="44.21399907" lon="-72.51244146">
    <tag k="addr:housenumber" v="134"/>
    <tag k="addr:street" v="Mathieu Drive"/>
    <tag k="addr:state" v="VT"/>
    <tag k="ref:vcgi:esiteid" v="759176"/>
  </node>
  <node id="-3639" visible="true" lat="44.21466709" lon="-72.51158905">
    <tag k="addr:housenumber" v="29"/>
    <tag k="addr:street" v="Ivan Drive"/>
    <tag k="addr:state" v="VT"/>
    <tag k="ref:vcgi:esiteid" v="759179"/>
  </node>
  <node id="-3640" visible="true" lat="44.21488024" lon="-72.51123979">
    <tag k="addr:housenumber" v="71"/>
    <tag k="addr:street" v="Ivan Drive"/>
    <tag k="addr:state" v="VT"/>
    <tag k="ref:vcgi:esiteid" v="759180"/>
  </node>
  <node id="-3641" visible="true" lat="44.21514932" lon="-72.51130275">
    <tag k="addr:housenumber" v="73"/>
    <tag k="addr:street" v="Ivan Drive"/>
    <tag k="addr:state" v="VT"/>
    <tag k="ref:vcgi:esiteid" v="759181"/>
  </node>
  <node id="-3645" visible="true" lat="44.21386933" lon="-72.51205241">
    <tag k="addr:housenumber" v="28"/>
    <tag k="addr:street" v="Alex Drive"/>
    <tag k="addr:state" v="VT"/>
    <tag k="ref:vcgi:esiteid" v="759185"/>
  </node>
  <node id="-3665" visible="true" lat="44.15800766" lon="-72.45004444">
    <tag k="addr:housenumber" v="37"/>
    <tag k="addr:street" v="Washington Road"/>
    <tag k="addr:state" v="VT"/>
    <tag k="ref:vcgi:esiteid" v="759334"/>
  </node>
  <node id="-3667" visible="true" lat="44.1908275" lon="-72.47094062">
    <tag k="addr:housenumber" v="387"/>
    <tag k="addr:street" v="Sierra Lavin Road"/>
    <tag k="addr:state" v="VT"/>
    <tag k="ref:vcgi:esiteid" v="759517"/>
  </node>
  <node id="-3669" visible="true" lat="44.16854366" lon="-72.44926629">
    <tag k="addr:housenumber" v="256"/>
    <tag k="addr:street" v="Taplin Road"/>
    <tag k="addr:state" v="VT"/>
    <tag k="ref:vcgi:esiteid" v="760202"/>
  </node>
  <node id="-3674" visible="true" lat="44.19788833" lon="-72.47985314">
    <tag k="addr:housenumber" v="42"/>
    <tag k="addr:street" v="Edgewood Brook Road"/>
    <tag k="addr:state" v="VT"/>
    <tag k="ref:vcgi:esiteid" v="760921"/>
  </node>
  <node id="-3675" visible="true" lat="44.198068" lon="-72.47956085">
    <tag k="addr:housenumber" v="48"/>
    <tag k="addr:street" v="Edgewood Brook Road"/>
    <tag k="addr:state" v="VT"/>
    <tag k="ref:vcgi:esiteid" v="760922"/>
  </node>
  <node id="-3676" visible="true" lat="44.19764456" lon="-72.47916661">
    <tag k="addr:housenumber" v="54"/>
    <tag k="addr:street" v="Edgewood Brook Road"/>
    <tag k="addr:state" v="VT"/>
    <tag k="ref:vcgi:esiteid" v="760923"/>
  </node>
  <node id="-3677" visible="true" lat="44.19978784" lon="-72.48109078">
    <tag k="addr:housenumber" v="66"/>
    <tag k="addr:street" v="Hickory Way"/>
    <tag k="addr:state" v="VT"/>
    <tag k="ref:vcgi:esiteid" v="760924"/>
  </node>
  <node id="-3678" visible="true" lat="44.1991695" lon="-72.47980528">
    <tag k="addr:housenumber" v="40"/>
    <tag k="addr:street" v="Hickory Way"/>
    <tag k="addr:state" v="VT"/>
    <tag k="ref:vcgi:esiteid" v="760925"/>
  </node>
  <node id="-3679" visible="true" lat="44.1980617" lon="-72.47996035">
    <tag k="addr:housenumber" v="38"/>
    <tag k="addr:street" v="Edgewood Brook Road"/>
    <tag k="addr:state" v="VT"/>
    <tag k="ref:vcgi:esiteid" v="760933"/>
  </node>
  <node id="-3680" visible="true" lat="44.19847839" lon="-72.48027433">
    <tag k="addr:housenumber" v="26"/>
    <tag k="addr:street" v="Edgewood Brook Road"/>
    <tag k="addr:state" v="VT"/>
    <tag k="ref:vcgi:esiteid" v="760934"/>
  </node>
  <node id="-3681" visible="true" lat="44.19820817" lon="-72.48016018">
    <tag k="addr:housenumber" v="32"/>
    <tag k="addr:street" v="Edgewood Brook Road"/>
    <tag k="addr:state" v="VT"/>
    <tag k="ref:vcgi:esiteid" v="760935"/>
  </node>
  <node id="-3682" visible="true" lat="44.19795107" lon="-72.48056673">
    <tag k="addr:housenumber" v="31"/>
    <tag k="addr:street" v="Edgewood Brook Road"/>
    <tag k="addr:state" v="VT"/>
    <tag k="ref:vcgi:esiteid" v="760936"/>
  </node>
  <node id="-3683" visible="true" lat="44.19808299" lon="-72.48059714">
    <tag k="addr:housenumber" v="29"/>
    <tag k="addr:street" v="Edgewood Brook Road"/>
    <tag k="addr:state" v="VT"/>
    <tag k="ref:vcgi:esiteid" v="760937"/>
  </node>
  <node id="-3684" visible="true" lat="44.19783238" lon="-72.48031757">
    <tag k="addr:housenumber" v="35"/>
    <tag k="addr:street" v="Edgewood Brook Road"/>
    <tag k="addr:state" v="VT"/>
    <tag k="ref:vcgi:esiteid" v="760938"/>
  </node>
  <node id="-3685" visible="true" lat="44.19768291" lon="-72.48013841">
    <tag k="addr:housenumber" v="39"/>
    <tag k="addr:street" v="Edgewood Brook Road"/>
    <tag k="addr:state" v="VT"/>
    <tag k="ref:vcgi:esiteid" v="760939"/>
  </node>
  <node id="-3686" visible="true" lat="44.1974795" lon="-72.48008099">
    <tag k="addr:housenumber" v="43"/>
    <tag k="addr:street" v="Edgewood Brook Road"/>
    <tag k="addr:state" v="VT"/>
    <tag k="ref:vcgi:esiteid" v="760940"/>
  </node>
  <node id="-3687" visible="true" lat="44.19747516" lon="-72.47974669">
    <tag k="addr:housenumber" v="47"/>
    <tag k="addr:street" v="Edgewood Brook Road"/>
    <tag k="addr:state" v="VT"/>
    <tag k="ref:vcgi:esiteid" v="760941"/>
  </node>
  <node id="-3688" visible="true" lat="44.19745319" lon="-72.47942564">
    <tag k="addr:housenumber" v="51"/>
    <tag k="addr:street" v="Edgewood Brook Road"/>
    <tag k="addr:state" v="VT"/>
    <tag k="ref:vcgi:esiteid" v="760942"/>
  </node>
  <node id="-3689" visible="true" lat="44.19357836" lon="-72.52609638">
    <tag k="addr:housenumber" v="43"/>
    <tag k="addr:street" v="Jensen Road"/>
    <tag k="addr:state" v="VT"/>
    <tag k="ref:vcgi:esiteid" v="761109"/>
  </node>
  <node id="-3690" visible="true" lat="44.16937686" lon="-72.50242125">
    <tag k="addr:housenumber" v="89"/>
    <tag k="addr:street" v="Middle Road"/>
    <tag k="addr:state" v="VT"/>
    <tag k="ref:vcgi:esiteid" v="761110"/>
  </node>
  <node id="-3691" visible="true" lat="44.15537857" lon="-72.532431">
    <tag k="addr:housenumber" v="400"/>
    <tag k="addr:street" v="Snowbridge Road"/>
    <tag k="addr:state" v="VT"/>
    <tag k="ref:vcgi:esiteid" v="761347"/>
  </node>
  <node id="-3692" visible="true" lat="44.15664266" lon="-72.50326631">
    <tag k="addr:housenumber" v="27"/>
    <tag k="addr:street" v="Peloquin Road"/>
    <tag k="addr:state" v="VT"/>
    <tag k="ref:vcgi:esiteid" v="761355"/>
  </node>
  <node id="-3693" visible="true" lat="44.17797275" lon="-72.46326696">
    <tag k="addr:housenumber" v="94"/>
    <tag k="addr:street" v="East Cobble Hill Road"/>
    <tag k="addr:state" v="VT"/>
    <tag k="ref:vcgi:esiteid" v="761501"/>
  </node>
  <node id="-3694" visible="true" lat="44.17056953" lon="-72.50811042">
    <tag k="addr:housenumber" v="8"/>
    <tag k="addr:street" v="Don Camp Drive"/>
    <tag k="addr:state" v="VT"/>
    <tag k="ref:vcgi:esiteid" v="761502"/>
  </node>
  <node id="-3695" visible="true" lat="44.15740648" lon="-72.45310586">
    <tag k="addr:housenumber" v="171"/>
    <tag k="addr:street" v="Mill Street"/>
    <tag k="addr:state" v="VT"/>
    <tag k="ref:vcgi:esiteid" v="761794"/>
  </node>
  <node id="-3696" visible="true" lat="44.15065331" lon="-72.44159272">
    <tag k="addr:housenumber" v="88"/>
    <tag k="addr:street" v="Remington Drive"/>
    <tag k="addr:state" v="VT"/>
    <tag k="ref:vcgi:esiteid" v="761822"/>
  </node>
  <node id="-3697" visible="true" lat="44.17053181" lon="-72.48740649">
    <tag k="addr:housenumber" v="15"/>
    <tag k="addr:street" v="Pitman Road"/>
    <tag k="addr:state" v="VT"/>
    <tag k="ref:vcgi:esiteid" v="761914"/>
  </node>
  <node id="-3698" visible="true" lat="44.21808266" lon="-72.51257872">
    <tag k="addr:housenumber" v="262"/>
    <tag k="addr:street" v="Beckley Hill Road"/>
    <tag k="addr:state" v="VT"/>
    <tag k="ref:vcgi:esiteid" v="762310"/>
  </node>
  <node id="-3699" visible="true" lat="44.21921642" lon="-72.51776365">
    <tag k="addr:housenumber" v="36"/>
    <tag k="addr:street" v="Moonlight Drive"/>
    <tag k="addr:state" v="VT"/>
    <tag k="ref:vcgi:esiteid" v="762311"/>
  </node>
  <node id="-3700" visible="true" lat="44.22157084" lon="-72.5206456">
    <tag k="addr:housenumber" v="13"/>
    <tag k="addr:street" v="Al Monty Drive"/>
    <tag k="addr:state" v="VT"/>
    <tag k="ref:vcgi:esiteid" v="762312"/>
  </node>
  <node id="-3701" visible="true" lat="44.1595644" lon="-72.44284911">
    <tag k="addr:housenumber" v="32"/>
    <tag k="addr:street" v="Hillside Avenue"/>
    <tag k="addr:state" v="VT"/>
    <tag k="ref:vcgi:esiteid" v="762419"/>
  </node>
  <node id="-3702" visible="true" lat="44.17318398" lon="-72.50865047">
    <tag k="addr:housenumber" v="128"/>
    <tag k="addr:street" v="Smokehouse Lane"/>
    <tag k="addr:state" v="VT"/>
    <tag k="ref:vcgi:esiteid" v="762423"/>
  </node>
  <node id="-3703" visible="true" lat="44.17923637" lon="-72.52399908">
    <tag k="addr:housenumber" v="101"/>
    <tag k="addr:street" v="Lower Usle Road"/>
    <tag k="addr:state" v="VT"/>
    <tag k="ref:vcgi:esiteid" v="762677"/>
  </node>
  <node id="-3704" visible="true" lat="44.21461783" lon="-72.51136329">
    <tag k="addr:housenumber" v="31"/>
    <tag k="addr:street" v="Ivan Drive"/>
    <tag k="addr:state" v="VT"/>
    <tag k="ref:vcgi:esiteid" v="762678"/>
  </node>
  <node id="-3705" visible="true" lat="44.21746959" lon="-72.47459158">
    <tag k="addr:housenumber" v="526"/>
    <tag k="addr:street" v="Camp Street"/>
    <tag k="addr:state" v="VT"/>
    <tag k="ref:vcgi:esiteid" v="762750"/>
  </node>
  <node id="-3706" visible="true" lat="44.19973169" lon="-72.48083363">
    <tag k="addr:housenumber" v="60"/>
    <tag k="addr:street" v="Hickory Way"/>
    <tag k="addr:state" v="VT"/>
    <tag k="ref:vcgi:esiteid" v="762862"/>
  </node>
  <node id="-3707" visible="true" lat="44.18423572" lon="-72.51088033">
    <tag k="addr:housenumber" v="187"/>
    <tag k="addr:street" v="Allen Street"/>
    <tag k="addr:state" v="VT"/>
    <tag k="ref:vcgi:esiteid" v="762863"/>
  </node>
  <node id="-3708" visible="true" lat="44.18053947" lon="-72.47735889">
    <tag k="addr:housenumber" v="560"/>
    <tag k="addr:street" v="East Barre Road"/>
    <tag k="addr:state" v="VT"/>
    <tag k="ref:vcgi:esiteid" v="762864"/>
  </node>
  <node id="-3709" visible="true" lat="44.21777664" lon="-72.45073973">
    <tag k="addr:housenumber" v="31"/>
    <tag k="addr:street" v="Neddo Road"/>
    <tag k="addr:state" v="VT"/>
    <tag k="ref:vcgi:esiteid" v="763040"/>
  </node>
  <node id="-3710" visible="true" lat="44.15617107" lon="-72.50281902">
    <tag k="addr:housenumber" v="35"/>
    <tag k="addr:street" v="Peloquin Road"/>
    <tag k="addr:state" v="VT"/>
    <tag k="ref:vcgi:esiteid" v="763128"/>
  </node>
  <node id="-3713" visible="true" lat="44.22368012" lon="-72.49351972">
    <tag k="addr:housenumber" v="22"/>
    <tag k="addr:street" v="Hartley Road"/>
    <tag k="addr:state" v="VT"/>
    <tag k="ref:vcgi:esiteid" v="763131"/>
  </node>
  <node id="-3714" visible="true" lat="44.1889501" lon="-72.54268667">
    <tag k="addr:housenumber" v="220"/>
    <tag k="addr:street" v="Airport Road"/>
    <tag k="addr:state" v="VT"/>
    <tag k="ref:vcgi:esiteid" v="763352"/>
  </node>
  <node id="-3716" visible="true" lat="44.21448171" lon="-72.51360905">
    <tag k="addr:housenumber" v="11"/>
    <tag k="addr:street" v="Payton Lane"/>
    <tag k="addr:state" v="VT"/>
    <tag k="ref:vcgi:esiteid" v="763977"/>
  </node>
  <node id="-3717" visible="true" lat="44.21477756" lon="-72.51201803">
    <tag k="addr:housenumber" v="28"/>
    <tag k="addr:street" v="Ivan Drive"/>
    <tag k="addr:state" v="VT"/>
    <tag k="ref:vcgi:esiteid" v="763978"/>
  </node>
  <node id="-3718" visible="true" lat="44.23397061" lon="-72.48889195">
    <tag k="addr:housenumber" v="554"/>
    <tag k="addr:street" v="East Montpelier Road"/>
    <tag k="addr:state" v="VT"/>
    <tag k="ref:vcgi:esiteid" v="764092"/>
  </node>
  <node id="-3719" visible="true" lat="44.20444461" lon="-72.4771157">
    <tag k="addr:housenumber" v="22"/>
    <tag k="addr:street" v="Fieldstone Lane"/>
    <tag k="addr:state" v="VT"/>
    <tag k="ref:vcgi:esiteid" v="764675"/>
  </node>
  <node id="-3720" visible="true" lat="44.16449398" lon="-72.46910195">
    <tag k="addr:housenumber" v="255"/>
    <tag k="addr:street" v="Websterville Road"/>
    <tag k="addr:state" v="VT"/>
    <tag k="ref:vcgi:esiteid" v="765430"/>
  </node>
  <node id="-3721" visible="true" lat="44.21368113" lon="-72.51952714">
    <tag k="addr:housenumber" v="8"/>
    <tag k="addr:street" v="Velie Avenue"/>
    <tag k="addr:state" v="VT"/>
    <tag k="ref:vcgi:esiteid" v="765540"/>
  </node>
  <node id="-3722" visible="true" lat="44.22095221" lon="-72.50111125">
    <tag k="addr:housenumber" v="200"/>
    <tag k="addr:street" v="Farwell Street"/>
    <tag k="addr:state" v="VT"/>
    <tag k="ref:vcgi:esiteid" v="765541"/>
  </node>
  <node id="-3723" visible="true" lat="44.17057902" lon="-72.48354525">
    <tag k="addr:housenumber" v="9"/>
    <tag k="addr:street" v="Parker Road"/>
    <tag k="addr:state" v="VT"/>
    <tag k="ref:vcgi:esiteid" v="765653"/>
  </node>
  <node id="-3724" visible="true" lat="44.16230234" lon="-72.4691448">
    <tag k="addr:housenumber" v="283"/>
    <tag k="addr:street" v="Websterville Road"/>
    <tag k="addr:state" v="VT"/>
    <tag k="ref:vcgi:esiteid" v="765678"/>
  </node>
  <node id="-3725" visible="true" lat="44.16243395" lon="-72.46965542">
    <tag k="addr:housenumber" v="275"/>
    <tag k="addr:street" v="Websterville Road"/>
    <tag k="addr:state" v="VT"/>
    <tag k="ref:vcgi:esiteid" v="765679"/>
  </node>
  <node id="-3726" visible="true" lat="44.21492915" lon="-72.51143105">
    <tag k="addr:housenumber" v="69"/>
    <tag k="addr:street" v="Ivan Drive"/>
    <tag k="addr:state" v="VT"/>
    <tag k="ref:vcgi:esiteid" v="765680"/>
  </node>
  <node id="-3728" visible="true" lat="44.17682783" lon="-72.51024814">
    <tag k="addr:housenumber" v="60"/>
    <tag k="addr:street" v="Bridge Street"/>
    <tag k="addr:state" v="VT"/>
    <tag k="ref:vcgi:esiteid" v="765958"/>
  </node>
  <node id="-3755" visible="true" lat="44.16354087" lon="-72.5020867">
    <tag k="addr:housenumber" v="158"/>
    <tag k="addr:street" v="Middle Road"/>
    <tag k="addr:state" v="VT"/>
    <tag k="ref:vcgi:esiteid" v="766282"/>
  </node>
  <node id="-3756" visible="true" lat="44.22440737" lon="-72.50938941">
    <tag k="addr:housenumber" v="358"/>
    <tag k="addr:street" v="Beckley Hill Road"/>
    <tag k="addr:state" v="VT"/>
    <tag k="ref:vcgi:esiteid" v="766541"/>
  </node>
  <node id="-3757" visible="true" lat="44.1753192" lon="-72.47858616">
    <tag k="addr:housenumber" v="117"/>
    <tag k="addr:street" v="Parker Road"/>
    <tag k="addr:state" v="VT"/>
    <tag k="ref:vcgi:esiteid" v="766542"/>
  </node>
  <node id="-3758" visible="true" lat="44.21421262" lon="-72.51370023">
    <tag k="addr:housenumber" v="12"/>
    <tag k="addr:street" v="Payton Lane"/>
    <tag k="addr:state" v="VT"/>
    <tag k="ref:vcgi:esiteid" v="766654"/>
  </node>
  <node id="-3759" visible="true" lat="44.18852689" lon="-72.54141343">
    <tag k="addr:housenumber" v="202"/>
    <tag k="addr:street" v="Airport Road"/>
    <tag k="addr:state" v="VT"/>
    <tag k="ref:vcgi:esiteid" v="766655"/>
  </node>
  <node id="-3760" visible="true" lat="44.22959722" lon="-72.52338793">
    <tag k="addr:housenumber" v="147"/>
    <tag k="addr:street" v="Richards Farm Lane"/>
    <tag k="addr:state" v="VT"/>
    <tag k="ref:vcgi:esiteid" v="766752"/>
  </node>
  <node id="-3761" visible="true" lat="44.22609127" lon="-72.47483242">
    <tag k="addr:housenumber" v="203"/>
    <tag k="addr:street" v="Plainfield Brook Road"/>
    <tag k="addr:state" v="VT"/>
    <tag k="ref:vcgi:esiteid" v="767367"/>
  </node>
  <node id="-3762" visible="true" lat="44.16468809" lon="-72.4896774">
    <tag k="addr:housenumber" v="50"/>
    <tag k="addr:street" v="Websterville Road"/>
    <tag k="addr:state" v="VT"/>
    <tag k="ref:vcgi:esiteid" v="767911"/>
  </node>
  <node id="-3763" visible="true" lat="44.21248133" lon="-72.5156057">
    <tag k="addr:housenumber" v="46"/>
    <tag k="addr:street" v="Olivia Drive"/>
    <tag k="addr:state" v="VT"/>
    <tag k="ref:vcgi:esiteid" v="768089"/>
  </node>
  <node id="-3764" visible="true" lat="44.21244815" lon="-72.5156294">
    <tag k="addr:housenumber" v="48"/>
    <tag k="addr:street" v="Olivia Drive"/>
    <tag k="addr:state" v="VT"/>
    <tag k="ref:vcgi:esiteid" v="768090"/>
  </node>
  <node id="-3765" visible="true" lat="44.21239989" lon="-72.51563945">
    <tag k="addr:housenumber" v="50"/>
    <tag k="addr:street" v="Olivia Drive"/>
    <tag k="addr:state" v="VT"/>
    <tag k="ref:vcgi:esiteid" v="768091"/>
  </node>
  <node id="-3766" visible="true" lat="44.21236703" lon="-72.51565534">
    <tag k="addr:housenumber" v="52"/>
    <tag k="addr:street" v="Olivia Drive"/>
    <tag k="addr:state" v="VT"/>
    <tag k="ref:vcgi:esiteid" v="768092"/>
  </node>
  <node id="-3767" visible="true" lat="44.21238675" lon="-72.51594536">
    <tag k="addr:housenumber" v="46"/>
    <tag k="addr:street" v="Nicholas Lane"/>
    <tag k="addr:state" v="VT"/>
    <tag k="ref:vcgi:esiteid" v="768093"/>
  </node>
  <node id="-3768" visible="true" lat="44.21238676" lon="-72.51588577">
    <tag k="addr:housenumber" v="44"/>
    <tag k="addr:street" v="Nicholas Lane"/>
    <tag k="addr:state" v="VT"/>
    <tag k="ref:vcgi:esiteid" v="768094"/>
  </node>
  <node id="-3769" visible="true" lat="44.2124027" lon="-72.51601092">
    <tag k="addr:housenumber" v="48"/>
    <tag k="addr:street" v="Nicholas Lane"/>
    <tag k="addr:state" v="VT"/>
    <tag k="ref:vcgi:esiteid" v="768095"/>
  </node>
  <node id="-3770" visible="true" lat="44.21242841" lon="-72.51606655">
    <tag k="addr:housenumber" v="50"/>
    <tag k="addr:street" v="Nicholas Lane"/>
    <tag k="addr:state" v="VT"/>
    <tag k="ref:vcgi:esiteid" v="768096"/>
  </node>
  <node id="-3771" visible="true" lat="44.21274275" lon="-72.51591566">
    <tag k="addr:housenumber" v="51"/>
    <tag k="addr:street" v="Nicholas Lane"/>
    <tag k="addr:state" v="VT"/>
    <tag k="ref:vcgi:esiteid" v="768097"/>
  </node>
  <node id="-3772" visible="true" lat="44.21275703" lon="-72.51596135">
    <tag k="addr:housenumber" v="53"/>
    <tag k="addr:street" v="Nicholas Lane"/>
    <tag k="addr:state" v="VT"/>
    <tag k="ref:vcgi:esiteid" v="768098"/>
  </node>
  <node id="-3773" visible="true" lat="44.21277987" lon="-72.51610439">
    <tag k="addr:housenumber" v="57"/>
    <tag k="addr:street" v="Nicholas Lane"/>
    <tag k="addr:state" v="VT"/>
    <tag k="ref:vcgi:esiteid" v="768099"/>
  </node>
  <node id="-3774" visible="true" lat="44.21277813" lon="-72.51604664">
    <tag k="addr:housenumber" v="55"/>
    <tag k="addr:street" v="Nicholas Lane"/>
    <tag k="addr:state" v="VT"/>
    <tag k="ref:vcgi:esiteid" v="768100"/>
  </node>
  <node id="-3775" visible="true" lat="44.2124541" lon="-72.51619766">
    <tag k="addr:housenumber" v="60"/>
    <tag k="addr:street" v="Nicholas Lane"/>
    <tag k="addr:state" v="VT"/>
    <tag k="ref:vcgi:esiteid" v="768101"/>
  </node>
  <node id="-3776" visible="true" lat="44.21246696" lon="-72.51625328">
    <tag k="addr:housenumber" v="62"/>
    <tag k="addr:street" v="Nicholas Lane"/>
    <tag k="addr:state" v="VT"/>
    <tag k="ref:vcgi:esiteid" v="768102"/>
  </node>
  <node id="-3777" visible="true" lat="44.21248552" lon="-72.51631487">
    <tag k="addr:housenumber" v="64"/>
    <tag k="addr:street" v="Nicholas Lane"/>
    <tag k="addr:state" v="VT"/>
    <tag k="ref:vcgi:esiteid" v="768103"/>
  </node>
  <node id="-3778" visible="true" lat="44.21250123" lon="-72.51637049">
    <tag k="addr:housenumber" v="66"/>
    <tag k="addr:street" v="Nicholas Lane"/>
    <tag k="addr:state" v="VT"/>
    <tag k="ref:vcgi:esiteid" v="768104"/>
  </node>
  <node id="-3779" visible="true" lat="44.212817" lon="-72.51625139">
    <tag k="addr:housenumber" v="69"/>
    <tag k="addr:street" v="Nicholas Lane"/>
    <tag k="addr:state" v="VT"/>
    <tag k="ref:vcgi:esiteid" v="768105"/>
  </node>
  <node id="-3780" visible="true" lat="44.21283556" lon="-72.51630702">
    <tag k="addr:housenumber" v="71"/>
    <tag k="addr:street" v="Nicholas Lane"/>
    <tag k="addr:state" v="VT"/>
    <tag k="ref:vcgi:esiteid" v="768106"/>
  </node>
  <node id="-3781" visible="true" lat="44.21284841" lon="-72.51636662">
    <tag k="addr:housenumber" v="73"/>
    <tag k="addr:street" v="Nicholas Lane"/>
    <tag k="addr:state" v="VT"/>
    <tag k="ref:vcgi:esiteid" v="768107"/>
  </node>
  <node id="-3782" visible="true" lat="44.21285245" lon="-72.51642224">
    <tag k="addr:housenumber" v="75"/>
    <tag k="addr:street" v="Nicholas Lane"/>
    <tag k="addr:state" v="VT"/>
    <tag k="ref:vcgi:esiteid" v="768108"/>
  </node>
  <node id="-3783" visible="true" lat="44.21256548" lon="-72.51663272">
    <tag k="addr:housenumber" v="80"/>
    <tag k="addr:street" v="Nicholas Lane"/>
    <tag k="addr:state" v="VT"/>
    <tag k="ref:vcgi:esiteid" v="768109"/>
  </node>
  <node id="-3784" visible="true" lat="44.21257547" lon="-72.51669828">
    <tag k="addr:housenumber" v="82"/>
    <tag k="addr:street" v="Nicholas Lane"/>
    <tag k="addr:state" v="VT"/>
    <tag k="ref:vcgi:esiteid" v="768110"/>
  </node>
  <node id="-3785" visible="true" lat="44.21258833" lon="-72.51675192">
    <tag k="addr:housenumber" v="84"/>
    <tag k="addr:street" v="Nicholas Lane"/>
    <tag k="addr:state" v="VT"/>
    <tag k="ref:vcgi:esiteid" v="768111"/>
  </node>
  <node id="-3786" visible="true" lat="44.21260118" lon="-72.51680754">
    <tag k="addr:housenumber" v="86"/>
    <tag k="addr:street" v="Nicholas Lane"/>
    <tag k="addr:state" v="VT"/>
    <tag k="ref:vcgi:esiteid" v="768112"/>
  </node>
  <node id="-3787" visible="true" lat="44.21263923" lon="-72.51697603">
    <tag k="addr:housenumber" v="98"/>
    <tag k="addr:street" v="Nicholas Lane"/>
    <tag k="addr:state" v="VT"/>
    <tag k="ref:vcgi:esiteid" v="768113"/>
  </node>
  <node id="-3788" visible="true" lat="44.21264829" lon="-72.51702805">
    <tag k="addr:housenumber" v="100"/>
    <tag k="addr:street" v="Nicholas Lane"/>
    <tag k="addr:state" v="VT"/>
    <tag k="ref:vcgi:esiteid" v="768114"/>
  </node>
  <node id="-3789" visible="true" lat="44.21265805" lon="-72.51708566">
    <tag k="addr:housenumber" v="102"/>
    <tag k="addr:street" v="Nicholas Lane"/>
    <tag k="addr:state" v="VT"/>
    <tag k="ref:vcgi:esiteid" v="768115"/>
  </node>
  <node id="-3790" visible="true" lat="44.21267542" lon="-72.51714923">
    <tag k="addr:housenumber" v="104"/>
    <tag k="addr:street" v="Nicholas Lane"/>
    <tag k="addr:state" v="VT"/>
    <tag k="ref:vcgi:esiteid" v="768116"/>
  </node>
  <node id="-3791" visible="true" lat="44.21271397" lon="-72.51731015">
    <tag k="addr:housenumber" v="114"/>
    <tag k="addr:street" v="Nicholas Lane"/>
    <tag k="addr:state" v="VT"/>
    <tag k="ref:vcgi:esiteid" v="768117"/>
  </node>
  <node id="-3792" visible="true" lat="44.21272682" lon="-72.51737173">
    <tag k="addr:housenumber" v="116"/>
    <tag k="addr:street" v="Nicholas Lane"/>
    <tag k="addr:state" v="VT"/>
    <tag k="ref:vcgi:esiteid" v="768118"/>
  </node>
  <node id="-3793" visible="true" lat="44.21274681" lon="-72.51744325">
    <tag k="addr:housenumber" v="118"/>
    <tag k="addr:street" v="Nicholas Lane"/>
    <tag k="addr:state" v="VT"/>
    <tag k="ref:vcgi:esiteid" v="768119"/>
  </node>
  <node id="-3794" visible="true" lat="44.21275395" lon="-72.51748894">
    <tag k="addr:housenumber" v="120"/>
    <tag k="addr:street" v="Nicholas Lane"/>
    <tag k="addr:state" v="VT"/>
    <tag k="ref:vcgi:esiteid" v="768121"/>
  </node>
  <node id="-3795" visible="true" lat="44.21513147" lon="-72.51114677">
    <tag k="addr:housenumber" v="75"/>
    <tag k="addr:street" v="Ivan Drive"/>
    <tag k="addr:state" v="VT"/>
    <tag k="ref:vcgi:esiteid" v="768138"/>
  </node>
  <node id="-3796" visible="true" lat="44.16938354" lon="-72.451819">
    <tag k="addr:housenumber" v="16"/>
    <tag k="addr:street" v="Sunnyside Drive"/>
    <tag k="addr:state" v="VT"/>
    <tag k="ref:vcgi:esiteid" v="768159"/>
  </node>
  <node id="-3797" visible="true" lat="44.18119411" lon="-72.5116974">
    <tag k="addr:housenumber" v="111"/>
    <tag k="addr:street" v="Bridge Street"/>
    <tag k="addr:state" v="VT"/>
    <tag k="ref:vcgi:esiteid" v="769565"/>
  </node>
  <node id="-3798" visible="true" lat="44.21501532" lon="-72.51186527">
    <tag k="addr:housenumber" v="82"/>
    <tag k="addr:street" v="Ivan Drive"/>
    <tag k="addr:state" v="VT"/>
    <tag k="ref:vcgi:esiteid" v="769698"/>
  </node>
  <node id="-3799" visible="true" lat="44.15960064" lon="-72.45311099">
    <tag k="addr:housenumber" v="468"/>
    <tag k="addr:street" v="Websterville Road"/>
    <tag k="addr:state" v="VT"/>
    <tag k="ref:vcgi:esiteid" v="769700"/>
  </node>
  <node id="-3800" visible="true" lat="44.22660564" lon="-72.50743047">
    <tag k="addr:housenumber" v="7"/>
    <tag k="addr:street" v="Mollys Trail"/>
    <tag k="addr:state" v="VT"/>
    <tag k="ref:vcgi:esiteid" v="769964"/>
  </node>
  <node id="-3801" visible="true" lat="44.23414788" lon="-72.50450285">
    <tag k="addr:housenumber" v="508"/>
    <tag k="addr:street" v="Mekkelsen Road"/>
    <tag k="addr:state" v="VT"/>
    <tag k="ref:vcgi:esiteid" v="770991"/>
  </node>
  <node id="-3806" visible="true" lat="44.16365377" lon="-72.45146409">
    <tag k="addr:housenumber" v="955"/>
    <tag k="addr:street" v="East Barre Road"/>
    <tag k="addr:state" v="VT"/>
    <tag k="ref:vcgi:esiteid" v="900519"/>
  </node>
  <node id="-3810" visible="true" lat="44.17430248" lon="-72.50718057">
    <tag k="addr:housenumber" v="465"/>
    <tag k="addr:street" v="South Barre Road"/>
    <tag k="addr:state" v="VT"/>
    <tag k="ref:vcgi:esiteid" v="900526"/>
  </node>
  <node id="-3811" visible="true" lat="44.20390966" lon="-72.48121341">
    <tag k="addr:housenumber" v="60"/>
    <tag k="addr:street" v="Smith Farm Road"/>
    <tag k="addr:state" v="VT"/>
    <tag k="ref:vcgi:esiteid" v="900527"/>
  </node>
</osm>
