<?xml version="1.0" encoding="UTF-8"?>
<osm version="0.6" generator="JOSM" upload="false">
  <node id="-160" visible="true" lat="44.20993804" lon="-72.50771331">
    <!-- conflict: "75 Colby Street, Barre, VT" No match in OSM, but a different address exists <5m away: " , Barre, VT" -->
    <tag k="addr:city" v="Barre"/>
    <tag k="addr:housenumber" v="75"/>
    <tag k="addr:street" v="Colby Street"/>
    <tag k="addr:state" v="VT"/>
    <tag k="ref:vcgi:esiteid" v="7785"/>
  </node>
  <node id="-574" visible="true" lat="44.20502565" lon="-72.50827945">
    <!-- conflict: "1 Thurston Place, Barre, VT" No match in OSM, but a different address exists <5m away: "1 Seminary Street;Thurston Place, Barre, VT" -->
    <tag k="addr:city" v="Barre"/>
    <tag k="addr:housenumber" v="1"/>
    <tag k="addr:street" v="Thurston Place"/>
    <tag k="addr:state" v="VT"/>
    <tag k="ref:vcgi:esiteid" v="8255"/>
  </node>
  <node id="-744" visible="true" lat="44.20342134" lon="-72.50262026">
    <!-- conflict: "25 Auditorium Hill, Barre, VT" Fuzzy match to "25 Auditorium Hollow, Barre, VT" -->
    <tag k="addr:city" v="Barre"/>
    <tag k="addr:housenumber" v="25"/>
    <tag k="addr:street" v="Auditorium Hill"/>
    <tag k="addr:state" v="VT"/>
    <tag k="ref:vcgi:esiteid" v="8445"/>
  </node>
  <node id="-829" visible="true" lat="44.20270549" lon="-72.49315812">
    <!-- conflict: "43 Winter Meadows, Barre, VT" Fuzzy match to "43 Winter Meadow, Barre, VT" -->
    <tag k="addr:city" v="Barre"/>
    <tag k="addr:housenumber" v="43"/>
    <tag k="addr:street" v="Winter Meadows"/>
    <tag k="addr:state" v="VT"/>
    <tag k="ref:vcgi:esiteid" v="8546"/>
  </node>
  <node id="-883" visible="true" lat="44.20196863" lon="-72.49342246">
    <!-- conflict: "31 Winter Meadows, Barre, VT" Fuzzy match to "31 Winter Meadow, Barre, VT" -->
    <tag k="addr:city" v="Barre"/>
    <tag k="addr:housenumber" v="31"/>
    <tag k="addr:street" v="Winter Meadows"/>
    <tag k="addr:state" v="VT"/>
    <tag k="ref:vcgi:esiteid" v="8608"/>
  </node>
  <node id="-952" visible="true" lat="44.20135944" lon="-72.49382805">
    <!-- conflict: "21 Winter Meadows, Barre, VT" Fuzzy match to "21 Winter Meadow, Barre, VT" -->
    <tag k="addr:city" v="Barre"/>
    <tag k="addr:housenumber" v="21"/>
    <tag k="addr:street" v="Winter Meadows"/>
    <tag k="addr:state" v="VT"/>
    <tag k="ref:vcgi:esiteid" v="8692"/>
  </node>
  <node id="-964" visible="true" lat="44.20121026" lon="-72.49441806">
    <!-- conflict: "18 Winter Meadows, Barre, VT" Fuzzy match to "18 Winter Meadow, Barre, VT" -->
    <tag k="addr:city" v="Barre"/>
    <tag k="addr:housenumber" v="18"/>
    <tag k="addr:street" v="Winter Meadows"/>
    <tag k="addr:state" v="VT"/>
    <tag k="ref:vcgi:esiteid" v="8706"/>
  </node>
  <node id="-988" visible="true" lat="44.20106652" lon="-72.49399468">
    <!-- conflict: "17 Winter Meadows, Barre, VT" Fuzzy match to "17 Winter Meadow, Barre, VT" -->
    <tag k="addr:city" v="Barre"/>
    <tag k="addr:housenumber" v="17"/>
    <tag k="addr:street" v="Winter Meadows"/>
    <tag k="addr:state" v="VT"/>
    <tag k="ref:vcgi:esiteid" v="8734"/>
  </node>
  <node id="-1020" visible="true" lat="44.20074584" lon="-72.49473172">
    <!-- conflict: "12 Winter Meadows, Barre, VT" Fuzzy match to "12 Winter Meadow, Barre, VT" -->
    <tag k="addr:city" v="Barre"/>
    <tag k="addr:housenumber" v="12"/>
    <tag k="addr:street" v="Winter Meadows"/>
    <tag k="addr:state" v="VT"/>
    <tag k="ref:vcgi:esiteid" v="8770"/>
  </node>
  <node id="-1043" visible="true" lat="44.2006451" lon="-72.49419708">
    <!-- conflict: "11 Winter Meadows, Barre, VT" Fuzzy match to "11 Winter Meadow, Barre, VT" -->
    <tag k="addr:city" v="Barre"/>
    <tag k="addr:housenumber" v="11"/>
    <tag k="addr:street" v="Winter Meadows"/>
    <tag k="addr:state" v="VT"/>
    <tag k="ref:vcgi:esiteid" v="8796"/>
  </node>
  <node id="-1078" visible="true" lat="44.20050139" lon="-72.49481176">
    <!-- conflict: "8 Winter Meadows, Barre, VT" Fuzzy match to "8 Winter Meadow, Barre, VT" -->
    <tag k="addr:city" v="Barre"/>
    <tag k="addr:housenumber" v="8"/>
    <tag k="addr:street" v="Winter Meadows"/>
    <tag k="addr:state" v="VT"/>
    <tag k="ref:vcgi:esiteid" v="8834"/>
  </node>
  <node id="-1102" visible="true" lat="44.20037071" lon="-72.49432966">
    <!-- conflict: "7 Winter Meadows, Barre, VT" Fuzzy match to "7 Winter Meadow, Barre, VT" -->
    <tag k="addr:city" v="Barre"/>
    <tag k="addr:housenumber" v="7"/>
    <tag k="addr:street" v="Winter Meadows"/>
    <tag k="addr:state" v="VT"/>
    <tag k="ref:vcgi:esiteid" v="8862"/>
  </node>
  <node id="-1122" visible="true" lat="44.20028606" lon="-72.50307162">
    <!-- conflict: "20 Merchant Street, Barre, VT" No match in OSM, but a different address exists <5m away: "20 Summer Street;Merchant Street, Barre, VT" -->
    <tag k="addr:city" v="Barre"/>
    <tag k="addr:housenumber" v="20"/>
    <tag k="addr:street" v="Merchant Street"/>
    <tag k="addr:state" v="VT"/>
    <tag k="ref:vcgi:esiteid" v="8882"/>
  </node>
  <node id="-1144" visible="true" lat="44.2001546" lon="-72.49439439">
    <!-- conflict: "3 Winter Meadows, Barre, VT" Fuzzy match to "3 Winter Meadow, Barre, VT" -->
    <tag k="addr:city" v="Barre"/>
    <tag k="addr:housenumber" v="3"/>
    <tag k="addr:street" v="Winter Meadows"/>
    <tag k="addr:state" v="VT"/>
    <tag k="ref:vcgi:esiteid" v="8907"/>
  </node>
  <node id="-1156" visible="true" lat="44.20010439" lon="-72.50102744">
    <!-- conflict: "46 Pearl Street Extension, Barre, VT" Fuzzy match to "46 Pearl St Extension, Barre, VT" -->
    <tag k="addr:city" v="Barre"/>
    <tag k="addr:housenumber" v="46"/>
    <tag k="addr:street" v="Pearl Street Extension"/>
    <tag k="addr:state" v="VT"/>
    <tag k="ref:vcgi:esiteid" v="8920"/>
  </node>
  <node id="-1174" visible="true" lat="44.1998619" lon="-72.50102858">
    <!-- conflict: "45 Pearl Street Extension, Barre, VT" Fuzzy match to "45 Pearl St Extension, Barre, VT" -->
    <tag k="addr:city" v="Barre"/>
    <tag k="addr:housenumber" v="45"/>
    <tag k="addr:street" v="Pearl Street Extension"/>
    <tag k="addr:state" v="VT"/>
    <tag k="ref:vcgi:esiteid" v="8941"/>
  </node>
  <node id="-1224" visible="true" lat="44.19948487" lon="-72.48491407">
    <!-- conflict: "14 Lague Lane, Barre, VT" No match in OSM, but a different address exists <5m away: "18 Lague Lane, Barre, VT" -->
    <tag k="addr:city" v="Barre"/>
    <tag k="addr:housenumber" v="14"/>
    <tag k="addr:street" v="Lague Lane"/>
    <tag k="addr:state" v="VT"/>
    <tag k="ref:vcgi:esiteid" v="9001"/>
  </node>
  <node id="-1293" visible="true" lat="44.19901955" lon="-72.49833729">
    <!-- conflict: "5 Eastern Avenue, Barre, VT" No match in OSM, but a different address exists <5m away: "9;5 Eastern Avenue, Barre, VT" -->
    <tag k="addr:city" v="Barre"/>
    <tag k="addr:housenumber" v="5"/>
    <tag k="addr:street" v="Eastern Avenue"/>
    <tag k="addr:state" v="VT"/>
    <tag k="ref:vcgi:esiteid" v="9082"/>
  </node>
  <node id="-1314" visible="true" lat="44.19892997" lon="-72.49810412">
    <!-- conflict: "9 Eastern Avenue, Barre, VT" No match in OSM, but a different address exists <5m away: "13;9 Eastern Avenue, Barre, VT" -->
    <tag k="addr:city" v="Barre"/>
    <tag k="addr:housenumber" v="9"/>
    <tag k="addr:street" v="Eastern Avenue"/>
    <tag k="addr:state" v="VT"/>
    <tag k="ref:vcgi:esiteid" v="9103"/>
  </node>
  <node id="-1350" visible="true" lat="44.19879945" lon="-72.49293054">
    <!-- conflict: "74 Currier Street, Barre, VT" No match in OSM, but a different address exists <5m away: "72 Currier Street, Barre, VT" -->
    <tag k="addr:city" v="Barre"/>
    <tag k="addr:housenumber" v="74"/>
    <tag k="addr:street" v="Currier Street"/>
    <tag k="addr:state" v="VT"/>
    <tag k="ref:vcgi:esiteid" v="9143"/>
  </node>
  <node id="-1525" visible="true" lat="44.19793962" lon="-72.50167725">
    <!-- conflict: "75 North Main Street, Barre, VT" Fuzzy match to "75 South Main Street, Barre, VT" -->
    <tag k="addr:city" v="Barre"/>
    <tag k="addr:housenumber" v="75"/>
    <tag k="addr:street" v="North Main Street"/>
    <tag k="addr:state" v="VT"/>
    <tag k="ref:vcgi:esiteid" v="9346"/>
  </node>
  <node id="-1530" visible="true" lat="44.19777552" lon="-72.50158463">
    <!-- conflict: "59 North Main Street, Barre, VT" No match in OSM, but a different address exists <5m away: "59 North Main Streey, , " -->
    <tag k="addr:city" v="Barre"/>
    <tag k="addr:housenumber" v="59"/>
    <tag k="addr:street" v="North Main Street"/>
    <tag k="addr:state" v="VT"/>
    <tag k="ref:vcgi:esiteid" v="9351"/>
  </node>
  <node id="-2567" visible="true" lat="44.18681154" lon="-72.49821525">
    <!-- conflict: "162 South Main Street, Barre, VT" No match in OSM, but a different address exists <5m away: "164 South Main Street, Barre, VT" -->
    <tag k="addr:city" v="Barre"/>
    <tag k="addr:housenumber" v="162"/>
    <tag k="addr:street" v="South Main Street"/>
    <tag k="addr:state" v="VT"/>
    <tag k="ref:vcgi:esiteid" v="10522"/>
  </node>
  <node id="-2723" visible="true" lat="44.18290329" lon="-72.50201416">
    <!-- conflict: "32 Parkside Terrace, Barre, VT" Fuzzy match to "32 East Parkside Terrace, Barre, VT" -->
    <tag k="addr:city" v="Barre"/>
    <tag k="addr:housenumber" v="32"/>
    <tag k="addr:street" v="Parkside Terrace"/>
    <tag k="addr:state" v="VT"/>
    <tag k="ref:vcgi:esiteid" v="10702"/>
  </node>
  <node id="-2910" visible="true" lat="44.19237799" lon="-72.51626097">
    <!-- conflict: "9 Fecteau Circle, Barre, VT" No match in OSM, but a different address exists <5m away: "63;9 Westwood Parkway;Fecteau Circle, Barre, VT" -->
    <tag k="addr:city" v="Barre"/>
    <tag k="addr:housenumber" v="9"/>
    <tag k="addr:street" v="Fecteau Circle"/>
    <tag k="addr:state" v="VT"/>
    <tag k="ref:vcgi:esiteid" v="305764"/>
  </node>
  <node id="-2915" visible="true" lat="44.19895551" lon="-72.514491">
    <!-- conflict: "17 Kynoch Avenue, Barre, VT" No match in OSM, but a different address exists <5m away: "17;13 Kynoch Avenue, Barre, VT" -->
    <tag k="addr:city" v="Barre"/>
    <tag k="addr:housenumber" v="17"/>
    <tag k="addr:street" v="Kynoch Avenue"/>
    <tag k="addr:state" v="VT"/>
    <tag k="ref:vcgi:esiteid" v="307201"/>
  </node>
  <node id="-3002" visible="true" lat="44.20127306" lon="-72.48866931">
    <!-- conflict: "21 Cassie Street, Barre, VT" Fuzzy match to "21 Cassie Street, Barre Town, VT" -->
    <tag k="addr:city" v="Barre"/>
    <tag k="addr:housenumber" v="21"/>
    <tag k="addr:street" v="Cassie Street"/>
    <tag k="addr:state" v="VT"/>
    <tag k="ref:vcgi:esiteid" v="342223"/>
  </node>
  <node id="-3029" visible="true" lat="44.18961969" lon="-72.48823839">
    <!-- conflict: "284 Washington Street, Barre, VT" Fuzzy match to "284 Washington Street, Barre Town, VT" -->
    <tag k="addr:city" v="Barre"/>
    <tag k="addr:housenumber" v="284"/>
    <tag k="addr:street" v="Washington Street"/>
    <tag k="addr:state" v="VT"/>
    <tag k="ref:vcgi:esiteid" v="450880"/>
  </node>
  <node id="-3043" visible="true" lat="44.19370051" lon="-72.522147">
    <!-- conflict: "411 Prospect Street, Barre, VT" Fuzzy match to "411 Prospect Street, Barre City, VT" -->
    <tag k="addr:city" v="Barre"/>
    <tag k="addr:housenumber" v="411"/>
    <tag k="addr:street" v="Prospect Street"/>
    <tag k="addr:state" v="VT"/>
    <tag k="ref:vcgi:esiteid" v="455393"/>
  </node>
  <node id="-3070" visible="true" lat="44.20104519" lon="-72.50286522">
    <!-- conflict: "10 West Street, Barre, VT" No match in OSM, but a different address exists <5m away: "14 West Street, Barre, VT" -->
    <tag k="addr:city" v="Barre"/>
    <tag k="addr:housenumber" v="10"/>
    <tag k="addr:street" v="West Street"/>
    <tag k="addr:state" v="VT"/>
    <tag k="ref:vcgi:esiteid" v="756219"/>
  </node>
  <node id="-3089" visible="true" lat="44.20301721" lon="-72.48893388">
    <!-- conflict: "49 Cassie Street, Barre, VT" Fuzzy match to "49 Cassie Street, Barre Town, VT" -->
    <tag k="addr:city" v="Barre"/>
    <tag k="addr:housenumber" v="49"/>
    <tag k="addr:street" v="Cassie Street"/>
    <tag k="addr:state" v="VT"/>
    <tag k="ref:vcgi:esiteid" v="900453"/>
  </node>
</osm>
