<?xml version="1.0" encoding="UTF-8"?>
<osm version="0.6" generator="JOSM" upload="false">
  <node id="-193" visible="true" lat="44.22730023" lon="-72.5048548">
    <!-- conflict: "144 Mollys Trail, , VT" No match in OSM, but a different address exists <5m away: "397 Beckley Hill Road, Barre Town, VT" -->
    <tag k="addr:housenumber" v="144"/>
    <tag k="addr:street" v="Mollys Trail"/>
    <tag k="addr:state" v="VT"/>
    <tag k="ref:vcgi:esiteid" v="10999"/>
  </node>
  <node id="-635" visible="true" lat="44.20632445" lon="-72.49181283">
    <!-- conflict: "39 Aljen Acres Drive, , VT" No match in OSM, but a different address exists <5m away: "16 East St Extension, Barre Town, VT" -->
    <tag k="addr:housenumber" v="39"/>
    <tag k="addr:street" v="Aljen Acres Drive"/>
    <tag k="addr:state" v="VT"/>
    <tag k="ref:vcgi:esiteid" v="11447"/>
  </node>
  <node id="-654" visible="true" lat="44.20578501" lon="-72.49151207">
    <!-- conflict: "86 Aljen Acres Drive, , VT" No match in OSM, but a different address exists <5m away: "9 East St Extension, Barre Town, VT" -->
    <tag k="addr:housenumber" v="86"/>
    <tag k="addr:street" v="Aljen Acres Drive"/>
    <tag k="addr:state" v="VT"/>
    <tag k="ref:vcgi:esiteid" v="11467"/>
  </node>
  <node id="-657" visible="true" lat="44.20591363" lon="-72.49207884">
    <!-- conflict: "91 Aljen Acres Drive, , VT" No match in OSM, but a different address exists <5m away: "10 East Street Extension, Barre Town, VT" -->
    <tag k="addr:housenumber" v="91"/>
    <tag k="addr:street" v="Aljen Acres Drive"/>
    <tag k="addr:state" v="VT"/>
    <tag k="ref:vcgi:esiteid" v="11470"/>
  </node>
  <node id="-663" visible="true" lat="44.20565334" lon="-72.49226199">
    <!-- conflict: "103 Aljen Acres Drive, , VT" No match in OSM, but a different address exists <5m away: "6 East St Extension, Barre Town, VT" -->
    <tag k="addr:housenumber" v="103"/>
    <tag k="addr:street" v="Aljen Acres Drive"/>
    <tag k="addr:state" v="VT"/>
    <tag k="ref:vcgi:esiteid" v="11477"/>
  </node>
  <node id="-677" visible="true" lat="44.20542453" lon="-72.49237328">
    <!-- conflict: "127 Aljen Acres Drive, , VT" No match in OSM, but a different address exists <5m away: "2 East St Extension, Barre Town, VT" -->
    <tag k="addr:housenumber" v="127"/>
    <tag k="addr:street" v="Aljen Acres Drive"/>
    <tag k="addr:state" v="VT"/>
    <tag k="ref:vcgi:esiteid" v="11491"/>
  </node>
  <node id="-1119" visible="true" lat="44.19010023" lon="-72.46986186">
    <!-- conflict: "73 Cobble Hill Meadows Road, , VT" No match in OSM, but a different address exists <5m away: "73 Cobble Hill Meadows, Barre Town, VT" -->
    <tag k="addr:housenumber" v="73"/>
    <tag k="addr:street" v="Cobble Hill Meadows Road"/>
    <tag k="addr:state" v="VT"/>
    <tag k="ref:vcgi:esiteid" v="11942"/>
  </node>
  <node id="-1124" visible="true" lat="44.19010581" lon="-72.4703169">
    <!-- conflict: "74 Cobble Hill Meadows Road, , VT" No match in OSM, but a different address exists <5m away: "74 Cobble Hill Meadows, Barre Town, VT" -->
    <tag k="addr:housenumber" v="74"/>
    <tag k="addr:street" v="Cobble Hill Meadows Road"/>
    <tag k="addr:state" v="VT"/>
    <tag k="ref:vcgi:esiteid" v="11947"/>
  </node>
  <node id="-1138" visible="true" lat="44.18958414" lon="-72.46989223">
    <!-- conflict: "67 Cobble Hill Meadows Road, , VT" No match in OSM, but a different address exists <5m away: "67 Cobble Hill Meadows, Barre Town, VT" -->
    <tag k="addr:housenumber" v="67"/>
    <tag k="addr:street" v="Cobble Hill Meadows Road"/>
    <tag k="addr:state" v="VT"/>
    <tag k="ref:vcgi:esiteid" v="11962"/>
  </node>
  <node id="-1139" visible="true" lat="44.18965351" lon="-72.47049817">
    <!-- conflict: "70 Cobble Hill Meadows Road, , VT" No match in OSM, but a different address exists <5m away: "70 Cobble Hill Meadows, Barre Town, VT" -->
    <tag k="addr:housenumber" v="70"/>
    <tag k="addr:street" v="Cobble Hill Meadows Road"/>
    <tag k="addr:state" v="VT"/>
    <tag k="ref:vcgi:esiteid" v="11963"/>
  </node>
  <node id="-1155" visible="true" lat="44.18929897" lon="-72.470054">
    <!-- conflict: "65 Cobble Hill Meadows Road, , VT" No match in OSM, but a different address exists <5m away: "65 Cobble Hill Meadows, Barre Town, VT" -->
    <tag k="addr:housenumber" v="65"/>
    <tag k="addr:street" v="Cobble Hill Meadows Road"/>
    <tag k="addr:state" v="VT"/>
    <tag k="ref:vcgi:esiteid" v="11980"/>
  </node>
  <node id="-1157" visible="true" lat="44.1893621" lon="-72.47062728">
    <!-- conflict: "64 Cobble Hill Meadows Road, , VT" No match in OSM, but a different address exists <5m away: "64 Cobble Hill Meadows, Barre Town, VT" -->
    <tag k="addr:housenumber" v="64"/>
    <tag k="addr:street" v="Cobble Hill Meadows Road"/>
    <tag k="addr:state" v="VT"/>
    <tag k="ref:vcgi:esiteid" v="11982"/>
  </node>
  <node id="-1164" visible="true" lat="44.18897428" lon="-72.47015523">
    <!-- conflict: "59 Cobble Hill Meadows Road, , VT" No match in OSM, but a different address exists <5m away: "59 Cobble Hill Meadows, Barre Town, VT" -->
    <tag k="addr:housenumber" v="59"/>
    <tag k="addr:street" v="Cobble Hill Meadows Road"/>
    <tag k="addr:state" v="VT"/>
    <tag k="ref:vcgi:esiteid" v="11989"/>
  </node>
  <node id="-1168" visible="true" lat="44.18902453" lon="-72.47085039">
    <!-- conflict: "60 Cobble Hill Meadows Road, , VT" No match in OSM, but a different address exists <5m away: "60 Cobble Hill Meadows, Barre Town, VT" -->
    <tag k="addr:housenumber" v="60"/>
    <tag k="addr:street" v="Cobble Hill Meadows Road"/>
    <tag k="addr:state" v="VT"/>
    <tag k="ref:vcgi:esiteid" v="11993"/>
  </node>
  <node id="-1178" visible="true" lat="44.18871913" lon="-72.47029051">
    <!-- conflict: "53 Cobble Hill Meadows Road, , VT" No match in OSM, but a different address exists <5m away: "53 Cobble Hill Meadows, Barre Town, VT" -->
    <tag k="addr:housenumber" v="53"/>
    <tag k="addr:street" v="Cobble Hill Meadows Road"/>
    <tag k="addr:state" v="VT"/>
    <tag k="ref:vcgi:esiteid" v="12005"/>
  </node>
  <node id="-1181" visible="true" lat="44.18876513" lon="-72.4709264">
    <!-- conflict: "54 Cobble Hill Meadows Road, , VT" No match in OSM, but a different address exists <5m away: "54 Cobble Hill Meadows, Barre Town, VT" -->
    <tag k="addr:housenumber" v="54"/>
    <tag k="addr:street" v="Cobble Hill Meadows Road"/>
    <tag k="addr:state" v="VT"/>
    <tag k="ref:vcgi:esiteid" v="12008"/>
  </node>
  <node id="-1193" visible="true" lat="44.18842159" lon="-72.47041258">
    <!-- conflict: "49 Cobble Hill Meadows Road, , VT" No match in OSM, but a different address exists <5m away: "49 Cobble Hill Meadows, Barre Town, VT" -->
    <tag k="addr:housenumber" v="49"/>
    <tag k="addr:street" v="Cobble Hill Meadows Road"/>
    <tag k="addr:state" v="VT"/>
    <tag k="ref:vcgi:esiteid" v="12021"/>
  </node>
  <node id="-1196" visible="true" lat="44.18847328" lon="-72.47100875">
    <!-- conflict: "50 Cobble Hill Meadows Road, , VT" No match in OSM, but a different address exists <5m away: "50 Cobble Hill Meadows, Barre Town, VT" -->
    <tag k="addr:housenumber" v="50"/>
    <tag k="addr:street" v="Cobble Hill Meadows Road"/>
    <tag k="addr:state" v="VT"/>
    <tag k="ref:vcgi:esiteid" v="12024"/>
  </node>
  <node id="-1200" visible="true" lat="44.18811212" lon="-72.4704986">
    <!-- conflict: "45 Cobble Hill Meadows Road, , VT" No match in OSM, but a different address exists <5m away: "45 Cobble Hill Meadows, Barre Town, VT" -->
    <tag k="addr:housenumber" v="45"/>
    <tag k="addr:street" v="Cobble Hill Meadows Road"/>
    <tag k="addr:state" v="VT"/>
    <tag k="ref:vcgi:esiteid" v="12028"/>
  </node>
  <node id="-1202" visible="true" lat="44.18812995" lon="-72.47112319">
    <!-- conflict: "46 Cobble Hill Meadows Road, , VT" No match in OSM, but a different address exists <5m away: "46 Cobble Hill Meadows, Barre Town, VT" -->
    <tag k="addr:housenumber" v="46"/>
    <tag k="addr:street" v="Cobble Hill Meadows Road"/>
    <tag k="addr:state" v="VT"/>
    <tag k="ref:vcgi:esiteid" v="12030"/>
  </node>
  <node id="-1205" visible="true" lat="44.1875191" lon="-72.47073261">
    <!-- conflict: "35 Cobble Hill Meadows Road, , VT" No match in OSM, but a different address exists <5m away: "35 Cobble Hill Meadows, Barre Town, VT" -->
    <tag k="addr:housenumber" v="35"/>
    <tag k="addr:street" v="Cobble Hill Meadows Road"/>
    <tag k="addr:state" v="VT"/>
    <tag k="ref:vcgi:esiteid" v="12033"/>
  </node>
  <node id="-1208" visible="true" lat="44.18778999" lon="-72.47128602">
    <!-- conflict: "40 Cobble Hill Meadows Road, , VT" No match in OSM, but a different address exists <5m away: "40 Cobble Hill Meadows, Barre Town, VT" -->
    <tag k="addr:housenumber" v="40"/>
    <tag k="addr:street" v="Cobble Hill Meadows Road"/>
    <tag k="addr:state" v="VT"/>
    <tag k="ref:vcgi:esiteid" v="12036"/>
  </node>
  <node id="-1211" visible="true" lat="44.18727988" lon="-72.470872">
    <!-- conflict: "33 Cobble Hill Meadows Road, , VT" No match in OSM, but a different address exists <5m away: "33 Cobble Hill Meadows, Barre Town, VT" -->
    <tag k="addr:housenumber" v="33"/>
    <tag k="addr:street" v="Cobble Hill Meadows Road"/>
    <tag k="addr:state" v="VT"/>
    <tag k="ref:vcgi:esiteid" v="12039"/>
  </node>
  <node id="-1219" visible="true" lat="44.18719807" lon="-72.47156473">
    <!-- conflict: "30 Cobble Hill Meadows Road, , VT" No match in OSM, but a different address exists <5m away: "30 Cobble Hill Meadows, Barre Town, VT" -->
    <tag k="addr:housenumber" v="30"/>
    <tag k="addr:street" v="Cobble Hill Meadows Road"/>
    <tag k="addr:state" v="VT"/>
    <tag k="ref:vcgi:esiteid" v="12048"/>
  </node>
  <node id="-1224" visible="true" lat="44.18694975" lon="-72.47098493">
    <!-- conflict: "27 Cobble Hill Meadows Road, , VT" No match in OSM, but a different address exists <5m away: "27 Cobble Hill Meadows, Barre Town, VT" -->
    <tag k="addr:housenumber" v="27"/>
    <tag k="addr:street" v="Cobble Hill Meadows Road"/>
    <tag k="addr:state" v="VT"/>
    <tag k="ref:vcgi:esiteid" v="12053"/>
  </node>
  <node id="-1230" visible="true" lat="44.18692382" lon="-72.47174026">
    <!-- conflict: "26 Cobble Hill Meadows Road, , VT" No match in OSM, but a different address exists <5m away: "26 Cobble Hill Meadows, Barre Town, VT" -->
    <tag k="addr:housenumber" v="26"/>
    <tag k="addr:street" v="Cobble Hill Meadows Road"/>
    <tag k="addr:state" v="VT"/>
    <tag k="ref:vcgi:esiteid" v="12059"/>
  </node>
  <node id="-1242" visible="true" lat="44.18661578" lon="-72.47179614">
    <!-- conflict: "22 Cobble Hill Meadows Road, , VT" No match in OSM, but a different address exists <5m away: "22 Cobble Hill Meadows, Barre Town, VT" -->
    <tag k="addr:housenumber" v="22"/>
    <tag k="addr:street" v="Cobble Hill Meadows Road"/>
    <tag k="addr:state" v="VT"/>
    <tag k="ref:vcgi:esiteid" v="12071"/>
  </node>
  <node id="-1251" visible="true" lat="44.18638046" lon="-72.47122737">
    <!-- conflict: "17 Cobble Hill Meadows Road, , VT" No match in OSM, but a different address exists <5m away: "17 Cobble Hill Meadows, Barre Town, VT" -->
    <tag k="addr:housenumber" v="17"/>
    <tag k="addr:street" v="Cobble Hill Meadows Road"/>
    <tag k="addr:state" v="VT"/>
    <tag k="ref:vcgi:esiteid" v="12080"/>
  </node>
  <node id="-1266" visible="true" lat="44.18613092" lon="-72.47201063">
    <!-- conflict: "16 Cobble Hill Meadows Road, , VT" No match in OSM, but a different address exists <5m away: "16 Cobble Hill Meadows, Barre Town, VT" -->
    <tag k="addr:housenumber" v="16"/>
    <tag k="addr:street" v="Cobble Hill Meadows Road"/>
    <tag k="addr:state" v="VT"/>
    <tag k="ref:vcgi:esiteid" v="12096"/>
  </node>
  <node id="-1337" visible="true" lat="44.18375487" lon="-72.46604099">
    <!-- conflict: "22 East Cobble Hill Road, , VT" Fuzzy match to "22 Cobble Hill Meadows, Barre Town, VT" -->
    <tag k="addr:housenumber" v="22"/>
    <tag k="addr:street" v="East Cobble Hill Road"/>
    <tag k="addr:state" v="VT"/>
    <tag k="ref:vcgi:esiteid" v="12171"/>
  </node>
  <node id="-1550" visible="true" lat="44.17519773" lon="-72.53966921">
    <!-- conflict: "45 Birchwood Park Drive, , VT" Fuzzy match to "45 East Birchwood Park Drive, Barre Town, VT" -->
    <tag k="addr:housenumber" v="45"/>
    <tag k="addr:street" v="Birchwood Park Drive"/>
    <tag k="addr:state" v="VT"/>
    <tag k="ref:vcgi:esiteid" v="12403"/>
  </node>
  <node id="-1558" visible="true" lat="44.17525474" lon="-72.53809355">
    <!-- conflict: "17 Birchwood East, , VT" No match in OSM, but a different address exists <5m away: "17 East Birchwood Park Drive, Barre Town, VT" -->
    <tag k="addr:housenumber" v="17"/>
    <tag k="addr:street" v="Birchwood East"/>
    <tag k="addr:state" v="VT"/>
    <tag k="ref:vcgi:esiteid" v="12412"/>
  </node>
  <node id="-1566" visible="true" lat="44.17517356" lon="-72.53898321">
    <!-- conflict: "9 Birchwood East, , VT" No match in OSM, but a different address exists <5m away: "9 East Birchwood Park Drive, Barre Town, VT" -->
    <tag k="addr:housenumber" v="9"/>
    <tag k="addr:street" v="Birchwood East"/>
    <tag k="addr:state" v="VT"/>
    <tag k="ref:vcgi:esiteid" v="12421"/>
  </node>
  <node id="-1979" visible="true" lat="44.16485002" lon="-72.54464128">
    <!-- conflict: "34 Miller Road Extension, , VT" Fuzzy match to "34 Miller Road, Barre Town, VT" -->
    <tag k="addr:housenumber" v="34"/>
    <tag k="addr:street" v="Miller Road Extension"/>
    <tag k="addr:state" v="VT"/>
    <tag k="ref:vcgi:esiteid" v="12872"/>
  </node>
  <node id="-1992" visible="true" lat="44.16407287" lon="-72.54664394">
    <!-- conflict: "19 Cedar Cliff, , VT" Fuzzy match to "19 Cedar Cliff Road, Barre Town, VT" -->
    <tag k="addr:housenumber" v="19"/>
    <tag k="addr:street" v="Cedar Cliff"/>
    <tag k="addr:state" v="VT"/>
    <tag k="ref:vcgi:esiteid" v="12886"/>
  </node>
  <node id="-1995" visible="true" lat="44.16378021" lon="-72.54162597">
    <!-- conflict: "5 Miller Road Extension, , VT" Fuzzy match to "5 Miller Rd Extension, Barre Town, VT" -->
    <tag k="addr:housenumber" v="5"/>
    <tag k="addr:street" v="Miller Road Extension"/>
    <tag k="addr:state" v="VT"/>
    <tag k="ref:vcgi:esiteid" v="12889"/>
  </node>
  <node id="-1997" visible="true" lat="44.16374137" lon="-72.54507404">
    <!-- conflict: "3 Cedar Cliff, , VT" Fuzzy match to "3 Cedar Cliff Road, Barre Town, VT" -->
    <tag k="addr:housenumber" v="3"/>
    <tag k="addr:street" v="Cedar Cliff"/>
    <tag k="addr:state" v="VT"/>
    <tag k="ref:vcgi:esiteid" v="12891"/>
  </node>
  <node id="-2000" visible="true" lat="44.16368021" lon="-72.54757814">
    <!-- conflict: "29 Cedar Cliff, , VT" Fuzzy match to "29 Cedar Cliff Road, Barre Town, VT" -->
    <tag k="addr:housenumber" v="29"/>
    <tag k="addr:street" v="Cedar Cliff"/>
    <tag k="addr:state" v="VT"/>
    <tag k="ref:vcgi:esiteid" v="12894"/>
  </node>
  <node id="-2002" visible="true" lat="44.16353225" lon="-72.54608154">
    <!-- conflict: "14 Cedar Cliff, , VT" Fuzzy match to "14 Cedar Cliff Road, Barre Town, VT" -->
    <tag k="addr:housenumber" v="14"/>
    <tag k="addr:street" v="Cedar Cliff"/>
    <tag k="addr:state" v="VT"/>
    <tag k="ref:vcgi:esiteid" v="12896"/>
  </node>
  <node id="-2011" visible="true" lat="44.16319295" lon="-72.54566161">
    <!-- conflict: "6 Cedar Cliff, , VT" Fuzzy match to "6 Cedar Cliff Road, Barre Town, VT" -->
    <tag k="addr:housenumber" v="6"/>
    <tag k="addr:street" v="Cedar Cliff"/>
    <tag k="addr:state" v="VT"/>
    <tag k="ref:vcgi:esiteid" v="12905"/>
  </node>
  <node id="-2013" visible="true" lat="44.16309356" lon="-72.54456329">
    <!-- conflict: "49 Miller Road Extension, , VT" Fuzzy match to "49 Miller Road, Barre Town, VT" -->
    <tag k="addr:housenumber" v="49"/>
    <tag k="addr:street" v="Miller Road Extension"/>
    <tag k="addr:state" v="VT"/>
    <tag k="ref:vcgi:esiteid" v="12908"/>
  </node>
  <node id="-2016" visible="true" lat="44.16304016" lon="-72.54800414">
    <!-- conflict: "39 Cedar Cliff, , VT" Fuzzy match to "39 Cedar Cliff Road, Barre Town, VT" -->
    <tag k="addr:housenumber" v="39"/>
    <tag k="addr:street" v="Cedar Cliff"/>
    <tag k="addr:state" v="VT"/>
    <tag k="ref:vcgi:esiteid" v="12911"/>
  </node>
  <node id="-2026" visible="true" lat="44.16275787" lon="-72.54581451">
    <!-- conflict: "64 Miller Road Extension, , VT" Fuzzy match to "64 Miller Road, Barre Town, VT" -->
    <tag k="addr:housenumber" v="64"/>
    <tag k="addr:street" v="Miller Road Extension"/>
    <tag k="addr:state" v="VT"/>
    <tag k="ref:vcgi:esiteid" v="12921"/>
  </node>
  <node id="-2032" visible="true" lat="44.16258621" lon="-72.54713439">
    <!-- conflict: "40 Cedar Cliff, , VT" Fuzzy match to "40 Cedar Cliff Road, Barre Town, VT" -->
    <tag k="addr:housenumber" v="40"/>
    <tag k="addr:street" v="Cedar Cliff"/>
    <tag k="addr:state" v="VT"/>
    <tag k="ref:vcgi:esiteid" v="12927"/>
  </node>
  <node id="-2033" visible="true" lat="44.16252899" lon="-72.54501342">
    <!-- conflict: "59 Miller Road Extension, , VT" Fuzzy match to "59 Miller Road, Barre Town, VT" -->
    <tag k="addr:housenumber" v="59"/>
    <tag k="addr:street" v="Miller Road Extension"/>
    <tag k="addr:state" v="VT"/>
    <tag k="ref:vcgi:esiteid" v="12928"/>
  </node>
  <node id="-2041" visible="true" lat="44.16226441" lon="-72.5482083">
    <!-- conflict: "43 Cedar Cliff, , VT" Fuzzy match to "43 Cedar Cliff Road, Barre Town, VT" -->
    <tag k="addr:housenumber" v="43"/>
    <tag k="addr:street" v="Cedar Cliff"/>
    <tag k="addr:state" v="VT"/>
    <tag k="ref:vcgi:esiteid" v="12937"/>
  </node>
  <node id="-2043" visible="true" lat="44.16218185" lon="-72.5465393">
    <!-- conflict: "62 Cedar Cliff, , VT" Fuzzy match to "62 Cedar Cliff Road, Barre Town, VT" -->
    <tag k="addr:housenumber" v="62"/>
    <tag k="addr:street" v="Cedar Cliff"/>
    <tag k="addr:state" v="VT"/>
    <tag k="ref:vcgi:esiteid" v="12939"/>
  </node>
  <node id="-2044" visible="true" lat="44.16204299" lon="-72.54744367">
    <!-- conflict: "49 Cedar Cliff, , VT" Fuzzy match to "49 Cedar Cliff Road, Barre Town, VT" -->
    <tag k="addr:housenumber" v="49"/>
    <tag k="addr:street" v="Cedar Cliff"/>
    <tag k="addr:state" v="VT"/>
    <tag k="ref:vcgi:esiteid" v="12940"/>
  </node>
  <node id="-2051" visible="true" lat="44.16180862" lon="-72.54576975">
    <!-- conflict: "73 Miller Road Extension, , VT" Fuzzy match to "73 Miller Road, Barre Town, VT" -->
    <tag k="addr:housenumber" v="73"/>
    <tag k="addr:street" v="Miller Road Extension"/>
    <tag k="addr:state" v="VT"/>
    <tag k="ref:vcgi:esiteid" v="12948"/>
  </node>
  <node id="-2054" visible="true" lat="44.16184616" lon="-72.54705047">
    <!-- conflict: "55 Cedar Cliff, , VT" Fuzzy match to "55 Cedar Cliff Road, Barre Town, VT" -->
    <tag k="addr:housenumber" v="55"/>
    <tag k="addr:street" v="Cedar Cliff"/>
    <tag k="addr:state" v="VT"/>
    <tag k="ref:vcgi:esiteid" v="12951"/>
  </node>
  <node id="-2075" visible="true" lat="44.16150987" lon="-72.54861167">
    <!-- conflict: "100 Miller Road Extension, , VT" Fuzzy match to "100 Miller Road, Barre Town, VT" -->
    <tag k="addr:housenumber" v="100"/>
    <tag k="addr:street" v="Miller Road Extension"/>
    <tag k="addr:state" v="VT"/>
    <tag k="ref:vcgi:esiteid" v="12973"/>
  </node>
  <node id="-2130" visible="true" lat="44.16080997" lon="-72.54746207">
    <!-- conflict: "95 Miller Road Extension, , VT" Fuzzy match to "95 Miller Road, Barre Town, VT" -->
    <tag k="addr:housenumber" v="95"/>
    <tag k="addr:street" v="Miller Road Extension"/>
    <tag k="addr:state" v="VT"/>
    <tag k="ref:vcgi:esiteid" v="13035"/>
  </node>
  <node id="-2153" visible="true" lat="44.16046942" lon="-72.54829139">
    <!-- conflict: "103 Miller Road Extension, , VT" Fuzzy match to "103 Miller Road, Barre Town, VT" -->
    <tag k="addr:housenumber" v="103"/>
    <tag k="addr:street" v="Miller Road Extension"/>
    <tag k="addr:state" v="VT"/>
    <tag k="ref:vcgi:esiteid" v="13058"/>
  </node>
  <node id="-2179" visible="true" lat="44.1601042" lon="-72.54887562">
    <!-- conflict: "113 Miller Road Extension, , VT" Fuzzy match to "113 Miller Road, Barre Town, VT" -->
    <tag k="addr:housenumber" v="113"/>
    <tag k="addr:street" v="Miller Road Extension"/>
    <tag k="addr:state" v="VT"/>
    <tag k="ref:vcgi:esiteid" v="13088"/>
  </node>
  <node id="-2334" visible="true" lat="44.15824122" lon="-72.47106413">
    <!-- conflict: "1 Milano Hill, , VT" Fuzzy match to "1 Milano Hollow, Barre Town, VT" -->
    <tag k="addr:housenumber" v="1"/>
    <tag k="addr:street" v="Milano Hill"/>
    <tag k="addr:state" v="VT"/>
    <tag k="ref:vcgi:esiteid" v="13258"/>
  </node>
  <node id="-2875" visible="true" lat="44.18752916" lon="-72.47140616">
    <!-- conflict: "36 Cobble Hill Meadows Road, , VT" No match in OSM, but a different address exists <5m away: "36 Cobble Hill Meadows, Barre Town, VT" -->
    <tag k="addr:housenumber" v="36"/>
    <tag k="addr:street" v="Cobble Hill Meadows Road"/>
    <tag k="addr:state" v="VT"/>
    <tag k="ref:vcgi:esiteid" v="13844"/>
  </node>
  <node id="-2952" visible="true" lat="44.18786153" lon="-72.47060529">
    <!-- conflict: "41 Cobble Hill Meadows Road, , VT" No match in OSM, but a different address exists <5m away: "41 Cobble Hill Meadows, Barre Town, VT" -->
    <tag k="addr:housenumber" v="41"/>
    <tag k="addr:street" v="Cobble Hill Meadows Road"/>
    <tag k="addr:state" v="VT"/>
    <tag k="ref:vcgi:esiteid" v="13923"/>
  </node>
  <node id="-2953" visible="true" lat="44.18666812" lon="-72.47110233">
    <!-- conflict: "23 Cobble Hill Meadows Road, , VT" No match in OSM, but a different address exists <5m away: "23 Cobble Hill Meadows, Barre Town, VT" -->
    <tag k="addr:housenumber" v="23"/>
    <tag k="addr:street" v="Cobble Hill Meadows Road"/>
    <tag k="addr:state" v="VT"/>
    <tag k="ref:vcgi:esiteid" v="13924"/>
  </node>
  <node id="-2954" visible="true" lat="44.18581987" lon="-72.47170746">
    <!-- conflict: "12 Cobble Hill Meadows Road, , VT" No match in OSM, but a different address exists <5m away: "12 Cobble Hill Meadows, Barre Town, VT" -->
    <tag k="addr:housenumber" v="12"/>
    <tag k="addr:street" v="Cobble Hill Meadows Road"/>
    <tag k="addr:state" v="VT"/>
    <tag k="ref:vcgi:esiteid" v="13925"/>
  </node>
  <node id="-2955" visible="true" lat="44.1855843" lon="-72.47100139">
    <!-- conflict: "7 Cobble Hill Meadows Road, , VT" No match in OSM, but a different address exists <5m away: "7 Cobble Hill Meadows, Barre Town, VT" -->
    <tag k="addr:housenumber" v="7"/>
    <tag k="addr:street" v="Cobble Hill Meadows Road"/>
    <tag k="addr:state" v="VT"/>
    <tag k="ref:vcgi:esiteid" v="13926"/>
  </node>
  <node id="-2956" visible="true" lat="44.18528359" lon="-72.47103574">
    <!-- conflict: "3 Cobble Hill Meadows Road, , VT" No match in OSM, but a different address exists <5m away: "3 Cobble Hill Meadows, Barre Town, VT" -->
    <tag k="addr:housenumber" v="3"/>
    <tag k="addr:street" v="Cobble Hill Meadows Road"/>
    <tag k="addr:state" v="VT"/>
    <tag k="ref:vcgi:esiteid" v="13927"/>
  </node>
  <node id="-3287" visible="true" lat="44.17167421" lon="-72.46383925">
    <!-- conflict: "764 East Barre Road, , VT" No match in OSM, but a different address exists <5m away: "748 East Barre Road, Barre Town, VT" -->
    <tag k="addr:housenumber" v="764"/>
    <tag k="addr:street" v="East Barre Road"/>
    <tag k="addr:state" v="VT"/>
    <tag k="ref:vcgi:esiteid" v="328888"/>
  </node>
  <node id="-3338" visible="true" lat="44.15786492" lon="-72.47103708">
    <!-- conflict: "4 Milano Hill, , VT" Fuzzy match to "4 Milano Hollow, Barre Town, VT" -->
    <tag k="addr:housenumber" v="4"/>
    <tag k="addr:street" v="Milano Hill"/>
    <tag k="addr:state" v="VT"/>
    <tag k="ref:vcgi:esiteid" v="329677"/>
  </node>
  <node id="-3340" visible="true" lat="44.227971" lon="-72.52464898">
    <!-- conflict: "312 Richards Farm Lane, , VT" No match in OSM, but a different address exists <5m away: "360 School Road, Barre Town, VT" -->
    <tag k="addr:housenumber" v="312"/>
    <tag k="addr:street" v="Richards Farm Lane"/>
    <tag k="addr:state" v="VT"/>
    <tag k="ref:vcgi:esiteid" v="329875"/>
  </node>
  <node id="-3353" visible="true" lat="44.15140401" lon="-72.44307378">
    <!-- conflict: "18 Remington Drive, , VT" No match in OSM, but a different address exists <5m away: "160 Washington Road, Barre Town, VT" -->
    <tag k="addr:housenumber" v="18"/>
    <tag k="addr:street" v="Remington Drive"/>
    <tag k="addr:state" v="VT"/>
    <tag k="ref:vcgi:esiteid" v="336936"/>
  </node>
  <node id="-3380" visible="true" lat="44.15092683" lon="-72.44237432">
    <!-- conflict: "44 Remington Drive, , VT" No match in OSM, but a different address exists <5m away: "166 Washington Road, Barre Town, VT" -->
    <tag k="addr:housenumber" v="44"/>
    <tag k="addr:street" v="Remington Drive"/>
    <tag k="addr:state" v="VT"/>
    <tag k="ref:vcgi:esiteid" v="344534"/>
  </node>
  <node id="-3405" visible="true" lat="44.21442952" lon="-72.51316924">
    <!-- conflict: "86 Blake Drive, , VT" No match in OSM, but a different address exists <5m away: " Blake Drive, Barre Town, VT" -->
    <tag k="addr:housenumber" v="86"/>
    <tag k="addr:street" v="Blake Drive"/>
    <tag k="addr:state" v="VT"/>
    <tag k="ref:vcgi:esiteid" v="365282"/>
  </node>
  <node id="-3483" visible="true" lat="44.16098333" lon="-72.54901154">
    <!-- conflict: "106 Miller Road Extension, , VT" Fuzzy match to "106 Miller Road, Barre Town, VT" -->
    <tag k="addr:housenumber" v="106"/>
    <tag k="addr:street" v="Miller Road Extension"/>
    <tag k="addr:state" v="VT"/>
    <tag k="ref:vcgi:esiteid" v="611033"/>
  </node>
  <node id="-3498" visible="true" lat="44.19082957" lon="-72.48105871">
    <!-- conflict: "12 West Cobble Hill Road, , VT" Fuzzy match to "12 Cobble Hill Meadows, Barre Town, VT" -->
    <tag k="addr:housenumber" v="12"/>
    <tag k="addr:street" v="West Cobble Hill Road"/>
    <tag k="addr:state" v="VT"/>
    <tag k="ref:vcgi:esiteid" v="617576"/>
  </node>
  <node id="-3590" visible="true" lat="44.21405723" lon="-72.51397936">
    <!-- conflict: "39 Blake Drive, , VT" No match in OSM, but a different address exists <5m away: " Blake Drive, Barre Town, VT" -->
    <tag k="addr:housenumber" v="39"/>
    <tag k="addr:street" v="Blake Drive"/>
    <tag k="addr:state" v="VT"/>
    <tag k="ref:vcgi:esiteid" v="759130"/>
  </node>
  <node id="-3591" visible="true" lat="44.2142537" lon="-72.51384531">
    <!-- conflict: "14 Payton Lane, , VT" No match in OSM, but a different address exists <5m away: " Blake Drive, Barre Town, VT" -->
    <tag k="addr:housenumber" v="14"/>
    <tag k="addr:street" v="Payton Lane"/>
    <tag k="addr:state" v="VT"/>
    <tag k="ref:vcgi:esiteid" v="759131"/>
  </node>
  <node id="-3592" visible="true" lat="44.21430366" lon="-72.51418171">
    <!-- conflict: "28 Payton Lane, , VT" No match in OSM, but a different address exists <5m away: " Blake Drive, Barre Town, VT" -->
    <tag k="addr:housenumber" v="28"/>
    <tag k="addr:street" v="Payton Lane"/>
    <tag k="addr:state" v="VT"/>
    <tag k="ref:vcgi:esiteid" v="759132"/>
  </node>
  <node id="-3593" visible="true" lat="44.21456417" lon="-72.51412847">
    <!-- conflict: "29 Payton Lane, , VT" No match in OSM, but a different address exists <5m away: " Blake Drive, Barre Town, VT" -->
    <tag k="addr:housenumber" v="29"/>
    <tag k="addr:street" v="Payton Lane"/>
    <tag k="addr:state" v="VT"/>
    <tag k="ref:vcgi:esiteid" v="759133"/>
  </node>
  <node id="-3594" visible="true" lat="44.21452183" lon="-72.5137982">
    <!-- conflict: "13 Payton Lane, , VT" No match in OSM, but a different address exists <5m away: " Blake Drive, Barre Town, VT" -->
    <tag k="addr:housenumber" v="13"/>
    <tag k="addr:street" v="Payton Lane"/>
    <tag k="addr:state" v="VT"/>
    <tag k="ref:vcgi:esiteid" v="759134"/>
  </node>
  <node id="-3627" visible="true" lat="44.21415674" lon="-72.51318892">
    <!-- conflict: "72 Blake Drive, , VT" No match in OSM, but a different address exists <5m away: "71 Blake Drive, Barre Town, VT" -->
    <tag k="addr:housenumber" v="72"/>
    <tag k="addr:street" v="Blake Drive"/>
    <tag k="addr:state" v="VT"/>
    <tag k="ref:vcgi:esiteid" v="759167"/>
  </node>
  <node id="-3628" visible="true" lat="44.21542307" lon="-72.51219675">
    <!-- conflict: "91 Ivan Drive, , VT" No match in OSM, but a different address exists <5m away: " Ivan Drive, Barre Town, VT" -->
    <tag k="addr:housenumber" v="91"/>
    <tag k="addr:street" v="Ivan Drive"/>
    <tag k="addr:state" v="VT"/>
    <tag k="ref:vcgi:esiteid" v="759168"/>
  </node>
  <node id="-3629" visible="true" lat="44.21512937" lon="-72.51228337">
    <!-- conflict: "90 Ivan Drive, , VT" No match in OSM, but a different address exists <5m away: " Ivan Drive, Barre Town, VT" -->
    <tag k="addr:housenumber" v="90"/>
    <tag k="addr:street" v="Ivan Drive"/>
    <tag k="addr:state" v="VT"/>
    <tag k="ref:vcgi:esiteid" v="759169"/>
  </node>
  <node id="-3630" visible="true" lat="44.21508995" lon="-72.51198478">
    <!-- conflict: "84 Ivan Drive, , VT" No match in OSM, but a different address exists <5m away: " Ivan Drive, Barre Town, VT" -->
    <tag k="addr:housenumber" v="84"/>
    <tag k="addr:street" v="Ivan Drive"/>
    <tag k="addr:state" v="VT"/>
    <tag k="ref:vcgi:esiteid" v="759170"/>
  </node>
  <node id="-3642" visible="true" lat="44.21537072" lon="-72.51184578">
    <!-- conflict: "85 Ivan Drive, , VT" No match in OSM, but a different address exists <5m away: " Ivan Drive, Barre Town, VT" -->
    <tag k="addr:housenumber" v="85"/>
    <tag k="addr:street" v="Ivan Drive"/>
    <tag k="addr:state" v="VT"/>
    <tag k="ref:vcgi:esiteid" v="759182"/>
  </node>
  <node id="-3647" visible="true" lat="44.21357528" lon="-72.51175272">
    <!-- conflict: "41 Alex Drive, , VT" No match in OSM, but a different address exists <5m away: " Alex Drive, Barre Town, VT" -->
    <tag k="addr:housenumber" v="41"/>
    <tag k="addr:street" v="Alex Drive"/>
    <tag k="addr:state" v="VT"/>
    <tag k="ref:vcgi:esiteid" v="759187"/>
  </node>
  <node id="-3805" visible="true" lat="44.16407236" lon="-72.54596994">
    <!-- conflict: "13 Cedar Cliff, , VT" Fuzzy match to "13 Cedar Cliff Road, Barre Town, VT" -->
    <tag k="addr:housenumber" v="13"/>
    <tag k="addr:street" v="Cedar Cliff"/>
    <tag k="addr:state" v="VT"/>
    <tag k="ref:vcgi:esiteid" v="900518"/>
  </node>
</osm>
