<?xml version="1.0" encoding="UTF-8"?>
<osm version="0.6" generator="JOSM">
  <node id="-109" visible="true" lat="44.21357369" lon="-72.52229151">
    <tag k="addr:city" v="Barre City"/>
    <tag k="addr:housenumber" v="1"/>
    <tag k="addr:street" v="Packard Street"/>
    <tag k="addr:state" v="VT"/>
    <tag k="ref:vcgi:esiteid" v="7717"/>
  </node>
  <node id="-111" visible="true" lat="44.21348284" lon="-72.52446015">
    <tag k="addr:city" v="Barre City"/>
    <tag k="addr:housenumber" v="825"/>
    <tag k="addr:street" v="North Main Street"/>
    <tag k="addr:state" v="VT"/>
    <tag k="ref:vcgi:esiteid" v="7721"/>
  </node>
  <node id="-112" visible="true" lat="44.21343033" lon="-72.52409668">
    <tag k="addr:city" v="Barre City"/>
    <tag k="addr:housenumber" v="821"/>
    <tag k="addr:street" v="North Main Street"/>
    <tag k="addr:state" v="VT"/>
    <tag k="ref:vcgi:esiteid" v="7722"/>
  </node>
  <node id="-114" visible="true" lat="44.2133002" lon="-72.52288119">
    <tag k="addr:city" v="Barre City"/>
    <tag k="addr:housenumber" v="789"/>
    <tag k="addr:street" v="North Main Street"/>
    <tag k="addr:state" v="VT"/>
    <tag k="ref:vcgi:esiteid" v="7726"/>
  </node>
  <node id="-116" visible="true" lat="44.21267371" lon="-72.51907494">
    <tag k="addr:city" v="Barre City"/>
    <tag k="addr:housenumber" v="22"/>
    <tag k="addr:street" v="Richardson Road"/>
    <tag k="addr:state" v="VT"/>
    <tag k="ref:vcgi:esiteid" v="7730"/>
  </node>
  <node id="-118" visible="true" lat="44.21237343" lon="-72.51897123">
    <tag k="addr:city" v="Barre City"/>
    <tag k="addr:housenumber" v="14"/>
    <tag k="addr:street" v="Richardson Road"/>
    <tag k="addr:state" v="VT"/>
    <tag k="ref:vcgi:esiteid" v="7732"/>
  </node>
  <node id="-122" visible="true" lat="44.21184484" lon="-72.51912674">
    <tag k="addr:city" v="Barre City"/>
    <tag k="addr:housenumber" v="2"/>
    <tag k="addr:street" v="Richardson Road"/>
    <tag k="addr:state" v="VT"/>
    <tag k="ref:vcgi:esiteid" v="7741"/>
  </node>
  <node id="-128" visible="true" lat="44.21139654" lon="-72.51776657">
    <tag k="addr:city" v="Barre City"/>
    <tag k="addr:housenumber" v="3"/>
    <tag k="addr:street" v="Richardson Road"/>
    <tag k="addr:state" v="VT"/>
    <tag k="ref:vcgi:esiteid" v="7749"/>
  </node>
  <node id="-142" visible="true" lat="44.21094714" lon="-72.50339277">
    <tag k="addr:city" v="Barre City"/>
    <tag k="addr:housenumber" v="68"/>
    <tag k="addr:street" v="Farwell Street"/>
    <tag k="addr:state" v="VT"/>
    <tag k="ref:vcgi:esiteid" v="7766"/>
  </node>
  <node id="-158" visible="true" lat="44.20998764" lon="-72.52083587">
    <tag k="addr:city" v="Barre City"/>
    <tag k="addr:housenumber" v="62"/>
    <tag k="addr:street" v="Treatment Plant Drive"/>
    <tag k="addr:state" v="VT"/>
    <tag k="ref:vcgi:esiteid" v="7783"/>
  </node>
  <node id="-173" visible="true" lat="44.20967102" lon="-72.51625824">
    <tag k="addr:city" v="Barre City"/>
    <tag k="addr:housenumber" v="3"/>
    <tag k="addr:street" v="Auburn Street"/>
    <tag k="addr:state" v="VT"/>
    <tag k="ref:vcgi:esiteid" v="7800"/>
  </node>
  <node id="-186" visible="true" lat="44.2092737" lon="-72.51647053">
    <tag k="addr:city" v="Barre City"/>
    <tag k="addr:housenumber" v="16"/>
    <tag k="addr:street" v="Willey Street"/>
    <tag k="addr:state" v="VT"/>
    <tag k="ref:vcgi:esiteid" v="7815"/>
  </node>
  <node id="-187" visible="true" lat="44.20922984" lon="-72.51608552">
    <tag k="addr:city" v="Barre City"/>
    <tag k="addr:housenumber" v="6"/>
    <tag k="addr:street" v="Willey Street"/>
    <tag k="addr:state" v="VT"/>
    <tag k="ref:vcgi:esiteid" v="7816"/>
  </node>
  <node id="-190" visible="true" lat="44.20916888" lon="-72.51705432">
    <tag k="addr:city" v="Barre City"/>
    <tag k="addr:housenumber" v="22"/>
    <tag k="addr:street" v="Willey Street"/>
    <tag k="addr:state" v="VT"/>
    <tag k="ref:vcgi:esiteid" v="7820"/>
  </node>
  <node id="-193" visible="true" lat="44.20913495" lon="-72.51776019">
    <tag k="addr:city" v="Barre City"/>
    <tag k="addr:housenumber" v="34"/>
    <tag k="addr:street" v="Willey Street"/>
    <tag k="addr:state" v="VT"/>
    <tag k="ref:vcgi:esiteid" v="7826"/>
  </node>
  <node id="-194" visible="true" lat="44.20905304" lon="-72.51826477">
    <tag k="addr:city" v="Barre City"/>
    <tag k="addr:housenumber" v="42"/>
    <tag k="addr:street" v="Willey Street"/>
    <tag k="addr:state" v="VT"/>
    <tag k="ref:vcgi:esiteid" v="7827"/>
  </node>
  <node id="-197" visible="true" lat="44.20909935" lon="-72.51801014">
    <tag k="addr:city" v="Barre City"/>
    <tag k="addr:housenumber" v="38"/>
    <tag k="addr:street" v="Willey Street"/>
    <tag k="addr:state" v="VT"/>
    <tag k="ref:vcgi:esiteid" v="7830"/>
  </node>
  <node id="-207" visible="true" lat="44.20922129" lon="-72.51920086">
    <tag k="addr:city" v="Barre City"/>
    <tag k="addr:housenumber" v="54"/>
    <tag k="addr:street" v="Willey Street"/>
    <tag k="addr:state" v="VT"/>
    <tag k="ref:vcgi:esiteid" v="7840"/>
  </node>
  <node id="-750" visible="true" lat="44.20319335" lon="-72.50391887">
    <tag k="addr:city" v="Barre City"/>
    <tag k="addr:housenumber" v="20"/>
    <tag k="addr:street" v="Auditorium Hill"/>
    <tag k="addr:state" v="VT"/>
    <tag k="ref:vcgi:esiteid" v="8455"/>
  </node>
  <node id="-863" visible="true" lat="44.20226503" lon="-72.50698572">
    <tag k="addr:city" v="Barre City"/>
    <tag k="addr:housenumber" v="377"/>
    <tag k="addr:street" v="North Main Street"/>
    <tag k="addr:state" v="VT"/>
    <tag k="ref:vcgi:esiteid" v="8586"/>
  </node>
  <node id="-1023" visible="true" lat="44.20092034" lon="-72.49794921">
    <tag k="addr:city" v="Barre City"/>
    <tag k="addr:housenumber" v="126"/>
    <tag k="addr:street" v="Elm Street"/>
    <tag k="addr:state" v="VT"/>
    <tag k="ref:vcgi:esiteid" v="8773"/>
  </node>
  <node id="-1027" visible="true" lat="44.20080332" lon="-72.49756401">
    <tag k="addr:city" v="Barre City"/>
    <tag k="addr:housenumber" v="134"/>
    <tag k="addr:street" v="Elm Street"/>
    <tag k="addr:state" v="VT"/>
    <tag k="ref:vcgi:esiteid" v="8777"/>
  </node>
  <node id="-1035" visible="true" lat="44.20074407" lon="-72.48836698">
    <tag k="addr:city" v="Barre City"/>
    <tag k="addr:housenumber" v="15"/>
    <tag k="addr:street" v="Cassie Street"/>
    <tag k="addr:state" v="VT"/>
    <tag k="ref:vcgi:esiteid" v="8787"/>
  </node>
  <node id="-1039" visible="true" lat="44.20072561" lon="-72.49695654">
    <tag k="addr:city" v="Barre City"/>
    <tag k="addr:housenumber" v="142"/>
    <tag k="addr:street" v="Elm Street"/>
    <tag k="addr:state" v="VT"/>
    <tag k="ref:vcgi:esiteid" v="8791"/>
  </node>
  <node id="-1052" visible="true" lat="44.20050068" lon="-72.49769542">
    <tag k="addr:city" v="Barre City"/>
    <tag k="addr:housenumber" v="123"/>
    <tag k="addr:street" v="Elm Street"/>
    <tag k="addr:state" v="VT"/>
    <tag k="ref:vcgi:esiteid" v="8806"/>
  </node>
  <node id="-1060" visible="true" lat="44.20052909" lon="-72.49972326">
    <tag k="addr:city" v="Barre City"/>
    <tag k="addr:housenumber" v="15"/>
    <tag k="addr:street" v="Walnut Street"/>
    <tag k="addr:state" v="VT"/>
    <tag k="ref:vcgi:esiteid" v="8815"/>
  </node>
  <node id="-1066" visible="true" lat="44.20045881" lon="-72.49737783">
    <tag k="addr:city" v="Barre City"/>
    <tag k="addr:housenumber" v="133"/>
    <tag k="addr:street" v="Elm Street"/>
    <tag k="addr:state" v="VT"/>
    <tag k="ref:vcgi:esiteid" v="8821"/>
  </node>
  <node id="-1080" visible="true" lat="44.20044326" lon="-72.49815368">
    <tag k="addr:city" v="Barre City"/>
    <tag k="addr:housenumber" v="115"/>
    <tag k="addr:street" v="Elm Street"/>
    <tag k="addr:state" v="VT"/>
    <tag k="ref:vcgi:esiteid" v="8836"/>
  </node>
  <node id="-1086" visible="true" lat="44.20040512" lon="-72.4970169">
    <tag k="addr:city" v="Barre City"/>
    <tag k="addr:housenumber" v="8"/>
    <tag k="addr:street" v="Wendell Place"/>
    <tag k="addr:state" v="VT"/>
    <tag k="ref:vcgi:esiteid" v="8843"/>
  </node>
  <node id="-1096" visible="true" lat="44.20020096" lon="-72.49948398">
    <tag k="addr:city" v="Barre City"/>
    <tag k="addr:housenumber" v="26"/>
    <tag k="addr:street" v="Franklin Street"/>
    <tag k="addr:state" v="VT"/>
    <tag k="ref:vcgi:esiteid" v="8856"/>
  </node>
  <node id="-1099" visible="true" lat="44.20032501" lon="-72.49826049">
    <tag k="addr:city" v="Barre City"/>
    <tag k="addr:housenumber" v="62"/>
    <tag k="addr:street" v="Tremont Street"/>
    <tag k="addr:state" v="VT"/>
    <tag k="ref:vcgi:esiteid" v="8859"/>
  </node>
  <node id="-1101" visible="true" lat="44.20035675" lon="-72.49778581">
    <tag k="addr:city" v="Barre City"/>
    <tag k="addr:housenumber" v="8"/>
    <tag k="addr:street" v="Hall Street"/>
    <tag k="addr:state" v="VT"/>
    <tag k="ref:vcgi:esiteid" v="8861"/>
  </node>
  <node id="-1104" visible="true" lat="44.20034189" lon="-72.49983469">
    <tag k="addr:city" v="Barre City"/>
    <tag k="addr:housenumber" v="11"/>
    <tag k="addr:street" v="Walnut Street"/>
    <tag k="addr:state" v="VT"/>
    <tag k="ref:vcgi:esiteid" v="8864"/>
  </node>
  <node id="-1112" visible="true" lat="44.20026779" lon="-72.49754333">
    <tag k="addr:city" v="Barre City"/>
    <tag k="addr:housenumber" v="9"/>
    <tag k="addr:street" v="Hall Street"/>
    <tag k="addr:state" v="VT"/>
    <tag k="ref:vcgi:esiteid" v="8872"/>
  </node>
  <node id="-1114" visible="true" lat="44.20021872" lon="-72.51412357">
    <tag k="addr:city" v="Barre City"/>
    <tag k="addr:housenumber" v="3"/>
    <tag k="addr:street" v="Thomas Street"/>
    <tag k="addr:state" v="VT"/>
    <tag k="ref:vcgi:esiteid" v="8874"/>
  </node>
  <node id="-1116" visible="true" lat="44.20025253" lon="-72.49895477">
    <tag k="addr:city" v="Barre City"/>
    <tag k="addr:housenumber" v="35"/>
    <tag k="addr:street" v="Franklin Street"/>
    <tag k="addr:state" v="VT"/>
    <tag k="ref:vcgi:esiteid" v="8876"/>
  </node>
  <node id="-1117" visible="true" lat="44.20024871" lon="-72.49720001">
    <tag k="addr:city" v="Barre City"/>
    <tag k="addr:housenumber" v="6"/>
    <tag k="addr:street" v="Wendell Place"/>
    <tag k="addr:state" v="VT"/>
    <tag k="ref:vcgi:esiteid" v="8877"/>
  </node>
  <node id="-1120" visible="true" lat="44.20023727" lon="-72.49810791">
    <tag k="addr:city" v="Barre City"/>
    <tag k="addr:housenumber" v="70"/>
    <tag k="addr:street" v="Tremont Street"/>
    <tag k="addr:state" v="VT"/>
    <tag k="ref:vcgi:esiteid" v="8880"/>
  </node>
  <node id="-1127" visible="true" lat="44.20017319" lon="-72.51605265">
    <tag k="addr:city" v="Barre City"/>
    <tag k="addr:housenumber" v="127"/>
    <tag k="addr:street" v="Berlin Street"/>
    <tag k="addr:state" v="VT"/>
    <tag k="ref:vcgi:esiteid" v="8887"/>
  </node>
  <node id="-1133" visible="true" lat="44.20022013" lon="-72.49790863">
    <tag k="addr:city" v="Barre City"/>
    <tag k="addr:housenumber" v="74"/>
    <tag k="addr:street" v="Tremont Street"/>
    <tag k="addr:state" v="VT"/>
    <tag k="ref:vcgi:esiteid" v="8894"/>
  </node>
  <node id="-1138" visible="true" lat="44.2001152" lon="-72.49893839">
    <tag k="addr:city" v="Barre City"/>
    <tag k="addr:housenumber" v="31"/>
    <tag k="addr:street" v="Franklin Street"/>
    <tag k="addr:state" v="VT"/>
    <tag k="ref:vcgi:esiteid" v="8900"/>
  </node>
  <node id="-1140" visible="true" lat="44.20011791" lon="-72.49691565">
    <tag k="addr:city" v="Barre City"/>
    <tag k="addr:housenumber" v="7"/>
    <tag k="addr:street" v="Wendell Place"/>
    <tag k="addr:state" v="VT"/>
    <tag k="ref:vcgi:esiteid" v="8902"/>
  </node>
  <node id="-1142" visible="true" lat="44.20008087" lon="-72.51551818">
    <tag k="addr:city" v="Barre City"/>
    <tag k="addr:housenumber" v="136"/>
    <tag k="addr:street" v="Berlin Street"/>
    <tag k="addr:state" v="VT"/>
    <tag k="ref:vcgi:esiteid" v="8904"/>
  </node>
  <node id="-1143" visible="true" lat="44.20008087" lon="-72.49845123">
    <tag k="addr:city" v="Barre City"/>
    <tag k="addr:housenumber" v="65"/>
    <tag k="addr:street" v="Tremont Street"/>
    <tag k="addr:state" v="VT"/>
    <tag k="ref:vcgi:esiteid" v="8906"/>
  </node>
  <node id="-1146" visible="true" lat="44.20006179" lon="-72.51394653">
    <tag k="addr:city" v="Barre City"/>
    <tag k="addr:housenumber" v="5"/>
    <tag k="addr:street" v="Gallow Avenue"/>
    <tag k="addr:state" v="VT"/>
    <tag k="ref:vcgi:esiteid" v="8909"/>
  </node>
  <node id="-1147" visible="true" lat="44.20006179" lon="-72.49757385">
    <tag k="addr:city" v="Barre City"/>
    <tag k="addr:housenumber" v="82"/>
    <tag k="addr:street" v="Tremont Street"/>
    <tag k="addr:state" v="VT"/>
    <tag k="ref:vcgi:esiteid" v="8910"/>
  </node>
  <node id="-1151" visible="true" lat="44.19998116" lon="-72.4956569">
    <tag k="addr:city" v="Barre City"/>
    <tag k="addr:housenumber" v="179"/>
    <tag k="addr:street" v="Elm Street"/>
    <tag k="addr:state" v="VT"/>
    <tag k="ref:vcgi:esiteid" v="8914"/>
  </node>
  <node id="-1161" visible="true" lat="44.19993071" lon="-72.49991825">
    <tag k="addr:city" v="Barre City"/>
    <tag k="addr:housenumber" v="15"/>
    <tag k="addr:street" v="Wellington Street"/>
    <tag k="addr:state" v="VT"/>
    <tag k="ref:vcgi:esiteid" v="8926"/>
  </node>
  <node id="-1163" visible="true" lat="44.19996643" lon="-72.49742889">
    <tag k="addr:city" v="Barre City"/>
    <tag k="addr:housenumber" v="84"/>
    <tag k="addr:street" v="Tremont Street"/>
    <tag k="addr:state" v="VT"/>
    <tag k="ref:vcgi:esiteid" v="8928"/>
  </node>
  <node id="-1165" visible="true" lat="44.19989707" lon="-72.49503765">
    <tag k="addr:city" v="Barre City"/>
    <tag k="addr:housenumber" v="189"/>
    <tag k="addr:street" v="Elm Street"/>
    <tag k="addr:state" v="VT"/>
    <tag k="ref:vcgi:esiteid" v="8931"/>
  </node>
  <node id="-1168" visible="true" lat="44.19988874" lon="-72.49967471">
    <tag k="addr:city" v="Barre City"/>
    <tag k="addr:housenumber" v="20"/>
    <tag k="addr:street" v="Franklin Street"/>
    <tag k="addr:state" v="VT"/>
    <tag k="ref:vcgi:esiteid" v="8934"/>
  </node>
  <node id="-1169" visible="true" lat="44.19997209" lon="-72.49899381">
    <tag k="addr:city" v="Barre City"/>
    <tag k="addr:housenumber" v="27"/>
    <tag k="addr:street" v="Franklin Street"/>
    <tag k="addr:state" v="VT"/>
    <tag k="ref:vcgi:esiteid" v="8935"/>
  </node>
  <node id="-1170" visible="true" lat="44.19993061" lon="-72.51605976">
    <tag k="addr:city" v="Barre City"/>
    <tag k="addr:housenumber" v="131"/>
    <tag k="addr:street" v="Berlin Street"/>
    <tag k="addr:state" v="VT"/>
    <tag k="ref:vcgi:esiteid" v="8936"/>
  </node>
  <node id="-1177" visible="true" lat="44.19985198" lon="-72.4970932">
    <tag k="addr:city" v="Barre City"/>
    <tag k="addr:housenumber" v="90"/>
    <tag k="addr:street" v="Tremont Street"/>
    <tag k="addr:state" v="VT"/>
    <tag k="ref:vcgi:esiteid" v="8944"/>
  </node>
  <node id="-1178" visible="true" lat="44.1999455" lon="-72.49850648">
    <tag k="addr:city" v="Barre City"/>
    <tag k="addr:housenumber" v="99"/>
    <tag k="addr:street" v="Elm Street"/>
    <tag k="addr:state" v="VT"/>
    <tag k="ref:vcgi:esiteid" v="8946"/>
  </node>
  <node id="-1179" visible="true" lat="44.19988957" lon="-72.52488299">
    <tag k="addr:city" v="Barre City"/>
    <tag k="addr:housenumber" v="139"/>
    <tag k="addr:street" v="Bailey Street"/>
    <tag k="addr:state" v="VT"/>
    <tag k="ref:vcgi:esiteid" v="8947"/>
  </node>
  <node id="-1185" visible="true" lat="44.19965835" lon="-72.4959856">
    <tag k="addr:city" v="Barre City"/>
    <tag k="addr:housenumber" v="57"/>
    <tag k="addr:street" v="Park Street"/>
    <tag k="addr:state" v="VT"/>
    <tag k="ref:vcgi:esiteid" v="8953"/>
  </node>
  <node id="-1187" visible="true" lat="44.19976806" lon="-72.51557922">
    <tag k="addr:city" v="Barre City"/>
    <tag k="addr:housenumber" v="140"/>
    <tag k="addr:street" v="Berlin Street"/>
    <tag k="addr:state" v="VT"/>
    <tag k="ref:vcgi:esiteid" v="8955"/>
  </node>
  <node id="-1193" visible="true" lat="44.19979383" lon="-72.49689767">
    <tag k="addr:city" v="Barre City"/>
    <tag k="addr:housenumber" v="96"/>
    <tag k="addr:street" v="Tremont Street"/>
    <tag k="addr:state" v="VT"/>
    <tag k="ref:vcgi:esiteid" v="8963"/>
  </node>
  <node id="-1194" visible="true" lat="44.19973587" lon="-72.49911681">
    <tag k="addr:city" v="Barre City"/>
    <tag k="addr:housenumber" v="21"/>
    <tag k="addr:street" v="Franklin Street"/>
    <tag k="addr:state" v="VT"/>
    <tag k="ref:vcgi:esiteid" v="8964"/>
  </node>
  <node id="-1195" visible="true" lat="44.19970703" lon="-72.49760437">
    <tag k="addr:city" v="Barre City"/>
    <tag k="addr:housenumber" v="83"/>
    <tag k="addr:street" v="Tremont Street"/>
    <tag k="addr:state" v="VT"/>
    <tag k="ref:vcgi:esiteid" v="8967"/>
  </node>
  <node id="-1199" visible="true" lat="44.19972318" lon="-72.49790591">
    <tag k="addr:city" v="Barre City"/>
    <tag k="addr:housenumber" v="6"/>
    <tag k="addr:street" v="Eastern Avenue"/>
    <tag k="addr:state" v="VT"/>
    <tag k="ref:vcgi:esiteid" v="8972"/>
  </node>
  <node id="-1200" visible="true" lat="44.19968501" lon="-72.51476009">
    <tag k="addr:city" v="Barre City"/>
    <tag k="addr:housenumber" v="13"/>
    <tag k="addr:street" v="Gallow Avenue"/>
    <tag k="addr:state" v="VT"/>
    <tag k="ref:vcgi:esiteid" v="8973"/>
  </node>
  <node id="-1203" visible="true" lat="44.19964981" lon="-72.48426055">
    <tag k="addr:city" v="Barre City"/>
    <tag k="addr:housenumber" v="19"/>
    <tag k="addr:street" v="Lague Lane"/>
    <tag k="addr:state" v="VT"/>
    <tag k="ref:vcgi:esiteid" v="8976"/>
  </node>
  <node id="-1205" visible="true" lat="44.19970573" lon="-72.52463631">
    <tag k="addr:city" v="Barre City"/>
    <tag k="addr:housenumber" v="135"/>
    <tag k="addr:street" v="Bailey Street"/>
    <tag k="addr:state" v="VT"/>
    <tag k="ref:vcgi:esiteid" v="8978"/>
  </node>
  <node id="-1210" visible="true" lat="44.19957635" lon="-72.51412427">
    <tag k="addr:city" v="Barre City"/>
    <tag k="addr:housenumber" v="8"/>
    <tag k="addr:street" v="Gallow Avenue"/>
    <tag k="addr:state" v="VT"/>
    <tag k="ref:vcgi:esiteid" v="8983"/>
  </node>
  <node id="-1212" visible="true" lat="44.19961547" lon="-72.4973526">
    <tag k="addr:city" v="Barre City"/>
    <tag k="addr:housenumber" v="89"/>
    <tag k="addr:street" v="Tremont Street"/>
    <tag k="addr:state" v="VT"/>
    <tag k="ref:vcgi:esiteid" v="8986"/>
  </node>
  <node id="-1214" visible="true" lat="44.19958496" lon="-72.4971466">
    <tag k="addr:city" v="Barre City"/>
    <tag k="addr:housenumber" v="91"/>
    <tag k="addr:street" v="Tremont Street"/>
    <tag k="addr:state" v="VT"/>
    <tag k="ref:vcgi:esiteid" v="8989"/>
  </node>
  <node id="-1217" visible="true" lat="44.19952078" lon="-72.51611811">
    <tag k="addr:city" v="Barre City"/>
    <tag k="addr:housenumber" v="135"/>
    <tag k="addr:street" v="Berlin Street"/>
    <tag k="addr:state" v="VT"/>
    <tag k="ref:vcgi:esiteid" v="8994"/>
  </node>
  <node id="-1219" visible="true" lat="44.19952392" lon="-72.51368713">
    <tag k="addr:city" v="Barre City"/>
    <tag k="addr:housenumber" v="21"/>
    <tag k="addr:street" v="Thomas Street"/>
    <tag k="addr:state" v="VT"/>
    <tag k="ref:vcgi:esiteid" v="8996"/>
  </node>
  <node id="-1221" visible="true" lat="44.19951629" lon="-72.49693298">
    <tag k="addr:city" v="Barre City"/>
    <tag k="addr:housenumber" v="97"/>
    <tag k="addr:street" v="Tremont Street"/>
    <tag k="addr:state" v="VT"/>
    <tag k="ref:vcgi:esiteid" v="8998"/>
  </node>
  <node id="-1225" visible="true" lat="44.19950866" lon="-72.49612426">
    <tag k="addr:city" v="Barre City"/>
    <tag k="addr:housenumber" v="51"/>
    <tag k="addr:street" v="Park Street"/>
    <tag k="addr:state" v="VT"/>
    <tag k="ref:vcgi:esiteid" v="9002"/>
  </node>
  <node id="-1228" visible="true" lat="44.1994667" lon="-72.4837265">
    <tag k="addr:city" v="Barre City"/>
    <tag k="addr:housenumber" v="100"/>
    <tag k="addr:street" v="Woodland Drive"/>
    <tag k="addr:state" v="VT"/>
    <tag k="ref:vcgi:esiteid" v="9007"/>
  </node>
  <node id="-1230" visible="true" lat="44.19950886" lon="-72.52387191">
    <tag k="addr:city" v="Barre City"/>
    <tag k="addr:housenumber" v="83"/>
    <tag k="addr:street" v="Bailey Street"/>
    <tag k="addr:state" v="VT"/>
    <tag k="ref:vcgi:esiteid" v="9009"/>
  </node>
  <node id="-1233" visible="true" lat="44.19942537" lon="-72.51450347">
    <tag k="addr:city" v="Barre City"/>
    <tag k="addr:housenumber" v="14"/>
    <tag k="addr:street" v="Gallow Avenue"/>
    <tag k="addr:state" v="VT"/>
    <tag k="ref:vcgi:esiteid" v="9012"/>
  </node>
  <node id="-1235" visible="true" lat="44.19941692" lon="-72.49670842">
    <tag k="addr:city" v="Barre City"/>
    <tag k="addr:housenumber" v="101"/>
    <tag k="addr:street" v="Tremont Street"/>
    <tag k="addr:state" v="VT"/>
    <tag k="ref:vcgi:esiteid" v="9014"/>
  </node>
  <node id="-1237" visible="true" lat="44.19947055" lon="-72.49925992">
    <tag k="addr:city" v="Barre City"/>
    <tag k="addr:housenumber" v="78"/>
    <tag k="addr:street" v="Elm Street"/>
    <tag k="addr:state" v="VT"/>
    <tag k="ref:vcgi:esiteid" v="9016"/>
  </node>
  <node id="-1241" visible="true" lat="44.19939422" lon="-72.53214263">
    <tag k="addr:city" v="Barre City"/>
    <tag k="addr:housenumber" v="30"/>
    <tag k="addr:street" v="Nordic Lane"/>
    <tag k="addr:state" v="VT"/>
    <tag k="ref:vcgi:esiteid" v="9020"/>
  </node>
  <node id="-1244" visible="true" lat="44.19947965" lon="-72.49847643">
    <tag k="addr:city" v="Barre City"/>
    <tag k="addr:housenumber" v="2"/>
    <tag k="addr:street" v="Eastern Avenue"/>
    <tag k="addr:state" v="VT"/>
    <tag k="ref:vcgi:esiteid" v="9024"/>
  </node>
  <node id="-1250" visible="true" lat="44.19935989" lon="-72.48325347">
    <tag k="addr:city" v="Barre City"/>
    <tag k="addr:housenumber" v="101"/>
    <tag k="addr:street" v="Woodland Drive"/>
    <tag k="addr:state" v="VT"/>
    <tag k="ref:vcgi:esiteid" v="9031"/>
  </node>
  <node id="-1253" visible="true" lat="44.19934463" lon="-72.52355194">
    <tag k="addr:city" v="Barre City"/>
    <tag k="addr:housenumber" v="79"/>
    <tag k="addr:street" v="Bailey Street"/>
    <tag k="addr:state" v="VT"/>
    <tag k="ref:vcgi:esiteid" v="9034"/>
  </node>
  <node id="-1257" visible="true" lat="44.19918244" lon="-72.52465459">
    <tag k="addr:city" v="Barre City"/>
    <tag k="addr:housenumber" v="130"/>
    <tag k="addr:street" v="Bailey Street"/>
    <tag k="addr:state" v="VT"/>
    <tag k="ref:vcgi:esiteid" v="9039"/>
  </node>
  <node id="-1260" visible="true" lat="44.19927978" lon="-72.49548339">
    <tag k="addr:city" v="Barre City"/>
    <tag k="addr:housenumber" v="122"/>
    <tag k="addr:street" v="Tremont Street"/>
    <tag k="addr:state" v="VT"/>
    <tag k="ref:vcgi:esiteid" v="9043"/>
  </node>
  <node id="-1263" visible="true" lat="44.19927192" lon="-72.49680477">
    <tag k="addr:city" v="Barre City"/>
    <tag k="addr:housenumber" v="44"/>
    <tag k="addr:street" v="Park Street"/>
    <tag k="addr:state" v="VT"/>
    <tag k="ref:vcgi:esiteid" v="9046"/>
  </node>
  <node id="-1264" visible="true" lat="44.19936163" lon="-72.498155">
    <tag k="addr:city" v="Barre City"/>
    <tag k="addr:housenumber" v="8"/>
    <tag k="addr:street" v="Eastern Avenue"/>
    <tag k="addr:state" v="VT"/>
    <tag k="ref:vcgi:esiteid" v="9048"/>
  </node>
  <node id="-1268" visible="true" lat="44.19927109" lon="-72.51618455">
    <tag k="addr:city" v="Barre City"/>
    <tag k="addr:housenumber" v="137"/>
    <tag k="addr:street" v="Berlin Street"/>
    <tag k="addr:state" v="VT"/>
    <tag k="ref:vcgi:esiteid" v="9053"/>
  </node>
  <node id="-1269" visible="true" lat="44.19920868" lon="-72.51464818">
    <tag k="addr:city" v="Barre City"/>
    <tag k="addr:housenumber" v="18"/>
    <tag k="addr:street" v="Gallow Avenue"/>
    <tag k="addr:state" v="VT"/>
    <tag k="ref:vcgi:esiteid" v="9055"/>
  </node>
  <node id="-1272" visible="true" lat="44.19915666" lon="-72.51311459">
    <tag k="addr:city" v="Barre City"/>
    <tag k="addr:housenumber" v="27"/>
    <tag k="addr:street" v="Thomas Street"/>
    <tag k="addr:state" v="VT"/>
    <tag k="ref:vcgi:esiteid" v="9059"/>
  </node>
  <node id="-1273" visible="true" lat="44.19927232" lon="-72.49627104">
    <tag k="addr:city" v="Barre City"/>
    <tag k="addr:housenumber" v="47"/>
    <tag k="addr:street" v="Park Street"/>
    <tag k="addr:state" v="VT"/>
    <tag k="ref:vcgi:esiteid" v="9060"/>
  </node>
  <node id="-1276" visible="true" lat="44.1992278" lon="-72.48382753">
    <tag k="addr:city" v="Barre City"/>
    <tag k="addr:housenumber" v="96"/>
    <tag k="addr:street" v="Woodland Drive"/>
    <tag k="addr:state" v="VT"/>
    <tag k="ref:vcgi:esiteid" v="9064"/>
  </node>
  <node id="-1278" visible="true" lat="44.19906277" lon="-72.52432166">
    <tag k="addr:city" v="Barre City"/>
    <tag k="addr:housenumber" v="128"/>
    <tag k="addr:street" v="Bailey Street"/>
    <tag k="addr:state" v="VT"/>
    <tag k="ref:vcgi:esiteid" v="9066"/>
  </node>
  <node id="-1279" visible="true" lat="44.1992073" lon="-72.52318572">
    <tag k="addr:city" v="Barre City"/>
    <tag k="addr:housenumber" v="71"/>
    <tag k="addr:street" v="Bailey Street"/>
    <tag k="addr:state" v="VT"/>
    <tag k="ref:vcgi:esiteid" v="9067"/>
  </node>
  <node id="-1281" visible="true" lat="44.19918268" lon="-72.49899048">
    <tag k="addr:city" v="Barre City"/>
    <tag k="addr:housenumber" v="81"/>
    <tag k="addr:street" v="Elm Street"/>
    <tag k="addr:state" v="VT"/>
    <tag k="ref:vcgi:esiteid" v="9069"/>
  </node>
  <node id="-1282" visible="true" lat="44.19926147" lon="-72.49789428">
    <tag k="addr:city" v="Barre City"/>
    <tag k="addr:housenumber" v="12"/>
    <tag k="addr:street" v="Eastern Avenue"/>
    <tag k="addr:state" v="VT"/>
    <tag k="ref:vcgi:esiteid" v="9070"/>
  </node>
  <node id="-1286" visible="true" lat="44.19909618" lon="-72.51503738">
    <tag k="addr:city" v="Barre City"/>
    <tag k="addr:housenumber" v="22"/>
    <tag k="addr:street" v="Gallow Avenue"/>
    <tag k="addr:state" v="VT"/>
    <tag k="ref:vcgi:esiteid" v="9075"/>
  </node>
  <node id="-1289" visible="true" lat="44.19918248" lon="-72.49693411">
    <tag k="addr:city" v="Barre City"/>
    <tag k="addr:housenumber" v="40"/>
    <tag k="addr:street" v="Park Street"/>
    <tag k="addr:state" v="VT"/>
    <tag k="ref:vcgi:esiteid" v="9078"/>
  </node>
  <node id="-1292" visible="true" lat="44.19917197" lon="-72.48447204">
    <tag k="addr:city" v="Barre City"/>
    <tag k="addr:housenumber" v="11"/>
    <tag k="addr:street" v="Lague Lane"/>
    <tag k="addr:state" v="VT"/>
    <tag k="ref:vcgi:esiteid" v="9081"/>
  </node>
  <node id="-1297" visible="true" lat="44.19915941" lon="-72.51406872">
    <tag k="addr:city" v="Barre City"/>
    <tag k="addr:housenumber" v="13"/>
    <tag k="addr:street" v="Kynoch Avenue"/>
    <tag k="addr:state" v="VT"/>
    <tag k="ref:vcgi:esiteid" v="9086"/>
  </node>
  <node id="-1300" visible="true" lat="44.19913534" lon="-72.49641054">
    <tag k="addr:city" v="Barre City"/>
    <tag k="addr:housenumber" v="45"/>
    <tag k="addr:street" v="Park Street"/>
    <tag k="addr:state" v="VT"/>
    <tag k="ref:vcgi:esiteid" v="9089"/>
  </node>
  <node id="-1301" visible="true" lat="44.1990776" lon="-72.48342132">
    <tag k="addr:city" v="Barre City"/>
    <tag k="addr:housenumber" v="97"/>
    <tag k="addr:street" v="Woodland Drive"/>
    <tag k="addr:state" v="VT"/>
    <tag k="ref:vcgi:esiteid" v="9090"/>
  </node>
  <node id="-1302" visible="true" lat="44.1992012" lon="-72.4976561">
    <tag k="addr:city" v="Barre City"/>
    <tag k="addr:housenumber" v="14"/>
    <tag k="addr:street" v="Eastern Avenue"/>
    <tag k="addr:state" v="VT"/>
    <tag k="ref:vcgi:esiteid" v="9091"/>
  </node>
  <node id="-1305" visible="true" lat="44.1990509" lon="-72.49568939">
    <tag k="addr:city" v="Barre City"/>
    <tag k="addr:housenumber" v="125"/>
    <tag k="addr:street" v="Tremont Street"/>
    <tag k="addr:state" v="VT"/>
    <tag k="ref:vcgi:esiteid" v="9094"/>
  </node>
  <node id="-1312" visible="true" lat="44.1989726" lon="-72.51365647">
    <tag k="addr:city" v="Barre City"/>
    <tag k="addr:housenumber" v="10"/>
    <tag k="addr:street" v="Kynoch Avenue"/>
    <tag k="addr:state" v="VT"/>
    <tag k="ref:vcgi:esiteid" v="9101"/>
  </node>
  <node id="-1313" visible="true" lat="44.1990903" lon="-72.49739837">
    <tag k="addr:city" v="Barre City"/>
    <tag k="addr:housenumber" v="18"/>
    <tag k="addr:street" v="Eastern Avenue"/>
    <tag k="addr:state" v="VT"/>
    <tag k="ref:vcgi:esiteid" v="9102"/>
  </node>
  <node id="-1314" visible="true" lat="44.19892997" lon="-72.49810412">
    <tag k="addr:city" v="Barre City"/>
    <tag k="addr:housenumber" v="9"/>
    <tag k="addr:street" v="Eastern Avenue"/>
    <tag k="addr:state" v="VT"/>
    <tag k="ref:vcgi:esiteid" v="9103"/>
  </node>
  <node id="-1317" visible="true" lat="44.19899749" lon="-72.52274322">
    <tag k="addr:city" v="Barre City"/>
    <tag k="addr:housenumber" v="63"/>
    <tag k="addr:street" v="Bailey Street"/>
    <tag k="addr:state" v="VT"/>
    <tag k="ref:vcgi:esiteid" v="9106"/>
  </node>
  <node id="-1321" visible="true" lat="44.19900025" lon="-72.5162227">
    <tag k="addr:city" v="Barre City"/>
    <tag k="addr:housenumber" v="139"/>
    <tag k="addr:street" v="Berlin Street"/>
    <tag k="addr:state" v="VT"/>
    <tag k="ref:vcgi:esiteid" v="9110"/>
  </node>
  <node id="-1324" visible="true" lat="44.19888123" lon="-72.52340684">
    <tag k="addr:city" v="Barre City"/>
    <tag k="addr:housenumber" v="66"/>
    <tag k="addr:street" v="Bailey Street"/>
    <tag k="addr:state" v="VT"/>
    <tag k="ref:vcgi:esiteid" v="9113"/>
  </node>
  <node id="-1325" visible="true" lat="44.1988712" lon="-72.51282962">
    <tag k="addr:city" v="Barre City"/>
    <tag k="addr:housenumber" v="33"/>
    <tag k="addr:street" v="Thomas Street"/>
    <tag k="addr:state" v="VT"/>
    <tag k="ref:vcgi:esiteid" v="9114"/>
  </node>
  <node id="-1326" visible="true" lat="44.19895935" lon="-72.48391723">
    <tag k="addr:city" v="Barre City"/>
    <tag k="addr:housenumber" v="92"/>
    <tag k="addr:street" v="Woodland Drive"/>
    <tag k="addr:state" v="VT"/>
    <tag k="ref:vcgi:esiteid" v="9115"/>
  </node>
  <node id="-1332" visible="true" lat="44.19897656" lon="-72.49649447">
    <tag k="addr:city" v="Barre City"/>
    <tag k="addr:housenumber" v="41"/>
    <tag k="addr:street" v="Park Street"/>
    <tag k="addr:state" v="VT"/>
    <tag k="ref:vcgi:esiteid" v="9122"/>
  </node>
  <node id="-1335" visible="true" lat="44.19883069" lon="-72.49782503">
    <tag k="addr:city" v="Barre City"/>
    <tag k="addr:housenumber" v="13"/>
    <tag k="addr:street" v="Eastern Avenue"/>
    <tag k="addr:state" v="VT"/>
    <tag k="ref:vcgi:esiteid" v="9125"/>
  </node>
  <node id="-1339" visible="true" lat="44.19886398" lon="-72.48460388">
    <tag k="addr:city" v="Barre City"/>
    <tag k="addr:housenumber" v="7"/>
    <tag k="addr:street" v="Lague Lane"/>
    <tag k="addr:state" v="VT"/>
    <tag k="ref:vcgi:esiteid" v="9129"/>
  </node>
  <node id="-1340" visible="true" lat="44.19894415" lon="-72.49708125">
    <tag k="addr:city" v="Barre City"/>
    <tag k="addr:housenumber" v="22"/>
    <tag k="addr:street" v="Eastern Avenue"/>
    <tag k="addr:state" v="VT"/>
    <tag k="ref:vcgi:esiteid" v="9130"/>
  </node>
  <node id="-1341" visible="true" lat="44.19885635" lon="-72.49530792">
    <tag k="addr:city" v="Barre City"/>
    <tag k="addr:housenumber" v="133"/>
    <tag k="addr:street" v="Tremont Street"/>
    <tag k="addr:state" v="VT"/>
    <tag k="ref:vcgi:esiteid" v="9132"/>
  </node>
  <node id="-1344" visible="true" lat="44.19872939" lon="-72.49754989">
    <tag k="addr:city" v="Barre City"/>
    <tag k="addr:housenumber" v="19"/>
    <tag k="addr:street" v="Eastern Avenue"/>
    <tag k="addr:state" v="VT"/>
    <tag k="ref:vcgi:esiteid" v="9136"/>
  </node>
  <node id="-1345" visible="true" lat="44.19882202" lon="-72.52246093">
    <tag k="addr:city" v="Barre City"/>
    <tag k="addr:housenumber" v="55"/>
    <tag k="addr:street" v="Bailey Street"/>
    <tag k="addr:state" v="VT"/>
    <tag k="ref:vcgi:esiteid" v="9137"/>
  </node>
  <node id="-1347" visible="true" lat="44.1988182" lon="-72.48348999">
    <tag k="addr:city" v="Barre City"/>
    <tag k="addr:housenumber" v="93"/>
    <tag k="addr:street" v="Woodland Drive"/>
    <tag k="addr:state" v="VT"/>
    <tag k="ref:vcgi:esiteid" v="9140"/>
  </node>
  <node id="-1349" visible="true" lat="44.19873709" lon="-72.49590864">
    <tag k="addr:city" v="Barre City"/>
    <tag k="addr:housenumber" v="48"/>
    <tag k="addr:street" v="East Street"/>
    <tag k="addr:state" v="VT"/>
    <tag k="ref:vcgi:esiteid" v="9142"/>
  </node>
  <node id="-1354" visible="true" lat="44.19872368" lon="-72.52306737">
    <tag k="addr:city" v="Barre City"/>
    <tag k="addr:housenumber" v="62"/>
    <tag k="addr:street" v="Bailey Street"/>
    <tag k="addr:state" v="VT"/>
    <tag k="ref:vcgi:esiteid" v="9150"/>
  </node>
  <node id="-1357" visible="true" lat="44.19878169" lon="-72.49666511">
    <tag k="addr:city" v="Barre City"/>
    <tag k="addr:housenumber" v="24"/>
    <tag k="addr:street" v="Eastern Avenue"/>
    <tag k="addr:state" v="VT"/>
    <tag k="ref:vcgi:esiteid" v="9153"/>
  </node>
  <node id="-1360" visible="true" lat="44.19872941" lon="-72.51626084">
    <tag k="addr:city" v="Barre City"/>
    <tag k="addr:housenumber" v="143"/>
    <tag k="addr:street" v="Berlin Street"/>
    <tag k="addr:state" v="VT"/>
    <tag k="ref:vcgi:esiteid" v="9156"/>
  </node>
  <node id="-1362" visible="true" lat="44.19873263" lon="-72.4953809">
    <tag k="addr:city" v="Barre City"/>
    <tag k="addr:housenumber" v="49"/>
    <tag k="addr:street" v="East Street"/>
    <tag k="addr:state" v="VT"/>
    <tag k="ref:vcgi:esiteid" v="9158"/>
  </node>
  <node id="-1364" visible="true" lat="44.19869232" lon="-72.48404693">
    <tag k="addr:city" v="Barre City"/>
    <tag k="addr:housenumber" v="88"/>
    <tag k="addr:street" v="Woodland Drive"/>
    <tag k="addr:state" v="VT"/>
    <tag k="ref:vcgi:esiteid" v="9160"/>
  </node>
  <node id="-1368" visible="true" lat="44.19865587" lon="-72.49730646">
    <tag k="addr:city" v="Barre City"/>
    <tag k="addr:housenumber" v="23"/>
    <tag k="addr:street" v="Eastern Avenue"/>
    <tag k="addr:state" v="VT"/>
    <tag k="ref:vcgi:esiteid" v="9164"/>
  </node>
  <node id="-1369" visible="true" lat="44.19867706" lon="-72.4964447">
    <tag k="addr:city" v="Barre City"/>
    <tag k="addr:housenumber" v="30"/>
    <tag k="addr:street" v="Eastern Avenue"/>
    <tag k="addr:state" v="VT"/>
    <tag k="ref:vcgi:esiteid" v="9165"/>
  </node>
  <node id="-1371" visible="true" lat="44.19864273" lon="-72.52210235">
    <tag k="addr:city" v="Barre City"/>
    <tag k="addr:housenumber" v="51"/>
    <tag k="addr:street" v="Bailey Street"/>
    <tag k="addr:state" v="VT"/>
    <tag k="ref:vcgi:esiteid" v="9168"/>
  </node>
  <node id="-1376" visible="true" lat="44.19868378" lon="-72.49942482">
    <tag k="addr:city" v="Barre City"/>
    <tag k="addr:housenumber" v="43"/>
    <tag k="addr:street" v="Jefferson Street"/>
    <tag k="addr:state" v="VT"/>
    <tag k="ref:vcgi:esiteid" v="9173"/>
  </node>
  <node id="-1382" visible="true" lat="44.19860104" lon="-72.52490792">
    <tag k="addr:city" v="Barre City"/>
    <tag k="addr:housenumber" v="132"/>
    <tag k="addr:street" v="Bailey Street"/>
    <tag k="addr:state" v="VT"/>
    <tag k="ref:vcgi:esiteid" v="9179"/>
  </node>
  <node id="-1383" visible="true" lat="44.19851913" lon="-72.52275831">
    <tag k="addr:city" v="Barre City"/>
    <tag k="addr:housenumber" v="56"/>
    <tag k="addr:street" v="Bailey Street"/>
    <tag k="addr:state" v="VT"/>
    <tag k="ref:vcgi:esiteid" v="9181"/>
  </node>
  <node id="-1384" visible="true" lat="44.19859924" lon="-72.5125259">
    <tag k="addr:city" v="Barre City"/>
    <tag k="addr:housenumber" v="37"/>
    <tag k="addr:street" v="Thomas Street"/>
    <tag k="addr:state" v="VT"/>
    <tag k="ref:vcgi:esiteid" v="9182"/>
  </node>
  <node id="-1388" visible="true" lat="44.19860986" lon="-72.49919991">
    <tag k="addr:city" v="Barre City"/>
    <tag k="addr:housenumber" v="6"/>
    <tag k="addr:street" v="Averill Street"/>
    <tag k="addr:state" v="VT"/>
    <tag k="ref:vcgi:esiteid" v="9186"/>
  </node>
  <node id="-1391" visible="true" lat="44.19853591" lon="-72.48463439">
    <tag k="addr:city" v="Barre City"/>
    <tag k="addr:housenumber" v="3"/>
    <tag k="addr:street" v="Lague Lane"/>
    <tag k="addr:state" v="VT"/>
    <tag k="ref:vcgi:esiteid" v="9189"/>
  </node>
  <node id="-1394" visible="true" lat="44.19863822" lon="-72.5155639">
    <tag k="addr:city" v="Barre City"/>
    <tag k="addr:housenumber" v="4"/>
    <tag k="addr:street" v="Dagmont Avenue"/>
    <tag k="addr:state" v="VT"/>
    <tag k="ref:vcgi:esiteid" v="9192"/>
  </node>
  <node id="-1395" visible="true" lat="44.19852828" lon="-72.49560546">
    <tag k="addr:city" v="Barre City"/>
    <tag k="addr:housenumber" v="47"/>
    <tag k="addr:street" v="East Street"/>
    <tag k="addr:state" v="VT"/>
    <tag k="ref:vcgi:esiteid" v="9193"/>
  </node>
  <node id="-1397" visible="true" lat="44.19852301" lon="-72.49741714">
    <tag k="addr:city" v="Barre City"/>
    <tag k="addr:housenumber" v="36"/>
    <tag k="addr:street" v="Park Street"/>
    <tag k="addr:state" v="VT"/>
    <tag k="ref:vcgi:esiteid" v="9197"/>
  </node>
  <node id="-1398" visible="true" lat="44.19859671" lon="-72.51529184">
    <tag k="addr:city" v="Barre City"/>
    <tag k="addr:housenumber" v="8"/>
    <tag k="addr:street" v="Dagmont Avenue"/>
    <tag k="addr:state" v="VT"/>
    <tag k="ref:vcgi:esiteid" v="9198"/>
  </node>
  <node id="-1401" visible="true" lat="44.19854883" lon="-72.49609245">
    <tag k="addr:city" v="Barre City"/>
    <tag k="addr:housenumber" v="34"/>
    <tag k="addr:street" v="Eastern Avenue"/>
    <tag k="addr:state" v="VT"/>
    <tag k="ref:vcgi:esiteid" v="9201"/>
  </node>
  <node id="-1402" visible="true" lat="44.19847869" lon="-72.51625824">
    <tag k="addr:city" v="Barre City"/>
    <tag k="addr:housenumber" v="147"/>
    <tag k="addr:street" v="Berlin Street"/>
    <tag k="addr:state" v="VT"/>
    <tag k="ref:vcgi:esiteid" v="9202"/>
  </node>
  <node id="-1403" visible="true" lat="44.19838344" lon="-72.4934743">
    <tag k="addr:city" v="Barre City"/>
    <tag k="addr:housenumber" v="167"/>
    <tag k="addr:street" v="Tremont Street"/>
    <tag k="addr:state" v="VT"/>
    <tag k="ref:vcgi:esiteid" v="9203"/>
  </node>
  <node id="-1405" visible="true" lat="44.19847106" lon="-72.49690537">
    <tag k="addr:city" v="Barre City"/>
    <tag k="addr:housenumber" v="33"/>
    <tag k="addr:street" v="Park Street"/>
    <tag k="addr:state" v="VT"/>
    <tag k="ref:vcgi:esiteid" v="9205"/>
  </node>
  <node id="-1408" visible="true" lat="44.19851414" lon="-72.51465094">
    <tag k="addr:city" v="Barre City"/>
    <tag k="addr:housenumber" v="14"/>
    <tag k="addr:street" v="Dagmont Avenue"/>
    <tag k="addr:state" v="VT"/>
    <tag k="ref:vcgi:esiteid" v="9208"/>
  </node>
  <node id="-1409" visible="true" lat="44.19856163" lon="-72.51500442">
    <tag k="addr:city" v="Barre City"/>
    <tag k="addr:housenumber" v="10"/>
    <tag k="addr:street" v="Dagmont Avenue"/>
    <tag k="addr:state" v="VT"/>
    <tag k="ref:vcgi:esiteid" v="9209"/>
  </node>
  <node id="-1410" visible="true" lat="44.19848817" lon="-72.52184142">
    <tag k="addr:city" v="Barre City"/>
    <tag k="addr:housenumber" v="47"/>
    <tag k="addr:street" v="Bailey Street"/>
    <tag k="addr:state" v="VT"/>
    <tag k="ref:vcgi:esiteid" v="9210"/>
  </node>
  <node id="-1412" visible="true" lat="44.19838527" lon="-72.49499826">
    <tag k="addr:city" v="Barre City"/>
    <tag k="addr:housenumber" v="28"/>
    <tag k="addr:street" v="Maple Grove Street"/>
    <tag k="addr:state" v="VT"/>
    <tag k="ref:vcgi:esiteid" v="9213"/>
  </node>
  <node id="-1413" visible="true" lat="44.19852313" lon="-72.49894747">
    <tag k="addr:city" v="Barre City"/>
    <tag k="addr:housenumber" v="10"/>
    <tag k="addr:street" v="Averill Street"/>
    <tag k="addr:state" v="VT"/>
    <tag k="ref:vcgi:esiteid" v="9214"/>
  </node>
  <node id="-1414" visible="true" lat="44.19847089" lon="-72.48417495">
    <tag k="addr:city" v="Barre City"/>
    <tag k="addr:housenumber" v="84"/>
    <tag k="addr:street" v="Woodland Drive"/>
    <tag k="addr:state" v="VT"/>
    <tag k="ref:vcgi:esiteid" v="9216"/>
  </node>
  <node id="-1416" visible="true" lat="44.19834631" lon="-72.49647226">
    <tag k="addr:city" v="Barre City"/>
    <tag k="addr:housenumber" v="33"/>
    <tag k="addr:street" v="Eastern Avenue"/>
    <tag k="addr:state" v="VT"/>
    <tag k="ref:vcgi:esiteid" v="9219"/>
  </node>
  <node id="-1418" visible="true" lat="44.19844929" lon="-72.51430762">
    <tag k="addr:city" v="Barre City"/>
    <tag k="addr:housenumber" v="18"/>
    <tag k="addr:street" v="Dagmont Avenue"/>
    <tag k="addr:state" v="VT"/>
    <tag k="ref:vcgi:esiteid" v="9222"/>
  </node>
  <node id="-1421" visible="true" lat="44.19840046" lon="-72.49753425">
    <tag k="addr:city" v="Barre City"/>
    <tag k="addr:housenumber" v="30"/>
    <tag k="addr:street" v="Park Street"/>
    <tag k="addr:state" v="VT"/>
    <tag k="ref:vcgi:esiteid" v="9227"/>
  </node>
  <node id="-1422" visible="true" lat="44.19836807" lon="-72.48364257">
    <tag k="addr:city" v="Barre City"/>
    <tag k="addr:housenumber" v="85"/>
    <tag k="addr:street" v="Woodland Drive"/>
    <tag k="addr:state" v="VT"/>
    <tag k="ref:vcgi:esiteid" v="9228"/>
  </node>
  <node id="-1423" visible="true" lat="44.19836044" lon="-72.4956665">
    <tag k="addr:city" v="Barre City"/>
    <tag k="addr:housenumber" v="41"/>
    <tag k="addr:street" v="East Street"/>
    <tag k="addr:state" v="VT"/>
    <tag k="ref:vcgi:esiteid" v="9229"/>
  </node>
  <node id="-1424" visible="true" lat="44.19840519" lon="-72.49442683">
    <tag k="addr:city" v="Barre City"/>
    <tag k="addr:housenumber" v="25"/>
    <tag k="addr:street" v="Maple Grove Street"/>
    <tag k="addr:state" v="VT"/>
    <tag k="ref:vcgi:esiteid" v="9230"/>
  </node>
  <node id="-1429" visible="true" lat="44.19819806" lon="-72.51568568">
    <tag k="addr:city" v="Barre City"/>
    <tag k="addr:housenumber" v="3"/>
    <tag k="addr:street" v="Dagmont Avenue"/>
    <tag k="addr:state" v="VT"/>
    <tag k="ref:vcgi:esiteid" v="9237"/>
  </node>
  <node id="-1431" visible="true" lat="44.19828603" lon="-72.49705108">
    <tag k="addr:city" v="Barre City"/>
    <tag k="addr:housenumber" v="29"/>
    <tag k="addr:street" v="Park Street"/>
    <tag k="addr:state" v="VT"/>
    <tag k="ref:vcgi:esiteid" v="9239"/>
  </node>
  <node id="-1432" visible="true" lat="44.19830322" lon="-72.5215454">
    <tag k="addr:city" v="Barre City"/>
    <tag k="addr:housenumber" v="43"/>
    <tag k="addr:street" v="Bailey Street"/>
    <tag k="addr:state" v="VT"/>
    <tag k="ref:vcgi:esiteid" v="9240"/>
  </node>
  <node id="-1435" visible="true" lat="44.19836908" lon="-72.49863433">
    <tag k="addr:city" v="Barre City"/>
    <tag k="addr:housenumber" v="16"/>
    <tag k="addr:street" v="Averill Street"/>
    <tag k="addr:state" v="VT"/>
    <tag k="ref:vcgi:esiteid" v="9243"/>
  </node>
  <node id="-1436" visible="true" lat="44.19823481" lon="-72.52227391">
    <tag k="addr:city" v="Barre City"/>
    <tag k="addr:housenumber" v="48"/>
    <tag k="addr:street" v="Bailey Street"/>
    <tag k="addr:state" v="VT"/>
    <tag k="ref:vcgi:esiteid" v="9244"/>
  </node>
  <node id="-1437" visible="true" lat="44.19839041" lon="-72.51397193">
    <tag k="addr:city" v="Barre City"/>
    <tag k="addr:housenumber" v="22"/>
    <tag k="addr:street" v="Dagmont Avenue"/>
    <tag k="addr:state" v="VT"/>
    <tag k="ref:vcgi:esiteid" v="9245"/>
  </node>
  <node id="-1438" visible="true" lat="44.19820336" lon="-72.51536319">
    <tag k="addr:city" v="Barre City"/>
    <tag k="addr:housenumber" v="7"/>
    <tag k="addr:street" v="Dagmont Avenue"/>
    <tag k="addr:state" v="VT"/>
    <tag k="ref:vcgi:esiteid" v="9246"/>
  </node>
  <node id="-1440" visible="true" lat="44.19831102" lon="-72.49543374">
    <tag k="addr:city" v="Barre City"/>
    <tag k="addr:housenumber" v="38"/>
    <tag k="addr:street" v="Eastern Avenue"/>
    <tag k="addr:state" v="VT"/>
    <tag k="ref:vcgi:esiteid" v="9249"/>
  </node>
  <node id="-1441" visible="true" lat="44.19824981" lon="-72.5163269">
    <tag k="addr:city" v="Barre City"/>
    <tag k="addr:housenumber" v="151"/>
    <tag k="addr:street" v="Berlin Street"/>
    <tag k="addr:state" v="VT"/>
    <tag k="ref:vcgi:esiteid" v="9250"/>
  </node>
  <node id="-1444" visible="true" lat="44.19829701" lon="-72.51346062">
    <tag k="addr:city" v="Barre City"/>
    <tag k="addr:housenumber" v="26"/>
    <tag k="addr:street" v="Dagmont Avenue"/>
    <tag k="addr:state" v="VT"/>
    <tag k="ref:vcgi:esiteid" v="9253"/>
  </node>
  <node id="-1445" visible="true" lat="44.19823455" lon="-72.49624633">
    <tag k="addr:city" v="Barre City"/>
    <tag k="addr:housenumber" v="32"/>
    <tag k="addr:street" v="East Street"/>
    <tag k="addr:state" v="VT"/>
    <tag k="ref:vcgi:esiteid" v="9254"/>
  </node>
  <node id="-1448" visible="true" lat="44.19822692" lon="-72.49464416">
    <tag k="addr:city" v="Barre City"/>
    <tag k="addr:housenumber" v="21"/>
    <tag k="addr:street" v="Maple Grove Street"/>
    <tag k="addr:state" v="VT"/>
    <tag k="ref:vcgi:esiteid" v="9258"/>
  </node>
  <node id="-1449" visible="true" lat="44.19822311" lon="-72.48466491">
    <tag k="addr:city" v="Barre City"/>
    <tag k="addr:housenumber" v="68"/>
    <tag k="addr:street" v="Clifton Street"/>
    <tag k="addr:state" v="VT"/>
    <tag k="ref:vcgi:esiteid" v="9259"/>
  </node>
  <node id="-1450" visible="true" lat="44.19827966" lon="-72.49839882">
    <tag k="addr:city" v="Barre City"/>
    <tag k="addr:housenumber" v="24"/>
    <tag k="addr:street" v="Averill Street"/>
    <tag k="addr:state" v="VT"/>
    <tag k="ref:vcgi:esiteid" v="9260"/>
  </node>
  <node id="-1453" visible="true" lat="44.19826119" lon="-72.49537676">
    <tag k="addr:city" v="Barre City"/>
    <tag k="addr:housenumber" v="42"/>
    <tag k="addr:street" v="Eastern Avenue"/>
    <tag k="addr:state" v="VT"/>
    <tag k="ref:vcgi:esiteid" v="9263"/>
  </node>
  <node id="-1458" visible="true" lat="44.19816207" lon="-72.48432159">
    <tag k="addr:city" v="Barre City"/>
    <tag k="addr:housenumber" v="72"/>
    <tag k="addr:street" v="Clifton Street"/>
    <tag k="addr:state" v="VT"/>
    <tag k="ref:vcgi:esiteid" v="9270"/>
  </node>
  <node id="-1459" visible="true" lat="44.19815063" lon="-72.49511718">
    <tag k="addr:city" v="Barre City"/>
    <tag k="addr:housenumber" v="18"/>
    <tag k="addr:street" v="Maple Grove Street"/>
    <tag k="addr:state" v="VT"/>
    <tag k="ref:vcgi:esiteid" v="9271"/>
  </node>
  <node id="-1462" visible="true" lat="44.19820361" lon="-72.49819581">
    <tag k="addr:city" v="Barre City"/>
    <tag k="addr:housenumber" v="28"/>
    <tag k="addr:street" v="Averill Street"/>
    <tag k="addr:state" v="VT"/>
    <tag k="ref:vcgi:esiteid" v="9274"/>
  </node>
  <node id="-1467" visible="true" lat="44.19812581" lon="-72.49585907">
    <tag k="addr:city" v="Barre City"/>
    <tag k="addr:housenumber" v="31"/>
    <tag k="addr:street" v="East Street"/>
    <tag k="addr:state" v="VT"/>
    <tag k="ref:vcgi:esiteid" v="9282"/>
  </node>
  <node id="-1468" visible="true" lat="44.19810868" lon="-72.51463565">
    <tag k="addr:city" v="Barre City"/>
    <tag k="addr:housenumber" v="15"/>
    <tag k="addr:street" v="Dagmont Avenue"/>
    <tag k="addr:state" v="VT"/>
    <tag k="ref:vcgi:esiteid" v="9283"/>
  </node>
  <node id="-1470" visible="true" lat="44.19799783" lon="-72.51431027">
    <tag k="addr:city" v="Barre City"/>
    <tag k="addr:housenumber" v="19"/>
    <tag k="addr:street" v="Dagmont Avenue"/>
    <tag k="addr:state" v="VT"/>
    <tag k="ref:vcgi:esiteid" v="9285"/>
  </node>
  <node id="-1472" visible="true" lat="44.19811481" lon="-72.49372912">
    <tag k="addr:city" v="Barre City"/>
    <tag k="addr:housenumber" v="48"/>
    <tag k="addr:street" v="Currier Street"/>
    <tag k="addr:state" v="VT"/>
    <tag k="ref:vcgi:esiteid" v="9287"/>
  </node>
  <node id="-1473" visible="true" lat="44.19807434" lon="-72.48381805">
    <tag k="addr:city" v="Barre City"/>
    <tag k="addr:housenumber" v="81"/>
    <tag k="addr:street" v="Woodland Drive"/>
    <tag k="addr:state" v="VT"/>
    <tag k="ref:vcgi:esiteid" v="9288"/>
  </node>
  <node id="-1475" visible="true" lat="44.19794914" lon="-72.51395669">
    <tag k="addr:city" v="Barre City"/>
    <tag k="addr:housenumber" v="23"/>
    <tag k="addr:street" v="Dagmont Avenue"/>
    <tag k="addr:state" v="VT"/>
    <tag k="ref:vcgi:esiteid" v="9292"/>
  </node>
  <node id="-1477" visible="true" lat="44.19812637" lon="-72.49797555">
    <tag k="addr:city" v="Barre City"/>
    <tag k="addr:housenumber" v="30"/>
    <tag k="addr:street" v="Averill Street"/>
    <tag k="addr:state" v="VT"/>
    <tag k="ref:vcgi:esiteid" v="9294"/>
  </node>
  <node id="-1479" visible="true" lat="44.19804382" lon="-72.49646759">
    <tag k="addr:city" v="Barre City"/>
    <tag k="addr:housenumber" v="28"/>
    <tag k="addr:street" v="East Street"/>
    <tag k="addr:state" v="VT"/>
    <tag k="ref:vcgi:esiteid" v="9296"/>
  </node>
  <node id="-1481" visible="true" lat="44.19796249" lon="-72.52185812">
    <tag k="addr:city" v="Barre City"/>
    <tag k="addr:housenumber" v="44"/>
    <tag k="addr:street" v="Bailey Street"/>
    <tag k="addr:state" v="VT"/>
    <tag k="ref:vcgi:esiteid" v="9298"/>
  </node>
  <node id="-1484" visible="true" lat="44.19807807" lon="-72.49779856">
    <tag k="addr:city" v="Barre City"/>
    <tag k="addr:housenumber" v="22"/>
    <tag k="addr:street" v="Park Street"/>
    <tag k="addr:state" v="VT"/>
    <tag k="ref:vcgi:esiteid" v="9301"/>
  </node>
  <node id="-1485" visible="true" lat="44.19802282" lon="-72.49464348">
    <tag k="addr:city" v="Barre City"/>
    <tag k="addr:housenumber" v="19"/>
    <tag k="addr:street" v="Maple Grove Street"/>
    <tag k="addr:state" v="VT"/>
    <tag k="ref:vcgi:esiteid" v="9302"/>
  </node>
  <node id="-1487" visible="true" lat="44.19792505" lon="-72.513644">
    <tag k="addr:city" v="Barre City"/>
    <tag k="addr:housenumber" v="27"/>
    <tag k="addr:street" v="Dagmont Avenue"/>
    <tag k="addr:state" v="VT"/>
    <tag k="ref:vcgi:esiteid" v="9304"/>
  </node>
  <node id="-1488" visible="true" lat="44.19809616" lon="-72.49285573">
    <tag k="addr:city" v="Barre City"/>
    <tag k="addr:housenumber" v="59"/>
    <tag k="addr:street" v="Currier Street"/>
    <tag k="addr:state" v="VT"/>
    <tag k="ref:vcgi:esiteid" v="9305"/>
  </node>
  <node id="-1490" visible="true" lat="44.1980386" lon="-72.49724181">
    <tag k="addr:city" v="Barre City"/>
    <tag k="addr:housenumber" v="25"/>
    <tag k="addr:street" v="Park Street"/>
    <tag k="addr:state" v="VT"/>
    <tag k="ref:vcgi:esiteid" v="9308"/>
  </node>
  <node id="-1491" visible="true" lat="44.19795232" lon="-72.4953655">
    <tag k="addr:city" v="Barre City"/>
    <tag k="addr:housenumber" v="16"/>
    <tag k="addr:street" v="Maple Grove Street"/>
    <tag k="addr:state" v="VT"/>
    <tag k="ref:vcgi:esiteid" v="9309"/>
  </node>
  <node id="-1495" visible="true" lat="44.19797851" lon="-72.51634986">
    <tag k="addr:city" v="Barre City"/>
    <tag k="addr:housenumber" v="155"/>
    <tag k="addr:street" v="Berlin Street"/>
    <tag k="addr:state" v="VT"/>
    <tag k="ref:vcgi:esiteid" v="9313"/>
  </node>
  <node id="-1497" visible="true" lat="44.19795989" lon="-72.48493957">
    <tag k="addr:city" v="Barre City"/>
    <tag k="addr:housenumber" v="67"/>
    <tag k="addr:street" v="Clifton Street"/>
    <tag k="addr:state" v="VT"/>
    <tag k="ref:vcgi:esiteid" v="9315"/>
  </node>
  <node id="-1500" visible="true" lat="44.19794845" lon="-72.52101135">
    <tag k="addr:city" v="Barre City"/>
    <tag k="addr:housenumber" v="39"/>
    <tag k="addr:street" v="Bailey Street"/>
    <tag k="addr:state" v="VT"/>
    <tag k="ref:vcgi:esiteid" v="9318"/>
  </node>
  <node id="-1502" visible="true" lat="44.19792558" lon="-72.49604312">
    <tag k="addr:city" v="Barre City"/>
    <tag k="addr:housenumber" v="27"/>
    <tag k="addr:street" v="East Street"/>
    <tag k="addr:state" v="VT"/>
    <tag k="ref:vcgi:esiteid" v="9320"/>
  </node>
  <node id="-1503" visible="true" lat="44.19785275" lon="-72.51466848">
    <tag k="addr:city" v="Barre City"/>
    <tag k="addr:housenumber" v="8"/>
    <tag k="addr:street" v="Lois Circle"/>
    <tag k="addr:state" v="VT"/>
    <tag k="ref:vcgi:esiteid" v="9321"/>
  </node>
  <node id="-1506" visible="true" lat="44.19789221" lon="-72.49668447">
    <tag k="addr:city" v="Barre City"/>
    <tag k="addr:housenumber" v="24"/>
    <tag k="addr:street" v="East Street"/>
    <tag k="addr:state" v="VT"/>
    <tag k="ref:vcgi:esiteid" v="9325"/>
  </node>
  <node id="-1507" visible="true" lat="44.19782555" lon="-72.51531245">
    <tag k="addr:city" v="Barre City"/>
    <tag k="addr:housenumber" v="9"/>
    <tag k="addr:street" v="Lois Circle"/>
    <tag k="addr:state" v="VT"/>
    <tag k="ref:vcgi:esiteid" v="9327"/>
  </node>
  <node id="-1513" visible="true" lat="44.19789291" lon="-72.49734564">
    <tag k="addr:city" v="Barre City"/>
    <tag k="addr:housenumber" v="21"/>
    <tag k="addr:street" v="Park Street"/>
    <tag k="addr:state" v="VT"/>
    <tag k="ref:vcgi:esiteid" v="9333"/>
  </node>
  <node id="-1520" visible="true" lat="44.19789736" lon="-72.49480271">
    <tag k="addr:city" v="Barre City"/>
    <tag k="addr:housenumber" v="15"/>
    <tag k="addr:street" v="Maple Grove Street"/>
    <tag k="addr:state" v="VT"/>
    <tag k="ref:vcgi:esiteid" v="9340"/>
  </node>
  <node id="-1521" visible="true" lat="44.1977559" lon="-72.52151093">
    <tag k="addr:city" v="Barre City"/>
    <tag k="addr:housenumber" v="40"/>
    <tag k="addr:street" v="Bailey Street"/>
    <tag k="addr:state" v="VT"/>
    <tag k="ref:vcgi:esiteid" v="9342"/>
  </node>
  <node id="-1527" visible="true" lat="44.19779205" lon="-72.4844284">
    <tag k="addr:city" v="Barre City"/>
    <tag k="addr:housenumber" v="78"/>
    <tag k="addr:street" v="Woodland Drive"/>
    <tag k="addr:state" v="VT"/>
    <tag k="ref:vcgi:esiteid" v="9348"/>
  </node>
  <node id="-1529" visible="true" lat="44.19777679" lon="-72.49323272">
    <tag k="addr:city" v="Barre City"/>
    <tag k="addr:housenumber" v="45"/>
    <tag k="addr:street" v="Currier Street"/>
    <tag k="addr:state" v="VT"/>
    <tag k="ref:vcgi:esiteid" v="9350"/>
  </node>
  <node id="-1533" visible="true" lat="44.19773295" lon="-72.49550867">
    <tag k="addr:city" v="Barre City"/>
    <tag k="addr:housenumber" v="10"/>
    <tag k="addr:street" v="Maple Grove Street"/>
    <tag k="addr:state" v="VT"/>
    <tag k="ref:vcgi:esiteid" v="9354"/>
  </node>
  <node id="-1535" visible="true" lat="44.19772913" lon="-72.49679974">
    <tag k="addr:city" v="Barre City"/>
    <tag k="addr:housenumber" v="20"/>
    <tag k="addr:street" v="East Street"/>
    <tag k="addr:state" v="VT"/>
    <tag k="ref:vcgi:esiteid" v="9356"/>
  </node>
  <node id="-1536" visible="true" lat="44.19774246" lon="-72.49749755">
    <tag k="addr:city" v="Barre City"/>
    <tag k="addr:housenumber" v="17"/>
    <tag k="addr:street" v="Park Street"/>
    <tag k="addr:state" v="VT"/>
    <tag k="ref:vcgi:esiteid" v="9357"/>
  </node>
  <node id="-1540" visible="true" lat="44.19773289" lon="-72.49616385">
    <tag k="addr:city" v="Barre City"/>
    <tag k="addr:housenumber" v="25"/>
    <tag k="addr:street" v="East Street"/>
    <tag k="addr:state" v="VT"/>
    <tag k="ref:vcgi:esiteid" v="9363"/>
  </node>
  <node id="-1543" visible="true" lat="44.19769988" lon="-72.51636518">
    <tag k="addr:city" v="Barre City"/>
    <tag k="addr:housenumber" v="159"/>
    <tag k="addr:street" v="Berlin Street"/>
    <tag k="addr:state" v="VT"/>
    <tag k="ref:vcgi:esiteid" v="9366"/>
  </node>
  <node id="-1545" visible="true" lat="44.19768524" lon="-72.49503326">
    <tag k="addr:city" v="Barre City"/>
    <tag k="addr:housenumber" v="11"/>
    <tag k="addr:street" v="Maple Grove Street"/>
    <tag k="addr:state" v="VT"/>
    <tag k="ref:vcgi:esiteid" v="9368"/>
  </node>
  <node id="-1548" visible="true" lat="44.19771522" lon="-72.52054172">
    <tag k="addr:city" v="Barre City"/>
    <tag k="addr:housenumber" v="31"/>
    <tag k="addr:street" v="Bailey Street"/>
    <tag k="addr:state" v="VT"/>
    <tag k="ref:vcgi:esiteid" v="9371"/>
  </node>
  <node id="-1550" visible="true" lat="44.19745498" lon="-72.52138597">
    <tag k="addr:city" v="Barre City"/>
    <tag k="addr:housenumber" v="38"/>
    <tag k="addr:street" v="Bailey Street"/>
    <tag k="addr:state" v="VT"/>
    <tag k="ref:vcgi:esiteid" v="9373"/>
  </node>
  <node id="-1553" visible="true" lat="44.19761276" lon="-72.4839859">
    <tag k="addr:city" v="Barre City"/>
    <tag k="addr:housenumber" v="77"/>
    <tag k="addr:street" v="Woodland Drive"/>
    <tag k="addr:state" v="VT"/>
    <tag k="ref:vcgi:esiteid" v="9377"/>
  </node>
  <node id="-1555" visible="true" lat="44.19756894" lon="-72.49561952">
    <tag k="addr:city" v="Barre City"/>
    <tag k="addr:housenumber" v="6"/>
    <tag k="addr:street" v="Maple Grove Street"/>
    <tag k="addr:state" v="VT"/>
    <tag k="ref:vcgi:esiteid" v="9379"/>
  </node>
  <node id="-1559" visible="true" lat="44.197612" lon="-72.49330412">
    <tag k="addr:city" v="Barre City"/>
    <tag k="addr:housenumber" v="41"/>
    <tag k="addr:street" v="Currier Street"/>
    <tag k="addr:state" v="VT"/>
    <tag k="ref:vcgi:esiteid" v="9383"/>
  </node>
  <node id="-1560" visible="true" lat="44.19761652" lon="-72.49628991">
    <tag k="addr:city" v="Barre City"/>
    <tag k="addr:housenumber" v="21"/>
    <tag k="addr:street" v="East Street"/>
    <tag k="addr:state" v="VT"/>
    <tag k="ref:vcgi:esiteid" v="9384"/>
  </node>
  <node id="-1565" visible="true" lat="44.19752243" lon="-72.49409261">
    <tag k="addr:city" v="Barre City"/>
    <tag k="addr:housenumber" v="28"/>
    <tag k="addr:street" v="Currier Street"/>
    <tag k="addr:state" v="VT"/>
    <tag k="ref:vcgi:esiteid" v="9391"/>
  </node>
  <node id="-1566" visible="true" lat="44.1975212" lon="-72.49516296">
    <tag k="addr:city" v="Barre City"/>
    <tag k="addr:housenumber" v="7"/>
    <tag k="addr:street" v="Maple Grove Street"/>
    <tag k="addr:state" v="VT"/>
    <tag k="ref:vcgi:esiteid" v="9393"/>
  </node>
  <node id="-1567" visible="true" lat="44.1975212" lon="-72.48455047">
    <tag k="addr:city" v="Barre City"/>
    <tag k="addr:housenumber" v="74"/>
    <tag k="addr:street" v="Woodland Drive"/>
    <tag k="addr:state" v="VT"/>
    <tag k="ref:vcgi:esiteid" v="9394"/>
  </node>
  <node id="-1568" visible="true" lat="44.19760855" lon="-72.51371002">
    <tag k="addr:city" v="Barre City"/>
    <tag k="addr:housenumber" v="261"/>
    <tag k="addr:street" v="Prospect Street"/>
    <tag k="addr:state" v="VT"/>
    <tag k="ref:vcgi:esiteid" v="9396"/>
  </node>
  <node id="-1571" visible="true" lat="44.1976223" lon="-72.5141221">
    <tag k="addr:city" v="Barre City"/>
    <tag k="addr:housenumber" v="267"/>
    <tag k="addr:street" v="Prospect Street"/>
    <tag k="addr:state" v="VT"/>
    <tag k="ref:vcgi:esiteid" v="9400"/>
  </node>
  <node id="-1575" visible="true" lat="44.19753636" lon="-72.49611865">
    <tag k="addr:city" v="Barre City"/>
    <tag k="addr:housenumber" v="4"/>
    <tag k="addr:street" v="Cliff Street"/>
    <tag k="addr:state" v="VT"/>
    <tag k="ref:vcgi:esiteid" v="9406"/>
  </node>
  <node id="-1577" visible="true" lat="44.19759087" lon="-72.49762688">
    <tag k="addr:city" v="Barre City"/>
    <tag k="addr:housenumber" v="2"/>
    <tag k="addr:street" v="North Street"/>
    <tag k="addr:state" v="VT"/>
    <tag k="ref:vcgi:esiteid" v="9408"/>
  </node>
  <node id="-1579" visible="true" lat="44.19743155" lon="-72.49530477">
    <tag k="addr:city" v="Barre City"/>
    <tag k="addr:housenumber" v="3"/>
    <tag k="addr:street" v="Maple Grove Street"/>
    <tag k="addr:state" v="VT"/>
    <tag k="ref:vcgi:esiteid" v="9410"/>
  </node>
  <node id="-1580" visible="true" lat="44.19730584" lon="-72.4933678">
    <tag k="addr:city" v="Barre City"/>
    <tag k="addr:housenumber" v="31"/>
    <tag k="addr:street" v="Currier Street"/>
    <tag k="addr:state" v="VT"/>
    <tag k="ref:vcgi:esiteid" v="9411"/>
  </node>
  <node id="-1581" visible="true" lat="44.19741821" lon="-72.51631164">
    <tag k="addr:city" v="Barre City"/>
    <tag k="addr:housenumber" v="163"/>
    <tag k="addr:street" v="Berlin Street"/>
    <tag k="addr:state" v="VT"/>
    <tag k="ref:vcgi:esiteid" v="9412"/>
  </node>
  <node id="-1585" visible="true" lat="44.19750963" lon="-72.495925">
    <tag k="addr:city" v="Barre City"/>
    <tag k="addr:housenumber" v="6"/>
    <tag k="addr:street" v="Cliff Street"/>
    <tag k="addr:state" v="VT"/>
    <tag k="ref:vcgi:esiteid" v="9416"/>
  </node>
  <node id="-1586" visible="true" lat="44.19753075" lon="-72.51467901">
    <tag k="addr:city" v="Barre City"/>
    <tag k="addr:housenumber" v="271"/>
    <tag k="addr:street" v="Prospect Street"/>
    <tag k="addr:state" v="VT"/>
    <tag k="ref:vcgi:esiteid" v="9417"/>
  </node>
  <node id="-1590" visible="true" lat="44.19746756" lon="-72.5154749">
    <tag k="addr:city" v="Barre City"/>
    <tag k="addr:housenumber" v="287"/>
    <tag k="addr:street" v="Prospect Street"/>
    <tag k="addr:state" v="VT"/>
    <tag k="ref:vcgi:esiteid" v="9421"/>
  </node>
  <node id="-1595" visible="true" lat="44.19736771" lon="-72.49429076">
    <tag k="addr:city" v="Barre City"/>
    <tag k="addr:housenumber" v="20"/>
    <tag k="addr:street" v="Currier Street"/>
    <tag k="addr:state" v="VT"/>
    <tag k="ref:vcgi:esiteid" v="9427"/>
  </node>
  <node id="-1597" visible="true" lat="44.19747339" lon="-72.49725342">
    <tag k="addr:city" v="Barre City"/>
    <tag k="addr:housenumber" v="6"/>
    <tag k="addr:street" v="North Street"/>
    <tag k="addr:state" v="VT"/>
    <tag k="ref:vcgi:esiteid" v="9430"/>
  </node>
  <node id="-1598" visible="true" lat="44.19734832" lon="-72.49645246">
    <tag k="addr:city" v="Barre City"/>
    <tag k="addr:housenumber" v="15"/>
    <tag k="addr:street" v="East Street"/>
    <tag k="addr:state" v="VT"/>
    <tag k="ref:vcgi:esiteid" v="9431"/>
  </node>
  <node id="-1601" visible="true" lat="44.19722742" lon="-72.51402278">
    <tag k="addr:city" v="Barre City"/>
    <tag k="addr:housenumber" v="262"/>
    <tag k="addr:street" v="Prospect Street"/>
    <tag k="addr:state" v="VT"/>
    <tag k="ref:vcgi:esiteid" v="9434"/>
  </node>
  <node id="-1602" visible="true" lat="44.1974333" lon="-72.49576226">
    <tag k="addr:city" v="Barre City"/>
    <tag k="addr:housenumber" v="14"/>
    <tag k="addr:street" v="Cliff Street"/>
    <tag k="addr:state" v="VT"/>
    <tag k="ref:vcgi:esiteid" v="9436"/>
  </node>
  <node id="-1603" visible="true" lat="44.19729404" lon="-72.52087356">
    <tag k="addr:city" v="Barre City"/>
    <tag k="addr:housenumber" v="30"/>
    <tag k="addr:street" v="Bailey Street"/>
    <tag k="addr:state" v="VT"/>
    <tag k="ref:vcgi:esiteid" v="9437"/>
  </node>
  <node id="-1604" visible="true" lat="44.19728088" lon="-72.48473358">
    <tag k="addr:city" v="Barre City"/>
    <tag k="addr:housenumber" v="68"/>
    <tag k="addr:street" v="Woodland Drive"/>
    <tag k="addr:state" v="VT"/>
    <tag k="ref:vcgi:esiteid" v="9438"/>
  </node>
  <node id="-1607" visible="true" lat="44.19735531" lon="-72.51719926">
    <tag k="addr:city" v="Barre City"/>
    <tag k="addr:housenumber" v="319"/>
    <tag k="addr:street" v="Prospect Street"/>
    <tag k="addr:state" v="VT"/>
    <tag k="ref:vcgi:esiteid" v="9441"/>
  </node>
  <node id="-1608" visible="true" lat="44.19735134" lon="-72.497136">
    <tag k="addr:city" v="Barre City"/>
    <tag k="addr:housenumber" v="8"/>
    <tag k="addr:street" v="North Street"/>
    <tag k="addr:state" v="VT"/>
    <tag k="ref:vcgi:esiteid" v="9442"/>
  </node>
  <node id="-1609" visible="true" lat="44.19730929" lon="-72.51770784">
    <tag k="addr:city" v="Barre City"/>
    <tag k="addr:housenumber" v="323"/>
    <tag k="addr:street" v="Prospect Street"/>
    <tag k="addr:state" v="VT"/>
    <tag k="ref:vcgi:esiteid" v="9443"/>
  </node>
  <node id="-1611" visible="true" lat="44.19725036" lon="-72.48417663">
    <tag k="addr:city" v="Barre City"/>
    <tag k="addr:housenumber" v="69"/>
    <tag k="addr:street" v="Woodland Drive"/>
    <tag k="addr:state" v="VT"/>
    <tag k="ref:vcgi:esiteid" v="9445"/>
  </node>
  <node id="-1612" visible="true" lat="44.19715035" lon="-72.49596394">
    <tag k="addr:city" v="Barre City"/>
    <tag k="addr:housenumber" v="11"/>
    <tag k="addr:street" v="Cliff Street"/>
    <tag k="addr:state" v="VT"/>
    <tag k="ref:vcgi:esiteid" v="9446"/>
  </node>
  <node id="-1613" visible="true" lat="44.19736196" lon="-72.49366694">
    <tag k="addr:city" v="Barre City"/>
    <tag k="addr:housenumber" v="29"/>
    <tag k="addr:street" v="Currier Street"/>
    <tag k="addr:state" v="VT"/>
    <tag k="ref:vcgi:esiteid" v="9447"/>
  </node>
  <node id="-1615" visible="true" lat="44.19729987" lon="-72.49540395">
    <tag k="addr:city" v="Barre City"/>
    <tag k="addr:housenumber" v="1"/>
    <tag k="addr:street" v="Maple Grove Street"/>
    <tag k="addr:state" v="VT"/>
    <tag k="ref:vcgi:esiteid" v="9449"/>
  </node>
  <node id="-1618" visible="true" lat="44.19721984" lon="-72.49434661">
    <tag k="addr:city" v="Barre City"/>
    <tag k="addr:housenumber" v="16"/>
    <tag k="addr:street" v="Currier Street"/>
    <tag k="addr:state" v="VT"/>
    <tag k="ref:vcgi:esiteid" v="9452"/>
  </node>
  <node id="-1619" visible="true" lat="44.19721603" lon="-72.51377105">
    <tag k="addr:city" v="Barre City"/>
    <tag k="addr:housenumber" v="256"/>
    <tag k="addr:street" v="Prospect Street"/>
    <tag k="addr:state" v="VT"/>
    <tag k="ref:vcgi:esiteid" v="9453"/>
  </node>
  <node id="-1622" visible="true" lat="44.19719313" lon="-72.49655613">
    <tag k="addr:city" v="Barre City"/>
    <tag k="addr:housenumber" v="13"/>
    <tag k="addr:street" v="East Street"/>
    <tag k="addr:state" v="VT"/>
    <tag k="ref:vcgi:esiteid" v="9456"/>
  </node>
  <node id="-1624" visible="true" lat="44.1971817" lon="-72.49516296">
    <tag k="addr:city" v="Barre City"/>
    <tag k="addr:housenumber" v="18"/>
    <tag k="addr:street" v="Cliff Street"/>
    <tag k="addr:state" v="VT"/>
    <tag k="ref:vcgi:esiteid" v="9458"/>
  </node>
  <node id="-1625" visible="true" lat="44.19728049" lon="-72.51807658">
    <tag k="addr:city" v="Barre City"/>
    <tag k="addr:housenumber" v="327"/>
    <tag k="addr:street" v="Prospect Street"/>
    <tag k="addr:state" v="VT"/>
    <tag k="ref:vcgi:esiteid" v="9459"/>
  </node>
  <node id="-1629" visible="true" lat="44.1971576" lon="-72.49348916">
    <tag k="addr:city" v="Barre City"/>
    <tag k="addr:housenumber" v="27"/>
    <tag k="addr:street" v="Currier Street"/>
    <tag k="addr:state" v="VT"/>
    <tag k="ref:vcgi:esiteid" v="9463"/>
  </node>
  <node id="-1632" visible="true" lat="44.19721182" lon="-72.51844283">
    <tag k="addr:city" v="Barre City"/>
    <tag k="addr:housenumber" v="331"/>
    <tag k="addr:street" v="Prospect Street"/>
    <tag k="addr:state" v="VT"/>
    <tag k="ref:vcgi:esiteid" v="9466"/>
  </node>
  <node id="-1633" visible="true" lat="44.19709396" lon="-72.51463317">
    <tag k="addr:city" v="Barre City"/>
    <tag k="addr:housenumber" v="270"/>
    <tag k="addr:street" v="Prospect Street"/>
    <tag k="addr:state" v="VT"/>
    <tag k="ref:vcgi:esiteid" v="9467"/>
  </node>
  <node id="-1634" visible="true" lat="44.19709777" lon="-72.49450683">
    <tag k="addr:city" v="Barre City"/>
    <tag k="addr:housenumber" v="4"/>
    <tag k="addr:street" v="Currier Street"/>
    <tag k="addr:state" v="VT"/>
    <tag k="ref:vcgi:esiteid" v="9468"/>
  </node>
  <node id="-1636" visible="true" lat="44.19709015" lon="-72.51548004">
    <tag k="addr:city" v="Barre City"/>
    <tag k="addr:housenumber" v="286"/>
    <tag k="addr:street" v="Prospect Street"/>
    <tag k="addr:state" v="VT"/>
    <tag k="ref:vcgi:esiteid" v="9470"/>
  </node>
  <node id="-1638" visible="true" lat="44.19709717" lon="-72.51511136">
    <tag k="addr:city" v="Barre City"/>
    <tag k="addr:housenumber" v="276"/>
    <tag k="addr:street" v="Prospect Street"/>
    <tag k="addr:state" v="VT"/>
    <tag k="ref:vcgi:esiteid" v="9472"/>
  </node>
  <node id="-1639" visible="true" lat="44.19699075" lon="-72.51672622">
    <tag k="addr:city" v="Barre City"/>
    <tag k="addr:housenumber" v="314"/>
    <tag k="addr:street" v="Prospect Street"/>
    <tag k="addr:state" v="VT"/>
    <tag k="ref:vcgi:esiteid" v="9473"/>
  </node>
  <node id="-1641" visible="true" lat="44.19707489" lon="-72.52000427">
    <tag k="addr:city" v="Barre City"/>
    <tag k="addr:housenumber" v="347"/>
    <tag k="addr:street" v="Prospect Street"/>
    <tag k="addr:state" v="VT"/>
    <tag k="ref:vcgi:esiteid" v="9475"/>
  </node>
  <node id="-1643" visible="true" lat="44.19707107" lon="-72.51313018">
    <tag k="addr:city" v="Barre City"/>
    <tag k="addr:housenumber" v="3"/>
    <tag k="addr:street" v="Jacques Street"/>
    <tag k="addr:state" v="VT"/>
    <tag k="ref:vcgi:esiteid" v="9477"/>
  </node>
  <node id="-1644" visible="true" lat="44.1969856" lon="-72.51713447">
    <tag k="addr:city" v="Barre City"/>
    <tag k="addr:housenumber" v="318"/>
    <tag k="addr:street" v="Prospect Street"/>
    <tag k="addr:state" v="VT"/>
    <tag k="ref:vcgi:esiteid" v="9478"/>
  </node>
  <node id="-1646" visible="true" lat="44.19715826" lon="-72.51888029">
    <tag k="addr:city" v="Barre City"/>
    <tag k="addr:housenumber" v="335"/>
    <tag k="addr:street" v="Prospect Street"/>
    <tag k="addr:state" v="VT"/>
    <tag k="ref:vcgi:esiteid" v="9480"/>
  </node>
  <node id="-1647" visible="true" lat="44.19711986" lon="-72.49488067">
    <tag k="addr:city" v="Barre City"/>
    <tag k="addr:housenumber" v="22"/>
    <tag k="addr:street" v="Cliff Street"/>
    <tag k="addr:state" v="VT"/>
    <tag k="ref:vcgi:esiteid" v="9481"/>
  </node>
  <node id="-1648" visible="true" lat="44.19703292" lon="-72.49412536">
    <tag k="addr:city" v="Barre City"/>
    <tag k="addr:housenumber" v="15"/>
    <tag k="addr:street" v="Currier Street"/>
    <tag k="addr:state" v="VT"/>
    <tag k="ref:vcgi:esiteid" v="9482"/>
  </node>
  <node id="-1649" visible="true" lat="44.19705131" lon="-72.48642662">
    <tag k="addr:city" v="Barre City"/>
    <tag k="addr:housenumber" v="6"/>
    <tag k="addr:street" v="Edgewood Avenue"/>
    <tag k="addr:state" v="VT"/>
    <tag k="ref:vcgi:esiteid" v="9483"/>
  </node>
  <node id="-1652" visible="true" lat="44.19699314" lon="-72.49672869">
    <tag k="addr:city" v="Barre City"/>
    <tag k="addr:housenumber" v="9"/>
    <tag k="addr:street" v="East Street"/>
    <tag k="addr:state" v="VT"/>
    <tag k="ref:vcgi:esiteid" v="9486"/>
  </node>
  <node id="-1655" visible="true" lat="44.19693219" lon="-72.51749305">
    <tag k="addr:city" v="Barre City"/>
    <tag k="addr:housenumber" v="322"/>
    <tag k="addr:street" v="Prospect Street"/>
    <tag k="addr:state" v="VT"/>
    <tag k="ref:vcgi:esiteid" v="9490"/>
  </node>
  <node id="-1658" visible="true" lat="44.19701094" lon="-72.49468019">
    <tag k="addr:city" v="Barre City"/>
    <tag k="addr:housenumber" v="26"/>
    <tag k="addr:street" v="Cliff Street"/>
    <tag k="addr:state" v="VT"/>
    <tag k="ref:vcgi:esiteid" v="9493"/>
  </node>
  <node id="-1659" visible="true" lat="44.19688676" lon="-72.51793757">
    <tag k="addr:city" v="Barre City"/>
    <tag k="addr:housenumber" v="326"/>
    <tag k="addr:street" v="Prospect Street"/>
    <tag k="addr:state" v="VT"/>
    <tag k="ref:vcgi:esiteid" v="9494"/>
  </node>
  <node id="-1661" visible="true" lat="44.19697189" lon="-72.48699188">
    <tag k="addr:city" v="Barre City"/>
    <tag k="addr:housenumber" v="23"/>
    <tag k="addr:street" v="Abbott Avenue"/>
    <tag k="addr:state" v="VT"/>
    <tag k="ref:vcgi:esiteid" v="9496"/>
  </node>
  <node id="-1664" visible="true" lat="44.19679084" lon="-72.48486495">
    <tag k="addr:city" v="Barre City"/>
    <tag k="addr:housenumber" v="62"/>
    <tag k="addr:street" v="Woodland Drive"/>
    <tag k="addr:state" v="VT"/>
    <tag k="ref:vcgi:esiteid" v="9499"/>
  </node>
  <node id="-1665" visible="true" lat="44.19684098" lon="-72.51825037">
    <tag k="addr:city" v="Barre City"/>
    <tag k="addr:housenumber" v="330"/>
    <tag k="addr:street" v="Prospect Street"/>
    <tag k="addr:state" v="VT"/>
    <tag k="ref:vcgi:esiteid" v="9500"/>
  </node>
  <node id="-1666" visible="true" lat="44.196781" lon="-72.51864394">
    <tag k="addr:city" v="Barre City"/>
    <tag k="addr:housenumber" v="334"/>
    <tag k="addr:street" v="Prospect Street"/>
    <tag k="addr:state" v="VT"/>
    <tag k="ref:vcgi:esiteid" v="9501"/>
  </node>
  <node id="-1668" visible="true" lat="44.19690322" lon="-72.48429107">
    <tag k="addr:city" v="Barre City"/>
    <tag k="addr:housenumber" v="63"/>
    <tag k="addr:street" v="Woodland Drive"/>
    <tag k="addr:state" v="VT"/>
    <tag k="ref:vcgi:esiteid" v="9504"/>
  </node>
  <node id="-1674" visible="true" lat="44.19684408" lon="-72.51262028">
    <tag k="addr:city" v="Barre City"/>
    <tag k="addr:housenumber" v="248"/>
    <tag k="addr:street" v="Prospect Street"/>
    <tag k="addr:state" v="VT"/>
    <tag k="ref:vcgi:esiteid" v="9512"/>
  </node>
  <node id="-1675" visible="true" lat="44.19672949" lon="-72.51902857">
    <tag k="addr:city" v="Barre City"/>
    <tag k="addr:housenumber" v="338"/>
    <tag k="addr:street" v="Prospect Street"/>
    <tag k="addr:state" v="VT"/>
    <tag k="ref:vcgi:esiteid" v="9513"/>
  </node>
  <node id="-1676" visible="true" lat="44.19688911" lon="-72.49604515">
    <tag k="addr:city" v="Barre City"/>
    <tag k="addr:housenumber" v="14"/>
    <tag k="addr:street" v="Terrace Avenue"/>
    <tag k="addr:state" v="VT"/>
    <tag k="ref:vcgi:esiteid" v="9514"/>
  </node>
  <node id="-1678" visible="true" lat="44.19680333" lon="-72.51335412">
    <tag k="addr:city" v="Barre City"/>
    <tag k="addr:housenumber" v="9"/>
    <tag k="addr:street" v="Jacques Street"/>
    <tag k="addr:state" v="VT"/>
    <tag k="ref:vcgi:esiteid" v="9518"/>
  </node>
  <node id="-1679" visible="true" lat="44.19676208" lon="-72.48700714">
    <tag k="addr:city" v="Barre City"/>
    <tag k="addr:housenumber" v="21"/>
    <tag k="addr:street" v="Abbott Avenue"/>
    <tag k="addr:state" v="VT"/>
    <tag k="ref:vcgi:esiteid" v="9519"/>
  </node>
  <node id="-1680" visible="true" lat="44.1968047" lon="-72.49688321">
    <tag k="addr:city" v="Barre City"/>
    <tag k="addr:housenumber" v="5"/>
    <tag k="addr:street" v="East Street"/>
    <tag k="addr:state" v="VT"/>
    <tag k="ref:vcgi:esiteid" v="9520"/>
  </node>
  <node id="-1684" visible="true" lat="44.19687579" lon="-72.52067749">
    <tag k="addr:city" v="Barre City"/>
    <tag k="addr:housenumber" v="385"/>
    <tag k="addr:street" v="Prospect Street"/>
    <tag k="addr:state" v="VT"/>
    <tag k="ref:vcgi:esiteid" v="9524"/>
  </node>
  <node id="-1686" visible="true" lat="44.19672775" lon="-72.48605346">
    <tag k="addr:city" v="Barre City"/>
    <tag k="addr:housenumber" v="1"/>
    <tag k="addr:street" v="Edgewood Avenue"/>
    <tag k="addr:state" v="VT"/>
    <tag k="ref:vcgi:esiteid" v="9526"/>
  </node>
  <node id="-1692" visible="true" lat="44.19658412" lon="-72.49834489">
    <tag k="addr:city" v="Barre City"/>
    <tag k="addr:housenumber" v="3"/>
    <tag k="addr:street" v="Academy Street"/>
    <tag k="addr:state" v="VT"/>
    <tag k="ref:vcgi:esiteid" v="9532"/>
  </node>
  <node id="-1695" visible="true" lat="44.19659181" lon="-72.51997574">
    <tag k="addr:city" v="Barre City"/>
    <tag k="addr:housenumber" v="346"/>
    <tag k="addr:street" v="Prospect Street"/>
    <tag k="addr:state" v="VT"/>
    <tag k="ref:vcgi:esiteid" v="9535"/>
  </node>
  <node id="-1696" visible="true" lat="44.1966629" lon="-72.48443603">
    <tag k="addr:city" v="Barre City"/>
    <tag k="addr:housenumber" v="59"/>
    <tag k="addr:street" v="Woodland Drive"/>
    <tag k="addr:state" v="VT"/>
    <tag k="ref:vcgi:esiteid" v="9536"/>
  </node>
  <node id="-1700" visible="true" lat="44.19672185" lon="-72.5149716">
    <tag k="addr:city" v="Barre City"/>
    <tag k="addr:housenumber" v="4"/>
    <tag k="addr:street" v="Daniel Drive"/>
    <tag k="addr:state" v="VT"/>
    <tag k="ref:vcgi:esiteid" v="9543"/>
  </node>
  <node id="-1705" visible="true" lat="44.19654758" lon="-72.51628854">
    <tag k="addr:city" v="Barre City"/>
    <tag k="addr:housenumber" v="4"/>
    <tag k="addr:street" v="Westwood Parkway"/>
    <tag k="addr:state" v="VT"/>
    <tag k="ref:vcgi:esiteid" v="9548"/>
  </node>
  <node id="-1706" visible="true" lat="44.19660497" lon="-72.51682371">
    <tag k="addr:city" v="Barre City"/>
    <tag k="addr:housenumber" v="7"/>
    <tag k="addr:street" v="Westwood Parkway"/>
    <tag k="addr:state" v="VT"/>
    <tag k="ref:vcgi:esiteid" v="9550"/>
  </node>
  <node id="-1710" visible="true" lat="44.19659083" lon="-72.4970415">
    <tag k="addr:city" v="Barre City"/>
    <tag k="addr:housenumber" v="1"/>
    <tag k="addr:street" v="East Street"/>
    <tag k="addr:state" v="VT"/>
    <tag k="ref:vcgi:esiteid" v="9554"/>
  </node>
  <node id="-1713" visible="true" lat="44.19666943" lon="-72.52113255">
    <tag k="addr:city" v="Barre City"/>
    <tag k="addr:housenumber" v="387"/>
    <tag k="addr:street" v="Prospect Street"/>
    <tag k="addr:state" v="VT"/>
    <tag k="ref:vcgi:esiteid" v="9557"/>
  </node>
  <node id="-1719" visible="true" lat="44.19639468" lon="-72.52033904">
    <tag k="addr:city" v="Barre City"/>
    <tag k="addr:housenumber" v="350"/>
    <tag k="addr:street" v="Prospect Street"/>
    <tag k="addr:state" v="VT"/>
    <tag k="ref:vcgi:esiteid" v="9563"/>
  </node>
  <node id="-1721" visible="true" lat="44.19652417" lon="-72.51344614">
    <tag k="addr:city" v="Barre City"/>
    <tag k="addr:housenumber" v="13"/>
    <tag k="addr:street" v="Jacques Street"/>
    <tag k="addr:state" v="VT"/>
    <tag k="ref:vcgi:esiteid" v="9566"/>
  </node>
  <node id="-1735" visible="true" lat="44.19645222" lon="-72.49596836">
    <tag k="addr:city" v="Barre City"/>
    <tag k="addr:housenumber" v="30"/>
    <tag k="addr:street" v="Academy Street"/>
    <tag k="addr:state" v="VT"/>
    <tag k="ref:vcgi:esiteid" v="9581"/>
  </node>
  <node id="-1736" visible="true" lat="44.19626095" lon="-72.51518778">
    <tag k="addr:city" v="Barre City"/>
    <tag k="addr:housenumber" v="16"/>
    <tag k="addr:street" v="Country Way"/>
    <tag k="addr:state" v="VT"/>
    <tag k="ref:vcgi:esiteid" v="9582"/>
  </node>
  <node id="-1737" visible="true" lat="44.19648324" lon="-72.51756065">
    <tag k="addr:city" v="Barre City"/>
    <tag k="addr:housenumber" v="9"/>
    <tag k="addr:street" v="Arioli Avenue"/>
    <tag k="addr:state" v="VT"/>
    <tag k="ref:vcgi:esiteid" v="9583"/>
  </node>
  <node id="-1740" visible="true" lat="44.1963511" lon="-72.51583905">
    <tag k="addr:city" v="Barre City"/>
    <tag k="addr:housenumber" v="17"/>
    <tag k="addr:street" v="Country Way"/>
    <tag k="addr:state" v="VT"/>
    <tag k="ref:vcgi:esiteid" v="9587"/>
  </node>
  <node id="-1741" visible="true" lat="44.19644803" lon="-72.51800719">
    <tag k="addr:city" v="Barre City"/>
    <tag k="addr:housenumber" v="13"/>
    <tag k="addr:street" v="Arioli Avenue"/>
    <tag k="addr:state" v="VT"/>
    <tag k="ref:vcgi:esiteid" v="9588"/>
  </node>
  <node id="-1745" visible="true" lat="44.19640457" lon="-72.49674454">
    <tag k="addr:city" v="Barre City"/>
    <tag k="addr:housenumber" v="20"/>
    <tag k="addr:street" v="Academy Street"/>
    <tag k="addr:state" v="VT"/>
    <tag k="ref:vcgi:esiteid" v="9592"/>
  </node>
  <node id="-1747" visible="true" lat="44.19630432" lon="-72.48456573">
    <tag k="addr:city" v="Barre City"/>
    <tag k="addr:housenumber" v="57"/>
    <tag k="addr:street" v="Woodland Drive"/>
    <tag k="addr:state" v="VT"/>
    <tag k="ref:vcgi:esiteid" v="9594"/>
  </node>
  <node id="-1749" visible="true" lat="44.1962414" lon="-72.52060856">
    <tag k="addr:city" v="Barre City"/>
    <tag k="addr:housenumber" v="354"/>
    <tag k="addr:street" v="Prospect Street"/>
    <tag k="addr:state" v="VT"/>
    <tag k="ref:vcgi:esiteid" v="9596"/>
  </node>
  <node id="-1750" visible="true" lat="44.19624998" lon="-72.51642783">
    <tag k="addr:city" v="Barre City"/>
    <tag k="addr:housenumber" v="8"/>
    <tag k="addr:street" v="Westwood Parkway"/>
    <tag k="addr:state" v="VT"/>
    <tag k="ref:vcgi:esiteid" v="9598"/>
  </node>
  <node id="-1751" visible="true" lat="44.19638357" lon="-72.51414584">
    <tag k="addr:city" v="Barre City"/>
    <tag k="addr:housenumber" v="12"/>
    <tag k="addr:street" v="Daniel Drive"/>
    <tag k="addr:state" v="VT"/>
    <tag k="ref:vcgi:esiteid" v="9599"/>
  </node>
  <node id="-1753" visible="true" lat="44.19633349" lon="-72.49550912">
    <tag k="addr:city" v="Barre City"/>
    <tag k="addr:housenumber" v="36"/>
    <tag k="addr:street" v="Highland Avenue"/>
    <tag k="addr:state" v="VT"/>
    <tag k="ref:vcgi:esiteid" v="9601"/>
  </node>
  <node id="-1756" visible="true" lat="44.19629491" lon="-72.49650306">
    <tag k="addr:city" v="Barre City"/>
    <tag k="addr:housenumber" v="24"/>
    <tag k="addr:street" v="Academy Street"/>
    <tag k="addr:state" v="VT"/>
    <tag k="ref:vcgi:esiteid" v="9604"/>
  </node>
  <node id="-1757" visible="true" lat="44.19622981" lon="-72.48513015">
    <tag k="addr:city" v="Barre City"/>
    <tag k="addr:housenumber" v="56"/>
    <tag k="addr:street" v="Woodland Drive"/>
    <tag k="addr:state" v="VT"/>
    <tag k="ref:vcgi:esiteid" v="9605"/>
  </node>
  <node id="-1758" visible="true" lat="44.19633412" lon="-72.51860813">
    <tag k="addr:city" v="Barre City"/>
    <tag k="addr:housenumber" v="15"/>
    <tag k="addr:street" v="Arioli Avenue"/>
    <tag k="addr:state" v="VT"/>
    <tag k="ref:vcgi:esiteid" v="9607"/>
  </node>
  <node id="-1759" visible="true" lat="44.19618861" lon="-72.49707459">
    <tag k="addr:city" v="Barre City"/>
    <tag k="addr:housenumber" v="17"/>
    <tag k="addr:street" v="Academy Street"/>
    <tag k="addr:state" v="VT"/>
    <tag k="ref:vcgi:esiteid" v="9608"/>
  </node>
  <node id="-1762" visible="true" lat="44.19608289" lon="-72.49594371">
    <tag k="addr:city" v="Barre City"/>
    <tag k="addr:housenumber" v="39"/>
    <tag k="addr:street" v="Academy Street"/>
    <tag k="addr:state" v="VT"/>
    <tag k="ref:vcgi:esiteid" v="9612"/>
  </node>
  <node id="-1763" visible="true" lat="44.19614546" lon="-72.51366983">
    <tag k="addr:city" v="Barre City"/>
    <tag k="addr:housenumber" v="17"/>
    <tag k="addr:street" v="Jacques Street"/>
    <tag k="addr:state" v="VT"/>
    <tag k="ref:vcgi:esiteid" v="9615"/>
  </node>
  <node id="-1764" visible="true" lat="44.19614973" lon="-72.49565977">
    <tag k="addr:city" v="Barre City"/>
    <tag k="addr:housenumber" v="34"/>
    <tag k="addr:street" v="Highland Avenue"/>
    <tag k="addr:state" v="VT"/>
    <tag k="ref:vcgi:esiteid" v="9616"/>
  </node>
  <node id="-1767" visible="true" lat="44.19620305" lon="-72.48723768">
    <tag k="addr:city" v="Barre City"/>
    <tag k="addr:housenumber" v="9"/>
    <tag k="addr:street" v="Abbott Avenue"/>
    <tag k="addr:state" v="VT"/>
    <tag k="ref:vcgi:esiteid" v="9619"/>
  </node>
  <node id="-1768" visible="true" lat="44.19601665" lon="-72.49677083">
    <tag k="addr:city" v="Barre City"/>
    <tag k="addr:housenumber" v="23"/>
    <tag k="addr:street" v="Academy Street"/>
    <tag k="addr:state" v="VT"/>
    <tag k="ref:vcgi:esiteid" v="9620"/>
  </node>
  <node id="-1771" visible="true" lat="44.19606054" lon="-72.51760797">
    <tag k="addr:city" v="Barre City"/>
    <tag k="addr:housenumber" v="4"/>
    <tag k="addr:street" v="Palmisano Plaza"/>
    <tag k="addr:state" v="VT"/>
    <tag k="ref:vcgi:esiteid" v="9623"/>
  </node>
  <node id="-1773" visible="true" lat="44.19603246" lon="-72.51539141">
    <tag k="addr:city" v="Barre City"/>
    <tag k="addr:housenumber" v="20"/>
    <tag k="addr:street" v="Country Way"/>
    <tag k="addr:state" v="VT"/>
    <tag k="ref:vcgi:esiteid" v="9625"/>
  </node>
  <node id="-1775" visible="true" lat="44.19610711" lon="-72.51593773">
    <tag k="addr:city" v="Barre City"/>
    <tag k="addr:housenumber" v="21"/>
    <tag k="addr:street" v="Country Way"/>
    <tag k="addr:state" v="VT"/>
    <tag k="ref:vcgi:esiteid" v="9627"/>
  </node>
  <node id="-1776" visible="true" lat="44.19602123" lon="-72.51423474">
    <tag k="addr:city" v="Barre City"/>
    <tag k="addr:housenumber" v="16"/>
    <tag k="addr:street" v="Daniel Drive"/>
    <tag k="addr:state" v="VT"/>
    <tag k="ref:vcgi:esiteid" v="9628"/>
  </node>
  <node id="-1777" visible="true" lat="44.1960449" lon="-72.51702834">
    <tag k="addr:city" v="Barre City"/>
    <tag k="addr:housenumber" v="11"/>
    <tag k="addr:street" v="Westwood Parkway"/>
    <tag k="addr:state" v="VT"/>
    <tag k="ref:vcgi:esiteid" v="9629"/>
  </node>
  <node id="-1778" visible="true" lat="44.1960411" lon="-72.51655578">
    <tag k="addr:city" v="Barre City"/>
    <tag k="addr:housenumber" v="12"/>
    <tag k="addr:street" v="Westwood Parkway"/>
    <tag k="addr:state" v="VT"/>
    <tag k="ref:vcgi:esiteid" v="9630"/>
  </node>
  <node id="-1783" visible="true" lat="44.19594542" lon="-72.52083204">
    <tag k="addr:city" v="Barre City"/>
    <tag k="addr:housenumber" v="358"/>
    <tag k="addr:street" v="Prospect Street"/>
    <tag k="addr:state" v="VT"/>
    <tag k="ref:vcgi:esiteid" v="9635"/>
  </node>
  <node id="-1787" visible="true" lat="44.19592007" lon="-72.49650041">
    <tag k="addr:city" v="Barre City"/>
    <tag k="addr:housenumber" v="29"/>
    <tag k="addr:street" v="Academy Street"/>
    <tag k="addr:state" v="VT"/>
    <tag k="ref:vcgi:esiteid" v="9641"/>
  </node>
  <node id="-1789" visible="true" lat="44.19596395" lon="-72.51309587">
    <tag k="addr:city" v="Barre City"/>
    <tag k="addr:housenumber" v="18"/>
    <tag k="addr:street" v="Jacques Street"/>
    <tag k="addr:state" v="VT"/>
    <tag k="ref:vcgi:esiteid" v="9644"/>
  </node>
  <node id="-1790" visible="true" lat="44.19603844" lon="-72.52152251">
    <tag k="addr:city" v="Barre City"/>
    <tag k="addr:housenumber" v="393"/>
    <tag k="addr:street" v="Prospect Street"/>
    <tag k="addr:state" v="VT"/>
    <tag k="ref:vcgi:esiteid" v="9645"/>
  </node>
  <node id="-1793" visible="true" lat="44.19592285" lon="-72.48472595">
    <tag k="addr:city" v="Barre City"/>
    <tag k="addr:housenumber" v="55"/>
    <tag k="addr:street" v="Woodland Drive"/>
    <tag k="addr:state" v="VT"/>
    <tag k="ref:vcgi:esiteid" v="9648"/>
  </node>
  <node id="-1794" visible="true" lat="44.19597986" lon="-72.51817792">
    <tag k="addr:city" v="Barre City"/>
    <tag k="addr:housenumber" v="7"/>
    <tag k="addr:street" v="Palmisano Plaza"/>
    <tag k="addr:state" v="VT"/>
    <tag k="ref:vcgi:esiteid" v="9649"/>
  </node>
  <node id="-1797" visible="true" lat="44.19578949" lon="-72.49704645">
    <tag k="addr:city" v="Barre City"/>
    <tag k="addr:housenumber" v="11"/>
    <tag k="addr:street" v="Mount Street"/>
    <tag k="addr:state" v="VT"/>
    <tag k="ref:vcgi:esiteid" v="9652"/>
  </node>
  <node id="-1806" visible="true" lat="44.19578853" lon="-72.51432629">
    <tag k="addr:city" v="Barre City"/>
    <tag k="addr:housenumber" v="20"/>
    <tag k="addr:street" v="Daniel Drive"/>
    <tag k="addr:state" v="VT"/>
    <tag k="ref:vcgi:esiteid" v="9663"/>
  </node>
  <node id="-1807" visible="true" lat="44.1958261" lon="-72.51487718">
    <tag k="addr:city" v="Barre City"/>
    <tag k="addr:housenumber" v="21"/>
    <tag k="addr:street" v="Daniel Drive"/>
    <tag k="addr:state" v="VT"/>
    <tag k="ref:vcgi:esiteid" v="9664"/>
  </node>
  <node id="-1809" visible="true" lat="44.19577183" lon="-72.51769704">
    <tag k="addr:city" v="Barre City"/>
    <tag k="addr:housenumber" v="8"/>
    <tag k="addr:street" v="Palmisano Plaza"/>
    <tag k="addr:state" v="VT"/>
    <tag k="ref:vcgi:esiteid" v="9666"/>
  </node>
  <node id="-1811" visible="true" lat="44.1957855" lon="-72.51715041">
    <tag k="addr:city" v="Barre City"/>
    <tag k="addr:housenumber" v="15"/>
    <tag k="addr:street" v="Westwood Parkway"/>
    <tag k="addr:state" v="VT"/>
    <tag k="ref:vcgi:esiteid" v="9668"/>
  </node>
  <node id="-1812" visible="true" lat="44.19580178" lon="-72.51601453">
    <tag k="addr:city" v="Barre City"/>
    <tag k="addr:housenumber" v="25"/>
    <tag k="addr:street" v="Country Way"/>
    <tag k="addr:state" v="VT"/>
    <tag k="ref:vcgi:esiteid" v="9669"/>
  </node>
  <node id="-1813" visible="true" lat="44.19577789" lon="-72.51660919">
    <tag k="addr:city" v="Barre City"/>
    <tag k="addr:housenumber" v="16"/>
    <tag k="addr:street" v="Westwood Parkway"/>
    <tag k="addr:state" v="VT"/>
    <tag k="ref:vcgi:esiteid" v="9670"/>
  </node>
  <node id="-1818" visible="true" lat="44.19579172" lon="-72.52204266">
    <tag k="addr:city" v="Barre City"/>
    <tag k="addr:housenumber" v="395"/>
    <tag k="addr:street" v="Prospect Street"/>
    <tag k="addr:state" v="VT"/>
    <tag k="ref:vcgi:esiteid" v="9676"/>
  </node>
  <node id="-1823" visible="true" lat="44.19569013" lon="-72.49610265">
    <tag k="addr:city" v="Barre City"/>
    <tag k="addr:housenumber" v="24"/>
    <tag k="addr:street" v="Highland Avenue"/>
    <tag k="addr:state" v="VT"/>
    <tag k="ref:vcgi:esiteid" v="9681"/>
  </node>
  <node id="-1824" visible="true" lat="44.19574336" lon="-72.51369632">
    <tag k="addr:city" v="Barre City"/>
    <tag k="addr:housenumber" v="23"/>
    <tag k="addr:street" v="Jacques Street"/>
    <tag k="addr:state" v="VT"/>
    <tag k="ref:vcgi:esiteid" v="9682"/>
  </node>
  <node id="-1830" visible="true" lat="44.19551187" lon="-72.51441525">
    <tag k="addr:city" v="Barre City"/>
    <tag k="addr:housenumber" v="24"/>
    <tag k="addr:street" v="Daniel Drive"/>
    <tag k="addr:state" v="VT"/>
    <tag k="ref:vcgi:esiteid" v="9691"/>
  </node>
  <node id="-1832" visible="true" lat="44.19564798" lon="-72.5182771">
    <tag k="addr:city" v="Barre City"/>
    <tag k="addr:housenumber" v="11"/>
    <tag k="addr:street" v="Palmisano Plaza"/>
    <tag k="addr:state" v="VT"/>
    <tag k="ref:vcgi:esiteid" v="9694"/>
  </node>
  <node id="-1833" visible="true" lat="44.19568595" lon="-72.51548509">
    <tag k="addr:city" v="Barre City"/>
    <tag k="addr:housenumber" v="43"/>
    <tag k="addr:street" v="Daniel Drive"/>
    <tag k="addr:state" v="VT"/>
    <tag k="ref:vcgi:esiteid" v="9695"/>
  </node>
  <node id="-1835" visible="true" lat="44.19557188" lon="-72.4963239">
    <tag k="addr:city" v="Barre City"/>
    <tag k="addr:housenumber" v="18"/>
    <tag k="addr:street" v="Highland Avenue"/>
    <tag k="addr:state" v="VT"/>
    <tag k="ref:vcgi:esiteid" v="9697"/>
  </node>
  <node id="-1837" visible="true" lat="44.19556553" lon="-72.51610043">
    <tag k="addr:city" v="Barre City"/>
    <tag k="addr:housenumber" v="29"/>
    <tag k="addr:street" v="Country Way"/>
    <tag k="addr:state" v="VT"/>
    <tag k="ref:vcgi:esiteid" v="9699"/>
  </node>
  <node id="-1839" visible="true" lat="44.19552229" lon="-72.51724196">
    <tag k="addr:city" v="Barre City"/>
    <tag k="addr:housenumber" v="19"/>
    <tag k="addr:street" v="Westwood Parkway"/>
    <tag k="addr:state" v="VT"/>
    <tag k="ref:vcgi:esiteid" v="9701"/>
  </node>
  <node id="-1840" visible="true" lat="44.19550914" lon="-72.51778121">
    <tag k="addr:city" v="Barre City"/>
    <tag k="addr:housenumber" v="12"/>
    <tag k="addr:street" v="Palmisano Plaza"/>
    <tag k="addr:state" v="VT"/>
    <tag k="ref:vcgi:esiteid" v="9702"/>
  </node>
  <node id="-1847" visible="true" lat="44.19559675" lon="-72.51498536">
    <tag k="addr:city" v="Barre City"/>
    <tag k="addr:housenumber" v="39"/>
    <tag k="addr:street" v="Daniel Drive"/>
    <tag k="addr:state" v="VT"/>
    <tag k="ref:vcgi:esiteid" v="9710"/>
  </node>
  <node id="-1848" visible="true" lat="44.19545745" lon="-72.51667022">
    <tag k="addr:city" v="Barre City"/>
    <tag k="addr:housenumber" v="20"/>
    <tag k="addr:street" v="Westwood Parkway"/>
    <tag k="addr:state" v="VT"/>
    <tag k="ref:vcgi:esiteid" v="9712"/>
  </node>
  <node id="-1851" visible="true" lat="44.19551289" lon="-72.52180929">
    <tag k="addr:city" v="Barre City"/>
    <tag k="addr:housenumber" v="397"/>
    <tag k="addr:street" v="Prospect Street"/>
    <tag k="addr:state" v="VT"/>
    <tag k="ref:vcgi:esiteid" v="9715"/>
  </node>
  <node id="-1853" visible="true" lat="44.19537935" lon="-72.49651026">
    <tag k="addr:city" v="Barre City"/>
    <tag k="addr:housenumber" v="14"/>
    <tag k="addr:street" v="Highland Avenue"/>
    <tag k="addr:state" v="VT"/>
    <tag k="ref:vcgi:esiteid" v="9717"/>
  </node>
  <node id="-1855" visible="true" lat="44.1954309" lon="-72.51380201">
    <tag k="addr:city" v="Barre City"/>
    <tag k="addr:housenumber" v="29"/>
    <tag k="addr:street" v="Jacques Street"/>
    <tag k="addr:state" v="VT"/>
    <tag k="ref:vcgi:esiteid" v="9719"/>
  </node>
  <node id="-1858" visible="true" lat="44.19534777" lon="-72.51328075">
    <tag k="addr:city" v="Barre City"/>
    <tag k="addr:housenumber" v="26"/>
    <tag k="addr:street" v="Jacques Street"/>
    <tag k="addr:state" v="VT"/>
    <tag k="ref:vcgi:esiteid" v="9722"/>
  </node>
  <node id="-1861" visible="true" lat="44.19538894" lon="-72.51838727">
    <tag k="addr:city" v="Barre City"/>
    <tag k="addr:housenumber" v="15"/>
    <tag k="addr:street" v="Palmisano Plaza"/>
    <tag k="addr:state" v="VT"/>
    <tag k="ref:vcgi:esiteid" v="9725"/>
  </node>
  <node id="-1866" visible="true" lat="44.19513609" lon="-72.52074345">
    <tag k="addr:city" v="Barre City"/>
    <tag k="addr:housenumber" v="378"/>
    <tag k="addr:street" v="Prospect Street"/>
    <tag k="addr:state" v="VT"/>
    <tag k="ref:vcgi:esiteid" v="9731"/>
  </node>
  <node id="-1868" visible="true" lat="44.19526118" lon="-72.51784987">
    <tag k="addr:city" v="Barre City"/>
    <tag k="addr:housenumber" v="16"/>
    <tag k="addr:street" v="Palmisano Plaza"/>
    <tag k="addr:state" v="VT"/>
    <tag k="ref:vcgi:esiteid" v="9733"/>
  </node>
  <node id="-1871" visible="true" lat="44.19525527" lon="-72.48727416">
    <tag k="addr:city" v="Barre City"/>
    <tag k="addr:housenumber" v="125"/>
    <tag k="addr:street" v="Nelson Street"/>
    <tag k="addr:state" v="VT"/>
    <tag k="ref:vcgi:esiteid" v="9737"/>
  </node>
  <node id="-1873" visible="true" lat="44.19525786" lon="-72.48498421">
    <tag k="addr:city" v="Barre City"/>
    <tag k="addr:housenumber" v="43"/>
    <tag k="addr:street" v="Woodland Drive"/>
    <tag k="addr:state" v="VT"/>
    <tag k="ref:vcgi:esiteid" v="9740"/>
  </node>
  <node id="-1874" visible="true" lat="44.19522856" lon="-72.51733351">
    <tag k="addr:city" v="Barre City"/>
    <tag k="addr:housenumber" v="23"/>
    <tag k="addr:street" v="Westwood Parkway"/>
    <tag k="addr:state" v="VT"/>
    <tag k="ref:vcgi:esiteid" v="9742"/>
  </node>
  <node id="-1879" visible="true" lat="44.19521331" lon="-72.5168457">
    <tag k="addr:city" v="Barre City"/>
    <tag k="addr:housenumber" v="24"/>
    <tag k="addr:street" v="Westwood Parkway"/>
    <tag k="addr:state" v="VT"/>
    <tag k="ref:vcgi:esiteid" v="9747"/>
  </node>
  <node id="-1880" visible="true" lat="44.1952972" lon="-72.52233956">
    <tag k="addr:city" v="Barre City"/>
    <tag k="addr:housenumber" v="401"/>
    <tag k="addr:street" v="Prospect Street"/>
    <tag k="addr:state" v="VT"/>
    <tag k="ref:vcgi:esiteid" v="9748"/>
  </node>
  <node id="-1882" visible="true" lat="44.19520618" lon="-72.51394785">
    <tag k="addr:city" v="Barre City"/>
    <tag k="addr:housenumber" v="31"/>
    <tag k="addr:street" v="Jacques Street"/>
    <tag k="addr:state" v="VT"/>
    <tag k="ref:vcgi:esiteid" v="9750"/>
  </node>
  <node id="-1887" visible="true" lat="44.19510269" lon="-72.51331329">
    <tag k="addr:city" v="Barre City"/>
    <tag k="addr:housenumber" v="30"/>
    <tag k="addr:street" v="Jacques Street"/>
    <tag k="addr:state" v="VT"/>
    <tag k="ref:vcgi:esiteid" v="9756"/>
  </node>
  <node id="-1888" visible="true" lat="44.19513544" lon="-72.51846492">
    <tag k="addr:city" v="Barre City"/>
    <tag k="addr:housenumber" v="19"/>
    <tag k="addr:street" v="Palmisano Plaza"/>
    <tag k="addr:state" v="VT"/>
    <tag k="ref:vcgi:esiteid" v="9757"/>
  </node>
  <node id="-1894" visible="true" lat="44.19497578" lon="-72.51798181">
    <tag k="addr:city" v="Barre City"/>
    <tag k="addr:housenumber" v="20"/>
    <tag k="addr:street" v="Palmisano Plaza"/>
    <tag k="addr:state" v="VT"/>
    <tag k="ref:vcgi:esiteid" v="9763"/>
  </node>
  <node id="-1895" visible="true" lat="44.19501494" lon="-72.51740981">
    <tag k="addr:city" v="Barre City"/>
    <tag k="addr:housenumber" v="27"/>
    <tag k="addr:street" v="Westwood Parkway"/>
    <tag k="addr:state" v="VT"/>
    <tag k="ref:vcgi:esiteid" v="9764"/>
  </node>
  <node id="-1898" visible="true" lat="44.19493386" lon="-72.5168925">
    <tag k="addr:city" v="Barre City"/>
    <tag k="addr:housenumber" v="28"/>
    <tag k="addr:street" v="Westwood Parkway"/>
    <tag k="addr:state" v="VT"/>
    <tag k="ref:vcgi:esiteid" v="9767"/>
  </node>
  <node id="-1901" visible="true" lat="44.19492789" lon="-72.51518829">
    <tag k="addr:city" v="Barre City"/>
    <tag k="addr:housenumber" v="36"/>
    <tag k="addr:street" v="Daniel Drive"/>
    <tag k="addr:state" v="VT"/>
    <tag k="ref:vcgi:esiteid" v="9770"/>
  </node>
  <node id="-1911" visible="true" lat="44.1949089" lon="-72.51397963">
    <tag k="addr:city" v="Barre City"/>
    <tag k="addr:housenumber" v="33"/>
    <tag k="addr:street" v="Jacques Street"/>
    <tag k="addr:state" v="VT"/>
    <tag k="ref:vcgi:esiteid" v="9785"/>
  </node>
  <node id="-1912" visible="true" lat="44.19488454" lon="-72.51852596">
    <tag k="addr:city" v="Barre City"/>
    <tag k="addr:housenumber" v="23"/>
    <tag k="addr:street" v="Palmisano Plaza"/>
    <tag k="addr:state" v="VT"/>
    <tag k="ref:vcgi:esiteid" v="9786"/>
  </node>
  <node id="-1916" visible="true" lat="44.19480133" lon="-72.51346588">
    <tag k="addr:city" v="Barre City"/>
    <tag k="addr:housenumber" v="34"/>
    <tag k="addr:street" v="Jacques Street"/>
    <tag k="addr:state" v="VT"/>
    <tag k="ref:vcgi:esiteid" v="9790"/>
  </node>
  <node id="-1923" visible="true" lat="44.19471638" lon="-72.51806573">
    <tag k="addr:city" v="Barre City"/>
    <tag k="addr:housenumber" v="24"/>
    <tag k="addr:street" v="Palmisano Plaza"/>
    <tag k="addr:state" v="VT"/>
    <tag k="ref:vcgi:esiteid" v="9797"/>
  </node>
  <node id="-1926" visible="true" lat="44.19477686" lon="-72.51752">
    <tag k="addr:city" v="Barre City"/>
    <tag k="addr:housenumber" v="31"/>
    <tag k="addr:street" v="Westwood Parkway"/>
    <tag k="addr:state" v="VT"/>
    <tag k="ref:vcgi:esiteid" v="9800"/>
  </node>
  <node id="-1927" visible="true" lat="44.19473648" lon="-72.48522186">
    <tag k="addr:city" v="Barre City"/>
    <tag k="addr:housenumber" v="31"/>
    <tag k="addr:street" v="Woodland Drive"/>
    <tag k="addr:state" v="VT"/>
    <tag k="ref:vcgi:esiteid" v="9801"/>
  </node>
  <node id="-1932" visible="true" lat="44.19465016" lon="-72.51699612">
    <tag k="addr:city" v="Barre City"/>
    <tag k="addr:housenumber" v="32"/>
    <tag k="addr:street" v="Westwood Parkway"/>
    <tag k="addr:state" v="VT"/>
    <tag k="ref:vcgi:esiteid" v="9807"/>
  </node>
  <node id="-1945" visible="true" lat="44.19459339" lon="-72.51866619">
    <tag k="addr:city" v="Barre City"/>
    <tag k="addr:housenumber" v="27"/>
    <tag k="addr:street" v="Palmisano Plaza"/>
    <tag k="addr:state" v="VT"/>
    <tag k="ref:vcgi:esiteid" v="9822"/>
  </node>
  <node id="-1949" visible="true" lat="44.1944315" lon="-72.51816491">
    <tag k="addr:city" v="Barre City"/>
    <tag k="addr:housenumber" v="28"/>
    <tag k="addr:street" v="Palmisano Plaza"/>
    <tag k="addr:state" v="VT"/>
    <tag k="ref:vcgi:esiteid" v="9827"/>
  </node>
  <node id="-1952" visible="true" lat="44.19439915" lon="-72.51376162">
    <tag k="addr:city" v="Barre City"/>
    <tag k="addr:housenumber" v="41"/>
    <tag k="addr:street" v="Jacques Street"/>
    <tag k="addr:state" v="VT"/>
    <tag k="ref:vcgi:esiteid" v="9830"/>
  </node>
  <node id="-1955" visible="true" lat="44.1944755" lon="-72.51758103">
    <tag k="addr:city" v="Barre City"/>
    <tag k="addr:housenumber" v="35"/>
    <tag k="addr:street" v="Westwood Parkway"/>
    <tag k="addr:state" v="VT"/>
    <tag k="ref:vcgi:esiteid" v="9833"/>
  </node>
  <node id="-1959" visible="true" lat="44.19442748" lon="-72.48586273">
    <tag k="addr:city" v="Barre City"/>
    <tag k="addr:housenumber" v="26"/>
    <tag k="addr:street" v="Woodland Drive"/>
    <tag k="addr:state" v="VT"/>
    <tag k="ref:vcgi:esiteid" v="9837"/>
  </node>
  <node id="-1962" visible="true" lat="44.19437864" lon="-72.51708181">
    <tag k="addr:city" v="Barre City"/>
    <tag k="addr:housenumber" v="36"/>
    <tag k="addr:street" v="Westwood Parkway"/>
    <tag k="addr:state" v="VT"/>
    <tag k="ref:vcgi:esiteid" v="9841"/>
  </node>
  <node id="-1975" visible="true" lat="44.1941706" lon="-72.51823117">
    <tag k="addr:city" v="Barre City"/>
    <tag k="addr:housenumber" v="32"/>
    <tag k="addr:street" v="Palmisano Plaza"/>
    <tag k="addr:state" v="VT"/>
    <tag k="ref:vcgi:esiteid" v="9855"/>
  </node>
  <node id="-1976" visible="true" lat="44.19430226" lon="-72.51875349">
    <tag k="addr:city" v="Barre City"/>
    <tag k="addr:housenumber" v="31"/>
    <tag k="addr:street" v="Palmisano Plaza"/>
    <tag k="addr:state" v="VT"/>
    <tag k="ref:vcgi:esiteid" v="9856"/>
  </node>
  <node id="-1984" visible="true" lat="44.19419876" lon="-72.51769009">
    <tag k="addr:city" v="Barre City"/>
    <tag k="addr:housenumber" v="39"/>
    <tag k="addr:street" v="Westwood Parkway"/>
    <tag k="addr:state" v="VT"/>
    <tag k="ref:vcgi:esiteid" v="9864"/>
  </node>
  <node id="-1995" visible="true" lat="44.1940689" lon="-72.51721191">
    <tag k="addr:city" v="Barre City"/>
    <tag k="addr:housenumber" v="40"/>
    <tag k="addr:street" v="Westwood Parkway"/>
    <tag k="addr:state" v="VT"/>
    <tag k="ref:vcgi:esiteid" v="9876"/>
  </node>
  <node id="-2000" visible="true" lat="44.19405812" lon="-72.51885267">
    <tag k="addr:city" v="Barre City"/>
    <tag k="addr:housenumber" v="35"/>
    <tag k="addr:street" v="Palmisano Plaza"/>
    <tag k="addr:state" v="VT"/>
    <tag k="ref:vcgi:esiteid" v="9881"/>
  </node>
  <node id="-2009" visible="true" lat="44.19393539" lon="-72.48558807">
    <tag k="addr:city" v="Barre City"/>
    <tag k="addr:housenumber" v="21"/>
    <tag k="addr:street" v="Woodland Drive"/>
    <tag k="addr:state" v="VT"/>
    <tag k="ref:vcgi:esiteid" v="9891"/>
  </node>
  <node id="-2011" visible="true" lat="44.19388299" lon="-72.5183484">
    <tag k="addr:city" v="Barre City"/>
    <tag k="addr:housenumber" v="36"/>
    <tag k="addr:street" v="Palmisano Plaza"/>
    <tag k="addr:state" v="VT"/>
    <tag k="ref:vcgi:esiteid" v="9893"/>
  </node>
  <node id="-2015" visible="true" lat="44.19393936" lon="-72.51778165">
    <tag k="addr:city" v="Barre City"/>
    <tag k="addr:housenumber" v="43"/>
    <tag k="addr:street" v="Westwood Parkway"/>
    <tag k="addr:state" v="VT"/>
    <tag k="ref:vcgi:esiteid" v="9897"/>
  </node>
  <node id="-2020" visible="true" lat="44.19384765" lon="-72.51730346">
    <tag k="addr:city" v="Barre City"/>
    <tag k="addr:housenumber" v="44"/>
    <tag k="addr:street" v="Westwood Parkway"/>
    <tag k="addr:state" v="VT"/>
    <tag k="ref:vcgi:esiteid" v="9903"/>
  </node>
  <node id="-2032" visible="true" lat="44.19377965" lon="-72.51895185">
    <tag k="addr:city" v="Barre City"/>
    <tag k="addr:housenumber" v="39"/>
    <tag k="addr:street" v="Palmisano Plaza"/>
    <tag k="addr:state" v="VT"/>
    <tag k="ref:vcgi:esiteid" v="9917"/>
  </node>
  <node id="-2039" visible="true" lat="44.19367217" lon="-72.48567962">
    <tag k="addr:city" v="Barre City"/>
    <tag k="addr:housenumber" v="17"/>
    <tag k="addr:street" v="Woodland Drive"/>
    <tag k="addr:state" v="VT"/>
    <tag k="ref:vcgi:esiteid" v="9924"/>
  </node>
  <node id="-2044" visible="true" lat="44.19359648" lon="-72.51836778">
    <tag k="addr:city" v="Barre City"/>
    <tag k="addr:housenumber" v="40"/>
    <tag k="addr:street" v="Palmisano Plaza"/>
    <tag k="addr:state" v="VT"/>
    <tag k="ref:vcgi:esiteid" v="9930"/>
  </node>
  <node id="-2046" visible="true" lat="44.1936626" lon="-72.51785004">
    <tag k="addr:city" v="Barre City"/>
    <tag k="addr:housenumber" v="47"/>
    <tag k="addr:street" v="Westwood Parkway"/>
    <tag k="addr:state" v="VT"/>
    <tag k="ref:vcgi:esiteid" v="9932"/>
  </node>
  <node id="-2047" visible="true" lat="44.19358606" lon="-72.51735118">
    <tag k="addr:city" v="Barre City"/>
    <tag k="addr:housenumber" v="48"/>
    <tag k="addr:street" v="Westwood Parkway"/>
    <tag k="addr:state" v="VT"/>
    <tag k="ref:vcgi:esiteid" v="9933"/>
  </node>
  <node id="-2061" visible="true" lat="44.19345643" lon="-72.49524469">
    <tag k="addr:city" v="Barre City"/>
    <tag k="addr:housenumber" v="133"/>
    <tag k="addr:street" v="Washington Street"/>
    <tag k="addr:state" v="VT"/>
    <tag k="ref:vcgi:esiteid" v="9947"/>
  </node>
  <node id="-2063" visible="true" lat="44.1934887" lon="-72.51900323">
    <tag k="addr:city" v="Barre City"/>
    <tag k="addr:housenumber" v="43"/>
    <tag k="addr:street" v="Palmisano Plaza"/>
    <tag k="addr:state" v="VT"/>
    <tag k="ref:vcgi:esiteid" v="9949"/>
  </node>
  <node id="-2070" visible="true" lat="44.19339752" lon="-72.48580169">
    <tag k="addr:city" v="Barre City"/>
    <tag k="addr:housenumber" v="13"/>
    <tag k="addr:street" v="Woodland Drive"/>
    <tag k="addr:state" v="VT"/>
    <tag k="ref:vcgi:esiteid" v="9957"/>
  </node>
  <node id="-2093" visible="true" lat="44.19305265" lon="-72.51749674">
    <tag k="addr:city" v="Barre City"/>
    <tag k="addr:housenumber" v="56"/>
    <tag k="addr:street" v="Westwood Parkway"/>
    <tag k="addr:state" v="VT"/>
    <tag k="ref:vcgi:esiteid" v="9982"/>
  </node>
  <node id="-2097" visible="true" lat="44.19321404" lon="-72.51914819">
    <tag k="addr:city" v="Barre City"/>
    <tag k="addr:housenumber" v="47"/>
    <tag k="addr:street" v="Palmisano Plaza"/>
    <tag k="addr:state" v="VT"/>
    <tag k="ref:vcgi:esiteid" v="9986"/>
  </node>
  <node id="-2101" visible="true" lat="44.19314575" lon="-72.48584747">
    <tag k="addr:city" v="Barre City"/>
    <tag k="addr:housenumber" v="9"/>
    <tag k="addr:street" v="Woodland Drive"/>
    <tag k="addr:state" v="VT"/>
    <tag k="ref:vcgi:esiteid" v="9990"/>
  </node>
  <node id="-2105" visible="true" lat="44.19311609" lon="-72.51805023">
    <tag k="addr:city" v="Barre City"/>
    <tag k="addr:housenumber" v="55"/>
    <tag k="addr:street" v="Westwood Parkway"/>
    <tag k="addr:state" v="VT"/>
    <tag k="ref:vcgi:esiteid" v="9994"/>
  </node>
  <node id="-2111" visible="true" lat="44.19288063" lon="-72.49207345">
    <tag k="addr:city" v="Barre City"/>
    <tag k="addr:housenumber" v="123"/>
    <tag k="addr:street" v="Hill Street"/>
    <tag k="addr:state" v="VT"/>
    <tag k="ref:vcgi:esiteid" v="10001"/>
  </node>
  <node id="-2127" visible="true" lat="44.19276391" lon="-72.51761518">
    <tag k="addr:city" v="Barre City"/>
    <tag k="addr:housenumber" v="60"/>
    <tag k="addr:street" v="Westwood Parkway"/>
    <tag k="addr:state" v="VT"/>
    <tag k="ref:vcgi:esiteid" v="10019"/>
  </node>
  <node id="-2129" visible="true" lat="44.19294255" lon="-72.51922706">
    <tag k="addr:city" v="Barre City"/>
    <tag k="addr:housenumber" v="51"/>
    <tag k="addr:street" v="Palmisano Plaza"/>
    <tag k="addr:state" v="VT"/>
    <tag k="ref:vcgi:esiteid" v="10021"/>
  </node>
  <node id="-2132" visible="true" lat="44.19290924" lon="-72.49097442">
    <tag k="addr:city" v="Barre City"/>
    <tag k="addr:housenumber" v="27"/>
    <tag k="addr:street" v="Camp Street"/>
    <tag k="addr:state" v="VT"/>
    <tag k="ref:vcgi:esiteid" v="10024"/>
  </node>
  <node id="-2133" visible="true" lat="44.19290161" lon="-72.4859848">
    <tag k="addr:city" v="Barre City"/>
    <tag k="addr:housenumber" v="7"/>
    <tag k="addr:street" v="Woodland Drive"/>
    <tag k="addr:state" v="VT"/>
    <tag k="ref:vcgi:esiteid" v="10026"/>
  </node>
  <node id="-2143" visible="true" lat="44.19281107" lon="-72.49051611">
    <tag k="addr:city" v="Barre City"/>
    <tag k="addr:housenumber" v="163"/>
    <tag k="addr:street" v="Hill Street"/>
    <tag k="addr:state" v="VT"/>
    <tag k="ref:vcgi:esiteid" v="10036"/>
  </node>
  <node id="-2145" visible="true" lat="44.19288087" lon="-72.51814896">
    <tag k="addr:city" v="Barre City"/>
    <tag k="addr:housenumber" v="59"/>
    <tag k="addr:street" v="Westwood Parkway"/>
    <tag k="addr:state" v="VT"/>
    <tag k="ref:vcgi:esiteid" v="10038"/>
  </node>
  <node id="-2157" visible="true" lat="44.19272231" lon="-72.49139404">
    <tag k="addr:city" v="Barre City"/>
    <tag k="addr:housenumber" v="20"/>
    <tag k="addr:street" v="Camp Street"/>
    <tag k="addr:state" v="VT"/>
    <tag k="ref:vcgi:esiteid" v="10051"/>
  </node>
  <node id="-2160" visible="true" lat="44.19271087" lon="-72.49015808">
    <tag k="addr:city" v="Barre City"/>
    <tag k="addr:housenumber" v="36"/>
    <tag k="addr:street" v="Patterson Street"/>
    <tag k="addr:state" v="VT"/>
    <tag k="ref:vcgi:esiteid" v="10054"/>
  </node>
  <node id="-2162" visible="true" lat="44.19270706" lon="-72.49217987">
    <tag k="addr:city" v="Barre City"/>
    <tag k="addr:housenumber" v="9"/>
    <tag k="addr:street" v="Charles Street"/>
    <tag k="addr:state" v="VT"/>
    <tag k="ref:vcgi:esiteid" v="10056"/>
  </node>
  <node id="-2165" visible="true" lat="44.19270989" lon="-72.49098727">
    <tag k="addr:city" v="Barre City"/>
    <tag k="addr:housenumber" v="21"/>
    <tag k="addr:street" v="Camp Street"/>
    <tag k="addr:state" v="VT"/>
    <tag k="ref:vcgi:esiteid" v="10059"/>
  </node>
  <node id="-2167" visible="true" lat="44.19268417" lon="-72.48976898">
    <tag k="addr:city" v="Barre City"/>
    <tag k="addr:housenumber" v="165"/>
    <tag k="addr:street" v="Hill Street"/>
    <tag k="addr:state" v="VT"/>
    <tag k="ref:vcgi:esiteid" v="10061"/>
  </node>
  <node id="-2173" visible="true" lat="44.19268026" lon="-72.51932046">
    <tag k="addr:city" v="Barre City"/>
    <tag k="addr:housenumber" v="55"/>
    <tag k="addr:street" v="Palmisano Plaza"/>
    <tag k="addr:state" v="VT"/>
    <tag k="ref:vcgi:esiteid" v="10069"/>
  </node>
  <node id="-2174" visible="true" lat="44.19263839" lon="-72.4894638">
    <tag k="addr:city" v="Barre City"/>
    <tag k="addr:housenumber" v="167"/>
    <tag k="addr:street" v="Hill Street"/>
    <tag k="addr:state" v="VT"/>
    <tag k="ref:vcgi:esiteid" v="10070"/>
  </node>
  <node id="-2175" visible="true" lat="44.19253813" lon="-72.5176925">
    <tag k="addr:city" v="Barre City"/>
    <tag k="addr:housenumber" v="64"/>
    <tag k="addr:street" v="Westwood Parkway"/>
    <tag k="addr:state" v="VT"/>
    <tag k="ref:vcgi:esiteid" v="10071"/>
  </node>
  <node id="-2177" visible="true" lat="44.19259864" lon="-72.51825943">
    <tag k="addr:city" v="Barre City"/>
    <tag k="addr:housenumber" v="63"/>
    <tag k="addr:street" v="Westwood Parkway"/>
    <tag k="addr:state" v="VT"/>
    <tag k="ref:vcgi:esiteid" v="10074"/>
  </node>
  <node id="-2181" visible="true" lat="44.19257736" lon="-72.49228668">
    <tag k="addr:city" v="Barre City"/>
    <tag k="addr:housenumber" v="7"/>
    <tag k="addr:street" v="Charles Street"/>
    <tag k="addr:state" v="VT"/>
    <tag k="ref:vcgi:esiteid" v="10078"/>
  </node>
  <node id="-2185" visible="true" lat="44.19258257" lon="-72.51878633">
    <tag k="addr:city" v="Barre City"/>
    <tag k="addr:housenumber" v="56"/>
    <tag k="addr:street" v="Palmisano Plaza"/>
    <tag k="addr:state" v="VT"/>
    <tag k="ref:vcgi:esiteid" v="10082"/>
  </node>
  <node id="-2188" visible="true" lat="44.19252395" lon="-72.49110412">
    <tag k="addr:city" v="Barre City"/>
    <tag k="addr:housenumber" v="17"/>
    <tag k="addr:street" v="Camp Street"/>
    <tag k="addr:state" v="VT"/>
    <tag k="ref:vcgi:esiteid" v="10087"/>
  </node>
  <node id="-2191" visible="true" lat="44.19251251" lon="-72.48908233">
    <tag k="addr:city" v="Barre City"/>
    <tag k="addr:housenumber" v="50"/>
    <tag k="addr:street" v="Nelson Street"/>
    <tag k="addr:state" v="VT"/>
    <tag k="ref:vcgi:esiteid" v="10090"/>
  </node>
  <node id="-2192" visible="true" lat="44.19250869" lon="-72.49148559">
    <tag k="addr:city" v="Barre City"/>
    <tag k="addr:housenumber" v="12"/>
    <tag k="addr:street" v="Camp Street"/>
    <tag k="addr:state" v="VT"/>
    <tag k="ref:vcgi:esiteid" v="10091"/>
  </node>
  <node id="-2199" visible="true" lat="44.19245147" lon="-72.48988342">
    <tag k="addr:city" v="Barre City"/>
    <tag k="addr:housenumber" v="51"/>
    <tag k="addr:street" v="Patterson Street"/>
    <tag k="addr:state" v="VT"/>
    <tag k="ref:vcgi:esiteid" v="10098"/>
  </node>
  <node id="-2203" visible="true" lat="44.19240188" lon="-72.49039459">
    <tag k="addr:city" v="Barre City"/>
    <tag k="addr:housenumber" v="32"/>
    <tag k="addr:street" v="Patterson Street"/>
    <tag k="addr:state" v="VT"/>
    <tag k="ref:vcgi:esiteid" v="10104"/>
  </node>
  <node id="-2205" visible="true" lat="44.1922571" lon="-72.48813036">
    <tag k="addr:city" v="Barre City"/>
    <tag k="addr:housenumber" v="201"/>
    <tag k="addr:street" v="Hill Street"/>
    <tag k="addr:state" v="VT"/>
    <tag k="ref:vcgi:esiteid" v="10106"/>
  </node>
  <node id="-2206" visible="true" lat="44.19239044" lon="-72.48735046">
    <tag k="addr:city" v="Barre City"/>
    <tag k="addr:housenumber" v="205"/>
    <tag k="addr:street" v="Hill Street"/>
    <tag k="addr:state" v="VT"/>
    <tag k="ref:vcgi:esiteid" v="10107"/>
  </node>
  <node id="-2208" visible="true" lat="44.19233208" lon="-72.48693159">
    <tag k="addr:city" v="Barre City"/>
    <tag k="addr:housenumber" v="207"/>
    <tag k="addr:street" v="Hill Street"/>
    <tag k="addr:state" v="VT"/>
    <tag k="ref:vcgi:esiteid" v="10109"/>
  </node>
  <node id="-2209" visible="true" lat="44.19240991" lon="-72.49110777">
    <tag k="addr:city" v="Barre City"/>
    <tag k="addr:housenumber" v="11"/>
    <tag k="addr:street" v="Camp Street"/>
    <tag k="addr:state" v="VT"/>
    <tag k="ref:vcgi:esiteid" v="10111"/>
  </node>
  <node id="-2212" visible="true" lat="44.19236018" lon="-72.51832611">
    <tag k="addr:city" v="Barre City"/>
    <tag k="addr:housenumber" v="67"/>
    <tag k="addr:street" v="Westwood Parkway"/>
    <tag k="addr:state" v="VT"/>
    <tag k="ref:vcgi:esiteid" v="10115"/>
  </node>
  <node id="-2217" visible="true" lat="44.19229126" lon="-72.51892089">
    <tag k="addr:city" v="Barre City"/>
    <tag k="addr:housenumber" v="60"/>
    <tag k="addr:street" v="Palmisano Plaza"/>
    <tag k="addr:state" v="VT"/>
    <tag k="ref:vcgi:esiteid" v="10122"/>
  </node>
  <node id="-2219" visible="true" lat="44.19228744" lon="-72.517807">
    <tag k="addr:city" v="Barre City"/>
    <tag k="addr:housenumber" v="68"/>
    <tag k="addr:street" v="Westwood Parkway"/>
    <tag k="addr:state" v="VT"/>
    <tag k="ref:vcgi:esiteid" v="10124"/>
  </node>
  <node id="-2220" visible="true" lat="44.19228363" lon="-72.49160003">
    <tag k="addr:city" v="Barre City"/>
    <tag k="addr:housenumber" v="8"/>
    <tag k="addr:street" v="Camp Street"/>
    <tag k="addr:state" v="VT"/>
    <tag k="ref:vcgi:esiteid" v="10125"/>
  </node>
  <node id="-2221" visible="true" lat="44.19225552" lon="-72.48656851">
    <tag k="addr:city" v="Barre City"/>
    <tag k="addr:housenumber" v="209"/>
    <tag k="addr:street" v="Hill Street"/>
    <tag k="addr:state" v="VT"/>
    <tag k="ref:vcgi:esiteid" v="10126"/>
  </node>
  <node id="-2222" visible="true" lat="44.1922798" lon="-72.48996313">
    <tag k="addr:city" v="Barre City"/>
    <tag k="addr:housenumber" v="47"/>
    <tag k="addr:street" v="Patterson Street"/>
    <tag k="addr:state" v="VT"/>
    <tag k="ref:vcgi:esiteid" v="10127"/>
  </node>
  <node id="-2234" visible="true" lat="44.19219369" lon="-72.49226441">
    <tag k="addr:city" v="Barre City"/>
    <tag k="addr:housenumber" v="168"/>
    <tag k="addr:street" v="Washington Street"/>
    <tag k="addr:state" v="VT"/>
    <tag k="ref:vcgi:esiteid" v="10141"/>
  </node>
  <node id="-2238" visible="true" lat="44.19222132" lon="-72.49053165">
    <tag k="addr:city" v="Barre City"/>
    <tag k="addr:housenumber" v="30"/>
    <tag k="addr:street" v="Patterson Street"/>
    <tag k="addr:state" v="VT"/>
    <tag k="ref:vcgi:esiteid" v="10145"/>
  </node>
  <node id="-2241" visible="true" lat="44.19214248" lon="-72.49166107">
    <tag k="addr:city" v="Barre City"/>
    <tag k="addr:housenumber" v="6"/>
    <tag k="addr:street" v="Camp Street"/>
    <tag k="addr:state" v="VT"/>
    <tag k="ref:vcgi:esiteid" v="10148"/>
  </node>
  <node id="-2243" visible="true" lat="44.19217413" lon="-72.4911929">
    <tag k="addr:city" v="Barre City"/>
    <tag k="addr:housenumber" v="9"/>
    <tag k="addr:street" v="Camp Street"/>
    <tag k="addr:state" v="VT"/>
    <tag k="ref:vcgi:esiteid" v="10150"/>
  </node>
  <node id="-2244" visible="true" lat="44.19217724" lon="-72.48939937">
    <tag k="addr:city" v="Barre City"/>
    <tag k="addr:housenumber" v="44"/>
    <tag k="addr:street" v="Nelson Street"/>
    <tag k="addr:state" v="VT"/>
    <tag k="ref:vcgi:esiteid" v="10152"/>
  </node>
  <node id="-2245" visible="true" lat="44.19211959" lon="-72.48699188">
    <tag k="addr:city" v="Barre City"/>
    <tag k="addr:housenumber" v="36"/>
    <tag k="addr:street" v="Waterman Street"/>
    <tag k="addr:state" v="VT"/>
    <tag k="ref:vcgi:esiteid" v="10153"/>
  </node>
  <node id="-2248" visible="true" lat="44.19215285" lon="-72.51954446">
    <tag k="addr:city" v="Barre City"/>
    <tag k="addr:housenumber" v="63"/>
    <tag k="addr:street" v="Palmisano Plaza"/>
    <tag k="addr:state" v="VT"/>
    <tag k="ref:vcgi:esiteid" v="10156"/>
  </node>
  <node id="-2251" visible="true" lat="44.19208666" lon="-72.48890849">
    <tag k="addr:city" v="Barre City"/>
    <tag k="addr:housenumber" v="43"/>
    <tag k="addr:street" v="Nelson Street"/>
    <tag k="addr:state" v="VT"/>
    <tag k="ref:vcgi:esiteid" v="10160"/>
  </node>
  <node id="-2255" visible="true" lat="44.19208518" lon="-72.49006641">
    <tag k="addr:city" v="Barre City"/>
    <tag k="addr:housenumber" v="27"/>
    <tag k="addr:street" v="Patterson Street"/>
    <tag k="addr:state" v="VT"/>
    <tag k="ref:vcgi:esiteid" v="10164"/>
  </node>
  <node id="-2259" visible="true" lat="44.19202256" lon="-72.48952742">
    <tag k="addr:city" v="Barre City"/>
    <tag k="addr:housenumber" v="32"/>
    <tag k="addr:street" v="Nelson Street"/>
    <tag k="addr:state" v="VT"/>
    <tag k="ref:vcgi:esiteid" v="10168"/>
  </node>
  <node id="-2260" visible="true" lat="44.19201278" lon="-72.49202728">
    <tag k="addr:city" v="Barre City"/>
    <tag k="addr:housenumber" v="176"/>
    <tag k="addr:street" v="Washington Street"/>
    <tag k="addr:state" v="VT"/>
    <tag k="ref:vcgi:esiteid" v="10169"/>
  </node>
  <node id="-2263" visible="true" lat="44.19196954" lon="-72.51790801">
    <tag k="addr:city" v="Barre City"/>
    <tag k="addr:housenumber" v="72"/>
    <tag k="addr:street" v="Westwood Parkway"/>
    <tag k="addr:state" v="VT"/>
    <tag k="ref:vcgi:esiteid" v="10174"/>
  </node>
  <node id="-2266" visible="true" lat="44.19196701" lon="-72.49062347">
    <tag k="addr:city" v="Barre City"/>
    <tag k="addr:housenumber" v="24"/>
    <tag k="addr:street" v="Patterson Street"/>
    <tag k="addr:state" v="VT"/>
    <tag k="ref:vcgi:esiteid" v="10177"/>
  </node>
  <node id="-2267" visible="true" lat="44.1919765" lon="-72.49131194">
    <tag k="addr:city" v="Barre City"/>
    <tag k="addr:housenumber" v="7"/>
    <tag k="addr:street" v="Camp Street"/>
    <tag k="addr:state" v="VT"/>
    <tag k="ref:vcgi:esiteid" v="10178"/>
  </node>
  <node id="-2269" visible="true" lat="44.19193983" lon="-72.4872239">
    <tag k="addr:city" v="Barre City"/>
    <tag k="addr:housenumber" v="32"/>
    <tag k="addr:street" v="Waterman Street"/>
    <tag k="addr:state" v="VT"/>
    <tag k="ref:vcgi:esiteid" v="10180"/>
  </node>
  <node id="-2270" visible="true" lat="44.1918791" lon="-72.49255105">
    <tag k="addr:city" v="Barre City"/>
    <tag k="addr:housenumber" v="169"/>
    <tag k="addr:street" v="Washington Street"/>
    <tag k="addr:state" v="VT"/>
    <tag k="ref:vcgi:esiteid" v="10181"/>
  </node>
  <node id="-2271" visible="true" lat="44.19193527" lon="-72.49180022">
    <tag k="addr:city" v="Barre City"/>
    <tag k="addr:housenumber" v="182"/>
    <tag k="addr:street" v="Washington Street"/>
    <tag k="addr:state" v="VT"/>
    <tag k="ref:vcgi:esiteid" v="10183"/>
  </node>
  <node id="-2275" visible="true" lat="44.19198357" lon="-72.51895061">
    <tag k="addr:city" v="Barre City"/>
    <tag k="addr:housenumber" v="75"/>
    <tag k="addr:street" v="Westwood Parkway"/>
    <tag k="addr:state" v="VT"/>
    <tag k="ref:vcgi:esiteid" v="10187"/>
  </node>
  <node id="-2276" visible="true" lat="44.19192555" lon="-72.51854569">
    <tag k="addr:city" v="Barre City"/>
    <tag k="addr:housenumber" v="71"/>
    <tag k="addr:street" v="Westwood Parkway"/>
    <tag k="addr:state" v="VT"/>
    <tag k="ref:vcgi:esiteid" v="10190"/>
  </node>
  <node id="-2278" visible="true" lat="44.19181681" lon="-72.51968265">
    <tag k="addr:city" v="Barre City"/>
    <tag k="addr:housenumber" v="67"/>
    <tag k="addr:street" v="Palmisano Plaza"/>
    <tag k="addr:state" v="VT"/>
    <tag k="ref:vcgi:esiteid" v="10192"/>
  </node>
  <node id="-2280" visible="true" lat="44.19182944" lon="-72.48967137">
    <tag k="addr:city" v="Barre City"/>
    <tag k="addr:housenumber" v="30"/>
    <tag k="addr:street" v="Nelson Street"/>
    <tag k="addr:state" v="VT"/>
    <tag k="ref:vcgi:esiteid" v="10194"/>
  </node>
  <node id="-2281" visible="true" lat="44.19176395" lon="-72.48916167">
    <tag k="addr:city" v="Barre City"/>
    <tag k="addr:housenumber" v="3"/>
    <tag k="addr:street" v="Stafford Street"/>
    <tag k="addr:state" v="VT"/>
    <tag k="ref:vcgi:esiteid" v="10195"/>
  </node>
  <node id="-2286" visible="true" lat="44.19174791" lon="-72.51800086">
    <tag k="addr:city" v="Barre City"/>
    <tag k="addr:housenumber" v="76"/>
    <tag k="addr:street" v="Westwood Parkway"/>
    <tag k="addr:state" v="VT"/>
    <tag k="ref:vcgi:esiteid" v="10201"/>
  </node>
  <node id="-2288" visible="true" lat="44.19171716" lon="-72.48686452">
    <tag k="addr:city" v="Barre City"/>
    <tag k="addr:housenumber" v="31"/>
    <tag k="addr:street" v="Waterman Street"/>
    <tag k="addr:state" v="VT"/>
    <tag k="ref:vcgi:esiteid" v="10203"/>
  </node>
  <node id="-2289" visible="true" lat="44.19170046" lon="-72.4903739">
    <tag k="addr:city" v="Barre City"/>
    <tag k="addr:housenumber" v="17"/>
    <tag k="addr:street" v="Patterson Street"/>
    <tag k="addr:state" v="VT"/>
    <tag k="ref:vcgi:esiteid" v="10204"/>
  </node>
  <node id="-2291" visible="true" lat="44.19165237" lon="-72.48982459">
    <tag k="addr:city" v="Barre City"/>
    <tag k="addr:housenumber" v="28"/>
    <tag k="addr:street" v="Nelson Street"/>
    <tag k="addr:state" v="VT"/>
    <tag k="ref:vcgi:esiteid" v="10206"/>
  </node>
  <node id="-2292" visible="true" lat="44.19160721" lon="-72.51920156">
    <tag k="addr:city" v="Barre City"/>
    <tag k="addr:housenumber" v="92"/>
    <tag k="addr:street" v="Westwood Parkway"/>
    <tag k="addr:state" v="VT"/>
    <tag k="ref:vcgi:esiteid" v="10207"/>
  </node>
  <node id="-2294" visible="true" lat="44.19163137" lon="-72.49335919">
    <tag k="addr:city" v="Barre City"/>
    <tag k="addr:housenumber" v="20"/>
    <tag k="addr:street" v="Freedom Way"/>
    <tag k="addr:state" v="VT"/>
    <tag k="ref:vcgi:esiteid" v="10209"/>
  </node>
  <node id="-2295" visible="true" lat="44.19178067" lon="-72.48835099">
    <tag k="addr:city" v="Barre City"/>
    <tag k="addr:housenumber" v="14"/>
    <tag k="addr:street" v="Stafford Street"/>
    <tag k="addr:state" v="VT"/>
    <tag k="ref:vcgi:esiteid" v="10210"/>
  </node>
  <node id="-2297" visible="true" lat="44.19167709" lon="-72.48728179">
    <tag k="addr:city" v="Barre City"/>
    <tag k="addr:housenumber" v="28"/>
    <tag k="addr:street" v="Waterman Street"/>
    <tag k="addr:state" v="VT"/>
    <tag k="ref:vcgi:esiteid" v="10212"/>
  </node>
  <node id="-2299" visible="true" lat="44.19167895" lon="-72.49143577">
    <tag k="addr:city" v="Barre City"/>
    <tag k="addr:housenumber" v="186"/>
    <tag k="addr:street" v="Washington Street"/>
    <tag k="addr:state" v="VT"/>
    <tag k="ref:vcgi:esiteid" v="10214"/>
  </node>
  <node id="-2300" visible="true" lat="44.19153854" lon="-72.51887349">
    <tag k="addr:city" v="Barre City"/>
    <tag k="addr:housenumber" v="88"/>
    <tag k="addr:street" v="Westwood Parkway"/>
    <tag k="addr:state" v="VT"/>
    <tag k="ref:vcgi:esiteid" v="10215"/>
  </node>
  <node id="-2301" visible="true" lat="44.19157607" lon="-72.48886217">
    <tag k="addr:city" v="Barre City"/>
    <tag k="addr:housenumber" v="11"/>
    <tag k="addr:street" v="Stafford Street"/>
    <tag k="addr:state" v="VT"/>
    <tag k="ref:vcgi:esiteid" v="10216"/>
  </node>
  <node id="-2304" visible="true" lat="44.19160843" lon="-72.48930404">
    <tag k="addr:city" v="Barre City"/>
    <tag k="addr:housenumber" v="29"/>
    <tag k="addr:street" v="Nelson Street"/>
    <tag k="addr:state" v="VT"/>
    <tag k="ref:vcgi:esiteid" v="10219"/>
  </node>
  <node id="-2306" visible="true" lat="44.19161348" lon="-72.49217657">
    <tag k="addr:city" v="Barre City"/>
    <tag k="addr:housenumber" v="183"/>
    <tag k="addr:street" v="Washington Street"/>
    <tag k="addr:state" v="VT"/>
    <tag k="ref:vcgi:esiteid" v="10222"/>
  </node>
  <node id="-2309" visible="true" lat="44.19153959" lon="-72.49050146">
    <tag k="addr:city" v="Barre City"/>
    <tag k="addr:housenumber" v="11"/>
    <tag k="addr:street" v="Patterson Street"/>
    <tag k="addr:state" v="VT"/>
    <tag k="ref:vcgi:esiteid" v="10225"/>
  </node>
  <node id="-2310" visible="true" lat="44.19143381" lon="-72.51848439">
    <tag k="addr:city" v="Barre City"/>
    <tag k="addr:housenumber" v="84"/>
    <tag k="addr:street" v="Westwood Parkway"/>
    <tag k="addr:state" v="VT"/>
    <tag k="ref:vcgi:esiteid" v="10226"/>
  </node>
  <node id="-2312" visible="true" lat="44.19151687" lon="-72.49319458">
    <tag k="addr:city" v="Barre City"/>
    <tag k="addr:housenumber" v="60"/>
    <tag k="addr:street" v="Orange Street"/>
    <tag k="addr:state" v="VT"/>
    <tag k="ref:vcgi:esiteid" v="10228"/>
  </node>
  <node id="-2313" visible="true" lat="44.19154481" lon="-72.49206213">
    <tag k="addr:city" v="Barre City"/>
    <tag k="addr:housenumber" v="185"/>
    <tag k="addr:street" v="Washington Street"/>
    <tag k="addr:state" v="VT"/>
    <tag k="ref:vcgi:esiteid" v="10229"/>
  </node>
  <node id="-2318" visible="true" lat="44.19148635" lon="-72.48699951">
    <tag k="addr:city" v="Barre City"/>
    <tag k="addr:housenumber" v="27"/>
    <tag k="addr:street" v="Waterman Street"/>
    <tag k="addr:state" v="VT"/>
    <tag k="ref:vcgi:esiteid" v="10234"/>
  </node>
  <node id="-2319" visible="true" lat="44.19141905" lon="-72.49179242">
    <tag k="addr:city" v="Barre City"/>
    <tag k="addr:housenumber" v="189"/>
    <tag k="addr:street" v="Washington Street"/>
    <tag k="addr:state" v="VT"/>
    <tag k="ref:vcgi:esiteid" v="10235"/>
  </node>
  <node id="-2320" visible="true" lat="44.19146728" lon="-72.48994445">
    <tag k="addr:city" v="Barre City"/>
    <tag k="addr:housenumber" v="20"/>
    <tag k="addr:street" v="Nelson Street"/>
    <tag k="addr:state" v="VT"/>
    <tag k="ref:vcgi:esiteid" v="10237"/>
  </node>
  <node id="-2323" visible="true" lat="44.19134226" lon="-72.51807163">
    <tag k="addr:city" v="Barre City"/>
    <tag k="addr:housenumber" v="3"/>
    <tag k="addr:street" v="Day Street"/>
    <tag k="addr:state" v="VT"/>
    <tag k="ref:vcgi:esiteid" v="10241"/>
  </node>
  <node id="-2324" visible="true" lat="44.19144821" lon="-72.48940277">
    <tag k="addr:city" v="Barre City"/>
    <tag k="addr:housenumber" v="25"/>
    <tag k="addr:street" v="Nelson Street"/>
    <tag k="addr:state" v="VT"/>
    <tag k="ref:vcgi:esiteid" v="10242"/>
  </node>
  <node id="-2325" visible="true" lat="44.19144821" lon="-72.49299621">
    <tag k="addr:city" v="Barre City"/>
    <tag k="addr:housenumber" v="66"/>
    <tag k="addr:street" v="Orange Street"/>
    <tag k="addr:state" v="VT"/>
    <tag k="ref:vcgi:esiteid" v="10243"/>
  </node>
  <node id="-2326" visible="true" lat="44.19144439" lon="-72.48846435">
    <tag k="addr:city" v="Barre City"/>
    <tag k="addr:housenumber" v="5"/>
    <tag k="addr:street" v="Adams Street"/>
    <tag k="addr:state" v="VT"/>
    <tag k="ref:vcgi:esiteid" v="10244"/>
  </node>
  <node id="-2329" visible="true" lat="44.19142913" lon="-72.48748016">
    <tag k="addr:city" v="Barre City"/>
    <tag k="addr:housenumber" v="24"/>
    <tag k="addr:street" v="Waterman Street"/>
    <tag k="addr:state" v="VT"/>
    <tag k="ref:vcgi:esiteid" v="10247"/>
  </node>
  <node id="-2334" visible="true" lat="44.19138336" lon="-72.49272155">
    <tag k="addr:city" v="Barre City"/>
    <tag k="addr:housenumber" v="72"/>
    <tag k="addr:street" v="Orange Street"/>
    <tag k="addr:state" v="VT"/>
    <tag k="ref:vcgi:esiteid" v="10252"/>
  </node>
  <node id="-2335" visible="true" lat="44.19136047" lon="-72.48906707">
    <tag k="addr:city" v="Barre City"/>
    <tag k="addr:housenumber" v="4"/>
    <tag k="addr:street" v="Adams Street"/>
    <tag k="addr:state" v="VT"/>
    <tag k="ref:vcgi:esiteid" v="10254"/>
  </node>
  <node id="-2338" visible="true" lat="44.19131088" lon="-72.49007415">
    <tag k="addr:city" v="Barre City"/>
    <tag k="addr:housenumber" v="16"/>
    <tag k="addr:street" v="Nelson Street"/>
    <tag k="addr:state" v="VT"/>
    <tag k="ref:vcgi:esiteid" v="10257"/>
  </node>
  <node id="-2339" visible="true" lat="44.19129562" lon="-72.4935379">
    <tag k="addr:city" v="Barre City"/>
    <tag k="addr:housenumber" v="55"/>
    <tag k="addr:street" v="Orange Street"/>
    <tag k="addr:state" v="VT"/>
    <tag k="ref:vcgi:esiteid" v="10258"/>
  </node>
  <node id="-2340" visible="true" lat="44.19130324" lon="-72.49072015">
    <tag k="addr:city" v="Barre City"/>
    <tag k="addr:housenumber" v="194"/>
    <tag k="addr:street" v="Washington Street"/>
    <tag k="addr:state" v="VT"/>
    <tag k="ref:vcgi:esiteid" v="10259"/>
  </node>
  <node id="-2344" visible="true" lat="44.19126553" lon="-72.49151773">
    <tag k="addr:city" v="Barre City"/>
    <tag k="addr:housenumber" v="191"/>
    <tag k="addr:street" v="Washington Street"/>
    <tag k="addr:state" v="VT"/>
    <tag k="ref:vcgi:esiteid" v="10263"/>
  </node>
  <node id="-2345" visible="true" lat="44.19127655" lon="-72.49247741">
    <tag k="addr:city" v="Barre City"/>
    <tag k="addr:housenumber" v="78"/>
    <tag k="addr:street" v="Orange Street"/>
    <tag k="addr:state" v="VT"/>
    <tag k="ref:vcgi:esiteid" v="10264"/>
  </node>
  <node id="-2346" visible="true" lat="44.19126129" lon="-72.48862457">
    <tag k="addr:city" v="Barre City"/>
    <tag k="addr:housenumber" v="3"/>
    <tag k="addr:street" v="Adams Street"/>
    <tag k="addr:state" v="VT"/>
    <tag k="ref:vcgi:esiteid" v="10265"/>
  </node>
  <node id="-2347" visible="true" lat="44.1912384" lon="-72.48965454">
    <tag k="addr:city" v="Barre City"/>
    <tag k="addr:housenumber" v="17"/>
    <tag k="addr:street" v="Nelson Street"/>
    <tag k="addr:state" v="VT"/>
    <tag k="ref:vcgi:esiteid" v="10266"/>
  </node>
  <node id="-2348" visible="true" lat="44.1912384" lon="-72.49330139">
    <tag k="addr:city" v="Barre City"/>
    <tag k="addr:housenumber" v="57"/>
    <tag k="addr:street" v="Orange Street"/>
    <tag k="addr:state" v="VT"/>
    <tag k="ref:vcgi:esiteid" v="10267"/>
  </node>
  <node id="-2352" visible="true" lat="44.19120407" lon="-72.49229431">
    <tag k="addr:city" v="Barre City"/>
    <tag k="addr:housenumber" v="84"/>
    <tag k="addr:street" v="Orange Street"/>
    <tag k="addr:state" v="VT"/>
    <tag k="ref:vcgi:esiteid" v="10272"/>
  </node>
  <node id="-2353" visible="true" lat="44.19113953" lon="-72.49311296">
    <tag k="addr:city" v="Barre City"/>
    <tag k="addr:housenumber" v="71"/>
    <tag k="addr:street" v="Orange Street"/>
    <tag k="addr:state" v="VT"/>
    <tag k="ref:vcgi:esiteid" v="10273"/>
  </node>
  <node id="-2354" visible="true" lat="44.19113405" lon="-72.48778595">
    <tag k="addr:city" v="Barre City"/>
    <tag k="addr:housenumber" v="20"/>
    <tag k="addr:street" v="Waterman Street"/>
    <tag k="addr:state" v="VT"/>
    <tag k="ref:vcgi:esiteid" v="10274"/>
  </node>
  <node id="-2356" visible="true" lat="44.19118881" lon="-72.48719787">
    <tag k="addr:city" v="Barre City"/>
    <tag k="addr:housenumber" v="23"/>
    <tag k="addr:street" v="Waterman Street"/>
    <tag k="addr:state" v="VT"/>
    <tag k="ref:vcgi:esiteid" v="10276"/>
  </node>
  <node id="-2358" visible="true" lat="44.1911926" lon="-72.49056773">
    <tag k="addr:city" v="Barre City"/>
    <tag k="addr:housenumber" v="204"/>
    <tag k="addr:street" v="Washington Street"/>
    <tag k="addr:state" v="VT"/>
    <tag k="ref:vcgi:esiteid" v="10278"/>
  </node>
  <node id="-2363" visible="true" lat="44.19111633" lon="-72.48880767">
    <tag k="addr:city" v="Barre City"/>
    <tag k="addr:housenumber" v="1"/>
    <tag k="addr:street" v="Adams Street"/>
    <tag k="addr:state" v="VT"/>
    <tag k="ref:vcgi:esiteid" v="10283"/>
  </node>
  <node id="-2366" visible="true" lat="44.19108963" lon="-72.4894104">
    <tag k="addr:city" v="Barre City"/>
    <tag k="addr:housenumber" v="11"/>
    <tag k="addr:street" v="Garden Street"/>
    <tag k="addr:state" v="VT"/>
    <tag k="ref:vcgi:esiteid" v="10287"/>
  </node>
  <node id="-2367" visible="true" lat="44.19107818" lon="-72.49208831">
    <tag k="addr:city" v="Barre City"/>
    <tag k="addr:housenumber" v="90"/>
    <tag k="addr:street" v="Orange Street"/>
    <tag k="addr:state" v="VT"/>
    <tag k="ref:vcgi:esiteid" v="10288"/>
  </node>
  <node id="-2369" visible="true" lat="44.19104766" lon="-72.4910736">
    <tag k="addr:city" v="Barre City"/>
    <tag k="addr:housenumber" v="199"/>
    <tag k="addr:street" v="Washington Street"/>
    <tag k="addr:state" v="VT"/>
    <tag k="ref:vcgi:esiteid" v="10291"/>
  </node>
  <node id="-2370" visible="true" lat="44.19103622" lon="-72.49040222">
    <tag k="addr:city" v="Barre City"/>
    <tag k="addr:housenumber" v="212"/>
    <tag k="addr:street" v="Washington Street"/>
    <tag k="addr:state" v="VT"/>
    <tag k="ref:vcgi:esiteid" v="10292"/>
  </node>
  <node id="-2375" visible="true" lat="44.19099671" lon="-72.49264401">
    <tag k="addr:city" v="Barre City"/>
    <tag k="addr:housenumber" v="83"/>
    <tag k="addr:street" v="Orange Street"/>
    <tag k="addr:state" v="VT"/>
    <tag k="ref:vcgi:esiteid" v="10297"/>
  </node>
  <node id="-2376" visible="true" lat="44.19100952" lon="-72.48922729">
    <tag k="addr:city" v="Barre City"/>
    <tag k="addr:housenumber" v="15"/>
    <tag k="addr:street" v="Garden Street"/>
    <tag k="addr:state" v="VT"/>
    <tag k="ref:vcgi:esiteid" v="10298"/>
  </node>
  <node id="-2385" visible="true" lat="44.19096374" lon="-72.48741912">
    <tag k="addr:city" v="Barre City"/>
    <tag k="addr:housenumber" v="19"/>
    <tag k="addr:street" v="Waterman Street"/>
    <tag k="addr:state" v="VT"/>
    <tag k="ref:vcgi:esiteid" v="10307"/>
  </node>
  <node id="-2387" visible="true" lat="44.19100258" lon="-72.48654334">
    <tag k="addr:city" v="Barre City"/>
    <tag k="addr:housenumber" v="215"/>
    <tag k="addr:street" v="Hill Street"/>
    <tag k="addr:state" v="VT"/>
    <tag k="ref:vcgi:esiteid" v="10309"/>
  </node>
  <node id="-2392" visible="true" lat="44.19092941" lon="-72.49172973">
    <tag k="addr:city" v="Barre City"/>
    <tag k="addr:housenumber" v="15"/>
    <tag k="addr:street" v="West Patterson Street"/>
    <tag k="addr:state" v="VT"/>
    <tag k="ref:vcgi:esiteid" v="10314"/>
  </node>
  <node id="-2394" visible="true" lat="44.19092392" lon="-72.49249021">
    <tag k="addr:city" v="Barre City"/>
    <tag k="addr:housenumber" v="91"/>
    <tag k="addr:street" v="Orange Street"/>
    <tag k="addr:state" v="VT"/>
    <tag k="ref:vcgi:esiteid" v="10316"/>
  </node>
  <node id="-2396" visible="true" lat="44.19091033" lon="-72.49088287">
    <tag k="addr:city" v="Barre City"/>
    <tag k="addr:housenumber" v="207"/>
    <tag k="addr:street" v="Washington Street"/>
    <tag k="addr:state" v="VT"/>
    <tag k="ref:vcgi:esiteid" v="10318"/>
  </node>
  <node id="-2398" visible="true" lat="44.19089508" lon="-72.48901367">
    <tag k="addr:city" v="Barre City"/>
    <tag k="addr:housenumber" v="19"/>
    <tag k="addr:street" v="Garden Street"/>
    <tag k="addr:state" v="VT"/>
    <tag k="ref:vcgi:esiteid" v="10320"/>
  </node>
  <node id="-2400" visible="true" lat="44.19086837" lon="-72.49003601">
    <tag k="addr:city" v="Barre City"/>
    <tag k="addr:housenumber" v="218"/>
    <tag k="addr:street" v="Washington Street"/>
    <tag k="addr:state" v="VT"/>
    <tag k="ref:vcgi:esiteid" v="10322"/>
  </node>
  <node id="-2403" visible="true" lat="44.19084548" lon="-72.49227905">
    <tag k="addr:city" v="Barre City"/>
    <tag k="addr:housenumber" v="97"/>
    <tag k="addr:street" v="Orange Street"/>
    <tag k="addr:state" v="VT"/>
    <tag k="ref:vcgi:esiteid" v="10325"/>
  </node>
  <node id="-2404" visible="true" lat="44.19084548" lon="-72.48794555">
    <tag k="addr:city" v="Barre City"/>
    <tag k="addr:housenumber" v="40"/>
    <tag k="addr:street" v="Garden Street"/>
    <tag k="addr:state" v="VT"/>
    <tag k="ref:vcgi:esiteid" v="10326"/>
  </node>
  <node id="-2408" visible="true" lat="44.19080734" lon="-72.48880767">
    <tag k="addr:city" v="Barre City"/>
    <tag k="addr:housenumber" v="23"/>
    <tag k="addr:street" v="Garden Street"/>
    <tag k="addr:state" v="VT"/>
    <tag k="ref:vcgi:esiteid" v="10330"/>
  </node>
  <node id="-2409" visible="true" lat="44.19077301" lon="-72.49060821">
    <tag k="addr:city" v="Barre City"/>
    <tag k="addr:housenumber" v="213"/>
    <tag k="addr:street" v="Washington Street"/>
    <tag k="addr:state" v="VT"/>
    <tag k="ref:vcgi:esiteid" v="10332"/>
  </node>
  <node id="-2415" visible="true" lat="44.1908063" lon="-72.48979994">
    <tag k="addr:city" v="Barre City"/>
    <tag k="addr:housenumber" v="222"/>
    <tag k="addr:street" v="Washington Street"/>
    <tag k="addr:state" v="VT"/>
    <tag k="ref:vcgi:esiteid" v="10339"/>
  </node>
  <node id="-2417" visible="true" lat="44.19073104" lon="-72.49208068">
    <tag k="addr:city" v="Barre City"/>
    <tag k="addr:housenumber" v="103"/>
    <tag k="addr:street" v="Orange Street"/>
    <tag k="addr:state" v="VT"/>
    <tag k="ref:vcgi:esiteid" v="10341"/>
  </node>
  <node id="-2421" visible="true" lat="44.19069671" lon="-72.48857116">
    <tag k="addr:city" v="Barre City"/>
    <tag k="addr:housenumber" v="27"/>
    <tag k="addr:street" v="Garden Street"/>
    <tag k="addr:state" v="VT"/>
    <tag k="ref:vcgi:esiteid" v="10346"/>
  </node>
  <node id="-2429" visible="true" lat="44.19077214" lon="-72.49130633">
    <tag k="addr:city" v="Barre City"/>
    <tag k="addr:housenumber" v="102"/>
    <tag k="addr:street" v="Orange Street"/>
    <tag k="addr:state" v="VT"/>
    <tag k="ref:vcgi:esiteid" v="10354"/>
  </node>
  <node id="-2431" visible="true" lat="44.19062805" lon="-72.48769378">
    <tag k="addr:city" v="Barre City"/>
    <tag k="addr:housenumber" v="44"/>
    <tag k="addr:street" v="Garden Street"/>
    <tag k="addr:state" v="VT"/>
    <tag k="ref:vcgi:esiteid" v="10357"/>
  </node>
  <node id="-2434" visible="true" lat="44.19056701" lon="-72.49083709">
    <tag k="addr:city" v="Barre City"/>
    <tag k="addr:housenumber" v="9"/>
    <tag k="addr:street" v="Trow Avenue"/>
    <tag k="addr:state" v="VT"/>
    <tag k="ref:vcgi:esiteid" v="10361"/>
  </node>
  <node id="-2437" visible="true" lat="44.19053268" lon="-72.49026489">
    <tag k="addr:city" v="Barre City"/>
    <tag k="addr:housenumber" v="217"/>
    <tag k="addr:street" v="Washington Street"/>
    <tag k="addr:state" v="VT"/>
    <tag k="ref:vcgi:esiteid" v="10364"/>
  </node>
  <node id="-2438" visible="true" lat="44.19053268" lon="-72.48957061">
    <tag k="addr:city" v="Barre City"/>
    <tag k="addr:housenumber" v="230"/>
    <tag k="addr:street" v="Washington Street"/>
    <tag k="addr:state" v="VT"/>
    <tag k="ref:vcgi:esiteid" v="10365"/>
  </node>
  <node id="-2440" visible="true" lat="44.19046401" lon="-72.49158477">
    <tag k="addr:city" v="Barre City"/>
    <tag k="addr:housenumber" v="109"/>
    <tag k="addr:street" v="Orange Street"/>
    <tag k="addr:state" v="VT"/>
    <tag k="ref:vcgi:esiteid" v="10368"/>
  </node>
  <node id="-2441" visible="true" lat="44.19042711" lon="-72.4884008">
    <tag k="addr:city" v="Barre City"/>
    <tag k="addr:housenumber" v="8"/>
    <tag k="addr:street" v="Waterman Street"/>
    <tag k="addr:state" v="VT"/>
    <tag k="ref:vcgi:esiteid" v="10369"/>
  </node>
  <node id="-2444" visible="true" lat="44.19044494" lon="-72.49093627">
    <tag k="addr:city" v="Barre City"/>
    <tag k="addr:housenumber" v="118"/>
    <tag k="addr:street" v="Orange Street"/>
    <tag k="addr:state" v="VT"/>
    <tag k="ref:vcgi:esiteid" v="10372"/>
  </node>
  <node id="-2447" visible="true" lat="44.19040787" lon="-72.49004534">
    <tag k="addr:city" v="Barre City"/>
    <tag k="addr:housenumber" v="225"/>
    <tag k="addr:street" v="Washington Street"/>
    <tag k="addr:state" v="VT"/>
    <tag k="ref:vcgi:esiteid" v="10376"/>
  </node>
  <node id="-2450" visible="true" lat="44.19034194" lon="-72.49139404">
    <tag k="addr:city" v="Barre City"/>
    <tag k="addr:housenumber" v="115"/>
    <tag k="addr:street" v="Orange Street"/>
    <tag k="addr:state" v="VT"/>
    <tag k="ref:vcgi:esiteid" v="10380"/>
  </node>
  <node id="-2452" visible="true" lat="44.19035278" lon="-72.48737082">
    <tag k="addr:city" v="Barre City"/>
    <tag k="addr:housenumber" v="50"/>
    <tag k="addr:street" v="Garden Street"/>
    <tag k="addr:state" v="VT"/>
    <tag k="ref:vcgi:esiteid" v="10382"/>
  </node>
  <node id="-2453" visible="true" lat="44.19033813" lon="-72.48923492">
    <tag k="addr:city" v="Barre City"/>
    <tag k="addr:housenumber" v="236"/>
    <tag k="addr:street" v="Washington Street"/>
    <tag k="addr:state" v="VT"/>
    <tag k="ref:vcgi:esiteid" v="10383"/>
  </node>
  <node id="-2454" visible="true" lat="44.19032669" lon="-72.48854827">
    <tag k="addr:city" v="Barre City"/>
    <tag k="addr:housenumber" v="6"/>
    <tag k="addr:street" v="Waterman Street"/>
    <tag k="addr:state" v="VT"/>
    <tag k="ref:vcgi:esiteid" v="10385"/>
  </node>
  <node id="-2456" visible="true" lat="44.19028854" lon="-72.49062347">
    <tag k="addr:city" v="Barre City"/>
    <tag k="addr:housenumber" v="122"/>
    <tag k="addr:street" v="Orange Street"/>
    <tag k="addr:state" v="VT"/>
    <tag k="ref:vcgi:esiteid" v="10387"/>
  </node>
  <node id="-2458" visible="true" lat="44.19026184" lon="-72.48808288">
    <tag k="addr:city" v="Barre City"/>
    <tag k="addr:housenumber" v="11"/>
    <tag k="addr:street" v="Waterman Street"/>
    <tag k="addr:state" v="VT"/>
    <tag k="ref:vcgi:esiteid" v="10390"/>
  </node>
  <node id="-2459" visible="true" lat="44.19027588" lon="-72.49284481">
    <tag k="addr:city" v="Barre City"/>
    <tag k="addr:housenumber" v="120"/>
    <tag k="addr:street" v="Ayers Street"/>
    <tag k="addr:state" v="VT"/>
    <tag k="ref:vcgi:esiteid" v="10391"/>
  </node>
  <node id="-2461" visible="true" lat="44.19030347" lon="-72.48986054">
    <tag k="addr:city" v="Barre City"/>
    <tag k="addr:housenumber" v="227"/>
    <tag k="addr:street" v="Washington Street"/>
    <tag k="addr:state" v="VT"/>
    <tag k="ref:vcgi:esiteid" v="10394"/>
  </node>
  <node id="-2465" visible="true" lat="44.19016692" lon="-72.48876191">
    <tag k="addr:city" v="Barre City"/>
    <tag k="addr:housenumber" v="2"/>
    <tag k="addr:street" v="Waterman Street"/>
    <tag k="addr:state" v="VT"/>
    <tag k="ref:vcgi:esiteid" v="10399"/>
  </node>
  <node id="-2467" visible="true" lat="44.19011306" lon="-72.49040984">
    <tag k="addr:city" v="Barre City"/>
    <tag k="addr:housenumber" v="128"/>
    <tag k="addr:street" v="Orange Street"/>
    <tag k="addr:state" v="VT"/>
    <tag k="ref:vcgi:esiteid" v="10402"/>
  </node>
  <node id="-2471" visible="true" lat="44.19000625" lon="-72.48729705">
    <tag k="addr:city" v="Barre City"/>
    <tag k="addr:housenumber" v="41"/>
    <tag k="addr:street" v="Garden Street"/>
    <tag k="addr:state" v="VT"/>
    <tag k="ref:vcgi:esiteid" v="10406"/>
  </node>
  <node id="-2473" visible="true" lat="44.18995726" lon="-72.48833886">
    <tag k="addr:city" v="Barre City"/>
    <tag k="addr:housenumber" v="1"/>
    <tag k="addr:street" v="Waterman Street"/>
    <tag k="addr:state" v="VT"/>
    <tag k="ref:vcgi:esiteid" v="10408"/>
  </node>
  <node id="-2474" visible="true" lat="44.18994774" lon="-72.49068461">
    <tag k="addr:city" v="Barre City"/>
    <tag k="addr:housenumber" v="131"/>
    <tag k="addr:street" v="Orange Street"/>
    <tag k="addr:state" v="VT"/>
    <tag k="ref:vcgi:esiteid" v="10409"/>
  </node>
  <node id="-2477" visible="true" lat="44.18999261" lon="-72.48931795">
    <tag k="addr:city" v="Barre City"/>
    <tag k="addr:housenumber" v="249"/>
    <tag k="addr:street" v="Washington Street"/>
    <tag k="addr:state" v="VT"/>
    <tag k="ref:vcgi:esiteid" v="10412"/>
  </node>
  <node id="-2480" visible="true" lat="44.18970834" lon="-72.48923188">
    <tag k="addr:city" v="Barre City"/>
    <tag k="addr:housenumber" v="253"/>
    <tag k="addr:street" v="Washington Street"/>
    <tag k="addr:state" v="VT"/>
    <tag k="ref:vcgi:esiteid" v="10415"/>
  </node>
  <node id="-2482" visible="true" lat="44.18980485" lon="-72.4908673">
    <tag k="addr:city" v="Barre City"/>
    <tag k="addr:housenumber" v="129"/>
    <tag k="addr:street" v="Orange Street"/>
    <tag k="addr:state" v="VT"/>
    <tag k="ref:vcgi:esiteid" v="10417"/>
  </node>
  <node id="-2493" visible="true" lat="44.18926735" lon="-72.49363648">
    <tag k="addr:city" v="Barre City"/>
    <tag k="addr:housenumber" v="155"/>
    <tag k="addr:street" v="Ayers Street"/>
    <tag k="addr:state" v="VT"/>
    <tag k="ref:vcgi:esiteid" v="10433"/>
  </node>
  <node id="-2501" visible="true" lat="44.18895339" lon="-72.48706054">
    <tag k="addr:city" v="Barre City"/>
    <tag k="addr:housenumber" v="336"/>
    <tag k="addr:street" v="Washington Street"/>
    <tag k="addr:state" v="VT"/>
    <tag k="ref:vcgi:esiteid" v="10444"/>
  </node>
  <node id="-2503" visible="true" lat="44.1887474" lon="-72.48669433">
    <tag k="addr:city" v="Barre City"/>
    <tag k="addr:housenumber" v="342"/>
    <tag k="addr:street" v="Washington Street"/>
    <tag k="addr:state" v="VT"/>
    <tag k="ref:vcgi:esiteid" v="10447"/>
  </node>
  <node id="-2790" visible="true" lat="44.21372985" lon="-72.52264404">
    <tag k="addr:city" v="Barre City"/>
    <tag k="addr:housenumber" v="6"/>
    <tag k="addr:street" v="Packard Street"/>
    <tag k="addr:state" v="VT"/>
    <tag k="ref:vcgi:esiteid" v="10772"/>
  </node>
  <node id="-2793" visible="true" lat="44.21120831" lon="-72.51631944">
    <tag k="addr:city" v="Barre City"/>
    <tag k="addr:housenumber" v="629"/>
    <tag k="addr:street" v="North Main Street"/>
    <tag k="addr:state" v="VT"/>
    <tag k="ref:vcgi:esiteid" v="10777"/>
  </node>
  <node id="-2795" visible="true" lat="44.21041485" lon="-72.52148766">
    <tag k="addr:city" v="Barre City"/>
    <tag k="addr:housenumber" v="69"/>
    <tag k="addr:street" v="Treatment Plant Drive"/>
    <tag k="addr:state" v="VT"/>
    <tag k="ref:vcgi:esiteid" v="10781"/>
  </node>
  <node id="-2796" visible="true" lat="44.21037674" lon="-72.52065277">
    <tag k="addr:city" v="Barre City"/>
    <tag k="addr:housenumber" v="61"/>
    <tag k="addr:street" v="Treatment Plant Drive"/>
    <tag k="addr:state" v="VT"/>
    <tag k="ref:vcgi:esiteid" v="10782"/>
  </node>
  <node id="-2798" visible="true" lat="44.21014871" lon="-72.51957275">
    <tag k="addr:city" v="Barre City"/>
    <tag k="addr:housenumber" v="49"/>
    <tag k="addr:street" v="Treatment Plant Drive"/>
    <tag k="addr:state" v="VT"/>
    <tag k="ref:vcgi:esiteid" v="10784"/>
  </node>
  <node id="-2799" visible="true" lat="44.20998792" lon="-72.52032922">
    <tag k="addr:city" v="Barre City"/>
    <tag k="addr:housenumber" v="55"/>
    <tag k="addr:street" v="Treatment Plant Drive"/>
    <tag k="addr:state" v="VT"/>
    <tag k="ref:vcgi:esiteid" v="10785"/>
  </node>
  <node id="-2801" visible="true" lat="44.19698545" lon="-72.51205221">
    <tag k="addr:city" v="Barre City"/>
    <tag k="addr:housenumber" v="8"/>
    <tag k="addr:street" v="Reynolds Street"/>
    <tag k="addr:state" v="VT"/>
    <tag k="ref:vcgi:esiteid" v="10788"/>
  </node>
  <node id="-2802" visible="true" lat="44.19720284" lon="-72.51209511">
    <tag k="addr:city" v="Barre City"/>
    <tag k="addr:housenumber" v="6"/>
    <tag k="addr:street" v="Reynolds Street"/>
    <tag k="addr:state" v="VT"/>
    <tag k="ref:vcgi:esiteid" v="10789"/>
  </node>
  <node id="-2803" visible="true" lat="44.19737234" lon="-72.51222625">
    <tag k="addr:city" v="Barre City"/>
    <tag k="addr:housenumber" v="4"/>
    <tag k="addr:street" v="Reynolds Street"/>
    <tag k="addr:state" v="VT"/>
    <tag k="ref:vcgi:esiteid" v="10790"/>
  </node>
  <node id="-2804" visible="true" lat="44.19751398" lon="-72.51247493">
    <tag k="addr:city" v="Barre City"/>
    <tag k="addr:housenumber" v="5"/>
    <tag k="addr:street" v="Coolidge Street"/>
    <tag k="addr:state" v="VT"/>
    <tag k="ref:vcgi:esiteid" v="10791"/>
  </node>
  <node id="-2805" visible="true" lat="44.19768409" lon="-72.51267751">
    <tag k="addr:city" v="Barre City"/>
    <tag k="addr:housenumber" v="7"/>
    <tag k="addr:street" v="Coolidge Street"/>
    <tag k="addr:state" v="VT"/>
    <tag k="ref:vcgi:esiteid" v="10792"/>
  </node>
  <node id="-2806" visible="true" lat="44.19788406" lon="-72.51312577">
    <tag k="addr:city" v="Barre City"/>
    <tag k="addr:housenumber" v="11"/>
    <tag k="addr:street" v="Coolidge Street"/>
    <tag k="addr:state" v="VT"/>
    <tag k="ref:vcgi:esiteid" v="10793"/>
  </node>
  <node id="-2815" visible="true" lat="44.21269773" lon="-72.51846118">
    <tag k="addr:city" v="Barre City"/>
    <tag k="addr:housenumber" v="21"/>
    <tag k="addr:street" v="Richardson Road"/>
    <tag k="addr:state" v="VT"/>
    <tag k="ref:vcgi:esiteid" v="10805"/>
  </node>
  <node id="-2831" visible="true" lat="44.19425532" lon="-72.48543402">
    <tag k="addr:city" v="Barre City"/>
    <tag k="addr:housenumber" v="27"/>
    <tag k="addr:street" v="Woodland Drive"/>
    <tag k="addr:state" v="VT"/>
    <tag k="ref:vcgi:esiteid" v="10825"/>
  </node>
  <node id="-2833" visible="true" lat="44.19551424" lon="-72.48546028">
    <tag k="addr:city" v="Barre City"/>
    <tag k="addr:housenumber" v="52"/>
    <tag k="addr:street" v="Woodland Drive"/>
    <tag k="addr:state" v="VT"/>
    <tag k="ref:vcgi:esiteid" v="10827"/>
  </node>
  <node id="-2835" visible="true" lat="44.20030545" lon="-72.52427455">
    <tag k="addr:city" v="Barre City"/>
    <tag k="addr:housenumber" v="131"/>
    <tag k="addr:street" v="Bailey Street"/>
    <tag k="addr:state" v="VT"/>
    <tag k="ref:vcgi:esiteid" v="10831"/>
  </node>
  <node id="-2839" visible="true" lat="44.19533098" lon="-72.51618412">
    <tag k="addr:city" v="Barre City"/>
    <tag k="addr:housenumber" v="33"/>
    <tag k="addr:street" v="Country Way"/>
    <tag k="addr:state" v="VT"/>
    <tag k="ref:vcgi:esiteid" v="10835"/>
  </node>
  <node id="-2841" visible="true" lat="44.1950734" lon="-72.51573956">
    <tag k="addr:city" v="Barre City"/>
    <tag k="addr:housenumber" v="36"/>
    <tag k="addr:street" v="Country Way"/>
    <tag k="addr:state" v="VT"/>
    <tag k="ref:vcgi:esiteid" v="10837"/>
  </node>
  <node id="-2842" visible="true" lat="44.1950076" lon="-72.51633391">
    <tag k="addr:city" v="Barre City"/>
    <tag k="addr:housenumber" v="37"/>
    <tag k="addr:street" v="Country Way"/>
    <tag k="addr:state" v="VT"/>
    <tag k="ref:vcgi:esiteid" v="10838"/>
  </node>
  <node id="-2843" visible="true" lat="44.19388656" lon="-72.5150686">
    <tag k="addr:city" v="Barre City"/>
    <tag k="addr:housenumber" v="78"/>
    <tag k="addr:street" v="Country Way"/>
    <tag k="addr:state" v="VT"/>
    <tag k="ref:vcgi:esiteid" v="10840"/>
  </node>
  <node id="-2846" visible="true" lat="44.19424678" lon="-72.51495604">
    <tag k="addr:city" v="Barre City"/>
    <tag k="addr:housenumber" v="74"/>
    <tag k="addr:street" v="Country Way"/>
    <tag k="addr:state" v="VT"/>
    <tag k="ref:vcgi:esiteid" v="10843"/>
  </node>
  <node id="-2847" visible="true" lat="44.19453513" lon="-72.51485184">
    <tag k="addr:city" v="Barre City"/>
    <tag k="addr:housenumber" v="70"/>
    <tag k="addr:street" v="Country Way"/>
    <tag k="addr:state" v="VT"/>
    <tag k="ref:vcgi:esiteid" v="10844"/>
  </node>
  <node id="-2850" visible="true" lat="44.19410959" lon="-72.5160352">
    <tag k="addr:city" v="Barre City"/>
    <tag k="addr:housenumber" v="57"/>
    <tag k="addr:street" v="Country Way"/>
    <tag k="addr:state" v="VT"/>
    <tag k="ref:vcgi:esiteid" v="10847"/>
  </node>
  <node id="-2851" visible="true" lat="44.19369821" lon="-72.51572885">
    <tag k="addr:city" v="Barre City"/>
    <tag k="addr:housenumber" v="81"/>
    <tag k="addr:street" v="Country Way"/>
    <tag k="addr:state" v="VT"/>
    <tag k="ref:vcgi:esiteid" v="10848"/>
  </node>
  <node id="-2852" visible="true" lat="44.19342771" lon="-72.51583321">
    <tag k="addr:city" v="Barre City"/>
    <tag k="addr:housenumber" v="85"/>
    <tag k="addr:street" v="Country Way"/>
    <tag k="addr:state" v="VT"/>
    <tag k="ref:vcgi:esiteid" v="10849"/>
  </node>
  <node id="-2854" visible="true" lat="44.19334481" lon="-72.51528231">
    <tag k="addr:city" v="Barre City"/>
    <tag k="addr:housenumber" v="86"/>
    <tag k="addr:street" v="Country Way"/>
    <tag k="addr:state" v="VT"/>
    <tag k="ref:vcgi:esiteid" v="10853"/>
  </node>
  <node id="-2855" visible="true" lat="44.19311346" lon="-72.51538363">
    <tag k="addr:city" v="Barre City"/>
    <tag k="addr:housenumber" v="90"/>
    <tag k="addr:street" v="Country Way"/>
    <tag k="addr:state" v="VT"/>
    <tag k="ref:vcgi:esiteid" v="10854"/>
  </node>
  <node id="-2856" visible="true" lat="44.19523572" lon="-72.51525312">
    <tag k="addr:city" v="Barre City"/>
    <tag k="addr:housenumber" v="40"/>
    <tag k="addr:street" v="Daniel Drive"/>
    <tag k="addr:state" v="VT"/>
    <tag k="ref:vcgi:esiteid" v="10855"/>
  </node>
  <node id="-2857" visible="true" lat="44.19489302" lon="-72.51479089">
    <tag k="addr:city" v="Barre City"/>
    <tag k="addr:housenumber" v="32"/>
    <tag k="addr:street" v="Daniel Drive"/>
    <tag k="addr:state" v="VT"/>
    <tag k="ref:vcgi:esiteid" v="10856"/>
  </node>
  <node id="-2858" visible="true" lat="44.19520219" lon="-72.51459149">
    <tag k="addr:city" v="Barre City"/>
    <tag k="addr:housenumber" v="28"/>
    <tag k="addr:street" v="Daniel Drive"/>
    <tag k="addr:state" v="VT"/>
    <tag k="ref:vcgi:esiteid" v="10857"/>
  </node>
  <node id="-2859" visible="true" lat="44.19612224" lon="-72.51481197">
    <tag k="addr:city" v="Barre City"/>
    <tag k="addr:housenumber" v="9"/>
    <tag k="addr:street" v="Daniel Drive"/>
    <tag k="addr:state" v="VT"/>
    <tag k="ref:vcgi:esiteid" v="10858"/>
  </node>
  <node id="-2860" visible="true" lat="44.19653524" lon="-72.51452923">
    <tag k="addr:city" v="Barre City"/>
    <tag k="addr:housenumber" v="8"/>
    <tag k="addr:street" v="Daniel Drive"/>
    <tag k="addr:state" v="VT"/>
    <tag k="ref:vcgi:esiteid" v="10859"/>
  </node>
  <node id="-2865" visible="true" lat="44.19281014" lon="-72.51548903">
    <tag k="addr:city" v="Barre City"/>
    <tag k="addr:housenumber" v="94"/>
    <tag k="addr:street" v="Country Way"/>
    <tag k="addr:state" v="VT"/>
    <tag k="ref:vcgi:esiteid" v="10864"/>
  </node>
  <node id="-2866" visible="true" lat="44.1925895" lon="-72.51713681">
    <tag k="addr:city" v="Barre City"/>
    <tag k="addr:housenumber" v="40"/>
    <tag k="addr:street" v="Fecteau Circle"/>
    <tag k="addr:state" v="VT"/>
    <tag k="ref:vcgi:esiteid" v="10865"/>
  </node>
  <node id="-2869" visible="true" lat="44.19993911" lon="-72.52340057">
    <tag k="addr:city" v="Barre City"/>
    <tag k="addr:housenumber" v="127"/>
    <tag k="addr:street" v="Bailey Street"/>
    <tag k="addr:state" v="VT"/>
    <tag k="ref:vcgi:esiteid" v="10869"/>
  </node>
  <node id="-2870" visible="true" lat="44.19444389" lon="-72.51652128">
    <tag k="addr:city" v="Barre City"/>
    <tag k="addr:housenumber" v="45"/>
    <tag k="addr:street" v="Country Way"/>
    <tag k="addr:state" v="VT"/>
    <tag k="ref:vcgi:esiteid" v="10872"/>
  </node>
  <node id="-2871" visible="true" lat="44.1932346" lon="-72.51589749">
    <tag k="addr:city" v="Barre City"/>
    <tag k="addr:housenumber" v="89"/>
    <tag k="addr:street" v="Country Way"/>
    <tag k="addr:state" v="VT"/>
    <tag k="ref:vcgi:esiteid" v="10873"/>
  </node>
  <node id="-2873" visible="true" lat="44.1946954" lon="-72.51544496">
    <tag k="addr:city" v="Barre City"/>
    <tag k="addr:housenumber" v="66"/>
    <tag k="addr:street" v="Country Way"/>
    <tag k="addr:state" v="VT"/>
    <tag k="ref:vcgi:esiteid" v="10875"/>
  </node>
  <node id="-2875" visible="true" lat="44.19777218" lon="-72.51293183">
    <tag k="addr:city" v="Barre City"/>
    <tag k="addr:housenumber" v="9"/>
    <tag k="addr:street" v="Coolidge Street"/>
    <tag k="addr:state" v="VT"/>
    <tag k="ref:vcgi:esiteid" v="10877"/>
  </node>
  <node id="-2876" visible="true" lat="44.19936073" lon="-72.53095141">
    <tag k="addr:city" v="Barre City"/>
    <tag k="addr:housenumber" v="35"/>
    <tag k="addr:street" v="Nordic Lane"/>
    <tag k="addr:state" v="VT"/>
    <tag k="ref:vcgi:esiteid" v="10878"/>
  </node>
  <node id="-2880" visible="true" lat="44.19938131" lon="-72.51278851">
    <tag k="addr:city" v="Barre City"/>
    <tag k="addr:housenumber" v="26"/>
    <tag k="addr:street" v="Thomas Street"/>
    <tag k="addr:state" v="VT"/>
    <tag k="ref:vcgi:esiteid" v="10882"/>
  </node>
  <node id="-2884" visible="true" lat="44.19224139" lon="-72.51729857">
    <tag k="addr:city" v="Barre City"/>
    <tag k="addr:housenumber" v="34"/>
    <tag k="addr:street" v="Fecteau Circle"/>
    <tag k="addr:state" v="VT"/>
    <tag k="ref:vcgi:esiteid" v="10886"/>
  </node>
  <node id="-2885" visible="true" lat="44.19182829" lon="-72.5172718">
    <tag k="addr:city" v="Barre City"/>
    <tag k="addr:housenumber" v="30"/>
    <tag k="addr:street" v="Fecteau Circle"/>
    <tag k="addr:state" v="VT"/>
    <tag k="ref:vcgi:esiteid" v="10887"/>
  </node>
  <node id="-2887" visible="true" lat="44.19177784" lon="-72.51617582">
    <tag k="addr:city" v="Barre City"/>
    <tag k="addr:housenumber" v="18"/>
    <tag k="addr:street" v="Fecteau Circle"/>
    <tag k="addr:state" v="VT"/>
    <tag k="ref:vcgi:esiteid" v="10889"/>
  </node>
  <node id="-2891" visible="true" lat="44.19477067" lon="-72.51640163">
    <tag k="addr:city" v="Barre City"/>
    <tag k="addr:housenumber" v="41"/>
    <tag k="addr:street" v="Country Way"/>
    <tag k="addr:state" v="VT"/>
    <tag k="ref:vcgi:esiteid" v="10893"/>
  </node>
  <node id="-2892" visible="true" lat="44.19385703" lon="-72.5161969">
    <tag k="addr:city" v="Barre City"/>
    <tag k="addr:housenumber" v="61"/>
    <tag k="addr:street" v="Country Way"/>
    <tag k="addr:state" v="VT"/>
    <tag k="ref:vcgi:esiteid" v="10894"/>
  </node>
  <node id="-2893" visible="true" lat="44.1932614" lon="-72.51633951">
    <tag k="addr:city" v="Barre City"/>
    <tag k="addr:housenumber" v="103"/>
    <tag k="addr:street" v="Country Way"/>
    <tag k="addr:state" v="VT"/>
    <tag k="ref:vcgi:esiteid" v="10895"/>
  </node>
  <node id="-2902" visible="true" lat="44.19877512" lon="-72.52432023">
    <tag k="addr:city" v="Barre City"/>
    <tag k="addr:housenumber" v="120"/>
    <tag k="addr:street" v="Bailey Street"/>
    <tag k="addr:state" v="VT"/>
    <tag k="ref:vcgi:esiteid" v="10904"/>
  </node>
  <node id="-2904" visible="true" lat="44.19243523" lon="-72.51572023">
    <tag k="addr:city" v="Barre City"/>
    <tag k="addr:housenumber" v="8"/>
    <tag k="addr:street" v="Fecteau Circle"/>
    <tag k="addr:state" v="VT"/>
    <tag k="ref:vcgi:esiteid" v="10906"/>
  </node>
  <node id="-2905" visible="true" lat="44.19398797" lon="-72.51561017">
    <tag k="addr:city" v="Barre City"/>
    <tag k="addr:housenumber" v="77"/>
    <tag k="addr:street" v="Country Way"/>
    <tag k="addr:state" v="VT"/>
    <tag k="ref:vcgi:esiteid" v="10907"/>
  </node>
  <node id="-2908" visible="true" lat="44.19481408" lon="-72.51582738">
    <tag k="addr:city" v="Barre City"/>
    <tag k="addr:housenumber" v="40"/>
    <tag k="addr:street" v="Country Way"/>
    <tag k="addr:state" v="VT"/>
    <tag k="ref:vcgi:esiteid" v="305448"/>
  </node>
  <node id="-2909" visible="true" lat="44.19392094" lon="-72.51671292">
    <tag k="addr:city" v="Barre City"/>
    <tag k="addr:housenumber" v="53"/>
    <tag k="addr:street" v="Country Way"/>
    <tag k="addr:state" v="VT"/>
    <tag k="ref:vcgi:esiteid" v="305675"/>
  </node>
  <node id="-2910" visible="true" lat="44.19237799" lon="-72.51626097">
    <tag k="addr:city" v="Barre City"/>
    <tag k="addr:housenumber" v="9"/>
    <tag k="addr:street" v="Fecteau Circle"/>
    <tag k="addr:state" v="VT"/>
    <tag k="ref:vcgi:esiteid" v="305764"/>
  </node>
  <node id="-2911" visible="true" lat="44.19439822" lon="-72.51547095">
    <tag k="addr:city" v="Barre City"/>
    <tag k="addr:housenumber" v="62"/>
    <tag k="addr:street" v="Country Way"/>
    <tag k="addr:state" v="VT"/>
    <tag k="ref:vcgi:esiteid" v="307051"/>
  </node>
  <node id="-2912" visible="true" lat="44.19359049" lon="-72.5163238">
    <tag k="addr:city" v="Barre City"/>
    <tag k="addr:housenumber" v="105"/>
    <tag k="addr:street" v="Country Way"/>
    <tag k="addr:state" v="VT"/>
    <tag k="ref:vcgi:esiteid" v="307122"/>
  </node>
  <node id="-2913" visible="true" lat="44.19341265" lon="-72.51683045">
    <tag k="addr:city" v="Barre City"/>
    <tag k="addr:housenumber" v="113"/>
    <tag k="addr:street" v="Country Way"/>
    <tag k="addr:state" v="VT"/>
    <tag k="ref:vcgi:esiteid" v="307123"/>
  </node>
  <node id="-2915" visible="true" lat="44.19895551" lon="-72.514491">
    <tag k="addr:city" v="Barre City"/>
    <tag k="addr:housenumber" v="17"/>
    <tag k="addr:street" v="Kynoch Avenue"/>
    <tag k="addr:state" v="VT"/>
    <tag k="ref:vcgi:esiteid" v="307201"/>
  </node>
  <node id="-2919" visible="true" lat="44.19212119" lon="-72.51588074">
    <tag k="addr:city" v="Barre City"/>
    <tag k="addr:housenumber" v="14"/>
    <tag k="addr:street" v="Fecteau Circle"/>
    <tag k="addr:state" v="VT"/>
    <tag k="ref:vcgi:esiteid" v="311711"/>
  </node>
  <node id="-2925" visible="true" lat="44.19300261" lon="-72.5170663">
    <tag k="addr:city" v="Barre City"/>
    <tag k="addr:housenumber" v="114"/>
    <tag k="addr:street" v="Country Way"/>
    <tag k="addr:state" v="VT"/>
    <tag k="ref:vcgi:esiteid" v="316806"/>
  </node>
  <node id="-2931" visible="true" lat="44.21345827" lon="-72.52130637">
    <tag k="addr:city" v="Barre City"/>
    <tag k="addr:housenumber" v="9"/>
    <tag k="addr:street" v="Ford Street"/>
    <tag k="addr:state" v="VT"/>
    <tag k="ref:vcgi:esiteid" v="317814"/>
  </node>
  <node id="-2942" visible="true" lat="44.19105779" lon="-72.49286305">
    <tag k="addr:city" v="Barre City"/>
    <tag k="addr:housenumber" v="79"/>
    <tag k="addr:street" v="Orange Street"/>
    <tag k="addr:state" v="VT"/>
    <tag k="ref:vcgi:esiteid" v="317837"/>
  </node>
  <node id="-2943" visible="true" lat="44.1901972" lon="-72.49118783">
    <tag k="addr:city" v="Barre City"/>
    <tag k="addr:housenumber" v="123"/>
    <tag k="addr:street" v="Orange Street"/>
    <tag k="addr:state" v="VT"/>
    <tag k="ref:vcgi:esiteid" v="317840"/>
  </node>
  <node id="-2944" visible="true" lat="44.2120819" lon="-72.51906128">
    <tag k="addr:city" v="Barre City"/>
    <tag k="addr:housenumber" v="8"/>
    <tag k="addr:street" v="Richardson Road"/>
    <tag k="addr:state" v="VT"/>
    <tag k="ref:vcgi:esiteid" v="317845"/>
  </node>
  <node id="-2945" visible="true" lat="44.2122519" lon="-72.51900906">
    <tag k="addr:city" v="Barre City"/>
    <tag k="addr:housenumber" v="10"/>
    <tag k="addr:street" v="Richardson Road"/>
    <tag k="addr:state" v="VT"/>
    <tag k="ref:vcgi:esiteid" v="317846"/>
  </node>
  <node id="-2947" visible="true" lat="44.20939368" lon="-72.5159464">
    <tag k="addr:city" v="Barre City"/>
    <tag k="addr:housenumber" v="3"/>
    <tag k="addr:street" v="Zan Street"/>
    <tag k="addr:state" v="VT"/>
    <tag k="ref:vcgi:esiteid" v="317864"/>
  </node>
  <node id="-2948" visible="true" lat="44.20918537" lon="-72.5167981">
    <tag k="addr:city" v="Barre City"/>
    <tag k="addr:housenumber" v="18"/>
    <tag k="addr:street" v="Willey Street"/>
    <tag k="addr:state" v="VT"/>
    <tag k="ref:vcgi:esiteid" v="317866"/>
  </node>
  <node id="-2949" visible="true" lat="44.20915805" lon="-72.51728859">
    <tag k="addr:city" v="Barre City"/>
    <tag k="addr:housenumber" v="26"/>
    <tag k="addr:street" v="Willey Street"/>
    <tag k="addr:state" v="VT"/>
    <tag k="ref:vcgi:esiteid" v="317867"/>
  </node>
  <node id="-2950" visible="true" lat="44.20913034" lon="-72.5175743">
    <tag k="addr:city" v="Barre City"/>
    <tag k="addr:housenumber" v="30"/>
    <tag k="addr:street" v="Willey Street"/>
    <tag k="addr:state" v="VT"/>
    <tag k="ref:vcgi:esiteid" v="317868"/>
  </node>
  <node id="-2952" visible="true" lat="44.20260418" lon="-72.48937797">
    <tag k="addr:city" v="Barre City"/>
    <tag k="addr:housenumber" v="44"/>
    <tag k="addr:street" v="Cassie Street"/>
    <tag k="addr:state" v="VT"/>
    <tag k="ref:vcgi:esiteid" v="319074"/>
  </node>
  <node id="-2954" visible="true" lat="44.19449792" lon="-72.51592636">
    <tag k="addr:city" v="Barre City"/>
    <tag k="addr:housenumber" v="58"/>
    <tag k="addr:street" v="Country Way"/>
    <tag k="addr:state" v="VT"/>
    <tag k="ref:vcgi:esiteid" v="326553"/>
  </node>
  <node id="-2957" visible="true" lat="44.19503956" lon="-72.48505115">
    <tag k="addr:city" v="Barre City"/>
    <tag k="addr:housenumber" v="37"/>
    <tag k="addr:street" v="Woodland Drive"/>
    <tag k="addr:state" v="VT"/>
    <tag k="ref:vcgi:esiteid" v="328268"/>
  </node>
  <node id="-2959" visible="true" lat="44.21239051" lon="-72.51771289">
    <tag k="addr:city" v="Barre City"/>
    <tag k="addr:housenumber" v="6"/>
    <tag k="addr:street" v="Jorgensen Lane"/>
    <tag k="addr:state" v="VT"/>
    <tag k="ref:vcgi:esiteid" v="329255"/>
  </node>
  <node id="-2961" visible="true" lat="44.2039703" lon="-72.48980528">
    <tag k="addr:city" v="Barre City"/>
    <tag k="addr:housenumber" v="62"/>
    <tag k="addr:street" v="Cassie Street"/>
    <tag k="addr:state" v="VT"/>
    <tag k="ref:vcgi:esiteid" v="329705"/>
  </node>
  <node id="-2962" visible="true" lat="44.21221597" lon="-72.51707823">
    <tag k="addr:city" v="Barre City"/>
    <tag k="addr:housenumber" v="14"/>
    <tag k="addr:street" v="Jorgensen Lane"/>
    <tag k="addr:state" v="VT"/>
    <tag k="ref:vcgi:esiteid" v="331312"/>
  </node>
  <node id="-2963" visible="true" lat="44.19659598" lon="-72.5158407">
    <tag k="addr:city" v="Barre City"/>
    <tag k="addr:housenumber" v="11"/>
    <tag k="addr:street" v="Country Way"/>
    <tag k="addr:state" v="VT"/>
    <tag k="ref:vcgi:esiteid" v="335623"/>
  </node>
  <node id="-2966" visible="true" lat="44.1981866" lon="-72.52134355">
    <tag k="addr:city" v="Barre City"/>
    <tag k="addr:housenumber" v="41"/>
    <tag k="addr:street" v="Bailey Street"/>
    <tag k="addr:state" v="VT"/>
    <tag k="ref:vcgi:esiteid" v="335626"/>
  </node>
  <node id="-2967" visible="true" lat="44.21250128" lon="-72.51807204">
    <tag k="addr:city" v="Barre City"/>
    <tag k="addr:housenumber" v="2"/>
    <tag k="addr:street" v="Jorgensen Lane"/>
    <tag k="addr:state" v="VT"/>
    <tag k="ref:vcgi:esiteid" v="335627"/>
  </node>
  <node id="-2969" visible="true" lat="44.21206365" lon="-72.51792767">
    <tag k="addr:city" v="Barre City"/>
    <tag k="addr:housenumber" v="5"/>
    <tag k="addr:street" v="Jorgensen Lane"/>
    <tag k="addr:state" v="VT"/>
    <tag k="ref:vcgi:esiteid" v="338391"/>
  </node>
  <node id="-2970" visible="true" lat="44.21197887" lon="-72.51754095">
    <tag k="addr:city" v="Barre City"/>
    <tag k="addr:housenumber" v="9"/>
    <tag k="addr:street" v="Jorgensen Lane"/>
    <tag k="addr:state" v="VT"/>
    <tag k="ref:vcgi:esiteid" v="338392"/>
  </node>
  <node id="-2971" visible="true" lat="44.21184331" lon="-72.5171686">
    <tag k="addr:city" v="Barre City"/>
    <tag k="addr:housenumber" v="13"/>
    <tag k="addr:street" v="Jorgensen Lane"/>
    <tag k="addr:state" v="VT"/>
    <tag k="ref:vcgi:esiteid" v="338393"/>
  </node>
  <node id="-2973" visible="true" lat="44.19288338" lon="-72.51652529">
    <tag k="addr:city" v="Barre City"/>
    <tag k="addr:housenumber" v="104"/>
    <tag k="addr:street" v="Country Way"/>
    <tag k="addr:state" v="VT"/>
    <tag k="ref:vcgi:esiteid" v="339012"/>
  </node>
  <node id="-2974" visible="true" lat="44.19419223" lon="-72.5166202">
    <tag k="addr:city" v="Barre City"/>
    <tag k="addr:housenumber" v="49"/>
    <tag k="addr:street" v="Country Way"/>
    <tag k="addr:state" v="VT"/>
    <tag k="ref:vcgi:esiteid" v="339013"/>
  </node>
  <node id="-2975" visible="true" lat="44.19787585" lon="-72.51568785">
    <tag k="addr:city" v="Barre City"/>
    <tag k="addr:housenumber" v="158"/>
    <tag k="addr:street" v="Berlin Street"/>
    <tag k="addr:state" v="VT"/>
    <tag k="ref:vcgi:esiteid" v="339014"/>
  </node>
  <node id="-2979" visible="true" lat="44.21232318" lon="-72.51744234">
    <tag k="addr:city" v="Barre City"/>
    <tag k="addr:housenumber" v="10"/>
    <tag k="addr:street" v="Jorgensen Lane"/>
    <tag k="addr:state" v="VT"/>
    <tag k="ref:vcgi:esiteid" v="339977"/>
  </node>
  <node id="-2980" visible="true" lat="44.19617765" lon="-72.51301521">
    <tag k="addr:city" v="Barre City"/>
    <tag k="addr:housenumber" v="14"/>
    <tag k="addr:street" v="Jacques Street"/>
    <tag k="addr:state" v="VT"/>
    <tag k="ref:vcgi:esiteid" v="339978"/>
  </node>
  <node id="-2982" visible="true" lat="44.19969573" lon="-72.51305464">
    <tag k="addr:city" v="Barre City"/>
    <tag k="addr:housenumber" v="22"/>
    <tag k="addr:street" v="Thomas Street"/>
    <tag k="addr:state" v="VT"/>
    <tag k="ref:vcgi:esiteid" v="340236"/>
  </node>
  <node id="-2986" visible="true" lat="44.19363907" lon="-72.5167363">
    <tag k="addr:city" v="Barre City"/>
    <tag k="addr:housenumber" v="109"/>
    <tag k="addr:street" v="Country Way"/>
    <tag k="addr:state" v="VT"/>
    <tag k="ref:vcgi:esiteid" v="340240"/>
  </node>
  <node id="-2989" visible="true" lat="44.19753019" lon="-72.49689984">
    <tag k="addr:city" v="Barre City"/>
    <tag k="addr:housenumber" v="16"/>
    <tag k="addr:street" v="East Street"/>
    <tag k="addr:state" v="VT"/>
    <tag k="ref:vcgi:esiteid" v="340243"/>
  </node>
  <node id="-2990" visible="true" lat="44.1996551" lon="-72.49653077">
    <tag k="addr:city" v="Barre City"/>
    <tag k="addr:housenumber" v="100"/>
    <tag k="addr:street" v="Tremont Street"/>
    <tag k="addr:state" v="VT"/>
    <tag k="ref:vcgi:esiteid" v="340244"/>
  </node>
  <node id="-2991" visible="true" lat="44.2119686" lon="-72.51604424">
    <tag k="addr:city" v="Barre City"/>
    <tag k="addr:housenumber" v="22"/>
    <tag k="addr:street" v="Jorgensen Lane"/>
    <tag k="addr:state" v="VT"/>
    <tag k="ref:vcgi:esiteid" v="340245"/>
  </node>
  <node id="-2992" visible="true" lat="44.21207044" lon="-72.51636486">
    <tag k="addr:city" v="Barre City"/>
    <tag k="addr:housenumber" v="18"/>
    <tag k="addr:street" v="Jorgensen Lane"/>
    <tag k="addr:state" v="VT"/>
    <tag k="ref:vcgi:esiteid" v="340615"/>
  </node>
  <node id="-2993" visible="true" lat="44.21171268" lon="-72.51660621">
    <tag k="addr:city" v="Barre City"/>
    <tag k="addr:housenumber" v="17"/>
    <tag k="addr:street" v="Jorgensen Lane"/>
    <tag k="addr:state" v="VT"/>
    <tag k="ref:vcgi:esiteid" v="340839"/>
  </node>
  <node id="-3012" visible="true" lat="44.21102102" lon="-72.50431945">
    <tag k="addr:city" v="Barre City"/>
    <tag k="addr:housenumber" v="132"/>
    <tag k="addr:street" v="Elmwood Avenue Extension"/>
    <tag k="addr:state" v="VT"/>
    <tag k="ref:vcgi:esiteid" v="344506"/>
  </node>
  <node id="-3018" visible="true" lat="44.19655516" lon="-72.51286957">
    <tag k="addr:city" v="Barre City"/>
    <tag k="addr:housenumber" v="6"/>
    <tag k="addr:street" v="Jacques Street"/>
    <tag k="addr:state" v="VT"/>
    <tag k="ref:vcgi:esiteid" v="345771"/>
  </node>
  <node id="-3022" visible="true" lat="44.21217496" lon="-72.51829069">
    <tag k="addr:city" v="Barre City"/>
    <tag k="addr:housenumber" v="1"/>
    <tag k="addr:street" v="Jorgensen Lane"/>
    <tag k="addr:state" v="VT"/>
    <tag k="ref:vcgi:esiteid" v="446490"/>
  </node>
  <node id="-3036" visible="true" lat="44.21166521" lon="-72.51618822">
    <tag k="addr:city" v="Barre City"/>
    <tag k="addr:housenumber" v="21"/>
    <tag k="addr:street" v="Jorgensen Lane"/>
    <tag k="addr:state" v="VT"/>
    <tag k="ref:vcgi:esiteid" v="454420"/>
  </node>
  <node id="-3049" visible="true" lat="44.19281828" lon="-72.51616712">
    <tag k="addr:city" v="Barre City"/>
    <tag k="addr:housenumber" v="100"/>
    <tag k="addr:street" v="Country Way"/>
    <tag k="addr:state" v="VT"/>
    <tag k="ref:vcgi:esiteid" v="611747"/>
  </node>
  <node id="-3050" visible="true" lat="44.19636685" lon="-72.51291787">
    <tag k="addr:city" v="Barre City"/>
    <tag k="addr:housenumber" v="10"/>
    <tag k="addr:street" v="Jacques Street"/>
    <tag k="addr:state" v="VT"/>
    <tag k="ref:vcgi:esiteid" v="611749"/>
  </node>
  <node id="-3053" visible="true" lat="44.19162138" lon="-72.51672547">
    <tag k="addr:city" v="Barre City"/>
    <tag k="addr:housenumber" v="24"/>
    <tag k="addr:street" v="Fecteau Circle"/>
    <tag k="addr:state" v="VT"/>
    <tag k="ref:vcgi:esiteid" v="617713"/>
  </node>
</osm>
