<?xml version="1.0" encoding="UTF-8"?>
<osm version="0.6" generator="JOSM">
  <node id="-142" visible="true" lat="44.2315391" lon="-72.47771305">
    <!-- multiple: "109 Mitchell Road, Barre Town, VT" Multiple exact matches in OSM. -->
    <tag k="addr:city" v="Barre Town"/>
    <tag k="addr:housenumber" v="109"/>
    <tag k="addr:street" v="Mitchell Road"/>
    <tag k="addr:state" v="VT"/>
    <tag k="ref:vcgi:esiteid" v="10948"/>
  </node>
  <node id="-178" visible="true" lat="44.22884928" lon="-72.49925704">
    <!-- multiple: "336 Farwell Street, Barre Town, VT" Multiple exact matches in OSM. -->
    <tag k="addr:city" v="Barre Town"/>
    <tag k="addr:housenumber" v="336"/>
    <tag k="addr:street" v="Farwell Street"/>
    <tag k="addr:state" v="VT"/>
    <tag k="ref:vcgi:esiteid" v="10984"/>
  </node>
  <node id="-394" visible="true" lat="44.21763497" lon="-72.45798193">
    <!-- multiple: "159 Sunset Road, Barre Town, VT" Multiple exact matches in OSM. -->
    <tag k="addr:city" v="Barre Town"/>
    <tag k="addr:housenumber" v="159"/>
    <tag k="addr:street" v="Sunset Road"/>
    <tag k="addr:state" v="VT"/>
    <tag k="ref:vcgi:esiteid" v="11202"/>
  </node>
  <node id="-409" visible="true" lat="44.21742101" lon="-72.45727734">
    <!-- multiple: "159 Sunset Road, Barre Town, VT" Multiple exact matches in OSM. -->
    <tag k="addr:city" v="Barre Town"/>
    <tag k="addr:housenumber" v="159"/>
    <tag k="addr:street" v="Sunset Road"/>
    <tag k="addr:state" v="VT"/>
    <tag k="ref:vcgi:esiteid" v="11218"/>
  </node>
  <node id="-505" visible="true" lat="44.21559325" lon="-72.49534767">
    <!-- multiple: "278 East Montpelier Road, Barre Town, VT" Multiple exact matches in OSM. -->
    <tag k="addr:city" v="Barre Town"/>
    <tag k="addr:housenumber" v="278"/>
    <tag k="addr:street" v="East Montpelier Road"/>
    <tag k="addr:state" v="VT"/>
    <tag k="ref:vcgi:esiteid" v="11314"/>
  </node>
  <node id="-1368" visible="true" lat="44.1821832" lon="-72.49356594">
    <!-- multiple: "114 Quarry Hill Road, Barre Town, VT" Multiple exact matches in OSM. -->
    <tag k="addr:city" v="Barre Town"/>
    <tag k="addr:housenumber" v="114"/>
    <tag k="addr:street" v="Quarry Hill Road"/>
    <tag k="addr:state" v="VT"/>
    <tag k="ref:vcgi:esiteid" v="12204"/>
  </node>
  <node id="-1370" visible="true" lat="44.18189621" lon="-72.49389648">
    <!-- multiple: "114 Quarry Hill Road, Barre Town, VT" Multiple exact matches in OSM. -->
    <tag k="addr:city" v="Barre Town"/>
    <tag k="addr:housenumber" v="114"/>
    <tag k="addr:street" v="Quarry Hill Road"/>
    <tag k="addr:state" v="VT"/>
    <tag k="ref:vcgi:esiteid" v="12206"/>
  </node>
  <node id="-1418" visible="true" lat="44.17889404" lon="-72.49512481">
    <!-- multiple: "170 Quarry Hill Road, Barre Town, VT" Multiple exact matches in OSM. -->
    <tag k="addr:city" v="Barre Town"/>
    <tag k="addr:housenumber" v="170"/>
    <tag k="addr:street" v="Quarry Hill Road"/>
    <tag k="addr:state" v="VT"/>
    <tag k="ref:vcgi:esiteid" v="12260"/>
  </node>
  <node id="-1420" visible="true" lat="44.17868782" lon="-72.49528013">
    <!-- multiple: "170 Quarry Hill Road, Barre Town, VT" Multiple exact matches in OSM. -->
    <tag k="addr:city" v="Barre Town"/>
    <tag k="addr:housenumber" v="170"/>
    <tag k="addr:street" v="Quarry Hill Road"/>
    <tag k="addr:state" v="VT"/>
    <tag k="ref:vcgi:esiteid" v="12262"/>
  </node>
  <node id="-1635" visible="true" lat="44.17289352" lon="-72.4910736">
    <!-- multiple: "296 Quarry Hill Road, Barre Town, VT" Multiple exact matches in OSM. -->
    <tag k="addr:city" v="Barre Town"/>
    <tag k="addr:housenumber" v="296"/>
    <tag k="addr:street" v="Quarry Hill Road"/>
    <tag k="addr:state" v="VT"/>
    <tag k="ref:vcgi:esiteid" v="12496"/>
  </node>
  <node id="-2080" visible="true" lat="44.16145837" lon="-72.44944412">
    <!-- multiple: "973 East Barre Road, Barre Town, VT" Multiple exact matches in OSM. -->
    <tag k="addr:city" v="Barre Town"/>
    <tag k="addr:housenumber" v="973"/>
    <tag k="addr:street" v="East Barre Road"/>
    <tag k="addr:state" v="VT"/>
    <tag k="ref:vcgi:esiteid" v="12978"/>
  </node>
  <node id="-2327" visible="true" lat="44.15808829" lon="-72.45386328">
    <!-- multiple: "170 Mill Street, Barre Town, VT" Multiple exact matches in OSM. -->
    <tag k="addr:city" v="Barre Town"/>
    <tag k="addr:housenumber" v="170"/>
    <tag k="addr:street" v="Mill Street"/>
    <tag k="addr:state" v="VT"/>
    <tag k="ref:vcgi:esiteid" v="13251"/>
  </node>
  <node id="-2329" visible="true" lat="44.15805476" lon="-72.45430803">
    <!-- multiple: "170 Mill Street, Barre Town, VT" Multiple exact matches in OSM. -->
    <tag k="addr:city" v="Barre Town"/>
    <tag k="addr:housenumber" v="170"/>
    <tag k="addr:street" v="Mill Street"/>
    <tag k="addr:state" v="VT"/>
    <tag k="ref:vcgi:esiteid" v="13253"/>
  </node>
  <node id="-2350" visible="true" lat="44.15773446" lon="-72.45394938">
    <!-- multiple: "170 Mill Street, Barre Town, VT" Multiple exact matches in OSM. -->
    <tag k="addr:city" v="Barre Town"/>
    <tag k="addr:housenumber" v="170"/>
    <tag k="addr:street" v="Mill Street"/>
    <tag k="addr:state" v="VT"/>
    <tag k="ref:vcgi:esiteid" v="13275"/>
  </node>
  <node id="-2404" visible="true" lat="44.1568676" lon="-72.45437946">
    <!-- multiple: "180 Mill Street, Barre Town, VT" Multiple exact matches in OSM. -->
    <tag k="addr:city" v="Barre Town"/>
    <tag k="addr:housenumber" v="180"/>
    <tag k="addr:street" v="Mill Street"/>
    <tag k="addr:state" v="VT"/>
    <tag k="ref:vcgi:esiteid" v="13333"/>
  </node>
  <node id="-2647" visible="true" lat="44.15124511" lon="-72.48641967">
    <!-- multiple: "19 McLeod Hill Road, Barre Town, VT" Multiple exact matches in OSM. -->
    <tag k="addr:city" v="Barre Town"/>
    <tag k="addr:housenumber" v="19"/>
    <tag k="addr:street" v="McLeod Hill Road"/>
    <tag k="addr:state" v="VT"/>
    <tag k="ref:vcgi:esiteid" v="13600"/>
  </node>
  <node id="-2651" visible="true" lat="44.15117645" lon="-72.4859848">
    <!-- multiple: "19 McLeod Hill Road, Barre Town, VT" Multiple exact matches in OSM. -->
    <tag k="addr:city" v="Barre Town"/>
    <tag k="addr:housenumber" v="19"/>
    <tag k="addr:street" v="McLeod Hill Road"/>
    <tag k="addr:state" v="VT"/>
    <tag k="ref:vcgi:esiteid" v="13604"/>
  </node>
  <node id="-2764" visible="true" lat="44.14612627" lon="-72.45439896">
    <!-- multiple: "275 Lowery Road, Barre Town, VT" Multiple exact matches in OSM. -->
    <tag k="addr:city" v="Barre Town"/>
    <tag k="addr:housenumber" v="275"/>
    <tag k="addr:street" v="Lowery Road"/>
    <tag k="addr:state" v="VT"/>
    <tag k="ref:vcgi:esiteid" v="13725"/>
  </node>
  <node id="-2765" visible="true" lat="44.14588388" lon="-72.45471052">
    <!-- multiple: "275 Lowery Road, Barre Town, VT" Multiple exact matches in OSM. -->
    <tag k="addr:city" v="Barre Town"/>
    <tag k="addr:housenumber" v="275"/>
    <tag k="addr:street" v="Lowery Road"/>
    <tag k="addr:state" v="VT"/>
    <tag k="ref:vcgi:esiteid" v="13726"/>
  </node>
  <node id="-2912" visible="true" lat="44.15668246" lon="-72.45472588">
    <!-- multiple: "180 Mill Street, Barre Town, VT" Multiple exact matches in OSM. -->
    <tag k="addr:city" v="Barre Town"/>
    <tag k="addr:housenumber" v="180"/>
    <tag k="addr:street" v="Mill Street"/>
    <tag k="addr:state" v="VT"/>
    <tag k="ref:vcgi:esiteid" v="13881"/>
  </node>
  <node id="-2913" visible="true" lat="44.15662076" lon="-72.45451195">
    <!-- multiple: "180 Mill Street, Barre Town, VT" Multiple exact matches in OSM. -->
    <tag k="addr:city" v="Barre Town"/>
    <tag k="addr:housenumber" v="180"/>
    <tag k="addr:street" v="Mill Street"/>
    <tag k="addr:state" v="VT"/>
    <tag k="ref:vcgi:esiteid" v="13882"/>
  </node>
  <node id="-2914" visible="true" lat="44.15650993" lon="-72.45472601">
    <!-- multiple: "180 Mill Street, Barre Town, VT" Multiple exact matches in OSM. -->
    <tag k="addr:city" v="Barre Town"/>
    <tag k="addr:housenumber" v="180"/>
    <tag k="addr:street" v="Mill Street"/>
    <tag k="addr:state" v="VT"/>
    <tag k="ref:vcgi:esiteid" v="13883"/>
  </node>
  <node id="-2915" visible="true" lat="44.15649136" lon="-72.45450349">
    <!-- multiple: "180 Mill Street, Barre Town, VT" Multiple exact matches in OSM. -->
    <tag k="addr:city" v="Barre Town"/>
    <tag k="addr:housenumber" v="180"/>
    <tag k="addr:street" v="Mill Street"/>
    <tag k="addr:state" v="VT"/>
    <tag k="ref:vcgi:esiteid" v="13884"/>
  </node>
  <node id="-2916" visible="true" lat="44.15637439" lon="-72.45476891">
    <!-- multiple: "180 Mill Street, Barre Town, VT" Multiple exact matches in OSM. -->
    <tag k="addr:city" v="Barre Town"/>
    <tag k="addr:housenumber" v="180"/>
    <tag k="addr:street" v="Mill Street"/>
    <tag k="addr:state" v="VT"/>
    <tag k="ref:vcgi:esiteid" v="13885"/>
  </node>
  <node id="-2917" visible="true" lat="44.15624502" lon="-72.45486316">
    <!-- multiple: "180 Mill Street, Barre Town, VT" Multiple exact matches in OSM. -->
    <tag k="addr:city" v="Barre Town"/>
    <tag k="addr:housenumber" v="180"/>
    <tag k="addr:street" v="Mill Street"/>
    <tag k="addr:state" v="VT"/>
    <tag k="ref:vcgi:esiteid" v="13886"/>
  </node>
</osm>
