<?xml version="1.0" encoding="UTF-8"?>
<osm version="0.6" generator="JOSM">
  <node id="-550" visible="true" lat="44.74904421" lon="-72.17810198">
    <!-- multiple: "25 School Street, , VT" Multiple exact matches in OSM. -->
    <tag k="addr:housenumber" v="25"/>
    <tag k="addr:street" v="School Street"/>
    <tag k="addr:state" v="VT"/>
    <tag k="ref:vcgi:esiteid" v="15000"/>
  </node>
  <node id="-554" visible="true" lat="44.74882244" lon="-72.17973713">
    <!-- multiple: "137 Church Street, , VT" Multiple exact matches in OSM. -->
    <tag k="addr:housenumber" v="137"/>
    <tag k="addr:street" v="Church Street"/>
    <tag k="addr:state" v="VT"/>
    <tag k="ref:vcgi:esiteid" v="15005"/>
  </node>
  <node id="-592" visible="true" lat="44.74839751" lon="-72.1774522">
    <!-- multiple: "76 Water Street, , VT" Multiple exact matches in OSM. -->
    <tag k="addr:housenumber" v="76"/>
    <tag k="addr:street" v="Water Street"/>
    <tag k="addr:state" v="VT"/>
    <tag k="ref:vcgi:esiteid" v="15044"/>
  </node>
  <node id="-621" visible="true" lat="44.74764316" lon="-72.17459866">
    <!-- multiple: "54 Eastern Avenue, , VT" Multiple exact matches in OSM. -->
    <tag k="addr:housenumber" v="54"/>
    <tag k="addr:street" v="Eastern Avenue"/>
    <tag k="addr:state" v="VT"/>
    <tag k="ref:vcgi:esiteid" v="15077"/>
  </node>
  <node id="-1208" visible="true" lat="44.72125436" lon="-72.18416052">
    <!-- multiple: "1859 Glover Road, , VT" Multiple exact matches in OSM. -->
    <tag k="addr:housenumber" v="1859"/>
    <tag k="addr:street" v="Glover Road"/>
    <tag k="addr:state" v="VT"/>
    <tag k="ref:vcgi:esiteid" v="326223"/>
  </node>
</osm>
