<?xml version="1.0" encoding="UTF-8"?>
<osm version="0.6" generator="JOSM">
  <node id="-140" visible="true" lat="44.75845814" lon="-72.68551337">
    <tag k="addr:city" v="Belvidere"/>
    <tag k="addr:housenumber" v="3176"/>
    <tag k="addr:street" v="Vermont Route 109"/>
    <tag k="addr:state" v="VT"/>
    <tag k="ref:vcgi:esiteid" v="15802"/>
  </node>
  <node id="-142" visible="true" lat="44.7570608" lon="-72.65624234">
    <tag k="addr:city" v="Belvidere"/>
    <tag k="addr:housenumber" v="1799"/>
    <tag k="addr:street" v="Vermont Route 109"/>
    <tag k="addr:state" v="VT"/>
    <tag k="ref:vcgi:esiteid" v="15804"/>
  </node>
  <node id="-152" visible="true" lat="44.75254941" lon="-72.69245338">
    <tag k="addr:city" v="Belvidere"/>
    <tag k="addr:housenumber" v="204"/>
    <tag k="addr:street" v="Boarding House Hill Road"/>
    <tag k="addr:state" v="VT"/>
    <tag k="ref:vcgi:esiteid" v="15814"/>
  </node>
  <node id="-172" visible="true" lat="44.74972257" lon="-72.6925019">
    <tag k="addr:city" v="Belvidere"/>
    <tag k="addr:housenumber" v="4010"/>
    <tag k="addr:street" v="Vermont Route 109"/>
    <tag k="addr:state" v="VT"/>
    <tag k="ref:vcgi:esiteid" v="15834"/>
  </node>
  <node id="-235" visible="true" lat="44.77194977" lon="-72.67215737">
    <tag k="addr:city" v="Belvidere"/>
    <tag k="addr:housenumber" v="2036"/>
    <tag k="addr:street" v="Vermont Route 109"/>
    <tag k="addr:state" v="VT"/>
    <tag k="ref:vcgi:esiteid" v="15902"/>
  </node>
  <node id="-253" visible="true" lat="44.74167185" lon="-72.73997183">
    <tag k="addr:city" v="Belvidere"/>
    <tag k="addr:housenumber" v="2563"/>
    <tag k="addr:street" v="Back Road"/>
    <tag k="addr:state" v="VT"/>
    <tag k="ref:vcgi:esiteid" v="15922"/>
  </node>
  <node id="-269" visible="true" lat="44.73434423" lon="-72.74200243">
    <tag k="addr:city" v="Belvidere"/>
    <tag k="addr:housenumber" v="282"/>
    <tag k="addr:street" v="Fletchers Butternut Lane"/>
    <tag k="addr:state" v="VT"/>
    <tag k="ref:vcgi:esiteid" v="15939"/>
  </node>
  <node id="-312" visible="true" lat="44.74924228" lon="-72.69627998">
    <tag k="addr:city" v="Belvidere"/>
    <tag k="addr:housenumber" v="4178"/>
    <tag k="addr:street" v="Vermont Route 109"/>
    <tag k="addr:state" v="VT"/>
    <tag k="ref:vcgi:esiteid" v="343348"/>
  </node>
  <node id="-318" visible="true" lat="44.74899048" lon="-72.69496728">
    <tag k="addr:city" v="Belvidere"/>
    <tag k="addr:housenumber" v="4135"/>
    <tag k="addr:street" v="Vermont Route 109"/>
    <tag k="addr:state" v="VT"/>
    <tag k="ref:vcgi:esiteid" v="343487"/>
  </node>
  <node id="-333" visible="true" lat="44.74859576" lon="-72.70369803">
    <tag k="addr:city" v="Belvidere"/>
    <tag k="addr:housenumber" v="389"/>
    <tag k="addr:street" v="Back Road"/>
    <tag k="addr:state" v="VT"/>
    <tag k="ref:vcgi:esiteid" v="454981"/>
  </node>
  <node id="-336" visible="true" lat="44.74461771" lon="-72.71526765">
    <tag k="addr:city" v="Belvidere"/>
    <tag k="addr:housenumber" v="5197"/>
    <tag k="addr:street" v="Vermont Route 109"/>
    <tag k="addr:state" v="VT"/>
    <tag k="ref:vcgi:esiteid" v="617676"/>
  </node>
  <node id="-337" visible="true" lat="44.73693029" lon="-72.73950364">
    <tag k="addr:city" v="Belvidere"/>
    <tag k="addr:housenumber" v="63"/>
    <tag k="addr:street" v="Fletchers Butternut Lane"/>
    <tag k="addr:state" v="VT"/>
    <tag k="ref:vcgi:esiteid" v="618251"/>
  </node>
  <node id="-340" visible="true" lat="44.74693172" lon="-72.72506406">
    <tag k="addr:city" v="Belvidere"/>
    <tag k="addr:housenumber" v="1436"/>
    <tag k="addr:street" v="Back Road"/>
    <tag k="addr:state" v="VT"/>
    <tag k="ref:vcgi:esiteid" v="620231"/>
  </node>
  <node id="-342" visible="true" lat="44.74887419" lon="-72.71466713">
    <tag k="addr:city" v="Belvidere"/>
    <tag k="addr:housenumber" v="1050"/>
    <tag k="addr:street" v="Back Road"/>
    <tag k="addr:state" v="VT"/>
    <tag k="ref:vcgi:esiteid" v="752968"/>
  </node>
  <node id="-351" visible="true" lat="44.75447794" lon="-72.67496617">
    <tag k="addr:city" v="Belvidere"/>
    <tag k="addr:housenumber" v="665"/>
    <tag k="addr:street" v="Bog Road"/>
    <tag k="addr:state" v="VT"/>
    <tag k="ref:vcgi:esiteid" v="764014"/>
  </node>
  <node id="-353" visible="true" lat="44.73445574" lon="-72.73742747">
    <tag k="addr:city" v="Belvidere"/>
    <tag k="addr:housenumber" v="238"/>
    <tag k="addr:street" v="Laraway Mountain Road"/>
    <tag k="addr:state" v="VT"/>
    <tag k="ref:vcgi:esiteid" v="764435"/>
  </node>
</osm>
