<?xml version="1.0" encoding="UTF-8"?>
<osm version="0.6" generator="JOSM">
  <node id="-111" visible="true" lat="42.93264473" lon="-73.21036369">
    <tag k="addr:housenumber" v="2232"/>
    <tag k="addr:street" v="Harwood Hill Road"/>
    <tag k="addr:state" v="VT"/>
    <tag k="ref:vcgi:esiteid" v="15972"/>
  </node>
  <node id="-113" visible="true" lat="42.93247985" lon="-73.20957946">
    <tag k="addr:housenumber" v="24"/>
    <tag k="addr:street" v="Town Line Road"/>
    <tag k="addr:state" v="VT"/>
    <tag k="ref:vcgi:esiteid" v="15974"/>
  </node>
  <node id="-116" visible="true" lat="42.93202153" lon="-73.21055969">
    <tag k="addr:housenumber" v="2196"/>
    <tag k="addr:street" v="Harwood Hill Road"/>
    <tag k="addr:state" v="VT"/>
    <tag k="ref:vcgi:esiteid" v="15977"/>
  </node>
  <node id="-123" visible="true" lat="42.93139246" lon="-73.21080332">
    <tag k="addr:housenumber" v="2116"/>
    <tag k="addr:street" v="Harwood Hill Road"/>
    <tag k="addr:state" v="VT"/>
    <tag k="ref:vcgi:esiteid" v="15984"/>
  </node>
  <node id="-124" visible="true" lat="42.93154525" lon="-73.178833">
    <tag k="addr:housenumber" v="2972"/>
    <tag k="addr:street" v="Chapel Road"/>
    <tag k="addr:state" v="VT"/>
    <tag k="ref:vcgi:esiteid" v="15985"/>
  </node>
  <node id="-125" visible="true" lat="42.93160538" lon="-73.17711228">
    <tag k="addr:housenumber" v="2911"/>
    <tag k="addr:street" v="Chapel Road"/>
    <tag k="addr:state" v="VT"/>
    <tag k="ref:vcgi:esiteid" v="15986"/>
  </node>
  <node id="-127" visible="true" lat="42.93139266" lon="-73.17872619">
    <tag k="addr:housenumber" v="2924"/>
    <tag k="addr:street" v="Chapel Road"/>
    <tag k="addr:state" v="VT"/>
    <tag k="ref:vcgi:esiteid" v="15988"/>
  </node>
  <node id="-128" visible="true" lat="42.93087643" lon="-73.1789458">
    <tag k="addr:housenumber" v="2892"/>
    <tag k="addr:street" v="Chapel Road"/>
    <tag k="addr:state" v="VT"/>
    <tag k="ref:vcgi:esiteid" v="15989"/>
  </node>
  <node id="-129" visible="true" lat="42.93072966" lon="-73.1779304">
    <tag k="addr:housenumber" v="2899"/>
    <tag k="addr:street" v="Chapel Road"/>
    <tag k="addr:state" v="VT"/>
    <tag k="ref:vcgi:esiteid" v="15990"/>
  </node>
  <node id="-132" visible="true" lat="42.93049998" lon="-73.21028948">
    <tag k="addr:housenumber" v="2090"/>
    <tag k="addr:street" v="Harwood Hill Road"/>
    <tag k="addr:state" v="VT"/>
    <tag k="ref:vcgi:esiteid" v="15993"/>
  </node>
  <node id="-133" visible="true" lat="42.93042669" lon="-73.20931682">
    <tag k="addr:housenumber" v="2065"/>
    <tag k="addr:street" v="Harwood Hill Road"/>
    <tag k="addr:state" v="VT"/>
    <tag k="ref:vcgi:esiteid" v="15994"/>
  </node>
  <node id="-134" visible="true" lat="42.93030875" lon="-73.21003576">
    <tag k="addr:housenumber" v="2080"/>
    <tag k="addr:street" v="Harwood Hill Road"/>
    <tag k="addr:state" v="VT"/>
    <tag k="ref:vcgi:esiteid" v="15995"/>
  </node>
  <node id="-136" visible="true" lat="42.9304906" lon="-73.17889086">
    <tag k="addr:housenumber" v="2864"/>
    <tag k="addr:street" v="Chapel Road"/>
    <tag k="addr:state" v="VT"/>
    <tag k="ref:vcgi:esiteid" v="15997"/>
  </node>
  <node id="-138" visible="true" lat="42.93027233" lon="-73.21109784">
    <tag k="addr:housenumber" v="892"/>
    <tag k="addr:street" v="Overlea Road"/>
    <tag k="addr:state" v="VT"/>
    <tag k="ref:vcgi:esiteid" v="15999"/>
  </node>
  <node id="-139" visible="true" lat="42.93030004" lon="-73.17788683">
    <tag k="addr:housenumber" v="2865"/>
    <tag k="addr:street" v="Chapel Road"/>
    <tag k="addr:state" v="VT"/>
    <tag k="ref:vcgi:esiteid" v="16000"/>
  </node>
  <node id="-142" visible="true" lat="42.93003294" lon="-73.1789871">
    <tag k="addr:housenumber" v="2842"/>
    <tag k="addr:street" v="Chapel Road"/>
    <tag k="addr:state" v="VT"/>
    <tag k="ref:vcgi:esiteid" v="16003"/>
  </node>
  <node id="-143" visible="true" lat="42.9302369" lon="-73.17720288">
    <tag k="addr:housenumber" v="2867"/>
    <tag k="addr:street" v="Chapel Road"/>
    <tag k="addr:state" v="VT"/>
    <tag k="ref:vcgi:esiteid" v="16004"/>
  </node>
  <node id="-145" visible="true" lat="42.92991032" lon="-73.20995861">
    <tag k="addr:housenumber" v="2026"/>
    <tag k="addr:street" v="Harwood Hill Road"/>
    <tag k="addr:state" v="VT"/>
    <tag k="ref:vcgi:esiteid" v="16006"/>
  </node>
  <node id="-146" visible="true" lat="42.92983241" lon="-73.21052599">
    <tag k="addr:housenumber" v="911"/>
    <tag k="addr:street" v="Overlea Road"/>
    <tag k="addr:state" v="VT"/>
    <tag k="ref:vcgi:esiteid" v="16007"/>
  </node>
  <node id="-148" visible="true" lat="42.92965669" lon="-73.2110494">
    <tag k="addr:housenumber" v="889"/>
    <tag k="addr:street" v="Overlea Road"/>
    <tag k="addr:state" v="VT"/>
    <tag k="ref:vcgi:esiteid" v="16009"/>
  </node>
  <node id="-152" visible="true" lat="42.9295279" lon="-73.21012038">
    <tag k="addr:housenumber" v="925"/>
    <tag k="addr:street" v="Overlea Road"/>
    <tag k="addr:state" v="VT"/>
    <tag k="ref:vcgi:esiteid" v="16013"/>
  </node>
  <node id="-156" visible="true" lat="42.92926917" lon="-73.20951405">
    <tag k="addr:housenumber" v="2006"/>
    <tag k="addr:street" v="Harwood Hill Road"/>
    <tag k="addr:state" v="VT"/>
    <tag k="ref:vcgi:esiteid" v="16018"/>
  </node>
  <node id="-160" visible="true" lat="42.92904604" lon="-73.17836187">
    <tag k="addr:housenumber" v="2761"/>
    <tag k="addr:street" v="Chapel Road"/>
    <tag k="addr:state" v="VT"/>
    <tag k="ref:vcgi:esiteid" v="16023"/>
  </node>
  <node id="-167" visible="true" lat="42.92847389" lon="-73.20801608">
    <tag k="addr:housenumber" v="1921"/>
    <tag k="addr:street" v="Harwood Hill Road"/>
    <tag k="addr:state" v="VT"/>
    <tag k="ref:vcgi:esiteid" v="16030"/>
  </node>
  <node id="-171" visible="true" lat="42.92820991" lon="-73.20813215">
    <tag k="addr:housenumber" v="1905"/>
    <tag k="addr:street" v="Harwood Hill Road"/>
    <tag k="addr:state" v="VT"/>
    <tag k="ref:vcgi:esiteid" v="16035"/>
  </node>
  <node id="-174" visible="true" lat="42.92795496" lon="-73.20875887">
    <tag k="addr:housenumber" v="1896"/>
    <tag k="addr:street" v="Harwood Hill Road"/>
    <tag k="addr:state" v="VT"/>
    <tag k="ref:vcgi:esiteid" v="16038"/>
  </node>
  <node id="-185" visible="true" lat="42.9276128" lon="-73.20813589">
    <tag k="addr:housenumber" v="1869"/>
    <tag k="addr:street" v="Harwood Hill Road"/>
    <tag k="addr:state" v="VT"/>
    <tag k="ref:vcgi:esiteid" v="16050"/>
  </node>
  <node id="-187" visible="true" lat="42.9275411" lon="-73.20868987">
    <tag k="addr:housenumber" v="1868"/>
    <tag k="addr:street" v="Harwood Hill Road"/>
    <tag k="addr:state" v="VT"/>
    <tag k="ref:vcgi:esiteid" v="16052"/>
  </node>
  <node id="-200" visible="true" lat="42.92696262" lon="-73.20914672">
    <tag k="addr:housenumber" v="1822"/>
    <tag k="addr:street" v="Harwood Hill Road"/>
    <tag k="addr:state" v="VT"/>
    <tag k="ref:vcgi:esiteid" v="16066"/>
  </node>
  <node id="-211" visible="true" lat="42.92640784" lon="-73.20809317">
    <tag k="addr:housenumber" v="1803"/>
    <tag k="addr:street" v="Harwood Hill Road"/>
    <tag k="addr:state" v="VT"/>
    <tag k="ref:vcgi:esiteid" v="16080"/>
  </node>
  <node id="-226" visible="true" lat="42.9256398" lon="-73.20747736">
    <tag k="addr:housenumber" v="68"/>
    <tag k="addr:street" v="Beaudoin Lane"/>
    <tag k="addr:state" v="VT"/>
    <tag k="ref:vcgi:esiteid" v="16099"/>
  </node>
  <node id="-244" visible="true" lat="42.92464722" lon="-73.2071117">
    <tag k="addr:housenumber" v="113"/>
    <tag k="addr:street" v="Beaudoin Lane"/>
    <tag k="addr:state" v="VT"/>
    <tag k="ref:vcgi:esiteid" v="16118"/>
  </node>
  <node id="-247" visible="true" lat="42.92438911" lon="-73.20876391">
    <tag k="addr:housenumber" v="1667"/>
    <tag k="addr:street" v="Harwood Hill Road"/>
    <tag k="addr:state" v="VT"/>
    <tag k="ref:vcgi:esiteid" v="16122"/>
  </node>
  <node id="-265" visible="true" lat="42.92224277" lon="-73.17972224">
    <tag k="addr:housenumber" v="2296"/>
    <tag k="addr:street" v="Chapel Road"/>
    <tag k="addr:state" v="VT"/>
    <tag k="ref:vcgi:esiteid" v="16141"/>
  </node>
  <node id="-270" visible="true" lat="42.92188229" lon="-73.17963743">
    <tag k="addr:housenumber" v="2264"/>
    <tag k="addr:street" v="Chapel Road"/>
    <tag k="addr:state" v="VT"/>
    <tag k="ref:vcgi:esiteid" v="16147"/>
  </node>
  <node id="-276" visible="true" lat="42.92111696" lon="-73.17973257">
    <tag k="addr:housenumber" v="2204"/>
    <tag k="addr:street" v="Chapel Road"/>
    <tag k="addr:state" v="VT"/>
    <tag k="ref:vcgi:esiteid" v="16153"/>
  </node>
  <node id="-292" visible="true" lat="42.92019685" lon="-73.17977603">
    <tag k="addr:housenumber" v="350"/>
    <tag k="addr:street" v="Crossover Road"/>
    <tag k="addr:state" v="VT"/>
    <tag k="ref:vcgi:esiteid" v="16170"/>
  </node>
  <node id="-295" visible="true" lat="42.91996892" lon="-73.18497745">
    <tag k="addr:housenumber" v="70"/>
    <tag k="addr:street" v="Crossover Road"/>
    <tag k="addr:state" v="VT"/>
    <tag k="ref:vcgi:esiteid" v="16173"/>
  </node>
  <node id="-297" visible="true" lat="42.91991275" lon="-73.18387598">
    <tag k="addr:housenumber" v="136"/>
    <tag k="addr:street" v="Crossover Road"/>
    <tag k="addr:state" v="VT"/>
    <tag k="ref:vcgi:esiteid" v="16175"/>
  </node>
  <node id="-298" visible="true" lat="42.91987609" lon="-73.18592834">
    <tag k="addr:housenumber" v="26"/>
    <tag k="addr:street" v="Crossover Road"/>
    <tag k="addr:state" v="VT"/>
    <tag k="ref:vcgi:esiteid" v="16176"/>
  </node>
  <node id="-300" visible="true" lat="42.91992386" lon="-73.18103332">
    <tag k="addr:housenumber" v="278"/>
    <tag k="addr:street" v="Crossover Road"/>
    <tag k="addr:state" v="VT"/>
    <tag k="ref:vcgi:esiteid" v="16179"/>
  </node>
  <node id="-301" visible="true" lat="42.92005991" lon="-73.18147976">
    <tag k="addr:housenumber" v="268"/>
    <tag k="addr:street" v="Crossover Road"/>
    <tag k="addr:state" v="VT"/>
    <tag k="ref:vcgi:esiteid" v="16180"/>
  </node>
  <node id="-302" visible="true" lat="42.9197998" lon="-73.18441772">
    <tag k="addr:housenumber" v="100"/>
    <tag k="addr:street" v="Crossover Road"/>
    <tag k="addr:state" v="VT"/>
    <tag k="ref:vcgi:esiteid" v="16182"/>
  </node>
  <node id="-304" visible="true" lat="42.91988755" lon="-73.18471833">
    <tag k="addr:housenumber" v="84"/>
    <tag k="addr:street" v="Crossover Road"/>
    <tag k="addr:state" v="VT"/>
    <tag k="ref:vcgi:esiteid" v="16184"/>
  </node>
  <node id="-307" visible="true" lat="42.91977735" lon="-73.17932527">
    <tag k="addr:housenumber" v="2119"/>
    <tag k="addr:street" v="Chapel Road"/>
    <tag k="addr:state" v="VT"/>
    <tag k="ref:vcgi:esiteid" v="16187"/>
  </node>
  <node id="-308" visible="true" lat="42.91967432" lon="-73.17999224">
    <tag k="addr:housenumber" v="2116"/>
    <tag k="addr:street" v="Chapel Road"/>
    <tag k="addr:state" v="VT"/>
    <tag k="ref:vcgi:esiteid" v="16188"/>
  </node>
  <node id="-309" visible="true" lat="42.9196701" lon="-73.18184661">
    <tag k="addr:housenumber" v="240"/>
    <tag k="addr:street" v="Crossover Road"/>
    <tag k="addr:state" v="VT"/>
    <tag k="ref:vcgi:esiteid" v="16189"/>
  </node>
  <node id="-310" visible="true" lat="42.9195926" lon="-73.18027392">
    <tag k="addr:housenumber" v="313"/>
    <tag k="addr:street" v="Crossover Road"/>
    <tag k="addr:state" v="VT"/>
    <tag k="ref:vcgi:esiteid" v="16190"/>
  </node>
  <node id="-312" visible="true" lat="42.91989804" lon="-73.18357017">
    <tag k="addr:housenumber" v="142"/>
    <tag k="addr:street" v="Crossover Road"/>
    <tag k="addr:state" v="VT"/>
    <tag k="ref:vcgi:esiteid" v="16194"/>
  </node>
  <node id="-313" visible="true" lat="42.91963859" lon="-73.18277677">
    <tag k="addr:housenumber" v="186"/>
    <tag k="addr:street" v="Crossover Road"/>
    <tag k="addr:state" v="VT"/>
    <tag k="ref:vcgi:esiteid" v="16195"/>
  </node>
  <node id="-315" visible="true" lat="42.91956002" lon="-73.18067331">
    <tag k="addr:housenumber" v="287"/>
    <tag k="addr:street" v="Crossover Road"/>
    <tag k="addr:state" v="VT"/>
    <tag k="ref:vcgi:esiteid" v="16197"/>
  </node>
  <node id="-321" visible="true" lat="42.91935851" lon="-73.18514961">
    <tag k="addr:housenumber" v="63"/>
    <tag k="addr:street" v="Crossover Road"/>
    <tag k="addr:state" v="VT"/>
    <tag k="ref:vcgi:esiteid" v="16204"/>
  </node>
  <node id="-322" visible="true" lat="42.91930174" lon="-73.18417895">
    <tag k="addr:housenumber" v="113"/>
    <tag k="addr:street" v="Crossover Road"/>
    <tag k="addr:state" v="VT"/>
    <tag k="ref:vcgi:esiteid" v="16205"/>
  </node>
  <node id="-326" visible="true" lat="42.91927379" lon="-73.18309651">
    <tag k="addr:housenumber" v="169"/>
    <tag k="addr:street" v="Crossover Road"/>
    <tag k="addr:state" v="VT"/>
    <tag k="ref:vcgi:esiteid" v="16209"/>
  </node>
  <node id="-328" visible="true" lat="42.91914651" lon="-73.18210066">
    <tag k="addr:housenumber" v="221"/>
    <tag k="addr:street" v="Crossover Road"/>
    <tag k="addr:state" v="VT"/>
    <tag k="ref:vcgi:esiteid" v="16213"/>
  </node>
  <node id="-333" visible="true" lat="42.91904124" lon="-73.18155242">
    <tag k="addr:housenumber" v="32"/>
    <tag k="addr:street" v="Harmony Lane"/>
    <tag k="addr:state" v="VT"/>
    <tag k="ref:vcgi:esiteid" v="16218"/>
  </node>
  <node id="-336" visible="true" lat="42.91889939" lon="-73.18010975">
    <tag k="addr:housenumber" v="2070"/>
    <tag k="addr:street" v="Chapel Road"/>
    <tag k="addr:state" v="VT"/>
    <tag k="ref:vcgi:esiteid" v="16221"/>
  </node>
  <node id="-341" visible="true" lat="42.91880035" lon="-73.18312072">
    <tag k="addr:housenumber" v="193"/>
    <tag k="addr:street" v="Crossover Road"/>
    <tag k="addr:state" v="VT"/>
    <tag k="ref:vcgi:esiteid" v="16226"/>
  </node>
  <node id="-346" visible="true" lat="42.91878952" lon="-73.18135822">
    <tag k="addr:housenumber" v="58"/>
    <tag k="addr:street" v="Harmony Lane"/>
    <tag k="addr:state" v="VT"/>
    <tag k="ref:vcgi:esiteid" v="16232"/>
  </node>
  <node id="-348" visible="true" lat="42.9186076" lon="-73.18323772">
    <tag k="addr:housenumber" v="195"/>
    <tag k="addr:street" v="Crossover Road"/>
    <tag k="addr:state" v="VT"/>
    <tag k="ref:vcgi:esiteid" v="16234"/>
  </node>
  <node id="-349" visible="true" lat="42.91851517" lon="-73.18007357">
    <tag k="addr:housenumber" v="2046"/>
    <tag k="addr:street" v="Chapel Road"/>
    <tag k="addr:state" v="VT"/>
    <tag k="ref:vcgi:esiteid" v="16235"/>
  </node>
  <node id="-359" visible="true" lat="42.91847212" lon="-73.18201646">
    <tag k="addr:housenumber" v="73"/>
    <tag k="addr:street" v="Harmony Lane"/>
    <tag k="addr:state" v="VT"/>
    <tag k="ref:vcgi:esiteid" v="16247"/>
  </node>
  <node id="-395" visible="true" lat="42.91730117" lon="-73.21014404">
    <tag k="addr:housenumber" v="79"/>
    <tag k="addr:street" v="Skytop Drive"/>
    <tag k="addr:state" v="VT"/>
    <tag k="ref:vcgi:esiteid" v="16288"/>
  </node>
  <node id="-400" visible="true" lat="42.9171849" lon="-73.21009263">
    <tag k="addr:housenumber" v="73"/>
    <tag k="addr:street" v="Skytop Drive"/>
    <tag k="addr:state" v="VT"/>
    <tag k="ref:vcgi:esiteid" v="16293"/>
  </node>
  <node id="-403" visible="true" lat="42.91703573" lon="-73.21010283">
    <tag k="addr:housenumber" v="63"/>
    <tag k="addr:street" v="Skytop Drive"/>
    <tag k="addr:state" v="VT"/>
    <tag k="ref:vcgi:esiteid" v="16296"/>
  </node>
  <node id="-407" visible="true" lat="42.91688502" lon="-73.21011473">
    <tag k="addr:housenumber" v="55"/>
    <tag k="addr:street" v="Skytop Drive"/>
    <tag k="addr:state" v="VT"/>
    <tag k="ref:vcgi:esiteid" v="16301"/>
  </node>
  <node id="-411" visible="true" lat="42.91674729" lon="-73.21010799">
    <tag k="addr:housenumber" v="43"/>
    <tag k="addr:street" v="Skytop Drive"/>
    <tag k="addr:state" v="VT"/>
    <tag k="ref:vcgi:esiteid" v="16306"/>
  </node>
  <node id="-417" visible="true" lat="42.91661445" lon="-73.21006625">
    <tag k="addr:housenumber" v="35"/>
    <tag k="addr:street" v="Skytop Drive"/>
    <tag k="addr:state" v="VT"/>
    <tag k="ref:vcgi:esiteid" v="16312"/>
  </node>
  <node id="-441" visible="true" lat="42.91569647" lon="-73.21032827">
    <tag k="addr:housenumber" v="33"/>
    <tag k="addr:street" v="Transport Drive"/>
    <tag k="addr:state" v="VT"/>
    <tag k="ref:vcgi:esiteid" v="16336"/>
  </node>
  <node id="-479" visible="true" lat="42.91431971" lon="-73.21667505">
    <tag k="addr:housenumber" v="286"/>
    <tag k="addr:street" v="Rice Lane"/>
    <tag k="addr:state" v="VT"/>
    <tag k="ref:vcgi:esiteid" v="16375"/>
  </node>
  <node id="-481" visible="true" lat="42.9142663" lon="-73.21691919">
    <tag k="addr:housenumber" v="298"/>
    <tag k="addr:street" v="Rice Lane"/>
    <tag k="addr:state" v="VT"/>
    <tag k="ref:vcgi:esiteid" v="16377"/>
  </node>
  <node id="-566" visible="true" lat="42.91221818" lon="-73.20451775">
    <tag k="addr:housenumber" v="22"/>
    <tag k="addr:street" v="Russett Drive"/>
    <tag k="addr:state" v="VT"/>
    <tag k="ref:vcgi:esiteid" v="16469"/>
  </node>
  <node id="-567" visible="true" lat="42.91184917" lon="-73.25496481">
    <tag k="addr:housenumber" v="1338"/>
    <tag k="addr:street" v="Murphy Road"/>
    <tag k="addr:state" v="VT"/>
    <tag k="ref:vcgi:esiteid" v="16470"/>
  </node>
  <node id="-571" visible="true" lat="42.91206108" lon="-73.20588215">
    <tag k="addr:housenumber" v="85"/>
    <tag k="addr:street" v="Russett Drive"/>
    <tag k="addr:state" v="VT"/>
    <tag k="ref:vcgi:esiteid" v="16476"/>
  </node>
  <node id="-573" visible="true" lat="42.9121754" lon="-73.20326802">
    <tag k="addr:housenumber" v="288"/>
    <tag k="addr:street" v="Apple Hill Road"/>
    <tag k="addr:state" v="VT"/>
    <tag k="ref:vcgi:esiteid" v="16478"/>
  </node>
  <node id="-580" visible="true" lat="42.91186223" lon="-73.20489804">
    <tag k="addr:housenumber" v="60"/>
    <tag k="addr:street" v="Russett Drive"/>
    <tag k="addr:state" v="VT"/>
    <tag k="ref:vcgi:esiteid" v="16485"/>
  </node>
  <node id="-582" visible="true" lat="42.91186986" lon="-73.20246026">
    <tag k="addr:housenumber" v="346"/>
    <tag k="addr:street" v="Apple Hill Road"/>
    <tag k="addr:state" v="VT"/>
    <tag k="ref:vcgi:esiteid" v="16487"/>
  </node>
  <node id="-583" visible="true" lat="42.91155941" lon="-73.20627573">
    <tag k="addr:housenumber" v="93"/>
    <tag k="addr:street" v="Russett Drive"/>
    <tag k="addr:state" v="VT"/>
    <tag k="ref:vcgi:esiteid" v="16488"/>
  </node>
  <node id="-584" visible="true" lat="42.91175879" lon="-73.20418052">
    <tag k="addr:housenumber" v="273"/>
    <tag k="addr:street" v="Apple Hill Road"/>
    <tag k="addr:state" v="VT"/>
    <tag k="ref:vcgi:esiteid" v="16489"/>
  </node>
  <node id="-588" visible="true" lat="42.91167911" lon="-73.19206772">
    <tag k="addr:housenumber" v="320"/>
    <tag k="addr:street" v="Willow Road"/>
    <tag k="addr:state" v="VT"/>
    <tag k="ref:vcgi:esiteid" v="16494"/>
  </node>
  <node id="-590" visible="true" lat="42.91153469" lon="-73.20549472">
    <tag k="addr:housenumber" v="112"/>
    <tag k="addr:street" v="Russett Drive"/>
    <tag k="addr:state" v="VT"/>
    <tag k="ref:vcgi:esiteid" v="16496"/>
  </node>
  <node id="-591" visible="true" lat="42.91148554" lon="-73.20318925">
    <tag k="addr:housenumber" v="307"/>
    <tag k="addr:street" v="Apple Hill Road"/>
    <tag k="addr:state" v="VT"/>
    <tag k="ref:vcgi:esiteid" v="16497"/>
  </node>
  <node id="-594" visible="true" lat="42.9115065" lon="-73.1899797">
    <tag k="addr:housenumber" v="74"/>
    <tag k="addr:street" v="Jayne Lane"/>
    <tag k="addr:state" v="VT"/>
    <tag k="ref:vcgi:esiteid" v="16501"/>
  </node>
  <node id="-596" visible="true" lat="42.91152696" lon="-73.19034307">
    <tag k="addr:housenumber" v="62"/>
    <tag k="addr:street" v="Jayne Lane"/>
    <tag k="addr:state" v="VT"/>
    <tag k="ref:vcgi:esiteid" v="16503"/>
  </node>
  <node id="-597" visible="true" lat="42.91147621" lon="-73.18958935">
    <tag k="addr:housenumber" v="96"/>
    <tag k="addr:street" v="Jayne Lane"/>
    <tag k="addr:state" v="VT"/>
    <tag k="ref:vcgi:esiteid" v="16504"/>
  </node>
  <node id="-598" visible="true" lat="42.91127472" lon="-73.20241275">
    <tag k="addr:housenumber" v="333"/>
    <tag k="addr:street" v="Apple Hill Road"/>
    <tag k="addr:state" v="VT"/>
    <tag k="ref:vcgi:esiteid" v="16505"/>
  </node>
  <node id="-599" visible="true" lat="42.91111128" lon="-73.19229537">
    <tag k="addr:housenumber" v="296"/>
    <tag k="addr:street" v="Duffy Drive"/>
    <tag k="addr:state" v="VT"/>
    <tag k="ref:vcgi:esiteid" v="16507"/>
  </node>
  <node id="-600" visible="true" lat="42.91147877" lon="-73.19162934">
    <tag k="addr:housenumber" v="227"/>
    <tag k="addr:street" v="Duffy Drive"/>
    <tag k="addr:state" v="VT"/>
    <tag k="ref:vcgi:esiteid" v="16508"/>
  </node>
  <node id="-603" visible="true" lat="42.91147347" lon="-73.19074326">
    <tag k="addr:housenumber" v="50"/>
    <tag k="addr:street" v="Jayne Lane"/>
    <tag k="addr:state" v="VT"/>
    <tag k="ref:vcgi:esiteid" v="16511"/>
  </node>
  <node id="-604" visible="true" lat="42.91142216" lon="-73.1892227">
    <tag k="addr:housenumber" v="108"/>
    <tag k="addr:street" v="Jayne Lane"/>
    <tag k="addr:state" v="VT"/>
    <tag k="ref:vcgi:esiteid" v="16512"/>
  </node>
  <node id="-605" visible="true" lat="42.91129893" lon="-73.19131503">
    <tag k="addr:housenumber" v="213"/>
    <tag k="addr:street" v="Duffy Drive"/>
    <tag k="addr:state" v="VT"/>
    <tag k="ref:vcgi:esiteid" v="16513"/>
  </node>
  <node id="-606" visible="true" lat="42.91099428" lon="-73.19187116">
    <tag k="addr:housenumber" v="270"/>
    <tag k="addr:street" v="Duffy Drive"/>
    <tag k="addr:state" v="VT"/>
    <tag k="ref:vcgi:esiteid" v="16514"/>
  </node>
  <node id="-613" visible="true" lat="42.91086133" lon="-73.1901119">
    <tag k="addr:housenumber" v="71"/>
    <tag k="addr:street" v="Jayne Lane"/>
    <tag k="addr:state" v="VT"/>
    <tag k="ref:vcgi:esiteid" v="16522"/>
  </node>
  <node id="-614" visible="true" lat="42.9109262" lon="-73.19060829">
    <tag k="addr:housenumber" v="37"/>
    <tag k="addr:street" v="Jayne Lane"/>
    <tag k="addr:state" v="VT"/>
    <tag k="ref:vcgi:esiteid" v="16523"/>
  </node>
  <node id="-617" visible="true" lat="42.91089059" lon="-73.18969461">
    <tag k="addr:housenumber" v="91"/>
    <tag k="addr:street" v="Jayne Lane"/>
    <tag k="addr:state" v="VT"/>
    <tag k="ref:vcgi:esiteid" v="16526"/>
  </node>
  <node id="-618" visible="true" lat="42.91085772" lon="-73.18930044">
    <tag k="addr:housenumber" v="107"/>
    <tag k="addr:street" v="Jayne Lane"/>
    <tag k="addr:state" v="VT"/>
    <tag k="ref:vcgi:esiteid" v="16527"/>
  </node>
  <node id="-622" visible="true" lat="42.9106903" lon="-73.19167327">
    <tag k="addr:housenumber" v="194"/>
    <tag k="addr:street" v="Duffy Drive"/>
    <tag k="addr:state" v="VT"/>
    <tag k="ref:vcgi:esiteid" v="16532"/>
  </node>
  <node id="-624" visible="true" lat="42.91056837" lon="-73.19076558">
    <tag k="addr:housenumber" v="171"/>
    <tag k="addr:street" v="Duffy Drive"/>
    <tag k="addr:state" v="VT"/>
    <tag k="ref:vcgi:esiteid" v="16534"/>
  </node>
  <node id="-625" visible="true" lat="42.91048054" lon="-73.19302334">
    <tag k="addr:housenumber" v="412"/>
    <tag k="addr:street" v="Willow Road"/>
    <tag k="addr:state" v="VT"/>
    <tag k="ref:vcgi:esiteid" v="16535"/>
  </node>
  <node id="-626" visible="true" lat="42.91046905" lon="-73.19161987">
    <tag k="addr:housenumber" v="178"/>
    <tag k="addr:street" v="Duffy Drive"/>
    <tag k="addr:state" v="VT"/>
    <tag k="ref:vcgi:esiteid" v="16536"/>
  </node>
  <node id="-635" visible="true" lat="42.91030456" lon="-73.19070208">
    <tag k="addr:housenumber" v="151"/>
    <tag k="addr:street" v="Duffy Drive"/>
    <tag k="addr:state" v="VT"/>
    <tag k="ref:vcgi:esiteid" v="16545"/>
  </node>
  <node id="-636" visible="true" lat="42.91017913" lon="-73.19144439">
    <tag k="addr:housenumber" v="154"/>
    <tag k="addr:street" v="Duffy Drive"/>
    <tag k="addr:state" v="VT"/>
    <tag k="ref:vcgi:esiteid" v="16547"/>
  </node>
  <node id="-642" visible="true" lat="42.90987622" lon="-73.19139665">
    <tag k="addr:housenumber" v="140"/>
    <tag k="addr:street" v="Duffy Drive"/>
    <tag k="addr:state" v="VT"/>
    <tag k="ref:vcgi:esiteid" v="16554"/>
  </node>
  <node id="-644" visible="true" lat="42.90993914" lon="-73.19047309">
    <tag k="addr:housenumber" v="121"/>
    <tag k="addr:street" v="Duffy Drive"/>
    <tag k="addr:state" v="VT"/>
    <tag k="ref:vcgi:esiteid" v="16556"/>
  </node>
  <node id="-648" visible="true" lat="42.90972008" lon="-73.19032583">
    <tag k="addr:housenumber" v="107"/>
    <tag k="addr:street" v="Duffy Drive"/>
    <tag k="addr:state" v="VT"/>
    <tag k="ref:vcgi:esiteid" v="16560"/>
  </node>
  <node id="-654" visible="true" lat="42.90943331" lon="-73.19005251">
    <tag k="addr:housenumber" v="81"/>
    <tag k="addr:street" v="Duffy Drive"/>
    <tag k="addr:state" v="VT"/>
    <tag k="ref:vcgi:esiteid" v="16567"/>
  </node>
  <node id="-661" visible="true" lat="42.90915489" lon="-73.19077058">
    <tag k="addr:housenumber" v="84"/>
    <tag k="addr:street" v="Duffy Drive"/>
    <tag k="addr:state" v="VT"/>
    <tag k="ref:vcgi:esiteid" v="16574"/>
  </node>
  <node id="-662" visible="true" lat="42.90921207" lon="-73.18985021">
    <tag k="addr:housenumber" v="59"/>
    <tag k="addr:street" v="Duffy Drive"/>
    <tag k="addr:state" v="VT"/>
    <tag k="ref:vcgi:esiteid" v="16576"/>
  </node>
  <node id="-663" visible="true" lat="42.90927685" lon="-73.1959038">
    <tag k="addr:housenumber" v="563"/>
    <tag k="addr:street" v="Willow Road"/>
    <tag k="addr:state" v="VT"/>
    <tag k="ref:vcgi:esiteid" v="16577"/>
  </node>
  <node id="-673" visible="true" lat="42.90893173" lon="-73.19055175">
    <tag k="addr:housenumber" v="62"/>
    <tag k="addr:street" v="Duffy Drive"/>
    <tag k="addr:state" v="VT"/>
    <tag k="ref:vcgi:esiteid" v="16587"/>
  </node>
  <node id="-674" visible="true" lat="42.90870867" lon="-73.19385825">
    <tag k="addr:housenumber" v="540"/>
    <tag k="addr:street" v="Willow Road"/>
    <tag k="addr:state" v="VT"/>
    <tag k="ref:vcgi:esiteid" v="16588"/>
  </node>
  <node id="-675" visible="true" lat="42.90885845" lon="-73.18957902">
    <tag k="addr:housenumber" v="33"/>
    <tag k="addr:street" v="Duffy Drive"/>
    <tag k="addr:state" v="VT"/>
    <tag k="ref:vcgi:esiteid" v="16589"/>
  </node>
  <node id="-679" visible="true" lat="42.90848753" lon="-73.19016174">
    <tag k="addr:housenumber" v="28"/>
    <tag k="addr:street" v="Duffy Drive"/>
    <tag k="addr:state" v="VT"/>
    <tag k="ref:vcgi:esiteid" v="16594"/>
  </node>
  <node id="-680" visible="true" lat="42.90838483" lon="-73.19515223">
    <tag k="addr:housenumber" v="593"/>
    <tag k="addr:street" v="Willow Road"/>
    <tag k="addr:state" v="VT"/>
    <tag k="ref:vcgi:esiteid" v="16596"/>
  </node>
  <node id="-683" visible="true" lat="42.90818296" lon="-73.21272978">
    <tag k="addr:housenumber" v="452"/>
    <tag k="addr:street" v="Harwood Hill Road"/>
    <tag k="addr:state" v="VT"/>
    <tag k="ref:vcgi:esiteid" v="16602"/>
  </node>
  <node id="-686" visible="true" lat="42.90809553" lon="-73.19438064">
    <tag k="addr:housenumber" v="596"/>
    <tag k="addr:street" v="Willow Road"/>
    <tag k="addr:state" v="VT"/>
    <tag k="ref:vcgi:esiteid" v="16605"/>
  </node>
  <node id="-687" visible="true" lat="42.90785473" lon="-73.2110626">
    <tag k="addr:housenumber" v="485"/>
    <tag k="addr:street" v="Harwood Hill Road"/>
    <tag k="addr:state" v="VT"/>
    <tag k="ref:vcgi:esiteid" v="16606"/>
  </node>
  <node id="-689" visible="true" lat="42.90784619" lon="-73.19459852">
    <tag k="addr:housenumber" v="610"/>
    <tag k="addr:street" v="Willow Road"/>
    <tag k="addr:state" v="VT"/>
    <tag k="ref:vcgi:esiteid" v="16608"/>
  </node>
  <node id="-692" visible="true" lat="42.90771102" lon="-73.19577026">
    <tag k="addr:housenumber" v="655"/>
    <tag k="addr:street" v="Willow Road"/>
    <tag k="addr:state" v="VT"/>
    <tag k="ref:vcgi:esiteid" v="16611"/>
  </node>
  <node id="-696" visible="true" lat="42.90752957" lon="-73.19481215">
    <tag k="addr:housenumber" v="634"/>
    <tag k="addr:street" v="Willow Road"/>
    <tag k="addr:state" v="VT"/>
    <tag k="ref:vcgi:esiteid" v="16617"/>
  </node>
  <node id="-697" visible="true" lat="42.90697022" lon="-73.22272861">
    <tag k="addr:housenumber" v="141"/>
    <tag k="addr:street" v="Hannaford Square"/>
    <tag k="addr:state" v="VT"/>
    <tag k="ref:vcgi:esiteid" v="16618"/>
  </node>
  <node id="-708" visible="true" lat="42.9070396" lon="-73.19585802">
    <tag k="addr:housenumber" v="685"/>
    <tag k="addr:street" v="Willow Road"/>
    <tag k="addr:state" v="VT"/>
    <tag k="ref:vcgi:esiteid" v="16633"/>
  </node>
  <node id="-713" visible="true" lat="42.90693173" lon="-73.19490078">
    <tag k="addr:housenumber" v="702"/>
    <tag k="addr:street" v="Willow Road"/>
    <tag k="addr:state" v="VT"/>
    <tag k="ref:vcgi:esiteid" v="16639"/>
  </node>
  <node id="-715" visible="true" lat="42.90666576" lon="-73.19598772">
    <tag k="addr:housenumber" v="713"/>
    <tag k="addr:street" v="Willow Road"/>
    <tag k="addr:state" v="VT"/>
    <tag k="ref:vcgi:esiteid" v="16641"/>
  </node>
  <node id="-717" visible="true" lat="42.90638468" lon="-73.19542229">
    <tag k="addr:housenumber" v="722"/>
    <tag k="addr:street" v="Willow Road"/>
    <tag k="addr:state" v="VT"/>
    <tag k="ref:vcgi:esiteid" v="16644"/>
  </node>
  <node id="-718" visible="true" lat="42.90632587" lon="-73.19623031">
    <tag k="addr:housenumber" v="737"/>
    <tag k="addr:street" v="Willow Road"/>
    <tag k="addr:state" v="VT"/>
    <tag k="ref:vcgi:esiteid" v="16645"/>
  </node>
  <node id="-726" visible="true" lat="42.90573893" lon="-73.19687995">
    <tag k="addr:housenumber" v="807"/>
    <tag k="addr:street" v="Willow Road"/>
    <tag k="addr:state" v="VT"/>
    <tag k="ref:vcgi:esiteid" v="16653"/>
  </node>
  <node id="-727" visible="true" lat="42.90562134" lon="-73.19747291">
    <tag k="addr:housenumber" v="839"/>
    <tag k="addr:street" v="Willow Road"/>
    <tag k="addr:state" v="VT"/>
    <tag k="ref:vcgi:esiteid" v="16654"/>
  </node>
  <node id="-734" visible="true" lat="42.90473556" lon="-73.21121215">
    <tag k="addr:housenumber" v="916"/>
    <tag k="addr:street" v="Orchard Road"/>
    <tag k="addr:state" v="VT"/>
    <tag k="ref:vcgi:esiteid" v="16662"/>
  </node>
  <node id="-739" visible="true" lat="42.90447257" lon="-73.21247655">
    <tag k="addr:housenumber" v="206"/>
    <tag k="addr:street" v="Harwood Hill Road"/>
    <tag k="addr:state" v="VT"/>
    <tag k="ref:vcgi:esiteid" v="16668"/>
  </node>
  <node id="-746" visible="true" lat="42.9037176" lon="-73.21584778">
    <tag k="addr:housenumber" v="125"/>
    <tag k="addr:street" v="Phylis Lane"/>
    <tag k="addr:state" v="VT"/>
    <tag k="ref:vcgi:esiteid" v="16675"/>
  </node>
  <node id="-783" visible="true" lat="42.90252148" lon="-73.19063779">
    <tag k="addr:housenumber" v="619"/>
    <tag k="addr:street" v="East Road"/>
    <tag k="addr:state" v="VT"/>
    <tag k="ref:vcgi:esiteid" v="16732"/>
  </node>
  <node id="-839" visible="true" lat="42.89983695" lon="-73.18863519">
    <tag k="addr:housenumber" v="357"/>
    <tag k="addr:street" v="Shields Drive"/>
    <tag k="addr:state" v="VT"/>
    <tag k="ref:vcgi:esiteid" v="16803"/>
  </node>
  <node id="-852" visible="true" lat="42.90016555" lon="-73.21157836">
    <!-- match: "220 Northside Drive, , VT"  ignoring missing state when matching to "220 Northside Drive, Bennington, " -->
    <tag k="addr:housenumber" v="220"/>
    <tag k="addr:street" v="Northside Drive"/>
    <tag k="addr:state" v="VT"/>
    <tag k="ref:vcgi:esiteid" v="16818"/>
  </node>
  <node id="-862" visible="true" lat="42.90004131" lon="-73.19109655">
    <tag k="addr:housenumber" v="453"/>
    <tag k="addr:street" v="East Road"/>
    <tag k="addr:state" v="VT"/>
    <tag k="ref:vcgi:esiteid" v="16828"/>
  </node>
  <node id="-874" visible="true" lat="42.89980389" lon="-73.19144652">
    <tag k="addr:housenumber" v="429"/>
    <tag k="addr:street" v="East Road"/>
    <tag k="addr:state" v="VT"/>
    <tag k="ref:vcgi:esiteid" v="16841"/>
  </node>
  <node id="-875" visible="true" lat="42.89994502" lon="-73.20979417">
    <tag k="addr:housenumber" v="209"/>
    <tag k="addr:street" v="Northside Drive"/>
    <tag k="addr:state" v="VT"/>
    <tag k="ref:vcgi:esiteid" v="16842"/>
  </node>
  <node id="-881" visible="true" lat="42.89955523" lon="-73.20915479">
    <tag k="addr:housenumber" v="207"/>
    <tag k="addr:street" v="Northside Drive"/>
    <tag k="addr:state" v="VT"/>
    <tag k="ref:vcgi:esiteid" v="16849"/>
  </node>
  <node id="-882" visible="true" lat="42.89944331" lon="-73.19178025">
    <tag k="addr:housenumber" v="401"/>
    <tag k="addr:street" v="East Road"/>
    <tag k="addr:state" v="VT"/>
    <tag k="ref:vcgi:esiteid" v="16852"/>
  </node>
  <node id="-889" visible="true" lat="42.89917083" lon="-73.19181586">
    <tag k="addr:housenumber" v="381"/>
    <tag k="addr:street" v="East Road"/>
    <tag k="addr:state" v="VT"/>
    <tag k="ref:vcgi:esiteid" v="16863"/>
  </node>
  <node id="-965" visible="true" lat="42.89755284" lon="-73.19058074">
    <tag k="addr:housenumber" v="110"/>
    <tag k="addr:street" v="Shields Drive"/>
    <tag k="addr:state" v="VT"/>
    <tag k="ref:vcgi:esiteid" v="16957"/>
  </node>
  <node id="-988" visible="true" lat="42.89622472" lon="-73.20415021">
    <tag k="addr:housenumber" v="111"/>
    <tag k="addr:street" v="Northside Drive"/>
    <tag k="addr:state" v="VT"/>
    <tag k="ref:vcgi:esiteid" v="16989"/>
  </node>
  <node id="-1002" visible="true" lat="42.8953514" lon="-73.20425415">
    <tag k="addr:housenumber" v="110"/>
    <tag k="addr:street" v="Northside Drive"/>
    <tag k="addr:state" v="VT"/>
    <tag k="ref:vcgi:esiteid" v="17007"/>
  </node>
  <node id="-1005" visible="true" lat="42.89542927" lon="-73.19799344">
    <tag k="addr:housenumber" v="104"/>
    <tag k="addr:street" v="Kocher Drive"/>
    <tag k="addr:state" v="VT"/>
    <tag k="ref:vcgi:esiteid" v="17010"/>
  </node>
  <node id="-1086" visible="true" lat="42.89244644" lon="-73.20141527">
    <tag k="addr:housenumber" v="99"/>
    <tag k="addr:street" v="Northside Drive"/>
    <tag k="addr:state" v="VT"/>
    <tag k="ref:vcgi:esiteid" v="17106"/>
  </node>
  <node id="-1124" visible="true" lat="42.89125298" lon="-73.22593423">
    <tag k="addr:housenumber" v="484"/>
    <tag k="addr:street" v="Fairview Street"/>
    <tag k="addr:state" v="VT"/>
    <tag k="ref:vcgi:esiteid" v="17150"/>
  </node>
  <node id="-1154" visible="true" lat="42.89071777" lon="-73.22321451">
    <tag k="addr:housenumber" v="332"/>
    <tag k="addr:street" v="Fairview Street"/>
    <tag k="addr:state" v="VT"/>
    <tag k="ref:vcgi:esiteid" v="17182"/>
  </node>
  <node id="-1219" visible="true" lat="42.88969454" lon="-73.22804075">
    <tag k="addr:housenumber" v="293"/>
    <tag k="addr:street" v="Hill Shadow Farm Road"/>
    <tag k="addr:state" v="VT"/>
    <tag k="ref:vcgi:esiteid" v="17251"/>
  </node>
  <node id="-1220" visible="true" lat="42.88963093" lon="-73.24622689">
    <tag k="addr:housenumber" v="205"/>
    <tag k="addr:street" v="State Road"/>
    <tag k="addr:state" v="VT"/>
    <tag k="ref:vcgi:esiteid" v="17252"/>
  </node>
  <node id="-1221" visible="true" lat="42.88982792" lon="-73.24685247">
    <tag k="addr:housenumber" v="241"/>
    <tag k="addr:street" v="State Road"/>
    <tag k="addr:state" v="VT"/>
    <tag k="ref:vcgi:esiteid" v="17253"/>
  </node>
  <node id="-1236" visible="true" lat="42.8894847" lon="-73.23007035">
    <tag k="addr:housenumber" v="212"/>
    <tag k="addr:street" v="Hill Shadow Farm Road"/>
    <tag k="addr:state" v="VT"/>
    <tag k="ref:vcgi:esiteid" v="17269"/>
  </node>
  <node id="-1294" visible="true" lat="42.8886079" lon="-73.22994716">
    <tag k="addr:housenumber" v="131"/>
    <tag k="addr:street" v="Hill Shadow Farm Road"/>
    <tag k="addr:state" v="VT"/>
    <tag k="ref:vcgi:esiteid" v="17333"/>
  </node>
  <node id="-1438" visible="true" lat="42.88673078" lon="-73.22993672">
    <tag k="addr:housenumber" v="9"/>
    <tag k="addr:street" v="Hill Shadow Farm Road"/>
    <tag k="addr:state" v="VT"/>
    <tag k="ref:vcgi:esiteid" v="17488"/>
  </node>
  <node id="-1572" visible="true" lat="42.88527135" lon="-73.19777337">
    <!-- match: "318 North Street, , VT"  ignoring missing state when matching to "318 North Street, , " -->
    <tag k="addr:housenumber" v="318"/>
    <tag k="addr:street" v="North Street"/>
    <tag k="addr:state" v="VT"/>
    <tag k="ref:vcgi:esiteid" v="17652"/>
  </node>
  <node id="-1583" visible="true" lat="42.88510212" lon="-73.19747841">
    <!-- match: "314 North Street, , VT"  ignoring missing state when matching to "314 North Street, , " -->
    <tag k="addr:housenumber" v="314"/>
    <tag k="addr:street" v="North Street"/>
    <tag k="addr:state" v="VT"/>
    <tag k="ref:vcgi:esiteid" v="17665"/>
  </node>
  <node id="-1593" visible="true" lat="42.88490727" lon="-73.21075017">
    <tag k="addr:housenumber" v="66"/>
    <tag k="addr:street" v="Main Street"/>
    <tag k="addr:state" v="VT"/>
    <tag k="ref:vcgi:esiteid" v="17677"/>
  </node>
  <node id="-1658" visible="true" lat="42.88453327" lon="-73.20288067">
    <tag k="addr:housenumber" v="160"/>
    <tag k="addr:street" v="Benmont Avenue"/>
    <tag k="addr:state" v="VT"/>
    <tag k="ref:vcgi:esiteid" v="17755"/>
  </node>
  <node id="-1769" visible="true" lat="42.88352671" lon="-73.22903258">
    <tag k="addr:housenumber" v="112"/>
    <tag k="addr:street" v="Gypsy Lane"/>
    <tag k="addr:state" v="VT"/>
    <tag k="ref:vcgi:esiteid" v="17877"/>
  </node>
  <node id="-1775" visible="true" lat="42.88350295" lon="-73.22981262">
    <tag k="addr:housenumber" v="70"/>
    <tag k="addr:street" v="Village Lane"/>
    <tag k="addr:state" v="VT"/>
    <tag k="ref:vcgi:esiteid" v="17883"/>
  </node>
  <node id="-1789" visible="true" lat="42.88345718" lon="-73.22808837">
    <tag k="addr:housenumber" v="125"/>
    <tag k="addr:street" v="Gypsy Lane"/>
    <tag k="addr:state" v="VT"/>
    <tag k="ref:vcgi:esiteid" v="17898"/>
  </node>
  <node id="-1825" visible="true" lat="42.88326784" lon="-73.2099277">
    <tag k="addr:housenumber" v="75"/>
    <tag k="addr:street" v="Main Street"/>
    <tag k="addr:state" v="VT"/>
    <tag k="ref:vcgi:esiteid" v="17937"/>
  </node>
  <node id="-1851" visible="true" lat="42.88316032" lon="-73.21206234">
    <tag k="addr:housenumber" v="1"/>
    <tag k="addr:street" v="Church Lane"/>
    <tag k="addr:state" v="VT"/>
    <tag k="ref:vcgi:esiteid" v="17963"/>
  </node>
  <node id="-1884" visible="true" lat="42.8829436" lon="-73.22823391">
    <tag k="addr:housenumber" v="85"/>
    <tag k="addr:street" v="Gypsy Lane"/>
    <tag k="addr:state" v="VT"/>
    <tag k="ref:vcgi:esiteid" v="17996"/>
  </node>
  <node id="-1912" visible="true" lat="42.88304663" lon="-73.19637593">
    <tag k="addr:housenumber" v="227"/>
    <tag k="addr:street" v="North Street"/>
    <tag k="addr:state" v="VT"/>
    <tag k="ref:vcgi:esiteid" v="18025"/>
  </node>
  <node id="-1947" visible="true" lat="42.88265415" lon="-73.22441208">
    <tag k="addr:housenumber" v="643"/>
    <tag k="addr:street" v="West Road"/>
    <tag k="addr:state" v="VT"/>
    <tag k="ref:vcgi:esiteid" v="18063"/>
  </node>
  <node id="-2007" visible="true" lat="42.88254461" lon="-73.22529348">
    <tag k="addr:housenumber" v="703"/>
    <tag k="addr:street" v="West Road"/>
    <tag k="addr:state" v="VT"/>
    <tag k="ref:vcgi:esiteid" v="18128"/>
  </node>
  <node id="-2035" visible="true" lat="42.88240085" lon="-73.22786188">
    <tag k="addr:housenumber" v="25"/>
    <tag k="addr:street" v="Gypsy Lane"/>
    <tag k="addr:state" v="VT"/>
    <tag k="ref:vcgi:esiteid" v="18156"/>
  </node>
  <node id="-2057" visible="true" lat="42.88232655" lon="-73.19401071">
    <tag k="addr:housenumber" v="307"/>
    <tag k="addr:street" v="School Street"/>
    <tag k="addr:state" v="VT"/>
    <tag k="ref:vcgi:esiteid" v="18179"/>
  </node>
  <node id="-2096" visible="true" lat="42.88222358" lon="-73.19632806">
    <tag k="addr:housenumber" v="215"/>
    <tag k="addr:street" v="North Street"/>
    <tag k="addr:state" v="VT"/>
    <tag k="ref:vcgi:esiteid" v="18221"/>
  </node>
  <node id="-2223" visible="true" lat="42.88173923" lon="-73.19906986">
    <tag k="addr:housenumber" v="150"/>
    <tag k="addr:street" v="Depot Street"/>
    <tag k="addr:state" v="VT"/>
    <tag k="ref:vcgi:esiteid" v="18362"/>
  </node>
  <node id="-2245" visible="true" lat="42.88168943" lon="-73.1904006">
    <!-- match: "410 Gage Street, , VT"  ignoring missing state when matching to "410 Gage Street, , " -->
    <tag k="addr:housenumber" v="410"/>
    <tag k="addr:street" v="Gage Street"/>
    <tag k="addr:state" v="VT"/>
    <tag k="ref:vcgi:esiteid" v="18385"/>
  </node>
  <node id="-2248" visible="true" lat="42.88169508" lon="-73.19296726">
    <tag k="addr:housenumber" v="300"/>
    <tag k="addr:street" v="Gage Street"/>
    <tag k="addr:state" v="VT"/>
    <tag k="ref:vcgi:esiteid" v="18388"/>
  </node>
  <node id="-2250" visible="true" lat="42.88167953" lon="-73.18984985">
    <!-- match: "200 Division Street, , VT"  ignoring missing state when matching to "200 Division Street, , " -->
    <tag k="addr:housenumber" v="200"/>
    <tag k="addr:street" v="Division Street"/>
    <tag k="addr:state" v="VT"/>
    <tag k="ref:vcgi:esiteid" v="18390"/>
  </node>
  <node id="-2258" visible="true" lat="42.88168744" lon="-73.19084886">
    <!-- match: "404 Gage Street, , VT"  ignoring missing state when matching to "404 Gage Street, , " -->
    <tag k="addr:housenumber" v="404"/>
    <tag k="addr:street" v="Gage Street"/>
    <tag k="addr:state" v="VT"/>
    <tag k="ref:vcgi:esiteid" v="18398"/>
  </node>
  <node id="-2262" visible="true" lat="42.88167702" lon="-73.19025127">
    <!-- match: "412 Gage Street, , VT"  ignoring missing state when matching to "412 Gage Street, , " -->
    <tag k="addr:housenumber" v="412"/>
    <tag k="addr:street" v="Gage Street"/>
    <tag k="addr:state" v="VT"/>
    <tag k="ref:vcgi:esiteid" v="18403"/>
  </node>
  <node id="-2352" visible="true" lat="42.88130658" lon="-73.19065891">
    <!-- match: "403 Gage Street, , VT"  ignoring missing state when matching to "403 Gage Street, , " -->
    <tag k="addr:housenumber" v="403"/>
    <tag k="addr:street" v="Gage Street"/>
    <tag k="addr:state" v="VT"/>
    <tag k="ref:vcgi:esiteid" v="18503"/>
  </node>
  <node id="-2353" visible="true" lat="42.88126552" lon="-73.18984243">
    <!-- match: "411 Gage Street, , VT"  ignoring missing state when matching to "411 Gage Street, , " -->
    <tag k="addr:housenumber" v="411"/>
    <tag k="addr:street" v="Gage Street"/>
    <tag k="addr:state" v="VT"/>
    <tag k="ref:vcgi:esiteid" v="18504"/>
  </node>
  <node id="-2356" visible="true" lat="42.88128654" lon="-73.19053146">
    <!-- match: "405 Gage Street, , VT"  ignoring missing state when matching to "405 Gage Street, , " -->
    <tag k="addr:housenumber" v="405"/>
    <tag k="addr:street" v="Gage Street"/>
    <tag k="addr:state" v="VT"/>
    <tag k="ref:vcgi:esiteid" v="18507"/>
  </node>
  <node id="-2358" visible="true" lat="42.88126861" lon="-73.19011606">
    <!-- match: "409 Gage Street, , VT"  ignoring missing state when matching to "409 Gage Street, , " -->
    <tag k="addr:housenumber" v="409"/>
    <tag k="addr:street" v="Gage Street"/>
    <tag k="addr:state" v="VT"/>
    <tag k="ref:vcgi:esiteid" v="18509"/>
  </node>
  <node id="-2368" visible="true" lat="42.88127136" lon="-73.1903214">
    <!-- match: "407 Gage Street, , VT"  ignoring missing state when matching to "407 Gage Street, , " -->
    <tag k="addr:housenumber" v="407"/>
    <tag k="addr:street" v="Gage Street"/>
    <tag k="addr:state" v="VT"/>
    <tag k="ref:vcgi:esiteid" v="18520"/>
  </node>
  <node id="-2424" visible="true" lat="42.88101895" lon="-73.18984138">
    <!-- match: "120 Division Street, , VT"  ignoring missing state when matching to "120 Division Street, , " -->
    <tag k="addr:housenumber" v="120"/>
    <tag k="addr:street" v="Division Street"/>
    <tag k="addr:state" v="VT"/>
    <tag k="ref:vcgi:esiteid" v="18586"/>
  </node>
  <node id="-2433" visible="true" lat="42.88077686" lon="-73.20173727">
    <tag k="addr:housenumber" v="238"/>
    <tag k="addr:street" v="Main Street"/>
    <tag k="addr:state" v="VT"/>
    <tag k="ref:vcgi:esiteid" v="18595"/>
  </node>
  <node id="-2674" visible="true" lat="42.87978342" lon="-73.19836684">
    <tag k="addr:housenumber" v="107"/>
    <tag k="addr:street" v="Depot Street"/>
    <tag k="addr:state" v="VT"/>
    <tag k="ref:vcgi:esiteid" v="18864"/>
  </node>
  <node id="-2725" visible="true" lat="42.87955093" lon="-73.19868469">
    <tag k="addr:housenumber" v="300"/>
    <tag k="addr:street" v="Main Street"/>
    <tag k="addr:state" v="VT"/>
    <tag k="ref:vcgi:esiteid" v="18925"/>
  </node>
  <node id="-2838" visible="true" lat="42.87900779" lon="-73.22191502">
    <tag k="addr:housenumber" v="235"/>
    <tag k="addr:street" v="Fox Hill Road"/>
    <tag k="addr:state" v="VT"/>
    <tag k="ref:vcgi:esiteid" v="19059"/>
  </node>
  <node id="-2857" visible="true" lat="42.87902474" lon="-73.19791365">
    <tag k="addr:housenumber" v="324"/>
    <tag k="addr:street" v="Main Street"/>
    <tag k="addr:state" v="VT"/>
    <tag k="ref:vcgi:esiteid" v="19081"/>
  </node>
  <node id="-2870" visible="true" lat="42.87883911" lon="-73.22109195">
    <tag k="addr:housenumber" v="236"/>
    <tag k="addr:street" v="Fox Hill Road"/>
    <tag k="addr:state" v="VT"/>
    <tag k="ref:vcgi:esiteid" v="19096"/>
  </node>
  <node id="-2899" visible="true" lat="42.87887954" lon="-73.19732665">
    <!-- match: "116 North Street, , VT"  ignoring missing state when matching to "116 North Street, , " -->
    <tag k="addr:housenumber" v="116"/>
    <tag k="addr:street" v="North Street"/>
    <tag k="addr:state" v="VT"/>
    <tag k="ref:vcgi:esiteid" v="19127"/>
  </node>
  <node id="-2909" visible="true" lat="42.87893768" lon="-73.18676879">
    <tag k="addr:housenumber" v="716"/>
    <tag k="addr:street" v="Main Street"/>
    <tag k="addr:state" v="VT"/>
    <tag k="ref:vcgi:esiteid" v="19137"/>
  </node>
  <node id="-2953" visible="true" lat="42.8784873" lon="-73.22102264">
    <tag k="addr:housenumber" v="258"/>
    <tag k="addr:street" v="Fox Hill Road"/>
    <tag k="addr:state" v="VT"/>
    <tag k="ref:vcgi:esiteid" v="19185"/>
  </node>
  <node id="-2966" visible="true" lat="42.87859664" lon="-73.19729734">
    <tag k="addr:housenumber" v="338"/>
    <tag k="addr:street" v="Main Street"/>
    <tag k="addr:state" v="VT"/>
    <tag k="ref:vcgi:esiteid" v="19201"/>
  </node>
  <node id="-2985" visible="true" lat="42.87860701" lon="-73.18999691">
    <tag k="addr:housenumber" v="650"/>
    <tag k="addr:street" v="Main Street"/>
    <tag k="addr:state" v="VT"/>
    <tag k="ref:vcgi:esiteid" v="19221"/>
  </node>
  <node id="-2994" visible="true" lat="42.87846354" lon="-73.19696338">
    <tag k="addr:housenumber" v="400"/>
    <tag k="addr:street" v="Main Street"/>
    <tag k="addr:state" v="VT"/>
    <tag k="ref:vcgi:esiteid" v="19231"/>
  </node>
  <node id="-3012" visible="true" lat="42.87837924" lon="-73.19636759">
    <tag k="addr:housenumber" v="428"/>
    <tag k="addr:street" v="Main Street"/>
    <tag k="addr:state" v="VT"/>
    <tag k="ref:vcgi:esiteid" v="19251"/>
  </node>
  <node id="-3024" visible="true" lat="42.87835707" lon="-73.19624943">
    <tag k="addr:housenumber" v="430"/>
    <tag k="addr:street" v="Main Street"/>
    <tag k="addr:state" v="VT"/>
    <tag k="ref:vcgi:esiteid" v="19263"/>
  </node>
  <node id="-3037" visible="true" lat="42.87792309" lon="-73.26160597">
    <tag k="addr:housenumber" v="133"/>
    <tag k="addr:street" v="Houran Road"/>
    <tag k="addr:state" v="VT"/>
    <tag k="ref:vcgi:esiteid" v="19276"/>
  </node>
  <node id="-3108" visible="true" lat="42.87805673" lon="-73.19640233">
    <tag k="addr:housenumber" v="421"/>
    <tag k="addr:street" v="Main Street"/>
    <tag k="addr:state" v="VT"/>
    <tag k="ref:vcgi:esiteid" v="19350"/>
  </node>
  <node id="-3119" visible="true" lat="42.87798691" lon="-73.19542532">
    <!-- match: "457 Main Street, , VT"  ignoring missing state when matching to "457 Main Street, , " -->
    <tag k="addr:housenumber" v="457"/>
    <tag k="addr:street" v="Main Street"/>
    <tag k="addr:state" v="VT"/>
    <tag k="ref:vcgi:esiteid" v="19362"/>
  </node>
  <node id="-3165" visible="true" lat="42.87748274" lon="-73.26187972">
    <tag k="addr:housenumber" v="2601"/>
    <tag k="addr:street" v="West Road"/>
    <tag k="addr:state" v="VT"/>
    <tag k="ref:vcgi:esiteid" v="19413"/>
  </node>
  <node id="-3174" visible="true" lat="42.8778305" lon="-73.1936798">
    <tag k="addr:housenumber" v="101"/>
    <tag k="addr:street" v="Silver Street"/>
    <tag k="addr:state" v="VT"/>
    <tag k="ref:vcgi:esiteid" v="19423"/>
  </node>
  <node id="-3213" visible="true" lat="42.87757758" lon="-73.20291655">
    <!-- match: "251 Elm Street, , VT"  ignoring missing state when matching to "251 Elm Street, , " -->
    <tag k="addr:housenumber" v="251"/>
    <tag k="addr:street" v="Elm Street"/>
    <tag k="addr:state" v="VT"/>
    <tag k="ref:vcgi:esiteid" v="19466"/>
  </node>
  <node id="-3227" visible="true" lat="42.87766852" lon="-73.19733933">
    <tag k="addr:housenumber" v="201"/>
    <tag k="addr:street" v="South Street"/>
    <tag k="addr:state" v="VT"/>
    <tag k="ref:vcgi:esiteid" v="19480"/>
  </node>
  <node id="-3228" visible="true" lat="42.87708637" lon="-73.25781077">
    <tag k="addr:housenumber" v="2402"/>
    <tag k="addr:street" v="West Road"/>
    <tag k="addr:state" v="VT"/>
    <tag k="ref:vcgi:esiteid" v="19481"/>
  </node>
  <node id="-3229" visible="true" lat="42.87752502" lon="-73.19692797">
    <tag k="addr:housenumber" v="118"/>
    <tag k="addr:street" v="South Street"/>
    <tag k="addr:state" v="VT"/>
    <tag k="ref:vcgi:esiteid" v="19482"/>
  </node>
  <node id="-3282" visible="true" lat="42.87717196" lon="-73.26580606">
    <tag k="addr:housenumber" v="2813"/>
    <tag k="addr:street" v="West Road"/>
    <tag k="addr:state" v="VT"/>
    <tag k="ref:vcgi:esiteid" v="19544"/>
  </node>
  <node id="-3312" visible="true" lat="42.87721207" lon="-73.19239468">
    <tag k="addr:housenumber" v="212"/>
    <tag k="addr:street" v="Union Street"/>
    <tag k="addr:state" v="VT"/>
    <tag k="ref:vcgi:esiteid" v="19575"/>
  </node>
  <node id="-3352" visible="true" lat="42.87682361" lon="-73.26087088">
    <tag k="addr:housenumber" v="2568"/>
    <tag k="addr:street" v="West Road"/>
    <tag k="addr:state" v="VT"/>
    <tag k="ref:vcgi:esiteid" v="19616"/>
  </node>
  <node id="-3426" visible="true" lat="42.87637759" lon="-73.19955633">
    <tag k="addr:housenumber" v="124"/>
    <tag k="addr:street" v="Elm Street"/>
    <tag k="addr:state" v="VT"/>
    <tag k="ref:vcgi:esiteid" v="19699"/>
  </node>
  <node id="-3534" visible="true" lat="42.87583628" lon="-73.26850048">
    <tag k="addr:housenumber" v="2975"/>
    <tag k="addr:street" v="West Road"/>
    <tag k="addr:state" v="VT"/>
    <tag k="ref:vcgi:esiteid" v="19816"/>
  </node>
  <node id="-3554" visible="true" lat="42.8756083" lon="-73.26013613">
    <tag k="addr:housenumber" v="103"/>
    <tag k="addr:street" v="Pleasant Valley Road"/>
    <tag k="addr:state" v="VT"/>
    <tag k="ref:vcgi:esiteid" v="19836"/>
  </node>
  <node id="-3565" visible="true" lat="42.87561812" lon="-73.26851452">
    <tag k="addr:housenumber" v="2973"/>
    <tag k="addr:street" v="West Road"/>
    <tag k="addr:state" v="VT"/>
    <tag k="ref:vcgi:esiteid" v="19848"/>
  </node>
  <node id="-3588" visible="true" lat="42.87536353" lon="-73.26769047">
    <tag k="addr:housenumber" v="2934"/>
    <tag k="addr:street" v="West Road"/>
    <tag k="addr:state" v="VT"/>
    <tag k="ref:vcgi:esiteid" v="19872"/>
  </node>
  <node id="-3638" visible="true" lat="42.87510588" lon="-73.26814195">
    <tag k="addr:housenumber" v="2964"/>
    <tag k="addr:street" v="West Road"/>
    <tag k="addr:state" v="VT"/>
    <tag k="ref:vcgi:esiteid" v="19926"/>
  </node>
  <node id="-3640" visible="true" lat="42.87509839" lon="-73.26747849">
    <tag k="addr:housenumber" v="2922"/>
    <tag k="addr:street" v="West Road"/>
    <tag k="addr:state" v="VT"/>
    <tag k="ref:vcgi:esiteid" v="19928"/>
  </node>
  <node id="-3643" visible="true" lat="42.87509948" lon="-73.27038156">
    <tag k="addr:housenumber" v="3015"/>
    <tag k="addr:street" v="West Road"/>
    <tag k="addr:state" v="VT"/>
    <tag k="ref:vcgi:esiteid" v="19931"/>
  </node>
  <node id="-3656" visible="true" lat="42.87430516" lon="-73.26833759">
    <tag k="addr:housenumber" v="2968"/>
    <tag k="addr:street" v="West Road"/>
    <tag k="addr:state" v="VT"/>
    <tag k="ref:vcgi:esiteid" v="19945"/>
  </node>
  <node id="-3659" visible="true" lat="42.87512066" lon="-73.25987361">
    <tag k="addr:housenumber" v="167"/>
    <tag k="addr:street" v="Pleasant Valley Road"/>
    <tag k="addr:state" v="VT"/>
    <tag k="ref:vcgi:esiteid" v="19948"/>
  </node>
  <node id="-3695" visible="true" lat="42.87492731" lon="-73.27548057">
    <tag k="addr:housenumber" v="3349"/>
    <tag k="addr:street" v="West Road"/>
    <tag k="addr:state" v="VT"/>
    <tag k="ref:vcgi:esiteid" v="19987"/>
  </node>
  <node id="-3725" visible="true" lat="42.87529693" lon="-73.18919044">
    <tag k="addr:housenumber" v="148"/>
    <tag k="addr:street" v="Imperial Avenue"/>
    <tag k="addr:state" v="VT"/>
    <tag k="ref:vcgi:esiteid" v="20018"/>
  </node>
  <node id="-3739" visible="true" lat="42.8746907" lon="-73.26040642">
    <tag k="addr:housenumber" v="209"/>
    <tag k="addr:street" v="Pleasant Valley Road"/>
    <tag k="addr:state" v="VT"/>
    <tag k="ref:vcgi:esiteid" v="20034"/>
  </node>
  <node id="-3793" visible="true" lat="42.87442368" lon="-73.26044985">
    <tag k="addr:housenumber" v="207"/>
    <tag k="addr:street" v="Pleasant Valley Road"/>
    <tag k="addr:state" v="VT"/>
    <tag k="ref:vcgi:esiteid" v="20094"/>
  </node>
  <node id="-3820" visible="true" lat="42.87429875" lon="-73.27498309">
    <tag k="addr:housenumber" v="3347"/>
    <tag k="addr:street" v="West Road"/>
    <tag k="addr:state" v="VT"/>
    <tag k="ref:vcgi:esiteid" v="20123"/>
  </node>
  <node id="-3828" visible="true" lat="42.87421417" lon="-73.25991821">
    <tag k="addr:housenumber" v="229"/>
    <tag k="addr:street" v="Pleasant Valley Road"/>
    <tag k="addr:state" v="VT"/>
    <tag k="ref:vcgi:esiteid" v="20133"/>
  </node>
  <node id="-3890" visible="true" lat="42.87386902" lon="-73.25939244">
    <tag k="addr:housenumber" v="248"/>
    <tag k="addr:street" v="Pleasant Valley Road"/>
    <tag k="addr:state" v="VT"/>
    <tag k="ref:vcgi:esiteid" v="20200"/>
  </node>
  <node id="-3902" visible="true" lat="42.87370782" lon="-73.27261469">
    <tag k="addr:housenumber" v="3213"/>
    <tag k="addr:street" v="West Road"/>
    <tag k="addr:state" v="VT"/>
    <tag k="ref:vcgi:esiteid" v="20212"/>
  </node>
  <node id="-3933" visible="true" lat="42.87407191" lon="-73.207508">
    <!-- match: "100 Hospital Drive, , VT"  ignoring missing state when matching to "100 Hospital Drive, Bennington, " -->
    <tag k="addr:housenumber" v="100"/>
    <tag k="addr:street" v="Hospital Drive"/>
    <tag k="addr:state" v="VT"/>
    <tag k="ref:vcgi:esiteid" v="20244"/>
  </node>
  <node id="-3995" visible="true" lat="42.8728762" lon="-73.27165207">
    <tag k="addr:housenumber" v="3176"/>
    <tag k="addr:street" v="West Road"/>
    <tag k="addr:state" v="VT"/>
    <tag k="ref:vcgi:esiteid" v="20313"/>
  </node>
  <node id="-4403" visible="true" lat="42.86946397" lon="-73.20843546">
    <tag k="addr:housenumber" v="70"/>
    <tag k="addr:street" v="Cow Path Lane"/>
    <tag k="addr:state" v="VT"/>
    <tag k="ref:vcgi:esiteid" v="20761"/>
  </node>
  <node id="-4417" visible="true" lat="42.86911392" lon="-73.20917511">
    <tag k="addr:housenumber" v="25"/>
    <tag k="addr:street" v="Cow Path Lane"/>
    <tag k="addr:state" v="VT"/>
    <tag k="ref:vcgi:esiteid" v="20776"/>
  </node>
  <node id="-4428" visible="true" lat="42.8690636" lon="-73.20760148">
    <tag k="addr:housenumber" v="91"/>
    <tag k="addr:street" v="Cow Path Lane"/>
    <tag k="addr:state" v="VT"/>
    <tag k="ref:vcgi:esiteid" v="20789"/>
  </node>
  <node id="-4437" visible="true" lat="42.86888343" lon="-73.20686882">
    <tag k="addr:housenumber" v="407"/>
    <tag k="addr:street" v="Dewey Street"/>
    <tag k="addr:state" v="VT"/>
    <tag k="ref:vcgi:esiteid" v="20798"/>
  </node>
  <node id="-4442" visible="true" lat="42.86879569" lon="-73.20715111">
    <tag k="addr:housenumber" v="409"/>
    <tag k="addr:street" v="Dewey Street"/>
    <tag k="addr:state" v="VT"/>
    <tag k="ref:vcgi:esiteid" v="20805"/>
  </node>
  <node id="-4464" visible="true" lat="42.86835932" lon="-73.20773514">
    <tag k="addr:housenumber" v="413"/>
    <tag k="addr:street" v="Dewey Street"/>
    <tag k="addr:state" v="VT"/>
    <tag k="ref:vcgi:esiteid" v="20829"/>
  </node>
  <node id="-4474" visible="true" lat="42.86798832" lon="-73.20849935">
    <tag k="addr:housenumber" v="417"/>
    <tag k="addr:street" v="Dewey Street"/>
    <tag k="addr:state" v="VT"/>
    <tag k="ref:vcgi:esiteid" v="20840"/>
  </node>
  <node id="-4479" visible="true" lat="42.86787992" lon="-73.20741285">
    <tag k="addr:housenumber" v="18"/>
    <tag k="addr:street" v="Garden Lane"/>
    <tag k="addr:state" v="VT"/>
    <tag k="ref:vcgi:esiteid" v="20845"/>
  </node>
  <node id="-4490" visible="true" lat="42.86752898" lon="-73.20847774">
    <tag k="addr:housenumber" v="420"/>
    <tag k="addr:street" v="Dewey Street"/>
    <tag k="addr:state" v="VT"/>
    <tag k="ref:vcgi:esiteid" v="20857"/>
  </node>
  <node id="-4500" visible="true" lat="42.86725777" lon="-73.20894602">
    <tag k="addr:housenumber" v="424"/>
    <tag k="addr:street" v="Dewey Street"/>
    <tag k="addr:state" v="VT"/>
    <tag k="ref:vcgi:esiteid" v="20870"/>
  </node>
  <node id="-4530" visible="true" lat="42.86667807" lon="-73.20988919">
    <tag k="addr:housenumber" v="26"/>
    <tag k="addr:street" v="Bird Hill"/>
    <tag k="addr:state" v="VT"/>
    <tag k="ref:vcgi:esiteid" v="20901"/>
  </node>
  <node id="-4532" visible="true" lat="42.86675406" lon="-73.20662181">
    <tag k="addr:housenumber" v="219"/>
    <tag k="addr:street" v="Meadowbrook Drive"/>
    <tag k="addr:state" v="VT"/>
    <tag k="ref:vcgi:esiteid" v="20903"/>
  </node>
  <node id="-4544" visible="true" lat="42.86639919" lon="-73.20777512">
    <tag k="addr:housenumber" v="1704"/>
    <tag k="addr:street" v="Monument Avenue"/>
    <tag k="addr:state" v="VT"/>
    <tag k="ref:vcgi:esiteid" v="20915"/>
  </node>
  <node id="-4548" visible="true" lat="42.86628503" lon="-73.20688885">
    <tag k="addr:housenumber" v="220"/>
    <tag k="addr:street" v="Meadowbrook Drive"/>
    <tag k="addr:state" v="VT"/>
    <tag k="ref:vcgi:esiteid" v="20919"/>
  </node>
  <node id="-4549" visible="true" lat="42.86626657" lon="-73.20491832">
    <tag k="addr:housenumber" v="177"/>
    <tag k="addr:street" v="Meadowbrook Drive"/>
    <tag k="addr:state" v="VT"/>
    <tag k="ref:vcgi:esiteid" v="20920"/>
  </node>
  <node id="-4556" visible="true" lat="42.86591073" lon="-73.20640225">
    <tag k="addr:housenumber" v="218"/>
    <tag k="addr:street" v="Meadowbrook Drive"/>
    <tag k="addr:state" v="VT"/>
    <tag k="ref:vcgi:esiteid" v="20927"/>
  </node>
  <node id="-4563" visible="true" lat="42.86565277" lon="-73.20581519">
    <tag k="addr:housenumber" v="190"/>
    <tag k="addr:street" v="Meadowbrook Drive"/>
    <tag k="addr:state" v="VT"/>
    <tag k="ref:vcgi:esiteid" v="20934"/>
  </node>
  <node id="-4565" visible="true" lat="42.86560875" lon="-73.20781818">
    <tag k="addr:housenumber" v="1730"/>
    <tag k="addr:street" v="Monument Avenue"/>
    <tag k="addr:state" v="VT"/>
    <tag k="ref:vcgi:esiteid" v="20937"/>
  </node>
  <node id="-4570" visible="true" lat="42.86526625" lon="-73.2110457">
    <tag k="addr:housenumber" v="215"/>
    <tag k="addr:street" v="Bird Hill"/>
    <tag k="addr:state" v="VT"/>
    <tag k="ref:vcgi:esiteid" v="20942"/>
  </node>
  <node id="-4573" visible="true" lat="42.86515409" lon="-73.20603973">
    <tag k="addr:housenumber" v="88"/>
    <tag k="addr:street" v="Meadowbrook Drive"/>
    <tag k="addr:state" v="VT"/>
    <tag k="ref:vcgi:esiteid" v="20945"/>
  </node>
  <node id="-4575" visible="true" lat="42.86468895" lon="-73.20627528">
    <tag k="addr:housenumber" v="75"/>
    <tag k="addr:street" v="Meadowbrook Drive"/>
    <tag k="addr:state" v="VT"/>
    <tag k="ref:vcgi:esiteid" v="20947"/>
  </node>
  <node id="-4577" visible="true" lat="42.86464768" lon="-73.20807717">
    <tag k="addr:housenumber" v="1779"/>
    <tag k="addr:street" v="Monument Avenue"/>
    <tag k="addr:state" v="VT"/>
    <tag k="ref:vcgi:esiteid" v="20949"/>
  </node>
  <node id="-4580" visible="true" lat="42.86435229" lon="-73.20776955">
    <tag k="addr:housenumber" v="1785"/>
    <tag k="addr:street" v="Monument Avenue"/>
    <tag k="addr:state" v="VT"/>
    <tag k="ref:vcgi:esiteid" v="20952"/>
  </node>
  <node id="-4584" visible="true" lat="42.86416871" lon="-73.20754324">
    <tag k="addr:housenumber" v="1819"/>
    <tag k="addr:street" v="Monument Avenue"/>
    <tag k="addr:state" v="VT"/>
    <tag k="ref:vcgi:esiteid" v="20956"/>
  </node>
  <node id="-4585" visible="true" lat="42.86422348" lon="-73.20411682">
    <tag k="addr:housenumber" v="126"/>
    <tag k="addr:street" v="North Terrace Drive"/>
    <tag k="addr:state" v="VT"/>
    <tag k="ref:vcgi:esiteid" v="20957"/>
  </node>
  <node id="-4586" visible="true" lat="42.86404944" lon="-73.19972571">
    <tag k="addr:housenumber" v="377"/>
    <tag k="addr:street" v="Southshire Drive"/>
    <tag k="addr:state" v="VT"/>
    <tag k="ref:vcgi:esiteid" v="20958"/>
  </node>
  <node id="-4587" visible="true" lat="42.86417073" lon="-73.2012956">
    <tag k="addr:housenumber" v="370"/>
    <tag k="addr:street" v="Southshire Drive"/>
    <tag k="addr:state" v="VT"/>
    <tag k="ref:vcgi:esiteid" v="20959"/>
  </node>
  <node id="-4588" visible="true" lat="42.86424699" lon="-73.20308041">
    <tag k="addr:housenumber" v="127"/>
    <tag k="addr:street" v="North Terrace Drive"/>
    <tag k="addr:state" v="VT"/>
    <tag k="ref:vcgi:esiteid" v="20960"/>
  </node>
  <node id="-4595" visible="true" lat="42.86350746" lon="-73.20404615">
    <tag k="addr:housenumber" v="116"/>
    <tag k="addr:street" v="North Terrace Drive"/>
    <tag k="addr:state" v="VT"/>
    <tag k="ref:vcgi:esiteid" v="20967"/>
  </node>
  <node id="-4597" visible="true" lat="42.86359296" lon="-73.19977456">
    <tag k="addr:housenumber" v="323"/>
    <tag k="addr:street" v="Southshire Drive"/>
    <tag k="addr:state" v="VT"/>
    <tag k="ref:vcgi:esiteid" v="20969"/>
  </node>
  <node id="-4602" visible="true" lat="42.86301404" lon="-73.2004147">
    <tag k="addr:housenumber" v="311"/>
    <tag k="addr:street" v="Southshire Drive"/>
    <tag k="addr:state" v="VT"/>
    <tag k="ref:vcgi:esiteid" v="20974"/>
  </node>
  <node id="-4603" visible="true" lat="42.86305419" lon="-73.20279669">
    <tag k="addr:housenumber" v="47"/>
    <tag k="addr:street" v="North Terrace Drive"/>
    <tag k="addr:state" v="VT"/>
    <tag k="ref:vcgi:esiteid" v="20975"/>
  </node>
  <node id="-4605" visible="true" lat="42.86282933" lon="-73.20387754">
    <tag k="addr:housenumber" v="78"/>
    <tag k="addr:street" v="North Terrace Drive"/>
    <tag k="addr:state" v="VT"/>
    <tag k="ref:vcgi:esiteid" v="20977"/>
  </node>
  <node id="-4608" visible="true" lat="42.86281585" lon="-73.20558166">
    <tag k="addr:housenumber" v="1946"/>
    <tag k="addr:street" v="Monument Avenue"/>
    <tag k="addr:state" v="VT"/>
    <tag k="ref:vcgi:esiteid" v="20980"/>
  </node>
  <node id="-4609" visible="true" lat="42.86280441" lon="-73.20597076">
    <tag k="addr:housenumber" v="1944"/>
    <tag k="addr:street" v="Monument Avenue"/>
    <tag k="addr:state" v="VT"/>
    <tag k="ref:vcgi:esiteid" v="20981"/>
  </node>
  <node id="-4612" visible="true" lat="42.86247678" lon="-73.20173865">
    <tag k="addr:housenumber" v="220"/>
    <tag k="addr:street" v="Southshire Drive"/>
    <tag k="addr:state" v="VT"/>
    <tag k="ref:vcgi:esiteid" v="20984"/>
  </node>
  <node id="-4615" visible="true" lat="42.86222026" lon="-73.20100981">
    <tag k="addr:housenumber" v="245"/>
    <tag k="addr:street" v="Southshire Drive"/>
    <tag k="addr:state" v="VT"/>
    <tag k="ref:vcgi:esiteid" v="20987"/>
  </node>
  <node id="-4623" visible="true" lat="42.86193847" lon="-73.20737457">
    <tag k="addr:housenumber" v="1997"/>
    <tag k="addr:street" v="Monument Avenue"/>
    <tag k="addr:state" v="VT"/>
    <tag k="ref:vcgi:esiteid" v="20995"/>
  </node>
  <node id="-4625" visible="true" lat="42.86171267" lon="-73.20384901">
    <tag k="addr:housenumber" v="117"/>
    <tag k="addr:street" v="Southshire Drive"/>
    <tag k="addr:state" v="VT"/>
    <tag k="ref:vcgi:esiteid" v="20997"/>
  </node>
  <node id="-4628" visible="true" lat="42.8616882" lon="-73.20250541">
    <tag k="addr:housenumber" v="179"/>
    <tag k="addr:street" v="Southshire Drive"/>
    <tag k="addr:state" v="VT"/>
    <tag k="ref:vcgi:esiteid" v="21000"/>
  </node>
  <node id="-4629" visible="true" lat="42.8616447" lon="-73.20472502">
    <tag k="addr:housenumber" v="63"/>
    <tag k="addr:street" v="Southshire Drive"/>
    <tag k="addr:state" v="VT"/>
    <tag k="ref:vcgi:esiteid" v="21001"/>
  </node>
  <node id="-4631" visible="true" lat="42.86166093" lon="-73.20116196">
    <tag k="addr:housenumber" v="34"/>
    <tag k="addr:street" v="Southshire Drive South"/>
    <tag k="addr:state" v="VT"/>
    <tag k="ref:vcgi:esiteid" v="21003"/>
  </node>
  <node id="-4640" visible="true" lat="42.86090445" lon="-73.20153939">
    <tag k="addr:housenumber" v="88"/>
    <tag k="addr:street" v="Southshire Drive South"/>
    <tag k="addr:state" v="VT"/>
    <tag k="ref:vcgi:esiteid" v="21012"/>
  </node>
  <node id="-4642" visible="true" lat="42.86069106" lon="-73.20278167">
    <tag k="addr:housenumber" v="107"/>
    <tag k="addr:street" v="Southshire Drive South"/>
    <tag k="addr:state" v="VT"/>
    <tag k="ref:vcgi:esiteid" v="21014"/>
  </node>
  <node id="-4646" visible="true" lat="42.86033606" lon="-73.20569828">
    <tag k="addr:housenumber" v="2100"/>
    <tag k="addr:street" v="Monument Avenue"/>
    <tag k="addr:state" v="VT"/>
    <tag k="ref:vcgi:esiteid" v="21018"/>
  </node>
  <node id="-4649" visible="true" lat="42.85999677" lon="-73.20316297">
    <tag k="addr:housenumber" v="109"/>
    <tag k="addr:street" v="Southshire Drive South"/>
    <tag k="addr:state" v="VT"/>
    <tag k="ref:vcgi:esiteid" v="21021"/>
  </node>
  <node id="-4652" visible="true" lat="42.85970687" lon="-73.20542144">
    <tag k="addr:housenumber" v="2166"/>
    <tag k="addr:street" v="Monument Avenue"/>
    <tag k="addr:state" v="VT"/>
    <tag k="ref:vcgi:esiteid" v="21024"/>
  </node>
  <node id="-4654" visible="true" lat="42.85958747" lon="-73.17594871">
    <tag k="addr:housenumber" v="1566"/>
    <tag k="addr:street" v="Morgan Street"/>
    <tag k="addr:state" v="VT"/>
    <tag k="ref:vcgi:esiteid" v="21026"/>
  </node>
  <node id="-4657" visible="true" lat="42.85927963" lon="-73.20120239">
    <tag k="addr:housenumber" v="593"/>
    <tag k="addr:street" v="U.S. Route 7 South"/>
    <tag k="addr:state" v="VT"/>
    <tag k="ref:vcgi:esiteid" v="21029"/>
  </node>
  <node id="-4658" visible="true" lat="42.85893632" lon="-73.20645587">
    <tag k="addr:housenumber" v="2199"/>
    <tag k="addr:street" v="Monument Avenue"/>
    <tag k="addr:state" v="VT"/>
    <tag k="ref:vcgi:esiteid" v="21030"/>
  </node>
  <node id="-4659" visible="true" lat="42.85877329" lon="-73.2007778">
    <tag k="addr:housenumber" v="604"/>
    <tag k="addr:street" v="U.S. Route 7 South"/>
    <tag k="addr:state" v="VT"/>
    <tag k="ref:vcgi:esiteid" v="21031"/>
  </node>
  <node id="-4661" visible="true" lat="42.85852066" lon="-73.20179369">
    <tag k="addr:housenumber" v="657"/>
    <tag k="addr:street" v="U.S. Route 7 South"/>
    <tag k="addr:state" v="VT"/>
    <tag k="ref:vcgi:esiteid" v="21033"/>
  </node>
  <node id="-4662" visible="true" lat="42.85839149" lon="-73.17491012">
    <tag k="addr:housenumber" v="958"/>
    <tag k="addr:street" v="South Stream Road"/>
    <tag k="addr:state" v="VT"/>
    <tag k="ref:vcgi:esiteid" v="21034"/>
  </node>
  <node id="-4663" visible="true" lat="42.85816268" lon="-73.20222748">
    <tag k="addr:housenumber" v="693"/>
    <tag k="addr:street" v="U.S. Route 7 South"/>
    <tag k="addr:state" v="VT"/>
    <tag k="ref:vcgi:esiteid" v="21035"/>
  </node>
  <node id="-4664" visible="true" lat="42.85794989" lon="-73.2042351">
    <tag k="addr:housenumber" v="2298"/>
    <tag k="addr:street" v="Monument Avenue"/>
    <tag k="addr:state" v="VT"/>
    <tag k="ref:vcgi:esiteid" v="21036"/>
  </node>
  <node id="-4665" visible="true" lat="42.85764028" lon="-73.20252527">
    <tag k="addr:housenumber" v="709"/>
    <tag k="addr:street" v="U.S. Route 7 South"/>
    <tag k="addr:state" v="VT"/>
    <tag k="ref:vcgi:esiteid" v="21037"/>
  </node>
  <node id="-4669" visible="true" lat="42.85735321" lon="-73.20246887">
    <tag k="addr:housenumber" v="739"/>
    <tag k="addr:street" v="U.S. Route 7 South"/>
    <tag k="addr:state" v="VT"/>
    <tag k="ref:vcgi:esiteid" v="21041"/>
  </node>
  <node id="-4671" visible="true" lat="42.85741806" lon="-73.17380523">
    <tag k="addr:housenumber" v="1014"/>
    <tag k="addr:street" v="South Stream Road"/>
    <tag k="addr:state" v="VT"/>
    <tag k="ref:vcgi:esiteid" v="21043"/>
  </node>
  <node id="-4672" visible="true" lat="42.85717439" lon="-73.20648524">
    <tag k="addr:housenumber" v="2323"/>
    <tag k="addr:street" v="Monument Avenue"/>
    <tag k="addr:state" v="VT"/>
    <tag k="ref:vcgi:esiteid" v="21044"/>
  </node>
  <node id="-4673" visible="true" lat="42.85701892" lon="-73.20292425">
    <tag k="addr:housenumber" v="767"/>
    <tag k="addr:street" v="U.S. Route 7 South"/>
    <tag k="addr:state" v="VT"/>
    <tag k="ref:vcgi:esiteid" v="21045"/>
  </node>
  <node id="-4676" visible="true" lat="42.85648937" lon="-73.20662401">
    <tag k="addr:housenumber" v="2365"/>
    <tag k="addr:street" v="Monument Avenue"/>
    <tag k="addr:state" v="VT"/>
    <tag k="ref:vcgi:esiteid" v="21048"/>
  </node>
  <node id="-4677" visible="true" lat="42.85640716" lon="-73.20314788">
    <tag k="addr:housenumber" v="811"/>
    <tag k="addr:street" v="U.S. Route 7 South"/>
    <tag k="addr:state" v="VT"/>
    <tag k="ref:vcgi:esiteid" v="21049"/>
  </node>
  <node id="-4678" visible="true" lat="42.85618972" lon="-73.21085357">
    <tag k="addr:housenumber" v="2455"/>
    <tag k="addr:street" v="Monument Avenue"/>
    <tag k="addr:state" v="VT"/>
    <tag k="ref:vcgi:esiteid" v="21050"/>
  </node>
  <node id="-4680" visible="true" lat="42.85595952" lon="-73.20350863">
    <tag k="addr:housenumber" v="841"/>
    <tag k="addr:street" v="U.S. Route 7 South"/>
    <tag k="addr:state" v="VT"/>
    <tag k="ref:vcgi:esiteid" v="21052"/>
  </node>
  <node id="-4685" visible="true" lat="42.85549926" lon="-73.1740036">
    <tag k="addr:housenumber" v="1171"/>
    <tag k="addr:street" v="South Stream Road"/>
    <tag k="addr:state" v="VT"/>
    <tag k="ref:vcgi:esiteid" v="21057"/>
  </node>
  <node id="-4687" visible="true" lat="42.85508226" lon="-73.20592665">
    <tag k="addr:housenumber" v="2470"/>
    <tag k="addr:street" v="Monument Avenue"/>
    <tag k="addr:state" v="VT"/>
    <tag k="ref:vcgi:esiteid" v="21059"/>
  </node>
  <node id="-4688" visible="true" lat="42.8551862" lon="-73.17369757">
    <tag k="addr:housenumber" v="1188"/>
    <tag k="addr:street" v="South Stream Road"/>
    <tag k="addr:state" v="VT"/>
    <tag k="ref:vcgi:esiteid" v="21060"/>
  </node>
  <node id="-4689" visible="true" lat="42.85501034" lon="-73.1737165">
    <tag k="addr:housenumber" v="1202"/>
    <tag k="addr:street" v="South Stream Road"/>
    <tag k="addr:state" v="VT"/>
    <tag k="ref:vcgi:esiteid" v="21061"/>
  </node>
  <node id="-4690" visible="true" lat="42.85495952" lon="-73.17246845">
    <tag k="addr:housenumber" v="1158"/>
    <tag k="addr:street" v="South Stream Road"/>
    <tag k="addr:state" v="VT"/>
    <tag k="ref:vcgi:esiteid" v="21062"/>
  </node>
  <node id="-4691" visible="true" lat="42.85485231" lon="-73.1745374">
    <tag k="addr:housenumber" v="1221"/>
    <tag k="addr:street" v="South Stream Road"/>
    <tag k="addr:state" v="VT"/>
    <tag k="ref:vcgi:esiteid" v="21063"/>
  </node>
  <node id="-4692" visible="true" lat="42.85432117" lon="-73.21098453">
    <tag k="addr:housenumber" v="2457"/>
    <tag k="addr:street" v="Monument Avenue"/>
    <tag k="addr:state" v="VT"/>
    <tag k="ref:vcgi:esiteid" v="21064"/>
  </node>
  <node id="-4693" visible="true" lat="42.85448837" lon="-73.17424774">
    <tag k="addr:housenumber" v="1243"/>
    <tag k="addr:street" v="South Stream Road"/>
    <tag k="addr:state" v="VT"/>
    <tag k="ref:vcgi:esiteid" v="21065"/>
  </node>
  <node id="-4694" visible="true" lat="42.85435231" lon="-73.20555314">
    <tag k="addr:housenumber" v="2530"/>
    <tag k="addr:street" v="Monument Avenue"/>
    <tag k="addr:state" v="VT"/>
    <tag k="ref:vcgi:esiteid" v="21066"/>
  </node>
  <node id="-4696" visible="true" lat="42.85414913" lon="-73.20625514">
    <tag k="addr:housenumber" v="2523"/>
    <tag k="addr:street" v="Monument Avenue"/>
    <tag k="addr:state" v="VT"/>
    <tag k="ref:vcgi:esiteid" v="21068"/>
  </node>
  <node id="-4697" visible="true" lat="42.85440342" lon="-73.17470866">
    <tag k="addr:housenumber" v="1247"/>
    <tag k="addr:street" v="South Stream Road"/>
    <tag k="addr:state" v="VT"/>
    <tag k="ref:vcgi:esiteid" v="21069"/>
  </node>
  <node id="-4698" visible="true" lat="42.85405898" lon="-73.20469351">
    <tag k="addr:housenumber" v="979"/>
    <tag k="addr:street" v="U.S. Route 7 South"/>
    <tag k="addr:state" v="VT"/>
    <tag k="ref:vcgi:esiteid" v="21070"/>
  </node>
  <node id="-4700" visible="true" lat="42.85410422" lon="-73.1744237">
    <tag k="addr:housenumber" v="1265"/>
    <tag k="addr:street" v="South Stream Road"/>
    <tag k="addr:state" v="VT"/>
    <tag k="ref:vcgi:esiteid" v="21072"/>
  </node>
  <node id="-4701" visible="true" lat="42.85385538" lon="-73.20257352">
    <tag k="addr:housenumber" v="968"/>
    <tag k="addr:street" v="U.S. Route 7 South"/>
    <tag k="addr:state" v="VT"/>
    <tag k="ref:vcgi:esiteid" v="21073"/>
  </node>
  <node id="-4704" visible="true" lat="42.85314178" lon="-73.17195129">
    <tag k="addr:housenumber" v="110"/>
    <tag k="addr:street" v="Hatchery Road"/>
    <tag k="addr:state" v="VT"/>
    <tag k="ref:vcgi:esiteid" v="21076"/>
  </node>
  <node id="-4706" visible="true" lat="42.8527165" lon="-73.17255119">
    <tag k="addr:housenumber" v="80"/>
    <tag k="addr:street" v="Hatchery Road"/>
    <tag k="addr:state" v="VT"/>
    <tag k="ref:vcgi:esiteid" v="21078"/>
  </node>
  <node id="-4708" visible="true" lat="42.85254669" lon="-73.17190551">
    <tag k="addr:housenumber" v="94"/>
    <tag k="addr:street" v="Hatchery Road"/>
    <tag k="addr:state" v="VT"/>
    <tag k="ref:vcgi:esiteid" v="21080"/>
  </node>
  <node id="-4709" visible="true" lat="42.85251617" lon="-73.1724472">
    <tag k="addr:housenumber" v="60"/>
    <tag k="addr:street" v="Hatchery Road"/>
    <tag k="addr:state" v="VT"/>
    <tag k="ref:vcgi:esiteid" v="21081"/>
  </node>
  <node id="-4721" visible="true" lat="42.85118553" lon="-73.17175252">
    <tag k="addr:housenumber" v="68"/>
    <tag k="addr:street" v="Coleville Road"/>
    <tag k="addr:state" v="VT"/>
    <tag k="ref:vcgi:esiteid" v="21093"/>
  </node>
  <node id="-4723" visible="true" lat="42.85102764" lon="-73.17404789">
    <tag k="addr:housenumber" v="1501"/>
    <tag k="addr:street" v="South Stream Road"/>
    <tag k="addr:state" v="VT"/>
    <tag k="ref:vcgi:esiteid" v="21095"/>
  </node>
  <node id="-4728" visible="true" lat="42.85069819" lon="-73.17148873">
    <tag k="addr:housenumber" v="29"/>
    <tag k="addr:street" v="Sawmill Road"/>
    <tag k="addr:state" v="VT"/>
    <tag k="ref:vcgi:esiteid" v="21100"/>
  </node>
  <node id="-4729" visible="true" lat="42.85072141" lon="-73.16841141">
    <tag k="addr:housenumber" v="242"/>
    <tag k="addr:street" v="Coleville Road"/>
    <tag k="addr:state" v="VT"/>
    <tag k="ref:vcgi:esiteid" v="21101"/>
  </node>
  <node id="-4731" visible="true" lat="42.85056252" lon="-73.1724491">
    <tag k="addr:housenumber" v="19"/>
    <tag k="addr:street" v="Coleville Road"/>
    <tag k="addr:state" v="VT"/>
    <tag k="ref:vcgi:esiteid" v="21103"/>
  </node>
  <node id="-4738" visible="true" lat="42.85019674" lon="-73.17073451">
    <tag k="addr:housenumber" v="77"/>
    <tag k="addr:street" v="Sawmill Road"/>
    <tag k="addr:state" v="VT"/>
    <tag k="ref:vcgi:esiteid" v="21110"/>
  </node>
  <node id="-4739" visible="true" lat="42.8502737" lon="-73.16741376">
    <tag k="addr:housenumber" v="312"/>
    <tag k="addr:street" v="Coleville Road"/>
    <tag k="addr:state" v="VT"/>
    <tag k="ref:vcgi:esiteid" v="21111"/>
  </node>
  <node id="-4741" visible="true" lat="42.85000824" lon="-73.1678737">
    <tag k="addr:housenumber" v="289"/>
    <tag k="addr:street" v="Coleville Road"/>
    <tag k="addr:state" v="VT"/>
    <tag k="ref:vcgi:esiteid" v="21113"/>
  </node>
  <node id="-4748" visible="true" lat="42.84955991" lon="-73.16764427">
    <tag k="addr:housenumber" v="301"/>
    <tag k="addr:street" v="Coleville Road"/>
    <tag k="addr:state" v="VT"/>
    <tag k="ref:vcgi:esiteid" v="21120"/>
  </node>
  <node id="-4751" visible="true" lat="42.84890769" lon="-73.16956665">
    <tag k="addr:housenumber" v="195"/>
    <tag k="addr:street" v="Sawmill Road"/>
    <tag k="addr:state" v="VT"/>
    <tag k="ref:vcgi:esiteid" v="21123"/>
  </node>
  <node id="-4755" visible="true" lat="42.84880837" lon="-73.16914473">
    <tag k="addr:housenumber" v="207"/>
    <tag k="addr:street" v="Sawmill Road"/>
    <tag k="addr:state" v="VT"/>
    <tag k="ref:vcgi:esiteid" v="21127"/>
  </node>
  <node id="-4756" visible="true" lat="42.84866343" lon="-73.16823841">
    <tag k="addr:housenumber" v="240"/>
    <tag k="addr:street" v="Sawmill Road"/>
    <tag k="addr:state" v="VT"/>
    <tag k="ref:vcgi:esiteid" v="21128"/>
  </node>
  <node id="-4762" visible="true" lat="42.84765062" lon="-73.16804256">
    <tag k="addr:housenumber" v="306"/>
    <tag k="addr:street" v="Sawmill Road"/>
    <tag k="addr:state" v="VT"/>
    <tag k="ref:vcgi:esiteid" v="21135"/>
  </node>
  <node id="-4768" visible="true" lat="42.84701724" lon="-73.16788564">
    <tag k="addr:housenumber" v="348"/>
    <tag k="addr:street" v="Sawmill Road"/>
    <tag k="addr:state" v="VT"/>
    <tag k="ref:vcgi:esiteid" v="21141"/>
  </node>
  <node id="-4800" visible="true" lat="42.84259414" lon="-73.16736602">
    <tag k="addr:housenumber" v="644"/>
    <tag k="addr:street" v="Sawmill Road"/>
    <tag k="addr:state" v="VT"/>
    <tag k="ref:vcgi:esiteid" v="21174"/>
  </node>
  <node id="-4804" visible="true" lat="42.84217826" lon="-73.17272914">
    <tag k="addr:housenumber" v="2105"/>
    <tag k="addr:street" v="South Stream Road"/>
    <tag k="addr:state" v="VT"/>
    <tag k="ref:vcgi:esiteid" v="21179"/>
  </node>
  <node id="-4814" visible="true" lat="42.84122647" lon="-73.17040922">
    <tag k="addr:housenumber" v="2190"/>
    <tag k="addr:street" v="South Stream Road"/>
    <tag k="addr:state" v="VT"/>
    <tag k="ref:vcgi:esiteid" v="21190"/>
  </node>
  <node id="-4821" visible="true" lat="42.84037768" lon="-73.17219815">
    <tag k="addr:housenumber" v="2229"/>
    <tag k="addr:street" v="South Stream Road"/>
    <tag k="addr:state" v="VT"/>
    <tag k="ref:vcgi:esiteid" v="21197"/>
  </node>
  <node id="-4822" visible="true" lat="42.84016132" lon="-73.17155078">
    <tag k="addr:housenumber" v="2228"/>
    <tag k="addr:street" v="South Stream Road"/>
    <tag k="addr:state" v="VT"/>
    <tag k="ref:vcgi:esiteid" v="21198"/>
  </node>
  <node id="-4832" visible="true" lat="42.83885594" lon="-73.16961618">
    <tag k="addr:housenumber" v="2280"/>
    <tag k="addr:street" v="South Stream Road"/>
    <tag k="addr:state" v="VT"/>
    <tag k="ref:vcgi:esiteid" v="21208"/>
  </node>
  <node id="-4833" visible="true" lat="42.83889347" lon="-73.1670116">
    <tag k="addr:housenumber" v="951"/>
    <tag k="addr:street" v="Sawmill Road"/>
    <tag k="addr:state" v="VT"/>
    <tag k="ref:vcgi:esiteid" v="21209"/>
  </node>
  <node id="-4835" visible="true" lat="42.83824759" lon="-73.17164264">
    <tag k="addr:housenumber" v="2367"/>
    <tag k="addr:street" v="South Stream Road"/>
    <tag k="addr:state" v="VT"/>
    <tag k="ref:vcgi:esiteid" v="21211"/>
  </node>
  <node id="-4836" visible="true" lat="42.83820313" lon="-73.17037642">
    <tag k="addr:housenumber" v="2414"/>
    <tag k="addr:street" v="South Stream Road"/>
    <tag k="addr:state" v="VT"/>
    <tag k="ref:vcgi:esiteid" v="21212"/>
  </node>
  <node id="-4837" visible="true" lat="42.83775329" lon="-73.17138671">
    <tag k="addr:housenumber" v="2421"/>
    <tag k="addr:street" v="South Stream Road"/>
    <tag k="addr:state" v="VT"/>
    <tag k="ref:vcgi:esiteid" v="21213"/>
  </node>
  <node id="-4838" visible="true" lat="42.83724552" lon="-73.16990027">
    <tag k="addr:housenumber" v="2470"/>
    <tag k="addr:street" v="South Stream Road"/>
    <tag k="addr:state" v="VT"/>
    <tag k="ref:vcgi:esiteid" v="21214"/>
  </node>
  <node id="-4839" visible="true" lat="42.83715921" lon="-73.16662015">
    <tag k="addr:housenumber" v="1054"/>
    <tag k="addr:street" v="Sawmill Road"/>
    <tag k="addr:state" v="VT"/>
    <tag k="ref:vcgi:esiteid" v="21215"/>
  </node>
  <node id="-4840" visible="true" lat="42.83700099" lon="-73.16990486">
    <tag k="addr:housenumber" v="2474"/>
    <tag k="addr:street" v="South Stream Road"/>
    <tag k="addr:state" v="VT"/>
    <tag k="ref:vcgi:esiteid" v="21216"/>
  </node>
  <node id="-4844" visible="true" lat="42.89944448" lon="-73.19024676">
    <tag k="addr:housenumber" v="264"/>
    <tag k="addr:street" v="Shields Drive"/>
    <tag k="addr:state" v="VT"/>
    <tag k="ref:vcgi:esiteid" v="21220"/>
  </node>
  <node id="-4846" visible="true" lat="42.9104842" lon="-73.20153705">
    <tag k="addr:housenumber" v="544"/>
    <tag k="addr:street" v="Apple Hill Road"/>
    <tag k="addr:state" v="VT"/>
    <tag k="ref:vcgi:esiteid" v="21222"/>
  </node>
  <node id="-4847" visible="true" lat="42.90975952" lon="-73.20246887">
    <tag k="addr:housenumber" v="589"/>
    <tag k="addr:street" v="Apple Hill Road"/>
    <tag k="addr:state" v="VT"/>
    <tag k="ref:vcgi:esiteid" v="21223"/>
  </node>
  <node id="-4849" visible="true" lat="42.87844406" lon="-73.22189896">
    <tag k="addr:housenumber" v="253"/>
    <tag k="addr:street" v="Fox Hill Road"/>
    <tag k="addr:state" v="VT"/>
    <tag k="ref:vcgi:esiteid" v="21225"/>
  </node>
  <node id="-4885" visible="true" lat="42.88399898" lon="-73.22473429">
    <tag k="addr:housenumber" v="11"/>
    <tag k="addr:street" v="Jennings Drive"/>
    <tag k="addr:state" v="VT"/>
    <tag k="ref:vcgi:esiteid" v="21279"/>
  </node>
  <node id="-4886" visible="true" lat="42.88404477" lon="-73.22401486">
    <tag k="addr:housenumber" v="9"/>
    <tag k="addr:street" v="Jennings Drive"/>
    <tag k="addr:state" v="VT"/>
    <tag k="ref:vcgi:esiteid" v="21280"/>
  </node>
  <node id="-4887" visible="true" lat="42.88380726" lon="-73.22325247">
    <tag k="addr:housenumber" v="7"/>
    <tag k="addr:street" v="Jennings Drive"/>
    <tag k="addr:state" v="VT"/>
    <tag k="ref:vcgi:esiteid" v="21281"/>
  </node>
  <node id="-4888" visible="true" lat="42.88381477" lon="-73.22540243">
    <tag k="addr:housenumber" v="13"/>
    <tag k="addr:street" v="Jennings Drive"/>
    <tag k="addr:state" v="VT"/>
    <tag k="ref:vcgi:esiteid" v="21282"/>
  </node>
  <node id="-4889" visible="true" lat="42.88369226" lon="-73.22612081">
    <tag k="addr:housenumber" v="15"/>
    <tag k="addr:street" v="Jennings Drive"/>
    <tag k="addr:state" v="VT"/>
    <tag k="ref:vcgi:esiteid" v="21283"/>
  </node>
  <node id="-4890" visible="true" lat="42.88352582" lon="-73.22454376">
    <tag k="addr:housenumber" v="8"/>
    <tag k="addr:street" v="Jennings Drive"/>
    <tag k="addr:state" v="VT"/>
    <tag k="ref:vcgi:esiteid" v="21284"/>
  </node>
  <node id="-4891" visible="true" lat="42.88352871" lon="-73.22375417">
    <tag k="addr:housenumber" v="4"/>
    <tag k="addr:street" v="Jennings Drive"/>
    <tag k="addr:state" v="VT"/>
    <tag k="ref:vcgi:esiteid" v="21285"/>
  </node>
  <node id="-4892" visible="true" lat="42.88333609" lon="-73.22537422">
    <tag k="addr:housenumber" v="10"/>
    <tag k="addr:street" v="Jennings Drive"/>
    <tag k="addr:state" v="VT"/>
    <tag k="ref:vcgi:esiteid" v="21286"/>
  </node>
  <node id="-4893" visible="true" lat="42.88335447" lon="-73.22675804">
    <tag k="addr:housenumber" v="17"/>
    <tag k="addr:street" v="Jennings Drive"/>
    <tag k="addr:state" v="VT"/>
    <tag k="ref:vcgi:esiteid" v="21287"/>
  </node>
  <node id="-4894" visible="true" lat="42.88311778" lon="-73.22610995">
    <tag k="addr:housenumber" v="12"/>
    <tag k="addr:street" v="Jennings Drive"/>
    <tag k="addr:state" v="VT"/>
    <tag k="ref:vcgi:esiteid" v="21288"/>
  </node>
  <node id="-4895" visible="true" lat="42.88301921" lon="-73.22279924">
    <tag k="addr:housenumber" v="3"/>
    <tag k="addr:street" v="Jennings Drive"/>
    <tag k="addr:state" v="VT"/>
    <tag k="ref:vcgi:esiteid" v="21289"/>
  </node>
  <node id="-4896" visible="true" lat="42.88292143" lon="-73.22714871">
    <tag k="addr:housenumber" v="19"/>
    <tag k="addr:street" v="Jennings Drive"/>
    <tag k="addr:state" v="VT"/>
    <tag k="ref:vcgi:esiteid" v="21290"/>
  </node>
  <node id="-4897" visible="true" lat="42.88264424" lon="-73.22613501">
    <tag k="addr:housenumber" v="14"/>
    <tag k="addr:street" v="Jennings Drive"/>
    <tag k="addr:state" v="VT"/>
    <tag k="ref:vcgi:esiteid" v="21291"/>
  </node>
  <node id="-4898" visible="true" lat="42.88262557" lon="-73.22361755">
    <tag k="addr:housenumber" v="2"/>
    <tag k="addr:street" v="Jennings Drive"/>
    <tag k="addr:state" v="VT"/>
    <tag k="ref:vcgi:esiteid" v="21292"/>
  </node>
  <node id="-4899" visible="true" lat="42.8825442" lon="-73.22270545">
    <tag k="addr:housenumber" v="1"/>
    <tag k="addr:street" v="Jennings Drive"/>
    <tag k="addr:state" v="VT"/>
    <tag k="ref:vcgi:esiteid" v="21293"/>
  </node>
  <node id="-4900" visible="true" lat="42.88237683" lon="-73.2269979">
    <tag k="addr:housenumber" v="21"/>
    <tag k="addr:street" v="Jennings Drive"/>
    <tag k="addr:state" v="VT"/>
    <tag k="ref:vcgi:esiteid" v="21294"/>
  </node>
  <node id="-4917" visible="true" lat="42.91112237" lon="-73.1927299">
    <tag k="addr:housenumber" v="358"/>
    <tag k="addr:street" v="Willow Road"/>
    <tag k="addr:state" v="VT"/>
    <tag k="ref:vcgi:esiteid" v="21313"/>
  </node>
  <node id="-4918" visible="true" lat="42.9051094" lon="-73.19837188">
    <tag k="addr:housenumber" v="907"/>
    <tag k="addr:street" v="Willow Road"/>
    <tag k="addr:state" v="VT"/>
    <tag k="ref:vcgi:esiteid" v="21314"/>
  </node>
  <node id="-4919" visible="true" lat="42.90942493" lon="-73.19097876">
    <tag k="addr:housenumber" v="100"/>
    <tag k="addr:street" v="Duffy Drive"/>
    <tag k="addr:state" v="VT"/>
    <tag k="ref:vcgi:esiteid" v="21315"/>
  </node>
  <node id="-4937" visible="true" lat="42.88624375" lon="-73.23236053">
    <tag k="addr:housenumber" v="842"/>
    <tag k="addr:street" v="Walloomsac Road"/>
    <tag k="addr:state" v="VT"/>
    <tag k="ref:vcgi:esiteid" v="21333"/>
  </node>
  <node id="-4938" visible="true" lat="42.91130063" lon="-73.20399465">
    <tag k="addr:housenumber" v="531"/>
    <tag k="addr:street" v="Apple Hill Road"/>
    <tag k="addr:state" v="VT"/>
    <tag k="ref:vcgi:esiteid" v="21334"/>
  </node>
  <node id="-4946" visible="true" lat="42.91438836" lon="-73.21784216">
    <tag k="addr:housenumber" v="340"/>
    <tag k="addr:street" v="Rice Lane"/>
    <tag k="addr:state" v="VT"/>
    <tag k="ref:vcgi:esiteid" v="21342"/>
  </node>
  <node id="-4998" visible="true" lat="42.91048771" lon="-73.19422121">
    <tag k="addr:housenumber" v="401"/>
    <tag k="addr:street" v="Willow Road"/>
    <tag k="addr:state" v="VT"/>
    <tag k="ref:vcgi:esiteid" v="21394"/>
  </node>
  <node id="-5003" visible="true" lat="42.88424157" lon="-73.22912523">
    <tag k="addr:housenumber" v="152"/>
    <tag k="addr:street" v="Gypsy Lane"/>
    <tag k="addr:state" v="VT"/>
    <tag k="ref:vcgi:esiteid" v="21399"/>
  </node>
  <node id="-5094" visible="true" lat="42.86746389" lon="-73.20778428">
    <tag k="addr:housenumber" v="21"/>
    <tag k="addr:street" v="Garden Lane"/>
    <tag k="addr:state" v="VT"/>
    <tag k="ref:vcgi:esiteid" v="314358"/>
  </node>
  <node id="-5095" visible="true" lat="42.8672531" lon="-73.20735542">
    <tag k="addr:housenumber" v="45"/>
    <tag k="addr:street" v="Garden Lane"/>
    <tag k="addr:state" v="VT"/>
    <tag k="ref:vcgi:esiteid" v="314359"/>
  </node>
  <node id="-5111" visible="true" lat="42.87988213" lon="-73.2222356">
    <tag k="addr:housenumber" v="169"/>
    <tag k="addr:street" v="Fox Hill Road"/>
    <tag k="addr:state" v="VT"/>
    <tag k="ref:vcgi:esiteid" v="314504"/>
  </node>
  <node id="-5112" visible="true" lat="42.87940892" lon="-73.22208521">
    <tag k="addr:housenumber" v="203"/>
    <tag k="addr:street" v="Fox Hill Road"/>
    <tag k="addr:state" v="VT"/>
    <tag k="ref:vcgi:esiteid" v="314505"/>
  </node>
  <node id="-5113" visible="true" lat="42.87922897" lon="-73.22107581">
    <tag k="addr:housenumber" v="210"/>
    <tag k="addr:street" v="Fox Hill Road"/>
    <tag k="addr:state" v="VT"/>
    <tag k="ref:vcgi:esiteid" v="314506"/>
  </node>
  <node id="-5119" visible="true" lat="42.87811637" lon="-73.22183456">
    <tag k="addr:housenumber" v="281"/>
    <tag k="addr:street" v="Fox Hill Road"/>
    <tag k="addr:state" v="VT"/>
    <tag k="ref:vcgi:esiteid" v="314512"/>
  </node>
  <node id="-5143" visible="true" lat="42.90965426" lon="-73.19121849">
    <tag k="addr:housenumber" v="120"/>
    <tag k="addr:street" v="Duffy Drive"/>
    <tag k="addr:state" v="VT"/>
    <tag k="ref:vcgi:esiteid" v="314537"/>
  </node>
  <node id="-5144" visible="true" lat="42.9087284" lon="-73.19035391">
    <tag k="addr:housenumber" v="46"/>
    <tag k="addr:street" v="Duffy Drive"/>
    <tag k="addr:state" v="VT"/>
    <tag k="ref:vcgi:esiteid" v="314538"/>
  </node>
  <node id="-5151" visible="true" lat="42.89197866" lon="-73.22598447">
    <tag k="addr:housenumber" v="495"/>
    <tag k="addr:street" v="Fairview Street"/>
    <tag k="addr:state" v="VT"/>
    <tag k="ref:vcgi:esiteid" v="314546"/>
  </node>
  <node id="-5224" visible="true" lat="42.90835228" lon="-73.22233549">
    <tag k="addr:housenumber" v="51"/>
    <tag k="addr:street" v="Hannaford Square"/>
    <tag k="addr:state" v="VT"/>
    <tag k="ref:vcgi:esiteid" v="314628"/>
  </node>
  <node id="-5225" visible="true" lat="42.88500974" lon="-73.2294369">
    <tag k="addr:housenumber" v="210"/>
    <tag k="addr:street" v="Gypsy Lane"/>
    <tag k="addr:state" v="VT"/>
    <tag k="ref:vcgi:esiteid" v="314629"/>
  </node>
  <node id="-5232" visible="true" lat="42.89542453" lon="-73.20090974">
    <tag k="addr:housenumber" v="10"/>
    <tag k="addr:street" v="Kocher Drive"/>
    <tag k="addr:state" v="VT"/>
    <tag k="ref:vcgi:esiteid" v="314636"/>
  </node>
  <node id="-5262" visible="true" lat="42.8651959" lon="-73.20706472">
    <tag k="addr:housenumber" v="54"/>
    <tag k="addr:street" v="Meadowbrook Drive"/>
    <tag k="addr:state" v="VT"/>
    <tag k="ref:vcgi:esiteid" v="314670"/>
  </node>
  <node id="-5282" visible="true" lat="42.87711039" lon="-73.27058474">
    <tag k="addr:housenumber" v="3001"/>
    <tag k="addr:street" v="West Road"/>
    <tag k="addr:state" v="VT"/>
    <tag k="ref:vcgi:esiteid" v="314692"/>
  </node>
  <node id="-5328" visible="true" lat="42.90069477" lon="-73.18928631">
    <tag k="addr:housenumber" v="395"/>
    <tag k="addr:street" v="Shields Drive"/>
    <tag k="addr:state" v="VT"/>
    <tag k="ref:vcgi:esiteid" v="314739"/>
  </node>
  <node id="-5344" visible="true" lat="42.90985588" lon="-73.22024482">
    <tag k="addr:housenumber" v="751"/>
    <tag k="addr:street" v="North Bennington Road"/>
    <tag k="addr:state" v="VT"/>
    <tag k="ref:vcgi:esiteid" v="314755"/>
  </node>
  <node id="-5346" visible="true" lat="42.88119915" lon="-73.18797008">
    <tag k="addr:housenumber" v="212"/>
    <tag k="addr:street" v="Safford Street"/>
    <tag k="addr:state" v="VT"/>
    <tag k="ref:vcgi:esiteid" v="314757"/>
  </node>
  <node id="-5376" visible="true" lat="42.91974566" lon="-73.18539008">
    <tag k="addr:housenumber" v="66"/>
    <tag k="addr:street" v="Crossover Road"/>
    <tag k="addr:state" v="VT"/>
    <tag k="ref:vcgi:esiteid" v="314787"/>
  </node>
  <node id="-5407" visible="true" lat="42.88238018" lon="-73.19995019">
    <tag k="addr:housenumber" v="130"/>
    <tag k="addr:street" v="River Street"/>
    <tag k="addr:state" v="VT"/>
    <tag k="ref:vcgi:esiteid" v="314819"/>
  </node>
  <node id="-5455" visible="true" lat="42.88572351" lon="-73.22994066">
    <tag k="addr:housenumber" v="250"/>
    <tag k="addr:street" v="Gypsy Lane"/>
    <tag k="addr:state" v="VT"/>
    <tag k="ref:vcgi:esiteid" v="317234"/>
  </node>
  <node id="-5457" visible="true" lat="42.88008769" lon="-73.19996915">
    <tag k="addr:housenumber" v="262"/>
    <tag k="addr:street" v="Main Street"/>
    <tag k="addr:state" v="VT"/>
    <tag k="ref:vcgi:esiteid" v="317245"/>
  </node>
  <node id="-5482" visible="true" lat="42.874921" lon="-73.27480107">
    <tag k="addr:housenumber" v="3351"/>
    <tag k="addr:street" v="West Road"/>
    <tag k="addr:state" v="VT"/>
    <tag k="ref:vcgi:esiteid" v="317929"/>
  </node>
  <node id="-5484" visible="true" lat="42.88419816" lon="-73.23042966">
    <tag k="addr:housenumber" v="109"/>
    <tag k="addr:street" v="Village Lane"/>
    <tag k="addr:state" v="VT"/>
    <tag k="ref:vcgi:esiteid" v="318281"/>
  </node>
  <node id="-5494" visible="true" lat="42.87766422" lon="-73.22023457">
    <tag k="addr:housenumber" v="801"/>
    <tag k="addr:street" v="Fox Hill Road"/>
    <tag k="addr:state" v="VT"/>
    <tag k="ref:vcgi:esiteid" v="326653"/>
  </node>
  <node id="-5496" visible="true" lat="42.92821686" lon="-73.20953931">
    <tag k="addr:housenumber" v="1900"/>
    <tag k="addr:street" v="Harwood Hill Road"/>
    <tag k="addr:state" v="VT"/>
    <tag k="ref:vcgi:esiteid" v="327631"/>
  </node>
  <node id="-5534" visible="true" lat="42.85045149" lon="-73.1722669">
    <tag k="addr:housenumber" v="21"/>
    <tag k="addr:street" v="Coleville Road"/>
    <tag k="addr:state" v="VT"/>
    <tag k="ref:vcgi:esiteid" v="330103"/>
  </node>
  <node id="-5540" visible="true" lat="42.88346205" lon="-73.22296987">
    <tag k="addr:housenumber" v="5"/>
    <tag k="addr:street" v="Jennings Drive"/>
    <tag k="addr:state" v="VT"/>
    <tag k="ref:vcgi:esiteid" v="331587"/>
  </node>
  <node id="-5554" visible="true" lat="42.89660857" lon="-73.2031254">
    <tag k="addr:housenumber" v="200"/>
    <tag k="addr:street" v="Lovers Lane"/>
    <tag k="addr:state" v="VT"/>
    <tag k="ref:vcgi:esiteid" v="335604"/>
  </node>
  <node id="-5560" visible="true" lat="42.86636855" lon="-73.20590551">
    <tag k="addr:housenumber" v="197"/>
    <tag k="addr:street" v="Meadowbrook Drive"/>
    <tag k="addr:state" v="VT"/>
    <tag k="ref:vcgi:esiteid" v="336101"/>
  </node>
  <node id="-5593" visible="true" lat="42.87526159" lon="-73.27511323">
    <tag k="addr:housenumber" v="3353"/>
    <tag k="addr:street" v="West Road"/>
    <tag k="addr:state" v="VT"/>
    <tag k="ref:vcgi:esiteid" v="336301"/>
  </node>
  <node id="-5606" visible="true" lat="42.85478517" lon="-73.20412547">
    <tag k="addr:housenumber" v="921"/>
    <tag k="addr:street" v="U.S. Route 7 South"/>
    <tag k="addr:state" v="VT"/>
    <tag k="ref:vcgi:esiteid" v="338210"/>
  </node>
  <node id="-5610" visible="true" lat="42.90756844" lon="-73.21088317">
    <tag k="addr:housenumber" v="483"/>
    <tag k="addr:street" v="Harwood Hill Road"/>
    <tag k="addr:state" v="VT"/>
    <tag k="ref:vcgi:esiteid" v="338945"/>
  </node>
  <node id="-5665" visible="true" lat="42.88559329" lon="-73.18718099">
    <tag k="addr:housenumber" v="125"/>
    <tag k="addr:street" v="Lyons Street"/>
    <tag k="addr:state" v="VT"/>
    <tag k="ref:vcgi:esiteid" v="341488"/>
  </node>
  <node id="-5701" visible="true" lat="42.85590257" lon="-73.20221113">
    <tag k="addr:housenumber" v="824"/>
    <tag k="addr:street" v="U.S. Route 7 South"/>
    <tag k="addr:state" v="VT"/>
    <tag k="ref:vcgi:esiteid" v="342667"/>
  </node>
  <node id="-5717" visible="true" lat="42.894269" lon="-73.17101626">
    <tag k="addr:housenumber" v="800"/>
    <tag k="addr:street" v="Bedrock Road"/>
    <tag k="addr:state" v="VT"/>
    <tag k="ref:vcgi:esiteid" v="344971"/>
  </node>
  <node id="-5753" visible="true" lat="42.92072368" lon="-73.17972889">
    <tag k="addr:housenumber" v="2200"/>
    <tag k="addr:street" v="Chapel Road"/>
    <tag k="addr:state" v="VT"/>
    <tag k="ref:vcgi:esiteid" v="445515"/>
  </node>
  <node id="-5761" visible="true" lat="42.90918314" lon="-73.19574314">
    <tag k="addr:housenumber" v="561"/>
    <tag k="addr:street" v="Willow Road"/>
    <tag k="addr:state" v="VT"/>
    <tag k="ref:vcgi:esiteid" v="447827"/>
  </node>
  <node id="-5780" visible="true" lat="42.85192788" lon="-73.17435448">
    <tag k="addr:housenumber" v="1393"/>
    <tag k="addr:street" v="South Stream Road"/>
    <tag k="addr:state" v="VT"/>
    <tag k="ref:vcgi:esiteid" v="451000"/>
  </node>
  <node id="-5819" visible="true" lat="42.84887834" lon="-73.16810949">
    <tag k="addr:housenumber" v="232"/>
    <tag k="addr:street" v="Sawmill Road"/>
    <tag k="addr:state" v="VT"/>
    <tag k="ref:vcgi:esiteid" v="455063"/>
  </node>
  <node id="-5828" visible="true" lat="42.87696964" lon="-73.26494922">
    <tag k="addr:housenumber" v="2809"/>
    <tag k="addr:street" v="West Road"/>
    <tag k="addr:state" v="VT"/>
    <tag k="ref:vcgi:esiteid" v="610834"/>
  </node>
  <node id="-5835" visible="true" lat="42.89812449" lon="-73.18712341">
    <tag k="addr:housenumber" v="261"/>
    <tag k="addr:street" v="Shields Drive"/>
    <tag k="addr:state" v="VT"/>
    <tag k="ref:vcgi:esiteid" v="611297"/>
  </node>
  <node id="-5842" visible="true" lat="42.91000163" lon="-73.23996057">
    <tag k="addr:housenumber" v="419"/>
    <tag k="addr:street" v="Murphy Road"/>
    <tag k="addr:state" v="VT"/>
    <tag k="ref:vcgi:esiteid" v="613577"/>
  </node>
  <node id="-5846" visible="true" lat="42.84016959" lon="-73.17073352">
    <tag k="addr:housenumber" v="2226"/>
    <tag k="addr:street" v="South Stream Road"/>
    <tag k="addr:state" v="VT"/>
    <tag k="ref:vcgi:esiteid" v="617711"/>
  </node>
  <node id="-5848" visible="true" lat="42.85546157" lon="-73.20414849">
    <tag k="addr:housenumber" v="885"/>
    <tag k="addr:street" v="U.S. Route 7 South"/>
    <tag k="addr:state" v="VT"/>
    <tag k="ref:vcgi:esiteid" v="617947"/>
  </node>
  <node id="-5879" visible="true" lat="42.87809595" lon="-73.26807388">
    <tag k="addr:housenumber" v="2989"/>
    <tag k="addr:street" v="West Road"/>
    <tag k="addr:state" v="VT"/>
    <tag k="ref:vcgi:esiteid" v="750139"/>
  </node>
  <node id="-5887" visible="true" lat="42.85461729" lon="-73.20219911">
    <tag k="addr:housenumber" v="922"/>
    <tag k="addr:street" v="U.S. Route 7 South"/>
    <tag k="addr:state" v="VT"/>
    <tag k="ref:vcgi:esiteid" v="750345"/>
  </node>
  <node id="-5893" visible="true" lat="42.86429834" lon="-73.23293672">
    <tag k="addr:housenumber" v="4690"/>
    <tag k="addr:street" v="Bluestone Road"/>
    <tag k="addr:state" v="VT"/>
    <tag k="ref:vcgi:esiteid" v="751796"/>
  </node>
  <node id="-5910" visible="true" lat="42.91931911" lon="-73.18595471">
    <tag k="addr:housenumber" v="1807"/>
    <tag k="addr:street" v="East Road"/>
    <tag k="addr:state" v="VT"/>
    <tag k="ref:vcgi:esiteid" v="753118"/>
  </node>
  <node id="-5914" visible="true" lat="42.90074038" lon="-73.18656853">
    <tag k="addr:housenumber" v="359"/>
    <tag k="addr:street" v="Shields Drive"/>
    <tag k="addr:state" v="VT"/>
    <tag k="ref:vcgi:esiteid" v="754117"/>
  </node>
  <node id="-5917" visible="true" lat="42.90929732" lon="-73.22008904">
    <tag k="addr:housenumber" v="699"/>
    <tag k="addr:street" v="North Bennington Road"/>
    <tag k="addr:state" v="VT"/>
    <tag k="ref:vcgi:esiteid" v="754976"/>
  </node>
  <node id="-5951" visible="true" lat="42.88971473" lon="-73.24666816">
    <tag k="addr:housenumber" v="239"/>
    <tag k="addr:street" v="State Road"/>
    <tag k="addr:state" v="VT"/>
    <tag k="ref:vcgi:esiteid" v="758182"/>
  </node>
  <node id="-6003" visible="true" lat="42.8664024" lon="-73.21312987">
    <tag k="addr:housenumber" v="354"/>
    <tag k="addr:street" v="Bird Hill"/>
    <tag k="addr:state" v="VT"/>
    <tag k="ref:vcgi:esiteid" v="766263"/>
  </node>
</osm>
