<?xml version="1.0" encoding="UTF-8"?>
<osm version="0.6" generator="JOSM" upload="false">
  <node id="-271" visible="true" lat="43.70647586" lon="-73.31021734">
    <tag k="addr:city" v="Benson"/>
    <tag k="addr:housenumber" v="745"/>
    <tag k="addr:street" v="Lake Road"/>
    <tag k="addr:state" v="VT"/>
    <tag k="ref:vcgi:esiteid" v="21616"/>
  </node>
  <node id="-368" visible="true" lat="43.70970607" lon="-73.31070883">
    <tag k="addr:city" v="Benson"/>
    <tag k="addr:housenumber" v="2801"/>
    <tag k="addr:street" v="Stage Road"/>
    <tag k="addr:state" v="VT"/>
    <tag k="ref:vcgi:esiteid" v="21715"/>
  </node>
  <node id="-369" visible="true" lat="43.70981164" lon="-73.30999242">
    <tag k="addr:city" v="Benson"/>
    <tag k="addr:housenumber" v="2814"/>
    <tag k="addr:street" v="Stage Road"/>
    <tag k="addr:state" v="VT"/>
    <tag k="ref:vcgi:esiteid" v="21716"/>
  </node>
  <node id="-370" visible="true" lat="43.70957328" lon="-73.30998936">
    <tag k="addr:city" v="Benson"/>
    <tag k="addr:housenumber" v="2802"/>
    <tag k="addr:street" v="Stage Road"/>
    <tag k="addr:state" v="VT"/>
    <tag k="ref:vcgi:esiteid" v="21717"/>
  </node>
  <node id="-372" visible="true" lat="43.70936166" lon="-73.31083312">
    <tag k="addr:city" v="Benson"/>
    <tag k="addr:housenumber" v="2793"/>
    <tag k="addr:street" v="Stage Road"/>
    <tag k="addr:state" v="VT"/>
    <tag k="ref:vcgi:esiteid" v="21719"/>
  </node>
  <node id="-373" visible="true" lat="43.70928716" lon="-73.30999751">
    <tag k="addr:city" v="Benson"/>
    <tag k="addr:housenumber" v="2774"/>
    <tag k="addr:street" v="Stage Road"/>
    <tag k="addr:state" v="VT"/>
    <tag k="ref:vcgi:esiteid" v="21720"/>
  </node>
  <node id="-375" visible="true" lat="43.70889819" lon="-73.31078753">
    <tag k="addr:city" v="Benson"/>
    <tag k="addr:housenumber" v="2745"/>
    <tag k="addr:street" v="Stage Road"/>
    <tag k="addr:state" v="VT"/>
    <tag k="ref:vcgi:esiteid" v="21722"/>
  </node>
  <node id="-376" visible="true" lat="43.7087021" lon="-73.31128298">
    <tag k="addr:city" v="Benson"/>
    <tag k="addr:housenumber" v="2747"/>
    <tag k="addr:street" v="Stage Road"/>
    <tag k="addr:state" v="VT"/>
    <tag k="ref:vcgi:esiteid" v="21723"/>
  </node>
  <node id="-381" visible="true" lat="43.70835198" lon="-73.30963507">
    <tag k="addr:city" v="Benson"/>
    <tag k="addr:housenumber" v="2724"/>
    <tag k="addr:street" v="Stage Road"/>
    <tag k="addr:state" v="VT"/>
    <tag k="ref:vcgi:esiteid" v="21728"/>
  </node>
  <node id="-382" visible="true" lat="43.70808792" lon="-73.31004333">
    <tag k="addr:city" v="Benson"/>
    <tag k="addr:housenumber" v="2702"/>
    <tag k="addr:street" v="Stage Road"/>
    <tag k="addr:state" v="VT"/>
    <tag k="ref:vcgi:esiteid" v="21729"/>
  </node>
  <node id="-384" visible="true" lat="43.7078484" lon="-73.31072123">
    <tag k="addr:city" v="Benson"/>
    <tag k="addr:housenumber" v="2683"/>
    <tag k="addr:street" v="Stage Road"/>
    <tag k="addr:state" v="VT"/>
    <tag k="ref:vcgi:esiteid" v="21731"/>
  </node>
  <node id="-385" visible="true" lat="43.70786662" lon="-73.31009655">
    <tag k="addr:city" v="Benson"/>
    <tag k="addr:housenumber" v="2680"/>
    <tag k="addr:street" v="Stage Road"/>
    <tag k="addr:state" v="VT"/>
    <tag k="ref:vcgi:esiteid" v="21732"/>
  </node>
  <node id="-386" visible="true" lat="43.70762086" lon="-73.31012109">
    <tag k="addr:city" v="Benson"/>
    <tag k="addr:housenumber" v="2670"/>
    <tag k="addr:street" v="Stage Road"/>
    <tag k="addr:state" v="VT"/>
    <tag k="ref:vcgi:esiteid" v="21733"/>
  </node>
  <node id="-387" visible="true" lat="43.70749282" lon="-73.31065368">
    <tag k="addr:city" v="Benson"/>
    <tag k="addr:housenumber" v="2659"/>
    <tag k="addr:street" v="Stage Road"/>
    <tag k="addr:state" v="VT"/>
    <tag k="ref:vcgi:esiteid" v="21734"/>
  </node>
  <node id="-388" visible="true" lat="43.70728223" lon="-73.3101647">
    <tag k="addr:city" v="Benson"/>
    <tag k="addr:housenumber" v="2646"/>
    <tag k="addr:street" v="Stage Road"/>
    <tag k="addr:state" v="VT"/>
    <tag k="ref:vcgi:esiteid" v="21735"/>
  </node>
  <node id="-389" visible="true" lat="43.70734646" lon="-73.31071625">
    <tag k="addr:city" v="Benson"/>
    <tag k="addr:housenumber" v="2647"/>
    <tag k="addr:street" v="Stage Road"/>
    <tag k="addr:state" v="VT"/>
    <tag k="ref:vcgi:esiteid" v="21736"/>
  </node>
  <node id="-391" visible="true" lat="43.70712661" lon="-73.31008911">
    <tag k="addr:city" v="Benson"/>
    <tag k="addr:housenumber" v="2626"/>
    <tag k="addr:street" v="Stage Road"/>
    <tag k="addr:state" v="VT"/>
    <tag k="ref:vcgi:esiteid" v="21739"/>
  </node>
  <node id="-392" visible="true" lat="43.70702512" lon="-73.31025185">
    <tag k="addr:city" v="Benson"/>
    <tag k="addr:housenumber" v="2618"/>
    <tag k="addr:street" v="Stage Road"/>
    <tag k="addr:state" v="VT"/>
    <tag k="ref:vcgi:esiteid" v="21740"/>
  </node>
  <node id="-394" visible="true" lat="43.70696924" lon="-73.31081817">
    <tag k="addr:city" v="Benson"/>
    <tag k="addr:housenumber" v="2623"/>
    <tag k="addr:street" v="Stage Road"/>
    <tag k="addr:state" v="VT"/>
    <tag k="ref:vcgi:esiteid" v="21742"/>
  </node>
  <node id="-397" visible="true" lat="43.70693151" lon="-73.31265758">
    <tag k="addr:city" v="Benson"/>
    <tag k="addr:housenumber" v="870"/>
    <tag k="addr:street" v="Lake Road"/>
    <tag k="addr:state" v="VT"/>
    <tag k="ref:vcgi:esiteid" v="21745"/>
  </node>
  <node id="-398" visible="true" lat="43.70682776" lon="-73.31178089">
    <tag k="addr:city" v="Benson"/>
    <tag k="addr:housenumber" v="822"/>
    <tag k="addr:street" v="Lake Road"/>
    <tag k="addr:state" v="VT"/>
    <tag k="ref:vcgi:esiteid" v="21746"/>
  </node>
  <node id="-400" visible="true" lat="43.70680053" lon="-73.31202882">
    <tag k="addr:city" v="Benson"/>
    <tag k="addr:housenumber" v="834"/>
    <tag k="addr:street" v="Lake Road"/>
    <tag k="addr:state" v="VT"/>
    <tag k="ref:vcgi:esiteid" v="21748"/>
  </node>
  <node id="-401" visible="true" lat="43.70678787" lon="-73.31148631">
    <tag k="addr:city" v="Benson"/>
    <tag k="addr:housenumber" v="806"/>
    <tag k="addr:street" v="Lake Road"/>
    <tag k="addr:state" v="VT"/>
    <tag k="ref:vcgi:esiteid" v="21749"/>
  </node>
  <node id="-402" visible="true" lat="43.70683552" lon="-73.31224902">
    <tag k="addr:city" v="Benson"/>
    <tag k="addr:housenumber" v="848"/>
    <tag k="addr:street" v="Lake Road"/>
    <tag k="addr:state" v="VT"/>
    <tag k="ref:vcgi:esiteid" v="21750"/>
  </node>
  <node id="-404" visible="true" lat="43.70680379" lon="-73.30938232">
    <tag k="addr:city" v="Benson"/>
    <tag k="addr:housenumber" v="698"/>
    <tag k="addr:street" v="Lake Road"/>
    <tag k="addr:state" v="VT"/>
    <tag k="ref:vcgi:esiteid" v="21753"/>
  </node>
  <node id="-405" visible="true" lat="43.70680165" lon="-73.3099687">
    <tag k="addr:city" v="Benson"/>
    <tag k="addr:housenumber" v="730"/>
    <tag k="addr:street" v="Lake Road"/>
    <tag k="addr:state" v="VT"/>
    <tag k="ref:vcgi:esiteid" v="21754"/>
  </node>
  <node id="-409" visible="true" lat="43.70651796" lon="-73.31081477">
    <tag k="addr:city" v="Benson"/>
    <tag k="addr:housenumber" v="767"/>
    <tag k="addr:street" v="Lake Road"/>
    <tag k="addr:state" v="VT"/>
    <tag k="ref:vcgi:esiteid" v="21758"/>
  </node>
  <node id="-416" visible="true" lat="43.70625495" lon="-73.3102161">
    <tag k="addr:city" v="Benson"/>
    <tag k="addr:housenumber" v="2574"/>
    <tag k="addr:street" v="Stage Road"/>
    <tag k="addr:state" v="VT"/>
    <tag k="ref:vcgi:esiteid" v="21766"/>
  </node>
  <node id="-417" visible="true" lat="43.70606231" lon="-73.31027221">
    <tag k="addr:city" v="Benson"/>
    <tag k="addr:housenumber" v="2558"/>
    <tag k="addr:street" v="Stage Road"/>
    <tag k="addr:state" v="VT"/>
    <tag k="ref:vcgi:esiteid" v="21767"/>
  </node>
  <node id="-418" visible="true" lat="43.70600066" lon="-73.3111869">
    <tag k="addr:city" v="Benson"/>
    <tag k="addr:housenumber" v="2541"/>
    <tag k="addr:street" v="Stage Road"/>
    <tag k="addr:state" v="VT"/>
    <tag k="ref:vcgi:esiteid" v="21768"/>
  </node>
  <node id="-419" visible="true" lat="43.70574951" lon="-73.31024932">
    <tag k="addr:city" v="Benson"/>
    <tag k="addr:housenumber" v="2538"/>
    <tag k="addr:street" v="Stage Road"/>
    <tag k="addr:state" v="VT"/>
    <tag k="ref:vcgi:esiteid" v="21769"/>
  </node>
  <node id="-421" visible="true" lat="43.70508308" lon="-73.30967523">
    <tag k="addr:city" v="Benson"/>
    <tag k="addr:housenumber" v="2474"/>
    <tag k="addr:street" v="Stage Road"/>
    <tag k="addr:state" v="VT"/>
    <tag k="ref:vcgi:esiteid" v="21771"/>
  </node>
  <node id="-422" visible="true" lat="43.70474555" lon="-73.31017978">
    <tag k="addr:city" v="Benson"/>
    <tag k="addr:housenumber" v="2472"/>
    <tag k="addr:street" v="Stage Road"/>
    <tag k="addr:state" v="VT"/>
    <tag k="ref:vcgi:esiteid" v="21772"/>
  </node>
  <node id="-423" visible="true" lat="43.70418222" lon="-73.31042094">
    <tag k="addr:city" v="Benson"/>
    <tag k="addr:housenumber" v="2424"/>
    <tag k="addr:street" v="Stage Road"/>
    <tag k="addr:state" v="VT"/>
    <tag k="ref:vcgi:esiteid" v="21774"/>
  </node>
  <node id="-424" visible="true" lat="43.70382867" lon="-73.31140822">
    <tag k="addr:city" v="Benson"/>
    <tag k="addr:housenumber" v="2407"/>
    <tag k="addr:street" v="Stage Road"/>
    <tag k="addr:state" v="VT"/>
    <tag k="ref:vcgi:esiteid" v="21775"/>
  </node>
  <node id="-428" visible="true" lat="43.70319363" lon="-73.31052501">
    <tag k="addr:city" v="Benson"/>
    <tag k="addr:housenumber" v="2354"/>
    <tag k="addr:street" v="Stage Road"/>
    <tag k="addr:state" v="VT"/>
    <tag k="ref:vcgi:esiteid" v="21779"/>
  </node>
  <node id="-430" visible="true" lat="43.70221359" lon="-73.31268406">
    <tag k="addr:city" v="Benson"/>
    <tag k="addr:housenumber" v="2279"/>
    <tag k="addr:street" v="Stage Road"/>
    <tag k="addr:state" v="VT"/>
    <tag k="ref:vcgi:esiteid" v="21781"/>
  </node>
  <node id="-445" visible="true" lat="43.69933952" lon="-73.31199386">
    <tag k="addr:city" v="Benson"/>
    <tag k="addr:housenumber" v="2097"/>
    <tag k="addr:street" v="Stage Road"/>
    <tag k="addr:state" v="VT"/>
    <tag k="ref:vcgi:esiteid" v="21796"/>
  </node>
  <node id="-447" visible="true" lat="43.69917703" lon="-73.34047621">
    <tag k="addr:city" v="Benson"/>
    <tag k="addr:housenumber" v="482"/>
    <tag k="addr:street" v="Money Hole Road"/>
    <tag k="addr:state" v="VT"/>
    <tag k="ref:vcgi:esiteid" v="21798"/>
  </node>
  <node id="-449" visible="true" lat="43.69906696" lon="-73.31276177">
    <tag k="addr:city" v="Benson"/>
    <tag k="addr:housenumber" v="2049"/>
    <tag k="addr:street" v="Stage Road"/>
    <tag k="addr:state" v="VT"/>
    <tag k="ref:vcgi:esiteid" v="21800"/>
  </node>
  <node id="-450" visible="true" lat="43.69874078" lon="-73.34445596">
    <tag k="addr:city" v="Benson"/>
    <tag k="addr:housenumber" v="672"/>
    <tag k="addr:street" v="Money Hole Road"/>
    <tag k="addr:state" v="VT"/>
    <tag k="ref:vcgi:esiteid" v="21801"/>
  </node>
  <node id="-458" visible="true" lat="43.69805681" lon="-73.31104637">
    <tag k="addr:city" v="Benson"/>
    <tag k="addr:housenumber" v="2000"/>
    <tag k="addr:street" v="Stage Road"/>
    <tag k="addr:state" v="VT"/>
    <tag k="ref:vcgi:esiteid" v="21809"/>
  </node>
  <node id="-461" visible="true" lat="43.69779169" lon="-73.31101736">
    <tag k="addr:city" v="Benson"/>
    <tag k="addr:housenumber" v="1982"/>
    <tag k="addr:street" v="Stage Road"/>
    <tag k="addr:state" v="VT"/>
    <tag k="ref:vcgi:esiteid" v="21812"/>
  </node>
  <node id="-463" visible="true" lat="43.69706931" lon="-73.35428004">
    <tag k="addr:city" v="Benson"/>
    <tag k="addr:housenumber" v="1104"/>
    <tag k="addr:street" v="Money Hole Road"/>
    <tag k="addr:state" v="VT"/>
    <tag k="ref:vcgi:esiteid" v="21814"/>
  </node>
  <node id="-471" visible="true" lat="43.69470416" lon="-73.35304155">
    <tag k="addr:city" v="Benson"/>
    <tag k="addr:housenumber" v="1204"/>
    <tag k="addr:street" v="Money Hole Road"/>
    <tag k="addr:state" v="VT"/>
    <tag k="ref:vcgi:esiteid" v="21822"/>
  </node>
  <node id="-479" visible="true" lat="43.69309454" lon="-73.3567529">
    <tag k="addr:city" v="Benson"/>
    <tag k="addr:housenumber" v="1480"/>
    <tag k="addr:street" v="Money Hole Road"/>
    <tag k="addr:state" v="VT"/>
    <tag k="ref:vcgi:esiteid" v="21830"/>
  </node>
  <node id="-483" visible="true" lat="43.69205803" lon="-73.34314304">
    <tag k="addr:city" v="Benson"/>
    <tag k="addr:housenumber" v="430"/>
    <tag k="addr:street" v="Root Pond Road"/>
    <tag k="addr:state" v="VT"/>
    <tag k="ref:vcgi:esiteid" v="21834"/>
  </node>
  <node id="-484" visible="true" lat="43.69109075" lon="-73.3867671">
    <tag k="addr:city" v="Benson"/>
    <tag k="addr:housenumber" v="1066"/>
    <tag k="addr:street" v="Herrick Road"/>
    <tag k="addr:state" v="VT"/>
    <tag k="ref:vcgi:esiteid" v="21835"/>
  </node>
  <node id="-486" visible="true" lat="43.69056867" lon="-73.38265628">
    <tag k="addr:city" v="Benson"/>
    <tag k="addr:housenumber" v="843"/>
    <tag k="addr:street" v="Herrick Road"/>
    <tag k="addr:state" v="VT"/>
    <tag k="ref:vcgi:esiteid" v="21837"/>
  </node>
  <node id="-495" visible="true" lat="43.68974851" lon="-73.34294508">
    <tag k="addr:city" v="Benson"/>
    <tag k="addr:housenumber" v="590"/>
    <tag k="addr:street" v="Root Pond Road"/>
    <tag k="addr:state" v="VT"/>
    <tag k="ref:vcgi:esiteid" v="21846"/>
  </node>
  <node id="-500" visible="true" lat="43.68750701" lon="-73.37986907">
    <tag k="addr:city" v="Benson"/>
    <tag k="addr:housenumber" v="251"/>
    <tag k="addr:street" v="Herrick Road"/>
    <tag k="addr:state" v="VT"/>
    <tag k="ref:vcgi:esiteid" v="21852"/>
  </node>
  <node id="-506" visible="true" lat="43.68525757" lon="-73.33298658">
    <tag k="addr:city" v="Benson"/>
    <tag k="addr:housenumber" v="1520"/>
    <tag k="addr:street" v="Parkhill Road"/>
    <tag k="addr:state" v="VT"/>
    <tag k="ref:vcgi:esiteid" v="21858"/>
  </node>
  <node id="-507" visible="true" lat="43.68428109" lon="-73.38032506">
    <tag k="addr:city" v="Benson"/>
    <tag k="addr:housenumber" v="532"/>
    <tag k="addr:street" v="Temple Road"/>
    <tag k="addr:state" v="VT"/>
    <tag k="ref:vcgi:esiteid" v="21859"/>
  </node>
  <node id="-511" visible="true" lat="43.68389447" lon="-73.37417326">
    <tag k="addr:city" v="Benson"/>
    <tag k="addr:housenumber" v="222"/>
    <tag k="addr:street" v="Temple Road"/>
    <tag k="addr:state" v="VT"/>
    <tag k="ref:vcgi:esiteid" v="21863"/>
  </node>
  <node id="-512" visible="true" lat="43.68319363" lon="-73.37096015">
    <tag k="addr:city" v="Benson"/>
    <tag k="addr:housenumber" v="61"/>
    <tag k="addr:street" v="Temple Road"/>
    <tag k="addr:state" v="VT"/>
    <tag k="ref:vcgi:esiteid" v="21864"/>
  </node>
  <node id="-513" visible="true" lat="43.68287101" lon="-73.37446132">
    <tag k="addr:city" v="Benson"/>
    <tag k="addr:housenumber" v="229"/>
    <tag k="addr:street" v="Temple Road"/>
    <tag k="addr:state" v="VT"/>
    <tag k="ref:vcgi:esiteid" v="21865"/>
  </node>
  <node id="-514" visible="true" lat="43.68231069" lon="-73.3729027">
    <tag k="addr:city" v="Benson"/>
    <tag k="addr:housenumber" v="151"/>
    <tag k="addr:street" v="Temple Road"/>
    <tag k="addr:state" v="VT"/>
    <tag k="ref:vcgi:esiteid" v="21866"/>
  </node>
  <node id="-520" visible="true" lat="43.67906189" lon="-73.33735656">
    <tag k="addr:city" v="Benson"/>
    <tag k="addr:housenumber" v="1952"/>
    <tag k="addr:street" v="Parkhill Road"/>
    <tag k="addr:state" v="VT"/>
    <tag k="ref:vcgi:esiteid" v="21872"/>
  </node>
  <node id="-521" visible="true" lat="43.67869991" lon="-73.34728298">
    <tag k="addr:city" v="Benson"/>
    <tag k="addr:housenumber" v="1449"/>
    <tag k="addr:street" v="Root Pond Road"/>
    <tag k="addr:state" v="VT"/>
    <tag k="ref:vcgi:esiteid" v="21873"/>
  </node>
  <node id="-527" visible="true" lat="43.67568588" lon="-73.39751434">
    <tag k="addr:city" v="Benson"/>
    <tag k="addr:housenumber" v="650"/>
    <tag k="addr:street" v="Cold Spring Road"/>
    <tag k="addr:state" v="VT"/>
    <tag k="ref:vcgi:esiteid" v="21879"/>
  </node>
  <node id="-529" visible="true" lat="43.6739755" lon="-73.38717439">
    <tag k="addr:city" v="Benson"/>
    <tag k="addr:housenumber" v="1366"/>
    <tag k="addr:street" v="Temple Road"/>
    <tag k="addr:state" v="VT"/>
    <tag k="ref:vcgi:esiteid" v="21881"/>
  </node>
  <node id="-574" visible="true" lat="43.70993899" lon="-73.30996607">
    <tag k="addr:city" v="Benson"/>
    <tag k="addr:housenumber" v="2830"/>
    <tag k="addr:street" v="Stage Road"/>
    <tag k="addr:state" v="VT"/>
    <tag k="ref:vcgi:esiteid" v="21928"/>
  </node>
  <node id="-575" visible="true" lat="43.70583518" lon="-73.31238431">
    <tag k="addr:city" v="Benson"/>
    <tag k="addr:housenumber" v="807"/>
    <tag k="addr:street" v="Lake Road"/>
    <tag k="addr:state" v="VT"/>
    <tag k="ref:vcgi:esiteid" v="21930"/>
  </node>
  <node id="-576" visible="true" lat="43.70652909" lon="-73.31194786">
    <tag k="addr:city" v="Benson"/>
    <tag k="addr:housenumber" v="813"/>
    <tag k="addr:street" v="Lake Road"/>
    <tag k="addr:state" v="VT"/>
    <tag k="ref:vcgi:esiteid" v="21931"/>
  </node>
  <node id="-587" visible="true" lat="43.67675092" lon="-73.34827698">
    <tag k="addr:city" v="Benson"/>
    <tag k="addr:housenumber" v="1639"/>
    <tag k="addr:street" v="Root Pond Road"/>
    <tag k="addr:state" v="VT"/>
    <tag k="ref:vcgi:esiteid" v="21942"/>
  </node>
  <node id="-591" visible="true" lat="43.70812143" lon="-73.30947765">
    <tag k="addr:city" v="Benson"/>
    <tag k="addr:housenumber" v="51"/>
    <tag k="addr:street" v="Kent Lane"/>
    <tag k="addr:state" v="VT"/>
    <tag k="ref:vcgi:esiteid" v="21947"/>
  </node>
  <node id="-595" visible="true" lat="43.69206557" lon="-73.38307058">
    <tag k="addr:city" v="Benson"/>
    <tag k="addr:housenumber" v="860"/>
    <tag k="addr:street" v="Herrick Road"/>
    <tag k="addr:state" v="VT"/>
    <tag k="ref:vcgi:esiteid" v="21951"/>
  </node>
  <node id="-596" visible="true" lat="43.69046905" lon="-73.38470839">
    <tag k="addr:city" v="Benson"/>
    <tag k="addr:housenumber" v="943"/>
    <tag k="addr:street" v="Herrick Road"/>
    <tag k="addr:state" v="VT"/>
    <tag k="ref:vcgi:esiteid" v="21952"/>
  </node>
  <node id="-608" visible="true" lat="43.70175307" lon="-73.33956803">
    <tag k="addr:city" v="Benson"/>
    <tag k="addr:housenumber" v="354"/>
    <tag k="addr:street" v="Money Hole Road"/>
    <tag k="addr:state" v="VT"/>
    <tag k="ref:vcgi:esiteid" v="21964"/>
  </node>
  <node id="-609" visible="true" lat="43.70804557" lon="-73.30860688">
    <tag k="addr:city" v="Benson"/>
    <tag k="addr:housenumber" v="55"/>
    <tag k="addr:street" v="Kent Lane"/>
    <tag k="addr:state" v="VT"/>
    <tag k="ref:vcgi:esiteid" v="21965"/>
  </node>
  <node id="-641" visible="true" lat="43.68729015" lon="-73.34556311">
    <tag k="addr:city" v="Benson"/>
    <tag k="addr:housenumber" v="788"/>
    <tag k="addr:street" v="Root Pond Road"/>
    <tag k="addr:state" v="VT"/>
    <tag k="ref:vcgi:esiteid" v="21999"/>
  </node>
  <node id="-660" visible="true" lat="43.70049758" lon="-73.31269921">
    <tag k="addr:city" v="Benson"/>
    <tag k="addr:housenumber" v="2121"/>
    <tag k="addr:street" v="Stage Road"/>
    <tag k="addr:state" v="VT"/>
    <tag k="ref:vcgi:esiteid" v="312496"/>
  </node>
  <node id="-662" visible="true" lat="43.69132996" lon="-73.34356886">
    <tag k="addr:city" v="Benson"/>
    <tag k="addr:housenumber" v="436"/>
    <tag k="addr:street" v="Root Pond Road"/>
    <tag k="addr:state" v="VT"/>
    <tag k="ref:vcgi:esiteid" v="312498"/>
  </node>
  <node id="-670" visible="true" lat="43.70811194" lon="-73.30898899">
    <tag k="addr:city" v="Benson"/>
    <tag k="addr:housenumber" v="53"/>
    <tag k="addr:street" v="Kent Lane"/>
    <tag k="addr:state" v="VT"/>
    <tag k="ref:vcgi:esiteid" v="326816"/>
  </node>
  <node id="-723" visible="true" lat="43.70721945" lon="-73.31076491">
    <tag k="addr:city" v="Benson"/>
    <tag k="addr:housenumber" v="2635"/>
    <tag k="addr:street" v="Stage Road"/>
    <tag k="addr:state" v="VT"/>
    <tag k="ref:vcgi:esiteid" v="620555"/>
  </node>
  <node id="-799" visible="true" lat="43.71955227" lon="-73.31166711">
    <tag k="addr:city" v="Benson"/>
    <tag k="addr:housenumber" v="3471"/>
    <tag k="addr:street" v="Stage Road"/>
    <tag k="addr:state" v="VT"/>
    <tag k="ref:vcgi:esiteid" v="757344"/>
  </node>
</osm>
