<?xml version="1.0" encoding="UTF-8"?>
<osm version="0.6" generator="JOSM">
  <node id="-129" visible="true" lat="44.25624825" lon="-72.6465336">
    <tag k="addr:housenumber" v="987"/>
    <tag k="addr:street" v="Jones Brook Road"/>
    <tag k="addr:state" v="VT"/>
    <tag k="ref:vcgi:esiteid" v="22719"/>
  </node>
  <node id="-130" visible="true" lat="44.25639391" lon="-72.60668127">
    <tag k="addr:housenumber" v="297"/>
    <tag k="addr:street" v="Junction Road"/>
    <tag k="addr:state" v="VT"/>
    <tag k="ref:vcgi:esiteid" v="22720"/>
  </node>
  <node id="-137" visible="true" lat="44.25568646" lon="-72.64691518">
    <tag k="addr:housenumber" v="1037"/>
    <tag k="addr:street" v="Jones Brook Road"/>
    <tag k="addr:state" v="VT"/>
    <tag k="ref:vcgi:esiteid" v="22729"/>
  </node>
  <node id="-172" visible="true" lat="44.24312396" lon="-72.59424973">
    <tag k="addr:housenumber" v="17"/>
    <tag k="addr:street" v="Second Street"/>
    <tag k="addr:state" v="VT"/>
    <tag k="ref:vcgi:esiteid" v="22764"/>
  </node>
  <node id="-173" visible="true" lat="44.24307196" lon="-72.5940606">
    <tag k="addr:housenumber" v="29"/>
    <tag k="addr:street" v="Second Street"/>
    <tag k="addr:state" v="VT"/>
    <tag k="ref:vcgi:esiteid" v="22765"/>
  </node>
  <node id="-174" visible="true" lat="44.24301523" lon="-72.59381845">
    <tag k="addr:housenumber" v="41"/>
    <tag k="addr:street" v="Second Street"/>
    <tag k="addr:state" v="VT"/>
    <tag k="ref:vcgi:esiteid" v="22766"/>
  </node>
  <node id="-175" visible="true" lat="44.24295326" lon="-72.59358394">
    <tag k="addr:housenumber" v="55"/>
    <tag k="addr:street" v="Second Street"/>
    <tag k="addr:state" v="VT"/>
    <tag k="ref:vcgi:esiteid" v="22767"/>
  </node>
  <node id="-176" visible="true" lat="44.24289938" lon="-72.59334945">
    <tag k="addr:housenumber" v="65"/>
    <tag k="addr:street" v="Second Street"/>
    <tag k="addr:state" v="VT"/>
    <tag k="ref:vcgi:esiteid" v="22768"/>
  </node>
  <node id="-178" visible="true" lat="44.24282213" lon="-72.59317986">
    <tag k="addr:housenumber" v="77"/>
    <tag k="addr:street" v="Second Street"/>
    <tag k="addr:state" v="VT"/>
    <tag k="ref:vcgi:esiteid" v="22770"/>
  </node>
  <node id="-179" visible="true" lat="44.24272349" lon="-72.59418282">
    <tag k="addr:housenumber" v="30"/>
    <tag k="addr:street" v="Second Street"/>
    <tag k="addr:state" v="VT"/>
    <tag k="ref:vcgi:esiteid" v="22771"/>
  </node>
  <node id="-180" visible="true" lat="44.24275873" lon="-72.59295298">
    <tag k="addr:housenumber" v="89"/>
    <tag k="addr:street" v="Second Street"/>
    <tag k="addr:state" v="VT"/>
    <tag k="ref:vcgi:esiteid" v="22772"/>
  </node>
  <node id="-181" visible="true" lat="44.24265529" lon="-72.5939738">
    <tag k="addr:housenumber" v="42"/>
    <tag k="addr:street" v="Second Street"/>
    <tag k="addr:state" v="VT"/>
    <tag k="ref:vcgi:esiteid" v="22773"/>
  </node>
  <node id="-182" visible="true" lat="44.24269817" lon="-72.59271977">
    <tag k="addr:housenumber" v="99"/>
    <tag k="addr:street" v="Second Street"/>
    <tag k="addr:state" v="VT"/>
    <tag k="ref:vcgi:esiteid" v="22774"/>
  </node>
  <node id="-183" visible="true" lat="44.24260429" lon="-72.593738">
    <tag k="addr:housenumber" v="54"/>
    <tag k="addr:street" v="Second Street"/>
    <tag k="addr:state" v="VT"/>
    <tag k="ref:vcgi:esiteid" v="22775"/>
  </node>
  <node id="-184" visible="true" lat="44.24265811" lon="-72.5924568">
    <tag k="addr:housenumber" v="111"/>
    <tag k="addr:street" v="Second Street"/>
    <tag k="addr:state" v="VT"/>
    <tag k="ref:vcgi:esiteid" v="22776"/>
  </node>
  <node id="-185" visible="true" lat="44.24253609" lon="-72.5935356">
    <tag k="addr:housenumber" v="66"/>
    <tag k="addr:street" v="Second Street"/>
    <tag k="addr:state" v="VT"/>
    <tag k="ref:vcgi:esiteid" v="22777"/>
  </node>
  <node id="-186" visible="true" lat="44.24259083" lon="-72.59227228">
    <tag k="addr:housenumber" v="125"/>
    <tag k="addr:street" v="Second Street"/>
    <tag k="addr:state" v="VT"/>
    <tag k="ref:vcgi:esiteid" v="22778"/>
  </node>
  <node id="-187" visible="true" lat="44.24249459" lon="-72.59330343">
    <tag k="addr:housenumber" v="78"/>
    <tag k="addr:street" v="Second Street"/>
    <tag k="addr:state" v="VT"/>
    <tag k="ref:vcgi:esiteid" v="22779"/>
  </node>
  <node id="-188" visible="true" lat="44.24239497" lon="-72.59308976">
    <tag k="addr:housenumber" v="90"/>
    <tag k="addr:street" v="Second Street"/>
    <tag k="addr:state" v="VT"/>
    <tag k="ref:vcgi:esiteid" v="22780"/>
  </node>
  <node id="-189" visible="true" lat="44.24235109" lon="-72.59285326">
    <tag k="addr:housenumber" v="102"/>
    <tag k="addr:street" v="Second Street"/>
    <tag k="addr:state" v="VT"/>
    <tag k="ref:vcgi:esiteid" v="22781"/>
  </node>
  <node id="-190" visible="true" lat="44.24229243" lon="-72.59262769">
    <tag k="addr:housenumber" v="114"/>
    <tag k="addr:street" v="Second Street"/>
    <tag k="addr:state" v="VT"/>
    <tag k="ref:vcgi:esiteid" v="22782"/>
  </node>
  <node id="-191" visible="true" lat="44.24236011" lon="-72.59437404">
    <tag k="addr:housenumber" v="21"/>
    <tag k="addr:street" v="Third Street"/>
    <tag k="addr:state" v="VT"/>
    <tag k="ref:vcgi:esiteid" v="22783"/>
  </node>
  <node id="-192" visible="true" lat="44.24226238" lon="-72.59236905">
    <tag k="addr:housenumber" v="126"/>
    <tag k="addr:street" v="Second Street"/>
    <tag k="addr:state" v="VT"/>
    <tag k="ref:vcgi:esiteid" v="22784"/>
  </node>
  <node id="-193" visible="true" lat="44.24233098" lon="-72.59413427">
    <tag k="addr:housenumber" v="33"/>
    <tag k="addr:street" v="Third Street"/>
    <tag k="addr:state" v="VT"/>
    <tag k="ref:vcgi:esiteid" v="22785"/>
  </node>
  <node id="-194" visible="true" lat="44.24218133" lon="-72.59217958">
    <tag k="addr:housenumber" v="138"/>
    <tag k="addr:street" v="Second Street"/>
    <tag k="addr:state" v="VT"/>
    <tag k="ref:vcgi:esiteid" v="22786"/>
  </node>
  <node id="-195" visible="true" lat="44.24226375" lon="-72.59390438">
    <tag k="addr:housenumber" v="45"/>
    <tag k="addr:street" v="Third Street"/>
    <tag k="addr:state" v="VT"/>
    <tag k="ref:vcgi:esiteid" v="22787"/>
  </node>
  <node id="-196" visible="true" lat="44.24220937" lon="-72.59368342">
    <tag k="addr:housenumber" v="57"/>
    <tag k="addr:street" v="Third Street"/>
    <tag k="addr:state" v="VT"/>
    <tag k="ref:vcgi:esiteid" v="22788"/>
  </node>
  <node id="-197" visible="true" lat="44.24209307" lon="-72.59199708">
    <tag k="addr:housenumber" v="150"/>
    <tag k="addr:street" v="Second Street"/>
    <tag k="addr:state" v="VT"/>
    <tag k="ref:vcgi:esiteid" v="22789"/>
  </node>
  <node id="-198" visible="true" lat="44.24213742" lon="-72.59344988">
    <tag k="addr:housenumber" v="69"/>
    <tag k="addr:street" v="Third Street"/>
    <tag k="addr:state" v="VT"/>
    <tag k="ref:vcgi:esiteid" v="22790"/>
  </node>
  <node id="-199" visible="true" lat="44.24210785" lon="-72.59322837">
    <tag k="addr:housenumber" v="79"/>
    <tag k="addr:street" v="Third Street"/>
    <tag k="addr:state" v="VT"/>
    <tag k="ref:vcgi:esiteid" v="22791"/>
  </node>
  <node id="-200" visible="true" lat="44.24202346" lon="-72.59452056">
    <tag k="addr:housenumber" v="20"/>
    <tag k="addr:street" v="Third Street"/>
    <tag k="addr:state" v="VT"/>
    <tag k="ref:vcgi:esiteid" v="22792"/>
  </node>
  <node id="-201" visible="true" lat="44.24202776" lon="-72.59301472">
    <tag k="addr:housenumber" v="91"/>
    <tag k="addr:street" v="Third Street"/>
    <tag k="addr:state" v="VT"/>
    <tag k="ref:vcgi:esiteid" v="22793"/>
  </node>
  <node id="-202" visible="true" lat="44.24194624" lon="-72.59432373">
    <tag k="addr:housenumber" v="34"/>
    <tag k="addr:street" v="Third Street"/>
    <tag k="addr:state" v="VT"/>
    <tag k="ref:vcgi:esiteid" v="22794"/>
  </node>
  <node id="-203" visible="true" lat="44.24189665" lon="-72.59407802">
    <tag k="addr:housenumber" v="46"/>
    <tag k="addr:street" v="Third Street"/>
    <tag k="addr:state" v="VT"/>
    <tag k="ref:vcgi:esiteid" v="22795"/>
  </node>
  <node id="-204" visible="true" lat="44.24196717" lon="-72.59280573">
    <tag k="addr:housenumber" v="103"/>
    <tag k="addr:street" v="Third Street"/>
    <tag k="addr:state" v="VT"/>
    <tag k="ref:vcgi:esiteid" v="22796"/>
  </node>
  <node id="-205" visible="true" lat="44.24185562" lon="-72.59385681">
    <tag k="addr:housenumber" v="58"/>
    <tag k="addr:street" v="Third Street"/>
    <tag k="addr:state" v="VT"/>
    <tag k="ref:vcgi:esiteid" v="22797"/>
  </node>
  <node id="-206" visible="true" lat="44.24190277" lon="-72.59257817">
    <tag k="addr:housenumber" v="115"/>
    <tag k="addr:street" v="Third Street"/>
    <tag k="addr:state" v="VT"/>
    <tag k="ref:vcgi:esiteid" v="22798"/>
  </node>
  <node id="-207" visible="true" lat="44.24187179" lon="-72.5923238">
    <tag k="addr:housenumber" v="129"/>
    <tag k="addr:street" v="Third Street"/>
    <tag k="addr:state" v="VT"/>
    <tag k="ref:vcgi:esiteid" v="22799"/>
  </node>
  <node id="-209" visible="true" lat="44.24179458" lon="-72.5936203">
    <tag k="addr:housenumber" v="68"/>
    <tag k="addr:street" v="Third Street"/>
    <tag k="addr:state" v="VT"/>
    <tag k="ref:vcgi:esiteid" v="22801"/>
  </node>
  <node id="-210" visible="true" lat="44.24180601" lon="-72.59211245">
    <tag k="addr:housenumber" v="139"/>
    <tag k="addr:street" v="Third Street"/>
    <tag k="addr:state" v="VT"/>
    <tag k="ref:vcgi:esiteid" v="22802"/>
  </node>
  <node id="-211" visible="true" lat="44.24174117" lon="-72.59338378">
    <tag k="addr:housenumber" v="82"/>
    <tag k="addr:street" v="Third Street"/>
    <tag k="addr:state" v="VT"/>
    <tag k="ref:vcgi:esiteid" v="22803"/>
  </node>
  <node id="-212" visible="true" lat="44.24173401" lon="-72.59190112">
    <tag k="addr:housenumber" v="149"/>
    <tag k="addr:street" v="Third Street"/>
    <tag k="addr:state" v="VT"/>
    <tag k="ref:vcgi:esiteid" v="22804"/>
  </node>
  <node id="-213" visible="true" lat="44.2416954" lon="-72.5931549">
    <tag k="addr:housenumber" v="94"/>
    <tag k="addr:street" v="Third Street"/>
    <tag k="addr:state" v="VT"/>
    <tag k="ref:vcgi:esiteid" v="22805"/>
  </node>
  <node id="-215" visible="true" lat="44.24159142" lon="-72.59292813">
    <tag k="addr:housenumber" v="106"/>
    <tag k="addr:street" v="Third Street"/>
    <tag k="addr:state" v="VT"/>
    <tag k="ref:vcgi:esiteid" v="22807"/>
  </node>
  <node id="-216" visible="true" lat="44.24153758" lon="-72.59275789">
    <tag k="addr:housenumber" v="118"/>
    <tag k="addr:street" v="Third Street"/>
    <tag k="addr:state" v="VT"/>
    <tag k="ref:vcgi:esiteid" v="22808"/>
  </node>
  <node id="-217" visible="true" lat="44.24163764" lon="-72.59447965">
    <tag k="addr:housenumber" v="15"/>
    <tag k="addr:street" v="Weston Street"/>
    <tag k="addr:state" v="VT"/>
    <tag k="ref:vcgi:esiteid" v="22809"/>
  </node>
  <node id="-218" visible="true" lat="44.24082503" lon="-72.59089954">
    <tag k="addr:housenumber" v="13"/>
    <tag k="addr:street" v="Third Street Extension"/>
    <tag k="addr:state" v="VT"/>
    <tag k="ref:vcgi:esiteid" v="22810"/>
  </node>
  <node id="-219" visible="true" lat="44.24155613" lon="-72.5942772">
    <tag k="addr:housenumber" v="29"/>
    <tag k="addr:street" v="Weston Street"/>
    <tag k="addr:state" v="VT"/>
    <tag k="ref:vcgi:esiteid" v="22811"/>
  </node>
  <node id="-220" visible="true" lat="44.24149143" lon="-72.59252903">
    <tag k="addr:housenumber" v="130"/>
    <tag k="addr:street" v="Third Street"/>
    <tag k="addr:state" v="VT"/>
    <tag k="ref:vcgi:esiteid" v="22812"/>
  </node>
  <node id="-222" visible="true" lat="44.24147222" lon="-72.59403792">
    <tag k="addr:housenumber" v="41"/>
    <tag k="addr:street" v="Weston Street"/>
    <tag k="addr:state" v="VT"/>
    <tag k="ref:vcgi:esiteid" v="22814"/>
  </node>
  <node id="-223" visible="true" lat="44.24146031" lon="-72.59225998">
    <tag k="addr:housenumber" v="142"/>
    <tag k="addr:street" v="Third Street"/>
    <tag k="addr:state" v="VT"/>
    <tag k="ref:vcgi:esiteid" v="22815"/>
  </node>
  <node id="-224" visible="true" lat="44.24140548" lon="-72.59202575">
    <tag k="addr:housenumber" v="154"/>
    <tag k="addr:street" v="Third Street"/>
    <tag k="addr:state" v="VT"/>
    <tag k="ref:vcgi:esiteid" v="22816"/>
  </node>
  <node id="-225" visible="true" lat="44.24141692" lon="-72.5937955">
    <tag k="addr:housenumber" v="53"/>
    <tag k="addr:street" v="Weston Street"/>
    <tag k="addr:state" v="VT"/>
    <tag k="ref:vcgi:esiteid" v="22817"/>
  </node>
  <node id="-226" visible="true" lat="44.24136066" lon="-72.59357295">
    <tag k="addr:housenumber" v="63"/>
    <tag k="addr:street" v="Weston Street"/>
    <tag k="addr:state" v="VT"/>
    <tag k="ref:vcgi:esiteid" v="22818"/>
  </node>
  <node id="-227" visible="true" lat="44.24133011" lon="-72.59333115">
    <tag k="addr:housenumber" v="77"/>
    <tag k="addr:street" v="Weston Street"/>
    <tag k="addr:state" v="VT"/>
    <tag k="ref:vcgi:esiteid" v="22819"/>
  </node>
  <node id="-228" visible="true" lat="44.24116094" lon="-72.59444904">
    <tag k="addr:housenumber" v="28"/>
    <tag k="addr:street" v="Weston Street"/>
    <tag k="addr:state" v="VT"/>
    <tag k="ref:vcgi:esiteid" v="22820"/>
  </node>
  <node id="-230" visible="true" lat="44.24129336" lon="-72.59311528">
    <tag k="addr:housenumber" v="89"/>
    <tag k="addr:street" v="Weston Street"/>
    <tag k="addr:state" v="VT"/>
    <tag k="ref:vcgi:esiteid" v="22822"/>
  </node>
  <node id="-231" visible="true" lat="44.24121711" lon="-72.59288634">
    <tag k="addr:housenumber" v="101"/>
    <tag k="addr:street" v="Weston Street"/>
    <tag k="addr:state" v="VT"/>
    <tag k="ref:vcgi:esiteid" v="22823"/>
  </node>
  <node id="-232" visible="true" lat="44.24109654" lon="-72.59421891">
    <tag k="addr:housenumber" v="42"/>
    <tag k="addr:street" v="Weston Street"/>
    <tag k="addr:state" v="VT"/>
    <tag k="ref:vcgi:esiteid" v="22824"/>
  </node>
  <node id="-234" visible="true" lat="44.24114268" lon="-72.59267433">
    <tag k="addr:housenumber" v="115"/>
    <tag k="addr:street" v="Weston Street"/>
    <tag k="addr:state" v="VT"/>
    <tag k="ref:vcgi:esiteid" v="22826"/>
  </node>
  <node id="-235" visible="true" lat="44.24104548" lon="-72.59398805">
    <tag k="addr:housenumber" v="54"/>
    <tag k="addr:street" v="Weston Street"/>
    <tag k="addr:state" v="VT"/>
    <tag k="ref:vcgi:esiteid" v="22827"/>
  </node>
  <node id="-239" visible="true" lat="44.24109503" lon="-72.59241562">
    <tag k="addr:housenumber" v="125"/>
    <tag k="addr:street" v="Weston Street"/>
    <tag k="addr:state" v="VT"/>
    <tag k="ref:vcgi:esiteid" v="22832"/>
  </node>
  <node id="-240" visible="true" lat="44.24098827" lon="-72.59375237">
    <tag k="addr:housenumber" v="66"/>
    <tag k="addr:street" v="Weston Street"/>
    <tag k="addr:state" v="VT"/>
    <tag k="ref:vcgi:esiteid" v="22833"/>
  </node>
  <node id="-241" visible="true" lat="44.24103022" lon="-72.59218541">
    <tag k="addr:housenumber" v="137"/>
    <tag k="addr:street" v="Weston Street"/>
    <tag k="addr:state" v="VT"/>
    <tag k="ref:vcgi:esiteid" v="22834"/>
  </node>
  <node id="-242" visible="true" lat="44.24097061" lon="-72.59349822">
    <tag k="addr:housenumber" v="76"/>
    <tag k="addr:street" v="Weston Street"/>
    <tag k="addr:state" v="VT"/>
    <tag k="ref:vcgi:esiteid" v="22835"/>
  </node>
  <node id="-243" visible="true" lat="44.24092212" lon="-72.59116105">
    <tag k="addr:housenumber" v="46"/>
    <tag k="addr:street" v="Third Street Extension"/>
    <tag k="addr:state" v="VT"/>
    <tag k="ref:vcgi:esiteid" v="22836"/>
  </node>
  <node id="-245" visible="true" lat="44.24098108" lon="-72.59197411">
    <tag k="addr:housenumber" v="149"/>
    <tag k="addr:street" v="Weston Street"/>
    <tag k="addr:state" v="VT"/>
    <tag k="ref:vcgi:esiteid" v="22838"/>
  </node>
  <node id="-247" visible="true" lat="44.24087905" lon="-72.59326934">
    <tag k="addr:housenumber" v="88"/>
    <tag k="addr:street" v="Weston Street"/>
    <tag k="addr:state" v="VT"/>
    <tag k="ref:vcgi:esiteid" v="22840"/>
  </node>
  <node id="-248" visible="true" lat="44.24082946" lon="-72.59304046">
    <tag k="addr:housenumber" v="102"/>
    <tag k="addr:street" v="Weston Street"/>
    <tag k="addr:state" v="VT"/>
    <tag k="ref:vcgi:esiteid" v="22841"/>
  </node>
  <node id="-250" visible="true" lat="44.24075173" lon="-72.59281848">
    <tag k="addr:housenumber" v="116"/>
    <tag k="addr:street" v="Weston Street"/>
    <tag k="addr:state" v="VT"/>
    <tag k="ref:vcgi:esiteid" v="22844"/>
  </node>
  <node id="-251" visible="true" lat="44.24070358" lon="-72.59259033">
    <tag k="addr:housenumber" v="126"/>
    <tag k="addr:street" v="Weston Street"/>
    <tag k="addr:state" v="VT"/>
    <tag k="ref:vcgi:esiteid" v="22845"/>
  </node>
  <node id="-252" visible="true" lat="44.24066162" lon="-72.59235382">
    <tag k="addr:housenumber" v="140"/>
    <tag k="addr:street" v="Weston Street"/>
    <tag k="addr:state" v="VT"/>
    <tag k="ref:vcgi:esiteid" v="22846"/>
  </node>
  <node id="-253" visible="true" lat="44.24061584" lon="-72.59211731">
    <tag k="addr:housenumber" v="152"/>
    <tag k="addr:street" v="Weston Street"/>
    <tag k="addr:state" v="VT"/>
    <tag k="ref:vcgi:esiteid" v="22847"/>
  </node>
  <node id="-254" visible="true" lat="44.24053573" lon="-72.59188842">
    <tag k="addr:housenumber" v="162"/>
    <tag k="addr:street" v="Weston Street"/>
    <tag k="addr:state" v="VT"/>
    <tag k="ref:vcgi:esiteid" v="22848"/>
  </node>
  <node id="-304" visible="true" lat="44.23583444" lon="-72.52429628">
    <tag k="addr:housenumber" v="31"/>
    <tag k="addr:street" v="Gun Club Road"/>
    <tag k="addr:state" v="VT"/>
    <tag k="ref:vcgi:esiteid" v="22902"/>
  </node>
  <node id="-325" visible="true" lat="44.23513692" lon="-72.55765236">
    <tag k="addr:housenumber" v="224"/>
    <tag k="addr:street" v="Hersey Road"/>
    <tag k="addr:state" v="VT"/>
    <tag k="ref:vcgi:esiteid" v="22924"/>
  </node>
  <node id="-341" visible="true" lat="44.23470587" lon="-72.55607283">
    <tag k="addr:housenumber" v="126"/>
    <tag k="addr:street" v="Hersey Road"/>
    <tag k="addr:state" v="VT"/>
    <tag k="ref:vcgi:esiteid" v="22942"/>
  </node>
  <node id="-351" visible="true" lat="44.2343931" lon="-72.55466088">
    <tag k="addr:housenumber" v="70"/>
    <tag k="addr:street" v="Hersey Road"/>
    <tag k="addr:state" v="VT"/>
    <tag k="ref:vcgi:esiteid" v="22953"/>
  </node>
  <node id="-355" visible="true" lat="44.23433166" lon="-72.55516062">
    <tag k="addr:housenumber" v="68"/>
    <tag k="addr:street" v="Hersey Road"/>
    <tag k="addr:state" v="VT"/>
    <tag k="ref:vcgi:esiteid" v="22957"/>
  </node>
  <node id="-361" visible="true" lat="44.23422287" lon="-72.55834415">
    <tag k="addr:housenumber" v="114"/>
    <tag k="addr:street" v="Addison Drive"/>
    <tag k="addr:state" v="VT"/>
    <tag k="ref:vcgi:esiteid" v="22964"/>
  </node>
  <node id="-364" visible="true" lat="44.23412464" lon="-72.55820941">
    <tag k="addr:housenumber" v="104"/>
    <tag k="addr:street" v="Addison Drive"/>
    <tag k="addr:state" v="VT"/>
    <tag k="ref:vcgi:esiteid" v="22967"/>
  </node>
  <node id="-366" visible="true" lat="44.23405213" lon="-72.55808592">
    <tag k="addr:housenumber" v="94"/>
    <tag k="addr:street" v="Addison Drive"/>
    <tag k="addr:state" v="VT"/>
    <tag k="ref:vcgi:esiteid" v="22969"/>
  </node>
  <node id="-368" visible="true" lat="44.23396487" lon="-72.55792469">
    <tag k="addr:housenumber" v="84"/>
    <tag k="addr:street" v="Addison Drive"/>
    <tag k="addr:state" v="VT"/>
    <tag k="ref:vcgi:esiteid" v="22971"/>
  </node>
  <node id="-371" visible="true" lat="44.2338881" lon="-72.55779327">
    <tag k="addr:housenumber" v="76"/>
    <tag k="addr:street" v="Addison Drive"/>
    <tag k="addr:state" v="VT"/>
    <tag k="ref:vcgi:esiteid" v="22974"/>
  </node>
  <node id="-372" visible="true" lat="44.23382667" lon="-72.55850115">
    <tag k="addr:housenumber" v="105"/>
    <tag k="addr:street" v="Addison Drive"/>
    <tag k="addr:state" v="VT"/>
    <tag k="ref:vcgi:esiteid" v="22975"/>
  </node>
  <node id="-374" visible="true" lat="44.23383847" lon="-72.55765755">
    <tag k="addr:housenumber" v="66"/>
    <tag k="addr:street" v="Addison Drive"/>
    <tag k="addr:state" v="VT"/>
    <tag k="ref:vcgi:esiteid" v="22977"/>
  </node>
  <node id="-375" visible="true" lat="44.23375417" lon="-72.5583873">
    <tag k="addr:housenumber" v="95"/>
    <tag k="addr:street" v="Addison Drive"/>
    <tag k="addr:state" v="VT"/>
    <tag k="ref:vcgi:esiteid" v="22978"/>
  </node>
  <node id="-376" visible="true" lat="44.23380465" lon="-72.55750969">
    <tag k="addr:housenumber" v="60"/>
    <tag k="addr:street" v="Addison Drive"/>
    <tag k="addr:state" v="VT"/>
    <tag k="ref:vcgi:esiteid" v="22979"/>
  </node>
  <node id="-380" visible="true" lat="44.23373885" lon="-72.55732601">
    <tag k="addr:housenumber" v="52"/>
    <tag k="addr:street" v="Addison Drive"/>
    <tag k="addr:state" v="VT"/>
    <tag k="ref:vcgi:esiteid" v="22984"/>
  </node>
  <node id="-381" visible="true" lat="44.23364785" lon="-72.55818">
    <tag k="addr:housenumber" v="85"/>
    <tag k="addr:street" v="Addison Drive"/>
    <tag k="addr:state" v="VT"/>
    <tag k="ref:vcgi:esiteid" v="22985"/>
  </node>
  <node id="-383" visible="true" lat="44.23370164" lon="-72.55717314">
    <tag k="addr:housenumber" v="42"/>
    <tag k="addr:street" v="Addison Drive"/>
    <tag k="addr:state" v="VT"/>
    <tag k="ref:vcgi:esiteid" v="22987"/>
  </node>
  <node id="-384" visible="true" lat="44.23356011" lon="-72.55804167">
    <tag k="addr:housenumber" v="77"/>
    <tag k="addr:street" v="Addison Drive"/>
    <tag k="addr:state" v="VT"/>
    <tag k="ref:vcgi:esiteid" v="22988"/>
  </node>
  <node id="-386" visible="true" lat="44.23365967" lon="-72.55703481">
    <tag k="addr:housenumber" v="34"/>
    <tag k="addr:street" v="Addison Drive"/>
    <tag k="addr:state" v="VT"/>
    <tag k="ref:vcgi:esiteid" v="22990"/>
  </node>
  <node id="-388" visible="true" lat="44.23368105" lon="-72.55880389">
    <tag k="addr:housenumber" v="120"/>
    <tag k="addr:street" v="Bennington Drive"/>
    <tag k="addr:state" v="VT"/>
    <tag k="ref:vcgi:esiteid" v="22992"/>
  </node>
  <node id="-390" visible="true" lat="44.23349286" lon="-72.55787052">
    <tag k="addr:housenumber" v="67"/>
    <tag k="addr:street" v="Addison Drive"/>
    <tag k="addr:state" v="VT"/>
    <tag k="ref:vcgi:esiteid" v="22994"/>
  </node>
  <node id="-391" visible="true" lat="44.23357383" lon="-72.55867672">
    <tag k="addr:housenumber" v="112"/>
    <tag k="addr:street" v="Bennington Drive"/>
    <tag k="addr:state" v="VT"/>
    <tag k="ref:vcgi:esiteid" v="22995"/>
  </node>
  <node id="-392" visible="true" lat="44.23362004" lon="-72.55683491">
    <tag k="addr:housenumber" v="24"/>
    <tag k="addr:street" v="Addison Drive"/>
    <tag k="addr:state" v="VT"/>
    <tag k="ref:vcgi:esiteid" v="22996"/>
  </node>
  <node id="-396" visible="true" lat="44.23348992" lon="-72.55857781">
    <tag k="addr:housenumber" v="106"/>
    <tag k="addr:street" v="Bennington Drive"/>
    <tag k="addr:state" v="VT"/>
    <tag k="ref:vcgi:esiteid" v="23000"/>
  </node>
  <node id="-397" visible="true" lat="44.23339655" lon="-72.55764034">
    <tag k="addr:housenumber" v="55"/>
    <tag k="addr:street" v="Addison Drive"/>
    <tag k="addr:state" v="VT"/>
    <tag k="ref:vcgi:esiteid" v="23001"/>
  </node>
  <node id="-398" visible="true" lat="44.23354465" lon="-72.55666594">
    <tag k="addr:housenumber" v="10"/>
    <tag k="addr:street" v="Addison Drive"/>
    <tag k="addr:state" v="VT"/>
    <tag k="ref:vcgi:esiteid" v="23002"/>
  </node>
  <node id="-399" visible="true" lat="44.23335838" lon="-72.55749928">
    <tag k="addr:housenumber" v="45"/>
    <tag k="addr:street" v="Addison Drive"/>
    <tag k="addr:state" v="VT"/>
    <tag k="ref:vcgi:esiteid" v="23003"/>
  </node>
  <node id="-400" visible="true" lat="44.23341791" lon="-72.55845834">
    <tag k="addr:housenumber" v="98"/>
    <tag k="addr:street" v="Bennington Drive"/>
    <tag k="addr:state" v="VT"/>
    <tag k="ref:vcgi:esiteid" v="23004"/>
  </node>
  <node id="-404" visible="true" lat="44.23313923" lon="-72.55721699">
    <tag k="addr:housenumber" v="33"/>
    <tag k="addr:street" v="Addison Drive"/>
    <tag k="addr:state" v="VT"/>
    <tag k="ref:vcgi:esiteid" v="23009"/>
  </node>
  <node id="-406" visible="true" lat="44.23335206" lon="-72.55828189">
    <tag k="addr:housenumber" v="88"/>
    <tag k="addr:street" v="Bennington Drive"/>
    <tag k="addr:state" v="VT"/>
    <tag k="ref:vcgi:esiteid" v="23011"/>
  </node>
  <node id="-407" visible="true" lat="44.23314298" lon="-72.5569585">
    <tag k="addr:housenumber" v="19"/>
    <tag k="addr:street" v="Addison Drive"/>
    <tag k="addr:state" v="VT"/>
    <tag k="ref:vcgi:esiteid" v="23012"/>
  </node>
  <node id="-411" visible="true" lat="44.23325675" lon="-72.55814553">
    <tag k="addr:housenumber" v="80"/>
    <tag k="addr:street" v="Bennington Drive"/>
    <tag k="addr:state" v="VT"/>
    <tag k="ref:vcgi:esiteid" v="23016"/>
  </node>
  <node id="-413" visible="true" lat="44.2331072" lon="-72.55680075">
    <tag k="addr:housenumber" v="9"/>
    <tag k="addr:street" v="Addison Drive"/>
    <tag k="addr:state" v="VT"/>
    <tag k="ref:vcgi:esiteid" v="23018"/>
  </node>
  <node id="-415" visible="true" lat="44.23318234" lon="-72.55793321">
    <tag k="addr:housenumber" v="66"/>
    <tag k="addr:street" v="Bennington Drive"/>
    <tag k="addr:state" v="VT"/>
    <tag k="ref:vcgi:esiteid" v="23020"/>
  </node>
  <node id="-416" visible="true" lat="44.233098" lon="-72.55770602">
    <tag k="addr:housenumber" v="54"/>
    <tag k="addr:street" v="Bennington Drive"/>
    <tag k="addr:state" v="VT"/>
    <tag k="ref:vcgi:esiteid" v="23022"/>
  </node>
  <node id="-417" visible="true" lat="44.23307886" lon="-72.5575565">
    <tag k="addr:housenumber" v="46"/>
    <tag k="addr:street" v="Bennington Drive"/>
    <tag k="addr:state" v="VT"/>
    <tag k="ref:vcgi:esiteid" v="23023"/>
  </node>
  <node id="-420" visible="true" lat="44.23288485" lon="-72.55702126">
    <tag k="addr:housenumber" v="18"/>
    <tag k="addr:street" v="Bennington Drive"/>
    <tag k="addr:state" v="VT"/>
    <tag k="ref:vcgi:esiteid" v="23026"/>
  </node>
  <node id="-421" visible="true" lat="44.23284338" lon="-72.55684779">
    <tag k="addr:housenumber" v="8"/>
    <tag k="addr:street" v="Bennington Drive"/>
    <tag k="addr:state" v="VT"/>
    <tag k="ref:vcgi:esiteid" v="23027"/>
  </node>
  <node id="-424" visible="true" lat="44.23271611" lon="-72.55764105">
    <tag k="addr:housenumber" v="41"/>
    <tag k="addr:street" v="Bennington Drive"/>
    <tag k="addr:state" v="VT"/>
    <tag k="ref:vcgi:esiteid" v="23030"/>
  </node>
  <node id="-427" visible="true" lat="44.23267649" lon="-72.55748907">
    <tag k="addr:housenumber" v="31"/>
    <tag k="addr:street" v="Bennington Drive"/>
    <tag k="addr:state" v="VT"/>
    <tag k="ref:vcgi:esiteid" v="23034"/>
  </node>
  <node id="-430" visible="true" lat="44.23254164" lon="-72.55728603">
    <tag k="addr:housenumber" v="19"/>
    <tag k="addr:street" v="Bennington Drive"/>
    <tag k="addr:state" v="VT"/>
    <tag k="ref:vcgi:esiteid" v="23037"/>
  </node>
  <node id="-431" visible="true" lat="44.23249489" lon="-72.55714958">
    <tag k="addr:housenumber" v="9"/>
    <tag k="addr:street" v="Bennington Drive"/>
    <tag k="addr:state" v="VT"/>
    <tag k="ref:vcgi:esiteid" v="23038"/>
  </node>
  <node id="-436" visible="true" lat="44.23234733" lon="-72.55448279">
    <tag k="addr:housenumber" v="2287"/>
    <tag k="addr:street" v="Berlin State Highway"/>
    <tag k="addr:state" v="VT"/>
    <tag k="ref:vcgi:esiteid" v="23045"/>
  </node>
  <node id="-443" visible="true" lat="44.23160935" lon="-72.5551539">
    <tag k="addr:housenumber" v="2283"/>
    <tag k="addr:street" v="Berlin State Highway"/>
    <tag k="addr:state" v="VT"/>
    <tag k="ref:vcgi:esiteid" v="23056"/>
  </node>
  <node id="-451" visible="true" lat="44.23102188" lon="-72.55645752">
    <tag k="addr:housenumber" v="2133"/>
    <tag k="addr:street" v="Berlin State Highway"/>
    <tag k="addr:state" v="VT"/>
    <tag k="ref:vcgi:esiteid" v="23064"/>
  </node>
  <node id="-480" visible="true" lat="44.22964318" lon="-72.55394304">
    <tag k="addr:housenumber" v="18"/>
    <tag k="addr:street" v="Overlook Drive"/>
    <tag k="addr:state" v="VT"/>
    <tag k="ref:vcgi:esiteid" v="23096"/>
  </node>
  <node id="-485" visible="true" lat="44.22889327" lon="-72.55354783">
    <tag k="addr:housenumber" v="13"/>
    <tag k="addr:street" v="Overlook Drive"/>
    <tag k="addr:state" v="VT"/>
    <tag k="ref:vcgi:esiteid" v="23101"/>
  </node>
  <node id="-552" visible="true" lat="44.22395942" lon="-72.54983314">
    <tag k="addr:housenumber" v="1060"/>
    <tag k="addr:street" v="U.S. Route 302"/>
    <tag k="addr:state" v="VT"/>
    <tag k="ref:vcgi:esiteid" v="23177"/>
  </node>
  <node id="-620" visible="true" lat="44.2198187" lon="-72.54313647">
    <tag k="addr:housenumber" v="10"/>
    <tag k="addr:street" v="Evergreen Drive"/>
    <tag k="addr:state" v="VT"/>
    <tag k="ref:vcgi:esiteid" v="23260"/>
  </node>
  <node id="-823" visible="true" lat="44.21352196" lon="-72.57860542">
    <tag k="addr:housenumber" v="47"/>
    <tag k="addr:street" v="Shed Road"/>
    <tag k="addr:state" v="VT"/>
    <tag k="ref:vcgi:esiteid" v="23474"/>
  </node>
  <node id="-830" visible="true" lat="44.21320354" lon="-72.58145915">
    <tag k="addr:housenumber" v="137"/>
    <tag k="addr:street" v="Sunset Drive"/>
    <tag k="addr:state" v="VT"/>
    <tag k="ref:vcgi:esiteid" v="23481"/>
  </node>
  <node id="-840" visible="true" lat="44.21289365" lon="-72.58199934">
    <tag k="addr:housenumber" v="111"/>
    <tag k="addr:street" v="Sunset Drive"/>
    <tag k="addr:state" v="VT"/>
    <tag k="ref:vcgi:esiteid" v="23493"/>
  </node>
  <node id="-848" visible="true" lat="44.21252878" lon="-72.57757171">
    <tag k="addr:housenumber" v="126"/>
    <tag k="addr:street" v="Shed Road"/>
    <tag k="addr:state" v="VT"/>
    <tag k="ref:vcgi:esiteid" v="23502"/>
  </node>
  <node id="-862" visible="true" lat="44.21213479" lon="-72.58201974">
    <tag k="addr:housenumber" v="67"/>
    <tag k="addr:street" v="Sunset Drive"/>
    <tag k="addr:state" v="VT"/>
    <tag k="ref:vcgi:esiteid" v="23516"/>
  </node>
  <node id="-868" visible="true" lat="44.21175255" lon="-72.57792177">
    <tag k="addr:housenumber" v="108"/>
    <tag k="addr:street" v="Shed Road"/>
    <tag k="addr:state" v="VT"/>
    <tag k="ref:vcgi:esiteid" v="23522"/>
  </node>
  <node id="-870" visible="true" lat="44.21173225" lon="-72.5800096">
    <tag k="addr:housenumber" v="50"/>
    <tag k="addr:street" v="Bosworth Road"/>
    <tag k="addr:state" v="VT"/>
    <tag k="ref:vcgi:esiteid" v="23524"/>
  </node>
  <node id="-872" visible="true" lat="44.21145891" lon="-72.58052837">
    <tag k="addr:housenumber" v="25"/>
    <tag k="addr:street" v="Bosworth Road"/>
    <tag k="addr:state" v="VT"/>
    <tag k="ref:vcgi:esiteid" v="23526"/>
  </node>
  <node id="-875" visible="true" lat="44.21091079" lon="-72.57930755">
    <tag k="addr:housenumber" v="13"/>
    <tag k="addr:street" v="Shed Road"/>
    <tag k="addr:state" v="VT"/>
    <tag k="ref:vcgi:esiteid" v="23530"/>
  </node>
  <node id="-877" visible="true" lat="44.21085357" lon="-72.57898712">
    <tag k="addr:housenumber" v="144"/>
    <tag k="addr:street" v="Crosstown Road"/>
    <tag k="addr:state" v="VT"/>
    <tag k="ref:vcgi:esiteid" v="23532"/>
  </node>
  <node id="-878" visible="true" lat="44.21081458" lon="-72.58048649">
    <tag k="addr:housenumber" v="215"/>
    <tag k="addr:street" v="Crosstown Road"/>
    <tag k="addr:state" v="VT"/>
    <tag k="ref:vcgi:esiteid" v="23533"/>
  </node>
  <node id="-880" visible="true" lat="44.21063563" lon="-72.57831571">
    <tag k="addr:housenumber" v="106"/>
    <tag k="addr:street" v="Crosstown Road"/>
    <tag k="addr:state" v="VT"/>
    <tag k="ref:vcgi:esiteid" v="23536"/>
  </node>
  <node id="-881" visible="true" lat="44.21047973" lon="-72.57751872">
    <tag k="addr:housenumber" v="72"/>
    <tag k="addr:street" v="Crosstown Road"/>
    <tag k="addr:state" v="VT"/>
    <tag k="ref:vcgi:esiteid" v="23537"/>
  </node>
  <node id="-884" visible="true" lat="44.21034307" lon="-72.57691983">
    <tag k="addr:housenumber" v="40"/>
    <tag k="addr:street" v="Crosstown Road"/>
    <tag k="addr:state" v="VT"/>
    <tag k="ref:vcgi:esiteid" v="23540"/>
  </node>
  <node id="-885" visible="true" lat="44.21014376" lon="-72.57857939">
    <tag k="addr:housenumber" v="105"/>
    <tag k="addr:street" v="Crosstown Road"/>
    <tag k="addr:state" v="VT"/>
    <tag k="ref:vcgi:esiteid" v="23541"/>
  </node>
  <node id="-886" visible="true" lat="44.21010218" lon="-72.57590466">
    <tag k="addr:housenumber" v="18"/>
    <tag k="addr:street" v="Founders Way"/>
    <tag k="addr:state" v="VT"/>
    <tag k="ref:vcgi:esiteid" v="23542"/>
  </node>
  <node id="-888" visible="true" lat="44.20997333" lon="-72.5771254">
    <tag k="addr:housenumber" v="35"/>
    <tag k="addr:street" v="Crosstown Road"/>
    <tag k="addr:state" v="VT"/>
    <tag k="ref:vcgi:esiteid" v="23544"/>
  </node>
  <node id="-893" visible="true" lat="44.20966958" lon="-72.57679492">
    <tag k="addr:housenumber" v="1915"/>
    <tag k="addr:street" v="Scott Hill Road"/>
    <tag k="addr:state" v="VT"/>
    <tag k="ref:vcgi:esiteid" v="23549"/>
  </node>
  <node id="-894" visible="true" lat="44.20960235" lon="-72.57359314">
    <tag k="addr:housenumber" v="137"/>
    <tag k="addr:street" v="Comstock Road"/>
    <tag k="addr:state" v="VT"/>
    <tag k="ref:vcgi:esiteid" v="23550"/>
  </node>
  <node id="-901" visible="true" lat="44.20891565" lon="-72.57709231">
    <tag k="addr:housenumber" v="1861"/>
    <tag k="addr:street" v="Scott Hill Road"/>
    <tag k="addr:state" v="VT"/>
    <tag k="ref:vcgi:esiteid" v="23557"/>
  </node>
  <node id="-904" visible="true" lat="44.20838159" lon="-72.5773362">
    <tag k="addr:housenumber" v="1821"/>
    <tag k="addr:street" v="Scott Hill Road"/>
    <tag k="addr:state" v="VT"/>
    <tag k="ref:vcgi:esiteid" v="23560"/>
  </node>
  <node id="-911" visible="true" lat="44.20755439" lon="-72.57799498">
    <tag k="addr:housenumber" v="1759"/>
    <tag k="addr:street" v="Scott Hill Road"/>
    <tag k="addr:state" v="VT"/>
    <tag k="ref:vcgi:esiteid" v="23567"/>
  </node>
  <node id="-915" visible="true" lat="44.20714002" lon="-72.57821372">
    <tag k="addr:housenumber" v="1733"/>
    <tag k="addr:street" v="Scott Hill Road"/>
    <tag k="addr:state" v="VT"/>
    <tag k="ref:vcgi:esiteid" v="23571"/>
  </node>
  <node id="-920" visible="true" lat="44.20681429" lon="-72.57839789">
    <tag k="addr:housenumber" v="1705"/>
    <tag k="addr:street" v="Scott Hill Road"/>
    <tag k="addr:state" v="VT"/>
    <tag k="ref:vcgi:esiteid" v="23576"/>
  </node>
  <node id="-925" visible="true" lat="44.20646949" lon="-72.57858612">
    <tag k="addr:housenumber" v="1675"/>
    <tag k="addr:street" v="Scott Hill Road"/>
    <tag k="addr:state" v="VT"/>
    <tag k="ref:vcgi:esiteid" v="23581"/>
  </node>
  <node id="-930" visible="true" lat="44.20574051" lon="-72.57891988">
    <tag k="addr:housenumber" v="1625"/>
    <tag k="addr:street" v="Scott Hill Road"/>
    <tag k="addr:state" v="VT"/>
    <tag k="ref:vcgi:esiteid" v="23587"/>
  </node>
  <node id="-985" visible="true" lat="44.19961464" lon="-72.57591284">
    <tag k="addr:housenumber" v="1183"/>
    <tag k="addr:street" v="Scott Hill Road"/>
    <tag k="addr:state" v="VT"/>
    <tag k="ref:vcgi:esiteid" v="23643"/>
  </node>
  <node id="-990" visible="true" lat="44.19912966" lon="-72.57457442">
    <tag k="addr:housenumber" v="1117"/>
    <tag k="addr:street" v="Scott Hill Road"/>
    <tag k="addr:state" v="VT"/>
    <tag k="ref:vcgi:esiteid" v="23648"/>
  </node>
  <node id="-994" visible="true" lat="44.19877242" lon="-72.57347869">
    <tag k="addr:housenumber" v="1055"/>
    <tag k="addr:street" v="Scott Hill Road"/>
    <tag k="addr:state" v="VT"/>
    <tag k="ref:vcgi:esiteid" v="23652"/>
  </node>
  <node id="-999" visible="true" lat="44.19859131" lon="-72.57257222">
    <tag k="addr:housenumber" v="1011"/>
    <tag k="addr:street" v="Scott Hill Road"/>
    <tag k="addr:state" v="VT"/>
    <tag k="ref:vcgi:esiteid" v="23657"/>
  </node>
  <node id="-1004" visible="true" lat="44.19835158" lon="-72.57151802">
    <tag k="addr:housenumber" v="955"/>
    <tag k="addr:street" v="Scott Hill Road"/>
    <tag k="addr:state" v="VT"/>
    <tag k="ref:vcgi:esiteid" v="23662"/>
  </node>
  <node id="-1009" visible="true" lat="44.1968561" lon="-72.56671149">
    <tag k="addr:housenumber" v="685"/>
    <tag k="addr:street" v="Scott Hill Road"/>
    <tag k="addr:state" v="VT"/>
    <tag k="ref:vcgi:esiteid" v="23667"/>
  </node>
  <node id="-1016" visible="true" lat="44.1957903" lon="-72.56512935">
    <tag k="addr:housenumber" v="575"/>
    <tag k="addr:street" v="Scott Hill Road"/>
    <tag k="addr:state" v="VT"/>
    <tag k="ref:vcgi:esiteid" v="23674"/>
  </node>
  <node id="-1022" visible="true" lat="44.19506455" lon="-72.56769663">
    <tag k="addr:housenumber" v="2027"/>
    <tag k="addr:street" v="East Road"/>
    <tag k="addr:state" v="VT"/>
    <tag k="ref:vcgi:esiteid" v="23680"/>
  </node>
  <node id="-1023" visible="true" lat="44.19482951" lon="-72.56429485">
    <tag k="addr:housenumber" v="525"/>
    <tag k="addr:street" v="Scott Hill Road"/>
    <tag k="addr:state" v="VT"/>
    <tag k="ref:vcgi:esiteid" v="23681"/>
  </node>
  <node id="-1033" visible="true" lat="44.19406599" lon="-72.56998096">
    <tag k="addr:housenumber" v="1891"/>
    <tag k="addr:street" v="East Road"/>
    <tag k="addr:state" v="VT"/>
    <tag k="ref:vcgi:esiteid" v="23691"/>
  </node>
  <node id="-1037" visible="true" lat="44.19382095" lon="-72.56316375">
    <tag k="addr:housenumber" v="439"/>
    <tag k="addr:street" v="Scott Hill Road"/>
    <tag k="addr:state" v="VT"/>
    <tag k="ref:vcgi:esiteid" v="23695"/>
  </node>
  <node id="-1040" visible="true" lat="44.19351439" lon="-72.561487">
    <tag k="addr:housenumber" v="337"/>
    <tag k="addr:street" v="Scott Hill Road"/>
    <tag k="addr:state" v="VT"/>
    <tag k="ref:vcgi:esiteid" v="23698"/>
  </node>
  <node id="-1043" visible="true" lat="44.19316847" lon="-72.57040892">
    <tag k="addr:housenumber" v="1883"/>
    <tag k="addr:street" v="East Road"/>
    <tag k="addr:state" v="VT"/>
    <tag k="ref:vcgi:esiteid" v="23701"/>
  </node>
  <node id="-1048" visible="true" lat="44.19325626" lon="-72.56081186">
    <tag k="addr:housenumber" v="325"/>
    <tag k="addr:street" v="Scott Hill Road"/>
    <tag k="addr:state" v="VT"/>
    <tag k="ref:vcgi:esiteid" v="23706"/>
  </node>
  <node id="-1051" visible="true" lat="44.19280666" lon="-72.56931897">
    <tag k="addr:housenumber" v="1845"/>
    <tag k="addr:street" v="East Road"/>
    <tag k="addr:state" v="VT"/>
    <tag k="ref:vcgi:esiteid" v="23709"/>
  </node>
  <node id="-1053" visible="true" lat="44.19249204" lon="-72.56451231">
    <tag k="addr:housenumber" v="1898"/>
    <tag k="addr:street" v="East Road"/>
    <tag k="addr:state" v="VT"/>
    <tag k="ref:vcgi:esiteid" v="23712"/>
  </node>
  <node id="-1054" visible="true" lat="44.19239453" lon="-72.55569458">
    <tag k="addr:housenumber" v="1381"/>
    <tag k="addr:street" v="Airport Road"/>
    <tag k="addr:state" v="VT"/>
    <tag k="ref:vcgi:esiteid" v="23713"/>
  </node>
  <node id="-1061" visible="true" lat="44.19194929" lon="-72.5700339">
    <tag k="addr:housenumber" v="1785"/>
    <tag k="addr:street" v="East Road"/>
    <tag k="addr:state" v="VT"/>
    <tag k="ref:vcgi:esiteid" v="23720"/>
  </node>
  <node id="-1076" visible="true" lat="44.19111634" lon="-72.57001596">
    <tag k="addr:housenumber" v="1727"/>
    <tag k="addr:street" v="East Road"/>
    <tag k="addr:state" v="VT"/>
    <tag k="ref:vcgi:esiteid" v="23735"/>
  </node>
  <node id="-1102" visible="true" lat="44.18935592" lon="-72.57089177">
    <tag k="addr:housenumber" v="1607"/>
    <tag k="addr:street" v="East Road"/>
    <tag k="addr:state" v="VT"/>
    <tag k="ref:vcgi:esiteid" v="23761"/>
  </node>
  <node id="-1118" visible="true" lat="44.18795054" lon="-72.57334373">
    <tag k="addr:housenumber" v="1473"/>
    <tag k="addr:street" v="East Road"/>
    <tag k="addr:state" v="VT"/>
    <tag k="ref:vcgi:esiteid" v="23777"/>
  </node>
  <node id="-1121" visible="true" lat="44.18777557" lon="-72.56573309">
    <tag k="addr:housenumber" v="1570"/>
    <tag k="addr:street" v="East Road"/>
    <tag k="addr:state" v="VT"/>
    <tag k="ref:vcgi:esiteid" v="23780"/>
  </node>
  <node id="-1132" visible="true" lat="44.18701587" lon="-72.57262742">
    <tag k="addr:housenumber" v="1409"/>
    <tag k="addr:street" v="East Road"/>
    <tag k="addr:state" v="VT"/>
    <tag k="ref:vcgi:esiteid" v="23791"/>
  </node>
  <node id="-1145" visible="true" lat="44.18570132" lon="-72.5728366">
    <tag k="addr:housenumber" v="1321"/>
    <tag k="addr:street" v="East Road"/>
    <tag k="addr:state" v="VT"/>
    <tag k="ref:vcgi:esiteid" v="23804"/>
  </node>
  <node id="-1152" visible="true" lat="44.18484115" lon="-72.57260131">
    <tag k="addr:housenumber" v="1276"/>
    <tag k="addr:street" v="East Road"/>
    <tag k="addr:state" v="VT"/>
    <tag k="ref:vcgi:esiteid" v="23811"/>
  </node>
  <node id="-1154" visible="true" lat="44.18427413" lon="-72.57061845">
    <tag k="addr:housenumber" v="1380"/>
    <tag k="addr:street" v="East Road"/>
    <tag k="addr:state" v="VT"/>
    <tag k="ref:vcgi:esiteid" v="23813"/>
  </node>
  <node id="-1164" visible="true" lat="44.18184281" lon="-72.57401377">
    <tag k="addr:housenumber" v="1072"/>
    <tag k="addr:street" v="East Road"/>
    <tag k="addr:state" v="VT"/>
    <tag k="ref:vcgi:esiteid" v="23823"/>
  </node>
  <node id="-1166" visible="true" lat="44.18149322" lon="-72.5743836">
    <tag k="addr:housenumber" v="1026"/>
    <tag k="addr:street" v="East Road"/>
    <tag k="addr:state" v="VT"/>
    <tag k="ref:vcgi:esiteid" v="23825"/>
  </node>
  <node id="-1179" visible="true" lat="44.17837713" lon="-72.56976439">
    <tag k="addr:housenumber" v="628"/>
    <tag k="addr:street" v="East Road"/>
    <tag k="addr:state" v="VT"/>
    <tag k="ref:vcgi:esiteid" v="23838"/>
  </node>
  <node id="-1190" visible="true" lat="44.17642974" lon="-72.6423645">
    <tag k="addr:housenumber" v="92"/>
    <tag k="addr:street" v="Vermont Route 12"/>
    <tag k="addr:state" v="VT"/>
    <tag k="ref:vcgi:esiteid" v="23849"/>
  </node>
  <node id="-1191" visible="true" lat="44.1764145" lon="-72.64215189">
    <tag k="addr:housenumber" v="94"/>
    <tag k="addr:street" v="Vermont Route 12"/>
    <tag k="addr:state" v="VT"/>
    <tag k="ref:vcgi:esiteid" v="23850"/>
  </node>
  <node id="-1192" visible="true" lat="44.17640075" lon="-72.57324108">
    <tag k="addr:housenumber" v="635"/>
    <tag k="addr:street" v="East Road"/>
    <tag k="addr:state" v="VT"/>
    <tag k="ref:vcgi:esiteid" v="23851"/>
  </node>
  <node id="-1194" visible="true" lat="44.17541837" lon="-72.57224908">
    <tag k="addr:housenumber" v="544"/>
    <tag k="addr:street" v="East Road"/>
    <tag k="addr:state" v="VT"/>
    <tag k="ref:vcgi:esiteid" v="23853"/>
  </node>
  <node id="-1197" visible="true" lat="44.17529814" lon="-72.57422011">
    <tag k="addr:housenumber" v="63"/>
    <tag k="addr:street" v="House Road"/>
    <tag k="addr:state" v="VT"/>
    <tag k="ref:vcgi:esiteid" v="23856"/>
  </node>
  <node id="-1198" visible="true" lat="44.17475891" lon="-72.57309061">
    <tag k="addr:housenumber" v="495"/>
    <tag k="addr:street" v="East Road"/>
    <tag k="addr:state" v="VT"/>
    <tag k="ref:vcgi:esiteid" v="23857"/>
  </node>
  <node id="-1201" visible="true" lat="44.17412417" lon="-72.57316621">
    <tag k="addr:housenumber" v="449"/>
    <tag k="addr:street" v="East Road"/>
    <tag k="addr:state" v="VT"/>
    <tag k="ref:vcgi:esiteid" v="23860"/>
  </node>
  <node id="-1206" visible="true" lat="44.1719237" lon="-72.57236193">
    <tag k="addr:housenumber" v="300"/>
    <tag k="addr:street" v="East Road"/>
    <tag k="addr:state" v="VT"/>
    <tag k="ref:vcgi:esiteid" v="23865"/>
  </node>
  <node id="-1207" visible="true" lat="44.17184777" lon="-72.57364152">
    <tag k="addr:housenumber" v="295"/>
    <tag k="addr:street" v="East Road"/>
    <tag k="addr:state" v="VT"/>
    <tag k="ref:vcgi:esiteid" v="23866"/>
  </node>
  <node id="-1212" visible="true" lat="44.17004299" lon="-72.57183862">
    <tag k="addr:housenumber" v="164"/>
    <tag k="addr:street" v="East Road"/>
    <tag k="addr:state" v="VT"/>
    <tag k="ref:vcgi:esiteid" v="23873"/>
  </node>
  <node id="-1213" visible="true" lat="44.16954004" lon="-72.57182859">
    <tag k="addr:housenumber" v="136"/>
    <tag k="addr:street" v="East Road"/>
    <tag k="addr:state" v="VT"/>
    <tag k="ref:vcgi:esiteid" v="23874"/>
  </node>
  <node id="-1215" visible="true" lat="44.16929001" lon="-72.57285619">
    <tag k="addr:housenumber" v="113"/>
    <tag k="addr:street" v="East Road"/>
    <tag k="addr:state" v="VT"/>
    <tag k="ref:vcgi:esiteid" v="23876"/>
  </node>
  <node id="-1217" visible="true" lat="44.16874893" lon="-72.57169436">
    <tag k="addr:housenumber" v="80"/>
    <tag k="addr:street" v="East Road"/>
    <tag k="addr:state" v="VT"/>
    <tag k="ref:vcgi:esiteid" v="23878"/>
  </node>
  <node id="-1218" visible="true" lat="44.16832627" lon="-72.57302613">
    <tag k="addr:housenumber" v="49"/>
    <tag k="addr:street" v="East Road"/>
    <tag k="addr:state" v="VT"/>
    <tag k="ref:vcgi:esiteid" v="23880"/>
  </node>
  <node id="-1226" visible="true" lat="44.1977151" lon="-72.57296119">
    <tag k="addr:housenumber" v="56"/>
    <tag k="addr:street" v="Tree Farm Lane"/>
    <tag k="addr:state" v="VT"/>
    <tag k="ref:vcgi:esiteid" v="23888"/>
  </node>
  <node id="-1227" visible="true" lat="44.19676813" lon="-72.57376224">
    <tag k="addr:housenumber" v="94"/>
    <tag k="addr:street" v="Tree Farm Lane"/>
    <tag k="addr:state" v="VT"/>
    <tag k="ref:vcgi:esiteid" v="23889"/>
  </node>
  <node id="-1228" visible="true" lat="44.19516769" lon="-72.57382064">
    <tag k="addr:housenumber" v="189"/>
    <tag k="addr:street" v="Tree Farm Lane"/>
    <tag k="addr:state" v="VT"/>
    <tag k="ref:vcgi:esiteid" v="23890"/>
  </node>
  <node id="-1229" visible="true" lat="44.19708766" lon="-72.57158739">
    <tag k="addr:housenumber" v="57"/>
    <tag k="addr:street" v="Tree Farm Lane"/>
    <tag k="addr:state" v="VT"/>
    <tag k="ref:vcgi:esiteid" v="23891"/>
  </node>
  <node id="-1262" visible="true" lat="44.19128009" lon="-72.54991932">
    <tag k="addr:housenumber" v="1111"/>
    <tag k="addr:street" v="Airport Road"/>
    <tag k="addr:state" v="VT"/>
    <tag k="ref:vcgi:esiteid" v="23926"/>
  </node>
  <node id="-1263" visible="true" lat="44.19115511" lon="-72.5492901">
    <tag k="addr:housenumber" v="1075"/>
    <tag k="addr:street" v="Airport Road"/>
    <tag k="addr:state" v="VT"/>
    <tag k="ref:vcgi:esiteid" v="23927"/>
  </node>
  <node id="-1265" visible="true" lat="44.19031594" lon="-72.5459085">
    <tag k="addr:housenumber" v="899"/>
    <tag k="addr:street" v="Airport Road"/>
    <tag k="addr:state" v="VT"/>
    <tag k="ref:vcgi:esiteid" v="23929"/>
  </node>
  <node id="-1266" visible="true" lat="44.18897247" lon="-72.54697418">
    <tag k="addr:housenumber" v="925"/>
    <tag k="addr:street" v="Airport Road"/>
    <tag k="addr:state" v="VT"/>
    <tag k="ref:vcgi:esiteid" v="23930"/>
  </node>
  <node id="-1303" visible="true" lat="44.23337656" lon="-72.55510462">
    <tag k="addr:housenumber" v="85"/>
    <tag k="addr:street" v="Hersey Road"/>
    <tag k="addr:state" v="VT"/>
    <tag k="ref:vcgi:esiteid" v="23973"/>
  </node>
  <node id="-1367" visible="true" lat="44.19658068" lon="-72.5678149">
    <tag k="addr:housenumber" v="781"/>
    <tag k="addr:street" v="Scott Hill Road"/>
    <tag k="addr:state" v="VT"/>
    <tag k="ref:vcgi:esiteid" v="328174"/>
  </node>
  <node id="-1397" visible="true" lat="44.19195425" lon="-72.55538783">
    <tag k="addr:housenumber" v="1383"/>
    <tag k="addr:street" v="Airport Road"/>
    <tag k="addr:state" v="VT"/>
    <tag k="ref:vcgi:esiteid" v="338651"/>
  </node>
  <node id="-1435" visible="true" lat="44.18832143" lon="-72.56224326">
    <tag k="addr:housenumber" v="370"/>
    <tag k="addr:street" v="Dodge Farm Road"/>
    <tag k="addr:state" v="VT"/>
    <tag k="ref:vcgi:esiteid" v="342386"/>
  </node>
  <node id="-1444" visible="true" lat="44.21014592" lon="-72.57603572">
    <tag k="addr:housenumber" v="10"/>
    <tag k="addr:street" v="Founders Way"/>
    <tag k="addr:state" v="VT"/>
    <tag k="ref:vcgi:esiteid" v="342540"/>
  </node>
  <node id="-1445" visible="true" lat="44.21006671" lon="-72.57574632">
    <tag k="addr:housenumber" v="24"/>
    <tag k="addr:street" v="Founders Way"/>
    <tag k="addr:state" v="VT"/>
    <tag k="ref:vcgi:esiteid" v="342541"/>
  </node>
  <node id="-1486" visible="true" lat="44.19305243" lon="-72.55404137">
    <tag k="addr:housenumber" v="1410"/>
    <tag k="addr:street" v="Airport Road"/>
    <tag k="addr:state" v="VT"/>
    <tag k="ref:vcgi:esiteid" v="453184"/>
  </node>
  <node id="-1504" visible="true" lat="44.18607432" lon="-72.56039454">
    <tag k="addr:housenumber" v="311"/>
    <tag k="addr:street" v="Water Works Way"/>
    <tag k="addr:state" v="VT"/>
    <tag k="ref:vcgi:esiteid" v="610862"/>
  </node>
  <node id="-1549" visible="true" lat="44.24988908" lon="-72.60337012">
    <tag k="addr:housenumber" v="115"/>
    <tag k="addr:street" v="Nelson Drive"/>
    <tag k="addr:state" v="VT"/>
    <tag k="ref:vcgi:esiteid" v="752152"/>
  </node>
  <node id="-1551" visible="true" lat="44.22167645" lon="-72.55858844">
    <tag k="addr:housenumber" v="1549"/>
    <tag k="addr:street" v="Berlin State Highway"/>
    <tag k="addr:state" v="VT"/>
    <tag k="ref:vcgi:esiteid" v="752170"/>
  </node>
  <node id="-1628" visible="true" lat="44.21003159" lon="-72.57561715">
    <tag k="addr:housenumber" v="32"/>
    <tag k="addr:street" v="Founders Way"/>
    <tag k="addr:state" v="VT"/>
    <tag k="ref:vcgi:esiteid" v="763747"/>
  </node>
</osm>
