<?xml version="1.0" encoding="UTF-8"?>
<osm version="0.6" generator="JOSM" upload="false">
  <node id="-130" visible="true" lat="44.25639391" lon="-72.60668127">
    <!-- multiple: "297 Junction Road, , VT" Multiple exact matches in OSM. -->
    <tag k="addr:housenumber" v="297"/>
    <tag k="addr:street" v="Junction Road"/>
    <tag k="addr:state" v="VT"/>
    <tag k="ref:vcgi:esiteid" v="22720"/>
  </node>
  <node id="-158" visible="true" lat="44.2453287" lon="-72.59312909">
    <!-- multiple: "6451 Vermont Route 12, , VT" Multiple exact matches in OSM. -->
    <tag k="addr:housenumber" v="6451"/>
    <tag k="addr:street" v="Vermont Route 12"/>
    <tag k="addr:state" v="VT"/>
    <tag k="ref:vcgi:esiteid" v="22750"/>
  </node>
  <node id="-163" visible="true" lat="44.24429025" lon="-72.59289995">
    <!-- multiple: "35 First Street, , VT" Multiple exact matches in OSM. -->
    <tag k="addr:housenumber" v="35"/>
    <tag k="addr:street" v="First Street"/>
    <tag k="addr:state" v="VT"/>
    <tag k="ref:vcgi:esiteid" v="22755"/>
  </node>
  <node id="-177" visible="true" lat="44.24275306" lon="-72.59444679">
    <!-- multiple: "16 Second Street, , VT" Multiple exact matches in OSM. -->
    <tag k="addr:housenumber" v="16"/>
    <tag k="addr:street" v="Second Street"/>
    <tag k="addr:state" v="VT"/>
    <tag k="ref:vcgi:esiteid" v="22769"/>
  </node>
  <node id="-485" visible="true" lat="44.22889327" lon="-72.55354783">
    <!-- multiple: "13 Overlook Drive, , VT" Multiple exact matches in OSM. -->
    <tag k="addr:housenumber" v="13"/>
    <tag k="addr:street" v="Overlook Drive"/>
    <tag k="addr:state" v="VT"/>
    <tag k="ref:vcgi:esiteid" v="23101"/>
  </node>
  <node id="-555" visible="true" lat="44.22380866" lon="-72.54701732">
    <!-- multiple: "168 Ames Drive, , VT" Multiple exact matches in OSM. -->
    <tag k="addr:housenumber" v="168"/>
    <tag k="addr:street" v="Ames Drive"/>
    <tag k="addr:state" v="VT"/>
    <tag k="ref:vcgi:esiteid" v="23182"/>
  </node>
  <node id="-573" visible="true" lat="44.22259879" lon="-72.56795699">
    <!-- multiple: "33 Stewart Road, , VT" Multiple exact matches in OSM. -->
    <tag k="addr:housenumber" v="33"/>
    <tag k="addr:street" v="Stewart Road"/>
    <tag k="addr:state" v="VT"/>
    <tag k="ref:vcgi:esiteid" v="23207"/>
  </node>
  <node id="-599" visible="true" lat="44.22117318" lon="-72.56267869">
    <!-- multiple: "286 Hospital Loop, , VT" Multiple exact matches in OSM. -->
    <tag k="addr:housenumber" v="286"/>
    <tag k="addr:street" v="Hospital Loop"/>
    <tag k="addr:state" v="VT"/>
    <tag k="ref:vcgi:esiteid" v="23237"/>
  </node>
  <node id="-708" visible="true" lat="44.21702575" lon="-72.5598526">
    <!-- multiple: "751 Granger Road, , VT" Multiple exact matches in OSM. -->
    <tag k="addr:housenumber" v="751"/>
    <tag k="addr:street" v="Granger Road"/>
    <tag k="addr:state" v="VT"/>
    <tag k="ref:vcgi:esiteid" v="23354"/>
  </node>
  <node id="-752" visible="true" lat="44.21641974" lon="-72.57350184">
    <!-- multiple: "445 Paine Turnpike North, , VT" Multiple exact matches in OSM. -->
    <tag k="addr:housenumber" v="445"/>
    <tag k="addr:street" v="Paine Turnpike North"/>
    <tag k="addr:state" v="VT"/>
    <tag k="ref:vcgi:esiteid" v="23399"/>
  </node>
  <node id="-827" visible="true" lat="44.21353647" lon="-72.57632089">
    <!-- multiple: "213 Paine Turnpike North, , VT" Multiple exact matches in OSM. -->
    <tag k="addr:housenumber" v="213"/>
    <tag k="addr:street" v="Paine Turnpike North"/>
    <tag k="addr:state" v="VT"/>
    <tag k="ref:vcgi:esiteid" v="23478"/>
  </node>
  <node id="-862" visible="true" lat="44.21213479" lon="-72.58201974">
    <!-- multiple: "67 Sunset Drive, , VT" Multiple exact matches in OSM. -->
    <tag k="addr:housenumber" v="67"/>
    <tag k="addr:street" v="Sunset Drive"/>
    <tag k="addr:state" v="VT"/>
    <tag k="ref:vcgi:esiteid" v="23516"/>
  </node>
  <node id="-868" visible="true" lat="44.21175255" lon="-72.57792177">
    <!-- multiple: "108 Shed Road, , VT" Multiple exact matches in OSM. -->
    <tag k="addr:housenumber" v="108"/>
    <tag k="addr:street" v="Shed Road"/>
    <tag k="addr:state" v="VT"/>
    <tag k="ref:vcgi:esiteid" v="23522"/>
  </node>
  <node id="-901" visible="true" lat="44.20891565" lon="-72.57709231">
    <!-- multiple: "1861 Scott Hill Road, , VT" Multiple exact matches in OSM. -->
    <tag k="addr:housenumber" v="1861"/>
    <tag k="addr:street" v="Scott Hill Road"/>
    <tag k="addr:state" v="VT"/>
    <tag k="ref:vcgi:esiteid" v="23557"/>
  </node>
  <node id="-1248" visible="true" lat="44.21610126" lon="-72.57250902">
    <!-- multiple: "460 Paine Turnpike North, , VT" Multiple exact matches in OSM. -->
    <tag k="addr:housenumber" v="460"/>
    <tag k="addr:street" v="Paine Turnpike North"/>
    <tag k="addr:state" v="VT"/>
    <tag k="ref:vcgi:esiteid" v="23911"/>
  </node>
  <node id="-1265" visible="true" lat="44.19031594" lon="-72.5459085">
    <!-- multiple: "899 Airport Road, , VT" Multiple exact matches in OSM. -->
    <tag k="addr:housenumber" v="899"/>
    <tag k="addr:street" v="Airport Road"/>
    <tag k="addr:state" v="VT"/>
    <tag k="ref:vcgi:esiteid" v="23929"/>
  </node>
  <node id="-1296" visible="true" lat="44.21692969" lon="-72.56502248">
    <!-- multiple: "282 Berlin Mall Road, , VT" Multiple exact matches in OSM. -->
    <tag k="addr:housenumber" v="282"/>
    <tag k="addr:street" v="Berlin Mall Road"/>
    <tag k="addr:state" v="VT"/>
    <tag k="ref:vcgi:esiteid" v="23964"/>
  </node>
  <node id="-1349" visible="true" lat="44.22839904" lon="-72.54618016">
    <!-- multiple: "7 Hideaway Drive, , VT" Multiple exact matches in OSM. -->
    <tag k="addr:housenumber" v="7"/>
    <tag k="addr:street" v="Hideaway Drive"/>
    <tag k="addr:state" v="VT"/>
    <tag k="ref:vcgi:esiteid" v="318050"/>
  </node>
  <node id="-1364" visible="true" lat="44.22857777" lon="-72.54679644">
    <!-- multiple: "41 Hideaway Drive, , VT" Multiple exact matches in OSM. -->
    <tag k="addr:housenumber" v="41"/>
    <tag k="addr:street" v="Hideaway Drive"/>
    <tag k="addr:state" v="VT"/>
    <tag k="ref:vcgi:esiteid" v="326144"/>
  </node>
</osm>
