<?xml version="1.0" encoding="UTF-8"?>
<osm version="0.6" generator="JOSM" upload="false">
  <node id="-162" visible="true" lat="44.24435421" lon="-72.5931646">
    <!-- offset: "19 First Street, , VT" Significant offset - 9758.3m -->
    <tag k="addr:housenumber" v="19"/>
    <tag k="addr:street" v="First Street"/>
    <tag k="addr:state" v="VT"/>
    <tag k="ref:vcgi:esiteid" v="22754"/>
  </node>
  <node id="-678" visible="true" lat="44.21808796" lon="-72.57339711">
    <!-- offset: "61 Richardson Road, , VT" Significant offset - 4374.2m -->
    <tag k="addr:housenumber" v="61"/>
    <tag k="addr:street" v="Richardson Road"/>
    <tag k="addr:state" v="VT"/>
    <tag k="ref:vcgi:esiteid" v="23321"/>
  </node>
  <node id="-1000" visible="true" lat="44.19851264" lon="-72.63279353">
    <!-- offset: "45 School Street, , VT" Significant offset - 5681.6m -->
    <tag k="addr:housenumber" v="45"/>
    <tag k="addr:street" v="School Street"/>
    <tag k="addr:state" v="VT"/>
    <tag k="ref:vcgi:esiteid" v="23658"/>
  </node>
  <node id="-1050" visible="true" lat="44.19275665" lon="-72.65699005">
    <!-- offset: "762 West Hill Road, , VT" Significant offset - 4613.4m -->
    <tag k="addr:housenumber" v="762"/>
    <tag k="addr:street" v="West Hill Road"/>
    <tag k="addr:state" v="VT"/>
    <tag k="ref:vcgi:esiteid" v="23708"/>
  </node>
  <node id="-1257" visible="true" lat="44.19982414" lon="-72.56081066">
    <!-- offset: "1979 Airport Road, , VT" Significant offset - 459m -->
    <tag k="addr:housenumber" v="1979"/>
    <tag k="addr:street" v="Airport Road"/>
    <tag k="addr:state" v="VT"/>
    <tag k="ref:vcgi:esiteid" v="23921"/>
  </node>
  <node id="-1325" visible="true" lat="44.2027411" lon="-72.66282976">
    <!-- offset: "1605 West Hill Road, , VT" Significant offset - 6586.2m -->
    <tag k="addr:housenumber" v="1605"/>
    <tag k="addr:street" v="West Hill Road"/>
    <tag k="addr:state" v="VT"/>
    <tag k="ref:vcgi:esiteid" v="23996"/>
  </node>
</osm>
