<?xml version="1.0" encoding="UTF-8"?>
<osm version="0.6" generator="JOSM" upload="false">
  <node id="-100" visible="true" lat="44.26594156" lon="-72.64150493">
    <tag k="addr:housenumber" v="234"/>
    <tag k="addr:street" v="Jones Brook Road"/>
    <tag k="addr:state" v="VT"/>
    <tag k="ref:vcgi:esiteid" v="22689"/>
  </node>
  <node id="-101" visible="true" lat="44.26240485" lon="-72.62555479">
    <tag k="addr:housenumber" v="1307"/>
    <tag k="addr:street" v="Junction Road"/>
    <tag k="addr:state" v="VT"/>
    <tag k="ref:vcgi:esiteid" v="22690"/>
  </node>
  <node id="-102" visible="true" lat="44.26199996" lon="-72.62405984">
    <tag k="addr:housenumber" v="1239"/>
    <tag k="addr:street" v="Junction Road"/>
    <tag k="addr:state" v="VT"/>
    <tag k="ref:vcgi:esiteid" v="22691"/>
  </node>
  <node id="-103" visible="true" lat="44.26141357" lon="-72.62271118">
    <tag k="addr:housenumber" v="1151"/>
    <tag k="addr:street" v="Junction Road"/>
    <tag k="addr:state" v="VT"/>
    <tag k="ref:vcgi:esiteid" v="22692"/>
  </node>
  <node id="-104" visible="true" lat="44.26113634" lon="-72.62233088">
    <tag k="addr:housenumber" v="1119"/>
    <tag k="addr:street" v="Junction Road"/>
    <tag k="addr:state" v="VT"/>
    <tag k="ref:vcgi:esiteid" v="22693"/>
  </node>
  <node id="-105" visible="true" lat="44.26104953" lon="-72.64194486">
    <tag k="addr:housenumber" v="592"/>
    <tag k="addr:street" v="Jones Brook Road"/>
    <tag k="addr:state" v="VT"/>
    <tag k="ref:vcgi:esiteid" v="22694"/>
  </node>
  <node id="-106" visible="true" lat="44.26094427" lon="-72.62128637">
    <tag k="addr:housenumber" v="1076"/>
    <tag k="addr:street" v="Junction Road"/>
    <tag k="addr:state" v="VT"/>
    <tag k="ref:vcgi:esiteid" v="22695"/>
  </node>
  <node id="-107" visible="true" lat="44.25884309" lon="-72.62594207">
    <tag k="addr:housenumber" v="59"/>
    <tag k="addr:street" v="Ember Lane"/>
    <tag k="addr:state" v="VT"/>
    <tag k="ref:vcgi:esiteid" v="22696"/>
  </node>
  <node id="-108" visible="true" lat="44.26053076" lon="-72.62062235">
    <tag k="addr:housenumber" v="1026"/>
    <tag k="addr:street" v="Junction Road"/>
    <tag k="addr:state" v="VT"/>
    <tag k="ref:vcgi:esiteid" v="22697"/>
  </node>
  <node id="-109" visible="true" lat="44.26029968" lon="-72.64276886">
    <tag k="addr:housenumber" v="700"/>
    <tag k="addr:street" v="Jones Brook Road"/>
    <tag k="addr:state" v="VT"/>
    <tag k="ref:vcgi:esiteid" v="22698"/>
  </node>
  <node id="-110" visible="true" lat="44.25972265" lon="-72.62091314">
    <tag k="addr:housenumber" v="74"/>
    <tag k="addr:street" v="Bartlett Road"/>
    <tag k="addr:state" v="VT"/>
    <tag k="ref:vcgi:esiteid" v="22699"/>
  </node>
  <node id="-111" visible="true" lat="44.25936109" lon="-72.61774809">
    <tag k="addr:housenumber" v="853"/>
    <tag k="addr:street" v="Junction Road"/>
    <tag k="addr:state" v="VT"/>
    <tag k="ref:vcgi:esiteid" v="22700"/>
  </node>
  <node id="-112" visible="true" lat="44.25869915" lon="-72.6435463">
    <tag k="addr:housenumber" v="765"/>
    <tag k="addr:street" v="Jones Brook Road"/>
    <tag k="addr:state" v="VT"/>
    <tag k="ref:vcgi:esiteid" v="22701"/>
  </node>
  <node id="-113" visible="true" lat="44.25836266" lon="-72.61568553">
    <tag k="addr:housenumber" v="733"/>
    <tag k="addr:street" v="Junction Road"/>
    <tag k="addr:state" v="VT"/>
    <tag k="ref:vcgi:esiteid" v="22702"/>
  </node>
  <node id="-114" visible="true" lat="44.25839691" lon="-72.61718171">
    <tag k="addr:housenumber" v="765"/>
    <tag k="addr:street" v="Junction Road"/>
    <tag k="addr:state" v="VT"/>
    <tag k="ref:vcgi:esiteid" v="22703"/>
  </node>
  <node id="-115" visible="true" lat="44.25573638" lon="-72.61636702">
    <tag k="addr:housenumber" v="607"/>
    <tag k="addr:street" v="Junction Road"/>
    <tag k="addr:state" v="VT"/>
    <tag k="ref:vcgi:esiteid" v="22704"/>
  </node>
  <node id="-116" visible="true" lat="44.2580982" lon="-72.61342831">
    <tag k="addr:housenumber" v="633"/>
    <tag k="addr:street" v="Junction Road"/>
    <tag k="addr:state" v="VT"/>
    <tag k="ref:vcgi:esiteid" v="22705"/>
  </node>
  <node id="-117" visible="true" lat="44.25816224" lon="-72.62066898">
    <tag k="addr:housenumber" v="191"/>
    <tag k="addr:street" v="Bartlett Road"/>
    <tag k="addr:state" v="VT"/>
    <tag k="ref:vcgi:esiteid" v="22706"/>
  </node>
  <node id="-118" visible="true" lat="44.25798926" lon="-72.61242319">
    <tag k="addr:housenumber" v="573"/>
    <tag k="addr:street" v="Junction Road"/>
    <tag k="addr:state" v="VT"/>
    <tag k="ref:vcgi:esiteid" v="22707"/>
  </node>
  <node id="-119" visible="true" lat="44.25754112" lon="-72.61133259">
    <tag k="addr:housenumber" v="525"/>
    <tag k="addr:street" v="Junction Road"/>
    <tag k="addr:state" v="VT"/>
    <tag k="ref:vcgi:esiteid" v="22708"/>
  </node>
  <node id="-120" visible="true" lat="44.25746581" lon="-72.62143479">
    <tag k="addr:housenumber" v="213"/>
    <tag k="addr:street" v="Bartlett Road"/>
    <tag k="addr:state" v="VT"/>
    <tag k="ref:vcgi:esiteid" v="22709"/>
  </node>
  <node id="-121" visible="true" lat="44.2567827" lon="-72.62226647">
    <tag k="addr:housenumber" v="304"/>
    <tag k="addr:street" v="Bartlett Road"/>
    <tag k="addr:state" v="VT"/>
    <tag k="ref:vcgi:esiteid" v="22710"/>
  </node>
  <node id="-122" visible="true" lat="44.25740147" lon="-72.61048023">
    <tag k="addr:housenumber" v="469"/>
    <tag k="addr:street" v="Junction Road"/>
    <tag k="addr:state" v="VT"/>
    <tag k="ref:vcgi:esiteid" v="22711"/>
  </node>
  <node id="-126" visible="true" lat="44.25719066" lon="-72.60994858">
    <tag k="addr:housenumber" v="10"/>
    <tag k="addr:street" v="Park Manor Drive"/>
    <tag k="addr:state" v="VT"/>
    <tag k="ref:vcgi:esiteid" v="22715"/>
  </node>
  <node id="-127" visible="true" lat="44.25687862" lon="-72.64529798">
    <tag k="addr:housenumber" v="963"/>
    <tag k="addr:street" v="Jones Brook Road"/>
    <tag k="addr:state" v="VT"/>
    <tag k="ref:vcgi:esiteid" v="22716"/>
  </node>
  <node id="-132" visible="true" lat="44.25650601" lon="-72.61979726">
    <tag k="addr:housenumber" v="277"/>
    <tag k="addr:street" v="Bartlett Road"/>
    <tag k="addr:state" v="VT"/>
    <tag k="ref:vcgi:esiteid" v="22722"/>
  </node>
  <node id="-133" visible="true" lat="44.25632267" lon="-72.62140817">
    <tag k="addr:housenumber" v="303"/>
    <tag k="addr:street" v="Bartlett Road"/>
    <tag k="addr:state" v="VT"/>
    <tag k="ref:vcgi:esiteid" v="22724"/>
  </node>
  <node id="-140" visible="true" lat="44.25620481" lon="-72.62231683">
    <tag k="addr:housenumber" v="362"/>
    <tag k="addr:street" v="Bartlett Road"/>
    <tag k="addr:state" v="VT"/>
    <tag k="ref:vcgi:esiteid" v="22732"/>
  </node>
  <node id="-141" visible="true" lat="44.25551132" lon="-72.62103539">
    <tag k="addr:housenumber" v="361"/>
    <tag k="addr:street" v="Bartlett Road"/>
    <tag k="addr:state" v="VT"/>
    <tag k="ref:vcgi:esiteid" v="22733"/>
  </node>
  <node id="-143" visible="true" lat="44.25436679" lon="-72.63326532">
    <tag k="addr:housenumber" v="1180"/>
    <tag k="addr:street" v="Bartlett Road"/>
    <tag k="addr:state" v="VT"/>
    <tag k="ref:vcgi:esiteid" v="22735"/>
  </node>
  <node id="-144" visible="true" lat="44.25347844" lon="-72.62981172">
    <tag k="addr:housenumber" v="1000"/>
    <tag k="addr:street" v="Bartlett Road"/>
    <tag k="addr:state" v="VT"/>
    <tag k="ref:vcgi:esiteid" v="22736"/>
  </node>
  <node id="-145" visible="true" lat="44.25422899" lon="-72.62276739">
    <tag k="addr:housenumber" v="462"/>
    <tag k="addr:street" v="Bartlett Road"/>
    <tag k="addr:state" v="VT"/>
    <tag k="ref:vcgi:esiteid" v="22737"/>
  </node>
  <node id="-146" visible="true" lat="44.25416695" lon="-72.62089457">
    <tag k="addr:housenumber" v="435"/>
    <tag k="addr:street" v="Bartlett Road"/>
    <tag k="addr:state" v="VT"/>
    <tag k="ref:vcgi:esiteid" v="22738"/>
  </node>
  <node id="-147" visible="true" lat="44.25254586" lon="-72.63186767">
    <tag k="addr:housenumber" v="1131"/>
    <tag k="addr:street" v="Bartlett Road"/>
    <tag k="addr:state" v="VT"/>
    <tag k="ref:vcgi:esiteid" v="22739"/>
  </node>
  <node id="-148" visible="true" lat="44.25255584" lon="-72.62582397">
    <tag k="addr:housenumber" v="794"/>
    <tag k="addr:street" v="Bartlett Road"/>
    <tag k="addr:state" v="VT"/>
    <tag k="ref:vcgi:esiteid" v="22740"/>
  </node>
  <node id="-149" visible="true" lat="44.25093423" lon="-72.62424235">
    <tag k="addr:housenumber" v="675"/>
    <tag k="addr:street" v="Bartlett Road"/>
    <tag k="addr:state" v="VT"/>
    <tag k="ref:vcgi:esiteid" v="22741"/>
  </node>
  <node id="-150" visible="true" lat="44.25123201" lon="-72.62304115">
    <tag k="addr:housenumber" v="42"/>
    <tag k="addr:street" v="Widow Moses Road"/>
    <tag k="addr:state" v="VT"/>
    <tag k="ref:vcgi:esiteid" v="22742"/>
  </node>
  <node id="-151" visible="true" lat="44.25093324" lon="-72.62165411">
    <tag k="addr:housenumber" v="65"/>
    <tag k="addr:street" v="Widow Moses Road"/>
    <tag k="addr:state" v="VT"/>
    <tag k="ref:vcgi:esiteid" v="22743"/>
  </node>
  <node id="-152" visible="true" lat="44.25096173" lon="-72.60150023">
    <tag k="addr:housenumber" v="60"/>
    <tag k="addr:street" v="Nelson Drive"/>
    <tag k="addr:state" v="VT"/>
    <tag k="ref:vcgi:esiteid" v="22744"/>
  </node>
  <node id="-153" visible="true" lat="44.24905591" lon="-72.62112316">
    <tag k="addr:housenumber" v="211"/>
    <tag k="addr:street" v="Widow Moses Road"/>
    <tag k="addr:state" v="VT"/>
    <tag k="ref:vcgi:esiteid" v="22745"/>
  </node>
  <node id="-171" visible="true" lat="44.24308203" lon="-72.59510731">
    <tag k="addr:housenumber" v="6261"/>
    <tag k="addr:street" v="Vermont Route 12"/>
    <tag k="addr:state" v="VT"/>
    <tag k="ref:vcgi:esiteid" v="22763"/>
  </node>
  <node id="-181" visible="true" lat="44.24265529" lon="-72.5939738">
    <tag k="addr:housenumber" v="42"/>
    <tag k="addr:street" v="Second Street"/>
    <tag k="addr:state" v="VT"/>
    <tag k="ref:vcgi:esiteid" v="22773"/>
  </node>
  <node id="-271" visible="true" lat="44.23912048" lon="-72.59377288">
    <tag k="addr:housenumber" v="84"/>
    <tag k="addr:street" v="Slayton Avenue"/>
    <tag k="addr:state" v="VT"/>
    <tag k="ref:vcgi:esiteid" v="22866"/>
  </node>
  <node id="-287" visible="true" lat="44.23673866" lon="-72.54617341">
    <tag k="addr:housenumber" v="346"/>
    <tag k="addr:street" v="Point Ridge Road"/>
    <tag k="addr:state" v="VT"/>
    <tag k="ref:vcgi:esiteid" v="22883"/>
  </node>
  <node id="-288" visible="true" lat="44.23656794" lon="-72.59907846">
    <tag k="addr:housenumber" v="90"/>
    <tag k="addr:street" v="Murray Road"/>
    <tag k="addr:state" v="VT"/>
    <tag k="ref:vcgi:esiteid" v="22884"/>
  </node>
  <node id="-292" visible="true" lat="44.23634338" lon="-72.54666137">
    <tag k="addr:housenumber" v="339"/>
    <tag k="addr:street" v="Point Ridge Road"/>
    <tag k="addr:state" v="VT"/>
    <tag k="ref:vcgi:esiteid" v="22889"/>
  </node>
  <node id="-303" visible="true" lat="44.23589977" lon="-72.57848117">
    <tag k="addr:housenumber" v="136"/>
    <tag k="addr:street" v="Cherry Lane"/>
    <tag k="addr:state" v="VT"/>
    <tag k="ref:vcgi:esiteid" v="22901"/>
  </node>
  <node id="-311" visible="true" lat="44.23549902" lon="-72.55150193">
    <tag k="addr:housenumber" v="208"/>
    <tag k="addr:street" v="Cedar Drive"/>
    <tag k="addr:state" v="VT"/>
    <tag k="ref:vcgi:esiteid" v="22909"/>
  </node>
  <node id="-328" visible="true" lat="44.2350787" lon="-72.55453729">
    <tag k="addr:housenumber" v="1873"/>
    <tag k="addr:street" v="U.S. Route 302"/>
    <tag k="addr:state" v="VT"/>
    <tag k="ref:vcgi:esiteid" v="22927"/>
  </node>
  <node id="-330" visible="true" lat="44.23490758" lon="-72.59834423">
    <tag k="addr:housenumber" v="5665"/>
    <tag k="addr:street" v="Vermont Route 12"/>
    <tag k="addr:state" v="VT"/>
    <tag k="ref:vcgi:esiteid" v="22930"/>
  </node>
  <node id="-337" visible="true" lat="44.23434791" lon="-72.60062284">
    <tag k="addr:housenumber" v="245"/>
    <tag k="addr:street" v="Murray Road"/>
    <tag k="addr:state" v="VT"/>
    <tag k="ref:vcgi:esiteid" v="22938"/>
  </node>
  <node id="-343" visible="true" lat="44.23455947" lon="-72.59940068">
    <tag k="addr:housenumber" v="5589"/>
    <tag k="addr:street" v="Vermont Route 12"/>
    <tag k="addr:state" v="VT"/>
    <tag k="ref:vcgi:esiteid" v="22944"/>
  </node>
  <node id="-377" visible="true" lat="44.23374415" lon="-72.59849087">
    <tag k="addr:housenumber" v="5590"/>
    <tag k="addr:street" v="Vermont Route 12"/>
    <tag k="addr:state" v="VT"/>
    <tag k="ref:vcgi:esiteid" v="22981"/>
  </node>
  <node id="-378" visible="true" lat="44.23377281" lon="-72.60159927">
    <tag k="addr:housenumber" v="324"/>
    <tag k="addr:street" v="Murray Road"/>
    <tag k="addr:state" v="VT"/>
    <tag k="ref:vcgi:esiteid" v="22982"/>
  </node>
  <node id="-379" visible="true" lat="44.2337032" lon="-72.59929391">
    <tag k="addr:housenumber" v="5569"/>
    <tag k="addr:street" v="Vermont Route 12"/>
    <tag k="addr:state" v="VT"/>
    <tag k="ref:vcgi:esiteid" v="22983"/>
  </node>
  <node id="-402" visible="true" lat="44.23332077" lon="-72.574216">
    <tag k="addr:housenumber" v="970"/>
    <tag k="addr:street" v="Stewart Road"/>
    <tag k="addr:state" v="VT"/>
    <tag k="ref:vcgi:esiteid" v="23007"/>
  </node>
  <node id="-412" visible="true" lat="44.23322004" lon="-72.5995324">
    <tag k="addr:housenumber" v="5533"/>
    <tag k="addr:street" v="Vermont Route 12"/>
    <tag k="addr:state" v="VT"/>
    <tag k="ref:vcgi:esiteid" v="23017"/>
  </node>
  <node id="-454" visible="true" lat="44.23074616" lon="-72.60209392">
    <tag k="addr:housenumber" v="5311"/>
    <tag k="addr:street" v="Vermont Route 12"/>
    <tag k="addr:state" v="VT"/>
    <tag k="ref:vcgi:esiteid" v="23067"/>
  </node>
  <node id="-455" visible="true" lat="44.23041401" lon="-72.61166543">
    <tag k="addr:housenumber" v="61"/>
    <tag k="addr:street" v="Gladden Road"/>
    <tag k="addr:state" v="VT"/>
    <tag k="ref:vcgi:esiteid" v="23068"/>
  </node>
  <node id="-457" visible="true" lat="44.23043543" lon="-72.61223083">
    <tag k="addr:housenumber" v="49"/>
    <tag k="addr:street" v="Gladden Road"/>
    <tag k="addr:state" v="VT"/>
    <tag k="ref:vcgi:esiteid" v="23071"/>
  </node>
  <node id="-459" visible="true" lat="44.23068269" lon="-72.60355436">
    <tag k="addr:housenumber" v="5231"/>
    <tag k="addr:street" v="Vermont Route 12"/>
    <tag k="addr:state" v="VT"/>
    <tag k="ref:vcgi:esiteid" v="23073"/>
  </node>
  <node id="-463" visible="true" lat="44.23022544" lon="-72.61116353">
    <tag k="addr:housenumber" v="74"/>
    <tag k="addr:street" v="Gladden Road"/>
    <tag k="addr:state" v="VT"/>
    <tag k="ref:vcgi:esiteid" v="23077"/>
  </node>
  <node id="-464" visible="true" lat="44.23009442" lon="-72.6161161">
    <tag k="addr:housenumber" v="4553"/>
    <tag k="addr:street" v="Vermont Route 12"/>
    <tag k="addr:state" v="VT"/>
    <tag k="ref:vcgi:esiteid" v="23078"/>
  </node>
  <node id="-467" visible="true" lat="44.2300982" lon="-72.61329886">
    <tag k="addr:housenumber" v="4645"/>
    <tag k="addr:street" v="Vermont Route 12"/>
    <tag k="addr:state" v="VT"/>
    <tag k="ref:vcgi:esiteid" v="23081"/>
  </node>
  <node id="-468" visible="true" lat="44.22993469" lon="-72.61409759">
    <tag k="addr:housenumber" v="4605"/>
    <tag k="addr:street" v="Vermont Route 12"/>
    <tag k="addr:state" v="VT"/>
    <tag k="ref:vcgi:esiteid" v="23082"/>
  </node>
  <node id="-470" visible="true" lat="44.22985594" lon="-72.61462058">
    <tag k="addr:housenumber" v="4581"/>
    <tag k="addr:street" v="Vermont Route 12"/>
    <tag k="addr:state" v="VT"/>
    <tag k="ref:vcgi:esiteid" v="23084"/>
  </node>
  <node id="-472" visible="true" lat="44.22959295" lon="-72.61384709">
    <tag k="addr:housenumber" v="4610"/>
    <tag k="addr:street" v="Vermont Route 12"/>
    <tag k="addr:state" v="VT"/>
    <tag k="ref:vcgi:esiteid" v="23086"/>
  </node>
  <node id="-473" visible="true" lat="44.22956465" lon="-72.60223187">
    <tag k="addr:housenumber" v="36"/>
    <tag k="addr:street" v="Browns Mill Road"/>
    <tag k="addr:state" v="VT"/>
    <tag k="ref:vcgi:esiteid" v="23087"/>
  </node>
  <node id="-474" visible="true" lat="44.22959885" lon="-72.61335473">
    <tag k="addr:housenumber" v="4642"/>
    <tag k="addr:street" v="Vermont Route 12"/>
    <tag k="addr:state" v="VT"/>
    <tag k="ref:vcgi:esiteid" v="23088"/>
  </node>
  <node id="-476" visible="true" lat="44.22949214" lon="-72.61436927">
    <tag k="addr:housenumber" v="4584"/>
    <tag k="addr:street" v="Vermont Route 12"/>
    <tag k="addr:state" v="VT"/>
    <tag k="ref:vcgi:esiteid" v="23092"/>
  </node>
  <node id="-478" visible="true" lat="44.22940784" lon="-72.61588099">
    <tag k="addr:housenumber" v="4509"/>
    <tag k="addr:street" v="Vermont Route 12"/>
    <tag k="addr:state" v="VT"/>
    <tag k="ref:vcgi:esiteid" v="23094"/>
  </node>
  <node id="-481" visible="true" lat="44.2293331" lon="-72.60876115">
    <tag k="addr:housenumber" v="4887"/>
    <tag k="addr:street" v="Vermont Route 12"/>
    <tag k="addr:state" v="VT"/>
    <tag k="ref:vcgi:esiteid" v="23097"/>
  </node>
  <node id="-486" visible="true" lat="44.22888177" lon="-72.6074845">
    <tag k="addr:housenumber" v="4913"/>
    <tag k="addr:street" v="Vermont Route 12"/>
    <tag k="addr:state" v="VT"/>
    <tag k="ref:vcgi:esiteid" v="23102"/>
  </node>
  <node id="-496" visible="true" lat="44.22836077" lon="-72.55370338">
    <tag k="addr:housenumber" v="1417"/>
    <tag k="addr:street" v="U.S. Route 302"/>
    <tag k="addr:state" v="VT"/>
    <tag k="ref:vcgi:esiteid" v="23114"/>
  </node>
  <node id="-497" visible="true" lat="44.22829204" lon="-72.619274">
    <tag k="addr:housenumber" v="4373"/>
    <tag k="addr:street" v="Vermont Route 12"/>
    <tag k="addr:state" v="VT"/>
    <tag k="ref:vcgi:esiteid" v="23115"/>
  </node>
  <node id="-499" visible="true" lat="44.22800161" lon="-72.55307621">
    <tag k="addr:housenumber" v="1391"/>
    <tag k="addr:street" v="U.S. Route 302"/>
    <tag k="addr:state" v="VT"/>
    <tag k="ref:vcgi:esiteid" v="23117"/>
  </node>
  <node id="-508" visible="true" lat="44.22749328" lon="-72.55152893">
    <tag k="addr:housenumber" v="1332"/>
    <tag k="addr:street" v="U.S. Route 302"/>
    <tag k="addr:state" v="VT"/>
    <tag k="ref:vcgi:esiteid" v="23126"/>
  </node>
  <node id="-522" visible="true" lat="44.226605" lon="-72.62059061">
    <tag k="addr:housenumber" v="4211"/>
    <tag k="addr:street" v="Vermont Route 12"/>
    <tag k="addr:state" v="VT"/>
    <tag k="ref:vcgi:esiteid" v="23141"/>
  </node>
  <node id="-528" visible="true" lat="44.22602601" lon="-72.62112916">
    <tag k="addr:housenumber" v="4167"/>
    <tag k="addr:street" v="Vermont Route 12"/>
    <tag k="addr:state" v="VT"/>
    <tag k="ref:vcgi:esiteid" v="23148"/>
  </node>
  <node id="-533" visible="true" lat="44.22561318" lon="-72.62046624">
    <tag k="addr:housenumber" v="4166"/>
    <tag k="addr:street" v="Vermont Route 12"/>
    <tag k="addr:state" v="VT"/>
    <tag k="ref:vcgi:esiteid" v="23155"/>
  </node>
  <node id="-542" visible="true" lat="44.22490506" lon="-72.62127524">
    <tag k="addr:housenumber" v="4096"/>
    <tag k="addr:street" v="Vermont Route 12"/>
    <tag k="addr:state" v="VT"/>
    <tag k="ref:vcgi:esiteid" v="23165"/>
  </node>
  <node id="-544" visible="true" lat="44.22494125" lon="-72.53427124">
    <tag k="addr:housenumber" v="18"/>
    <tag k="addr:street" v="Porter Place"/>
    <tag k="addr:state" v="VT"/>
    <tag k="ref:vcgi:esiteid" v="23167"/>
  </node>
  <node id="-548" visible="true" lat="44.22435311" lon="-72.55146669">
    <tag k="addr:housenumber" v="1129"/>
    <tag k="addr:street" v="U.S. Route 302"/>
    <tag k="addr:state" v="VT"/>
    <tag k="ref:vcgi:esiteid" v="23172"/>
  </node>
  <node id="-553" visible="true" lat="44.2236557" lon="-72.54949951">
    <tag k="addr:housenumber" v="1028"/>
    <tag k="addr:street" v="U.S. Route 302"/>
    <tag k="addr:state" v="VT"/>
    <tag k="ref:vcgi:esiteid" v="23180"/>
  </node>
  <node id="-560" visible="true" lat="44.22324184" lon="-72.62477537">
    <tag k="addr:housenumber" v="3939"/>
    <tag k="addr:street" v="Vermont Route 12"/>
    <tag k="addr:state" v="VT"/>
    <tag k="ref:vcgi:esiteid" v="23188"/>
  </node>
  <node id="-561" visible="true" lat="44.22324945" lon="-72.61317136">
    <tag k="addr:housenumber" v="409"/>
    <tag k="addr:street" v="Paradise Mountain Road"/>
    <tag k="addr:state" v="VT"/>
    <tag k="ref:vcgi:esiteid" v="23189"/>
  </node>
  <node id="-580" visible="true" lat="44.22210351" lon="-72.62386311">
    <tag k="addr:housenumber" v="3857"/>
    <tag k="addr:street" v="Vermont Route 12"/>
    <tag k="addr:state" v="VT"/>
    <tag k="ref:vcgi:esiteid" v="23217"/>
  </node>
  <node id="-592" visible="true" lat="44.22142872" lon="-72.58685864">
    <tag k="addr:housenumber" v="597"/>
    <tag k="addr:street" v="Hill Street Extension"/>
    <tag k="addr:state" v="VT"/>
    <tag k="ref:vcgi:esiteid" v="23230"/>
  </node>
  <node id="-595" visible="true" lat="44.22127914" lon="-72.61386871">
    <tag k="addr:housenumber" v="114"/>
    <tag k="addr:street" v="Paradise Mountain Road"/>
    <tag k="addr:state" v="VT"/>
    <tag k="ref:vcgi:esiteid" v="23233"/>
  </node>
  <node id="-598" visible="true" lat="44.22116508" lon="-72.62446533">
    <tag k="addr:housenumber" v="3789"/>
    <tag k="addr:street" v="Vermont Route 12"/>
    <tag k="addr:state" v="VT"/>
    <tag k="ref:vcgi:esiteid" v="23236"/>
  </node>
  <node id="-600" visible="true" lat="44.22112274" lon="-72.56965637">
    <tag k="addr:housenumber" v="835"/>
    <tag k="addr:street" v="Paine Turnpike North"/>
    <tag k="addr:state" v="VT"/>
    <tag k="ref:vcgi:esiteid" v="23238"/>
  </node>
  <node id="-604" visible="true" lat="44.22077179" lon="-72.617292">
    <tag k="addr:housenumber" v="123"/>
    <tag k="addr:street" v="Paradise Mountain Road"/>
    <tag k="addr:state" v="VT"/>
    <tag k="ref:vcgi:esiteid" v="23243"/>
  </node>
  <node id="-628" visible="true" lat="44.21947479" lon="-72.6397705">
    <tag k="addr:housenumber" v="914"/>
    <tag k="addr:street" v="Muzzy Road"/>
    <tag k="addr:state" v="VT"/>
    <tag k="ref:vcgi:esiteid" v="23269"/>
  </node>
  <node id="-631" visible="true" lat="44.2192713" lon="-72.61524689">
    <tag k="addr:housenumber" v="636"/>
    <tag k="addr:street" v="Rowell Hill Road"/>
    <tag k="addr:state" v="VT"/>
    <tag k="ref:vcgi:esiteid" v="23272"/>
  </node>
  <node id="-642" visible="true" lat="44.21893692" lon="-72.64897918">
    <tag k="addr:housenumber" v="1181"/>
    <tag k="addr:street" v="Muzzy Road"/>
    <tag k="addr:state" v="VT"/>
    <tag k="ref:vcgi:esiteid" v="23283"/>
  </node>
  <node id="-644" visible="true" lat="44.21899413" lon="-72.5420227">
    <tag k="addr:housenumber" v="535"/>
    <tag k="addr:street" v="U.S. Route 302"/>
    <tag k="addr:state" v="VT"/>
    <tag k="ref:vcgi:esiteid" v="23285"/>
  </node>
  <node id="-646" visible="true" lat="44.21888684" lon="-72.61733653">
    <tag k="addr:housenumber" v="697"/>
    <tag k="addr:street" v="Rowell Hill Road"/>
    <tag k="addr:state" v="VT"/>
    <tag k="ref:vcgi:esiteid" v="23287"/>
  </node>
  <node id="-650" visible="true" lat="44.21878051" lon="-72.64690399">
    <tag k="addr:housenumber" v="1144"/>
    <tag k="addr:street" v="Muzzy Road"/>
    <tag k="addr:state" v="VT"/>
    <tag k="ref:vcgi:esiteid" v="23291"/>
  </node>
  <node id="-655" visible="true" lat="44.21864318" lon="-72.61308288">
    <tag k="addr:housenumber" v="502"/>
    <tag k="addr:street" v="Rowell Hill Road"/>
    <tag k="addr:state" v="VT"/>
    <tag k="ref:vcgi:esiteid" v="23296"/>
  </node>
  <node id="-666" visible="true" lat="44.2183609" lon="-72.54039764">
    <tag k="addr:housenumber" v="445"/>
    <tag k="addr:street" v="U.S. Route 302"/>
    <tag k="addr:state" v="VT"/>
    <tag k="ref:vcgi:esiteid" v="23308"/>
  </node>
  <node id="-671" visible="true" lat="44.21826171" lon="-72.60926818">
    <tag k="addr:housenumber" v="242"/>
    <tag k="addr:street" v="Rowell Hill Road"/>
    <tag k="addr:state" v="VT"/>
    <tag k="ref:vcgi:esiteid" v="23314"/>
  </node>
  <node id="-675" visible="true" lat="44.21808242" lon="-72.64118957">
    <tag k="addr:housenumber" v="912"/>
    <tag k="addr:street" v="Muzzy Road"/>
    <tag k="addr:state" v="VT"/>
    <tag k="ref:vcgi:esiteid" v="23318"/>
  </node>
  <node id="-698" visible="true" lat="44.21726315" lon="-72.62566896">
    <tag k="addr:housenumber" v="3511"/>
    <tag k="addr:street" v="Vermont Route 12"/>
    <tag k="addr:state" v="VT"/>
    <tag k="ref:vcgi:esiteid" v="23344"/>
  </node>
  <node id="-703" visible="true" lat="44.21712539" lon="-72.61459226">
    <tag k="addr:housenumber" v="567"/>
    <tag k="addr:street" v="Rowell Hill Road"/>
    <tag k="addr:state" v="VT"/>
    <tag k="ref:vcgi:esiteid" v="23349"/>
  </node>
  <node id="-709" visible="true" lat="44.21702194" lon="-72.53913879">
    <tag k="addr:housenumber" v="189"/>
    <tag k="addr:street" v="River Run Manor Road"/>
    <tag k="addr:state" v="VT"/>
    <tag k="ref:vcgi:esiteid" v="23355"/>
  </node>
  <node id="-710" visible="true" lat="44.21692044" lon="-72.60965957">
    <tag k="addr:housenumber" v="241"/>
    <tag k="addr:street" v="Rowell Hill Road"/>
    <tag k="addr:state" v="VT"/>
    <tag k="ref:vcgi:esiteid" v="23356"/>
  </node>
  <node id="-712" visible="true" lat="44.21679378" lon="-72.55492245">
    <tag k="addr:housenumber" v="98"/>
    <tag k="addr:street" v="Hospitality Drive"/>
    <tag k="addr:state" v="VT"/>
    <tag k="ref:vcgi:esiteid" v="23359"/>
  </node>
  <node id="-727" visible="true" lat="44.21654129" lon="-72.55734353">
    <tag k="addr:housenumber" v="3270"/>
    <tag k="addr:street" v="Airport Road"/>
    <tag k="addr:state" v="VT"/>
    <tag k="ref:vcgi:esiteid" v="23374"/>
  </node>
  <node id="-737" visible="true" lat="44.2163905" lon="-72.62695505">
    <tag k="addr:housenumber" v="3447"/>
    <tag k="addr:street" v="Vermont Route 12"/>
    <tag k="addr:state" v="VT"/>
    <tag k="ref:vcgi:esiteid" v="23384"/>
  </node>
  <node id="-740" visible="true" lat="44.21633765" lon="-72.62496621">
    <tag k="addr:housenumber" v="81"/>
    <tag k="addr:street" v="Colby Road"/>
    <tag k="addr:state" v="VT"/>
    <tag k="ref:vcgi:esiteid" v="23387"/>
  </node>
  <node id="-748" visible="true" lat="44.21619814" lon="-72.62896873">
    <tag k="addr:housenumber" v="3371"/>
    <tag k="addr:street" v="Vermont Route 12"/>
    <tag k="addr:state" v="VT"/>
    <tag k="ref:vcgi:esiteid" v="23395"/>
  </node>
  <node id="-753" visible="true" lat="44.21612548" lon="-72.53661346">
    <tag k="addr:housenumber" v="195"/>
    <tag k="addr:street" v="U.S. Route 302"/>
    <tag k="addr:state" v="VT"/>
    <tag k="ref:vcgi:esiteid" v="23400"/>
  </node>
  <node id="-760" visible="true" lat="44.21592299" lon="-72.55785479">
    <tag k="addr:housenumber" v="3251"/>
    <tag k="addr:street" v="Airport Road"/>
    <tag k="addr:state" v="VT"/>
    <tag k="ref:vcgi:esiteid" v="23407"/>
  </node>
  <node id="-762" visible="true" lat="44.2158393" lon="-72.62780848">
    <tag k="addr:housenumber" v="3369"/>
    <tag k="addr:street" v="Vermont Route 12"/>
    <tag k="addr:state" v="VT"/>
    <tag k="ref:vcgi:esiteid" v="23410"/>
  </node>
  <node id="-777" visible="true" lat="44.21618421" lon="-72.63258783">
    <tag k="addr:housenumber" v="242"/>
    <tag k="addr:street" v="Muzzy Road"/>
    <tag k="addr:state" v="VT"/>
    <tag k="ref:vcgi:esiteid" v="23425"/>
  </node>
  <node id="-784" visible="true" lat="44.21516418" lon="-72.65996551">
    <tag k="addr:housenumber" v="1454"/>
    <tag k="addr:street" v="Chase Road"/>
    <tag k="addr:state" v="VT"/>
    <tag k="ref:vcgi:esiteid" v="23433"/>
  </node>
  <node id="-788" visible="true" lat="44.21516366" lon="-72.5766222">
    <tag k="addr:housenumber" v="109"/>
    <tag k="addr:street" v="Pike Drive"/>
    <tag k="addr:state" v="VT"/>
    <tag k="ref:vcgi:esiteid" v="23438"/>
  </node>
  <node id="-789" visible="true" lat="44.21507645" lon="-72.62692818">
    <tag k="addr:housenumber" v="3354"/>
    <tag k="addr:street" v="Vermont Route 12"/>
    <tag k="addr:state" v="VT"/>
    <tag k="ref:vcgi:esiteid" v="23439"/>
  </node>
  <node id="-791" visible="true" lat="44.21516116" lon="-72.63463518">
    <tag k="addr:housenumber" v="304"/>
    <tag k="addr:street" v="Muzzy Road"/>
    <tag k="addr:state" v="VT"/>
    <tag k="ref:vcgi:esiteid" v="23441"/>
  </node>
  <node id="-792" visible="true" lat="44.21505737" lon="-72.53531646">
    <tag k="addr:housenumber" v="97"/>
    <tag k="addr:street" v="U.S. Route 302"/>
    <tag k="addr:state" v="VT"/>
    <tag k="ref:vcgi:esiteid" v="23442"/>
  </node>
  <node id="-794" visible="true" lat="44.21488189" lon="-72.64469146">
    <tag k="addr:housenumber" v="875"/>
    <tag k="addr:street" v="Muzzy Road"/>
    <tag k="addr:state" v="VT"/>
    <tag k="ref:vcgi:esiteid" v="23444"/>
  </node>
  <node id="-801" visible="true" lat="44.21442649" lon="-72.60411581">
    <tag k="addr:housenumber" v="1727"/>
    <tag k="addr:street" v="Crosstown Road"/>
    <tag k="addr:state" v="VT"/>
    <tag k="ref:vcgi:esiteid" v="23452"/>
  </node>
  <node id="-804" visible="true" lat="44.2144165" lon="-72.63909149">
    <tag k="addr:housenumber" v="560"/>
    <tag k="addr:street" v="Muzzy Road"/>
    <tag k="addr:state" v="VT"/>
    <tag k="ref:vcgi:esiteid" v="23455"/>
  </node>
  <node id="-805" visible="true" lat="44.21432782" lon="-72.63629375">
    <tag k="addr:housenumber" v="419"/>
    <tag k="addr:street" v="Muzzy Road"/>
    <tag k="addr:state" v="VT"/>
    <tag k="ref:vcgi:esiteid" v="23456"/>
  </node>
  <node id="-806" visible="true" lat="44.21429397" lon="-72.63849431">
    <tag k="addr:housenumber" v="533"/>
    <tag k="addr:street" v="Muzzy Road"/>
    <tag k="addr:state" v="VT"/>
    <tag k="ref:vcgi:esiteid" v="23457"/>
  </node>
  <node id="-807" visible="true" lat="44.21430969" lon="-72.64076232">
    <tag k="addr:housenumber" v="643"/>
    <tag k="addr:street" v="Muzzy Road"/>
    <tag k="addr:state" v="VT"/>
    <tag k="ref:vcgi:esiteid" v="23458"/>
  </node>
  <node id="-808" visible="true" lat="44.21439828" lon="-72.63052386">
    <tag k="addr:housenumber" v="78"/>
    <tag k="addr:street" v="Penny Lane"/>
    <tag k="addr:state" v="VT"/>
    <tag k="ref:vcgi:esiteid" v="23459"/>
  </node>
  <node id="-810" visible="true" lat="44.21414947" lon="-72.66358184">
    <tag k="addr:housenumber" v="1577"/>
    <tag k="addr:street" v="Chase Road"/>
    <tag k="addr:state" v="VT"/>
    <tag k="ref:vcgi:esiteid" v="23461"/>
  </node>
  <node id="-813" visible="true" lat="44.21414566" lon="-72.63153839">
    <tag k="addr:housenumber" v="104"/>
    <tag k="addr:street" v="Penny Lane"/>
    <tag k="addr:state" v="VT"/>
    <tag k="ref:vcgi:esiteid" v="23464"/>
  </node>
  <node id="-815" visible="true" lat="44.21401682" lon="-72.62995134">
    <tag k="addr:housenumber" v="69"/>
    <tag k="addr:street" v="Penny Lane"/>
    <tag k="addr:state" v="VT"/>
    <tag k="ref:vcgi:esiteid" v="23466"/>
  </node>
  <node id="-818" visible="true" lat="44.21375223" lon="-72.62896734">
    <tag k="addr:housenumber" v="3217"/>
    <tag k="addr:street" v="Vermont Route 12"/>
    <tag k="addr:state" v="VT"/>
    <tag k="ref:vcgi:esiteid" v="23469"/>
  </node>
  <node id="-819" visible="true" lat="44.21378487" lon="-72.6591969">
    <tag k="addr:housenumber" v="1428"/>
    <tag k="addr:street" v="Chase Road"/>
    <tag k="addr:state" v="VT"/>
    <tag k="ref:vcgi:esiteid" v="23470"/>
  </node>
  <node id="-820" visible="true" lat="44.21359395" lon="-72.63064599">
    <tag k="addr:housenumber" v="103"/>
    <tag k="addr:street" v="Penny Lane"/>
    <tag k="addr:state" v="VT"/>
    <tag k="ref:vcgi:esiteid" v="23471"/>
  </node>
  <node id="-821" visible="true" lat="44.21350813" lon="-72.64015118">
    <tag k="addr:housenumber" v="74"/>
    <tag k="addr:street" v="Burelli Farm Drive"/>
    <tag k="addr:state" v="VT"/>
    <tag k="ref:vcgi:esiteid" v="23472"/>
  </node>
  <node id="-828" visible="true" lat="44.21334838" lon="-72.57531738">
    <tag k="addr:housenumber" v="233"/>
    <tag k="addr:street" v="Paine Turnpike North"/>
    <tag k="addr:state" v="VT"/>
    <tag k="ref:vcgi:esiteid" v="23479"/>
  </node>
  <node id="-829" visible="true" lat="44.21322255" lon="-72.60663303">
    <tag k="addr:housenumber" v="1890"/>
    <tag k="addr:street" v="Crosstown Road"/>
    <tag k="addr:state" v="VT"/>
    <tag k="ref:vcgi:esiteid" v="23480"/>
  </node>
  <node id="-852" visible="true" lat="44.21216185" lon="-72.65751372">
    <tag k="addr:housenumber" v="1302"/>
    <tag k="addr:street" v="Chase Road"/>
    <tag k="addr:state" v="VT"/>
    <tag k="ref:vcgi:esiteid" v="23506"/>
  </node>
  <node id="-856" visible="true" lat="44.21160978" lon="-72.57605175">
    <tag k="addr:housenumber" v="159"/>
    <tag k="addr:street" v="Paine Turnpike North"/>
    <tag k="addr:state" v="VT"/>
    <tag k="ref:vcgi:esiteid" v="23510"/>
  </node>
  <node id="-857" visible="true" lat="44.21224438" lon="-72.62935377">
    <tag k="addr:housenumber" v="3107"/>
    <tag k="addr:street" v="Vermont Route 12"/>
    <tag k="addr:state" v="VT"/>
    <tag k="ref:vcgi:esiteid" v="23511"/>
  </node>
  <node id="-867" visible="true" lat="44.21176326" lon="-72.60442634">
    <tag k="addr:housenumber" v="1943"/>
    <tag k="addr:street" v="Crosstown Road"/>
    <tag k="addr:state" v="VT"/>
    <tag k="ref:vcgi:esiteid" v="23521"/>
  </node>
  <node id="-871" visible="true" lat="44.21160058" lon="-72.65424466">
    <tag k="addr:housenumber" v="1150"/>
    <tag k="addr:street" v="Chase Road"/>
    <tag k="addr:state" v="VT"/>
    <tag k="ref:vcgi:esiteid" v="23525"/>
  </node>
  <node id="-873" visible="true" lat="44.21097949" lon="-72.65415284">
    <tag k="addr:housenumber" v="1107"/>
    <tag k="addr:street" v="Chase Road"/>
    <tag k="addr:state" v="VT"/>
    <tag k="ref:vcgi:esiteid" v="23528"/>
  </node>
  <node id="-874" visible="true" lat="44.21093898" lon="-72.6401989">
    <tag k="addr:housenumber" v="204"/>
    <tag k="addr:street" v="Burelli Farm Drive"/>
    <tag k="addr:state" v="VT"/>
    <tag k="ref:vcgi:esiteid" v="23529"/>
  </node>
  <node id="-895" visible="true" lat="44.20945739" lon="-72.64160919">
    <tag k="addr:housenumber" v="476"/>
    <tag k="addr:street" v="Chase Road"/>
    <tag k="addr:state" v="VT"/>
    <tag k="ref:vcgi:esiteid" v="23551"/>
  </node>
  <node id="-921" visible="true" lat="44.20682648" lon="-72.63584693">
    <tag k="addr:housenumber" v="2595"/>
    <tag k="addr:street" v="Vermont Route 12"/>
    <tag k="addr:state" v="VT"/>
    <tag k="ref:vcgi:esiteid" v="23577"/>
  </node>
  <node id="-922" visible="true" lat="44.20674133" lon="-72.6340332">
    <tag k="addr:housenumber" v="2664"/>
    <tag k="addr:street" v="Vermont Route 12"/>
    <tag k="addr:state" v="VT"/>
    <tag k="ref:vcgi:esiteid" v="23578"/>
  </node>
  <node id="-923" visible="true" lat="44.20648956" lon="-72.59304046">
    <tag k="addr:housenumber" v="271"/>
    <tag k="addr:street" v="Black Road"/>
    <tag k="addr:state" v="VT"/>
    <tag k="ref:vcgi:esiteid" v="23579"/>
  </node>
  <node id="-924" visible="true" lat="44.20647975" lon="-72.63619814">
    <tag k="addr:housenumber" v="28"/>
    <tag k="addr:street" v="Chase Road"/>
    <tag k="addr:state" v="VT"/>
    <tag k="ref:vcgi:esiteid" v="23580"/>
  </node>
  <node id="-926" visible="true" lat="44.20620443" lon="-72.63625733">
    <tag k="addr:housenumber" v="21"/>
    <tag k="addr:street" v="Chase Road"/>
    <tag k="addr:state" v="VT"/>
    <tag k="ref:vcgi:esiteid" v="23583"/>
  </node>
  <node id="-929" visible="true" lat="44.20577426" lon="-72.63577388">
    <tag k="addr:housenumber" v="2540"/>
    <tag k="addr:street" v="Vermont Route 12"/>
    <tag k="addr:state" v="VT"/>
    <tag k="ref:vcgi:esiteid" v="23586"/>
  </node>
  <node id="-932" visible="true" lat="44.20558749" lon="-72.63612628">
    <tag k="addr:housenumber" v="2526"/>
    <tag k="addr:street" v="Vermont Route 12"/>
    <tag k="addr:state" v="VT"/>
    <tag k="ref:vcgi:esiteid" v="23590"/>
  </node>
  <node id="-933" visible="true" lat="44.20560264" lon="-72.62126323">
    <tag k="addr:housenumber" v="2759"/>
    <tag k="addr:street" v="Crosstown Road"/>
    <tag k="addr:state" v="VT"/>
    <tag k="ref:vcgi:esiteid" v="23591"/>
  </node>
  <node id="-934" visible="true" lat="44.20516785" lon="-72.63689589">
    <tag k="addr:housenumber" v="2487"/>
    <tag k="addr:street" v="Vermont Route 12"/>
    <tag k="addr:state" v="VT"/>
    <tag k="ref:vcgi:esiteid" v="23592"/>
  </node>
  <node id="-938" visible="true" lat="44.20428808" lon="-72.63718604">
    <tag k="addr:housenumber" v="2409"/>
    <tag k="addr:street" v="Vermont Route 12"/>
    <tag k="addr:state" v="VT"/>
    <tag k="ref:vcgi:esiteid" v="23596"/>
  </node>
  <node id="-940" visible="true" lat="44.20388896" lon="-72.63711636">
    <tag k="addr:housenumber" v="2401"/>
    <tag k="addr:street" v="Vermont Route 12"/>
    <tag k="addr:state" v="VT"/>
    <tag k="ref:vcgi:esiteid" v="23598"/>
  </node>
  <node id="-941" visible="true" lat="44.20325023" lon="-72.6358009">
    <tag k="addr:housenumber" v="2366"/>
    <tag k="addr:street" v="Vermont Route 12"/>
    <tag k="addr:state" v="VT"/>
    <tag k="ref:vcgi:esiteid" v="23599"/>
  </node>
  <node id="-942" visible="true" lat="44.20392845" lon="-72.63865767">
    <tag k="addr:housenumber" v="70"/>
    <tag k="addr:street" v="Chico Drive"/>
    <tag k="addr:state" v="VT"/>
    <tag k="ref:vcgi:esiteid" v="23600"/>
  </node>
  <node id="-943" visible="true" lat="44.20370225" lon="-72.59289532">
    <tag k="addr:housenumber" v="19"/>
    <tag k="addr:street" v="Black Road"/>
    <tag k="addr:state" v="VT"/>
    <tag k="ref:vcgi:esiteid" v="23601"/>
  </node>
  <node id="-944" visible="true" lat="44.20387399" lon="-72.66218983">
    <tag k="addr:housenumber" v="1655"/>
    <tag k="addr:street" v="West Hill Road"/>
    <tag k="addr:state" v="VT"/>
    <tag k="ref:vcgi:esiteid" v="23602"/>
  </node>
  <node id="-949" visible="true" lat="44.20327807" lon="-72.59197468">
    <tag k="addr:housenumber" v="13"/>
    <tag k="addr:street" v="Black Road"/>
    <tag k="addr:state" v="VT"/>
    <tag k="ref:vcgi:esiteid" v="23607"/>
  </node>
  <node id="-950" visible="true" lat="44.20323944" lon="-72.64138793">
    <tag k="addr:housenumber" v="100"/>
    <tag k="addr:street" v="Chico Drive"/>
    <tag k="addr:state" v="VT"/>
    <tag k="ref:vcgi:esiteid" v="23608"/>
  </node>
  <node id="-952" visible="true" lat="44.20264366" lon="-72.63718542">
    <tag k="addr:housenumber" v="2317"/>
    <tag k="addr:street" v="Vermont Route 12"/>
    <tag k="addr:state" v="VT"/>
    <tag k="ref:vcgi:esiteid" v="23610"/>
  </node>
  <node id="-953" visible="true" lat="44.2025613" lon="-72.63905646">
    <tag k="addr:housenumber" v="98"/>
    <tag k="addr:street" v="Chico Drive"/>
    <tag k="addr:state" v="VT"/>
    <tag k="ref:vcgi:esiteid" v="23611"/>
  </node>
  <node id="-954" visible="true" lat="44.20233118" lon="-72.63773604">
    <tag k="addr:housenumber" v="44"/>
    <tag k="addr:street" v="Chandler Road"/>
    <tag k="addr:state" v="VT"/>
    <tag k="ref:vcgi:esiteid" v="23612"/>
  </node>
  <node id="-955" visible="true" lat="44.20212936" lon="-72.66156768">
    <tag k="addr:housenumber" v="1537"/>
    <tag k="addr:street" v="West Hill Road"/>
    <tag k="addr:state" v="VT"/>
    <tag k="ref:vcgi:esiteid" v="23613"/>
  </node>
  <node id="-956" visible="true" lat="44.20214462" lon="-72.63742065">
    <tag k="addr:housenumber" v="34"/>
    <tag k="addr:street" v="Chandler Road"/>
    <tag k="addr:state" v="VT"/>
    <tag k="ref:vcgi:esiteid" v="23614"/>
  </node>
  <node id="-957" visible="true" lat="44.20185349" lon="-72.63195128">
    <tag k="addr:housenumber" v="144"/>
    <tag k="addr:street" v="Mercier Road"/>
    <tag k="addr:state" v="VT"/>
    <tag k="ref:vcgi:esiteid" v="23615"/>
  </node>
  <node id="-958" visible="true" lat="44.20190655" lon="-72.59217052">
    <tag k="addr:housenumber" v="2745"/>
    <tag k="addr:street" v="Brookfield Road"/>
    <tag k="addr:state" v="VT"/>
    <tag k="ref:vcgi:esiteid" v="23616"/>
  </node>
  <node id="-959" visible="true" lat="44.20188333" lon="-72.63839661">
    <tag k="addr:housenumber" v="55"/>
    <tag k="addr:street" v="Chico Drive"/>
    <tag k="addr:state" v="VT"/>
    <tag k="ref:vcgi:esiteid" v="23617"/>
  </node>
  <node id="-960" visible="true" lat="44.2018342" lon="-72.63683485">
    <tag k="addr:housenumber" v="41"/>
    <tag k="addr:street" v="Chandler Road"/>
    <tag k="addr:state" v="VT"/>
    <tag k="ref:vcgi:esiteid" v="23618"/>
  </node>
  <node id="-961" visible="true" lat="44.20150793" lon="-72.63775014">
    <tag k="addr:housenumber" v="90"/>
    <tag k="addr:street" v="Chandler Road"/>
    <tag k="addr:state" v="VT"/>
    <tag k="ref:vcgi:esiteid" v="23619"/>
  </node>
  <node id="-962" visible="true" lat="44.20150117" lon="-72.63117347">
    <tag k="addr:housenumber" v="72"/>
    <tag k="addr:street" v="Mercier Road"/>
    <tag k="addr:state" v="VT"/>
    <tag k="ref:vcgi:esiteid" v="23620"/>
  </node>
  <node id="-963" visible="true" lat="44.20118677" lon="-72.63513442">
    <tag k="addr:housenumber" v="2180"/>
    <tag k="addr:street" v="Vermont Route 12"/>
    <tag k="addr:state" v="VT"/>
    <tag k="ref:vcgi:esiteid" v="23621"/>
  </node>
  <node id="-964" visible="true" lat="44.20105214" lon="-72.5808411">
    <tag k="addr:housenumber" v="2779"/>
    <tag k="addr:street" v="Paine Turnpike South"/>
    <tag k="addr:state" v="VT"/>
    <tag k="ref:vcgi:esiteid" v="23622"/>
  </node>
  <node id="-965" visible="true" lat="44.20071175" lon="-72.63153047">
    <tag k="addr:housenumber" v="45"/>
    <tag k="addr:street" v="Davis Road"/>
    <tag k="addr:state" v="VT"/>
    <tag k="ref:vcgi:esiteid" v="23623"/>
  </node>
  <node id="-966" visible="true" lat="44.20070714" lon="-72.58075714">
    <tag k="addr:housenumber" v="2757"/>
    <tag k="addr:street" v="Paine Turnpike South"/>
    <tag k="addr:state" v="VT"/>
    <tag k="ref:vcgi:esiteid" v="23624"/>
  </node>
  <node id="-967" visible="true" lat="44.20048672" lon="-72.63162707">
    <tag k="addr:housenumber" v="33"/>
    <tag k="addr:street" v="Davis Road"/>
    <tag k="addr:state" v="VT"/>
    <tag k="ref:vcgi:esiteid" v="23625"/>
  </node>
  <node id="-968" visible="true" lat="44.20030415" lon="-72.63791348">
    <tag k="addr:housenumber" v="157"/>
    <tag k="addr:street" v="Chandler Road"/>
    <tag k="addr:state" v="VT"/>
    <tag k="ref:vcgi:esiteid" v="23626"/>
  </node>
  <node id="-969" visible="true" lat="44.20034701" lon="-72.63143782">
    <tag k="addr:housenumber" v="3746"/>
    <tag k="addr:street" v="Crosstown Road"/>
    <tag k="addr:state" v="VT"/>
    <tag k="ref:vcgi:esiteid" v="23627"/>
  </node>
  <node id="-970" visible="true" lat="44.20065514" lon="-72.6338838">
    <tag k="addr:housenumber" v="2074"/>
    <tag k="addr:street" v="Vermont Route 12"/>
    <tag k="addr:state" v="VT"/>
    <tag k="ref:vcgi:esiteid" v="23628"/>
  </node>
  <node id="-971" visible="true" lat="44.20030742" lon="-72.6317214">
    <tag k="addr:housenumber" v="23"/>
    <tag k="addr:street" v="Davis Road"/>
    <tag k="addr:state" v="VT"/>
    <tag k="ref:vcgi:esiteid" v="23629"/>
  </node>
  <node id="-973" visible="true" lat="44.20031897" lon="-72.63859061">
    <tag k="addr:housenumber" v="180"/>
    <tag k="addr:street" v="Chandler Road"/>
    <tag k="addr:state" v="VT"/>
    <tag k="ref:vcgi:esiteid" v="23631"/>
  </node>
  <node id="-974" visible="true" lat="44.20028962" lon="-72.63112171">
    <tag k="addr:housenumber" v="3726"/>
    <tag k="addr:street" v="Crosstown Road"/>
    <tag k="addr:state" v="VT"/>
    <tag k="ref:vcgi:esiteid" v="23632"/>
  </node>
  <node id="-976" visible="true" lat="44.20000679" lon="-72.63539435">
    <tag k="addr:housenumber" v="2131"/>
    <tag k="addr:street" v="Vermont Route 12"/>
    <tag k="addr:state" v="VT"/>
    <tag k="ref:vcgi:esiteid" v="23634"/>
  </node>
  <node id="-978" visible="true" lat="44.20000843" lon="-72.63231957">
    <tag k="addr:housenumber" v="3790"/>
    <tag k="addr:street" v="Crosstown Road"/>
    <tag k="addr:state" v="VT"/>
    <tag k="ref:vcgi:esiteid" v="23636"/>
  </node>
  <node id="-979" visible="true" lat="44.19989764" lon="-72.6345399">
    <tag k="addr:housenumber" v="2095"/>
    <tag k="addr:street" v="Vermont Route 12"/>
    <tag k="addr:state" v="VT"/>
    <tag k="ref:vcgi:esiteid" v="23637"/>
  </node>
  <node id="-980" visible="true" lat="44.19989155" lon="-72.6328575">
    <tag k="addr:housenumber" v="2016"/>
    <tag k="addr:street" v="Vermont Route 12"/>
    <tag k="addr:state" v="VT"/>
    <tag k="ref:vcgi:esiteid" v="23638"/>
  </node>
  <node id="-981" visible="true" lat="44.19968473" lon="-72.63219942">
    <tag k="addr:housenumber" v="3795"/>
    <tag k="addr:street" v="Crosstown Road"/>
    <tag k="addr:state" v="VT"/>
    <tag k="ref:vcgi:esiteid" v="23639"/>
  </node>
  <node id="-983" visible="true" lat="44.19959106" lon="-72.62916292">
    <tag k="addr:housenumber" v="102"/>
    <tag k="addr:street" v="Wheeler Road"/>
    <tag k="addr:state" v="VT"/>
    <tag k="ref:vcgi:esiteid" v="23641"/>
  </node>
  <node id="-984" visible="true" lat="44.19964599" lon="-72.66316986">
    <tag k="addr:housenumber" v="1343"/>
    <tag k="addr:street" v="West Hill Road"/>
    <tag k="addr:state" v="VT"/>
    <tag k="ref:vcgi:esiteid" v="23642"/>
  </node>
  <node id="-986" visible="true" lat="44.19953207" lon="-72.63150378">
    <tag k="addr:housenumber" v="41"/>
    <tag k="addr:street" v="Elmwood Drive"/>
    <tag k="addr:state" v="VT"/>
    <tag k="ref:vcgi:esiteid" v="23644"/>
  </node>
  <node id="-987" visible="true" lat="44.19946752" lon="-72.63297696">
    <tag k="addr:housenumber" v="157"/>
    <tag k="addr:street" v="Ayers Road"/>
    <tag k="addr:state" v="VT"/>
    <tag k="ref:vcgi:esiteid" v="23645"/>
  </node>
  <node id="-989" visible="true" lat="44.19920478" lon="-72.63947926">
    <tag k="addr:housenumber" v="266"/>
    <tag k="addr:street" v="Chandler Road"/>
    <tag k="addr:state" v="VT"/>
    <tag k="ref:vcgi:esiteid" v="23647"/>
  </node>
  <node id="-991" visible="true" lat="44.19905143" lon="-72.63259877">
    <tag k="addr:housenumber" v="134"/>
    <tag k="addr:street" v="Ayers Road"/>
    <tag k="addr:state" v="VT"/>
    <tag k="ref:vcgi:esiteid" v="23649"/>
  </node>
  <node id="-992" visible="true" lat="44.19885302" lon="-72.6326263">
    <tag k="addr:housenumber" v="122"/>
    <tag k="addr:street" v="Ayers Road"/>
    <tag k="addr:state" v="VT"/>
    <tag k="ref:vcgi:esiteid" v="23650"/>
  </node>
  <node id="-993" visible="true" lat="44.19875382" lon="-72.63066252">
    <tag k="addr:housenumber" v="1828"/>
    <tag k="addr:street" v="Vermont Route 12"/>
    <tag k="addr:state" v="VT"/>
    <tag k="ref:vcgi:esiteid" v="23651"/>
  </node>
  <node id="-996" visible="true" lat="44.19862561" lon="-72.63240246">
    <tag k="addr:housenumber" v="28"/>
    <tag k="addr:street" v="School Street"/>
    <tag k="addr:state" v="VT"/>
    <tag k="ref:vcgi:esiteid" v="23654"/>
  </node>
  <node id="-997" visible="true" lat="44.19861221" lon="-72.66324615">
    <tag k="addr:housenumber" v="1269"/>
    <tag k="addr:street" v="West Hill Road"/>
    <tag k="addr:state" v="VT"/>
    <tag k="ref:vcgi:esiteid" v="23655"/>
  </node>
  <node id="-998" visible="true" lat="44.19864123" lon="-72.63206005">
    <tag k="addr:housenumber" v="10"/>
    <tag k="addr:street" v="School Street"/>
    <tag k="addr:state" v="VT"/>
    <tag k="ref:vcgi:esiteid" v="23656"/>
  </node>
  <node id="-1001" visible="true" lat="44.19847488" lon="-72.63162231">
    <tag k="addr:housenumber" v="1908"/>
    <tag k="addr:street" v="Vermont Route 12"/>
    <tag k="addr:state" v="VT"/>
    <tag k="ref:vcgi:esiteid" v="23659"/>
  </node>
  <node id="-1002" visible="true" lat="44.19830139" lon="-72.63169083">
    <tag k="addr:housenumber" v="1900"/>
    <tag k="addr:street" v="Vermont Route 12"/>
    <tag k="addr:state" v="VT"/>
    <tag k="ref:vcgi:esiteid" v="23660"/>
  </node>
  <node id="-1005" visible="true" lat="44.19819363" lon="-72.63307504">
    <tag k="addr:housenumber" v="76"/>
    <tag k="addr:street" v="Ayers Road"/>
    <tag k="addr:state" v="VT"/>
    <tag k="ref:vcgi:esiteid" v="23663"/>
  </node>
  <node id="-1007" visible="true" lat="44.19734244" lon="-72.63232493">
    <tag k="addr:housenumber" v="1858"/>
    <tag k="addr:street" v="Vermont Route 12"/>
    <tag k="addr:state" v="VT"/>
    <tag k="ref:vcgi:esiteid" v="23665"/>
  </node>
  <node id="-1008" visible="true" lat="44.19689178" lon="-72.64006805">
    <tag k="addr:housenumber" v="423"/>
    <tag k="addr:street" v="Chandler Road"/>
    <tag k="addr:state" v="VT"/>
    <tag k="ref:vcgi:esiteid" v="23666"/>
  </node>
  <node id="-1011" visible="true" lat="44.19683538" lon="-72.63456661">
    <tag k="addr:housenumber" v="1727"/>
    <tag k="addr:street" v="Vermont Route 12"/>
    <tag k="addr:state" v="VT"/>
    <tag k="ref:vcgi:esiteid" v="23669"/>
  </node>
  <node id="-1012" visible="true" lat="44.19641401" lon="-72.64022781">
    <tag k="addr:housenumber" v="443"/>
    <tag k="addr:street" v="Chandler Road"/>
    <tag k="addr:state" v="VT"/>
    <tag k="ref:vcgi:esiteid" v="23670"/>
  </node>
  <node id="-1013" visible="true" lat="44.19652175" lon="-72.63400268">
    <tag k="addr:housenumber" v="1710"/>
    <tag k="addr:street" v="Vermont Route 12"/>
    <tag k="addr:state" v="VT"/>
    <tag k="ref:vcgi:esiteid" v="23671"/>
  </node>
  <node id="-1014" visible="true" lat="44.19623608" lon="-72.59365976">
    <tag k="addr:housenumber" v="2344"/>
    <tag k="addr:street" v="Brookfield Road"/>
    <tag k="addr:state" v="VT"/>
    <tag k="ref:vcgi:esiteid" v="23672"/>
  </node>
  <node id="-1015" visible="true" lat="44.19619751" lon="-72.63409423">
    <tag k="addr:housenumber" v="1688"/>
    <tag k="addr:street" v="Vermont Route 12"/>
    <tag k="addr:state" v="VT"/>
    <tag k="ref:vcgi:esiteid" v="23673"/>
  </node>
  <node id="-1018" visible="true" lat="44.19555662" lon="-72.63388646">
    <tag k="addr:housenumber" v="1656"/>
    <tag k="addr:street" v="Vermont Route 12"/>
    <tag k="addr:state" v="VT"/>
    <tag k="ref:vcgi:esiteid" v="23676"/>
  </node>
  <node id="-1019" visible="true" lat="44.19532012" lon="-72.64077758">
    <tag k="addr:housenumber" v="567"/>
    <tag k="addr:street" v="Chandler Road"/>
    <tag k="addr:state" v="VT"/>
    <tag k="ref:vcgi:esiteid" v="23677"/>
  </node>
  <node id="-1020" visible="true" lat="44.19519088" lon="-72.6358816">
    <tag k="addr:housenumber" v="1563"/>
    <tag k="addr:street" v="Vermont Route 12"/>
    <tag k="addr:state" v="VT"/>
    <tag k="ref:vcgi:esiteid" v="23678"/>
  </node>
  <node id="-1021" visible="true" lat="44.19509887" lon="-72.64212036">
    <tag k="addr:housenumber" v="582"/>
    <tag k="addr:street" v="Chandler Road"/>
    <tag k="addr:state" v="VT"/>
    <tag k="ref:vcgi:esiteid" v="23679"/>
  </node>
  <node id="-1024" visible="true" lat="44.19465371" lon="-72.63448454">
    <tag k="addr:housenumber" v="1636"/>
    <tag k="addr:street" v="Vermont Route 12"/>
    <tag k="addr:state" v="VT"/>
    <tag k="ref:vcgi:esiteid" v="23682"/>
  </node>
  <node id="-1026" visible="true" lat="44.19448788" lon="-72.64212884">
    <tag k="addr:housenumber" v="609"/>
    <tag k="addr:street" v="Chandler Road"/>
    <tag k="addr:state" v="VT"/>
    <tag k="ref:vcgi:esiteid" v="23684"/>
  </node>
  <node id="-1027" visible="true" lat="44.19441223" lon="-72.64278411">
    <tag k="addr:housenumber" v="640"/>
    <tag k="addr:street" v="Chandler Road"/>
    <tag k="addr:state" v="VT"/>
    <tag k="ref:vcgi:esiteid" v="23685"/>
  </node>
  <node id="-1028" visible="true" lat="44.19433324" lon="-72.64714756">
    <tag k="addr:housenumber" v="260"/>
    <tag k="addr:street" v="West Hill Road"/>
    <tag k="addr:state" v="VT"/>
    <tag k="ref:vcgi:esiteid" v="23686"/>
  </node>
  <node id="-1029" visible="true" lat="44.19432107" lon="-72.64504926">
    <tag k="addr:housenumber" v="172"/>
    <tag k="addr:street" v="West Hill Road"/>
    <tag k="addr:state" v="VT"/>
    <tag k="ref:vcgi:esiteid" v="23687"/>
  </node>
  <node id="-1030" visible="true" lat="44.19421641" lon="-72.64932621">
    <tag k="addr:housenumber" v="294"/>
    <tag k="addr:street" v="West Hill Road"/>
    <tag k="addr:state" v="VT"/>
    <tag k="ref:vcgi:esiteid" v="23688"/>
  </node>
  <node id="-1031" visible="true" lat="44.19418334" lon="-72.64344787">
    <tag k="addr:housenumber" v="672"/>
    <tag k="addr:street" v="Chandler Road"/>
    <tag k="addr:state" v="VT"/>
    <tag k="ref:vcgi:esiteid" v="23689"/>
  </node>
  <node id="-1032" visible="true" lat="44.19352993" lon="-72.63550067">
    <tag k="addr:housenumber" v="1504"/>
    <tag k="addr:street" v="Vermont Route 12"/>
    <tag k="addr:state" v="VT"/>
    <tag k="ref:vcgi:esiteid" v="23690"/>
  </node>
  <node id="-1034" visible="true" lat="44.19396209" lon="-72.65054321">
    <tag k="addr:housenumber" v="344"/>
    <tag k="addr:street" v="West Hill Road"/>
    <tag k="addr:state" v="VT"/>
    <tag k="ref:vcgi:esiteid" v="23692"/>
  </node>
  <node id="-1035" visible="true" lat="44.19388198" lon="-72.64289855">
    <tag k="addr:housenumber" v="673"/>
    <tag k="addr:street" v="Chandler Road"/>
    <tag k="addr:state" v="VT"/>
    <tag k="ref:vcgi:esiteid" v="23693"/>
  </node>
  <node id="-1036" visible="true" lat="44.19379424" lon="-72.65930175">
    <tag k="addr:housenumber" v="896"/>
    <tag k="addr:street" v="West Hill Road"/>
    <tag k="addr:state" v="VT"/>
    <tag k="ref:vcgi:esiteid" v="23694"/>
  </node>
  <node id="-1038" visible="true" lat="44.19371414" lon="-72.62185669">
    <tag k="addr:housenumber" v="1433"/>
    <tag k="addr:street" v="Darling Road"/>
    <tag k="addr:state" v="VT"/>
    <tag k="ref:vcgi:esiteid" v="23696"/>
  </node>
  <node id="-1039" visible="true" lat="44.19347381" lon="-72.64385223">
    <tag k="addr:housenumber" v="724"/>
    <tag k="addr:street" v="Chandler Road"/>
    <tag k="addr:state" v="VT"/>
    <tag k="ref:vcgi:esiteid" v="23697"/>
  </node>
  <node id="-1041" visible="true" lat="44.19134202" lon="-72.64624001">
    <tag k="addr:housenumber" v="151"/>
    <tag k="addr:street" v="West Hill Road"/>
    <tag k="addr:state" v="VT"/>
    <tag k="ref:vcgi:esiteid" v="23699"/>
  </node>
  <node id="-1042" visible="true" lat="44.1931343" lon="-72.64343261">
    <tag k="addr:housenumber" v="733"/>
    <tag k="addr:street" v="Chandler Road"/>
    <tag k="addr:state" v="VT"/>
    <tag k="ref:vcgi:esiteid" v="23700"/>
  </node>
  <node id="-1044" visible="true" lat="44.19308837" lon="-72.64792857">
    <tag k="addr:housenumber" v="159"/>
    <tag k="addr:street" v="West Hill Road"/>
    <tag k="addr:state" v="VT"/>
    <tag k="ref:vcgi:esiteid" v="23702"/>
  </node>
  <node id="-1045" visible="true" lat="44.19310037" lon="-72.63620002">
    <tag k="addr:housenumber" v="71"/>
    <tag k="addr:street" v="Gordon Drive"/>
    <tag k="addr:state" v="VT"/>
    <tag k="ref:vcgi:esiteid" v="23703"/>
  </node>
  <node id="-1047" visible="true" lat="44.19300951" lon="-72.59389449">
    <tag k="addr:housenumber" v="2114"/>
    <tag k="addr:street" v="Brookfield Road"/>
    <tag k="addr:state" v="VT"/>
    <tag k="ref:vcgi:esiteid" v="23705"/>
  </node>
  <node id="-1049" visible="true" lat="44.19277954" lon="-72.64432525">
    <tag k="addr:housenumber" v="772"/>
    <tag k="addr:street" v="Chandler Road"/>
    <tag k="addr:state" v="VT"/>
    <tag k="ref:vcgi:esiteid" v="23707"/>
  </node>
  <node id="-1052" visible="true" lat="44.1931323" lon="-72.65286678">
    <tag k="addr:housenumber" v="510"/>
    <tag k="addr:street" v="West Hill Road"/>
    <tag k="addr:state" v="VT"/>
    <tag k="ref:vcgi:esiteid" v="23710"/>
  </node>
  <node id="-1055" visible="true" lat="44.19218307" lon="-72.59460602">
    <tag k="addr:housenumber" v="2053"/>
    <tag k="addr:street" v="Brookfield Road"/>
    <tag k="addr:state" v="VT"/>
    <tag k="ref:vcgi:esiteid" v="23714"/>
  </node>
  <node id="-1056" visible="true" lat="44.19214586" lon="-72.63680935">
    <tag k="addr:housenumber" v="51"/>
    <tag k="addr:street" v="Gordon Drive"/>
    <tag k="addr:state" v="VT"/>
    <tag k="ref:vcgi:esiteid" v="23715"/>
  </node>
  <node id="-1057" visible="true" lat="44.19212587" lon="-72.62112061">
    <tag k="addr:housenumber" v="1426"/>
    <tag k="addr:street" v="Darling Road"/>
    <tag k="addr:state" v="VT"/>
    <tag k="ref:vcgi:esiteid" v="23716"/>
  </node>
  <node id="-1058" visible="true" lat="44.19202628" lon="-72.63745362">
    <tag k="addr:housenumber" v="40"/>
    <tag k="addr:street" v="Gordon Drive"/>
    <tag k="addr:state" v="VT"/>
    <tag k="ref:vcgi:esiteid" v="23717"/>
  </node>
  <node id="-1059" visible="true" lat="44.19178754" lon="-72.59412018">
    <tag k="addr:housenumber" v="2000"/>
    <tag k="addr:street" v="Brookfield Road"/>
    <tag k="addr:state" v="VT"/>
    <tag k="ref:vcgi:esiteid" v="23718"/>
  </node>
  <node id="-1060" visible="true" lat="44.19190585" lon="-72.6426758">
    <tag k="addr:housenumber" v="64"/>
    <tag k="addr:street" v="Haskins Terrace"/>
    <tag k="addr:state" v="VT"/>
    <tag k="ref:vcgi:esiteid" v="23719"/>
  </node>
  <node id="-1062" visible="true" lat="44.19182968" lon="-72.64185333">
    <tag k="addr:housenumber" v="143"/>
    <tag k="addr:street" v="Haskins Terrace"/>
    <tag k="addr:state" v="VT"/>
    <tag k="ref:vcgi:esiteid" v="23721"/>
  </node>
  <node id="-1063" visible="true" lat="44.19175075" lon="-72.63822833">
    <tag k="addr:housenumber" v="20"/>
    <tag k="addr:street" v="Gordon Drive"/>
    <tag k="addr:state" v="VT"/>
    <tag k="ref:vcgi:esiteid" v="23722"/>
  </node>
  <node id="-1064" visible="true" lat="44.19175239" lon="-72.63639348">
    <tag k="addr:housenumber" v="256"/>
    <tag k="addr:street" v="Pine Hill Drive"/>
    <tag k="addr:state" v="VT"/>
    <tag k="ref:vcgi:esiteid" v="23723"/>
  </node>
  <node id="-1065" visible="true" lat="44.19186573" lon="-72.64467466">
    <tag k="addr:housenumber" v="840"/>
    <tag k="addr:street" v="Chandler Road"/>
    <tag k="addr:state" v="VT"/>
    <tag k="ref:vcgi:esiteid" v="23724"/>
  </node>
  <node id="-1066" visible="true" lat="44.19171142" lon="-72.65421295">
    <tag k="addr:housenumber" v="593"/>
    <tag k="addr:street" v="West Hill Road"/>
    <tag k="addr:state" v="VT"/>
    <tag k="ref:vcgi:esiteid" v="23725"/>
  </node>
  <node id="-1067" visible="true" lat="44.19158788" lon="-72.6368065">
    <tag k="addr:housenumber" v="266"/>
    <tag k="addr:street" v="Pine Hill Drive"/>
    <tag k="addr:state" v="VT"/>
    <tag k="ref:vcgi:esiteid" v="23726"/>
  </node>
  <node id="-1068" visible="true" lat="44.19142501" lon="-72.65522322">
    <tag k="addr:housenumber" v="623"/>
    <tag k="addr:street" v="West Hill Road"/>
    <tag k="addr:state" v="VT"/>
    <tag k="ref:vcgi:esiteid" v="23727"/>
  </node>
  <node id="-1069" visible="true" lat="44.1913925" lon="-72.63750521">
    <tag k="addr:housenumber" v="302"/>
    <tag k="addr:street" v="Pine Hill Drive"/>
    <tag k="addr:state" v="VT"/>
    <tag k="ref:vcgi:esiteid" v="23728"/>
  </node>
  <node id="-1070" visible="true" lat="44.1912651" lon="-72.63799285">
    <tag k="addr:housenumber" v="324"/>
    <tag k="addr:street" v="Pine Hill Drive"/>
    <tag k="addr:state" v="VT"/>
    <tag k="ref:vcgi:esiteid" v="23729"/>
  </node>
  <node id="-1072" visible="true" lat="44.1912296" lon="-72.64056828">
    <tag k="addr:housenumber" v="22"/>
    <tag k="addr:street" v="Lovers Lane"/>
    <tag k="addr:state" v="VT"/>
    <tag k="ref:vcgi:esiteid" v="23731"/>
  </node>
  <node id="-1073" visible="true" lat="44.19106214" lon="-72.63713349">
    <tag k="addr:housenumber" v="295"/>
    <tag k="addr:street" v="Pine Hill Drive"/>
    <tag k="addr:state" v="VT"/>
    <tag k="ref:vcgi:esiteid" v="23732"/>
  </node>
  <node id="-1074" visible="true" lat="44.19102859" lon="-72.6776123">
    <tag k="addr:housenumber" v="1992"/>
    <tag k="addr:street" v="Cox Brook Road"/>
    <tag k="addr:state" v="VT"/>
    <tag k="ref:vcgi:esiteid" v="23733"/>
  </node>
  <node id="-1075" visible="true" lat="44.19108242" lon="-72.62625305">
    <tag k="addr:housenumber" v="1202"/>
    <tag k="addr:street" v="Darling Road"/>
    <tag k="addr:state" v="VT"/>
    <tag k="ref:vcgi:esiteid" v="23734"/>
  </node>
  <node id="-1077" visible="true" lat="44.19115637" lon="-72.64431793">
    <tag k="addr:housenumber" v="890"/>
    <tag k="addr:street" v="Chandler Road"/>
    <tag k="addr:state" v="VT"/>
    <tag k="ref:vcgi:esiteid" v="23736"/>
  </node>
  <node id="-1078" visible="true" lat="44.19094692" lon="-72.63575103">
    <tag k="addr:housenumber" v="222"/>
    <tag k="addr:street" v="Pine Hill Drive"/>
    <tag k="addr:state" v="VT"/>
    <tag k="ref:vcgi:esiteid" v="23737"/>
  </node>
  <node id="-1079" visible="true" lat="44.19097896" lon="-72.63848064">
    <tag k="addr:housenumber" v="350"/>
    <tag k="addr:street" v="Pine Hill Drive"/>
    <tag k="addr:state" v="VT"/>
    <tag k="ref:vcgi:esiteid" v="23738"/>
  </node>
  <node id="-1080" visible="true" lat="44.19102233" lon="-72.6317183">
    <tag k="addr:housenumber" v="849"/>
    <tag k="addr:street" v="Darling Road"/>
    <tag k="addr:state" v="VT"/>
    <tag k="ref:vcgi:esiteid" v="23739"/>
  </node>
  <node id="-1081" visible="true" lat="44.19088363" lon="-72.64366149">
    <tag k="addr:housenumber" v="899"/>
    <tag k="addr:street" v="Chandler Road"/>
    <tag k="addr:state" v="VT"/>
    <tag k="ref:vcgi:esiteid" v="23740"/>
  </node>
  <node id="-1082" visible="true" lat="44.19082677" lon="-72.63012968">
    <tag k="addr:housenumber" v="952"/>
    <tag k="addr:street" v="Darling Road"/>
    <tag k="addr:state" v="VT"/>
    <tag k="ref:vcgi:esiteid" v="23741"/>
  </node>
  <node id="-1083" visible="true" lat="44.19071197" lon="-72.64418029">
    <tag k="addr:housenumber" v="912"/>
    <tag k="addr:street" v="Chandler Road"/>
    <tag k="addr:state" v="VT"/>
    <tag k="ref:vcgi:esiteid" v="23742"/>
  </node>
  <node id="-1084" visible="true" lat="44.1906443" lon="-72.63614264">
    <tag k="addr:housenumber" v="206"/>
    <tag k="addr:street" v="Pine Hill Drive"/>
    <tag k="addr:state" v="VT"/>
    <tag k="ref:vcgi:esiteid" v="23743"/>
  </node>
  <node id="-1085" visible="true" lat="44.19064853" lon="-72.63870266">
    <tag k="addr:housenumber" v="388"/>
    <tag k="addr:street" v="Pine Hill Drive"/>
    <tag k="addr:state" v="VT"/>
    <tag k="ref:vcgi:esiteid" v="23744"/>
  </node>
  <node id="-1086" visible="true" lat="44.19045257" lon="-72.67661285">
    <tag k="addr:housenumber" v="1928"/>
    <tag k="addr:street" v="Cox Brook Road"/>
    <tag k="addr:state" v="VT"/>
    <tag k="ref:vcgi:esiteid" v="23745"/>
  </node>
  <node id="-1087" visible="true" lat="44.19042044" lon="-72.63676802">
    <tag k="addr:housenumber" v="179"/>
    <tag k="addr:street" v="Pine Hill Drive"/>
    <tag k="addr:state" v="VT"/>
    <tag k="ref:vcgi:esiteid" v="23746"/>
  </node>
  <node id="-1088" visible="true" lat="44.19043788" lon="-72.63798437">
    <tag k="addr:housenumber" v="381"/>
    <tag k="addr:street" v="Pine Hill Drive"/>
    <tag k="addr:state" v="VT"/>
    <tag k="ref:vcgi:esiteid" v="23747"/>
  </node>
  <node id="-1089" visible="true" lat="44.19041871" lon="-72.63733924">
    <tag k="addr:housenumber" v="131"/>
    <tag k="addr:street" v="Pine Hill Drive"/>
    <tag k="addr:state" v="VT"/>
    <tag k="ref:vcgi:esiteid" v="23748"/>
  </node>
  <node id="-1090" visible="true" lat="44.19042968" lon="-72.64369201">
    <tag k="addr:housenumber" v="931"/>
    <tag k="addr:street" v="Chandler Road"/>
    <tag k="addr:state" v="VT"/>
    <tag k="ref:vcgi:esiteid" v="23749"/>
  </node>
  <node id="-1092" visible="true" lat="44.19031333" lon="-72.59487486">
    <tag k="addr:housenumber" v="1925"/>
    <tag k="addr:street" v="Brookfield Road"/>
    <tag k="addr:state" v="VT"/>
    <tag k="ref:vcgi:esiteid" v="23751"/>
  </node>
  <node id="-1093" visible="true" lat="44.19030058" lon="-72.6361741">
    <tag k="addr:housenumber" v="174"/>
    <tag k="addr:street" v="Pine Hill Drive"/>
    <tag k="addr:state" v="VT"/>
    <tag k="ref:vcgi:esiteid" v="23752"/>
  </node>
  <node id="-1094" visible="true" lat="44.19018077" lon="-72.64247909">
    <tag k="addr:housenumber" v="268"/>
    <tag k="addr:street" v="Haskins Terrace"/>
    <tag k="addr:state" v="VT"/>
    <tag k="ref:vcgi:esiteid" v="23753"/>
  </node>
  <node id="-1095" visible="true" lat="44.19004691" lon="-72.63735438">
    <tag k="addr:housenumber" v="124"/>
    <tag k="addr:street" v="Pine Hill Drive"/>
    <tag k="addr:state" v="VT"/>
    <tag k="ref:vcgi:esiteid" v="23754"/>
  </node>
  <node id="-1096" visible="true" lat="44.19002067" lon="-72.63810025">
    <tag k="addr:housenumber" v="90"/>
    <tag k="addr:street" v="Pine Hill Drive"/>
    <tag k="addr:state" v="VT"/>
    <tag k="ref:vcgi:esiteid" v="23755"/>
  </node>
  <node id="-1097" visible="true" lat="44.1899549" lon="-72.63667901">
    <tag k="addr:housenumber" v="162"/>
    <tag k="addr:street" v="Pine Hill Drive"/>
    <tag k="addr:state" v="VT"/>
    <tag k="ref:vcgi:esiteid" v="23756"/>
  </node>
  <node id="-1098" visible="true" lat="44.18968281" lon="-72.63929557">
    <tag k="addr:housenumber" v="36"/>
    <tag k="addr:street" v="Pine Hill Drive"/>
    <tag k="addr:state" v="VT"/>
    <tag k="ref:vcgi:esiteid" v="23757"/>
  </node>
  <node id="-1099" visible="true" lat="44.18972038" lon="-72.64420069">
    <tag k="addr:housenumber" v="984"/>
    <tag k="addr:street" v="Chandler Road"/>
    <tag k="addr:state" v="VT"/>
    <tag k="ref:vcgi:esiteid" v="23758"/>
  </node>
  <node id="-1100" visible="true" lat="44.18951926" lon="-72.59500258">
    <tag k="addr:housenumber" v="1867"/>
    <tag k="addr:street" v="Brookfield Road"/>
    <tag k="addr:state" v="VT"/>
    <tag k="ref:vcgi:esiteid" v="23759"/>
  </node>
  <node id="-1101" visible="true" lat="44.18948636" lon="-72.63765091">
    <tag k="addr:housenumber" v="87"/>
    <tag k="addr:street" v="Neill Road"/>
    <tag k="addr:state" v="VT"/>
    <tag k="ref:vcgi:esiteid" v="23760"/>
  </node>
  <node id="-1103" visible="true" lat="44.18930053" lon="-72.64382934">
    <tag k="addr:housenumber" v="1009"/>
    <tag k="addr:street" v="Chandler Road"/>
    <tag k="addr:state" v="VT"/>
    <tag k="ref:vcgi:esiteid" v="23762"/>
  </node>
  <node id="-1104" visible="true" lat="44.18913523" lon="-72.63726799">
    <tag k="addr:housenumber" v="93"/>
    <tag k="addr:street" v="Neill Road"/>
    <tag k="addr:state" v="VT"/>
    <tag k="ref:vcgi:esiteid" v="23763"/>
  </node>
  <node id="-1105" visible="true" lat="44.1890233" lon="-72.6385919">
    <tag k="addr:housenumber" v="65"/>
    <tag k="addr:street" v="Neill Road"/>
    <tag k="addr:state" v="VT"/>
    <tag k="ref:vcgi:esiteid" v="23764"/>
  </node>
  <node id="-1106" visible="true" lat="44.18884658" lon="-72.64472198">
    <tag k="addr:housenumber" v="1016"/>
    <tag k="addr:street" v="Chandler Road"/>
    <tag k="addr:state" v="VT"/>
    <tag k="ref:vcgi:esiteid" v="23765"/>
  </node>
  <node id="-1107" visible="true" lat="44.18877454" lon="-72.63953099">
    <tag k="addr:housenumber" v="17"/>
    <tag k="addr:street" v="Neill Road"/>
    <tag k="addr:state" v="VT"/>
    <tag k="ref:vcgi:esiteid" v="23766"/>
  </node>
  <node id="-1108" visible="true" lat="44.18855214" lon="-72.63805071">
    <tag k="addr:housenumber" v="80"/>
    <tag k="addr:street" v="Neill Road"/>
    <tag k="addr:state" v="VT"/>
    <tag k="ref:vcgi:esiteid" v="23767"/>
  </node>
  <node id="-1109" visible="true" lat="44.18868672" lon="-72.64375207">
    <tag k="addr:housenumber" v="1055"/>
    <tag k="addr:street" v="Chandler Road"/>
    <tag k="addr:state" v="VT"/>
    <tag k="ref:vcgi:esiteid" v="23768"/>
  </node>
  <node id="-1110" visible="true" lat="44.18841001" lon="-72.63872567">
    <tag k="addr:housenumber" v="48"/>
    <tag k="addr:street" v="Neill Road"/>
    <tag k="addr:state" v="VT"/>
    <tag k="ref:vcgi:esiteid" v="23769"/>
  </node>
  <node id="-1111" visible="true" lat="44.18845748" lon="-72.64264678">
    <tag k="addr:housenumber" v="192"/>
    <tag k="addr:street" v="Lovers Lane"/>
    <tag k="addr:state" v="VT"/>
    <tag k="ref:vcgi:esiteid" v="23770"/>
  </node>
  <node id="-1112" visible="true" lat="44.18835202" lon="-72.64051262">
    <tag k="addr:housenumber" v="30"/>
    <tag k="addr:street" v="Lovers Lane"/>
    <tag k="addr:state" v="VT"/>
    <tag k="ref:vcgi:esiteid" v="23771"/>
  </node>
  <node id="-1113" visible="true" lat="44.18830108" lon="-72.64437103">
    <tag k="addr:housenumber" v="1076"/>
    <tag k="addr:street" v="Chandler Road"/>
    <tag k="addr:state" v="VT"/>
    <tag k="ref:vcgi:esiteid" v="23772"/>
  </node>
  <node id="-1114" visible="true" lat="44.18825991" lon="-72.64106664">
    <tag k="addr:housenumber" v="52"/>
    <tag k="addr:street" v="Lovers Lane"/>
    <tag k="addr:state" v="VT"/>
    <tag k="ref:vcgi:esiteid" v="23773"/>
  </node>
  <node id="-1115" visible="true" lat="44.18814893" lon="-72.59532978">
    <tag k="addr:housenumber" v="1751"/>
    <tag k="addr:street" v="Brookfield Road"/>
    <tag k="addr:state" v="VT"/>
    <tag k="ref:vcgi:esiteid" v="23774"/>
  </node>
  <node id="-1117" visible="true" lat="44.18796869" lon="-72.63951116">
    <tag k="addr:housenumber" v="1024"/>
    <tag k="addr:street" v="Vermont Route 12"/>
    <tag k="addr:state" v="VT"/>
    <tag k="ref:vcgi:esiteid" v="23776"/>
  </node>
  <node id="-1119" visible="true" lat="44.18776232" lon="-72.59462789">
    <tag k="addr:housenumber" v="1746"/>
    <tag k="addr:street" v="Brookfield Road"/>
    <tag k="addr:state" v="VT"/>
    <tag k="ref:vcgi:esiteid" v="23778"/>
  </node>
  <node id="-1120" visible="true" lat="44.18766403" lon="-72.64282226">
    <tag k="addr:housenumber" v="239"/>
    <tag k="addr:street" v="Lovers Lane"/>
    <tag k="addr:state" v="VT"/>
    <tag k="ref:vcgi:esiteid" v="23779"/>
  </node>
  <node id="-1122" visible="true" lat="44.18754577" lon="-72.64431762">
    <tag k="addr:housenumber" v="1130"/>
    <tag k="addr:street" v="Chandler Road"/>
    <tag k="addr:state" v="VT"/>
    <tag k="ref:vcgi:esiteid" v="23781"/>
  </node>
  <node id="-1123" visible="true" lat="44.18748101" lon="-72.67279071">
    <tag k="addr:housenumber" v="71"/>
    <tag k="addr:street" v="Glinnis Road"/>
    <tag k="addr:state" v="VT"/>
    <tag k="ref:vcgi:esiteid" v="23782"/>
  </node>
  <node id="-1124" visible="true" lat="44.18733" lon="-72.6698718">
    <tag k="addr:housenumber" v="229"/>
    <tag k="addr:street" v="Glinnis Road"/>
    <tag k="addr:state" v="VT"/>
    <tag k="ref:vcgi:esiteid" v="23783"/>
  </node>
  <node id="-1125" visible="true" lat="44.18707753" lon="-72.64110493">
    <tag k="addr:housenumber" v="105"/>
    <tag k="addr:street" v="Lovers Lane"/>
    <tag k="addr:state" v="VT"/>
    <tag k="ref:vcgi:esiteid" v="23784"/>
  </node>
  <node id="-1127" visible="true" lat="44.18711471" lon="-72.67411804">
    <tag k="addr:housenumber" v="1667"/>
    <tag k="addr:street" v="Cox Brook Road"/>
    <tag k="addr:state" v="VT"/>
    <tag k="ref:vcgi:esiteid" v="23786"/>
  </node>
  <node id="-1128" visible="true" lat="44.18715286" lon="-72.64333343">
    <tag k="addr:housenumber" v="1159"/>
    <tag k="addr:street" v="Chandler Road"/>
    <tag k="addr:state" v="VT"/>
    <tag k="ref:vcgi:esiteid" v="23787"/>
  </node>
  <node id="-1129" visible="true" lat="44.18517211" lon="-72.64257343">
    <tag k="addr:housenumber" v="1163"/>
    <tag k="addr:street" v="Chandler Road"/>
    <tag k="addr:state" v="VT"/>
    <tag k="ref:vcgi:esiteid" v="23788"/>
  </node>
  <node id="-1130" visible="true" lat="44.1870936" lon="-72.65794547">
    <tag k="addr:housenumber" v="313"/>
    <tag k="addr:street" v="McCarty Road"/>
    <tag k="addr:state" v="VT"/>
    <tag k="ref:vcgi:esiteid" v="23789"/>
  </node>
  <node id="-1131" visible="true" lat="44.18689346" lon="-72.64437103">
    <tag k="addr:housenumber" v="1174"/>
    <tag k="addr:street" v="Chandler Road"/>
    <tag k="addr:state" v="VT"/>
    <tag k="ref:vcgi:esiteid" v="23790"/>
  </node>
  <node id="-1133" visible="true" lat="44.18688155" lon="-72.59531554">
    <tag k="addr:housenumber" v="1715"/>
    <tag k="addr:street" v="Brookfield Road"/>
    <tag k="addr:state" v="VT"/>
    <tag k="ref:vcgi:esiteid" v="23792"/>
  </node>
  <node id="-1134" visible="true" lat="44.18668128" lon="-72.66696481">
    <tag k="addr:housenumber" v="365"/>
    <tag k="addr:street" v="Glinnis Road"/>
    <tag k="addr:state" v="VT"/>
    <tag k="ref:vcgi:esiteid" v="23793"/>
  </node>
  <node id="-1135" visible="true" lat="44.18636567" lon="-72.66750301">
    <tag k="addr:housenumber" v="352"/>
    <tag k="addr:street" v="Glinnis Road"/>
    <tag k="addr:state" v="VT"/>
    <tag k="ref:vcgi:esiteid" v="23794"/>
  </node>
  <node id="-1136" visible="true" lat="44.18622792" lon="-72.5954553">
    <tag k="addr:housenumber" v="1637"/>
    <tag k="addr:street" v="Brookfield Road"/>
    <tag k="addr:state" v="VT"/>
    <tag k="ref:vcgi:esiteid" v="23795"/>
  </node>
  <node id="-1138" visible="true" lat="44.18612615" lon="-72.63979295">
    <tag k="addr:housenumber" v="899"/>
    <tag k="addr:street" v="Vermont Route 12"/>
    <tag k="addr:state" v="VT"/>
    <tag k="ref:vcgi:esiteid" v="23797"/>
  </node>
  <node id="-1139" visible="true" lat="44.18597412" lon="-72.67515563">
    <tag k="addr:housenumber" v="1617"/>
    <tag k="addr:street" v="Cox Brook Road"/>
    <tag k="addr:state" v="VT"/>
    <tag k="ref:vcgi:esiteid" v="23798"/>
  </node>
  <node id="-1140" visible="true" lat="44.18592156" lon="-72.63977819">
    <tag k="addr:housenumber" v="887"/>
    <tag k="addr:street" v="Vermont Route 12"/>
    <tag k="addr:state" v="VT"/>
    <tag k="ref:vcgi:esiteid" v="23799"/>
  </node>
  <node id="-1141" visible="true" lat="44.18585967" lon="-72.64359283">
    <tag k="addr:housenumber" v="1249"/>
    <tag k="addr:street" v="Chandler Road"/>
    <tag k="addr:state" v="VT"/>
    <tag k="ref:vcgi:esiteid" v="23800"/>
  </node>
  <node id="-1142" visible="true" lat="44.18586257" lon="-72.6392652">
    <tag k="addr:housenumber" v="878"/>
    <tag k="addr:street" v="Vermont Route 12"/>
    <tag k="addr:state" v="VT"/>
    <tag k="ref:vcgi:esiteid" v="23801"/>
  </node>
  <node id="-1143" visible="true" lat="44.18562444" lon="-72.59556339">
    <tag k="addr:housenumber" v="1597"/>
    <tag k="addr:street" v="Brookfield Road"/>
    <tag k="addr:state" v="VT"/>
    <tag k="ref:vcgi:esiteid" v="23802"/>
  </node>
  <node id="-1144" visible="true" lat="44.18558878" lon="-72.63963189">
    <tag k="addr:housenumber" v="865"/>
    <tag k="addr:street" v="Vermont Route 12"/>
    <tag k="addr:state" v="VT"/>
    <tag k="ref:vcgi:esiteid" v="23803"/>
  </node>
  <node id="-1146" visible="true" lat="44.18556976" lon="-72.644104">
    <tag k="addr:housenumber" v="1266"/>
    <tag k="addr:street" v="Chandler Road"/>
    <tag k="addr:state" v="VT"/>
    <tag k="ref:vcgi:esiteid" v="23805"/>
  </node>
  <node id="-1147" visible="true" lat="44.18534147" lon="-72.63954037">
    <tag k="addr:housenumber" v="853"/>
    <tag k="addr:street" v="Vermont Route 12"/>
    <tag k="addr:state" v="VT"/>
    <tag k="ref:vcgi:esiteid" v="23806"/>
  </node>
  <node id="-1148" visible="true" lat="44.18513549" lon="-72.63885018">
    <tag k="addr:housenumber" v="832"/>
    <tag k="addr:street" v="Vermont Route 12"/>
    <tag k="addr:state" v="VT"/>
    <tag k="ref:vcgi:esiteid" v="23807"/>
  </node>
  <node id="-1149" visible="true" lat="44.18507623" lon="-72.64348353">
    <tag k="addr:housenumber" v="1297"/>
    <tag k="addr:street" v="Chandler Road"/>
    <tag k="addr:state" v="VT"/>
    <tag k="ref:vcgi:esiteid" v="23808"/>
  </node>
  <node id="-1150" visible="true" lat="44.18499949" lon="-72.67308289">
    <tag k="addr:housenumber" v="1511"/>
    <tag k="addr:street" v="Cox Brook Road"/>
    <tag k="addr:state" v="VT"/>
    <tag k="ref:vcgi:esiteid" v="23809"/>
  </node>
  <node id="-1151" visible="true" lat="44.18481157" lon="-72.63273982">
    <tag k="addr:housenumber" v="440"/>
    <tag k="addr:street" v="Darling Road"/>
    <tag k="addr:state" v="VT"/>
    <tag k="ref:vcgi:esiteid" v="23810"/>
  </node>
  <node id="-1153" visible="true" lat="44.18469577" lon="-72.63988074">
    <tag k="addr:housenumber" v="803"/>
    <tag k="addr:street" v="Vermont Route 12"/>
    <tag k="addr:state" v="VT"/>
    <tag k="ref:vcgi:esiteid" v="23812"/>
  </node>
  <node id="-1155" visible="true" lat="44.18400959" lon="-72.63296239">
    <tag k="addr:housenumber" v="428"/>
    <tag k="addr:street" v="Darling Road"/>
    <tag k="addr:state" v="VT"/>
    <tag k="ref:vcgi:esiteid" v="23814"/>
  </node>
  <node id="-1156" visible="true" lat="44.18379781" lon="-72.59524211">
    <tag k="addr:housenumber" v="1466"/>
    <tag k="addr:street" v="Brookfield Road"/>
    <tag k="addr:state" v="VT"/>
    <tag k="ref:vcgi:esiteid" v="23815"/>
  </node>
  <node id="-1157" visible="true" lat="44.18375147" lon="-72.63966272">
    <tag k="addr:housenumber" v="721"/>
    <tag k="addr:street" v="Vermont Route 12"/>
    <tag k="addr:state" v="VT"/>
    <tag k="ref:vcgi:esiteid" v="23816"/>
  </node>
  <node id="-1158" visible="true" lat="44.18332997" lon="-72.63958772">
    <tag k="addr:housenumber" v="713"/>
    <tag k="addr:street" v="Vermont Route 12"/>
    <tag k="addr:state" v="VT"/>
    <tag k="ref:vcgi:esiteid" v="23817"/>
  </node>
  <node id="-1159" visible="true" lat="44.18297576" lon="-72.64408874">
    <tag k="addr:housenumber" v="1449"/>
    <tag k="addr:street" v="Chandler Road"/>
    <tag k="addr:state" v="VT"/>
    <tag k="ref:vcgi:esiteid" v="23818"/>
  </node>
  <node id="-1160" visible="true" lat="44.18286711" lon="-72.63522612">
    <tag k="addr:housenumber" v="239"/>
    <tag k="addr:street" v="Darling Road"/>
    <tag k="addr:state" v="VT"/>
    <tag k="ref:vcgi:esiteid" v="23819"/>
  </node>
  <node id="-1161" visible="true" lat="44.18236603" lon="-72.63534021">
    <tag k="addr:housenumber" v="224"/>
    <tag k="addr:street" v="Darling Road"/>
    <tag k="addr:state" v="VT"/>
    <tag k="ref:vcgi:esiteid" v="23820"/>
  </node>
  <node id="-1162" visible="true" lat="44.18244592" lon="-72.63953641">
    <tag k="addr:housenumber" v="641"/>
    <tag k="addr:street" v="Vermont Route 12"/>
    <tag k="addr:state" v="VT"/>
    <tag k="ref:vcgi:esiteid" v="23821"/>
  </node>
  <node id="-1163" visible="true" lat="44.18233491" lon="-72.59695536">
    <tag k="addr:housenumber" v="1413"/>
    <tag k="addr:street" v="Brookfield Road"/>
    <tag k="addr:state" v="VT"/>
    <tag k="ref:vcgi:esiteid" v="23822"/>
  </node>
  <node id="-1164" visible="true" lat="44.18184281" lon="-72.57401377">
    <tag k="addr:housenumber" v="1072"/>
    <tag k="addr:street" v="East Road"/>
    <tag k="addr:state" v="VT"/>
    <tag k="ref:vcgi:esiteid" v="23823"/>
  </node>
  <node id="-1165" visible="true" lat="44.18159892" lon="-72.64504224">
    <tag k="addr:housenumber" v="1556"/>
    <tag k="addr:street" v="Chandler Road"/>
    <tag k="addr:state" v="VT"/>
    <tag k="ref:vcgi:esiteid" v="23824"/>
  </node>
  <node id="-1167" visible="true" lat="44.18098601" lon="-72.63773617">
    <tag k="addr:housenumber" v="540"/>
    <tag k="addr:street" v="Vermont Route 12"/>
    <tag k="addr:state" v="VT"/>
    <tag k="ref:vcgi:esiteid" v="23826"/>
  </node>
  <node id="-1168" visible="true" lat="44.18094634" lon="-72.64516448">
    <tag k="addr:housenumber" v="1572"/>
    <tag k="addr:street" v="Chandler Road"/>
    <tag k="addr:state" v="VT"/>
    <tag k="ref:vcgi:esiteid" v="23827"/>
  </node>
  <node id="-1170" visible="true" lat="44.18062811" lon="-72.63857889">
    <tag k="addr:housenumber" v="526"/>
    <tag k="addr:street" v="Vermont Route 12"/>
    <tag k="addr:state" v="VT"/>
    <tag k="ref:vcgi:esiteid" v="23829"/>
  </node>
  <node id="-1172" visible="true" lat="44.18058013" lon="-72.63918304">
    <tag k="addr:housenumber" v="517"/>
    <tag k="addr:street" v="Vermont Route 12"/>
    <tag k="addr:state" v="VT"/>
    <tag k="ref:vcgi:esiteid" v="23831"/>
  </node>
  <node id="-1174" visible="true" lat="44.17992019" lon="-72.64491272">
    <tag k="addr:housenumber" v="1671"/>
    <tag k="addr:street" v="Chandler Road"/>
    <tag k="addr:state" v="VT"/>
    <tag k="ref:vcgi:esiteid" v="23833"/>
  </node>
  <node id="-1176" visible="true" lat="44.17935573" lon="-72.63731877">
    <tag k="addr:housenumber" v="542"/>
    <tag k="addr:street" v="Vermont Route 12"/>
    <tag k="addr:state" v="VT"/>
    <tag k="ref:vcgi:esiteid" v="23835"/>
  </node>
  <node id="-1177" visible="true" lat="44.17932163" lon="-72.64598874">
    <tag k="addr:housenumber" v="1741"/>
    <tag k="addr:street" v="Chandler Road"/>
    <tag k="addr:state" v="VT"/>
    <tag k="ref:vcgi:esiteid" v="23836"/>
  </node>
  <node id="-1185" visible="true" lat="44.17761437" lon="-72.5960023">
    <tag k="addr:housenumber" v="1073"/>
    <tag k="addr:street" v="Brookfield Road"/>
    <tag k="addr:state" v="VT"/>
    <tag k="ref:vcgi:esiteid" v="23844"/>
  </node>
  <node id="-1186" visible="true" lat="44.17798755" lon="-72.58574501">
    <tag k="addr:housenumber" v="1167"/>
    <tag k="addr:street" v="Paine Turnpike South"/>
    <tag k="addr:state" v="VT"/>
    <tag k="ref:vcgi:esiteid" v="23845"/>
  </node>
  <node id="-1188" visible="true" lat="44.17748642" lon="-72.64891815">
    <tag k="addr:housenumber" v="1921"/>
    <tag k="addr:street" v="Chandler Road"/>
    <tag k="addr:state" v="VT"/>
    <tag k="ref:vcgi:esiteid" v="23847"/>
  </node>
  <node id="-1201" visible="true" lat="44.17412417" lon="-72.57316621">
    <tag k="addr:housenumber" v="449"/>
    <tag k="addr:street" v="East Road"/>
    <tag k="addr:state" v="VT"/>
    <tag k="ref:vcgi:esiteid" v="23860"/>
  </node>
  <node id="-1221" visible="true" lat="44.20230249" lon="-72.66085139">
    <tag k="addr:housenumber" v="1532"/>
    <tag k="addr:street" v="West Hill Road"/>
    <tag k="addr:state" v="VT"/>
    <tag k="ref:vcgi:esiteid" v="23883"/>
  </node>
  <node id="-1222" visible="true" lat="44.20082017" lon="-72.65993248">
    <tag k="addr:housenumber" v="1458"/>
    <tag k="addr:street" v="West Hill Road"/>
    <tag k="addr:state" v="VT"/>
    <tag k="ref:vcgi:esiteid" v="23884"/>
  </node>
  <node id="-1223" visible="true" lat="44.20574372" lon="-72.66119376">
    <tag k="addr:housenumber" v="1750"/>
    <tag k="addr:street" v="West Hill Road"/>
    <tag k="addr:state" v="VT"/>
    <tag k="ref:vcgi:esiteid" v="23885"/>
  </node>
  <node id="-1224" visible="true" lat="44.22896749" lon="-72.61693367">
    <tag k="addr:housenumber" v="4479"/>
    <tag k="addr:street" v="Vermont Route 12"/>
    <tag k="addr:state" v="VT"/>
    <tag k="ref:vcgi:esiteid" v="23886"/>
  </node>
  <node id="-1225" visible="true" lat="44.20944552" lon="-72.63245549">
    <tag k="addr:housenumber" v="2835"/>
    <tag k="addr:street" v="Vermont Route 12"/>
    <tag k="addr:state" v="VT"/>
    <tag k="ref:vcgi:esiteid" v="23887"/>
  </node>
  <node id="-1230" visible="true" lat="44.18932917" lon="-72.67517741">
    <tag k="addr:housenumber" v="1700"/>
    <tag k="addr:street" v="Cox Brook Road"/>
    <tag k="addr:state" v="VT"/>
    <tag k="ref:vcgi:esiteid" v="23892"/>
  </node>
  <node id="-1231" visible="true" lat="44.26573074" lon="-72.63001882">
    <tag k="addr:housenumber" v="19"/>
    <tag k="addr:street" v="Three Mile Bridge Road"/>
    <tag k="addr:state" v="VT"/>
    <tag k="ref:vcgi:esiteid" v="23893"/>
  </node>
  <node id="-1232" visible="true" lat="44.26650914" lon="-72.63179047">
    <tag k="addr:housenumber" v="149"/>
    <tag k="addr:street" v="Three Mile Bridge Road"/>
    <tag k="addr:state" v="VT"/>
    <tag k="ref:vcgi:esiteid" v="23894"/>
  </node>
  <node id="-1233" visible="true" lat="44.26886171" lon="-72.63811504">
    <tag k="addr:housenumber" v="482"/>
    <tag k="addr:street" v="Three Mile Bridge Road"/>
    <tag k="addr:state" v="VT"/>
    <tag k="ref:vcgi:esiteid" v="23895"/>
  </node>
  <node id="-1234" visible="true" lat="44.26863273" lon="-72.63921599">
    <tag k="addr:housenumber" v="523"/>
    <tag k="addr:street" v="Three Mile Bridge Road"/>
    <tag k="addr:state" v="VT"/>
    <tag k="ref:vcgi:esiteid" v="23896"/>
  </node>
  <node id="-1235" visible="true" lat="44.21986971" lon="-72.6052692">
    <tag k="addr:housenumber" v="228"/>
    <tag k="addr:street" v="Walker Road"/>
    <tag k="addr:state" v="VT"/>
    <tag k="ref:vcgi:esiteid" v="23897"/>
  </node>
  <node id="-1238" visible="true" lat="44.2576648" lon="-72.6445753">
    <tag k="addr:housenumber" v="807"/>
    <tag k="addr:street" v="Jones Brook Road"/>
    <tag k="addr:state" v="VT"/>
    <tag k="ref:vcgi:esiteid" v="23900"/>
  </node>
  <node id="-1239" visible="true" lat="44.24858082" lon="-72.598439">
    <tag k="addr:housenumber" v="289"/>
    <tag k="addr:street" v="Dog River Road"/>
    <tag k="addr:state" v="VT"/>
    <tag k="ref:vcgi:esiteid" v="23901"/>
  </node>
  <node id="-1245" visible="true" lat="44.2120835" lon="-72.63958999">
    <tag k="addr:housenumber" v="199"/>
    <tag k="addr:street" v="Burelli Farm Drive"/>
    <tag k="addr:state" v="VT"/>
    <tag k="ref:vcgi:esiteid" v="23908"/>
  </node>
  <node id="-1249" visible="true" lat="44.18189169" lon="-72.63972157">
    <tag k="addr:housenumber" v="617"/>
    <tag k="addr:street" v="Vermont Route 12"/>
    <tag k="addr:state" v="VT"/>
    <tag k="ref:vcgi:esiteid" v="23912"/>
  </node>
  <node id="-1268" visible="true" lat="44.25197121" lon="-72.62204218">
    <tag k="addr:housenumber" v="645"/>
    <tag k="addr:street" v="Bartlett Road"/>
    <tag k="addr:state" v="VT"/>
    <tag k="ref:vcgi:esiteid" v="23932"/>
  </node>
  <node id="-1272" visible="true" lat="44.21744901" lon="-72.6491003">
    <tag k="addr:housenumber" v="1033"/>
    <tag k="addr:street" v="Muzzy Road"/>
    <tag k="addr:state" v="VT"/>
    <tag k="ref:vcgi:esiteid" v="23936"/>
  </node>
  <node id="-1274" visible="true" lat="44.18792703" lon="-72.67208038">
    <tag k="addr:housenumber" v="109"/>
    <tag k="addr:street" v="Glinnis Road"/>
    <tag k="addr:state" v="VT"/>
    <tag k="ref:vcgi:esiteid" v="23938"/>
  </node>
  <node id="-1275" visible="true" lat="44.25049138" lon="-72.60347827">
    <tag k="addr:housenumber" v="183"/>
    <tag k="addr:street" v="Nelson Drive"/>
    <tag k="addr:state" v="VT"/>
    <tag k="ref:vcgi:esiteid" v="23939"/>
  </node>
  <node id="-1282" visible="true" lat="44.21692824" lon="-72.61284551">
    <tag k="addr:housenumber" v="487"/>
    <tag k="addr:street" v="Rowell Hill Road"/>
    <tag k="addr:state" v="VT"/>
    <tag k="ref:vcgi:esiteid" v="23947"/>
  </node>
  <node id="-1285" visible="true" lat="44.18218821" lon="-72.64496426">
    <tag k="addr:housenumber" v="1520"/>
    <tag k="addr:street" v="Chandler Road"/>
    <tag k="addr:state" v="VT"/>
    <tag k="ref:vcgi:esiteid" v="23951"/>
  </node>
  <node id="-1287" visible="true" lat="44.18427132" lon="-72.6475743">
    <tag k="addr:housenumber" v="1392"/>
    <tag k="addr:street" v="Chandler Road"/>
    <tag k="addr:state" v="VT"/>
    <tag k="ref:vcgi:esiteid" v="23954"/>
  </node>
  <node id="-1308" visible="true" lat="44.19791537" lon="-72.65909336">
    <tag k="addr:housenumber" v="1398"/>
    <tag k="addr:street" v="West Hill Road"/>
    <tag k="addr:state" v="VT"/>
    <tag k="ref:vcgi:esiteid" v="23978"/>
  </node>
  <node id="-1312" visible="true" lat="44.19948234" lon="-72.56065284">
    <tag k="addr:housenumber" v="1981"/>
    <tag k="addr:street" v="Airport Road"/>
    <tag k="addr:state" v="VT"/>
    <tag k="ref:vcgi:esiteid" v="23982"/>
  </node>
  <node id="-1313" visible="true" lat="44.19172999" lon="-72.63514053">
    <tag k="addr:housenumber" v="246"/>
    <tag k="addr:street" v="Pine Hill Drive"/>
    <tag k="addr:state" v="VT"/>
    <tag k="ref:vcgi:esiteid" v="23983"/>
  </node>
  <node id="-1314" visible="true" lat="44.18985297" lon="-72.64509522">
    <tag k="addr:housenumber" v="986"/>
    <tag k="addr:street" v="Chandler Road"/>
    <tag k="addr:state" v="VT"/>
    <tag k="ref:vcgi:esiteid" v="23984"/>
  </node>
  <node id="-1317" visible="true" lat="44.22304884" lon="-72.61483871">
    <tag k="addr:housenumber" v="337"/>
    <tag k="addr:street" v="Paradise Mountain Road"/>
    <tag k="addr:state" v="VT"/>
    <tag k="ref:vcgi:esiteid" v="23987"/>
  </node>
  <node id="-1318" visible="true" lat="44.21437623" lon="-72.55855515">
    <tag k="addr:housenumber" v="685"/>
    <tag k="addr:street" v="Industrial Lane"/>
    <tag k="addr:state" v="VT"/>
    <tag k="ref:vcgi:esiteid" v="23988"/>
  </node>
  <node id="-1322" visible="true" lat="44.23550078" lon="-72.54619961">
    <tag k="addr:housenumber" v="268"/>
    <tag k="addr:street" v="Point Ridge Road"/>
    <tag k="addr:state" v="VT"/>
    <tag k="ref:vcgi:esiteid" v="23992"/>
  </node>
  <node id="-1342" visible="true" lat="44.20147568" lon="-72.63191805">
    <tag k="addr:housenumber" v="142"/>
    <tag k="addr:street" v="Mercier Road"/>
    <tag k="addr:state" v="VT"/>
    <tag k="ref:vcgi:esiteid" v="307247"/>
  </node>
  <node id="-1343" visible="true" lat="44.1740891" lon="-72.61012499">
    <tag k="addr:housenumber" v="643"/>
    <tag k="addr:street" v="Brookfield Road"/>
    <tag k="addr:state" v="VT"/>
    <tag k="ref:vcgi:esiteid" v="312152"/>
  </node>
  <node id="-1365" visible="true" lat="44.19680763" lon="-72.63118475">
    <tag k="addr:housenumber" v="1838"/>
    <tag k="addr:street" v="Vermont Route 12"/>
    <tag k="addr:state" v="VT"/>
    <tag k="ref:vcgi:esiteid" v="326349"/>
  </node>
  <node id="-1368" visible="true" lat="44.22005934" lon="-72.62021045">
    <tag k="addr:housenumber" v="787"/>
    <tag k="addr:street" v="Rowell Hill Road"/>
    <tag k="addr:state" v="VT"/>
    <tag k="ref:vcgi:esiteid" v="328263"/>
  </node>
  <node id="-1373" visible="true" lat="44.22774856" lon="-72.60053346">
    <tag k="addr:housenumber" v="151"/>
    <tag k="addr:street" v="Browns Mill Road"/>
    <tag k="addr:state" v="VT"/>
    <tag k="ref:vcgi:esiteid" v="335041"/>
  </node>
  <node id="-1376" visible="true" lat="44.20914707" lon="-72.64285095">
    <tag k="addr:housenumber" v="500"/>
    <tag k="addr:street" v="Chase Road"/>
    <tag k="addr:state" v="VT"/>
    <tag k="ref:vcgi:esiteid" v="335396"/>
  </node>
  <node id="-1377" visible="true" lat="44.20790368" lon="-72.63934862">
    <tag k="addr:housenumber" v="51"/>
    <tag k="addr:street" v="Chase Road"/>
    <tag k="addr:state" v="VT"/>
    <tag k="ref:vcgi:esiteid" v="335397"/>
  </node>
  <node id="-1378" visible="true" lat="44.21101368" lon="-72.65278761">
    <tag k="addr:housenumber" v="1062"/>
    <tag k="addr:street" v="Chase Road"/>
    <tag k="addr:state" v="VT"/>
    <tag k="ref:vcgi:esiteid" v="335398"/>
  </node>
  <node id="-1382" visible="true" lat="44.20386616" lon="-72.63665149">
    <tag k="addr:housenumber" v="2402"/>
    <tag k="addr:street" v="Vermont Route 12"/>
    <tag k="addr:state" v="VT"/>
    <tag k="ref:vcgi:esiteid" v="335402"/>
  </node>
  <node id="-1383" visible="true" lat="44.2215687" lon="-72.60703093">
    <tag k="addr:housenumber" v="210"/>
    <tag k="addr:street" v="Rowell Hill Road"/>
    <tag k="addr:state" v="VT"/>
    <tag k="ref:vcgi:esiteid" v="335403"/>
  </node>
  <node id="-1384" visible="true" lat="44.21447873" lon="-72.61532793">
    <tag k="addr:housenumber" v="497"/>
    <tag k="addr:street" v="Rowell Hill Road"/>
    <tag k="addr:state" v="VT"/>
    <tag k="ref:vcgi:esiteid" v="335404"/>
  </node>
  <node id="-1385" visible="true" lat="44.19461651" lon="-72.65072114">
    <tag k="addr:housenumber" v="346"/>
    <tag k="addr:street" v="West Hill Road"/>
    <tag k="addr:state" v="VT"/>
    <tag k="ref:vcgi:esiteid" v="335405"/>
  </node>
  <node id="-1388" visible="true" lat="44.20890777" lon="-72.63980686">
    <tag k="addr:housenumber" v="595"/>
    <tag k="addr:street" v="Chase Road"/>
    <tag k="addr:state" v="VT"/>
    <tag k="ref:vcgi:esiteid" v="336929"/>
  </node>
  <node id="-1389" visible="true" lat="44.2215304" lon="-72.58678435">
    <tag k="addr:housenumber" v="599"/>
    <tag k="addr:street" v="Hill Street Extension"/>
    <tag k="addr:state" v="VT"/>
    <tag k="ref:vcgi:esiteid" v="336940"/>
  </node>
  <node id="-1396" visible="true" lat="44.20508756" lon="-72.6626702">
    <tag k="addr:housenumber" v="1755"/>
    <tag k="addr:street" v="West Hill Road"/>
    <tag k="addr:state" v="VT"/>
    <tag k="ref:vcgi:esiteid" v="338525"/>
  </node>
  <node id="-1399" visible="true" lat="44.20572016" lon="-72.59292023">
    <tag k="addr:housenumber" v="143"/>
    <tag k="addr:street" v="Black Road"/>
    <tag k="addr:state" v="VT"/>
    <tag k="ref:vcgi:esiteid" v="339019"/>
  </node>
  <node id="-1402" visible="true" lat="44.19130148" lon="-72.64634604">
    <tag k="addr:housenumber" v="153"/>
    <tag k="addr:street" v="West Hill Road"/>
    <tag k="addr:state" v="VT"/>
    <tag k="ref:vcgi:esiteid" v="340072"/>
  </node>
  <node id="-1408" visible="true" lat="44.19298096" lon="-72.65485964">
    <tag k="addr:housenumber" v="630"/>
    <tag k="addr:street" v="West Hill Road"/>
    <tag k="addr:state" v="VT"/>
    <tag k="ref:vcgi:esiteid" v="340992"/>
  </node>
  <node id="-1409" visible="true" lat="44.19538953" lon="-72.6525157">
    <tag k="addr:housenumber" v="348"/>
    <tag k="addr:street" v="West Hill Road"/>
    <tag k="addr:state" v="VT"/>
    <tag k="ref:vcgi:esiteid" v="341494"/>
  </node>
  <node id="-1411" visible="true" lat="44.20712204" lon="-72.59316858">
    <tag k="addr:housenumber" v="273"/>
    <tag k="addr:street" v="Black Road"/>
    <tag k="addr:state" v="VT"/>
    <tag k="ref:vcgi:esiteid" v="342094"/>
  </node>
  <node id="-1414" visible="true" lat="44.23860106" lon="-72.6233446">
    <tag k="addr:housenumber" v="839"/>
    <tag k="addr:street" v="Widow Moses Road"/>
    <tag k="addr:state" v="VT"/>
    <tag k="ref:vcgi:esiteid" v="342118"/>
  </node>
  <node id="-1415" visible="true" lat="44.25712253" lon="-72.60946373">
    <tag k="addr:housenumber" v="9"/>
    <tag k="addr:street" v="Park Manor Drive"/>
    <tag k="addr:state" v="VT"/>
    <tag k="ref:vcgi:esiteid" v="342119"/>
  </node>
  <node id="-1416" visible="true" lat="44.25696294" lon="-72.60950982">
    <tag k="addr:housenumber" v="19"/>
    <tag k="addr:street" v="Park Manor Drive"/>
    <tag k="addr:state" v="VT"/>
    <tag k="ref:vcgi:esiteid" v="342120"/>
  </node>
  <node id="-1417" visible="true" lat="44.25681525" lon="-72.60956587">
    <tag k="addr:housenumber" v="29"/>
    <tag k="addr:street" v="Park Manor Drive"/>
    <tag k="addr:state" v="VT"/>
    <tag k="ref:vcgi:esiteid" v="342121"/>
  </node>
  <node id="-1418" visible="true" lat="44.25669618" lon="-72.60958221">
    <tag k="addr:housenumber" v="39"/>
    <tag k="addr:street" v="Park Manor Drive"/>
    <tag k="addr:state" v="VT"/>
    <tag k="ref:vcgi:esiteid" v="342122"/>
  </node>
  <node id="-1419" visible="true" lat="44.25657946" lon="-72.60962507">
    <tag k="addr:housenumber" v="47"/>
    <tag k="addr:street" v="Park Manor Drive"/>
    <tag k="addr:state" v="VT"/>
    <tag k="ref:vcgi:esiteid" v="342123"/>
  </node>
  <node id="-1420" visible="true" lat="44.25644136" lon="-72.60960493">
    <tag k="addr:housenumber" v="55"/>
    <tag k="addr:street" v="Park Manor Drive"/>
    <tag k="addr:state" v="VT"/>
    <tag k="ref:vcgi:esiteid" v="342124"/>
  </node>
  <node id="-1421" visible="true" lat="44.25673377" lon="-72.61010909">
    <tag k="addr:housenumber" v="40"/>
    <tag k="addr:street" v="Park Manor Drive"/>
    <tag k="addr:state" v="VT"/>
    <tag k="ref:vcgi:esiteid" v="342125"/>
  </node>
  <node id="-1422" visible="true" lat="44.25689892" lon="-72.60922145">
    <tag k="addr:housenumber" v="22"/>
    <tag k="addr:street" v="Crossing Manor Drive"/>
    <tag k="addr:state" v="VT"/>
    <tag k="ref:vcgi:esiteid" v="342128"/>
  </node>
  <node id="-1423" visible="true" lat="44.25655121" lon="-72.60928044">
    <tag k="addr:housenumber" v="46"/>
    <tag k="addr:street" v="Crossing Manor Drive"/>
    <tag k="addr:state" v="VT"/>
    <tag k="ref:vcgi:esiteid" v="342129"/>
  </node>
  <node id="-1424" visible="true" lat="44.25637975" lon="-72.60929338">
    <tag k="addr:housenumber" v="60"/>
    <tag k="addr:street" v="Crossing Manor Drive"/>
    <tag k="addr:state" v="VT"/>
    <tag k="ref:vcgi:esiteid" v="342130"/>
  </node>
  <node id="-1425" visible="true" lat="44.25638734" lon="-72.60882623">
    <tag k="addr:housenumber" v="59"/>
    <tag k="addr:street" v="Crossing Manor Drive"/>
    <tag k="addr:state" v="VT"/>
    <tag k="ref:vcgi:esiteid" v="342131"/>
  </node>
  <node id="-1426" visible="true" lat="44.25655167" lon="-72.60880334">
    <tag k="addr:housenumber" v="45"/>
    <tag k="addr:street" v="Crossing Manor Drive"/>
    <tag k="addr:state" v="VT"/>
    <tag k="ref:vcgi:esiteid" v="342132"/>
  </node>
  <node id="-1427" visible="true" lat="44.25668026" lon="-72.60879364">
    <tag k="addr:housenumber" v="33"/>
    <tag k="addr:street" v="Crossing Manor Drive"/>
    <tag k="addr:state" v="VT"/>
    <tag k="ref:vcgi:esiteid" v="342133"/>
  </node>
  <node id="-1428" visible="true" lat="44.25682796" lon="-72.60873096">
    <tag k="addr:housenumber" v="23"/>
    <tag k="addr:street" v="Crossing Manor Drive"/>
    <tag k="addr:state" v="VT"/>
    <tag k="ref:vcgi:esiteid" v="342134"/>
  </node>
  <node id="-1429" visible="true" lat="44.25698516" lon="-72.60868486">
    <tag k="addr:housenumber" v="13"/>
    <tag k="addr:street" v="Crossing Manor Drive"/>
    <tag k="addr:state" v="VT"/>
    <tag k="ref:vcgi:esiteid" v="342135"/>
  </node>
  <node id="-1430" visible="true" lat="44.25623254" lon="-72.60884582">
    <tag k="addr:housenumber" v="69"/>
    <tag k="addr:street" v="Crossing Manor Drive"/>
    <tag k="addr:state" v="VT"/>
    <tag k="ref:vcgi:esiteid" v="342136"/>
  </node>
  <node id="-1431" visible="true" lat="44.25608728" lon="-72.60885881">
    <tag k="addr:housenumber" v="77"/>
    <tag k="addr:street" v="Crossing Manor Drive"/>
    <tag k="addr:state" v="VT"/>
    <tag k="ref:vcgi:esiteid" v="342137"/>
  </node>
  <node id="-1432" visible="true" lat="44.25624157" lon="-72.60937264">
    <tag k="addr:housenumber" v="68"/>
    <tag k="addr:street" v="Crossing Manor Drive"/>
    <tag k="addr:state" v="VT"/>
    <tag k="ref:vcgi:esiteid" v="342138"/>
  </node>
  <node id="-1434" visible="true" lat="44.17222339" lon="-72.60653772">
    <tag k="addr:housenumber" v="641"/>
    <tag k="addr:street" v="Brookfield Road"/>
    <tag k="addr:state" v="VT"/>
    <tag k="ref:vcgi:esiteid" v="342157"/>
  </node>
  <node id="-1436" visible="true" lat="44.26883753" lon="-72.64030079">
    <tag k="addr:housenumber" v="2"/>
    <tag k="addr:street" v="Jones Brook Road"/>
    <tag k="addr:state" v="VT"/>
    <tag k="ref:vcgi:esiteid" v="342387"/>
  </node>
  <node id="-1438" visible="true" lat="44.24005505" lon="-72.62646353">
    <tag k="addr:housenumber" v="1094"/>
    <tag k="addr:street" v="Widow Moses Road"/>
    <tag k="addr:state" v="VT"/>
    <tag k="ref:vcgi:esiteid" v="342482"/>
  </node>
  <node id="-1439" visible="true" lat="44.25214413" lon="-72.63707108">
    <tag k="addr:housenumber" v="1431"/>
    <tag k="addr:street" v="Bartlett Road"/>
    <tag k="addr:state" v="VT"/>
    <tag k="ref:vcgi:esiteid" v="342483"/>
  </node>
  <node id="-1440" visible="true" lat="44.25770525" lon="-72.62341878">
    <tag k="addr:housenumber" v="55"/>
    <tag k="addr:street" v="Ember Lane"/>
    <tag k="addr:state" v="VT"/>
    <tag k="ref:vcgi:esiteid" v="342484"/>
  </node>
  <node id="-1441" visible="true" lat="44.26046003" lon="-72.62303543">
    <tag k="addr:housenumber" v="127"/>
    <tag k="addr:street" v="Ember Lane"/>
    <tag k="addr:state" v="VT"/>
    <tag k="ref:vcgi:esiteid" v="342485"/>
  </node>
  <node id="-1442" visible="true" lat="44.20376555" lon="-72.63592153">
    <tag k="addr:housenumber" v="2368"/>
    <tag k="addr:street" v="Vermont Route 12"/>
    <tag k="addr:state" v="VT"/>
    <tag k="ref:vcgi:esiteid" v="342515"/>
  </node>
  <node id="-1443" visible="true" lat="44.20067561" lon="-72.63552642">
    <tag k="addr:housenumber" v="2145"/>
    <tag k="addr:street" v="Vermont Route 12"/>
    <tag k="addr:state" v="VT"/>
    <tag k="ref:vcgi:esiteid" v="342516"/>
  </node>
  <node id="-1446" visible="true" lat="44.22610386" lon="-72.62003245">
    <tag k="addr:housenumber" v="14"/>
    <tag k="addr:street" v="Herring Farm Drive"/>
    <tag k="addr:state" v="VT"/>
    <tag k="ref:vcgi:esiteid" v="342568"/>
  </node>
  <node id="-1447" visible="true" lat="44.17080329" lon="-72.57836454">
    <tag k="addr:housenumber" v="1931"/>
    <tag k="addr:street" v="Belknap Road"/>
    <tag k="addr:state" v="VT"/>
    <tag k="ref:vcgi:esiteid" v="342584"/>
  </node>
  <node id="-1448" visible="true" lat="44.16991893" lon="-72.57976814">
    <tag k="addr:housenumber" v="2000"/>
    <tag k="addr:street" v="Belknap Road"/>
    <tag k="addr:state" v="VT"/>
    <tag k="ref:vcgi:esiteid" v="342585"/>
  </node>
  <node id="-1449" visible="true" lat="44.16475567" lon="-72.58160571">
    <tag k="addr:housenumber" v="2349"/>
    <tag k="addr:street" v="Belknap Road"/>
    <tag k="addr:state" v="VT"/>
    <tag k="ref:vcgi:esiteid" v="342586"/>
  </node>
  <node id="-1451" visible="true" lat="44.25307469" lon="-72.62748329">
    <tag k="addr:housenumber" v="880"/>
    <tag k="addr:street" v="Bartlett Road"/>
    <tag k="addr:state" v="VT"/>
    <tag k="ref:vcgi:esiteid" v="342605"/>
  </node>
  <node id="-1452" visible="true" lat="44.18303831" lon="-72.67377853">
    <tag k="addr:housenumber" v="1483"/>
    <tag k="addr:street" v="Cox Brook Road"/>
    <tag k="addr:state" v="VT"/>
    <tag k="ref:vcgi:esiteid" v="342831"/>
  </node>
  <node id="-1453" visible="true" lat="44.18932984" lon="-72.67650172">
    <tag k="addr:housenumber" v="1753"/>
    <tag k="addr:street" v="Cox Brook Road"/>
    <tag k="addr:state" v="VT"/>
    <tag k="ref:vcgi:esiteid" v="345121"/>
  </node>
  <node id="-1458" visible="true" lat="44.25687805" lon="-72.6100898">
    <tag k="addr:housenumber" v="30"/>
    <tag k="addr:street" v="Park Manor Drive"/>
    <tag k="addr:state" v="VT"/>
    <tag k="ref:vcgi:esiteid" v="345252"/>
  </node>
  <node id="-1459" visible="true" lat="44.25703369" lon="-72.61000302">
    <tag k="addr:housenumber" v="20"/>
    <tag k="addr:street" v="Park Manor Drive"/>
    <tag k="addr:state" v="VT"/>
    <tag k="ref:vcgi:esiteid" v="345462"/>
  </node>
  <node id="-1469" visible="true" lat="44.24089028" lon="-72.54040375">
    <tag k="addr:housenumber" v="1189"/>
    <tag k="addr:street" v="U.S. Route 2"/>
    <tag k="addr:state" v="VT"/>
    <tag k="ref:vcgi:esiteid" v="365255"/>
  </node>
  <node id="-1470" visible="true" lat="44.19818287" lon="-72.59298048">
    <tag k="addr:housenumber" v="2471"/>
    <tag k="addr:street" v="Brookfield Road"/>
    <tag k="addr:state" v="VT"/>
    <tag k="ref:vcgi:esiteid" v="445376"/>
  </node>
  <node id="-1471" visible="true" lat="44.25792268" lon="-72.62223864">
    <tag k="addr:housenumber" v="244"/>
    <tag k="addr:street" v="Bartlett Road"/>
    <tag k="addr:state" v="VT"/>
    <tag k="ref:vcgi:esiteid" v="445377"/>
  </node>
  <node id="-1472" visible="true" lat="44.25673589" lon="-72.60927287">
    <tag k="addr:housenumber" v="34"/>
    <tag k="addr:street" v="Crossing Manor Drive"/>
    <tag k="addr:state" v="VT"/>
    <tag k="ref:vcgi:esiteid" v="445378"/>
  </node>
  <node id="-1474" visible="true" lat="44.22910298" lon="-72.55231717">
    <tag k="addr:housenumber" v="1450"/>
    <tag k="addr:street" v="U.S. Route 302"/>
    <tag k="addr:state" v="VT"/>
    <tag k="ref:vcgi:esiteid" v="446574"/>
  </node>
  <node id="-1481" visible="true" lat="44.25977183" lon="-72.63339063">
    <tag k="addr:housenumber" v="69"/>
    <tag k="addr:street" v="Three Mile Bridge Road"/>
    <tag k="addr:state" v="VT"/>
    <tag k="ref:vcgi:esiteid" v="449819"/>
  </node>
  <node id="-1483" visible="true" lat="44.23461249" lon="-72.54493708">
    <tag k="addr:housenumber" v="400"/>
    <tag k="addr:street" v="Marvin Road"/>
    <tag k="addr:state" v="VT"/>
    <tag k="ref:vcgi:esiteid" v="451499"/>
  </node>
  <node id="-1488" visible="true" lat="44.20428577" lon="-72.66121668">
    <tag k="addr:housenumber" v="1702"/>
    <tag k="addr:street" v="West Hill Road"/>
    <tag k="addr:state" v="VT"/>
    <tag k="ref:vcgi:esiteid" v="453509"/>
  </node>
  <node id="-1490" visible="true" lat="44.21259347" lon="-72.6380902">
    <tag k="addr:housenumber" v="269"/>
    <tag k="addr:street" v="Burelli Farm Drive"/>
    <tag k="addr:state" v="VT"/>
    <tag k="ref:vcgi:esiteid" v="454337"/>
  </node>
  <node id="-1491" visible="true" lat="44.21168495" lon="-72.63980729">
    <tag k="addr:housenumber" v="203"/>
    <tag k="addr:street" v="Burelli Farm Drive"/>
    <tag k="addr:state" v="VT"/>
    <tag k="ref:vcgi:esiteid" v="454338"/>
  </node>
  <node id="-1493" visible="true" lat="44.18482595" lon="-72.62550184">
    <tag k="addr:housenumber" v="500"/>
    <tag k="addr:street" v="Darling Road"/>
    <tag k="addr:state" v="VT"/>
    <tag k="ref:vcgi:esiteid" v="454841"/>
  </node>
  <node id="-1494" visible="true" lat="44.20326159" lon="-72.66111341">
    <tag k="addr:housenumber" v="1610"/>
    <tag k="addr:street" v="West Hill Road"/>
    <tag k="addr:state" v="VT"/>
    <tag k="ref:vcgi:esiteid" v="454861"/>
  </node>
  <node id="-1496" visible="true" lat="44.2291778" lon="-72.61367757">
    <tag k="addr:housenumber" v="4644"/>
    <tag k="addr:street" v="Vermont Route 12"/>
    <tag k="addr:state" v="VT"/>
    <tag k="ref:vcgi:esiteid" v="454863"/>
  </node>
  <node id="-1498" visible="true" lat="44.22929486" lon="-72.61449247">
    <tag k="addr:housenumber" v="4586"/>
    <tag k="addr:street" v="Vermont Route 12"/>
    <tag k="addr:state" v="VT"/>
    <tag k="ref:vcgi:esiteid" v="454865"/>
  </node>
  <node id="-1499" visible="true" lat="44.23026059" lon="-72.61314812">
    <tag k="addr:housenumber" v="4647"/>
    <tag k="addr:street" v="Vermont Route 12"/>
    <tag k="addr:state" v="VT"/>
    <tag k="ref:vcgi:esiteid" v="454866"/>
  </node>
  <node id="-1511" visible="true" lat="44.2250989" lon="-72.62217012">
    <tag k="addr:housenumber" v="4113"/>
    <tag k="addr:street" v="Vermont Route 12"/>
    <tag k="addr:state" v="VT"/>
    <tag k="ref:vcgi:esiteid" v="611434"/>
  </node>
  <node id="-1514" visible="true" lat="44.20043958" lon="-72.63336671">
    <tag k="addr:housenumber" v="2072"/>
    <tag k="addr:street" v="Vermont Route 12"/>
    <tag k="addr:state" v="VT"/>
    <tag k="ref:vcgi:esiteid" v="611437"/>
  </node>
  <node id="-1515" visible="true" lat="44.19887864" lon="-72.63715738">
    <tag k="addr:housenumber" v="2141"/>
    <tag k="addr:street" v="Vermont Route 12"/>
    <tag k="addr:state" v="VT"/>
    <tag k="ref:vcgi:esiteid" v="611458"/>
  </node>
  <node id="-1516" visible="true" lat="44.24508539" lon="-72.62224524">
    <tag k="addr:housenumber" v="494"/>
    <tag k="addr:street" v="Widow Moses Road"/>
    <tag k="addr:state" v="VT"/>
    <tag k="ref:vcgi:esiteid" v="611459"/>
  </node>
  <node id="-1517" visible="true" lat="44.20877889" lon="-72.64467201">
    <tag k="addr:housenumber" v="554"/>
    <tag k="addr:street" v="Chase Road"/>
    <tag k="addr:state" v="VT"/>
    <tag k="ref:vcgi:esiteid" v="611485"/>
  </node>
  <node id="-1518" visible="true" lat="44.23206103" lon="-72.62671467">
    <tag k="addr:housenumber" v="397"/>
    <tag k="addr:street" v="Crozier Road"/>
    <tag k="addr:state" v="VT"/>
    <tag k="ref:vcgi:esiteid" v="611562"/>
  </node>
  <node id="-1523" visible="true" lat="44.18680101" lon="-72.5972113">
    <tag k="addr:housenumber" v="1745"/>
    <tag k="addr:street" v="Brookfield Road"/>
    <tag k="addr:state" v="VT"/>
    <tag k="ref:vcgi:esiteid" v="616030"/>
  </node>
  <node id="-1528" visible="true" lat="44.17038744" lon="-72.5700109">
    <tag k="addr:housenumber" v="174"/>
    <tag k="addr:street" v="East Road"/>
    <tag k="addr:state" v="VT"/>
    <tag k="ref:vcgi:esiteid" v="617785"/>
  </node>
  <node id="-1530" visible="true" lat="44.25219217" lon="-72.62635806">
    <tag k="addr:housenumber" v="793"/>
    <tag k="addr:street" v="Bartlett Road"/>
    <tag k="addr:state" v="VT"/>
    <tag k="ref:vcgi:esiteid" v="618151"/>
  </node>
  <node id="-1531" visible="true" lat="44.25195718" lon="-72.62983302">
    <tag k="addr:housenumber" v="86"/>
    <tag k="addr:street" v="Thelmas Way"/>
    <tag k="addr:state" v="VT"/>
    <tag k="ref:vcgi:esiteid" v="618503"/>
  </node>
  <node id="-1534" visible="true" lat="44.20241736" lon="-72.66281002">
    <tag k="addr:housenumber" v="1603"/>
    <tag k="addr:street" v="West Hill Road"/>
    <tag k="addr:state" v="VT"/>
    <tag k="ref:vcgi:esiteid" v="655368"/>
  </node>
  <node id="-1535" visible="true" lat="44.22505377" lon="-72.54451366">
    <tag k="addr:housenumber" v="353"/>
    <tag k="addr:street" v="Vine Street"/>
    <tag k="addr:state" v="VT"/>
    <tag k="ref:vcgi:esiteid" v="655431"/>
  </node>
  <node id="-1536" visible="true" lat="44.24212313" lon="-72.58932268">
    <tag k="addr:housenumber" v="178"/>
    <tag k="addr:street" v="First Street"/>
    <tag k="addr:state" v="VT"/>
    <tag k="ref:vcgi:esiteid" v="655456"/>
  </node>
  <node id="-1537" visible="true" lat="44.22288412" lon="-72.53885117">
    <tag k="addr:housenumber" v="269"/>
    <tag k="addr:street" v="Vine Street"/>
    <tag k="addr:state" v="VT"/>
    <tag k="ref:vcgi:esiteid" v="655526"/>
  </node>
  <node id="-1538" visible="true" lat="44.21119843" lon="-72.56025925">
    <tag k="addr:housenumber" v="348"/>
    <tag k="addr:street" v="Industrial Lane"/>
    <tag k="addr:state" v="VT"/>
    <tag k="ref:vcgi:esiteid" v="655876"/>
  </node>
  <node id="-1539" visible="true" lat="44.20949163" lon="-72.65036885">
    <tag k="addr:housenumber" v="884"/>
    <tag k="addr:street" v="Chase Road"/>
    <tag k="addr:state" v="VT"/>
    <tag k="ref:vcgi:esiteid" v="655995"/>
  </node>
  <node id="-1540" visible="true" lat="44.20891335" lon="-72.64874639">
    <tag k="addr:housenumber" v="743"/>
    <tag k="addr:street" v="Chase Road"/>
    <tag k="addr:state" v="VT"/>
    <tag k="ref:vcgi:esiteid" v="655996"/>
  </node>
  <node id="-1543" visible="true" lat="44.16872574" lon="-72.59850112">
    <tag k="addr:housenumber" v="595"/>
    <tag k="addr:street" v="Brookfield Road"/>
    <tag k="addr:state" v="VT"/>
    <tag k="ref:vcgi:esiteid" v="751335"/>
  </node>
  <node id="-1544" visible="true" lat="44.19080384" lon="-72.64222102">
    <tag k="addr:housenumber" v="221"/>
    <tag k="addr:street" v="Haskins Terrace"/>
    <tag k="addr:state" v="VT"/>
    <tag k="ref:vcgi:esiteid" v="751386"/>
  </node>
  <node id="-1545" visible="true" lat="44.17421235" lon="-72.60997147">
    <tag k="addr:housenumber" v="645"/>
    <tag k="addr:street" v="Brookfield Road"/>
    <tag k="addr:state" v="VT"/>
    <tag k="ref:vcgi:esiteid" v="751522"/>
  </node>
  <node id="-1547" visible="true" lat="44.21907612" lon="-72.6031992">
    <tag k="addr:housenumber" v="132"/>
    <tag k="addr:street" v="Walker Road"/>
    <tag k="addr:state" v="VT"/>
    <tag k="ref:vcgi:esiteid" v="751760"/>
  </node>
  <node id="-1553" visible="true" lat="44.20461956" lon="-72.59312029">
    <tag k="addr:housenumber" v="105"/>
    <tag k="addr:street" v="Black Road"/>
    <tag k="addr:state" v="VT"/>
    <tag k="ref:vcgi:esiteid" v="752275"/>
  </node>
  <node id="-1558" visible="true" lat="44.20737063" lon="-72.5916718">
    <tag k="addr:housenumber" v="277"/>
    <tag k="addr:street" v="Black Road"/>
    <tag k="addr:state" v="VT"/>
    <tag k="ref:vcgi:esiteid" v="754407"/>
  </node>
  <node id="-1559" visible="true" lat="44.2288714" lon="-72.60699749">
    <tag k="addr:housenumber" v="4915"/>
    <tag k="addr:street" v="Vermont Route 12"/>
    <tag k="addr:state" v="VT"/>
    <tag k="ref:vcgi:esiteid" v="754408"/>
  </node>
  <node id="-1560" visible="true" lat="44.20248743" lon="-72.63617208">
    <tag k="addr:housenumber" v="2286"/>
    <tag k="addr:street" v="Vermont Route 12"/>
    <tag k="addr:state" v="VT"/>
    <tag k="ref:vcgi:esiteid" v="754409"/>
  </node>
  <node id="-1561" visible="true" lat="44.26056103" lon="-72.62207937">
    <tag k="addr:housenumber" v="96"/>
    <tag k="addr:street" v="Ember Lane"/>
    <tag k="addr:state" v="VT"/>
    <tag k="ref:vcgi:esiteid" v="754410"/>
  </node>
  <node id="-1562" visible="true" lat="44.18758877" lon="-72.67082279">
    <tag k="addr:housenumber" v="119"/>
    <tag k="addr:street" v="Glinnis Road"/>
    <tag k="addr:state" v="VT"/>
    <tag k="ref:vcgi:esiteid" v="754411"/>
  </node>
  <node id="-1564" visible="true" lat="44.22008673" lon="-72.6186525">
    <tag k="addr:housenumber" v="780"/>
    <tag k="addr:street" v="Rowell Hill Road"/>
    <tag k="addr:state" v="VT"/>
    <tag k="ref:vcgi:esiteid" v="754413"/>
  </node>
  <node id="-1565" visible="true" lat="44.21218675" lon="-72.57436644">
    <tag k="addr:housenumber" v="162"/>
    <tag k="addr:street" v="Paine Turnpike North"/>
    <tag k="addr:state" v="VT"/>
    <tag k="ref:vcgi:esiteid" v="754529"/>
  </node>
  <node id="-1566" visible="true" lat="44.20731009" lon="-72.63436451">
    <tag k="addr:housenumber" v="2663"/>
    <tag k="addr:street" v="Vermont Route 12"/>
    <tag k="addr:state" v="VT"/>
    <tag k="ref:vcgi:esiteid" v="754635"/>
  </node>
  <node id="-1567" visible="true" lat="44.21487236" lon="-72.62857712">
    <tag k="addr:housenumber" v="20"/>
    <tag k="addr:street" v="Muzzy Road"/>
    <tag k="addr:state" v="VT"/>
    <tag k="ref:vcgi:esiteid" v="754721"/>
  </node>
  <node id="-1568" visible="true" lat="44.25125567" lon="-72.6296651">
    <tag k="addr:housenumber" v="104"/>
    <tag k="addr:street" v="Thelmas Way"/>
    <tag k="addr:state" v="VT"/>
    <tag k="ref:vcgi:esiteid" v="755579"/>
  </node>
  <node id="-1573" visible="true" lat="44.21526216" lon="-72.56643881">
    <tag k="addr:housenumber" v="430"/>
    <tag k="addr:street" v="Berlin Mall Road"/>
    <tag k="addr:state" v="VT"/>
    <tag k="ref:vcgi:esiteid" v="756204"/>
  </node>
  <node id="-1574" visible="true" lat="44.25777427" lon="-72.61483519">
    <tag k="addr:housenumber" v="671"/>
    <tag k="addr:street" v="Junction Road"/>
    <tag k="addr:state" v="VT"/>
    <tag k="ref:vcgi:esiteid" v="756394"/>
  </node>
  <node id="-1579" visible="true" lat="44.25886564" lon="-72.61924529">
    <tag k="addr:housenumber" v="37"/>
    <tag k="addr:street" v="Bartlett Road"/>
    <tag k="addr:state" v="VT"/>
    <tag k="ref:vcgi:esiteid" v="757346"/>
  </node>
  <node id="-1582" visible="true" lat="44.22627806" lon="-72.61963919">
    <tag k="addr:housenumber" v="28"/>
    <tag k="addr:street" v="Herring Farm Drive"/>
    <tag k="addr:state" v="VT"/>
    <tag k="ref:vcgi:esiteid" v="758132"/>
  </node>
  <node id="-1583" visible="true" lat="44.22645784" lon="-72.61930824">
    <tag k="addr:housenumber" v="48"/>
    <tag k="addr:street" v="Herring Farm Drive"/>
    <tag k="addr:state" v="VT"/>
    <tag k="ref:vcgi:esiteid" v="758133"/>
  </node>
  <node id="-1584" visible="true" lat="44.22674258" lon="-72.61885662">
    <tag k="addr:housenumber" v="74"/>
    <tag k="addr:street" v="Herring Farm Drive"/>
    <tag k="addr:state" v="VT"/>
    <tag k="ref:vcgi:esiteid" v="758134"/>
  </node>
  <node id="-1585" visible="true" lat="44.1894101" lon="-72.66020264">
    <tag k="addr:housenumber" v="254"/>
    <tag k="addr:street" v="McCarty Road"/>
    <tag k="addr:state" v="VT"/>
    <tag k="ref:vcgi:esiteid" v="758146"/>
  </node>
  <node id="-1602" visible="true" lat="44.26098606" lon="-72.64100519">
    <tag k="addr:housenumber" v="587"/>
    <tag k="addr:street" v="Jones Brook Road"/>
    <tag k="addr:state" v="VT"/>
    <tag k="ref:vcgi:esiteid" v="759952"/>
  </node>
  <node id="-1603" visible="true" lat="44.18659534" lon="-72.67879555">
    <tag k="addr:housenumber" v="1615"/>
    <tag k="addr:street" v="Cox Brook Road"/>
    <tag k="addr:state" v="VT"/>
    <tag k="ref:vcgi:esiteid" v="760108"/>
  </node>
  <node id="-1605" visible="true" lat="44.25678995" lon="-72.60676197">
    <tag k="addr:housenumber" v="295"/>
    <tag k="addr:street" v="Junction Road"/>
    <tag k="addr:state" v="VT"/>
    <tag k="ref:vcgi:esiteid" v="760453"/>
  </node>
  <node id="-1606" visible="true" lat="44.17260215" lon="-72.57363395">
    <tag k="addr:housenumber" v="355"/>
    <tag k="addr:street" v="East Road"/>
    <tag k="addr:state" v="VT"/>
    <tag k="ref:vcgi:esiteid" v="760454"/>
  </node>
  <node id="-1609" visible="true" lat="44.1894084" lon="-72.56161682">
    <tag k="addr:housenumber" v="368"/>
    <tag k="addr:street" v="Dodge Farm Road"/>
    <tag k="addr:state" v="VT"/>
    <tag k="ref:vcgi:esiteid" v="760992"/>
  </node>
  <node id="-1610" visible="true" lat="44.23096648" lon="-72.54807563">
    <tag k="addr:housenumber" v="62"/>
    <tag k="addr:street" v="Mansfield Lane"/>
    <tag k="addr:state" v="VT"/>
    <tag k="ref:vcgi:esiteid" v="761799"/>
  </node>
  <node id="-1611" visible="true" lat="44.23101625" lon="-72.54807484">
    <tag k="addr:housenumber" v="64"/>
    <tag k="addr:street" v="Mansfield Lane"/>
    <tag k="addr:state" v="VT"/>
    <tag k="ref:vcgi:esiteid" v="761800"/>
  </node>
  <node id="-1612" visible="true" lat="44.23106054" lon="-72.54808266">
    <tag k="addr:housenumber" v="66"/>
    <tag k="addr:street" v="Mansfield Lane"/>
    <tag k="addr:state" v="VT"/>
    <tag k="ref:vcgi:esiteid" v="761801"/>
  </node>
  <node id="-1613" visible="true" lat="44.20661055" lon="-72.57628176">
    <tag k="addr:housenumber" v="70"/>
    <tag k="addr:street" v="Chartrand Lane"/>
    <tag k="addr:state" v="VT"/>
    <tag k="ref:vcgi:esiteid" v="762295"/>
  </node>
  <node id="-1614" visible="true" lat="44.20669303" lon="-72.57525332">
    <tag k="addr:housenumber" v="124"/>
    <tag k="addr:street" v="Chartrand Lane"/>
    <tag k="addr:state" v="VT"/>
    <tag k="ref:vcgi:esiteid" v="762296"/>
  </node>
  <node id="-1615" visible="true" lat="44.20642404" lon="-72.57570304">
    <tag k="addr:housenumber" v="114"/>
    <tag k="addr:street" v="Chartrand Lane"/>
    <tag k="addr:state" v="VT"/>
    <tag k="ref:vcgi:esiteid" v="762297"/>
  </node>
  <node id="-1616" visible="true" lat="44.20633678" lon="-72.57517697">
    <tag k="addr:housenumber" v="118"/>
    <tag k="addr:street" v="Chartrand Lane"/>
    <tag k="addr:state" v="VT"/>
    <tag k="ref:vcgi:esiteid" v="762298"/>
  </node>
  <node id="-1617" visible="true" lat="44.21464397" lon="-72.56618712">
    <tag k="addr:housenumber" v="475"/>
    <tag k="addr:street" v="Berlin Mall Road"/>
    <tag k="addr:state" v="VT"/>
    <tag k="ref:vcgi:esiteid" v="762316"/>
  </node>
  <node id="-1618" visible="true" lat="44.23115121" lon="-72.5481021">
    <tag k="addr:housenumber" v="68"/>
    <tag k="addr:street" v="Mansfield Lane"/>
    <tag k="addr:state" v="VT"/>
    <tag k="ref:vcgi:esiteid" v="762518"/>
  </node>
  <node id="-1619" visible="true" lat="44.23119645" lon="-72.54810876">
    <tag k="addr:housenumber" v="70"/>
    <tag k="addr:street" v="Mansfield Lane"/>
    <tag k="addr:state" v="VT"/>
    <tag k="ref:vcgi:esiteid" v="762519"/>
  </node>
  <node id="-1620" visible="true" lat="44.25114903" lon="-72.62609547">
    <tag k="addr:housenumber" v="781"/>
    <tag k="addr:street" v="Bartlett Road"/>
    <tag k="addr:state" v="VT"/>
    <tag k="ref:vcgi:esiteid" v="762629"/>
  </node>
  <node id="-1623" visible="true" lat="44.22917885" lon="-72.54508272">
    <tag k="addr:housenumber" v="573"/>
    <tag k="addr:street" v="Partridge Farm Road"/>
    <tag k="addr:state" v="VT"/>
    <tag k="ref:vcgi:esiteid" v="762867"/>
  </node>
  <node id="-1624" visible="true" lat="44.20848178" lon="-72.63228464">
    <tag k="addr:housenumber" v="2801"/>
    <tag k="addr:street" v="Vermont Route 12"/>
    <tag k="addr:state" v="VT"/>
    <tag k="ref:vcgi:esiteid" v="762868"/>
  </node>
  <node id="-1625" visible="true" lat="44.21400424" lon="-72.55341784">
    <tag k="addr:housenumber" v="115"/>
    <tag k="addr:street" v="Warner Road"/>
    <tag k="addr:state" v="VT"/>
    <tag k="ref:vcgi:esiteid" v="762869"/>
  </node>
  <node id="-1626" visible="true" lat="44.21505353" lon="-72.55629476">
    <tag k="addr:housenumber" v="3168"/>
    <tag k="addr:street" v="Airport Road"/>
    <tag k="addr:state" v="VT"/>
    <tag k="ref:vcgi:esiteid" v="762870"/>
  </node>
  <node id="-1627" visible="true" lat="44.22884685" lon="-72.5452141">
    <tag k="addr:housenumber" v="597"/>
    <tag k="addr:street" v="Partridge Farm Road"/>
    <tag k="addr:state" v="VT"/>
    <tag k="ref:vcgi:esiteid" v="762871"/>
  </node>
  <node id="-1629" visible="true" lat="44.20064721" lon="-72.558375">
    <tag k="addr:housenumber" v="105"/>
    <tag k="addr:street" v="Scotia Lane"/>
    <tag k="addr:state" v="VT"/>
    <tag k="ref:vcgi:esiteid" v="763873"/>
  </node>
  <node id="-1630" visible="true" lat="44.21955849" lon="-72.61895748">
    <tag k="addr:housenumber" v="785"/>
    <tag k="addr:street" v="Rowell Hill Road"/>
    <tag k="addr:state" v="VT"/>
    <tag k="ref:vcgi:esiteid" v="766283"/>
  </node>
  <node id="-1631" visible="true" lat="44.22961273" lon="-72.54577176">
    <tag k="addr:housenumber" v="542"/>
    <tag k="addr:street" v="Partridge Farm Road"/>
    <tag k="addr:state" v="VT"/>
    <tag k="ref:vcgi:esiteid" v="766408"/>
  </node>
  <node id="-1632" visible="true" lat="44.22709161" lon="-72.55187198">
    <tag k="addr:housenumber" v="1320"/>
    <tag k="addr:street" v="U.S. Route 302"/>
    <tag k="addr:state" v="VT"/>
    <tag k="ref:vcgi:esiteid" v="766513"/>
  </node>
  <node id="-1633" visible="true" lat="44.23060205" lon="-72.58054986">
    <tag k="addr:housenumber" v="1300"/>
    <tag k="addr:street" v="Hill Street Extension"/>
    <tag k="addr:state" v="VT"/>
    <tag k="ref:vcgi:esiteid" v="767066"/>
  </node>
  <node id="-1634" visible="true" lat="44.2087665" lon="-72.57250203">
    <tag k="addr:housenumber" v="212"/>
    <tag k="addr:street" v="Comstock Road"/>
    <tag k="addr:state" v="VT"/>
    <tag k="ref:vcgi:esiteid" v="767368"/>
  </node>
  <node id="-1635" visible="true" lat="44.20028531" lon="-72.57580106">
    <tag k="addr:housenumber" v="1188"/>
    <tag k="addr:street" v="Scott Hill Road"/>
    <tag k="addr:state" v="VT"/>
    <tag k="ref:vcgi:esiteid" v="767369"/>
  </node>
  <node id="-1636" visible="true" lat="44.20765646" lon="-72.58354903">
    <tag k="addr:housenumber" v="3337"/>
    <tag k="addr:street" v="Brookfield Road"/>
    <tag k="addr:state" v="VT"/>
    <tag k="ref:vcgi:esiteid" v="767370"/>
  </node>
  <node id="-1637" visible="true" lat="44.21401785" lon="-72.55556511">
    <tag k="addr:housenumber" v="3104"/>
    <tag k="addr:street" v="Airport Road"/>
    <tag k="addr:state" v="VT"/>
    <tag k="ref:vcgi:esiteid" v="767910"/>
  </node>
  <node id="-1638" visible="true" lat="44.26038951" lon="-72.62412312">
    <tag k="addr:housenumber" v="131"/>
    <tag k="addr:street" v="Ember Lane"/>
    <tag k="addr:state" v="VT"/>
    <tag k="ref:vcgi:esiteid" v="768560"/>
  </node>
  <node id="-1639" visible="true" lat="44.25942377" lon="-72.62261764">
    <tag k="addr:housenumber" v="53"/>
    <tag k="addr:street" v="Ember Lane"/>
    <tag k="addr:state" v="VT"/>
    <tag k="ref:vcgi:esiteid" v="768561"/>
  </node>
  <node id="-1640" visible="true" lat="44.23217205" lon="-72.55729269">
    <tag k="addr:housenumber" v="1"/>
    <tag k="addr:street" v="Bennington Drive"/>
    <tag k="addr:state" v="VT"/>
    <tag k="ref:vcgi:esiteid" v="768601"/>
  </node>
  <node id="-1641" visible="true" lat="44.20836782" lon="-72.61695152">
    <tag k="addr:housenumber" v="2499"/>
    <tag k="addr:street" v="Crosstown Road"/>
    <tag k="addr:state" v="VT"/>
    <tag k="ref:vcgi:esiteid" v="769697"/>
  </node>
  <node id="-1642" visible="true" lat="44.21014331" lon="-72.5556562">
    <tag k="addr:housenumber" v="2782"/>
    <tag k="addr:street" v="Airport Road"/>
    <tag k="addr:state" v="VT"/>
    <tag k="ref:vcgi:esiteid" v="769701"/>
  </node>
  <node id="-1643" visible="true" lat="44.21441042" lon="-72.56733338">
    <tag k="addr:housenumber" v="25"/>
    <tag k="addr:street" v="Eclipse Circle"/>
    <tag k="addr:state" v="VT"/>
    <tag k="ref:vcgi:esiteid" v="769935"/>
  </node>
  <node id="-1644" visible="true" lat="44.21407455" lon="-72.56679376">
    <tag k="addr:housenumber" v="50"/>
    <tag k="addr:street" v="Eclipse Circle"/>
    <tag k="addr:state" v="VT"/>
    <tag k="ref:vcgi:esiteid" v="769936"/>
  </node>
  <node id="-1645" visible="true" lat="44.21461302" lon="-72.56621519">
    <tag k="addr:housenumber" v="64"/>
    <tag k="addr:street" v="Eclipse Circle"/>
    <tag k="addr:state" v="VT"/>
    <tag k="ref:vcgi:esiteid" v="769937"/>
  </node>
  <node id="-1646" visible="true" lat="44.22578117" lon="-72.5857283">
    <tag k="addr:housenumber" v="51008"/>
    <tag k="addr:street" v="Interstate 89 North"/>
    <tag k="addr:state" v="VT"/>
    <tag k="ref:vcgi:esiteid" v="1050678"/>
  </node>
  <node id="-1648" visible="true" lat="44.19765436" lon="-72.57686794">
    <tag k="addr:housenumber" v="49009"/>
    <tag k="addr:street" v="Interstate 89 North"/>
    <tag k="addr:state" v="VT"/>
    <tag k="ref:vcgi:esiteid" v="1050681"/>
  </node>
  <node id="-1649" visible="true" lat="44.18314822" lon="-72.57572559">
    <tag k="addr:housenumber" v="48006"/>
    <tag k="addr:street" v="Interstate 89 North"/>
    <tag k="addr:state" v="VT"/>
    <tag k="ref:vcgi:esiteid" v="1050682"/>
  </node>
  <node id="-1650" visible="true" lat="44.16984263" lon="-72.57634432">
    <tag k="addr:housenumber" v="47084"/>
    <tag k="addr:street" v="Interstate 89 North"/>
    <tag k="addr:state" v="VT"/>
    <tag k="ref:vcgi:esiteid" v="1050683"/>
  </node>
</osm>
