<?xml version="1.0" encoding="UTF-8"?>
<osm version="0.6" generator="JOSM" upload="false">
  <node id="-159" visible="true" lat="43.87289458" lon="-72.58455698">
    <!-- conflict: "25 Factory Hill Road, , VT" Fuzzy match to "25 factory Hill Road, bethel, " -->
    <tag k="addr:housenumber" v="25"/>
    <tag k="addr:street" v="Factory Hill Road"/>
    <tag k="addr:state" v="VT"/>
    <tag k="ref:vcgi:esiteid" v="24066"/>
  </node>
  <node id="-184" visible="true" lat="43.87381986" lon="-72.58456641">
    <!-- conflict: "727 Vermont Route 14, , VT" No match in OSM, but a different address exists <5m away: "727 VT 14, Bethel, " -->
    <tag k="addr:housenumber" v="727"/>
    <tag k="addr:street" v="Vermont Route 14"/>
    <tag k="addr:state" v="VT"/>
    <tag k="ref:vcgi:esiteid" v="24091"/>
  </node>
  <node id="-187" visible="true" lat="43.87326025" lon="-72.58524009">
    <!-- conflict: "52 Factory Hill Road, , VT" Fuzzy match to "52 factory Hill Road, bethel, " -->
    <tag k="addr:housenumber" v="52"/>
    <tag k="addr:street" v="Factory Hill Road"/>
    <tag k="addr:state" v="VT"/>
    <tag k="ref:vcgi:esiteid" v="24094"/>
  </node>
  <node id="-311" visible="true" lat="43.83454977" lon="-72.63575065">
    <!-- conflict: "134 North Main Street, , VT" Fuzzy match to "134 South Main Street, Bathel, VT" -->
    <tag k="addr:housenumber" v="134"/>
    <tag k="addr:street" v="North Main Street"/>
    <tag k="addr:state" v="VT"/>
    <tag k="ref:vcgi:esiteid" v="24220"/>
  </node>
  <node id="-555" visible="true" lat="43.82091636" lon="-72.63036733">
    <!-- conflict: "39 Royalton Hill Road, , VT" Fuzzy match to "39 Royalton Hill Rd, Royalton Hill Road, VT" -->
    <tag k="addr:housenumber" v="39"/>
    <tag k="addr:street" v="Royalton Hill Road"/>
    <tag k="addr:state" v="VT"/>
    <tag k="ref:vcgi:esiteid" v="24472"/>
  </node>
</osm>
