<?xml version="1.0" encoding="UTF-8"?>
<osm version="0.6" generator="JOSM">
  <node id="-102" visible="true" lat="44.84699365" lon="-71.66608198">
    <tag k="addr:city" v="Bloomfield"/>
    <tag k="addr:housenumber" v="597"/>
    <tag k="addr:street" v="Mink Brook Road"/>
    <tag k="addr:state" v="VT"/>
    <tag k="ref:vcgi:esiteid" v="24993"/>
  </node>
  <node id="-106" visible="true" lat="44.82688926" lon="-71.58156551">
    <tag k="addr:city" v="Bloomfield"/>
    <tag k="addr:housenumber" v="722"/>
    <tag k="addr:street" v="Crank Road"/>
    <tag k="addr:state" v="VT"/>
    <tag k="ref:vcgi:esiteid" v="24997"/>
  </node>
  <node id="-110" visible="true" lat="44.82372408" lon="-71.58030365">
    <tag k="addr:city" v="Bloomfield"/>
    <tag k="addr:housenumber" v="502"/>
    <tag k="addr:street" v="Crank Road"/>
    <tag k="addr:state" v="VT"/>
    <tag k="ref:vcgi:esiteid" v="25001"/>
  </node>
  <node id="-113" visible="true" lat="44.82291111" lon="-71.57995175">
    <tag k="addr:city" v="Bloomfield"/>
    <tag k="addr:housenumber" v="412"/>
    <tag k="addr:street" v="Crank Road"/>
    <tag k="addr:state" v="VT"/>
    <tag k="ref:vcgi:esiteid" v="25004"/>
  </node>
  <node id="-119" visible="true" lat="44.817294" lon="-71.57646146">
    <tag k="addr:city" v="Bloomfield"/>
    <tag k="addr:housenumber" v="6001"/>
    <tag k="addr:street" v="Vermont Route 102"/>
    <tag k="addr:state" v="VT"/>
    <tag k="ref:vcgi:esiteid" v="25010"/>
  </node>
  <node id="-121" visible="true" lat="44.81493767" lon="-71.57805995">
    <tag k="addr:city" v="Bloomfield"/>
    <tag k="addr:housenumber" v="5897"/>
    <tag k="addr:street" v="Vermont Route 102"/>
    <tag k="addr:state" v="VT"/>
    <tag k="ref:vcgi:esiteid" v="25012"/>
  </node>
  <node id="-122" visible="true" lat="44.81197777" lon="-71.57728422">
    <tag k="addr:city" v="Bloomfield"/>
    <tag k="addr:housenumber" v="153"/>
    <tag k="addr:street" v="Spur Road"/>
    <tag k="addr:state" v="VT"/>
    <tag k="ref:vcgi:esiteid" v="25013"/>
  </node>
  <node id="-123" visible="true" lat="44.81134619" lon="-71.57524489">
    <tag k="addr:city" v="Bloomfield"/>
    <tag k="addr:housenumber" v="5562"/>
    <tag k="addr:street" v="Vermont Route 102"/>
    <tag k="addr:state" v="VT"/>
    <tag k="ref:vcgi:esiteid" v="25014"/>
  </node>
  <node id="-125" visible="true" lat="44.81130215" lon="-71.57639939">
    <tag k="addr:city" v="Bloomfield"/>
    <tag k="addr:housenumber" v="94"/>
    <tag k="addr:street" v="Spur Road"/>
    <tag k="addr:state" v="VT"/>
    <tag k="ref:vcgi:esiteid" v="25016"/>
  </node>
  <node id="-127" visible="true" lat="44.81038001" lon="-71.57623734">
    <tag k="addr:city" v="Bloomfield"/>
    <tag k="addr:housenumber" v="53"/>
    <tag k="addr:street" v="Spur Road"/>
    <tag k="addr:state" v="VT"/>
    <tag k="ref:vcgi:esiteid" v="25018"/>
  </node>
  <node id="-128" visible="true" lat="44.80821779" lon="-71.57519916">
    <tag k="addr:city" v="Bloomfield"/>
    <tag k="addr:housenumber" v="5305"/>
    <tag k="addr:street" v="Vermont Route 102"/>
    <tag k="addr:state" v="VT"/>
    <tag k="ref:vcgi:esiteid" v="25019"/>
  </node>
  <node id="-130" visible="true" lat="44.80684161" lon="-71.57442226">
    <tag k="addr:city" v="Bloomfield"/>
    <tag k="addr:housenumber" v="5253"/>
    <tag k="addr:street" v="Vermont Route 102"/>
    <tag k="addr:state" v="VT"/>
    <tag k="ref:vcgi:esiteid" v="25021"/>
  </node>
  <node id="-132" visible="true" lat="44.80493149" lon="-71.57213935">
    <tag k="addr:city" v="Bloomfield"/>
    <tag k="addr:housenumber" v="5084"/>
    <tag k="addr:street" v="Vermont Route 102"/>
    <tag k="addr:state" v="VT"/>
    <tag k="ref:vcgi:esiteid" v="25023"/>
  </node>
  <node id="-133" visible="true" lat="44.80486413" lon="-71.57402566">
    <tag k="addr:city" v="Bloomfield"/>
    <tag k="addr:housenumber" v="5075"/>
    <tag k="addr:street" v="Vermont Route 102"/>
    <tag k="addr:state" v="VT"/>
    <tag k="ref:vcgi:esiteid" v="25024"/>
  </node>
  <node id="-135" visible="true" lat="44.80427362" lon="-71.57441237">
    <tag k="addr:city" v="Bloomfield"/>
    <tag k="addr:housenumber" v="5029"/>
    <tag k="addr:street" v="Vermont Route 102"/>
    <tag k="addr:state" v="VT"/>
    <tag k="ref:vcgi:esiteid" v="25026"/>
  </node>
  <node id="-148" visible="true" lat="44.79410546" lon="-71.57789216">
    <tag k="addr:city" v="Bloomfield"/>
    <tag k="addr:housenumber" v="4273"/>
    <tag k="addr:street" v="Vermont Route 102"/>
    <tag k="addr:state" v="VT"/>
    <tag k="ref:vcgi:esiteid" v="25042"/>
  </node>
  <node id="-151" visible="true" lat="44.79313397" lon="-71.57827927">
    <tag k="addr:city" v="Bloomfield"/>
    <tag k="addr:housenumber" v="4205"/>
    <tag k="addr:street" v="Vermont Route 102"/>
    <tag k="addr:state" v="VT"/>
    <tag k="ref:vcgi:esiteid" v="25045"/>
  </node>
  <node id="-155" visible="true" lat="44.79151257" lon="-71.61156921">
    <tag k="addr:city" v="Bloomfield"/>
    <tag k="addr:housenumber" v="389"/>
    <tag k="addr:street" v="Snow Hill Road"/>
    <tag k="addr:state" v="VT"/>
    <tag k="ref:vcgi:esiteid" v="25050"/>
  </node>
  <node id="-163" visible="true" lat="44.78836773" lon="-71.57960535">
    <tag k="addr:city" v="Bloomfield"/>
    <tag k="addr:housenumber" v="3904"/>
    <tag k="addr:street" v="Vermont Route 102"/>
    <tag k="addr:state" v="VT"/>
    <tag k="ref:vcgi:esiteid" v="25059"/>
  </node>
  <node id="-170" visible="true" lat="44.78544235" lon="-71.6605072">
    <tag k="addr:city" v="Bloomfield"/>
    <tag k="addr:housenumber" v="495"/>
    <tag k="addr:street" v="East Branch Road"/>
    <tag k="addr:state" v="VT"/>
    <tag k="ref:vcgi:esiteid" v="25068"/>
  </node>
  <node id="-179" visible="true" lat="44.78109935" lon="-71.60072814">
    <tag k="addr:city" v="Bloomfield"/>
    <tag k="addr:housenumber" v="244"/>
    <tag k="addr:street" v="Mill Brook Road"/>
    <tag k="addr:state" v="VT"/>
    <tag k="ref:vcgi:esiteid" v="25080"/>
  </node>
  <node id="-180" visible="true" lat="44.78086193" lon="-71.59576687">
    <tag k="addr:city" v="Bloomfield"/>
    <tag k="addr:housenumber" v="2902"/>
    <tag k="addr:street" v="Vermont Route 102"/>
    <tag k="addr:state" v="VT"/>
    <tag k="ref:vcgi:esiteid" v="25081"/>
  </node>
  <node id="-181" visible="true" lat="44.78073821" lon="-71.6012656">
    <tag k="addr:city" v="Bloomfield"/>
    <tag k="addr:housenumber" v="215"/>
    <tag k="addr:street" v="Mill Brook Road"/>
    <tag k="addr:state" v="VT"/>
    <tag k="ref:vcgi:esiteid" v="25082"/>
  </node>
  <node id="-182" visible="true" lat="44.77966258" lon="-71.59930252">
    <tag k="addr:city" v="Bloomfield"/>
    <tag k="addr:housenumber" v="92"/>
    <tag k="addr:street" v="Mill Brook Road"/>
    <tag k="addr:state" v="VT"/>
    <tag k="ref:vcgi:esiteid" v="25083"/>
  </node>
  <node id="-183" visible="true" lat="44.77867708" lon="-71.59919542">
    <tag k="addr:city" v="Bloomfield"/>
    <tag k="addr:housenumber" v="61"/>
    <tag k="addr:street" v="Mill Brook Road"/>
    <tag k="addr:state" v="VT"/>
    <tag k="ref:vcgi:esiteid" v="25084"/>
  </node>
  <node id="-184" visible="true" lat="44.77853905" lon="-71.59701993">
    <tag k="addr:city" v="Bloomfield"/>
    <tag k="addr:housenumber" v="2744"/>
    <tag k="addr:street" v="Vermont Route 102"/>
    <tag k="addr:state" v="VT"/>
    <tag k="ref:vcgi:esiteid" v="25085"/>
  </node>
  <node id="-185" visible="true" lat="44.77866621" lon="-71.59880471">
    <tag k="addr:city" v="Bloomfield"/>
    <tag k="addr:housenumber" v="37"/>
    <tag k="addr:street" v="Mill Brook Road"/>
    <tag k="addr:state" v="VT"/>
    <tag k="ref:vcgi:esiteid" v="25087"/>
  </node>
  <node id="-187" visible="true" lat="44.77794277" lon="-71.60099688">
    <tag k="addr:city" v="Bloomfield"/>
    <tag k="addr:housenumber" v="2679"/>
    <tag k="addr:street" v="Vermont Route 102"/>
    <tag k="addr:state" v="VT"/>
    <tag k="ref:vcgi:esiteid" v="25091"/>
  </node>
  <node id="-191" visible="true" lat="44.77736991" lon="-71.65499579">
    <tag k="addr:city" v="Bloomfield"/>
    <tag k="addr:housenumber" v="2367"/>
    <tag k="addr:street" v="Vermont Route 105"/>
    <tag k="addr:state" v="VT"/>
    <tag k="ref:vcgi:esiteid" v="25096"/>
  </node>
  <node id="-196" visible="true" lat="44.7749115" lon="-71.59816325">
    <tag k="addr:city" v="Bloomfield"/>
    <tag k="addr:housenumber" v="2414"/>
    <tag k="addr:street" v="Vermont Route 102"/>
    <tag k="addr:state" v="VT"/>
    <tag k="ref:vcgi:esiteid" v="25102"/>
  </node>
  <node id="-197" visible="true" lat="44.7738976" lon="-71.60164443">
    <tag k="addr:city" v="Bloomfield"/>
    <tag k="addr:housenumber" v="2384"/>
    <tag k="addr:street" v="Vermont Route 102"/>
    <tag k="addr:state" v="VT"/>
    <tag k="ref:vcgi:esiteid" v="25103"/>
  </node>
  <node id="-201" visible="true" lat="44.77080172" lon="-71.60570362">
    <tag k="addr:city" v="Bloomfield"/>
    <tag k="addr:housenumber" v="2141"/>
    <tag k="addr:street" v="Vermont Route 102"/>
    <tag k="addr:state" v="VT"/>
    <tag k="ref:vcgi:esiteid" v="25107"/>
  </node>
  <node id="-204" visible="true" lat="44.76823892" lon="-71.60611147">
    <tag k="addr:city" v="Bloomfield"/>
    <tag k="addr:housenumber" v="1928"/>
    <tag k="addr:street" v="Vermont Route 102"/>
    <tag k="addr:state" v="VT"/>
    <tag k="ref:vcgi:esiteid" v="25110"/>
  </node>
  <node id="-208" visible="true" lat="44.76640485" lon="-71.61199034">
    <tag k="addr:city" v="Bloomfield"/>
    <tag k="addr:housenumber" v="195"/>
    <tag k="addr:street" v="Daley Brook Lane"/>
    <tag k="addr:state" v="VT"/>
    <tag k="ref:vcgi:esiteid" v="25114"/>
  </node>
  <node id="-209" visible="true" lat="44.76581665" lon="-71.6126899">
    <tag k="addr:city" v="Bloomfield"/>
    <tag k="addr:housenumber" v="194"/>
    <tag k="addr:street" v="Daley Brook Lane"/>
    <tag k="addr:state" v="VT"/>
    <tag k="ref:vcgi:esiteid" v="25115"/>
  </node>
  <node id="-223" visible="true" lat="44.75860007" lon="-71.63857639">
    <tag k="addr:city" v="Bloomfield"/>
    <tag k="addr:housenumber" v="606"/>
    <tag k="addr:street" v="Vermont Route 105"/>
    <tag k="addr:state" v="VT"/>
    <tag k="ref:vcgi:esiteid" v="25129"/>
  </node>
  <node id="-229" visible="true" lat="44.75787929" lon="-71.63249893">
    <tag k="addr:city" v="Bloomfield"/>
    <tag k="addr:housenumber" v="301"/>
    <tag k="addr:street" v="Spencer Hill Road"/>
    <tag k="addr:state" v="VT"/>
    <tag k="ref:vcgi:esiteid" v="25135"/>
  </node>
  <node id="-230" visible="true" lat="44.75746962" lon="-71.6317797">
    <tag k="addr:city" v="Bloomfield"/>
    <tag k="addr:housenumber" v="320"/>
    <tag k="addr:street" v="Spencer Hill Road"/>
    <tag k="addr:state" v="VT"/>
    <tag k="ref:vcgi:esiteid" v="25136"/>
  </node>
  <node id="-271" visible="true" lat="44.75008219" lon="-71.63391788">
    <tag k="addr:city" v="Bloomfield"/>
    <tag k="addr:housenumber" v="74"/>
    <tag k="addr:street" v="Patnaude Hill Road"/>
    <tag k="addr:state" v="VT"/>
    <tag k="ref:vcgi:esiteid" v="25180"/>
  </node>
  <node id="-276" visible="true" lat="44.81152701" lon="-71.58825764">
    <tag k="addr:city" v="Bloomfield"/>
    <tag k="addr:housenumber" v="1210"/>
    <tag k="addr:street" v="Stevens Road"/>
    <tag k="addr:state" v="VT"/>
    <tag k="ref:vcgi:esiteid" v="25185"/>
  </node>
  <node id="-277" visible="true" lat="44.81293142" lon="-71.589521">
    <tag k="addr:city" v="Bloomfield"/>
    <tag k="addr:housenumber" v="1287"/>
    <tag k="addr:street" v="Stevens Road"/>
    <tag k="addr:state" v="VT"/>
    <tag k="ref:vcgi:esiteid" v="25186"/>
  </node>
  <node id="-283" visible="true" lat="44.8087209" lon="-71.61096478">
    <tag k="addr:city" v="Bloomfield"/>
    <tag k="addr:housenumber" v="601"/>
    <tag k="addr:street" v="Gosselin Road"/>
    <tag k="addr:state" v="VT"/>
    <tag k="ref:vcgi:esiteid" v="25192"/>
  </node>
  <node id="-284" visible="true" lat="44.80954861" lon="-71.57612056">
    <tag k="addr:city" v="Bloomfield"/>
    <tag k="addr:housenumber" v="5475"/>
    <tag k="addr:street" v="Vermont Route 102"/>
    <tag k="addr:state" v="VT"/>
    <tag k="ref:vcgi:esiteid" v="25193"/>
  </node>
  <node id="-285" visible="true" lat="44.79152017" lon="-71.61193782">
    <tag k="addr:city" v="Bloomfield"/>
    <tag k="addr:housenumber" v="393"/>
    <tag k="addr:street" v="Snow Hill Road"/>
    <tag k="addr:state" v="VT"/>
    <tag k="ref:vcgi:esiteid" v="25194"/>
  </node>
  <node id="-286" visible="true" lat="44.80018114" lon="-71.59483898">
    <tag k="addr:city" v="Bloomfield"/>
    <tag k="addr:housenumber" v="1152"/>
    <tag k="addr:street" v="Fuller Road"/>
    <tag k="addr:state" v="VT"/>
    <tag k="ref:vcgi:esiteid" v="25195"/>
  </node>
  <node id="-292" visible="true" lat="44.77929436" lon="-71.59863662">
    <tag k="addr:city" v="Bloomfield"/>
    <tag k="addr:housenumber" v="38"/>
    <tag k="addr:street" v="Mill Brook Road"/>
    <tag k="addr:state" v="VT"/>
    <tag k="ref:vcgi:esiteid" v="313750"/>
  </node>
  <node id="-293" visible="true" lat="44.82621362" lon="-71.66926418">
    <tag k="addr:city" v="Bloomfield"/>
    <tag k="addr:housenumber" v="505"/>
    <tag k="addr:street" v="Boudle Road"/>
    <tag k="addr:state" v="VT"/>
    <tag k="ref:vcgi:esiteid" v="313751"/>
  </node>
  <node id="-294" visible="true" lat="44.82725988" lon="-71.66930461">
    <tag k="addr:city" v="Bloomfield"/>
    <tag k="addr:housenumber" v="555"/>
    <tag k="addr:street" v="Boudle Road"/>
    <tag k="addr:state" v="VT"/>
    <tag k="ref:vcgi:esiteid" v="313752"/>
  </node>
  <node id="-306" visible="true" lat="44.76498313" lon="-71.63765451">
    <tag k="addr:city" v="Bloomfield"/>
    <tag k="addr:housenumber" v="1208"/>
    <tag k="addr:street" v="Vermont Route 105"/>
    <tag k="addr:state" v="VT"/>
    <tag k="ref:vcgi:esiteid" v="450013"/>
  </node>
  <node id="-307" visible="true" lat="44.7612883" lon="-71.63418113">
    <tag k="addr:city" v="Bloomfield"/>
    <tag k="addr:housenumber" v="664"/>
    <tag k="addr:street" v="Vermont Route 105"/>
    <tag k="addr:state" v="VT"/>
    <tag k="ref:vcgi:esiteid" v="450014"/>
  </node>
  <node id="-308" visible="true" lat="44.76071903" lon="-71.63567931">
    <tag k="addr:city" v="Bloomfield"/>
    <tag k="addr:housenumber" v="644"/>
    <tag k="addr:street" v="Vermont Route 105"/>
    <tag k="addr:state" v="VT"/>
    <tag k="ref:vcgi:esiteid" v="450015"/>
  </node>
  <node id="-309" visible="true" lat="44.77965866" lon="-71.59643897">
    <tag k="addr:city" v="Bloomfield"/>
    <tag k="addr:housenumber" v="2872"/>
    <tag k="addr:street" v="Vermont Route 102"/>
    <tag k="addr:state" v="VT"/>
    <tag k="ref:vcgi:esiteid" v="450016"/>
  </node>
  <node id="-311" visible="true" lat="44.82189047" lon="-71.57994462">
    <tag k="addr:city" v="Bloomfield"/>
    <tag k="addr:housenumber" v="374"/>
    <tag k="addr:street" v="Crank Road"/>
    <tag k="addr:state" v="VT"/>
    <tag k="ref:vcgi:esiteid" v="450018"/>
  </node>
  <node id="-330" visible="true" lat="44.76133376" lon="-71.61836795">
    <tag k="addr:city" v="Bloomfield"/>
    <tag k="addr:housenumber" v="162"/>
    <tag k="addr:street" v="Enlightening View Lane"/>
    <tag k="addr:state" v="VT"/>
    <tag k="ref:vcgi:esiteid" v="451712"/>
  </node>
  <node id="-332" visible="true" lat="44.76602026" lon="-71.61324365">
    <tag k="addr:city" v="Bloomfield"/>
    <tag k="addr:housenumber" v="150"/>
    <tag k="addr:street" v="Daley Brook Lane"/>
    <tag k="addr:state" v="VT"/>
    <tag k="ref:vcgi:esiteid" v="451714"/>
  </node>
  <node id="-355" visible="true" lat="44.78788861" lon="-71.58143858">
    <tag k="addr:city" v="Bloomfield"/>
    <tag k="addr:housenumber" v="3790"/>
    <tag k="addr:street" v="Vermont Route 102"/>
    <tag k="addr:state" v="VT"/>
    <tag k="ref:vcgi:esiteid" v="451743"/>
  </node>
  <node id="-377" visible="true" lat="44.7806457" lon="-71.59763253">
    <tag k="addr:city" v="Bloomfield"/>
    <tag k="addr:housenumber" v="2849"/>
    <tag k="addr:street" v="Vermont Route 102"/>
    <tag k="addr:state" v="VT"/>
    <tag k="ref:vcgi:esiteid" v="451765"/>
  </node>
  <node id="-380" visible="true" lat="44.77434534" lon="-71.6242315">
    <tag k="addr:city" v="Bloomfield"/>
    <tag k="addr:housenumber" v="1700"/>
    <tag k="addr:street" v="Spencer Hill Road"/>
    <tag k="addr:state" v="VT"/>
    <tag k="ref:vcgi:esiteid" v="451768"/>
  </node>
  <node id="-393" visible="true" lat="44.82474372" lon="-71.6996146">
    <tag k="addr:city" v="Bloomfield"/>
    <tag k="addr:housenumber" v="2460"/>
    <tag k="addr:street" v="Stone Dam Road"/>
    <tag k="addr:state" v="VT"/>
    <tag k="ref:vcgi:esiteid" v="451928"/>
  </node>
  <node id="-396" visible="true" lat="44.80774042" lon="-71.60369179">
    <tag k="addr:city" v="Bloomfield"/>
    <tag k="addr:housenumber" v="221"/>
    <tag k="addr:street" v="Brown Road"/>
    <tag k="addr:state" v="VT"/>
    <tag k="ref:vcgi:esiteid" v="452137"/>
  </node>
  <node id="-397" visible="true" lat="44.8142382" lon="-71.60385706">
    <tag k="addr:city" v="Bloomfield"/>
    <tag k="addr:housenumber" v="674"/>
    <tag k="addr:street" v="Brown Road"/>
    <tag k="addr:state" v="VT"/>
    <tag k="ref:vcgi:esiteid" v="452138"/>
  </node>
  <node id="-408" visible="true" lat="44.79369246" lon="-71.60021954">
    <tag k="addr:city" v="Bloomfield"/>
    <tag k="addr:housenumber" v="665"/>
    <tag k="addr:street" v="Fuller Road"/>
    <tag k="addr:state" v="VT"/>
    <tag k="ref:vcgi:esiteid" v="452150"/>
  </node>
  <node id="-409" visible="true" lat="44.80378349" lon="-71.59275185">
    <tag k="addr:city" v="Bloomfield"/>
    <tag k="addr:housenumber" v="1592"/>
    <tag k="addr:street" v="Fuller Road"/>
    <tag k="addr:state" v="VT"/>
    <tag k="ref:vcgi:esiteid" v="452152"/>
  </node>
  <node id="-428" visible="true" lat="44.76239706" lon="-71.64496696">
    <tag k="addr:city" v="Bloomfield"/>
    <tag k="addr:housenumber" v="950"/>
    <tag k="addr:street" v="Vermont Route 105"/>
    <tag k="addr:state" v="VT"/>
    <tag k="ref:vcgi:esiteid" v="452171"/>
  </node>
  <node id="-447" visible="true" lat="44.82636846" lon="-71.58435606">
    <tag k="addr:city" v="Bloomfield"/>
    <tag k="addr:housenumber" v="511"/>
    <tag k="addr:street" v="Crank Road"/>
    <tag k="addr:state" v="VT"/>
    <tag k="ref:vcgi:esiteid" v="452401"/>
  </node>
  <node id="-450" visible="true" lat="44.78681774" lon="-71.58386071">
    <tag k="addr:city" v="Bloomfield"/>
    <tag k="addr:housenumber" v="3667"/>
    <tag k="addr:street" v="Vermont Route 102"/>
    <tag k="addr:state" v="VT"/>
    <tag k="ref:vcgi:esiteid" v="617348"/>
  </node>
  <node id="-455" visible="true" lat="44.75800708" lon="-71.63383692">
    <tag k="addr:city" v="Bloomfield"/>
    <tag k="addr:housenumber" v="289"/>
    <tag k="addr:street" v="Spencer Hill Road"/>
    <tag k="addr:state" v="VT"/>
    <tag k="ref:vcgi:esiteid" v="753812"/>
  </node>
  <node id="-458" visible="true" lat="44.80360843" lon="-71.57200156">
    <tag k="addr:city" v="Bloomfield"/>
    <tag k="addr:housenumber" v="4948"/>
    <tag k="addr:street" v="Vermont Route 102"/>
    <tag k="addr:state" v="VT"/>
    <tag k="ref:vcgi:esiteid" v="760285"/>
  </node>
  <node id="-459" visible="true" lat="44.79380881" lon="-71.63289353">
    <tag k="addr:city" v="Bloomfield"/>
    <tag k="addr:housenumber" v="1765"/>
    <tag k="addr:street" v="Snow Hill Road"/>
    <tag k="addr:state" v="VT"/>
    <tag k="ref:vcgi:esiteid" v="761751"/>
  </node>
  <node id="-460" visible="true" lat="44.80096109" lon="-71.62532029">
    <tag k="addr:city" v="Bloomfield"/>
    <tag k="addr:housenumber" v="1096"/>
    <tag k="addr:street" v="Snow Hill Road"/>
    <tag k="addr:state" v="VT"/>
    <tag k="ref:vcgi:esiteid" v="761836"/>
  </node>
  <node id="-461" visible="true" lat="44.79047804" lon="-71.59440748">
    <tag k="addr:city" v="Bloomfield"/>
    <tag k="addr:housenumber" v="630"/>
    <tag k="addr:street" v="Fuller Road"/>
    <tag k="addr:state" v="VT"/>
    <tag k="ref:vcgi:esiteid" v="763356"/>
  </node>
  <node id="-462" visible="true" lat="44.79848279" lon="-71.5988329">
    <tag k="addr:city" v="Bloomfield"/>
    <tag k="addr:housenumber" v="1065"/>
    <tag k="addr:street" v="Fuller Road"/>
    <tag k="addr:state" v="VT"/>
    <tag k="ref:vcgi:esiteid" v="763357"/>
  </node>
  <node id="-463" visible="true" lat="44.85194557" lon="-71.65444719">
    <tag k="addr:city" v="Bloomfield"/>
    <tag k="addr:housenumber" v="2970"/>
    <tag k="addr:street" v="Boudle Road"/>
    <tag k="addr:state" v="VT"/>
    <tag k="ref:vcgi:esiteid" v="764688"/>
  </node>
  <node id="-464" visible="true" lat="44.76197278" lon="-71.62905253">
    <tag k="addr:city" v="Bloomfield"/>
    <tag k="addr:housenumber" v="669"/>
    <tag k="addr:street" v="Spencer Hill Road"/>
    <tag k="addr:state" v="VT"/>
    <tag k="ref:vcgi:esiteid" v="767046"/>
  </node>
  <node id="-465" visible="true" lat="44.78062387" lon="-71.60034254">
    <tag k="addr:city" v="Bloomfield"/>
    <tag k="addr:housenumber" v="192"/>
    <tag k="addr:street" v="Mill Brook Road"/>
    <tag k="addr:state" v="VT"/>
    <tag k="ref:vcgi:esiteid" v="767055"/>
  </node>
  <node id="-466" visible="true" lat="44.78250757" lon="-71.60103433">
    <tag k="addr:city" v="Bloomfield"/>
    <tag k="addr:housenumber" v="2851"/>
    <tag k="addr:street" v="Vermont Route 102"/>
    <tag k="addr:state" v="VT"/>
    <tag k="ref:vcgi:esiteid" v="767546"/>
  </node>
  <node id="-470" visible="true" lat="44.75659382" lon="-71.63486579">
    <tag k="addr:city" v="Bloomfield"/>
    <tag k="addr:housenumber" v="165"/>
    <tag k="addr:street" v="Spencer Hill Road"/>
    <tag k="addr:state" v="VT"/>
    <tag k="ref:vcgi:esiteid" v="767616"/>
  </node>
  <node id="-471" visible="true" lat="44.76475668" lon="-71.61487309">
    <tag k="addr:city" v="Bloomfield"/>
    <tag k="addr:housenumber" v="120"/>
    <tag k="addr:street" v="Enlightening View Lane"/>
    <tag k="addr:state" v="VT"/>
    <tag k="ref:vcgi:esiteid" v="768909"/>
  </node>
  <node id="-472" visible="true" lat="44.77797809" lon="-71.60029351">
    <tag k="addr:city" v="Bloomfield"/>
    <tag k="addr:housenumber" v="2677"/>
    <tag k="addr:street" v="Vermont Route 102"/>
    <tag k="addr:state" v="VT"/>
    <tag k="ref:vcgi:esiteid" v="770666"/>
  </node>
  <node id="-473" visible="true" lat="44.79658064" lon="-71.59452916">
    <tag k="addr:city" v="Bloomfield"/>
    <tag k="addr:housenumber" v="1076"/>
    <tag k="addr:street" v="Fuller Road"/>
    <tag k="addr:state" v="VT"/>
    <tag k="ref:vcgi:esiteid" v="771083"/>
  </node>
  <node id="-474" visible="true" lat="44.78824661" lon="-71.58011901">
    <tag k="addr:city" v="Bloomfield"/>
    <tag k="addr:housenumber" v="3906"/>
    <tag k="addr:street" v="Vermont Route 102"/>
    <tag k="addr:state" v="VT"/>
    <tag k="ref:vcgi:esiteid" v="771084"/>
  </node>
  <node id="-477" visible="true" lat="44.77922825" lon="-71.67588572">
    <tag k="addr:city" v="Bloomfield"/>
    <tag k="addr:housenumber" v="3482"/>
    <tag k="addr:street" v="Vermont Route 105"/>
    <tag k="addr:state" v="VT"/>
    <tag k="ref:vcgi:esiteid" v="1050756"/>
  </node>
</osm>
