<?xml version="1.0" encoding="UTF-8"?>
<osm version="0.6" generator="JOSM" upload="false">
  <node id="-154" visible="true" lat="44.43921073" lon="-72.90687932">
    <tag k="addr:housenumber" v="25"/>
    <tag k="addr:street" v="East Country Club Drive"/>
    <tag k="addr:state" v="VT"/>
    <tag k="ref:vcgi:esiteid" v="25252"/>
  </node>
  <node id="-155" visible="true" lat="44.43909252" lon="-72.9062842">
    <tag k="addr:housenumber" v="26"/>
    <tag k="addr:street" v="East Country Club Drive"/>
    <tag k="addr:state" v="VT"/>
    <tag k="ref:vcgi:esiteid" v="25253"/>
  </node>
  <node id="-231" visible="true" lat="44.41869627" lon="-72.85327724">
    <tag k="addr:housenumber" v="17"/>
    <tag k="addr:street" v="Thatcher Road"/>
    <tag k="addr:state" v="VT"/>
    <tag k="ref:vcgi:esiteid" v="25334"/>
  </node>
  <node id="-234" visible="true" lat="44.41812771" lon="-72.8536025">
    <tag k="addr:housenumber" v="4010"/>
    <tag k="addr:street" v="Bolton Valley Access Road"/>
    <tag k="addr:state" v="VT"/>
    <tag k="ref:vcgi:esiteid" v="25337"/>
  </node>
  <node id="-235" visible="true" lat="44.41805984" lon="-72.85129399">
    <tag k="addr:housenumber" v="140"/>
    <tag k="addr:street" v="Wentworth Road"/>
    <tag k="addr:state" v="VT"/>
    <tag k="ref:vcgi:esiteid" v="25338"/>
  </node>
  <node id="-237" visible="true" lat="44.41780333" lon="-72.85099714">
    <tag k="addr:housenumber" v="152"/>
    <tag k="addr:street" v="Wentworth Road"/>
    <tag k="addr:state" v="VT"/>
    <tag k="ref:vcgi:esiteid" v="25340"/>
  </node>
  <node id="-240" visible="true" lat="44.41797469" lon="-72.85478143">
    <tag k="addr:housenumber" v="3969"/>
    <tag k="addr:street" v="Bolton Valley Access Road"/>
    <tag k="addr:state" v="VT"/>
    <tag k="ref:vcgi:esiteid" v="25343"/>
  </node>
  <node id="-241" visible="true" lat="44.41810433" lon="-72.85233459">
    <tag k="addr:housenumber" v="67"/>
    <tag k="addr:street" v="Thatcher Road"/>
    <tag k="addr:state" v="VT"/>
    <tag k="ref:vcgi:esiteid" v="25345"/>
  </node>
  <node id="-243" visible="true" lat="44.41783622" lon="-72.85207749">
    <tag k="addr:housenumber" v="91"/>
    <tag k="addr:street" v="Thatcher Road"/>
    <tag k="addr:state" v="VT"/>
    <tag k="ref:vcgi:esiteid" v="25347"/>
  </node>
  <node id="-244" visible="true" lat="44.41781651" lon="-72.85299358">
    <tag k="addr:housenumber" v="46"/>
    <tag k="addr:street" v="Thatcher Road"/>
    <tag k="addr:state" v="VT"/>
    <tag k="ref:vcgi:esiteid" v="25348"/>
  </node>
  <node id="-245" visible="true" lat="44.41765607" lon="-72.85044088">
    <tag k="addr:housenumber" v="192"/>
    <tag k="addr:street" v="Wentworth Road"/>
    <tag k="addr:state" v="VT"/>
    <tag k="ref:vcgi:esiteid" v="25349"/>
  </node>
  <node id="-249" visible="true" lat="44.41727994" lon="-72.85232144">
    <tag k="addr:housenumber" v="118"/>
    <tag k="addr:street" v="Thatcher Road"/>
    <tag k="addr:state" v="VT"/>
    <tag k="ref:vcgi:esiteid" v="25353"/>
  </node>
  <node id="-250" visible="true" lat="44.41721728" lon="-72.84988401">
    <tag k="addr:housenumber" v="218"/>
    <tag k="addr:street" v="Wentworth Road"/>
    <tag k="addr:state" v="VT"/>
    <tag k="ref:vcgi:esiteid" v="25355"/>
  </node>
  <node id="-252" visible="true" lat="44.41740825" lon="-72.85136984">
    <tag k="addr:housenumber" v="155"/>
    <tag k="addr:street" v="Thatcher Road"/>
    <tag k="addr:state" v="VT"/>
    <tag k="ref:vcgi:esiteid" v="25357"/>
  </node>
  <node id="-253" visible="true" lat="44.41701215" lon="-72.85228541">
    <tag k="addr:housenumber" v="138"/>
    <tag k="addr:street" v="Thatcher Road"/>
    <tag k="addr:state" v="VT"/>
    <tag k="ref:vcgi:esiteid" v="25358"/>
  </node>
  <node id="-254" visible="true" lat="44.4169401" lon="-72.84946528">
    <tag k="addr:housenumber" v="242"/>
    <tag k="addr:street" v="Wentworth Road"/>
    <tag k="addr:state" v="VT"/>
    <tag k="ref:vcgi:esiteid" v="25359"/>
  </node>
  <node id="-255" visible="true" lat="44.41700387" lon="-72.84836463">
    <tag k="addr:housenumber" v="277"/>
    <tag k="addr:street" v="Wentworth Road"/>
    <tag k="addr:state" v="VT"/>
    <tag k="ref:vcgi:esiteid" v="25360"/>
  </node>
  <node id="-256" visible="true" lat="44.41678083" lon="-72.85194399">
    <tag k="addr:housenumber" v="150"/>
    <tag k="addr:street" v="Thatcher Road"/>
    <tag k="addr:state" v="VT"/>
    <tag k="ref:vcgi:esiteid" v="25361"/>
  </node>
  <node id="-257" visible="true" lat="44.41695637" lon="-72.85273186">
    <tag k="addr:housenumber" v="51"/>
    <tag k="addr:street" v="Gardiner Lane"/>
    <tag k="addr:state" v="VT"/>
    <tag k="ref:vcgi:esiteid" v="25362"/>
  </node>
  <node id="-258" visible="true" lat="44.41713542" lon="-72.85115218">
    <tag k="addr:housenumber" v="183"/>
    <tag k="addr:street" v="Thatcher Road"/>
    <tag k="addr:state" v="VT"/>
    <tag k="ref:vcgi:esiteid" v="25363"/>
  </node>
  <node id="-259" visible="true" lat="44.41654014" lon="-72.84934753">
    <tag k="addr:housenumber" v="296"/>
    <tag k="addr:street" v="Wentworth Road"/>
    <tag k="addr:state" v="VT"/>
    <tag k="ref:vcgi:esiteid" v="25364"/>
  </node>
  <node id="-260" visible="true" lat="44.41646" lon="-72.85165999">
    <tag k="addr:housenumber" v="166"/>
    <tag k="addr:street" v="Thatcher Road"/>
    <tag k="addr:state" v="VT"/>
    <tag k="ref:vcgi:esiteid" v="25365"/>
  </node>
  <node id="-262" visible="true" lat="44.41624454" lon="-72.8512573">
    <tag k="addr:housenumber" v="224"/>
    <tag k="addr:street" v="Thatcher Road"/>
    <tag k="addr:state" v="VT"/>
    <tag k="ref:vcgi:esiteid" v="25367"/>
  </node>
  <node id="-263" visible="true" lat="44.41627286" lon="-72.85014197">
    <tag k="addr:housenumber" v="233"/>
    <tag k="addr:street" v="Thatcher Road"/>
    <tag k="addr:state" v="VT"/>
    <tag k="ref:vcgi:esiteid" v="25368"/>
  </node>
  <node id="-264" visible="true" lat="44.41631102" lon="-72.84822268">
    <tag k="addr:housenumber" v="73"/>
    <tag k="addr:street" v="Snow Drift Lane"/>
    <tag k="addr:state" v="VT"/>
    <tag k="ref:vcgi:esiteid" v="25369"/>
  </node>
  <node id="-265" visible="true" lat="44.41582498" lon="-72.85704149">
    <tag k="addr:housenumber" v="17"/>
    <tag k="addr:street" v="Bear Run Road"/>
    <tag k="addr:state" v="VT"/>
    <tag k="ref:vcgi:esiteid" v="25370"/>
  </node>
  <node id="-266" visible="true" lat="44.41578764" lon="-72.84793622">
    <tag k="addr:housenumber" v="68"/>
    <tag k="addr:street" v="Snow Drift Lane"/>
    <tag k="addr:state" v="VT"/>
    <tag k="ref:vcgi:esiteid" v="25371"/>
  </node>
  <node id="-267" visible="true" lat="44.41583274" lon="-72.85042169">
    <tag k="addr:housenumber" v="408"/>
    <tag k="addr:street" v="Wentworth Road"/>
    <tag k="addr:state" v="VT"/>
    <tag k="ref:vcgi:esiteid" v="25372"/>
  </node>
  <node id="-268" visible="true" lat="44.41561892" lon="-72.84860227">
    <tag k="addr:housenumber" v="30"/>
    <tag k="addr:street" v="Snow Drift Lane"/>
    <tag k="addr:state" v="VT"/>
    <tag k="ref:vcgi:esiteid" v="25373"/>
  </node>
  <node id="-269" visible="true" lat="44.41527863" lon="-72.85101395">
    <tag k="addr:housenumber" v="270"/>
    <tag k="addr:street" v="Thatcher Road"/>
    <tag k="addr:state" v="VT"/>
    <tag k="ref:vcgi:esiteid" v="25374"/>
  </node>
  <node id="-271" visible="true" lat="44.41521075" lon="-72.85768888">
    <tag k="addr:housenumber" v="71"/>
    <tag k="addr:street" v="Bear Run Road"/>
    <tag k="addr:state" v="VT"/>
    <tag k="ref:vcgi:esiteid" v="25377"/>
  </node>
  <node id="-272" visible="true" lat="44.41466318" lon="-72.85811192">
    <tag k="addr:housenumber" v="115"/>
    <tag k="addr:street" v="Bear Run Road"/>
    <tag k="addr:state" v="VT"/>
    <tag k="ref:vcgi:esiteid" v="25378"/>
  </node>
  <node id="-273" visible="true" lat="44.41437358" lon="-72.85889756">
    <tag k="addr:housenumber" v="141"/>
    <tag k="addr:street" v="Bear Run Road"/>
    <tag k="addr:state" v="VT"/>
    <tag k="ref:vcgi:esiteid" v="25380"/>
  </node>
  <node id="-277" visible="true" lat="44.41000142" lon="-72.86401564">
    <tag k="addr:housenumber" v="3220"/>
    <tag k="addr:street" v="Bolton Valley Access Road"/>
    <tag k="addr:state" v="VT"/>
    <tag k="ref:vcgi:esiteid" v="25385"/>
  </node>
  <node id="-312" visible="true" lat="44.38062231" lon="-72.93401058">
    <tag k="addr:housenumber" v="243"/>
    <tag k="addr:street" v="Duxbury Road"/>
    <tag k="addr:state" v="VT"/>
    <tag k="ref:vcgi:esiteid" v="25423"/>
  </node>
  <node id="-505" visible="true" lat="44.4169841" lon="-72.85423642">
    <tag k="addr:housenumber" v="3970"/>
    <tag k="addr:street" v="Bolton Valley Access Road"/>
    <tag k="addr:state" v="VT"/>
    <tag k="ref:vcgi:esiteid" v="25631"/>
  </node>
  <node id="-506" visible="true" lat="44.41542058" lon="-72.85012091">
    <tag k="addr:housenumber" v="395"/>
    <tag k="addr:street" v="Wentworth Road"/>
    <tag k="addr:state" v="VT"/>
    <tag k="ref:vcgi:esiteid" v="25632"/>
  </node>
  <node id="-507" visible="true" lat="44.41543926" lon="-72.84962618">
    <tag k="addr:housenumber" v="369"/>
    <tag k="addr:street" v="Wentworth Road"/>
    <tag k="addr:state" v="VT"/>
    <tag k="ref:vcgi:esiteid" v="25633"/>
  </node>
  <node id="-533" visible="true" lat="44.41758914" lon="-72.85181795">
    <tag k="addr:housenumber" v="127"/>
    <tag k="addr:street" v="Thatcher Road"/>
    <tag k="addr:state" v="VT"/>
    <tag k="ref:vcgi:esiteid" v="25663"/>
  </node>
  <node id="-534" visible="true" lat="44.41647172" lon="-72.85475963">
    <tag k="addr:housenumber" v="3968"/>
    <tag k="addr:street" v="Bolton Valley Access Road"/>
    <tag k="addr:state" v="VT"/>
    <tag k="ref:vcgi:esiteid" v="25664"/>
  </node>
  <node id="-535" visible="true" lat="44.41627425" lon="-72.85524096">
    <tag k="addr:housenumber" v="3964"/>
    <tag k="addr:street" v="Bolton Valley Access Road"/>
    <tag k="addr:state" v="VT"/>
    <tag k="ref:vcgi:esiteid" v="25665"/>
  </node>
  <node id="-536" visible="true" lat="44.40898605" lon="-72.86736384">
    <tag k="addr:housenumber" v="3089"/>
    <tag k="addr:street" v="Bolton Valley Access Road"/>
    <tag k="addr:state" v="VT"/>
    <tag k="ref:vcgi:esiteid" v="25666"/>
  </node>
  <node id="-538" visible="true" lat="44.4169914" lon="-72.85062311">
    <tag k="addr:housenumber" v="223"/>
    <tag k="addr:street" v="Thatcher Road"/>
    <tag k="addr:state" v="VT"/>
    <tag k="ref:vcgi:esiteid" v="25668"/>
  </node>
  <node id="-539" visible="true" lat="44.40994811" lon="-72.8659664">
    <tag k="addr:housenumber" v="3137"/>
    <tag k="addr:street" v="Bolton Valley Access Road"/>
    <tag k="addr:state" v="VT"/>
    <tag k="ref:vcgi:esiteid" v="25670"/>
  </node>
  <node id="-561" visible="true" lat="44.3724618" lon="-72.86891885">
    <tag k="addr:housenumber" v="150"/>
    <tag k="addr:street" v="Green Mountain Road"/>
    <tag k="addr:state" v="VT"/>
    <tag k="ref:vcgi:esiteid" v="305478"/>
  </node>
  <node id="-562" visible="true" lat="44.41743359" lon="-72.85017316">
    <tag k="addr:housenumber" v="200"/>
    <tag k="addr:street" v="Wentworth Road"/>
    <tag k="addr:state" v="VT"/>
    <tag k="ref:vcgi:esiteid" v="306907"/>
  </node>
  <node id="-564" visible="true" lat="44.4163205" lon="-72.85593941">
    <tag k="addr:housenumber" v="3900"/>
    <tag k="addr:street" v="Bolton Valley Access Road"/>
    <tag k="addr:state" v="VT"/>
    <tag k="ref:vcgi:esiteid" v="313311"/>
  </node>
  <node id="-566" visible="true" lat="44.41730406" lon="-72.85456027">
    <tag k="addr:housenumber" v="3980"/>
    <tag k="addr:street" v="Bolton Valley Access Road"/>
    <tag k="addr:state" v="VT"/>
    <tag k="ref:vcgi:esiteid" v="313602"/>
  </node>
  <node id="-575" visible="true" lat="44.41609792" lon="-72.86055618">
    <tag k="addr:housenumber" v="3701"/>
    <tag k="addr:street" v="Bolton Valley Access Road"/>
    <tag k="addr:state" v="VT"/>
    <tag k="ref:vcgi:esiteid" v="335688"/>
  </node>
  <node id="-576" visible="true" lat="44.41327258" lon="-72.8618255">
    <tag k="addr:housenumber" v="3500"/>
    <tag k="addr:street" v="Bolton Valley Access Road"/>
    <tag k="addr:state" v="VT"/>
    <tag k="ref:vcgi:esiteid" v="335689"/>
  </node>
  <node id="-581" visible="true" lat="44.42961195" lon="-72.89688494">
    <tag k="addr:housenumber" v="3643"/>
    <tag k="addr:street" v="Notch Road"/>
    <tag k="addr:state" v="VT"/>
    <tag k="ref:vcgi:esiteid" v="336070"/>
  </node>
  <node id="-583" visible="true" lat="44.41612907" lon="-72.84870857">
    <tag k="addr:housenumber" v="333"/>
    <tag k="addr:street" v="Wentworth Road"/>
    <tag k="addr:state" v="VT"/>
    <tag k="ref:vcgi:esiteid" v="338979"/>
  </node>
  <node id="-597" visible="true" lat="44.40957322" lon="-72.86407287">
    <tag k="addr:housenumber" v="3214"/>
    <tag k="addr:street" v="Bolton Valley Access Road"/>
    <tag k="addr:state" v="VT"/>
    <tag k="ref:vcgi:esiteid" v="345180"/>
  </node>
  <node id="-607" visible="true" lat="44.41345822" lon="-72.86349615">
    <tag k="addr:housenumber" v="93"/>
    <tag k="addr:street" v="Snow Pond Road"/>
    <tag k="addr:state" v="VT"/>
    <tag k="ref:vcgi:esiteid" v="450428"/>
  </node>
  <node id="-618" visible="true" lat="44.42413708" lon="-72.91353983">
    <tag k="addr:housenumber" v="3638"/>
    <tag k="addr:street" v="Stage Road"/>
    <tag k="addr:state" v="VT"/>
    <tag k="ref:vcgi:esiteid" v="454933"/>
  </node>
  <node id="-624" visible="true" lat="44.41052579" lon="-72.86404363">
    <tag k="addr:housenumber" v="3250"/>
    <tag k="addr:street" v="Bolton Valley Access Road"/>
    <tag k="addr:state" v="VT"/>
    <tag k="ref:vcgi:esiteid" v="610996"/>
  </node>
  <node id="-709" visible="true" lat="44.42743482" lon="-72.87655591">
    <tag k="addr:housenumber" v="2619"/>
    <tag k="addr:street" v="Bolton Valley Access Road"/>
    <tag k="addr:state" v="VT"/>
    <tag k="ref:vcgi:esiteid" v="1050114"/>
  </node>
</osm>
