<?xml version="1.0" encoding="UTF-8"?>
<osm version="0.6" generator="JOSM" upload="false">
  <node id="-379" visible="true" lat="43.99384995" lon="-72.12773138">
    <!-- conflict: "13 Barton Street, , VT" No match in OSM, but a different address exists <5m away: " , Bradford, VT" -->
    <tag k="addr:housenumber" v="13"/>
    <tag k="addr:street" v="Barton Street"/>
    <tag k="addr:state" v="VT"/>
    <tag k="ref:vcgi:esiteid" v="25980"/>
  </node>
  <node id="-382" visible="true" lat="43.99382286" lon="-72.12738784">
    <!-- conflict: "27 Barton Street, , VT" No match in OSM, but a different address exists <5m away: " , Bradford, VT" -->
    <tag k="addr:housenumber" v="27"/>
    <tag k="addr:street" v="Barton Street"/>
    <tag k="addr:state" v="VT"/>
    <tag k="ref:vcgi:esiteid" v="25983"/>
  </node>
  <node id="-383" visible="true" lat="43.99379775" lon="-72.12729635">
    <!-- conflict: "35 Barton Street, , VT" No match in OSM, but a different address exists <5m away: " , Bradford, VT" -->
    <tag k="addr:housenumber" v="35"/>
    <tag k="addr:street" v="Barton Street"/>
    <tag k="addr:state" v="VT"/>
    <tag k="ref:vcgi:esiteid" v="25984"/>
  </node>
  <node id="-386" visible="true" lat="43.99407635" lon="-72.12835818">
    <!-- conflict: "137 Main Street, , VT" Fuzzy match to "137 South Main Street, Bradford, VT" -->
    <tag k="addr:housenumber" v="137"/>
    <tag k="addr:street" v="Main Street"/>
    <tag k="addr:state" v="VT"/>
    <tag k="ref:vcgi:esiteid" v="25987"/>
  </node>
  <node id="-425" visible="true" lat="43.99472808" lon="-72.12771606">
    <!-- conflict: "180 Main Street, , VT" No match in OSM, but a different address exists <5m away: " , Bradford, VT" -->
    <tag k="addr:housenumber" v="180"/>
    <tag k="addr:street" v="Main Street"/>
    <tag k="addr:state" v="VT"/>
    <tag k="ref:vcgi:esiteid" v="26027"/>
  </node>
  <node id="-551" visible="true" lat="43.99267718" lon="-72.12949546">
    <!-- conflict: "13 Goshen Road, , VT" No match in OSM, but a different address exists <5m away: " Goshen Road, Bradford, VT" -->
    <tag k="addr:housenumber" v="13"/>
    <tag k="addr:street" v="Goshen Road"/>
    <tag k="addr:state" v="VT"/>
    <tag k="ref:vcgi:esiteid" v="26213"/>
  </node>
  <node id="-564" visible="true" lat="43.98217806" lon="-72.12272422">
    <!-- conflict: "610 Waits River Road, , VT" No match in OSM, but a different address exists <5m away: " , Bradford, VT" -->
    <tag k="addr:housenumber" v="610"/>
    <tag k="addr:street" v="Waits River Road"/>
    <tag k="addr:state" v="VT"/>
    <tag k="ref:vcgi:esiteid" v="26227"/>
  </node>
  <node id="-650" visible="true" lat="43.9952457" lon="-72.12830697">
    <!-- conflict: "223 Main Street, , VT" No match in OSM, but a different address exists <5m away: " , Bradford, VT" -->
    <tag k="addr:housenumber" v="223"/>
    <tag k="addr:street" v="Main Street"/>
    <tag k="addr:state" v="VT"/>
    <tag k="ref:vcgi:esiteid" v="26313"/>
  </node>
  <node id="-839" visible="true" lat="43.98270785" lon="-72.12055487">
    <!-- conflict: "757 Lower Plain, , VT" Fuzzy match to "757 Lower Plain Road, Bradford, VT" -->
    <tag k="addr:housenumber" v="757"/>
    <tag k="addr:street" v="Lower Plain"/>
    <tag k="addr:state" v="VT"/>
    <tag k="ref:vcgi:esiteid" v="26502"/>
  </node>
  <node id="-853" visible="true" lat="43.99394487" lon="-72.12791455">
    <!-- conflict: "134 Main Street, , VT" Fuzzy match to "134 South Main Street, Bradford, VT" -->
    <tag k="addr:housenumber" v="134"/>
    <tag k="addr:street" v="Main Street"/>
    <tag k="addr:state" v="VT"/>
    <tag k="ref:vcgi:esiteid" v="26516"/>
  </node>
  <node id="-854" visible="true" lat="43.99395514" lon="-72.12838643">
    <!-- conflict: "131 Main Street, , VT" No match in OSM, but a different address exists <5m away: " , Bradford, VT" -->
    <tag k="addr:housenumber" v="131"/>
    <tag k="addr:street" v="Main Street"/>
    <tag k="addr:state" v="VT"/>
    <tag k="ref:vcgi:esiteid" v="26517"/>
  </node>
  <node id="-859" visible="true" lat="43.9947527" lon="-72.12931062">
    <!-- conflict: "105 North Pleasant Street, , VT" Fuzzy match to "105 South Pleasant Street, Bradford, VT" -->
    <tag k="addr:housenumber" v="105"/>
    <tag k="addr:street" v="North Pleasant Street"/>
    <tag k="addr:state" v="VT"/>
    <tag k="ref:vcgi:esiteid" v="26522"/>
  </node>
  <node id="-1036" visible="true" lat="43.97691946" lon="-72.11904285">
    <!-- conflict: "41 Lake Morey Road, , VT" No match in OSM, but a different address exists <5m away: "1166 Lower Plain, Bradford, VT" -->
    <tag k="addr:housenumber" v="41"/>
    <tag k="addr:street" v="Lake Morey Road"/>
    <tag k="addr:state" v="VT"/>
    <tag k="ref:vcgi:esiteid" v="26702"/>
  </node>
  <node id="-1082" visible="true" lat="43.99658052" lon="-72.12727003">
    <!-- conflict: "94 North Main Street, , VT" Fuzzy match to "94 South Main Street, Bradford, VT" -->
    <tag k="addr:housenumber" v="94"/>
    <tag k="addr:street" v="North Main Street"/>
    <tag k="addr:state" v="VT"/>
    <tag k="ref:vcgi:esiteid" v="26748"/>
  </node>
  <node id="-1096" visible="true" lat="43.99745941" lon="-72.12770843">
    <!-- conflict: "137 North Main Street, , VT" Fuzzy match to "137 South Main Street, Bradford, VT" -->
    <tag k="addr:housenumber" v="137"/>
    <tag k="addr:street" v="North Main Street"/>
    <tag k="addr:state" v="VT"/>
    <tag k="ref:vcgi:esiteid" v="26763"/>
  </node>
  <node id="-1133" visible="true" lat="43.99552673" lon="-72.12829206">
    <!-- conflict: "9 North Main Street, , VT" No match in OSM, but a different address exists <5m away: " , Bradford, VT" -->
    <tag k="addr:housenumber" v="9"/>
    <tag k="addr:street" v="North Main Street"/>
    <tag k="addr:state" v="VT"/>
    <tag k="ref:vcgi:esiteid" v="26800"/>
  </node>
  <node id="-1134" visible="true" lat="43.99311845" lon="-72.12760261">
    <!-- conflict: "64 Main Street, , VT" Fuzzy match to "64 South Main Street, Bradford, VT" -->
    <tag k="addr:housenumber" v="64"/>
    <tag k="addr:street" v="Main Street"/>
    <tag k="addr:state" v="VT"/>
    <tag k="ref:vcgi:esiteid" v="26801"/>
  </node>
  <node id="-1160" visible="true" lat="43.99385967" lon="-72.12768549">
    <!-- conflict: "21 Barton Street, , VT" No match in OSM, but a different address exists <5m away: " , Bradford, VT" -->
    <tag k="addr:housenumber" v="21"/>
    <tag k="addr:street" v="Barton Street"/>
    <tag k="addr:state" v="VT"/>
    <tag k="ref:vcgi:esiteid" v="26827"/>
  </node>
  <node id="-1207" visible="true" lat="43.99067184" lon="-72.12991036">
    <!-- conflict: "191 South Main Street, , VT" No match in OSM, but a different address exists <5m away: " , Bradford, VT" -->
    <tag k="addr:housenumber" v="191"/>
    <tag k="addr:street" v="South Main Street"/>
    <tag k="addr:state" v="VT"/>
    <tag k="ref:vcgi:esiteid" v="26876"/>
  </node>
  <node id="-1281" visible="true" lat="43.98461261" lon="-72.12751922">
    <!-- conflict: "16 Plateau Acres, , VT" No match in OSM, but a different address exists <5m away: "2 Plateau Acres, Bradford, VT" -->
    <tag k="addr:housenumber" v="16"/>
    <tag k="addr:street" v="Plateau Acres"/>
    <tag k="addr:state" v="VT"/>
    <tag k="ref:vcgi:esiteid" v="26957"/>
  </node>
</osm>
