<?xml version="1.0" encoding="UTF-8"?>
<osm version="0.6" generator="JOSM">
  <node id="-102" visible="true" lat="44.05724418" lon="-72.17774064">
    <tag k="addr:housenumber" v="432"/>
    <tag k="addr:street" v="Fulton Road"/>
    <tag k="addr:state" v="VT"/>
    <tag k="ref:vcgi:esiteid" v="25696"/>
  </node>
  <node id="-240" visible="true" lat="43.98775369" lon="-72.21360661">
    <tag k="addr:housenumber" v="310"/>
    <tag k="addr:street" v="Deerhaven Road"/>
    <tag k="addr:state" v="VT"/>
    <tag k="ref:vcgi:esiteid" v="25837"/>
  </node>
  <node id="-295" visible="true" lat="43.98048956" lon="-72.11507715">
    <tag k="addr:housenumber" v="194"/>
    <tag k="addr:street" v="Waits River Road"/>
    <tag k="addr:state" v="VT"/>
    <tag k="ref:vcgi:esiteid" v="25892"/>
  </node>
  <node id="-297" visible="true" lat="43.98029273" lon="-72.11426663">
    <tag k="addr:housenumber" v="176"/>
    <tag k="addr:street" v="Waits River Road"/>
    <tag k="addr:state" v="VT"/>
    <tag k="ref:vcgi:esiteid" v="25894"/>
  </node>
  <node id="-300" visible="true" lat="43.97953321" lon="-72.11392555">
    <tag k="addr:housenumber" v="120"/>
    <tag k="addr:street" v="Waits River Road"/>
    <tag k="addr:state" v="VT"/>
    <tag k="ref:vcgi:esiteid" v="25897"/>
  </node>
  <node id="-301" visible="true" lat="43.97928598" lon="-72.18447131">
    <tag k="addr:housenumber" v="2477"/>
    <tag k="addr:street" v="Rowell Brook Road"/>
    <tag k="addr:state" v="VT"/>
    <tag k="ref:vcgi:esiteid" v="25898"/>
  </node>
  <node id="-326" visible="true" lat="44.05373467" lon="-72.16462991">
    <tag k="addr:housenumber" v="2445"/>
    <tag k="addr:street" v="Wrights Mountain Road"/>
    <tag k="addr:state" v="VT"/>
    <tag k="ref:vcgi:esiteid" v="25923"/>
  </node>
  <node id="-347" visible="true" lat="44.04941204" lon="-72.15006648">
    <tag k="addr:housenumber" v="3316"/>
    <tag k="addr:street" v="Wrights Mountain Road"/>
    <tag k="addr:state" v="VT"/>
    <tag k="ref:vcgi:esiteid" v="25945"/>
  </node>
  <node id="-371" visible="true" lat="43.98567864" lon="-72.12015521">
    <tag k="addr:housenumber" v="106"/>
    <tag k="addr:street" v="Garden Lane"/>
    <tag k="addr:state" v="VT"/>
    <tag k="ref:vcgi:esiteid" v="25969"/>
  </node>
  <node id="-373" visible="true" lat="43.97559672" lon="-72.11878914">
    <tag k="addr:housenumber" v="1286"/>
    <tag k="addr:street" v="Lower Plain"/>
    <tag k="addr:state" v="VT"/>
    <tag k="ref:vcgi:esiteid" v="25971"/>
  </node>
  <node id="-390" visible="true" lat="43.99436924" lon="-72.12838881">
    <tag k="addr:housenumber" v="155"/>
    <tag k="addr:street" v="Main Street"/>
    <tag k="addr:state" v="VT"/>
    <tag k="ref:vcgi:esiteid" v="25991"/>
  </node>
  <node id="-392" visible="true" lat="43.99440233" lon="-72.12838861">
    <tag k="addr:housenumber" v="157"/>
    <tag k="addr:street" v="Main Street"/>
    <tag k="addr:state" v="VT"/>
    <tag k="ref:vcgi:esiteid" v="25993"/>
  </node>
  <node id="-398" visible="true" lat="43.99460601" lon="-72.12771606">
    <tag k="addr:housenumber" v="174"/>
    <tag k="addr:street" v="Main Street"/>
    <tag k="addr:state" v="VT"/>
    <tag k="ref:vcgi:esiteid" v="25999"/>
  </node>
  <node id="-403" visible="true" lat="43.98905766" lon="-72.13074275">
    <tag k="addr:housenumber" v="130"/>
    <tag k="addr:street" v="Mill Street"/>
    <tag k="addr:state" v="VT"/>
    <tag k="ref:vcgi:esiteid" v="26004"/>
  </node>
  <node id="-404" visible="true" lat="43.98879749" lon="-72.13097126">
    <tag k="addr:housenumber" v="146"/>
    <tag k="addr:street" v="Mill Street"/>
    <tag k="addr:state" v="VT"/>
    <tag k="ref:vcgi:esiteid" v="26005"/>
  </node>
  <node id="-407" visible="true" lat="43.98460444" lon="-72.12173754">
    <tag k="addr:housenumber" v="601"/>
    <tag k="addr:street" v="Lower Plain"/>
    <tag k="addr:state" v="VT"/>
    <tag k="ref:vcgi:esiteid" v="26009"/>
  </node>
  <node id="-413" visible="true" lat="43.98105492" lon="-72.11641955">
    <tag k="addr:housenumber" v="224"/>
    <tag k="addr:street" v="Waits River Road"/>
    <tag k="addr:state" v="VT"/>
    <tag k="ref:vcgi:esiteid" v="26015"/>
  </node>
  <node id="-417" visible="true" lat="43.98465048" lon="-72.12137188">
    <tag k="addr:housenumber" v="611"/>
    <tag k="addr:street" v="Lower Plain"/>
    <tag k="addr:state" v="VT"/>
    <tag k="ref:vcgi:esiteid" v="26019"/>
  </node>
  <node id="-438" visible="true" lat="43.98137975" lon="-72.11764141">
    <tag k="addr:housenumber" v="27"/>
    <tag k="addr:street" v="Whistle Stop Way"/>
    <tag k="addr:state" v="VT"/>
    <tag k="ref:vcgi:esiteid" v="26041"/>
  </node>
  <node id="-458" visible="true" lat="43.97985875" lon="-72.11614313">
    <tag k="addr:housenumber" v="267"/>
    <tag k="addr:street" v="Waits River Road"/>
    <tag k="addr:state" v="VT"/>
    <tag k="ref:vcgi:esiteid" v="26089"/>
  </node>
  <node id="-470" visible="true" lat="43.98807144" lon="-72.12906646">
    <tag k="addr:housenumber" v="28"/>
    <tag k="addr:street" v="Falls View Drive"/>
    <tag k="addr:state" v="VT"/>
    <tag k="ref:vcgi:esiteid" v="26101"/>
  </node>
  <node id="-471" visible="true" lat="43.98208999" lon="-72.12325286">
    <tag k="addr:housenumber" v="632"/>
    <tag k="addr:street" v="Waits River Road"/>
    <tag k="addr:state" v="VT"/>
    <tag k="ref:vcgi:esiteid" v="26102"/>
  </node>
  <node id="-472" visible="true" lat="43.98194122" lon="-72.12490081">
    <tag k="addr:housenumber" v="39"/>
    <tag k="addr:street" v="Saddleback Road"/>
    <tag k="addr:state" v="VT"/>
    <tag k="ref:vcgi:esiteid" v="26103"/>
  </node>
  <node id="-475" visible="true" lat="43.98991012" lon="-72.13191986">
    <tag k="addr:housenumber" v="243"/>
    <tag k="addr:street" v="South Pleasant Street"/>
    <tag k="addr:state" v="VT"/>
    <tag k="ref:vcgi:esiteid" v="26106"/>
  </node>
  <node id="-476" visible="true" lat="43.98847579" lon="-72.13455963">
    <tag k="addr:housenumber" v="385"/>
    <tag k="addr:street" v="High Street"/>
    <tag k="addr:state" v="VT"/>
    <tag k="ref:vcgi:esiteid" v="26107"/>
  </node>
  <node id="-479" visible="true" lat="43.97623222" lon="-72.11780492">
    <tag k="addr:housenumber" v="1233"/>
    <tag k="addr:street" v="Lower Plain"/>
    <tag k="addr:state" v="VT"/>
    <tag k="ref:vcgi:esiteid" v="26110"/>
  </node>
  <node id="-575" visible="true" lat="43.98978042" lon="-72.13372802">
    <tag k="addr:housenumber" v="285"/>
    <tag k="addr:street" v="High Street"/>
    <tag k="addr:state" v="VT"/>
    <tag k="ref:vcgi:esiteid" v="26238"/>
  </node>
  <node id="-577" visible="true" lat="43.98173183" lon="-72.118874">
    <tag k="addr:housenumber" v="418"/>
    <tag k="addr:street" v="Waits River Road"/>
    <tag k="addr:state" v="VT"/>
    <tag k="ref:vcgi:esiteid" v="26240"/>
  </node>
  <node id="-579" visible="true" lat="43.97735471" lon="-72.11921531">
    <tag k="addr:housenumber" v="1128"/>
    <tag k="addr:street" v="Lower Plain"/>
    <tag k="addr:state" v="VT"/>
    <tag k="ref:vcgi:esiteid" v="26242"/>
  </node>
  <node id="-580" visible="true" lat="43.97692453" lon="-72.12020154">
    <tag k="addr:housenumber" v="82"/>
    <tag k="addr:street" v="Lake Morey Road"/>
    <tag k="addr:state" v="VT"/>
    <tag k="ref:vcgi:esiteid" v="26243"/>
  </node>
  <node id="-627" visible="true" lat="43.99024581" lon="-72.13178253">
    <tag k="addr:housenumber" v="217"/>
    <tag k="addr:street" v="South Pleasant Street"/>
    <tag k="addr:state" v="VT"/>
    <tag k="ref:vcgi:esiteid" v="26290"/>
  </node>
  <node id="-628" visible="true" lat="43.98987773" lon="-72.1344808">
    <tag k="addr:housenumber" v="294"/>
    <tag k="addr:street" v="High Street"/>
    <tag k="addr:state" v="VT"/>
    <tag k="ref:vcgi:esiteid" v="26291"/>
  </node>
  <node id="-630" visible="true" lat="43.98946926" lon="-72.13409823">
    <tag k="addr:housenumber" v="309"/>
    <tag k="addr:street" v="High Street"/>
    <tag k="addr:state" v="VT"/>
    <tag k="ref:vcgi:esiteid" v="26293"/>
  </node>
  <node id="-631" visible="true" lat="43.98771952" lon="-72.1272375">
    <tag k="addr:housenumber" v="311"/>
    <tag k="addr:street" v="Plateau Acres"/>
    <tag k="addr:state" v="VT"/>
    <tag k="ref:vcgi:esiteid" v="26294"/>
  </node>
  <node id="-633" visible="true" lat="43.98668307" lon="-72.12722136">
    <tag k="addr:housenumber" v="242"/>
    <tag k="addr:street" v="Plateau Acres"/>
    <tag k="addr:state" v="VT"/>
    <tag k="ref:vcgi:esiteid" v="26296"/>
  </node>
  <node id="-634" visible="true" lat="43.98231887" lon="-72.12566375">
    <tag k="addr:housenumber" v="83"/>
    <tag k="addr:street" v="Saddleback Road"/>
    <tag k="addr:state" v="VT"/>
    <tag k="ref:vcgi:esiteid" v="26297"/>
  </node>
  <node id="-740" visible="true" lat="43.99187469" lon="-72.13089752">
    <tag k="addr:housenumber" v="97"/>
    <tag k="addr:street" v="South Pleasant Street"/>
    <tag k="addr:state" v="VT"/>
    <tag k="ref:vcgi:esiteid" v="26403"/>
  </node>
  <node id="-745" visible="true" lat="43.99109427" lon="-72.13144855">
    <tag k="addr:housenumber" v="72"/>
    <tag k="addr:street" v="Cobblestone Alley"/>
    <tag k="addr:state" v="VT"/>
    <tag k="ref:vcgi:esiteid" v="26408"/>
  </node>
  <node id="-746" visible="true" lat="43.99106726" lon="-72.13110142">
    <tag k="addr:housenumber" v="60"/>
    <tag k="addr:street" v="Cobblestone Alley"/>
    <tag k="addr:state" v="VT"/>
    <tag k="ref:vcgi:esiteid" v="26409"/>
  </node>
  <node id="-747" visible="true" lat="43.99086568" lon="-72.13307592">
    <tag k="addr:housenumber" v="199"/>
    <tag k="addr:street" v="High Street"/>
    <tag k="addr:state" v="VT"/>
    <tag k="ref:vcgi:esiteid" v="26410"/>
  </node>
  <node id="-748" visible="true" lat="43.99065399" lon="-72.13095855">
    <tag k="addr:housenumber" v="41"/>
    <tag k="addr:street" v="Cobblestone Alley"/>
    <tag k="addr:state" v="VT"/>
    <tag k="ref:vcgi:esiteid" v="26411"/>
  </node>
  <node id="-749" visible="true" lat="43.99062803" lon="-72.13383775">
    <tag k="addr:housenumber" v="232"/>
    <tag k="addr:street" v="High Street"/>
    <tag k="addr:state" v="VT"/>
    <tag k="ref:vcgi:esiteid" v="26412"/>
  </node>
  <node id="-750" visible="true" lat="43.99053573" lon="-72.13155365">
    <tag k="addr:housenumber" v="195"/>
    <tag k="addr:street" v="South Pleasant Street"/>
    <tag k="addr:state" v="VT"/>
    <tag k="ref:vcgi:esiteid" v="26413"/>
  </node>
  <node id="-751" visible="true" lat="43.99036407" lon="-72.13175201">
    <tag k="addr:housenumber" v="209"/>
    <tag k="addr:street" v="South Pleasant Street"/>
    <tag k="addr:state" v="VT"/>
    <tag k="ref:vcgi:esiteid" v="26414"/>
  </node>
  <node id="-752" visible="true" lat="43.99013137" lon="-72.13188171">
    <tag k="addr:housenumber" v="227"/>
    <tag k="addr:street" v="South Pleasant Street"/>
    <tag k="addr:state" v="VT"/>
    <tag k="ref:vcgi:esiteid" v="26415"/>
  </node>
  <node id="-753" visible="true" lat="43.98954131" lon="-72.13285628">
    <tag k="addr:housenumber" v="266"/>
    <tag k="addr:street" v="South Pleasant Street"/>
    <tag k="addr:state" v="VT"/>
    <tag k="ref:vcgi:esiteid" v="26416"/>
  </node>
  <node id="-754" visible="true" lat="43.98938352" lon="-72.13463983">
    <tag k="addr:housenumber" v="330"/>
    <tag k="addr:street" v="High Street"/>
    <tag k="addr:state" v="VT"/>
    <tag k="ref:vcgi:esiteid" v="26417"/>
  </node>
  <node id="-755" visible="true" lat="43.98920861" lon="-72.12654279">
    <tag k="addr:housenumber" v="404"/>
    <tag k="addr:street" v="Plateau Acres"/>
    <tag k="addr:state" v="VT"/>
    <tag k="ref:vcgi:esiteid" v="26418"/>
  </node>
  <node id="-756" visible="true" lat="43.98895208" lon="-72.13293552">
    <tag k="addr:housenumber" v="318"/>
    <tag k="addr:street" v="South Pleasant Street"/>
    <tag k="addr:state" v="VT"/>
    <tag k="ref:vcgi:esiteid" v="26419"/>
  </node>
  <node id="-758" visible="true" lat="43.98873092" lon="-72.12681751">
    <tag k="addr:housenumber" v="383"/>
    <tag k="addr:street" v="Plateau Acres"/>
    <tag k="addr:state" v="VT"/>
    <tag k="ref:vcgi:esiteid" v="26421"/>
  </node>
  <node id="-759" visible="true" lat="43.98817885" lon="-72.12774961">
    <tag k="addr:housenumber" v="30"/>
    <tag k="addr:street" v="Plateau Acres West"/>
    <tag k="addr:state" v="VT"/>
    <tag k="ref:vcgi:esiteid" v="26422"/>
  </node>
  <node id="-760" visible="true" lat="43.98800035" lon="-72.12810508">
    <tag k="addr:housenumber" v="50"/>
    <tag k="addr:street" v="Plateau Acres West"/>
    <tag k="addr:state" v="VT"/>
    <tag k="ref:vcgi:esiteid" v="26423"/>
  </node>
  <node id="-761" visible="true" lat="43.98738817" lon="-72.12681744">
    <tag k="addr:housenumber" v="278"/>
    <tag k="addr:street" v="Plateau Acres"/>
    <tag k="addr:state" v="VT"/>
    <tag k="ref:vcgi:esiteid" v="26424"/>
  </node>
  <node id="-762" visible="true" lat="43.9873619" lon="-72.12791442">
    <tag k="addr:housenumber" v="265"/>
    <tag k="addr:street" v="Plateau Acres"/>
    <tag k="addr:state" v="VT"/>
    <tag k="ref:vcgi:esiteid" v="26425"/>
  </node>
  <node id="-763" visible="true" lat="43.98701364" lon="-72.12800351">
    <tag k="addr:housenumber" v="259"/>
    <tag k="addr:street" v="Plateau Acres"/>
    <tag k="addr:state" v="VT"/>
    <tag k="ref:vcgi:esiteid" v="26426"/>
  </node>
  <node id="-764" visible="true" lat="43.98695067" lon="-72.12230762">
    <tag k="addr:housenumber" v="449"/>
    <tag k="addr:street" v="Lower Plain"/>
    <tag k="addr:state" v="VT"/>
    <tag k="ref:vcgi:esiteid" v="26427"/>
  </node>
  <node id="-765" visible="true" lat="43.98672623" lon="-72.12760596">
    <tag k="addr:housenumber" v="226"/>
    <tag k="addr:street" v="Plateau Acres"/>
    <tag k="addr:state" v="VT"/>
    <tag k="ref:vcgi:esiteid" v="26428"/>
  </node>
  <node id="-770" visible="true" lat="43.98252105" lon="-72.1260147">
    <tag k="addr:housenumber" v="105"/>
    <tag k="addr:street" v="Saddleback Road"/>
    <tag k="addr:state" v="VT"/>
    <tag k="ref:vcgi:esiteid" v="26433"/>
  </node>
  <node id="-771" visible="true" lat="43.98237744" lon="-72.12486028">
    <tag k="addr:housenumber" v="44"/>
    <tag k="addr:street" v="Saddleback Road"/>
    <tag k="addr:state" v="VT"/>
    <tag k="ref:vcgi:esiteid" v="26434"/>
  </node>
  <node id="-772" visible="true" lat="43.98189416" lon="-72.12419767">
    <tag k="addr:housenumber" v="653"/>
    <tag k="addr:street" v="Waits River Road"/>
    <tag k="addr:state" v="VT"/>
    <tag k="ref:vcgi:esiteid" v="26435"/>
  </node>
  <node id="-773" visible="true" lat="43.98136909" lon="-72.12217543">
    <tag k="addr:housenumber" v="573"/>
    <tag k="addr:street" v="Waits River Road"/>
    <tag k="addr:state" v="VT"/>
    <tag k="ref:vcgi:esiteid" v="26436"/>
  </node>
  <node id="-774" visible="true" lat="43.98127611" lon="-72.11723696">
    <tag k="addr:housenumber" v="22"/>
    <tag k="addr:street" v="Whistle Stop Way"/>
    <tag k="addr:state" v="VT"/>
    <tag k="ref:vcgi:esiteid" v="26437"/>
  </node>
  <node id="-813" visible="true" lat="43.98936652" lon="-72.12692855">
    <tag k="addr:housenumber" v="428"/>
    <tag k="addr:street" v="Plateau Acres"/>
    <tag k="addr:state" v="VT"/>
    <tag k="ref:vcgi:esiteid" v="26476"/>
  </node>
  <node id="-818" visible="true" lat="43.99078099" lon="-72.13147409">
    <tag k="addr:housenumber" v="63"/>
    <tag k="addr:street" v="Cobblestone Alley"/>
    <tag k="addr:state" v="VT"/>
    <tag k="ref:vcgi:esiteid" v="26481"/>
  </node>
  <node id="-819" visible="true" lat="43.98817825" lon="-72.13423919">
    <tag k="addr:housenumber" v="395"/>
    <tag k="addr:street" v="High Street"/>
    <tag k="addr:state" v="VT"/>
    <tag k="ref:vcgi:esiteid" v="26482"/>
  </node>
  <node id="-820" visible="true" lat="43.98215742" lon="-72.1177232">
    <tag k="addr:housenumber" v="92"/>
    <tag k="addr:street" v="Whistle Stop Way"/>
    <tag k="addr:state" v="VT"/>
    <tag k="ref:vcgi:esiteid" v="26483"/>
  </node>
  <node id="-832" visible="true" lat="43.99084472" lon="-72.13063049">
    <tag k="addr:housenumber" v="30"/>
    <tag k="addr:street" v="Cobblestone Alley"/>
    <tag k="addr:state" v="VT"/>
    <tag k="ref:vcgi:esiteid" v="26495"/>
  </node>
  <node id="-833" visible="true" lat="43.99056229" lon="-72.13069547">
    <tag k="addr:housenumber" v="25"/>
    <tag k="addr:street" v="Cobblestone Alley"/>
    <tag k="addr:state" v="VT"/>
    <tag k="ref:vcgi:esiteid" v="26496"/>
  </node>
  <node id="-835" visible="true" lat="43.98874593" lon="-72.12468404">
    <tag k="addr:housenumber" v="368"/>
    <tag k="addr:street" v="Lower Plain"/>
    <tag k="addr:state" v="VT"/>
    <tag k="ref:vcgi:esiteid" v="26498"/>
  </node>
  <node id="-841" visible="true" lat="43.98156124" lon="-72.1226353">
    <tag k="addr:housenumber" v="587"/>
    <tag k="addr:street" v="Waits River Road"/>
    <tag k="addr:state" v="VT"/>
    <tag k="ref:vcgi:esiteid" v="26504"/>
  </node>
  <node id="-842" visible="true" lat="43.98118591" lon="-72.12116241">
    <tag k="addr:housenumber" v="515"/>
    <tag k="addr:street" v="Waits River Road"/>
    <tag k="addr:state" v="VT"/>
    <tag k="ref:vcgi:esiteid" v="26505"/>
  </node>
  <node id="-843" visible="true" lat="43.97711924" lon="-72.11947789">
    <tag k="addr:housenumber" v="42"/>
    <tag k="addr:street" v="Lake Morey Road"/>
    <tag k="addr:state" v="VT"/>
    <tag k="ref:vcgi:esiteid" v="26506"/>
  </node>
  <node id="-844" visible="true" lat="43.98740768" lon="-72.12294006">
    <tag k="addr:housenumber" v="417"/>
    <tag k="addr:street" v="Lower Plain"/>
    <tag k="addr:state" v="VT"/>
    <tag k="ref:vcgi:esiteid" v="26507"/>
  </node>
  <node id="-847" visible="true" lat="43.98555387" lon="-72.12210272">
    <tag k="addr:housenumber" v="14"/>
    <tag k="addr:street" v="Garden Lane"/>
    <tag k="addr:state" v="VT"/>
    <tag k="ref:vcgi:esiteid" v="26510"/>
  </node>
  <node id="-848" visible="true" lat="43.98561508" lon="-72.12171231">
    <tag k="addr:housenumber" v="30"/>
    <tag k="addr:street" v="Garden Lane"/>
    <tag k="addr:state" v="VT"/>
    <tag k="ref:vcgi:esiteid" v="26511"/>
  </node>
  <node id="-866" visible="true" lat="43.98716663" lon="-72.12359536">
    <tag k="addr:housenumber" v="414"/>
    <tag k="addr:street" v="Lower Plain"/>
    <tag k="addr:state" v="VT"/>
    <tag k="ref:vcgi:esiteid" v="26529"/>
  </node>
  <node id="-867" visible="true" lat="43.9775836" lon="-72.11929161">
    <tag k="addr:housenumber" v="1112"/>
    <tag k="addr:street" v="Lower Plain"/>
    <tag k="addr:state" v="VT"/>
    <tag k="ref:vcgi:esiteid" v="26530"/>
  </node>
  <node id="-1011" visible="true" lat="43.9908142" lon="-72.13372039">
    <tag k="addr:housenumber" v="220"/>
    <tag k="addr:street" v="High Street"/>
    <tag k="addr:state" v="VT"/>
    <tag k="ref:vcgi:esiteid" v="26676"/>
  </node>
  <node id="-1013" visible="true" lat="43.99055862" lon="-72.13322448">
    <tag k="addr:housenumber" v="225"/>
    <tag k="addr:street" v="High Street"/>
    <tag k="addr:state" v="VT"/>
    <tag k="ref:vcgi:esiteid" v="26678"/>
  </node>
  <node id="-1014" visible="true" lat="43.99043291" lon="-72.13394327">
    <tag k="addr:housenumber" v="246"/>
    <tag k="addr:street" v="High Street"/>
    <tag k="addr:state" v="VT"/>
    <tag k="ref:vcgi:esiteid" v="26679"/>
  </node>
  <node id="-1016" visible="true" lat="43.99043155" lon="-72.13343471">
    <tag k="addr:housenumber" v="241"/>
    <tag k="addr:street" v="High Street"/>
    <tag k="addr:state" v="VT"/>
    <tag k="ref:vcgi:esiteid" v="26681"/>
  </node>
  <node id="-1019" visible="true" lat="43.99016952" lon="-72.1335144">
    <tag k="addr:housenumber" v="255"/>
    <tag k="addr:street" v="High Street"/>
    <tag k="addr:state" v="VT"/>
    <tag k="ref:vcgi:esiteid" v="26684"/>
  </node>
  <node id="-1020" visible="true" lat="43.99019381" lon="-72.13418781">
    <tag k="addr:housenumber" v="272"/>
    <tag k="addr:street" v="High Street"/>
    <tag k="addr:state" v="VT"/>
    <tag k="ref:vcgi:esiteid" v="26685"/>
  </node>
  <node id="-1022" visible="true" lat="43.98849251" lon="-72.12598373">
    <tag k="addr:housenumber" v="376"/>
    <tag k="addr:street" v="Plateau Acres"/>
    <tag k="addr:state" v="VT"/>
    <tag k="ref:vcgi:esiteid" v="26687"/>
  </node>
  <node id="-1023" visible="true" lat="43.98832549" lon="-72.12729243">
    <tag k="addr:housenumber" v="14"/>
    <tag k="addr:street" v="Plateau Acres West"/>
    <tag k="addr:state" v="VT"/>
    <tag k="ref:vcgi:esiteid" v="26688"/>
  </node>
  <node id="-1024" visible="true" lat="43.98815221" lon="-72.12584864">
    <tag k="addr:housenumber" v="350"/>
    <tag k="addr:street" v="Plateau Acres"/>
    <tag k="addr:state" v="VT"/>
    <tag k="ref:vcgi:esiteid" v="26689"/>
  </node>
  <node id="-1028" visible="true" lat="43.98764122" lon="-72.12656446">
    <tag k="addr:housenumber" v="318"/>
    <tag k="addr:street" v="Plateau Acres"/>
    <tag k="addr:state" v="VT"/>
    <tag k="ref:vcgi:esiteid" v="26693"/>
  </node>
  <node id="-1030" visible="true" lat="43.98755216" lon="-72.12752715">
    <tag k="addr:housenumber" v="279"/>
    <tag k="addr:street" v="Plateau Acres"/>
    <tag k="addr:state" v="VT"/>
    <tag k="ref:vcgi:esiteid" v="26695"/>
  </node>
  <node id="-1032" visible="true" lat="43.98188424" lon="-72.1215417">
    <tag k="addr:housenumber" v="530"/>
    <tag k="addr:street" v="Waits River Road"/>
    <tag k="addr:state" v="VT"/>
    <tag k="ref:vcgi:esiteid" v="26698"/>
  </node>
  <node id="-1035" visible="true" lat="43.97722664" lon="-72.12133886">
    <tag k="addr:housenumber" v="144"/>
    <tag k="addr:street" v="Lake Morey Road"/>
    <tag k="addr:state" v="VT"/>
    <tag k="ref:vcgi:esiteid" v="26701"/>
  </node>
  <node id="-1037" visible="true" lat="43.97653579" lon="-72.1206665">
    <tag k="addr:housenumber" v="113"/>
    <tag k="addr:street" v="Lake Morey Road"/>
    <tag k="addr:state" v="VT"/>
    <tag k="ref:vcgi:esiteid" v="26703"/>
  </node>
  <node id="-1056" visible="true" lat="44.04994214" lon="-72.15175117">
    <tag k="addr:housenumber" v="3236"/>
    <tag k="addr:street" v="Wrights Mountain Road"/>
    <tag k="addr:state" v="VT"/>
    <tag k="ref:vcgi:esiteid" v="26722"/>
  </node>
  <node id="-1102" visible="true" lat="43.99238812" lon="-72.13065602">
    <tag k="addr:housenumber" v="59"/>
    <tag k="addr:street" v="South Pleasant Street"/>
    <tag k="addr:state" v="VT"/>
    <tag k="ref:vcgi:esiteid" v="26769"/>
  </node>
  <node id="-1103" visible="true" lat="43.9922409" lon="-72.1303482">
    <tag k="addr:housenumber" v="63"/>
    <tag k="addr:street" v="South Pleasant Street"/>
    <tag k="addr:state" v="VT"/>
    <tag k="ref:vcgi:esiteid" v="26770"/>
  </node>
  <node id="-1104" visible="true" lat="43.98649741" lon="-72.12212114">
    <tag k="addr:housenumber" v="487"/>
    <tag k="addr:street" v="Lower Plain"/>
    <tag k="addr:state" v="VT"/>
    <tag k="ref:vcgi:esiteid" v="26771"/>
  </node>
  <node id="-1108" visible="true" lat="43.98312377" lon="-72.12633514">
    <tag k="addr:housenumber" v="146"/>
    <tag k="addr:street" v="Saddleback Road"/>
    <tag k="addr:state" v="VT"/>
    <tag k="ref:vcgi:esiteid" v="26775"/>
  </node>
  <node id="-1109" visible="true" lat="43.98216708" lon="-72.11804025">
    <tag k="addr:housenumber" v="102"/>
    <tag k="addr:street" v="Whistle Stop Way"/>
    <tag k="addr:state" v="VT"/>
    <tag k="ref:vcgi:esiteid" v="26776"/>
  </node>
  <node id="-1111" visible="true" lat="43.98182164" lon="-72.11751118">
    <tag k="addr:housenumber" v="71"/>
    <tag k="addr:street" v="Whistle Stop Way"/>
    <tag k="addr:state" v="VT"/>
    <tag k="ref:vcgi:esiteid" v="26778"/>
  </node>
  <node id="-1112" visible="true" lat="43.98185965" lon="-72.11789849">
    <tag k="addr:housenumber" v="105"/>
    <tag k="addr:street" v="Whistle Stop Way"/>
    <tag k="addr:state" v="VT"/>
    <tag k="ref:vcgi:esiteid" v="26779"/>
  </node>
  <node id="-1113" visible="true" lat="43.98162621" lon="-72.11798757">
    <tag k="addr:housenumber" v="28"/>
    <tag k="addr:street" v="Railroad Way"/>
    <tag k="addr:state" v="VT"/>
    <tag k="ref:vcgi:esiteid" v="26780"/>
  </node>
  <node id="-1114" visible="true" lat="43.98133493" lon="-72.11791096">
    <tag k="addr:housenumber" v="29"/>
    <tag k="addr:street" v="Railroad Way"/>
    <tag k="addr:state" v="VT"/>
    <tag k="ref:vcgi:esiteid" v="26781"/>
  </node>
  <node id="-1115" visible="true" lat="43.98065342" lon="-72.12076719">
    <tag k="addr:housenumber" v="888"/>
    <tag k="addr:street" v="Lower Plain"/>
    <tag k="addr:state" v="VT"/>
    <tag k="ref:vcgi:esiteid" v="26782"/>
  </node>
  <node id="-1127" visible="true" lat="43.98120299" lon="-72.11768219">
    <tag k="addr:housenumber" v="15"/>
    <tag k="addr:street" v="Whistle Stop Way"/>
    <tag k="addr:state" v="VT"/>
    <tag k="ref:vcgi:esiteid" v="26794"/>
  </node>
  <node id="-1135" visible="true" lat="43.98411843" lon="-72.1239968">
    <tag k="addr:housenumber" v="588"/>
    <tag k="addr:street" v="Lower Plain"/>
    <tag k="addr:state" v="VT"/>
    <tag k="ref:vcgi:esiteid" v="26802"/>
  </node>
  <node id="-1136" visible="true" lat="43.97532847" lon="-72.11833431">
    <tag k="addr:housenumber" v="1284"/>
    <tag k="addr:street" v="Lower Plain"/>
    <tag k="addr:state" v="VT"/>
    <tag k="ref:vcgi:esiteid" v="26803"/>
  </node>
  <node id="-1138" visible="true" lat="43.99832008" lon="-72.11816428">
    <tag k="addr:housenumber" v="272"/>
    <tag k="addr:street" v="Depot Street"/>
    <tag k="addr:state" v="VT"/>
    <tag k="ref:vcgi:esiteid" v="26805"/>
  </node>
  <node id="-1140" visible="true" lat="44.00791064" lon="-72.11379667">
    <tag k="addr:housenumber" v="36"/>
    <tag k="addr:street" v="Oxbow Drive"/>
    <tag k="addr:state" v="VT"/>
    <tag k="ref:vcgi:esiteid" v="26807"/>
  </node>
  <node id="-1146" visible="true" lat="43.98836014" lon="-72.12318198">
    <tag k="addr:housenumber" v="345"/>
    <tag k="addr:street" v="Lower Plain"/>
    <tag k="addr:state" v="VT"/>
    <tag k="ref:vcgi:esiteid" v="26813"/>
  </node>
  <node id="-1147" visible="true" lat="43.98641714" lon="-72.12328386">
    <tag k="addr:housenumber" v="490"/>
    <tag k="addr:street" v="Lower Plain"/>
    <tag k="addr:state" v="VT"/>
    <tag k="ref:vcgi:esiteid" v="26814"/>
  </node>
  <node id="-1148" visible="true" lat="43.98556033" lon="-72.12278626">
    <tag k="addr:housenumber" v="536"/>
    <tag k="addr:street" v="Lower Plain"/>
    <tag k="addr:state" v="VT"/>
    <tag k="ref:vcgi:esiteid" v="26815"/>
  </node>
  <node id="-1149" visible="true" lat="43.97552582" lon="-72.11377699">
    <tag k="addr:housenumber" v="293"/>
    <tag k="addr:street" v="Industrial Drive"/>
    <tag k="addr:state" v="VT"/>
    <tag k="ref:vcgi:esiteid" v="26816"/>
  </node>
  <node id="-1157" visible="true" lat="43.98215582" lon="-72.12033076">
    <tag k="addr:housenumber" v="799"/>
    <tag k="addr:street" v="Lower Plain"/>
    <tag k="addr:state" v="VT"/>
    <tag k="ref:vcgi:esiteid" v="26824"/>
  </node>
  <node id="-1163" visible="true" lat="43.9724728" lon="-72.116223">
    <tag k="addr:housenumber" v="1483"/>
    <tag k="addr:street" v="Lower Plain"/>
    <tag k="addr:state" v="VT"/>
    <tag k="ref:vcgi:esiteid" v="26830"/>
  </node>
  <node id="-1166" visible="true" lat="43.98066128" lon="-72.11959919">
    <tag k="addr:housenumber" v="901"/>
    <tag k="addr:street" v="Lower Plain"/>
    <tag k="addr:state" v="VT"/>
    <tag k="ref:vcgi:esiteid" v="26833"/>
  </node>
  <node id="-1173" visible="true" lat="43.98796075" lon="-72.12316572">
    <tag k="addr:housenumber" v="379"/>
    <tag k="addr:street" v="Lower Plain"/>
    <tag k="addr:state" v="VT"/>
    <tag k="ref:vcgi:esiteid" v="26840"/>
  </node>
  <node id="-1174" visible="true" lat="43.97672014" lon="-72.11742313">
    <tag k="addr:housenumber" v="1209"/>
    <tag k="addr:street" v="Lower Plain"/>
    <tag k="addr:state" v="VT"/>
    <tag k="ref:vcgi:esiteid" v="26841"/>
  </node>
  <node id="-1180" visible="true" lat="43.98757499" lon="-72.12250908">
    <tag k="addr:housenumber" v="423"/>
    <tag k="addr:street" v="Lower Plain"/>
    <tag k="addr:state" v="VT"/>
    <tag k="ref:vcgi:esiteid" v="26847"/>
  </node>
  <node id="-1181" visible="true" lat="43.98728465" lon="-72.12245874">
    <tag k="addr:housenumber" v="429"/>
    <tag k="addr:street" v="Lower Plain"/>
    <tag k="addr:state" v="VT"/>
    <tag k="ref:vcgi:esiteid" v="26848"/>
  </node>
  <node id="-1188" visible="true" lat="43.98926353" lon="-72.13123558">
    <tag k="addr:housenumber" v="307"/>
    <tag k="addr:street" v="South Main Street"/>
    <tag k="addr:state" v="VT"/>
    <tag k="ref:vcgi:esiteid" v="26857"/>
  </node>
  <node id="-1190" visible="true" lat="43.98751831" lon="-72.13410949">
    <tag k="addr:housenumber" v="501"/>
    <tag k="addr:street" v="South Main Street"/>
    <tag k="addr:state" v="VT"/>
    <tag k="ref:vcgi:esiteid" v="26859"/>
  </node>
  <node id="-1192" visible="true" lat="43.98909084" lon="-72.13168918">
    <tag k="addr:housenumber" v="335"/>
    <tag k="addr:street" v="South Main Street"/>
    <tag k="addr:state" v="VT"/>
    <tag k="ref:vcgi:esiteid" v="26861"/>
  </node>
  <node id="-1193" visible="true" lat="43.98703384" lon="-72.13344573">
    <tag k="addr:housenumber" v="503"/>
    <tag k="addr:street" v="South Main Street"/>
    <tag k="addr:state" v="VT"/>
    <tag k="ref:vcgi:esiteid" v="26862"/>
  </node>
  <node id="-1195" visible="true" lat="43.99161294" lon="-72.1296286">
    <tag k="addr:housenumber" v="137"/>
    <tag k="addr:street" v="South Main Street"/>
    <tag k="addr:state" v="VT"/>
    <tag k="ref:vcgi:esiteid" v="26864"/>
  </node>
  <node id="-1196" visible="true" lat="43.99132693" lon="-72.12969076">
    <tag k="addr:housenumber" v="149"/>
    <tag k="addr:street" v="South Main Street"/>
    <tag k="addr:state" v="VT"/>
    <tag k="ref:vcgi:esiteid" v="26865"/>
  </node>
  <node id="-1198" visible="true" lat="43.99298274" lon="-72.12853471">
    <tag k="addr:housenumber" v="21"/>
    <tag k="addr:street" v="South Main Street"/>
    <tag k="addr:state" v="VT"/>
    <tag k="ref:vcgi:esiteid" v="26867"/>
  </node>
  <node id="-1199" visible="true" lat="43.98751449" lon="-72.13388061">
    <tag k="addr:housenumber" v="493"/>
    <tag k="addr:street" v="South Main Street"/>
    <tag k="addr:state" v="VT"/>
    <tag k="ref:vcgi:esiteid" v="26868"/>
  </node>
  <node id="-1201" visible="true" lat="43.98852265" lon="-72.13278063">
    <tag k="addr:housenumber" v="407"/>
    <tag k="addr:street" v="South Main Street"/>
    <tag k="addr:state" v="VT"/>
    <tag k="ref:vcgi:esiteid" v="26870"/>
  </node>
  <node id="-1204" visible="true" lat="43.99109014" lon="-72.12980067">
    <tag k="addr:housenumber" v="157"/>
    <tag k="addr:street" v="South Main Street"/>
    <tag k="addr:state" v="VT"/>
    <tag k="ref:vcgi:esiteid" v="26873"/>
  </node>
  <node id="-1206" visible="true" lat="43.98813247" lon="-72.13302612">
    <tag k="addr:housenumber" v="437"/>
    <tag k="addr:street" v="South Main Street"/>
    <tag k="addr:state" v="VT"/>
    <tag k="ref:vcgi:esiteid" v="26875"/>
  </node>
  <node id="-1208" visible="true" lat="43.99250301" lon="-72.13018264">
    <tag k="addr:housenumber" v="68"/>
    <tag k="addr:street" v="South Main Street"/>
    <tag k="addr:state" v="VT"/>
    <tag k="ref:vcgi:esiteid" v="26877"/>
  </node>
  <node id="-1209" visible="true" lat="43.98933422" lon="-72.131958">
    <tag k="addr:housenumber" v="340"/>
    <tag k="addr:street" v="South Main Street"/>
    <tag k="addr:state" v="VT"/>
    <tag k="ref:vcgi:esiteid" v="26881"/>
  </node>
  <node id="-1210" visible="true" lat="43.989843" lon="-72.13108618">
    <tag k="addr:housenumber" v="312"/>
    <tag k="addr:street" v="South Main Street"/>
    <tag k="addr:state" v="VT"/>
    <tag k="ref:vcgi:esiteid" v="26882"/>
  </node>
  <node id="-1211" visible="true" lat="43.98931164" lon="-72.13211941">
    <tag k="addr:housenumber" v="354"/>
    <tag k="addr:street" v="South Main Street"/>
    <tag k="addr:state" v="VT"/>
    <tag k="ref:vcgi:esiteid" v="26883"/>
  </node>
  <node id="-1213" visible="true" lat="43.99005524" lon="-72.13093975">
    <tag k="addr:housenumber" v="246"/>
    <tag k="addr:street" v="South Main Street"/>
    <tag k="addr:state" v="VT"/>
    <tag k="ref:vcgi:esiteid" v="26885"/>
  </node>
  <node id="-1214" visible="true" lat="43.98917384" lon="-72.13240548">
    <tag k="addr:housenumber" v="366"/>
    <tag k="addr:street" v="South Main Street"/>
    <tag k="addr:state" v="VT"/>
    <tag k="ref:vcgi:esiteid" v="26886"/>
  </node>
  <node id="-1216" visible="true" lat="43.98867491" lon="-72.13676769">
    <tag k="addr:housenumber" v="50"/>
    <tag k="addr:street" v="Munn Road"/>
    <tag k="addr:state" v="VT"/>
    <tag k="ref:vcgi:esiteid" v="26888"/>
  </node>
  <node id="-1217" visible="true" lat="43.98957866" lon="-72.13148114">
    <tag k="addr:housenumber" v="324"/>
    <tag k="addr:street" v="South Main Street"/>
    <tag k="addr:state" v="VT"/>
    <tag k="ref:vcgi:esiteid" v="26889"/>
  </node>
  <node id="-1218" visible="true" lat="43.99220657" lon="-72.12971496">
    <tag k="addr:housenumber" v="94"/>
    <tag k="addr:street" v="South Main Street"/>
    <tag k="addr:state" v="VT"/>
    <tag k="ref:vcgi:esiteid" v="26890"/>
  </node>
  <node id="-1219" visible="true" lat="43.99202036" lon="-72.12985575">
    <tag k="addr:housenumber" v="108"/>
    <tag k="addr:street" v="South Main Street"/>
    <tag k="addr:state" v="VT"/>
    <tag k="ref:vcgi:esiteid" v="26891"/>
  </node>
  <node id="-1220" visible="true" lat="43.99193549" lon="-72.13029753">
    <tag k="addr:housenumber" v="128"/>
    <tag k="addr:street" v="South Main Street"/>
    <tag k="addr:state" v="VT"/>
    <tag k="ref:vcgi:esiteid" v="26892"/>
  </node>
  <node id="-1221" visible="true" lat="43.99164986" lon="-72.13014513">
    <tag k="addr:housenumber" v="134"/>
    <tag k="addr:street" v="South Main Street"/>
    <tag k="addr:state" v="VT"/>
    <tag k="ref:vcgi:esiteid" v="26893"/>
  </node>
  <node id="-1223" visible="true" lat="43.98876591" lon="-72.13316662">
    <tag k="addr:housenumber" v="408"/>
    <tag k="addr:street" v="South Main Street"/>
    <tag k="addr:state" v="VT"/>
    <tag k="ref:vcgi:esiteid" v="26895"/>
  </node>
  <node id="-1224" visible="true" lat="43.9904002" lon="-72.13078315">
    <tag k="addr:housenumber" v="230"/>
    <tag k="addr:street" v="South Main Street"/>
    <tag k="addr:state" v="VT"/>
    <tag k="ref:vcgi:esiteid" v="26896"/>
  </node>
  <node id="-1226" visible="true" lat="43.98846817" lon="-72.13347625">
    <tag k="addr:housenumber" v="422"/>
    <tag k="addr:street" v="South Main Street"/>
    <tag k="addr:state" v="VT"/>
    <tag k="ref:vcgi:esiteid" v="26898"/>
  </node>
  <node id="-1227" visible="true" lat="43.9881668" lon="-72.1338272">
    <tag k="addr:housenumber" v="464"/>
    <tag k="addr:street" v="South Main Street"/>
    <tag k="addr:state" v="VT"/>
    <tag k="ref:vcgi:esiteid" v="26899"/>
  </node>
  <node id="-1230" visible="true" lat="43.9924081" lon="-72.12963142">
    <tag k="addr:housenumber" v="64"/>
    <tag k="addr:street" v="South Main Street"/>
    <tag k="addr:state" v="VT"/>
    <tag k="ref:vcgi:esiteid" v="26902"/>
  </node>
  <node id="-1231" visible="true" lat="43.99144363" lon="-72.13014984">
    <tag k="addr:housenumber" v="146"/>
    <tag k="addr:street" v="South Main Street"/>
    <tag k="addr:state" v="VT"/>
    <tag k="ref:vcgi:esiteid" v="26903"/>
  </node>
  <node id="-1232" visible="true" lat="43.99028998" lon="-72.13085417">
    <tag k="addr:housenumber" v="234"/>
    <tag k="addr:street" v="South Main Street"/>
    <tag k="addr:state" v="VT"/>
    <tag k="ref:vcgi:esiteid" v="26904"/>
  </node>
  <node id="-1233" visible="true" lat="43.98842492" lon="-72.13089498">
    <tag k="addr:housenumber" v="84"/>
    <tag k="addr:street" v="Maple Street"/>
    <tag k="addr:state" v="VT"/>
    <tag k="ref:vcgi:esiteid" v="26907"/>
  </node>
  <node id="-1234" visible="true" lat="43.9883548" lon="-72.1319052">
    <tag k="addr:housenumber" v="38"/>
    <tag k="addr:street" v="Maple Street"/>
    <tag k="addr:state" v="VT"/>
    <tag k="ref:vcgi:esiteid" v="26908"/>
  </node>
  <node id="-1235" visible="true" lat="43.98829082" lon="-72.131598">
    <tag k="addr:housenumber" v="52"/>
    <tag k="addr:street" v="Maple Street"/>
    <tag k="addr:state" v="VT"/>
    <tag k="ref:vcgi:esiteid" v="26909"/>
  </node>
  <node id="-1236" visible="true" lat="43.98855599" lon="-72.13234805">
    <tag k="addr:housenumber" v="6"/>
    <tag k="addr:street" v="Maple Street"/>
    <tag k="addr:state" v="VT"/>
    <tag k="ref:vcgi:esiteid" v="26910"/>
  </node>
  <node id="-1237" visible="true" lat="43.98829336" lon="-72.13108951">
    <tag k="addr:housenumber" v="74"/>
    <tag k="addr:street" v="Maple Street"/>
    <tag k="addr:state" v="VT"/>
    <tag k="ref:vcgi:esiteid" v="26911"/>
  </node>
  <node id="-1238" visible="true" lat="43.98882675" lon="-72.13205719">
    <tag k="addr:housenumber" v="13"/>
    <tag k="addr:street" v="Maple Street"/>
    <tag k="addr:state" v="VT"/>
    <tag k="ref:vcgi:esiteid" v="26912"/>
  </node>
  <node id="-1239" visible="true" lat="43.98880004" lon="-72.13185119">
    <tag k="addr:housenumber" v="21"/>
    <tag k="addr:street" v="Maple Street"/>
    <tag k="addr:state" v="VT"/>
    <tag k="ref:vcgi:esiteid" v="26913"/>
  </node>
  <node id="-1240" visible="true" lat="43.98863107" lon="-72.13156974">
    <tag k="addr:housenumber" v="37"/>
    <tag k="addr:street" v="Maple Street"/>
    <tag k="addr:state" v="VT"/>
    <tag k="ref:vcgi:esiteid" v="26914"/>
  </node>
  <node id="-1253" visible="true" lat="43.98054229" lon="-72.11339974">
    <tag k="addr:housenumber" v="40"/>
    <tag k="addr:street" v="Waits River Road"/>
    <tag k="addr:state" v="VT"/>
    <tag k="ref:vcgi:esiteid" v="26929"/>
  </node>
  <node id="-1258" visible="true" lat="43.98959753" lon="-72.13459569">
    <tag k="addr:housenumber" v="304"/>
    <tag k="addr:street" v="High Street"/>
    <tag k="addr:state" v="VT"/>
    <tag k="ref:vcgi:esiteid" v="26934"/>
  </node>
  <node id="-1265" visible="true" lat="43.98878353" lon="-72.12740962">
    <tag k="addr:housenumber" v="550"/>
    <tag k="addr:street" v="Plateau Acres"/>
    <tag k="addr:state" v="VT"/>
    <tag k="ref:vcgi:esiteid" v="26941"/>
  </node>
  <node id="-1283" visible="true" lat="43.98871942" lon="-72.12790032">
    <tag k="addr:housenumber" v="542"/>
    <tag k="addr:street" v="Plateau Acres"/>
    <tag k="addr:state" v="VT"/>
    <tag k="ref:vcgi:esiteid" v="26959"/>
  </node>
  <node id="-1284" visible="true" lat="43.98928933" lon="-72.12590351">
    <tag k="addr:housenumber" v="396"/>
    <tag k="addr:street" v="Plateau Acres"/>
    <tag k="addr:state" v="VT"/>
    <tag k="ref:vcgi:esiteid" v="26960"/>
  </node>
  <node id="-1313" visible="true" lat="43.98902993" lon="-72.13423476">
    <tag k="addr:housenumber" v="335"/>
    <tag k="addr:street" v="High Street"/>
    <tag k="addr:state" v="VT"/>
    <tag k="ref:vcgi:esiteid" v="26990"/>
  </node>
  <node id="-1317" visible="true" lat="43.99158989" lon="-72.13104993">
    <tag k="addr:housenumber" v="105"/>
    <tag k="addr:street" v="South Pleasant Street"/>
    <tag k="addr:state" v="VT"/>
    <tag k="ref:vcgi:esiteid" v="26994"/>
  </node>
  <node id="-1324" visible="true" lat="43.97589415" lon="-72.11490104">
    <tag k="addr:housenumber" v="228"/>
    <tag k="addr:street" v="Industrial Drive"/>
    <tag k="addr:state" v="VT"/>
    <tag k="ref:vcgi:esiteid" v="27001"/>
  </node>
  <node id="-1325" visible="true" lat="43.97655833" lon="-72.11503692">
    <tag k="addr:housenumber" v="226"/>
    <tag k="addr:street" v="Industrial Drive"/>
    <tag k="addr:state" v="VT"/>
    <tag k="ref:vcgi:esiteid" v="27002"/>
  </node>
  <node id="-1326" visible="true" lat="43.97519034" lon="-72.11471251">
    <tag k="addr:housenumber" v="330"/>
    <tag k="addr:street" v="Industrial Drive"/>
    <tag k="addr:state" v="VT"/>
    <tag k="ref:vcgi:esiteid" v="27003"/>
  </node>
  <node id="-1358" visible="true" lat="44.05692382" lon="-72.18573254">
    <tag k="addr:housenumber" v="1984"/>
    <tag k="addr:street" v="Flanders Brook Road"/>
    <tag k="addr:state" v="VT"/>
    <tag k="ref:vcgi:esiteid" v="316807"/>
  </node>
  <node id="-1379" visible="true" lat="44.05954994" lon="-72.1882481">
    <tag k="addr:housenumber" v="44"/>
    <tag k="addr:street" v="Stevens Hill Road"/>
    <tag k="addr:state" v="VT"/>
    <tag k="ref:vcgi:esiteid" v="338011"/>
  </node>
  <node id="-1398" visible="true" lat="43.98902918" lon="-72.1231207">
    <tag k="addr:housenumber" v="23"/>
    <tag k="addr:street" v="Carson Lane"/>
    <tag k="addr:state" v="VT"/>
    <tag k="ref:vcgi:esiteid" v="345587"/>
  </node>
  <node id="-1399" visible="true" lat="43.98603999" lon="-72.12854762">
    <tag k="addr:housenumber" v="210"/>
    <tag k="addr:street" v="Plateau Acres"/>
    <tag k="addr:state" v="VT"/>
    <tag k="ref:vcgi:esiteid" v="345857"/>
  </node>
  <node id="-1405" visible="true" lat="43.98547752" lon="-72.12141921">
    <tag k="addr:housenumber" v="52"/>
    <tag k="addr:street" v="Garden Lane"/>
    <tag k="addr:state" v="VT"/>
    <tag k="ref:vcgi:esiteid" v="445920"/>
  </node>
  <node id="-1410" visible="true" lat="43.98435261" lon="-72.12292455">
    <tag k="addr:housenumber" v="586"/>
    <tag k="addr:street" v="Lower Plain"/>
    <tag k="addr:state" v="VT"/>
    <tag k="ref:vcgi:esiteid" v="448132"/>
  </node>
</osm>
