<?xml version="1.0" encoding="UTF-8"?>
<osm version="0.6" generator="JOSM" upload="false">
  <node id="-105" visible="true" lat="44.01805057" lon="-72.71353055">
    <tag k="addr:housenumber" v="859"/>
    <tag k="addr:street" v="Bover Road"/>
    <tag k="addr:state" v="VT"/>
    <tag k="ref:vcgi:esiteid" v="27019"/>
  </node>
  <node id="-110" visible="true" lat="44.01449586" lon="-72.72652144">
    <tag k="addr:housenumber" v="130"/>
    <tag k="addr:street" v="Bover Road"/>
    <tag k="addr:state" v="VT"/>
    <tag k="ref:vcgi:esiteid" v="27024"/>
  </node>
  <node id="-112" visible="true" lat="44.01448894" lon="-72.68994607">
    <tag k="addr:housenumber" v="733"/>
    <tag k="addr:street" v="Bouvant Road"/>
    <tag k="addr:state" v="VT"/>
    <tag k="ref:vcgi:esiteid" v="27026"/>
  </node>
  <node id="-248" visible="true" lat="43.98627073" lon="-72.75320996">
    <tag k="addr:housenumber" v="6303"/>
    <tag k="addr:street" v="Vermont Route 12A"/>
    <tag k="addr:state" v="VT"/>
    <tag k="ref:vcgi:esiteid" v="27166"/>
  </node>
  <node id="-252" visible="true" lat="43.98501362" lon="-72.75255225">
    <tag k="addr:housenumber" v="6218"/>
    <tag k="addr:street" v="Vermont Route 12A"/>
    <tag k="addr:state" v="VT"/>
    <tag k="ref:vcgi:esiteid" v="27170"/>
  </node>
  <node id="-253" visible="true" lat="43.98464667" lon="-72.75250644">
    <tag k="addr:housenumber" v="6196"/>
    <tag k="addr:street" v="Vermont Route 12A"/>
    <tag k="addr:state" v="VT"/>
    <tag k="ref:vcgi:esiteid" v="27172"/>
  </node>
  <node id="-255" visible="true" lat="43.98464107" lon="-72.7531749">
    <tag k="addr:housenumber" v="6190"/>
    <tag k="addr:street" v="Vermont Route 12A"/>
    <tag k="addr:state" v="VT"/>
    <tag k="ref:vcgi:esiteid" v="27174"/>
  </node>
  <node id="-262" visible="true" lat="43.98373006" lon="-72.75276928">
    <tag k="addr:housenumber" v="6133"/>
    <tag k="addr:street" v="Vermont Route 12A"/>
    <tag k="addr:state" v="VT"/>
    <tag k="ref:vcgi:esiteid" v="27181"/>
  </node>
  <node id="-277" visible="true" lat="43.97951832" lon="-72.75067363">
    <tag k="addr:housenumber" v="5837"/>
    <tag k="addr:street" v="Vermont Route 12A"/>
    <tag k="addr:state" v="VT"/>
    <tag k="ref:vcgi:esiteid" v="27196"/>
  </node>
  <node id="-294" visible="true" lat="43.97716704" lon="-72.74935887">
    <tag k="addr:housenumber" v="5650"/>
    <tag k="addr:street" v="Vermont Route 12A"/>
    <tag k="addr:state" v="VT"/>
    <tag k="ref:vcgi:esiteid" v="27213"/>
  </node>
  <node id="-297" visible="true" lat="43.97672486" lon="-72.74931704">
    <tag k="addr:housenumber" v="5620"/>
    <tag k="addr:street" v="Vermont Route 12A"/>
    <tag k="addr:state" v="VT"/>
    <tag k="ref:vcgi:esiteid" v="27216"/>
  </node>
  <node id="-299" visible="true" lat="43.97637678" lon="-72.74908278">
    <tag k="addr:housenumber" v="5592"/>
    <tag k="addr:street" v="Vermont Route 12A"/>
    <tag k="addr:state" v="VT"/>
    <tag k="ref:vcgi:esiteid" v="27218"/>
  </node>
  <node id="-300" visible="true" lat="43.9762108" lon="-72.75055782">
    <tag k="addr:housenumber" v="5581"/>
    <tag k="addr:street" v="Vermont Route 12A"/>
    <tag k="addr:state" v="VT"/>
    <tag k="ref:vcgi:esiteid" v="27219"/>
  </node>
  <node id="-301" visible="true" lat="43.97588866" lon="-72.74978426">
    <tag k="addr:housenumber" v="5545"/>
    <tag k="addr:street" v="Vermont Route 12A"/>
    <tag k="addr:state" v="VT"/>
    <tag k="ref:vcgi:esiteid" v="27220"/>
  </node>
  <node id="-302" visible="true" lat="43.97578924" lon="-72.74912322">
    <tag k="addr:housenumber" v="5560"/>
    <tag k="addr:street" v="Vermont Route 12A"/>
    <tag k="addr:state" v="VT"/>
    <tag k="ref:vcgi:esiteid" v="27221"/>
  </node>
  <node id="-306" visible="true" lat="43.97544667" lon="-72.74894736">
    <tag k="addr:housenumber" v="5532"/>
    <tag k="addr:street" v="Vermont Route 12A"/>
    <tag k="addr:state" v="VT"/>
    <tag k="ref:vcgi:esiteid" v="27225"/>
  </node>
  <node id="-308" visible="true" lat="43.97486318" lon="-72.74972092">
    <tag k="addr:housenumber" v="5509"/>
    <tag k="addr:street" v="Vermont Route 12A"/>
    <tag k="addr:state" v="VT"/>
    <tag k="ref:vcgi:esiteid" v="27227"/>
  </node>
  <node id="-311" visible="true" lat="43.9749844" lon="-72.74864673">
    <tag k="addr:housenumber" v="5488"/>
    <tag k="addr:street" v="Vermont Route 12A"/>
    <tag k="addr:state" v="VT"/>
    <tag k="ref:vcgi:esiteid" v="27230"/>
  </node>
  <node id="-323" visible="true" lat="43.97357105" lon="-72.74856265">
    <tag k="addr:housenumber" v="9"/>
    <tag k="addr:street" v="North Road"/>
    <tag k="addr:state" v="VT"/>
    <tag k="ref:vcgi:esiteid" v="27242"/>
  </node>
  <node id="-324" visible="true" lat="43.9736216" lon="-72.74818186">
    <tag k="addr:housenumber" v="29"/>
    <tag k="addr:street" v="North Road"/>
    <tag k="addr:state" v="VT"/>
    <tag k="ref:vcgi:esiteid" v="27243"/>
  </node>
  <node id="-327" visible="true" lat="43.97295065" lon="-72.74689456">
    <tag k="addr:housenumber" v="56"/>
    <tag k="addr:street" v="North Road"/>
    <tag k="addr:state" v="VT"/>
    <tag k="ref:vcgi:esiteid" v="27247"/>
  </node>
  <node id="-328" visible="true" lat="43.9731616" lon="-72.74899578">
    <tag k="addr:housenumber" v="5379"/>
    <tag k="addr:street" v="Vermont Route 12A"/>
    <tag k="addr:state" v="VT"/>
    <tag k="ref:vcgi:esiteid" v="27249"/>
  </node>
  <node id="-329" visible="true" lat="43.97297874" lon="-72.74769491">
    <tag k="addr:housenumber" v="42"/>
    <tag k="addr:street" v="North Road"/>
    <tag k="addr:state" v="VT"/>
    <tag k="ref:vcgi:esiteid" v="27250"/>
  </node>
  <node id="-330" visible="true" lat="43.97296064" lon="-72.74819328">
    <tag k="addr:housenumber" v="5342"/>
    <tag k="addr:street" v="Vermont Route 12A"/>
    <tag k="addr:state" v="VT"/>
    <tag k="ref:vcgi:esiteid" v="27251"/>
  </node>
  <node id="-333" visible="true" lat="43.97268801" lon="-72.74816484">
    <tag k="addr:housenumber" v="5320"/>
    <tag k="addr:street" v="Vermont Route 12A"/>
    <tag k="addr:state" v="VT"/>
    <tag k="ref:vcgi:esiteid" v="27254"/>
  </node>
  <node id="-334" visible="true" lat="43.97272974" lon="-72.7487869">
    <tag k="addr:housenumber" v="5337"/>
    <tag k="addr:street" v="Vermont Route 12A"/>
    <tag k="addr:state" v="VT"/>
    <tag k="ref:vcgi:esiteid" v="27255"/>
  </node>
  <node id="-337" visible="true" lat="43.97217089" lon="-72.7479685">
    <tag k="addr:housenumber" v="5298"/>
    <tag k="addr:street" v="Vermont Route 12A"/>
    <tag k="addr:state" v="VT"/>
    <tag k="ref:vcgi:esiteid" v="27258"/>
  </node>
  <node id="-340" visible="true" lat="43.97191591" lon="-72.74785617">
    <tag k="addr:housenumber" v="5272"/>
    <tag k="addr:street" v="Vermont Route 12A"/>
    <tag k="addr:state" v="VT"/>
    <tag k="ref:vcgi:esiteid" v="27261"/>
  </node>
  <node id="-345" visible="true" lat="43.97121649" lon="-72.74893074">
    <tag k="addr:housenumber" v="5257"/>
    <tag k="addr:street" v="Vermont Route 12A"/>
    <tag k="addr:state" v="VT"/>
    <tag k="ref:vcgi:esiteid" v="27266"/>
  </node>
  <node id="-350" visible="true" lat="43.97128137" lon="-72.74726275">
    <tag k="addr:housenumber" v="5208"/>
    <tag k="addr:street" v="Vermont Route 12A"/>
    <tag k="addr:state" v="VT"/>
    <tag k="ref:vcgi:esiteid" v="27271"/>
  </node>
  <node id="-353" visible="true" lat="43.97103902" lon="-72.74804425">
    <tag k="addr:housenumber" v="5225"/>
    <tag k="addr:street" v="Vermont Route 12A"/>
    <tag k="addr:state" v="VT"/>
    <tag k="ref:vcgi:esiteid" v="27274"/>
  </node>
  <node id="-357" visible="true" lat="43.97067917" lon="-72.74772799">
    <tag k="addr:housenumber" v="5199"/>
    <tag k="addr:street" v="Vermont Route 12A"/>
    <tag k="addr:state" v="VT"/>
    <tag k="ref:vcgi:esiteid" v="27278"/>
  </node>
  <node id="-360" visible="true" lat="43.97038873" lon="-72.74746551">
    <tag k="addr:housenumber" v="5173"/>
    <tag k="addr:street" v="Vermont Route 12A"/>
    <tag k="addr:state" v="VT"/>
    <tag k="ref:vcgi:esiteid" v="27281"/>
  </node>
  <node id="-375" visible="true" lat="43.96924142" lon="-72.68810686">
    <tag k="addr:housenumber" v="2756"/>
    <tag k="addr:street" v="Braintree Hill Road"/>
    <tag k="addr:state" v="VT"/>
    <tag k="ref:vcgi:esiteid" v="27296"/>
  </node>
  <node id="-432" visible="true" lat="43.95573761" lon="-72.72237787">
    <tag k="addr:housenumber" v="66"/>
    <tag k="addr:street" v="Bent Hill Road"/>
    <tag k="addr:state" v="VT"/>
    <tag k="ref:vcgi:esiteid" v="27355"/>
  </node>
  <node id="-653" visible="true" lat="43.93050163" lon="-72.70110755">
    <!-- match: "354 Mobile Acres Road, , VT"  ignoring missing state when matching to "354 Mobile Acres Road, , " -->
    <tag k="addr:housenumber" v="354"/>
    <tag k="addr:street" v="Mobile Acres Road"/>
    <tag k="addr:state" v="VT"/>
    <tag k="ref:vcgi:esiteid" v="27585"/>
  </node>
  <node id="-699" visible="true" lat="43.97536591" lon="-72.75013174">
    <tag k="addr:housenumber" v="5531"/>
    <tag k="addr:street" v="Vermont Route 12A"/>
    <tag k="addr:state" v="VT"/>
    <tag k="ref:vcgi:esiteid" v="27632"/>
  </node>
  <node id="-700" visible="true" lat="43.97161421" lon="-72.74854942">
    <tag k="addr:housenumber" v="5259"/>
    <tag k="addr:street" v="Vermont Route 12A"/>
    <tag k="addr:state" v="VT"/>
    <tag k="ref:vcgi:esiteid" v="27633"/>
  </node>
  <node id="-726" visible="true" lat="43.98326504" lon="-72.75267096">
    <tag k="addr:housenumber" v="6105"/>
    <tag k="addr:street" v="Vermont Route 12A"/>
    <tag k="addr:state" v="VT"/>
    <tag k="ref:vcgi:esiteid" v="27662"/>
  </node>
  <node id="-732" visible="true" lat="43.97447334" lon="-72.74962251">
    <tag k="addr:housenumber" v="5477"/>
    <tag k="addr:street" v="Vermont Route 12A"/>
    <tag k="addr:state" v="VT"/>
    <tag k="ref:vcgi:esiteid" v="27668"/>
  </node>
  <node id="-765" visible="true" lat="43.97232376" lon="-72.7462917">
    <tag k="addr:housenumber" v="55"/>
    <tag k="addr:street" v="North Road"/>
    <tag k="addr:state" v="VT"/>
    <tag k="ref:vcgi:esiteid" v="27706"/>
  </node>
  <node id="-766" visible="true" lat="43.97068477" lon="-72.74895751">
    <tag k="addr:housenumber" v="5227"/>
    <tag k="addr:street" v="Vermont Route 12A"/>
    <tag k="addr:state" v="VT"/>
    <tag k="ref:vcgi:esiteid" v="27707"/>
  </node>
  <node id="-1364" visible="true" lat="43.94384461" lon="-72.75047847">
    <!-- match: "2576 Riford Brook Road, , VT"  ignoring missing state when matching to "2576 Riford Brook Road, , " -->
    <tag k="addr:housenumber" v="2576"/>
    <tag k="addr:street" v="Riford Brook Road"/>
    <tag k="addr:state" v="VT"/>
    <tag k="ref:vcgi:esiteid" v="1050051"/>
  </node>
</osm>
