<?xml version="1.0" encoding="UTF-8"?>
<osm version="0.6" generator="JOSM">
  <node id="-102" visible="true" lat="43.8451408" lon="-73.03135645">
    <tag k="addr:city" v="Brandon"/>
    <tag k="addr:housenumber" v="103"/>
    <tag k="addr:street" v="Fay Road"/>
    <tag k="addr:state" v="VT"/>
    <tag k="ref:vcgi:esiteid" v="27710"/>
  </node>
  <node id="-406" visible="true" lat="43.82705813" lon="-73.0528433">
    <tag k="addr:city" v="Brandon"/>
    <tag k="addr:housenumber" v="2265"/>
    <tag k="addr:street" v="Forest Dale Road"/>
    <tag k="addr:state" v="VT"/>
    <tag k="ref:vcgi:esiteid" v="28045"/>
  </node>
  <node id="-871" visible="true" lat="43.80220309" lon="-73.09537768">
    <tag k="addr:city" v="Brandon"/>
    <tag k="addr:housenumber" v="27"/>
    <tag k="addr:street" v="Grove Street"/>
    <tag k="addr:state" v="VT"/>
    <tag k="ref:vcgi:esiteid" v="28565"/>
  </node>
  <node id="-877" visible="true" lat="43.80197068" lon="-73.09511328">
    <tag k="addr:city" v="Brandon"/>
    <tag k="addr:housenumber" v="25"/>
    <tag k="addr:street" v="Grove Street"/>
    <tag k="addr:state" v="VT"/>
    <tag k="ref:vcgi:esiteid" v="28571"/>
  </node>
  <node id="-882" visible="true" lat="43.80191038" lon="-73.09577791">
    <tag k="addr:city" v="Brandon"/>
    <tag k="addr:housenumber" v="28"/>
    <tag k="addr:street" v="Grove Street"/>
    <tag k="addr:state" v="VT"/>
    <tag k="ref:vcgi:esiteid" v="28578"/>
  </node>
  <node id="-884" visible="true" lat="43.80186158" lon="-73.09460596">
    <tag k="addr:city" v="Brandon"/>
    <tag k="addr:housenumber" v="20"/>
    <tag k="addr:street" v="Farr Way"/>
    <tag k="addr:state" v="VT"/>
    <tag k="ref:vcgi:esiteid" v="28581"/>
  </node>
  <node id="-889" visible="true" lat="43.80178485" lon="-73.09564606">
    <tag k="addr:city" v="Brandon"/>
    <tag k="addr:housenumber" v="26"/>
    <tag k="addr:street" v="Grove Street"/>
    <tag k="addr:state" v="VT"/>
    <tag k="ref:vcgi:esiteid" v="28586"/>
  </node>
  <node id="-890" visible="true" lat="43.80167418" lon="-73.09481814">
    <tag k="addr:city" v="Brandon"/>
    <tag k="addr:housenumber" v="18"/>
    <tag k="addr:street" v="Farr Way"/>
    <tag k="addr:state" v="VT"/>
    <tag k="ref:vcgi:esiteid" v="28587"/>
  </node>
  <node id="-893" visible="true" lat="43.80163856" lon="-73.09556203">
    <tag k="addr:city" v="Brandon"/>
    <tag k="addr:housenumber" v="24"/>
    <tag k="addr:street" v="Grove Street"/>
    <tag k="addr:state" v="VT"/>
    <tag k="ref:vcgi:esiteid" v="28590"/>
  </node>
  <node id="-899" visible="true" lat="43.80146022" lon="-73.09540005">
    <tag k="addr:city" v="Brandon"/>
    <tag k="addr:housenumber" v="22"/>
    <tag k="addr:street" v="Grove Street"/>
    <tag k="addr:state" v="VT"/>
    <tag k="ref:vcgi:esiteid" v="28597"/>
  </node>
  <node id="-906" visible="true" lat="43.80131912" lon="-73.09521484">
    <tag k="addr:city" v="Brandon"/>
    <tag k="addr:housenumber" v="18"/>
    <tag k="addr:street" v="Grove Street"/>
    <tag k="addr:state" v="VT"/>
    <tag k="ref:vcgi:esiteid" v="28604"/>
  </node>
  <node id="-909" visible="true" lat="43.80109311" lon="-73.0941551">
    <tag k="addr:city" v="Brandon"/>
    <tag k="addr:housenumber" v="11"/>
    <tag k="addr:street" v="Grove Street"/>
    <tag k="addr:state" v="VT"/>
    <tag k="ref:vcgi:esiteid" v="28608"/>
  </node>
  <node id="-910" visible="true" lat="43.80124094" lon="-73.09515896">
    <tag k="addr:city" v="Brandon"/>
    <tag k="addr:housenumber" v="16"/>
    <tag k="addr:street" v="Grove Street"/>
    <tag k="addr:state" v="VT"/>
    <tag k="ref:vcgi:esiteid" v="28609"/>
  </node>
  <node id="-911" visible="true" lat="43.80137771" lon="-73.09449411">
    <tag k="addr:city" v="Brandon"/>
    <tag k="addr:housenumber" v="13"/>
    <tag k="addr:street" v="Grove Street"/>
    <tag k="addr:state" v="VT"/>
    <tag k="ref:vcgi:esiteid" v="28610"/>
  </node>
  <node id="-915" visible="true" lat="43.80111501" lon="-73.0950046">
    <tag k="addr:city" v="Brandon"/>
    <tag k="addr:housenumber" v="14"/>
    <tag k="addr:street" v="Grove Street"/>
    <tag k="addr:state" v="VT"/>
    <tag k="ref:vcgi:esiteid" v="28615"/>
  </node>
  <node id="-922" visible="true" lat="43.80092425" lon="-73.09484007">
    <tag k="addr:city" v="Brandon"/>
    <tag k="addr:housenumber" v="10"/>
    <tag k="addr:street" v="Grove Street"/>
    <tag k="addr:state" v="VT"/>
    <tag k="ref:vcgi:esiteid" v="28623"/>
  </node>
  <node id="-923" visible="true" lat="43.801248" lon="-73.09365402">
    <tag k="addr:city" v="Brandon"/>
    <tag k="addr:housenumber" v="9"/>
    <tag k="addr:street" v="Grove Street"/>
    <tag k="addr:state" v="VT"/>
    <tag k="ref:vcgi:esiteid" v="28624"/>
  </node>
  <node id="-927" visible="true" lat="43.80077759" lon="-73.09476273">
    <tag k="addr:city" v="Brandon"/>
    <tag k="addr:housenumber" v="8"/>
    <tag k="addr:street" v="Grove Street"/>
    <tag k="addr:state" v="VT"/>
    <tag k="ref:vcgi:esiteid" v="28631"/>
  </node>
  <node id="-929" visible="true" lat="43.80096872" lon="-73.09391863">
    <tag k="addr:city" v="Brandon"/>
    <tag k="addr:housenumber" v="7"/>
    <tag k="addr:street" v="Grove Street"/>
    <tag k="addr:state" v="VT"/>
    <tag k="ref:vcgi:esiteid" v="28633"/>
  </node>
  <node id="-931" visible="true" lat="43.80078887" lon="-73.09355163">
    <tag k="addr:city" v="Brandon"/>
    <tag k="addr:housenumber" v="3"/>
    <tag k="addr:street" v="Grove Street"/>
    <tag k="addr:state" v="VT"/>
    <tag k="ref:vcgi:esiteid" v="28635"/>
  </node>
  <node id="-932" visible="true" lat="43.80093412" lon="-73.09143859">
    <tag k="addr:city" v="Brandon"/>
    <tag k="addr:housenumber" v="106"/>
    <tag k="addr:street" v="Prospect Street"/>
    <tag k="addr:state" v="VT"/>
    <tag k="ref:vcgi:esiteid" v="28636"/>
  </node>
  <node id="-934" visible="true" lat="43.80065747" lon="-73.09071477">
    <tag k="addr:city" v="Brandon"/>
    <tag k="addr:housenumber" v="44"/>
    <tag k="addr:street" v="Prospect Street"/>
    <tag k="addr:state" v="VT"/>
    <tag k="ref:vcgi:esiteid" v="28638"/>
  </node>
  <node id="-935" visible="true" lat="43.80073428" lon="-73.09375245">
    <tag k="addr:city" v="Brandon"/>
    <tag k="addr:housenumber" v="1"/>
    <tag k="addr:street" v="Grove Street"/>
    <tag k="addr:state" v="VT"/>
    <tag k="ref:vcgi:esiteid" v="28639"/>
  </node>
  <node id="-938" visible="true" lat="43.80063646" lon="-73.09456531">
    <tag k="addr:city" v="Brandon"/>
    <tag k="addr:housenumber" v="6"/>
    <tag k="addr:street" v="Grove Street"/>
    <tag k="addr:state" v="VT"/>
    <tag k="ref:vcgi:esiteid" v="28642"/>
  </node>
  <node id="-940" visible="true" lat="43.80052566" lon="-73.08851623">
    <tag k="addr:city" v="Brandon"/>
    <tag k="addr:housenumber" v="8"/>
    <tag k="addr:street" v="West Seminary Street"/>
    <tag k="addr:state" v="VT"/>
    <tag k="ref:vcgi:esiteid" v="28644"/>
  </node>
  <node id="-942" visible="true" lat="43.80046844" lon="-73.09033966">
    <tag k="addr:city" v="Brandon"/>
    <tag k="addr:housenumber" v="41"/>
    <tag k="addr:street" v="Prospect Street"/>
    <tag k="addr:state" v="VT"/>
    <tag k="ref:vcgi:esiteid" v="28646"/>
  </node>
  <node id="-945" visible="true" lat="43.80049984" lon="-73.09345159">
    <tag k="addr:city" v="Brandon"/>
    <tag k="addr:housenumber" v="45"/>
    <tag k="addr:street" v="Conant Square"/>
    <tag k="addr:state" v="VT"/>
    <tag k="ref:vcgi:esiteid" v="28649"/>
  </node>
  <node id="-949" visible="true" lat="43.80039117" lon="-73.08869496">
    <tag k="addr:city" v="Brandon"/>
    <tag k="addr:housenumber" v="6"/>
    <tag k="addr:street" v="West Seminary Street"/>
    <tag k="addr:state" v="VT"/>
    <tag k="ref:vcgi:esiteid" v="28653"/>
  </node>
  <node id="-950" visible="true" lat="43.80040115" lon="-73.09323786">
    <tag k="addr:city" v="Brandon"/>
    <tag k="addr:housenumber" v="43"/>
    <tag k="addr:street" v="Conant Square"/>
    <tag k="addr:state" v="VT"/>
    <tag k="ref:vcgi:esiteid" v="28654"/>
  </node>
  <node id="-953" visible="true" lat="43.80037759" lon="-73.09297203">
    <tag k="addr:city" v="Brandon"/>
    <tag k="addr:housenumber" v="41"/>
    <tag k="addr:street" v="Conant Square"/>
    <tag k="addr:state" v="VT"/>
    <tag k="ref:vcgi:esiteid" v="28657"/>
  </node>
  <node id="-955" visible="true" lat="43.80023491" lon="-73.09216676">
    <tag k="addr:city" v="Brandon"/>
    <tag k="addr:housenumber" v="29"/>
    <tag k="addr:street" v="Conant Square"/>
    <tag k="addr:state" v="VT"/>
    <tag k="ref:vcgi:esiteid" v="28659"/>
  </node>
  <node id="-959" visible="true" lat="43.80026626" lon="-73.08867645">
    <tag k="addr:city" v="Brandon"/>
    <tag k="addr:housenumber" v="4"/>
    <tag k="addr:street" v="West Seminary Street"/>
    <tag k="addr:state" v="VT"/>
    <tag k="ref:vcgi:esiteid" v="28663"/>
  </node>
  <node id="-963" visible="true" lat="43.800214" lon="-73.09182659">
    <tag k="addr:city" v="Brandon"/>
    <tag k="addr:housenumber" v="27"/>
    <tag k="addr:street" v="Conant Square"/>
    <tag k="addr:state" v="VT"/>
    <tag k="ref:vcgi:esiteid" v="28668"/>
  </node>
  <node id="-967" visible="true" lat="43.80016304" lon="-73.09126687">
    <tag k="addr:city" v="Brandon"/>
    <tag k="addr:housenumber" v="23"/>
    <tag k="addr:street" v="Conant Square"/>
    <tag k="addr:state" v="VT"/>
    <tag k="ref:vcgi:esiteid" v="28672"/>
  </node>
  <node id="-970" visible="true" lat="43.80013552" lon="-73.0907813">
    <tag k="addr:city" v="Brandon"/>
    <tag k="addr:housenumber" v="21"/>
    <tag k="addr:street" v="Conant Square"/>
    <tag k="addr:state" v="VT"/>
    <tag k="ref:vcgi:esiteid" v="28676"/>
  </node>
  <node id="-973" visible="true" lat="43.80018386" lon="-73.09031398">
    <tag k="addr:city" v="Brandon"/>
    <tag k="addr:housenumber" v="15"/>
    <tag k="addr:street" v="Conant Square"/>
    <tag k="addr:state" v="VT"/>
    <tag k="ref:vcgi:esiteid" v="28679"/>
  </node>
  <node id="-975" visible="true" lat="43.80007186" lon="-73.0888237">
    <tag k="addr:city" v="Brandon"/>
    <tag k="addr:housenumber" v="2"/>
    <tag k="addr:street" v="West Seminary Street"/>
    <tag k="addr:state" v="VT"/>
    <tag k="ref:vcgi:esiteid" v="28681"/>
  </node>
  <node id="-976" visible="true" lat="43.80025162" lon="-73.08980658">
    <tag k="addr:city" v="Brandon"/>
    <tag k="addr:housenumber" v="9"/>
    <tag k="addr:street" v="Conant Square"/>
    <tag k="addr:state" v="VT"/>
    <tag k="ref:vcgi:esiteid" v="28682"/>
  </node>
  <node id="-979" visible="true" lat="43.80006181" lon="-73.08904847">
    <tag k="addr:city" v="Brandon"/>
    <tag k="addr:housenumber" v="1"/>
    <tag k="addr:street" v="Conant Square"/>
    <tag k="addr:state" v="VT"/>
    <tag k="ref:vcgi:esiteid" v="28685"/>
  </node>
  <node id="-980" visible="true" lat="43.80001979" lon="-73.08943652">
    <tag k="addr:city" v="Brandon"/>
    <tag k="addr:housenumber" v="3"/>
    <tag k="addr:street" v="Conant Square"/>
    <tag k="addr:state" v="VT"/>
    <tag k="ref:vcgi:esiteid" v="28686"/>
  </node>
  <node id="-994" visible="true" lat="43.79980854" lon="-73.08846737">
    <tag k="addr:city" v="Brandon"/>
    <tag k="addr:housenumber" v="3"/>
    <tag k="addr:street" v="West Seminary Street"/>
    <tag k="addr:state" v="VT"/>
    <tag k="ref:vcgi:esiteid" v="28703"/>
  </node>
  <node id="-1003" visible="true" lat="43.79963715" lon="-73.09116929">
    <tag k="addr:city" v="Brandon"/>
    <tag k="addr:housenumber" v="24"/>
    <tag k="addr:street" v="Conant Square"/>
    <tag k="addr:state" v="VT"/>
    <tag k="ref:vcgi:esiteid" v="28713"/>
  </node>
  <node id="-1006" visible="true" lat="43.79963896" lon="-73.0916506">
    <tag k="addr:city" v="Brandon"/>
    <tag k="addr:housenumber" v="28"/>
    <tag k="addr:street" v="Conant Square"/>
    <tag k="addr:state" v="VT"/>
    <tag k="ref:vcgi:esiteid" v="28716"/>
  </node>
  <node id="-1007" visible="true" lat="43.79962952" lon="-73.09001816">
    <tag k="addr:city" v="Brandon"/>
    <tag k="addr:housenumber" v="8"/>
    <tag k="addr:street" v="Conant Square"/>
    <tag k="addr:state" v="VT"/>
    <tag k="ref:vcgi:esiteid" v="28717"/>
  </node>
  <node id="-1009" visible="true" lat="43.79956817" lon="-73.09075164">
    <tag k="addr:city" v="Brandon"/>
    <tag k="addr:housenumber" v="20"/>
    <tag k="addr:street" v="Conant Square"/>
    <tag k="addr:state" v="VT"/>
    <tag k="ref:vcgi:esiteid" v="28719"/>
  </node>
  <node id="-1013" visible="true" lat="43.7996046" lon="-73.09200704">
    <tag k="addr:city" v="Brandon"/>
    <tag k="addr:housenumber" v="30"/>
    <tag k="addr:street" v="Conant Square"/>
    <tag k="addr:state" v="VT"/>
    <tag k="ref:vcgi:esiteid" v="28723"/>
  </node>
  <node id="-1014" visible="true" lat="43.7994933" lon="-73.09036281">
    <tag k="addr:city" v="Brandon"/>
    <tag k="addr:housenumber" v="3"/>
    <tag k="addr:street" v="Briggs Lane"/>
    <tag k="addr:state" v="VT"/>
    <tag k="ref:vcgi:esiteid" v="28724"/>
  </node>
  <node id="-1016" visible="true" lat="43.7995237" lon="-73.08854155">
    <tag k="addr:city" v="Brandon"/>
    <tag k="addr:housenumber" v="37"/>
    <tag k="addr:street" v="Center Street"/>
    <tag k="addr:state" v="VT"/>
    <tag k="ref:vcgi:esiteid" v="28726"/>
  </node>
  <node id="-1021" visible="true" lat="43.79927825" lon="-73.09037017">
    <tag k="addr:city" v="Brandon"/>
    <tag k="addr:housenumber" v="5"/>
    <tag k="addr:street" v="Briggs Lane"/>
    <tag k="addr:state" v="VT"/>
    <tag k="ref:vcgi:esiteid" v="28731"/>
  </node>
  <node id="-1053" visible="true" lat="43.79881067" lon="-73.08827266">
    <tag k="addr:city" v="Brandon"/>
    <tag k="addr:housenumber" v="11"/>
    <tag k="addr:street" v="Center Street"/>
    <tag k="addr:state" v="VT"/>
    <tag k="ref:vcgi:esiteid" v="28769"/>
  </node>
  <node id="-1074" visible="true" lat="43.79860518" lon="-73.08820313">
    <tag k="addr:city" v="Brandon"/>
    <tag k="addr:housenumber" v="7"/>
    <tag k="addr:street" v="Center Street"/>
    <tag k="addr:state" v="VT"/>
    <tag k="ref:vcgi:esiteid" v="28796"/>
  </node>
  <node id="-1489" visible="true" lat="43.78024616" lon="-73.13871636">
    <tag k="addr:city" v="Brandon"/>
    <tag k="addr:housenumber" v="751"/>
    <tag k="addr:street" v="Marshall Phillips Road"/>
    <tag k="addr:state" v="VT"/>
    <tag k="ref:vcgi:esiteid" v="29251"/>
  </node>
  <node id="-1494" visible="true" lat="43.77904566" lon="-73.05880608">
    <tag k="addr:city" v="Brandon"/>
    <tag k="addr:housenumber" v="2095"/>
    <tag k="addr:street" v="Franklin Street"/>
    <tag k="addr:state" v="VT"/>
    <tag k="ref:vcgi:esiteid" v="29256"/>
  </node>
  <node id="-1630" visible="true" lat="43.79828324" lon="-73.08032908">
    <tag k="addr:city" v="Brandon"/>
    <tag k="addr:housenumber" v="1"/>
    <tag k="addr:street" v="High Street"/>
    <tag k="addr:state" v="VT"/>
    <tag k="ref:vcgi:esiteid" v="29398"/>
  </node>
  <node id="-1667" visible="true" lat="43.79907452" lon="-73.08937998">
    <tag k="addr:city" v="Brandon"/>
    <tag k="addr:housenumber" v="3"/>
    <tag k="addr:street" v="Mill Lane"/>
    <tag k="addr:state" v="VT"/>
    <tag k="ref:vcgi:esiteid" v="29440"/>
  </node>
  <node id="-1700" visible="true" lat="43.79368672" lon="-73.07994428">
    <tag k="addr:city" v="Brandon"/>
    <tag k="addr:housenumber" v="61"/>
    <tag k="addr:street" v="Franklin Street"/>
    <tag k="addr:state" v="VT"/>
    <tag k="ref:vcgi:esiteid" v="29475"/>
  </node>
  <node id="-1816" visible="true" lat="43.79845174" lon="-73.08770566">
    <tag k="addr:city" v="Brandon"/>
    <tag k="addr:housenumber" v="10"/>
    <tag k="addr:street" v="Park Street"/>
    <tag k="addr:state" v="VT"/>
    <tag k="ref:vcgi:esiteid" v="29597"/>
  </node>
  <node id="-1821" visible="true" lat="43.79954344" lon="-73.08857985">
    <tag k="addr:city" v="Brandon"/>
    <tag k="addr:housenumber" v="39"/>
    <tag k="addr:street" v="Center Street"/>
    <tag k="addr:state" v="VT"/>
    <tag k="ref:vcgi:esiteid" v="29602"/>
  </node>
  <node id="-1823" visible="true" lat="43.79959033" lon="-73.08872583">
    <tag k="addr:city" v="Brandon"/>
    <tag k="addr:housenumber" v="43"/>
    <tag k="addr:street" v="Center Street"/>
    <tag k="addr:state" v="VT"/>
    <tag k="ref:vcgi:esiteid" v="29604"/>
  </node>
  <node id="-1824" visible="true" lat="43.79960918" lon="-73.08881087">
    <tag k="addr:city" v="Brandon"/>
    <tag k="addr:housenumber" v="47"/>
    <tag k="addr:street" v="Center Street"/>
    <tag k="addr:state" v="VT"/>
    <tag k="ref:vcgi:esiteid" v="29605"/>
  </node>
  <node id="-1853" visible="true" lat="43.80024767" lon="-73.09225398">
    <tag k="addr:city" v="Brandon"/>
    <tag k="addr:housenumber" v="31"/>
    <tag k="addr:street" v="Conant Square"/>
    <tag k="addr:state" v="VT"/>
    <tag k="ref:vcgi:esiteid" v="29634"/>
  </node>
  <node id="-1854" visible="true" lat="43.80025307" lon="-73.09234315">
    <tag k="addr:city" v="Brandon"/>
    <tag k="addr:housenumber" v="33"/>
    <tag k="addr:street" v="Conant Square"/>
    <tag k="addr:state" v="VT"/>
    <tag k="ref:vcgi:esiteid" v="29635"/>
  </node>
  <node id="-1855" visible="true" lat="43.80025772" lon="-73.09240234">
    <tag k="addr:city" v="Brandon"/>
    <tag k="addr:housenumber" v="35"/>
    <tag k="addr:street" v="Conant Square"/>
    <tag k="addr:state" v="VT"/>
    <tag k="ref:vcgi:esiteid" v="29636"/>
  </node>
  <node id="-1954" visible="true" lat="43.81554545" lon="-73.11657473">
    <tag k="addr:city" v="Brandon"/>
    <tag k="addr:housenumber" v="188"/>
    <tag k="addr:street" v="Robert Wood Drive"/>
    <tag k="addr:state" v="VT"/>
    <tag k="ref:vcgi:esiteid" v="611143"/>
  </node>
  <node id="-1981" visible="true" lat="43.79802939" lon="-73.08562756">
    <tag k="addr:city" v="Brandon"/>
    <tag k="addr:housenumber" v="4"/>
    <tag k="addr:street" v="Franklin Street"/>
    <tag k="addr:state" v="VT"/>
    <tag k="ref:vcgi:esiteid" v="700125"/>
  </node>
</osm>
