<?xml version="1.0" encoding="UTF-8"?>
<osm version="0.6" generator="JOSM">
  <node id="-116" visible="true" lat="42.8942745" lon="-72.54035898">
    <tag k="addr:city" v="Brattleboro"/>
    <tag k="addr:housenumber" v="327"/>
    <tag k="addr:street" v="Old Ferry Road"/>
    <tag k="addr:state" v="VT"/>
    <tag k="ref:vcgi:esiteid" v="29663"/>
  </node>
  <node id="-117" visible="true" lat="42.89418999" lon="-72.5415">
    <tag k="addr:city" v="Brattleboro"/>
    <tag k="addr:housenumber" v="239"/>
    <tag k="addr:street" v="Old Ferry Road"/>
    <tag k="addr:state" v="VT"/>
    <tag k="ref:vcgi:esiteid" v="29664"/>
  </node>
  <node id="-118" visible="true" lat="42.89421326" lon="-72.53894743">
    <tag k="addr:city" v="Brattleboro"/>
    <tag k="addr:housenumber" v="329"/>
    <tag k="addr:street" v="Old Ferry Road"/>
    <tag k="addr:state" v="VT"/>
    <tag k="ref:vcgi:esiteid" v="29665"/>
  </node>
  <node id="-120" visible="true" lat="42.89369999" lon="-72.54391">
    <tag k="addr:city" v="Brattleboro"/>
    <tag k="addr:housenumber" v="185"/>
    <tag k="addr:street" v="Old Ferry Road"/>
    <tag k="addr:state" v="VT"/>
    <tag k="ref:vcgi:esiteid" v="29667"/>
  </node>
  <node id="-121" visible="true" lat="42.89319999" lon="-72.54343">
    <tag k="addr:city" v="Brattleboro"/>
    <tag k="addr:housenumber" v="24"/>
    <tag k="addr:street" v="Glen Orne Drive"/>
    <tag k="addr:state" v="VT"/>
    <tag k="ref:vcgi:esiteid" v="29668"/>
  </node>
  <node id="-129" visible="true" lat="42.89190229" lon="-72.54325808">
    <tag k="addr:city" v="Brattleboro"/>
    <tag k="addr:housenumber" v="76"/>
    <tag k="addr:street" v="Glen Orne Drive"/>
    <tag k="addr:state" v="VT"/>
    <tag k="ref:vcgi:esiteid" v="29676"/>
  </node>
  <node id="-131" visible="true" lat="42.89157" lon="-72.54484">
    <tag k="addr:city" v="Brattleboro"/>
    <tag k="addr:housenumber" v="89"/>
    <tag k="addr:street" v="Glen Orne Drive"/>
    <tag k="addr:state" v="VT"/>
    <tag k="ref:vcgi:esiteid" v="29678"/>
  </node>
  <node id="-133" visible="true" lat="42.89108158" lon="-72.54513727">
    <tag k="addr:city" v="Brattleboro"/>
    <tag k="addr:housenumber" v="99"/>
    <tag k="addr:street" v="Glen Orne Drive"/>
    <tag k="addr:state" v="VT"/>
    <tag k="ref:vcgi:esiteid" v="29680"/>
  </node>
  <node id="-161" visible="true" lat="42.8848922" lon="-72.55729724">
    <tag k="addr:city" v="Brattleboro"/>
    <tag k="addr:housenumber" v="1114"/>
    <tag k="addr:street" v="Putney Road"/>
    <tag k="addr:state" v="VT"/>
    <tag k="ref:vcgi:esiteid" v="29708"/>
  </node>
  <node id="-163" visible="true" lat="42.8844101" lon="-72.55763448">
    <tag k="addr:city" v="Brattleboro"/>
    <tag k="addr:housenumber" v="1102"/>
    <tag k="addr:street" v="Putney Road"/>
    <tag k="addr:state" v="VT"/>
    <tag k="ref:vcgi:esiteid" v="29710"/>
  </node>
  <node id="-198" visible="true" lat="42.88012999" lon="-72.55969">
    <tag k="addr:city" v="Brattleboro"/>
    <tag k="addr:housenumber" v="942"/>
    <tag k="addr:street" v="Putney Road"/>
    <tag k="addr:state" v="VT"/>
    <tag k="ref:vcgi:esiteid" v="29764"/>
  </node>
  <node id="-200" visible="true" lat="42.87898228" lon="-72.56129505">
    <tag k="addr:city" v="Brattleboro"/>
    <tag k="addr:housenumber" v="896"/>
    <tag k="addr:street" v="Putney Road"/>
    <tag k="addr:state" v="VT"/>
    <tag k="ref:vcgi:esiteid" v="29766"/>
  </node>
  <node id="-223" visible="true" lat="42.87721" lon="-72.55966">
    <tag k="addr:city" v="Brattleboro"/>
    <tag k="addr:housenumber" v="833"/>
    <tag k="addr:street" v="Putney Road"/>
    <tag k="addr:state" v="VT"/>
    <tag k="ref:vcgi:esiteid" v="29790"/>
  </node>
  <node id="-225" visible="true" lat="42.87704355" lon="-72.56068304">
    <tag k="addr:city" v="Brattleboro"/>
    <tag k="addr:housenumber" v="820"/>
    <tag k="addr:street" v="Putney Road"/>
    <tag k="addr:state" v="VT"/>
    <tag k="ref:vcgi:esiteid" v="29792"/>
  </node>
  <node id="-272" visible="true" lat="42.87397239" lon="-72.55933024">
    <tag k="addr:city" v="Brattleboro"/>
    <tag k="addr:housenumber" v="707"/>
    <tag k="addr:street" v="Putney Road"/>
    <tag k="addr:state" v="VT"/>
    <tag k="ref:vcgi:esiteid" v="29839"/>
  </node>
  <node id="-276" visible="true" lat="42.87363173" lon="-72.56021797">
    <tag k="addr:city" v="Brattleboro"/>
    <tag k="addr:housenumber" v="762"/>
    <tag k="addr:street" v="Putney Road"/>
    <tag k="addr:state" v="VT"/>
    <tag k="ref:vcgi:esiteid" v="29843"/>
  </node>
  <node id="-310" visible="true" lat="42.87226332" lon="-72.55901483">
    <tag k="addr:city" v="Brattleboro"/>
    <tag k="addr:housenumber" v="648"/>
    <tag k="addr:street" v="Putney Road"/>
    <tag k="addr:state" v="VT"/>
    <tag k="ref:vcgi:esiteid" v="29877"/>
  </node>
  <node id="-905" visible="true" lat="42.85727" lon="-72.55919999">
    <tag k="addr:city" v="Brattleboro"/>
    <tag k="addr:housenumber" v="57"/>
    <tag k="addr:street" v="Putney Road"/>
    <tag k="addr:state" v="VT"/>
    <tag k="ref:vcgi:esiteid" v="30488"/>
  </node>
  <node id="-956" visible="true" lat="42.85677999" lon="-72.55952">
    <tag k="addr:city" v="Brattleboro"/>
    <tag k="addr:housenumber" v="37"/>
    <tag k="addr:street" v="Putney Road"/>
    <tag k="addr:state" v="VT"/>
    <tag k="ref:vcgi:esiteid" v="30540"/>
  </node>
  <node id="-973" visible="true" lat="42.85646999" lon="-72.55816999">
    <tag k="addr:city" v="Brattleboro"/>
    <tag k="addr:housenumber" v="48"/>
    <tag k="addr:street" v="Walnut Street"/>
    <tag k="addr:state" v="VT"/>
    <tag k="ref:vcgi:esiteid" v="30557"/>
  </node>
  <node id="-1129" visible="true" lat="42.85528" lon="-72.56056999">
    <tag k="addr:city" v="Brattleboro"/>
    <tag k="addr:housenumber" v="230"/>
    <tag k="addr:street" v="Main Street"/>
    <tag k="addr:state" v="VT"/>
    <tag k="ref:vcgi:esiteid" v="30715"/>
  </node>
  <node id="-1139" visible="true" lat="42.85527" lon="-72.55992999">
    <tag k="addr:city" v="Brattleboro"/>
    <tag k="addr:housenumber" v="224"/>
    <tag k="addr:street" v="Main Street"/>
    <tag k="addr:state" v="VT"/>
    <tag k="ref:vcgi:esiteid" v="30726"/>
  </node>
  <node id="-1147" visible="true" lat="42.8553" lon="-72.60725">
    <tag k="addr:city" v="Brattleboro"/>
    <tag k="addr:housenumber" v="151"/>
    <tag k="addr:street" v="Greenleaf Street"/>
    <tag k="addr:state" v="VT"/>
    <tag k="ref:vcgi:esiteid" v="30735"/>
  </node>
  <node id="-1247" visible="true" lat="42.85462999" lon="-72.55851999">
    <tag k="addr:city" v="Brattleboro"/>
    <tag k="addr:housenumber" v="207"/>
    <tag k="addr:street" v="Main Street"/>
    <tag k="addr:state" v="VT"/>
    <tag k="ref:vcgi:esiteid" v="30841"/>
  </node>
  <node id="-1264" visible="true" lat="42.85452313" lon="-72.55947682">
    <tag k="addr:city" v="Brattleboro"/>
    <tag k="addr:housenumber" v="204"/>
    <tag k="addr:street" v="Main Street"/>
    <tag k="addr:state" v="VT"/>
    <tag k="ref:vcgi:esiteid" v="30858"/>
  </node>
  <node id="-1329" visible="true" lat="42.85419999" lon="-72.55847999">
    <tag k="addr:city" v="Brattleboro"/>
    <tag k="addr:housenumber" v="193"/>
    <tag k="addr:street" v="Main Street"/>
    <tag k="addr:state" v="VT"/>
    <tag k="ref:vcgi:esiteid" v="30923"/>
  </node>
  <node id="-1418" visible="true" lat="42.85356194" lon="-72.5632175">
    <tag k="addr:city" v="Brattleboro"/>
    <tag k="addr:housenumber" v="10"/>
    <tag k="addr:street" v="Oak Street"/>
    <tag k="addr:state" v="VT"/>
    <tag k="ref:vcgi:esiteid" v="31012"/>
  </node>
  <node id="-1890" visible="true" lat="42.85147" lon="-72.59628999">
    <tag k="addr:city" v="Brattleboro"/>
    <tag k="addr:housenumber" v="814"/>
    <tag k="addr:street" v="Western Avenue"/>
    <tag k="addr:state" v="VT"/>
    <tag k="ref:vcgi:esiteid" v="31489"/>
  </node>
  <node id="-1915" visible="true" lat="42.85125974" lon="-72.59805244">
    <tag k="addr:city" v="Brattleboro"/>
    <tag k="addr:housenumber" v="860"/>
    <tag k="addr:street" v="Western Avenue"/>
    <tag k="addr:state" v="VT"/>
    <tag k="ref:vcgi:esiteid" v="31514"/>
  </node>
  <node id="-2049" visible="true" lat="42.85043349" lon="-72.55797785">
    <tag k="addr:city" v="Brattleboro"/>
    <tag k="addr:housenumber" v="2"/>
    <tag k="addr:street" v="Main Street"/>
    <tag k="addr:state" v="VT"/>
    <tag k="ref:vcgi:esiteid" v="31649"/>
  </node>
  <node id="-2538" visible="true" lat="42.84795968" lon="-72.56699645">
    <tag k="addr:city" v="Brattleboro"/>
    <tag k="addr:housenumber" v="130"/>
    <tag k="addr:street" v="Birge Street"/>
    <tag k="addr:state" v="VT"/>
    <tag k="ref:vcgi:esiteid" v="32146"/>
  </node>
  <node id="-2572" visible="true" lat="42.84787568" lon="-72.56191471">
    <tag k="addr:city" v="Brattleboro"/>
    <tag k="addr:housenumber" v="141"/>
    <tag k="addr:street" v="Canal Street"/>
    <tag k="addr:state" v="VT"/>
    <tag k="ref:vcgi:esiteid" v="32180"/>
  </node>
  <node id="-2604" visible="true" lat="42.84735153" lon="-72.56978901">
    <tag k="addr:city" v="Brattleboro"/>
    <tag k="addr:housenumber" v="69"/>
    <tag k="addr:street" v="Estey Street"/>
    <tag k="addr:state" v="VT"/>
    <tag k="ref:vcgi:esiteid" v="32212"/>
  </node>
  <node id="-2673" visible="true" lat="42.84708" lon="-72.56940999">
    <tag k="addr:city" v="Brattleboro"/>
    <tag k="addr:housenumber" v="79"/>
    <tag k="addr:street" v="Estey Street"/>
    <tag k="addr:state" v="VT"/>
    <tag k="ref:vcgi:esiteid" v="32283"/>
  </node>
  <node id="-2711" visible="true" lat="42.84680999" lon="-72.56937999">
    <tag k="addr:city" v="Brattleboro"/>
    <tag k="addr:housenumber" v="11"/>
    <tag k="addr:street" v="Chestnut Street"/>
    <tag k="addr:state" v="VT"/>
    <tag k="ref:vcgi:esiteid" v="32321"/>
  </node>
  <node id="-2712" visible="true" lat="42.84686" lon="-72.57003999">
    <tag k="addr:city" v="Brattleboro"/>
    <tag k="addr:housenumber" v="27"/>
    <tag k="addr:street" v="Chestnut Street"/>
    <tag k="addr:state" v="VT"/>
    <tag k="ref:vcgi:esiteid" v="32322"/>
  </node>
  <node id="-2729" visible="true" lat="42.84674" lon="-72.56955999">
    <tag k="addr:city" v="Brattleboro"/>
    <tag k="addr:housenumber" v="15"/>
    <tag k="addr:street" v="Chestnut Street"/>
    <tag k="addr:state" v="VT"/>
    <tag k="ref:vcgi:esiteid" v="32339"/>
  </node>
  <node id="-2734" visible="true" lat="42.84672236" lon="-72.5655815">
    <tag k="addr:city" v="Brattleboro"/>
    <tag k="addr:housenumber" v="68"/>
    <tag k="addr:street" v="Birge Street"/>
    <tag k="addr:state" v="VT"/>
    <tag k="ref:vcgi:esiteid" v="32344"/>
  </node>
  <node id="-2746" visible="true" lat="42.84668" lon="-72.56982999">
    <tag k="addr:city" v="Brattleboro"/>
    <tag k="addr:housenumber" v="21"/>
    <tag k="addr:street" v="Chestnut Street"/>
    <tag k="addr:state" v="VT"/>
    <tag k="ref:vcgi:esiteid" v="32356"/>
  </node>
  <node id="-2753" visible="true" lat="42.84664" lon="-72.57005">
    <tag k="addr:city" v="Brattleboro"/>
    <tag k="addr:housenumber" v="29"/>
    <tag k="addr:street" v="Chestnut Street"/>
    <tag k="addr:state" v="VT"/>
    <tag k="ref:vcgi:esiteid" v="32363"/>
  </node>
  <node id="-2765" visible="true" lat="42.84659" lon="-72.57025">
    <tag k="addr:city" v="Brattleboro"/>
    <tag k="addr:housenumber" v="35"/>
    <tag k="addr:street" v="Chestnut Street"/>
    <tag k="addr:state" v="VT"/>
    <tag k="ref:vcgi:esiteid" v="32375"/>
  </node>
  <node id="-2767" visible="true" lat="42.84653" lon="-72.57053999">
    <tag k="addr:city" v="Brattleboro"/>
    <tag k="addr:housenumber" v="45"/>
    <tag k="addr:street" v="Chestnut Street"/>
    <tag k="addr:state" v="VT"/>
    <tag k="ref:vcgi:esiteid" v="32377"/>
  </node>
  <node id="-2780" visible="true" lat="42.84649" lon="-72.57079999">
    <tag k="addr:city" v="Brattleboro"/>
    <tag k="addr:housenumber" v="51"/>
    <tag k="addr:street" v="Chestnut Street"/>
    <tag k="addr:state" v="VT"/>
    <tag k="ref:vcgi:esiteid" v="32390"/>
  </node>
  <node id="-2781" visible="true" lat="42.84649" lon="-72.56907999">
    <tag k="addr:city" v="Brattleboro"/>
    <tag k="addr:housenumber" v="11"/>
    <tag k="addr:street" v="Pleasant Street"/>
    <tag k="addr:state" v="VT"/>
    <tag k="ref:vcgi:esiteid" v="32391"/>
  </node>
  <node id="-2794" visible="true" lat="42.84642565" lon="-72.57101943">
    <tag k="addr:city" v="Brattleboro"/>
    <tag k="addr:housenumber" v="59"/>
    <tag k="addr:street" v="Chestnut Street"/>
    <tag k="addr:state" v="VT"/>
    <tag k="ref:vcgi:esiteid" v="32404"/>
  </node>
  <node id="-2805" visible="true" lat="42.84637694" lon="-72.57120282">
    <tag k="addr:city" v="Brattleboro"/>
    <tag k="addr:housenumber" v="63"/>
    <tag k="addr:street" v="Chestnut Street"/>
    <tag k="addr:state" v="VT"/>
    <tag k="ref:vcgi:esiteid" v="32415"/>
  </node>
  <node id="-2807" visible="true" lat="42.84635359" lon="-72.56966916">
    <tag k="addr:city" v="Brattleboro"/>
    <tag k="addr:housenumber" v="22"/>
    <tag k="addr:street" v="Chestnut Street"/>
    <tag k="addr:state" v="VT"/>
    <tag k="ref:vcgi:esiteid" v="32417"/>
  </node>
  <node id="-2816" visible="true" lat="42.8462644" lon="-72.56983416">
    <tag k="addr:city" v="Brattleboro"/>
    <tag k="addr:housenumber" v="28"/>
    <tag k="addr:street" v="Chestnut Street"/>
    <tag k="addr:state" v="VT"/>
    <tag k="ref:vcgi:esiteid" v="32426"/>
  </node>
  <node id="-2822" visible="true" lat="42.84622999" lon="-72.57010999">
    <tag k="addr:city" v="Brattleboro"/>
    <tag k="addr:housenumber" v="36"/>
    <tag k="addr:street" v="Chestnut Street"/>
    <tag k="addr:state" v="VT"/>
    <tag k="ref:vcgi:esiteid" v="32432"/>
  </node>
  <node id="-2832" visible="true" lat="42.84619927" lon="-72.57038443">
    <tag k="addr:city" v="Brattleboro"/>
    <tag k="addr:housenumber" v="44"/>
    <tag k="addr:street" v="Chestnut Street"/>
    <tag k="addr:state" v="VT"/>
    <tag k="ref:vcgi:esiteid" v="32442"/>
  </node>
  <node id="-2835" visible="true" lat="42.84619999" lon="-72.569">
    <tag k="addr:city" v="Brattleboro"/>
    <tag k="addr:housenumber" v="23"/>
    <tag k="addr:street" v="Pleasant Street"/>
    <tag k="addr:state" v="VT"/>
    <tag k="ref:vcgi:esiteid" v="32445"/>
  </node>
  <node id="-2841" visible="true" lat="42.84617" lon="-72.57062999">
    <tag k="addr:city" v="Brattleboro"/>
    <tag k="addr:housenumber" v="50"/>
    <tag k="addr:street" v="Chestnut Street"/>
    <tag k="addr:state" v="VT"/>
    <tag k="ref:vcgi:esiteid" v="32451"/>
  </node>
  <node id="-2843" visible="true" lat="42.84605" lon="-72.57087">
    <tag k="addr:city" v="Brattleboro"/>
    <tag k="addr:housenumber" v="58"/>
    <tag k="addr:street" v="Chestnut Street"/>
    <tag k="addr:state" v="VT"/>
    <tag k="ref:vcgi:esiteid" v="32453"/>
  </node>
  <node id="-2869" visible="true" lat="42.84594" lon="-72.57134">
    <tag k="addr:city" v="Brattleboro"/>
    <tag k="addr:housenumber" v="68"/>
    <tag k="addr:street" v="Chestnut Street"/>
    <tag k="addr:state" v="VT"/>
    <tag k="ref:vcgi:esiteid" v="32479"/>
  </node>
  <node id="-2886" visible="true" lat="42.84594" lon="-72.5691">
    <tag k="addr:city" v="Brattleboro"/>
    <tag k="addr:housenumber" v="25"/>
    <tag k="addr:street" v="Pleasant Street"/>
    <tag k="addr:state" v="VT"/>
    <tag k="ref:vcgi:esiteid" v="32496"/>
  </node>
  <node id="-2888" visible="true" lat="42.8459069" lon="-72.57165357">
    <tag k="addr:city" v="Brattleboro"/>
    <tag k="addr:housenumber" v="80"/>
    <tag k="addr:street" v="Chestnut Street"/>
    <tag k="addr:state" v="VT"/>
    <tag k="ref:vcgi:esiteid" v="32498"/>
  </node>
  <node id="-2895" visible="true" lat="42.84578999" lon="-72.56353999">
    <tag k="addr:city" v="Brattleboro"/>
    <tag k="addr:housenumber" v="10"/>
    <tag k="addr:street" v="Birge Street"/>
    <tag k="addr:state" v="VT"/>
    <tag k="ref:vcgi:esiteid" v="32505"/>
  </node>
  <node id="-2902" visible="true" lat="42.84576" lon="-72.56899999">
    <tag k="addr:city" v="Brattleboro"/>
    <tag k="addr:housenumber" v="31"/>
    <tag k="addr:street" v="Pleasant Street"/>
    <tag k="addr:state" v="VT"/>
    <tag k="ref:vcgi:esiteid" v="32512"/>
  </node>
  <node id="-2907" visible="true" lat="42.84574596" lon="-72.563365">
    <tag k="addr:city" v="Brattleboro"/>
    <tag k="addr:housenumber" v="229"/>
    <tag k="addr:street" v="Canal Street"/>
    <tag k="addr:state" v="VT"/>
    <tag k="ref:vcgi:esiteid" v="32517"/>
  </node>
  <node id="-2918" visible="true" lat="42.8454725" lon="-72.56340932">
    <tag k="addr:city" v="Brattleboro"/>
    <tag k="addr:housenumber" v="239"/>
    <tag k="addr:street" v="Canal Street"/>
    <tag k="addr:state" v="VT"/>
    <tag k="ref:vcgi:esiteid" v="32528"/>
  </node>
  <node id="-2928" visible="true" lat="42.84559646" lon="-72.56338962">
    <tag k="addr:city" v="Brattleboro"/>
    <tag k="addr:housenumber" v="235"/>
    <tag k="addr:street" v="Canal Street"/>
    <tag k="addr:state" v="VT"/>
    <tag k="ref:vcgi:esiteid" v="32538"/>
  </node>
  <node id="-2935" visible="true" lat="42.84549999" lon="-72.57130999">
    <tag k="addr:city" v="Brattleboro"/>
    <tag k="addr:housenumber" v="67"/>
    <tag k="addr:street" v="Vine Street"/>
    <tag k="addr:state" v="VT"/>
    <tag k="ref:vcgi:esiteid" v="32545"/>
  </node>
  <node id="-2943" visible="true" lat="42.84547999" lon="-72.57001999">
    <tag k="addr:city" v="Brattleboro"/>
    <tag k="addr:housenumber" v="35"/>
    <tag k="addr:street" v="Vine Street"/>
    <tag k="addr:state" v="VT"/>
    <tag k="ref:vcgi:esiteid" v="32553"/>
  </node>
  <node id="-2945" visible="true" lat="42.84547999" lon="-72.57050999">
    <tag k="addr:city" v="Brattleboro"/>
    <tag k="addr:housenumber" v="49"/>
    <tag k="addr:street" v="Vine Street"/>
    <tag k="addr:state" v="VT"/>
    <tag k="ref:vcgi:esiteid" v="32555"/>
  </node>
  <node id="-2947" visible="true" lat="42.84548999" lon="-72.56946999">
    <tag k="addr:city" v="Brattleboro"/>
    <tag k="addr:housenumber" v="19"/>
    <tag k="addr:street" v="Vine Street"/>
    <tag k="addr:state" v="VT"/>
    <tag k="ref:vcgi:esiteid" v="32557"/>
  </node>
  <node id="-2953" visible="true" lat="42.84544" lon="-72.56983">
    <tag k="addr:city" v="Brattleboro"/>
    <tag k="addr:housenumber" v="27"/>
    <tag k="addr:street" v="Vine Street"/>
    <tag k="addr:state" v="VT"/>
    <tag k="ref:vcgi:esiteid" v="32564"/>
  </node>
  <node id="-2957" visible="true" lat="42.84542" lon="-72.57092999">
    <tag k="addr:city" v="Brattleboro"/>
    <tag k="addr:housenumber" v="55"/>
    <tag k="addr:street" v="Vine Street"/>
    <tag k="addr:state" v="VT"/>
    <tag k="ref:vcgi:esiteid" v="32568"/>
  </node>
  <node id="-3026" visible="true" lat="42.84505" lon="-72.56287">
    <tag k="addr:city" v="Brattleboro"/>
    <tag k="addr:housenumber" v="250"/>
    <tag k="addr:street" v="Canal Street"/>
    <tag k="addr:state" v="VT"/>
    <tag k="ref:vcgi:esiteid" v="32639"/>
  </node>
  <node id="-3056" visible="true" lat="42.84486762" lon="-72.56291328">
    <tag k="addr:city" v="Brattleboro"/>
    <tag k="addr:housenumber" v="252"/>
    <tag k="addr:street" v="Canal Street"/>
    <tag k="addr:state" v="VT"/>
    <tag k="ref:vcgi:esiteid" v="32669"/>
  </node>
  <node id="-3392" visible="true" lat="42.84305" lon="-72.57521999">
    <tag k="addr:city" v="Brattleboro"/>
    <tag k="addr:housenumber" v="60"/>
    <tag k="addr:street" v="Austine Drive"/>
    <tag k="addr:state" v="VT"/>
    <tag k="ref:vcgi:esiteid" v="33005"/>
  </node>
  <node id="-3814" visible="true" lat="42.84062318" lon="-72.56418536">
    <tag k="addr:city" v="Brattleboro"/>
    <tag k="addr:housenumber" v="414"/>
    <tag k="addr:street" v="Canal Street"/>
    <tag k="addr:state" v="VT"/>
    <tag k="ref:vcgi:esiteid" v="33428"/>
  </node>
  <node id="-3824" visible="true" lat="42.84039496" lon="-72.56498255">
    <tag k="addr:city" v="Brattleboro"/>
    <tag k="addr:housenumber" v="429"/>
    <tag k="addr:street" v="Canal Street"/>
    <tag k="addr:state" v="VT"/>
    <tag k="ref:vcgi:esiteid" v="33438"/>
  </node>
  <node id="-3852" visible="true" lat="42.84006999" lon="-72.56448">
    <tag k="addr:city" v="Brattleboro"/>
    <tag k="addr:housenumber" v="440"/>
    <tag k="addr:street" v="Canal Street"/>
    <tag k="addr:state" v="VT"/>
    <tag k="ref:vcgi:esiteid" v="33468"/>
  </node>
  <node id="-3917" visible="true" lat="42.83947612" lon="-72.56534839">
    <tag k="addr:city" v="Brattleboro"/>
    <tag k="addr:housenumber" v="469"/>
    <tag k="addr:street" v="Canal Street"/>
    <tag k="addr:state" v="VT"/>
    <tag k="ref:vcgi:esiteid" v="33534"/>
  </node>
  <node id="-4063" visible="true" lat="42.83677" lon="-72.56551">
    <tag k="addr:city" v="Brattleboro"/>
    <tag k="addr:housenumber" v="564"/>
    <tag k="addr:street" v="Canal Street"/>
    <tag k="addr:state" v="VT"/>
    <tag k="ref:vcgi:esiteid" v="33681"/>
  </node>
  <node id="-4069" visible="true" lat="42.83673855" lon="-72.56126708">
    <tag k="addr:city" v="Brattleboro"/>
    <tag k="addr:housenumber" v="131"/>
    <tag k="addr:street" v="Fairground Road"/>
    <tag k="addr:state" v="VT"/>
    <tag k="ref:vcgi:esiteid" v="33688"/>
  </node>
  <node id="-4076" visible="true" lat="42.83621464" lon="-72.56567072">
    <tag k="addr:city" v="Brattleboro"/>
    <tag k="addr:housenumber" v="580"/>
    <tag k="addr:street" v="Canal Street"/>
    <tag k="addr:state" v="VT"/>
    <tag k="ref:vcgi:esiteid" v="33695"/>
  </node>
  <node id="-4280" visible="true" lat="42.89198" lon="-72.56787">
    <tag k="addr:city" v="Brattleboro"/>
    <tag k="addr:housenumber" v="65"/>
    <tag k="addr:street" v="Experiment Way"/>
    <tag k="addr:state" v="VT"/>
    <tag k="ref:vcgi:esiteid" v="33905"/>
  </node>
  <node id="-4298" visible="true" lat="42.89127" lon="-72.56635">
    <tag k="addr:city" v="Brattleboro"/>
    <tag k="addr:housenumber" v="19"/>
    <tag k="addr:street" v="Fleisher Lane"/>
    <tag k="addr:state" v="VT"/>
    <tag k="ref:vcgi:esiteid" v="33923"/>
  </node>
  <node id="-4300" visible="true" lat="42.89115046" lon="-72.56733748">
    <tag k="addr:city" v="Brattleboro"/>
    <tag k="addr:housenumber" v="24"/>
    <tag k="addr:street" v="Fleisher Lane"/>
    <tag k="addr:state" v="VT"/>
    <tag k="ref:vcgi:esiteid" v="33925"/>
  </node>
  <node id="-4345" visible="true" lat="42.88939684" lon="-72.5687882">
    <tag k="addr:city" v="Brattleboro"/>
    <tag k="addr:housenumber" v="46"/>
    <tag k="addr:street" v="Dickinson Road"/>
    <tag k="addr:state" v="VT"/>
    <tag k="ref:vcgi:esiteid" v="33970"/>
  </node>
  <node id="-4352" visible="true" lat="42.88915056" lon="-72.5690577">
    <tag k="addr:city" v="Brattleboro"/>
    <tag k="addr:housenumber" v="32"/>
    <tag k="addr:street" v="Dickinson Road"/>
    <tag k="addr:state" v="VT"/>
    <tag k="ref:vcgi:esiteid" v="33977"/>
  </node>
  <node id="-4354" visible="true" lat="42.88898516" lon="-72.56921238">
    <tag k="addr:city" v="Brattleboro"/>
    <tag k="addr:housenumber" v="30"/>
    <tag k="addr:street" v="Dickinson Road"/>
    <tag k="addr:state" v="VT"/>
    <tag k="ref:vcgi:esiteid" v="33979"/>
  </node>
  <node id="-4359" visible="true" lat="42.88885999" lon="-72.56863">
    <tag k="addr:city" v="Brattleboro"/>
    <tag k="addr:housenumber" v="33"/>
    <tag k="addr:street" v="Dickinson Road"/>
    <tag k="addr:state" v="VT"/>
    <tag k="ref:vcgi:esiteid" v="33984"/>
  </node>
  <node id="-4497" visible="true" lat="42.88184" lon="-72.59370999">
    <tag k="addr:city" v="Brattleboro"/>
    <tag k="addr:housenumber" v="990"/>
    <tag k="addr:street" v="Meadowbrook Road"/>
    <tag k="addr:state" v="VT"/>
    <tag k="ref:vcgi:esiteid" v="34124"/>
  </node>
  <node id="-4498" visible="true" lat="42.88171" lon="-72.59175999">
    <tag k="addr:city" v="Brattleboro"/>
    <tag k="addr:housenumber" v="863"/>
    <tag k="addr:street" v="Upper Dummerston Road"/>
    <tag k="addr:state" v="VT"/>
    <tag k="ref:vcgi:esiteid" v="34125"/>
  </node>
  <node id="-4502" visible="true" lat="42.88144061" lon="-72.59374967">
    <tag k="addr:city" v="Brattleboro"/>
    <tag k="addr:housenumber" v="993"/>
    <tag k="addr:street" v="Meadowbrook Road"/>
    <tag k="addr:state" v="VT"/>
    <tag k="ref:vcgi:esiteid" v="34131"/>
  </node>
  <node id="-4505" visible="true" lat="42.88096053" lon="-72.5947169">
    <tag k="addr:city" v="Brattleboro"/>
    <tag k="addr:housenumber" v="961"/>
    <tag k="addr:street" v="Meadowbrook Road"/>
    <tag k="addr:state" v="VT"/>
    <tag k="ref:vcgi:esiteid" v="34136"/>
  </node>
  <node id="-4507" visible="true" lat="42.88094821" lon="-72.59240808">
    <tag k="addr:city" v="Brattleboro"/>
    <tag k="addr:housenumber" v="846"/>
    <tag k="addr:street" v="Upper Dummerston Road"/>
    <tag k="addr:state" v="VT"/>
    <tag k="ref:vcgi:esiteid" v="34139"/>
  </node>
  <node id="-4512" visible="true" lat="42.88054" lon="-72.59126999">
    <tag k="addr:city" v="Brattleboro"/>
    <tag k="addr:housenumber" v="833"/>
    <tag k="addr:street" v="Upper Dummerston Road"/>
    <tag k="addr:state" v="VT"/>
    <tag k="ref:vcgi:esiteid" v="34145"/>
  </node>
  <node id="-4515" visible="true" lat="42.88028037" lon="-72.59588376">
    <tag k="addr:city" v="Brattleboro"/>
    <tag k="addr:housenumber" v="939"/>
    <tag k="addr:street" v="Meadowbrook Road"/>
    <tag k="addr:state" v="VT"/>
    <tag k="ref:vcgi:esiteid" v="34150"/>
  </node>
  <node id="-4516" visible="true" lat="42.88004812" lon="-72.59860771">
    <tag k="addr:city" v="Brattleboro"/>
    <tag k="addr:housenumber" v="850"/>
    <tag k="addr:street" v="Meadowbrook Road"/>
    <tag k="addr:state" v="VT"/>
    <tag k="ref:vcgi:esiteid" v="34151"/>
  </node>
  <node id="-4520" visible="true" lat="42.87981005" lon="-72.59661758">
    <tag k="addr:city" v="Brattleboro"/>
    <tag k="addr:housenumber" v="895"/>
    <tag k="addr:street" v="Meadowbrook Road"/>
    <tag k="addr:state" v="VT"/>
    <tag k="ref:vcgi:esiteid" v="34155"/>
  </node>
  <node id="-4524" visible="true" lat="42.87981999" lon="-72.57996999">
    <tag k="addr:city" v="Brattleboro"/>
    <tag k="addr:housenumber" v="568"/>
    <tag k="addr:street" v="West River Road"/>
    <tag k="addr:state" v="VT"/>
    <tag k="ref:vcgi:esiteid" v="34159"/>
  </node>
  <node id="-4527" visible="true" lat="42.87976" lon="-72.59136999">
    <tag k="addr:city" v="Brattleboro"/>
    <tag k="addr:housenumber" v="799"/>
    <tag k="addr:street" v="Upper Dummerston Road"/>
    <tag k="addr:state" v="VT"/>
    <tag k="ref:vcgi:esiteid" v="34162"/>
  </node>
  <node id="-4528" visible="true" lat="42.87953999" lon="-72.57643">
    <tag k="addr:city" v="Brattleboro"/>
    <tag k="addr:housenumber" v="485"/>
    <tag k="addr:street" v="West River Road"/>
    <tag k="addr:state" v="VT"/>
    <tag k="ref:vcgi:esiteid" v="34163"/>
  </node>
  <node id="-4533" visible="true" lat="42.87963" lon="-72.5975">
    <tag k="addr:city" v="Brattleboro"/>
    <tag k="addr:housenumber" v="877"/>
    <tag k="addr:street" v="Meadowbrook Road"/>
    <tag k="addr:state" v="VT"/>
    <tag k="ref:vcgi:esiteid" v="34168"/>
  </node>
  <node id="-4535" visible="true" lat="42.87953414" lon="-72.59833242">
    <tag k="addr:city" v="Brattleboro"/>
    <tag k="addr:housenumber" v="839"/>
    <tag k="addr:street" v="Meadowbrook Road"/>
    <tag k="addr:state" v="VT"/>
    <tag k="ref:vcgi:esiteid" v="34170"/>
  </node>
  <node id="-4543" visible="true" lat="42.87883857" lon="-72.59089944">
    <tag k="addr:city" v="Brattleboro"/>
    <tag k="addr:housenumber" v="763"/>
    <tag k="addr:street" v="Upper Dummerston Road"/>
    <tag k="addr:state" v="VT"/>
    <tag k="ref:vcgi:esiteid" v="34179"/>
  </node>
  <node id="-4544" visible="true" lat="42.87873" lon="-72.57497">
    <tag k="addr:city" v="Brattleboro"/>
    <tag k="addr:housenumber" v="441"/>
    <tag k="addr:street" v="West River Road"/>
    <tag k="addr:state" v="VT"/>
    <tag k="ref:vcgi:esiteid" v="34180"/>
  </node>
  <node id="-4546" visible="true" lat="42.87868999" lon="-72.57525999">
    <tag k="addr:city" v="Brattleboro"/>
    <tag k="addr:housenumber" v="443"/>
    <tag k="addr:street" v="West River Road"/>
    <tag k="addr:state" v="VT"/>
    <tag k="ref:vcgi:esiteid" v="34182"/>
  </node>
  <node id="-4547" visible="true" lat="42.87872" lon="-72.58928999">
    <tag k="addr:city" v="Brattleboro"/>
    <tag k="addr:housenumber" v="669"/>
    <tag k="addr:street" v="Upper Dummerston Road"/>
    <tag k="addr:state" v="VT"/>
    <tag k="ref:vcgi:esiteid" v="34183"/>
  </node>
  <node id="-4549" visible="true" lat="42.87846014" lon="-72.59096734">
    <tag k="addr:city" v="Brattleboro"/>
    <tag k="addr:housenumber" v="749"/>
    <tag k="addr:street" v="Upper Dummerston Road"/>
    <tag k="addr:state" v="VT"/>
    <tag k="ref:vcgi:esiteid" v="34185"/>
  </node>
  <node id="-4550" visible="true" lat="42.87840043" lon="-72.57474686">
    <tag k="addr:city" v="Brattleboro"/>
    <tag k="addr:housenumber" v="439"/>
    <tag k="addr:street" v="West River Road"/>
    <tag k="addr:state" v="VT"/>
    <tag k="ref:vcgi:esiteid" v="34186"/>
  </node>
  <node id="-4551" visible="true" lat="42.87845" lon="-72.59257999">
    <tag k="addr:city" v="Brattleboro"/>
    <tag k="addr:housenumber" v="760"/>
    <tag k="addr:street" v="Upper Dummerston Road"/>
    <tag k="addr:state" v="VT"/>
    <tag k="ref:vcgi:esiteid" v="34187"/>
  </node>
  <node id="-4554" visible="true" lat="42.87842" lon="-72.59141">
    <tag k="addr:city" v="Brattleboro"/>
    <tag k="addr:housenumber" v="750"/>
    <tag k="addr:street" v="Upper Dummerston Road"/>
    <tag k="addr:state" v="VT"/>
    <tag k="ref:vcgi:esiteid" v="34190"/>
  </node>
  <node id="-4557" visible="true" lat="42.87832" lon="-72.58854">
    <tag k="addr:city" v="Brattleboro"/>
    <tag k="addr:housenumber" v="667"/>
    <tag k="addr:street" v="Upper Dummerston Road"/>
    <tag k="addr:state" v="VT"/>
    <tag k="ref:vcgi:esiteid" v="34193"/>
  </node>
  <node id="-4563" visible="true" lat="42.87799" lon="-72.59032999">
    <tag k="addr:city" v="Brattleboro"/>
    <tag k="addr:housenumber" v="729"/>
    <tag k="addr:street" v="Upper Dummerston Road"/>
    <tag k="addr:state" v="VT"/>
    <tag k="ref:vcgi:esiteid" v="34199"/>
  </node>
  <node id="-4567" visible="true" lat="42.87778" lon="-72.59174">
    <tag k="addr:city" v="Brattleboro"/>
    <tag k="addr:housenumber" v="736"/>
    <tag k="addr:street" v="Upper Dummerston Road"/>
    <tag k="addr:state" v="VT"/>
    <tag k="ref:vcgi:esiteid" v="34203"/>
  </node>
  <node id="-4582" visible="true" lat="42.87711999" lon="-72.58855">
    <tag k="addr:city" v="Brattleboro"/>
    <tag k="addr:housenumber" v="651"/>
    <tag k="addr:street" v="Upper Dummerston Road"/>
    <tag k="addr:state" v="VT"/>
    <tag k="ref:vcgi:esiteid" v="34218"/>
  </node>
  <node id="-4589" visible="true" lat="42.87678" lon="-72.58785999">
    <tag k="addr:city" v="Brattleboro"/>
    <tag k="addr:housenumber" v="639"/>
    <tag k="addr:street" v="Upper Dummerston Road"/>
    <tag k="addr:state" v="VT"/>
    <tag k="ref:vcgi:esiteid" v="34225"/>
  </node>
  <node id="-4590" visible="true" lat="42.8766" lon="-72.58733999">
    <tag k="addr:city" v="Brattleboro"/>
    <tag k="addr:housenumber" v="623"/>
    <tag k="addr:street" v="Upper Dummerston Road"/>
    <tag k="addr:state" v="VT"/>
    <tag k="ref:vcgi:esiteid" v="34226"/>
  </node>
  <node id="-4593" visible="true" lat="42.87653" lon="-72.59088999">
    <tag k="addr:city" v="Brattleboro"/>
    <tag k="addr:housenumber" v="714"/>
    <tag k="addr:street" v="East Orchard Street"/>
    <tag k="addr:state" v="VT"/>
    <tag k="ref:vcgi:esiteid" v="34229"/>
  </node>
  <node id="-4597" visible="true" lat="42.87633999" lon="-72.5867">
    <tag k="addr:city" v="Brattleboro"/>
    <tag k="addr:housenumber" v="603"/>
    <tag k="addr:street" v="Upper Dummerston Road"/>
    <tag k="addr:state" v="VT"/>
    <tag k="ref:vcgi:esiteid" v="34233"/>
  </node>
  <node id="-4602" visible="true" lat="42.87611999" lon="-72.58601999">
    <tag k="addr:city" v="Brattleboro"/>
    <tag k="addr:housenumber" v="585"/>
    <tag k="addr:street" v="Upper Dummerston Road"/>
    <tag k="addr:state" v="VT"/>
    <tag k="ref:vcgi:esiteid" v="34238"/>
  </node>
  <node id="-4606" visible="true" lat="42.87590999" lon="-72.58546">
    <tag k="addr:city" v="Brattleboro"/>
    <tag k="addr:housenumber" v="559"/>
    <tag k="addr:street" v="Upper Dummerston Road"/>
    <tag k="addr:state" v="VT"/>
    <tag k="ref:vcgi:esiteid" v="34242"/>
  </node>
  <node id="-4619" visible="true" lat="42.87543516" lon="-72.57274445">
    <tag k="addr:city" v="Brattleboro"/>
    <tag k="addr:housenumber" v="306"/>
    <tag k="addr:street" v="West River Road"/>
    <tag k="addr:state" v="VT"/>
    <tag k="ref:vcgi:esiteid" v="34255"/>
  </node>
  <node id="-4623" visible="true" lat="42.87525109" lon="-72.59067551">
    <tag k="addr:city" v="Brattleboro"/>
    <tag k="addr:housenumber" v="672"/>
    <tag k="addr:street" v="East Orchard Street"/>
    <tag k="addr:state" v="VT"/>
    <tag k="ref:vcgi:esiteid" v="34259"/>
  </node>
  <node id="-4627" visible="true" lat="42.87516" lon="-72.58219999">
    <tag k="addr:city" v="Brattleboro"/>
    <tag k="addr:housenumber" v="475"/>
    <tag k="addr:street" v="Upper Dummerston Road"/>
    <tag k="addr:state" v="VT"/>
    <tag k="ref:vcgi:esiteid" v="34263"/>
  </node>
  <node id="-4636" visible="true" lat="42.87481999" lon="-72.58123999">
    <tag k="addr:city" v="Brattleboro"/>
    <tag k="addr:housenumber" v="419"/>
    <tag k="addr:street" v="Upper Dummerston Road"/>
    <tag k="addr:state" v="VT"/>
    <tag k="ref:vcgi:esiteid" v="34274"/>
  </node>
  <node id="-4645" visible="true" lat="42.87425999" lon="-72.57257999">
    <tag k="addr:city" v="Brattleboro"/>
    <tag k="addr:housenumber" v="298"/>
    <tag k="addr:street" v="West River Road"/>
    <tag k="addr:state" v="VT"/>
    <tag k="ref:vcgi:esiteid" v="34283"/>
  </node>
  <node id="-4659" visible="true" lat="42.87331358" lon="-72.58164717">
    <tag k="addr:city" v="Brattleboro"/>
    <tag k="addr:housenumber" v="59"/>
    <tag k="addr:street" v="Senator Gannett Drive"/>
    <tag k="addr:state" v="VT"/>
    <tag k="ref:vcgi:esiteid" v="34297"/>
  </node>
  <node id="-4661" visible="true" lat="42.87277527" lon="-72.58148303">
    <tag k="addr:city" v="Brattleboro"/>
    <tag k="addr:housenumber" v="58"/>
    <tag k="addr:street" v="Senator Gannett Drive"/>
    <tag k="addr:state" v="VT"/>
    <tag k="ref:vcgi:esiteid" v="34299"/>
  </node>
  <node id="-4663" visible="true" lat="42.87321" lon="-72.59154">
    <tag k="addr:city" v="Brattleboro"/>
    <tag k="addr:housenumber" v="594"/>
    <tag k="addr:street" v="East Orchard Street"/>
    <tag k="addr:state" v="VT"/>
    <tag k="ref:vcgi:esiteid" v="34301"/>
  </node>
  <node id="-4667" visible="true" lat="42.87300999" lon="-72.58158">
    <tag k="addr:city" v="Brattleboro"/>
    <tag k="addr:housenumber" v="52"/>
    <tag k="addr:street" v="Senator Gannett Drive"/>
    <tag k="addr:state" v="VT"/>
    <tag k="ref:vcgi:esiteid" v="34305"/>
  </node>
  <node id="-5284" visible="true" lat="42.84041326" lon="-72.67307035">
    <tag k="addr:city" v="Brattleboro"/>
    <tag k="addr:housenumber" v="384"/>
    <tag k="addr:street" v="Barrows Road"/>
    <tag k="addr:state" v="VT"/>
    <tag k="ref:vcgi:esiteid" v="34935"/>
  </node>
  <node id="-5299" visible="true" lat="42.83985999" lon="-72.67587">
    <tag k="addr:city" v="Brattleboro"/>
    <tag k="addr:housenumber" v="457"/>
    <tag k="addr:street" v="Barrows Road"/>
    <tag k="addr:state" v="VT"/>
    <tag k="ref:vcgi:esiteid" v="34950"/>
  </node>
  <node id="-5303" visible="true" lat="42.83936735" lon="-72.66777634">
    <tag k="addr:city" v="Brattleboro"/>
    <tag k="addr:housenumber" v="374"/>
    <tag k="addr:street" v="Barrows Road"/>
    <tag k="addr:state" v="VT"/>
    <tag k="ref:vcgi:esiteid" v="34954"/>
  </node>
  <node id="-5305" visible="true" lat="42.84064182" lon="-72.67733807">
    <tag k="addr:city" v="Brattleboro"/>
    <tag k="addr:housenumber" v="489"/>
    <tag k="addr:street" v="Barrows Road"/>
    <tag k="addr:state" v="VT"/>
    <tag k="ref:vcgi:esiteid" v="34956"/>
  </node>
  <node id="-5352" visible="true" lat="42.83632999" lon="-72.66612">
    <tag k="addr:city" v="Brattleboro"/>
    <tag k="addr:housenumber" v="495"/>
    <tag k="addr:street" v="Melchen Road"/>
    <tag k="addr:state" v="VT"/>
    <tag k="ref:vcgi:esiteid" v="35006"/>
  </node>
  <node id="-5354" visible="true" lat="42.83619353" lon="-72.58782735">
    <tag k="addr:city" v="Brattleboro"/>
    <tag k="addr:housenumber" v="99"/>
    <tag k="addr:street" v="Stafford Farm Hill"/>
    <tag k="addr:state" v="VT"/>
    <tag k="ref:vcgi:esiteid" v="35008"/>
  </node>
  <node id="-5357" visible="true" lat="42.83611999" lon="-72.66609">
    <tag k="addr:city" v="Brattleboro"/>
    <tag k="addr:housenumber" v="493"/>
    <tag k="addr:street" v="Melchen Road"/>
    <tag k="addr:state" v="VT"/>
    <tag k="ref:vcgi:esiteid" v="35013"/>
  </node>
  <node id="-5408" visible="true" lat="42.83256999" lon="-72.66661999">
    <tag k="addr:city" v="Brattleboro"/>
    <tag k="addr:housenumber" v="107"/>
    <tag k="addr:street" v="Waubanong Road"/>
    <tag k="addr:state" v="VT"/>
    <tag k="ref:vcgi:esiteid" v="35065"/>
  </node>
  <node id="-5723" visible="true" lat="42.83304834" lon="-72.61713117">
    <tag k="addr:city" v="Brattleboro"/>
    <tag k="addr:housenumber" v="73"/>
    <tag k="addr:street" v="Miller Road"/>
    <tag k="addr:state" v="VT"/>
    <tag k="ref:vcgi:esiteid" v="35492"/>
  </node>
  <node id="-5861" visible="true" lat="42.84549543" lon="-72.56906282">
    <tag k="addr:city" v="Brattleboro"/>
    <tag k="addr:housenumber" v="1"/>
    <tag k="addr:street" v="Vine Street"/>
    <tag k="addr:state" v="VT"/>
    <tag k="ref:vcgi:esiteid" v="35794"/>
  </node>
  <node id="-5927" visible="true" lat="42.84653539" lon="-72.55581554">
    <tag k="addr:city" v="Brattleboro"/>
    <tag k="addr:housenumber" v="148"/>
    <tag k="addr:street" v="South Main Street"/>
    <tag k="addr:state" v="VT"/>
    <tag k="ref:vcgi:esiteid" v="35926"/>
  </node>
  <node id="-5981" visible="true" lat="42.83762977" lon="-72.55094733">
    <tag k="addr:city" v="Brattleboro"/>
    <tag k="addr:housenumber" v="567"/>
    <tag k="addr:street" v="Vernon Street"/>
    <tag k="addr:state" v="VT"/>
    <tag k="ref:vcgi:esiteid" v="36001"/>
  </node>
  <node id="-6245" visible="true" lat="42.88700964" lon="-72.5489802">
    <tag k="addr:city" v="Brattleboro"/>
    <tag k="addr:housenumber" v="153"/>
    <tag k="addr:street" v="Wellington Road"/>
    <tag k="addr:state" v="VT"/>
    <tag k="ref:vcgi:esiteid" v="36335"/>
  </node>
  <node id="-6266" visible="true" lat="42.86547349" lon="-72.55582124">
    <tag k="addr:city" v="Brattleboro"/>
    <tag k="addr:housenumber" v="387"/>
    <tag k="addr:street" v="Putney Road"/>
    <tag k="addr:state" v="VT"/>
    <tag k="ref:vcgi:esiteid" v="36358"/>
  </node>
  <node id="-6267" visible="true" lat="42.83749082" lon="-72.66743844">
    <tag k="addr:city" v="Brattleboro"/>
    <tag k="addr:housenumber" v="542"/>
    <tag k="addr:street" v="Melchen Road"/>
    <tag k="addr:state" v="VT"/>
    <tag k="ref:vcgi:esiteid" v="36359"/>
  </node>
  <node id="-6278" visible="true" lat="42.852241" lon="-72.55776809">
    <tag k="addr:city" v="Brattleboro"/>
    <tag k="addr:housenumber" v="97"/>
    <tag k="addr:street" v="Main Street"/>
    <tag k="addr:state" v="VT"/>
    <tag k="ref:vcgi:esiteid" v="36371"/>
  </node>
  <node id="-6284" visible="true" lat="42.85307935" lon="-72.55858397">
    <tag k="addr:city" v="Brattleboro"/>
    <tag k="addr:housenumber" v="136"/>
    <tag k="addr:street" v="Main Street"/>
    <tag k="addr:state" v="VT"/>
    <tag k="ref:vcgi:esiteid" v="36377"/>
  </node>
  <node id="-6312" visible="true" lat="42.8722317" lon="-72.58997621">
    <tag k="addr:city" v="Brattleboro"/>
    <tag k="addr:housenumber" v="585"/>
    <tag k="addr:street" v="East Orchard Street"/>
    <tag k="addr:state" v="VT"/>
    <tag k="ref:vcgi:esiteid" v="36408"/>
  </node>
  <node id="-6318" visible="true" lat="42.88175638" lon="-72.59467061">
    <tag k="addr:city" v="Brattleboro"/>
    <tag k="addr:housenumber" v="970"/>
    <tag k="addr:street" v="Meadowbrook Road"/>
    <tag k="addr:state" v="VT"/>
    <tag k="ref:vcgi:esiteid" v="36415"/>
  </node>
  <node id="-6391" visible="true" lat="42.87486577" lon="-72.57521405">
    <tag k="addr:city" v="Brattleboro"/>
    <tag k="addr:housenumber" v="241"/>
    <tag k="addr:street" v="Upper Dummerston Road"/>
    <tag k="addr:state" v="VT"/>
    <tag k="ref:vcgi:esiteid" v="331965"/>
  </node>
  <node id="-6433" visible="true" lat="42.88166456" lon="-72.59640928">
    <tag k="addr:city" v="Brattleboro"/>
    <tag k="addr:housenumber" v="7"/>
    <tag k="addr:street" v="Capy Way"/>
    <tag k="addr:state" v="VT"/>
    <tag k="ref:vcgi:esiteid" v="341314"/>
  </node>
  <node id="-6434" visible="true" lat="42.8813151" lon="-72.59668353">
    <tag k="addr:city" v="Brattleboro"/>
    <tag k="addr:housenumber" v="12"/>
    <tag k="addr:street" v="Capy Way"/>
    <tag k="addr:state" v="VT"/>
    <tag k="ref:vcgi:esiteid" v="341315"/>
  </node>
  <node id="-6435" visible="true" lat="42.88158015" lon="-72.59669713">
    <tag k="addr:city" v="Brattleboro"/>
    <tag k="addr:housenumber" v="15"/>
    <tag k="addr:street" v="Capy Way"/>
    <tag k="addr:state" v="VT"/>
    <tag k="ref:vcgi:esiteid" v="341316"/>
  </node>
  <node id="-6455" visible="true" lat="42.89482845" lon="-72.5385924">
    <tag k="addr:city" v="Brattleboro"/>
    <tag k="addr:housenumber" v="355"/>
    <tag k="addr:street" v="Old Ferry Road"/>
    <tag k="addr:state" v="VT"/>
    <tag k="ref:vcgi:esiteid" v="344976"/>
  </node>
  <node id="-6463" visible="true" lat="42.87606132" lon="-72.58325354">
    <tag k="addr:city" v="Brattleboro"/>
    <tag k="addr:housenumber" v="21"/>
    <tag k="addr:street" v="Fairly Wild Way"/>
    <tag k="addr:state" v="VT"/>
    <tag k="ref:vcgi:esiteid" v="346044"/>
  </node>
  <node id="-6472" visible="true" lat="42.88162641" lon="-72.59897523">
    <tag k="addr:city" v="Brattleboro"/>
    <tag k="addr:housenumber" v="900"/>
    <tag k="addr:street" v="Meadowbrook Road"/>
    <tag k="addr:state" v="VT"/>
    <tag k="ref:vcgi:esiteid" v="446540"/>
  </node>
  <node id="-6475" visible="true" lat="42.87668854" lon="-72.56579105">
    <tag k="addr:city" v="Brattleboro"/>
    <tag k="addr:housenumber" v="92"/>
    <tag k="addr:street" v="Technology Drive"/>
    <tag k="addr:state" v="VT"/>
    <tag k="ref:vcgi:esiteid" v="446982"/>
  </node>
  <node id="-6535" visible="true" lat="42.83304399" lon="-72.56345058">
    <tag k="addr:city" v="Brattleboro"/>
    <tag k="addr:housenumber" v="86"/>
    <tag k="addr:street" v="University Way"/>
    <tag k="addr:state" v="VT"/>
    <tag k="ref:vcgi:esiteid" v="454756"/>
  </node>
  <node id="-6590" visible="true" lat="42.8745292" lon="-72.56772808">
    <tag k="addr:city" v="Brattleboro"/>
    <tag k="addr:housenumber" v="88"/>
    <tag k="addr:street" v="Technology Drive"/>
    <tag k="addr:state" v="VT"/>
    <tag k="ref:vcgi:esiteid" v="752146"/>
  </node>
  <node id="-6596" visible="true" lat="42.89033992" lon="-72.56860901">
    <tag k="addr:city" v="Brattleboro"/>
    <tag k="addr:housenumber" v="175"/>
    <tag k="addr:street" v="Experiment Way"/>
    <tag k="addr:state" v="VT"/>
    <tag k="ref:vcgi:esiteid" v="754233"/>
  </node>
</osm>
