<?xml version="1.0" encoding="UTF-8"?>
<osm version="0.6" generator="JOSM">
  <node id="-134" visible="true" lat="42.89061078" lon="-72.55380421">
    <!-- conflict: "1354 Putney Road, Brattleboro, VT" No match in OSM, but a different address exists <5m away: "1354 , , " -->
    <tag k="addr:city" v="Brattleboro"/>
    <tag k="addr:housenumber" v="1354"/>
    <tag k="addr:street" v="Putney Road"/>
    <tag k="addr:state" v="VT"/>
    <tag k="ref:vcgi:esiteid" v="29681"/>
  </node>
  <node id="-553" visible="true" lat="42.86766999" lon="-72.55814">
    <!-- conflict: "28 Spring Tree Road, Brattleboro, VT" Fuzzy match to "28 Spring Tree Road, Brattleboro, " -->
    <tag k="addr:city" v="Brattleboro"/>
    <tag k="addr:housenumber" v="28"/>
    <tag k="addr:street" v="Spring Tree Road"/>
    <tag k="addr:state" v="VT"/>
    <tag k="ref:vcgi:esiteid" v="30126"/>
  </node>
  <node id="-1444" visible="true" lat="42.85349999" lon="-72.55959999">
    <!-- conflict: "29 High Street, Brattleboro, VT" No match in OSM, but a different address exists <5m away: "21 High Street, Brattleboro, VT" -->
    <tag k="addr:city" v="Brattleboro"/>
    <tag k="addr:housenumber" v="29"/>
    <tag k="addr:street" v="High Street"/>
    <tag k="addr:state" v="VT"/>
    <tag k="ref:vcgi:esiteid" v="31038"/>
  </node>
  <node id="-1872" visible="true" lat="42.85166187" lon="-72.55621775">
    <!-- conflict: "36 Bridge Street, Brattleboro, VT" Fuzzy match to "36 Bridge Street, Brattleboro, " -->
    <tag k="addr:city" v="Brattleboro"/>
    <tag k="addr:housenumber" v="36"/>
    <tag k="addr:street" v="Bridge Street"/>
    <tag k="addr:state" v="VT"/>
    <tag k="ref:vcgi:esiteid" v="31471"/>
  </node>
  <node id="-1960" visible="true" lat="42.85084443" lon="-72.5998615">
    <!-- conflict: "78 South Street, Brattleboro, VT" Fuzzy match to "78 South Street, , " -->
    <tag k="addr:city" v="Brattleboro"/>
    <tag k="addr:housenumber" v="78"/>
    <tag k="addr:street" v="South Street"/>
    <tag k="addr:state" v="VT"/>
    <tag k="ref:vcgi:esiteid" v="31560"/>
  </node>
  <node id="-2595" visible="true" lat="42.8476" lon="-72.56744999">
    <!-- conflict: "120 Birge Street, Brattleboro, VT" Fuzzy match to "120 Birge Street, , " -->
    <tag k="addr:city" v="Brattleboro"/>
    <tag k="addr:housenumber" v="120"/>
    <tag k="addr:street" v="Birge Street"/>
    <tag k="addr:state" v="VT"/>
    <tag k="ref:vcgi:esiteid" v="32203"/>
  </node>
  <node id="-2802" visible="true" lat="42.84640999" lon="-72.56935">
    <!-- conflict: "16 Chestnut Street, Brattleboro, VT" No match in OSM, but a different address exists <5m away: " Chestnut Street, Brattleboro, VT" -->
    <tag k="addr:city" v="Brattleboro"/>
    <tag k="addr:housenumber" v="16"/>
    <tag k="addr:street" v="Chestnut Street"/>
    <tag k="addr:state" v="VT"/>
    <tag k="ref:vcgi:esiteid" v="32412"/>
  </node>
  <node id="-2951" visible="true" lat="42.84544" lon="-72.57171">
    <!-- conflict: "16 Locust Street, Brattleboro, VT" No match in OSM, but a different address exists <5m away: " , Brattleboro, VT" -->
    <tag k="addr:city" v="Brattleboro"/>
    <tag k="addr:housenumber" v="16"/>
    <tag k="addr:street" v="Locust Street"/>
    <tag k="addr:state" v="VT"/>
    <tag k="ref:vcgi:esiteid" v="32562"/>
  </node>
  <node id="-3345" visible="true" lat="42.84360975" lon="-72.56482882">
    <!-- conflict: "17 Belmont Avenue, Brattleboro, VT" Fuzzy match to "17 Belmont Avenue, Brattleboro, " -->
    <tag k="addr:city" v="Brattleboro"/>
    <tag k="addr:housenumber" v="17"/>
    <tag k="addr:street" v="Belmont Avenue"/>
    <tag k="addr:state" v="VT"/>
    <tag k="ref:vcgi:esiteid" v="32958"/>
  </node>
  <node id="-4805" visible="true" lat="42.86750999" lon="-72.62114999">
    <!-- conflict: "487 Marlboro Road, Brattleboro, VT" Fuzzy match to "487 Marlboro Road, , " -->
    <tag k="addr:city" v="Brattleboro"/>
    <tag k="addr:housenumber" v="487"/>
    <tag k="addr:street" v="Marlboro Road"/>
    <tag k="addr:state" v="VT"/>
    <tag k="ref:vcgi:esiteid" v="34446"/>
  </node>
  <node id="-5862" visible="true" lat="42.84639963" lon="-72.56942705">
    <!-- conflict: "18 Chestnut Street, Brattleboro, VT" No match in OSM, but a different address exists <5m away: " Chestnut Street, Brattleboro, VT" -->
    <tag k="addr:city" v="Brattleboro"/>
    <tag k="addr:housenumber" v="18"/>
    <tag k="addr:street" v="Chestnut Street"/>
    <tag k="addr:state" v="VT"/>
    <tag k="ref:vcgi:esiteid" v="35795"/>
  </node>
</osm>
