<?xml version="1.0" encoding="UTF-8"?>
<osm version="0.6" generator="JOSM">
  <node id="-101" visible="true" lat="43.6723191" lon="-72.69594945">
    <tag k="addr:city" v="Bridgewater"/>
    <tag k="addr:housenumber" v="879"/>
    <tag k="addr:street" v="Barnard Chateauguay Road"/>
    <tag k="addr:state" v="VT"/>
    <tag k="ref:vcgi:esiteid" v="36450"/>
  </node>
  <node id="-102" visible="true" lat="43.67084575" lon="-72.6949586">
    <tag k="addr:city" v="Bridgewater"/>
    <tag k="addr:housenumber" v="780"/>
    <tag k="addr:street" v="Barnard Chateauguay Road"/>
    <tag k="addr:state" v="VT"/>
    <tag k="ref:vcgi:esiteid" v="36451"/>
  </node>
  <node id="-103" visible="true" lat="43.66918787" lon="-72.69416315">
    <tag k="addr:city" v="Bridgewater"/>
    <tag k="addr:housenumber" v="662"/>
    <tag k="addr:street" v="Barnard Chateauguay Road"/>
    <tag k="addr:state" v="VT"/>
    <tag k="ref:vcgi:esiteid" v="36452"/>
  </node>
  <node id="-104" visible="true" lat="43.66617584" lon="-72.60759735">
    <tag k="addr:city" v="Bridgewater"/>
    <tag k="addr:housenumber" v="796"/>
    <tag k="addr:street" v="Wayside Road Extension"/>
    <tag k="addr:state" v="VT"/>
    <tag k="ref:vcgi:esiteid" v="36453"/>
  </node>
  <node id="-105" visible="true" lat="43.66495513" lon="-72.59042358">
    <tag k="addr:city" v="Bridgewater"/>
    <tag k="addr:housenumber" v="1013"/>
    <tag k="addr:street" v="Wayside Road"/>
    <tag k="addr:state" v="VT"/>
    <tag k="ref:vcgi:esiteid" v="36454"/>
  </node>
  <node id="-106" visible="true" lat="43.6637524" lon="-72.69380709">
    <tag k="addr:city" v="Bridgewater"/>
    <tag k="addr:housenumber" v="288"/>
    <tag k="addr:street" v="Barnard Chateauguay Road"/>
    <tag k="addr:state" v="VT"/>
    <tag k="ref:vcgi:esiteid" v="36455"/>
  </node>
  <node id="-111" visible="true" lat="43.66797512" lon="-72.65266205">
    <tag k="addr:city" v="Bridgewater"/>
    <tag k="addr:housenumber" v="343"/>
    <tag k="addr:street" v="Lone Pine Trail"/>
    <tag k="addr:state" v="VT"/>
    <tag k="ref:vcgi:esiteid" v="36460"/>
  </node>
  <node id="-120" visible="true" lat="43.65987753" lon="-72.64963244">
    <tag k="addr:city" v="Bridgewater"/>
    <tag k="addr:housenumber" v="258"/>
    <tag k="addr:street" v="Lone Pine Trail"/>
    <tag k="addr:state" v="VT"/>
    <tag k="ref:vcgi:esiteid" v="36469"/>
  </node>
  <node id="-121" visible="true" lat="43.65922164" lon="-72.66318511">
    <tag k="addr:city" v="Bridgewater"/>
    <tag k="addr:housenumber" v="334"/>
    <tag k="addr:street" v="Bridgewater Hollow Road Extension"/>
    <tag k="addr:state" v="VT"/>
    <tag k="ref:vcgi:esiteid" v="36470"/>
  </node>
  <node id="-122" visible="true" lat="43.65810775" lon="-72.65470123">
    <tag k="addr:city" v="Bridgewater"/>
    <tag k="addr:housenumber" v="94"/>
    <tag k="addr:street" v="Bridgewater Hollow Road Extension"/>
    <tag k="addr:state" v="VT"/>
    <tag k="ref:vcgi:esiteid" v="36471"/>
  </node>
  <node id="-124" visible="true" lat="43.65794754" lon="-72.65515899">
    <tag k="addr:city" v="Bridgewater"/>
    <tag k="addr:housenumber" v="118"/>
    <tag k="addr:street" v="Bridgewater Hollow Road Extension"/>
    <tag k="addr:state" v="VT"/>
    <tag k="ref:vcgi:esiteid" v="36473"/>
  </node>
  <node id="-126" visible="true" lat="43.65784072" lon="-72.6530075">
    <tag k="addr:city" v="Bridgewater"/>
    <tag k="addr:housenumber" v="12"/>
    <tag k="addr:street" v="Bridgewater Hollow Road Extension"/>
    <tag k="addr:state" v="VT"/>
    <tag k="ref:vcgi:esiteid" v="36475"/>
  </node>
  <node id="-127" visible="true" lat="43.65727628" lon="-72.65573328">
    <tag k="addr:city" v="Bridgewater"/>
    <tag k="addr:housenumber" v="161"/>
    <tag k="addr:street" v="Bridgewater Hollow Road Extension"/>
    <tag k="addr:state" v="VT"/>
    <tag k="ref:vcgi:esiteid" v="36476"/>
  </node>
  <node id="-129" visible="true" lat="43.65681457" lon="-72.65366363">
    <tag k="addr:city" v="Bridgewater"/>
    <tag k="addr:housenumber" v="849"/>
    <tag k="addr:street" v="Bridgewater Hollow Road"/>
    <tag k="addr:state" v="VT"/>
    <tag k="ref:vcgi:esiteid" v="36478"/>
  </node>
  <node id="-130" visible="true" lat="43.65630822" lon="-72.65859935">
    <tag k="addr:city" v="Bridgewater"/>
    <tag k="addr:housenumber" v="317"/>
    <tag k="addr:street" v="Bridgewater Hollow Road Extension"/>
    <tag k="addr:state" v="VT"/>
    <tag k="ref:vcgi:esiteid" v="36479"/>
  </node>
  <node id="-139" visible="true" lat="43.6517601" lon="-72.71843719">
    <tag k="addr:city" v="Bridgewater"/>
    <tag k="addr:housenumber" v="1536"/>
    <tag k="addr:street" v="Stevens Road"/>
    <tag k="addr:state" v="VT"/>
    <tag k="ref:vcgi:esiteid" v="36488"/>
  </node>
  <node id="-142" visible="true" lat="43.65091938" lon="-72.71829836">
    <tag k="addr:city" v="Bridgewater"/>
    <tag k="addr:housenumber" v="1440"/>
    <tag k="addr:street" v="Stevens Road"/>
    <tag k="addr:state" v="VT"/>
    <tag k="ref:vcgi:esiteid" v="36491"/>
  </node>
  <node id="-143" visible="true" lat="43.65036078" lon="-72.71840933">
    <tag k="addr:city" v="Bridgewater"/>
    <tag k="addr:housenumber" v="1433"/>
    <tag k="addr:street" v="Stevens Road"/>
    <tag k="addr:state" v="VT"/>
    <tag k="ref:vcgi:esiteid" v="36492"/>
  </node>
  <node id="-144" visible="true" lat="43.65061629" lon="-72.71756124">
    <tag k="addr:city" v="Bridgewater"/>
    <tag k="addr:housenumber" v="1374"/>
    <tag k="addr:street" v="Stevens Road"/>
    <tag k="addr:state" v="VT"/>
    <tag k="ref:vcgi:esiteid" v="36493"/>
  </node>
  <node id="-156" visible="true" lat="43.64373397" lon="-72.72120666">
    <tag k="addr:city" v="Bridgewater"/>
    <tag k="addr:housenumber" v="933"/>
    <tag k="addr:street" v="Stevens Road"/>
    <tag k="addr:state" v="VT"/>
    <tag k="ref:vcgi:esiteid" v="36505"/>
  </node>
  <node id="-161" visible="true" lat="43.64257812" lon="-72.72290802">
    <tag k="addr:city" v="Bridgewater"/>
    <tag k="addr:housenumber" v="294"/>
    <tag k="addr:street" v="Richardson Road"/>
    <tag k="addr:state" v="VT"/>
    <tag k="ref:vcgi:esiteid" v="36511"/>
  </node>
  <node id="-167" visible="true" lat="43.63880157" lon="-72.72025299">
    <tag k="addr:city" v="Bridgewater"/>
    <tag k="addr:housenumber" v="550"/>
    <tag k="addr:street" v="Stevens Road"/>
    <tag k="addr:state" v="VT"/>
    <tag k="ref:vcgi:esiteid" v="36517"/>
  </node>
  <node id="-168" visible="true" lat="43.63808059" lon="-72.72122955">
    <tag k="addr:city" v="Bridgewater"/>
    <tag k="addr:housenumber" v="519"/>
    <tag k="addr:street" v="Stevens Road"/>
    <tag k="addr:state" v="VT"/>
    <tag k="ref:vcgi:esiteid" v="36518"/>
  </node>
  <node id="-169" visible="true" lat="43.63592529" lon="-72.72115325">
    <tag k="addr:city" v="Bridgewater"/>
    <tag k="addr:housenumber" v="376"/>
    <tag k="addr:street" v="Stevens Road"/>
    <tag k="addr:state" v="VT"/>
    <tag k="ref:vcgi:esiteid" v="36519"/>
  </node>
  <node id="-173" visible="true" lat="43.63032683" lon="-72.73059393">
    <tag k="addr:city" v="Bridgewater"/>
    <tag k="addr:housenumber" v="657"/>
    <tag k="addr:street" v="Little Sherburne Road"/>
    <tag k="addr:state" v="VT"/>
    <tag k="ref:vcgi:esiteid" v="36523"/>
  </node>
  <node id="-193" visible="true" lat="43.62422993" lon="-72.66475104">
    <tag k="addr:city" v="Bridgewater"/>
    <tag k="addr:housenumber" v="450"/>
    <tag k="addr:street" v="Chateauguay Road"/>
    <tag k="addr:state" v="VT"/>
    <tag k="ref:vcgi:esiteid" v="36545"/>
  </node>
  <node id="-201" visible="true" lat="43.62282064" lon="-72.71740845">
    <tag k="addr:city" v="Bridgewater"/>
    <tag k="addr:housenumber" v="2865"/>
    <tag k="addr:street" v="Bridgewater Hill Road"/>
    <tag k="addr:state" v="VT"/>
    <tag k="ref:vcgi:esiteid" v="36553"/>
  </node>
  <node id="-217" visible="true" lat="43.61960983" lon="-72.66495513">
    <tag k="addr:city" v="Bridgewater"/>
    <tag k="addr:housenumber" v="98"/>
    <tag k="addr:street" v="Baker Hill Road"/>
    <tag k="addr:state" v="VT"/>
    <tag k="ref:vcgi:esiteid" v="36569"/>
  </node>
  <node id="-241" visible="true" lat="43.61718368" lon="-72.67054748">
    <tag k="addr:city" v="Bridgewater"/>
    <tag k="addr:housenumber" v="379"/>
    <tag k="addr:street" v="Gorge Hill Road"/>
    <tag k="addr:state" v="VT"/>
    <tag k="ref:vcgi:esiteid" v="36594"/>
  </node>
  <node id="-274" visible="true" lat="43.61812369" lon="-72.63513499">
    <tag k="addr:city" v="Bridgewater"/>
    <tag k="addr:housenumber" v="1621"/>
    <tag k="addr:street" v="Goldcoast Road"/>
    <tag k="addr:state" v="VT"/>
    <tag k="ref:vcgi:esiteid" v="36628"/>
  </node>
  <node id="-306" visible="true" lat="43.60367584" lon="-72.73923492">
    <tag k="addr:city" v="Bridgewater"/>
    <tag k="addr:housenumber" v="647"/>
    <tag k="addr:street" v="U.S. Route 4"/>
    <tag k="addr:state" v="VT"/>
    <tag k="ref:vcgi:esiteid" v="36660"/>
  </node>
  <node id="-310" visible="true" lat="43.60337448" lon="-72.73937225">
    <tag k="addr:city" v="Bridgewater"/>
    <tag k="addr:housenumber" v="643"/>
    <tag k="addr:street" v="U.S. Route 4"/>
    <tag k="addr:state" v="VT"/>
    <tag k="ref:vcgi:esiteid" v="36664"/>
  </node>
  <node id="-335" visible="true" lat="43.59972763" lon="-72.74925231">
    <tag k="addr:city" v="Bridgewater"/>
    <tag k="addr:housenumber" v="24"/>
    <tag k="addr:street" v="Vermont Route 100"/>
    <tag k="addr:state" v="VT"/>
    <tag k="ref:vcgi:esiteid" v="36691"/>
  </node>
  <node id="-340" visible="true" lat="43.59925842" lon="-72.692276">
    <tag k="addr:city" v="Bridgewater"/>
    <tag k="addr:housenumber" v="591"/>
    <tag k="addr:street" v="Rogers Road"/>
    <tag k="addr:state" v="VT"/>
    <tag k="ref:vcgi:esiteid" v="36696"/>
  </node>
  <node id="-348" visible="true" lat="43.59850692" lon="-72.69183349">
    <tag k="addr:city" v="Bridgewater"/>
    <tag k="addr:housenumber" v="541"/>
    <tag k="addr:street" v="Rogers Road"/>
    <tag k="addr:state" v="VT"/>
    <tag k="ref:vcgi:esiteid" v="36704"/>
  </node>
  <node id="-364" visible="true" lat="43.59664154" lon="-72.69403839">
    <tag k="addr:city" v="Bridgewater"/>
    <tag k="addr:housenumber" v="215"/>
    <tag k="addr:street" v="Mountain View Road"/>
    <tag k="addr:state" v="VT"/>
    <tag k="ref:vcgi:esiteid" v="36721"/>
  </node>
  <node id="-368" visible="true" lat="43.59631729" lon="-72.71089935">
    <tag k="addr:city" v="Bridgewater"/>
    <tag k="addr:housenumber" v="110"/>
    <tag k="addr:street" v="Pearson Road"/>
    <tag k="addr:state" v="VT"/>
    <tag k="ref:vcgi:esiteid" v="36726"/>
  </node>
  <node id="-373" visible="true" lat="43.59576598" lon="-72.61543174">
    <tag k="addr:city" v="Bridgewater"/>
    <tag k="addr:housenumber" v="784"/>
    <tag k="addr:street" v="North Bridgewater Road"/>
    <tag k="addr:state" v="VT"/>
    <tag k="ref:vcgi:esiteid" v="36731"/>
  </node>
  <node id="-374" visible="true" lat="43.59551721" lon="-72.74926147">
    <tag k="addr:city" v="Bridgewater"/>
    <tag k="addr:housenumber" v="309"/>
    <tag k="addr:street" v="Vermont Route 100"/>
    <tag k="addr:state" v="VT"/>
    <tag k="ref:vcgi:esiteid" v="36732"/>
  </node>
  <node id="-384" visible="true" lat="43.59477225" lon="-72.6499374">
    <tag k="addr:city" v="Bridgewater"/>
    <tag k="addr:housenumber" v="653"/>
    <tag k="addr:street" v="Goldcoast Road"/>
    <tag k="addr:state" v="VT"/>
    <tag k="ref:vcgi:esiteid" v="36742"/>
  </node>
  <node id="-400" visible="true" lat="43.59341092" lon="-72.6309739">
    <tag k="addr:city" v="Bridgewater"/>
    <tag k="addr:housenumber" v="438"/>
    <tag k="addr:street" v="Goldcoast Road"/>
    <tag k="addr:state" v="VT"/>
    <tag k="ref:vcgi:esiteid" v="36758"/>
  </node>
  <node id="-405" visible="true" lat="43.5924797" lon="-72.71190643">
    <tag k="addr:city" v="Bridgewater"/>
    <tag k="addr:housenumber" v="77"/>
    <tag k="addr:street" v="Pearson Road"/>
    <tag k="addr:state" v="VT"/>
    <tag k="ref:vcgi:esiteid" v="36764"/>
  </node>
  <node id="-411" visible="true" lat="43.5916438" lon="-72.63146211">
    <tag k="addr:city" v="Bridgewater"/>
    <tag k="addr:housenumber" v="226"/>
    <tag k="addr:street" v="Goldcoast Road"/>
    <tag k="addr:state" v="VT"/>
    <tag k="ref:vcgi:esiteid" v="36770"/>
  </node>
  <node id="-434" visible="true" lat="43.58921867" lon="-72.65787255">
    <tag k="addr:city" v="Bridgewater"/>
    <tag k="addr:housenumber" v="362"/>
    <tag k="addr:street" v="Upper Road"/>
    <tag k="addr:state" v="VT"/>
    <tag k="ref:vcgi:esiteid" v="36794"/>
  </node>
  <node id="-439" visible="true" lat="43.58877181" lon="-72.65738678">
    <tag k="addr:city" v="Bridgewater"/>
    <tag k="addr:housenumber" v="338"/>
    <tag k="addr:street" v="Upper Road"/>
    <tag k="addr:state" v="VT"/>
    <tag k="ref:vcgi:esiteid" v="36799"/>
  </node>
  <node id="-442" visible="true" lat="43.58876037" lon="-72.62050628">
    <tag k="addr:city" v="Bridgewater"/>
    <tag k="addr:housenumber" v="50"/>
    <tag k="addr:street" v="Mill Village Road"/>
    <tag k="addr:state" v="VT"/>
    <tag k="ref:vcgi:esiteid" v="36802"/>
  </node>
  <node id="-452" visible="true" lat="43.58832279" lon="-72.65405825">
    <tag k="addr:city" v="Bridgewater"/>
    <tag k="addr:housenumber" v="170"/>
    <tag k="addr:street" v="Upper Road"/>
    <tag k="addr:state" v="VT"/>
    <tag k="ref:vcgi:esiteid" v="36812"/>
  </node>
  <node id="-454" visible="true" lat="43.588331" lon="-72.6554636">
    <tag k="addr:city" v="Bridgewater"/>
    <tag k="addr:housenumber" v="5713"/>
    <tag k="addr:street" v="U.S. Route 4"/>
    <tag k="addr:state" v="VT"/>
    <tag k="ref:vcgi:esiteid" v="36814"/>
  </node>
  <node id="-481" visible="true" lat="43.5881451" lon="-72.62433762">
    <tag k="addr:city" v="Bridgewater"/>
    <tag k="addr:housenumber" v="76"/>
    <tag k="addr:street" v="Southgate Loop"/>
    <tag k="addr:state" v="VT"/>
    <tag k="ref:vcgi:esiteid" v="36842"/>
  </node>
  <node id="-497" visible="true" lat="43.58746287" lon="-72.65534051">
    <tag k="addr:city" v="Bridgewater"/>
    <tag k="addr:housenumber" v="5746"/>
    <tag k="addr:street" v="U.S. Route 4"/>
    <tag k="addr:state" v="VT"/>
    <tag k="ref:vcgi:esiteid" v="36858"/>
  </node>
  <node id="-507" visible="true" lat="43.58758486" lon="-72.62223457">
    <tag k="addr:city" v="Bridgewater"/>
    <tag k="addr:housenumber" v="7429"/>
    <tag k="addr:street" v="U.S. Route 4"/>
    <tag k="addr:state" v="VT"/>
    <tag k="ref:vcgi:esiteid" v="36869"/>
  </node>
  <node id="-518" visible="true" lat="43.58732986" lon="-72.62050628">
    <tag k="addr:city" v="Bridgewater"/>
    <tag k="addr:housenumber" v="7515"/>
    <tag k="addr:street" v="U.S. Route 4"/>
    <tag k="addr:state" v="VT"/>
    <tag k="ref:vcgi:esiteid" v="36880"/>
  </node>
  <node id="-562" visible="true" lat="43.57792663" lon="-72.69485473">
    <tag k="addr:city" v="Bridgewater"/>
    <tag k="addr:housenumber" v="260"/>
    <tag k="addr:street" v="Town Line Road Extension"/>
    <tag k="addr:state" v="VT"/>
    <tag k="ref:vcgi:esiteid" v="36924"/>
  </node>
  <node id="-571" visible="true" lat="43.57667922" lon="-72.65821838">
    <tag k="addr:city" v="Bridgewater"/>
    <tag k="addr:housenumber" v="99"/>
    <tag k="addr:street" v="Scales Road"/>
    <tag k="addr:state" v="VT"/>
    <tag k="ref:vcgi:esiteid" v="36934"/>
  </node>
  <node id="-596" visible="true" lat="43.56967973" lon="-72.6673632">
    <tag k="addr:city" v="Bridgewater"/>
    <tag k="addr:housenumber" v="51"/>
    <tag k="addr:street" v="Blueberry Ledge Lane"/>
    <tag k="addr:state" v="VT"/>
    <tag k="ref:vcgi:esiteid" v="36961"/>
  </node>
  <node id="-614" visible="true" lat="43.59983444" lon="-72.63470459">
    <tag k="addr:city" v="Bridgewater"/>
    <tag k="addr:housenumber" v="823"/>
    <tag k="addr:street" v="Goldcoast Road"/>
    <tag k="addr:state" v="VT"/>
    <tag k="ref:vcgi:esiteid" v="36979"/>
  </node>
  <node id="-623" visible="true" lat="43.591053" lon="-72.70817565">
    <tag k="addr:city" v="Bridgewater"/>
    <tag k="addr:housenumber" v="85"/>
    <tag k="addr:street" v="Pearson Road"/>
    <tag k="addr:state" v="VT"/>
    <tag k="ref:vcgi:esiteid" v="36988"/>
  </node>
  <node id="-626" visible="true" lat="43.63914871" lon="-72.72342681">
    <tag k="addr:city" v="Bridgewater"/>
    <tag k="addr:housenumber" v="105"/>
    <tag k="addr:street" v="Richardson Road"/>
    <tag k="addr:state" v="VT"/>
    <tag k="ref:vcgi:esiteid" v="36991"/>
  </node>
  <node id="-627" visible="true" lat="43.64426803" lon="-72.71965026">
    <tag k="addr:city" v="Bridgewater"/>
    <tag k="addr:housenumber" v="968"/>
    <tag k="addr:street" v="Stevens Road"/>
    <tag k="addr:state" v="VT"/>
    <tag k="ref:vcgi:esiteid" v="36992"/>
  </node>
  <node id="-628" visible="true" lat="43.64841842" lon="-72.72014617">
    <tag k="addr:city" v="Bridgewater"/>
    <tag k="addr:housenumber" v="1159"/>
    <tag k="addr:street" v="Stevens Road"/>
    <tag k="addr:state" v="VT"/>
    <tag k="ref:vcgi:esiteid" v="36993"/>
  </node>
  <node id="-629" visible="true" lat="43.65841674" lon="-72.71347045">
    <tag k="addr:city" v="Bridgewater"/>
    <tag k="addr:housenumber" v="1323"/>
    <tag k="addr:street" v="Oxbow Road"/>
    <tag k="addr:state" v="VT"/>
    <tag k="ref:vcgi:esiteid" v="36994"/>
  </node>
  <node id="-630" visible="true" lat="43.64367904" lon="-72.64538112">
    <tag k="addr:city" v="Bridgewater"/>
    <tag k="addr:housenumber" v="625"/>
    <tag k="addr:street" v="Beulah Robinson Trail"/>
    <tag k="addr:state" v="VT"/>
    <tag k="ref:vcgi:esiteid" v="36995"/>
  </node>
  <node id="-631" visible="true" lat="43.64328387" lon="-72.64574226">
    <tag k="addr:city" v="Bridgewater"/>
    <tag k="addr:housenumber" v="648"/>
    <tag k="addr:street" v="Beulah Robinson Trail"/>
    <tag k="addr:state" v="VT"/>
    <tag k="ref:vcgi:esiteid" v="36996"/>
  </node>
  <node id="-637" visible="true" lat="43.66241032" lon="-72.65082267">
    <tag k="addr:city" v="Bridgewater"/>
    <tag k="addr:housenumber" v="265"/>
    <tag k="addr:street" v="Lone Pine Trail"/>
    <tag k="addr:state" v="VT"/>
    <tag k="ref:vcgi:esiteid" v="37003"/>
  </node>
  <node id="-638" visible="true" lat="43.65413418" lon="-72.68249287">
    <tag k="addr:city" v="Bridgewater"/>
    <tag k="addr:housenumber" v="3625"/>
    <tag k="addr:street" v="Chateauguay Road"/>
    <tag k="addr:state" v="VT"/>
    <tag k="ref:vcgi:esiteid" v="37004"/>
  </node>
  <node id="-639" visible="true" lat="43.65354156" lon="-72.68106079">
    <tag k="addr:city" v="Bridgewater"/>
    <tag k="addr:housenumber" v="3527"/>
    <tag k="addr:street" v="Chateauguay Road"/>
    <tag k="addr:state" v="VT"/>
    <tag k="ref:vcgi:esiteid" v="37005"/>
  </node>
  <node id="-652" visible="true" lat="43.59089687" lon="-72.63123062">
    <tag k="addr:city" v="Bridgewater"/>
    <tag k="addr:housenumber" v="45"/>
    <tag k="addr:street" v="Mount Pleasant Way"/>
    <tag k="addr:state" v="VT"/>
    <tag k="ref:vcgi:esiteid" v="37020"/>
  </node>
  <node id="-659" visible="true" lat="43.65207242" lon="-72.67533114">
    <tag k="addr:city" v="Bridgewater"/>
    <tag k="addr:housenumber" v="3271"/>
    <tag k="addr:street" v="Chateauguay Road"/>
    <tag k="addr:state" v="VT"/>
    <tag k="ref:vcgi:esiteid" v="37029"/>
  </node>
  <node id="-660" visible="true" lat="43.62961112" lon="-72.71849694">
    <tag k="addr:city" v="Bridgewater"/>
    <tag k="addr:housenumber" v="2895"/>
    <tag k="addr:street" v="Bridgewater Hill Road"/>
    <tag k="addr:state" v="VT"/>
    <tag k="ref:vcgi:esiteid" v="37030"/>
  </node>
  <node id="-667" visible="true" lat="43.59077045" lon="-72.63031215">
    <tag k="addr:city" v="Bridgewater"/>
    <tag k="addr:housenumber" v="47"/>
    <tag k="addr:street" v="Mount Pleasant Way"/>
    <tag k="addr:state" v="VT"/>
    <tag k="ref:vcgi:esiteid" v="37037"/>
  </node>
  <node id="-668" visible="true" lat="43.58910393" lon="-72.61978387">
    <tag k="addr:city" v="Bridgewater"/>
    <tag k="addr:housenumber" v="54"/>
    <tag k="addr:street" v="Mill Village Road"/>
    <tag k="addr:state" v="VT"/>
    <tag k="ref:vcgi:esiteid" v="37038"/>
  </node>
  <node id="-683" visible="true" lat="43.59140285" lon="-72.66021858">
    <tag k="addr:city" v="Bridgewater"/>
    <tag k="addr:housenumber" v="146"/>
    <tag k="addr:street" v="Bridgewater Center Road"/>
    <tag k="addr:state" v="VT"/>
    <tag k="ref:vcgi:esiteid" v="37053"/>
  </node>
  <node id="-690" visible="true" lat="43.6244776" lon="-72.72015059">
    <tag k="addr:city" v="Bridgewater"/>
    <tag k="addr:housenumber" v="2872"/>
    <tag k="addr:street" v="Bridgewater Hill Road"/>
    <tag k="addr:state" v="VT"/>
    <tag k="ref:vcgi:esiteid" v="37061"/>
  </node>
  <node id="-694" visible="true" lat="43.62366236" lon="-72.71372399">
    <tag k="addr:city" v="Bridgewater"/>
    <tag k="addr:housenumber" v="2876"/>
    <tag k="addr:street" v="Bridgewater Hill Road"/>
    <tag k="addr:state" v="VT"/>
    <tag k="ref:vcgi:esiteid" v="37065"/>
  </node>
  <node id="-695" visible="true" lat="43.59017577" lon="-72.63063448">
    <tag k="addr:city" v="Bridgewater"/>
    <tag k="addr:housenumber" v="46"/>
    <tag k="addr:street" v="Mount Pleasant Way"/>
    <tag k="addr:state" v="VT"/>
    <tag k="ref:vcgi:esiteid" v="37066"/>
  </node>
  <node id="-701" visible="true" lat="43.59387888" lon="-72.62887422">
    <tag k="addr:city" v="Bridgewater"/>
    <tag k="addr:housenumber" v="218"/>
    <tag k="addr:street" v="Kinderwoods Way"/>
    <tag k="addr:state" v="VT"/>
    <tag k="ref:vcgi:esiteid" v="37073"/>
  </node>
  <node id="-715" visible="true" lat="43.58792561" lon="-72.62093517">
    <tag k="addr:city" v="Bridgewater"/>
    <tag k="addr:housenumber" v="65"/>
    <tag k="addr:street" v="Mill Village Road"/>
    <tag k="addr:state" v="VT"/>
    <tag k="ref:vcgi:esiteid" v="306978"/>
  </node>
  <node id="-716" visible="true" lat="43.60120225" lon="-72.67898413">
    <tag k="addr:city" v="Bridgewater"/>
    <tag k="addr:housenumber" v="4269"/>
    <tag k="addr:street" v="U.S. Route 4"/>
    <tag k="addr:state" v="VT"/>
    <tag k="ref:vcgi:esiteid" v="306981"/>
  </node>
  <node id="-717" visible="true" lat="43.66202826" lon="-72.69514928">
    <tag k="addr:city" v="Bridgewater"/>
    <tag k="addr:housenumber" v="249"/>
    <tag k="addr:street" v="Barnard Chateauguay Road"/>
    <tag k="addr:state" v="VT"/>
    <tag k="ref:vcgi:esiteid" v="313460"/>
  </node>
  <node id="-721" visible="true" lat="43.5927058" lon="-72.62984636">
    <tag k="addr:city" v="Bridgewater"/>
    <tag k="addr:housenumber" v="133"/>
    <tag k="addr:street" v="Kinderwoods Way"/>
    <tag k="addr:state" v="VT"/>
    <tag k="ref:vcgi:esiteid" v="325338"/>
  </node>
  <node id="-722" visible="true" lat="43.59253624" lon="-72.62666712">
    <tag k="addr:city" v="Bridgewater"/>
    <tag k="addr:housenumber" v="382"/>
    <tag k="addr:street" v="Kinderwoods Way"/>
    <tag k="addr:state" v="VT"/>
    <tag k="ref:vcgi:esiteid" v="325339"/>
  </node>
  <node id="-723" visible="true" lat="43.64584994" lon="-72.71779708">
    <tag k="addr:city" v="Bridgewater"/>
    <tag k="addr:housenumber" v="1152"/>
    <tag k="addr:street" v="Stevens Road"/>
    <tag k="addr:state" v="VT"/>
    <tag k="ref:vcgi:esiteid" v="328128"/>
  </node>
  <node id="-726" visible="true" lat="43.61535827" lon="-72.63511995">
    <tag k="addr:city" v="Bridgewater"/>
    <tag k="addr:housenumber" v="1543"/>
    <tag k="addr:street" v="Goldcoast Road"/>
    <tag k="addr:state" v="VT"/>
    <tag k="ref:vcgi:esiteid" v="328131"/>
  </node>
  <node id="-728" visible="true" lat="43.58994938" lon="-72.64364102">
    <tag k="addr:city" v="Bridgewater"/>
    <tag k="addr:housenumber" v="85"/>
    <tag k="addr:street" v="Robinson Road"/>
    <tag k="addr:state" v="VT"/>
    <tag k="ref:vcgi:esiteid" v="328837"/>
  </node>
  <node id="-736" visible="true" lat="43.66445283" lon="-72.68064781">
    <tag k="addr:city" v="Bridgewater"/>
    <tag k="addr:housenumber" v="648"/>
    <tag k="addr:street" v="Walker Hill Road"/>
    <tag k="addr:state" v="VT"/>
    <tag k="ref:vcgi:esiteid" v="336513"/>
  </node>
  <node id="-737" visible="true" lat="43.65956334" lon="-72.67816633">
    <tag k="addr:city" v="Bridgewater"/>
    <tag k="addr:housenumber" v="625"/>
    <tag k="addr:street" v="Walker Hill Road"/>
    <tag k="addr:state" v="VT"/>
    <tag k="ref:vcgi:esiteid" v="336514"/>
  </node>
  <node id="-738" visible="true" lat="43.63254136" lon="-72.66023834">
    <tag k="addr:city" v="Bridgewater"/>
    <tag k="addr:housenumber" v="1191"/>
    <tag k="addr:street" v="Chateauguay Road"/>
    <tag k="addr:state" v="VT"/>
    <tag k="ref:vcgi:esiteid" v="339407"/>
  </node>
  <node id="-739" visible="true" lat="43.64503103" lon="-72.71921206">
    <tag k="addr:city" v="Bridgewater"/>
    <tag k="addr:housenumber" v="980"/>
    <tag k="addr:street" v="Stevens Road"/>
    <tag k="addr:state" v="VT"/>
    <tag k="ref:vcgi:esiteid" v="340589"/>
  </node>
  <node id="-740" visible="true" lat="43.61746286" lon="-72.72331224">
    <tag k="addr:city" v="Bridgewater"/>
    <tag k="addr:housenumber" v="1861"/>
    <tag k="addr:street" v="Bridgewater Hill Road"/>
    <tag k="addr:state" v="VT"/>
    <tag k="ref:vcgi:esiteid" v="342444"/>
  </node>
  <node id="-746" visible="true" lat="43.66331896" lon="-72.6024323">
    <tag k="addr:city" v="Bridgewater"/>
    <tag k="addr:housenumber" v="554"/>
    <tag k="addr:street" v="Wayside Road Extension"/>
    <tag k="addr:state" v="VT"/>
    <tag k="ref:vcgi:esiteid" v="344074"/>
  </node>
  <node id="-748" visible="true" lat="43.61832194" lon="-72.66274773">
    <tag k="addr:city" v="Bridgewater"/>
    <tag k="addr:housenumber" v="32"/>
    <tag k="addr:street" v="Dailey Hollow Road"/>
    <tag k="addr:state" v="VT"/>
    <tag k="ref:vcgi:esiteid" v="344077"/>
  </node>
  <node id="-749" visible="true" lat="43.66060967" lon="-72.65068731">
    <tag k="addr:city" v="Bridgewater"/>
    <tag k="addr:housenumber" v="262"/>
    <tag k="addr:street" v="Lone Pine Trail"/>
    <tag k="addr:state" v="VT"/>
    <tag k="ref:vcgi:esiteid" v="344805"/>
  </node>
  <node id="-750" visible="true" lat="43.65207648" lon="-72.67181383">
    <tag k="addr:city" v="Bridgewater"/>
    <tag k="addr:housenumber" v="6"/>
    <tag k="addr:street" v="Walker Hill Road"/>
    <tag k="addr:state" v="VT"/>
    <tag k="ref:vcgi:esiteid" v="344806"/>
  </node>
  <node id="-751" visible="true" lat="43.65635127" lon="-72.68763509">
    <tag k="addr:city" v="Bridgewater"/>
    <tag k="addr:housenumber" v="3989"/>
    <tag k="addr:street" v="Chateauguay Road"/>
    <tag k="addr:state" v="VT"/>
    <tag k="ref:vcgi:esiteid" v="344807"/>
  </node>
  <node id="-753" visible="true" lat="43.66620484" lon="-72.71030449">
    <tag k="addr:city" v="Bridgewater"/>
    <tag k="addr:housenumber" v="6023"/>
    <tag k="addr:street" v="Chateauguay Road"/>
    <tag k="addr:state" v="VT"/>
    <tag k="ref:vcgi:esiteid" v="344809"/>
  </node>
  <node id="-754" visible="true" lat="43.65796708" lon="-72.71393801">
    <tag k="addr:city" v="Bridgewater"/>
    <tag k="addr:housenumber" v="1327"/>
    <tag k="addr:street" v="Oxbow Road"/>
    <tag k="addr:state" v="VT"/>
    <tag k="ref:vcgi:esiteid" v="344810"/>
  </node>
  <node id="-755" visible="true" lat="43.64123796" lon="-72.72247307">
    <tag k="addr:city" v="Bridgewater"/>
    <tag k="addr:housenumber" v="187"/>
    <tag k="addr:street" v="Richardson Road"/>
    <tag k="addr:state" v="VT"/>
    <tag k="ref:vcgi:esiteid" v="344814"/>
  </node>
  <node id="-757" visible="true" lat="43.59402721" lon="-72.70802765">
    <tag k="addr:city" v="Bridgewater"/>
    <tag k="addr:housenumber" v="17"/>
    <tag k="addr:street" v="Pearson Road"/>
    <tag k="addr:state" v="VT"/>
    <tag k="ref:vcgi:esiteid" v="344821"/>
  </node>
  <node id="-758" visible="true" lat="43.59821558" lon="-72.69108825">
    <tag k="addr:city" v="Bridgewater"/>
    <tag k="addr:housenumber" v="533"/>
    <tag k="addr:street" v="Rogers Road"/>
    <tag k="addr:state" v="VT"/>
    <tag k="ref:vcgi:esiteid" v="448125"/>
  </node>
  <node id="-759" visible="true" lat="43.66285827" lon="-72.69390004">
    <tag k="addr:city" v="Bridgewater"/>
    <tag k="addr:housenumber" v="258"/>
    <tag k="addr:street" v="Barnard Chateauguay Road"/>
    <tag k="addr:state" v="VT"/>
    <tag k="ref:vcgi:esiteid" v="448320"/>
  </node>
  <node id="-761" visible="true" lat="43.58850737" lon="-72.75707598">
    <tag k="addr:city" v="Bridgewater"/>
    <tag k="addr:housenumber" v="174"/>
    <tag k="addr:street" v="Dennis Road"/>
    <tag k="addr:state" v="VT"/>
    <tag k="ref:vcgi:esiteid" v="450290"/>
  </node>
  <node id="-762" visible="true" lat="43.6590293" lon="-72.60861145">
    <tag k="addr:city" v="Bridgewater"/>
    <tag k="addr:housenumber" v="1140"/>
    <tag k="addr:street" v="Wayside Road Extension"/>
    <tag k="addr:state" v="VT"/>
    <tag k="ref:vcgi:esiteid" v="450383"/>
  </node>
  <node id="-763" visible="true" lat="43.66247581" lon="-72.62250257">
    <tag k="addr:city" v="Bridgewater"/>
    <tag k="addr:housenumber" v="1140"/>
    <tag k="addr:street" v="Wayside Road Extension"/>
    <tag k="addr:state" v="VT"/>
    <tag k="ref:vcgi:esiteid" v="450385"/>
  </node>
  <node id="-764" visible="true" lat="43.60152375" lon="-72.74268143">
    <tag k="addr:city" v="Bridgewater"/>
    <tag k="addr:housenumber" v="402"/>
    <tag k="addr:street" v="U.S. Route 4"/>
    <tag k="addr:state" v="VT"/>
    <tag k="ref:vcgi:esiteid" v="453594"/>
  </node>
  <node id="-768" visible="true" lat="43.64349873" lon="-72.72017413">
    <tag k="addr:city" v="Bridgewater"/>
    <tag k="addr:housenumber" v="948"/>
    <tag k="addr:street" v="Stevens Road"/>
    <tag k="addr:state" v="VT"/>
    <tag k="ref:vcgi:esiteid" v="612122"/>
  </node>
  <node id="-770" visible="true" lat="43.64201471" lon="-72.72343516">
    <tag k="addr:city" v="Bridgewater"/>
    <tag k="addr:housenumber" v="309"/>
    <tag k="addr:street" v="Richardson Road"/>
    <tag k="addr:state" v="VT"/>
    <tag k="ref:vcgi:esiteid" v="613437"/>
  </node>
  <node id="-771" visible="true" lat="43.58938281" lon="-72.62454995">
    <tag k="addr:city" v="Bridgewater"/>
    <tag k="addr:housenumber" v="117"/>
    <tag k="addr:street" v="North Bridgewater Road"/>
    <tag k="addr:state" v="VT"/>
    <tag k="ref:vcgi:esiteid" v="617868"/>
  </node>
  <node id="-772" visible="true" lat="43.62473666" lon="-72.65039862">
    <tag k="addr:city" v="Bridgewater"/>
    <tag k="addr:housenumber" v="745"/>
    <tag k="addr:street" v="Wemple Knoll Road"/>
    <tag k="addr:state" v="VT"/>
    <tag k="ref:vcgi:esiteid" v="620497"/>
  </node>
  <node id="-773" visible="true" lat="43.61369619" lon="-72.67000549">
    <tag k="addr:city" v="Bridgewater"/>
    <tag k="addr:housenumber" v="140"/>
    <tag k="addr:street" v="Mount Hope Road"/>
    <tag k="addr:state" v="VT"/>
    <tag k="ref:vcgi:esiteid" v="620799"/>
  </node>
  <node id="-776" visible="true" lat="43.59435585" lon="-72.66689493">
    <tag k="addr:city" v="Bridgewater"/>
    <tag k="addr:housenumber" v="4964"/>
    <tag k="addr:street" v="U.S. Route 4"/>
    <tag k="addr:state" v="VT"/>
    <tag k="ref:vcgi:esiteid" v="755156"/>
  </node>
  <node id="-777" visible="true" lat="43.62087672" lon="-72.67259416">
    <tag k="addr:city" v="Bridgewater"/>
    <tag k="addr:housenumber" v="527"/>
    <tag k="addr:street" v="Baker Hill Road"/>
    <tag k="addr:state" v="VT"/>
    <tag k="ref:vcgi:esiteid" v="755157"/>
  </node>
  <node id="-779" visible="true" lat="43.6596677" lon="-72.71359084">
    <tag k="addr:city" v="Bridgewater"/>
    <tag k="addr:housenumber" v="1340"/>
    <tag k="addr:street" v="Oxbow Road"/>
    <tag k="addr:state" v="VT"/>
    <tag k="ref:vcgi:esiteid" v="756448"/>
  </node>
  <node id="-786" visible="true" lat="43.58954772" lon="-72.63132817">
    <tag k="addr:city" v="Bridgewater"/>
    <tag k="addr:housenumber" v="62"/>
    <tag k="addr:street" v="Goldcoast Road"/>
    <tag k="addr:state" v="VT"/>
    <tag k="ref:vcgi:esiteid" v="758615"/>
  </node>
  <node id="-788" visible="true" lat="43.61885944" lon="-72.65943233">
    <tag k="addr:city" v="Bridgewater"/>
    <tag k="addr:housenumber" v="142"/>
    <tag k="addr:street" v="Oak Chapel Road"/>
    <tag k="addr:state" v="VT"/>
    <tag k="ref:vcgi:esiteid" v="759438"/>
  </node>
  <node id="-789" visible="true" lat="43.58812783" lon="-72.62329348">
    <tag k="addr:city" v="Bridgewater"/>
    <tag k="addr:housenumber" v="28"/>
    <tag k="addr:street" v="Southgate Loop"/>
    <tag k="addr:state" v="VT"/>
    <tag k="ref:vcgi:esiteid" v="759515"/>
  </node>
  <node id="-790" visible="true" lat="43.61094811" lon="-72.62708098">
    <tag k="addr:city" v="Bridgewater"/>
    <tag k="addr:housenumber" v="2007"/>
    <tag k="addr:street" v="Goldcoast Road"/>
    <tag k="addr:state" v="VT"/>
    <tag k="ref:vcgi:esiteid" v="759533"/>
  </node>
  <node id="-793" visible="true" lat="43.62093003" lon="-72.6217257">
    <tag k="addr:city" v="Bridgewater"/>
    <tag k="addr:housenumber" v="2669"/>
    <tag k="addr:street" v="North Bridgewater Road"/>
    <tag k="addr:state" v="VT"/>
    <tag k="ref:vcgi:esiteid" v="759624"/>
  </node>
  <node id="-795" visible="true" lat="43.66795249" lon="-72.69404699">
    <tag k="addr:city" v="Bridgewater"/>
    <tag k="addr:housenumber" v="538"/>
    <tag k="addr:street" v="Barnard Chateauguay Road"/>
    <tag k="addr:state" v="VT"/>
    <tag k="ref:vcgi:esiteid" v="760190"/>
  </node>
  <node id="-797" visible="true" lat="43.64073552" lon="-72.72242458">
    <tag k="addr:city" v="Bridgewater"/>
    <tag k="addr:housenumber" v="175"/>
    <tag k="addr:street" v="Richardson Road"/>
    <tag k="addr:state" v="VT"/>
    <tag k="ref:vcgi:esiteid" v="760442"/>
  </node>
  <node id="-798" visible="true" lat="43.63271171" lon="-72.72184208">
    <tag k="addr:city" v="Bridgewater"/>
    <tag k="addr:housenumber" v="161"/>
    <tag k="addr:street" v="Stevens Road"/>
    <tag k="addr:state" v="VT"/>
    <tag k="ref:vcgi:esiteid" v="760778"/>
  </node>
  <node id="-799" visible="true" lat="43.59330143" lon="-72.75371009">
    <tag k="addr:city" v="Bridgewater"/>
    <tag k="addr:housenumber" v="496"/>
    <tag k="addr:street" v="Vermont Route 100"/>
    <tag k="addr:state" v="VT"/>
    <tag k="ref:vcgi:esiteid" v="761204"/>
  </node>
  <node id="-800" visible="true" lat="43.59036753" lon="-72.63127743">
    <tag k="addr:city" v="Bridgewater"/>
    <tag k="addr:housenumber" v="22"/>
    <tag k="addr:street" v="Mount Pleasant Way"/>
    <tag k="addr:state" v="VT"/>
    <tag k="ref:vcgi:esiteid" v="761490"/>
  </node>
  <node id="-801" visible="true" lat="43.60208861" lon="-72.69809525">
    <tag k="addr:city" v="Bridgewater"/>
    <tag k="addr:housenumber" v="1258"/>
    <tag k="addr:street" v="Old Bridgewater Hill Road"/>
    <tag k="addr:state" v="VT"/>
    <tag k="ref:vcgi:esiteid" v="761491"/>
  </node>
  <node id="-802" visible="true" lat="43.63056588" lon="-72.60581947">
    <tag k="addr:city" v="Bridgewater"/>
    <tag k="addr:housenumber" v="664"/>
    <tag k="addr:street" v="Phelps Road"/>
    <tag k="addr:state" v="VT"/>
    <tag k="ref:vcgi:esiteid" v="761637"/>
  </node>
  <node id="-803" visible="true" lat="43.58048433" lon="-72.66496296">
    <tag k="addr:city" v="Bridgewater"/>
    <tag k="addr:housenumber" v="890"/>
    <tag k="addr:street" v="Vermont Route 100A"/>
    <tag k="addr:state" v="VT"/>
    <tag k="ref:vcgi:esiteid" v="761638"/>
  </node>
  <node id="-804" visible="true" lat="43.60355612" lon="-72.71733076">
    <tag k="addr:city" v="Bridgewater"/>
    <tag k="addr:housenumber" v="771"/>
    <tag k="addr:street" v="Bridgewater Hill Road"/>
    <tag k="addr:state" v="VT"/>
    <tag k="ref:vcgi:esiteid" v="763172"/>
  </node>
  <node id="-805" visible="true" lat="43.58965308" lon="-72.62897631">
    <tag k="addr:city" v="Bridgewater"/>
    <tag k="addr:housenumber" v="7031"/>
    <tag k="addr:street" v="U.S. Route 4"/>
    <tag k="addr:state" v="VT"/>
    <tag k="ref:vcgi:esiteid" v="763923"/>
  </node>
  <node id="-806" visible="true" lat="43.66791403" lon="-72.69002151">
    <tag k="addr:city" v="Bridgewater"/>
    <tag k="addr:housenumber" v="388"/>
    <tag k="addr:street" v="Barnard Chateauguay Road"/>
    <tag k="addr:state" v="VT"/>
    <tag k="ref:vcgi:esiteid" v="763924"/>
  </node>
  <node id="-807" visible="true" lat="43.61711815" lon="-72.65653586">
    <tag k="addr:city" v="Bridgewater"/>
    <tag k="addr:housenumber" v="90"/>
    <tag k="addr:street" v="Wemple Knoll Road"/>
    <tag k="addr:state" v="VT"/>
    <tag k="ref:vcgi:esiteid" v="764298"/>
  </node>
  <node id="-809" visible="true" lat="43.61790936" lon="-72.73255647">
    <tag k="addr:city" v="Bridgewater"/>
    <tag k="addr:housenumber" v="436"/>
    <tag k="addr:street" v="Laber Road"/>
    <tag k="addr:state" v="VT"/>
    <tag k="ref:vcgi:esiteid" v="765553"/>
  </node>
  <node id="-810" visible="true" lat="43.58734285" lon="-72.63154494">
    <tag k="addr:city" v="Bridgewater"/>
    <tag k="addr:housenumber" v="6934"/>
    <tag k="addr:street" v="U.S. Route 4"/>
    <tag k="addr:state" v="VT"/>
    <tag k="ref:vcgi:esiteid" v="765569"/>
  </node>
  <node id="-811" visible="true" lat="43.64631217" lon="-72.71678639">
    <tag k="addr:city" v="Bridgewater"/>
    <tag k="addr:housenumber" v="1268"/>
    <tag k="addr:street" v="Stevens Road"/>
    <tag k="addr:state" v="VT"/>
    <tag k="ref:vcgi:esiteid" v="900015"/>
  </node>
  <node id="-812" visible="true" lat="43.59796455" lon="-72.75084909">
    <tag k="addr:city" v="Bridgewater"/>
    <tag k="addr:housenumber" v="172"/>
    <tag k="addr:street" v="Vermont Route 100"/>
    <tag k="addr:state" v="VT"/>
    <tag k="ref:vcgi:esiteid" v="1050388"/>
  </node>
  <node id="-813" visible="true" lat="43.5881187" lon="-72.65865869">
    <tag k="addr:city" v="Bridgewater"/>
    <tag k="addr:housenumber" v="5548"/>
    <tag k="addr:street" v="U.S. Route 4"/>
    <tag k="addr:state" v="VT"/>
    <tag k="ref:vcgi:esiteid" v="1050390"/>
  </node>
  <node id="-814" visible="true" lat="43.67018048" lon="-72.6285083">
    <tag k="addr:city" v="Bridgewater"/>
    <tag k="addr:housenumber" v="1485"/>
    <tag k="addr:street" v="Green Gate Road"/>
    <tag k="addr:state" v="VT"/>
    <tag k="ref:vcgi:esiteid" v="1050954"/>
  </node>
  <node id="-815" visible="true" lat="43.64534934" lon="-72.60284144">
    <tag k="addr:city" v="Bridgewater"/>
    <tag k="addr:housenumber" v="4287"/>
    <tag k="addr:street" v="North Bridgewater Road"/>
    <tag k="addr:state" v="VT"/>
    <tag k="ref:vcgi:esiteid" v="1051148"/>
  </node>
</osm>
