<?xml version="1.0" encoding="UTF-8"?>
<osm version="0.6" generator="JOSM">
  <node id="-100" visible="true" lat="43.67274293" lon="-72.61871053">
    <tag k="addr:city" v="Bridgewater"/>
    <tag k="addr:housenumber" v="959"/>
    <tag k="addr:street" v="Green Gate Road"/>
    <tag k="addr:state" v="VT"/>
    <tag k="ref:vcgi:esiteid" v="6617"/>
  </node>
  <node id="-110" visible="true" lat="43.66255569" lon="-72.59368896">
    <tag k="addr:city" v="Bridgewater"/>
    <tag k="addr:housenumber" v="773"/>
    <tag k="addr:street" v="Wayside Road"/>
    <tag k="addr:state" v="VT"/>
    <tag k="ref:vcgi:esiteid" v="36459"/>
  </node>
  <node id="-112" visible="true" lat="43.66147947" lon="-72.58984093">
    <tag k="addr:city" v="Bridgewater"/>
    <tag k="addr:housenumber" v="632"/>
    <tag k="addr:street" v="Wayside Road"/>
    <tag k="addr:state" v="VT"/>
    <tag k="ref:vcgi:esiteid" v="36461"/>
  </node>
  <node id="-113" visible="true" lat="43.66130437" lon="-72.59247136">
    <tag k="addr:city" v="Bridgewater"/>
    <tag k="addr:housenumber" v="11"/>
    <tag k="addr:street" v="Wayside Road Extension"/>
    <tag k="addr:state" v="VT"/>
    <tag k="ref:vcgi:esiteid" v="36462"/>
  </node>
  <node id="-114" visible="true" lat="43.66073795" lon="-72.69713018">
    <tag k="addr:city" v="Bridgewater"/>
    <tag k="addr:housenumber" v="122"/>
    <tag k="addr:street" v="Oxbow Road"/>
    <tag k="addr:state" v="VT"/>
    <tag k="ref:vcgi:esiteid" v="36463"/>
  </node>
  <node id="-115" visible="true" lat="43.66077373" lon="-72.69525174">
    <tag k="addr:city" v="Bridgewater"/>
    <tag k="addr:housenumber" v="53"/>
    <tag k="addr:street" v="Barnard Chateauguay Road"/>
    <tag k="addr:state" v="VT"/>
    <tag k="ref:vcgi:esiteid" v="36464"/>
  </node>
  <node id="-116" visible="true" lat="43.6604593" lon="-72.69452608">
    <tag k="addr:city" v="Bridgewater"/>
    <tag k="addr:housenumber" v="20"/>
    <tag k="addr:street" v="Barnard Chateauguay Road"/>
    <tag k="addr:state" v="VT"/>
    <tag k="ref:vcgi:esiteid" v="36465"/>
  </node>
  <node id="-118" visible="true" lat="43.65969075" lon="-72.69375875">
    <tag k="addr:city" v="Bridgewater"/>
    <tag k="addr:housenumber" v="4400"/>
    <tag k="addr:street" v="Chateauguay Road"/>
    <tag k="addr:state" v="VT"/>
    <tag k="ref:vcgi:esiteid" v="36467"/>
  </node>
  <node id="-119" visible="true" lat="43.66000637" lon="-72.58287379">
    <tag k="addr:city" v="Bridgewater"/>
    <tag k="addr:housenumber" v="288"/>
    <tag k="addr:street" v="Wayside Road"/>
    <tag k="addr:state" v="VT"/>
    <tag k="ref:vcgi:esiteid" v="36468"/>
  </node>
  <node id="-123" visible="true" lat="43.65789999" lon="-72.69223693">
    <tag k="addr:city" v="Bridgewater"/>
    <tag k="addr:housenumber" v="4231"/>
    <tag k="addr:street" v="Chateauguay Road"/>
    <tag k="addr:state" v="VT"/>
    <tag k="ref:vcgi:esiteid" v="36472"/>
  </node>
  <node id="-125" visible="true" lat="43.65829076" lon="-72.57772991">
    <tag k="addr:city" v="Bridgewater"/>
    <tag k="addr:housenumber" v="53"/>
    <tag k="addr:street" v="Wayside Road"/>
    <tag k="addr:state" v="VT"/>
    <tag k="ref:vcgi:esiteid" v="36474"/>
  </node>
  <node id="-128" visible="true" lat="43.65696159" lon="-72.68706976">
    <tag k="addr:city" v="Bridgewater"/>
    <tag k="addr:housenumber" v="3974"/>
    <tag k="addr:street" v="Chateauguay Road"/>
    <tag k="addr:state" v="VT"/>
    <tag k="ref:vcgi:esiteid" v="36477"/>
  </node>
  <node id="-131" visible="true" lat="43.65625762" lon="-72.59507751">
    <tag k="addr:city" v="Bridgewater"/>
    <tag k="addr:housenumber" v="796"/>
    <tag k="addr:street" v="Maple Valley Road"/>
    <tag k="addr:state" v="VT"/>
    <tag k="ref:vcgi:esiteid" v="36480"/>
  </node>
  <node id="-132" visible="true" lat="43.65457153" lon="-72.58711242">
    <tag k="addr:city" v="Bridgewater"/>
    <tag k="addr:housenumber" v="5525"/>
    <tag k="addr:street" v="North Bridgewater Road"/>
    <tag k="addr:state" v="VT"/>
    <tag k="ref:vcgi:esiteid" v="36481"/>
  </node>
  <node id="-133" visible="true" lat="43.65388059" lon="-72.68169405">
    <tag k="addr:city" v="Bridgewater"/>
    <tag k="addr:housenumber" v="3617"/>
    <tag k="addr:street" v="Chateauguay Road"/>
    <tag k="addr:state" v="VT"/>
    <tag k="ref:vcgi:esiteid" v="36482"/>
  </node>
  <node id="-134" visible="true" lat="43.65300369" lon="-72.6138153">
    <tag k="addr:city" v="Bridgewater"/>
    <tag k="addr:housenumber" v="366"/>
    <tag k="addr:street" v="Latham Road"/>
    <tag k="addr:state" v="VT"/>
    <tag k="ref:vcgi:esiteid" v="36483"/>
  </node>
  <node id="-135" visible="true" lat="43.65273846" lon="-72.68278688">
    <tag k="addr:city" v="Bridgewater"/>
    <tag k="addr:housenumber" v="3775"/>
    <tag k="addr:street" v="Chateauguay Road"/>
    <tag k="addr:state" v="VT"/>
    <tag k="ref:vcgi:esiteid" v="36484"/>
  </node>
  <node id="-136" visible="true" lat="43.6528778" lon="-72.62128448">
    <tag k="addr:city" v="Bridgewater"/>
    <tag k="addr:housenumber" v="1102"/>
    <tag k="addr:street" v="Grandma Ams Hill Road"/>
    <tag k="addr:state" v="VT"/>
    <tag k="ref:vcgi:esiteid" v="36485"/>
  </node>
  <node id="-137" visible="true" lat="43.65277099" lon="-72.60810852">
    <tag k="addr:city" v="Bridgewater"/>
    <tag k="addr:housenumber" v="587"/>
    <tag k="addr:street" v="Perkins Road"/>
    <tag k="addr:state" v="VT"/>
    <tag k="ref:vcgi:esiteid" v="36486"/>
  </node>
  <node id="-138" visible="true" lat="43.65201217" lon="-72.67910171">
    <tag k="addr:city" v="Bridgewater"/>
    <tag k="addr:housenumber" v="3327"/>
    <tag k="addr:street" v="Chateauguay Road"/>
    <tag k="addr:state" v="VT"/>
    <tag k="ref:vcgi:esiteid" v="36487"/>
  </node>
  <node id="-140" visible="true" lat="43.65159988" lon="-72.62123107">
    <tag k="addr:city" v="Bridgewater"/>
    <tag k="addr:housenumber" v="975"/>
    <tag k="addr:street" v="Grandma Ams Hill Road"/>
    <tag k="addr:state" v="VT"/>
    <tag k="ref:vcgi:esiteid" v="36489"/>
  </node>
  <node id="-141" visible="true" lat="43.65122604" lon="-72.60931396">
    <tag k="addr:city" v="Bridgewater"/>
    <tag k="addr:housenumber" v="110"/>
    <tag k="addr:street" v="Latham Road"/>
    <tag k="addr:state" v="VT"/>
    <tag k="ref:vcgi:esiteid" v="36490"/>
  </node>
  <node id="-145" visible="true" lat="43.64953994" lon="-72.58583068">
    <tag k="addr:city" v="Bridgewater"/>
    <tag k="addr:housenumber" v="5523"/>
    <tag k="addr:street" v="North Bridgewater Road"/>
    <tag k="addr:state" v="VT"/>
    <tag k="ref:vcgi:esiteid" v="36494"/>
  </node>
  <node id="-146" visible="true" lat="43.64911295" lon="-72.62286998">
    <tag k="addr:city" v="Bridgewater"/>
    <tag k="addr:housenumber" v="100"/>
    <tag k="addr:street" v="Brown Road"/>
    <tag k="addr:state" v="VT"/>
    <tag k="ref:vcgi:esiteid" v="36495"/>
  </node>
  <node id="-147" visible="true" lat="43.648777" lon="-72.58511352">
    <tag k="addr:city" v="Bridgewater"/>
    <tag k="addr:housenumber" v="5563"/>
    <tag k="addr:street" v="North Bridgewater Road"/>
    <tag k="addr:state" v="VT"/>
    <tag k="ref:vcgi:esiteid" v="36496"/>
  </node>
  <node id="-148" visible="true" lat="43.64785204" lon="-72.59076365">
    <tag k="addr:city" v="Bridgewater"/>
    <tag k="addr:housenumber" v="5280"/>
    <tag k="addr:street" v="North Bridgewater Road"/>
    <tag k="addr:state" v="VT"/>
    <tag k="ref:vcgi:esiteid" v="36497"/>
  </node>
  <node id="-149" visible="true" lat="43.64799582" lon="-72.62276647">
    <tag k="addr:city" v="Bridgewater"/>
    <tag k="addr:housenumber" v="260"/>
    <tag k="addr:street" v="Brown Road"/>
    <tag k="addr:state" v="VT"/>
    <tag k="ref:vcgi:esiteid" v="36498"/>
  </node>
  <node id="-150" visible="true" lat="43.64744145" lon="-72.62147544">
    <tag k="addr:city" v="Bridgewater"/>
    <tag k="addr:housenumber" v="255"/>
    <tag k="addr:street" v="Brown Road"/>
    <tag k="addr:state" v="VT"/>
    <tag k="ref:vcgi:esiteid" v="36499"/>
  </node>
  <node id="-151" visible="true" lat="43.64471744" lon="-72.62234426">
    <tag k="addr:city" v="Bridgewater"/>
    <tag k="addr:housenumber" v="260"/>
    <tag k="addr:street" v="Wall Road"/>
    <tag k="addr:state" v="VT"/>
    <tag k="ref:vcgi:esiteid" v="36500"/>
  </node>
  <node id="-152" visible="true" lat="43.64455032" lon="-72.59613037">
    <tag k="addr:city" v="Bridgewater"/>
    <tag k="addr:housenumber" v="373"/>
    <tag k="addr:street" v="Atwood Lane"/>
    <tag k="addr:state" v="VT"/>
    <tag k="ref:vcgi:esiteid" v="36501"/>
  </node>
  <node id="-153" visible="true" lat="43.64458925" lon="-72.60798326">
    <tag k="addr:city" v="Bridgewater"/>
    <tag k="addr:housenumber" v="1"/>
    <tag k="addr:street" v="Perkins Road"/>
    <tag k="addr:state" v="VT"/>
    <tag k="ref:vcgi:esiteid" v="36502"/>
  </node>
  <node id="-154" visible="true" lat="43.64451682" lon="-72.60010324">
    <tag k="addr:city" v="Bridgewater"/>
    <tag k="addr:housenumber" v="128"/>
    <tag k="addr:street" v="Atwood Lane"/>
    <tag k="addr:state" v="VT"/>
    <tag k="ref:vcgi:esiteid" v="36503"/>
  </node>
  <node id="-155" visible="true" lat="43.64421844" lon="-72.61541748">
    <tag k="addr:city" v="Bridgewater"/>
    <tag k="addr:housenumber" v="302"/>
    <tag k="addr:street" v="Grandma Ams Hill Road"/>
    <tag k="addr:state" v="VT"/>
    <tag k="ref:vcgi:esiteid" v="36504"/>
  </node>
  <node id="-157" visible="true" lat="43.64356994" lon="-72.61515045">
    <tag k="addr:city" v="Bridgewater"/>
    <tag k="addr:housenumber" v="300"/>
    <tag k="addr:street" v="Grandma Ams Hill Road"/>
    <tag k="addr:state" v="VT"/>
    <tag k="ref:vcgi:esiteid" v="36507"/>
  </node>
  <node id="-158" visible="true" lat="43.64345169" lon="-72.61479949">
    <tag k="addr:city" v="Bridgewater"/>
    <tag k="addr:housenumber" v="270"/>
    <tag k="addr:street" v="Grandma Ams Hill Road"/>
    <tag k="addr:state" v="VT"/>
    <tag k="ref:vcgi:esiteid" v="36508"/>
  </node>
  <node id="-159" visible="true" lat="43.64335516" lon="-72.60800649">
    <tag k="addr:city" v="Bridgewater"/>
    <tag k="addr:housenumber" v="4278"/>
    <tag k="addr:street" v="North Bridgewater Road"/>
    <tag k="addr:state" v="VT"/>
    <tag k="ref:vcgi:esiteid" v="36509"/>
  </node>
  <node id="-160" visible="true" lat="43.64279556" lon="-72.59278106">
    <tag k="addr:city" v="Bridgewater"/>
    <tag k="addr:housenumber" v="585"/>
    <tag k="addr:street" v="Atwood Lane"/>
    <tag k="addr:state" v="VT"/>
    <tag k="ref:vcgi:esiteid" v="36510"/>
  </node>
  <node id="-162" visible="true" lat="43.64247276" lon="-72.65509607">
    <tag k="addr:city" v="Bridgewater"/>
    <tag k="addr:housenumber" v="1944"/>
    <tag k="addr:street" v="Chateauguay Road"/>
    <tag k="addr:state" v="VT"/>
    <tag k="ref:vcgi:esiteid" v="36512"/>
  </node>
  <node id="-163" visible="true" lat="43.64123833" lon="-72.61532775">
    <tag k="addr:city" v="Bridgewater"/>
    <tag k="addr:housenumber" v="213"/>
    <tag k="addr:street" v="Grandma Ams Hill Road"/>
    <tag k="addr:state" v="VT"/>
    <tag k="ref:vcgi:esiteid" v="36513"/>
  </node>
  <node id="-164" visible="true" lat="43.64047688" lon="-72.61455604">
    <tag k="addr:city" v="Bridgewater"/>
    <tag k="addr:housenumber" v="173"/>
    <tag k="addr:street" v="Grandma Ams Hill Road"/>
    <tag k="addr:state" v="VT"/>
    <tag k="ref:vcgi:esiteid" v="36514"/>
  </node>
  <node id="-165" visible="true" lat="43.64036178" lon="-72.59243011">
    <tag k="addr:city" v="Bridgewater"/>
    <tag k="addr:housenumber" v="745"/>
    <tag k="addr:street" v="Atwood Lane"/>
    <tag k="addr:state" v="VT"/>
    <tag k="ref:vcgi:esiteid" v="36515"/>
  </node>
  <node id="-166" visible="true" lat="43.63993613" lon="-72.65576925">
    <tag k="addr:city" v="Bridgewater"/>
    <tag k="addr:housenumber" v="1797"/>
    <tag k="addr:street" v="Chateauguay Road"/>
    <tag k="addr:state" v="VT"/>
    <tag k="ref:vcgi:esiteid" v="36516"/>
  </node>
  <node id="-170" visible="true" lat="43.63612609" lon="-72.61300422">
    <tag k="addr:city" v="Bridgewater"/>
    <tag k="addr:housenumber" v="3728"/>
    <tag k="addr:street" v="North Bridgewater Road"/>
    <tag k="addr:state" v="VT"/>
    <tag k="ref:vcgi:esiteid" v="36520"/>
  </node>
  <node id="-171" visible="true" lat="43.63575744" lon="-72.59340667">
    <tag k="addr:city" v="Bridgewater"/>
    <tag k="addr:housenumber" v="1046"/>
    <tag k="addr:street" v="Atwood Lane"/>
    <tag k="addr:state" v="VT"/>
    <tag k="ref:vcgi:esiteid" v="36521"/>
  </node>
  <node id="-172" visible="true" lat="43.63116455" lon="-72.66081237">
    <tag k="addr:city" v="Bridgewater"/>
    <tag k="addr:housenumber" v="1031"/>
    <tag k="addr:street" v="Chateauguay Road"/>
    <tag k="addr:state" v="VT"/>
    <tag k="ref:vcgi:esiteid" v="36522"/>
  </node>
  <node id="-174" visible="true" lat="43.63068008" lon="-72.71979522">
    <tag k="addr:city" v="Bridgewater"/>
    <tag k="addr:housenumber" v="54"/>
    <tag k="addr:street" v="Little Sherburne Road"/>
    <tag k="addr:state" v="VT"/>
    <tag k="ref:vcgi:esiteid" v="36524"/>
  </node>
  <node id="-175" visible="true" lat="43.63057629" lon="-72.720182">
    <tag k="addr:city" v="Bridgewater"/>
    <tag k="addr:housenumber" v="324"/>
    <tag k="addr:street" v="Little Sherburne Road"/>
    <tag k="addr:state" v="VT"/>
    <tag k="ref:vcgi:esiteid" v="36525"/>
  </node>
  <node id="-176" visible="true" lat="43.63056564" lon="-72.71739959">
    <tag k="addr:city" v="Bridgewater"/>
    <tag k="addr:housenumber" v="3188"/>
    <tag k="addr:street" v="Dailey Hollow Road"/>
    <tag k="addr:state" v="VT"/>
    <tag k="ref:vcgi:esiteid" v="36526"/>
  </node>
  <node id="-177" visible="true" lat="43.63015365" lon="-72.71913909">
    <tag k="addr:city" v="Bridgewater"/>
    <tag k="addr:housenumber" v="2916"/>
    <tag k="addr:street" v="Bridgewater Hill Road"/>
    <tag k="addr:state" v="VT"/>
    <tag k="ref:vcgi:esiteid" v="36527"/>
  </node>
  <node id="-178" visible="true" lat="43.62921905" lon="-72.61475372">
    <tag k="addr:city" v="Bridgewater"/>
    <tag k="addr:housenumber" v="3230"/>
    <tag k="addr:street" v="North Bridgewater Road"/>
    <tag k="addr:state" v="VT"/>
    <tag k="ref:vcgi:esiteid" v="36529"/>
  </node>
  <node id="-179" visible="true" lat="43.62843322" lon="-72.72529601">
    <tag k="addr:city" v="Bridgewater"/>
    <tag k="addr:housenumber" v="506"/>
    <tag k="addr:street" v="Little Sherburne Road"/>
    <tag k="addr:state" v="VT"/>
    <tag k="ref:vcgi:esiteid" v="36530"/>
  </node>
  <node id="-180" visible="true" lat="43.62817764" lon="-72.66399383">
    <tag k="addr:city" v="Bridgewater"/>
    <tag k="addr:housenumber" v="768"/>
    <tag k="addr:street" v="Chateauguay Road"/>
    <tag k="addr:state" v="VT"/>
    <tag k="ref:vcgi:esiteid" v="36531"/>
  </node>
  <node id="-181" visible="true" lat="43.62753091" lon="-72.61073321">
    <tag k="addr:city" v="Bridgewater"/>
    <tag k="addr:housenumber" v="397"/>
    <tag k="addr:street" v="Phelps Road"/>
    <tag k="addr:state" v="VT"/>
    <tag k="ref:vcgi:esiteid" v="36532"/>
  </node>
  <node id="-182" visible="true" lat="43.62743457" lon="-72.61029728">
    <tag k="addr:city" v="Bridgewater"/>
    <tag k="addr:housenumber" v="391"/>
    <tag k="addr:street" v="Phelps Road"/>
    <tag k="addr:state" v="VT"/>
    <tag k="ref:vcgi:esiteid" v="36533"/>
  </node>
  <node id="-183" visible="true" lat="43.62718582" lon="-72.66512298">
    <tag k="addr:city" v="Bridgewater"/>
    <tag k="addr:housenumber" v="676"/>
    <tag k="addr:street" v="Chateauguay Road"/>
    <tag k="addr:state" v="VT"/>
    <tag k="ref:vcgi:esiteid" v="36534"/>
  </node>
  <node id="-184" visible="true" lat="43.62732121" lon="-72.67352201">
    <tag k="addr:city" v="Bridgewater"/>
    <tag k="addr:housenumber" v="958"/>
    <tag k="addr:street" v="Baker Hill Road"/>
    <tag k="addr:state" v="VT"/>
    <tag k="ref:vcgi:esiteid" v="36535"/>
  </node>
  <node id="-185" visible="true" lat="43.62636415" lon="-72.67289517">
    <tag k="addr:city" v="Bridgewater"/>
    <tag k="addr:housenumber" v="940"/>
    <tag k="addr:street" v="Baker Hill Road"/>
    <tag k="addr:state" v="VT"/>
    <tag k="ref:vcgi:esiteid" v="36537"/>
  </node>
  <node id="-186" visible="true" lat="43.62608337" lon="-72.66599273">
    <tag k="addr:city" v="Bridgewater"/>
    <tag k="addr:housenumber" v="587"/>
    <tag k="addr:street" v="Chateauguay Road"/>
    <tag k="addr:state" v="VT"/>
    <tag k="ref:vcgi:esiteid" v="36538"/>
  </node>
  <node id="-187" visible="true" lat="43.62591666" lon="-72.66564291">
    <tag k="addr:city" v="Bridgewater"/>
    <tag k="addr:housenumber" v="580"/>
    <tag k="addr:street" v="Chateauguay Road"/>
    <tag k="addr:state" v="VT"/>
    <tag k="ref:vcgi:esiteid" v="36539"/>
  </node>
  <node id="-188" visible="true" lat="43.62547359" lon="-72.61008857">
    <tag k="addr:city" v="Bridgewater"/>
    <tag k="addr:housenumber" v="257"/>
    <tag k="addr:street" v="Phelps Road"/>
    <tag k="addr:state" v="VT"/>
    <tag k="ref:vcgi:esiteid" v="36540"/>
  </node>
  <node id="-189" visible="true" lat="43.62506103" lon="-72.67386627">
    <tag k="addr:city" v="Bridgewater"/>
    <tag k="addr:housenumber" v="845"/>
    <tag k="addr:street" v="Baker Hill Road"/>
    <tag k="addr:state" v="VT"/>
    <tag k="ref:vcgi:esiteid" v="36541"/>
  </node>
  <node id="-190" visible="true" lat="43.62501525" lon="-72.66483306">
    <tag k="addr:city" v="Bridgewater"/>
    <tag k="addr:housenumber" v="500"/>
    <tag k="addr:street" v="Chateauguay Road"/>
    <tag k="addr:state" v="VT"/>
    <tag k="ref:vcgi:esiteid" v="36542"/>
  </node>
  <node id="-191" visible="true" lat="43.62471389" lon="-72.66471862">
    <tag k="addr:city" v="Bridgewater"/>
    <tag k="addr:housenumber" v="480"/>
    <tag k="addr:street" v="Chateauguay Road"/>
    <tag k="addr:state" v="VT"/>
    <tag k="ref:vcgi:esiteid" v="36543"/>
  </node>
  <node id="-192" visible="true" lat="43.62423933" lon="-72.68250984">
    <tag k="addr:city" v="Bridgewater"/>
    <tag k="addr:housenumber" v="123"/>
    <tag k="addr:street" v="Fancher Road"/>
    <tag k="addr:state" v="VT"/>
    <tag k="ref:vcgi:esiteid" v="36544"/>
  </node>
  <node id="-194" visible="true" lat="43.62416088" lon="-72.68449738">
    <tag k="addr:city" v="Bridgewater"/>
    <tag k="addr:housenumber" v="499"/>
    <tag k="addr:street" v="Fancher Road"/>
    <tag k="addr:state" v="VT"/>
    <tag k="ref:vcgi:esiteid" v="36546"/>
  </node>
  <node id="-195" visible="true" lat="43.62415363" lon="-72.66577346">
    <tag k="addr:city" v="Bridgewater"/>
    <tag k="addr:housenumber" v="451"/>
    <tag k="addr:street" v="Chateauguay Road"/>
    <tag k="addr:state" v="VT"/>
    <tag k="ref:vcgi:esiteid" v="36547"/>
  </node>
  <node id="-196" visible="true" lat="43.62406921" lon="-72.67900848">
    <tag k="addr:city" v="Bridgewater"/>
    <tag k="addr:housenumber" v="1068"/>
    <tag k="addr:street" v="Dailey Hollow Road"/>
    <tag k="addr:state" v="VT"/>
    <tag k="ref:vcgi:esiteid" v="36548"/>
  </node>
  <node id="-197" visible="true" lat="43.62424055" lon="-72.67377252">
    <tag k="addr:city" v="Bridgewater"/>
    <tag k="addr:housenumber" v="777"/>
    <tag k="addr:street" v="Baker Hill Road"/>
    <tag k="addr:state" v="VT"/>
    <tag k="ref:vcgi:esiteid" v="36549"/>
  </node>
  <node id="-198" visible="true" lat="43.62361908" lon="-72.67820739">
    <tag k="addr:city" v="Bridgewater"/>
    <tag k="addr:housenumber" v="1010"/>
    <tag k="addr:street" v="Dailey Hollow Road"/>
    <tag k="addr:state" v="VT"/>
    <tag k="ref:vcgi:esiteid" v="36550"/>
  </node>
  <node id="-199" visible="true" lat="43.6230812" lon="-72.67372131">
    <tag k="addr:city" v="Bridgewater"/>
    <tag k="addr:housenumber" v="713"/>
    <tag k="addr:street" v="Baker Hill Road"/>
    <tag k="addr:state" v="VT"/>
    <tag k="ref:vcgi:esiteid" v="36551"/>
  </node>
  <node id="-200" visible="true" lat="43.62305831" lon="-72.6653366">
    <tag k="addr:city" v="Bridgewater"/>
    <tag k="addr:housenumber" v="361"/>
    <tag k="addr:street" v="Chateauguay Road"/>
    <tag k="addr:state" v="VT"/>
    <tag k="ref:vcgi:esiteid" v="36552"/>
  </node>
  <node id="-202" visible="true" lat="43.62239717" lon="-72.67202415">
    <tag k="addr:city" v="Bridgewater"/>
    <tag k="addr:housenumber" v="638"/>
    <tag k="addr:street" v="Baker Hill Road"/>
    <tag k="addr:state" v="VT"/>
    <tag k="ref:vcgi:esiteid" v="36554"/>
  </node>
  <node id="-203" visible="true" lat="43.62236442" lon="-72.66558989">
    <tag k="addr:city" v="Bridgewater"/>
    <tag k="addr:housenumber" v="313"/>
    <tag k="addr:street" v="Chateauguay Road"/>
    <tag k="addr:state" v="VT"/>
    <tag k="ref:vcgi:esiteid" v="36555"/>
  </node>
  <node id="-204" visible="true" lat="43.62221227" lon="-72.66553637">
    <tag k="addr:city" v="Bridgewater"/>
    <tag k="addr:housenumber" v="307"/>
    <tag k="addr:street" v="Chateauguay Road"/>
    <tag k="addr:state" v="VT"/>
    <tag k="ref:vcgi:esiteid" v="36556"/>
  </node>
  <node id="-205" visible="true" lat="43.62191009" lon="-72.67783355">
    <tag k="addr:city" v="Bridgewater"/>
    <tag k="addr:housenumber" v="22"/>
    <tag k="addr:street" v="Gorge Hill Road"/>
    <tag k="addr:state" v="VT"/>
    <tag k="ref:vcgi:esiteid" v="36557"/>
  </node>
  <node id="-206" visible="true" lat="43.62208947" lon="-72.60095217">
    <tag k="addr:city" v="Bridgewater"/>
    <tag k="addr:housenumber" v="716"/>
    <tag k="addr:street" v="Cox District Road"/>
    <tag k="addr:state" v="VT"/>
    <tag k="ref:vcgi:esiteid" v="36558"/>
  </node>
  <node id="-207" visible="true" lat="43.62181472" lon="-72.67628478">
    <tag k="addr:city" v="Bridgewater"/>
    <tag k="addr:housenumber" v="856"/>
    <tag k="addr:street" v="Dailey Hollow Road"/>
    <tag k="addr:state" v="VT"/>
    <tag k="ref:vcgi:esiteid" v="36559"/>
  </node>
  <node id="-208" visible="true" lat="43.62155914" lon="-72.6637268">
    <tag k="addr:city" v="Bridgewater"/>
    <tag k="addr:housenumber" v="128"/>
    <tag k="addr:street" v="Cobb Hill Road"/>
    <tag k="addr:state" v="VT"/>
    <tag k="ref:vcgi:esiteid" v="36560"/>
  </node>
  <node id="-209" visible="true" lat="43.62153259" lon="-72.66543585">
    <tag k="addr:city" v="Bridgewater"/>
    <tag k="addr:housenumber" v="265"/>
    <tag k="addr:street" v="Chateauguay Road"/>
    <tag k="addr:state" v="VT"/>
    <tag k="ref:vcgi:esiteid" v="36561"/>
  </node>
  <node id="-210" visible="true" lat="43.62137027" lon="-72.60775589">
    <tag k="addr:city" v="Bridgewater"/>
    <tag k="addr:housenumber" v="302"/>
    <tag k="addr:street" v="Cox District Road"/>
    <tag k="addr:state" v="VT"/>
    <tag k="ref:vcgi:esiteid" v="36562"/>
  </node>
  <node id="-211" visible="true" lat="43.62118508" lon="-72.60048656">
    <tag k="addr:city" v="Bridgewater"/>
    <tag k="addr:housenumber" v="718"/>
    <tag k="addr:street" v="Cox District Road"/>
    <tag k="addr:state" v="VT"/>
    <tag k="ref:vcgi:esiteid" v="36563"/>
  </node>
  <node id="-212" visible="true" lat="43.62070083" lon="-72.66481018">
    <tag k="addr:city" v="Bridgewater"/>
    <tag k="addr:housenumber" v="201"/>
    <tag k="addr:street" v="Chateauguay Road"/>
    <tag k="addr:state" v="VT"/>
    <tag k="ref:vcgi:esiteid" v="36564"/>
  </node>
  <node id="-213" visible="true" lat="43.6205101" lon="-72.66397094">
    <tag k="addr:city" v="Bridgewater"/>
    <tag k="addr:housenumber" v="166"/>
    <tag k="addr:street" v="Chateauguay Road"/>
    <tag k="addr:state" v="VT"/>
    <tag k="ref:vcgi:esiteid" v="36565"/>
  </node>
  <node id="-214" visible="true" lat="43.6203804" lon="-72.66342163">
    <tag k="addr:city" v="Bridgewater"/>
    <tag k="addr:housenumber" v="142"/>
    <tag k="addr:street" v="Chateauguay Road"/>
    <tag k="addr:state" v="VT"/>
    <tag k="ref:vcgi:esiteid" v="36566"/>
  </node>
  <node id="-215" visible="true" lat="43.62004852" lon="-72.66945648">
    <tag k="addr:city" v="Bridgewater"/>
    <tag k="addr:housenumber" v="416"/>
    <tag k="addr:street" v="Baker Hill Road"/>
    <tag k="addr:state" v="VT"/>
    <tag k="ref:vcgi:esiteid" v="36567"/>
  </node>
  <node id="-216" visible="true" lat="43.61974169" lon="-72.72519439">
    <tag k="addr:city" v="Bridgewater"/>
    <tag k="addr:housenumber" v="1867"/>
    <tag k="addr:street" v="Bridgewater Hill Road"/>
    <tag k="addr:state" v="VT"/>
    <tag k="ref:vcgi:esiteid" v="36568"/>
  </node>
  <node id="-218" visible="true" lat="43.61936569" lon="-72.67168426">
    <tag k="addr:city" v="Bridgewater"/>
    <tag k="addr:housenumber" v="561"/>
    <tag k="addr:street" v="Dailey Hollow Road"/>
    <tag k="addr:state" v="VT"/>
    <tag k="ref:vcgi:esiteid" v="36570"/>
  </node>
  <node id="-219" visible="true" lat="43.61943054" lon="-72.61175537">
    <tag k="addr:city" v="Bridgewater"/>
    <tag k="addr:housenumber" v="69"/>
    <tag k="addr:street" v="Cox District Road"/>
    <tag k="addr:state" v="VT"/>
    <tag k="ref:vcgi:esiteid" v="36571"/>
  </node>
  <node id="-220" visible="true" lat="43.61949773" lon="-72.61337795">
    <tag k="addr:city" v="Bridgewater"/>
    <tag k="addr:housenumber" v="2471"/>
    <tag k="addr:street" v="North Bridgewater Road"/>
    <tag k="addr:state" v="VT"/>
    <tag k="ref:vcgi:esiteid" v="36572"/>
  </node>
  <node id="-221" visible="true" lat="43.61939061" lon="-72.60799585">
    <tag k="addr:city" v="Bridgewater"/>
    <tag k="addr:housenumber" v="268"/>
    <tag k="addr:street" v="Cox District Road"/>
    <tag k="addr:state" v="VT"/>
    <tag k="ref:vcgi:esiteid" v="36573"/>
  </node>
  <node id="-222" visible="true" lat="43.61907577" lon="-72.72769928">
    <tag k="addr:city" v="Bridgewater"/>
    <tag k="addr:housenumber" v="276"/>
    <tag k="addr:street" v="Laber Road"/>
    <tag k="addr:state" v="VT"/>
    <tag k="ref:vcgi:esiteid" v="36574"/>
  </node>
  <node id="-223" visible="true" lat="43.61935071" lon="-72.61388073">
    <tag k="addr:city" v="Bridgewater"/>
    <tag k="addr:housenumber" v="2463"/>
    <tag k="addr:street" v="North Bridgewater Road"/>
    <tag k="addr:state" v="VT"/>
    <tag k="ref:vcgi:esiteid" v="36575"/>
  </node>
  <node id="-224" visible="true" lat="43.61871337" lon="-72.66144561">
    <tag k="addr:city" v="Bridgewater"/>
    <tag k="addr:housenumber" v="2380"/>
    <tag k="addr:street" v="Bridgewater Center Road"/>
    <tag k="addr:state" v="VT"/>
    <tag k="ref:vcgi:esiteid" v="36576"/>
  </node>
  <node id="-225" visible="true" lat="43.61862945" lon="-72.66504669">
    <tag k="addr:city" v="Bridgewater"/>
    <tag k="addr:housenumber" v="150"/>
    <tag k="addr:street" v="Baker Hill Road"/>
    <tag k="addr:state" v="VT"/>
    <tag k="ref:vcgi:esiteid" v="36577"/>
  </node>
  <node id="-226" visible="true" lat="43.61855316" lon="-72.67629241">
    <tag k="addr:city" v="Bridgewater"/>
    <tag k="addr:housenumber" v="146"/>
    <tag k="addr:street" v="Gorge Hill Road"/>
    <tag k="addr:state" v="VT"/>
    <tag k="ref:vcgi:esiteid" v="36578"/>
  </node>
  <node id="-227" visible="true" lat="43.61854553" lon="-72.66364288">
    <tag k="addr:city" v="Bridgewater"/>
    <tag k="addr:housenumber" v="64"/>
    <tag k="addr:street" v="Baker Hill Road"/>
    <tag k="addr:state" v="VT"/>
    <tag k="ref:vcgi:esiteid" v="36579"/>
  </node>
  <node id="-228" visible="true" lat="43.61824435" lon="-72.66410069">
    <tag k="addr:city" v="Bridgewater"/>
    <tag k="addr:housenumber" v="83"/>
    <tag k="addr:street" v="Baker Hill Road"/>
    <tag k="addr:state" v="VT"/>
    <tag k="ref:vcgi:esiteid" v="36580"/>
  </node>
  <node id="-229" visible="true" lat="43.61802011" lon="-72.66528769">
    <tag k="addr:city" v="Bridgewater"/>
    <tag k="addr:housenumber" v="137"/>
    <tag k="addr:street" v="Baker Hill Road"/>
    <tag k="addr:state" v="VT"/>
    <tag k="ref:vcgi:esiteid" v="36581"/>
  </node>
  <node id="-230" visible="true" lat="43.6180191" lon="-72.66563415">
    <tag k="addr:city" v="Bridgewater"/>
    <tag k="addr:housenumber" v="151"/>
    <tag k="addr:street" v="Baker Hill Road"/>
    <tag k="addr:state" v="VT"/>
    <tag k="ref:vcgi:esiteid" v="36582"/>
  </node>
  <node id="-231" visible="true" lat="43.61792198" lon="-72.72484043">
    <tag k="addr:city" v="Bridgewater"/>
    <tag k="addr:housenumber" v="108"/>
    <tag k="addr:street" v="Laber Road"/>
    <tag k="addr:state" v="VT"/>
    <tag k="ref:vcgi:esiteid" v="36583"/>
  </node>
  <node id="-232" visible="true" lat="43.61792755" lon="-72.663414">
    <tag k="addr:city" v="Bridgewater"/>
    <tag k="addr:housenumber" v="75"/>
    <tag k="addr:street" v="Dailey Hollow Road"/>
    <tag k="addr:state" v="VT"/>
    <tag k="ref:vcgi:esiteid" v="36584"/>
  </node>
  <node id="-233" visible="true" lat="43.6179752" lon="-72.66693275">
    <tag k="addr:city" v="Bridgewater"/>
    <tag k="addr:housenumber" v="231"/>
    <tag k="addr:street" v="Baker Hill Road"/>
    <tag k="addr:state" v="VT"/>
    <tag k="ref:vcgi:esiteid" v="36585"/>
  </node>
  <node id="-234" visible="true" lat="43.61793972" lon="-72.6663051">
    <tag k="addr:city" v="Bridgewater"/>
    <tag k="addr:housenumber" v="201"/>
    <tag k="addr:street" v="Baker Hill Road"/>
    <tag k="addr:state" v="VT"/>
    <tag k="ref:vcgi:esiteid" v="36586"/>
  </node>
  <node id="-236" visible="true" lat="43.61743927" lon="-72.6714096">
    <tag k="addr:city" v="Bridgewater"/>
    <tag k="addr:housenumber" v="285"/>
    <tag k="addr:street" v="Gorge Hill Road"/>
    <tag k="addr:state" v="VT"/>
    <tag k="ref:vcgi:esiteid" v="36589"/>
  </node>
  <node id="-237" visible="true" lat="43.61737823" lon="-72.65883636">
    <tag k="addr:city" v="Bridgewater"/>
    <tag k="addr:housenumber" v="54"/>
    <tag k="addr:street" v="Oak Chapel Road"/>
    <tag k="addr:state" v="VT"/>
    <tag k="ref:vcgi:esiteid" v="36590"/>
  </node>
  <node id="-238" visible="true" lat="43.61744272" lon="-72.66080923">
    <tag k="addr:city" v="Bridgewater"/>
    <tag k="addr:housenumber" v="2294"/>
    <tag k="addr:street" v="Bridgewater Center Road"/>
    <tag k="addr:state" v="VT"/>
    <tag k="ref:vcgi:esiteid" v="36591"/>
  </node>
  <node id="-240" visible="true" lat="43.61731338" lon="-72.61274719">
    <tag k="addr:city" v="Bridgewater"/>
    <tag k="addr:housenumber" v="2327"/>
    <tag k="addr:street" v="North Bridgewater Road"/>
    <tag k="addr:state" v="VT"/>
    <tag k="ref:vcgi:esiteid" v="36593"/>
  </node>
  <node id="-242" visible="true" lat="43.61678934" lon="-72.65912241">
    <tag k="addr:city" v="Bridgewater"/>
    <tag k="addr:housenumber" v="35"/>
    <tag k="addr:street" v="Oak Chapel Road"/>
    <tag k="addr:state" v="VT"/>
    <tag k="ref:vcgi:esiteid" v="36595"/>
  </node>
  <node id="-243" visible="true" lat="43.61668395" lon="-72.65876769">
    <tag k="addr:city" v="Bridgewater"/>
    <tag k="addr:housenumber" v="18"/>
    <tag k="addr:street" v="Oak Chapel Road"/>
    <tag k="addr:state" v="VT"/>
    <tag k="ref:vcgi:esiteid" v="36596"/>
  </node>
  <node id="-244" visible="true" lat="43.61645058" lon="-72.65842829">
    <tag k="addr:city" v="Bridgewater"/>
    <tag k="addr:housenumber" v="2176"/>
    <tag k="addr:street" v="Bridgewater Center Road"/>
    <tag k="addr:state" v="VT"/>
    <tag k="ref:vcgi:esiteid" v="36597"/>
  </node>
  <node id="-245" visible="true" lat="43.61618805" lon="-72.65834426">
    <tag k="addr:city" v="Bridgewater"/>
    <tag k="addr:housenumber" v="2154"/>
    <tag k="addr:street" v="Bridgewater Center Road"/>
    <tag k="addr:state" v="VT"/>
    <tag k="ref:vcgi:esiteid" v="36598"/>
  </node>
  <node id="-246" visible="true" lat="43.61608631" lon="-72.66078716">
    <tag k="addr:city" v="Bridgewater"/>
    <tag k="addr:housenumber" v="68"/>
    <tag k="addr:street" v="Braley Road"/>
    <tag k="addr:state" v="VT"/>
    <tag k="ref:vcgi:esiteid" v="36599"/>
  </node>
  <node id="-247" visible="true" lat="43.61576953" lon="-72.65769117">
    <tag k="addr:city" v="Bridgewater"/>
    <tag k="addr:housenumber" v="2114"/>
    <tag k="addr:street" v="Bridgewater Center Road"/>
    <tag k="addr:state" v="VT"/>
    <tag k="ref:vcgi:esiteid" v="36600"/>
  </node>
  <node id="-248" visible="true" lat="43.61576461" lon="-72.61769867">
    <tag k="addr:city" v="Bridgewater"/>
    <tag k="addr:housenumber" v="2591"/>
    <tag k="addr:street" v="Goldcoast Road"/>
    <tag k="addr:state" v="VT"/>
    <tag k="ref:vcgi:esiteid" v="36601"/>
  </node>
  <node id="-249" visible="true" lat="43.61557006" lon="-72.66052246">
    <tag k="addr:city" v="Bridgewater"/>
    <tag k="addr:housenumber" v="51"/>
    <tag k="addr:street" v="Braley Road"/>
    <tag k="addr:state" v="VT"/>
    <tag k="ref:vcgi:esiteid" v="36602"/>
  </node>
  <node id="-250" visible="true" lat="43.6154251" lon="-72.72434997">
    <tag k="addr:city" v="Bridgewater"/>
    <tag k="addr:housenumber" v="1"/>
    <tag k="addr:street" v="Laber Road"/>
    <tag k="addr:state" v="VT"/>
    <tag k="ref:vcgi:esiteid" v="36603"/>
  </node>
  <node id="-251" visible="true" lat="43.61550437" lon="-72.65847295">
    <tag k="addr:city" v="Bridgewater"/>
    <tag k="addr:housenumber" v="2103"/>
    <tag k="addr:street" v="Bridgewater Center Road"/>
    <tag k="addr:state" v="VT"/>
    <tag k="ref:vcgi:esiteid" v="36604"/>
  </node>
  <node id="-252" visible="true" lat="43.61526107" lon="-72.72295379">
    <tag k="addr:city" v="Bridgewater"/>
    <tag k="addr:housenumber" v="1674"/>
    <tag k="addr:street" v="Bridgewater Hill Road"/>
    <tag k="addr:state" v="VT"/>
    <tag k="ref:vcgi:esiteid" v="36605"/>
  </node>
  <node id="-253" visible="true" lat="43.61528778" lon="-72.65785217">
    <tag k="addr:city" v="Bridgewater"/>
    <tag k="addr:housenumber" v="2084"/>
    <tag k="addr:street" v="Bridgewater Center Road"/>
    <tag k="addr:state" v="VT"/>
    <tag k="ref:vcgi:esiteid" v="36607"/>
  </node>
  <node id="-254" visible="true" lat="43.61515425" lon="-72.65835882">
    <tag k="addr:city" v="Bridgewater"/>
    <tag k="addr:housenumber" v="2089"/>
    <tag k="addr:street" v="Bridgewater Center Road"/>
    <tag k="addr:state" v="VT"/>
    <tag k="ref:vcgi:esiteid" v="36608"/>
  </node>
  <node id="-255" visible="true" lat="43.61566724" lon="-72.66329998">
    <tag k="addr:city" v="Bridgewater"/>
    <tag k="addr:housenumber" v="230"/>
    <tag k="addr:street" v="Braley Road"/>
    <tag k="addr:state" v="VT"/>
    <tag k="ref:vcgi:esiteid" v="36609"/>
  </node>
  <node id="-256" visible="true" lat="43.61498657" lon="-72.66377336">
    <tag k="addr:city" v="Bridgewater"/>
    <tag k="addr:housenumber" v="269"/>
    <tag k="addr:street" v="Braley Road"/>
    <tag k="addr:state" v="VT"/>
    <tag k="ref:vcgi:esiteid" v="36610"/>
  </node>
  <node id="-257" visible="true" lat="43.61480664" lon="-72.61710359">
    <tag k="addr:city" v="Bridgewater"/>
    <tag k="addr:housenumber" v="2602"/>
    <tag k="addr:street" v="Goldcoast Road"/>
    <tag k="addr:state" v="VT"/>
    <tag k="ref:vcgi:esiteid" v="36611"/>
  </node>
  <node id="-258" visible="true" lat="43.6137859" lon="-72.72678526">
    <tag k="addr:city" v="Bridgewater"/>
    <tag k="addr:housenumber" v="55"/>
    <tag k="addr:street" v="Laber Road"/>
    <tag k="addr:state" v="VT"/>
    <tag k="ref:vcgi:esiteid" v="36612"/>
  </node>
  <node id="-259" visible="true" lat="43.61471785" lon="-72.65812224">
    <tag k="addr:city" v="Bridgewater"/>
    <tag k="addr:housenumber" v="2043"/>
    <tag k="addr:street" v="Bridgewater Center Road"/>
    <tag k="addr:state" v="VT"/>
    <tag k="ref:vcgi:esiteid" v="36613"/>
  </node>
  <node id="-260" visible="true" lat="43.6145935" lon="-72.65753173">
    <tag k="addr:city" v="Bridgewater"/>
    <tag k="addr:housenumber" v="2034"/>
    <tag k="addr:street" v="Bridgewater Center Road"/>
    <tag k="addr:state" v="VT"/>
    <tag k="ref:vcgi:esiteid" v="36614"/>
  </node>
  <node id="-261" visible="true" lat="43.61455917" lon="-72.65683746">
    <tag k="addr:city" v="Bridgewater"/>
    <tag k="addr:housenumber" v="157"/>
    <tag k="addr:street" v="Geno Road"/>
    <tag k="addr:state" v="VT"/>
    <tag k="ref:vcgi:esiteid" v="36615"/>
  </node>
  <node id="-262" visible="true" lat="43.61446915" lon="-72.65796395">
    <tag k="addr:city" v="Bridgewater"/>
    <tag k="addr:housenumber" v="2031"/>
    <tag k="addr:street" v="Bridgewater Center Road"/>
    <tag k="addr:state" v="VT"/>
    <tag k="ref:vcgi:esiteid" v="36616"/>
  </node>
  <node id="-263" visible="true" lat="43.61381634" lon="-72.65708497">
    <tag k="addr:city" v="Bridgewater"/>
    <tag k="addr:housenumber" v="1972"/>
    <tag k="addr:street" v="Bridgewater Center Road"/>
    <tag k="addr:state" v="VT"/>
    <tag k="ref:vcgi:esiteid" v="36617"/>
  </node>
  <node id="-264" visible="true" lat="43.61362075" lon="-72.65574645">
    <tag k="addr:city" v="Bridgewater"/>
    <tag k="addr:housenumber" v="152"/>
    <tag k="addr:street" v="Geno Road"/>
    <tag k="addr:state" v="VT"/>
    <tag k="ref:vcgi:esiteid" v="36618"/>
  </node>
  <node id="-265" visible="true" lat="43.61344909" lon="-72.72206115">
    <tag k="addr:city" v="Bridgewater"/>
    <tag k="addr:housenumber" v="1545"/>
    <tag k="addr:street" v="Bridgewater Hill Road"/>
    <tag k="addr:state" v="VT"/>
    <tag k="ref:vcgi:esiteid" v="36619"/>
  </node>
  <node id="-266" visible="true" lat="43.61350965" lon="-72.61182405">
    <tag k="addr:city" v="Bridgewater"/>
    <tag k="addr:housenumber" v="2057"/>
    <tag k="addr:street" v="North Bridgewater Road"/>
    <tag k="addr:state" v="VT"/>
    <tag k="ref:vcgi:esiteid" v="36620"/>
  </node>
  <node id="-267" visible="true" lat="43.61340713" lon="-72.61878204">
    <tag k="addr:city" v="Bridgewater"/>
    <tag k="addr:housenumber" v="2477"/>
    <tag k="addr:street" v="Goldcoast Road"/>
    <tag k="addr:state" v="VT"/>
    <tag k="ref:vcgi:esiteid" v="36621"/>
  </node>
  <node id="-268" visible="true" lat="43.61331176" lon="-72.6565628">
    <tag k="addr:city" v="Bridgewater"/>
    <tag k="addr:housenumber" v="1928"/>
    <tag k="addr:street" v="Bridgewater Center Road"/>
    <tag k="addr:state" v="VT"/>
    <tag k="ref:vcgi:esiteid" v="36622"/>
  </node>
  <node id="-269" visible="true" lat="43.61298857" lon="-72.72095584">
    <tag k="addr:city" v="Bridgewater"/>
    <tag k="addr:housenumber" v="1488"/>
    <tag k="addr:street" v="Bridgewater Hill Road"/>
    <tag k="addr:state" v="VT"/>
    <tag k="ref:vcgi:esiteid" v="36623"/>
  </node>
  <node id="-270" visible="true" lat="43.61318206" lon="-72.6558609">
    <tag k="addr:city" v="Bridgewater"/>
    <tag k="addr:housenumber" v="52"/>
    <tag k="addr:street" v="Geno Road"/>
    <tag k="addr:state" v="VT"/>
    <tag k="ref:vcgi:esiteid" v="36624"/>
  </node>
  <node id="-271" visible="true" lat="43.61264186" lon="-72.72043644">
    <tag k="addr:city" v="Bridgewater"/>
    <tag k="addr:housenumber" v="1450"/>
    <tag k="addr:street" v="Bridgewater Hill Road"/>
    <tag k="addr:state" v="VT"/>
    <tag k="ref:vcgi:esiteid" v="36625"/>
  </node>
  <node id="-272" visible="true" lat="43.6127777" lon="-72.6553421">
    <tag k="addr:city" v="Bridgewater"/>
    <tag k="addr:housenumber" v="16"/>
    <tag k="addr:street" v="Geno Road"/>
    <tag k="addr:state" v="VT"/>
    <tag k="ref:vcgi:esiteid" v="36626"/>
  </node>
  <node id="-273" visible="true" lat="43.61249923" lon="-72.65232849">
    <tag k="addr:city" v="Bridgewater"/>
    <tag k="addr:housenumber" v="125"/>
    <tag k="addr:street" v="Grander View Road"/>
    <tag k="addr:state" v="VT"/>
    <tag k="ref:vcgi:esiteid" v="36627"/>
  </node>
  <node id="-275" visible="true" lat="43.61199569" lon="-72.65158843">
    <tag k="addr:city" v="Bridgewater"/>
    <tag k="addr:housenumber" v="126"/>
    <tag k="addr:street" v="Grander View Road"/>
    <tag k="addr:state" v="VT"/>
    <tag k="ref:vcgi:esiteid" v="36629"/>
  </node>
  <node id="-276" visible="true" lat="43.61188125" lon="-72.7197113">
    <tag k="addr:city" v="Bridgewater"/>
    <tag k="addr:housenumber" v="1360"/>
    <tag k="addr:street" v="Bridgewater Hill Road"/>
    <tag k="addr:state" v="VT"/>
    <tag k="ref:vcgi:esiteid" v="36630"/>
  </node>
  <node id="-277" visible="true" lat="43.61178056" lon="-72.65383075">
    <tag k="addr:city" v="Bridgewater"/>
    <tag k="addr:housenumber" v="1770"/>
    <tag k="addr:street" v="Bridgewater Center Road"/>
    <tag k="addr:state" v="VT"/>
    <tag k="ref:vcgi:esiteid" v="36631"/>
  </node>
  <node id="-278" visible="true" lat="43.6117134" lon="-72.7105484">
    <tag k="addr:city" v="Bridgewater"/>
    <tag k="addr:housenumber" v="369"/>
    <tag k="addr:street" v="Old Bridgewater Hill Road"/>
    <tag k="addr:state" v="VT"/>
    <tag k="ref:vcgi:esiteid" v="36632"/>
  </node>
  <node id="-279" visible="true" lat="43.61140664" lon="-72.65345151">
    <tag k="addr:city" v="Bridgewater"/>
    <tag k="addr:housenumber" v="1720"/>
    <tag k="addr:street" v="Bridgewater Center Road"/>
    <tag k="addr:state" v="VT"/>
    <tag k="ref:vcgi:esiteid" v="36633"/>
  </node>
  <node id="-280" visible="true" lat="43.61146049" lon="-72.65145618">
    <tag k="addr:city" v="Bridgewater"/>
    <tag k="addr:housenumber" v="122"/>
    <tag k="addr:street" v="Grander View Road"/>
    <tag k="addr:state" v="VT"/>
    <tag k="ref:vcgi:esiteid" v="36634"/>
  </node>
  <node id="-281" visible="true" lat="43.61138916" lon="-72.62061309">
    <tag k="addr:city" v="Bridgewater"/>
    <tag k="addr:housenumber" v="2351"/>
    <tag k="addr:street" v="Goldcoast Road"/>
    <tag k="addr:state" v="VT"/>
    <tag k="ref:vcgi:esiteid" v="36635"/>
  </node>
  <node id="-282" visible="true" lat="43.6116528" lon="-72.63044516">
    <tag k="addr:city" v="Bridgewater"/>
    <tag k="addr:housenumber" v="1687"/>
    <tag k="addr:street" v="Goldcoast Road"/>
    <tag k="addr:state" v="VT"/>
    <tag k="ref:vcgi:esiteid" v="36636"/>
  </node>
  <node id="-283" visible="true" lat="43.61124801" lon="-72.65311431">
    <tag k="addr:city" v="Bridgewater"/>
    <tag k="addr:housenumber" v="1704"/>
    <tag k="addr:street" v="Bridgewater Center Road"/>
    <tag k="addr:state" v="VT"/>
    <tag k="ref:vcgi:esiteid" v="36637"/>
  </node>
  <node id="-284" visible="true" lat="43.61092363" lon="-72.62450215">
    <tag k="addr:city" v="Bridgewater"/>
    <tag k="addr:housenumber" v="2051"/>
    <tag k="addr:street" v="Goldcoast Road"/>
    <tag k="addr:state" v="VT"/>
    <tag k="ref:vcgi:esiteid" v="36638"/>
  </node>
  <node id="-285" visible="true" lat="43.61043548" lon="-72.73952484">
    <tag k="addr:city" v="Bridgewater"/>
    <tag k="addr:housenumber" v="1229"/>
    <tag k="addr:street" v="Laber Road"/>
    <tag k="addr:state" v="VT"/>
    <tag k="ref:vcgi:esiteid" v="36639"/>
  </node>
  <node id="-286" visible="true" lat="43.61009597" lon="-72.7169342">
    <tag k="addr:city" v="Bridgewater"/>
    <tag k="addr:housenumber" v="51"/>
    <tag k="addr:street" v="Old Bridgewater Hill Road"/>
    <tag k="addr:state" v="VT"/>
    <tag k="ref:vcgi:esiteid" v="36640"/>
  </node>
  <node id="-287" visible="true" lat="43.60967636" lon="-72.71063232">
    <tag k="addr:city" v="Bridgewater"/>
    <tag k="addr:housenumber" v="387"/>
    <tag k="addr:street" v="Old Bridgewater Hill Road"/>
    <tag k="addr:state" v="VT"/>
    <tag k="ref:vcgi:esiteid" v="36641"/>
  </node>
  <node id="-288" visible="true" lat="43.60992873" lon="-72.62886228">
    <tag k="addr:city" v="Bridgewater"/>
    <tag k="addr:housenumber" v="1831"/>
    <tag k="addr:street" v="Goldcoast Road"/>
    <tag k="addr:state" v="VT"/>
    <tag k="ref:vcgi:esiteid" v="36642"/>
  </node>
  <node id="-289" visible="true" lat="43.60909271" lon="-72.71076202">
    <tag k="addr:city" v="Bridgewater"/>
    <tag k="addr:housenumber" v="394"/>
    <tag k="addr:street" v="Old Bridgewater Hill Road"/>
    <tag k="addr:state" v="VT"/>
    <tag k="ref:vcgi:esiteid" v="36643"/>
  </node>
  <node id="-290" visible="true" lat="43.60921048" lon="-72.6232834">
    <tag k="addr:city" v="Bridgewater"/>
    <tag k="addr:housenumber" v="2106"/>
    <tag k="addr:street" v="Goldcoast Road"/>
    <tag k="addr:state" v="VT"/>
    <tag k="ref:vcgi:esiteid" v="36644"/>
  </node>
  <node id="-291" visible="true" lat="43.60894393" lon="-72.70893096">
    <tag k="addr:city" v="Bridgewater"/>
    <tag k="addr:housenumber" v="482"/>
    <tag k="addr:street" v="Old Bridgewater Hill Road"/>
    <tag k="addr:state" v="VT"/>
    <tag k="ref:vcgi:esiteid" v="36645"/>
  </node>
  <node id="-292" visible="true" lat="43.60892057" lon="-72.62821962">
    <tag k="addr:city" v="Bridgewater"/>
    <tag k="addr:housenumber" v="1862"/>
    <tag k="addr:street" v="Goldcoast Road"/>
    <tag k="addr:state" v="VT"/>
    <tag k="ref:vcgi:esiteid" v="36646"/>
  </node>
  <node id="-293" visible="true" lat="43.60849549" lon="-72.63219394">
    <tag k="addr:city" v="Bridgewater"/>
    <tag k="addr:housenumber" v="1500"/>
    <tag k="addr:street" v="Goldcoast Road"/>
    <tag k="addr:state" v="VT"/>
    <tag k="ref:vcgi:esiteid" v="36647"/>
  </node>
  <node id="-294" visible="true" lat="43.60721588" lon="-72.70439147">
    <tag k="addr:city" v="Bridgewater"/>
    <tag k="addr:housenumber" v="763"/>
    <tag k="addr:street" v="Old Bridgewater Hill Road"/>
    <tag k="addr:state" v="VT"/>
    <tag k="ref:vcgi:esiteid" v="36648"/>
  </node>
  <node id="-295" visible="true" lat="43.6062889" lon="-72.65424346">
    <tag k="addr:city" v="Bridgewater"/>
    <tag k="addr:housenumber" v="139"/>
    <tag k="addr:street" v="Jennes Road"/>
    <tag k="addr:state" v="VT"/>
    <tag k="ref:vcgi:esiteid" v="36649"/>
  </node>
  <node id="-296" visible="true" lat="43.60599074" lon="-72.71740225">
    <tag k="addr:city" v="Bridgewater"/>
    <tag k="addr:housenumber" v="1015"/>
    <tag k="addr:street" v="Bridgewater Hill Road"/>
    <tag k="addr:state" v="VT"/>
    <tag k="ref:vcgi:esiteid" v="36650"/>
  </node>
  <node id="-297" visible="true" lat="43.60598373" lon="-72.63450622">
    <tag k="addr:city" v="Bridgewater"/>
    <tag k="addr:housenumber" v="1249"/>
    <tag k="addr:street" v="Goldcoast Road"/>
    <tag k="addr:state" v="VT"/>
    <tag k="ref:vcgi:esiteid" v="36651"/>
  </node>
  <node id="-298" visible="true" lat="43.60537848" lon="-72.6108605">
    <tag k="addr:city" v="Bridgewater"/>
    <tag k="addr:housenumber" v="1522"/>
    <tag k="addr:street" v="North Bridgewater Road"/>
    <tag k="addr:state" v="VT"/>
    <tag k="ref:vcgi:esiteid" v="36652"/>
  </node>
  <node id="-299" visible="true" lat="43.60511398" lon="-72.65529632">
    <tag k="addr:city" v="Bridgewater"/>
    <tag k="addr:housenumber" v="137"/>
    <tag k="addr:street" v="Jennes Road"/>
    <tag k="addr:state" v="VT"/>
    <tag k="ref:vcgi:esiteid" v="36653"/>
  </node>
  <node id="-300" visible="true" lat="43.60442352" lon="-72.69825744">
    <tag k="addr:city" v="Bridgewater"/>
    <tag k="addr:housenumber" v="1085"/>
    <tag k="addr:street" v="Old Bridgewater Hill Road"/>
    <tag k="addr:state" v="VT"/>
    <tag k="ref:vcgi:esiteid" v="36654"/>
  </node>
  <node id="-301" visible="true" lat="43.60444384" lon="-72.65207691">
    <tag k="addr:city" v="Bridgewater"/>
    <tag k="addr:housenumber" v="1148"/>
    <tag k="addr:street" v="Bridgewater Center Road"/>
    <tag k="addr:state" v="VT"/>
    <tag k="ref:vcgi:esiteid" v="36655"/>
  </node>
  <node id="-303" visible="true" lat="43.6043077" lon="-72.63418235">
    <tag k="addr:city" v="Bridgewater"/>
    <tag k="addr:housenumber" v="1124"/>
    <tag k="addr:street" v="Goldcoast Road"/>
    <tag k="addr:state" v="VT"/>
    <tag k="ref:vcgi:esiteid" v="36657"/>
  </node>
  <node id="-305" visible="true" lat="43.60391235" lon="-72.69676971">
    <tag k="addr:city" v="Bridgewater"/>
    <tag k="addr:housenumber" v="1117"/>
    <tag k="addr:street" v="Old Bridgewater Hill Road"/>
    <tag k="addr:state" v="VT"/>
    <tag k="ref:vcgi:esiteid" v="36659"/>
  </node>
  <node id="-307" visible="true" lat="43.60379409" lon="-72.65538787">
    <tag k="addr:city" v="Bridgewater"/>
    <tag k="addr:housenumber" v="67"/>
    <tag k="addr:street" v="Jennes Road"/>
    <tag k="addr:state" v="VT"/>
    <tag k="ref:vcgi:esiteid" v="36661"/>
  </node>
  <node id="-309" visible="true" lat="43.6036148" lon="-72.6559143">
    <tag k="addr:city" v="Bridgewater"/>
    <tag k="addr:housenumber" v="75"/>
    <tag k="addr:street" v="Jennes Road"/>
    <tag k="addr:state" v="VT"/>
    <tag k="ref:vcgi:esiteid" v="36663"/>
  </node>
  <node id="-311" visible="true" lat="43.60343565" lon="-72.65422379">
    <tag k="addr:city" v="Bridgewater"/>
    <tag k="addr:housenumber" v="1134"/>
    <tag k="addr:street" v="Bridgewater Center Road"/>
    <tag k="addr:state" v="VT"/>
    <tag k="ref:vcgi:esiteid" v="36665"/>
  </node>
  <node id="-312" visible="true" lat="43.60301589" lon="-72.69882202">
    <tag k="addr:city" v="Bridgewater"/>
    <tag k="addr:housenumber" v="1178"/>
    <tag k="addr:street" v="Old Bridgewater Hill Road"/>
    <tag k="addr:state" v="VT"/>
    <tag k="ref:vcgi:esiteid" v="36666"/>
  </node>
  <node id="-313" visible="true" lat="43.60294342" lon="-72.65466308">
    <tag k="addr:city" v="Bridgewater"/>
    <tag k="addr:housenumber" v="1056"/>
    <tag k="addr:street" v="Bridgewater Center Road"/>
    <tag k="addr:state" v="VT"/>
    <tag k="ref:vcgi:esiteid" v="36667"/>
  </node>
  <node id="-316" visible="true" lat="43.60249497" lon="-72.63382663">
    <tag k="addr:city" v="Bridgewater"/>
    <tag k="addr:housenumber" v="970"/>
    <tag k="addr:street" v="Goldcoast Road"/>
    <tag k="addr:state" v="VT"/>
    <tag k="ref:vcgi:esiteid" v="36670"/>
  </node>
  <node id="-317" visible="true" lat="43.60230636" lon="-72.72676086">
    <tag k="addr:city" v="Bridgewater"/>
    <tag k="addr:housenumber" v="62"/>
    <tag k="addr:street" v="Standish Road"/>
    <tag k="addr:state" v="VT"/>
    <tag k="ref:vcgi:esiteid" v="36671"/>
  </node>
  <node id="-318" visible="true" lat="43.60190582" lon="-72.72647857">
    <tag k="addr:city" v="Bridgewater"/>
    <tag k="addr:housenumber" v="41"/>
    <tag k="addr:street" v="Standish Road"/>
    <tag k="addr:state" v="VT"/>
    <tag k="ref:vcgi:esiteid" v="36672"/>
  </node>
  <node id="-319" visible="true" lat="43.60200337" lon="-72.61345173">
    <tag k="addr:city" v="Bridgewater"/>
    <tag k="addr:housenumber" v="1261"/>
    <tag k="addr:street" v="North Bridgewater Road"/>
    <tag k="addr:state" v="VT"/>
    <tag k="ref:vcgi:esiteid" v="36673"/>
  </node>
  <node id="-320" visible="true" lat="43.60221043" lon="-72.61164266">
    <tag k="addr:city" v="Bridgewater"/>
    <tag k="addr:housenumber" v="1264"/>
    <tag k="addr:street" v="North Bridgewater Road"/>
    <tag k="addr:state" v="VT"/>
    <tag k="ref:vcgi:esiteid" v="36674"/>
  </node>
  <node id="-321" visible="true" lat="43.60186767" lon="-72.69675445">
    <tag k="addr:city" v="Bridgewater"/>
    <tag k="addr:housenumber" v="1279"/>
    <tag k="addr:street" v="Old Bridgewater Hill Road"/>
    <tag k="addr:state" v="VT"/>
    <tag k="ref:vcgi:esiteid" v="36675"/>
  </node>
  <node id="-322" visible="true" lat="43.60129089" lon="-72.74591285">
    <tag k="addr:city" v="Bridgewater"/>
    <tag k="addr:housenumber" v="149"/>
    <tag k="addr:street" v="Cram Trail"/>
    <tag k="addr:state" v="VT"/>
    <tag k="ref:vcgi:esiteid" v="36676"/>
  </node>
  <node id="-323" visible="true" lat="43.60141191" lon="-72.74659693">
    <tag k="addr:city" v="Bridgewater"/>
    <tag k="addr:housenumber" v="121"/>
    <tag k="addr:street" v="Cram Trail"/>
    <tag k="addr:state" v="VT"/>
    <tag k="ref:vcgi:esiteid" v="36677"/>
  </node>
  <node id="-324" visible="true" lat="43.60123443" lon="-72.63483428">
    <tag k="addr:city" v="Bridgewater"/>
    <tag k="addr:housenumber" v="891"/>
    <tag k="addr:street" v="Goldcoast Road"/>
    <tag k="addr:state" v="VT"/>
    <tag k="ref:vcgi:esiteid" v="36678"/>
  </node>
  <node id="-327" visible="true" lat="43.60076904" lon="-72.71890258">
    <tag k="addr:city" v="Bridgewater"/>
    <tag k="addr:housenumber" v="496"/>
    <tag k="addr:street" v="Bridgewater Hill Road"/>
    <tag k="addr:state" v="VT"/>
    <tag k="ref:vcgi:esiteid" v="36682"/>
  </node>
  <node id="-328" visible="true" lat="43.60062789" lon="-72.71366119">
    <tag k="addr:city" v="Bridgewater"/>
    <tag k="addr:housenumber" v="74"/>
    <tag k="addr:street" v="Bridgewater Hill Road"/>
    <tag k="addr:state" v="VT"/>
    <tag k="ref:vcgi:esiteid" v="36683"/>
  </node>
  <node id="-330" visible="true" lat="43.60044975" lon="-72.61556631">
    <tag k="addr:city" v="Bridgewater"/>
    <tag k="addr:housenumber" v="995"/>
    <tag k="addr:street" v="North Bridgewater Road"/>
    <tag k="addr:state" v="VT"/>
    <tag k="ref:vcgi:esiteid" v="36685"/>
  </node>
  <node id="-331" visible="true" lat="43.60020065" lon="-72.71323394">
    <tag k="addr:city" v="Bridgewater"/>
    <tag k="addr:housenumber" v="40"/>
    <tag k="addr:street" v="Bridgewater Hill Road"/>
    <tag k="addr:state" v="VT"/>
    <tag k="ref:vcgi:esiteid" v="36686"/>
  </node>
  <node id="-332" visible="true" lat="43.60024811" lon="-72.63426151">
    <tag k="addr:city" v="Bridgewater"/>
    <tag k="addr:housenumber" v="854"/>
    <tag k="addr:street" v="Goldcoast Road"/>
    <tag k="addr:state" v="VT"/>
    <tag k="ref:vcgi:esiteid" v="36688"/>
  </node>
  <node id="-333" visible="true" lat="43.59996261" lon="-72.74943407">
    <tag k="addr:city" v="Bridgewater"/>
    <tag k="addr:housenumber" v="44"/>
    <tag k="addr:street" v="U.S. Route 4"/>
    <tag k="addr:state" v="VT"/>
    <tag k="ref:vcgi:esiteid" v="36689"/>
  </node>
  <node id="-336" visible="true" lat="43.59964359" lon="-72.7495361">
    <tag k="addr:city" v="Bridgewater"/>
    <tag k="addr:housenumber" v="34"/>
    <tag k="addr:street" v="Vermont Route 100"/>
    <tag k="addr:state" v="VT"/>
    <tag k="ref:vcgi:esiteid" v="36692"/>
  </node>
  <node id="-337" visible="true" lat="43.60000204" lon="-72.61578416">
    <tag k="addr:city" v="Bridgewater"/>
    <tag k="addr:housenumber" v="993"/>
    <tag k="addr:street" v="North Bridgewater Road"/>
    <tag k="addr:state" v="VT"/>
    <tag k="ref:vcgi:esiteid" v="36693"/>
  </node>
  <node id="-338" visible="true" lat="43.5993309" lon="-72.74874877">
    <tag k="addr:city" v="Bridgewater"/>
    <tag k="addr:housenumber" v="37"/>
    <tag k="addr:street" v="Vermont Route 100"/>
    <tag k="addr:state" v="VT"/>
    <tag k="ref:vcgi:esiteid" v="36694"/>
  </node>
  <node id="-339" visible="true" lat="43.59941101" lon="-72.69779205">
    <tag k="addr:city" v="Bridgewater"/>
    <tag k="addr:housenumber" v="1346"/>
    <tag k="addr:street" v="Old Bridgewater Hill Road"/>
    <tag k="addr:state" v="VT"/>
    <tag k="ref:vcgi:esiteid" v="36695"/>
  </node>
  <node id="-341" visible="true" lat="43.59929656" lon="-72.65723419">
    <tag k="addr:city" v="Bridgewater"/>
    <tag k="addr:housenumber" v="732"/>
    <tag k="addr:street" v="Bridgewater Center Road"/>
    <tag k="addr:state" v="VT"/>
    <tag k="ref:vcgi:esiteid" v="36697"/>
  </node>
  <node id="-342" visible="true" lat="43.59918978" lon="-72.68564476">
    <tag k="addr:city" v="Bridgewater"/>
    <tag k="addr:housenumber" v="143"/>
    <tag k="addr:street" v="Rogers Road"/>
    <tag k="addr:state" v="VT"/>
    <tag k="ref:vcgi:esiteid" v="36698"/>
  </node>
  <node id="-344" visible="true" lat="43.59911727" lon="-72.63490295">
    <tag k="addr:city" v="Bridgewater"/>
    <tag k="addr:housenumber" v="775"/>
    <tag k="addr:street" v="Goldcoast Road"/>
    <tag k="addr:state" v="VT"/>
    <tag k="ref:vcgi:esiteid" v="36700"/>
  </node>
  <node id="-345" visible="true" lat="43.59877777" lon="-72.7490921">
    <tag k="addr:city" v="Bridgewater"/>
    <tag k="addr:housenumber" v="79"/>
    <tag k="addr:street" v="Vermont Route 100"/>
    <tag k="addr:state" v="VT"/>
    <tag k="ref:vcgi:esiteid" v="36701"/>
  </node>
  <node id="-349" visible="true" lat="43.59838104" lon="-72.74952697">
    <tag k="addr:city" v="Bridgewater"/>
    <tag k="addr:housenumber" v="113"/>
    <tag k="addr:street" v="Vermont Route 100"/>
    <tag k="addr:state" v="VT"/>
    <tag k="ref:vcgi:esiteid" v="36705"/>
  </node>
  <node id="-351" visible="true" lat="43.59807205" lon="-72.75119018">
    <tag k="addr:city" v="Bridgewater"/>
    <tag k="addr:housenumber" v="170"/>
    <tag k="addr:street" v="Vermont Route 100"/>
    <tag k="addr:state" v="VT"/>
    <tag k="ref:vcgi:esiteid" v="36707"/>
  </node>
  <node id="-354" visible="true" lat="43.59804868" lon="-72.61675264">
    <tag k="addr:city" v="Bridgewater"/>
    <tag k="addr:housenumber" v="889"/>
    <tag k="addr:street" v="North Bridgewater Road"/>
    <tag k="addr:state" v="VT"/>
    <tag k="ref:vcgi:esiteid" v="36710"/>
  </node>
  <node id="-355" visible="true" lat="43.59772688" lon="-72.65801811">
    <tag k="addr:city" v="Bridgewater"/>
    <tag k="addr:housenumber" v="657"/>
    <tag k="addr:street" v="Bridgewater Center Road"/>
    <tag k="addr:state" v="VT"/>
    <tag k="ref:vcgi:esiteid" v="36711"/>
  </node>
  <node id="-357" visible="true" lat="43.59756262" lon="-72.72193064">
    <tag k="addr:city" v="Bridgewater"/>
    <tag k="addr:housenumber" v="187"/>
    <tag k="addr:street" v="Mountain Side Road"/>
    <tag k="addr:state" v="VT"/>
    <tag k="ref:vcgi:esiteid" v="36713"/>
  </node>
  <node id="-358" visible="true" lat="43.59777784" lon="-72.61511995">
    <tag k="addr:city" v="Bridgewater"/>
    <tag k="addr:housenumber" v="852"/>
    <tag k="addr:street" v="North Bridgewater Road"/>
    <tag k="addr:state" v="VT"/>
    <tag k="ref:vcgi:esiteid" v="36714"/>
  </node>
  <node id="-359" visible="true" lat="43.5975187" lon="-72.72082124">
    <tag k="addr:city" v="Bridgewater"/>
    <tag k="addr:housenumber" v="145"/>
    <tag k="addr:street" v="Mountain Side Road"/>
    <tag k="addr:state" v="VT"/>
    <tag k="ref:vcgi:esiteid" v="36715"/>
  </node>
  <node id="-363" visible="true" lat="43.59673309" lon="-72.66227722">
    <tag k="addr:city" v="Bridgewater"/>
    <tag k="addr:housenumber" v="264"/>
    <tag k="addr:street" v="Holiday Farm Road"/>
    <tag k="addr:state" v="VT"/>
    <tag k="ref:vcgi:esiteid" v="36720"/>
  </node>
  <node id="-365" visible="true" lat="43.59660416" lon="-72.69217815">
    <tag k="addr:city" v="Bridgewater"/>
    <tag k="addr:housenumber" v="42"/>
    <tag k="addr:street" v="Mountain View Road"/>
    <tag k="addr:state" v="VT"/>
    <tag k="ref:vcgi:esiteid" v="36722"/>
  </node>
  <node id="-366" visible="true" lat="43.59669483" lon="-72.65706102">
    <tag k="addr:city" v="Bridgewater"/>
    <tag k="addr:housenumber" v="578"/>
    <tag k="addr:street" v="Bridgewater Center Road"/>
    <tag k="addr:state" v="VT"/>
    <tag k="ref:vcgi:esiteid" v="36723"/>
  </node>
  <node id="-367" visible="true" lat="43.59640884" lon="-72.6635437">
    <tag k="addr:city" v="Bridgewater"/>
    <tag k="addr:housenumber" v="298"/>
    <tag k="addr:street" v="Holiday Farm Road"/>
    <tag k="addr:state" v="VT"/>
    <tag k="ref:vcgi:esiteid" v="36725"/>
  </node>
  <node id="-369" visible="true" lat="43.59613287" lon="-72.69362291">
    <tag k="addr:city" v="Bridgewater"/>
    <tag k="addr:housenumber" v="148"/>
    <tag k="addr:street" v="Mountain View Road"/>
    <tag k="addr:state" v="VT"/>
    <tag k="ref:vcgi:esiteid" v="36727"/>
  </node>
  <node id="-370" visible="true" lat="43.59608078" lon="-72.69419097">
    <tag k="addr:city" v="Bridgewater"/>
    <tag k="addr:housenumber" v="179"/>
    <tag k="addr:street" v="Mountain View Road"/>
    <tag k="addr:state" v="VT"/>
    <tag k="ref:vcgi:esiteid" v="36728"/>
  </node>
  <node id="-371" visible="true" lat="43.59591674" lon="-72.65721893">
    <tag k="addr:city" v="Bridgewater"/>
    <tag k="addr:housenumber" v="538"/>
    <tag k="addr:street" v="Bridgewater Center Road"/>
    <tag k="addr:state" v="VT"/>
    <tag k="ref:vcgi:esiteid" v="36729"/>
  </node>
  <node id="-372" visible="true" lat="43.59606845" lon="-72.61651696">
    <tag k="addr:city" v="Bridgewater"/>
    <tag k="addr:housenumber" v="773"/>
    <tag k="addr:street" v="North Bridgewater Road"/>
    <tag k="addr:state" v="VT"/>
    <tag k="ref:vcgi:esiteid" v="36730"/>
  </node>
  <node id="-376" visible="true" lat="43.595635" lon="-72.61918595">
    <tag k="addr:city" v="Bridgewater"/>
    <tag k="addr:housenumber" v="663"/>
    <tag k="addr:street" v="North Bridgewater Road"/>
    <tag k="addr:state" v="VT"/>
    <tag k="ref:vcgi:esiteid" v="36734"/>
  </node>
  <node id="-377" visible="true" lat="43.59546279" lon="-72.69328308">
    <tag k="addr:city" v="Bridgewater"/>
    <tag k="addr:housenumber" v="115"/>
    <tag k="addr:street" v="Mountain View Road"/>
    <tag k="addr:state" v="VT"/>
    <tag k="ref:vcgi:esiteid" v="36735"/>
  </node>
  <node id="-378" visible="true" lat="43.59543537" lon="-72.70357653">
    <tag k="addr:city" v="Bridgewater"/>
    <tag k="addr:housenumber" v="43"/>
    <tag k="addr:street" v="Raymond Hill Road"/>
    <tag k="addr:state" v="VT"/>
    <tag k="ref:vcgi:esiteid" v="36736"/>
  </node>
  <node id="-379" visible="true" lat="43.59534727" lon="-72.63405197">
    <tag k="addr:city" v="Bridgewater"/>
    <tag k="addr:housenumber" v="505"/>
    <tag k="addr:street" v="Goldcoast Road"/>
    <tag k="addr:state" v="VT"/>
    <tag k="ref:vcgi:esiteid" v="36737"/>
  </node>
  <node id="-380" visible="true" lat="43.59544303" lon="-72.61645226">
    <tag k="addr:city" v="Bridgewater"/>
    <tag k="addr:housenumber" v="716"/>
    <tag k="addr:street" v="North Bridgewater Road"/>
    <tag k="addr:state" v="VT"/>
    <tag k="ref:vcgi:esiteid" v="36738"/>
  </node>
  <node id="-381" visible="true" lat="43.59524131" lon="-72.63354637">
    <tag k="addr:city" v="Bridgewater"/>
    <tag k="addr:housenumber" v="488"/>
    <tag k="addr:street" v="Goldcoast Road"/>
    <tag k="addr:state" v="VT"/>
    <tag k="ref:vcgi:esiteid" v="36739"/>
  </node>
  <node id="-382" visible="true" lat="43.59471511" lon="-72.75108337">
    <tag k="addr:city" v="Bridgewater"/>
    <tag k="addr:housenumber" v="307"/>
    <tag k="addr:street" v="Vermont Route 100"/>
    <tag k="addr:state" v="VT"/>
    <tag k="ref:vcgi:esiteid" v="36740"/>
  </node>
  <node id="-383" visible="true" lat="43.59463119" lon="-72.75346374">
    <tag k="addr:city" v="Bridgewater"/>
    <tag k="addr:housenumber" v="432"/>
    <tag k="addr:street" v="Vermont Route 100"/>
    <tag k="addr:state" v="VT"/>
    <tag k="ref:vcgi:esiteid" v="36741"/>
  </node>
  <node id="-385" visible="true" lat="43.59444823" lon="-72.70253111">
    <tag k="addr:city" v="Bridgewater"/>
    <tag k="addr:housenumber" v="36"/>
    <tag k="addr:street" v="Raymond Hill Road"/>
    <tag k="addr:state" v="VT"/>
    <tag k="ref:vcgi:esiteid" v="36743"/>
  </node>
  <node id="-386" visible="true" lat="43.59452438" lon="-72.70946502">
    <tag k="addr:city" v="Bridgewater"/>
    <tag k="addr:housenumber" v="98"/>
    <tag k="addr:street" v="Pearson Road"/>
    <tag k="addr:state" v="VT"/>
    <tag k="ref:vcgi:esiteid" v="36744"/>
  </node>
  <node id="-388" visible="true" lat="43.59416961" lon="-72.75369262">
    <tag k="addr:city" v="Bridgewater"/>
    <tag k="addr:housenumber" v="464"/>
    <tag k="addr:street" v="Vermont Route 100"/>
    <tag k="addr:state" v="VT"/>
    <tag k="ref:vcgi:esiteid" v="36746"/>
  </node>
  <node id="-390" visible="true" lat="43.59428739" lon="-72.63329317">
    <tag k="addr:city" v="Bridgewater"/>
    <tag k="addr:housenumber" v="428"/>
    <tag k="addr:street" v="Goldcoast Road"/>
    <tag k="addr:state" v="VT"/>
    <tag k="ref:vcgi:esiteid" v="36748"/>
  </node>
  <node id="-391" visible="true" lat="43.59407424" lon="-72.69544982">
    <tag k="addr:city" v="Bridgewater"/>
    <tag k="addr:housenumber" v="78"/>
    <tag k="addr:street" v="Gunderson Road"/>
    <tag k="addr:state" v="VT"/>
    <tag k="ref:vcgi:esiteid" v="36749"/>
  </node>
  <node id="-393" visible="true" lat="43.59389877" lon="-72.69512176">
    <tag k="addr:city" v="Bridgewater"/>
    <tag k="addr:housenumber" v="77"/>
    <tag k="addr:street" v="Gunderson Road"/>
    <tag k="addr:state" v="VT"/>
    <tag k="ref:vcgi:esiteid" v="36751"/>
  </node>
  <node id="-394" visible="true" lat="43.5938034" lon="-72.70948791">
    <tag k="addr:city" v="Bridgewater"/>
    <tag k="addr:housenumber" v="75"/>
    <tag k="addr:street" v="Pearson Road"/>
    <tag k="addr:state" v="VT"/>
    <tag k="ref:vcgi:esiteid" v="36752"/>
  </node>
  <node id="-395" visible="true" lat="43.59382629" lon="-72.69556426">
    <tag k="addr:city" v="Bridgewater"/>
    <tag k="addr:housenumber" v="79"/>
    <tag k="addr:street" v="Gunderson Road"/>
    <tag k="addr:state" v="VT"/>
    <tag k="ref:vcgi:esiteid" v="36753"/>
  </node>
  <node id="-396" visible="true" lat="43.59396672" lon="-72.63310723">
    <tag k="addr:city" v="Bridgewater"/>
    <tag k="addr:housenumber" v="396"/>
    <tag k="addr:street" v="Goldcoast Road"/>
    <tag k="addr:state" v="VT"/>
    <tag k="ref:vcgi:esiteid" v="36754"/>
  </node>
  <node id="-397" visible="true" lat="43.59379323" lon="-72.63268093">
    <tag k="addr:city" v="Bridgewater"/>
    <tag k="addr:housenumber" v="376"/>
    <tag k="addr:street" v="Goldcoast Road"/>
    <tag k="addr:state" v="VT"/>
    <tag k="ref:vcgi:esiteid" v="36755"/>
  </node>
  <node id="-398" visible="true" lat="43.59345245" lon="-72.6617279">
    <tag k="addr:city" v="Bridgewater"/>
    <tag k="addr:housenumber" v="41"/>
    <tag k="addr:street" v="Holiday Farm Road"/>
    <tag k="addr:state" v="VT"/>
    <tag k="ref:vcgi:esiteid" v="36756"/>
  </node>
  <node id="-401" visible="true" lat="43.59352086" lon="-72.63286641">
    <tag k="addr:city" v="Bridgewater"/>
    <tag k="addr:housenumber" v="358"/>
    <tag k="addr:street" v="Goldcoast Road"/>
    <tag k="addr:state" v="VT"/>
    <tag k="ref:vcgi:esiteid" v="36759"/>
  </node>
  <node id="-404" visible="true" lat="43.59243774" lon="-72.75445556">
    <tag k="addr:city" v="Bridgewater"/>
    <tag k="addr:housenumber" v="574"/>
    <tag k="addr:street" v="Vermont Route 100"/>
    <tag k="addr:state" v="VT"/>
    <tag k="ref:vcgi:esiteid" v="36763"/>
  </node>
  <node id="-406" visible="true" lat="43.59268742" lon="-72.63353438">
    <tag k="addr:city" v="Bridgewater"/>
    <tag k="addr:housenumber" v="343"/>
    <tag k="addr:street" v="Goldcoast Road"/>
    <tag k="addr:state" v="VT"/>
    <tag k="ref:vcgi:esiteid" v="36765"/>
  </node>
  <node id="-407" visible="true" lat="43.59238052" lon="-72.66072082">
    <tag k="addr:city" v="Bridgewater"/>
    <tag k="addr:housenumber" v="226"/>
    <tag k="addr:street" v="Bridgewater Center Road"/>
    <tag k="addr:state" v="VT"/>
    <tag k="ref:vcgi:esiteid" v="36766"/>
  </node>
  <node id="-408" visible="true" lat="43.59245541" lon="-72.62132847">
    <tag k="addr:city" v="Bridgewater"/>
    <tag k="addr:housenumber" v="403"/>
    <tag k="addr:street" v="North Bridgewater Road"/>
    <tag k="addr:state" v="VT"/>
    <tag k="ref:vcgi:esiteid" v="36767"/>
  </node>
  <node id="-409" visible="true" lat="43.59242129" lon="-72.63266374">
    <tag k="addr:city" v="Bridgewater"/>
    <tag k="addr:housenumber" v="291"/>
    <tag k="addr:street" v="Goldcoast Road"/>
    <tag k="addr:state" v="VT"/>
    <tag k="ref:vcgi:esiteid" v="36768"/>
  </node>
  <node id="-410" visible="true" lat="43.59163665" lon="-72.75496673">
    <tag k="addr:city" v="Bridgewater"/>
    <tag k="addr:housenumber" v="652"/>
    <tag k="addr:street" v="Vermont Route 100"/>
    <tag k="addr:state" v="VT"/>
    <tag k="ref:vcgi:esiteid" v="36769"/>
  </node>
  <node id="-412" visible="true" lat="43.59139653" lon="-72.66094102">
    <tag k="addr:city" v="Bridgewater"/>
    <tag k="addr:housenumber" v="153"/>
    <tag k="addr:street" v="Bridgewater Center Road"/>
    <tag k="addr:state" v="VT"/>
    <tag k="ref:vcgi:esiteid" v="36771"/>
  </node>
  <node id="-413" visible="true" lat="43.59090805" lon="-72.75462341">
    <tag k="addr:city" v="Bridgewater"/>
    <tag k="addr:housenumber" v="694"/>
    <tag k="addr:street" v="Vermont Route 100"/>
    <tag k="addr:state" v="VT"/>
    <tag k="ref:vcgi:esiteid" v="36772"/>
  </node>
  <node id="-414" visible="true" lat="43.59099747" lon="-72.66109628">
    <tag k="addr:city" v="Bridgewater"/>
    <tag k="addr:housenumber" v="131"/>
    <tag k="addr:street" v="Bridgewater Center Road"/>
    <tag k="addr:state" v="VT"/>
    <tag k="ref:vcgi:esiteid" v="36773"/>
  </node>
  <node id="-416" visible="true" lat="43.59063912" lon="-72.64347613">
    <tag k="addr:city" v="Bridgewater"/>
    <tag k="addr:housenumber" v="109"/>
    <tag k="addr:street" v="Robinson Road"/>
    <tag k="addr:state" v="VT"/>
    <tag k="ref:vcgi:esiteid" v="36775"/>
  </node>
  <node id="-418" visible="true" lat="43.59008813" lon="-72.6639641">
    <tag k="addr:city" v="Bridgewater"/>
    <tag k="addr:housenumber" v="6"/>
    <tag k="addr:street" v="Houghtons Road"/>
    <tag k="addr:state" v="VT"/>
    <tag k="ref:vcgi:esiteid" v="36777"/>
  </node>
  <node id="-420" visible="true" lat="43.59021164" lon="-72.66082109">
    <tag k="addr:city" v="Bridgewater"/>
    <tag k="addr:housenumber" v="73"/>
    <tag k="addr:street" v="Bridgewater Center Road"/>
    <tag k="addr:state" v="VT"/>
    <tag k="ref:vcgi:esiteid" v="36779"/>
  </node>
  <node id="-421" visible="true" lat="43.5902666" lon="-72.62173983">
    <tag k="addr:city" v="Bridgewater"/>
    <tag k="addr:housenumber" v="226"/>
    <tag k="addr:street" v="North Bridgewater Road"/>
    <tag k="addr:state" v="VT"/>
    <tag k="ref:vcgi:esiteid" v="36781"/>
  </node>
  <node id="-423" visible="true" lat="43.58982036" lon="-72.66319047">
    <tag k="addr:city" v="Bridgewater"/>
    <tag k="addr:housenumber" v="16"/>
    <tag k="addr:street" v="Houghtons Road"/>
    <tag k="addr:state" v="VT"/>
    <tag k="ref:vcgi:esiteid" v="36783"/>
  </node>
  <node id="-424" visible="true" lat="43.5896836" lon="-72.66282741">
    <tag k="addr:city" v="Bridgewater"/>
    <tag k="addr:housenumber" v="24"/>
    <tag k="addr:street" v="Houghtons Road"/>
    <tag k="addr:state" v="VT"/>
    <tag k="ref:vcgi:esiteid" v="36784"/>
  </node>
  <node id="-425" visible="true" lat="43.58985708" lon="-72.62388657">
    <tag k="addr:city" v="Bridgewater"/>
    <tag k="addr:housenumber" v="151"/>
    <tag k="addr:street" v="North Bridgewater Road"/>
    <tag k="addr:state" v="VT"/>
    <tag k="ref:vcgi:esiteid" v="36785"/>
  </node>
  <node id="-426" visible="true" lat="43.58991209" lon="-72.6248042">
    <tag k="addr:city" v="Bridgewater"/>
    <tag k="addr:housenumber" v="103"/>
    <tag k="addr:street" v="North Bridgewater Road"/>
    <tag k="addr:state" v="VT"/>
    <tag k="ref:vcgi:esiteid" v="36786"/>
  </node>
  <node id="-427" visible="true" lat="43.58972442" lon="-72.66049985">
    <tag k="addr:city" v="Bridgewater"/>
    <tag k="addr:housenumber" v="41"/>
    <tag k="addr:street" v="Bridgewater Center Road"/>
    <tag k="addr:state" v="VT"/>
    <tag k="ref:vcgi:esiteid" v="36787"/>
  </node>
  <node id="-428" visible="true" lat="43.58977103" lon="-72.62322765">
    <tag k="addr:city" v="Bridgewater"/>
    <tag k="addr:housenumber" v="174"/>
    <tag k="addr:street" v="North Bridgewater Road"/>
    <tag k="addr:state" v="VT"/>
    <tag k="ref:vcgi:esiteid" v="36788"/>
  </node>
  <node id="-430" visible="true" lat="43.58937242" lon="-72.65967502">
    <tag k="addr:city" v="Bridgewater"/>
    <tag k="addr:housenumber" v="12"/>
    <tag k="addr:street" v="Bridgewater Center Road"/>
    <tag k="addr:state" v="VT"/>
    <tag k="ref:vcgi:esiteid" v="36790"/>
  </node>
  <node id="-431" visible="true" lat="43.58936309" lon="-72.65853118">
    <tag k="addr:city" v="Bridgewater"/>
    <tag k="addr:housenumber" v="410"/>
    <tag k="addr:street" v="Upper Road"/>
    <tag k="addr:state" v="VT"/>
    <tag k="ref:vcgi:esiteid" v="36791"/>
  </node>
  <node id="-433" visible="true" lat="43.58905909" lon="-72.64308413">
    <tag k="addr:city" v="Bridgewater"/>
    <tag k="addr:housenumber" v="56"/>
    <tag k="addr:street" v="Robinson Road"/>
    <tag k="addr:state" v="VT"/>
    <tag k="ref:vcgi:esiteid" v="36793"/>
  </node>
  <node id="-435" visible="true" lat="43.58907116" lon="-72.62495094">
    <tag k="addr:city" v="Bridgewater"/>
    <tag k="addr:housenumber" v="85"/>
    <tag k="addr:street" v="North Bridgewater Road"/>
    <tag k="addr:state" v="VT"/>
    <tag k="ref:vcgi:esiteid" v="36795"/>
  </node>
  <node id="-437" visible="true" lat="43.58912373" lon="-72.62439179">
    <tag k="addr:city" v="Bridgewater"/>
    <tag k="addr:housenumber" v="88"/>
    <tag k="addr:street" v="North Bridgewater Road"/>
    <tag k="addr:state" v="VT"/>
    <tag k="ref:vcgi:esiteid" v="36797"/>
  </node>
  <node id="-438" visible="true" lat="43.58889448" lon="-72.65643048">
    <tag k="addr:city" v="Bridgewater"/>
    <tag k="addr:housenumber" v="320"/>
    <tag k="addr:street" v="Upper Road"/>
    <tag k="addr:state" v="VT"/>
    <tag k="ref:vcgi:esiteid" v="36798"/>
  </node>
  <node id="-440" visible="true" lat="43.58857727" lon="-72.75493621">
    <tag k="addr:city" v="Bridgewater"/>
    <tag k="addr:housenumber" v="851"/>
    <tag k="addr:street" v="Vermont Route 100"/>
    <tag k="addr:state" v="VT"/>
    <tag k="ref:vcgi:esiteid" v="36800"/>
  </node>
  <node id="-441" visible="true" lat="43.5886893" lon="-72.64496854">
    <tag k="addr:city" v="Bridgewater"/>
    <tag k="addr:housenumber" v="37"/>
    <tag k="addr:street" v="Robinson Road"/>
    <tag k="addr:state" v="VT"/>
    <tag k="ref:vcgi:esiteid" v="36801"/>
  </node>
  <node id="-443" visible="true" lat="43.58871078" lon="-72.6558609">
    <tag k="addr:city" v="Bridgewater"/>
    <tag k="addr:housenumber" v="256"/>
    <tag k="addr:street" v="Upper Road"/>
    <tag k="addr:state" v="VT"/>
    <tag k="ref:vcgi:esiteid" v="36803"/>
  </node>
  <node id="-444" visible="true" lat="43.588748" lon="-72.63118741">
    <tag k="addr:city" v="Bridgewater"/>
    <tag k="addr:housenumber" v="50"/>
    <tag k="addr:street" v="Goldcoast Road"/>
    <tag k="addr:state" v="VT"/>
    <tag k="ref:vcgi:esiteid" v="36804"/>
  </node>
  <node id="-445" visible="true" lat="43.58858905" lon="-72.65465556">
    <tag k="addr:city" v="Bridgewater"/>
    <tag k="addr:housenumber" v="200"/>
    <tag k="addr:street" v="Upper Road"/>
    <tag k="addr:state" v="VT"/>
    <tag k="ref:vcgi:esiteid" v="36805"/>
  </node>
  <node id="-446" visible="true" lat="43.58873068" lon="-72.62528471">
    <tag k="addr:city" v="Bridgewater"/>
    <tag k="addr:housenumber" v="49"/>
    <tag k="addr:street" v="North Bridgewater Road"/>
    <tag k="addr:state" v="VT"/>
    <tag k="ref:vcgi:esiteid" v="36806"/>
  </node>
  <node id="-447" visible="true" lat="43.58842236" lon="-72.65427056">
    <tag k="addr:city" v="Bridgewater"/>
    <tag k="addr:housenumber" v="180"/>
    <tag k="addr:street" v="Upper Road"/>
    <tag k="addr:state" v="VT"/>
    <tag k="ref:vcgi:esiteid" v="36807"/>
  </node>
  <node id="-449" visible="true" lat="43.58846664" lon="-72.65367889">
    <tag k="addr:city" v="Bridgewater"/>
    <tag k="addr:housenumber" v="160"/>
    <tag k="addr:street" v="Upper Road"/>
    <tag k="addr:state" v="VT"/>
    <tag k="ref:vcgi:esiteid" v="36809"/>
  </node>
  <node id="-451" visible="true" lat="43.58859419" lon="-72.62477702">
    <tag k="addr:city" v="Bridgewater"/>
    <tag k="addr:housenumber" v="46"/>
    <tag k="addr:street" v="North Bridgewater Road"/>
    <tag k="addr:state" v="VT"/>
    <tag k="ref:vcgi:esiteid" v="36811"/>
  </node>
  <node id="-456" visible="true" lat="43.58840587" lon="-72.63193991">
    <tag k="addr:city" v="Bridgewater"/>
    <tag k="addr:housenumber" v="3"/>
    <tag k="addr:street" v="Goldcoast Road"/>
    <tag k="addr:state" v="VT"/>
    <tag k="ref:vcgi:esiteid" v="36817"/>
  </node>
  <node id="-459" visible="true" lat="43.58849896" lon="-72.63116352">
    <tag k="addr:city" v="Bridgewater"/>
    <tag k="addr:housenumber" v="18"/>
    <tag k="addr:street" v="Goldcoast Road"/>
    <tag k="addr:state" v="VT"/>
    <tag k="ref:vcgi:esiteid" v="36820"/>
  </node>
  <node id="-467" visible="true" lat="43.58801651" lon="-72.75570678">
    <tag k="addr:city" v="Bridgewater"/>
    <tag k="addr:housenumber" v="904"/>
    <tag k="addr:street" v="Vermont Route 100"/>
    <tag k="addr:state" v="VT"/>
    <tag k="ref:vcgi:esiteid" v="36828"/>
  </node>
  <node id="-472" visible="true" lat="43.58817607" lon="-72.65376311">
    <tag k="addr:city" v="Bridgewater"/>
    <tag k="addr:housenumber" v="148"/>
    <tag k="addr:street" v="Upper Road"/>
    <tag k="addr:state" v="VT"/>
    <tag k="ref:vcgi:esiteid" v="36833"/>
  </node>
  <node id="-474" visible="true" lat="43.58803176" lon="-72.65672302">
    <tag k="addr:city" v="Bridgewater"/>
    <tag k="addr:housenumber" v="16"/>
    <tag k="addr:street" v="Vermont Route 100A"/>
    <tag k="addr:state" v="VT"/>
    <tag k="ref:vcgi:esiteid" v="36835"/>
  </node>
  <node id="-480" visible="true" lat="43.5880267" lon="-72.65604313">
    <tag k="addr:city" v="Bridgewater"/>
    <tag k="addr:housenumber" v="5680"/>
    <tag k="addr:street" v="U.S. Route 4"/>
    <tag k="addr:state" v="VT"/>
    <tag k="ref:vcgi:esiteid" v="36841"/>
  </node>
  <node id="-483" visible="true" lat="43.58811112" lon="-72.62495146">
    <tag k="addr:city" v="Bridgewater"/>
    <tag k="addr:housenumber" v="12"/>
    <tag k="addr:street" v="North Bridgewater Road"/>
    <tag k="addr:state" v="VT"/>
    <tag k="ref:vcgi:esiteid" v="36844"/>
  </node>
  <node id="-484" visible="true" lat="43.58793973" lon="-72.62160493">
    <tag k="addr:city" v="Bridgewater"/>
    <tag k="addr:housenumber" v="93"/>
    <tag k="addr:street" v="Mill Village Road"/>
    <tag k="addr:state" v="VT"/>
    <tag k="ref:vcgi:esiteid" v="36845"/>
  </node>
  <node id="-487" visible="true" lat="43.58792066" lon="-72.62117769">
    <tag k="addr:city" v="Bridgewater"/>
    <tag k="addr:housenumber" v="73"/>
    <tag k="addr:street" v="Mill Village Road"/>
    <tag k="addr:state" v="VT"/>
    <tag k="ref:vcgi:esiteid" v="36848"/>
  </node>
  <node id="-492" visible="true" lat="43.58838082" lon="-72.64926001">
    <tag k="addr:city" v="Bridgewater"/>
    <tag k="addr:housenumber" v="27"/>
    <tag k="addr:street" v="Prior Road"/>
    <tag k="addr:state" v="VT"/>
    <tag k="ref:vcgi:esiteid" v="36853"/>
  </node>
  <node id="-498" visible="true" lat="43.58779223" lon="-72.62400421">
    <tag k="addr:city" v="Bridgewater"/>
    <tag k="addr:housenumber" v="45"/>
    <tag k="addr:street" v="Southgate Loop"/>
    <tag k="addr:state" v="VT"/>
    <tag k="ref:vcgi:esiteid" v="36859"/>
  </node>
  <node id="-502" visible="true" lat="43.58779752" lon="-72.75713107">
    <tag k="addr:city" v="Bridgewater"/>
    <tag k="addr:housenumber" v="980"/>
    <tag k="addr:street" v="Vermont Route 100"/>
    <tag k="addr:state" v="VT"/>
    <tag k="ref:vcgi:esiteid" v="36863"/>
  </node>
  <node id="-503" visible="true" lat="43.58775663" lon="-72.65111513">
    <tag k="addr:city" v="Bridgewater"/>
    <tag k="addr:housenumber" v="9"/>
    <tag k="addr:street" v="Prior Road"/>
    <tag k="addr:state" v="VT"/>
    <tag k="ref:vcgi:esiteid" v="36864"/>
  </node>
  <node id="-504" visible="true" lat="43.58758768" lon="-72.65210369">
    <tag k="addr:city" v="Bridgewater"/>
    <tag k="addr:housenumber" v="52"/>
    <tag k="addr:street" v="Upper Road"/>
    <tag k="addr:state" v="VT"/>
    <tag k="ref:vcgi:esiteid" v="36865"/>
  </node>
  <node id="-505" visible="true" lat="43.58769046" lon="-72.65613574">
    <tag k="addr:city" v="Bridgewater"/>
    <tag k="addr:housenumber" v="39"/>
    <tag k="addr:street" v="Vermont Route 100A"/>
    <tag k="addr:state" v="VT"/>
    <tag k="ref:vcgi:esiteid" v="36866"/>
  </node>
  <node id="-506" visible="true" lat="43.58753373" lon="-72.65264072">
    <tag k="addr:city" v="Bridgewater"/>
    <tag k="addr:housenumber" v="74"/>
    <tag k="addr:street" v="Upper Road"/>
    <tag k="addr:state" v="VT"/>
    <tag k="ref:vcgi:esiteid" v="36868"/>
  </node>
  <node id="-511" visible="true" lat="43.5872879" lon="-72.75603485">
    <tag k="addr:city" v="Bridgewater"/>
    <tag k="addr:housenumber" v="952"/>
    <tag k="addr:street" v="Vermont Route 100"/>
    <tag k="addr:state" v="VT"/>
    <tag k="ref:vcgi:esiteid" v="36873"/>
  </node>
  <node id="-514" visible="true" lat="43.58746337" lon="-72.62142944">
    <tag k="addr:city" v="Bridgewater"/>
    <tag k="addr:housenumber" v="7465"/>
    <tag k="addr:street" v="U.S. Route 4"/>
    <tag k="addr:state" v="VT"/>
    <tag k="ref:vcgi:esiteid" v="36876"/>
  </node>
  <node id="-515" visible="true" lat="43.58753915" lon="-72.62174299">
    <tag k="addr:city" v="Bridgewater"/>
    <tag k="addr:housenumber" v="7471"/>
    <tag k="addr:street" v="U.S. Route 4"/>
    <tag k="addr:state" v="VT"/>
    <tag k="ref:vcgi:esiteid" v="36877"/>
  </node>
  <node id="-517" visible="true" lat="43.58745383" lon="-72.62096099">
    <tag k="addr:city" v="Bridgewater"/>
    <tag k="addr:housenumber" v="7495"/>
    <tag k="addr:street" v="U.S. Route 4"/>
    <tag k="addr:state" v="VT"/>
    <tag k="ref:vcgi:esiteid" v="36879"/>
  </node>
  <node id="-519" visible="true" lat="43.58740177" lon="-72.62311484">
    <tag k="addr:city" v="Bridgewater"/>
    <tag k="addr:housenumber" v="7392"/>
    <tag k="addr:street" v="U.S. Route 4"/>
    <tag k="addr:state" v="VT"/>
    <tag k="ref:vcgi:esiteid" v="36881"/>
  </node>
  <node id="-521" visible="true" lat="43.58718111" lon="-72.62227048">
    <tag k="addr:city" v="Bridgewater"/>
    <tag k="addr:housenumber" v="49"/>
    <tag k="addr:street" v="Mill Road"/>
    <tag k="addr:state" v="VT"/>
    <tag k="ref:vcgi:esiteid" v="36883"/>
  </node>
  <node id="-522" visible="true" lat="43.58699056" lon="-72.62080921">
    <tag k="addr:city" v="Bridgewater"/>
    <tag k="addr:housenumber" v="102"/>
    <tag k="addr:street" v="Mill Road"/>
    <tag k="addr:state" v="VT"/>
    <tag k="ref:vcgi:esiteid" v="36884"/>
  </node>
  <node id="-523" visible="true" lat="43.58676915" lon="-72.65818348">
    <tag k="addr:city" v="Bridgewater"/>
    <tag k="addr:housenumber" v="65"/>
    <tag k="addr:street" v="School House Road"/>
    <tag k="addr:state" v="VT"/>
    <tag k="ref:vcgi:esiteid" v="36885"/>
  </node>
  <node id="-524" visible="true" lat="43.58655166" lon="-72.65758514">
    <tag k="addr:city" v="Bridgewater"/>
    <tag k="addr:housenumber" v="31"/>
    <tag k="addr:street" v="School House Road"/>
    <tag k="addr:state" v="VT"/>
    <tag k="ref:vcgi:esiteid" v="36886"/>
  </node>
  <node id="-525" visible="true" lat="43.58643048" lon="-72.65819017">
    <tag k="addr:city" v="Bridgewater"/>
    <tag k="addr:housenumber" v="47"/>
    <tag k="addr:street" v="School House Road"/>
    <tag k="addr:state" v="VT"/>
    <tag k="ref:vcgi:esiteid" v="36887"/>
  </node>
  <node id="-526" visible="true" lat="43.58642773" lon="-72.65657478">
    <tag k="addr:city" v="Bridgewater"/>
    <tag k="addr:housenumber" v="129"/>
    <tag k="addr:street" v="Vermont Route 100A"/>
    <tag k="addr:state" v="VT"/>
    <tag k="ref:vcgi:esiteid" v="36888"/>
  </node>
  <node id="-527" visible="true" lat="43.58621657" lon="-72.62803961">
    <tag k="addr:city" v="Bridgewater"/>
    <tag k="addr:housenumber" v="314"/>
    <tag k="addr:street" v="Blanchard Road"/>
    <tag k="addr:state" v="VT"/>
    <tag k="ref:vcgi:esiteid" v="36889"/>
  </node>
  <node id="-528" visible="true" lat="43.58619689" lon="-72.62423706">
    <tag k="addr:city" v="Bridgewater"/>
    <tag k="addr:housenumber" v="51"/>
    <tag k="addr:street" v="Parsonage Road"/>
    <tag k="addr:state" v="VT"/>
    <tag k="ref:vcgi:esiteid" v="36890"/>
  </node>
  <node id="-529" visible="true" lat="43.58618164" lon="-72.62949371">
    <tag k="addr:city" v="Bridgewater"/>
    <tag k="addr:housenumber" v="388"/>
    <tag k="addr:street" v="Blanchard Road"/>
    <tag k="addr:state" v="VT"/>
    <tag k="ref:vcgi:esiteid" v="36891"/>
  </node>
  <node id="-530" visible="true" lat="43.58629902" lon="-72.622466">
    <tag k="addr:city" v="Bridgewater"/>
    <tag k="addr:housenumber" v="55"/>
    <tag k="addr:street" v="Curtis Hollow Road"/>
    <tag k="addr:state" v="VT"/>
    <tag k="ref:vcgi:esiteid" v="36892"/>
  </node>
  <node id="-531" visible="true" lat="43.58623158" lon="-72.62475537">
    <tag k="addr:city" v="Bridgewater"/>
    <tag k="addr:housenumber" v="36"/>
    <tag k="addr:street" v="Parsonage Road"/>
    <tag k="addr:state" v="VT"/>
    <tag k="ref:vcgi:esiteid" v="36893"/>
  </node>
  <node id="-532" visible="true" lat="43.58615295" lon="-72.62388534">
    <tag k="addr:city" v="Bridgewater"/>
    <tag k="addr:housenumber" v="78"/>
    <tag k="addr:street" v="Parsonage Road"/>
    <tag k="addr:state" v="VT"/>
    <tag k="ref:vcgi:esiteid" v="36894"/>
  </node>
  <node id="-533" visible="true" lat="43.58593368" lon="-72.64949798">
    <tag k="addr:city" v="Bridgewater"/>
    <tag k="addr:housenumber" v="354"/>
    <tag k="addr:street" v="River Road"/>
    <tag k="addr:state" v="VT"/>
    <tag k="ref:vcgi:esiteid" v="36895"/>
  </node>
  <node id="-534" visible="true" lat="43.58610143" lon="-72.62364829">
    <tag k="addr:city" v="Bridgewater"/>
    <tag k="addr:housenumber" v="91"/>
    <tag k="addr:street" v="Parsonage Road"/>
    <tag k="addr:state" v="VT"/>
    <tag k="ref:vcgi:esiteid" v="36896"/>
  </node>
  <node id="-535" visible="true" lat="43.58588027" lon="-72.65068054">
    <tag k="addr:city" v="Bridgewater"/>
    <tag k="addr:housenumber" v="312"/>
    <tag k="addr:street" v="River Road"/>
    <tag k="addr:state" v="VT"/>
    <tag k="ref:vcgi:esiteid" v="36897"/>
  </node>
  <node id="-536" visible="true" lat="43.58579423" lon="-72.65647068">
    <tag k="addr:city" v="Bridgewater"/>
    <tag k="addr:housenumber" v="169"/>
    <tag k="addr:street" v="Vermont Route 100A"/>
    <tag k="addr:state" v="VT"/>
    <tag k="ref:vcgi:esiteid" v="36898"/>
  </node>
  <node id="-537" visible="true" lat="43.5859348" lon="-72.62309082">
    <tag k="addr:city" v="Bridgewater"/>
    <tag k="addr:housenumber" v="117"/>
    <tag k="addr:street" v="Parsonage Road"/>
    <tag k="addr:state" v="VT"/>
    <tag k="ref:vcgi:esiteid" v="36899"/>
  </node>
  <node id="-538" visible="true" lat="43.58566284" lon="-72.65737915">
    <tag k="addr:city" v="Bridgewater"/>
    <tag k="addr:housenumber" v="178"/>
    <tag k="addr:street" v="Vermont Route 100A"/>
    <tag k="addr:state" v="VT"/>
    <tag k="ref:vcgi:esiteid" v="36900"/>
  </node>
  <node id="-539" visible="true" lat="43.58563984" lon="-72.65210849">
    <tag k="addr:city" v="Bridgewater"/>
    <tag k="addr:housenumber" v="234"/>
    <tag k="addr:street" v="River Road"/>
    <tag k="addr:state" v="VT"/>
    <tag k="ref:vcgi:esiteid" v="36901"/>
  </node>
  <node id="-540" visible="true" lat="43.58576871" lon="-72.63127901">
    <tag k="addr:city" v="Bridgewater"/>
    <tag k="addr:housenumber" v="502"/>
    <tag k="addr:street" v="Blanchard Road"/>
    <tag k="addr:state" v="VT"/>
    <tag k="ref:vcgi:esiteid" v="36902"/>
  </node>
  <node id="-541" visible="true" lat="43.58578471" lon="-72.62219576">
    <tag k="addr:city" v="Bridgewater"/>
    <tag k="addr:housenumber" v="84"/>
    <tag k="addr:street" v="Curtis Hollow Road"/>
    <tag k="addr:state" v="VT"/>
    <tag k="ref:vcgi:esiteid" v="36903"/>
  </node>
  <node id="-542" visible="true" lat="43.5855484" lon="-72.63034057">
    <tag k="addr:city" v="Bridgewater"/>
    <tag k="addr:housenumber" v="454"/>
    <tag k="addr:street" v="Blanchard Road"/>
    <tag k="addr:state" v="VT"/>
    <tag k="ref:vcgi:esiteid" v="36904"/>
  </node>
  <node id="-543" visible="true" lat="43.58509063" lon="-72.63014984">
    <tag k="addr:city" v="Bridgewater"/>
    <tag k="addr:housenumber" v="465"/>
    <tag k="addr:street" v="Blanchard Road"/>
    <tag k="addr:state" v="VT"/>
    <tag k="ref:vcgi:esiteid" v="36905"/>
  </node>
  <node id="-544" visible="true" lat="43.58452587" lon="-72.65546249">
    <tag k="addr:city" v="Bridgewater"/>
    <tag k="addr:housenumber" v="61"/>
    <tag k="addr:street" v="Putnam Road"/>
    <tag k="addr:state" v="VT"/>
    <tag k="ref:vcgi:esiteid" v="36906"/>
  </node>
  <node id="-545" visible="true" lat="43.58404799" lon="-72.65763417">
    <tag k="addr:city" v="Bridgewater"/>
    <tag k="addr:housenumber" v="312"/>
    <tag k="addr:street" v="Vermont Route 100A"/>
    <tag k="addr:state" v="VT"/>
    <tag k="ref:vcgi:esiteid" v="36907"/>
  </node>
  <node id="-546" visible="true" lat="43.58392781" lon="-72.65438192">
    <tag k="addr:city" v="Bridgewater"/>
    <tag k="addr:housenumber" v="126"/>
    <tag k="addr:street" v="Putnam Road"/>
    <tag k="addr:state" v="VT"/>
    <tag k="ref:vcgi:esiteid" v="36908"/>
  </node>
  <node id="-547" visible="true" lat="43.58400527" lon="-72.6330987">
    <tag k="addr:city" v="Bridgewater"/>
    <tag k="addr:housenumber" v="642"/>
    <tag k="addr:street" v="Blanchard Road"/>
    <tag k="addr:state" v="VT"/>
    <tag k="ref:vcgi:esiteid" v="36909"/>
  </node>
  <node id="-548" visible="true" lat="43.58343887" lon="-72.63433837">
    <tag k="addr:city" v="Bridgewater"/>
    <tag k="addr:housenumber" v="680"/>
    <tag k="addr:street" v="Blanchard Road"/>
    <tag k="addr:state" v="VT"/>
    <tag k="ref:vcgi:esiteid" v="36910"/>
  </node>
  <node id="-549" visible="true" lat="43.5818997" lon="-72.65791657">
    <tag k="addr:city" v="Bridgewater"/>
    <tag k="addr:housenumber" v="442"/>
    <tag k="addr:street" v="Vermont Route 100A"/>
    <tag k="addr:state" v="VT"/>
    <tag k="ref:vcgi:esiteid" v="36911"/>
  </node>
  <node id="-550" visible="true" lat="43.58207027" lon="-72.63335422">
    <tag k="addr:city" v="Bridgewater"/>
    <tag k="addr:housenumber" v="744"/>
    <tag k="addr:street" v="Blanchard Road"/>
    <tag k="addr:state" v="VT"/>
    <tag k="ref:vcgi:esiteid" v="36912"/>
  </node>
  <node id="-551" visible="true" lat="43.58148198" lon="-72.65955051">
    <tag k="addr:city" v="Bridgewater"/>
    <tag k="addr:housenumber" v="127"/>
    <tag k="addr:street" v="Paige Road"/>
    <tag k="addr:state" v="VT"/>
    <tag k="ref:vcgi:esiteid" v="36913"/>
  </node>
  <node id="-552" visible="true" lat="43.58073738" lon="-72.65974548">
    <tag k="addr:city" v="Bridgewater"/>
    <tag k="addr:housenumber" v="129"/>
    <tag k="addr:street" v="Paige Road"/>
    <tag k="addr:state" v="VT"/>
    <tag k="ref:vcgi:esiteid" v="36914"/>
  </node>
  <node id="-553" visible="true" lat="43.58083053" lon="-72.65842758">
    <tag k="addr:city" v="Bridgewater"/>
    <tag k="addr:housenumber" v="31"/>
    <tag k="addr:street" v="Paige Road"/>
    <tag k="addr:state" v="VT"/>
    <tag k="ref:vcgi:esiteid" v="36915"/>
  </node>
  <node id="-554" visible="true" lat="43.5806898" lon="-72.65681864">
    <tag k="addr:city" v="Bridgewater"/>
    <tag k="addr:housenumber" v="441"/>
    <tag k="addr:street" v="Vermont Route 100A"/>
    <tag k="addr:state" v="VT"/>
    <tag k="ref:vcgi:esiteid" v="36916"/>
  </node>
  <node id="-555" visible="true" lat="43.58064816" lon="-72.63509634">
    <tag k="addr:city" v="Bridgewater"/>
    <tag k="addr:housenumber" v="903"/>
    <tag k="addr:street" v="Blanchard Road"/>
    <tag k="addr:state" v="VT"/>
    <tag k="ref:vcgi:esiteid" v="36917"/>
  </node>
  <node id="-556" visible="true" lat="43.5802536" lon="-72.66119384">
    <tag k="addr:city" v="Bridgewater"/>
    <tag k="addr:housenumber" v="78"/>
    <tag k="addr:street" v="Valley View Road"/>
    <tag k="addr:state" v="VT"/>
    <tag k="ref:vcgi:esiteid" v="36918"/>
  </node>
  <node id="-557" visible="true" lat="43.57994461" lon="-72.65956115">
    <tag k="addr:city" v="Bridgewater"/>
    <tag k="addr:housenumber" v="58"/>
    <tag k="addr:street" v="Valley View Road"/>
    <tag k="addr:state" v="VT"/>
    <tag k="ref:vcgi:esiteid" v="36919"/>
  </node>
  <node id="-558" visible="true" lat="43.57992553" lon="-72.63448333">
    <tag k="addr:city" v="Bridgewater"/>
    <tag k="addr:housenumber" v="879"/>
    <tag k="addr:street" v="Blanchard Road"/>
    <tag k="addr:state" v="VT"/>
    <tag k="ref:vcgi:esiteid" v="36920"/>
  </node>
  <node id="-559" visible="true" lat="43.57963561" lon="-72.7056427">
    <tag k="addr:city" v="Bridgewater"/>
    <tag k="addr:housenumber" v="1346"/>
    <tag k="addr:street" v="Town Line Road"/>
    <tag k="addr:state" v="VT"/>
    <tag k="ref:vcgi:esiteid" v="36921"/>
  </node>
  <node id="-560" visible="true" lat="43.57970428" lon="-72.65925598">
    <tag k="addr:city" v="Bridgewater"/>
    <tag k="addr:housenumber" v="46"/>
    <tag k="addr:street" v="Valley View Road"/>
    <tag k="addr:state" v="VT"/>
    <tag k="ref:vcgi:esiteid" v="36922"/>
  </node>
  <node id="-561" visible="true" lat="43.57806184" lon="-72.65940036">
    <tag k="addr:city" v="Bridgewater"/>
    <tag k="addr:housenumber" v="721"/>
    <tag k="addr:street" v="Vermont Route 100A"/>
    <tag k="addr:state" v="VT"/>
    <tag k="ref:vcgi:esiteid" v="36923"/>
  </node>
  <node id="-563" visible="true" lat="43.57787064" lon="-72.65978781">
    <tag k="addr:city" v="Bridgewater"/>
    <tag k="addr:housenumber" v="745"/>
    <tag k="addr:street" v="Vermont Route 100A"/>
    <tag k="addr:state" v="VT"/>
    <tag k="ref:vcgi:esiteid" v="36925"/>
  </node>
  <node id="-565" visible="true" lat="43.57748123" lon="-72.65992841">
    <tag k="addr:city" v="Bridgewater"/>
    <tag k="addr:housenumber" v="773"/>
    <tag k="addr:street" v="Vermont Route 100A"/>
    <tag k="addr:state" v="VT"/>
    <tag k="ref:vcgi:esiteid" v="36927"/>
  </node>
  <node id="-566" visible="true" lat="43.57746892" lon="-72.66139433">
    <tag k="addr:city" v="Bridgewater"/>
    <tag k="addr:housenumber" v="822"/>
    <tag k="addr:street" v="Vermont Route 100A"/>
    <tag k="addr:state" v="VT"/>
    <tag k="ref:vcgi:esiteid" v="36928"/>
  </node>
  <node id="-567" visible="true" lat="43.57743781" lon="-72.66070189">
    <tag k="addr:city" v="Bridgewater"/>
    <tag k="addr:housenumber" v="801"/>
    <tag k="addr:street" v="Vermont Route 100A"/>
    <tag k="addr:state" v="VT"/>
    <tag k="ref:vcgi:esiteid" v="36929"/>
  </node>
  <node id="-568" visible="true" lat="43.57699821" lon="-72.66115576">
    <tag k="addr:city" v="Bridgewater"/>
    <tag k="addr:housenumber" v="837"/>
    <tag k="addr:street" v="Vermont Route 100A"/>
    <tag k="addr:state" v="VT"/>
    <tag k="ref:vcgi:esiteid" v="36931"/>
  </node>
  <node id="-569" visible="true" lat="43.57696702" lon="-72.65996494">
    <tag k="addr:city" v="Bridgewater"/>
    <tag k="addr:housenumber" v="775"/>
    <tag k="addr:street" v="Vermont Route 100A"/>
    <tag k="addr:state" v="VT"/>
    <tag k="ref:vcgi:esiteid" v="36932"/>
  </node>
  <node id="-570" visible="true" lat="43.57677841" lon="-72.6613388">
    <tag k="addr:city" v="Bridgewater"/>
    <tag k="addr:housenumber" v="853"/>
    <tag k="addr:street" v="Vermont Route 100A"/>
    <tag k="addr:state" v="VT"/>
    <tag k="ref:vcgi:esiteid" v="36933"/>
  </node>
  <node id="-572" visible="true" lat="43.57657163" lon="-72.66165073">
    <tag k="addr:city" v="Bridgewater"/>
    <tag k="addr:housenumber" v="883"/>
    <tag k="addr:street" v="Vermont Route 100A"/>
    <tag k="addr:state" v="VT"/>
    <tag k="ref:vcgi:esiteid" v="36935"/>
  </node>
  <node id="-573" visible="true" lat="43.57631408" lon="-72.6629107">
    <tag k="addr:city" v="Bridgewater"/>
    <tag k="addr:housenumber" v="934"/>
    <tag k="addr:street" v="Vermont Route 100A"/>
    <tag k="addr:state" v="VT"/>
    <tag k="ref:vcgi:esiteid" v="36936"/>
  </node>
  <node id="-574" visible="true" lat="43.57589528" lon="-72.66370636">
    <tag k="addr:city" v="Bridgewater"/>
    <tag k="addr:housenumber" v="950"/>
    <tag k="addr:street" v="Vermont Route 100A"/>
    <tag k="addr:state" v="VT"/>
    <tag k="ref:vcgi:esiteid" v="36937"/>
  </node>
  <node id="-575" visible="true" lat="43.57551015" lon="-72.69518322">
    <tag k="addr:city" v="Bridgewater"/>
    <tag k="addr:housenumber" v="661"/>
    <tag k="addr:street" v="Town Line Road"/>
    <tag k="addr:state" v="VT"/>
    <tag k="ref:vcgi:esiteid" v="36938"/>
  </node>
  <node id="-576" visible="true" lat="43.57508661" lon="-72.69440187">
    <tag k="addr:city" v="Bridgewater"/>
    <tag k="addr:housenumber" v="605"/>
    <tag k="addr:street" v="Town Line Road"/>
    <tag k="addr:state" v="VT"/>
    <tag k="ref:vcgi:esiteid" v="36939"/>
  </node>
  <node id="-577" visible="true" lat="43.57332611" lon="-72.66431426">
    <tag k="addr:city" v="Bridgewater"/>
    <tag k="addr:housenumber" v="1146"/>
    <tag k="addr:street" v="Vermont Route 100A"/>
    <tag k="addr:state" v="VT"/>
    <tag k="ref:vcgi:esiteid" v="36940"/>
  </node>
  <node id="-578" visible="true" lat="43.57321166" lon="-72.68728637">
    <tag k="addr:city" v="Bridgewater"/>
    <tag k="addr:housenumber" v="202"/>
    <tag k="addr:street" v="Town Line Road"/>
    <tag k="addr:state" v="VT"/>
    <tag k="ref:vcgi:esiteid" v="36941"/>
  </node>
  <node id="-579" visible="true" lat="43.57258605" lon="-72.6749649">
    <tag k="addr:city" v="Bridgewater"/>
    <tag k="addr:housenumber" v="1810"/>
    <tag k="addr:street" v="Vermont Route 100A"/>
    <tag k="addr:state" v="VT"/>
    <tag k="ref:vcgi:esiteid" v="36942"/>
  </node>
  <node id="-580" visible="true" lat="43.57232284" lon="-72.66537475">
    <tag k="addr:city" v="Bridgewater"/>
    <tag k="addr:housenumber" v="1240"/>
    <tag k="addr:street" v="Vermont Route 100A"/>
    <tag k="addr:state" v="VT"/>
    <tag k="ref:vcgi:esiteid" v="36943"/>
  </node>
  <node id="-581" visible="true" lat="43.57218933" lon="-72.68470764">
    <tag k="addr:city" v="Bridgewater"/>
    <tag k="addr:housenumber" v="24"/>
    <tag k="addr:street" v="Town Line Road"/>
    <tag k="addr:state" v="VT"/>
    <tag k="ref:vcgi:esiteid" v="36944"/>
  </node>
  <node id="-582" visible="true" lat="43.57181806" lon="-72.66339666">
    <tag k="addr:city" v="Bridgewater"/>
    <tag k="addr:housenumber" v="71"/>
    <tag k="addr:street" v="Hale Hollow Road"/>
    <tag k="addr:state" v="VT"/>
    <tag k="ref:vcgi:esiteid" v="36945"/>
  </node>
  <node id="-583" visible="true" lat="43.57168579" lon="-72.67636108">
    <tag k="addr:city" v="Bridgewater"/>
    <tag k="addr:housenumber" v="1896"/>
    <tag k="addr:street" v="Vermont Route 100A"/>
    <tag k="addr:state" v="VT"/>
    <tag k="ref:vcgi:esiteid" v="36946"/>
  </node>
  <node id="-584" visible="true" lat="43.57151582" lon="-72.66485538">
    <tag k="addr:city" v="Bridgewater"/>
    <tag k="addr:housenumber" v="1247"/>
    <tag k="addr:street" v="Vermont Route 100A"/>
    <tag k="addr:state" v="VT"/>
    <tag k="ref:vcgi:esiteid" v="36947"/>
  </node>
  <node id="-585" visible="true" lat="43.57130432" lon="-72.66573333">
    <tag k="addr:city" v="Bridgewater"/>
    <tag k="addr:housenumber" v="1297"/>
    <tag k="addr:street" v="Vermont Route 100A"/>
    <tag k="addr:state" v="VT"/>
    <tag k="ref:vcgi:esiteid" v="36948"/>
  </node>
  <node id="-586" visible="true" lat="43.57116845" lon="-72.6650017">
    <tag k="addr:city" v="Bridgewater"/>
    <tag k="addr:housenumber" v="140"/>
    <tag k="addr:street" v="Hale Hollow Road"/>
    <tag k="addr:state" v="VT"/>
    <tag k="ref:vcgi:esiteid" v="36950"/>
  </node>
  <node id="-587" visible="true" lat="43.57108306" lon="-72.67855072">
    <tag k="addr:city" v="Bridgewater"/>
    <tag k="addr:housenumber" v="2028"/>
    <tag k="addr:street" v="Vermont Route 100A"/>
    <tag k="addr:state" v="VT"/>
    <tag k="ref:vcgi:esiteid" v="36951"/>
  </node>
  <node id="-588" visible="true" lat="43.57100774" lon="-72.66788237">
    <tag k="addr:city" v="Bridgewater"/>
    <tag k="addr:housenumber" v="1395"/>
    <tag k="addr:street" v="Vermont Route 100A"/>
    <tag k="addr:state" v="VT"/>
    <tag k="ref:vcgi:esiteid" v="36952"/>
  </node>
  <node id="-589" visible="true" lat="43.57073974" lon="-72.68457794">
    <tag k="addr:city" v="Bridgewater"/>
    <tag k="addr:housenumber" v="30"/>
    <tag k="addr:street" v="Town Line Road"/>
    <tag k="addr:state" v="VT"/>
    <tag k="ref:vcgi:esiteid" v="36954"/>
  </node>
  <node id="-590" visible="true" lat="43.57070159" lon="-72.67953491">
    <tag k="addr:city" v="Bridgewater"/>
    <tag k="addr:housenumber" v="2066"/>
    <tag k="addr:street" v="Vermont Route 100A"/>
    <tag k="addr:state" v="VT"/>
    <tag k="ref:vcgi:esiteid" v="36955"/>
  </node>
  <node id="-591" visible="true" lat="43.57052993" lon="-72.66783142">
    <tag k="addr:city" v="Bridgewater"/>
    <tag k="addr:housenumber" v="160"/>
    <tag k="addr:street" v="Blueberry Ledge Lane"/>
    <tag k="addr:state" v="VT"/>
    <tag k="ref:vcgi:esiteid" v="36956"/>
  </node>
  <node id="-592" visible="true" lat="43.57027816" lon="-72.68020629">
    <tag k="addr:city" v="Bridgewater"/>
    <tag k="addr:housenumber" v="2126"/>
    <tag k="addr:street" v="Vermont Route 100A"/>
    <tag k="addr:state" v="VT"/>
    <tag k="ref:vcgi:esiteid" v="36957"/>
  </node>
  <node id="-593" visible="true" lat="43.5701668" lon="-72.6667314">
    <tag k="addr:city" v="Bridgewater"/>
    <tag k="addr:housenumber" v="53"/>
    <tag k="addr:street" v="Blueberry Ledge Lane"/>
    <tag k="addr:state" v="VT"/>
    <tag k="ref:vcgi:esiteid" v="36958"/>
  </node>
  <node id="-594" visible="true" lat="43.57030731" lon="-72.66588587">
    <tag k="addr:city" v="Bridgewater"/>
    <tag k="addr:housenumber" v="200"/>
    <tag k="addr:street" v="Hale Hollow Road"/>
    <tag k="addr:state" v="VT"/>
    <tag k="ref:vcgi:esiteid" v="36959"/>
  </node>
  <node id="-595" visible="true" lat="43.56972202" lon="-72.66598384">
    <tag k="addr:city" v="Bridgewater"/>
    <tag k="addr:housenumber" v="240"/>
    <tag k="addr:street" v="Hale Hollow Road"/>
    <tag k="addr:state" v="VT"/>
    <tag k="ref:vcgi:esiteid" v="36960"/>
  </node>
  <node id="-597" visible="true" lat="43.56965278" lon="-72.66416952">
    <tag k="addr:city" v="Bridgewater"/>
    <tag k="addr:housenumber" v="247"/>
    <tag k="addr:street" v="Hale Hollow Road"/>
    <tag k="addr:state" v="VT"/>
    <tag k="ref:vcgi:esiteid" v="36962"/>
  </node>
  <node id="-598" visible="true" lat="43.569458" lon="-72.6650238">
    <tag k="addr:city" v="Bridgewater"/>
    <tag k="addr:housenumber" v="244"/>
    <tag k="addr:street" v="Hale Hollow Road"/>
    <tag k="addr:state" v="VT"/>
    <tag k="ref:vcgi:esiteid" v="36963"/>
  </node>
  <node id="-599" visible="true" lat="43.56892105" lon="-72.66537459">
    <tag k="addr:city" v="Bridgewater"/>
    <tag k="addr:housenumber" v="50"/>
    <tag k="addr:street" v="Blueberry Hill Road"/>
    <tag k="addr:state" v="VT"/>
    <tag k="ref:vcgi:esiteid" v="36964"/>
  </node>
  <node id="-600" visible="true" lat="43.5687364" lon="-72.66655202">
    <tag k="addr:city" v="Bridgewater"/>
    <tag k="addr:housenumber" v="106"/>
    <tag k="addr:street" v="Blueberry Hill Road"/>
    <tag k="addr:state" v="VT"/>
    <tag k="ref:vcgi:esiteid" v="36965"/>
  </node>
  <node id="-601" visible="true" lat="43.56833421" lon="-72.66448921">
    <tag k="addr:city" v="Bridgewater"/>
    <tag k="addr:housenumber" v="17"/>
    <tag k="addr:street" v="Blueberry Hill Road"/>
    <tag k="addr:state" v="VT"/>
    <tag k="ref:vcgi:esiteid" v="36966"/>
  </node>
  <node id="-602" visible="true" lat="43.56782618" lon="-72.66647124">
    <tag k="addr:city" v="Bridgewater"/>
    <tag k="addr:housenumber" v="125"/>
    <tag k="addr:street" v="Blueberry Hill Road"/>
    <tag k="addr:state" v="VT"/>
    <tag k="ref:vcgi:esiteid" v="36967"/>
  </node>
  <node id="-603" visible="true" lat="43.56793966" lon="-72.66419354">
    <tag k="addr:city" v="Bridgewater"/>
    <tag k="addr:housenumber" v="360"/>
    <tag k="addr:street" v="Hale Hollow Road"/>
    <tag k="addr:state" v="VT"/>
    <tag k="ref:vcgi:esiteid" v="36968"/>
  </node>
  <node id="-604" visible="true" lat="43.56683731" lon="-72.66091918">
    <tag k="addr:city" v="Bridgewater"/>
    <tag k="addr:housenumber" v="168"/>
    <tag k="addr:street" v="Richmond Hill Road"/>
    <tag k="addr:state" v="VT"/>
    <tag k="ref:vcgi:esiteid" v="36969"/>
  </node>
  <node id="-605" visible="true" lat="43.56661775" lon="-72.66258945">
    <tag k="addr:city" v="Bridgewater"/>
    <tag k="addr:housenumber" v="68"/>
    <tag k="addr:street" v="Richmond Hill Road"/>
    <tag k="addr:state" v="VT"/>
    <tag k="ref:vcgi:esiteid" v="36970"/>
  </node>
  <node id="-606" visible="true" lat="43.56540679" lon="-72.663414">
    <tag k="addr:city" v="Bridgewater"/>
    <tag k="addr:housenumber" v="541"/>
    <tag k="addr:street" v="Hale Hollow Road"/>
    <tag k="addr:state" v="VT"/>
    <tag k="ref:vcgi:esiteid" v="36971"/>
  </node>
  <node id="-607" visible="true" lat="43.61452349" lon="-72.72664505">
    <tag k="addr:city" v="Bridgewater"/>
    <tag k="addr:housenumber" v="45"/>
    <tag k="addr:street" v="Laber Road"/>
    <tag k="addr:state" v="VT"/>
    <tag k="ref:vcgi:esiteid" v="36972"/>
  </node>
  <node id="-608" visible="true" lat="43.62561305" lon="-72.68476121">
    <tag k="addr:city" v="Bridgewater"/>
    <tag k="addr:housenumber" v="448"/>
    <tag k="addr:street" v="Fancher Road"/>
    <tag k="addr:state" v="VT"/>
    <tag k="ref:vcgi:esiteid" v="36973"/>
  </node>
  <node id="-609" visible="true" lat="43.62427126" lon="-72.68833842">
    <tag k="addr:city" v="Bridgewater"/>
    <tag k="addr:housenumber" v="540"/>
    <tag k="addr:street" v="Fancher Road"/>
    <tag k="addr:state" v="VT"/>
    <tag k="ref:vcgi:esiteid" v="36974"/>
  </node>
  <node id="-610" visible="true" lat="43.62294695" lon="-72.60578935">
    <tag k="addr:city" v="Bridgewater"/>
    <tag k="addr:housenumber" v="437"/>
    <tag k="addr:street" v="Cox District Road"/>
    <tag k="addr:state" v="VT"/>
    <tag k="ref:vcgi:esiteid" v="36975"/>
  </node>
  <node id="-611" visible="true" lat="43.61022459" lon="-72.72015571">
    <tag k="addr:city" v="Bridgewater"/>
    <tag k="addr:housenumber" v="1323"/>
    <tag k="addr:street" v="Bridgewater Hill Road"/>
    <tag k="addr:state" v="VT"/>
    <tag k="ref:vcgi:esiteid" v="36976"/>
  </node>
  <node id="-615" visible="true" lat="43.61526107" lon="-72.66208648">
    <tag k="addr:city" v="Bridgewater"/>
    <tag k="addr:housenumber" v="136"/>
    <tag k="addr:street" v="Braley Road"/>
    <tag k="addr:state" v="VT"/>
    <tag k="ref:vcgi:esiteid" v="36980"/>
  </node>
  <node id="-616" visible="true" lat="43.61576943" lon="-72.66389938">
    <tag k="addr:city" v="Bridgewater"/>
    <tag k="addr:housenumber" v="284"/>
    <tag k="addr:street" v="Braley Road"/>
    <tag k="addr:state" v="VT"/>
    <tag k="ref:vcgi:esiteid" v="36981"/>
  </node>
  <node id="-617" visible="true" lat="43.6162713" lon="-72.66595526">
    <tag k="addr:city" v="Bridgewater"/>
    <tag k="addr:housenumber" v="356"/>
    <tag k="addr:street" v="Braley Road"/>
    <tag k="addr:state" v="VT"/>
    <tag k="ref:vcgi:esiteid" v="36982"/>
  </node>
  <node id="-619" visible="true" lat="43.61835479" lon="-72.66151428">
    <tag k="addr:city" v="Bridgewater"/>
    <tag k="addr:housenumber" v="2376"/>
    <tag k="addr:street" v="Bridgewater Center Road"/>
    <tag k="addr:state" v="VT"/>
    <tag k="ref:vcgi:esiteid" v="36984"/>
  </node>
  <node id="-620" visible="true" lat="43.61891174" lon="-72.66233825">
    <tag k="addr:city" v="Bridgewater"/>
    <tag k="addr:housenumber" v="30"/>
    <tag k="addr:street" v="Chateauguay Road"/>
    <tag k="addr:state" v="VT"/>
    <tag k="ref:vcgi:esiteid" v="36985"/>
  </node>
  <node id="-621" visible="true" lat="43.61871337" lon="-72.66290283">
    <tag k="addr:city" v="Bridgewater"/>
    <tag k="addr:housenumber" v="33"/>
    <tag k="addr:street" v="Chateauguay Road"/>
    <tag k="addr:state" v="VT"/>
    <tag k="ref:vcgi:esiteid" v="36986"/>
  </node>
  <node id="-622" visible="true" lat="43.61899566" lon="-72.66246032">
    <tag k="addr:city" v="Bridgewater"/>
    <tag k="addr:housenumber" v="32"/>
    <tag k="addr:street" v="Chateauguay Road"/>
    <tag k="addr:state" v="VT"/>
    <tag k="ref:vcgi:esiteid" v="36987"/>
  </node>
  <node id="-625" visible="true" lat="43.57112038" lon="-72.6643816">
    <tag k="addr:city" v="Bridgewater"/>
    <tag k="addr:housenumber" v="145"/>
    <tag k="addr:street" v="Hale Hollow Road"/>
    <tag k="addr:state" v="VT"/>
    <tag k="ref:vcgi:esiteid" v="36990"/>
  </node>
  <node id="-632" visible="true" lat="43.6716526" lon="-72.62325542">
    <tag k="addr:city" v="Bridgewater"/>
    <tag k="addr:housenumber" v="1157"/>
    <tag k="addr:street" v="Green Gate Road"/>
    <tag k="addr:state" v="VT"/>
    <tag k="ref:vcgi:esiteid" v="36997"/>
  </node>
  <node id="-633" visible="true" lat="43.67022595" lon="-72.6264225">
    <tag k="addr:city" v="Bridgewater"/>
    <tag k="addr:housenumber" v="1351"/>
    <tag k="addr:street" v="Green Gate Road"/>
    <tag k="addr:state" v="VT"/>
    <tag k="ref:vcgi:esiteid" v="36998"/>
  </node>
  <node id="-634" visible="true" lat="43.67239631" lon="-72.62522531">
    <tag k="addr:city" v="Bridgewater"/>
    <tag k="addr:housenumber" v="1344"/>
    <tag k="addr:street" v="Green Gate Road"/>
    <tag k="addr:state" v="VT"/>
    <tag k="ref:vcgi:esiteid" v="36999"/>
  </node>
  <node id="-635" visible="true" lat="43.67161159" lon="-72.62867994">
    <tag k="addr:city" v="Bridgewater"/>
    <tag k="addr:housenumber" v="1570"/>
    <tag k="addr:street" v="Green Gate Road"/>
    <tag k="addr:state" v="VT"/>
    <tag k="ref:vcgi:esiteid" v="37000"/>
  </node>
  <node id="-636" visible="true" lat="43.67465972" lon="-72.62905883">
    <tag k="addr:city" v="Bridgewater"/>
    <tag k="addr:housenumber" v="1785"/>
    <tag k="addr:street" v="Green Gate Road"/>
    <tag k="addr:state" v="VT"/>
    <tag k="ref:vcgi:esiteid" v="37001"/>
  </node>
  <node id="-640" visible="true" lat="43.61935806" lon="-72.67211913">
    <tag k="addr:city" v="Bridgewater"/>
    <tag k="addr:housenumber" v="563"/>
    <tag k="addr:street" v="Dailey Hollow Road"/>
    <tag k="addr:state" v="VT"/>
    <tag k="ref:vcgi:esiteid" v="37006"/>
  </node>
  <node id="-641" visible="true" lat="43.61054707" lon="-72.71827077">
    <tag k="addr:city" v="Bridgewater"/>
    <tag k="addr:housenumber" v="1200"/>
    <tag k="addr:street" v="Bridgewater Hill Road"/>
    <tag k="addr:state" v="VT"/>
    <tag k="ref:vcgi:esiteid" v="37008"/>
  </node>
  <node id="-642" visible="true" lat="43.62301719" lon="-72.61162591">
    <tag k="addr:city" v="Bridgewater"/>
    <tag k="addr:housenumber" v="235"/>
    <tag k="addr:street" v="Phelps Road"/>
    <tag k="addr:state" v="VT"/>
    <tag k="ref:vcgi:esiteid" v="37009"/>
  </node>
  <node id="-643" visible="true" lat="43.59712417" lon="-72.68735558">
    <tag k="addr:city" v="Bridgewater"/>
    <tag k="addr:housenumber" v="126"/>
    <tag k="addr:street" v="Rogers Road"/>
    <tag k="addr:state" v="VT"/>
    <tag k="ref:vcgi:esiteid" v="37011"/>
  </node>
  <node id="-644" visible="true" lat="43.60418504" lon="-72.6548685">
    <tag k="addr:city" v="Bridgewater"/>
    <tag k="addr:housenumber" v="24"/>
    <tag k="addr:street" v="Jennes Road"/>
    <tag k="addr:state" v="VT"/>
    <tag k="ref:vcgi:esiteid" v="37012"/>
  </node>
  <node id="-645" visible="true" lat="43.62017848" lon="-72.66077628">
    <tag k="addr:city" v="Bridgewater"/>
    <tag k="addr:housenumber" v="312"/>
    <tag k="addr:street" v="Oak Chapel Road"/>
    <tag k="addr:state" v="VT"/>
    <tag k="ref:vcgi:esiteid" v="37013"/>
  </node>
  <node id="-646" visible="true" lat="43.59205627" lon="-72.75447082">
    <tag k="addr:city" v="Bridgewater"/>
    <tag k="addr:housenumber" v="632"/>
    <tag k="addr:street" v="Vermont Route 100"/>
    <tag k="addr:state" v="VT"/>
    <tag k="ref:vcgi:esiteid" v="37014"/>
  </node>
  <node id="-647" visible="true" lat="43.5901594" lon="-72.75519099">
    <tag k="addr:city" v="Bridgewater"/>
    <tag k="addr:housenumber" v="16"/>
    <tag k="addr:street" v="Dennis Road"/>
    <tag k="addr:state" v="VT"/>
    <tag k="ref:vcgi:esiteid" v="37015"/>
  </node>
  <node id="-648" visible="true" lat="43.59001558" lon="-72.75587285">
    <tag k="addr:city" v="Bridgewater"/>
    <tag k="addr:housenumber" v="48"/>
    <tag k="addr:street" v="Dennis Road"/>
    <tag k="addr:state" v="VT"/>
    <tag k="ref:vcgi:esiteid" v="37016"/>
  </node>
  <node id="-649" visible="true" lat="43.58969845" lon="-72.75651633">
    <tag k="addr:city" v="Bridgewater"/>
    <tag k="addr:housenumber" v="70"/>
    <tag k="addr:street" v="Dennis Road"/>
    <tag k="addr:state" v="VT"/>
    <tag k="ref:vcgi:esiteid" v="37017"/>
  </node>
  <node id="-650" visible="true" lat="43.58940259" lon="-72.75577101">
    <tag k="addr:city" v="Bridgewater"/>
    <tag k="addr:housenumber" v="67"/>
    <tag k="addr:street" v="Dennis Road"/>
    <tag k="addr:state" v="VT"/>
    <tag k="ref:vcgi:esiteid" v="37018"/>
  </node>
  <node id="-653" visible="true" lat="43.58374799" lon="-72.62365807">
    <tag k="addr:city" v="Bridgewater"/>
    <tag k="addr:housenumber" v="134"/>
    <tag k="addr:street" v="Curtis Hollow Road"/>
    <tag k="addr:state" v="VT"/>
    <tag k="ref:vcgi:esiteid" v="37021"/>
  </node>
  <node id="-655" visible="true" lat="43.60021242" lon="-72.65695649">
    <tag k="addr:city" v="Bridgewater"/>
    <tag k="addr:housenumber" v="834"/>
    <tag k="addr:street" v="Bridgewater Center Road"/>
    <tag k="addr:state" v="VT"/>
    <tag k="ref:vcgi:esiteid" v="37024"/>
  </node>
  <node id="-656" visible="true" lat="43.60093672" lon="-72.65585316">
    <tag k="addr:city" v="Bridgewater"/>
    <tag k="addr:housenumber" v="884"/>
    <tag k="addr:street" v="Bridgewater Center Road"/>
    <tag k="addr:state" v="VT"/>
    <tag k="ref:vcgi:esiteid" v="37025"/>
  </node>
  <node id="-657" visible="true" lat="43.61022907" lon="-72.65096093">
    <tag k="addr:city" v="Bridgewater"/>
    <tag k="addr:housenumber" v="1606"/>
    <tag k="addr:street" v="Bridgewater Center Road"/>
    <tag k="addr:state" v="VT"/>
    <tag k="ref:vcgi:esiteid" v="37026"/>
  </node>
  <node id="-658" visible="true" lat="43.65051771" lon="-72.62105573">
    <tag k="addr:city" v="Bridgewater"/>
    <tag k="addr:housenumber" v="26"/>
    <tag k="addr:street" v="Brown Road"/>
    <tag k="addr:state" v="VT"/>
    <tag k="ref:vcgi:esiteid" v="37028"/>
  </node>
  <node id="-661" visible="true" lat="43.6112557" lon="-72.72203707">
    <tag k="addr:city" v="Bridgewater"/>
    <tag k="addr:housenumber" v="1441"/>
    <tag k="addr:street" v="Bridgewater Hill Road"/>
    <tag k="addr:state" v="VT"/>
    <tag k="ref:vcgi:esiteid" v="37031"/>
  </node>
  <node id="-662" visible="true" lat="43.57938384" lon="-72.65687561">
    <tag k="addr:city" v="Bridgewater"/>
    <tag k="addr:housenumber" v="21"/>
    <tag k="addr:street" v="Broad Brook Drive"/>
    <tag k="addr:state" v="VT"/>
    <tag k="ref:vcgi:esiteid" v="37032"/>
  </node>
  <node id="-663" visible="true" lat="43.57873153" lon="-72.65749359">
    <tag k="addr:city" v="Bridgewater"/>
    <tag k="addr:housenumber" v="19"/>
    <tag k="addr:street" v="Broad Brook Drive"/>
    <tag k="addr:state" v="VT"/>
    <tag k="ref:vcgi:esiteid" v="37033"/>
  </node>
  <node id="-664" visible="true" lat="43.57852554" lon="-72.65901184">
    <tag k="addr:city" v="Bridgewater"/>
    <tag k="addr:housenumber" v="5"/>
    <tag k="addr:street" v="Broad Brook Drive"/>
    <tag k="addr:state" v="VT"/>
    <tag k="ref:vcgi:esiteid" v="37034"/>
  </node>
  <node id="-665" visible="true" lat="43.61989704" lon="-72.66210374">
    <tag k="addr:city" v="Bridgewater"/>
    <tag k="addr:housenumber" v="416"/>
    <tag k="addr:street" v="Oak Chapel Road"/>
    <tag k="addr:state" v="VT"/>
    <tag k="ref:vcgi:esiteid" v="37035"/>
  </node>
  <node id="-666" visible="true" lat="43.59795379" lon="-72.69071197">
    <tag k="addr:city" v="Bridgewater"/>
    <tag k="addr:housenumber" v="479"/>
    <tag k="addr:street" v="Rogers Road"/>
    <tag k="addr:state" v="VT"/>
    <tag k="ref:vcgi:esiteid" v="37036"/>
  </node>
  <node id="-670" visible="true" lat="43.61836172" lon="-72.65752278">
    <tag k="addr:city" v="Bridgewater"/>
    <tag k="addr:housenumber" v="199"/>
    <tag k="addr:street" v="Wemple Knoll Road"/>
    <tag k="addr:state" v="VT"/>
    <tag k="ref:vcgi:esiteid" v="37040"/>
  </node>
  <node id="-671" visible="true" lat="43.61423887" lon="-72.73441621">
    <tag k="addr:city" v="Bridgewater"/>
    <tag k="addr:housenumber" v="756"/>
    <tag k="addr:street" v="Laber Road"/>
    <tag k="addr:state" v="VT"/>
    <tag k="ref:vcgi:esiteid" v="37041"/>
  </node>
  <node id="-672" visible="true" lat="43.59484121" lon="-72.61735402">
    <tag k="addr:city" v="Bridgewater"/>
    <tag k="addr:housenumber" v="651"/>
    <tag k="addr:street" v="North Bridgewater Road"/>
    <tag k="addr:state" v="VT"/>
    <tag k="ref:vcgi:esiteid" v="37042"/>
  </node>
  <node id="-673" visible="true" lat="43.65064474" lon="-72.62075844">
    <tag k="addr:city" v="Bridgewater"/>
    <tag k="addr:housenumber" v="970"/>
    <tag k="addr:street" v="Grandma Ams Hill Road"/>
    <tag k="addr:state" v="VT"/>
    <tag k="ref:vcgi:esiteid" v="37043"/>
  </node>
  <node id="-674" visible="true" lat="43.62509383" lon="-72.68737384">
    <tag k="addr:city" v="Bridgewater"/>
    <tag k="addr:housenumber" v="437"/>
    <tag k="addr:street" v="Fancher Road"/>
    <tag k="addr:state" v="VT"/>
    <tag k="ref:vcgi:esiteid" v="37044"/>
  </node>
  <node id="-675" visible="true" lat="43.62355685" lon="-72.66410414">
    <tag k="addr:city" v="Bridgewater"/>
    <tag k="addr:housenumber" v="103"/>
    <tag k="addr:street" v="Cobb Hill Road"/>
    <tag k="addr:state" v="VT"/>
    <tag k="ref:vcgi:esiteid" v="37045"/>
  </node>
  <node id="-676" visible="true" lat="43.62788992" lon="-72.72435526">
    <tag k="addr:city" v="Bridgewater"/>
    <tag k="addr:housenumber" v="453"/>
    <tag k="addr:street" v="Little Sherburne Road"/>
    <tag k="addr:state" v="VT"/>
    <tag k="ref:vcgi:esiteid" v="37046"/>
  </node>
  <node id="-677" visible="true" lat="43.61546493" lon="-72.66728924">
    <tag k="addr:city" v="Bridgewater"/>
    <tag k="addr:housenumber" v="491"/>
    <tag k="addr:street" v="Braley Road"/>
    <tag k="addr:state" v="VT"/>
    <tag k="ref:vcgi:esiteid" v="37047"/>
  </node>
  <node id="-678" visible="true" lat="43.57208568" lon="-72.66838598">
    <tag k="addr:city" v="Bridgewater"/>
    <tag k="addr:housenumber" v="1328"/>
    <tag k="addr:street" v="Vermont Route 100A"/>
    <tag k="addr:state" v="VT"/>
    <tag k="ref:vcgi:esiteid" v="37048"/>
  </node>
  <node id="-679" visible="true" lat="43.59301125" lon="-72.63200786">
    <tag k="addr:city" v="Bridgewater"/>
    <tag k="addr:housenumber" v="298"/>
    <tag k="addr:street" v="Goldcoast Road"/>
    <tag k="addr:state" v="VT"/>
    <tag k="ref:vcgi:esiteid" v="37049"/>
  </node>
  <node id="-680" visible="true" lat="43.56860002" lon="-72.66874194">
    <tag k="addr:city" v="Bridgewater"/>
    <tag k="addr:housenumber" v="176"/>
    <tag k="addr:street" v="Blueberry Hill Road"/>
    <tag k="addr:state" v="VT"/>
    <tag k="ref:vcgi:esiteid" v="37050"/>
  </node>
  <node id="-681" visible="true" lat="43.59891045" lon="-72.75078702">
    <tag k="addr:city" v="Bridgewater"/>
    <tag k="addr:housenumber" v="142"/>
    <tag k="addr:street" v="Vermont Route 100"/>
    <tag k="addr:state" v="VT"/>
    <tag k="ref:vcgi:esiteid" v="37051"/>
  </node>
  <node id="-682" visible="true" lat="43.59111997" lon="-72.66093912">
    <tag k="addr:city" v="Bridgewater"/>
    <tag k="addr:housenumber" v="141"/>
    <tag k="addr:street" v="Bridgewater Center Road"/>
    <tag k="addr:state" v="VT"/>
    <tag k="ref:vcgi:esiteid" v="37052"/>
  </node>
  <node id="-684" visible="true" lat="43.59903409" lon="-72.65883766">
    <tag k="addr:city" v="Bridgewater"/>
    <tag k="addr:housenumber" v="683"/>
    <tag k="addr:street" v="Bridgewater Center Road"/>
    <tag k="addr:state" v="VT"/>
    <tag k="ref:vcgi:esiteid" v="37054"/>
  </node>
  <node id="-685" visible="true" lat="43.6388451" lon="-72.59729493">
    <tag k="addr:city" v="Bridgewater"/>
    <tag k="addr:housenumber" v="992"/>
    <tag k="addr:street" v="Atwood Lane"/>
    <tag k="addr:state" v="VT"/>
    <tag k="ref:vcgi:esiteid" v="37055"/>
  </node>
  <node id="-686" visible="true" lat="43.60066113" lon="-72.69850729">
    <tag k="addr:city" v="Bridgewater"/>
    <tag k="addr:housenumber" v="1307"/>
    <tag k="addr:street" v="Old Bridgewater Hill Road"/>
    <tag k="addr:state" v="VT"/>
    <tag k="ref:vcgi:esiteid" v="37057"/>
  </node>
  <node id="-688" visible="true" lat="43.59433146" lon="-72.61832">
    <tag k="addr:city" v="Bridgewater"/>
    <tag k="addr:housenumber" v="638"/>
    <tag k="addr:street" v="North Bridgewater Road"/>
    <tag k="addr:state" v="VT"/>
    <tag k="ref:vcgi:esiteid" v="37059"/>
  </node>
  <node id="-689" visible="true" lat="43.61135888" lon="-72.63375524">
    <tag k="addr:city" v="Bridgewater"/>
    <tag k="addr:housenumber" v="1515"/>
    <tag k="addr:street" v="Goldcoast Road"/>
    <tag k="addr:state" v="VT"/>
    <tag k="ref:vcgi:esiteid" v="37060"/>
  </node>
  <node id="-691" visible="true" lat="43.62104899" lon="-72.72011955">
    <tag k="addr:city" v="Bridgewater"/>
    <tag k="addr:housenumber" v="2765"/>
    <tag k="addr:street" v="Bridgewater Hill Road"/>
    <tag k="addr:state" v="VT"/>
    <tag k="ref:vcgi:esiteid" v="37062"/>
  </node>
  <node id="-692" visible="true" lat="43.59186113" lon="-72.75454533">
    <tag k="addr:city" v="Bridgewater"/>
    <tag k="addr:housenumber" v="626"/>
    <tag k="addr:street" v="Vermont Route 100"/>
    <tag k="addr:state" v="VT"/>
    <tag k="ref:vcgi:esiteid" v="37063"/>
  </node>
  <node id="-693" visible="true" lat="43.60026549" lon="-72.74984644">
    <tag k="addr:city" v="Bridgewater"/>
    <tag k="addr:housenumber" v="32"/>
    <tag k="addr:street" v="U.S. Route 4"/>
    <tag k="addr:state" v="VT"/>
    <tag k="ref:vcgi:esiteid" v="37064"/>
  </node>
  <node id="-696" visible="true" lat="43.5992487" lon="-72.69899849">
    <tag k="addr:city" v="Bridgewater"/>
    <tag k="addr:housenumber" v="1359"/>
    <tag k="addr:street" v="Old Bridgewater Hill Road"/>
    <tag k="addr:state" v="VT"/>
    <tag k="ref:vcgi:esiteid" v="37067"/>
  </node>
  <node id="-697" visible="true" lat="43.61947326" lon="-72.67932115">
    <tag k="addr:city" v="Bridgewater"/>
    <tag k="addr:housenumber" v="116"/>
    <tag k="addr:street" v="Gorge Hill Road"/>
    <tag k="addr:state" v="VT"/>
    <tag k="ref:vcgi:esiteid" v="37069"/>
  </node>
  <node id="-698" visible="true" lat="43.61623189" lon="-72.7259173">
    <tag k="addr:city" v="Bridgewater"/>
    <tag k="addr:housenumber" v="73"/>
    <tag k="addr:street" v="Laber Road"/>
    <tag k="addr:state" v="VT"/>
    <tag k="ref:vcgi:esiteid" v="37070"/>
  </node>
  <node id="-699" visible="true" lat="43.61602831" lon="-72.66200528">
    <tag k="addr:city" v="Bridgewater"/>
    <tag k="addr:housenumber" v="100"/>
    <tag k="addr:street" v="Braley Road"/>
    <tag k="addr:state" v="VT"/>
    <tag k="ref:vcgi:esiteid" v="37071"/>
  </node>
  <node id="-702" visible="true" lat="43.62850549" lon="-72.72384379">
    <tag k="addr:city" v="Bridgewater"/>
    <tag k="addr:housenumber" v="450"/>
    <tag k="addr:street" v="Little Sherburne Road"/>
    <tag k="addr:state" v="VT"/>
    <tag k="ref:vcgi:esiteid" v="37074"/>
  </node>
  <node id="-703" visible="true" lat="43.56943135" lon="-72.65977052">
    <tag k="addr:city" v="Bridgewater"/>
    <tag k="addr:housenumber" v="189"/>
    <tag k="addr:street" v="Richmond Hill Road"/>
    <tag k="addr:state" v="VT"/>
    <tag k="ref:vcgi:esiteid" v="37075"/>
  </node>
  <node id="-704" visible="true" lat="43.62355099" lon="-72.60163491">
    <tag k="addr:city" v="Bridgewater"/>
    <tag k="addr:housenumber" v="647"/>
    <tag k="addr:street" v="Cox District Road"/>
    <tag k="addr:state" v="VT"/>
    <tag k="ref:vcgi:esiteid" v="37076"/>
  </node>
  <node id="-705" visible="true" lat="43.59469721" lon="-72.61958923">
    <tag k="addr:city" v="Bridgewater"/>
    <tag k="addr:housenumber" v="629"/>
    <tag k="addr:street" v="North Bridgewater Road"/>
    <tag k="addr:state" v="VT"/>
    <tag k="ref:vcgi:esiteid" v="37077"/>
  </node>
  <node id="-706" visible="true" lat="43.5909581" lon="-72.62300278">
    <tag k="addr:city" v="Bridgewater"/>
    <tag k="addr:housenumber" v="241"/>
    <tag k="addr:street" v="North Bridgewater Road"/>
    <tag k="addr:state" v="VT"/>
    <tag k="ref:vcgi:esiteid" v="37079"/>
  </node>
  <node id="-708" visible="true" lat="43.62124578" lon="-72.71800254">
    <tag k="addr:city" v="Bridgewater"/>
    <tag k="addr:housenumber" v="2760"/>
    <tag k="addr:street" v="Bridgewater Hill Road"/>
    <tag k="addr:state" v="VT"/>
    <tag k="ref:vcgi:esiteid" v="37081"/>
  </node>
  <node id="-709" visible="true" lat="43.58625064" lon="-72.6582608">
    <tag k="addr:city" v="Bridgewater"/>
    <tag k="addr:housenumber" v="49"/>
    <tag k="addr:street" v="School House Road"/>
    <tag k="addr:state" v="VT"/>
    <tag k="ref:vcgi:esiteid" v="37082"/>
  </node>
  <node id="-710" visible="true" lat="43.61623698" lon="-72.66476567">
    <tag k="addr:city" v="Bridgewater"/>
    <tag k="addr:housenumber" v="318"/>
    <tag k="addr:street" v="Braley Road"/>
    <tag k="addr:state" v="VT"/>
    <tag k="ref:vcgi:esiteid" v="37083"/>
  </node>
  <node id="-711" visible="true" lat="43.58373153" lon="-72.65607324">
    <tag k="addr:city" v="Bridgewater"/>
    <tag k="addr:housenumber" v="52"/>
    <tag k="addr:street" v="Putnam Road"/>
    <tag k="addr:state" v="VT"/>
    <tag k="ref:vcgi:esiteid" v="37085"/>
  </node>
  <node id="-712" visible="true" lat="43.57128787" lon="-72.68870135">
    <tag k="addr:city" v="Bridgewater"/>
    <tag k="addr:housenumber" v="211"/>
    <tag k="addr:street" v="Town Line Road"/>
    <tag k="addr:state" v="VT"/>
    <tag k="ref:vcgi:esiteid" v="305510"/>
  </node>
  <node id="-713" visible="true" lat="43.6135019" lon="-72.61130988">
    <tag k="addr:city" v="Bridgewater"/>
    <tag k="addr:housenumber" v="2052"/>
    <tag k="addr:street" v="North Bridgewater Road"/>
    <tag k="addr:state" v="VT"/>
    <tag k="ref:vcgi:esiteid" v="305511"/>
  </node>
  <node id="-714" visible="true" lat="43.620121" lon="-72.66433157">
    <tag k="addr:city" v="Bridgewater"/>
    <tag k="addr:housenumber" v="157"/>
    <tag k="addr:street" v="Chateauguay Road"/>
    <tag k="addr:state" v="VT"/>
    <tag k="ref:vcgi:esiteid" v="306562"/>
  </node>
  <node id="-718" visible="true" lat="43.59504544" lon="-72.6317906">
    <tag k="addr:city" v="Bridgewater"/>
    <tag k="addr:housenumber" v="430"/>
    <tag k="addr:street" v="Goldcoast Road"/>
    <tag k="addr:state" v="VT"/>
    <tag k="ref:vcgi:esiteid" v="315264"/>
  </node>
  <node id="-719" visible="true" lat="43.59752805" lon="-72.69394776">
    <tag k="addr:city" v="Bridgewater"/>
    <tag k="addr:housenumber" v="273"/>
    <tag k="addr:street" v="Mountain View Road"/>
    <tag k="addr:state" v="VT"/>
    <tag k="ref:vcgi:esiteid" v="315265"/>
  </node>
  <node id="-720" visible="true" lat="43.59839005" lon="-72.69340815">
    <tag k="addr:city" v="Bridgewater"/>
    <tag k="addr:housenumber" v="320"/>
    <tag k="addr:street" v="Mountain View Road"/>
    <tag k="addr:state" v="VT"/>
    <tag k="ref:vcgi:esiteid" v="315375"/>
  </node>
  <node id="-724" visible="true" lat="43.63286234" lon="-72.65820854">
    <tag k="addr:city" v="Bridgewater"/>
    <tag k="addr:housenumber" v="1178"/>
    <tag k="addr:street" v="Chateauguay Road"/>
    <tag k="addr:state" v="VT"/>
    <tag k="ref:vcgi:esiteid" v="328129"/>
  </node>
  <node id="-725" visible="true" lat="43.58218215" lon="-72.6561046">
    <tag k="addr:city" v="Bridgewater"/>
    <tag k="addr:housenumber" v="393"/>
    <tag k="addr:street" v="Vermont Route 100A"/>
    <tag k="addr:state" v="VT"/>
    <tag k="ref:vcgi:esiteid" v="328130"/>
  </node>
  <node id="-727" visible="true" lat="43.58553269" lon="-72.62389763">
    <tag k="addr:city" v="Bridgewater"/>
    <tag k="addr:housenumber" v="100"/>
    <tag k="addr:street" v="Parsonage Road"/>
    <tag k="addr:state" v="VT"/>
    <tag k="ref:vcgi:esiteid" v="328132"/>
  </node>
  <node id="-730" visible="true" lat="43.63380948" lon="-72.5938103">
    <tag k="addr:city" v="Bridgewater"/>
    <tag k="addr:housenumber" v="797"/>
    <tag k="addr:street" v="Gabert Road"/>
    <tag k="addr:state" v="VT"/>
    <tag k="ref:vcgi:esiteid" v="330178"/>
  </node>
  <node id="-732" visible="true" lat="43.60523326" lon="-72.71787706">
    <tag k="addr:city" v="Bridgewater"/>
    <tag k="addr:housenumber" v="873"/>
    <tag k="addr:street" v="Bridgewater Hill Road"/>
    <tag k="addr:state" v="VT"/>
    <tag k="ref:vcgi:esiteid" v="331066"/>
  </node>
  <node id="-734" visible="true" lat="43.59765359" lon="-72.72013353">
    <tag k="addr:city" v="Bridgewater"/>
    <tag k="addr:housenumber" v="103"/>
    <tag k="addr:street" v="Mountain Side Road"/>
    <tag k="addr:state" v="VT"/>
    <tag k="ref:vcgi:esiteid" v="331972"/>
  </node>
  <node id="-735" visible="true" lat="43.58517582" lon="-72.63529285">
    <tag k="addr:city" v="Bridgewater"/>
    <tag k="addr:housenumber" v="594"/>
    <tag k="addr:street" v="Blanchard Road"/>
    <tag k="addr:state" v="VT"/>
    <tag k="ref:vcgi:esiteid" v="334762"/>
  </node>
  <node id="-745" visible="true" lat="43.56913448" lon="-72.66623866">
    <tag k="addr:city" v="Bridgewater"/>
    <tag k="addr:housenumber" v="90"/>
    <tag k="addr:street" v="Blueberry Hill Road"/>
    <tag k="addr:state" v="VT"/>
    <tag k="ref:vcgi:esiteid" v="343804"/>
  </node>
  <node id="-747" visible="true" lat="43.65187384" lon="-72.62073394">
    <tag k="addr:city" v="Bridgewater"/>
    <tag k="addr:housenumber" v="1033"/>
    <tag k="addr:street" v="Grandma Ams Hill Road"/>
    <tag k="addr:state" v="VT"/>
    <tag k="ref:vcgi:esiteid" v="344076"/>
  </node>
  <node id="-752" visible="true" lat="43.65795864" lon="-72.69129744">
    <tag k="addr:city" v="Bridgewater"/>
    <tag k="addr:housenumber" v="4262"/>
    <tag k="addr:street" v="Chateauguay Road"/>
    <tag k="addr:state" v="VT"/>
    <tag k="ref:vcgi:esiteid" v="344808"/>
  </node>
  <node id="-756" visible="true" lat="43.61261742" lon="-72.73523834">
    <tag k="addr:city" v="Bridgewater"/>
    <tag k="addr:housenumber" v="858"/>
    <tag k="addr:street" v="Laber Road"/>
    <tag k="addr:state" v="VT"/>
    <tag k="ref:vcgi:esiteid" v="344820"/>
  </node>
  <node id="-760" visible="true" lat="43.58605586" lon="-72.65802307">
    <tag k="addr:city" v="Bridgewater"/>
    <tag k="addr:housenumber" v="61"/>
    <tag k="addr:street" v="School House Road"/>
    <tag k="addr:state" v="VT"/>
    <tag k="ref:vcgi:esiteid" v="448321"/>
  </node>
  <node id="-765" visible="true" lat="43.57724211" lon="-72.66172802">
    <tag k="addr:city" v="Bridgewater"/>
    <tag k="addr:housenumber" v="848"/>
    <tag k="addr:street" v="Vermont Route 100A"/>
    <tag k="addr:state" v="VT"/>
    <tag k="ref:vcgi:esiteid" v="455522"/>
  </node>
  <node id="-766" visible="true" lat="43.60245014" lon="-72.71569871">
    <tag k="addr:city" v="Bridgewater"/>
    <tag k="addr:housenumber" v="740"/>
    <tag k="addr:street" v="Bridgewater Hill Road"/>
    <tag k="addr:state" v="VT"/>
    <tag k="ref:vcgi:esiteid" v="610498"/>
  </node>
  <node id="-769" visible="true" lat="43.6217765" lon="-72.66929476">
    <tag k="addr:city" v="Bridgewater"/>
    <tag k="addr:housenumber" v="464"/>
    <tag k="addr:street" v="Baker Hill Road"/>
    <tag k="addr:state" v="VT"/>
    <tag k="ref:vcgi:esiteid" v="613436"/>
  </node>
  <node id="-774" visible="true" lat="43.64742392" lon="-72.59352252">
    <tag k="addr:city" v="Bridgewater"/>
    <tag k="addr:housenumber" v="36"/>
    <tag k="addr:street" v="Maple Valley Road"/>
    <tag k="addr:state" v="VT"/>
    <tag k="ref:vcgi:esiteid" v="750879"/>
  </node>
  <node id="-780" visible="true" lat="43.62835634" lon="-72.72860103">
    <tag k="addr:city" v="Bridgewater"/>
    <tag k="addr:housenumber" v="581"/>
    <tag k="addr:street" v="Little Sherburne Road"/>
    <tag k="addr:state" v="VT"/>
    <tag k="ref:vcgi:esiteid" v="756449"/>
  </node>
  <node id="-781" visible="true" lat="43.6534308" lon="-72.67803757">
    <tag k="addr:city" v="Bridgewater"/>
    <tag k="addr:housenumber" v="3386"/>
    <tag k="addr:street" v="Chateauguay Road"/>
    <tag k="addr:state" v="VT"/>
    <tag k="ref:vcgi:esiteid" v="756631"/>
  </node>
  <node id="-783" visible="true" lat="43.58858718" lon="-72.6544953">
    <tag k="addr:city" v="Bridgewater"/>
    <tag k="addr:housenumber" v="198"/>
    <tag k="addr:street" v="Upper Road"/>
    <tag k="addr:state" v="VT"/>
    <tag k="ref:vcgi:esiteid" v="757426"/>
  </node>
  <node id="-785" visible="true" lat="43.61246364" lon="-72.72042816">
    <tag k="addr:city" v="Bridgewater"/>
    <tag k="addr:housenumber" v="1448"/>
    <tag k="addr:street" v="Bridgewater Hill Road"/>
    <tag k="addr:state" v="VT"/>
    <tag k="ref:vcgi:esiteid" v="758098"/>
  </node>
  <node id="-787" visible="true" lat="43.61473809" lon="-72.6608503">
    <tag k="addr:city" v="Bridgewater"/>
    <tag k="addr:housenumber" v="141"/>
    <tag k="addr:street" v="Braley Road"/>
    <tag k="addr:state" v="VT"/>
    <tag k="ref:vcgi:esiteid" v="759279"/>
  </node>
  <node id="-791" visible="true" lat="43.62704269" lon="-72.6663506">
    <tag k="addr:city" v="Bridgewater"/>
    <tag k="addr:housenumber" v="453"/>
    <tag k="addr:street" v="Chateauguay Road"/>
    <tag k="addr:state" v="VT"/>
    <tag k="ref:vcgi:esiteid" v="759618"/>
  </node>
  <node id="-796" visible="true" lat="43.61382814" lon="-72.6616195">
    <tag k="addr:city" v="Bridgewater"/>
    <tag k="addr:housenumber" v="177"/>
    <tag k="addr:street" v="Braley Road"/>
    <tag k="addr:state" v="VT"/>
    <tag k="ref:vcgi:esiteid" v="760191"/>
  </node>
</osm>
