<?xml version="1.0" encoding="UTF-8"?>
<osm version="0.6" generator="JOSM">
  <node id="-328" visible="true" lat="44.14493462" lon="-73.08015165">
    <!-- conflict: "29 Lower Meadow Lane, Bristol, VT" No match in OSM, but a different address exists <5m away: "29 Meadow Lane, Bristol, VT" -->
    <tag k="addr:city" v="Bristol"/>
    <tag k="addr:housenumber" v="29"/>
    <tag k="addr:street" v="Lower Meadow Lane"/>
    <tag k="addr:state" v="VT"/>
    <tag k="ref:vcgi:esiteid" v="39013"/>
  </node>
  <node id="-329" visible="true" lat="44.14488266" lon="-73.0804821">
    <!-- conflict: "27 Lower Meadow Lane, Bristol, VT" No match in OSM, but a different address exists <5m away: "27 Meadow Lane, Bristol, VT" -->
    <tag k="addr:city" v="Bristol"/>
    <tag k="addr:housenumber" v="27"/>
    <tag k="addr:street" v="Lower Meadow Lane"/>
    <tag k="addr:state" v="VT"/>
    <tag k="ref:vcgi:esiteid" v="39014"/>
  </node>
  <node id="-334" visible="true" lat="44.14478637" lon="-73.08103612">
    <!-- conflict: "25 Lower Meadow Lane, Bristol, VT" No match in OSM, but a different address exists <5m away: "25 Meadow Lane, Bristol, VT" -->
    <tag k="addr:city" v="Bristol"/>
    <tag k="addr:housenumber" v="25"/>
    <tag k="addr:street" v="Lower Meadow Lane"/>
    <tag k="addr:state" v="VT"/>
    <tag k="ref:vcgi:esiteid" v="39019"/>
  </node>
  <node id="-336" visible="true" lat="44.14468415" lon="-73.08159798">
    <!-- conflict: "23 Lower Meadow Lane, Bristol, VT" No match in OSM, but a different address exists <5m away: "23 Meadow Lane, Bristol, VT" -->
    <tag k="addr:city" v="Bristol"/>
    <tag k="addr:housenumber" v="23"/>
    <tag k="addr:street" v="Lower Meadow Lane"/>
    <tag k="addr:state" v="VT"/>
    <tag k="ref:vcgi:esiteid" v="39021"/>
  </node>
  <node id="-343" visible="true" lat="44.14432141" lon="-73.07987161">
    <!-- conflict: "14 Lower Meadow Lane, Bristol, VT" No match in OSM, but a different address exists <5m away: "14 Meadow Lane, Bristol, VT" -->
    <tag k="addr:city" v="Bristol"/>
    <tag k="addr:housenumber" v="14"/>
    <tag k="addr:street" v="Lower Meadow Lane"/>
    <tag k="addr:state" v="VT"/>
    <tag k="ref:vcgi:esiteid" v="39029"/>
  </node>
  <node id="-344" visible="true" lat="44.14424082" lon="-73.08058051">
    <!-- conflict: "10 Lower Meadow Lane, Bristol, VT" No match in OSM, but a different address exists <5m away: "10 Meadow Lane, Bristol, VT" -->
    <tag k="addr:city" v="Bristol"/>
    <tag k="addr:housenumber" v="10"/>
    <tag k="addr:street" v="Lower Meadow Lane"/>
    <tag k="addr:state" v="VT"/>
    <tag k="ref:vcgi:esiteid" v="39030"/>
  </node>
  <node id="-397" visible="true" lat="44.14204207" lon="-73.08155082">
    <!-- conflict: "104 North Street, Bristol, VT" No match in OSM, but a different address exists <5m away: "104 Devino Lane, Bristol, " -->
    <tag k="addr:city" v="Bristol"/>
    <tag k="addr:housenumber" v="104"/>
    <tag k="addr:street" v="North Street"/>
    <tag k="addr:state" v="VT"/>
    <tag k="ref:vcgi:esiteid" v="39092"/>
  </node>
  <node id="-417" visible="true" lat="44.14031742" lon="-73.0785051">
    <!-- conflict: "28 Crescent Street, Bristol, VT" No match in OSM, but a different address exists <5m away: "26 Crescent Street, Bristol, VT" -->
    <tag k="addr:city" v="Bristol"/>
    <tag k="addr:housenumber" v="28"/>
    <tag k="addr:street" v="Crescent Street"/>
    <tag k="addr:state" v="VT"/>
    <tag k="ref:vcgi:esiteid" v="39116"/>
  </node>
  <node id="-468" visible="true" lat="44.1387471" lon="-73.07849981">
    <!-- conflict: "11 Fitch Avenue, Bristol, VT" No match in OSM, but a different address exists <5m away: "41 Fitch Avenue, Bristol, VT" -->
    <tag k="addr:city" v="Bristol"/>
    <tag k="addr:housenumber" v="11"/>
    <tag k="addr:street" v="Fitch Avenue"/>
    <tag k="addr:state" v="VT"/>
    <tag k="ref:vcgi:esiteid" v="39175"/>
  </node>
  <node id="-556" visible="true" lat="44.13723942" lon="-73.0748624">
    <!-- conflict: "46 Spring Street, Bristol, VT" Fuzzy match to "46 Spring Street, , " -->
    <tag k="addr:city" v="Bristol"/>
    <tag k="addr:housenumber" v="46"/>
    <tag k="addr:street" v="Spring Street"/>
    <tag k="addr:state" v="VT"/>
    <tag k="ref:vcgi:esiteid" v="39274"/>
  </node>
  <node id="-580" visible="true" lat="44.13682393" lon="-73.07602229">
    <!-- conflict: "48 Mountain Street, Bristol, VT" No match in OSM, but a different address exists <5m away: "48 Spring Street, Bristol, VT" -->
    <tag k="addr:city" v="Bristol"/>
    <tag k="addr:housenumber" v="48"/>
    <tag k="addr:street" v="Mountain Street"/>
    <tag k="addr:state" v="VT"/>
    <tag k="ref:vcgi:esiteid" v="39302"/>
  </node>
  <node id="-769" visible="true" lat="44.1340112" lon="-73.08375064">
    <!-- conflict: "49 West Street, Bristol, VT" No match in OSM, but a different address exists <5m away: "41 West Street, Bristol, VT" -->
    <tag k="addr:city" v="Bristol"/>
    <tag k="addr:housenumber" v="49"/>
    <tag k="addr:street" v="West Street"/>
    <tag k="addr:state" v="VT"/>
    <tag k="ref:vcgi:esiteid" v="39519"/>
  </node>
  <node id="-770" visible="true" lat="44.13423429" lon="-73.07971562">
    <!-- conflict: "8 Park Place, Bristol, VT" Fuzzy match to "8 Park Street, Bristol, VT" -->
    <tag k="addr:city" v="Bristol"/>
    <tag k="addr:housenumber" v="8"/>
    <tag k="addr:street" v="Park Place"/>
    <tag k="addr:state" v="VT"/>
    <tag k="ref:vcgi:esiteid" v="39520"/>
  </node>
  <node id="-773" visible="true" lat="44.13418983" lon="-73.07894432">
    <!-- conflict: "2 Park Place, Bristol, VT" Fuzzy match to "2 Park Street, Bristol, VT" -->
    <tag k="addr:city" v="Bristol"/>
    <tag k="addr:housenumber" v="2"/>
    <tag k="addr:street" v="Park Place"/>
    <tag k="addr:state" v="VT"/>
    <tag k="ref:vcgi:esiteid" v="39523"/>
  </node>
  <node id="-797" visible="true" lat="44.13375568" lon="-73.07703621">
    <!-- conflict: "7 Prince Lane, Bristol, VT" Fuzzy match to "7 Prince Lane, Bristol, " -->
    <tag k="addr:city" v="Bristol"/>
    <tag k="addr:housenumber" v="7"/>
    <tag k="addr:street" v="Prince Lane"/>
    <tag k="addr:state" v="VT"/>
    <tag k="ref:vcgi:esiteid" v="39555"/>
  </node>
  <node id="-818" visible="true" lat="44.13313626" lon="-73.08838156">
    <!-- conflict: "77 West Street, Bristol, VT" Fuzzy match to "77 West Street, , " -->
    <tag k="addr:city" v="Bristol"/>
    <tag k="addr:housenumber" v="77"/>
    <tag k="addr:street" v="West Street"/>
    <tag k="addr:state" v="VT"/>
    <tag k="ref:vcgi:esiteid" v="39582"/>
  </node>
  <node id="-830" visible="true" lat="44.13254879" lon="-73.08879866">
    <!-- conflict: "79 West Street, Bristol, VT" No match in OSM, but a different address exists <5m away: "79 Firehouse Drive, , " -->
    <tag k="addr:city" v="Bristol"/>
    <tag k="addr:housenumber" v="79"/>
    <tag k="addr:street" v="West Street"/>
    <tag k="addr:state" v="VT"/>
    <tag k="ref:vcgi:esiteid" v="39596"/>
  </node>
  <node id="-839" visible="true" lat="44.1327478" lon="-73.07681621">
    <!-- conflict: "31 Main Street, Bristol, VT" Fuzzy match to "31 Main Street, Bristol, " -->
    <tag k="addr:city" v="Bristol"/>
    <tag k="addr:housenumber" v="31"/>
    <tag k="addr:street" v="Main Street"/>
    <tag k="addr:state" v="VT"/>
    <tag k="ref:vcgi:esiteid" v="39606"/>
  </node>
  <node id="-857" visible="true" lat="44.13218953" lon="-73.07260111">
    <!-- conflict: "67 Mountain Terrace, Bristol, VT" Fuzzy match to "67 Mountain Terrace, , " -->
    <tag k="addr:city" v="Bristol"/>
    <tag k="addr:housenumber" v="67"/>
    <tag k="addr:street" v="Mountain Terrace"/>
    <tag k="addr:state" v="VT"/>
    <tag k="ref:vcgi:esiteid" v="39627"/>
  </node>
  <node id="-1314" visible="true" lat="44.14716022" lon="-73.08531476">
    <!-- conflict: "8 Monkton Road, Bristol, VT" No match in OSM, but a different address exists <5m away: "8 , Bristol, VT" -->
    <tag k="addr:city" v="Bristol"/>
    <tag k="addr:housenumber" v="8"/>
    <tag k="addr:street" v="Monkton Road"/>
    <tag k="addr:state" v="VT"/>
    <tag k="ref:vcgi:esiteid" v="40134"/>
  </node>
  <node id="-1315" visible="true" lat="44.1470264" lon="-73.0859803">
    <!-- conflict: "15 Monkton Road, Bristol, VT" No match in OSM, but a different address exists <5m away: "15 , Bristol, VT" -->
    <tag k="addr:city" v="Bristol"/>
    <tag k="addr:housenumber" v="15"/>
    <tag k="addr:street" v="Monkton Road"/>
    <tag k="addr:state" v="VT"/>
    <tag k="ref:vcgi:esiteid" v="40135"/>
  </node>
  <node id="-1342" visible="true" lat="44.14747683" lon="-73.08644271">
    <!-- conflict: "45 Monkton Road, Bristol, VT" No match in OSM, but a different address exists <5m away: "45 , , " -->
    <tag k="addr:city" v="Bristol"/>
    <tag k="addr:housenumber" v="45"/>
    <tag k="addr:street" v="Monkton Road"/>
    <tag k="addr:state" v="VT"/>
    <tag k="ref:vcgi:esiteid" v="40165"/>
  </node>
  <node id="-1372" visible="true" lat="44.14695517" lon="-73.08136191">
    <!-- conflict: "150 Hazel Drive, Bristol, VT" No match in OSM, but a different address exists <5m away: "70 Hazel Drive, Bristol, VT" -->
    <tag k="addr:city" v="Bristol"/>
    <tag k="addr:housenumber" v="150"/>
    <tag k="addr:street" v="Hazel Drive"/>
    <tag k="addr:state" v="VT"/>
    <tag k="ref:vcgi:esiteid" v="40198"/>
  </node>
  <node id="-1373" visible="true" lat="44.14837338" lon="-73.08724444">
    <!-- conflict: "125 Monkton Road, Bristol, VT" No match in OSM, but a different address exists <5m away: "125 , , " -->
    <tag k="addr:city" v="Bristol"/>
    <tag k="addr:housenumber" v="125"/>
    <tag k="addr:street" v="Monkton Road"/>
    <tag k="addr:state" v="VT"/>
    <tag k="ref:vcgi:esiteid" v="40199"/>
  </node>
  <node id="-1427" visible="true" lat="44.14169653" lon="-73.07838314">
    <!-- conflict: "47 Hidden Drive, Bristol, VT" Fuzzy match to "47 Hidden Drive, Bristol, " -->
    <tag k="addr:city" v="Bristol"/>
    <tag k="addr:housenumber" v="47"/>
    <tag k="addr:street" v="Hidden Drive"/>
    <tag k="addr:state" v="VT"/>
    <tag k="ref:vcgi:esiteid" v="40275"/>
  </node>
  <node id="-1428" visible="true" lat="44.13419857" lon="-73.07923824">
    <!-- conflict: "6 Park Place, Bristol, VT" No match in OSM, but a different address exists <5m away: "8 Park Street, Bristol, VT" -->
    <tag k="addr:city" v="Bristol"/>
    <tag k="addr:housenumber" v="6"/>
    <tag k="addr:street" v="Park Place"/>
    <tag k="addr:state" v="VT"/>
    <tag k="ref:vcgi:esiteid" v="40276"/>
  </node>
  <node id="-1440" visible="true" lat="44.15323069" lon="-73.04443094">
    <!-- conflict: "44 Drake Woods Road, Bristol, VT" No match in OSM, but a different address exists <5m away: "230 Drake Woods Road, Bristol, VT" -->
    <tag k="addr:city" v="Bristol"/>
    <tag k="addr:housenumber" v="44"/>
    <tag k="addr:street" v="Drake Woods Road"/>
    <tag k="addr:state" v="VT"/>
    <tag k="ref:vcgi:esiteid" v="305854"/>
  </node>
  <node id="-1704" visible="true" lat="44.14747957" lon="-73.08916643">
    <!-- conflict: "130 Bittersweet Ridge, Bristol, VT" Fuzzy match to "130 Bittersweet Ridge, , " -->
    <tag k="addr:city" v="Bristol"/>
    <tag k="addr:housenumber" v="130"/>
    <tag k="addr:street" v="Bittersweet Ridge"/>
    <tag k="addr:state" v="VT"/>
    <tag k="ref:vcgi:esiteid" v="617506"/>
  </node>
</osm>
