<?xml version="1.0" encoding="UTF-8"?>
<osm version="0.6" generator="JOSM">
  <node id="-254" visible="true" lat="44.15779664" lon="-73.10406277">
    <tag k="addr:city" v="Bristol"/>
    <tag k="addr:housenumber" v="246"/>
    <tag k="addr:street" v="Hardscrabble Road"/>
    <tag k="addr:state" v="VT"/>
    <tag k="ref:vcgi:esiteid" v="38931"/>
  </node>
  <node id="-284" visible="true" lat="44.15261047" lon="-73.04434489">
    <tag k="addr:city" v="Bristol"/>
    <tag k="addr:housenumber" v="1652"/>
    <tag k="addr:street" v="North 116 Road"/>
    <tag k="addr:state" v="VT"/>
    <tag k="ref:vcgi:esiteid" v="38961"/>
  </node>
  <node id="-289" visible="true" lat="44.15201759" lon="-73.04430615">
    <tag k="addr:city" v="Bristol"/>
    <tag k="addr:housenumber" v="1610"/>
    <tag k="addr:street" v="North 116 Road"/>
    <tag k="addr:state" v="VT"/>
    <tag k="ref:vcgi:esiteid" v="38968"/>
  </node>
  <node id="-315" visible="true" lat="44.14639651" lon="-73.08459778">
    <tag k="addr:city" v="Bristol"/>
    <tag k="addr:housenumber" v="140"/>
    <tag k="addr:street" v="North Street"/>
    <tag k="addr:state" v="VT"/>
    <tag k="ref:vcgi:esiteid" v="38998"/>
  </node>
  <node id="-318" visible="true" lat="44.14617516" lon="-73.0853439">
    <tag k="addr:city" v="Bristol"/>
    <tag k="addr:housenumber" v="143"/>
    <tag k="addr:street" v="North Street"/>
    <tag k="addr:state" v="VT"/>
    <tag k="ref:vcgi:esiteid" v="39001"/>
  </node>
  <node id="-319" visible="true" lat="44.14600894" lon="-73.07699793">
    <tag k="addr:city" v="Bristol"/>
    <tag k="addr:housenumber" v="170"/>
    <tag k="addr:street" v="Heath Road"/>
    <tag k="addr:state" v="VT"/>
    <tag k="ref:vcgi:esiteid" v="39002"/>
  </node>
  <node id="-320" visible="true" lat="44.14588029" lon="-73.08429092">
    <tag k="addr:city" v="Bristol"/>
    <tag k="addr:housenumber" v="136"/>
    <tag k="addr:street" v="North Street"/>
    <tag k="addr:state" v="VT"/>
    <tag k="ref:vcgi:esiteid" v="39003"/>
  </node>
  <node id="-321" visible="true" lat="44.14567878" lon="-73.08310471">
    <tag k="addr:city" v="Bristol"/>
    <tag k="addr:housenumber" v="21"/>
    <tag k="addr:street" v="Lower Meadow Lane"/>
    <tag k="addr:state" v="VT"/>
    <tag k="ref:vcgi:esiteid" v="39004"/>
  </node>
  <node id="-322" visible="true" lat="44.14552502" lon="-73.08402345">
    <tag k="addr:city" v="Bristol"/>
    <tag k="addr:housenumber" v="134"/>
    <tag k="addr:street" v="North Street"/>
    <tag k="addr:state" v="VT"/>
    <tag k="ref:vcgi:esiteid" v="39005"/>
  </node>
  <node id="-323" visible="true" lat="44.14526981" lon="-73.0827517">
    <tag k="addr:city" v="Bristol"/>
    <tag k="addr:housenumber" v="19"/>
    <tag k="addr:street" v="Lower Meadow Lane"/>
    <tag k="addr:state" v="VT"/>
    <tag k="ref:vcgi:esiteid" v="39007"/>
  </node>
  <node id="-324" visible="true" lat="44.14525509" lon="-73.07938671">
    <tag k="addr:city" v="Bristol"/>
    <tag k="addr:housenumber" v="22"/>
    <tag k="addr:street" v="Lower Meadow Lane"/>
    <tag k="addr:state" v="VT"/>
    <tag k="ref:vcgi:esiteid" v="39008"/>
  </node>
  <node id="-325" visible="true" lat="44.14516869" lon="-73.08460475">
    <tag k="addr:city" v="Bristol"/>
    <tag k="addr:housenumber" v="139"/>
    <tag k="addr:street" v="North Street"/>
    <tag k="addr:state" v="VT"/>
    <tag k="ref:vcgi:esiteid" v="39009"/>
  </node>
  <node id="-326" visible="true" lat="44.14499195" lon="-73.08259713">
    <tag k="addr:city" v="Bristol"/>
    <tag k="addr:housenumber" v="17"/>
    <tag k="addr:street" v="Lower Meadow Lane"/>
    <tag k="addr:state" v="VT"/>
    <tag k="ref:vcgi:esiteid" v="39011"/>
  </node>
  <node id="-330" visible="true" lat="44.14469458" lon="-73.07800414">
    <tag k="addr:city" v="Bristol"/>
    <tag k="addr:housenumber" v="153"/>
    <tag k="addr:street" v="Heath Road"/>
    <tag k="addr:state" v="VT"/>
    <tag k="ref:vcgi:esiteid" v="39015"/>
  </node>
  <node id="-331" visible="true" lat="44.14502957" lon="-73.08371909">
    <tag k="addr:city" v="Bristol"/>
    <tag k="addr:housenumber" v="132"/>
    <tag k="addr:street" v="North Street"/>
    <tag k="addr:state" v="VT"/>
    <tag k="ref:vcgi:esiteid" v="39016"/>
  </node>
  <node id="-332" visible="true" lat="44.14465472" lon="-73.08232136">
    <tag k="addr:city" v="Bristol"/>
    <tag k="addr:housenumber" v="15"/>
    <tag k="addr:street" v="Lower Meadow Lane"/>
    <tag k="addr:state" v="VT"/>
    <tag k="ref:vcgi:esiteid" v="39017"/>
  </node>
  <node id="-333" visible="true" lat="44.14483213" lon="-73.08447462">
    <tag k="addr:city" v="Bristol"/>
    <tag k="addr:housenumber" v="135"/>
    <tag k="addr:street" v="North Street"/>
    <tag k="addr:state" v="VT"/>
    <tag k="ref:vcgi:esiteid" v="39018"/>
  </node>
  <node id="-335" visible="true" lat="44.14465348" lon="-73.07682028">
    <tag k="addr:city" v="Bristol"/>
    <tag k="addr:housenumber" v="146"/>
    <tag k="addr:street" v="Heath Road"/>
    <tag k="addr:state" v="VT"/>
    <tag k="ref:vcgi:esiteid" v="39020"/>
  </node>
  <node id="-338" visible="true" lat="44.14443926" lon="-73.08414223">
    <tag k="addr:city" v="Bristol"/>
    <tag k="addr:housenumber" v="133"/>
    <tag k="addr:street" v="North Street"/>
    <tag k="addr:state" v="VT"/>
    <tag k="ref:vcgi:esiteid" v="39023"/>
  </node>
  <node id="-342" visible="true" lat="44.14466003" lon="-73.07924307">
    <tag k="addr:city" v="Bristol"/>
    <tag k="addr:housenumber" v="126"/>
    <tag k="addr:street" v="Mountain Street"/>
    <tag k="addr:state" v="VT"/>
    <tag k="ref:vcgi:esiteid" v="39028"/>
  </node>
  <node id="-346" visible="true" lat="44.14431376" lon="-73.08320446">
    <tag k="addr:city" v="Bristol"/>
    <tag k="addr:housenumber" v="126"/>
    <tag k="addr:street" v="North Street"/>
    <tag k="addr:state" v="VT"/>
    <tag k="ref:vcgi:esiteid" v="39032"/>
  </node>
  <node id="-347" visible="true" lat="44.14407055" lon="-73.07866026">
    <tag k="addr:city" v="Bristol"/>
    <tag k="addr:housenumber" v="122"/>
    <tag k="addr:street" v="Mountain Street"/>
    <tag k="addr:state" v="VT"/>
    <tag k="ref:vcgi:esiteid" v="39033"/>
  </node>
  <node id="-348" visible="true" lat="44.14383968" lon="-73.08164959">
    <tag k="addr:city" v="Bristol"/>
    <tag k="addr:housenumber" v="7"/>
    <tag k="addr:street" v="Meadow Lane"/>
    <tag k="addr:state" v="VT"/>
    <tag k="ref:vcgi:esiteid" v="39034"/>
  </node>
  <node id="-349" visible="true" lat="44.14404535" lon="-73.08097047">
    <tag k="addr:city" v="Bristol"/>
    <tag k="addr:housenumber" v="8"/>
    <tag k="addr:street" v="Meadow Lane"/>
    <tag k="addr:state" v="VT"/>
    <tag k="ref:vcgi:esiteid" v="39035"/>
  </node>
  <node id="-351" visible="true" lat="44.14390564" lon="-73.08304595">
    <tag k="addr:city" v="Bristol"/>
    <tag k="addr:housenumber" v="124"/>
    <tag k="addr:street" v="North Street"/>
    <tag k="addr:state" v="VT"/>
    <tag k="ref:vcgi:esiteid" v="39038"/>
  </node>
  <node id="-352" visible="true" lat="44.14385986" lon="-73.08355712">
    <tag k="addr:city" v="Bristol"/>
    <tag k="addr:housenumber" v="125"/>
    <tag k="addr:street" v="North Street"/>
    <tag k="addr:state" v="VT"/>
    <tag k="ref:vcgi:esiteid" v="39039"/>
  </node>
  <node id="-353" visible="true" lat="44.14363918" lon="-73.07677756">
    <tag k="addr:city" v="Bristol"/>
    <tag k="addr:housenumber" v="94"/>
    <tag k="addr:street" v="Heath Road"/>
    <tag k="addr:state" v="VT"/>
    <tag k="ref:vcgi:esiteid" v="39041"/>
  </node>
  <node id="-355" visible="true" lat="44.14351673" lon="-73.08148136">
    <tag k="addr:city" v="Bristol"/>
    <tag k="addr:housenumber" v="5"/>
    <tag k="addr:street" v="Meadow Lane"/>
    <tag k="addr:state" v="VT"/>
    <tag k="ref:vcgi:esiteid" v="39043"/>
  </node>
  <node id="-356" visible="true" lat="44.14365468" lon="-73.08069834">
    <tag k="addr:city" v="Bristol"/>
    <tag k="addr:housenumber" v="6"/>
    <tag k="addr:street" v="Meadow Lane"/>
    <tag k="addr:state" v="VT"/>
    <tag k="ref:vcgi:esiteid" v="39045"/>
  </node>
  <node id="-357" visible="true" lat="44.14346314" lon="-73.0794901">
    <tag k="addr:city" v="Bristol"/>
    <tag k="addr:housenumber" v="115"/>
    <tag k="addr:street" v="Mountain Street"/>
    <tag k="addr:state" v="VT"/>
    <tag k="ref:vcgi:esiteid" v="39046"/>
  </node>
  <node id="-359" visible="true" lat="44.14347473" lon="-73.08243885">
    <tag k="addr:city" v="Bristol"/>
    <tag k="addr:housenumber" v="120"/>
    <tag k="addr:street" v="North Street"/>
    <tag k="addr:state" v="VT"/>
    <tag k="ref:vcgi:esiteid" v="39048"/>
  </node>
  <node id="-361" visible="true" lat="44.14337293" lon="-73.08003233">
    <tag k="addr:city" v="Bristol"/>
    <tag k="addr:housenumber" v="115"/>
    <tag k="addr:street" v="Devino Lane"/>
    <tag k="addr:state" v="VT"/>
    <tag k="ref:vcgi:esiteid" v="39051"/>
  </node>
  <node id="-362" visible="true" lat="44.14333477" lon="-73.08052691">
    <tag k="addr:city" v="Bristol"/>
    <tag k="addr:housenumber" v="2"/>
    <tag k="addr:street" v="Meadow Lane"/>
    <tag k="addr:state" v="VT"/>
    <tag k="ref:vcgi:esiteid" v="39053"/>
  </node>
  <node id="-364" visible="true" lat="44.14333862" lon="-73.07728478">
    <tag k="addr:city" v="Bristol"/>
    <tag k="addr:housenumber" v="25"/>
    <tag k="addr:street" v="Heath Road"/>
    <tag k="addr:state" v="VT"/>
    <tag k="ref:vcgi:esiteid" v="39055"/>
  </node>
  <node id="-366" visible="true" lat="44.1431872" lon="-73.07870401">
    <tag k="addr:city" v="Bristol"/>
    <tag k="addr:housenumber" v="118"/>
    <tag k="addr:street" v="Mountain Street"/>
    <tag k="addr:state" v="VT"/>
    <tag k="ref:vcgi:esiteid" v="39057"/>
  </node>
  <node id="-370" visible="true" lat="44.14282847" lon="-73.07953163">
    <tag k="addr:city" v="Bristol"/>
    <tag k="addr:housenumber" v="146"/>
    <tag k="addr:street" v="Devino Lane"/>
    <tag k="addr:state" v="VT"/>
    <tag k="ref:vcgi:esiteid" v="39062"/>
  </node>
  <node id="-371" visible="true" lat="44.14293899" lon="-73.08216765">
    <tag k="addr:city" v="Bristol"/>
    <tag k="addr:housenumber" v="116"/>
    <tag k="addr:street" v="North Street"/>
    <tag k="addr:state" v="VT"/>
    <tag k="ref:vcgi:esiteid" v="39064"/>
  </node>
  <node id="-373" visible="true" lat="44.14269718" lon="-73.07878995">
    <tag k="addr:city" v="Bristol"/>
    <tag k="addr:housenumber" v="113"/>
    <tag k="addr:street" v="Mountain Street"/>
    <tag k="addr:state" v="VT"/>
    <tag k="ref:vcgi:esiteid" v="39066"/>
  </node>
  <node id="-374" visible="true" lat="44.14269348" lon="-73.07801343">
    <tag k="addr:city" v="Bristol"/>
    <tag k="addr:housenumber" v="109"/>
    <tag k="addr:street" v="Mountain Street"/>
    <tag k="addr:state" v="VT"/>
    <tag k="ref:vcgi:esiteid" v="39067"/>
  </node>
  <node id="-375" visible="true" lat="44.14276711" lon="-73.07648421">
    <tag k="addr:city" v="Bristol"/>
    <tag k="addr:housenumber" v="22"/>
    <tag k="addr:street" v="Heath Road"/>
    <tag k="addr:state" v="VT"/>
    <tag k="ref:vcgi:esiteid" v="39068"/>
  </node>
  <node id="-376" visible="true" lat="44.14299516" lon="-73.0813228">
    <tag k="addr:city" v="Bristol"/>
    <tag k="addr:housenumber" v="51"/>
    <tag k="addr:street" v="Devino Lane"/>
    <tag k="addr:state" v="VT"/>
    <tag k="ref:vcgi:esiteid" v="39069"/>
  </node>
  <node id="-380" visible="true" lat="44.1426637" lon="-73.08018252">
    <tag k="addr:city" v="Bristol"/>
    <tag k="addr:housenumber" v="90"/>
    <tag k="addr:street" v="Devino Lane"/>
    <tag k="addr:state" v="VT"/>
    <tag k="ref:vcgi:esiteid" v="39074"/>
  </node>
  <node id="-381" visible="true" lat="44.14264819" lon="-73.08198472">
    <tag k="addr:city" v="Bristol"/>
    <tag k="addr:housenumber" v="112"/>
    <tag k="addr:street" v="North Street"/>
    <tag k="addr:state" v="VT"/>
    <tag k="ref:vcgi:esiteid" v="39075"/>
  </node>
  <node id="-382" visible="true" lat="44.14251891" lon="-73.08116236">
    <tag k="addr:city" v="Bristol"/>
    <tag k="addr:housenumber" v="50"/>
    <tag k="addr:street" v="Devino Lane"/>
    <tag k="addr:state" v="VT"/>
    <tag k="ref:vcgi:esiteid" v="39076"/>
  </node>
  <node id="-385" visible="true" lat="44.14241095" lon="-73.07855784">
    <tag k="addr:city" v="Bristol"/>
    <tag k="addr:housenumber" v="111"/>
    <tag k="addr:street" v="Mountain Street"/>
    <tag k="addr:state" v="VT"/>
    <tag k="ref:vcgi:esiteid" v="39080"/>
  </node>
  <node id="-386" visible="true" lat="44.14245986" lon="-73.0772171">
    <tag k="addr:city" v="Bristol"/>
    <tag k="addr:housenumber" v="110"/>
    <tag k="addr:street" v="Mountain Street"/>
    <tag k="addr:state" v="VT"/>
    <tag k="ref:vcgi:esiteid" v="39081"/>
  </node>
  <node id="-388" visible="true" lat="44.14226457" lon="-73.07790307">
    <tag k="addr:city" v="Bristol"/>
    <tag k="addr:housenumber" v="105"/>
    <tag k="addr:street" v="Mountain Street"/>
    <tag k="addr:state" v="VT"/>
    <tag k="ref:vcgi:esiteid" v="39083"/>
  </node>
  <node id="-390" visible="true" lat="44.14237802" lon="-73.07942864">
    <tag k="addr:city" v="Bristol"/>
    <tag k="addr:housenumber" v="40"/>
    <tag k="addr:street" v="Adirondack View"/>
    <tag k="addr:state" v="VT"/>
    <tag k="ref:vcgi:esiteid" v="39085"/>
  </node>
  <node id="-391" visible="true" lat="44.14227381" lon="-73.08174481">
    <tag k="addr:city" v="Bristol"/>
    <tag k="addr:housenumber" v="108"/>
    <tag k="addr:street" v="North Street"/>
    <tag k="addr:state" v="VT"/>
    <tag k="ref:vcgi:esiteid" v="39086"/>
  </node>
  <node id="-393" visible="true" lat="44.14204999" lon="-73.07916953">
    <tag k="addr:city" v="Bristol"/>
    <tag k="addr:housenumber" v="56"/>
    <tag k="addr:street" v="Adirondack View"/>
    <tag k="addr:state" v="VT"/>
    <tag k="ref:vcgi:esiteid" v="39088"/>
  </node>
  <node id="-395" visible="true" lat="44.14203855" lon="-73.07854871">
    <tag k="addr:city" v="Bristol"/>
    <tag k="addr:housenumber" v="63"/>
    <tag k="addr:street" v="Adirondack View"/>
    <tag k="addr:state" v="VT"/>
    <tag k="ref:vcgi:esiteid" v="39090"/>
  </node>
  <node id="-398" visible="true" lat="44.14212468" lon="-73.07725304">
    <tag k="addr:city" v="Bristol"/>
    <tag k="addr:housenumber" v="106"/>
    <tag k="addr:street" v="Mountain Street"/>
    <tag k="addr:state" v="VT"/>
    <tag k="ref:vcgi:esiteid" v="39093"/>
  </node>
  <node id="-399" visible="true" lat="44.14187003" lon="-73.08142467">
    <tag k="addr:city" v="Bristol"/>
    <tag k="addr:housenumber" v="100"/>
    <tag k="addr:street" v="North Street"/>
    <tag k="addr:state" v="VT"/>
    <tag k="ref:vcgi:esiteid" v="39094"/>
  </node>
  <node id="-401" visible="true" lat="44.14184887" lon="-73.07730255">
    <tag k="addr:city" v="Bristol"/>
    <tag k="addr:housenumber" v="100"/>
    <tag k="addr:street" v="Mountain Street"/>
    <tag k="addr:state" v="VT"/>
    <tag k="ref:vcgi:esiteid" v="39096"/>
  </node>
  <node id="-404" visible="true" lat="44.14148416" lon="-73.0800167">
    <tag k="addr:city" v="Bristol"/>
    <tag k="addr:housenumber" v="94"/>
    <tag k="addr:street" v="North Street"/>
    <tag k="addr:state" v="VT"/>
    <tag k="ref:vcgi:esiteid" v="39100"/>
  </node>
  <node id="-407" visible="true" lat="44.14139597" lon="-73.07717759">
    <tag k="addr:city" v="Bristol"/>
    <tag k="addr:housenumber" v="96"/>
    <tag k="addr:street" v="Mountain Street"/>
    <tag k="addr:state" v="VT"/>
    <tag k="ref:vcgi:esiteid" v="39103"/>
  </node>
  <node id="-408" visible="true" lat="44.14123866" lon="-73.07776339">
    <tag k="addr:city" v="Bristol"/>
    <tag k="addr:housenumber" v="93"/>
    <tag k="addr:street" v="Mountain Street"/>
    <tag k="addr:state" v="VT"/>
    <tag k="ref:vcgi:esiteid" v="39104"/>
  </node>
  <node id="-409" visible="true" lat="44.14093213" lon="-73.08140411">
    <tag k="addr:city" v="Bristol"/>
    <tag k="addr:housenumber" v="13"/>
    <tag k="addr:street" v="Cottage Park"/>
    <tag k="addr:state" v="VT"/>
    <tag k="ref:vcgi:esiteid" v="39105"/>
  </node>
  <node id="-410" visible="true" lat="44.14077409" lon="-73.08057527">
    <tag k="addr:city" v="Bristol"/>
    <tag k="addr:housenumber" v="90"/>
    <tag k="addr:street" v="North Street"/>
    <tag k="addr:state" v="VT"/>
    <tag k="ref:vcgi:esiteid" v="39107"/>
  </node>
  <node id="-411" visible="true" lat="44.14077616" lon="-73.07704902">
    <tag k="addr:city" v="Bristol"/>
    <tag k="addr:housenumber" v="90"/>
    <tag k="addr:street" v="Mountain Street"/>
    <tag k="addr:state" v="VT"/>
    <tag k="ref:vcgi:esiteid" v="39108"/>
  </node>
  <node id="-412" visible="true" lat="44.14063636" lon="-73.07753689">
    <tag k="addr:city" v="Bristol"/>
    <tag k="addr:housenumber" v="83"/>
    <tag k="addr:street" v="Mountain Street"/>
    <tag k="addr:state" v="VT"/>
    <tag k="ref:vcgi:esiteid" v="39109"/>
  </node>
  <node id="-413" visible="true" lat="44.14033751" lon="-73.07747185">
    <tag k="addr:city" v="Bristol"/>
    <tag k="addr:housenumber" v="81"/>
    <tag k="addr:street" v="Mountain Street"/>
    <tag k="addr:state" v="VT"/>
    <tag k="ref:vcgi:esiteid" v="39110"/>
  </node>
  <node id="-414" visible="true" lat="44.14044471" lon="-73.07703724">
    <tag k="addr:city" v="Bristol"/>
    <tag k="addr:housenumber" v="82"/>
    <tag k="addr:street" v="Mountain Street"/>
    <tag k="addr:state" v="VT"/>
    <tag k="ref:vcgi:esiteid" v="39111"/>
  </node>
  <node id="-416" visible="true" lat="44.14039922" lon="-73.08008599">
    <tag k="addr:city" v="Bristol"/>
    <tag k="addr:housenumber" v="84"/>
    <tag k="addr:street" v="North Street"/>
    <tag k="addr:state" v="VT"/>
    <tag k="ref:vcgi:esiteid" v="39114"/>
  </node>
  <node id="-418" visible="true" lat="44.14031021" lon="-73.07808293">
    <tag k="addr:city" v="Bristol"/>
    <tag k="addr:housenumber" v="36"/>
    <tag k="addr:street" v="Crescent Street"/>
    <tag k="addr:state" v="VT"/>
    <tag k="ref:vcgi:esiteid" v="39117"/>
  </node>
  <node id="-419" visible="true" lat="44.14030142" lon="-73.07889458">
    <tag k="addr:city" v="Bristol"/>
    <tag k="addr:housenumber" v="20"/>
    <tag k="addr:street" v="Crescent Street"/>
    <tag k="addr:state" v="VT"/>
    <tag k="ref:vcgi:esiteid" v="39119"/>
  </node>
  <node id="-420" visible="true" lat="44.14021893" lon="-73.07948471">
    <tag k="addr:city" v="Bristol"/>
    <tag k="addr:housenumber" v="14"/>
    <tag k="addr:street" v="Crescent Street"/>
    <tag k="addr:state" v="VT"/>
    <tag k="ref:vcgi:esiteid" v="39120"/>
  </node>
  <node id="-421" visible="true" lat="44.14000928" lon="-73.07748257">
    <tag k="addr:city" v="Bristol"/>
    <tag k="addr:housenumber" v="39"/>
    <tag k="addr:street" v="Crescent Street"/>
    <tag k="addr:state" v="VT"/>
    <tag k="ref:vcgi:esiteid" v="39122"/>
  </node>
  <node id="-422" visible="true" lat="44.1401345" lon="-73.08011357">
    <tag k="addr:city" v="Bristol"/>
    <tag k="addr:housenumber" v="82"/>
    <tag k="addr:street" v="North Street"/>
    <tag k="addr:state" v="VT"/>
    <tag k="ref:vcgi:esiteid" v="39123"/>
  </node>
  <node id="-423" visible="true" lat="44.13995263" lon="-73.07785831">
    <tag k="addr:city" v="Bristol"/>
    <tag k="addr:housenumber" v="33"/>
    <tag k="addr:street" v="Crescent Street"/>
    <tag k="addr:state" v="VT"/>
    <tag k="ref:vcgi:esiteid" v="39124"/>
  </node>
  <node id="-425" visible="true" lat="44.13996887" lon="-73.07809448">
    <tag k="addr:city" v="Bristol"/>
    <tag k="addr:housenumber" v="29"/>
    <tag k="addr:street" v="Crescent Street"/>
    <tag k="addr:state" v="VT"/>
    <tag k="ref:vcgi:esiteid" v="39126"/>
  </node>
  <node id="-426" visible="true" lat="44.13996124" lon="-73.07910156">
    <tag k="addr:city" v="Bristol"/>
    <tag k="addr:housenumber" v="15"/>
    <tag k="addr:street" v="Crescent Street"/>
    <tag k="addr:state" v="VT"/>
    <tag k="ref:vcgi:esiteid" v="39127"/>
  </node>
  <node id="-429" visible="true" lat="44.14004493" lon="-73.07690496">
    <tag k="addr:city" v="Bristol"/>
    <tag k="addr:housenumber" v="78"/>
    <tag k="addr:street" v="Mountain Street"/>
    <tag k="addr:state" v="VT"/>
    <tag k="ref:vcgi:esiteid" v="39130"/>
  </node>
  <node id="-430" visible="true" lat="44.13990402" lon="-73.07860565">
    <tag k="addr:city" v="Bristol"/>
    <tag k="addr:housenumber" v="21"/>
    <tag k="addr:street" v="Crescent Street"/>
    <tag k="addr:state" v="VT"/>
    <tag k="ref:vcgi:esiteid" v="39131"/>
  </node>
  <node id="-431" visible="true" lat="44.13994665" lon="-73.08000736">
    <tag k="addr:city" v="Bristol"/>
    <tag k="addr:housenumber" v="80"/>
    <tag k="addr:street" v="North Street"/>
    <tag k="addr:state" v="VT"/>
    <tag k="ref:vcgi:esiteid" v="39132"/>
  </node>
  <node id="-432" visible="true" lat="44.13980865" lon="-73.07726287">
    <tag k="addr:city" v="Bristol"/>
    <tag k="addr:housenumber" v="75"/>
    <tag k="addr:street" v="Mountain Street"/>
    <tag k="addr:state" v="VT"/>
    <tag k="ref:vcgi:esiteid" v="39133"/>
  </node>
  <node id="-434" visible="true" lat="44.13947296" lon="-73.07724762">
    <tag k="addr:city" v="Bristol"/>
    <tag k="addr:housenumber" v="71"/>
    <tag k="addr:street" v="Mountain Street"/>
    <tag k="addr:state" v="VT"/>
    <tag k="ref:vcgi:esiteid" v="39135"/>
  </node>
  <node id="-435" visible="true" lat="44.13952252" lon="-73.0797265">
    <tag k="addr:city" v="Bristol"/>
    <tag k="addr:housenumber" v="78"/>
    <tag k="addr:street" v="North Street"/>
    <tag k="addr:state" v="VT"/>
    <tag k="ref:vcgi:esiteid" v="39136"/>
  </node>
  <node id="-441" visible="true" lat="44.13926143" lon="-73.0776449">
    <tag k="addr:city" v="Bristol"/>
    <tag k="addr:housenumber" v="30"/>
    <tag k="addr:street" v="Fitch Avenue"/>
    <tag k="addr:state" v="VT"/>
    <tag k="ref:vcgi:esiteid" v="39143"/>
  </node>
  <node id="-443" visible="true" lat="44.13940505" lon="-73.07674937">
    <tag k="addr:city" v="Bristol"/>
    <tag k="addr:housenumber" v="72"/>
    <tag k="addr:street" v="Mountain Street"/>
    <tag k="addr:state" v="VT"/>
    <tag k="ref:vcgi:esiteid" v="39145"/>
  </node>
  <node id="-447" visible="true" lat="44.13919067" lon="-73.077919">
    <tag k="addr:city" v="Bristol"/>
    <tag k="addr:housenumber" v="20"/>
    <tag k="addr:street" v="Fitch Avenue"/>
    <tag k="addr:state" v="VT"/>
    <tag k="ref:vcgi:esiteid" v="39149"/>
  </node>
  <node id="-451" visible="true" lat="44.13903817" lon="-73.0771394">
    <tag k="addr:city" v="Bristol"/>
    <tag k="addr:housenumber" v="69"/>
    <tag k="addr:street" v="Mountain Street"/>
    <tag k="addr:state" v="VT"/>
    <tag k="ref:vcgi:esiteid" v="39153"/>
  </node>
  <node id="-452" visible="true" lat="44.13909912" lon="-73.07662963">
    <tag k="addr:city" v="Bristol"/>
    <tag k="addr:housenumber" v="68"/>
    <tag k="addr:street" v="Mountain Street"/>
    <tag k="addr:state" v="VT"/>
    <tag k="ref:vcgi:esiteid" v="39154"/>
  </node>
  <node id="-453" visible="true" lat="44.1392346" lon="-73.07953365">
    <tag k="addr:city" v="Bristol"/>
    <tag k="addr:housenumber" v="74"/>
    <tag k="addr:street" v="North Street"/>
    <tag k="addr:state" v="VT"/>
    <tag k="ref:vcgi:esiteid" v="39155"/>
  </node>
  <node id="-455" visible="true" lat="44.13938672" lon="-73.07641423">
    <tag k="addr:city" v="Bristol"/>
    <tag k="addr:housenumber" v="70"/>
    <tag k="addr:street" v="Mountain Street"/>
    <tag k="addr:state" v="VT"/>
    <tag k="ref:vcgi:esiteid" v="39158"/>
  </node>
  <node id="-456" visible="true" lat="44.13906561" lon="-73.07848663">
    <tag k="addr:city" v="Bristol"/>
    <tag k="addr:housenumber" v="10"/>
    <tag k="addr:street" v="Fitch Avenue"/>
    <tag k="addr:state" v="VT"/>
    <tag k="ref:vcgi:esiteid" v="39159"/>
  </node>
  <node id="-458" visible="true" lat="44.1388983" lon="-73.07776969">
    <tag k="addr:city" v="Bristol"/>
    <tag k="addr:housenumber" v="31"/>
    <tag k="addr:street" v="Fitch Avenue"/>
    <tag k="addr:state" v="VT"/>
    <tag k="ref:vcgi:esiteid" v="39161"/>
  </node>
  <node id="-459" visible="true" lat="44.13899956" lon="-73.07940466">
    <tag k="addr:city" v="Bristol"/>
    <tag k="addr:housenumber" v="72"/>
    <tag k="addr:street" v="North Street"/>
    <tag k="addr:state" v="VT"/>
    <tag k="ref:vcgi:esiteid" v="39162"/>
  </node>
  <node id="-463" visible="true" lat="44.13884353" lon="-73.07814025">
    <tag k="addr:city" v="Bristol"/>
    <tag k="addr:housenumber" v="21"/>
    <tag k="addr:street" v="Fitch Avenue"/>
    <tag k="addr:state" v="VT"/>
    <tag k="ref:vcgi:esiteid" v="39167"/>
  </node>
  <node id="-469" visible="true" lat="44.13888132" lon="-73.07585058">
    <tag k="addr:city" v="Bristol"/>
    <tag k="addr:housenumber" v="66"/>
    <tag k="addr:street" v="Mountain Street"/>
    <tag k="addr:state" v="VT"/>
    <tag k="ref:vcgi:esiteid" v="39176"/>
  </node>
  <node id="-475" visible="true" lat="44.13855103" lon="-73.07644077">
    <tag k="addr:city" v="Bristol"/>
    <tag k="addr:housenumber" v="64"/>
    <tag k="addr:street" v="Mountain Street"/>
    <tag k="addr:state" v="VT"/>
    <tag k="ref:vcgi:esiteid" v="39183"/>
  </node>
  <node id="-484" visible="true" lat="44.13853491" lon="-73.07909404">
    <tag k="addr:city" v="Bristol"/>
    <tag k="addr:housenumber" v="68"/>
    <tag k="addr:street" v="North Street"/>
    <tag k="addr:state" v="VT"/>
    <tag k="ref:vcgi:esiteid" v="39192"/>
  </node>
  <node id="-490" visible="true" lat="44.13833811" lon="-73.07639992">
    <tag k="addr:city" v="Bristol"/>
    <tag k="addr:housenumber" v="62"/>
    <tag k="addr:street" v="Mountain Street"/>
    <tag k="addr:state" v="VT"/>
    <tag k="ref:vcgi:esiteid" v="39198"/>
  </node>
  <node id="-495" visible="true" lat="44.13827233" lon="-73.07902959">
    <tag k="addr:city" v="Bristol"/>
    <tag k="addr:housenumber" v="64"/>
    <tag k="addr:street" v="North Street"/>
    <tag k="addr:state" v="VT"/>
    <tag k="ref:vcgi:esiteid" v="39204"/>
  </node>
  <node id="-499" visible="true" lat="44.13811469" lon="-73.07566411">
    <tag k="addr:city" v="Bristol"/>
    <tag k="addr:housenumber" v="56"/>
    <tag k="addr:street" v="Mountain Street"/>
    <tag k="addr:state" v="VT"/>
    <tag k="ref:vcgi:esiteid" v="39210"/>
  </node>
  <node id="-504" visible="true" lat="44.13806527" lon="-73.07613807">
    <tag k="addr:city" v="Bristol"/>
    <tag k="addr:housenumber" v="58"/>
    <tag k="addr:street" v="Mountain Street"/>
    <tag k="addr:state" v="VT"/>
    <tag k="ref:vcgi:esiteid" v="39216"/>
  </node>
  <node id="-505" visible="true" lat="44.13802321" lon="-73.07894672">
    <tag k="addr:city" v="Bristol"/>
    <tag k="addr:housenumber" v="62"/>
    <tag k="addr:street" v="North Street"/>
    <tag k="addr:state" v="VT"/>
    <tag k="ref:vcgi:esiteid" v="39217"/>
  </node>
  <node id="-536" visible="true" lat="44.13743565" lon="-73.07882342">
    <tag k="addr:city" v="Bristol"/>
    <tag k="addr:housenumber" v="58"/>
    <tag k="addr:street" v="North Street"/>
    <tag k="addr:state" v="VT"/>
    <tag k="ref:vcgi:esiteid" v="39252"/>
  </node>
  <node id="-548" visible="true" lat="44.13730359" lon="-73.07617048">
    <tag k="addr:city" v="Bristol"/>
    <tag k="addr:housenumber" v="52"/>
    <tag k="addr:street" v="Mountain Street"/>
    <tag k="addr:state" v="VT"/>
    <tag k="ref:vcgi:esiteid" v="39265"/>
  </node>
  <node id="-554" visible="true" lat="44.13701948" lon="-73.07652532">
    <tag k="addr:city" v="Bristol"/>
    <tag k="addr:housenumber" v="38"/>
    <tag k="addr:street" v="Spring Street"/>
    <tag k="addr:state" v="VT"/>
    <tag k="ref:vcgi:esiteid" v="39272"/>
  </node>
  <node id="-555" visible="true" lat="44.13713761" lon="-73.07872151">
    <tag k="addr:city" v="Bristol"/>
    <tag k="addr:housenumber" v="56"/>
    <tag k="addr:street" v="North Street"/>
    <tag k="addr:state" v="VT"/>
    <tag k="ref:vcgi:esiteid" v="39273"/>
  </node>
  <node id="-571" visible="true" lat="44.13699916" lon="-73.07680128">
    <tag k="addr:city" v="Bristol"/>
    <tag k="addr:housenumber" v="34"/>
    <tag k="addr:street" v="Spring Street"/>
    <tag k="addr:state" v="VT"/>
    <tag k="ref:vcgi:esiteid" v="39293"/>
  </node>
  <node id="-573" visible="true" lat="44.1369479" lon="-73.07702507">
    <tag k="addr:city" v="Bristol"/>
    <tag k="addr:housenumber" v="30"/>
    <tag k="addr:street" v="Spring Street"/>
    <tag k="addr:state" v="VT"/>
    <tag k="ref:vcgi:esiteid" v="39295"/>
  </node>
  <node id="-574" visible="true" lat="44.13680989" lon="-73.07757206">
    <tag k="addr:city" v="Bristol"/>
    <tag k="addr:housenumber" v="16"/>
    <tag k="addr:street" v="Spring Street"/>
    <tag k="addr:state" v="VT"/>
    <tag k="ref:vcgi:esiteid" v="39296"/>
  </node>
  <node id="-576" visible="true" lat="44.13686635" lon="-73.07727898">
    <tag k="addr:city" v="Bristol"/>
    <tag k="addr:housenumber" v="24"/>
    <tag k="addr:street" v="Spring Street"/>
    <tag k="addr:state" v="VT"/>
    <tag k="ref:vcgi:esiteid" v="39298"/>
  </node>
  <node id="-584" visible="true" lat="44.1367504" lon="-73.0786311">
    <tag k="addr:city" v="Bristol"/>
    <tag k="addr:housenumber" v="52"/>
    <tag k="addr:street" v="North Street"/>
    <tag k="addr:state" v="VT"/>
    <tag k="ref:vcgi:esiteid" v="39306"/>
  </node>
  <node id="-586" visible="true" lat="44.13677079" lon="-73.07785867">
    <tag k="addr:city" v="Bristol"/>
    <tag k="addr:housenumber" v="10"/>
    <tag k="addr:street" v="Spring Street"/>
    <tag k="addr:state" v="VT"/>
    <tag k="ref:vcgi:esiteid" v="39308"/>
  </node>
  <node id="-593" visible="true" lat="44.13664513" lon="-73.07598875">
    <tag k="addr:city" v="Bristol"/>
    <tag k="addr:housenumber" v="46"/>
    <tag k="addr:street" v="Mountain Street"/>
    <tag k="addr:state" v="VT"/>
    <tag k="ref:vcgi:esiteid" v="39316"/>
  </node>
  <node id="-594" visible="true" lat="44.1365413" lon="-73.07700902">
    <tag k="addr:city" v="Bristol"/>
    <tag k="addr:housenumber" v="29"/>
    <tag k="addr:street" v="Spring Street"/>
    <tag k="addr:state" v="VT"/>
    <tag k="ref:vcgi:esiteid" v="39317"/>
  </node>
  <node id="-595" visible="true" lat="44.13667783" lon="-73.07642779">
    <tag k="addr:city" v="Bristol"/>
    <tag k="addr:housenumber" v="49"/>
    <tag k="addr:street" v="Mountain Street"/>
    <tag k="addr:state" v="VT"/>
    <tag k="ref:vcgi:esiteid" v="39319"/>
  </node>
  <node id="-597" visible="true" lat="44.13651873" lon="-73.07730509">
    <tag k="addr:city" v="Bristol"/>
    <tag k="addr:housenumber" v="21"/>
    <tag k="addr:street" v="Spring Street"/>
    <tag k="addr:state" v="VT"/>
    <tag k="ref:vcgi:esiteid" v="39321"/>
  </node>
  <node id="-602" visible="true" lat="44.13646251" lon="-73.07763007">
    <tag k="addr:city" v="Bristol"/>
    <tag k="addr:housenumber" v="11"/>
    <tag k="addr:street" v="Spring Street"/>
    <tag k="addr:state" v="VT"/>
    <tag k="ref:vcgi:esiteid" v="39326"/>
  </node>
  <node id="-612" visible="true" lat="44.13646776" lon="-73.07592209">
    <tag k="addr:city" v="Bristol"/>
    <tag k="addr:housenumber" v="40"/>
    <tag k="addr:street" v="Mountain Street"/>
    <tag k="addr:state" v="VT"/>
    <tag k="ref:vcgi:esiteid" v="39337"/>
  </node>
  <node id="-620" visible="true" lat="44.13624125" lon="-73.07632898">
    <tag k="addr:city" v="Bristol"/>
    <tag k="addr:housenumber" v="39"/>
    <tag k="addr:street" v="Mountain Street"/>
    <tag k="addr:state" v="VT"/>
    <tag k="ref:vcgi:esiteid" v="39346"/>
  </node>
  <node id="-625" visible="true" lat="44.13658921" lon="-73.07680324">
    <tag k="addr:city" v="Bristol"/>
    <tag k="addr:housenumber" v="35"/>
    <tag k="addr:street" v="Spring Street"/>
    <tag k="addr:state" v="VT"/>
    <tag k="ref:vcgi:esiteid" v="39353"/>
  </node>
  <node id="-629" visible="true" lat="44.13628114" lon="-73.07583586">
    <tag k="addr:city" v="Bristol"/>
    <tag k="addr:housenumber" v="38"/>
    <tag k="addr:street" v="Mountain Street"/>
    <tag k="addr:state" v="VT"/>
    <tag k="ref:vcgi:esiteid" v="39358"/>
  </node>
  <node id="-635" visible="true" lat="44.13626157" lon="-73.07853176">
    <tag k="addr:city" v="Bristol"/>
    <tag k="addr:housenumber" v="48"/>
    <tag k="addr:street" v="North Street"/>
    <tag k="addr:state" v="VT"/>
    <tag k="ref:vcgi:esiteid" v="39364"/>
  </node>
  <node id="-642" visible="true" lat="44.13606701" lon="-73.07623222">
    <tag k="addr:city" v="Bristol"/>
    <tag k="addr:housenumber" v="35"/>
    <tag k="addr:street" v="Mountain Street"/>
    <tag k="addr:state" v="VT"/>
    <tag k="ref:vcgi:esiteid" v="39372"/>
  </node>
  <node id="-653" visible="true" lat="44.13612255" lon="-73.0757564">
    <tag k="addr:city" v="Bristol"/>
    <tag k="addr:housenumber" v="36"/>
    <tag k="addr:street" v="Mountain Street"/>
    <tag k="addr:state" v="VT"/>
    <tag k="ref:vcgi:esiteid" v="39384"/>
  </node>
  <node id="-655" visible="true" lat="44.13606655" lon="-73.07812283">
    <tag k="addr:city" v="Bristol"/>
    <tag k="addr:housenumber" v="2"/>
    <tag k="addr:street" v="Lawrence Lane"/>
    <tag k="addr:state" v="VT"/>
    <tag k="ref:vcgi:esiteid" v="39386"/>
  </node>
  <node id="-662" visible="true" lat="44.13593673" lon="-73.07751464">
    <tag k="addr:city" v="Bristol"/>
    <tag k="addr:housenumber" v="15"/>
    <tag k="addr:street" v="Lawrence Lane"/>
    <tag k="addr:state" v="VT"/>
    <tag k="ref:vcgi:esiteid" v="39394"/>
  </node>
  <node id="-664" visible="true" lat="44.13588333" lon="-73.07788085">
    <tag k="addr:city" v="Bristol"/>
    <tag k="addr:housenumber" v="7"/>
    <tag k="addr:street" v="Lawrence Lane"/>
    <tag k="addr:state" v="VT"/>
    <tag k="ref:vcgi:esiteid" v="39396"/>
  </node>
  <node id="-666" visible="true" lat="44.13585281" lon="-73.07807159">
    <tag k="addr:city" v="Bristol"/>
    <tag k="addr:housenumber" v="3"/>
    <tag k="addr:street" v="Lawrence Lane"/>
    <tag k="addr:state" v="VT"/>
    <tag k="ref:vcgi:esiteid" v="39399"/>
  </node>
  <node id="-667" visible="true" lat="44.13589744" lon="-73.07767998">
    <tag k="addr:city" v="Bristol"/>
    <tag k="addr:housenumber" v="11"/>
    <tag k="addr:street" v="Lawrence Lane"/>
    <tag k="addr:state" v="VT"/>
    <tag k="ref:vcgi:esiteid" v="39400"/>
  </node>
  <node id="-668" visible="true" lat="44.13591235" lon="-73.07570891">
    <tag k="addr:city" v="Bristol"/>
    <tag k="addr:housenumber" v="32"/>
    <tag k="addr:street" v="Mountain Street"/>
    <tag k="addr:state" v="VT"/>
    <tag k="ref:vcgi:esiteid" v="39401"/>
  </node>
  <node id="-671" visible="true" lat="44.13578569" lon="-73.07844601">
    <tag k="addr:city" v="Bristol"/>
    <tag k="addr:housenumber" v="40"/>
    <tag k="addr:street" v="North Street"/>
    <tag k="addr:state" v="VT"/>
    <tag k="ref:vcgi:esiteid" v="39404"/>
  </node>
  <node id="-676" visible="true" lat="44.13572546" lon="-73.07567462">
    <tag k="addr:city" v="Bristol"/>
    <tag k="addr:housenumber" v="30"/>
    <tag k="addr:street" v="Mountain Street"/>
    <tag k="addr:state" v="VT"/>
    <tag k="ref:vcgi:esiteid" v="39409"/>
  </node>
  <node id="-677" visible="true" lat="44.13564838" lon="-73.07846643">
    <tag k="addr:city" v="Bristol"/>
    <tag k="addr:housenumber" v="38"/>
    <tag k="addr:street" v="North Street"/>
    <tag k="addr:state" v="VT"/>
    <tag k="ref:vcgi:esiteid" v="39410"/>
  </node>
  <node id="-679" visible="true" lat="44.1356078" lon="-73.09396414">
    <tag k="addr:city" v="Bristol"/>
    <tag k="addr:housenumber" v="220"/>
    <tag k="addr:street" v="Airport Drive"/>
    <tag k="addr:state" v="VT"/>
    <tag k="ref:vcgi:esiteid" v="39412"/>
  </node>
  <node id="-684" visible="true" lat="44.13550995" lon="-73.07607304">
    <tag k="addr:city" v="Bristol"/>
    <tag k="addr:housenumber" v="38"/>
    <tag k="addr:street" v="Garfield Street"/>
    <tag k="addr:state" v="VT"/>
    <tag k="ref:vcgi:esiteid" v="39418"/>
  </node>
  <node id="-685" visible="true" lat="44.13548148" lon="-73.07842613">
    <tag k="addr:city" v="Bristol"/>
    <tag k="addr:housenumber" v="32"/>
    <tag k="addr:street" v="North Street"/>
    <tag k="addr:state" v="VT"/>
    <tag k="ref:vcgi:esiteid" v="39419"/>
  </node>
  <node id="-686" visible="true" lat="44.13548283" lon="-73.07556837">
    <tag k="addr:city" v="Bristol"/>
    <tag k="addr:housenumber" v="28"/>
    <tag k="addr:street" v="Mountain Street"/>
    <tag k="addr:state" v="VT"/>
    <tag k="ref:vcgi:esiteid" v="39420"/>
  </node>
  <node id="-687" visible="true" lat="44.13543082" lon="-73.07660648">
    <tag k="addr:city" v="Bristol"/>
    <tag k="addr:housenumber" v="28"/>
    <tag k="addr:street" v="Garfield Street"/>
    <tag k="addr:state" v="VT"/>
    <tag k="ref:vcgi:esiteid" v="39421"/>
  </node>
  <node id="-690" visible="true" lat="44.13541956" lon="-73.0769033">
    <tag k="addr:city" v="Bristol"/>
    <tag k="addr:housenumber" v="24"/>
    <tag k="addr:street" v="Garfield Street"/>
    <tag k="addr:state" v="VT"/>
    <tag k="ref:vcgi:esiteid" v="39426"/>
  </node>
  <node id="-692" visible="true" lat="44.13538229" lon="-73.07717223">
    <tag k="addr:city" v="Bristol"/>
    <tag k="addr:housenumber" v="18"/>
    <tag k="addr:street" v="Garfield Street"/>
    <tag k="addr:state" v="VT"/>
    <tag k="ref:vcgi:esiteid" v="39428"/>
  </node>
  <node id="-694" visible="true" lat="44.13521526" lon="-73.07599504">
    <tag k="addr:city" v="Bristol"/>
    <tag k="addr:housenumber" v="39"/>
    <tag k="addr:street" v="Garfield Street"/>
    <tag k="addr:state" v="VT"/>
    <tag k="ref:vcgi:esiteid" v="39430"/>
  </node>
  <node id="-699" visible="true" lat="44.13532541" lon="-73.07753073">
    <tag k="addr:city" v="Bristol"/>
    <tag k="addr:housenumber" v="10"/>
    <tag k="addr:street" v="Garfield Street"/>
    <tag k="addr:state" v="VT"/>
    <tag k="ref:vcgi:esiteid" v="39437"/>
  </node>
  <node id="-701" visible="true" lat="44.13529987" lon="-73.07784632">
    <tag k="addr:city" v="Bristol"/>
    <tag k="addr:housenumber" v="6"/>
    <tag k="addr:street" v="Garfield Street"/>
    <tag k="addr:state" v="VT"/>
    <tag k="ref:vcgi:esiteid" v="39439"/>
  </node>
  <node id="-703" visible="true" lat="44.13533338" lon="-73.07552796">
    <tag k="addr:city" v="Bristol"/>
    <tag k="addr:housenumber" v="26"/>
    <tag k="addr:street" v="Mountain Street"/>
    <tag k="addr:state" v="VT"/>
    <tag k="ref:vcgi:esiteid" v="39442"/>
  </node>
  <node id="-706" visible="true" lat="44.13524953" lon="-73.07833121">
    <tag k="addr:city" v="Bristol"/>
    <tag k="addr:housenumber" v="2"/>
    <tag k="addr:street" v="Garfield Street"/>
    <tag k="addr:state" v="VT"/>
    <tag k="ref:vcgi:esiteid" v="39447"/>
  </node>
  <node id="-708" visible="true" lat="44.13524076" lon="-73.07903215">
    <tag k="addr:city" v="Bristol"/>
    <tag k="addr:housenumber" v="29"/>
    <tag k="addr:street" v="North Street"/>
    <tag k="addr:state" v="VT"/>
    <tag k="ref:vcgi:esiteid" v="39449"/>
  </node>
  <node id="-713" visible="true" lat="44.13508107" lon="-73.07709498">
    <tag k="addr:city" v="Bristol"/>
    <tag k="addr:housenumber" v="23"/>
    <tag k="addr:street" v="Garfield Street"/>
    <tag k="addr:state" v="VT"/>
    <tag k="ref:vcgi:esiteid" v="39456"/>
  </node>
  <node id="-715" visible="true" lat="44.13509667" lon="-73.07670474">
    <tag k="addr:city" v="Bristol"/>
    <tag k="addr:housenumber" v="27"/>
    <tag k="addr:street" v="Garfield Street"/>
    <tag k="addr:state" v="VT"/>
    <tag k="ref:vcgi:esiteid" v="39458"/>
  </node>
  <node id="-716" visible="true" lat="44.13516122" lon="-73.07535746">
    <tag k="addr:city" v="Bristol"/>
    <tag k="addr:housenumber" v="24"/>
    <tag k="addr:street" v="Mountain Street"/>
    <tag k="addr:state" v="VT"/>
    <tag k="ref:vcgi:esiteid" v="39459"/>
  </node>
  <node id="-717" visible="true" lat="44.13494045" lon="-73.0778388">
    <tag k="addr:city" v="Bristol"/>
    <tag k="addr:housenumber" v="13"/>
    <tag k="addr:street" v="Garfield Street"/>
    <tag k="addr:state" v="VT"/>
    <tag k="ref:vcgi:esiteid" v="39461"/>
  </node>
  <node id="-720" visible="true" lat="44.13502205" lon="-73.07738814">
    <tag k="addr:city" v="Bristol"/>
    <tag k="addr:housenumber" v="19"/>
    <tag k="addr:street" v="Garfield Street"/>
    <tag k="addr:state" v="VT"/>
    <tag k="ref:vcgi:esiteid" v="39464"/>
  </node>
  <node id="-729" visible="true" lat="44.13494956" lon="-73.07801476">
    <tag k="addr:city" v="Bristol"/>
    <tag k="addr:housenumber" v="9"/>
    <tag k="addr:street" v="Garfield Street"/>
    <tag k="addr:state" v="VT"/>
    <tag k="ref:vcgi:esiteid" v="39474"/>
  </node>
  <node id="-730" visible="true" lat="44.13495159" lon="-73.07900707">
    <tag k="addr:city" v="Bristol"/>
    <tag k="addr:housenumber" v="23"/>
    <tag k="addr:street" v="North Street"/>
    <tag k="addr:state" v="VT"/>
    <tag k="ref:vcgi:esiteid" v="39475"/>
  </node>
  <node id="-734" visible="true" lat="44.13492539" lon="-73.07818115">
    <tag k="addr:city" v="Bristol"/>
    <tag k="addr:housenumber" v="5"/>
    <tag k="addr:street" v="Garfield Street"/>
    <tag k="addr:state" v="VT"/>
    <tag k="ref:vcgi:esiteid" v="39479"/>
  </node>
  <node id="-736" visible="true" lat="44.13479562" lon="-73.07595844">
    <tag k="addr:city" v="Bristol"/>
    <tag k="addr:housenumber" v="32"/>
    <tag k="addr:street" v="Mountain View Street"/>
    <tag k="addr:state" v="VT"/>
    <tag k="ref:vcgi:esiteid" v="39481"/>
  </node>
  <node id="-738" visible="true" lat="44.1347351" lon="-73.07901763">
    <tag k="addr:city" v="Bristol"/>
    <tag k="addr:housenumber" v="21"/>
    <tag k="addr:street" v="North Street"/>
    <tag k="addr:state" v="VT"/>
    <tag k="ref:vcgi:esiteid" v="39483"/>
  </node>
  <node id="-740" visible="true" lat="44.13473704" lon="-73.07630316">
    <tag k="addr:city" v="Bristol"/>
    <tag k="addr:housenumber" v="30"/>
    <tag k="addr:street" v="Mountain View Street"/>
    <tag k="addr:state" v="VT"/>
    <tag k="ref:vcgi:esiteid" v="39485"/>
  </node>
  <node id="-741" visible="true" lat="44.13466016" lon="-73.08041889">
    <tag k="addr:city" v="Bristol"/>
    <tag k="addr:housenumber" v="19"/>
    <tag k="addr:street" v="School Street"/>
    <tag k="addr:state" v="VT"/>
    <tag k="ref:vcgi:esiteid" v="39486"/>
  </node>
  <node id="-742" visible="true" lat="44.13453185" lon="-73.08073658">
    <tag k="addr:city" v="Bristol"/>
    <tag k="addr:housenumber" v="17"/>
    <tag k="addr:street" v="School Street"/>
    <tag k="addr:state" v="VT"/>
    <tag k="ref:vcgi:esiteid" v="39487"/>
  </node>
  <node id="-744" visible="true" lat="44.13458072" lon="-73.08584271">
    <tag k="addr:city" v="Bristol"/>
    <tag k="addr:housenumber" v="60"/>
    <tag k="addr:street" v="West Street"/>
    <tag k="addr:state" v="VT"/>
    <tag k="ref:vcgi:esiteid" v="39490"/>
  </node>
  <node id="-745" visible="true" lat="44.13465488" lon="-73.07709652">
    <tag k="addr:city" v="Bristol"/>
    <tag k="addr:housenumber" v="20"/>
    <tag k="addr:street" v="Mountain View Street"/>
    <tag k="addr:state" v="VT"/>
    <tag k="ref:vcgi:esiteid" v="39491"/>
  </node>
  <node id="-746" visible="true" lat="44.13472792" lon="-73.07670261">
    <tag k="addr:city" v="Bristol"/>
    <tag k="addr:housenumber" v="24"/>
    <tag k="addr:street" v="Mountain View Street"/>
    <tag k="addr:state" v="VT"/>
    <tag k="ref:vcgi:esiteid" v="39492"/>
  </node>
  <node id="-748" visible="true" lat="44.13455853" lon="-73.07997533">
    <tag k="addr:city" v="Bristol"/>
    <tag k="addr:housenumber" v="14"/>
    <tag k="addr:street" v="School Street"/>
    <tag k="addr:state" v="VT"/>
    <tag k="ref:vcgi:esiteid" v="39495"/>
  </node>
  <node id="-749" visible="true" lat="44.13448616" lon="-73.08046835">
    <tag k="addr:city" v="Bristol"/>
    <tag k="addr:housenumber" v="15"/>
    <tag k="addr:street" v="School Street"/>
    <tag k="addr:state" v="VT"/>
    <tag k="ref:vcgi:esiteid" v="39496"/>
  </node>
  <node id="-751" visible="true" lat="44.13453566" lon="-73.08520363">
    <tag k="addr:city" v="Bristol"/>
    <tag k="addr:housenumber" v="58"/>
    <tag k="addr:street" v="West Street"/>
    <tag k="addr:state" v="VT"/>
    <tag k="ref:vcgi:esiteid" v="39498"/>
  </node>
  <node id="-753" visible="true" lat="44.13440322" lon="-73.07516479">
    <tag k="addr:city" v="Bristol"/>
    <tag k="addr:housenumber" v="16"/>
    <tag k="addr:street" v="Mountain Street"/>
    <tag k="addr:state" v="VT"/>
    <tag k="ref:vcgi:esiteid" v="39500"/>
  </node>
  <node id="-754" visible="true" lat="44.13445884" lon="-73.07834785">
    <tag k="addr:city" v="Bristol"/>
    <tag k="addr:housenumber" v="16"/>
    <tag k="addr:street" v="North Street"/>
    <tag k="addr:state" v="VT"/>
    <tag k="ref:vcgi:esiteid" v="39501"/>
  </node>
  <node id="-755" visible="true" lat="44.13450098" lon="-73.08623899">
    <tag k="addr:city" v="Bristol"/>
    <tag k="addr:housenumber" v="62"/>
    <tag k="addr:street" v="West Street"/>
    <tag k="addr:state" v="VT"/>
    <tag k="ref:vcgi:esiteid" v="39502"/>
  </node>
  <node id="-756" visible="true" lat="44.13458917" lon="-73.08688222">
    <tag k="addr:city" v="Bristol"/>
    <tag k="addr:housenumber" v="68"/>
    <tag k="addr:street" v="West Street"/>
    <tag k="addr:state" v="VT"/>
    <tag k="ref:vcgi:esiteid" v="39503"/>
  </node>
  <node id="-757" visible="true" lat="44.13448169" lon="-73.08464626">
    <tag k="addr:city" v="Bristol"/>
    <tag k="addr:housenumber" v="54"/>
    <tag k="addr:street" v="West Street"/>
    <tag k="addr:state" v="VT"/>
    <tag k="ref:vcgi:esiteid" v="39504"/>
  </node>
  <node id="-758" visible="true" lat="44.13444629" lon="-73.08436756">
    <tag k="addr:city" v="Bristol"/>
    <tag k="addr:housenumber" v="50"/>
    <tag k="addr:street" v="West Street"/>
    <tag k="addr:state" v="VT"/>
    <tag k="ref:vcgi:esiteid" v="39505"/>
  </node>
  <node id="-760" visible="true" lat="44.13442874" lon="-73.08415678">
    <tag k="addr:city" v="Bristol"/>
    <tag k="addr:housenumber" v="48"/>
    <tag k="addr:street" v="West Street"/>
    <tag k="addr:state" v="VT"/>
    <tag k="ref:vcgi:esiteid" v="39508"/>
  </node>
  <node id="-764" visible="true" lat="44.13401408" lon="-73.08741065">
    <tag k="addr:city" v="Bristol"/>
    <tag k="addr:housenumber" v="11"/>
    <tag k="addr:street" v="Liberty Street"/>
    <tag k="addr:state" v="VT"/>
    <tag k="ref:vcgi:esiteid" v="39513"/>
  </node>
  <node id="-765" visible="true" lat="44.13420754" lon="-73.08280001">
    <tag k="addr:city" v="Bristol"/>
    <tag k="addr:housenumber" v="38"/>
    <tag k="addr:street" v="West Street"/>
    <tag k="addr:state" v="VT"/>
    <tag k="ref:vcgi:esiteid" v="39515"/>
  </node>
  <node id="-766" visible="true" lat="44.13428452" lon="-73.07374859">
    <tag k="addr:city" v="Bristol"/>
    <tag k="addr:housenumber" v="16"/>
    <tag k="addr:street" v="High Street"/>
    <tag k="addr:state" v="VT"/>
    <tag k="ref:vcgi:esiteid" v="39516"/>
  </node>
  <node id="-767" visible="true" lat="44.13410562" lon="-73.07563154">
    <tag k="addr:city" v="Bristol"/>
    <tag k="addr:housenumber" v="15"/>
    <tag k="addr:street" v="Mountain Street"/>
    <tag k="addr:state" v="VT"/>
    <tag k="ref:vcgi:esiteid" v="39517"/>
  </node>
  <node id="-768" visible="true" lat="44.13412094" lon="-73.08232116">
    <tag k="addr:city" v="Bristol"/>
    <tag k="addr:housenumber" v="34"/>
    <tag k="addr:street" v="West Street"/>
    <tag k="addr:state" v="VT"/>
    <tag k="ref:vcgi:esiteid" v="39518"/>
  </node>
  <node id="-771" visible="true" lat="44.13403239" lon="-73.08205861">
    <tag k="addr:city" v="Bristol"/>
    <tag k="addr:housenumber" v="32"/>
    <tag k="addr:street" v="West Street"/>
    <tag k="addr:state" v="VT"/>
    <tag k="ref:vcgi:esiteid" v="39521"/>
  </node>
  <node id="-772" visible="true" lat="44.13415374" lon="-73.07510073">
    <tag k="addr:city" v="Bristol"/>
    <tag k="addr:housenumber" v="14"/>
    <tag k="addr:street" v="Mountain Street"/>
    <tag k="addr:state" v="VT"/>
    <tag k="ref:vcgi:esiteid" v="39522"/>
  </node>
  <node id="-774" visible="true" lat="44.13405391" lon="-73.07298181">
    <tag k="addr:city" v="Bristol"/>
    <tag k="addr:housenumber" v="10"/>
    <tag k="addr:street" v="High Street"/>
    <tag k="addr:state" v="VT"/>
    <tag k="ref:vcgi:esiteid" v="39525"/>
  </node>
  <node id="-775" visible="true" lat="44.13398024" lon="-73.08155693">
    <tag k="addr:city" v="Bristol"/>
    <tag k="addr:housenumber" v="28"/>
    <tag k="addr:street" v="West Street"/>
    <tag k="addr:state" v="VT"/>
    <tag k="ref:vcgi:esiteid" v="39527"/>
  </node>
  <node id="-776" visible="true" lat="44.1339157" lon="-73.0881363">
    <tag k="addr:city" v="Bristol"/>
    <tag k="addr:housenumber" v="74"/>
    <tag k="addr:street" v="West Street"/>
    <tag k="addr:state" v="VT"/>
    <tag k="ref:vcgi:esiteid" v="39529"/>
  </node>
  <node id="-777" visible="true" lat="44.13397762" lon="-73.08120242">
    <tag k="addr:city" v="Bristol"/>
    <tag k="addr:housenumber" v="26"/>
    <tag k="addr:street" v="West Street"/>
    <tag k="addr:state" v="VT"/>
    <tag k="ref:vcgi:esiteid" v="39530"/>
  </node>
  <node id="-778" visible="true" lat="44.13405103" lon="-73.07838552">
    <tag k="addr:city" v="Bristol"/>
    <tag k="addr:housenumber" v="12"/>
    <tag k="addr:street" v="North Street"/>
    <tag k="addr:state" v="VT"/>
    <tag k="ref:vcgi:esiteid" v="39531"/>
  </node>
  <node id="-779" visible="true" lat="44.13388061" lon="-73.0754776">
    <tag k="addr:city" v="Bristol"/>
    <tag k="addr:housenumber" v="13"/>
    <tag k="addr:street" v="Mountain Street"/>
    <tag k="addr:state" v="VT"/>
    <tag k="ref:vcgi:esiteid" v="39533"/>
  </node>
  <node id="-781" visible="true" lat="44.13392304" lon="-73.07501425">
    <tag k="addr:city" v="Bristol"/>
    <tag k="addr:housenumber" v="12"/>
    <tag k="addr:street" v="Mountain Street"/>
    <tag k="addr:state" v="VT"/>
    <tag k="ref:vcgi:esiteid" v="39535"/>
  </node>
  <node id="-782" visible="true" lat="44.13386264" lon="-73.0735768">
    <tag k="addr:city" v="Bristol"/>
    <tag k="addr:housenumber" v="12"/>
    <tag k="addr:street" v="High Street"/>
    <tag k="addr:state" v="VT"/>
    <tag k="ref:vcgi:esiteid" v="39536"/>
  </node>
  <node id="-783" visible="true" lat="44.134025" lon="-73.07378554">
    <tag k="addr:city" v="Bristol"/>
    <tag k="addr:housenumber" v="14"/>
    <tag k="addr:street" v="High Street"/>
    <tag k="addr:state" v="VT"/>
    <tag k="ref:vcgi:esiteid" v="39537"/>
  </node>
  <node id="-784" visible="true" lat="44.13365426" lon="-73.07545409">
    <tag k="addr:city" v="Bristol"/>
    <tag k="addr:housenumber" v="11"/>
    <tag k="addr:street" v="Mountain Street"/>
    <tag k="addr:state" v="VT"/>
    <tag k="ref:vcgi:esiteid" v="39538"/>
  </node>
  <node id="-785" visible="true" lat="44.13385463" lon="-73.08091532">
    <tag k="addr:city" v="Bristol"/>
    <tag k="addr:housenumber" v="22"/>
    <tag k="addr:street" v="West Street"/>
    <tag k="addr:state" v="VT"/>
    <tag k="ref:vcgi:esiteid" v="39539"/>
  </node>
  <node id="-786" visible="true" lat="44.13382567" lon="-73.07841241">
    <tag k="addr:city" v="Bristol"/>
    <tag k="addr:housenumber" v="8"/>
    <tag k="addr:street" v="North Street"/>
    <tag k="addr:state" v="VT"/>
    <tag k="ref:vcgi:esiteid" v="39540"/>
  </node>
  <node id="-787" visible="true" lat="44.13367403" lon="-73.08238988">
    <tag k="addr:city" v="Bristol"/>
    <tag k="addr:housenumber" v="35"/>
    <tag k="addr:street" v="West Street"/>
    <tag k="addr:state" v="VT"/>
    <tag k="ref:vcgi:esiteid" v="39541"/>
  </node>
  <node id="-789" visible="true" lat="44.13388054" lon="-73.08970028">
    <tag k="addr:city" v="Bristol"/>
    <tag k="addr:housenumber" v="56"/>
    <tag k="addr:street" v="Airport Drive"/>
    <tag k="addr:state" v="VT"/>
    <tag k="ref:vcgi:esiteid" v="39544"/>
  </node>
  <node id="-790" visible="true" lat="44.13371041" lon="-73.07494048">
    <tag k="addr:city" v="Bristol"/>
    <tag k="addr:housenumber" v="10"/>
    <tag k="addr:street" v="Mountain Street"/>
    <tag k="addr:state" v="VT"/>
    <tag k="ref:vcgi:esiteid" v="39546"/>
  </node>
  <node id="-791" visible="true" lat="44.13363266" lon="-73.08180999">
    <tag k="addr:city" v="Bristol"/>
    <tag k="addr:housenumber" v="31"/>
    <tag k="addr:street" v="West Street"/>
    <tag k="addr:state" v="VT"/>
    <tag k="ref:vcgi:esiteid" v="39547"/>
  </node>
  <node id="-792" visible="true" lat="44.13354647" lon="-73.08843687">
    <tag k="addr:city" v="Bristol"/>
    <tag k="addr:housenumber" v="76"/>
    <tag k="addr:street" v="West Street"/>
    <tag k="addr:state" v="VT"/>
    <tag k="ref:vcgi:esiteid" v="39548"/>
  </node>
  <node id="-793" visible="true" lat="44.13359451" lon="-73.08165741">
    <tag k="addr:city" v="Bristol"/>
    <tag k="addr:housenumber" v="29"/>
    <tag k="addr:street" v="West Street"/>
    <tag k="addr:state" v="VT"/>
    <tag k="ref:vcgi:esiteid" v="39549"/>
  </node>
  <node id="-794" visible="true" lat="44.13357925" lon="-73.08148956">
    <tag k="addr:city" v="Bristol"/>
    <tag k="addr:housenumber" v="27"/>
    <tag k="addr:street" v="West Street"/>
    <tag k="addr:state" v="VT"/>
    <tag k="ref:vcgi:esiteid" v="39550"/>
  </node>
  <node id="-796" visible="true" lat="44.1335411" lon="-73.08135986">
    <tag k="addr:city" v="Bristol"/>
    <tag k="addr:housenumber" v="25"/>
    <tag k="addr:street" v="West Street"/>
    <tag k="addr:state" v="VT"/>
    <tag k="ref:vcgi:esiteid" v="39554"/>
  </node>
  <node id="-798" visible="true" lat="44.13344542" lon="-73.08105857">
    <tag k="addr:city" v="Bristol"/>
    <tag k="addr:housenumber" v="23"/>
    <tag k="addr:street" v="West Street"/>
    <tag k="addr:state" v="VT"/>
    <tag k="ref:vcgi:esiteid" v="39557"/>
  </node>
  <node id="-800" visible="true" lat="44.13346481" lon="-73.07315826">
    <tag k="addr:city" v="Bristol"/>
    <tag k="addr:housenumber" v="54"/>
    <tag k="addr:street" v="Mountain Terrace"/>
    <tag k="addr:state" v="VT"/>
    <tag k="ref:vcgi:esiteid" v="39559"/>
  </node>
  <node id="-801" visible="true" lat="44.13328615" lon="-73.08073431">
    <tag k="addr:city" v="Bristol"/>
    <tag k="addr:housenumber" v="19"/>
    <tag k="addr:street" v="West Street"/>
    <tag k="addr:state" v="VT"/>
    <tag k="ref:vcgi:esiteid" v="39560"/>
  </node>
  <node id="-802" visible="true" lat="44.13333724" lon="-73.07431512">
    <tag k="addr:city" v="Bristol"/>
    <tag k="addr:housenumber" v="45"/>
    <tag k="addr:street" v="Mountain Terrace"/>
    <tag k="addr:state" v="VT"/>
    <tag k="ref:vcgi:esiteid" v="39561"/>
  </node>
  <node id="-803" visible="true" lat="44.13341029" lon="-73.08781504">
    <tag k="addr:city" v="Bristol"/>
    <tag k="addr:housenumber" v="73"/>
    <tag k="addr:street" v="West Street"/>
    <tag k="addr:state" v="VT"/>
    <tag k="ref:vcgi:esiteid" v="39563"/>
  </node>
  <node id="-804" visible="true" lat="44.13331669" lon="-73.07353068">
    <tag k="addr:city" v="Bristol"/>
    <tag k="addr:housenumber" v="53"/>
    <tag k="addr:street" v="Mountain Terrace"/>
    <tag k="addr:state" v="VT"/>
    <tag k="ref:vcgi:esiteid" v="39564"/>
  </node>
  <node id="-805" visible="true" lat="44.13333892" lon="-73.07299041">
    <tag k="addr:city" v="Bristol"/>
    <tag k="addr:housenumber" v="56"/>
    <tag k="addr:street" v="Mountain Terrace"/>
    <tag k="addr:state" v="VT"/>
    <tag k="ref:vcgi:esiteid" v="39566"/>
  </node>
  <node id="-808" visible="true" lat="44.1332691" lon="-73.08027147">
    <tag k="addr:city" v="Bristol"/>
    <tag k="addr:housenumber" v="15"/>
    <tag k="addr:street" v="West Street"/>
    <tag k="addr:state" v="VT"/>
    <tag k="ref:vcgi:esiteid" v="39569"/>
  </node>
  <node id="-809" visible="true" lat="44.13308251" lon="-73.07969111">
    <tag k="addr:city" v="Bristol"/>
    <tag k="addr:housenumber" v="11"/>
    <tag k="addr:street" v="West Street"/>
    <tag k="addr:state" v="VT"/>
    <tag k="ref:vcgi:esiteid" v="39570"/>
  </node>
  <node id="-810" visible="true" lat="44.1332837" lon="-73.07793695">
    <tag k="addr:city" v="Bristol"/>
    <tag k="addr:housenumber" v="8"/>
    <tag k="addr:street" v="Main Street"/>
    <tag k="addr:state" v="VT"/>
    <tag k="ref:vcgi:esiteid" v="39572"/>
  </node>
  <node id="-811" visible="true" lat="44.13326885" lon="-73.07786807">
    <tag k="addr:city" v="Bristol"/>
    <tag k="addr:housenumber" v="10"/>
    <tag k="addr:street" v="Main Street"/>
    <tag k="addr:state" v="VT"/>
    <tag k="ref:vcgi:esiteid" v="39574"/>
  </node>
  <node id="-815" visible="true" lat="44.13323553" lon="-73.07770913">
    <tag k="addr:city" v="Bristol"/>
    <tag k="addr:housenumber" v="16"/>
    <tag k="addr:street" v="Main Street"/>
    <tag k="addr:state" v="VT"/>
    <tag k="ref:vcgi:esiteid" v="39578"/>
  </node>
  <node id="-817" visible="true" lat="44.13321134" lon="-73.07760866">
    <tag k="addr:city" v="Bristol"/>
    <tag k="addr:housenumber" v="18"/>
    <tag k="addr:street" v="Main Street"/>
    <tag k="addr:state" v="VT"/>
    <tag k="ref:vcgi:esiteid" v="39581"/>
  </node>
  <node id="-820" visible="true" lat="44.13316976" lon="-73.07730335">
    <tag k="addr:city" v="Bristol"/>
    <tag k="addr:housenumber" v="24"/>
    <tag k="addr:street" v="Main Street"/>
    <tag k="addr:state" v="VT"/>
    <tag k="ref:vcgi:esiteid" v="39584"/>
  </node>
  <node id="-821" visible="true" lat="44.13315439" lon="-73.07722387">
    <tag k="addr:city" v="Bristol"/>
    <tag k="addr:housenumber" v="26"/>
    <tag k="addr:street" v="Main Street"/>
    <tag k="addr:state" v="VT"/>
    <tag k="ref:vcgi:esiteid" v="39585"/>
  </node>
  <node id="-822" visible="true" lat="44.13292012" lon="-73.07823038">
    <tag k="addr:city" v="Bristol"/>
    <tag k="addr:housenumber" v="5"/>
    <tag k="addr:street" v="Main Street"/>
    <tag k="addr:state" v="VT"/>
    <tag k="ref:vcgi:esiteid" v="39586"/>
  </node>
  <node id="-823" visible="true" lat="44.13295215" lon="-73.0784555">
    <tag k="addr:city" v="Bristol"/>
    <tag k="addr:housenumber" v="1"/>
    <tag k="addr:street" v="Main Street"/>
    <tag k="addr:state" v="VT"/>
    <tag k="ref:vcgi:esiteid" v="39587"/>
  </node>
  <node id="-828" visible="true" lat="44.13288879" lon="-73.07770538">
    <tag k="addr:city" v="Bristol"/>
    <tag k="addr:housenumber" v="17"/>
    <tag k="addr:street" v="Main Street"/>
    <tag k="addr:state" v="VT"/>
    <tag k="ref:vcgi:esiteid" v="39593"/>
  </node>
  <node id="-832" visible="true" lat="44.13282891" lon="-73.07748961">
    <tag k="addr:city" v="Bristol"/>
    <tag k="addr:housenumber" v="21"/>
    <tag k="addr:street" v="Main Street"/>
    <tag k="addr:state" v="VT"/>
    <tag k="ref:vcgi:esiteid" v="39598"/>
  </node>
  <node id="-833" visible="true" lat="44.13297352" lon="-73.07894147">
    <tag k="addr:city" v="Bristol"/>
    <tag k="addr:housenumber" v="1"/>
    <tag k="addr:street" v="South Street"/>
    <tag k="addr:state" v="VT"/>
    <tag k="ref:vcgi:esiteid" v="39599"/>
  </node>
  <node id="-834" visible="true" lat="44.13295489" lon="-73.07607888">
    <tag k="addr:city" v="Bristol"/>
    <tag k="addr:housenumber" v="36"/>
    <tag k="addr:street" v="Main Street"/>
    <tag k="addr:state" v="VT"/>
    <tag k="ref:vcgi:esiteid" v="39601"/>
  </node>
  <node id="-835" visible="true" lat="44.13284301" lon="-73.073143">
    <tag k="addr:city" v="Bristol"/>
    <tag k="addr:housenumber" v="57"/>
    <tag k="addr:street" v="Mountain Terrace"/>
    <tag k="addr:state" v="VT"/>
    <tag k="ref:vcgi:esiteid" v="39602"/>
  </node>
  <node id="-837" visible="true" lat="44.13285082" lon="-73.07246835">
    <tag k="addr:city" v="Bristol"/>
    <tag k="addr:housenumber" v="60"/>
    <tag k="addr:street" v="Mountain Terrace"/>
    <tag k="addr:state" v="VT"/>
    <tag k="ref:vcgi:esiteid" v="39604"/>
  </node>
  <node id="-838" visible="true" lat="44.13279198" lon="-73.07731727">
    <tag k="addr:city" v="Bristol"/>
    <tag k="addr:housenumber" v="25"/>
    <tag k="addr:street" v="Main Street"/>
    <tag k="addr:state" v="VT"/>
    <tag k="ref:vcgi:esiteid" v="39605"/>
  </node>
  <node id="-844" visible="true" lat="44.13269824" lon="-73.07896624">
    <tag k="addr:city" v="Bristol"/>
    <tag k="addr:housenumber" v="5"/>
    <tag k="addr:street" v="South Street"/>
    <tag k="addr:state" v="VT"/>
    <tag k="ref:vcgi:esiteid" v="39612"/>
  </node>
  <node id="-845" visible="true" lat="44.13249388" lon="-73.07848602">
    <tag k="addr:city" v="Bristol"/>
    <tag k="addr:housenumber" v="4"/>
    <tag k="addr:street" v="South Street"/>
    <tag k="addr:state" v="VT"/>
    <tag k="ref:vcgi:esiteid" v="39613"/>
  </node>
  <node id="-847" visible="true" lat="44.13252673" lon="-73.07901781">
    <tag k="addr:city" v="Bristol"/>
    <tag k="addr:housenumber" v="7"/>
    <tag k="addr:street" v="South Street"/>
    <tag k="addr:state" v="VT"/>
    <tag k="ref:vcgi:esiteid" v="39616"/>
  </node>
  <node id="-849" visible="true" lat="44.13251953" lon="-73.0721509">
    <tag k="addr:city" v="Bristol"/>
    <tag k="addr:housenumber" v="64"/>
    <tag k="addr:street" v="Mountain Terrace"/>
    <tag k="addr:state" v="VT"/>
    <tag k="ref:vcgi:esiteid" v="39618"/>
  </node>
  <node id="-850" visible="true" lat="44.13245079" lon="-73.07279815">
    <tag k="addr:city" v="Bristol"/>
    <tag k="addr:housenumber" v="61"/>
    <tag k="addr:street" v="Mountain Terrace"/>
    <tag k="addr:state" v="VT"/>
    <tag k="ref:vcgi:esiteid" v="39619"/>
  </node>
  <node id="-854" visible="true" lat="44.13233947" lon="-73.07894134">
    <tag k="addr:city" v="Bristol"/>
    <tag k="addr:housenumber" v="9"/>
    <tag k="addr:street" v="South Street"/>
    <tag k="addr:state" v="VT"/>
    <tag k="ref:vcgi:esiteid" v="39624"/>
  </node>
  <node id="-858" visible="true" lat="44.13235026" lon="-73.07196565">
    <tag k="addr:city" v="Bristol"/>
    <tag k="addr:housenumber" v="66"/>
    <tag k="addr:street" v="Mountain Terrace"/>
    <tag k="addr:state" v="VT"/>
    <tag k="ref:vcgi:esiteid" v="39628"/>
  </node>
  <node id="-861" visible="true" lat="44.13213578" lon="-73.07943284">
    <tag k="addr:city" v="Bristol"/>
    <tag k="addr:housenumber" v="11"/>
    <tag k="addr:street" v="South Street"/>
    <tag k="addr:state" v="VT"/>
    <tag k="ref:vcgi:esiteid" v="39633"/>
  </node>
  <node id="-863" visible="true" lat="44.13207951" lon="-73.07902741">
    <tag k="addr:city" v="Bristol"/>
    <tag k="addr:housenumber" v="13"/>
    <tag k="addr:street" v="South Street"/>
    <tag k="addr:state" v="VT"/>
    <tag k="ref:vcgi:esiteid" v="39635"/>
  </node>
  <node id="-867" visible="true" lat="44.13219813" lon="-73.07852351">
    <tag k="addr:city" v="Bristol"/>
    <tag k="addr:housenumber" v="8"/>
    <tag k="addr:street" v="South Street"/>
    <tag k="addr:state" v="VT"/>
    <tag k="ref:vcgi:esiteid" v="39641"/>
  </node>
  <node id="-869" visible="true" lat="44.13208" lon="-73.0717016">
    <tag k="addr:city" v="Bristol"/>
    <tag k="addr:housenumber" v="68"/>
    <tag k="addr:street" v="Mountain Terrace"/>
    <tag k="addr:state" v="VT"/>
    <tag k="ref:vcgi:esiteid" v="39643"/>
  </node>
  <node id="-870" visible="true" lat="44.13192202" lon="-73.0721549">
    <tag k="addr:city" v="Bristol"/>
    <tag k="addr:housenumber" v="69"/>
    <tag k="addr:street" v="Mountain Terrace"/>
    <tag k="addr:state" v="VT"/>
    <tag k="ref:vcgi:esiteid" v="39644"/>
  </node>
  <node id="-876" visible="true" lat="44.13203771" lon="-73.07854766">
    <tag k="addr:city" v="Bristol"/>
    <tag k="addr:housenumber" v="14"/>
    <tag k="addr:street" v="South Street"/>
    <tag k="addr:state" v="VT"/>
    <tag k="ref:vcgi:esiteid" v="39650"/>
  </node>
  <node id="-883" visible="true" lat="44.13157455" lon="-73.0716713">
    <tag k="addr:city" v="Bristol"/>
    <tag k="addr:housenumber" v="71"/>
    <tag k="addr:street" v="Mountain Terrace"/>
    <tag k="addr:state" v="VT"/>
    <tag k="ref:vcgi:esiteid" v="39657"/>
  </node>
  <node id="-953" visible="true" lat="44.12854712" lon="-73.05232797">
    <tag k="addr:city" v="Bristol"/>
    <tag k="addr:housenumber" v="806"/>
    <tag k="addr:street" v="Rockydale Road"/>
    <tag k="addr:state" v="VT"/>
    <tag k="ref:vcgi:esiteid" v="39736"/>
  </node>
  <node id="-991" visible="true" lat="44.12712379" lon="-73.06065693">
    <tag k="addr:city" v="Bristol"/>
    <tag k="addr:housenumber" v="372"/>
    <tag k="addr:street" v="Rockydale Road"/>
    <tag k="addr:state" v="VT"/>
    <tag k="ref:vcgi:esiteid" v="39779"/>
  </node>
  <node id="-1310" visible="true" lat="44.05468737" lon="-73.0951254">
    <tag k="addr:city" v="Bristol"/>
    <tag k="addr:housenumber" v="1077"/>
    <tag k="addr:street" v="Cobble Road"/>
    <tag k="addr:state" v="VT"/>
    <tag k="ref:vcgi:esiteid" v="40130"/>
  </node>
  <node id="-1318" visible="true" lat="44.13864175" lon="-73.07874155">
    <tag k="addr:city" v="Bristol"/>
    <tag k="addr:housenumber" v="9"/>
    <tag k="addr:street" v="Fitch Avenue"/>
    <tag k="addr:state" v="VT"/>
    <tag k="ref:vcgi:esiteid" v="40138"/>
  </node>
  <node id="-1327" visible="true" lat="44.13311817" lon="-73.07273759">
    <tag k="addr:city" v="Bristol"/>
    <tag k="addr:housenumber" v="58"/>
    <tag k="addr:street" v="Mountain Terrace"/>
    <tag k="addr:state" v="VT"/>
    <tag k="ref:vcgi:esiteid" v="40148"/>
  </node>
  <node id="-1355" visible="true" lat="44.05520368" lon="-73.09309748">
    <tag k="addr:city" v="Bristol"/>
    <tag k="addr:housenumber" v="1155"/>
    <tag k="addr:street" v="Cobble Road"/>
    <tag k="addr:state" v="VT"/>
    <tag k="ref:vcgi:esiteid" v="40179"/>
  </node>
  <node id="-1358" visible="true" lat="44.14204879" lon="-73.08063844">
    <tag k="addr:city" v="Bristol"/>
    <tag k="addr:housenumber" v="98"/>
    <tag k="addr:street" v="North Street"/>
    <tag k="addr:state" v="VT"/>
    <tag k="ref:vcgi:esiteid" v="40182"/>
  </node>
  <node id="-1397" visible="true" lat="44.14164004" lon="-73.07883654">
    <tag k="addr:city" v="Bristol"/>
    <tag k="addr:housenumber" v="61"/>
    <tag k="addr:street" v="Hidden Drive"/>
    <tag k="addr:state" v="VT"/>
    <tag k="ref:vcgi:esiteid" v="40241"/>
  </node>
  <node id="-1426" visible="true" lat="44.1416593" lon="-73.07779652">
    <tag k="addr:city" v="Bristol"/>
    <tag k="addr:housenumber" v="11"/>
    <tag k="addr:street" v="Hidden Drive"/>
    <tag k="addr:state" v="VT"/>
    <tag k="ref:vcgi:esiteid" v="40274"/>
  </node>
  <node id="-1432" visible="true" lat="44.13516228" lon="-73.07647778">
    <tag k="addr:city" v="Bristol"/>
    <tag k="addr:housenumber" v="33"/>
    <tag k="addr:street" v="Garfield Street"/>
    <tag k="addr:state" v="VT"/>
    <tag k="ref:vcgi:esiteid" v="40281"/>
  </node>
  <node id="-1433" visible="true" lat="44.1348817" lon="-73.07751054">
    <tag k="addr:city" v="Bristol"/>
    <tag k="addr:housenumber" v="17"/>
    <tag k="addr:street" v="Garfield Street"/>
    <tag k="addr:state" v="VT"/>
    <tag k="ref:vcgi:esiteid" v="40282"/>
  </node>
  <node id="-1434" visible="true" lat="44.13644868" lon="-73.07639395">
    <tag k="addr:city" v="Bristol"/>
    <tag k="addr:housenumber" v="43"/>
    <tag k="addr:street" v="Mountain Street"/>
    <tag k="addr:state" v="VT"/>
    <tag k="ref:vcgi:esiteid" v="40283"/>
  </node>
  <node id="-1435" visible="true" lat="44.1395903" lon="-73.07685512">
    <tag k="addr:city" v="Bristol"/>
    <tag k="addr:housenumber" v="74"/>
    <tag k="addr:street" v="Mountain Street"/>
    <tag k="addr:state" v="VT"/>
    <tag k="ref:vcgi:esiteid" v="40284"/>
  </node>
  <node id="-1473" visible="true" lat="44.14074083" lon="-73.07942043">
    <tag k="addr:city" v="Bristol"/>
    <tag k="addr:housenumber" v="88"/>
    <tag k="addr:street" v="North Street"/>
    <tag k="addr:state" v="VT"/>
    <tag k="ref:vcgi:esiteid" v="314382"/>
  </node>
  <node id="-1483" visible="true" lat="44.1403827" lon="-73.0761477">
    <tag k="addr:city" v="Bristol"/>
    <tag k="addr:housenumber" v="76"/>
    <tag k="addr:street" v="Mountain Street"/>
    <tag k="addr:state" v="VT"/>
    <tag k="ref:vcgi:esiteid" v="314397"/>
  </node>
  <node id="-1487" visible="true" lat="44.13652573" lon="-73.07524329">
    <tag k="addr:city" v="Bristol"/>
    <tag k="addr:housenumber" v="42"/>
    <tag k="addr:street" v="Mountain Street"/>
    <tag k="addr:state" v="VT"/>
    <tag k="ref:vcgi:esiteid" v="314404"/>
  </node>
  <node id="-1488" visible="true" lat="44.13609595" lon="-73.07851582">
    <tag k="addr:city" v="Bristol"/>
    <tag k="addr:housenumber" v="44"/>
    <tag k="addr:street" v="North Street"/>
    <tag k="addr:state" v="VT"/>
    <tag k="ref:vcgi:esiteid" v="314405"/>
  </node>
  <node id="-1489" visible="true" lat="44.13546838" lon="-73.07634756">
    <tag k="addr:city" v="Bristol"/>
    <tag k="addr:housenumber" v="34"/>
    <tag k="addr:street" v="Garfield Street"/>
    <tag k="addr:state" v="VT"/>
    <tag k="ref:vcgi:esiteid" v="314406"/>
  </node>
  <node id="-1491" visible="true" lat="44.13474325" lon="-73.07843612">
    <tag k="addr:city" v="Bristol"/>
    <tag k="addr:housenumber" v="20"/>
    <tag k="addr:street" v="North Street"/>
    <tag k="addr:state" v="VT"/>
    <tag k="ref:vcgi:esiteid" v="314410"/>
  </node>
  <node id="-1492" visible="true" lat="44.13428253" lon="-73.07696713">
    <tag k="addr:city" v="Bristol"/>
    <tag k="addr:housenumber" v="25"/>
    <tag k="addr:street" v="Mountain View Street"/>
    <tag k="addr:state" v="VT"/>
    <tag k="ref:vcgi:esiteid" v="314411"/>
  </node>
  <node id="-1502" visible="true" lat="44.05468502" lon="-73.09466865">
    <tag k="addr:city" v="Bristol"/>
    <tag k="addr:housenumber" v="1097"/>
    <tag k="addr:street" v="Cobble Road"/>
    <tag k="addr:state" v="VT"/>
    <tag k="ref:vcgi:esiteid" v="314429"/>
  </node>
  <node id="-1503" visible="true" lat="44.05572642" lon="-73.09398557">
    <tag k="addr:city" v="Bristol"/>
    <tag k="addr:housenumber" v="1105"/>
    <tag k="addr:street" v="Cobble Road"/>
    <tag k="addr:state" v="VT"/>
    <tag k="ref:vcgi:esiteid" v="314430"/>
  </node>
  <node id="-1507" visible="true" lat="44.1333232" lon="-73.0876304">
    <tag k="addr:city" v="Bristol"/>
    <tag k="addr:housenumber" v="71"/>
    <tag k="addr:street" v="West Street"/>
    <tag k="addr:state" v="VT"/>
    <tag k="ref:vcgi:esiteid" v="315590"/>
  </node>
  <node id="-1518" visible="true" lat="44.13344271" lon="-73.08073479">
    <tag k="addr:city" v="Bristol"/>
    <tag k="addr:housenumber" v="21"/>
    <tag k="addr:street" v="West Street"/>
    <tag k="addr:state" v="VT"/>
    <tag k="ref:vcgi:esiteid" v="318117"/>
  </node>
  <node id="-1528" visible="true" lat="44.13338613" lon="-73.07383838">
    <tag k="addr:city" v="Bristol"/>
    <tag k="addr:housenumber" v="51"/>
    <tag k="addr:street" v="Mountain Terrace"/>
    <tag k="addr:state" v="VT"/>
    <tag k="ref:vcgi:esiteid" v="325214"/>
  </node>
  <node id="-1529" visible="true" lat="44.14410043" lon="-73.0819109">
    <tag k="addr:city" v="Bristol"/>
    <tag k="addr:housenumber" v="9"/>
    <tag k="addr:street" v="Meadow Lane"/>
    <tag k="addr:state" v="VT"/>
    <tag k="ref:vcgi:esiteid" v="326319"/>
  </node>
  <node id="-1540" visible="true" lat="44.1335785" lon="-73.07635179">
    <tag k="addr:city" v="Bristol"/>
    <tag k="addr:housenumber" v="21"/>
    <tag k="addr:street" v="Prince Lane"/>
    <tag k="addr:state" v="VT"/>
    <tag k="ref:vcgi:esiteid" v="329861"/>
  </node>
  <node id="-1545" visible="true" lat="44.13914026" lon="-73.07903917">
    <tag k="addr:city" v="Bristol"/>
    <tag k="addr:housenumber" v="70"/>
    <tag k="addr:street" v="North Street"/>
    <tag k="addr:state" v="VT"/>
    <tag k="ref:vcgi:esiteid" v="330984"/>
  </node>
  <node id="-1551" visible="true" lat="44.134915" lon="-73.07717601">
    <tag k="addr:city" v="Bristol"/>
    <tag k="addr:housenumber" v="21"/>
    <tag k="addr:street" v="Garfield Street"/>
    <tag k="addr:state" v="VT"/>
    <tag k="ref:vcgi:esiteid" v="331804"/>
  </node>
  <node id="-1557" visible="true" lat="44.13293079" lon="-73.0783264">
    <tag k="addr:city" v="Bristol"/>
    <tag k="addr:housenumber" v="3"/>
    <tag k="addr:street" v="Main Street"/>
    <tag k="addr:state" v="VT"/>
    <tag k="ref:vcgi:esiteid" v="332769"/>
  </node>
  <node id="-1558" visible="true" lat="44.13275888" lon="-73.07708168">
    <tag k="addr:city" v="Bristol"/>
    <tag k="addr:housenumber" v="27"/>
    <tag k="addr:street" v="Main Street"/>
    <tag k="addr:state" v="VT"/>
    <tag k="ref:vcgi:esiteid" v="332772"/>
  </node>
  <node id="-1591" visible="true" lat="44.14285414" lon="-73.08157073">
    <tag k="addr:city" v="Bristol"/>
    <tag k="addr:housenumber" v="49"/>
    <tag k="addr:street" v="Devino Lane"/>
    <tag k="addr:state" v="VT"/>
    <tag k="ref:vcgi:esiteid" v="338861"/>
  </node>
  <node id="-1597" visible="true" lat="44.13771659" lon="-73.07889385">
    <tag k="addr:city" v="Bristol"/>
    <tag k="addr:housenumber" v="60"/>
    <tag k="addr:street" v="North Street"/>
    <tag k="addr:state" v="VT"/>
    <tag k="ref:vcgi:esiteid" v="339279"/>
  </node>
  <node id="-1598" visible="true" lat="44.13385664" lon="-73.08299393">
    <tag k="addr:city" v="Bristol"/>
    <tag k="addr:housenumber" v="39"/>
    <tag k="addr:street" v="West Street"/>
    <tag k="addr:state" v="VT"/>
    <tag k="ref:vcgi:esiteid" v="339280"/>
  </node>
  <node id="-1607" visible="true" lat="44.13962084" lon="-73.07903249">
    <!-- match: "25 Ezras Way, Bristol, VT"  ignoring street punctuation to "25 Ezra's Way, Bristol, VT" -->
    <tag k="addr:city" v="Bristol"/>
    <tag k="addr:housenumber" v="25"/>
    <tag k="addr:street" v="Ezras Way"/>
    <tag k="addr:state" v="VT"/>
    <tag k="ref:vcgi:esiteid" v="341056"/>
  </node>
  <node id="-1611" visible="true" lat="44.14374918" lon="-73.08030024">
    <tag k="addr:city" v="Bristol"/>
    <tag k="addr:housenumber" v="4"/>
    <tag k="addr:street" v="Meadow Lane"/>
    <tag k="addr:state" v="VT"/>
    <tag k="ref:vcgi:esiteid" v="344491"/>
  </node>
  <node id="-1613" visible="true" lat="44.16325914" lon="-73.01912917">
    <tag k="addr:city" v="Bristol"/>
    <tag k="addr:housenumber" v="40"/>
    <tag k="addr:street" v="Ed Orvis Road"/>
    <tag k="addr:state" v="VT"/>
    <tag k="ref:vcgi:esiteid" v="344493"/>
  </node>
  <node id="-1614" visible="true" lat="44.13311938" lon="-73.07696559">
    <tag k="addr:city" v="Bristol"/>
    <tag k="addr:housenumber" v="28"/>
    <tag k="addr:street" v="Main Street"/>
    <tag k="addr:state" v="VT"/>
    <tag k="ref:vcgi:esiteid" v="344494"/>
  </node>
  <node id="-1629" visible="true" lat="44.13212963" lon="-73.07823933">
    <tag k="addr:city" v="Bristol"/>
    <tag k="addr:housenumber" v="10"/>
    <tag k="addr:street" v="South Street"/>
    <tag k="addr:state" v="VT"/>
    <tag k="ref:vcgi:esiteid" v="365082"/>
  </node>
  <node id="-1631" visible="true" lat="44.13434841" lon="-73.08257801">
    <tag k="addr:city" v="Bristol"/>
    <tag k="addr:housenumber" v="36"/>
    <tag k="addr:street" v="West Street"/>
    <tag k="addr:state" v="VT"/>
    <tag k="ref:vcgi:esiteid" v="446480"/>
  </node>
  <node id="-1636" visible="true" lat="44.13959952" lon="-73.07794715">
    <!-- match: "35 Ezras Way, Bristol, VT"  ignoring street punctuation to "35 Ezra's Way, Bristol, VT" -->
    <tag k="addr:city" v="Bristol"/>
    <tag k="addr:housenumber" v="35"/>
    <tag k="addr:street" v="Ezras Way"/>
    <tag k="addr:state" v="VT"/>
    <tag k="ref:vcgi:esiteid" v="448213"/>
  </node>
  <node id="-1648" visible="true" lat="44.1344253" lon="-73.07572257">
    <tag k="addr:city" v="Bristol"/>
    <tag k="addr:housenumber" v="19"/>
    <tag k="addr:street" v="Mountain Street"/>
    <tag k="addr:state" v="VT"/>
    <tag k="ref:vcgi:esiteid" v="451268"/>
  </node>
  <node id="-1675" visible="true" lat="44.16973367" lon="-73.11842094">
    <tag k="addr:city" v="Bristol"/>
    <tag k="addr:housenumber" v="1705"/>
    <tag k="addr:street" v="Hardscrabble Road"/>
    <tag k="addr:state" v="VT"/>
    <tag k="ref:vcgi:esiteid" v="454960"/>
  </node>
  <node id="-1684" visible="true" lat="44.14330128" lon="-73.0812196">
    <tag k="addr:city" v="Bristol"/>
    <tag k="addr:housenumber" v="3"/>
    <tag k="addr:street" v="Meadow Lane"/>
    <tag k="addr:state" v="VT"/>
    <tag k="ref:vcgi:esiteid" v="612314"/>
  </node>
  <node id="-1685" visible="true" lat="44.13381797" lon="-73.087854">
    <tag k="addr:city" v="Bristol"/>
    <tag k="addr:housenumber" v="13"/>
    <tag k="addr:street" v="Liberty Street"/>
    <tag k="addr:state" v="VT"/>
    <tag k="ref:vcgi:esiteid" v="612916"/>
  </node>
  <node id="-1686" visible="true" lat="44.13410671" lon="-73.08783229">
    <tag k="addr:city" v="Bristol"/>
    <tag k="addr:housenumber" v="15"/>
    <tag k="addr:street" v="Liberty Street"/>
    <tag k="addr:state" v="VT"/>
    <tag k="ref:vcgi:esiteid" v="612917"/>
  </node>
  <node id="-1689" visible="true" lat="44.13453871" lon="-73.07780543">
    <tag k="addr:city" v="Bristol"/>
    <tag k="addr:housenumber" v="2"/>
    <tag k="addr:street" v="Sprout Street"/>
    <tag k="addr:state" v="VT"/>
    <tag k="ref:vcgi:esiteid" v="613154"/>
  </node>
  <node id="-1690" visible="true" lat="44.13442896" lon="-73.07765888">
    <tag k="addr:city" v="Bristol"/>
    <tag k="addr:housenumber" v="6"/>
    <tag k="addr:street" v="Sprout Street"/>
    <tag k="addr:state" v="VT"/>
    <tag k="ref:vcgi:esiteid" v="613155"/>
  </node>
  <node id="-1691" visible="true" lat="44.13427276" lon="-73.07765736">
    <tag k="addr:city" v="Bristol"/>
    <tag k="addr:housenumber" v="16"/>
    <tag k="addr:street" v="Sprout Street"/>
    <tag k="addr:state" v="VT"/>
    <tag k="ref:vcgi:esiteid" v="613156"/>
  </node>
  <node id="-1692" visible="true" lat="44.13409181" lon="-73.07765295">
    <tag k="addr:city" v="Bristol"/>
    <tag k="addr:housenumber" v="28"/>
    <tag k="addr:street" v="Sprout Street"/>
    <tag k="addr:state" v="VT"/>
    <tag k="ref:vcgi:esiteid" v="613157"/>
  </node>
  <node id="-1693" visible="true" lat="44.13393397" lon="-73.07797411">
    <tag k="addr:city" v="Bristol"/>
    <tag k="addr:housenumber" v="34"/>
    <tag k="addr:street" v="Sprout Street"/>
    <tag k="addr:state" v="VT"/>
    <tag k="ref:vcgi:esiteid" v="613158"/>
  </node>
  <node id="-1694" visible="true" lat="44.13426378" lon="-73.07830268">
    <tag k="addr:city" v="Bristol"/>
    <tag k="addr:housenumber" v="14"/>
    <tag k="addr:street" v="North Street"/>
    <tag k="addr:state" v="VT"/>
    <tag k="ref:vcgi:esiteid" v="613159"/>
  </node>
  <node id="-1720" visible="true" lat="44.13603149" lon="-73.07521851">
    <tag k="addr:city" v="Bristol"/>
    <tag k="addr:housenumber" v="34"/>
    <tag k="addr:street" v="Mountain Street"/>
    <tag k="addr:state" v="VT"/>
    <tag k="ref:vcgi:esiteid" v="751379"/>
  </node>
  <node id="-1727" visible="true" lat="44.1424369" lon="-73.08078471">
    <tag k="addr:city" v="Bristol"/>
    <tag k="addr:housenumber" v="70"/>
    <tag k="addr:street" v="Devino Lane"/>
    <tag k="addr:state" v="VT"/>
    <tag k="ref:vcgi:esiteid" v="753175"/>
  </node>
  <node id="-1737" visible="true" lat="44.12945557" lon="-73.06863279">
    <tag k="addr:city" v="Bristol"/>
    <tag k="addr:housenumber" v="125"/>
    <tag k="addr:street" v="East Street"/>
    <tag k="addr:state" v="VT"/>
    <tag k="ref:vcgi:esiteid" v="753929"/>
  </node>
  <node id="-1740" visible="true" lat="44.13555735" lon="-73.07817101">
    <tag k="addr:city" v="Bristol"/>
    <tag k="addr:housenumber" v="34"/>
    <tag k="addr:street" v="North Street"/>
    <tag k="addr:state" v="VT"/>
    <tag k="ref:vcgi:esiteid" v="753938"/>
  </node>
  <node id="-1765" visible="true" lat="44.14298848" lon="-73.08094757">
    <tag k="addr:city" v="Bristol"/>
    <tag k="addr:housenumber" v="1"/>
    <tag k="addr:street" v="Meadow Lane"/>
    <tag k="addr:state" v="VT"/>
    <tag k="ref:vcgi:esiteid" v="755730"/>
  </node>
  <node id="-1767" visible="true" lat="44.1465889" lon="-73.08487228">
    <tag k="addr:city" v="Bristol"/>
    <tag k="addr:housenumber" v="24"/>
    <tag k="addr:street" v="Hazel Drive"/>
    <tag k="addr:state" v="VT"/>
    <tag k="ref:vcgi:esiteid" v="755843"/>
  </node>
  <node id="-1768" visible="true" lat="44.14683406" lon="-73.08465974">
    <tag k="addr:city" v="Bristol"/>
    <tag k="addr:housenumber" v="26"/>
    <tag k="addr:street" v="Hazel Drive"/>
    <tag k="addr:state" v="VT"/>
    <tag k="ref:vcgi:esiteid" v="755844"/>
  </node>
  <node id="-1837" visible="true" lat="44.13392032" lon="-73.0778217">
    <tag k="addr:city" v="Bristol"/>
    <tag k="addr:housenumber" v="32"/>
    <tag k="addr:street" v="Sprout Street"/>
    <tag k="addr:state" v="VT"/>
    <tag k="ref:vcgi:esiteid" v="900409"/>
  </node>
</osm>
