<?xml version="1.0" encoding="UTF-8"?>
<osm version="0.6" generator="JOSM" upload="false">
  <node id="-102" visible="true" lat="44.08515755" lon="-72.62956211">
    <!-- offset: "934 Howe Road, , VT" Significant offset - 617.4m -->
    <tag k="addr:housenumber" v="934"/>
    <tag k="addr:street" v="Howe Road"/>
    <tag k="addr:state" v="VT"/>
    <tag k="ref:vcgi:esiteid" v="40288"/>
  </node>
  <node id="-747" visible="true" lat="44.05578644" lon="-72.54515457">
    <!-- offset: "1574 Taylor Hill Road, , VT" Significant offset - 445.2m -->
    <tag k="addr:housenumber" v="1574"/>
    <tag k="addr:street" v="Taylor Hill Road"/>
    <tag k="addr:state" v="VT"/>
    <tag k="ref:vcgi:esiteid" v="40957"/>
  </node>
  <node id="-928" visible="true" lat="44.01318378" lon="-72.68173805">
    <!-- offset: "500 Bouvant Road, , VT" Significant offset - 159.9m -->
    <tag k="addr:housenumber" v="500"/>
    <tag k="addr:street" v="Bouvant Road"/>
    <tag k="addr:state" v="VT"/>
    <tag k="ref:vcgi:esiteid" v="765577"/>
  </node>
  <node id="-929" visible="true" lat="44.01318993" lon="-72.68161021">
    <!-- offset: "498 Bouvant Road, , VT" Significant offset - 161.7m -->
    <tag k="addr:housenumber" v="498"/>
    <tag k="addr:street" v="Bouvant Road"/>
    <tag k="addr:state" v="VT"/>
    <tag k="ref:vcgi:esiteid" v="765578"/>
  </node>
  <node id="-930" visible="true" lat="44.01317747" lon="-72.68196075">
    <!-- offset: "502 Bouvant Road, , VT" Significant offset - 162.7m -->
    <tag k="addr:housenumber" v="502"/>
    <tag k="addr:street" v="Bouvant Road"/>
    <tag k="addr:state" v="VT"/>
    <tag k="ref:vcgi:esiteid" v="765579"/>
  </node>
</osm>
