<?xml version="1.0" encoding="UTF-8"?>
<osm version="0.6" generator="JOSM">
  <node id="-324" visible="true" lat="44.81982105" lon="-72.13770493">
    <tag k="addr:city" v="Brownington"/>
    <tag k="addr:housenumber" v="103"/>
    <tag k="addr:street" v="Chase Road"/>
    <tag k="addr:state" v="VT"/>
    <tag k="ref:vcgi:esiteid" v="41504"/>
  </node>
  <node id="-354" visible="true" lat="44.81295615" lon="-72.16188788">
    <tag k="addr:city" v="Brownington"/>
    <tag k="addr:housenumber" v="119"/>
    <tag k="addr:street" v="Center Road"/>
    <tag k="addr:state" v="VT"/>
    <tag k="ref:vcgi:esiteid" v="41534"/>
  </node>
  <node id="-356" visible="true" lat="44.81276506" lon="-72.16054507">
    <tag k="addr:city" v="Brownington"/>
    <tag k="addr:housenumber" v="189"/>
    <tag k="addr:street" v="Center Road"/>
    <tag k="addr:state" v="VT"/>
    <tag k="ref:vcgi:esiteid" v="41536"/>
  </node>
  <node id="-359" visible="true" lat="44.81275245" lon="-72.1600667">
    <tag k="addr:city" v="Brownington"/>
    <tag k="addr:housenumber" v="221"/>
    <tag k="addr:street" v="Center Road"/>
    <tag k="addr:state" v="VT"/>
    <tag k="ref:vcgi:esiteid" v="41539"/>
  </node>
  <node id="-376" visible="true" lat="44.80869852" lon="-72.15152885">
    <tag k="addr:city" v="Brownington"/>
    <tag k="addr:housenumber" v="81"/>
    <tag k="addr:street" v="Moore Lane"/>
    <tag k="addr:state" v="VT"/>
    <tag k="ref:vcgi:esiteid" v="41556"/>
  </node>
  <node id="-377" visible="true" lat="44.8084892" lon="-72.15173397">
    <tag k="addr:city" v="Brownington"/>
    <tag k="addr:housenumber" v="69"/>
    <tag k="addr:street" v="Moore Lane"/>
    <tag k="addr:state" v="VT"/>
    <tag k="ref:vcgi:esiteid" v="41557"/>
  </node>
  <node id="-383" visible="true" lat="44.8061943" lon="-72.14052257">
    <tag k="addr:city" v="Brownington"/>
    <tag k="addr:housenumber" v="95"/>
    <tag k="addr:street" v="Powwow Lane"/>
    <tag k="addr:state" v="VT"/>
    <tag k="ref:vcgi:esiteid" v="41563"/>
  </node>
  <node id="-386" visible="true" lat="44.80528259" lon="-72.13895416">
    <tag k="addr:city" v="Brownington"/>
    <tag k="addr:housenumber" v="285"/>
    <tag k="addr:street" v="Evansville Road"/>
    <tag k="addr:state" v="VT"/>
    <tag k="ref:vcgi:esiteid" v="41566"/>
  </node>
  <node id="-395" visible="true" lat="44.80399322" lon="-72.1375885">
    <tag k="addr:city" v="Brownington"/>
    <tag k="addr:housenumber" v="404"/>
    <tag k="addr:street" v="Evansville Road"/>
    <tag k="addr:state" v="VT"/>
    <tag k="ref:vcgi:esiteid" v="41575"/>
  </node>
  <node id="-402" visible="true" lat="44.80293294" lon="-72.13413056">
    <tag k="addr:city" v="Brownington"/>
    <tag k="addr:housenumber" v="564"/>
    <tag k="addr:street" v="Evansville Road"/>
    <tag k="addr:state" v="VT"/>
    <tag k="ref:vcgi:esiteid" v="41582"/>
  </node>
  <node id="-403" visible="true" lat="44.80323692" lon="-72.13055094">
    <tag k="addr:city" v="Brownington"/>
    <tag k="addr:housenumber" v="7"/>
    <tag k="addr:street" v="Hunt Hill Road"/>
    <tag k="addr:state" v="VT"/>
    <tag k="ref:vcgi:esiteid" v="41583"/>
  </node>
  <node id="-405" visible="true" lat="44.80311701" lon="-72.13290025">
    <tag k="addr:city" v="Brownington"/>
    <tag k="addr:housenumber" v="628"/>
    <tag k="addr:street" v="Evansville Road"/>
    <tag k="addr:state" v="VT"/>
    <tag k="ref:vcgi:esiteid" v="41585"/>
  </node>
  <node id="-407" visible="true" lat="44.80294457" lon="-72.13120739">
    <tag k="addr:city" v="Brownington"/>
    <tag k="addr:housenumber" v="720"/>
    <tag k="addr:street" v="Evansville Road"/>
    <tag k="addr:state" v="VT"/>
    <tag k="ref:vcgi:esiteid" v="41588"/>
  </node>
  <node id="-408" visible="true" lat="44.80294797" lon="-72.12988038">
    <tag k="addr:city" v="Brownington"/>
    <tag k="addr:housenumber" v="773"/>
    <tag k="addr:street" v="Evansville Road"/>
    <tag k="addr:state" v="VT"/>
    <tag k="ref:vcgi:esiteid" v="41589"/>
  </node>
  <node id="-409" visible="true" lat="44.80286316" lon="-72.13172976">
    <tag k="addr:city" v="Brownington"/>
    <tag k="addr:housenumber" v="670"/>
    <tag k="addr:street" v="Evansville Road"/>
    <tag k="addr:state" v="VT"/>
    <tag k="ref:vcgi:esiteid" v="41590"/>
  </node>
  <node id="-410" visible="true" lat="44.80257445" lon="-72.13651535">
    <tag k="addr:city" v="Brownington"/>
    <tag k="addr:housenumber" v="84"/>
    <tag k="addr:street" v="Ryan Road"/>
    <tag k="addr:state" v="VT"/>
    <tag k="ref:vcgi:esiteid" v="41591"/>
  </node>
  <node id="-413" visible="true" lat="44.80220851" lon="-72.13007707">
    <tag k="addr:city" v="Brownington"/>
    <tag k="addr:housenumber" v="61"/>
    <tag k="addr:street" v="Kittredge Road"/>
    <tag k="addr:state" v="VT"/>
    <tag k="ref:vcgi:esiteid" v="41594"/>
  </node>
  <node id="-414" visible="true" lat="44.80213509" lon="-72.12909578">
    <tag k="addr:city" v="Brownington"/>
    <tag k="addr:housenumber" v="837"/>
    <tag k="addr:street" v="Evansville Road"/>
    <tag k="addr:state" v="VT"/>
    <tag k="ref:vcgi:esiteid" v="41595"/>
  </node>
  <node id="-415" visible="true" lat="44.80195191" lon="-72.13068586">
    <tag k="addr:city" v="Brownington"/>
    <tag k="addr:housenumber" v="82"/>
    <tag k="addr:street" v="Kittredge Road"/>
    <tag k="addr:state" v="VT"/>
    <tag k="ref:vcgi:esiteid" v="41596"/>
  </node>
  <node id="-417" visible="true" lat="44.80195617" lon="-72.13630676">
    <tag k="addr:city" v="Brownington"/>
    <tag k="addr:housenumber" v="117"/>
    <tag k="addr:street" v="Ryan Road"/>
    <tag k="addr:state" v="VT"/>
    <tag k="ref:vcgi:esiteid" v="41598"/>
  </node>
  <node id="-422" visible="true" lat="44.80137615" lon="-72.13048866">
    <tag k="addr:city" v="Brownington"/>
    <tag k="addr:housenumber" v="130"/>
    <tag k="addr:street" v="Kittredge Road"/>
    <tag k="addr:state" v="VT"/>
    <tag k="ref:vcgi:esiteid" v="41603"/>
  </node>
  <node id="-431" visible="true" lat="44.80030393" lon="-72.12904423">
    <tag k="addr:city" v="Brownington"/>
    <tag k="addr:housenumber" v="179"/>
    <tag k="addr:street" v="Sawmill Lane"/>
    <tag k="addr:state" v="VT"/>
    <tag k="ref:vcgi:esiteid" v="41612"/>
  </node>
  <node id="-432" visible="true" lat="44.80035558" lon="-72.12823597">
    <tag k="addr:city" v="Brownington"/>
    <tag k="addr:housenumber" v="181"/>
    <tag k="addr:street" v="Sawmill Lane"/>
    <tag k="addr:state" v="VT"/>
    <tag k="ref:vcgi:esiteid" v="41613"/>
  </node>
  <node id="-433" visible="true" lat="44.8002433" lon="-72.1303872">
    <tag k="addr:city" v="Brownington"/>
    <tag k="addr:housenumber" v="213"/>
    <tag k="addr:street" v="Kittredge Road"/>
    <tag k="addr:state" v="VT"/>
    <tag k="ref:vcgi:esiteid" v="41614"/>
  </node>
  <node id="-434" visible="true" lat="44.80003307" lon="-72.13127751">
    <tag k="addr:city" v="Brownington"/>
    <tag k="addr:housenumber" v="202"/>
    <tag k="addr:street" v="Kittredge Road"/>
    <tag k="addr:state" v="VT"/>
    <tag k="ref:vcgi:esiteid" v="41615"/>
  </node>
  <node id="-507" visible="true" lat="44.80759224" lon="-72.15056234">
    <tag k="addr:city" v="Brownington"/>
    <tag k="addr:housenumber" v="64"/>
    <tag k="addr:street" v="Moore Lane"/>
    <tag k="addr:state" v="VT"/>
    <tag k="ref:vcgi:esiteid" v="41692"/>
  </node>
  <node id="-516" visible="true" lat="44.80480192" lon="-72.14173011">
    <tag k="addr:city" v="Brownington"/>
    <tag k="addr:housenumber" v="230"/>
    <tag k="addr:street" v="Evansville Road"/>
    <tag k="addr:state" v="VT"/>
    <tag k="ref:vcgi:esiteid" v="41701"/>
  </node>
  <node id="-534" visible="true" lat="44.80468054" lon="-72.13988194">
    <tag k="addr:city" v="Brownington"/>
    <tag k="addr:housenumber" v="284"/>
    <tag k="addr:street" v="Evansville Road"/>
    <tag k="addr:state" v="VT"/>
    <tag k="ref:vcgi:esiteid" v="41721"/>
  </node>
  <node id="-560" visible="true" lat="44.80594474" lon="-72.14005135">
    <tag k="addr:city" v="Brownington"/>
    <tag k="addr:housenumber" v="100"/>
    <tag k="addr:street" v="Powwow Lane"/>
    <tag k="addr:state" v="VT"/>
    <tag k="ref:vcgi:esiteid" v="315600"/>
  </node>
  <node id="-561" visible="true" lat="44.80595367" lon="-72.13978879">
    <tag k="addr:city" v="Brownington"/>
    <tag k="addr:housenumber" v="124"/>
    <tag k="addr:street" v="Powwow Lane"/>
    <tag k="addr:state" v="VT"/>
    <tag k="ref:vcgi:esiteid" v="315601"/>
  </node>
  <node id="-568" visible="true" lat="44.80253654" lon="-72.13068055">
    <tag k="addr:city" v="Brownington"/>
    <tag k="addr:housenumber" v="12"/>
    <tag k="addr:street" v="Kittredge Road"/>
    <tag k="addr:state" v="VT"/>
    <tag k="ref:vcgi:esiteid" v="325224"/>
  </node>
  <node id="-576" visible="true" lat="44.80745469" lon="-72.15109659">
    <tag k="addr:city" v="Brownington"/>
    <tag k="addr:housenumber" v="62"/>
    <tag k="addr:street" v="Moore Lane"/>
    <tag k="addr:state" v="VT"/>
    <tag k="ref:vcgi:esiteid" v="329863"/>
  </node>
  <node id="-665" visible="true" lat="44.80330694" lon="-72.13470523">
    <tag k="addr:city" v="Brownington"/>
    <tag k="addr:housenumber" v="568"/>
    <tag k="addr:street" v="Evansville Road"/>
    <tag k="addr:state" v="VT"/>
    <tag k="ref:vcgi:esiteid" v="613519"/>
  </node>
  <node id="-680" visible="true" lat="44.85167082" lon="-72.16571015">
    <tag k="addr:city" v="Brownington"/>
    <tag k="addr:housenumber" v="157"/>
    <tag k="addr:street" v="Old Cemetery Lane"/>
    <tag k="addr:state" v="VT"/>
    <tag k="ref:vcgi:esiteid" v="620440"/>
  </node>
  <node id="-722" visible="true" lat="44.80289507" lon="-72.13866601">
    <tag k="addr:city" v="Brownington"/>
    <tag k="addr:housenumber" v="406"/>
    <tag k="addr:street" v="Evansville Road"/>
    <tag k="addr:state" v="VT"/>
    <tag k="ref:vcgi:esiteid" v="760498"/>
  </node>
</osm>
