<?xml version="1.0" encoding="UTF-8"?>
<osm version="0.6" generator="JOSM">
  <node id="-398" visible="true" lat="44.62209397" lon="-71.94818605">
    <tag k="addr:city" v="Burke"/>
    <tag k="addr:housenumber" v="2614"/>
    <tag k="addr:street" v="Burke Hollow Road"/>
    <tag k="addr:state" v="VT"/>
    <tag k="ref:vcgi:esiteid" v="42126"/>
  </node>
  <node id="-553" visible="true" lat="44.60589225" lon="-71.99493841">
    <tag k="addr:city" v="Burke"/>
    <tag k="addr:housenumber" v="2000"/>
    <tag k="addr:street" v="Calendar Brook Road"/>
    <tag k="addr:state" v="VT"/>
    <tag k="ref:vcgi:esiteid" v="42282"/>
  </node>
  <node id="-683" visible="true" lat="44.59040057" lon="-71.90619652">
    <tag k="addr:city" v="Burke"/>
    <tag k="addr:housenumber" v="242"/>
    <tag k="addr:street" v="Alpine Lane"/>
    <tag k="addr:state" v="VT"/>
    <tag k="ref:vcgi:esiteid" v="42413"/>
  </node>
  <node id="-687" visible="true" lat="44.58997658" lon="-71.90477341">
    <tag k="addr:city" v="Burke"/>
    <tag k="addr:housenumber" v="221"/>
    <tag k="addr:street" v="Alpine Lane"/>
    <tag k="addr:state" v="VT"/>
    <tag k="ref:vcgi:esiteid" v="42417"/>
  </node>
  <node id="-688" visible="true" lat="44.58979622" lon="-71.90528072">
    <tag k="addr:city" v="Burke"/>
    <tag k="addr:housenumber" v="241"/>
    <tag k="addr:street" v="Alpine Lane"/>
    <tag k="addr:state" v="VT"/>
    <tag k="ref:vcgi:esiteid" v="42418"/>
  </node>
  <node id="-691" visible="true" lat="44.58969325" lon="-71.90394018">
    <tag k="addr:city" v="Burke"/>
    <tag k="addr:housenumber" v="2162"/>
    <tag k="addr:street" v="Mountain Road"/>
    <tag k="addr:state" v="VT"/>
    <tag k="ref:vcgi:esiteid" v="42421"/>
  </node>
  <node id="-739" visible="true" lat="44.58754174" lon="-71.90740173">
    <tag k="addr:city" v="Burke"/>
    <tag k="addr:housenumber" v="579"/>
    <tag k="addr:street" v="High Meadow Road"/>
    <tag k="addr:state" v="VT"/>
    <tag k="ref:vcgi:esiteid" v="42473"/>
  </node>
  <node id="-742" visible="true" lat="44.58743667" lon="-71.90951538">
    <tag k="addr:city" v="Burke"/>
    <tag k="addr:housenumber" v="468"/>
    <tag k="addr:street" v="High Meadow Road"/>
    <tag k="addr:state" v="VT"/>
    <tag k="ref:vcgi:esiteid" v="42476"/>
  </node>
  <node id="-746" visible="true" lat="44.58739225" lon="-71.90796684">
    <tag k="addr:city" v="Burke"/>
    <tag k="addr:housenumber" v="543"/>
    <tag k="addr:street" v="High Meadow Road"/>
    <tag k="addr:state" v="VT"/>
    <tag k="ref:vcgi:esiteid" v="42480"/>
  </node>
  <node id="-755" visible="true" lat="44.58705908" lon="-71.90265455">
    <tag k="addr:city" v="Burke"/>
    <tag k="addr:housenumber" v="125"/>
    <tag k="addr:street" v="Mountain Brook Road"/>
    <tag k="addr:state" v="VT"/>
    <tag k="ref:vcgi:esiteid" v="42489"/>
  </node>
  <node id="-758" visible="true" lat="44.58679992" lon="-71.90279953">
    <tag k="addr:city" v="Burke"/>
    <tag k="addr:housenumber" v="107"/>
    <tag k="addr:street" v="Mountain Brook Road"/>
    <tag k="addr:state" v="VT"/>
    <tag k="ref:vcgi:esiteid" v="42493"/>
  </node>
  <node id="-766" visible="true" lat="44.58606689" lon="-71.90525814">
    <tag k="addr:city" v="Burke"/>
    <tag k="addr:housenumber" v="38"/>
    <tag k="addr:street" v="Woods Trail"/>
    <tag k="addr:state" v="VT"/>
    <tag k="ref:vcgi:esiteid" v="42501"/>
  </node>
  <node id="-773" visible="true" lat="44.58551817" lon="-71.90513723">
    <tag k="addr:city" v="Burke"/>
    <tag k="addr:housenumber" v="588"/>
    <tag k="addr:street" v="Alpine Lane"/>
    <tag k="addr:state" v="VT"/>
    <tag k="ref:vcgi:esiteid" v="42508"/>
  </node>
  <node id="-775" visible="true" lat="44.58554193" lon="-71.90464255">
    <tag k="addr:city" v="Burke"/>
    <tag k="addr:housenumber" v="589"/>
    <tag k="addr:street" v="Alpine Lane"/>
    <tag k="addr:state" v="VT"/>
    <tag k="ref:vcgi:esiteid" v="42510"/>
  </node>
  <node id="-778" visible="true" lat="44.58517409" lon="-71.90525143">
    <tag k="addr:city" v="Burke"/>
    <tag k="addr:housenumber" v="610"/>
    <tag k="addr:street" v="Alpine Lane"/>
    <tag k="addr:state" v="VT"/>
    <tag k="ref:vcgi:esiteid" v="42513"/>
  </node>
  <node id="-789" visible="true" lat="44.5839668" lon="-71.90888492">
    <tag k="addr:city" v="Burke"/>
    <tag k="addr:housenumber" v="436"/>
    <tag k="addr:street" v="Bear Path Lane"/>
    <tag k="addr:state" v="VT"/>
    <tag k="ref:vcgi:esiteid" v="42524"/>
  </node>
  <node id="-828" visible="true" lat="44.5883064" lon="-71.9154829">
    <tag k="addr:city" v="Burke"/>
    <tag k="addr:housenumber" v="48"/>
    <tag k="addr:street" v="Burkeside Road"/>
    <tag k="addr:state" v="VT"/>
    <tag k="ref:vcgi:esiteid" v="42563"/>
  </node>
  <node id="-829" visible="true" lat="44.58845238" lon="-71.91640657">
    <tag k="addr:city" v="Burke"/>
    <tag k="addr:housenumber" v="25"/>
    <tag k="addr:street" v="Burkeside Road"/>
    <tag k="addr:state" v="VT"/>
    <tag k="ref:vcgi:esiteid" v="42564"/>
  </node>
  <node id="-830" visible="true" lat="44.58810583" lon="-71.9160384">
    <tag k="addr:city" v="Burke"/>
    <tag k="addr:housenumber" v="24"/>
    <tag k="addr:street" v="Burkeside Road"/>
    <tag k="addr:state" v="VT"/>
    <tag k="ref:vcgi:esiteid" v="42565"/>
  </node>
  <node id="-831" visible="true" lat="44.58868577" lon="-71.91563724">
    <tag k="addr:city" v="Burke"/>
    <tag k="addr:housenumber" v="51"/>
    <tag k="addr:street" v="Burkeside Road"/>
    <tag k="addr:state" v="VT"/>
    <tag k="ref:vcgi:esiteid" v="42566"/>
  </node>
  <node id="-832" visible="true" lat="44.58775238" lon="-71.91102889">
    <tag k="addr:city" v="Burke"/>
    <tag k="addr:housenumber" v="55"/>
    <tag k="addr:street" v="Wintergreen Road"/>
    <tag k="addr:state" v="VT"/>
    <tag k="ref:vcgi:esiteid" v="42567"/>
  </node>
  <node id="-833" visible="true" lat="44.58795904" lon="-71.91165937">
    <tag k="addr:city" v="Burke"/>
    <tag k="addr:housenumber" v="26"/>
    <tag k="addr:street" v="Wintergreen Road"/>
    <tag k="addr:state" v="VT"/>
    <tag k="ref:vcgi:esiteid" v="42568"/>
  </node>
  <node id="-834" visible="true" lat="44.5835803" lon="-71.90844608">
    <tag k="addr:city" v="Burke"/>
    <tag k="addr:housenumber" v="503"/>
    <tag k="addr:street" v="Bear Path Lane"/>
    <tag k="addr:state" v="VT"/>
    <tag k="ref:vcgi:esiteid" v="42569"/>
  </node>
  <node id="-835" visible="true" lat="44.58471033" lon="-71.90843461">
    <tag k="addr:city" v="Burke"/>
    <tag k="addr:housenumber" v="421"/>
    <tag k="addr:street" v="Bear Path Lane"/>
    <tag k="addr:state" v="VT"/>
    <tag k="ref:vcgi:esiteid" v="42570"/>
  </node>
  <node id="-836" visible="true" lat="44.58748207" lon="-71.90358324">
    <tag k="addr:city" v="Burke"/>
    <tag k="addr:housenumber" v="23"/>
    <tag k="addr:street" v="Mountain Brook Road"/>
    <tag k="addr:state" v="VT"/>
    <tag k="ref:vcgi:esiteid" v="42571"/>
  </node>
  <node id="-837" visible="true" lat="44.5893681" lon="-71.90443375">
    <tag k="addr:city" v="Burke"/>
    <tag k="addr:housenumber" v="2164"/>
    <tag k="addr:street" v="Mountain Road"/>
    <tag k="addr:state" v="VT"/>
    <tag k="ref:vcgi:esiteid" v="42572"/>
  </node>
  <node id="-838" visible="true" lat="44.58937387" lon="-71.90337413">
    <tag k="addr:city" v="Burke"/>
    <tag k="addr:housenumber" v="2200"/>
    <tag k="addr:street" v="Mountain Road"/>
    <tag k="addr:state" v="VT"/>
    <tag k="ref:vcgi:esiteid" v="42573"/>
  </node>
  <node id="-839" visible="true" lat="44.58911088" lon="-71.90386706">
    <tag k="addr:city" v="Burke"/>
    <tag k="addr:housenumber" v="2202"/>
    <tag k="addr:street" v="Mountain Road"/>
    <tag k="addr:state" v="VT"/>
    <tag k="ref:vcgi:esiteid" v="42574"/>
  </node>
  <node id="-847" visible="true" lat="44.59000673" lon="-71.90337556">
    <tag k="addr:city" v="Burke"/>
    <tag k="addr:housenumber" v="2160"/>
    <tag k="addr:street" v="Mountain Road"/>
    <tag k="addr:state" v="VT"/>
    <tag k="ref:vcgi:esiteid" v="42582"/>
  </node>
  <node id="-932" visible="true" lat="44.58988413" lon="-71.90785454">
    <tag k="addr:city" v="Burke"/>
    <tag k="addr:housenumber" v="96"/>
    <tag k="addr:street" v="Winters Way"/>
    <tag k="addr:state" v="VT"/>
    <tag k="ref:vcgi:esiteid" v="42671"/>
  </node>
  <node id="-954" visible="true" lat="44.58944308" lon="-71.90662223">
    <tag k="addr:city" v="Burke"/>
    <tag k="addr:housenumber" v="32"/>
    <tag k="addr:street" v="Winters Way"/>
    <tag k="addr:state" v="VT"/>
    <tag k="ref:vcgi:esiteid" v="42694"/>
  </node>
  <node id="-955" visible="true" lat="44.58641526" lon="-71.90488297">
    <tag k="addr:city" v="Burke"/>
    <tag k="addr:housenumber" v="552"/>
    <tag k="addr:street" v="Alpine Lane"/>
    <tag k="addr:state" v="VT"/>
    <tag k="ref:vcgi:esiteid" v="42695"/>
  </node>
  <node id="-956" visible="true" lat="44.58711225" lon="-71.90696209">
    <tag k="addr:city" v="Burke"/>
    <tag k="addr:housenumber" v="570"/>
    <tag k="addr:street" v="High Meadow Road"/>
    <tag k="addr:state" v="VT"/>
    <tag k="ref:vcgi:esiteid" v="42696"/>
  </node>
  <node id="-957" visible="true" lat="44.58778353" lon="-71.91004039">
    <tag k="addr:city" v="Burke"/>
    <tag k="addr:housenumber" v="440"/>
    <tag k="addr:street" v="High Meadow Road"/>
    <tag k="addr:state" v="VT"/>
    <tag k="ref:vcgi:esiteid" v="42697"/>
  </node>
  <node id="-985" visible="true" lat="44.58749973" lon="-71.9082329">
    <tag k="addr:city" v="Burke"/>
    <tag k="addr:housenumber" v="519"/>
    <tag k="addr:street" v="High Meadow Road"/>
    <tag k="addr:state" v="VT"/>
    <tag k="ref:vcgi:esiteid" v="42728"/>
  </node>
  <node id="-1003" visible="true" lat="44.58858009" lon="-71.90663347">
    <tag k="addr:city" v="Burke"/>
    <tag k="addr:housenumber" v="677"/>
    <tag k="addr:street" v="High Meadow Road"/>
    <tag k="addr:state" v="VT"/>
    <tag k="ref:vcgi:esiteid" v="42747"/>
  </node>
  <node id="-1004" visible="true" lat="44.587784" lon="-71.90862177">
    <tag k="addr:city" v="Burke"/>
    <tag k="addr:housenumber" v="487"/>
    <tag k="addr:street" v="High Meadow Road"/>
    <tag k="addr:state" v="VT"/>
    <tag k="ref:vcgi:esiteid" v="42748"/>
  </node>
  <node id="-1023" visible="true" lat="44.58805969" lon="-71.90900723">
    <tag k="addr:city" v="Burke"/>
    <tag k="addr:housenumber" v="437"/>
    <tag k="addr:street" v="High Meadow Road"/>
    <tag k="addr:state" v="VT"/>
    <tag k="ref:vcgi:esiteid" v="307055"/>
  </node>
  <node id="-1024" visible="true" lat="44.59117359" lon="-71.93764292">
    <tag k="addr:city" v="Burke"/>
    <tag k="addr:housenumber" v="896"/>
    <tag k="addr:street" v="Vermont Route 114"/>
    <tag k="addr:state" v="VT"/>
    <tag k="ref:vcgi:esiteid" v="307056"/>
  </node>
  <node id="-1027" visible="true" lat="44.58844942" lon="-71.91042537">
    <tag k="addr:city" v="Burke"/>
    <tag k="addr:housenumber" v="427"/>
    <tag k="addr:street" v="High Meadow Road"/>
    <tag k="addr:state" v="VT"/>
    <tag k="ref:vcgi:esiteid" v="308699"/>
  </node>
  <node id="-1028" visible="true" lat="44.58547333" lon="-71.90601986">
    <tag k="addr:city" v="Burke"/>
    <tag k="addr:housenumber" v="86"/>
    <tag k="addr:street" v="Woods Trail"/>
    <tag k="addr:state" v="VT"/>
    <tag k="ref:vcgi:esiteid" v="308700"/>
  </node>
  <node id="-1042" visible="true" lat="44.58851369" lon="-71.91149874">
    <tag k="addr:city" v="Burke"/>
    <tag k="addr:housenumber" v="365"/>
    <tag k="addr:street" v="High Meadow Road"/>
    <tag k="addr:state" v="VT"/>
    <tag k="ref:vcgi:esiteid" v="316819"/>
  </node>
  <node id="-1045" visible="true" lat="44.58637634" lon="-71.91161628">
    <tag k="addr:city" v="Burke"/>
    <tag k="addr:housenumber" v="184"/>
    <tag k="addr:street" v="Bear Path Lane"/>
    <tag k="addr:state" v="VT"/>
    <tag k="ref:vcgi:esiteid" v="325250"/>
  </node>
  <node id="-1046" visible="true" lat="44.58651359" lon="-71.91068314">
    <tag k="addr:city" v="Burke"/>
    <tag k="addr:housenumber" v="207"/>
    <tag k="addr:street" v="Bear Path Lane"/>
    <tag k="addr:state" v="VT"/>
    <tag k="ref:vcgi:esiteid" v="325251"/>
  </node>
  <node id="-1070" visible="true" lat="44.58904103" lon="-71.94844458">
    <tag k="addr:city" v="Burke"/>
    <tag k="addr:housenumber" v="201"/>
    <tag k="addr:street" v="East Darling Hill Road"/>
    <tag k="addr:state" v="VT"/>
    <tag k="ref:vcgi:esiteid" v="335834"/>
  </node>
  <node id="-1089" visible="true" lat="44.61780508" lon="-71.88117833">
    <tag k="addr:city" v="Burke"/>
    <tag k="addr:housenumber" v="211"/>
    <tag k="addr:street" v="Camp Road"/>
    <tag k="addr:state" v="VT"/>
    <tag k="ref:vcgi:esiteid" v="344792"/>
  </node>
  <node id="-1101" visible="true" lat="44.58694365" lon="-71.9088021">
    <tag k="addr:city" v="Burke"/>
    <tag k="addr:housenumber" v="544"/>
    <tag k="addr:street" v="High Meadow Road"/>
    <tag k="addr:state" v="VT"/>
    <tag k="ref:vcgi:esiteid" v="446429"/>
  </node>
  <node id="-1113" visible="true" lat="44.58629328" lon="-71.90994158">
    <tag k="addr:city" v="Burke"/>
    <tag k="addr:housenumber" v="241"/>
    <tag k="addr:street" v="Bear Path Lane"/>
    <tag k="addr:state" v="VT"/>
    <tag k="ref:vcgi:esiteid" v="449243"/>
  </node>
  <node id="-1119" visible="true" lat="44.58604024" lon="-71.91055758">
    <tag k="addr:city" v="Burke"/>
    <tag k="addr:housenumber" v="239"/>
    <tag k="addr:street" v="Bear Path Lane"/>
    <tag k="addr:state" v="VT"/>
    <tag k="ref:vcgi:esiteid" v="454798"/>
  </node>
  <node id="-1131" visible="true" lat="44.59161747" lon="-71.90656908">
    <tag k="addr:city" v="Burke"/>
    <tag k="addr:housenumber" v="176"/>
    <tag k="addr:street" v="Alpine Lane"/>
    <tag k="addr:state" v="VT"/>
    <tag k="ref:vcgi:esiteid" v="610793"/>
  </node>
  <node id="-1133" visible="true" lat="44.58527737" lon="-71.90902772">
    <tag k="addr:city" v="Burke"/>
    <tag k="addr:housenumber" v="369"/>
    <tag k="addr:street" v="Bear Path Lane"/>
    <tag k="addr:state" v="VT"/>
    <tag k="ref:vcgi:esiteid" v="610881"/>
  </node>
  <node id="-1157" visible="true" lat="44.62501452" lon="-71.97190132">
    <tag k="addr:city" v="Burke"/>
    <tag k="addr:housenumber" v="2683"/>
    <tag k="addr:street" v="U.S. Route 5"/>
    <tag k="addr:state" v="VT"/>
    <tag k="ref:vcgi:esiteid" v="750022"/>
  </node>
  <node id="-1165" visible="true" lat="44.58500669" lon="-71.90474568">
    <tag k="addr:city" v="Burke"/>
    <tag k="addr:housenumber" v="612"/>
    <tag k="addr:street" v="Alpine Lane"/>
    <tag k="addr:state" v="VT"/>
    <tag k="ref:vcgi:esiteid" v="753425"/>
  </node>
  <node id="-1179" visible="true" lat="44.61902502" lon="-71.9700702">
    <tag k="addr:city" v="Burke"/>
    <tag k="addr:housenumber" v="2372"/>
    <tag k="addr:street" v="U.S. Route 5"/>
    <tag k="addr:state" v="VT"/>
    <tag k="ref:vcgi:esiteid" v="755920"/>
  </node>
</osm>
