<?xml version="1.0" encoding="UTF-8"?>
<osm version="0.6" generator="JOSM">
  <node id="-2068" visible="true" lat="44.51499087" lon="-73.26856957">
    <!-- offset: "34 Starr Farm Beach, Burlington, VT" Significant offset - 160.4m -->
    <tag k="addr:city" v="Burlington"/>
    <tag k="addr:housenumber" v="34"/>
    <tag k="addr:street" v="Starr Farm Beach"/>
    <tag k="addr:state" v="VT"/>
    <tag k="ref:vcgi:esiteid" v="44726"/>
  </node>
  <node id="-2629" visible="true" lat="44.50649849" lon="-73.24553492">
    <!-- offset: "1127 North Avenue, Burlington, VT" Significant offset - 110.8m -->
    <tag k="addr:city" v="Burlington"/>
    <tag k="addr:housenumber" v="1127"/>
    <tag k="addr:street" v="North Avenue"/>
    <tag k="addr:state" v="VT"/>
    <tag k="ref:vcgi:esiteid" v="45289"/>
  </node>
  <node id="-2669" visible="true" lat="44.50783108" lon="-73.24566716">
    <!-- offset: "1174 North Avenue, Burlington, VT" Significant offset - 191.3m -->
    <tag k="addr:city" v="Burlington"/>
    <tag k="addr:housenumber" v="1174"/>
    <tag k="addr:street" v="North Avenue"/>
    <tag k="addr:state" v="VT"/>
    <tag k="ref:vcgi:esiteid" v="45329"/>
  </node>
  <node id="-3073" visible="true" lat="44.50634086" lon="-73.2444022">
    <!-- offset: "1127 North Avenue, Burlington, VT" Significant offset - 194.1m -->
    <tag k="addr:city" v="Burlington"/>
    <tag k="addr:housenumber" v="1127"/>
    <tag k="addr:street" v="North Avenue"/>
    <tag k="addr:state" v="VT"/>
    <tag k="ref:vcgi:esiteid" v="45737"/>
  </node>
  <node id="-3075" visible="true" lat="44.50537757" lon="-73.24567598">
    <!-- offset: "1127 North Avenue, Burlington, VT" Significant offset - 213.1m -->
    <tag k="addr:city" v="Burlington"/>
    <tag k="addr:housenumber" v="1127"/>
    <tag k="addr:street" v="North Avenue"/>
    <tag k="addr:state" v="VT"/>
    <tag k="ref:vcgi:esiteid" v="45739"/>
  </node>
  <node id="-3544" visible="true" lat="44.49758632" lon="-73.23234097">
    <!-- offset: "602 North Avenue, Burlington, VT" Significant offset - 104.4m -->
    <tag k="addr:city" v="Burlington"/>
    <tag k="addr:housenumber" v="602"/>
    <tag k="addr:street" v="North Avenue"/>
    <tag k="addr:state" v="VT"/>
    <tag k="ref:vcgi:esiteid" v="46209"/>
  </node>
  <node id="-3545" visible="true" lat="44.4978043" lon="-73.23209532">
    <!-- offset: "602 North Avenue, Burlington, VT" Significant offset - 120.7m -->
    <tag k="addr:city" v="Burlington"/>
    <tag k="addr:housenumber" v="602"/>
    <tag k="addr:street" v="North Avenue"/>
    <tag k="addr:state" v="VT"/>
    <tag k="ref:vcgi:esiteid" v="46210"/>
  </node>
  <node id="-5671" visible="true" lat="44.48189265" lon="-73.21340081">
    <!-- offset: "50 Elmwood Avenue, Burlington, VT" Significant offset - 389.4m -->
    <tag k="addr:city" v="Burlington"/>
    <tag k="addr:housenumber" v="50"/>
    <tag k="addr:street" v="Elmwood Avenue"/>
    <tag k="addr:state" v="VT"/>
    <tag k="ref:vcgi:esiteid" v="48357"/>
  </node>
  <node id="-6075" visible="true" lat="44.48255816" lon="-73.19351767">
    <!-- offset: "208 Colchester Avenue, Burlington, VT" Significant offset - 104.2m -->
    <tag k="addr:city" v="Burlington"/>
    <tag k="addr:housenumber" v="208"/>
    <tag k="addr:street" v="Colchester Avenue"/>
    <tag k="addr:state" v="VT"/>
    <tag k="ref:vcgi:esiteid" v="48762"/>
  </node>
  <node id="-6149" visible="true" lat="44.48305329" lon="-73.18940631">
    <!-- offset: "287 Colchester Avenue, Burlington, VT" Significant offset - 236.8m -->
    <tag k="addr:city" v="Burlington"/>
    <tag k="addr:housenumber" v="287"/>
    <tag k="addr:street" v="Colchester Avenue"/>
    <tag k="addr:state" v="VT"/>
    <tag k="ref:vcgi:esiteid" v="48837"/>
  </node>
  <node id="-6274" visible="true" lat="44.4798207" lon="-73.19396747">
    <!-- offset: "111 Colchester Avenue, Burlington, VT" Significant offset - 146.9m -->
    <tag k="addr:city" v="Burlington"/>
    <tag k="addr:housenumber" v="111"/>
    <tag k="addr:street" v="Colchester Avenue"/>
    <tag k="addr:state" v="VT"/>
    <tag k="ref:vcgi:esiteid" v="48974"/>
  </node>
  <node id="-6691" visible="true" lat="44.47547996" lon="-73.22134432">
    <!-- offset: "1 King Street, Burlington, VT" Significant offset - 125.1m -->
    <tag k="addr:city" v="Burlington"/>
    <tag k="addr:housenumber" v="1"/>
    <tag k="addr:street" v="King Street"/>
    <tag k="addr:state" v="VT"/>
    <tag k="ref:vcgi:esiteid" v="49401"/>
  </node>
  <node id="-6715" visible="true" lat="44.47539028" lon="-73.22076323">
    <!-- offset: "1 King Street, Burlington, VT" Significant offset - 129.1m -->
    <tag k="addr:city" v="Burlington"/>
    <tag k="addr:housenumber" v="1"/>
    <tag k="addr:street" v="King Street"/>
    <tag k="addr:state" v="VT"/>
    <tag k="ref:vcgi:esiteid" v="49425"/>
  </node>
  <node id="-6717" visible="true" lat="44.47486916" lon="-73.22003051">
    <!-- offset: "1 King Street, Burlington, VT" Significant offset - 130.8m -->
    <tag k="addr:city" v="Burlington"/>
    <tag k="addr:housenumber" v="1"/>
    <tag k="addr:street" v="King Street"/>
    <tag k="addr:state" v="VT"/>
    <tag k="ref:vcgi:esiteid" v="49427"/>
  </node>
  <node id="-6718" visible="true" lat="44.47519456" lon="-73.2200824">
    <!-- offset: "1 King Street, Burlington, VT" Significant offset - 146.8m -->
    <tag k="addr:city" v="Burlington"/>
    <tag k="addr:housenumber" v="1"/>
    <tag k="addr:street" v="King Street"/>
    <tag k="addr:state" v="VT"/>
    <tag k="ref:vcgi:esiteid" v="49428"/>
  </node>
  <node id="-7579" visible="true" lat="44.46929018" lon="-73.20994334">
    <!-- offset: "372 South Winooski Avenue, Burlington, VT" Significant offset - 2249.9m -->
    <tag k="addr:city" v="Burlington"/>
    <tag k="addr:housenumber" v="372"/>
    <tag k="addr:street" v="South Winooski Avenue"/>
    <tag k="addr:state" v="VT"/>
    <tag k="ref:vcgi:esiteid" v="50320"/>
  </node>
  <node id="-7733" visible="true" lat="44.4710594" lon="-73.22063011">
    <!-- offset: "53 Lavalley Lane, Burlington, VT" Significant offset - 122.6m -->
    <tag k="addr:city" v="Burlington"/>
    <tag k="addr:housenumber" v="53"/>
    <tag k="addr:street" v="Lavalley Lane"/>
    <tag k="addr:state" v="VT"/>
    <tag k="ref:vcgi:esiteid" v="50476"/>
  </node>
  <node id="-8155" visible="true" lat="44.46621244" lon="-73.19926302">
    <!-- offset: "500 South Prospect Street, Burlington, VT" Significant offset - 123.4m -->
    <tag k="addr:city" v="Burlington"/>
    <tag k="addr:housenumber" v="500"/>
    <tag k="addr:street" v="South Prospect Street"/>
    <tag k="addr:state" v="VT"/>
    <tag k="ref:vcgi:esiteid" v="50905"/>
  </node>
  <node id="-8157" visible="true" lat="44.46646481" lon="-73.19955062">
    <!-- offset: "500 South Prospect Street, Burlington, VT" Significant offset - 102.3m -->
    <tag k="addr:city" v="Burlington"/>
    <tag k="addr:housenumber" v="500"/>
    <tag k="addr:street" v="South Prospect Street"/>
    <tag k="addr:state" v="VT"/>
    <tag k="ref:vcgi:esiteid" v="50907"/>
  </node>
  <node id="-8548" visible="true" lat="44.45751058" lon="-73.21943296">
    <!-- offset: "180 Flynn Avenue, Burlington, VT" Significant offset - 122.7m -->
    <tag k="addr:city" v="Burlington"/>
    <tag k="addr:housenumber" v="180"/>
    <tag k="addr:street" v="Flynn Avenue"/>
    <tag k="addr:state" v="VT"/>
    <tag k="ref:vcgi:esiteid" v="51298"/>
  </node>
  <node id="-8549" visible="true" lat="44.45678615" lon="-73.21940133">
    <!-- offset: "180 Flynn Avenue, Burlington, VT" Significant offset - 104m -->
    <tag k="addr:city" v="Burlington"/>
    <tag k="addr:housenumber" v="180"/>
    <tag k="addr:street" v="Flynn Avenue"/>
    <tag k="addr:state" v="VT"/>
    <tag k="ref:vcgi:esiteid" v="51299"/>
  </node>
  <node id="-8621" visible="true" lat="44.45706493" lon="-73.21322111">
    <!-- offset: "800 Pine Street, Burlington, VT" Significant offset - 144.9m -->
    <tag k="addr:city" v="Burlington"/>
    <tag k="addr:housenumber" v="800"/>
    <tag k="addr:street" v="Pine Street"/>
    <tag k="addr:state" v="VT"/>
    <tag k="ref:vcgi:esiteid" v="51382"/>
  </node>
  <node id="-10539" visible="true" lat="44.50682484" lon="-73.24507398">
    <!-- offset: "1127 North Avenue, Burlington, VT" Significant offset - 123.1m -->
    <tag k="addr:city" v="Burlington"/>
    <tag k="addr:housenumber" v="1127"/>
    <tag k="addr:street" v="North Avenue"/>
    <tag k="addr:state" v="VT"/>
    <tag k="ref:vcgi:esiteid" v="53912"/>
  </node>
  <node id="-10540" visible="true" lat="44.50585297" lon="-73.24488128">
    <!-- offset: "1127 North Avenue, Burlington, VT" Significant offset - 198.6m -->
    <tag k="addr:city" v="Burlington"/>
    <tag k="addr:housenumber" v="1127"/>
    <tag k="addr:street" v="North Avenue"/>
    <tag k="addr:state" v="VT"/>
    <tag k="ref:vcgi:esiteid" v="53916"/>
  </node>
  <node id="-11886" visible="true" lat="44.4577729" lon="-73.22349839">
    <!-- offset: "1 Proctor Place, Burlington, VT" Significant offset - 108.8m -->
    <tag k="addr:city" v="Burlington"/>
    <tag k="addr:housenumber" v="1"/>
    <tag k="addr:street" v="Proctor Place"/>
    <tag k="addr:state" v="VT"/>
    <tag k="ref:vcgi:esiteid" v="327283"/>
  </node>
  <node id="-12707" visible="true" lat="44.46986177" lon="-73.20031195">
    <!-- offset: "384 South Prospect Street, Burlington, VT" Significant offset - 222.7m -->
    <tag k="addr:city" v="Burlington"/>
    <tag k="addr:housenumber" v="384"/>
    <tag k="addr:street" v="South Prospect Street"/>
    <tag k="addr:state" v="VT"/>
    <tag k="ref:vcgi:esiteid" v="758707"/>
  </node>
</osm>
