<?xml version="1.0" encoding="UTF-8"?>
<osm version="0.6" generator="JOSM">
  <node id="-518" visible="true" lat="44.36603623" lon="-72.53539723">
    <!-- conflict: "67 Dugar Extension, Calais, VT" Fuzzy match to "67 Dugar, Calais, VT" -->
    <tag k="addr:city" v="Calais"/>
    <tag k="addr:housenumber" v="67"/>
    <tag k="addr:street" v="Dugar Extension"/>
    <tag k="addr:state" v="VT"/>
    <tag k="ref:vcgi:esiteid" v="56686"/>
  </node>
  <node id="-529" visible="true" lat="44.36509252" lon="-72.53616925">
    <!-- conflict: "59 Dugar Extension, Calais, VT" Fuzzy match to "59 Dugar, Calais, VT" -->
    <tag k="addr:city" v="Calais"/>
    <tag k="addr:housenumber" v="59"/>
    <tag k="addr:street" v="Dugar Extension"/>
    <tag k="addr:state" v="VT"/>
    <tag k="ref:vcgi:esiteid" v="56698"/>
  </node>
  <node id="-542" visible="true" lat="44.36454927" lon="-72.53670909">
    <!-- conflict: "49 Dugar Extension, Calais, VT" Fuzzy match to "49 Dugar, Calais, VT" -->
    <tag k="addr:city" v="Calais"/>
    <tag k="addr:housenumber" v="49"/>
    <tag k="addr:street" v="Dugar Extension"/>
    <tag k="addr:state" v="VT"/>
    <tag k="ref:vcgi:esiteid" v="56711"/>
  </node>
  <node id="-818" visible="true" lat="44.31965188" lon="-72.45182359">
    <!-- conflict: "321 Lightening Ridge Road, Calais, VT" Fuzzy match to "321 Lightening Ridge Road, Plainfield, VT" -->
    <tag k="addr:city" v="Calais"/>
    <tag k="addr:housenumber" v="321"/>
    <tag k="addr:street" v="Lightening Ridge Road"/>
    <tag k="addr:state" v="VT"/>
    <tag k="ref:vcgi:esiteid" v="56992"/>
  </node>
  <node id="-920" visible="true" lat="44.3686698" lon="-72.46799181">
    <!-- conflict: "3120 Pekin Brook Road, Calais, VT" Fuzzy match to "3120 Pekin Brook Road, Calais, " -->
    <tag k="addr:city" v="Calais"/>
    <tag k="addr:housenumber" v="3120"/>
    <tag k="addr:street" v="Pekin Brook Road"/>
    <tag k="addr:state" v="VT"/>
    <tag k="ref:vcgi:esiteid" v="57094"/>
  </node>
</osm>
