<?xml version="1.0" encoding="UTF-8"?>
<osm version="0.6" generator="JOSM" upload="false">
  <node id="-480" visible="true" lat="44.64852905" lon="-72.82881173">
    <!-- conflict: "16 Gw Tatro Drive, , VT" Fuzzy match to "16 G W Tatro Drive, Cambridge, VT" -->
    <tag k="addr:housenumber" v="16"/>
    <tag k="addr:street" v="Gw Tatro Drive"/>
    <tag k="addr:state" v="VT"/>
    <tag k="ref:vcgi:esiteid" v="57487"/>
  </node>
  <node id="-509" visible="true" lat="44.64661615" lon="-72.82845801">
    <!-- conflict: "205 Main Street, , VT" No match in OSM, but a different address exists <5m away: "205 School Street, , VT" -->
    <tag k="addr:housenumber" v="205"/>
    <tag k="addr:street" v="Main Street"/>
    <tag k="addr:state" v="VT"/>
    <tag k="ref:vcgi:esiteid" v="57519"/>
  </node>
  <node id="-522" visible="true" lat="44.6461778" lon="-72.8291031">
    <!-- conflict: "32 Depot Street, , VT" No match in OSM, but a different address exists <5m away: "32 Maple Street, Jeffersonville, VT" -->
    <tag k="addr:housenumber" v="32"/>
    <tag k="addr:street" v="Depot Street"/>
    <tag k="addr:state" v="VT"/>
    <tag k="ref:vcgi:esiteid" v="57533"/>
  </node>
  <node id="-525" visible="true" lat="44.64611917" lon="-72.82860449">
    <!-- conflict: "171 Main Street, , VT" No match in OSM, but a different address exists <5m away: "171 School Street, , " -->
    <tag k="addr:housenumber" v="171"/>
    <tag k="addr:street" v="Main Street"/>
    <tag k="addr:state" v="VT"/>
    <tag k="ref:vcgi:esiteid" v="57536"/>
  </node>
  <node id="-533" visible="true" lat="44.64583212" lon="-72.82926954">
    <!-- conflict: "37 Depot Street, , VT" No match in OSM, but a different address exists <5m away: "37 Maple Street, Jeffersonville, VT" -->
    <tag k="addr:housenumber" v="37"/>
    <tag k="addr:street" v="Depot Street"/>
    <tag k="addr:state" v="VT"/>
    <tag k="ref:vcgi:esiteid" v="57545"/>
  </node>
  <node id="-545" visible="true" lat="44.64565909" lon="-72.82795399">
    <!-- conflict: "39 School Street, , VT" No match in OSM, but a different address exists <5m away: " School Street, Jeffersonville, VT" -->
    <tag k="addr:housenumber" v="39"/>
    <tag k="addr:street" v="School Street"/>
    <tag k="addr:state" v="VT"/>
    <tag k="ref:vcgi:esiteid" v="57559"/>
  </node>
  <node id="-551" visible="true" lat="44.6454764" lon="-72.82739046">
    <!-- conflict: "65 School Street, , VT" No match in OSM, but a different address exists <5m away: " School Street, Jeffersonville, VT" -->
    <tag k="addr:housenumber" v="65"/>
    <tag k="addr:street" v="School Street"/>
    <tag k="addr:state" v="VT"/>
    <tag k="ref:vcgi:esiteid" v="57565"/>
  </node>
  <node id="-563" visible="true" lat="44.64523676" lon="-72.82789302">
    <!-- conflict: "50 School Street, , VT" No match in OSM, but a different address exists <5m away: " School Street, Jeffersonville, VT" -->
    <tag k="addr:housenumber" v="50"/>
    <tag k="addr:street" v="School Street"/>
    <tag k="addr:state" v="VT"/>
    <tag k="ref:vcgi:esiteid" v="57578"/>
  </node>
  <node id="-579" visible="true" lat="44.64527641" lon="-72.82668998">
    <!-- conflict: "105 School Street, , VT" No match in OSM, but a different address exists <5m away: " School Street, Jeffersonville, VT" -->
    <tag k="addr:housenumber" v="105"/>
    <tag k="addr:street" v="School Street"/>
    <tag k="addr:state" v="VT"/>
    <tag k="ref:vcgi:esiteid" v="57596"/>
  </node>
  <node id="-585" visible="true" lat="44.64516169" lon="-72.82931055">
    <!-- conflict: "95 Main Street, , VT" No match in OSM, but a different address exists <5m away: "95B Main Street, Cambridge, VT" -->
    <tag k="addr:housenumber" v="95"/>
    <tag k="addr:street" v="Main Street"/>
    <tag k="addr:state" v="VT"/>
    <tag k="ref:vcgi:esiteid" v="57605"/>
  </node>
  <node id="-684" visible="true" lat="44.64335351" lon="-72.8301773">
    <!-- conflict: "27 Upper Pleasant Valley Road, , VT" No match in OSM, but a different address exists <5m away: "27 Church Street, Jeffersonville, VT" -->
    <tag k="addr:housenumber" v="27"/>
    <tag k="addr:street" v="Upper Pleasant Valley Road"/>
    <tag k="addr:state" v="VT"/>
    <tag k="ref:vcgi:esiteid" v="57716"/>
  </node>
  <node id="-1155" visible="true" lat="44.59155411" lon="-72.79473837">
    <!-- conflict: "4008 Vermont Route 108 South, , VT" No match in OSM, but a different address exists <5m away: "4008 State Route 108, Jeffersonville, VT" -->
    <tag k="addr:housenumber" v="4008"/>
    <tag k="addr:street" v="Vermont Route 108 South"/>
    <tag k="addr:state" v="VT"/>
    <tag k="ref:vcgi:esiteid" v="58205"/>
  </node>
  <node id="-1306" visible="true" lat="44.643531" lon="-72.82997317">
    <!-- conflict: "15 Church Street, , VT" No match in OSM, but a different address exists <5m away: "102 Church Street, , " -->
    <tag k="addr:housenumber" v="15"/>
    <tag k="addr:street" v="Church Street"/>
    <tag k="addr:state" v="VT"/>
    <tag k="ref:vcgi:esiteid" v="58372"/>
  </node>
  <node id="-1335" visible="true" lat="44.64604568" lon="-72.82881173">
    <!-- conflict: "18 Depot Street, , VT" No match in OSM, but a different address exists <5m away: "18 School Street, , " -->
    <tag k="addr:housenumber" v="18"/>
    <tag k="addr:street" v="Depot Street"/>
    <tag k="addr:state" v="VT"/>
    <tag k="ref:vcgi:esiteid" v="58401"/>
  </node>
  <node id="-1564" visible="true" lat="44.64633849" lon="-72.82857593">
    <!-- conflict: "189 Main Street, , VT" No match in OSM, but a different address exists <5m away: "189 School Street, , " -->
    <tag k="addr:housenumber" v="189"/>
    <tag k="addr:street" v="Main Street"/>
    <tag k="addr:state" v="VT"/>
    <tag k="ref:vcgi:esiteid" v="58649"/>
  </node>
  <node id="-1622" visible="true" lat="44.5943208" lon="-72.78493021">
    <!-- conflict: "24 North Hill Drive Extension, , VT" No match in OSM, but a different address exists <5m away: " North Hill Drive Extension, , " -->
    <tag k="addr:housenumber" v="24"/>
    <tag k="addr:street" v="North Hill Drive Extension"/>
    <tag k="addr:state" v="VT"/>
    <tag k="ref:vcgi:esiteid" v="326242"/>
  </node>
  <node id="-1758" visible="true" lat="44.64817316" lon="-72.82952137">
    <!-- conflict: "17 Gw Tatro Drive, , VT" Fuzzy match to "17 G W Tatro Drive, Cambridge, VT" -->
    <tag k="addr:housenumber" v="17"/>
    <tag k="addr:street" v="Gw Tatro Drive"/>
    <tag k="addr:state" v="VT"/>
    <tag k="ref:vcgi:esiteid" v="449935"/>
  </node>
  <node id="-1797" visible="true" lat="44.59389895" lon="-72.78431477">
    <!-- conflict: "66 North Hill Drive Extension, , VT" No match in OSM, but a different address exists <5m away: " North Hill Drive Extension, , " -->
    <tag k="addr:housenumber" v="66"/>
    <tag k="addr:street" v="North Hill Drive Extension"/>
    <tag k="addr:state" v="VT"/>
    <tag k="ref:vcgi:esiteid" v="612227"/>
  </node>
  <node id="-1997" visible="true" lat="44.61648044" lon="-72.81933545">
    <!-- conflict: "37 Rv Way, , VT" Fuzzy match to "37 RV Way, Jeffersonville, VT" -->
    <tag k="addr:housenumber" v="37"/>
    <tag k="addr:street" v="Rv Way"/>
    <tag k="addr:state" v="VT"/>
    <tag k="ref:vcgi:esiteid" v="767849"/>
  </node>
  <node id="-2029" visible="true" lat="44.61624131" lon="-72.82038223">
    <!-- conflict: "228 Oxbow Drive, , VT" No match in OSM, but a different address exists <5m away: "37 RV Way, Jeffersonville, VT" -->
    <tag k="addr:housenumber" v="228"/>
    <tag k="addr:street" v="Oxbow Drive"/>
    <tag k="addr:state" v="VT"/>
    <tag k="ref:vcgi:esiteid" v="767881"/>
  </node>
</osm>
