<?xml version="1.0" encoding="UTF-8"?>
<osm version="0.6" generator="JOSM">
  <node id="-102" visible="true" lat="45.0128352" lon="-71.5000546">
    <tag k="addr:city" v="Canaan"/>
    <tag k="addr:housenumber" v="391"/>
    <tag k="addr:street" v="Hall Stream Road"/>
    <tag k="addr:state" v="VT"/>
    <tag k="ref:vcgi:esiteid" v="58662"/>
  </node>
  <node id="-103" visible="true" lat="45.01267689" lon="-71.4996039">
    <tag k="addr:city" v="Canaan"/>
    <tag k="addr:housenumber" v="388"/>
    <tag k="addr:street" v="Hall Stream Road"/>
    <tag k="addr:state" v="VT"/>
    <tag k="ref:vcgi:esiteid" v="58663"/>
  </node>
  <node id="-104" visible="true" lat="45.01276502" lon="-71.50610399">
    <tag k="addr:city" v="Canaan"/>
    <tag k="addr:housenumber" v="1429"/>
    <tag k="addr:street" v="Vermont Route 253"/>
    <tag k="addr:state" v="VT"/>
    <tag k="ref:vcgi:esiteid" v="58664"/>
  </node>
  <node id="-105" visible="true" lat="45.01264466" lon="-71.4714967">
    <tag k="addr:city" v="Canaan"/>
    <tag k="addr:housenumber" v="2099"/>
    <tag k="addr:street" v="River Road"/>
    <tag k="addr:state" v="VT"/>
    <tag k="ref:vcgi:esiteid" v="58665"/>
  </node>
  <node id="-106" visible="true" lat="45.01247967" lon="-71.49979328">
    <tag k="addr:city" v="Canaan"/>
    <tag k="addr:housenumber" v="372"/>
    <tag k="addr:street" v="Hall Stream Road"/>
    <tag k="addr:state" v="VT"/>
    <tag k="ref:vcgi:esiteid" v="58666"/>
  </node>
  <node id="-107" visible="true" lat="45.01210171" lon="-71.47313257">
    <tag k="addr:city" v="Canaan"/>
    <tag k="addr:housenumber" v="1991"/>
    <tag k="addr:street" v="River Road"/>
    <tag k="addr:state" v="VT"/>
    <tag k="ref:vcgi:esiteid" v="58668"/>
  </node>
  <node id="-108" visible="true" lat="45.01210345" lon="-71.50034984">
    <tag k="addr:city" v="Canaan"/>
    <tag k="addr:housenumber" v="339"/>
    <tag k="addr:street" v="Hall Stream Road"/>
    <tag k="addr:state" v="VT"/>
    <tag k="ref:vcgi:esiteid" v="58669"/>
  </node>
  <node id="-109" visible="true" lat="45.01259087" lon="-71.5603753">
    <tag k="addr:city" v="Canaan"/>
    <tag k="addr:housenumber" v="433"/>
    <tag k="addr:street" v="Vermont Route 141"/>
    <tag k="addr:state" v="VT"/>
    <tag k="ref:vcgi:esiteid" v="58670"/>
  </node>
  <node id="-111" visible="true" lat="45.01213438" lon="-71.55961958">
    <tag k="addr:city" v="Canaan"/>
    <tag k="addr:housenumber" v="394"/>
    <tag k="addr:street" v="Vermont Route 141"/>
    <tag k="addr:state" v="VT"/>
    <tag k="ref:vcgi:esiteid" v="58673"/>
  </node>
  <node id="-112" visible="true" lat="45.01142271" lon="-71.47470169">
    <tag k="addr:city" v="Canaan"/>
    <tag k="addr:housenumber" v="1935"/>
    <tag k="addr:street" v="River Road"/>
    <tag k="addr:state" v="VT"/>
    <tag k="ref:vcgi:esiteid" v="58674"/>
  </node>
  <node id="-113" visible="true" lat="45.01190968" lon="-71.55989228">
    <tag k="addr:city" v="Canaan"/>
    <tag k="addr:housenumber" v="387"/>
    <tag k="addr:street" v="Vermont Route 141"/>
    <tag k="addr:state" v="VT"/>
    <tag k="ref:vcgi:esiteid" v="58675"/>
  </node>
  <node id="-114" visible="true" lat="45.01148479" lon="-71.49992964">
    <tag k="addr:city" v="Canaan"/>
    <tag k="addr:housenumber" v="284"/>
    <tag k="addr:street" v="Hall Stream Road"/>
    <tag k="addr:state" v="VT"/>
    <tag k="ref:vcgi:esiteid" v="58676"/>
  </node>
  <node id="-115" visible="true" lat="45.01137993" lon="-71.50055139">
    <tag k="addr:city" v="Canaan"/>
    <tag k="addr:housenumber" v="279"/>
    <tag k="addr:street" v="Hall Stream Road"/>
    <tag k="addr:state" v="VT"/>
    <tag k="ref:vcgi:esiteid" v="58677"/>
  </node>
  <node id="-117" visible="true" lat="45.00669534" lon="-71.66938691">
    <tag k="addr:city" v="Canaan"/>
    <tag k="addr:housenumber" v="6550"/>
    <tag k="addr:street" v="Vermont Route 114"/>
    <tag k="addr:state" v="VT"/>
    <tag k="ref:vcgi:esiteid" v="58680"/>
  </node>
  <node id="-118" visible="true" lat="45.01170311" lon="-71.61248912">
    <tag k="addr:city" v="Canaan"/>
    <tag k="addr:housenumber" v="35"/>
    <tag k="addr:street" v="Jackson Lodge Village"/>
    <tag k="addr:state" v="VT"/>
    <tag k="ref:vcgi:esiteid" v="58681"/>
  </node>
  <node id="-119" visible="true" lat="45.01081297" lon="-71.50025269">
    <tag k="addr:city" v="Canaan"/>
    <tag k="addr:housenumber" v="252"/>
    <tag k="addr:street" v="Hall Stream Road"/>
    <tag k="addr:state" v="VT"/>
    <tag k="ref:vcgi:esiteid" v="58682"/>
  </node>
  <node id="-121" visible="true" lat="45.01032452" lon="-71.50036389">
    <tag k="addr:city" v="Canaan"/>
    <tag k="addr:housenumber" v="220"/>
    <tag k="addr:street" v="Hall Stream Road"/>
    <tag k="addr:state" v="VT"/>
    <tag k="ref:vcgi:esiteid" v="58685"/>
  </node>
  <node id="-122" visible="true" lat="45.01043261" lon="-71.50079968">
    <tag k="addr:city" v="Canaan"/>
    <tag k="addr:housenumber" v="219"/>
    <tag k="addr:street" v="Hall Stream Road"/>
    <tag k="addr:state" v="VT"/>
    <tag k="ref:vcgi:esiteid" v="58686"/>
  </node>
  <node id="-124" visible="true" lat="45.01069326" lon="-71.55908302">
    <tag k="addr:city" v="Canaan"/>
    <tag k="addr:housenumber" v="295"/>
    <tag k="addr:street" v="Vermont Route 141"/>
    <tag k="addr:state" v="VT"/>
    <tag k="ref:vcgi:esiteid" v="58688"/>
  </node>
  <node id="-125" visible="true" lat="45.01107426" lon="-71.59806875">
    <tag k="addr:city" v="Canaan"/>
    <tag k="addr:housenumber" v="2986"/>
    <tag k="addr:street" v="Vermont Route 114"/>
    <tag k="addr:state" v="VT"/>
    <tag k="ref:vcgi:esiteid" v="58689"/>
  </node>
  <node id="-126" visible="true" lat="45.01007124" lon="-71.47776496">
    <tag k="addr:city" v="Canaan"/>
    <tag k="addr:housenumber" v="1731"/>
    <tag k="addr:street" v="River Road"/>
    <tag k="addr:state" v="VT"/>
    <tag k="ref:vcgi:esiteid" v="58690"/>
  </node>
  <node id="-127" visible="true" lat="45.01015556" lon="-71.50039111">
    <tag k="addr:city" v="Canaan"/>
    <tag k="addr:housenumber" v="204"/>
    <tag k="addr:street" v="Hall Stream Road"/>
    <tag k="addr:state" v="VT"/>
    <tag k="ref:vcgi:esiteid" v="58691"/>
  </node>
  <node id="-129" visible="true" lat="45.01023374" lon="-71.50490792">
    <tag k="addr:city" v="Canaan"/>
    <tag k="addr:housenumber" v="1252"/>
    <tag k="addr:street" v="Vermont Route 253"/>
    <tag k="addr:state" v="VT"/>
    <tag k="ref:vcgi:esiteid" v="58694"/>
  </node>
  <node id="-131" visible="true" lat="45.00981896" lon="-71.50081449">
    <tag k="addr:city" v="Canaan"/>
    <tag k="addr:housenumber" v="177"/>
    <tag k="addr:street" v="Hall Stream Road"/>
    <tag k="addr:state" v="VT"/>
    <tag k="ref:vcgi:esiteid" v="58696"/>
  </node>
  <node id="-133" visible="true" lat="45.00979718" lon="-71.50641821">
    <tag k="addr:city" v="Canaan"/>
    <tag k="addr:housenumber" v="21"/>
    <tag k="addr:street" v="East Street"/>
    <tag k="addr:state" v="VT"/>
    <tag k="ref:vcgi:esiteid" v="58698"/>
  </node>
  <node id="-136" visible="true" lat="45.00972067" lon="-71.50594592">
    <tag k="addr:city" v="Canaan"/>
    <tag k="addr:housenumber" v="43"/>
    <tag k="addr:street" v="East Street"/>
    <tag k="addr:state" v="VT"/>
    <tag k="ref:vcgi:esiteid" v="58703"/>
  </node>
  <node id="-141" visible="true" lat="45.00950596" lon="-71.50056967">
    <tag k="addr:city" v="Canaan"/>
    <tag k="addr:housenumber" v="158"/>
    <tag k="addr:street" v="Hall Stream Road"/>
    <tag k="addr:state" v="VT"/>
    <tag k="ref:vcgi:esiteid" v="58710"/>
  </node>
  <node id="-143" visible="true" lat="45.00942162" lon="-71.50542457">
    <tag k="addr:city" v="Canaan"/>
    <tag k="addr:housenumber" v="72"/>
    <tag k="addr:street" v="East Street"/>
    <tag k="addr:state" v="VT"/>
    <tag k="ref:vcgi:esiteid" v="58713"/>
  </node>
  <node id="-144" visible="true" lat="45.00942497" lon="-71.50590701">
    <tag k="addr:city" v="Canaan"/>
    <tag k="addr:housenumber" v="19"/>
    <tag k="addr:street" v="Middle Street"/>
    <tag k="addr:state" v="VT"/>
    <tag k="ref:vcgi:esiteid" v="58714"/>
  </node>
  <node id="-148" visible="true" lat="45.0093387" lon="-71.50065614">
    <tag k="addr:city" v="Canaan"/>
    <tag k="addr:housenumber" v="144"/>
    <tag k="addr:street" v="Hall Stream Road"/>
    <tag k="addr:state" v="VT"/>
    <tag k="ref:vcgi:esiteid" v="58718"/>
  </node>
  <node id="-150" visible="true" lat="45.0101189" lon="-71.62401153">
    <tag k="addr:city" v="Canaan"/>
    <tag k="addr:housenumber" v="4285"/>
    <tag k="addr:street" v="Vermont Route 114"/>
    <tag k="addr:state" v="VT"/>
    <tag k="ref:vcgi:esiteid" v="58720"/>
  </node>
  <node id="-151" visible="true" lat="45.01020283" lon="-71.62549362">
    <tag k="addr:city" v="Canaan"/>
    <tag k="addr:housenumber" v="4357"/>
    <tag k="addr:street" v="Vermont Route 114"/>
    <tag k="addr:state" v="VT"/>
    <tag k="ref:vcgi:esiteid" v="58721"/>
  </node>
  <node id="-155" visible="true" lat="45.00993448" lon="-71.62661587">
    <tag k="addr:city" v="Canaan"/>
    <tag k="addr:housenumber" v="4431"/>
    <tag k="addr:street" v="Vermont Route 114"/>
    <tag k="addr:state" v="VT"/>
    <tag k="ref:vcgi:esiteid" v="58725"/>
  </node>
  <node id="-156" visible="true" lat="45.00911478" lon="-71.5064022">
    <tag k="addr:city" v="Canaan"/>
    <tag k="addr:housenumber" v="36"/>
    <tag k="addr:street" v="Middle Street"/>
    <tag k="addr:state" v="VT"/>
    <tag k="ref:vcgi:esiteid" v="58726"/>
  </node>
  <node id="-157" visible="true" lat="45.00910681" lon="-71.50553178">
    <tag k="addr:city" v="Canaan"/>
    <tag k="addr:housenumber" v="114"/>
    <tag k="addr:street" v="East Street"/>
    <tag k="addr:state" v="VT"/>
    <tag k="ref:vcgi:esiteid" v="58727"/>
  </node>
  <node id="-160" visible="true" lat="45.00892917" lon="-71.50103704">
    <tag k="addr:city" v="Canaan"/>
    <tag k="addr:housenumber" v="118"/>
    <tag k="addr:street" v="Hall Stream Road"/>
    <tag k="addr:state" v="VT"/>
    <tag k="ref:vcgi:esiteid" v="58730"/>
  </node>
  <node id="-162" visible="true" lat="45.00995416" lon="-71.62249558">
    <tag k="addr:city" v="Canaan"/>
    <tag k="addr:housenumber" v="4213"/>
    <tag k="addr:street" v="Vermont Route 114"/>
    <tag k="addr:state" v="VT"/>
    <tag k="ref:vcgi:esiteid" v="58732"/>
  </node>
  <node id="-165" visible="true" lat="45.00998141" lon="-71.62637508">
    <tag k="addr:city" v="Canaan"/>
    <tag k="addr:housenumber" v="4415"/>
    <tag k="addr:street" v="Vermont Route 114"/>
    <tag k="addr:state" v="VT"/>
    <tag k="ref:vcgi:esiteid" v="58735"/>
  </node>
  <node id="-167" visible="true" lat="45.00898048" lon="-71.50645071">
    <tag k="addr:city" v="Canaan"/>
    <tag k="addr:housenumber" v="46"/>
    <tag k="addr:street" v="Middle Street"/>
    <tag k="addr:state" v="VT"/>
    <tag k="ref:vcgi:esiteid" v="58737"/>
  </node>
  <node id="-168" visible="true" lat="45.00980724" lon="-71.62681019">
    <tag k="addr:city" v="Canaan"/>
    <tag k="addr:housenumber" v="4443"/>
    <tag k="addr:street" v="Vermont Route 114"/>
    <tag k="addr:state" v="VT"/>
    <tag k="ref:vcgi:esiteid" v="58738"/>
  </node>
  <node id="-175" visible="true" lat="45.00882833" lon="-71.50616027">
    <tag k="addr:city" v="Canaan"/>
    <tag k="addr:housenumber" v="49"/>
    <tag k="addr:street" v="Middle Street"/>
    <tag k="addr:state" v="VT"/>
    <tag k="ref:vcgi:esiteid" v="58745"/>
  </node>
  <node id="-179" visible="true" lat="45.00883222" lon="-71.50656877">
    <tag k="addr:city" v="Canaan"/>
    <tag k="addr:housenumber" v="56"/>
    <tag k="addr:street" v="Middle Street"/>
    <tag k="addr:state" v="VT"/>
    <tag k="ref:vcgi:esiteid" v="58749"/>
  </node>
  <node id="-183" visible="true" lat="45.00886403" lon="-71.5049973">
    <tag k="addr:city" v="Canaan"/>
    <tag k="addr:housenumber" v="141"/>
    <tag k="addr:street" v="River Road"/>
    <tag k="addr:state" v="VT"/>
    <tag k="ref:vcgi:esiteid" v="58753"/>
  </node>
  <node id="-184" visible="true" lat="45.00888035" lon="-71.50520646">
    <tag k="addr:city" v="Canaan"/>
    <tag k="addr:housenumber" v="131"/>
    <tag k="addr:street" v="River Road"/>
    <tag k="addr:state" v="VT"/>
    <tag k="ref:vcgi:esiteid" v="58754"/>
  </node>
  <node id="-185" visible="true" lat="45.00965907" lon="-71.62787387">
    <tag k="addr:city" v="Canaan"/>
    <tag k="addr:housenumber" v="4485"/>
    <tag k="addr:street" v="Vermont Route 114"/>
    <tag k="addr:state" v="VT"/>
    <tag k="ref:vcgi:esiteid" v="58755"/>
  </node>
  <node id="-189" visible="true" lat="45.00883861" lon="-71.50556911">
    <tag k="addr:city" v="Canaan"/>
    <tag k="addr:housenumber" v="109"/>
    <tag k="addr:street" v="River Road"/>
    <tag k="addr:state" v="VT"/>
    <tag k="ref:vcgi:esiteid" v="58759"/>
  </node>
  <node id="-191" visible="true" lat="45.00865552" lon="-71.5013305">
    <tag k="addr:city" v="Canaan"/>
    <tag k="addr:housenumber" v="90"/>
    <tag k="addr:street" v="Hall Stream Road"/>
    <tag k="addr:state" v="VT"/>
    <tag k="ref:vcgi:esiteid" v="58761"/>
  </node>
  <node id="-193" visible="true" lat="45.00879513" lon="-71.50591574">
    <tag k="addr:city" v="Canaan"/>
    <tag k="addr:housenumber" v="93"/>
    <tag k="addr:street" v="River Road"/>
    <tag k="addr:state" v="VT"/>
    <tag k="ref:vcgi:esiteid" v="58763"/>
  </node>
  <node id="-194" visible="true" lat="45.009583" lon="-71.62057076">
    <tag k="addr:city" v="Canaan"/>
    <tag k="addr:housenumber" v="4111"/>
    <tag k="addr:street" v="Vermont Route 114"/>
    <tag k="addr:state" v="VT"/>
    <tag k="ref:vcgi:esiteid" v="58764"/>
  </node>
  <node id="-195" visible="true" lat="45.00857917" lon="-71.50511045">
    <tag k="addr:city" v="Canaan"/>
    <tag k="addr:housenumber" v="126"/>
    <tag k="addr:street" v="River Road"/>
    <tag k="addr:state" v="VT"/>
    <tag k="ref:vcgi:esiteid" v="58766"/>
  </node>
  <node id="-197" visible="true" lat="45.00842383" lon="-71.50563749">
    <tag k="addr:city" v="Canaan"/>
    <tag k="addr:housenumber" v="106"/>
    <tag k="addr:street" v="River Road"/>
    <tag k="addr:state" v="VT"/>
    <tag k="ref:vcgi:esiteid" v="58768"/>
  </node>
  <node id="-198" visible="true" lat="45.00844242" lon="-71.50597041">
    <tag k="addr:city" v="Canaan"/>
    <tag k="addr:housenumber" v="90"/>
    <tag k="addr:street" v="River Road"/>
    <tag k="addr:state" v="VT"/>
    <tag k="ref:vcgi:esiteid" v="58769"/>
  </node>
  <node id="-200" visible="true" lat="45.00837424" lon="-71.50658486">
    <tag k="addr:city" v="Canaan"/>
    <tag k="addr:housenumber" v="62"/>
    <tag k="addr:street" v="River Road"/>
    <tag k="addr:state" v="VT"/>
    <tag k="ref:vcgi:esiteid" v="58772"/>
  </node>
  <node id="-201" visible="true" lat="45.00845652" lon="-71.50158313">
    <tag k="addr:city" v="Canaan"/>
    <tag k="addr:housenumber" v="74"/>
    <tag k="addr:street" v="Hall Stream Road"/>
    <tag k="addr:state" v="VT"/>
    <tag k="ref:vcgi:esiteid" v="58773"/>
  </node>
  <node id="-203" visible="true" lat="45.00838945" lon="-71.50620921">
    <tag k="addr:city" v="Canaan"/>
    <tag k="addr:housenumber" v="80"/>
    <tag k="addr:street" v="River Road"/>
    <tag k="addr:state" v="VT"/>
    <tag k="ref:vcgi:esiteid" v="58776"/>
  </node>
  <node id="-204" visible="true" lat="45.00959825" lon="-71.62822155">
    <tag k="addr:city" v="Canaan"/>
    <tag k="addr:housenumber" v="23"/>
    <tag k="addr:street" v="Northview Drive"/>
    <tag k="addr:state" v="VT"/>
    <tag k="ref:vcgi:esiteid" v="58778"/>
  </node>
  <node id="-205" visible="true" lat="45.00944095" lon="-71.6291584">
    <tag k="addr:city" v="Canaan"/>
    <tag k="addr:housenumber" v="4555"/>
    <tag k="addr:street" v="Vermont Route 114"/>
    <tag k="addr:state" v="VT"/>
    <tag k="ref:vcgi:esiteid" v="58779"/>
  </node>
  <node id="-207" visible="true" lat="45.00838459" lon="-71.50692118">
    <tag k="addr:city" v="Canaan"/>
    <tag k="addr:housenumber" v="46"/>
    <tag k="addr:street" v="River Road"/>
    <tag k="addr:state" v="VT"/>
    <tag k="ref:vcgi:esiteid" v="58781"/>
  </node>
  <node id="-208" visible="true" lat="45.00913535" lon="-71.62092388">
    <tag k="addr:city" v="Canaan"/>
    <tag k="addr:housenumber" v="4133"/>
    <tag k="addr:street" v="Vermont Route 114"/>
    <tag k="addr:state" v="VT"/>
    <tag k="ref:vcgi:esiteid" v="58782"/>
  </node>
  <node id="-209" visible="true" lat="45.00858043" lon="-71.55779587">
    <tag k="addr:city" v="Canaan"/>
    <tag k="addr:housenumber" v="143"/>
    <tag k="addr:street" v="Vermont Route 141"/>
    <tag k="addr:state" v="VT"/>
    <tag k="ref:vcgi:esiteid" v="58783"/>
  </node>
  <node id="-211" visible="true" lat="45.0083171" lon="-71.50716497">
    <tag k="addr:city" v="Canaan"/>
    <tag k="addr:housenumber" v="22"/>
    <tag k="addr:street" v="River Road"/>
    <tag k="addr:state" v="VT"/>
    <tag k="ref:vcgi:esiteid" v="58786"/>
  </node>
  <node id="-213" visible="true" lat="45.00931171" lon="-71.62762674">
    <tag k="addr:city" v="Canaan"/>
    <tag k="addr:housenumber" v="33"/>
    <tag k="addr:street" v="Northview Drive"/>
    <tag k="addr:state" v="VT"/>
    <tag k="ref:vcgi:esiteid" v="58789"/>
  </node>
  <node id="-215" visible="true" lat="45.00922966" lon="-71.62853219">
    <tag k="addr:city" v="Canaan"/>
    <tag k="addr:housenumber" v="22"/>
    <tag k="addr:street" v="Northview Drive"/>
    <tag k="addr:state" v="VT"/>
    <tag k="ref:vcgi:esiteid" v="58792"/>
  </node>
  <node id="-218" visible="true" lat="45.00817317" lon="-71.50207926">
    <tag k="addr:city" v="Canaan"/>
    <tag k="addr:housenumber" v="32"/>
    <tag k="addr:street" v="Hall Stream Road"/>
    <tag k="addr:state" v="VT"/>
    <tag k="ref:vcgi:esiteid" v="58796"/>
  </node>
  <node id="-219" visible="true" lat="45.00817489" lon="-71.50838116">
    <tag k="addr:city" v="Canaan"/>
    <tag k="addr:housenumber" v="1082"/>
    <tag k="addr:street" v="Vermont Route 253"/>
    <tag k="addr:state" v="VT"/>
    <tag k="ref:vcgi:esiteid" v="58797"/>
  </node>
  <node id="-221" visible="true" lat="45.00911961" lon="-71.6271577">
    <tag k="addr:city" v="Canaan"/>
    <tag k="addr:housenumber" v="4473"/>
    <tag k="addr:street" v="Vermont Route 114"/>
    <tag k="addr:state" v="VT"/>
    <tag k="ref:vcgi:esiteid" v="58799"/>
  </node>
  <node id="-222" visible="true" lat="45.00913976" lon="-71.62784335">
    <tag k="addr:city" v="Canaan"/>
    <tag k="addr:housenumber" v="55"/>
    <tag k="addr:street" v="Northview Drive"/>
    <tag k="addr:state" v="VT"/>
    <tag k="ref:vcgi:esiteid" v="58800"/>
  </node>
  <node id="-223" visible="true" lat="45.00848092" lon="-71.55725048">
    <tag k="addr:city" v="Canaan"/>
    <tag k="addr:housenumber" v="115"/>
    <tag k="addr:street" v="Vermont Route 141"/>
    <tag k="addr:state" v="VT"/>
    <tag k="ref:vcgi:esiteid" v="58801"/>
  </node>
  <node id="-224" visible="true" lat="45.00885876" lon="-71.63013927">
    <tag k="addr:city" v="Canaan"/>
    <tag k="addr:housenumber" v="4617"/>
    <tag k="addr:street" v="Vermont Route 114"/>
    <tag k="addr:state" v="VT"/>
    <tag k="ref:vcgi:esiteid" v="58802"/>
  </node>
  <node id="-225" visible="true" lat="45.00880968" lon="-71.62747315">
    <tag k="addr:city" v="Canaan"/>
    <tag k="addr:housenumber" v="79"/>
    <tag k="addr:street" v="Northview Drive"/>
    <tag k="addr:state" v="VT"/>
    <tag k="ref:vcgi:esiteid" v="58803"/>
  </node>
  <node id="-226" visible="true" lat="45.00880419" lon="-71.63068896">
    <tag k="addr:city" v="Canaan"/>
    <tag k="addr:housenumber" v="31"/>
    <tag k="addr:street" v="Fuller Drive"/>
    <tag k="addr:state" v="VT"/>
    <tag k="ref:vcgi:esiteid" v="58804"/>
  </node>
  <node id="-227" visible="true" lat="45.00811757" lon="-71.55976288">
    <tag k="addr:city" v="Canaan"/>
    <tag k="addr:housenumber" v="966"/>
    <tag k="addr:street" v="Vermont Route 114"/>
    <tag k="addr:state" v="VT"/>
    <tag k="ref:vcgi:esiteid" v="58805"/>
  </node>
  <node id="-228" visible="true" lat="45.00874119" lon="-71.62797471">
    <tag k="addr:city" v="Canaan"/>
    <tag k="addr:housenumber" v="88"/>
    <tag k="addr:street" v="Northview Drive"/>
    <tag k="addr:state" v="VT"/>
    <tag k="ref:vcgi:esiteid" v="58806"/>
  </node>
  <node id="-230" visible="true" lat="45.00766373" lon="-71.5248998">
    <tag k="addr:city" v="Canaan"/>
    <tag k="addr:housenumber" v="660"/>
    <tag k="addr:street" v="Green Hill Road"/>
    <tag k="addr:state" v="VT"/>
    <tag k="ref:vcgi:esiteid" v="58808"/>
  </node>
  <node id="-231" visible="true" lat="45.00800231" lon="-71.55929348">
    <tag k="addr:city" v="Canaan"/>
    <tag k="addr:housenumber" v="948"/>
    <tag k="addr:street" v="Vermont Route 114"/>
    <tag k="addr:state" v="VT"/>
    <tag k="ref:vcgi:esiteid" v="58809"/>
  </node>
  <node id="-232" visible="true" lat="45.00809865" lon="-71.58966136">
    <tag k="addr:city" v="Canaan"/>
    <tag k="addr:housenumber" v="2521"/>
    <tag k="addr:street" v="Vermont Route 114"/>
    <tag k="addr:state" v="VT"/>
    <tag k="ref:vcgi:esiteid" v="58811"/>
  </node>
  <node id="-233" visible="true" lat="45.00794" lon="-71.5588262">
    <tag k="addr:city" v="Canaan"/>
    <tag k="addr:housenumber" v="920"/>
    <tag k="addr:street" v="Vermont Route 114"/>
    <tag k="addr:state" v="VT"/>
    <tag k="ref:vcgi:esiteid" v="58812"/>
  </node>
  <node id="-234" visible="true" lat="45.0073869" lon="-71.50125297">
    <tag k="addr:city" v="Canaan"/>
    <tag k="addr:housenumber" v="347"/>
    <tag k="addr:street" v="River Road"/>
    <tag k="addr:state" v="VT"/>
    <tag k="ref:vcgi:esiteid" v="58813"/>
  </node>
  <node id="-236" visible="true" lat="45.00832205" lon="-71.63030989">
    <tag k="addr:city" v="Canaan"/>
    <tag k="addr:housenumber" v="108"/>
    <tag k="addr:street" v="Fuller Drive"/>
    <tag k="addr:state" v="VT"/>
    <tag k="ref:vcgi:esiteid" v="58815"/>
  </node>
  <node id="-237" visible="true" lat="45.00724656" lon="-71.50096688">
    <tag k="addr:city" v="Canaan"/>
    <tag k="addr:housenumber" v="367"/>
    <tag k="addr:street" v="River Road"/>
    <tag k="addr:state" v="VT"/>
    <tag k="ref:vcgi:esiteid" v="58816"/>
  </node>
  <node id="-238" visible="true" lat="45.00763372" lon="-71.55763105">
    <tag k="addr:city" v="Canaan"/>
    <tag k="addr:housenumber" v="858"/>
    <tag k="addr:street" v="Vermont Route 114"/>
    <tag k="addr:state" v="VT"/>
    <tag k="ref:vcgi:esiteid" v="58817"/>
  </node>
  <node id="-239" visible="true" lat="45.0079781" lon="-71.63137852">
    <tag k="addr:city" v="Canaan"/>
    <tag k="addr:housenumber" v="150"/>
    <tag k="addr:street" v="Fuller Drive"/>
    <tag k="addr:state" v="VT"/>
    <tag k="ref:vcgi:esiteid" v="58818"/>
  </node>
  <node id="-241" visible="true" lat="45.00792872" lon="-71.63321687">
    <tag k="addr:city" v="Canaan"/>
    <tag k="addr:housenumber" v="4781"/>
    <tag k="addr:street" v="Vermont Route 114"/>
    <tag k="addr:state" v="VT"/>
    <tag k="ref:vcgi:esiteid" v="58821"/>
  </node>
  <node id="-242" visible="true" lat="45.00704281" lon="-71.55726586">
    <tag k="addr:city" v="Canaan"/>
    <tag k="addr:housenumber" v="835"/>
    <tag k="addr:street" v="Vermont Route 114"/>
    <tag k="addr:state" v="VT"/>
    <tag k="ref:vcgi:esiteid" v="58822"/>
  </node>
  <node id="-243" visible="true" lat="45.00775697" lon="-71.63427132">
    <tag k="addr:city" v="Canaan"/>
    <tag k="addr:housenumber" v="35"/>
    <tag k="addr:street" v="Lake View"/>
    <tag k="addr:state" v="VT"/>
    <tag k="ref:vcgi:esiteid" v="58823"/>
  </node>
  <node id="-244" visible="true" lat="45.00648547" lon="-71.50031396">
    <tag k="addr:city" v="Canaan"/>
    <tag k="addr:housenumber" v="418"/>
    <tag k="addr:street" v="River Road"/>
    <tag k="addr:state" v="VT"/>
    <tag k="ref:vcgi:esiteid" v="58824"/>
  </node>
  <node id="-245" visible="true" lat="45.00689608" lon="-71.55690046">
    <tag k="addr:city" v="Canaan"/>
    <tag k="addr:housenumber" v="803"/>
    <tag k="addr:street" v="Vermont Route 114"/>
    <tag k="addr:state" v="VT"/>
    <tag k="ref:vcgi:esiteid" v="58825"/>
  </node>
  <node id="-246" visible="true" lat="45.00729572" lon="-71.60574923">
    <tag k="addr:city" v="Canaan"/>
    <tag k="addr:housenumber" v="3355"/>
    <tag k="addr:street" v="Vermont Route 114"/>
    <tag k="addr:state" v="VT"/>
    <tag k="ref:vcgi:esiteid" v="58826"/>
  </node>
  <node id="-247" visible="true" lat="45.00621664" lon="-71.499706">
    <tag k="addr:city" v="Canaan"/>
    <tag k="addr:housenumber" v="456"/>
    <tag k="addr:street" v="River Road"/>
    <tag k="addr:state" v="VT"/>
    <tag k="ref:vcgi:esiteid" v="58827"/>
  </node>
  <node id="-248" visible="true" lat="45.00657215" lon="-71.55603817">
    <tag k="addr:city" v="Canaan"/>
    <tag k="addr:housenumber" v="751"/>
    <tag k="addr:street" v="Vermont Route 114"/>
    <tag k="addr:state" v="VT"/>
    <tag k="ref:vcgi:esiteid" v="58828"/>
  </node>
  <node id="-250" visible="true" lat="45.00587286" lon="-71.49901464">
    <tag k="addr:city" v="Canaan"/>
    <tag k="addr:housenumber" v="496"/>
    <tag k="addr:street" v="River Road"/>
    <tag k="addr:state" v="VT"/>
    <tag k="ref:vcgi:esiteid" v="58830"/>
  </node>
  <node id="-251" visible="true" lat="45.00651166" lon="-71.59203236">
    <tag k="addr:city" v="Canaan"/>
    <tag k="addr:housenumber" v="2657"/>
    <tag k="addr:street" v="Vermont Route 114"/>
    <tag k="addr:state" v="VT"/>
    <tag k="ref:vcgi:esiteid" v="58831"/>
  </node>
  <node id="-252" visible="true" lat="45.00652195" lon="-71.55490254">
    <tag k="addr:city" v="Canaan"/>
    <tag k="addr:housenumber" v="708"/>
    <tag k="addr:street" v="Vermont Route 114"/>
    <tag k="addr:state" v="VT"/>
    <tag k="ref:vcgi:esiteid" v="58832"/>
  </node>
  <node id="-253" visible="true" lat="45.00582979" lon="-71.4983388">
    <tag k="addr:city" v="Canaan"/>
    <tag k="addr:housenumber" v="526"/>
    <tag k="addr:street" v="River Road"/>
    <tag k="addr:state" v="VT"/>
    <tag k="ref:vcgi:esiteid" v="58833"/>
  </node>
  <node id="-254" visible="true" lat="45.00570366" lon="-71.49794964">
    <tag k="addr:city" v="Canaan"/>
    <tag k="addr:housenumber" v="548"/>
    <tag k="addr:street" v="River Road"/>
    <tag k="addr:state" v="VT"/>
    <tag k="ref:vcgi:esiteid" v="58834"/>
  </node>
  <node id="-255" visible="true" lat="45.00690095" lon="-71.63411551">
    <tag k="addr:city" v="Canaan"/>
    <tag k="addr:housenumber" v="108"/>
    <tag k="addr:street" v="Lake View"/>
    <tag k="addr:state" v="VT"/>
    <tag k="ref:vcgi:esiteid" v="58835"/>
  </node>
  <node id="-256" visible="true" lat="45.00553467" lon="-71.49740922">
    <tag k="addr:city" v="Canaan"/>
    <tag k="addr:housenumber" v="572"/>
    <tag k="addr:street" v="River Road"/>
    <tag k="addr:state" v="VT"/>
    <tag k="ref:vcgi:esiteid" v="58836"/>
  </node>
  <node id="-257" visible="true" lat="45.00599961" lon="-71.54470513">
    <tag k="addr:city" v="Canaan"/>
    <tag k="addr:housenumber" v="507"/>
    <tag k="addr:street" v="Reservoir Road"/>
    <tag k="addr:state" v="VT"/>
    <tag k="ref:vcgi:esiteid" v="58837"/>
  </node>
  <node id="-258" visible="true" lat="45.00612094" lon="-71.55458465">
    <tag k="addr:city" v="Canaan"/>
    <tag k="addr:housenumber" v="682"/>
    <tag k="addr:street" v="Vermont Route 114"/>
    <tag k="addr:state" v="VT"/>
    <tag k="ref:vcgi:esiteid" v="58838"/>
  </node>
  <node id="-259" visible="true" lat="45.00527728" lon="-71.49914468">
    <tag k="addr:city" v="Canaan"/>
    <tag k="addr:housenumber" v="50"/>
    <tag k="addr:street" v="Pariseau Drive"/>
    <tag k="addr:state" v="VT"/>
    <tag k="ref:vcgi:esiteid" v="58839"/>
  </node>
  <node id="-260" visible="true" lat="45.00541768" lon="-71.49819155">
    <tag k="addr:city" v="Canaan"/>
    <tag k="addr:housenumber" v="85"/>
    <tag k="addr:street" v="Pariseau Drive"/>
    <tag k="addr:state" v="VT"/>
    <tag k="ref:vcgi:esiteid" v="58841"/>
  </node>
  <node id="-262" visible="true" lat="45.00515761" lon="-71.49882851">
    <tag k="addr:city" v="Canaan"/>
    <tag k="addr:housenumber" v="66"/>
    <tag k="addr:street" v="Pariseau Drive"/>
    <tag k="addr:state" v="VT"/>
    <tag k="ref:vcgi:esiteid" v="58843"/>
  </node>
  <node id="-263" visible="true" lat="45.00655394" lon="-71.67845249">
    <tag k="addr:city" v="Canaan"/>
    <tag k="addr:housenumber" v="7032"/>
    <tag k="addr:street" v="Vermont Route 114"/>
    <tag k="addr:state" v="VT"/>
    <tag k="ref:vcgi:esiteid" v="58844"/>
  </node>
  <node id="-265" visible="true" lat="45.00772146" lon="-71.64741593">
    <tag k="addr:city" v="Canaan"/>
    <tag k="addr:housenumber" v="5506"/>
    <tag k="addr:street" v="Vermont Route 114"/>
    <tag k="addr:state" v="VT"/>
    <tag k="ref:vcgi:esiteid" v="58846"/>
  </node>
  <node id="-266" visible="true" lat="45.00512664" lon="-71.49727552">
    <tag k="addr:city" v="Canaan"/>
    <tag k="addr:housenumber" v="47"/>
    <tag k="addr:street" v="Rouleau Road"/>
    <tag k="addr:state" v="VT"/>
    <tag k="ref:vcgi:esiteid" v="58847"/>
  </node>
  <node id="-267" visible="true" lat="45.00501606" lon="-71.49841427">
    <tag k="addr:city" v="Canaan"/>
    <tag k="addr:housenumber" v="88"/>
    <tag k="addr:street" v="Pariseau Drive"/>
    <tag k="addr:state" v="VT"/>
    <tag k="ref:vcgi:esiteid" v="58848"/>
  </node>
  <node id="-270" visible="true" lat="45.0049267" lon="-71.49723679">
    <tag k="addr:city" v="Canaan"/>
    <tag k="addr:housenumber" v="63"/>
    <tag k="addr:street" v="Rouleau Road"/>
    <tag k="addr:state" v="VT"/>
    <tag k="ref:vcgi:esiteid" v="58851"/>
  </node>
  <node id="-272" visible="true" lat="45.00481129" lon="-71.48860135">
    <tag k="addr:city" v="Canaan"/>
    <tag k="addr:housenumber" v="1069"/>
    <tag k="addr:street" v="River Road"/>
    <tag k="addr:state" v="VT"/>
    <tag k="ref:vcgi:esiteid" v="58853"/>
  </node>
  <node id="-273" visible="true" lat="45.0064168" lon="-71.68426503">
    <tag k="addr:city" v="Canaan"/>
    <tag k="addr:housenumber" v="7314"/>
    <tag k="addr:street" v="Vermont Route 114"/>
    <tag k="addr:state" v="VT"/>
    <tag k="ref:vcgi:esiteid" v="58854"/>
  </node>
  <node id="-274" visible="true" lat="45.00468494" lon="-71.49717345">
    <tag k="addr:city" v="Canaan"/>
    <tag k="addr:housenumber" v="73"/>
    <tag k="addr:street" v="Rouleau Road"/>
    <tag k="addr:state" v="VT"/>
    <tag k="ref:vcgi:esiteid" v="58855"/>
  </node>
  <node id="-275" visible="true" lat="45.00474233" lon="-71.48604508">
    <tag k="addr:city" v="Canaan"/>
    <tag k="addr:housenumber" v="1155"/>
    <tag k="addr:street" v="River Road"/>
    <tag k="addr:state" v="VT"/>
    <tag k="ref:vcgi:esiteid" v="58856"/>
  </node>
  <node id="-276" visible="true" lat="45.00604899" lon="-71.65056671">
    <tag k="addr:city" v="Canaan"/>
    <tag k="addr:housenumber" v="5656"/>
    <tag k="addr:street" v="Vermont Route 114"/>
    <tag k="addr:state" v="VT"/>
    <tag k="ref:vcgi:esiteid" v="58857"/>
  </node>
  <node id="-277" visible="true" lat="45.00513702" lon="-71.55457392">
    <tag k="addr:city" v="Canaan"/>
    <tag k="addr:housenumber" v="621"/>
    <tag k="addr:street" v="Vermont Route 114"/>
    <tag k="addr:state" v="VT"/>
    <tag k="ref:vcgi:esiteid" v="58858"/>
  </node>
  <node id="-279" visible="true" lat="45.00607987" lon="-71.65785385">
    <tag k="addr:city" v="Canaan"/>
    <tag k="addr:housenumber" v="6008"/>
    <tag k="addr:street" v="Vermont Route 114"/>
    <tag k="addr:state" v="VT"/>
    <tag k="ref:vcgi:esiteid" v="58860"/>
  </node>
  <node id="-280" visible="true" lat="45.00580778" lon="-71.63837382">
    <tag k="addr:city" v="Canaan"/>
    <tag k="addr:housenumber" v="44"/>
    <tag k="addr:street" v="Dubeau Road"/>
    <tag k="addr:state" v="VT"/>
    <tag k="ref:vcgi:esiteid" v="58861"/>
  </node>
  <node id="-281" visible="true" lat="45.00597943" lon="-71.68650653">
    <tag k="addr:city" v="Canaan"/>
    <tag k="addr:housenumber" v="7410"/>
    <tag k="addr:street" v="Vermont Route 114"/>
    <tag k="addr:state" v="VT"/>
    <tag k="ref:vcgi:esiteid" v="58862"/>
  </node>
  <node id="-282" visible="true" lat="45.00691197" lon="-71.65843014">
    <tag k="addr:city" v="Canaan"/>
    <tag k="addr:housenumber" v="6026"/>
    <tag k="addr:street" v="Vermont Route 114"/>
    <tag k="addr:state" v="VT"/>
    <tag k="ref:vcgi:esiteid" v="58863"/>
  </node>
  <node id="-283" visible="true" lat="45.00567963" lon="-71.64185288">
    <tag k="addr:city" v="Canaan"/>
    <tag k="addr:housenumber" v="112"/>
    <tag k="addr:street" v="Cote Drive"/>
    <tag k="addr:state" v="VT"/>
    <tag k="ref:vcgi:esiteid" v="58864"/>
  </node>
  <node id="-284" visible="true" lat="45.00430002" lon="-71.48687928">
    <tag k="addr:city" v="Canaan"/>
    <tag k="addr:housenumber" v="1112"/>
    <tag k="addr:street" v="River Road"/>
    <tag k="addr:state" v="VT"/>
    <tag k="ref:vcgi:esiteid" v="58865"/>
  </node>
  <node id="-285" visible="true" lat="45.00448365" lon="-71.49233629">
    <tag k="addr:city" v="Canaan"/>
    <tag k="addr:housenumber" v="841"/>
    <tag k="addr:street" v="River Road"/>
    <tag k="addr:state" v="VT"/>
    <tag k="ref:vcgi:esiteid" v="58866"/>
  </node>
  <node id="-287" visible="true" lat="45.00552851" lon="-71.6553247">
    <tag k="addr:city" v="Canaan"/>
    <tag k="addr:housenumber" v="5877"/>
    <tag k="addr:street" v="Vermont Route 114"/>
    <tag k="addr:state" v="VT"/>
    <tag k="ref:vcgi:esiteid" v="58868"/>
  </node>
  <node id="-288" visible="true" lat="45.00585537" lon="-71.69039499">
    <tag k="addr:city" v="Canaan"/>
    <tag k="addr:housenumber" v="7608"/>
    <tag k="addr:street" v="Vermont Route 114"/>
    <tag k="addr:state" v="VT"/>
    <tag k="ref:vcgi:esiteid" v="58869"/>
  </node>
  <node id="-289" visible="true" lat="45.00535004" lon="-71.66803966">
    <tag k="addr:city" v="Canaan"/>
    <tag k="addr:housenumber" v="6507"/>
    <tag k="addr:street" v="Vermont Route 114"/>
    <tag k="addr:state" v="VT"/>
    <tag k="ref:vcgi:esiteid" v="58870"/>
  </node>
  <node id="-290" visible="true" lat="45.00420257" lon="-71.49775472">
    <tag k="addr:city" v="Canaan"/>
    <tag k="addr:housenumber" v="144"/>
    <tag k="addr:street" v="Rouleau Road"/>
    <tag k="addr:state" v="VT"/>
    <tag k="ref:vcgi:esiteid" v="58871"/>
  </node>
  <node id="-291" visible="true" lat="45.00544223" lon="-71.68958177">
    <tag k="addr:city" v="Canaan"/>
    <tag k="addr:housenumber" v="7574"/>
    <tag k="addr:street" v="Vermont Route 114"/>
    <tag k="addr:state" v="VT"/>
    <tag k="ref:vcgi:esiteid" v="58872"/>
  </node>
  <node id="-292" visible="true" lat="45.00511931" lon="-71.67706564">
    <tag k="addr:city" v="Canaan"/>
    <tag k="addr:housenumber" v="6993"/>
    <tag k="addr:street" v="Vermont Route 114"/>
    <tag k="addr:state" v="VT"/>
    <tag k="ref:vcgi:esiteid" v="58874"/>
  </node>
  <node id="-294" visible="true" lat="45.00450978" lon="-71.64084968">
    <tag k="addr:city" v="Canaan"/>
    <tag k="addr:housenumber" v="73"/>
    <tag k="addr:street" v="Cote Drive"/>
    <tag k="addr:state" v="VT"/>
    <tag k="ref:vcgi:esiteid" v="58876"/>
  </node>
  <node id="-295" visible="true" lat="45.00373167" lon="-71.55334812">
    <tag k="addr:city" v="Canaan"/>
    <tag k="addr:housenumber" v="6"/>
    <tag k="addr:street" v="Judd Road"/>
    <tag k="addr:state" v="VT"/>
    <tag k="ref:vcgi:esiteid" v="58877"/>
  </node>
  <node id="-297" visible="true" lat="45.00354638" lon="-71.55213747">
    <tag k="addr:city" v="Canaan"/>
    <tag k="addr:housenumber" v="456"/>
    <tag k="addr:street" v="Vermont Route 114"/>
    <tag k="addr:state" v="VT"/>
    <tag k="ref:vcgi:esiteid" v="58879"/>
  </node>
  <node id="-298" visible="true" lat="45.00380707" lon="-71.60211945">
    <tag k="addr:city" v="Canaan"/>
    <tag k="addr:housenumber" v="288"/>
    <tag k="addr:street" v="Penn Road"/>
    <tag k="addr:state" v="VT"/>
    <tag k="ref:vcgi:esiteid" v="58880"/>
  </node>
  <node id="-299" visible="true" lat="45.00315048" lon="-71.52060534">
    <tag k="addr:city" v="Canaan"/>
    <tag k="addr:housenumber" v="355"/>
    <tag k="addr:street" v="Vermont Route 253"/>
    <tag k="addr:state" v="VT"/>
    <tag k="ref:vcgi:esiteid" v="58881"/>
  </node>
  <node id="-300" visible="true" lat="45.00318053" lon="-71.55388498">
    <tag k="addr:city" v="Canaan"/>
    <tag k="addr:housenumber" v="54"/>
    <tag k="addr:street" v="Judd Road"/>
    <tag k="addr:state" v="VT"/>
    <tag k="ref:vcgi:esiteid" v="58882"/>
  </node>
  <node id="-301" visible="true" lat="45.0030775" lon="-71.55226074">
    <tag k="addr:city" v="Canaan"/>
    <tag k="addr:housenumber" v="441"/>
    <tag k="addr:street" v="Vermont Route 114"/>
    <tag k="addr:state" v="VT"/>
    <tag k="ref:vcgi:esiteid" v="58883"/>
  </node>
  <node id="-302" visible="true" lat="45.00344566" lon="-71.63439909">
    <tag k="addr:city" v="Canaan"/>
    <tag k="addr:housenumber" v="325"/>
    <tag k="addr:street" v="Lake View"/>
    <tag k="addr:state" v="VT"/>
    <tag k="ref:vcgi:esiteid" v="58884"/>
  </node>
  <node id="-303" visible="true" lat="45.00341456" lon="-71.63259916">
    <tag k="addr:city" v="Canaan"/>
    <tag k="addr:housenumber" v="285"/>
    <tag k="addr:street" v="Lake View"/>
    <tag k="addr:state" v="VT"/>
    <tag k="ref:vcgi:esiteid" v="58885"/>
  </node>
  <node id="-304" visible="true" lat="45.00248939" lon="-71.53004326">
    <tag k="addr:city" v="Canaan"/>
    <tag k="addr:housenumber" v="206"/>
    <tag k="addr:street" v="Green Hill Road"/>
    <tag k="addr:state" v="VT"/>
    <tag k="ref:vcgi:esiteid" v="58886"/>
  </node>
  <node id="-307" visible="true" lat="45.00309987" lon="-71.63534594">
    <tag k="addr:city" v="Canaan"/>
    <tag k="addr:housenumber" v="371"/>
    <tag k="addr:street" v="Lake View"/>
    <tag k="addr:state" v="VT"/>
    <tag k="ref:vcgi:esiteid" v="58889"/>
  </node>
  <node id="-308" visible="true" lat="45.00234655" lon="-71.5535188">
    <tag k="addr:city" v="Canaan"/>
    <tag k="addr:housenumber" v="81"/>
    <tag k="addr:street" v="Judd Road"/>
    <tag k="addr:state" v="VT"/>
    <tag k="ref:vcgi:esiteid" v="58890"/>
  </node>
  <node id="-309" visible="true" lat="45.00194157" lon="-71.54772632">
    <tag k="addr:city" v="Canaan"/>
    <tag k="addr:housenumber" v="216"/>
    <tag k="addr:street" v="Vermont Route 114"/>
    <tag k="addr:state" v="VT"/>
    <tag k="ref:vcgi:esiteid" v="58891"/>
  </node>
  <node id="-310" visible="true" lat="45.00150456" lon="-71.54948728">
    <tag k="addr:city" v="Canaan"/>
    <tag k="addr:housenumber" v="279"/>
    <tag k="addr:street" v="Vermont Route 114"/>
    <tag k="addr:state" v="VT"/>
    <tag k="ref:vcgi:esiteid" v="58892"/>
  </node>
  <node id="-311" visible="true" lat="45.00165018" lon="-71.54686452">
    <tag k="addr:city" v="Canaan"/>
    <tag k="addr:housenumber" v="174"/>
    <tag k="addr:street" v="Vermont Route 114"/>
    <tag k="addr:state" v="VT"/>
    <tag k="ref:vcgi:esiteid" v="58893"/>
  </node>
  <node id="-312" visible="true" lat="45.00159309" lon="-71.54835883">
    <tag k="addr:city" v="Canaan"/>
    <tag k="addr:housenumber" v="221"/>
    <tag k="addr:street" v="Vermont Route 114"/>
    <tag k="addr:state" v="VT"/>
    <tag k="ref:vcgi:esiteid" v="58894"/>
  </node>
  <node id="-313" visible="true" lat="45.00162068" lon="-71.55337148">
    <tag k="addr:city" v="Canaan"/>
    <tag k="addr:housenumber" v="181"/>
    <tag k="addr:street" v="Judd Road"/>
    <tag k="addr:state" v="VT"/>
    <tag k="ref:vcgi:esiteid" v="58895"/>
  </node>
  <node id="-314" visible="true" lat="45.0014975" lon="-71.53550789">
    <tag k="addr:city" v="Canaan"/>
    <tag k="addr:housenumber" v="54"/>
    <tag k="addr:street" v="Reservoir Road"/>
    <tag k="addr:state" v="VT"/>
    <tag k="ref:vcgi:esiteid" v="58896"/>
  </node>
  <node id="-316" visible="true" lat="45.00141806" lon="-71.54637291">
    <tag k="addr:city" v="Canaan"/>
    <tag k="addr:housenumber" v="144"/>
    <tag k="addr:street" v="Vermont Route 114"/>
    <tag k="addr:state" v="VT"/>
    <tag k="ref:vcgi:esiteid" v="58898"/>
  </node>
  <node id="-317" visible="true" lat="45.00142943" lon="-71.55396781">
    <tag k="addr:city" v="Canaan"/>
    <tag k="addr:housenumber" v="194"/>
    <tag k="addr:street" v="Judd Road"/>
    <tag k="addr:state" v="VT"/>
    <tag k="ref:vcgi:esiteid" v="58899"/>
  </node>
  <node id="-318" visible="true" lat="45.00125524" lon="-71.55600681">
    <tag k="addr:city" v="Canaan"/>
    <tag k="addr:housenumber" v="118"/>
    <tag k="addr:street" v="Judd Road"/>
    <tag k="addr:state" v="VT"/>
    <tag k="ref:vcgi:esiteid" v="58900"/>
  </node>
  <node id="-319" visible="true" lat="45.0011743" lon="-71.5489455">
    <tag k="addr:city" v="Canaan"/>
    <tag k="addr:housenumber" v="50"/>
    <tag k="addr:street" v="Cook Street"/>
    <tag k="addr:state" v="VT"/>
    <tag k="ref:vcgi:esiteid" v="58901"/>
  </node>
  <node id="-320" visible="true" lat="45.00098473" lon="-71.54717311">
    <tag k="addr:city" v="Canaan"/>
    <tag k="addr:housenumber" v="155"/>
    <tag k="addr:street" v="Vermont Route 114"/>
    <tag k="addr:state" v="VT"/>
    <tag k="ref:vcgi:esiteid" v="58902"/>
  </node>
  <node id="-321" visible="true" lat="45.00101575" lon="-71.55305236">
    <tag k="addr:city" v="Canaan"/>
    <tag k="addr:housenumber" v="215"/>
    <tag k="addr:street" v="Judd Road"/>
    <tag k="addr:state" v="VT"/>
    <tag k="ref:vcgi:esiteid" v="58903"/>
  </node>
  <node id="-324" visible="true" lat="45.00067722" lon="-71.54637041">
    <tag k="addr:city" v="Canaan"/>
    <tag k="addr:housenumber" v="115"/>
    <tag k="addr:street" v="Vermont Route 114"/>
    <tag k="addr:state" v="VT"/>
    <tag k="ref:vcgi:esiteid" v="58906"/>
  </node>
  <node id="-326" visible="true" lat="45.00105284" lon="-71.5973763">
    <tag k="addr:city" v="Canaan"/>
    <tag k="addr:housenumber" v="570"/>
    <tag k="addr:street" v="Penn Road"/>
    <tag k="addr:state" v="VT"/>
    <tag k="ref:vcgi:esiteid" v="58908"/>
  </node>
  <node id="-327" visible="true" lat="45.00045743" lon="-71.53639771">
    <tag k="addr:city" v="Canaan"/>
    <tag k="addr:housenumber" v="153"/>
    <tag k="addr:street" v="Reservoir Road"/>
    <tag k="addr:state" v="VT"/>
    <tag k="ref:vcgi:esiteid" v="58909"/>
  </node>
  <node id="-329" visible="true" lat="45.00055309" lon="-71.54913275">
    <tag k="addr:city" v="Canaan"/>
    <tag k="addr:housenumber" v="100"/>
    <tag k="addr:street" v="Cook Street"/>
    <tag k="addr:state" v="VT"/>
    <tag k="ref:vcgi:esiteid" v="58911"/>
  </node>
  <node id="-333" visible="true" lat="45.00028741" lon="-71.53603113">
    <tag k="addr:city" v="Canaan"/>
    <tag k="addr:housenumber" v="131"/>
    <tag k="addr:street" v="Reservoir Road"/>
    <tag k="addr:state" v="VT"/>
    <tag k="ref:vcgi:esiteid" v="58915"/>
  </node>
  <node id="-338" visible="true" lat="44.99993821" lon="-71.53534955">
    <tag k="addr:city" v="Canaan"/>
    <tag k="addr:housenumber" v="85"/>
    <tag k="addr:street" v="Reservoir Road"/>
    <tag k="addr:state" v="VT"/>
    <tag k="ref:vcgi:esiteid" v="58920"/>
  </node>
  <node id="-339" visible="true" lat="45.00048751" lon="-71.59157581">
    <tag k="addr:city" v="Canaan"/>
    <tag k="addr:housenumber" v="567"/>
    <tag k="addr:street" v="Penn Road"/>
    <tag k="addr:state" v="VT"/>
    <tag k="ref:vcgi:esiteid" v="58921"/>
  </node>
  <node id="-341" visible="true" lat="45.00003878" lon="-71.53919649">
    <tag k="addr:city" v="Canaan"/>
    <tag k="addr:housenumber" v="175"/>
    <tag k="addr:street" v="Ethan Allen Drive"/>
    <tag k="addr:state" v="VT"/>
    <tag k="ref:vcgi:esiteid" v="58923"/>
  </node>
  <node id="-342" visible="true" lat="44.99999817" lon="-71.55332972">
    <tag k="addr:city" v="Canaan"/>
    <tag k="addr:housenumber" v="339"/>
    <tag k="addr:street" v="Judd Road"/>
    <tag k="addr:state" v="VT"/>
    <tag k="ref:vcgi:esiteid" v="58924"/>
  </node>
  <node id="-343" visible="true" lat="45.00017424" lon="-71.55204008">
    <tag k="addr:city" v="Canaan"/>
    <tag k="addr:housenumber" v="287"/>
    <tag k="addr:street" v="Judd Road"/>
    <tag k="addr:state" v="VT"/>
    <tag k="ref:vcgi:esiteid" v="58925"/>
  </node>
  <node id="-345" visible="true" lat="44.99984427" lon="-71.53941569">
    <tag k="addr:city" v="Canaan"/>
    <tag k="addr:housenumber" v="161"/>
    <tag k="addr:street" v="Ethan Allen Drive"/>
    <tag k="addr:state" v="VT"/>
    <tag k="ref:vcgi:esiteid" v="58928"/>
  </node>
  <node id="-346" visible="true" lat="44.99961478" lon="-71.53877804">
    <tag k="addr:city" v="Canaan"/>
    <tag k="addr:housenumber" v="170"/>
    <tag k="addr:street" v="Ethan Allen Drive"/>
    <tag k="addr:state" v="VT"/>
    <tag k="ref:vcgi:esiteid" v="58929"/>
  </node>
  <node id="-347" visible="true" lat="44.99965591" lon="-71.5435666">
    <tag k="addr:city" v="Canaan"/>
    <tag k="addr:housenumber" v="534"/>
    <tag k="addr:street" v="Gale Street"/>
    <tag k="addr:state" v="VT"/>
    <tag k="ref:vcgi:esiteid" v="58930"/>
  </node>
  <node id="-350" visible="true" lat="44.99963237" lon="-71.53972347">
    <tag k="addr:city" v="Canaan"/>
    <tag k="addr:housenumber" v="141"/>
    <tag k="addr:street" v="Ethan Allen Drive"/>
    <tag k="addr:state" v="VT"/>
    <tag k="ref:vcgi:esiteid" v="58935"/>
  </node>
  <node id="-351" visible="true" lat="44.99941641" lon="-71.53906033">
    <tag k="addr:city" v="Canaan"/>
    <tag k="addr:housenumber" v="152"/>
    <tag k="addr:street" v="Ethan Allen Drive"/>
    <tag k="addr:state" v="VT"/>
    <tag k="ref:vcgi:esiteid" v="58936"/>
  </node>
  <node id="-353" visible="true" lat="44.99958975" lon="-71.5412039">
    <tag k="addr:city" v="Canaan"/>
    <tag k="addr:housenumber" v="66"/>
    <tag k="addr:street" v="Enid Circle"/>
    <tag k="addr:state" v="VT"/>
    <tag k="ref:vcgi:esiteid" v="58938"/>
  </node>
  <node id="-354" visible="true" lat="44.99926224" lon="-71.5437315">
    <tag k="addr:city" v="Canaan"/>
    <tag k="addr:housenumber" v="523"/>
    <tag k="addr:street" v="Gale Street"/>
    <tag k="addr:state" v="VT"/>
    <tag k="ref:vcgi:esiteid" v="58939"/>
  </node>
  <node id="-355" visible="true" lat="44.99943808" lon="-71.5400208">
    <tag k="addr:city" v="Canaan"/>
    <tag k="addr:housenumber" v="123"/>
    <tag k="addr:street" v="Ethan Allen Drive"/>
    <tag k="addr:state" v="VT"/>
    <tag k="ref:vcgi:esiteid" v="58940"/>
  </node>
  <node id="-356" visible="true" lat="44.99922393" lon="-71.53934743">
    <tag k="addr:city" v="Canaan"/>
    <tag k="addr:housenumber" v="134"/>
    <tag k="addr:street" v="Ethan Allen Drive"/>
    <tag k="addr:state" v="VT"/>
    <tag k="ref:vcgi:esiteid" v="58941"/>
  </node>
  <node id="-357" visible="true" lat="44.99933954" lon="-71.54050625">
    <tag k="addr:city" v="Canaan"/>
    <tag k="addr:housenumber" v="20"/>
    <tag k="addr:street" v="Enid Circle"/>
    <tag k="addr:state" v="VT"/>
    <tag k="ref:vcgi:esiteid" v="58942"/>
  </node>
  <node id="-358" visible="true" lat="44.99934104" lon="-71.54163145">
    <tag k="addr:city" v="Canaan"/>
    <tag k="addr:housenumber" v="56"/>
    <tag k="addr:street" v="Enid Circle"/>
    <tag k="addr:state" v="VT"/>
    <tag k="ref:vcgi:esiteid" v="58943"/>
  </node>
  <node id="-360" visible="true" lat="44.99936732" lon="-71.54309644">
    <tag k="addr:city" v="Canaan"/>
    <tag k="addr:housenumber" v="494"/>
    <tag k="addr:street" v="Gale Street"/>
    <tag k="addr:state" v="VT"/>
    <tag k="ref:vcgi:esiteid" v="58946"/>
  </node>
  <node id="-362" visible="true" lat="44.99913828" lon="-71.54348398">
    <tag k="addr:city" v="Canaan"/>
    <tag k="addr:housenumber" v="505"/>
    <tag k="addr:street" v="Gale Street"/>
    <tag k="addr:state" v="VT"/>
    <tag k="ref:vcgi:esiteid" v="58948"/>
  </node>
  <node id="-364" visible="true" lat="44.99901764" lon="-71.53956951">
    <tag k="addr:city" v="Canaan"/>
    <tag k="addr:housenumber" v="116"/>
    <tag k="addr:street" v="Ethan Allen Drive"/>
    <tag k="addr:state" v="VT"/>
    <tag k="ref:vcgi:esiteid" v="58950"/>
  </node>
  <node id="-365" visible="true" lat="44.99900958" lon="-71.54150099">
    <tag k="addr:city" v="Canaan"/>
    <tag k="addr:housenumber" v="48"/>
    <tag k="addr:street" v="Enid Circle"/>
    <tag k="addr:state" v="VT"/>
    <tag k="ref:vcgi:esiteid" v="58951"/>
  </node>
  <node id="-366" visible="true" lat="44.99895306" lon="-71.54321127">
    <tag k="addr:city" v="Canaan"/>
    <tag k="addr:housenumber" v="483"/>
    <tag k="addr:street" v="Gale Street"/>
    <tag k="addr:state" v="VT"/>
    <tag k="ref:vcgi:esiteid" v="58953"/>
  </node>
  <node id="-368" visible="true" lat="44.99899439" lon="-71.54261147">
    <tag k="addr:city" v="Canaan"/>
    <tag k="addr:housenumber" v="464"/>
    <tag k="addr:street" v="Gale Street"/>
    <tag k="addr:state" v="VT"/>
    <tag k="ref:vcgi:esiteid" v="58956"/>
  </node>
  <node id="-371" visible="true" lat="44.9987204" lon="-71.54284544">
    <tag k="addr:city" v="Canaan"/>
    <tag k="addr:housenumber" v="459"/>
    <tag k="addr:street" v="Gale Street"/>
    <tag k="addr:state" v="VT"/>
    <tag k="ref:vcgi:esiteid" v="58961"/>
  </node>
  <node id="-372" visible="true" lat="44.99883318" lon="-71.54102564">
    <tag k="addr:city" v="Canaan"/>
    <tag k="addr:housenumber" v="55"/>
    <tag k="addr:street" v="Ethan Allen Drive"/>
    <tag k="addr:state" v="VT"/>
    <tag k="ref:vcgi:esiteid" v="58962"/>
  </node>
  <node id="-373" visible="true" lat="44.99885291" lon="-71.53979162">
    <tag k="addr:city" v="Canaan"/>
    <tag k="addr:housenumber" v="27"/>
    <tag k="addr:street" v="Nathan Street"/>
    <tag k="addr:state" v="VT"/>
    <tag k="ref:vcgi:esiteid" v="58963"/>
  </node>
  <node id="-374" visible="true" lat="44.99875253" lon="-71.54228278">
    <tag k="addr:city" v="Canaan"/>
    <tag k="addr:housenumber" v="440"/>
    <tag k="addr:street" v="Gale Street"/>
    <tag k="addr:state" v="VT"/>
    <tag k="ref:vcgi:esiteid" v="58964"/>
  </node>
  <node id="-377" visible="true" lat="44.99870329" lon="-71.5535803">
    <tag k="addr:city" v="Canaan"/>
    <tag k="addr:housenumber" v="377"/>
    <tag k="addr:street" v="Judd Road"/>
    <tag k="addr:state" v="VT"/>
    <tag k="ref:vcgi:esiteid" v="58967"/>
  </node>
  <node id="-378" visible="true" lat="44.99853931" lon="-71.54059171">
    <tag k="addr:city" v="Canaan"/>
    <tag k="addr:housenumber" v="56"/>
    <tag k="addr:street" v="Ethan Allen Drive"/>
    <tag k="addr:state" v="VT"/>
    <tag k="ref:vcgi:esiteid" v="58968"/>
  </node>
  <node id="-379" visible="true" lat="44.99844405" lon="-71.5402174">
    <tag k="addr:city" v="Canaan"/>
    <tag k="addr:housenumber" v="30"/>
    <tag k="addr:street" v="Nathan Street"/>
    <tag k="addr:state" v="VT"/>
    <tag k="ref:vcgi:esiteid" v="58969"/>
  </node>
  <node id="-380" visible="true" lat="44.99848167" lon="-71.54260088">
    <tag k="addr:city" v="Canaan"/>
    <tag k="addr:housenumber" v="437"/>
    <tag k="addr:street" v="Gale Street"/>
    <tag k="addr:state" v="VT"/>
    <tag k="ref:vcgi:esiteid" v="58970"/>
  </node>
  <node id="-382" visible="true" lat="44.99851353" lon="-71.5418447">
    <tag k="addr:city" v="Canaan"/>
    <tag k="addr:housenumber" v="410"/>
    <tag k="addr:street" v="Gale Street"/>
    <tag k="addr:state" v="VT"/>
    <tag k="ref:vcgi:esiteid" v="58972"/>
  </node>
  <node id="-384" visible="true" lat="44.99825331" lon="-71.53989697">
    <tag k="addr:city" v="Canaan"/>
    <tag k="addr:housenumber" v="52"/>
    <tag k="addr:street" v="Nathan Street"/>
    <tag k="addr:state" v="VT"/>
    <tag k="ref:vcgi:esiteid" v="58974"/>
  </node>
  <node id="-391" visible="true" lat="44.99810073" lon="-71.53966046">
    <tag k="addr:city" v="Canaan"/>
    <tag k="addr:housenumber" v="66"/>
    <tag k="addr:street" v="Nathan Street"/>
    <tag k="addr:state" v="VT"/>
    <tag k="ref:vcgi:esiteid" v="58981"/>
  </node>
  <node id="-394" visible="true" lat="44.99828065" lon="-71.55501517">
    <tag k="addr:city" v="Canaan"/>
    <tag k="addr:housenumber" v="436"/>
    <tag k="addr:street" v="Judd Road"/>
    <tag k="addr:state" v="VT"/>
    <tag k="ref:vcgi:esiteid" v="58984"/>
  </node>
  <node id="-398" visible="true" lat="44.99788329" lon="-71.53931713">
    <tag k="addr:city" v="Canaan"/>
    <tag k="addr:housenumber" v="90"/>
    <tag k="addr:street" v="Nathan Street"/>
    <tag k="addr:state" v="VT"/>
    <tag k="ref:vcgi:esiteid" v="58988"/>
  </node>
  <node id="-400" visible="true" lat="44.99771533" lon="-71.53907944">
    <tag k="addr:city" v="Canaan"/>
    <tag k="addr:housenumber" v="104"/>
    <tag k="addr:street" v="Nathan Street"/>
    <tag k="addr:state" v="VT"/>
    <tag k="ref:vcgi:esiteid" v="58990"/>
  </node>
  <node id="-407" visible="true" lat="44.99761192" lon="-71.54057777">
    <tag k="addr:city" v="Canaan"/>
    <tag k="addr:housenumber" v="326"/>
    <tag k="addr:street" v="Gale Street"/>
    <tag k="addr:state" v="VT"/>
    <tag k="ref:vcgi:esiteid" v="58997"/>
  </node>
  <node id="-414" visible="true" lat="44.99718145" lon="-71.55492651">
    <tag k="addr:city" v="Canaan"/>
    <tag k="addr:housenumber" v="477"/>
    <tag k="addr:street" v="Judd Road"/>
    <tag k="addr:state" v="VT"/>
    <tag k="ref:vcgi:esiteid" v="59004"/>
  </node>
  <node id="-416" visible="true" lat="44.99715376" lon="-71.54074507">
    <tag k="addr:city" v="Canaan"/>
    <tag k="addr:housenumber" v="309"/>
    <tag k="addr:street" v="Gale Street"/>
    <tag k="addr:state" v="VT"/>
    <tag k="ref:vcgi:esiteid" v="59006"/>
  </node>
  <node id="-419" visible="true" lat="44.99719269" lon="-71.53995371">
    <tag k="addr:city" v="Canaan"/>
    <tag k="addr:housenumber" v="282"/>
    <tag k="addr:street" v="Gale Street"/>
    <tag k="addr:state" v="VT"/>
    <tag k="ref:vcgi:esiteid" v="59009"/>
  </node>
  <node id="-421" visible="true" lat="44.99693137" lon="-71.54038902">
    <tag k="addr:city" v="Canaan"/>
    <tag k="addr:housenumber" v="281"/>
    <tag k="addr:street" v="Gale Street"/>
    <tag k="addr:state" v="VT"/>
    <tag k="ref:vcgi:esiteid" v="59011"/>
  </node>
  <node id="-426" visible="true" lat="44.99683542" lon="-71.53931228">
    <tag k="addr:city" v="Canaan"/>
    <tag k="addr:housenumber" v="240"/>
    <tag k="addr:street" v="Gale Street"/>
    <tag k="addr:state" v="VT"/>
    <tag k="ref:vcgi:esiteid" v="59017"/>
  </node>
  <node id="-450" visible="true" lat="44.99589389" lon="-71.54064789">
    <tag k="addr:city" v="Canaan"/>
    <tag k="addr:housenumber" v="6745"/>
    <tag k="addr:street" v="Vermont Route 102"/>
    <tag k="addr:state" v="VT"/>
    <tag k="ref:vcgi:esiteid" v="59045"/>
  </node>
  <node id="-452" visible="true" lat="44.99543832" lon="-71.53862841">
    <tag k="addr:city" v="Canaan"/>
    <tag k="addr:housenumber" v="6778"/>
    <tag k="addr:street" v="Vermont Route 102"/>
    <tag k="addr:state" v="VT"/>
    <tag k="ref:vcgi:esiteid" v="59047"/>
  </node>
  <node id="-453" visible="true" lat="44.99542328" lon="-71.53923282">
    <tag k="addr:city" v="Canaan"/>
    <tag k="addr:housenumber" v="5"/>
    <tag k="addr:street" v="Park Street"/>
    <tag k="addr:state" v="VT"/>
    <tag k="ref:vcgi:esiteid" v="59048"/>
  </node>
  <node id="-454" visible="true" lat="44.99566672" lon="-71.54223538">
    <tag k="addr:city" v="Canaan"/>
    <tag k="addr:housenumber" v="146"/>
    <tag k="addr:street" v="Canaan Mobile Home Park"/>
    <tag k="addr:state" v="VT"/>
    <tag k="ref:vcgi:esiteid" v="59049"/>
  </node>
  <node id="-455" visible="true" lat="44.99549497" lon="-71.54194807">
    <tag k="addr:city" v="Canaan"/>
    <tag k="addr:housenumber" v="134"/>
    <tag k="addr:street" v="Canaan Mobile Home Park"/>
    <tag k="addr:state" v="VT"/>
    <tag k="ref:vcgi:esiteid" v="59050"/>
  </node>
  <node id="-456" visible="true" lat="44.99543764" lon="-71.54165686">
    <tag k="addr:city" v="Canaan"/>
    <tag k="addr:housenumber" v="124"/>
    <tag k="addr:street" v="Canaan Mobile Home Park"/>
    <tag k="addr:state" v="VT"/>
    <tag k="ref:vcgi:esiteid" v="59051"/>
  </node>
  <node id="-457" visible="true" lat="44.99538238" lon="-71.5377002">
    <tag k="addr:city" v="Canaan"/>
    <tag k="addr:housenumber" v="99"/>
    <tag k="addr:street" v="School Street"/>
    <tag k="addr:state" v="VT"/>
    <tag k="ref:vcgi:esiteid" v="59052"/>
  </node>
  <node id="-458" visible="true" lat="44.99526117" lon="-71.54092147">
    <tag k="addr:city" v="Canaan"/>
    <tag k="addr:housenumber" v="84"/>
    <tag k="addr:street" v="Canaan Mobile Home Park"/>
    <tag k="addr:state" v="VT"/>
    <tag k="ref:vcgi:esiteid" v="59054"/>
  </node>
  <node id="-459" visible="true" lat="44.99515622" lon="-71.54242862">
    <tag k="addr:city" v="Canaan"/>
    <tag k="addr:housenumber" v="147"/>
    <tag k="addr:street" v="Canaan Mobile Home Park"/>
    <tag k="addr:state" v="VT"/>
    <tag k="ref:vcgi:esiteid" v="59055"/>
  </node>
  <node id="-460" visible="true" lat="44.99519189" lon="-71.5387582">
    <tag k="addr:city" v="Canaan"/>
    <tag k="addr:housenumber" v="22"/>
    <tag k="addr:street" v="School Street"/>
    <tag k="addr:state" v="VT"/>
    <tag k="ref:vcgi:esiteid" v="59056"/>
  </node>
  <node id="-461" visible="true" lat="44.99517432" lon="-71.54062211">
    <tag k="addr:city" v="Canaan"/>
    <tag k="addr:housenumber" v="70"/>
    <tag k="addr:street" v="Canaan Mobile Home Park"/>
    <tag k="addr:state" v="VT"/>
    <tag k="ref:vcgi:esiteid" v="59057"/>
  </node>
  <node id="-462" visible="true" lat="44.99506568" lon="-71.53835883">
    <tag k="addr:city" v="Canaan"/>
    <tag k="addr:housenumber" v="40"/>
    <tag k="addr:street" v="School Street"/>
    <tag k="addr:state" v="VT"/>
    <tag k="ref:vcgi:esiteid" v="59058"/>
  </node>
  <node id="-463" visible="true" lat="44.99508285" lon="-71.54215616">
    <tag k="addr:city" v="Canaan"/>
    <tag k="addr:housenumber" v="137"/>
    <tag k="addr:street" v="Canaan Mobile Home Park"/>
    <tag k="addr:state" v="VT"/>
    <tag k="ref:vcgi:esiteid" v="59059"/>
  </node>
  <node id="-464" visible="true" lat="44.99505984" lon="-71.54033059">
    <tag k="addr:city" v="Canaan"/>
    <tag k="addr:housenumber" v="54"/>
    <tag k="addr:street" v="Canaan Mobile Home Park"/>
    <tag k="addr:state" v="VT"/>
    <tag k="ref:vcgi:esiteid" v="59060"/>
  </node>
  <node id="-465" visible="true" lat="44.99503149" lon="-71.54185601">
    <tag k="addr:city" v="Canaan"/>
    <tag k="addr:housenumber" v="121"/>
    <tag k="addr:street" v="Canaan Mobile Home Park"/>
    <tag k="addr:state" v="VT"/>
    <tag k="ref:vcgi:esiteid" v="59061"/>
  </node>
  <node id="-466" visible="true" lat="44.99591691" lon="-71.62922444">
    <tag k="addr:city" v="Canaan"/>
    <tag k="addr:housenumber" v="923"/>
    <tag k="addr:street" v="Dubeau Road"/>
    <tag k="addr:state" v="VT"/>
    <tag k="ref:vcgi:esiteid" v="59062"/>
  </node>
  <node id="-467" visible="true" lat="44.99503916" lon="-71.54005864">
    <tag k="addr:city" v="Canaan"/>
    <tag k="addr:housenumber" v="34"/>
    <tag k="addr:street" v="Canaan Mobile Home Park"/>
    <tag k="addr:state" v="VT"/>
    <tag k="ref:vcgi:esiteid" v="59063"/>
  </node>
  <node id="-468" visible="true" lat="44.99496833" lon="-71.54148041">
    <tag k="addr:city" v="Canaan"/>
    <tag k="addr:housenumber" v="101"/>
    <tag k="addr:street" v="Canaan Mobile Home Park"/>
    <tag k="addr:state" v="VT"/>
    <tag k="ref:vcgi:esiteid" v="59064"/>
  </node>
  <node id="-469" visible="true" lat="44.99485436" lon="-71.54118643">
    <tag k="addr:city" v="Canaan"/>
    <tag k="addr:housenumber" v="85"/>
    <tag k="addr:street" v="Canaan Mobile Home Park"/>
    <tag k="addr:state" v="VT"/>
    <tag k="ref:vcgi:esiteid" v="59065"/>
  </node>
  <node id="-470" visible="true" lat="44.99488201" lon="-71.5396763">
    <tag k="addr:city" v="Canaan"/>
    <tag k="addr:housenumber" v="18"/>
    <tag k="addr:street" v="Canaan Mobile Home Park"/>
    <tag k="addr:state" v="VT"/>
    <tag k="ref:vcgi:esiteid" v="59066"/>
  </node>
  <node id="-472" visible="true" lat="44.99479642" lon="-71.54085336">
    <tag k="addr:city" v="Canaan"/>
    <tag k="addr:housenumber" v="71"/>
    <tag k="addr:street" v="Canaan Mobile Home Park"/>
    <tag k="addr:state" v="VT"/>
    <tag k="ref:vcgi:esiteid" v="59068"/>
  </node>
  <node id="-473" visible="true" lat="44.99469314" lon="-71.54052584">
    <tag k="addr:city" v="Canaan"/>
    <tag k="addr:housenumber" v="55"/>
    <tag k="addr:street" v="Canaan Mobile Home Park"/>
    <tag k="addr:state" v="VT"/>
    <tag k="ref:vcgi:esiteid" v="59070"/>
  </node>
  <node id="-475" visible="true" lat="44.99459437" lon="-71.54019072">
    <tag k="addr:city" v="Canaan"/>
    <tag k="addr:housenumber" v="31"/>
    <tag k="addr:street" v="Canaan Mobile Home Park"/>
    <tag k="addr:state" v="VT"/>
    <tag k="ref:vcgi:esiteid" v="59072"/>
  </node>
  <node id="-476" visible="true" lat="44.99426258" lon="-71.53992598">
    <tag k="addr:city" v="Canaan"/>
    <tag k="addr:housenumber" v="6681"/>
    <tag k="addr:street" v="Vermont Route 102"/>
    <tag k="addr:state" v="VT"/>
    <tag k="ref:vcgi:esiteid" v="59074"/>
  </node>
  <node id="-477" visible="true" lat="44.99396993" lon="-71.53792968">
    <tag k="addr:city" v="Canaan"/>
    <tag k="addr:housenumber" v="6686"/>
    <tag k="addr:street" v="Vermont Route 102"/>
    <tag k="addr:state" v="VT"/>
    <tag k="ref:vcgi:esiteid" v="59075"/>
  </node>
  <node id="-478" visible="true" lat="44.99412042" lon="-71.53947495">
    <tag k="addr:city" v="Canaan"/>
    <tag k="addr:housenumber" v="6672"/>
    <tag k="addr:street" v="Vermont Route 102"/>
    <tag k="addr:state" v="VT"/>
    <tag k="ref:vcgi:esiteid" v="59076"/>
  </node>
  <node id="-479" visible="true" lat="44.99388614" lon="-71.54020552">
    <tag k="addr:city" v="Canaan"/>
    <tag k="addr:housenumber" v="6651"/>
    <tag k="addr:street" v="Vermont Route 102"/>
    <tag k="addr:state" v="VT"/>
    <tag k="ref:vcgi:esiteid" v="59077"/>
  </node>
  <node id="-480" visible="true" lat="44.99369886" lon="-71.5397606">
    <tag k="addr:city" v="Canaan"/>
    <tag k="addr:housenumber" v="6646"/>
    <tag k="addr:street" v="Vermont Route 102"/>
    <tag k="addr:state" v="VT"/>
    <tag k="ref:vcgi:esiteid" v="59078"/>
  </node>
  <node id="-481" visible="true" lat="44.9935075" lon="-71.53987557">
    <tag k="addr:city" v="Canaan"/>
    <tag k="addr:housenumber" v="6624"/>
    <tag k="addr:street" v="Vermont Route 102"/>
    <tag k="addr:state" v="VT"/>
    <tag k="ref:vcgi:esiteid" v="59080"/>
  </node>
  <node id="-482" visible="true" lat="44.99440459" lon="-71.6231861">
    <tag k="addr:city" v="Canaan"/>
    <tag k="addr:housenumber" v="1141"/>
    <tag k="addr:street" v="Dubeau Road"/>
    <tag k="addr:state" v="VT"/>
    <tag k="ref:vcgi:esiteid" v="59081"/>
  </node>
  <node id="-483" visible="true" lat="44.993178" lon="-71.54072406">
    <tag k="addr:city" v="Canaan"/>
    <tag k="addr:housenumber" v="6593"/>
    <tag k="addr:street" v="Vermont Route 102"/>
    <tag k="addr:state" v="VT"/>
    <tag k="ref:vcgi:esiteid" v="59082"/>
  </node>
  <node id="-484" visible="true" lat="44.99291032" lon="-71.54099486">
    <tag k="addr:city" v="Canaan"/>
    <tag k="addr:housenumber" v="6565"/>
    <tag k="addr:street" v="Vermont Route 102"/>
    <tag k="addr:state" v="VT"/>
    <tag k="ref:vcgi:esiteid" v="59083"/>
  </node>
  <node id="-485" visible="true" lat="44.99266448" lon="-71.54136667">
    <tag k="addr:city" v="Canaan"/>
    <tag k="addr:housenumber" v="6537"/>
    <tag k="addr:street" v="Vermont Route 102"/>
    <tag k="addr:state" v="VT"/>
    <tag k="ref:vcgi:esiteid" v="59084"/>
  </node>
  <node id="-486" visible="true" lat="44.99233093" lon="-71.54092911">
    <tag k="addr:city" v="Canaan"/>
    <tag k="addr:housenumber" v="6532"/>
    <tag k="addr:street" v="Vermont Route 102"/>
    <tag k="addr:state" v="VT"/>
    <tag k="ref:vcgi:esiteid" v="59085"/>
  </node>
  <node id="-487" visible="true" lat="44.99237642" lon="-71.54172834">
    <tag k="addr:city" v="Canaan"/>
    <tag k="addr:housenumber" v="6513"/>
    <tag k="addr:street" v="Vermont Route 102"/>
    <tag k="addr:state" v="VT"/>
    <tag k="ref:vcgi:esiteid" v="59086"/>
  </node>
  <node id="-488" visible="true" lat="44.9921002" lon="-71.5413043">
    <tag k="addr:city" v="Canaan"/>
    <tag k="addr:housenumber" v="6498"/>
    <tag k="addr:street" v="Vermont Route 102"/>
    <tag k="addr:state" v="VT"/>
    <tag k="ref:vcgi:esiteid" v="59087"/>
  </node>
  <node id="-489" visible="true" lat="44.99198971" lon="-71.54202703">
    <tag k="addr:city" v="Canaan"/>
    <tag k="addr:housenumber" v="6487"/>
    <tag k="addr:street" v="Vermont Route 102"/>
    <tag k="addr:state" v="VT"/>
    <tag k="ref:vcgi:esiteid" v="59088"/>
  </node>
  <node id="-490" visible="true" lat="44.99179889" lon="-71.54170323">
    <tag k="addr:city" v="Canaan"/>
    <tag k="addr:housenumber" v="13"/>
    <tag k="addr:street" v="Frechette Drive"/>
    <tag k="addr:state" v="VT"/>
    <tag k="ref:vcgi:esiteid" v="59089"/>
  </node>
  <node id="-491" visible="true" lat="44.99160045" lon="-71.54134246">
    <tag k="addr:city" v="Canaan"/>
    <tag k="addr:housenumber" v="27"/>
    <tag k="addr:street" v="Frechette Drive"/>
    <tag k="addr:state" v="VT"/>
    <tag k="ref:vcgi:esiteid" v="59090"/>
  </node>
  <node id="-492" visible="true" lat="44.99145969" lon="-71.54110957">
    <tag k="addr:city" v="Canaan"/>
    <tag k="addr:housenumber" v="45"/>
    <tag k="addr:street" v="Frechette Drive"/>
    <tag k="addr:state" v="VT"/>
    <tag k="ref:vcgi:esiteid" v="59091"/>
  </node>
  <node id="-494" visible="true" lat="44.9881432" lon="-71.53957726">
    <tag k="addr:city" v="Canaan"/>
    <tag k="addr:housenumber" v="281"/>
    <tag k="addr:street" v="Treatment Plant Road"/>
    <tag k="addr:state" v="VT"/>
    <tag k="ref:vcgi:esiteid" v="59093"/>
  </node>
  <node id="-495" visible="true" lat="44.98746553" lon="-71.57631153">
    <tag k="addr:city" v="Canaan"/>
    <tag k="addr:housenumber" v="661"/>
    <tag k="addr:street" v="Fund Road"/>
    <tag k="addr:state" v="VT"/>
    <tag k="ref:vcgi:esiteid" v="59095"/>
  </node>
  <node id="-496" visible="true" lat="44.982664" lon="-71.54366696">
    <tag k="addr:city" v="Canaan"/>
    <tag k="addr:housenumber" v="5857"/>
    <tag k="addr:street" v="Vermont Route 102"/>
    <tag k="addr:state" v="VT"/>
    <tag k="ref:vcgi:esiteid" v="59096"/>
  </node>
  <node id="-497" visible="true" lat="44.98202533" lon="-71.54357306">
    <tag k="addr:city" v="Canaan"/>
    <tag k="addr:housenumber" v="5793"/>
    <tag k="addr:street" v="Vermont Route 102"/>
    <tag k="addr:state" v="VT"/>
    <tag k="ref:vcgi:esiteid" v="59097"/>
  </node>
  <node id="-498" visible="true" lat="44.98172899" lon="-71.55096182">
    <tag k="addr:city" v="Canaan"/>
    <tag k="addr:housenumber" v="386"/>
    <tag k="addr:street" v="Canaan Hill Road"/>
    <tag k="addr:state" v="VT"/>
    <tag k="ref:vcgi:esiteid" v="59098"/>
  </node>
  <node id="-499" visible="true" lat="44.98163868" lon="-71.5522103">
    <tag k="addr:city" v="Canaan"/>
    <tag k="addr:housenumber" v="438"/>
    <tag k="addr:street" v="Canaan Hill Road"/>
    <tag k="addr:state" v="VT"/>
    <tag k="ref:vcgi:esiteid" v="59099"/>
  </node>
  <node id="-500" visible="true" lat="44.98111888" lon="-71.54326559">
    <tag k="addr:city" v="Canaan"/>
    <tag k="addr:housenumber" v="5727"/>
    <tag k="addr:street" v="Vermont Route 102"/>
    <tag k="addr:state" v="VT"/>
    <tag k="ref:vcgi:esiteid" v="59100"/>
  </node>
  <node id="-501" visible="true" lat="44.98102146" lon="-71.55725103">
    <tag k="addr:city" v="Canaan"/>
    <tag k="addr:housenumber" v="702"/>
    <tag k="addr:street" v="Canaan Hill Road"/>
    <tag k="addr:state" v="VT"/>
    <tag k="ref:vcgi:esiteid" v="59101"/>
  </node>
  <node id="-502" visible="true" lat="44.98069483" lon="-71.56334468">
    <tag k="addr:city" v="Canaan"/>
    <tag k="addr:housenumber" v="42"/>
    <tag k="addr:street" v="Fund Road"/>
    <tag k="addr:state" v="VT"/>
    <tag k="ref:vcgi:esiteid" v="59102"/>
  </node>
  <node id="-503" visible="true" lat="44.9801783" lon="-71.54294278">
    <tag k="addr:city" v="Canaan"/>
    <tag k="addr:housenumber" v="5633"/>
    <tag k="addr:street" v="Vermont Route 102"/>
    <tag k="addr:state" v="VT"/>
    <tag k="ref:vcgi:esiteid" v="59103"/>
  </node>
  <node id="-504" visible="true" lat="44.98082823" lon="-71.60775582">
    <tag k="addr:city" v="Canaan"/>
    <tag k="addr:housenumber" v="199"/>
    <tag k="addr:street" v="Morrill Brook Road"/>
    <tag k="addr:state" v="VT"/>
    <tag k="ref:vcgi:esiteid" v="59104"/>
  </node>
  <node id="-505" visible="true" lat="44.97888138" lon="-71.54388071">
    <tag k="addr:city" v="Canaan"/>
    <tag k="addr:housenumber" v="98"/>
    <tag k="addr:street" v="Kemp Hill Road"/>
    <tag k="addr:state" v="VT"/>
    <tag k="ref:vcgi:esiteid" v="59105"/>
  </node>
  <node id="-506" visible="true" lat="44.97881598" lon="-71.54265214">
    <tag k="addr:city" v="Canaan"/>
    <tag k="addr:housenumber" v="48"/>
    <tag k="addr:street" v="Kemp Hill Road"/>
    <tag k="addr:state" v="VT"/>
    <tag k="ref:vcgi:esiteid" v="59107"/>
  </node>
  <node id="-507" visible="true" lat="44.97869861" lon="-71.6048022">
    <tag k="addr:city" v="Canaan"/>
    <tag k="addr:housenumber" v="3822"/>
    <tag k="addr:street" v="Canaan Hill Road"/>
    <tag k="addr:state" v="VT"/>
    <tag k="ref:vcgi:esiteid" v="59108"/>
  </node>
  <node id="-508" visible="true" lat="44.97824632" lon="-71.5436448">
    <tag k="addr:city" v="Canaan"/>
    <tag k="addr:housenumber" v="111"/>
    <tag k="addr:street" v="Kemp Hill Road"/>
    <tag k="addr:state" v="VT"/>
    <tag k="ref:vcgi:esiteid" v="59109"/>
  </node>
  <node id="-509" visible="true" lat="44.97809144" lon="-71.54862037">
    <tag k="addr:city" v="Canaan"/>
    <tag k="addr:housenumber" v="332"/>
    <tag k="addr:street" v="Kemp Hill Road"/>
    <tag k="addr:state" v="VT"/>
    <tag k="ref:vcgi:esiteid" v="59110"/>
  </node>
  <node id="-510" visible="true" lat="44.97894851" lon="-71.59919889">
    <tag k="addr:city" v="Canaan"/>
    <tag k="addr:housenumber" v="3604"/>
    <tag k="addr:street" v="Canaan Hill Road"/>
    <tag k="addr:state" v="VT"/>
    <tag k="ref:vcgi:esiteid" v="59111"/>
  </node>
  <node id="-511" visible="true" lat="44.9774034" lon="-71.54042066">
    <tag k="addr:city" v="Canaan"/>
    <tag k="addr:housenumber" v="5425"/>
    <tag k="addr:street" v="Vermont Route 102"/>
    <tag k="addr:state" v="VT"/>
    <tag k="ref:vcgi:esiteid" v="59113"/>
  </node>
  <node id="-512" visible="true" lat="44.97714253" lon="-71.54863333">
    <tag k="addr:city" v="Canaan"/>
    <tag k="addr:housenumber" v="410"/>
    <tag k="addr:street" v="Kemp Hill Road"/>
    <tag k="addr:state" v="VT"/>
    <tag k="ref:vcgi:esiteid" v="59114"/>
  </node>
  <node id="-513" visible="true" lat="44.97661679" lon="-71.59094074">
    <tag k="addr:city" v="Canaan"/>
    <tag k="addr:housenumber" v="3060"/>
    <tag k="addr:street" v="Canaan Hill Road"/>
    <tag k="addr:state" v="VT"/>
    <tag k="ref:vcgi:esiteid" v="59116"/>
  </node>
  <node id="-514" visible="true" lat="44.97571841" lon="-71.53798629">
    <tag k="addr:city" v="Canaan"/>
    <tag k="addr:housenumber" v="5287"/>
    <tag k="addr:street" v="Vermont Route 102"/>
    <tag k="addr:state" v="VT"/>
    <tag k="ref:vcgi:esiteid" v="59117"/>
  </node>
  <node id="-515" visible="true" lat="44.97535395" lon="-71.53721619">
    <tag k="addr:city" v="Canaan"/>
    <tag k="addr:housenumber" v="5223"/>
    <tag k="addr:street" v="Vermont Route 102"/>
    <tag k="addr:state" v="VT"/>
    <tag k="ref:vcgi:esiteid" v="59119"/>
  </node>
  <node id="-516" visible="true" lat="44.97515413" lon="-71.54829326">
    <tag k="addr:city" v="Canaan"/>
    <tag k="addr:housenumber" v="545"/>
    <tag k="addr:street" v="Kemp Hill Road"/>
    <tag k="addr:state" v="VT"/>
    <tag k="ref:vcgi:esiteid" v="59120"/>
  </node>
  <node id="-517" visible="true" lat="44.97392655" lon="-71.59060585">
    <tag k="addr:city" v="Canaan"/>
    <tag k="addr:housenumber" v="3022"/>
    <tag k="addr:street" v="Canaan Hill Road"/>
    <tag k="addr:state" v="VT"/>
    <tag k="ref:vcgi:esiteid" v="59121"/>
  </node>
  <node id="-518" visible="true" lat="44.97269506" lon="-71.60692286">
    <tag k="addr:city" v="Canaan"/>
    <tag k="addr:housenumber" v="394"/>
    <tag k="addr:street" v="School House Brook Road"/>
    <tag k="addr:state" v="VT"/>
    <tag k="ref:vcgi:esiteid" v="59122"/>
  </node>
  <node id="-519" visible="true" lat="44.97240229" lon="-71.54920352">
    <tag k="addr:city" v="Canaan"/>
    <tag k="addr:housenumber" v="722"/>
    <tag k="addr:street" v="Kemp Hill Road"/>
    <tag k="addr:state" v="VT"/>
    <tag k="ref:vcgi:esiteid" v="59123"/>
  </node>
  <node id="-520" visible="true" lat="44.97163771" lon="-71.61828417">
    <tag k="addr:city" v="Canaan"/>
    <tag k="addr:housenumber" v="4679"/>
    <tag k="addr:street" v="Canaan Hill Road"/>
    <tag k="addr:state" v="VT"/>
    <tag k="ref:vcgi:esiteid" v="59124"/>
  </node>
  <node id="-521" visible="true" lat="44.96995309" lon="-71.58708373">
    <tag k="addr:city" v="Canaan"/>
    <tag k="addr:housenumber" v="2669"/>
    <tag k="addr:street" v="Canaan Hill Road"/>
    <tag k="addr:state" v="VT"/>
    <tag k="ref:vcgi:esiteid" v="59125"/>
  </node>
  <node id="-522" visible="true" lat="44.9696767" lon="-71.54792302">
    <tag k="addr:city" v="Canaan"/>
    <tag k="addr:housenumber" v="53"/>
    <tag k="addr:street" v="Chamberlain Road"/>
    <tag k="addr:state" v="VT"/>
    <tag k="ref:vcgi:esiteid" v="59126"/>
  </node>
  <node id="-523" visible="true" lat="44.96904978" lon="-71.58505681">
    <tag k="addr:city" v="Canaan"/>
    <tag k="addr:housenumber" v="21"/>
    <tag k="addr:street" v="Clay Brook Road"/>
    <tag k="addr:state" v="VT"/>
    <tag k="ref:vcgi:esiteid" v="59127"/>
  </node>
  <node id="-524" visible="true" lat="44.96827921" lon="-71.58672425">
    <tag k="addr:city" v="Canaan"/>
    <tag k="addr:housenumber" v="116"/>
    <tag k="addr:street" v="Clay Brook Road"/>
    <tag k="addr:state" v="VT"/>
    <tag k="ref:vcgi:esiteid" v="59128"/>
  </node>
  <node id="-525" visible="true" lat="44.96772828" lon="-71.52540528">
    <tag k="addr:city" v="Canaan"/>
    <tag k="addr:housenumber" v="4376"/>
    <tag k="addr:street" v="Vermont Route 102"/>
    <tag k="addr:state" v="VT"/>
    <tag k="ref:vcgi:esiteid" v="59129"/>
  </node>
  <node id="-526" visible="true" lat="44.96686627" lon="-71.52630465">
    <tag k="addr:city" v="Canaan"/>
    <tag k="addr:housenumber" v="4323"/>
    <tag k="addr:street" v="Vermont Route 102"/>
    <tag k="addr:state" v="VT"/>
    <tag k="ref:vcgi:esiteid" v="59130"/>
  </node>
  <node id="-527" visible="true" lat="44.96700071" lon="-71.55231312">
    <tag k="addr:city" v="Canaan"/>
    <tag k="addr:housenumber" v="1219"/>
    <tag k="addr:street" v="Kemp Hill Road"/>
    <tag k="addr:state" v="VT"/>
    <tag k="ref:vcgi:esiteid" v="59131"/>
  </node>
  <node id="-528" visible="true" lat="44.96598935" lon="-71.54586724">
    <tag k="addr:city" v="Canaan"/>
    <tag k="addr:housenumber" v="333"/>
    <tag k="addr:street" v="Chamberlain Road"/>
    <tag k="addr:state" v="VT"/>
    <tag k="ref:vcgi:esiteid" v="59132"/>
  </node>
  <node id="-529" visible="true" lat="44.96595321" lon="-71.58778465">
    <tag k="addr:city" v="Canaan"/>
    <tag k="addr:housenumber" v="286"/>
    <tag k="addr:street" v="Clay Brook Road"/>
    <tag k="addr:state" v="VT"/>
    <tag k="ref:vcgi:esiteid" v="59133"/>
  </node>
  <node id="-530" visible="true" lat="44.96527645" lon="-71.52676308">
    <tag k="addr:city" v="Canaan"/>
    <tag k="addr:housenumber" v="4225"/>
    <tag k="addr:street" v="Vermont Route 102"/>
    <tag k="addr:state" v="VT"/>
    <tag k="ref:vcgi:esiteid" v="59135"/>
  </node>
  <node id="-531" visible="true" lat="44.96473938" lon="-71.52686572">
    <tag k="addr:city" v="Canaan"/>
    <tag k="addr:housenumber" v="4185"/>
    <tag k="addr:street" v="Vermont Route 102"/>
    <tag k="addr:state" v="VT"/>
    <tag k="ref:vcgi:esiteid" v="59136"/>
  </node>
  <node id="-532" visible="true" lat="44.96456501" lon="-71.58948295">
    <tag k="addr:city" v="Canaan"/>
    <tag k="addr:housenumber" v="374"/>
    <tag k="addr:street" v="Clay Brook Road"/>
    <tag k="addr:state" v="VT"/>
    <tag k="ref:vcgi:esiteid" v="59137"/>
  </node>
  <node id="-533" visible="true" lat="44.96394812" lon="-71.52753714">
    <tag k="addr:city" v="Canaan"/>
    <tag k="addr:housenumber" v="4099"/>
    <tag k="addr:street" v="Vermont Route 102"/>
    <tag k="addr:state" v="VT"/>
    <tag k="ref:vcgi:esiteid" v="59138"/>
  </node>
  <node id="-534" visible="true" lat="44.96364507" lon="-71.52796963">
    <tag k="addr:city" v="Canaan"/>
    <tag k="addr:housenumber" v="4067"/>
    <tag k="addr:street" v="Vermont Route 102"/>
    <tag k="addr:state" v="VT"/>
    <tag k="ref:vcgi:esiteid" v="59139"/>
  </node>
  <node id="-535" visible="true" lat="44.96387955" lon="-71.5871469">
    <tag k="addr:city" v="Canaan"/>
    <tag k="addr:housenumber" v="431"/>
    <tag k="addr:street" v="Clay Brook Road"/>
    <tag k="addr:state" v="VT"/>
    <tag k="ref:vcgi:esiteid" v="59140"/>
  </node>
  <node id="-536" visible="true" lat="44.96276456" lon="-71.58869458">
    <tag k="addr:city" v="Canaan"/>
    <tag k="addr:housenumber" v="564"/>
    <tag k="addr:street" v="Clay Brook Road"/>
    <tag k="addr:state" v="VT"/>
    <tag k="ref:vcgi:esiteid" v="59141"/>
  </node>
  <node id="-537" visible="true" lat="44.96211093" lon="-71.52888979">
    <tag k="addr:city" v="Canaan"/>
    <tag k="addr:housenumber" v="3959"/>
    <tag k="addr:street" v="Vermont Route 102"/>
    <tag k="addr:state" v="VT"/>
    <tag k="ref:vcgi:esiteid" v="59142"/>
  </node>
  <node id="-538" visible="true" lat="44.96134165" lon="-71.6008188">
    <tag k="addr:city" v="Canaan"/>
    <tag k="addr:housenumber" v="511"/>
    <tag k="addr:street" v="Pollard Hill"/>
    <tag k="addr:state" v="VT"/>
    <tag k="ref:vcgi:esiteid" v="59143"/>
  </node>
  <node id="-539" visible="true" lat="44.96091289" lon="-71.58741308">
    <tag k="addr:city" v="Canaan"/>
    <tag k="addr:housenumber" v="119"/>
    <tag k="addr:street" v="Gray Road"/>
    <tag k="addr:state" v="VT"/>
    <tag k="ref:vcgi:esiteid" v="59144"/>
  </node>
  <node id="-540" visible="true" lat="44.96028482" lon="-71.58971896">
    <tag k="addr:city" v="Canaan"/>
    <tag k="addr:housenumber" v="715"/>
    <tag k="addr:street" v="Clay Brook Road"/>
    <tag k="addr:state" v="VT"/>
    <tag k="ref:vcgi:esiteid" v="59145"/>
  </node>
  <node id="-541" visible="true" lat="44.95967916" lon="-71.60389839">
    <tag k="addr:city" v="Canaan"/>
    <tag k="addr:housenumber" v="465"/>
    <tag k="addr:street" v="Pollard Hill"/>
    <tag k="addr:state" v="VT"/>
    <tag k="ref:vcgi:esiteid" v="59146"/>
  </node>
  <node id="-542" visible="true" lat="44.95921097" lon="-71.58915909">
    <tag k="addr:city" v="Canaan"/>
    <tag k="addr:housenumber" v="118"/>
    <tag k="addr:street" v="Gray Road"/>
    <tag k="addr:state" v="VT"/>
    <tag k="ref:vcgi:esiteid" v="59147"/>
  </node>
  <node id="-543" visible="true" lat="44.95850999" lon="-71.5273221">
    <tag k="addr:city" v="Canaan"/>
    <tag k="addr:housenumber" v="3705"/>
    <tag k="addr:street" v="Vermont Route 102"/>
    <tag k="addr:state" v="VT"/>
    <tag k="ref:vcgi:esiteid" v="59148"/>
  </node>
  <node id="-544" visible="true" lat="44.95919527" lon="-71.59275953">
    <tag k="addr:city" v="Canaan"/>
    <tag k="addr:housenumber" v="898"/>
    <tag k="addr:street" v="Clay Brook Road"/>
    <tag k="addr:state" v="VT"/>
    <tag k="ref:vcgi:esiteid" v="59149"/>
  </node>
  <node id="-545" visible="true" lat="44.95884683" lon="-71.59974672">
    <tag k="addr:city" v="Canaan"/>
    <tag k="addr:housenumber" v="327"/>
    <tag k="addr:street" v="Pollard Hill"/>
    <tag k="addr:state" v="VT"/>
    <tag k="ref:vcgi:esiteid" v="59150"/>
  </node>
  <node id="-546" visible="true" lat="44.95813721" lon="-71.59870131">
    <tag k="addr:city" v="Canaan"/>
    <tag k="addr:housenumber" v="232"/>
    <tag k="addr:street" v="Pollard Hill"/>
    <tag k="addr:state" v="VT"/>
    <tag k="ref:vcgi:esiteid" v="59151"/>
  </node>
  <node id="-548" visible="true" lat="44.95739945" lon="-71.59777616">
    <tag k="addr:city" v="Canaan"/>
    <tag k="addr:housenumber" v="188"/>
    <tag k="addr:street" v="Pollard Hill"/>
    <tag k="addr:state" v="VT"/>
    <tag k="ref:vcgi:esiteid" v="59153"/>
  </node>
  <node id="-550" visible="true" lat="44.9557404" lon="-71.59725678">
    <tag k="addr:city" v="Canaan"/>
    <tag k="addr:housenumber" v="75"/>
    <tag k="addr:street" v="Pollard Hill"/>
    <tag k="addr:state" v="VT"/>
    <tag k="ref:vcgi:esiteid" v="59155"/>
  </node>
  <node id="-553" visible="true" lat="44.94480715" lon="-71.52645909">
    <tag k="addr:city" v="Canaan"/>
    <tag k="addr:housenumber" v="2665"/>
    <tag k="addr:street" v="Vermont Route 102"/>
    <tag k="addr:state" v="VT"/>
    <tag k="ref:vcgi:esiteid" v="59160"/>
  </node>
  <node id="-555" visible="true" lat="44.94298665" lon="-71.55214202">
    <tag k="addr:city" v="Canaan"/>
    <tag k="addr:housenumber" v="1050"/>
    <tag k="addr:street" v="Hudson Road"/>
    <tag k="addr:state" v="VT"/>
    <tag k="ref:vcgi:esiteid" v="59162"/>
  </node>
  <node id="-557" visible="true" lat="44.93866792" lon="-71.55739202">
    <tag k="addr:city" v="Canaan"/>
    <tag k="addr:housenumber" v="1217"/>
    <tag k="addr:street" v="Hudson Road"/>
    <tag k="addr:state" v="VT"/>
    <tag k="ref:vcgi:esiteid" v="59166"/>
  </node>
  <node id="-565" visible="true" lat="44.9251201" lon="-71.54274879">
    <tag k="addr:city" v="Canaan"/>
    <tag k="addr:housenumber" v="1041"/>
    <tag k="addr:street" v="Todd Hill Road"/>
    <tag k="addr:state" v="VT"/>
    <tag k="ref:vcgi:esiteid" v="59175"/>
  </node>
  <node id="-566" visible="true" lat="44.9307219" lon="-71.53969689">
    <tag k="addr:city" v="Canaan"/>
    <tag k="addr:housenumber" v="978"/>
    <tag k="addr:street" v="Todd Hill Road"/>
    <tag k="addr:state" v="VT"/>
    <tag k="ref:vcgi:esiteid" v="59176"/>
  </node>
  <node id="-570" visible="true" lat="44.92695959" lon="-71.54729354">
    <tag k="addr:city" v="Canaan"/>
    <tag k="addr:housenumber" v="1471"/>
    <tag k="addr:street" v="Todd Hill Road"/>
    <tag k="addr:state" v="VT"/>
    <tag k="ref:vcgi:esiteid" v="59182"/>
  </node>
  <node id="-572" visible="true" lat="44.92650667" lon="-71.54790239">
    <tag k="addr:city" v="Canaan"/>
    <tag k="addr:housenumber" v="1496"/>
    <tag k="addr:street" v="Todd Hill Road"/>
    <tag k="addr:state" v="VT"/>
    <tag k="ref:vcgi:esiteid" v="59184"/>
  </node>
  <node id="-573" visible="true" lat="44.92649274" lon="-71.53300678">
    <tag k="addr:city" v="Canaan"/>
    <tag k="addr:housenumber" v="511"/>
    <tag k="addr:street" v="Todd Hill Road"/>
    <tag k="addr:state" v="VT"/>
    <tag k="ref:vcgi:esiteid" v="59185"/>
  </node>
  <node id="-574" visible="true" lat="44.92677673" lon="-71.52929707">
    <tag k="addr:city" v="Canaan"/>
    <tag k="addr:housenumber" v="320"/>
    <tag k="addr:street" v="Todd Hill Road"/>
    <tag k="addr:state" v="VT"/>
    <tag k="ref:vcgi:esiteid" v="59186"/>
  </node>
  <node id="-587" visible="true" lat="44.9510498" lon="-71.52333069">
    <tag k="addr:city" v="Canaan"/>
    <tag k="addr:housenumber" v="3146"/>
    <tag k="addr:street" v="Vermont Route 102"/>
    <tag k="addr:state" v="VT"/>
    <tag k="ref:vcgi:esiteid" v="59203"/>
  </node>
  <node id="-591" visible="true" lat="45.00232638" lon="-71.53651904">
    <tag k="addr:city" v="Canaan"/>
    <tag k="addr:housenumber" v="58"/>
    <tag k="addr:street" v="Hilltop Drive"/>
    <tag k="addr:state" v="VT"/>
    <tag k="ref:vcgi:esiteid" v="59209"/>
  </node>
  <node id="-592" visible="true" lat="45.00431591" lon="-71.63599784">
    <tag k="addr:city" v="Canaan"/>
    <tag k="addr:housenumber" v="382"/>
    <tag k="addr:street" v="Lake View"/>
    <tag k="addr:state" v="VT"/>
    <tag k="ref:vcgi:esiteid" v="59210"/>
  </node>
  <node id="-593" visible="true" lat="45.00231243" lon="-71.64599927">
    <tag k="addr:city" v="Canaan"/>
    <tag k="addr:housenumber" v="227"/>
    <tag k="addr:street" v="Cote Drive"/>
    <tag k="addr:state" v="VT"/>
    <tag k="ref:vcgi:esiteid" v="59211"/>
  </node>
  <node id="-594" visible="true" lat="44.97150456" lon="-71.6170448">
    <tag k="addr:city" v="Canaan"/>
    <tag k="addr:housenumber" v="4573"/>
    <tag k="addr:street" v="Canaan Hill Road"/>
    <tag k="addr:state" v="VT"/>
    <tag k="ref:vcgi:esiteid" v="59213"/>
  </node>
  <node id="-595" visible="true" lat="44.9676223" lon="-71.58630066">
    <tag k="addr:city" v="Canaan"/>
    <tag k="addr:housenumber" v="146"/>
    <tag k="addr:street" v="Clay Brook Road"/>
    <tag k="addr:state" v="VT"/>
    <tag k="ref:vcgi:esiteid" v="59215"/>
  </node>
  <node id="-596" visible="true" lat="45.00575528" lon="-71.63524244">
    <tag k="addr:city" v="Canaan"/>
    <tag k="addr:housenumber" v="4915"/>
    <tag k="addr:street" v="Vermont Route 114"/>
    <tag k="addr:state" v="VT"/>
    <tag k="ref:vcgi:esiteid" v="59217"/>
  </node>
  <node id="-598" visible="true" lat="45.00731758" lon="-71.68257586">
    <tag k="addr:city" v="Canaan"/>
    <tag k="addr:housenumber" v="7240"/>
    <tag k="addr:street" v="Vermont Route 114"/>
    <tag k="addr:state" v="VT"/>
    <tag k="ref:vcgi:esiteid" v="59219"/>
  </node>
  <node id="-599" visible="true" lat="45.00599926" lon="-71.68550327">
    <tag k="addr:city" v="Canaan"/>
    <tag k="addr:housenumber" v="7392"/>
    <tag k="addr:street" v="Vermont Route 114"/>
    <tag k="addr:state" v="VT"/>
    <tag k="ref:vcgi:esiteid" v="59220"/>
  </node>
  <node id="-601" visible="true" lat="45.01256918" lon="-71.55992968">
    <tag k="addr:city" v="Canaan"/>
    <tag k="addr:housenumber" v="434"/>
    <tag k="addr:street" v="Vermont Route 141"/>
    <tag k="addr:state" v="VT"/>
    <tag k="ref:vcgi:esiteid" v="59222"/>
  </node>
  <node id="-602" visible="true" lat="45.01208152" lon="-71.49978466">
    <tag k="addr:city" v="Canaan"/>
    <tag k="addr:housenumber" v="352"/>
    <tag k="addr:street" v="Hall Stream Road"/>
    <tag k="addr:state" v="VT"/>
    <tag k="ref:vcgi:esiteid" v="59223"/>
  </node>
  <node id="-603" visible="true" lat="44.97818705" lon="-71.54220477">
    <tag k="addr:city" v="Canaan"/>
    <tag k="addr:housenumber" v="33"/>
    <tag k="addr:street" v="Kemp Hill Road"/>
    <tag k="addr:state" v="VT"/>
    <tag k="ref:vcgi:esiteid" v="59224"/>
  </node>
  <node id="-604" visible="true" lat="44.92881343" lon="-71.53658307">
    <tag k="addr:city" v="Canaan"/>
    <tag k="addr:housenumber" v="536"/>
    <tag k="addr:street" v="Todd Hill Road"/>
    <tag k="addr:state" v="VT"/>
    <tag k="ref:vcgi:esiteid" v="59225"/>
  </node>
  <node id="-605" visible="true" lat="45.00814783" lon="-71.63084978">
    <tag k="addr:city" v="Canaan"/>
    <tag k="addr:housenumber" v="128"/>
    <tag k="addr:street" v="Fuller Drive"/>
    <tag k="addr:state" v="VT"/>
    <tag k="ref:vcgi:esiteid" v="59226"/>
  </node>
  <node id="-606" visible="true" lat="45.00716788" lon="-71.63110404">
    <tag k="addr:city" v="Canaan"/>
    <tag k="addr:housenumber" v="151"/>
    <tag k="addr:street" v="Fuller Drive"/>
    <tag k="addr:state" v="VT"/>
    <tag k="ref:vcgi:esiteid" v="59227"/>
  </node>
  <node id="-608" visible="true" lat="45.00736197" lon="-71.63560123">
    <tag k="addr:city" v="Canaan"/>
    <tag k="addr:housenumber" v="4913"/>
    <tag k="addr:street" v="Vermont Route 114"/>
    <tag k="addr:state" v="VT"/>
    <tag k="ref:vcgi:esiteid" v="59229"/>
  </node>
  <node id="-609" visible="true" lat="45.00142227" lon="-71.56066206">
    <tag k="addr:city" v="Canaan"/>
    <tag k="addr:housenumber" v="120"/>
    <tag k="addr:street" v="Judd Road"/>
    <tag k="addr:state" v="VT"/>
    <tag k="ref:vcgi:esiteid" v="59230"/>
  </node>
  <node id="-611" visible="true" lat="45.00988343" lon="-71.54001313">
    <tag k="addr:city" v="Canaan"/>
    <tag k="addr:housenumber" v="125"/>
    <tag k="addr:street" v="Center Road"/>
    <tag k="addr:state" v="VT"/>
    <tag k="ref:vcgi:esiteid" v="59232"/>
  </node>
  <node id="-613" visible="true" lat="44.98083563" lon="-71.56507361">
    <tag k="addr:city" v="Canaan"/>
    <tag k="addr:housenumber" v="80"/>
    <tag k="addr:street" v="Fund Road"/>
    <tag k="addr:state" v="VT"/>
    <tag k="ref:vcgi:esiteid" v="59236"/>
  </node>
  <node id="-614" visible="true" lat="44.96596134" lon="-71.52926142">
    <tag k="addr:city" v="Canaan"/>
    <tag k="addr:housenumber" v="4043"/>
    <tag k="addr:street" v="Vermont Route 102"/>
    <tag k="addr:state" v="VT"/>
    <tag k="ref:vcgi:esiteid" v="59237"/>
  </node>
  <node id="-615" visible="true" lat="44.93522373" lon="-71.54039656">
    <tag k="addr:city" v="Canaan"/>
    <tag k="addr:housenumber" v="350"/>
    <tag k="addr:street" v="Hudson Road"/>
    <tag k="addr:state" v="VT"/>
    <tag k="ref:vcgi:esiteid" v="59239"/>
  </node>
  <node id="-616" visible="true" lat="45.01075306" lon="-71.54356008">
    <tag k="addr:city" v="Canaan"/>
    <tag k="addr:housenumber" v="970"/>
    <tag k="addr:street" v="Reservoir Road"/>
    <tag k="addr:state" v="VT"/>
    <tag k="ref:vcgi:esiteid" v="59241"/>
  </node>
  <node id="-618" visible="true" lat="45.00027554" lon="-71.54203146">
    <tag k="addr:city" v="Canaan"/>
    <tag k="addr:housenumber" v="211"/>
    <tag k="addr:street" v="Ethan Allen Drive"/>
    <tag k="addr:state" v="VT"/>
    <tag k="ref:vcgi:esiteid" v="59243"/>
  </node>
  <node id="-619" visible="true" lat="45.00747348" lon="-71.4982641">
    <tag k="addr:city" v="Canaan"/>
    <tag k="addr:housenumber" v="517"/>
    <tag k="addr:street" v="River Road"/>
    <tag k="addr:state" v="VT"/>
    <tag k="ref:vcgi:esiteid" v="59244"/>
  </node>
  <node id="-620" visible="true" lat="45.0093908" lon="-71.50529934">
    <tag k="addr:city" v="Canaan"/>
    <tag k="addr:housenumber" v="90"/>
    <tag k="addr:street" v="East Street"/>
    <tag k="addr:state" v="VT"/>
    <tag k="ref:vcgi:esiteid" v="59246"/>
  </node>
  <node id="-621" visible="true" lat="44.99645153" lon="-71.5569875">
    <tag k="addr:city" v="Canaan"/>
    <tag k="addr:housenumber" v="596"/>
    <tag k="addr:street" v="Judd Road"/>
    <tag k="addr:state" v="VT"/>
    <tag k="ref:vcgi:esiteid" v="59247"/>
  </node>
  <node id="-622" visible="true" lat="44.99600828" lon="-71.53513697">
    <tag k="addr:city" v="Canaan"/>
    <tag k="addr:housenumber" v="4"/>
    <tag k="addr:street" v="Power House Road"/>
    <tag k="addr:state" v="VT"/>
    <tag k="ref:vcgi:esiteid" v="59248"/>
  </node>
  <node id="-623" visible="true" lat="45.00616271" lon="-71.65973926">
    <tag k="addr:city" v="Canaan"/>
    <tag k="addr:housenumber" v="6138"/>
    <tag k="addr:street" v="Vermont Route 114"/>
    <tag k="addr:state" v="VT"/>
    <tag k="ref:vcgi:esiteid" v="59249"/>
  </node>
  <node id="-626" visible="true" lat="44.9790473" lon="-71.54608052">
    <tag k="addr:city" v="Canaan"/>
    <tag k="addr:housenumber" v="168"/>
    <tag k="addr:street" v="Kemp Hill Road"/>
    <tag k="addr:state" v="VT"/>
    <tag k="ref:vcgi:esiteid" v="59253"/>
  </node>
  <node id="-627" visible="true" lat="44.95317677" lon="-71.53042017">
    <tag k="addr:city" v="Canaan"/>
    <tag k="addr:housenumber" v="393"/>
    <tag k="addr:street" v="Coderre Road"/>
    <tag k="addr:state" v="VT"/>
    <tag k="ref:vcgi:esiteid" v="59254"/>
  </node>
  <node id="-628" visible="true" lat="44.96495891" lon="-71.54430927">
    <tag k="addr:city" v="Canaan"/>
    <tag k="addr:housenumber" v="453"/>
    <tag k="addr:street" v="Chamberlain Road"/>
    <tag k="addr:state" v="VT"/>
    <tag k="ref:vcgi:esiteid" v="59255"/>
  </node>
  <node id="-629" visible="true" lat="44.96864255" lon="-71.54953337">
    <tag k="addr:city" v="Canaan"/>
    <tag k="addr:housenumber" v="54"/>
    <tag k="addr:street" v="Chamberlain Road"/>
    <tag k="addr:state" v="VT"/>
    <tag k="ref:vcgi:esiteid" v="59256"/>
  </node>
  <node id="-632" visible="true" lat="44.94653386" lon="-71.56757786">
    <tag k="addr:city" v="Canaan"/>
    <tag k="addr:housenumber" v="1416"/>
    <tag k="addr:street" v="Hudson Road"/>
    <tag k="addr:state" v="VT"/>
    <tag k="ref:vcgi:esiteid" v="59262"/>
  </node>
  <node id="-641" visible="true" lat="45.00264617" lon="-71.53279174">
    <tag k="addr:city" v="Canaan"/>
    <tag k="addr:housenumber" v="135"/>
    <tag k="addr:street" v="Green Hill Road"/>
    <tag k="addr:state" v="VT"/>
    <tag k="ref:vcgi:esiteid" v="313428"/>
  </node>
  <node id="-642" visible="true" lat="44.96197637" lon="-71.59238546">
    <tag k="addr:city" v="Canaan"/>
    <tag k="addr:housenumber" v="812"/>
    <tag k="addr:street" v="Clay Brook Road"/>
    <tag k="addr:state" v="VT"/>
    <tag k="ref:vcgi:esiteid" v="313430"/>
  </node>
  <node id="-643" visible="true" lat="44.96784978" lon="-71.5494925">
    <tag k="addr:city" v="Canaan"/>
    <tag k="addr:housenumber" v="190"/>
    <tag k="addr:street" v="Chamberlain Road"/>
    <tag k="addr:state" v="VT"/>
    <tag k="ref:vcgi:esiteid" v="313432"/>
  </node>
  <node id="-644" visible="true" lat="45.00397543" lon="-71.55253073">
    <tag k="addr:city" v="Canaan"/>
    <tag k="addr:housenumber" v="462"/>
    <tag k="addr:street" v="Vermont Route 114"/>
    <tag k="addr:state" v="VT"/>
    <tag k="ref:vcgi:esiteid" v="328547"/>
  </node>
  <node id="-645" visible="true" lat="44.98928476" lon="-71.53962079">
    <tag k="addr:city" v="Canaan"/>
    <tag k="addr:housenumber" v="186"/>
    <tag k="addr:street" v="Treatment Plant Road"/>
    <tag k="addr:state" v="VT"/>
    <tag k="ref:vcgi:esiteid" v="328548"/>
  </node>
  <node id="-646" visible="true" lat="44.96863202" lon="-71.54751091">
    <tag k="addr:city" v="Canaan"/>
    <tag k="addr:housenumber" v="143"/>
    <tag k="addr:street" v="Chamberlain Road"/>
    <tag k="addr:state" v="VT"/>
    <tag k="ref:vcgi:esiteid" v="328549"/>
  </node>
  <node id="-647" visible="true" lat="45.00349193" lon="-71.53974833">
    <tag k="addr:city" v="Canaan"/>
    <tag k="addr:housenumber" v="378"/>
    <tag k="addr:street" v="Reservoir Road"/>
    <tag k="addr:state" v="VT"/>
    <tag k="ref:vcgi:esiteid" v="328550"/>
  </node>
  <node id="-648" visible="true" lat="45.00012009" lon="-71.63369691">
    <tag k="addr:city" v="Canaan"/>
    <tag k="addr:housenumber" v="500"/>
    <tag k="addr:street" v="Dubeau Road"/>
    <tag k="addr:state" v="VT"/>
    <tag k="ref:vcgi:esiteid" v="332750"/>
  </node>
  <node id="-649" visible="true" lat="45.00295463" lon="-71.64747329">
    <tag k="addr:city" v="Canaan"/>
    <tag k="addr:housenumber" v="5859"/>
    <tag k="addr:street" v="Vermont Route 114"/>
    <tag k="addr:state" v="VT"/>
    <tag k="ref:vcgi:esiteid" v="332751"/>
  </node>
  <node id="-650" visible="true" lat="45.00161418" lon="-71.53713932">
    <tag k="addr:city" v="Canaan"/>
    <tag k="addr:housenumber" v="48"/>
    <tag k="addr:street" v="Hilltop Drive"/>
    <tag k="addr:state" v="VT"/>
    <tag k="ref:vcgi:esiteid" v="332752"/>
  </node>
  <node id="-651" visible="true" lat="45.00764767" lon="-71.55990687">
    <tag k="addr:city" v="Canaan"/>
    <tag k="addr:housenumber" v="967"/>
    <tag k="addr:street" v="Vermont Route 114"/>
    <tag k="addr:state" v="VT"/>
    <tag k="ref:vcgi:esiteid" v="344837"/>
  </node>
  <node id="-652" visible="true" lat="45.00917661" lon="-71.56638479">
    <tag k="addr:city" v="Canaan"/>
    <tag k="addr:housenumber" v="1399"/>
    <tag k="addr:street" v="Vermont Route 114"/>
    <tag k="addr:state" v="VT"/>
    <tag k="ref:vcgi:esiteid" v="344838"/>
  </node>
  <node id="-653" visible="true" lat="44.95273494" lon="-71.58403925">
    <tag k="addr:city" v="Canaan"/>
    <tag k="addr:housenumber" v="138"/>
    <tag k="addr:street" v="Old County Road"/>
    <tag k="addr:state" v="VT"/>
    <tag k="ref:vcgi:esiteid" v="344839"/>
  </node>
  <node id="-655" visible="true" lat="45.00062961" lon="-71.54603133">
    <tag k="addr:city" v="Canaan"/>
    <tag k="addr:housenumber" v="87"/>
    <tag k="addr:street" v="Vermont Route 114"/>
    <tag k="addr:state" v="VT"/>
    <tag k="ref:vcgi:esiteid" v="446459"/>
  </node>
  <node id="-656" visible="true" lat="45.00261306" lon="-71.54713689">
    <tag k="addr:city" v="Canaan"/>
    <tag k="addr:housenumber" v="202"/>
    <tag k="addr:street" v="Vermont Route 114"/>
    <tag k="addr:state" v="VT"/>
    <tag k="ref:vcgi:esiteid" v="446460"/>
  </node>
  <node id="-658" visible="true" lat="45.00566834" lon="-71.51302275">
    <tag k="addr:city" v="Canaan"/>
    <tag k="addr:housenumber" v="775"/>
    <tag k="addr:street" v="Vermont Route 253"/>
    <tag k="addr:state" v="VT"/>
    <tag k="ref:vcgi:esiteid" v="446915"/>
  </node>
  <node id="-659" visible="true" lat="45.00672985" lon="-71.50077668">
    <tag k="addr:city" v="Canaan"/>
    <tag k="addr:housenumber" v="374"/>
    <tag k="addr:street" v="River Road"/>
    <tag k="addr:state" v="VT"/>
    <tag k="ref:vcgi:esiteid" v="447199"/>
  </node>
  <node id="-661" visible="true" lat="45.00817401" lon="-71.60039609">
    <tag k="addr:city" v="Canaan"/>
    <tag k="addr:housenumber" v="2984"/>
    <tag k="addr:street" v="Vermont Route 114"/>
    <tag k="addr:state" v="VT"/>
    <tag k="ref:vcgi:esiteid" v="450940"/>
  </node>
  <node id="-662" visible="true" lat="45.00487052" lon="-71.51407557">
    <tag k="addr:city" v="Canaan"/>
    <tag k="addr:housenumber" v="695"/>
    <tag k="addr:street" v="Vermont Route 253"/>
    <tag k="addr:state" v="VT"/>
    <tag k="ref:vcgi:esiteid" v="450941"/>
  </node>
  <node id="-665" visible="true" lat="45.01111506" lon="-71.50010113">
    <tag k="addr:city" v="Canaan"/>
    <tag k="addr:housenumber" v="276"/>
    <tag k="addr:street" v="Hall Stream Road"/>
    <tag k="addr:state" v="VT"/>
    <tag k="ref:vcgi:esiteid" v="450944"/>
  </node>
  <node id="-666" visible="true" lat="45.00321196" lon="-71.60375367">
    <tag k="addr:city" v="Canaan"/>
    <tag k="addr:housenumber" v="164"/>
    <tag k="addr:street" v="Penn Road"/>
    <tag k="addr:state" v="VT"/>
    <tag k="ref:vcgi:esiteid" v="452025"/>
  </node>
  <node id="-667" visible="true" lat="44.97864014" lon="-71.60149356">
    <tag k="addr:city" v="Canaan"/>
    <tag k="addr:housenumber" v="3649"/>
    <tag k="addr:street" v="Canaan Hill Road"/>
    <tag k="addr:state" v="VT"/>
    <tag k="ref:vcgi:esiteid" v="452727"/>
  </node>
  <node id="-668" visible="true" lat="45.00802714" lon="-71.5028101">
    <tag k="addr:city" v="Canaan"/>
    <tag k="addr:housenumber" v="11"/>
    <tag k="addr:street" v="Hall Stream Road"/>
    <tag k="addr:state" v="VT"/>
    <tag k="ref:vcgi:esiteid" v="453188"/>
  </node>
  <node id="-669" visible="true" lat="45.00502471" lon="-71.52831834">
    <tag k="addr:city" v="Canaan"/>
    <tag k="addr:housenumber" v="410"/>
    <tag k="addr:street" v="Green Hill Road"/>
    <tag k="addr:state" v="VT"/>
    <tag k="ref:vcgi:esiteid" v="454210"/>
  </node>
  <node id="-670" visible="true" lat="44.93117784" lon="-71.54318615">
    <tag k="addr:city" v="Canaan"/>
    <tag k="addr:housenumber" v="1126"/>
    <tag k="addr:street" v="Todd Hill Road"/>
    <tag k="addr:state" v="VT"/>
    <tag k="ref:vcgi:esiteid" v="454618"/>
  </node>
  <node id="-671" visible="true" lat="44.94196912" lon="-71.56617572">
    <tag k="addr:city" v="Canaan"/>
    <tag k="addr:housenumber" v="1792"/>
    <tag k="addr:street" v="Hudson Road"/>
    <tag k="addr:state" v="VT"/>
    <tag k="ref:vcgi:esiteid" v="454619"/>
  </node>
  <node id="-673" visible="true" lat="45.0030063" lon="-71.52004332">
    <tag k="addr:city" v="Canaan"/>
    <tag k="addr:housenumber" v="377"/>
    <tag k="addr:street" v="Vermont Route 253"/>
    <tag k="addr:state" v="VT"/>
    <tag k="ref:vcgi:esiteid" v="455313"/>
  </node>
  <node id="-674" visible="true" lat="45.00873275" lon="-71.50579154">
    <tag k="addr:city" v="Canaan"/>
    <tag k="addr:housenumber" v="97"/>
    <tag k="addr:street" v="River Road"/>
    <tag k="addr:state" v="VT"/>
    <tag k="ref:vcgi:esiteid" v="455314"/>
  </node>
  <node id="-675" visible="true" lat="44.98267197" lon="-71.54338794">
    <tag k="addr:city" v="Canaan"/>
    <tag k="addr:housenumber" v="5829"/>
    <tag k="addr:street" v="Vermont Route 102"/>
    <tag k="addr:state" v="VT"/>
    <tag k="ref:vcgi:esiteid" v="455315"/>
  </node>
  <node id="-676" visible="true" lat="44.97201596" lon="-71.53118557">
    <tag k="addr:city" v="Canaan"/>
    <tag k="addr:housenumber" v="4830"/>
    <tag k="addr:street" v="Vermont Route 102"/>
    <tag k="addr:state" v="VT"/>
    <tag k="ref:vcgi:esiteid" v="455316"/>
  </node>
  <node id="-677" visible="true" lat="44.95869817" lon="-71.52705688">
    <tag k="addr:city" v="Canaan"/>
    <tag k="addr:housenumber" v="3710"/>
    <tag k="addr:street" v="Vermont Route 102"/>
    <tag k="addr:state" v="VT"/>
    <tag k="ref:vcgi:esiteid" v="455317"/>
  </node>
  <node id="-678" visible="true" lat="44.94128392" lon="-71.56813559">
    <tag k="addr:city" v="Canaan"/>
    <tag k="addr:housenumber" v="1954"/>
    <tag k="addr:street" v="Hudson Road"/>
    <tag k="addr:state" v="VT"/>
    <tag k="ref:vcgi:esiteid" v="610568"/>
  </node>
  <node id="-679" visible="true" lat="44.98797996" lon="-71.54230449">
    <tag k="addr:city" v="Canaan"/>
    <tag k="addr:housenumber" v="6173"/>
    <tag k="addr:street" v="Vermont Route 102"/>
    <tag k="addr:state" v="VT"/>
    <tag k="ref:vcgi:esiteid" v="611378"/>
  </node>
  <node id="-680" visible="true" lat="44.98586971" lon="-71.57390953">
    <tag k="addr:city" v="Canaan"/>
    <tag k="addr:housenumber" v="659"/>
    <tag k="addr:street" v="Fund Road"/>
    <tag k="addr:state" v="VT"/>
    <tag k="ref:vcgi:esiteid" v="611439"/>
  </node>
  <node id="-683" visible="true" lat="44.97556154" lon="-71.59409108">
    <tag k="addr:city" v="Canaan"/>
    <tag k="addr:housenumber" v="3240"/>
    <tag k="addr:street" v="Canaan Hill Road"/>
    <tag k="addr:state" v="VT"/>
    <tag k="ref:vcgi:esiteid" v="611572"/>
  </node>
  <node id="-684" visible="true" lat="44.97571178" lon="-71.59528283">
    <tag k="addr:city" v="Canaan"/>
    <tag k="addr:housenumber" v="3292"/>
    <tag k="addr:street" v="Canaan Hill Road"/>
    <tag k="addr:state" v="VT"/>
    <tag k="ref:vcgi:esiteid" v="611573"/>
  </node>
  <node id="-685" visible="true" lat="44.97615702" lon="-71.59792879">
    <tag k="addr:city" v="Canaan"/>
    <tag k="addr:housenumber" v="3399"/>
    <tag k="addr:street" v="Canaan Hill Road"/>
    <tag k="addr:state" v="VT"/>
    <tag k="ref:vcgi:esiteid" v="611574"/>
  </node>
  <node id="-686" visible="true" lat="44.93697647" lon="-71.53212884">
    <tag k="addr:city" v="Canaan"/>
    <tag k="addr:housenumber" v="313"/>
    <tag k="addr:street" v="Capon Brook Road"/>
    <tag k="addr:state" v="VT"/>
    <tag k="ref:vcgi:esiteid" v="612315"/>
  </node>
  <node id="-687" visible="true" lat="44.99480187" lon="-71.53774627">
    <tag k="addr:city" v="Canaan"/>
    <tag k="addr:housenumber" v="66"/>
    <tag k="addr:street" v="School Street"/>
    <tag k="addr:state" v="VT"/>
    <tag k="ref:vcgi:esiteid" v="613310"/>
  </node>
  <node id="-767" visible="true" lat="45.01227777" lon="-71.60000334">
    <tag k="addr:city" v="Canaan"/>
    <tag k="addr:housenumber" v="2990"/>
    <tag k="addr:street" v="Vermont Route 114"/>
    <tag k="addr:state" v="VT"/>
    <tag k="ref:vcgi:esiteid" v="614675"/>
  </node>
  <node id="-769" visible="true" lat="45.01244388" lon="-71.61097672">
    <tag k="addr:city" v="Canaan"/>
    <tag k="addr:housenumber" v="92"/>
    <tag k="addr:street" v="Jackson Lodge Village"/>
    <tag k="addr:state" v="VT"/>
    <tag k="ref:vcgi:esiteid" v="614677"/>
  </node>
  <node id="-770" visible="true" lat="45.01264112" lon="-71.61184637">
    <tag k="addr:city" v="Canaan"/>
    <tag k="addr:housenumber" v="94"/>
    <tag k="addr:street" v="Jackson Lodge Village"/>
    <tag k="addr:state" v="VT"/>
    <tag k="ref:vcgi:esiteid" v="614678"/>
  </node>
  <node id="-846" visible="true" lat="45.00732573" lon="-71.66884641">
    <tag k="addr:city" v="Canaan"/>
    <tag k="addr:housenumber" v="6512"/>
    <tag k="addr:street" v="Vermont Route 114"/>
    <tag k="addr:state" v="VT"/>
    <tag k="ref:vcgi:esiteid" v="614788"/>
  </node>
  <node id="-857" visible="true" lat="44.98115544" lon="-71.55184859">
    <tag k="addr:city" v="Canaan"/>
    <tag k="addr:housenumber" v="439"/>
    <tag k="addr:street" v="Canaan Hill Road"/>
    <tag k="addr:state" v="VT"/>
    <tag k="ref:vcgi:esiteid" v="614808"/>
  </node>
  <node id="-915" visible="true" lat="44.97670944" lon="-71.54045016">
    <tag k="addr:city" v="Canaan"/>
    <tag k="addr:housenumber" v="3427"/>
    <tag k="addr:street" v="Vermont Route 102"/>
    <tag k="addr:state" v="VT"/>
    <tag k="ref:vcgi:esiteid" v="614889"/>
  </node>
  <node id="-933" visible="true" lat="44.95456628" lon="-71.53988914">
    <tag k="addr:city" v="Canaan"/>
    <tag k="addr:housenumber" v="392"/>
    <tag k="addr:street" v="Coderre Road"/>
    <tag k="addr:state" v="VT"/>
    <tag k="ref:vcgi:esiteid" v="614908"/>
  </node>
  <node id="-963" visible="true" lat="44.94799228" lon="-71.56348943">
    <tag k="addr:city" v="Canaan"/>
    <tag k="addr:housenumber" v="1414"/>
    <tag k="addr:street" v="Hudson Road"/>
    <tag k="addr:state" v="VT"/>
    <tag k="ref:vcgi:esiteid" v="614940"/>
  </node>
  <node id="-978" visible="true" lat="44.91721564" lon="-71.51576472">
    <tag k="addr:city" v="Canaan"/>
    <tag k="addr:housenumber" v="633"/>
    <tag k="addr:street" v="Vermont Route 102"/>
    <tag k="addr:state" v="VT"/>
    <tag k="ref:vcgi:esiteid" v="614990"/>
  </node>
  <node id="-1022" visible="true" lat="45.00851964" lon="-71.5084809">
    <tag k="addr:city" v="Canaan"/>
    <tag k="addr:housenumber" v="1071"/>
    <tag k="addr:street" v="Vermont Route 253"/>
    <tag k="addr:state" v="VT"/>
    <tag k="ref:vcgi:esiteid" v="615037"/>
  </node>
  <node id="-1070" visible="true" lat="45.00447718" lon="-71.48566389">
    <tag k="addr:city" v="Canaan"/>
    <tag k="addr:housenumber" v="1156"/>
    <tag k="addr:street" v="River Road"/>
    <tag k="addr:state" v="VT"/>
    <tag k="ref:vcgi:esiteid" v="615103"/>
  </node>
  <node id="-1074" visible="true" lat="45.00079522" lon="-71.53696485">
    <tag k="addr:city" v="Canaan"/>
    <tag k="addr:housenumber" v="179"/>
    <tag k="addr:street" v="Reservoir Road"/>
    <tag k="addr:state" v="VT"/>
    <tag k="ref:vcgi:esiteid" v="615110"/>
  </node>
  <node id="-1078" visible="true" lat="45.01027634" lon="-71.53850088">
    <tag k="addr:city" v="Canaan"/>
    <tag k="addr:housenumber" v="599"/>
    <tag k="addr:street" v="Road Maker Lane"/>
    <tag k="addr:state" v="VT"/>
    <tag k="ref:vcgi:esiteid" v="615115"/>
  </node>
  <node id="-1079" visible="true" lat="45.00985077" lon="-71.54316502">
    <tag k="addr:city" v="Canaan"/>
    <tag k="addr:housenumber" v="880"/>
    <tag k="addr:street" v="Reservoir Road"/>
    <tag k="addr:state" v="VT"/>
    <tag k="ref:vcgi:esiteid" v="615116"/>
  </node>
  <node id="-1080" visible="true" lat="45.01183841" lon="-71.53852415">
    <tag k="addr:city" v="Canaan"/>
    <tag k="addr:housenumber" v="830"/>
    <tag k="addr:street" v="Road Maker Lane"/>
    <tag k="addr:state" v="VT"/>
    <tag k="ref:vcgi:esiteid" v="615117"/>
  </node>
  <node id="-1081" visible="true" lat="45.00916372" lon="-71.53937442">
    <tag k="addr:city" v="Canaan"/>
    <tag k="addr:housenumber" v="65"/>
    <tag k="addr:street" v="Center Road"/>
    <tag k="addr:state" v="VT"/>
    <tag k="ref:vcgi:esiteid" v="615118"/>
  </node>
  <node id="-1082" visible="true" lat="45.00744301" lon="-71.53951058">
    <tag k="addr:city" v="Canaan"/>
    <tag k="addr:housenumber" v="249"/>
    <tag k="addr:street" v="Road Maker Lane"/>
    <tag k="addr:state" v="VT"/>
    <tag k="ref:vcgi:esiteid" v="615119"/>
  </node>
  <node id="-1083" visible="true" lat="45.01101602" lon="-71.53948308">
    <tag k="addr:city" v="Canaan"/>
    <tag k="addr:housenumber" v="965"/>
    <tag k="addr:street" v="Road Maker Lane"/>
    <tag k="addr:state" v="VT"/>
    <tag k="ref:vcgi:esiteid" v="615120"/>
  </node>
  <node id="-1084" visible="true" lat="44.98150005" lon="-71.55847414">
    <tag k="addr:city" v="Canaan"/>
    <tag k="addr:housenumber" v="760"/>
    <tag k="addr:street" v="Canaan Hill Road"/>
    <tag k="addr:state" v="VT"/>
    <tag k="ref:vcgi:esiteid" v="617239"/>
  </node>
  <node id="-1085" visible="true" lat="44.97942042" lon="-71.56785954">
    <tag k="addr:city" v="Canaan"/>
    <tag k="addr:housenumber" v="191"/>
    <tag k="addr:street" v="Jacob Chopping Drive"/>
    <tag k="addr:state" v="VT"/>
    <tag k="ref:vcgi:esiteid" v="617241"/>
  </node>
  <node id="-1086" visible="true" lat="44.92485865" lon="-71.52225186">
    <tag k="addr:city" v="Canaan"/>
    <tag k="addr:housenumber" v="1237"/>
    <tag k="addr:street" v="Vermont Route 102"/>
    <tag k="addr:state" v="VT"/>
    <tag k="ref:vcgi:esiteid" v="617340"/>
  </node>
  <node id="-1087" visible="true" lat="45.00346639" lon="-71.69269814">
    <tag k="addr:city" v="Canaan"/>
    <tag k="addr:housenumber" v="7777"/>
    <tag k="addr:street" v="Vermont Route 114"/>
    <tag k="addr:state" v="VT"/>
    <tag k="ref:vcgi:esiteid" v="620907"/>
  </node>
  <node id="-1091" visible="true" lat="44.98805707" lon="-71.59694288">
    <tag k="addr:city" v="Canaan"/>
    <tag k="addr:housenumber" v="2860"/>
    <tag k="addr:street" v="Canaan Hill Road"/>
    <tag k="addr:state" v="VT"/>
    <tag k="ref:vcgi:esiteid" v="621017"/>
  </node>
  <node id="-1093" visible="true" lat="44.9158648" lon="-71.5132772">
    <tag k="addr:city" v="Canaan"/>
    <tag k="addr:housenumber" v="465"/>
    <tag k="addr:street" v="Vermont Route 102"/>
    <tag k="addr:state" v="VT"/>
    <tag k="ref:vcgi:esiteid" v="752064"/>
  </node>
  <node id="-1094" visible="true" lat="44.94028953" lon="-71.57321001">
    <tag k="addr:city" v="Canaan"/>
    <tag k="addr:housenumber" v="2111"/>
    <tag k="addr:street" v="Hudson Road"/>
    <tag k="addr:state" v="VT"/>
    <tag k="ref:vcgi:esiteid" v="753370"/>
  </node>
  <node id="-1096" visible="true" lat="45.01221357" lon="-71.47198502">
    <tag k="addr:city" v="Canaan"/>
    <tag k="addr:housenumber" v="2051"/>
    <tag k="addr:street" v="River Road"/>
    <tag k="addr:state" v="VT"/>
    <tag k="ref:vcgi:esiteid" v="754693"/>
  </node>
  <node id="-1097" visible="true" lat="45.01052161" lon="-71.58718906">
    <tag k="addr:city" v="Canaan"/>
    <tag k="addr:housenumber" v="119"/>
    <tag k="addr:street" v="All American Highway"/>
    <tag k="addr:state" v="VT"/>
    <tag k="ref:vcgi:esiteid" v="758115"/>
  </node>
  <node id="-1098" visible="true" lat="44.96878735" lon="-71.55520551">
    <tag k="addr:city" v="Canaan"/>
    <tag k="addr:housenumber" v="1096"/>
    <tag k="addr:street" v="Kemp Hill Road"/>
    <tag k="addr:state" v="VT"/>
    <tag k="ref:vcgi:esiteid" v="758771"/>
  </node>
  <node id="-1099" visible="true" lat="44.97046747" lon="-71.57596012">
    <tag k="addr:city" v="Canaan"/>
    <tag k="addr:housenumber" v="2070"/>
    <tag k="addr:street" v="Canaan Hill Road"/>
    <tag k="addr:state" v="VT"/>
    <tag k="ref:vcgi:esiteid" v="758982"/>
  </node>
  <node id="-1100" visible="true" lat="45.00931202" lon="-71.618015">
    <tag k="addr:city" v="Canaan"/>
    <tag k="addr:housenumber" v="3989"/>
    <tag k="addr:street" v="Vermont Route 114"/>
    <tag k="addr:state" v="VT"/>
    <tag k="ref:vcgi:esiteid" v="760432"/>
  </node>
  <node id="-1101" visible="true" lat="44.98621599" lon="-71.54206875">
    <tag k="addr:city" v="Canaan"/>
    <tag k="addr:housenumber" v="6066"/>
    <tag k="addr:street" v="Vermont Route 102"/>
    <tag k="addr:state" v="VT"/>
    <tag k="ref:vcgi:esiteid" v="762951"/>
  </node>
  <node id="-1104" visible="true" lat="44.9700815" lon="-71.62854429">
    <tag k="addr:city" v="Canaan"/>
    <tag k="addr:housenumber" v="5188"/>
    <tag k="addr:street" v="Canaan Hill Road"/>
    <tag k="addr:state" v="VT"/>
    <tag k="ref:vcgi:esiteid" v="764464"/>
  </node>
  <node id="-1105" visible="true" lat="44.9792848" lon="-71.60311473">
    <tag k="addr:city" v="Canaan"/>
    <tag k="addr:housenumber" v="3734"/>
    <tag k="addr:street" v="Canaan Hill Road"/>
    <tag k="addr:state" v="VT"/>
    <tag k="ref:vcgi:esiteid" v="764490"/>
  </node>
  <node id="-1106" visible="true" lat="44.97821163" lon="-71.60612366">
    <tag k="addr:city" v="Canaan"/>
    <tag k="addr:housenumber" v="3926"/>
    <tag k="addr:street" v="Canaan Hill Road"/>
    <tag k="addr:state" v="VT"/>
    <tag k="ref:vcgi:esiteid" v="764491"/>
  </node>
  <node id="-1107" visible="true" lat="44.97655872" lon="-71.60969786">
    <tag k="addr:city" v="Canaan"/>
    <tag k="addr:housenumber" v="4121"/>
    <tag k="addr:street" v="Canaan Hill Road"/>
    <tag k="addr:state" v="VT"/>
    <tag k="ref:vcgi:esiteid" v="764492"/>
  </node>
  <node id="-1108" visible="true" lat="44.97648174" lon="-71.59606826">
    <tag k="addr:city" v="Canaan"/>
    <tag k="addr:housenumber" v="3344"/>
    <tag k="addr:street" v="Canaan Hill Road"/>
    <tag k="addr:state" v="VT"/>
    <tag k="ref:vcgi:esiteid" v="764493"/>
  </node>
  <node id="-1109" visible="true" lat="44.96563256" lon="-71.54659419">
    <tag k="addr:city" v="Canaan"/>
    <tag k="addr:housenumber" v="332"/>
    <tag k="addr:street" v="Chamberlain Road"/>
    <tag k="addr:state" v="VT"/>
    <tag k="ref:vcgi:esiteid" v="764494"/>
  </node>
  <node id="-1110" visible="true" lat="44.95270717" lon="-71.59606866">
    <tag k="addr:city" v="Canaan"/>
    <tag k="addr:housenumber" v="1337"/>
    <tag k="addr:street" v="Clay Brook Road"/>
    <tag k="addr:state" v="VT"/>
    <tag k="ref:vcgi:esiteid" v="764495"/>
  </node>
  <node id="-1111" visible="true" lat="44.94287429" lon="-71.55796761">
    <tag k="addr:city" v="Canaan"/>
    <tag k="addr:housenumber" v="1382"/>
    <tag k="addr:street" v="Hudson Road"/>
    <tag k="addr:state" v="VT"/>
    <tag k="ref:vcgi:esiteid" v="764496"/>
  </node>
  <node id="-1112" visible="true" lat="45.00836589" lon="-71.50637324">
    <tag k="addr:city" v="Canaan"/>
    <tag k="addr:housenumber" v="72"/>
    <tag k="addr:street" v="River Road"/>
    <tag k="addr:state" v="VT"/>
    <tag k="ref:vcgi:esiteid" v="764497"/>
  </node>
  <node id="-1113" visible="true" lat="45.00761105" lon="-71.50165193">
    <tag k="addr:city" v="Canaan"/>
    <tag k="addr:housenumber" v="323"/>
    <tag k="addr:street" v="River Road"/>
    <tag k="addr:state" v="VT"/>
    <tag k="ref:vcgi:esiteid" v="764498"/>
  </node>
  <node id="-1114" visible="true" lat="45.00654552" lon="-71.47961343">
    <tag k="addr:city" v="Canaan"/>
    <tag k="addr:housenumber" v="1516"/>
    <tag k="addr:street" v="River Road"/>
    <tag k="addr:state" v="VT"/>
    <tag k="ref:vcgi:esiteid" v="764499"/>
  </node>
  <node id="-1115" visible="true" lat="45.01296945" lon="-71.49948955">
    <tag k="addr:city" v="Canaan"/>
    <tag k="addr:housenumber" v="408"/>
    <tag k="addr:street" v="Hall Stream Road"/>
    <tag k="addr:state" v="VT"/>
    <tag k="ref:vcgi:esiteid" v="764500"/>
  </node>
  <node id="-1116" visible="true" lat="45.01258103" lon="-71.5003022">
    <tag k="addr:city" v="Canaan"/>
    <tag k="addr:housenumber" v="369"/>
    <tag k="addr:street" v="Hall Stream Road"/>
    <tag k="addr:state" v="VT"/>
    <tag k="ref:vcgi:esiteid" v="764501"/>
  </node>
  <node id="-1117" visible="true" lat="45.01150791" lon="-71.50050279">
    <tag k="addr:city" v="Canaan"/>
    <tag k="addr:housenumber" v="299"/>
    <tag k="addr:street" v="Hall Stream Road"/>
    <tag k="addr:state" v="VT"/>
    <tag k="ref:vcgi:esiteid" v="764502"/>
  </node>
  <node id="-1118" visible="true" lat="45.00552905" lon="-71.4985822">
    <tag k="addr:city" v="Canaan"/>
    <tag k="addr:housenumber" v="63"/>
    <tag k="addr:street" v="Pariseau Drive"/>
    <tag k="addr:state" v="VT"/>
    <tag k="ref:vcgi:esiteid" v="764503"/>
  </node>
  <node id="-1119" visible="true" lat="45.00976616" lon="-71.50626682">
    <tag k="addr:city" v="Canaan"/>
    <tag k="addr:housenumber" v="29"/>
    <tag k="addr:street" v="East Street"/>
    <tag k="addr:state" v="VT"/>
    <tag k="ref:vcgi:esiteid" v="764504"/>
  </node>
  <node id="-1120" visible="true" lat="45.00967087" lon="-71.50574163">
    <tag k="addr:city" v="Canaan"/>
    <tag k="addr:housenumber" v="53"/>
    <tag k="addr:street" v="East Street"/>
    <tag k="addr:state" v="VT"/>
    <tag k="ref:vcgi:esiteid" v="764505"/>
  </node>
  <node id="-1121" visible="true" lat="45.00966367" lon="-71.50556779">
    <tag k="addr:city" v="Canaan"/>
    <tag k="addr:housenumber" v="67"/>
    <tag k="addr:street" v="East Street"/>
    <tag k="addr:state" v="VT"/>
    <tag k="ref:vcgi:esiteid" v="764506"/>
  </node>
  <node id="-1122" visible="true" lat="45.00963287" lon="-71.50540442">
    <tag k="addr:city" v="Canaan"/>
    <tag k="addr:housenumber" v="73"/>
    <tag k="addr:street" v="East Street"/>
    <tag k="addr:state" v="VT"/>
    <tag k="ref:vcgi:esiteid" v="764507"/>
  </node>
  <node id="-1123" visible="true" lat="45.00941376" lon="-71.50567185">
    <tag k="addr:city" v="Canaan"/>
    <tag k="addr:housenumber" v="62"/>
    <tag k="addr:street" v="East Street"/>
    <tag k="addr:state" v="VT"/>
    <tag k="ref:vcgi:esiteid" v="764508"/>
  </node>
  <node id="-1124" visible="true" lat="44.99531941" lon="-71.54129935">
    <tag k="addr:city" v="Canaan"/>
    <tag k="addr:housenumber" v="102"/>
    <tag k="addr:street" v="Canaan Mobile Home Park"/>
    <tag k="addr:state" v="VT"/>
    <tag k="ref:vcgi:esiteid" v="764509"/>
  </node>
  <node id="-1125" visible="true" lat="44.99452872" lon="-71.5399071">
    <tag k="addr:city" v="Canaan"/>
    <tag k="addr:housenumber" v="21"/>
    <tag k="addr:street" v="Canaan Mobile Home Park"/>
    <tag k="addr:state" v="VT"/>
    <tag k="ref:vcgi:esiteid" v="764510"/>
  </node>
  <node id="-1126" visible="true" lat="45.00408615" lon="-71.54098074">
    <tag k="addr:city" v="Canaan"/>
    <tag k="addr:housenumber" v="491"/>
    <tag k="addr:street" v="Reservoir Road"/>
    <tag k="addr:state" v="VT"/>
    <tag k="ref:vcgi:esiteid" v="764511"/>
  </node>
  <node id="-1128" visible="true" lat="44.99881292" lon="-71.53215251">
    <tag k="addr:city" v="Canaan"/>
    <tag k="addr:housenumber" v="251"/>
    <tag k="addr:street" v="Power House Road"/>
    <tag k="addr:state" v="VT"/>
    <tag k="ref:vcgi:esiteid" v="764513"/>
  </node>
  <node id="-1129" visible="true" lat="44.9553612" lon="-71.5967756">
    <tag k="addr:city" v="Canaan"/>
    <tag k="addr:housenumber" v="37"/>
    <tag k="addr:street" v="Pollard Hill"/>
    <tag k="addr:state" v="VT"/>
    <tag k="ref:vcgi:esiteid" v="764514"/>
  </node>
  <node id="-1132" visible="true" lat="44.98800584" lon="-71.57223317">
    <tag k="addr:city" v="Canaan"/>
    <tag k="addr:housenumber" v="665"/>
    <tag k="addr:street" v="Fund Road"/>
    <tag k="addr:state" v="VT"/>
    <tag k="ref:vcgi:esiteid" v="764517"/>
  </node>
  <node id="-1133" visible="true" lat="45.00342854" lon="-71.5370587">
    <tag k="addr:city" v="Canaan"/>
    <tag k="addr:housenumber" v="59"/>
    <tag k="addr:street" v="Hilltop Drive"/>
    <tag k="addr:state" v="VT"/>
    <tag k="ref:vcgi:esiteid" v="764518"/>
  </node>
  <node id="-1134" visible="true" lat="44.92783116" lon="-71.52370952">
    <tag k="addr:city" v="Canaan"/>
    <tag k="addr:housenumber" v="1449"/>
    <tag k="addr:street" v="Vermont Route 102"/>
    <tag k="addr:state" v="VT"/>
    <tag k="ref:vcgi:esiteid" v="764519"/>
  </node>
  <node id="-1135" visible="true" lat="44.98425996" lon="-71.54280487">
    <tag k="addr:city" v="Canaan"/>
    <tag k="addr:housenumber" v="5926"/>
    <tag k="addr:street" v="Vermont Route 102"/>
    <tag k="addr:state" v="VT"/>
    <tag k="ref:vcgi:esiteid" v="764520"/>
  </node>
  <node id="-1143" visible="true" lat="45.0108373" lon="-71.5058576">
    <tag k="addr:city" v="Canaan"/>
    <tag k="addr:housenumber" v="1280"/>
    <tag k="addr:street" v="Vermont Route 253"/>
    <tag k="addr:state" v="VT"/>
    <tag k="ref:vcgi:esiteid" v="764533"/>
  </node>
  <node id="-1144" visible="true" lat="45.00286675" lon="-71.52270503">
    <tag k="addr:city" v="Canaan"/>
    <tag k="addr:housenumber" v="247"/>
    <tag k="addr:street" v="Vermont Route 253"/>
    <tag k="addr:state" v="VT"/>
    <tag k="ref:vcgi:esiteid" v="764534"/>
  </node>
  <node id="-1145" visible="true" lat="44.92793528" lon="-71.52355852">
    <tag k="addr:city" v="Canaan"/>
    <tag k="addr:housenumber" v="1455"/>
    <tag k="addr:street" v="Vermont Route 102"/>
    <tag k="addr:state" v="VT"/>
    <tag k="ref:vcgi:esiteid" v="764535"/>
  </node>
  <node id="-1148" visible="true" lat="44.9936184" lon="-71.54046168">
    <tag k="addr:city" v="Canaan"/>
    <tag k="addr:housenumber" v="6623"/>
    <tag k="addr:street" v="Vermont Route 102"/>
    <tag k="addr:state" v="VT"/>
    <tag k="ref:vcgi:esiteid" v="764538"/>
  </node>
  <node id="-1150" visible="true" lat="44.96548215" lon="-71.54556414">
    <tag k="addr:city" v="Canaan"/>
    <tag k="addr:housenumber" v="371"/>
    <tag k="addr:street" v="Chamberlain Road"/>
    <tag k="addr:state" v="VT"/>
    <tag k="ref:vcgi:esiteid" v="764546"/>
  </node>
  <node id="-1151" visible="true" lat="45.0052907" lon="-71.52761944">
    <tag k="addr:city" v="Canaan"/>
    <tag k="addr:housenumber" v="444"/>
    <tag k="addr:street" v="Green Hill Road"/>
    <tag k="addr:state" v="VT"/>
    <tag k="ref:vcgi:esiteid" v="764556"/>
  </node>
  <node id="-1153" visible="true" lat="44.97773029" lon="-71.60333703">
    <tag k="addr:city" v="Canaan"/>
    <tag k="addr:housenumber" v="3781"/>
    <tag k="addr:street" v="Canaan Hill Road"/>
    <tag k="addr:state" v="VT"/>
    <tag k="ref:vcgi:esiteid" v="764559"/>
  </node>
  <node id="-1157" visible="true" lat="44.97782008" lon="-71.56876279">
    <tag k="addr:city" v="Canaan"/>
    <tag k="addr:housenumber" v="67"/>
    <tag k="addr:street" v="Jacob Chopping Drive"/>
    <tag k="addr:state" v="VT"/>
    <tag k="ref:vcgi:esiteid" v="764565"/>
  </node>
  <node id="-1158" visible="true" lat="44.98347994" lon="-71.56948267">
    <tag k="addr:city" v="Canaan"/>
    <tag k="addr:housenumber" v="379"/>
    <tag k="addr:street" v="Fund Road"/>
    <tag k="addr:state" v="VT"/>
    <tag k="ref:vcgi:esiteid" v="764570"/>
  </node>
  <node id="-1159" visible="true" lat="44.91676899" lon="-71.52183499">
    <tag k="addr:city" v="Canaan"/>
    <tag k="addr:housenumber" v="629"/>
    <tag k="addr:street" v="Vermont Route 102"/>
    <tag k="addr:state" v="VT"/>
    <tag k="ref:vcgi:esiteid" v="764640"/>
  </node>
  <node id="-1160" visible="true" lat="44.93316812" lon="-71.5247926">
    <tag k="addr:city" v="Canaan"/>
    <tag k="addr:housenumber" v="1811"/>
    <tag k="addr:street" v="Vermont Route 102"/>
    <tag k="addr:state" v="VT"/>
    <tag k="ref:vcgi:esiteid" v="764817"/>
  </node>
</osm>
