<?xml version="1.0" encoding="UTF-8"?>
<osm version="0.6" generator="JOSM">
  <node id="-305" visible="true" lat="43.66221871" lon="-73.20398408">
    <tag k="addr:housenumber" v="50"/>
    <tag k="addr:street" v="Rabbit Island"/>
    <tag k="addr:state" v="VT"/>
    <tag k="ref:vcgi:esiteid" v="59473"/>
  </node>
  <node id="-357" visible="true" lat="43.65887803" lon="-73.10661805">
    <tag k="addr:housenumber" v="2196"/>
    <tag k="addr:street" v="Grandpas Knob Road"/>
    <tag k="addr:state" v="VT"/>
    <tag k="ref:vcgi:esiteid" v="59525"/>
  </node>
  <node id="-1172" visible="true" lat="43.61252594" lon="-73.17378997">
    <tag k="addr:housenumber" v="407"/>
    <tag k="addr:street" v="Main Street"/>
    <tag k="addr:state" v="VT"/>
    <tag k="ref:vcgi:esiteid" v="60350"/>
  </node>
  <node id="-1196" visible="true" lat="43.6120538" lon="-73.17742989">
    <tag k="addr:housenumber" v="590"/>
    <tag k="addr:street" v="Main Street"/>
    <tag k="addr:state" v="VT"/>
    <tag k="ref:vcgi:esiteid" v="60376"/>
  </node>
  <node id="-1207" visible="true" lat="43.61191844" lon="-73.1783702">
    <tag k="addr:housenumber" v="638"/>
    <tag k="addr:street" v="Main Street"/>
    <tag k="addr:state" v="VT"/>
    <tag k="ref:vcgi:esiteid" v="60387"/>
  </node>
  <node id="-1212" visible="true" lat="43.61176681" lon="-73.17662811">
    <tag k="addr:housenumber" v="557"/>
    <tag k="addr:street" v="Main Street"/>
    <tag k="addr:state" v="VT"/>
    <tag k="ref:vcgi:esiteid" v="60392"/>
  </node>
  <node id="-1213" visible="true" lat="43.61163591" lon="-73.17718371">
    <tag k="addr:housenumber" v="583"/>
    <tag k="addr:street" v="Main Street"/>
    <tag k="addr:state" v="VT"/>
    <tag k="ref:vcgi:esiteid" v="60393"/>
  </node>
  <node id="-1215" visible="true" lat="43.61137545" lon="-73.20811794">
    <tag k="addr:housenumber" v="21"/>
    <tag k="addr:street" v="Preston Lane"/>
    <tag k="addr:state" v="VT"/>
    <tag k="ref:vcgi:esiteid" v="60396"/>
  </node>
  <node id="-1260" visible="true" lat="43.61112188" lon="-73.18237709">
    <tag k="addr:housenumber" v="846"/>
    <tag k="addr:street" v="Main Street"/>
    <tag k="addr:state" v="VT"/>
    <tag k="ref:vcgi:esiteid" v="60444"/>
  </node>
  <node id="-1272" visible="true" lat="43.61097325" lon="-73.18182698">
    <tag k="addr:housenumber" v="822"/>
    <tag k="addr:street" v="Main Street"/>
    <tag k="addr:state" v="VT"/>
    <tag k="ref:vcgi:esiteid" v="60457"/>
  </node>
  <node id="-1280" visible="true" lat="43.61082845" lon="-73.18239589">
    <tag k="addr:housenumber" v="854"/>
    <tag k="addr:street" v="Main Street"/>
    <tag k="addr:state" v="VT"/>
    <tag k="ref:vcgi:esiteid" v="60467"/>
  </node>
  <node id="-1286" visible="true" lat="43.61077044" lon="-73.18078729">
    <tag k="addr:housenumber" v="765"/>
    <tag k="addr:street" v="Main Street"/>
    <tag k="addr:state" v="VT"/>
    <tag k="ref:vcgi:esiteid" v="60473"/>
  </node>
  <node id="-1289" visible="true" lat="43.61080145" lon="-73.18266198">
    <tag k="addr:housenumber" v="866"/>
    <tag k="addr:street" v="Main Street"/>
    <tag k="addr:state" v="VT"/>
    <tag k="ref:vcgi:esiteid" v="60476"/>
  </node>
  <node id="-1294" visible="true" lat="43.61070214" lon="-73.18111091">
    <tag k="addr:housenumber" v="791"/>
    <tag k="addr:street" v="Main Street"/>
    <tag k="addr:state" v="VT"/>
    <tag k="ref:vcgi:esiteid" v="60481"/>
  </node>
  <node id="-1296" visible="true" lat="43.61086616" lon="-73.18019238">
    <tag k="addr:housenumber" v="749"/>
    <tag k="addr:street" v="Main Street"/>
    <tag k="addr:state" v="VT"/>
    <tag k="ref:vcgi:esiteid" v="60483"/>
  </node>
  <node id="-1300" visible="true" lat="43.61079412" lon="-73.18289239">
    <tag k="addr:housenumber" v="882"/>
    <tag k="addr:street" v="Main Street"/>
    <tag k="addr:state" v="VT"/>
    <tag k="ref:vcgi:esiteid" v="60487"/>
  </node>
  <node id="-1303" visible="true" lat="43.61069848" lon="-73.18324957">
    <tag k="addr:housenumber" v="898"/>
    <tag k="addr:street" v="Main Street"/>
    <tag k="addr:state" v="VT"/>
    <tag k="ref:vcgi:esiteid" v="60490"/>
  </node>
  <node id="-1307" visible="true" lat="43.6105102" lon="-73.18023886">
    <tag k="addr:housenumber" v="37"/>
    <tag k="addr:street" v="South Street"/>
    <tag k="addr:state" v="VT"/>
    <tag k="ref:vcgi:esiteid" v="60494"/>
  </node>
  <node id="-1308" visible="true" lat="43.61050796" lon="-73.18141174">
    <tag k="addr:housenumber" v="813"/>
    <tag k="addr:street" v="Main Street"/>
    <tag k="addr:state" v="VT"/>
    <tag k="ref:vcgi:esiteid" v="60496"/>
  </node>
  <node id="-1314" visible="true" lat="43.61043167" lon="-73.1806488">
    <tag k="addr:housenumber" v="42"/>
    <tag k="addr:street" v="South Street"/>
    <tag k="addr:state" v="VT"/>
    <tag k="ref:vcgi:esiteid" v="60502"/>
  </node>
  <node id="-1315" visible="true" lat="43.61045693" lon="-73.18171125">
    <tag k="addr:housenumber" v="835"/>
    <tag k="addr:street" v="Main Street"/>
    <tag k="addr:state" v="VT"/>
    <tag k="ref:vcgi:esiteid" v="60503"/>
  </node>
  <node id="-1323" visible="true" lat="43.61022567" lon="-73.18019104">
    <tag k="addr:housenumber" v="63"/>
    <tag k="addr:street" v="South Street"/>
    <tag k="addr:state" v="VT"/>
    <tag k="ref:vcgi:esiteid" v="60513"/>
  </node>
  <node id="-1324" visible="true" lat="43.61021041" lon="-73.18066406">
    <tag k="addr:housenumber" v="58"/>
    <tag k="addr:street" v="South Street"/>
    <tag k="addr:state" v="VT"/>
    <tag k="ref:vcgi:esiteid" v="60514"/>
  </node>
  <node id="-1326" visible="true" lat="43.61012096" lon="-73.18331033">
    <tag k="addr:housenumber" v="915"/>
    <tag k="addr:street" v="Main Street"/>
    <tag k="addr:state" v="VT"/>
    <tag k="ref:vcgi:esiteid" v="60516"/>
  </node>
  <node id="-1328" visible="true" lat="43.61018371" lon="-73.18302154">
    <tag k="addr:housenumber" v="897"/>
    <tag k="addr:street" v="Main Street"/>
    <tag k="addr:state" v="VT"/>
    <tag k="ref:vcgi:esiteid" v="60518"/>
  </node>
  <node id="-1342" visible="true" lat="43.61003494" lon="-73.18054962">
    <tag k="addr:housenumber" v="70"/>
    <tag k="addr:street" v="South Street"/>
    <tag k="addr:state" v="VT"/>
    <tag k="ref:vcgi:esiteid" v="60533"/>
  </node>
  <node id="-1343" visible="true" lat="43.61000824" lon="-73.18347931">
    <tag k="addr:housenumber" v="923"/>
    <tag k="addr:street" v="Main Street"/>
    <tag k="addr:state" v="VT"/>
    <tag k="ref:vcgi:esiteid" v="60535"/>
  </node>
  <node id="-1350" visible="true" lat="43.6100386" lon="-73.18407441">
    <tag k="addr:housenumber" v="949"/>
    <tag k="addr:street" v="Main Street"/>
    <tag k="addr:state" v="VT"/>
    <tag k="ref:vcgi:esiteid" v="60542"/>
  </node>
  <node id="-1357" visible="true" lat="43.60987982" lon="-73.18266683">
    <tag k="addr:housenumber" v="48"/>
    <tag k="addr:street" v="Glenbrook Road"/>
    <tag k="addr:state" v="VT"/>
    <tag k="ref:vcgi:esiteid" v="60549"/>
  </node>
  <node id="-1361" visible="true" lat="43.60992446" lon="-73.18225771">
    <tag k="addr:housenumber" v="51"/>
    <tag k="addr:street" v="Glenbrook Road"/>
    <tag k="addr:state" v="VT"/>
    <tag k="ref:vcgi:esiteid" v="60553"/>
  </node>
  <node id="-1364" visible="true" lat="43.60993866" lon="-73.18002075">
    <tag k="addr:housenumber" v="89"/>
    <tag k="addr:street" v="South Street"/>
    <tag k="addr:state" v="VT"/>
    <tag k="ref:vcgi:esiteid" v="60556"/>
  </node>
  <node id="-1367" visible="true" lat="43.60975265" lon="-73.18061828">
    <tag k="addr:housenumber" v="88"/>
    <tag k="addr:street" v="South Street"/>
    <tag k="addr:state" v="VT"/>
    <tag k="ref:vcgi:esiteid" v="60559"/>
  </node>
  <node id="-1371" visible="true" lat="43.6096878" lon="-73.17999267">
    <tag k="addr:housenumber" v="97"/>
    <tag k="addr:street" v="South Street"/>
    <tag k="addr:state" v="VT"/>
    <tag k="ref:vcgi:esiteid" v="60564"/>
  </node>
  <node id="-1377" visible="true" lat="43.60973335" lon="-73.18215128">
    <tag k="addr:housenumber" v="65"/>
    <tag k="addr:street" v="Glenbrook Road"/>
    <tag k="addr:state" v="VT"/>
    <tag k="ref:vcgi:esiteid" v="60570"/>
  </node>
  <node id="-1382" visible="true" lat="43.60959625" lon="-73.18043518">
    <tag k="addr:housenumber" v="100"/>
    <tag k="addr:street" v="South Street"/>
    <tag k="addr:state" v="VT"/>
    <tag k="ref:vcgi:esiteid" v="60575"/>
  </node>
  <node id="-1388" visible="true" lat="43.60952207" lon="-73.18218455">
    <tag k="addr:housenumber" v="77"/>
    <tag k="addr:street" v="Glenbrook Road"/>
    <tag k="addr:state" v="VT"/>
    <tag k="ref:vcgi:esiteid" v="60582"/>
  </node>
  <node id="-1395" visible="true" lat="43.60937118" lon="-73.18006134">
    <tag k="addr:housenumber" v="119"/>
    <tag k="addr:street" v="South Street"/>
    <tag k="addr:state" v="VT"/>
    <tag k="ref:vcgi:esiteid" v="60590"/>
  </node>
  <node id="-1396" visible="true" lat="43.60935211" lon="-73.18273162">
    <tag k="addr:housenumber" v="82"/>
    <tag k="addr:street" v="Glenbrook Road"/>
    <tag k="addr:state" v="VT"/>
    <tag k="ref:vcgi:esiteid" v="60591"/>
  </node>
  <node id="-1398" visible="true" lat="43.60934176" lon="-73.1806078">
    <tag k="addr:housenumber" v="118"/>
    <tag k="addr:street" v="South Street"/>
    <tag k="addr:state" v="VT"/>
    <tag k="ref:vcgi:esiteid" v="60593"/>
  </node>
  <node id="-1406" visible="true" lat="43.60919671" lon="-73.17994272">
    <tag k="addr:housenumber" v="131"/>
    <tag k="addr:street" v="South Street"/>
    <tag k="addr:state" v="VT"/>
    <tag k="ref:vcgi:esiteid" v="60602"/>
  </node>
  <node id="-1407" visible="true" lat="43.60917663" lon="-73.18037414">
    <tag k="addr:housenumber" v="132"/>
    <tag k="addr:street" v="South Street"/>
    <tag k="addr:state" v="VT"/>
    <tag k="ref:vcgi:esiteid" v="60603"/>
  </node>
  <node id="-1409" visible="true" lat="43.60894012" lon="-73.21227264">
    <tag k="addr:housenumber" v="18"/>
    <tag k="addr:street" v="Drake Road"/>
    <tag k="addr:state" v="VT"/>
    <tag k="ref:vcgi:esiteid" v="60606"/>
  </node>
  <node id="-1415" visible="true" lat="43.60910571" lon="-73.18207194">
    <tag k="addr:housenumber" v="103"/>
    <tag k="addr:street" v="Glenbrook Road"/>
    <tag k="addr:state" v="VT"/>
    <tag k="ref:vcgi:esiteid" v="60612"/>
  </node>
  <node id="-1423" visible="true" lat="43.60856616" lon="-73.20725677">
    <tag k="addr:housenumber" v="2158"/>
    <tag k="addr:street" v="Main Street"/>
    <tag k="addr:state" v="VT"/>
    <tag k="ref:vcgi:esiteid" v="60621"/>
  </node>
  <node id="-1427" visible="true" lat="43.60890118" lon="-73.18034594">
    <tag k="addr:housenumber" v="146"/>
    <tag k="addr:street" v="South Street"/>
    <tag k="addr:state" v="VT"/>
    <tag k="ref:vcgi:esiteid" v="60625"/>
  </node>
  <node id="-1436" visible="true" lat="43.6086998" lon="-73.20800781">
    <tag k="addr:housenumber" v="2194"/>
    <tag k="addr:street" v="Main Street"/>
    <tag k="addr:state" v="VT"/>
    <tag k="ref:vcgi:esiteid" v="60635"/>
  </node>
  <node id="-1444" visible="true" lat="43.60859471" lon="-73.20748763">
    <tag k="addr:housenumber" v="2172"/>
    <tag k="addr:street" v="Main Street"/>
    <tag k="addr:state" v="VT"/>
    <tag k="ref:vcgi:esiteid" v="60643"/>
  </node>
  <node id="-1450" visible="true" lat="43.60849798" lon="-73.20682616">
    <tag k="addr:housenumber" v="2138"/>
    <tag k="addr:street" v="Main Street"/>
    <tag k="addr:state" v="VT"/>
    <tag k="ref:vcgi:esiteid" v="60651"/>
  </node>
  <node id="-1457" visible="true" lat="43.6084677" lon="-73.2061663">
    <tag k="addr:housenumber" v="2108"/>
    <tag k="addr:street" v="Main Street"/>
    <tag k="addr:state" v="VT"/>
    <tag k="ref:vcgi:esiteid" v="60658"/>
  </node>
  <node id="-1461" visible="true" lat="43.60836914" lon="-73.20546744">
    <tag k="addr:housenumber" v="2074"/>
    <tag k="addr:street" v="Main Street"/>
    <tag k="addr:state" v="VT"/>
    <tag k="ref:vcgi:esiteid" v="60662"/>
  </node>
  <node id="-1467" visible="true" lat="43.6082325" lon="-73.20804151">
    <tag k="addr:housenumber" v="2191"/>
    <tag k="addr:street" v="Main Street"/>
    <tag k="addr:state" v="VT"/>
    <tag k="ref:vcgi:esiteid" v="60668"/>
  </node>
  <node id="-1474" visible="true" lat="43.60827255" lon="-73.20771789">
    <tag k="addr:housenumber" v="2175"/>
    <tag k="addr:street" v="Main Street"/>
    <tag k="addr:state" v="VT"/>
    <tag k="ref:vcgi:esiteid" v="60675"/>
  </node>
  <node id="-1477" visible="true" lat="43.6083568" lon="-73.20477215">
    <tag k="addr:housenumber" v="2034"/>
    <tag k="addr:street" v="Main Street"/>
    <tag k="addr:state" v="VT"/>
    <tag k="ref:vcgi:esiteid" v="60678"/>
  </node>
  <node id="-1483" visible="true" lat="43.60815811" lon="-73.20732116">
    <tag k="addr:housenumber" v="2155"/>
    <tag k="addr:street" v="Main Street"/>
    <tag k="addr:state" v="VT"/>
    <tag k="ref:vcgi:esiteid" v="60684"/>
  </node>
  <node id="-1489" visible="true" lat="43.60810162" lon="-73.20679997">
    <tag k="addr:housenumber" v="2133"/>
    <tag k="addr:street" v="Main Street"/>
    <tag k="addr:state" v="VT"/>
    <tag k="ref:vcgi:esiteid" v="60690"/>
  </node>
  <node id="-1494" visible="true" lat="43.60802258" lon="-73.2025664">
    <tag k="addr:housenumber" v="26"/>
    <tag k="addr:street" v="Rooney Road"/>
    <tag k="addr:state" v="VT"/>
    <tag k="ref:vcgi:esiteid" v="60695"/>
  </node>
  <node id="-1495" visible="true" lat="43.60811707" lon="-73.20385201">
    <tag k="addr:housenumber" v="1992"/>
    <tag k="addr:street" v="Main Street"/>
    <tag k="addr:state" v="VT"/>
    <tag k="ref:vcgi:esiteid" v="60696"/>
  </node>
  <node id="-1524" visible="true" lat="43.60759285" lon="-73.20389585">
    <tag k="addr:housenumber" v="1991"/>
    <tag k="addr:street" v="Main Street"/>
    <tag k="addr:state" v="VT"/>
    <tag k="ref:vcgi:esiteid" v="60726"/>
  </node>
  <node id="-1556" visible="true" lat="43.60709516" lon="-73.20307745">
    <tag k="addr:housenumber" v="1939"/>
    <tag k="addr:street" v="Main Street"/>
    <tag k="addr:state" v="VT"/>
    <tag k="ref:vcgi:esiteid" v="60762"/>
  </node>
  <node id="-1627" visible="true" lat="43.60557158" lon="-73.22927118">
    <tag k="addr:housenumber" v="105"/>
    <tag k="addr:street" v="Park Street"/>
    <tag k="addr:state" v="VT"/>
    <tag k="ref:vcgi:esiteid" v="60837"/>
  </node>
  <node id="-1629" visible="true" lat="43.60536809" lon="-73.22977991">
    <tag k="addr:housenumber" v="1115"/>
    <tag k="addr:street" v="Vermont Route 4A West"/>
    <tag k="addr:state" v="VT"/>
    <tag k="ref:vcgi:esiteid" v="60839"/>
  </node>
  <node id="-1630" visible="true" lat="43.60548898" lon="-73.22887591">
    <tag k="addr:housenumber" v="30"/>
    <tag k="addr:street" v="School Street"/>
    <tag k="addr:state" v="VT"/>
    <tag k="ref:vcgi:esiteid" v="60840"/>
  </node>
  <node id="-1638" visible="true" lat="43.60522532" lon="-73.23084645">
    <tag k="addr:housenumber" v="1167"/>
    <tag k="addr:street" v="Vermont Route 4A West"/>
    <tag k="addr:state" v="VT"/>
    <tag k="ref:vcgi:esiteid" v="60849"/>
  </node>
  <node id="-1649" visible="true" lat="43.60475632" lon="-73.23191895">
    <tag k="addr:housenumber" v="1229"/>
    <tag k="addr:street" v="Vermont Route 4A West"/>
    <tag k="addr:state" v="VT"/>
    <tag k="ref:vcgi:esiteid" v="60860"/>
  </node>
  <node id="-1651" visible="true" lat="43.60468455" lon="-73.22845119">
    <tag k="addr:housenumber" v="84"/>
    <tag k="addr:street" v="School Street"/>
    <tag k="addr:state" v="VT"/>
    <tag k="ref:vcgi:esiteid" v="60862"/>
  </node>
  <node id="-1658" visible="true" lat="43.60433814" lon="-73.22764241">
    <tag k="addr:housenumber" v="117"/>
    <tag k="addr:street" v="School Street"/>
    <tag k="addr:state" v="VT"/>
    <tag k="ref:vcgi:esiteid" v="60871"/>
  </node>
  <node id="-1664" visible="true" lat="43.60409546" lon="-73.23278809">
    <tag k="addr:housenumber" v="54"/>
    <tag k="addr:street" v="Blissville Road"/>
    <tag k="addr:state" v="VT"/>
    <tag k="ref:vcgi:esiteid" v="60877"/>
  </node>
  <node id="-1665" visible="true" lat="43.60401535" lon="-73.2339859">
    <tag k="addr:housenumber" v="1347"/>
    <tag k="addr:street" v="Vermont Route 4A West"/>
    <tag k="addr:state" v="VT"/>
    <tag k="ref:vcgi:esiteid" v="60878"/>
  </node>
  <node id="-1666" visible="true" lat="43.60399225" lon="-73.22754119">
    <tag k="addr:housenumber" v="147"/>
    <tag k="addr:street" v="School Street"/>
    <tag k="addr:state" v="VT"/>
    <tag k="ref:vcgi:esiteid" v="60879"/>
  </node>
  <node id="-1673" visible="true" lat="43.60352747" lon="-73.23323221">
    <tag k="addr:housenumber" v="84"/>
    <tag k="addr:street" v="Blissville Road"/>
    <tag k="addr:state" v="VT"/>
    <tag k="ref:vcgi:esiteid" v="60887"/>
  </node>
  <node id="-1679" visible="true" lat="43.60324478" lon="-73.23856354">
    <tag k="addr:housenumber" v="1484"/>
    <tag k="addr:street" v="Vermont Route 4A West"/>
    <tag k="addr:state" v="VT"/>
    <tag k="ref:vcgi:esiteid" v="60893"/>
  </node>
  <node id="-1680" visible="true" lat="43.60323334" lon="-73.2359848">
    <tag k="addr:housenumber" v="1465"/>
    <tag k="addr:street" v="Vermont Route 4A West"/>
    <tag k="addr:state" v="VT"/>
    <tag k="ref:vcgi:esiteid" v="60894"/>
  </node>
  <node id="-1686" visible="true" lat="43.60290779" lon="-73.2401908">
    <tag k="addr:housenumber" v="1694"/>
    <tag k="addr:street" v="Vermont Route 4A West"/>
    <tag k="addr:state" v="VT"/>
    <tag k="ref:vcgi:esiteid" v="60900"/>
  </node>
  <node id="-1689" visible="true" lat="43.60301209" lon="-73.23287964">
    <tag k="addr:housenumber" v="134"/>
    <tag k="addr:street" v="Blissville Road"/>
    <tag k="addr:state" v="VT"/>
    <tag k="ref:vcgi:esiteid" v="60903"/>
  </node>
  <node id="-1697" visible="true" lat="43.60265732" lon="-73.24169159">
    <tag k="addr:housenumber" v="1756"/>
    <tag k="addr:street" v="Vermont Route 4A West"/>
    <tag k="addr:state" v="VT"/>
    <tag k="ref:vcgi:esiteid" v="60911"/>
  </node>
  <node id="-1698" visible="true" lat="43.60240936" lon="-73.24226379">
    <tag k="addr:housenumber" v="1784"/>
    <tag k="addr:street" v="Vermont Route 4A West"/>
    <tag k="addr:state" v="VT"/>
    <tag k="ref:vcgi:esiteid" v="60912"/>
  </node>
  <node id="-1699" visible="true" lat="43.60248861" lon="-73.23319476">
    <tag k="addr:housenumber" v="174"/>
    <tag k="addr:street" v="Blissville Road"/>
    <tag k="addr:state" v="VT"/>
    <tag k="ref:vcgi:esiteid" v="60913"/>
  </node>
  <node id="-1704" visible="true" lat="43.60209241" lon="-73.2422829">
    <tag k="addr:housenumber" v="1787"/>
    <tag k="addr:street" v="Vermont Route 4A West"/>
    <tag k="addr:state" v="VT"/>
    <tag k="ref:vcgi:esiteid" v="60919"/>
  </node>
  <node id="-2053" visible="true" lat="43.60224635" lon="-73.23578693">
    <tag k="addr:housenumber" v="63"/>
    <tag k="addr:street" v="North David Avenue"/>
    <tag k="addr:state" v="VT"/>
    <tag k="ref:vcgi:esiteid" v="61276"/>
  </node>
  <node id="-2054" visible="true" lat="43.60211717" lon="-73.23425689">
    <tag k="addr:housenumber" v="42"/>
    <tag k="addr:street" v="North David Avenue"/>
    <tag k="addr:state" v="VT"/>
    <tag k="ref:vcgi:esiteid" v="61277"/>
  </node>
  <node id="-2055" visible="true" lat="43.61039733" lon="-73.18243408">
    <tag k="addr:housenumber" v="861"/>
    <tag k="addr:street" v="Main Street"/>
    <tag k="addr:state" v="VT"/>
    <tag k="ref:vcgi:esiteid" v="61278"/>
  </node>
  <node id="-2056" visible="true" lat="43.61023712" lon="-73.18271637">
    <tag k="addr:housenumber" v="875"/>
    <tag k="addr:street" v="Main Street"/>
    <tag k="addr:state" v="VT"/>
    <tag k="ref:vcgi:esiteid" v="61279"/>
  </node>
  <node id="-2115" visible="true" lat="43.60196913" lon="-73.2335146">
    <tag k="addr:housenumber" v="202"/>
    <tag k="addr:street" v="Blissville Road"/>
    <tag k="addr:state" v="VT"/>
    <tag k="ref:vcgi:esiteid" v="61339"/>
  </node>
  <node id="-2116" visible="true" lat="43.60183563" lon="-73.23437034">
    <tag k="addr:housenumber" v="40"/>
    <tag k="addr:street" v="North David Avenue"/>
    <tag k="addr:state" v="VT"/>
    <tag k="ref:vcgi:esiteid" v="61340"/>
  </node>
  <node id="-2117" visible="true" lat="43.6024588" lon="-73.23435896">
    <tag k="addr:housenumber" v="46"/>
    <tag k="addr:street" v="North David Avenue"/>
    <tag k="addr:state" v="VT"/>
    <tag k="ref:vcgi:esiteid" v="61341"/>
  </node>
  <node id="-2193" visible="true" lat="43.60762167" lon="-73.20446707">
    <tag k="addr:housenumber" v="1997"/>
    <tag k="addr:street" v="Main Street"/>
    <tag k="addr:state" v="VT"/>
    <tag k="ref:vcgi:esiteid" v="61419"/>
  </node>
  <node id="-2214" visible="true" lat="43.60805114" lon="-73.18258776">
    <tag k="addr:housenumber" v="112"/>
    <tag k="addr:street" v="University Drive"/>
    <tag k="addr:state" v="VT"/>
    <tag k="ref:vcgi:esiteid" v="61442"/>
  </node>
  <node id="-2271" visible="true" lat="43.60889231" lon="-73.1829976">
    <tag k="addr:housenumber" v="100"/>
    <tag k="addr:street" v="University Drive"/>
    <tag k="addr:state" v="VT"/>
    <tag k="ref:vcgi:esiteid" v="328783"/>
  </node>
  <node id="-2272" visible="true" lat="43.6086696" lon="-73.18297591">
    <tag k="addr:housenumber" v="104"/>
    <tag k="addr:street" v="University Drive"/>
    <tag k="addr:state" v="VT"/>
    <tag k="ref:vcgi:esiteid" v="328784"/>
  </node>
  <node id="-2273" visible="true" lat="43.60844677" lon="-73.18297339">
    <tag k="addr:housenumber" v="108"/>
    <tag k="addr:street" v="University Drive"/>
    <tag k="addr:state" v="VT"/>
    <tag k="ref:vcgi:esiteid" v="328785"/>
  </node>
  <node id="-2295" visible="true" lat="43.60436656" lon="-73.22833825">
    <tag k="addr:housenumber" v="98"/>
    <tag k="addr:street" v="School Street"/>
    <tag k="addr:state" v="VT"/>
    <tag k="ref:vcgi:esiteid" v="337324"/>
  </node>
  <node id="-2296" visible="true" lat="43.60407502" lon="-73.22819546">
    <tag k="addr:housenumber" v="118"/>
    <tag k="addr:street" v="School Street"/>
    <tag k="addr:state" v="VT"/>
    <tag k="ref:vcgi:esiteid" v="337325"/>
  </node>
  <node id="-2298" visible="true" lat="43.60406752" lon="-73.22884293">
    <tag k="addr:housenumber" v="48"/>
    <tag k="addr:street" v="Devery Lane"/>
    <tag k="addr:state" v="VT"/>
    <tag k="ref:vcgi:esiteid" v="338586"/>
  </node>
</osm>
