<?xml version="1.0" encoding="UTF-8"?>
<osm version="0.6" generator="JOSM">
  <node id="-1254" visible="true" lat="43.61089292" lon="-73.20757181">
    <!-- conflict: "178 Vermont Route 30 North, Castleton, VT" No match in OSM, but a different address exists <5m away: "178 VT Route 30, , " -->
    <tag k="addr:city" v="Castleton"/>
    <tag k="addr:housenumber" v="178"/>
    <tag k="addr:street" v="Vermont Route 30 North"/>
    <tag k="addr:state" v="VT"/>
    <tag k="ref:vcgi:esiteid" v="60438"/>
  </node>
  <node id="-1393" visible="true" lat="43.60918953" lon="-73.21336425">
    <!-- conflict: "238 Vermont Route 4A West, Castleton, VT" No match in OSM, but a different address exists <5m away: "238 Vt Route 4A West, Castleton, VT" -->
    <tag k="addr:city" v="Castleton"/>
    <tag k="addr:housenumber" v="238"/>
    <tag k="addr:street" v="Vermont Route 4A West"/>
    <tag k="addr:state" v="VT"/>
    <tag k="ref:vcgi:esiteid" v="60588"/>
  </node>
  <node id="-1394" visible="true" lat="43.6092532" lon="-73.21534801">
    <!-- conflict: "344 Vermont Route 4A West, Castleton, VT" No match in OSM, but a different address exists <5m away: "344 Vt Route 4A West, Castleton, VT" -->
    <tag k="addr:city" v="Castleton"/>
    <tag k="addr:housenumber" v="344"/>
    <tag k="addr:street" v="Vermont Route 4A West"/>
    <tag k="addr:state" v="VT"/>
    <tag k="ref:vcgi:esiteid" v="60589"/>
  </node>
  <node id="-1405" visible="true" lat="43.6090417" lon="-73.21292721">
    <!-- conflict: "218 Vermont Route 4A West, Castleton, VT" No match in OSM, but a different address exists <5m away: "218 Vt Route 4A West, Castleton, VT" -->
    <tag k="addr:city" v="Castleton"/>
    <tag k="addr:housenumber" v="218"/>
    <tag k="addr:street" v="Vermont Route 4A West"/>
    <tag k="addr:state" v="VT"/>
    <tag k="ref:vcgi:esiteid" v="60601"/>
  </node>
  <node id="-1418" visible="true" lat="43.60886117" lon="-73.21029327">
    <!-- conflict: "92 Vermont Route 4A West, Castleton, VT" No match in OSM, but a different address exists <5m away: "92 Vt Route 4A West, Castleton, VT" -->
    <tag k="addr:city" v="Castleton"/>
    <tag k="addr:housenumber" v="92"/>
    <tag k="addr:street" v="Vermont Route 4A West"/>
    <tag k="addr:state" v="VT"/>
    <tag k="ref:vcgi:esiteid" v="60615"/>
  </node>
  <node id="-1420" visible="true" lat="43.60890732" lon="-73.21188416">
    <!-- conflict: "170 Vermont Route 4A West, Castleton, VT" No match in OSM, but a different address exists <5m away: "170 Vt Route 4A West, Castleton, VT" -->
    <tag k="addr:city" v="Castleton"/>
    <tag k="addr:housenumber" v="170"/>
    <tag k="addr:street" v="Vermont Route 4A West"/>
    <tag k="addr:state" v="VT"/>
    <tag k="ref:vcgi:esiteid" v="60618"/>
  </node>
  <node id="-1421" visible="true" lat="43.60887923" lon="-73.21053983">
    <!-- conflict: "106 Vermont Route 4A West, Castleton, VT" No match in OSM, but a different address exists <5m away: "106 Vt Route 4A West, Castleton, VT" -->
    <tag k="addr:city" v="Castleton"/>
    <tag k="addr:housenumber" v="106"/>
    <tag k="addr:street" v="Vermont Route 4A West"/>
    <tag k="addr:state" v="VT"/>
    <tag k="ref:vcgi:esiteid" v="60619"/>
  </node>
  <node id="-1426" visible="true" lat="43.60870604" lon="-73.21458634">
    <!-- conflict: "312 Vermont Route 4A West, Castleton, VT" No match in OSM, but a different address exists <5m away: "312 Vt Route 4A West, Castleton, VT" -->
    <tag k="addr:city" v="Castleton"/>
    <tag k="addr:housenumber" v="312"/>
    <tag k="addr:street" v="Vermont Route 4A West"/>
    <tag k="addr:state" v="VT"/>
    <tag k="ref:vcgi:esiteid" v="60624"/>
  </node>
  <node id="-1432" visible="true" lat="43.60880224" lon="-73.20921515">
    <!-- conflict: "40 Vermont Route 4A West, Castleton, VT" No match in OSM, but a different address exists <5m away: "40 Vt Route 4A West, Castleton, VT" -->
    <tag k="addr:city" v="Castleton"/>
    <tag k="addr:housenumber" v="40"/>
    <tag k="addr:street" v="Vermont Route 4A West"/>
    <tag k="addr:state" v="VT"/>
    <tag k="ref:vcgi:esiteid" v="60631"/>
  </node>
  <node id="-1433" visible="true" lat="43.60878519" lon="-73.21584757">
    <!-- conflict: "378 Vermont Route 4A West, Castleton, VT" No match in OSM, but a different address exists <5m away: "378 Vt Route 4A West, Castleton, VT" -->
    <tag k="addr:city" v="Castleton"/>
    <tag k="addr:housenumber" v="378"/>
    <tag k="addr:street" v="Vermont Route 4A West"/>
    <tag k="addr:state" v="VT"/>
    <tag k="ref:vcgi:esiteid" v="60632"/>
  </node>
  <node id="-1445" visible="true" lat="43.60844524" lon="-73.2112665">
    <!-- conflict: "151 Vermont Route 4A West, Castleton, VT" No match in OSM, but a different address exists <5m away: "151 Vt Route 4A West, Castleton, VT" -->
    <tag k="addr:city" v="Castleton"/>
    <tag k="addr:housenumber" v="151"/>
    <tag k="addr:street" v="Vermont Route 4A West"/>
    <tag k="addr:state" v="VT"/>
    <tag k="ref:vcgi:esiteid" v="60645"/>
  </node>
  <node id="-1449" visible="true" lat="43.60837138" lon="-73.21076304">
    <!-- conflict: "113 Vermont Route 4A West, Castleton, VT" No match in OSM, but a different address exists <5m away: "113 Vt Route 4A West, Castleton, VT" -->
    <tag k="addr:city" v="Castleton"/>
    <tag k="addr:housenumber" v="113"/>
    <tag k="addr:street" v="Vermont Route 4A West"/>
    <tag k="addr:state" v="VT"/>
    <tag k="ref:vcgi:esiteid" v="60650"/>
  </node>
  <node id="-1454" visible="true" lat="43.60841191" lon="-73.21024681">
    <!-- conflict: "85 Vermont Route 4A West, Castleton, VT" No match in OSM, but a different address exists <5m away: "85 Vt Route 4A West, Castleton, VT" -->
    <tag k="addr:city" v="Castleton"/>
    <tag k="addr:housenumber" v="85"/>
    <tag k="addr:street" v="Vermont Route 4A West"/>
    <tag k="addr:state" v="VT"/>
    <tag k="ref:vcgi:esiteid" v="60655"/>
  </node>
  <node id="-1464" visible="true" lat="43.60833359" lon="-73.21381378">
    <!-- conflict: "275 Vermont Route 4A West, Castleton, VT" No match in OSM, but a different address exists <5m away: "275 Vt Route 4A West, Castleton, VT" -->
    <tag k="addr:city" v="Castleton"/>
    <tag k="addr:housenumber" v="275"/>
    <tag k="addr:street" v="Vermont Route 4A West"/>
    <tag k="addr:state" v="VT"/>
    <tag k="ref:vcgi:esiteid" v="60665"/>
  </node>
  <node id="-1466" visible="true" lat="43.60835648" lon="-73.20970154">
    <!-- conflict: "63 Vermont Route 4A West, Castleton, VT" No match in OSM, but a different address exists <5m away: "63 Vt Route 4A West, Castleton, VT" -->
    <tag k="addr:city" v="Castleton"/>
    <tag k="addr:housenumber" v="63"/>
    <tag k="addr:street" v="Vermont Route 4A West"/>
    <tag k="addr:state" v="VT"/>
    <tag k="ref:vcgi:esiteid" v="60667"/>
  </node>
  <node id="-1469" visible="true" lat="43.6082181" lon="-73.21009985">
    <!-- conflict: "81 Vermont Route 4A West, Castleton, VT" No match in OSM, but a different address exists <5m away: "81 Vt Route 4A West, Castleton, VT" -->
    <tag k="addr:city" v="Castleton"/>
    <tag k="addr:housenumber" v="81"/>
    <tag k="addr:street" v="Vermont Route 4A West"/>
    <tag k="addr:state" v="VT"/>
    <tag k="ref:vcgi:esiteid" v="60670"/>
  </node>
  <node id="-1470" visible="true" lat="43.60831833" lon="-73.20874786">
    <!-- conflict: "15 Vermont Route 4A West, Castleton, VT" No match in OSM, but a different address exists <5m away: "15 Vt Route 4A West, Castleton, VT" -->
    <tag k="addr:city" v="Castleton"/>
    <tag k="addr:housenumber" v="15"/>
    <tag k="addr:street" v="Vermont Route 4A West"/>
    <tag k="addr:state" v="VT"/>
    <tag k="ref:vcgi:esiteid" v="60671"/>
  </node>
  <node id="-1476" visible="true" lat="43.60821533" lon="-73.20825958">
    <!-- conflict: "17 Vermont Route 30 South, Castleton, VT" No match in OSM, but a different address exists <5m away: "17 Vt Route 30 South, Castleton, VT" -->
    <tag k="addr:city" v="Castleton"/>
    <tag k="addr:housenumber" v="17"/>
    <tag k="addr:street" v="Vermont Route 30 South"/>
    <tag k="addr:state" v="VT"/>
    <tag k="ref:vcgi:esiteid" v="60677"/>
  </node>
  <node id="-1484" visible="true" lat="43.6081047" lon="-73.21019745">
    <!-- conflict: "87 Vermont Route 4A West, Castleton, VT" No match in OSM, but a different address exists <5m away: "87 Vt Route 4A West, Castleton, VT" -->
    <tag k="addr:city" v="Castleton"/>
    <tag k="addr:housenumber" v="87"/>
    <tag k="addr:street" v="Vermont Route 4A West"/>
    <tag k="addr:state" v="VT"/>
    <tag k="ref:vcgi:esiteid" v="60685"/>
  </node>
  <node id="-1485" visible="true" lat="43.60794199" lon="-73.20943685">
    <!-- conflict: "49 Vermont Route 4A West, Castleton, VT" No match in OSM, but a different address exists <5m away: "49 Vt Route 4A West, Castleton, VT" -->
    <tag k="addr:city" v="Castleton"/>
    <tag k="addr:housenumber" v="49"/>
    <tag k="addr:street" v="Vermont Route 4A West"/>
    <tag k="addr:state" v="VT"/>
    <tag k="ref:vcgi:esiteid" v="60686"/>
  </node>
  <node id="-1486" visible="true" lat="43.60789299" lon="-73.21610082">
    <!-- conflict: "395 Vermont Route 4A West, Castleton, VT" No match in OSM, but a different address exists <5m away: "395 Vt Route 4A West, Castleton, VT" -->
    <tag k="addr:city" v="Castleton"/>
    <tag k="addr:housenumber" v="395"/>
    <tag k="addr:street" v="Vermont Route 4A West"/>
    <tag k="addr:state" v="VT"/>
    <tag k="ref:vcgi:esiteid" v="60687"/>
  </node>
  <node id="-1510" visible="true" lat="43.6078777" lon="-73.20825688">
    <!-- conflict: "35 Vermont Route 30 South, Castleton, VT" No match in OSM, but a different address exists <5m away: "35 Vt Route 30 South, Castleton, VT" -->
    <tag k="addr:city" v="Castleton"/>
    <tag k="addr:housenumber" v="35"/>
    <tag k="addr:street" v="Vermont Route 30 South"/>
    <tag k="addr:state" v="VT"/>
    <tag k="ref:vcgi:esiteid" v="60711"/>
  </node>
  <node id="-1534" visible="true" lat="43.60744402" lon="-73.2266534">
    <!-- conflict: "912 Vermont Route 4A West, Castleton, VT" No match in OSM, but a different address exists <5m away: "912 VT Route 4A, , " -->
    <tag k="addr:city" v="Castleton"/>
    <tag k="addr:housenumber" v="912"/>
    <tag k="addr:street" v="Vermont Route 4A West"/>
    <tag k="addr:state" v="VT"/>
    <tag k="ref:vcgi:esiteid" v="60737"/>
  </node>
  <node id="-1544" visible="true" lat="43.60755146" lon="-73.20831454">
    <!-- conflict: "69 Vermont Route 30 South, Castleton, VT" No match in OSM, but a different address exists <5m away: "69 Vt Route 30 South, Castleton, VT" -->
    <tag k="addr:city" v="Castleton"/>
    <tag k="addr:housenumber" v="69"/>
    <tag k="addr:street" v="Vermont Route 30 South"/>
    <tag k="addr:state" v="VT"/>
    <tag k="ref:vcgi:esiteid" v="60749"/>
  </node>
  <node id="-1554" visible="true" lat="43.60724612" lon="-73.20836858">
    <!-- conflict: "79 Vermont Route 30 South, Castleton, VT" No match in OSM, but a different address exists <5m away: "79 Vt Route 30 South, Castleton, VT" -->
    <tag k="addr:city" v="Castleton"/>
    <tag k="addr:housenumber" v="79"/>
    <tag k="addr:street" v="Vermont Route 30 South"/>
    <tag k="addr:state" v="VT"/>
    <tag k="ref:vcgi:esiteid" v="60760"/>
  </node>
  <node id="-1647" visible="true" lat="43.60485458" lon="-73.23378754">
    <!-- conflict: "17 Creek Road, Castleton, VT" No match in OSM, but a different address exists <5m away: "17 East Creek Drive, , " -->
    <tag k="addr:city" v="Castleton"/>
    <tag k="addr:housenumber" v="17"/>
    <tag k="addr:street" v="Creek Road"/>
    <tag k="addr:state" v="VT"/>
    <tag k="ref:vcgi:esiteid" v="60858"/>
  </node>
  <node id="-1876" visible="true" lat="43.59283829" lon="-73.20915985">
    <!-- conflict: "1083 Vermont Route 30 South, Castleton, VT" No match in OSM, but a different address exists <5m away: "1083 State Route 30, , VT" -->
    <tag k="addr:city" v="Castleton"/>
    <tag k="addr:housenumber" v="1083"/>
    <tag k="addr:street" v="Vermont Route 30 South"/>
    <tag k="addr:state" v="VT"/>
    <tag k="ref:vcgi:esiteid" v="61098"/>
  </node>
  <node id="-2113" visible="true" lat="43.61397499" lon="-73.20838929">
    <!-- conflict: "275 Vermont Route 30 North, Castleton, VT" No match in OSM, but a different address exists <5m away: "270 Route 30 North, Bomoseen, " -->
    <tag k="addr:city" v="Castleton"/>
    <tag k="addr:housenumber" v="275"/>
    <tag k="addr:street" v="Vermont Route 30 North"/>
    <tag k="addr:state" v="VT"/>
    <tag k="ref:vcgi:esiteid" v="61337"/>
  </node>
  <node id="-2283" visible="true" lat="43.60783696" lon="-73.21340937">
    <!-- conflict: "251 Vermont Route 4A West, Castleton, VT" No match in OSM, but a different address exists <5m away: "251 Vt Route 4A West, Castleton, VT" -->
    <tag k="addr:city" v="Castleton"/>
    <tag k="addr:housenumber" v="251"/>
    <tag k="addr:street" v="Vermont Route 4A West"/>
    <tag k="addr:state" v="VT"/>
    <tag k="ref:vcgi:esiteid" v="332679"/>
  </node>
  <node id="-2306" visible="true" lat="43.60909013" lon="-73.21394193">
    <!-- conflict: "254 Vermont Route 4A West, Castleton, VT" No match in OSM, but a different address exists <5m away: "254 Vt Route 4A West, Castleton, VT" -->
    <tag k="addr:city" v="Castleton"/>
    <tag k="addr:housenumber" v="254"/>
    <tag k="addr:street" v="Vermont Route 4A West"/>
    <tag k="addr:state" v="VT"/>
    <tag k="ref:vcgi:esiteid" v="339093"/>
  </node>
  <node id="-2312" visible="true" lat="43.60786901" lon="-73.21585837">
    <!-- conflict: "393 Vermont Route 4A West, Castleton, VT" No match in OSM, but a different address exists <5m away: "393 Vt Route 4A West, Castleton, VT" -->
    <tag k="addr:city" v="Castleton"/>
    <tag k="addr:housenumber" v="393"/>
    <tag k="addr:street" v="Vermont Route 4A West"/>
    <tag k="addr:state" v="VT"/>
    <tag k="ref:vcgi:esiteid" v="345197"/>
  </node>
  <node id="-2315" visible="true" lat="43.60917689" lon="-73.21170205">
    <!-- conflict: "166 Vermont Route 4A West, Castleton, VT" No match in OSM, but a different address exists <5m away: "166 Vt Route 4A West, Castleton, VT" -->
    <tag k="addr:city" v="Castleton"/>
    <tag k="addr:housenumber" v="166"/>
    <tag k="addr:street" v="Vermont Route 4A West"/>
    <tag k="addr:state" v="VT"/>
    <tag k="ref:vcgi:esiteid" v="345941"/>
  </node>
</osm>
