<?xml version="1.0" encoding="UTF-8"?>
<osm version="0.6" generator="JOSM">
  <node id="-333" visible="true" lat="43.40523528" lon="-72.60540062">
    <tag k="addr:city" v="Cavendish"/>
    <tag k="addr:housenumber" v="856"/>
    <tag k="addr:street" v="Center Road"/>
    <tag k="addr:state" v="VT"/>
    <tag k="ref:vcgi:esiteid" v="61690"/>
  </node>
  <node id="-339" visible="true" lat="43.40443801" lon="-72.60491997">
    <tag k="addr:city" v="Cavendish"/>
    <tag k="addr:housenumber" v="796"/>
    <tag k="addr:street" v="Center Road"/>
    <tag k="addr:state" v="VT"/>
    <tag k="ref:vcgi:esiteid" v="61696"/>
  </node>
  <node id="-344" visible="true" lat="43.40364837" lon="-72.60462951">
    <tag k="addr:city" v="Cavendish"/>
    <tag k="addr:housenumber" v="732"/>
    <tag k="addr:street" v="Center Road"/>
    <tag k="addr:state" v="VT"/>
    <tag k="ref:vcgi:esiteid" v="61701"/>
  </node>
  <node id="-354" visible="true" lat="43.40255355" lon="-72.60424041">
    <tag k="addr:city" v="Cavendish"/>
    <tag k="addr:housenumber" v="660"/>
    <tag k="addr:street" v="Center Road"/>
    <tag k="addr:state" v="VT"/>
    <tag k="ref:vcgi:esiteid" v="61711"/>
  </node>
  <node id="-595" visible="true" lat="43.38342666" lon="-72.61016845">
    <tag k="addr:city" v="Cavendish"/>
    <tag k="addr:housenumber" v="89"/>
    <tag k="addr:street" v="Bonts Hill"/>
    <tag k="addr:state" v="VT"/>
    <tag k="ref:vcgi:esiteid" v="61974"/>
  </node>
  <node id="-614" visible="true" lat="43.38287353" lon="-72.60773468">
    <tag k="addr:city" v="Cavendish"/>
    <tag k="addr:housenumber" v="37"/>
    <tag k="addr:street" v="High Street"/>
    <tag k="addr:state" v="VT"/>
    <tag k="ref:vcgi:esiteid" v="61997"/>
  </node>
  <node id="-891" visible="true" lat="43.35865831" lon="-72.59740662">
    <tag k="addr:city" v="Cavendish"/>
    <tag k="addr:housenumber" v="1599"/>
    <tag k="addr:street" v="Cavendish Gulf Road"/>
    <tag k="addr:state" v="VT"/>
    <tag k="ref:vcgi:esiteid" v="62302"/>
  </node>
  <node id="-1079" visible="true" lat="43.38716536" lon="-72.59949298">
    <tag k="addr:city" v="Cavendish"/>
    <tag k="addr:housenumber" v="125"/>
    <tag k="addr:street" v="Power Plant Road"/>
    <tag k="addr:state" v="VT"/>
    <tag k="ref:vcgi:esiteid" v="750046"/>
  </node>
</osm>
