<?xml version="1.0" encoding="UTF-8"?>
<osm version="0.6" generator="JOSM">
  <node id="-585" visible="true" lat="44.82131011" lon="-72.03338388">
    <tag k="addr:city" v="Charleston"/>
    <tag k="addr:housenumber" v="1462"/>
    <tag k="addr:street" v="Town Farm Road"/>
    <tag k="addr:state" v="VT"/>
    <tag k="ref:vcgi:esiteid" v="62921"/>
  </node>
  <node id="-639" visible="true" lat="44.79486084" lon="-71.98729705">
    <tag k="addr:city" v="Charleston"/>
    <tag k="addr:housenumber" v="854"/>
    <tag k="addr:street" v="Mad Brook Road"/>
    <tag k="addr:state" v="VT"/>
    <tag k="ref:vcgi:esiteid" v="62975"/>
  </node>
  <node id="-640" visible="true" lat="44.7937106" lon="-71.98642387">
    <tag k="addr:city" v="Charleston"/>
    <tag k="addr:housenumber" v="969"/>
    <tag k="addr:street" v="Mad Brook Road"/>
    <tag k="addr:state" v="VT"/>
    <tag k="ref:vcgi:esiteid" v="62976"/>
  </node>
  <node id="-683" visible="true" lat="44.79304041" lon="-71.98574042">
    <tag k="addr:city" v="Charleston"/>
    <tag k="addr:housenumber" v="1011"/>
    <tag k="addr:street" v="Mad Brook Road"/>
    <tag k="addr:state" v="VT"/>
    <tag k="ref:vcgi:esiteid" v="63022"/>
  </node>
  <node id="-695" visible="true" lat="44.8189586" lon="-72.03493552">
    <tag k="addr:city" v="Charleston"/>
    <tag k="addr:housenumber" v="1658"/>
    <tag k="addr:street" v="Town Farm Road"/>
    <tag k="addr:state" v="VT"/>
    <tag k="ref:vcgi:esiteid" v="63036"/>
  </node>
  <node id="-781" visible="true" lat="44.84356691" lon="-72.01247423">
    <tag k="addr:city" v="Charleston"/>
    <tag k="addr:housenumber" v="5864"/>
    <tag k="addr:street" v="Vermont Route 105"/>
    <tag k="addr:state" v="VT"/>
    <tag k="ref:vcgi:esiteid" v="313246"/>
  </node>
  <node id="-818" visible="true" lat="44.84296899" lon="-71.98839897">
    <tag k="addr:city" v="Charleston"/>
    <tag k="addr:housenumber" v="271"/>
    <tag k="addr:street" v="Church Hill Road"/>
    <tag k="addr:state" v="VT"/>
    <tag k="ref:vcgi:esiteid" v="313287"/>
  </node>
</osm>
