<?xml version="1.0" encoding="UTF-8"?>
<osm version="0.6" generator="JOSM">
  <node id="-458" visible="true" lat="43.98893052" lon="-72.44838153">
    <tag k="addr:city" v="Chelsea"/>
    <tag k="addr:housenumber" v="1"/>
    <tag k="addr:street" v="Maple Avenue"/>
    <tag k="addr:state" v="VT"/>
    <tag k="ref:vcgi:esiteid" v="65477"/>
  </node>
  <node id="-461" visible="true" lat="43.98873205" lon="-72.44820537">
    <tag k="addr:city" v="Chelsea"/>
    <tag k="addr:housenumber" v="291"/>
    <tag k="addr:street" v="Vermont Route 110"/>
    <tag k="addr:state" v="VT"/>
    <tag k="ref:vcgi:esiteid" v="65480"/>
  </node>
  <node id="-462" visible="true" lat="43.98882322" lon="-72.44806276">
    <tag k="addr:city" v="Chelsea"/>
    <tag k="addr:housenumber" v="289"/>
    <tag k="addr:street" v="Vermont Route 110"/>
    <tag k="addr:state" v="VT"/>
    <tag k="ref:vcgi:esiteid" v="65481"/>
  </node>
  <node id="-464" visible="true" lat="43.98850096" lon="-72.44860524">
    <tag k="addr:city" v="Chelsea"/>
    <tag k="addr:housenumber" v="285"/>
    <tag k="addr:street" v="Vermont Route 110"/>
    <tag k="addr:state" v="VT"/>
    <tag k="ref:vcgi:esiteid" v="65483"/>
  </node>
  <node id="-465" visible="true" lat="43.98848848" lon="-72.44598008">
    <tag k="addr:city" v="Chelsea"/>
    <tag k="addr:housenumber" v="13"/>
    <tag k="addr:street" v="North Common"/>
    <tag k="addr:state" v="VT"/>
    <tag k="ref:vcgi:esiteid" v="65484"/>
  </node>
  <node id="-466" visible="true" lat="43.98841309" lon="-72.44754885">
    <tag k="addr:city" v="Chelsea"/>
    <tag k="addr:housenumber" v="292"/>
    <tag k="addr:street" v="Vermont Route 110"/>
    <tag k="addr:state" v="VT"/>
    <tag k="ref:vcgi:esiteid" v="65485"/>
  </node>
  <node id="-467" visible="true" lat="43.98828374" lon="-72.44687793">
    <tag k="addr:city" v="Chelsea"/>
    <tag k="addr:housenumber" v="6"/>
    <tag k="addr:street" v="Vermont Route 113"/>
    <tag k="addr:state" v="VT"/>
    <tag k="ref:vcgi:esiteid" v="65486"/>
  </node>
  <node id="-468" visible="true" lat="43.98834839" lon="-72.44738307">
    <tag k="addr:city" v="Chelsea"/>
    <tag k="addr:housenumber" v="2"/>
    <tag k="addr:street" v="Vermont Route 113"/>
    <tag k="addr:state" v="VT"/>
    <tag k="ref:vcgi:esiteid" v="65487"/>
  </node>
  <node id="-470" visible="true" lat="43.98840309" lon="-72.44713952">
    <tag k="addr:city" v="Chelsea"/>
    <tag k="addr:housenumber" v="4"/>
    <tag k="addr:street" v="Vermont Route 113"/>
    <tag k="addr:state" v="VT"/>
    <tag k="ref:vcgi:esiteid" v="65489"/>
  </node>
  <node id="-473" visible="true" lat="43.98807234" lon="-72.44489527">
    <tag k="addr:city" v="Chelsea"/>
    <tag k="addr:housenumber" v="17"/>
    <tag k="addr:street" v="Vermont Route 113"/>
    <tag k="addr:state" v="VT"/>
    <tag k="ref:vcgi:esiteid" v="65493"/>
  </node>
  <node id="-475" visible="true" lat="43.98814773" lon="-72.44533538">
    <tag k="addr:city" v="Chelsea"/>
    <tag k="addr:housenumber" v="13"/>
    <tag k="addr:street" v="Vermont Route 113"/>
    <tag k="addr:state" v="VT"/>
    <tag k="ref:vcgi:esiteid" v="65495"/>
  </node>
  <node id="-476" visible="true" lat="43.98813199" lon="-72.44423675">
    <tag k="addr:city" v="Chelsea"/>
    <tag k="addr:housenumber" v="19"/>
    <tag k="addr:street" v="Vermont Route 113"/>
    <tag k="addr:state" v="VT"/>
    <tag k="ref:vcgi:esiteid" v="65496"/>
  </node>
  <node id="-477" visible="true" lat="43.98811721" lon="-72.44737243">
    <tag k="addr:city" v="Chelsea"/>
    <tag k="addr:housenumber" v="3"/>
    <tag k="addr:street" v="North Court Street"/>
    <tag k="addr:state" v="VT"/>
    <tag k="ref:vcgi:esiteid" v="65497"/>
  </node>
  <node id="-479" visible="true" lat="43.98811044" lon="-72.44714845">
    <tag k="addr:city" v="Chelsea"/>
    <tag k="addr:housenumber" v="5"/>
    <tag k="addr:street" v="North Court Street"/>
    <tag k="addr:state" v="VT"/>
    <tag k="ref:vcgi:esiteid" v="65500"/>
  </node>
  <node id="-480" visible="true" lat="43.98797607" lon="-72.44565582">
    <tag k="addr:city" v="Chelsea"/>
    <tag k="addr:housenumber" v="12"/>
    <tag k="addr:street" v="Vermont Route 113"/>
    <tag k="addr:state" v="VT"/>
    <tag k="ref:vcgi:esiteid" v="65501"/>
  </node>
  <node id="-481" visible="true" lat="43.98784637" lon="-72.44577789">
    <tag k="addr:city" v="Chelsea"/>
    <tag k="addr:housenumber" v="3"/>
    <tag k="addr:street" v="Court Street"/>
    <tag k="addr:state" v="VT"/>
    <tag k="ref:vcgi:esiteid" v="65503"/>
  </node>
  <node id="-483" visible="true" lat="43.98781008" lon="-72.4481698">
    <tag k="addr:city" v="Chelsea"/>
    <tag k="addr:housenumber" v="283"/>
    <tag k="addr:street" v="Vermont Route 110"/>
    <tag k="addr:state" v="VT"/>
    <tag k="ref:vcgi:esiteid" v="65505"/>
  </node>
  <node id="-484" visible="true" lat="43.98772708" lon="-72.44475753">
    <tag k="addr:city" v="Chelsea"/>
    <tag k="addr:housenumber" v="20"/>
    <tag k="addr:street" v="Vermont Route 113"/>
    <tag k="addr:state" v="VT"/>
    <tag k="ref:vcgi:esiteid" v="65506"/>
  </node>
  <node id="-486" visible="true" lat="43.98757734" lon="-72.44818993">
    <tag k="addr:city" v="Chelsea"/>
    <tag k="addr:housenumber" v="281"/>
    <tag k="addr:street" v="Vermont Route 110"/>
    <tag k="addr:state" v="VT"/>
    <tag k="ref:vcgi:esiteid" v="65508"/>
  </node>
  <node id="-488" visible="true" lat="43.98745679" lon="-72.444458">
    <tag k="addr:city" v="Chelsea"/>
    <tag k="addr:housenumber" v="13"/>
    <tag k="addr:street" v="Highland Avenue"/>
    <tag k="addr:state" v="VT"/>
    <tag k="ref:vcgi:esiteid" v="65510"/>
  </node>
  <node id="-489" visible="true" lat="43.9874339" lon="-72.44483947">
    <tag k="addr:city" v="Chelsea"/>
    <tag k="addr:housenumber" v="11"/>
    <tag k="addr:street" v="Highland Avenue"/>
    <tag k="addr:state" v="VT"/>
    <tag k="ref:vcgi:esiteid" v="65512"/>
  </node>
  <node id="-490" visible="true" lat="43.98742097" lon="-72.44591469">
    <tag k="addr:city" v="Chelsea"/>
    <tag k="addr:housenumber" v="4"/>
    <tag k="addr:street" v="Highland Avenue"/>
    <tag k="addr:state" v="VT"/>
    <tag k="ref:vcgi:esiteid" v="65513"/>
  </node>
  <node id="-491" visible="true" lat="43.98739623" lon="-72.44836425">
    <tag k="addr:city" v="Chelsea"/>
    <tag k="addr:housenumber" v="279"/>
    <tag k="addr:street" v="Vermont Route 110"/>
    <tag k="addr:state" v="VT"/>
    <tag k="ref:vcgi:esiteid" v="65514"/>
  </node>
  <node id="-492" visible="true" lat="43.98732376" lon="-72.44728851">
    <tag k="addr:city" v="Chelsea"/>
    <tag k="addr:housenumber" v="2"/>
    <tag k="addr:street" v="School Street"/>
    <tag k="addr:state" v="VT"/>
    <tag k="ref:vcgi:esiteid" v="65515"/>
  </node>
  <node id="-493" visible="true" lat="43.98719831" lon="-72.44410484">
    <tag k="addr:city" v="Chelsea"/>
    <tag k="addr:housenumber" v="15"/>
    <tag k="addr:street" v="Highland Avenue"/>
    <tag k="addr:state" v="VT"/>
    <tag k="ref:vcgi:esiteid" v="65516"/>
  </node>
  <node id="-495" visible="true" lat="43.98719739" lon="-72.44485473">
    <tag k="addr:city" v="Chelsea"/>
    <tag k="addr:housenumber" v="12"/>
    <tag k="addr:street" v="Highland Avenue"/>
    <tag k="addr:state" v="VT"/>
    <tag k="ref:vcgi:esiteid" v="65519"/>
  </node>
  <node id="-496" visible="true" lat="43.98703009" lon="-72.44770781">
    <tag k="addr:city" v="Chelsea"/>
    <tag k="addr:housenumber" v="282"/>
    <tag k="addr:street" v="Vermont Route 110"/>
    <tag k="addr:state" v="VT"/>
    <tag k="ref:vcgi:esiteid" v="65520"/>
  </node>
  <node id="-497" visible="true" lat="43.98704545" lon="-72.44454112">
    <tag k="addr:city" v="Chelsea"/>
    <tag k="addr:housenumber" v="16"/>
    <tag k="addr:street" v="Highland Avenue"/>
    <tag k="addr:state" v="VT"/>
    <tag k="ref:vcgi:esiteid" v="65521"/>
  </node>
  <node id="-498" visible="true" lat="43.98702993" lon="-72.44829061">
    <tag k="addr:city" v="Chelsea"/>
    <tag k="addr:housenumber" v="277"/>
    <tag k="addr:street" v="Vermont Route 110"/>
    <tag k="addr:state" v="VT"/>
    <tag k="ref:vcgi:esiteid" v="65522"/>
  </node>
  <node id="-499" visible="true" lat="43.98686533" lon="-72.44768529">
    <tag k="addr:city" v="Chelsea"/>
    <tag k="addr:housenumber" v="280"/>
    <tag k="addr:street" v="Vermont Route 110"/>
    <tag k="addr:state" v="VT"/>
    <tag k="ref:vcgi:esiteid" v="65523"/>
  </node>
  <node id="-502" visible="true" lat="43.98660857" lon="-72.44777619">
    <tag k="addr:city" v="Chelsea"/>
    <tag k="addr:housenumber" v="278"/>
    <tag k="addr:street" v="Vermont Route 110"/>
    <tag k="addr:state" v="VT"/>
    <tag k="ref:vcgi:esiteid" v="65526"/>
  </node>
  <node id="-504" visible="true" lat="43.98663132" lon="-72.44825399">
    <tag k="addr:city" v="Chelsea"/>
    <tag k="addr:housenumber" v="275"/>
    <tag k="addr:street" v="Vermont Route 110"/>
    <tag k="addr:state" v="VT"/>
    <tag k="ref:vcgi:esiteid" v="65528"/>
  </node>
  <node id="-506" visible="true" lat="43.98645019" lon="-72.4477539">
    <tag k="addr:city" v="Chelsea"/>
    <tag k="addr:housenumber" v="276"/>
    <tag k="addr:street" v="Vermont Route 110"/>
    <tag k="addr:state" v="VT"/>
    <tag k="ref:vcgi:esiteid" v="65530"/>
  </node>
  <node id="-509" visible="true" lat="43.98558377" lon="-72.44731139">
    <tag k="addr:city" v="Chelsea"/>
    <tag k="addr:housenumber" v="7"/>
    <tag k="addr:street" v="Creamery Road"/>
    <tag k="addr:state" v="VT"/>
    <tag k="ref:vcgi:esiteid" v="65534"/>
  </node>
  <node id="-511" visible="true" lat="43.98556651" lon="-72.448473">
    <tag k="addr:city" v="Chelsea"/>
    <tag k="addr:housenumber" v="271"/>
    <tag k="addr:street" v="Vermont Route 110"/>
    <tag k="addr:state" v="VT"/>
    <tag k="ref:vcgi:esiteid" v="65536"/>
  </node>
  <node id="-676" visible="true" lat="43.9560008" lon="-72.43693542">
    <tag k="addr:city" v="Chelsea"/>
    <tag k="addr:housenumber" v="68"/>
    <tag k="addr:street" v="Holt Hill Road"/>
    <tag k="addr:state" v="VT"/>
    <tag k="ref:vcgi:esiteid" v="65707"/>
  </node>
  <node id="-677" visible="true" lat="43.95566892" lon="-72.43959045">
    <tag k="addr:city" v="Chelsea"/>
    <tag k="addr:housenumber" v="57"/>
    <tag k="addr:street" v="Holt Hill Road"/>
    <tag k="addr:state" v="VT"/>
    <tag k="ref:vcgi:esiteid" v="65708"/>
  </node>
  <node id="-682" visible="true" lat="43.95298337" lon="-72.4411087">
    <tag k="addr:city" v="Chelsea"/>
    <tag k="addr:housenumber" v="36"/>
    <tag k="addr:street" v="Holt Hill Road"/>
    <tag k="addr:state" v="VT"/>
    <tag k="ref:vcgi:esiteid" v="65713"/>
  </node>
  <node id="-684" visible="true" lat="43.95148766" lon="-72.44288936">
    <tag k="addr:city" v="Chelsea"/>
    <tag k="addr:housenumber" v="25"/>
    <tag k="addr:street" v="Holt Hill Road"/>
    <tag k="addr:state" v="VT"/>
    <tag k="ref:vcgi:esiteid" v="65715"/>
  </node>
  <node id="-685" visible="true" lat="43.95127439" lon="-72.44226836">
    <tag k="addr:city" v="Chelsea"/>
    <tag k="addr:housenumber" v="24"/>
    <tag k="addr:street" v="Holt Hill Road"/>
    <tag k="addr:state" v="VT"/>
    <tag k="ref:vcgi:esiteid" v="65716"/>
  </node>
  <node id="-688" visible="true" lat="43.95040063" lon="-72.44522959">
    <tag k="addr:city" v="Chelsea"/>
    <tag k="addr:housenumber" v="11"/>
    <tag k="addr:street" v="Holt Hill Road"/>
    <tag k="addr:state" v="VT"/>
    <tag k="ref:vcgi:esiteid" v="65719"/>
  </node>
  <node id="-689" visible="true" lat="43.95014261" lon="-72.44544775">
    <tag k="addr:city" v="Chelsea"/>
    <tag k="addr:housenumber" v="9"/>
    <tag k="addr:street" v="Holt Hill Road"/>
    <tag k="addr:state" v="VT"/>
    <tag k="ref:vcgi:esiteid" v="65720"/>
  </node>
  <node id="-692" visible="true" lat="43.94874954" lon="-72.44450378">
    <tag k="addr:city" v="Chelsea"/>
    <tag k="addr:housenumber" v="30"/>
    <tag k="addr:street" v="Harolyn Hill Road"/>
    <tag k="addr:state" v="VT"/>
    <tag k="ref:vcgi:esiteid" v="65723"/>
  </node>
  <node id="-693" visible="true" lat="43.94752502" lon="-72.44235229">
    <tag k="addr:city" v="Chelsea"/>
    <tag k="addr:housenumber" v="48"/>
    <tag k="addr:street" v="Harolyn Hill Road"/>
    <tag k="addr:state" v="VT"/>
    <tag k="ref:vcgi:esiteid" v="65724"/>
  </node>
  <node id="-694" visible="true" lat="43.94548749" lon="-72.42738341">
    <tag k="addr:city" v="Chelsea"/>
    <tag k="addr:housenumber" v="150"/>
    <tag k="addr:street" v="County Road"/>
    <tag k="addr:state" v="VT"/>
    <tag k="ref:vcgi:esiteid" v="65726"/>
  </node>
  <node id="-695" visible="true" lat="43.94427108" lon="-72.43101501">
    <tag k="addr:city" v="Chelsea"/>
    <tag k="addr:housenumber" v="110"/>
    <tag k="addr:street" v="Harolyn Hill Road"/>
    <tag k="addr:state" v="VT"/>
    <tag k="ref:vcgi:esiteid" v="65728"/>
  </node>
  <node id="-696" visible="true" lat="43.94358062" lon="-72.42762756">
    <tag k="addr:city" v="Chelsea"/>
    <tag k="addr:housenumber" v="164"/>
    <tag k="addr:street" v="County Road"/>
    <tag k="addr:state" v="VT"/>
    <tag k="ref:vcgi:esiteid" v="65729"/>
  </node>
  <node id="-697" visible="true" lat="43.94306945" lon="-72.42779541">
    <tag k="addr:city" v="Chelsea"/>
    <tag k="addr:housenumber" v="168"/>
    <tag k="addr:street" v="County Road"/>
    <tag k="addr:state" v="VT"/>
    <tag k="ref:vcgi:esiteid" v="65730"/>
  </node>
  <node id="-728" visible="true" lat="43.94664481" lon="-72.44664987">
    <tag k="addr:city" v="Chelsea"/>
    <tag k="addr:housenumber" v="86"/>
    <tag k="addr:street" v="Bicknell Hill Road"/>
    <tag k="addr:state" v="VT"/>
    <tag k="ref:vcgi:esiteid" v="65763"/>
  </node>
  <node id="-794" visible="true" lat="43.96006937" lon="-72.43359963">
    <tag k="addr:city" v="Chelsea"/>
    <tag k="addr:housenumber" v="100"/>
    <tag k="addr:street" v="Holt Hill Road"/>
    <tag k="addr:state" v="VT"/>
    <tag k="ref:vcgi:esiteid" v="332245"/>
  </node>
  <node id="-869" visible="true" lat="43.95706473" lon="-72.43409097">
    <tag k="addr:city" v="Chelsea"/>
    <tag k="addr:housenumber" v="76"/>
    <tag k="addr:street" v="Holt Hill Road"/>
    <tag k="addr:state" v="VT"/>
    <tag k="ref:vcgi:esiteid" v="613081"/>
  </node>
  <node id="-909" visible="true" lat="43.98827076" lon="-72.4470591">
    <tag k="addr:city" v="Chelsea"/>
    <tag k="addr:housenumber" v="5"/>
    <tag k="addr:street" v="Vermont Route 113"/>
    <tag k="addr:state" v="VT"/>
    <tag k="ref:vcgi:esiteid" v="755722"/>
  </node>
  <node id="-921" visible="true" lat="43.95880223" lon="-72.43466134">
    <tag k="addr:city" v="Chelsea"/>
    <tag k="addr:housenumber" v="88"/>
    <tag k="addr:street" v="Holt Hill Road"/>
    <tag k="addr:state" v="VT"/>
    <tag k="ref:vcgi:esiteid" v="900093"/>
  </node>
</osm>
