<?xml version="1.0" encoding="UTF-8"?>
<osm version="0.6" generator="JOSM" upload="false">
  <node id="-102" visible="true" lat="43.34403595" lon="-72.54597772">
    <tag k="addr:city" v="Chester"/>
    <tag k="addr:housenumber" v="180"/>
    <tag k="addr:street" v="Baltimore Road"/>
    <tag k="addr:state" v="VT"/>
    <tag k="ref:vcgi:esiteid" v="65810"/>
  </node>
  <node id="-103" visible="true" lat="43.34944152" lon="-72.63711547">
    <tag k="addr:city" v="Chester"/>
    <tag k="addr:housenumber" v="240"/>
    <tag k="addr:street" v="Suursoo Road"/>
    <tag k="addr:state" v="VT"/>
    <tag k="ref:vcgi:esiteid" v="65811"/>
  </node>
  <node id="-104" visible="true" lat="43.34819219" lon="-72.64381666">
    <tag k="addr:city" v="Chester"/>
    <tag k="addr:housenumber" v="465"/>
    <tag k="addr:street" v="Pennell Road"/>
    <tag k="addr:state" v="VT"/>
    <tag k="ref:vcgi:esiteid" v="65812"/>
  </node>
  <node id="-112" visible="true" lat="43.34638214" lon="-72.63960266">
    <tag k="addr:city" v="Chester"/>
    <tag k="addr:housenumber" v="882"/>
    <tag k="addr:street" v="Smokeshire Road"/>
    <tag k="addr:state" v="VT"/>
    <tag k="ref:vcgi:esiteid" v="65820"/>
  </node>
  <node id="-113" visible="true" lat="43.34635925" lon="-72.62338256">
    <tag k="addr:city" v="Chester"/>
    <tag k="addr:housenumber" v="5238"/>
    <tag k="addr:street" v="Vermont Route 103 North"/>
    <tag k="addr:state" v="VT"/>
    <tag k="ref:vcgi:esiteid" v="65821"/>
  </node>
  <node id="-116" visible="true" lat="43.34599685" lon="-72.62393951">
    <tag k="addr:city" v="Chester"/>
    <tag k="addr:housenumber" v="5227"/>
    <tag k="addr:street" v="Vermont Route 103 North"/>
    <tag k="addr:state" v="VT"/>
    <tag k="ref:vcgi:esiteid" v="65824"/>
  </node>
  <node id="-117" visible="true" lat="43.34597778" lon="-72.6231079">
    <tag k="addr:city" v="Chester"/>
    <tag k="addr:housenumber" v="5210"/>
    <tag k="addr:street" v="Vermont Route 103 North"/>
    <tag k="addr:state" v="VT"/>
    <tag k="ref:vcgi:esiteid" v="65825"/>
  </node>
  <node id="-119" visible="true" lat="43.34572601" lon="-72.62310028">
    <tag k="addr:city" v="Chester"/>
    <tag k="addr:housenumber" v="5194"/>
    <tag k="addr:street" v="Vermont Route 103 North"/>
    <tag k="addr:state" v="VT"/>
    <tag k="ref:vcgi:esiteid" v="65827"/>
  </node>
  <node id="-120" visible="true" lat="43.34556198" lon="-72.62296295">
    <tag k="addr:city" v="Chester"/>
    <tag k="addr:housenumber" v="5180"/>
    <tag k="addr:street" v="Vermont Route 103 North"/>
    <tag k="addr:state" v="VT"/>
    <tag k="ref:vcgi:esiteid" v="65828"/>
  </node>
  <node id="-123" visible="true" lat="43.34537111" lon="-72.63096873">
    <tag k="addr:city" v="Chester"/>
    <tag k="addr:housenumber" v="394"/>
    <tag k="addr:street" v="Smokeshire Road"/>
    <tag k="addr:state" v="VT"/>
    <tag k="ref:vcgi:esiteid" v="65831"/>
  </node>
  <node id="-127" visible="true" lat="43.34457397" lon="-72.64076995">
    <tag k="addr:city" v="Chester"/>
    <tag k="addr:housenumber" v="979"/>
    <tag k="addr:street" v="Smokeshire Road"/>
    <tag k="addr:state" v="VT"/>
    <tag k="ref:vcgi:esiteid" v="65835"/>
  </node>
  <node id="-130" visible="true" lat="43.34405517" lon="-72.62174987">
    <tag k="addr:city" v="Chester"/>
    <tag k="addr:housenumber" v="5056"/>
    <tag k="addr:street" v="Vermont Route 103 North"/>
    <tag k="addr:state" v="VT"/>
    <tag k="ref:vcgi:esiteid" v="65838"/>
  </node>
  <node id="-131" visible="true" lat="43.34377288" lon="-72.62149047">
    <tag k="addr:city" v="Chester"/>
    <tag k="addr:housenumber" v="5032"/>
    <tag k="addr:street" v="Vermont Route 103 North"/>
    <tag k="addr:state" v="VT"/>
    <tag k="ref:vcgi:esiteid" v="65839"/>
  </node>
  <node id="-132" visible="true" lat="43.34368133" lon="-72.62239837">
    <tag k="addr:city" v="Chester"/>
    <tag k="addr:housenumber" v="5051"/>
    <tag k="addr:street" v="Vermont Route 103 North"/>
    <tag k="addr:state" v="VT"/>
    <tag k="ref:vcgi:esiteid" v="65840"/>
  </node>
  <node id="-134" visible="true" lat="43.3433876" lon="-72.62037658">
    <tag k="addr:city" v="Chester"/>
    <tag k="addr:housenumber" v="4978"/>
    <tag k="addr:street" v="Vermont Route 103 North"/>
    <tag k="addr:state" v="VT"/>
    <tag k="ref:vcgi:esiteid" v="65842"/>
  </node>
  <node id="-136" visible="true" lat="43.34298706" lon="-72.62178802">
    <tag k="addr:city" v="Chester"/>
    <tag k="addr:housenumber" v="4993"/>
    <tag k="addr:street" v="Vermont Route 103 North"/>
    <tag k="addr:state" v="VT"/>
    <tag k="ref:vcgi:esiteid" v="65844"/>
  </node>
  <node id="-141" visible="true" lat="43.34187698" lon="-72.62127685">
    <tag k="addr:city" v="Chester"/>
    <tag k="addr:housenumber" v="4965"/>
    <tag k="addr:street" v="Vermont Route 103 North"/>
    <tag k="addr:state" v="VT"/>
    <tag k="ref:vcgi:esiteid" v="65850"/>
  </node>
  <node id="-143" visible="true" lat="43.34151077" lon="-72.62060546">
    <tag k="addr:city" v="Chester"/>
    <tag k="addr:housenumber" v="4877"/>
    <tag k="addr:street" v="Vermont Route 103 North"/>
    <tag k="addr:state" v="VT"/>
    <tag k="ref:vcgi:esiteid" v="65852"/>
  </node>
  <node id="-150" visible="true" lat="43.34041214" lon="-72.62060546">
    <tag k="addr:city" v="Chester"/>
    <tag k="addr:housenumber" v="125"/>
    <tag k="addr:street" v="Whitmore Brook Road"/>
    <tag k="addr:state" v="VT"/>
    <tag k="ref:vcgi:esiteid" v="65859"/>
  </node>
  <node id="-157" visible="true" lat="43.33948898" lon="-72.67396545">
    <tag k="addr:city" v="Chester"/>
    <tag k="addr:housenumber" v="3335"/>
    <tag k="addr:street" v="Smokeshire Road"/>
    <tag k="addr:state" v="VT"/>
    <tag k="ref:vcgi:esiteid" v="65866"/>
  </node>
  <node id="-160" visible="true" lat="43.33897781" lon="-72.62215423">
    <tag k="addr:city" v="Chester"/>
    <tag k="addr:housenumber" v="260"/>
    <tag k="addr:street" v="Whitmore Brook Road"/>
    <tag k="addr:state" v="VT"/>
    <tag k="ref:vcgi:esiteid" v="65869"/>
  </node>
  <node id="-167" visible="true" lat="43.33625793" lon="-72.65723419">
    <tag k="addr:city" v="Chester"/>
    <tag k="addr:housenumber" v="248"/>
    <tag k="addr:street" v="Miner Road"/>
    <tag k="addr:state" v="VT"/>
    <tag k="ref:vcgi:esiteid" v="65876"/>
  </node>
  <node id="-173" visible="true" lat="43.33537292" lon="-72.65177917">
    <tag k="addr:city" v="Chester"/>
    <tag k="addr:housenumber" v="2098"/>
    <tag k="addr:street" v="Smokeshire Road"/>
    <tag k="addr:state" v="VT"/>
    <tag k="ref:vcgi:esiteid" v="65882"/>
  </node>
  <node id="-176" visible="true" lat="43.33524322" lon="-72.65104675">
    <tag k="addr:city" v="Chester"/>
    <tag k="addr:housenumber" v="2044"/>
    <tag k="addr:street" v="Smokeshire Road"/>
    <tag k="addr:state" v="VT"/>
    <tag k="ref:vcgi:esiteid" v="65885"/>
  </node>
  <node id="-182" visible="true" lat="43.33518771" lon="-72.62284883">
    <tag k="addr:city" v="Chester"/>
    <tag k="addr:housenumber" v="528"/>
    <tag k="addr:street" v="Whitmore Brook Road"/>
    <tag k="addr:state" v="VT"/>
    <tag k="ref:vcgi:esiteid" v="65891"/>
  </node>
  <node id="-191" visible="true" lat="43.33439636" lon="-72.65209198">
    <tag k="addr:city" v="Chester"/>
    <tag k="addr:housenumber" v="64"/>
    <tag k="addr:street" v="Chase Brook Road"/>
    <tag k="addr:state" v="VT"/>
    <tag k="ref:vcgi:esiteid" v="65900"/>
  </node>
  <node id="-204" visible="true" lat="43.33294677" lon="-72.65253448">
    <tag k="addr:city" v="Chester"/>
    <tag k="addr:housenumber" v="171"/>
    <tag k="addr:street" v="Chase Brook Road"/>
    <tag k="addr:state" v="VT"/>
    <tag k="ref:vcgi:esiteid" v="65913"/>
  </node>
  <node id="-208" visible="true" lat="43.33272933" lon="-72.65272522">
    <tag k="addr:city" v="Chester"/>
    <tag k="addr:housenumber" v="187"/>
    <tag k="addr:street" v="Chase Brook Road"/>
    <tag k="addr:state" v="VT"/>
    <tag k="ref:vcgi:esiteid" v="65917"/>
  </node>
  <node id="-218" visible="true" lat="43.33203506" lon="-72.65449523">
    <tag k="addr:city" v="Chester"/>
    <tag k="addr:housenumber" v="306"/>
    <tag k="addr:street" v="Chase Brook Road"/>
    <tag k="addr:state" v="VT"/>
    <tag k="ref:vcgi:esiteid" v="65927"/>
  </node>
  <node id="-248" visible="true" lat="43.32883276" lon="-72.65912684">
    <tag k="addr:city" v="Chester"/>
    <tag k="addr:housenumber" v="270"/>
    <tag k="addr:street" v="Pleines Road"/>
    <tag k="addr:state" v="VT"/>
    <tag k="ref:vcgi:esiteid" v="65957"/>
  </node>
  <node id="-312" visible="true" lat="43.32471978" lon="-72.6605635">
    <tag k="addr:city" v="Chester"/>
    <tag k="addr:housenumber" v="982"/>
    <tag k="addr:street" v="Chase Brook Road"/>
    <tag k="addr:state" v="VT"/>
    <tag k="ref:vcgi:esiteid" v="66021"/>
  </node>
  <node id="-324" visible="true" lat="43.3229518" lon="-72.65827969">
    <tag k="addr:city" v="Chester"/>
    <tag k="addr:housenumber" v="897"/>
    <tag k="addr:street" v="Chase Brook Road"/>
    <tag k="addr:state" v="VT"/>
    <tag k="ref:vcgi:esiteid" v="66033"/>
  </node>
  <node id="-332" visible="true" lat="43.32274246" lon="-72.65825652">
    <tag k="addr:city" v="Chester"/>
    <tag k="addr:housenumber" v="807"/>
    <tag k="addr:street" v="Chase Brook Road"/>
    <tag k="addr:state" v="VT"/>
    <tag k="ref:vcgi:esiteid" v="66041"/>
  </node>
  <node id="-546" visible="true" lat="43.2828598" lon="-72.59902191">
    <tag k="addr:city" v="Chester"/>
    <tag k="addr:housenumber" v="125"/>
    <tag k="addr:street" v="Trebo Road"/>
    <tag k="addr:state" v="VT"/>
    <tag k="ref:vcgi:esiteid" v="66256"/>
  </node>
  <node id="-549" visible="true" lat="43.28261184" lon="-72.60015106">
    <tag k="addr:city" v="Chester"/>
    <tag k="addr:housenumber" v="33"/>
    <tag k="addr:street" v="Trebo Road"/>
    <tag k="addr:state" v="VT"/>
    <tag k="ref:vcgi:esiteid" v="66259"/>
  </node>
  <node id="-553" visible="true" lat="43.28203964" lon="-72.59806823">
    <tag k="addr:city" v="Chester"/>
    <tag k="addr:housenumber" v="96"/>
    <tag k="addr:street" v="Trebo Road"/>
    <tag k="addr:state" v="VT"/>
    <tag k="ref:vcgi:esiteid" v="66263"/>
  </node>
  <node id="-560" visible="true" lat="43.28108596" lon="-72.60194396">
    <tag k="addr:city" v="Chester"/>
    <tag k="addr:housenumber" v="391"/>
    <tag k="addr:street" v="Vermont Route 103 North"/>
    <tag k="addr:state" v="VT"/>
    <tag k="ref:vcgi:esiteid" v="66270"/>
  </node>
  <node id="-563" visible="true" lat="43.28092193" lon="-72.59977722">
    <tag k="addr:city" v="Chester"/>
    <tag k="addr:housenumber" v="252"/>
    <tag k="addr:street" v="Vermont Route 103 North"/>
    <tag k="addr:state" v="VT"/>
    <tag k="ref:vcgi:esiteid" v="66273"/>
  </node>
  <node id="-572" visible="true" lat="43.27944564" lon="-72.59959411">
    <tag k="addr:city" v="Chester"/>
    <tag k="addr:housenumber" v="157"/>
    <tag k="addr:street" v="Vermont Route 103 North"/>
    <tag k="addr:state" v="VT"/>
    <tag k="ref:vcgi:esiteid" v="66282"/>
  </node>
  <node id="-588" visible="true" lat="43.2778648" lon="-72.59640619">
    <tag k="addr:city" v="Chester"/>
    <tag k="addr:housenumber" v="544"/>
    <tag k="addr:street" v="North Street"/>
    <tag k="addr:state" v="VT"/>
    <tag k="ref:vcgi:esiteid" v="66298"/>
  </node>
  <node id="-589" visible="true" lat="43.2775917" lon="-72.59837341">
    <tag k="addr:city" v="Chester"/>
    <tag k="addr:housenumber" v="19"/>
    <tag k="addr:street" v="Vermont Route 103 North"/>
    <tag k="addr:state" v="VT"/>
    <tag k="ref:vcgi:esiteid" v="66299"/>
  </node>
  <node id="-593" visible="true" lat="43.27726364" lon="-72.5972824">
    <tag k="addr:city" v="Chester"/>
    <tag k="addr:housenumber" v="527"/>
    <tag k="addr:street" v="North Street"/>
    <tag k="addr:state" v="VT"/>
    <tag k="ref:vcgi:esiteid" v="66304"/>
  </node>
  <node id="-598" visible="true" lat="43.2770462" lon="-72.59798431">
    <tag k="addr:city" v="Chester"/>
    <tag k="addr:housenumber" v="879"/>
    <tag k="addr:street" v="Church Street"/>
    <tag k="addr:state" v="VT"/>
    <tag k="ref:vcgi:esiteid" v="66309"/>
  </node>
  <node id="-599" visible="true" lat="43.27702331" lon="-72.59711456">
    <tag k="addr:city" v="Chester"/>
    <tag k="addr:housenumber" v="509"/>
    <tag k="addr:street" v="North Street"/>
    <tag k="addr:state" v="VT"/>
    <tag k="ref:vcgi:esiteid" v="66310"/>
  </node>
  <node id="-600" visible="true" lat="43.27683258" lon="-72.59807586">
    <tag k="addr:city" v="Chester"/>
    <tag k="addr:housenumber" v="857"/>
    <tag k="addr:street" v="Church Street"/>
    <tag k="addr:state" v="VT"/>
    <tag k="ref:vcgi:esiteid" v="66311"/>
  </node>
  <node id="-602" visible="true" lat="43.27682495" lon="-72.59951782">
    <tag k="addr:city" v="Chester"/>
    <tag k="addr:housenumber" v="803"/>
    <tag k="addr:street" v="Church Street"/>
    <tag k="addr:state" v="VT"/>
    <tag k="ref:vcgi:esiteid" v="66313"/>
  </node>
  <node id="-605" visible="true" lat="43.27652709" lon="-72.59740393">
    <tag k="addr:city" v="Chester"/>
    <tag k="addr:housenumber" v="45"/>
    <tag k="addr:street" v="Dalrymple Street"/>
    <tag k="addr:state" v="VT"/>
    <tag k="ref:vcgi:esiteid" v="66316"/>
  </node>
  <node id="-606" visible="true" lat="43.27653418" lon="-72.59851522">
    <tag k="addr:city" v="Chester"/>
    <tag k="addr:housenumber" v="831"/>
    <tag k="addr:street" v="Church Street"/>
    <tag k="addr:state" v="VT"/>
    <tag k="ref:vcgi:esiteid" v="66317"/>
  </node>
  <node id="-610" visible="true" lat="43.27647473" lon="-72.5993323">
    <tag k="addr:city" v="Chester"/>
    <tag k="addr:housenumber" v="805"/>
    <tag k="addr:street" v="Church Street"/>
    <tag k="addr:state" v="VT"/>
    <tag k="ref:vcgi:esiteid" v="66321"/>
  </node>
  <node id="-611" visible="true" lat="43.27636718" lon="-72.59790039">
    <tag k="addr:city" v="Chester"/>
    <tag k="addr:housenumber" v="842"/>
    <tag k="addr:street" v="Church Street"/>
    <tag k="addr:state" v="VT"/>
    <tag k="ref:vcgi:esiteid" v="66322"/>
  </node>
  <node id="-612" visible="true" lat="43.27633666" lon="-72.59536743">
    <tag k="addr:city" v="Chester"/>
    <tag k="addr:housenumber" v="412"/>
    <tag k="addr:street" v="North Street"/>
    <tag k="addr:state" v="VT"/>
    <tag k="ref:vcgi:esiteid" v="66324"/>
  </node>
  <node id="-616" visible="true" lat="43.27610035" lon="-72.59726808">
    <tag k="addr:city" v="Chester"/>
    <tag k="addr:housenumber" v="852"/>
    <tag k="addr:street" v="Church Street"/>
    <tag k="addr:state" v="VT"/>
    <tag k="ref:vcgi:esiteid" v="66328"/>
  </node>
  <node id="-617" visible="true" lat="43.27624442" lon="-72.59640906">
    <tag k="addr:city" v="Chester"/>
    <tag k="addr:housenumber" v="449"/>
    <tag k="addr:street" v="North Street"/>
    <tag k="addr:state" v="VT"/>
    <tag k="ref:vcgi:esiteid" v="66329"/>
  </node>
  <node id="-620" visible="true" lat="43.27602386" lon="-72.59833526">
    <tag k="addr:city" v="Chester"/>
    <tag k="addr:housenumber" v="810"/>
    <tag k="addr:street" v="Church Street"/>
    <tag k="addr:state" v="VT"/>
    <tag k="ref:vcgi:esiteid" v="66332"/>
  </node>
  <node id="-621" visible="true" lat="43.27600533" lon="-72.59468862">
    <tag k="addr:city" v="Chester"/>
    <tag k="addr:housenumber" v="374"/>
    <tag k="addr:street" v="North Street"/>
    <tag k="addr:state" v="VT"/>
    <tag k="ref:vcgi:esiteid" v="66333"/>
  </node>
  <node id="-622" visible="true" lat="43.27588272" lon="-72.59874725">
    <tag k="addr:city" v="Chester"/>
    <tag k="addr:housenumber" v="788"/>
    <tag k="addr:street" v="Church Street"/>
    <tag k="addr:state" v="VT"/>
    <tag k="ref:vcgi:esiteid" v="66334"/>
  </node>
  <node id="-625" visible="true" lat="43.27582168" lon="-72.59555816">
    <tag k="addr:city" v="Chester"/>
    <tag k="addr:housenumber" v="401"/>
    <tag k="addr:street" v="North Street"/>
    <tag k="addr:state" v="VT"/>
    <tag k="ref:vcgi:esiteid" v="66337"/>
  </node>
  <node id="-626" visible="true" lat="43.27578353" lon="-72.59417724">
    <tag k="addr:city" v="Chester"/>
    <tag k="addr:housenumber" v="340"/>
    <tag k="addr:street" v="North Street"/>
    <tag k="addr:state" v="VT"/>
    <tag k="ref:vcgi:esiteid" v="66338"/>
  </node>
  <node id="-627" visible="true" lat="43.2756195" lon="-72.59369659">
    <tag k="addr:city" v="Chester"/>
    <tag k="addr:housenumber" v="312"/>
    <tag k="addr:street" v="North Street"/>
    <tag k="addr:state" v="VT"/>
    <tag k="ref:vcgi:esiteid" v="66339"/>
  </node>
  <node id="-628" visible="true" lat="43.27553176" lon="-72.59337615">
    <tag k="addr:city" v="Chester"/>
    <tag k="addr:housenumber" v="296"/>
    <tag k="addr:street" v="North Street"/>
    <tag k="addr:state" v="VT"/>
    <tag k="ref:vcgi:esiteid" v="66340"/>
  </node>
  <node id="-629" visible="true" lat="43.27552413" lon="-72.59355163">
    <tag k="addr:city" v="Chester"/>
    <tag k="addr:housenumber" v="302"/>
    <tag k="addr:street" v="North Street"/>
    <tag k="addr:state" v="VT"/>
    <tag k="ref:vcgi:esiteid" v="66341"/>
  </node>
  <node id="-630" visible="true" lat="43.27550506" lon="-72.59461975">
    <tag k="addr:city" v="Chester"/>
    <tag k="addr:housenumber" v="349"/>
    <tag k="addr:street" v="North Street"/>
    <tag k="addr:state" v="VT"/>
    <tag k="ref:vcgi:esiteid" v="66342"/>
  </node>
  <node id="-632" visible="true" lat="43.27539351" lon="-72.59435422">
    <tag k="addr:city" v="Chester"/>
    <tag k="addr:housenumber" v="335"/>
    <tag k="addr:street" v="North Street"/>
    <tag k="addr:state" v="VT"/>
    <tag k="ref:vcgi:esiteid" v="66345"/>
  </node>
  <node id="-636" visible="true" lat="43.27531051" lon="-72.60089874">
    <tag k="addr:city" v="Chester"/>
    <tag k="addr:housenumber" v="683"/>
    <tag k="addr:street" v="Church Street"/>
    <tag k="addr:state" v="VT"/>
    <tag k="ref:vcgi:esiteid" v="66350"/>
  </node>
  <node id="-637" visible="true" lat="43.27531051" lon="-72.59294891">
    <tag k="addr:city" v="Chester"/>
    <tag k="addr:housenumber" v="270"/>
    <tag k="addr:street" v="North Street"/>
    <tag k="addr:state" v="VT"/>
    <tag k="ref:vcgi:esiteid" v="66351"/>
  </node>
  <node id="-638" visible="true" lat="43.27529144" lon="-72.60482025">
    <tag k="addr:city" v="Chester"/>
    <tag k="addr:housenumber" v="270"/>
    <tag k="addr:street" v="Marcs Drive"/>
    <tag k="addr:state" v="VT"/>
    <tag k="ref:vcgi:esiteid" v="66352"/>
  </node>
  <node id="-641" visible="true" lat="43.27515792" lon="-72.59262084">
    <tag k="addr:city" v="Chester"/>
    <tag k="addr:housenumber" v="250"/>
    <tag k="addr:street" v="North Street"/>
    <tag k="addr:state" v="VT"/>
    <tag k="ref:vcgi:esiteid" v="66355"/>
  </node>
  <node id="-642" visible="true" lat="43.2751503" lon="-72.59394073">
    <tag k="addr:city" v="Chester"/>
    <tag k="addr:housenumber" v="311"/>
    <tag k="addr:street" v="North Street"/>
    <tag k="addr:state" v="VT"/>
    <tag k="ref:vcgi:esiteid" v="66356"/>
  </node>
  <node id="-644" visible="true" lat="43.27508163" lon="-72.59211731">
    <tag k="addr:city" v="Chester"/>
    <tag k="addr:housenumber" v="228"/>
    <tag k="addr:street" v="North Street"/>
    <tag k="addr:state" v="VT"/>
    <tag k="ref:vcgi:esiteid" v="66358"/>
  </node>
  <node id="-645" visible="true" lat="43.27465654" lon="-72.59324888">
    <tag k="addr:city" v="Chester"/>
    <tag k="addr:housenumber" v="267"/>
    <tag k="addr:street" v="North Street"/>
    <tag k="addr:state" v="VT"/>
    <tag k="ref:vcgi:esiteid" v="66359"/>
  </node>
  <node id="-647" visible="true" lat="43.2749006" lon="-72.60275565">
    <tag k="addr:city" v="Chester"/>
    <tag k="addr:housenumber" v="110"/>
    <tag k="addr:street" v="Marcs Drive"/>
    <tag k="addr:state" v="VT"/>
    <tag k="ref:vcgi:esiteid" v="66361"/>
  </node>
  <node id="-649" visible="true" lat="43.27480697" lon="-72.59158325">
    <tag k="addr:city" v="Chester"/>
    <tag k="addr:housenumber" v="196"/>
    <tag k="addr:street" v="North Street"/>
    <tag k="addr:state" v="VT"/>
    <tag k="ref:vcgi:esiteid" v="66363"/>
  </node>
  <node id="-650" visible="true" lat="43.27483204" lon="-72.60481045">
    <tag k="addr:city" v="Chester"/>
    <tag k="addr:housenumber" v="230"/>
    <tag k="addr:street" v="Marcs Drive"/>
    <tag k="addr:state" v="VT"/>
    <tag k="ref:vcgi:esiteid" v="66364"/>
  </node>
  <node id="-654" visible="true" lat="43.27455901" lon="-72.59113311">
    <tag k="addr:city" v="Chester"/>
    <tag k="addr:housenumber" v="166"/>
    <tag k="addr:street" v="North Street"/>
    <tag k="addr:state" v="VT"/>
    <tag k="ref:vcgi:esiteid" v="66369"/>
  </node>
  <node id="-655" visible="true" lat="43.27455139" lon="-72.59225463">
    <tag k="addr:city" v="Chester"/>
    <tag k="addr:housenumber" v="211"/>
    <tag k="addr:street" v="North Street"/>
    <tag k="addr:state" v="VT"/>
    <tag k="ref:vcgi:esiteid" v="66370"/>
  </node>
  <node id="-657" visible="true" lat="43.27454376" lon="-72.59159851">
    <tag k="addr:city" v="Chester"/>
    <tag k="addr:housenumber" v="186"/>
    <tag k="addr:street" v="North Street"/>
    <tag k="addr:state" v="VT"/>
    <tag k="ref:vcgi:esiteid" v="66373"/>
  </node>
  <node id="-660" visible="true" lat="43.27438354" lon="-72.59187316">
    <tag k="addr:city" v="Chester"/>
    <tag k="addr:housenumber" v="189"/>
    <tag k="addr:street" v="North Street"/>
    <tag k="addr:state" v="VT"/>
    <tag k="ref:vcgi:esiteid" v="66377"/>
  </node>
  <node id="-661" visible="true" lat="43.2742691" lon="-72.59087371">
    <tag k="addr:city" v="Chester"/>
    <tag k="addr:housenumber" v="146"/>
    <tag k="addr:street" v="North Street"/>
    <tag k="addr:state" v="VT"/>
    <tag k="ref:vcgi:esiteid" v="66378"/>
  </node>
  <node id="-663" visible="true" lat="43.27417373" lon="-72.59160614">
    <tag k="addr:city" v="Chester"/>
    <tag k="addr:housenumber" v="171"/>
    <tag k="addr:street" v="North Street"/>
    <tag k="addr:state" v="VT"/>
    <tag k="ref:vcgi:esiteid" v="66380"/>
  </node>
  <node id="-664" visible="true" lat="43.27414321" lon="-72.59068298">
    <tag k="addr:city" v="Chester"/>
    <tag k="addr:housenumber" v="134"/>
    <tag k="addr:street" v="North Street"/>
    <tag k="addr:state" v="VT"/>
    <tag k="ref:vcgi:esiteid" v="66381"/>
  </node>
  <node id="-665" visible="true" lat="43.27403259" lon="-72.59955596">
    <tag k="addr:city" v="Chester"/>
    <tag k="addr:housenumber" v="604"/>
    <tag k="addr:street" v="Church Street"/>
    <tag k="addr:state" v="VT"/>
    <tag k="ref:vcgi:esiteid" v="66382"/>
  </node>
  <node id="-668" visible="true" lat="43.27396011" lon="-72.60328674">
    <tag k="addr:city" v="Chester"/>
    <tag k="addr:housenumber" v="141"/>
    <tag k="addr:street" v="Marcs Drive"/>
    <tag k="addr:state" v="VT"/>
    <tag k="ref:vcgi:esiteid" v="66385"/>
  </node>
  <node id="-669" visible="true" lat="43.27393722" lon="-72.59024047">
    <tag k="addr:city" v="Chester"/>
    <tag k="addr:housenumber" v="108"/>
    <tag k="addr:street" v="North Street"/>
    <tag k="addr:state" v="VT"/>
    <tag k="ref:vcgi:esiteid" v="66386"/>
  </node>
  <node id="-670" visible="true" lat="43.27378845" lon="-72.60098266">
    <tag k="addr:city" v="Chester"/>
    <tag k="addr:housenumber" v="597"/>
    <tag k="addr:street" v="Church Street"/>
    <tag k="addr:state" v="VT"/>
    <tag k="ref:vcgi:esiteid" v="66387"/>
  </node>
  <node id="-672" visible="true" lat="43.27370071" lon="-72.60202789">
    <tag k="addr:city" v="Chester"/>
    <tag k="addr:housenumber" v="85"/>
    <tag k="addr:street" v="Marcs Drive"/>
    <tag k="addr:state" v="VT"/>
    <tag k="ref:vcgi:esiteid" v="66389"/>
  </node>
  <node id="-673" visible="true" lat="43.27363205" lon="-72.59082031">
    <tag k="addr:city" v="Chester"/>
    <tag k="addr:housenumber" v="113"/>
    <tag k="addr:street" v="North Street"/>
    <tag k="addr:state" v="VT"/>
    <tag k="ref:vcgi:esiteid" v="66391"/>
  </node>
  <node id="-675" visible="true" lat="43.27333831" lon="-72.59044647">
    <tag k="addr:city" v="Chester"/>
    <tag k="addr:housenumber" v="87"/>
    <tag k="addr:street" v="North Street"/>
    <tag k="addr:state" v="VT"/>
    <tag k="ref:vcgi:esiteid" v="66393"/>
  </node>
  <node id="-676" visible="true" lat="43.27319594" lon="-72.60014911">
    <tag k="addr:city" v="Chester"/>
    <tag k="addr:housenumber" v="554"/>
    <tag k="addr:street" v="Church Street"/>
    <tag k="addr:state" v="VT"/>
    <tag k="ref:vcgi:esiteid" v="66394"/>
  </node>
  <node id="-683" visible="true" lat="43.27283096" lon="-72.58982086">
    <tag k="addr:city" v="Chester"/>
    <tag k="addr:housenumber" v="39"/>
    <tag k="addr:street" v="North Street"/>
    <tag k="addr:state" v="VT"/>
    <tag k="ref:vcgi:esiteid" v="66402"/>
  </node>
  <node id="-684" visible="true" lat="43.27270826" lon="-72.60097869">
    <tag k="addr:city" v="Chester"/>
    <tag k="addr:housenumber" v="527"/>
    <tag k="addr:street" v="Church Street"/>
    <tag k="addr:state" v="VT"/>
    <tag k="ref:vcgi:esiteid" v="66403"/>
  </node>
  <node id="-687" visible="true" lat="43.27256774" lon="-72.58844757">
    <tag k="addr:city" v="Chester"/>
    <tag k="addr:housenumber" v="3314"/>
    <tag k="addr:street" v="Green Mountain Turnpike"/>
    <tag k="addr:state" v="VT"/>
    <tag k="ref:vcgi:esiteid" v="66407"/>
  </node>
  <node id="-689" visible="true" lat="43.2724533" lon="-72.58834075">
    <tag k="addr:city" v="Chester"/>
    <tag k="addr:housenumber" v="3306"/>
    <tag k="addr:street" v="Green Mountain Turnpike"/>
    <tag k="addr:state" v="VT"/>
    <tag k="ref:vcgi:esiteid" v="66409"/>
  </node>
  <node id="-692" visible="true" lat="43.27222442" lon="-72.58852386">
    <tag k="addr:city" v="Chester"/>
    <tag k="addr:housenumber" v="3301"/>
    <tag k="addr:street" v="Green Mountain Turnpike"/>
    <tag k="addr:state" v="VT"/>
    <tag k="ref:vcgi:esiteid" v="66412"/>
  </node>
  <node id="-695" visible="true" lat="43.27212524" lon="-72.5879364">
    <tag k="addr:city" v="Chester"/>
    <tag k="addr:housenumber" v="3276"/>
    <tag k="addr:street" v="Green Mountain Turnpike"/>
    <tag k="addr:state" v="VT"/>
    <tag k="ref:vcgi:esiteid" v="66415"/>
  </node>
  <node id="-698" visible="true" lat="43.27199172" lon="-72.58675384">
    <tag k="addr:city" v="Chester"/>
    <tag k="addr:housenumber" v="135"/>
    <tag k="addr:street" v="Flamstead Road"/>
    <tag k="addr:state" v="VT"/>
    <tag k="ref:vcgi:esiteid" v="66418"/>
  </node>
  <node id="-699" visible="true" lat="43.27198791" lon="-72.58782958">
    <tag k="addr:city" v="Chester"/>
    <tag k="addr:housenumber" v="3268"/>
    <tag k="addr:street" v="Green Mountain Turnpike"/>
    <tag k="addr:state" v="VT"/>
    <tag k="ref:vcgi:esiteid" v="66419"/>
  </node>
  <node id="-701" visible="true" lat="43.27192548" lon="-72.58597272">
    <tag k="addr:city" v="Chester"/>
    <tag k="addr:housenumber" v="21"/>
    <tag k="addr:street" v="Cummings Road"/>
    <tag k="addr:state" v="VT"/>
    <tag k="ref:vcgi:esiteid" v="66421"/>
  </node>
  <node id="-703" visible="true" lat="43.27177234" lon="-72.58758994">
    <tag k="addr:city" v="Chester"/>
    <tag k="addr:housenumber" v="3254"/>
    <tag k="addr:street" v="Green Mountain Turnpike"/>
    <tag k="addr:state" v="VT"/>
    <tag k="ref:vcgi:esiteid" v="66423"/>
  </node>
  <node id="-707" visible="true" lat="43.27161788" lon="-72.59954834">
    <tag k="addr:city" v="Chester"/>
    <tag k="addr:housenumber" v="454"/>
    <tag k="addr:street" v="Church Street"/>
    <tag k="addr:state" v="VT"/>
    <tag k="ref:vcgi:esiteid" v="66428"/>
  </node>
  <node id="-714" visible="true" lat="43.2712059" lon="-72.5872116">
    <tag k="addr:city" v="Chester"/>
    <tag k="addr:housenumber" v="3208"/>
    <tag k="addr:street" v="Green Mountain Turnpike"/>
    <tag k="addr:state" v="VT"/>
    <tag k="ref:vcgi:esiteid" v="66435"/>
  </node>
  <node id="-721" visible="true" lat="43.27063751" lon="-72.60186767">
    <tag k="addr:city" v="Chester"/>
    <tag k="addr:housenumber" v="349"/>
    <tag k="addr:street" v="Church Street"/>
    <tag k="addr:state" v="VT"/>
    <tag k="ref:vcgi:esiteid" v="66443"/>
  </node>
  <node id="-731" visible="true" lat="43.27011108" lon="-72.60080719">
    <tag k="addr:city" v="Chester"/>
    <tag k="addr:housenumber" v="340"/>
    <tag k="addr:street" v="Church Street"/>
    <tag k="addr:state" v="VT"/>
    <tag k="ref:vcgi:esiteid" v="66454"/>
  </node>
  <node id="-735" visible="true" lat="43.27008438" lon="-72.58916473">
    <tag k="addr:city" v="Chester"/>
    <tag k="addr:housenumber" v="716"/>
    <tag k="addr:street" v="Depot Street"/>
    <tag k="addr:state" v="VT"/>
    <tag k="ref:vcgi:esiteid" v="66458"/>
  </node>
  <node id="-740" visible="true" lat="43.26989746" lon="-72.60134887">
    <tag k="addr:city" v="Chester"/>
    <tag k="addr:housenumber" v="308"/>
    <tag k="addr:street" v="Church Street"/>
    <tag k="addr:state" v="VT"/>
    <tag k="ref:vcgi:esiteid" v="66464"/>
  </node>
  <node id="-741" visible="true" lat="43.26985931" lon="-72.59958648">
    <tag k="addr:city" v="Chester"/>
    <tag k="addr:housenumber" v="204"/>
    <tag k="addr:street" v="Church Street"/>
    <tag k="addr:state" v="VT"/>
    <tag k="ref:vcgi:esiteid" v="66465"/>
  </node>
  <node id="-743" visible="true" lat="43.26977539" lon="-72.60177612">
    <tag k="addr:city" v="Chester"/>
    <tag k="addr:housenumber" v="303"/>
    <tag k="addr:street" v="Church Street"/>
    <tag k="addr:state" v="VT"/>
    <tag k="ref:vcgi:esiteid" v="66467"/>
  </node>
  <node id="-746" visible="true" lat="43.26956939" lon="-72.60120391">
    <tag k="addr:city" v="Chester"/>
    <tag k="addr:housenumber" v="278"/>
    <tag k="addr:street" v="Church Street"/>
    <tag k="addr:state" v="VT"/>
    <tag k="ref:vcgi:esiteid" v="66470"/>
  </node>
  <node id="-758" visible="true" lat="43.26921844" lon="-72.6016159">
    <tag k="addr:city" v="Chester"/>
    <tag k="addr:housenumber" v="265"/>
    <tag k="addr:street" v="Church Street"/>
    <tag k="addr:state" v="VT"/>
    <tag k="ref:vcgi:esiteid" v="66484"/>
  </node>
  <node id="-770" visible="true" lat="43.26876068" lon="-72.60311889">
    <tag k="addr:city" v="Chester"/>
    <tag k="addr:housenumber" v="104"/>
    <tag k="addr:street" v="Meadow Road"/>
    <tag k="addr:state" v="VT"/>
    <tag k="ref:vcgi:esiteid" v="66496"/>
  </node>
  <node id="-774" visible="true" lat="43.26870346" lon="-72.60081481">
    <tag k="addr:city" v="Chester"/>
    <tag k="addr:housenumber" v="222"/>
    <tag k="addr:street" v="Church Street"/>
    <tag k="addr:state" v="VT"/>
    <tag k="ref:vcgi:esiteid" v="66501"/>
  </node>
  <node id="-778" visible="true" lat="43.26850509" lon="-72.60250854">
    <tag k="addr:city" v="Chester"/>
    <tag k="addr:housenumber" v="70"/>
    <tag k="addr:street" v="Meadow Road"/>
    <tag k="addr:state" v="VT"/>
    <tag k="ref:vcgi:esiteid" v="66506"/>
  </node>
  <node id="-782" visible="true" lat="43.26835632" lon="-72.60324859">
    <tag k="addr:city" v="Chester"/>
    <tag k="addr:housenumber" v="101"/>
    <tag k="addr:street" v="Meadow Road"/>
    <tag k="addr:state" v="VT"/>
    <tag k="ref:vcgi:esiteid" v="66510"/>
  </node>
  <node id="-783" visible="true" lat="43.26829147" lon="-72.60218048">
    <tag k="addr:city" v="Chester"/>
    <tag k="addr:housenumber" v="50"/>
    <tag k="addr:street" v="Meadow Road"/>
    <tag k="addr:state" v="VT"/>
    <tag k="ref:vcgi:esiteid" v="66511"/>
  </node>
  <node id="-785" visible="true" lat="43.26826858" lon="-72.60137176">
    <tag k="addr:city" v="Chester"/>
    <tag k="addr:housenumber" v="187"/>
    <tag k="addr:street" v="Church Street"/>
    <tag k="addr:state" v="VT"/>
    <tag k="ref:vcgi:esiteid" v="66514"/>
  </node>
  <node id="-786" visible="true" lat="43.26826477" lon="-72.60277557">
    <tag k="addr:city" v="Chester"/>
    <tag k="addr:housenumber" v="77"/>
    <tag k="addr:street" v="Meadow Road"/>
    <tag k="addr:state" v="VT"/>
    <tag k="ref:vcgi:esiteid" v="66515"/>
  </node>
  <node id="-794" visible="true" lat="43.26798248" lon="-72.60233306">
    <tag k="addr:city" v="Chester"/>
    <tag k="addr:housenumber" v="17"/>
    <tag k="addr:street" v="Orcutt Drive"/>
    <tag k="addr:state" v="VT"/>
    <tag k="ref:vcgi:esiteid" v="66526"/>
  </node>
  <node id="-795" visible="true" lat="43.26797485" lon="-72.60279083">
    <tag k="addr:city" v="Chester"/>
    <tag k="addr:housenumber" v="30"/>
    <tag k="addr:street" v="Orcutt Drive"/>
    <tag k="addr:state" v="VT"/>
    <tag k="ref:vcgi:esiteid" v="66527"/>
  </node>
  <node id="-796" visible="true" lat="43.26796722" lon="-72.60162353">
    <tag k="addr:city" v="Chester"/>
    <tag k="addr:housenumber" v="15"/>
    <tag k="addr:street" v="Meadow Road"/>
    <tag k="addr:state" v="VT"/>
    <tag k="ref:vcgi:esiteid" v="66528"/>
  </node>
  <node id="-797" visible="true" lat="43.26795196" lon="-72.60320282">
    <tag k="addr:city" v="Chester"/>
    <tag k="addr:housenumber" v="58"/>
    <tag k="addr:street" v="Orcutt Drive"/>
    <tag k="addr:state" v="VT"/>
    <tag k="ref:vcgi:esiteid" v="66529"/>
  </node>
  <node id="-802" visible="true" lat="43.26779937" lon="-72.60105133">
    <tag k="addr:city" v="Chester"/>
    <tag k="addr:housenumber" v="160"/>
    <tag k="addr:street" v="Church Street"/>
    <tag k="addr:state" v="VT"/>
    <tag k="ref:vcgi:esiteid" v="66535"/>
  </node>
  <node id="-815" visible="true" lat="43.26740646" lon="-72.60178375">
    <tag k="addr:city" v="Chester"/>
    <tag k="addr:housenumber" v="125"/>
    <tag k="addr:street" v="Church Street"/>
    <tag k="addr:state" v="VT"/>
    <tag k="ref:vcgi:esiteid" v="66548"/>
  </node>
  <node id="-817" visible="true" lat="43.26732635" lon="-72.60119629">
    <tag k="addr:city" v="Chester"/>
    <tag k="addr:housenumber" v="126"/>
    <tag k="addr:street" v="Church Street"/>
    <tag k="addr:state" v="VT"/>
    <tag k="ref:vcgi:esiteid" v="66551"/>
  </node>
  <node id="-820" visible="true" lat="43.26726531" lon="-72.59005737">
    <tag k="addr:city" v="Chester"/>
    <tag k="addr:housenumber" v="517"/>
    <tag k="addr:street" v="Depot Street"/>
    <tag k="addr:state" v="VT"/>
    <tag k="ref:vcgi:esiteid" v="66555"/>
  </node>
  <node id="-834" visible="true" lat="43.26692044" lon="-72.60058144">
    <tag k="addr:city" v="Chester"/>
    <tag k="addr:housenumber" v="110"/>
    <tag k="addr:street" v="Senior Circle"/>
    <tag k="addr:state" v="VT"/>
    <tag k="ref:vcgi:esiteid" v="66570"/>
  </node>
  <node id="-846" visible="true" lat="43.26661353" lon="-72.60097517">
    <tag k="addr:city" v="Chester"/>
    <tag k="addr:housenumber" v="134"/>
    <tag k="addr:street" v="Senior Circle"/>
    <tag k="addr:state" v="VT"/>
    <tag k="ref:vcgi:esiteid" v="66583"/>
  </node>
  <node id="-861" visible="true" lat="43.26635125" lon="-72.60068956">
    <tag k="addr:city" v="Chester"/>
    <tag k="addr:housenumber" v="75"/>
    <tag k="addr:street" v="Senior Circle"/>
    <tag k="addr:state" v="VT"/>
    <tag k="ref:vcgi:esiteid" v="66600"/>
  </node>
  <node id="-913" visible="true" lat="43.26501805" lon="-72.59950923">
    <tag k="addr:city" v="Chester"/>
    <tag k="addr:housenumber" v="266"/>
    <tag k="addr:street" v="Main Street"/>
    <tag k="addr:state" v="VT"/>
    <tag k="ref:vcgi:esiteid" v="66660"/>
  </node>
  <node id="-927" visible="true" lat="43.26472111" lon="-72.60059164">
    <!-- match: "313 Main Street, Chester, VT"  ignoring missing state when matching to "313 Main Street, Chester, " -->
    <tag k="addr:city" v="Chester"/>
    <tag k="addr:housenumber" v="313"/>
    <tag k="addr:street" v="Main Street"/>
    <tag k="addr:state" v="VT"/>
    <tag k="ref:vcgi:esiteid" v="66676"/>
  </node>
  <node id="-936" visible="true" lat="43.26470962" lon="-72.59548566">
    <tag k="addr:city" v="Chester"/>
    <tag k="addr:housenumber" v="72"/>
    <tag k="addr:street" v="Main Street"/>
    <tag k="addr:state" v="VT"/>
    <tag k="ref:vcgi:esiteid" v="66686"/>
  </node>
  <node id="-946" visible="true" lat="43.2644193" lon="-72.59762057">
    <!-- match: "162 Main Street, Chester, VT"  ignoring missing state when matching to "162 Main Street, Chester, " -->
    <tag k="addr:city" v="Chester"/>
    <tag k="addr:housenumber" v="162"/>
    <tag k="addr:street" v="Main Street"/>
    <tag k="addr:state" v="VT"/>
    <tag k="ref:vcgi:esiteid" v="66698"/>
  </node>
  <node id="-978" visible="true" lat="43.26364232" lon="-72.59725573">
    <tag k="addr:city" v="Chester"/>
    <tag k="addr:housenumber" v="117"/>
    <tag k="addr:street" v="Main Street"/>
    <tag k="addr:state" v="VT"/>
    <tag k="ref:vcgi:esiteid" v="66734"/>
  </node>
  <node id="-997" visible="true" lat="43.26328277" lon="-72.59370422">
    <tag k="addr:city" v="Chester"/>
    <tag k="addr:housenumber" v="63"/>
    <tag k="addr:street" v="Depot Street"/>
    <tag k="addr:state" v="VT"/>
    <tag k="ref:vcgi:esiteid" v="66755"/>
  </node>
  <node id="-999" visible="true" lat="43.26325418" lon="-72.59425595">
    <tag k="addr:city" v="Chester"/>
    <tag k="addr:housenumber" v="35"/>
    <tag k="addr:street" v="Depot Street"/>
    <tag k="addr:state" v="VT"/>
    <tag k="ref:vcgi:esiteid" v="66757"/>
  </node>
  <node id="-1013" visible="true" lat="43.26287841" lon="-72.59416198">
    <tag k="addr:city" v="Chester"/>
    <tag k="addr:housenumber" v="39"/>
    <tag k="addr:street" v="South Main Street"/>
    <tag k="addr:state" v="VT"/>
    <tag k="ref:vcgi:esiteid" v="66775"/>
  </node>
  <node id="-1018" visible="true" lat="43.26280212" lon="-72.59320068">
    <tag k="addr:city" v="Chester"/>
    <tag k="addr:housenumber" v="90"/>
    <tag k="addr:street" v="Depot Street"/>
    <tag k="addr:state" v="VT"/>
    <tag k="ref:vcgi:esiteid" v="66780"/>
  </node>
  <node id="-1020" visible="true" lat="43.2627716" lon="-72.59490966">
    <tag k="addr:city" v="Chester"/>
    <tag k="addr:housenumber" v="4"/>
    <tag k="addr:street" v="South Main Street"/>
    <tag k="addr:state" v="VT"/>
    <tag k="ref:vcgi:esiteid" v="66782"/>
  </node>
  <node id="-1022" visible="true" lat="43.26272583" lon="-72.59478759">
    <tag k="addr:city" v="Chester"/>
    <tag k="addr:housenumber" v="18"/>
    <tag k="addr:street" v="South Main Street"/>
    <tag k="addr:state" v="VT"/>
    <tag k="ref:vcgi:esiteid" v="66784"/>
  </node>
  <node id="-1025" visible="true" lat="43.26273868" lon="-72.59388309">
    <tag k="addr:city" v="Chester"/>
    <tag k="addr:housenumber" v="57"/>
    <tag k="addr:street" v="South Main Street"/>
    <tag k="addr:state" v="VT"/>
    <tag k="ref:vcgi:esiteid" v="66787"/>
  </node>
  <node id="-1026" visible="true" lat="43.26265335" lon="-72.59214782">
    <tag k="addr:city" v="Chester"/>
    <tag k="addr:housenumber" v="73"/>
    <tag k="addr:street" v="Maple Street"/>
    <tag k="addr:state" v="VT"/>
    <tag k="ref:vcgi:esiteid" v="66788"/>
  </node>
  <node id="-1031" visible="true" lat="43.26260757" lon="-72.59457397">
    <tag k="addr:city" v="Chester"/>
    <tag k="addr:housenumber" v="32"/>
    <tag k="addr:street" v="South Main Street"/>
    <tag k="addr:state" v="VT"/>
    <tag k="ref:vcgi:esiteid" v="66793"/>
  </node>
  <node id="-1034" visible="true" lat="43.26255844" lon="-72.59345979">
    <tag k="addr:city" v="Chester"/>
    <tag k="addr:housenumber" v="79"/>
    <tag k="addr:street" v="South Main Street"/>
    <tag k="addr:state" v="VT"/>
    <tag k="ref:vcgi:esiteid" v="66796"/>
  </node>
  <node id="-1038" visible="true" lat="43.26244735" lon="-72.59427642">
    <tag k="addr:city" v="Chester"/>
    <tag k="addr:housenumber" v="52"/>
    <tag k="addr:street" v="South Main Street"/>
    <tag k="addr:state" v="VT"/>
    <tag k="ref:vcgi:esiteid" v="66803"/>
  </node>
  <node id="-1039" visible="true" lat="43.26248265" lon="-72.59497099">
    <tag k="addr:city" v="Chester"/>
    <tag k="addr:housenumber" v="39"/>
    <tag k="addr:street" v="Grafton Road"/>
    <tag k="addr:state" v="VT"/>
    <tag k="ref:vcgi:esiteid" v="66804"/>
  </node>
  <node id="-1041" visible="true" lat="43.26237869" lon="-72.59544372">
    <tag k="addr:city" v="Chester"/>
    <tag k="addr:housenumber" v="50"/>
    <tag k="addr:street" v="Grafton Road"/>
    <tag k="addr:state" v="VT"/>
    <tag k="ref:vcgi:esiteid" v="66806"/>
  </node>
  <node id="-1045" visible="true" lat="43.26229884" lon="-72.5932559">
    <tag k="addr:city" v="Chester"/>
    <tag k="addr:housenumber" v="23"/>
    <tag k="addr:street" v="Maple Street"/>
    <tag k="addr:state" v="VT"/>
    <tag k="ref:vcgi:esiteid" v="66810"/>
  </node>
  <node id="-1048" visible="true" lat="43.26229199" lon="-72.5949953">
    <tag k="addr:city" v="Chester"/>
    <tag k="addr:housenumber" v="55"/>
    <tag k="addr:street" v="Grafton Road"/>
    <tag k="addr:state" v="VT"/>
    <tag k="ref:vcgi:esiteid" v="66813"/>
  </node>
  <node id="-1049" visible="true" lat="43.26220109" lon="-72.59391568">
    <tag k="addr:city" v="Chester"/>
    <tag k="addr:housenumber" v="76"/>
    <tag k="addr:street" v="South Main Street"/>
    <tag k="addr:state" v="VT"/>
    <tag k="ref:vcgi:esiteid" v="66814"/>
  </node>
  <node id="-1050" visible="true" lat="43.26224899" lon="-72.59205627">
    <tag k="addr:city" v="Chester"/>
    <tag k="addr:housenumber" v="64"/>
    <tag k="addr:street" v="Maple Street"/>
    <tag k="addr:state" v="VT"/>
    <tag k="ref:vcgi:esiteid" v="66815"/>
  </node>
  <node id="-1059" visible="true" lat="43.26212355" lon="-72.59549382">
    <tag k="addr:city" v="Chester"/>
    <tag k="addr:housenumber" v="76"/>
    <tag k="addr:street" v="Grafton Road"/>
    <tag k="addr:state" v="VT"/>
    <tag k="ref:vcgi:esiteid" v="66824"/>
  </node>
  <node id="-1061" visible="true" lat="43.26198997" lon="-72.59508952">
    <tag k="addr:city" v="Chester"/>
    <tag k="addr:housenumber" v="73"/>
    <tag k="addr:street" v="Grafton Road"/>
    <tag k="addr:state" v="VT"/>
    <tag k="ref:vcgi:esiteid" v="66826"/>
  </node>
  <node id="-1071" visible="true" lat="43.26179252" lon="-72.59569864">
    <tag k="addr:city" v="Chester"/>
    <tag k="addr:housenumber" v="96"/>
    <tag k="addr:street" v="Grafton Road"/>
    <tag k="addr:state" v="VT"/>
    <tag k="ref:vcgi:esiteid" v="66838"/>
  </node>
  <node id="-1072" visible="true" lat="43.26185598" lon="-72.59261947">
    <tag k="addr:city" v="Chester"/>
    <tag k="addr:housenumber" v="145"/>
    <tag k="addr:street" v="South Main Street"/>
    <tag k="addr:state" v="VT"/>
    <tag k="ref:vcgi:esiteid" v="66839"/>
  </node>
  <node id="-1076" visible="true" lat="43.26175016" lon="-72.59522546">
    <tag k="addr:city" v="Chester"/>
    <tag k="addr:housenumber" v="95"/>
    <tag k="addr:street" v="Grafton Road"/>
    <tag k="addr:state" v="VT"/>
    <tag k="ref:vcgi:esiteid" v="66843"/>
  </node>
  <node id="-1081" visible="true" lat="43.26154814" lon="-72.59527972">
    <tag k="addr:city" v="Chester"/>
    <tag k="addr:housenumber" v="109"/>
    <tag k="addr:street" v="Grafton Road"/>
    <tag k="addr:state" v="VT"/>
    <tag k="ref:vcgi:esiteid" v="66848"/>
  </node>
  <node id="-1084" visible="true" lat="43.26141323" lon="-72.59586149">
    <tag k="addr:city" v="Chester"/>
    <tag k="addr:housenumber" v="124"/>
    <tag k="addr:street" v="Grafton Road"/>
    <tag k="addr:state" v="VT"/>
    <tag k="ref:vcgi:esiteid" v="66851"/>
  </node>
  <node id="-1087" visible="true" lat="43.26124529" lon="-72.59340123">
    <tag k="addr:city" v="Chester"/>
    <tag k="addr:housenumber" v="148"/>
    <tag k="addr:street" v="South Main Street"/>
    <tag k="addr:state" v="VT"/>
    <tag k="ref:vcgi:esiteid" v="66854"/>
  </node>
  <node id="-1091" visible="true" lat="43.26117812" lon="-72.59591536">
    <tag k="addr:city" v="Chester"/>
    <tag k="addr:housenumber" v="140"/>
    <tag k="addr:street" v="Grafton Road"/>
    <tag k="addr:state" v="VT"/>
    <tag k="ref:vcgi:esiteid" v="66858"/>
  </node>
  <node id="-1092" visible="true" lat="43.26115708" lon="-72.59541984">
    <tag k="addr:city" v="Chester"/>
    <tag k="addr:housenumber" v="135"/>
    <tag k="addr:street" v="Grafton Road"/>
    <tag k="addr:state" v="VT"/>
    <tag k="ref:vcgi:esiteid" v="66859"/>
  </node>
  <node id="-1093" visible="true" lat="43.2610878" lon="-72.59693614">
    <tag k="addr:city" v="Chester"/>
    <tag k="addr:housenumber" v="64"/>
    <tag k="addr:street" v="Scullin Street"/>
    <tag k="addr:state" v="VT"/>
    <tag k="ref:vcgi:esiteid" v="66860"/>
  </node>
  <node id="-1095" visible="true" lat="43.26098098" lon="-72.59541394">
    <tag k="addr:city" v="Chester"/>
    <tag k="addr:housenumber" v="147"/>
    <tag k="addr:street" v="Grafton Road"/>
    <tag k="addr:state" v="VT"/>
    <tag k="ref:vcgi:esiteid" v="66862"/>
  </node>
  <node id="-1099" visible="true" lat="43.26087693" lon="-72.59554586">
    <tag k="addr:city" v="Chester"/>
    <tag k="addr:housenumber" v="157"/>
    <tag k="addr:street" v="Grafton Road"/>
    <tag k="addr:state" v="VT"/>
    <tag k="ref:vcgi:esiteid" v="66867"/>
  </node>
  <node id="-1415" visible="true" lat="43.33403015" lon="-72.65554046">
    <tag k="addr:city" v="Chester"/>
    <tag k="addr:housenumber" v="354"/>
    <tag k="addr:street" v="Miner Road"/>
    <tag k="addr:state" v="VT"/>
    <tag k="ref:vcgi:esiteid" v="67204"/>
  </node>
  <node id="-1416" visible="true" lat="43.34713363" lon="-72.63597869">
    <tag k="addr:city" v="Chester"/>
    <tag k="addr:housenumber" v="692"/>
    <tag k="addr:street" v="Smokeshire Road"/>
    <tag k="addr:state" v="VT"/>
    <tag k="ref:vcgi:esiteid" v="67205"/>
  </node>
  <node id="-1460" visible="true" lat="43.27889633" lon="-72.59757232">
    <tag k="addr:city" v="Chester"/>
    <tag k="addr:housenumber" v="37"/>
    <tag k="addr:street" v="Wright Farm Road"/>
    <tag k="addr:state" v="VT"/>
    <tag k="ref:vcgi:esiteid" v="67253"/>
  </node>
  <node id="-1508" visible="true" lat="43.33429718" lon="-72.65597534">
    <tag k="addr:city" v="Chester"/>
    <tag k="addr:housenumber" v="334"/>
    <tag k="addr:street" v="Miner Road"/>
    <tag k="addr:state" v="VT"/>
    <tag k="ref:vcgi:esiteid" v="67303"/>
  </node>
  <node id="-1509" visible="true" lat="43.34505081" lon="-72.62386322">
    <tag k="addr:city" v="Chester"/>
    <tag k="addr:housenumber" v="5211"/>
    <tag k="addr:street" v="Vermont Route 103 North"/>
    <tag k="addr:state" v="VT"/>
    <tag k="ref:vcgi:esiteid" v="67304"/>
  </node>
  <node id="-1568" visible="true" lat="43.26248168" lon="-72.59272766">
    <tag k="addr:city" v="Chester"/>
    <tag k="addr:housenumber" v="42"/>
    <tag k="addr:street" v="Maple Street"/>
    <tag k="addr:state" v="VT"/>
    <tag k="ref:vcgi:esiteid" v="67366"/>
  </node>
  <node id="-1573" visible="true" lat="43.27764964" lon="-72.59689432">
    <tag k="addr:city" v="Chester"/>
    <tag k="addr:housenumber" v="520"/>
    <tag k="addr:street" v="North Street"/>
    <tag k="addr:state" v="VT"/>
    <tag k="ref:vcgi:esiteid" v="67371"/>
  </node>
  <node id="-1574" visible="true" lat="43.27569824" lon="-72.59745251">
    <tag k="addr:city" v="Chester"/>
    <tag k="addr:housenumber" v="828"/>
    <tag k="addr:street" v="Church Street"/>
    <tag k="addr:state" v="VT"/>
    <tag k="ref:vcgi:esiteid" v="67372"/>
  </node>
  <node id="-1588" visible="true" lat="43.33273696" lon="-72.64630893">
    <tag k="addr:city" v="Chester"/>
    <tag k="addr:housenumber" v="7"/>
    <tag k="addr:street" v="Chase Brook Road"/>
    <tag k="addr:state" v="VT"/>
    <tag k="ref:vcgi:esiteid" v="67387"/>
  </node>
  <node id="-1589" visible="true" lat="43.33925023" lon="-72.6232803">
    <tag k="addr:city" v="Chester"/>
    <tag k="addr:housenumber" v="88"/>
    <tag k="addr:street" v="Sugarbush Road"/>
    <tag k="addr:state" v="VT"/>
    <tag k="ref:vcgi:esiteid" v="67388"/>
  </node>
  <node id="-1630" visible="true" lat="43.27139134" lon="-72.5862627">
    <tag k="addr:city" v="Chester"/>
    <tag k="addr:housenumber" v="14"/>
    <tag k="addr:street" v="Cummings Road"/>
    <tag k="addr:state" v="VT"/>
    <tag k="ref:vcgi:esiteid" v="67431"/>
  </node>
  <node id="-1636" visible="true" lat="43.34194509" lon="-72.61977261">
    <tag k="addr:city" v="Chester"/>
    <tag k="addr:housenumber" v="4878"/>
    <tag k="addr:street" v="Vermont Route 103 North"/>
    <tag k="addr:state" v="VT"/>
    <tag k="ref:vcgi:esiteid" v="67437"/>
  </node>
  <node id="-1638" visible="true" lat="43.34485233" lon="-72.54713968">
    <tag k="addr:city" v="Chester"/>
    <tag k="addr:housenumber" v="190"/>
    <tag k="addr:street" v="Baltimore Road"/>
    <tag k="addr:state" v="VT"/>
    <tag k="ref:vcgi:esiteid" v="67439"/>
  </node>
  <node id="-1639" visible="true" lat="43.32773804" lon="-72.65537605">
    <tag k="addr:city" v="Chester"/>
    <tag k="addr:housenumber" v="723"/>
    <tag k="addr:street" v="Chase Brook Road"/>
    <tag k="addr:state" v="VT"/>
    <tag k="ref:vcgi:esiteid" v="67440"/>
  </node>
  <node id="-1656" visible="true" lat="43.26327292" lon="-72.59464071">
    <tag k="addr:city" v="Chester"/>
    <tag k="addr:housenumber" v="15"/>
    <tag k="addr:street" v="Depot Street"/>
    <tag k="addr:state" v="VT"/>
    <tag k="ref:vcgi:esiteid" v="67457"/>
  </node>
  <node id="-1658" visible="true" lat="43.27117604" lon="-72.5978387">
    <tag k="addr:city" v="Chester"/>
    <tag k="addr:housenumber" v="135"/>
    <tag k="addr:street" v="Stone Hedge Lane"/>
    <tag k="addr:state" v="VT"/>
    <tag k="ref:vcgi:esiteid" v="67459"/>
  </node>
  <node id="-1659" visible="true" lat="43.27215107" lon="-72.59886217">
    <tag k="addr:city" v="Chester"/>
    <tag k="addr:housenumber" v="101"/>
    <tag k="addr:street" v="Stone Hedge Lane"/>
    <tag k="addr:state" v="VT"/>
    <tag k="ref:vcgi:esiteid" v="67460"/>
  </node>
  <node id="-1694" visible="true" lat="43.28040074" lon="-72.60016388">
    <tag k="addr:city" v="Chester"/>
    <tag k="addr:housenumber" v="259"/>
    <tag k="addr:street" v="Vermont Route 103 North"/>
    <tag k="addr:state" v="VT"/>
    <tag k="ref:vcgi:esiteid" v="67498"/>
  </node>
  <node id="-1709" visible="true" lat="43.34540962" lon="-72.63930947">
    <tag k="addr:city" v="Chester"/>
    <tag k="addr:housenumber" v="955"/>
    <tag k="addr:street" v="Smokeshire Road"/>
    <tag k="addr:state" v="VT"/>
    <tag k="ref:vcgi:esiteid" v="67513"/>
  </node>
  <node id="-1716" visible="true" lat="43.28241147" lon="-72.59951919">
    <tag k="addr:city" v="Chester"/>
    <tag k="addr:housenumber" v="61"/>
    <tag k="addr:street" v="Trebo Road"/>
    <tag k="addr:state" v="VT"/>
    <tag k="ref:vcgi:esiteid" v="67521"/>
  </node>
  <node id="-1727" visible="true" lat="43.33724441" lon="-72.62156237">
    <tag k="addr:city" v="Chester"/>
    <tag k="addr:housenumber" v="341"/>
    <tag k="addr:street" v="Whitmore Brook Road"/>
    <tag k="addr:state" v="VT"/>
    <tag k="ref:vcgi:esiteid" v="67532"/>
  </node>
  <node id="-1744" visible="true" lat="43.27109427" lon="-72.59904983">
    <tag k="addr:city" v="Chester"/>
    <tag k="addr:housenumber" v="424"/>
    <tag k="addr:street" v="Church Street"/>
    <tag k="addr:state" v="VT"/>
    <tag k="ref:vcgi:esiteid" v="67553"/>
  </node>
  <node id="-1782" visible="true" lat="43.3462738" lon="-72.63046142">
    <tag k="addr:city" v="Chester"/>
    <tag k="addr:housenumber" v="230"/>
    <tag k="addr:street" v="Smokeshire Road"/>
    <tag k="addr:state" v="VT"/>
    <tag k="ref:vcgi:esiteid" v="327120"/>
  </node>
  <node id="-1800" visible="true" lat="43.27854816" lon="-72.59879953">
    <tag k="addr:city" v="Chester"/>
    <tag k="addr:housenumber" v="87"/>
    <tag k="addr:street" v="Vermont Route 103 North"/>
    <tag k="addr:state" v="VT"/>
    <tag k="ref:vcgi:esiteid" v="331182"/>
  </node>
  <node id="-1815" visible="true" lat="43.28121832" lon="-72.59840861">
    <tag k="addr:city" v="Chester"/>
    <tag k="addr:housenumber" v="52"/>
    <tag k="addr:street" v="Trebo Road"/>
    <tag k="addr:state" v="VT"/>
    <tag k="ref:vcgi:esiteid" v="337692"/>
  </node>
  <node id="-1837" visible="true" lat="43.34565597" lon="-72.64008608">
    <tag k="addr:city" v="Chester"/>
    <tag k="addr:housenumber" v="957"/>
    <tag k="addr:street" v="Smokeshire Road"/>
    <tag k="addr:state" v="VT"/>
    <tag k="ref:vcgi:esiteid" v="343564"/>
  </node>
  <node id="-1838" visible="true" lat="43.33613299" lon="-72.65713877">
    <tag k="addr:city" v="Chester"/>
    <tag k="addr:housenumber" v="246"/>
    <tag k="addr:street" v="Miner Road"/>
    <tag k="addr:state" v="VT"/>
    <tag k="ref:vcgi:esiteid" v="343565"/>
  </node>
  <node id="-1840" visible="true" lat="43.34328936" lon="-72.54604955">
    <tag k="addr:city" v="Chester"/>
    <tag k="addr:housenumber" v="170"/>
    <tag k="addr:street" v="Baltimore Road"/>
    <tag k="addr:state" v="VT"/>
    <tag k="ref:vcgi:esiteid" v="344430"/>
  </node>
  <node id="-1841" visible="true" lat="43.32920559" lon="-72.65902899">
    <tag k="addr:city" v="Chester"/>
    <tag k="addr:housenumber" v="271"/>
    <tag k="addr:street" v="Pleines Road"/>
    <tag k="addr:state" v="VT"/>
    <tag k="ref:vcgi:esiteid" v="345202"/>
  </node>
  <node id="-1895" visible="true" lat="43.27722317" lon="-72.59646263">
    <tag k="addr:city" v="Chester"/>
    <tag k="addr:housenumber" v="510"/>
    <tag k="addr:street" v="North Street"/>
    <tag k="addr:state" v="VT"/>
    <tag k="ref:vcgi:esiteid" v="610778"/>
  </node>
  <node id="-1973" visible="true" lat="43.27678452" lon="-72.59522636">
    <tag k="addr:city" v="Chester"/>
    <tag k="addr:housenumber" v="458"/>
    <tag k="addr:street" v="North Street"/>
    <tag k="addr:state" v="VT"/>
    <tag k="ref:vcgi:esiteid" v="760684"/>
  </node>
</osm>
