<?xml version="1.0" encoding="UTF-8"?>
<osm version="0.6" generator="JOSM">
  <node id="-105" visible="true" lat="43.57299469" lon="-72.96907335">
    <tag k="addr:city" v="Clarendon"/>
    <tag k="addr:housenumber" v="4162"/>
    <tag k="addr:street" v="Middle Road"/>
    <tag k="addr:state" v="VT"/>
    <tag k="ref:vcgi:esiteid" v="68210"/>
  </node>
  <node id="-106" visible="true" lat="43.57259368" lon="-72.96964263">
    <tag k="addr:city" v="Clarendon"/>
    <tag k="addr:housenumber" v="4120"/>
    <tag k="addr:street" v="Middle Road"/>
    <tag k="addr:state" v="VT"/>
    <tag k="ref:vcgi:esiteid" v="68211"/>
  </node>
  <node id="-108" visible="true" lat="43.57221775" lon="-72.96963607">
    <tag k="addr:city" v="Clarendon"/>
    <tag k="addr:housenumber" v="4094"/>
    <tag k="addr:street" v="Middle Road"/>
    <tag k="addr:state" v="VT"/>
    <tag k="ref:vcgi:esiteid" v="68213"/>
  </node>
  <node id="-110" visible="true" lat="43.57186113" lon="-72.96999984">
    <tag k="addr:city" v="Clarendon"/>
    <tag k="addr:housenumber" v="4056"/>
    <tag k="addr:street" v="Middle Road"/>
    <tag k="addr:state" v="VT"/>
    <tag k="ref:vcgi:esiteid" v="68215"/>
  </node>
  <node id="-114" visible="true" lat="43.57142869" lon="-72.97040556">
    <tag k="addr:city" v="Clarendon"/>
    <tag k="addr:housenumber" v="4020"/>
    <tag k="addr:street" v="Middle Road"/>
    <tag k="addr:state" v="VT"/>
    <tag k="ref:vcgi:esiteid" v="68219"/>
  </node>
  <node id="-115" visible="true" lat="43.57093867" lon="-72.97047937">
    <tag k="addr:city" v="Clarendon"/>
    <tag k="addr:housenumber" v="3996"/>
    <tag k="addr:street" v="Middle Road"/>
    <tag k="addr:state" v="VT"/>
    <tag k="ref:vcgi:esiteid" v="68220"/>
  </node>
  <node id="-118" visible="true" lat="43.57066783" lon="-72.97037971">
    <tag k="addr:city" v="Clarendon"/>
    <tag k="addr:housenumber" v="3990"/>
    <tag k="addr:street" v="Middle Road"/>
    <tag k="addr:state" v="VT"/>
    <tag k="ref:vcgi:esiteid" v="68223"/>
  </node>
  <node id="-119" visible="true" lat="43.57076644" lon="-72.97080993">
    <tag k="addr:city" v="Clarendon"/>
    <tag k="addr:housenumber" v="3980"/>
    <tag k="addr:street" v="Middle Road"/>
    <tag k="addr:state" v="VT"/>
    <tag k="ref:vcgi:esiteid" v="68224"/>
  </node>
  <node id="-124" visible="true" lat="43.57037353" lon="-72.97122192">
    <tag k="addr:city" v="Clarendon"/>
    <tag k="addr:housenumber" v="3946"/>
    <tag k="addr:street" v="Middle Road"/>
    <tag k="addr:state" v="VT"/>
    <tag k="ref:vcgi:esiteid" v="68229"/>
  </node>
  <node id="-151" visible="true" lat="43.56865692" lon="-72.97225952">
    <tag k="addr:city" v="Clarendon"/>
    <tag k="addr:housenumber" v="3817"/>
    <tag k="addr:street" v="Middle Road"/>
    <tag k="addr:state" v="VT"/>
    <tag k="ref:vcgi:esiteid" v="68256"/>
  </node>
  <node id="-183" visible="true" lat="43.56743621" lon="-72.97214508">
    <tag k="addr:city" v="Clarendon"/>
    <tag k="addr:housenumber" v="3734"/>
    <tag k="addr:street" v="Middle Road"/>
    <tag k="addr:state" v="VT"/>
    <tag k="ref:vcgi:esiteid" v="68291"/>
  </node>
  <node id="-199" visible="true" lat="43.56672459" lon="-72.97201872">
    <tag k="addr:city" v="Clarendon"/>
    <tag k="addr:housenumber" v="3684"/>
    <tag k="addr:street" v="Middle Road"/>
    <tag k="addr:state" v="VT"/>
    <tag k="ref:vcgi:esiteid" v="68307"/>
  </node>
  <node id="-211" visible="true" lat="43.56641294" lon="-72.97208715">
    <tag k="addr:city" v="Clarendon"/>
    <tag k="addr:housenumber" v="3658"/>
    <tag k="addr:street" v="Middle Road"/>
    <tag k="addr:state" v="VT"/>
    <tag k="ref:vcgi:esiteid" v="68320"/>
  </node>
  <node id="-224" visible="true" lat="43.56556002" lon="-72.97216188">
    <tag k="addr:city" v="Clarendon"/>
    <tag k="addr:housenumber" v="3594"/>
    <tag k="addr:street" v="Middle Road"/>
    <tag k="addr:state" v="VT"/>
    <tag k="ref:vcgi:esiteid" v="68334"/>
  </node>
  <node id="-244" visible="true" lat="43.56463732" lon="-72.96806939">
    <tag k="addr:city" v="Clarendon"/>
    <tag k="addr:housenumber" v="111"/>
    <tag k="addr:street" v="Moulton Avenue"/>
    <tag k="addr:state" v="VT"/>
    <tag k="ref:vcgi:esiteid" v="68360"/>
  </node>
  <node id="-248" visible="true" lat="43.56469726" lon="-72.96730804">
    <tag k="addr:city" v="Clarendon"/>
    <tag k="addr:housenumber" v="65"/>
    <tag k="addr:street" v="Moulton Avenue"/>
    <tag k="addr:state" v="VT"/>
    <tag k="ref:vcgi:esiteid" v="68364"/>
  </node>
  <node id="-250" visible="true" lat="43.56469588" lon="-72.96684575">
    <tag k="addr:city" v="Clarendon"/>
    <tag k="addr:housenumber" v="47"/>
    <tag k="addr:street" v="Moulton Avenue"/>
    <tag k="addr:state" v="VT"/>
    <tag k="ref:vcgi:esiteid" v="68366"/>
  </node>
  <node id="-251" visible="true" lat="43.56456358" lon="-72.9677365">
    <tag k="addr:city" v="Clarendon"/>
    <tag k="addr:housenumber" v="95"/>
    <tag k="addr:street" v="Moulton Avenue"/>
    <tag k="addr:state" v="VT"/>
    <tag k="ref:vcgi:esiteid" v="68367"/>
  </node>
  <node id="-252" visible="true" lat="43.56453007" lon="-72.96863714">
    <tag k="addr:city" v="Clarendon"/>
    <tag k="addr:housenumber" v="137"/>
    <tag k="addr:street" v="Moulton Avenue"/>
    <tag k="addr:state" v="VT"/>
    <tag k="ref:vcgi:esiteid" v="68368"/>
  </node>
  <node id="-257" visible="true" lat="43.56444803" lon="-72.96909314">
    <tag k="addr:city" v="Clarendon"/>
    <tag k="addr:housenumber" v="151"/>
    <tag k="addr:street" v="Moulton Avenue"/>
    <tag k="addr:state" v="VT"/>
    <tag k="ref:vcgi:esiteid" v="68373"/>
  </node>
  <node id="-259" visible="true" lat="43.56440219" lon="-72.96977599">
    <tag k="addr:city" v="Clarendon"/>
    <tag k="addr:housenumber" v="195"/>
    <tag k="addr:street" v="Moulton Avenue"/>
    <tag k="addr:state" v="VT"/>
    <tag k="ref:vcgi:esiteid" v="68375"/>
  </node>
  <node id="-263" visible="true" lat="43.56435254" lon="-72.97017056">
    <tag k="addr:city" v="Clarendon"/>
    <tag k="addr:housenumber" v="215"/>
    <tag k="addr:street" v="Moulton Avenue"/>
    <tag k="addr:state" v="VT"/>
    <tag k="ref:vcgi:esiteid" v="68381"/>
  </node>
  <node id="-264" visible="true" lat="43.56441116" lon="-72.96949005">
    <tag k="addr:city" v="Clarendon"/>
    <tag k="addr:housenumber" v="175"/>
    <tag k="addr:street" v="Moulton Avenue"/>
    <tag k="addr:state" v="VT"/>
    <tag k="ref:vcgi:esiteid" v="68384"/>
  </node>
  <node id="-265" visible="true" lat="43.56431169" lon="-72.97045936">
    <tag k="addr:city" v="Clarendon"/>
    <tag k="addr:housenumber" v="231"/>
    <tag k="addr:street" v="Moulton Avenue"/>
    <tag k="addr:state" v="VT"/>
    <tag k="ref:vcgi:esiteid" v="68385"/>
  </node>
  <node id="-267" visible="true" lat="43.56423133" lon="-72.97155345">
    <tag k="addr:city" v="Clarendon"/>
    <tag k="addr:housenumber" v="283"/>
    <tag k="addr:street" v="Moulton Avenue"/>
    <tag k="addr:state" v="VT"/>
    <tag k="ref:vcgi:esiteid" v="68387"/>
  </node>
  <node id="-268" visible="true" lat="43.56432342" lon="-72.97063446">
    <tag k="addr:city" v="Clarendon"/>
    <tag k="addr:housenumber" v="233"/>
    <tag k="addr:street" v="Moulton Avenue"/>
    <tag k="addr:state" v="VT"/>
    <tag k="ref:vcgi:esiteid" v="68388"/>
  </node>
  <node id="-272" visible="true" lat="43.5642913" lon="-72.97080908">
    <tag k="addr:city" v="Clarendon"/>
    <tag k="addr:housenumber" v="247"/>
    <tag k="addr:street" v="Moulton Avenue"/>
    <tag k="addr:state" v="VT"/>
    <tag k="ref:vcgi:esiteid" v="68392"/>
  </node>
  <node id="-274" visible="true" lat="43.56424357" lon="-72.97122007">
    <tag k="addr:city" v="Clarendon"/>
    <tag k="addr:housenumber" v="267"/>
    <tag k="addr:street" v="Moulton Avenue"/>
    <tag k="addr:state" v="VT"/>
    <tag k="ref:vcgi:esiteid" v="68394"/>
  </node>
  <node id="-276" visible="true" lat="43.56422637" lon="-72.9680159">
    <tag k="addr:city" v="Clarendon"/>
    <tag k="addr:housenumber" v="39"/>
    <tag k="addr:street" v="Grange Hall Road"/>
    <tag k="addr:state" v="VT"/>
    <tag k="ref:vcgi:esiteid" v="68396"/>
  </node>
  <node id="-277" visible="true" lat="43.56414032" lon="-72.97187805">
    <tag k="addr:city" v="Clarendon"/>
    <tag k="addr:housenumber" v="297"/>
    <tag k="addr:street" v="Moulton Avenue"/>
    <tag k="addr:state" v="VT"/>
    <tag k="ref:vcgi:esiteid" v="68397"/>
  </node>
  <node id="-278" visible="true" lat="43.56403673" lon="-72.97356403">
    <tag k="addr:city" v="Clarendon"/>
    <tag k="addr:housenumber" v="49"/>
    <tag k="addr:street" v="Alfrecha Road"/>
    <tag k="addr:state" v="VT"/>
    <tag k="ref:vcgi:esiteid" v="68398"/>
  </node>
  <node id="-279" visible="true" lat="43.56402391" lon="-72.97397354">
    <tag k="addr:city" v="Clarendon"/>
    <tag k="addr:housenumber" v="69"/>
    <tag k="addr:street" v="Alfrecha Road"/>
    <tag k="addr:state" v="VT"/>
    <tag k="ref:vcgi:esiteid" v="68399"/>
  </node>
  <node id="-280" visible="true" lat="43.56414271" lon="-72.97239033">
    <tag k="addr:city" v="Clarendon"/>
    <tag k="addr:housenumber" v="3500"/>
    <tag k="addr:street" v="Middle Road"/>
    <tag k="addr:state" v="VT"/>
    <tag k="ref:vcgi:esiteid" v="68400"/>
  </node>
  <node id="-282" visible="true" lat="43.56412644" lon="-72.97298967">
    <tag k="addr:city" v="Clarendon"/>
    <tag k="addr:housenumber" v="3497"/>
    <tag k="addr:street" v="Middle Road"/>
    <tag k="addr:state" v="VT"/>
    <tag k="ref:vcgi:esiteid" v="68402"/>
  </node>
  <node id="-287" visible="true" lat="43.56373596" lon="-72.96846771">
    <tag k="addr:city" v="Clarendon"/>
    <tag k="addr:housenumber" v="64"/>
    <tag k="addr:street" v="Grange Hall Road"/>
    <tag k="addr:state" v="VT"/>
    <tag k="ref:vcgi:esiteid" v="68408"/>
  </node>
  <node id="-290" visible="true" lat="43.56365107" lon="-72.97306022">
    <tag k="addr:city" v="Clarendon"/>
    <tag k="addr:housenumber" v="3473"/>
    <tag k="addr:street" v="Middle Road"/>
    <tag k="addr:state" v="VT"/>
    <tag k="ref:vcgi:esiteid" v="68411"/>
  </node>
  <node id="-292" visible="true" lat="43.56363705" lon="-72.97233174">
    <tag k="addr:city" v="Clarendon"/>
    <tag k="addr:housenumber" v="3468"/>
    <tag k="addr:street" v="Middle Road"/>
    <tag k="addr:state" v="VT"/>
    <tag k="ref:vcgi:esiteid" v="68413"/>
  </node>
  <node id="-300" visible="true" lat="43.56344365" lon="-72.97291014">
    <tag k="addr:city" v="Clarendon"/>
    <tag k="addr:housenumber" v="3457"/>
    <tag k="addr:street" v="Middle Road"/>
    <tag k="addr:state" v="VT"/>
    <tag k="ref:vcgi:esiteid" v="68421"/>
  </node>
  <node id="-302" visible="true" lat="43.56344124" lon="-72.9722918">
    <tag k="addr:city" v="Clarendon"/>
    <tag k="addr:housenumber" v="3452"/>
    <tag k="addr:street" v="Middle Road"/>
    <tag k="addr:state" v="VT"/>
    <tag k="ref:vcgi:esiteid" v="68423"/>
  </node>
  <node id="-313" visible="true" lat="43.56320154" lon="-72.97282626">
    <tag k="addr:city" v="Clarendon"/>
    <tag k="addr:housenumber" v="3439"/>
    <tag k="addr:street" v="Middle Road"/>
    <tag k="addr:state" v="VT"/>
    <tag k="ref:vcgi:esiteid" v="68434"/>
  </node>
  <node id="-322" visible="true" lat="43.5629692" lon="-72.97278594">
    <tag k="addr:city" v="Clarendon"/>
    <tag k="addr:housenumber" v="3423"/>
    <tag k="addr:street" v="Middle Road"/>
    <tag k="addr:state" v="VT"/>
    <tag k="ref:vcgi:esiteid" v="68443"/>
  </node>
  <node id="-326" visible="true" lat="43.56276743" lon="-72.97184661">
    <tag k="addr:city" v="Clarendon"/>
    <tag k="addr:housenumber" v="3412"/>
    <tag k="addr:street" v="Middle Road"/>
    <tag k="addr:state" v="VT"/>
    <tag k="ref:vcgi:esiteid" v="68447"/>
  </node>
  <node id="-336" visible="true" lat="43.56224822" lon="-72.97181701">
    <tag k="addr:city" v="Clarendon"/>
    <tag k="addr:housenumber" v="3368"/>
    <tag k="addr:street" v="Middle Road"/>
    <tag k="addr:state" v="VT"/>
    <tag k="ref:vcgi:esiteid" v="68457"/>
  </node>
  <node id="-357" visible="true" lat="43.56150436" lon="-72.97264862">
    <tag k="addr:city" v="Clarendon"/>
    <tag k="addr:housenumber" v="3323"/>
    <tag k="addr:street" v="Middle Road"/>
    <tag k="addr:state" v="VT"/>
    <tag k="ref:vcgi:esiteid" v="68478"/>
  </node>
  <node id="-655" visible="true" lat="43.53797149" lon="-72.96890258">
    <tag k="addr:city" v="Clarendon"/>
    <tag k="addr:housenumber" v="1688"/>
    <tag k="addr:street" v="Middle Road"/>
    <tag k="addr:state" v="VT"/>
    <tag k="ref:vcgi:esiteid" v="68784"/>
  </node>
  <node id="-657" visible="true" lat="43.53766632" lon="-72.96777343">
    <tag k="addr:city" v="Clarendon"/>
    <tag k="addr:housenumber" v="97"/>
    <tag k="addr:street" v="Elm Hill Drive"/>
    <tag k="addr:state" v="VT"/>
    <tag k="ref:vcgi:esiteid" v="68786"/>
  </node>
  <node id="-665" visible="true" lat="43.5367647" lon="-72.97034951">
    <tag k="addr:city" v="Clarendon"/>
    <tag k="addr:housenumber" v="1625"/>
    <tag k="addr:street" v="Middle Road"/>
    <tag k="addr:state" v="VT"/>
    <tag k="ref:vcgi:esiteid" v="68795"/>
  </node>
  <node id="-666" visible="true" lat="43.53703008" lon="-72.96797865">
    <tag k="addr:city" v="Clarendon"/>
    <tag k="addr:housenumber" v="85"/>
    <tag k="addr:street" v="Elm Hill Drive"/>
    <tag k="addr:state" v="VT"/>
    <tag k="ref:vcgi:esiteid" v="68797"/>
  </node>
  <node id="-670" visible="true" lat="43.53626913" lon="-72.96990554">
    <tag k="addr:city" v="Clarendon"/>
    <tag k="addr:housenumber" v="1571"/>
    <tag k="addr:street" v="Middle Road"/>
    <tag k="addr:state" v="VT"/>
    <tag k="ref:vcgi:esiteid" v="68801"/>
  </node>
  <node id="-677" visible="true" lat="43.53586793" lon="-72.96884266">
    <tag k="addr:city" v="Clarendon"/>
    <tag k="addr:housenumber" v="1534"/>
    <tag k="addr:street" v="Middle Road"/>
    <tag k="addr:state" v="VT"/>
    <tag k="ref:vcgi:esiteid" v="68808"/>
  </node>
  <node id="-680" visible="true" lat="43.5354042" lon="-72.96944427">
    <tag k="addr:city" v="Clarendon"/>
    <tag k="addr:housenumber" v="1509"/>
    <tag k="addr:street" v="Middle Road"/>
    <tag k="addr:state" v="VT"/>
    <tag k="ref:vcgi:esiteid" v="68811"/>
  </node>
  <node id="-702" visible="true" lat="43.53297119" lon="-72.96863088">
    <tag k="addr:city" v="Clarendon"/>
    <tag k="addr:housenumber" v="1338"/>
    <tag k="addr:street" v="Middle Road"/>
    <tag k="addr:state" v="VT"/>
    <tag k="ref:vcgi:esiteid" v="68833"/>
  </node>
  <node id="-705" visible="true" lat="43.53273374" lon="-72.96935994">
    <tag k="addr:city" v="Clarendon"/>
    <tag k="addr:housenumber" v="1329"/>
    <tag k="addr:street" v="Middle Road"/>
    <tag k="addr:state" v="VT"/>
    <tag k="ref:vcgi:esiteid" v="68839"/>
  </node>
  <node id="-734" visible="true" lat="43.53174972" lon="-72.96930694">
    <tag k="addr:city" v="Clarendon"/>
    <tag k="addr:housenumber" v="1259"/>
    <tag k="addr:street" v="Middle Road"/>
    <tag k="addr:state" v="VT"/>
    <tag k="ref:vcgi:esiteid" v="68880"/>
  </node>
  <node id="-743" visible="true" lat="43.53150939" lon="-72.93743133">
    <tag k="addr:city" v="Clarendon"/>
    <tag k="addr:housenumber" v="638"/>
    <tag k="addr:street" v="Vermont Route 103"/>
    <tag k="addr:state" v="VT"/>
    <tag k="ref:vcgi:esiteid" v="68889"/>
  </node>
  <node id="-745" visible="true" lat="43.53128814" lon="-72.96911621">
    <tag k="addr:city" v="Clarendon"/>
    <tag k="addr:housenumber" v="1227"/>
    <tag k="addr:street" v="Middle Road"/>
    <tag k="addr:state" v="VT"/>
    <tag k="ref:vcgi:esiteid" v="68891"/>
  </node>
  <node id="-754" visible="true" lat="43.53066445" lon="-72.97015865">
    <tag k="addr:city" v="Clarendon"/>
    <tag k="addr:housenumber" v="1191"/>
    <tag k="addr:street" v="Middle Road"/>
    <tag k="addr:state" v="VT"/>
    <tag k="ref:vcgi:esiteid" v="68901"/>
  </node>
  <node id="-755" visible="true" lat="43.53074646" lon="-72.96784973">
    <tag k="addr:city" v="Clarendon"/>
    <tag k="addr:housenumber" v="1186"/>
    <tag k="addr:street" v="Middle Road"/>
    <tag k="addr:state" v="VT"/>
    <tag k="ref:vcgi:esiteid" v="68902"/>
  </node>
  <node id="-764" visible="true" lat="43.53017674" lon="-72.96743369">
    <tag k="addr:city" v="Clarendon"/>
    <tag k="addr:housenumber" v="1172"/>
    <tag k="addr:street" v="Middle Road"/>
    <tag k="addr:state" v="VT"/>
    <tag k="ref:vcgi:esiteid" v="68911"/>
  </node>
  <node id="-766" visible="true" lat="43.5301242" lon="-72.96646513">
    <tag k="addr:city" v="Clarendon"/>
    <tag k="addr:housenumber" v="1174"/>
    <tag k="addr:street" v="Middle Road"/>
    <tag k="addr:state" v="VT"/>
    <tag k="ref:vcgi:esiteid" v="68913"/>
  </node>
  <node id="-769" visible="true" lat="43.53009787" lon="-72.96608244">
    <tag k="addr:city" v="Clarendon"/>
    <tag k="addr:housenumber" v="143"/>
    <tag k="addr:street" v="Otterview Drive"/>
    <tag k="addr:state" v="VT"/>
    <tag k="ref:vcgi:esiteid" v="68916"/>
  </node>
  <node id="-775" visible="true" lat="43.52955814" lon="-72.96604846">
    <tag k="addr:city" v="Clarendon"/>
    <tag k="addr:housenumber" v="133"/>
    <tag k="addr:street" v="Otterview Drive"/>
    <tag k="addr:state" v="VT"/>
    <tag k="ref:vcgi:esiteid" v="68922"/>
  </node>
  <node id="-776" visible="true" lat="43.52926319" lon="-72.96696374">
    <tag k="addr:city" v="Clarendon"/>
    <tag k="addr:housenumber" v="1098"/>
    <tag k="addr:street" v="Middle Road"/>
    <tag k="addr:state" v="VT"/>
    <tag k="ref:vcgi:esiteid" v="68923"/>
  </node>
  <node id="-777" visible="true" lat="43.5291483" lon="-72.96904314">
    <tag k="addr:city" v="Clarendon"/>
    <tag k="addr:housenumber" v="1083"/>
    <tag k="addr:street" v="Middle Road"/>
    <tag k="addr:state" v="VT"/>
    <tag k="ref:vcgi:esiteid" v="68924"/>
  </node>
  <node id="-782" visible="true" lat="43.52878249" lon="-72.96770298">
    <tag k="addr:city" v="Clarendon"/>
    <tag k="addr:housenumber" v="1050"/>
    <tag k="addr:street" v="Middle Road"/>
    <tag k="addr:state" v="VT"/>
    <tag k="ref:vcgi:esiteid" v="68929"/>
  </node>
  <node id="-786" visible="true" lat="43.52847649" lon="-72.96917837">
    <tag k="addr:city" v="Clarendon"/>
    <tag k="addr:housenumber" v="1039"/>
    <tag k="addr:street" v="Middle Road"/>
    <tag k="addr:state" v="VT"/>
    <tag k="ref:vcgi:esiteid" v="68933"/>
  </node>
  <node id="-1176" visible="true" lat="43.52959399" lon="-72.96917818">
    <tag k="addr:city" v="Clarendon"/>
    <tag k="addr:housenumber" v="1109"/>
    <tag k="addr:street" v="Middle Road"/>
    <tag k="addr:state" v="VT"/>
    <tag k="ref:vcgi:esiteid" v="69342"/>
  </node>
  <node id="-1234" visible="true" lat="43.53372361" lon="-72.9694721">
    <tag k="addr:city" v="Clarendon"/>
    <tag k="addr:housenumber" v="1391"/>
    <tag k="addr:street" v="Middle Road"/>
    <tag k="addr:state" v="VT"/>
    <tag k="ref:vcgi:esiteid" v="69405"/>
  </node>
  <node id="-1253" visible="true" lat="43.53748751" lon="-72.97046362">
    <tag k="addr:city" v="Clarendon"/>
    <tag k="addr:housenumber" v="1635"/>
    <tag k="addr:street" v="Middle Road"/>
    <tag k="addr:state" v="VT"/>
    <tag k="ref:vcgi:esiteid" v="69424"/>
  </node>
  <node id="-1292" visible="true" lat="43.56527915" lon="-72.94568604">
    <tag k="addr:city" v="Clarendon"/>
    <tag k="addr:housenumber" v="777"/>
    <tag k="addr:street" v="Cold River Road"/>
    <tag k="addr:state" v="VT"/>
    <tag k="ref:vcgi:esiteid" v="333858"/>
  </node>
  <node id="-1309" visible="true" lat="43.56703848" lon="-72.97044315">
    <tag k="addr:city" v="Clarendon"/>
    <tag k="addr:housenumber" v="3622"/>
    <tag k="addr:street" v="Middle Road"/>
    <tag k="addr:state" v="VT"/>
    <tag k="ref:vcgi:esiteid" v="340038"/>
  </node>
  <node id="-1319" visible="true" lat="43.56518081" lon="-72.97295349">
    <tag k="addr:city" v="Clarendon"/>
    <tag k="addr:housenumber" v="3585"/>
    <tag k="addr:street" v="Middle Road"/>
    <tag k="addr:state" v="VT"/>
    <tag k="ref:vcgi:esiteid" v="345291"/>
  </node>
  <node id="-1327" visible="true" lat="43.53694116" lon="-72.96688572">
    <tag k="addr:city" v="Clarendon"/>
    <tag k="addr:housenumber" v="131"/>
    <tag k="addr:street" v="Elm Hill Drive"/>
    <tag k="addr:state" v="VT"/>
    <tag k="ref:vcgi:esiteid" v="448135"/>
  </node>
  <node id="-1342" visible="true" lat="43.53420169" lon="-72.96968803">
    <tag k="addr:city" v="Clarendon"/>
    <tag k="addr:housenumber" v="1421"/>
    <tag k="addr:street" v="Middle Road"/>
    <tag k="addr:state" v="VT"/>
    <tag k="ref:vcgi:esiteid" v="611968"/>
  </node>
</osm>
