<?xml version="1.0" encoding="UTF-8"?>
<osm version="0.6" generator="JOSM">
  <node id="-296" visible="true" lat="44.5941271" lon="-73.18166528">
    <tag k="addr:city" v="Colchester"/>
    <tag k="addr:housenumber" v="359"/>
    <tag k="addr:street" v="Jasper Mine Road"/>
    <tag k="addr:state" v="VT"/>
    <tag k="ref:vcgi:esiteid" v="69651"/>
  </node>
  <node id="-328" visible="true" lat="44.59139026" lon="-73.16559219">
    <tag k="addr:city" v="Colchester"/>
    <tag k="addr:housenumber" v="120"/>
    <tag k="addr:street" v="Wiley Road"/>
    <tag k="addr:state" v="VT"/>
    <tag k="ref:vcgi:esiteid" v="69684"/>
  </node>
  <node id="-1618" visible="true" lat="44.55110214" lon="-73.22983211">
    <tag k="addr:city" v="Colchester"/>
    <tag k="addr:housenumber" v="824"/>
    <tag k="addr:street" v="West Lakeshore Drive"/>
    <tag k="addr:state" v="VT"/>
    <tag k="ref:vcgi:esiteid" v="71101"/>
  </node>
  <node id="-1945" visible="true" lat="44.54936005" lon="-73.16356685">
    <tag k="addr:city" v="Colchester"/>
    <tag k="addr:housenumber" v="116"/>
    <tag k="addr:street" v="Main Street"/>
    <tag k="addr:state" v="VT"/>
    <tag k="ref:vcgi:esiteid" v="71473"/>
  </node>
  <node id="-2033" visible="true" lat="44.54895564" lon="-73.16018168">
    <tag k="addr:city" v="Colchester"/>
    <tag k="addr:housenumber" v="253"/>
    <tag k="addr:street" v="Main Street"/>
    <tag k="addr:state" v="VT"/>
    <tag k="ref:vcgi:esiteid" v="71567"/>
  </node>
  <node id="-2199" visible="true" lat="44.54731279" lon="-73.23780958">
    <tag k="addr:city" v="Colchester"/>
    <tag k="addr:housenumber" v="354"/>
    <tag k="addr:street" v="Prim Road"/>
    <tag k="addr:state" v="VT"/>
    <tag k="ref:vcgi:esiteid" v="71758"/>
  </node>
  <node id="-2335" visible="true" lat="44.54724106" lon="-73.15763694">
    <tag k="addr:city" v="Colchester"/>
    <tag k="addr:housenumber" v="428"/>
    <tag k="addr:street" v="Main Street"/>
    <tag k="addr:state" v="VT"/>
    <tag k="ref:vcgi:esiteid" v="71906"/>
  </node>
  <node id="-2887" visible="true" lat="44.54399193" lon="-73.21385478">
    <tag k="addr:city" v="Colchester"/>
    <tag k="addr:housenumber" v="133"/>
    <tag k="addr:street" v="Blakely Road"/>
    <tag k="addr:state" v="VT"/>
    <tag k="ref:vcgi:esiteid" v="72541"/>
  </node>
  <node id="-3012" visible="true" lat="44.54376842" lon="-73.14907922">
    <tag k="addr:city" v="Colchester"/>
    <tag k="addr:housenumber" v="898"/>
    <tag k="addr:street" v="Main Street"/>
    <tag k="addr:state" v="VT"/>
    <tag k="ref:vcgi:esiteid" v="72682"/>
  </node>
  <node id="-3672" visible="true" lat="44.53947928" lon="-73.21345942">
    <tag k="addr:city" v="Colchester"/>
    <tag k="addr:housenumber" v="131"/>
    <tag k="addr:street" v="Laker Lane"/>
    <tag k="addr:state" v="VT"/>
    <tag k="ref:vcgi:esiteid" v="73427"/>
  </node>
  <node id="-3821" visible="true" lat="44.53726415" lon="-73.25123217">
    <tag k="addr:city" v="Colchester"/>
    <tag k="addr:housenumber" v="155"/>
    <tag k="addr:street" v="Porters Point Road"/>
    <tag k="addr:state" v="VT"/>
    <tag k="ref:vcgi:esiteid" v="73601"/>
  </node>
  <node id="-4838" visible="true" lat="44.51109374" lon="-73.1801611">
    <tag k="addr:city" v="Colchester"/>
    <tag k="addr:housenumber" v="623"/>
    <tag k="addr:street" v="Roosevelt Highway"/>
    <tag k="addr:state" v="VT"/>
    <tag k="ref:vcgi:esiteid" v="74796"/>
  </node>
  <node id="-4885" visible="true" lat="44.50990076" lon="-73.18002673">
    <tag k="addr:city" v="Colchester"/>
    <tag k="addr:housenumber" v="553"/>
    <tag k="addr:street" v="Roosevelt Highway"/>
    <tag k="addr:state" v="VT"/>
    <tag k="ref:vcgi:esiteid" v="74853"/>
  </node>
  <node id="-4915" visible="true" lat="44.5078446" lon="-73.17930687">
    <tag k="addr:city" v="Colchester"/>
    <tag k="addr:housenumber" v="414"/>
    <tag k="addr:street" v="Roosevelt Highway"/>
    <tag k="addr:state" v="VT"/>
    <tag k="ref:vcgi:esiteid" v="74902"/>
  </node>
  <node id="-4941" visible="true" lat="44.50740918" lon="-73.14941755">
    <tag k="addr:city" v="Colchester"/>
    <tag k="addr:housenumber" v="182"/>
    <tag k="addr:street" v="Hegeman Avenue"/>
    <tag k="addr:state" v="VT"/>
    <tag k="ref:vcgi:esiteid" v="74938"/>
  </node>
  <node id="-4943" visible="true" lat="44.50717639" lon="-73.14980614">
    <tag k="addr:city" v="Colchester"/>
    <tag k="addr:housenumber" v="206"/>
    <tag k="addr:street" v="Hegeman Avenue"/>
    <tag k="addr:state" v="VT"/>
    <tag k="ref:vcgi:esiteid" v="74941"/>
  </node>
  <node id="-4945" visible="true" lat="44.50702099" lon="-73.18159286">
    <tag k="addr:city" v="Colchester"/>
    <tag k="addr:housenumber" v="69"/>
    <tag k="addr:street" v="Mountain View Drive"/>
    <tag k="addr:state" v="VT"/>
    <tag k="ref:vcgi:esiteid" v="74943"/>
  </node>
  <node id="-4949" visible="true" lat="44.50675871" lon="-73.17598619">
    <tag k="addr:city" v="Colchester"/>
    <tag k="addr:housenumber" v="215"/>
    <tag k="addr:street" v="Lower Mountain View Drive"/>
    <tag k="addr:state" v="VT"/>
    <tag k="ref:vcgi:esiteid" v="74949"/>
  </node>
  <node id="-5022" visible="true" lat="44.50447504" lon="-73.18120844">
    <tag k="addr:city" v="Colchester"/>
    <tag k="addr:housenumber" v="156"/>
    <tag k="addr:street" v="Roosevelt Highway"/>
    <tag k="addr:state" v="VT"/>
    <tag k="ref:vcgi:esiteid" v="75042"/>
  </node>
  <node id="-5025" visible="true" lat="44.50455594" lon="-73.14957885">
    <tag k="addr:city" v="Colchester"/>
    <tag k="addr:housenumber" v="204"/>
    <tag k="addr:street" v="Ethan Allen Avenue"/>
    <tag k="addr:state" v="VT"/>
    <tag k="ref:vcgi:esiteid" v="75045"/>
  </node>
  <node id="-5038" visible="true" lat="44.50395783" lon="-73.17428717">
    <tag k="addr:city" v="Colchester"/>
    <tag k="addr:housenumber" v="218"/>
    <tag k="addr:street" v="Lower Mountain View Drive"/>
    <tag k="addr:state" v="VT"/>
    <tag k="ref:vcgi:esiteid" v="75060"/>
  </node>
  <node id="-5057" visible="true" lat="44.50393154" lon="-73.14995641">
    <tag k="addr:city" v="Colchester"/>
    <tag k="addr:housenumber" v="34"/>
    <tag k="addr:street" v="Student Lane"/>
    <tag k="addr:state" v="VT"/>
    <tag k="ref:vcgi:esiteid" v="75085"/>
  </node>
  <node id="-5063" visible="true" lat="44.50378993" lon="-73.1504007">
    <tag k="addr:city" v="Colchester"/>
    <tag k="addr:housenumber" v="17"/>
    <tag k="addr:street" v="Catamount Lane"/>
    <tag k="addr:state" v="VT"/>
    <tag k="ref:vcgi:esiteid" v="75093"/>
  </node>
  <node id="-5065" visible="true" lat="44.50362418" lon="-73.1825655">
    <tag k="addr:city" v="Colchester"/>
    <tag k="addr:housenumber" v="46"/>
    <tag k="addr:street" v="Highpoint Center"/>
    <tag k="addr:state" v="VT"/>
    <tag k="ref:vcgi:esiteid" v="75095"/>
  </node>
  <node id="-5069" visible="true" lat="44.50376012" lon="-73.14966196">
    <tag k="addr:city" v="Colchester"/>
    <tag k="addr:housenumber" v="54"/>
    <tag k="addr:street" v="Student Lane"/>
    <tag k="addr:state" v="VT"/>
    <tag k="ref:vcgi:esiteid" v="75100"/>
  </node>
  <node id="-5074" visible="true" lat="44.50354213" lon="-73.17972773">
    <tag k="addr:city" v="Colchester"/>
    <tag k="addr:housenumber" v="84"/>
    <tag k="addr:street" v="South Park Drive"/>
    <tag k="addr:state" v="VT"/>
    <tag k="ref:vcgi:esiteid" v="75108"/>
  </node>
  <node id="-5075" visible="true" lat="44.50358159" lon="-73.15011445">
    <tag k="addr:city" v="Colchester"/>
    <tag k="addr:housenumber" v="33"/>
    <tag k="addr:street" v="Catamount Lane"/>
    <tag k="addr:state" v="VT"/>
    <tag k="ref:vcgi:esiteid" v="75109"/>
  </node>
  <node id="-5076" visible="true" lat="44.50356292" lon="-73.14956237">
    <tag k="addr:city" v="Colchester"/>
    <tag k="addr:housenumber" v="56"/>
    <tag k="addr:street" v="Student Lane"/>
    <tag k="addr:state" v="VT"/>
    <tag k="ref:vcgi:esiteid" v="75111"/>
  </node>
  <node id="-5082" visible="true" lat="44.5033041" lon="-73.18094319">
    <tag k="addr:city" v="Colchester"/>
    <tag k="addr:housenumber" v="44"/>
    <tag k="addr:street" v="South Park Drive"/>
    <tag k="addr:state" v="VT"/>
    <tag k="ref:vcgi:esiteid" v="75120"/>
  </node>
  <node id="-5095" visible="true" lat="44.50331071" lon="-73.15071266">
    <tag k="addr:city" v="Colchester"/>
    <tag k="addr:housenumber" v="24"/>
    <tag k="addr:street" v="Catamount Lane"/>
    <tag k="addr:state" v="VT"/>
    <tag k="ref:vcgi:esiteid" v="75138"/>
  </node>
  <node id="-5096" visible="true" lat="44.50329726" lon="-73.14993742">
    <tag k="addr:city" v="Colchester"/>
    <tag k="addr:housenumber" v="38"/>
    <tag k="addr:street" v="Catamount Lane"/>
    <tag k="addr:state" v="VT"/>
    <tag k="ref:vcgi:esiteid" v="75139"/>
  </node>
  <node id="-5101" visible="true" lat="44.50313568" lon="-73.15036773">
    <tag k="addr:city" v="Colchester"/>
    <tag k="addr:housenumber" v="36"/>
    <tag k="addr:street" v="Catamount Lane"/>
    <tag k="addr:state" v="VT"/>
    <tag k="ref:vcgi:esiteid" v="75148"/>
  </node>
  <node id="-5109" visible="true" lat="44.50299847" lon="-73.15088098">
    <tag k="addr:city" v="Colchester"/>
    <tag k="addr:housenumber" v="21"/>
    <tag k="addr:street" v="University Lane"/>
    <tag k="addr:state" v="VT"/>
    <tag k="ref:vcgi:esiteid" v="75159"/>
  </node>
  <node id="-5116" visible="true" lat="44.50276962" lon="-73.15055856">
    <tag k="addr:city" v="Colchester"/>
    <tag k="addr:housenumber" v="35"/>
    <tag k="addr:street" v="University Lane"/>
    <tag k="addr:state" v="VT"/>
    <tag k="ref:vcgi:esiteid" v="75167"/>
  </node>
  <node id="-5129" visible="true" lat="44.50244216" lon="-73.15063824">
    <tag k="addr:city" v="Colchester"/>
    <tag k="addr:housenumber" v="34"/>
    <tag k="addr:street" v="University Lane"/>
    <tag k="addr:state" v="VT"/>
    <tag k="ref:vcgi:esiteid" v="75184"/>
  </node>
  <node id="-5130" visible="true" lat="44.5024966" lon="-73.15105155">
    <tag k="addr:city" v="Colchester"/>
    <tag k="addr:housenumber" v="32"/>
    <tag k="addr:street" v="University Lane"/>
    <tag k="addr:state" v="VT"/>
    <tag k="ref:vcgi:esiteid" v="75185"/>
  </node>
  <node id="-5357" visible="true" lat="44.49857308" lon="-73.15703405">
    <tag k="addr:city" v="Colchester"/>
    <tag k="addr:housenumber" v="883"/>
    <tag k="addr:street" v="College Parkway"/>
    <tag k="addr:state" v="VT"/>
    <tag k="ref:vcgi:esiteid" v="75442"/>
  </node>
  <node id="-5360" visible="true" lat="44.49849262" lon="-73.15733834">
    <tag k="addr:city" v="Colchester"/>
    <tag k="addr:housenumber" v="865"/>
    <tag k="addr:street" v="College Parkway"/>
    <tag k="addr:state" v="VT"/>
    <tag k="ref:vcgi:esiteid" v="75445"/>
  </node>
  <node id="-5369" visible="true" lat="44.4979162" lon="-73.15819306">
    <tag k="addr:city" v="Colchester"/>
    <tag k="addr:housenumber" v="807"/>
    <tag k="addr:street" v="College Parkway"/>
    <tag k="addr:state" v="VT"/>
    <tag k="ref:vcgi:esiteid" v="75455"/>
  </node>
  <node id="-5412" visible="true" lat="44.49274463" lon="-73.16960994">
    <tag k="addr:city" v="Colchester"/>
    <tag k="addr:housenumber" v="66"/>
    <tag k="addr:street" v="College Parkway"/>
    <tag k="addr:state" v="VT"/>
    <tag k="ref:vcgi:esiteid" v="75528"/>
  </node>
  <node id="-5423" visible="true" lat="44.49277962" lon="-73.16805575">
    <tag k="addr:city" v="Colchester"/>
    <tag k="addr:housenumber" v="124"/>
    <tag k="addr:street" v="College Parkway"/>
    <tag k="addr:state" v="VT"/>
    <tag k="ref:vcgi:esiteid" v="75542"/>
  </node>
  <node id="-5629" visible="true" lat="44.50998584" lon="-73.18428091">
    <tag k="addr:city" v="Colchester"/>
    <tag k="addr:housenumber" v="356"/>
    <tag k="addr:street" v="Mountain View Drive"/>
    <tag k="addr:state" v="VT"/>
    <tag k="ref:vcgi:esiteid" v="75767"/>
  </node>
  <node id="-6054" visible="true" lat="44.50257391" lon="-73.18025718">
    <tag k="addr:city" v="Colchester"/>
    <tag k="addr:housenumber" v="74"/>
    <tag k="addr:street" v="South Park Drive"/>
    <tag k="addr:state" v="VT"/>
    <tag k="ref:vcgi:esiteid" v="76212"/>
  </node>
  <node id="-6115" visible="true" lat="44.59079256" lon="-73.16556546">
    <tag k="addr:city" v="Colchester"/>
    <tag k="addr:housenumber" v="160"/>
    <tag k="addr:street" v="Wiley Road"/>
    <tag k="addr:state" v="VT"/>
    <tag k="ref:vcgi:esiteid" v="316540"/>
  </node>
  <node id="-6186" visible="true" lat="44.49645105" lon="-73.15903">
    <tag k="addr:city" v="Colchester"/>
    <tag k="addr:housenumber" v="786"/>
    <tag k="addr:street" v="College Parkway"/>
    <tag k="addr:state" v="VT"/>
    <tag k="ref:vcgi:esiteid" v="333308"/>
  </node>
  <node id="-6324" visible="true" lat="44.53818808" lon="-73.25168368">
    <tag k="addr:city" v="Colchester"/>
    <tag k="addr:housenumber" v="179"/>
    <tag k="addr:street" v="Porters Point Road"/>
    <tag k="addr:state" v="VT"/>
    <tag k="ref:vcgi:esiteid" v="448265"/>
  </node>
  <node id="-6513" visible="true" lat="44.54634207" lon="-73.16658351">
    <tag k="addr:city" v="Colchester"/>
    <tag k="addr:housenumber" v="3231"/>
    <tag k="addr:street" v="Roosevelt Highway"/>
    <tag k="addr:state" v="VT"/>
    <tag k="ref:vcgi:esiteid" v="612788"/>
  </node>
</osm>
