<?xml version="1.0" encoding="UTF-8"?>
<osm version="0.6" generator="JOSM">
  <node id="-327" visible="true" lat="44.59260591" lon="-73.1787846">
    <!-- conflict: "151 Jasper Mine Road, Colchester, VT" No match in OSM, but a different address exists <5m away: " Jasper Mine Road, Colchester, VT" -->
    <tag k="addr:city" v="Colchester"/>
    <tag k="addr:housenumber" v="151"/>
    <tag k="addr:street" v="Jasper Mine Road"/>
    <tag k="addr:state" v="VT"/>
    <tag k="ref:vcgi:esiteid" v="69682"/>
  </node>
  <node id="-921" visible="true" lat="44.55551125" lon="-73.18520395">
    <!-- conflict: "52 Sunset View Road, Colchester, VT" Fuzzy match to "52 Sunset View Road, , " -->
    <tag k="addr:city" v="Colchester"/>
    <tag k="addr:housenumber" v="52"/>
    <tag k="addr:street" v="Sunset View Road"/>
    <tag k="addr:state" v="VT"/>
    <tag k="ref:vcgi:esiteid" v="70326"/>
  </node>
  <node id="-2893" visible="true" lat="44.54432525" lon="-73.14857928">
    <!-- conflict: "899 Main Street, Colchester, VT" Fuzzy match to "899 Main Street, , " -->
    <tag k="addr:city" v="Colchester"/>
    <tag k="addr:housenumber" v="899"/>
    <tag k="addr:street" v="Main Street"/>
    <tag k="addr:state" v="VT"/>
    <tag k="ref:vcgi:esiteid" v="72528"/>
  </node>
  <node id="-4434" visible="true" lat="44.52247156" lon="-73.16227971">
    <!-- conflict: "345 Eagle Park Drive, Colchester, VT" No match in OSM, but a different address exists <5m away: " Eagle Park Drive, Winooski, VT" -->
    <tag k="addr:city" v="Colchester"/>
    <tag k="addr:housenumber" v="345"/>
    <tag k="addr:street" v="Eagle Park Drive"/>
    <tag k="addr:state" v="VT"/>
    <tag k="ref:vcgi:esiteid" v="74289"/>
  </node>
  <node id="-4440" visible="true" lat="44.52241314" lon="-73.16302563">
    <!-- conflict: "197 Eagle Park Drive, Colchester, VT" No match in OSM, but a different address exists <5m away: " Eagle Park Drive, Winooski, VT" -->
    <tag k="addr:city" v="Colchester"/>
    <tag k="addr:housenumber" v="197"/>
    <tag k="addr:street" v="Eagle Park Drive"/>
    <tag k="addr:state" v="VT"/>
    <tag k="ref:vcgi:esiteid" v="74295"/>
  </node>
  <node id="-4441" visible="true" lat="44.52220623" lon="-73.16246758">
    <!-- conflict: "321 Eagle Park Drive, Colchester, VT" No match in OSM, but a different address exists <5m away: " Eagle Park Drive, Winooski, VT" -->
    <tag k="addr:city" v="Colchester"/>
    <tag k="addr:housenumber" v="321"/>
    <tag k="addr:street" v="Eagle Park Drive"/>
    <tag k="addr:state" v="VT"/>
    <tag k="ref:vcgi:esiteid" v="74296"/>
  </node>
  <node id="-4447" visible="true" lat="44.52192629" lon="-73.16268154">
    <!-- conflict: "297 Eagle Park Drive, Colchester, VT" No match in OSM, but a different address exists <5m away: " Eagle Park Drive, Winooski, VT" -->
    <tag k="addr:city" v="Colchester"/>
    <tag k="addr:housenumber" v="297"/>
    <tag k="addr:street" v="Eagle Park Drive"/>
    <tag k="addr:state" v="VT"/>
    <tag k="ref:vcgi:esiteid" v="74303"/>
  </node>
  <node id="-4546" visible="true" lat="44.5188848" lon="-73.14727167">
    <!-- conflict: "104 Autumn Woods, Colchester, VT" Fuzzy match to "104 Autumn Woods Lane, Colchester, VT" -->
    <tag k="addr:city" v="Colchester"/>
    <tag k="addr:housenumber" v="104"/>
    <tag k="addr:street" v="Autumn Woods"/>
    <tag k="addr:state" v="VT"/>
    <tag k="ref:vcgi:esiteid" v="74421"/>
  </node>
  <node id="-4547" visible="true" lat="44.51886867" lon="-73.1468099">
    <!-- conflict: "90 Autumn Woods, Colchester, VT" Fuzzy match to "90 Autumn Woods Lane, Colchester, VT" -->
    <tag k="addr:city" v="Colchester"/>
    <tag k="addr:housenumber" v="90"/>
    <tag k="addr:street" v="Autumn Woods"/>
    <tag k="addr:state" v="VT"/>
    <tag k="ref:vcgi:esiteid" v="74422"/>
  </node>
  <node id="-4562" visible="true" lat="44.51851798" lon="-73.14758446">
    <!-- conflict: "122 Autumn Woods, Colchester, VT" Fuzzy match to "122 Autumn Woods Lane, Colchester, VT" -->
    <tag k="addr:city" v="Colchester"/>
    <tag k="addr:housenumber" v="122"/>
    <tag k="addr:street" v="Autumn Woods"/>
    <tag k="addr:state" v="VT"/>
    <tag k="ref:vcgi:esiteid" v="74441"/>
  </node>
  <node id="-4563" visible="true" lat="44.51841914" lon="-73.14659785">
    <!-- conflict: "72 Autumn Woods, Colchester, VT" Fuzzy match to "72 Autumn Woods Lane, Colchester, VT" -->
    <tag k="addr:city" v="Colchester"/>
    <tag k="addr:housenumber" v="72"/>
    <tag k="addr:street" v="Autumn Woods"/>
    <tag k="addr:state" v="VT"/>
    <tag k="ref:vcgi:esiteid" v="74443"/>
  </node>
  <node id="-4572" visible="true" lat="44.51821574" lon="-73.14689499">
    <!-- conflict: "66 Autumn Woods, Colchester, VT" Fuzzy match to "66 Autumn Woods Lane, Colchester, VT" -->
    <tag k="addr:city" v="Colchester"/>
    <tag k="addr:housenumber" v="66"/>
    <tag k="addr:street" v="Autumn Woods"/>
    <tag k="addr:state" v="VT"/>
    <tag k="ref:vcgi:esiteid" v="74453"/>
  </node>
  <node id="-4730" visible="true" lat="44.51370044" lon="-73.18015027">
    <!-- conflict: "59 Rathe Road, Colchester, VT" Fuzzy match to "59 Rathe Road, , VT" -->
    <tag k="addr:city" v="Colchester"/>
    <tag k="addr:housenumber" v="59"/>
    <tag k="addr:street" v="Rathe Road"/>
    <tag k="addr:state" v="VT"/>
    <tag k="ref:vcgi:esiteid" v="74641"/>
  </node>
  <node id="-4822" visible="true" lat="44.51226672" lon="-73.15035817">
    <!-- conflict: "288 Coventry Road, Colchester, VT" No match in OSM, but a different address exists <5m away: " Coventry Road, Winooski, VT" -->
    <tag k="addr:city" v="Colchester"/>
    <tag k="addr:housenumber" v="288"/>
    <tag k="addr:street" v="Coventry Road"/>
    <tag k="addr:state" v="VT"/>
    <tag k="ref:vcgi:esiteid" v="74751"/>
  </node>
  <node id="-4846" visible="true" lat="44.51179777" lon="-73.14989395">
    <!-- conflict: "289 Coventry Road, Colchester, VT" No match in OSM, but a different address exists <5m away: " Coventry Road, Winooski, VT" -->
    <tag k="addr:city" v="Colchester"/>
    <tag k="addr:housenumber" v="289"/>
    <tag k="addr:street" v="Coventry Road"/>
    <tag k="addr:state" v="VT"/>
    <tag k="ref:vcgi:esiteid" v="74778"/>
  </node>
  <node id="-4927" visible="true" lat="44.50903509" lon="-73.18088228">
    <!-- conflict: "66 Mountain View Drive, Colchester, VT" Fuzzy match to "66 Mountain View Boulevard, Colchester, VT" -->
    <tag k="addr:city" v="Colchester"/>
    <tag k="addr:housenumber" v="66"/>
    <tag k="addr:street" v="Mountain View Drive"/>
    <tag k="addr:state" v="VT"/>
    <tag k="ref:vcgi:esiteid" v="74881"/>
  </node>
  <node id="-5419" visible="true" lat="44.49595149" lon="-73.16536975">
    <!-- conflict: "27 Alumni Corner, Colchester, VT" No match in OSM, but a different address exists <5m away: " , Colchester, VT" -->
    <tag k="addr:city" v="Colchester"/>
    <tag k="addr:housenumber" v="27"/>
    <tag k="addr:street" v="Alumni Corner"/>
    <tag k="addr:state" v="VT"/>
    <tag k="ref:vcgi:esiteid" v="75495"/>
  </node>
  <node id="-5421" visible="true" lat="44.49585005" lon="-73.16452255">
    <!-- conflict: "86 Place Saint Michel, Colchester, VT" No match in OSM, but a different address exists <5m away: " , Colchester, VT" -->
    <tag k="addr:city" v="Colchester"/>
    <tag k="addr:housenumber" v="86"/>
    <tag k="addr:street" v="Place Saint Michel"/>
    <tag k="addr:state" v="VT"/>
    <tag k="ref:vcgi:esiteid" v="75497"/>
  </node>
  <node id="-5424" visible="true" lat="44.49501365" lon="-73.16463286">
    <!-- conflict: "102 Place Saint Michel, Colchester, VT" No match in OSM, but a different address exists <5m away: " , Colchester, VT" -->
    <tag k="addr:city" v="Colchester"/>
    <tag k="addr:housenumber" v="102"/>
    <tag k="addr:street" v="Place Saint Michel"/>
    <tag k="addr:state" v="VT"/>
    <tag k="ref:vcgi:esiteid" v="75503"/>
  </node>
  <node id="-6044" visible="true" lat="44.51837114" lon="-73.14590864">
    <!-- conflict: "80 Autumn Woods, Colchester, VT" Fuzzy match to "80 Autumn Woods Lane, Colchester, VT" -->
    <tag k="addr:city" v="Colchester"/>
    <tag k="addr:housenumber" v="80"/>
    <tag k="addr:street" v="Autumn Woods"/>
    <tag k="addr:state" v="VT"/>
    <tag k="ref:vcgi:esiteid" v="76174"/>
  </node>
  <node id="-6045" visible="true" lat="44.51801656" lon="-73.14594223">
    <!-- conflict: "82 Autumn Woods, Colchester, VT" Fuzzy match to "82 Autumn Woods Lane, Colchester, VT" -->
    <tag k="addr:city" v="Colchester"/>
    <tag k="addr:housenumber" v="82"/>
    <tag k="addr:street" v="Autumn Woods"/>
    <tag k="addr:state" v="VT"/>
    <tag k="ref:vcgi:esiteid" v="76175"/>
  </node>
  <node id="-6272" visible="true" lat="44.5134851" lon="-73.1809667">
    <!-- conflict: "71 Rathe Road, Colchester, VT" Fuzzy match to "71 Rathe Road, , VT" -->
    <tag k="addr:city" v="Colchester"/>
    <tag k="addr:housenumber" v="71"/>
    <tag k="addr:street" v="Rathe Road"/>
    <tag k="addr:state" v="VT"/>
    <tag k="ref:vcgi:esiteid" v="339248"/>
  </node>
</osm>
