<?xml version="1.0" encoding="UTF-8"?>
<osm version="0.6" generator="JOSM">
  <node id="-316" visible="true" lat="44.5931633" lon="-73.18024752">
    <!-- multiple: "257 Jasper Mine Road, Colchester, VT" Multiple exact matches in OSM. -->
    <tag k="addr:city" v="Colchester"/>
    <tag k="addr:housenumber" v="257"/>
    <tag k="addr:street" v="Jasper Mine Road"/>
    <tag k="addr:state" v="VT"/>
    <tag k="ref:vcgi:esiteid" v="69672"/>
  </node>
  <node id="-1646" visible="true" lat="44.5508742" lon="-73.22940169">
    <!-- multiple: "794 West Lakeshore Drive, Colchester, VT" Multiple exact matches in OSM. -->
    <tag k="addr:city" v="Colchester"/>
    <tag k="addr:housenumber" v="794"/>
    <tag k="addr:street" v="West Lakeshore Drive"/>
    <tag k="addr:state" v="VT"/>
    <tag k="ref:vcgi:esiteid" v="71134"/>
  </node>
  <node id="-1654" visible="true" lat="44.55078042" lon="-73.22996563">
    <!-- multiple: "816 West Lakeshore Drive, Colchester, VT" Multiple exact matches in OSM. -->
    <tag k="addr:city" v="Colchester"/>
    <tag k="addr:housenumber" v="816"/>
    <tag k="addr:street" v="West Lakeshore Drive"/>
    <tag k="addr:state" v="VT"/>
    <tag k="ref:vcgi:esiteid" v="71143"/>
  </node>
  <node id="-1864" visible="true" lat="44.54990922" lon="-73.16391804">
    <!-- multiple: "3570 Roosevelt Highway, Colchester, VT" Multiple exact matches in OSM. -->
    <tag k="addr:city" v="Colchester"/>
    <tag k="addr:housenumber" v="3570"/>
    <tag k="addr:street" v="Roosevelt Highway"/>
    <tag k="addr:state" v="VT"/>
    <tag k="ref:vcgi:esiteid" v="71381"/>
  </node>
  <node id="-2928" visible="true" lat="44.5437853" lon="-73.21402701">
    <!-- multiple: "131 Blakely Road, Colchester, VT" Multiple exact matches in OSM. -->
    <tag k="addr:city" v="Colchester"/>
    <tag k="addr:housenumber" v="131"/>
    <tag k="addr:street" v="Blakely Road"/>
    <tag k="addr:state" v="VT"/>
    <tag k="ref:vcgi:esiteid" v="72587"/>
  </node>
  <node id="-3447" visible="true" lat="44.54105717" lon="-73.25555586">
    <!-- multiple: "490 Porters Point Road, Colchester, VT" Multiple exact matches in OSM. -->
    <tag k="addr:city" v="Colchester"/>
    <tag k="addr:housenumber" v="490"/>
    <tag k="addr:street" v="Porters Point Road"/>
    <tag k="addr:state" v="VT"/>
    <tag k="ref:vcgi:esiteid" v="73168"/>
  </node>
  <node id="-3584" visible="true" lat="44.54028221" lon="-73.20973207">
    <!-- multiple: "425 Blakely Road, Colchester, VT" Multiple exact matches in OSM. -->
    <tag k="addr:city" v="Colchester"/>
    <tag k="addr:housenumber" v="425"/>
    <tag k="addr:street" v="Blakely Road"/>
    <tag k="addr:state" v="VT"/>
    <tag k="ref:vcgi:esiteid" v="73329"/>
  </node>
  <node id="-3775" visible="true" lat="44.53861236" lon="-73.20784759">
    <!-- multiple: "609 Blakely Road, Colchester, VT" Multiple exact matches in OSM. -->
    <tag k="addr:city" v="Colchester"/>
    <tag k="addr:housenumber" v="609"/>
    <tag k="addr:street" v="Blakely Road"/>
    <tag k="addr:state" v="VT"/>
    <tag k="ref:vcgi:esiteid" v="73547"/>
  </node>
  <node id="-3865" visible="true" lat="44.5363132" lon="-73.24829248">
    <!-- multiple: "16 Heineberg Drive, Colchester, VT" Multiple exact matches in OSM. -->
    <tag k="addr:city" v="Colchester"/>
    <tag k="addr:housenumber" v="16"/>
    <tag k="addr:street" v="Heineberg Drive"/>
    <tag k="addr:state" v="VT"/>
    <tag k="ref:vcgi:esiteid" v="73652"/>
  </node>
  <node id="-5079" visible="true" lat="44.50329782" lon="-73.18164031">
    <!-- multiple: "70 Roosevelt Highway, Colchester, VT" Multiple exact matches in OSM. -->
    <tag k="addr:city" v="Colchester"/>
    <tag k="addr:housenumber" v="70"/>
    <tag k="addr:street" v="Roosevelt Highway"/>
    <tag k="addr:state" v="VT"/>
    <tag k="ref:vcgi:esiteid" v="75117"/>
  </node>
  <node id="-5372" visible="true" lat="44.49780505" lon="-73.15855599">
    <!-- multiple: "781 College Parkway, Colchester, VT" Multiple exact matches in OSM. -->
    <tag k="addr:city" v="Colchester"/>
    <tag k="addr:housenumber" v="781"/>
    <tag k="addr:street" v="College Parkway"/>
    <tag k="addr:state" v="VT"/>
    <tag k="ref:vcgi:esiteid" v="75458"/>
  </node>
  <node id="-5383" visible="true" lat="44.49647375" lon="-73.15819147">
    <!-- multiple: "790 College Parkway, Colchester, VT" Multiple exact matches in OSM. -->
    <tag k="addr:city" v="Colchester"/>
    <tag k="addr:housenumber" v="790"/>
    <tag k="addr:street" v="College Parkway"/>
    <tag k="addr:state" v="VT"/>
    <tag k="ref:vcgi:esiteid" v="75478"/>
  </node>
  <node id="-6784" visible="true" lat="44.50692611" lon="-73.18013989">
    <!-- multiple: "18 Lower Mountain View Drive, Colchester, VT" Multiple exact matches in OSM. -->
    <tag k="addr:city" v="Colchester"/>
    <tag k="addr:housenumber" v="18"/>
    <tag k="addr:street" v="Lower Mountain View Drive"/>
    <tag k="addr:state" v="VT"/>
    <tag k="ref:vcgi:esiteid" v="756576"/>
  </node>
</osm>
