<?xml version="1.0" encoding="UTF-8"?>
<osm version="0.6" generator="JOSM" upload="false">
  <node id="-591" visible="true" lat="44.42464728" lon="-71.76222195">
    <tag k="addr:housenumber" v="332"/>
    <tag k="addr:street" v="Leonard Hill Road"/>
    <tag k="addr:state" v="VT"/>
    <tag k="ref:vcgi:esiteid" v="76739"/>
  </node>
  <node id="-602" visible="true" lat="44.42662722" lon="-71.89055428">
    <tag k="addr:housenumber" v="173"/>
    <tag k="addr:street" v="School Street"/>
    <tag k="addr:state" v="VT"/>
    <tag k="ref:vcgi:esiteid" v="76750"/>
  </node>
  <node id="-614" visible="true" lat="44.42508898" lon="-71.75680545">
    <tag k="addr:housenumber" v="93"/>
    <tag k="addr:street" v="Leonard Hill Road"/>
    <tag k="addr:state" v="VT"/>
    <tag k="ref:vcgi:esiteid" v="76763"/>
  </node>
  <node id="-633" visible="true" lat="44.42451095" lon="-71.7560501">
    <tag k="addr:housenumber" v="111"/>
    <tag k="addr:street" v="Woodbury Drive"/>
    <tag k="addr:state" v="VT"/>
    <tag k="ref:vcgi:esiteid" v="76782"/>
  </node>
  <node id="-634" visible="true" lat="44.42433203" lon="-71.76334756">
    <tag k="addr:housenumber" v="424"/>
    <tag k="addr:street" v="Leonard Hill Road"/>
    <tag k="addr:state" v="VT"/>
    <tag k="ref:vcgi:esiteid" v="76783"/>
  </node>
  <node id="-639" visible="true" lat="44.42420395" lon="-71.76052559">
    <tag k="addr:housenumber" v="339"/>
    <tag k="addr:street" v="Leonard Hill Road"/>
    <tag k="addr:state" v="VT"/>
    <tag k="ref:vcgi:esiteid" v="76788"/>
  </node>
  <node id="-640" visible="true" lat="44.42423962" lon="-71.75559848">
    <tag k="addr:housenumber" v="85"/>
    <tag k="addr:street" v="Woodbury Drive"/>
    <tag k="addr:state" v="VT"/>
    <tag k="ref:vcgi:esiteid" v="76789"/>
  </node>
  <node id="-641" visible="true" lat="44.42430232" lon="-71.7675167">
    <tag k="addr:housenumber" v="652"/>
    <tag k="addr:street" v="Leonard Hill Road"/>
    <tag k="addr:state" v="VT"/>
    <tag k="ref:vcgi:esiteid" v="76790"/>
  </node>
  <node id="-646" visible="true" lat="44.42350037" lon="-71.76774487">
    <tag k="addr:housenumber" v="669"/>
    <tag k="addr:street" v="Leonard Hill Road"/>
    <tag k="addr:state" v="VT"/>
    <tag k="ref:vcgi:esiteid" v="76795"/>
  </node>
  <node id="-675" visible="true" lat="44.41878127" lon="-71.76434326">
    <tag k="addr:housenumber" v="343"/>
    <tag k="addr:street" v="Hynes Road"/>
    <tag k="addr:state" v="VT"/>
    <tag k="ref:vcgi:esiteid" v="76825"/>
  </node>
  <node id="-684" visible="true" lat="44.41410408" lon="-71.75927596">
    <tag k="addr:housenumber" v="797"/>
    <tag k="addr:street" v="Cozy Nook Road"/>
    <tag k="addr:state" v="VT"/>
    <tag k="ref:vcgi:esiteid" v="76834"/>
  </node>
  <node id="-685" visible="true" lat="44.4132996" lon="-71.75965233">
    <tag k="addr:housenumber" v="809"/>
    <tag k="addr:street" v="Cozy Nook Road"/>
    <tag k="addr:state" v="VT"/>
    <tag k="ref:vcgi:esiteid" v="76835"/>
  </node>
  <node id="-690" visible="true" lat="44.41166687" lon="-71.7618103">
    <tag k="addr:housenumber" v="966"/>
    <tag k="addr:street" v="Cozy Nook Road"/>
    <tag k="addr:state" v="VT"/>
    <tag k="ref:vcgi:esiteid" v="76840"/>
  </node>
  <node id="-691" visible="true" lat="44.41164017" lon="-71.76130676">
    <tag k="addr:housenumber" v="969"/>
    <tag k="addr:street" v="Cozy Nook Road"/>
    <tag k="addr:state" v="VT"/>
    <tag k="ref:vcgi:esiteid" v="76841"/>
  </node>
  <node id="-692" visible="true" lat="44.41128198" lon="-71.76187189">
    <tag k="addr:housenumber" v="982"/>
    <tag k="addr:street" v="Cozy Nook Road"/>
    <tag k="addr:state" v="VT"/>
    <tag k="ref:vcgi:esiteid" v="76842"/>
  </node>
  <node id="-699" visible="true" lat="44.40819168" lon="-71.74092864">
    <tag k="addr:housenumber" v="300"/>
    <tag k="addr:street" v="Walker Pit Road"/>
    <tag k="addr:state" v="VT"/>
    <tag k="ref:vcgi:esiteid" v="76849"/>
  </node>
  <node id="-711" visible="true" lat="44.40564727" lon="-71.74209594">
    <tag k="addr:housenumber" v="350"/>
    <tag k="addr:street" v="Walker Pit Road"/>
    <tag k="addr:state" v="VT"/>
    <tag k="ref:vcgi:esiteid" v="76861"/>
  </node>
  <node id="-883" visible="true" lat="44.42500409" lon="-71.76459767">
    <tag k="addr:housenumber" v="456"/>
    <tag k="addr:street" v="Leonard Hill Road"/>
    <tag k="addr:state" v="VT"/>
    <tag k="ref:vcgi:esiteid" v="77034"/>
  </node>
  <node id="-887" visible="true" lat="44.41051535" lon="-71.74213061">
    <tag k="addr:housenumber" v="294"/>
    <tag k="addr:street" v="Walker Pit Road"/>
    <tag k="addr:state" v="VT"/>
    <tag k="ref:vcgi:esiteid" v="77038"/>
  </node>
  <node id="-890" visible="true" lat="44.42341881" lon="-71.76677565">
    <tag k="addr:housenumber" v="623"/>
    <tag k="addr:street" v="Leonard Hill Road"/>
    <tag k="addr:state" v="VT"/>
    <tag k="ref:vcgi:esiteid" v="77041"/>
  </node>
  <node id="-908" visible="true" lat="44.40953926" lon="-71.74519358">
    <tag k="addr:housenumber" v="374"/>
    <tag k="addr:street" v="Walker Pit Road"/>
    <tag k="addr:state" v="VT"/>
    <tag k="ref:vcgi:esiteid" v="77059"/>
  </node>
</osm>
