<?xml version="1.0" encoding="UTF-8"?>
<osm version="0.6" generator="JOSM">
  <node id="-222" visible="true" lat="44.07566036" lon="-72.26034603">
    <tag k="addr:city" v="Corinth"/>
    <tag k="addr:housenumber" v="206"/>
    <tag k="addr:street" v="Limlaw Road"/>
    <tag k="addr:state" v="VT"/>
    <tag k="ref:vcgi:esiteid" v="77123"/>
  </node>
  <node id="-223" visible="true" lat="44.07553767" lon="-72.25636583">
    <tag k="addr:city" v="Corinth"/>
    <tag k="addr:housenumber" v="10740"/>
    <tag k="addr:street" v="Vermont Route 25"/>
    <tag k="addr:state" v="VT"/>
    <tag k="ref:vcgi:esiteid" v="77124"/>
  </node>
  <node id="-227" visible="true" lat="44.07392729" lon="-72.25818395">
    <tag k="addr:city" v="Corinth"/>
    <tag k="addr:housenumber" v="225"/>
    <tag k="addr:street" v="Limlaw Road"/>
    <tag k="addr:state" v="VT"/>
    <tag k="ref:vcgi:esiteid" v="77128"/>
  </node>
  <node id="-228" visible="true" lat="44.0738174" lon="-72.25549375">
    <tag k="addr:city" v="Corinth"/>
    <tag k="addr:housenumber" v="83"/>
    <tag k="addr:street" v="Limlaw Road"/>
    <tag k="addr:state" v="VT"/>
    <tag k="ref:vcgi:esiteid" v="77129"/>
  </node>
  <node id="-240" visible="true" lat="44.07155704" lon="-72.24966473">
    <tag k="addr:city" v="Corinth"/>
    <tag k="addr:housenumber" v="10347"/>
    <tag k="addr:street" v="Vermont Route 25"/>
    <tag k="addr:state" v="VT"/>
    <tag k="ref:vcgi:esiteid" v="77141"/>
  </node>
  <node id="-242" visible="true" lat="44.07121573" lon="-72.24919141">
    <tag k="addr:city" v="Corinth"/>
    <tag k="addr:housenumber" v="10275"/>
    <tag k="addr:street" v="Vermont Route 25"/>
    <tag k="addr:state" v="VT"/>
    <tag k="ref:vcgi:esiteid" v="77143"/>
  </node>
  <node id="-245" visible="true" lat="44.07083625" lon="-72.2496453">
    <tag k="addr:city" v="Corinth"/>
    <tag k="addr:housenumber" v="10349"/>
    <tag k="addr:street" v="Vermont Route 25"/>
    <tag k="addr:state" v="VT"/>
    <tag k="ref:vcgi:esiteid" v="77146"/>
  </node>
  <node id="-247" visible="true" lat="44.07068423" lon="-72.24865896">
    <tag k="addr:city" v="Corinth"/>
    <tag k="addr:housenumber" v="10263"/>
    <tag k="addr:street" v="Vermont Route 25"/>
    <tag k="addr:state" v="VT"/>
    <tag k="ref:vcgi:esiteid" v="77148"/>
  </node>
  <node id="-250" visible="true" lat="44.07017637" lon="-72.24738456">
    <tag k="addr:city" v="Corinth"/>
    <tag k="addr:housenumber" v="10152"/>
    <tag k="addr:street" v="Vermont Route 25"/>
    <tag k="addr:state" v="VT"/>
    <tag k="ref:vcgi:esiteid" v="77151"/>
  </node>
  <node id="-254" visible="true" lat="44.06931997" lon="-72.24628189">
    <tag k="addr:city" v="Corinth"/>
    <tag k="addr:housenumber" v="10086"/>
    <tag k="addr:street" v="Vermont Route 25"/>
    <tag k="addr:state" v="VT"/>
    <tag k="ref:vcgi:esiteid" v="77155"/>
  </node>
  <node id="-256" visible="true" lat="44.06948897" lon="-72.24617321">
    <tag k="addr:city" v="Corinth"/>
    <tag k="addr:housenumber" v="10068"/>
    <tag k="addr:street" v="Vermont Route 25"/>
    <tag k="addr:state" v="VT"/>
    <tag k="ref:vcgi:esiteid" v="77157"/>
  </node>
  <node id="-262" visible="true" lat="44.06755094" lon="-72.24663822">
    <tag k="addr:city" v="Corinth"/>
    <tag k="addr:housenumber" v="10057"/>
    <tag k="addr:street" v="Vermont Route 25"/>
    <tag k="addr:state" v="VT"/>
    <tag k="ref:vcgi:esiteid" v="77163"/>
  </node>
  <node id="-267" visible="true" lat="44.06751394" lon="-72.24697004">
    <tag k="addr:city" v="Corinth"/>
    <tag k="addr:housenumber" v="9935"/>
    <tag k="addr:street" v="Vermont Route 25"/>
    <tag k="addr:state" v="VT"/>
    <tag k="ref:vcgi:esiteid" v="77168"/>
  </node>
  <node id="-272" visible="true" lat="44.06716344" lon="-72.24506343">
    <tag k="addr:city" v="Corinth"/>
    <tag k="addr:housenumber" v="9865"/>
    <tag k="addr:street" v="Vermont Route 25"/>
    <tag k="addr:state" v="VT"/>
    <tag k="ref:vcgi:esiteid" v="77173"/>
  </node>
  <node id="-280" visible="true" lat="44.06628402" lon="-72.24408301">
    <tag k="addr:city" v="Corinth"/>
    <tag k="addr:housenumber" v="9809"/>
    <tag k="addr:street" v="Vermont Route 25"/>
    <tag k="addr:state" v="VT"/>
    <tag k="ref:vcgi:esiteid" v="77181"/>
  </node>
  <node id="-285" visible="true" lat="44.06539558" lon="-72.24321611">
    <tag k="addr:city" v="Corinth"/>
    <tag k="addr:housenumber" v="9783"/>
    <tag k="addr:street" v="Vermont Route 25"/>
    <tag k="addr:state" v="VT"/>
    <tag k="ref:vcgi:esiteid" v="77186"/>
  </node>
  <node id="-290" visible="true" lat="44.06488617" lon="-72.24281194">
    <tag k="addr:city" v="Corinth"/>
    <tag k="addr:housenumber" v="9751"/>
    <tag k="addr:street" v="Vermont Route 25"/>
    <tag k="addr:state" v="VT"/>
    <tag k="ref:vcgi:esiteid" v="77191"/>
  </node>
  <node id="-295" visible="true" lat="44.06448412" lon="-72.24181987">
    <tag k="addr:city" v="Corinth"/>
    <tag k="addr:housenumber" v="9643"/>
    <tag k="addr:street" v="Vermont Route 25"/>
    <tag k="addr:state" v="VT"/>
    <tag k="ref:vcgi:esiteid" v="77196"/>
  </node>
  <node id="-302" visible="true" lat="44.06443591" lon="-72.24052335">
    <tag k="addr:city" v="Corinth"/>
    <tag k="addr:housenumber" v="9614"/>
    <tag k="addr:street" v="Vermont Route 25"/>
    <tag k="addr:state" v="VT"/>
    <tag k="ref:vcgi:esiteid" v="77203"/>
  </node>
  <node id="-308" visible="true" lat="44.06363144" lon="-72.24078822">
    <tag k="addr:city" v="Corinth"/>
    <tag k="addr:housenumber" v="9641"/>
    <tag k="addr:street" v="Vermont Route 25"/>
    <tag k="addr:state" v="VT"/>
    <tag k="ref:vcgi:esiteid" v="77209"/>
  </node>
  <node id="-312" visible="true" lat="44.06346015" lon="-72.19957569">
    <tag k="addr:city" v="Corinth"/>
    <tag k="addr:housenumber" v="1716"/>
    <tag k="addr:street" v="Page Hill Road"/>
    <tag k="addr:state" v="VT"/>
    <tag k="ref:vcgi:esiteid" v="77214"/>
  </node>
  <node id="-325" visible="true" lat="44.06220287" lon="-72.23777308">
    <tag k="addr:city" v="Corinth"/>
    <tag k="addr:housenumber" v="9435"/>
    <tag k="addr:street" v="Vermont Route 25"/>
    <tag k="addr:state" v="VT"/>
    <tag k="ref:vcgi:esiteid" v="77227"/>
  </node>
  <node id="-333" visible="true" lat="44.06168044" lon="-72.25017021">
    <tag k="addr:city" v="Corinth"/>
    <tag k="addr:housenumber" v="589"/>
    <tag k="addr:street" v="Miller Road"/>
    <tag k="addr:state" v="VT"/>
    <tag k="ref:vcgi:esiteid" v="77235"/>
  </node>
  <node id="-336" visible="true" lat="44.06146871" lon="-72.23604801">
    <tag k="addr:city" v="Corinth"/>
    <tag k="addr:housenumber" v="9314"/>
    <tag k="addr:street" v="Vermont Route 25"/>
    <tag k="addr:state" v="VT"/>
    <tag k="ref:vcgi:esiteid" v="77238"/>
  </node>
  <node id="-337" visible="true" lat="44.06128489" lon="-72.23655727">
    <tag k="addr:city" v="Corinth"/>
    <tag k="addr:housenumber" v="9345"/>
    <tag k="addr:street" v="Vermont Route 25"/>
    <tag k="addr:state" v="VT"/>
    <tag k="ref:vcgi:esiteid" v="77239"/>
  </node>
  <node id="-339" visible="true" lat="44.06127975" lon="-72.2339721">
    <tag k="addr:city" v="Corinth"/>
    <tag k="addr:housenumber" v="9208"/>
    <tag k="addr:street" v="Vermont Route 25"/>
    <tag k="addr:state" v="VT"/>
    <tag k="ref:vcgi:esiteid" v="77241"/>
  </node>
  <node id="-343" visible="true" lat="44.060975" lon="-72.23347524">
    <tag k="addr:city" v="Corinth"/>
    <tag k="addr:housenumber" v="9186"/>
    <tag k="addr:street" v="Vermont Route 25"/>
    <tag k="addr:state" v="VT"/>
    <tag k="ref:vcgi:esiteid" v="77245"/>
  </node>
  <node id="-345" visible="true" lat="44.06061268" lon="-72.23444267">
    <tag k="addr:city" v="Corinth"/>
    <tag k="addr:housenumber" v="9203"/>
    <tag k="addr:street" v="Vermont Route 25"/>
    <tag k="addr:state" v="VT"/>
    <tag k="ref:vcgi:esiteid" v="77247"/>
  </node>
  <node id="-346" visible="true" lat="44.06032716" lon="-72.23361068">
    <tag k="addr:city" v="Corinth"/>
    <tag k="addr:housenumber" v="9185"/>
    <tag k="addr:street" v="Vermont Route 25"/>
    <tag k="addr:state" v="VT"/>
    <tag k="ref:vcgi:esiteid" v="77248"/>
  </node>
  <node id="-347" visible="true" lat="44.06053545" lon="-72.25004487">
    <tag k="addr:city" v="Corinth"/>
    <tag k="addr:housenumber" v="486"/>
    <tag k="addr:street" v="Miller Road"/>
    <tag k="addr:state" v="VT"/>
    <tag k="ref:vcgi:esiteid" v="77249"/>
  </node>
  <node id="-350" visible="true" lat="44.05999776" lon="-72.24806173">
    <tag k="addr:city" v="Corinth"/>
    <tag k="addr:housenumber" v="75"/>
    <tag k="addr:street" v="Hunt Circle"/>
    <tag k="addr:state" v="VT"/>
    <tag k="ref:vcgi:esiteid" v="77252"/>
  </node>
  <node id="-353" visible="true" lat="44.05969513" lon="-72.24936107">
    <tag k="addr:city" v="Corinth"/>
    <tag k="addr:housenumber" v="440"/>
    <tag k="addr:street" v="Miller Road"/>
    <tag k="addr:state" v="VT"/>
    <tag k="ref:vcgi:esiteid" v="77255"/>
  </node>
  <node id="-354" visible="true" lat="44.05956921" lon="-72.24680253">
    <tag k="addr:city" v="Corinth"/>
    <tag k="addr:housenumber" v="22"/>
    <tag k="addr:street" v="Hunt Circle"/>
    <tag k="addr:state" v="VT"/>
    <tag k="ref:vcgi:esiteid" v="77256"/>
  </node>
  <node id="-360" visible="true" lat="44.05895054" lon="-72.24728067">
    <tag k="addr:city" v="Corinth"/>
    <tag k="addr:housenumber" v="20"/>
    <tag k="addr:street" v="Hunt Circle"/>
    <tag k="addr:state" v="VT"/>
    <tag k="ref:vcgi:esiteid" v="77262"/>
  </node>
  <node id="-361" visible="true" lat="44.05886279" lon="-72.24800255">
    <tag k="addr:city" v="Corinth"/>
    <tag k="addr:housenumber" v="390"/>
    <tag k="addr:street" v="Miller Road"/>
    <tag k="addr:state" v="VT"/>
    <tag k="ref:vcgi:esiteid" v="77263"/>
  </node>
  <node id="-369" visible="true" lat="44.057987" lon="-72.24822424">
    <tag k="addr:city" v="Corinth"/>
    <tag k="addr:housenumber" v="328"/>
    <tag k="addr:street" v="Miller Road"/>
    <tag k="addr:state" v="VT"/>
    <tag k="ref:vcgi:esiteid" v="77271"/>
  </node>
  <node id="-374" visible="true" lat="44.0577369" lon="-72.24785701">
    <tag k="addr:city" v="Corinth"/>
    <tag k="addr:housenumber" v="304"/>
    <tag k="addr:street" v="Miller Road"/>
    <tag k="addr:state" v="VT"/>
    <tag k="ref:vcgi:esiteid" v="77276"/>
  </node>
  <node id="-392" visible="true" lat="44.05675197" lon="-72.24656532">
    <tag k="addr:city" v="Corinth"/>
    <tag k="addr:housenumber" v="194"/>
    <tag k="addr:street" v="Miller Road"/>
    <tag k="addr:state" v="VT"/>
    <tag k="ref:vcgi:esiteid" v="77294"/>
  </node>
  <node id="-407" visible="true" lat="44.0557649" lon="-72.24540942">
    <tag k="addr:city" v="Corinth"/>
    <tag k="addr:housenumber" v="88"/>
    <tag k="addr:street" v="Miller Road"/>
    <tag k="addr:state" v="VT"/>
    <tag k="ref:vcgi:esiteid" v="77309"/>
  </node>
  <node id="-802" visible="true" lat="44.00316366" lon="-72.30601931">
    <tag k="addr:city" v="Corinth"/>
    <tag k="addr:housenumber" v="2940"/>
    <tag k="addr:street" v="Chelsea Road"/>
    <tag k="addr:state" v="VT"/>
    <tag k="ref:vcgi:esiteid" v="77723"/>
  </node>
  <node id="-806" visible="true" lat="44.002903" lon="-72.27799193">
    <tag k="addr:city" v="Corinth"/>
    <tag k="addr:housenumber" v="1234"/>
    <tag k="addr:street" v="Chelsea Road"/>
    <tag k="addr:state" v="VT"/>
    <tag k="ref:vcgi:esiteid" v="77727"/>
  </node>
  <node id="-816" visible="true" lat="44.00165348" lon="-72.31217074">
    <tag k="addr:city" v="Corinth"/>
    <tag k="addr:housenumber" v="20"/>
    <tag k="addr:street" v="Tullar Road"/>
    <tag k="addr:state" v="VT"/>
    <tag k="ref:vcgi:esiteid" v="77738"/>
  </node>
  <node id="-817" visible="true" lat="44.0015915" lon="-72.31404622">
    <tag k="addr:city" v="Corinth"/>
    <tag k="addr:housenumber" v="3401"/>
    <tag k="addr:street" v="Chelsea Road"/>
    <tag k="addr:state" v="VT"/>
    <tag k="ref:vcgi:esiteid" v="77739"/>
  </node>
  <node id="-821" visible="true" lat="44.00149921" lon="-72.3125258">
    <tag k="addr:city" v="Corinth"/>
    <tag k="addr:housenumber" v="3345"/>
    <tag k="addr:street" v="Chelsea Road"/>
    <tag k="addr:state" v="VT"/>
    <tag k="ref:vcgi:esiteid" v="77743"/>
  </node>
  <node id="-828" visible="true" lat="43.99918893" lon="-72.31131306">
    <tag k="addr:city" v="Corinth"/>
    <tag k="addr:housenumber" v="278"/>
    <tag k="addr:street" v="Tullar Road"/>
    <tag k="addr:state" v="VT"/>
    <tag k="ref:vcgi:esiteid" v="77750"/>
  </node>
  <node id="-832" visible="true" lat="43.9981429" lon="-72.31105007">
    <tag k="addr:city" v="Corinth"/>
    <tag k="addr:housenumber" v="293"/>
    <tag k="addr:street" v="Tullar Road"/>
    <tag k="addr:state" v="VT"/>
    <tag k="ref:vcgi:esiteid" v="77754"/>
  </node>
  <node id="-897" visible="true" lat="43.98979518" lon="-72.28956028">
    <tag k="addr:city" v="Corinth"/>
    <tag k="addr:housenumber" v="2298"/>
    <tag k="addr:street" v="Eagle Hollow Road"/>
    <tag k="addr:state" v="VT"/>
    <tag k="ref:vcgi:esiteid" v="77824"/>
  </node>
  <node id="-932" visible="true" lat="44.06564701" lon="-72.24219528">
    <tag k="addr:city" v="Corinth"/>
    <tag k="addr:housenumber" v="9652"/>
    <tag k="addr:street" v="Vermont Route 25"/>
    <tag k="addr:state" v="VT"/>
    <tag k="ref:vcgi:esiteid" v="77859"/>
  </node>
  <node id="-933" visible="true" lat="44.06081984" lon="-72.23593498">
    <tag k="addr:city" v="Corinth"/>
    <tag k="addr:housenumber" v="9243"/>
    <tag k="addr:street" v="Vermont Route 25"/>
    <tag k="addr:state" v="VT"/>
    <tag k="ref:vcgi:esiteid" v="77860"/>
  </node>
  <node id="-958" visible="true" lat="44.06303255" lon="-72.20089016">
    <tag k="addr:city" v="Corinth"/>
    <tag k="addr:housenumber" v="1676"/>
    <tag k="addr:street" v="Page Hill Road"/>
    <tag k="addr:state" v="VT"/>
    <tag k="ref:vcgi:esiteid" v="77887"/>
  </node>
  <node id="-973" visible="true" lat="44.06030472" lon="-72.24644215">
    <tag k="addr:city" v="Corinth"/>
    <tag k="addr:housenumber" v="80"/>
    <tag k="addr:street" v="Hunt Circle"/>
    <tag k="addr:state" v="VT"/>
    <tag k="ref:vcgi:esiteid" v="77902"/>
  </node>
  <node id="-982" visible="true" lat="44.07522125" lon="-72.25518995">
    <tag k="addr:city" v="Corinth"/>
    <tag k="addr:housenumber" v="10670"/>
    <tag k="addr:street" v="Vermont Route 25"/>
    <tag k="addr:state" v="VT"/>
    <tag k="ref:vcgi:esiteid" v="77912"/>
  </node>
  <node id="-987" visible="true" lat="43.99734089" lon="-72.31248261">
    <tag k="addr:city" v="Corinth"/>
    <tag k="addr:housenumber" v="390"/>
    <tag k="addr:street" v="Tullar Road"/>
    <tag k="addr:state" v="VT"/>
    <tag k="ref:vcgi:esiteid" v="77917"/>
  </node>
  <node id="-990" visible="true" lat="44.06430854" lon="-72.24037627">
    <tag k="addr:city" v="Corinth"/>
    <tag k="addr:housenumber" v="9612"/>
    <tag k="addr:street" v="Vermont Route 25"/>
    <tag k="addr:state" v="VT"/>
    <tag k="ref:vcgi:esiteid" v="77921"/>
  </node>
  <node id="-993" visible="true" lat="43.99014563" lon="-72.29022576">
    <tag k="addr:city" v="Corinth"/>
    <tag k="addr:housenumber" v="2290"/>
    <tag k="addr:street" v="Eagle Hollow Road"/>
    <tag k="addr:state" v="VT"/>
    <tag k="ref:vcgi:esiteid" v="77924"/>
  </node>
  <node id="-1008" visible="true" lat="44.06016418" lon="-72.24742507">
    <tag k="addr:city" v="Corinth"/>
    <tag k="addr:housenumber" v="86"/>
    <tag k="addr:street" v="Hunt Circle"/>
    <tag k="addr:state" v="VT"/>
    <tag k="ref:vcgi:esiteid" v="312162"/>
  </node>
  <node id="-1014" visible="true" lat="44.07460341" lon="-72.2602322">
    <tag k="addr:city" v="Corinth"/>
    <tag k="addr:housenumber" v="36"/>
    <tag k="addr:street" v="Appleton Drive"/>
    <tag k="addr:state" v="VT"/>
    <tag k="ref:vcgi:esiteid" v="315185"/>
  </node>
  <node id="-1049" visible="true" lat="44.00920865" lon="-72.34824719">
    <tag k="addr:city" v="Corinth"/>
    <tag k="addr:housenumber" v="386"/>
    <tag k="addr:street" v="Cemetery Road"/>
    <tag k="addr:state" v="VT"/>
    <tag k="ref:vcgi:esiteid" v="339390"/>
  </node>
  <node id="-1052" visible="true" lat="44.0028165" lon="-72.27725248">
    <tag k="addr:city" v="Corinth"/>
    <tag k="addr:housenumber" v="1211"/>
    <tag k="addr:street" v="Chelsea Road"/>
    <tag k="addr:state" v="VT"/>
    <tag k="ref:vcgi:esiteid" v="339393"/>
  </node>
  <node id="-1053" visible="true" lat="44.02333351" lon="-72.27399184">
    <tag k="addr:city" v="Corinth"/>
    <tag k="addr:housenumber" v="918"/>
    <tag k="addr:street" v="Center Road"/>
    <tag k="addr:state" v="VT"/>
    <tag k="ref:vcgi:esiteid" v="339394"/>
  </node>
  <node id="-1055" visible="true" lat="44.05893017" lon="-72.22434672">
    <tag k="addr:city" v="Corinth"/>
    <tag k="addr:housenumber" v="8"/>
    <tag k="addr:street" v="Tillotson Lane"/>
    <tag k="addr:state" v="VT"/>
    <tag k="ref:vcgi:esiteid" v="339396"/>
  </node>
  <node id="-1056" visible="true" lat="44.06071739" lon="-72.22146535">
    <tag k="addr:city" v="Corinth"/>
    <tag k="addr:housenumber" v="89"/>
    <tag k="addr:street" v="Short Street"/>
    <tag k="addr:state" v="VT"/>
    <tag k="ref:vcgi:esiteid" v="339397"/>
  </node>
  <node id="-1077" visible="true" lat="43.99567534" lon="-72.31302131">
    <tag k="addr:city" v="Corinth"/>
    <tag k="addr:housenumber" v="472"/>
    <tag k="addr:street" v="Tullar Road"/>
    <tag k="addr:state" v="VT"/>
    <tag k="ref:vcgi:esiteid" v="342952"/>
  </node>
  <node id="-1607" visible="true" lat="44.06571733" lon="-72.24361153">
    <tag k="addr:city" v="Corinth"/>
    <tag k="addr:housenumber" v="9785"/>
    <tag k="addr:street" v="Vermont Route 25"/>
    <tag k="addr:state" v="VT"/>
    <tag k="ref:vcgi:esiteid" v="614385"/>
  </node>
  <node id="-1779" visible="true" lat="44.06136931" lon="-72.24756887">
    <tag k="addr:city" v="Corinth"/>
    <tag k="addr:housenumber" v="458"/>
    <tag k="addr:street" v="Miller Road"/>
    <tag k="addr:state" v="VT"/>
    <tag k="ref:vcgi:esiteid" v="756044"/>
  </node>
  <node id="-1781" visible="true" lat="44.07480476" lon="-72.25803655">
    <tag k="addr:city" v="Corinth"/>
    <tag k="addr:housenumber" v="176"/>
    <tag k="addr:street" v="Limlaw Road"/>
    <tag k="addr:state" v="VT"/>
    <tag k="ref:vcgi:esiteid" v="757058"/>
  </node>
</osm>
