<?xml version="1.0" encoding="UTF-8"?>
<osm version="0.6" generator="JOSM" upload="false">
  <node id="-117" visible="true" lat="44.00858576" lon="-73.18951985">
    <!-- conflict: "49 Vermont Route 125, Cornwall, VT" No match in OSM, but a different address exists <5m away: "49 VT Route 125, Middlebury, VT" -->
    <tag k="addr:city" v="Cornwall"/>
    <tag k="addr:housenumber" v="49"/>
    <tag k="addr:street" v="Vermont Route 125"/>
    <tag k="addr:state" v="VT"/>
    <tag k="ref:vcgi:esiteid" v="77947"/>
  </node>
  <node id="-166" visible="true" lat="43.99343146" lon="-73.20743338">
    <!-- conflict: "825 Cider Mill Road, Cornwall, VT" No match in OSM, but a different address exists <5m away: " Cider Mill Road, Cornwall, VT" -->
    <tag k="addr:city" v="Cornwall"/>
    <tag k="addr:housenumber" v="825"/>
    <tag k="addr:street" v="Cider Mill Road"/>
    <tag k="addr:state" v="VT"/>
    <tag k="ref:vcgi:esiteid" v="77997"/>
  </node>
  <node id="-540" visible="true" lat="43.90803903" lon="-73.20795881">
    <!-- conflict: "6333 Vermont Route 30, Cornwall, VT" No match in OSM, but a different address exists <5m away: "6333 Vt Route 30, Cornwall, VT" -->
    <tag k="addr:city" v="Cornwall"/>
    <tag k="addr:housenumber" v="6333"/>
    <tag k="addr:street" v="Vermont Route 30"/>
    <tag k="addr:state" v="VT"/>
    <tag k="ref:vcgi:esiteid" v="78381"/>
  </node>
  <node id="-602" visible="true" lat="44.01664896" lon="-73.21184212">
    <!-- conflict: "655 James Road, Cornwall, VT" Fuzzy match to "655 James Road, Weybridge, VT" -->
    <tag k="addr:city" v="Cornwall"/>
    <tag k="addr:housenumber" v="655"/>
    <tag k="addr:street" v="James Road"/>
    <tag k="addr:state" v="VT"/>
    <tag k="ref:vcgi:esiteid" v="285555"/>
  </node>
</osm>
