<?xml version="1.0" encoding="UTF-8"?>
<osm version="0.6" generator="JOSM" upload="false">
  <node id="-164" visible="true" lat="44.91543892" lon="-72.21523929">
    <tag k="addr:housenumber" v="108"/>
    <tag k="addr:street" v="Billings Point"/>
    <tag k="addr:state" v="VT"/>
    <tag k="ref:vcgi:esiteid" v="78495"/>
  </node>
  <node id="-253" visible="true" lat="44.89548343" lon="-72.18528602">
    <tag k="addr:housenumber" v="3552"/>
    <tag k="addr:street" v="Glen Road"/>
    <tag k="addr:state" v="VT"/>
    <tag k="ref:vcgi:esiteid" v="78586"/>
  </node>
  <node id="-256" visible="true" lat="44.89384023" lon="-72.18204822">
    <tag k="addr:housenumber" v="3715"/>
    <tag k="addr:street" v="Glen Road"/>
    <tag k="addr:state" v="VT"/>
    <tag k="ref:vcgi:esiteid" v="78590"/>
  </node>
  <node id="-259" visible="true" lat="44.89394171" lon="-72.18102631">
    <tag k="addr:housenumber" v="3717"/>
    <tag k="addr:street" v="Glen Road"/>
    <tag k="addr:state" v="VT"/>
    <tag k="ref:vcgi:esiteid" v="78593"/>
  </node>
  <node id="-262" visible="true" lat="44.89245606" lon="-72.18263688">
    <tag k="addr:housenumber" v="3815"/>
    <tag k="addr:street" v="Glen Road"/>
    <tag k="addr:state" v="VT"/>
    <tag k="ref:vcgi:esiteid" v="78596"/>
  </node>
  <node id="-288" visible="true" lat="44.88541264" lon="-72.17992526">
    <tag k="addr:housenumber" v="4495"/>
    <tag k="addr:street" v="Glen Road"/>
    <tag k="addr:state" v="VT"/>
    <tag k="ref:vcgi:esiteid" v="78622"/>
  </node>
  <node id="-303" visible="true" lat="44.87988275" lon="-72.17593806">
    <tag k="addr:housenumber" v="54"/>
    <tag k="addr:street" v="Briere Road"/>
    <tag k="addr:state" v="VT"/>
    <tag k="ref:vcgi:esiteid" v="78637"/>
  </node>
  <node id="-362" visible="true" lat="44.86690742" lon="-72.26225839">
    <!-- match: "57 Main Street, , VT"  ignoring missing state when matching to "57 Main Street, , " -->
    <tag k="addr:housenumber" v="57"/>
    <tag k="addr:street" v="Main Street"/>
    <tag k="addr:state" v="VT"/>
    <tag k="ref:vcgi:esiteid" v="78698"/>
  </node>
  <node id="-370" visible="true" lat="44.86631324" lon="-72.26395286">
    <!-- match: "177 Main Street, , VT"  ignoring missing state when matching to "177 Main Street, , " -->
    <tag k="addr:housenumber" v="177"/>
    <tag k="addr:street" v="Main Street"/>
    <tag k="addr:state" v="VT"/>
    <tag k="ref:vcgi:esiteid" v="78709"/>
  </node>
  <node id="-379" visible="true" lat="44.86530563" lon="-72.18212062">
    <tag k="addr:housenumber" v="4209"/>
    <tag k="addr:street" v="Coventry Station Road"/>
    <tag k="addr:state" v="VT"/>
    <tag k="ref:vcgi:esiteid" v="78721"/>
  </node>
  <node id="-382" visible="true" lat="44.86521263" lon="-72.18769447">
    <tag k="addr:housenumber" v="3989"/>
    <tag k="addr:street" v="Coventry Station Road"/>
    <tag k="addr:state" v="VT"/>
    <tag k="ref:vcgi:esiteid" v="78724"/>
  </node>
  <node id="-408" visible="true" lat="44.86253526" lon="-72.26488017">
    <tag k="addr:housenumber" v="348"/>
    <tag k="addr:street" v="U.S. Route 5"/>
    <tag k="addr:state" v="VT"/>
    <tag k="ref:vcgi:esiteid" v="78753"/>
  </node>
  <node id="-426" visible="true" lat="44.85784723" lon="-72.19421427">
    <tag k="addr:housenumber" v="452"/>
    <tag k="addr:street" v="Messier Farm Road"/>
    <tag k="addr:state" v="VT"/>
    <tag k="ref:vcgi:esiteid" v="78772"/>
  </node>
  <node id="-490" visible="true" lat="44.85934466" lon="-72.1938704">
    <tag k="addr:housenumber" v="360"/>
    <tag k="addr:street" v="Messier Farm Road"/>
    <tag k="addr:state" v="VT"/>
    <tag k="ref:vcgi:esiteid" v="78837"/>
  </node>
  <node id="-500" visible="true" lat="44.88456911" lon="-72.17512505">
    <tag k="addr:housenumber" v="3647"/>
    <tag k="addr:street" v="Pine Hill Road"/>
    <tag k="addr:state" v="VT"/>
    <tag k="ref:vcgi:esiteid" v="78848"/>
  </node>
  <node id="-501" visible="true" lat="44.88478298" lon="-72.17520102">
    <tag k="addr:housenumber" v="3649"/>
    <tag k="addr:street" v="Pine Hill Road"/>
    <tag k="addr:state" v="VT"/>
    <tag k="ref:vcgi:esiteid" v="78849"/>
  </node>
  <node id="-502" visible="true" lat="44.88107978" lon="-72.17736571">
    <tag k="addr:housenumber" v="3868"/>
    <tag k="addr:street" v="Pine Hill Road"/>
    <tag k="addr:state" v="VT"/>
    <tag k="ref:vcgi:esiteid" v="78850"/>
  </node>
  <node id="-503" visible="true" lat="44.87858835" lon="-72.17823844">
    <tag k="addr:housenumber" v="4092"/>
    <tag k="addr:street" v="Pine Hill Road"/>
    <tag k="addr:state" v="VT"/>
    <tag k="ref:vcgi:esiteid" v="78851"/>
  </node>
  <node id="-505" visible="true" lat="44.87492279" lon="-72.18082156">
    <tag k="addr:housenumber" v="4354"/>
    <tag k="addr:street" v="Pine Hill Road"/>
    <tag k="addr:state" v="VT"/>
    <tag k="ref:vcgi:esiteid" v="78853"/>
  </node>
  <node id="-506" visible="true" lat="44.87363708" lon="-72.17869863">
    <tag k="addr:housenumber" v="4447"/>
    <tag k="addr:street" v="Pine Hill Road"/>
    <tag k="addr:state" v="VT"/>
    <tag k="ref:vcgi:esiteid" v="78856"/>
  </node>
  <node id="-507" visible="true" lat="44.87340078" lon="-72.180044">
    <tag k="addr:housenumber" v="4452"/>
    <tag k="addr:street" v="Pine Hill Road"/>
    <tag k="addr:state" v="VT"/>
    <tag k="ref:vcgi:esiteid" v="78857"/>
  </node>
  <node id="-508" visible="true" lat="44.87257428" lon="-72.17906044">
    <tag k="addr:housenumber" v="4517"/>
    <tag k="addr:street" v="Pine Hill Road"/>
    <tag k="addr:state" v="VT"/>
    <tag k="ref:vcgi:esiteid" v="78858"/>
  </node>
  <node id="-509" visible="true" lat="44.86714164" lon="-72.18444989">
    <tag k="addr:housenumber" v="4955"/>
    <tag k="addr:street" v="Pine Hill Road"/>
    <tag k="addr:state" v="VT"/>
    <tag k="ref:vcgi:esiteid" v="78859"/>
  </node>
  <node id="-510" visible="true" lat="44.87730151" lon="-72.18001597">
    <tag k="addr:housenumber" v="4154"/>
    <tag k="addr:street" v="Pine Hill Road"/>
    <tag k="addr:state" v="VT"/>
    <tag k="ref:vcgi:esiteid" v="78860"/>
  </node>
  <node id="-561" visible="true" lat="44.85713777" lon="-72.19366429">
    <tag k="addr:housenumber" v="485"/>
    <tag k="addr:street" v="Messier Farm Road"/>
    <tag k="addr:state" v="VT"/>
    <tag k="ref:vcgi:esiteid" v="338604"/>
  </node>
  <node id="-568" visible="true" lat="44.86614818" lon="-72.18646615">
    <tag k="addr:housenumber" v="5056"/>
    <tag k="addr:street" v="Pine Hill Road"/>
    <tag k="addr:state" v="VT"/>
    <tag k="ref:vcgi:esiteid" v="340654"/>
  </node>
  <node id="-597" visible="true" lat="44.8582982" lon="-72.19395089">
    <tag k="addr:housenumber" v="432"/>
    <tag k="addr:street" v="Messier Farm Road"/>
    <tag k="addr:state" v="VT"/>
    <tag k="ref:vcgi:esiteid" v="611183"/>
  </node>
  <node id="-598" visible="true" lat="44.85741114" lon="-72.19344677">
    <tag k="addr:housenumber" v="473"/>
    <tag k="addr:street" v="Messier Farm Road"/>
    <tag k="addr:state" v="VT"/>
    <tag k="ref:vcgi:esiteid" v="611184"/>
  </node>
  <node id="-613" visible="true" lat="44.86575649" lon="-72.19115554">
    <tag k="addr:housenumber" v="3821"/>
    <tag k="addr:street" v="Coventry Station Road"/>
    <tag k="addr:state" v="VT"/>
    <tag k="ref:vcgi:esiteid" v="611199"/>
  </node>
  <node id="-619" visible="true" lat="44.8689748" lon="-72.18423646">
    <tag k="addr:housenumber" v="4850"/>
    <tag k="addr:street" v="Pine Hill Road"/>
    <tag k="addr:state" v="VT"/>
    <tag k="ref:vcgi:esiteid" v="611246"/>
  </node>
  <node id="-620" visible="true" lat="44.87073423" lon="-72.18163026">
    <tag k="addr:housenumber" v="4630"/>
    <tag k="addr:street" v="Pine Hill Road"/>
    <tag k="addr:state" v="VT"/>
    <tag k="ref:vcgi:esiteid" v="611247"/>
  </node>
  <node id="-621" visible="true" lat="44.8710436" lon="-72.18157331">
    <tag k="addr:housenumber" v="4628"/>
    <tag k="addr:street" v="Pine Hill Road"/>
    <tag k="addr:state" v="VT"/>
    <tag k="ref:vcgi:esiteid" v="611248"/>
  </node>
  <node id="-622" visible="true" lat="44.87612401" lon="-72.18138322">
    <tag k="addr:housenumber" v="4328"/>
    <tag k="addr:street" v="Pine Hill Road"/>
    <tag k="addr:state" v="VT"/>
    <tag k="ref:vcgi:esiteid" v="611249"/>
  </node>
  <node id="-625" visible="true" lat="44.88098582" lon="-72.17334491">
    <tag k="addr:housenumber" v="3873"/>
    <tag k="addr:street" v="Pine Hill Road"/>
    <tag k="addr:state" v="VT"/>
    <tag k="ref:vcgi:esiteid" v="611252"/>
  </node>
  <node id="-631" visible="true" lat="44.89585133" lon="-72.18566019">
    <tag k="addr:housenumber" v="3514"/>
    <tag k="addr:street" v="Glen Road"/>
    <tag k="addr:state" v="VT"/>
    <tag k="ref:vcgi:esiteid" v="611258"/>
  </node>
  <node id="-705" visible="true" lat="44.86384202" lon="-72.19587191">
    <tag k="addr:housenumber" v="3788"/>
    <tag k="addr:street" v="Coventry Station Road"/>
    <tag k="addr:state" v="VT"/>
    <tag k="ref:vcgi:esiteid" v="753499"/>
  </node>
  <node id="-715" visible="true" lat="44.89292566" lon="-72.18091556">
    <tag k="addr:housenumber" v="3759"/>
    <tag k="addr:street" v="Glen Road"/>
    <tag k="addr:state" v="VT"/>
    <tag k="ref:vcgi:esiteid" v="755901"/>
  </node>
  <node id="-754" visible="true" lat="44.87632991" lon="-72.17670429">
    <tag k="addr:housenumber" v="4215"/>
    <tag k="addr:street" v="Pine Hill Road"/>
    <tag k="addr:state" v="VT"/>
    <tag k="ref:vcgi:esiteid" v="800004"/>
  </node>
</osm>
