<?xml version="1.0" encoding="UTF-8"?>
<osm version="0.6" generator="JOSM">
  <node id="-100" visible="true" lat="44.68168442" lon="-72.36180358">
    <tag k="addr:housenumber" v="55"/>
    <tag k="addr:street" v="Hilltop Cabin Drive"/>
    <tag k="addr:state" v="VT"/>
    <tag k="ref:vcgi:esiteid" v="205"/>
  </node>
  <node id="-101" visible="true" lat="44.68148906" lon="-72.3615147">
    <tag k="addr:housenumber" v="64"/>
    <tag k="addr:street" v="Hilltop Cabin Drive"/>
    <tag k="addr:state" v="VT"/>
    <tag k="ref:vcgi:esiteid" v="206"/>
  </node>
  <node id="-102" visible="true" lat="44.68150595" lon="-72.36189411">
    <tag k="addr:housenumber" v="49"/>
    <tag k="addr:street" v="Hilltop Cabin Drive"/>
    <tag k="addr:state" v="VT"/>
    <tag k="ref:vcgi:esiteid" v="208"/>
  </node>
  <node id="-103" visible="true" lat="44.70709917" lon="-72.40358481">
    <tag k="addr:housenumber" v="248"/>
    <tag k="addr:street" v="Martin Road"/>
    <tag k="addr:state" v="VT"/>
    <tag k="ref:vcgi:esiteid" v="1628"/>
  </node>
  <node id="-104" visible="true" lat="44.6780348" lon="-72.32466114">
    <tag k="addr:housenumber" v="1038"/>
    <tag k="addr:street" v="Urie Road"/>
    <tag k="addr:state" v="VT"/>
    <tag k="ref:vcgi:esiteid" v="78882"/>
  </node>
  <node id="-105" visible="true" lat="44.70821774" lon="-72.40697111">
    <tag k="addr:housenumber" v="477"/>
    <tag k="addr:street" v="Martin Road"/>
    <tag k="addr:state" v="VT"/>
    <tag k="ref:vcgi:esiteid" v="78883"/>
  </node>
  <node id="-106" visible="true" lat="44.70595355" lon="-72.40464626">
    <tag k="addr:housenumber" v="268"/>
    <tag k="addr:street" v="Martin Road"/>
    <tag k="addr:state" v="VT"/>
    <tag k="ref:vcgi:esiteid" v="78884"/>
  </node>
  <node id="-107" visible="true" lat="44.70473579" lon="-72.40421954">
    <tag k="addr:housenumber" v="189"/>
    <tag k="addr:street" v="Martin Road"/>
    <tag k="addr:state" v="VT"/>
    <tag k="ref:vcgi:esiteid" v="78885"/>
  </node>
  <node id="-108" visible="true" lat="44.7038954" lon="-72.40170488">
    <tag k="addr:housenumber" v="551"/>
    <tag k="addr:street" v="Town Line Road"/>
    <tag k="addr:state" v="VT"/>
    <tag k="ref:vcgi:esiteid" v="78886"/>
  </node>
  <node id="-109" visible="true" lat="44.70324988" lon="-72.39608363">
    <tag k="addr:housenumber" v="227"/>
    <tag k="addr:street" v="Town Line Road"/>
    <tag k="addr:state" v="VT"/>
    <tag k="ref:vcgi:esiteid" v="78887"/>
  </node>
  <node id="-110" visible="true" lat="44.70293554" lon="-72.40414367">
    <tag k="addr:housenumber" v="689"/>
    <tag k="addr:street" v="Town Line Road"/>
    <tag k="addr:state" v="VT"/>
    <tag k="ref:vcgi:esiteid" v="78888"/>
  </node>
  <node id="-111" visible="true" lat="44.7016716" lon="-72.39336395">
    <tag k="addr:housenumber" v="7909"/>
    <tag k="addr:street" v="Vermont Route 14"/>
    <tag k="addr:state" v="VT"/>
    <tag k="ref:vcgi:esiteid" v="78889"/>
  </node>
  <node id="-112" visible="true" lat="44.70155716" lon="-72.39620972">
    <tag k="addr:housenumber" v="7827"/>
    <tag k="addr:street" v="Vermont Route 14"/>
    <tag k="addr:state" v="VT"/>
    <tag k="ref:vcgi:esiteid" v="78890"/>
  </node>
  <node id="-113" visible="true" lat="44.70056915" lon="-72.38623046">
    <tag k="addr:housenumber" v="2478"/>
    <tag k="addr:street" v="Wylie Hill Road"/>
    <tag k="addr:state" v="VT"/>
    <tag k="ref:vcgi:esiteid" v="78891"/>
  </node>
  <node id="-114" visible="true" lat="44.70305185" lon="-72.40522745">
    <tag k="addr:housenumber" v="682"/>
    <tag k="addr:street" v="Town Line Road"/>
    <tag k="addr:state" v="VT"/>
    <tag k="ref:vcgi:esiteid" v="78892"/>
  </node>
  <node id="-115" visible="true" lat="44.69921481" lon="-72.3957561">
    <tag k="addr:housenumber" v="7647"/>
    <tag k="addr:street" v="Vermont Route 14"/>
    <tag k="addr:state" v="VT"/>
    <tag k="ref:vcgi:esiteid" v="78893"/>
  </node>
  <node id="-116" visible="true" lat="44.69874695" lon="-72.40312546">
    <tag k="addr:housenumber" v="1033"/>
    <tag k="addr:street" v="Town Line Road"/>
    <tag k="addr:state" v="VT"/>
    <tag k="ref:vcgi:esiteid" v="78894"/>
  </node>
  <node id="-117" visible="true" lat="44.69735615" lon="-72.3945387">
    <tag k="addr:housenumber" v="7628"/>
    <tag k="addr:street" v="Vermont Route 14"/>
    <tag k="addr:state" v="VT"/>
    <tag k="ref:vcgi:esiteid" v="78895"/>
  </node>
  <node id="-118" visible="true" lat="44.69692211" lon="-72.40525086">
    <tag k="addr:housenumber" v="1106"/>
    <tag k="addr:street" v="Town Line Road"/>
    <tag k="addr:state" v="VT"/>
    <tag k="ref:vcgi:esiteid" v="78896"/>
  </node>
  <node id="-119" visible="true" lat="44.69654825" lon="-72.40825428">
    <tag k="addr:housenumber" v="204"/>
    <tag k="addr:street" v="Reed Pond Road"/>
    <tag k="addr:state" v="VT"/>
    <tag k="ref:vcgi:esiteid" v="78897"/>
  </node>
  <node id="-120" visible="true" lat="44.69595036" lon="-72.40726275">
    <tag k="addr:housenumber" v="130"/>
    <tag k="addr:street" v="Reed Pond Road"/>
    <tag k="addr:state" v="VT"/>
    <tag k="ref:vcgi:esiteid" v="78898"/>
  </node>
  <node id="-121" visible="true" lat="44.69509444" lon="-72.40539179">
    <tag k="addr:housenumber" v="16"/>
    <tag k="addr:street" v="Reed Pond Road"/>
    <tag k="addr:state" v="VT"/>
    <tag k="ref:vcgi:esiteid" v="78899"/>
  </node>
  <node id="-122" visible="true" lat="44.69364166" lon="-72.36756133">
    <tag k="addr:housenumber" v="2452"/>
    <tag k="addr:street" v="Mill Village Road"/>
    <tag k="addr:state" v="VT"/>
    <tag k="ref:vcgi:esiteid" v="78900"/>
  </node>
  <node id="-123" visible="true" lat="44.69347382" lon="-72.39638519">
    <tag k="addr:housenumber" v="7333"/>
    <tag k="addr:street" v="Vermont Route 14"/>
    <tag k="addr:state" v="VT"/>
    <tag k="ref:vcgi:esiteid" v="78901"/>
  </node>
  <node id="-124" visible="true" lat="44.69293962" lon="-72.38416538">
    <tag k="addr:housenumber" v="1880"/>
    <tag k="addr:street" v="Wylie Hill Road"/>
    <tag k="addr:state" v="VT"/>
    <tag k="ref:vcgi:esiteid" v="78902"/>
  </node>
  <node id="-125" visible="true" lat="44.69297791" lon="-72.40576172">
    <tag k="addr:housenumber" v="1330"/>
    <tag k="addr:street" v="Town Line Road"/>
    <tag k="addr:state" v="VT"/>
    <tag k="ref:vcgi:esiteid" v="78903"/>
  </node>
  <node id="-126" visible="true" lat="44.69154358" lon="-72.39719391">
    <tag k="addr:housenumber" v="7199"/>
    <tag k="addr:street" v="Vermont Route 14"/>
    <tag k="addr:state" v="VT"/>
    <tag k="ref:vcgi:esiteid" v="78904"/>
  </node>
  <node id="-127" visible="true" lat="44.69102293" lon="-72.40669812">
    <tag k="addr:housenumber" v="1564"/>
    <tag k="addr:street" v="Town Line Road"/>
    <tag k="addr:state" v="VT"/>
    <tag k="ref:vcgi:esiteid" v="78905"/>
  </node>
  <node id="-128" visible="true" lat="44.69057348" lon="-72.39717631">
    <tag k="addr:housenumber" v="7116"/>
    <tag k="addr:street" v="Vermont Route 14"/>
    <tag k="addr:state" v="VT"/>
    <tag k="ref:vcgi:esiteid" v="78906"/>
  </node>
  <node id="-129" visible="true" lat="44.68773269" lon="-72.39380645">
    <tag k="addr:housenumber" v="295"/>
    <tag k="addr:street" v="Tanner Road"/>
    <tag k="addr:state" v="VT"/>
    <tag k="ref:vcgi:esiteid" v="78907"/>
  </node>
  <node id="-130" visible="true" lat="44.68598556" lon="-72.37117004">
    <tag k="addr:housenumber" v="1859"/>
    <tag k="addr:street" v="Mill Village Road"/>
    <tag k="addr:state" v="VT"/>
    <tag k="ref:vcgi:esiteid" v="78908"/>
  </node>
  <node id="-131" visible="true" lat="44.68573388" lon="-72.36193018">
    <tag k="addr:housenumber" v="911"/>
    <tag k="addr:street" v="Lost Nation Road"/>
    <tag k="addr:state" v="VT"/>
    <tag k="ref:vcgi:esiteid" v="78909"/>
  </node>
  <node id="-132" visible="true" lat="44.68558502" lon="-72.38600158">
    <tag k="addr:housenumber" v="1451"/>
    <tag k="addr:street" v="Wylie Hill Road"/>
    <tag k="addr:state" v="VT"/>
    <tag k="ref:vcgi:esiteid" v="78910"/>
  </node>
  <node id="-133" visible="true" lat="44.68514633" lon="-72.40316772">
    <tag k="addr:housenumber" v="6647"/>
    <tag k="addr:street" v="Vermont Route 14"/>
    <tag k="addr:state" v="VT"/>
    <tag k="ref:vcgi:esiteid" v="78911"/>
  </node>
  <node id="-134" visible="true" lat="44.68509709" lon="-72.41641257">
    <tag k="addr:housenumber" v="2099"/>
    <tag k="addr:street" v="Coburn Hill Road"/>
    <tag k="addr:state" v="VT"/>
    <tag k="ref:vcgi:esiteid" v="78912"/>
  </node>
  <node id="-135" visible="true" lat="44.68474579" lon="-72.40320587">
    <tag k="addr:housenumber" v="6627"/>
    <tag k="addr:street" v="Vermont Route 14"/>
    <tag k="addr:state" v="VT"/>
    <tag k="ref:vcgi:esiteid" v="78913"/>
  </node>
  <node id="-136" visible="true" lat="44.68432617" lon="-72.41500854">
    <tag k="addr:housenumber" v="2086"/>
    <tag k="addr:street" v="Coburn Hill Road"/>
    <tag k="addr:state" v="VT"/>
    <tag k="ref:vcgi:esiteid" v="78914"/>
  </node>
  <node id="-137" visible="true" lat="44.68408966" lon="-72.38276672">
    <tag k="addr:housenumber" v="1288"/>
    <tag k="addr:street" v="Wylie Hill Road"/>
    <tag k="addr:state" v="VT"/>
    <tag k="ref:vcgi:esiteid" v="78915"/>
  </node>
  <node id="-138" visible="true" lat="44.68353652" lon="-72.36231231">
    <tag k="addr:housenumber" v="769"/>
    <tag k="addr:street" v="Lost Nation Road"/>
    <tag k="addr:state" v="VT"/>
    <tag k="ref:vcgi:esiteid" v="78916"/>
  </node>
  <node id="-139" visible="true" lat="44.68385648" lon="-72.3641516">
    <tag k="addr:housenumber" v="176"/>
    <tag k="addr:street" v="Fair Drive"/>
    <tag k="addr:state" v="VT"/>
    <tag k="ref:vcgi:esiteid" v="78917"/>
  </node>
  <node id="-140" visible="true" lat="44.68351746" lon="-72.44008636">
    <tag k="addr:housenumber" v="2682"/>
    <tag k="addr:street" v="Collinsville Road"/>
    <tag k="addr:state" v="VT"/>
    <tag k="ref:vcgi:esiteid" v="78918"/>
  </node>
  <node id="-141" visible="true" lat="44.68339157" lon="-72.37947082">
    <tag k="addr:housenumber" v="1290"/>
    <tag k="addr:street" v="Wylie Hill Road"/>
    <tag k="addr:state" v="VT"/>
    <tag k="ref:vcgi:esiteid" v="78919"/>
  </node>
  <node id="-142" visible="true" lat="44.68325009" lon="-72.36413475">
    <tag k="addr:housenumber" v="160"/>
    <tag k="addr:street" v="Fair Drive"/>
    <tag k="addr:state" v="VT"/>
    <tag k="ref:vcgi:esiteid" v="78920"/>
  </node>
  <node id="-143" visible="true" lat="44.68263626" lon="-72.36766052">
    <tag k="addr:housenumber" v="1300"/>
    <tag k="addr:street" v="Mill Village Road"/>
    <tag k="addr:state" v="VT"/>
    <tag k="ref:vcgi:esiteid" v="78921"/>
  </node>
  <node id="-144" visible="true" lat="44.68251037" lon="-72.36436462">
    <tag k="addr:housenumber" v="95"/>
    <tag k="addr:street" v="Fair Drive"/>
    <tag k="addr:state" v="VT"/>
    <tag k="ref:vcgi:esiteid" v="78922"/>
  </node>
  <node id="-145" visible="true" lat="44.682518" lon="-72.38065338">
    <tag k="addr:housenumber" v="712"/>
    <tag k="addr:street" v="Little Hosmer Drive"/>
    <tag k="addr:state" v="VT"/>
    <tag k="ref:vcgi:esiteid" v="78923"/>
  </node>
  <node id="-146" visible="true" lat="44.68227989" lon="-72.40350617">
    <tag k="addr:housenumber" v="6479"/>
    <tag k="addr:street" v="Vermont Route 14"/>
    <tag k="addr:state" v="VT"/>
    <tag k="ref:vcgi:esiteid" v="78924"/>
  </node>
  <node id="-147" visible="true" lat="44.68223571" lon="-72.36444854">
    <tag k="addr:housenumber" v="85"/>
    <tag k="addr:street" v="Fair Drive"/>
    <tag k="addr:state" v="VT"/>
    <tag k="ref:vcgi:esiteid" v="78925"/>
  </node>
  <node id="-148" visible="true" lat="44.68199605" lon="-72.36446313">
    <tag k="addr:housenumber" v="18"/>
    <tag k="addr:street" v="East Shore Drive"/>
    <tag k="addr:state" v="VT"/>
    <tag k="ref:vcgi:esiteid" v="78926"/>
  </node>
  <node id="-149" visible="true" lat="44.68160002" lon="-72.3645684">
    <tag k="addr:housenumber" v="20"/>
    <tag k="addr:street" v="East Shore Drive"/>
    <tag k="addr:state" v="VT"/>
    <tag k="ref:vcgi:esiteid" v="78927"/>
  </node>
  <node id="-150" visible="true" lat="44.68169784" lon="-72.36421203">
    <tag k="addr:housenumber" v="8"/>
    <tag k="addr:street" v="East Shore Drive"/>
    <tag k="addr:state" v="VT"/>
    <tag k="ref:vcgi:esiteid" v="78928"/>
  </node>
  <node id="-151" visible="true" lat="44.68068888" lon="-72.36180636">
    <tag k="addr:housenumber" v="612"/>
    <tag k="addr:street" v="Lost Nation Road"/>
    <tag k="addr:state" v="VT"/>
    <tag k="ref:vcgi:esiteid" v="78929"/>
  </node>
  <node id="-152" visible="true" lat="44.68142318" lon="-72.38459777">
    <tag k="addr:housenumber" v="1135"/>
    <tag k="addr:street" v="Wylie Hill Road"/>
    <tag k="addr:state" v="VT"/>
    <tag k="ref:vcgi:esiteid" v="78930"/>
  </node>
  <node id="-153" visible="true" lat="44.68147722" lon="-72.41558066">
    <tag k="addr:housenumber" v="1836"/>
    <tag k="addr:street" v="Coburn Hill Road"/>
    <tag k="addr:state" v="VT"/>
    <tag k="ref:vcgi:esiteid" v="78931"/>
  </node>
  <node id="-154" visible="true" lat="44.68098075" lon="-72.36431627">
    <tag k="addr:housenumber" v="49"/>
    <tag k="addr:street" v="East Shore Drive"/>
    <tag k="addr:state" v="VT"/>
    <tag k="ref:vcgi:esiteid" v="78932"/>
  </node>
  <node id="-155" visible="true" lat="44.68107942" lon="-72.36505085">
    <tag k="addr:housenumber" v="71"/>
    <tag k="addr:street" v="East Shore Drive"/>
    <tag k="addr:state" v="VT"/>
    <tag k="ref:vcgi:esiteid" v="78933"/>
  </node>
  <node id="-156" visible="true" lat="44.68077881" lon="-72.3652898">
    <tag k="addr:housenumber" v="96"/>
    <tag k="addr:street" v="East Shore Drive"/>
    <tag k="addr:state" v="VT"/>
    <tag k="ref:vcgi:esiteid" v="78934"/>
  </node>
  <node id="-157" visible="true" lat="44.68045648" lon="-72.36560213">
    <tag k="addr:housenumber" v="114"/>
    <tag k="addr:street" v="East Shore Drive"/>
    <tag k="addr:state" v="VT"/>
    <tag k="ref:vcgi:esiteid" v="78935"/>
  </node>
  <node id="-159" visible="true" lat="44.68037033" lon="-72.3802185">
    <tag k="addr:housenumber" v="598"/>
    <tag k="addr:street" v="Little Hosmer Drive"/>
    <tag k="addr:state" v="VT"/>
    <tag k="ref:vcgi:esiteid" v="78937"/>
  </node>
  <node id="-160" visible="true" lat="44.68033981" lon="-72.37216949">
    <tag k="addr:housenumber" v="1466"/>
    <tag k="addr:street" v="Mill Village Road"/>
    <tag k="addr:state" v="VT"/>
    <tag k="ref:vcgi:esiteid" v="78938"/>
  </node>
  <node id="-161" visible="true" lat="44.67967845" lon="-72.37993733">
    <tag k="addr:housenumber" v="534"/>
    <tag k="addr:street" v="Little Hosmer Drive"/>
    <tag k="addr:state" v="VT"/>
    <tag k="ref:vcgi:esiteid" v="78939"/>
  </node>
  <node id="-162" visible="true" lat="44.67971719" lon="-72.36451906">
    <tag k="addr:housenumber" v="437"/>
    <tag k="addr:street" v="Lost Nation Road"/>
    <tag k="addr:state" v="VT"/>
    <tag k="ref:vcgi:esiteid" v="78941"/>
  </node>
  <node id="-163" visible="true" lat="44.67899291" lon="-72.36320883">
    <tag k="addr:housenumber" v="472"/>
    <tag k="addr:street" v="Lost Nation Road"/>
    <tag k="addr:state" v="VT"/>
    <tag k="ref:vcgi:esiteid" v="78942"/>
  </node>
  <node id="-164" visible="true" lat="44.6792605" lon="-72.40328194">
    <tag k="addr:housenumber" v="3624"/>
    <tag k="addr:street" v="North Craftsbury Road"/>
    <tag k="addr:state" v="VT"/>
    <tag k="ref:vcgi:esiteid" v="78943"/>
  </node>
  <node id="-165" visible="true" lat="44.67900848" lon="-72.38439941">
    <tag k="addr:housenumber" v="948"/>
    <tag k="addr:street" v="Wylie Hill Road"/>
    <tag k="addr:state" v="VT"/>
    <tag k="ref:vcgi:esiteid" v="78944"/>
  </node>
  <node id="-166" visible="true" lat="44.67889404" lon="-72.43914795">
    <tag k="addr:housenumber" v="2426"/>
    <tag k="addr:street" v="Collinsville Road"/>
    <tag k="addr:state" v="VT"/>
    <tag k="ref:vcgi:esiteid" v="78945"/>
  </node>
  <node id="-167" visible="true" lat="44.67799377" lon="-72.42111969">
    <tag k="addr:housenumber" v="591"/>
    <tag k="addr:street" v="Griggs Road"/>
    <tag k="addr:state" v="VT"/>
    <tag k="ref:vcgi:esiteid" v="78946"/>
  </node>
  <node id="-168" visible="true" lat="44.67805752" lon="-72.36743372">
    <tag k="addr:housenumber" v="255"/>
    <tag k="addr:street" v="Lost Nation Road"/>
    <tag k="addr:state" v="VT"/>
    <tag k="ref:vcgi:esiteid" v="78947"/>
  </node>
  <node id="-169" visible="true" lat="44.67783356" lon="-72.43865204">
    <tag k="addr:housenumber" v="2347"/>
    <tag k="addr:street" v="Collinsville Road"/>
    <tag k="addr:state" v="VT"/>
    <tag k="ref:vcgi:esiteid" v="78948"/>
  </node>
  <node id="-170" visible="true" lat="44.67679001" lon="-72.42659902">
    <tag k="addr:housenumber" v="332"/>
    <tag k="addr:street" v="Griggs Road"/>
    <tag k="addr:state" v="VT"/>
    <tag k="ref:vcgi:esiteid" v="78951"/>
  </node>
  <node id="-171" visible="true" lat="44.67680359" lon="-72.43462372">
    <tag k="addr:housenumber" v="2128"/>
    <tag k="addr:street" v="Collinsville Road"/>
    <tag k="addr:state" v="VT"/>
    <tag k="ref:vcgi:esiteid" v="78952"/>
  </node>
  <node id="-172" visible="true" lat="44.67662811" lon="-72.37997436">
    <tag k="addr:housenumber" v="318"/>
    <tag k="addr:street" v="Little Hosmer Drive"/>
    <tag k="addr:state" v="VT"/>
    <tag k="ref:vcgi:esiteid" v="78953"/>
  </node>
  <node id="-173" visible="true" lat="44.67663574" lon="-72.43718719">
    <tag k="addr:housenumber" v="2233"/>
    <tag k="addr:street" v="Collinsville Road"/>
    <tag k="addr:state" v="VT"/>
    <tag k="ref:vcgi:esiteid" v="78954"/>
  </node>
  <node id="-174" visible="true" lat="44.67636489" lon="-72.37983703">
    <tag k="addr:housenumber" v="316"/>
    <tag k="addr:street" v="Little Hosmer Drive"/>
    <tag k="addr:state" v="VT"/>
    <tag k="ref:vcgi:esiteid" v="78955"/>
  </node>
  <node id="-176" visible="true" lat="44.67602535" lon="-72.43293246">
    <tag k="addr:housenumber" v="2050"/>
    <tag k="addr:street" v="Collinsville Road"/>
    <tag k="addr:state" v="VT"/>
    <tag k="ref:vcgi:esiteid" v="78958"/>
  </node>
  <node id="-177" visible="true" lat="44.67556996" lon="-72.37921825">
    <tag k="addr:housenumber" v="33"/>
    <tag k="addr:street" v="Haps Drive"/>
    <tag k="addr:state" v="VT"/>
    <tag k="ref:vcgi:esiteid" v="78959"/>
  </node>
  <node id="-178" visible="true" lat="44.67556784" lon="-72.4317767">
    <tag k="addr:housenumber" v="35"/>
    <tag k="addr:street" v="Griggs Road"/>
    <tag k="addr:state" v="VT"/>
    <tag k="ref:vcgi:esiteid" v="78960"/>
  </node>
  <node id="-179" visible="true" lat="44.67567433" lon="-72.38482911">
    <tag k="addr:housenumber" v="703"/>
    <tag k="addr:street" v="Wylie Hill Road"/>
    <tag k="addr:state" v="VT"/>
    <tag k="ref:vcgi:esiteid" v="78961"/>
  </node>
  <node id="-180" visible="true" lat="44.67529296" lon="-72.37163543">
    <tag k="addr:housenumber" v="1105"/>
    <tag k="addr:street" v="Mill Village Road"/>
    <tag k="addr:state" v="VT"/>
    <tag k="ref:vcgi:esiteid" v="78962"/>
  </node>
  <node id="-181" visible="true" lat="44.67432973" lon="-72.43542017">
    <tag k="addr:housenumber" v="2079"/>
    <tag k="addr:street" v="Collinsville Road"/>
    <tag k="addr:state" v="VT"/>
    <tag k="ref:vcgi:esiteid" v="78963"/>
  </node>
  <node id="-182" visible="true" lat="44.67498779" lon="-72.37769317">
    <tag k="addr:housenumber" v="206"/>
    <tag k="addr:street" v="Haps Drive"/>
    <tag k="addr:state" v="VT"/>
    <tag k="ref:vcgi:esiteid" v="78964"/>
  </node>
  <node id="-183" visible="true" lat="44.67477439" lon="-72.42944732">
    <tag k="addr:housenumber" v="26"/>
    <tag k="addr:street" v="Griggs Road"/>
    <tag k="addr:state" v="VT"/>
    <tag k="ref:vcgi:esiteid" v="78965"/>
  </node>
  <node id="-184" visible="true" lat="44.6748085" lon="-72.41596222">
    <tag k="addr:housenumber" v="1391"/>
    <tag k="addr:street" v="Coburn Hill Road"/>
    <tag k="addr:state" v="VT"/>
    <tag k="ref:vcgi:esiteid" v="78966"/>
  </node>
  <node id="-185" visible="true" lat="44.67473983" lon="-72.39503479">
    <tag k="addr:housenumber" v="3090"/>
    <tag k="addr:street" v="North Craftsbury Road"/>
    <tag k="addr:state" v="VT"/>
    <tag k="ref:vcgi:esiteid" v="78967"/>
  </node>
  <node id="-186" visible="true" lat="44.67418386" lon="-72.37760475">
    <tag k="addr:housenumber" v="180"/>
    <tag k="addr:street" v="Haps Drive"/>
    <tag k="addr:state" v="VT"/>
    <tag k="ref:vcgi:esiteid" v="78968"/>
  </node>
  <node id="-187" visible="true" lat="44.6739459" lon="-72.43047949">
    <tag k="addr:housenumber" v="1862"/>
    <tag k="addr:street" v="Collinsville Road"/>
    <tag k="addr:state" v="VT"/>
    <tag k="ref:vcgi:esiteid" v="78969"/>
  </node>
  <node id="-188" visible="true" lat="44.67344284" lon="-72.38349914">
    <tag k="addr:housenumber" v="622"/>
    <tag k="addr:street" v="Wylie Hill Road"/>
    <tag k="addr:state" v="VT"/>
    <tag k="ref:vcgi:esiteid" v="78971"/>
  </node>
  <node id="-189" visible="true" lat="44.67328903" lon="-72.33632288">
    <tag k="addr:housenumber" v="421"/>
    <tag k="addr:street" v="Seaver Brook Road"/>
    <tag k="addr:state" v="VT"/>
    <tag k="ref:vcgi:esiteid" v="78972"/>
  </node>
  <node id="-190" visible="true" lat="44.67321777" lon="-72.39379119">
    <tag k="addr:housenumber" v="2952"/>
    <tag k="addr:street" v="North Craftsbury Road"/>
    <tag k="addr:state" v="VT"/>
    <tag k="ref:vcgi:esiteid" v="78973"/>
  </node>
  <node id="-191" visible="true" lat="44.67204499" lon="-72.34041678">
    <tag k="addr:housenumber" v="306"/>
    <tag k="addr:street" v="Seaver Brook Road"/>
    <tag k="addr:state" v="VT"/>
    <tag k="ref:vcgi:esiteid" v="78974"/>
  </node>
  <node id="-192" visible="true" lat="44.6720688" lon="-72.43065503">
    <tag k="addr:housenumber" v="1740"/>
    <tag k="addr:street" v="Collinsville Road"/>
    <tag k="addr:state" v="VT"/>
    <tag k="ref:vcgi:esiteid" v="78975"/>
  </node>
  <node id="-193" visible="true" lat="44.6718669" lon="-72.41607529">
    <tag k="addr:housenumber" v="1211"/>
    <tag k="addr:street" v="Coburn Hill Road"/>
    <tag k="addr:state" v="VT"/>
    <tag k="ref:vcgi:esiteid" v="78976"/>
  </node>
  <node id="-194" visible="true" lat="44.67206407" lon="-72.44195774">
    <tag k="addr:housenumber" v="578"/>
    <tag k="addr:street" v="Eden Mountain Road"/>
    <tag k="addr:state" v="VT"/>
    <tag k="ref:vcgi:esiteid" v="78977"/>
  </node>
  <node id="-195" visible="true" lat="44.67125389" lon="-72.44615953">
    <tag k="addr:housenumber" v="30"/>
    <tag k="addr:street" v="Billado Lane"/>
    <tag k="addr:state" v="VT"/>
    <tag k="ref:vcgi:esiteid" v="78978"/>
  </node>
  <node id="-196" visible="true" lat="44.67137651" lon="-72.43138609">
    <tag k="addr:housenumber" v="1699"/>
    <tag k="addr:street" v="Collinsville Road"/>
    <tag k="addr:state" v="VT"/>
    <tag k="ref:vcgi:esiteid" v="78979"/>
  </node>
  <node id="-197" visible="true" lat="44.67151026" lon="-72.44379961">
    <tag k="addr:housenumber" v="663"/>
    <tag k="addr:street" v="Eden Mountain Road"/>
    <tag k="addr:state" v="VT"/>
    <tag k="ref:vcgi:esiteid" v="78980"/>
  </node>
  <node id="-198" visible="true" lat="44.67142486" lon="-72.44245148">
    <tag k="addr:housenumber" v="619"/>
    <tag k="addr:street" v="Eden Mountain Road"/>
    <tag k="addr:state" v="VT"/>
    <tag k="ref:vcgi:esiteid" v="78981"/>
  </node>
  <node id="-199" visible="true" lat="44.67130279" lon="-72.38410186">
    <tag k="addr:housenumber" v="414"/>
    <tag k="addr:street" v="Wylie Hill Road"/>
    <tag k="addr:state" v="VT"/>
    <tag k="ref:vcgi:esiteid" v="78982"/>
  </node>
  <node id="-200" visible="true" lat="44.67124557" lon="-72.38411712">
    <tag k="addr:housenumber" v="410"/>
    <tag k="addr:street" v="Wylie Hill Road"/>
    <tag k="addr:state" v="VT"/>
    <tag k="ref:vcgi:esiteid" v="78983"/>
  </node>
  <node id="-201" visible="true" lat="44.67093276" lon="-72.37339019">
    <tag k="addr:housenumber" v="771"/>
    <tag k="addr:street" v="Mill Village Road"/>
    <tag k="addr:state" v="VT"/>
    <tag k="ref:vcgi:esiteid" v="78984"/>
  </node>
  <node id="-202" visible="true" lat="44.67088318" lon="-72.43089295">
    <tag k="addr:housenumber" v="1656"/>
    <tag k="addr:street" v="Collinsville Road"/>
    <tag k="addr:state" v="VT"/>
    <tag k="ref:vcgi:esiteid" v="78985"/>
  </node>
  <node id="-203" visible="true" lat="44.67077302" lon="-72.43868713">
    <tag k="addr:housenumber" v="387"/>
    <tag k="addr:street" v="Eden Mountain Road"/>
    <tag k="addr:state" v="VT"/>
    <tag k="ref:vcgi:esiteid" v="78986"/>
  </node>
  <node id="-204" visible="true" lat="44.66970318" lon="-72.31258298">
    <tag k="addr:housenumber" v="2606"/>
    <tag k="addr:street" v="South Albany Road"/>
    <tag k="addr:state" v="VT"/>
    <tag k="ref:vcgi:esiteid" v="78987"/>
  </node>
  <node id="-205" visible="true" lat="44.66988372" lon="-72.36186981">
    <tag k="addr:housenumber" v="739"/>
    <tag k="addr:street" v="Town Highway 19"/>
    <tag k="addr:state" v="VT"/>
    <tag k="ref:vcgi:esiteid" v="78988"/>
  </node>
  <node id="-206" visible="true" lat="44.66987228" lon="-72.37380218">
    <tag k="addr:housenumber" v="685"/>
    <tag k="addr:street" v="Mill Village Road"/>
    <tag k="addr:state" v="VT"/>
    <tag k="ref:vcgi:esiteid" v="78989"/>
  </node>
  <node id="-207" visible="true" lat="44.67015057" lon="-72.43468876">
    <tag k="addr:housenumber" v="180"/>
    <tag k="addr:street" v="Eden Mountain Road"/>
    <tag k="addr:state" v="VT"/>
    <tag k="ref:vcgi:esiteid" v="78990"/>
  </node>
  <node id="-208" visible="true" lat="44.66929093" lon="-72.43429912">
    <tag k="addr:housenumber" v="175"/>
    <tag k="addr:street" v="Eden Mountain Road"/>
    <tag k="addr:state" v="VT"/>
    <tag k="ref:vcgi:esiteid" v="78991"/>
  </node>
  <node id="-209" visible="true" lat="44.66925048" lon="-72.3831253">
    <tag k="addr:housenumber" v="260"/>
    <tag k="addr:street" v="Wylie Hill Road"/>
    <tag k="addr:state" v="VT"/>
    <tag k="ref:vcgi:esiteid" v="78992"/>
  </node>
  <node id="-210" visible="true" lat="44.66906357" lon="-72.43089295">
    <tag k="addr:housenumber" v="1531"/>
    <tag k="addr:street" v="Collinsville Road"/>
    <tag k="addr:state" v="VT"/>
    <tag k="ref:vcgi:esiteid" v="78993"/>
  </node>
  <node id="-211" visible="true" lat="44.66907087" lon="-72.33315964">
    <tag k="addr:housenumber" v="743"/>
    <tag k="addr:street" v="Seaver Brook Road"/>
    <tag k="addr:state" v="VT"/>
    <tag k="ref:vcgi:esiteid" v="78994"/>
  </node>
  <node id="-212" visible="true" lat="44.66901315" lon="-72.33003636">
    <tag k="addr:housenumber" v="57"/>
    <tag k="addr:street" v="Urie Road"/>
    <tag k="addr:state" v="VT"/>
    <tag k="ref:vcgi:esiteid" v="78995"/>
  </node>
  <node id="-213" visible="true" lat="44.66860285" lon="-72.36257246">
    <tag k="addr:housenumber" v="686"/>
    <tag k="addr:street" v="Town Highway 19"/>
    <tag k="addr:state" v="VT"/>
    <tag k="ref:vcgi:esiteid" v="78996"/>
  </node>
  <node id="-214" visible="true" lat="44.66867065" lon="-72.42900848">
    <tag k="addr:housenumber" v="1426"/>
    <tag k="addr:street" v="Collinsville Road"/>
    <tag k="addr:state" v="VT"/>
    <tag k="ref:vcgi:esiteid" v="78997"/>
  </node>
  <node id="-215" visible="true" lat="44.66849498" lon="-72.36476423">
    <tag k="addr:housenumber" v="572"/>
    <tag k="addr:street" v="Town Highway 19"/>
    <tag k="addr:state" v="VT"/>
    <tag k="ref:vcgi:esiteid" v="78998"/>
  </node>
  <node id="-216" visible="true" lat="44.66854095" lon="-72.43074036">
    <tag k="addr:housenumber" v="1499"/>
    <tag k="addr:street" v="Collinsville Road"/>
    <tag k="addr:state" v="VT"/>
    <tag k="ref:vcgi:esiteid" v="78999"/>
  </node>
  <node id="-217" visible="true" lat="44.668233" lon="-72.3660452">
    <tag k="addr:housenumber" v="504"/>
    <tag k="addr:street" v="Town Highway 19"/>
    <tag k="addr:state" v="VT"/>
    <tag k="ref:vcgi:esiteid" v="79000"/>
  </node>
  <node id="-218" visible="true" lat="44.66826248" lon="-72.37474823">
    <tag k="addr:housenumber" v="587"/>
    <tag k="addr:street" v="Mill Village Road"/>
    <tag k="addr:state" v="VT"/>
    <tag k="ref:vcgi:esiteid" v="79001"/>
  </node>
  <node id="-219" visible="true" lat="44.66816711" lon="-72.37075805">
    <tag k="addr:housenumber" v="295"/>
    <tag k="addr:street" v="Town Highway 19"/>
    <tag k="addr:state" v="VT"/>
    <tag k="ref:vcgi:esiteid" v="79002"/>
  </node>
  <node id="-220" visible="true" lat="44.66818237" lon="-72.38897704">
    <tag k="addr:housenumber" v="2540"/>
    <tag k="addr:street" v="North Craftsbury Road"/>
    <tag k="addr:state" v="VT"/>
    <tag k="ref:vcgi:esiteid" v="79003"/>
  </node>
  <node id="-221" visible="true" lat="44.66805857" lon="-72.31621487">
    <tag k="addr:housenumber" v="2409"/>
    <tag k="addr:street" v="South Albany Road"/>
    <tag k="addr:state" v="VT"/>
    <tag k="ref:vcgi:esiteid" v="79004"/>
  </node>
  <node id="-222" visible="true" lat="44.66797253" lon="-72.36863033">
    <tag k="addr:housenumber" v="363"/>
    <tag k="addr:street" v="Town Highway 19"/>
    <tag k="addr:state" v="VT"/>
    <tag k="ref:vcgi:esiteid" v="79005"/>
  </node>
  <node id="-223" visible="true" lat="44.66786957" lon="-72.42884827">
    <tag k="addr:housenumber" v="1380"/>
    <tag k="addr:street" v="Collinsville Road"/>
    <tag k="addr:state" v="VT"/>
    <tag k="ref:vcgi:esiteid" v="79006"/>
  </node>
  <node id="-224" visible="true" lat="44.66754338" lon="-72.37403414">
    <tag k="addr:housenumber" v="560"/>
    <tag k="addr:street" v="Mill Village Road"/>
    <tag k="addr:state" v="VT"/>
    <tag k="ref:vcgi:esiteid" v="79007"/>
  </node>
  <node id="-225" visible="true" lat="44.66896805" lon="-72.41428594">
    <tag k="addr:housenumber" v="912"/>
    <tag k="addr:street" v="Coburn Hill Road"/>
    <tag k="addr:state" v="VT"/>
    <tag k="ref:vcgi:esiteid" v="79008"/>
  </node>
  <node id="-226" visible="true" lat="44.66765976" lon="-72.34910584">
    <tag k="addr:housenumber" v="2569"/>
    <tag k="addr:street" v="Creek Road"/>
    <tag k="addr:state" v="VT"/>
    <tag k="ref:vcgi:esiteid" v="79009"/>
  </node>
  <node id="-227" visible="true" lat="44.66754057" lon="-72.36995334">
    <tag k="addr:housenumber" v="303"/>
    <tag k="addr:street" v="Town Highway 19"/>
    <tag k="addr:state" v="VT"/>
    <tag k="ref:vcgi:esiteid" v="79010"/>
  </node>
  <node id="-228" visible="true" lat="44.66740573" lon="-72.32903096">
    <tag k="addr:housenumber" v="58"/>
    <tag k="addr:street" v="Allen Hill Road"/>
    <tag k="addr:state" v="VT"/>
    <tag k="ref:vcgi:esiteid" v="79011"/>
  </node>
  <node id="-229" visible="true" lat="44.66745389" lon="-72.33111353">
    <tag k="addr:housenumber" v="911"/>
    <tag k="addr:street" v="Seaver Brook Road"/>
    <tag k="addr:state" v="VT"/>
    <tag k="ref:vcgi:esiteid" v="79012"/>
  </node>
  <node id="-230" visible="true" lat="44.66707611" lon="-72.42827606">
    <tag k="addr:housenumber" v="1340"/>
    <tag k="addr:street" v="Collinsville Road"/>
    <tag k="addr:state" v="VT"/>
    <tag k="ref:vcgi:esiteid" v="79013"/>
  </node>
  <node id="-231" visible="true" lat="44.66680861" lon="-72.37528446">
    <tag k="addr:housenumber" v="483"/>
    <tag k="addr:street" v="Mill Village Road"/>
    <tag k="addr:state" v="VT"/>
    <tag k="ref:vcgi:esiteid" v="79014"/>
  </node>
  <node id="-232" visible="true" lat="44.66678701" lon="-72.38685521">
    <tag k="addr:housenumber" v="2390"/>
    <tag k="addr:street" v="North Craftsbury Road"/>
    <tag k="addr:state" v="VT"/>
    <tag k="ref:vcgi:esiteid" v="79015"/>
  </node>
  <node id="-233" visible="true" lat="44.66665268" lon="-72.36553955">
    <tag k="addr:housenumber" v="442"/>
    <tag k="addr:street" v="Town Highway 19"/>
    <tag k="addr:state" v="VT"/>
    <tag k="ref:vcgi:esiteid" v="79016"/>
  </node>
  <node id="-234" visible="true" lat="44.66656112" lon="-72.38397216">
    <tag k="addr:housenumber" v="83"/>
    <tag k="addr:street" v="Wylie Hill Road"/>
    <tag k="addr:state" v="VT"/>
    <tag k="ref:vcgi:esiteid" v="79018"/>
  </node>
  <node id="-235" visible="true" lat="44.66654457" lon="-72.4143892">
    <tag k="addr:housenumber" v="780"/>
    <tag k="addr:street" v="Coburn Hill Road"/>
    <tag k="addr:state" v="VT"/>
    <tag k="ref:vcgi:esiteid" v="79019"/>
  </node>
  <node id="-236" visible="true" lat="44.66645084" lon="-72.37486899">
    <tag k="addr:housenumber" v="468"/>
    <tag k="addr:street" v="Mill Village Road"/>
    <tag k="addr:state" v="VT"/>
    <tag k="ref:vcgi:esiteid" v="79020"/>
  </node>
  <node id="-237" visible="true" lat="44.66654947" lon="-72.37293003">
    <tag k="addr:housenumber" v="161"/>
    <tag k="addr:street" v="Town Highway 19"/>
    <tag k="addr:state" v="VT"/>
    <tag k="ref:vcgi:esiteid" v="79021"/>
  </node>
  <node id="-238" visible="true" lat="44.66645327" lon="-72.37608904">
    <tag k="addr:housenumber" v="44"/>
    <tag k="addr:street" v="Boat Dock Road"/>
    <tag k="addr:state" v="VT"/>
    <tag k="ref:vcgi:esiteid" v="79022"/>
  </node>
  <node id="-239" visible="true" lat="44.66623585" lon="-72.37509868">
    <tag k="addr:housenumber" v="452"/>
    <tag k="addr:street" v="Mill Village Road"/>
    <tag k="addr:state" v="VT"/>
    <tag k="ref:vcgi:esiteid" v="79023"/>
  </node>
  <node id="-240" visible="true" lat="44.66625231" lon="-72.38352392">
    <tag k="addr:housenumber" v="6"/>
    <tag k="addr:street" v="Mill Village Road"/>
    <tag k="addr:state" v="VT"/>
    <tag k="ref:vcgi:esiteid" v="79024"/>
  </node>
  <node id="-241" visible="true" lat="44.66622162" lon="-72.42803192">
    <tag k="addr:housenumber" v="1272"/>
    <tag k="addr:street" v="Collinsville Road"/>
    <tag k="addr:state" v="VT"/>
    <tag k="ref:vcgi:esiteid" v="79025"/>
  </node>
  <node id="-242" visible="true" lat="44.66592697" lon="-72.37261166">
    <tag k="addr:housenumber" v="140"/>
    <tag k="addr:street" v="Town Highway 19"/>
    <tag k="addr:state" v="VT"/>
    <tag k="ref:vcgi:esiteid" v="79026"/>
  </node>
  <node id="-243" visible="true" lat="44.66626923" lon="-72.37810275">
    <tag k="addr:housenumber" v="293"/>
    <tag k="addr:street" v="Mill Village Road"/>
    <tag k="addr:state" v="VT"/>
    <tag k="ref:vcgi:esiteid" v="79027"/>
  </node>
  <node id="-244" visible="true" lat="44.66576997" lon="-72.37336981">
    <tag k="addr:housenumber" v="118"/>
    <tag k="addr:street" v="Town Highway 19"/>
    <tag k="addr:state" v="VT"/>
    <tag k="ref:vcgi:esiteid" v="79029"/>
  </node>
  <node id="-245" visible="true" lat="44.66602682" lon="-72.37686059">
    <tag k="addr:housenumber" v="345"/>
    <tag k="addr:street" v="Mill Village Road"/>
    <tag k="addr:state" v="VT"/>
    <tag k="ref:vcgi:esiteid" v="79030"/>
  </node>
  <node id="-246" visible="true" lat="44.66598963" lon="-72.38399035">
    <tag k="addr:housenumber" v="41"/>
    <tag k="addr:street" v="Wylie Hill Road"/>
    <tag k="addr:state" v="VT"/>
    <tag k="ref:vcgi:esiteid" v="79031"/>
  </node>
  <node id="-247" visible="true" lat="44.66583209" lon="-72.3522874">
    <tag k="addr:housenumber" v="2383"/>
    <tag k="addr:street" v="Creek Road"/>
    <tag k="addr:state" v="VT"/>
    <tag k="ref:vcgi:esiteid" v="79032"/>
  </node>
  <node id="-248" visible="true" lat="44.66536066" lon="-72.37493609">
    <tag k="addr:housenumber" v="38"/>
    <tag k="addr:street" v="Cole Drive"/>
    <tag k="addr:state" v="VT"/>
    <tag k="ref:vcgi:esiteid" v="79033"/>
  </node>
  <node id="-249" visible="true" lat="44.66528615" lon="-72.37592698">
    <tag k="addr:housenumber" v="1776"/>
    <tag k="addr:street" v="King Farm Road"/>
    <tag k="addr:state" v="VT"/>
    <tag k="ref:vcgi:esiteid" v="79034"/>
  </node>
  <node id="-250" visible="true" lat="44.6651268" lon="-72.41561127">
    <tag k="addr:housenumber" v="15"/>
    <tag k="addr:street" v="Mastin Road"/>
    <tag k="addr:state" v="VT"/>
    <tag k="ref:vcgi:esiteid" v="79035"/>
  </node>
  <node id="-251" visible="true" lat="44.66485775" lon="-72.37362642">
    <tag k="addr:housenumber" v="99"/>
    <tag k="addr:street" v="Cole Drive"/>
    <tag k="addr:state" v="VT"/>
    <tag k="ref:vcgi:esiteid" v="79036"/>
  </node>
  <node id="-252" visible="true" lat="44.66382599" lon="-72.32051087">
    <tag k="addr:housenumber" v="2102"/>
    <tag k="addr:street" v="South Albany Road"/>
    <tag k="addr:state" v="VT"/>
    <tag k="ref:vcgi:esiteid" v="79037"/>
  </node>
  <node id="-253" visible="true" lat="44.66368484" lon="-72.38321686">
    <tag k="addr:housenumber" v="2078"/>
    <tag k="addr:street" v="North Craftsbury Road"/>
    <tag k="addr:state" v="VT"/>
    <tag k="ref:vcgi:esiteid" v="79038"/>
  </node>
  <node id="-254" visible="true" lat="44.6641671" lon="-72.38974778">
    <tag k="addr:housenumber" v="634"/>
    <tag k="addr:street" v="Post Road"/>
    <tag k="addr:state" v="VT"/>
    <tag k="ref:vcgi:esiteid" v="79039"/>
  </node>
  <node id="-255" visible="true" lat="44.66337034" lon="-72.42729923">
    <tag k="addr:housenumber" v="1074"/>
    <tag k="addr:street" v="Collinsville Road"/>
    <tag k="addr:state" v="VT"/>
    <tag k="ref:vcgi:esiteid" v="79040"/>
  </node>
  <node id="-256" visible="true" lat="44.66286087" lon="-72.32443237">
    <tag k="addr:housenumber" v="1873"/>
    <tag k="addr:street" v="South Albany Road"/>
    <tag k="addr:state" v="VT"/>
    <tag k="ref:vcgi:esiteid" v="79041"/>
  </node>
  <node id="-257" visible="true" lat="44.66278383" lon="-72.41441177">
    <tag k="addr:housenumber" v="493"/>
    <tag k="addr:street" v="Coburn Hill Road"/>
    <tag k="addr:state" v="VT"/>
    <tag k="ref:vcgi:esiteid" v="79042"/>
  </node>
  <node id="-258" visible="true" lat="44.66264724" lon="-72.39201355">
    <tag k="addr:housenumber" v="416"/>
    <tag k="addr:street" v="Post Road"/>
    <tag k="addr:state" v="VT"/>
    <tag k="ref:vcgi:esiteid" v="79043"/>
  </node>
  <node id="-259" visible="true" lat="44.66254049" lon="-72.32523943">
    <tag k="addr:housenumber" v="1819"/>
    <tag k="addr:street" v="South Albany Road"/>
    <tag k="addr:state" v="VT"/>
    <tag k="ref:vcgi:esiteid" v="79044"/>
  </node>
  <node id="-260" visible="true" lat="44.66224914" lon="-72.41401903">
    <tag k="addr:housenumber" v="458"/>
    <tag k="addr:street" v="Coburn Hill Road"/>
    <tag k="addr:state" v="VT"/>
    <tag k="ref:vcgi:esiteid" v="79045"/>
  </node>
  <node id="-261" visible="true" lat="44.66209042" lon="-72.42752222">
    <tag k="addr:housenumber" v="985"/>
    <tag k="addr:street" v="Collinsville Road"/>
    <tag k="addr:state" v="VT"/>
    <tag k="ref:vcgi:esiteid" v="79046"/>
  </node>
  <node id="-262" visible="true" lat="44.66174316" lon="-72.35251617">
    <tag k="addr:housenumber" v="2114"/>
    <tag k="addr:street" v="Creek Road"/>
    <tag k="addr:state" v="VT"/>
    <tag k="ref:vcgi:esiteid" v="79047"/>
  </node>
  <node id="-263" visible="true" lat="44.66092682" lon="-72.35249329">
    <tag k="addr:housenumber" v="2040"/>
    <tag k="addr:street" v="Creek Road"/>
    <tag k="addr:state" v="VT"/>
    <tag k="ref:vcgi:esiteid" v="79048"/>
  </node>
  <node id="-264" visible="true" lat="44.66082058" lon="-72.41536176">
    <tag k="addr:housenumber" v="338"/>
    <tag k="addr:street" v="Coburn Hill Road"/>
    <tag k="addr:state" v="VT"/>
    <tag k="ref:vcgi:esiteid" v="79049"/>
  </node>
  <node id="-265" visible="true" lat="44.66058731" lon="-72.3804245">
    <tag k="addr:housenumber" v="132"/>
    <tag k="addr:street" v="Strong Road"/>
    <tag k="addr:state" v="VT"/>
    <tag k="ref:vcgi:esiteid" v="79051"/>
  </node>
  <node id="-266" visible="true" lat="44.66050728" lon="-72.42649627">
    <tag k="addr:housenumber" v="875"/>
    <tag k="addr:street" v="Collinsville Road"/>
    <tag k="addr:state" v="VT"/>
    <tag k="ref:vcgi:esiteid" v="79052"/>
  </node>
  <node id="-267" visible="true" lat="44.66033554" lon="-72.38143921">
    <tag k="addr:housenumber" v="80"/>
    <tag k="addr:street" v="Strong Road"/>
    <tag k="addr:state" v="VT"/>
    <tag k="ref:vcgi:esiteid" v="79053"/>
  </node>
  <node id="-268" visible="true" lat="44.65977501" lon="-72.32394595">
    <tag k="addr:housenumber" v="1666"/>
    <tag k="addr:street" v="South Albany Road"/>
    <tag k="addr:state" v="VT"/>
    <tag k="ref:vcgi:esiteid" v="79054"/>
  </node>
  <node id="-269" visible="true" lat="44.65933746" lon="-72.41822695">
    <tag k="addr:housenumber" v="156"/>
    <tag k="addr:street" v="Coburn Hill Road"/>
    <tag k="addr:state" v="VT"/>
    <tag k="ref:vcgi:esiteid" v="79055"/>
  </node>
  <node id="-270" visible="true" lat="44.65909969" lon="-72.34311642">
    <tag k="addr:housenumber" v="1838"/>
    <tag k="addr:street" v="Atwood Drive"/>
    <tag k="addr:state" v="VT"/>
    <tag k="ref:vcgi:esiteid" v="79056"/>
  </node>
  <node id="-271" visible="true" lat="44.65916824" lon="-72.32766723">
    <tag k="addr:housenumber" v="1570"/>
    <tag k="addr:street" v="South Albany Road"/>
    <tag k="addr:state" v="VT"/>
    <tag k="ref:vcgi:esiteid" v="79057"/>
  </node>
  <node id="-272" visible="true" lat="44.65931337" lon="-72.40343993">
    <tag k="addr:housenumber" v="4842"/>
    <tag k="addr:street" v="Vermont Route 14"/>
    <tag k="addr:state" v="VT"/>
    <tag k="ref:vcgi:esiteid" v="79058"/>
  </node>
  <node id="-273" visible="true" lat="44.65916061" lon="-72.37630463">
    <tag k="addr:housenumber" v="1281"/>
    <tag k="addr:street" v="King Farm Road"/>
    <tag k="addr:state" v="VT"/>
    <tag k="ref:vcgi:esiteid" v="79059"/>
  </node>
  <node id="-274" visible="true" lat="44.65912628" lon="-72.41964722">
    <tag k="addr:housenumber" v="109"/>
    <tag k="addr:street" v="Coburn Hill Road"/>
    <tag k="addr:state" v="VT"/>
    <tag k="ref:vcgi:esiteid" v="79060"/>
  </node>
  <node id="-275" visible="true" lat="44.65907669" lon="-72.37906647">
    <tag k="addr:housenumber" v="160"/>
    <tag k="addr:street" v="Strong Road"/>
    <tag k="addr:state" v="VT"/>
    <tag k="ref:vcgi:esiteid" v="79061"/>
  </node>
  <node id="-276" visible="true" lat="44.65874041" lon="-72.39621291">
    <tag k="addr:housenumber" v="856"/>
    <tag k="addr:street" v="Post Road"/>
    <tag k="addr:state" v="VT"/>
    <tag k="ref:vcgi:esiteid" v="79062"/>
  </node>
  <node id="-277" visible="true" lat="44.65881494" lon="-72.3955715">
    <tag k="addr:housenumber" v="784"/>
    <tag k="addr:street" v="Post Road"/>
    <tag k="addr:state" v="VT"/>
    <tag k="ref:vcgi:esiteid" v="79063"/>
  </node>
  <node id="-278" visible="true" lat="44.65872099" lon="-72.42354434">
    <tag k="addr:housenumber" v="698"/>
    <tag k="addr:street" v="Collinsville Road"/>
    <tag k="addr:state" v="VT"/>
    <tag k="ref:vcgi:esiteid" v="79064"/>
  </node>
  <node id="-279" visible="true" lat="44.65818266" lon="-72.4213239">
    <tag k="addr:housenumber" v="572"/>
    <tag k="addr:street" v="Collinsville Road"/>
    <tag k="addr:state" v="VT"/>
    <tag k="ref:vcgi:esiteid" v="79065"/>
  </node>
  <node id="-280" visible="true" lat="44.6578977" lon="-72.38318877">
    <tag k="addr:housenumber" v="1683"/>
    <tag k="addr:street" v="North Craftsbury Road"/>
    <tag k="addr:state" v="VT"/>
    <tag k="ref:vcgi:esiteid" v="79066"/>
  </node>
  <node id="-281" visible="true" lat="44.65781068" lon="-72.39526822">
    <tag k="addr:housenumber" v="84"/>
    <tag k="addr:street" v="Godin Drive"/>
    <tag k="addr:state" v="VT"/>
    <tag k="ref:vcgi:esiteid" v="79067"/>
  </node>
  <node id="-282" visible="true" lat="44.6578256" lon="-72.40323437">
    <tag k="addr:housenumber" v="1173"/>
    <tag k="addr:street" v="Post Road"/>
    <tag k="addr:state" v="VT"/>
    <tag k="ref:vcgi:esiteid" v="79068"/>
  </node>
  <node id="-283" visible="true" lat="44.65751254" lon="-72.35239608">
    <tag k="addr:housenumber" v="1836"/>
    <tag k="addr:street" v="Atwood Drive"/>
    <tag k="addr:state" v="VT"/>
    <tag k="ref:vcgi:esiteid" v="79069"/>
  </node>
  <node id="-284" visible="true" lat="44.65752459" lon="-72.35416269">
    <tag k="addr:housenumber" v="1811"/>
    <tag k="addr:street" v="Creek Road"/>
    <tag k="addr:state" v="VT"/>
    <tag k="ref:vcgi:esiteid" v="79070"/>
  </node>
  <node id="-285" visible="true" lat="44.65737503" lon="-72.38348734">
    <tag k="addr:housenumber" v="1655"/>
    <tag k="addr:street" v="North Craftsbury Road"/>
    <tag k="addr:state" v="VT"/>
    <tag k="ref:vcgi:esiteid" v="79071"/>
  </node>
  <node id="-286" visible="true" lat="44.65694213" lon="-72.42001086">
    <tag k="addr:housenumber" v="481"/>
    <tag k="addr:street" v="Collinsville Road"/>
    <tag k="addr:state" v="VT"/>
    <tag k="ref:vcgi:esiteid" v="79072"/>
  </node>
  <node id="-287" visible="true" lat="44.65719915" lon="-72.40354926">
    <tag k="addr:housenumber" v="1177"/>
    <tag k="addr:street" v="Post Road"/>
    <tag k="addr:state" v="VT"/>
    <tag k="ref:vcgi:esiteid" v="79073"/>
  </node>
  <node id="-288" visible="true" lat="44.6570608" lon="-72.35457345">
    <tag k="addr:housenumber" v="1769"/>
    <tag k="addr:street" v="Creek Road"/>
    <tag k="addr:state" v="VT"/>
    <tag k="ref:vcgi:esiteid" v="79074"/>
  </node>
  <node id="-289" visible="true" lat="44.65662197" lon="-72.37417711">
    <tag k="addr:housenumber" v="1051"/>
    <tag k="addr:street" v="King Farm Road"/>
    <tag k="addr:state" v="VT"/>
    <tag k="ref:vcgi:esiteid" v="79075"/>
  </node>
  <node id="-290" visible="true" lat="44.65668037" lon="-72.38296973">
    <tag k="addr:housenumber" v="1601"/>
    <tag k="addr:street" v="North Craftsbury Road"/>
    <tag k="addr:state" v="VT"/>
    <tag k="ref:vcgi:esiteid" v="79076"/>
  </node>
  <node id="-291" visible="true" lat="44.65667725" lon="-72.41873932">
    <tag k="addr:housenumber" v="398"/>
    <tag k="addr:street" v="Collinsville Road"/>
    <tag k="addr:state" v="VT"/>
    <tag k="ref:vcgi:esiteid" v="79077"/>
  </node>
  <node id="-292" visible="true" lat="44.65595025" lon="-72.41957593">
    <tag k="addr:housenumber" v="389"/>
    <tag k="addr:street" v="Collinsville Road"/>
    <tag k="addr:state" v="VT"/>
    <tag k="ref:vcgi:esiteid" v="79078"/>
  </node>
  <node id="-293" visible="true" lat="44.65522366" lon="-72.33132559">
    <tag k="addr:housenumber" v="1284"/>
    <tag k="addr:street" v="South Albany Road"/>
    <tag k="addr:state" v="VT"/>
    <tag k="ref:vcgi:esiteid" v="79079"/>
  </node>
  <node id="-294" visible="true" lat="44.65599169" lon="-72.41887077">
    <tag k="addr:housenumber" v="378"/>
    <tag k="addr:street" v="Collinsville Road"/>
    <tag k="addr:state" v="VT"/>
    <tag k="ref:vcgi:esiteid" v="79080"/>
  </node>
  <node id="-296" visible="true" lat="44.65540529" lon="-72.38091114">
    <tag k="addr:housenumber" v="75"/>
    <tag k="addr:street" v="Dustan Road"/>
    <tag k="addr:state" v="VT"/>
    <tag k="ref:vcgi:esiteid" v="79082"/>
  </node>
  <node id="-297" visible="true" lat="44.65562142" lon="-72.38274972">
    <tag k="addr:housenumber" v="1519"/>
    <tag k="addr:street" v="North Craftsbury Road"/>
    <tag k="addr:state" v="VT"/>
    <tag k="ref:vcgi:esiteid" v="79083"/>
  </node>
  <node id="-298" visible="true" lat="44.65527785" lon="-72.38210453">
    <tag k="addr:housenumber" v="13"/>
    <tag k="addr:street" v="Dustan Road"/>
    <tag k="addr:state" v="VT"/>
    <tag k="ref:vcgi:esiteid" v="79085"/>
  </node>
  <node id="-299" visible="true" lat="44.65519624" lon="-72.38227704">
    <tag k="addr:housenumber" v="1492"/>
    <tag k="addr:street" v="North Craftsbury Road"/>
    <tag k="addr:state" v="VT"/>
    <tag k="ref:vcgi:esiteid" v="79086"/>
  </node>
  <node id="-300" visible="true" lat="44.65508651" lon="-72.38266754">
    <tag k="addr:housenumber" v="1487"/>
    <tag k="addr:street" v="North Craftsbury Road"/>
    <tag k="addr:state" v="VT"/>
    <tag k="ref:vcgi:esiteid" v="79087"/>
  </node>
  <node id="-301" visible="true" lat="44.65489249" lon="-72.38436049">
    <tag k="addr:housenumber" v="89"/>
    <tag k="addr:street" v="Church Lane"/>
    <tag k="addr:state" v="VT"/>
    <tag k="ref:vcgi:esiteid" v="79088"/>
  </node>
  <node id="-302" visible="true" lat="44.65498052" lon="-72.37787132">
    <tag k="addr:housenumber" v="230"/>
    <tag k="addr:street" v="Dustan Road"/>
    <tag k="addr:state" v="VT"/>
    <tag k="ref:vcgi:esiteid" v="79089"/>
  </node>
  <node id="-303" visible="true" lat="44.65482795" lon="-72.38388861">
    <tag k="addr:housenumber" v="37"/>
    <tag k="addr:street" v="Church Lane"/>
    <tag k="addr:state" v="VT"/>
    <tag k="ref:vcgi:esiteid" v="79090"/>
  </node>
  <node id="-304" visible="true" lat="44.65483121" lon="-72.38213945">
    <tag k="addr:housenumber" v="1468"/>
    <tag k="addr:street" v="North Craftsbury Road"/>
    <tag k="addr:state" v="VT"/>
    <tag k="ref:vcgi:esiteid" v="79091"/>
  </node>
  <node id="-305" visible="true" lat="44.65477156" lon="-72.40503483">
    <tag k="addr:housenumber" v="6"/>
    <tag k="addr:street" v="Common View Drive"/>
    <tag k="addr:state" v="VT"/>
    <tag k="ref:vcgi:esiteid" v="79092"/>
  </node>
  <node id="-306" visible="true" lat="44.65473426" lon="-72.33396658">
    <tag k="addr:housenumber" v="1137"/>
    <tag k="addr:street" v="South Albany Road"/>
    <tag k="addr:state" v="VT"/>
    <tag k="ref:vcgi:esiteid" v="79093"/>
  </node>
  <node id="-307" visible="true" lat="44.65466794" lon="-72.38200747">
    <tag k="addr:housenumber" v="1454"/>
    <tag k="addr:street" v="North Craftsbury Road"/>
    <tag k="addr:state" v="VT"/>
    <tag k="ref:vcgi:esiteid" v="79094"/>
  </node>
  <node id="-308" visible="true" lat="44.65457463" lon="-72.38259657">
    <tag k="addr:housenumber" v="1445"/>
    <tag k="addr:street" v="North Craftsbury Road"/>
    <tag k="addr:state" v="VT"/>
    <tag k="ref:vcgi:esiteid" v="79095"/>
  </node>
  <node id="-309" visible="true" lat="44.65449087" lon="-72.38306031">
    <tag k="addr:housenumber" v="173"/>
    <tag k="addr:street" v="Common Loop"/>
    <tag k="addr:state" v="VT"/>
    <tag k="ref:vcgi:esiteid" v="79096"/>
  </node>
  <node id="-311" visible="true" lat="44.65411923" lon="-72.385125">
    <tag k="addr:housenumber" v="80"/>
    <tag k="addr:street" v="Mountain Hill Road"/>
    <tag k="addr:state" v="VT"/>
    <tag k="ref:vcgi:esiteid" v="79099"/>
  </node>
  <node id="-314" visible="true" lat="44.65407536" lon="-72.3861328">
    <tag k="addr:housenumber" v="172"/>
    <tag k="addr:street" v="Mountain Hill Road"/>
    <tag k="addr:state" v="VT"/>
    <tag k="ref:vcgi:esiteid" v="79102"/>
  </node>
  <node id="-315" visible="true" lat="44.65382287" lon="-72.38196844">
    <tag k="addr:housenumber" v="1396"/>
    <tag k="addr:street" v="North Craftsbury Road"/>
    <tag k="addr:state" v="VT"/>
    <tag k="ref:vcgi:esiteid" v="79104"/>
  </node>
  <node id="-316" visible="true" lat="44.65380341" lon="-72.4055044">
    <tag k="addr:housenumber" v="4443"/>
    <tag k="addr:street" v="Vermont Route 14"/>
    <tag k="addr:state" v="VT"/>
    <tag k="ref:vcgi:esiteid" v="79105"/>
  </node>
  <node id="-317" visible="true" lat="44.6536722" lon="-72.41818322">
    <tag k="addr:housenumber" v="181"/>
    <tag k="addr:street" v="Collinsville Road"/>
    <tag k="addr:state" v="VT"/>
    <tag k="ref:vcgi:esiteid" v="79106"/>
  </node>
  <node id="-318" visible="true" lat="44.65361982" lon="-72.38387173">
    <tag k="addr:housenumber" v="18"/>
    <tag k="addr:street" v="Mountain Hill Road"/>
    <tag k="addr:state" v="VT"/>
    <tag k="ref:vcgi:esiteid" v="79107"/>
  </node>
  <node id="-319" visible="true" lat="44.6535295" lon="-72.38190736">
    <tag k="addr:housenumber" v="1376"/>
    <tag k="addr:street" v="North Craftsbury Road"/>
    <tag k="addr:state" v="VT"/>
    <tag k="ref:vcgi:esiteid" v="79108"/>
  </node>
  <node id="-320" visible="true" lat="44.65351469" lon="-72.38445658">
    <tag k="addr:housenumber" v="48"/>
    <tag k="addr:street" v="Mountain Hill Road"/>
    <tag k="addr:state" v="VT"/>
    <tag k="ref:vcgi:esiteid" v="79109"/>
  </node>
  <node id="-321" visible="true" lat="44.65330118" lon="-72.38368308">
    <tag k="addr:housenumber" v="21"/>
    <tag k="addr:street" v="Mountain Hill Road"/>
    <tag k="addr:state" v="VT"/>
    <tag k="ref:vcgi:esiteid" v="79110"/>
  </node>
  <node id="-322" visible="true" lat="44.65341639" lon="-72.38183126">
    <tag k="addr:housenumber" v="1366"/>
    <tag k="addr:street" v="North Craftsbury Road"/>
    <tag k="addr:state" v="VT"/>
    <tag k="ref:vcgi:esiteid" v="79111"/>
  </node>
  <node id="-323" visible="true" lat="44.65315589" lon="-72.38448679">
    <tag k="addr:housenumber" v="53"/>
    <tag k="addr:street" v="Mountain Hill Road"/>
    <tag k="addr:state" v="VT"/>
    <tag k="ref:vcgi:esiteid" v="79112"/>
  </node>
  <node id="-324" visible="true" lat="44.65324318" lon="-72.38180106">
    <tag k="addr:housenumber" v="1354"/>
    <tag k="addr:street" v="North Craftsbury Road"/>
    <tag k="addr:state" v="VT"/>
    <tag k="ref:vcgi:esiteid" v="79113"/>
  </node>
  <node id="-325" visible="true" lat="44.6531794" lon="-72.33447497">
    <tag k="addr:housenumber" v="1026"/>
    <tag k="addr:street" v="South Albany Road"/>
    <tag k="addr:state" v="VT"/>
    <tag k="ref:vcgi:esiteid" v="79114"/>
  </node>
  <node id="-326" visible="true" lat="44.6530747" lon="-72.38183627">
    <tag k="addr:housenumber" v="1346"/>
    <tag k="addr:street" v="North Craftsbury Road"/>
    <tag k="addr:state" v="VT"/>
    <tag k="ref:vcgi:esiteid" v="79115"/>
  </node>
  <node id="-327" visible="true" lat="44.65305536" lon="-72.37099836">
    <tag k="addr:housenumber" v="790"/>
    <tag k="addr:street" v="King Farm Road"/>
    <tag k="addr:state" v="VT"/>
    <tag k="ref:vcgi:esiteid" v="79116"/>
  </node>
  <node id="-328" visible="true" lat="44.65309695" lon="-72.40643997">
    <tag k="addr:housenumber" v="44"/>
    <tag k="addr:street" v="Wild Branch Road"/>
    <tag k="addr:state" v="VT"/>
    <tag k="ref:vcgi:esiteid" v="79117"/>
  </node>
  <node id="-329" visible="true" lat="44.65300004" lon="-72.41630936">
    <tag k="addr:housenumber" v="116"/>
    <tag k="addr:street" v="Collinsville Road"/>
    <tag k="addr:state" v="VT"/>
    <tag k="ref:vcgi:esiteid" v="79118"/>
  </node>
  <node id="-330" visible="true" lat="44.65274793" lon="-72.38171858">
    <tag k="addr:housenumber" v="1322"/>
    <tag k="addr:street" v="North Craftsbury Road"/>
    <tag k="addr:state" v="VT"/>
    <tag k="ref:vcgi:esiteid" v="79119"/>
  </node>
  <node id="-331" visible="true" lat="44.65260925" lon="-72.38259177">
    <tag k="addr:housenumber" v="41"/>
    <tag k="addr:street" v="Common Loop"/>
    <tag k="addr:state" v="VT"/>
    <tag k="ref:vcgi:esiteid" v="79120"/>
  </node>
  <node id="-332" visible="true" lat="44.6526947" lon="-72.35630798">
    <tag k="addr:housenumber" v="1522"/>
    <tag k="addr:street" v="Creek Road"/>
    <tag k="addr:state" v="VT"/>
    <tag k="ref:vcgi:esiteid" v="79121"/>
  </node>
  <node id="-333" visible="true" lat="44.65267814" lon="-72.38217272">
    <tag k="addr:housenumber" v="1321"/>
    <tag k="addr:street" v="North Craftsbury Road"/>
    <tag k="addr:state" v="VT"/>
    <tag k="ref:vcgi:esiteid" v="79122"/>
  </node>
  <node id="-334" visible="true" lat="44.65242305" lon="-72.33489136">
    <tag k="addr:housenumber" v="972"/>
    <tag k="addr:street" v="South Albany Road"/>
    <tag k="addr:state" v="VT"/>
    <tag k="ref:vcgi:esiteid" v="79123"/>
  </node>
  <node id="-335" visible="true" lat="44.65250032" lon="-72.38222019">
    <tag k="addr:housenumber" v="1307"/>
    <tag k="addr:street" v="North Craftsbury Road"/>
    <tag k="addr:state" v="VT"/>
    <tag k="ref:vcgi:esiteid" v="79124"/>
  </node>
  <node id="-336" visible="true" lat="44.65244244" lon="-72.38341781">
    <tag k="addr:housenumber" v="91"/>
    <tag k="addr:street" v="Sterling Drive"/>
    <tag k="addr:state" v="VT"/>
    <tag k="ref:vcgi:esiteid" v="79125"/>
  </node>
  <node id="-337" visible="true" lat="44.65240097" lon="-72.41547394">
    <tag k="addr:housenumber" v="61"/>
    <tag k="addr:street" v="Collinsville Road"/>
    <tag k="addr:state" v="VT"/>
    <tag k="ref:vcgi:esiteid" v="79126"/>
  </node>
  <node id="-338" visible="true" lat="44.65234756" lon="-72.3830719">
    <tag k="addr:housenumber" v="82"/>
    <tag k="addr:street" v="Sterling Drive"/>
    <tag k="addr:state" v="VT"/>
    <tag k="ref:vcgi:esiteid" v="79128"/>
  </node>
  <node id="-339" visible="true" lat="44.65227967" lon="-72.38164738">
    <tag k="addr:housenumber" v="17"/>
    <tag k="addr:street" v="Auld Lang Syne Road"/>
    <tag k="addr:state" v="VT"/>
    <tag k="ref:vcgi:esiteid" v="79129"/>
  </node>
  <node id="-340" visible="true" lat="44.65226827" lon="-72.38218168">
    <tag k="addr:housenumber" v="16"/>
    <tag k="addr:street" v="Sterling Drive"/>
    <tag k="addr:state" v="VT"/>
    <tag k="ref:vcgi:esiteid" v="79130"/>
  </node>
  <node id="-341" visible="true" lat="44.65222909" lon="-72.38264669">
    <tag k="addr:housenumber" v="30"/>
    <tag k="addr:street" v="Sterling Drive"/>
    <tag k="addr:state" v="VT"/>
    <tag k="ref:vcgi:esiteid" v="79131"/>
  </node>
  <node id="-342" visible="true" lat="44.6518322" lon="-72.3823106">
    <tag k="addr:housenumber" v="19"/>
    <tag k="addr:street" v="Sterling Drive"/>
    <tag k="addr:state" v="VT"/>
    <tag k="ref:vcgi:esiteid" v="79133"/>
  </node>
  <node id="-343" visible="true" lat="44.65190731" lon="-72.38093712">
    <tag k="addr:housenumber" v="48"/>
    <tag k="addr:street" v="Auld Lang Syne Road"/>
    <tag k="addr:state" v="VT"/>
    <tag k="ref:vcgi:esiteid" v="79134"/>
  </node>
  <node id="-344" visible="true" lat="44.65178979" lon="-72.38271348">
    <tag k="addr:housenumber" v="43"/>
    <tag k="addr:street" v="Sterling Drive"/>
    <tag k="addr:state" v="VT"/>
    <tag k="ref:vcgi:esiteid" v="79135"/>
  </node>
  <node id="-345" visible="true" lat="44.65190489" lon="-72.38157389">
    <tag k="addr:housenumber" v="1264"/>
    <tag k="addr:street" v="North Craftsbury Road"/>
    <tag k="addr:state" v="VT"/>
    <tag k="ref:vcgi:esiteid" v="79136"/>
  </node>
  <node id="-346" visible="true" lat="44.65181162" lon="-72.38373775">
    <tag k="addr:housenumber" v="63"/>
    <tag k="addr:street" v="Sterling Drive"/>
    <tag k="addr:state" v="VT"/>
    <tag k="ref:vcgi:esiteid" v="79137"/>
  </node>
  <node id="-347" visible="true" lat="44.65171564" lon="-72.3802362">
    <tag k="addr:housenumber" v="94"/>
    <tag k="addr:street" v="Auld Lang Syne Road"/>
    <tag k="addr:state" v="VT"/>
    <tag k="ref:vcgi:esiteid" v="79138"/>
  </node>
  <node id="-348" visible="true" lat="44.65171416" lon="-72.3831654">
    <tag k="addr:housenumber" v="55"/>
    <tag k="addr:street" v="Sterling Drive"/>
    <tag k="addr:state" v="VT"/>
    <tag k="ref:vcgi:esiteid" v="79139"/>
  </node>
  <node id="-349" visible="true" lat="44.65171822" lon="-72.38202049">
    <tag k="addr:housenumber" v="1253"/>
    <tag k="addr:street" v="North Craftsbury Road"/>
    <tag k="addr:state" v="VT"/>
    <tag k="ref:vcgi:esiteid" v="79140"/>
  </node>
  <node id="-350" visible="true" lat="44.65157632" lon="-72.38589186">
    <tag k="addr:housenumber" v="163"/>
    <tag k="addr:street" v="Slawson Drive"/>
    <tag k="addr:state" v="VT"/>
    <tag k="ref:vcgi:esiteid" v="79141"/>
  </node>
  <node id="-351" visible="true" lat="44.65122222" lon="-72.32644653">
    <tag k="addr:housenumber" v="525"/>
    <tag k="addr:street" v="Echo Hill Road"/>
    <tag k="addr:state" v="VT"/>
    <tag k="ref:vcgi:esiteid" v="79142"/>
  </node>
  <node id="-352" visible="true" lat="44.65125354" lon="-72.38326193">
    <tag k="addr:housenumber" v="76"/>
    <tag k="addr:street" v="Sterling Farm Road"/>
    <tag k="addr:state" v="VT"/>
    <tag k="ref:vcgi:esiteid" v="79143"/>
  </node>
  <node id="-353" visible="true" lat="44.65104684" lon="-72.38190605">
    <tag k="addr:housenumber" v="1205"/>
    <tag k="addr:street" v="North Craftsbury Road"/>
    <tag k="addr:state" v="VT"/>
    <tag k="ref:vcgi:esiteid" v="79144"/>
  </node>
  <node id="-354" visible="true" lat="44.65097232" lon="-72.41641538">
    <tag k="addr:housenumber" v="540"/>
    <tag k="addr:street" v="Wild Branch Road"/>
    <tag k="addr:state" v="VT"/>
    <tag k="ref:vcgi:esiteid" v="79145"/>
  </node>
  <node id="-355" visible="true" lat="44.65077591" lon="-72.35826873">
    <tag k="addr:housenumber" v="1334"/>
    <tag k="addr:street" v="Creek Road"/>
    <tag k="addr:state" v="VT"/>
    <tag k="ref:vcgi:esiteid" v="79146"/>
  </node>
  <node id="-356" visible="true" lat="44.65059404" lon="-72.38187666">
    <tag k="addr:housenumber" v="1177"/>
    <tag k="addr:street" v="North Craftsbury Road"/>
    <tag k="addr:state" v="VT"/>
    <tag k="ref:vcgi:esiteid" v="79147"/>
  </node>
  <node id="-357" visible="true" lat="44.65043764" lon="-72.38182325">
    <tag k="addr:housenumber" v="1165"/>
    <tag k="addr:street" v="North Craftsbury Road"/>
    <tag k="addr:state" v="VT"/>
    <tag k="ref:vcgi:esiteid" v="79148"/>
  </node>
  <node id="-358" visible="true" lat="44.65049412" lon="-72.38129205">
    <tag k="addr:housenumber" v="1162"/>
    <tag k="addr:street" v="North Craftsbury Road"/>
    <tag k="addr:state" v="VT"/>
    <tag k="ref:vcgi:esiteid" v="79149"/>
  </node>
  <node id="-359" visible="true" lat="44.65047073" lon="-72.41553497">
    <tag k="addr:housenumber" v="577"/>
    <tag k="addr:street" v="Wild Branch Road"/>
    <tag k="addr:state" v="VT"/>
    <tag k="ref:vcgi:esiteid" v="79150"/>
  </node>
  <node id="-360" visible="true" lat="44.65042416" lon="-72.37621196">
    <tag k="addr:housenumber" v="315"/>
    <tag k="addr:street" v="Auld Lang Syne Road"/>
    <tag k="addr:state" v="VT"/>
    <tag k="ref:vcgi:esiteid" v="79151"/>
  </node>
  <node id="-361" visible="true" lat="44.65028369" lon="-72.38127847">
    <tag k="addr:housenumber" v="1146"/>
    <tag k="addr:street" v="North Craftsbury Road"/>
    <tag k="addr:state" v="VT"/>
    <tag k="ref:vcgi:esiteid" v="79152"/>
  </node>
  <node id="-362" visible="true" lat="44.65046126" lon="-72.33715048">
    <tag k="addr:housenumber" v="783"/>
    <tag k="addr:street" v="South Albany Road"/>
    <tag k="addr:state" v="VT"/>
    <tag k="ref:vcgi:esiteid" v="79153"/>
  </node>
  <node id="-363" visible="true" lat="44.65013377" lon="-72.40543744">
    <tag k="addr:housenumber" v="4195"/>
    <tag k="addr:street" v="Vermont Route 14"/>
    <tag k="addr:state" v="VT"/>
    <tag k="ref:vcgi:esiteid" v="79154"/>
  </node>
  <node id="-364" visible="true" lat="44.64995574" lon="-72.38210296">
    <tag k="addr:housenumber" v="1147"/>
    <tag k="addr:street" v="North Craftsbury Road"/>
    <tag k="addr:state" v="VT"/>
    <tag k="ref:vcgi:esiteid" v="79155"/>
  </node>
  <node id="-365" visible="true" lat="44.64966534" lon="-72.33216796">
    <tag k="addr:housenumber" v="224"/>
    <tag k="addr:street" v="Echo Hill Road"/>
    <tag k="addr:state" v="VT"/>
    <tag k="ref:vcgi:esiteid" v="79157"/>
  </node>
  <node id="-366" visible="true" lat="44.64974133" lon="-72.37618908">
    <tag k="addr:housenumber" v="317"/>
    <tag k="addr:street" v="Auld Lang Syne Road"/>
    <tag k="addr:state" v="VT"/>
    <tag k="ref:vcgi:esiteid" v="79158"/>
  </node>
  <node id="-367" visible="true" lat="44.64880079" lon="-72.3773366">
    <tag k="addr:housenumber" v="198"/>
    <tag k="addr:street" v="Auld Lang Syne Road"/>
    <tag k="addr:state" v="VT"/>
    <tag k="ref:vcgi:esiteid" v="79159"/>
  </node>
  <node id="-368" visible="true" lat="44.64864721" lon="-72.36066961">
    <tag k="addr:housenumber" v="1080"/>
    <tag k="addr:street" v="Creek Road"/>
    <tag k="addr:state" v="VT"/>
    <tag k="ref:vcgi:esiteid" v="79160"/>
  </node>
  <node id="-369" visible="true" lat="44.64835866" lon="-72.36328099">
    <tag k="addr:housenumber" v="375"/>
    <tag k="addr:street" v="Young Road"/>
    <tag k="addr:state" v="VT"/>
    <tag k="ref:vcgi:esiteid" v="79161"/>
  </node>
  <node id="-370" visible="true" lat="44.64813383" lon="-72.36131074">
    <tag k="addr:housenumber" v="73"/>
    <tag k="addr:street" v="Ketchum Hill Road"/>
    <tag k="addr:state" v="VT"/>
    <tag k="ref:vcgi:esiteid" v="79162"/>
  </node>
  <node id="-371" visible="true" lat="44.6476326" lon="-72.36813354">
    <tag k="addr:housenumber" v="91"/>
    <tag k="addr:street" v="Young Road"/>
    <tag k="addr:state" v="VT"/>
    <tag k="ref:vcgi:esiteid" v="79163"/>
  </node>
  <node id="-372" visible="true" lat="44.64740309" lon="-72.36675723">
    <tag k="addr:housenumber" v="169"/>
    <tag k="addr:street" v="Young Road"/>
    <tag k="addr:state" v="VT"/>
    <tag k="ref:vcgi:esiteid" v="79164"/>
  </node>
  <node id="-373" visible="true" lat="44.64678811" lon="-72.36164314">
    <tag k="addr:housenumber" v="990"/>
    <tag k="addr:street" v="Creek Road"/>
    <tag k="addr:state" v="VT"/>
    <tag k="ref:vcgi:esiteid" v="79165"/>
  </node>
  <node id="-374" visible="true" lat="44.64676097" lon="-72.37041968">
    <tag k="addr:housenumber" v="361"/>
    <tag k="addr:street" v="King Farm Road"/>
    <tag k="addr:state" v="VT"/>
    <tag k="ref:vcgi:esiteid" v="79166"/>
  </node>
  <node id="-375" visible="true" lat="44.64687347" lon="-72.41706848">
    <tag k="addr:housenumber" v="865"/>
    <tag k="addr:street" v="Wild Branch Road"/>
    <tag k="addr:state" v="VT"/>
    <tag k="ref:vcgi:esiteid" v="79167"/>
  </node>
  <node id="-376" visible="true" lat="44.64653778" lon="-72.36681366">
    <tag k="addr:housenumber" v="92"/>
    <tag k="addr:street" v="Young Road"/>
    <tag k="addr:state" v="VT"/>
    <tag k="ref:vcgi:esiteid" v="79168"/>
  </node>
  <node id="-377" visible="true" lat="44.64634166" lon="-72.35638067">
    <tag k="addr:housenumber" v="398"/>
    <tag k="addr:street" v="Ketchum Hill Road"/>
    <tag k="addr:state" v="VT"/>
    <tag k="ref:vcgi:esiteid" v="79169"/>
  </node>
  <node id="-378" visible="true" lat="44.646492" lon="-72.40424347">
    <tag k="addr:housenumber" v="3997"/>
    <tag k="addr:street" v="Vermont Route 14"/>
    <tag k="addr:state" v="VT"/>
    <tag k="ref:vcgi:esiteid" v="79170"/>
  </node>
  <node id="-379" visible="true" lat="44.64609061" lon="-72.34055248">
    <tag k="addr:housenumber" v="451"/>
    <tag k="addr:street" v="South Albany Road"/>
    <tag k="addr:state" v="VT"/>
    <tag k="ref:vcgi:esiteid" v="79171"/>
  </node>
  <node id="-380" visible="true" lat="44.64599609" lon="-72.37989807">
    <tag k="addr:housenumber" v="841"/>
    <tag k="addr:street" v="North Craftsbury Road"/>
    <tag k="addr:state" v="VT"/>
    <tag k="ref:vcgi:esiteid" v="79172"/>
  </node>
  <node id="-381" visible="true" lat="44.64557647" lon="-72.38106536">
    <tag k="addr:housenumber" v="757"/>
    <tag k="addr:street" v="North Craftsbury Road"/>
    <tag k="addr:state" v="VT"/>
    <tag k="ref:vcgi:esiteid" v="79173"/>
  </node>
  <node id="-382" visible="true" lat="44.64554214" lon="-72.36956787">
    <tag k="addr:housenumber" v="260"/>
    <tag k="addr:street" v="King Farm Road"/>
    <tag k="addr:state" v="VT"/>
    <tag k="ref:vcgi:esiteid" v="79174"/>
  </node>
  <node id="-383" visible="true" lat="44.64529419" lon="-72.40267944">
    <tag k="addr:housenumber" v="3836"/>
    <tag k="addr:street" v="Vermont Route 14"/>
    <tag k="addr:state" v="VT"/>
    <tag k="ref:vcgi:esiteid" v="79175"/>
  </node>
  <node id="-384" visible="true" lat="44.64523045" lon="-72.3533696">
    <tag k="addr:housenumber" v="574"/>
    <tag k="addr:street" v="Ketchum Hill Road"/>
    <tag k="addr:state" v="VT"/>
    <tag k="ref:vcgi:esiteid" v="79176"/>
  </node>
  <node id="-385" visible="true" lat="44.64312618" lon="-72.43769396">
    <tag k="addr:housenumber" v="912"/>
    <tag k="addr:street" v="Hatch Brook Road"/>
    <tag k="addr:state" v="VT"/>
    <tag k="ref:vcgi:esiteid" v="79177"/>
  </node>
  <node id="-386" visible="true" lat="44.64515381" lon="-72.364202">
    <tag k="addr:housenumber" v="781"/>
    <tag k="addr:street" v="Creek Road"/>
    <tag k="addr:state" v="VT"/>
    <tag k="ref:vcgi:esiteid" v="79178"/>
  </node>
  <node id="-387" visible="true" lat="44.6449852" lon="-72.41749573">
    <tag k="addr:housenumber" v="967"/>
    <tag k="addr:street" v="Wild Branch Road"/>
    <tag k="addr:state" v="VT"/>
    <tag k="ref:vcgi:esiteid" v="79179"/>
  </node>
  <node id="-388" visible="true" lat="44.64473455" lon="-72.3641433">
    <tag k="addr:housenumber" v="770"/>
    <tag k="addr:street" v="Creek Road"/>
    <tag k="addr:state" v="VT"/>
    <tag k="ref:vcgi:esiteid" v="79180"/>
  </node>
  <node id="-389" visible="true" lat="44.64481735" lon="-72.37819671">
    <tag k="addr:housenumber" v="802"/>
    <tag k="addr:street" v="North Craftsbury Road"/>
    <tag k="addr:state" v="VT"/>
    <tag k="ref:vcgi:esiteid" v="79181"/>
  </node>
  <node id="-390" visible="true" lat="44.64251523" lon="-72.37243603">
    <tag k="addr:housenumber" v="189"/>
    <tag k="addr:street" v="King Farm Road"/>
    <tag k="addr:state" v="VT"/>
    <tag k="ref:vcgi:esiteid" v="79182"/>
  </node>
  <node id="-391" visible="true" lat="44.64461529" lon="-72.3499021">
    <tag k="addr:housenumber" v="739"/>
    <tag k="addr:street" v="Ketchum Hill Road"/>
    <tag k="addr:state" v="VT"/>
    <tag k="ref:vcgi:esiteid" v="79183"/>
  </node>
  <node id="-392" visible="true" lat="44.64432811" lon="-72.40295152">
    <tag k="addr:housenumber" v="3723"/>
    <tag k="addr:street" v="Vermont Route 14"/>
    <tag k="addr:state" v="VT"/>
    <tag k="ref:vcgi:esiteid" v="79184"/>
  </node>
  <node id="-393" visible="true" lat="44.64405083" lon="-72.35864382">
    <tag k="addr:housenumber" v="302"/>
    <tag k="addr:street" v="Ketchum Hill Road"/>
    <tag k="addr:state" v="VT"/>
    <tag k="ref:vcgi:esiteid" v="79185"/>
  </node>
  <node id="-394" visible="true" lat="44.643643" lon="-72.40270052">
    <tag k="addr:housenumber" v="3731"/>
    <tag k="addr:street" v="Vermont Route 14"/>
    <tag k="addr:state" v="VT"/>
    <tag k="ref:vcgi:esiteid" v="79186"/>
  </node>
  <node id="-395" visible="true" lat="44.64366531" lon="-72.36974334">
    <tag k="addr:housenumber" v="111"/>
    <tag k="addr:street" v="King Farm Road"/>
    <tag k="addr:state" v="VT"/>
    <tag k="ref:vcgi:esiteid" v="79187"/>
  </node>
  <node id="-396" visible="true" lat="44.64374532" lon="-72.36642576">
    <tag k="addr:housenumber" v="625"/>
    <tag k="addr:street" v="Creek Road"/>
    <tag k="addr:state" v="VT"/>
    <tag k="ref:vcgi:esiteid" v="79188"/>
  </node>
  <node id="-397" visible="true" lat="44.64344238" lon="-72.36767268">
    <tag k="addr:housenumber" v="591"/>
    <tag k="addr:street" v="Creek Road"/>
    <tag k="addr:state" v="VT"/>
    <tag k="ref:vcgi:esiteid" v="79190"/>
  </node>
  <node id="-398" visible="true" lat="44.64327182" lon="-72.34802781">
    <tag k="addr:housenumber" v="866"/>
    <tag k="addr:street" v="Ketchum Hill Road"/>
    <tag k="addr:state" v="VT"/>
    <tag k="ref:vcgi:esiteid" v="79191"/>
  </node>
  <node id="-399" visible="true" lat="44.64343261" lon="-72.37980651">
    <tag k="addr:housenumber" v="655"/>
    <tag k="addr:street" v="North Craftsbury Road"/>
    <tag k="addr:state" v="VT"/>
    <tag k="ref:vcgi:esiteid" v="79192"/>
  </node>
  <node id="-400" visible="true" lat="44.64320754" lon="-72.38204193">
    <tag k="addr:housenumber" v="755"/>
    <tag k="addr:street" v="North Craftsbury Road"/>
    <tag k="addr:state" v="VT"/>
    <tag k="ref:vcgi:esiteid" v="79193"/>
  </node>
  <node id="-401" visible="true" lat="44.64325551" lon="-72.35359537">
    <tag k="addr:housenumber" v="644"/>
    <tag k="addr:street" v="Ketchum Hill Road"/>
    <tag k="addr:state" v="VT"/>
    <tag k="ref:vcgi:esiteid" v="79194"/>
  </node>
  <node id="-402" visible="true" lat="44.64308939" lon="-72.36969291">
    <tag k="addr:housenumber" v="59"/>
    <tag k="addr:street" v="King Farm Road"/>
    <tag k="addr:state" v="VT"/>
    <tag k="ref:vcgi:esiteid" v="79195"/>
  </node>
  <node id="-403" visible="true" lat="44.64307417" lon="-72.40233572">
    <tag k="addr:housenumber" v="3683"/>
    <tag k="addr:street" v="Vermont Route 14"/>
    <tag k="addr:state" v="VT"/>
    <tag k="ref:vcgi:esiteid" v="79196"/>
  </node>
  <node id="-404" visible="true" lat="44.64296798" lon="-72.43999421">
    <tag k="addr:housenumber" v="1219"/>
    <tag k="addr:street" v="Hatch Brook Road"/>
    <tag k="addr:state" v="VT"/>
    <tag k="ref:vcgi:esiteid" v="79197"/>
  </node>
  <node id="-405" visible="true" lat="44.64253771" lon="-72.38718187">
    <tag k="addr:housenumber" v="800"/>
    <tag k="addr:street" v="Scotts Lane"/>
    <tag k="addr:state" v="VT"/>
    <tag k="ref:vcgi:esiteid" v="79198"/>
  </node>
  <node id="-406" visible="true" lat="44.64276754" lon="-72.34427377">
    <tag k="addr:housenumber" v="1051"/>
    <tag k="addr:street" v="Ketchum Hill Road"/>
    <tag k="addr:state" v="VT"/>
    <tag k="ref:vcgi:esiteid" v="79199"/>
  </node>
  <node id="-407" visible="true" lat="44.64245769" lon="-72.36831484">
    <tag k="addr:housenumber" v="38"/>
    <tag k="addr:street" v="King Farm Road"/>
    <tag k="addr:state" v="VT"/>
    <tag k="ref:vcgi:esiteid" v="79200"/>
  </node>
  <node id="-408" visible="true" lat="44.64243913" lon="-72.40222147">
    <tag k="addr:housenumber" v="3637"/>
    <tag k="addr:street" v="Vermont Route 14"/>
    <tag k="addr:state" v="VT"/>
    <tag k="ref:vcgi:esiteid" v="79201"/>
  </node>
  <node id="-409" visible="true" lat="44.64237213" lon="-72.37696075">
    <tag k="addr:housenumber" v="654"/>
    <tag k="addr:street" v="North Craftsbury Road"/>
    <tag k="addr:state" v="VT"/>
    <tag k="ref:vcgi:esiteid" v="79202"/>
  </node>
  <node id="-410" visible="true" lat="44.6419487" lon="-72.36901092">
    <tag k="addr:housenumber" v="11"/>
    <tag k="addr:street" v="King Farm Road"/>
    <tag k="addr:state" v="VT"/>
    <tag k="ref:vcgi:esiteid" v="79203"/>
  </node>
  <node id="-411" visible="true" lat="44.64172061" lon="-72.34402823">
    <tag k="addr:housenumber" v="1088"/>
    <tag k="addr:street" v="Ketchum Hill Road"/>
    <tag k="addr:state" v="VT"/>
    <tag k="ref:vcgi:esiteid" v="79204"/>
  </node>
  <node id="-412" visible="true" lat="44.64176969" lon="-72.38210274">
    <tag k="addr:housenumber" v="245"/>
    <tag k="addr:street" v="Old Allen Road"/>
    <tag k="addr:state" v="VT"/>
    <tag k="ref:vcgi:esiteid" v="79206"/>
  </node>
  <node id="-413" visible="true" lat="44.64186311" lon="-72.34246602">
    <tag k="addr:housenumber" v="1097"/>
    <tag k="addr:street" v="Ketchum Hill Road"/>
    <tag k="addr:state" v="VT"/>
    <tag k="ref:vcgi:esiteid" v="79207"/>
  </node>
  <node id="-414" visible="true" lat="44.64152118" lon="-72.34338937">
    <tag k="addr:housenumber" v="26"/>
    <tag k="addr:street" v="South Albany Road"/>
    <tag k="addr:state" v="VT"/>
    <tag k="ref:vcgi:esiteid" v="79208"/>
  </node>
  <node id="-415" visible="true" lat="44.64136502" lon="-72.40254104">
    <tag k="addr:housenumber" v="3601"/>
    <tag k="addr:street" v="Vermont Route 14"/>
    <tag k="addr:state" v="VT"/>
    <tag k="ref:vcgi:esiteid" v="79209"/>
  </node>
  <node id="-416" visible="true" lat="44.64149265" lon="-72.34150773">
    <tag k="addr:housenumber" v="1773"/>
    <tag k="addr:street" v="East Craftsbury Road"/>
    <tag k="addr:state" v="VT"/>
    <tag k="ref:vcgi:esiteid" v="79210"/>
  </node>
  <node id="-417" visible="true" lat="44.64120483" lon="-72.41933441">
    <tag k="addr:housenumber" v="1252"/>
    <tag k="addr:street" v="Wild Branch Road"/>
    <tag k="addr:state" v="VT"/>
    <tag k="ref:vcgi:esiteid" v="79211"/>
  </node>
  <node id="-418" visible="true" lat="44.64109421" lon="-72.41962433">
    <tag k="addr:housenumber" v="1262"/>
    <tag k="addr:street" v="Wild Branch Road"/>
    <tag k="addr:state" v="VT"/>
    <tag k="ref:vcgi:esiteid" v="79212"/>
  </node>
  <node id="-419" visible="true" lat="44.64086517" lon="-72.37035107">
    <tag k="addr:housenumber" v="367"/>
    <tag k="addr:street" v="Creek Road"/>
    <tag k="addr:state" v="VT"/>
    <tag k="ref:vcgi:esiteid" v="79213"/>
  </node>
  <node id="-421" visible="true" lat="44.64039931" lon="-72.34375674">
    <tag k="addr:housenumber" v="1628"/>
    <tag k="addr:street" v="East Craftsbury Road"/>
    <tag k="addr:state" v="VT"/>
    <tag k="ref:vcgi:esiteid" v="79215"/>
  </node>
  <node id="-422" visible="true" lat="44.64035034" lon="-72.33987426">
    <tag k="addr:housenumber" v="1882"/>
    <tag k="addr:street" v="East Craftsbury Road"/>
    <tag k="addr:state" v="VT"/>
    <tag k="ref:vcgi:esiteid" v="79216"/>
  </node>
  <node id="-423" visible="true" lat="44.64031982" lon="-72.33854675">
    <tag k="addr:housenumber" v="1941"/>
    <tag k="addr:street" v="East Craftsbury Road"/>
    <tag k="addr:state" v="VT"/>
    <tag k="ref:vcgi:esiteid" v="79217"/>
  </node>
  <node id="-424" visible="true" lat="44.64036252" lon="-72.40226309">
    <tag k="addr:housenumber" v="26"/>
    <tag k="addr:street" v="East View Road"/>
    <tag k="addr:state" v="VT"/>
    <tag k="ref:vcgi:esiteid" v="79218"/>
  </node>
  <node id="-425" visible="true" lat="44.64005099" lon="-72.33922399">
    <tag k="addr:housenumber" v="1938"/>
    <tag k="addr:street" v="East Craftsbury Road"/>
    <tag k="addr:state" v="VT"/>
    <tag k="ref:vcgi:esiteid" v="79219"/>
  </node>
  <node id="-426" visible="true" lat="44.64023573" lon="-72.34448697">
    <tag k="addr:housenumber" v="1601"/>
    <tag k="addr:street" v="East Craftsbury Road"/>
    <tag k="addr:state" v="VT"/>
    <tag k="ref:vcgi:esiteid" v="79220"/>
  </node>
  <node id="-427" visible="true" lat="44.64010238" lon="-72.37733459">
    <tag k="addr:housenumber" v="421"/>
    <tag k="addr:street" v="North Craftsbury Road"/>
    <tag k="addr:state" v="VT"/>
    <tag k="ref:vcgi:esiteid" v="79221"/>
  </node>
  <node id="-428" visible="true" lat="44.63986516" lon="-72.35923632">
    <tag k="addr:housenumber" v="372"/>
    <tag k="addr:street" v="Breitmeyer Drive"/>
    <tag k="addr:state" v="VT"/>
    <tag k="ref:vcgi:esiteid" v="79222"/>
  </node>
  <node id="-429" visible="true" lat="44.64007429" lon="-72.37499583">
    <tag k="addr:housenumber" v="330"/>
    <tag k="addr:street" v="North Craftsbury Road"/>
    <tag k="addr:state" v="VT"/>
    <tag k="ref:vcgi:esiteid" v="79224"/>
  </node>
  <node id="-430" visible="true" lat="44.64002228" lon="-72.41982269">
    <tag k="addr:housenumber" v="1336"/>
    <tag k="addr:street" v="Wild Branch Road"/>
    <tag k="addr:state" v="VT"/>
    <tag k="ref:vcgi:esiteid" v="79225"/>
  </node>
  <node id="-432" visible="true" lat="44.63989923" lon="-72.37072403">
    <tag k="addr:housenumber" v="295"/>
    <tag k="addr:street" v="Creek Road"/>
    <tag k="addr:state" v="VT"/>
    <tag k="ref:vcgi:esiteid" v="79227"/>
  </node>
  <node id="-433" visible="true" lat="44.63973998" lon="-72.33862304">
    <tag k="addr:housenumber" v="1956"/>
    <tag k="addr:street" v="East Craftsbury Road"/>
    <tag k="addr:state" v="VT"/>
    <tag k="ref:vcgi:esiteid" v="79228"/>
  </node>
  <node id="-434" visible="true" lat="44.6396752" lon="-72.37034252">
    <tag k="addr:housenumber" v="294"/>
    <tag k="addr:street" v="Creek Road"/>
    <tag k="addr:state" v="VT"/>
    <tag k="ref:vcgi:esiteid" v="79229"/>
  </node>
  <node id="-435" visible="true" lat="44.63958358" lon="-72.33688354">
    <tag k="addr:housenumber" v="2051"/>
    <tag k="addr:street" v="East Craftsbury Road"/>
    <tag k="addr:state" v="VT"/>
    <tag k="ref:vcgi:esiteid" v="79230"/>
  </node>
  <node id="-436" visible="true" lat="44.63944625" lon="-72.33736419">
    <tag k="addr:housenumber" v="10"/>
    <tag k="addr:street" v="Whetstone Brook Road"/>
    <tag k="addr:state" v="VT"/>
    <tag k="ref:vcgi:esiteid" v="79231"/>
  </node>
  <node id="-437" visible="true" lat="44.63941705" lon="-72.41996273">
    <tag k="addr:housenumber" v="1374"/>
    <tag k="addr:street" v="Wild Branch Road"/>
    <tag k="addr:state" v="VT"/>
    <tag k="ref:vcgi:esiteid" v="79232"/>
  </node>
  <node id="-438" visible="true" lat="44.63874052" lon="-72.33844637">
    <tag k="addr:housenumber" v="2000"/>
    <tag k="addr:street" v="East Craftsbury Road"/>
    <tag k="addr:state" v="VT"/>
    <tag k="ref:vcgi:esiteid" v="79233"/>
  </node>
  <node id="-439" visible="true" lat="44.63935034" lon="-72.33701163">
    <tag k="addr:housenumber" v="11"/>
    <tag k="addr:street" v="Whetstone Brook Road"/>
    <tag k="addr:state" v="VT"/>
    <tag k="ref:vcgi:esiteid" v="79234"/>
  </node>
  <node id="-440" visible="true" lat="44.63927078" lon="-72.37546539">
    <tag k="addr:housenumber" v="321"/>
    <tag k="addr:street" v="North Craftsbury Road"/>
    <tag k="addr:state" v="VT"/>
    <tag k="ref:vcgi:esiteid" v="79235"/>
  </node>
  <node id="-441" visible="true" lat="44.63905495" lon="-72.46689901">
    <tag k="addr:housenumber" v="2661"/>
    <tag k="addr:street" v="Hatch Brook Road"/>
    <tag k="addr:state" v="VT"/>
    <tag k="ref:vcgi:esiteid" v="79237"/>
  </node>
  <node id="-442" visible="true" lat="44.63885242" lon="-72.33789103">
    <tag k="addr:housenumber" v="42"/>
    <tag k="addr:street" v="Whetstone Brook Road"/>
    <tag k="addr:state" v="VT"/>
    <tag k="ref:vcgi:esiteid" v="79238"/>
  </node>
  <node id="-443" visible="true" lat="44.63901152" lon="-72.36460355">
    <tag k="addr:housenumber" v="89"/>
    <tag k="addr:street" v="Breitmeyer Drive"/>
    <tag k="addr:state" v="VT"/>
    <tag k="ref:vcgi:esiteid" v="79239"/>
  </node>
  <node id="-444" visible="true" lat="44.6389138" lon="-72.37080404">
    <tag k="addr:housenumber" v="228"/>
    <tag k="addr:street" v="Creek Road"/>
    <tag k="addr:state" v="VT"/>
    <tag k="ref:vcgi:esiteid" v="79240"/>
  </node>
  <node id="-445" visible="true" lat="44.63869315" lon="-72.40169154">
    <tag k="addr:housenumber" v="3413"/>
    <tag k="addr:street" v="Vermont Route 14"/>
    <tag k="addr:state" v="VT"/>
    <tag k="ref:vcgi:esiteid" v="79241"/>
  </node>
  <node id="-446" visible="true" lat="44.63882779" lon="-72.37163767">
    <tag k="addr:housenumber" v="211"/>
    <tag k="addr:street" v="Creek Road"/>
    <tag k="addr:state" v="VT"/>
    <tag k="ref:vcgi:esiteid" v="79242"/>
  </node>
  <node id="-447" visible="true" lat="44.63874142" lon="-72.33726956">
    <tag k="addr:housenumber" v="57"/>
    <tag k="addr:street" v="Whetstone Brook Road"/>
    <tag k="addr:state" v="VT"/>
    <tag k="ref:vcgi:esiteid" v="79243"/>
  </node>
  <node id="-448" visible="true" lat="44.63850934" lon="-72.37177172">
    <tag k="addr:housenumber" v="189"/>
    <tag k="addr:street" v="Creek Road"/>
    <tag k="addr:state" v="VT"/>
    <tag k="ref:vcgi:esiteid" v="79244"/>
  </node>
  <node id="-449" visible="true" lat="44.63826695" lon="-72.37126253">
    <tag k="addr:housenumber" v="14"/>
    <tag k="addr:street" v="Calderwood Hill Road"/>
    <tag k="addr:state" v="VT"/>
    <tag k="ref:vcgi:esiteid" v="79245"/>
  </node>
  <node id="-450" visible="true" lat="44.638277" lon="-72.37461626">
    <tag k="addr:housenumber" v="200"/>
    <tag k="addr:street" v="North Craftsbury Road"/>
    <tag k="addr:state" v="VT"/>
    <tag k="ref:vcgi:esiteid" v="79246"/>
  </node>
  <node id="-451" visible="true" lat="44.6383167" lon="-72.41896599">
    <tag k="addr:housenumber" v="1449"/>
    <tag k="addr:street" v="Wild Branch Road"/>
    <tag k="addr:state" v="VT"/>
    <tag k="ref:vcgi:esiteid" v="79247"/>
  </node>
  <node id="-452" visible="true" lat="44.63832091" lon="-72.37289303">
    <tag k="addr:housenumber" v="147"/>
    <tag k="addr:street" v="Creek Road"/>
    <tag k="addr:state" v="VT"/>
    <tag k="ref:vcgi:esiteid" v="79248"/>
  </node>
  <node id="-453" visible="true" lat="44.63818003" lon="-72.38103303">
    <tag k="addr:housenumber" v="172"/>
    <tag k="addr:street" v="Browns Climb"/>
    <tag k="addr:state" v="VT"/>
    <tag k="ref:vcgi:esiteid" v="79249"/>
  </node>
  <node id="-454" visible="true" lat="44.63822724" lon="-72.37094831">
    <tag k="addr:housenumber" v="30"/>
    <tag k="addr:street" v="Calderwood Hill Road"/>
    <tag k="addr:state" v="VT"/>
    <tag k="ref:vcgi:esiteid" v="79250"/>
  </node>
  <node id="-455" visible="true" lat="44.63827367" lon="-72.46204069">
    <tag k="addr:housenumber" v="2389"/>
    <tag k="addr:street" v="Hatch Brook Road"/>
    <tag k="addr:state" v="VT"/>
    <tag k="ref:vcgi:esiteid" v="79251"/>
  </node>
  <node id="-456" visible="true" lat="44.63815307" lon="-72.37577056">
    <tag k="addr:housenumber" v="199"/>
    <tag k="addr:street" v="North Craftsbury Road"/>
    <tag k="addr:state" v="VT"/>
    <tag k="ref:vcgi:esiteid" v="79252"/>
  </node>
  <node id="-457" visible="true" lat="44.63803143" lon="-72.37153222">
    <tag k="addr:housenumber" v="168"/>
    <tag k="addr:street" v="Creek Road"/>
    <tag k="addr:state" v="VT"/>
    <tag k="ref:vcgi:esiteid" v="79253"/>
  </node>
  <node id="-458" visible="true" lat="44.63791066" lon="-72.38580552">
    <tag k="addr:housenumber" v="624"/>
    <tag k="addr:street" v="Prescott Drive"/>
    <tag k="addr:state" v="VT"/>
    <tag k="ref:vcgi:esiteid" v="79254"/>
  </node>
  <node id="-459" visible="true" lat="44.63788223" lon="-72.3667221">
    <tag k="addr:housenumber" v="232"/>
    <tag k="addr:street" v="Calderwood Hill Road"/>
    <tag k="addr:state" v="VT"/>
    <tag k="ref:vcgi:esiteid" v="79255"/>
  </node>
  <node id="-460" visible="true" lat="44.63772578" lon="-72.37225818">
    <tag k="addr:housenumber" v="131"/>
    <tag k="addr:street" v="Creek Road"/>
    <tag k="addr:state" v="VT"/>
    <tag k="ref:vcgi:esiteid" v="79256"/>
  </node>
  <node id="-462" visible="true" lat="44.63724784" lon="-72.36410569">
    <tag k="addr:housenumber" v="380"/>
    <tag k="addr:street" v="Calderwood Hill Road"/>
    <tag k="addr:state" v="VT"/>
    <tag k="ref:vcgi:esiteid" v="79258"/>
  </node>
  <node id="-463" visible="true" lat="44.6374273" lon="-72.38481317">
    <tag k="addr:housenumber" v="582"/>
    <tag k="addr:street" v="Black River Road"/>
    <tag k="addr:state" v="VT"/>
    <tag k="ref:vcgi:esiteid" v="79259"/>
  </node>
  <node id="-464" visible="true" lat="44.63735169" lon="-72.37250002">
    <tag k="addr:housenumber" v="99"/>
    <tag k="addr:street" v="Creek Road"/>
    <tag k="addr:state" v="VT"/>
    <tag k="ref:vcgi:esiteid" v="79260"/>
  </node>
  <node id="-465" visible="true" lat="44.63716506" lon="-72.34304809">
    <tag k="addr:housenumber" v="218"/>
    <tag k="addr:street" v="Whetstone Brook Road"/>
    <tag k="addr:state" v="VT"/>
    <tag k="ref:vcgi:esiteid" v="79261"/>
  </node>
  <node id="-466" visible="true" lat="44.63716468" lon="-72.38198562">
    <tag k="addr:housenumber" v="63"/>
    <tag k="addr:street" v="Browns Climb"/>
    <tag k="addr:state" v="VT"/>
    <tag k="ref:vcgi:esiteid" v="79262"/>
  </node>
  <node id="-467" visible="true" lat="44.63707658" lon="-72.38631637">
    <tag k="addr:housenumber" v="663"/>
    <tag k="addr:street" v="Black River Road"/>
    <tag k="addr:state" v="VT"/>
    <tag k="ref:vcgi:esiteid" v="79263"/>
  </node>
  <node id="-468" visible="true" lat="44.63711693" lon="-72.37272061">
    <tag k="addr:housenumber" v="85"/>
    <tag k="addr:street" v="Creek Road"/>
    <tag k="addr:state" v="VT"/>
    <tag k="ref:vcgi:esiteid" v="79264"/>
  </node>
  <node id="-469" visible="true" lat="44.63712087" lon="-72.37142718">
    <tag k="addr:housenumber" v="46"/>
    <tag k="addr:street" v="Town Garage Road"/>
    <tag k="addr:state" v="VT"/>
    <tag k="ref:vcgi:esiteid" v="79265"/>
  </node>
  <node id="-470" visible="true" lat="44.63691857" lon="-72.37294187">
    <tag k="addr:housenumber" v="71"/>
    <tag k="addr:street" v="Creek Road"/>
    <tag k="addr:state" v="VT"/>
    <tag k="ref:vcgi:esiteid" v="79266"/>
  </node>
  <node id="-471" visible="true" lat="44.63690365" lon="-72.38238938">
    <tag k="addr:housenumber" v="430"/>
    <tag k="addr:street" v="Black River Road"/>
    <tag k="addr:state" v="VT"/>
    <tag k="ref:vcgi:esiteid" v="79267"/>
  </node>
  <node id="-472" visible="true" lat="44.6364866" lon="-72.39825865">
    <tag k="addr:housenumber" v="3199"/>
    <tag k="addr:street" v="Vermont Route 14"/>
    <tag k="addr:state" v="VT"/>
    <tag k="ref:vcgi:esiteid" v="79268"/>
  </node>
  <node id="-473" visible="true" lat="44.63695571" lon="-72.37477358">
    <tag k="addr:housenumber" v="83"/>
    <tag k="addr:street" v="North Craftsbury Road"/>
    <tag k="addr:state" v="VT"/>
    <tag k="ref:vcgi:esiteid" v="79269"/>
  </node>
  <node id="-474" visible="true" lat="44.63687256" lon="-72.36101551">
    <tag k="addr:housenumber" v="533"/>
    <tag k="addr:street" v="Calderwood Hill Road"/>
    <tag k="addr:state" v="VT"/>
    <tag k="ref:vcgi:esiteid" v="79270"/>
  </node>
  <node id="-475" visible="true" lat="44.63676495" lon="-72.38288594">
    <tag k="addr:housenumber" v="464"/>
    <tag k="addr:street" v="Black River Road"/>
    <tag k="addr:state" v="VT"/>
    <tag k="ref:vcgi:esiteid" v="79271"/>
  </node>
  <node id="-476" visible="true" lat="44.63667408" lon="-72.37438127">
    <tag k="addr:housenumber" v="63"/>
    <tag k="addr:street" v="North Craftsbury Road"/>
    <tag k="addr:state" v="VT"/>
    <tag k="ref:vcgi:esiteid" v="79272"/>
  </node>
  <node id="-477" visible="true" lat="44.63643168" lon="-72.37276813">
    <tag k="addr:housenumber" v="40"/>
    <tag k="addr:street" v="Creek Road"/>
    <tag k="addr:state" v="VT"/>
    <tag k="ref:vcgi:esiteid" v="79273"/>
  </node>
  <node id="-478" visible="true" lat="44.63660504" lon="-72.37317496">
    <tag k="addr:housenumber" v="35"/>
    <tag k="addr:street" v="Creek Road"/>
    <tag k="addr:state" v="VT"/>
    <tag k="ref:vcgi:esiteid" v="79274"/>
  </node>
  <node id="-479" visible="true" lat="44.63651453" lon="-72.38344143">
    <tag k="addr:housenumber" v="506"/>
    <tag k="addr:street" v="Black River Road"/>
    <tag k="addr:state" v="VT"/>
    <tag k="ref:vcgi:esiteid" v="79275"/>
  </node>
  <node id="-480" visible="true" lat="44.63647099" lon="-72.39094898">
    <tag k="addr:housenumber" v="982"/>
    <tag k="addr:street" v="Black River Road"/>
    <tag k="addr:state" v="VT"/>
    <tag k="ref:vcgi:esiteid" v="79276"/>
  </node>
  <node id="-481" visible="true" lat="44.63662529" lon="-72.38376357">
    <tag k="addr:housenumber" v="508"/>
    <tag k="addr:street" v="Black River Road"/>
    <tag k="addr:state" v="VT"/>
    <tag k="ref:vcgi:esiteid" v="79277"/>
  </node>
  <node id="-482" visible="true" lat="44.63643162" lon="-72.37418185">
    <tag k="addr:housenumber" v="26"/>
    <tag k="addr:street" v="Black River Road"/>
    <tag k="addr:state" v="VT"/>
    <tag k="ref:vcgi:esiteid" v="79278"/>
  </node>
  <node id="-483" visible="true" lat="44.63645369" lon="-72.37340069">
    <tag k="addr:housenumber" v="21"/>
    <tag k="addr:street" v="Creek Road"/>
    <tag k="addr:state" v="VT"/>
    <tag k="ref:vcgi:esiteid" v="79279"/>
  </node>
  <node id="-484" visible="true" lat="44.6361591" lon="-72.37380548">
    <tag k="addr:housenumber" v="13"/>
    <tag k="addr:street" v="Black River Road"/>
    <tag k="addr:state" v="VT"/>
    <tag k="ref:vcgi:esiteid" v="79280"/>
  </node>
  <node id="-485" visible="true" lat="44.63600926" lon="-72.37301575">
    <tag k="addr:housenumber" v="3"/>
    <tag k="addr:street" v="South Craftsbury Road"/>
    <tag k="addr:state" v="VT"/>
    <tag k="ref:vcgi:esiteid" v="79281"/>
  </node>
  <node id="-486" visible="true" lat="44.63594046" lon="-72.37259722">
    <tag k="addr:housenumber" v="19"/>
    <tag k="addr:street" v="South Craftsbury Road"/>
    <tag k="addr:state" v="VT"/>
    <tag k="ref:vcgi:esiteid" v="79282"/>
  </node>
  <node id="-487" visible="true" lat="44.63584136" lon="-72.37348175">
    <tag k="addr:housenumber" v="1"/>
    <tag k="addr:street" v="North Craftsbury Road"/>
    <tag k="addr:state" v="VT"/>
    <tag k="ref:vcgi:esiteid" v="79283"/>
  </node>
  <node id="-488" visible="true" lat="44.63601471" lon="-72.47660887">
    <tag k="addr:housenumber" v="3225"/>
    <tag k="addr:street" v="Hatch Brook Road"/>
    <tag k="addr:state" v="VT"/>
    <tag k="ref:vcgi:esiteid" v="79284"/>
  </node>
  <node id="-489" visible="true" lat="44.63501433" lon="-72.37484849">
    <tag k="addr:housenumber" v="70"/>
    <tag k="addr:street" v="Summer Drive"/>
    <tag k="addr:state" v="VT"/>
    <tag k="ref:vcgi:esiteid" v="79285"/>
  </node>
  <node id="-490" visible="true" lat="44.63568108" lon="-72.37328213">
    <tag k="addr:housenumber" v="12"/>
    <tag k="addr:street" v="South Craftsbury Road"/>
    <tag k="addr:state" v="VT"/>
    <tag k="ref:vcgi:esiteid" v="79286"/>
  </node>
  <node id="-491" visible="true" lat="44.63576228" lon="-72.37274324">
    <tag k="addr:housenumber" v="25"/>
    <tag k="addr:street" v="South Craftsbury Road"/>
    <tag k="addr:state" v="VT"/>
    <tag k="ref:vcgi:esiteid" v="79287"/>
  </node>
  <node id="-492" visible="true" lat="44.63547299" lon="-72.37301942">
    <tag k="addr:housenumber" v="34"/>
    <tag k="addr:street" v="South Craftsbury Road"/>
    <tag k="addr:state" v="VT"/>
    <tag k="ref:vcgi:esiteid" v="79288"/>
  </node>
  <node id="-493" visible="true" lat="44.63532038" lon="-72.37294854">
    <tag k="addr:housenumber" v="42"/>
    <tag k="addr:street" v="South Craftsbury Road"/>
    <tag k="addr:state" v="VT"/>
    <tag k="ref:vcgi:esiteid" v="79289"/>
  </node>
  <node id="-494" visible="true" lat="44.6352494" lon="-72.37273816">
    <tag k="addr:housenumber" v="50"/>
    <tag k="addr:street" v="South Craftsbury Road"/>
    <tag k="addr:state" v="VT"/>
    <tag k="ref:vcgi:esiteid" v="79290"/>
  </node>
  <node id="-495" visible="true" lat="44.6351565" lon="-72.37269193">
    <tag k="addr:housenumber" v="58"/>
    <tag k="addr:street" v="South Craftsbury Road"/>
    <tag k="addr:state" v="VT"/>
    <tag k="ref:vcgi:esiteid" v="79291"/>
  </node>
  <node id="-496" visible="true" lat="44.63526873" lon="-72.37222727">
    <tag k="addr:housenumber" v="67"/>
    <tag k="addr:street" v="South Craftsbury Road"/>
    <tag k="addr:state" v="VT"/>
    <tag k="ref:vcgi:esiteid" v="79292"/>
  </node>
  <node id="-497" visible="true" lat="44.63506317" lon="-72.37171173">
    <tag k="addr:housenumber" v="95"/>
    <tag k="addr:street" v="South Craftsbury Road"/>
    <tag k="addr:state" v="VT"/>
    <tag k="ref:vcgi:esiteid" v="79293"/>
  </node>
  <node id="-498" visible="true" lat="44.63514237" lon="-72.37191485">
    <tag k="addr:housenumber" v="85"/>
    <tag k="addr:street" v="South Craftsbury Road"/>
    <tag k="addr:state" v="VT"/>
    <tag k="ref:vcgi:esiteid" v="79294"/>
  </node>
  <node id="-499" visible="true" lat="44.63520231" lon="-72.39299542">
    <tag k="addr:housenumber" v="1126"/>
    <tag k="addr:street" v="Black River Road"/>
    <tag k="addr:state" v="VT"/>
    <tag k="ref:vcgi:esiteid" v="79295"/>
  </node>
  <node id="-501" visible="true" lat="44.63492723" lon="-72.37235155">
    <tag k="addr:housenumber" v="72"/>
    <tag k="addr:street" v="South Craftsbury Road"/>
    <tag k="addr:state" v="VT"/>
    <tag k="ref:vcgi:esiteid" v="79297"/>
  </node>
  <node id="-502" visible="true" lat="44.63473773" lon="-72.47286588">
    <tag k="addr:housenumber" v="267"/>
    <tag k="addr:street" v="Demeritt Road"/>
    <tag k="addr:state" v="VT"/>
    <tag k="ref:vcgi:esiteid" v="79298"/>
  </node>
  <node id="-503" visible="true" lat="44.63501406" lon="-72.4730346">
    <tag k="addr:housenumber" v="223"/>
    <tag k="addr:street" v="Demeritt Road"/>
    <tag k="addr:state" v="VT"/>
    <tag k="ref:vcgi:esiteid" v="79299"/>
  </node>
  <node id="-505" visible="true" lat="44.63467307" lon="-72.37134002">
    <tag k="addr:housenumber" v="129"/>
    <tag k="addr:street" v="South Craftsbury Road"/>
    <tag k="addr:state" v="VT"/>
    <tag k="ref:vcgi:esiteid" v="79301"/>
  </node>
  <node id="-506" visible="true" lat="44.63450271" lon="-72.37121965">
    <tag k="addr:housenumber" v="143"/>
    <tag k="addr:street" v="South Craftsbury Road"/>
    <tag k="addr:state" v="VT"/>
    <tag k="ref:vcgi:esiteid" v="79303"/>
  </node>
  <node id="-507" visible="true" lat="44.63427773" lon="-72.37166598">
    <tag k="addr:housenumber" v="124"/>
    <tag k="addr:street" v="South Craftsbury Road"/>
    <tag k="addr:state" v="VT"/>
    <tag k="ref:vcgi:esiteid" v="79304"/>
  </node>
  <node id="-508" visible="true" lat="44.63445176" lon="-72.4219356">
    <tag k="addr:housenumber" v="1748"/>
    <tag k="addr:street" v="Wild Branch Road"/>
    <tag k="addr:state" v="VT"/>
    <tag k="ref:vcgi:esiteid" v="79305"/>
  </node>
  <node id="-509" visible="true" lat="44.63438259" lon="-72.44644586">
    <tag k="addr:housenumber" v="791"/>
    <tag k="addr:street" v="Paquette Road"/>
    <tag k="addr:state" v="VT"/>
    <tag k="ref:vcgi:esiteid" v="79306"/>
  </node>
  <node id="-510" visible="true" lat="44.63425099" lon="-72.37099276">
    <tag k="addr:housenumber" v="159"/>
    <tag k="addr:street" v="South Craftsbury Road"/>
    <tag k="addr:state" v="VT"/>
    <tag k="ref:vcgi:esiteid" v="79307"/>
  </node>
  <node id="-511" visible="true" lat="44.63407898" lon="-72.43080139">
    <tag k="addr:housenumber" v="2198"/>
    <tag k="addr:street" v="Wild Branch Road"/>
    <tag k="addr:state" v="VT"/>
    <tag k="ref:vcgi:esiteid" v="79308"/>
  </node>
  <node id="-512" visible="true" lat="44.63401771" lon="-72.37148804">
    <tag k="addr:housenumber" v="168"/>
    <tag k="addr:street" v="South Craftsbury Road"/>
    <tag k="addr:state" v="VT"/>
    <tag k="ref:vcgi:esiteid" v="79309"/>
  </node>
  <node id="-514" visible="true" lat="44.63388961" lon="-72.42023226">
    <tag k="addr:housenumber" v="1765"/>
    <tag k="addr:street" v="Wild Branch Road"/>
    <tag k="addr:state" v="VT"/>
    <tag k="ref:vcgi:esiteid" v="79311"/>
  </node>
  <node id="-515" visible="true" lat="44.63357295" lon="-72.36993359">
    <tag k="addr:housenumber" v="221"/>
    <tag k="addr:street" v="South Craftsbury Road"/>
    <tag k="addr:state" v="VT"/>
    <tag k="ref:vcgi:esiteid" v="79312"/>
  </node>
  <node id="-516" visible="true" lat="44.63358547" lon="-72.42102965">
    <tag k="addr:housenumber" v="1787"/>
    <tag k="addr:street" v="Wild Branch Road"/>
    <tag k="addr:state" v="VT"/>
    <tag k="ref:vcgi:esiteid" v="79313"/>
  </node>
  <node id="-517" visible="true" lat="44.63357467" lon="-72.37440902">
    <tag k="addr:housenumber" v="192"/>
    <tag k="addr:street" v="Cemetery Road"/>
    <tag k="addr:state" v="VT"/>
    <tag k="ref:vcgi:esiteid" v="79314"/>
  </node>
  <node id="-518" visible="true" lat="44.6333266" lon="-72.37074726">
    <tag k="addr:housenumber" v="216"/>
    <tag k="addr:street" v="South Craftsbury Road"/>
    <tag k="addr:state" v="VT"/>
    <tag k="ref:vcgi:esiteid" v="79315"/>
  </node>
  <node id="-519" visible="true" lat="44.63336303" lon="-72.36964198">
    <tag k="addr:housenumber" v="255"/>
    <tag k="addr:street" v="South Craftsbury Road"/>
    <tag k="addr:state" v="VT"/>
    <tag k="ref:vcgi:esiteid" v="79316"/>
  </node>
  <node id="-521" visible="true" lat="44.63115558" lon="-72.37358933">
    <tag k="addr:housenumber" v="261"/>
    <tag k="addr:street" v="Petes Greens Road"/>
    <tag k="addr:state" v="VT"/>
    <tag k="ref:vcgi:esiteid" v="79318"/>
  </node>
  <node id="-522" visible="true" lat="44.63291158" lon="-72.36903013">
    <tag k="addr:housenumber" v="297"/>
    <tag k="addr:street" v="South Craftsbury Road"/>
    <tag k="addr:state" v="VT"/>
    <tag k="ref:vcgi:esiteid" v="79319"/>
  </node>
  <node id="-523" visible="true" lat="44.63270569" lon="-72.43280029">
    <tag k="addr:housenumber" v="2280"/>
    <tag k="addr:street" v="Wild Branch Road"/>
    <tag k="addr:state" v="VT"/>
    <tag k="ref:vcgi:esiteid" v="79320"/>
  </node>
  <node id="-524" visible="true" lat="44.63251625" lon="-72.3685829">
    <tag k="addr:housenumber" v="321"/>
    <tag k="addr:street" v="South Craftsbury Road"/>
    <tag k="addr:state" v="VT"/>
    <tag k="ref:vcgi:esiteid" v="79321"/>
  </node>
  <node id="-525" visible="true" lat="44.6325115" lon="-72.36928321">
    <tag k="addr:housenumber" v="312"/>
    <tag k="addr:street" v="South Craftsbury Road"/>
    <tag k="addr:state" v="VT"/>
    <tag k="ref:vcgi:esiteid" v="79322"/>
  </node>
  <node id="-526" visible="true" lat="44.63205545" lon="-72.36878418">
    <tag k="addr:housenumber" v="336"/>
    <tag k="addr:street" v="South Craftsbury Road"/>
    <tag k="addr:state" v="VT"/>
    <tag k="ref:vcgi:esiteid" v="79323"/>
  </node>
  <node id="-527" visible="true" lat="44.63205399" lon="-72.42480717">
    <tag k="addr:housenumber" v="31"/>
    <tag k="addr:street" v="Apple Drive"/>
    <tag k="addr:state" v="VT"/>
    <tag k="ref:vcgi:esiteid" v="79324"/>
  </node>
  <node id="-528" visible="true" lat="44.63148385" lon="-72.36804428">
    <tag k="addr:housenumber" v="392"/>
    <tag k="addr:street" v="South Craftsbury Road"/>
    <tag k="addr:state" v="VT"/>
    <tag k="ref:vcgi:esiteid" v="79325"/>
  </node>
  <node id="-529" visible="true" lat="44.63127117" lon="-72.42569187">
    <tag k="addr:housenumber" v="18"/>
    <tag k="addr:street" v="Denton Hill Road"/>
    <tag k="addr:state" v="VT"/>
    <tag k="ref:vcgi:esiteid" v="79326"/>
  </node>
  <node id="-530" visible="true" lat="44.63124844" lon="-72.36774711">
    <tag k="addr:housenumber" v="436"/>
    <tag k="addr:street" v="South Craftsbury Road"/>
    <tag k="addr:state" v="VT"/>
    <tag k="ref:vcgi:esiteid" v="79327"/>
  </node>
  <node id="-531" visible="true" lat="44.63119451" lon="-72.42001941">
    <tag k="addr:housenumber" v="223"/>
    <tag k="addr:street" v="Denton Hill Road"/>
    <tag k="addr:state" v="VT"/>
    <tag k="ref:vcgi:esiteid" v="79328"/>
  </node>
  <node id="-532" visible="true" lat="44.63093" lon="-72.42876607">
    <tag k="addr:housenumber" v="2201"/>
    <tag k="addr:street" v="Wild Branch Road"/>
    <tag k="addr:state" v="VT"/>
    <tag k="ref:vcgi:esiteid" v="79329"/>
  </node>
  <node id="-533" visible="true" lat="44.63066424" lon="-72.41943197">
    <tag k="addr:housenumber" v="227"/>
    <tag k="addr:street" v="Denton Hill Road"/>
    <tag k="addr:state" v="VT"/>
    <tag k="ref:vcgi:esiteid" v="79330"/>
  </node>
  <node id="-534" visible="true" lat="44.63071199" lon="-72.43140902">
    <tag k="addr:housenumber" v="2334"/>
    <tag k="addr:street" v="Wild Branch Road"/>
    <tag k="addr:state" v="VT"/>
    <tag k="ref:vcgi:esiteid" v="79331"/>
  </node>
  <node id="-535" visible="true" lat="44.63052368" lon="-72.4423523">
    <tag k="addr:housenumber" v="376"/>
    <tag k="addr:street" v="Paquette Road"/>
    <tag k="addr:state" v="VT"/>
    <tag k="ref:vcgi:esiteid" v="79332"/>
  </node>
  <node id="-536" visible="true" lat="44.63057307" lon="-72.36714478">
    <tag k="addr:housenumber" v="496"/>
    <tag k="addr:street" v="South Craftsbury Road"/>
    <tag k="addr:state" v="VT"/>
    <tag k="ref:vcgi:esiteid" v="79333"/>
  </node>
  <node id="-537" visible="true" lat="44.63051605" lon="-72.44490051">
    <tag k="addr:housenumber" v="471"/>
    <tag k="addr:street" v="Paquette Road"/>
    <tag k="addr:state" v="VT"/>
    <tag k="ref:vcgi:esiteid" v="79334"/>
  </node>
  <node id="-538" visible="true" lat="44.63035964" lon="-72.36680602">
    <tag k="addr:housenumber" v="502"/>
    <tag k="addr:street" v="South Craftsbury Road"/>
    <tag k="addr:state" v="VT"/>
    <tag k="ref:vcgi:esiteid" v="79335"/>
  </node>
  <node id="-539" visible="true" lat="44.63016947" lon="-72.47149236">
    <tag k="addr:housenumber" v="584"/>
    <tag k="addr:street" v="Demeritt Road"/>
    <tag k="addr:state" v="VT"/>
    <tag k="ref:vcgi:esiteid" v="79336"/>
  </node>
  <node id="-540" visible="true" lat="44.63008499" lon="-72.47142792">
    <tag k="addr:housenumber" v="586"/>
    <tag k="addr:street" v="Demeritt Road"/>
    <tag k="addr:state" v="VT"/>
    <tag k="ref:vcgi:esiteid" v="79337"/>
  </node>
  <node id="-541" visible="true" lat="44.62981816" lon="-72.42415946">
    <tag k="addr:housenumber" v="124"/>
    <tag k="addr:street" v="Denton Hill Road"/>
    <tag k="addr:state" v="VT"/>
    <tag k="ref:vcgi:esiteid" v="79338"/>
  </node>
  <node id="-542" visible="true" lat="44.62976135" lon="-72.35378043">
    <tag k="addr:housenumber" v="236"/>
    <tag k="addr:street" v="Heartbeet Hill"/>
    <tag k="addr:state" v="VT"/>
    <tag k="ref:vcgi:esiteid" v="79339"/>
  </node>
  <node id="-543" visible="true" lat="44.62892898" lon="-72.42658153">
    <tag k="addr:housenumber" v="82"/>
    <tag k="addr:street" v="Denton Hill Road"/>
    <tag k="addr:state" v="VT"/>
    <tag k="ref:vcgi:esiteid" v="79340"/>
  </node>
  <node id="-544" visible="true" lat="44.6296997" lon="-72.36597442">
    <tag k="addr:housenumber" v="556"/>
    <tag k="addr:street" v="South Craftsbury Road"/>
    <tag k="addr:state" v="VT"/>
    <tag k="ref:vcgi:esiteid" v="79341"/>
  </node>
  <node id="-545" visible="true" lat="44.62956157" lon="-72.36352559">
    <tag k="addr:housenumber" v="629"/>
    <tag k="addr:street" v="South Craftsbury Road"/>
    <tag k="addr:state" v="VT"/>
    <tag k="ref:vcgi:esiteid" v="79342"/>
  </node>
  <node id="-546" visible="true" lat="44.62937182" lon="-72.4338348">
    <tag k="addr:housenumber" v="4"/>
    <tag k="addr:street" v="Glenn Anderson Loop"/>
    <tag k="addr:state" v="VT"/>
    <tag k="ref:vcgi:esiteid" v="79343"/>
  </node>
  <node id="-547" visible="true" lat="44.62939122" lon="-72.45315632">
    <tag k="addr:housenumber" v="290"/>
    <tag k="addr:street" v="Cochran Drive"/>
    <tag k="addr:state" v="VT"/>
    <tag k="ref:vcgi:esiteid" v="79344"/>
  </node>
  <node id="-548" visible="true" lat="44.62930795" lon="-72.351523">
    <tag k="addr:housenumber" v="767"/>
    <tag k="addr:street" v="East Craftsbury Road"/>
    <tag k="addr:state" v="VT"/>
    <tag k="ref:vcgi:esiteid" v="79345"/>
  </node>
  <node id="-549" visible="true" lat="44.62891388" lon="-72.3908844">
    <tag k="addr:housenumber" v="2547"/>
    <tag k="addr:street" v="Vermont Route 14"/>
    <tag k="addr:state" v="VT"/>
    <tag k="ref:vcgi:esiteid" v="79346"/>
  </node>
  <node id="-550" visible="true" lat="44.62894637" lon="-72.42282171">
    <tag k="addr:housenumber" v="214"/>
    <tag k="addr:street" v="Denton Hill Road"/>
    <tag k="addr:state" v="VT"/>
    <tag k="ref:vcgi:esiteid" v="79347"/>
  </node>
  <node id="-551" visible="true" lat="44.62890749" lon="-72.41980269">
    <tag k="addr:housenumber" v="349"/>
    <tag k="addr:street" v="Denton Hill Road"/>
    <tag k="addr:state" v="VT"/>
    <tag k="ref:vcgi:esiteid" v="79348"/>
  </node>
  <node id="-552" visible="true" lat="44.62871295" lon="-72.4640101">
    <tag k="addr:housenumber" v="81"/>
    <tag k="addr:street" v="Easy Street"/>
    <tag k="addr:state" v="VT"/>
    <tag k="ref:vcgi:esiteid" v="79350"/>
  </node>
  <node id="-553" visible="true" lat="44.62832551" lon="-72.36309511">
    <tag k="addr:housenumber" v="47"/>
    <tag k="addr:street" v="East Craftsbury Road"/>
    <tag k="addr:state" v="VT"/>
    <tag k="ref:vcgi:esiteid" v="79351"/>
  </node>
  <node id="-554" visible="true" lat="44.62820816" lon="-72.4234848">
    <tag k="addr:housenumber" v="224"/>
    <tag k="addr:street" v="Denton Hill Road"/>
    <tag k="addr:state" v="VT"/>
    <tag k="ref:vcgi:esiteid" v="79352"/>
  </node>
  <node id="-555" visible="true" lat="44.62836325" lon="-72.44070623">
    <tag k="addr:housenumber" v="202"/>
    <tag k="addr:street" v="Paquette Road"/>
    <tag k="addr:state" v="VT"/>
    <tag k="ref:vcgi:esiteid" v="79353"/>
  </node>
  <node id="-556" visible="true" lat="44.62791798" lon="-72.36223359">
    <tag k="addr:housenumber" v="110"/>
    <tag k="addr:street" v="East Craftsbury Road"/>
    <tag k="addr:state" v="VT"/>
    <tag k="ref:vcgi:esiteid" v="79354"/>
  </node>
  <node id="-557" visible="true" lat="44.62794754" lon="-72.43496049">
    <tag k="addr:housenumber" v="40"/>
    <tag k="addr:street" v="Glenn Anderson Loop"/>
    <tag k="addr:state" v="VT"/>
    <tag k="ref:vcgi:esiteid" v="79355"/>
  </node>
  <node id="-558" visible="true" lat="44.6277627" lon="-72.43707821">
    <tag k="addr:housenumber" v="136"/>
    <tag k="addr:street" v="Glenn Anderson Loop"/>
    <tag k="addr:state" v="VT"/>
    <tag k="ref:vcgi:esiteid" v="79356"/>
  </node>
  <node id="-559" visible="true" lat="44.6275313" lon="-72.42015698">
    <tag k="addr:housenumber" v="318"/>
    <tag k="addr:street" v="Denton Hill Road"/>
    <tag k="addr:state" v="VT"/>
    <tag k="ref:vcgi:esiteid" v="79357"/>
  </node>
  <node id="-560" visible="true" lat="44.6273865" lon="-72.36324997">
    <tag k="addr:housenumber" v="22"/>
    <tag k="addr:street" v="East Craftsbury Road"/>
    <tag k="addr:state" v="VT"/>
    <tag k="ref:vcgi:esiteid" v="79358"/>
  </node>
  <node id="-561" visible="true" lat="44.62702555" lon="-72.41695971">
    <tag k="addr:housenumber" v="522"/>
    <tag k="addr:street" v="Denton Hill Road"/>
    <tag k="addr:state" v="VT"/>
    <tag k="ref:vcgi:esiteid" v="79359"/>
  </node>
  <node id="-562" visible="true" lat="44.62721634" lon="-72.45922852">
    <tag k="addr:housenumber" v="320"/>
    <tag k="addr:street" v="Willie Mills Road"/>
    <tag k="addr:state" v="VT"/>
    <tag k="ref:vcgi:esiteid" v="79360"/>
  </node>
  <node id="-563" visible="true" lat="44.62711625" lon="-72.44250314">
    <tag k="addr:housenumber" v="101"/>
    <tag k="addr:street" v="Bailey Drive"/>
    <tag k="addr:state" v="VT"/>
    <tag k="ref:vcgi:esiteid" v="79361"/>
  </node>
  <node id="-564" visible="true" lat="44.62691783" lon="-72.43772232">
    <tag k="addr:housenumber" v="192"/>
    <tag k="addr:street" v="Glenn Anderson Loop"/>
    <tag k="addr:state" v="VT"/>
    <tag k="ref:vcgi:esiteid" v="79362"/>
  </node>
  <node id="-565" visible="true" lat="44.62658691" lon="-72.36417388">
    <tag k="addr:housenumber" v="784"/>
    <tag k="addr:street" v="South Craftsbury Road"/>
    <tag k="addr:state" v="VT"/>
    <tag k="ref:vcgi:esiteid" v="79363"/>
  </node>
  <node id="-566" visible="true" lat="44.62630237" lon="-72.35214766">
    <tag k="addr:housenumber" v="30"/>
    <tag k="addr:street" v="Daniels Road"/>
    <tag k="addr:state" v="VT"/>
    <tag k="ref:vcgi:esiteid" v="79364"/>
  </node>
  <node id="-567" visible="true" lat="44.62625311" lon="-72.43795714">
    <tag k="addr:housenumber" v="2786"/>
    <tag k="addr:street" v="Wild Branch Road"/>
    <tag k="addr:state" v="VT"/>
    <tag k="ref:vcgi:esiteid" v="79365"/>
  </node>
  <node id="-568" visible="true" lat="44.62606883" lon="-72.41386332">
    <tag k="addr:housenumber" v="600"/>
    <tag k="addr:street" v="Denton Hill Road"/>
    <tag k="addr:state" v="VT"/>
    <tag k="ref:vcgi:esiteid" v="79366"/>
  </node>
  <node id="-569" visible="true" lat="44.6258316" lon="-72.38699341">
    <tag k="addr:housenumber" v="40"/>
    <tag k="addr:street" v="West Hill Road"/>
    <tag k="addr:state" v="VT"/>
    <tag k="ref:vcgi:esiteid" v="79367"/>
  </node>
  <node id="-570" visible="true" lat="44.62577632" lon="-72.35970387">
    <tag k="addr:housenumber" v="258"/>
    <tag k="addr:street" v="The Ledges"/>
    <tag k="addr:state" v="VT"/>
    <tag k="ref:vcgi:esiteid" v="79368"/>
  </node>
  <node id="-571" visible="true" lat="44.62556749" lon="-72.4355151">
    <tag k="addr:housenumber" v="2719"/>
    <tag k="addr:street" v="Wild Branch Road"/>
    <tag k="addr:state" v="VT"/>
    <tag k="ref:vcgi:esiteid" v="79369"/>
  </node>
  <node id="-572" visible="true" lat="44.62538575" lon="-72.413373">
    <tag k="addr:housenumber" v="630"/>
    <tag k="addr:street" v="Denton Hill Road"/>
    <tag k="addr:state" v="VT"/>
    <tag k="ref:vcgi:esiteid" v="79371"/>
  </node>
  <node id="-573" visible="true" lat="44.62535476" lon="-72.37626647">
    <tag k="addr:housenumber" v="1757"/>
    <tag k="addr:street" v="Vermont Route 14"/>
    <tag k="addr:state" v="VT"/>
    <tag k="ref:vcgi:esiteid" v="79372"/>
  </node>
  <node id="-574" visible="true" lat="44.62539291" lon="-72.43814087">
    <tag k="addr:housenumber" v="2850"/>
    <tag k="addr:street" v="Wild Branch Road"/>
    <tag k="addr:state" v="VT"/>
    <tag k="ref:vcgi:esiteid" v="79373"/>
  </node>
  <node id="-575" visible="true" lat="44.62513251" lon="-72.38729892">
    <tag k="addr:housenumber" v="101"/>
    <tag k="addr:street" v="West Hill Road"/>
    <tag k="addr:state" v="VT"/>
    <tag k="ref:vcgi:esiteid" v="79374"/>
  </node>
  <node id="-576" visible="true" lat="44.6251831" lon="-72.37802886">
    <tag k="addr:housenumber" v="363"/>
    <tag k="addr:street" v="Guy Lot Road"/>
    <tag k="addr:state" v="VT"/>
    <tag k="ref:vcgi:esiteid" v="79375"/>
  </node>
  <node id="-577" visible="true" lat="44.62506485" lon="-72.43859863">
    <tag k="addr:housenumber" v="2852"/>
    <tag k="addr:street" v="Wild Branch Road"/>
    <tag k="addr:state" v="VT"/>
    <tag k="ref:vcgi:esiteid" v="79376"/>
  </node>
  <node id="-578" visible="true" lat="44.62467599" lon="-72.38314867">
    <tag k="addr:housenumber" v="2039"/>
    <tag k="addr:street" v="Vermont Route 14"/>
    <tag k="addr:state" v="VT"/>
    <tag k="ref:vcgi:esiteid" v="79377"/>
  </node>
  <node id="-579" visible="true" lat="44.62420654" lon="-72.39234924">
    <tag k="addr:housenumber" v="624"/>
    <tag k="addr:street" v="West Hill Road"/>
    <tag k="addr:state" v="VT"/>
    <tag k="ref:vcgi:esiteid" v="79378"/>
  </node>
  <node id="-581" visible="true" lat="44.62380429" lon="-72.38592905">
    <tag k="addr:housenumber" v="136"/>
    <tag k="addr:street" v="Morey Hill Road"/>
    <tag k="addr:state" v="VT"/>
    <tag k="ref:vcgi:esiteid" v="79380"/>
  </node>
  <node id="-582" visible="true" lat="44.62378311" lon="-72.38935852">
    <tag k="addr:housenumber" v="238"/>
    <tag k="addr:street" v="West Hill Road"/>
    <tag k="addr:state" v="VT"/>
    <tag k="ref:vcgi:esiteid" v="79381"/>
  </node>
  <node id="-583" visible="true" lat="44.62375259" lon="-72.37843322">
    <tag k="addr:housenumber" v="464"/>
    <tag k="addr:street" v="Guy Lot Road"/>
    <tag k="addr:state" v="VT"/>
    <tag k="ref:vcgi:esiteid" v="79382"/>
  </node>
  <node id="-584" visible="true" lat="44.62342748" lon="-72.38929207">
    <tag k="addr:housenumber" v="251"/>
    <tag k="addr:street" v="West Hill Road"/>
    <tag k="addr:state" v="VT"/>
    <tag k="ref:vcgi:esiteid" v="79383"/>
  </node>
  <node id="-585" visible="true" lat="44.62279953" lon="-72.36035211">
    <tag k="addr:housenumber" v="1152"/>
    <tag k="addr:street" v="South Craftsbury Road"/>
    <tag k="addr:state" v="VT"/>
    <tag k="ref:vcgi:esiteid" v="79384"/>
  </node>
  <node id="-586" visible="true" lat="44.62273455" lon="-72.41880392">
    <tag k="addr:housenumber" v="482"/>
    <tag k="addr:street" v="Reeds Drive"/>
    <tag k="addr:state" v="VT"/>
    <tag k="ref:vcgi:esiteid" v="79385"/>
  </node>
  <node id="-587" visible="true" lat="44.62269452" lon="-72.35964113">
    <tag k="addr:housenumber" v="1157"/>
    <tag k="addr:street" v="South Craftsbury Road"/>
    <tag k="addr:state" v="VT"/>
    <tag k="ref:vcgi:esiteid" v="79386"/>
  </node>
  <node id="-588" visible="true" lat="44.6221199" lon="-72.36952972">
    <tag k="addr:housenumber" v="1281"/>
    <tag k="addr:street" v="Vermont Route 14"/>
    <tag k="addr:state" v="VT"/>
    <tag k="ref:vcgi:esiteid" v="79388"/>
  </node>
  <node id="-589" visible="true" lat="44.62227734" lon="-72.36912117">
    <tag k="addr:housenumber" v="1299"/>
    <tag k="addr:street" v="Vermont Route 14"/>
    <tag k="addr:state" v="VT"/>
    <tag k="ref:vcgi:esiteid" v="79389"/>
  </node>
  <node id="-590" visible="true" lat="44.62190155" lon="-72.44179131">
    <tag k="addr:housenumber" v="3118"/>
    <tag k="addr:street" v="Wild Branch Road"/>
    <tag k="addr:state" v="VT"/>
    <tag k="ref:vcgi:esiteid" v="79390"/>
  </node>
  <node id="-591" visible="true" lat="44.62179008" lon="-72.35843977">
    <tag k="addr:housenumber" v="1243"/>
    <tag k="addr:street" v="South Craftsbury Road"/>
    <tag k="addr:state" v="VT"/>
    <tag k="ref:vcgi:esiteid" v="79391"/>
  </node>
  <node id="-592" visible="true" lat="44.62153625" lon="-72.36846923">
    <tag k="addr:housenumber" v="1237"/>
    <tag k="addr:street" v="Vermont Route 14"/>
    <tag k="addr:state" v="VT"/>
    <tag k="ref:vcgi:esiteid" v="79392"/>
  </node>
  <node id="-593" visible="true" lat="44.62147628" lon="-72.44453799">
    <tag k="addr:housenumber" v="34"/>
    <tag k="addr:street" v="Davis Drive"/>
    <tag k="addr:state" v="VT"/>
    <tag k="ref:vcgi:esiteid" v="79393"/>
  </node>
  <node id="-594" visible="true" lat="44.6213417" lon="-72.37982177">
    <tag k="addr:housenumber" v="662"/>
    <tag k="addr:street" v="Guy Lot Road"/>
    <tag k="addr:state" v="VT"/>
    <tag k="ref:vcgi:esiteid" v="79394"/>
  </node>
  <node id="-595" visible="true" lat="44.62096986" lon="-72.4437054">
    <tag k="addr:housenumber" v="33"/>
    <tag k="addr:street" v="Davis Drive"/>
    <tag k="addr:state" v="VT"/>
    <tag k="ref:vcgi:esiteid" v="79395"/>
  </node>
  <node id="-596" visible="true" lat="44.62081309" lon="-72.39688971">
    <tag k="addr:housenumber" v="673"/>
    <tag k="addr:street" v="West Hill Road"/>
    <tag k="addr:state" v="VT"/>
    <tag k="ref:vcgi:esiteid" v="79396"/>
  </node>
  <node id="-597" visible="true" lat="44.6206398" lon="-72.39891052">
    <tag k="addr:housenumber" v="747"/>
    <tag k="addr:street" v="West Hill Road"/>
    <tag k="addr:state" v="VT"/>
    <tag k="ref:vcgi:esiteid" v="79397"/>
  </node>
  <node id="-598" visible="true" lat="44.62047958" lon="-72.3840332">
    <tag k="addr:housenumber" v="391"/>
    <tag k="addr:street" v="Morey Hill Road"/>
    <tag k="addr:state" v="VT"/>
    <tag k="ref:vcgi:esiteid" v="79398"/>
  </node>
  <node id="-599" visible="true" lat="44.62046432" lon="-72.40644073">
    <tag k="addr:housenumber" v="1163"/>
    <tag k="addr:street" v="West Hill Road"/>
    <tag k="addr:state" v="VT"/>
    <tag k="ref:vcgi:esiteid" v="79399"/>
  </node>
  <node id="-600" visible="true" lat="44.62048897" lon="-72.35894368">
    <tag k="addr:housenumber" v="1317"/>
    <tag k="addr:street" v="South Craftsbury Road"/>
    <tag k="addr:state" v="VT"/>
    <tag k="ref:vcgi:esiteid" v="79400"/>
  </node>
  <node id="-601" visible="true" lat="44.62046814" lon="-72.44481064">
    <tag k="addr:housenumber" v="3318"/>
    <tag k="addr:street" v="Wild Branch Road"/>
    <tag k="addr:state" v="VT"/>
    <tag k="ref:vcgi:esiteid" v="79401"/>
  </node>
  <node id="-602" visible="true" lat="44.61877277" lon="-72.36626754">
    <tag k="addr:housenumber" v="1029"/>
    <tag k="addr:street" v="Vermont Route 14"/>
    <tag k="addr:state" v="VT"/>
    <tag k="ref:vcgi:esiteid" v="79403"/>
  </node>
  <node id="-603" visible="true" lat="44.6184702" lon="-72.41408363">
    <tag k="addr:housenumber" v="1557"/>
    <tag k="addr:street" v="West Hill Road"/>
    <tag k="addr:state" v="VT"/>
    <tag k="ref:vcgi:esiteid" v="79404"/>
  </node>
  <node id="-604" visible="true" lat="44.61861632" lon="-72.41909506">
    <tag k="addr:housenumber" v="1796"/>
    <tag k="addr:street" v="West Hill Road"/>
    <tag k="addr:state" v="VT"/>
    <tag k="ref:vcgi:esiteid" v="79405"/>
  </node>
  <node id="-605" visible="true" lat="44.61855817" lon="-72.41934206">
    <tag k="addr:housenumber" v="1822"/>
    <tag k="addr:street" v="West Hill Road"/>
    <tag k="addr:state" v="VT"/>
    <tag k="ref:vcgi:esiteid" v="79406"/>
  </node>
  <node id="-606" visible="true" lat="44.61820432" lon="-72.36560695">
    <tag k="addr:housenumber" v="999"/>
    <tag k="addr:street" v="Vermont Route 14"/>
    <tag k="addr:state" v="VT"/>
    <tag k="ref:vcgi:esiteid" v="79407"/>
  </node>
  <node id="-607" visible="true" lat="44.61823654" lon="-72.37747955">
    <tag k="addr:housenumber" v="828"/>
    <tag k="addr:street" v="Guy Lot Road"/>
    <tag k="addr:state" v="VT"/>
    <tag k="ref:vcgi:esiteid" v="79408"/>
  </node>
  <node id="-608" visible="true" lat="44.61825164" lon="-72.40987216">
    <tag k="addr:housenumber" v="1329"/>
    <tag k="addr:street" v="West Hill Road"/>
    <tag k="addr:state" v="VT"/>
    <tag k="ref:vcgi:esiteid" v="79409"/>
  </node>
  <node id="-609" visible="true" lat="44.61811066" lon="-72.42273712">
    <tag k="addr:housenumber" v="1970"/>
    <tag k="addr:street" v="West Hill Road"/>
    <tag k="addr:state" v="VT"/>
    <tag k="ref:vcgi:esiteid" v="79410"/>
  </node>
  <node id="-610" visible="true" lat="44.61764144" lon="-72.37535858">
    <tag k="addr:housenumber" v="921"/>
    <tag k="addr:street" v="Guy Lot Road"/>
    <tag k="addr:state" v="VT"/>
    <tag k="ref:vcgi:esiteid" v="79411"/>
  </node>
  <node id="-611" visible="true" lat="44.61746272" lon="-72.42316124">
    <tag k="addr:housenumber" v="1994"/>
    <tag k="addr:street" v="West Hill Road"/>
    <tag k="addr:state" v="VT"/>
    <tag k="ref:vcgi:esiteid" v="79412"/>
  </node>
  <node id="-612" visible="true" lat="44.61667252" lon="-72.42432404">
    <tag k="addr:housenumber" v="2114"/>
    <tag k="addr:street" v="West Hill Road"/>
    <tag k="addr:state" v="VT"/>
    <tag k="ref:vcgi:esiteid" v="79413"/>
  </node>
  <node id="-613" visible="true" lat="44.61558055" lon="-72.3572469">
    <tag k="addr:housenumber" v="99"/>
    <tag k="addr:street" v="Lake Road"/>
    <tag k="addr:state" v="VT"/>
    <tag k="ref:vcgi:esiteid" v="79414"/>
  </node>
  <node id="-614" visible="true" lat="44.61523677" lon="-72.42597291">
    <tag k="addr:housenumber" v="2212"/>
    <tag k="addr:street" v="West Hill Road"/>
    <tag k="addr:state" v="VT"/>
    <tag k="ref:vcgi:esiteid" v="79415"/>
  </node>
  <node id="-615" visible="true" lat="44.61494446" lon="-72.39213562">
    <tag k="addr:housenumber" v="407"/>
    <tag k="addr:street" v="Wells Place"/>
    <tag k="addr:state" v="VT"/>
    <tag k="ref:vcgi:esiteid" v="79416"/>
  </node>
  <node id="-616" visible="true" lat="44.61474228" lon="-72.42670441">
    <tag k="addr:housenumber" v="2276"/>
    <tag k="addr:street" v="West Hill Road"/>
    <tag k="addr:state" v="VT"/>
    <tag k="ref:vcgi:esiteid" v="79417"/>
  </node>
  <node id="-617" visible="true" lat="44.61468644" lon="-72.38585931">
    <tag k="addr:housenumber" v="804"/>
    <tag k="addr:street" v="Morey Hill Road"/>
    <tag k="addr:state" v="VT"/>
    <tag k="ref:vcgi:esiteid" v="79418"/>
  </node>
  <node id="-618" visible="true" lat="44.61431051" lon="-72.37267363">
    <tag k="addr:housenumber" v="1181"/>
    <tag k="addr:street" v="Guy Lot Road"/>
    <tag k="addr:state" v="VT"/>
    <tag k="ref:vcgi:esiteid" v="79419"/>
  </node>
  <node id="-619" visible="true" lat="44.61368909" lon="-72.3624462">
    <tag k="addr:housenumber" v="589"/>
    <tag k="addr:street" v="Vermont Route 14"/>
    <tag k="addr:state" v="VT"/>
    <tag k="ref:vcgi:esiteid" v="79420"/>
  </node>
  <node id="-620" visible="true" lat="44.61337865" lon="-72.36293174">
    <tag k="addr:housenumber" v="112"/>
    <tag k="addr:street" v="Morrison Drive"/>
    <tag k="addr:state" v="VT"/>
    <tag k="ref:vcgi:esiteid" v="79421"/>
  </node>
  <node id="-621" visible="true" lat="44.61295154" lon="-72.36094991">
    <tag k="addr:housenumber" v="557"/>
    <tag k="addr:street" v="Vermont Route 14"/>
    <tag k="addr:state" v="VT"/>
    <tag k="ref:vcgi:esiteid" v="79422"/>
  </node>
  <node id="-622" visible="true" lat="44.61316642" lon="-72.361188">
    <tag k="addr:housenumber" v="27"/>
    <tag k="addr:street" v="Morrison Drive"/>
    <tag k="addr:state" v="VT"/>
    <tag k="ref:vcgi:esiteid" v="79423"/>
  </node>
  <node id="-623" visible="true" lat="44.61301803" lon="-72.35749054">
    <tag k="addr:housenumber" v="278"/>
    <tag k="addr:street" v="Lake Road"/>
    <tag k="addr:state" v="VT"/>
    <tag k="ref:vcgi:esiteid" v="79424"/>
  </node>
  <node id="-624" visible="true" lat="44.61265563" lon="-72.35739135">
    <tag k="addr:housenumber" v="294"/>
    <tag k="addr:street" v="Lake Road"/>
    <tag k="addr:state" v="VT"/>
    <tag k="ref:vcgi:esiteid" v="79425"/>
  </node>
  <node id="-625" visible="true" lat="44.61259841" lon="-72.37184905">
    <tag k="addr:housenumber" v="1307"/>
    <tag k="addr:street" v="Guy Lot Road"/>
    <tag k="addr:state" v="VT"/>
    <tag k="ref:vcgi:esiteid" v="79426"/>
  </node>
  <node id="-626" visible="true" lat="44.61253357" lon="-72.41129303">
    <tag k="addr:housenumber" v="474"/>
    <tag k="addr:street" v="West Hill Drive"/>
    <tag k="addr:state" v="VT"/>
    <tag k="ref:vcgi:esiteid" v="79427"/>
  </node>
  <node id="-627" visible="true" lat="44.6122551" lon="-72.38626862">
    <tag k="addr:housenumber" v="958"/>
    <tag k="addr:street" v="Morey Hill Road"/>
    <tag k="addr:state" v="VT"/>
    <tag k="ref:vcgi:esiteid" v="79428"/>
  </node>
  <node id="-628" visible="true" lat="44.61111542" lon="-72.35585116">
    <tag k="addr:housenumber" v="418"/>
    <tag k="addr:street" v="Lake Road"/>
    <tag k="addr:state" v="VT"/>
    <tag k="ref:vcgi:esiteid" v="79429"/>
  </node>
  <node id="-629" visible="true" lat="44.61046218" lon="-72.3720169">
    <tag k="addr:housenumber" v="1454"/>
    <tag k="addr:street" v="Guy Lot Road"/>
    <tag k="addr:state" v="VT"/>
    <tag k="ref:vcgi:esiteid" v="79430"/>
  </node>
  <node id="-630" visible="true" lat="44.6104364" lon="-72.35994963">
    <tag k="addr:housenumber" v="361"/>
    <tag k="addr:street" v="Vermont Route 14"/>
    <tag k="addr:state" v="VT"/>
    <tag k="ref:vcgi:esiteid" v="79431"/>
  </node>
  <node id="-631" visible="true" lat="44.6100502" lon="-72.35990905">
    <tag k="addr:housenumber" v="335"/>
    <tag k="addr:street" v="Vermont Route 14"/>
    <tag k="addr:state" v="VT"/>
    <tag k="ref:vcgi:esiteid" v="79432"/>
  </node>
  <node id="-632" visible="true" lat="44.60955957" lon="-72.36026975">
    <tag k="addr:housenumber" v="50"/>
    <tag k="addr:street" v="Schirmer Drive"/>
    <tag k="addr:state" v="VT"/>
    <tag k="ref:vcgi:esiteid" v="79433"/>
  </node>
  <node id="-633" visible="true" lat="44.60958033" lon="-72.36049552">
    <tag k="addr:housenumber" v="52"/>
    <tag k="addr:street" v="Schirmer Drive"/>
    <tag k="addr:state" v="VT"/>
    <tag k="ref:vcgi:esiteid" v="79434"/>
  </node>
  <node id="-634" visible="true" lat="44.60925257" lon="-72.36022284">
    <tag k="addr:housenumber" v="51"/>
    <tag k="addr:street" v="Schirmer Drive"/>
    <tag k="addr:state" v="VT"/>
    <tag k="ref:vcgi:esiteid" v="79435"/>
  </node>
  <node id="-635" visible="true" lat="44.60871692" lon="-72.35986862">
    <tag k="addr:housenumber" v="265"/>
    <tag k="addr:street" v="Vermont Route 14"/>
    <tag k="addr:state" v="VT"/>
    <tag k="ref:vcgi:esiteid" v="79436"/>
  </node>
  <node id="-636" visible="true" lat="44.60821163" lon="-72.38508568">
    <tag k="addr:housenumber" v="1244"/>
    <tag k="addr:street" v="Morey Hill Road"/>
    <tag k="addr:state" v="VT"/>
    <tag k="ref:vcgi:esiteid" v="79437"/>
  </node>
  <node id="-637" visible="true" lat="44.60417191" lon="-72.38873005">
    <tag k="addr:housenumber" v="1666"/>
    <tag k="addr:street" v="Morey Hill Road"/>
    <tag k="addr:state" v="VT"/>
    <tag k="ref:vcgi:esiteid" v="79439"/>
  </node>
  <node id="-638" visible="true" lat="44.60362751" lon="-72.39108588">
    <tag k="addr:housenumber" v="1698"/>
    <tag k="addr:street" v="Morey Hill Road"/>
    <tag k="addr:state" v="VT"/>
    <tag k="ref:vcgi:esiteid" v="79440"/>
  </node>
  <node id="-639" visible="true" lat="44.6028632" lon="-72.38858254">
    <tag k="addr:housenumber" v="1748"/>
    <tag k="addr:street" v="Morey Hill Road"/>
    <tag k="addr:state" v="VT"/>
    <tag k="ref:vcgi:esiteid" v="79441"/>
  </node>
  <node id="-640" visible="true" lat="44.60169945" lon="-72.38672402">
    <tag k="addr:housenumber" v="1849"/>
    <tag k="addr:street" v="Morey Hill Road"/>
    <tag k="addr:state" v="VT"/>
    <tag k="ref:vcgi:esiteid" v="79442"/>
  </node>
  <node id="-641" visible="true" lat="44.59900283" lon="-72.37545013">
    <tag k="addr:housenumber" v="2296"/>
    <tag k="addr:street" v="Guy Lot Road"/>
    <tag k="addr:state" v="VT"/>
    <tag k="ref:vcgi:esiteid" v="79443"/>
  </node>
  <node id="-643" visible="true" lat="44.69012679" lon="-72.40363365">
    <tag k="addr:housenumber" v="1565"/>
    <tag k="addr:street" v="Town Line Road"/>
    <tag k="addr:state" v="VT"/>
    <tag k="ref:vcgi:esiteid" v="79445"/>
  </node>
  <node id="-644" visible="true" lat="44.67927991" lon="-72.36380688">
    <tag k="addr:housenumber" v="468"/>
    <tag k="addr:street" v="Lost Nation Road"/>
    <tag k="addr:state" v="VT"/>
    <tag k="ref:vcgi:esiteid" v="79446"/>
  </node>
  <node id="-645" visible="true" lat="44.67314929" lon="-72.43052915">
    <tag k="addr:housenumber" v="1800"/>
    <tag k="addr:street" v="Collinsville Road"/>
    <tag k="addr:state" v="VT"/>
    <tag k="ref:vcgi:esiteid" v="79447"/>
  </node>
  <node id="-646" visible="true" lat="44.67374565" lon="-72.41577135">
    <tag k="addr:housenumber" v="1325"/>
    <tag k="addr:street" v="Coburn Hill Road"/>
    <tag k="addr:state" v="VT"/>
    <tag k="ref:vcgi:esiteid" v="79448"/>
  </node>
  <node id="-647" visible="true" lat="44.66357135" lon="-72.39243572">
    <tag k="addr:housenumber" v="400"/>
    <tag k="addr:street" v="Post Road"/>
    <tag k="addr:state" v="VT"/>
    <tag k="ref:vcgi:esiteid" v="79449"/>
  </node>
  <node id="-648" visible="true" lat="44.66404243" lon="-72.34973856">
    <tag k="addr:housenumber" v="2230"/>
    <tag k="addr:street" v="Creek Road"/>
    <tag k="addr:state" v="VT"/>
    <tag k="ref:vcgi:esiteid" v="79450"/>
  </node>
  <node id="-649" visible="true" lat="44.6594625" lon="-72.3341438">
    <tag k="addr:housenumber" v="251"/>
    <tag k="addr:street" v="Twin Bridges Road"/>
    <tag k="addr:state" v="VT"/>
    <tag k="ref:vcgi:esiteid" v="79451"/>
  </node>
  <node id="-650" visible="true" lat="44.66584777" lon="-72.33086395">
    <tag k="addr:housenumber" v="751"/>
    <tag k="addr:street" v="Twin Bridges Road"/>
    <tag k="addr:state" v="VT"/>
    <tag k="ref:vcgi:esiteid" v="79452"/>
  </node>
  <node id="-651" visible="true" lat="44.6673577" lon="-72.3285989">
    <tag k="addr:housenumber" v="60"/>
    <tag k="addr:street" v="Allen Hill Road"/>
    <tag k="addr:state" v="VT"/>
    <tag k="ref:vcgi:esiteid" v="79455"/>
  </node>
  <node id="-652" visible="true" lat="44.6380544" lon="-72.44844005">
    <tag k="addr:housenumber" v="821"/>
    <tag k="addr:street" v="Paquette Road"/>
    <tag k="addr:state" v="VT"/>
    <tag k="ref:vcgi:esiteid" v="79456"/>
  </node>
  <node id="-653" visible="true" lat="44.64432966" lon="-72.42996056">
    <tag k="addr:housenumber" v="521"/>
    <tag k="addr:street" v="Hatch Brook Road"/>
    <tag k="addr:state" v="VT"/>
    <tag k="ref:vcgi:esiteid" v="79457"/>
  </node>
  <node id="-654" visible="true" lat="44.6364652" lon="-72.3838098">
    <tag k="addr:housenumber" v="510"/>
    <tag k="addr:street" v="Black River Road"/>
    <tag k="addr:state" v="VT"/>
    <tag k="ref:vcgi:esiteid" v="79458"/>
  </node>
  <node id="-655" visible="true" lat="44.6454674" lon="-72.34004481">
    <tag k="addr:housenumber" v="446"/>
    <tag k="addr:street" v="South Albany Road"/>
    <tag k="addr:state" v="VT"/>
    <tag k="ref:vcgi:esiteid" v="79459"/>
  </node>
  <node id="-656" visible="true" lat="44.63198546" lon="-72.42788695">
    <tag k="addr:housenumber" v="2190"/>
    <tag k="addr:street" v="Wild Branch Road"/>
    <tag k="addr:state" v="VT"/>
    <tag k="ref:vcgi:esiteid" v="79460"/>
  </node>
  <node id="-657" visible="true" lat="44.63162531" lon="-72.42916887">
    <tag k="addr:housenumber" v="2200"/>
    <tag k="addr:street" v="Wild Branch Road"/>
    <tag k="addr:state" v="VT"/>
    <tag k="ref:vcgi:esiteid" v="79461"/>
  </node>
  <node id="-658" visible="true" lat="44.62653252" lon="-72.38314251">
    <tag k="addr:housenumber" v="2042"/>
    <tag k="addr:street" v="Vermont Route 14"/>
    <tag k="addr:state" v="VT"/>
    <tag k="ref:vcgi:esiteid" v="79462"/>
  </node>
  <node id="-659" visible="true" lat="44.61804675" lon="-72.35694752">
    <tag k="addr:housenumber" v="151"/>
    <tag k="addr:street" v="Gateway Drive"/>
    <tag k="addr:state" v="VT"/>
    <tag k="ref:vcgi:esiteid" v="79463"/>
  </node>
  <node id="-660" visible="true" lat="44.65481738" lon="-72.37836847">
    <tag k="addr:housenumber" v="236"/>
    <tag k="addr:street" v="Dustan Road"/>
    <tag k="addr:state" v="VT"/>
    <tag k="ref:vcgi:esiteid" v="79464"/>
  </node>
  <node id="-661" visible="true" lat="44.63979036" lon="-72.37301257">
    <tag k="addr:housenumber" v="225"/>
    <tag k="addr:street" v="Creek Road"/>
    <tag k="addr:state" v="VT"/>
    <tag k="ref:vcgi:esiteid" v="79465"/>
  </node>
  <node id="-662" visible="true" lat="44.63946464" lon="-72.33635558">
    <tag k="addr:housenumber" v="2057"/>
    <tag k="addr:street" v="East Craftsbury Road"/>
    <tag k="addr:state" v="VT"/>
    <tag k="ref:vcgi:esiteid" v="79466"/>
  </node>
  <node id="-663" visible="true" lat="44.68501572" lon="-72.36286667">
    <tag k="addr:housenumber" v="18"/>
    <tag k="addr:street" v="Glass Road"/>
    <tag k="addr:state" v="VT"/>
    <tag k="ref:vcgi:esiteid" v="79467"/>
  </node>
  <node id="-664" visible="true" lat="44.68452442" lon="-72.36285884">
    <tag k="addr:housenumber" v="24"/>
    <tag k="addr:street" v="Glass Road"/>
    <tag k="addr:state" v="VT"/>
    <tag k="ref:vcgi:esiteid" v="79468"/>
  </node>
  <node id="-665" visible="true" lat="44.65739487" lon="-72.40921031">
    <tag k="addr:housenumber" v="305"/>
    <tag k="addr:street" v="Common View Drive"/>
    <tag k="addr:state" v="VT"/>
    <tag k="ref:vcgi:esiteid" v="79469"/>
  </node>
  <node id="-666" visible="true" lat="44.65742866" lon="-72.40729709">
    <tag k="addr:housenumber" v="256"/>
    <tag k="addr:street" v="Common View Drive"/>
    <tag k="addr:state" v="VT"/>
    <tag k="ref:vcgi:esiteid" v="79470"/>
  </node>
  <node id="-667" visible="true" lat="44.62544374" lon="-72.4115516">
    <tag k="addr:housenumber" v="805"/>
    <tag k="addr:street" v="Denton Hill Road"/>
    <tag k="addr:state" v="VT"/>
    <tag k="ref:vcgi:esiteid" v="79471"/>
  </node>
  <node id="-668" visible="true" lat="44.62762755" lon="-72.41821941">
    <tag k="addr:housenumber" v="480"/>
    <tag k="addr:street" v="Denton Hill Road"/>
    <tag k="addr:state" v="VT"/>
    <tag k="ref:vcgi:esiteid" v="79472"/>
  </node>
  <node id="-669" visible="true" lat="44.6302841" lon="-72.42588554">
    <tag k="addr:housenumber" v="62"/>
    <tag k="addr:street" v="Denton Hill Road"/>
    <tag k="addr:state" v="VT"/>
    <tag k="ref:vcgi:esiteid" v="79473"/>
  </node>
  <node id="-670" visible="true" lat="44.63161462" lon="-72.4194115">
    <tag k="addr:housenumber" v="225"/>
    <tag k="addr:street" v="Denton Hill Road"/>
    <tag k="addr:state" v="VT"/>
    <tag k="ref:vcgi:esiteid" v="79474"/>
  </node>
  <node id="-671" visible="true" lat="44.62743873" lon="-72.42152027">
    <tag k="addr:housenumber" v="272"/>
    <tag k="addr:street" v="Denton Hill Road"/>
    <tag k="addr:state" v="VT"/>
    <tag k="ref:vcgi:esiteid" v="79475"/>
  </node>
  <node id="-672" visible="true" lat="44.61490933" lon="-72.42848846">
    <tag k="addr:housenumber" v="2316"/>
    <tag k="addr:street" v="West Hill Road"/>
    <tag k="addr:state" v="VT"/>
    <tag k="ref:vcgi:esiteid" v="79476"/>
  </node>
  <node id="-673" visible="true" lat="44.67904893" lon="-72.43928488">
    <tag k="addr:housenumber" v="2430"/>
    <tag k="addr:street" v="Collinsville Road"/>
    <tag k="addr:state" v="VT"/>
    <tag k="ref:vcgi:esiteid" v="79477"/>
  </node>
  <node id="-674" visible="true" lat="44.68204419" lon="-72.43350883">
    <tag k="addr:housenumber" v="2180"/>
    <tag k="addr:street" v="Collinsville Road"/>
    <tag k="addr:state" v="VT"/>
    <tag k="ref:vcgi:esiteid" v="79478"/>
  </node>
  <node id="-675" visible="true" lat="44.6784868" lon="-72.43659411">
    <tag k="addr:housenumber" v="2270"/>
    <tag k="addr:street" v="Collinsville Road"/>
    <tag k="addr:state" v="VT"/>
    <tag k="ref:vcgi:esiteid" v="79479"/>
  </node>
  <node id="-676" visible="true" lat="44.69100465" lon="-72.40377485">
    <tag k="addr:housenumber" v="1551"/>
    <tag k="addr:street" v="Town Line Road"/>
    <tag k="addr:state" v="VT"/>
    <tag k="ref:vcgi:esiteid" v="79481"/>
  </node>
  <node id="-677" visible="true" lat="44.67846512" lon="-72.36518527">
    <tag k="addr:housenumber" v="400"/>
    <tag k="addr:street" v="Lost Nation Road"/>
    <tag k="addr:state" v="VT"/>
    <tag k="ref:vcgi:esiteid" v="79482"/>
  </node>
  <node id="-678" visible="true" lat="44.6804333" lon="-72.36237923">
    <tag k="addr:housenumber" v="600"/>
    <tag k="addr:street" v="Lost Nation Road"/>
    <tag k="addr:state" v="VT"/>
    <tag k="ref:vcgi:esiteid" v="79483"/>
  </node>
  <node id="-679" visible="true" lat="44.67680619" lon="-72.38384621">
    <tag k="addr:housenumber" v="788"/>
    <tag k="addr:street" v="Wylie Hill Road"/>
    <tag k="addr:state" v="VT"/>
    <tag k="ref:vcgi:esiteid" v="79484"/>
  </node>
  <node id="-681" visible="true" lat="44.67043182" lon="-72.43582801">
    <tag k="addr:housenumber" v="284"/>
    <tag k="addr:street" v="Eden Mountain Road"/>
    <tag k="addr:state" v="VT"/>
    <tag k="ref:vcgi:esiteid" v="79486"/>
  </node>
  <node id="-682" visible="true" lat="44.66437746" lon="-72.42666708">
    <tag k="addr:housenumber" v="1100"/>
    <tag k="addr:street" v="Collinsville Road"/>
    <tag k="addr:state" v="VT"/>
    <tag k="ref:vcgi:esiteid" v="79487"/>
  </node>
  <node id="-683" visible="true" lat="44.6651956" lon="-72.41319658">
    <tag k="addr:housenumber" v="648"/>
    <tag k="addr:street" v="Coburn Hill Road"/>
    <tag k="addr:state" v="VT"/>
    <tag k="ref:vcgi:esiteid" v="79489"/>
  </node>
  <node id="-684" visible="true" lat="44.66364998" lon="-72.4128052">
    <tag k="addr:housenumber" v="614"/>
    <tag k="addr:street" v="Coburn Hill Road"/>
    <tag k="addr:state" v="VT"/>
    <tag k="ref:vcgi:esiteid" v="79490"/>
  </node>
  <node id="-685" visible="true" lat="44.67106537" lon="-72.37165769">
    <tag k="addr:housenumber" v="832"/>
    <tag k="addr:street" v="Mill Village Road"/>
    <tag k="addr:state" v="VT"/>
    <tag k="ref:vcgi:esiteid" v="79491"/>
  </node>
  <node id="-686" visible="true" lat="44.65410949" lon="-72.37559634">
    <tag k="addr:housenumber" v="288"/>
    <tag k="addr:street" v="Dustan Road"/>
    <tag k="addr:state" v="VT"/>
    <tag k="ref:vcgi:esiteid" v="79492"/>
  </node>
  <node id="-687" visible="true" lat="44.65397075" lon="-72.37197189">
    <tag k="addr:housenumber" v="880"/>
    <tag k="addr:street" v="King Farm Road"/>
    <tag k="addr:state" v="VT"/>
    <tag k="ref:vcgi:esiteid" v="79493"/>
  </node>
  <node id="-688" visible="true" lat="44.66654602" lon="-72.37696649">
    <tag k="addr:housenumber" v="335"/>
    <tag k="addr:street" v="Mill Village Road"/>
    <tag k="addr:state" v="VT"/>
    <tag k="ref:vcgi:esiteid" v="79494"/>
  </node>
  <node id="-690" visible="true" lat="44.66841806" lon="-72.31396308">
    <tag k="addr:housenumber" v="2500"/>
    <tag k="addr:street" v="South Albany Road"/>
    <tag k="addr:state" v="VT"/>
    <tag k="ref:vcgi:esiteid" v="79496"/>
  </node>
  <node id="-691" visible="true" lat="44.65642624" lon="-72.32645761">
    <tag k="addr:housenumber" v="1410"/>
    <tag k="addr:street" v="South Albany Road"/>
    <tag k="addr:state" v="VT"/>
    <tag k="ref:vcgi:esiteid" v="79497"/>
  </node>
  <node id="-692" visible="true" lat="44.6545571" lon="-72.3324306">
    <tag k="addr:housenumber" v="1176"/>
    <tag k="addr:street" v="South Albany Road"/>
    <tag k="addr:state" v="VT"/>
    <tag k="ref:vcgi:esiteid" v="79498"/>
  </node>
  <node id="-693" visible="true" lat="44.63413684" lon="-72.42058726">
    <tag k="addr:housenumber" v="1745"/>
    <tag k="addr:street" v="Wild Branch Road"/>
    <tag k="addr:state" v="VT"/>
    <tag k="ref:vcgi:esiteid" v="79499"/>
  </node>
  <node id="-694" visible="true" lat="44.6428764" lon="-72.41646382">
    <tag k="addr:housenumber" v="1123"/>
    <tag k="addr:street" v="Wild Branch Road"/>
    <tag k="addr:state" v="VT"/>
    <tag k="ref:vcgi:esiteid" v="79500"/>
  </node>
  <node id="-695" visible="true" lat="44.64668785" lon="-72.417952">
    <tag k="addr:housenumber" v="898"/>
    <tag k="addr:street" v="Wild Branch Road"/>
    <tag k="addr:state" v="VT"/>
    <tag k="ref:vcgi:esiteid" v="79501"/>
  </node>
  <node id="-696" visible="true" lat="44.64634814" lon="-72.42290482">
    <tag k="addr:housenumber" v="285"/>
    <tag k="addr:street" v="Hatch Brook Road"/>
    <tag k="addr:state" v="VT"/>
    <tag k="ref:vcgi:esiteid" v="79502"/>
  </node>
  <node id="-697" visible="true" lat="44.65024258" lon="-72.3733758">
    <tag k="addr:housenumber" v="199"/>
    <tag k="addr:street" v="Pageant Hill"/>
    <tag k="addr:state" v="VT"/>
    <tag k="ref:vcgi:esiteid" v="79503"/>
  </node>
  <node id="-698" visible="true" lat="44.64035469" lon="-72.34691416">
    <tag k="addr:housenumber" v="1004"/>
    <tag k="addr:street" v="Ketchum Hill Road"/>
    <tag k="addr:state" v="VT"/>
    <tag k="ref:vcgi:esiteid" v="79504"/>
  </node>
  <node id="-699" visible="true" lat="44.6545465" lon="-72.35472344">
    <tag k="addr:housenumber" v="1566"/>
    <tag k="addr:street" v="Creek Road"/>
    <tag k="addr:state" v="VT"/>
    <tag k="ref:vcgi:esiteid" v="79505"/>
  </node>
  <node id="-700" visible="true" lat="44.65114699" lon="-72.3608538">
    <tag k="addr:housenumber" v="1279"/>
    <tag k="addr:street" v="Creek Road"/>
    <tag k="addr:state" v="VT"/>
    <tag k="ref:vcgi:esiteid" v="79506"/>
  </node>
  <node id="-701" visible="true" lat="44.64939918" lon="-72.35795619">
    <tag k="addr:housenumber" v="191"/>
    <tag k="addr:street" v="Ketchum Hill Road"/>
    <tag k="addr:state" v="VT"/>
    <tag k="ref:vcgi:esiteid" v="79507"/>
  </node>
  <node id="-702" visible="true" lat="44.6489737" lon="-72.32852153">
    <tag k="addr:housenumber" v="440"/>
    <tag k="addr:street" v="Echo Hill Road"/>
    <tag k="addr:state" v="VT"/>
    <tag k="ref:vcgi:esiteid" v="79508"/>
  </node>
  <node id="-703" visible="true" lat="44.64049288" lon="-72.34032055">
    <tag k="addr:housenumber" v="1866"/>
    <tag k="addr:street" v="East Craftsbury Road"/>
    <tag k="addr:state" v="VT"/>
    <tag k="ref:vcgi:esiteid" v="79509"/>
  </node>
  <node id="-704" visible="true" lat="44.61327263" lon="-72.38638044">
    <tag k="addr:housenumber" v="900"/>
    <tag k="addr:street" v="Morey Hill Road"/>
    <tag k="addr:state" v="VT"/>
    <tag k="ref:vcgi:esiteid" v="79511"/>
  </node>
  <node id="-705" visible="true" lat="44.62929481" lon="-72.35059057">
    <tag k="addr:housenumber" v="870"/>
    <tag k="addr:street" v="East Craftsbury Road"/>
    <tag k="addr:state" v="VT"/>
    <tag k="ref:vcgi:esiteid" v="79512"/>
  </node>
  <node id="-706" visible="true" lat="44.6259709" lon="-72.36278979">
    <tag k="addr:housenumber" v="915"/>
    <tag k="addr:street" v="South Craftsbury Road"/>
    <tag k="addr:state" v="VT"/>
    <tag k="ref:vcgi:esiteid" v="79513"/>
  </node>
  <node id="-707" visible="true" lat="44.60033919" lon="-72.38765368">
    <tag k="addr:housenumber" v="1927"/>
    <tag k="addr:street" v="Morey Hill Road"/>
    <tag k="addr:state" v="VT"/>
    <tag k="ref:vcgi:esiteid" v="79514"/>
  </node>
  <node id="-708" visible="true" lat="44.60705667" lon="-72.38703593">
    <tag k="addr:housenumber" v="1450"/>
    <tag k="addr:street" v="Morey Hill Road"/>
    <tag k="addr:state" v="VT"/>
    <tag k="ref:vcgi:esiteid" v="79515"/>
  </node>
  <node id="-709" visible="true" lat="44.62267603" lon="-72.41320635">
    <tag k="addr:housenumber" v="1044"/>
    <tag k="addr:street" v="Denton Hill Road"/>
    <tag k="addr:state" v="VT"/>
    <tag k="ref:vcgi:esiteid" v="79516"/>
  </node>
  <node id="-710" visible="true" lat="44.68366788" lon="-72.42630168">
    <tag k="addr:housenumber" v="521"/>
    <tag k="addr:street" v="Far Out Road"/>
    <tag k="addr:state" v="VT"/>
    <tag k="ref:vcgi:esiteid" v="79517"/>
  </node>
  <node id="-711" visible="true" lat="44.61957083" lon="-72.36679203">
    <tag k="addr:housenumber" v="1075"/>
    <tag k="addr:street" v="Vermont Route 14"/>
    <tag k="addr:state" v="VT"/>
    <tag k="ref:vcgi:esiteid" v="79518"/>
  </node>
  <node id="-712" visible="true" lat="44.67149846" lon="-72.43888626">
    <tag k="addr:housenumber" v="400"/>
    <tag k="addr:street" v="Eden Mountain Road"/>
    <tag k="addr:state" v="VT"/>
    <tag k="ref:vcgi:esiteid" v="79519"/>
  </node>
  <node id="-713" visible="true" lat="44.61118416" lon="-72.36028108">
    <tag k="addr:housenumber" v="397"/>
    <tag k="addr:street" v="Vermont Route 14"/>
    <tag k="addr:state" v="VT"/>
    <tag k="ref:vcgi:esiteid" v="79520"/>
  </node>
  <node id="-715" visible="true" lat="44.6959947" lon="-72.39566611">
    <tag k="addr:housenumber" v="7525"/>
    <tag k="addr:street" v="Vermont Route 14"/>
    <tag k="addr:state" v="VT"/>
    <tag k="ref:vcgi:esiteid" v="79522"/>
  </node>
  <node id="-716" visible="true" lat="44.65782716" lon="-72.41044076">
    <tag k="addr:housenumber" v="331"/>
    <tag k="addr:street" v="Common View Drive"/>
    <tag k="addr:state" v="VT"/>
    <tag k="ref:vcgi:esiteid" v="79523"/>
  </node>
  <node id="-717" visible="true" lat="44.6756418" lon="-72.42852419">
    <tag k="addr:housenumber" v="190"/>
    <tag k="addr:street" v="Griggs Road"/>
    <tag k="addr:state" v="VT"/>
    <tag k="ref:vcgi:esiteid" v="79524"/>
  </node>
  <node id="-718" visible="true" lat="44.66484172" lon="-72.36914894">
    <tag k="addr:housenumber" v="149"/>
    <tag k="addr:street" v="Bi Frost Way"/>
    <tag k="addr:state" v="VT"/>
    <tag k="ref:vcgi:esiteid" v="79525"/>
  </node>
  <node id="-719" visible="true" lat="44.66412186" lon="-72.36952233">
    <tag k="addr:housenumber" v="188"/>
    <tag k="addr:street" v="Bi Frost Way"/>
    <tag k="addr:state" v="VT"/>
    <tag k="ref:vcgi:esiteid" v="79526"/>
  </node>
  <node id="-720" visible="true" lat="44.65511728" lon="-72.40400397">
    <tag k="addr:housenumber" v="4554"/>
    <tag k="addr:street" v="Vermont Route 14"/>
    <tag k="addr:state" v="VT"/>
    <tag k="ref:vcgi:esiteid" v="79527"/>
  </node>
  <node id="-721" visible="true" lat="44.67041811" lon="-72.43050464">
    <tag k="addr:housenumber" v="1632"/>
    <tag k="addr:street" v="Collinsville Road"/>
    <tag k="addr:state" v="VT"/>
    <tag k="ref:vcgi:esiteid" v="79528"/>
  </node>
  <node id="-722" visible="true" lat="44.65805729" lon="-72.40025742">
    <tag k="addr:housenumber" v="1034"/>
    <tag k="addr:street" v="Post Road"/>
    <tag k="addr:state" v="VT"/>
    <tag k="ref:vcgi:esiteid" v="79529"/>
  </node>
  <node id="-723" visible="true" lat="44.65452951" lon="-72.41636545">
    <tag k="addr:housenumber" v="124"/>
    <tag k="addr:street" v="Collinsville Road"/>
    <tag k="addr:state" v="VT"/>
    <tag k="ref:vcgi:esiteid" v="79530"/>
  </node>
  <node id="-724" visible="true" lat="44.65163046" lon="-72.40456691">
    <tag k="addr:housenumber" v="4342"/>
    <tag k="addr:street" v="Vermont Route 14"/>
    <tag k="addr:state" v="VT"/>
    <tag k="ref:vcgi:esiteid" v="79531"/>
  </node>
  <node id="-725" visible="true" lat="44.62668857" lon="-72.37993021">
    <tag k="addr:housenumber" v="1972"/>
    <tag k="addr:street" v="Vermont Route 14"/>
    <tag k="addr:state" v="VT"/>
    <tag k="ref:vcgi:esiteid" v="79532"/>
  </node>
  <node id="-726" visible="true" lat="44.67735243" lon="-72.3801523">
    <tag k="addr:housenumber" v="396"/>
    <tag k="addr:street" v="Little Hosmer Drive"/>
    <tag k="addr:state" v="VT"/>
    <tag k="ref:vcgi:esiteid" v="79533"/>
  </node>
  <node id="-727" visible="true" lat="44.66536989" lon="-72.37662005">
    <tag k="addr:housenumber" v="1747"/>
    <tag k="addr:street" v="King Farm Road"/>
    <tag k="addr:state" v="VT"/>
    <tag k="ref:vcgi:esiteid" v="79534"/>
  </node>
  <node id="-728" visible="true" lat="44.62368198" lon="-72.3897805">
    <tag k="addr:housenumber" v="272"/>
    <tag k="addr:street" v="West Hill Road"/>
    <tag k="addr:state" v="VT"/>
    <tag k="ref:vcgi:esiteid" v="79535"/>
  </node>
  <node id="-729" visible="true" lat="44.61381107" lon="-72.36041193">
    <tag k="addr:housenumber" v="54"/>
    <tag k="addr:street" v="Bees Lane"/>
    <tag k="addr:state" v="VT"/>
    <tag k="ref:vcgi:esiteid" v="79536"/>
  </node>
  <node id="-730" visible="true" lat="44.6573934" lon="-72.33191058">
    <tag k="addr:housenumber" v="33"/>
    <tag k="addr:street" v="Twin Bridges Road"/>
    <tag k="addr:state" v="VT"/>
    <tag k="ref:vcgi:esiteid" v="79537"/>
  </node>
  <node id="-731" visible="true" lat="44.61589889" lon="-72.42506593">
    <tag k="addr:housenumber" v="2160"/>
    <tag k="addr:street" v="West Hill Road"/>
    <tag k="addr:state" v="VT"/>
    <tag k="ref:vcgi:esiteid" v="79538"/>
  </node>
  <node id="-732" visible="true" lat="44.61600534" lon="-72.43008983">
    <tag k="addr:housenumber" v="2292"/>
    <tag k="addr:street" v="West Hill Road"/>
    <tag k="addr:state" v="VT"/>
    <tag k="ref:vcgi:esiteid" v="79539"/>
  </node>
  <node id="-733" visible="true" lat="44.63382714" lon="-72.4747283">
    <tag k="addr:housenumber" v="296"/>
    <tag k="addr:street" v="Demeritt Road"/>
    <tag k="addr:state" v="VT"/>
    <tag k="ref:vcgi:esiteid" v="79540"/>
  </node>
  <node id="-734" visible="true" lat="44.69014254" lon="-72.35955484">
    <tag k="addr:housenumber" v="1286"/>
    <tag k="addr:street" v="Lost Nation Road"/>
    <tag k="addr:state" v="VT"/>
    <tag k="ref:vcgi:esiteid" v="79541"/>
  </node>
  <node id="-735" visible="true" lat="44.65687689" lon="-72.42239514">
    <tag k="addr:housenumber" v="599"/>
    <tag k="addr:street" v="Collinsville Road"/>
    <tag k="addr:state" v="VT"/>
    <tag k="ref:vcgi:esiteid" v="79542"/>
  </node>
  <node id="-736" visible="true" lat="44.61452881" lon="-72.3571569">
    <tag k="addr:housenumber" v="177"/>
    <tag k="addr:street" v="Lake Road"/>
    <tag k="addr:state" v="VT"/>
    <tag k="ref:vcgi:esiteid" v="79543"/>
  </node>
  <node id="-737" visible="true" lat="44.64227105" lon="-72.36953061">
    <tag k="addr:housenumber" v="29"/>
    <tag k="addr:street" v="King Farm Road"/>
    <tag k="addr:state" v="VT"/>
    <tag k="ref:vcgi:esiteid" v="79545"/>
  </node>
  <node id="-738" visible="true" lat="44.66785667" lon="-72.41463742">
    <tag k="addr:housenumber" v="878"/>
    <tag k="addr:street" v="Coburn Hill Road"/>
    <tag k="addr:state" v="VT"/>
    <tag k="ref:vcgi:esiteid" v="79546"/>
  </node>
  <node id="-739" visible="true" lat="44.63914547" lon="-72.38689668">
    <tag k="addr:housenumber" v="140"/>
    <tag k="addr:street" v="Scotts Lane"/>
    <tag k="addr:state" v="VT"/>
    <tag k="ref:vcgi:esiteid" v="79547"/>
  </node>
  <node id="-741" visible="true" lat="44.67835691" lon="-72.37994857">
    <tag k="addr:housenumber" v="398"/>
    <tag k="addr:street" v="Little Hosmer Drive"/>
    <tag k="addr:state" v="VT"/>
    <tag k="ref:vcgi:esiteid" v="316031"/>
  </node>
  <node id="-742" visible="true" lat="44.61212324" lon="-72.37413975">
    <tag k="addr:housenumber" v="1306"/>
    <tag k="addr:street" v="Guy Lot Road"/>
    <tag k="addr:state" v="VT"/>
    <tag k="ref:vcgi:esiteid" v="316032"/>
  </node>
  <node id="-743" visible="true" lat="44.65469522" lon="-72.38517299">
    <tag k="addr:housenumber" v="113"/>
    <tag k="addr:street" v="Church Lane"/>
    <tag k="addr:state" v="VT"/>
    <tag k="ref:vcgi:esiteid" v="316033"/>
  </node>
  <node id="-744" visible="true" lat="44.65528012" lon="-72.38538933">
    <tag k="addr:housenumber" v="140"/>
    <tag k="addr:street" v="Church Lane"/>
    <tag k="addr:state" v="VT"/>
    <tag k="ref:vcgi:esiteid" v="316034"/>
  </node>
  <node id="-746" visible="true" lat="44.68005479" lon="-72.38035088">
    <tag k="addr:housenumber" v="580"/>
    <tag k="addr:street" v="Little Hosmer Drive"/>
    <tag k="addr:state" v="VT"/>
    <tag k="ref:vcgi:esiteid" v="326266"/>
  </node>
  <node id="-747" visible="true" lat="44.67835083" lon="-72.41377592">
    <tag k="addr:housenumber" v="1598"/>
    <tag k="addr:street" v="Coburn Hill Road"/>
    <tag k="addr:state" v="VT"/>
    <tag k="ref:vcgi:esiteid" v="326268"/>
  </node>
  <node id="-748" visible="true" lat="44.64669322" lon="-72.3796335">
    <tag k="addr:housenumber" v="882"/>
    <tag k="addr:street" v="North Craftsbury Road"/>
    <tag k="addr:state" v="VT"/>
    <tag k="ref:vcgi:esiteid" v="326948"/>
  </node>
  <node id="-749" visible="true" lat="44.64025335" lon="-72.37990666">
    <tag k="addr:housenumber" v="103"/>
    <tag k="addr:street" v="Old Allen Road"/>
    <tag k="addr:state" v="VT"/>
    <tag k="ref:vcgi:esiteid" v="326949"/>
  </node>
  <node id="-750" visible="true" lat="44.70475062" lon="-72.39788149">
    <tag k="addr:housenumber" v="340"/>
    <tag k="addr:street" v="Town Line Road"/>
    <tag k="addr:state" v="VT"/>
    <tag k="ref:vcgi:esiteid" v="326950"/>
  </node>
  <node id="-751" visible="true" lat="44.6357508" lon="-72.37468279">
    <tag k="addr:housenumber" v="39"/>
    <tag k="addr:street" v="Black River Road"/>
    <tag k="addr:state" v="VT"/>
    <tag k="ref:vcgi:esiteid" v="328178"/>
  </node>
  <node id="-752" visible="true" lat="44.61075965" lon="-72.35567084">
    <tag k="addr:housenumber" v="424"/>
    <tag k="addr:street" v="Lake Road"/>
    <tag k="addr:state" v="VT"/>
    <tag k="ref:vcgi:esiteid" v="330063"/>
  </node>
  <node id="-753" visible="true" lat="44.64751539" lon="-72.37041178">
    <tag k="addr:housenumber" v="385"/>
    <tag k="addr:street" v="King Farm Road"/>
    <tag k="addr:state" v="VT"/>
    <tag k="ref:vcgi:esiteid" v="331815"/>
  </node>
  <node id="-754" visible="true" lat="44.66923652" lon="-72.36156416">
    <tag k="addr:housenumber" v="722"/>
    <tag k="addr:street" v="Town Highway 19"/>
    <tag k="addr:state" v="VT"/>
    <tag k="ref:vcgi:esiteid" v="331816"/>
  </node>
  <node id="-755" visible="true" lat="44.61508469" lon="-72.35742969">
    <tag k="addr:housenumber" v="147"/>
    <tag k="addr:street" v="Lake Road"/>
    <tag k="addr:state" v="VT"/>
    <tag k="ref:vcgi:esiteid" v="331817"/>
  </node>
  <node id="-756" visible="true" lat="44.60106282" lon="-72.37560362">
    <tag k="addr:housenumber" v="2142"/>
    <tag k="addr:street" v="Guy Lot Road"/>
    <tag k="addr:state" v="VT"/>
    <tag k="ref:vcgi:esiteid" v="331818"/>
  </node>
  <node id="-757" visible="true" lat="44.68506451" lon="-72.37506094">
    <tag k="addr:housenumber" v="1877"/>
    <tag k="addr:street" v="Mill Village Road"/>
    <tag k="addr:state" v="VT"/>
    <tag k="ref:vcgi:esiteid" v="333191"/>
  </node>
  <node id="-758" visible="true" lat="44.69917555" lon="-72.38790103">
    <tag k="addr:housenumber" v="2401"/>
    <tag k="addr:street" v="Wylie Hill Road"/>
    <tag k="addr:state" v="VT"/>
    <tag k="ref:vcgi:esiteid" v="333192"/>
  </node>
  <node id="-760" visible="true" lat="44.65243656" lon="-72.41472992">
    <tag k="addr:housenumber" v="11"/>
    <tag k="addr:street" v="Collinsville Road"/>
    <tag k="addr:state" v="VT"/>
    <tag k="ref:vcgi:esiteid" v="333859"/>
  </node>
  <node id="-761" visible="true" lat="44.67807375" lon="-72.32464371">
    <tag k="addr:housenumber" v="758"/>
    <tag k="addr:street" v="Urie Road"/>
    <tag k="addr:state" v="VT"/>
    <tag k="ref:vcgi:esiteid" v="333861"/>
  </node>
  <node id="-762" visible="true" lat="44.6530321" lon="-72.38362371">
    <tag k="addr:housenumber" v="69"/>
    <tag k="addr:street" v="Common Loop"/>
    <tag k="addr:state" v="VT"/>
    <tag k="ref:vcgi:esiteid" v="334272"/>
  </node>
  <node id="-763" visible="true" lat="44.66819948" lon="-72.32756986">
    <tag k="addr:housenumber" v="89"/>
    <tag k="addr:street" v="Allen Hill Road"/>
    <tag k="addr:state" v="VT"/>
    <tag k="ref:vcgi:esiteid" v="336532"/>
  </node>
  <node id="-764" visible="true" lat="44.64737963" lon="-72.35386951">
    <tag k="addr:housenumber" v="453"/>
    <tag k="addr:street" v="Ketchum Hill Road"/>
    <tag k="addr:state" v="VT"/>
    <tag k="ref:vcgi:esiteid" v="337263"/>
  </node>
  <node id="-765" visible="true" lat="44.63554991" lon="-72.37505743">
    <tag k="addr:housenumber" v="23"/>
    <tag k="addr:street" v="Summer Drive"/>
    <tag k="addr:state" v="VT"/>
    <tag k="ref:vcgi:esiteid" v="338366"/>
  </node>
  <node id="-766" visible="true" lat="44.65350105" lon="-72.38667809">
    <tag k="addr:housenumber" v="187"/>
    <tag k="addr:street" v="Mountain Hill Road"/>
    <tag k="addr:state" v="VT"/>
    <tag k="ref:vcgi:esiteid" v="338367"/>
  </node>
  <node id="-767" visible="true" lat="44.68091408" lon="-72.40507823">
    <tag k="addr:housenumber" v="6213"/>
    <tag k="addr:street" v="Vermont Route 14"/>
    <tag k="addr:state" v="VT"/>
    <tag k="ref:vcgi:esiteid" v="339774"/>
  </node>
  <node id="-768" visible="true" lat="44.66663251" lon="-72.3216728">
    <tag k="addr:housenumber" v="459"/>
    <tag k="addr:street" v="Allen Hill Road"/>
    <tag k="addr:state" v="VT"/>
    <tag k="ref:vcgi:esiteid" v="339775"/>
  </node>
  <node id="-769" visible="true" lat="44.6893881" lon="-72.3723618">
    <tag k="addr:housenumber" v="2139"/>
    <tag k="addr:street" v="Mill Village Road"/>
    <tag k="addr:state" v="VT"/>
    <tag k="ref:vcgi:esiteid" v="341573"/>
  </node>
  <node id="-770" visible="true" lat="44.68960705" lon="-72.36942433">
    <tag k="addr:housenumber" v="2140"/>
    <tag k="addr:street" v="Mill Village Road"/>
    <tag k="addr:state" v="VT"/>
    <tag k="ref:vcgi:esiteid" v="341574"/>
  </node>
  <node id="-771" visible="true" lat="44.68729195" lon="-72.40169743">
    <tag k="addr:housenumber" v="6807"/>
    <tag k="addr:street" v="Vermont Route 14"/>
    <tag k="addr:state" v="VT"/>
    <tag k="ref:vcgi:esiteid" v="342456"/>
  </node>
  <node id="-772" visible="true" lat="44.66736023" lon="-72.31480733">
    <tag k="addr:housenumber" v="2462"/>
    <tag k="addr:street" v="South Albany Road"/>
    <tag k="addr:state" v="VT"/>
    <tag k="ref:vcgi:esiteid" v="344508"/>
  </node>
  <node id="-773" visible="true" lat="44.66526361" lon="-72.35174367">
    <tag k="addr:housenumber" v="2319"/>
    <tag k="addr:street" v="Creek Road"/>
    <tag k="addr:state" v="VT"/>
    <tag k="ref:vcgi:esiteid" v="344509"/>
  </node>
  <node id="-774" visible="true" lat="44.62090384" lon="-72.40100218">
    <tag k="addr:housenumber" v="865"/>
    <tag k="addr:street" v="West Hill Road"/>
    <tag k="addr:state" v="VT"/>
    <tag k="ref:vcgi:esiteid" v="344510"/>
  </node>
  <node id="-775" visible="true" lat="44.63311133" lon="-72.37007541">
    <tag k="addr:housenumber" v="20"/>
    <tag k="addr:street" v="Petes Greens Road"/>
    <tag k="addr:state" v="VT"/>
    <tag k="ref:vcgi:esiteid" v="345203"/>
  </node>
  <node id="-776" visible="true" lat="44.63658375" lon="-72.39061899">
    <tag k="addr:housenumber" v="986"/>
    <tag k="addr:street" v="Black River Road"/>
    <tag k="addr:state" v="VT"/>
    <tag k="ref:vcgi:esiteid" v="345204"/>
  </node>
  <node id="-777" visible="true" lat="44.65166804" lon="-72.38346498">
    <tag k="addr:housenumber" v="59"/>
    <tag k="addr:street" v="Sterling Drive"/>
    <tag k="addr:state" v="VT"/>
    <tag k="ref:vcgi:esiteid" v="346018"/>
  </node>
  <node id="-778" visible="true" lat="44.64025344" lon="-72.4062794">
    <tag k="addr:housenumber" v="343"/>
    <tag k="addr:street" v="East View Road"/>
    <tag k="addr:state" v="VT"/>
    <tag k="ref:vcgi:esiteid" v="365173"/>
  </node>
  <node id="-779" visible="true" lat="44.62989308" lon="-72.45170517">
    <tag k="addr:housenumber" v="230"/>
    <tag k="addr:street" v="Cochran Drive"/>
    <tag k="addr:state" v="VT"/>
    <tag k="ref:vcgi:esiteid" v="365174"/>
  </node>
  <node id="-780" visible="true" lat="44.63978884" lon="-72.46010708">
    <tag k="addr:housenumber" v="2310"/>
    <tag k="addr:street" v="Hatch Brook Road"/>
    <tag k="addr:state" v="VT"/>
    <tag k="ref:vcgi:esiteid" v="365175"/>
  </node>
  <node id="-781" visible="true" lat="44.65013112" lon="-72.38530294">
    <tag k="addr:housenumber" v="205"/>
    <tag k="addr:street" v="Sterling Farm Road"/>
    <tag k="addr:state" v="VT"/>
    <tag k="ref:vcgi:esiteid" v="365486"/>
  </node>
  <node id="-782" visible="true" lat="44.65031865" lon="-72.38532342">
    <tag k="addr:housenumber" v="184"/>
    <tag k="addr:street" v="Sterling Farm Road"/>
    <tag k="addr:state" v="VT"/>
    <tag k="ref:vcgi:esiteid" v="365487"/>
  </node>
  <node id="-783" visible="true" lat="44.65042133" lon="-72.38384723">
    <tag k="addr:housenumber" v="155"/>
    <tag k="addr:street" v="Sterling Farm Road"/>
    <tag k="addr:state" v="VT"/>
    <tag k="ref:vcgi:esiteid" v="365488"/>
  </node>
  <node id="-784" visible="true" lat="44.6500025" lon="-72.38466944">
    <tag k="addr:housenumber" v="179"/>
    <tag k="addr:street" v="Sterling Farm Road"/>
    <tag k="addr:state" v="VT"/>
    <tag k="ref:vcgi:esiteid" v="365489"/>
  </node>
  <node id="-787" visible="true" lat="44.62027751" lon="-72.41407875">
    <tag k="addr:housenumber" v="1169"/>
    <tag k="addr:street" v="Denton Hill Road"/>
    <tag k="addr:state" v="VT"/>
    <tag k="ref:vcgi:esiteid" v="445517"/>
  </node>
  <node id="-788" visible="true" lat="44.67633183" lon="-72.41667645">
    <tag k="addr:housenumber" v="1495"/>
    <tag k="addr:street" v="Coburn Hill Road"/>
    <tag k="addr:state" v="VT"/>
    <tag k="ref:vcgi:esiteid" v="446881"/>
  </node>
  <node id="-789" visible="true" lat="44.64666078" lon="-72.34026825">
    <tag k="addr:housenumber" v="495"/>
    <tag k="addr:street" v="South Albany Road"/>
    <tag k="addr:state" v="VT"/>
    <tag k="ref:vcgi:esiteid" v="447124"/>
  </node>
  <node id="-790" visible="true" lat="44.65132859" lon="-72.35679508">
    <tag k="addr:housenumber" v="1408"/>
    <tag k="addr:street" v="Creek Road"/>
    <tag k="addr:state" v="VT"/>
    <tag k="ref:vcgi:esiteid" v="448360"/>
  </node>
  <node id="-791" visible="true" lat="44.63218627" lon="-72.4239164">
    <tag k="addr:housenumber" v="62"/>
    <tag k="addr:street" v="Apple Drive"/>
    <tag k="addr:state" v="VT"/>
    <tag k="ref:vcgi:esiteid" v="451269"/>
  </node>
  <node id="-792" visible="true" lat="44.65793904" lon="-72.39461454">
    <tag k="addr:housenumber" v="67"/>
    <tag k="addr:street" v="Godin Drive"/>
    <tag k="addr:state" v="VT"/>
    <tag k="ref:vcgi:esiteid" v="451270"/>
  </node>
  <node id="-793" visible="true" lat="44.67937474" lon="-72.36290964">
    <tag k="addr:housenumber" v="500"/>
    <tag k="addr:street" v="Lost Nation Road"/>
    <tag k="addr:state" v="VT"/>
    <tag k="ref:vcgi:esiteid" v="451944"/>
  </node>
  <node id="-794" visible="true" lat="44.67476337" lon="-72.3849483">
    <tag k="addr:housenumber" v="669"/>
    <tag k="addr:street" v="Wylie Hill Road"/>
    <tag k="addr:state" v="VT"/>
    <tag k="ref:vcgi:esiteid" v="452546"/>
  </node>
  <node id="-795" visible="true" lat="44.68848954" lon="-72.36548594">
    <tag k="addr:housenumber" v="352"/>
    <tag k="addr:street" v="Summer Meadows"/>
    <tag k="addr:state" v="VT"/>
    <tag k="ref:vcgi:esiteid" v="452812"/>
  </node>
  <node id="-796" visible="true" lat="44.62664234" lon="-72.38070124">
    <tag k="addr:housenumber" v="1976"/>
    <tag k="addr:street" v="Vermont Route 14"/>
    <tag k="addr:state" v="VT"/>
    <tag k="ref:vcgi:esiteid" v="453647"/>
  </node>
  <node id="-797" visible="true" lat="44.61327328" lon="-72.3885785">
    <tag k="addr:housenumber" v="878"/>
    <tag k="addr:street" v="Morey Hill Road"/>
    <tag k="addr:state" v="VT"/>
    <tag k="ref:vcgi:esiteid" v="454331"/>
  </node>
  <node id="-798" visible="true" lat="44.69709898" lon="-72.40340525">
    <tag k="addr:housenumber" v="1197"/>
    <tag k="addr:street" v="Town Line Road"/>
    <tag k="addr:state" v="VT"/>
    <tag k="ref:vcgi:esiteid" v="454332"/>
  </node>
  <node id="-799" visible="true" lat="44.69414474" lon="-72.40395595">
    <tag k="addr:housenumber" v="1333"/>
    <tag k="addr:street" v="Town Line Road"/>
    <tag k="addr:state" v="VT"/>
    <tag k="ref:vcgi:esiteid" v="454763"/>
  </node>
  <node id="-800" visible="true" lat="44.63944279" lon="-72.34322704">
    <tag k="addr:housenumber" v="1542"/>
    <tag k="addr:street" v="East Craftsbury Road"/>
    <tag k="addr:state" v="VT"/>
    <tag k="ref:vcgi:esiteid" v="454807"/>
  </node>
  <node id="-801" visible="true" lat="44.62576953" lon="-72.35689806">
    <tag k="addr:housenumber" v="268"/>
    <tag k="addr:street" v="Woodhenge Drive"/>
    <tag k="addr:state" v="VT"/>
    <tag k="ref:vcgi:esiteid" v="454872"/>
  </node>
  <node id="-802" visible="true" lat="44.66884599" lon="-72.43322727">
    <tag k="addr:housenumber" v="109"/>
    <tag k="addr:street" v="Eden Mountain Road"/>
    <tag k="addr:state" v="VT"/>
    <tag k="ref:vcgi:esiteid" v="454924"/>
  </node>
  <node id="-803" visible="true" lat="44.65560169" lon="-72.37343596">
    <tag k="addr:housenumber" v="1013"/>
    <tag k="addr:street" v="King Farm Road"/>
    <tag k="addr:state" v="VT"/>
    <tag k="ref:vcgi:esiteid" v="455241"/>
  </node>
  <node id="-805" visible="true" lat="44.6893909" lon="-72.40482935">
    <tag k="addr:housenumber" v="1660"/>
    <tag k="addr:street" v="Town Line Road"/>
    <tag k="addr:state" v="VT"/>
    <tag k="ref:vcgi:esiteid" v="610285"/>
  </node>
  <node id="-806" visible="true" lat="44.69103643" lon="-72.40229597">
    <tag k="addr:housenumber" v="1459"/>
    <tag k="addr:street" v="Town Line Road"/>
    <tag k="addr:state" v="VT"/>
    <tag k="ref:vcgi:esiteid" v="610286"/>
  </node>
  <node id="-807" visible="true" lat="44.68371127" lon="-72.41833958">
    <tag k="addr:housenumber" v="1999"/>
    <tag k="addr:street" v="Coburn Hill Road"/>
    <tag k="addr:state" v="VT"/>
    <tag k="ref:vcgi:esiteid" v="610290"/>
  </node>
  <node id="-808" visible="true" lat="44.6828869" lon="-72.41436086">
    <tag k="addr:housenumber" v="2072"/>
    <tag k="addr:street" v="Coburn Hill Road"/>
    <tag k="addr:state" v="VT"/>
    <tag k="ref:vcgi:esiteid" v="610291"/>
  </node>
  <node id="-809" visible="true" lat="44.67927705" lon="-72.41355134">
    <tag k="addr:housenumber" v="1600"/>
    <tag k="addr:street" v="Coburn Hill Road"/>
    <tag k="addr:state" v="VT"/>
    <tag k="ref:vcgi:esiteid" v="610292"/>
  </node>
  <node id="-810" visible="true" lat="44.66428967" lon="-72.4207265">
    <tag k="addr:housenumber" v="836"/>
    <tag k="addr:street" v="Collinsville Road"/>
    <tag k="addr:state" v="VT"/>
    <tag k="ref:vcgi:esiteid" v="610293"/>
  </node>
  <node id="-811" visible="true" lat="44.66253101" lon="-72.4328075">
    <tag k="addr:housenumber" v="1097"/>
    <tag k="addr:street" v="Collinsville Road"/>
    <tag k="addr:state" v="VT"/>
    <tag k="ref:vcgi:esiteid" v="610294"/>
  </node>
  <node id="-813" visible="true" lat="44.66014389" lon="-72.4305984">
    <tag k="addr:housenumber" v="1085"/>
    <tag k="addr:street" v="Collinsville Road"/>
    <tag k="addr:state" v="VT"/>
    <tag k="ref:vcgi:esiteid" v="610296"/>
  </node>
  <node id="-814" visible="true" lat="44.6697125" lon="-72.44691167">
    <tag k="addr:housenumber" v="179"/>
    <tag k="addr:street" v="Billado Lane"/>
    <tag k="addr:state" v="VT"/>
    <tag k="ref:vcgi:esiteid" v="610297"/>
  </node>
  <node id="-818" visible="true" lat="44.70661764" lon="-72.40514407">
    <tag k="addr:housenumber" v="359"/>
    <tag k="addr:street" v="Martin Road"/>
    <tag k="addr:state" v="VT"/>
    <tag k="ref:vcgi:esiteid" v="610302"/>
  </node>
  <node id="-819" visible="true" lat="44.70822024" lon="-72.42274406">
    <tag k="addr:housenumber" v="4083"/>
    <tag k="addr:street" v="Coburn Hill Road"/>
    <tag k="addr:state" v="VT"/>
    <tag k="ref:vcgi:esiteid" v="610303"/>
  </node>
  <node id="-820" visible="true" lat="44.70775509" lon="-72.42150263">
    <tag k="addr:housenumber" v="4036"/>
    <tag k="addr:street" v="Coburn Hill Road"/>
    <tag k="addr:state" v="VT"/>
    <tag k="ref:vcgi:esiteid" v="610304"/>
  </node>
  <node id="-821" visible="true" lat="44.70853412" lon="-72.42213263">
    <tag k="addr:housenumber" v="4076"/>
    <tag k="addr:street" v="Coburn Hill Road"/>
    <tag k="addr:state" v="VT"/>
    <tag k="ref:vcgi:esiteid" v="610305"/>
  </node>
  <node id="-822" visible="true" lat="44.70886421" lon="-72.42438596">
    <tag k="addr:housenumber" v="4190"/>
    <tag k="addr:street" v="Coburn Hill Road"/>
    <tag k="addr:state" v="VT"/>
    <tag k="ref:vcgi:esiteid" v="610306"/>
  </node>
  <node id="-823" visible="true" lat="44.70889255" lon="-72.42403533">
    <tag k="addr:housenumber" v="4172"/>
    <tag k="addr:street" v="Coburn Hill Road"/>
    <tag k="addr:state" v="VT"/>
    <tag k="ref:vcgi:esiteid" v="610307"/>
  </node>
  <node id="-824" visible="true" lat="44.70897161" lon="-72.42476646">
    <tag k="addr:housenumber" v="4212"/>
    <tag k="addr:street" v="Coburn Hill Road"/>
    <tag k="addr:state" v="VT"/>
    <tag k="ref:vcgi:esiteid" v="610308"/>
  </node>
  <node id="-825" visible="true" lat="44.7089721" lon="-72.42551771">
    <tag k="addr:housenumber" v="4252"/>
    <tag k="addr:street" v="Coburn Hill Road"/>
    <tag k="addr:state" v="VT"/>
    <tag k="ref:vcgi:esiteid" v="610309"/>
  </node>
  <node id="-826" visible="true" lat="44.71027172" lon="-72.42488498">
    <tag k="addr:housenumber" v="4520"/>
    <tag k="addr:street" v="Coburn Hill Road"/>
    <tag k="addr:state" v="VT"/>
    <tag k="ref:vcgi:esiteid" v="610310"/>
  </node>
  <node id="-828" visible="true" lat="44.70376745" lon="-72.42303243">
    <tag k="addr:housenumber" v="3739"/>
    <tag k="addr:street" v="Coburn Hill Road"/>
    <tag k="addr:state" v="VT"/>
    <tag k="ref:vcgi:esiteid" v="610312"/>
  </node>
  <node id="-829" visible="true" lat="44.70078227" lon="-72.42396782">
    <tag k="addr:housenumber" v="3545"/>
    <tag k="addr:street" v="Coburn Hill Road"/>
    <tag k="addr:state" v="VT"/>
    <tag k="ref:vcgi:esiteid" v="610313"/>
  </node>
  <node id="-830" visible="true" lat="44.69827023" lon="-72.41703075">
    <tag k="addr:housenumber" v="3105"/>
    <tag k="addr:street" v="Coburn Hill Road"/>
    <tag k="addr:state" v="VT"/>
    <tag k="ref:vcgi:esiteid" v="610314"/>
  </node>
  <node id="-831" visible="true" lat="44.67497551" lon="-72.42579019">
    <tag k="addr:housenumber" v="254"/>
    <tag k="addr:street" v="Griggs Road"/>
    <tag k="addr:state" v="VT"/>
    <tag k="ref:vcgi:esiteid" v="610315"/>
  </node>
  <node id="-832" visible="true" lat="44.66623725" lon="-72.41578177">
    <tag k="addr:housenumber" v="90"/>
    <tag k="addr:street" v="Mastin Road"/>
    <tag k="addr:state" v="VT"/>
    <tag k="ref:vcgi:esiteid" v="611235"/>
  </node>
  <node id="-834" visible="true" lat="44.63629283" lon="-72.33722985">
    <tag k="addr:housenumber" v="219"/>
    <tag k="addr:street" v="Whetstone Brook Road"/>
    <tag k="addr:state" v="VT"/>
    <tag k="ref:vcgi:esiteid" v="611237"/>
  </node>
  <node id="-835" visible="true" lat="44.64997742" lon="-72.37444241">
    <tag k="addr:housenumber" v="146"/>
    <tag k="addr:street" v="Pageant Hill"/>
    <tag k="addr:state" v="VT"/>
    <tag k="ref:vcgi:esiteid" v="611921"/>
  </node>
  <node id="-836" visible="true" lat="44.61430423" lon="-72.36055649">
    <tag k="addr:housenumber" v="37"/>
    <tag k="addr:street" v="Bees Lane"/>
    <tag k="addr:state" v="VT"/>
    <tag k="ref:vcgi:esiteid" v="612047"/>
  </node>
  <node id="-838" visible="true" lat="44.65264062" lon="-72.3858993">
    <tag k="addr:housenumber" v="169"/>
    <tag k="addr:street" v="Mountain Hill Road"/>
    <tag k="addr:state" v="VT"/>
    <tag k="ref:vcgi:esiteid" v="612354"/>
  </node>
  <node id="-839" visible="true" lat="44.62527523" lon="-72.38065561">
    <tag k="addr:housenumber" v="2011"/>
    <tag k="addr:street" v="Vermont Route 14"/>
    <tag k="addr:state" v="VT"/>
    <tag k="ref:vcgi:esiteid" v="612355"/>
  </node>
  <node id="-840" visible="true" lat="44.61225868" lon="-72.38530957">
    <tag k="addr:housenumber" v="949"/>
    <tag k="addr:street" v="Morey Hill Road"/>
    <tag k="addr:state" v="VT"/>
    <tag k="ref:vcgi:esiteid" v="612556"/>
  </node>
  <node id="-841" visible="true" lat="44.69585396" lon="-72.38656561">
    <tag k="addr:housenumber" v="2165"/>
    <tag k="addr:street" v="Wylie Hill Road"/>
    <tag k="addr:state" v="VT"/>
    <tag k="ref:vcgi:esiteid" v="612557"/>
  </node>
  <node id="-842" visible="true" lat="44.68142004" lon="-72.36173913">
    <tag k="addr:housenumber" v="54"/>
    <tag k="addr:street" v="Hilltop Cabin Drive"/>
    <tag k="addr:state" v="VT"/>
    <tag k="ref:vcgi:esiteid" v="615549"/>
  </node>
  <node id="-843" visible="true" lat="44.68160773" lon="-72.36159051">
    <tag k="addr:housenumber" v="69"/>
    <tag k="addr:street" v="Hilltop Cabin Drive"/>
    <tag k="addr:state" v="VT"/>
    <tag k="ref:vcgi:esiteid" v="615551"/>
  </node>
  <node id="-844" visible="true" lat="44.68176701" lon="-72.36158512">
    <tag k="addr:housenumber" v="77"/>
    <tag k="addr:street" v="Hilltop Cabin Drive"/>
    <tag k="addr:state" v="VT"/>
    <tag k="ref:vcgi:esiteid" v="615554"/>
  </node>
  <node id="-845" visible="true" lat="44.61812459" lon="-72.42047469">
    <tag k="addr:housenumber" v="1884"/>
    <tag k="addr:street" v="West Hill Road"/>
    <tag k="addr:state" v="VT"/>
    <tag k="ref:vcgi:esiteid" v="617341"/>
  </node>
  <node id="-846" visible="true" lat="44.60494919" lon="-72.38846329">
    <tag k="addr:housenumber" v="1598"/>
    <tag k="addr:street" v="Morey Hill Road"/>
    <tag k="addr:state" v="VT"/>
    <tag k="ref:vcgi:esiteid" v="617342"/>
  </node>
  <node id="-847" visible="true" lat="44.70613111" lon="-72.42314239">
    <tag k="addr:housenumber" v="3905"/>
    <tag k="addr:street" v="Coburn Hill Road"/>
    <tag k="addr:state" v="VT"/>
    <tag k="ref:vcgi:esiteid" v="618031"/>
  </node>
  <node id="-848" visible="true" lat="44.69135685" lon="-72.41655802">
    <tag k="addr:housenumber" v="2753"/>
    <tag k="addr:street" v="Coburn Hill Road"/>
    <tag k="addr:state" v="VT"/>
    <tag k="ref:vcgi:esiteid" v="618032"/>
  </node>
  <node id="-850" visible="true" lat="44.63537148" lon="-72.45753269">
    <tag k="addr:housenumber" v="2341"/>
    <tag k="addr:street" v="Hatch Brook Road"/>
    <tag k="addr:state" v="VT"/>
    <tag k="ref:vcgi:esiteid" v="655704"/>
  </node>
  <node id="-851" visible="true" lat="44.62689024" lon="-72.41604124">
    <tag k="addr:housenumber" v="564"/>
    <tag k="addr:street" v="Denton Hill Road"/>
    <tag k="addr:state" v="VT"/>
    <tag k="ref:vcgi:esiteid" v="655705"/>
  </node>
  <node id="-852" visible="true" lat="44.62325446" lon="-72.35987348">
    <tag k="addr:housenumber" v="1121"/>
    <tag k="addr:street" v="South Craftsbury Road"/>
    <tag k="addr:state" v="VT"/>
    <tag k="ref:vcgi:esiteid" v="655861"/>
  </node>
  <node id="-853" visible="true" lat="44.62827335" lon="-72.43305808">
    <tag k="addr:housenumber" v="2517"/>
    <tag k="addr:street" v="Wild Branch Road"/>
    <tag k="addr:state" v="VT"/>
    <tag k="ref:vcgi:esiteid" v="655960"/>
  </node>
  <node id="-854" visible="true" lat="44.66088505" lon="-72.33257392">
    <tag k="addr:housenumber" v="321"/>
    <tag k="addr:street" v="Twin Bridges Road"/>
    <tag k="addr:state" v="VT"/>
    <tag k="ref:vcgi:esiteid" v="700131"/>
  </node>
  <node id="-855" visible="true" lat="44.65808878" lon="-72.41029672">
    <tag k="addr:housenumber" v="316"/>
    <tag k="addr:street" v="Coburn Hill Road"/>
    <tag k="addr:state" v="VT"/>
    <tag k="ref:vcgi:esiteid" v="750163"/>
  </node>
  <node id="-856" visible="true" lat="44.68848986" lon="-72.41565215">
    <tag k="addr:housenumber" v="2255"/>
    <tag k="addr:street" v="Coburn Hill Road"/>
    <tag k="addr:state" v="VT"/>
    <tag k="ref:vcgi:esiteid" v="750164"/>
  </node>
  <node id="-857" visible="true" lat="44.67643162" lon="-72.3693499">
    <tag k="addr:housenumber" v="112"/>
    <tag k="addr:street" v="Lost Nation Road"/>
    <tag k="addr:state" v="VT"/>
    <tag k="ref:vcgi:esiteid" v="751767"/>
  </node>
  <node id="-858" visible="true" lat="44.66966574" lon="-72.41635038">
    <tag k="addr:housenumber" v="1025"/>
    <tag k="addr:street" v="Coburn Hill Road"/>
    <tag k="addr:state" v="VT"/>
    <tag k="ref:vcgi:esiteid" v="751789"/>
  </node>
  <node id="-859" visible="true" lat="44.69445158" lon="-72.40437403">
    <tag k="addr:housenumber" v="1331"/>
    <tag k="addr:street" v="Town Line Road"/>
    <tag k="addr:state" v="VT"/>
    <tag k="ref:vcgi:esiteid" v="752704"/>
  </node>
  <node id="-860" visible="true" lat="44.67407994" lon="-72.33925611">
    <tag k="addr:housenumber" v="303"/>
    <tag k="addr:street" v="Seaver Brook Road"/>
    <tag k="addr:state" v="VT"/>
    <tag k="ref:vcgi:esiteid" v="752719"/>
  </node>
  <node id="-861" visible="true" lat="44.69501152" lon="-72.40746581">
    <tag k="addr:housenumber" v="95"/>
    <tag k="addr:street" v="Reed Pond Road"/>
    <tag k="addr:state" v="VT"/>
    <tag k="ref:vcgi:esiteid" v="752741"/>
  </node>
  <node id="-862" visible="true" lat="44.6707399" lon="-72.43667639">
    <tag k="addr:housenumber" v="304"/>
    <tag k="addr:street" v="Eden Mountain Road"/>
    <tag k="addr:state" v="VT"/>
    <tag k="ref:vcgi:esiteid" v="752778"/>
  </node>
  <node id="-863" visible="true" lat="44.67291276" lon="-72.43266696">
    <tag k="addr:housenumber" v="1757"/>
    <tag k="addr:street" v="Collinsville Road"/>
    <tag k="addr:state" v="VT"/>
    <tag k="ref:vcgi:esiteid" v="752913"/>
  </node>
  <node id="-864" visible="true" lat="44.62952065" lon="-72.45713606">
    <tag k="addr:housenumber" v="654"/>
    <tag k="addr:street" v="Cochran Drive"/>
    <tag k="addr:state" v="VT"/>
    <tag k="ref:vcgi:esiteid" v="753243"/>
  </node>
  <node id="-865" visible="true" lat="44.62595844" lon="-72.46008066">
    <tag k="addr:housenumber" v="220"/>
    <tag k="addr:street" v="Willie Mills Road"/>
    <tag k="addr:state" v="VT"/>
    <tag k="ref:vcgi:esiteid" v="753253"/>
  </node>
  <node id="-866" visible="true" lat="44.63599101" lon="-72.37893926">
    <tag k="addr:housenumber" v="201"/>
    <tag k="addr:street" v="Black River Road"/>
    <tag k="addr:state" v="VT"/>
    <tag k="ref:vcgi:esiteid" v="754273"/>
  </node>
  <node id="-867" visible="true" lat="44.65405689" lon="-72.38741036">
    <tag k="addr:housenumber" v="251"/>
    <tag k="addr:street" v="Mountain Hill Road"/>
    <tag k="addr:state" v="VT"/>
    <tag k="ref:vcgi:esiteid" v="754274"/>
  </node>
  <node id="-868" visible="true" lat="44.65498255" lon="-72.37318566">
    <tag k="addr:housenumber" v="935"/>
    <tag k="addr:street" v="King Farm Road"/>
    <tag k="addr:state" v="VT"/>
    <tag k="ref:vcgi:esiteid" v="754550"/>
  </node>
  <node id="-869" visible="true" lat="44.65467785" lon="-72.37218558">
    <tag k="addr:housenumber" v="912"/>
    <tag k="addr:street" v="King Farm Road"/>
    <tag k="addr:state" v="VT"/>
    <tag k="ref:vcgi:esiteid" v="754551"/>
  </node>
  <node id="-872" visible="true" lat="44.62354604" lon="-72.38831945">
    <tag k="addr:housenumber" v="199"/>
    <tag k="addr:street" v="West Hill Road"/>
    <tag k="addr:state" v="VT"/>
    <tag k="ref:vcgi:esiteid" v="754619"/>
  </node>
  <node id="-873" visible="true" lat="44.68670594" lon="-72.3659786">
    <tag k="addr:housenumber" v="246"/>
    <tag k="addr:street" v="Summer Meadows"/>
    <tag k="addr:state" v="VT"/>
    <tag k="ref:vcgi:esiteid" v="755404"/>
  </node>
  <node id="-874" visible="true" lat="44.68453121" lon="-72.36646608">
    <tag k="addr:housenumber" v="79"/>
    <tag k="addr:street" v="Summer Meadows Extension"/>
    <tag k="addr:state" v="VT"/>
    <tag k="ref:vcgi:esiteid" v="755405"/>
  </node>
  <node id="-875" visible="true" lat="44.6546036" lon="-72.3356035">
    <tag k="addr:housenumber" v="1071"/>
    <tag k="addr:street" v="South Albany Road"/>
    <tag k="addr:state" v="VT"/>
    <tag k="ref:vcgi:esiteid" v="756362"/>
  </node>
  <node id="-876" visible="true" lat="44.67192479" lon="-72.43992379">
    <tag k="addr:housenumber" v="492"/>
    <tag k="addr:street" v="Eden Mountain Road"/>
    <tag k="addr:state" v="VT"/>
    <tag k="ref:vcgi:esiteid" v="757094"/>
  </node>
  <node id="-877" visible="true" lat="44.69073749" lon="-72.41653508">
    <tag k="addr:housenumber" v="2723"/>
    <tag k="addr:street" v="Coburn Hill Road"/>
    <tag k="addr:state" v="VT"/>
    <tag k="ref:vcgi:esiteid" v="758629"/>
  </node>
  <node id="-878" visible="true" lat="44.70700757" lon="-72.42349796">
    <tag k="addr:housenumber" v="3952"/>
    <tag k="addr:street" v="Coburn Hill Road"/>
    <tag k="addr:state" v="VT"/>
    <tag k="ref:vcgi:esiteid" v="758630"/>
  </node>
  <node id="-879" visible="true" lat="44.7082343" lon="-72.42203141">
    <tag k="addr:housenumber" v="4066"/>
    <tag k="addr:street" v="Coburn Hill Road"/>
    <tag k="addr:state" v="VT"/>
    <tag k="ref:vcgi:esiteid" v="758631"/>
  </node>
  <node id="-880" visible="true" lat="44.70860068" lon="-72.42247332">
    <tag k="addr:housenumber" v="4090"/>
    <tag k="addr:street" v="Coburn Hill Road"/>
    <tag k="addr:state" v="VT"/>
    <tag k="ref:vcgi:esiteid" v="758632"/>
  </node>
  <node id="-881" visible="true" lat="44.68660084" lon="-72.36916786">
    <tag k="addr:housenumber" v="114"/>
    <tag k="addr:street" v="Summer Meadows"/>
    <tag k="addr:state" v="VT"/>
    <tag k="ref:vcgi:esiteid" v="758916"/>
  </node>
  <node id="-882" visible="true" lat="44.67044589" lon="-72.31206332">
    <tag k="addr:housenumber" v="3253"/>
    <tag k="addr:street" v="Andersonville Road"/>
    <tag k="addr:state" v="VT"/>
    <tag k="ref:vcgi:esiteid" v="760143"/>
  </node>
  <node id="-883" visible="true" lat="44.63018177" lon="-72.46314945">
    <tag k="addr:housenumber" v="191"/>
    <tag k="addr:street" v="Easy Street"/>
    <tag k="addr:state" v="VT"/>
    <tag k="ref:vcgi:esiteid" v="761067"/>
  </node>
  <node id="-884" visible="true" lat="44.64138321" lon="-72.37771002">
    <tag k="addr:housenumber" v="570"/>
    <tag k="addr:street" v="North Craftsbury Road"/>
    <tag k="addr:state" v="VT"/>
    <tag k="ref:vcgi:esiteid" v="762394"/>
  </node>
  <node id="-885" visible="true" lat="44.67116855" lon="-72.31190568">
    <tag k="addr:housenumber" v="3238"/>
    <tag k="addr:street" v="Andersonville Road"/>
    <tag k="addr:state" v="VT"/>
    <tag k="ref:vcgi:esiteid" v="762693"/>
  </node>
  <node id="-886" visible="true" lat="44.67164279" lon="-72.31449426">
    <tag k="addr:housenumber" v="2667"/>
    <tag k="addr:street" v="South Albany Road"/>
    <tag k="addr:state" v="VT"/>
    <tag k="ref:vcgi:esiteid" v="762694"/>
  </node>
  <node id="-887" visible="true" lat="44.70771354" lon="-72.40529352">
    <tag k="addr:housenumber" v="420"/>
    <tag k="addr:street" v="Martin Road"/>
    <tag k="addr:state" v="VT"/>
    <tag k="ref:vcgi:esiteid" v="762695"/>
  </node>
  <node id="-888" visible="true" lat="44.67018686" lon="-72.40548642">
    <tag k="addr:housenumber" v="5597"/>
    <tag k="addr:street" v="Vermont Route 14"/>
    <tag k="addr:state" v="VT"/>
    <tag k="ref:vcgi:esiteid" v="763396"/>
  </node>
  <node id="-889" visible="true" lat="44.68585314" lon="-72.36724248">
    <tag k="addr:housenumber" v="77"/>
    <tag k="addr:street" v="Summer Meadows Extension"/>
    <tag k="addr:state" v="VT"/>
    <tag k="ref:vcgi:esiteid" v="763414"/>
  </node>
  <node id="-890" visible="true" lat="44.68426856" lon="-72.36716311">
    <tag k="addr:housenumber" v="137"/>
    <tag k="addr:street" v="Summer Meadows Extension"/>
    <tag k="addr:state" v="VT"/>
    <tag k="ref:vcgi:esiteid" v="763415"/>
  </node>
  <node id="-891" visible="true" lat="44.68356419" lon="-72.36751849">
    <tag k="addr:housenumber" v="219"/>
    <tag k="addr:street" v="Summer Meadows Extension"/>
    <tag k="addr:state" v="VT"/>
    <tag k="ref:vcgi:esiteid" v="763416"/>
  </node>
  <node id="-892" visible="true" lat="44.63667165" lon="-72.37250176">
    <tag k="addr:housenumber" v="10"/>
    <tag k="addr:street" v="Town Garage Road"/>
    <tag k="addr:state" v="VT"/>
    <tag k="ref:vcgi:esiteid" v="763758"/>
  </node>
  <node id="-893" visible="true" lat="44.63179323" lon="-72.36744563">
    <tag k="addr:housenumber" v="429"/>
    <tag k="addr:street" v="South Craftsbury Road"/>
    <tag k="addr:state" v="VT"/>
    <tag k="ref:vcgi:esiteid" v="763818"/>
  </node>
  <node id="-894" visible="true" lat="44.68403367" lon="-72.37250134">
    <tag k="addr:housenumber" v="1705"/>
    <tag k="addr:street" v="Mill Village Road"/>
    <tag k="addr:state" v="VT"/>
    <tag k="ref:vcgi:esiteid" v="764079"/>
  </node>
  <node id="-895" visible="true" lat="44.67232269" lon="-72.37153858">
    <tag k="addr:housenumber" v="930"/>
    <tag k="addr:street" v="Mill Village Road"/>
    <tag k="addr:state" v="VT"/>
    <tag k="ref:vcgi:esiteid" v="764090"/>
  </node>
  <node id="-898" visible="true" lat="44.62972006" lon="-72.38083008">
    <tag k="addr:housenumber" v="565"/>
    <tag k="addr:street" v="Cemetery Road"/>
    <tag k="addr:state" v="VT"/>
    <tag k="ref:vcgi:esiteid" v="764687"/>
  </node>
  <node id="-899" visible="true" lat="44.616778" lon="-72.36540371">
    <tag k="addr:housenumber" v="863"/>
    <tag k="addr:street" v="Vermont Route 14"/>
    <tag k="addr:state" v="VT"/>
    <tag k="ref:vcgi:esiteid" v="766426"/>
  </node>
  <node id="-900" visible="true" lat="44.65711319" lon="-72.38300472">
    <tag k="addr:housenumber" v="1631"/>
    <tag k="addr:street" v="North Craftsbury Road"/>
    <tag k="addr:state" v="VT"/>
    <tag k="ref:vcgi:esiteid" v="766494"/>
  </node>
  <node id="-901" visible="true" lat="44.69145563" lon="-72.40514495">
    <tag k="addr:housenumber" v="1536"/>
    <tag k="addr:street" v="Town Line Road"/>
    <tag k="addr:state" v="VT"/>
    <tag k="ref:vcgi:esiteid" v="766722"/>
  </node>
  <node id="-902" visible="true" lat="44.61781342" lon="-72.40746854">
    <tag k="addr:housenumber" v="1313"/>
    <tag k="addr:street" v="West Hill Road"/>
    <tag k="addr:state" v="VT"/>
    <tag k="ref:vcgi:esiteid" v="766968"/>
  </node>
  <node id="-903" visible="true" lat="44.67633484" lon="-72.41855145">
    <tag k="addr:housenumber" v="1413"/>
    <tag k="addr:street" v="Coburn Hill Road"/>
    <tag k="addr:state" v="VT"/>
    <tag k="ref:vcgi:esiteid" v="767192"/>
  </node>
  <node id="-904" visible="true" lat="44.69613539" lon="-72.41679589">
    <tag k="addr:housenumber" v="2901"/>
    <tag k="addr:street" v="Coburn Hill Road"/>
    <tag k="addr:state" v="VT"/>
    <tag k="ref:vcgi:esiteid" v="767193"/>
  </node>
  <node id="-905" visible="true" lat="44.61461061" lon="-72.40883972">
    <tag k="addr:housenumber" v="299"/>
    <tag k="addr:street" v="West Hill Drive"/>
    <tag k="addr:state" v="VT"/>
    <tag k="ref:vcgi:esiteid" v="767480"/>
  </node>
  <node id="-906" visible="true" lat="44.65107167" lon="-72.38253544">
    <tag k="addr:housenumber" v="43"/>
    <tag k="addr:street" v="Sterling Farm Road"/>
    <tag k="addr:state" v="VT"/>
    <tag k="ref:vcgi:esiteid" v="767961"/>
  </node>
  <node id="-907" visible="true" lat="44.65135366" lon="-72.38203035">
    <tag k="addr:housenumber" v="14"/>
    <tag k="addr:street" v="Sterling Farm Road"/>
    <tag k="addr:state" v="VT"/>
    <tag k="ref:vcgi:esiteid" v="767962"/>
  </node>
  <node id="-908" visible="true" lat="44.6511289" lon="-72.38343593">
    <tag k="addr:housenumber" v="80"/>
    <tag k="addr:street" v="Sterling Farm Road"/>
    <tag k="addr:state" v="VT"/>
    <tag k="ref:vcgi:esiteid" v="767963"/>
  </node>
  <node id="-909" visible="true" lat="44.63271289" lon="-72.3704649">
    <tag k="addr:housenumber" v="41"/>
    <tag k="addr:street" v="Petes Greens Road"/>
    <tag k="addr:state" v="VT"/>
    <tag k="ref:vcgi:esiteid" v="768189"/>
  </node>
  <node id="-910" visible="true" lat="44.63266521" lon="-72.37041165">
    <tag k="addr:housenumber" v="43"/>
    <tag k="addr:street" v="Petes Greens Road"/>
    <tag k="addr:state" v="VT"/>
    <tag k="ref:vcgi:esiteid" v="768190"/>
  </node>
  <node id="-911" visible="true" lat="44.63260321" lon="-72.37033176">
    <tag k="addr:housenumber" v="45"/>
    <tag k="addr:street" v="Petes Greens Road"/>
    <tag k="addr:state" v="VT"/>
    <tag k="ref:vcgi:esiteid" v="768191"/>
  </node>
  <node id="-912" visible="true" lat="44.69601637" lon="-72.41617853">
    <tag k="addr:housenumber" v="2900"/>
    <tag k="addr:street" v="Coburn Hill Road"/>
    <tag k="addr:state" v="VT"/>
    <tag k="ref:vcgi:esiteid" v="768482"/>
  </node>
  <node id="-913" visible="true" lat="44.63252799" lon="-72.37027153">
    <tag k="addr:housenumber" v="15"/>
    <tag k="addr:street" v="Petes Greens Road"/>
    <tag k="addr:state" v="VT"/>
    <tag k="ref:vcgi:esiteid" v="768678"/>
  </node>
  <node id="-914" visible="true" lat="44.63236728" lon="-72.37028023">
    <tag k="addr:housenumber" v="17"/>
    <tag k="addr:street" v="Petes Greens Road"/>
    <tag k="addr:state" v="VT"/>
    <tag k="ref:vcgi:esiteid" v="768679"/>
  </node>
  <node id="-918" visible="true" lat="44.64063483" lon="-72.37021871">
    <tag k="addr:housenumber" v="347"/>
    <tag k="addr:street" v="Creek Road"/>
    <tag k="addr:state" v="VT"/>
    <tag k="ref:vcgi:esiteid" v="768978"/>
  </node>
  <node id="-919" visible="true" lat="44.65405253" lon="-72.38717335">
    <tag k="addr:housenumber" v="249"/>
    <tag k="addr:street" v="Mountain Hill Road"/>
    <tag k="addr:state" v="VT"/>
    <tag k="ref:vcgi:esiteid" v="769375"/>
  </node>
  <node id="-920" visible="true" lat="44.68099618" lon="-72.36475952">
    <tag k="addr:housenumber" v="71"/>
    <tag k="addr:street" v="East Shore Drive"/>
    <tag k="addr:state" v="VT"/>
    <tag k="ref:vcgi:esiteid" v="769494"/>
  </node>
  <node id="-921" visible="true" lat="44.61908687" lon="-72.384762">
    <tag k="addr:housenumber" v="54"/>
    <tag k="addr:street" v="Wells Place"/>
    <tag k="addr:state" v="VT"/>
    <tag k="ref:vcgi:esiteid" v="770905"/>
  </node>
  <node id="-922" visible="true" lat="44.6863585" lon="-72.37227024">
    <tag k="addr:housenumber" v="1875"/>
    <tag k="addr:street" v="Mill Village Road"/>
    <tag k="addr:state" v="VT"/>
    <tag k="ref:vcgi:esiteid" v="770906"/>
  </node>
  <node id="-923" visible="true" lat="44.6294204" lon="-72.4524376">
    <tag k="addr:housenumber" v="288"/>
    <tag k="addr:street" v="Cochran Drive"/>
    <tag k="addr:state" v="VT"/>
    <tag k="ref:vcgi:esiteid" v="770907"/>
  </node>
  <node id="-924" visible="true" lat="44.62635669" lon="-72.45621784">
    <tag k="addr:housenumber" v="459"/>
    <tag k="addr:street" v="Cochran Drive"/>
    <tag k="addr:state" v="VT"/>
    <tag k="ref:vcgi:esiteid" v="770908"/>
  </node>
  <node id="-925" visible="true" lat="44.61622954" lon="-72.3847995">
    <tag k="addr:housenumber" v="645"/>
    <tag k="addr:street" v="Morey Hill Road"/>
    <tag k="addr:state" v="VT"/>
    <tag k="ref:vcgi:esiteid" v="770933"/>
  </node>
  <node id="-926" visible="true" lat="44.61337648" lon="-72.38728067">
    <tag k="addr:housenumber" v="876"/>
    <tag k="addr:street" v="Morey Hill Road"/>
    <tag k="addr:state" v="VT"/>
    <tag k="ref:vcgi:esiteid" v="770979"/>
  </node>
  <node id="-927" visible="true" lat="44.63365169" lon="-72.37086572">
    <tag k="addr:housenumber" v="192"/>
    <tag k="addr:street" v="South Craftsbury Road"/>
    <tag k="addr:state" v="VT"/>
    <tag k="ref:vcgi:esiteid" v="900031"/>
  </node>
  <node id="-928" visible="true" lat="44.64958021" lon="-72.37097951">
    <tag k="addr:housenumber" v="555"/>
    <tag k="addr:street" v="King Farm Road"/>
    <tag k="addr:state" v="VT"/>
    <tag k="ref:vcgi:esiteid" v="1051014"/>
  </node>
  <node id="-929" visible="true" lat="44.61310286" lon="-72.38528942">
    <tag k="addr:housenumber" v="895"/>
    <tag k="addr:street" v="Morey Hill Road"/>
    <tag k="addr:state" v="VT"/>
    <tag k="ref:vcgi:esiteid" v="1051177"/>
  </node>
  <node id="-930" visible="true" lat="44.62515369" lon="-72.36166662">
    <tag k="addr:housenumber" v="925"/>
    <tag k="addr:street" v="South Craftsbury Road"/>
    <tag k="addr:state" v="VT"/>
    <tag k="ref:vcgi:esiteid" v="1051188"/>
  </node>
  <node id="-932" visible="true" lat="44.6364726" lon="-72.41724517">
    <tag k="addr:housenumber" v="120"/>
    <tag k="addr:street" v="Willow Drive"/>
    <tag k="addr:state" v="VT"/>
    <tag k="ref:vcgi:esiteid" v="1051852"/>
  </node>
  <node id="-933" visible="true" lat="44.63717888" lon="-72.41442625">
    <tag k="addr:housenumber" v="281"/>
    <tag k="addr:street" v="Willow Drive"/>
    <tag k="addr:state" v="VT"/>
    <tag k="ref:vcgi:esiteid" v="1051853"/>
  </node>
</osm>
