<?xml version="1.0" encoding="UTF-8"?>
<osm version="0.6" generator="JOSM">
  <node id="-129" visible="true" lat="44.49947557" lon="-72.09269204">
    <!-- offset: "1404 Wheelock Road, Danville, VT" Significant offset - 246.3m -->
    <tag k="addr:city" v="Danville"/>
    <tag k="addr:housenumber" v="1404"/>
    <tag k="addr:street" v="Wheelock Road"/>
    <tag k="addr:state" v="VT"/>
    <tag k="ref:vcgi:esiteid" v="80325"/>
  </node>
  <node id="-792" visible="true" lat="44.41082763" lon="-72.14350128">
    <!-- offset: "148 Peacham Road, Danville, VT" Significant offset - 116m -->
    <tag k="addr:city" v="Danville"/>
    <tag k="addr:housenumber" v="148"/>
    <tag k="addr:street" v="Peacham Road"/>
    <tag k="addr:state" v="VT"/>
    <tag k="ref:vcgi:esiteid" v="81009"/>
  </node>
  <node id="-1234" visible="true" lat="44.42205621" lon="-72.11505943">
    <!-- offset: "24 Old Stagecoach Road, Danville, VT" Significant offset - 165.8m -->
    <tag k="addr:city" v="Danville"/>
    <tag k="addr:housenumber" v="24"/>
    <tag k="addr:street" v="Old Stagecoach Road"/>
    <tag k="addr:state" v="VT"/>
    <tag k="ref:vcgi:esiteid" v="81462"/>
  </node>
</osm>
