<?xml version="1.0" encoding="UTF-8"?>
<osm version="0.6" generator="JOSM">
  <node id="-233" visible="true" lat="45.00414506" lon="-72.09129179">
    <tag k="addr:city" v="Derby"/>
    <tag k="addr:housenumber" v="72"/>
    <tag k="addr:street" v="Maple Street"/>
    <tag k="addr:state" v="VT"/>
    <tag k="ref:vcgi:esiteid" v="81855"/>
  </node>
  <node id="-747" visible="true" lat="44.97999191" lon="-72.05856323">
    <tag k="addr:city" v="Derby"/>
    <tag k="addr:housenumber" v="813"/>
    <tag k="addr:street" v="Whittier Road"/>
    <tag k="addr:state" v="VT"/>
    <tag k="ref:vcgi:esiteid" v="82405"/>
  </node>
  <node id="-1021" visible="true" lat="44.95869064" lon="-72.12206268">
    <tag k="addr:city" v="Derby"/>
    <tag k="addr:housenumber" v="254"/>
    <tag k="addr:street" v="Nelson Hill Road"/>
    <tag k="addr:state" v="VT"/>
    <tag k="ref:vcgi:esiteid" v="82692"/>
  </node>
  <node id="-1242" visible="true" lat="44.95135774" lon="-72.1564377">
    <tag k="addr:city" v="Derby"/>
    <tag k="addr:housenumber" v="4397"/>
    <tag k="addr:street" v="U.S. Route 5"/>
    <tag k="addr:state" v="VT"/>
    <tag k="ref:vcgi:esiteid" v="82949"/>
  </node>
  <node id="-1637" visible="true" lat="44.92879819" lon="-72.09488432">
    <tag k="addr:city" v="Derby"/>
    <tag k="addr:housenumber" v="677"/>
    <tag k="addr:street" v="East Salem Drive"/>
    <tag k="addr:state" v="VT"/>
    <tag k="ref:vcgi:esiteid" v="83379"/>
  </node>
  <node id="-2396" visible="true" lat="44.93047004" lon="-72.09421542">
    <tag k="addr:city" v="Derby"/>
    <tag k="addr:housenumber" v="152"/>
    <tag k="addr:street" v="Dumas Drive"/>
    <tag k="addr:state" v="VT"/>
    <tag k="ref:vcgi:esiteid" v="84159"/>
  </node>
  <node id="-2518" visible="true" lat="44.93075678" lon="-72.09415913">
    <tag k="addr:city" v="Derby"/>
    <tag k="addr:housenumber" v="104"/>
    <tag k="addr:street" v="Dumas Drive"/>
    <tag k="addr:state" v="VT"/>
    <tag k="ref:vcgi:esiteid" v="337408"/>
  </node>
  <node id="-2628" visible="true" lat="44.95491286" lon="-72.15624912">
    <tag k="addr:city" v="Derby"/>
    <tag k="addr:housenumber" v="212"/>
    <tag k="addr:street" v="Commerce Way"/>
    <tag k="addr:state" v="VT"/>
    <tag k="ref:vcgi:esiteid" v="610559"/>
  </node>
  <node id="-2797" visible="true" lat="45.00464474" lon="-72.10256555">
    <tag k="addr:city" v="Derby"/>
    <tag k="addr:housenumber" v="110"/>
    <tag k="addr:street" v="Baxter Avenue"/>
    <tag k="addr:state" v="VT"/>
    <tag k="ref:vcgi:esiteid" v="757177"/>
  </node>
</osm>
