<?xml version="1.0" encoding="UTF-8"?>
<osm version="0.6" generator="JOSM" upload="false">
  <node id="-189" visible="true" lat="42.9285882" lon="-72.89064595">
    <!-- conflict: "25 Hermitage Drive, , VT" Fuzzy match to "25 Hermitage Road, Dover, VT" -->
    <tag k="addr:housenumber" v="25"/>
    <tag k="addr:street" v="Hermitage Drive"/>
    <tag k="addr:state" v="VT"/>
    <tag k="ref:vcgi:esiteid" v="85727"/>
  </node>
  <node id="-305" visible="true" lat="42.94251581" lon="-72.86732238">
    <!-- conflict: "27B Country Club Road, , VT" No match in OSM, but a different address exists <5m away: "27 Country Club Road, Dover, VT" -->
    <tag k="addr:housenumber" v="27B"/>
    <tag k="addr:street" v="Country Club Road"/>
    <tag k="addr:state" v="VT"/>
    <tag k="ref:vcgi:esiteid" v="85849"/>
  </node>
  <node id="-551" visible="true" lat="42.94985176" lon="-72.87022958">
    <!-- conflict: "1A Forest Lane, , VT" No match in OSM, but a different address exists <5m away: "1 Forest Lane, Dover, VT" -->
    <tag k="addr:housenumber" v="1A"/>
    <tag k="addr:street" v="Forest Lane"/>
    <tag k="addr:state" v="VT"/>
    <tag k="ref:vcgi:esiteid" v="86138"/>
  </node>
  <node id="-686" visible="true" lat="42.95932034" lon="-72.88935425">
    <!-- conflict: "4 Carinthia Road, , VT" Fuzzy match to "4 Carinthia Lane, Dover, VT" -->
    <tag k="addr:housenumber" v="4"/>
    <tag k="addr:street" v="Carinthia Road"/>
    <tag k="addr:state" v="VT"/>
    <tag k="ref:vcgi:esiteid" v="86279"/>
  </node>
  <node id="-797" visible="true" lat="42.96331233" lon="-72.8909687">
    <!-- conflict: "4 Sports Center Village Way, , VT" Fuzzy match to "4 Sportscenter Village Way, Dover, VT" -->
    <tag k="addr:housenumber" v="4"/>
    <tag k="addr:street" v="Sports Center Village Way"/>
    <tag k="addr:state" v="VT"/>
    <tag k="ref:vcgi:esiteid" v="86390"/>
  </node>
  <node id="-799" visible="true" lat="42.96376044" lon="-72.89107597">
    <!-- conflict: "8 Sports Center Village Way, , VT" Fuzzy match to "8 Sportscenter Village Way, Dover, VT" -->
    <tag k="addr:housenumber" v="8"/>
    <tag k="addr:street" v="Sports Center Village Way"/>
    <tag k="addr:state" v="VT"/>
    <tag k="ref:vcgi:esiteid" v="86393"/>
  </node>
  <node id="-800" visible="true" lat="42.96338389" lon="-72.89152955">
    <!-- conflict: "5 Sports Center Village Way, , VT" Fuzzy match to "5 Sportscenter Village Way, Dover, VT" -->
    <tag k="addr:housenumber" v="5"/>
    <tag k="addr:street" v="Sports Center Village Way"/>
    <tag k="addr:state" v="VT"/>
    <tag k="ref:vcgi:esiteid" v="86400"/>
  </node>
  <node id="-880" visible="true" lat="42.97779474" lon="-72.8951128">
    <!-- conflict: "9 Bartlett Lane Extension, , VT" Fuzzy match to "9 Bartlett Ln Extension, Dover, VT" -->
    <tag k="addr:housenumber" v="9"/>
    <tag k="addr:street" v="Bartlett Lane Extension"/>
    <tag k="addr:state" v="VT"/>
    <tag k="ref:vcgi:esiteid" v="86529"/>
  </node>
  <node id="-881" visible="true" lat="42.97722906" lon="-72.89504689">
    <!-- conflict: "7 Bartlett Lane Extension, , VT" Fuzzy match to "7 Bartlett Lane, Dover, VT" -->
    <tag k="addr:housenumber" v="7"/>
    <tag k="addr:street" v="Bartlett Lane Extension"/>
    <tag k="addr:state" v="VT"/>
    <tag k="ref:vcgi:esiteid" v="86530"/>
  </node>
  <node id="-994" visible="true" lat="42.97646332" lon="-72.88408844">
    <!-- conflict: "7 Black pne, , VT" No match in OSM, but a different address exists <5m away: "7 Black Pine, Dover, VT" -->
    <tag k="addr:housenumber" v="7"/>
    <tag k="addr:street" v="Black pne"/>
    <tag k="addr:state" v="VT"/>
    <tag k="ref:vcgi:esiteid" v="86681"/>
  </node>
  <node id="-1719" visible="true" lat="42.97640342" lon="-72.89515379">
    <!-- conflict: "5 Bartlett Lane Extension, , VT" No match in OSM, but a different address exists <5m away: "5 Bartlet Lane Extension, Dover, VT" -->
    <tag k="addr:housenumber" v="5"/>
    <tag k="addr:street" v="Bartlett Lane Extension"/>
    <tag k="addr:state" v="VT"/>
    <tag k="ref:vcgi:esiteid" v="87455"/>
  </node>
  <node id="-2151" visible="true" lat="42.95889063" lon="-72.88914706">
    <!-- conflict: "2 Carinthia Road, , VT" Fuzzy match to "2 Carinthia Lane, Dover, VT" -->
    <tag k="addr:housenumber" v="2"/>
    <tag k="addr:street" v="Carinthia Road"/>
    <tag k="addr:state" v="VT"/>
    <tag k="ref:vcgi:esiteid" v="88649"/>
  </node>
  <node id="-2162" visible="true" lat="42.97578359" lon="-72.88392627">
    <!-- conflict: "3 Black pne, , VT" No match in OSM, but a different address exists <5m away: "3 Black Pine, Dover, VT" -->
    <tag k="addr:housenumber" v="3"/>
    <tag k="addr:street" v="Black pne"/>
    <tag k="addr:state" v="VT"/>
    <tag k="ref:vcgi:esiteid" v="88821"/>
  </node>
  <node id="-2692" visible="true" lat="42.92974622" lon="-72.89084974">
    <!-- conflict: "21 Hermitage Drive, , VT" Fuzzy match to "21 Hermitage Road, Dover, VT" -->
    <tag k="addr:housenumber" v="21"/>
    <tag k="addr:street" v="Hermitage Drive"/>
    <tag k="addr:state" v="VT"/>
    <tag k="ref:vcgi:esiteid" v="1050133"/>
  </node>
</osm>
