<?xml version="1.0" encoding="UTF-8"?>
<osm version="0.6" generator="JOSM">
  <node id="-101" visible="true" lat="42.99113273" lon="-72.88739111">
    <tag k="addr:city" v="Dover"/>
    <tag k="addr:housenumber" v="16"/>
    <tag k="addr:street" v="Nutmeg Lane"/>
    <tag k="addr:state" v="VT"/>
    <tag k="ref:vcgi:esiteid" v="85639"/>
  </node>
  <node id="-103" visible="true" lat="42.97437593" lon="-72.89896502">
    <tag k="addr:city" v="Dover"/>
    <tag k="addr:housenumber" v="34"/>
    <tag k="addr:street" v="Snow Vidda Loop"/>
    <tag k="addr:state" v="VT"/>
    <tag k="ref:vcgi:esiteid" v="85641"/>
  </node>
  <node id="-104" visible="true" lat="42.97440822" lon="-72.89954128">
    <tag k="addr:city" v="Dover"/>
    <tag k="addr:housenumber" v="36"/>
    <tag k="addr:street" v="Snow Vidda Loop"/>
    <tag k="addr:state" v="VT"/>
    <tag k="ref:vcgi:esiteid" v="85642"/>
  </node>
  <node id="-105" visible="true" lat="42.97431478" lon="-72.90010895">
    <tag k="addr:city" v="Dover"/>
    <tag k="addr:housenumber" v="38"/>
    <tag k="addr:street" v="Snow Vidda Loop"/>
    <tag k="addr:state" v="VT"/>
    <tag k="ref:vcgi:esiteid" v="85643"/>
  </node>
  <node id="-106" visible="true" lat="42.97444948" lon="-72.90081822">
    <tag k="addr:city" v="Dover"/>
    <tag k="addr:housenumber" v="40"/>
    <tag k="addr:street" v="Snow Vidda Loop"/>
    <tag k="addr:state" v="VT"/>
    <tag k="ref:vcgi:esiteid" v="85644"/>
  </node>
  <node id="-107" visible="true" lat="42.97398626" lon="-72.90087748">
    <tag k="addr:city" v="Dover"/>
    <tag k="addr:housenumber" v="42"/>
    <tag k="addr:street" v="Snow Vidda Loop"/>
    <tag k="addr:state" v="VT"/>
    <tag k="ref:vcgi:esiteid" v="85645"/>
  </node>
  <node id="-108" visible="true" lat="42.97362604" lon="-72.90090628">
    <tag k="addr:city" v="Dover"/>
    <tag k="addr:housenumber" v="44"/>
    <tag k="addr:street" v="Snow Vidda Loop"/>
    <tag k="addr:state" v="VT"/>
    <tag k="ref:vcgi:esiteid" v="85646"/>
  </node>
  <node id="-109" visible="true" lat="42.97309592" lon="-72.90048248">
    <tag k="addr:city" v="Dover"/>
    <tag k="addr:housenumber" v="48"/>
    <tag k="addr:street" v="Snow Vidda Loop"/>
    <tag k="addr:state" v="VT"/>
    <tag k="ref:vcgi:esiteid" v="85647"/>
  </node>
  <node id="-110" visible="true" lat="42.97253346" lon="-72.89949801">
    <tag k="addr:city" v="Dover"/>
    <tag k="addr:housenumber" v="54"/>
    <tag k="addr:street" v="Snow Vidda Loop"/>
    <tag k="addr:state" v="VT"/>
    <tag k="ref:vcgi:esiteid" v="85648"/>
  </node>
  <node id="-111" visible="true" lat="42.97218135" lon="-72.89884185">
    <tag k="addr:city" v="Dover"/>
    <tag k="addr:housenumber" v="58"/>
    <tag k="addr:street" v="Snow Vidda Loop"/>
    <tag k="addr:state" v="VT"/>
    <tag k="ref:vcgi:esiteid" v="85649"/>
  </node>
  <node id="-112" visible="true" lat="42.97216754" lon="-72.90104533">
    <tag k="addr:city" v="Dover"/>
    <tag k="addr:housenumber" v="2"/>
    <tag k="addr:street" v="Slalom Lane"/>
    <tag k="addr:state" v="VT"/>
    <tag k="ref:vcgi:esiteid" v="85650"/>
  </node>
  <node id="-123" visible="true" lat="42.96015494" lon="-72.92029519">
    <tag k="addr:city" v="Dover"/>
    <tag k="addr:housenumber" v="254"/>
    <tag k="addr:street" v="Summit Work Road"/>
    <tag k="addr:state" v="VT"/>
    <tag k="ref:vcgi:esiteid" v="85661"/>
  </node>
  <node id="-130" visible="true" lat="42.93528544" lon="-72.88965197">
    <tag k="addr:city" v="Dover"/>
    <tag k="addr:housenumber" v="75"/>
    <tag k="addr:street" v="Handle Road"/>
    <tag k="addr:state" v="VT"/>
    <tag k="ref:vcgi:esiteid" v="85668"/>
  </node>
  <node id="-131" visible="true" lat="42.93551464" lon="-72.8889312">
    <tag k="addr:city" v="Dover"/>
    <tag k="addr:housenumber" v="76"/>
    <tag k="addr:street" v="Handle Road"/>
    <tag k="addr:state" v="VT"/>
    <tag k="ref:vcgi:esiteid" v="85669"/>
  </node>
  <node id="-133" visible="true" lat="42.93767215" lon="-72.88987837">
    <tag k="addr:city" v="Dover"/>
    <tag k="addr:housenumber" v="93"/>
    <tag k="addr:street" v="Handle Road"/>
    <tag k="addr:state" v="VT"/>
    <tag k="ref:vcgi:esiteid" v="85671"/>
  </node>
  <node id="-134" visible="true" lat="42.93238023" lon="-72.88949492">
    <tag k="addr:city" v="Dover"/>
    <tag k="addr:housenumber" v="56"/>
    <tag k="addr:street" v="Handle Road"/>
    <tag k="addr:state" v="VT"/>
    <tag k="ref:vcgi:esiteid" v="85672"/>
  </node>
  <node id="-190" visible="true" lat="42.92751331" lon="-72.88903676">
    <tag k="addr:city" v="Dover"/>
    <tag k="addr:housenumber" v="5"/>
    <tag k="addr:street" v="Carriage House Drive"/>
    <tag k="addr:state" v="VT"/>
    <tag k="ref:vcgi:esiteid" v="85728"/>
  </node>
  <node id="-253" visible="true" lat="42.93686048" lon="-72.86749688">
    <tag k="addr:city" v="Dover"/>
    <tag k="addr:housenumber" v="95"/>
    <tag k="addr:street" v="Crosstown Road"/>
    <tag k="addr:state" v="VT"/>
    <tag k="ref:vcgi:esiteid" v="85791"/>
  </node>
  <node id="-254" visible="true" lat="42.93761686" lon="-72.86914488">
    <tag k="addr:city" v="Dover"/>
    <tag k="addr:housenumber" v="79"/>
    <tag k="addr:street" v="Country Club Road"/>
    <tag k="addr:state" v="VT"/>
    <tag k="ref:vcgi:esiteid" v="85792"/>
  </node>
  <node id="-255" visible="true" lat="42.93956518" lon="-72.86942883">
    <tag k="addr:city" v="Dover"/>
    <tag k="addr:housenumber" v="65"/>
    <tag k="addr:street" v="Country Club Road"/>
    <tag k="addr:state" v="VT"/>
    <tag k="ref:vcgi:esiteid" v="85793"/>
  </node>
  <node id="-259" visible="true" lat="42.94100022" lon="-72.87111018">
    <tag k="addr:city" v="Dover"/>
    <tag k="addr:housenumber" v="56"/>
    <tag k="addr:street" v="Country Club Road"/>
    <tag k="addr:state" v="VT"/>
    <tag k="ref:vcgi:esiteid" v="85801"/>
  </node>
  <node id="-260" visible="true" lat="42.94151915" lon="-72.87149454">
    <tag k="addr:city" v="Dover"/>
    <tag k="addr:housenumber" v="50"/>
    <tag k="addr:street" v="Country Club Road"/>
    <tag k="addr:state" v="VT"/>
    <tag k="ref:vcgi:esiteid" v="85802"/>
  </node>
  <node id="-262" visible="true" lat="42.94281597" lon="-72.87172797">
    <tag k="addr:city" v="Dover"/>
    <tag k="addr:housenumber" v="7"/>
    <tag k="addr:street" v="Shady Lane"/>
    <tag k="addr:state" v="VT"/>
    <tag k="ref:vcgi:esiteid" v="85804"/>
  </node>
  <node id="-263" visible="true" lat="42.94323237" lon="-72.8720028">
    <tag k="addr:city" v="Dover"/>
    <tag k="addr:housenumber" v="9"/>
    <tag k="addr:street" v="Shady Lane"/>
    <tag k="addr:state" v="VT"/>
    <tag k="ref:vcgi:esiteid" v="85805"/>
  </node>
  <node id="-264" visible="true" lat="42.94367523" lon="-72.87116515">
    <tag k="addr:city" v="Dover"/>
    <tag k="addr:housenumber" v="12"/>
    <tag k="addr:street" v="Shady Lane"/>
    <tag k="addr:state" v="VT"/>
    <tag k="ref:vcgi:esiteid" v="85806"/>
  </node>
  <node id="-265" visible="true" lat="42.94293881" lon="-72.87086506">
    <tag k="addr:city" v="Dover"/>
    <tag k="addr:housenumber" v="8"/>
    <tag k="addr:street" v="Shady Lane"/>
    <tag k="addr:state" v="VT"/>
    <tag k="ref:vcgi:esiteid" v="85807"/>
  </node>
  <node id="-267" visible="true" lat="42.94249006" lon="-72.86999095">
    <tag k="addr:city" v="Dover"/>
    <tag k="addr:housenumber" v="42"/>
    <tag k="addr:street" v="Country Club Road"/>
    <tag k="addr:state" v="VT"/>
    <tag k="ref:vcgi:esiteid" v="85809"/>
  </node>
  <node id="-268" visible="true" lat="42.94336314" lon="-72.87045524">
    <tag k="addr:city" v="Dover"/>
    <tag k="addr:housenumber" v="7"/>
    <tag k="addr:street" v="Pine Tree Lane"/>
    <tag k="addr:state" v="VT"/>
    <tag k="ref:vcgi:esiteid" v="85810"/>
  </node>
  <node id="-269" visible="true" lat="42.9438483" lon="-72.870676">
    <tag k="addr:city" v="Dover"/>
    <tag k="addr:housenumber" v="9"/>
    <tag k="addr:street" v="Pine Tree Lane"/>
    <tag k="addr:state" v="VT"/>
    <tag k="ref:vcgi:esiteid" v="85811"/>
  </node>
  <node id="-270" visible="true" lat="42.94360533" lon="-72.86980311">
    <tag k="addr:city" v="Dover"/>
    <tag k="addr:housenumber" v="10"/>
    <tag k="addr:street" v="Pine Tree Lane"/>
    <tag k="addr:state" v="VT"/>
    <tag k="ref:vcgi:esiteid" v="85812"/>
  </node>
  <node id="-271" visible="true" lat="42.94315476" lon="-72.86948919">
    <tag k="addr:city" v="Dover"/>
    <tag k="addr:housenumber" v="6"/>
    <tag k="addr:street" v="Pine Tree Lane"/>
    <tag k="addr:state" v="VT"/>
    <tag k="ref:vcgi:esiteid" v="85813"/>
  </node>
  <node id="-272" visible="true" lat="42.9426981" lon="-72.86929195">
    <tag k="addr:city" v="Dover"/>
    <tag k="addr:housenumber" v="36"/>
    <tag k="addr:street" v="Country Club Road"/>
    <tag k="addr:state" v="VT"/>
    <tag k="ref:vcgi:esiteid" v="85814"/>
  </node>
  <node id="-273" visible="true" lat="42.93981473" lon="-72.86648163">
    <tag k="addr:city" v="Dover"/>
    <tag k="addr:housenumber" v="19"/>
    <tag k="addr:street" v="Barber Road"/>
    <tag k="addr:state" v="VT"/>
    <tag k="ref:vcgi:esiteid" v="85815"/>
  </node>
  <node id="-276" visible="true" lat="42.94068014" lon="-72.86933435">
    <tag k="addr:city" v="Dover"/>
    <tag k="addr:housenumber" v="6"/>
    <tag k="addr:street" v="Maple Hill Loop"/>
    <tag k="addr:state" v="VT"/>
    <tag k="ref:vcgi:esiteid" v="85818"/>
  </node>
  <node id="-277" visible="true" lat="42.94099686" lon="-72.86861267">
    <tag k="addr:city" v="Dover"/>
    <tag k="addr:housenumber" v="10"/>
    <tag k="addr:street" v="Maple Hill Loop"/>
    <tag k="addr:state" v="VT"/>
    <tag k="ref:vcgi:esiteid" v="85819"/>
  </node>
  <node id="-278" visible="true" lat="42.94112404" lon="-72.86816995">
    <tag k="addr:city" v="Dover"/>
    <tag k="addr:housenumber" v="12"/>
    <tag k="addr:street" v="Maple Hill Loop"/>
    <tag k="addr:state" v="VT"/>
    <tag k="ref:vcgi:esiteid" v="85820"/>
  </node>
  <node id="-279" visible="true" lat="42.94056092" lon="-72.86730298">
    <tag k="addr:city" v="Dover"/>
    <tag k="addr:housenumber" v="4"/>
    <tag k="addr:street" v="Circle View Drive"/>
    <tag k="addr:state" v="VT"/>
    <tag k="ref:vcgi:esiteid" v="85821"/>
  </node>
  <node id="-280" visible="true" lat="42.94058071" lon="-72.86647839">
    <tag k="addr:city" v="Dover"/>
    <tag k="addr:housenumber" v="8"/>
    <tag k="addr:street" v="Circle View Drive"/>
    <tag k="addr:state" v="VT"/>
    <tag k="ref:vcgi:esiteid" v="85822"/>
  </node>
  <node id="-287" visible="true" lat="42.94122628" lon="-72.86659114">
    <tag k="addr:city" v="Dover"/>
    <tag k="addr:housenumber" v="3"/>
    <tag k="addr:street" v="Circle View Drive"/>
    <tag k="addr:state" v="VT"/>
    <tag k="ref:vcgi:esiteid" v="85829"/>
  </node>
  <node id="-288" visible="true" lat="42.94160644" lon="-72.86569087">
    <tag k="addr:city" v="Dover"/>
    <tag k="addr:housenumber" v="28"/>
    <tag k="addr:street" v="Maple Hill Loop"/>
    <tag k="addr:state" v="VT"/>
    <tag k="ref:vcgi:esiteid" v="85830"/>
  </node>
  <node id="-292" visible="true" lat="42.94245182" lon="-72.86543523">
    <tag k="addr:city" v="Dover"/>
    <tag k="addr:housenumber" v="29"/>
    <tag k="addr:street" v="Maple Hill Loop"/>
    <tag k="addr:state" v="VT"/>
    <tag k="ref:vcgi:esiteid" v="85834"/>
  </node>
  <node id="-293" visible="true" lat="42.94235061" lon="-72.86580226">
    <tag k="addr:city" v="Dover"/>
    <tag k="addr:housenumber" v="27"/>
    <tag k="addr:street" v="Maple Hill Loop"/>
    <tag k="addr:state" v="VT"/>
    <tag k="ref:vcgi:esiteid" v="85835"/>
  </node>
  <node id="-300" visible="true" lat="42.9419706" lon="-72.86976999">
    <tag k="addr:city" v="Dover"/>
    <tag k="addr:housenumber" v="39"/>
    <tag k="addr:street" v="Country Club Road"/>
    <tag k="addr:state" v="VT"/>
    <tag k="ref:vcgi:esiteid" v="85844"/>
  </node>
  <node id="-303" visible="true" lat="42.9420586" lon="-72.86907027">
    <tag k="addr:city" v="Dover"/>
    <tag k="addr:housenumber" v="35"/>
    <tag k="addr:street" v="Country Club Road"/>
    <tag k="addr:state" v="VT"/>
    <tag k="ref:vcgi:esiteid" v="85847"/>
  </node>
  <node id="-306" visible="true" lat="42.9429356" lon="-72.86832079">
    <tag k="addr:city" v="Dover"/>
    <tag k="addr:housenumber" v="32"/>
    <tag k="addr:street" v="Country Club Road"/>
    <tag k="addr:state" v="VT"/>
    <tag k="ref:vcgi:esiteid" v="85850"/>
  </node>
  <node id="-307" visible="true" lat="42.94333417" lon="-72.86880557">
    <tag k="addr:city" v="Dover"/>
    <tag k="addr:housenumber" v="5"/>
    <tag k="addr:street" v="Fern Gully"/>
    <tag k="addr:state" v="VT"/>
    <tag k="ref:vcgi:esiteid" v="85851"/>
  </node>
  <node id="-308" visible="true" lat="42.9442936" lon="-72.86908362">
    <tag k="addr:city" v="Dover"/>
    <tag k="addr:housenumber" v="23"/>
    <tag k="addr:street" v="Edwards Village Loop"/>
    <tag k="addr:state" v="VT"/>
    <tag k="ref:vcgi:esiteid" v="85852"/>
  </node>
  <node id="-309" visible="true" lat="42.94418173" lon="-72.86832044">
    <tag k="addr:city" v="Dover"/>
    <tag k="addr:housenumber" v="19"/>
    <tag k="addr:street" v="Edwards Village Loop"/>
    <tag k="addr:state" v="VT"/>
    <tag k="ref:vcgi:esiteid" v="85853"/>
  </node>
  <node id="-310" visible="true" lat="42.94321194" lon="-72.86770777">
    <tag k="addr:city" v="Dover"/>
    <tag k="addr:housenumber" v="28"/>
    <tag k="addr:street" v="Country Club Road"/>
    <tag k="addr:state" v="VT"/>
    <tag k="ref:vcgi:esiteid" v="85854"/>
  </node>
  <node id="-311" visible="true" lat="42.9434148" lon="-72.86683755">
    <tag k="addr:city" v="Dover"/>
    <tag k="addr:housenumber" v="24"/>
    <tag k="addr:street" v="Country Club Road"/>
    <tag k="addr:state" v="VT"/>
    <tag k="ref:vcgi:esiteid" v="85855"/>
  </node>
  <node id="-312" visible="true" lat="42.9438181" lon="-72.86763357">
    <tag k="addr:city" v="Dover"/>
    <tag k="addr:housenumber" v="26"/>
    <tag k="addr:street" v="Country Club Road"/>
    <tag k="addr:state" v="VT"/>
    <tag k="ref:vcgi:esiteid" v="85856"/>
  </node>
  <node id="-313" visible="true" lat="42.94302062" lon="-72.86497565">
    <tag k="addr:city" v="Dover"/>
    <tag k="addr:housenumber" v="17"/>
    <tag k="addr:street" v="Country Club Road"/>
    <tag k="addr:state" v="VT"/>
    <tag k="ref:vcgi:esiteid" v="85857"/>
  </node>
  <node id="-314" visible="true" lat="42.94335916" lon="-72.86457305">
    <tag k="addr:city" v="Dover"/>
    <tag k="addr:housenumber" v="11"/>
    <tag k="addr:street" v="Country Club Road"/>
    <tag k="addr:state" v="VT"/>
    <tag k="ref:vcgi:esiteid" v="85858"/>
  </node>
  <node id="-315" visible="true" lat="42.94354844" lon="-72.86616142">
    <tag k="addr:city" v="Dover"/>
    <tag k="addr:housenumber" v="20"/>
    <tag k="addr:street" v="Country Club Road"/>
    <tag k="addr:state" v="VT"/>
    <tag k="ref:vcgi:esiteid" v="85859"/>
  </node>
  <node id="-401" visible="true" lat="42.94620856" lon="-72.8876644">
    <tag k="addr:city" v="Dover"/>
    <tag k="addr:housenumber" v="4"/>
    <tag k="addr:street" v="Suntec Loop"/>
    <tag k="addr:state" v="VT"/>
    <tag k="ref:vcgi:esiteid" v="85958"/>
  </node>
  <node id="-402" visible="true" lat="42.94610541" lon="-72.88710644">
    <tag k="addr:city" v="Dover"/>
    <tag k="addr:housenumber" v="8"/>
    <tag k="addr:street" v="Suntec Loop"/>
    <tag k="addr:state" v="VT"/>
    <tag k="ref:vcgi:esiteid" v="85960"/>
  </node>
  <node id="-409" visible="true" lat="42.94672883" lon="-72.88657929">
    <tag k="addr:city" v="Dover"/>
    <tag k="addr:housenumber" v="9"/>
    <tag k="addr:street" v="Suntec Loop"/>
    <tag k="addr:state" v="VT"/>
    <tag k="ref:vcgi:esiteid" v="85975"/>
  </node>
  <node id="-410" visible="true" lat="42.94676884" lon="-72.88763582">
    <tag k="addr:city" v="Dover"/>
    <tag k="addr:housenumber" v="1"/>
    <tag k="addr:street" v="Suntec Loop"/>
    <tag k="addr:state" v="VT"/>
    <tag k="ref:vcgi:esiteid" v="85977"/>
  </node>
  <node id="-421" visible="true" lat="42.94608578" lon="-72.88899807">
    <tag k="addr:city" v="Dover"/>
    <tag k="addr:housenumber" v="7"/>
    <tag k="addr:street" v="Polar Bear South"/>
    <tag k="addr:state" v="VT"/>
    <tag k="ref:vcgi:esiteid" v="86000"/>
  </node>
  <node id="-424" visible="true" lat="42.94834462" lon="-72.88861545">
    <tag k="addr:city" v="Dover"/>
    <tag k="addr:housenumber" v="173"/>
    <tag k="addr:street" v="Handle Road"/>
    <tag k="addr:state" v="VT"/>
    <tag k="ref:vcgi:esiteid" v="86003"/>
  </node>
  <node id="-425" visible="true" lat="42.94802443" lon="-72.89037297">
    <tag k="addr:city" v="Dover"/>
    <tag k="addr:housenumber" v="9"/>
    <tag k="addr:street" v="Polar Bear North"/>
    <tag k="addr:state" v="VT"/>
    <tag k="ref:vcgi:esiteid" v="86006"/>
  </node>
  <node id="-429" visible="true" lat="42.94720069" lon="-72.89049907">
    <tag k="addr:city" v="Dover"/>
    <tag k="addr:housenumber" v="2"/>
    <tag k="addr:street" v="Cub Ridge Lane"/>
    <tag k="addr:state" v="VT"/>
    <tag k="ref:vcgi:esiteid" v="86010"/>
  </node>
  <node id="-430" visible="true" lat="42.94742311" lon="-72.89064831">
    <tag k="addr:city" v="Dover"/>
    <tag k="addr:housenumber" v="4"/>
    <tag k="addr:street" v="Cub Ridge Lane"/>
    <tag k="addr:state" v="VT"/>
    <tag k="ref:vcgi:esiteid" v="86011"/>
  </node>
  <node id="-431" visible="true" lat="42.94768225" lon="-72.89089765">
    <tag k="addr:city" v="Dover"/>
    <tag k="addr:housenumber" v="6"/>
    <tag k="addr:street" v="Cub Ridge Lane"/>
    <tag k="addr:state" v="VT"/>
    <tag k="ref:vcgi:esiteid" v="86012"/>
  </node>
  <node id="-432" visible="true" lat="42.94799919" lon="-72.89101767">
    <tag k="addr:city" v="Dover"/>
    <tag k="addr:housenumber" v="8"/>
    <tag k="addr:street" v="Cub Ridge Lane"/>
    <tag k="addr:state" v="VT"/>
    <tag k="ref:vcgi:esiteid" v="86013"/>
  </node>
  <node id="-433" visible="true" lat="42.94796726" lon="-72.89150686">
    <tag k="addr:city" v="Dover"/>
    <tag k="addr:housenumber" v="9"/>
    <tag k="addr:street" v="Cub Ridge Lane"/>
    <tag k="addr:state" v="VT"/>
    <tag k="ref:vcgi:esiteid" v="86014"/>
  </node>
  <node id="-434" visible="true" lat="42.94783052" lon="-72.89186476">
    <tag k="addr:city" v="Dover"/>
    <tag k="addr:housenumber" v="7"/>
    <tag k="addr:street" v="Cub Ridge Lane"/>
    <tag k="addr:state" v="VT"/>
    <tag k="ref:vcgi:esiteid" v="86015"/>
  </node>
  <node id="-435" visible="true" lat="42.94726615" lon="-72.89141765">
    <tag k="addr:city" v="Dover"/>
    <tag k="addr:housenumber" v="3"/>
    <tag k="addr:street" v="Cub Ridge Lane"/>
    <tag k="addr:state" v="VT"/>
    <tag k="ref:vcgi:esiteid" v="86016"/>
  </node>
  <node id="-436" visible="true" lat="42.94690656" lon="-72.89125975">
    <tag k="addr:city" v="Dover"/>
    <tag k="addr:housenumber" v="1"/>
    <tag k="addr:street" v="Cub Ridge Lane"/>
    <tag k="addr:state" v="VT"/>
    <tag k="ref:vcgi:esiteid" v="86017"/>
  </node>
  <node id="-437" visible="true" lat="42.94687209" lon="-72.89214914">
    <tag k="addr:city" v="Dover"/>
    <tag k="addr:housenumber" v="22"/>
    <tag k="addr:street" v="Bears Den Road"/>
    <tag k="addr:state" v="VT"/>
    <tag k="ref:vcgi:esiteid" v="86018"/>
  </node>
  <node id="-438" visible="true" lat="42.94698687" lon="-72.8928476">
    <tag k="addr:city" v="Dover"/>
    <tag k="addr:housenumber" v="1"/>
    <tag k="addr:street" v="Brumms Way"/>
    <tag k="addr:state" v="VT"/>
    <tag k="ref:vcgi:esiteid" v="86019"/>
  </node>
  <node id="-439" visible="true" lat="42.94718111" lon="-72.89204739">
    <tag k="addr:city" v="Dover"/>
    <tag k="addr:housenumber" v="4"/>
    <tag k="addr:street" v="Brumms Way"/>
    <tag k="addr:state" v="VT"/>
    <tag k="ref:vcgi:esiteid" v="86020"/>
  </node>
  <node id="-440" visible="true" lat="42.94745781" lon="-72.89157644">
    <tag k="addr:city" v="Dover"/>
    <tag k="addr:housenumber" v="5"/>
    <tag k="addr:street" v="Cub Ridge Lane"/>
    <tag k="addr:state" v="VT"/>
    <tag k="ref:vcgi:esiteid" v="86021"/>
  </node>
  <node id="-441" visible="true" lat="42.94732821" lon="-72.89269999">
    <tag k="addr:city" v="Dover"/>
    <tag k="addr:housenumber" v="5"/>
    <tag k="addr:street" v="Brumms Way"/>
    <tag k="addr:state" v="VT"/>
    <tag k="ref:vcgi:esiteid" v="86022"/>
  </node>
  <node id="-442" visible="true" lat="42.94822034" lon="-72.8923811">
    <tag k="addr:city" v="Dover"/>
    <tag k="addr:housenumber" v="10"/>
    <tag k="addr:street" v="Brumms Way"/>
    <tag k="addr:state" v="VT"/>
    <tag k="ref:vcgi:esiteid" v="86024"/>
  </node>
  <node id="-443" visible="true" lat="42.9480881" lon="-72.89285788">
    <tag k="addr:city" v="Dover"/>
    <tag k="addr:housenumber" v="9"/>
    <tag k="addr:street" v="Brumms Way"/>
    <tag k="addr:state" v="VT"/>
    <tag k="ref:vcgi:esiteid" v="86025"/>
  </node>
  <node id="-453" visible="true" lat="42.94673926" lon="-72.89337514">
    <tag k="addr:city" v="Dover"/>
    <tag k="addr:housenumber" v="29"/>
    <tag k="addr:street" v="Bears Den Road"/>
    <tag k="addr:state" v="VT"/>
    <tag k="ref:vcgi:esiteid" v="86036"/>
  </node>
  <node id="-454" visible="true" lat="42.94676682" lon="-72.893671">
    <tag k="addr:city" v="Dover"/>
    <tag k="addr:housenumber" v="31"/>
    <tag k="addr:street" v="Bears Den Road"/>
    <tag k="addr:state" v="VT"/>
    <tag k="ref:vcgi:esiteid" v="86037"/>
  </node>
  <node id="-455" visible="true" lat="42.94701675" lon="-72.89413168">
    <tag k="addr:city" v="Dover"/>
    <tag k="addr:housenumber" v="33"/>
    <tag k="addr:street" v="Bears Den Road"/>
    <tag k="addr:state" v="VT"/>
    <tag k="ref:vcgi:esiteid" v="86038"/>
  </node>
  <node id="-456" visible="true" lat="42.9470616" lon="-72.89438874">
    <tag k="addr:city" v="Dover"/>
    <tag k="addr:housenumber" v="35"/>
    <tag k="addr:street" v="Bears Den Road"/>
    <tag k="addr:state" v="VT"/>
    <tag k="ref:vcgi:esiteid" v="86039"/>
  </node>
  <node id="-457" visible="true" lat="42.94724452" lon="-72.89495508">
    <tag k="addr:city" v="Dover"/>
    <tag k="addr:housenumber" v="37"/>
    <tag k="addr:street" v="Bears Den Road"/>
    <tag k="addr:state" v="VT"/>
    <tag k="ref:vcgi:esiteid" v="86040"/>
  </node>
  <node id="-458" visible="true" lat="42.94751676" lon="-72.89500635">
    <tag k="addr:city" v="Dover"/>
    <tag k="addr:housenumber" v="39"/>
    <tag k="addr:street" v="Bears Den Road"/>
    <tag k="addr:state" v="VT"/>
    <tag k="ref:vcgi:esiteid" v="86041"/>
  </node>
  <node id="-459" visible="true" lat="42.94843106" lon="-72.89592321">
    <tag k="addr:city" v="Dover"/>
    <tag k="addr:housenumber" v="53"/>
    <tag k="addr:street" v="Bears Den Road"/>
    <tag k="addr:state" v="VT"/>
    <tag k="ref:vcgi:esiteid" v="86042"/>
  </node>
  <node id="-460" visible="true" lat="42.94787543" lon="-72.89577364">
    <tag k="addr:city" v="Dover"/>
    <tag k="addr:housenumber" v="1"/>
    <tag k="addr:street" v="Bear Paw Left"/>
    <tag k="addr:state" v="VT"/>
    <tag k="ref:vcgi:esiteid" v="86043"/>
  </node>
  <node id="-461" visible="true" lat="42.94671404" lon="-72.89571708">
    <tag k="addr:city" v="Dover"/>
    <tag k="addr:housenumber" v="9"/>
    <tag k="addr:street" v="Bear Paw Left"/>
    <tag k="addr:state" v="VT"/>
    <tag k="ref:vcgi:esiteid" v="86044"/>
  </node>
  <node id="-462" visible="true" lat="42.94639823" lon="-72.89612745">
    <tag k="addr:city" v="Dover"/>
    <tag k="addr:housenumber" v="11"/>
    <tag k="addr:street" v="Bear Paw Left"/>
    <tag k="addr:state" v="VT"/>
    <tag k="ref:vcgi:esiteid" v="86045"/>
  </node>
  <node id="-463" visible="true" lat="42.94683759" lon="-72.89635592">
    <tag k="addr:city" v="Dover"/>
    <tag k="addr:housenumber" v="10"/>
    <tag k="addr:street" v="Bear Paw Left"/>
    <tag k="addr:state" v="VT"/>
    <tag k="ref:vcgi:esiteid" v="86046"/>
  </node>
  <node id="-464" visible="true" lat="42.94708378" lon="-72.89624078">
    <tag k="addr:city" v="Dover"/>
    <tag k="addr:housenumber" v="8"/>
    <tag k="addr:street" v="Bear Paw Left"/>
    <tag k="addr:state" v="VT"/>
    <tag k="ref:vcgi:esiteid" v="86047"/>
  </node>
  <node id="-465" visible="true" lat="42.94727826" lon="-72.89620312">
    <tag k="addr:city" v="Dover"/>
    <tag k="addr:housenumber" v="6"/>
    <tag k="addr:street" v="Bear Paw Left"/>
    <tag k="addr:state" v="VT"/>
    <tag k="ref:vcgi:esiteid" v="86048"/>
  </node>
  <node id="-466" visible="true" lat="42.94776359" lon="-72.89636186">
    <tag k="addr:city" v="Dover"/>
    <tag k="addr:housenumber" v="1"/>
    <tag k="addr:street" v="Bear Paw Right"/>
    <tag k="addr:state" v="VT"/>
    <tag k="ref:vcgi:esiteid" v="86049"/>
  </node>
  <node id="-467" visible="true" lat="42.94748321" lon="-72.89644565">
    <tag k="addr:city" v="Dover"/>
    <tag k="addr:housenumber" v="3"/>
    <tag k="addr:street" v="Bear Paw Right"/>
    <tag k="addr:state" v="VT"/>
    <tag k="ref:vcgi:esiteid" v="86050"/>
  </node>
  <node id="-468" visible="true" lat="42.94708594" lon="-72.8972679">
    <tag k="addr:city" v="Dover"/>
    <tag k="addr:housenumber" v="7"/>
    <tag k="addr:street" v="Bear Paw Right"/>
    <tag k="addr:state" v="VT"/>
    <tag k="ref:vcgi:esiteid" v="86051"/>
  </node>
  <node id="-469" visible="true" lat="42.94700696" lon="-72.89763268">
    <tag k="addr:city" v="Dover"/>
    <tag k="addr:housenumber" v="8"/>
    <tag k="addr:street" v="Bear Paw Right"/>
    <tag k="addr:state" v="VT"/>
    <tag k="ref:vcgi:esiteid" v="86052"/>
  </node>
  <node id="-470" visible="true" lat="42.9475999" lon="-72.89741127">
    <tag k="addr:city" v="Dover"/>
    <tag k="addr:housenumber" v="6"/>
    <tag k="addr:street" v="Bear Paw Right"/>
    <tag k="addr:state" v="VT"/>
    <tag k="ref:vcgi:esiteid" v="86053"/>
  </node>
  <node id="-471" visible="true" lat="42.94828855" lon="-72.89662979">
    <tag k="addr:city" v="Dover"/>
    <tag k="addr:housenumber" v="56"/>
    <tag k="addr:street" v="Bears Den Road"/>
    <tag k="addr:state" v="VT"/>
    <tag k="ref:vcgi:esiteid" v="86054"/>
  </node>
  <node id="-472" visible="true" lat="42.94784726" lon="-72.89469996">
    <tag k="addr:city" v="Dover"/>
    <tag k="addr:housenumber" v="40"/>
    <tag k="addr:street" v="Bears Den Road"/>
    <tag k="addr:state" v="VT"/>
    <tag k="ref:vcgi:esiteid" v="86055"/>
  </node>
  <node id="-473" visible="true" lat="42.94762134" lon="-72.89451681">
    <tag k="addr:city" v="Dover"/>
    <tag k="addr:housenumber" v="38"/>
    <tag k="addr:street" v="Bears Den Road"/>
    <tag k="addr:state" v="VT"/>
    <tag k="ref:vcgi:esiteid" v="86056"/>
  </node>
  <node id="-474" visible="true" lat="42.94755436" lon="-72.89404951">
    <tag k="addr:city" v="Dover"/>
    <tag k="addr:housenumber" v="36"/>
    <tag k="addr:street" v="Bears Den Road"/>
    <tag k="addr:state" v="VT"/>
    <tag k="ref:vcgi:esiteid" v="86057"/>
  </node>
  <node id="-475" visible="true" lat="42.9473723" lon="-72.89379935">
    <tag k="addr:city" v="Dover"/>
    <tag k="addr:housenumber" v="34"/>
    <tag k="addr:street" v="Bears Den Road"/>
    <tag k="addr:state" v="VT"/>
    <tag k="ref:vcgi:esiteid" v="86058"/>
  </node>
  <node id="-476" visible="true" lat="42.94723701" lon="-72.89324603">
    <tag k="addr:city" v="Dover"/>
    <tag k="addr:housenumber" v="30"/>
    <tag k="addr:street" v="Bears Den Road"/>
    <tag k="addr:state" v="VT"/>
    <tag k="ref:vcgi:esiteid" v="86059"/>
  </node>
  <node id="-477" visible="true" lat="42.94836916" lon="-72.89147911">
    <tag k="addr:city" v="Dover"/>
    <tag k="addr:housenumber" v="15"/>
    <tag k="addr:street" v="Yodeling Lane"/>
    <tag k="addr:state" v="VT"/>
    <tag k="ref:vcgi:esiteid" v="86060"/>
  </node>
  <node id="-478" visible="true" lat="42.94870232" lon="-72.89100656">
    <tag k="addr:city" v="Dover"/>
    <tag k="addr:housenumber" v="12"/>
    <tag k="addr:street" v="Yodeling Lane"/>
    <tag k="addr:state" v="VT"/>
    <tag k="ref:vcgi:esiteid" v="86061"/>
  </node>
  <node id="-480" visible="true" lat="42.94847545" lon="-72.89048378">
    <tag k="addr:city" v="Dover"/>
    <tag k="addr:housenumber" v="13"/>
    <tag k="addr:street" v="Yodeling Lane"/>
    <tag k="addr:state" v="VT"/>
    <tag k="ref:vcgi:esiteid" v="86063"/>
  </node>
  <node id="-481" visible="true" lat="42.94855808" lon="-72.88972174">
    <tag k="addr:city" v="Dover"/>
    <tag k="addr:housenumber" v="7"/>
    <tag k="addr:street" v="Yodeling Lane"/>
    <tag k="addr:state" v="VT"/>
    <tag k="ref:vcgi:esiteid" v="86064"/>
  </node>
  <node id="-482" visible="true" lat="42.94877933" lon="-72.89021336">
    <tag k="addr:city" v="Dover"/>
    <tag k="addr:housenumber" v="10"/>
    <tag k="addr:street" v="Yodeling Lane"/>
    <tag k="addr:state" v="VT"/>
    <tag k="ref:vcgi:esiteid" v="86065"/>
  </node>
  <node id="-483" visible="true" lat="42.94869912" lon="-72.8919403">
    <tag k="addr:city" v="Dover"/>
    <tag k="addr:housenumber" v="9"/>
    <tag k="addr:street" v="Edelweiss Lane"/>
    <tag k="addr:state" v="VT"/>
    <tag k="ref:vcgi:esiteid" v="86066"/>
  </node>
  <node id="-484" visible="true" lat="42.94893588" lon="-72.89124148">
    <tag k="addr:city" v="Dover"/>
    <tag k="addr:housenumber" v="7"/>
    <tag k="addr:street" v="Edelweiss Lane"/>
    <tag k="addr:state" v="VT"/>
    <tag k="ref:vcgi:esiteid" v="86067"/>
  </node>
  <node id="-485" visible="true" lat="42.94911597" lon="-72.89039445">
    <tag k="addr:city" v="Dover"/>
    <tag k="addr:housenumber" v="1"/>
    <tag k="addr:street" v="Edelweiss Lane"/>
    <tag k="addr:state" v="VT"/>
    <tag k="ref:vcgi:esiteid" v="86068"/>
  </node>
  <node id="-486" visible="true" lat="42.94929614" lon="-72.88952408">
    <tag k="addr:city" v="Dover"/>
    <tag k="addr:housenumber" v="5"/>
    <tag k="addr:street" v="Alpine Loop"/>
    <tag k="addr:state" v="VT"/>
    <tag k="ref:vcgi:esiteid" v="86069"/>
  </node>
  <node id="-487" visible="true" lat="42.94916356" lon="-72.89152305">
    <tag k="addr:city" v="Dover"/>
    <tag k="addr:housenumber" v="8"/>
    <tag k="addr:street" v="Edelweiss Lane"/>
    <tag k="addr:state" v="VT"/>
    <tag k="ref:vcgi:esiteid" v="86070"/>
  </node>
  <node id="-488" visible="true" lat="42.94961999" lon="-72.89127738">
    <tag k="addr:city" v="Dover"/>
    <tag k="addr:housenumber" v="15"/>
    <tag k="addr:street" v="Alpine Loop"/>
    <tag k="addr:state" v="VT"/>
    <tag k="ref:vcgi:esiteid" v="86071"/>
  </node>
  <node id="-489" visible="true" lat="42.94987711" lon="-72.89180771">
    <tag k="addr:city" v="Dover"/>
    <tag k="addr:housenumber" v="17"/>
    <tag k="addr:street" v="Alpine Loop"/>
    <tag k="addr:state" v="VT"/>
    <tag k="ref:vcgi:esiteid" v="86072"/>
  </node>
  <node id="-490" visible="true" lat="42.95066455" lon="-72.89221734">
    <tag k="addr:city" v="Dover"/>
    <tag k="addr:housenumber" v="19"/>
    <tag k="addr:street" v="Alpine Loop"/>
    <tag k="addr:state" v="VT"/>
    <tag k="ref:vcgi:esiteid" v="86073"/>
  </node>
  <node id="-491" visible="true" lat="42.95050783" lon="-72.89124366">
    <tag k="addr:city" v="Dover"/>
    <tag k="addr:housenumber" v="21"/>
    <tag k="addr:street" v="Alpine Loop"/>
    <tag k="addr:state" v="VT"/>
    <tag k="ref:vcgi:esiteid" v="86074"/>
  </node>
  <node id="-492" visible="true" lat="42.95061912" lon="-72.89045842">
    <tag k="addr:city" v="Dover"/>
    <tag k="addr:housenumber" v="23"/>
    <tag k="addr:street" v="Alpine Loop"/>
    <tag k="addr:state" v="VT"/>
    <tag k="ref:vcgi:esiteid" v="86075"/>
  </node>
  <node id="-493" visible="true" lat="42.95054426" lon="-72.88894055">
    <tag k="addr:city" v="Dover"/>
    <tag k="addr:housenumber" v="31"/>
    <tag k="addr:street" v="Alpine Loop"/>
    <tag k="addr:state" v="VT"/>
    <tag k="ref:vcgi:esiteid" v="86076"/>
  </node>
  <node id="-494" visible="true" lat="42.95009446" lon="-72.89009716">
    <tag k="addr:city" v="Dover"/>
    <tag k="addr:housenumber" v="26"/>
    <tag k="addr:street" v="Alpine Loop"/>
    <tag k="addr:state" v="VT"/>
    <tag k="ref:vcgi:esiteid" v="86077"/>
  </node>
  <node id="-495" visible="true" lat="42.9500515" lon="-72.89096063">
    <tag k="addr:city" v="Dover"/>
    <tag k="addr:housenumber" v="22"/>
    <tag k="addr:street" v="Alpine Loop"/>
    <tag k="addr:state" v="VT"/>
    <tag k="ref:vcgi:esiteid" v="86078"/>
  </node>
  <node id="-496" visible="true" lat="42.94970058" lon="-72.88993904">
    <tag k="addr:city" v="Dover"/>
    <tag k="addr:housenumber" v="8"/>
    <tag k="addr:street" v="Alpine Loop"/>
    <tag k="addr:state" v="VT"/>
    <tag k="ref:vcgi:esiteid" v="86079"/>
  </node>
  <node id="-497" visible="true" lat="42.94976255" lon="-72.88852321">
    <tag k="addr:city" v="Dover"/>
    <tag k="addr:housenumber" v="183"/>
    <tag k="addr:street" v="Handle Road"/>
    <tag k="addr:state" v="VT"/>
    <tag k="ref:vcgi:esiteid" v="86080"/>
  </node>
  <node id="-498" visible="true" lat="42.94916173" lon="-72.88870619">
    <tag k="addr:city" v="Dover"/>
    <tag k="addr:housenumber" v="1"/>
    <tag k="addr:street" v="Alpine Loop"/>
    <tag k="addr:state" v="VT"/>
    <tag k="ref:vcgi:esiteid" v="86081"/>
  </node>
  <node id="-499" visible="true" lat="42.9531293" lon="-72.88855217">
    <tag k="addr:city" v="Dover"/>
    <tag k="addr:housenumber" v="209"/>
    <tag k="addr:street" v="Handle Road"/>
    <tag k="addr:state" v="VT"/>
    <tag k="ref:vcgi:esiteid" v="86082"/>
  </node>
  <node id="-500" visible="true" lat="42.95188121" lon="-72.88912795">
    <tag k="addr:city" v="Dover"/>
    <tag k="addr:housenumber" v="199"/>
    <tag k="addr:street" v="Handle Road"/>
    <tag k="addr:state" v="VT"/>
    <tag k="ref:vcgi:esiteid" v="86083"/>
  </node>
  <node id="-668" visible="true" lat="42.9538511" lon="-72.88342743">
    <tag k="addr:city" v="Dover"/>
    <tag k="addr:housenumber" v="15"/>
    <tag k="addr:street" v="Tannery Road"/>
    <tag k="addr:state" v="VT"/>
    <tag k="ref:vcgi:esiteid" v="86258"/>
  </node>
  <node id="-669" visible="true" lat="42.95400728" lon="-72.8815938">
    <tag k="addr:city" v="Dover"/>
    <tag k="addr:housenumber" v="5"/>
    <tag k="addr:street" v="Tannery Road"/>
    <tag k="addr:state" v="VT"/>
    <tag k="ref:vcgi:esiteid" v="86259"/>
  </node>
  <node id="-671" visible="true" lat="42.95545274" lon="-72.88776523">
    <tag k="addr:city" v="Dover"/>
    <tag k="addr:housenumber" v="226"/>
    <tag k="addr:street" v="Handle Road"/>
    <tag k="addr:state" v="VT"/>
    <tag k="ref:vcgi:esiteid" v="86262"/>
  </node>
  <node id="-672" visible="true" lat="42.95475815" lon="-72.88862857">
    <tag k="addr:city" v="Dover"/>
    <tag k="addr:housenumber" v="217"/>
    <tag k="addr:street" v="Handle Road"/>
    <tag k="addr:state" v="VT"/>
    <tag k="ref:vcgi:esiteid" v="86263"/>
  </node>
  <node id="-673" visible="true" lat="42.95587466" lon="-72.89144108">
    <tag k="addr:city" v="Dover"/>
    <tag k="addr:housenumber" v="34"/>
    <tag k="addr:street" v="Carinthia Road"/>
    <tag k="addr:state" v="VT"/>
    <tag k="ref:vcgi:esiteid" v="86264"/>
  </node>
  <node id="-674" visible="true" lat="42.95629052" lon="-72.89185617">
    <tag k="addr:city" v="Dover"/>
    <tag k="addr:housenumber" v="30"/>
    <tag k="addr:street" v="Carinthia Road"/>
    <tag k="addr:state" v="VT"/>
    <tag k="ref:vcgi:esiteid" v="86265"/>
  </node>
  <node id="-675" visible="true" lat="42.95682121" lon="-72.89240431">
    <tag k="addr:city" v="Dover"/>
    <tag k="addr:housenumber" v="26"/>
    <tag k="addr:street" v="Carinthia Road"/>
    <tag k="addr:state" v="VT"/>
    <tag k="ref:vcgi:esiteid" v="86266"/>
  </node>
  <node id="-676" visible="true" lat="42.95679346" lon="-72.89188271">
    <tag k="addr:city" v="Dover"/>
    <tag k="addr:housenumber" v="24"/>
    <tag k="addr:street" v="Carinthia Road"/>
    <tag k="addr:state" v="VT"/>
    <tag k="ref:vcgi:esiteid" v="86267"/>
  </node>
  <node id="-677" visible="true" lat="42.95740686" lon="-72.89136518">
    <tag k="addr:city" v="Dover"/>
    <tag k="addr:housenumber" v="18"/>
    <tag k="addr:street" v="Carinthia Road"/>
    <tag k="addr:state" v="VT"/>
    <tag k="ref:vcgi:esiteid" v="86268"/>
  </node>
  <node id="-679" visible="true" lat="42.95638724" lon="-72.89083925">
    <tag k="addr:city" v="Dover"/>
    <tag k="addr:housenumber" v="37"/>
    <tag k="addr:street" v="Carinthia Road"/>
    <tag k="addr:state" v="VT"/>
    <tag k="ref:vcgi:esiteid" v="86270"/>
  </node>
  <node id="-680" visible="true" lat="42.95651395" lon="-72.89128495">
    <tag k="addr:city" v="Dover"/>
    <tag k="addr:housenumber" v="23"/>
    <tag k="addr:street" v="Carinthia Road"/>
    <tag k="addr:state" v="VT"/>
    <tag k="ref:vcgi:esiteid" v="86271"/>
  </node>
  <node id="-682" visible="true" lat="42.95803129" lon="-72.88977504">
    <tag k="addr:city" v="Dover"/>
    <tag k="addr:housenumber" v="4"/>
    <tag k="addr:street" v="Carinthia Lane"/>
    <tag k="addr:state" v="VT"/>
    <tag k="ref:vcgi:esiteid" v="86274"/>
  </node>
  <node id="-683" visible="true" lat="42.95781912" lon="-72.88962713">
    <tag k="addr:city" v="Dover"/>
    <tag k="addr:housenumber" v="17"/>
    <tag k="addr:street" v="Carinthia Lane"/>
    <tag k="addr:state" v="VT"/>
    <tag k="ref:vcgi:esiteid" v="86275"/>
  </node>
  <node id="-684" visible="true" lat="42.9579868" lon="-72.88892516">
    <tag k="addr:city" v="Dover"/>
    <tag k="addr:housenumber" v="1"/>
    <tag k="addr:street" v="Carinthia Lane"/>
    <tag k="addr:state" v="VT"/>
    <tag k="ref:vcgi:esiteid" v="86276"/>
  </node>
  <node id="-688" visible="true" lat="42.95878699" lon="-72.88800435">
    <tag k="addr:city" v="Dover"/>
    <tag k="addr:housenumber" v="4"/>
    <tag k="addr:street" v="Encore Place"/>
    <tag k="addr:state" v="VT"/>
    <tag k="ref:vcgi:esiteid" v="86281"/>
  </node>
  <node id="-785" visible="true" lat="42.9602371" lon="-72.88798546">
    <tag k="addr:city" v="Dover"/>
    <tag k="addr:housenumber" v="262"/>
    <tag k="addr:street" v="Handle Road"/>
    <tag k="addr:state" v="VT"/>
    <tag k="ref:vcgi:esiteid" v="86378"/>
  </node>
  <node id="-786" visible="true" lat="42.96073846" lon="-72.88870706">
    <tag k="addr:city" v="Dover"/>
    <tag k="addr:housenumber" v="266"/>
    <tag k="addr:street" v="Handle Road"/>
    <tag k="addr:state" v="VT"/>
    <tag k="ref:vcgi:esiteid" v="86379"/>
  </node>
  <node id="-788" visible="true" lat="42.96253152" lon="-72.88952098">
    <tag k="addr:city" v="Dover"/>
    <tag k="addr:housenumber" v="8"/>
    <tag k="addr:street" v="Deer Creek"/>
    <tag k="addr:state" v="VT"/>
    <tag k="ref:vcgi:esiteid" v="86381"/>
  </node>
  <node id="-789" visible="true" lat="42.96249886" lon="-72.88932198">
    <tag k="addr:city" v="Dover"/>
    <tag k="addr:housenumber" v="10"/>
    <tag k="addr:street" v="Deer Creek"/>
    <tag k="addr:state" v="VT"/>
    <tag k="ref:vcgi:esiteid" v="86382"/>
  </node>
  <node id="-790" visible="true" lat="42.96271533" lon="-72.88877107">
    <tag k="addr:city" v="Dover"/>
    <tag k="addr:housenumber" v="12"/>
    <tag k="addr:street" v="Deer Creek"/>
    <tag k="addr:state" v="VT"/>
    <tag k="ref:vcgi:esiteid" v="86383"/>
  </node>
  <node id="-791" visible="true" lat="42.96282906" lon="-72.88873482">
    <tag k="addr:city" v="Dover"/>
    <tag k="addr:housenumber" v="14"/>
    <tag k="addr:street" v="Deer Creek"/>
    <tag k="addr:state" v="VT"/>
    <tag k="ref:vcgi:esiteid" v="86384"/>
  </node>
  <node id="-795" visible="true" lat="42.96273798" lon="-72.89030156">
    <tag k="addr:city" v="Dover"/>
    <tag k="addr:housenumber" v="2"/>
    <tag k="addr:street" v="Seasons Drive"/>
    <tag k="addr:state" v="VT"/>
    <tag k="ref:vcgi:esiteid" v="86388"/>
  </node>
  <node id="-796" visible="true" lat="42.96271813" lon="-72.89109531">
    <tag k="addr:city" v="Dover"/>
    <tag k="addr:housenumber" v="8"/>
    <tag k="addr:street" v="Seasons Drive"/>
    <tag k="addr:state" v="VT"/>
    <tag k="ref:vcgi:esiteid" v="86389"/>
  </node>
  <node id="-801" visible="true" lat="42.96357086" lon="-72.89208301">
    <tag k="addr:city" v="Dover"/>
    <tag k="addr:housenumber" v="4"/>
    <tag k="addr:street" v="Townhouse Square"/>
    <tag k="addr:state" v="VT"/>
    <tag k="ref:vcgi:esiteid" v="86402"/>
  </node>
  <node id="-802" visible="true" lat="42.96370333" lon="-72.89248619">
    <tag k="addr:city" v="Dover"/>
    <tag k="addr:housenumber" v="3"/>
    <tag k="addr:street" v="Townhouse Square"/>
    <tag k="addr:state" v="VT"/>
    <tag k="ref:vcgi:esiteid" v="86410"/>
  </node>
  <node id="-803" visible="true" lat="42.96271572" lon="-72.89199352">
    <tag k="addr:city" v="Dover"/>
    <tag k="addr:housenumber" v="1"/>
    <tag k="addr:street" v="Northbrook Village Way"/>
    <tag k="addr:state" v="VT"/>
    <tag k="ref:vcgi:esiteid" v="86414"/>
  </node>
  <node id="-805" visible="true" lat="42.96227178" lon="-72.89165318">
    <tag k="addr:city" v="Dover"/>
    <tag k="addr:housenumber" v="5"/>
    <tag k="addr:street" v="Northbrook Village Way"/>
    <tag k="addr:state" v="VT"/>
    <tag k="ref:vcgi:esiteid" v="86417"/>
  </node>
  <node id="-807" visible="true" lat="42.96206293" lon="-72.89213408">
    <tag k="addr:city" v="Dover"/>
    <tag k="addr:housenumber" v="6"/>
    <tag k="addr:street" v="Northbrook Village Way"/>
    <tag k="addr:state" v="VT"/>
    <tag k="ref:vcgi:esiteid" v="86421"/>
  </node>
  <node id="-808" visible="true" lat="42.960283" lon="-72.88921786">
    <tag k="addr:city" v="Dover"/>
    <tag k="addr:housenumber" v="261"/>
    <tag k="addr:street" v="Handle Road"/>
    <tag k="addr:state" v="VT"/>
    <tag k="ref:vcgi:esiteid" v="86423"/>
  </node>
  <node id="-809" visible="true" lat="42.96023636" lon="-72.88969426">
    <tag k="addr:city" v="Dover"/>
    <tag k="addr:housenumber" v="3"/>
    <tag k="addr:street" v="Slopeside Road"/>
    <tag k="addr:state" v="VT"/>
    <tag k="ref:vcgi:esiteid" v="86425"/>
  </node>
  <node id="-810" visible="true" lat="42.96027537" lon="-72.88999025">
    <tag k="addr:city" v="Dover"/>
    <tag k="addr:housenumber" v="5"/>
    <tag k="addr:street" v="Slopeside Road"/>
    <tag k="addr:state" v="VT"/>
    <tag k="ref:vcgi:esiteid" v="86426"/>
  </node>
  <node id="-811" visible="true" lat="42.96026232" lon="-72.89046491">
    <tag k="addr:city" v="Dover"/>
    <tag k="addr:housenumber" v="7"/>
    <tag k="addr:street" v="Slopeside Road"/>
    <tag k="addr:state" v="VT"/>
    <tag k="ref:vcgi:esiteid" v="86427"/>
  </node>
  <node id="-813" visible="true" lat="42.96070745" lon="-72.89067787">
    <tag k="addr:city" v="Dover"/>
    <tag k="addr:housenumber" v="8"/>
    <tag k="addr:street" v="Slopeside Road"/>
    <tag k="addr:state" v="VT"/>
    <tag k="ref:vcgi:esiteid" v="86429"/>
  </node>
  <node id="-817" visible="true" lat="42.96017987" lon="-72.89159485">
    <tag k="addr:city" v="Dover"/>
    <tag k="addr:housenumber" v="13"/>
    <tag k="addr:street" v="Slopeside Road"/>
    <tag k="addr:state" v="VT"/>
    <tag k="ref:vcgi:esiteid" v="86439"/>
  </node>
  <node id="-819" visible="true" lat="42.96314427" lon="-72.89309633">
    <tag k="addr:city" v="Dover"/>
    <tag k="addr:housenumber" v="8"/>
    <tag k="addr:street" v="Trailside Village Way"/>
    <tag k="addr:state" v="VT"/>
    <tag k="ref:vcgi:esiteid" v="86443"/>
  </node>
  <node id="-820" visible="true" lat="42.96350838" lon="-72.89352928">
    <tag k="addr:city" v="Dover"/>
    <tag k="addr:housenumber" v="12"/>
    <tag k="addr:street" v="Trailside Village Way"/>
    <tag k="addr:state" v="VT"/>
    <tag k="ref:vcgi:esiteid" v="86446"/>
  </node>
  <node id="-822" visible="true" lat="42.96313336" lon="-72.89391413">
    <tag k="addr:city" v="Dover"/>
    <tag k="addr:housenumber" v="14"/>
    <tag k="addr:street" v="Trailside Village Way"/>
    <tag k="addr:state" v="VT"/>
    <tag k="ref:vcgi:esiteid" v="86449"/>
  </node>
  <node id="-823" visible="true" lat="42.96274598" lon="-72.89385068">
    <tag k="addr:city" v="Dover"/>
    <tag k="addr:housenumber" v="16"/>
    <tag k="addr:street" v="Trailside Village Way"/>
    <tag k="addr:state" v="VT"/>
    <tag k="ref:vcgi:esiteid" v="86451"/>
  </node>
  <node id="-826" visible="true" lat="42.96253234" lon="-72.89461385">
    <tag k="addr:city" v="Dover"/>
    <tag k="addr:housenumber" v="1"/>
    <tag k="addr:street" v="Mountainside Village Way"/>
    <tag k="addr:state" v="VT"/>
    <tag k="ref:vcgi:esiteid" v="86461"/>
  </node>
  <node id="-830" visible="true" lat="42.96634601" lon="-72.88925958">
    <tag k="addr:city" v="Dover"/>
    <tag k="addr:housenumber" v="306"/>
    <tag k="addr:street" v="Handle Road"/>
    <tag k="addr:state" v="VT"/>
    <tag k="ref:vcgi:esiteid" v="86467"/>
  </node>
  <node id="-833" visible="true" lat="42.96480699" lon="-72.88675863">
    <tag k="addr:city" v="Dover"/>
    <tag k="addr:housenumber" v="393"/>
    <tag k="addr:street" v="Vermont Route 100"/>
    <tag k="addr:state" v="VT"/>
    <tag k="ref:vcgi:esiteid" v="86470"/>
  </node>
  <node id="-834" visible="true" lat="42.96449675" lon="-72.88793097">
    <tag k="addr:city" v="Dover"/>
    <tag k="addr:housenumber" v="7"/>
    <tag k="addr:street" v="Snow Lake Road"/>
    <tag k="addr:state" v="VT"/>
    <tag k="ref:vcgi:esiteid" v="86471"/>
  </node>
  <node id="-840" visible="true" lat="42.96812197" lon="-72.89145585">
    <tag k="addr:city" v="Dover"/>
    <tag k="addr:housenumber" v="9"/>
    <tag k="addr:street" v="Snow Tree Lane"/>
    <tag k="addr:state" v="VT"/>
    <tag k="ref:vcgi:esiteid" v="86477"/>
  </node>
  <node id="-842" visible="true" lat="42.96912275" lon="-72.89204925">
    <tag k="addr:city" v="Dover"/>
    <tag k="addr:housenumber" v="15"/>
    <tag k="addr:street" v="Snow Tree Lane"/>
    <tag k="addr:state" v="VT"/>
    <tag k="ref:vcgi:esiteid" v="86481"/>
  </node>
  <node id="-843" visible="true" lat="42.96943966" lon="-72.89180971">
    <tag k="addr:city" v="Dover"/>
    <tag k="addr:housenumber" v="17"/>
    <tag k="addr:street" v="Snow Tree Lane"/>
    <tag k="addr:state" v="VT"/>
    <tag k="ref:vcgi:esiteid" v="86482"/>
  </node>
  <node id="-844" visible="true" lat="42.97043619" lon="-72.89066942">
    <tag k="addr:city" v="Dover"/>
    <tag k="addr:housenumber" v="337"/>
    <tag k="addr:street" v="Handle Road"/>
    <tag k="addr:state" v="VT"/>
    <tag k="ref:vcgi:esiteid" v="86485"/>
  </node>
  <node id="-845" visible="true" lat="42.97075843" lon="-72.89113302">
    <tag k="addr:city" v="Dover"/>
    <tag k="addr:housenumber" v="339"/>
    <tag k="addr:street" v="Handle Road"/>
    <tag k="addr:state" v="VT"/>
    <tag k="ref:vcgi:esiteid" v="86486"/>
  </node>
  <node id="-848" visible="true" lat="42.97294846" lon="-72.89360022">
    <tag k="addr:city" v="Dover"/>
    <tag k="addr:housenumber" v="38"/>
    <tag k="addr:street" v="North Access Road"/>
    <tag k="addr:state" v="VT"/>
    <tag k="ref:vcgi:esiteid" v="86493"/>
  </node>
  <node id="-849" visible="true" lat="42.97316254" lon="-72.89330798">
    <tag k="addr:city" v="Dover"/>
    <tag k="addr:housenumber" v="17"/>
    <tag k="addr:street" v="Mountain Village"/>
    <tag k="addr:state" v="VT"/>
    <tag k="ref:vcgi:esiteid" v="86496"/>
  </node>
  <node id="-850" visible="true" lat="42.97299784" lon="-72.89318354">
    <tag k="addr:city" v="Dover"/>
    <tag k="addr:housenumber" v="15"/>
    <tag k="addr:street" v="Mountain Village"/>
    <tag k="addr:state" v="VT"/>
    <tag k="ref:vcgi:esiteid" v="86497"/>
  </node>
  <node id="-851" visible="true" lat="42.97293282" lon="-72.89307981">
    <tag k="addr:city" v="Dover"/>
    <tag k="addr:housenumber" v="13"/>
    <tag k="addr:street" v="Mountain Village"/>
    <tag k="addr:state" v="VT"/>
    <tag k="ref:vcgi:esiteid" v="86498"/>
  </node>
  <node id="-852" visible="true" lat="42.9725643" lon="-72.89269196">
    <tag k="addr:city" v="Dover"/>
    <tag k="addr:housenumber" v="9"/>
    <tag k="addr:street" v="Mountain Village"/>
    <tag k="addr:state" v="VT"/>
    <tag k="ref:vcgi:esiteid" v="86500"/>
  </node>
  <node id="-853" visible="true" lat="42.97245064" lon="-72.89268753">
    <tag k="addr:city" v="Dover"/>
    <tag k="addr:housenumber" v="7"/>
    <tag k="addr:street" v="Mountain Village"/>
    <tag k="addr:state" v="VT"/>
    <tag k="ref:vcgi:esiteid" v="86501"/>
  </node>
  <node id="-854" visible="true" lat="42.97236038" lon="-72.89254546">
    <tag k="addr:city" v="Dover"/>
    <tag k="addr:housenumber" v="5"/>
    <tag k="addr:street" v="Mountain Village"/>
    <tag k="addr:state" v="VT"/>
    <tag k="ref:vcgi:esiteid" v="86502"/>
  </node>
  <node id="-855" visible="true" lat="42.97235206" lon="-72.89238418">
    <tag k="addr:city" v="Dover"/>
    <tag k="addr:housenumber" v="3"/>
    <tag k="addr:street" v="Mountain Village"/>
    <tag k="addr:state" v="VT"/>
    <tag k="ref:vcgi:esiteid" v="86503"/>
  </node>
  <node id="-863" visible="true" lat="42.97509338" lon="-72.88961447">
    <tag k="addr:city" v="Dover"/>
    <tag k="addr:housenumber" v="10"/>
    <tag k="addr:street" v="Lower Highlands Road"/>
    <tag k="addr:state" v="VT"/>
    <tag k="ref:vcgi:esiteid" v="86511"/>
  </node>
  <node id="-864" visible="true" lat="42.97542151" lon="-72.88987567">
    <tag k="addr:city" v="Dover"/>
    <tag k="addr:housenumber" v="12"/>
    <tag k="addr:street" v="Lower Highlands Road"/>
    <tag k="addr:state" v="VT"/>
    <tag k="ref:vcgi:esiteid" v="86512"/>
  </node>
  <node id="-869" visible="true" lat="42.97508028" lon="-72.89153965">
    <tag k="addr:city" v="Dover"/>
    <tag k="addr:housenumber" v="19"/>
    <tag k="addr:street" v="Lower Highlands Road"/>
    <tag k="addr:state" v="VT"/>
    <tag k="ref:vcgi:esiteid" v="86517"/>
  </node>
  <node id="-870" visible="true" lat="42.9750842" lon="-72.89209836">
    <tag k="addr:city" v="Dover"/>
    <tag k="addr:housenumber" v="20"/>
    <tag k="addr:street" v="Upper Handle Road"/>
    <tag k="addr:state" v="VT"/>
    <tag k="ref:vcgi:esiteid" v="86518"/>
  </node>
  <node id="-871" visible="true" lat="42.97571683" lon="-72.89167098">
    <tag k="addr:city" v="Dover"/>
    <tag k="addr:housenumber" v="24"/>
    <tag k="addr:street" v="Lower Highlands Road"/>
    <tag k="addr:state" v="VT"/>
    <tag k="ref:vcgi:esiteid" v="86519"/>
  </node>
  <node id="-872" visible="true" lat="42.97455838" lon="-72.89374535">
    <tag k="addr:city" v="Dover"/>
    <tag k="addr:housenumber" v="7"/>
    <tag k="addr:street" v="Apple Hill Lane"/>
    <tag k="addr:state" v="VT"/>
    <tag k="ref:vcgi:esiteid" v="86520"/>
  </node>
  <node id="-873" visible="true" lat="42.97526604" lon="-72.89407682">
    <tag k="addr:city" v="Dover"/>
    <tag k="addr:housenumber" v="11"/>
    <tag k="addr:street" v="Apple Hill Lane"/>
    <tag k="addr:state" v="VT"/>
    <tag k="ref:vcgi:esiteid" v="86521"/>
  </node>
  <node id="-874" visible="true" lat="42.97505856" lon="-72.8927015">
    <tag k="addr:city" v="Dover"/>
    <tag k="addr:housenumber" v="27"/>
    <tag k="addr:street" v="Upper Handle Road"/>
    <tag k="addr:state" v="VT"/>
    <tag k="ref:vcgi:esiteid" v="86522"/>
  </node>
  <node id="-875" visible="true" lat="42.97573739" lon="-72.89472679">
    <tag k="addr:city" v="Dover"/>
    <tag k="addr:housenumber" v="7"/>
    <tag k="addr:street" v="Bartlett Lane"/>
    <tag k="addr:state" v="VT"/>
    <tag k="ref:vcgi:esiteid" v="86524"/>
  </node>
  <node id="-876" visible="true" lat="42.97568631" lon="-72.89645766">
    <tag k="addr:city" v="Dover"/>
    <tag k="addr:housenumber" v="19"/>
    <tag k="addr:street" v="Bartlett Lane"/>
    <tag k="addr:state" v="VT"/>
    <tag k="ref:vcgi:esiteid" v="86525"/>
  </node>
  <node id="-877" visible="true" lat="42.97602045" lon="-72.89742129">
    <tag k="addr:city" v="Dover"/>
    <tag k="addr:housenumber" v="23"/>
    <tag k="addr:street" v="Bartlett Lane"/>
    <tag k="addr:state" v="VT"/>
    <tag k="ref:vcgi:esiteid" v="86526"/>
  </node>
  <node id="-878" visible="true" lat="42.97656543" lon="-72.89354796">
    <tag k="addr:city" v="Dover"/>
    <tag k="addr:housenumber" v="4"/>
    <tag k="addr:street" v="Bartlett Lane"/>
    <tag k="addr:state" v="VT"/>
    <tag k="ref:vcgi:esiteid" v="86527"/>
  </node>
  <node id="-879" visible="true" lat="42.97737719" lon="-72.89352978">
    <tag k="addr:city" v="Dover"/>
    <tag k="addr:housenumber" v="37"/>
    <tag k="addr:street" v="Upper Handle Road"/>
    <tag k="addr:state" v="VT"/>
    <tag k="ref:vcgi:esiteid" v="86528"/>
  </node>
  <node id="-882" visible="true" lat="42.97628716" lon="-72.8924654">
    <tag k="addr:city" v="Dover"/>
    <tag k="addr:housenumber" v="30"/>
    <tag k="addr:street" v="Upper Handle Road"/>
    <tag k="addr:state" v="VT"/>
    <tag k="ref:vcgi:esiteid" v="86531"/>
  </node>
  <node id="-883" visible="true" lat="42.97634831" lon="-72.89199611">
    <tag k="addr:city" v="Dover"/>
    <tag k="addr:housenumber" v="32"/>
    <tag k="addr:street" v="Upper Handle Road"/>
    <tag k="addr:state" v="VT"/>
    <tag k="ref:vcgi:esiteid" v="86532"/>
  </node>
  <node id="-884" visible="true" lat="42.97686593" lon="-72.89260013">
    <tag k="addr:city" v="Dover"/>
    <tag k="addr:housenumber" v="36"/>
    <tag k="addr:street" v="Upper Handle Road"/>
    <tag k="addr:state" v="VT"/>
    <tag k="ref:vcgi:esiteid" v="86533"/>
  </node>
  <node id="-885" visible="true" lat="42.97691922" lon="-72.89206331">
    <tag k="addr:city" v="Dover"/>
    <tag k="addr:housenumber" v="17"/>
    <tag k="addr:street" v="Upper Highlands Loop"/>
    <tag k="addr:state" v="VT"/>
    <tag k="ref:vcgi:esiteid" v="86534"/>
  </node>
  <node id="-886" visible="true" lat="42.97651532" lon="-72.89149245">
    <tag k="addr:city" v="Dover"/>
    <tag k="addr:housenumber" v="15"/>
    <tag k="addr:street" v="Upper Highlands Loop"/>
    <tag k="addr:state" v="VT"/>
    <tag k="ref:vcgi:esiteid" v="86535"/>
  </node>
  <node id="-887" visible="true" lat="42.97617403" lon="-72.89099985">
    <tag k="addr:city" v="Dover"/>
    <tag k="addr:housenumber" v="13"/>
    <tag k="addr:street" v="Upper Highlands Loop"/>
    <tag k="addr:state" v="VT"/>
    <tag k="ref:vcgi:esiteid" v="86536"/>
  </node>
  <node id="-888" visible="true" lat="42.97566596" lon="-72.89094668">
    <tag k="addr:city" v="Dover"/>
    <tag k="addr:housenumber" v="18"/>
    <tag k="addr:street" v="Lower Highlands Road"/>
    <tag k="addr:state" v="VT"/>
    <tag k="ref:vcgi:esiteid" v="86537"/>
  </node>
  <node id="-889" visible="true" lat="42.97739934" lon="-72.89207414">
    <tag k="addr:city" v="Dover"/>
    <tag k="addr:housenumber" v="40"/>
    <tag k="addr:street" v="Upper Handle Road"/>
    <tag k="addr:state" v="VT"/>
    <tag k="ref:vcgi:esiteid" v="86538"/>
  </node>
  <node id="-890" visible="true" lat="42.97786749" lon="-72.8922406">
    <tag k="addr:city" v="Dover"/>
    <tag k="addr:housenumber" v="42"/>
    <tag k="addr:street" v="Upper Handle Road"/>
    <tag k="addr:state" v="VT"/>
    <tag k="ref:vcgi:esiteid" v="86539"/>
  </node>
  <node id="-891" visible="true" lat="42.97768153" lon="-72.89146092">
    <tag k="addr:city" v="Dover"/>
    <tag k="addr:housenumber" v="21"/>
    <tag k="addr:street" v="Upper Highlands Loop"/>
    <tag k="addr:state" v="VT"/>
    <tag k="ref:vcgi:esiteid" v="86540"/>
  </node>
  <node id="-892" visible="true" lat="42.9743936" lon="-72.89841502">
    <tag k="addr:city" v="Dover"/>
    <tag k="addr:housenumber" v="30"/>
    <tag k="addr:street" v="Snow Vidda Loop"/>
    <tag k="addr:state" v="VT"/>
    <tag k="ref:vcgi:esiteid" v="86541"/>
  </node>
  <node id="-893" visible="true" lat="42.97429816" lon="-72.89791619">
    <tag k="addr:city" v="Dover"/>
    <tag k="addr:housenumber" v="26"/>
    <tag k="addr:street" v="Snow Vidda Loop"/>
    <tag k="addr:state" v="VT"/>
    <tag k="ref:vcgi:esiteid" v="86542"/>
  </node>
  <node id="-894" visible="true" lat="42.97416899" lon="-72.89725368">
    <tag k="addr:city" v="Dover"/>
    <tag k="addr:housenumber" v="24"/>
    <tag k="addr:street" v="Snow Vidda Loop"/>
    <tag k="addr:state" v="VT"/>
    <tag k="ref:vcgi:esiteid" v="86543"/>
  </node>
  <node id="-895" visible="true" lat="42.97405645" lon="-72.89673918">
    <tag k="addr:city" v="Dover"/>
    <tag k="addr:housenumber" v="20"/>
    <tag k="addr:street" v="Snow Vidda Loop"/>
    <tag k="addr:state" v="VT"/>
    <tag k="ref:vcgi:esiteid" v="86544"/>
  </node>
  <node id="-896" visible="true" lat="42.97409312" lon="-72.89605438">
    <tag k="addr:city" v="Dover"/>
    <tag k="addr:housenumber" v="16"/>
    <tag k="addr:street" v="Snow Vidda Loop"/>
    <tag k="addr:state" v="VT"/>
    <tag k="ref:vcgi:esiteid" v="86545"/>
  </node>
  <node id="-897" visible="true" lat="42.97398648" lon="-72.89548542">
    <tag k="addr:city" v="Dover"/>
    <tag k="addr:housenumber" v="14"/>
    <tag k="addr:street" v="Snow Vidda Loop"/>
    <tag k="addr:state" v="VT"/>
    <tag k="ref:vcgi:esiteid" v="86546"/>
  </node>
  <node id="-898" visible="true" lat="42.9738224" lon="-72.89499395">
    <tag k="addr:city" v="Dover"/>
    <tag k="addr:housenumber" v="12"/>
    <tag k="addr:street" v="Snow Vidda Loop"/>
    <tag k="addr:state" v="VT"/>
    <tag k="ref:vcgi:esiteid" v="86547"/>
  </node>
  <node id="-899" visible="true" lat="42.97800588" lon="-72.89355715">
    <tag k="addr:city" v="Dover"/>
    <tag k="addr:housenumber" v="43"/>
    <tag k="addr:street" v="Upper Handle Road"/>
    <tag k="addr:state" v="VT"/>
    <tag k="ref:vcgi:esiteid" v="86548"/>
  </node>
  <node id="-901" visible="true" lat="42.97851426" lon="-72.89366159">
    <tag k="addr:city" v="Dover"/>
    <tag k="addr:housenumber" v="47"/>
    <tag k="addr:street" v="Upper Handle Road"/>
    <tag k="addr:state" v="VT"/>
    <tag k="ref:vcgi:esiteid" v="86550"/>
  </node>
  <node id="-902" visible="true" lat="42.97833447" lon="-72.8927496">
    <tag k="addr:city" v="Dover"/>
    <tag k="addr:housenumber" v="46"/>
    <tag k="addr:street" v="Upper Handle Road"/>
    <tag k="addr:state" v="VT"/>
    <tag k="ref:vcgi:esiteid" v="86551"/>
  </node>
  <node id="-904" visible="true" lat="42.97984635" lon="-72.8931967">
    <tag k="addr:city" v="Dover"/>
    <tag k="addr:housenumber" v="56"/>
    <tag k="addr:street" v="Upper Handle Road"/>
    <tag k="addr:state" v="VT"/>
    <tag k="ref:vcgi:esiteid" v="86553"/>
  </node>
  <node id="-905" visible="true" lat="42.97815179" lon="-72.89157161">
    <tag k="addr:city" v="Dover"/>
    <tag k="addr:housenumber" v="56"/>
    <tag k="addr:street" v="Upper Highlands Loop"/>
    <tag k="addr:state" v="VT"/>
    <tag k="ref:vcgi:esiteid" v="86554"/>
  </node>
  <node id="-906" visible="true" lat="42.97834924" lon="-72.89177656">
    <tag k="addr:city" v="Dover"/>
    <tag k="addr:housenumber" v="52"/>
    <tag k="addr:street" v="Upper Highlands Loop"/>
    <tag k="addr:state" v="VT"/>
    <tag k="ref:vcgi:esiteid" v="86555"/>
  </node>
  <node id="-907" visible="true" lat="42.97878796" lon="-72.89219196">
    <tag k="addr:city" v="Dover"/>
    <tag k="addr:housenumber" v="50"/>
    <tag k="addr:street" v="Upper Highlands Loop"/>
    <tag k="addr:state" v="VT"/>
    <tag k="ref:vcgi:esiteid" v="86556"/>
  </node>
  <node id="-908" visible="true" lat="42.97944421" lon="-72.89251532">
    <tag k="addr:city" v="Dover"/>
    <tag k="addr:housenumber" v="48"/>
    <tag k="addr:street" v="Upper Highlands Loop"/>
    <tag k="addr:state" v="VT"/>
    <tag k="ref:vcgi:esiteid" v="86557"/>
  </node>
  <node id="-909" visible="true" lat="42.97986477" lon="-72.89118985">
    <tag k="addr:city" v="Dover"/>
    <tag k="addr:housenumber" v="42"/>
    <tag k="addr:street" v="Upper Highlands Loop"/>
    <tag k="addr:state" v="VT"/>
    <tag k="ref:vcgi:esiteid" v="86558"/>
  </node>
  <node id="-910" visible="true" lat="42.97920753" lon="-72.88985129">
    <tag k="addr:city" v="Dover"/>
    <tag k="addr:housenumber" v="38"/>
    <tag k="addr:street" v="Upper Highlands Loop"/>
    <tag k="addr:state" v="VT"/>
    <tag k="ref:vcgi:esiteid" v="86559"/>
  </node>
  <node id="-911" visible="true" lat="42.97866154" lon="-72.88958984">
    <tag k="addr:city" v="Dover"/>
    <tag k="addr:housenumber" v="32"/>
    <tag k="addr:street" v="Upper Highlands Loop"/>
    <tag k="addr:state" v="VT"/>
    <tag k="ref:vcgi:esiteid" v="86560"/>
  </node>
  <node id="-912" visible="true" lat="42.97804944" lon="-72.88959875">
    <tag k="addr:city" v="Dover"/>
    <tag k="addr:housenumber" v="28"/>
    <tag k="addr:street" v="Upper Highlands Loop"/>
    <tag k="addr:state" v="VT"/>
    <tag k="ref:vcgi:esiteid" v="86561"/>
  </node>
  <node id="-913" visible="true" lat="42.97691877" lon="-72.89052191">
    <tag k="addr:city" v="Dover"/>
    <tag k="addr:housenumber" v="14"/>
    <tag k="addr:street" v="Upper Highlands Loop"/>
    <tag k="addr:state" v="VT"/>
    <tag k="ref:vcgi:esiteid" v="86562"/>
  </node>
  <node id="-914" visible="true" lat="42.97739518" lon="-72.89064559">
    <tag k="addr:city" v="Dover"/>
    <tag k="addr:housenumber" v="24"/>
    <tag k="addr:street" v="Upper Highlands Loop"/>
    <tag k="addr:state" v="VT"/>
    <tag k="ref:vcgi:esiteid" v="86563"/>
  </node>
  <node id="-915" visible="true" lat="42.97795452" lon="-72.89089241">
    <tag k="addr:city" v="Dover"/>
    <tag k="addr:housenumber" v="59"/>
    <tag k="addr:street" v="Upper Highlands Loop"/>
    <tag k="addr:state" v="VT"/>
    <tag k="ref:vcgi:esiteid" v="86564"/>
  </node>
  <node id="-916" visible="true" lat="42.97851722" lon="-72.89113147">
    <tag k="addr:city" v="Dover"/>
    <tag k="addr:housenumber" v="53"/>
    <tag k="addr:street" v="Upper Highlands Loop"/>
    <tag k="addr:state" v="VT"/>
    <tag k="ref:vcgi:esiteid" v="86565"/>
  </node>
  <node id="-917" visible="true" lat="42.97888777" lon="-72.89142187">
    <tag k="addr:city" v="Dover"/>
    <tag k="addr:housenumber" v="51"/>
    <tag k="addr:street" v="Upper Highlands Loop"/>
    <tag k="addr:state" v="VT"/>
    <tag k="ref:vcgi:esiteid" v="86566"/>
  </node>
  <node id="-918" visible="true" lat="42.9793458" lon="-72.89120679">
    <tag k="addr:city" v="Dover"/>
    <tag k="addr:housenumber" v="43"/>
    <tag k="addr:street" v="Upper Highlands Loop"/>
    <tag k="addr:state" v="VT"/>
    <tag k="ref:vcgi:esiteid" v="86567"/>
  </node>
  <node id="-919" visible="true" lat="42.97870768" lon="-72.8905955">
    <tag k="addr:city" v="Dover"/>
    <tag k="addr:housenumber" v="35"/>
    <tag k="addr:street" v="Upper Highlands Loop"/>
    <tag k="addr:state" v="VT"/>
    <tag k="ref:vcgi:esiteid" v="86568"/>
  </node>
  <node id="-920" visible="true" lat="42.98019347" lon="-72.88904007">
    <tag k="addr:city" v="Dover"/>
    <tag k="addr:housenumber" v="505"/>
    <tag k="addr:street" v="Vermont Route 100"/>
    <tag k="addr:state" v="VT"/>
    <tag k="ref:vcgi:esiteid" v="86569"/>
  </node>
  <node id="-921" visible="true" lat="42.98072301" lon="-72.89299058">
    <tag k="addr:city" v="Dover"/>
    <tag k="addr:housenumber" v="8"/>
    <tag k="addr:street" v="Far Beyond Road"/>
    <tag k="addr:state" v="VT"/>
    <tag k="ref:vcgi:esiteid" v="86570"/>
  </node>
  <node id="-924" visible="true" lat="42.96397003" lon="-72.88447616">
    <tag k="addr:city" v="Dover"/>
    <tag k="addr:housenumber" v="25"/>
    <tag k="addr:street" v="Dover Springs Lane"/>
    <tag k="addr:state" v="VT"/>
    <tag k="ref:vcgi:esiteid" v="86573"/>
  </node>
  <node id="-925" visible="true" lat="42.96395074" lon="-72.88336482">
    <tag k="addr:city" v="Dover"/>
    <tag k="addr:housenumber" v="3"/>
    <tag k="addr:street" v="Windham Way"/>
    <tag k="addr:state" v="VT"/>
    <tag k="ref:vcgi:esiteid" v="86577"/>
  </node>
  <node id="-926" visible="true" lat="42.96441358" lon="-72.88363475">
    <tag k="addr:city" v="Dover"/>
    <tag k="addr:housenumber" v="5"/>
    <tag k="addr:street" v="Windham Way"/>
    <tag k="addr:state" v="VT"/>
    <tag k="ref:vcgi:esiteid" v="86578"/>
  </node>
  <node id="-927" visible="true" lat="42.96492339" lon="-72.8839636">
    <tag k="addr:city" v="Dover"/>
    <tag k="addr:housenumber" v="9"/>
    <tag k="addr:street" v="Windham Way"/>
    <tag k="addr:state" v="VT"/>
    <tag k="ref:vcgi:esiteid" v="86579"/>
  </node>
  <node id="-928" visible="true" lat="42.96411421" lon="-72.8828742">
    <tag k="addr:city" v="Dover"/>
    <tag k="addr:housenumber" v="12"/>
    <tag k="addr:street" v="Dover Springs Lane"/>
    <tag k="addr:state" v="VT"/>
    <tag k="ref:vcgi:esiteid" v="86580"/>
  </node>
  <node id="-929" visible="true" lat="42.96378411" lon="-72.88234542">
    <tag k="addr:city" v="Dover"/>
    <tag k="addr:housenumber" v="9"/>
    <tag k="addr:street" v="Dover Springs Lane"/>
    <tag k="addr:state" v="VT"/>
    <tag k="ref:vcgi:esiteid" v="86581"/>
  </node>
  <node id="-930" visible="true" lat="42.96438915" lon="-72.88175323">
    <tag k="addr:city" v="Dover"/>
    <tag k="addr:housenumber" v="5"/>
    <tag k="addr:street" v="Dover Springs Lane"/>
    <tag k="addr:state" v="VT"/>
    <tag k="ref:vcgi:esiteid" v="86582"/>
  </node>
  <node id="-931" visible="true" lat="42.96492726" lon="-72.88180014">
    <tag k="addr:city" v="Dover"/>
    <tag k="addr:housenumber" v="1"/>
    <tag k="addr:street" v="Dover Springs Lane"/>
    <tag k="addr:state" v="VT"/>
    <tag k="ref:vcgi:esiteid" v="86583"/>
  </node>
  <node id="-933" visible="true" lat="42.96542798" lon="-72.88342355">
    <tag k="addr:city" v="Dover"/>
    <tag k="addr:housenumber" v="44"/>
    <tag k="addr:street" v="Greensprings Road"/>
    <tag k="addr:state" v="VT"/>
    <tag k="ref:vcgi:esiteid" v="86585"/>
  </node>
  <node id="-934" visible="true" lat="42.96500329" lon="-72.88301405">
    <tag k="addr:city" v="Dover"/>
    <tag k="addr:housenumber" v="48"/>
    <tag k="addr:street" v="Greensprings Road"/>
    <tag k="addr:state" v="VT"/>
    <tag k="ref:vcgi:esiteid" v="86586"/>
  </node>
  <node id="-935" visible="true" lat="42.96645901" lon="-72.88372024">
    <tag k="addr:city" v="Dover"/>
    <tag k="addr:housenumber" v="38"/>
    <tag k="addr:street" v="Greensprings Road"/>
    <tag k="addr:state" v="VT"/>
    <tag k="ref:vcgi:esiteid" v="86587"/>
  </node>
  <node id="-936" visible="true" lat="42.9659754" lon="-72.88359396">
    <tag k="addr:city" v="Dover"/>
    <tag k="addr:housenumber" v="42"/>
    <tag k="addr:street" v="Greensprings Road"/>
    <tag k="addr:state" v="VT"/>
    <tag k="ref:vcgi:esiteid" v="86588"/>
  </node>
  <node id="-947" visible="true" lat="42.96588388" lon="-72.88280866">
    <tag k="addr:city" v="Dover"/>
    <tag k="addr:housenumber" v="47"/>
    <tag k="addr:street" v="Greensprings Road"/>
    <tag k="addr:state" v="VT"/>
    <tag k="ref:vcgi:esiteid" v="86600"/>
  </node>
  <node id="-955" visible="true" lat="42.96831834" lon="-72.8855749">
    <tag k="addr:city" v="Dover"/>
    <tag k="addr:housenumber" v="5"/>
    <tag k="addr:street" v="Newfane Circle"/>
    <tag k="addr:state" v="VT"/>
    <tag k="ref:vcgi:esiteid" v="86610"/>
  </node>
  <node id="-956" visible="true" lat="42.96885719" lon="-72.88558884">
    <tag k="addr:city" v="Dover"/>
    <tag k="addr:housenumber" v="3"/>
    <tag k="addr:street" v="Newfane Circle"/>
    <tag k="addr:state" v="VT"/>
    <tag k="ref:vcgi:esiteid" v="86611"/>
  </node>
  <node id="-957" visible="true" lat="42.96942258" lon="-72.88419755">
    <tag k="addr:city" v="Dover"/>
    <tag k="addr:housenumber" v="19"/>
    <tag k="addr:street" v="Greensprings Road"/>
    <tag k="addr:state" v="VT"/>
    <tag k="ref:vcgi:esiteid" v="86612"/>
  </node>
  <node id="-958" visible="true" lat="42.96947321" lon="-72.88638045">
    <tag k="addr:city" v="Dover"/>
    <tag k="addr:housenumber" v="3"/>
    <tag k="addr:street" v="Greensprings Road"/>
    <tag k="addr:state" v="VT"/>
    <tag k="ref:vcgi:esiteid" v="86613"/>
  </node>
  <node id="-964" visible="true" lat="42.97264084" lon="-72.88555957">
    <tag k="addr:city" v="Dover"/>
    <tag k="addr:housenumber" v="2"/>
    <tag k="addr:street" v="White Oaks Loop"/>
    <tag k="addr:state" v="VT"/>
    <tag k="ref:vcgi:esiteid" v="86619"/>
  </node>
  <node id="-965" visible="true" lat="42.97178803" lon="-72.88432823">
    <tag k="addr:city" v="Dover"/>
    <tag k="addr:housenumber" v="12"/>
    <tag k="addr:street" v="White Oaks Loop"/>
    <tag k="addr:state" v="VT"/>
    <tag k="ref:vcgi:esiteid" v="86624"/>
  </node>
  <node id="-966" visible="true" lat="42.97053657" lon="-72.88350365">
    <tag k="addr:city" v="Dover"/>
    <tag k="addr:housenumber" v="22"/>
    <tag k="addr:street" v="White Oaks Loop"/>
    <tag k="addr:state" v="VT"/>
    <tag k="ref:vcgi:esiteid" v="86628"/>
  </node>
  <node id="-967" visible="true" lat="42.97028673" lon="-72.88230491">
    <tag k="addr:city" v="Dover"/>
    <tag k="addr:housenumber" v="33"/>
    <tag k="addr:street" v="White Oaks Loop"/>
    <tag k="addr:state" v="VT"/>
    <tag k="ref:vcgi:esiteid" v="86631"/>
  </node>
  <node id="-968" visible="true" lat="42.97075961" lon="-72.8824036">
    <tag k="addr:city" v="Dover"/>
    <tag k="addr:housenumber" v="37"/>
    <tag k="addr:street" v="White Oaks Loop"/>
    <tag k="addr:state" v="VT"/>
    <tag k="ref:vcgi:esiteid" v="86632"/>
  </node>
  <node id="-969" visible="true" lat="42.971303" lon="-72.88295998">
    <tag k="addr:city" v="Dover"/>
    <tag k="addr:housenumber" v="43"/>
    <tag k="addr:street" v="White Oaks Loop"/>
    <tag k="addr:state" v="VT"/>
    <tag k="ref:vcgi:esiteid" v="86633"/>
  </node>
  <node id="-970" visible="true" lat="42.97179825" lon="-72.88344584">
    <tag k="addr:city" v="Dover"/>
    <tag k="addr:housenumber" v="47"/>
    <tag k="addr:street" v="White Oaks Loop"/>
    <tag k="addr:state" v="VT"/>
    <tag k="ref:vcgi:esiteid" v="86634"/>
  </node>
  <node id="-971" visible="true" lat="42.97236868" lon="-72.88395384">
    <tag k="addr:city" v="Dover"/>
    <tag k="addr:housenumber" v="51"/>
    <tag k="addr:street" v="White Oaks Loop"/>
    <tag k="addr:state" v="VT"/>
    <tag k="ref:vcgi:esiteid" v="86635"/>
  </node>
  <node id="-972" visible="true" lat="42.9730409" lon="-72.884391">
    <tag k="addr:city" v="Dover"/>
    <tag k="addr:housenumber" v="57"/>
    <tag k="addr:street" v="White Oaks Loop"/>
    <tag k="addr:state" v="VT"/>
    <tag k="ref:vcgi:esiteid" v="86636"/>
  </node>
  <node id="-973" visible="true" lat="42.97106673" lon="-72.88144167">
    <tag k="addr:city" v="Dover"/>
    <tag k="addr:housenumber" v="62"/>
    <tag k="addr:street" v="Tanglewood Lane"/>
    <tag k="addr:state" v="VT"/>
    <tag k="ref:vcgi:esiteid" v="86640"/>
  </node>
  <node id="-974" visible="true" lat="42.97170404" lon="-72.88252372">
    <tag k="addr:city" v="Dover"/>
    <tag k="addr:housenumber" v="56"/>
    <tag k="addr:street" v="Tanglewood Lane"/>
    <tag k="addr:state" v="VT"/>
    <tag k="ref:vcgi:esiteid" v="86643"/>
  </node>
  <node id="-975" visible="true" lat="42.97261328" lon="-72.88318423">
    <tag k="addr:city" v="Dover"/>
    <tag k="addr:housenumber" v="50"/>
    <tag k="addr:street" v="Tanglewood Lane"/>
    <tag k="addr:state" v="VT"/>
    <tag k="ref:vcgi:esiteid" v="86648"/>
  </node>
  <node id="-976" visible="true" lat="42.97186397" lon="-72.88170542">
    <tag k="addr:city" v="Dover"/>
    <tag k="addr:housenumber" v="63"/>
    <tag k="addr:street" v="Tanglewood Lane"/>
    <tag k="addr:state" v="VT"/>
    <tag k="ref:vcgi:esiteid" v="86651"/>
  </node>
  <node id="-977" visible="true" lat="42.9731146" lon="-72.88262407">
    <tag k="addr:city" v="Dover"/>
    <tag k="addr:housenumber" v="75"/>
    <tag k="addr:street" v="Tanglewood Lane"/>
    <tag k="addr:state" v="VT"/>
    <tag k="ref:vcgi:esiteid" v="86658"/>
  </node>
  <node id="-978" visible="true" lat="42.97022091" lon="-72.88840119">
    <tag k="addr:city" v="Dover"/>
    <tag k="addr:housenumber" v="431"/>
    <tag k="addr:street" v="Vermont Route 100"/>
    <tag k="addr:state" v="VT"/>
    <tag k="ref:vcgi:esiteid" v="86659"/>
  </node>
  <node id="-979" visible="true" lat="42.9737384" lon="-72.88406849">
    <tag k="addr:city" v="Dover"/>
    <tag k="addr:housenumber" v="40"/>
    <tag k="addr:street" v="Tanglewood Lane"/>
    <tag k="addr:state" v="VT"/>
    <tag k="ref:vcgi:esiteid" v="86665"/>
  </node>
  <node id="-980" visible="true" lat="42.97411719" lon="-72.88369337">
    <tag k="addr:city" v="Dover"/>
    <tag k="addr:housenumber" v="46"/>
    <tag k="addr:street" v="Silver Birch"/>
    <tag k="addr:state" v="VT"/>
    <tag k="ref:vcgi:esiteid" v="86666"/>
  </node>
  <node id="-981" visible="true" lat="42.97475108" lon="-72.88394228">
    <tag k="addr:city" v="Dover"/>
    <tag k="addr:housenumber" v="40"/>
    <tag k="addr:street" v="Silver Birch"/>
    <tag k="addr:state" v="VT"/>
    <tag k="ref:vcgi:esiteid" v="86667"/>
  </node>
  <node id="-982" visible="true" lat="42.97541491" lon="-72.88428583">
    <tag k="addr:city" v="Dover"/>
    <tag k="addr:housenumber" v="36"/>
    <tag k="addr:street" v="Silver Birch"/>
    <tag k="addr:state" v="VT"/>
    <tag k="ref:vcgi:esiteid" v="86668"/>
  </node>
  <node id="-983" visible="true" lat="42.97590344" lon="-72.88475971">
    <tag k="addr:city" v="Dover"/>
    <tag k="addr:housenumber" v="32"/>
    <tag k="addr:street" v="Silver Birch"/>
    <tag k="addr:state" v="VT"/>
    <tag k="ref:vcgi:esiteid" v="86669"/>
  </node>
  <node id="-984" visible="true" lat="42.9746163" lon="-72.8849792">
    <tag k="addr:city" v="Dover"/>
    <tag k="addr:housenumber" v="3"/>
    <tag k="addr:street" v="Green Willow"/>
    <tag k="addr:state" v="VT"/>
    <tag k="ref:vcgi:esiteid" v="86671"/>
  </node>
  <node id="-985" visible="true" lat="42.97467227" lon="-72.88572623">
    <tag k="addr:city" v="Dover"/>
    <tag k="addr:housenumber" v="5"/>
    <tag k="addr:street" v="Blue Spruce"/>
    <tag k="addr:state" v="VT"/>
    <tag k="ref:vcgi:esiteid" v="86672"/>
  </node>
  <node id="-986" visible="true" lat="42.97522792" lon="-72.88600438">
    <tag k="addr:city" v="Dover"/>
    <tag k="addr:housenumber" v="9"/>
    <tag k="addr:street" v="Blue Spruce"/>
    <tag k="addr:state" v="VT"/>
    <tag k="ref:vcgi:esiteid" v="86673"/>
  </node>
  <node id="-987" visible="true" lat="42.97623224" lon="-72.88578065">
    <tag k="addr:city" v="Dover"/>
    <tag k="addr:housenumber" v="17"/>
    <tag k="addr:street" v="Silver Birch"/>
    <tag k="addr:state" v="VT"/>
    <tag k="ref:vcgi:esiteid" v="86674"/>
  </node>
  <node id="-988" visible="true" lat="42.97353696" lon="-72.88651487">
    <tag k="addr:city" v="Dover"/>
    <tag k="addr:housenumber" v="19"/>
    <tag k="addr:street" v="Tanglewood Lane"/>
    <tag k="addr:state" v="VT"/>
    <tag k="ref:vcgi:esiteid" v="86675"/>
  </node>
  <node id="-989" visible="true" lat="42.97520327" lon="-72.88510477">
    <tag k="addr:city" v="Dover"/>
    <tag k="addr:housenumber" v="9"/>
    <tag k="addr:street" v="Silver Birch"/>
    <tag k="addr:state" v="VT"/>
    <tag k="ref:vcgi:esiteid" v="86676"/>
  </node>
  <node id="-990" visible="true" lat="42.97566709" lon="-72.88550792">
    <tag k="addr:city" v="Dover"/>
    <tag k="addr:housenumber" v="13"/>
    <tag k="addr:street" v="Silver Birch"/>
    <tag k="addr:state" v="VT"/>
    <tag k="ref:vcgi:esiteid" v="86677"/>
  </node>
  <node id="-991" visible="true" lat="42.97510837" lon="-72.88242222">
    <tag k="addr:city" v="Dover"/>
    <tag k="addr:housenumber" v="28"/>
    <tag k="addr:street" v="Gaye Lane"/>
    <tag k="addr:state" v="VT"/>
    <tag k="ref:vcgi:esiteid" v="86678"/>
  </node>
  <node id="-992" visible="true" lat="42.9757561" lon="-72.88273761">
    <tag k="addr:city" v="Dover"/>
    <tag k="addr:housenumber" v="24"/>
    <tag k="addr:street" v="Gaye Lane"/>
    <tag k="addr:state" v="VT"/>
    <tag k="ref:vcgi:esiteid" v="86679"/>
  </node>
  <node id="-993" visible="true" lat="42.97647376" lon="-72.88505218">
    <tag k="addr:city" v="Dover"/>
    <tag k="addr:housenumber" v="28"/>
    <tag k="addr:street" v="Silver Birch"/>
    <tag k="addr:state" v="VT"/>
    <tag k="ref:vcgi:esiteid" v="86680"/>
  </node>
  <node id="-995" visible="true" lat="42.97676225" lon="-72.88270493">
    <tag k="addr:city" v="Dover"/>
    <tag k="addr:housenumber" v="20"/>
    <tag k="addr:street" v="Gaye Lane"/>
    <tag k="addr:state" v="VT"/>
    <tag k="ref:vcgi:esiteid" v="86682"/>
  </node>
  <node id="-996" visible="true" lat="42.97688751" lon="-72.8860036">
    <tag k="addr:city" v="Dover"/>
    <tag k="addr:housenumber" v="21"/>
    <tag k="addr:street" v="Silver Birch"/>
    <tag k="addr:state" v="VT"/>
    <tag k="ref:vcgi:esiteid" v="86683"/>
  </node>
  <node id="-997" visible="true" lat="42.97735885" lon="-72.88635873">
    <tag k="addr:city" v="Dover"/>
    <tag k="addr:housenumber" v="23"/>
    <tag k="addr:street" v="Silver Birch"/>
    <tag k="addr:state" v="VT"/>
    <tag k="ref:vcgi:esiteid" v="86684"/>
  </node>
  <node id="-998" visible="true" lat="42.97697268" lon="-72.88131274">
    <tag k="addr:city" v="Dover"/>
    <tag k="addr:housenumber" v="17"/>
    <tag k="addr:street" v="Gaye Lane"/>
    <tag k="addr:state" v="VT"/>
    <tag k="ref:vcgi:esiteid" v="86685"/>
  </node>
  <node id="-999" visible="true" lat="42.97770307" lon="-72.88113231">
    <tag k="addr:city" v="Dover"/>
    <tag k="addr:housenumber" v="13"/>
    <tag k="addr:street" v="Gaye Lane"/>
    <tag k="addr:state" v="VT"/>
    <tag k="ref:vcgi:esiteid" v="86686"/>
  </node>
  <node id="-1000" visible="true" lat="42.97922818" lon="-72.88031461">
    <tag k="addr:city" v="Dover"/>
    <tag k="addr:housenumber" v="265"/>
    <tag k="addr:street" v="Blue Brook Road"/>
    <tag k="addr:state" v="VT"/>
    <tag k="ref:vcgi:esiteid" v="86687"/>
  </node>
  <node id="-1001" visible="true" lat="42.98003427" lon="-72.88028065">
    <tag k="addr:city" v="Dover"/>
    <tag k="addr:housenumber" v="268"/>
    <tag k="addr:street" v="Blue Brook Road"/>
    <tag k="addr:state" v="VT"/>
    <tag k="ref:vcgi:esiteid" v="86688"/>
  </node>
  <node id="-1002" visible="true" lat="42.98082575" lon="-72.8812042">
    <tag k="addr:city" v="Dover"/>
    <tag k="addr:housenumber" v="278"/>
    <tag k="addr:street" v="Blue Brook Road"/>
    <tag k="addr:state" v="VT"/>
    <tag k="ref:vcgi:esiteid" v="86689"/>
  </node>
  <node id="-1003" visible="true" lat="42.98101627" lon="-72.88234983">
    <tag k="addr:city" v="Dover"/>
    <tag k="addr:housenumber" v="284"/>
    <tag k="addr:street" v="Blue Brook Road"/>
    <tag k="addr:state" v="VT"/>
    <tag k="ref:vcgi:esiteid" v="86690"/>
  </node>
  <node id="-1004" visible="true" lat="42.97968485" lon="-72.88221701">
    <tag k="addr:city" v="Dover"/>
    <tag k="addr:housenumber" v="277"/>
    <tag k="addr:street" v="Blue Brook Road"/>
    <tag k="addr:state" v="VT"/>
    <tag k="ref:vcgi:esiteid" v="86691"/>
  </node>
  <node id="-1005" visible="true" lat="42.9801843" lon="-72.88328669">
    <tag k="addr:city" v="Dover"/>
    <tag k="addr:housenumber" v="30"/>
    <tag k="addr:street" v="Ahmeek Road"/>
    <tag k="addr:state" v="VT"/>
    <tag k="ref:vcgi:esiteid" v="86692"/>
  </node>
  <node id="-1006" visible="true" lat="42.98026876" lon="-72.88366869">
    <tag k="addr:city" v="Dover"/>
    <tag k="addr:housenumber" v="28"/>
    <tag k="addr:street" v="Ahmeek Road"/>
    <tag k="addr:state" v="VT"/>
    <tag k="ref:vcgi:esiteid" v="86693"/>
  </node>
  <node id="-1007" visible="true" lat="42.98038183" lon="-72.88404309">
    <tag k="addr:city" v="Dover"/>
    <tag k="addr:housenumber" v="24"/>
    <tag k="addr:street" v="Ahmeek Road"/>
    <tag k="addr:state" v="VT"/>
    <tag k="ref:vcgi:esiteid" v="86694"/>
  </node>
  <node id="-1008" visible="true" lat="42.98083961" lon="-72.88389802">
    <tag k="addr:city" v="Dover"/>
    <tag k="addr:housenumber" v="25"/>
    <tag k="addr:street" v="Ahmeek Road"/>
    <tag k="addr:state" v="VT"/>
    <tag k="ref:vcgi:esiteid" v="86695"/>
  </node>
  <node id="-1009" visible="true" lat="42.98027006" lon="-72.88498442">
    <tag k="addr:city" v="Dover"/>
    <tag k="addr:housenumber" v="20"/>
    <tag k="addr:street" v="Ahmeek Road"/>
    <tag k="addr:state" v="VT"/>
    <tag k="ref:vcgi:esiteid" v="86696"/>
  </node>
  <node id="-1010" visible="true" lat="42.98095196" lon="-72.88538171">
    <tag k="addr:city" v="Dover"/>
    <tag k="addr:housenumber" v="15"/>
    <tag k="addr:street" v="Ahmeek Road"/>
    <tag k="addr:state" v="VT"/>
    <tag k="ref:vcgi:esiteid" v="86697"/>
  </node>
  <node id="-1011" visible="true" lat="42.98022661" lon="-72.88600402">
    <tag k="addr:city" v="Dover"/>
    <tag k="addr:housenumber" v="16"/>
    <tag k="addr:street" v="Ahmeek Road"/>
    <tag k="addr:state" v="VT"/>
    <tag k="ref:vcgi:esiteid" v="86698"/>
  </node>
  <node id="-1012" visible="true" lat="42.98094707" lon="-72.88593845">
    <tag k="addr:city" v="Dover"/>
    <tag k="addr:housenumber" v="13"/>
    <tag k="addr:street" v="Ahmeek Road"/>
    <tag k="addr:state" v="VT"/>
    <tag k="ref:vcgi:esiteid" v="86699"/>
  </node>
  <node id="-1013" visible="true" lat="42.98000221" lon="-72.88643859">
    <tag k="addr:city" v="Dover"/>
    <tag k="addr:housenumber" v="12"/>
    <tag k="addr:street" v="Ahmeek Road"/>
    <tag k="addr:state" v="VT"/>
    <tag k="ref:vcgi:esiteid" v="86700"/>
  </node>
  <node id="-1015" visible="true" lat="42.98111426" lon="-72.88720852">
    <tag k="addr:city" v="Dover"/>
    <tag k="addr:housenumber" v="9"/>
    <tag k="addr:street" v="Ahmeek Road"/>
    <tag k="addr:state" v="VT"/>
    <tag k="ref:vcgi:esiteid" v="86702"/>
  </node>
  <node id="-1016" visible="true" lat="42.98116171" lon="-72.88759343">
    <tag k="addr:city" v="Dover"/>
    <tag k="addr:housenumber" v="5"/>
    <tag k="addr:street" v="Ahmeek Road"/>
    <tag k="addr:state" v="VT"/>
    <tag k="ref:vcgi:esiteid" v="86703"/>
  </node>
  <node id="-1017" visible="true" lat="42.98112581" lon="-72.88806681">
    <tag k="addr:city" v="Dover"/>
    <tag k="addr:housenumber" v="1"/>
    <tag k="addr:street" v="Ahmeek Road"/>
    <tag k="addr:state" v="VT"/>
    <tag k="ref:vcgi:esiteid" v="86704"/>
  </node>
  <node id="-1018" visible="true" lat="42.98145483" lon="-72.88791913">
    <tag k="addr:city" v="Dover"/>
    <tag k="addr:housenumber" v="3"/>
    <tag k="addr:street" v="Ahmeek Road"/>
    <tag k="addr:state" v="VT"/>
    <tag k="ref:vcgi:esiteid" v="86705"/>
  </node>
  <node id="-1019" visible="true" lat="42.98143072" lon="-72.8882849">
    <tag k="addr:city" v="Dover"/>
    <tag k="addr:housenumber" v="526"/>
    <tag k="addr:street" v="Vermont Route 100"/>
    <tag k="addr:state" v="VT"/>
    <tag k="ref:vcgi:esiteid" v="86706"/>
  </node>
  <node id="-1020" visible="true" lat="42.98612945" lon="-72.88827554">
    <tag k="addr:city" v="Dover"/>
    <tag k="addr:housenumber" v="327"/>
    <tag k="addr:street" v="Blue Brook Road"/>
    <tag k="addr:state" v="VT"/>
    <tag k="ref:vcgi:esiteid" v="86707"/>
  </node>
  <node id="-1021" visible="true" lat="42.98469683" lon="-72.88083104">
    <tag k="addr:city" v="Dover"/>
    <tag k="addr:housenumber" v="7"/>
    <tag k="addr:street" v="Wild Apple Lane"/>
    <tag k="addr:state" v="VT"/>
    <tag k="ref:vcgi:esiteid" v="86708"/>
  </node>
  <node id="-1022" visible="true" lat="42.97947556" lon="-72.90033295">
    <tag k="addr:city" v="Dover"/>
    <tag k="addr:housenumber" v="38"/>
    <tag k="addr:street" v="Greene Road"/>
    <tag k="addr:state" v="VT"/>
    <tag k="ref:vcgi:esiteid" v="86709"/>
  </node>
  <node id="-1024" visible="true" lat="42.99078614" lon="-72.89444765">
    <tag k="addr:city" v="Dover"/>
    <tag k="addr:housenumber" v="79"/>
    <tag k="addr:street" v="Far Beyond Road"/>
    <tag k="addr:state" v="VT"/>
    <tag k="ref:vcgi:esiteid" v="86711"/>
  </node>
  <node id="-1025" visible="true" lat="42.98774493" lon="-72.88929123">
    <tag k="addr:city" v="Dover"/>
    <tag k="addr:housenumber" v="561"/>
    <tag k="addr:street" v="Vermont Route 100"/>
    <tag k="addr:state" v="VT"/>
    <tag k="ref:vcgi:esiteid" v="86712"/>
  </node>
  <node id="-1028" visible="true" lat="42.98826584" lon="-72.88738687">
    <tag k="addr:city" v="Dover"/>
    <tag k="addr:housenumber" v="344"/>
    <tag k="addr:street" v="Blue Brook Road"/>
    <tag k="addr:state" v="VT"/>
    <tag k="ref:vcgi:esiteid" v="86715"/>
  </node>
  <node id="-1029" visible="true" lat="42.99063335" lon="-72.88765092">
    <tag k="addr:city" v="Dover"/>
    <tag k="addr:housenumber" v="5"/>
    <tag k="addr:street" v="Duncan Road"/>
    <tag k="addr:state" v="VT"/>
    <tag k="ref:vcgi:esiteid" v="86716"/>
  </node>
  <node id="-1031" visible="true" lat="42.99063502" lon="-72.88659195">
    <tag k="addr:city" v="Dover"/>
    <tag k="addr:housenumber" v="7"/>
    <tag k="addr:street" v="Duncan Road"/>
    <tag k="addr:state" v="VT"/>
    <tag k="ref:vcgi:esiteid" v="86718"/>
  </node>
  <node id="-1032" visible="true" lat="42.98942701" lon="-72.88531909">
    <tag k="addr:city" v="Dover"/>
    <tag k="addr:housenumber" v="19"/>
    <tag k="addr:street" v="Duncan Road"/>
    <tag k="addr:state" v="VT"/>
    <tag k="ref:vcgi:esiteid" v="86719"/>
  </node>
  <node id="-1033" visible="true" lat="42.98555774" lon="-72.88016008">
    <tag k="addr:city" v="Dover"/>
    <tag k="addr:housenumber" v="13"/>
    <tag k="addr:street" v="Wild Apple Lane"/>
    <tag k="addr:state" v="VT"/>
    <tag k="ref:vcgi:esiteid" v="86720"/>
  </node>
  <node id="-1034" visible="true" lat="42.9845138" lon="-72.87952299">
    <tag k="addr:city" v="Dover"/>
    <tag k="addr:housenumber" v="6"/>
    <tag k="addr:street" v="Wild Apple Lane"/>
    <tag k="addr:state" v="VT"/>
    <tag k="ref:vcgi:esiteid" v="86721"/>
  </node>
  <node id="-1035" visible="true" lat="42.98384748" lon="-72.8804999">
    <tag k="addr:city" v="Dover"/>
    <tag k="addr:housenumber" v="3"/>
    <tag k="addr:street" v="Wild Apple Lane"/>
    <tag k="addr:state" v="VT"/>
    <tag k="ref:vcgi:esiteid" v="86722"/>
  </node>
  <node id="-1037" visible="true" lat="42.98356543" lon="-72.87936923">
    <tag k="addr:city" v="Dover"/>
    <tag k="addr:housenumber" v="33"/>
    <tag k="addr:street" v="Upton Road"/>
    <tag k="addr:state" v="VT"/>
    <tag k="ref:vcgi:esiteid" v="86724"/>
  </node>
  <node id="-1038" visible="true" lat="42.98325433" lon="-72.88009917">
    <tag k="addr:city" v="Dover"/>
    <tag k="addr:housenumber" v="34"/>
    <tag k="addr:street" v="Upton Road"/>
    <tag k="addr:state" v="VT"/>
    <tag k="ref:vcgi:esiteid" v="86725"/>
  </node>
  <node id="-1039" visible="true" lat="42.98064408" lon="-72.87948362">
    <tag k="addr:city" v="Dover"/>
    <tag k="addr:housenumber" v="15"/>
    <tag k="addr:street" v="View Point Road"/>
    <tag k="addr:state" v="VT"/>
    <tag k="ref:vcgi:esiteid" v="86726"/>
  </node>
  <node id="-1041" visible="true" lat="42.97874924" lon="-72.87860004">
    <tag k="addr:city" v="Dover"/>
    <tag k="addr:housenumber" v="256"/>
    <tag k="addr:street" v="Blue Brook Road"/>
    <tag k="addr:state" v="VT"/>
    <tag k="ref:vcgi:esiteid" v="86728"/>
  </node>
  <node id="-1042" visible="true" lat="42.97861368" lon="-72.87810874">
    <tag k="addr:city" v="Dover"/>
    <tag k="addr:housenumber" v="254"/>
    <tag k="addr:street" v="Blue Brook Road"/>
    <tag k="addr:state" v="VT"/>
    <tag k="ref:vcgi:esiteid" v="86729"/>
  </node>
  <node id="-1043" visible="true" lat="42.97845455" lon="-72.87782751">
    <tag k="addr:city" v="Dover"/>
    <tag k="addr:housenumber" v="250"/>
    <tag k="addr:street" v="Blue Brook Road"/>
    <tag k="addr:state" v="VT"/>
    <tag k="ref:vcgi:esiteid" v="86730"/>
  </node>
  <node id="-1044" visible="true" lat="42.97847545" lon="-72.87669102">
    <tag k="addr:city" v="Dover"/>
    <tag k="addr:housenumber" v="246"/>
    <tag k="addr:street" v="Blue Brook Road"/>
    <tag k="addr:state" v="VT"/>
    <tag k="ref:vcgi:esiteid" v="86731"/>
  </node>
  <node id="-1045" visible="true" lat="42.97758971" lon="-72.87660776">
    <tag k="addr:city" v="Dover"/>
    <tag k="addr:housenumber" v="242"/>
    <tag k="addr:street" v="Blue Brook Road"/>
    <tag k="addr:state" v="VT"/>
    <tag k="ref:vcgi:esiteid" v="86732"/>
  </node>
  <node id="-1046" visible="true" lat="42.9774617" lon="-72.87729205">
    <tag k="addr:city" v="Dover"/>
    <tag k="addr:housenumber" v="241"/>
    <tag k="addr:street" v="Blue Brook Road"/>
    <tag k="addr:state" v="VT"/>
    <tag k="ref:vcgi:esiteid" v="86733"/>
  </node>
  <node id="-1047" visible="true" lat="42.97678441" lon="-72.87640044">
    <tag k="addr:city" v="Dover"/>
    <tag k="addr:housenumber" v="235"/>
    <tag k="addr:street" v="Blue Brook Road"/>
    <tag k="addr:state" v="VT"/>
    <tag k="ref:vcgi:esiteid" v="86734"/>
  </node>
  <node id="-1048" visible="true" lat="42.97685719" lon="-72.87686798">
    <tag k="addr:city" v="Dover"/>
    <tag k="addr:housenumber" v="237"/>
    <tag k="addr:street" v="Blue Brook Road"/>
    <tag k="addr:state" v="VT"/>
    <tag k="ref:vcgi:esiteid" v="86735"/>
  </node>
  <node id="-1152" visible="true" lat="42.94448962" lon="-72.8028112">
    <tag k="addr:city" v="Dover"/>
    <tag k="addr:housenumber" v="22"/>
    <tag k="addr:street" v="Holland Road"/>
    <tag k="addr:state" v="VT"/>
    <tag k="ref:vcgi:esiteid" v="86840"/>
  </node>
  <node id="-1430" visible="true" lat="42.92302481" lon="-72.78128488">
    <tag k="addr:city" v="Dover"/>
    <tag k="addr:housenumber" v="179"/>
    <tag k="addr:street" v="Yeaw Road"/>
    <tag k="addr:state" v="VT"/>
    <tag k="ref:vcgi:esiteid" v="87118"/>
  </node>
  <node id="-1662" visible="true" lat="42.96315789" lon="-72.89253006">
    <tag k="addr:city" v="Dover"/>
    <tag k="addr:housenumber" v="1"/>
    <tag k="addr:street" v="Townhouse Square"/>
    <tag k="addr:state" v="VT"/>
    <tag k="ref:vcgi:esiteid" v="87362"/>
  </node>
  <node id="-1666" visible="true" lat="42.9599288" lon="-72.88840103">
    <tag k="addr:city" v="Dover"/>
    <tag k="addr:housenumber" v="260"/>
    <tag k="addr:street" v="Handle Road"/>
    <tag k="addr:state" v="VT"/>
    <tag k="ref:vcgi:esiteid" v="87370"/>
  </node>
  <node id="-1667" visible="true" lat="42.95760661" lon="-72.88956805">
    <tag k="addr:city" v="Dover"/>
    <tag k="addr:housenumber" v="19"/>
    <tag k="addr:street" v="Carinthia Lane"/>
    <tag k="addr:state" v="VT"/>
    <tag k="ref:vcgi:esiteid" v="87373"/>
  </node>
  <node id="-1668" visible="true" lat="42.9579802" lon="-72.88949774">
    <tag k="addr:city" v="Dover"/>
    <tag k="addr:housenumber" v="2"/>
    <tag k="addr:street" v="Carinthia Lane"/>
    <tag k="addr:state" v="VT"/>
    <tag k="ref:vcgi:esiteid" v="87374"/>
  </node>
  <node id="-1669" visible="true" lat="42.95640236" lon="-72.89125608">
    <tag k="addr:city" v="Dover"/>
    <tag k="addr:housenumber" v="33"/>
    <tag k="addr:street" v="Carinthia Road"/>
    <tag k="addr:state" v="VT"/>
    <tag k="ref:vcgi:esiteid" v="87375"/>
  </node>
  <node id="-1670" visible="true" lat="42.95647814" lon="-72.89086799">
    <tag k="addr:city" v="Dover"/>
    <tag k="addr:housenumber" v="39"/>
    <tag k="addr:street" v="Carinthia Road"/>
    <tag k="addr:state" v="VT"/>
    <tag k="ref:vcgi:esiteid" v="87376"/>
  </node>
  <node id="-1671" visible="true" lat="42.95431963" lon="-72.89052036">
    <tag k="addr:city" v="Dover"/>
    <tag k="addr:housenumber" v="215"/>
    <tag k="addr:street" v="Handle Road"/>
    <tag k="addr:state" v="VT"/>
    <tag k="ref:vcgi:esiteid" v="87377"/>
  </node>
  <node id="-1672" visible="true" lat="42.95367488" lon="-72.88456464">
    <tag k="addr:city" v="Dover"/>
    <tag k="addr:housenumber" v="4"/>
    <tag k="addr:street" v="Christmas Tree Lane"/>
    <tag k="addr:state" v="VT"/>
    <tag k="ref:vcgi:esiteid" v="87379"/>
  </node>
  <node id="-1674" visible="true" lat="42.95018641" lon="-72.88858285">
    <tag k="addr:city" v="Dover"/>
    <tag k="addr:housenumber" v="34"/>
    <tag k="addr:street" v="Alpine Loop"/>
    <tag k="addr:state" v="VT"/>
    <tag k="ref:vcgi:esiteid" v="87382"/>
  </node>
  <node id="-1676" visible="true" lat="42.9502088" lon="-72.88944501">
    <tag k="addr:city" v="Dover"/>
    <tag k="addr:housenumber" v="30"/>
    <tag k="addr:street" v="Alpine Loop"/>
    <tag k="addr:state" v="VT"/>
    <tag k="ref:vcgi:esiteid" v="87384"/>
  </node>
  <node id="-1677" visible="true" lat="42.95054349" lon="-72.8897442">
    <tag k="addr:city" v="Dover"/>
    <tag k="addr:housenumber" v="27"/>
    <tag k="addr:street" v="Alpine Loop"/>
    <tag k="addr:state" v="VT"/>
    <tag k="ref:vcgi:esiteid" v="87385"/>
  </node>
  <node id="-1684" visible="true" lat="42.94671864" lon="-72.88860736">
    <tag k="addr:city" v="Dover"/>
    <tag k="addr:housenumber" v="3"/>
    <tag k="addr:street" v="Polar Bear South"/>
    <tag k="addr:state" v="VT"/>
    <tag k="ref:vcgi:esiteid" v="87404"/>
  </node>
  <node id="-1691" visible="true" lat="42.94928645" lon="-72.8899055">
    <tag k="addr:city" v="Dover"/>
    <tag k="addr:housenumber" v="7"/>
    <tag k="addr:street" v="Alpine Loop"/>
    <tag k="addr:state" v="VT"/>
    <tag k="ref:vcgi:esiteid" v="87412"/>
  </node>
  <node id="-1692" visible="true" lat="42.94959614" lon="-72.8890849">
    <tag k="addr:city" v="Dover"/>
    <tag k="addr:housenumber" v="4"/>
    <tag k="addr:street" v="Alpine Loop"/>
    <tag k="addr:state" v="VT"/>
    <tag k="ref:vcgi:esiteid" v="87413"/>
  </node>
  <node id="-1696" visible="true" lat="42.94649952" lon="-72.8963393">
    <tag k="addr:city" v="Dover"/>
    <tag k="addr:housenumber" v="12"/>
    <tag k="addr:street" v="Bear Paw Left"/>
    <tag k="addr:state" v="VT"/>
    <tag k="ref:vcgi:esiteid" v="87418"/>
  </node>
  <node id="-1697" visible="true" lat="42.94743298" lon="-72.89203682">
    <tag k="addr:city" v="Dover"/>
    <tag k="addr:housenumber" v="6"/>
    <tag k="addr:street" v="Brumms Way"/>
    <tag k="addr:state" v="VT"/>
    <tag k="ref:vcgi:esiteid" v="87420"/>
  </node>
  <node id="-1699" visible="true" lat="42.94299082" lon="-72.88742894">
    <tag k="addr:city" v="Dover"/>
    <tag k="addr:housenumber" v="136"/>
    <tag k="addr:street" v="Handle Road"/>
    <tag k="addr:state" v="VT"/>
    <tag k="ref:vcgi:esiteid" v="87424"/>
  </node>
  <node id="-1703" visible="true" lat="42.96780592" lon="-72.89047874">
    <tag k="addr:city" v="Dover"/>
    <tag k="addr:housenumber" v="1"/>
    <tag k="addr:street" v="Snow Tree Lane"/>
    <tag k="addr:state" v="VT"/>
    <tag k="ref:vcgi:esiteid" v="87429"/>
  </node>
  <node id="-1718" visible="true" lat="42.97511447" lon="-72.89342105">
    <tag k="addr:city" v="Dover"/>
    <tag k="addr:housenumber" v="6"/>
    <tag k="addr:street" v="Apple Hill Lane"/>
    <tag k="addr:state" v="VT"/>
    <tag k="ref:vcgi:esiteid" v="87454"/>
  </node>
  <node id="-1722" visible="true" lat="42.97881594" lon="-72.89272894">
    <tag k="addr:city" v="Dover"/>
    <tag k="addr:housenumber" v="52"/>
    <tag k="addr:street" v="Upper Handle Road"/>
    <tag k="addr:state" v="VT"/>
    <tag k="ref:vcgi:esiteid" v="87458"/>
  </node>
  <node id="-1725" visible="true" lat="42.97283771" lon="-72.89453286">
    <tag k="addr:city" v="Dover"/>
    <tag k="addr:housenumber" v="40"/>
    <tag k="addr:street" v="North Access Road"/>
    <tag k="addr:state" v="VT"/>
    <tag k="ref:vcgi:esiteid" v="87465"/>
  </node>
  <node id="-1726" visible="true" lat="42.97309344" lon="-72.89421149">
    <tag k="addr:city" v="Dover"/>
    <tag k="addr:housenumber" v="42"/>
    <tag k="addr:street" v="North Access Road"/>
    <tag k="addr:state" v="VT"/>
    <tag k="ref:vcgi:esiteid" v="87466"/>
  </node>
  <node id="-1728" visible="true" lat="42.97160909" lon="-72.89897809">
    <tag k="addr:city" v="Dover"/>
    <tag k="addr:housenumber" v="24"/>
    <tag k="addr:street" v="North Branch Road"/>
    <tag k="addr:state" v="VT"/>
    <tag k="ref:vcgi:esiteid" v="87468"/>
  </node>
  <node id="-1729" visible="true" lat="42.96993073" lon="-72.89958218">
    <tag k="addr:city" v="Dover"/>
    <tag k="addr:housenumber" v="13"/>
    <tag k="addr:street" v="Discovery Drive"/>
    <tag k="addr:state" v="VT"/>
    <tag k="ref:vcgi:esiteid" v="87469"/>
  </node>
  <node id="-1730" visible="true" lat="42.96971173" lon="-72.89923088">
    <tag k="addr:city" v="Dover"/>
    <tag k="addr:housenumber" v="11"/>
    <tag k="addr:street" v="Discovery Drive"/>
    <tag k="addr:state" v="VT"/>
    <tag k="ref:vcgi:esiteid" v="87470"/>
  </node>
  <node id="-1731" visible="true" lat="42.97025539" lon="-72.89902811">
    <tag k="addr:city" v="Dover"/>
    <tag k="addr:housenumber" v="10"/>
    <tag k="addr:street" v="Discovery Drive"/>
    <tag k="addr:state" v="VT"/>
    <tag k="ref:vcgi:esiteid" v="87471"/>
  </node>
  <node id="-1732" visible="true" lat="42.97251875" lon="-72.89313202">
    <tag k="addr:city" v="Dover"/>
    <tag k="addr:housenumber" v="36"/>
    <tag k="addr:street" v="North Access Road"/>
    <tag k="addr:state" v="VT"/>
    <tag k="ref:vcgi:esiteid" v="87477"/>
  </node>
  <node id="-1733" visible="true" lat="42.97348812" lon="-72.89490933">
    <tag k="addr:city" v="Dover"/>
    <tag k="addr:housenumber" v="10"/>
    <tag k="addr:street" v="Snow Vidda Loop"/>
    <tag k="addr:state" v="VT"/>
    <tag k="ref:vcgi:esiteid" v="87478"/>
  </node>
  <node id="-1736" visible="true" lat="42.97489935" lon="-72.89051917">
    <tag k="addr:city" v="Dover"/>
    <tag k="addr:housenumber" v="13"/>
    <tag k="addr:street" v="Lower Highlands Road"/>
    <tag k="addr:state" v="VT"/>
    <tag k="ref:vcgi:esiteid" v="87481"/>
  </node>
  <node id="-1743" visible="true" lat="42.92764285" lon="-72.88934168">
    <tag k="addr:city" v="Dover"/>
    <tag k="addr:housenumber" v="4"/>
    <tag k="addr:street" v="Carriage House Drive"/>
    <tag k="addr:state" v="VT"/>
    <tag k="ref:vcgi:esiteid" v="87492"/>
  </node>
  <node id="-1754" visible="true" lat="42.97609027" lon="-72.88922326">
    <tag k="addr:city" v="Dover"/>
    <tag k="addr:housenumber" v="6"/>
    <tag k="addr:street" v="Upper Highlands Loop"/>
    <tag k="addr:state" v="VT"/>
    <tag k="ref:vcgi:esiteid" v="87522"/>
  </node>
  <node id="-1755" visible="true" lat="42.97632112" lon="-72.88983072">
    <tag k="addr:city" v="Dover"/>
    <tag k="addr:housenumber" v="12"/>
    <tag k="addr:street" v="Upper Highlands Loop"/>
    <tag k="addr:state" v="VT"/>
    <tag k="ref:vcgi:esiteid" v="87523"/>
  </node>
  <node id="-1756" visible="true" lat="42.97715093" lon="-72.89155127">
    <tag k="addr:city" v="Dover"/>
    <tag k="addr:housenumber" v="19"/>
    <tag k="addr:street" v="Upper Highlands Loop"/>
    <tag k="addr:state" v="VT"/>
    <tag k="ref:vcgi:esiteid" v="87524"/>
  </node>
  <node id="-1757" visible="true" lat="42.97956574" lon="-72.89050934">
    <tag k="addr:city" v="Dover"/>
    <tag k="addr:housenumber" v="40"/>
    <tag k="addr:street" v="Upper Highlands Loop"/>
    <tag k="addr:state" v="VT"/>
    <tag k="ref:vcgi:esiteid" v="87525"/>
  </node>
  <node id="-1758" visible="true" lat="42.97838105" lon="-72.89028878">
    <tag k="addr:city" v="Dover"/>
    <tag k="addr:housenumber" v="25"/>
    <tag k="addr:street" v="Upper Highlands Loop"/>
    <tag k="addr:state" v="VT"/>
    <tag k="ref:vcgi:esiteid" v="87526"/>
  </node>
  <node id="-1759" visible="true" lat="42.97749964" lon="-72.89011041">
    <tag k="addr:city" v="Dover"/>
    <tag k="addr:housenumber" v="26"/>
    <tag k="addr:street" v="Upper Highlands Loop"/>
    <tag k="addr:state" v="VT"/>
    <tag k="ref:vcgi:esiteid" v="87527"/>
  </node>
  <node id="-1761" visible="true" lat="42.97629789" lon="-72.8887115">
    <tag k="addr:city" v="Dover"/>
    <tag k="addr:housenumber" v="2"/>
    <tag k="addr:street" v="Catamount Lane"/>
    <tag k="addr:state" v="VT"/>
    <tag k="ref:vcgi:esiteid" v="87529"/>
  </node>
  <node id="-1763" visible="true" lat="42.9759346" lon="-72.89043536">
    <tag k="addr:city" v="Dover"/>
    <tag k="addr:housenumber" v="11"/>
    <tag k="addr:street" v="Upper Highlands Loop"/>
    <tag k="addr:state" v="VT"/>
    <tag k="ref:vcgi:esiteid" v="87531"/>
  </node>
  <node id="-1764" visible="true" lat="42.97326095" lon="-72.88355804">
    <tag k="addr:city" v="Dover"/>
    <tag k="addr:housenumber" v="44"/>
    <tag k="addr:street" v="Tanglewood Lane"/>
    <tag k="addr:state" v="VT"/>
    <tag k="ref:vcgi:esiteid" v="87533"/>
  </node>
  <node id="-1765" visible="true" lat="42.9721614" lon="-72.88284103">
    <tag k="addr:city" v="Dover"/>
    <tag k="addr:housenumber" v="54"/>
    <tag k="addr:street" v="Tanglewood Lane"/>
    <tag k="addr:state" v="VT"/>
    <tag k="ref:vcgi:esiteid" v="87541"/>
  </node>
  <node id="-1781" visible="true" lat="42.98336437" lon="-72.87858948">
    <tag k="addr:city" v="Dover"/>
    <tag k="addr:housenumber" v="42"/>
    <tag k="addr:street" v="Upton Road"/>
    <tag k="addr:state" v="VT"/>
    <tag k="ref:vcgi:esiteid" v="87567"/>
  </node>
  <node id="-1782" visible="true" lat="42.98162711" lon="-72.88371583">
    <tag k="addr:city" v="Dover"/>
    <tag k="addr:housenumber" v="293"/>
    <tag k="addr:street" v="Blue Brook Road"/>
    <tag k="addr:state" v="VT"/>
    <tag k="ref:vcgi:esiteid" v="87568"/>
  </node>
  <node id="-1788" visible="true" lat="42.97476605" lon="-72.88247647">
    <tag k="addr:city" v="Dover"/>
    <tag k="addr:housenumber" v="34"/>
    <tag k="addr:street" v="Gaye Lane"/>
    <tag k="addr:state" v="VT"/>
    <tag k="ref:vcgi:esiteid" v="87574"/>
  </node>
  <node id="-1789" visible="true" lat="42.9781957" lon="-72.88249119">
    <tag k="addr:city" v="Dover"/>
    <tag k="addr:housenumber" v="12"/>
    <tag k="addr:street" v="Gaye Lane"/>
    <tag k="addr:state" v="VT"/>
    <tag k="ref:vcgi:esiteid" v="87575"/>
  </node>
  <node id="-1792" visible="true" lat="42.97888116" lon="-72.87871594">
    <tag k="addr:city" v="Dover"/>
    <tag k="addr:housenumber" v="258"/>
    <tag k="addr:street" v="Blue Brook Road"/>
    <tag k="addr:state" v="VT"/>
    <tag k="ref:vcgi:esiteid" v="87578"/>
  </node>
  <node id="-1816" visible="true" lat="42.97246068" lon="-72.88226791">
    <tag k="addr:city" v="Dover"/>
    <tag k="addr:housenumber" v="71"/>
    <tag k="addr:street" v="Tanglewood Lane"/>
    <tag k="addr:state" v="VT"/>
    <tag k="ref:vcgi:esiteid" v="87602"/>
  </node>
  <node id="-1817" visible="true" lat="42.9721789" lon="-72.88477947">
    <tag k="addr:city" v="Dover"/>
    <tag k="addr:housenumber" v="6"/>
    <tag k="addr:street" v="White Oaks Loop"/>
    <tag k="addr:state" v="VT"/>
    <tag k="ref:vcgi:esiteid" v="87609"/>
  </node>
  <node id="-1818" visible="true" lat="42.97005031" lon="-72.88326645">
    <tag k="addr:city" v="Dover"/>
    <tag k="addr:housenumber" v="26"/>
    <tag k="addr:street" v="White Oaks Loop"/>
    <tag k="addr:state" v="VT"/>
    <tag k="ref:vcgi:esiteid" v="87614"/>
  </node>
  <node id="-1849" visible="true" lat="42.93685426" lon="-72.866951">
    <tag k="addr:city" v="Dover"/>
    <tag k="addr:housenumber" v="93"/>
    <tag k="addr:street" v="Crosstown Road"/>
    <tag k="addr:state" v="VT"/>
    <tag k="ref:vcgi:esiteid" v="87649"/>
  </node>
  <node id="-2067" visible="true" lat="42.98628315" lon="-72.77733397">
    <tag k="addr:city" v="Dover"/>
    <tag k="addr:housenumber" v="289"/>
    <tag k="addr:street" v="North Street"/>
    <tag k="addr:state" v="VT"/>
    <tag k="ref:vcgi:esiteid" v="87872"/>
  </node>
  <node id="-2069" visible="true" lat="42.98628702" lon="-72.77573322">
    <tag k="addr:city" v="Dover"/>
    <tag k="addr:housenumber" v="286"/>
    <tag k="addr:street" v="North Street"/>
    <tag k="addr:state" v="VT"/>
    <tag k="ref:vcgi:esiteid" v="87874"/>
  </node>
  <node id="-2075" visible="true" lat="42.97323284" lon="-72.90088914">
    <tag k="addr:city" v="Dover"/>
    <tag k="addr:housenumber" v="46"/>
    <tag k="addr:street" v="Snow Vidda Loop"/>
    <tag k="addr:state" v="VT"/>
    <tag k="ref:vcgi:esiteid" v="87880"/>
  </node>
  <node id="-2118" visible="true" lat="42.94777244" lon="-72.89288583">
    <tag k="addr:city" v="Dover"/>
    <tag k="addr:housenumber" v="7"/>
    <tag k="addr:street" v="Brumms Way"/>
    <tag k="addr:state" v="VT"/>
    <tag k="ref:vcgi:esiteid" v="87927"/>
  </node>
  <node id="-2119" visible="true" lat="42.94780651" lon="-72.89228132">
    <tag k="addr:city" v="Dover"/>
    <tag k="addr:housenumber" v="8"/>
    <tag k="addr:street" v="Brumms Way"/>
    <tag k="addr:state" v="VT"/>
    <tag k="ref:vcgi:esiteid" v="87932"/>
  </node>
  <node id="-2120" visible="true" lat="42.94787691" lon="-72.88857603">
    <tag k="addr:city" v="Dover"/>
    <tag k="addr:housenumber" v="4"/>
    <tag k="addr:street" v="Polar Bear North"/>
    <tag k="addr:state" v="VT"/>
    <tag k="ref:vcgi:esiteid" v="87967"/>
  </node>
  <node id="-2121" visible="true" lat="42.94760942" lon="-72.88895604">
    <tag k="addr:city" v="Dover"/>
    <tag k="addr:housenumber" v="2"/>
    <tag k="addr:street" v="Polar Bear North"/>
    <tag k="addr:state" v="VT"/>
    <tag k="ref:vcgi:esiteid" v="87972"/>
  </node>
  <node id="-2122" visible="true" lat="42.94764624" lon="-72.88974685">
    <tag k="addr:city" v="Dover"/>
    <tag k="addr:housenumber" v="5"/>
    <tag k="addr:street" v="Polar Bear North"/>
    <tag k="addr:state" v="VT"/>
    <tag k="ref:vcgi:esiteid" v="87977"/>
  </node>
  <node id="-2123" visible="true" lat="42.94766229" lon="-72.89031655">
    <tag k="addr:city" v="Dover"/>
    <tag k="addr:housenumber" v="7"/>
    <tag k="addr:street" v="Polar Bear North"/>
    <tag k="addr:state" v="VT"/>
    <tag k="ref:vcgi:esiteid" v="87982"/>
  </node>
  <node id="-2125" visible="true" lat="42.96190775" lon="-72.89340611">
    <tag k="addr:city" v="Dover"/>
    <tag k="addr:housenumber" v="1"/>
    <tag k="addr:street" v="Brookside Village Way"/>
    <tag k="addr:state" v="VT"/>
    <tag k="ref:vcgi:esiteid" v="88016"/>
  </node>
  <node id="-2126" visible="true" lat="42.9619945" lon="-72.89398532">
    <tag k="addr:city" v="Dover"/>
    <tag k="addr:housenumber" v="2"/>
    <tag k="addr:street" v="Brookside Village Way"/>
    <tag k="addr:state" v="VT"/>
    <tag k="ref:vcgi:esiteid" v="88017"/>
  </node>
  <node id="-2127" visible="true" lat="42.96224774" lon="-72.89421751">
    <tag k="addr:city" v="Dover"/>
    <tag k="addr:housenumber" v="2"/>
    <tag k="addr:street" v="Mountainside Village Way"/>
    <tag k="addr:state" v="VT"/>
    <tag k="ref:vcgi:esiteid" v="88037"/>
  </node>
  <node id="-2128" visible="true" lat="42.96205571" lon="-72.89477225">
    <tag k="addr:city" v="Dover"/>
    <tag k="addr:housenumber" v="3"/>
    <tag k="addr:street" v="Mountainside Village Way"/>
    <tag k="addr:state" v="VT"/>
    <tag k="ref:vcgi:esiteid" v="88051"/>
  </node>
  <node id="-2130" visible="true" lat="42.96859108" lon="-72.88659933">
    <tag k="addr:city" v="Dover"/>
    <tag k="addr:housenumber" v="4"/>
    <tag k="addr:street" v="Newfane Circle"/>
    <tag k="addr:state" v="VT"/>
    <tag k="ref:vcgi:esiteid" v="88125"/>
  </node>
  <node id="-2131" visible="true" lat="42.968216" lon="-72.88628143">
    <tag k="addr:city" v="Dover"/>
    <tag k="addr:housenumber" v="6"/>
    <tag k="addr:street" v="Newfane Circle"/>
    <tag k="addr:state" v="VT"/>
    <tag k="ref:vcgi:esiteid" v="88130"/>
  </node>
  <node id="-2139" visible="true" lat="42.94249439" lon="-72.86641642">
    <tag k="addr:city" v="Dover"/>
    <tag k="addr:housenumber" v="5"/>
    <tag k="addr:street" v="Spruce Haven Lane"/>
    <tag k="addr:state" v="VT"/>
    <tag k="ref:vcgi:esiteid" v="88236"/>
  </node>
  <node id="-2140" visible="true" lat="42.94222477" lon="-72.86626823">
    <tag k="addr:city" v="Dover"/>
    <tag k="addr:housenumber" v="7"/>
    <tag k="addr:street" v="Spruce Haven Lane"/>
    <tag k="addr:state" v="VT"/>
    <tag k="ref:vcgi:esiteid" v="88239"/>
  </node>
  <node id="-2141" visible="true" lat="42.96228472" lon="-72.89322594">
    <tag k="addr:city" v="Dover"/>
    <tag k="addr:housenumber" v="3"/>
    <tag k="addr:street" v="Trailside Village Way"/>
    <tag k="addr:state" v="VT"/>
    <tag k="ref:vcgi:esiteid" v="88248"/>
  </node>
  <node id="-2142" visible="true" lat="42.96261028" lon="-72.89291164">
    <tag k="addr:city" v="Dover"/>
    <tag k="addr:housenumber" v="4"/>
    <tag k="addr:street" v="Trailside Village Way"/>
    <tag k="addr:state" v="VT"/>
    <tag k="ref:vcgi:esiteid" v="88261"/>
  </node>
  <node id="-2143" visible="true" lat="42.97567111" lon="-72.89301036">
    <tag k="addr:city" v="Dover"/>
    <tag k="addr:housenumber" v="25"/>
    <tag k="addr:street" v="Upper Handle Road"/>
    <tag k="addr:state" v="VT"/>
    <tag k="ref:vcgi:esiteid" v="88316"/>
  </node>
  <node id="-2144" visible="true" lat="42.97116653" lon="-72.88372684">
    <tag k="addr:city" v="Dover"/>
    <tag k="addr:housenumber" v="18"/>
    <tag k="addr:street" v="White Oaks Loop"/>
    <tag k="addr:state" v="VT"/>
    <tag k="ref:vcgi:esiteid" v="88333"/>
  </node>
  <node id="-2145" visible="true" lat="42.96801084" lon="-72.88881098">
    <tag k="addr:city" v="Dover"/>
    <tag k="addr:housenumber" v="8"/>
    <tag k="addr:street" v="Tamarack Lane"/>
    <tag k="addr:state" v="VT"/>
    <tag k="ref:vcgi:esiteid" v="88369"/>
  </node>
  <node id="-2146" visible="true" lat="42.96867319" lon="-72.88912417">
    <tag k="addr:city" v="Dover"/>
    <tag k="addr:housenumber" v="10"/>
    <tag k="addr:street" v="Tamarack Lane"/>
    <tag k="addr:state" v="VT"/>
    <tag k="ref:vcgi:esiteid" v="88370"/>
  </node>
  <node id="-2147" visible="true" lat="42.96466592" lon="-72.88489534">
    <tag k="addr:city" v="Dover"/>
    <tag k="addr:housenumber" v="29"/>
    <tag k="addr:street" v="Dover Springs Lane"/>
    <tag k="addr:state" v="VT"/>
    <tag k="ref:vcgi:esiteid" v="88570"/>
  </node>
  <node id="-2148" visible="true" lat="42.96517179" lon="-72.88484346">
    <tag k="addr:city" v="Dover"/>
    <tag k="addr:housenumber" v="31"/>
    <tag k="addr:street" v="Dover Springs Lane"/>
    <tag k="addr:state" v="VT"/>
    <tag k="ref:vcgi:esiteid" v="88573"/>
  </node>
  <node id="-2149" visible="true" lat="42.96561395" lon="-72.88464415">
    <tag k="addr:city" v="Dover"/>
    <tag k="addr:housenumber" v="35"/>
    <tag k="addr:street" v="Dover Springs Lane"/>
    <tag k="addr:state" v="VT"/>
    <tag k="ref:vcgi:esiteid" v="88576"/>
  </node>
  <node id="-2150" visible="true" lat="42.96620254" lon="-72.88491648">
    <tag k="addr:city" v="Dover"/>
    <tag k="addr:housenumber" v="39"/>
    <tag k="addr:street" v="Dover Springs Lane"/>
    <tag k="addr:state" v="VT"/>
    <tag k="ref:vcgi:esiteid" v="88579"/>
  </node>
  <node id="-2153" visible="true" lat="42.97182214" lon="-72.90100783">
    <tag k="addr:city" v="Dover"/>
    <tag k="addr:housenumber" v="4"/>
    <tag k="addr:street" v="Slalom Lane"/>
    <tag k="addr:state" v="VT"/>
    <tag k="ref:vcgi:esiteid" v="88789"/>
  </node>
  <node id="-2154" visible="true" lat="42.97145946" lon="-72.90106689">
    <tag k="addr:city" v="Dover"/>
    <tag k="addr:housenumber" v="6"/>
    <tag k="addr:street" v="Slalom Lane"/>
    <tag k="addr:state" v="VT"/>
    <tag k="ref:vcgi:esiteid" v="88790"/>
  </node>
  <node id="-2158" visible="true" lat="42.97449455" lon="-72.88104661">
    <tag k="addr:city" v="Dover"/>
    <tag k="addr:housenumber" v="35"/>
    <tag k="addr:street" v="Gaye Lane"/>
    <tag k="addr:state" v="VT"/>
    <tag k="ref:vcgi:esiteid" v="88808"/>
  </node>
  <node id="-2159" visible="true" lat="42.95701745" lon="-72.89086432">
    <tag k="addr:city" v="Dover"/>
    <tag k="addr:housenumber" v="41"/>
    <tag k="addr:street" v="Carinthia Road"/>
    <tag k="addr:state" v="VT"/>
    <tag k="ref:vcgi:esiteid" v="88809"/>
  </node>
  <node id="-2164" visible="true" lat="42.96775521" lon="-72.88929637">
    <tag k="addr:city" v="Dover"/>
    <tag k="addr:housenumber" v="316"/>
    <tag k="addr:street" v="Handle Road"/>
    <tag k="addr:state" v="VT"/>
    <tag k="ref:vcgi:esiteid" v="88834"/>
  </node>
  <node id="-2165" visible="true" lat="42.9683554" lon="-72.88942682">
    <tag k="addr:city" v="Dover"/>
    <tag k="addr:housenumber" v="6"/>
    <tag k="addr:street" v="Tamarack Lane"/>
    <tag k="addr:state" v="VT"/>
    <tag k="ref:vcgi:esiteid" v="88835"/>
  </node>
  <node id="-2166" visible="true" lat="42.96906797" lon="-72.88904491">
    <tag k="addr:city" v="Dover"/>
    <tag k="addr:housenumber" v="328"/>
    <tag k="addr:street" v="Handle Road"/>
    <tag k="addr:state" v="VT"/>
    <tag k="ref:vcgi:esiteid" v="88836"/>
  </node>
  <node id="-2167" visible="true" lat="42.96939397" lon="-72.89026038">
    <tag k="addr:city" v="Dover"/>
    <tag k="addr:housenumber" v="327"/>
    <tag k="addr:street" v="Handle Road"/>
    <tag k="addr:state" v="VT"/>
    <tag k="ref:vcgi:esiteid" v="88837"/>
  </node>
  <node id="-2168" visible="true" lat="42.97011433" lon="-72.88972536">
    <tag k="addr:city" v="Dover"/>
    <tag k="addr:housenumber" v="332"/>
    <tag k="addr:street" v="Handle Road"/>
    <tag k="addr:state" v="VT"/>
    <tag k="ref:vcgi:esiteid" v="88838"/>
  </node>
  <node id="-2169" visible="true" lat="42.97186254" lon="-72.89275173">
    <tag k="addr:city" v="Dover"/>
    <tag k="addr:housenumber" v="27"/>
    <tag k="addr:street" v="North Access Road"/>
    <tag k="addr:state" v="VT"/>
    <tag k="ref:vcgi:esiteid" v="88841"/>
  </node>
  <node id="-2170" visible="true" lat="42.94957538" lon="-72.88899152">
    <tag k="addr:city" v="Dover"/>
    <tag k="addr:housenumber" v="2"/>
    <tag k="addr:street" v="Alpine Loop"/>
    <tag k="addr:state" v="VT"/>
    <tag k="ref:vcgi:esiteid" v="88846"/>
  </node>
  <node id="-2171" visible="true" lat="42.94375934" lon="-72.86543122">
    <tag k="addr:city" v="Dover"/>
    <tag k="addr:housenumber" v="16"/>
    <tag k="addr:street" v="Country Club Road"/>
    <tag k="addr:state" v="VT"/>
    <tag k="ref:vcgi:esiteid" v="88852"/>
  </node>
  <node id="-2177" visible="true" lat="42.96324315" lon="-72.89207981">
    <tag k="addr:city" v="Dover"/>
    <tag k="addr:housenumber" v="2"/>
    <tag k="addr:street" v="Townhouse Square"/>
    <tag k="addr:state" v="VT"/>
    <tag k="ref:vcgi:esiteid" v="88862"/>
  </node>
  <node id="-2186" visible="true" lat="42.96843379" lon="-72.8889441">
    <tag k="addr:city" v="Dover"/>
    <tag k="addr:housenumber" v="9"/>
    <tag k="addr:street" v="Tamarack Lane"/>
    <tag k="addr:state" v="VT"/>
    <tag k="ref:vcgi:esiteid" v="88873"/>
  </node>
  <node id="-2197" visible="true" lat="42.94108814" lon="-72.86761539">
    <tag k="addr:city" v="Dover"/>
    <tag k="addr:housenumber" v="2"/>
    <tag k="addr:street" v="Circle View Drive"/>
    <tag k="addr:state" v="VT"/>
    <tag k="ref:vcgi:esiteid" v="88886"/>
  </node>
  <node id="-2209" visible="true" lat="42.97567734" lon="-72.88121322">
    <tag k="addr:city" v="Dover"/>
    <tag k="addr:housenumber" v="27"/>
    <tag k="addr:street" v="Gaye Lane"/>
    <tag k="addr:state" v="VT"/>
    <tag k="ref:vcgi:esiteid" v="88902"/>
  </node>
  <node id="-2210" visible="true" lat="42.98021818" lon="-72.89708353">
    <tag k="addr:city" v="Dover"/>
    <tag k="addr:housenumber" v="18"/>
    <tag k="addr:street" v="Greene Road"/>
    <tag k="addr:state" v="VT"/>
    <tag k="ref:vcgi:esiteid" v="88903"/>
  </node>
  <node id="-2211" visible="true" lat="42.96909172" lon="-72.88946232">
    <tag k="addr:city" v="Dover"/>
    <tag k="addr:housenumber" v="326"/>
    <tag k="addr:street" v="Handle Road"/>
    <tag k="addr:state" v="VT"/>
    <tag k="ref:vcgi:esiteid" v="88904"/>
  </node>
  <node id="-2252" visible="true" lat="42.98346527" lon="-72.88227369">
    <tag k="addr:city" v="Dover"/>
    <tag k="addr:housenumber" v="16"/>
    <tag k="addr:street" v="Upton Road"/>
    <tag k="addr:state" v="VT"/>
    <tag k="ref:vcgi:esiteid" v="88967"/>
  </node>
  <node id="-2254" visible="true" lat="42.98945136" lon="-72.88405799">
    <tag k="addr:city" v="Dover"/>
    <tag k="addr:housenumber" v="22"/>
    <tag k="addr:street" v="Forest Heights"/>
    <tag k="addr:state" v="VT"/>
    <tag k="ref:vcgi:esiteid" v="311755"/>
  </node>
  <node id="-2255" visible="true" lat="42.99015117" lon="-72.88533246">
    <tag k="addr:city" v="Dover"/>
    <tag k="addr:housenumber" v="10"/>
    <tag k="addr:street" v="Forest Heights"/>
    <tag k="addr:state" v="VT"/>
    <tag k="ref:vcgi:esiteid" v="312568"/>
  </node>
  <node id="-2256" visible="true" lat="42.98491957" lon="-72.88164245">
    <tag k="addr:city" v="Dover"/>
    <tag k="addr:housenumber" v="23"/>
    <tag k="addr:street" v="Upton Road"/>
    <tag k="addr:state" v="VT"/>
    <tag k="ref:vcgi:esiteid" v="312569"/>
  </node>
  <node id="-2257" visible="true" lat="42.97901593" lon="-72.88933758">
    <tag k="addr:city" v="Dover"/>
    <tag k="addr:housenumber" v="15"/>
    <tag k="addr:street" v="Catamount Lane"/>
    <tag k="addr:state" v="VT"/>
    <tag k="ref:vcgi:esiteid" v="312570"/>
  </node>
  <node id="-2259" visible="true" lat="42.97536664" lon="-72.8916108">
    <tag k="addr:city" v="Dover"/>
    <tag k="addr:housenumber" v="21"/>
    <tag k="addr:street" v="Lower Highlands Road"/>
    <tag k="addr:state" v="VT"/>
    <tag k="ref:vcgi:esiteid" v="312572"/>
  </node>
  <node id="-2260" visible="true" lat="42.97885666" lon="-72.88192607">
    <tag k="addr:city" v="Dover"/>
    <tag k="addr:housenumber" v="10"/>
    <tag k="addr:street" v="Gaye Lane"/>
    <tag k="addr:state" v="VT"/>
    <tag k="ref:vcgi:esiteid" v="312574"/>
  </node>
  <node id="-2261" visible="true" lat="42.98137368" lon="-72.87223993">
    <tag k="addr:city" v="Dover"/>
    <tag k="addr:housenumber" v="54"/>
    <tag k="addr:street" v="Upton Road"/>
    <tag k="addr:state" v="VT"/>
    <tag k="ref:vcgi:esiteid" v="312575"/>
  </node>
  <node id="-2263" visible="true" lat="42.95796675" lon="-72.88780322">
    <tag k="addr:city" v="Dover"/>
    <tag k="addr:housenumber" v="6"/>
    <tag k="addr:street" v="Butterfield Drive"/>
    <tag k="addr:state" v="VT"/>
    <tag k="ref:vcgi:esiteid" v="312578"/>
  </node>
  <node id="-2264" visible="true" lat="42.95786902" lon="-72.88760831">
    <tag k="addr:city" v="Dover"/>
    <tag k="addr:housenumber" v="12"/>
    <tag k="addr:street" v="Butterfield Drive"/>
    <tag k="addr:state" v="VT"/>
    <tag k="ref:vcgi:esiteid" v="312580"/>
  </node>
  <node id="-2312" visible="true" lat="42.95817674" lon="-72.88707918">
    <tag k="addr:city" v="Dover"/>
    <tag k="addr:housenumber" v="15"/>
    <tag k="addr:street" v="Butterfield Drive"/>
    <tag k="addr:state" v="VT"/>
    <tag k="ref:vcgi:esiteid" v="316538"/>
  </node>
  <node id="-2313" visible="true" lat="42.95747804" lon="-72.88745646">
    <tag k="addr:city" v="Dover"/>
    <tag k="addr:housenumber" v="18"/>
    <tag k="addr:street" v="Butterfield Drive"/>
    <tag k="addr:state" v="VT"/>
    <tag k="ref:vcgi:esiteid" v="317156"/>
  </node>
  <node id="-2320" visible="true" lat="42.97147808" lon="-72.8928365">
    <tag k="addr:city" v="Dover"/>
    <tag k="addr:housenumber" v="11"/>
    <tag k="addr:street" v="Overbrook Drive"/>
    <tag k="addr:state" v="VT"/>
    <tag k="ref:vcgi:esiteid" v="318166"/>
  </node>
  <node id="-2321" visible="true" lat="42.97117083" lon="-72.89258499">
    <tag k="addr:city" v="Dover"/>
    <tag k="addr:housenumber" v="9"/>
    <tag k="addr:street" v="Overbrook Drive"/>
    <tag k="addr:state" v="VT"/>
    <tag k="ref:vcgi:esiteid" v="318169"/>
  </node>
  <node id="-2322" visible="true" lat="42.97101857" lon="-72.89205742">
    <tag k="addr:city" v="Dover"/>
    <tag k="addr:housenumber" v="7"/>
    <tag k="addr:street" v="Overbrook Drive"/>
    <tag k="addr:state" v="VT"/>
    <tag k="ref:vcgi:esiteid" v="318172"/>
  </node>
  <node id="-2323" visible="true" lat="42.9711363" lon="-72.89163065">
    <tag k="addr:city" v="Dover"/>
    <tag k="addr:housenumber" v="5"/>
    <tag k="addr:street" v="Overbrook Drive"/>
    <tag k="addr:state" v="VT"/>
    <tag k="ref:vcgi:esiteid" v="318175"/>
  </node>
  <node id="-2325" visible="true" lat="42.97144365" lon="-72.89202089">
    <tag k="addr:city" v="Dover"/>
    <tag k="addr:housenumber" v="1"/>
    <tag k="addr:street" v="Ego Alley"/>
    <tag k="addr:state" v="VT"/>
    <tag k="ref:vcgi:esiteid" v="318181"/>
  </node>
  <node id="-2326" visible="true" lat="42.97164362" lon="-72.89241919">
    <tag k="addr:city" v="Dover"/>
    <tag k="addr:housenumber" v="3"/>
    <tag k="addr:street" v="Ego Alley"/>
    <tag k="addr:state" v="VT"/>
    <tag k="ref:vcgi:esiteid" v="318184"/>
  </node>
  <node id="-2330" visible="true" lat="42.95740914" lon="-72.88718957">
    <tag k="addr:city" v="Dover"/>
    <tag k="addr:housenumber" v="20"/>
    <tag k="addr:street" v="Butterfield Drive"/>
    <tag k="addr:state" v="VT"/>
    <tag k="ref:vcgi:esiteid" v="318196"/>
  </node>
  <node id="-2331" visible="true" lat="42.95825789" lon="-72.88716299">
    <tag k="addr:city" v="Dover"/>
    <tag k="addr:housenumber" v="7"/>
    <tag k="addr:street" v="Butterfield Drive"/>
    <tag k="addr:state" v="VT"/>
    <tag k="ref:vcgi:esiteid" v="318197"/>
  </node>
  <node id="-2332" visible="true" lat="42.95792608" lon="-72.88697563">
    <tag k="addr:city" v="Dover"/>
    <tag k="addr:housenumber" v="23"/>
    <tag k="addr:street" v="Butterfield Drive"/>
    <tag k="addr:state" v="VT"/>
    <tag k="ref:vcgi:esiteid" v="318198"/>
  </node>
  <node id="-2333" visible="true" lat="42.9578151" lon="-72.88702393">
    <tag k="addr:city" v="Dover"/>
    <tag k="addr:housenumber" v="25"/>
    <tag k="addr:street" v="Butterfield Drive"/>
    <tag k="addr:state" v="VT"/>
    <tag k="ref:vcgi:esiteid" v="318199"/>
  </node>
  <node id="-2334" visible="true" lat="42.97277486" lon="-72.89823251">
    <tag k="addr:city" v="Dover"/>
    <tag k="addr:housenumber" v="3"/>
    <tag k="addr:street" v="Tenon Lane"/>
    <tag k="addr:state" v="VT"/>
    <tag k="ref:vcgi:esiteid" v="318201"/>
  </node>
  <node id="-2335" visible="true" lat="42.97306596" lon="-72.89814968">
    <tag k="addr:city" v="Dover"/>
    <tag k="addr:housenumber" v="1"/>
    <tag k="addr:street" v="Mortise Lane"/>
    <tag k="addr:state" v="VT"/>
    <tag k="ref:vcgi:esiteid" v="318207"/>
  </node>
  <node id="-2336" visible="true" lat="42.97296839" lon="-72.89877555">
    <tag k="addr:city" v="Dover"/>
    <tag k="addr:housenumber" v="5"/>
    <tag k="addr:street" v="Mortise Lane"/>
    <tag k="addr:state" v="VT"/>
    <tag k="ref:vcgi:esiteid" v="318210"/>
  </node>
  <node id="-2399" visible="true" lat="42.97727189" lon="-72.88266076">
    <tag k="addr:city" v="Dover"/>
    <tag k="addr:housenumber" v="18"/>
    <tag k="addr:street" v="Gaye Lane"/>
    <tag k="addr:state" v="VT"/>
    <tag k="ref:vcgi:esiteid" v="329404"/>
  </node>
  <node id="-2401" visible="true" lat="42.96968733" lon="-72.8985203">
    <tag k="addr:city" v="Dover"/>
    <tag k="addr:housenumber" v="1"/>
    <tag k="addr:street" v="Powder Place"/>
    <tag k="addr:state" v="VT"/>
    <tag k="ref:vcgi:esiteid" v="330065"/>
  </node>
  <node id="-2413" visible="true" lat="42.94076792" lon="-72.87269468">
    <tag k="addr:city" v="Dover"/>
    <tag k="addr:housenumber" v="60"/>
    <tag k="addr:street" v="Country Club Road"/>
    <tag k="addr:state" v="VT"/>
    <tag k="ref:vcgi:esiteid" v="333801"/>
  </node>
  <node id="-2414" visible="true" lat="42.93872979" lon="-72.87187471">
    <tag k="addr:city" v="Dover"/>
    <tag k="addr:housenumber" v="72"/>
    <tag k="addr:street" v="Country Club Road"/>
    <tag k="addr:state" v="VT"/>
    <tag k="ref:vcgi:esiteid" v="333802"/>
  </node>
  <node id="-2418" visible="true" lat="42.98494649" lon="-72.87778778">
    <tag k="addr:city" v="Dover"/>
    <tag k="addr:housenumber" v="55"/>
    <tag k="addr:street" v="Upton Road"/>
    <tag k="addr:state" v="VT"/>
    <tag k="ref:vcgi:esiteid" v="333806"/>
  </node>
  <node id="-2421" visible="true" lat="42.98416483" lon="-72.88037942">
    <tag k="addr:city" v="Dover"/>
    <tag k="addr:housenumber" v="5"/>
    <tag k="addr:street" v="Wild Apple Lane"/>
    <tag k="addr:state" v="VT"/>
    <tag k="ref:vcgi:esiteid" v="334212"/>
  </node>
  <node id="-2435" visible="true" lat="42.97015358" lon="-72.90090801">
    <tag k="addr:city" v="Dover"/>
    <tag k="addr:housenumber" v="17"/>
    <tag k="addr:street" v="Discovery Drive"/>
    <tag k="addr:state" v="VT"/>
    <tag k="ref:vcgi:esiteid" v="334232"/>
  </node>
  <node id="-2436" visible="true" lat="42.96937425" lon="-72.89836781">
    <tag k="addr:city" v="Dover"/>
    <tag k="addr:housenumber" v="3"/>
    <tag k="addr:street" v="Powder Place"/>
    <tag k="addr:state" v="VT"/>
    <tag k="ref:vcgi:esiteid" v="334234"/>
  </node>
  <node id="-2442" visible="true" lat="42.97292096" lon="-72.89292063">
    <tag k="addr:city" v="Dover"/>
    <tag k="addr:housenumber" v="11"/>
    <tag k="addr:street" v="Mountain Village"/>
    <tag k="addr:state" v="VT"/>
    <tag k="ref:vcgi:esiteid" v="336639"/>
  </node>
  <node id="-2444" visible="true" lat="42.96818422" lon="-72.89188156">
    <tag k="addr:city" v="Dover"/>
    <tag k="addr:housenumber" v="11"/>
    <tag k="addr:street" v="Snow Tree Lane"/>
    <tag k="addr:state" v="VT"/>
    <tag k="ref:vcgi:esiteid" v="336641"/>
  </node>
  <node id="-2445" visible="true" lat="42.96861726" lon="-72.89193877">
    <tag k="addr:city" v="Dover"/>
    <tag k="addr:housenumber" v="13"/>
    <tag k="addr:street" v="Snow Tree Lane"/>
    <tag k="addr:state" v="VT"/>
    <tag k="ref:vcgi:esiteid" v="336642"/>
  </node>
  <node id="-2446" visible="true" lat="42.96830189" lon="-72.89098186">
    <tag k="addr:city" v="Dover"/>
    <tag k="addr:housenumber" v="14"/>
    <tag k="addr:street" v="Snow Tree Lane"/>
    <tag k="addr:state" v="VT"/>
    <tag k="ref:vcgi:esiteid" v="336643"/>
  </node>
  <node id="-2447" visible="true" lat="42.96828091" lon="-72.89055097">
    <tag k="addr:city" v="Dover"/>
    <tag k="addr:housenumber" v="16"/>
    <tag k="addr:street" v="Snow Tree Lane"/>
    <tag k="addr:state" v="VT"/>
    <tag k="ref:vcgi:esiteid" v="336644"/>
  </node>
  <node id="-2448" visible="true" lat="42.97044478" lon="-72.89143655">
    <tag k="addr:city" v="Dover"/>
    <tag k="addr:housenumber" v="32"/>
    <tag k="addr:street" v="Snow Tree Lane"/>
    <tag k="addr:state" v="VT"/>
    <tag k="ref:vcgi:esiteid" v="336646"/>
  </node>
  <node id="-2449" visible="true" lat="42.97012711" lon="-72.89099991">
    <tag k="addr:city" v="Dover"/>
    <tag k="addr:housenumber" v="34"/>
    <tag k="addr:street" v="Snow Tree Lane"/>
    <tag k="addr:state" v="VT"/>
    <tag k="ref:vcgi:esiteid" v="336647"/>
  </node>
  <node id="-2451" visible="true" lat="42.97513506" lon="-72.88167159">
    <tag k="addr:city" v="Dover"/>
    <tag k="addr:housenumber" v="31"/>
    <tag k="addr:street" v="Gaye Lane"/>
    <tag k="addr:state" v="VT"/>
    <tag k="ref:vcgi:esiteid" v="339408"/>
  </node>
  <node id="-2452" visible="true" lat="42.96145699" lon="-72.88393474">
    <tag k="addr:city" v="Dover"/>
    <tag k="addr:housenumber" v="15"/>
    <tag k="addr:street" v="Boulder Ridge Drive"/>
    <tag k="addr:state" v="VT"/>
    <tag k="ref:vcgi:esiteid" v="339410"/>
  </node>
  <node id="-2453" visible="true" lat="42.96167208" lon="-72.88408552">
    <tag k="addr:city" v="Dover"/>
    <tag k="addr:housenumber" v="17"/>
    <tag k="addr:street" v="Boulder Ridge Drive"/>
    <tag k="addr:state" v="VT"/>
    <tag k="ref:vcgi:esiteid" v="339411"/>
  </node>
  <node id="-2454" visible="true" lat="42.96189878" lon="-72.88427907">
    <tag k="addr:city" v="Dover"/>
    <tag k="addr:housenumber" v="19"/>
    <tag k="addr:street" v="Boulder Ridge Drive"/>
    <tag k="addr:state" v="VT"/>
    <tag k="ref:vcgi:esiteid" v="339412"/>
  </node>
  <node id="-2455" visible="true" lat="42.96214148" lon="-72.88437665">
    <tag k="addr:city" v="Dover"/>
    <tag k="addr:housenumber" v="21"/>
    <tag k="addr:street" v="Boulder Ridge Drive"/>
    <tag k="addr:state" v="VT"/>
    <tag k="ref:vcgi:esiteid" v="339413"/>
  </node>
  <node id="-2456" visible="true" lat="42.96237257" lon="-72.88443146">
    <tag k="addr:city" v="Dover"/>
    <tag k="addr:housenumber" v="23"/>
    <tag k="addr:street" v="Boulder Ridge Drive"/>
    <tag k="addr:state" v="VT"/>
    <tag k="ref:vcgi:esiteid" v="339414"/>
  </node>
  <node id="-2465" visible="true" lat="42.94267659" lon="-72.89041229">
    <tag k="addr:city" v="Dover"/>
    <tag k="addr:housenumber" v="133"/>
    <tag k="addr:street" v="Handle Road"/>
    <tag k="addr:state" v="VT"/>
    <tag k="ref:vcgi:esiteid" v="342959"/>
  </node>
  <node id="-2466" visible="true" lat="42.94435936" lon="-72.88939295">
    <tag k="addr:city" v="Dover"/>
    <tag k="addr:housenumber" v="145"/>
    <tag k="addr:street" v="Handle Road"/>
    <tag k="addr:state" v="VT"/>
    <tag k="ref:vcgi:esiteid" v="342960"/>
  </node>
  <node id="-2476" visible="true" lat="42.98368313" lon="-72.88744854">
    <tag k="addr:city" v="Dover"/>
    <tag k="addr:housenumber" v="311"/>
    <tag k="addr:street" v="Blue Brook Road"/>
    <tag k="addr:state" v="VT"/>
    <tag k="ref:vcgi:esiteid" v="446533"/>
  </node>
  <node id="-2477" visible="true" lat="42.9285208" lon="-72.88648144">
    <tag k="addr:city" v="Dover"/>
    <tag k="addr:housenumber" v="16"/>
    <tag k="addr:street" v="Handle Road"/>
    <tag k="addr:state" v="VT"/>
    <tag k="ref:vcgi:esiteid" v="448238"/>
  </node>
  <node id="-2482" visible="true" lat="42.93485308" lon="-72.89063662">
    <tag k="addr:city" v="Dover"/>
    <tag k="addr:housenumber" v="67"/>
    <tag k="addr:street" v="Handle Road"/>
    <tag k="addr:state" v="VT"/>
    <tag k="ref:vcgi:esiteid" v="449137"/>
  </node>
  <node id="-2488" visible="true" lat="42.96319457" lon="-72.88444261">
    <tag k="addr:city" v="Dover"/>
    <tag k="addr:housenumber" v="29"/>
    <tag k="addr:street" v="Boulder Ridge Drive"/>
    <tag k="addr:state" v="VT"/>
    <tag k="ref:vcgi:esiteid" v="449157"/>
  </node>
  <node id="-2489" visible="true" lat="42.97192617" lon="-72.90052356">
    <tag k="addr:city" v="Dover"/>
    <tag k="addr:housenumber" v="3"/>
    <tag k="addr:street" v="Slalom Lane"/>
    <tag k="addr:state" v="VT"/>
    <tag k="ref:vcgi:esiteid" v="449158"/>
  </node>
  <node id="-2490" visible="true" lat="42.92729097" lon="-72.88819788">
    <tag k="addr:city" v="Dover"/>
    <tag k="addr:housenumber" v="9"/>
    <tag k="addr:street" v="Carriage House Drive"/>
    <tag k="addr:state" v="VT"/>
    <tag k="ref:vcgi:esiteid" v="450841"/>
  </node>
  <node id="-2493" visible="true" lat="42.9266253" lon="-72.89017226">
    <tag k="addr:city" v="Dover"/>
    <tag k="addr:housenumber" v="20"/>
    <tag k="addr:street" v="Carriage House Drive"/>
    <tag k="addr:state" v="VT"/>
    <tag k="ref:vcgi:esiteid" v="454061"/>
  </node>
  <node id="-2497" visible="true" lat="42.98616281" lon="-72.88351885">
    <tag k="addr:city" v="Dover"/>
    <tag k="addr:housenumber" v="13"/>
    <tag k="addr:street" v="Upton Road"/>
    <tag k="addr:state" v="VT"/>
    <tag k="ref:vcgi:esiteid" v="454065"/>
  </node>
  <node id="-2501" visible="true" lat="42.97151586" lon="-72.90004642">
    <tag k="addr:city" v="Dover"/>
    <tag k="addr:housenumber" v="3"/>
    <tag k="addr:street" v="Freestyle Circle"/>
    <tag k="addr:state" v="VT"/>
    <tag k="ref:vcgi:esiteid" v="610924"/>
  </node>
  <node id="-2502" visible="true" lat="42.97155747" lon="-72.90053111">
    <tag k="addr:city" v="Dover"/>
    <tag k="addr:housenumber" v="5"/>
    <tag k="addr:street" v="Slalom Lane"/>
    <tag k="addr:state" v="VT"/>
    <tag k="ref:vcgi:esiteid" v="610926"/>
  </node>
  <node id="-2503" visible="true" lat="42.97120886" lon="-72.90010072">
    <tag k="addr:city" v="Dover"/>
    <tag k="addr:housenumber" v="5"/>
    <tag k="addr:street" v="Freestyle Circle"/>
    <tag k="addr:state" v="VT"/>
    <tag k="ref:vcgi:esiteid" v="610927"/>
  </node>
  <node id="-2505" visible="true" lat="42.97105398" lon="-72.90045973">
    <tag k="addr:city" v="Dover"/>
    <tag k="addr:housenumber" v="8"/>
    <tag k="addr:street" v="Freestyle Circle"/>
    <tag k="addr:state" v="VT"/>
    <tag k="ref:vcgi:esiteid" v="610929"/>
  </node>
  <node id="-2510" visible="true" lat="42.92761169" lon="-72.88685291">
    <tag k="addr:city" v="Dover"/>
    <tag k="addr:housenumber" v="15"/>
    <tag k="addr:street" v="Handle Road"/>
    <tag k="addr:state" v="VT"/>
    <tag k="ref:vcgi:esiteid" v="613473"/>
  </node>
  <node id="-2511" visible="true" lat="42.97736734" lon="-72.89772343">
    <tag k="addr:city" v="Dover"/>
    <tag k="addr:housenumber" v="24"/>
    <tag k="addr:street" v="Bartlett Lane"/>
    <tag k="addr:state" v="VT"/>
    <tag k="ref:vcgi:esiteid" v="615633"/>
  </node>
  <node id="-2521" visible="true" lat="42.95890224" lon="-72.88718106">
    <tag k="addr:city" v="Dover"/>
    <tag k="addr:housenumber" v="8"/>
    <tag k="addr:street" v="Encore Place"/>
    <tag k="addr:state" v="VT"/>
    <tag k="ref:vcgi:esiteid" v="620113"/>
  </node>
  <node id="-2523" visible="true" lat="42.95922981" lon="-72.88750901">
    <tag k="addr:city" v="Dover"/>
    <tag k="addr:housenumber" v="12"/>
    <tag k="addr:street" v="Encore Place"/>
    <tag k="addr:state" v="VT"/>
    <tag k="ref:vcgi:esiteid" v="620115"/>
  </node>
  <node id="-2530" visible="true" lat="42.939586" lon="-72.8734952">
    <tag k="addr:city" v="Dover"/>
    <tag k="addr:housenumber" v="66"/>
    <tag k="addr:street" v="Country Club Road"/>
    <tag k="addr:state" v="VT"/>
    <tag k="ref:vcgi:esiteid" v="620766"/>
  </node>
  <node id="-2549" visible="true" lat="42.9702808" lon="-72.89867884">
    <tag k="addr:city" v="Dover"/>
    <tag k="addr:housenumber" v="8"/>
    <tag k="addr:street" v="Discovery Drive"/>
    <tag k="addr:state" v="VT"/>
    <tag k="ref:vcgi:esiteid" v="751847"/>
  </node>
  <node id="-2550" visible="true" lat="42.9724916" lon="-72.89814036">
    <tag k="addr:city" v="Dover"/>
    <tag k="addr:housenumber" v="48"/>
    <tag k="addr:street" v="Hammer Beam Loop"/>
    <tag k="addr:state" v="VT"/>
    <tag k="ref:vcgi:esiteid" v="751850"/>
  </node>
  <node id="-2555" visible="true" lat="42.94127254" lon="-72.8878306">
    <tag k="addr:city" v="Dover"/>
    <tag k="addr:housenumber" v="130"/>
    <tag k="addr:street" v="Handle Road"/>
    <tag k="addr:state" v="VT"/>
    <tag k="ref:vcgi:esiteid" v="752179"/>
  </node>
  <node id="-2556" visible="true" lat="42.96311702" lon="-72.90187325">
    <tag k="addr:city" v="Dover"/>
    <tag k="addr:housenumber" v="90"/>
    <tag k="addr:street" v="Summit Work Road"/>
    <tag k="addr:state" v="VT"/>
    <tag k="ref:vcgi:esiteid" v="752807"/>
  </node>
  <node id="-2562" visible="true" lat="42.96728384" lon="-72.8877588">
    <tag k="addr:city" v="Dover"/>
    <tag k="addr:housenumber" v="16"/>
    <tag k="addr:street" v="Snow Lake Road"/>
    <tag k="addr:state" v="VT"/>
    <tag k="ref:vcgi:esiteid" v="753059"/>
  </node>
  <node id="-2569" visible="true" lat="42.97033284" lon="-72.89973153">
    <tag k="addr:city" v="Dover"/>
    <tag k="addr:housenumber" v="15"/>
    <tag k="addr:street" v="Discovery Drive"/>
    <tag k="addr:state" v="VT"/>
    <tag k="ref:vcgi:esiteid" v="759551"/>
  </node>
  <node id="-2691" visible="true" lat="42.96265699" lon="-72.88443127">
    <tag k="addr:city" v="Dover"/>
    <tag k="addr:housenumber" v="25"/>
    <tag k="addr:street" v="Boulder Ridge Drive"/>
    <tag k="addr:state" v="VT"/>
    <tag k="ref:vcgi:esiteid" v="1050079"/>
  </node>
  <node id="-2693" visible="true" lat="42.95945402" lon="-72.88775647">
    <tag k="addr:city" v="Dover"/>
    <tag k="addr:housenumber" v="14"/>
    <tag k="addr:street" v="Encore Place"/>
    <tag k="addr:state" v="VT"/>
    <tag k="ref:vcgi:esiteid" v="1050134"/>
  </node>
  <node id="-2700" visible="true" lat="42.95730151" lon="-72.89012641">
    <tag k="addr:city" v="Dover"/>
    <tag k="addr:housenumber" v="46"/>
    <tag k="addr:street" v="Carinthia Road"/>
    <tag k="addr:state" v="VT"/>
    <tag k="ref:vcgi:esiteid" v="1050284"/>
  </node>
</osm>
