<?xml version="1.0" encoding="UTF-8"?>
<osm version="0.6" generator="JOSM">
  <node id="-264" visible="true" lat="44.32131341" lon="-72.75257223">
    <tag k="addr:city" v="Duxbury"/>
    <tag k="addr:housenumber" v="5672"/>
    <tag k="addr:street" v="Vermont Route 100"/>
    <tag k="addr:state" v="VT"/>
    <tag k="ref:vcgi:esiteid" v="90111"/>
  </node>
  <node id="-480" visible="true" lat="44.28227093" lon="-72.78102119">
    <tag k="addr:city" v="Duxbury"/>
    <tag k="addr:housenumber" v="71"/>
    <tag k="addr:street" v="Wilder Road"/>
    <tag k="addr:state" v="VT"/>
    <tag k="ref:vcgi:esiteid" v="90331"/>
  </node>
  <node id="-481" visible="true" lat="44.28133773" lon="-72.77593994">
    <tag k="addr:city" v="Duxbury"/>
    <tag k="addr:housenumber" v="1786"/>
    <tag k="addr:street" v="Stevens Brook Road"/>
    <tag k="addr:state" v="VT"/>
    <tag k="ref:vcgi:esiteid" v="90333"/>
  </node>
  <node id="-482" visible="true" lat="44.28112411" lon="-72.77557373">
    <tag k="addr:city" v="Duxbury"/>
    <tag k="addr:housenumber" v="1756"/>
    <tag k="addr:street" v="Stevens Brook Road"/>
    <tag k="addr:state" v="VT"/>
    <tag k="ref:vcgi:esiteid" v="90334"/>
  </node>
  <node id="-483" visible="true" lat="44.28093338" lon="-72.77562713">
    <tag k="addr:city" v="Duxbury"/>
    <tag k="addr:housenumber" v="1751"/>
    <tag k="addr:street" v="Stevens Brook Road"/>
    <tag k="addr:state" v="VT"/>
    <tag k="ref:vcgi:esiteid" v="90335"/>
  </node>
  <node id="-484" visible="true" lat="44.28038406" lon="-72.77215576">
    <tag k="addr:city" v="Duxbury"/>
    <tag k="addr:housenumber" v="1512"/>
    <tag k="addr:street" v="Stevens Brook Road"/>
    <tag k="addr:state" v="VT"/>
    <tag k="ref:vcgi:esiteid" v="90336"/>
  </node>
  <node id="-489" visible="true" lat="44.27413589" lon="-72.78540982">
    <tag k="addr:city" v="Duxbury"/>
    <tag k="addr:housenumber" v="1273"/>
    <tag k="addr:street" v="Turner Hill Road"/>
    <tag k="addr:state" v="VT"/>
    <tag k="ref:vcgi:esiteid" v="90341"/>
  </node>
  <node id="-491" visible="true" lat="44.2738114" lon="-72.78848652">
    <tag k="addr:city" v="Duxbury"/>
    <tag k="addr:housenumber" v="104"/>
    <tag k="addr:street" v="Connolly Road"/>
    <tag k="addr:state" v="VT"/>
    <tag k="ref:vcgi:esiteid" v="90343"/>
  </node>
  <node id="-492" visible="true" lat="44.27364731" lon="-72.7848587">
    <tag k="addr:city" v="Duxbury"/>
    <tag k="addr:housenumber" v="1278"/>
    <tag k="addr:street" v="Turner Hill Road"/>
    <tag k="addr:state" v="VT"/>
    <tag k="ref:vcgi:esiteid" v="90344"/>
  </node>
  <node id="-493" visible="true" lat="44.27350017" lon="-72.78566008">
    <tag k="addr:city" v="Duxbury"/>
    <tag k="addr:housenumber" v="1226"/>
    <tag k="addr:street" v="Turner Hill Road"/>
    <tag k="addr:state" v="VT"/>
    <tag k="ref:vcgi:esiteid" v="90345"/>
  </node>
  <node id="-496" visible="true" lat="44.27281188" lon="-72.78762054">
    <tag k="addr:city" v="Duxbury"/>
    <tag k="addr:housenumber" v="1061"/>
    <tag k="addr:street" v="Turner Hill Road"/>
    <tag k="addr:state" v="VT"/>
    <tag k="ref:vcgi:esiteid" v="90348"/>
  </node>
  <node id="-497" visible="true" lat="44.27232609" lon="-72.7861332">
    <tag k="addr:city" v="Duxbury"/>
    <tag k="addr:housenumber" v="1144"/>
    <tag k="addr:street" v="Turner Hill Road"/>
    <tag k="addr:state" v="VT"/>
    <tag k="ref:vcgi:esiteid" v="90349"/>
  </node>
  <node id="-499" visible="true" lat="44.27156067" lon="-72.78803253">
    <tag k="addr:city" v="Duxbury"/>
    <tag k="addr:housenumber" v="1028"/>
    <tag k="addr:street" v="Turner Hill Road"/>
    <tag k="addr:state" v="VT"/>
    <tag k="ref:vcgi:esiteid" v="90351"/>
  </node>
  <node id="-500" visible="true" lat="44.2705987" lon="-72.78881372">
    <tag k="addr:city" v="Duxbury"/>
    <tag k="addr:housenumber" v="916"/>
    <tag k="addr:street" v="Turner Hill Road"/>
    <tag k="addr:state" v="VT"/>
    <tag k="ref:vcgi:esiteid" v="90352"/>
  </node>
  <node id="-501" visible="true" lat="44.26984406" lon="-72.7898941">
    <tag k="addr:city" v="Duxbury"/>
    <tag k="addr:housenumber" v="838"/>
    <tag k="addr:street" v="Turner Hill Road"/>
    <tag k="addr:state" v="VT"/>
    <tag k="ref:vcgi:esiteid" v="90353"/>
  </node>
  <node id="-505" visible="true" lat="44.26918411" lon="-72.7906723">
    <tag k="addr:city" v="Duxbury"/>
    <tag k="addr:housenumber" v="773"/>
    <tag k="addr:street" v="Turner Hill Road"/>
    <tag k="addr:state" v="VT"/>
    <tag k="ref:vcgi:esiteid" v="90358"/>
  </node>
  <node id="-508" visible="true" lat="44.26863479" lon="-72.79058074">
    <tag k="addr:city" v="Duxbury"/>
    <tag k="addr:housenumber" v="771"/>
    <tag k="addr:street" v="Turner Hill Road"/>
    <tag k="addr:state" v="VT"/>
    <tag k="ref:vcgi:esiteid" v="90361"/>
  </node>
  <node id="-509" visible="true" lat="44.26835397" lon="-72.78869484">
    <tag k="addr:city" v="Duxbury"/>
    <tag k="addr:housenumber" v="710"/>
    <tag k="addr:street" v="Turner Hill Road"/>
    <tag k="addr:state" v="VT"/>
    <tag k="ref:vcgi:esiteid" v="90362"/>
  </node>
  <node id="-511" visible="true" lat="44.26831818" lon="-72.81472015">
    <tag k="addr:city" v="Duxbury"/>
    <tag k="addr:housenumber" v="1813"/>
    <tag k="addr:street" v="Dowsville Road"/>
    <tag k="addr:state" v="VT"/>
    <tag k="ref:vcgi:esiteid" v="90364"/>
  </node>
  <node id="-513" visible="true" lat="44.26715646" lon="-72.7892796">
    <tag k="addr:city" v="Duxbury"/>
    <tag k="addr:housenumber" v="676"/>
    <tag k="addr:street" v="Turner Hill Road"/>
    <tag k="addr:state" v="VT"/>
    <tag k="ref:vcgi:esiteid" v="90366"/>
  </node>
  <node id="-517" visible="true" lat="44.26588822" lon="-72.78951263">
    <tag k="addr:city" v="Duxbury"/>
    <tag k="addr:housenumber" v="570"/>
    <tag k="addr:street" v="Turner Hill Road"/>
    <tag k="addr:state" v="VT"/>
    <tag k="ref:vcgi:esiteid" v="90370"/>
  </node>
  <node id="-547" visible="true" lat="44.25702667" lon="-72.79084777">
    <tag k="addr:city" v="Duxbury"/>
    <tag k="addr:housenumber" v="92"/>
    <tag k="addr:street" v="Sunrise Avenue"/>
    <tag k="addr:state" v="VT"/>
    <tag k="ref:vcgi:esiteid" v="90400"/>
  </node>
  <node id="-551" visible="true" lat="44.25656127" lon="-72.79034423">
    <tag k="addr:city" v="Duxbury"/>
    <tag k="addr:housenumber" v="55"/>
    <tag k="addr:street" v="Sunrise Avenue"/>
    <tag k="addr:state" v="VT"/>
    <tag k="ref:vcgi:esiteid" v="90404"/>
  </node>
  <node id="-553" visible="true" lat="44.25645065" lon="-72.79161834">
    <tag k="addr:city" v="Duxbury"/>
    <tag k="addr:housenumber" v="170"/>
    <tag k="addr:street" v="Sunrise Avenue"/>
    <tag k="addr:state" v="VT"/>
    <tag k="ref:vcgi:esiteid" v="90406"/>
  </node>
  <node id="-556" visible="true" lat="44.25621795" lon="-72.79089355">
    <tag k="addr:city" v="Duxbury"/>
    <tag k="addr:housenumber" v="111"/>
    <tag k="addr:street" v="Sunrise Avenue"/>
    <tag k="addr:state" v="VT"/>
    <tag k="ref:vcgi:esiteid" v="90409"/>
  </node>
  <node id="-560" visible="true" lat="44.25592041" lon="-72.79174041">
    <tag k="addr:city" v="Duxbury"/>
    <tag k="addr:housenumber" v="191"/>
    <tag k="addr:street" v="Sunrise Avenue"/>
    <tag k="addr:state" v="VT"/>
    <tag k="ref:vcgi:esiteid" v="90413"/>
  </node>
  <node id="-561" visible="true" lat="44.25585937" lon="-72.79248809">
    <tag k="addr:city" v="Duxbury"/>
    <tag k="addr:housenumber" v="231"/>
    <tag k="addr:street" v="Sunrise Avenue"/>
    <tag k="addr:state" v="VT"/>
    <tag k="ref:vcgi:esiteid" v="90414"/>
  </node>
  <node id="-565" visible="true" lat="44.25513076" lon="-72.7929306">
    <tag k="addr:city" v="Duxbury"/>
    <tag k="addr:housenumber" v="318"/>
    <tag k="addr:street" v="Dowsville Road"/>
    <tag k="addr:state" v="VT"/>
    <tag k="ref:vcgi:esiteid" v="90418"/>
  </node>
  <node id="-566" visible="true" lat="44.25469207" lon="-72.79233551">
    <tag k="addr:city" v="Duxbury"/>
    <tag k="addr:housenumber" v="270"/>
    <tag k="addr:street" v="Dowsville Road"/>
    <tag k="addr:state" v="VT"/>
    <tag k="ref:vcgi:esiteid" v="90419"/>
  </node>
  <node id="-569" visible="true" lat="44.25349808" lon="-72.7919693">
    <tag k="addr:city" v="Duxbury"/>
    <tag k="addr:housenumber" v="307"/>
    <tag k="addr:street" v="Clark Road"/>
    <tag k="addr:state" v="VT"/>
    <tag k="ref:vcgi:esiteid" v="90422"/>
  </node>
  <node id="-570" visible="true" lat="44.25338359" lon="-72.79096254">
    <tag k="addr:city" v="Duxbury"/>
    <tag k="addr:housenumber" v="163"/>
    <tag k="addr:street" v="Dowsville Road"/>
    <tag k="addr:state" v="VT"/>
    <tag k="ref:vcgi:esiteid" v="90423"/>
  </node>
  <node id="-573" visible="true" lat="44.2531216" lon="-72.79011763">
    <tag k="addr:city" v="Duxbury"/>
    <tag k="addr:housenumber" v="101"/>
    <tag k="addr:street" v="Dowsville Road"/>
    <tag k="addr:state" v="VT"/>
    <tag k="ref:vcgi:esiteid" v="90426"/>
  </node>
  <node id="-576" visible="true" lat="44.25266107" lon="-72.79131177">
    <tag k="addr:city" v="Duxbury"/>
    <tag k="addr:housenumber" v="253"/>
    <tag k="addr:street" v="Clark Road"/>
    <tag k="addr:state" v="VT"/>
    <tag k="ref:vcgi:esiteid" v="90429"/>
  </node>
  <node id="-577" visible="true" lat="44.25259021" lon="-72.7894385">
    <tag k="addr:city" v="Duxbury"/>
    <tag k="addr:housenumber" v="73"/>
    <tag k="addr:street" v="Dowsville Road"/>
    <tag k="addr:state" v="VT"/>
    <tag k="ref:vcgi:esiteid" v="90430"/>
  </node>
  <node id="-578" visible="true" lat="44.25240612" lon="-72.78867269">
    <tag k="addr:city" v="Duxbury"/>
    <tag k="addr:housenumber" v="43"/>
    <tag k="addr:street" v="Dowsville Road"/>
    <tag k="addr:state" v="VT"/>
    <tag k="ref:vcgi:esiteid" v="90431"/>
  </node>
  <node id="-579" visible="true" lat="44.25255585" lon="-72.790802">
    <tag k="addr:city" v="Duxbury"/>
    <tag k="addr:housenumber" v="221"/>
    <tag k="addr:street" v="Clark Road"/>
    <tag k="addr:state" v="VT"/>
    <tag k="ref:vcgi:esiteid" v="90432"/>
  </node>
  <node id="-580" visible="true" lat="44.25217746" lon="-72.7882789">
    <tag k="addr:city" v="Duxbury"/>
    <tag k="addr:housenumber" v="11"/>
    <tag k="addr:street" v="Dowsville Road"/>
    <tag k="addr:state" v="VT"/>
    <tag k="ref:vcgi:esiteid" v="90433"/>
  </node>
  <node id="-581" visible="true" lat="44.25204468" lon="-72.78943634">
    <tag k="addr:city" v="Duxbury"/>
    <tag k="addr:housenumber" v="86"/>
    <tag k="addr:street" v="Clark Road"/>
    <tag k="addr:state" v="VT"/>
    <tag k="ref:vcgi:esiteid" v="90434"/>
  </node>
  <node id="-644" visible="true" lat="44.27629849" lon="-72.78267606">
    <tag k="addr:city" v="Duxbury"/>
    <tag k="addr:housenumber" v="63"/>
    <tag k="addr:street" v="Ledge Road"/>
    <tag k="addr:state" v="VT"/>
    <tag k="ref:vcgi:esiteid" v="90497"/>
  </node>
  <node id="-645" visible="true" lat="44.2755489" lon="-72.78356631">
    <tag k="addr:city" v="Duxbury"/>
    <tag k="addr:housenumber" v="68"/>
    <tag k="addr:street" v="Ledge Road"/>
    <tag k="addr:state" v="VT"/>
    <tag k="ref:vcgi:esiteid" v="90498"/>
  </node>
  <node id="-646" visible="true" lat="44.27625051" lon="-72.78103951">
    <tag k="addr:city" v="Duxbury"/>
    <tag k="addr:housenumber" v="143"/>
    <tag k="addr:street" v="Ledge Road"/>
    <tag k="addr:state" v="VT"/>
    <tag k="ref:vcgi:esiteid" v="90499"/>
  </node>
  <node id="-647" visible="true" lat="44.27701537" lon="-72.78195518">
    <tag k="addr:city" v="Duxbury"/>
    <tag k="addr:housenumber" v="141"/>
    <tag k="addr:street" v="Ledge Road"/>
    <tag k="addr:state" v="VT"/>
    <tag k="ref:vcgi:esiteid" v="90500"/>
  </node>
  <node id="-648" visible="true" lat="44.2747712" lon="-72.78153328">
    <tag k="addr:city" v="Duxbury"/>
    <tag k="addr:housenumber" v="142"/>
    <tag k="addr:street" v="Ledge Road"/>
    <tag k="addr:state" v="VT"/>
    <tag k="ref:vcgi:esiteid" v="90501"/>
  </node>
  <node id="-666" visible="true" lat="44.28080415" lon="-72.78074907">
    <tag k="addr:city" v="Duxbury"/>
    <tag k="addr:housenumber" v="59"/>
    <tag k="addr:street" v="Hideaway Lane"/>
    <tag k="addr:state" v="VT"/>
    <tag k="ref:vcgi:esiteid" v="90520"/>
  </node>
  <node id="-677" visible="true" lat="44.26804063" lon="-72.7889509">
    <tag k="addr:city" v="Duxbury"/>
    <tag k="addr:housenumber" v="704"/>
    <tag k="addr:street" v="Turner Hill Road"/>
    <tag k="addr:state" v="VT"/>
    <tag k="ref:vcgi:esiteid" v="90532"/>
  </node>
  <node id="-694" visible="true" lat="44.28043308" lon="-72.7803903">
    <tag k="addr:city" v="Duxbury"/>
    <tag k="addr:housenumber" v="61"/>
    <tag k="addr:street" v="Hideaway Lane"/>
    <tag k="addr:state" v="VT"/>
    <tag k="ref:vcgi:esiteid" v="90549"/>
  </node>
  <node id="-718" visible="true" lat="44.2792583" lon="-72.7796567">
    <tag k="addr:city" v="Duxbury"/>
    <tag k="addr:housenumber" v="237"/>
    <tag k="addr:street" v="Hideaway Lane"/>
    <tag k="addr:state" v="VT"/>
    <tag k="ref:vcgi:esiteid" v="335540"/>
  </node>
  <node id="-759" visible="true" lat="44.32546888" lon="-72.7506939">
    <tag k="addr:city" v="Duxbury"/>
    <tag k="addr:housenumber" v="5979"/>
    <tag k="addr:street" v="Vermont Route 100"/>
    <tag k="addr:state" v="VT"/>
    <tag k="ref:vcgi:esiteid" v="452579"/>
  </node>
  <node id="-760" visible="true" lat="44.34996636" lon="-72.78135916">
    <tag k="addr:city" v="Duxbury"/>
    <tag k="addr:housenumber" v="2436"/>
    <tag k="addr:street" v="River Road"/>
    <tag k="addr:state" v="VT"/>
    <tag k="ref:vcgi:esiteid" v="452580"/>
  </node>
  <node id="-764" visible="true" lat="44.27984735" lon="-72.78064096">
    <tag k="addr:city" v="Duxbury"/>
    <tag k="addr:housenumber" v="185"/>
    <tag k="addr:street" v="Hideaway Lane"/>
    <tag k="addr:state" v="VT"/>
    <tag k="ref:vcgi:esiteid" v="452729"/>
  </node>
  <node id="-765" visible="true" lat="44.27906969" lon="-72.77926506">
    <tag k="addr:city" v="Duxbury"/>
    <tag k="addr:housenumber" v="281"/>
    <tag k="addr:street" v="Hideaway Lane"/>
    <tag k="addr:state" v="VT"/>
    <tag k="ref:vcgi:esiteid" v="452730"/>
  </node>
  <node id="-771" visible="true" lat="44.25320167" lon="-72.78909828">
    <tag k="addr:city" v="Duxbury"/>
    <tag k="addr:housenumber" v="76"/>
    <tag k="addr:street" v="Dowsville Road"/>
    <tag k="addr:state" v="VT"/>
    <tag k="ref:vcgi:esiteid" v="454650"/>
  </node>
  <node id="-781" visible="true" lat="44.32353552" lon="-72.74896847">
    <tag k="addr:city" v="Duxbury"/>
    <tag k="addr:housenumber" v="42"/>
    <tag k="addr:street" v="State Farm Road"/>
    <tag k="addr:state" v="VT"/>
    <tag k="ref:vcgi:esiteid" v="455134"/>
  </node>
  <node id="-797" visible="true" lat="44.27990059" lon="-72.78091764">
    <tag k="addr:city" v="Duxbury"/>
    <tag k="addr:housenumber" v="183"/>
    <tag k="addr:street" v="Hideaway Lane"/>
    <tag k="addr:state" v="VT"/>
    <tag k="ref:vcgi:esiteid" v="612920"/>
  </node>
  <node id="-820" visible="true" lat="44.3570204" lon="-72.81620716">
    <tag k="addr:city" v="Duxbury"/>
    <tag k="addr:housenumber" v="200"/>
    <tag k="addr:street" v="Power Plant Road"/>
    <tag k="addr:state" v="VT"/>
    <tag k="ref:vcgi:esiteid" v="752585"/>
  </node>
  <node id="-844" visible="true" lat="44.29042358" lon="-72.78268258">
    <tag k="addr:city" v="Duxbury"/>
    <tag k="addr:housenumber" v="470"/>
    <tag k="addr:street" v="Berno Road"/>
    <tag k="addr:state" v="VT"/>
    <tag k="ref:vcgi:esiteid" v="758675"/>
  </node>
</osm>
