<?xml version="1.0" encoding="UTF-8"?>
<osm version="0.6" generator="JOSM" upload="false">
  <node id="-155" visible="true" lat="44.65898895" lon="-71.87324523">
    <tag k="addr:city" v="East Haven"/>
    <tag k="addr:housenumber" v="1038"/>
    <tag k="addr:street" v="Moulthrop Road"/>
    <tag k="addr:state" v="VT"/>
    <tag k="ref:vcgi:esiteid" v="90605"/>
  </node>
  <node id="-174" visible="true" lat="44.65106582" lon="-71.86399078">
    <tag k="addr:city" v="East Haven"/>
    <tag k="addr:housenumber" v="441"/>
    <tag k="addr:street" v="Radar Road"/>
    <tag k="addr:state" v="VT"/>
    <tag k="ref:vcgi:esiteid" v="90624"/>
  </node>
  <node id="-183" visible="true" lat="44.64873123" lon="-71.87046051">
    <tag k="addr:city" v="East Haven"/>
    <tag k="addr:housenumber" v="165"/>
    <tag k="addr:street" v="Moulthrop Road"/>
    <tag k="addr:state" v="VT"/>
    <tag k="ref:vcgi:esiteid" v="90633"/>
  </node>
  <node id="-188" visible="true" lat="44.64679427" lon="-71.86682887">
    <tag k="addr:city" v="East Haven"/>
    <tag k="addr:housenumber" v="201"/>
    <tag k="addr:street" v="Austin Road"/>
    <tag k="addr:state" v="VT"/>
    <tag k="ref:vcgi:esiteid" v="90638"/>
  </node>
  <node id="-193" visible="true" lat="44.64492924" lon="-71.8906622">
    <tag k="addr:city" v="East Haven"/>
    <tag k="addr:housenumber" v="472"/>
    <tag k="addr:street" v="School Street"/>
    <tag k="addr:state" v="VT"/>
    <tag k="ref:vcgi:esiteid" v="90643"/>
  </node>
  <node id="-209" visible="true" lat="44.64353297" lon="-71.87410455">
    <tag k="addr:city" v="East Haven"/>
    <tag k="addr:housenumber" v="1002"/>
    <tag k="addr:street" v="Mountain Road"/>
    <tag k="addr:state" v="VT"/>
    <tag k="ref:vcgi:esiteid" v="90662"/>
  </node>
  <node id="-241" visible="true" lat="44.64183389" lon="-71.8711064">
    <!-- match: "190 Georges Boulevard, East Haven, VT"  ignoring street punctuation to "190 George's Boulevard, East Haven, VT" -->
    <tag k="addr:city" v="East Haven"/>
    <tag k="addr:housenumber" v="190"/>
    <tag k="addr:street" v="Georges Boulevard"/>
    <tag k="addr:state" v="VT"/>
    <tag k="ref:vcgi:esiteid" v="90697"/>
  </node>
  <node id="-251" visible="true" lat="44.64026435" lon="-71.86722941">
    <!-- match: "424 Georges Boulevard, East Haven, VT"  ignoring street punctuation to "424 George's Boulevard, East Haven, VT" -->
    <tag k="addr:city" v="East Haven"/>
    <tag k="addr:housenumber" v="424"/>
    <tag k="addr:street" v="Georges Boulevard"/>
    <tag k="addr:state" v="VT"/>
    <tag k="ref:vcgi:esiteid" v="90707"/>
  </node>
  <node id="-266" visible="true" lat="44.63504791" lon="-71.87184906">
    <!-- match: "759 Youngs Road, East Haven, VT"  ignoring street punctuation to "759 Young's Road, East Haven, VT" -->
    <tag k="addr:city" v="East Haven"/>
    <tag k="addr:housenumber" v="759"/>
    <tag k="addr:street" v="Youngs Road"/>
    <tag k="addr:state" v="VT"/>
    <tag k="ref:vcgi:esiteid" v="90722"/>
  </node>
  <node id="-274" visible="true" lat="44.65299224" lon="-71.7911148">
    <tag k="addr:city" v="East Haven"/>
    <tag k="addr:housenumber" v="6074"/>
    <tag k="addr:street" v="Radar Road"/>
    <tag k="addr:state" v="VT"/>
    <tag k="ref:vcgi:esiteid" v="90730"/>
  </node>
  <node id="-275" visible="true" lat="44.66316604" lon="-71.7678833">
    <tag k="addr:city" v="East Haven"/>
    <tag k="addr:housenumber" v="8160"/>
    <tag k="addr:street" v="Radar Road"/>
    <tag k="addr:state" v="VT"/>
    <tag k="ref:vcgi:esiteid" v="90731"/>
  </node>
  <node id="-276" visible="true" lat="44.63350677" lon="-71.81301879">
    <tag k="addr:city" v="East Haven"/>
    <tag k="addr:housenumber" v="4134"/>
    <tag k="addr:street" v="Radar Road"/>
    <tag k="addr:state" v="VT"/>
    <tag k="ref:vcgi:esiteid" v="90732"/>
  </node>
  <node id="-285" visible="true" lat="44.63948056" lon="-71.86645196">
    <!-- match: "470 Georges Boulevard, East Haven, VT"  ignoring street punctuation to "470 George's Boulevard, East Haven, VT" -->
    <tag k="addr:city" v="East Haven"/>
    <tag k="addr:housenumber" v="470"/>
    <tag k="addr:street" v="Georges Boulevard"/>
    <tag k="addr:state" v="VT"/>
    <tag k="ref:vcgi:esiteid" v="90742"/>
  </node>
  <node id="-294" visible="true" lat="44.63375406" lon="-71.86702899">
    <tag k="addr:city" v="East Haven"/>
    <tag k="addr:housenumber" v="91"/>
    <tag k="addr:street" v="Morrissey Place"/>
    <tag k="addr:state" v="VT"/>
    <tag k="ref:vcgi:esiteid" v="90751"/>
  </node>
  <node id="-295" visible="true" lat="44.63048205" lon="-71.8633985">
    <tag k="addr:city" v="East Haven"/>
    <tag k="addr:housenumber" v="449"/>
    <tag k="addr:street" v="Morrissey Place"/>
    <tag k="addr:state" v="VT"/>
    <tag k="ref:vcgi:esiteid" v="90752"/>
  </node>
  <node id="-297" visible="true" lat="44.63771163" lon="-71.86178316">
    <!-- match: "757 Georges Boulevard, East Haven, VT"  ignoring street punctuation to "757 George's Boulevard, East Haven, VT" -->
    <tag k="addr:city" v="East Haven"/>
    <tag k="addr:housenumber" v="757"/>
    <tag k="addr:street" v="Georges Boulevard"/>
    <tag k="addr:state" v="VT"/>
    <tag k="ref:vcgi:esiteid" v="90754"/>
  </node>
  <node id="-299" visible="true" lat="44.6245308" lon="-71.80726973">
    <tag k="addr:city" v="East Haven"/>
    <tag k="addr:housenumber" v="732"/>
    <tag k="addr:street" v="John Irwin Road"/>
    <tag k="addr:state" v="VT"/>
    <tag k="ref:vcgi:esiteid" v="90756"/>
  </node>
</osm>
