<?xml version="1.0" encoding="UTF-8"?>
<osm version="0.6" generator="JOSM">
  <node id="-100" visible="true" lat="44.70170806" lon="-71.84135844">
    <tag k="addr:city" v="East Haven"/>
    <tag k="addr:housenumber" v="3327"/>
    <tag k="addr:street" v="Lost Nation Road"/>
    <tag k="addr:state" v="VT"/>
    <tag k="ref:vcgi:esiteid" v="90550"/>
  </node>
  <node id="-101" visible="true" lat="44.70160674" lon="-71.83900451">
    <tag k="addr:city" v="East Haven"/>
    <tag k="addr:housenumber" v="3354"/>
    <tag k="addr:street" v="Lost Nation Road"/>
    <tag k="addr:state" v="VT"/>
    <tag k="ref:vcgi:esiteid" v="90551"/>
  </node>
  <node id="-102" visible="true" lat="44.70000338" lon="-71.83762594">
    <tag k="addr:city" v="East Haven"/>
    <tag k="addr:housenumber" v="3254"/>
    <tag k="addr:street" v="Lost Nation Road"/>
    <tag k="addr:state" v="VT"/>
    <tag k="ref:vcgi:esiteid" v="90552"/>
  </node>
  <node id="-103" visible="true" lat="44.70007705" lon="-71.84162902">
    <tag k="addr:city" v="East Haven"/>
    <tag k="addr:housenumber" v="3207"/>
    <tag k="addr:street" v="Lost Nation Road"/>
    <tag k="addr:state" v="VT"/>
    <tag k="ref:vcgi:esiteid" v="90553"/>
  </node>
  <node id="-104" visible="true" lat="44.69996261" lon="-71.84183502">
    <tag k="addr:city" v="East Haven"/>
    <tag k="addr:housenumber" v="3209"/>
    <tag k="addr:street" v="Lost Nation Road"/>
    <tag k="addr:state" v="VT"/>
    <tag k="ref:vcgi:esiteid" v="90554"/>
  </node>
  <node id="-105" visible="true" lat="44.69924238" lon="-71.85378268">
    <tag k="addr:city" v="East Haven"/>
    <tag k="addr:housenumber" v="464"/>
    <tag k="addr:street" v="Jack Brook Road"/>
    <tag k="addr:state" v="VT"/>
    <tag k="ref:vcgi:esiteid" v="90555"/>
  </node>
  <node id="-106" visible="true" lat="44.69996104" lon="-71.84422714">
    <tag k="addr:city" v="East Haven"/>
    <tag k="addr:housenumber" v="3065"/>
    <tag k="addr:street" v="Lost Nation Road"/>
    <tag k="addr:state" v="VT"/>
    <tag k="ref:vcgi:esiteid" v="90556"/>
  </node>
  <node id="-107" visible="true" lat="44.69815802" lon="-71.85558155">
    <tag k="addr:city" v="East Haven"/>
    <tag k="addr:housenumber" v="475"/>
    <tag k="addr:street" v="Jack Brook Road"/>
    <tag k="addr:state" v="VT"/>
    <tag k="ref:vcgi:esiteid" v="90557"/>
  </node>
  <node id="-108" visible="true" lat="44.69804" lon="-71.84381103">
    <tag k="addr:city" v="East Haven"/>
    <tag k="addr:housenumber" v="2985"/>
    <tag k="addr:street" v="Lost Nation Road"/>
    <tag k="addr:state" v="VT"/>
    <tag k="ref:vcgi:esiteid" v="90558"/>
  </node>
  <node id="-109" visible="true" lat="44.69771194" lon="-71.84972381">
    <tag k="addr:city" v="East Haven"/>
    <tag k="addr:housenumber" v="188"/>
    <tag k="addr:street" v="Jack Brook Road"/>
    <tag k="addr:state" v="VT"/>
    <tag k="ref:vcgi:esiteid" v="90559"/>
  </node>
  <node id="-110" visible="true" lat="44.6973114" lon="-71.85256957">
    <tag k="addr:city" v="East Haven"/>
    <tag k="addr:housenumber" v="315"/>
    <tag k="addr:street" v="Jack Brook Road"/>
    <tag k="addr:state" v="VT"/>
    <tag k="ref:vcgi:esiteid" v="90560"/>
  </node>
  <node id="-111" visible="true" lat="44.69659782" lon="-71.84223184">
    <tag k="addr:city" v="East Haven"/>
    <tag k="addr:housenumber" v="97"/>
    <tag k="addr:street" v="Labay Place"/>
    <tag k="addr:state" v="VT"/>
    <tag k="ref:vcgi:esiteid" v="90561"/>
  </node>
  <node id="-112" visible="true" lat="44.69661712" lon="-71.84886169">
    <tag k="addr:city" v="East Haven"/>
    <tag k="addr:housenumber" v="140"/>
    <tag k="addr:street" v="Jack Brook Road"/>
    <tag k="addr:state" v="VT"/>
    <tag k="ref:vcgi:esiteid" v="90562"/>
  </node>
  <node id="-113" visible="true" lat="44.69492346" lon="-71.84784485">
    <tag k="addr:city" v="East Haven"/>
    <tag k="addr:housenumber" v="129"/>
    <tag k="addr:street" v="Jack Brook Road"/>
    <tag k="addr:state" v="VT"/>
    <tag k="ref:vcgi:esiteid" v="90563"/>
  </node>
  <node id="-114" visible="true" lat="44.69593919" lon="-71.83982776">
    <tag k="addr:city" v="East Haven"/>
    <tag k="addr:housenumber" v="201"/>
    <tag k="addr:street" v="Labay Place"/>
    <tag k="addr:state" v="VT"/>
    <tag k="ref:vcgi:esiteid" v="90564"/>
  </node>
  <node id="-115" visible="true" lat="44.69497248" lon="-71.84411316">
    <tag k="addr:city" v="East Haven"/>
    <tag k="addr:housenumber" v="2816"/>
    <tag k="addr:street" v="Lost Nation Road"/>
    <tag k="addr:state" v="VT"/>
    <tag k="ref:vcgi:esiteid" v="90565"/>
  </node>
  <node id="-116" visible="true" lat="44.6947986" lon="-71.83845232">
    <tag k="addr:city" v="East Haven"/>
    <tag k="addr:housenumber" v="249"/>
    <tag k="addr:street" v="Labay Place"/>
    <tag k="addr:state" v="VT"/>
    <tag k="ref:vcgi:esiteid" v="90566"/>
  </node>
  <node id="-117" visible="true" lat="44.69421893" lon="-71.83938223">
    <tag k="addr:city" v="East Haven"/>
    <tag k="addr:housenumber" v="250"/>
    <tag k="addr:street" v="Labay Place"/>
    <tag k="addr:state" v="VT"/>
    <tag k="ref:vcgi:esiteid" v="90567"/>
  </node>
  <node id="-118" visible="true" lat="44.69480133" lon="-71.84103393">
    <tag k="addr:city" v="East Haven"/>
    <tag k="addr:housenumber" v="240"/>
    <tag k="addr:street" v="Labay Place"/>
    <tag k="addr:state" v="VT"/>
    <tag k="ref:vcgi:esiteid" v="90568"/>
  </node>
  <node id="-119" visible="true" lat="44.69351196" lon="-71.84638214">
    <tag k="addr:city" v="East Haven"/>
    <tag k="addr:housenumber" v="2688"/>
    <tag k="addr:street" v="Lost Nation Road"/>
    <tag k="addr:state" v="VT"/>
    <tag k="ref:vcgi:esiteid" v="90569"/>
  </node>
  <node id="-120" visible="true" lat="44.69246292" lon="-71.84858703">
    <tag k="addr:city" v="East Haven"/>
    <tag k="addr:housenumber" v="2507"/>
    <tag k="addr:street" v="Lost Nation Road"/>
    <tag k="addr:state" v="VT"/>
    <tag k="ref:vcgi:esiteid" v="90570"/>
  </node>
  <node id="-121" visible="true" lat="44.69041182" lon="-71.84710606">
    <tag k="addr:city" v="East Haven"/>
    <tag k="addr:housenumber" v="2448"/>
    <tag k="addr:street" v="Lost Nation Road"/>
    <tag k="addr:state" v="VT"/>
    <tag k="ref:vcgi:esiteid" v="90571"/>
  </node>
  <node id="-122" visible="true" lat="44.68815523" lon="-71.85115077">
    <tag k="addr:city" v="East Haven"/>
    <tag k="addr:housenumber" v="2207"/>
    <tag k="addr:street" v="Lost Nation Road"/>
    <tag k="addr:state" v="VT"/>
    <tag k="ref:vcgi:esiteid" v="90572"/>
  </node>
  <node id="-123" visible="true" lat="44.68671798" lon="-71.85212707">
    <tag k="addr:city" v="East Haven"/>
    <tag k="addr:housenumber" v="2101"/>
    <tag k="addr:street" v="Lost Nation Road"/>
    <tag k="addr:state" v="VT"/>
    <tag k="ref:vcgi:esiteid" v="90573"/>
  </node>
  <node id="-124" visible="true" lat="44.68659524" lon="-71.85052982">
    <tag k="addr:city" v="East Haven"/>
    <tag k="addr:housenumber" v="2094"/>
    <tag k="addr:street" v="Lost Nation Road"/>
    <tag k="addr:state" v="VT"/>
    <tag k="ref:vcgi:esiteid" v="90574"/>
  </node>
  <node id="-125" visible="true" lat="44.68512844" lon="-71.85087746">
    <tag k="addr:city" v="East Haven"/>
    <tag k="addr:housenumber" v="1980"/>
    <tag k="addr:street" v="Lost Nation Road"/>
    <tag k="addr:state" v="VT"/>
    <tag k="ref:vcgi:esiteid" v="90575"/>
  </node>
  <node id="-126" visible="true" lat="44.68389225" lon="-71.85333174">
    <tag k="addr:city" v="East Haven"/>
    <tag k="addr:housenumber" v="1885"/>
    <tag k="addr:street" v="Lost Nation Road"/>
    <tag k="addr:state" v="VT"/>
    <tag k="ref:vcgi:esiteid" v="90576"/>
  </node>
  <node id="-127" visible="true" lat="44.68324661" lon="-71.85336303">
    <tag k="addr:city" v="East Haven"/>
    <tag k="addr:housenumber" v="1828"/>
    <tag k="addr:street" v="Lost Nation Road"/>
    <tag k="addr:state" v="VT"/>
    <tag k="ref:vcgi:esiteid" v="90577"/>
  </node>
  <node id="-128" visible="true" lat="44.6779062" lon="-71.86626329">
    <tag k="addr:city" v="East Haven"/>
    <tag k="addr:housenumber" v="1005"/>
    <tag k="addr:street" v="Lost Nation Road"/>
    <tag k="addr:state" v="VT"/>
    <tag k="ref:vcgi:esiteid" v="90578"/>
  </node>
  <node id="-129" visible="true" lat="44.67803913" lon="-71.87139932">
    <tag k="addr:city" v="East Haven"/>
    <tag k="addr:housenumber" v="741"/>
    <tag k="addr:street" v="Lost Nation Road"/>
    <tag k="addr:state" v="VT"/>
    <tag k="ref:vcgi:esiteid" v="90579"/>
  </node>
  <node id="-130" visible="true" lat="44.67740509" lon="-71.87378111">
    <tag k="addr:city" v="East Haven"/>
    <tag k="addr:housenumber" v="571"/>
    <tag k="addr:street" v="Lost Nation Road"/>
    <tag k="addr:state" v="VT"/>
    <tag k="ref:vcgi:esiteid" v="90580"/>
  </node>
  <node id="-131" visible="true" lat="44.67675906" lon="-71.87264867">
    <tag k="addr:city" v="East Haven"/>
    <tag k="addr:housenumber" v="664"/>
    <tag k="addr:street" v="Lost Nation Road"/>
    <tag k="addr:state" v="VT"/>
    <tag k="ref:vcgi:esiteid" v="90581"/>
  </node>
  <node id="-132" visible="true" lat="44.67643089" lon="-71.87341916">
    <tag k="addr:city" v="East Haven"/>
    <tag k="addr:housenumber" v="608"/>
    <tag k="addr:street" v="Lost Nation Road"/>
    <tag k="addr:state" v="VT"/>
    <tag k="ref:vcgi:esiteid" v="90582"/>
  </node>
  <node id="-133" visible="true" lat="44.67451056" lon="-71.87771956">
    <tag k="addr:city" v="East Haven"/>
    <tag k="addr:housenumber" v="378"/>
    <tag k="addr:street" v="Lost Nation Road"/>
    <tag k="addr:state" v="VT"/>
    <tag k="ref:vcgi:esiteid" v="90583"/>
  </node>
  <node id="-134" visible="true" lat="44.67154657" lon="-71.88350398">
    <tag k="addr:city" v="East Haven"/>
    <tag k="addr:housenumber" v="2"/>
    <tag k="addr:street" v="Lost Nation Road"/>
    <tag k="addr:state" v="VT"/>
    <tag k="ref:vcgi:esiteid" v="90584"/>
  </node>
  <node id="-135" visible="true" lat="44.66963664" lon="-71.88557189">
    <tag k="addr:city" v="East Haven"/>
    <tag k="addr:housenumber" v="2200"/>
    <tag k="addr:street" v="Vermont Route 114"/>
    <tag k="addr:state" v="VT"/>
    <tag k="ref:vcgi:esiteid" v="90585"/>
  </node>
  <node id="-136" visible="true" lat="44.66877467" lon="-71.88538729">
    <tag k="addr:city" v="East Haven"/>
    <tag k="addr:housenumber" v="54"/>
    <tag k="addr:street" v="Simpson Road"/>
    <tag k="addr:state" v="VT"/>
    <tag k="ref:vcgi:esiteid" v="90586"/>
  </node>
  <node id="-137" visible="true" lat="44.66768557" lon="-71.88746224">
    <tag k="addr:city" v="East Haven"/>
    <tag k="addr:housenumber" v="2029"/>
    <tag k="addr:street" v="Vermont Route 114"/>
    <tag k="addr:state" v="VT"/>
    <tag k="ref:vcgi:esiteid" v="90587"/>
  </node>
  <node id="-138" visible="true" lat="44.66707673" lon="-71.88647556">
    <tag k="addr:city" v="East Haven"/>
    <tag k="addr:housenumber" v="2024"/>
    <tag k="addr:street" v="Vermont Route 114"/>
    <tag k="addr:state" v="VT"/>
    <tag k="ref:vcgi:esiteid" v="90588"/>
  </node>
  <node id="-139" visible="true" lat="44.66526794" lon="-71.77094268">
    <tag k="addr:city" v="East Haven"/>
    <tag k="addr:housenumber" v="8366"/>
    <tag k="addr:street" v="Radar Road"/>
    <tag k="addr:state" v="VT"/>
    <tag k="ref:vcgi:esiteid" v="90589"/>
  </node>
  <node id="-140" visible="true" lat="44.66542895" lon="-71.88683916">
    <tag k="addr:city" v="East Haven"/>
    <tag k="addr:housenumber" v="1892"/>
    <tag k="addr:street" v="Vermont Route 114"/>
    <tag k="addr:state" v="VT"/>
    <tag k="ref:vcgi:esiteid" v="90590"/>
  </node>
  <node id="-141" visible="true" lat="44.66563657" lon="-71.8880599">
    <tag k="addr:city" v="East Haven"/>
    <tag k="addr:housenumber" v="1881"/>
    <tag k="addr:street" v="Vermont Route 114"/>
    <tag k="addr:state" v="VT"/>
    <tag k="ref:vcgi:esiteid" v="90591"/>
  </node>
  <node id="-142" visible="true" lat="44.66516074" lon="-71.89061907">
    <tag k="addr:city" v="East Haven"/>
    <tag k="addr:housenumber" v="92"/>
    <tag k="addr:street" v="Bean Brook Road"/>
    <tag k="addr:state" v="VT"/>
    <tag k="ref:vcgi:esiteid" v="90592"/>
  </node>
  <node id="-143" visible="true" lat="44.66413634" lon="-71.88834921">
    <tag k="addr:city" v="East Haven"/>
    <tag k="addr:housenumber" v="1802"/>
    <tag k="addr:street" v="Vermont Route 114"/>
    <tag k="addr:state" v="VT"/>
    <tag k="ref:vcgi:esiteid" v="90593"/>
  </node>
  <node id="-144" visible="true" lat="44.66433118" lon="-71.88897995">
    <tag k="addr:city" v="East Haven"/>
    <tag k="addr:housenumber" v="1789"/>
    <tag k="addr:street" v="Vermont Route 114"/>
    <tag k="addr:state" v="VT"/>
    <tag k="ref:vcgi:esiteid" v="90594"/>
  </node>
  <node id="-145" visible="true" lat="44.66371708" lon="-71.88856748">
    <tag k="addr:city" v="East Haven"/>
    <tag k="addr:housenumber" v="1776"/>
    <tag k="addr:street" v="Vermont Route 114"/>
    <tag k="addr:state" v="VT"/>
    <tag k="ref:vcgi:esiteid" v="90595"/>
  </node>
  <node id="-146" visible="true" lat="44.66405292" lon="-71.88898624">
    <tag k="addr:city" v="East Haven"/>
    <tag k="addr:housenumber" v="1771"/>
    <tag k="addr:street" v="Vermont Route 114"/>
    <tag k="addr:state" v="VT"/>
    <tag k="ref:vcgi:esiteid" v="90596"/>
  </node>
  <node id="-147" visible="true" lat="44.66379798" lon="-71.88913764">
    <tag k="addr:city" v="East Haven"/>
    <tag k="addr:housenumber" v="1753"/>
    <tag k="addr:street" v="Vermont Route 114"/>
    <tag k="addr:state" v="VT"/>
    <tag k="ref:vcgi:esiteid" v="90597"/>
  </node>
  <node id="-148" visible="true" lat="44.66278657" lon="-71.88975114">
    <tag k="addr:city" v="East Haven"/>
    <tag k="addr:housenumber" v="1687"/>
    <tag k="addr:street" v="Vermont Route 114"/>
    <tag k="addr:state" v="VT"/>
    <tag k="ref:vcgi:esiteid" v="90598"/>
  </node>
  <node id="-149" visible="true" lat="44.66159063" lon="-71.88739555">
    <tag k="addr:city" v="East Haven"/>
    <tag k="addr:housenumber" v="274"/>
    <tag k="addr:street" v="Victorian Road"/>
    <tag k="addr:state" v="VT"/>
    <tag k="ref:vcgi:esiteid" v="90599"/>
  </node>
  <node id="-150" visible="true" lat="44.66068638" lon="-71.89126857">
    <tag k="addr:city" v="East Haven"/>
    <tag k="addr:housenumber" v="1515"/>
    <tag k="addr:street" v="Vermont Route 114"/>
    <tag k="addr:state" v="VT"/>
    <tag k="ref:vcgi:esiteid" v="90600"/>
  </node>
  <node id="-151" visible="true" lat="44.66024315" lon="-71.88846341">
    <tag k="addr:city" v="East Haven"/>
    <tag k="addr:housenumber" v="210"/>
    <tag k="addr:street" v="Victorian Road"/>
    <tag k="addr:state" v="VT"/>
    <tag k="ref:vcgi:esiteid" v="90601"/>
  </node>
  <node id="-152" visible="true" lat="44.65987508" lon="-71.88880899">
    <tag k="addr:city" v="East Haven"/>
    <tag k="addr:housenumber" v="191"/>
    <tag k="addr:street" v="Victorian Road"/>
    <tag k="addr:state" v="VT"/>
    <tag k="ref:vcgi:esiteid" v="90602"/>
  </node>
  <node id="-153" visible="true" lat="44.65936279" lon="-71.89170074">
    <tag k="addr:city" v="East Haven"/>
    <tag k="addr:housenumber" v="1435"/>
    <tag k="addr:street" v="Vermont Route 114"/>
    <tag k="addr:state" v="VT"/>
    <tag k="ref:vcgi:esiteid" v="90603"/>
  </node>
  <node id="-154" visible="true" lat="44.65918626" lon="-71.8906222">
    <tag k="addr:city" v="East Haven"/>
    <tag k="addr:housenumber" v="1428"/>
    <tag k="addr:street" v="Vermont Route 114"/>
    <tag k="addr:state" v="VT"/>
    <tag k="ref:vcgi:esiteid" v="90604"/>
  </node>
  <node id="-156" visible="true" lat="44.65868619" lon="-71.8892948">
    <tag k="addr:city" v="East Haven"/>
    <tag k="addr:housenumber" v="95"/>
    <tag k="addr:street" v="Victorian Road"/>
    <tag k="addr:state" v="VT"/>
    <tag k="ref:vcgi:esiteid" v="90606"/>
  </node>
  <node id="-157" visible="true" lat="44.65840148" lon="-71.82598876">
    <tag k="addr:city" v="East Haven"/>
    <tag k="addr:housenumber" v="3307"/>
    <tag k="addr:street" v="Radar Road"/>
    <tag k="addr:state" v="VT"/>
    <tag k="ref:vcgi:esiteid" v="90607"/>
  </node>
  <node id="-158" visible="true" lat="44.65748805" lon="-71.89183099">
    <tag k="addr:city" v="East Haven"/>
    <tag k="addr:housenumber" v="1285"/>
    <tag k="addr:street" v="Vermont Route 114"/>
    <tag k="addr:state" v="VT"/>
    <tag k="ref:vcgi:esiteid" v="90608"/>
  </node>
  <node id="-159" visible="true" lat="44.65698623" lon="-71.88788604">
    <tag k="addr:city" v="East Haven"/>
    <tag k="addr:housenumber" v="145"/>
    <tag k="addr:street" v="River Road"/>
    <tag k="addr:state" v="VT"/>
    <tag k="ref:vcgi:esiteid" v="90609"/>
  </node>
  <node id="-160" visible="true" lat="44.65671529" lon="-71.89201876">
    <tag k="addr:city" v="East Haven"/>
    <tag k="addr:housenumber" v="1247"/>
    <tag k="addr:street" v="Vermont Route 114"/>
    <tag k="addr:state" v="VT"/>
    <tag k="ref:vcgi:esiteid" v="90610"/>
  </node>
  <node id="-161" visible="true" lat="44.65657806" lon="-71.89253997">
    <tag k="addr:city" v="East Haven"/>
    <tag k="addr:housenumber" v="1229"/>
    <tag k="addr:street" v="Vermont Route 114"/>
    <tag k="addr:state" v="VT"/>
    <tag k="ref:vcgi:esiteid" v="90611"/>
  </node>
  <node id="-162" visible="true" lat="44.6565973" lon="-71.89044048">
    <tag k="addr:city" v="East Haven"/>
    <tag k="addr:housenumber" v="88"/>
    <tag k="addr:street" v="River Road"/>
    <tag k="addr:state" v="VT"/>
    <tag k="ref:vcgi:esiteid" v="90612"/>
  </node>
  <node id="-163" visible="true" lat="44.65636352" lon="-71.89225222">
    <tag k="addr:city" v="East Haven"/>
    <tag k="addr:housenumber" v="1219"/>
    <tag k="addr:street" v="Vermont Route 114"/>
    <tag k="addr:state" v="VT"/>
    <tag k="ref:vcgi:esiteid" v="90613"/>
  </node>
  <node id="-164" visible="true" lat="44.6558725" lon="-71.89292844">
    <tag k="addr:city" v="East Haven"/>
    <tag k="addr:housenumber" v="1175"/>
    <tag k="addr:street" v="Vermont Route 114"/>
    <tag k="addr:state" v="VT"/>
    <tag k="ref:vcgi:esiteid" v="90614"/>
  </node>
  <node id="-165" visible="true" lat="44.65532681" lon="-71.8870644">
    <tag k="addr:city" v="East Haven"/>
    <tag k="addr:housenumber" v="288"/>
    <tag k="addr:street" v="River Road"/>
    <tag k="addr:state" v="VT"/>
    <tag k="ref:vcgi:esiteid" v="90615"/>
  </node>
  <node id="-166" visible="true" lat="44.65522919" lon="-71.89042511">
    <tag k="addr:city" v="East Haven"/>
    <tag k="addr:housenumber" v="90"/>
    <tag k="addr:street" v="River Road"/>
    <tag k="addr:state" v="VT"/>
    <tag k="ref:vcgi:esiteid" v="90616"/>
  </node>
  <node id="-167" visible="true" lat="44.65518167" lon="-71.89354108">
    <tag k="addr:city" v="East Haven"/>
    <tag k="addr:housenumber" v="1111"/>
    <tag k="addr:street" v="Vermont Route 114"/>
    <tag k="addr:state" v="VT"/>
    <tag k="ref:vcgi:esiteid" v="90617"/>
  </node>
  <node id="-168" visible="true" lat="44.65429918" lon="-71.89230398">
    <tag k="addr:city" v="East Haven"/>
    <tag k="addr:housenumber" v="1079"/>
    <tag k="addr:street" v="Vermont Route 114"/>
    <tag k="addr:state" v="VT"/>
    <tag k="ref:vcgi:esiteid" v="90618"/>
  </node>
  <node id="-169" visible="true" lat="44.65399389" lon="-71.89237484">
    <tag k="addr:city" v="East Haven"/>
    <tag k="addr:housenumber" v="1069"/>
    <tag k="addr:street" v="Vermont Route 114"/>
    <tag k="addr:state" v="VT"/>
    <tag k="ref:vcgi:esiteid" v="90619"/>
  </node>
  <node id="-170" visible="true" lat="44.65380875" lon="-71.89238346">
    <tag k="addr:city" v="East Haven"/>
    <tag k="addr:housenumber" v="1047"/>
    <tag k="addr:street" v="Vermont Route 114"/>
    <tag k="addr:state" v="VT"/>
    <tag k="ref:vcgi:esiteid" v="90620"/>
  </node>
  <node id="-171" visible="true" lat="44.65256881" lon="-71.89161682">
    <tag k="addr:city" v="East Haven"/>
    <tag k="addr:housenumber" v="938"/>
    <tag k="addr:street" v="Vermont Route 114"/>
    <tag k="addr:state" v="VT"/>
    <tag k="ref:vcgi:esiteid" v="90621"/>
  </node>
  <node id="-172" visible="true" lat="44.65215603" lon="-71.89416819">
    <tag k="addr:city" v="East Haven"/>
    <tag k="addr:housenumber" v="919"/>
    <tag k="addr:street" v="Vermont Route 114"/>
    <tag k="addr:state" v="VT"/>
    <tag k="ref:vcgi:esiteid" v="90622"/>
  </node>
  <node id="-173" visible="true" lat="44.65145151" lon="-71.90148201">
    <tag k="addr:city" v="East Haven"/>
    <tag k="addr:housenumber" v="530"/>
    <tag k="addr:street" v="Walters Farm Road"/>
    <tag k="addr:state" v="VT"/>
    <tag k="ref:vcgi:esiteid" v="90623"/>
  </node>
  <node id="-175" visible="true" lat="44.65205861" lon="-71.90249733">
    <tag k="addr:city" v="East Haven"/>
    <tag k="addr:housenumber" v="536"/>
    <tag k="addr:street" v="Walters Farm Road"/>
    <tag k="addr:state" v="VT"/>
    <tag k="ref:vcgi:esiteid" v="90625"/>
  </node>
  <node id="-176" visible="true" lat="44.6509819" lon="-71.89248657">
    <tag k="addr:city" v="East Haven"/>
    <tag k="addr:housenumber" v="871"/>
    <tag k="addr:street" v="Vermont Route 114"/>
    <tag k="addr:state" v="VT"/>
    <tag k="ref:vcgi:esiteid" v="90626"/>
  </node>
  <node id="-177" visible="true" lat="44.65056792" lon="-71.90217711">
    <tag k="addr:city" v="East Haven"/>
    <tag k="addr:housenumber" v="554"/>
    <tag k="addr:street" v="Walters Farm Road"/>
    <tag k="addr:state" v="VT"/>
    <tag k="ref:vcgi:esiteid" v="90627"/>
  </node>
  <node id="-178" visible="true" lat="44.65063678" lon="-71.89200505">
    <tag k="addr:city" v="East Haven"/>
    <tag k="addr:housenumber" v="832"/>
    <tag k="addr:street" v="Vermont Route 114"/>
    <tag k="addr:state" v="VT"/>
    <tag k="ref:vcgi:esiteid" v="90628"/>
  </node>
  <node id="-179" visible="true" lat="44.65016174" lon="-71.90175628">
    <tag k="addr:city" v="East Haven"/>
    <tag k="addr:housenumber" v="589"/>
    <tag k="addr:street" v="Walters Farm Road"/>
    <tag k="addr:state" v="VT"/>
    <tag k="ref:vcgi:esiteid" v="90629"/>
  </node>
  <node id="-180" visible="true" lat="44.65018745" lon="-71.89998915">
    <tag k="addr:city" v="East Haven"/>
    <tag k="addr:housenumber" v="425"/>
    <tag k="addr:street" v="Walters Farm Road"/>
    <tag k="addr:state" v="VT"/>
    <tag k="ref:vcgi:esiteid" v="90630"/>
  </node>
  <node id="-181" visible="true" lat="44.65002615" lon="-71.8997465">
    <tag k="addr:city" v="East Haven"/>
    <tag k="addr:housenumber" v="419"/>
    <tag k="addr:street" v="Walters Farm Road"/>
    <tag k="addr:state" v="VT"/>
    <tag k="ref:vcgi:esiteid" v="90631"/>
  </node>
  <node id="-182" visible="true" lat="44.6496582" lon="-71.89396667">
    <tag k="addr:city" v="East Haven"/>
    <tag k="addr:housenumber" v="739"/>
    <tag k="addr:street" v="Vermont Route 114"/>
    <tag k="addr:state" v="VT"/>
    <tag k="ref:vcgi:esiteid" v="90632"/>
  </node>
  <node id="-184" visible="true" lat="44.64740505" lon="-71.89593824">
    <tag k="addr:city" v="East Haven"/>
    <tag k="addr:housenumber" v="165"/>
    <tag k="addr:street" v="Walters Farm Road"/>
    <tag k="addr:state" v="VT"/>
    <tag k="ref:vcgi:esiteid" v="90634"/>
  </node>
  <node id="-185" visible="true" lat="44.64747999" lon="-71.89322663">
    <tag k="addr:city" v="East Haven"/>
    <tag k="addr:housenumber" v="597"/>
    <tag k="addr:street" v="Vermont Route 114"/>
    <tag k="addr:state" v="VT"/>
    <tag k="ref:vcgi:esiteid" v="90635"/>
  </node>
  <node id="-186" visible="true" lat="44.6470967" lon="-71.89533672">
    <tag k="addr:city" v="East Haven"/>
    <tag k="addr:housenumber" v="135"/>
    <tag k="addr:street" v="Walters Farm Road"/>
    <tag k="addr:state" v="VT"/>
    <tag k="ref:vcgi:esiteid" v="90636"/>
  </node>
  <node id="-187" visible="true" lat="44.64681826" lon="-71.89335864">
    <tag k="addr:city" v="East Haven"/>
    <tag k="addr:housenumber" v="26"/>
    <tag k="addr:street" v="Walters Farm Road"/>
    <tag k="addr:state" v="VT"/>
    <tag k="ref:vcgi:esiteid" v="90637"/>
  </node>
  <node id="-189" visible="true" lat="44.64656007" lon="-71.89093769">
    <tag k="addr:city" v="East Haven"/>
    <tag k="addr:housenumber" v="580"/>
    <tag k="addr:street" v="School Street"/>
    <tag k="addr:state" v="VT"/>
    <tag k="ref:vcgi:esiteid" v="90639"/>
  </node>
  <node id="-190" visible="true" lat="44.6465203" lon="-71.88874384">
    <tag k="addr:city" v="East Haven"/>
    <tag k="addr:housenumber" v="96"/>
    <tag k="addr:street" v="Pumphouse Road"/>
    <tag k="addr:state" v="VT"/>
    <tag k="ref:vcgi:esiteid" v="90640"/>
  </node>
  <node id="-191" visible="true" lat="44.64554841" lon="-71.8937362">
    <tag k="addr:city" v="East Haven"/>
    <tag k="addr:housenumber" v="449"/>
    <tag k="addr:street" v="Vermont Route 114"/>
    <tag k="addr:state" v="VT"/>
    <tag k="ref:vcgi:esiteid" v="90641"/>
  </node>
  <node id="-192" visible="true" lat="44.64520647" lon="-71.89082618">
    <tag k="addr:city" v="East Haven"/>
    <tag k="addr:housenumber" v="490"/>
    <tag k="addr:street" v="School Street"/>
    <tag k="addr:state" v="VT"/>
    <tag k="ref:vcgi:esiteid" v="90642"/>
  </node>
  <node id="-194" visible="true" lat="44.64474487" lon="-71.88902282">
    <tag k="addr:city" v="East Haven"/>
    <tag k="addr:housenumber" v="83"/>
    <tag k="addr:street" v="Rubys Road"/>
    <tag k="addr:state" v="VT"/>
    <tag k="ref:vcgi:esiteid" v="90644"/>
  </node>
  <node id="-195" visible="true" lat="44.64454066" lon="-71.89105839">
    <tag k="addr:city" v="East Haven"/>
    <tag k="addr:housenumber" v="465"/>
    <tag k="addr:street" v="School Street"/>
    <tag k="addr:state" v="VT"/>
    <tag k="ref:vcgi:esiteid" v="90645"/>
  </node>
  <node id="-196" visible="true" lat="44.64459781" lon="-71.88671612">
    <tag k="addr:city" v="East Haven"/>
    <tag k="addr:housenumber" v="369"/>
    <tag k="addr:street" v="Mountain Road"/>
    <tag k="addr:state" v="VT"/>
    <tag k="ref:vcgi:esiteid" v="90646"/>
  </node>
  <node id="-197" visible="true" lat="44.64452743" lon="-71.88934326">
    <tag k="addr:city" v="East Haven"/>
    <tag k="addr:housenumber" v="61"/>
    <tag k="addr:street" v="Rubys Road"/>
    <tag k="addr:state" v="VT"/>
    <tag k="ref:vcgi:esiteid" v="90647"/>
  </node>
  <node id="-198" visible="true" lat="44.64454924" lon="-71.89043262">
    <tag k="addr:city" v="East Haven"/>
    <tag k="addr:housenumber" v="440"/>
    <tag k="addr:street" v="School Street"/>
    <tag k="addr:state" v="VT"/>
    <tag k="ref:vcgi:esiteid" v="90648"/>
  </node>
  <node id="-199" visible="true" lat="44.64431762" lon="-71.88916015">
    <tag k="addr:city" v="East Haven"/>
    <tag k="addr:housenumber" v="60"/>
    <tag k="addr:street" v="Rubys Road"/>
    <tag k="addr:state" v="VT"/>
    <tag k="ref:vcgi:esiteid" v="90649"/>
  </node>
  <node id="-200" visible="true" lat="44.64429092" lon="-71.88970184">
    <tag k="addr:city" v="East Haven"/>
    <tag k="addr:housenumber" v="37"/>
    <tag k="addr:street" v="Rubys Road"/>
    <tag k="addr:state" v="VT"/>
    <tag k="ref:vcgi:esiteid" v="90650"/>
  </node>
  <node id="-201" visible="true" lat="44.64417997" lon="-71.89073088">
    <tag k="addr:city" v="East Haven"/>
    <tag k="addr:housenumber" v="169"/>
    <tag k="addr:street" v="Maple Street"/>
    <tag k="addr:state" v="VT"/>
    <tag k="ref:vcgi:esiteid" v="90652"/>
  </node>
  <node id="-202" visible="true" lat="44.64402818" lon="-71.89100536">
    <tag k="addr:city" v="East Haven"/>
    <tag k="addr:housenumber" v="155"/>
    <tag k="addr:street" v="Maple Street"/>
    <tag k="addr:state" v="VT"/>
    <tag k="ref:vcgi:esiteid" v="90653"/>
  </node>
  <node id="-203" visible="true" lat="44.64387512" lon="-71.89064025">
    <tag k="addr:city" v="East Haven"/>
    <tag k="addr:housenumber" v="162"/>
    <tag k="addr:street" v="Maple Street"/>
    <tag k="addr:state" v="VT"/>
    <tag k="ref:vcgi:esiteid" v="90654"/>
  </node>
  <node id="-204" visible="true" lat="44.64385986" lon="-71.89187622">
    <tag k="addr:city" v="East Haven"/>
    <tag k="addr:housenumber" v="40"/>
    <tag k="addr:street" v="Maple Street Extension"/>
    <tag k="addr:state" v="VT"/>
    <tag k="ref:vcgi:esiteid" v="90655"/>
  </node>
  <node id="-205" visible="true" lat="44.64392218" lon="-71.89123171">
    <tag k="addr:city" v="East Haven"/>
    <tag k="addr:housenumber" v="135"/>
    <tag k="addr:street" v="Maple Street"/>
    <tag k="addr:state" v="VT"/>
    <tag k="ref:vcgi:esiteid" v="90657"/>
  </node>
  <node id="-206" visible="true" lat="44.64373397" lon="-71.89092254">
    <tag k="addr:city" v="East Haven"/>
    <tag k="addr:housenumber" v="146"/>
    <tag k="addr:street" v="Maple Street"/>
    <tag k="addr:state" v="VT"/>
    <tag k="ref:vcgi:esiteid" v="90658"/>
  </node>
  <node id="-207" visible="true" lat="44.64371055" lon="-71.88964413">
    <tag k="addr:city" v="East Haven"/>
    <tag k="addr:housenumber" v="374"/>
    <tag k="addr:street" v="School Street"/>
    <tag k="addr:state" v="VT"/>
    <tag k="ref:vcgi:esiteid" v="90659"/>
  </node>
  <node id="-208" visible="true" lat="44.64367373" lon="-71.89152618">
    <tag k="addr:city" v="East Haven"/>
    <tag k="addr:housenumber" v="133"/>
    <tag k="addr:street" v="Maple Street"/>
    <tag k="addr:state" v="VT"/>
    <tag k="ref:vcgi:esiteid" v="90660"/>
  </node>
  <node id="-210" visible="true" lat="44.64345423" lon="-71.87692763">
    <tag k="addr:city" v="East Haven"/>
    <tag k="addr:housenumber" v="877"/>
    <tag k="addr:street" v="Mountain Road"/>
    <tag k="addr:state" v="VT"/>
    <tag k="ref:vcgi:esiteid" v="90663"/>
  </node>
  <node id="-211" visible="true" lat="44.64346191" lon="-71.88375235">
    <tag k="addr:city" v="East Haven"/>
    <tag k="addr:housenumber" v="42"/>
    <tag k="addr:street" v="Olson Drive"/>
    <tag k="addr:state" v="VT"/>
    <tag k="ref:vcgi:esiteid" v="90664"/>
  </node>
  <node id="-212" visible="true" lat="44.64350434" lon="-71.89019084">
    <tag k="addr:city" v="East Haven"/>
    <tag k="addr:housenumber" v="12"/>
    <tag k="addr:street" v="Cross Street"/>
    <tag k="addr:state" v="VT"/>
    <tag k="ref:vcgi:esiteid" v="90665"/>
  </node>
  <node id="-213" visible="true" lat="44.64348021" lon="-71.8914499">
    <tag k="addr:city" v="East Haven"/>
    <tag k="addr:housenumber" v="115"/>
    <tag k="addr:street" v="Maple Street"/>
    <tag k="addr:state" v="VT"/>
    <tag k="ref:vcgi:esiteid" v="90666"/>
  </node>
  <node id="-214" visible="true" lat="44.64336029" lon="-71.89045263">
    <tag k="addr:city" v="East Haven"/>
    <tag k="addr:housenumber" v="26"/>
    <tag k="addr:street" v="Cross Street"/>
    <tag k="addr:state" v="VT"/>
    <tag k="ref:vcgi:esiteid" v="90667"/>
  </node>
  <node id="-215" visible="true" lat="44.64319568" lon="-71.89076108">
    <tag k="addr:city" v="East Haven"/>
    <tag k="addr:housenumber" v="44"/>
    <tag k="addr:street" v="Cross Street"/>
    <tag k="addr:state" v="VT"/>
    <tag k="ref:vcgi:esiteid" v="90669"/>
  </node>
  <node id="-216" visible="true" lat="44.64322733" lon="-71.88990934">
    <tag k="addr:city" v="East Haven"/>
    <tag k="addr:housenumber" v="7"/>
    <tag k="addr:street" v="Haven Street"/>
    <tag k="addr:state" v="VT"/>
    <tag k="ref:vcgi:esiteid" v="90670"/>
  </node>
  <node id="-217" visible="true" lat="44.64304509" lon="-71.89025331">
    <tag k="addr:city" v="East Haven"/>
    <tag k="addr:housenumber" v="6"/>
    <tag k="addr:street" v="Haven Street"/>
    <tag k="addr:state" v="VT"/>
    <tag k="ref:vcgi:esiteid" v="90671"/>
  </node>
  <node id="-218" visible="true" lat="44.64301861" lon="-71.8867622">
    <tag k="addr:city" v="East Haven"/>
    <tag k="addr:housenumber" v="2"/>
    <tag k="addr:street" v="The Old Road"/>
    <tag k="addr:state" v="VT"/>
    <tag k="ref:vcgi:esiteid" v="90672"/>
  </node>
  <node id="-219" visible="true" lat="44.64302444" lon="-71.88076782">
    <tag k="addr:city" v="East Haven"/>
    <tag k="addr:housenumber" v="690"/>
    <tag k="addr:street" v="Mountain Road"/>
    <tag k="addr:state" v="VT"/>
    <tag k="ref:vcgi:esiteid" v="90673"/>
  </node>
  <node id="-220" visible="true" lat="44.64302373" lon="-71.88980253">
    <tag k="addr:city" v="East Haven"/>
    <tag k="addr:housenumber" v="19"/>
    <tag k="addr:street" v="Haven Street"/>
    <tag k="addr:state" v="VT"/>
    <tag k="ref:vcgi:esiteid" v="90674"/>
  </node>
  <node id="-221" visible="true" lat="44.64291078" lon="-71.8911117">
    <tag k="addr:city" v="East Haven"/>
    <tag k="addr:housenumber" v="79"/>
    <tag k="addr:street" v="Maple Street"/>
    <tag k="addr:state" v="VT"/>
    <tag k="ref:vcgi:esiteid" v="90675"/>
  </node>
  <node id="-222" visible="true" lat="44.64299046" lon="-71.87708457">
    <tag k="addr:city" v="East Haven"/>
    <tag k="addr:housenumber" v="866"/>
    <tag k="addr:street" v="Mountain Road"/>
    <tag k="addr:state" v="VT"/>
    <tag k="ref:vcgi:esiteid" v="90676"/>
  </node>
  <node id="-223" visible="true" lat="44.6428446" lon="-71.89010989">
    <tag k="addr:city" v="East Haven"/>
    <tag k="addr:housenumber" v="22"/>
    <tag k="addr:street" v="Haven Street"/>
    <tag k="addr:state" v="VT"/>
    <tag k="ref:vcgi:esiteid" v="90677"/>
  </node>
  <node id="-224" visible="true" lat="44.64284707" lon="-71.87948452">
    <tag k="addr:city" v="East Haven"/>
    <tag k="addr:housenumber" v="10"/>
    <tag k="addr:street" v="Youngs Road"/>
    <tag k="addr:state" v="VT"/>
    <tag k="ref:vcgi:esiteid" v="90678"/>
  </node>
  <node id="-225" visible="true" lat="44.64291192" lon="-71.87999314">
    <tag k="addr:city" v="East Haven"/>
    <tag k="addr:housenumber" v="718"/>
    <tag k="addr:street" v="Mountain Road"/>
    <tag k="addr:state" v="VT"/>
    <tag k="ref:vcgi:esiteid" v="90679"/>
  </node>
  <node id="-226" visible="true" lat="44.6428703" lon="-71.8906079">
    <tag k="addr:city" v="East Haven"/>
    <tag k="addr:housenumber" v="68"/>
    <tag k="addr:street" v="Maple Street"/>
    <tag k="addr:state" v="VT"/>
    <tag k="ref:vcgi:esiteid" v="90680"/>
  </node>
  <node id="-227" visible="true" lat="44.64278437" lon="-71.88962758">
    <tag k="addr:city" v="East Haven"/>
    <tag k="addr:housenumber" v="35"/>
    <tag k="addr:street" v="Haven Street"/>
    <tag k="addr:state" v="VT"/>
    <tag k="ref:vcgi:esiteid" v="90681"/>
  </node>
  <node id="-228" visible="true" lat="44.64267345" lon="-71.89048563">
    <tag k="addr:city" v="East Haven"/>
    <tag k="addr:housenumber" v="66"/>
    <tag k="addr:street" v="Maple Street"/>
    <tag k="addr:state" v="VT"/>
    <tag k="ref:vcgi:esiteid" v="90682"/>
  </node>
  <node id="-229" visible="true" lat="44.64271743" lon="-71.89097897">
    <tag k="addr:city" v="East Haven"/>
    <tag k="addr:housenumber" v="65"/>
    <tag k="addr:street" v="Maple Street"/>
    <tag k="addr:state" v="VT"/>
    <tag k="ref:vcgi:esiteid" v="90683"/>
  </node>
  <node id="-230" visible="true" lat="44.64263133" lon="-71.88994661">
    <tag k="addr:city" v="East Haven"/>
    <tag k="addr:housenumber" v="38"/>
    <tag k="addr:street" v="Haven Street"/>
    <tag k="addr:state" v="VT"/>
    <tag k="ref:vcgi:esiteid" v="90684"/>
  </node>
  <node id="-231" visible="true" lat="44.64268112" lon="-71.8878479">
    <tag k="addr:city" v="East Haven"/>
    <tag k="addr:housenumber" v="64"/>
    <tag k="addr:street" v="Deths Hill"/>
    <tag k="addr:state" v="VT"/>
    <tag k="ref:vcgi:esiteid" v="90685"/>
  </node>
  <node id="-232" visible="true" lat="44.64260865" lon="-71.88948981">
    <tag k="addr:city" v="East Haven"/>
    <tag k="addr:housenumber" v="51"/>
    <tag k="addr:street" v="Haven Street"/>
    <tag k="addr:state" v="VT"/>
    <tag k="ref:vcgi:esiteid" v="90687"/>
  </node>
  <node id="-233" visible="true" lat="44.6424401" lon="-71.88979728">
    <tag k="addr:city" v="East Haven"/>
    <tag k="addr:housenumber" v="52"/>
    <tag k="addr:street" v="Haven Street"/>
    <tag k="addr:state" v="VT"/>
    <tag k="ref:vcgi:esiteid" v="90688"/>
  </node>
  <node id="-234" visible="true" lat="44.64241755" lon="-71.8883188">
    <tag k="addr:city" v="East Haven"/>
    <tag k="addr:housenumber" v="30"/>
    <tag k="addr:street" v="Deths Hill"/>
    <tag k="addr:state" v="VT"/>
    <tag k="ref:vcgi:esiteid" v="90689"/>
  </node>
  <node id="-235" visible="true" lat="44.64251458" lon="-71.89081204">
    <tag k="addr:city" v="East Haven"/>
    <tag k="addr:housenumber" v="45"/>
    <tag k="addr:street" v="Maple Street"/>
    <tag k="addr:state" v="VT"/>
    <tag k="ref:vcgi:esiteid" v="90690"/>
  </node>
  <node id="-236" visible="true" lat="44.6424541" lon="-71.89033937">
    <tag k="addr:city" v="East Haven"/>
    <tag k="addr:housenumber" v="34"/>
    <tag k="addr:street" v="Maple Street"/>
    <tag k="addr:state" v="VT"/>
    <tag k="ref:vcgi:esiteid" v="90691"/>
  </node>
  <node id="-237" visible="true" lat="44.64223271" lon="-71.89333355">
    <tag k="addr:city" v="East Haven"/>
    <tag k="addr:housenumber" v="252"/>
    <tag k="addr:street" v="Vermont Route 114"/>
    <tag k="addr:state" v="VT"/>
    <tag k="ref:vcgi:esiteid" v="90692"/>
  </node>
  <node id="-238" visible="true" lat="44.64228123" lon="-71.89064824">
    <tag k="addr:city" v="East Haven"/>
    <tag k="addr:housenumber" v="31"/>
    <tag k="addr:street" v="Maple Street"/>
    <tag k="addr:state" v="VT"/>
    <tag k="ref:vcgi:esiteid" v="90694"/>
  </node>
  <node id="-239" visible="true" lat="44.64226482" lon="-71.89017786">
    <tag k="addr:city" v="East Haven"/>
    <tag k="addr:housenumber" v="20"/>
    <tag k="addr:street" v="Maple Street"/>
    <tag k="addr:state" v="VT"/>
    <tag k="ref:vcgi:esiteid" v="90695"/>
  </node>
  <node id="-240" visible="true" lat="44.64207199" lon="-71.89050027">
    <tag k="addr:city" v="East Haven"/>
    <tag k="addr:housenumber" v="17"/>
    <tag k="addr:street" v="Maple Street"/>
    <tag k="addr:state" v="VT"/>
    <tag k="ref:vcgi:esiteid" v="90696"/>
  </node>
  <node id="-242" visible="true" lat="44.64193744" lon="-71.88875182">
    <tag k="addr:city" v="East Haven"/>
    <tag k="addr:housenumber" v="35"/>
    <tag k="addr:street" v="Rocky Road"/>
    <tag k="addr:state" v="VT"/>
    <tag k="ref:vcgi:esiteid" v="90698"/>
  </node>
  <node id="-243" visible="true" lat="44.64183425" lon="-71.8901596">
    <tag k="addr:city" v="East Haven"/>
    <tag k="addr:housenumber" v="212"/>
    <tag k="addr:street" v="School Street"/>
    <tag k="addr:state" v="VT"/>
    <tag k="ref:vcgi:esiteid" v="90699"/>
  </node>
  <node id="-244" visible="true" lat="44.64167022" lon="-71.8914566">
    <tag k="addr:city" v="East Haven"/>
    <tag k="addr:housenumber" v="159"/>
    <tag k="addr:street" v="School Street"/>
    <tag k="addr:state" v="VT"/>
    <tag k="ref:vcgi:esiteid" v="90700"/>
  </node>
  <node id="-245" visible="true" lat="44.64154693" lon="-71.89032224">
    <tag k="addr:city" v="East Haven"/>
    <tag k="addr:housenumber" v="188"/>
    <tag k="addr:street" v="School Street"/>
    <tag k="addr:state" v="VT"/>
    <tag k="ref:vcgi:esiteid" v="90701"/>
  </node>
  <node id="-246" visible="true" lat="44.64165296" lon="-71.89332912">
    <tag k="addr:city" v="East Haven"/>
    <tag k="addr:housenumber" v="23"/>
    <tag k="addr:street" v="School Street"/>
    <tag k="addr:state" v="VT"/>
    <tag k="ref:vcgi:esiteid" v="90702"/>
  </node>
  <node id="-247" visible="true" lat="44.64147802" lon="-71.89477685">
    <tag k="addr:city" v="East Haven"/>
    <tag k="addr:housenumber" v="193"/>
    <tag k="addr:street" v="Vermont Route 114"/>
    <tag k="addr:state" v="VT"/>
    <tag k="ref:vcgi:esiteid" v="90703"/>
  </node>
  <node id="-248" visible="true" lat="44.6411615" lon="-71.89358221">
    <tag k="addr:city" v="East Haven"/>
    <tag k="addr:housenumber" v="18"/>
    <tag k="addr:street" v="School Street"/>
    <tag k="addr:state" v="VT"/>
    <tag k="ref:vcgi:esiteid" v="90704"/>
  </node>
  <node id="-249" visible="true" lat="44.64081191" lon="-71.88890838">
    <tag k="addr:city" v="East Haven"/>
    <tag k="addr:housenumber" v="108"/>
    <tag k="addr:street" v="Rocky Road"/>
    <tag k="addr:state" v="VT"/>
    <tag k="ref:vcgi:esiteid" v="90705"/>
  </node>
  <node id="-250" visible="true" lat="44.64332938" lon="-71.86473241">
    <tag k="addr:city" v="East Haven"/>
    <tag k="addr:housenumber" v="349"/>
    <tag k="addr:street" v="Georges Boulevard"/>
    <tag k="addr:state" v="VT"/>
    <tag k="ref:vcgi:esiteid" v="90706"/>
  </node>
  <node id="-252" visible="true" lat="44.64045715" lon="-71.89489746">
    <tag k="addr:city" v="East Haven"/>
    <tag k="addr:housenumber" v="131"/>
    <tag k="addr:street" v="Vermont Route 114"/>
    <tag k="addr:state" v="VT"/>
    <tag k="ref:vcgi:esiteid" v="90708"/>
  </node>
  <node id="-253" visible="true" lat="44.64024932" lon="-71.89144659">
    <tag k="addr:city" v="East Haven"/>
    <tag k="addr:housenumber" v="49"/>
    <tag k="addr:street" v="Community Building Road"/>
    <tag k="addr:state" v="VT"/>
    <tag k="ref:vcgi:esiteid" v="90709"/>
  </node>
  <node id="-254" visible="true" lat="44.64017105" lon="-71.8919754">
    <tag k="addr:city" v="East Haven"/>
    <tag k="addr:housenumber" v="58"/>
    <tag k="addr:street" v="Community Building Road"/>
    <tag k="addr:state" v="VT"/>
    <tag k="ref:vcgi:esiteid" v="90710"/>
  </node>
  <node id="-255" visible="true" lat="44.6402165" lon="-71.89126142">
    <tag k="addr:city" v="East Haven"/>
    <tag k="addr:housenumber" v="55"/>
    <tag k="addr:street" v="Community Building Road"/>
    <tag k="addr:state" v="VT"/>
    <tag k="ref:vcgi:esiteid" v="90711"/>
  </node>
  <node id="-256" visible="true" lat="44.64005613" lon="-71.87506057">
    <tag k="addr:city" v="East Haven"/>
    <tag k="addr:housenumber" v="308"/>
    <tag k="addr:street" v="Youngs Road"/>
    <tag k="addr:state" v="VT"/>
    <tag k="ref:vcgi:esiteid" v="90712"/>
  </node>
  <node id="-257" visible="true" lat="44.63984146" lon="-71.89189503">
    <tag k="addr:city" v="East Haven"/>
    <tag k="addr:housenumber" v="64"/>
    <tag k="addr:street" v="Community Building Road"/>
    <tag k="addr:state" v="VT"/>
    <tag k="ref:vcgi:esiteid" v="90713"/>
  </node>
  <node id="-258" visible="true" lat="44.63913346" lon="-71.87403824">
    <tag k="addr:city" v="East Haven"/>
    <tag k="addr:housenumber" v="333"/>
    <tag k="addr:street" v="Youngs Road"/>
    <tag k="addr:state" v="VT"/>
    <tag k="ref:vcgi:esiteid" v="90714"/>
  </node>
  <node id="-259" visible="true" lat="44.63801637" lon="-71.89132625">
    <tag k="addr:city" v="East Haven"/>
    <tag k="addr:housenumber" v="120"/>
    <tag k="addr:street" v="Community Building Road"/>
    <tag k="addr:state" v="VT"/>
    <tag k="ref:vcgi:esiteid" v="90715"/>
  </node>
  <node id="-260" visible="true" lat="44.63919483" lon="-71.89088852">
    <tag k="addr:city" v="East Haven"/>
    <tag k="addr:housenumber" v="129"/>
    <tag k="addr:street" v="Community Building Road"/>
    <tag k="addr:state" v="VT"/>
    <tag k="ref:vcgi:esiteid" v="90716"/>
  </node>
  <node id="-261" visible="true" lat="44.63877868" lon="-71.87508392">
    <tag k="addr:city" v="East Haven"/>
    <tag k="addr:housenumber" v="384"/>
    <tag k="addr:street" v="Youngs Road"/>
    <tag k="addr:state" v="VT"/>
    <tag k="ref:vcgi:esiteid" v="90717"/>
  </node>
  <node id="-262" visible="true" lat="44.63760464" lon="-71.85313839">
    <tag k="addr:city" v="East Haven"/>
    <tag k="addr:housenumber" v="581"/>
    <tag k="addr:street" v="Georges Boulevard"/>
    <tag k="addr:state" v="VT"/>
    <tag k="ref:vcgi:esiteid" v="90718"/>
  </node>
  <node id="-263" visible="true" lat="44.63828658" lon="-71.85128021">
    <tag k="addr:city" v="East Haven"/>
    <tag k="addr:housenumber" v="583"/>
    <tag k="addr:street" v="Georges Boulevard"/>
    <tag k="addr:state" v="VT"/>
    <tag k="ref:vcgi:esiteid" v="90719"/>
  </node>
  <node id="-264" visible="true" lat="44.63782106" lon="-71.87437567">
    <tag k="addr:city" v="East Haven"/>
    <tag k="addr:housenumber" v="435"/>
    <tag k="addr:street" v="Youngs Road"/>
    <tag k="addr:state" v="VT"/>
    <tag k="ref:vcgi:esiteid" v="90720"/>
  </node>
  <node id="-265" visible="true" lat="44.63643697" lon="-71.87492895">
    <tag k="addr:city" v="East Haven"/>
    <tag k="addr:housenumber" v="30"/>
    <tag k="addr:street" v="Richard Boulevard"/>
    <tag k="addr:state" v="VT"/>
    <tag k="ref:vcgi:esiteid" v="90721"/>
  </node>
  <node id="-267" visible="true" lat="44.6325798" lon="-71.85750579">
    <tag k="addr:city" v="East Haven"/>
    <tag k="addr:housenumber" v="1223"/>
    <tag k="addr:street" v="Georges Boulevard"/>
    <tag k="addr:state" v="VT"/>
    <tag k="ref:vcgi:esiteid" v="90723"/>
  </node>
  <node id="-268" visible="true" lat="44.62620725" lon="-71.83803235">
    <tag k="addr:city" v="East Haven"/>
    <tag k="addr:housenumber" v="1353"/>
    <tag k="addr:street" v="Georges Boulevard"/>
    <tag k="addr:state" v="VT"/>
    <tag k="ref:vcgi:esiteid" v="90724"/>
  </node>
  <node id="-269" visible="true" lat="44.67389297" lon="-71.84626769">
    <tag k="addr:city" v="East Haven"/>
    <tag k="addr:housenumber" v="1780"/>
    <tag k="addr:street" v="Lost Nation Road"/>
    <tag k="addr:state" v="VT"/>
    <tag k="ref:vcgi:esiteid" v="90725"/>
  </node>
  <node id="-270" visible="true" lat="44.64613385" lon="-71.89282946">
    <tag k="addr:city" v="East Haven"/>
    <tag k="addr:housenumber" v="524"/>
    <tag k="addr:street" v="Vermont Route 114"/>
    <tag k="addr:state" v="VT"/>
    <tag k="ref:vcgi:esiteid" v="90726"/>
  </node>
  <node id="-271" visible="true" lat="44.64906399" lon="-71.89352866">
    <tag k="addr:city" v="East Haven"/>
    <tag k="addr:housenumber" v="725"/>
    <tag k="addr:street" v="Vermont Route 114"/>
    <tag k="addr:state" v="VT"/>
    <tag k="ref:vcgi:esiteid" v="90727"/>
  </node>
  <node id="-272" visible="true" lat="44.64855981" lon="-71.90474153">
    <tag k="addr:city" v="East Haven"/>
    <tag k="addr:housenumber" v="781"/>
    <tag k="addr:street" v="Walters Farm Road"/>
    <tag k="addr:state" v="VT"/>
    <tag k="ref:vcgi:esiteid" v="90728"/>
  </node>
  <node id="-273" visible="true" lat="44.63481902" lon="-71.85942077">
    <tag k="addr:city" v="East Haven"/>
    <tag k="addr:housenumber" v="1027"/>
    <tag k="addr:street" v="Georges Boulevard"/>
    <tag k="addr:state" v="VT"/>
    <tag k="ref:vcgi:esiteid" v="90729"/>
  </node>
  <node id="-277" visible="true" lat="44.69355542" lon="-71.8511135">
    <tag k="addr:city" v="East Haven"/>
    <tag k="addr:housenumber" v="2575"/>
    <tag k="addr:street" v="Lost Nation Road"/>
    <tag k="addr:state" v="VT"/>
    <tag k="ref:vcgi:esiteid" v="90733"/>
  </node>
  <node id="-278" visible="true" lat="44.65901806" lon="-71.89133044">
    <tag k="addr:city" v="East Haven"/>
    <tag k="addr:housenumber" v="1419"/>
    <tag k="addr:street" v="Vermont Route 114"/>
    <tag k="addr:state" v="VT"/>
    <tag k="ref:vcgi:esiteid" v="90734"/>
  </node>
  <node id="-279" visible="true" lat="44.6979827" lon="-71.84199448">
    <tag k="addr:city" v="East Haven"/>
    <tag k="addr:housenumber" v="3060"/>
    <tag k="addr:street" v="Lost Nation Road"/>
    <tag k="addr:state" v="VT"/>
    <tag k="ref:vcgi:esiteid" v="90735"/>
  </node>
  <node id="-280" visible="true" lat="44.68066683" lon="-71.8533342">
    <tag k="addr:city" v="East Haven"/>
    <tag k="addr:housenumber" v="1768"/>
    <tag k="addr:street" v="Lost Nation Road"/>
    <tag k="addr:state" v="VT"/>
    <tag k="ref:vcgi:esiteid" v="90736"/>
  </node>
  <node id="-281" visible="true" lat="44.65479542" lon="-71.88779688">
    <tag k="addr:city" v="East Haven"/>
    <tag k="addr:housenumber" v="270"/>
    <tag k="addr:street" v="River Road"/>
    <tag k="addr:state" v="VT"/>
    <tag k="ref:vcgi:esiteid" v="90737"/>
  </node>
  <node id="-282" visible="true" lat="44.6487875" lon="-71.89697697">
    <tag k="addr:city" v="East Haven"/>
    <tag k="addr:housenumber" v="300"/>
    <tag k="addr:street" v="Walters Farm Road"/>
    <tag k="addr:state" v="VT"/>
    <tag k="ref:vcgi:esiteid" v="90738"/>
  </node>
  <node id="-283" visible="true" lat="44.6499667" lon="-71.89842667">
    <tag k="addr:city" v="East Haven"/>
    <tag k="addr:housenumber" v="328"/>
    <tag k="addr:street" v="Walters Farm Road"/>
    <tag k="addr:state" v="VT"/>
    <tag k="ref:vcgi:esiteid" v="90739"/>
  </node>
  <node id="-284" visible="true" lat="44.6512077" lon="-71.90004673">
    <tag k="addr:city" v="East Haven"/>
    <tag k="addr:housenumber" v="494"/>
    <tag k="addr:street" v="Walters Farm Road"/>
    <tag k="addr:state" v="VT"/>
    <tag k="ref:vcgi:esiteid" v="90740"/>
  </node>
  <node id="-286" visible="true" lat="44.63650297" lon="-71.87534698">
    <tag k="addr:city" v="East Haven"/>
    <tag k="addr:housenumber" v="32"/>
    <tag k="addr:street" v="Richard Boulevard"/>
    <tag k="addr:state" v="VT"/>
    <tag k="ref:vcgi:esiteid" v="90743"/>
  </node>
  <node id="-287" visible="true" lat="44.63553828" lon="-71.87645923">
    <tag k="addr:city" v="East Haven"/>
    <tag k="addr:housenumber" v="126"/>
    <tag k="addr:street" v="Richard Boulevard"/>
    <tag k="addr:state" v="VT"/>
    <tag k="ref:vcgi:esiteid" v="90744"/>
  </node>
  <node id="-288" visible="true" lat="44.63469172" lon="-71.87736223">
    <tag k="addr:city" v="East Haven"/>
    <tag k="addr:housenumber" v="174"/>
    <tag k="addr:street" v="Richard Boulevard"/>
    <tag k="addr:state" v="VT"/>
    <tag k="ref:vcgi:esiteid" v="90745"/>
  </node>
  <node id="-289" visible="true" lat="44.63198635" lon="-71.87548421">
    <tag k="addr:city" v="East Haven"/>
    <tag k="addr:housenumber" v="366"/>
    <tag k="addr:street" v="Richard Boulevard"/>
    <tag k="addr:state" v="VT"/>
    <tag k="ref:vcgi:esiteid" v="90746"/>
  </node>
  <node id="-290" visible="true" lat="44.6338702" lon="-71.8763869">
    <tag k="addr:city" v="East Haven"/>
    <tag k="addr:housenumber" v="256"/>
    <tag k="addr:street" v="Richard Boulevard"/>
    <tag k="addr:state" v="VT"/>
    <tag k="ref:vcgi:esiteid" v="90747"/>
  </node>
  <node id="-291" visible="true" lat="44.63053985" lon="-71.87638143">
    <tag k="addr:city" v="East Haven"/>
    <tag k="addr:housenumber" v="644"/>
    <tag k="addr:street" v="Richard Boulevard"/>
    <tag k="addr:state" v="VT"/>
    <tag k="ref:vcgi:esiteid" v="90748"/>
  </node>
  <node id="-292" visible="true" lat="44.63425146" lon="-71.86901364">
    <tag k="addr:city" v="East Haven"/>
    <tag k="addr:housenumber" v="49"/>
    <tag k="addr:street" v="Morrissey Place"/>
    <tag k="addr:state" v="VT"/>
    <tag k="ref:vcgi:esiteid" v="90749"/>
  </node>
  <node id="-293" visible="true" lat="44.63373276" lon="-71.86811609">
    <tag k="addr:city" v="East Haven"/>
    <tag k="addr:housenumber" v="89"/>
    <tag k="addr:street" v="Morrissey Place"/>
    <tag k="addr:state" v="VT"/>
    <tag k="ref:vcgi:esiteid" v="90750"/>
  </node>
  <node id="-298" visible="true" lat="44.62571292" lon="-71.85307699">
    <tag k="addr:city" v="East Haven"/>
    <tag k="addr:housenumber" v="1351"/>
    <tag k="addr:street" v="Georges Boulevard"/>
    <tag k="addr:state" v="VT"/>
    <tag k="ref:vcgi:esiteid" v="90755"/>
  </node>
  <node id="-300" visible="true" lat="44.64274516" lon="-71.84990144">
    <tag k="addr:city" v="East Haven"/>
    <tag k="addr:housenumber" v="1500"/>
    <tag k="addr:street" v="Radar Road"/>
    <tag k="addr:state" v="VT"/>
    <tag k="ref:vcgi:esiteid" v="90757"/>
  </node>
  <node id="-301" visible="true" lat="44.66504653" lon="-71.89007084">
    <tag k="addr:city" v="East Haven"/>
    <tag k="addr:housenumber" v="88"/>
    <tag k="addr:street" v="Bean Brook Road"/>
    <tag k="addr:state" v="VT"/>
    <tag k="ref:vcgi:esiteid" v="90758"/>
  </node>
  <node id="-302" visible="true" lat="44.67607904" lon="-71.87386317">
    <tag k="addr:city" v="East Haven"/>
    <tag k="addr:housenumber" v="600"/>
    <tag k="addr:street" v="Lost Nation Road"/>
    <tag k="addr:state" v="VT"/>
    <tag k="ref:vcgi:esiteid" v="90759"/>
  </node>
  <node id="-303" visible="true" lat="44.67594521" lon="-71.87597271">
    <tag k="addr:city" v="East Haven"/>
    <tag k="addr:housenumber" v="499"/>
    <tag k="addr:street" v="Lost Nation Road"/>
    <tag k="addr:state" v="VT"/>
    <tag k="ref:vcgi:esiteid" v="90760"/>
  </node>
  <node id="-304" visible="true" lat="44.67294568" lon="-71.88171509">
    <tag k="addr:city" v="East Haven"/>
    <tag k="addr:housenumber" v="101"/>
    <tag k="addr:street" v="Lost Nation Road"/>
    <tag k="addr:state" v="VT"/>
    <tag k="ref:vcgi:esiteid" v="90761"/>
  </node>
  <node id="-305" visible="true" lat="44.64381821" lon="-71.87812956">
    <tag k="addr:city" v="East Haven"/>
    <tag k="addr:housenumber" v="715"/>
    <tag k="addr:street" v="Mountain Road"/>
    <tag k="addr:state" v="VT"/>
    <tag k="ref:vcgi:esiteid" v="90763"/>
  </node>
  <node id="-306" visible="true" lat="44.63181913" lon="-71.87409809">
    <tag k="addr:city" v="East Haven"/>
    <tag k="addr:housenumber" v="371"/>
    <tag k="addr:street" v="Richard Boulevard"/>
    <tag k="addr:state" v="VT"/>
    <tag k="ref:vcgi:esiteid" v="90764"/>
  </node>
  <node id="-307" visible="true" lat="44.66807187" lon="-71.88608564">
    <tag k="addr:city" v="East Haven"/>
    <tag k="addr:housenumber" v="2040"/>
    <tag k="addr:street" v="Vermont Route 114"/>
    <tag k="addr:state" v="VT"/>
    <tag k="ref:vcgi:esiteid" v="313401"/>
  </node>
  <node id="-308" visible="true" lat="44.65147078" lon="-71.88926051">
    <tag k="addr:city" v="East Haven"/>
    <tag k="addr:housenumber" v="936"/>
    <tag k="addr:street" v="Vermont Route 114"/>
    <tag k="addr:state" v="VT"/>
    <tag k="ref:vcgi:esiteid" v="313402"/>
  </node>
  <node id="-309" visible="true" lat="44.68294278" lon="-71.85475437">
    <tag k="addr:city" v="East Haven"/>
    <tag k="addr:housenumber" v="1767"/>
    <tag k="addr:street" v="Lost Nation Road"/>
    <tag k="addr:state" v="VT"/>
    <tag k="ref:vcgi:esiteid" v="313403"/>
  </node>
  <node id="-310" visible="true" lat="44.6682719" lon="-71.87863748">
    <tag k="addr:city" v="East Haven"/>
    <tag k="addr:housenumber" v="56"/>
    <tag k="addr:street" v="Simpson Road"/>
    <tag k="addr:state" v="VT"/>
    <tag k="ref:vcgi:esiteid" v="313404"/>
  </node>
  <node id="-311" visible="true" lat="44.63478117" lon="-71.87340292">
    <tag k="addr:city" v="East Haven"/>
    <tag k="addr:housenumber" v="758"/>
    <tag k="addr:street" v="Youngs Road"/>
    <tag k="addr:state" v="VT"/>
    <tag k="ref:vcgi:esiteid" v="452605"/>
  </node>
  <node id="-312" visible="true" lat="44.6645252" lon="-71.89014007">
    <tag k="addr:city" v="East Haven"/>
    <tag k="addr:housenumber" v="53"/>
    <tag k="addr:street" v="Bean Brook Road"/>
    <tag k="addr:state" v="VT"/>
    <tag k="ref:vcgi:esiteid" v="452606"/>
  </node>
  <node id="-314" visible="true" lat="44.63501351" lon="-71.87569276">
    <tag k="addr:city" v="East Haven"/>
    <tag k="addr:housenumber" v="107"/>
    <tag k="addr:street" v="Richard Boulevard"/>
    <tag k="addr:state" v="VT"/>
    <tag k="ref:vcgi:esiteid" v="617492"/>
  </node>
  <node id="-315" visible="true" lat="44.63246454" lon="-71.87607455">
    <tag k="addr:city" v="East Haven"/>
    <tag k="addr:housenumber" v="330"/>
    <tag k="addr:street" v="Richard Boulevard"/>
    <tag k="addr:state" v="VT"/>
    <tag k="ref:vcgi:esiteid" v="617493"/>
  </node>
  <node id="-316" visible="true" lat="44.69464773" lon="-71.83575428">
    <tag k="addr:city" v="East Haven"/>
    <tag k="addr:housenumber" v="383"/>
    <tag k="addr:street" v="Labay Place"/>
    <tag k="addr:state" v="VT"/>
    <tag k="ref:vcgi:esiteid" v="618123"/>
  </node>
  <node id="-317" visible="true" lat="44.67497485" lon="-71.87384585">
    <tag k="addr:city" v="East Haven"/>
    <tag k="addr:housenumber" v="532"/>
    <tag k="addr:street" v="Lost Nation Road"/>
    <tag k="addr:state" v="VT"/>
    <tag k="ref:vcgi:esiteid" v="618124"/>
  </node>
  <node id="-318" visible="true" lat="44.6459204" lon="-71.89177219">
    <tag k="addr:city" v="East Haven"/>
    <tag k="addr:housenumber" v="493"/>
    <tag k="addr:street" v="School Street"/>
    <tag k="addr:state" v="VT"/>
    <tag k="ref:vcgi:esiteid" v="752354"/>
  </node>
  <node id="-319" visible="true" lat="44.64612216" lon="-71.89165334">
    <tag k="addr:city" v="East Haven"/>
    <tag k="addr:housenumber" v="497"/>
    <tag k="addr:street" v="School Street"/>
    <tag k="addr:state" v="VT"/>
    <tag k="ref:vcgi:esiteid" v="752355"/>
  </node>
  <node id="-321" visible="true" lat="44.64398263" lon="-71.88229631">
    <tag k="addr:city" v="East Haven"/>
    <tag k="addr:housenumber" v="543"/>
    <tag k="addr:street" v="Mountain Road"/>
    <tag k="addr:state" v="VT"/>
    <tag k="ref:vcgi:esiteid" v="763004"/>
  </node>
  <node id="-322" visible="true" lat="44.66170093" lon="-71.89115227">
    <tag k="addr:city" v="East Haven"/>
    <tag k="addr:housenumber" v="1579"/>
    <tag k="addr:street" v="Vermont Route 114"/>
    <tag k="addr:state" v="VT"/>
    <tag k="ref:vcgi:esiteid" v="770064"/>
  </node>
  <node id="-323" visible="true" lat="44.65860546" lon="-71.86977728">
    <tag k="addr:city" v="East Haven"/>
    <tag k="addr:housenumber" v="964"/>
    <tag k="addr:street" v="Moulthrop Road"/>
    <tag k="addr:state" v="VT"/>
    <tag k="ref:vcgi:esiteid" v="770204"/>
  </node>
  <node id="-324" visible="true" lat="44.64334661" lon="-71.89667552">
    <tag k="addr:city" v="East Haven"/>
    <tag k="addr:housenumber" v="315"/>
    <tag k="addr:street" v="Vermont Route 114"/>
    <tag k="addr:state" v="VT"/>
    <tag k="ref:vcgi:esiteid" v="770205"/>
  </node>
  <node id="-325" visible="true" lat="44.6386076" lon="-71.89187215">
    <tag k="addr:city" v="East Haven"/>
    <tag k="addr:housenumber" v="112"/>
    <tag k="addr:street" v="Community Building Road"/>
    <tag k="addr:state" v="VT"/>
    <tag k="ref:vcgi:esiteid" v="770206"/>
  </node>
  <node id="-326" visible="true" lat="44.64455157" lon="-71.88867954">
    <tag k="addr:city" v="East Haven"/>
    <tag k="addr:housenumber" v="88"/>
    <tag k="addr:street" v="Rubys Road"/>
    <tag k="addr:state" v="VT"/>
    <tag k="ref:vcgi:esiteid" v="770207"/>
  </node>
  <node id="-327" visible="true" lat="44.63973641" lon="-71.89246013">
    <tag k="addr:city" v="East Haven"/>
    <tag k="addr:housenumber" v="70"/>
    <tag k="addr:street" v="Community Building Road"/>
    <tag k="addr:state" v="VT"/>
    <tag k="ref:vcgi:esiteid" v="1050760"/>
  </node>
</osm>
