<?xml version="1.0" encoding="UTF-8"?>
<osm version="0.6" generator="JOSM">
  <node id="-619" visible="true" lat="44.68604725" lon="-72.59007836">
    <tag k="addr:city" v="Eden"/>
    <tag k="addr:housenumber" v="30"/>
    <tag k="addr:street" v="Ober Hill Road"/>
    <tag k="addr:state" v="VT"/>
    <tag k="ref:vcgi:esiteid" v="92402"/>
  </node>
  <node id="-620" visible="true" lat="44.68558974" lon="-72.61247308">
    <tag k="addr:city" v="Eden"/>
    <tag k="addr:housenumber" v="46"/>
    <tag k="addr:street" v="Tree Farm Road"/>
    <tag k="addr:state" v="VT"/>
    <tag k="ref:vcgi:esiteid" v="92403"/>
  </node>
  <node id="-622" visible="true" lat="44.68531418" lon="-72.59055337">
    <tag k="addr:city" v="Eden"/>
    <tag k="addr:housenumber" v="125"/>
    <tag k="addr:street" v="Vermont Route 100"/>
    <tag k="addr:state" v="VT"/>
    <tag k="ref:vcgi:esiteid" v="92405"/>
  </node>
  <node id="-623" visible="true" lat="44.68499826" lon="-72.59131019">
    <tag k="addr:city" v="Eden"/>
    <tag k="addr:housenumber" v="79"/>
    <tag k="addr:street" v="Ober Hill Road"/>
    <tag k="addr:state" v="VT"/>
    <tag k="ref:vcgi:esiteid" v="92406"/>
  </node>
  <node id="-644" visible="true" lat="44.67191732" lon="-72.55743259">
    <tag k="addr:city" v="Eden"/>
    <tag k="addr:housenumber" v="2355"/>
    <tag k="addr:street" v="Cooper Hill Road"/>
    <tag k="addr:state" v="VT"/>
    <tag k="ref:vcgi:esiteid" v="92427"/>
  </node>
  <node id="-674" visible="true" lat="44.71117319" lon="-72.54910788">
    <tag k="addr:city" v="Eden"/>
    <tag k="addr:housenumber" v="308"/>
    <tag k="addr:street" v="Belvidere Road"/>
    <tag k="addr:state" v="VT"/>
    <tag k="ref:vcgi:esiteid" v="92457"/>
  </node>
  <node id="-716" visible="true" lat="44.67192068" lon="-72.55837168">
    <tag k="addr:city" v="Eden"/>
    <tag k="addr:housenumber" v="2372"/>
    <tag k="addr:street" v="Cooper Hill Road"/>
    <tag k="addr:state" v="VT"/>
    <tag k="ref:vcgi:esiteid" v="92503"/>
  </node>
  <node id="-950" visible="true" lat="44.72887678" lon="-72.49589232">
    <tag k="addr:city" v="Eden"/>
    <tag k="addr:housenumber" v="5910"/>
    <tag k="addr:street" v="Vermont Route 100"/>
    <tag k="addr:state" v="VT"/>
    <tag k="ref:vcgi:esiteid" v="752114"/>
  </node>
</osm>
