<?xml version="1.0" encoding="UTF-8"?>
<osm version="0.6" generator="JOSM">
  <node id="-108" visible="true" lat="44.50395148" lon="-73.10658051">
    <!-- conflict: "382 Autumn Pond Way, Essex Junction, VT" Fuzzy match to "382 Autumn Pond Way, , " -->
    <tag k="addr:city" v="Essex Junction"/>
    <tag k="addr:housenumber" v="382"/>
    <tag k="addr:street" v="Autumn Pond Way"/>
    <tag k="addr:state" v="VT"/>
    <tag k="ref:vcgi:esiteid" v="96391"/>
  </node>
  <node id="-110" visible="true" lat="44.5036258" lon="-73.10576731">
    <!-- conflict: "379 Autumn Pond Way, Essex Junction, VT" Fuzzy match to "379 Autumn Pond Way, , " -->
    <tag k="addr:city" v="Essex Junction"/>
    <tag k="addr:housenumber" v="379"/>
    <tag k="addr:street" v="Autumn Pond Way"/>
    <tag k="addr:state" v="VT"/>
    <tag k="ref:vcgi:esiteid" v="96416"/>
  </node>
  <node id="-115" visible="true" lat="44.50290076" lon="-73.10545718">
    <!-- conflict: "341 Autumn Pond Way, Essex Junction, VT" Fuzzy match to "341 Autumn Pond Way, , " -->
    <tag k="addr:city" v="Essex Junction"/>
    <tag k="addr:housenumber" v="341"/>
    <tag k="addr:street" v="Autumn Pond Way"/>
    <tag k="addr:state" v="VT"/>
    <tag k="ref:vcgi:esiteid" v="96475"/>
  </node>
  <node id="-117" visible="true" lat="44.50210696" lon="-73.10747178">
    <!-- conflict: "301 Autumn Pond Way, Essex Junction, VT" Fuzzy match to "301 Autumn Pond Way, , " -->
    <tag k="addr:city" v="Essex Junction"/>
    <tag k="addr:housenumber" v="301"/>
    <tag k="addr:street" v="Autumn Pond Way"/>
    <tag k="addr:state" v="VT"/>
    <tag k="ref:vcgi:esiteid" v="96506"/>
  </node>
  <node id="-128" visible="true" lat="44.50256644" lon="-73.10693085">
    <!-- conflict: "369 Autumn Pond Way, Essex Junction, VT" Fuzzy match to "369 Autumn Pond Way, , " -->
    <tag k="addr:city" v="Essex Junction"/>
    <tag k="addr:housenumber" v="369"/>
    <tag k="addr:street" v="Autumn Pond Way"/>
    <tag k="addr:state" v="VT"/>
    <tag k="ref:vcgi:esiteid" v="96560"/>
  </node>
  <node id="-132" visible="true" lat="44.50306893" lon="-73.10699247">
    <!-- conflict: "361 Autumn Pond Way, Essex Junction, VT" Fuzzy match to "361 Autumn Pond Way, , " -->
    <tag k="addr:city" v="Essex Junction"/>
    <tag k="addr:housenumber" v="361"/>
    <tag k="addr:street" v="Autumn Pond Way"/>
    <tag k="addr:state" v="VT"/>
    <tag k="ref:vcgi:esiteid" v="96567"/>
  </node>
  <node id="-139" visible="true" lat="44.50224408" lon="-73.1053293">
    <!-- conflict: "331 Autumn Pond Way, Essex Junction, VT" Fuzzy match to "331 Autumn Pond Way, , " -->
    <tag k="addr:city" v="Essex Junction"/>
    <tag k="addr:housenumber" v="331"/>
    <tag k="addr:street" v="Autumn Pond Way"/>
    <tag k="addr:state" v="VT"/>
    <tag k="ref:vcgi:esiteid" v="96587"/>
  </node>
  <node id="-161" visible="true" lat="44.50186504" lon="-73.1335025">
    <!-- conflict: "217 Pearl Street, Essex Junction, VT" Fuzzy match to "217 Pearl Street, , VT" -->
    <tag k="addr:city" v="Essex Junction"/>
    <tag k="addr:housenumber" v="217"/>
    <tag k="addr:street" v="Pearl Street"/>
    <tag k="addr:state" v="VT"/>
    <tag k="ref:vcgi:esiteid" v="96648"/>
  </node>
  <node id="-163" visible="true" lat="44.50197512" lon="-73.1060935">
    <!-- conflict: "323 Autumn Pond Way, Essex Junction, VT" Fuzzy match to "323 Autumn Pond Way, , " -->
    <tag k="addr:city" v="Essex Junction"/>
    <tag k="addr:housenumber" v="323"/>
    <tag k="addr:street" v="Autumn Pond Way"/>
    <tag k="addr:state" v="VT"/>
    <tag k="ref:vcgi:esiteid" v="96650"/>
  </node>
  <node id="-177" visible="true" lat="44.50208128" lon="-73.10692563">
    <!-- conflict: "309 Autumn Pond Way, Essex Junction, VT" Fuzzy match to "309 Autumn Pond Way, , " -->
    <tag k="addr:city" v="Essex Junction"/>
    <tag k="addr:housenumber" v="309"/>
    <tag k="addr:street" v="Autumn Pond Way"/>
    <tag k="addr:state" v="VT"/>
    <tag k="ref:vcgi:esiteid" v="96683"/>
  </node>
  <node id="-464" visible="true" lat="44.49799204" lon="-73.12710807">
    <!-- conflict: "157 Pearl Street, Essex Junction, VT" Fuzzy match to "157 Pearl Street, , VT" -->
    <tag k="addr:city" v="Essex Junction"/>
    <tag k="addr:housenumber" v="157"/>
    <tag k="addr:street" v="Pearl Street"/>
    <tag k="addr:state" v="VT"/>
    <tag k="ref:vcgi:esiteid" v="97145"/>
  </node>
  <node id="-495" visible="true" lat="44.49765616" lon="-73.12575546">
    <!-- conflict: "141 Pearl Street, Essex Junction, VT" Fuzzy match to "141 Pearl Street, , VT" -->
    <tag k="addr:city" v="Essex Junction"/>
    <tag k="addr:housenumber" v="141"/>
    <tag k="addr:street" v="Pearl Street"/>
    <tag k="addr:state" v="VT"/>
    <tag k="ref:vcgi:esiteid" v="97192"/>
  </node>
  <node id="-690" visible="true" lat="44.49605352" lon="-73.12451201">
    <!-- conflict: "126 Pearl Street, Essex Junction, VT" Fuzzy match to "126 Pearl Street, , VT" -->
    <tag k="addr:city" v="Essex Junction"/>
    <tag k="addr:housenumber" v="126"/>
    <tag k="addr:street" v="Pearl Street"/>
    <tag k="addr:state" v="VT"/>
    <tag k="ref:vcgi:esiteid" v="97467"/>
  </node>
  <node id="-724" visible="true" lat="44.49580384" lon="-73.12384074">
    <!-- conflict: "120 Pearl Street, Essex Junction, VT" Fuzzy match to "120 Pearl Street, , VT" -->
    <tag k="addr:city" v="Essex Junction"/>
    <tag k="addr:housenumber" v="120"/>
    <tag k="addr:street" v="Pearl Street"/>
    <tag k="addr:state" v="VT"/>
    <tag k="ref:vcgi:esiteid" v="97513"/>
  </node>
  <node id="-765" visible="true" lat="44.4954878" lon="-73.12328468">
    <!-- conflict: "114 Pearl Street, Essex Junction, VT" Fuzzy match to "114 Pearl Street, , VT" -->
    <tag k="addr:city" v="Essex Junction"/>
    <tag k="addr:housenumber" v="114"/>
    <tag k="addr:street" v="Pearl Street"/>
    <tag k="addr:state" v="VT"/>
    <tag k="ref:vcgi:esiteid" v="97575"/>
  </node>
  <node id="-879" visible="true" lat="44.494645" lon="-73.12170013">
    <!-- conflict: "100 Pearl Street, Essex Junction, VT" Fuzzy match to "100 Pearl Street, , VT" -->
    <tag k="addr:city" v="Essex Junction"/>
    <tag k="addr:housenumber" v="100"/>
    <tag k="addr:street" v="Pearl Street"/>
    <tag k="addr:state" v="VT"/>
    <tag k="ref:vcgi:esiteid" v="97724"/>
  </node>
  <node id="-903" visible="true" lat="44.49454534" lon="-73.11121458">
    <!-- conflict: "45 Lincoln Street, Essex Junction, VT" Fuzzy match to "45 Lincoln Street, , VT" -->
    <tag k="addr:city" v="Essex Junction"/>
    <tag k="addr:housenumber" v="45"/>
    <tag k="addr:street" v="Lincoln Street"/>
    <tag k="addr:state" v="VT"/>
    <tag k="ref:vcgi:esiteid" v="97756"/>
  </node>
  <node id="-977" visible="true" lat="44.49406874" lon="-73.1199955">
    <!-- conflict: "84 Pearl Street, Essex Junction, VT" Fuzzy match to "84 Pearl Street, , VT" -->
    <tag k="addr:city" v="Essex Junction"/>
    <tag k="addr:housenumber" v="84"/>
    <tag k="addr:street" v="Pearl Street"/>
    <tag k="addr:state" v="VT"/>
    <tag k="ref:vcgi:esiteid" v="97856"/>
  </node>
  <node id="-1026" visible="true" lat="44.49414302" lon="-73.11871901">
    <!-- conflict: "71 Pearl Street, Essex Junction, VT" Fuzzy match to "71 Pearl Street, , VT" -->
    <tag k="addr:city" v="Essex Junction"/>
    <tag k="addr:housenumber" v="71"/>
    <tag k="addr:street" v="Pearl Street"/>
    <tag k="addr:state" v="VT"/>
    <tag k="ref:vcgi:esiteid" v="97918"/>
  </node>
  <node id="-1046" visible="true" lat="44.49361396" lon="-73.120372">
    <!-- conflict: "82 Pearl Street, Essex Junction, VT" No match in OSM, but a different address exists <5m away: " , Essex Junction, VT" -->
    <tag k="addr:city" v="Essex Junction"/>
    <tag k="addr:housenumber" v="82"/>
    <tag k="addr:street" v="Pearl Street"/>
    <tag k="addr:state" v="VT"/>
    <tag k="ref:vcgi:esiteid" v="97945"/>
  </node>
  <node id="-1136" visible="true" lat="44.49292522" lon="-73.11858427">
    <!-- conflict: "68 Pearl Street, Essex Junction, VT" Fuzzy match to "68 Pearl Street, , VT" -->
    <tag k="addr:city" v="Essex Junction"/>
    <tag k="addr:housenumber" v="68"/>
    <tag k="addr:street" v="Pearl Street"/>
    <tag k="addr:state" v="VT"/>
    <tag k="ref:vcgi:esiteid" v="98065"/>
  </node>
  <node id="-1175" visible="true" lat="44.49277268" lon="-73.11738319">
    <!-- conflict: "56 Pearl Street, Essex Junction, VT" Fuzzy match to "56 Pearl Street, Essex Junction Village, VT" -->
    <tag k="addr:city" v="Essex Junction"/>
    <tag k="addr:housenumber" v="56"/>
    <tag k="addr:street" v="Pearl Street"/>
    <tag k="addr:state" v="VT"/>
    <tag k="ref:vcgi:esiteid" v="98118"/>
  </node>
  <node id="-1187" visible="true" lat="44.49261902" lon="-73.11705109">
    <!-- conflict: "54 Pearl Street, Essex Junction, VT" Fuzzy match to "54 Pearl Street, , VT" -->
    <tag k="addr:city" v="Essex Junction"/>
    <tag k="addr:housenumber" v="54"/>
    <tag k="addr:street" v="Pearl Street"/>
    <tag k="addr:state" v="VT"/>
    <tag k="ref:vcgi:esiteid" v="98133"/>
  </node>
  <node id="-1241" visible="true" lat="44.49238278" lon="-73.11645604">
    <!-- conflict: "50 Pearl Street, Essex Junction, VT" Fuzzy match to "50 Pearl Street, , VT" -->
    <tag k="addr:city" v="Essex Junction"/>
    <tag k="addr:housenumber" v="50"/>
    <tag k="addr:street" v="Pearl Street"/>
    <tag k="addr:state" v="VT"/>
    <tag k="ref:vcgi:esiteid" v="98213"/>
  </node>
  <node id="-1338" visible="true" lat="44.49175133" lon="-73.11015562">
    <!-- conflict: "12 Railroad Avenue, Essex Junction, VT" No match in OSM, but a different address exists <5m away: "35 Main Street, , VT" -->
    <tag k="addr:city" v="Essex Junction"/>
    <tag k="addr:housenumber" v="12"/>
    <tag k="addr:street" v="Railroad Avenue"/>
    <tag k="addr:state" v="VT"/>
    <tag k="ref:vcgi:esiteid" v="98334"/>
  </node>
  <node id="-1359" visible="true" lat="44.49171071" lon="-73.11012791">
    <!-- conflict: "10 Railroad Avenue, Essex Junction, VT" No match in OSM, but a different address exists <5m away: "35 Main Street, , VT" -->
    <tag k="addr:city" v="Essex Junction"/>
    <tag k="addr:housenumber" v="10"/>
    <tag k="addr:street" v="Railroad Avenue"/>
    <tag k="addr:state" v="VT"/>
    <tag k="ref:vcgi:esiteid" v="98361"/>
  </node>
  <node id="-1360" visible="true" lat="44.49177984" lon="-73.11182567">
    <!-- conflict: "10 Lincoln Street, Essex Junction, VT" Fuzzy match to "10 Lincoln Street, , VT" -->
    <tag k="addr:city" v="Essex Junction"/>
    <tag k="addr:housenumber" v="10"/>
    <tag k="addr:street" v="Lincoln Street"/>
    <tag k="addr:state" v="VT"/>
    <tag k="ref:vcgi:esiteid" v="98362"/>
  </node>
  <node id="-1362" visible="true" lat="44.49166127" lon="-73.11136719">
    <!-- conflict: "10 Lincoln Street, Essex Junction, VT" Fuzzy match to "10 Lincoln Street, , VT" -->
    <tag k="addr:city" v="Essex Junction"/>
    <tag k="addr:housenumber" v="10"/>
    <tag k="addr:street" v="Lincoln Street"/>
    <tag k="addr:state" v="VT"/>
    <tag k="ref:vcgi:esiteid" v="98366"/>
  </node>
  <node id="-1405" visible="true" lat="44.49153651" lon="-73.10887323">
    <!-- conflict: "35 Main Street, Essex Junction, VT" Fuzzy match to "35 Main Street, , VT" -->
    <tag k="addr:city" v="Essex Junction"/>
    <tag k="addr:housenumber" v="35"/>
    <tag k="addr:street" v="Main Street"/>
    <tag k="addr:state" v="VT"/>
    <tag k="ref:vcgi:esiteid" v="98417"/>
  </node>
  <node id="-1455" visible="true" lat="44.49134605" lon="-73.1012062">
    <!-- conflict: "11 Park Avenue, Essex Junction, VT" Fuzzy match to "11 Park Street, Essex Junction, VT" -->
    <tag k="addr:city" v="Essex Junction"/>
    <tag k="addr:housenumber" v="11"/>
    <tag k="addr:street" v="Park Avenue"/>
    <tag k="addr:state" v="VT"/>
    <tag k="ref:vcgi:esiteid" v="98475"/>
  </node>
  <node id="-1505" visible="true" lat="44.4911499" lon="-73.10221099">
    <!-- conflict: "4 Park Avenue, Essex Junction, VT" Fuzzy match to "4 Park Street, , VT" -->
    <tag k="addr:city" v="Essex Junction"/>
    <tag k="addr:housenumber" v="4"/>
    <tag k="addr:street" v="Park Avenue"/>
    <tag k="addr:state" v="VT"/>
    <tag k="ref:vcgi:esiteid" v="98531"/>
  </node>
  <node id="-1529" visible="true" lat="44.49109883" lon="-73.11248835">
    <!-- conflict: "15 Pearl Street, Essex Junction, VT" Fuzzy match to "15 Pearl Street, , VT" -->
    <tag k="addr:city" v="Essex Junction"/>
    <tag k="addr:housenumber" v="15"/>
    <tag k="addr:street" v="Pearl Street"/>
    <tag k="addr:state" v="VT"/>
    <tag k="ref:vcgi:esiteid" v="98559"/>
  </node>
  <node id="-1550" visible="true" lat="44.4909534" lon="-73.10250664">
    <!-- conflict: "2 Park Avenue, Essex Junction, VT" Fuzzy match to "2 Park Street, Essex Junction, VT" -->
    <tag k="addr:city" v="Essex Junction"/>
    <tag k="addr:housenumber" v="2"/>
    <tag k="addr:street" v="Park Avenue"/>
    <tag k="addr:state" v="VT"/>
    <tag k="ref:vcgi:esiteid" v="98583"/>
  </node>
  <node id="-1552" visible="true" lat="44.49099447" lon="-73.10178164">
    <!-- conflict: "5 Park Avenue, Essex Junction, VT" Fuzzy match to "5 Park Street, , VT" -->
    <tag k="addr:city" v="Essex Junction"/>
    <tag k="addr:housenumber" v="5"/>
    <tag k="addr:street" v="Park Avenue"/>
    <tag k="addr:state" v="VT"/>
    <tag k="ref:vcgi:esiteid" v="98585"/>
  </node>
  <node id="-1648" visible="true" lat="44.49048818" lon="-73.11047196">
    <!-- conflict: "1 Main Street, Essex Junction, VT" Fuzzy match to "1 Main Street, , VT" -->
    <tag k="addr:city" v="Essex Junction"/>
    <tag k="addr:housenumber" v="1"/>
    <tag k="addr:street" v="Main Street"/>
    <tag k="addr:state" v="VT"/>
    <tag k="ref:vcgi:esiteid" v="98705"/>
  </node>
  <node id="-1699" visible="true" lat="44.49027224" lon="-73.1092915">
    <!-- conflict: "16 Maple Street, Essex Junction, VT" Fuzzy match to "16 Maple Street, , VT" -->
    <tag k="addr:city" v="Essex Junction"/>
    <tag k="addr:housenumber" v="16"/>
    <tag k="addr:street" v="Maple Street"/>
    <tag k="addr:state" v="VT"/>
    <tag k="ref:vcgi:esiteid" v="98769"/>
  </node>
  <node id="-1752" visible="true" lat="44.49007984" lon="-73.11278856">
    <!-- conflict: "4 Park Terrace, Essex Junction, VT" Fuzzy match to "4 Park Street, , VT" -->
    <tag k="addr:city" v="Essex Junction"/>
    <tag k="addr:housenumber" v="4"/>
    <tag k="addr:street" v="Park Terrace"/>
    <tag k="addr:state" v="VT"/>
    <tag k="ref:vcgi:esiteid" v="98830"/>
  </node>
  <node id="-1761" visible="true" lat="44.49003772" lon="-73.11108818">
    <!-- conflict: "4 Park Street, Essex Junction, VT" Fuzzy match to "4 Park Street, , VT" -->
    <tag k="addr:city" v="Essex Junction"/>
    <tag k="addr:housenumber" v="4"/>
    <tag k="addr:street" v="Park Street"/>
    <tag k="addr:state" v="VT"/>
    <tag k="ref:vcgi:esiteid" v="98839"/>
  </node>
  <node id="-2012" visible="true" lat="44.48862426" lon="-73.13909975">
    <!-- conflict: "315 South Street, Essex Junction, VT" Fuzzy match to "315 South Street, Essex Junction Village, VT" -->
    <tag k="addr:city" v="Essex Junction"/>
    <tag k="addr:housenumber" v="315"/>
    <tag k="addr:street" v="South Street"/>
    <tag k="addr:state" v="VT"/>
    <tag k="ref:vcgi:esiteid" v="99172"/>
  </node>
  <node id="-2064" visible="true" lat="44.4880826" lon="-73.1394126">
    <!-- conflict: "316 South Street, Essex Junction, VT" No match in OSM, but a different address exists <5m away: "314 South Street, Essex Junction Village, VT" -->
    <tag k="addr:city" v="Essex Junction"/>
    <tag k="addr:housenumber" v="316"/>
    <tag k="addr:street" v="South Street"/>
    <tag k="addr:state" v="VT"/>
    <tag k="ref:vcgi:esiteid" v="99258"/>
  </node>
  <node id="-2069" visible="true" lat="44.4883721" lon="-73.11330388">
    <!-- conflict: "37 Park Street, Essex Junction, VT" Fuzzy match to "37 Park Street, , VT" -->
    <tag k="addr:city" v="Essex Junction"/>
    <tag k="addr:housenumber" v="37"/>
    <tag k="addr:street" v="Park Street"/>
    <tag k="addr:state" v="VT"/>
    <tag k="ref:vcgi:esiteid" v="99267"/>
  </node>
  <node id="-2121" visible="true" lat="44.4878585" lon="-73.11306288">
    <!-- conflict: "39 Park Street, Essex Junction, VT" Fuzzy match to "39 Park Street, , VT" -->
    <tag k="addr:city" v="Essex Junction"/>
    <tag k="addr:housenumber" v="39"/>
    <tag k="addr:street" v="Park Street"/>
    <tag k="addr:state" v="VT"/>
    <tag k="ref:vcgi:esiteid" v="99345"/>
  </node>
  <node id="-2531" visible="true" lat="44.48377212" lon="-73.09658928">
    <!-- conflict: "145 Maple Street, Essex Junction, VT" Fuzzy match to "145 Maple Street, , " -->
    <tag k="addr:city" v="Essex Junction"/>
    <tag k="addr:housenumber" v="145"/>
    <tag k="addr:street" v="Maple Street"/>
    <tag k="addr:state" v="VT"/>
    <tag k="ref:vcgi:esiteid" v="100068"/>
  </node>
  <node id="-2631" visible="true" lat="44.4826162" lon="-73.11611473">
    <!-- conflict: "5 Cascade Street, Essex Junction, VT" Fuzzy match to "5 Cascade Street, Essex Junction Village, VT" -->
    <tag k="addr:city" v="Essex Junction"/>
    <tag k="addr:housenumber" v="5"/>
    <tag k="addr:street" v="Cascade Street"/>
    <tag k="addr:state" v="VT"/>
    <tag k="ref:vcgi:esiteid" v="100309"/>
  </node>
  <node id="-2713" visible="true" lat="44.49349254" lon="-73.11949185">
    <!-- conflict: "76 Pearl Street, Essex Junction, VT" Fuzzy match to "76 Pearl Street, , VT" -->
    <tag k="addr:city" v="Essex Junction"/>
    <tag k="addr:housenumber" v="76"/>
    <tag k="addr:street" v="Pearl Street"/>
    <tag k="addr:state" v="VT"/>
    <tag k="ref:vcgi:esiteid" v="100919"/>
  </node>
  <node id="-2789" visible="true" lat="44.49258203" lon="-73.11788554">
    <!-- conflict: "58 Pearl Street, Essex Junction, VT" Fuzzy match to "58 Pearl Street, , VT" -->
    <tag k="addr:city" v="Essex Junction"/>
    <tag k="addr:housenumber" v="58"/>
    <tag k="addr:street" v="Pearl Street"/>
    <tag k="addr:state" v="VT"/>
    <tag k="ref:vcgi:esiteid" v="101030"/>
  </node>
  <node id="-2792" visible="true" lat="44.49334736" lon="-73.11938075">
    <!-- conflict: "74 Pearl Street, Essex Junction, VT" Fuzzy match to "74 Pearl Street, , VT" -->
    <tag k="addr:city" v="Essex Junction"/>
    <tag k="addr:housenumber" v="74"/>
    <tag k="addr:street" v="Pearl Street"/>
    <tag k="addr:state" v="VT"/>
    <tag k="ref:vcgi:esiteid" v="101033"/>
  </node>
  <node id="-2793" visible="true" lat="44.49262924" lon="-73.11814138">
    <!-- conflict: "60 Pearl Street, Essex Junction, VT" Fuzzy match to "60 Pearl Street, , VT" -->
    <tag k="addr:city" v="Essex Junction"/>
    <tag k="addr:housenumber" v="60"/>
    <tag k="addr:street" v="Pearl Street"/>
    <tag k="addr:state" v="VT"/>
    <tag k="ref:vcgi:esiteid" v="101034"/>
  </node>
  <node id="-2797" visible="true" lat="44.49298094" lon="-73.1187735">
    <!-- conflict: "70 Pearl Street, Essex Junction, VT" Fuzzy match to "70 Pearl Street, , VT" -->
    <tag k="addr:city" v="Essex Junction"/>
    <tag k="addr:housenumber" v="70"/>
    <tag k="addr:street" v="Pearl Street"/>
    <tag k="addr:state" v="VT"/>
    <tag k="ref:vcgi:esiteid" v="101038"/>
  </node>
  <node id="-2806" visible="true" lat="44.48726862" lon="-73.13334099">
    <!-- conflict: "168 South Street, Essex Junction, VT" Fuzzy match to "168 South Street, Essex Junction Village, VT" -->
    <tag k="addr:city" v="Essex Junction"/>
    <tag k="addr:housenumber" v="168"/>
    <tag k="addr:street" v="South Street"/>
    <tag k="addr:state" v="VT"/>
    <tag k="ref:vcgi:esiteid" v="101048"/>
  </node>
  <node id="-2807" visible="true" lat="44.48726326" lon="-73.1334487">
    <!-- conflict: "170 South Street, Essex Junction, VT" Fuzzy match to "170 South Street, Essex Junction Village, VT" -->
    <tag k="addr:city" v="Essex Junction"/>
    <tag k="addr:housenumber" v="170"/>
    <tag k="addr:street" v="South Street"/>
    <tag k="addr:state" v="VT"/>
    <tag k="ref:vcgi:esiteid" v="101049"/>
  </node>
  <node id="-2808" visible="true" lat="44.48724497" lon="-73.13371183">
    <!-- conflict: "172 South Street, Essex Junction, VT" Fuzzy match to "172 South Street, Essex Junction Village, VT" -->
    <tag k="addr:city" v="Essex Junction"/>
    <tag k="addr:housenumber" v="172"/>
    <tag k="addr:street" v="South Street"/>
    <tag k="addr:state" v="VT"/>
    <tag k="ref:vcgi:esiteid" v="101050"/>
  </node>
  <node id="-2809" visible="true" lat="44.48722702" lon="-73.13382273">
    <!-- conflict: "174 South Street, Essex Junction, VT" Fuzzy match to "174 South Street, Essex Junction Village, VT" -->
    <tag k="addr:city" v="Essex Junction"/>
    <tag k="addr:housenumber" v="174"/>
    <tag k="addr:street" v="South Street"/>
    <tag k="addr:state" v="VT"/>
    <tag k="ref:vcgi:esiteid" v="101051"/>
  </node>
  <node id="-2810" visible="true" lat="44.48701885" lon="-73.13296776">
    <!-- conflict: "1 Lavoie Drive, Essex Junction, VT" Fuzzy match to "1 Lavoie Drive, Essex Junction Village, VT" -->
    <tag k="addr:city" v="Essex Junction"/>
    <tag k="addr:housenumber" v="1"/>
    <tag k="addr:street" v="Lavoie Drive"/>
    <tag k="addr:state" v="VT"/>
    <tag k="ref:vcgi:esiteid" v="101052"/>
  </node>
  <node id="-2811" visible="true" lat="44.48693965" lon="-73.13304523">
    <!-- conflict: "3 Lavoie Drive, Essex Junction, VT" Fuzzy match to "3 Lavoie Drive, Essex Junction Village, VT" -->
    <tag k="addr:city" v="Essex Junction"/>
    <tag k="addr:housenumber" v="3"/>
    <tag k="addr:street" v="Lavoie Drive"/>
    <tag k="addr:state" v="VT"/>
    <tag k="ref:vcgi:esiteid" v="101053"/>
  </node>
  <node id="-2812" visible="true" lat="44.48673054" lon="-73.13321289">
    <!-- conflict: "5 Lavoie Drive, Essex Junction, VT" Fuzzy match to "5 Lavoie Drive, Essex Junction Village, VT" -->
    <tag k="addr:city" v="Essex Junction"/>
    <tag k="addr:housenumber" v="5"/>
    <tag k="addr:street" v="Lavoie Drive"/>
    <tag k="addr:state" v="VT"/>
    <tag k="ref:vcgi:esiteid" v="101054"/>
  </node>
  <node id="-2813" visible="true" lat="44.48663955" lon="-73.13329008">
    <!-- conflict: "7 Lavoie Drive, Essex Junction, VT" Fuzzy match to "7 Lavoie Drive, Essex Junction Village, VT" -->
    <tag k="addr:city" v="Essex Junction"/>
    <tag k="addr:housenumber" v="7"/>
    <tag k="addr:street" v="Lavoie Drive"/>
    <tag k="addr:state" v="VT"/>
    <tag k="ref:vcgi:esiteid" v="101055"/>
  </node>
  <node id="-2814" visible="true" lat="44.48647073" lon="-73.13343218">
    <!-- conflict: "9 Lavoie Drive, Essex Junction, VT" Fuzzy match to "9 Lavoie Drive, Essex Junction Village, VT" -->
    <tag k="addr:city" v="Essex Junction"/>
    <tag k="addr:housenumber" v="9"/>
    <tag k="addr:street" v="Lavoie Drive"/>
    <tag k="addr:state" v="VT"/>
    <tag k="ref:vcgi:esiteid" v="101056"/>
  </node>
  <node id="-2815" visible="true" lat="44.48637718" lon="-73.13350015">
    <!-- conflict: "11 Lavoie Drive, Essex Junction, VT" Fuzzy match to "11 Lavoie Drive, Essex Junction Village, VT" -->
    <tag k="addr:city" v="Essex Junction"/>
    <tag k="addr:housenumber" v="11"/>
    <tag k="addr:street" v="Lavoie Drive"/>
    <tag k="addr:state" v="VT"/>
    <tag k="ref:vcgi:esiteid" v="101057"/>
  </node>
  <node id="-2816" visible="true" lat="44.48616323" lon="-73.13356587">
    <!-- conflict: "13 Lavoie Drive, Essex Junction, VT" Fuzzy match to "13 Lavoie Drive, Essex Junction Village, VT" -->
    <tag k="addr:city" v="Essex Junction"/>
    <tag k="addr:housenumber" v="13"/>
    <tag k="addr:street" v="Lavoie Drive"/>
    <tag k="addr:state" v="VT"/>
    <tag k="ref:vcgi:esiteid" v="101058"/>
  </node>
  <node id="-2817" visible="true" lat="44.48606611" lon="-73.13355214">
    <!-- conflict: "15 Lavoie Drive, Essex Junction, VT" Fuzzy match to "15 Lavoie Drive, Essex Junction Village, VT" -->
    <tag k="addr:city" v="Essex Junction"/>
    <tag k="addr:housenumber" v="15"/>
    <tag k="addr:street" v="Lavoie Drive"/>
    <tag k="addr:state" v="VT"/>
    <tag k="ref:vcgi:esiteid" v="101059"/>
  </node>
  <node id="-2818" visible="true" lat="44.4858802" lon="-73.13339166">
    <!-- conflict: "17 Lavoie Drive, Essex Junction, VT" Fuzzy match to "17 Lavoie Drive, Essex Junction Village, VT" -->
    <tag k="addr:city" v="Essex Junction"/>
    <tag k="addr:housenumber" v="17"/>
    <tag k="addr:street" v="Lavoie Drive"/>
    <tag k="addr:state" v="VT"/>
    <tag k="ref:vcgi:esiteid" v="101060"/>
  </node>
  <node id="-2819" visible="true" lat="44.48581762" lon="-73.13326956">
    <!-- conflict: "19 Lavoie Drive, Essex Junction, VT" Fuzzy match to "19 Lavoie Drive, Essex Junction Village, VT" -->
    <tag k="addr:city" v="Essex Junction"/>
    <tag k="addr:housenumber" v="19"/>
    <tag k="addr:street" v="Lavoie Drive"/>
    <tag k="addr:state" v="VT"/>
    <tag k="ref:vcgi:esiteid" v="101061"/>
  </node>
  <node id="-2820" visible="true" lat="44.48570079" lon="-73.13305306">
    <!-- conflict: "21 Lavoie Drive, Essex Junction, VT" Fuzzy match to "21 Lavoie Drive, Essex Junction Village, VT" -->
    <tag k="addr:city" v="Essex Junction"/>
    <tag k="addr:housenumber" v="21"/>
    <tag k="addr:street" v="Lavoie Drive"/>
    <tag k="addr:state" v="VT"/>
    <tag k="ref:vcgi:esiteid" v="101062"/>
  </node>
  <node id="-2821" visible="true" lat="44.4856436" lon="-73.13294542">
    <!-- conflict: "23 Lavoie Drive, Essex Junction, VT" Fuzzy match to "23 Lavoie Drive, Essex Junction Village, VT" -->
    <tag k="addr:city" v="Essex Junction"/>
    <tag k="addr:housenumber" v="23"/>
    <tag k="addr:street" v="Lavoie Drive"/>
    <tag k="addr:state" v="VT"/>
    <tag k="ref:vcgi:esiteid" v="101063"/>
  </node>
  <node id="-2822" visible="true" lat="44.48553318" lon="-73.13273959">
    <!-- conflict: "25 Lavoie Drive, Essex Junction, VT" Fuzzy match to "25 Lavoie Drive, Essex Junction Village, VT" -->
    <tag k="addr:city" v="Essex Junction"/>
    <tag k="addr:housenumber" v="25"/>
    <tag k="addr:street" v="Lavoie Drive"/>
    <tag k="addr:state" v="VT"/>
    <tag k="ref:vcgi:esiteid" v="101064"/>
  </node>
  <node id="-2823" visible="true" lat="44.48547252" lon="-73.13262796">
    <!-- conflict: "27 Lavoie Drive, Essex Junction, VT" Fuzzy match to "27 Lavoie Drive, Essex Junction Village, VT" -->
    <tag k="addr:city" v="Essex Junction"/>
    <tag k="addr:housenumber" v="27"/>
    <tag k="addr:street" v="Lavoie Drive"/>
    <tag k="addr:state" v="VT"/>
    <tag k="ref:vcgi:esiteid" v="101065"/>
  </node>
  <node id="-2824" visible="true" lat="44.48538482" lon="-73.13239817">
    <!-- conflict: "29 Lavoie Drive, Essex Junction, VT" Fuzzy match to "29 Lavoie Drive, Essex Junction Village, VT" -->
    <tag k="addr:city" v="Essex Junction"/>
    <tag k="addr:housenumber" v="29"/>
    <tag k="addr:street" v="Lavoie Drive"/>
    <tag k="addr:state" v="VT"/>
    <tag k="ref:vcgi:esiteid" v="101066"/>
  </node>
  <node id="-2825" visible="true" lat="44.48533207" lon="-73.13224873">
    <!-- conflict: "31 Lavoie Drive, Essex Junction, VT" Fuzzy match to "31 Lavoie Drive, Essex Junction Village, VT" -->
    <tag k="addr:city" v="Essex Junction"/>
    <tag k="addr:housenumber" v="31"/>
    <tag k="addr:street" v="Lavoie Drive"/>
    <tag k="addr:state" v="VT"/>
    <tag k="ref:vcgi:esiteid" v="101067"/>
  </node>
  <node id="-2826" visible="true" lat="44.4852902" lon="-73.13200019">
    <!-- conflict: "33 Lavoie Drive, Essex Junction, VT" Fuzzy match to "33 Lavoie Drive, Essex Junction Village, VT" -->
    <tag k="addr:city" v="Essex Junction"/>
    <tag k="addr:housenumber" v="33"/>
    <tag k="addr:street" v="Lavoie Drive"/>
    <tag k="addr:state" v="VT"/>
    <tag k="ref:vcgi:esiteid" v="101068"/>
  </node>
  <node id="-2827" visible="true" lat="44.48527558" lon="-73.13185173">
    <!-- conflict: "35 Lavoie Drive, Essex Junction, VT" Fuzzy match to "35 Lavoie Drive, Essex Junction Village, VT" -->
    <tag k="addr:city" v="Essex Junction"/>
    <tag k="addr:housenumber" v="35"/>
    <tag k="addr:street" v="Lavoie Drive"/>
    <tag k="addr:state" v="VT"/>
    <tag k="ref:vcgi:esiteid" v="101069"/>
  </node>
  <node id="-2836" visible="true" lat="44.48620905" lon="-73.13294346">
    <!-- conflict: "16 Lavoie Drive, Essex Junction, VT" Fuzzy match to "16 Lavoie Drive, Essex Junction Village, VT" -->
    <tag k="addr:city" v="Essex Junction"/>
    <tag k="addr:housenumber" v="16"/>
    <tag k="addr:street" v="Lavoie Drive"/>
    <tag k="addr:state" v="VT"/>
    <tag k="ref:vcgi:esiteid" v="101078"/>
  </node>
  <node id="-2837" visible="true" lat="44.48612661" lon="-73.13284552">
    <!-- conflict: "18 Lavoie Drive, Essex Junction, VT" Fuzzy match to "18 Lavoie Drive, Essex Junction Village, VT" -->
    <tag k="addr:city" v="Essex Junction"/>
    <tag k="addr:housenumber" v="18"/>
    <tag k="addr:street" v="Lavoie Drive"/>
    <tag k="addr:state" v="VT"/>
    <tag k="ref:vcgi:esiteid" v="101079"/>
  </node>
  <node id="-2838" visible="true" lat="44.48602281" lon="-73.13265623">
    <!-- conflict: "20 Lavoie Drive, Essex Junction, VT" Fuzzy match to "20 Lavoie Drive, Essex Junction Village, VT" -->
    <tag k="addr:city" v="Essex Junction"/>
    <tag k="addr:housenumber" v="20"/>
    <tag k="addr:street" v="Lavoie Drive"/>
    <tag k="addr:state" v="VT"/>
    <tag k="ref:vcgi:esiteid" v="101080"/>
  </node>
  <node id="-2839" visible="true" lat="44.48594857" lon="-73.13253495">
    <!-- conflict: "22 Lavoie Drive, Essex Junction, VT" Fuzzy match to "22 Lavoie Drive, Essex Junction Village, VT" -->
    <tag k="addr:city" v="Essex Junction"/>
    <tag k="addr:housenumber" v="22"/>
    <tag k="addr:street" v="Lavoie Drive"/>
    <tag k="addr:state" v="VT"/>
    <tag k="ref:vcgi:esiteid" v="101081"/>
  </node>
  <node id="-2840" visible="true" lat="44.48585666" lon="-73.13234788">
    <!-- conflict: "24 Lavoie Drive, Essex Junction, VT" Fuzzy match to "24 Lavoie Drive, Essex Junction Village, VT" -->
    <tag k="addr:city" v="Essex Junction"/>
    <tag k="addr:housenumber" v="24"/>
    <tag k="addr:street" v="Lavoie Drive"/>
    <tag k="addr:state" v="VT"/>
    <tag k="ref:vcgi:esiteid" v="101082"/>
  </node>
  <node id="-2841" visible="true" lat="44.4857825" lon="-73.13221391">
    <!-- conflict: "26 Lavoie Drive, Essex Junction, VT" Fuzzy match to "26 Lavoie Drive, Essex Junction Village, VT" -->
    <tag k="addr:city" v="Essex Junction"/>
    <tag k="addr:housenumber" v="26"/>
    <tag k="addr:street" v="Lavoie Drive"/>
    <tag k="addr:state" v="VT"/>
    <tag k="ref:vcgi:esiteid" v="101083"/>
  </node>
  <node id="-2842" visible="true" lat="44.48570942" lon="-73.13196524">
    <!-- conflict: "34 Lavoie Drive, Essex Junction, VT" Fuzzy match to "34 Lavoie Drive, Essex Junction Village, VT" -->
    <tag k="addr:city" v="Essex Junction"/>
    <tag k="addr:housenumber" v="34"/>
    <tag k="addr:street" v="Lavoie Drive"/>
    <tag k="addr:state" v="VT"/>
    <tag k="ref:vcgi:esiteid" v="101084"/>
  </node>
  <node id="-2843" visible="true" lat="44.48570429" lon="-73.13182292">
    <!-- conflict: "36 Lavoie Drive, Essex Junction, VT" Fuzzy match to "36 Lavoie Drive, Essex Junction Village, VT" -->
    <tag k="addr:city" v="Essex Junction"/>
    <tag k="addr:housenumber" v="36"/>
    <tag k="addr:street" v="Lavoie Drive"/>
    <tag k="addr:state" v="VT"/>
    <tag k="ref:vcgi:esiteid" v="101085"/>
  </node>
  <node id="-2844" visible="true" lat="44.48572134" lon="-73.13155282">
    <!-- conflict: "38 Lavoie Drive, Essex Junction, VT" Fuzzy match to "38 Lavoie Drive, Essex Junction Village, VT" -->
    <tag k="addr:city" v="Essex Junction"/>
    <tag k="addr:housenumber" v="38"/>
    <tag k="addr:street" v="Lavoie Drive"/>
    <tag k="addr:state" v="VT"/>
    <tag k="ref:vcgi:esiteid" v="101086"/>
  </node>
  <node id="-2845" visible="true" lat="44.48574693" lon="-73.13139882">
    <!-- conflict: "40 Lavoie Drive, Essex Junction, VT" Fuzzy match to "40 Lavoie Drive, Essex Junction Village, VT" -->
    <tag k="addr:city" v="Essex Junction"/>
    <tag k="addr:housenumber" v="40"/>
    <tag k="addr:street" v="Lavoie Drive"/>
    <tag k="addr:state" v="VT"/>
    <tag k="ref:vcgi:esiteid" v="101087"/>
  </node>
  <node id="-2846" visible="true" lat="44.48578457" lon="-73.13118014">
    <!-- conflict: "42 Lavoie Drive, Essex Junction, VT" Fuzzy match to "42 Lavoie Drive, Essex Junction Village, VT" -->
    <tag k="addr:city" v="Essex Junction"/>
    <tag k="addr:housenumber" v="42"/>
    <tag k="addr:street" v="Lavoie Drive"/>
    <tag k="addr:state" v="VT"/>
    <tag k="ref:vcgi:esiteid" v="101088"/>
  </node>
  <node id="-2847" visible="true" lat="44.48580594" lon="-73.13102896">
    <!-- conflict: "44 Lavoie Drive, Essex Junction, VT" Fuzzy match to "44 Lavoie Drive, Essex Junction Village, VT" -->
    <tag k="addr:city" v="Essex Junction"/>
    <tag k="addr:housenumber" v="44"/>
    <tag k="addr:street" v="Lavoie Drive"/>
    <tag k="addr:state" v="VT"/>
    <tag k="ref:vcgi:esiteid" v="101089"/>
  </node>
  <node id="-2848" visible="true" lat="44.48583706" lon="-73.13079783">
    <!-- conflict: "46 Lavoie Drive, Essex Junction, VT" Fuzzy match to "46 Lavoie Drive, Essex Junction Village, VT" -->
    <tag k="addr:city" v="Essex Junction"/>
    <tag k="addr:housenumber" v="46"/>
    <tag k="addr:street" v="Lavoie Drive"/>
    <tag k="addr:state" v="VT"/>
    <tag k="ref:vcgi:esiteid" v="101090"/>
  </node>
  <node id="-2849" visible="true" lat="44.48584471" lon="-73.13064572">
    <!-- conflict: "48 Lavoie Drive, Essex Junction, VT" Fuzzy match to "48 Lavoie Drive, Essex Junction Village, VT" -->
    <tag k="addr:city" v="Essex Junction"/>
    <tag k="addr:housenumber" v="48"/>
    <tag k="addr:street" v="Lavoie Drive"/>
    <tag k="addr:state" v="VT"/>
    <tag k="ref:vcgi:esiteid" v="101091"/>
  </node>
  <node id="-2850" visible="true" lat="44.48584105" lon="-73.13042597">
    <!-- conflict: "50 Lavoie Drive, Essex Junction, VT" Fuzzy match to "50 Lavoie Drive, Essex Junction Village, VT" -->
    <tag k="addr:city" v="Essex Junction"/>
    <tag k="addr:housenumber" v="50"/>
    <tag k="addr:street" v="Lavoie Drive"/>
    <tag k="addr:state" v="VT"/>
    <tag k="ref:vcgi:esiteid" v="101092"/>
  </node>
  <node id="-2851" visible="true" lat="44.48583052" lon="-73.13027684">
    <!-- conflict: "52 Lavoie Drive, Essex Junction, VT" Fuzzy match to "52 Lavoie Drive, Essex Junction Village, VT" -->
    <tag k="addr:city" v="Essex Junction"/>
    <tag k="addr:housenumber" v="52"/>
    <tag k="addr:street" v="Lavoie Drive"/>
    <tag k="addr:state" v="VT"/>
    <tag k="ref:vcgi:esiteid" v="101093"/>
  </node>
  <node id="-2852" visible="true" lat="44.48582505" lon="-73.13005552">
    <!-- conflict: "54 Lavoie Drive, Essex Junction, VT" Fuzzy match to "54 Lavoie Drive, Essex Junction Village, VT" -->
    <tag k="addr:city" v="Essex Junction"/>
    <tag k="addr:housenumber" v="54"/>
    <tag k="addr:street" v="Lavoie Drive"/>
    <tag k="addr:state" v="VT"/>
    <tag k="ref:vcgi:esiteid" v="101094"/>
  </node>
  <node id="-2853" visible="true" lat="44.48580957" lon="-73.12989967">
    <!-- conflict: "56 Lavoie Drive, Essex Junction, VT" Fuzzy match to "56 Lavoie Drive, Essex Junction Village, VT" -->
    <tag k="addr:city" v="Essex Junction"/>
    <tag k="addr:housenumber" v="56"/>
    <tag k="addr:street" v="Lavoie Drive"/>
    <tag k="addr:state" v="VT"/>
    <tag k="ref:vcgi:esiteid" v="101095"/>
  </node>
  <node id="-2912" visible="true" lat="44.48143621" lon="-73.12655767">
    <!-- conflict: "2 Dunbar Drive, Essex Junction, VT" Fuzzy match to "2 Dunbar Drive, Essex Junction Village, VT" -->
    <tag k="addr:city" v="Essex Junction"/>
    <tag k="addr:housenumber" v="2"/>
    <tag k="addr:street" v="Dunbar Drive"/>
    <tag k="addr:state" v="VT"/>
    <tag k="ref:vcgi:esiteid" v="101158"/>
  </node>
  <node id="-2932" visible="true" lat="44.48192418" lon="-73.12617273">
    <!-- conflict: "5 Dunbar Drive, Essex Junction, VT" Fuzzy match to "5 Dunbar Drive, Essex Junction Village, VT" -->
    <tag k="addr:city" v="Essex Junction"/>
    <tag k="addr:housenumber" v="5"/>
    <tag k="addr:street" v="Dunbar Drive"/>
    <tag k="addr:state" v="VT"/>
    <tag k="ref:vcgi:esiteid" v="101178"/>
  </node>
  <node id="-2933" visible="true" lat="44.4819952" lon="-73.12623679">
    <!-- conflict: "7 Dunbar Drive, Essex Junction, VT" Fuzzy match to "7 Dunbar Drive, Essex Junction Village, VT" -->
    <tag k="addr:city" v="Essex Junction"/>
    <tag k="addr:housenumber" v="7"/>
    <tag k="addr:street" v="Dunbar Drive"/>
    <tag k="addr:state" v="VT"/>
    <tag k="ref:vcgi:esiteid" v="101179"/>
  </node>
  <node id="-2934" visible="true" lat="44.48213684" lon="-73.12639786">
    <!-- conflict: "9 Dunbar Drive, Essex Junction, VT" Fuzzy match to "9 Dunbar Drive, Essex Junction Village, VT" -->
    <tag k="addr:city" v="Essex Junction"/>
    <tag k="addr:housenumber" v="9"/>
    <tag k="addr:street" v="Dunbar Drive"/>
    <tag k="addr:state" v="VT"/>
    <tag k="ref:vcgi:esiteid" v="101180"/>
  </node>
  <node id="-2935" visible="true" lat="44.48220173" lon="-73.12648005">
    <!-- conflict: "11 Dunbar Drive, Essex Junction, VT" Fuzzy match to "11 Dunbar Drive, Essex Junction Village, VT" -->
    <tag k="addr:city" v="Essex Junction"/>
    <tag k="addr:housenumber" v="11"/>
    <tag k="addr:street" v="Dunbar Drive"/>
    <tag k="addr:state" v="VT"/>
    <tag k="ref:vcgi:esiteid" v="101181"/>
  </node>
  <node id="-2936" visible="true" lat="44.4823219" lon="-73.12662319">
    <!-- conflict: "13 Dunbar Drive, Essex Junction, VT" Fuzzy match to "13 Dunbar Drive, Essex Junction Village, VT" -->
    <tag k="addr:city" v="Essex Junction"/>
    <tag k="addr:housenumber" v="13"/>
    <tag k="addr:street" v="Dunbar Drive"/>
    <tag k="addr:state" v="VT"/>
    <tag k="ref:vcgi:esiteid" v="101182"/>
  </node>
  <node id="-2937" visible="true" lat="44.48239204" lon="-73.12670788">
    <!-- conflict: "15 Dunbar Drive, Essex Junction, VT" Fuzzy match to "15 Dunbar Drive, Essex Junction Village, VT" -->
    <tag k="addr:city" v="Essex Junction"/>
    <tag k="addr:housenumber" v="15"/>
    <tag k="addr:street" v="Dunbar Drive"/>
    <tag k="addr:state" v="VT"/>
    <tag k="ref:vcgi:esiteid" v="101183"/>
  </node>
  <node id="-2955" visible="true" lat="44.48807524" lon="-73.11400392">
    <!-- conflict: "137 Iroquois Avenue, Essex Junction, VT" Fuzzy match to "137 Iroquois Avenue, , VT" -->
    <tag k="addr:city" v="Essex Junction"/>
    <tag k="addr:housenumber" v="137"/>
    <tag k="addr:street" v="Iroquois Avenue"/>
    <tag k="addr:state" v="VT"/>
    <tag k="ref:vcgi:esiteid" v="101203"/>
  </node>
  <node id="-2981" visible="true" lat="44.49187395" lon="-73.11033771">
    <!-- conflict: "20 Railroad Avenue, Essex Junction, VT" No match in OSM, but a different address exists <5m away: "4 Lincoln Place, , VT" -->
    <tag k="addr:city" v="Essex Junction"/>
    <tag k="addr:housenumber" v="20"/>
    <tag k="addr:street" v="Railroad Avenue"/>
    <tag k="addr:state" v="VT"/>
    <tag k="ref:vcgi:esiteid" v="101249"/>
  </node>
  <node id="-3233" visible="true" lat="44.48953879" lon="-73.11158018">
    <!-- conflict: "14 Park Street, Essex Junction, VT" No match in OSM, but a different address exists <5m away: "5 Park Street, , VT" -->
    <tag k="addr:city" v="Essex Junction"/>
    <tag k="addr:housenumber" v="14"/>
    <tag k="addr:street" v="Park Street"/>
    <tag k="addr:state" v="VT"/>
    <tag k="ref:vcgi:esiteid" v="308757"/>
  </node>
  <node id="-3235" visible="true" lat="44.49186209" lon="-73.11040097">
    <!-- conflict: "4 Lincoln Place, Essex Junction, VT" Fuzzy match to "4 Lincoln Place, , VT" -->
    <tag k="addr:city" v="Essex Junction"/>
    <tag k="addr:housenumber" v="4"/>
    <tag k="addr:street" v="Lincoln Place"/>
    <tag k="addr:state" v="VT"/>
    <tag k="ref:vcgi:esiteid" v="308759"/>
  </node>
  <node id="-3255" visible="true" lat="44.49094457" lon="-73.10998476">
    <!-- conflict: "9 Main Street, Essex Junction, VT" Fuzzy match to "9 Main Street, , VT" -->
    <tag k="addr:city" v="Essex Junction"/>
    <tag k="addr:housenumber" v="9"/>
    <tag k="addr:street" v="Main Street"/>
    <tag k="addr:state" v="VT"/>
    <tag k="ref:vcgi:esiteid" v="308781"/>
  </node>
  <node id="-3313" visible="true" lat="44.48806958" lon="-73.11396544">
    <!-- conflict: "139 Iroquois Avenue, Essex Junction, VT" No match in OSM, but a different address exists <5m away: "137 Iroquois Avenue, , VT" -->
    <tag k="addr:city" v="Essex Junction"/>
    <tag k="addr:housenumber" v="139"/>
    <tag k="addr:street" v="Iroquois Avenue"/>
    <tag k="addr:state" v="VT"/>
    <tag k="ref:vcgi:esiteid" v="334983"/>
  </node>
  <node id="-3344" visible="true" lat="44.49186815" lon="-73.11045965">
    <!-- conflict: "6 Lincoln Place, Essex Junction, VT" Fuzzy match to "6 Lincoln Street, Essex Junction, VT" -->
    <tag k="addr:city" v="Essex Junction"/>
    <tag k="addr:housenumber" v="6"/>
    <tag k="addr:street" v="Lincoln Place"/>
    <tag k="addr:state" v="VT"/>
    <tag k="ref:vcgi:esiteid" v="341746"/>
  </node>
  <node id="-3414" visible="true" lat="44.48508919" lon="-73.13656555">
    <!-- conflict: "178 South Street, Essex Junction, VT" Fuzzy match to "178 South Street, Essex Junction Village, VT" -->
    <tag k="addr:city" v="Essex Junction"/>
    <tag k="addr:housenumber" v="178"/>
    <tag k="addr:street" v="South Street"/>
    <tag k="addr:state" v="VT"/>
    <tag k="ref:vcgi:esiteid" v="449978"/>
  </node>
  <node id="-3423" visible="true" lat="44.49268701" lon="-73.11771828">
    <!-- conflict: "58A Pearl Street, Essex Junction, VT" No match in OSM, but a different address exists <5m away: "58 Pearl Street, , VT" -->
    <tag k="addr:city" v="Essex Junction"/>
    <tag k="addr:housenumber" v="58A"/>
    <tag k="addr:street" v="Pearl Street"/>
    <tag k="addr:state" v="VT"/>
    <tag k="ref:vcgi:esiteid" v="451320"/>
  </node>
  <node id="-3464" visible="true" lat="44.48775597" lon="-73.13925263">
    <!-- conflict: "314 South Street, Essex Junction, VT" Fuzzy match to "314 South Street, Essex Junction Village, VT" -->
    <tag k="addr:city" v="Essex Junction"/>
    <tag k="addr:housenumber" v="314"/>
    <tag k="addr:street" v="South Street"/>
    <tag k="addr:state" v="VT"/>
    <tag k="ref:vcgi:esiteid" v="754518"/>
  </node>
  <node id="-3498" visible="true" lat="44.50144491" lon="-73.10862647">
    <!-- conflict: "169 Autumn Pond Way, Essex Junction, VT" Fuzzy match to "169 Autumn Pond Way, , " -->
    <tag k="addr:city" v="Essex Junction"/>
    <tag k="addr:housenumber" v="169"/>
    <tag k="addr:street" v="Autumn Pond Way"/>
    <tag k="addr:state" v="VT"/>
    <tag k="ref:vcgi:esiteid" v="769466"/>
  </node>
</osm>
