<?xml version="1.0" encoding="UTF-8"?>
<osm version="0.6" generator="JOSM">
  <node id="-351" visible="true" lat="44.49907894" lon="-73.12844629">
    <tag k="addr:city" v="Essex Junction"/>
    <tag k="addr:housenumber" v="167"/>
    <tag k="addr:street" v="Pearl Street"/>
    <tag k="addr:state" v="VT"/>
    <tag k="ref:vcgi:esiteid" v="96982"/>
  </node>
  <node id="-370" visible="true" lat="44.49884383" lon="-73.12885467">
    <tag k="addr:city" v="Essex Junction"/>
    <tag k="addr:housenumber" v="167"/>
    <tag k="addr:street" v="Pearl Street"/>
    <tag k="addr:state" v="VT"/>
    <tag k="ref:vcgi:esiteid" v="97010"/>
  </node>
  <node id="-546" visible="true" lat="44.49715602" lon="-73.12513622">
    <tag k="addr:city" v="Essex Junction"/>
    <tag k="addr:housenumber" v="139"/>
    <tag k="addr:street" v="Pearl Street"/>
    <tag k="addr:state" v="VT"/>
    <tag k="ref:vcgi:esiteid" v="97266"/>
  </node>
  <node id="-549" visible="true" lat="44.49712942" lon="-73.13204334">
    <tag k="addr:city" v="Essex Junction"/>
    <tag k="addr:housenumber" v="158"/>
    <tag k="addr:street" v="West Street"/>
    <tag k="addr:state" v="VT"/>
    <tag k="ref:vcgi:esiteid" v="97270"/>
  </node>
  <node id="-580" visible="true" lat="44.49697577" lon="-73.12500507">
    <tag k="addr:city" v="Essex Junction"/>
    <tag k="addr:housenumber" v="137"/>
    <tag k="addr:street" v="Pearl Street"/>
    <tag k="addr:state" v="VT"/>
    <tag k="ref:vcgi:esiteid" v="97316"/>
  </node>
  <node id="-608" visible="true" lat="44.49672547" lon="-73.12444615">
    <tag k="addr:city" v="Essex Junction"/>
    <tag k="addr:housenumber" v="131"/>
    <tag k="addr:street" v="Pearl Street"/>
    <tag k="addr:state" v="VT"/>
    <tag k="ref:vcgi:esiteid" v="97353"/>
  </node>
  <node id="-621" visible="true" lat="44.49657688" lon="-73.11217421">
    <tag k="addr:city" v="Essex Junction"/>
    <tag k="addr:housenumber" v="67"/>
    <tag k="addr:street" v="Lincoln Street"/>
    <tag k="addr:state" v="VT"/>
    <tag k="ref:vcgi:esiteid" v="97371"/>
  </node>
  <node id="-642" visible="true" lat="44.49660591" lon="-73.08274808">
    <tag k="addr:city" v="Essex Junction"/>
    <tag k="addr:housenumber" v="18"/>
    <tag k="addr:street" v="Chestnut Lane"/>
    <tag k="addr:state" v="VT"/>
    <tag k="ref:vcgi:esiteid" v="97403"/>
  </node>
  <node id="-784" visible="true" lat="44.49521782" lon="-73.12272155">
    <tag k="addr:city" v="Essex Junction"/>
    <tag k="addr:housenumber" v="110"/>
    <tag k="addr:street" v="Pearl Street"/>
    <tag k="addr:state" v="VT"/>
    <tag k="ref:vcgi:esiteid" v="97602"/>
  </node>
  <node id="-847" visible="true" lat="44.49488554" lon="-73.12233846">
    <tag k="addr:city" v="Essex Junction"/>
    <tag k="addr:housenumber" v="106"/>
    <tag k="addr:street" v="Pearl Street"/>
    <tag k="addr:state" v="VT"/>
    <tag k="ref:vcgi:esiteid" v="97684"/>
  </node>
  <node id="-915" visible="true" lat="44.49454677" lon="-73.10302236">
    <tag k="addr:city" v="Essex Junction"/>
    <tag k="addr:housenumber" v="87"/>
    <tag k="addr:street" v="Main Street"/>
    <tag k="addr:state" v="VT"/>
    <tag k="ref:vcgi:esiteid" v="97775"/>
  </node>
  <node id="-929" visible="true" lat="44.49445897" lon="-73.10246267">
    <tag k="addr:city" v="Essex Junction"/>
    <tag k="addr:housenumber" v="89"/>
    <tag k="addr:street" v="Main Street"/>
    <tag k="addr:state" v="VT"/>
    <tag k="ref:vcgi:esiteid" v="97790"/>
  </node>
  <node id="-938" visible="true" lat="44.49484433" lon="-73.11701351">
    <tag k="addr:city" v="Essex Junction"/>
    <tag k="addr:housenumber" v="69"/>
    <tag k="addr:street" v="Pearl Street"/>
    <tag k="addr:state" v="VT"/>
    <tag k="ref:vcgi:esiteid" v="97805"/>
  </node>
  <node id="-945" visible="true" lat="44.49486051" lon="-73.11751077">
    <tag k="addr:city" v="Essex Junction"/>
    <tag k="addr:housenumber" v="67"/>
    <tag k="addr:street" v="Pearl Street"/>
    <tag k="addr:state" v="VT"/>
    <tag k="ref:vcgi:esiteid" v="97814"/>
  </node>
  <node id="-987" visible="true" lat="44.49434569" lon="-73.11714834">
    <tag k="addr:city" v="Essex Junction"/>
    <tag k="addr:housenumber" v="65"/>
    <tag k="addr:street" v="Pearl Street"/>
    <tag k="addr:state" v="VT"/>
    <tag k="ref:vcgi:esiteid" v="97867"/>
  </node>
  <node id="-1010" visible="true" lat="44.49429136" lon="-73.1175938">
    <tag k="addr:city" v="Essex Junction"/>
    <tag k="addr:housenumber" v="63"/>
    <tag k="addr:street" v="Pearl Street"/>
    <tag k="addr:state" v="VT"/>
    <tag k="ref:vcgi:esiteid" v="97899"/>
  </node>
  <node id="-1018" visible="true" lat="44.49381174" lon="-73.10496689">
    <tag k="addr:city" v="Essex Junction"/>
    <tag k="addr:housenumber" v="81"/>
    <tag k="addr:street" v="Main Street"/>
    <tag k="addr:state" v="VT"/>
    <tag k="ref:vcgi:esiteid" v="97908"/>
  </node>
  <node id="-1034" visible="true" lat="44.49369076" lon="-73.11773463">
    <tag k="addr:city" v="Essex Junction"/>
    <tag k="addr:housenumber" v="61"/>
    <tag k="addr:street" v="Pearl Street"/>
    <tag k="addr:state" v="VT"/>
    <tag k="ref:vcgi:esiteid" v="97929"/>
  </node>
  <node id="-1070" visible="true" lat="44.49347994" lon="-73.11736983">
    <tag k="addr:city" v="Essex Junction"/>
    <tag k="addr:housenumber" v="59"/>
    <tag k="addr:street" v="Pearl Street"/>
    <tag k="addr:state" v="VT"/>
    <tag k="ref:vcgi:esiteid" v="97979"/>
  </node>
  <node id="-1082" visible="true" lat="44.49340779" lon="-73.1136601">
    <tag k="addr:city" v="Essex Junction"/>
    <tag k="addr:housenumber" v="17"/>
    <tag k="addr:street" v="Summit Street"/>
    <tag k="addr:state" v="VT"/>
    <tag k="ref:vcgi:esiteid" v="97995"/>
  </node>
  <node id="-1156" visible="true" lat="44.49287479" lon="-73.10643712">
    <tag k="addr:city" v="Essex Junction"/>
    <tag k="addr:housenumber" v="61"/>
    <tag k="addr:street" v="Main Street"/>
    <tag k="addr:state" v="VT"/>
    <tag k="ref:vcgi:esiteid" v="98091"/>
  </node>
  <node id="-1167" visible="true" lat="44.49301813" lon="-73.10623142">
    <tag k="addr:city" v="Essex Junction"/>
    <tag k="addr:housenumber" v="63"/>
    <tag k="addr:street" v="Main Street"/>
    <tag k="addr:state" v="VT"/>
    <tag k="ref:vcgi:esiteid" v="98103"/>
  </node>
  <node id="-1219" visible="true" lat="44.49257513" lon="-73.11017741">
    <tag k="addr:city" v="Essex Junction"/>
    <tag k="addr:housenumber" v="29"/>
    <tag k="addr:street" v="Railroad Avenue"/>
    <tag k="addr:state" v="VT"/>
    <tag k="ref:vcgi:esiteid" v="98187"/>
  </node>
  <node id="-1372" visible="true" lat="44.49157261" lon="-73.10803111">
    <tag k="addr:city" v="Essex Junction"/>
    <tag k="addr:housenumber" v="1"/>
    <tag k="addr:street" v="Church Street"/>
    <tag k="addr:state" v="VT"/>
    <tag k="ref:vcgi:esiteid" v="98377"/>
  </node>
  <node id="-1445" visible="true" lat="44.49136352" lon="-73.11149597">
    <tag k="addr:city" v="Essex Junction"/>
    <tag k="addr:housenumber" v="6"/>
    <tag k="addr:street" v="Lincoln Street"/>
    <tag k="addr:state" v="VT"/>
    <tag k="ref:vcgi:esiteid" v="98464"/>
  </node>
  <node id="-1546" visible="true" lat="44.49105514" lon="-73.11050837">
    <tag k="addr:city" v="Essex Junction"/>
    <tag k="addr:housenumber" v="4"/>
    <tag k="addr:street" v="Main Street"/>
    <tag k="addr:state" v="VT"/>
    <tag k="ref:vcgi:esiteid" v="98579"/>
  </node>
  <node id="-1666" visible="true" lat="44.49039955" lon="-73.11283446">
    <tag k="addr:city" v="Essex Junction"/>
    <tag k="addr:housenumber" v="5"/>
    <tag k="addr:street" v="Park Terrace"/>
    <tag k="addr:state" v="VT"/>
    <tag k="ref:vcgi:esiteid" v="98729"/>
  </node>
  <node id="-1706" visible="true" lat="44.49042322" lon="-73.11169662">
    <tag k="addr:city" v="Essex Junction"/>
    <tag k="addr:housenumber" v="4"/>
    <tag k="addr:street" v="Pearl Street"/>
    <tag k="addr:state" v="VT"/>
    <tag k="ref:vcgi:esiteid" v="98777"/>
  </node>
  <node id="-1717" visible="true" lat="44.49019774" lon="-73.11090363">
    <tag k="addr:city" v="Essex Junction"/>
    <tag k="addr:housenumber" v="2"/>
    <tag k="addr:street" v="Park Street"/>
    <tag k="addr:state" v="VT"/>
    <tag k="ref:vcgi:esiteid" v="98789"/>
  </node>
  <node id="-1791" visible="true" lat="44.48989705" lon="-73.10802306">
    <tag k="addr:city" v="Essex Junction"/>
    <tag k="addr:housenumber" v="24"/>
    <tag k="addr:street" v="Maple Street"/>
    <tag k="addr:state" v="VT"/>
    <tag k="ref:vcgi:esiteid" v="98881"/>
  </node>
  <node id="-1863" visible="true" lat="44.48953315" lon="-73.11369779">
    <tag k="addr:city" v="Essex Junction"/>
    <tag k="addr:housenumber" v="21"/>
    <tag k="addr:street" v="Park Street"/>
    <tag k="addr:state" v="VT"/>
    <tag k="ref:vcgi:esiteid" v="98975"/>
  </node>
  <node id="-1947" visible="true" lat="44.48897574" lon="-73.12791047">
    <tag k="addr:city" v="Essex Junction"/>
    <tag k="addr:housenumber" v="30"/>
    <tag k="addr:street" v="Hiawatha Avenue"/>
    <tag k="addr:state" v="VT"/>
    <tag k="ref:vcgi:esiteid" v="99082"/>
  </node>
  <node id="-2167" visible="true" lat="44.48771104" lon="-73.10265384">
    <tag k="addr:city" v="Essex Junction"/>
    <tag k="addr:housenumber" v="68"/>
    <tag k="addr:street" v="Maple Street"/>
    <tag k="addr:state" v="VT"/>
    <tag k="ref:vcgi:esiteid" v="99421"/>
  </node>
  <node id="-2747" visible="true" lat="44.49530607" lon="-73.12020572">
    <tag k="addr:city" v="Essex Junction"/>
    <tag k="addr:housenumber" v="99"/>
    <tag k="addr:street" v="Pearl Street"/>
    <tag k="addr:state" v="VT"/>
    <tag k="ref:vcgi:esiteid" v="100986"/>
  </node>
  <node id="-2748" visible="true" lat="44.49525093" lon="-73.12007339">
    <tag k="addr:city" v="Essex Junction"/>
    <tag k="addr:housenumber" v="97"/>
    <tag k="addr:street" v="Pearl Street"/>
    <tag k="addr:state" v="VT"/>
    <tag k="ref:vcgi:esiteid" v="100987"/>
  </node>
  <node id="-2749" visible="true" lat="44.49485573" lon="-73.11922812">
    <tag k="addr:city" v="Essex Junction"/>
    <tag k="addr:housenumber" v="79"/>
    <tag k="addr:street" v="Pearl Street"/>
    <tag k="addr:state" v="VT"/>
    <tag k="ref:vcgi:esiteid" v="100989"/>
  </node>
  <node id="-2750" visible="true" lat="44.49490654" lon="-73.11933965">
    <tag k="addr:city" v="Essex Junction"/>
    <tag k="addr:housenumber" v="81"/>
    <tag k="addr:street" v="Pearl Street"/>
    <tag k="addr:state" v="VT"/>
    <tag k="ref:vcgi:esiteid" v="100990"/>
  </node>
  <node id="-2752" visible="true" lat="44.49504444" lon="-73.11965791">
    <tag k="addr:city" v="Essex Junction"/>
    <tag k="addr:housenumber" v="87"/>
    <tag k="addr:street" v="Pearl Street"/>
    <tag k="addr:state" v="VT"/>
    <tag k="ref:vcgi:esiteid" v="100993"/>
  </node>
  <node id="-2753" visible="true" lat="44.49518156" lon="-73.11993881">
    <tag k="addr:city" v="Essex Junction"/>
    <tag k="addr:housenumber" v="95"/>
    <tag k="addr:street" v="Pearl Street"/>
    <tag k="addr:state" v="VT"/>
    <tag k="ref:vcgi:esiteid" v="100994"/>
  </node>
  <node id="-2790" visible="true" lat="44.49319835" lon="-73.11968467">
    <tag k="addr:city" v="Essex Junction"/>
    <tag k="addr:housenumber" v="80"/>
    <tag k="addr:street" v="Pearl Street"/>
    <tag k="addr:state" v="VT"/>
    <tag k="ref:vcgi:esiteid" v="101031"/>
  </node>
  <node id="-2794" visible="true" lat="44.4928972" lon="-73.11815071">
    <tag k="addr:city" v="Essex Junction"/>
    <tag k="addr:housenumber" v="62"/>
    <tag k="addr:street" v="Pearl Street"/>
    <tag k="addr:state" v="VT"/>
    <tag k="ref:vcgi:esiteid" v="101035"/>
  </node>
  <node id="-2984" visible="true" lat="44.49131726" lon="-73.11008633">
    <tag k="addr:city" v="Essex Junction"/>
    <tag k="addr:housenumber" v="16"/>
    <tag k="addr:street" v="Main Street"/>
    <tag k="addr:state" v="VT"/>
    <tag k="ref:vcgi:esiteid" v="101252"/>
  </node>
  <node id="-3254" visible="true" lat="44.49145182" lon="-73.10798876">
    <tag k="addr:city" v="Essex Junction"/>
    <tag k="addr:housenumber" v="39"/>
    <tag k="addr:street" v="Main Street"/>
    <tag k="addr:state" v="VT"/>
    <tag k="ref:vcgi:esiteid" v="308780"/>
  </node>
  <node id="-3415" visible="true" lat="44.4949976" lon="-73.11956452">
    <tag k="addr:city" v="Essex Junction"/>
    <tag k="addr:housenumber" v="85"/>
    <tag k="addr:street" v="Pearl Street"/>
    <tag k="addr:state" v="VT"/>
    <tag k="ref:vcgi:esiteid" v="450728"/>
  </node>
  <node id="-3474" visible="true" lat="44.47861429" lon="-73.10052502">
    <tag k="addr:city" v="Essex Junction"/>
    <tag k="addr:housenumber" v="1000"/>
    <tag k="addr:street" v="River Street"/>
    <tag k="addr:state" v="VT"/>
    <tag k="ref:vcgi:esiteid" v="755097"/>
  </node>
</osm>
