<?xml version="1.0" encoding="UTF-8"?>
<osm version="0.6" generator="JOSM">
  <node id="-260" visible="true" lat="44.5437941" lon="-72.98564082">
    <!-- conflict: "91 Sawmill Road, Essex Town, VT" Fuzzy match to "91 Sawmill Road, Essex, VT" -->
    <tag k="addr:city" v="Essex Town"/>
    <tag k="addr:housenumber" v="91"/>
    <tag k="addr:street" v="Sawmill Road"/>
    <tag k="addr:state" v="VT"/>
    <tag k="ref:vcgi:esiteid" v="94540"/>
  </node>
  <node id="-611" visible="true" lat="44.52043533" lon="-73.12389373">
    <!-- conflict: "224 Colchester Road, Essex Town, VT" Fuzzy match to "224 Colchester Road, Essex Junction, VT" -->
    <tag k="addr:city" v="Essex Town"/>
    <tag k="addr:housenumber" v="224"/>
    <tag k="addr:street" v="Colchester Road"/>
    <tag k="addr:state" v="VT"/>
    <tag k="ref:vcgi:esiteid" v="94903"/>
  </node>
  <node id="-689" visible="true" lat="44.51819864" lon="-73.06003129">
    <!-- conflict: "12 Cardinal Lane, Essex Town, VT" No match in OSM, but a different address exists <5m away: " Cardinal Lane, Essex Junction, VT" -->
    <tag k="addr:city" v="Essex Town"/>
    <tag k="addr:housenumber" v="12"/>
    <tag k="addr:street" v="Cardinal Lane"/>
    <tag k="addr:state" v="VT"/>
    <tag k="ref:vcgi:esiteid" v="94988"/>
  </node>
  <node id="-703" visible="true" lat="44.51778735" lon="-73.05954741">
    <!-- conflict: "17 Cardinal Lane, Essex Town, VT" No match in OSM, but a different address exists <5m away: " Cardinal Lane, Essex Junction, VT" -->
    <tag k="addr:city" v="Essex Town"/>
    <tag k="addr:housenumber" v="17"/>
    <tag k="addr:street" v="Cardinal Lane"/>
    <tag k="addr:state" v="VT"/>
    <tag k="ref:vcgi:esiteid" v="95005"/>
  </node>
  <node id="-728" visible="true" lat="44.51737614" lon="-73.05800777">
    <!-- conflict: "31 Steeplebush Road, Essex Town, VT" No match in OSM, but a different address exists <5m away: " , Essex Center, VT" -->
    <tag k="addr:city" v="Essex Town"/>
    <tag k="addr:housenumber" v="31"/>
    <tag k="addr:street" v="Steeplebush Road"/>
    <tag k="addr:state" v="VT"/>
    <tag k="ref:vcgi:esiteid" v="95036"/>
  </node>
  <node id="-742" visible="true" lat="44.51710322" lon="-73.05796066">
    <!-- conflict: "34 Steeplebush Road, Essex Town, VT" No match in OSM, but a different address exists <5m away: " , Essex Center, VT" -->
    <tag k="addr:city" v="Essex Town"/>
    <tag k="addr:housenumber" v="34"/>
    <tag k="addr:street" v="Steeplebush Road"/>
    <tag k="addr:state" v="VT"/>
    <tag k="ref:vcgi:esiteid" v="95053"/>
  </node>
  <node id="-749" visible="true" lat="44.51695373" lon="-73.05928746">
    <!-- conflict: "15 Thrush Lane, Essex Town, VT" No match in OSM, but a different address exists <5m away: " Thrush Lane, Essex Junction, VT" -->
    <tag k="addr:city" v="Essex Town"/>
    <tag k="addr:housenumber" v="15"/>
    <tag k="addr:street" v="Thrush Lane"/>
    <tag k="addr:state" v="VT"/>
    <tag k="ref:vcgi:esiteid" v="95060"/>
  </node>
  <node id="-754" visible="true" lat="44.51698303" lon="-73.04741668">
    <!-- conflict: "34 Thomas Lane, Essex Town, VT" Fuzzy match to "34 Thomas Lane, Essex, VT" -->
    <tag k="addr:city" v="Essex Town"/>
    <tag k="addr:housenumber" v="34"/>
    <tag k="addr:street" v="Thomas Lane"/>
    <tag k="addr:state" v="VT"/>
    <tag k="ref:vcgi:esiteid" v="95065"/>
  </node>
  <node id="-762" visible="true" lat="44.51683489" lon="-73.06186526">
    <!-- conflict: "16 Clover Drive, Essex Town, VT" No match in OSM, but a different address exists <5m away: " Clover Drive, Essex Junction, VT" -->
    <tag k="addr:city" v="Essex Town"/>
    <tag k="addr:housenumber" v="16"/>
    <tag k="addr:street" v="Clover Drive"/>
    <tag k="addr:state" v="VT"/>
    <tag k="ref:vcgi:esiteid" v="95074"/>
  </node>
  <node id="-769" visible="true" lat="44.51662891" lon="-73.0572807">
    <!-- conflict: "6 Blackberry Road, Essex Town, VT" No match in OSM, but a different address exists <5m away: " Blackberry Road, Essex Junction, VT" -->
    <tag k="addr:city" v="Essex Town"/>
    <tag k="addr:housenumber" v="6"/>
    <tag k="addr:street" v="Blackberry Road"/>
    <tag k="addr:state" v="VT"/>
    <tag k="ref:vcgi:esiteid" v="95083"/>
  </node>
  <node id="-773" visible="true" lat="44.51660781" lon="-73.06219737">
    <!-- conflict: "16 Clover Drive, Essex Town, VT" No match in OSM, but a different address exists <5m away: " Clover Drive, Essex Junction, VT" -->
    <tag k="addr:city" v="Essex Town"/>
    <tag k="addr:housenumber" v="16"/>
    <tag k="addr:street" v="Clover Drive"/>
    <tag k="addr:state" v="VT"/>
    <tag k="ref:vcgi:esiteid" v="95089"/>
  </node>
  <node id="-778" visible="true" lat="44.51658587" lon="-73.06020474">
    <!-- conflict: "41 Bobolink Circle, Essex Town, VT" No match in OSM, but a different address exists <5m away: " Bobolink Circle, Essex Junction, VT" -->
    <tag k="addr:city" v="Essex Town"/>
    <tag k="addr:housenumber" v="41"/>
    <tag k="addr:street" v="Bobolink Circle"/>
    <tag k="addr:state" v="VT"/>
    <tag k="ref:vcgi:esiteid" v="95097"/>
  </node>
  <node id="-783" visible="true" lat="44.5165421" lon="-73.05973729">
    <!-- conflict: "39 Bobolink Circle, Essex Town, VT" No match in OSM, but a different address exists <5m away: " Bobolink Circle, Essex Junction, VT" -->
    <tag k="addr:city" v="Essex Town"/>
    <tag k="addr:housenumber" v="39"/>
    <tag k="addr:street" v="Bobolink Circle"/>
    <tag k="addr:state" v="VT"/>
    <tag k="ref:vcgi:esiteid" v="95102"/>
  </node>
  <node id="-784" visible="true" lat="44.51645145" lon="-73.0594015">
    <!-- conflict: "37 Bobolink Circle, Essex Town, VT" No match in OSM, but a different address exists <5m away: " Bobolink Circle, Essex Junction, VT" -->
    <tag k="addr:city" v="Essex Town"/>
    <tag k="addr:housenumber" v="37"/>
    <tag k="addr:street" v="Bobolink Circle"/>
    <tag k="addr:state" v="VT"/>
    <tag k="ref:vcgi:esiteid" v="95105"/>
  </node>
  <node id="-796" visible="true" lat="44.51624796" lon="-73.05780808">
    <!-- conflict: "2 Blackberry Road, Essex Town, VT" No match in OSM, but a different address exists <5m away: " Blackberry Road, Essex Junction, VT" -->
    <tag k="addr:city" v="Essex Town"/>
    <tag k="addr:housenumber" v="2"/>
    <tag k="addr:street" v="Blackberry Road"/>
    <tag k="addr:state" v="VT"/>
    <tag k="ref:vcgi:esiteid" v="95119"/>
  </node>
  <node id="-800" visible="true" lat="44.5162945" lon="-73.05825239">
    <!-- conflict: "31 Bobolink Circle, Essex Town, VT" No match in OSM, but a different address exists <5m away: " Bobolink Circle, Essex Junction, VT" -->
    <tag k="addr:city" v="Essex Town"/>
    <tag k="addr:housenumber" v="31"/>
    <tag k="addr:street" v="Bobolink Circle"/>
    <tag k="addr:state" v="VT"/>
    <tag k="ref:vcgi:esiteid" v="95125"/>
  </node>
  <node id="-801" visible="true" lat="44.51612455" lon="-73.05667485">
    <!-- conflict: "5 Blackberry Road, Essex Town, VT" No match in OSM, but a different address exists <5m away: " Blackberry Road, Essex Junction, VT" -->
    <tag k="addr:city" v="Essex Town"/>
    <tag k="addr:housenumber" v="5"/>
    <tag k="addr:street" v="Blackberry Road"/>
    <tag k="addr:state" v="VT"/>
    <tag k="ref:vcgi:esiteid" v="95126"/>
  </node>
  <node id="-807" visible="true" lat="44.51603311" lon="-73.05979865">
    <!-- conflict: "38 Bobolink Circle, Essex Town, VT" No match in OSM, but a different address exists <5m away: " Bobolink Circle, Essex Junction, VT" -->
    <tag k="addr:city" v="Essex Town"/>
    <tag k="addr:housenumber" v="38"/>
    <tag k="addr:street" v="Bobolink Circle"/>
    <tag k="addr:state" v="VT"/>
    <tag k="ref:vcgi:esiteid" v="95133"/>
  </node>
  <node id="-812" visible="true" lat="44.51596093" lon="-73.05945372">
    <!-- conflict: "36 Bobolink Circle, Essex Town, VT" No match in OSM, but a different address exists <5m away: " Bobolink Circle, Essex Junction, VT" -->
    <tag k="addr:city" v="Essex Town"/>
    <tag k="addr:housenumber" v="36"/>
    <tag k="addr:street" v="Bobolink Circle"/>
    <tag k="addr:state" v="VT"/>
    <tag k="ref:vcgi:esiteid" v="95140"/>
  </node>
  <node id="-828" visible="true" lat="44.51571999" lon="-73.06174044">
    <!-- conflict: "16 Clover Drive, Essex Town, VT" No match in OSM, but a different address exists <5m away: " Clover Drive, Essex Junction, VT" -->
    <tag k="addr:city" v="Essex Town"/>
    <tag k="addr:housenumber" v="16"/>
    <tag k="addr:street" v="Clover Drive"/>
    <tag k="addr:state" v="VT"/>
    <tag k="ref:vcgi:esiteid" v="95162"/>
  </node>
  <node id="-834" visible="true" lat="44.51564111" lon="-73.05831935">
    <!-- conflict: "28 Bobolink Circle, Essex Town, VT" No match in OSM, but a different address exists <5m away: " Bobolink Circle, Essex Junction, VT" -->
    <tag k="addr:city" v="Essex Town"/>
    <tag k="addr:housenumber" v="28"/>
    <tag k="addr:street" v="Bobolink Circle"/>
    <tag k="addr:state" v="VT"/>
    <tag k="ref:vcgi:esiteid" v="95169"/>
  </node>
  <node id="-841" visible="true" lat="44.5155487" lon="-73.06028747">
    <!-- conflict: "17 Clover Drive, Essex Town, VT" No match in OSM, but a different address exists <5m away: " Clover Drive, Essex Junction, VT" -->
    <tag k="addr:city" v="Essex Town"/>
    <tag k="addr:housenumber" v="17"/>
    <tag k="addr:street" v="Clover Drive"/>
    <tag k="addr:state" v="VT"/>
    <tag k="ref:vcgi:esiteid" v="95178"/>
  </node>
  <node id="-848" visible="true" lat="44.51537131" lon="-73.06152085">
    <!-- conflict: "16 Clover Drive, Essex Town, VT" No match in OSM, but a different address exists <5m away: " Clover Drive, Essex Junction, VT" -->
    <tag k="addr:city" v="Essex Town"/>
    <tag k="addr:housenumber" v="16"/>
    <tag k="addr:street" v="Clover Drive"/>
    <tag k="addr:state" v="VT"/>
    <tag k="ref:vcgi:esiteid" v="95186"/>
  </node>
  <node id="-852" visible="true" lat="44.51530456" lon="-73.06047058">
    <!-- conflict: "15 Clover Drive, Essex Town, VT" No match in OSM, but a different address exists <5m away: " Clover Drive, Essex Junction, VT" -->
    <tag k="addr:city" v="Essex Town"/>
    <tag k="addr:housenumber" v="15"/>
    <tag k="addr:street" v="Clover Drive"/>
    <tag k="addr:state" v="VT"/>
    <tag k="ref:vcgi:esiteid" v="95190"/>
  </node>
  <node id="-860" visible="true" lat="44.51507491" lon="-73.06063992">
    <!-- conflict: "13 Clover Drive, Essex Town, VT" No match in OSM, but a different address exists <5m away: " Clover Drive, Essex Junction, VT" -->
    <tag k="addr:city" v="Essex Town"/>
    <tag k="addr:housenumber" v="13"/>
    <tag k="addr:street" v="Clover Drive"/>
    <tag k="addr:state" v="VT"/>
    <tag k="ref:vcgi:esiteid" v="95200"/>
  </node>
  <node id="-861" visible="true" lat="44.51504801" lon="-73.05756847">
    <!-- conflict: "25 Bobolink Circle, Essex Town, VT" No match in OSM, but a different address exists <5m away: " Bobolink Circle, Essex Junction, VT" -->
    <tag k="addr:city" v="Essex Town"/>
    <tag k="addr:housenumber" v="25"/>
    <tag k="addr:street" v="Bobolink Circle"/>
    <tag k="addr:state" v="VT"/>
    <tag k="ref:vcgi:esiteid" v="95201"/>
  </node>
  <node id="-862" visible="true" lat="44.51453255" lon="-73.13223597">
    <!-- conflict: "2 Bushey Lane, Essex Town, VT" Fuzzy match to "2 Bushey Lane, Essex Junction, VT" -->
    <tag k="addr:city" v="Essex Town"/>
    <tag k="addr:housenumber" v="2"/>
    <tag k="addr:street" v="Bushey Lane"/>
    <tag k="addr:state" v="VT"/>
    <tag k="ref:vcgi:esiteid" v="95203"/>
  </node>
  <node id="-870" visible="true" lat="44.51486116" lon="-73.06071469">
    <!-- conflict: "2 Bobolink Circle, Essex Town, VT" No match in OSM, but a different address exists <5m away: " Clover Drive, Essex Junction, VT" -->
    <tag k="addr:city" v="Essex Town"/>
    <tag k="addr:housenumber" v="2"/>
    <tag k="addr:street" v="Bobolink Circle"/>
    <tag k="addr:state" v="VT"/>
    <tag k="ref:vcgi:esiteid" v="95212"/>
  </node>
  <node id="-879" visible="true" lat="44.51469853" lon="-73.06025074">
    <!-- conflict: "4 Bobolink Circle, Essex Town, VT" No match in OSM, but a different address exists <5m away: " Bobolink Circle, Essex Junction, VT" -->
    <tag k="addr:city" v="Essex Town"/>
    <tag k="addr:housenumber" v="4"/>
    <tag k="addr:street" v="Bobolink Circle"/>
    <tag k="addr:state" v="VT"/>
    <tag k="ref:vcgi:esiteid" v="95222"/>
  </node>
  <node id="-884" visible="true" lat="44.51444605" lon="-73.06118837">
    <!-- conflict: "5 Clover Drive, Essex Town, VT" No match in OSM, but a different address exists <5m away: " Bobolink Circle, Essex Junction, VT" -->
    <tag k="addr:city" v="Essex Town"/>
    <tag k="addr:housenumber" v="5"/>
    <tag k="addr:street" v="Clover Drive"/>
    <tag k="addr:state" v="VT"/>
    <tag k="ref:vcgi:esiteid" v="95228"/>
  </node>
  <node id="-889" visible="true" lat="44.51440225" lon="-73.05964337">
    <!-- conflict: "8 Bobolink Circle, Essex Town, VT" No match in OSM, but a different address exists <5m away: " Bobolink Circle, Essex Junction, VT" -->
    <tag k="addr:city" v="Essex Town"/>
    <tag k="addr:housenumber" v="8"/>
    <tag k="addr:street" v="Bobolink Circle"/>
    <tag k="addr:state" v="VT"/>
    <tag k="ref:vcgi:esiteid" v="95233"/>
  </node>
  <node id="-891" visible="true" lat="44.51440765" lon="-73.05850124">
    <!-- conflict: "14 Bobolink Circle, Essex Town, VT" No match in OSM, but a different address exists <5m away: " Bobolink Circle, Essex Junction, VT" -->
    <tag k="addr:city" v="Essex Town"/>
    <tag k="addr:housenumber" v="14"/>
    <tag k="addr:street" v="Bobolink Circle"/>
    <tag k="addr:state" v="VT"/>
    <tag k="ref:vcgi:esiteid" v="95235"/>
  </node>
  <node id="-899" visible="true" lat="44.51429848" lon="-73.05928488">
    <!-- conflict: "10 Bobolink Circle, Essex Town, VT" No match in OSM, but a different address exists <5m away: " Bobolink Circle, Essex Junction, VT" -->
    <tag k="addr:city" v="Essex Town"/>
    <tag k="addr:housenumber" v="10"/>
    <tag k="addr:street" v="Bobolink Circle"/>
    <tag k="addr:state" v="VT"/>
    <tag k="ref:vcgi:esiteid" v="95246"/>
  </node>
  <node id="-906" visible="true" lat="44.51407992" lon="-73.05711289">
    <!-- conflict: "2 Iris Street, Essex Town, VT" No match in OSM, but a different address exists <5m away: " Iris Street, Essex Junction, VT" -->
    <tag k="addr:city" v="Essex Town"/>
    <tag k="addr:housenumber" v="2"/>
    <tag k="addr:street" v="Iris Street"/>
    <tag k="addr:state" v="VT"/>
    <tag k="ref:vcgi:esiteid" v="95256"/>
  </node>
  <node id="-917" visible="true" lat="44.51391381" lon="-73.05984649">
    <!-- conflict: "9 Bobolink Circle, Essex Town, VT" No match in OSM, but a different address exists <5m away: " Bobolink Circle, Essex Junction, VT" -->
    <tag k="addr:city" v="Essex Town"/>
    <tag k="addr:housenumber" v="9"/>
    <tag k="addr:street" v="Bobolink Circle"/>
    <tag k="addr:state" v="VT"/>
    <tag k="ref:vcgi:esiteid" v="95270"/>
  </node>
  <node id="-921" visible="true" lat="44.51382089" lon="-73.05943763">
    <!-- conflict: "11 Bobolink Circle, Essex Town, VT" No match in OSM, but a different address exists <5m away: " Bobolink Circle, Essex Junction, VT" -->
    <tag k="addr:city" v="Essex Town"/>
    <tag k="addr:housenumber" v="11"/>
    <tag k="addr:street" v="Bobolink Circle"/>
    <tag k="addr:state" v="VT"/>
    <tag k="ref:vcgi:esiteid" v="95276"/>
  </node>
  <node id="-929" visible="true" lat="44.51374731" lon="-73.05725647">
    <!-- conflict: "10 Bixby Hill Road, Essex Town, VT" No match in OSM, but a different address exists <5m away: " Bixby Hill Road, Essex Junction, VT" -->
    <tag k="addr:city" v="Essex Town"/>
    <tag k="addr:housenumber" v="10"/>
    <tag k="addr:street" v="Bixby Hill Road"/>
    <tag k="addr:state" v="VT"/>
    <tag k="ref:vcgi:esiteid" v="95286"/>
  </node>
  <node id="-960" visible="true" lat="44.51309458" lon="-73.05742429">
    <!-- conflict: "4 Bixby Hill Road, Essex Town, VT" No match in OSM, but a different address exists <5m away: " Bixby Hill Road, Essex Junction, VT" -->
    <tag k="addr:city" v="Essex Town"/>
    <tag k="addr:housenumber" v="4"/>
    <tag k="addr:street" v="Bixby Hill Road"/>
    <tag k="addr:state" v="VT"/>
    <tag k="ref:vcgi:esiteid" v="95321"/>
  </node>
  <node id="-965" visible="true" lat="44.51306851" lon="-73.05582079">
    <!-- conflict: "1 Bixby Hill Road, Essex Town, VT" Fuzzy match to "1 Bixby Hill Road, Essex, VT" -->
    <tag k="addr:city" v="Essex Town"/>
    <tag k="addr:housenumber" v="1"/>
    <tag k="addr:street" v="Bixby Hill Road"/>
    <tag k="addr:state" v="VT"/>
    <tag k="ref:vcgi:esiteid" v="95326"/>
  </node>
  <node id="-977" visible="true" lat="44.51284787" lon="-73.06033343">
    <!-- conflict: "9 Towers Road, Essex Town, VT" No match in OSM, but a different address exists <5m away: " Towers Road, Essex Junction, VT" -->
    <tag k="addr:city" v="Essex Town"/>
    <tag k="addr:housenumber" v="9"/>
    <tag k="addr:street" v="Towers Road"/>
    <tag k="addr:state" v="VT"/>
    <tag k="ref:vcgi:esiteid" v="95341"/>
  </node>
  <node id="-993" visible="true" lat="44.51232223" lon="-73.13397754">
    <!-- conflict: "1 Turcotte Road, Essex Town, VT" Fuzzy match to "1 Turcotte Road, , VT" -->
    <tag k="addr:city" v="Essex Town"/>
    <tag k="addr:housenumber" v="1"/>
    <tag k="addr:street" v="Turcotte Road"/>
    <tag k="addr:state" v="VT"/>
    <tag k="ref:vcgi:esiteid" v="95360"/>
  </node>
  <node id="-1085" visible="true" lat="44.51160617" lon="-73.05860687">
    <!-- conflict: "1 Browns River Road, Essex Town, VT" Fuzzy match to "1 Browns River Road, Essex, VT" -->
    <tag k="addr:city" v="Essex Town"/>
    <tag k="addr:housenumber" v="1"/>
    <tag k="addr:street" v="Browns River Road"/>
    <tag k="addr:state" v="VT"/>
    <tag k="ref:vcgi:esiteid" v="95476"/>
  </node>
  <node id="-1132" visible="true" lat="44.51112336" lon="-73.05810631">
    <!-- conflict: "8 Jericho Road, Essex Town, VT" Fuzzy match to "8 Jericho Road, Essex, VT" -->
    <tag k="addr:city" v="Essex Town"/>
    <tag k="addr:housenumber" v="8"/>
    <tag k="addr:street" v="Jericho Road"/>
    <tag k="addr:state" v="VT"/>
    <tag k="ref:vcgi:esiteid" v="95535"/>
  </node>
  <node id="-1182" visible="true" lat="44.51036834" lon="-73.13278198">
    <!-- conflict: "7 Kellogg Road, Essex Town, VT" Fuzzy match to "7 Kellogg Road, Essex Junction, VT" -->
    <tag k="addr:city" v="Essex Town"/>
    <tag k="addr:housenumber" v="7"/>
    <tag k="addr:street" v="Kellogg Road"/>
    <tag k="addr:state" v="VT"/>
    <tag k="ref:vcgi:esiteid" v="95597"/>
  </node>
  <node id="-1189" visible="true" lat="44.5102806" lon="-73.13626861">
    <!-- conflict: "26 Kellogg Road, Essex Town, VT" Fuzzy match to "26 Kellogg Road, Essex Junction, VT" -->
    <tag k="addr:city" v="Essex Town"/>
    <tag k="addr:housenumber" v="26"/>
    <tag k="addr:street" v="Kellogg Road"/>
    <tag k="addr:state" v="VT"/>
    <tag k="ref:vcgi:esiteid" v="95605"/>
  </node>
  <node id="-1211" visible="true" lat="44.51043701" lon="-73.07040405">
    <!-- conflict: "69 Center Road, Essex Town, VT" Fuzzy match to "69 Center Road, , VT" -->
    <tag k="addr:city" v="Essex Town"/>
    <tag k="addr:housenumber" v="69"/>
    <tag k="addr:street" v="Center Road"/>
    <tag k="addr:state" v="VT"/>
    <tag k="ref:vcgi:esiteid" v="95632"/>
  </node>
  <node id="-1214" visible="true" lat="44.50991198" lon="-73.13591536">
    <!-- conflict: "4 Morse Drive, Essex Town, VT" Fuzzy match to "4 Morse Drive, Essex Junction, VT" -->
    <tag k="addr:city" v="Essex Town"/>
    <tag k="addr:housenumber" v="4"/>
    <tag k="addr:street" v="Morse Drive"/>
    <tag k="addr:state" v="VT"/>
    <tag k="ref:vcgi:esiteid" v="95636"/>
  </node>
  <node id="-1242" visible="true" lat="44.50984762" lon="-73.13470071">
    <!-- conflict: "3 Morse Drive, Essex Town, VT" Fuzzy match to "3 Morse Drive, , VT" -->
    <tag k="addr:city" v="Essex Town"/>
    <tag k="addr:housenumber" v="3"/>
    <tag k="addr:street" v="Morse Drive"/>
    <tag k="addr:state" v="VT"/>
    <tag k="ref:vcgi:esiteid" v="95677"/>
  </node>
  <node id="-1257" visible="true" lat="44.5095585" lon="-73.13423802">
    <!-- conflict: "10 Kellogg Road, Essex Town, VT" Fuzzy match to "10 Kellogg Road, Essex Junction, VT" -->
    <tag k="addr:city" v="Essex Town"/>
    <tag k="addr:housenumber" v="10"/>
    <tag k="addr:street" v="Kellogg Road"/>
    <tag k="addr:state" v="VT"/>
    <tag k="ref:vcgi:esiteid" v="95695"/>
  </node>
  <node id="-1297" visible="true" lat="44.50954437" lon="-73.05576324">
    <!-- conflict: "20 Jericho Road, Essex Town, VT" Fuzzy match to "20 Jericho Road, Essex, VT" -->
    <tag k="addr:city" v="Essex Town"/>
    <tag k="addr:housenumber" v="20"/>
    <tag k="addr:street" v="Jericho Road"/>
    <tag k="addr:state" v="VT"/>
    <tag k="ref:vcgi:esiteid" v="95741"/>
  </node>
  <node id="-1331" visible="true" lat="44.50894296" lon="-73.07809199">
    <!-- conflict: "8 Essex Way, Essex Town, VT" Fuzzy match to "8 Essex Way, Essex, VT" -->
    <tag k="addr:city" v="Essex Town"/>
    <tag k="addr:housenumber" v="8"/>
    <tag k="addr:street" v="Essex Way"/>
    <tag k="addr:state" v="VT"/>
    <tag k="ref:vcgi:esiteid" v="95780"/>
  </node>
  <node id="-1345" visible="true" lat="44.50919" lon="-73.00437323">
    <!-- conflict: "41 Lawrence Heights, Essex Town, VT" Fuzzy match to "41 Lawrence Heights, , VT" -->
    <tag k="addr:city" v="Essex Town"/>
    <tag k="addr:housenumber" v="41"/>
    <tag k="addr:street" v="Lawrence Heights"/>
    <tag k="addr:state" v="VT"/>
    <tag k="ref:vcgi:esiteid" v="95796"/>
  </node>
  <node id="-1367" visible="true" lat="44.50856318" lon="-73.1166852">
    <!-- conflict: "104 Old Colchester Road, Essex Town, VT" Fuzzy match to "104 Old Colchester Road, Essex Junction, VT" -->
    <tag k="addr:city" v="Essex Town"/>
    <tag k="addr:housenumber" v="104"/>
    <tag k="addr:street" v="Old Colchester Road"/>
    <tag k="addr:state" v="VT"/>
    <tag k="ref:vcgi:esiteid" v="95825"/>
  </node>
  <node id="-1386" visible="true" lat="44.508685" lon="-73.08499818">
    <!-- conflict: "4 Carmichael Street, Essex Town, VT" Fuzzy match to "4 Carmichael Street, , " -->
    <tag k="addr:city" v="Essex Town"/>
    <tag k="addr:housenumber" v="4"/>
    <tag k="addr:street" v="Carmichael Street"/>
    <tag k="addr:state" v="VT"/>
    <tag k="ref:vcgi:esiteid" v="95846"/>
  </node>
  <node id="-1457" visible="true" lat="44.50739219" lon="-73.08246619">
    <!-- conflict: "21 Essex Way, Essex Town, VT" Fuzzy match to "21 Essex Way, Essex, VT" -->
    <tag k="addr:city" v="Essex Town"/>
    <tag k="addr:housenumber" v="21"/>
    <tag k="addr:street" v="Essex Way"/>
    <tag k="addr:state" v="VT"/>
    <tag k="ref:vcgi:esiteid" v="95933"/>
  </node>
  <node id="-1474" visible="true" lat="44.50688178" lon="-73.13134188">
    <!-- conflict: "12 Market Place, Essex Town, VT" Fuzzy match to "12 Market Place, Essex Junction, VT" -->
    <tag k="addr:city" v="Essex Town"/>
    <tag k="addr:housenumber" v="12"/>
    <tag k="addr:street" v="Market Place"/>
    <tag k="addr:state" v="VT"/>
    <tag k="ref:vcgi:esiteid" v="95957"/>
  </node>
  <node id="-1482" visible="true" lat="44.50672671" lon="-73.14468033">
    <!-- conflict: "1110 Ethan Allen Avenue, Essex Town, VT" Fuzzy match to "1110 Ethan Allen Avenue, Essex, VT" -->
    <tag k="addr:city" v="Essex Town"/>
    <tag k="addr:housenumber" v="1110"/>
    <tag k="addr:street" v="Ethan Allen Avenue"/>
    <tag k="addr:state" v="VT"/>
    <tag k="ref:vcgi:esiteid" v="95968"/>
  </node>
  <node id="-1491" visible="true" lat="44.5066002" lon="-73.14447986">
    <!-- conflict: "1111 Ethan Allen Avenue, Essex Town, VT" Fuzzy match to "1111 Ethan Allen Avenue, Essex, VT" -->
    <tag k="addr:city" v="Essex Town"/>
    <tag k="addr:housenumber" v="1111"/>
    <tag k="addr:street" v="Ethan Allen Avenue"/>
    <tag k="addr:state" v="VT"/>
    <tag k="ref:vcgi:esiteid" v="95977"/>
  </node>
  <node id="-1499" visible="true" lat="44.50655284" lon="-73.14524857">
    <!-- conflict: "1002 Ethan Allen Avenue, Essex Town, VT" Fuzzy match to "1002 Ethan Allen Avenue, Essex, VT" -->
    <tag k="addr:city" v="Essex Town"/>
    <tag k="addr:housenumber" v="1002"/>
    <tag k="addr:street" v="Ethan Allen Avenue"/>
    <tag k="addr:state" v="VT"/>
    <tag k="ref:vcgi:esiteid" v="95985"/>
  </node>
  <node id="-1502" visible="true" lat="44.50647246" lon="-73.14432872">
    <!-- conflict: "1112 Ethan Allen Avenue, Essex Town, VT" Fuzzy match to "1112 Ethan Allen Avenue, Essex, VT" -->
    <tag k="addr:city" v="Essex Town"/>
    <tag k="addr:housenumber" v="1112"/>
    <tag k="addr:street" v="Ethan Allen Avenue"/>
    <tag k="addr:state" v="VT"/>
    <tag k="ref:vcgi:esiteid" v="95994"/>
  </node>
  <node id="-1524" visible="true" lat="44.50636382" lon="-73.14490166">
    <!-- conflict: "1003 Ethan Allen Avenue, Essex Town, VT" Fuzzy match to "1003 Ethan Allen Avenue, Essex, VT" -->
    <tag k="addr:city" v="Essex Town"/>
    <tag k="addr:housenumber" v="1003"/>
    <tag k="addr:street" v="Ethan Allen Avenue"/>
    <tag k="addr:state" v="VT"/>
    <tag k="ref:vcgi:esiteid" v="96017"/>
  </node>
  <node id="-1526" visible="true" lat="44.50644207" lon="-73.13188735">
    <!-- conflict: "11 Market Place, Essex Town, VT" Fuzzy match to "11 Market Place, Essex Junction, VT" -->
    <tag k="addr:city" v="Essex Town"/>
    <tag k="addr:housenumber" v="11"/>
    <tag k="addr:street" v="Market Place"/>
    <tag k="addr:state" v="VT"/>
    <tag k="ref:vcgi:esiteid" v="96019"/>
  </node>
  <node id="-1528" visible="true" lat="44.50631559" lon="-73.14414999">
    <!-- conflict: "1113 Ethan Allen Avenue, Essex Town, VT" Fuzzy match to "1113 Ethan Allen Avenue, Essex, VT" -->
    <tag k="addr:city" v="Essex Town"/>
    <tag k="addr:housenumber" v="1113"/>
    <tag k="addr:street" v="Ethan Allen Avenue"/>
    <tag k="addr:state" v="VT"/>
    <tag k="ref:vcgi:esiteid" v="96021"/>
  </node>
  <node id="-1538" visible="true" lat="44.50630835" lon="-73.14220787">
    <!-- conflict: "350 Payne Street, Essex Town, VT" No match in OSM, but a different address exists <5m away: "350 Ethan Allen Avenue, Essex, VT" -->
    <tag k="addr:city" v="Essex Town"/>
    <tag k="addr:housenumber" v="350"/>
    <tag k="addr:street" v="Payne Street"/>
    <tag k="addr:state" v="VT"/>
    <tag k="ref:vcgi:esiteid" v="96032"/>
  </node>
  <node id="-1547" visible="true" lat="44.50616019" lon="-73.14397222">
    <!-- conflict: "1114 Ethan Allen Avenue, Essex Town, VT" Fuzzy match to "1114 Ethan Allen Avenue, Essex, VT" -->
    <tag k="addr:city" v="Essex Town"/>
    <tag k="addr:housenumber" v="1114"/>
    <tag k="addr:street" v="Ethan Allen Avenue"/>
    <tag k="addr:state" v="VT"/>
    <tag k="ref:vcgi:esiteid" v="96043"/>
  </node>
  <node id="-1552" visible="true" lat="44.50616501" lon="-73.14463625">
    <!-- conflict: "1004 Ethan Allen Avenue, Essex Town, VT" Fuzzy match to "1004 Ethan Allen Avenue, Essex, VT" -->
    <tag k="addr:city" v="Essex Town"/>
    <tag k="addr:housenumber" v="1004"/>
    <tag k="addr:street" v="Ethan Allen Avenue"/>
    <tag k="addr:state" v="VT"/>
    <tag k="ref:vcgi:esiteid" v="96050"/>
  </node>
  <node id="-1556" visible="true" lat="44.50618316" lon="-73.13371582">
    <!-- conflict: "1 Market Place, Essex Town, VT" Fuzzy match to "1 Market Place, Essex Junction, VT" -->
    <tag k="addr:city" v="Essex Town"/>
    <tag k="addr:housenumber" v="1"/>
    <tag k="addr:street" v="Market Place"/>
    <tag k="addr:state" v="VT"/>
    <tag k="ref:vcgi:esiteid" v="96055"/>
  </node>
  <node id="-1566" visible="true" lat="44.50622667" lon="-73.09082936">
    <!-- conflict: "48 Upper Main Street, Essex Town, VT" Fuzzy match to "48 Upper Main Street, Essex Junction, VT" -->
    <tag k="addr:city" v="Essex Town"/>
    <tag k="addr:housenumber" v="48"/>
    <tag k="addr:street" v="Upper Main Street"/>
    <tag k="addr:state" v="VT"/>
    <tag k="ref:vcgi:esiteid" v="96065"/>
  </node>
  <node id="-1568" visible="true" lat="44.50598907" lon="-73.14377593">
    <!-- conflict: "1115 Ethan Allen Avenue, Essex Town, VT" Fuzzy match to "1115 Ethan Allen Avenue, Essex, VT" -->
    <tag k="addr:city" v="Essex Town"/>
    <tag k="addr:housenumber" v="1115"/>
    <tag k="addr:street" v="Ethan Allen Avenue"/>
    <tag k="addr:state" v="VT"/>
    <tag k="ref:vcgi:esiteid" v="96067"/>
  </node>
  <node id="-1571" visible="true" lat="44.50593231" lon="-73.14321404">
    <!-- conflict: "330 Ryan Street, Essex Town, VT" No match in OSM, but a different address exists <5m away: "330 Ethan Allen Avenue, Essex, VT" -->
    <tag k="addr:city" v="Essex Town"/>
    <tag k="addr:housenumber" v="330"/>
    <tag k="addr:street" v="Ryan Street"/>
    <tag k="addr:state" v="VT"/>
    <tag k="ref:vcgi:esiteid" v="96070"/>
  </node>
  <node id="-1580" visible="true" lat="44.50596427" lon="-73.14441046">
    <!-- conflict: "1005 Ethan Allen Avenue, Essex Town, VT" Fuzzy match to "1005 Ethan Allen Avenue, Essex, VT" -->
    <tag k="addr:city" v="Essex Town"/>
    <tag k="addr:housenumber" v="1005"/>
    <tag k="addr:street" v="Ethan Allen Avenue"/>
    <tag k="addr:state" v="VT"/>
    <tag k="ref:vcgi:esiteid" v="96080"/>
  </node>
  <node id="-1606" visible="true" lat="44.50573963" lon="-73.14416548">
    <!-- conflict: "1006 Ethan Allen Avenue, Essex Town, VT" Fuzzy match to "1006 Ethan Allen Avenue, Essex, VT" -->
    <tag k="addr:city" v="Essex Town"/>
    <tag k="addr:housenumber" v="1006"/>
    <tag k="addr:street" v="Ethan Allen Avenue"/>
    <tag k="addr:state" v="VT"/>
    <tag k="ref:vcgi:esiteid" v="96112"/>
  </node>
  <node id="-1613" visible="true" lat="44.50557878" lon="-73.14321558">
    <!-- conflict: "310 Ethan Allen Avenue, Essex Town, VT" Fuzzy match to "310 Ethan Allen Avenue, Essex, VT" -->
    <tag k="addr:city" v="Essex Town"/>
    <tag k="addr:housenumber" v="310"/>
    <tag k="addr:street" v="Ethan Allen Avenue"/>
    <tag k="addr:state" v="VT"/>
    <tag k="ref:vcgi:esiteid" v="96121"/>
  </node>
  <node id="-1622" visible="true" lat="44.50590515" lon="-73.089859">
    <!-- conflict: "55 Upper Main Street, Essex Town, VT" No match in OSM, but a different address exists <5m away: "45 Upper Main Street, , " -->
    <tag k="addr:city" v="Essex Town"/>
    <tag k="addr:housenumber" v="55"/>
    <tag k="addr:street" v="Upper Main Street"/>
    <tag k="addr:state" v="VT"/>
    <tag k="ref:vcgi:esiteid" v="96131"/>
  </node>
  <node id="-1637" visible="true" lat="44.50555038" lon="-73.14392089">
    <!-- conflict: "1007 Ethan Allen Avenue, Essex Town, VT" Fuzzy match to "1007 Ethan Allen Avenue, Essex, VT" -->
    <tag k="addr:city" v="Essex Town"/>
    <tag k="addr:housenumber" v="1007"/>
    <tag k="addr:street" v="Ethan Allen Avenue"/>
    <tag k="addr:state" v="VT"/>
    <tag k="ref:vcgi:esiteid" v="96147"/>
  </node>
  <node id="-1657" visible="true" lat="44.50535892" lon="-73.14271043">
    <!-- conflict: "311 Ethan Allen Avenue, Essex Town, VT" Fuzzy match to "311 Ethan Allen Avenue, Essex, VT" -->
    <tag k="addr:city" v="Essex Town"/>
    <tag k="addr:housenumber" v="311"/>
    <tag k="addr:street" v="Ethan Allen Avenue"/>
    <tag k="addr:state" v="VT"/>
    <tag k="ref:vcgi:esiteid" v="96169"/>
  </node>
  <node id="-1683" visible="true" lat="44.50518157" lon="-73.14242271">
    <!-- conflict: "312 Ethan Allen Avenue, Essex Town, VT" Fuzzy match to "312 Ethan Allen Avenue, Essex, VT" -->
    <tag k="addr:city" v="Essex Town"/>
    <tag k="addr:housenumber" v="312"/>
    <tag k="addr:street" v="Ethan Allen Avenue"/>
    <tag k="addr:state" v="VT"/>
    <tag k="ref:vcgi:esiteid" v="96199"/>
  </node>
  <node id="-1740" visible="true" lat="44.50509595" lon="-73.08998761">
    <!-- conflict: "45 Upper Main Street, Essex Town, VT" Fuzzy match to "45 Upper Main Street, , " -->
    <tag k="addr:city" v="Essex Town"/>
    <tag k="addr:housenumber" v="45"/>
    <tag k="addr:street" v="Upper Main Street"/>
    <tag k="addr:state" v="VT"/>
    <tag k="ref:vcgi:esiteid" v="96267"/>
  </node>
  <node id="-1969" visible="true" lat="44.50304461" lon="-73.03111577">
    <!-- conflict: "136 Jericho Road, Essex Town, VT" No match in OSM, but a different address exists <5m away: " Jericho Road, Essex, VT" -->
    <tag k="addr:city" v="Essex Town"/>
    <tag k="addr:housenumber" v="136"/>
    <tag k="addr:street" v="Jericho Road"/>
    <tag k="addr:state" v="VT"/>
    <tag k="ref:vcgi:esiteid" v="96570"/>
  </node>
  <node id="-1992" visible="true" lat="44.50265015" lon="-73.02788305">
    <!-- conflict: "1 Whitcomb Meadows Lane, Essex Town, VT" Fuzzy match to "1 Whitcomb Meadows Lane, Essex, VT" -->
    <tag k="addr:city" v="Essex Town"/>
    <tag k="addr:housenumber" v="1"/>
    <tag k="addr:street" v="Whitcomb Meadows Lane"/>
    <tag k="addr:state" v="VT"/>
    <tag k="ref:vcgi:esiteid" v="96610"/>
  </node>
  <node id="-2013" visible="true" lat="44.50208669" lon="-73.03911578">
    <!-- conflict: "3 Oliver Wight Drive, Essex Town, VT" No match in OSM, but a different address exists <5m away: "3 Oliver Wright Drive, , VT" -->
    <tag k="addr:city" v="Essex Town"/>
    <tag k="addr:housenumber" v="3"/>
    <tag k="addr:street" v="Oliver Wight Drive"/>
    <tag k="addr:state" v="VT"/>
    <tag k="ref:vcgi:esiteid" v="96664"/>
  </node>
  <node id="-2067" visible="true" lat="44.50039953" lon="-73.05535943">
    <!-- conflict: "33 Founders Road, Essex Town, VT" Fuzzy match to "33 Founders Road, Essex, VT" -->
    <tag k="addr:city" v="Essex Town"/>
    <tag k="addr:housenumber" v="33"/>
    <tag k="addr:street" v="Founders Road"/>
    <tag k="addr:state" v="VT"/>
    <tag k="ref:vcgi:esiteid" v="96868"/>
  </node>
  <node id="-2104" visible="true" lat="44.49901773" lon="-73.05850431">
    <!-- conflict: "60 Founders Road, Essex Town, VT" Fuzzy match to "60 Founders Road, Essex, VT" -->
    <tag k="addr:city" v="Essex Town"/>
    <tag k="addr:housenumber" v="60"/>
    <tag k="addr:street" v="Founders Road"/>
    <tag k="addr:state" v="VT"/>
    <tag k="ref:vcgi:esiteid" v="97006"/>
  </node>
  <node id="-2610" visible="true" lat="44.48480224" lon="-73.06831359">
    <!-- conflict: "6 Raymond Drive, Essex Town, VT" No match in OSM, but a different address exists <5m away: " Raymond Drive, Essex, VT" -->
    <tag k="addr:city" v="Essex Town"/>
    <tag k="addr:housenumber" v="6"/>
    <tag k="addr:street" v="Raymond Drive"/>
    <tag k="addr:state" v="VT"/>
    <tag k="ref:vcgi:esiteid" v="100037"/>
  </node>
  <node id="-2626" visible="true" lat="44.4850242" lon="-73.06925996">
    <!-- conflict: "57 River View Drive, Essex Town, VT" Fuzzy match to "57 River Road, Essex Junction, VT" -->
    <tag k="addr:city" v="Essex Town"/>
    <tag k="addr:housenumber" v="57"/>
    <tag k="addr:street" v="River View Drive"/>
    <tag k="addr:state" v="VT"/>
    <tag k="ref:vcgi:esiteid" v="100088"/>
  </node>
  <node id="-2632" visible="true" lat="44.48433303" lon="-73.08136749">
    <!-- conflict: "57 River Road, Essex Town, VT" Fuzzy match to "57 River Road, Essex Junction, VT" -->
    <tag k="addr:city" v="Essex Town"/>
    <tag k="addr:housenumber" v="57"/>
    <tag k="addr:street" v="River Road"/>
    <tag k="addr:state" v="VT"/>
    <tag k="ref:vcgi:esiteid" v="100099"/>
  </node>
  <node id="-2659" visible="true" lat="44.48386001" lon="-73.08621215">
    <!-- conflict: "29 River Road, Essex Town, VT" Fuzzy match to "29 River Road, Essex Junction, VT" -->
    <tag k="addr:city" v="Essex Town"/>
    <tag k="addr:housenumber" v="29"/>
    <tag k="addr:street" v="River Road"/>
    <tag k="addr:state" v="VT"/>
    <tag k="ref:vcgi:esiteid" v="100166"/>
  </node>
  <node id="-2682" visible="true" lat="44.48359522" lon="-73.08370853">
    <!-- conflict: "45 River Road, Essex Town, VT" Fuzzy match to "45 River Road, Essex Junction, VT" -->
    <tag k="addr:city" v="Essex Town"/>
    <tag k="addr:housenumber" v="45"/>
    <tag k="addr:street" v="River Road"/>
    <tag k="addr:state" v="VT"/>
    <tag k="ref:vcgi:esiteid" v="100209"/>
  </node>
  <node id="-2730" visible="true" lat="44.48238537" lon="-73.08413339">
    <!-- conflict: "42 River Road, Essex Town, VT" Fuzzy match to "42 River Road, Essex Junction, VT" -->
    <tag k="addr:city" v="Essex Town"/>
    <tag k="addr:housenumber" v="42"/>
    <tag k="addr:street" v="River Road"/>
    <tag k="addr:state" v="VT"/>
    <tag k="ref:vcgi:esiteid" v="100323"/>
  </node>
  <node id="-2754" visible="true" lat="44.48141289" lon="-73.08722348">
    <!-- conflict: "34 River Road, Essex Town, VT" Fuzzy match to "34 River Road, Essex Junction, VT" -->
    <tag k="addr:city" v="Essex Town"/>
    <tag k="addr:housenumber" v="34"/>
    <tag k="addr:street" v="River Road"/>
    <tag k="addr:state" v="VT"/>
    <tag k="ref:vcgi:esiteid" v="100378"/>
  </node>
  <node id="-2768" visible="true" lat="44.48081588" lon="-73.08414459">
    <!-- conflict: "36 River Road, Essex Town, VT" Fuzzy match to "36 River Road, Essex Junction, VT" -->
    <tag k="addr:city" v="Essex Town"/>
    <tag k="addr:housenumber" v="36"/>
    <tag k="addr:street" v="River Road"/>
    <tag k="addr:state" v="VT"/>
    <tag k="ref:vcgi:esiteid" v="100404"/>
  </node>
  <node id="-2831" visible="true" lat="44.4782257" lon="-73.05906677">
    <!-- conflict: "182 River Road, Essex Town, VT" Fuzzy match to "182 River Road, , VT" -->
    <tag k="addr:city" v="Essex Town"/>
    <tag k="addr:housenumber" v="182"/>
    <tag k="addr:street" v="River Road"/>
    <tag k="addr:state" v="VT"/>
    <tag k="ref:vcgi:esiteid" v="100496"/>
  </node>
  <node id="-2944" visible="true" lat="44.50910734" lon="-73.13264341">
    <!-- conflict: "50 Susie Wilson Road, Essex Town, VT" Fuzzy match to "50 Susie Wilson Road, Essex Junction, VT" -->
    <tag k="addr:city" v="Essex Town"/>
    <tag k="addr:housenumber" v="50"/>
    <tag k="addr:street" v="Susie Wilson Road"/>
    <tag k="addr:state" v="VT"/>
    <tag k="ref:vcgi:esiteid" v="100631"/>
  </node>
  <node id="-2947" visible="true" lat="44.50833723" lon="-73.13390688">
    <!-- conflict: "1 David Drive, Essex Town, VT" Fuzzy match to "1 David Drive, Essex Junction, VT" -->
    <tag k="addr:city" v="Essex Town"/>
    <tag k="addr:housenumber" v="1"/>
    <tag k="addr:street" v="David Drive"/>
    <tag k="addr:state" v="VT"/>
    <tag k="ref:vcgi:esiteid" v="100636"/>
  </node>
  <node id="-2948" visible="true" lat="44.50772092" lon="-73.13443437">
    <!-- conflict: "2 David Drive, Essex Town, VT" Fuzzy match to "2 David Drive, , VT" -->
    <tag k="addr:city" v="Essex Town"/>
    <tag k="addr:housenumber" v="2"/>
    <tag k="addr:street" v="David Drive"/>
    <tag k="addr:state" v="VT"/>
    <tag k="ref:vcgi:esiteid" v="100637"/>
  </node>
  <node id="-2951" visible="true" lat="44.50729644" lon="-73.13504858">
    <!-- conflict: "30 Susie Wilson Road, Essex Town, VT" Fuzzy match to "30 Susie Wilson Road, Essex Junction, VT" -->
    <tag k="addr:city" v="Essex Town"/>
    <tag k="addr:housenumber" v="30"/>
    <tag k="addr:street" v="Susie Wilson Road"/>
    <tag k="addr:state" v="VT"/>
    <tag k="ref:vcgi:esiteid" v="100640"/>
  </node>
  <node id="-2953" visible="true" lat="44.50635528" lon="-73.1362152">
    <!-- conflict: "20 Susie Wilson Road, Essex Town, VT" Fuzzy match to "20 Susie Wilson Rd, Essex Junction, VT" -->
    <tag k="addr:city" v="Essex Town"/>
    <tag k="addr:housenumber" v="20"/>
    <tag k="addr:street" v="Susie Wilson Road"/>
    <tag k="addr:state" v="VT"/>
    <tag k="ref:vcgi:esiteid" v="100642"/>
  </node>
  <node id="-2954" visible="true" lat="44.50579098" lon="-73.13582961">
    <!-- conflict: "2 Pinecrest Drive, Essex Town, VT" Fuzzy match to "2 Pinecrest Drive, Essex Junction, VT" -->
    <tag k="addr:city" v="Essex Town"/>
    <tag k="addr:housenumber" v="2"/>
    <tag k="addr:street" v="Pinecrest Drive"/>
    <tag k="addr:state" v="VT"/>
    <tag k="ref:vcgi:esiteid" v="100643"/>
  </node>
  <node id="-2956" visible="true" lat="44.50497245" lon="-73.13372237">
    <!-- conflict: "15 Pinecrest Drive, Essex Town, VT" Fuzzy match to "15 Pinecrest Drive, Essex Junction, VT" -->
    <tag k="addr:city" v="Essex Town"/>
    <tag k="addr:housenumber" v="15"/>
    <tag k="addr:street" v="Pinecrest Drive"/>
    <tag k="addr:state" v="VT"/>
    <tag k="ref:vcgi:esiteid" v="100647"/>
  </node>
  <node id="-2957" visible="true" lat="44.50516835" lon="-73.1351878">
    <!-- conflict: "7 Pinecrest Drive, Essex Town, VT" Fuzzy match to "7 Pinecrest Drive, Essex Junction, VT" -->
    <tag k="addr:city" v="Essex Town"/>
    <tag k="addr:housenumber" v="7"/>
    <tag k="addr:street" v="Pinecrest Drive"/>
    <tag k="addr:state" v="VT"/>
    <tag k="ref:vcgi:esiteid" v="100648"/>
  </node>
  <node id="-2958" visible="true" lat="44.50528717" lon="-73.13644409">
    <!-- conflict: "4 Joshua Way, Essex Town, VT" No match in OSM, but a different address exists <5m away: "13 Joshua Way, Essex Town, VT" -->
    <tag k="addr:city" v="Essex Town"/>
    <tag k="addr:housenumber" v="4"/>
    <tag k="addr:street" v="Joshua Way"/>
    <tag k="addr:state" v="VT"/>
    <tag k="ref:vcgi:esiteid" v="100649"/>
  </node>
  <node id="-2960" visible="true" lat="44.50494931" lon="-73.13173371">
    <!-- conflict: "25 Pinecrest Drive, Essex Town, VT" Fuzzy match to "25 Pinecrest Drive, Essex Junction, VT" -->
    <tag k="addr:city" v="Essex Town"/>
    <tag k="addr:housenumber" v="25"/>
    <tag k="addr:street" v="Pinecrest Drive"/>
    <tag k="addr:state" v="VT"/>
    <tag k="ref:vcgi:esiteid" v="100651"/>
  </node>
  <node id="-2969" visible="true" lat="44.50734685" lon="-73.133847">
    <!-- conflict: "1 Market Place, Essex Town, VT" Fuzzy match to "1 Market Place, Essex Junction, VT" -->
    <tag k="addr:city" v="Essex Town"/>
    <tag k="addr:housenumber" v="1"/>
    <tag k="addr:street" v="Market Place"/>
    <tag k="addr:state" v="VT"/>
    <tag k="ref:vcgi:esiteid" v="100661"/>
  </node>
  <node id="-2970" visible="true" lat="44.50680328" lon="-73.13392501">
    <!-- conflict: "1 Market Place, Essex Town, VT" Fuzzy match to "1 Market Place, Essex Junction, VT" -->
    <tag k="addr:city" v="Essex Town"/>
    <tag k="addr:housenumber" v="1"/>
    <tag k="addr:street" v="Market Place"/>
    <tag k="addr:state" v="VT"/>
    <tag k="ref:vcgi:esiteid" v="100662"/>
  </node>
  <node id="-2971" visible="true" lat="44.50652694" lon="-73.13252258">
    <!-- conflict: "1 Market Place, Essex Town, VT" Fuzzy match to "1 Market Place, Essex Junction, VT" -->
    <tag k="addr:city" v="Essex Town"/>
    <tag k="addr:housenumber" v="1"/>
    <tag k="addr:street" v="Market Place"/>
    <tag k="addr:state" v="VT"/>
    <tag k="ref:vcgi:esiteid" v="100663"/>
  </node>
  <node id="-2978" visible="true" lat="44.50565338" lon="-73.142807">
    <!-- conflict: "321 Ryan Street, Essex Town, VT" No match in OSM, but a different address exists <5m away: "321 Ethan Allen Avenue, Essex, VT" -->
    <tag k="addr:city" v="Essex Town"/>
    <tag k="addr:housenumber" v="321"/>
    <tag k="addr:street" v="Ryan Street"/>
    <tag k="addr:state" v="VT"/>
    <tag k="ref:vcgi:esiteid" v="100671"/>
  </node>
  <node id="-2979" visible="true" lat="44.50598893" lon="-73.14279213">
    <!-- conflict: "320 Payne Street, Essex Town, VT" No match in OSM, but a different address exists <5m away: "331 Ethan Allen Avenue, Essex, VT" -->
    <tag k="addr:city" v="Essex Town"/>
    <tag k="addr:housenumber" v="320"/>
    <tag k="addr:street" v="Payne Street"/>
    <tag k="addr:state" v="VT"/>
    <tag k="ref:vcgi:esiteid" v="100672"/>
  </node>
  <node id="-2980" visible="true" lat="44.50607978" lon="-73.14248377">
    <!-- conflict: "340 Payne Street, Essex Town, VT" No match in OSM, but a different address exists <5m away: "340 Ethan Allen Avenue, Essex, VT" -->
    <tag k="addr:city" v="Essex Town"/>
    <tag k="addr:housenumber" v="340"/>
    <tag k="addr:street" v="Payne Street"/>
    <tag k="addr:state" v="VT"/>
    <tag k="ref:vcgi:esiteid" v="100673"/>
  </node>
  <node id="-2987" visible="true" lat="44.50512695" lon="-73.13790893">
    <!-- conflict: "50 Sunderland Way, Essex Town, VT" Fuzzy match to "50 Sunderland Way, Essex Junction, VT" -->
    <tag k="addr:city" v="Essex Town"/>
    <tag k="addr:housenumber" v="50"/>
    <tag k="addr:street" v="Sunderland Way"/>
    <tag k="addr:state" v="VT"/>
    <tag k="ref:vcgi:esiteid" v="100683"/>
  </node>
  <node id="-3066" visible="true" lat="44.50876439" lon="-73.08408023">
    <!-- conflict: "8 Carmichael Street, Essex Town, VT" Fuzzy match to "8 Carmichael Street, Essex, VT" -->
    <tag k="addr:city" v="Essex Town"/>
    <tag k="addr:housenumber" v="8"/>
    <tag k="addr:street" v="Carmichael Street"/>
    <tag k="addr:state" v="VT"/>
    <tag k="ref:vcgi:esiteid" v="100762"/>
  </node>
  <node id="-3117" visible="true" lat="44.50059537" lon="-73.08182952">
    <!-- conflict: "73 Essex Way, Essex Town, VT" Fuzzy match to "73 Essex Way, Essex, VT" -->
    <tag k="addr:city" v="Essex Town"/>
    <tag k="addr:housenumber" v="73"/>
    <tag k="addr:street" v="Essex Way"/>
    <tag k="addr:state" v="VT"/>
    <tag k="ref:vcgi:esiteid" v="100814"/>
  </node>
  <node id="-3199" visible="true" lat="44.50843978" lon="-73.13491426">
    <!-- conflict: "3 David Drive, Essex Town, VT" Fuzzy match to "3 David Drive, Essex Junction, VT" -->
    <tag k="addr:city" v="Essex Town"/>
    <tag k="addr:housenumber" v="3"/>
    <tag k="addr:street" v="David Drive"/>
    <tag k="addr:state" v="VT"/>
    <tag k="ref:vcgi:esiteid" v="100975"/>
  </node>
  <node id="-3218" visible="true" lat="44.51040989" lon="-73.0708629">
    <!-- conflict: "67 Center Road, Essex Town, VT" No match in OSM, but a different address exists <5m away: "69 Center Road, , VT" -->
    <tag k="addr:city" v="Essex Town"/>
    <tag k="addr:housenumber" v="67"/>
    <tag k="addr:street" v="Center Road"/>
    <tag k="addr:state" v="VT"/>
    <tag k="ref:vcgi:esiteid" v="101228"/>
  </node>
  <node id="-3270" visible="true" lat="44.51695867" lon="-73.06045771">
    <!-- conflict: "1 Thrush Lane, Essex Town, VT" No match in OSM, but a different address exists <5m away: " Thrush Lane, Essex Junction, VT" -->
    <tag k="addr:city" v="Essex Town"/>
    <tag k="addr:housenumber" v="1"/>
    <tag k="addr:street" v="Thrush Lane"/>
    <tag k="addr:state" v="VT"/>
    <tag k="ref:vcgi:esiteid" v="101376"/>
  </node>
  <node id="-3272" visible="true" lat="44.51701791" lon="-73.06007772">
    <!-- conflict: "5 Thrush Lane, Essex Town, VT" No match in OSM, but a different address exists <5m away: " Thrush Lane, Essex Junction, VT" -->
    <tag k="addr:city" v="Essex Town"/>
    <tag k="addr:housenumber" v="5"/>
    <tag k="addr:street" v="Thrush Lane"/>
    <tag k="addr:state" v="VT"/>
    <tag k="ref:vcgi:esiteid" v="101378"/>
  </node>
  <node id="-3274" visible="true" lat="44.51731841" lon="-73.06065807">
    <!-- conflict: "2 Thrush Lane, Essex Town, VT" No match in OSM, but a different address exists <5m away: " Thrush Lane, Essex Junction, VT" -->
    <tag k="addr:city" v="Essex Town"/>
    <tag k="addr:housenumber" v="2"/>
    <tag k="addr:street" v="Thrush Lane"/>
    <tag k="addr:state" v="VT"/>
    <tag k="ref:vcgi:esiteid" v="101380"/>
  </node>
  <node id="-3277" visible="true" lat="44.51743537" lon="-73.06018184">
    <!-- conflict: "8 Thrush Lane, Essex Town, VT" No match in OSM, but a different address exists <5m away: " Thrush Lane, Essex Junction, VT" -->
    <tag k="addr:city" v="Essex Town"/>
    <tag k="addr:housenumber" v="8"/>
    <tag k="addr:street" v="Thrush Lane"/>
    <tag k="addr:state" v="VT"/>
    <tag k="ref:vcgi:esiteid" v="101383"/>
  </node>
  <node id="-3280" visible="true" lat="44.518258" lon="-73.06062804">
    <!-- conflict: "4 Cardinal Lane, Essex Town, VT" No match in OSM, but a different address exists <5m away: " Cardinal Lane, Essex Junction, VT" -->
    <tag k="addr:city" v="Essex Town"/>
    <tag k="addr:housenumber" v="4"/>
    <tag k="addr:street" v="Cardinal Lane"/>
    <tag k="addr:state" v="VT"/>
    <tag k="ref:vcgi:esiteid" v="101387"/>
  </node>
  <node id="-3302" visible="true" lat="44.51816232" lon="-73.0596202">
    <!-- conflict: "18 Cardinal Lane, Essex Town, VT" No match in OSM, but a different address exists <5m away: " Cardinal Lane, Essex Junction, VT" -->
    <tag k="addr:city" v="Essex Town"/>
    <tag k="addr:housenumber" v="18"/>
    <tag k="addr:street" v="Cardinal Lane"/>
    <tag k="addr:state" v="VT"/>
    <tag k="ref:vcgi:esiteid" v="101410"/>
  </node>
  <node id="-3310" visible="true" lat="44.5080852" lon="-73.08434102">
    <!-- conflict: "5 Carmichael Street, Essex Town, VT" Fuzzy match to "5 Carmichael Street, Essex, VT" -->
    <tag k="addr:city" v="Essex Town"/>
    <tag k="addr:housenumber" v="5"/>
    <tag k="addr:street" v="Carmichael Street"/>
    <tag k="addr:state" v="VT"/>
    <tag k="ref:vcgi:esiteid" v="101418"/>
  </node>
  <node id="-3346" visible="true" lat="44.51021626" lon="-73.0026954">
    <!-- conflict: "45 Lawrence Heights, Essex Town, VT" No match in OSM, but a different address exists <5m away: " Lawrence Heights, , VT" -->
    <tag k="addr:city" v="Essex Town"/>
    <tag k="addr:housenumber" v="45"/>
    <tag k="addr:street" v="Lawrence Heights"/>
    <tag k="addr:state" v="VT"/>
    <tag k="ref:vcgi:esiteid" v="101454"/>
  </node>
  <node id="-3417" visible="true" lat="44.50896363" lon="-73.13156594">
    <!-- conflict: "51 Susie Wilson Road, Essex Town, VT" No match in OSM, but a different address exists <5m away: "49 Susie Wilson Road, Essex Junction, VT" -->
    <tag k="addr:city" v="Essex Town"/>
    <tag k="addr:housenumber" v="51"/>
    <tag k="addr:street" v="Susie Wilson Road"/>
    <tag k="addr:state" v="VT"/>
    <tag k="ref:vcgi:esiteid" v="307896"/>
  </node>
  <node id="-3418" visible="true" lat="44.50459844" lon="-73.13679716">
    <!-- conflict: "5 Joshua Way, Essex Town, VT" No match in OSM, but a different address exists <5m away: "9 Joshua Way, Essex Junction, VT" -->
    <tag k="addr:city" v="Essex Town"/>
    <tag k="addr:housenumber" v="5"/>
    <tag k="addr:street" v="Joshua Way"/>
    <tag k="addr:state" v="VT"/>
    <tag k="ref:vcgi:esiteid" v="307897"/>
  </node>
  <node id="-3443" visible="true" lat="44.5080598" lon="-73.08562244">
    <!-- conflict: "2 Carmichael Street, Essex Town, VT" Fuzzy match to "2 Carmichael Street, , " -->
    <tag k="addr:city" v="Essex Town"/>
    <tag k="addr:housenumber" v="2"/>
    <tag k="addr:street" v="Carmichael Street"/>
    <tag k="addr:state" v="VT"/>
    <tag k="ref:vcgi:esiteid" v="308360"/>
  </node>
  <node id="-3444" visible="true" lat="44.50772402" lon="-73.08520016">
    <!-- conflict: "1 Carmichael Street, Essex Town, VT" Fuzzy match to "1 Carmichael Street, Essex, VT" -->
    <tag k="addr:city" v="Essex Town"/>
    <tag k="addr:housenumber" v="1"/>
    <tag k="addr:street" v="Carmichael Street"/>
    <tag k="addr:state" v="VT"/>
    <tag k="ref:vcgi:esiteid" v="308361"/>
  </node>
  <node id="-3545" visible="true" lat="44.48396367" lon="-73.08712464">
    <!-- conflict: "27 River Road, Essex Town, VT" Fuzzy match to "27 River Road, Essex Junction, VT" -->
    <tag k="addr:city" v="Essex Town"/>
    <tag k="addr:housenumber" v="27"/>
    <tag k="addr:street" v="River Road"/>
    <tag k="addr:state" v="VT"/>
    <tag k="ref:vcgi:esiteid" v="308508"/>
  </node>
  <node id="-3546" visible="true" lat="44.48377387" lon="-73.08484795">
    <!-- conflict: "39 River Road, Essex Town, VT" Fuzzy match to "39 River Road, Essex Junction, VT" -->
    <tag k="addr:city" v="Essex Town"/>
    <tag k="addr:housenumber" v="39"/>
    <tag k="addr:street" v="River Road"/>
    <tag k="addr:state" v="VT"/>
    <tag k="ref:vcgi:esiteid" v="308510"/>
  </node>
  <node id="-3566" visible="true" lat="44.48371691" lon="-73.06832307">
    <!-- conflict: "1 Raymond Drive, Essex Town, VT" No match in OSM, but a different address exists <5m away: " Raymond Drive, Essex, VT" -->
    <tag k="addr:city" v="Essex Town"/>
    <tag k="addr:housenumber" v="1"/>
    <tag k="addr:street" v="Raymond Drive"/>
    <tag k="addr:state" v="VT"/>
    <tag k="ref:vcgi:esiteid" v="308533"/>
  </node>
  <node id="-3583" visible="true" lat="44.48450117" lon="-73.06855152">
    <!-- conflict: "4 Raymond Drive, Essex Town, VT" No match in OSM, but a different address exists <5m away: " Raymond Drive, Essex, VT" -->
    <tag k="addr:city" v="Essex Town"/>
    <tag k="addr:housenumber" v="4"/>
    <tag k="addr:street" v="Raymond Drive"/>
    <tag k="addr:state" v="VT"/>
    <tag k="ref:vcgi:esiteid" v="308550"/>
  </node>
  <node id="-3584" visible="true" lat="44.4839203" lon="-73.06808886">
    <!-- conflict: "3 Raymond Drive, Essex Town, VT" No match in OSM, but a different address exists <5m away: " Raymond Drive, Essex, VT" -->
    <tag k="addr:city" v="Essex Town"/>
    <tag k="addr:housenumber" v="3"/>
    <tag k="addr:street" v="Raymond Drive"/>
    <tag k="addr:state" v="VT"/>
    <tag k="ref:vcgi:esiteid" v="308551"/>
  </node>
  <node id="-3586" visible="true" lat="44.48468857" lon="-73.06761811">
    <!-- conflict: "7 Raymond Drive, Essex Town, VT" No match in OSM, but a different address exists <5m away: " Raymond Drive, Essex, VT" -->
    <tag k="addr:city" v="Essex Town"/>
    <tag k="addr:housenumber" v="7"/>
    <tag k="addr:street" v="Raymond Drive"/>
    <tag k="addr:state" v="VT"/>
    <tag k="ref:vcgi:esiteid" v="308553"/>
  </node>
  <node id="-3733" visible="true" lat="44.51750992" lon="-73.05803291">
    <!-- conflict: "30 Steeplebush Road, Essex Town, VT" No match in OSM, but a different address exists <5m away: " , Essex Center, VT" -->
    <tag k="addr:city" v="Essex Town"/>
    <tag k="addr:housenumber" v="30"/>
    <tag k="addr:street" v="Steeplebush Road"/>
    <tag k="addr:state" v="VT"/>
    <tag k="ref:vcgi:esiteid" v="308954"/>
  </node>
  <node id="-3735" visible="true" lat="44.51730727" lon="-73.05797425">
    <!-- conflict: "32 Steeplebush Road, Essex Town, VT" No match in OSM, but a different address exists <5m away: " , Essex Center, VT" -->
    <tag k="addr:city" v="Essex Town"/>
    <tag k="addr:housenumber" v="32"/>
    <tag k="addr:street" v="Steeplebush Road"/>
    <tag k="addr:state" v="VT"/>
    <tag k="ref:vcgi:esiteid" v="308956"/>
  </node>
  <node id="-3737" visible="true" lat="44.51703555" lon="-73.05793195">
    <!-- conflict: "35 Steeplebush Road, Essex Town, VT" No match in OSM, but a different address exists <5m away: " , Essex Center, VT" -->
    <tag k="addr:city" v="Essex Town"/>
    <tag k="addr:housenumber" v="35"/>
    <tag k="addr:street" v="Steeplebush Road"/>
    <tag k="addr:state" v="VT"/>
    <tag k="ref:vcgi:esiteid" v="308958"/>
  </node>
  <node id="-3738" visible="true" lat="44.51694637" lon="-73.0579084">
    <!-- conflict: "36 Steeplebush Road, Essex Town, VT" No match in OSM, but a different address exists <5m away: " , Essex Center, VT" -->
    <tag k="addr:city" v="Essex Town"/>
    <tag k="addr:housenumber" v="36"/>
    <tag k="addr:street" v="Steeplebush Road"/>
    <tag k="addr:state" v="VT"/>
    <tag k="ref:vcgi:esiteid" v="308959"/>
  </node>
  <node id="-3741" visible="true" lat="44.5019989" lon="-73.04170121">
    <!-- conflict: "1 Corporate Drive, Essex Town, VT" Fuzzy match to "1 Corporate Drive, Essex Junction, VT" -->
    <tag k="addr:city" v="Essex Town"/>
    <tag k="addr:housenumber" v="1"/>
    <tag k="addr:street" v="Corporate Drive"/>
    <tag k="addr:state" v="VT"/>
    <tag k="ref:vcgi:esiteid" v="308962"/>
  </node>
  <node id="-3905" visible="true" lat="44.50468083" lon="-73.13477832">
    <!-- conflict: "9 Joshua Way, Essex Town, VT" Fuzzy match to "9 Joshua Way, Essex Junction, VT" -->
    <tag k="addr:city" v="Essex Town"/>
    <tag k="addr:housenumber" v="9"/>
    <tag k="addr:street" v="Joshua Way"/>
    <tag k="addr:state" v="VT"/>
    <tag k="ref:vcgi:esiteid" v="318058"/>
  </node>
  <node id="-3945" visible="true" lat="44.50924689" lon="-73.07989364">
    <!-- conflict: "22 Carmichael Street, Essex Town, VT" Fuzzy match to "22 Carmichael Street, , " -->
    <tag k="addr:city" v="Essex Town"/>
    <tag k="addr:housenumber" v="22"/>
    <tag k="addr:street" v="Carmichael Street"/>
    <tag k="addr:state" v="VT"/>
    <tag k="ref:vcgi:esiteid" v="330043"/>
  </node>
  <node id="-3991" visible="true" lat="44.50878543" lon="-73.08020831">
    <!-- conflict: "21 Carmichael Street, Essex Town, VT" Fuzzy match to "21 Carmichael Street, Essex, VT" -->
    <tag k="addr:city" v="Essex Town"/>
    <tag k="addr:housenumber" v="21"/>
    <tag k="addr:street" v="Carmichael Street"/>
    <tag k="addr:state" v="VT"/>
    <tag k="ref:vcgi:esiteid" v="338996"/>
  </node>
  <node id="-3992" visible="true" lat="44.50874713" lon="-73.08142256">
    <!-- conflict: "17 Carmichael Street, Essex Town, VT" Fuzzy match to "17 Carmichael Street, , " -->
    <tag k="addr:city" v="Essex Town"/>
    <tag k="addr:housenumber" v="17"/>
    <tag k="addr:street" v="Carmichael Street"/>
    <tag k="addr:state" v="VT"/>
    <tag k="ref:vcgi:esiteid" v="338997"/>
  </node>
  <node id="-4048" visible="true" lat="44.5097495" lon="-73.07956873">
    <!-- conflict: "20 Carmichael Street, Essex Town, VT" Fuzzy match to "20 Carmichael Street, , " -->
    <tag k="addr:city" v="Essex Town"/>
    <tag k="addr:housenumber" v="20"/>
    <tag k="addr:street" v="Carmichael Street"/>
    <tag k="addr:state" v="VT"/>
    <tag k="ref:vcgi:esiteid" v="449332"/>
  </node>
  <node id="-4049" visible="true" lat="44.5095918" lon="-73.08131578">
    <!-- conflict: "18 Carmichael Street, Essex Town, VT" Fuzzy match to "18 Carmichael Street, , " -->
    <tag k="addr:city" v="Essex Town"/>
    <tag k="addr:housenumber" v="18"/>
    <tag k="addr:street" v="Carmichael Street"/>
    <tag k="addr:state" v="VT"/>
    <tag k="ref:vcgi:esiteid" v="449333"/>
  </node>
  <node id="-4164" visible="true" lat="44.50835193" lon="-73.08371158">
    <!-- conflict: "7 Carmichael Street, Essex Town, VT" Fuzzy match to "7 Carmichael Street, Essex, VT" -->
    <tag k="addr:city" v="Essex Town"/>
    <tag k="addr:housenumber" v="7"/>
    <tag k="addr:street" v="Carmichael Street"/>
    <tag k="addr:state" v="VT"/>
    <tag k="ref:vcgi:esiteid" v="750837"/>
  </node>
  <node id="-4250" visible="true" lat="44.50474483" lon="-73.13810113">
    <!-- conflict: "52 Sunderland Way, Essex Town, VT" Fuzzy match to "52 Sunderland Way, Essex Junction, VT" -->
    <tag k="addr:city" v="Essex Town"/>
    <tag k="addr:housenumber" v="52"/>
    <tag k="addr:street" v="Sunderland Way"/>
    <tag k="addr:state" v="VT"/>
    <tag k="ref:vcgi:esiteid" v="756104"/>
  </node>
</osm>
