<?xml version="1.0" encoding="UTF-8"?>
<osm version="0.6" generator="JOSM" upload="false">
  <node id="-965" visible="true" lat="44.51306851" lon="-73.05582079">
    <!-- multiple: "1 Bixby Hill Road, , VT" Multiple exact matches in OSM. -->
    <tag k="addr:housenumber" v="1"/>
    <tag k="addr:street" v="Bixby Hill Road"/>
    <tag k="addr:state" v="VT"/>
    <tag k="ref:vcgi:esiteid" v="95326"/>
  </node>
  <node id="-1297" visible="true" lat="44.50954437" lon="-73.05576324">
    <!-- multiple: "20 Jericho Road, , VT" Multiple exact matches in OSM. -->
    <tag k="addr:housenumber" v="20"/>
    <tag k="addr:street" v="Jericho Road"/>
    <tag k="addr:state" v="VT"/>
    <tag k="ref:vcgi:esiteid" v="95741"/>
  </node>
  <node id="-1331" visible="true" lat="44.50894296" lon="-73.07809199">
    <!-- multiple: "8 Essex Way, , VT" Multiple exact matches in OSM. -->
    <tag k="addr:housenumber" v="8"/>
    <tag k="addr:street" v="Essex Way"/>
    <tag k="addr:state" v="VT"/>
    <tag k="ref:vcgi:esiteid" v="95780"/>
  </node>
  <node id="-1396" visible="true" lat="44.50829344" lon="-73.05392677">
    <!-- multiple: "25 Jericho Road, , VT" Multiple exact matches in OSM. -->
    <tag k="addr:housenumber" v="25"/>
    <tag k="addr:street" v="Jericho Road"/>
    <tag k="addr:state" v="VT"/>
    <tag k="ref:vcgi:esiteid" v="95858"/>
  </node>
  <node id="-1409" visible="true" lat="44.50823551" lon="-73.08720168">
    <!-- multiple: "72 Upper Main Street, , VT" Multiple exact matches in OSM. -->
    <tag k="addr:housenumber" v="72"/>
    <tag k="addr:street" v="Upper Main Street"/>
    <tag k="addr:state" v="VT"/>
    <tag k="ref:vcgi:esiteid" v="95872"/>
  </node>
  <node id="-1474" visible="true" lat="44.50688178" lon="-73.13134188">
    <!-- multiple: "12 Market Place, , VT" Multiple exact matches in OSM. -->
    <tag k="addr:housenumber" v="12"/>
    <tag k="addr:street" v="Market Place"/>
    <tag k="addr:state" v="VT"/>
    <tag k="ref:vcgi:esiteid" v="95957"/>
  </node>
  <node id="-1600" visible="true" lat="44.5060816" lon="-73.08147503">
    <!-- multiple: "25 Essex Way, , VT" Multiple exact matches in OSM. -->
    <tag k="addr:housenumber" v="25"/>
    <tag k="addr:street" v="Essex Way"/>
    <tag k="addr:state" v="VT"/>
    <tag k="ref:vcgi:esiteid" v="96104"/>
  </node>
  <node id="-1992" visible="true" lat="44.50265015" lon="-73.02788305">
    <!-- multiple: "1 Whitcomb Meadows Lane, , VT" Multiple exact matches in OSM. -->
    <tag k="addr:housenumber" v="1"/>
    <tag k="addr:street" v="Whitcomb Meadows Lane"/>
    <tag k="addr:state" v="VT"/>
    <tag k="ref:vcgi:esiteid" v="96610"/>
  </node>
  <node id="-2067" visible="true" lat="44.50039953" lon="-73.05535943">
    <!-- multiple: "33 Founders Road, , VT" Multiple exact matches in OSM. -->
    <tag k="addr:housenumber" v="33"/>
    <tag k="addr:street" v="Founders Road"/>
    <tag k="addr:state" v="VT"/>
    <tag k="ref:vcgi:esiteid" v="96868"/>
  </node>
  <node id="-2104" visible="true" lat="44.49901773" lon="-73.05850431">
    <!-- multiple: "60 Founders Road, , VT" Multiple exact matches in OSM. -->
    <tag k="addr:housenumber" v="60"/>
    <tag k="addr:street" v="Founders Road"/>
    <tag k="addr:state" v="VT"/>
    <tag k="ref:vcgi:esiteid" v="97006"/>
  </node>
  <node id="-2944" visible="true" lat="44.50910734" lon="-73.13264341">
    <!-- multiple: "50 Susie Wilson Road, , VT" Multiple exact matches in OSM. -->
    <tag k="addr:housenumber" v="50"/>
    <tag k="addr:street" v="Susie Wilson Road"/>
    <tag k="addr:state" v="VT"/>
    <tag k="ref:vcgi:esiteid" v="100631"/>
  </node>
  <node id="-2951" visible="true" lat="44.50729644" lon="-73.13504858">
    <!-- multiple: "30 Susie Wilson Road, , VT" Multiple exact matches in OSM. -->
    <tag k="addr:housenumber" v="30"/>
    <tag k="addr:street" v="Susie Wilson Road"/>
    <tag k="addr:state" v="VT"/>
    <tag k="ref:vcgi:esiteid" v="100640"/>
  </node>
  <node id="-2956" visible="true" lat="44.50497245" lon="-73.13372237">
    <!-- multiple: "15 Pinecrest Drive, , VT" Multiple exact matches in OSM. -->
    <tag k="addr:housenumber" v="15"/>
    <tag k="addr:street" v="Pinecrest Drive"/>
    <tag k="addr:state" v="VT"/>
    <tag k="ref:vcgi:esiteid" v="100647"/>
  </node>
  <node id="-2971" visible="true" lat="44.50652694" lon="-73.13252258">
    <!-- multiple: "1 Market Place, , VT" Multiple exact matches in OSM. -->
    <tag k="addr:housenumber" v="1"/>
    <tag k="addr:street" v="Market Place"/>
    <tag k="addr:state" v="VT"/>
    <tag k="ref:vcgi:esiteid" v="100663"/>
  </node>
  <node id="-2997" visible="true" lat="44.50801339" lon="-73.08070761">
    <!-- multiple: "19 Essex Way, , VT" Multiple exact matches in OSM. -->
    <tag k="addr:housenumber" v="19"/>
    <tag k="addr:street" v="Essex Way"/>
    <tag k="addr:state" v="VT"/>
    <tag k="ref:vcgi:esiteid" v="100693"/>
  </node>
  <node id="-3066" visible="true" lat="44.50876439" lon="-73.08408023">
    <!-- multiple: "8 Carmichael Street, , VT" Multiple exact matches in OSM. -->
    <tag k="addr:housenumber" v="8"/>
    <tag k="addr:street" v="Carmichael Street"/>
    <tag k="addr:state" v="VT"/>
    <tag k="ref:vcgi:esiteid" v="100762"/>
  </node>
  <node id="-3310" visible="true" lat="44.5080852" lon="-73.08434102">
    <!-- multiple: "5 Carmichael Street, , VT" Multiple exact matches in OSM. -->
    <tag k="addr:housenumber" v="5"/>
    <tag k="addr:street" v="Carmichael Street"/>
    <tag k="addr:state" v="VT"/>
    <tag k="ref:vcgi:esiteid" v="101418"/>
  </node>
  <node id="-3444" visible="true" lat="44.50772402" lon="-73.08520016">
    <!-- multiple: "1 Carmichael Street, , VT" Multiple exact matches in OSM. -->
    <tag k="addr:housenumber" v="1"/>
    <tag k="addr:street" v="Carmichael Street"/>
    <tag k="addr:state" v="VT"/>
    <tag k="ref:vcgi:esiteid" v="308361"/>
  </node>
  <node id="-3545" visible="true" lat="44.48396367" lon="-73.08712464">
    <!-- multiple: "27 River Road, , VT" Multiple exact matches in OSM. -->
    <tag k="addr:housenumber" v="27"/>
    <tag k="addr:street" v="River Road"/>
    <tag k="addr:state" v="VT"/>
    <tag k="ref:vcgi:esiteid" v="308508"/>
  </node>
  <node id="-3546" visible="true" lat="44.48377387" lon="-73.08484795">
    <!-- multiple: "39 River Road, , VT" Multiple exact matches in OSM. -->
    <tag k="addr:housenumber" v="39"/>
    <tag k="addr:street" v="River Road"/>
    <tag k="addr:state" v="VT"/>
    <tag k="ref:vcgi:esiteid" v="308510"/>
  </node>
  <node id="-4164" visible="true" lat="44.50835193" lon="-73.08371158">
    <!-- multiple: "7 Carmichael Street, , VT" Multiple exact matches in OSM. -->
    <tag k="addr:housenumber" v="7"/>
    <tag k="addr:street" v="Carmichael Street"/>
    <tag k="addr:state" v="VT"/>
    <tag k="ref:vcgi:esiteid" v="750837"/>
  </node>
  <node id="-4250" visible="true" lat="44.50474483" lon="-73.13810113">
    <!-- multiple: "52 Sunderland Way, , VT" Multiple exact matches in OSM. -->
    <tag k="addr:housenumber" v="52"/>
    <tag k="addr:street" v="Sunderland Way"/>
    <tag k="addr:state" v="VT"/>
    <tag k="ref:vcgi:esiteid" v="756104"/>
  </node>
</osm>
