<?xml version="1.0" encoding="UTF-8"?>
<osm version="0.6" generator="JOSM" upload="false">
  <node id="-118" visible="true" lat="44.86854372" lon="-72.98216521">
    <tag k="addr:housenumber" v="2616"/>
    <tag k="addr:street" v="Pond Road"/>
    <tag k="addr:state" v="VT"/>
    <tag k="ref:vcgi:esiteid" v="104484"/>
  </node>
  <node id="-123" visible="true" lat="44.86785888" lon="-72.97721862">
    <tag k="addr:housenumber" v="2366"/>
    <tag k="addr:street" v="Pond Road"/>
    <tag k="addr:state" v="VT"/>
    <tag k="ref:vcgi:esiteid" v="104489"/>
  </node>
  <node id="-138" visible="true" lat="44.86637302" lon="-72.97808455">
    <tag k="addr:housenumber" v="2313"/>
    <tag k="addr:street" v="Pond Road"/>
    <tag k="addr:state" v="VT"/>
    <tag k="ref:vcgi:esiteid" v="104504"/>
  </node>
  <node id="-140" visible="true" lat="44.86589184" lon="-72.97826319">
    <tag k="addr:housenumber" v="2299"/>
    <tag k="addr:street" v="Pond Road"/>
    <tag k="addr:state" v="VT"/>
    <tag k="ref:vcgi:esiteid" v="104506"/>
  </node>
  <node id="-143" visible="true" lat="44.86568681" lon="-72.9783139">
    <tag k="addr:housenumber" v="10"/>
    <tag k="addr:street" v="Bocash Road"/>
    <tag k="addr:state" v="VT"/>
    <tag k="ref:vcgi:esiteid" v="104509"/>
  </node>
  <node id="-145" visible="true" lat="44.86545337" lon="-72.97839778">
    <tag k="addr:housenumber" v="20"/>
    <tag k="addr:street" v="Bocash Road"/>
    <tag k="addr:state" v="VT"/>
    <tag k="ref:vcgi:esiteid" v="104511"/>
  </node>
  <node id="-147" visible="true" lat="44.86527168" lon="-72.97849315">
    <tag k="addr:housenumber" v="36"/>
    <tag k="addr:street" v="Bocash Road"/>
    <tag k="addr:state" v="VT"/>
    <tag k="ref:vcgi:esiteid" v="104513"/>
  </node>
  <node id="-148" visible="true" lat="44.86513631" lon="-72.97863026">
    <tag k="addr:housenumber" v="54"/>
    <tag k="addr:street" v="Bocash Road"/>
    <tag k="addr:state" v="VT"/>
    <tag k="ref:vcgi:esiteid" v="104514"/>
  </node>
  <node id="-150" visible="true" lat="44.86501571" lon="-72.97868718">
    <tag k="addr:housenumber" v="64"/>
    <tag k="addr:street" v="Bocash Road"/>
    <tag k="addr:state" v="VT"/>
    <tag k="ref:vcgi:esiteid" v="104516"/>
  </node>
  <node id="-153" visible="true" lat="44.86485781" lon="-72.97879063">
    <tag k="addr:housenumber" v="76"/>
    <tag k="addr:street" v="Bocash Road"/>
    <tag k="addr:state" v="VT"/>
    <tag k="ref:vcgi:esiteid" v="104519"/>
  </node>
  <node id="-155" visible="true" lat="44.86463928" lon="-72.99715423">
    <tag k="addr:housenumber" v="3482"/>
    <tag k="addr:street" v="Pond Road"/>
    <tag k="addr:state" v="VT"/>
    <tag k="ref:vcgi:esiteid" v="104521"/>
  </node>
  <node id="-157" visible="true" lat="44.86444219" lon="-72.98674537">
    <tag k="addr:housenumber" v="93"/>
    <tag k="addr:street" v="Cottage Loop"/>
    <tag k="addr:state" v="VT"/>
    <tag k="ref:vcgi:esiteid" v="104523"/>
  </node>
  <node id="-158" visible="true" lat="44.86447906" lon="-72.97899627">
    <tag k="addr:housenumber" v="78"/>
    <tag k="addr:street" v="Bocash Road"/>
    <tag k="addr:state" v="VT"/>
    <tag k="ref:vcgi:esiteid" v="104524"/>
  </node>
  <node id="-161" visible="true" lat="44.86431088" lon="-72.97899061">
    <tag k="addr:housenumber" v="106"/>
    <tag k="addr:street" v="Bocash Road"/>
    <tag k="addr:state" v="VT"/>
    <tag k="ref:vcgi:esiteid" v="104527"/>
  </node>
  <node id="-162" visible="true" lat="44.86431242" lon="-72.98683307">
    <tag k="addr:housenumber" v="101"/>
    <tag k="addr:street" v="Cottage Loop"/>
    <tag k="addr:state" v="VT"/>
    <tag k="ref:vcgi:esiteid" v="104528"/>
  </node>
  <node id="-163" visible="true" lat="44.86418151" lon="-72.99265289">
    <tag k="addr:housenumber" v="3242"/>
    <tag k="addr:street" v="Pond Road"/>
    <tag k="addr:state" v="VT"/>
    <tag k="ref:vcgi:esiteid" v="104529"/>
  </node>
  <node id="-165" visible="true" lat="44.86414993" lon="-72.97874001">
    <tag k="addr:housenumber" v="123"/>
    <tag k="addr:street" v="Bocash Road"/>
    <tag k="addr:state" v="VT"/>
    <tag k="ref:vcgi:esiteid" v="104531"/>
  </node>
  <node id="-168" visible="true" lat="44.86381972" lon="-72.97938836">
    <tag k="addr:housenumber" v="109"/>
    <tag k="addr:street" v="Dream Lake Road"/>
    <tag k="addr:state" v="VT"/>
    <tag k="ref:vcgi:esiteid" v="104534"/>
  </node>
  <node id="-169" visible="true" lat="44.86364703" lon="-72.97951036">
    <tag k="addr:housenumber" v="97"/>
    <tag k="addr:street" v="Dream Lake Road"/>
    <tag k="addr:state" v="VT"/>
    <tag k="ref:vcgi:esiteid" v="104535"/>
  </node>
  <node id="-171" visible="true" lat="44.86354609" lon="-72.97961909">
    <tag k="addr:housenumber" v="93"/>
    <tag k="addr:street" v="Dream Lake Road"/>
    <tag k="addr:state" v="VT"/>
    <tag k="ref:vcgi:esiteid" v="104537"/>
  </node>
  <node id="-172" visible="true" lat="44.86338043" lon="-72.97975921">
    <tag k="addr:housenumber" v="89"/>
    <tag k="addr:street" v="Dream Lake Road"/>
    <tag k="addr:state" v="VT"/>
    <tag k="ref:vcgi:esiteid" v="104538"/>
  </node>
  <node id="-174" visible="true" lat="44.86304251" lon="-72.98001234">
    <tag k="addr:housenumber" v="69"/>
    <tag k="addr:street" v="Dream Lake Road"/>
    <tag k="addr:state" v="VT"/>
    <tag k="ref:vcgi:esiteid" v="104540"/>
  </node>
  <node id="-177" visible="true" lat="44.86238947" lon="-72.98009857">
    <tag k="addr:housenumber" v="116"/>
    <tag k="addr:street" v="Girard Camp Road"/>
    <tag k="addr:state" v="VT"/>
    <tag k="ref:vcgi:esiteid" v="104543"/>
  </node>
  <node id="-178" visible="true" lat="44.86212983" lon="-72.9806174">
    <tag k="addr:housenumber" v="138"/>
    <tag k="addr:street" v="Girard Camp Road"/>
    <tag k="addr:state" v="VT"/>
    <tag k="ref:vcgi:esiteid" v="104544"/>
  </node>
  <node id="-181" visible="true" lat="44.86167713" lon="-72.98123241">
    <tag k="addr:housenumber" v="180"/>
    <tag k="addr:street" v="Girard Camp Road"/>
    <tag k="addr:state" v="VT"/>
    <tag k="ref:vcgi:esiteid" v="104547"/>
  </node>
  <node id="-184" visible="true" lat="44.86177062" lon="-72.97709655">
    <tag k="addr:housenumber" v="2012"/>
    <tag k="addr:street" v="Pond Road"/>
    <tag k="addr:state" v="VT"/>
    <tag k="ref:vcgi:esiteid" v="104550"/>
  </node>
  <node id="-186" visible="true" lat="44.8614932" lon="-72.98159505">
    <tag k="addr:housenumber" v="198"/>
    <tag k="addr:street" v="Girard Camp Road"/>
    <tag k="addr:state" v="VT"/>
    <tag k="ref:vcgi:esiteid" v="104552"/>
  </node>
  <node id="-188" visible="true" lat="44.8614501" lon="-72.9807261">
    <tag k="addr:housenumber" v="187"/>
    <tag k="addr:street" v="Girard Camp Road"/>
    <tag k="addr:state" v="VT"/>
    <tag k="ref:vcgi:esiteid" v="104554"/>
  </node>
  <node id="-190" visible="true" lat="44.86101913" lon="-72.98218536">
    <tag k="addr:housenumber" v="248"/>
    <tag k="addr:street" v="Girard Camp Road"/>
    <tag k="addr:state" v="VT"/>
    <tag k="ref:vcgi:esiteid" v="104556"/>
  </node>
  <node id="-192" visible="true" lat="44.86021514" lon="-72.98221658">
    <tag k="addr:housenumber" v="310"/>
    <tag k="addr:street" v="Girard Camp Road"/>
    <tag k="addr:state" v="VT"/>
    <tag k="ref:vcgi:esiteid" v="104558"/>
  </node>
  <node id="-194" visible="true" lat="44.85969161" lon="-72.99079895">
    <tag k="addr:housenumber" v="189"/>
    <tag k="addr:street" v="Lahue Road"/>
    <tag k="addr:state" v="VT"/>
    <tag k="ref:vcgi:esiteid" v="104560"/>
  </node>
  <node id="-195" visible="true" lat="44.85951614" lon="-72.99109649">
    <tag k="addr:housenumber" v="190"/>
    <tag k="addr:street" v="Lahue Road"/>
    <tag k="addr:state" v="VT"/>
    <tag k="ref:vcgi:esiteid" v="104561"/>
  </node>
  <node id="-196" visible="true" lat="44.85943984" lon="-72.99132537">
    <tag k="addr:housenumber" v="162"/>
    <tag k="addr:street" v="Lahue Road"/>
    <tag k="addr:state" v="VT"/>
    <tag k="ref:vcgi:esiteid" v="104562"/>
  </node>
  <node id="-198" visible="true" lat="44.85910817" lon="-72.99190149">
    <tag k="addr:housenumber" v="137"/>
    <tag k="addr:street" v="Lily Pad Lane"/>
    <tag k="addr:state" v="VT"/>
    <tag k="ref:vcgi:esiteid" v="104564"/>
  </node>
  <node id="-199" visible="true" lat="44.85897827" lon="-73.00506591">
    <tag k="addr:housenumber" v="4038"/>
    <tag k="addr:street" v="Pond Road"/>
    <tag k="addr:state" v="VT"/>
    <tag k="ref:vcgi:esiteid" v="104565"/>
  </node>
  <node id="-200" visible="true" lat="44.85895609" lon="-72.99213772">
    <tag k="addr:housenumber" v="136"/>
    <tag k="addr:street" v="Lily Pad Lane"/>
    <tag k="addr:state" v="VT"/>
    <tag k="ref:vcgi:esiteid" v="104566"/>
  </node>
  <node id="-202" visible="true" lat="44.85867579" lon="-72.99214707">
    <tag k="addr:housenumber" v="101"/>
    <tag k="addr:street" v="Cantell Road"/>
    <tag k="addr:state" v="VT"/>
    <tag k="ref:vcgi:esiteid" v="104568"/>
  </node>
  <node id="-203" visible="true" lat="44.85855949" lon="-72.9785914">
    <tag k="addr:housenumber" v="1799"/>
    <tag k="addr:street" v="Pond Road"/>
    <tag k="addr:state" v="VT"/>
    <tag k="ref:vcgi:esiteid" v="104569"/>
  </node>
  <node id="-204" visible="true" lat="44.85848239" lon="-73.00649742">
    <tag k="addr:housenumber" v="4112"/>
    <tag k="addr:street" v="Pond Road"/>
    <tag k="addr:state" v="VT"/>
    <tag k="ref:vcgi:esiteid" v="104570"/>
  </node>
  <node id="-206" visible="true" lat="44.8582467" lon="-72.99244811">
    <tag k="addr:housenumber" v="139"/>
    <tag k="addr:street" v="Cantell Road"/>
    <tag k="addr:state" v="VT"/>
    <tag k="ref:vcgi:esiteid" v="104572"/>
  </node>
  <node id="-208" visible="true" lat="44.85781425" lon="-72.99251953">
    <tag k="addr:housenumber" v="167"/>
    <tag k="addr:street" v="Cantell Road"/>
    <tag k="addr:state" v="VT"/>
    <tag k="ref:vcgi:esiteid" v="104574"/>
  </node>
  <node id="-209" visible="true" lat="44.85772375" lon="-72.99289981">
    <tag k="addr:housenumber" v="169"/>
    <tag k="addr:street" v="Cantell Road"/>
    <tag k="addr:state" v="VT"/>
    <tag k="ref:vcgi:esiteid" v="104575"/>
  </node>
  <node id="-210" visible="true" lat="44.8574454" lon="-72.99281578">
    <tag k="addr:housenumber" v="101"/>
    <tag k="addr:street" v="Yates Camp Road"/>
    <tag k="addr:state" v="VT"/>
    <tag k="ref:vcgi:esiteid" v="104576"/>
  </node>
  <node id="-219" visible="true" lat="44.85564041" lon="-72.99369811">
    <tag k="addr:housenumber" v="219"/>
    <tag k="addr:street" v="Yates Camp Road"/>
    <tag k="addr:state" v="VT"/>
    <tag k="ref:vcgi:esiteid" v="104585"/>
  </node>
  <node id="-237" visible="true" lat="44.85416733" lon="-72.99713393">
    <tag k="addr:housenumber" v="711"/>
    <tag k="addr:street" v="McKenzie Road"/>
    <tag k="addr:state" v="VT"/>
    <tag k="ref:vcgi:esiteid" v="104603"/>
  </node>
  <node id="-283" visible="true" lat="44.84792176" lon="-72.99950995">
    <tag k="addr:housenumber" v="1086"/>
    <tag k="addr:street" v="McKenzie Road"/>
    <tag k="addr:state" v="VT"/>
    <tag k="ref:vcgi:esiteid" v="104651"/>
  </node>
  <node id="-651" visible="true" lat="44.78534698" lon="-72.85918426">
    <!-- match: "9431 Vermont Route 36, , VT"  ignoring missing state when matching to "9431 Vermont Route 36, , " -->
    <tag k="addr:housenumber" v="9431"/>
    <tag k="addr:street" v="Vermont Route 36"/>
    <tag k="addr:state" v="VT"/>
    <tag k="ref:vcgi:esiteid" v="105035"/>
  </node>
  <node id="-655" visible="true" lat="44.78523254" lon="-72.8585205">
    <!-- match: "9461 Vermont Route 36, , VT"  ignoring missing state when matching to "9461 Vermont Route 36, , " -->
    <tag k="addr:housenumber" v="9461"/>
    <tag k="addr:street" v="Vermont Route 36"/>
    <tag k="addr:state" v="VT"/>
    <tag k="ref:vcgi:esiteid" v="105039"/>
  </node>
  <node id="-663" visible="true" lat="44.78479003" lon="-72.85825347">
    <!-- match: "9491 Vermont Route 36, , VT"  ignoring missing state when matching to "9491 Vermont Route 36, , " -->
    <tag k="addr:housenumber" v="9491"/>
    <tag k="addr:street" v="Vermont Route 36"/>
    <tag k="addr:state" v="VT"/>
    <tag k="ref:vcgi:esiteid" v="105049"/>
  </node>
  <node id="-675" visible="true" lat="44.78435126" lon="-72.85946452">
    <!-- match: "53 School Street, , VT"  ignoring missing state when matching to "53 School Street, , " -->
    <tag k="addr:housenumber" v="53"/>
    <tag k="addr:street" v="School Street"/>
    <tag k="addr:state" v="VT"/>
    <tag k="ref:vcgi:esiteid" v="105062"/>
  </node>
  <node id="-678" visible="true" lat="44.78421402" lon="-72.85826873">
    <!-- match: "9516 Vermont Route 36, , VT"  ignoring missing state when matching to "9516 Vermont Route 36, , " -->
    <tag k="addr:housenumber" v="9516"/>
    <tag k="addr:street" v="Vermont Route 36"/>
    <tag k="addr:state" v="VT"/>
    <tag k="ref:vcgi:esiteid" v="105065"/>
  </node>
  <node id="-682" visible="true" lat="44.78387758" lon="-72.85975152">
    <!-- match: "124 School Street, , VT"  ignoring missing state when matching to "124 School Street, , " -->
    <tag k="addr:housenumber" v="124"/>
    <tag k="addr:street" v="School Street"/>
    <tag k="addr:state" v="VT"/>
    <tag k="ref:vcgi:esiteid" v="105069"/>
  </node>
  <node id="-851" visible="true" lat="44.86035195" lon="-73.00729351">
    <tag k="addr:housenumber" v="4078"/>
    <tag k="addr:street" v="Pond Road"/>
    <tag k="addr:state" v="VT"/>
    <tag k="ref:vcgi:esiteid" v="254791"/>
  </node>
  <node id="-852" visible="true" lat="44.85818492" lon="-73.00742499">
    <tag k="addr:housenumber" v="4148"/>
    <tag k="addr:street" v="Pond Road"/>
    <tag k="addr:state" v="VT"/>
    <tag k="ref:vcgi:esiteid" v="254792"/>
  </node>
  <node id="-853" visible="true" lat="44.85717074" lon="-73.00721097">
    <tag k="addr:housenumber" v="4149"/>
    <tag k="addr:street" v="Pond Road"/>
    <tag k="addr:state" v="VT"/>
    <tag k="ref:vcgi:esiteid" v="257816"/>
  </node>
  <node id="-854" visible="true" lat="44.85728792" lon="-73.00884422">
    <tag k="addr:housenumber" v="4237"/>
    <tag k="addr:street" v="Pond Road"/>
    <tag k="addr:state" v="VT"/>
    <tag k="ref:vcgi:esiteid" v="258380"/>
  </node>
  <node id="-855" visible="true" lat="44.85718581" lon="-73.00794251">
    <tag k="addr:housenumber" v="11"/>
    <tag k="addr:street" v="Dorian Drive"/>
    <tag k="addr:state" v="VT"/>
    <tag k="ref:vcgi:esiteid" v="258381"/>
  </node>
  <node id="-856" visible="true" lat="44.8562629" lon="-73.00747877">
    <tag k="addr:housenumber" v="103"/>
    <tag k="addr:street" v="Dorian Drive"/>
    <tag k="addr:state" v="VT"/>
    <tag k="ref:vcgi:esiteid" v="258382"/>
  </node>
  <node id="-857" visible="true" lat="44.85561029" lon="-73.00873751">
    <tag k="addr:housenumber" v="125"/>
    <tag k="addr:street" v="Dorian Drive"/>
    <tag k="addr:state" v="VT"/>
    <tag k="ref:vcgi:esiteid" v="258383"/>
  </node>
  <node id="-877" visible="true" lat="44.86304549" lon="-72.97620232">
    <tag k="addr:housenumber" v="2088"/>
    <tag k="addr:street" v="Pond Road"/>
    <tag k="addr:state" v="VT"/>
    <tag k="ref:vcgi:esiteid" v="330855"/>
  </node>
  <node id="-926" visible="true" lat="44.85233838" lon="-73.00051294">
    <tag k="addr:housenumber" v="770"/>
    <tag k="addr:street" v="McKenzie Road"/>
    <tag k="addr:state" v="VT"/>
    <tag k="ref:vcgi:esiteid" v="332961"/>
  </node>
  <node id="-932" visible="true" lat="44.8641052" lon="-73.0018145">
    <tag k="addr:housenumber" v="3634"/>
    <tag k="addr:street" v="Pond Road"/>
    <tag k="addr:state" v="VT"/>
    <tag k="ref:vcgi:esiteid" v="332969"/>
  </node>
  <node id="-950" visible="true" lat="44.85474823" lon="-73.00534596">
    <tag k="addr:housenumber" v="4129"/>
    <tag k="addr:street" v="Pond Road"/>
    <tag k="addr:state" v="VT"/>
    <tag k="ref:vcgi:esiteid" v="333377"/>
  </node>
  <node id="-984" visible="true" lat="44.85627551" lon="-72.99299293">
    <tag k="addr:housenumber" v="209"/>
    <tag k="addr:street" v="Yates Camp Road"/>
    <tag k="addr:state" v="VT"/>
    <tag k="ref:vcgi:esiteid" v="333433"/>
  </node>
  <node id="-985" visible="true" lat="44.85554543" lon="-72.9940447">
    <tag k="addr:housenumber" v="241"/>
    <tag k="addr:street" v="Yates Camp Road"/>
    <tag k="addr:state" v="VT"/>
    <tag k="ref:vcgi:esiteid" v="333434"/>
  </node>
  <node id="-988" visible="true" lat="44.85573067" lon="-73.00752993">
    <tag k="addr:housenumber" v="121"/>
    <tag k="addr:street" v="Dorian Drive"/>
    <tag k="addr:state" v="VT"/>
    <tag k="ref:vcgi:esiteid" v="333438"/>
  </node>
  <node id="-989" visible="true" lat="44.85634361" lon="-73.00884295">
    <tag k="addr:housenumber" v="110"/>
    <tag k="addr:street" v="Dorian Drive"/>
    <tag k="addr:state" v="VT"/>
    <tag k="ref:vcgi:esiteid" v="333439"/>
  </node>
  <node id="-1019" visible="true" lat="44.85982375" lon="-72.98250428">
    <tag k="addr:housenumber" v="326"/>
    <tag k="addr:street" v="Girard Camp Road"/>
    <tag k="addr:state" v="VT"/>
    <tag k="ref:vcgi:esiteid" v="336696"/>
  </node>
  <node id="-1020" visible="true" lat="44.859551" lon="-72.98262305">
    <tag k="addr:housenumber" v="352"/>
    <tag k="addr:street" v="Girard Camp Road"/>
    <tag k="addr:state" v="VT"/>
    <tag k="ref:vcgi:esiteid" v="336697"/>
  </node>
  <node id="-1025" visible="true" lat="44.85934175" lon="-72.99164036">
    <tag k="addr:housenumber" v="147"/>
    <tag k="addr:street" v="Campers Way"/>
    <tag k="addr:state" v="VT"/>
    <tag k="ref:vcgi:esiteid" v="336750"/>
  </node>
  <node id="-1029" visible="true" lat="44.86189372" lon="-72.98084729">
    <tag k="addr:housenumber" v="164"/>
    <tag k="addr:street" v="Girard Camp Road"/>
    <tag k="addr:state" v="VT"/>
    <tag k="ref:vcgi:esiteid" v="337570"/>
  </node>
  <node id="-1033" visible="true" lat="44.86051807" lon="-72.97484621">
    <tag k="addr:housenumber" v="1958"/>
    <tag k="addr:street" v="Pond Road"/>
    <tag k="addr:state" v="VT"/>
    <tag k="ref:vcgi:esiteid" v="339210"/>
  </node>
  <node id="-1034" visible="true" lat="44.86037044" lon="-72.97686536">
    <tag k="addr:housenumber" v="1960"/>
    <tag k="addr:street" v="Pond Road"/>
    <tag k="addr:state" v="VT"/>
    <tag k="ref:vcgi:esiteid" v="339211"/>
  </node>
  <node id="-1037" visible="true" lat="44.86284781" lon="-72.97845722">
    <tag k="addr:housenumber" v="63"/>
    <tag k="addr:street" v="Dream Lake Road"/>
    <tag k="addr:state" v="VT"/>
    <tag k="ref:vcgi:esiteid" v="339421"/>
  </node>
  <node id="-1038" visible="true" lat="44.85988883" lon="-73.00634707">
    <tag k="addr:housenumber" v="4076"/>
    <tag k="addr:street" v="Pond Road"/>
    <tag k="addr:state" v="VT"/>
    <tag k="ref:vcgi:esiteid" v="339771"/>
  </node>
  <node id="-1042" visible="true" lat="44.85264128" lon="-72.99749607">
    <tag k="addr:housenumber" v="748"/>
    <tag k="addr:street" v="McKenzie Road"/>
    <tag k="addr:state" v="VT"/>
    <tag k="ref:vcgi:esiteid" v="340863"/>
  </node>
  <node id="-1098" visible="true" lat="44.85937339" lon="-72.97867447">
    <tag k="addr:housenumber" v="1831"/>
    <tag k="addr:street" v="Pond Road"/>
    <tag k="addr:state" v="VT"/>
    <tag k="ref:vcgi:esiteid" v="610438"/>
  </node>
  <node id="-1178" visible="true" lat="44.86067437" lon="-72.98228295">
    <tag k="addr:housenumber" v="304"/>
    <tag k="addr:street" v="Girard Camp Road"/>
    <tag k="addr:state" v="VT"/>
    <tag k="ref:vcgi:esiteid" v="756359"/>
  </node>
  <node id="-1185" visible="true" lat="44.86227688" lon="-73.00259146">
    <tag k="addr:housenumber" v="3708"/>
    <tag k="addr:street" v="Pond Road"/>
    <tag k="addr:state" v="VT"/>
    <tag k="ref:vcgi:esiteid" v="758949"/>
  </node>
  <node id="-1192" visible="true" lat="44.85190285" lon="-73.00107218">
    <tag k="addr:housenumber" v="772"/>
    <tag k="addr:street" v="McKenzie Road"/>
    <tag k="addr:state" v="VT"/>
    <tag k="ref:vcgi:esiteid" v="760252"/>
  </node>
  <node id="-1202" visible="true" lat="44.86251331" lon="-72.98964244">
    <tag k="addr:housenumber" v="3137"/>
    <tag k="addr:street" v="Pond Road"/>
    <tag k="addr:state" v="VT"/>
    <tag k="ref:vcgi:esiteid" v="762666"/>
  </node>
</osm>
