<?xml version="1.0" encoding="UTF-8"?>
<osm version="0.6" generator="JOSM" upload="false">
  <node id="-350" visible="true" lat="44.20866917" lon="-72.92857191">
    <tag k="addr:housenumber" v="5814"/>
    <tag k="addr:street" v="Mill Brook Road"/>
    <tag k="addr:state" v="VT"/>
    <tag k="ref:vcgi:esiteid" v="106176"/>
  </node>
  <node id="-353" visible="true" lat="44.20798155" lon="-72.92719109">
    <tag k="addr:housenumber" v="5712"/>
    <tag k="addr:street" v="Mill Brook Road"/>
    <tag k="addr:state" v="VT"/>
    <tag k="ref:vcgi:esiteid" v="106179"/>
  </node>
  <node id="-354" visible="true" lat="44.20794219" lon="-72.92773864">
    <tag k="addr:housenumber" v="5708"/>
    <tag k="addr:street" v="Mill Brook Road"/>
    <tag k="addr:state" v="VT"/>
    <tag k="ref:vcgi:esiteid" v="106180"/>
  </node>
  <node id="-359" visible="true" lat="44.20704087" lon="-72.9264081">
    <tag k="addr:housenumber" v="5643"/>
    <tag k="addr:street" v="Mill Brook Road"/>
    <tag k="addr:state" v="VT"/>
    <tag k="ref:vcgi:esiteid" v="106185"/>
  </node>
  <node id="-360" visible="true" lat="44.20713389" lon="-72.92697422">
    <tag k="addr:housenumber" v="5645"/>
    <tag k="addr:street" v="Mill Brook Road"/>
    <tag k="addr:state" v="VT"/>
    <tag k="ref:vcgi:esiteid" v="106186"/>
  </node>
  <node id="-363" visible="true" lat="44.20670136" lon="-72.92617232">
    <tag k="addr:housenumber" v="30"/>
    <tag k="addr:street" v="Upper Mountain"/>
    <tag k="addr:state" v="VT"/>
    <tag k="ref:vcgi:esiteid" v="106189"/>
  </node>
  <node id="-364" visible="true" lat="44.20647026" lon="-72.92542728">
    <tag k="addr:housenumber" v="68"/>
    <tag k="addr:street" v="Upper Mountain"/>
    <tag k="addr:state" v="VT"/>
    <tag k="ref:vcgi:esiteid" v="106190"/>
  </node>
  <node id="-365" visible="true" lat="44.20640803" lon="-72.91747645">
    <tag k="addr:housenumber" v="5028"/>
    <tag k="addr:street" v="Mill Brook Road"/>
    <tag k="addr:state" v="VT"/>
    <tag k="ref:vcgi:esiteid" v="106191"/>
  </node>
  <node id="-366" visible="true" lat="44.20616912" lon="-72.92479705">
    <tag k="addr:housenumber" v="78"/>
    <tag k="addr:street" v="Upper Mountain"/>
    <tag k="addr:state" v="VT"/>
    <tag k="ref:vcgi:esiteid" v="106192"/>
  </node>
  <node id="-367" visible="true" lat="44.2061865" lon="-72.92411555">
    <tag k="addr:housenumber" v="129"/>
    <tag k="addr:street" v="Upper Mountain"/>
    <tag k="addr:state" v="VT"/>
    <tag k="ref:vcgi:esiteid" v="106193"/>
  </node>
  <node id="-368" visible="true" lat="44.20631142" lon="-72.92206398">
    <tag k="addr:housenumber" v="5240"/>
    <tag k="addr:street" v="Mill Brook Road"/>
    <tag k="addr:state" v="VT"/>
    <tag k="ref:vcgi:esiteid" v="106194"/>
  </node>
  <node id="-371" visible="true" lat="44.2058714" lon="-72.92348111">
    <tag k="addr:housenumber" v="5497"/>
    <tag k="addr:street" v="Mill Brook Road"/>
    <tag k="addr:state" v="VT"/>
    <tag k="ref:vcgi:esiteid" v="106197"/>
  </node>
  <node id="-372" visible="true" lat="44.20588573" lon="-72.92006794">
    <tag k="addr:housenumber" v="49"/>
    <tag k="addr:street" v="Ridge Road"/>
    <tag k="addr:state" v="VT"/>
    <tag k="ref:vcgi:esiteid" v="106198"/>
  </node>
  <node id="-375" visible="true" lat="44.20574338" lon="-72.92423661">
    <tag k="addr:housenumber" v="149"/>
    <tag k="addr:street" v="Upper Mountain"/>
    <tag k="addr:state" v="VT"/>
    <tag k="ref:vcgi:esiteid" v="106201"/>
  </node>
  <node id="-376" visible="true" lat="44.20575474" lon="-72.91957717">
    <tag k="addr:housenumber" v="83"/>
    <tag k="addr:street" v="Ridge Road"/>
    <tag k="addr:state" v="VT"/>
    <tag k="ref:vcgi:esiteid" v="106202"/>
  </node>
  <node id="-377" visible="true" lat="44.20546458" lon="-72.91874218">
    <tag k="addr:housenumber" v="117"/>
    <tag k="addr:street" v="Ridge Road"/>
    <tag k="addr:state" v="VT"/>
    <tag k="ref:vcgi:esiteid" v="106203"/>
  </node>
  <node id="-378" visible="true" lat="44.2053562" lon="-72.91940308">
    <tag k="addr:housenumber" v="92"/>
    <tag k="addr:street" v="Ridge Road"/>
    <tag k="addr:state" v="VT"/>
    <tag k="ref:vcgi:esiteid" v="106204"/>
  </node>
  <node id="-379" visible="true" lat="44.20523655" lon="-72.91813517">
    <tag k="addr:housenumber" v="139"/>
    <tag k="addr:street" v="Ridge Road"/>
    <tag k="addr:state" v="VT"/>
    <tag k="ref:vcgi:esiteid" v="106205"/>
  </node>
  <node id="-381" visible="true" lat="44.20538121" lon="-72.91988721">
    <tag k="addr:housenumber" v="30"/>
    <tag k="addr:street" v="Ridge Road"/>
    <tag k="addr:state" v="VT"/>
    <tag k="ref:vcgi:esiteid" v="106207"/>
  </node>
  <node id="-382" visible="true" lat="44.2050824" lon="-72.92107614">
    <tag k="addr:housenumber" v="5211"/>
    <tag k="addr:street" v="Mill Brook Road"/>
    <tag k="addr:state" v="VT"/>
    <tag k="ref:vcgi:esiteid" v="106208"/>
  </node>
  <node id="-383" visible="true" lat="44.20513143" lon="-72.92199004">
    <tag k="addr:housenumber" v="5338"/>
    <tag k="addr:street" v="Mill Brook Road"/>
    <tag k="addr:state" v="VT"/>
    <tag k="ref:vcgi:esiteid" v="106209"/>
  </node>
  <node id="-384" visible="true" lat="44.2050495" lon="-72.91905496">
    <tag k="addr:housenumber" v="132"/>
    <tag k="addr:street" v="Ridge Road"/>
    <tag k="addr:state" v="VT"/>
    <tag k="ref:vcgi:esiteid" v="106210"/>
  </node>
  <node id="-385" visible="true" lat="44.20485687" lon="-72.91755676">
    <tag k="addr:housenumber" v="185"/>
    <tag k="addr:street" v="Ridge Road"/>
    <tag k="addr:state" v="VT"/>
    <tag k="ref:vcgi:esiteid" v="106211"/>
  </node>
  <node id="-388" visible="true" lat="44.20483803" lon="-72.92104678">
    <tag k="addr:housenumber" v="5207"/>
    <tag k="addr:street" v="Mill Brook Road"/>
    <tag k="addr:state" v="VT"/>
    <tag k="ref:vcgi:esiteid" v="106214"/>
  </node>
  <node id="-391" visible="true" lat="44.20459353" lon="-72.92158093">
    <tag k="addr:housenumber" v="5325"/>
    <tag k="addr:street" v="Mill Brook Road"/>
    <tag k="addr:state" v="VT"/>
    <tag k="ref:vcgi:esiteid" v="106217"/>
  </node>
  <node id="-392" visible="true" lat="44.2046372" lon="-72.90430581">
    <tag k="addr:housenumber" v="3856"/>
    <tag k="addr:street" v="Mill Brook Road"/>
    <tag k="addr:state" v="VT"/>
    <tag k="ref:vcgi:esiteid" v="106218"/>
  </node>
  <node id="-393" visible="true" lat="44.20444234" lon="-72.9048456">
    <tag k="addr:housenumber" v="3888"/>
    <tag k="addr:street" v="Mill Brook Road"/>
    <tag k="addr:state" v="VT"/>
    <tag k="ref:vcgi:esiteid" v="106219"/>
  </node>
  <node id="-395" visible="true" lat="44.20446117" lon="-72.90573726">
    <tag k="addr:housenumber" v="3948"/>
    <tag k="addr:street" v="Mill Brook Road"/>
    <tag k="addr:state" v="VT"/>
    <tag k="ref:vcgi:esiteid" v="106221"/>
  </node>
  <node id="-396" visible="true" lat="44.20443212" lon="-72.90669937">
    <tag k="addr:housenumber" v="3984"/>
    <tag k="addr:street" v="Mill Brook Road"/>
    <tag k="addr:state" v="VT"/>
    <tag k="ref:vcgi:esiteid" v="106222"/>
  </node>
  <node id="-398" visible="true" lat="44.20428658" lon="-72.908587">
    <tag k="addr:housenumber" v="4072"/>
    <tag k="addr:street" v="Mill Brook Road"/>
    <tag k="addr:state" v="VT"/>
    <tag k="ref:vcgi:esiteid" v="106224"/>
  </node>
  <node id="-401" visible="true" lat="44.20365065" lon="-72.9140637">
    <tag k="addr:housenumber" v="4791"/>
    <tag k="addr:street" v="Mill Brook Road"/>
    <tag k="addr:state" v="VT"/>
    <tag k="ref:vcgi:esiteid" v="106227"/>
  </node>
  <node id="-404" visible="true" lat="44.20324518" lon="-72.91801377">
    <tag k="addr:housenumber" v="4591"/>
    <tag k="addr:street" v="Mill Brook Road"/>
    <tag k="addr:state" v="VT"/>
    <tag k="ref:vcgi:esiteid" v="106230"/>
  </node>
  <node id="-406" visible="true" lat="44.20307853" lon="-72.91700116">
    <tag k="addr:housenumber" v="4595"/>
    <tag k="addr:street" v="Mill Brook Road"/>
    <tag k="addr:state" v="VT"/>
    <tag k="ref:vcgi:esiteid" v="106232"/>
  </node>
  <node id="-407" visible="true" lat="44.20305996" lon="-72.91630218">
    <tag k="addr:housenumber" v="4615"/>
    <tag k="addr:street" v="Mill Brook Road"/>
    <tag k="addr:state" v="VT"/>
    <tag k="ref:vcgi:esiteid" v="106233"/>
  </node>
  <node id="-409" visible="true" lat="44.20286278" lon="-72.91682181">
    <tag k="addr:housenumber" v="4593"/>
    <tag k="addr:street" v="Mill Brook Road"/>
    <tag k="addr:state" v="VT"/>
    <tag k="ref:vcgi:esiteid" v="106235"/>
  </node>
  <node id="-412" visible="true" lat="44.20274378" lon="-72.91479812">
    <tag k="addr:housenumber" v="4680"/>
    <tag k="addr:street" v="Mill Brook Road"/>
    <tag k="addr:state" v="VT"/>
    <tag k="ref:vcgi:esiteid" v="106238"/>
  </node>
  <node id="-413" visible="true" lat="44.20269334" lon="-72.91065719">
    <tag k="addr:housenumber" v="4236"/>
    <tag k="addr:street" v="Mill Brook Road"/>
    <tag k="addr:state" v="VT"/>
    <tag k="ref:vcgi:esiteid" v="106239"/>
  </node>
  <node id="-414" visible="true" lat="44.20258435" lon="-72.91713698">
    <tag k="addr:housenumber" v="4583"/>
    <tag k="addr:street" v="Mill Brook Road"/>
    <tag k="addr:state" v="VT"/>
    <tag k="ref:vcgi:esiteid" v="106240"/>
  </node>
  <node id="-415" visible="true" lat="44.20260151" lon="-72.91511987">
    <tag k="addr:housenumber" v="4664"/>
    <tag k="addr:street" v="Mill Brook Road"/>
    <tag k="addr:state" v="VT"/>
    <tag k="ref:vcgi:esiteid" v="106241"/>
  </node>
  <node id="-419" visible="true" lat="44.20248286" lon="-72.89413674">
    <tag k="addr:housenumber" v="4645"/>
    <tag k="addr:street" v="Battleground"/>
    <tag k="addr:state" v="VT"/>
    <tag k="ref:vcgi:esiteid" v="106245"/>
  </node>
  <node id="-420" visible="true" lat="44.20242747" lon="-72.91485282">
    <tag k="addr:housenumber" v="4466"/>
    <tag k="addr:street" v="Mill Brook Road"/>
    <tag k="addr:state" v="VT"/>
    <tag k="ref:vcgi:esiteid" v="106246"/>
  </node>
  <node id="-422" visible="true" lat="44.20217923" lon="-72.91774169">
    <tag k="addr:housenumber" v="65"/>
    <tag k="addr:street" v="Mad River Resort Road"/>
    <tag k="addr:state" v="VT"/>
    <tag k="ref:vcgi:esiteid" v="106248"/>
  </node>
  <node id="-426" visible="true" lat="44.2024334" lon="-72.91158039">
    <tag k="addr:housenumber" v="4314"/>
    <tag k="addr:street" v="Mill Brook Road"/>
    <tag k="addr:state" v="VT"/>
    <tag k="ref:vcgi:esiteid" v="106252"/>
  </node>
  <node id="-428" visible="true" lat="44.20231523" lon="-72.91942864">
    <tag k="addr:housenumber" v="136"/>
    <tag k="addr:street" v="Mad River Resort Road"/>
    <tag k="addr:state" v="VT"/>
    <tag k="ref:vcgi:esiteid" v="106254"/>
  </node>
  <node id="-429" visible="true" lat="44.20213362" lon="-72.91936827">
    <tag k="addr:housenumber" v="133"/>
    <tag k="addr:street" v="Mad River Resort Road"/>
    <tag k="addr:state" v="VT"/>
    <tag k="ref:vcgi:esiteid" v="106255"/>
  </node>
  <node id="-430" visible="true" lat="44.20243241" lon="-72.89486835">
    <tag k="addr:housenumber" v="4643"/>
    <tag k="addr:street" v="Battleground"/>
    <tag k="addr:state" v="VT"/>
    <tag k="ref:vcgi:esiteid" v="106256"/>
  </node>
  <node id="-431" visible="true" lat="44.20228104" lon="-72.91423071">
    <tag k="addr:housenumber" v="4428"/>
    <tag k="addr:street" v="Mill Brook Road"/>
    <tag k="addr:state" v="VT"/>
    <tag k="ref:vcgi:esiteid" v="106257"/>
  </node>
  <node id="-432" visible="true" lat="44.20217449" lon="-72.91333415">
    <tag k="addr:housenumber" v="4386"/>
    <tag k="addr:street" v="Mill Brook Road"/>
    <tag k="addr:state" v="VT"/>
    <tag k="ref:vcgi:esiteid" v="106258"/>
  </node>
  <node id="-433" visible="true" lat="44.20221878" lon="-72.91460299">
    <tag k="addr:housenumber" v="4454"/>
    <tag k="addr:street" v="Mill Brook Road"/>
    <tag k="addr:state" v="VT"/>
    <tag k="ref:vcgi:esiteid" v="106259"/>
  </node>
  <node id="-434" visible="true" lat="44.2021441" lon="-72.89428677">
    <tag k="addr:housenumber" v="4647"/>
    <tag k="addr:street" v="Battleground"/>
    <tag k="addr:state" v="VT"/>
    <tag k="ref:vcgi:esiteid" v="106260"/>
  </node>
  <node id="-435" visible="true" lat="44.20220116" lon="-72.91271706">
    <tag k="addr:housenumber" v="4354"/>
    <tag k="addr:street" v="Mill Brook Road"/>
    <tag k="addr:state" v="VT"/>
    <tag k="ref:vcgi:esiteid" v="106261"/>
  </node>
  <node id="-437" visible="true" lat="44.20204632" lon="-72.91721247">
    <tag k="addr:housenumber" v="57"/>
    <tag k="addr:street" v="Schuss Pass"/>
    <tag k="addr:state" v="VT"/>
    <tag k="ref:vcgi:esiteid" v="106263"/>
  </node>
  <node id="-438" visible="true" lat="44.2018368" lon="-72.8943066">
    <tag k="addr:housenumber" v="4649"/>
    <tag k="addr:street" v="Battleground"/>
    <tag k="addr:state" v="VT"/>
    <tag k="ref:vcgi:esiteid" v="106264"/>
  </node>
  <node id="-440" visible="true" lat="44.20204363" lon="-72.89379046">
    <tag k="addr:housenumber" v="4631"/>
    <tag k="addr:street" v="Battleground"/>
    <tag k="addr:state" v="VT"/>
    <tag k="ref:vcgi:esiteid" v="106266"/>
  </node>
  <node id="-441" visible="true" lat="44.20195674" lon="-72.89477341">
    <tag k="addr:housenumber" v="4639"/>
    <tag k="addr:street" v="Battleground"/>
    <tag k="addr:state" v="VT"/>
    <tag k="ref:vcgi:esiteid" v="106267"/>
  </node>
  <node id="-444" visible="true" lat="44.20180772" lon="-72.91666926">
    <tag k="addr:housenumber" v="87"/>
    <tag k="addr:street" v="Schuss Pass"/>
    <tag k="addr:state" v="VT"/>
    <tag k="ref:vcgi:esiteid" v="106270"/>
  </node>
  <node id="-445" visible="true" lat="44.20188302" lon="-72.8875081">
    <tag k="addr:housenumber" v="643"/>
    <tag k="addr:street" v="Mansfield Road"/>
    <tag k="addr:state" v="VT"/>
    <tag k="ref:vcgi:esiteid" v="106271"/>
  </node>
  <node id="-446" visible="true" lat="44.20157123" lon="-72.91512069">
    <tag k="addr:housenumber" v="4477"/>
    <tag k="addr:street" v="Mill Brook Road"/>
    <tag k="addr:state" v="VT"/>
    <tag k="ref:vcgi:esiteid" v="106272"/>
  </node>
  <node id="-448" visible="true" lat="44.20158019" lon="-72.89484765">
    <tag k="addr:housenumber" v="4637"/>
    <tag k="addr:street" v="Battleground"/>
    <tag k="addr:state" v="VT"/>
    <tag k="ref:vcgi:esiteid" v="106274"/>
  </node>
  <node id="-449" visible="true" lat="44.20166668" lon="-72.89329983">
    <tag k="addr:housenumber" v="4699"/>
    <tag k="addr:street" v="Battleground"/>
    <tag k="addr:state" v="VT"/>
    <tag k="ref:vcgi:esiteid" v="106275"/>
  </node>
  <node id="-450" visible="true" lat="44.20142251" lon="-72.89467118">
    <tag k="addr:housenumber" v="4633"/>
    <tag k="addr:street" v="Battleground"/>
    <tag k="addr:state" v="VT"/>
    <tag k="ref:vcgi:esiteid" v="106276"/>
  </node>
  <node id="-451" visible="true" lat="44.2016054" lon="-72.9162845">
    <tag k="addr:housenumber" v="105"/>
    <tag k="addr:street" v="Schuss Pass"/>
    <tag k="addr:state" v="VT"/>
    <tag k="ref:vcgi:esiteid" v="106277"/>
  </node>
  <node id="-452" visible="true" lat="44.20161783" lon="-72.89389309">
    <tag k="addr:housenumber" v="4629"/>
    <tag k="addr:street" v="Battleground"/>
    <tag k="addr:state" v="VT"/>
    <tag k="ref:vcgi:esiteid" v="106278"/>
  </node>
  <node id="-453" visible="true" lat="44.20148197" lon="-72.91668748">
    <tag k="addr:housenumber" v="106"/>
    <tag k="addr:street" v="Schuss Pass"/>
    <tag k="addr:state" v="VT"/>
    <tag k="ref:vcgi:esiteid" v="106279"/>
  </node>
  <node id="-454" visible="true" lat="44.20131557" lon="-72.89345927">
    <tag k="addr:housenumber" v="4627"/>
    <tag k="addr:street" v="Battleground"/>
    <tag k="addr:state" v="VT"/>
    <tag k="ref:vcgi:esiteid" v="106280"/>
  </node>
  <node id="-455" visible="true" lat="44.20111887" lon="-72.89348304">
    <tag k="addr:housenumber" v="4625"/>
    <tag k="addr:street" v="Battleground"/>
    <tag k="addr:state" v="VT"/>
    <tag k="ref:vcgi:esiteid" v="106281"/>
  </node>
  <node id="-456" visible="true" lat="44.20132948" lon="-72.9138096">
    <tag k="addr:housenumber" v="263"/>
    <tag k="addr:street" v="Schuss Pass"/>
    <tag k="addr:state" v="VT"/>
    <tag k="ref:vcgi:esiteid" v="106282"/>
  </node>
  <node id="-457" visible="true" lat="44.20132204" lon="-72.91585956">
    <tag k="addr:housenumber" v="137"/>
    <tag k="addr:street" v="Schuss Pass"/>
    <tag k="addr:state" v="VT"/>
    <tag k="ref:vcgi:esiteid" v="106283"/>
  </node>
  <node id="-458" visible="true" lat="44.20122146" lon="-72.89439392">
    <tag k="addr:housenumber" v="4621"/>
    <tag k="addr:street" v="Battleground"/>
    <tag k="addr:state" v="VT"/>
    <tag k="ref:vcgi:esiteid" v="106284"/>
  </node>
  <node id="-460" visible="true" lat="44.20136673" lon="-72.91432189">
    <tag k="addr:housenumber" v="235"/>
    <tag k="addr:street" v="Schuss Pass"/>
    <tag k="addr:state" v="VT"/>
    <tag k="ref:vcgi:esiteid" v="106286"/>
  </node>
  <node id="-461" visible="true" lat="44.20132898" lon="-72.9133548">
    <tag k="addr:housenumber" v="281"/>
    <tag k="addr:street" v="Schuss Pass"/>
    <tag k="addr:state" v="VT"/>
    <tag k="ref:vcgi:esiteid" v="106287"/>
  </node>
  <node id="-464" visible="true" lat="44.20121124" lon="-72.915118">
    <tag k="addr:housenumber" v="189"/>
    <tag k="addr:street" v="Schuss Pass"/>
    <tag k="addr:state" v="VT"/>
    <tag k="ref:vcgi:esiteid" v="106290"/>
  </node>
  <node id="-465" visible="true" lat="44.20096331" lon="-72.91410802">
    <tag k="addr:housenumber" v="242"/>
    <tag k="addr:street" v="Schuss Pass"/>
    <tag k="addr:state" v="VT"/>
    <tag k="ref:vcgi:esiteid" v="106291"/>
  </node>
  <node id="-466" visible="true" lat="44.20078585" lon="-72.91374591">
    <tag k="addr:housenumber" v="260"/>
    <tag k="addr:street" v="Schuss Pass"/>
    <tag k="addr:state" v="VT"/>
    <tag k="ref:vcgi:esiteid" v="106292"/>
  </node>
  <node id="-468" visible="true" lat="44.20094956" lon="-72.91604326">
    <tag k="addr:housenumber" v="140"/>
    <tag k="addr:street" v="Schuss Pass"/>
    <tag k="addr:state" v="VT"/>
    <tag k="ref:vcgi:esiteid" v="106294"/>
  </node>
  <node id="-470" visible="true" lat="44.20086725" lon="-72.91458925">
    <tag k="addr:housenumber" v="214"/>
    <tag k="addr:street" v="Schuss Pass"/>
    <tag k="addr:state" v="VT"/>
    <tag k="ref:vcgi:esiteid" v="106296"/>
  </node>
  <node id="-471" visible="true" lat="44.20086691" lon="-72.91522316">
    <tag k="addr:housenumber" v="186"/>
    <tag k="addr:street" v="Schuss Pass"/>
    <tag k="addr:state" v="VT"/>
    <tag k="ref:vcgi:esiteid" v="106297"/>
  </node>
  <node id="-472" visible="true" lat="44.200755" lon="-72.91011037">
    <tag k="addr:housenumber" v="423"/>
    <tag k="addr:street" v="Schuss Pass"/>
    <tag k="addr:state" v="VT"/>
    <tag k="ref:vcgi:esiteid" v="106298"/>
  </node>
  <node id="-473" visible="true" lat="44.20092858" lon="-72.91134132">
    <tag k="addr:housenumber" v="371"/>
    <tag k="addr:street" v="Schuss Pass"/>
    <tag k="addr:state" v="VT"/>
    <tag k="ref:vcgi:esiteid" v="106299"/>
  </node>
  <node id="-474" visible="true" lat="44.20081479" lon="-72.9134143">
    <tag k="addr:housenumber" v="99"/>
    <tag k="addr:street" v="Loop Road"/>
    <tag k="addr:state" v="VT"/>
    <tag k="ref:vcgi:esiteid" v="106300"/>
  </node>
  <node id="-475" visible="true" lat="44.20083265" lon="-72.88912741">
    <tag k="addr:housenumber" v="549"/>
    <tag k="addr:street" v="Mansfield Road"/>
    <tag k="addr:state" v="VT"/>
    <tag k="ref:vcgi:esiteid" v="106301"/>
  </node>
  <node id="-478" visible="true" lat="44.2006521" lon="-72.91238756">
    <tag k="addr:housenumber" v="336"/>
    <tag k="addr:street" v="Schuss Pass"/>
    <tag k="addr:state" v="VT"/>
    <tag k="ref:vcgi:esiteid" v="106304"/>
  </node>
  <node id="-480" visible="true" lat="44.20058694" lon="-72.91191896">
    <tag k="addr:housenumber" v="348"/>
    <tag k="addr:street" v="Schuss Pass"/>
    <tag k="addr:state" v="VT"/>
    <tag k="ref:vcgi:esiteid" v="106306"/>
  </node>
  <node id="-481" visible="true" lat="44.20038541" lon="-72.89300171">
    <tag k="addr:housenumber" v="4618"/>
    <tag k="addr:street" v="Battleground"/>
    <tag k="addr:state" v="VT"/>
    <tag k="ref:vcgi:esiteid" v="106307"/>
  </node>
  <node id="-482" visible="true" lat="44.20043031" lon="-72.91300345">
    <tag k="addr:housenumber" v="100"/>
    <tag k="addr:street" v="Loop Road"/>
    <tag k="addr:state" v="VT"/>
    <tag k="ref:vcgi:esiteid" v="106308"/>
  </node>
  <node id="-483" visible="true" lat="44.20037266" lon="-72.91422307">
    <tag k="addr:housenumber" v="64"/>
    <tag k="addr:street" v="Loop Road"/>
    <tag k="addr:state" v="VT"/>
    <tag k="ref:vcgi:esiteid" v="106309"/>
  </node>
  <node id="-484" visible="true" lat="44.20041129" lon="-72.91351422">
    <tag k="addr:housenumber" v="84"/>
    <tag k="addr:street" v="Loop Road"/>
    <tag k="addr:state" v="VT"/>
    <tag k="ref:vcgi:esiteid" v="106310"/>
  </node>
  <node id="-490" visible="true" lat="44.20026488" lon="-72.8882349">
    <tag k="addr:housenumber" v="598"/>
    <tag k="addr:street" v="Mansfield Road"/>
    <tag k="addr:state" v="VT"/>
    <tag k="ref:vcgi:esiteid" v="106316"/>
  </node>
  <node id="-491" visible="true" lat="44.20047259" lon="-72.88656095">
    <tag k="addr:housenumber" v="612"/>
    <tag k="addr:street" v="Mansfield Road"/>
    <tag k="addr:state" v="VT"/>
    <tag k="ref:vcgi:esiteid" v="106317"/>
  </node>
  <node id="-492" visible="true" lat="44.20032944" lon="-72.89005118">
    <tag k="addr:housenumber" v="68"/>
    <tag k="addr:street" v="Cabin Lane"/>
    <tag k="addr:state" v="VT"/>
    <tag k="ref:vcgi:esiteid" v="106318"/>
  </node>
  <node id="-493" visible="true" lat="44.20121863" lon="-72.91747412">
    <tag k="addr:housenumber" v="74"/>
    <tag k="addr:street" v="Schuss Pass"/>
    <tag k="addr:state" v="VT"/>
    <tag k="ref:vcgi:esiteid" v="106319"/>
  </node>
  <node id="-496" visible="true" lat="44.20022144" lon="-72.88917317">
    <tag k="addr:housenumber" v="552"/>
    <tag k="addr:street" v="Mansfield Road"/>
    <tag k="addr:state" v="VT"/>
    <tag k="ref:vcgi:esiteid" v="106322"/>
  </node>
  <node id="-499" visible="true" lat="44.19996868" lon="-72.89034708">
    <tag k="addr:housenumber" v="53"/>
    <tag k="addr:street" v="Cabin Lane"/>
    <tag k="addr:state" v="VT"/>
    <tag k="ref:vcgi:esiteid" v="106325"/>
  </node>
  <node id="-501" visible="true" lat="44.19962626" lon="-72.89352995">
    <tag k="addr:housenumber" v="1256"/>
    <tag k="addr:street" v="Battleground"/>
    <tag k="addr:state" v="VT"/>
    <tag k="ref:vcgi:esiteid" v="106327"/>
  </node>
  <node id="-504" visible="true" lat="44.19942792" lon="-72.88968606">
    <tag k="addr:housenumber" v="7"/>
    <tag k="addr:street" v="Cabin Lane"/>
    <tag k="addr:state" v="VT"/>
    <tag k="ref:vcgi:esiteid" v="106330"/>
  </node>
  <node id="-506" visible="true" lat="44.19948201" lon="-72.88518135">
    <tag k="addr:housenumber" v="53"/>
    <tag k="addr:street" v="Henrys Way"/>
    <tag k="addr:state" v="VT"/>
    <tag k="ref:vcgi:esiteid" v="106332"/>
  </node>
  <node id="-509" visible="true" lat="44.19926016" lon="-72.89349231">
    <tag k="addr:housenumber" v="1258"/>
    <tag k="addr:street" v="Battleground"/>
    <tag k="addr:state" v="VT"/>
    <tag k="ref:vcgi:esiteid" v="106335"/>
  </node>
  <node id="-510" visible="true" lat="44.19898822" lon="-72.89373941">
    <tag k="addr:housenumber" v="1262"/>
    <tag k="addr:street" v="Battleground"/>
    <tag k="addr:state" v="VT"/>
    <tag k="ref:vcgi:esiteid" v="106336"/>
  </node>
  <node id="-512" visible="true" lat="44.19903707" lon="-72.88903241">
    <tag k="addr:housenumber" v="437"/>
    <tag k="addr:street" v="Mansfield Road"/>
    <tag k="addr:state" v="VT"/>
    <tag k="ref:vcgi:esiteid" v="106338"/>
  </node>
  <node id="-514" visible="true" lat="44.19879962" lon="-72.88837748">
    <tag k="addr:housenumber" v="383"/>
    <tag k="addr:street" v="Mansfield Road"/>
    <tag k="addr:state" v="VT"/>
    <tag k="ref:vcgi:esiteid" v="106340"/>
  </node>
  <node id="-515" visible="true" lat="44.19815357" lon="-72.88598315">
    <tag k="addr:housenumber" v="88"/>
    <tag k="addr:street" v="Henrys Way"/>
    <tag k="addr:state" v="VT"/>
    <tag k="ref:vcgi:esiteid" v="106341"/>
  </node>
  <node id="-516" visible="true" lat="44.19853412" lon="-72.8864265">
    <tag k="addr:housenumber" v="352"/>
    <tag k="addr:street" v="Mansfield Road"/>
    <tag k="addr:state" v="VT"/>
    <tag k="ref:vcgi:esiteid" v="106342"/>
  </node>
  <node id="-517" visible="true" lat="44.19770143" lon="-72.88550233">
    <tag k="addr:housenumber" v="112"/>
    <tag k="addr:street" v="Henrys Way"/>
    <tag k="addr:state" v="VT"/>
    <tag k="ref:vcgi:esiteid" v="106343"/>
  </node>
  <node id="-519" visible="true" lat="44.19804702" lon="-72.88664245">
    <tag k="addr:housenumber" v="312"/>
    <tag k="addr:street" v="Mansfield Road"/>
    <tag k="addr:state" v="VT"/>
    <tag k="ref:vcgi:esiteid" v="106345"/>
  </node>
  <node id="-521" visible="true" lat="44.19817921" lon="-72.88446176">
    <tag k="addr:housenumber" v="39"/>
    <tag k="addr:street" v="Wild Turkey Lane"/>
    <tag k="addr:state" v="VT"/>
    <tag k="ref:vcgi:esiteid" v="106347"/>
  </node>
  <node id="-523" visible="true" lat="44.19744899" lon="-72.88702656">
    <tag k="addr:housenumber" v="252"/>
    <tag k="addr:street" v="Mansfield Road"/>
    <tag k="addr:state" v="VT"/>
    <tag k="ref:vcgi:esiteid" v="106349"/>
  </node>
  <node id="-525" visible="true" lat="44.19665461" lon="-72.8927001">
    <tag k="addr:housenumber" v="2893"/>
    <tag k="addr:street" v="Mill Brook Road"/>
    <tag k="addr:state" v="VT"/>
    <tag k="ref:vcgi:esiteid" v="106351"/>
  </node>
  <node id="-528" visible="true" lat="44.19615961" lon="-72.88724288">
    <tag k="addr:housenumber" v="151"/>
    <tag k="addr:street" v="Mansfield Road"/>
    <tag k="addr:state" v="VT"/>
    <tag k="ref:vcgi:esiteid" v="106354"/>
  </node>
  <node id="-530" visible="true" lat="44.19590046" lon="-72.8884573">
    <tag k="addr:housenumber" v="273"/>
    <tag k="addr:street" v="Old Mansfield Road"/>
    <tag k="addr:state" v="VT"/>
    <tag k="ref:vcgi:esiteid" v="106356"/>
  </node>
  <node id="-533" visible="true" lat="44.19530588" lon="-72.88812339">
    <tag k="addr:housenumber" v="237"/>
    <tag k="addr:street" v="Old Mansfield Road"/>
    <tag k="addr:state" v="VT"/>
    <tag k="ref:vcgi:esiteid" v="106360"/>
  </node>
  <node id="-535" visible="true" lat="44.19485637" lon="-72.89018754">
    <tag k="addr:housenumber" v="2770"/>
    <tag k="addr:street" v="Mill Brook Road"/>
    <tag k="addr:state" v="VT"/>
    <tag k="ref:vcgi:esiteid" v="106362"/>
  </node>
  <node id="-539" visible="true" lat="44.19420127" lon="-72.8894726">
    <tag k="addr:housenumber" v="2712"/>
    <tag k="addr:street" v="Mill Brook Road"/>
    <tag k="addr:state" v="VT"/>
    <tag k="ref:vcgi:esiteid" v="106367"/>
  </node>
  <node id="-545" visible="true" lat="44.19368479" lon="-72.88895471">
    <tag k="addr:housenumber" v="2640"/>
    <tag k="addr:street" v="Mill Brook Road"/>
    <tag k="addr:state" v="VT"/>
    <tag k="ref:vcgi:esiteid" v="106374"/>
  </node>
  <node id="-546" visible="true" lat="44.19343692" lon="-72.88878153">
    <tag k="addr:housenumber" v="2636"/>
    <tag k="addr:street" v="Mill Brook Road"/>
    <tag k="addr:state" v="VT"/>
    <tag k="ref:vcgi:esiteid" v="106375"/>
  </node>
  <node id="-548" visible="true" lat="44.19354564" lon="-72.89158485">
    <tag k="addr:housenumber" v="2761"/>
    <tag k="addr:street" v="Mill Brook Road"/>
    <tag k="addr:state" v="VT"/>
    <tag k="ref:vcgi:esiteid" v="106377"/>
  </node>
  <node id="-554" visible="true" lat="44.19226053" lon="-72.88310662">
    <tag k="addr:housenumber" v="97"/>
    <tag k="addr:street" v="Pleasant Lane"/>
    <tag k="addr:state" v="VT"/>
    <tag k="ref:vcgi:esiteid" v="106383"/>
  </node>
  <node id="-556" visible="true" lat="44.19177086" lon="-72.88438874">
    <tag k="addr:housenumber" v="2370"/>
    <tag k="addr:street" v="Mill Brook Road"/>
    <tag k="addr:state" v="VT"/>
    <tag k="ref:vcgi:esiteid" v="106385"/>
  </node>
  <node id="-557" visible="true" lat="44.19167309" lon="-72.88311569">
    <tag k="addr:housenumber" v="146"/>
    <tag k="addr:street" v="Pleasant Lane"/>
    <tag k="addr:state" v="VT"/>
    <tag k="ref:vcgi:esiteid" v="106386"/>
  </node>
  <node id="-560" visible="true" lat="44.19118565" lon="-72.88387146">
    <tag k="addr:housenumber" v="2354"/>
    <tag k="addr:street" v="Mill Brook Road"/>
    <tag k="addr:state" v="VT"/>
    <tag k="ref:vcgi:esiteid" v="106389"/>
  </node>
  <node id="-573" visible="true" lat="44.19031041" lon="-72.88215374">
    <tag k="addr:housenumber" v="2268"/>
    <tag k="addr:street" v="Mill Brook Road"/>
    <tag k="addr:state" v="VT"/>
    <tag k="ref:vcgi:esiteid" v="106402"/>
  </node>
  <node id="-582" visible="true" lat="44.18983202" lon="-72.88200567">
    <tag k="addr:housenumber" v="2210"/>
    <tag k="addr:street" v="Mill Brook Road"/>
    <tag k="addr:state" v="VT"/>
    <tag k="ref:vcgi:esiteid" v="106411"/>
  </node>
  <node id="-584" visible="true" lat="44.18960787" lon="-72.88165965">
    <tag k="addr:housenumber" v="2186"/>
    <tag k="addr:street" v="Mill Brook Road"/>
    <tag k="addr:state" v="VT"/>
    <tag k="ref:vcgi:esiteid" v="106413"/>
  </node>
  <node id="-596" visible="true" lat="44.18896656" lon="-72.88111424">
    <tag k="addr:housenumber" v="2130"/>
    <tag k="addr:street" v="Mill Brook Road"/>
    <tag k="addr:state" v="VT"/>
    <tag k="ref:vcgi:esiteid" v="106425"/>
  </node>
  <node id="-611" visible="true" lat="44.18783669" lon="-72.87926471">
    <tag k="addr:housenumber" v="23"/>
    <tag k="addr:street" v="Clark Road"/>
    <tag k="addr:state" v="VT"/>
    <tag k="ref:vcgi:esiteid" v="106440"/>
  </node>
  <node id="-616" visible="true" lat="44.18695449" lon="-72.87831115">
    <tag k="addr:housenumber" v="1912"/>
    <tag k="addr:street" v="Mill Brook Road"/>
    <tag k="addr:state" v="VT"/>
    <tag k="ref:vcgi:esiteid" v="106445"/>
  </node>
  <node id="-618" visible="true" lat="44.18664241" lon="-72.87633958">
    <tag k="addr:housenumber" v="1826"/>
    <tag k="addr:street" v="Mill Brook Road"/>
    <tag k="addr:state" v="VT"/>
    <tag k="ref:vcgi:esiteid" v="106447"/>
  </node>
  <node id="-621" visible="true" lat="44.18654456" lon="-72.87336498">
    <tag k="addr:housenumber" v="1662"/>
    <tag k="addr:street" v="Mill Brook Road"/>
    <tag k="addr:state" v="VT"/>
    <tag k="ref:vcgi:esiteid" v="106450"/>
  </node>
  <node id="-623" visible="true" lat="44.18630595" lon="-72.87669667">
    <tag k="addr:housenumber" v="1833"/>
    <tag k="addr:street" v="Mill Brook Road"/>
    <tag k="addr:state" v="VT"/>
    <tag k="ref:vcgi:esiteid" v="106452"/>
  </node>
  <node id="-647" visible="true" lat="44.18506229" lon="-72.87364194">
    <tag k="addr:housenumber" v="96"/>
    <tag k="addr:street" v="German Flats Road"/>
    <tag k="addr:state" v="VT"/>
    <tag k="ref:vcgi:esiteid" v="106476"/>
  </node>
  <node id="-680" visible="true" lat="44.18299688" lon="-72.85307307">
    <tag k="addr:housenumber" v="533"/>
    <tag k="addr:street" v="Mill Brook Road"/>
    <tag k="addr:state" v="VT"/>
    <tag k="ref:vcgi:esiteid" v="106509"/>
  </node>
  <node id="-718" visible="true" lat="44.18184829" lon="-72.85772268">
    <tag k="addr:housenumber" v="755"/>
    <tag k="addr:street" v="Mill Brook Road"/>
    <tag k="addr:state" v="VT"/>
    <tag k="ref:vcgi:esiteid" v="106548"/>
  </node>
  <node id="-720" visible="true" lat="44.18163213" lon="-72.86527636">
    <tag k="addr:housenumber" v="65"/>
    <tag k="addr:street" v="Marble Hill Road"/>
    <tag k="addr:state" v="VT"/>
    <tag k="ref:vcgi:esiteid" v="106550"/>
  </node>
  <node id="-739" visible="true" lat="44.17918432" lon="-72.88425695">
    <tag k="addr:housenumber" v="782"/>
    <tag k="addr:street" v="German Flats Road"/>
    <tag k="addr:state" v="VT"/>
    <tag k="ref:vcgi:esiteid" v="106570"/>
  </node>
  <node id="-747" visible="true" lat="44.17758777" lon="-72.88747909">
    <tag k="addr:housenumber" v="999"/>
    <tag k="addr:street" v="German Flats Road"/>
    <tag k="addr:state" v="VT"/>
    <tag k="ref:vcgi:esiteid" v="106579"/>
  </node>
  <node id="-886" visible="true" lat="44.20052541" lon="-72.91125566">
    <tag k="addr:housenumber" v="390"/>
    <tag k="addr:street" v="Schuss Pass"/>
    <tag k="addr:state" v="VT"/>
    <tag k="ref:vcgi:esiteid" v="106722"/>
  </node>
  <node id="-887" visible="true" lat="44.20461069" lon="-72.91851655">
    <tag k="addr:housenumber" v="188"/>
    <tag k="addr:street" v="Ridge Road"/>
    <tag k="addr:state" v="VT"/>
    <tag k="ref:vcgi:esiteid" v="106723"/>
  </node>
  <node id="-888" visible="true" lat="44.20291244" lon="-72.91765464">
    <tag k="addr:housenumber" v="4589"/>
    <tag k="addr:street" v="Mill Brook Road"/>
    <tag k="addr:state" v="VT"/>
    <tag k="ref:vcgi:esiteid" v="106724"/>
  </node>
  <node id="-901" visible="true" lat="44.19849387" lon="-72.88771192">
    <tag k="addr:housenumber" v="351"/>
    <tag k="addr:street" v="Mansfield Road"/>
    <tag k="addr:state" v="VT"/>
    <tag k="ref:vcgi:esiteid" v="106737"/>
  </node>
  <node id="-902" visible="true" lat="44.19070425" lon="-72.88307386">
    <tag k="addr:housenumber" v="2296"/>
    <tag k="addr:street" v="Mill Brook Road"/>
    <tag k="addr:state" v="VT"/>
    <tag k="ref:vcgi:esiteid" v="106738"/>
  </node>
  <node id="-920" visible="true" lat="44.20362582" lon="-72.89646247">
    <tag k="addr:housenumber" v="3390"/>
    <tag k="addr:street" v="Mill Brook Road"/>
    <tag k="addr:state" v="VT"/>
    <tag k="ref:vcgi:esiteid" v="106756"/>
  </node>
  <node id="-927" visible="true" lat="44.20282753" lon="-72.91747848">
    <tag k="addr:housenumber" v="4587"/>
    <tag k="addr:street" v="Mill Brook Road"/>
    <tag k="addr:state" v="VT"/>
    <tag k="ref:vcgi:esiteid" v="106763"/>
  </node>
  <node id="-934" visible="true" lat="44.19950877" lon="-72.88756465">
    <tag k="addr:housenumber" v="386"/>
    <tag k="addr:street" v="Mansfield Road"/>
    <tag k="addr:state" v="VT"/>
    <tag k="ref:vcgi:esiteid" v="106770"/>
  </node>
  <node id="-961" visible="true" lat="44.20538423" lon="-72.89980858">
    <tag k="addr:housenumber" v="26"/>
    <tag k="addr:street" v="High Falls Road"/>
    <tag k="addr:state" v="VT"/>
    <tag k="ref:vcgi:esiteid" v="106799"/>
  </node>
  <node id="-968" visible="true" lat="44.19667311" lon="-72.88646577">
    <tag k="addr:housenumber" v="152"/>
    <tag k="addr:street" v="Mansfield Road"/>
    <tag k="addr:state" v="VT"/>
    <tag k="ref:vcgi:esiteid" v="106806"/>
  </node>
  <node id="-995" visible="true" lat="44.20345546" lon="-72.89594505">
    <tag k="addr:housenumber" v="3382"/>
    <tag k="addr:street" v="Mill Brook Road"/>
    <tag k="addr:state" v="VT"/>
    <tag k="ref:vcgi:esiteid" v="106833"/>
  </node>
  <node id="-998" visible="true" lat="44.20049561" lon="-72.89296389">
    <tag k="addr:housenumber" v="4636"/>
    <tag k="addr:street" v="Battleground"/>
    <tag k="addr:state" v="VT"/>
    <tag k="ref:vcgi:esiteid" v="106836"/>
  </node>
  <node id="-1003" visible="true" lat="44.20537457" lon="-72.9010216">
    <tag k="addr:housenumber" v="21"/>
    <tag k="addr:street" v="High Falls Road"/>
    <tag k="addr:state" v="VT"/>
    <tag k="ref:vcgi:esiteid" v="306798"/>
  </node>
  <node id="-1066" visible="true" lat="44.18781489" lon="-72.8764997">
    <tag k="addr:housenumber" v="1846"/>
    <tag k="addr:street" v="Mill Brook Road"/>
    <tag k="addr:state" v="VT"/>
    <tag k="ref:vcgi:esiteid" v="449955"/>
  </node>
  <node id="-1072" visible="true" lat="44.19302699" lon="-72.88329564">
    <tag k="addr:housenumber" v="95"/>
    <tag k="addr:street" v="Pleasant Lane"/>
    <tag k="addr:state" v="VT"/>
    <tag k="ref:vcgi:esiteid" v="453494"/>
  </node>
  <node id="-1087" visible="true" lat="44.1952798" lon="-72.89244807">
    <tag k="addr:housenumber" v="2891"/>
    <tag k="addr:street" v="Mill Brook Road"/>
    <tag k="addr:state" v="VT"/>
    <tag k="ref:vcgi:esiteid" v="613576"/>
  </node>
  <node id="-1115" visible="true" lat="44.20173059" lon="-72.88598312">
    <tag k="addr:housenumber" v="627"/>
    <tag k="addr:street" v="Mansfield Road"/>
    <tag k="addr:state" v="VT"/>
    <tag k="ref:vcgi:esiteid" v="753242"/>
  </node>
  <node id="-1194" visible="true" lat="44.202394" lon="-72.924753">
    <tag k="addr:housenumber" v="67"/>
    <tag k="addr:street" v="Mad River Resort Road"/>
    <tag k="addr:state" v="VT"/>
    <tag k="ref:vcgi:esiteid" v="900447"/>
  </node>
</osm>
