<?xml version="1.0" encoding="UTF-8"?>
<osm version="0.6" generator="JOSM">
  <node id="-536" visible="true" lat="44.19553375" lon="-72.89146423">
    <!-- conflict: "2849 Mill Brook Road, Fayston, VT" Fuzzy match to "2849 Mill Brook Road, Waitsfield, VT" -->
    <tag k="addr:city" v="Fayston"/>
    <tag k="addr:housenumber" v="2849"/>
    <tag k="addr:street" v="Mill Brook Road"/>
    <tag k="addr:state" v="VT"/>
    <tag k="ref:vcgi:esiteid" v="106359"/>
  </node>
  <node id="-623" visible="true" lat="44.18687387" lon="-72.84276176">
    <!-- conflict: "228 Top Of The Valley Road, Fayston, VT" Fuzzy match to "228 Top of the Valley Road, Waitsfield, VT" -->
    <tag k="addr:city" v="Fayston"/>
    <tag k="addr:housenumber" v="228"/>
    <tag k="addr:street" v="Top Of The Valley Road"/>
    <tag k="addr:state" v="VT"/>
    <tag k="ref:vcgi:esiteid" v="106446"/>
  </node>
  <node id="-642" visible="true" lat="44.18552418" lon="-72.85042709">
    <!-- conflict: "271 Moulton Road, Fayston, VT" Fuzzy match to "271 Moulton Road, Waitsfield, VT" -->
    <tag k="addr:city" v="Fayston"/>
    <tag k="addr:housenumber" v="271"/>
    <tag k="addr:street" v="Moulton Road"/>
    <tag k="addr:state" v="VT"/>
    <tag k="ref:vcgi:esiteid" v="106465"/>
  </node>
  <node id="-672" visible="true" lat="44.18376498" lon="-72.87027111">
    <!-- conflict: "1428 Mill Brook Road, Fayston, VT" Fuzzy match to "1428 Mill Brook Road, Waitsfield, VT" -->
    <tag k="addr:city" v="Fayston"/>
    <tag k="addr:housenumber" v="1428"/>
    <tag k="addr:street" v="Mill Brook Road"/>
    <tag k="addr:state" v="VT"/>
    <tag k="ref:vcgi:esiteid" v="106495"/>
  </node>
  <node id="-724" visible="true" lat="44.18184829" lon="-72.85772268">
    <!-- conflict: "755 Mill Brook Road, Fayston, VT" Fuzzy match to "755 Mill Brook Road, Waitsfield, VT" -->
    <tag k="addr:city" v="Fayston"/>
    <tag k="addr:housenumber" v="755"/>
    <tag k="addr:street" v="Mill Brook Road"/>
    <tag k="addr:state" v="VT"/>
    <tag k="ref:vcgi:esiteid" v="106548"/>
  </node>
  <node id="-726" visible="true" lat="44.18163213" lon="-72.86527636">
    <!-- conflict: "65 Marble Hill Road, Fayston, VT" Fuzzy match to "65 Marble Hill Road, Waitsfield, VT" -->
    <tag k="addr:city" v="Fayston"/>
    <tag k="addr:housenumber" v="65"/>
    <tag k="addr:street" v="Marble Hill Road"/>
    <tag k="addr:state" v="VT"/>
    <tag k="ref:vcgi:esiteid" v="106550"/>
  </node>
  <node id="-753" visible="true" lat="44.17758777" lon="-72.88747909">
    <!-- conflict: "999 German Flats Road, Fayston, VT" Fuzzy match to "999 German Flats Road, Waitsfield, VT" -->
    <tag k="addr:city" v="Fayston"/>
    <tag k="addr:housenumber" v="999"/>
    <tag k="addr:street" v="German Flats Road"/>
    <tag k="addr:state" v="VT"/>
    <tag k="ref:vcgi:esiteid" v="106579"/>
  </node>
</osm>
