<?xml version="1.0" encoding="UTF-8"?>
<osm version="0.6" generator="JOSM">
  <node id="-100" visible="true" lat="44.66339829" lon="-71.72139473">
    <tag k="addr:city" v="Ferdinand"/>
    <tag k="addr:housenumber" v="1738"/>
    <tag k="addr:street" v="Paul Stream Road"/>
    <tag k="addr:state" v="VT"/>
    <tag k="ref:vcgi:esiteid" v="112764"/>
  </node>
  <node id="-101" visible="true" lat="44.80057073" lon="-71.73948588">
    <tag k="addr:city" v="Ferdinand"/>
    <tag k="addr:housenumber" v="1749"/>
    <tag k="addr:street" v="Lewis Pond Road"/>
    <tag k="addr:state" v="VT"/>
    <tag k="ref:vcgi:esiteid" v="305209"/>
  </node>
  <node id="-102" visible="true" lat="44.79300803" lon="-71.78650253">
    <tag k="addr:city" v="Ferdinand"/>
    <tag k="addr:housenumber" v="1106"/>
    <tag k="addr:street" v="McConnel Pond Road"/>
    <tag k="addr:state" v="VT"/>
    <tag k="ref:vcgi:esiteid" v="305210"/>
  </node>
  <node id="-103" visible="true" lat="44.78741836" lon="-71.78383636">
    <tag k="addr:city" v="Ferdinand"/>
    <tag k="addr:housenumber" v="519"/>
    <tag k="addr:street" v="McConnel Pond Road"/>
    <tag k="addr:state" v="VT"/>
    <tag k="ref:vcgi:esiteid" v="305211"/>
  </node>
  <node id="-111" visible="true" lat="44.78341293" lon="-71.75642395">
    <tag k="addr:city" v="Ferdinand"/>
    <tag k="addr:housenumber" v="2435"/>
    <tag k="addr:street" v="Vermont Route 105"/>
    <tag k="addr:state" v="VT"/>
    <tag k="ref:vcgi:esiteid" v="305219"/>
  </node>
  <node id="-112" visible="true" lat="44.78349685" lon="-71.77347564">
    <tag k="addr:city" v="Ferdinand"/>
    <tag k="addr:housenumber" v="70"/>
    <tag k="addr:street" v="Fay Road"/>
    <tag k="addr:state" v="VT"/>
    <tag k="ref:vcgi:esiteid" v="305220"/>
  </node>
  <node id="-116" visible="true" lat="44.78309312" lon="-71.79111386">
    <tag k="addr:city" v="Ferdinand"/>
    <tag k="addr:housenumber" v="641"/>
    <tag k="addr:street" v="Vermont Route 105"/>
    <tag k="addr:state" v="VT"/>
    <tag k="ref:vcgi:esiteid" v="305224"/>
  </node>
  <node id="-119" visible="true" lat="44.78200907" lon="-71.78767109">
    <tag k="addr:city" v="Ferdinand"/>
    <tag k="addr:housenumber" v="805"/>
    <tag k="addr:street" v="Vermont Route 105"/>
    <tag k="addr:state" v="VT"/>
    <tag k="ref:vcgi:esiteid" v="305227"/>
  </node>
  <node id="-121" visible="true" lat="44.78105164" lon="-71.80614471">
    <tag k="addr:city" v="Ferdinand"/>
    <tag k="addr:housenumber" v="197"/>
    <tag k="addr:street" v="Walker Road"/>
    <tag k="addr:state" v="VT"/>
    <tag k="ref:vcgi:esiteid" v="305229"/>
  </node>
  <node id="-125" visible="true" lat="44.77919199" lon="-71.80134084">
    <tag k="addr:city" v="Ferdinand"/>
    <tag k="addr:housenumber" v="433"/>
    <tag k="addr:street" v="Walker Road"/>
    <tag k="addr:state" v="VT"/>
    <tag k="ref:vcgi:esiteid" v="305234"/>
  </node>
  <node id="-130" visible="true" lat="44.77696609" lon="-71.77243804">
    <tag k="addr:city" v="Ferdinand"/>
    <tag k="addr:housenumber" v="1520"/>
    <tag k="addr:street" v="Vermont Route 105"/>
    <tag k="addr:state" v="VT"/>
    <tag k="ref:vcgi:esiteid" v="305240"/>
  </node>
  <node id="-131" visible="true" lat="44.77658081" lon="-71.80075836">
    <tag k="addr:city" v="Ferdinand"/>
    <tag k="addr:housenumber" v="368"/>
    <tag k="addr:street" v="Walker Road"/>
    <tag k="addr:state" v="VT"/>
    <tag k="ref:vcgi:esiteid" v="305241"/>
  </node>
  <node id="-132" visible="true" lat="44.77508253" lon="-71.75994192">
    <tag k="addr:city" v="Ferdinand"/>
    <tag k="addr:housenumber" v="1438"/>
    <tag k="addr:street" v="South America Pond Road"/>
    <tag k="addr:state" v="VT"/>
    <tag k="ref:vcgi:esiteid" v="305243"/>
  </node>
  <node id="-133" visible="true" lat="44.7735605" lon="-71.80130683">
    <tag k="addr:city" v="Ferdinand"/>
    <tag k="addr:housenumber" v="78"/>
    <tag k="addr:street" v="Walker Road"/>
    <tag k="addr:state" v="VT"/>
    <tag k="ref:vcgi:esiteid" v="305245"/>
  </node>
  <node id="-135" visible="true" lat="44.77035522" lon="-71.7641449">
    <tag k="addr:city" v="Ferdinand"/>
    <tag k="addr:housenumber" v="1436"/>
    <tag k="addr:street" v="South America Pond Road"/>
    <tag k="addr:state" v="VT"/>
    <tag k="ref:vcgi:esiteid" v="305248"/>
  </node>
  <node id="-136" visible="true" lat="44.76118469" lon="-71.72415924">
    <tag k="addr:city" v="Ferdinand"/>
    <tag k="addr:housenumber" v="4507"/>
    <tag k="addr:street" v="Vermont Route 105"/>
    <tag k="addr:state" v="VT"/>
    <tag k="ref:vcgi:esiteid" v="305249"/>
  </node>
  <node id="-138" visible="true" lat="44.75784494" lon="-71.71923311">
    <tag k="addr:city" v="Ferdinand"/>
    <tag k="addr:housenumber" v="141"/>
    <tag k="addr:street" v="Mr B Road"/>
    <tag k="addr:state" v="VT"/>
    <tag k="ref:vcgi:esiteid" v="305251"/>
  </node>
  <node id="-139" visible="true" lat="44.75626373" lon="-71.7227478">
    <tag k="addr:city" v="Ferdinand"/>
    <tag k="addr:housenumber" v="294"/>
    <tag k="addr:street" v="Mr B Road"/>
    <tag k="addr:state" v="VT"/>
    <tag k="ref:vcgi:esiteid" v="305252"/>
  </node>
  <node id="-140" visible="true" lat="44.75638043" lon="-71.72124397">
    <tag k="addr:city" v="Ferdinand"/>
    <tag k="addr:housenumber" v="275"/>
    <tag k="addr:street" v="Mr B Road"/>
    <tag k="addr:state" v="VT"/>
    <tag k="ref:vcgi:esiteid" v="305253"/>
  </node>
  <node id="-141" visible="true" lat="44.75539398" lon="-71.72782898">
    <tag k="addr:city" v="Ferdinand"/>
    <tag k="addr:housenumber" v="378"/>
    <tag k="addr:street" v="Mr B Road"/>
    <tag k="addr:state" v="VT"/>
    <tag k="ref:vcgi:esiteid" v="305254"/>
  </node>
  <node id="-142" visible="true" lat="44.75267968" lon="-71.72526084">
    <tag k="addr:city" v="Ferdinand"/>
    <tag k="addr:housenumber" v="591"/>
    <tag k="addr:street" v="Mr B Road"/>
    <tag k="addr:state" v="VT"/>
    <tag k="ref:vcgi:esiteid" v="305255"/>
  </node>
  <node id="-143" visible="true" lat="44.74672904" lon="-71.75163109">
    <tag k="addr:city" v="Ferdinand"/>
    <tag k="addr:housenumber" v="1784"/>
    <tag k="addr:street" v="South America Pond Road"/>
    <tag k="addr:state" v="VT"/>
    <tag k="ref:vcgi:esiteid" v="305256"/>
  </node>
  <node id="-145" visible="true" lat="44.74131012" lon="-71.71987915">
    <tag k="addr:city" v="Ferdinand"/>
    <tag k="addr:housenumber" v="6"/>
    <tag k="addr:street" v="Notch Pond Road"/>
    <tag k="addr:state" v="VT"/>
    <tag k="ref:vcgi:esiteid" v="305258"/>
  </node>
  <node id="-151" visible="true" lat="44.71940612" lon="-71.70265197">
    <tag k="addr:city" v="Ferdinand"/>
    <tag k="addr:housenumber" v="749"/>
    <tag k="addr:street" v="Morrow Trail"/>
    <tag k="addr:state" v="VT"/>
    <tag k="ref:vcgi:esiteid" v="305264"/>
  </node>
  <node id="-154" visible="true" lat="44.70895979" lon="-71.77704122">
    <tag k="addr:city" v="Ferdinand"/>
    <tag k="addr:housenumber" v="3810"/>
    <tag k="addr:street" v="South America Pond Road"/>
    <tag k="addr:state" v="VT"/>
    <tag k="ref:vcgi:esiteid" v="305267"/>
  </node>
  <node id="-155" visible="true" lat="44.7070682" lon="-71.74476612">
    <tag k="addr:city" v="Ferdinand"/>
    <tag k="addr:housenumber" v="110"/>
    <tag k="addr:street" v="South America Camp Trail"/>
    <tag k="addr:state" v="VT"/>
    <tag k="ref:vcgi:esiteid" v="305268"/>
  </node>
  <node id="-156" visible="true" lat="44.70589087" lon="-71.74160733">
    <tag k="addr:city" v="Ferdinand"/>
    <tag k="addr:housenumber" v="378"/>
    <tag k="addr:street" v="South America Camp Trail"/>
    <tag k="addr:state" v="VT"/>
    <tag k="ref:vcgi:esiteid" v="305269"/>
  </node>
  <node id="-158" visible="true" lat="44.68427277" lon="-71.7648468">
    <tag k="addr:city" v="Ferdinand"/>
    <tag k="addr:housenumber" v="2394"/>
    <tag k="addr:street" v="Madison Brook Road"/>
    <tag k="addr:state" v="VT"/>
    <tag k="ref:vcgi:esiteid" v="305271"/>
  </node>
  <node id="-169" visible="true" lat="44.67308661" lon="-71.70997787">
    <tag k="addr:city" v="Ferdinand"/>
    <tag k="addr:housenumber" v="1029"/>
    <tag k="addr:street" v="Paul Stream Road"/>
    <tag k="addr:state" v="VT"/>
    <tag k="ref:vcgi:esiteid" v="305282"/>
  </node>
  <node id="-170" visible="true" lat="44.66258621" lon="-71.7098465">
    <tag k="addr:city" v="Ferdinand"/>
    <tag k="addr:housenumber" v="1736"/>
    <tag k="addr:street" v="Paul Stream Road"/>
    <tag k="addr:state" v="VT"/>
    <tag k="ref:vcgi:esiteid" v="305283"/>
  </node>
  <node id="-171" visible="true" lat="44.65993643" lon="-71.6773046">
    <tag k="addr:city" v="Ferdinand"/>
    <tag k="addr:housenumber" v="2541"/>
    <tag k="addr:street" v="West Mountain Pond Road"/>
    <tag k="addr:state" v="VT"/>
    <tag k="ref:vcgi:esiteid" v="305284"/>
  </node>
  <node id="-173" visible="true" lat="44.76781467" lon="-71.80948677">
    <tag k="addr:city" v="Ferdinand"/>
    <tag k="addr:housenumber" v="76"/>
    <tag k="addr:street" v="Ouimette Way"/>
    <tag k="addr:state" v="VT"/>
    <tag k="ref:vcgi:esiteid" v="307629"/>
  </node>
  <node id="-178" visible="true" lat="44.78001861" lon="-71.77333492">
    <tag k="addr:city" v="Ferdinand"/>
    <tag k="addr:housenumber" v="1570"/>
    <tag k="addr:street" v="Vermont Route 105"/>
    <tag k="addr:state" v="VT"/>
    <tag k="ref:vcgi:esiteid" v="446112"/>
  </node>
  <node id="-179" visible="true" lat="44.76023835" lon="-71.7218438">
    <tag k="addr:city" v="Ferdinand"/>
    <tag k="addr:housenumber" v="4663"/>
    <tag k="addr:street" v="Vermont Route 105"/>
    <tag k="addr:state" v="VT"/>
    <tag k="ref:vcgi:esiteid" v="446238"/>
  </node>
  <node id="-180" visible="true" lat="44.78299391" lon="-71.79200606">
    <tag k="addr:city" v="Ferdinand"/>
    <tag k="addr:housenumber" v="589"/>
    <tag k="addr:street" v="Vermont Route 105"/>
    <tag k="addr:state" v="VT"/>
    <tag k="ref:vcgi:esiteid" v="446239"/>
  </node>
  <node id="-181" visible="true" lat="44.7666871" lon="-71.73756664">
    <tag k="addr:city" v="Ferdinand"/>
    <tag k="addr:housenumber" v="3718"/>
    <tag k="addr:street" v="Vermont Route 105"/>
    <tag k="addr:state" v="VT"/>
    <tag k="ref:vcgi:esiteid" v="446248"/>
  </node>
  <node id="-182" visible="true" lat="44.77818998" lon="-71.75205177">
    <tag k="addr:city" v="Ferdinand"/>
    <tag k="addr:housenumber" v="2635"/>
    <tag k="addr:street" v="Vermont Route 105"/>
    <tag k="addr:state" v="VT"/>
    <tag k="ref:vcgi:esiteid" v="446290"/>
  </node>
  <node id="-186" visible="true" lat="44.758049" lon="-71.80877572">
    <tag k="addr:city" v="Ferdinand"/>
    <tag k="addr:housenumber" v="340"/>
    <tag k="addr:street" v="Pit And Ro Road"/>
    <tag k="addr:state" v="VT"/>
    <tag k="ref:vcgi:esiteid" v="617775"/>
  </node>
  <node id="-187" visible="true" lat="44.77147419" lon="-71.74174682">
    <tag k="addr:city" v="Ferdinand"/>
    <tag k="addr:housenumber" v="3321"/>
    <tag k="addr:street" v="Vermont Route 105"/>
    <tag k="addr:state" v="VT"/>
    <tag k="ref:vcgi:esiteid" v="754843"/>
  </node>
  <node id="-194" visible="true" lat="44.77682053" lon="-71.75392728">
    <tag k="addr:city" v="Ferdinand"/>
    <tag k="addr:housenumber" v="299"/>
    <tag k="addr:street" v="Paul Menard Drive"/>
    <tag k="addr:state" v="VT"/>
    <tag k="ref:vcgi:esiteid" v="1050758"/>
  </node>
</osm>
