<?xml version="1.0" encoding="UTF-8"?>
<osm version="0.6" generator="JOSM" upload="false">
  <node id="-192" visible="true" lat="44.99654664" lon="-72.83145547">
    <tag k="addr:housenumber" v="4573"/>
    <tag k="addr:street" v="Lake Road"/>
    <tag k="addr:state" v="VT"/>
    <tag k="ref:vcgi:esiteid" v="109101"/>
  </node>
  <node id="-461" visible="true" lat="44.98145833" lon="-72.91589374">
    <tag k="addr:housenumber" v="5167"/>
    <tag k="addr:street" v="Main Street"/>
    <tag k="addr:state" v="VT"/>
    <tag k="ref:vcgi:esiteid" v="109378"/>
  </node>
  <node id="-781" visible="true" lat="44.93486212" lon="-72.89743193">
    <!-- match: "206 Skunks Misery Road, , VT"  ignoring missing state when matching to "206 Skunks Misery Road, , " -->
    <tag k="addr:housenumber" v="206"/>
    <tag k="addr:street" v="Skunks Misery Road"/>
    <tag k="addr:state" v="VT"/>
    <tag k="ref:vcgi:esiteid" v="109707"/>
  </node>
  <node id="-974" visible="true" lat="44.9749547" lon="-72.91571083">
    <tag k="addr:housenumber" v="171"/>
    <tag k="addr:street" v="Birch Hill"/>
    <tag k="addr:state" v="VT"/>
    <tag k="ref:vcgi:esiteid" v="339127"/>
  </node>
  <node id="-1017" visible="true" lat="44.9744171" lon="-72.91507794">
    <tag k="addr:housenumber" v="93"/>
    <tag k="addr:street" v="Birch Hill"/>
    <tag k="addr:state" v="VT"/>
    <tag k="ref:vcgi:esiteid" v="611969"/>
  </node>
</osm>
