<?xml version="1.0" encoding="UTF-8"?>
<osm version="0.6" generator="JOSM">
  <node id="-580" visible="true" lat="44.73531921" lon="-73.11417274">
    <!-- conflict: "4416 Ethan Allen Highway, Georgia, VT" Fuzzy match to "4416 Ethan Allen Highway, Georgia, " -->
    <tag k="addr:city" v="Georgia"/>
    <tag k="addr:housenumber" v="4416"/>
    <tag k="addr:street" v="Ethan Allen Highway"/>
    <tag k="addr:state" v="VT"/>
    <tag k="ref:vcgi:esiteid" v="110362"/>
  </node>
  <node id="-937" visible="true" lat="44.70693257" lon="-73.10400582">
    <!-- conflict: "1959 Ethan Allen Highway, Georgia, VT" Fuzzy match to "1959 Ethan Allen Highway, Georgia, " -->
    <tag k="addr:city" v="Georgia"/>
    <tag k="addr:housenumber" v="1959"/>
    <tag k="addr:street" v="Ethan Allen Highway"/>
    <tag k="addr:state" v="VT"/>
    <tag k="ref:vcgi:esiteid" v="110725"/>
  </node>
  <node id="-1075" visible="true" lat="44.69730758" lon="-73.14180755">
    <!-- conflict: "16 Nottingham Drive, Georgia, VT" Fuzzy match to "16 Nottingham Drive, Milton, VT" -->
    <tag k="addr:city" v="Georgia"/>
    <tag k="addr:housenumber" v="16"/>
    <tag k="addr:street" v="Nottingham Drive"/>
    <tag k="addr:state" v="VT"/>
    <tag k="ref:vcgi:esiteid" v="110863"/>
  </node>
  <node id="-1302" visible="true" lat="44.69304759" lon="-73.10777638">
    <!-- conflict: "962 Ethan Allen Highway, Georgia, VT" Fuzzy match to "962 Ethan Allen Highway, Fairfax, VT" -->
    <tag k="addr:city" v="Georgia"/>
    <tag k="addr:housenumber" v="962"/>
    <tag k="addr:street" v="Ethan Allen Highway"/>
    <tag k="addr:state" v="VT"/>
    <tag k="ref:vcgi:esiteid" v="111102"/>
  </node>
</osm>
