<?xml version="1.0" encoding="UTF-8"?>
<osm version="0.6" generator="JOSM" upload="false">
  <node id="-100" visible="true" lat="44.68823785" lon="-72.19103337">
    <tag k="addr:housenumber" v="4323"/>
    <tag k="addr:street" v="Glover Street"/>
    <tag k="addr:state" v="VT"/>
    <tag k="ref:vcgi:esiteid" v="348"/>
  </node>
  <node id="-101" visible="true" lat="44.73604195" lon="-72.26259035">
    <tag k="addr:housenumber" v="239"/>
    <tag k="addr:street" v="Vance Lane"/>
    <tag k="addr:state" v="VT"/>
    <tag k="ref:vcgi:esiteid" v="111717"/>
  </node>
  <node id="-102" visible="true" lat="44.73452377" lon="-72.23365783">
    <tag k="addr:housenumber" v="569"/>
    <tag k="addr:street" v="Stevens Road"/>
    <tag k="addr:state" v="VT"/>
    <tag k="ref:vcgi:esiteid" v="111718"/>
  </node>
  <node id="-103" visible="true" lat="44.73239018" lon="-72.2592037">
    <tag k="addr:housenumber" v="1928"/>
    <tag k="addr:street" v="County Road"/>
    <tag k="addr:state" v="VT"/>
    <tag k="ref:vcgi:esiteid" v="111719"/>
  </node>
  <node id="-104" visible="true" lat="44.73211382" lon="-72.24411289">
    <tag k="addr:housenumber" v="77"/>
    <tag k="addr:street" v="Maple Lane"/>
    <tag k="addr:state" v="VT"/>
    <tag k="ref:vcgi:esiteid" v="111720"/>
  </node>
  <node id="-105" visible="true" lat="44.73189298" lon="-72.26078969">
    <tag k="addr:housenumber" v="1985"/>
    <tag k="addr:street" v="County Road"/>
    <tag k="addr:state" v="VT"/>
    <tag k="ref:vcgi:esiteid" v="111721"/>
  </node>
  <node id="-106" visible="true" lat="44.73163379" lon="-72.24926316">
    <tag k="addr:housenumber" v="1350"/>
    <tag k="addr:street" v="County Road"/>
    <tag k="addr:state" v="VT"/>
    <tag k="ref:vcgi:esiteid" v="111722"/>
  </node>
  <node id="-107" visible="true" lat="44.73126256" lon="-72.23114187">
    <tag k="addr:housenumber" v="297"/>
    <tag k="addr:street" v="Davio Place"/>
    <tag k="addr:state" v="VT"/>
    <tag k="ref:vcgi:esiteid" v="111723"/>
  </node>
  <node id="-108" visible="true" lat="44.73075428" lon="-72.26482954">
    <tag k="addr:housenumber" v="2287"/>
    <tag k="addr:street" v="County Road"/>
    <tag k="addr:state" v="VT"/>
    <tag k="ref:vcgi:esiteid" v="111724"/>
  </node>
  <node id="-109" visible="true" lat="44.73027177" lon="-72.22390567">
    <tag k="addr:housenumber" v="2528"/>
    <tag k="addr:street" v="Roaring Brook Road"/>
    <tag k="addr:state" v="VT"/>
    <tag k="ref:vcgi:esiteid" v="111725"/>
  </node>
  <node id="-110" visible="true" lat="44.73130118" lon="-72.25174992">
    <tag k="addr:housenumber" v="1510"/>
    <tag k="addr:street" v="County Road"/>
    <tag k="addr:state" v="VT"/>
    <tag k="ref:vcgi:esiteid" v="111726"/>
  </node>
  <node id="-111" visible="true" lat="44.72985808" lon="-72.23173458">
    <tag k="addr:housenumber" v="203"/>
    <tag k="addr:street" v="Davio Place"/>
    <tag k="addr:state" v="VT"/>
    <tag k="ref:vcgi:esiteid" v="111727"/>
  </node>
  <node id="-112" visible="true" lat="44.72984278" lon="-72.26690421">
    <tag k="addr:housenumber" v="2422"/>
    <tag k="addr:street" v="County Road"/>
    <tag k="addr:state" v="VT"/>
    <tag k="ref:vcgi:esiteid" v="111728"/>
  </node>
  <node id="-113" visible="true" lat="44.729619" lon="-72.22912376">
    <tag k="addr:housenumber" v="96"/>
    <tag k="addr:street" v="Davio Place"/>
    <tag k="addr:state" v="VT"/>
    <tag k="ref:vcgi:esiteid" v="111729"/>
  </node>
  <node id="-114" visible="true" lat="44.72944682" lon="-72.22800097">
    <tag k="addr:housenumber" v="34"/>
    <tag k="addr:street" v="Davio Place"/>
    <tag k="addr:state" v="VT"/>
    <tag k="ref:vcgi:esiteid" v="111730"/>
  </node>
  <node id="-115" visible="true" lat="44.72941771" lon="-72.22839627">
    <tag k="addr:housenumber" v="48"/>
    <tag k="addr:street" v="Davio Place"/>
    <tag k="addr:state" v="VT"/>
    <tag k="ref:vcgi:esiteid" v="111731"/>
  </node>
  <node id="-116" visible="true" lat="44.72935468" lon="-72.22756937">
    <tag k="addr:housenumber" v="16"/>
    <tag k="addr:street" v="Davio Place"/>
    <tag k="addr:state" v="VT"/>
    <tag k="ref:vcgi:esiteid" v="111732"/>
  </node>
  <node id="-117" visible="true" lat="44.72927385" lon="-72.23238878">
    <tag k="addr:housenumber" v="480"/>
    <tag k="addr:street" v="County Road"/>
    <tag k="addr:state" v="VT"/>
    <tag k="ref:vcgi:esiteid" v="111733"/>
  </node>
  <node id="-118" visible="true" lat="44.72921838" lon="-72.2244089">
    <tag k="addr:housenumber" v="2610"/>
    <tag k="addr:street" v="Roaring Brook Road"/>
    <tag k="addr:state" v="VT"/>
    <tag k="ref:vcgi:esiteid" v="111734"/>
  </node>
  <node id="-119" visible="true" lat="44.72900402" lon="-72.22813197">
    <tag k="addr:housenumber" v="31"/>
    <tag k="addr:street" v="Davio Place"/>
    <tag k="addr:state" v="VT"/>
    <tag k="ref:vcgi:esiteid" v="111735"/>
  </node>
  <node id="-120" visible="true" lat="44.72928778" lon="-72.22671926">
    <tag k="addr:housenumber" v="118"/>
    <tag k="addr:street" v="County Road"/>
    <tag k="addr:state" v="VT"/>
    <tag k="ref:vcgi:esiteid" v="111736"/>
  </node>
  <node id="-121" visible="true" lat="44.72914293" lon="-72.26883663">
    <tag k="addr:housenumber" v="2524"/>
    <tag k="addr:street" v="County Road"/>
    <tag k="addr:state" v="VT"/>
    <tag k="ref:vcgi:esiteid" v="111737"/>
  </node>
  <node id="-122" visible="true" lat="44.72883628" lon="-72.22683002">
    <tag k="addr:housenumber" v="125"/>
    <tag k="addr:street" v="County Road"/>
    <tag k="addr:state" v="VT"/>
    <tag k="ref:vcgi:esiteid" v="111738"/>
  </node>
  <node id="-123" visible="true" lat="44.72919629" lon="-72.2260534">
    <tag k="addr:housenumber" v="88"/>
    <tag k="addr:street" v="County Road"/>
    <tag k="addr:state" v="VT"/>
    <tag k="ref:vcgi:esiteid" v="111739"/>
  </node>
  <node id="-124" visible="true" lat="44.72878438" lon="-72.2265356">
    <tag k="addr:housenumber" v="105"/>
    <tag k="addr:street" v="County Road"/>
    <tag k="addr:state" v="VT"/>
    <tag k="ref:vcgi:esiteid" v="111740"/>
  </node>
  <node id="-125" visible="true" lat="44.72889263" lon="-72.22512562">
    <tag k="addr:housenumber" v="48"/>
    <tag k="addr:street" v="County Road"/>
    <tag k="addr:state" v="VT"/>
    <tag k="ref:vcgi:esiteid" v="111741"/>
  </node>
  <node id="-127" visible="true" lat="44.72869268" lon="-72.22586719">
    <tag k="addr:housenumber" v="71"/>
    <tag k="addr:street" v="County Road"/>
    <tag k="addr:state" v="VT"/>
    <tag k="ref:vcgi:esiteid" v="111744"/>
  </node>
  <node id="-128" visible="true" lat="44.7285379" lon="-72.22431606">
    <tag k="addr:housenumber" v="2534"/>
    <tag k="addr:street" v="Bean Hill Road"/>
    <tag k="addr:state" v="VT"/>
    <tag k="ref:vcgi:esiteid" v="111745"/>
  </node>
  <node id="-129" visible="true" lat="44.72880854" lon="-72.23759614">
    <tag k="addr:housenumber" v="716"/>
    <tag k="addr:street" v="County Road"/>
    <tag k="addr:state" v="VT"/>
    <tag k="ref:vcgi:esiteid" v="111746"/>
  </node>
  <node id="-130" visible="true" lat="44.72837981" lon="-72.22418526">
    <tag k="addr:housenumber" v="2532"/>
    <tag k="addr:street" v="Bean Hill Road"/>
    <tag k="addr:state" v="VT"/>
    <tag k="ref:vcgi:esiteid" v="111747"/>
  </node>
  <node id="-131" visible="true" lat="44.72829228" lon="-72.22399984">
    <tag k="addr:housenumber" v="2516"/>
    <tag k="addr:street" v="Bean Hill Road"/>
    <tag k="addr:state" v="VT"/>
    <tag k="ref:vcgi:esiteid" v="111748"/>
  </node>
  <node id="-132" visible="true" lat="44.72817323" lon="-72.23725741">
    <tag k="addr:housenumber" v="675"/>
    <tag k="addr:street" v="County Road"/>
    <tag k="addr:state" v="VT"/>
    <tag k="ref:vcgi:esiteid" v="111749"/>
  </node>
  <node id="-133" visible="true" lat="44.72796729" lon="-72.22434389">
    <tag k="addr:housenumber" v="11"/>
    <tag k="addr:street" v="Parker Road"/>
    <tag k="addr:state" v="VT"/>
    <tag k="ref:vcgi:esiteid" v="111750"/>
  </node>
  <node id="-134" visible="true" lat="44.72790524" lon="-72.22338152">
    <tag k="addr:housenumber" v="2486"/>
    <tag k="addr:street" v="Bean Hill Road"/>
    <tag k="addr:state" v="VT"/>
    <tag k="ref:vcgi:esiteid" v="111751"/>
  </node>
  <node id="-135" visible="true" lat="44.7281383" lon="-72.23552956">
    <tag k="addr:housenumber" v="612"/>
    <tag k="addr:street" v="County Road"/>
    <tag k="addr:state" v="VT"/>
    <tag k="ref:vcgi:esiteid" v="111752"/>
  </node>
  <node id="-136" visible="true" lat="44.72805021" lon="-72.23466408">
    <tag k="addr:housenumber" v="568"/>
    <tag k="addr:street" v="County Road"/>
    <tag k="addr:state" v="VT"/>
    <tag k="ref:vcgi:esiteid" v="111753"/>
  </node>
  <node id="-137" visible="true" lat="44.7272589" lon="-72.22202217">
    <tag k="addr:housenumber" v="2410"/>
    <tag k="addr:street" v="Bean Hill Road"/>
    <tag k="addr:state" v="VT"/>
    <tag k="ref:vcgi:esiteid" v="111754"/>
  </node>
  <node id="-138" visible="true" lat="44.72724408" lon="-72.22573896">
    <tag k="addr:housenumber" v="96"/>
    <tag k="addr:street" v="Parker Road"/>
    <tag k="addr:state" v="VT"/>
    <tag k="ref:vcgi:esiteid" v="111755"/>
  </node>
  <node id="-139" visible="true" lat="44.72705695" lon="-72.23264671">
    <tag k="addr:housenumber" v="34"/>
    <tag k="addr:street" v="Access Lane"/>
    <tag k="addr:state" v="VT"/>
    <tag k="ref:vcgi:esiteid" v="111756"/>
  </node>
  <node id="-140" visible="true" lat="44.726767" lon="-72.2324792">
    <tag k="addr:housenumber" v="54"/>
    <tag k="addr:street" v="Access Lane"/>
    <tag k="addr:state" v="VT"/>
    <tag k="ref:vcgi:esiteid" v="111757"/>
  </node>
  <node id="-141" visible="true" lat="44.72660131" lon="-72.23047716">
    <tag k="addr:housenumber" v="152"/>
    <tag k="addr:street" v="Holt Lane"/>
    <tag k="addr:state" v="VT"/>
    <tag k="ref:vcgi:esiteid" v="111758"/>
  </node>
  <node id="-142" visible="true" lat="44.72633026" lon="-72.23246763">
    <tag k="addr:housenumber" v="76"/>
    <tag k="addr:street" v="Access Lane"/>
    <tag k="addr:state" v="VT"/>
    <tag k="ref:vcgi:esiteid" v="111759"/>
  </node>
  <node id="-143" visible="true" lat="44.72630312" lon="-72.23290939">
    <tag k="addr:housenumber" v="70"/>
    <tag k="addr:street" v="Access Lane"/>
    <tag k="addr:state" v="VT"/>
    <tag k="ref:vcgi:esiteid" v="111760"/>
  </node>
  <node id="-144" visible="true" lat="44.72629358" lon="-72.23109979">
    <tag k="addr:housenumber" v="136"/>
    <tag k="addr:street" v="Access Lane"/>
    <tag k="addr:state" v="VT"/>
    <tag k="ref:vcgi:esiteid" v="111762"/>
  </node>
  <node id="-145" visible="true" lat="44.72631992" lon="-72.23324591">
    <tag k="addr:housenumber" v="72"/>
    <tag k="addr:street" v="Access Lane"/>
    <tag k="addr:state" v="VT"/>
    <tag k="ref:vcgi:esiteid" v="111763"/>
  </node>
  <node id="-146" visible="true" lat="44.72634096" lon="-72.23357483">
    <tag k="addr:housenumber" v="74"/>
    <tag k="addr:street" v="Access Lane"/>
    <tag k="addr:state" v="VT"/>
    <tag k="ref:vcgi:esiteid" v="111764"/>
  </node>
  <node id="-147" visible="true" lat="44.72619692" lon="-72.23508406">
    <tag k="addr:housenumber" v="132"/>
    <tag k="addr:street" v="Damon Lane"/>
    <tag k="addr:state" v="VT"/>
    <tag k="ref:vcgi:esiteid" v="111765"/>
  </node>
  <node id="-148" visible="true" lat="44.72598019" lon="-72.23728934">
    <tag k="addr:housenumber" v="65"/>
    <tag k="addr:street" v="West Shore Road"/>
    <tag k="addr:state" v="VT"/>
    <tag k="ref:vcgi:esiteid" v="111766"/>
  </node>
  <node id="-149" visible="true" lat="44.72620037" lon="-72.23480897">
    <tag k="addr:housenumber" v="146"/>
    <tag k="addr:street" v="Damon Lane"/>
    <tag k="addr:state" v="VT"/>
    <tag k="ref:vcgi:esiteid" v="111767"/>
  </node>
  <node id="-150" visible="true" lat="44.72623094" lon="-72.23542578">
    <tag k="addr:housenumber" v="100"/>
    <tag k="addr:street" v="Damon Lane"/>
    <tag k="addr:state" v="VT"/>
    <tag k="ref:vcgi:esiteid" v="111768"/>
  </node>
  <node id="-151" visible="true" lat="44.72615548" lon="-72.23137462">
    <tag k="addr:housenumber" v="113"/>
    <tag k="addr:street" v="Access Lane"/>
    <tag k="addr:state" v="VT"/>
    <tag k="ref:vcgi:esiteid" v="111769"/>
  </node>
  <node id="-152" visible="true" lat="44.72631454" lon="-72.23580169">
    <tag k="addr:housenumber" v="96"/>
    <tag k="addr:street" v="Damon Lane"/>
    <tag k="addr:state" v="VT"/>
    <tag k="ref:vcgi:esiteid" v="111770"/>
  </node>
  <node id="-153" visible="true" lat="44.72606894" lon="-72.23681507">
    <tag k="addr:housenumber" v="64"/>
    <tag k="addr:street" v="Damon Lane"/>
    <tag k="addr:state" v="VT"/>
    <tag k="ref:vcgi:esiteid" v="111771"/>
  </node>
  <node id="-154" visible="true" lat="44.72618912" lon="-72.23043058">
    <tag k="addr:housenumber" v="151"/>
    <tag k="addr:street" v="Holt Lane"/>
    <tag k="addr:state" v="VT"/>
    <tag k="ref:vcgi:esiteid" v="111772"/>
  </node>
  <node id="-155" visible="true" lat="44.72617867" lon="-72.22947821">
    <tag k="addr:housenumber" v="115"/>
    <tag k="addr:street" v="Holt Lane"/>
    <tag k="addr:state" v="VT"/>
    <tag k="ref:vcgi:esiteid" v="111773"/>
  </node>
  <node id="-156" visible="true" lat="44.72607421" lon="-72.24077606">
    <tag k="addr:housenumber" v="81"/>
    <tag k="addr:street" v="Urie Drive"/>
    <tag k="addr:state" v="VT"/>
    <tag k="ref:vcgi:esiteid" v="111774"/>
  </node>
  <node id="-157" visible="true" lat="44.72590546" lon="-72.22932125">
    <tag k="addr:housenumber" v="103"/>
    <tag k="addr:street" v="Holt Lane"/>
    <tag k="addr:state" v="VT"/>
    <tag k="ref:vcgi:esiteid" v="111775"/>
  </node>
  <node id="-158" visible="true" lat="44.72582626" lon="-72.23805236">
    <tag k="addr:housenumber" v="76"/>
    <tag k="addr:street" v="A Place In The Woods"/>
    <tag k="addr:state" v="VT"/>
    <tag k="ref:vcgi:esiteid" v="111776"/>
  </node>
  <node id="-159" visible="true" lat="44.72562789" lon="-72.23838806">
    <tag k="addr:housenumber" v="60"/>
    <tag k="addr:street" v="A Place In The Woods"/>
    <tag k="addr:state" v="VT"/>
    <tag k="ref:vcgi:esiteid" v="111777"/>
  </node>
  <node id="-160" visible="true" lat="44.72544479" lon="-72.24064636">
    <tag k="addr:housenumber" v="83"/>
    <tag k="addr:street" v="Urie Drive"/>
    <tag k="addr:state" v="VT"/>
    <tag k="ref:vcgi:esiteid" v="111778"/>
  </node>
  <node id="-161" visible="true" lat="44.72540664" lon="-72.23888397">
    <tag k="addr:housenumber" v="38"/>
    <tag k="addr:street" v="A Place In The Woods"/>
    <tag k="addr:state" v="VT"/>
    <tag k="ref:vcgi:esiteid" v="111779"/>
  </node>
  <node id="-162" visible="true" lat="44.7252404" lon="-72.22828043">
    <tag k="addr:housenumber" v="272"/>
    <tag k="addr:street" v="Parker Road"/>
    <tag k="addr:state" v="VT"/>
    <tag k="ref:vcgi:esiteid" v="111780"/>
  </node>
  <node id="-163" visible="true" lat="44.72473277" lon="-72.2285908">
    <tag k="addr:housenumber" v="296"/>
    <tag k="addr:street" v="Parker Road"/>
    <tag k="addr:state" v="VT"/>
    <tag k="ref:vcgi:esiteid" v="111781"/>
  </node>
  <node id="-164" visible="true" lat="44.72501105" lon="-72.22847669">
    <tag k="addr:housenumber" v="294"/>
    <tag k="addr:street" v="Parker Road"/>
    <tag k="addr:state" v="VT"/>
    <tag k="ref:vcgi:esiteid" v="111782"/>
  </node>
  <node id="-165" visible="true" lat="44.72435424" lon="-72.21595237">
    <tag k="addr:housenumber" v="2042"/>
    <tag k="addr:street" v="Bean Hill Road"/>
    <tag k="addr:state" v="VT"/>
    <tag k="ref:vcgi:esiteid" v="111783"/>
  </node>
  <node id="-166" visible="true" lat="44.72424736" lon="-72.21366473">
    <tag k="addr:housenumber" v="1900"/>
    <tag k="addr:street" v="Bean Hill Road"/>
    <tag k="addr:state" v="VT"/>
    <tag k="ref:vcgi:esiteid" v="111784"/>
  </node>
  <node id="-167" visible="true" lat="44.72423952" lon="-72.22889149">
    <tag k="addr:housenumber" v="336"/>
    <tag k="addr:street" v="Parker Road"/>
    <tag k="addr:state" v="VT"/>
    <tag k="ref:vcgi:esiteid" v="111785"/>
  </node>
  <node id="-168" visible="true" lat="44.72443282" lon="-72.22871665">
    <tag k="addr:housenumber" v="326"/>
    <tag k="addr:street" v="Parker Road"/>
    <tag k="addr:state" v="VT"/>
    <tag k="ref:vcgi:esiteid" v="111786"/>
  </node>
  <node id="-169" visible="true" lat="44.72389812" lon="-72.21726747">
    <tag k="addr:housenumber" v="2081"/>
    <tag k="addr:street" v="Bean Hill Road"/>
    <tag k="addr:state" v="VT"/>
    <tag k="ref:vcgi:esiteid" v="111787"/>
  </node>
  <node id="-170" visible="true" lat="44.72398172" lon="-72.22899249">
    <tag k="addr:housenumber" v="368"/>
    <tag k="addr:street" v="Parker Road"/>
    <tag k="addr:state" v="VT"/>
    <tag k="ref:vcgi:esiteid" v="111788"/>
  </node>
  <node id="-171" visible="true" lat="44.72357427" lon="-72.22925771">
    <tag k="addr:housenumber" v="394"/>
    <tag k="addr:street" v="Parker Road"/>
    <tag k="addr:state" v="VT"/>
    <tag k="ref:vcgi:esiteid" v="111789"/>
  </node>
  <node id="-172" visible="true" lat="44.7232083" lon="-72.22936814">
    <tag k="addr:housenumber" v="418"/>
    <tag k="addr:street" v="Parker Road"/>
    <tag k="addr:state" v="VT"/>
    <tag k="ref:vcgi:esiteid" v="111790"/>
  </node>
  <node id="-173" visible="true" lat="44.72329386" lon="-72.26732598">
    <tag k="addr:housenumber" v="1296"/>
    <tag k="addr:street" v="King Road"/>
    <tag k="addr:state" v="VT"/>
    <tag k="ref:vcgi:esiteid" v="111791"/>
  </node>
  <node id="-174" visible="true" lat="44.72308402" lon="-72.2576554">
    <tag k="addr:housenumber" v="80"/>
    <tag k="addr:street" v="King Place"/>
    <tag k="addr:state" v="VT"/>
    <tag k="ref:vcgi:esiteid" v="111792"/>
  </node>
  <node id="-175" visible="true" lat="44.72266058" lon="-72.21176638">
    <tag k="addr:housenumber" v="1784"/>
    <tag k="addr:street" v="Bean Hill Road"/>
    <tag k="addr:state" v="VT"/>
    <tag k="ref:vcgi:esiteid" v="111793"/>
  </node>
  <node id="-176" visible="true" lat="44.72267377" lon="-72.2296491">
    <tag k="addr:housenumber" v="450"/>
    <tag k="addr:street" v="Parker Road"/>
    <tag k="addr:state" v="VT"/>
    <tag k="ref:vcgi:esiteid" v="111794"/>
  </node>
  <node id="-177" visible="true" lat="44.72234363" lon="-72.22960385">
    <tag k="addr:housenumber" v="462"/>
    <tag k="addr:street" v="Parker Road"/>
    <tag k="addr:state" v="VT"/>
    <tag k="ref:vcgi:esiteid" v="111795"/>
  </node>
  <node id="-178" visible="true" lat="44.72205401" lon="-72.2297527">
    <tag k="addr:housenumber" v="484"/>
    <tag k="addr:street" v="Parker Road"/>
    <tag k="addr:state" v="VT"/>
    <tag k="ref:vcgi:esiteid" v="111796"/>
  </node>
  <node id="-179" visible="true" lat="44.72224593" lon="-72.25005685">
    <tag k="addr:housenumber" v="402"/>
    <tag k="addr:street" v="King Road"/>
    <tag k="addr:state" v="VT"/>
    <tag k="ref:vcgi:esiteid" v="111797"/>
  </node>
  <node id="-180" visible="true" lat="44.72180153" lon="-72.21358108">
    <tag k="addr:housenumber" v="1861"/>
    <tag k="addr:street" v="Bean Hill Road"/>
    <tag k="addr:state" v="VT"/>
    <tag k="ref:vcgi:esiteid" v="111798"/>
  </node>
  <node id="-181" visible="true" lat="44.72197075" lon="-72.23950937">
    <tag k="addr:housenumber" v="64"/>
    <tag k="addr:street" v="Lake View Terrace"/>
    <tag k="addr:state" v="VT"/>
    <tag k="ref:vcgi:esiteid" v="111799"/>
  </node>
  <node id="-182" visible="true" lat="44.72178268" lon="-72.23888397">
    <tag k="addr:housenumber" v="32"/>
    <tag k="addr:street" v="Lake View Terrace"/>
    <tag k="addr:state" v="VT"/>
    <tag k="ref:vcgi:esiteid" v="111800"/>
  </node>
  <node id="-183" visible="true" lat="44.72177214" lon="-72.25035728">
    <tag k="addr:housenumber" v="422"/>
    <tag k="addr:street" v="King Road"/>
    <tag k="addr:state" v="VT"/>
    <tag k="ref:vcgi:esiteid" v="111801"/>
  </node>
  <node id="-184" visible="true" lat="44.72034883" lon="-72.22570694">
    <tag k="addr:housenumber" v="523"/>
    <tag k="addr:street" v="Parker Road"/>
    <tag k="addr:state" v="VT"/>
    <tag k="ref:vcgi:esiteid" v="111802"/>
  </node>
  <node id="-185" visible="true" lat="44.72157232" lon="-72.22976735">
    <tag k="addr:housenumber" v="510"/>
    <tag k="addr:street" v="Parker Road"/>
    <tag k="addr:state" v="VT"/>
    <tag k="ref:vcgi:esiteid" v="111803"/>
  </node>
  <node id="-186" visible="true" lat="44.72135094" lon="-72.23992693">
    <tag k="addr:housenumber" v="668"/>
    <tag k="addr:street" v="West Shore Road"/>
    <tag k="addr:state" v="VT"/>
    <tag k="ref:vcgi:esiteid" v="111804"/>
  </node>
  <node id="-187" visible="true" lat="44.72123256" lon="-72.22959081">
    <tag k="addr:housenumber" v="546"/>
    <tag k="addr:street" v="Parker Road"/>
    <tag k="addr:state" v="VT"/>
    <tag k="ref:vcgi:esiteid" v="111805"/>
  </node>
  <node id="-188" visible="true" lat="44.72137005" lon="-72.25282132">
    <tag k="addr:housenumber" v="588"/>
    <tag k="addr:street" v="King Road"/>
    <tag k="addr:state" v="VT"/>
    <tag k="ref:vcgi:esiteid" v="111806"/>
  </node>
  <node id="-189" visible="true" lat="44.72076602" lon="-72.22925128">
    <tag k="addr:housenumber" v="578"/>
    <tag k="addr:street" v="Parker Road"/>
    <tag k="addr:state" v="VT"/>
    <tag k="ref:vcgi:esiteid" v="111807"/>
  </node>
  <node id="-190" visible="true" lat="44.7207231" lon="-72.25018061">
    <tag k="addr:housenumber" v="479"/>
    <tag k="addr:street" v="King Road"/>
    <tag k="addr:state" v="VT"/>
    <tag k="ref:vcgi:esiteid" v="111808"/>
  </node>
  <node id="-191" visible="true" lat="44.72043799" lon="-72.26373114">
    <tag k="addr:housenumber" v="165"/>
    <tag k="addr:street" v="Bickford Lane"/>
    <tag k="addr:state" v="VT"/>
    <tag k="ref:vcgi:esiteid" v="111809"/>
  </node>
  <node id="-192" visible="true" lat="44.72010438" lon="-72.22913274">
    <tag k="addr:housenumber" v="626"/>
    <tag k="addr:street" v="Parker Road"/>
    <tag k="addr:state" v="VT"/>
    <tag k="ref:vcgi:esiteid" v="111810"/>
  </node>
  <node id="-193" visible="true" lat="44.71967368" lon="-72.22900868">
    <tag k="addr:housenumber" v="656"/>
    <tag k="addr:street" v="Parker Road"/>
    <tag k="addr:state" v="VT"/>
    <tag k="ref:vcgi:esiteid" v="111811"/>
  </node>
  <node id="-194" visible="true" lat="44.71949752" lon="-72.20908918">
    <tag k="addr:housenumber" v="1587"/>
    <tag k="addr:street" v="Bean Hill Road"/>
    <tag k="addr:state" v="VT"/>
    <tag k="ref:vcgi:esiteid" v="111812"/>
  </node>
  <node id="-195" visible="true" lat="44.71935747" lon="-72.22898926">
    <tag k="addr:housenumber" v="678"/>
    <tag k="addr:street" v="Parker Road"/>
    <tag k="addr:state" v="VT"/>
    <tag k="ref:vcgi:esiteid" v="111813"/>
  </node>
  <node id="-196" visible="true" lat="44.71919509" lon="-72.26525145">
    <tag k="addr:housenumber" v="285"/>
    <tag k="addr:street" v="Bickford Lane"/>
    <tag k="addr:state" v="VT"/>
    <tag k="ref:vcgi:esiteid" v="111814"/>
  </node>
  <node id="-197" visible="true" lat="44.71905204" lon="-72.22891624">
    <tag k="addr:housenumber" v="698"/>
    <tag k="addr:street" v="Parker Road"/>
    <tag k="addr:state" v="VT"/>
    <tag k="ref:vcgi:esiteid" v="111815"/>
  </node>
  <node id="-198" visible="true" lat="44.71884734" lon="-72.2289285">
    <tag k="addr:housenumber" v="718"/>
    <tag k="addr:street" v="Parker Road"/>
    <tag k="addr:state" v="VT"/>
    <tag k="ref:vcgi:esiteid" v="111816"/>
  </node>
  <node id="-199" visible="true" lat="44.71791152" lon="-72.21427368">
    <tag k="addr:housenumber" v="332"/>
    <tag k="addr:street" v="Lyman Lane"/>
    <tag k="addr:state" v="VT"/>
    <tag k="ref:vcgi:esiteid" v="111817"/>
  </node>
  <node id="-200" visible="true" lat="44.71859569" lon="-72.22886145">
    <tag k="addr:housenumber" v="744"/>
    <tag k="addr:street" v="Parker Road"/>
    <tag k="addr:state" v="VT"/>
    <tag k="ref:vcgi:esiteid" v="111818"/>
  </node>
  <node id="-201" visible="true" lat="44.71844545" lon="-72.24248188">
    <tag k="addr:housenumber" v="108"/>
    <tag k="addr:street" v="Tetrault Lane"/>
    <tag k="addr:state" v="VT"/>
    <tag k="ref:vcgi:esiteid" v="111819"/>
  </node>
  <node id="-202" visible="true" lat="44.71820752" lon="-72.19981183">
    <tag k="addr:housenumber" v="116"/>
    <tag k="addr:street" v="Larose Lane"/>
    <tag k="addr:state" v="VT"/>
    <tag k="ref:vcgi:esiteid" v="111820"/>
  </node>
  <node id="-203" visible="true" lat="44.71803475" lon="-72.20397408">
    <tag k="addr:housenumber" v="1286"/>
    <tag k="addr:street" v="Bean Hill Road"/>
    <tag k="addr:state" v="VT"/>
    <tag k="ref:vcgi:esiteid" v="111821"/>
  </node>
  <node id="-204" visible="true" lat="44.71811313" lon="-72.22878749">
    <tag k="addr:housenumber" v="764"/>
    <tag k="addr:street" v="Parker Road"/>
    <tag k="addr:state" v="VT"/>
    <tag k="ref:vcgi:esiteid" v="111822"/>
  </node>
  <node id="-205" visible="true" lat="44.71780368" lon="-72.22866087">
    <tag k="addr:housenumber" v="770"/>
    <tag k="addr:street" v="Parker Road"/>
    <tag k="addr:state" v="VT"/>
    <tag k="ref:vcgi:esiteid" v="111823"/>
  </node>
  <node id="-206" visible="true" lat="44.7179237" lon="-72.24020587">
    <tag k="addr:housenumber" v="101"/>
    <tag k="addr:street" v="Monette Place"/>
    <tag k="addr:state" v="VT"/>
    <tag k="ref:vcgi:esiteid" v="111824"/>
  </node>
  <node id="-207" visible="true" lat="44.71754083" lon="-72.22862802">
    <tag k="addr:housenumber" v="808"/>
    <tag k="addr:street" v="Parker Road"/>
    <tag k="addr:state" v="VT"/>
    <tag k="ref:vcgi:esiteid" v="111825"/>
  </node>
  <node id="-208" visible="true" lat="44.71771365" lon="-72.23966878">
    <tag k="addr:housenumber" v="131"/>
    <tag k="addr:street" v="Monette Place"/>
    <tag k="addr:state" v="VT"/>
    <tag k="ref:vcgi:esiteid" v="111826"/>
  </node>
  <node id="-209" visible="true" lat="44.71761615" lon="-72.24456732">
    <tag k="addr:housenumber" v="178"/>
    <tag k="addr:street" v="Griffin Place"/>
    <tag k="addr:state" v="VT"/>
    <tag k="ref:vcgi:esiteid" v="111827"/>
  </node>
  <node id="-210" visible="true" lat="44.71747748" lon="-72.2379054">
    <tag k="addr:housenumber" v="229"/>
    <tag k="addr:street" v="Monette Place"/>
    <tag k="addr:state" v="VT"/>
    <tag k="ref:vcgi:esiteid" v="111828"/>
  </node>
  <node id="-211" visible="true" lat="44.71746895" lon="-72.23866082">
    <tag k="addr:housenumber" v="197"/>
    <tag k="addr:street" v="Monette Place"/>
    <tag k="addr:state" v="VT"/>
    <tag k="ref:vcgi:esiteid" v="111829"/>
  </node>
  <node id="-212" visible="true" lat="44.71691305" lon="-72.20039186">
    <tag k="addr:housenumber" v="106"/>
    <tag k="addr:street" v="Larose Lane"/>
    <tag k="addr:state" v="VT"/>
    <tag k="ref:vcgi:esiteid" v="111830"/>
  </node>
  <node id="-214" visible="true" lat="44.71729442" lon="-72.22870448">
    <tag k="addr:housenumber" v="852"/>
    <tag k="addr:street" v="Parker Road"/>
    <tag k="addr:state" v="VT"/>
    <tag k="ref:vcgi:esiteid" v="111832"/>
  </node>
  <node id="-215" visible="true" lat="44.71737548" lon="-72.23837487">
    <tag k="addr:housenumber" v="213"/>
    <tag k="addr:street" v="Monette Place"/>
    <tag k="addr:state" v="VT"/>
    <tag k="ref:vcgi:esiteid" v="111833"/>
  </node>
  <node id="-216" visible="true" lat="44.71732721" lon="-72.23760953">
    <tag k="addr:housenumber" v="237"/>
    <tag k="addr:street" v="Monette Place"/>
    <tag k="addr:state" v="VT"/>
    <tag k="ref:vcgi:esiteid" v="111834"/>
  </node>
  <node id="-217" visible="true" lat="44.71698792" lon="-72.2292498">
    <tag k="addr:housenumber" v="860"/>
    <tag k="addr:street" v="Parker Road"/>
    <tag k="addr:state" v="VT"/>
    <tag k="ref:vcgi:esiteid" v="111835"/>
  </node>
  <node id="-218" visible="true" lat="44.71678046" lon="-72.23714517">
    <tag k="addr:housenumber" v="279"/>
    <tag k="addr:street" v="Monette Place"/>
    <tag k="addr:state" v="VT"/>
    <tag k="ref:vcgi:esiteid" v="111836"/>
  </node>
  <node id="-219" visible="true" lat="44.71661736" lon="-72.22914285">
    <tag k="addr:housenumber" v="876"/>
    <tag k="addr:street" v="Parker Road"/>
    <tag k="addr:state" v="VT"/>
    <tag k="ref:vcgi:esiteid" v="111837"/>
  </node>
  <node id="-220" visible="true" lat="44.71653838" lon="-72.2366916">
    <tag k="addr:housenumber" v="299"/>
    <tag k="addr:street" v="Monette Place"/>
    <tag k="addr:state" v="VT"/>
    <tag k="ref:vcgi:esiteid" v="111838"/>
  </node>
  <node id="-221" visible="true" lat="44.71588724" lon="-72.23612191">
    <tag k="addr:housenumber" v="313"/>
    <tag k="addr:street" v="Monette Place"/>
    <tag k="addr:state" v="VT"/>
    <tag k="ref:vcgi:esiteid" v="111839"/>
  </node>
  <node id="-223" visible="true" lat="44.7164002" lon="-72.23973628">
    <tag k="addr:housenumber" v="353"/>
    <tag k="addr:street" v="Tetrault Lane"/>
    <tag k="addr:state" v="VT"/>
    <tag k="ref:vcgi:esiteid" v="111841"/>
  </node>
  <node id="-224" visible="true" lat="44.7160722" lon="-72.23936272">
    <tag k="addr:housenumber" v="355"/>
    <tag k="addr:street" v="Tetrault Lane"/>
    <tag k="addr:state" v="VT"/>
    <tag k="ref:vcgi:esiteid" v="111842"/>
  </node>
  <node id="-225" visible="true" lat="44.71630297" lon="-72.22917003">
    <tag k="addr:housenumber" v="900"/>
    <tag k="addr:street" v="Parker Road"/>
    <tag k="addr:state" v="VT"/>
    <tag k="ref:vcgi:esiteid" v="111843"/>
  </node>
  <node id="-226" visible="true" lat="44.71607763" lon="-72.20090853">
    <tag k="addr:housenumber" v="34"/>
    <tag k="addr:street" v="Larose Lane"/>
    <tag k="addr:state" v="VT"/>
    <tag k="ref:vcgi:esiteid" v="111844"/>
  </node>
  <node id="-227" visible="true" lat="44.71600811" lon="-72.22931419">
    <tag k="addr:housenumber" v="928"/>
    <tag k="addr:street" v="Parker Road"/>
    <tag k="addr:state" v="VT"/>
    <tag k="ref:vcgi:esiteid" v="111845"/>
  </node>
  <node id="-228" visible="true" lat="44.71538789" lon="-72.23600858">
    <tag k="addr:housenumber" v="349"/>
    <tag k="addr:street" v="Monette Place"/>
    <tag k="addr:state" v="VT"/>
    <tag k="ref:vcgi:esiteid" v="111846"/>
  </node>
  <node id="-230" visible="true" lat="44.71513705" lon="-72.23615627">
    <tag k="addr:housenumber" v="371"/>
    <tag k="addr:street" v="Monette Place"/>
    <tag k="addr:state" v="VT"/>
    <tag k="ref:vcgi:esiteid" v="111848"/>
  </node>
  <node id="-231" visible="true" lat="44.71546624" lon="-72.22926523">
    <tag k="addr:housenumber" v="958"/>
    <tag k="addr:street" v="Parker Road"/>
    <tag k="addr:state" v="VT"/>
    <tag k="ref:vcgi:esiteid" v="111849"/>
  </node>
  <node id="-233" visible="true" lat="44.71527481" lon="-72.19960785">
    <tag k="addr:housenumber" v="930"/>
    <tag k="addr:street" v="Bean Hill Road"/>
    <tag k="addr:state" v="VT"/>
    <tag k="ref:vcgi:esiteid" v="111851"/>
  </node>
  <node id="-234" visible="true" lat="44.71463574" lon="-72.23638633">
    <tag k="addr:housenumber" v="387"/>
    <tag k="addr:street" v="Monette Place"/>
    <tag k="addr:state" v="VT"/>
    <tag k="ref:vcgi:esiteid" v="111852"/>
  </node>
  <node id="-235" visible="true" lat="44.71507481" lon="-72.19631044">
    <tag k="addr:housenumber" v="818"/>
    <tag k="addr:street" v="Bean Hill Road"/>
    <tag k="addr:state" v="VT"/>
    <tag k="ref:vcgi:esiteid" v="111853"/>
  </node>
  <node id="-237" visible="true" lat="44.71419348" lon="-72.19540813">
    <tag k="addr:housenumber" v="739"/>
    <tag k="addr:street" v="Bean Hill Road"/>
    <tag k="addr:state" v="VT"/>
    <tag k="ref:vcgi:esiteid" v="111855"/>
  </node>
  <node id="-238" visible="true" lat="44.71410548" lon="-72.22941647">
    <tag k="addr:housenumber" v="1060"/>
    <tag k="addr:street" v="Parker Road"/>
    <tag k="addr:state" v="VT"/>
    <tag k="ref:vcgi:esiteid" v="111856"/>
  </node>
  <node id="-240" visible="true" lat="44.71397405" lon="-72.22955733">
    <tag k="addr:housenumber" v="1064"/>
    <tag k="addr:street" v="Parker Road"/>
    <tag k="addr:state" v="VT"/>
    <tag k="ref:vcgi:esiteid" v="111858"/>
  </node>
  <node id="-241" visible="true" lat="44.71379159" lon="-72.2296732">
    <tag k="addr:housenumber" v="1084"/>
    <tag k="addr:street" v="Parker Road"/>
    <tag k="addr:state" v="VT"/>
    <tag k="ref:vcgi:esiteid" v="111859"/>
  </node>
  <node id="-243" visible="true" lat="44.71370342" lon="-72.22987599">
    <tag k="addr:housenumber" v="1098"/>
    <tag k="addr:street" v="Parker Road"/>
    <tag k="addr:state" v="VT"/>
    <tag k="ref:vcgi:esiteid" v="111861"/>
  </node>
  <node id="-244" visible="true" lat="44.71335879" lon="-72.19444639">
    <tag k="addr:housenumber" v="663"/>
    <tag k="addr:street" v="Bean Hill Road"/>
    <tag k="addr:state" v="VT"/>
    <tag k="ref:vcgi:esiteid" v="111862"/>
  </node>
  <node id="-245" visible="true" lat="44.71339322" lon="-72.23024811">
    <tag k="addr:housenumber" v="1136"/>
    <tag k="addr:street" v="Parker Road"/>
    <tag k="addr:state" v="VT"/>
    <tag k="ref:vcgi:esiteid" v="111863"/>
  </node>
  <node id="-246" visible="true" lat="44.71332653" lon="-72.23065233">
    <tag k="addr:housenumber" v="1154"/>
    <tag k="addr:street" v="Parker Road"/>
    <tag k="addr:state" v="VT"/>
    <tag k="ref:vcgi:esiteid" v="111864"/>
  </node>
  <node id="-248" visible="true" lat="44.71303726" lon="-72.23071367">
    <tag k="addr:housenumber" v="1175"/>
    <tag k="addr:street" v="Parker Road"/>
    <tag k="addr:state" v="VT"/>
    <tag k="ref:vcgi:esiteid" v="111866"/>
  </node>
  <node id="-249" visible="true" lat="44.71321328" lon="-72.23017692">
    <tag k="addr:housenumber" v="1149"/>
    <tag k="addr:street" v="Parker Road"/>
    <tag k="addr:state" v="VT"/>
    <tag k="ref:vcgi:esiteid" v="111867"/>
  </node>
  <node id="-250" visible="true" lat="44.71302631" lon="-72.23109047">
    <tag k="addr:housenumber" v="1191"/>
    <tag k="addr:street" v="Parker Road"/>
    <tag k="addr:state" v="VT"/>
    <tag k="ref:vcgi:esiteid" v="111868"/>
  </node>
  <node id="-251" visible="true" lat="44.71306939" lon="-72.20701908">
    <tag k="addr:housenumber" v="366"/>
    <tag k="addr:street" v="Borland Road"/>
    <tag k="addr:state" v="VT"/>
    <tag k="ref:vcgi:esiteid" v="111869"/>
  </node>
  <node id="-252" visible="true" lat="44.71293782" lon="-72.27986724">
    <tag k="addr:housenumber" v="36"/>
    <tag k="addr:street" v="Buchanan Place"/>
    <tag k="addr:state" v="VT"/>
    <tag k="ref:vcgi:esiteid" v="111870"/>
  </node>
  <node id="-254" visible="true" lat="44.712647" lon="-72.23139554">
    <tag k="addr:housenumber" v="1201"/>
    <tag k="addr:street" v="Parker Road"/>
    <tag k="addr:state" v="VT"/>
    <tag k="ref:vcgi:esiteid" v="111872"/>
  </node>
  <node id="-255" visible="true" lat="44.71282223" lon="-72.18138305">
    <tag k="addr:housenumber" v="219"/>
    <tag k="addr:street" v="Sargent Lane"/>
    <tag k="addr:state" v="VT"/>
    <tag k="ref:vcgi:esiteid" v="111873"/>
  </node>
  <node id="-260" visible="true" lat="44.71199145" lon="-72.23205396">
    <tag k="addr:housenumber" v="1179"/>
    <tag k="addr:street" v="Parker Road"/>
    <tag k="addr:state" v="VT"/>
    <tag k="ref:vcgi:esiteid" v="111878"/>
  </node>
  <node id="-264" visible="true" lat="44.71130119" lon="-72.22855714">
    <tag k="addr:housenumber" v="71"/>
    <tag k="addr:street" v="Cemetery Loop"/>
    <tag k="addr:state" v="VT"/>
    <tag k="ref:vcgi:esiteid" v="111882"/>
  </node>
  <node id="-269" visible="true" lat="44.71106152" lon="-72.22955151">
    <tag k="addr:housenumber" v="130"/>
    <tag k="addr:street" v="Cemetery Loop"/>
    <tag k="addr:state" v="VT"/>
    <tag k="ref:vcgi:esiteid" v="111887"/>
  </node>
  <node id="-276" visible="true" lat="44.71006588" lon="-72.27993147">
    <tag k="addr:housenumber" v="171"/>
    <tag k="addr:street" v="Auger Heights"/>
    <tag k="addr:state" v="VT"/>
    <tag k="ref:vcgi:esiteid" v="111894"/>
  </node>
  <node id="-280" visible="true" lat="44.70924348" lon="-72.19278287">
    <tag k="addr:housenumber" v="239"/>
    <tag k="addr:street" v="Village View Road"/>
    <tag k="addr:state" v="VT"/>
    <tag k="ref:vcgi:esiteid" v="111898"/>
  </node>
  <node id="-282" visible="true" lat="44.70895206" lon="-72.19386255">
    <tag k="addr:housenumber" v="203"/>
    <tag k="addr:street" v="Village View Road"/>
    <tag k="addr:state" v="VT"/>
    <tag k="ref:vcgi:esiteid" v="111900"/>
  </node>
  <node id="-284" visible="true" lat="44.70829329" lon="-72.26257214">
    <tag k="addr:housenumber" v="855"/>
    <tag k="addr:street" v="Phillips Road"/>
    <tag k="addr:state" v="VT"/>
    <tag k="ref:vcgi:esiteid" v="111902"/>
  </node>
  <node id="-286" visible="true" lat="44.70768525" lon="-72.23146846">
    <tag k="addr:housenumber" v="347"/>
    <tag k="addr:street" v="Cemetery Loop"/>
    <tag k="addr:state" v="VT"/>
    <tag k="ref:vcgi:esiteid" v="111904"/>
  </node>
  <node id="-287" visible="true" lat="44.70809476" lon="-72.26352655">
    <tag k="addr:housenumber" v="857"/>
    <tag k="addr:street" v="Phillips Road"/>
    <tag k="addr:state" v="VT"/>
    <tag k="ref:vcgi:esiteid" v="111905"/>
  </node>
  <node id="-290" visible="true" lat="44.70782436" lon="-72.1932398">
    <tag k="addr:housenumber" v="143"/>
    <tag k="addr:street" v="Village View Road"/>
    <tag k="addr:state" v="VT"/>
    <tag k="ref:vcgi:esiteid" v="111908"/>
  </node>
  <node id="-291" visible="true" lat="44.70775706" lon="-72.26129666">
    <tag k="addr:housenumber" v="846"/>
    <tag k="addr:street" v="Phillips Road"/>
    <tag k="addr:state" v="VT"/>
    <tag k="ref:vcgi:esiteid" v="111909"/>
  </node>
  <node id="-293" visible="true" lat="44.70759952" lon="-72.25674765">
    <tag k="addr:housenumber" v="189"/>
    <tag k="addr:street" v="Dunbar Place"/>
    <tag k="addr:state" v="VT"/>
    <tag k="ref:vcgi:esiteid" v="111911"/>
  </node>
  <node id="-300" visible="true" lat="44.70717577" lon="-72.28482499">
    <tag k="addr:housenumber" v="4332"/>
    <tag k="addr:street" v="County Road"/>
    <tag k="addr:state" v="VT"/>
    <tag k="ref:vcgi:esiteid" v="111918"/>
  </node>
  <node id="-303" visible="true" lat="44.70700031" lon="-72.21081275">
    <tag k="addr:housenumber" v="820"/>
    <tag k="addr:street" v="Borland Road"/>
    <tag k="addr:state" v="VT"/>
    <tag k="ref:vcgi:esiteid" v="111921"/>
  </node>
  <node id="-309" visible="true" lat="44.7066156" lon="-72.28545669">
    <tag k="addr:housenumber" v="1876"/>
    <tag k="addr:street" v="Hartwell Pond Road"/>
    <tag k="addr:state" v="VT"/>
    <tag k="ref:vcgi:esiteid" v="111927"/>
  </node>
  <node id="-311" visible="true" lat="44.70603176" lon="-72.21374914">
    <tag k="addr:housenumber" v="1067"/>
    <tag k="addr:street" v="Borland Road"/>
    <tag k="addr:state" v="VT"/>
    <tag k="ref:vcgi:esiteid" v="111929"/>
  </node>
  <node id="-312" visible="true" lat="44.70650901" lon="-72.18836945">
    <tag k="addr:housenumber" v="46"/>
    <tag k="addr:street" v="School Street"/>
    <tag k="addr:state" v="VT"/>
    <tag k="ref:vcgi:esiteid" v="111930"/>
  </node>
  <node id="-315" visible="true" lat="44.70628026" lon="-72.21095788">
    <tag k="addr:housenumber" v="863"/>
    <tag k="addr:street" v="Borland Road"/>
    <tag k="addr:state" v="VT"/>
    <tag k="ref:vcgi:esiteid" v="111933"/>
  </node>
  <node id="-323" visible="true" lat="44.70580304" lon="-72.21082503">
    <tag k="addr:housenumber" v="869"/>
    <tag k="addr:street" v="Borland Road"/>
    <tag k="addr:state" v="VT"/>
    <tag k="ref:vcgi:esiteid" v="111941"/>
  </node>
  <node id="-326" visible="true" lat="44.70592165" lon="-72.28485004">
    <tag k="addr:housenumber" v="61"/>
    <tag k="addr:street" v="Andersonville Road"/>
    <tag k="addr:state" v="VT"/>
    <tag k="ref:vcgi:esiteid" v="111945"/>
  </node>
  <node id="-329" visible="true" lat="44.70580543" lon="-72.25917835">
    <tag k="addr:housenumber" v="681"/>
    <tag k="addr:street" v="Phillips Road"/>
    <tag k="addr:state" v="VT"/>
    <tag k="ref:vcgi:esiteid" v="111948"/>
  </node>
  <node id="-330" visible="true" lat="44.7056932" lon="-72.18560671">
    <tag k="addr:housenumber" v="52"/>
    <tag k="addr:street" v="Apple Lane"/>
    <tag k="addr:state" v="VT"/>
    <tag k="ref:vcgi:esiteid" v="111949"/>
  </node>
  <node id="-334" visible="true" lat="44.70560184" lon="-72.25099331">
    <tag k="addr:housenumber" v="210"/>
    <tag k="addr:street" v="Phillips Road"/>
    <tag k="addr:state" v="VT"/>
    <tag k="ref:vcgi:esiteid" v="111953"/>
  </node>
  <node id="-343" visible="true" lat="44.70462962" lon="-72.18763728">
    <tag k="addr:housenumber" v="37"/>
    <tag k="addr:street" v="Doctor Buck Hill"/>
    <tag k="addr:state" v="VT"/>
    <tag k="ref:vcgi:esiteid" v="111962"/>
  </node>
  <node id="-349" visible="true" lat="44.70434846" lon="-72.28508784">
    <tag k="addr:housenumber" v="175"/>
    <tag k="addr:street" v="Andersonville Road"/>
    <tag k="addr:state" v="VT"/>
    <tag k="ref:vcgi:esiteid" v="111968"/>
  </node>
  <node id="-352" visible="true" lat="44.70413476" lon="-72.18476954">
    <tag k="addr:housenumber" v="121"/>
    <tag k="addr:street" v="Apple Lane"/>
    <tag k="addr:state" v="VT"/>
    <tag k="ref:vcgi:esiteid" v="111971"/>
  </node>
  <node id="-356" visible="true" lat="44.70358529" lon="-72.15923165">
    <tag k="addr:housenumber" v="2182"/>
    <tag k="addr:street" v="Dexter Mountain Road"/>
    <tag k="addr:state" v="VT"/>
    <tag k="ref:vcgi:esiteid" v="111975"/>
  </node>
  <node id="-359" visible="true" lat="44.70263623" lon="-72.17376418">
    <tag k="addr:housenumber" v="28"/>
    <tag k="addr:street" v="Pine Place"/>
    <tag k="addr:state" v="VT"/>
    <tag k="ref:vcgi:esiteid" v="111978"/>
  </node>
  <node id="-361" visible="true" lat="44.70255185" lon="-72.22031043">
    <tag k="addr:housenumber" v="252"/>
    <tag k="addr:street" v="Mullen Hill Road"/>
    <tag k="addr:state" v="VT"/>
    <tag k="ref:vcgi:esiteid" v="111980"/>
  </node>
  <node id="-362" visible="true" lat="44.70263064" lon="-72.25801129">
    <tag k="addr:housenumber" v="525"/>
    <tag k="addr:street" v="Phillips Road"/>
    <tag k="addr:state" v="VT"/>
    <tag k="ref:vcgi:esiteid" v="111981"/>
  </node>
  <node id="-366" visible="true" lat="44.7021958" lon="-72.15955258">
    <tag k="addr:housenumber" v="2052"/>
    <tag k="addr:street" v="Dexter Mountain Road"/>
    <tag k="addr:state" v="VT"/>
    <tag k="ref:vcgi:esiteid" v="111985"/>
  </node>
  <node id="-367" visible="true" lat="44.70221676" lon="-72.25242257">
    <tag k="addr:housenumber" v="255"/>
    <tag k="addr:street" v="Phillips Road"/>
    <tag k="addr:state" v="VT"/>
    <tag k="ref:vcgi:esiteid" v="111986"/>
  </node>
  <node id="-370" visible="true" lat="44.70148465" lon="-72.16126875">
    <tag k="addr:housenumber" v="2081"/>
    <tag k="addr:street" v="Dexter Mountain Road"/>
    <tag k="addr:state" v="VT"/>
    <tag k="ref:vcgi:esiteid" v="111989"/>
  </node>
  <node id="-371" visible="true" lat="44.7012601" lon="-72.15954975">
    <tag k="addr:housenumber" v="2050"/>
    <tag k="addr:street" v="Dexter Mountain Road"/>
    <tag k="addr:state" v="VT"/>
    <tag k="ref:vcgi:esiteid" v="111990"/>
  </node>
  <node id="-374" visible="true" lat="44.70100674" lon="-72.24519268">
    <tag k="addr:housenumber" v="2492"/>
    <tag k="addr:street" v="Parker Road"/>
    <tag k="addr:state" v="VT"/>
    <tag k="ref:vcgi:esiteid" v="111993"/>
  </node>
  <node id="-376" visible="true" lat="44.70082997" lon="-72.25056057">
    <tag k="addr:housenumber" v="118"/>
    <tag k="addr:street" v="Phillips Road"/>
    <tag k="addr:state" v="VT"/>
    <tag k="ref:vcgi:esiteid" v="111995"/>
  </node>
  <node id="-377" visible="true" lat="44.69588171" lon="-72.219062">
    <tag k="addr:housenumber" v="1695"/>
    <tag k="addr:street" v="Still Hill"/>
    <tag k="addr:state" v="VT"/>
    <tag k="ref:vcgi:esiteid" v="111996"/>
  </node>
  <node id="-379" visible="true" lat="44.70047082" lon="-72.23992317">
    <tag k="addr:housenumber" v="2228"/>
    <tag k="addr:street" v="Parker Road"/>
    <tag k="addr:state" v="VT"/>
    <tag k="ref:vcgi:esiteid" v="111998"/>
  </node>
  <node id="-381" visible="true" lat="44.70011735" lon="-72.22281081">
    <tag k="addr:housenumber" v="488"/>
    <tag k="addr:street" v="Mullen Hill Road"/>
    <tag k="addr:state" v="VT"/>
    <tag k="ref:vcgi:esiteid" v="112000"/>
  </node>
  <node id="-382" visible="true" lat="44.70020653" lon="-72.24828438">
    <tag k="addr:housenumber" v="2656"/>
    <tag k="addr:street" v="Parker Road"/>
    <tag k="addr:state" v="VT"/>
    <tag k="ref:vcgi:esiteid" v="112001"/>
  </node>
  <node id="-383" visible="true" lat="44.70028879" lon="-72.24732036">
    <tag k="addr:housenumber" v="2610"/>
    <tag k="addr:street" v="Parker Road"/>
    <tag k="addr:state" v="VT"/>
    <tag k="ref:vcgi:esiteid" v="112002"/>
  </node>
  <node id="-384" visible="true" lat="44.6998541" lon="-72.22549173">
    <tag k="addr:housenumber" v="543"/>
    <tag k="addr:street" v="Mullen Hill Road"/>
    <tag k="addr:state" v="VT"/>
    <tag k="ref:vcgi:esiteid" v="112003"/>
  </node>
  <node id="-385" visible="true" lat="44.69976112" lon="-72.24205988">
    <tag k="addr:housenumber" v="2353"/>
    <tag k="addr:street" v="Parker Road"/>
    <tag k="addr:state" v="VT"/>
    <tag k="ref:vcgi:esiteid" v="112004"/>
  </node>
  <node id="-386" visible="true" lat="44.69961145" lon="-72.20364024">
    <tag k="addr:housenumber" v="958"/>
    <tag k="addr:street" v="Still Hill"/>
    <tag k="addr:state" v="VT"/>
    <tag k="ref:vcgi:esiteid" v="112005"/>
  </node>
  <node id="-387" visible="true" lat="44.69902019" lon="-72.16137742">
    <tag k="addr:housenumber" v="1913"/>
    <tag k="addr:street" v="Dexter Mountain Road"/>
    <tag k="addr:state" v="VT"/>
    <tag k="ref:vcgi:esiteid" v="112006"/>
  </node>
  <node id="-388" visible="true" lat="44.69822977" lon="-72.20026199">
    <tag k="addr:housenumber" v="807"/>
    <tag k="addr:street" v="Still Hill"/>
    <tag k="addr:state" v="VT"/>
    <tag k="ref:vcgi:esiteid" v="112007"/>
  </node>
  <node id="-389" visible="true" lat="44.69824624" lon="-72.19562869">
    <tag k="addr:housenumber" v="547"/>
    <tag k="addr:street" v="Still Hill"/>
    <tag k="addr:state" v="VT"/>
    <tag k="ref:vcgi:esiteid" v="112008"/>
  </node>
  <node id="-390" visible="true" lat="44.69827525" lon="-72.25051956">
    <tag k="addr:housenumber" v="145"/>
    <tag k="addr:street" v="Beach Hill Road"/>
    <tag k="addr:state" v="VT"/>
    <tag k="ref:vcgi:esiteid" v="112009"/>
  </node>
  <node id="-391" visible="true" lat="44.6982536" lon="-72.19102582">
    <tag k="addr:housenumber" v="3564"/>
    <tag k="addr:street" v="Glover Street"/>
    <tag k="addr:state" v="VT"/>
    <tag k="ref:vcgi:esiteid" v="112010"/>
  </node>
  <node id="-392" visible="true" lat="44.69809744" lon="-72.20490495">
    <tag k="addr:housenumber" v="1044"/>
    <tag k="addr:street" v="Still Hill"/>
    <tag k="addr:state" v="VT"/>
    <tag k="ref:vcgi:esiteid" v="112011"/>
  </node>
  <node id="-393" visible="true" lat="44.69797711" lon="-72.16198418">
    <tag k="addr:housenumber" v="1855"/>
    <tag k="addr:street" v="Dexter Mountain Road"/>
    <tag k="addr:state" v="VT"/>
    <tag k="ref:vcgi:esiteid" v="112012"/>
  </node>
  <node id="-394" visible="true" lat="44.69783287" lon="-72.20694178">
    <tag k="addr:housenumber" v="1122"/>
    <tag k="addr:street" v="Still Hill"/>
    <tag k="addr:state" v="VT"/>
    <tag k="ref:vcgi:esiteid" v="112013"/>
  </node>
  <node id="-395" visible="true" lat="44.69807619" lon="-72.28850899">
    <tag k="addr:housenumber" v="644"/>
    <tag k="addr:street" v="Andersonville Road"/>
    <tag k="addr:state" v="VT"/>
    <tag k="ref:vcgi:esiteid" v="112014"/>
  </node>
  <node id="-396" visible="true" lat="44.69696612" lon="-72.16200856">
    <tag k="addr:housenumber" v="1792"/>
    <tag k="addr:street" v="Dexter Mountain Road"/>
    <tag k="addr:state" v="VT"/>
    <tag k="ref:vcgi:esiteid" v="112015"/>
  </node>
  <node id="-397" visible="true" lat="44.69716562" lon="-72.17906601">
    <tag k="addr:housenumber" v="804"/>
    <tag k="addr:street" v="Dexter Mountain Road"/>
    <tag k="addr:state" v="VT"/>
    <tag k="ref:vcgi:esiteid" v="112016"/>
  </node>
  <node id="-398" visible="true" lat="44.69664383" lon="-72.17401123">
    <tag k="addr:housenumber" v="1043"/>
    <tag k="addr:street" v="Dexter Mountain Road"/>
    <tag k="addr:state" v="VT"/>
    <tag k="ref:vcgi:esiteid" v="112017"/>
  </node>
  <node id="-399" visible="true" lat="44.6961615" lon="-72.25320432">
    <tag k="addr:housenumber" v="395"/>
    <tag k="addr:street" v="Beach Hill Road"/>
    <tag k="addr:state" v="VT"/>
    <tag k="ref:vcgi:esiteid" v="112018"/>
  </node>
  <node id="-400" visible="true" lat="44.69418458" lon="-72.25354882">
    <tag k="addr:housenumber" v="399"/>
    <tag k="addr:street" v="Beach Hill Road"/>
    <tag k="addr:state" v="VT"/>
    <tag k="ref:vcgi:esiteid" v="112019"/>
  </node>
  <node id="-401" visible="true" lat="44.69555323" lon="-72.17671527">
    <tag k="addr:housenumber" v="924"/>
    <tag k="addr:street" v="Dexter Mountain Road"/>
    <tag k="addr:state" v="VT"/>
    <tag k="ref:vcgi:esiteid" v="112020"/>
  </node>
  <node id="-402" visible="true" lat="44.69505684" lon="-72.16332473">
    <tag k="addr:housenumber" v="1596"/>
    <tag k="addr:street" v="Dexter Mountain Road"/>
    <tag k="addr:state" v="VT"/>
    <tag k="ref:vcgi:esiteid" v="112021"/>
  </node>
  <node id="-403" visible="true" lat="44.69473867" lon="-72.16688035">
    <tag k="addr:housenumber" v="1435"/>
    <tag k="addr:street" v="Dexter Mountain Road"/>
    <tag k="addr:state" v="VT"/>
    <tag k="ref:vcgi:esiteid" v="112022"/>
  </node>
  <node id="-404" visible="true" lat="44.69432046" lon="-72.1804878">
    <tag k="addr:housenumber" v="744"/>
    <tag k="addr:street" v="Dexter Mountain Road"/>
    <tag k="addr:state" v="VT"/>
    <tag k="ref:vcgi:esiteid" v="112023"/>
  </node>
  <node id="-405" visible="true" lat="44.69355049" lon="-72.1683416">
    <tag k="addr:housenumber" v="1370"/>
    <tag k="addr:street" v="Dexter Mountain Road"/>
    <tag k="addr:state" v="VT"/>
    <tag k="ref:vcgi:esiteid" v="112024"/>
  </node>
  <node id="-406" visible="true" lat="44.69386345" lon="-72.26539618">
    <tag k="addr:housenumber" v="964"/>
    <tag k="addr:street" v="Beach Hill Road"/>
    <tag k="addr:state" v="VT"/>
    <tag k="ref:vcgi:esiteid" v="112025"/>
  </node>
  <node id="-407" visible="true" lat="44.69287999" lon="-72.19232194">
    <tag k="addr:housenumber" v="3942"/>
    <tag k="addr:street" v="Glover Street"/>
    <tag k="addr:state" v="VT"/>
    <tag k="ref:vcgi:esiteid" v="112026"/>
  </node>
  <node id="-408" visible="true" lat="44.69201798" lon="-72.29019612">
    <tag k="addr:housenumber" v="1070"/>
    <tag k="addr:street" v="Andersonville Road"/>
    <tag k="addr:state" v="VT"/>
    <tag k="ref:vcgi:esiteid" v="112027"/>
  </node>
  <node id="-409" visible="true" lat="44.69207504" lon="-72.27745741">
    <tag k="addr:housenumber" v="1546"/>
    <tag k="addr:street" v="Beach Hill Road"/>
    <tag k="addr:state" v="VT"/>
    <tag k="ref:vcgi:esiteid" v="112028"/>
  </node>
  <node id="-410" visible="true" lat="44.69093153" lon="-72.19181115">
    <tag k="addr:housenumber" v="4131"/>
    <tag k="addr:street" v="Glover Street"/>
    <tag k="addr:state" v="VT"/>
    <tag k="ref:vcgi:esiteid" v="112029"/>
  </node>
  <node id="-411" visible="true" lat="44.6903364" lon="-72.18653731">
    <tag k="addr:housenumber" v="222"/>
    <tag k="addr:street" v="Old Heights Road"/>
    <tag k="addr:state" v="VT"/>
    <tag k="ref:vcgi:esiteid" v="112030"/>
  </node>
  <node id="-412" visible="true" lat="44.69050243" lon="-72.27426254">
    <tag k="addr:housenumber" v="1429"/>
    <tag k="addr:street" v="Beach Hill Road"/>
    <tag k="addr:state" v="VT"/>
    <tag k="ref:vcgi:esiteid" v="112031"/>
  </node>
  <node id="-413" visible="true" lat="44.69031339" lon="-72.27098476">
    <tag k="addr:housenumber" v="1299"/>
    <tag k="addr:street" v="Beach Hill Road"/>
    <tag k="addr:state" v="VT"/>
    <tag k="ref:vcgi:esiteid" v="112032"/>
  </node>
  <node id="-414" visible="true" lat="44.69030009" lon="-72.25954866">
    <tag k="addr:housenumber" v="330"/>
    <tag k="addr:street" v="Bear Call Road"/>
    <tag k="addr:state" v="VT"/>
    <tag k="ref:vcgi:esiteid" v="112033"/>
  </node>
  <node id="-415" visible="true" lat="44.69000394" lon="-72.18614084">
    <tag k="addr:housenumber" v="144"/>
    <tag k="addr:street" v="Old Heights Road"/>
    <tag k="addr:state" v="VT"/>
    <tag k="ref:vcgi:esiteid" v="112034"/>
  </node>
  <node id="-417" visible="true" lat="44.68933048" lon="-72.18565032">
    <tag k="addr:housenumber" v="142"/>
    <tag k="addr:street" v="Old Heights Road"/>
    <tag k="addr:state" v="VT"/>
    <tag k="ref:vcgi:esiteid" v="112036"/>
  </node>
  <node id="-418" visible="true" lat="44.6892962" lon="-72.27821246">
    <tag k="addr:housenumber" v="1675"/>
    <tag k="addr:street" v="Beach Hill Road"/>
    <tag k="addr:state" v="VT"/>
    <tag k="ref:vcgi:esiteid" v="112037"/>
  </node>
  <node id="-419" visible="true" lat="44.68867032" lon="-72.1850556">
    <tag k="addr:housenumber" v="323"/>
    <tag k="addr:street" v="Heights Road"/>
    <tag k="addr:state" v="VT"/>
    <tag k="ref:vcgi:esiteid" v="112038"/>
  </node>
  <node id="-420" visible="true" lat="44.68807333" lon="-72.23597494">
    <tag k="addr:housenumber" v="2694"/>
    <tag k="addr:street" v="Perron Hill"/>
    <tag k="addr:state" v="VT"/>
    <tag k="ref:vcgi:esiteid" v="112039"/>
  </node>
  <node id="-421" visible="true" lat="44.68796127" lon="-72.2423744">
    <tag k="addr:housenumber" v="2980"/>
    <tag k="addr:street" v="Perron Hill"/>
    <tag k="addr:state" v="VT"/>
    <tag k="ref:vcgi:esiteid" v="112040"/>
  </node>
  <node id="-422" visible="true" lat="44.68737616" lon="-72.23285232">
    <tag k="addr:housenumber" v="2580"/>
    <tag k="addr:street" v="Perron Hill"/>
    <tag k="addr:state" v="VT"/>
    <tag k="ref:vcgi:esiteid" v="112041"/>
  </node>
  <node id="-423" visible="true" lat="44.68722503" lon="-72.23926952">
    <tag k="addr:housenumber" v="2878"/>
    <tag k="addr:street" v="Perron Hill"/>
    <tag k="addr:state" v="VT"/>
    <tag k="ref:vcgi:esiteid" v="112042"/>
  </node>
  <node id="-424" visible="true" lat="44.68660111" lon="-72.17566447">
    <tag k="addr:housenumber" v="777"/>
    <tag k="addr:street" v="Heights Road"/>
    <tag k="addr:state" v="VT"/>
    <tag k="ref:vcgi:esiteid" v="112043"/>
  </node>
  <node id="-425" visible="true" lat="44.68674129" lon="-72.28390558">
    <tag k="addr:housenumber" v="2003"/>
    <tag k="addr:street" v="Beach Hill Road"/>
    <tag k="addr:state" v="VT"/>
    <tag k="ref:vcgi:esiteid" v="112044"/>
  </node>
  <node id="-426" visible="true" lat="44.68697379" lon="-72.26213801">
    <tag k="addr:housenumber" v="616"/>
    <tag k="addr:street" v="Bear Call Road"/>
    <tag k="addr:state" v="VT"/>
    <tag k="ref:vcgi:esiteid" v="112045"/>
  </node>
  <node id="-427" visible="true" lat="44.68618536" lon="-72.24410322">
    <tag k="addr:housenumber" v="2982"/>
    <tag k="addr:street" v="Perron Hill"/>
    <tag k="addr:state" v="VT"/>
    <tag k="ref:vcgi:esiteid" v="112046"/>
  </node>
  <node id="-428" visible="true" lat="44.68601365" lon="-72.18513672">
    <tag k="addr:housenumber" v="428"/>
    <tag k="addr:street" v="Heights Road"/>
    <tag k="addr:state" v="VT"/>
    <tag k="ref:vcgi:esiteid" v="112047"/>
  </node>
  <node id="-429" visible="true" lat="44.68608034" lon="-72.26160482">
    <tag k="addr:housenumber" v="655"/>
    <tag k="addr:street" v="Bear Call Road"/>
    <tag k="addr:state" v="VT"/>
    <tag k="ref:vcgi:esiteid" v="112048"/>
  </node>
  <node id="-430" visible="true" lat="44.68563991" lon="-72.17263181">
    <tag k="addr:housenumber" v="989"/>
    <tag k="addr:street" v="Heights Road"/>
    <tag k="addr:state" v="VT"/>
    <tag k="ref:vcgi:esiteid" v="112049"/>
  </node>
  <node id="-431" visible="true" lat="44.68589445" lon="-72.19119882">
    <tag k="addr:housenumber" v="100"/>
    <tag k="addr:street" v="Dry Pond Road"/>
    <tag k="addr:state" v="VT"/>
    <tag k="ref:vcgi:esiteid" v="112050"/>
  </node>
  <node id="-432" visible="true" lat="44.68569386" lon="-72.28456512">
    <tag k="addr:housenumber" v="2073"/>
    <tag k="addr:street" v="Beach Hill Road"/>
    <tag k="addr:state" v="VT"/>
    <tag k="ref:vcgi:esiteid" v="112052"/>
  </node>
  <node id="-433" visible="true" lat="44.68556496" lon="-72.18441916">
    <tag k="addr:housenumber" v="514"/>
    <tag k="addr:street" v="Heights Road"/>
    <tag k="addr:state" v="VT"/>
    <tag k="ref:vcgi:esiteid" v="112053"/>
  </node>
  <node id="-434" visible="true" lat="44.68568194" lon="-72.2878328">
    <tag k="addr:housenumber" v="2216"/>
    <tag k="addr:street" v="Beach Hill Road"/>
    <tag k="addr:state" v="VT"/>
    <tag k="ref:vcgi:esiteid" v="112054"/>
  </node>
  <node id="-435" visible="true" lat="44.68524559" lon="-72.28485282">
    <tag k="addr:housenumber" v="2153"/>
    <tag k="addr:street" v="Beach Hill Road"/>
    <tag k="addr:state" v="VT"/>
    <tag k="ref:vcgi:esiteid" v="112055"/>
  </node>
  <node id="-436" visible="true" lat="44.68491121" lon="-72.29032984">
    <tag k="addr:housenumber" v="1560"/>
    <tag k="addr:street" v="Andersonville Road"/>
    <tag k="addr:state" v="VT"/>
    <tag k="ref:vcgi:esiteid" v="112056"/>
  </node>
  <node id="-437" visible="true" lat="44.68493838" lon="-72.1960884">
    <tag k="addr:housenumber" v="314"/>
    <tag k="addr:street" v="Perron Hill"/>
    <tag k="addr:state" v="VT"/>
    <tag k="ref:vcgi:esiteid" v="112057"/>
  </node>
  <node id="-438" visible="true" lat="44.68480387" lon="-72.19485512">
    <tag k="addr:housenumber" v="264"/>
    <tag k="addr:street" v="Perron Hill"/>
    <tag k="addr:state" v="VT"/>
    <tag k="ref:vcgi:esiteid" v="112058"/>
  </node>
  <node id="-439" visible="true" lat="44.68459178" lon="-72.22847896">
    <tag k="addr:housenumber" v="2307"/>
    <tag k="addr:street" v="Perron Hill"/>
    <tag k="addr:state" v="VT"/>
    <tag k="ref:vcgi:esiteid" v="112059"/>
  </node>
  <node id="-440" visible="true" lat="44.68462032" lon="-72.19973659">
    <tag k="addr:housenumber" v="518"/>
    <tag k="addr:street" v="Perron Hill"/>
    <tag k="addr:state" v="VT"/>
    <tag k="ref:vcgi:esiteid" v="112060"/>
  </node>
  <node id="-441" visible="true" lat="44.6842628" lon="-72.1840228">
    <tag k="addr:housenumber" v="516"/>
    <tag k="addr:street" v="Heights Road"/>
    <tag k="addr:state" v="VT"/>
    <tag k="ref:vcgi:esiteid" v="112061"/>
  </node>
  <node id="-442" visible="true" lat="44.68430341" lon="-72.20048884">
    <tag k="addr:housenumber" v="549"/>
    <tag k="addr:street" v="Perron Hill"/>
    <tag k="addr:state" v="VT"/>
    <tag k="ref:vcgi:esiteid" v="112062"/>
  </node>
  <node id="-443" visible="true" lat="44.68445231" lon="-72.19267281">
    <tag k="addr:housenumber" v="156"/>
    <tag k="addr:street" v="Perron Hill"/>
    <tag k="addr:state" v="VT"/>
    <tag k="ref:vcgi:esiteid" v="112063"/>
  </node>
  <node id="-445" visible="true" lat="44.68397017" lon="-72.19217407">
    <tag k="addr:housenumber" v="123"/>
    <tag k="addr:street" v="Perron Hill"/>
    <tag k="addr:state" v="VT"/>
    <tag k="ref:vcgi:esiteid" v="112065"/>
  </node>
  <node id="-446" visible="true" lat="44.68428151" lon="-72.2401042">
    <tag k="addr:housenumber" v="3135"/>
    <tag k="addr:street" v="Perron Hill"/>
    <tag k="addr:state" v="VT"/>
    <tag k="ref:vcgi:esiteid" v="112066"/>
  </node>
  <node id="-447" visible="true" lat="44.68331137" lon="-72.29127195">
    <tag k="addr:housenumber" v="23"/>
    <tag k="addr:street" v="Rowell Road"/>
    <tag k="addr:state" v="VT"/>
    <tag k="ref:vcgi:esiteid" v="112067"/>
  </node>
  <node id="-448" visible="true" lat="44.68289274" lon="-72.16563796">
    <tag k="addr:housenumber" v="1311"/>
    <tag k="addr:street" v="Heights Road"/>
    <tag k="addr:state" v="VT"/>
    <tag k="ref:vcgi:esiteid" v="112068"/>
  </node>
  <node id="-449" visible="true" lat="44.68302734" lon="-72.18949055">
    <tag k="addr:housenumber" v="303"/>
    <tag k="addr:street" v="Dry Pond Road"/>
    <tag k="addr:state" v="VT"/>
    <tag k="ref:vcgi:esiteid" v="112069"/>
  </node>
  <node id="-450" visible="true" lat="44.68257862" lon="-72.17148624">
    <tag k="addr:housenumber" v="1101"/>
    <tag k="addr:street" v="Heights Road"/>
    <tag k="addr:state" v="VT"/>
    <tag k="ref:vcgi:esiteid" v="112071"/>
  </node>
  <node id="-452" visible="true" lat="44.68258491" lon="-72.19032435">
    <tag k="addr:housenumber" v="316"/>
    <tag k="addr:street" v="Dry Pond Road"/>
    <tag k="addr:state" v="VT"/>
    <tag k="ref:vcgi:esiteid" v="112073"/>
  </node>
  <node id="-453" visible="true" lat="44.6826872" lon="-72.27842902">
    <tag k="addr:housenumber" v="1548"/>
    <tag k="addr:street" v="Daniels Pond Road"/>
    <tag k="addr:state" v="VT"/>
    <tag k="ref:vcgi:esiteid" v="112074"/>
  </node>
  <node id="-454" visible="true" lat="44.6825204" lon="-72.28973175">
    <tag k="addr:housenumber" v="1747"/>
    <tag k="addr:street" v="Andersonville Road"/>
    <tag k="addr:state" v="VT"/>
    <tag k="ref:vcgi:esiteid" v="112075"/>
  </node>
  <node id="-455" visible="true" lat="44.68374713" lon="-72.16816033">
    <tag k="addr:housenumber" v="1309"/>
    <tag k="addr:street" v="Heights Road"/>
    <tag k="addr:state" v="VT"/>
    <tag k="ref:vcgi:esiteid" v="112076"/>
  </node>
  <node id="-456" visible="true" lat="44.68190823" lon="-72.25791396">
    <tag k="addr:housenumber" v="624"/>
    <tag k="addr:street" v="Daniels Pond Road"/>
    <tag k="addr:state" v="VT"/>
    <tag k="ref:vcgi:esiteid" v="112077"/>
  </node>
  <node id="-458" visible="true" lat="44.68119341" lon="-72.17115002">
    <tag k="addr:housenumber" v="1150"/>
    <tag k="addr:street" v="Heights Road"/>
    <tag k="addr:state" v="VT"/>
    <tag k="ref:vcgi:esiteid" v="112079"/>
  </node>
  <node id="-459" visible="true" lat="44.68155976" lon="-72.1677705">
    <tag k="addr:housenumber" v="1295"/>
    <tag k="addr:street" v="Heights Road"/>
    <tag k="addr:state" v="VT"/>
    <tag k="ref:vcgi:esiteid" v="112080"/>
  </node>
  <node id="-460" visible="true" lat="44.68164702" lon="-72.24556214">
    <tag k="addr:housenumber" v="3336"/>
    <tag k="addr:street" v="Perron Hill"/>
    <tag k="addr:state" v="VT"/>
    <tag k="ref:vcgi:esiteid" v="112081"/>
  </node>
  <node id="-461" visible="true" lat="44.68115562" lon="-72.22417085">
    <tag k="addr:housenumber" v="1955"/>
    <tag k="addr:street" v="Perron Hill"/>
    <tag k="addr:state" v="VT"/>
    <tag k="ref:vcgi:esiteid" v="112082"/>
  </node>
  <node id="-462" visible="true" lat="44.68106265" lon="-72.28624318">
    <tag k="addr:housenumber" v="1902"/>
    <tag k="addr:street" v="Daniels Pond Road"/>
    <tag k="addr:state" v="VT"/>
    <tag k="ref:vcgi:esiteid" v="112083"/>
  </node>
  <node id="-463" visible="true" lat="44.68058195" lon="-72.23843469">
    <tag k="addr:housenumber" v="3385"/>
    <tag k="addr:street" v="Perron Hill"/>
    <tag k="addr:state" v="VT"/>
    <tag k="ref:vcgi:esiteid" v="112084"/>
  </node>
  <node id="-464" visible="true" lat="44.68051871" lon="-72.20578346">
    <tag k="addr:housenumber" v="970"/>
    <tag k="addr:street" v="Perron Hill"/>
    <tag k="addr:state" v="VT"/>
    <tag k="ref:vcgi:esiteid" v="112085"/>
  </node>
  <node id="-465" visible="true" lat="44.68024894" lon="-72.16880253">
    <tag k="addr:housenumber" v="1274"/>
    <tag k="addr:street" v="Heights Road"/>
    <tag k="addr:state" v="VT"/>
    <tag k="ref:vcgi:esiteid" v="112086"/>
  </node>
  <node id="-466" visible="true" lat="44.6804161" lon="-72.22309875">
    <tag k="addr:housenumber" v="1877"/>
    <tag k="addr:street" v="Perron Hill"/>
    <tag k="addr:state" v="VT"/>
    <tag k="ref:vcgi:esiteid" v="112087"/>
  </node>
  <node id="-467" visible="true" lat="44.6803756" lon="-72.29063594">
    <tag k="addr:housenumber" v="1891"/>
    <tag k="addr:street" v="Andersonville Road"/>
    <tag k="addr:state" v="VT"/>
    <tag k="ref:vcgi:esiteid" v="112088"/>
  </node>
  <node id="-468" visible="true" lat="44.68029394" lon="-72.16665607">
    <tag k="addr:housenumber" v="1365"/>
    <tag k="addr:street" v="Heights Road"/>
    <tag k="addr:state" v="VT"/>
    <tag k="ref:vcgi:esiteid" v="112089"/>
  </node>
  <node id="-470" visible="true" lat="44.6797905" lon="-72.16704559">
    <tag k="addr:housenumber" v="1378"/>
    <tag k="addr:street" v="Heights Road"/>
    <tag k="addr:state" v="VT"/>
    <tag k="ref:vcgi:esiteid" v="112091"/>
  </node>
  <node id="-471" visible="true" lat="44.67989558" lon="-72.22247517">
    <tag k="addr:housenumber" v="1827"/>
    <tag k="addr:street" v="Perron Hill"/>
    <tag k="addr:state" v="VT"/>
    <tag k="ref:vcgi:esiteid" v="112092"/>
  </node>
  <node id="-472" visible="true" lat="44.68054951" lon="-72.20883435">
    <tag k="addr:housenumber" v="1104"/>
    <tag k="addr:street" v="Perron Hill"/>
    <tag k="addr:state" v="VT"/>
    <tag k="ref:vcgi:esiteid" v="112093"/>
  </node>
  <node id="-473" visible="true" lat="44.67961849" lon="-72.21461135">
    <tag k="addr:housenumber" v="1444"/>
    <tag k="addr:street" v="Perron Hill"/>
    <tag k="addr:state" v="VT"/>
    <tag k="ref:vcgi:esiteid" v="112094"/>
  </node>
  <node id="-474" visible="true" lat="44.67964172" lon="-72.23858642">
    <tag k="addr:housenumber" v="3455"/>
    <tag k="addr:street" v="Perron Hill"/>
    <tag k="addr:state" v="VT"/>
    <tag k="ref:vcgi:esiteid" v="112095"/>
  </node>
  <node id="-475" visible="true" lat="44.67949686" lon="-72.19031809">
    <tag k="addr:housenumber" v="536"/>
    <tag k="addr:street" v="Dry Pond Road"/>
    <tag k="addr:state" v="VT"/>
    <tag k="ref:vcgi:esiteid" v="112096"/>
  </node>
  <node id="-476" visible="true" lat="44.67954938" lon="-72.21206945">
    <tag k="addr:housenumber" v="1296"/>
    <tag k="addr:street" v="Perron Hill"/>
    <tag k="addr:state" v="VT"/>
    <tag k="ref:vcgi:esiteid" v="112097"/>
  </node>
  <node id="-477" visible="true" lat="44.67947892" lon="-72.21811883">
    <tag k="addr:housenumber" v="1616"/>
    <tag k="addr:street" v="Perron Hill"/>
    <tag k="addr:state" v="VT"/>
    <tag k="ref:vcgi:esiteid" v="112098"/>
  </node>
  <node id="-478" visible="true" lat="44.68147249" lon="-72.18616779">
    <tag k="addr:housenumber" v="93"/>
    <tag k="addr:street" v="Parish School Road"/>
    <tag k="addr:state" v="VT"/>
    <tag k="ref:vcgi:esiteid" v="112099"/>
  </node>
  <node id="-479" visible="true" lat="44.67892808" lon="-72.16388715">
    <tag k="addr:housenumber" v="1537"/>
    <tag k="addr:street" v="Heights Road"/>
    <tag k="addr:state" v="VT"/>
    <tag k="ref:vcgi:esiteid" v="112100"/>
  </node>
  <node id="-480" visible="true" lat="44.67883272" lon="-72.18709426">
    <tag k="addr:housenumber" v="143"/>
    <tag k="addr:street" v="Parish School Road"/>
    <tag k="addr:state" v="VT"/>
    <tag k="ref:vcgi:esiteid" v="112101"/>
  </node>
  <node id="-481" visible="true" lat="44.67884019" lon="-72.21802369">
    <tag k="addr:housenumber" v="1609"/>
    <tag k="addr:street" v="Perron Hill"/>
    <tag k="addr:state" v="VT"/>
    <tag k="ref:vcgi:esiteid" v="112102"/>
  </node>
  <node id="-482" visible="true" lat="44.67875892" lon="-72.18461075">
    <tag k="addr:housenumber" v="275"/>
    <tag k="addr:street" v="Parish School Road"/>
    <tag k="addr:state" v="VT"/>
    <tag k="ref:vcgi:esiteid" v="112103"/>
  </node>
  <node id="-483" visible="true" lat="44.67871661" lon="-72.17801499">
    <tag k="addr:housenumber" v="579"/>
    <tag k="addr:street" v="Parish School Road"/>
    <tag k="addr:state" v="VT"/>
    <tag k="ref:vcgi:esiteid" v="112104"/>
  </node>
  <node id="-484" visible="true" lat="44.67858252" lon="-72.18197032">
    <tag k="addr:housenumber" v="393"/>
    <tag k="addr:street" v="Parish School Road"/>
    <tag k="addr:state" v="VT"/>
    <tag k="ref:vcgi:esiteid" v="112105"/>
  </node>
  <node id="-486" visible="true" lat="44.67828432" lon="-72.18962907">
    <tag k="addr:housenumber" v="607"/>
    <tag k="addr:street" v="Dry Pond Road"/>
    <tag k="addr:state" v="VT"/>
    <tag k="ref:vcgi:esiteid" v="112107"/>
  </node>
  <node id="-487" visible="true" lat="44.67803487" lon="-72.18103668">
    <tag k="addr:housenumber" v="5"/>
    <tag k="addr:street" v="Thompson Place"/>
    <tag k="addr:state" v="VT"/>
    <tag k="ref:vcgi:esiteid" v="112108"/>
  </node>
  <node id="-490" visible="true" lat="44.6776619" lon="-72.2606908">
    <tag k="addr:housenumber" v="439"/>
    <tag k="addr:street" v="Daniels Pond Road"/>
    <tag k="addr:state" v="VT"/>
    <tag k="ref:vcgi:esiteid" v="112111"/>
  </node>
  <node id="-491" visible="true" lat="44.67807943" lon="-72.29461639">
    <tag k="addr:housenumber" v="2158"/>
    <tag k="addr:street" v="Andersonville Road"/>
    <tag k="addr:state" v="VT"/>
    <tag k="ref:vcgi:esiteid" v="112112"/>
  </node>
  <node id="-492" visible="true" lat="44.67765213" lon="-72.18288635">
    <tag k="addr:housenumber" v="83"/>
    <tag k="addr:street" v="Thompson Place"/>
    <tag k="addr:state" v="VT"/>
    <tag k="ref:vcgi:esiteid" v="112113"/>
  </node>
  <node id="-493" visible="true" lat="44.6774733" lon="-72.20202035">
    <tag k="addr:housenumber" v="287"/>
    <tag k="addr:street" v="Drew Place"/>
    <tag k="addr:state" v="VT"/>
    <tag k="ref:vcgi:esiteid" v="112114"/>
  </node>
  <node id="-496" visible="true" lat="44.67693715" lon="-72.2322583">
    <tag k="addr:housenumber" v="440"/>
    <tag k="addr:street" v="Clark Road"/>
    <tag k="addr:state" v="VT"/>
    <tag k="ref:vcgi:esiteid" v="112117"/>
  </node>
  <node id="-497" visible="true" lat="44.67738561" lon="-72.29768891">
    <tag k="addr:housenumber" v="2342"/>
    <tag k="addr:street" v="Andersonville Road"/>
    <tag k="addr:state" v="VT"/>
    <tag k="ref:vcgi:esiteid" v="112118"/>
  </node>
  <node id="-501" visible="true" lat="44.67619046" lon="-72.22749229">
    <tag k="addr:housenumber" v="471"/>
    <tag k="addr:street" v="Clark Road"/>
    <tag k="addr:state" v="VT"/>
    <tag k="ref:vcgi:esiteid" v="112122"/>
  </node>
  <node id="-502" visible="true" lat="44.67619869" lon="-72.18802511">
    <tag k="addr:housenumber" v="65"/>
    <tag k="addr:street" v="Trucott Place"/>
    <tag k="addr:state" v="VT"/>
    <tag k="ref:vcgi:esiteid" v="112123"/>
  </node>
  <node id="-504" visible="true" lat="44.67595561" lon="-72.18923431">
    <tag k="addr:housenumber" v="777"/>
    <tag k="addr:street" v="Dry Pond Road"/>
    <tag k="addr:state" v="VT"/>
    <tag k="ref:vcgi:esiteid" v="112125"/>
  </node>
  <node id="-506" visible="true" lat="44.67611195" lon="-72.21072839">
    <tag k="addr:housenumber" v="1225"/>
    <tag k="addr:street" v="Perron Hill"/>
    <tag k="addr:state" v="VT"/>
    <tag k="ref:vcgi:esiteid" v="112127"/>
  </node>
  <node id="-507" visible="true" lat="44.6759504" lon="-72.22919816">
    <tag k="addr:housenumber" v="524"/>
    <tag k="addr:street" v="Clark Road"/>
    <tag k="addr:state" v="VT"/>
    <tag k="ref:vcgi:esiteid" v="112128"/>
  </node>
  <node id="-508" visible="true" lat="44.67582202" lon="-72.18472009">
    <tag k="addr:housenumber" v="241"/>
    <tag k="addr:street" v="Trucott Place"/>
    <tag k="addr:state" v="VT"/>
    <tag k="ref:vcgi:esiteid" v="112129"/>
  </node>
  <node id="-511" visible="true" lat="44.67588166" lon="-72.18301545">
    <tag k="addr:housenumber" v="351"/>
    <tag k="addr:street" v="Trucott Place"/>
    <tag k="addr:state" v="VT"/>
    <tag k="ref:vcgi:esiteid" v="112132"/>
  </node>
  <node id="-512" visible="true" lat="44.67569284" lon="-72.30308559">
    <tag k="addr:housenumber" v="2602"/>
    <tag k="addr:street" v="Andersonville Road"/>
    <tag k="addr:state" v="VT"/>
    <tag k="ref:vcgi:esiteid" v="112133"/>
  </node>
  <node id="-515" visible="true" lat="44.67484579" lon="-72.18843465">
    <tag k="addr:housenumber" v="957"/>
    <tag k="addr:street" v="Dry Pond Road"/>
    <tag k="addr:state" v="VT"/>
    <tag k="ref:vcgi:esiteid" v="112136"/>
  </node>
  <node id="-517" visible="true" lat="44.67450756" lon="-72.22857845">
    <tag k="addr:housenumber" v="20"/>
    <tag k="addr:street" v="Maynard Drive"/>
    <tag k="addr:state" v="VT"/>
    <tag k="ref:vcgi:esiteid" v="112138"/>
  </node>
  <node id="-521" visible="true" lat="44.67452274" lon="-72.22937173">
    <tag k="addr:housenumber" v="41"/>
    <tag k="addr:street" v="Danforth Road"/>
    <tag k="addr:state" v="VT"/>
    <tag k="ref:vcgi:esiteid" v="112142"/>
  </node>
  <node id="-522" visible="true" lat="44.67437984" lon="-72.22809321">
    <tag k="addr:housenumber" v="76"/>
    <tag k="addr:street" v="Maynard Drive"/>
    <tag k="addr:state" v="VT"/>
    <tag k="ref:vcgi:esiteid" v="112143"/>
  </node>
  <node id="-523" visible="true" lat="44.67414802" lon="-72.22766551">
    <tag k="addr:housenumber" v="94"/>
    <tag k="addr:street" v="Maynard Drive"/>
    <tag k="addr:state" v="VT"/>
    <tag k="ref:vcgi:esiteid" v="112144"/>
  </node>
  <node id="-530" visible="true" lat="44.67416789" lon="-72.18903425">
    <tag k="addr:housenumber" v="955"/>
    <tag k="addr:street" v="Dry Pond Road"/>
    <tag k="addr:state" v="VT"/>
    <tag k="ref:vcgi:esiteid" v="112151"/>
  </node>
  <node id="-531" visible="true" lat="44.67409557" lon="-72.22970708">
    <tag k="addr:housenumber" v="67"/>
    <tag k="addr:street" v="Danforth Road"/>
    <tag k="addr:state" v="VT"/>
    <tag k="ref:vcgi:esiteid" v="112152"/>
  </node>
  <node id="-534" visible="true" lat="44.67396535" lon="-72.22745175">
    <tag k="addr:housenumber" v="96"/>
    <tag k="addr:street" v="Maynard Drive"/>
    <tag k="addr:state" v="VT"/>
    <tag k="ref:vcgi:esiteid" v="112155"/>
  </node>
  <node id="-535" visible="true" lat="44.67393261" lon="-72.23008569">
    <tag k="addr:housenumber" v="79"/>
    <tag k="addr:street" v="Danforth Road"/>
    <tag k="addr:state" v="VT"/>
    <tag k="ref:vcgi:esiteid" v="112156"/>
  </node>
  <node id="-539" visible="true" lat="44.67388668" lon="-72.2272412">
    <tag k="addr:housenumber" v="98"/>
    <tag k="addr:street" v="Maynard Drive"/>
    <tag k="addr:state" v="VT"/>
    <tag k="ref:vcgi:esiteid" v="112160"/>
  </node>
  <node id="-540" visible="true" lat="44.67368493" lon="-72.23025533">
    <tag k="addr:housenumber" v="81"/>
    <tag k="addr:street" v="Danforth Road"/>
    <tag k="addr:state" v="VT"/>
    <tag k="ref:vcgi:esiteid" v="112161"/>
  </node>
  <node id="-544" visible="true" lat="44.67364776" lon="-72.30344391">
    <tag k="addr:housenumber" v="1910"/>
    <tag k="addr:street" v="Rodgers Road"/>
    <tag k="addr:state" v="VT"/>
    <tag k="ref:vcgi:esiteid" v="112165"/>
  </node>
  <node id="-545" visible="true" lat="44.6732625" lon="-72.18984184">
    <tag k="addr:housenumber" v="984"/>
    <tag k="addr:street" v="Dry Pond Road"/>
    <tag k="addr:state" v="VT"/>
    <tag k="ref:vcgi:esiteid" v="112166"/>
  </node>
  <node id="-547" visible="true" lat="44.67343144" lon="-72.19031785">
    <tag k="addr:housenumber" v="1008"/>
    <tag k="addr:street" v="Dry Pond Road"/>
    <tag k="addr:state" v="VT"/>
    <tag k="ref:vcgi:esiteid" v="112168"/>
  </node>
  <node id="-548" visible="true" lat="44.67276912" lon="-72.25236427">
    <tag k="addr:housenumber" v="3200"/>
    <tag k="addr:street" v="Shadow Lake Road"/>
    <tag k="addr:state" v="VT"/>
    <tag k="ref:vcgi:esiteid" v="112169"/>
  </node>
  <node id="-549" visible="true" lat="44.67240848" lon="-72.25846233">
    <tag k="addr:housenumber" v="142"/>
    <tag k="addr:street" v="Mud Island Road"/>
    <tag k="addr:state" v="VT"/>
    <tag k="ref:vcgi:esiteid" v="112170"/>
  </node>
  <node id="-550" visible="true" lat="44.67179111" lon="-72.25182349">
    <tag k="addr:housenumber" v="3156"/>
    <tag k="addr:street" v="Shadow Lake Road"/>
    <tag k="addr:state" v="VT"/>
    <tag k="ref:vcgi:esiteid" v="112171"/>
  </node>
  <node id="-551" visible="true" lat="44.67144556" lon="-72.22468662">
    <tag k="addr:housenumber" v="655"/>
    <tag k="addr:street" v="Stone Shore Road"/>
    <tag k="addr:state" v="VT"/>
    <tag k="ref:vcgi:esiteid" v="112172"/>
  </node>
  <node id="-552" visible="true" lat="44.67117391" lon="-72.22446841">
    <tag k="addr:housenumber" v="627"/>
    <tag k="addr:street" v="Stone Shore Road"/>
    <tag k="addr:state" v="VT"/>
    <tag k="ref:vcgi:esiteid" v="112173"/>
  </node>
  <node id="-553" visible="true" lat="44.67056799" lon="-72.18888126">
    <tag k="addr:housenumber" v="1133"/>
    <tag k="addr:street" v="Dry Pond Road"/>
    <tag k="addr:state" v="VT"/>
    <tag k="ref:vcgi:esiteid" v="112174"/>
  </node>
  <node id="-554" visible="true" lat="44.67137761" lon="-72.29622506">
    <tag k="addr:housenumber" v="1516"/>
    <tag k="addr:street" v="Rodgers Road"/>
    <tag k="addr:state" v="VT"/>
    <tag k="ref:vcgi:esiteid" v="112175"/>
  </node>
  <node id="-555" visible="true" lat="44.67105838" lon="-72.22426792">
    <tag k="addr:housenumber" v="611"/>
    <tag k="addr:street" v="Stone Shore Road"/>
    <tag k="addr:state" v="VT"/>
    <tag k="ref:vcgi:esiteid" v="112176"/>
  </node>
  <node id="-556" visible="true" lat="44.67081811" lon="-72.22392932">
    <tag k="addr:housenumber" v="589"/>
    <tag k="addr:street" v="Stone Shore Road"/>
    <tag k="addr:state" v="VT"/>
    <tag k="ref:vcgi:esiteid" v="112177"/>
  </node>
  <node id="-557" visible="true" lat="44.67066715" lon="-72.22358842">
    <tag k="addr:housenumber" v="573"/>
    <tag k="addr:street" v="Stone Shore Road"/>
    <tag k="addr:state" v="VT"/>
    <tag k="ref:vcgi:esiteid" v="112178"/>
  </node>
  <node id="-558" visible="true" lat="44.67066883" lon="-72.22262586">
    <tag k="addr:housenumber" v="540"/>
    <tag k="addr:street" v="Stone Shore Road"/>
    <tag k="addr:state" v="VT"/>
    <tag k="ref:vcgi:esiteid" v="112179"/>
  </node>
  <node id="-559" visible="true" lat="44.67045528" lon="-72.22354636">
    <tag k="addr:housenumber" v="557"/>
    <tag k="addr:street" v="Stone Shore Road"/>
    <tag k="addr:state" v="VT"/>
    <tag k="ref:vcgi:esiteid" v="112180"/>
  </node>
  <node id="-560" visible="true" lat="44.67069244" lon="-72.29466247">
    <tag k="addr:housenumber" v="1444"/>
    <tag k="addr:street" v="Rodgers Road"/>
    <tag k="addr:state" v="VT"/>
    <tag k="ref:vcgi:esiteid" v="112181"/>
  </node>
  <node id="-561" visible="true" lat="44.67046204" lon="-72.29530884">
    <tag k="addr:housenumber" v="1449"/>
    <tag k="addr:street" v="Rodgers Road"/>
    <tag k="addr:state" v="VT"/>
    <tag k="ref:vcgi:esiteid" v="112182"/>
  </node>
  <node id="-562" visible="true" lat="44.67022556" lon="-72.22330771">
    <tag k="addr:housenumber" v="525"/>
    <tag k="addr:street" v="Stone Shore Road"/>
    <tag k="addr:state" v="VT"/>
    <tag k="ref:vcgi:esiteid" v="112183"/>
  </node>
  <node id="-563" visible="true" lat="44.67009667" lon="-72.22224687">
    <tag k="addr:housenumber" v="482"/>
    <tag k="addr:street" v="Stone Shore Road"/>
    <tag k="addr:state" v="VT"/>
    <tag k="ref:vcgi:esiteid" v="112184"/>
  </node>
  <node id="-564" visible="true" lat="44.67008705" lon="-72.22312505">
    <tag k="addr:housenumber" v="513"/>
    <tag k="addr:street" v="Stone Shore Road"/>
    <tag k="addr:state" v="VT"/>
    <tag k="ref:vcgi:esiteid" v="112185"/>
  </node>
  <node id="-565" visible="true" lat="44.66994094" lon="-72.22185516">
    <tag k="addr:housenumber" v="464"/>
    <tag k="addr:street" v="Stone Shore Road"/>
    <tag k="addr:state" v="VT"/>
    <tag k="ref:vcgi:esiteid" v="112186"/>
  </node>
  <node id="-566" visible="true" lat="44.66969231" lon="-72.22273489">
    <tag k="addr:housenumber" v="481"/>
    <tag k="addr:street" v="Stone Shore Road"/>
    <tag k="addr:state" v="VT"/>
    <tag k="ref:vcgi:esiteid" v="112187"/>
  </node>
  <node id="-567" visible="true" lat="44.66983569" lon="-72.26735791">
    <tag k="addr:housenumber" v="656"/>
    <tag k="addr:street" v="Mud Island Road"/>
    <tag k="addr:state" v="VT"/>
    <tag k="ref:vcgi:esiteid" v="112188"/>
  </node>
  <node id="-568" visible="true" lat="44.6697299" lon="-72.22159491">
    <tag k="addr:housenumber" v="454"/>
    <tag k="addr:street" v="Stone Shore Road"/>
    <tag k="addr:state" v="VT"/>
    <tag k="ref:vcgi:esiteid" v="112189"/>
  </node>
  <node id="-569" visible="true" lat="44.6695233" lon="-72.29399205">
    <tag k="addr:housenumber" v="1375"/>
    <tag k="addr:street" v="Rodgers Road"/>
    <tag k="addr:state" v="VT"/>
    <tag k="ref:vcgi:esiteid" v="112190"/>
  </node>
  <node id="-570" visible="true" lat="44.66942948" lon="-72.2223301">
    <tag k="addr:housenumber" v="463"/>
    <tag k="addr:street" v="Stone Shore Road"/>
    <tag k="addr:state" v="VT"/>
    <tag k="ref:vcgi:esiteid" v="112191"/>
  </node>
  <node id="-571" visible="true" lat="44.66928582" lon="-72.22196913">
    <tag k="addr:housenumber" v="439"/>
    <tag k="addr:street" v="Stone Shore Road"/>
    <tag k="addr:state" v="VT"/>
    <tag k="ref:vcgi:esiteid" v="112192"/>
  </node>
  <node id="-572" visible="true" lat="44.66912969" lon="-72.22167838">
    <tag k="addr:housenumber" v="437"/>
    <tag k="addr:street" v="Stone Shore Road"/>
    <tag k="addr:state" v="VT"/>
    <tag k="ref:vcgi:esiteid" v="112193"/>
  </node>
  <node id="-573" visible="true" lat="44.66913831" lon="-72.22139511">
    <tag k="addr:housenumber" v="425"/>
    <tag k="addr:street" v="Stone Shore Road"/>
    <tag k="addr:state" v="VT"/>
    <tag k="ref:vcgi:esiteid" v="112194"/>
  </node>
  <node id="-574" visible="true" lat="44.66889015" lon="-72.24924059">
    <tag k="addr:housenumber" v="2941"/>
    <tag k="addr:street" v="Shadow Lake Road"/>
    <tag k="addr:state" v="VT"/>
    <tag k="ref:vcgi:esiteid" v="112195"/>
  </node>
  <node id="-575" visible="true" lat="44.66903861" lon="-72.22103993">
    <tag k="addr:housenumber" v="405"/>
    <tag k="addr:street" v="Stone Shore Road"/>
    <tag k="addr:state" v="VT"/>
    <tag k="ref:vcgi:esiteid" v="112196"/>
  </node>
  <node id="-576" visible="true" lat="44.66889881" lon="-72.22050678">
    <tag k="addr:housenumber" v="351"/>
    <tag k="addr:street" v="Stone Shore Road"/>
    <tag k="addr:state" v="VT"/>
    <tag k="ref:vcgi:esiteid" v="112197"/>
  </node>
  <node id="-577" visible="true" lat="44.66991284" lon="-72.23306797">
    <tag k="addr:housenumber" v="71"/>
    <tag k="addr:street" v="Inlet Cove"/>
    <tag k="addr:state" v="VT"/>
    <tag k="ref:vcgi:esiteid" v="112198"/>
  </node>
  <node id="-578" visible="true" lat="44.6690627" lon="-72.23342886">
    <tag k="addr:housenumber" v="61"/>
    <tag k="addr:street" v="Inlet Cove"/>
    <tag k="addr:state" v="VT"/>
    <tag k="ref:vcgi:esiteid" v="112199"/>
  </node>
  <node id="-579" visible="true" lat="44.66881222" lon="-72.23354703">
    <tag k="addr:housenumber" v="49"/>
    <tag k="addr:street" v="Inlet Cove"/>
    <tag k="addr:state" v="VT"/>
    <tag k="ref:vcgi:esiteid" v="112200"/>
  </node>
  <node id="-580" visible="true" lat="44.66861968" lon="-72.22020866">
    <tag k="addr:housenumber" v="317"/>
    <tag k="addr:street" v="Stone Shore Road"/>
    <tag k="addr:state" v="VT"/>
    <tag k="ref:vcgi:esiteid" v="112201"/>
  </node>
  <node id="-581" visible="true" lat="44.66854888" lon="-72.26152455">
    <tag k="addr:housenumber" v="248"/>
    <tag k="addr:street" v="Salmon Place"/>
    <tag k="addr:state" v="VT"/>
    <tag k="ref:vcgi:esiteid" v="112202"/>
  </node>
  <node id="-582" visible="true" lat="44.66860027" lon="-72.23376692">
    <tag k="addr:housenumber" v="35"/>
    <tag k="addr:street" v="Inlet Cove"/>
    <tag k="addr:state" v="VT"/>
    <tag k="ref:vcgi:esiteid" v="112203"/>
  </node>
  <node id="-583" visible="true" lat="44.6683121" lon="-72.21995854">
    <tag k="addr:housenumber" v="311"/>
    <tag k="addr:street" v="Stone Shore Road"/>
    <tag k="addr:state" v="VT"/>
    <tag k="ref:vcgi:esiteid" v="112204"/>
  </node>
  <node id="-584" visible="true" lat="44.6682227" lon="-72.21962399">
    <tag k="addr:housenumber" v="303"/>
    <tag k="addr:street" v="Stone Shore Road"/>
    <tag k="addr:state" v="VT"/>
    <tag k="ref:vcgi:esiteid" v="112205"/>
  </node>
  <node id="-585" visible="true" lat="44.66819997" lon="-72.21937413">
    <tag k="addr:housenumber" v="293"/>
    <tag k="addr:street" v="Stone Shore Road"/>
    <tag k="addr:state" v="VT"/>
    <tag k="ref:vcgi:esiteid" v="112206"/>
  </node>
  <node id="-586" visible="true" lat="44.66754446" lon="-72.18847798">
    <tag k="addr:housenumber" v="1327"/>
    <tag k="addr:street" v="Dry Pond Road"/>
    <tag k="addr:state" v="VT"/>
    <tag k="ref:vcgi:esiteid" v="112207"/>
  </node>
  <node id="-587" visible="true" lat="44.66802904" lon="-72.21923444">
    <tag k="addr:housenumber" v="285"/>
    <tag k="addr:street" v="Stone Shore Road"/>
    <tag k="addr:state" v="VT"/>
    <tag k="ref:vcgi:esiteid" v="112208"/>
  </node>
  <node id="-588" visible="true" lat="44.66815528" lon="-72.23391087">
    <tag k="addr:housenumber" v="21"/>
    <tag k="addr:street" v="Inlet Cove"/>
    <tag k="addr:state" v="VT"/>
    <tag k="ref:vcgi:esiteid" v="112209"/>
  </node>
  <node id="-589" visible="true" lat="44.66773141" lon="-72.23382753">
    <tag k="addr:housenumber" v="66"/>
    <tag k="addr:street" v="Redington Road"/>
    <tag k="addr:state" v="VT"/>
    <tag k="ref:vcgi:esiteid" v="112210"/>
  </node>
  <node id="-590" visible="true" lat="44.66801243" lon="-72.21894135">
    <tag k="addr:housenumber" v="267"/>
    <tag k="addr:street" v="Stone Shore Road"/>
    <tag k="addr:state" v="VT"/>
    <tag k="ref:vcgi:esiteid" v="112211"/>
  </node>
  <node id="-591" visible="true" lat="44.66755976" lon="-72.23377028">
    <tag k="addr:housenumber" v="54"/>
    <tag k="addr:street" v="Redington Road"/>
    <tag k="addr:state" v="VT"/>
    <tag k="ref:vcgi:esiteid" v="112212"/>
  </node>
  <node id="-592" visible="true" lat="44.66788661" lon="-72.21873511">
    <tag k="addr:housenumber" v="247"/>
    <tag k="addr:street" v="Stone Shore Road"/>
    <tag k="addr:state" v="VT"/>
    <tag k="ref:vcgi:esiteid" v="112213"/>
  </node>
  <node id="-593" visible="true" lat="44.66800134" lon="-72.2348088">
    <tag k="addr:housenumber" v="2140"/>
    <tag k="addr:street" v="Shadow Lake Road"/>
    <tag k="addr:state" v="VT"/>
    <tag k="ref:vcgi:esiteid" v="112214"/>
  </node>
  <node id="-594" visible="true" lat="44.66767139" lon="-72.19135148">
    <tag k="addr:housenumber" v="1355"/>
    <tag k="addr:street" v="Dry Pond Road"/>
    <tag k="addr:state" v="VT"/>
    <tag k="ref:vcgi:esiteid" v="112215"/>
  </node>
  <node id="-595" visible="true" lat="44.66772246" lon="-72.2184081">
    <tag k="addr:housenumber" v="239"/>
    <tag k="addr:street" v="Stone Shore Road"/>
    <tag k="addr:state" v="VT"/>
    <tag k="ref:vcgi:esiteid" v="112216"/>
  </node>
  <node id="-596" visible="true" lat="44.66739236" lon="-72.23361337">
    <tag k="addr:housenumber" v="38"/>
    <tag k="addr:street" v="Redington Road"/>
    <tag k="addr:state" v="VT"/>
    <tag k="ref:vcgi:esiteid" v="112217"/>
  </node>
  <node id="-597" visible="true" lat="44.66735555" lon="-72.21791859">
    <tag k="addr:housenumber" v="197"/>
    <tag k="addr:street" v="Stone Shore Road"/>
    <tag k="addr:state" v="VT"/>
    <tag k="ref:vcgi:esiteid" v="112218"/>
  </node>
  <node id="-598" visible="true" lat="44.66726807" lon="-72.21752006">
    <tag k="addr:housenumber" v="191"/>
    <tag k="addr:street" v="Stone Shore Road"/>
    <tag k="addr:state" v="VT"/>
    <tag k="ref:vcgi:esiteid" v="112219"/>
  </node>
  <node id="-599" visible="true" lat="44.66753623" lon="-72.21821866">
    <tag k="addr:housenumber" v="213"/>
    <tag k="addr:street" v="Stone Shore Road"/>
    <tag k="addr:state" v="VT"/>
    <tag k="ref:vcgi:esiteid" v="112220"/>
  </node>
  <node id="-600" visible="true" lat="44.66742742" lon="-72.21443665">
    <tag k="addr:housenumber" v="59"/>
    <tag k="addr:street" v="Trevits Place"/>
    <tag k="addr:state" v="VT"/>
    <tag k="ref:vcgi:esiteid" v="112221"/>
  </node>
  <node id="-601" visible="true" lat="44.66747225" lon="-72.24566516">
    <tag k="addr:housenumber" v="2722"/>
    <tag k="addr:street" v="Shadow Lake Road"/>
    <tag k="addr:state" v="VT"/>
    <tag k="ref:vcgi:esiteid" v="112222"/>
  </node>
  <node id="-602" visible="true" lat="44.66727573" lon="-72.23351355">
    <tag k="addr:housenumber" v="2086"/>
    <tag k="addr:street" v="Shadow Lake Road"/>
    <tag k="addr:state" v="VT"/>
    <tag k="ref:vcgi:esiteid" v="112223"/>
  </node>
  <node id="-603" visible="true" lat="44.6671667" lon="-72.23328551">
    <tag k="addr:housenumber" v="2078"/>
    <tag k="addr:street" v="Shadow Lake Road"/>
    <tag k="addr:state" v="VT"/>
    <tag k="ref:vcgi:esiteid" v="112224"/>
  </node>
  <node id="-604" visible="true" lat="44.66682616" lon="-72.21711979">
    <tag k="addr:housenumber" v="131"/>
    <tag k="addr:street" v="Stone Shore Road"/>
    <tag k="addr:state" v="VT"/>
    <tag k="ref:vcgi:esiteid" v="112225"/>
  </node>
  <node id="-605" visible="true" lat="44.66691782" lon="-72.21614011">
    <tag k="addr:housenumber" v="103"/>
    <tag k="addr:street" v="Stone Shore Road"/>
    <tag k="addr:state" v="VT"/>
    <tag k="ref:vcgi:esiteid" v="112226"/>
  </node>
  <node id="-606" visible="true" lat="44.66705703" lon="-72.21749114">
    <tag k="addr:housenumber" v="185"/>
    <tag k="addr:street" v="Stone Shore Road"/>
    <tag k="addr:state" v="VT"/>
    <tag k="ref:vcgi:esiteid" v="112227"/>
  </node>
  <node id="-607" visible="true" lat="44.66700385" lon="-72.23314603">
    <tag k="addr:housenumber" v="2058"/>
    <tag k="addr:street" v="Shadow Lake Road"/>
    <tag k="addr:state" v="VT"/>
    <tag k="ref:vcgi:esiteid" v="112228"/>
  </node>
  <node id="-608" visible="true" lat="44.66693793" lon="-72.21729802">
    <tag k="addr:housenumber" v="181"/>
    <tag k="addr:street" v="Stone Shore Road"/>
    <tag k="addr:state" v="VT"/>
    <tag k="ref:vcgi:esiteid" v="112229"/>
  </node>
  <node id="-609" visible="true" lat="44.66689918" lon="-72.23296257">
    <tag k="addr:housenumber" v="2048"/>
    <tag k="addr:street" v="Shadow Lake Road"/>
    <tag k="addr:state" v="VT"/>
    <tag k="ref:vcgi:esiteid" v="112230"/>
  </node>
  <node id="-610" visible="true" lat="44.66695404" lon="-72.24395558">
    <tag k="addr:housenumber" v="2616"/>
    <tag k="addr:street" v="Shadow Lake Road"/>
    <tag k="addr:state" v="VT"/>
    <tag k="ref:vcgi:esiteid" v="112231"/>
  </node>
  <node id="-611" visible="true" lat="44.66678671" lon="-72.23280827">
    <tag k="addr:housenumber" v="2042"/>
    <tag k="addr:street" v="Shadow Lake Road"/>
    <tag k="addr:state" v="VT"/>
    <tag k="ref:vcgi:esiteid" v="112232"/>
  </node>
  <node id="-612" visible="true" lat="44.66675199" lon="-72.19245071">
    <tag k="addr:housenumber" v="1444"/>
    <tag k="addr:street" v="Dry Pond Road"/>
    <tag k="addr:state" v="VT"/>
    <tag k="ref:vcgi:esiteid" v="112233"/>
  </node>
  <node id="-613" visible="true" lat="44.66679788" lon="-72.24228149">
    <tag k="addr:housenumber" v="2519"/>
    <tag k="addr:street" v="Shadow Lake Road"/>
    <tag k="addr:state" v="VT"/>
    <tag k="ref:vcgi:esiteid" v="112234"/>
  </node>
  <node id="-614" visible="true" lat="44.66648375" lon="-72.24570524">
    <tag k="addr:housenumber" v="2703"/>
    <tag k="addr:street" v="Shadow Lake Road"/>
    <tag k="addr:state" v="VT"/>
    <tag k="ref:vcgi:esiteid" v="112235"/>
  </node>
  <node id="-616" visible="true" lat="44.66638946" lon="-72.21551513">
    <tag k="addr:housenumber" v="11"/>
    <tag k="addr:street" v="Stone Shore Road"/>
    <tag k="addr:state" v="VT"/>
    <tag k="ref:vcgi:esiteid" v="112237"/>
  </node>
  <node id="-617" visible="true" lat="44.66640323" lon="-72.23239323">
    <tag k="addr:housenumber" v="2004"/>
    <tag k="addr:street" v="Shadow Lake Road"/>
    <tag k="addr:state" v="VT"/>
    <tag k="ref:vcgi:esiteid" v="112238"/>
  </node>
  <node id="-618" visible="true" lat="44.66634551" lon="-72.2445312">
    <tag k="addr:housenumber" v="27"/>
    <tag k="addr:street" v="Hinman Road"/>
    <tag k="addr:state" v="VT"/>
    <tag k="ref:vcgi:esiteid" v="112239"/>
  </node>
  <node id="-619" visible="true" lat="44.66635611" lon="-72.21607191">
    <tag k="addr:housenumber" v="996"/>
    <tag k="addr:street" v="Shadow Lake Road"/>
    <tag k="addr:state" v="VT"/>
    <tag k="ref:vcgi:esiteid" v="112240"/>
  </node>
  <node id="-620" visible="true" lat="44.66632852" lon="-72.19268862">
    <tag k="addr:housenumber" v="1482"/>
    <tag k="addr:street" v="Dry Pond Road"/>
    <tag k="addr:state" v="VT"/>
    <tag k="ref:vcgi:esiteid" v="112241"/>
  </node>
  <node id="-621" visible="true" lat="44.66632088" lon="-72.21651171">
    <tag k="addr:housenumber" v="1004"/>
    <tag k="addr:street" v="Shadow Lake Road"/>
    <tag k="addr:state" v="VT"/>
    <tag k="ref:vcgi:esiteid" v="112242"/>
  </node>
  <node id="-622" visible="true" lat="44.66599441" lon="-72.21678686">
    <tag k="addr:housenumber" v="1026"/>
    <tag k="addr:street" v="Shadow Lake Road"/>
    <tag k="addr:state" v="VT"/>
    <tag k="ref:vcgi:esiteid" v="112244"/>
  </node>
  <node id="-623" visible="true" lat="44.66602246" lon="-72.20924206">
    <tag k="addr:housenumber" v="640"/>
    <tag k="addr:street" v="Shadow Lake Road"/>
    <tag k="addr:state" v="VT"/>
    <tag k="ref:vcgi:esiteid" v="112245"/>
  </node>
  <node id="-624" visible="true" lat="44.66591589" lon="-72.21318517">
    <tag k="addr:housenumber" v="854"/>
    <tag k="addr:street" v="Shadow Lake Road"/>
    <tag k="addr:state" v="VT"/>
    <tag k="ref:vcgi:esiteid" v="112246"/>
  </node>
  <node id="-625" visible="true" lat="44.66588805" lon="-72.23235435">
    <tag k="addr:housenumber" v="1967"/>
    <tag k="addr:street" v="Shadow Lake Road"/>
    <tag k="addr:state" v="VT"/>
    <tag k="ref:vcgi:esiteid" v="112247"/>
  </node>
  <node id="-626" visible="true" lat="44.66587332" lon="-72.21598665">
    <tag k="addr:housenumber" v="34"/>
    <tag k="addr:street" v="South Glover Street"/>
    <tag k="addr:state" v="VT"/>
    <tag k="ref:vcgi:esiteid" v="112248"/>
  </node>
  <node id="-627" visible="true" lat="44.6657989" lon="-72.23060973">
    <tag k="addr:housenumber" v="1902"/>
    <tag k="addr:street" v="Shadow Lake Road"/>
    <tag k="addr:state" v="VT"/>
    <tag k="ref:vcgi:esiteid" v="112249"/>
  </node>
  <node id="-628" visible="true" lat="44.66575246" lon="-72.21693682">
    <tag k="addr:housenumber" v="1042"/>
    <tag k="addr:street" v="Shadow Lake Road"/>
    <tag k="addr:state" v="VT"/>
    <tag k="ref:vcgi:esiteid" v="112250"/>
  </node>
  <node id="-629" visible="true" lat="44.66577725" lon="-72.23033589">
    <tag k="addr:housenumber" v="1890"/>
    <tag k="addr:street" v="Shadow Lake Road"/>
    <tag k="addr:state" v="VT"/>
    <tag k="ref:vcgi:esiteid" v="112251"/>
  </node>
  <node id="-630" visible="true" lat="44.66560319" lon="-72.23128309">
    <tag k="addr:housenumber" v="1921"/>
    <tag k="addr:street" v="Shadow Lake Road"/>
    <tag k="addr:state" v="VT"/>
    <tag k="ref:vcgi:esiteid" v="112252"/>
  </node>
  <node id="-631" visible="true" lat="44.66563312" lon="-72.23000714">
    <tag k="addr:housenumber" v="1870"/>
    <tag k="addr:street" v="Shadow Lake Road"/>
    <tag k="addr:state" v="VT"/>
    <tag k="ref:vcgi:esiteid" v="112253"/>
  </node>
  <node id="-632" visible="true" lat="44.66552721" lon="-72.21625356">
    <tag k="addr:housenumber" v="54"/>
    <tag k="addr:street" v="South Glover Street"/>
    <tag k="addr:state" v="VT"/>
    <tag k="ref:vcgi:esiteid" v="112254"/>
  </node>
  <node id="-633" visible="true" lat="44.66546839" lon="-72.21697927">
    <tag k="addr:housenumber" v="1068"/>
    <tag k="addr:street" v="Shadow Lake Road"/>
    <tag k="addr:state" v="VT"/>
    <tag k="ref:vcgi:esiteid" v="112255"/>
  </node>
  <node id="-634" visible="true" lat="44.66442195" lon="-72.26515724">
    <tag k="addr:housenumber" v="993"/>
    <tag k="addr:street" v="Mud Island Road"/>
    <tag k="addr:state" v="VT"/>
    <tag k="ref:vcgi:esiteid" v="112256"/>
  </node>
  <node id="-635" visible="true" lat="44.66554745" lon="-72.22968183">
    <tag k="addr:housenumber" v="1854"/>
    <tag k="addr:street" v="Shadow Lake Road"/>
    <tag k="addr:state" v="VT"/>
    <tag k="ref:vcgi:esiteid" v="112257"/>
  </node>
  <node id="-636" visible="true" lat="44.66546196" lon="-72.22952389">
    <tag k="addr:housenumber" v="1844"/>
    <tag k="addr:street" v="Shadow Lake Road"/>
    <tag k="addr:state" v="VT"/>
    <tag k="ref:vcgi:esiteid" v="112258"/>
  </node>
  <node id="-637" visible="true" lat="44.6653558" lon="-72.22923541">
    <tag k="addr:housenumber" v="1824"/>
    <tag k="addr:street" v="Shadow Lake Road"/>
    <tag k="addr:state" v="VT"/>
    <tag k="ref:vcgi:esiteid" v="112259"/>
  </node>
  <node id="-638" visible="true" lat="44.66529377" lon="-72.22908876">
    <tag k="addr:housenumber" v="1818"/>
    <tag k="addr:street" v="Shadow Lake Road"/>
    <tag k="addr:state" v="VT"/>
    <tag k="ref:vcgi:esiteid" v="112260"/>
  </node>
  <node id="-639" visible="true" lat="44.66514551" lon="-72.21599613">
    <tag k="addr:housenumber" v="76"/>
    <tag k="addr:street" v="South Glover Street"/>
    <tag k="addr:state" v="VT"/>
    <tag k="ref:vcgi:esiteid" v="112261"/>
  </node>
  <node id="-640" visible="true" lat="44.6651925" lon="-72.22868187">
    <tag k="addr:housenumber" v="1796"/>
    <tag k="addr:street" v="Shadow Lake Road"/>
    <tag k="addr:state" v="VT"/>
    <tag k="ref:vcgi:esiteid" v="112262"/>
  </node>
  <node id="-641" visible="true" lat="44.66510603" lon="-72.21673738">
    <tag k="addr:housenumber" v="1082"/>
    <tag k="addr:street" v="Shadow Lake Road"/>
    <tag k="addr:state" v="VT"/>
    <tag k="ref:vcgi:esiteid" v="112263"/>
  </node>
  <node id="-642" visible="true" lat="44.66509973" lon="-72.21563773">
    <tag k="addr:housenumber" v="79"/>
    <tag k="addr:street" v="South Glover Street"/>
    <tag k="addr:state" v="VT"/>
    <tag k="ref:vcgi:esiteid" v="112264"/>
  </node>
  <node id="-643" visible="true" lat="44.66510115" lon="-72.22829195">
    <tag k="addr:housenumber" v="1774"/>
    <tag k="addr:street" v="Shadow Lake Road"/>
    <tag k="addr:state" v="VT"/>
    <tag k="ref:vcgi:esiteid" v="112265"/>
  </node>
  <node id="-644" visible="true" lat="44.66491699" lon="-72.1934967">
    <tag k="addr:housenumber" v="1577"/>
    <tag k="addr:street" v="Dry Pond Road"/>
    <tag k="addr:state" v="VT"/>
    <tag k="ref:vcgi:esiteid" v="112266"/>
  </node>
  <node id="-645" visible="true" lat="44.6650052" lon="-72.22799784">
    <tag k="addr:housenumber" v="1762"/>
    <tag k="addr:street" v="Shadow Lake Road"/>
    <tag k="addr:state" v="VT"/>
    <tag k="ref:vcgi:esiteid" v="112267"/>
  </node>
  <node id="-646" visible="true" lat="44.66481734" lon="-72.21566942">
    <tag k="addr:housenumber" v="97"/>
    <tag k="addr:street" v="South Glover Street"/>
    <tag k="addr:state" v="VT"/>
    <tag k="ref:vcgi:esiteid" v="112268"/>
  </node>
  <node id="-647" visible="true" lat="44.66480395" lon="-72.2274813">
    <tag k="addr:housenumber" v="1734"/>
    <tag k="addr:street" v="Shadow Lake Road"/>
    <tag k="addr:state" v="VT"/>
    <tag k="ref:vcgi:esiteid" v="112269"/>
  </node>
  <node id="-648" visible="true" lat="44.66467408" lon="-72.1985735">
    <tag k="addr:housenumber" v="165"/>
    <tag k="addr:street" v="Dwinell Drive"/>
    <tag k="addr:state" v="VT"/>
    <tag k="ref:vcgi:esiteid" v="112270"/>
  </node>
  <node id="-649" visible="true" lat="44.66460253" lon="-72.21560432">
    <tag k="addr:housenumber" v="117"/>
    <tag k="addr:street" v="South Glover Street"/>
    <tag k="addr:state" v="VT"/>
    <tag k="ref:vcgi:esiteid" v="112272"/>
  </node>
  <node id="-650" visible="true" lat="44.66401764" lon="-72.22759838">
    <tag k="addr:housenumber" v="1707"/>
    <tag k="addr:street" v="Shadow Lake Road"/>
    <tag k="addr:state" v="VT"/>
    <tag k="ref:vcgi:esiteid" v="112273"/>
  </node>
  <node id="-651" visible="true" lat="44.66430258" lon="-72.19229647">
    <tag k="addr:housenumber" v="1603"/>
    <tag k="addr:street" v="Dry Pond Road"/>
    <tag k="addr:state" v="VT"/>
    <tag k="ref:vcgi:esiteid" v="112274"/>
  </node>
  <node id="-652" visible="true" lat="44.66446671" lon="-72.22610129">
    <tag k="addr:housenumber" v="1658"/>
    <tag k="addr:street" v="Shadow Lake Road"/>
    <tag k="addr:state" v="VT"/>
    <tag k="ref:vcgi:esiteid" v="112275"/>
  </node>
  <node id="-653" visible="true" lat="44.66433901" lon="-72.22704638">
    <tag k="addr:housenumber" v="1693"/>
    <tag k="addr:street" v="Shadow Lake Road"/>
    <tag k="addr:state" v="VT"/>
    <tag k="ref:vcgi:esiteid" v="112276"/>
  </node>
  <node id="-654" visible="true" lat="44.66416176" lon="-72.22675835">
    <tag k="addr:housenumber" v="1683"/>
    <tag k="addr:street" v="Shadow Lake Road"/>
    <tag k="addr:state" v="VT"/>
    <tag k="ref:vcgi:esiteid" v="112277"/>
  </node>
  <node id="-655" visible="true" lat="44.66430248" lon="-72.21664585">
    <tag k="addr:housenumber" v="1150"/>
    <tag k="addr:street" v="Shadow Lake Road"/>
    <tag k="addr:state" v="VT"/>
    <tag k="ref:vcgi:esiteid" v="112278"/>
  </node>
  <node id="-656" visible="true" lat="44.66433297" lon="-72.30089505">
    <tag k="addr:housenumber" v="300"/>
    <tag k="addr:street" v="Shields Lane"/>
    <tag k="addr:state" v="VT"/>
    <tag k="ref:vcgi:esiteid" v="112279"/>
  </node>
  <node id="-657" visible="true" lat="44.66409134" lon="-72.22622407">
    <tag k="addr:housenumber" v="1655"/>
    <tag k="addr:street" v="Shadow Lake Road"/>
    <tag k="addr:state" v="VT"/>
    <tag k="ref:vcgi:esiteid" v="112280"/>
  </node>
  <node id="-658" visible="true" lat="44.6641454" lon="-72.22649996">
    <tag k="addr:housenumber" v="1667"/>
    <tag k="addr:street" v="Shadow Lake Road"/>
    <tag k="addr:state" v="VT"/>
    <tag k="ref:vcgi:esiteid" v="112281"/>
  </node>
  <node id="-659" visible="true" lat="44.66428874" lon="-72.20224205">
    <tag k="addr:housenumber" v="274"/>
    <tag k="addr:street" v="Shadow Lake Road"/>
    <tag k="addr:state" v="VT"/>
    <tag k="ref:vcgi:esiteid" v="112282"/>
  </node>
  <node id="-660" visible="true" lat="44.66406776" lon="-72.21685265">
    <tag k="addr:housenumber" v="1174"/>
    <tag k="addr:street" v="Shadow Lake Road"/>
    <tag k="addr:state" v="VT"/>
    <tag k="ref:vcgi:esiteid" v="112283"/>
  </node>
  <node id="-661" visible="true" lat="44.66401503" lon="-72.22588163">
    <tag k="addr:housenumber" v="18"/>
    <tag k="addr:street" v="Leland Lane"/>
    <tag k="addr:state" v="VT"/>
    <tag k="ref:vcgi:esiteid" v="112284"/>
  </node>
  <node id="-662" visible="true" lat="44.66389664" lon="-72.20879719">
    <tag k="addr:housenumber" v="114"/>
    <tag k="addr:street" v="Quarry Hill"/>
    <tag k="addr:state" v="VT"/>
    <tag k="ref:vcgi:esiteid" v="112285"/>
  </node>
  <node id="-663" visible="true" lat="44.66393018" lon="-72.21693928">
    <tag k="addr:housenumber" v="1190"/>
    <tag k="addr:street" v="Shadow Lake Road"/>
    <tag k="addr:state" v="VT"/>
    <tag k="ref:vcgi:esiteid" v="112286"/>
  </node>
  <node id="-664" visible="true" lat="44.66377224" lon="-72.22550078">
    <tag k="addr:housenumber" v="25"/>
    <tag k="addr:street" v="Leland Lane"/>
    <tag k="addr:state" v="VT"/>
    <tag k="ref:vcgi:esiteid" v="112287"/>
  </node>
  <node id="-665" visible="true" lat="44.66345614" lon="-72.20464474">
    <tag k="addr:housenumber" v="429"/>
    <tag k="addr:street" v="Shadow Lake Road"/>
    <tag k="addr:state" v="VT"/>
    <tag k="ref:vcgi:esiteid" v="112288"/>
  </node>
  <node id="-666" visible="true" lat="44.6636872" lon="-72.22478551">
    <tag k="addr:housenumber" v="1579"/>
    <tag k="addr:street" v="Shadow Lake Road"/>
    <tag k="addr:state" v="VT"/>
    <tag k="ref:vcgi:esiteid" v="112289"/>
  </node>
  <node id="-667" visible="true" lat="44.66357447" lon="-72.21706179">
    <tag k="addr:housenumber" v="1199"/>
    <tag k="addr:street" v="Shadow Lake Road"/>
    <tag k="addr:state" v="VT"/>
    <tag k="ref:vcgi:esiteid" v="112290"/>
  </node>
  <node id="-668" visible="true" lat="44.66355875" lon="-72.22443772">
    <tag k="addr:housenumber" v="1561"/>
    <tag k="addr:street" v="Shadow Lake Road"/>
    <tag k="addr:state" v="VT"/>
    <tag k="ref:vcgi:esiteid" v="112291"/>
  </node>
  <node id="-669" visible="true" lat="44.6637147" lon="-72.22060879">
    <tag k="addr:housenumber" v="1378"/>
    <tag k="addr:street" v="Shadow Lake Road"/>
    <tag k="addr:state" v="VT"/>
    <tag k="ref:vcgi:esiteid" v="112292"/>
  </node>
  <node id="-670" visible="true" lat="44.66354077" lon="-72.21739086">
    <tag k="addr:housenumber" v="1213"/>
    <tag k="addr:street" v="Shadow Lake Road"/>
    <tag k="addr:state" v="VT"/>
    <tag k="ref:vcgi:esiteid" v="112293"/>
  </node>
  <node id="-671" visible="true" lat="44.66355904" lon="-72.21673349">
    <tag k="addr:housenumber" v="1189"/>
    <tag k="addr:street" v="Shadow Lake Road"/>
    <tag k="addr:state" v="VT"/>
    <tag k="ref:vcgi:esiteid" v="112294"/>
  </node>
  <node id="-672" visible="true" lat="44.66350146" lon="-72.22268727">
    <tag k="addr:housenumber" v="1491"/>
    <tag k="addr:street" v="Shadow Lake Road"/>
    <tag k="addr:state" v="VT"/>
    <tag k="ref:vcgi:esiteid" v="112295"/>
  </node>
  <node id="-673" visible="true" lat="44.66326692" lon="-72.21626802">
    <tag k="addr:housenumber" v="1175"/>
    <tag k="addr:street" v="Shadow Lake Road"/>
    <tag k="addr:state" v="VT"/>
    <tag k="ref:vcgi:esiteid" v="112296"/>
  </node>
  <node id="-675" visible="true" lat="44.66364045" lon="-72.21970618">
    <tag k="addr:housenumber" v="1334"/>
    <tag k="addr:street" v="Shadow Lake Road"/>
    <tag k="addr:state" v="VT"/>
    <tag k="ref:vcgi:esiteid" v="112298"/>
  </node>
  <node id="-676" visible="true" lat="44.66342952" lon="-72.22159305">
    <tag k="addr:housenumber" v="1427"/>
    <tag k="addr:street" v="Shadow Lake Road"/>
    <tag k="addr:state" v="VT"/>
    <tag k="ref:vcgi:esiteid" v="112299"/>
  </node>
  <node id="-677" visible="true" lat="44.66330821" lon="-72.21808596">
    <tag k="addr:housenumber" v="1257"/>
    <tag k="addr:street" v="Shadow Lake Road"/>
    <tag k="addr:state" v="VT"/>
    <tag k="ref:vcgi:esiteid" v="112300"/>
  </node>
  <node id="-678" visible="true" lat="44.66328277" lon="-72.21844749">
    <tag k="addr:housenumber" v="1265"/>
    <tag k="addr:street" v="Shadow Lake Road"/>
    <tag k="addr:state" v="VT"/>
    <tag k="ref:vcgi:esiteid" v="112301"/>
  </node>
  <node id="-679" visible="true" lat="44.66297617" lon="-72.22343155">
    <tag k="addr:housenumber" v="1511"/>
    <tag k="addr:street" v="Shadow Lake Road"/>
    <tag k="addr:state" v="VT"/>
    <tag k="ref:vcgi:esiteid" v="112302"/>
  </node>
  <node id="-680" visible="true" lat="44.66332671" lon="-72.21955663">
    <tag k="addr:housenumber" v="1319"/>
    <tag k="addr:street" v="Shadow Lake Road"/>
    <tag k="addr:state" v="VT"/>
    <tag k="ref:vcgi:esiteid" v="112303"/>
  </node>
  <node id="-681" visible="true" lat="44.65967917" lon="-72.20905026">
    <tag k="addr:housenumber" v="148"/>
    <tag k="addr:street" v="Quarry Hill"/>
    <tag k="addr:state" v="VT"/>
    <tag k="ref:vcgi:esiteid" v="112304"/>
  </node>
  <node id="-682" visible="true" lat="44.66335971" lon="-72.22020847">
    <tag k="addr:housenumber" v="1361"/>
    <tag k="addr:street" v="Shadow Lake Road"/>
    <tag k="addr:state" v="VT"/>
    <tag k="ref:vcgi:esiteid" v="112305"/>
  </node>
  <node id="-683" visible="true" lat="44.66332168" lon="-72.2239891">
    <tag k="addr:housenumber" v="1531"/>
    <tag k="addr:street" v="Shadow Lake Road"/>
    <tag k="addr:state" v="VT"/>
    <tag k="ref:vcgi:esiteid" v="112306"/>
  </node>
  <node id="-684" visible="true" lat="44.66328895" lon="-72.21886577">
    <tag k="addr:housenumber" v="1289"/>
    <tag k="addr:street" v="Shadow Lake Road"/>
    <tag k="addr:state" v="VT"/>
    <tag k="ref:vcgi:esiteid" v="112307"/>
  </node>
  <node id="-685" visible="true" lat="44.66309797" lon="-72.22557281">
    <tag k="addr:housenumber" v="63"/>
    <tag k="addr:street" v="Leland Lane"/>
    <tag k="addr:state" v="VT"/>
    <tag k="ref:vcgi:esiteid" v="112308"/>
  </node>
  <node id="-686" visible="true" lat="44.66333559" lon="-72.21906137">
    <tag k="addr:housenumber" v="1297"/>
    <tag k="addr:street" v="Shadow Lake Road"/>
    <tag k="addr:state" v="VT"/>
    <tag k="ref:vcgi:esiteid" v="112309"/>
  </node>
  <node id="-687" visible="true" lat="44.66336716" lon="-72.22602967">
    <tag k="addr:housenumber" v="66"/>
    <tag k="addr:street" v="Leland Lane"/>
    <tag k="addr:state" v="VT"/>
    <tag k="ref:vcgi:esiteid" v="112310"/>
  </node>
  <node id="-688" visible="true" lat="44.66293139" lon="-72.226151">
    <tag k="addr:housenumber" v="82"/>
    <tag k="addr:street" v="Leland Lane"/>
    <tag k="addr:state" v="VT"/>
    <tag k="ref:vcgi:esiteid" v="112311"/>
  </node>
  <node id="-689" visible="true" lat="44.66298701" lon="-72.2458444">
    <tag k="addr:housenumber" v="243"/>
    <tag k="addr:street" v="Hinman Road"/>
    <tag k="addr:state" v="VT"/>
    <tag k="ref:vcgi:esiteid" v="112312"/>
  </node>
  <node id="-690" visible="true" lat="44.66311494" lon="-72.22120751">
    <tag k="addr:housenumber" v="1399"/>
    <tag k="addr:street" v="Shadow Lake Road"/>
    <tag k="addr:state" v="VT"/>
    <tag k="ref:vcgi:esiteid" v="112313"/>
  </node>
  <node id="-691" visible="true" lat="44.66293423" lon="-72.22586898">
    <tag k="addr:housenumber" v="93"/>
    <tag k="addr:street" v="Leland Lane"/>
    <tag k="addr:state" v="VT"/>
    <tag k="ref:vcgi:esiteid" v="112314"/>
  </node>
  <node id="-692" visible="true" lat="44.66264137" lon="-72.22626201">
    <tag k="addr:housenumber" v="94"/>
    <tag k="addr:street" v="Leland Lane"/>
    <tag k="addr:state" v="VT"/>
    <tag k="ref:vcgi:esiteid" v="112315"/>
  </node>
  <node id="-693" visible="true" lat="44.66261808" lon="-72.20075701">
    <tag k="addr:housenumber" v="181"/>
    <tag k="addr:street" v="Shadow Lake Road"/>
    <tag k="addr:state" v="VT"/>
    <tag k="ref:vcgi:esiteid" v="112316"/>
  </node>
  <node id="-694" visible="true" lat="44.66266165" lon="-72.22097577">
    <tag k="addr:housenumber" v="1385"/>
    <tag k="addr:street" v="Shadow Lake Road"/>
    <tag k="addr:state" v="VT"/>
    <tag k="ref:vcgi:esiteid" v="112317"/>
  </node>
  <node id="-695" visible="true" lat="44.6627253" lon="-72.24750749">
    <tag k="addr:housenumber" v="334"/>
    <tag k="addr:street" v="Hinman Road"/>
    <tag k="addr:state" v="VT"/>
    <tag k="ref:vcgi:esiteid" v="112318"/>
  </node>
  <node id="-696" visible="true" lat="44.66248483" lon="-72.19737011">
    <tag k="addr:housenumber" v="20"/>
    <tag k="addr:street" v="Shadow Lake Road"/>
    <tag k="addr:state" v="VT"/>
    <tag k="ref:vcgi:esiteid" v="112319"/>
  </node>
  <node id="-697" visible="true" lat="44.66209913" lon="-72.30332547">
    <tag k="addr:housenumber" v="105"/>
    <tag k="addr:street" v="Shields Lane"/>
    <tag k="addr:state" v="VT"/>
    <tag k="ref:vcgi:esiteid" v="112320"/>
  </node>
  <node id="-698" visible="true" lat="44.66107703" lon="-72.24718222">
    <tag k="addr:housenumber" v="385"/>
    <tag k="addr:street" v="Hinman Road"/>
    <tag k="addr:state" v="VT"/>
    <tag k="ref:vcgi:esiteid" v="112321"/>
  </node>
  <node id="-699" visible="true" lat="44.66069831" lon="-72.27790179">
    <tag k="addr:housenumber" v="1498"/>
    <tag k="addr:street" v="Mud Island Road"/>
    <tag k="addr:state" v="VT"/>
    <tag k="ref:vcgi:esiteid" v="112322"/>
  </node>
  <node id="-700" visible="true" lat="44.66088408" lon="-72.27253431">
    <tag k="addr:housenumber" v="1485"/>
    <tag k="addr:street" v="Mud Island Road"/>
    <tag k="addr:state" v="VT"/>
    <tag k="ref:vcgi:esiteid" v="112323"/>
  </node>
  <node id="-701" visible="true" lat="44.65989492" lon="-72.20030838">
    <tag k="addr:housenumber" v="93"/>
    <tag k="addr:street" v="Shadow Lake Road"/>
    <tag k="addr:state" v="VT"/>
    <tag k="ref:vcgi:esiteid" v="112324"/>
  </node>
  <node id="-702" visible="true" lat="44.65991067" lon="-72.24861765">
    <tag k="addr:housenumber" v="523"/>
    <tag k="addr:street" v="Hinman Road"/>
    <tag k="addr:state" v="VT"/>
    <tag k="ref:vcgi:esiteid" v="112325"/>
  </node>
  <node id="-704" visible="true" lat="44.65965978" lon="-72.19758503">
    <tag k="addr:housenumber" v="2075"/>
    <tag k="addr:street" v="Dry Pond Road"/>
    <tag k="addr:state" v="VT"/>
    <tag k="ref:vcgi:esiteid" v="112327"/>
  </node>
  <node id="-705" visible="true" lat="44.65956981" lon="-72.29259273">
    <tag k="addr:housenumber" v="2267"/>
    <tag k="addr:street" v="Mud Island Road"/>
    <tag k="addr:state" v="VT"/>
    <tag k="ref:vcgi:esiteid" v="112328"/>
  </node>
  <node id="-706" visible="true" lat="44.65950585" lon="-72.29301825">
    <tag k="addr:housenumber" v="2277"/>
    <tag k="addr:street" v="Mud Island Road"/>
    <tag k="addr:state" v="VT"/>
    <tag k="ref:vcgi:esiteid" v="112329"/>
  </node>
  <node id="-707" visible="true" lat="44.65972138" lon="-72.28406597">
    <tag k="addr:housenumber" v="1830"/>
    <tag k="addr:street" v="Mud Island Road"/>
    <tag k="addr:state" v="VT"/>
    <tag k="ref:vcgi:esiteid" v="112330"/>
  </node>
  <node id="-709" visible="true" lat="44.65874692" lon="-72.28499158">
    <tag k="addr:housenumber" v="1887"/>
    <tag k="addr:street" v="Mud Island Road"/>
    <tag k="addr:state" v="VT"/>
    <tag k="ref:vcgi:esiteid" v="112332"/>
  </node>
  <node id="-710" visible="true" lat="44.65874088" lon="-72.19920683">
    <tag k="addr:housenumber" v="2076"/>
    <tag k="addr:street" v="Dry Pond Road"/>
    <tag k="addr:state" v="VT"/>
    <tag k="ref:vcgi:esiteid" v="112333"/>
  </node>
  <node id="-711" visible="true" lat="44.65870999" lon="-72.25050327">
    <tag k="addr:housenumber" v="636"/>
    <tag k="addr:street" v="Hinman Road"/>
    <tag k="addr:state" v="VT"/>
    <tag k="ref:vcgi:esiteid" v="112334"/>
  </node>
  <node id="-712" visible="true" lat="44.65863669" lon="-72.27772653">
    <tag k="addr:housenumber" v="119"/>
    <tag k="addr:street" v="White Road"/>
    <tag k="addr:state" v="VT"/>
    <tag k="ref:vcgi:esiteid" v="112335"/>
  </node>
  <node id="-713" visible="true" lat="44.65828282" lon="-72.27877775">
    <tag k="addr:housenumber" v="142"/>
    <tag k="addr:street" v="White Road"/>
    <tag k="addr:state" v="VT"/>
    <tag k="ref:vcgi:esiteid" v="112336"/>
  </node>
  <node id="-714" visible="true" lat="44.65721114" lon="-72.25188872">
    <tag k="addr:housenumber" v="754"/>
    <tag k="addr:street" v="Hinman Road"/>
    <tag k="addr:state" v="VT"/>
    <tag k="ref:vcgi:esiteid" v="112337"/>
  </node>
  <node id="-715" visible="true" lat="44.65631759" lon="-72.27744432">
    <tag k="addr:housenumber" v="278"/>
    <tag k="addr:street" v="White Road"/>
    <tag k="addr:state" v="VT"/>
    <tag k="ref:vcgi:esiteid" v="112338"/>
  </node>
  <node id="-716" visible="true" lat="44.65566654" lon="-72.25119332">
    <tag k="addr:housenumber" v="42"/>
    <tag k="addr:street" v="Halsey Lane"/>
    <tag k="addr:state" v="VT"/>
    <tag k="ref:vcgi:esiteid" v="112339"/>
  </node>
  <node id="-717" visible="true" lat="44.65533485" lon="-72.25067163">
    <tag k="addr:housenumber" v="62"/>
    <tag k="addr:street" v="Halsey Lane"/>
    <tag k="addr:state" v="VT"/>
    <tag k="ref:vcgi:esiteid" v="112340"/>
  </node>
  <node id="-718" visible="true" lat="44.6546351" lon="-72.24996929">
    <tag k="addr:housenumber" v="99"/>
    <tag k="addr:street" v="Halsey Lane"/>
    <tag k="addr:state" v="VT"/>
    <tag k="ref:vcgi:esiteid" v="112341"/>
  </node>
  <node id="-719" visible="true" lat="44.65317708" lon="-72.27687092">
    <tag k="addr:housenumber" v="499"/>
    <tag k="addr:street" v="White Road"/>
    <tag k="addr:state" v="VT"/>
    <tag k="ref:vcgi:esiteid" v="112342"/>
  </node>
  <node id="-720" visible="true" lat="44.64818435" lon="-72.19540364">
    <tag k="addr:housenumber" v="338"/>
    <tag k="addr:street" v="Square Road"/>
    <tag k="addr:state" v="VT"/>
    <tag k="ref:vcgi:esiteid" v="112343"/>
  </node>
  <node id="-721" visible="true" lat="44.64768238" lon="-72.205053">
    <tag k="addr:housenumber" v="2908"/>
    <tag k="addr:street" v="Dry Pond Road"/>
    <tag k="addr:state" v="VT"/>
    <tag k="ref:vcgi:esiteid" v="112344"/>
  </node>
  <node id="-722" visible="true" lat="44.65195289" lon="-72.20746923">
    <tag k="addr:housenumber" v="527"/>
    <tag k="addr:street" v="Tildys Trail"/>
    <tag k="addr:state" v="VT"/>
    <tag k="ref:vcgi:esiteid" v="112345"/>
  </node>
  <node id="-723" visible="true" lat="44.64653363" lon="-72.19403176">
    <tag k="addr:housenumber" v="485"/>
    <tag k="addr:street" v="Square Road"/>
    <tag k="addr:state" v="VT"/>
    <tag k="ref:vcgi:esiteid" v="112346"/>
  </node>
  <node id="-724" visible="true" lat="44.64609726" lon="-72.2023177">
    <tag k="addr:housenumber" v="3042"/>
    <tag k="addr:street" v="Dry Pond Road"/>
    <tag k="addr:state" v="VT"/>
    <tag k="ref:vcgi:esiteid" v="112347"/>
  </node>
  <node id="-725" visible="true" lat="44.6456511" lon="-72.20582205">
    <tag k="addr:housenumber" v="426"/>
    <tag k="addr:street" v="Tildys Trail"/>
    <tag k="addr:state" v="VT"/>
    <tag k="ref:vcgi:esiteid" v="112348"/>
  </node>
  <node id="-726" visible="true" lat="44.64517448" lon="-72.20597808">
    <tag k="addr:housenumber" v="398"/>
    <tag k="addr:street" v="Tildys Trail"/>
    <tag k="addr:state" v="VT"/>
    <tag k="ref:vcgi:esiteid" v="112349"/>
  </node>
  <node id="-727" visible="true" lat="44.64538405" lon="-72.19573884">
    <tag k="addr:housenumber" v="540"/>
    <tag k="addr:street" v="Square Road"/>
    <tag k="addr:state" v="VT"/>
    <tag k="ref:vcgi:esiteid" v="112350"/>
  </node>
  <node id="-728" visible="true" lat="44.64245572" lon="-72.20675625">
    <tag k="addr:housenumber" v="138"/>
    <tag k="addr:street" v="Tildys Trail"/>
    <tag k="addr:state" v="VT"/>
    <tag k="ref:vcgi:esiteid" v="112351"/>
  </node>
  <node id="-729" visible="true" lat="44.64133834" lon="-72.20429992">
    <tag k="addr:housenumber" v="3403"/>
    <tag k="addr:street" v="Dry Pond Road"/>
    <tag k="addr:state" v="VT"/>
    <tag k="ref:vcgi:esiteid" v="112352"/>
  </node>
  <node id="-731" visible="true" lat="44.63969237" lon="-72.19722745">
    <tag k="addr:housenumber" v="904"/>
    <tag k="addr:street" v="Square Road"/>
    <tag k="addr:state" v="VT"/>
    <tag k="ref:vcgi:esiteid" v="112354"/>
  </node>
  <node id="-732" visible="true" lat="44.63610615" lon="-72.19607814">
    <tag k="addr:housenumber" v="1096"/>
    <tag k="addr:street" v="Square Road"/>
    <tag k="addr:state" v="VT"/>
    <tag k="ref:vcgi:esiteid" v="112355"/>
  </node>
  <node id="-733" visible="true" lat="44.6377866" lon="-72.19688598">
    <tag k="addr:housenumber" v="104"/>
    <tag k="addr:street" v="Page Place"/>
    <tag k="addr:state" v="VT"/>
    <tag k="ref:vcgi:esiteid" v="112356"/>
  </node>
  <node id="-734" visible="true" lat="44.63672018" lon="-72.21051297">
    <tag k="addr:housenumber" v="3877"/>
    <tag k="addr:street" v="Dry Pond Road"/>
    <tag k="addr:state" v="VT"/>
    <tag k="ref:vcgi:esiteid" v="112357"/>
  </node>
  <node id="-735" visible="true" lat="44.73380724" lon="-72.22942493">
    <tag k="addr:housenumber" v="359"/>
    <tag k="addr:street" v="Stevens Road"/>
    <tag k="addr:state" v="VT"/>
    <tag k="ref:vcgi:esiteid" v="112358"/>
  </node>
  <node id="-736" visible="true" lat="44.73323923" lon="-72.26294327">
    <tag k="addr:housenumber" v="21"/>
    <tag k="addr:street" v="Vance Lane"/>
    <tag k="addr:state" v="VT"/>
    <tag k="ref:vcgi:esiteid" v="112359"/>
  </node>
  <node id="-737" visible="true" lat="44.72288513" lon="-72.24230194">
    <tag k="addr:housenumber" v="417"/>
    <tag k="addr:street" v="Urie Drive"/>
    <tag k="addr:state" v="VT"/>
    <tag k="ref:vcgi:esiteid" v="112360"/>
  </node>
  <node id="-738" visible="true" lat="44.7252194" lon="-72.24262679">
    <tag k="addr:housenumber" v="320"/>
    <tag k="addr:street" v="Urie Drive"/>
    <tag k="addr:state" v="VT"/>
    <tag k="ref:vcgi:esiteid" v="112361"/>
  </node>
  <node id="-739" visible="true" lat="44.72306463" lon="-72.24399314">
    <tag k="addr:housenumber" v="420"/>
    <tag k="addr:street" v="Urie Drive"/>
    <tag k="addr:state" v="VT"/>
    <tag k="ref:vcgi:esiteid" v="112362"/>
  </node>
  <node id="-740" visible="true" lat="44.71478548" lon="-72.27960313">
    <tag k="addr:housenumber" v="3761"/>
    <tag k="addr:street" v="County Road"/>
    <tag k="addr:state" v="VT"/>
    <tag k="ref:vcgi:esiteid" v="112363"/>
  </node>
  <node id="-741" visible="true" lat="44.72461933" lon="-72.23900537">
    <tag k="addr:housenumber" v="391"/>
    <tag k="addr:street" v="West Shore Road"/>
    <tag k="addr:state" v="VT"/>
    <tag k="ref:vcgi:esiteid" v="112364"/>
  </node>
  <node id="-742" visible="true" lat="44.72325897" lon="-72.2383728">
    <tag k="addr:housenumber" v="490"/>
    <tag k="addr:street" v="West Shore Road"/>
    <tag k="addr:state" v="VT"/>
    <tag k="ref:vcgi:esiteid" v="112365"/>
  </node>
  <node id="-743" visible="true" lat="44.72294998" lon="-72.23820495">
    <tag k="addr:housenumber" v="514"/>
    <tag k="addr:street" v="West Shore Road"/>
    <tag k="addr:state" v="VT"/>
    <tag k="ref:vcgi:esiteid" v="112366"/>
  </node>
  <node id="-744" visible="true" lat="44.72272109" lon="-72.23818969">
    <tag k="addr:housenumber" v="530"/>
    <tag k="addr:street" v="West Shore Road"/>
    <tag k="addr:state" v="VT"/>
    <tag k="ref:vcgi:esiteid" v="112367"/>
  </node>
  <node id="-745" visible="true" lat="44.72232818" lon="-72.23831176">
    <tag k="addr:housenumber" v="546"/>
    <tag k="addr:street" v="West Shore Road"/>
    <tag k="addr:state" v="VT"/>
    <tag k="ref:vcgi:esiteid" v="112368"/>
  </node>
  <node id="-746" visible="true" lat="44.72188568" lon="-72.23808288">
    <tag k="addr:housenumber" v="588"/>
    <tag k="addr:street" v="West Shore Road"/>
    <tag k="addr:state" v="VT"/>
    <tag k="ref:vcgi:esiteid" v="112369"/>
  </node>
  <node id="-747" visible="true" lat="44.7215538" lon="-72.23818206">
    <tag k="addr:housenumber" v="611"/>
    <tag k="addr:street" v="West Shore Road"/>
    <tag k="addr:state" v="VT"/>
    <tag k="ref:vcgi:esiteid" v="112370"/>
  </node>
  <node id="-748" visible="true" lat="44.72154235" lon="-72.23835754">
    <tag k="addr:housenumber" v="616"/>
    <tag k="addr:street" v="West Shore Road"/>
    <tag k="addr:state" v="VT"/>
    <tag k="ref:vcgi:esiteid" v="112371"/>
  </node>
  <node id="-749" visible="true" lat="44.72112929" lon="-72.2387622">
    <tag k="addr:housenumber" v="651"/>
    <tag k="addr:street" v="West Shore Road"/>
    <tag k="addr:state" v="VT"/>
    <tag k="ref:vcgi:esiteid" v="112372"/>
  </node>
  <node id="-750" visible="true" lat="44.72102421" lon="-72.23924998">
    <tag k="addr:housenumber" v="681"/>
    <tag k="addr:street" v="West Shore Road"/>
    <tag k="addr:state" v="VT"/>
    <tag k="ref:vcgi:esiteid" v="112373"/>
  </node>
  <node id="-751" visible="true" lat="44.72069931" lon="-72.24060058">
    <tag k="addr:housenumber" v="745"/>
    <tag k="addr:street" v="West Shore Road"/>
    <tag k="addr:state" v="VT"/>
    <tag k="ref:vcgi:esiteid" v="112374"/>
  </node>
  <node id="-752" visible="true" lat="44.7073643" lon="-72.21237575">
    <tag k="addr:housenumber" v="900"/>
    <tag k="addr:street" v="Borland Road"/>
    <tag k="addr:state" v="VT"/>
    <tag k="ref:vcgi:esiteid" v="112375"/>
  </node>
  <node id="-753" visible="true" lat="44.69669571" lon="-72.2892125">
    <tag k="addr:housenumber" v="700"/>
    <tag k="addr:street" v="Andersonville Road"/>
    <tag k="addr:state" v="VT"/>
    <tag k="ref:vcgi:esiteid" v="112376"/>
  </node>
  <node id="-754" visible="true" lat="44.72190232" lon="-72.24861599">
    <tag k="addr:housenumber" v="344"/>
    <tag k="addr:street" v="King Road"/>
    <tag k="addr:state" v="VT"/>
    <tag k="ref:vcgi:esiteid" v="112377"/>
  </node>
  <node id="-755" visible="true" lat="44.69819397" lon="-72.23944841">
    <tag k="addr:housenumber" v="122"/>
    <tag k="addr:street" v="Young Road"/>
    <tag k="addr:state" v="VT"/>
    <tag k="ref:vcgi:esiteid" v="112378"/>
  </node>
  <node id="-756" visible="true" lat="44.69103537" lon="-72.1958829">
    <tag k="addr:housenumber" v="340"/>
    <tag k="addr:street" v="Aldrich Lane"/>
    <tag k="addr:state" v="VT"/>
    <tag k="ref:vcgi:esiteid" v="112379"/>
  </node>
  <node id="-757" visible="true" lat="44.69747303" lon="-72.16238394">
    <tag k="addr:housenumber" v="1801"/>
    <tag k="addr:street" v="Dexter Mountain Road"/>
    <tag k="addr:state" v="VT"/>
    <tag k="ref:vcgi:esiteid" v="112380"/>
  </node>
  <node id="-758" visible="true" lat="44.68000368" lon="-72.29237097">
    <tag k="addr:housenumber" v="1966"/>
    <tag k="addr:street" v="Andersonville Road"/>
    <tag k="addr:state" v="VT"/>
    <tag k="ref:vcgi:esiteid" v="112381"/>
  </node>
  <node id="-760" visible="true" lat="44.67897383" lon="-72.18937553">
    <tag k="addr:housenumber" v="24"/>
    <tag k="addr:street" v="Parish School Road"/>
    <tag k="addr:state" v="VT"/>
    <tag k="ref:vcgi:esiteid" v="112383"/>
  </node>
  <node id="-761" visible="true" lat="44.63890075" lon="-72.19605255">
    <tag k="addr:housenumber" v="1000"/>
    <tag k="addr:street" v="Square Road"/>
    <tag k="addr:state" v="VT"/>
    <tag k="ref:vcgi:esiteid" v="112384"/>
  </node>
  <node id="-762" visible="true" lat="44.73048377" lon="-72.23613715">
    <tag k="addr:housenumber" v="772"/>
    <tag k="addr:street" v="County Road"/>
    <tag k="addr:state" v="VT"/>
    <tag k="ref:vcgi:esiteid" v="112385"/>
  </node>
  <node id="-763" visible="true" lat="44.72403408" lon="-72.2384491">
    <tag k="addr:housenumber" v="437"/>
    <tag k="addr:street" v="West Shore Road"/>
    <tag k="addr:state" v="VT"/>
    <tag k="ref:vcgi:esiteid" v="112386"/>
  </node>
  <node id="-764" visible="true" lat="44.72374117" lon="-72.23815524">
    <tag k="addr:housenumber" v="441"/>
    <tag k="addr:street" v="West Shore Road"/>
    <tag k="addr:state" v="VT"/>
    <tag k="ref:vcgi:esiteid" v="112387"/>
  </node>
  <node id="-765" visible="true" lat="44.72423699" lon="-72.23870362">
    <tag k="addr:housenumber" v="419"/>
    <tag k="addr:street" v="West Shore Road"/>
    <tag k="addr:state" v="VT"/>
    <tag k="ref:vcgi:esiteid" v="112388"/>
  </node>
  <node id="-766" visible="true" lat="44.6634674" lon="-72.22013092">
    <tag k="addr:housenumber" v="1349"/>
    <tag k="addr:street" v="Shadow Lake Road"/>
    <tag k="addr:state" v="VT"/>
    <tag k="ref:vcgi:esiteid" v="112389"/>
  </node>
  <node id="-767" visible="true" lat="44.66294156" lon="-72.22223779">
    <tag k="addr:housenumber" v="1461"/>
    <tag k="addr:street" v="Shadow Lake Road"/>
    <tag k="addr:state" v="VT"/>
    <tag k="ref:vcgi:esiteid" v="112390"/>
  </node>
  <node id="-768" visible="true" lat="44.71467994" lon="-72.18248743">
    <tag k="addr:housenumber" v="217"/>
    <tag k="addr:street" v="Sargent Lane"/>
    <tag k="addr:state" v="VT"/>
    <tag k="ref:vcgi:esiteid" v="112391"/>
  </node>
  <node id="-769" visible="true" lat="44.69885902" lon="-72.24417747">
    <tag k="addr:housenumber" v="2445"/>
    <tag k="addr:street" v="Parker Road"/>
    <tag k="addr:state" v="VT"/>
    <tag k="ref:vcgi:esiteid" v="112392"/>
  </node>
  <node id="-770" visible="true" lat="44.69782521" lon="-72.19050747">
    <tag k="addr:housenumber" v="3565"/>
    <tag k="addr:street" v="Glover Street"/>
    <tag k="addr:state" v="VT"/>
    <tag k="ref:vcgi:esiteid" v="112393"/>
  </node>
  <node id="-771" visible="true" lat="44.67048728" lon="-72.26440694">
    <tag k="addr:housenumber" v="501"/>
    <tag k="addr:street" v="Mud Island Road"/>
    <tag k="addr:state" v="VT"/>
    <tag k="ref:vcgi:esiteid" v="112395"/>
  </node>
  <node id="-772" visible="true" lat="44.66485262" lon="-72.2493076">
    <tag k="addr:housenumber" v="166"/>
    <tag k="addr:street" v="Hinman Road"/>
    <tag k="addr:state" v="VT"/>
    <tag k="ref:vcgi:esiteid" v="112396"/>
  </node>
  <node id="-773" visible="true" lat="44.66517539" lon="-72.19396754">
    <tag k="addr:housenumber" v="1600"/>
    <tag k="addr:street" v="Dry Pond Road"/>
    <tag k="addr:state" v="VT"/>
    <tag k="ref:vcgi:esiteid" v="112397"/>
  </node>
  <node id="-774" visible="true" lat="44.67793048" lon="-72.20492147">
    <tag k="addr:housenumber" v="200"/>
    <tag k="addr:street" v="Drew Place"/>
    <tag k="addr:state" v="VT"/>
    <tag k="ref:vcgi:esiteid" v="112398"/>
  </node>
  <node id="-775" visible="true" lat="44.66285067" lon="-72.19223662">
    <tag k="addr:housenumber" v="1611"/>
    <tag k="addr:street" v="Dry Pond Road"/>
    <tag k="addr:state" v="VT"/>
    <tag k="ref:vcgi:esiteid" v="112399"/>
  </node>
  <node id="-776" visible="true" lat="44.65036448" lon="-72.19860498">
    <tag k="addr:housenumber" v="2671"/>
    <tag k="addr:street" v="Dry Pond Road"/>
    <tag k="addr:state" v="VT"/>
    <tag k="ref:vcgi:esiteid" v="112400"/>
  </node>
  <node id="-777" visible="true" lat="44.65064586" lon="-72.19688188">
    <tag k="addr:housenumber" v="114"/>
    <tag k="addr:street" v="Square Road"/>
    <tag k="addr:state" v="VT"/>
    <tag k="ref:vcgi:esiteid" v="112401"/>
  </node>
  <node id="-778" visible="true" lat="44.71782192" lon="-72.22767434">
    <tag k="addr:housenumber" v="765"/>
    <tag k="addr:street" v="Parker Road"/>
    <tag k="addr:state" v="VT"/>
    <tag k="ref:vcgi:esiteid" v="112402"/>
  </node>
  <node id="-779" visible="true" lat="44.69165435" lon="-72.16715396">
    <tag k="addr:housenumber" v="1556"/>
    <tag k="addr:street" v="Dexter Mountain Road"/>
    <tag k="addr:state" v="VT"/>
    <tag k="ref:vcgi:esiteid" v="112403"/>
  </node>
  <node id="-780" visible="true" lat="44.6766989" lon="-72.18912321">
    <tag k="addr:housenumber" v="717"/>
    <tag k="addr:street" v="Dry Pond Road"/>
    <tag k="addr:state" v="VT"/>
    <tag k="ref:vcgi:esiteid" v="112404"/>
  </node>
  <node id="-781" visible="true" lat="44.64934262" lon="-72.19945085">
    <tag k="addr:housenumber" v="2673"/>
    <tag k="addr:street" v="Dry Pond Road"/>
    <tag k="addr:state" v="VT"/>
    <tag k="ref:vcgi:esiteid" v="112405"/>
  </node>
  <node id="-782" visible="true" lat="44.69672278" lon="-72.1637837">
    <tag k="addr:housenumber" v="1721"/>
    <tag k="addr:street" v="Dexter Mountain Road"/>
    <tag k="addr:state" v="VT"/>
    <tag k="ref:vcgi:esiteid" v="112406"/>
  </node>
  <node id="-783" visible="true" lat="44.70032355" lon="-72.16110079">
    <tag k="addr:housenumber" v="1999"/>
    <tag k="addr:street" v="Dexter Mountain Road"/>
    <tag k="addr:state" v="VT"/>
    <tag k="ref:vcgi:esiteid" v="112407"/>
  </node>
  <node id="-784" visible="true" lat="44.64808065" lon="-72.20110839">
    <tag k="addr:housenumber" v="2869"/>
    <tag k="addr:street" v="Dry Pond Road"/>
    <tag k="addr:state" v="VT"/>
    <tag k="ref:vcgi:esiteid" v="112409"/>
  </node>
  <node id="-785" visible="true" lat="44.65111592" lon="-72.20198874">
    <tag k="addr:housenumber" v="2636"/>
    <tag k="addr:street" v="Dry Pond Road"/>
    <tag k="addr:state" v="VT"/>
    <tag k="ref:vcgi:esiteid" v="112410"/>
  </node>
  <node id="-786" visible="true" lat="44.64967963" lon="-72.20686029">
    <tag k="addr:housenumber" v="2910"/>
    <tag k="addr:street" v="Dry Pond Road"/>
    <tag k="addr:state" v="VT"/>
    <tag k="ref:vcgi:esiteid" v="112411"/>
  </node>
  <node id="-787" visible="true" lat="44.62929255" lon="-72.21582722">
    <tag k="addr:housenumber" v="120"/>
    <tag k="addr:street" v="North Greensbor0 Road"/>
    <tag k="addr:state" v="VT"/>
    <tag k="ref:vcgi:esiteid" v="112412"/>
  </node>
  <node id="-788" visible="true" lat="44.72629328" lon="-72.23396615">
    <tag k="addr:housenumber" v="88"/>
    <tag k="addr:street" v="Access Lane"/>
    <tag k="addr:state" v="VT"/>
    <tag k="ref:vcgi:esiteid" v="112413"/>
  </node>
  <node id="-789" visible="true" lat="44.66365411" lon="-72.22502721">
    <tag k="addr:housenumber" v="1583"/>
    <tag k="addr:street" v="Shadow Lake Road"/>
    <tag k="addr:state" v="VT"/>
    <tag k="ref:vcgi:esiteid" v="112414"/>
  </node>
  <node id="-790" visible="true" lat="44.66334044" lon="-72.21930422">
    <tag k="addr:housenumber" v="1305"/>
    <tag k="addr:street" v="Shadow Lake Road"/>
    <tag k="addr:state" v="VT"/>
    <tag k="ref:vcgi:esiteid" v="112415"/>
  </node>
  <node id="-791" visible="true" lat="44.73563886" lon="-72.2593225">
    <tag k="addr:housenumber" v="1960"/>
    <tag k="addr:street" v="County Road"/>
    <tag k="addr:state" v="VT"/>
    <tag k="ref:vcgi:esiteid" v="112416"/>
  </node>
  <node id="-792" visible="true" lat="44.73613174" lon="-72.25235799">
    <tag k="addr:housenumber" v="1680"/>
    <tag k="addr:street" v="County Road"/>
    <tag k="addr:state" v="VT"/>
    <tag k="ref:vcgi:esiteid" v="112417"/>
  </node>
  <node id="-793" visible="true" lat="44.66246379" lon="-72.27032617">
    <tag k="addr:housenumber" v="1145"/>
    <tag k="addr:street" v="Mud Island Road"/>
    <tag k="addr:state" v="VT"/>
    <tag k="ref:vcgi:esiteid" v="112418"/>
  </node>
  <node id="-796" visible="true" lat="44.69962321" lon="-72.15938333">
    <tag k="addr:housenumber" v="1990"/>
    <tag k="addr:street" v="Dexter Mountain Road"/>
    <tag k="addr:state" v="VT"/>
    <tag k="ref:vcgi:esiteid" v="112421"/>
  </node>
  <node id="-797" visible="true" lat="44.65255381" lon="-72.27480046">
    <tag k="addr:housenumber" v="415"/>
    <tag k="addr:street" v="White Road"/>
    <tag k="addr:state" v="VT"/>
    <tag k="ref:vcgi:esiteid" v="112422"/>
  </node>
  <node id="-798" visible="true" lat="44.68959366" lon="-72.25681559">
    <tag k="addr:housenumber" v="353"/>
    <tag k="addr:street" v="Bear Call Road"/>
    <tag k="addr:state" v="VT"/>
    <tag k="ref:vcgi:esiteid" v="112423"/>
  </node>
  <node id="-799" visible="true" lat="44.7051296" lon="-72.28519691">
    <tag k="addr:housenumber" v="105"/>
    <tag k="addr:street" v="Andersonville Road"/>
    <tag k="addr:state" v="VT"/>
    <tag k="ref:vcgi:esiteid" v="112424"/>
  </node>
  <node id="-800" visible="true" lat="44.72088894" lon="-72.26306149">
    <tag k="addr:housenumber" v="105"/>
    <tag k="addr:street" v="Bickford Lane"/>
    <tag k="addr:state" v="VT"/>
    <tag k="ref:vcgi:esiteid" v="112425"/>
  </node>
  <node id="-801" visible="true" lat="44.63900528" lon="-72.1950829">
    <tag k="addr:housenumber" v="997"/>
    <tag k="addr:street" v="Square Road"/>
    <tag k="addr:state" v="VT"/>
    <tag k="ref:vcgi:esiteid" v="112426"/>
  </node>
  <node id="-802" visible="true" lat="44.66945388" lon="-72.22096456">
    <tag k="addr:housenumber" v="440"/>
    <tag k="addr:street" v="Stone Shore Road"/>
    <tag k="addr:state" v="VT"/>
    <tag k="ref:vcgi:esiteid" v="112427"/>
  </node>
  <node id="-803" visible="true" lat="44.66817574" lon="-72.21502731">
    <tag k="addr:housenumber" v="100"/>
    <tag k="addr:street" v="Stone Shore Road"/>
    <tag k="addr:state" v="VT"/>
    <tag k="ref:vcgi:esiteid" v="112428"/>
  </node>
  <node id="-804" visible="true" lat="44.73094364" lon="-72.23840515">
    <tag k="addr:housenumber" v="770"/>
    <tag k="addr:street" v="County Road"/>
    <tag k="addr:state" v="VT"/>
    <tag k="ref:vcgi:esiteid" v="112429"/>
  </node>
  <node id="-805" visible="true" lat="44.73104882" lon="-72.24844621">
    <tag k="addr:housenumber" v="1307"/>
    <tag k="addr:street" v="County Road"/>
    <tag k="addr:state" v="VT"/>
    <tag k="ref:vcgi:esiteid" v="112430"/>
  </node>
  <node id="-806" visible="true" lat="44.72417939" lon="-72.27190972">
    <tag k="addr:housenumber" v="2921"/>
    <tag k="addr:street" v="County Road"/>
    <tag k="addr:state" v="VT"/>
    <tag k="ref:vcgi:esiteid" v="112431"/>
  </node>
  <node id="-807" visible="true" lat="44.68988594" lon="-72.23996042">
    <tag k="addr:housenumber" v="760"/>
    <tag k="addr:street" v="Young Road"/>
    <tag k="addr:state" v="VT"/>
    <tag k="ref:vcgi:esiteid" v="112432"/>
  </node>
  <node id="-808" visible="true" lat="44.69881914" lon="-72.18070713">
    <tag k="addr:housenumber" v="728"/>
    <tag k="addr:street" v="Dexter Mountain Road"/>
    <tag k="addr:state" v="VT"/>
    <tag k="ref:vcgi:esiteid" v="112433"/>
  </node>
  <node id="-809" visible="true" lat="44.70690165" lon="-72.18861926">
    <tag k="addr:housenumber" v="63"/>
    <tag k="addr:street" v="Bean Hill Road"/>
    <tag k="addr:state" v="VT"/>
    <tag k="ref:vcgi:esiteid" v="112434"/>
  </node>
  <node id="-810" visible="true" lat="44.67853182" lon="-72.21445011">
    <tag k="addr:housenumber" v="1449"/>
    <tag k="addr:street" v="Perron Hill"/>
    <tag k="addr:state" v="VT"/>
    <tag k="ref:vcgi:esiteid" v="112435"/>
  </node>
  <node id="-811" visible="true" lat="44.70153695" lon="-72.23762425">
    <tag k="addr:housenumber" v="2151"/>
    <tag k="addr:street" v="Parker Road"/>
    <tag k="addr:state" v="VT"/>
    <tag k="ref:vcgi:esiteid" v="112436"/>
  </node>
  <node id="-812" visible="true" lat="44.72934631" lon="-72.25339262">
    <tag k="addr:housenumber" v="1541"/>
    <tag k="addr:street" v="County Road"/>
    <tag k="addr:state" v="VT"/>
    <tag k="ref:vcgi:esiteid" v="112437"/>
  </node>
  <node id="-813" visible="true" lat="44.71508689" lon="-72.20295669">
    <tag k="addr:housenumber" v="1101"/>
    <tag k="addr:street" v="Bean Hill Road"/>
    <tag k="addr:state" v="VT"/>
    <tag k="ref:vcgi:esiteid" v="112438"/>
  </node>
  <node id="-814" visible="true" lat="44.69519788" lon="-72.25957896">
    <tag k="addr:housenumber" v="616"/>
    <tag k="addr:street" v="Beach Hill Road"/>
    <tag k="addr:state" v="VT"/>
    <tag k="ref:vcgi:esiteid" v="112439"/>
  </node>
  <node id="-818" visible="true" lat="44.67521587" lon="-72.22721724">
    <tag k="addr:housenumber" v="407"/>
    <tag k="addr:street" v="Clark Road"/>
    <tag k="addr:state" v="VT"/>
    <tag k="ref:vcgi:esiteid" v="112444"/>
  </node>
  <node id="-819" visible="true" lat="44.67547316" lon="-72.22744377">
    <tag k="addr:housenumber" v="409"/>
    <tag k="addr:street" v="Clark Road"/>
    <tag k="addr:state" v="VT"/>
    <tag k="ref:vcgi:esiteid" v="112445"/>
  </node>
  <node id="-820" visible="true" lat="44.68000984" lon="-72.17783422">
    <tag k="addr:housenumber" v="581"/>
    <tag k="addr:street" v="Parish School Road"/>
    <tag k="addr:state" v="VT"/>
    <tag k="ref:vcgi:esiteid" v="112446"/>
  </node>
  <node id="-821" visible="true" lat="44.66498361" lon="-72.17394841">
    <tag k="addr:housenumber" v="960"/>
    <tag k="addr:street" v="Sand Hill"/>
    <tag k="addr:state" v="VT"/>
    <tag k="ref:vcgi:esiteid" v="112447"/>
  </node>
  <node id="-822" visible="true" lat="44.7315837" lon="-72.23249495">
    <tag k="addr:housenumber" v="269"/>
    <tag k="addr:street" v="Davio Place"/>
    <tag k="addr:state" v="VT"/>
    <tag k="ref:vcgi:esiteid" v="112448"/>
  </node>
  <node id="-823" visible="true" lat="44.7220702" lon="-72.22120928">
    <tag k="addr:housenumber" v="2233"/>
    <tag k="addr:street" v="Bean Hill Road"/>
    <tag k="addr:state" v="VT"/>
    <tag k="ref:vcgi:esiteid" v="112449"/>
  </node>
  <node id="-824" visible="true" lat="44.71477298" lon="-72.22822216">
    <tag k="addr:housenumber" v="987"/>
    <tag k="addr:street" v="Parker Road"/>
    <tag k="addr:state" v="VT"/>
    <tag k="ref:vcgi:esiteid" v="112450"/>
  </node>
  <node id="-825" visible="true" lat="44.73200724" lon="-72.25521214">
    <tag k="addr:housenumber" v="1678"/>
    <tag k="addr:street" v="County Road"/>
    <tag k="addr:state" v="VT"/>
    <tag k="ref:vcgi:esiteid" v="310062"/>
  </node>
  <node id="-826" visible="true" lat="44.73035019" lon="-72.2439442">
    <tag k="addr:housenumber" v="1069"/>
    <tag k="addr:street" v="County Road"/>
    <tag k="addr:state" v="VT"/>
    <tag k="ref:vcgi:esiteid" v="310063"/>
  </node>
  <node id="-827" visible="true" lat="44.70737702" lon="-72.25998758">
    <tag k="addr:housenumber" v="790"/>
    <tag k="addr:street" v="Phillips Road"/>
    <tag k="addr:state" v="VT"/>
    <tag k="ref:vcgi:esiteid" v="310064"/>
  </node>
  <node id="-828" visible="true" lat="44.70628403" lon="-72.25924512">
    <tag k="addr:housenumber" v="701"/>
    <tag k="addr:street" v="Phillips Road"/>
    <tag k="addr:state" v="VT"/>
    <tag k="ref:vcgi:esiteid" v="310065"/>
  </node>
  <node id="-829" visible="true" lat="44.70015871" lon="-72.24316097">
    <tag k="addr:housenumber" v="2387"/>
    <tag k="addr:street" v="Parker Road"/>
    <tag k="addr:state" v="VT"/>
    <tag k="ref:vcgi:esiteid" v="310066"/>
  </node>
  <node id="-830" visible="true" lat="44.70038542" lon="-72.24528811">
    <tag k="addr:housenumber" v="2491"/>
    <tag k="addr:street" v="Parker Road"/>
    <tag k="addr:state" v="VT"/>
    <tag k="ref:vcgi:esiteid" v="310067"/>
  </node>
  <node id="-831" visible="true" lat="44.69715984" lon="-72.25417794">
    <tag k="addr:housenumber" v="360"/>
    <tag k="addr:street" v="Beach Hill Road"/>
    <tag k="addr:state" v="VT"/>
    <tag k="ref:vcgi:esiteid" v="310068"/>
  </node>
  <node id="-832" visible="true" lat="44.69234976" lon="-72.26534786">
    <tag k="addr:housenumber" v="967"/>
    <tag k="addr:street" v="Beach Hill Road"/>
    <tag k="addr:state" v="VT"/>
    <tag k="ref:vcgi:esiteid" v="310069"/>
  </node>
  <node id="-833" visible="true" lat="44.69211174" lon="-72.27391169">
    <tag k="addr:housenumber" v="1510"/>
    <tag k="addr:street" v="Beach Hill Road"/>
    <tag k="addr:state" v="VT"/>
    <tag k="ref:vcgi:esiteid" v="310070"/>
  </node>
  <node id="-834" visible="true" lat="44.69409328" lon="-72.17119675">
    <tag k="addr:housenumber" v="1272"/>
    <tag k="addr:street" v="Dexter Mountain Road"/>
    <tag k="addr:state" v="VT"/>
    <tag k="ref:vcgi:esiteid" v="310072"/>
  </node>
  <node id="-835" visible="true" lat="44.66205472" lon="-72.24702135">
    <tag k="addr:housenumber" v="339"/>
    <tag k="addr:street" v="Hinman Road"/>
    <tag k="addr:state" v="VT"/>
    <tag k="ref:vcgi:esiteid" v="310073"/>
  </node>
  <node id="-836" visible="true" lat="44.66961607" lon="-72.24412713">
    <tag k="addr:housenumber" v="4412"/>
    <tag k="addr:street" v="Perron Hill"/>
    <tag k="addr:state" v="VT"/>
    <tag k="ref:vcgi:esiteid" v="310075"/>
  </node>
  <node id="-837" visible="true" lat="44.66723094" lon="-72.24477787">
    <tag k="addr:housenumber" v="2686"/>
    <tag k="addr:street" v="Shadow Lake Road"/>
    <tag k="addr:state" v="VT"/>
    <tag k="ref:vcgi:esiteid" v="310076"/>
  </node>
  <node id="-838" visible="true" lat="44.663222" lon="-72.23260935">
    <tag k="addr:housenumber" v="1957"/>
    <tag k="addr:street" v="Shadow Lake Road"/>
    <tag k="addr:state" v="VT"/>
    <tag k="ref:vcgi:esiteid" v="310077"/>
  </node>
  <node id="-839" visible="true" lat="44.66509108" lon="-72.22923086">
    <tag k="addr:housenumber" v="1821"/>
    <tag k="addr:street" v="Shadow Lake Road"/>
    <tag k="addr:state" v="VT"/>
    <tag k="ref:vcgi:esiteid" v="310078"/>
  </node>
  <node id="-840" visible="true" lat="44.66319226" lon="-72.21986654">
    <tag k="addr:housenumber" v="1323"/>
    <tag k="addr:street" v="Shadow Lake Road"/>
    <tag k="addr:state" v="VT"/>
    <tag k="ref:vcgi:esiteid" v="310079"/>
  </node>
  <node id="-841" visible="true" lat="44.66267393" lon="-72.19822204">
    <tag k="addr:housenumber" v="54"/>
    <tag k="addr:street" v="Shadow Lake Road"/>
    <tag k="addr:state" v="VT"/>
    <tag k="ref:vcgi:esiteid" v="310080"/>
  </node>
  <node id="-842" visible="true" lat="44.67605244" lon="-72.18598278">
    <tag k="addr:housenumber" v="187"/>
    <tag k="addr:street" v="Trucott Place"/>
    <tag k="addr:state" v="VT"/>
    <tag k="ref:vcgi:esiteid" v="310081"/>
  </node>
  <node id="-843" visible="true" lat="44.6800293" lon="-72.17048477">
    <tag k="addr:housenumber" v="1196"/>
    <tag k="addr:street" v="Heights Road"/>
    <tag k="addr:state" v="VT"/>
    <tag k="ref:vcgi:esiteid" v="310082"/>
  </node>
  <node id="-845" visible="true" lat="44.7184037" lon="-72.22886184">
    <tag k="addr:housenumber" v="754"/>
    <tag k="addr:street" v="Parker Road"/>
    <tag k="addr:state" v="VT"/>
    <tag k="ref:vcgi:esiteid" v="310084"/>
  </node>
  <node id="-851" visible="true" lat="44.69408976" lon="-72.1633595">
    <tag k="addr:housenumber" v="35"/>
    <tag k="addr:street" v="Dexter Mountain Estate"/>
    <tag k="addr:state" v="VT"/>
    <tag k="ref:vcgi:esiteid" v="317971"/>
  </node>
  <node id="-852" visible="true" lat="44.69371933" lon="-72.16311337">
    <tag k="addr:housenumber" v="65"/>
    <tag k="addr:street" v="Dexter Mountain Estate"/>
    <tag k="addr:state" v="VT"/>
    <tag k="ref:vcgi:esiteid" v="317972"/>
  </node>
  <node id="-853" visible="true" lat="44.69270523" lon="-72.16496314">
    <tag k="addr:housenumber" v="14"/>
    <tag k="addr:street" v="Dexter Mountain Estate"/>
    <tag k="addr:state" v="VT"/>
    <tag k="ref:vcgi:esiteid" v="317973"/>
  </node>
  <node id="-854" visible="true" lat="44.69373162" lon="-72.16405499">
    <tag k="addr:housenumber" v="62"/>
    <tag k="addr:street" v="Dexter Mountain Estate"/>
    <tag k="addr:state" v="VT"/>
    <tag k="ref:vcgi:esiteid" v="317974"/>
  </node>
  <node id="-855" visible="true" lat="44.69352159" lon="-72.16399386">
    <tag k="addr:housenumber" v="66"/>
    <tag k="addr:street" v="Dexter Mountain Estate"/>
    <tag k="addr:state" v="VT"/>
    <tag k="ref:vcgi:esiteid" v="317975"/>
  </node>
  <node id="-856" visible="true" lat="44.69994759" lon="-72.28879507">
    <tag k="addr:housenumber" v="486"/>
    <tag k="addr:street" v="Andersonville Road"/>
    <tag k="addr:state" v="VT"/>
    <tag k="ref:vcgi:esiteid" v="331820"/>
  </node>
  <node id="-857" visible="true" lat="44.69615023" lon="-72.19199351">
    <tag k="addr:housenumber" v="3752"/>
    <tag k="addr:street" v="Glover Street"/>
    <tag k="addr:state" v="VT"/>
    <tag k="ref:vcgi:esiteid" v="331821"/>
  </node>
  <node id="-858" visible="true" lat="44.66623969" lon="-72.20228359">
    <tag k="addr:housenumber" v="170"/>
    <tag k="addr:street" v="Dwinell Drive"/>
    <tag k="addr:state" v="VT"/>
    <tag k="ref:vcgi:esiteid" v="331822"/>
  </node>
  <node id="-859" visible="true" lat="44.67851123" lon="-72.22708787">
    <tag k="addr:housenumber" v="412"/>
    <tag k="addr:street" v="Clark Road"/>
    <tag k="addr:state" v="VT"/>
    <tag k="ref:vcgi:esiteid" v="331823"/>
  </node>
  <node id="-861" visible="true" lat="44.67857073" lon="-72.26770996">
    <tag k="addr:housenumber" v="977"/>
    <tag k="addr:street" v="Daniels Pond Road"/>
    <tag k="addr:state" v="VT"/>
    <tag k="ref:vcgi:esiteid" v="331825"/>
  </node>
  <node id="-862" visible="true" lat="44.71638956" lon="-72.23657726">
    <tag k="addr:housenumber" v="303"/>
    <tag k="addr:street" v="Monette Place"/>
    <tag k="addr:state" v="VT"/>
    <tag k="ref:vcgi:esiteid" v="331826"/>
  </node>
  <node id="-863" visible="true" lat="44.71616145" lon="-72.23645259">
    <tag k="addr:housenumber" v="311"/>
    <tag k="addr:street" v="Monette Place"/>
    <tag k="addr:state" v="VT"/>
    <tag k="ref:vcgi:esiteid" v="331827"/>
  </node>
  <node id="-864" visible="true" lat="44.66494448" lon="-72.22962603">
    <tag k="addr:housenumber" v="1843"/>
    <tag k="addr:street" v="Shadow Lake Road"/>
    <tag k="addr:state" v="VT"/>
    <tag k="ref:vcgi:esiteid" v="331828"/>
  </node>
  <node id="-865" visible="true" lat="44.66522078" lon="-72.22996819">
    <tag k="addr:housenumber" v="1847"/>
    <tag k="addr:street" v="Shadow Lake Road"/>
    <tag k="addr:state" v="VT"/>
    <tag k="ref:vcgi:esiteid" v="331829"/>
  </node>
  <node id="-866" visible="true" lat="44.66487584" lon="-72.22894662">
    <tag k="addr:housenumber" v="1801"/>
    <tag k="addr:street" v="Shadow Lake Road"/>
    <tag k="addr:state" v="VT"/>
    <tag k="ref:vcgi:esiteid" v="333936"/>
  </node>
  <node id="-867" visible="true" lat="44.67197466" lon="-72.26727873">
    <tag k="addr:housenumber" v="552"/>
    <tag k="addr:street" v="Mud Island Road"/>
    <tag k="addr:state" v="VT"/>
    <tag k="ref:vcgi:esiteid" v="335220"/>
  </node>
  <node id="-868" visible="true" lat="44.71624474" lon="-72.20769415">
    <tag k="addr:housenumber" v="144"/>
    <tag k="addr:street" v="Borland Road"/>
    <tag k="addr:state" v="VT"/>
    <tag k="ref:vcgi:esiteid" v="338575"/>
  </node>
  <node id="-869" visible="true" lat="44.70324805" lon="-72.2119216">
    <tag k="addr:housenumber" v="909"/>
    <tag k="addr:street" v="Borland Road"/>
    <tag k="addr:state" v="VT"/>
    <tag k="ref:vcgi:esiteid" v="342455"/>
  </node>
  <node id="-870" visible="true" lat="44.7358911" lon="-72.24361859">
    <tag k="addr:housenumber" v="911"/>
    <tag k="addr:street" v="Stevens Road"/>
    <tag k="addr:state" v="VT"/>
    <tag k="ref:vcgi:esiteid" v="343434"/>
  </node>
  <node id="-871" visible="true" lat="44.72157263" lon="-72.24727264">
    <tag k="addr:housenumber" v="278"/>
    <tag k="addr:street" v="King Road"/>
    <tag k="addr:state" v="VT"/>
    <tag k="ref:vcgi:esiteid" v="343437"/>
  </node>
  <node id="-872" visible="true" lat="44.6894028" lon="-72.28718443">
    <tag k="addr:housenumber" v="1109"/>
    <tag k="addr:street" v="Andersonville Road"/>
    <tag k="addr:state" v="VT"/>
    <tag k="ref:vcgi:esiteid" v="343438"/>
  </node>
  <node id="-873" visible="true" lat="44.70201691" lon="-72.25518091">
    <tag k="addr:housenumber" v="437"/>
    <tag k="addr:street" v="Phillips Road"/>
    <tag k="addr:state" v="VT"/>
    <tag k="ref:vcgi:esiteid" v="343439"/>
  </node>
  <node id="-875" visible="true" lat="44.70163864" lon="-72.18280452">
    <tag k="addr:housenumber" v="508"/>
    <tag k="addr:street" v="Dexter Mountain Road"/>
    <tag k="addr:state" v="VT"/>
    <tag k="ref:vcgi:esiteid" v="343441"/>
  </node>
  <node id="-876" visible="true" lat="44.69954713" lon="-72.17882263">
    <tag k="addr:housenumber" v="735"/>
    <tag k="addr:street" v="Dexter Mountain Road"/>
    <tag k="addr:state" v="VT"/>
    <tag k="ref:vcgi:esiteid" v="343442"/>
  </node>
  <node id="-877" visible="true" lat="44.68729631" lon="-72.1908065">
    <tag k="addr:housenumber" v="27"/>
    <tag k="addr:street" v="Heights Road"/>
    <tag k="addr:state" v="VT"/>
    <tag k="ref:vcgi:esiteid" v="343443"/>
  </node>
  <node id="-879" visible="true" lat="44.67302495" lon="-72.25471312">
    <tag k="addr:housenumber" v="3302"/>
    <tag k="addr:street" v="Shadow Lake Road"/>
    <tag k="addr:state" v="VT"/>
    <tag k="ref:vcgi:esiteid" v="343446"/>
  </node>
  <node id="-880" visible="true" lat="44.67734136" lon="-72.22905954">
    <tag k="addr:housenumber" v="438"/>
    <tag k="addr:street" v="Clark Road"/>
    <tag k="addr:state" v="VT"/>
    <tag k="ref:vcgi:esiteid" v="343447"/>
  </node>
  <node id="-882" visible="true" lat="44.65979678" lon="-72.25014824">
    <tag k="addr:housenumber" v="538"/>
    <tag k="addr:street" v="Hinman Road"/>
    <tag k="addr:state" v="VT"/>
    <tag k="ref:vcgi:esiteid" v="343449"/>
  </node>
  <node id="-883" visible="true" lat="44.65802861" lon="-72.25372155">
    <tag k="addr:housenumber" v="638"/>
    <tag k="addr:street" v="Hinman Road"/>
    <tag k="addr:state" v="VT"/>
    <tag k="ref:vcgi:esiteid" v="343450"/>
  </node>
  <node id="-884" visible="true" lat="44.65135505" lon="-72.19553184">
    <tag k="addr:housenumber" v="107"/>
    <tag k="addr:street" v="Square Road"/>
    <tag k="addr:state" v="VT"/>
    <tag k="ref:vcgi:esiteid" v="343452"/>
  </node>
  <node id="-885" visible="true" lat="44.72844635" lon="-72.22476759">
    <tag k="addr:housenumber" v="3"/>
    <tag k="addr:street" v="County Road"/>
    <tag k="addr:state" v="VT"/>
    <tag k="ref:vcgi:esiteid" v="343453"/>
  </node>
  <node id="-886" visible="true" lat="44.7271783" lon="-72.22544162">
    <tag k="addr:housenumber" v="101"/>
    <tag k="addr:street" v="Parker Road"/>
    <tag k="addr:state" v="VT"/>
    <tag k="ref:vcgi:esiteid" v="343454"/>
  </node>
  <node id="-887" visible="true" lat="44.72624613" lon="-72.23434939">
    <tag k="addr:housenumber" v="208"/>
    <tag k="addr:street" v="Damon Lane"/>
    <tag k="addr:state" v="VT"/>
    <tag k="ref:vcgi:esiteid" v="343456"/>
  </node>
  <node id="-888" visible="true" lat="44.72975655" lon="-72.23389055">
    <tag k="addr:housenumber" v="482"/>
    <tag k="addr:street" v="County Road"/>
    <tag k="addr:state" v="VT"/>
    <tag k="ref:vcgi:esiteid" v="343459"/>
  </node>
  <node id="-889" visible="true" lat="44.66587069" lon="-72.21413127">
    <tag k="addr:housenumber" v="903"/>
    <tag k="addr:street" v="Shadow Lake Road"/>
    <tag k="addr:state" v="VT"/>
    <tag k="ref:vcgi:esiteid" v="343460"/>
  </node>
  <node id="-890" visible="true" lat="44.70815992" lon="-72.19117299">
    <tag k="addr:housenumber" v="27"/>
    <tag k="addr:street" v="Village View Road"/>
    <tag k="addr:state" v="VT"/>
    <tag k="ref:vcgi:esiteid" v="343461"/>
  </node>
  <node id="-893" visible="true" lat="44.66340888" lon="-72.22064104">
    <tag k="addr:housenumber" v="1381"/>
    <tag k="addr:street" v="Shadow Lake Road"/>
    <tag k="addr:state" v="VT"/>
    <tag k="ref:vcgi:esiteid" v="344501"/>
  </node>
  <node id="-894" visible="true" lat="44.69541618" lon="-72.15899181">
    <tag k="addr:housenumber" v="1800"/>
    <tag k="addr:street" v="Dexter Mountain Road"/>
    <tag k="addr:state" v="VT"/>
    <tag k="ref:vcgi:esiteid" v="345849"/>
  </node>
  <node id="-895" visible="true" lat="44.68299988" lon="-72.22252862">
    <tag k="addr:housenumber" v="1846"/>
    <tag k="addr:street" v="Perron Hill"/>
    <tag k="addr:state" v="VT"/>
    <tag k="ref:vcgi:esiteid" v="345850"/>
  </node>
  <node id="-896" visible="true" lat="44.674073" lon="-72.18666733">
    <tag k="addr:housenumber" v="111"/>
    <tag k="addr:street" v="Sand Hill"/>
    <tag k="addr:state" v="VT"/>
    <tag k="ref:vcgi:esiteid" v="345851"/>
  </node>
  <node id="-897" visible="true" lat="44.72870047" lon="-72.23687479">
    <tag k="addr:housenumber" v="706"/>
    <tag k="addr:street" v="County Road"/>
    <tag k="addr:state" v="VT"/>
    <tag k="ref:vcgi:esiteid" v="446623"/>
  </node>
  <node id="-898" visible="true" lat="44.69793314" lon="-72.17765634">
    <tag k="addr:housenumber" v="861"/>
    <tag k="addr:street" v="Dexter Mountain Road"/>
    <tag k="addr:state" v="VT"/>
    <tag k="ref:vcgi:esiteid" v="446624"/>
  </node>
  <node id="-899" visible="true" lat="44.6974458" lon="-72.17678482">
    <tag k="addr:housenumber" v="889"/>
    <tag k="addr:street" v="Dexter Mountain Road"/>
    <tag k="addr:state" v="VT"/>
    <tag k="ref:vcgi:esiteid" v="446625"/>
  </node>
  <node id="-900" visible="true" lat="44.73206811" lon="-72.24363467">
    <tag k="addr:housenumber" v="80"/>
    <tag k="addr:street" v="Maple Lane"/>
    <tag k="addr:state" v="VT"/>
    <tag k="ref:vcgi:esiteid" v="447986"/>
  </node>
  <node id="-901" visible="true" lat="44.69602919" lon="-72.16968398">
    <tag k="addr:housenumber" v="1275"/>
    <tag k="addr:street" v="Dexter Mountain Road"/>
    <tag k="addr:state" v="VT"/>
    <tag k="ref:vcgi:esiteid" v="448216"/>
  </node>
  <node id="-902" visible="true" lat="44.65439077" lon="-72.27710379">
    <tag k="addr:housenumber" v="376"/>
    <tag k="addr:street" v="White Road"/>
    <tag k="addr:state" v="VT"/>
    <tag k="ref:vcgi:esiteid" v="448481"/>
  </node>
  <node id="-903" visible="true" lat="44.70180951" lon="-72.28754925">
    <tag k="addr:housenumber" v="410"/>
    <tag k="addr:street" v="Andersonville Road"/>
    <tag k="addr:state" v="VT"/>
    <tag k="ref:vcgi:esiteid" v="448953"/>
  </node>
  <node id="-904" visible="true" lat="44.70144531" lon="-72.2875676">
    <tag k="addr:housenumber" v="408"/>
    <tag k="addr:street" v="Andersonville Road"/>
    <tag k="addr:state" v="VT"/>
    <tag k="ref:vcgi:esiteid" v="448954"/>
  </node>
  <node id="-905" visible="true" lat="44.66470179" lon="-72.24477865">
    <tag k="addr:housenumber" v="121"/>
    <tag k="addr:street" v="Hinman Road"/>
    <tag k="addr:state" v="VT"/>
    <tag k="ref:vcgi:esiteid" v="450826"/>
  </node>
  <node id="-906" visible="true" lat="44.70762089" lon="-72.26113641">
    <tag k="addr:housenumber" v="817"/>
    <tag k="addr:street" v="Phillips Road"/>
    <tag k="addr:state" v="VT"/>
    <tag k="ref:vcgi:esiteid" v="450827"/>
  </node>
  <node id="-907" visible="true" lat="44.65983823" lon="-72.27738867">
    <tag k="addr:housenumber" v="1523"/>
    <tag k="addr:street" v="Mud Island Road"/>
    <tag k="addr:state" v="VT"/>
    <tag k="ref:vcgi:esiteid" v="450828"/>
  </node>
  <node id="-908" visible="true" lat="44.72633843" lon="-72.22943809">
    <tag k="addr:housenumber" v="90"/>
    <tag k="addr:street" v="Holt Lane"/>
    <tag k="addr:state" v="VT"/>
    <tag k="ref:vcgi:esiteid" v="451271"/>
  </node>
  <node id="-911" visible="true" lat="44.66844791" lon="-72.21762751">
    <tag k="addr:housenumber" v="178"/>
    <tag k="addr:street" v="Stone Shore Road"/>
    <tag k="addr:state" v="VT"/>
    <tag k="ref:vcgi:esiteid" v="453833"/>
  </node>
  <node id="-912" visible="true" lat="44.67100175" lon="-72.22304405">
    <tag k="addr:housenumber" v="564"/>
    <tag k="addr:street" v="Stone Shore Road"/>
    <tag k="addr:state" v="VT"/>
    <tag k="ref:vcgi:esiteid" v="453834"/>
  </node>
  <node id="-913" visible="true" lat="44.67131914" lon="-72.22360909">
    <tag k="addr:housenumber" v="584"/>
    <tag k="addr:street" v="Stone Shore Road"/>
    <tag k="addr:state" v="VT"/>
    <tag k="ref:vcgi:esiteid" v="453835"/>
  </node>
  <node id="-914" visible="true" lat="44.71453966" lon="-72.20182904">
    <tag k="addr:housenumber" v="1099"/>
    <tag k="addr:street" v="Bean Hill Road"/>
    <tag k="addr:state" v="VT"/>
    <tag k="ref:vcgi:esiteid" v="453838"/>
  </node>
  <node id="-915" visible="true" lat="44.66990077" lon="-72.25743544">
    <tag k="addr:housenumber" v="155"/>
    <tag k="addr:street" v="Salmon Place"/>
    <tag k="addr:state" v="VT"/>
    <tag k="ref:vcgi:esiteid" v="454039"/>
  </node>
  <node id="-916" visible="true" lat="44.6798855" lon="-72.29110203">
    <tag k="addr:housenumber" v="1931"/>
    <tag k="addr:street" v="Andersonville Road"/>
    <tag k="addr:state" v="VT"/>
    <tag k="ref:vcgi:esiteid" v="454099"/>
  </node>
  <node id="-917" visible="true" lat="44.71562311" lon="-72.2066312">
    <tag k="addr:housenumber" v="146"/>
    <tag k="addr:street" v="Borland Road"/>
    <tag k="addr:state" v="VT"/>
    <tag k="ref:vcgi:esiteid" v="454101"/>
  </node>
  <node id="-918" visible="true" lat="44.70113263" lon="-72.15159782">
    <tag k="addr:housenumber" v="2420"/>
    <tag k="addr:street" v="Dexter Mountain Road"/>
    <tag k="addr:state" v="VT"/>
    <tag k="ref:vcgi:esiteid" v="454123"/>
  </node>
  <node id="-919" visible="true" lat="44.70909613" lon="-72.21143875">
    <tag k="addr:housenumber" v="764"/>
    <tag k="addr:street" v="Borland Road"/>
    <tag k="addr:state" v="VT"/>
    <tag k="ref:vcgi:esiteid" v="455234"/>
  </node>
  <node id="-920" visible="true" lat="44.65802796" lon="-72.27705785">
    <tag k="addr:housenumber" v="151"/>
    <tag k="addr:street" v="White Road"/>
    <tag k="addr:state" v="VT"/>
    <tag k="ref:vcgi:esiteid" v="455235"/>
  </node>
  <node id="-921" visible="true" lat="44.68165036" lon="-72.19110994">
    <tag k="addr:housenumber" v="398"/>
    <tag k="addr:street" v="Dry Pond Road"/>
    <tag k="addr:state" v="VT"/>
    <tag k="ref:vcgi:esiteid" v="455236"/>
  </node>
  <node id="-922" visible="true" lat="44.68216241" lon="-72.26876176">
    <tag k="addr:housenumber" v="1050"/>
    <tag k="addr:street" v="Daniels Pond Road"/>
    <tag k="addr:state" v="VT"/>
    <tag k="ref:vcgi:esiteid" v="455569"/>
  </node>
  <node id="-923" visible="true" lat="44.63702011" lon="-72.20076523">
    <tag k="addr:housenumber" v="126"/>
    <tag k="addr:street" v="Page Place"/>
    <tag k="addr:state" v="VT"/>
    <tag k="ref:vcgi:esiteid" v="455570"/>
  </node>
  <node id="-924" visible="true" lat="44.6677691" lon="-72.24799196">
    <tag k="addr:housenumber" v="2827"/>
    <tag k="addr:street" v="Shadow Lake Road"/>
    <tag k="addr:state" v="VT"/>
    <tag k="ref:vcgi:esiteid" v="610238"/>
  </node>
  <node id="-925" visible="true" lat="44.6701513" lon="-72.25091193">
    <tag k="addr:housenumber" v="3083"/>
    <tag k="addr:street" v="Shadow Lake Road"/>
    <tag k="addr:state" v="VT"/>
    <tag k="ref:vcgi:esiteid" v="610239"/>
  </node>
  <node id="-927" visible="true" lat="44.69679814" lon="-72.19578566">
    <tag k="addr:housenumber" v="625"/>
    <tag k="addr:street" v="Still Hill"/>
    <tag k="addr:state" v="VT"/>
    <tag k="ref:vcgi:esiteid" v="610365"/>
  </node>
  <node id="-928" visible="true" lat="44.65625626" lon="-72.2764786">
    <tag k="addr:housenumber" v="313"/>
    <tag k="addr:street" v="White Road"/>
    <tag k="addr:state" v="VT"/>
    <tag k="ref:vcgi:esiteid" v="610367"/>
  </node>
  <node id="-929" visible="true" lat="44.70655036" lon="-72.23708037">
    <tag k="addr:housenumber" v="1768"/>
    <tag k="addr:street" v="Parker Road"/>
    <tag k="addr:state" v="VT"/>
    <tag k="ref:vcgi:esiteid" v="612495"/>
  </node>
  <node id="-930" visible="true" lat="44.69433032" lon="-72.26438275">
    <tag k="addr:housenumber" v="868"/>
    <tag k="addr:street" v="Beach Hill Road"/>
    <tag k="addr:state" v="VT"/>
    <tag k="ref:vcgi:esiteid" v="617075"/>
  </node>
  <node id="-931" visible="true" lat="44.67489734" lon="-72.22848401">
    <tag k="addr:housenumber" v="55"/>
    <tag k="addr:street" v="Maynard Drive"/>
    <tag k="addr:state" v="VT"/>
    <tag k="ref:vcgi:esiteid" v="617076"/>
  </node>
  <node id="-932" visible="true" lat="44.67493269" lon="-72.22832868">
    <tag k="addr:housenumber" v="67"/>
    <tag k="addr:street" v="Maynard Drive"/>
    <tag k="addr:state" v="VT"/>
    <tag k="ref:vcgi:esiteid" v="617077"/>
  </node>
  <node id="-933" visible="true" lat="44.6627743" lon="-72.22139029">
    <tag k="addr:housenumber" v="1397"/>
    <tag k="addr:street" v="Shadow Lake Road"/>
    <tag k="addr:state" v="VT"/>
    <tag k="ref:vcgi:esiteid" v="617078"/>
  </node>
  <node id="-934" visible="true" lat="44.70253881" lon="-72.21266076">
    <tag k="addr:housenumber" v="911"/>
    <tag k="addr:street" v="Borland Road"/>
    <tag k="addr:state" v="VT"/>
    <tag k="ref:vcgi:esiteid" v="617344"/>
  </node>
  <node id="-935" visible="true" lat="44.70386422" lon="-72.18213351">
    <tag k="addr:housenumber" v="347"/>
    <tag k="addr:street" v="Dexter Mountain Road"/>
    <tag k="addr:state" v="VT"/>
    <tag k="ref:vcgi:esiteid" v="620168"/>
  </node>
  <node id="-936" visible="true" lat="44.70164321" lon="-72.18076905">
    <tag k="addr:housenumber" v="507"/>
    <tag k="addr:street" v="Dexter Mountain Road"/>
    <tag k="addr:state" v="VT"/>
    <tag k="ref:vcgi:esiteid" v="620169"/>
  </node>
  <node id="-937" visible="true" lat="44.70171646" lon="-72.22523507">
    <tag k="addr:housenumber" v="522"/>
    <tag k="addr:street" v="Mullen Hill Road"/>
    <tag k="addr:state" v="VT"/>
    <tag k="ref:vcgi:esiteid" v="620335"/>
  </node>
  <node id="-938" visible="true" lat="44.6692791" lon="-72.25987295">
    <tag k="addr:housenumber" v="240"/>
    <tag k="addr:street" v="Salmon Place"/>
    <tag k="addr:state" v="VT"/>
    <tag k="ref:vcgi:esiteid" v="620619"/>
  </node>
  <node id="-941" visible="true" lat="44.68241784" lon="-72.23916154">
    <tag k="addr:housenumber" v="3284"/>
    <tag k="addr:street" v="Perron Hill"/>
    <tag k="addr:state" v="VT"/>
    <tag k="ref:vcgi:esiteid" v="655947"/>
  </node>
  <node id="-942" visible="true" lat="44.7009626" lon="-72.25162655">
    <tag k="addr:housenumber" v="191"/>
    <tag k="addr:street" v="Phillips Road"/>
    <tag k="addr:state" v="VT"/>
    <tag k="ref:vcgi:esiteid" v="655986"/>
  </node>
  <node id="-943" visible="true" lat="44.70513721" lon="-72.25846646">
    <tag k="addr:housenumber" v="623"/>
    <tag k="addr:street" v="Phillips Road"/>
    <tag k="addr:state" v="VT"/>
    <tag k="ref:vcgi:esiteid" v="655994"/>
  </node>
  <node id="-944" visible="true" lat="44.68253795" lon="-72.20830914">
    <tag k="addr:housenumber" v="1080"/>
    <tag k="addr:street" v="Perron Hill"/>
    <tag k="addr:state" v="VT"/>
    <tag k="ref:vcgi:esiteid" v="750038"/>
  </node>
  <node id="-945" visible="true" lat="44.6539407" lon="-72.19244785">
    <tag k="addr:housenumber" v="301"/>
    <tag k="addr:street" v="Square Road"/>
    <tag k="addr:state" v="VT"/>
    <tag k="ref:vcgi:esiteid" v="750039"/>
  </node>
  <node id="-946" visible="true" lat="44.65522551" lon="-72.1989713">
    <tag k="addr:housenumber" v="2228"/>
    <tag k="addr:street" v="Dry Pond Road"/>
    <tag k="addr:state" v="VT"/>
    <tag k="ref:vcgi:esiteid" v="750041"/>
  </node>
  <node id="-947" visible="true" lat="44.64966326" lon="-72.20255363">
    <tag k="addr:housenumber" v="2638"/>
    <tag k="addr:street" v="Dry Pond Road"/>
    <tag k="addr:state" v="VT"/>
    <tag k="ref:vcgi:esiteid" v="750042"/>
  </node>
  <node id="-948" visible="true" lat="44.6528719" lon="-72.20034567">
    <tag k="addr:housenumber" v="2634"/>
    <tag k="addr:street" v="Dry Pond Road"/>
    <tag k="addr:state" v="VT"/>
    <tag k="ref:vcgi:esiteid" v="750043"/>
  </node>
  <node id="-949" visible="true" lat="44.67441371" lon="-72.25735237">
    <tag k="addr:housenumber" v="113"/>
    <tag k="addr:street" v="Daniels Pond Road"/>
    <tag k="addr:state" v="VT"/>
    <tag k="ref:vcgi:esiteid" v="752115"/>
  </node>
  <node id="-951" visible="true" lat="44.67510133" lon="-72.2282153">
    <tag k="addr:housenumber" v="69"/>
    <tag k="addr:street" v="Maynard Drive"/>
    <tag k="addr:state" v="VT"/>
    <tag k="ref:vcgi:esiteid" v="752202"/>
  </node>
  <node id="-952" visible="true" lat="44.66538123" lon="-72.19356827">
    <tag k="addr:housenumber" v="1562"/>
    <tag k="addr:street" v="Dry Pond Road"/>
    <tag k="addr:state" v="VT"/>
    <tag k="ref:vcgi:esiteid" v="752802"/>
  </node>
  <node id="-953" visible="true" lat="44.67486246" lon="-72.25425856">
    <tag k="addr:housenumber" v="3290"/>
    <tag k="addr:street" v="Shadow Lake Road"/>
    <tag k="addr:state" v="VT"/>
    <tag k="ref:vcgi:esiteid" v="753409"/>
  </node>
  <node id="-954" visible="true" lat="44.70094352" lon="-72.17971711">
    <tag k="addr:housenumber" v="637"/>
    <tag k="addr:street" v="Dexter Mountain Road"/>
    <tag k="addr:state" v="VT"/>
    <tag k="ref:vcgi:esiteid" v="753913"/>
  </node>
  <node id="-955" visible="true" lat="44.68937104" lon="-72.22913874">
    <tag k="addr:housenumber" v="2520"/>
    <tag k="addr:street" v="Perron Hill"/>
    <tag k="addr:state" v="VT"/>
    <tag k="ref:vcgi:esiteid" v="756114"/>
  </node>
  <node id="-956" visible="true" lat="44.71632578" lon="-72.2592703">
    <tag k="addr:housenumber" v="289"/>
    <tag k="addr:street" v="Bickford Lane"/>
    <tag k="addr:state" v="VT"/>
    <tag k="ref:vcgi:esiteid" v="756609"/>
  </node>
  <node id="-957" visible="true" lat="44.71711831" lon="-72.26539314">
    <tag k="addr:housenumber" v="287"/>
    <tag k="addr:street" v="Bickford Lane"/>
    <tag k="addr:state" v="VT"/>
    <tag k="ref:vcgi:esiteid" v="756610"/>
  </node>
  <node id="-959" visible="true" lat="44.69760557" lon="-72.26499409">
    <tag k="addr:housenumber" v="778"/>
    <tag k="addr:street" v="Beach Hill Road"/>
    <tag k="addr:state" v="VT"/>
    <tag k="ref:vcgi:esiteid" v="758378"/>
  </node>
  <node id="-960" visible="true" lat="44.73004749" lon="-72.22774391">
    <tag k="addr:housenumber" v="69"/>
    <tag k="addr:street" v="Stevens Road"/>
    <tag k="addr:state" v="VT"/>
    <tag k="ref:vcgi:esiteid" v="758753"/>
  </node>
  <node id="-961" visible="true" lat="44.7298511" lon="-72.22701418">
    <tag k="addr:housenumber" v="60"/>
    <tag k="addr:street" v="Stevens Road"/>
    <tag k="addr:state" v="VT"/>
    <tag k="ref:vcgi:esiteid" v="758754"/>
  </node>
  <node id="-962" visible="true" lat="44.73086787" lon="-72.22729331">
    <tag k="addr:housenumber" v="130"/>
    <tag k="addr:street" v="Stevens Road"/>
    <tag k="addr:state" v="VT"/>
    <tag k="ref:vcgi:esiteid" v="758755"/>
  </node>
  <node id="-963" visible="true" lat="44.73078866" lon="-72.22652962">
    <tag k="addr:housenumber" v="134"/>
    <tag k="addr:street" v="Stevens Road"/>
    <tag k="addr:state" v="VT"/>
    <tag k="ref:vcgi:esiteid" v="758756"/>
  </node>
  <node id="-964" visible="true" lat="44.73112354" lon="-72.22667501">
    <tag k="addr:housenumber" v="132"/>
    <tag k="addr:street" v="Stevens Road"/>
    <tag k="addr:state" v="VT"/>
    <tag k="ref:vcgi:esiteid" v="758757"/>
  </node>
  <node id="-965" visible="true" lat="44.72780835" lon="-72.22478457">
    <tag k="addr:housenumber" v="15"/>
    <tag k="addr:street" v="Parker Road"/>
    <tag k="addr:state" v="VT"/>
    <tag k="ref:vcgi:esiteid" v="758758"/>
  </node>
  <node id="-966" visible="true" lat="44.72739229" lon="-72.22113765">
    <tag k="addr:housenumber" v="2370"/>
    <tag k="addr:street" v="Bean Hill Road"/>
    <tag k="addr:state" v="VT"/>
    <tag k="ref:vcgi:esiteid" v="760786"/>
  </node>
  <node id="-967" visible="true" lat="44.67124013" lon="-72.25875191">
    <tag k="addr:housenumber" v="109"/>
    <tag k="addr:street" v="Mud Island Road"/>
    <tag k="addr:state" v="VT"/>
    <tag k="ref:vcgi:esiteid" v="760787"/>
  </node>
  <node id="-968" visible="true" lat="44.70600886" lon="-72.1575167">
    <tag k="addr:housenumber" v="2347"/>
    <tag k="addr:street" v="Dexter Mountain Road"/>
    <tag k="addr:state" v="VT"/>
    <tag k="ref:vcgi:esiteid" v="763032"/>
  </node>
  <node id="-969" visible="true" lat="44.69407597" lon="-72.26394679">
    <tag k="addr:housenumber" v="866"/>
    <tag k="addr:street" v="Beach Hill Road"/>
    <tag k="addr:state" v="VT"/>
    <tag k="ref:vcgi:esiteid" v="764089"/>
  </node>
  <node id="-970" visible="true" lat="44.72819753" lon="-72.23868411">
    <tag k="addr:housenumber" v="112"/>
    <tag k="addr:street" v="West Shore Road"/>
    <tag k="addr:state" v="VT"/>
    <tag k="ref:vcgi:esiteid" v="764154"/>
  </node>
  <node id="-971" visible="true" lat="44.7296461" lon="-72.22550374">
    <tag k="addr:housenumber" v="52"/>
    <tag k="addr:street" v="County Road"/>
    <tag k="addr:state" v="VT"/>
    <tag k="ref:vcgi:esiteid" v="764155"/>
  </node>
  <node id="-972" visible="true" lat="44.70729796" lon="-72.2611845">
    <tag k="addr:housenumber" v="815"/>
    <tag k="addr:street" v="Phillips Road"/>
    <tag k="addr:state" v="VT"/>
    <tag k="ref:vcgi:esiteid" v="764156"/>
  </node>
  <node id="-973" visible="true" lat="44.70247847" lon="-72.16055806">
    <tag k="addr:housenumber" v="2151"/>
    <tag k="addr:street" v="Dexter Mountain Road"/>
    <tag k="addr:state" v="VT"/>
    <tag k="ref:vcgi:esiteid" v="764157"/>
  </node>
  <node id="-974" visible="true" lat="44.67534201" lon="-72.28159994">
    <tag k="addr:housenumber" v="552"/>
    <tag k="addr:street" v="Rodgers Road"/>
    <tag k="addr:state" v="VT"/>
    <tag k="ref:vcgi:esiteid" v="764158"/>
  </node>
  <node id="-975" visible="true" lat="44.67935774" lon="-72.26114025">
    <tag k="addr:housenumber" v="521"/>
    <tag k="addr:street" v="Daniels Pond Road"/>
    <tag k="addr:state" v="VT"/>
    <tag k="ref:vcgi:esiteid" v="764159"/>
  </node>
  <node id="-976" visible="true" lat="44.67225878" lon="-72.28893307">
    <tag k="addr:housenumber" v="930"/>
    <tag k="addr:street" v="Rodgers Road"/>
    <tag k="addr:state" v="VT"/>
    <tag k="ref:vcgi:esiteid" v="764327"/>
  </node>
  <node id="-977" visible="true" lat="44.66228247" lon="-72.24595283">
    <tag k="addr:housenumber" v="305"/>
    <tag k="addr:street" v="Hinman Road"/>
    <tag k="addr:state" v="VT"/>
    <tag k="ref:vcgi:esiteid" v="764328"/>
  </node>
  <node id="-978" visible="true" lat="44.69834513" lon="-72.17870242">
    <tag k="addr:housenumber" v="783"/>
    <tag k="addr:street" v="Dexter Mountain Road"/>
    <tag k="addr:state" v="VT"/>
    <tag k="ref:vcgi:esiteid" v="764549"/>
  </node>
  <node id="-979" visible="true" lat="44.69185967" lon="-72.19293119">
    <tag k="addr:housenumber" v="4014"/>
    <tag k="addr:street" v="Glover Street"/>
    <tag k="addr:state" v="VT"/>
    <tag k="ref:vcgi:esiteid" v="764574"/>
  </node>
  <node id="-980" visible="true" lat="44.70233648" lon="-72.23493877">
    <tag k="addr:housenumber" v="2153"/>
    <tag k="addr:street" v="Parker Road"/>
    <tag k="addr:state" v="VT"/>
    <tag k="ref:vcgi:esiteid" v="764900"/>
  </node>
  <node id="-981" visible="true" lat="44.66044322" lon="-72.24936257">
    <tag k="addr:housenumber" v="478"/>
    <tag k="addr:street" v="Hinman Road"/>
    <tag k="addr:state" v="VT"/>
    <tag k="ref:vcgi:esiteid" v="764901"/>
  </node>
  <node id="-982" visible="true" lat="44.68701555" lon="-72.1897484">
    <tag k="addr:housenumber" v="24"/>
    <tag k="addr:street" v="Line Drive"/>
    <tag k="addr:state" v="VT"/>
    <tag k="ref:vcgi:esiteid" v="765949"/>
  </node>
  <node id="-983" visible="true" lat="44.68656659" lon="-72.1875129">
    <tag k="addr:housenumber" v="75"/>
    <tag k="addr:street" v="Line Drive"/>
    <tag k="addr:state" v="VT"/>
    <tag k="ref:vcgi:esiteid" v="765950"/>
  </node>
  <node id="-984" visible="true" lat="44.68514195" lon="-72.18766074">
    <tag k="addr:housenumber" v="166"/>
    <tag k="addr:street" v="Line Drive"/>
    <tag k="addr:state" v="VT"/>
    <tag k="ref:vcgi:esiteid" v="765951"/>
  </node>
  <node id="-985" visible="true" lat="44.71183595" lon="-72.18594445">
    <tag k="addr:housenumber" v="35"/>
    <tag k="addr:street" v="Bailey Lane"/>
    <tag k="addr:state" v="VT"/>
    <tag k="ref:vcgi:esiteid" v="766197"/>
  </node>
  <node id="-986" visible="true" lat="44.72896424" lon="-72.22343285">
    <tag k="addr:housenumber" v="2609"/>
    <tag k="addr:street" v="Roaring Brook Road"/>
    <tag k="addr:state" v="VT"/>
    <tag k="ref:vcgi:esiteid" v="766362"/>
  </node>
  <node id="-987" visible="true" lat="44.66528981" lon="-72.21686632">
    <tag k="addr:housenumber" v="1070"/>
    <tag k="addr:street" v="Shadow Lake Road"/>
    <tag k="addr:state" v="VT"/>
    <tag k="ref:vcgi:esiteid" v="767914"/>
  </node>
  <node id="-988" visible="true" lat="44.69284481" lon="-72.21991414">
    <tag k="addr:housenumber" v="1697"/>
    <tag k="addr:street" v="Still Hill"/>
    <tag k="addr:state" v="VT"/>
    <tag k="ref:vcgi:esiteid" v="767940"/>
  </node>
  <node id="-989" visible="true" lat="44.72907344" lon="-72.22528843">
    <tag k="addr:housenumber" v="50"/>
    <tag k="addr:street" v="County Road"/>
    <tag k="addr:state" v="VT"/>
    <tag k="ref:vcgi:esiteid" v="768647"/>
  </node>
  <node id="-990" visible="true" lat="44.72865861" lon="-72.22481417">
    <tag k="addr:housenumber" v="18"/>
    <tag k="addr:street" v="County Road"/>
    <tag k="addr:state" v="VT"/>
    <tag k="ref:vcgi:esiteid" v="768648"/>
  </node>
  <node id="-991" visible="true" lat="44.72545402" lon="-72.21934194">
    <tag k="addr:housenumber" v="2229"/>
    <tag k="addr:street" v="Bean Hill Road"/>
    <tag k="addr:state" v="VT"/>
    <tag k="ref:vcgi:esiteid" v="768649"/>
  </node>
  <node id="-992" visible="true" lat="44.71596825" lon="-72.18508517">
    <tag k="addr:housenumber" v="2277"/>
    <tag k="addr:street" v="Glover Street"/>
    <tag k="addr:state" v="VT"/>
    <tag k="ref:vcgi:esiteid" v="768650"/>
  </node>
  <node id="-993" visible="true" lat="44.66217654" lon="-72.22677883">
    <tag k="addr:housenumber" v="154"/>
    <tag k="addr:street" v="Leland Lane"/>
    <tag k="addr:state" v="VT"/>
    <tag k="ref:vcgi:esiteid" v="771094"/>
  </node>
  <node id="-994" visible="true" lat="44.67921363" lon="-72.26313875">
    <tag k="addr:housenumber" v="739"/>
    <tag k="addr:street" v="Daniels Pond Road"/>
    <tag k="addr:state" v="VT"/>
    <tag k="ref:vcgi:esiteid" v="800091"/>
  </node>
  <node id="-995" visible="true" lat="44.6659601" lon="-72.20815692">
    <tag k="addr:housenumber" v="612"/>
    <tag k="addr:street" v="Shadow Lake Road"/>
    <tag k="addr:state" v="VT"/>
    <tag k="ref:vcgi:esiteid" v="800092"/>
  </node>
  <node id="-996" visible="true" lat="44.66099369" lon="-72.27821992">
    <tag k="addr:housenumber" v="1488"/>
    <tag k="addr:street" v="Mud Island Road"/>
    <tag k="addr:state" v="VT"/>
    <tag k="ref:vcgi:esiteid" v="800093"/>
  </node>
  <node id="-997" visible="true" lat="44.666123" lon="-72.21449542">
    <tag k="addr:housenumber" v="914"/>
    <tag k="addr:street" v="Shadow Lake Road"/>
    <tag k="addr:state" v="VT"/>
    <tag k="ref:vcgi:esiteid" v="800095"/>
  </node>
  <node id="-998" visible="true" lat="44.71648003" lon="-72.22822203">
    <tag k="addr:housenumber" v="857"/>
    <tag k="addr:street" v="Parker Road"/>
    <tag k="addr:state" v="VT"/>
    <tag k="ref:vcgi:esiteid" v="900042"/>
  </node>
  <node id="-999" visible="true" lat="44.72906779" lon="-72.22517408">
    <tag k="addr:housenumber" v="54"/>
    <tag k="addr:street" v="County Road"/>
    <tag k="addr:state" v="VT"/>
    <tag k="ref:vcgi:esiteid" v="1050747"/>
  </node>
  <node id="-1000" visible="true" lat="44.69107449" lon="-72.24149816">
    <tag k="addr:housenumber" v="610"/>
    <tag k="addr:street" v="Young Road"/>
    <tag k="addr:state" v="VT"/>
    <tag k="ref:vcgi:esiteid" v="1050960"/>
  </node>
  <node id="-1001" visible="true" lat="44.68514743" lon="-72.16442424">
    <tag k="addr:housenumber" v="1515"/>
    <tag k="addr:street" v="Heights Road"/>
    <tag k="addr:state" v="VT"/>
    <tag k="ref:vcgi:esiteid" v="1051151"/>
  </node>
</osm>
