<?xml version="1.0" encoding="UTF-8"?>
<osm version="0.6" generator="JOSM" upload="false">
  <node id="-103" visible="true" lat="43.905434" lon="-73.01631831">
    <tag k="addr:city" v="Goshen"/>
    <tag k="addr:housenumber" v="2401"/>
    <tag k="addr:street" v="Goshen Ripton Road"/>
    <tag k="addr:state" v="VT"/>
    <tag k="ref:vcgi:esiteid" v="112453"/>
  </node>
  <node id="-131" visible="true" lat="43.87597123" lon="-73.02608281">
    <tag k="addr:city" v="Goshen"/>
    <tag k="addr:housenumber" v="670"/>
    <tag k="addr:street" v="Silver Lake Road"/>
    <tag k="addr:state" v="VT"/>
    <tag k="ref:vcgi:esiteid" v="112481"/>
  </node>
  <node id="-160" visible="true" lat="43.86419017" lon="-73.00725394">
    <tag k="addr:city" v="Goshen"/>
    <tag k="addr:housenumber" v="605"/>
    <tag k="addr:street" v="Flora White Road"/>
    <tag k="addr:state" v="VT"/>
    <tag k="ref:vcgi:esiteid" v="112510"/>
  </node>
  <node id="-164" visible="true" lat="43.86178207" lon="-73.01528167">
    <tag k="addr:city" v="Goshen"/>
    <tag k="addr:housenumber" v="989"/>
    <tag k="addr:street" v="Carlisle Hill Road"/>
    <tag k="addr:state" v="VT"/>
    <tag k="ref:vcgi:esiteid" v="112514"/>
  </node>
  <node id="-166" visible="true" lat="43.86145402" lon="-72.99287059">
    <tag k="addr:city" v="Goshen"/>
    <tag k="addr:housenumber" v="533"/>
    <tag k="addr:street" v="White Rocks Road"/>
    <tag k="addr:state" v="VT"/>
    <tag k="ref:vcgi:esiteid" v="112516"/>
  </node>
  <node id="-167" visible="true" lat="43.85840988" lon="-72.99485015">
    <tag k="addr:city" v="Goshen"/>
    <tag k="addr:housenumber" v="385"/>
    <tag k="addr:street" v="White Rocks Road"/>
    <tag k="addr:state" v="VT"/>
    <tag k="ref:vcgi:esiteid" v="112517"/>
  </node>
  <node id="-181" visible="true" lat="43.85721671" lon="-73.02895447">
    <tag k="addr:city" v="Goshen"/>
    <tag k="addr:housenumber" v="417"/>
    <tag k="addr:street" v="Fay Road"/>
    <tag k="addr:state" v="VT"/>
    <tag k="ref:vcgi:esiteid" v="112531"/>
  </node>
  <node id="-190" visible="true" lat="43.8503952" lon="-73.02307891">
    <tag k="addr:city" v="Goshen"/>
    <tag k="addr:housenumber" v="98"/>
    <tag k="addr:street" v="Carlisle Hill Road"/>
    <tag k="addr:state" v="VT"/>
    <tag k="ref:vcgi:esiteid" v="112540"/>
  </node>
  <node id="-204" visible="true" lat="43.84689331" lon="-73.02694702">
    <tag k="addr:city" v="Goshen"/>
    <tag k="addr:housenumber" v="178"/>
    <tag k="addr:street" v="Fay Road"/>
    <tag k="addr:state" v="VT"/>
    <tag k="ref:vcgi:esiteid" v="112554"/>
  </node>
  <node id="-206" visible="true" lat="43.84597811" lon="-73.02941217">
    <tag k="addr:city" v="Goshen"/>
    <tag k="addr:housenumber" v="421"/>
    <tag k="addr:street" v="Fay Road"/>
    <tag k="addr:state" v="VT"/>
    <tag k="ref:vcgi:esiteid" v="112556"/>
  </node>
  <node id="-228" visible="true" lat="43.83874622" lon="-72.98909334">
    <tag k="addr:city" v="Goshen"/>
    <tag k="addr:housenumber" v="2019"/>
    <tag k="addr:street" v="Gap Road"/>
    <tag k="addr:state" v="VT"/>
    <tag k="ref:vcgi:esiteid" v="112580"/>
  </node>
  <node id="-230" visible="true" lat="43.8499958" lon="-73.02115912">
    <tag k="addr:city" v="Goshen"/>
    <tag k="addr:housenumber" v="54"/>
    <tag k="addr:street" v="Cemetery Hill Road"/>
    <tag k="addr:state" v="VT"/>
    <tag k="ref:vcgi:esiteid" v="332788"/>
  </node>
  <node id="-232" visible="true" lat="43.86282846" lon="-73.00882431">
    <tag k="addr:city" v="Goshen"/>
    <tag k="addr:housenumber" v="496"/>
    <tag k="addr:street" v="Flora White Road"/>
    <tag k="addr:state" v="VT"/>
    <tag k="ref:vcgi:esiteid" v="332790"/>
  </node>
  <node id="-233" visible="true" lat="43.89436213" lon="-73.01179485">
    <tag k="addr:city" v="Goshen"/>
    <tag k="addr:housenumber" v="1589"/>
    <tag k="addr:street" v="Goshen Ripton Road"/>
    <tag k="addr:state" v="VT"/>
    <tag k="ref:vcgi:esiteid" v="332791"/>
  </node>
  <node id="-237" visible="true" lat="43.89361755" lon="-73.01211265">
    <tag k="addr:city" v="Goshen"/>
    <tag k="addr:housenumber" v="1520"/>
    <tag k="addr:street" v="Goshen Ripton Road"/>
    <tag k="addr:state" v="VT"/>
    <tag k="ref:vcgi:esiteid" v="344039"/>
  </node>
  <node id="-239" visible="true" lat="43.87423794" lon="-73.02384196">
    <tag k="addr:city" v="Goshen"/>
    <tag k="addr:housenumber" v="475"/>
    <tag k="addr:street" v="Silver Lake Road"/>
    <tag k="addr:state" v="VT"/>
    <tag k="ref:vcgi:esiteid" v="344042"/>
  </node>
  <node id="-240" visible="true" lat="43.90025773" lon="-73.01514092">
    <tag k="addr:city" v="Goshen"/>
    <tag k="addr:housenumber" v="2013"/>
    <tag k="addr:street" v="Goshen Ripton Road"/>
    <tag k="addr:state" v="VT"/>
    <tag k="ref:vcgi:esiteid" v="447126"/>
  </node>
  <node id="-241" visible="true" lat="43.89318719" lon="-73.01141101">
    <tag k="addr:city" v="Goshen"/>
    <tag k="addr:housenumber" v="1507"/>
    <tag k="addr:street" v="Goshen Ripton Road"/>
    <tag k="addr:state" v="VT"/>
    <tag k="ref:vcgi:esiteid" v="449532"/>
  </node>
  <node id="-242" visible="true" lat="43.91439139" lon="-73.00398293">
    <tag k="addr:city" v="Goshen"/>
    <tag k="addr:housenumber" v="977"/>
    <tag k="addr:street" v="Goshen Dam Road"/>
    <tag k="addr:state" v="VT"/>
    <tag k="ref:vcgi:esiteid" v="450361"/>
  </node>
  <node id="-244" visible="true" lat="43.83968665" lon="-72.96693525">
    <tag k="addr:city" v="Goshen"/>
    <tag k="addr:housenumber" v="3357"/>
    <tag k="addr:street" v="Gap Road"/>
    <tag k="addr:state" v="VT"/>
    <tag k="ref:vcgi:esiteid" v="450367"/>
  </node>
  <node id="-247" visible="true" lat="43.90078839" lon="-73.0138466">
    <tag k="addr:city" v="Goshen"/>
    <tag k="addr:housenumber" v="2031"/>
    <tag k="addr:street" v="Goshen Ripton Road"/>
    <tag k="addr:state" v="VT"/>
    <tag k="ref:vcgi:esiteid" v="452785"/>
  </node>
  <node id="-248" visible="true" lat="43.89981991" lon="-73.01425878">
    <tag k="addr:city" v="Goshen"/>
    <tag k="addr:housenumber" v="25"/>
    <tag k="addr:street" v="Broken Wire Drive"/>
    <tag k="addr:state" v="VT"/>
    <tag k="ref:vcgi:esiteid" v="611147"/>
  </node>
  <node id="-250" visible="true" lat="43.83198593" lon="-72.99788468">
    <tag k="addr:city" v="Goshen"/>
    <tag k="addr:housenumber" v="735"/>
    <tag k="addr:street" v="South Hill Road"/>
    <tag k="addr:state" v="VT"/>
    <tag k="ref:vcgi:esiteid" v="612048"/>
  </node>
  <node id="-251" visible="true" lat="43.8639164" lon="-72.99201717">
    <tag k="addr:city" v="Goshen"/>
    <tag k="addr:housenumber" v="600"/>
    <tag k="addr:street" v="White Rocks Road"/>
    <tag k="addr:state" v="VT"/>
    <tag k="ref:vcgi:esiteid" v="618059"/>
  </node>
  <node id="-256" visible="true" lat="43.8442216" lon="-73.03160778">
    <tag k="addr:city" v="Goshen"/>
    <tag k="addr:housenumber" v="186"/>
    <tag k="addr:street" v="Fay Road"/>
    <tag k="addr:state" v="VT"/>
    <tag k="ref:vcgi:esiteid" v="655447"/>
  </node>
  <node id="-258" visible="true" lat="43.83423189" lon="-72.99760865">
    <tag k="addr:city" v="Goshen"/>
    <tag k="addr:housenumber" v="519"/>
    <tag k="addr:street" v="South Hill Road"/>
    <tag k="addr:state" v="VT"/>
    <tag k="ref:vcgi:esiteid" v="751432"/>
  </node>
  <node id="-261" visible="true" lat="43.89792114" lon="-73.00850835">
    <tag k="addr:city" v="Goshen"/>
    <tag k="addr:housenumber" v="1861"/>
    <tag k="addr:street" v="Goshen Ripton Road"/>
    <tag k="addr:state" v="VT"/>
    <tag k="ref:vcgi:esiteid" v="762936"/>
  </node>
  <node id="-262" visible="true" lat="43.87582663" lon="-73.0118183">
    <tag k="addr:city" v="Goshen"/>
    <tag k="addr:housenumber" v="303"/>
    <tag k="addr:street" v="Goshen Ripton Road"/>
    <tag k="addr:state" v="VT"/>
    <tag k="ref:vcgi:esiteid" v="762937"/>
  </node>
  <node id="-263" visible="true" lat="43.85614904" lon="-73.00284167">
    <tag k="addr:city" v="Goshen"/>
    <tag k="addr:housenumber" v="1061"/>
    <tag k="addr:street" v="Hathaway Road"/>
    <tag k="addr:state" v="VT"/>
    <tag k="ref:vcgi:esiteid" v="764566"/>
  </node>
  <node id="-264" visible="true" lat="43.85621566" lon="-73.00178109">
    <tag k="addr:city" v="Goshen"/>
    <tag k="addr:housenumber" v="1041"/>
    <tag k="addr:street" v="Hathaway Road"/>
    <tag k="addr:state" v="VT"/>
    <tag k="ref:vcgi:esiteid" v="764567"/>
  </node>
  <node id="-265" visible="true" lat="43.85354018" lon="-73.01476208">
    <tag k="addr:city" v="Goshen"/>
    <tag k="addr:housenumber" v="518"/>
    <tag k="addr:street" v="Capen Hill Road"/>
    <tag k="addr:state" v="VT"/>
    <tag k="ref:vcgi:esiteid" v="764576"/>
  </node>
  <node id="-267" visible="true" lat="43.88853946" lon="-73.00836347">
    <tag k="addr:city" v="Goshen"/>
    <tag k="addr:housenumber" v="1189"/>
    <tag k="addr:street" v="Goshen Ripton Road"/>
    <tag k="addr:state" v="VT"/>
    <tag k="ref:vcgi:esiteid" v="766271"/>
  </node>
  <node id="-268" visible="true" lat="43.84521397" lon="-73.02868731">
    <tag k="addr:city" v="Goshen"/>
    <tag k="addr:housenumber" v="214"/>
    <tag k="addr:street" v="Town Hill Road"/>
    <tag k="addr:state" v="VT"/>
    <tag k="ref:vcgi:esiteid" v="768063"/>
  </node>
  <node id="-269" visible="true" lat="43.84917507" lon="-72.98986235">
    <tag k="addr:city" v="Goshen"/>
    <tag k="addr:housenumber" v="351"/>
    <tag k="addr:street" v="Cape Lookoff Road"/>
    <tag k="addr:state" v="VT"/>
    <tag k="ref:vcgi:esiteid" v="768959"/>
  </node>
  <node id="-271" visible="true" lat="43.8732523" lon="-73.03145636">
    <tag k="addr:city" v="Goshen"/>
    <tag k="addr:housenumber" v="319"/>
    <tag k="addr:street" v="Hayes Road"/>
    <tag k="addr:state" v="VT"/>
    <tag k="ref:vcgi:esiteid" v="900344"/>
  </node>
  <node id="-272" visible="true" lat="43.84264191" lon="-73.00593486">
    <tag k="addr:city" v="Goshen"/>
    <tag k="addr:housenumber" v="1220"/>
    <tag k="addr:street" v="Gap Road"/>
    <tag k="addr:state" v="VT"/>
    <tag k="ref:vcgi:esiteid" v="1050404"/>
  </node>
</osm>
