<?xml version="1.0" encoding="UTF-8"?>
<osm version="0.6" generator="JOSM" upload="false">
  <node id="-101" visible="true" lat="43.2323912" lon="-72.57551999">
    <tag k="addr:housenumber" v="299"/>
    <tag k="addr:street" v="Richards Road"/>
    <tag k="addr:state" v="VT"/>
    <tag k="ref:vcgi:esiteid" v="112771"/>
  </node>
  <node id="-103" visible="true" lat="43.23322124" lon="-72.57634765">
    <tag k="addr:housenumber" v="237"/>
    <tag k="addr:street" v="Richards Road"/>
    <tag k="addr:state" v="VT"/>
    <tag k="ref:vcgi:esiteid" v="112773"/>
  </node>
  <node id="-104" visible="true" lat="43.23086855" lon="-72.57486355">
    <tag k="addr:housenumber" v="204"/>
    <tag k="addr:street" v="Richards Road"/>
    <tag k="addr:state" v="VT"/>
    <tag k="ref:vcgi:esiteid" v="112774"/>
  </node>
  <node id="-336" visible="true" lat="43.17319329" lon="-72.60943574">
    <tag k="addr:housenumber" v="55"/>
    <tag k="addr:street" v="Main Street"/>
    <tag k="addr:state" v="VT"/>
    <tag k="ref:vcgi:esiteid" v="113023"/>
  </node>
  <node id="-346" visible="true" lat="43.17266712" lon="-72.60843995">
    <tag k="addr:housenumber" v="117"/>
    <tag k="addr:street" v="Main Street"/>
    <tag k="addr:state" v="VT"/>
    <tag k="ref:vcgi:esiteid" v="113034"/>
  </node>
  <node id="-347" visible="true" lat="43.17250854" lon="-72.60907318">
    <tag k="addr:housenumber" v="92"/>
    <tag k="addr:street" v="Main Street"/>
    <tag k="addr:state" v="VT"/>
    <tag k="ref:vcgi:esiteid" v="113035"/>
  </node>
  <node id="-350" visible="true" lat="43.17247009" lon="-72.60795593">
    <tag k="addr:housenumber" v="147"/>
    <tag k="addr:street" v="Main Street"/>
    <tag k="addr:state" v="VT"/>
    <tag k="ref:vcgi:esiteid" v="113038"/>
  </node>
  <node id="-371" visible="true" lat="43.17176055" lon="-72.60720825">
    <tag k="addr:housenumber" v="204"/>
    <tag k="addr:street" v="Main Street"/>
    <tag k="addr:state" v="VT"/>
    <tag k="ref:vcgi:esiteid" v="113061"/>
  </node>
  <node id="-407" visible="true" lat="43.17017364" lon="-72.60900878">
    <tag k="addr:housenumber" v="58"/>
    <tag k="addr:street" v="School Street"/>
    <tag k="addr:state" v="VT"/>
    <tag k="ref:vcgi:esiteid" v="113104"/>
  </node>
  <node id="-483" visible="true" lat="43.14782292" lon="-72.56176998">
    <tag k="addr:housenumber" v="234"/>
    <tag k="addr:street" v="Athens Road"/>
    <tag k="addr:state" v="VT"/>
    <tag k="ref:vcgi:esiteid" v="113186"/>
  </node>
  <node id="-484" visible="true" lat="43.14759334" lon="-72.56109257">
    <tag k="addr:housenumber" v="233"/>
    <tag k="addr:street" v="Athens Road"/>
    <tag k="addr:state" v="VT"/>
    <tag k="ref:vcgi:esiteid" v="113187"/>
  </node>
  <node id="-499" visible="true" lat="43.23156351" lon="-72.5756877">
    <tag k="addr:housenumber" v="161"/>
    <tag k="addr:street" v="Richards Road"/>
    <tag k="addr:state" v="VT"/>
    <tag k="ref:vcgi:esiteid" v="113204"/>
  </node>
  <node id="-547" visible="true" lat="43.23280164" lon="-72.57370626">
    <tag k="addr:housenumber" v="286"/>
    <tag k="addr:street" v="Richards Road"/>
    <tag k="addr:state" v="VT"/>
    <tag k="ref:vcgi:esiteid" v="113256"/>
  </node>
  <node id="-568" visible="true" lat="43.23156819" lon="-72.57453919">
    <tag k="addr:housenumber" v="240"/>
    <tag k="addr:street" v="Richards Road"/>
    <tag k="addr:state" v="VT"/>
    <tag k="ref:vcgi:esiteid" v="113279"/>
  </node>
  <node id="-642" visible="true" lat="43.17270372" lon="-72.6085022">
    <tag k="addr:housenumber" v="115"/>
    <tag k="addr:street" v="Main Street"/>
    <tag k="addr:state" v="VT"/>
    <tag k="ref:vcgi:esiteid" v="446032"/>
  </node>
  <node id="-666" visible="true" lat="43.19633681" lon="-72.64832531">
    <tag k="addr:housenumber" v="140"/>
    <tag k="addr:street" v="Cabell Road"/>
    <tag k="addr:state" v="VT"/>
    <tag k="ref:vcgi:esiteid" v="618165"/>
  </node>
  <node id="-667" visible="true" lat="43.1887078" lon="-72.62117896">
    <tag k="addr:housenumber" v="140"/>
    <tag k="addr:street" v="Middletown Cemetery Road"/>
    <tag k="addr:state" v="VT"/>
    <tag k="ref:vcgi:esiteid" v="618166"/>
  </node>
  <node id="-669" visible="true" lat="43.22383766" lon="-72.63788628">
    <tag k="addr:housenumber" v="104"/>
    <tag k="addr:street" v="Hall Ranch Road"/>
    <tag k="addr:state" v="VT"/>
    <tag k="ref:vcgi:esiteid" v="618168"/>
  </node>
</osm>
