<?xml version="1.0" encoding="UTF-8"?>
<osm version="0.6" generator="JOSM">
  <node id="-112" visible="true" lat="44.76497268" lon="-73.28667449">
    <tag k="addr:city" v="Grand Isle"/>
    <tag k="addr:housenumber" v="412"/>
    <tag k="addr:street" v="U.S. Route 2"/>
    <tag k="addr:state" v="VT"/>
    <tag k="ref:vcgi:esiteid" v="113404"/>
  </node>
  <node id="-143" visible="true" lat="44.75763945" lon="-73.27339234">
    <tag k="addr:city" v="Grand Isle"/>
    <tag k="addr:housenumber" v="237"/>
    <tag k="addr:street" v="East Shore North"/>
    <tag k="addr:state" v="VT"/>
    <tag k="ref:vcgi:esiteid" v="113436"/>
  </node>
  <node id="-222" visible="true" lat="44.74290659" lon="-73.27584905">
    <tag k="addr:city" v="Grand Isle"/>
    <tag k="addr:housenumber" v="31"/>
    <tag k="addr:street" v="Faywood Road"/>
    <tag k="addr:state" v="VT"/>
    <tag k="ref:vcgi:esiteid" v="113520"/>
  </node>
  <node id="-421" visible="true" lat="44.7254983" lon="-73.29140443">
    <tag k="addr:city" v="Grand Isle"/>
    <tag k="addr:housenumber" v="224"/>
    <tag k="addr:street" v="U.S. Route 2"/>
    <tag k="addr:state" v="VT"/>
    <tag k="ref:vcgi:esiteid" v="113726"/>
  </node>
  <node id="-460" visible="true" lat="44.72260107" lon="-73.29550071">
    <tag k="addr:city" v="Grand Isle"/>
    <tag k="addr:housenumber" v="12"/>
    <tag k="addr:street" v="Hyde Road"/>
    <tag k="addr:state" v="VT"/>
    <tag k="ref:vcgi:esiteid" v="113766"/>
  </node>
  <node id="-461" visible="true" lat="44.72248077" lon="-73.29515075">
    <tag k="addr:city" v="Grand Isle"/>
    <tag k="addr:housenumber" v="10"/>
    <tag k="addr:street" v="Hyde Road"/>
    <tag k="addr:state" v="VT"/>
    <tag k="ref:vcgi:esiteid" v="113767"/>
  </node>
  <node id="-641" visible="true" lat="44.70617675" lon="-73.32310485">
    <tag k="addr:city" v="Grand Isle"/>
    <tag k="addr:housenumber" v="74"/>
    <tag k="addr:street" v="Allen Road"/>
    <tag k="addr:state" v="VT"/>
    <tag k="ref:vcgi:esiteid" v="113952"/>
  </node>
  <node id="-673" visible="true" lat="44.70347976" lon="-73.31697082">
    <tag k="addr:city" v="Grand Isle"/>
    <tag k="addr:housenumber" v="46"/>
    <tag k="addr:street" v="Allen Road"/>
    <tag k="addr:state" v="VT"/>
    <tag k="ref:vcgi:esiteid" v="113986"/>
  </node>
  <node id="-674" visible="true" lat="44.70357123" lon="-73.30311839">
    <tag k="addr:city" v="Grand Isle"/>
    <tag k="addr:housenumber" v="2"/>
    <tag k="addr:street" v="Allen Road"/>
    <tag k="addr:state" v="VT"/>
    <tag k="ref:vcgi:esiteid" v="113987"/>
  </node>
  <node id="-676" visible="true" lat="44.70350442" lon="-73.30356593">
    <tag k="addr:city" v="Grand Isle"/>
    <tag k="addr:housenumber" v="4"/>
    <tag k="addr:street" v="Allen Road"/>
    <tag k="addr:state" v="VT"/>
    <tag k="ref:vcgi:esiteid" v="113989"/>
  </node>
  <node id="-677" visible="true" lat="44.70342218" lon="-73.30466291">
    <tag k="addr:city" v="Grand Isle"/>
    <tag k="addr:housenumber" v="6"/>
    <tag k="addr:street" v="Allen Road"/>
    <tag k="addr:state" v="VT"/>
    <tag k="ref:vcgi:esiteid" v="113990"/>
  </node>
  <node id="-680" visible="true" lat="44.70331289" lon="-73.30546764">
    <tag k="addr:city" v="Grand Isle"/>
    <tag k="addr:housenumber" v="12"/>
    <tag k="addr:street" v="Allen Road"/>
    <tag k="addr:state" v="VT"/>
    <tag k="ref:vcgi:esiteid" v="113993"/>
  </node>
  <node id="-683" visible="true" lat="44.70304559" lon="-73.30804687">
    <tag k="addr:city" v="Grand Isle"/>
    <tag k="addr:housenumber" v="20"/>
    <tag k="addr:street" v="Allen Road"/>
    <tag k="addr:state" v="VT"/>
    <tag k="ref:vcgi:esiteid" v="113997"/>
  </node>
  <node id="-684" visible="true" lat="44.702958" lon="-73.31271779">
    <tag k="addr:city" v="Grand Isle"/>
    <tag k="addr:housenumber" v="36"/>
    <tag k="addr:street" v="Allen Road"/>
    <tag k="addr:state" v="VT"/>
    <tag k="ref:vcgi:esiteid" v="113998"/>
  </node>
  <node id="-687" visible="true" lat="44.70277604" lon="-73.31362336">
    <tag k="addr:city" v="Grand Isle"/>
    <tag k="addr:housenumber" v="38"/>
    <tag k="addr:street" v="Allen Road"/>
    <tag k="addr:state" v="VT"/>
    <tag k="ref:vcgi:esiteid" v="114001"/>
  </node>
  <node id="-689" visible="true" lat="44.7027476" lon="-73.31123349">
    <tag k="addr:city" v="Grand Isle"/>
    <tag k="addr:housenumber" v="30"/>
    <tag k="addr:street" v="Allen Road"/>
    <tag k="addr:state" v="VT"/>
    <tag k="ref:vcgi:esiteid" v="114003"/>
  </node>
  <node id="-690" visible="true" lat="44.70237085" lon="-73.34720533">
    <tag k="addr:city" v="Grand Isle"/>
    <tag k="addr:housenumber" v="116"/>
    <tag k="addr:street" v="West Shore Road"/>
    <tag k="addr:state" v="VT"/>
    <tag k="ref:vcgi:esiteid" v="114004"/>
  </node>
  <node id="-698" visible="true" lat="44.70228334" lon="-73.30902865">
    <tag k="addr:city" v="Grand Isle"/>
    <tag k="addr:housenumber" v="21"/>
    <tag k="addr:street" v="Allen Road"/>
    <tag k="addr:state" v="VT"/>
    <tag k="ref:vcgi:esiteid" v="114012"/>
  </node>
  <node id="-707" visible="true" lat="44.70197769" lon="-73.31780528">
    <tag k="addr:city" v="Grand Isle"/>
    <tag k="addr:housenumber" v="50"/>
    <tag k="addr:street" v="Allen Road"/>
    <tag k="addr:state" v="VT"/>
    <tag k="ref:vcgi:esiteid" v="114021"/>
  </node>
  <node id="-710" visible="true" lat="44.70191217" lon="-73.31157169">
    <tag k="addr:city" v="Grand Isle"/>
    <tag k="addr:housenumber" v="29"/>
    <tag k="addr:street" v="Allen Road"/>
    <tag k="addr:state" v="VT"/>
    <tag k="ref:vcgi:esiteid" v="114024"/>
  </node>
  <node id="-711" visible="true" lat="44.70186615" lon="-73.34062994">
    <tag k="addr:city" v="Grand Isle"/>
    <tag k="addr:housenumber" v="120"/>
    <tag k="addr:street" v="Allen Road"/>
    <tag k="addr:state" v="VT"/>
    <tag k="ref:vcgi:esiteid" v="114025"/>
  </node>
  <node id="-713" visible="true" lat="44.70187377" lon="-73.30796813">
    <tag k="addr:city" v="Grand Isle"/>
    <tag k="addr:housenumber" v="15"/>
    <tag k="addr:street" v="Allen Road"/>
    <tag k="addr:state" v="VT"/>
    <tag k="ref:vcgi:esiteid" v="114027"/>
  </node>
  <node id="-715" visible="true" lat="44.70151198" lon="-73.34633212">
    <tag k="addr:city" v="Grand Isle"/>
    <tag k="addr:housenumber" v="135"/>
    <tag k="addr:street" v="Allen Road"/>
    <tag k="addr:state" v="VT"/>
    <tag k="ref:vcgi:esiteid" v="114029"/>
  </node>
  <node id="-716" visible="true" lat="44.7013985" lon="-73.34492616">
    <tag k="addr:city" v="Grand Isle"/>
    <tag k="addr:housenumber" v="129"/>
    <tag k="addr:street" v="Allen Road"/>
    <tag k="addr:state" v="VT"/>
    <tag k="ref:vcgi:esiteid" v="114030"/>
  </node>
  <node id="-718" visible="true" lat="44.70169448" lon="-73.32418823">
    <tag k="addr:city" v="Grand Isle"/>
    <tag k="addr:housenumber" v="72"/>
    <tag k="addr:street" v="Allen Road"/>
    <tag k="addr:state" v="VT"/>
    <tag k="ref:vcgi:esiteid" v="114033"/>
  </node>
  <node id="-721" visible="true" lat="44.70154784" lon="-73.31623084">
    <tag k="addr:city" v="Grand Isle"/>
    <tag k="addr:housenumber" v="41"/>
    <tag k="addr:street" v="Allen Road"/>
    <tag k="addr:state" v="VT"/>
    <tag k="ref:vcgi:esiteid" v="114036"/>
  </node>
  <node id="-722" visible="true" lat="44.70158902" lon="-73.318035">
    <tag k="addr:city" v="Grand Isle"/>
    <tag k="addr:housenumber" v="47"/>
    <tag k="addr:street" v="Allen Road"/>
    <tag k="addr:state" v="VT"/>
    <tag k="ref:vcgi:esiteid" v="114037"/>
  </node>
  <node id="-723" visible="true" lat="44.70102428" lon="-73.31296498">
    <tag k="addr:city" v="Grand Isle"/>
    <tag k="addr:housenumber" v="37"/>
    <tag k="addr:street" v="Sligo Lane"/>
    <tag k="addr:state" v="VT"/>
    <tag k="ref:vcgi:esiteid" v="114038"/>
  </node>
  <node id="-724" visible="true" lat="44.70134197" lon="-73.3201074">
    <tag k="addr:city" v="Grand Isle"/>
    <tag k="addr:housenumber" v="57"/>
    <tag k="addr:street" v="Allen Road"/>
    <tag k="addr:state" v="VT"/>
    <tag k="ref:vcgi:esiteid" v="114039"/>
  </node>
  <node id="-725" visible="true" lat="44.70127457" lon="-73.3260563">
    <tag k="addr:city" v="Grand Isle"/>
    <tag k="addr:housenumber" v="80"/>
    <tag k="addr:street" v="Allen Road"/>
    <tag k="addr:state" v="VT"/>
    <tag k="ref:vcgi:esiteid" v="114040"/>
  </node>
  <node id="-726" visible="true" lat="44.70119126" lon="-73.32190583">
    <tag k="addr:city" v="Grand Isle"/>
    <tag k="addr:housenumber" v="63"/>
    <tag k="addr:street" v="Allen Road"/>
    <tag k="addr:state" v="VT"/>
    <tag k="ref:vcgi:esiteid" v="114041"/>
  </node>
  <node id="-727" visible="true" lat="44.70111136" lon="-73.33310469">
    <tag k="addr:city" v="Grand Isle"/>
    <tag k="addr:housenumber" v="98"/>
    <tag k="addr:street" v="Allen Road"/>
    <tag k="addr:state" v="VT"/>
    <tag k="ref:vcgi:esiteid" v="114042"/>
  </node>
  <node id="-728" visible="true" lat="44.70111691" lon="-73.3228726">
    <tag k="addr:city" v="Grand Isle"/>
    <tag k="addr:housenumber" v="71"/>
    <tag k="addr:street" v="Allen Road"/>
    <tag k="addr:state" v="VT"/>
    <tag k="ref:vcgi:esiteid" v="114043"/>
  </node>
  <node id="-729" visible="true" lat="44.70109939" lon="-73.32718658">
    <tag k="addr:city" v="Grand Isle"/>
    <tag k="addr:housenumber" v="82"/>
    <tag k="addr:street" v="Allen Road"/>
    <tag k="addr:state" v="VT"/>
    <tag k="ref:vcgi:esiteid" v="114044"/>
  </node>
  <node id="-730" visible="true" lat="44.70109704" lon="-73.31854269">
    <tag k="addr:city" v="Grand Isle"/>
    <tag k="addr:housenumber" v="51"/>
    <tag k="addr:street" v="Allen Road"/>
    <tag k="addr:state" v="VT"/>
    <tag k="ref:vcgi:esiteid" v="114045"/>
  </node>
  <node id="-731" visible="true" lat="44.70108724" lon="-73.33373251">
    <tag k="addr:city" v="Grand Isle"/>
    <tag k="addr:housenumber" v="100"/>
    <tag k="addr:street" v="Allen Road"/>
    <tag k="addr:state" v="VT"/>
    <tag k="ref:vcgi:esiteid" v="114046"/>
  </node>
  <node id="-733" visible="true" lat="44.70090796" lon="-73.32520926">
    <tag k="addr:city" v="Grand Isle"/>
    <tag k="addr:housenumber" v="81"/>
    <tag k="addr:street" v="Allen Road"/>
    <tag k="addr:state" v="VT"/>
    <tag k="ref:vcgi:esiteid" v="114048"/>
  </node>
  <node id="-734" visible="true" lat="44.70087271" lon="-73.33436103">
    <tag k="addr:city" v="Grand Isle"/>
    <tag k="addr:housenumber" v="102"/>
    <tag k="addr:street" v="Allen Road"/>
    <tag k="addr:state" v="VT"/>
    <tag k="ref:vcgi:esiteid" v="114049"/>
  </node>
  <node id="-736" visible="true" lat="44.70098159" lon="-73.33249297">
    <tag k="addr:city" v="Grand Isle"/>
    <tag k="addr:housenumber" v="96"/>
    <tag k="addr:street" v="Allen Road"/>
    <tag k="addr:state" v="VT"/>
    <tag k="ref:vcgi:esiteid" v="114052"/>
  </node>
  <node id="-737" visible="true" lat="44.70109275" lon="-73.32341466">
    <tag k="addr:city" v="Grand Isle"/>
    <tag k="addr:housenumber" v="2"/>
    <tag k="addr:street" v="Pent Road"/>
    <tag k="addr:state" v="VT"/>
    <tag k="ref:vcgi:esiteid" v="114053"/>
  </node>
  <node id="-738" visible="true" lat="44.70082184" lon="-73.33679798">
    <tag k="addr:city" v="Grand Isle"/>
    <tag k="addr:housenumber" v="112"/>
    <tag k="addr:street" v="Allen Road"/>
    <tag k="addr:state" v="VT"/>
    <tag k="ref:vcgi:esiteid" v="114054"/>
  </node>
  <node id="-739" visible="true" lat="44.70087736" lon="-73.31893559">
    <tag k="addr:city" v="Grand Isle"/>
    <tag k="addr:housenumber" v="53"/>
    <tag k="addr:street" v="Allen Road"/>
    <tag k="addr:state" v="VT"/>
    <tag k="ref:vcgi:esiteid" v="114055"/>
  </node>
  <node id="-740" visible="true" lat="44.7007906" lon="-73.32071918">
    <tag k="addr:city" v="Grand Isle"/>
    <tag k="addr:housenumber" v="59"/>
    <tag k="addr:street" v="Allen Road"/>
    <tag k="addr:state" v="VT"/>
    <tag k="ref:vcgi:esiteid" v="114056"/>
  </node>
  <node id="-742" visible="true" lat="44.70063781" lon="-73.33522033">
    <tag k="addr:city" v="Grand Isle"/>
    <tag k="addr:housenumber" v="104"/>
    <tag k="addr:street" v="Allen Road"/>
    <tag k="addr:state" v="VT"/>
    <tag k="ref:vcgi:esiteid" v="114058"/>
  </node>
  <node id="-744" visible="true" lat="44.70064987" lon="-73.329972">
    <tag k="addr:city" v="Grand Isle"/>
    <tag k="addr:housenumber" v="119"/>
    <tag k="addr:street" v="Pearl Street"/>
    <tag k="addr:state" v="VT"/>
    <tag k="ref:vcgi:esiteid" v="114060"/>
  </node>
  <node id="-745" visible="true" lat="44.70049604" lon="-73.33020314">
    <tag k="addr:city" v="Grand Isle"/>
    <tag k="addr:housenumber" v="91"/>
    <tag k="addr:street" v="Allen Road"/>
    <tag k="addr:state" v="VT"/>
    <tag k="ref:vcgi:esiteid" v="114061"/>
  </node>
  <node id="-746" visible="true" lat="44.70049568" lon="-73.33066346">
    <tag k="addr:city" v="Grand Isle"/>
    <tag k="addr:housenumber" v="93"/>
    <tag k="addr:street" v="Allen Road"/>
    <tag k="addr:state" v="VT"/>
    <tag k="ref:vcgi:esiteid" v="114062"/>
  </node>
  <node id="-748" visible="true" lat="44.70028744" lon="-73.33184786">
    <tag k="addr:city" v="Grand Isle"/>
    <tag k="addr:housenumber" v="95"/>
    <tag k="addr:street" v="Allen Road"/>
    <tag k="addr:state" v="VT"/>
    <tag k="ref:vcgi:esiteid" v="114064"/>
  </node>
  <node id="-751" visible="true" lat="44.70023482" lon="-73.33307543">
    <tag k="addr:city" v="Grand Isle"/>
    <tag k="addr:housenumber" v="99"/>
    <tag k="addr:street" v="Allen Road"/>
    <tag k="addr:state" v="VT"/>
    <tag k="ref:vcgi:esiteid" v="114067"/>
  </node>
  <node id="-752" visible="true" lat="44.70016861" lon="-73.33368682">
    <tag k="addr:city" v="Grand Isle"/>
    <tag k="addr:housenumber" v="101"/>
    <tag k="addr:street" v="Allen Road"/>
    <tag k="addr:state" v="VT"/>
    <tag k="ref:vcgi:esiteid" v="114068"/>
  </node>
  <node id="-753" visible="true" lat="44.70016905" lon="-73.33252811">
    <tag k="addr:city" v="Grand Isle"/>
    <tag k="addr:housenumber" v="97"/>
    <tag k="addr:street" v="Allen Road"/>
    <tag k="addr:state" v="VT"/>
    <tag k="ref:vcgi:esiteid" v="114069"/>
  </node>
  <node id="-755" visible="true" lat="44.70019629" lon="-73.32318252">
    <tag k="addr:city" v="Grand Isle"/>
    <tag k="addr:housenumber" v="4"/>
    <tag k="addr:street" v="Pent Road"/>
    <tag k="addr:state" v="VT"/>
    <tag k="ref:vcgi:esiteid" v="114071"/>
  </node>
  <node id="-757" visible="true" lat="44.69980552" lon="-73.33547569">
    <tag k="addr:city" v="Grand Isle"/>
    <tag k="addr:housenumber" v="107"/>
    <tag k="addr:street" v="Allen Road"/>
    <tag k="addr:state" v="VT"/>
    <tag k="ref:vcgi:esiteid" v="114074"/>
  </node>
  <node id="-759" visible="true" lat="44.69974899" lon="-73.3289566">
    <tag k="addr:city" v="Grand Isle"/>
    <tag k="addr:housenumber" v="116"/>
    <tag k="addr:street" v="Pearl Street"/>
    <tag k="addr:state" v="VT"/>
    <tag k="ref:vcgi:esiteid" v="114076"/>
  </node>
  <node id="-762" visible="true" lat="44.69969019" lon="-73.32420505">
    <tag k="addr:city" v="Grand Isle"/>
    <tag k="addr:housenumber" v="77"/>
    <tag k="addr:street" v="Allen Road"/>
    <tag k="addr:state" v="VT"/>
    <tag k="ref:vcgi:esiteid" v="114079"/>
  </node>
  <node id="-764" visible="true" lat="44.69944055" lon="-73.32938796">
    <tag k="addr:city" v="Grand Isle"/>
    <tag k="addr:housenumber" v="114"/>
    <tag k="addr:street" v="Pearl Street"/>
    <tag k="addr:state" v="VT"/>
    <tag k="ref:vcgi:esiteid" v="114082"/>
  </node>
  <node id="-768" visible="true" lat="44.69910049" lon="-73.32524108">
    <tag k="addr:city" v="Grand Isle"/>
    <tag k="addr:housenumber" v="79"/>
    <tag k="addr:street" v="Allen Road"/>
    <tag k="addr:state" v="VT"/>
    <tag k="ref:vcgi:esiteid" v="114087"/>
  </node>
  <node id="-769" visible="true" lat="44.69897807" lon="-73.32946419">
    <tag k="addr:city" v="Grand Isle"/>
    <tag k="addr:housenumber" v="112"/>
    <tag k="addr:street" v="Pearl Street"/>
    <tag k="addr:state" v="VT"/>
    <tag k="ref:vcgi:esiteid" v="114088"/>
  </node>
  <node id="-770" visible="true" lat="44.69902933" lon="-73.32162572">
    <tag k="addr:city" v="Grand Isle"/>
    <tag k="addr:housenumber" v="8"/>
    <tag k="addr:street" v="Terry Lane"/>
    <tag k="addr:state" v="VT"/>
    <tag k="ref:vcgi:esiteid" v="114089"/>
  </node>
  <node id="-771" visible="true" lat="44.69890275" lon="-73.32319424">
    <tag k="addr:city" v="Grand Isle"/>
    <tag k="addr:housenumber" v="7"/>
    <tag k="addr:street" v="Razzberry Place"/>
    <tag k="addr:state" v="VT"/>
    <tag k="ref:vcgi:esiteid" v="114090"/>
  </node>
  <node id="-773" visible="true" lat="44.69881516" lon="-73.31209804">
    <tag k="addr:city" v="Grand Isle"/>
    <tag k="addr:housenumber" v="31"/>
    <tag k="addr:street" v="Sligo Lane"/>
    <tag k="addr:state" v="VT"/>
    <tag k="ref:vcgi:esiteid" v="114092"/>
  </node>
  <node id="-776" visible="true" lat="44.69867463" lon="-73.31137801">
    <tag k="addr:city" v="Grand Isle"/>
    <tag k="addr:housenumber" v="33"/>
    <tag k="addr:street" v="Sligo Lane"/>
    <tag k="addr:state" v="VT"/>
    <tag k="ref:vcgi:esiteid" v="114095"/>
  </node>
  <node id="-777" visible="true" lat="44.6966828" lon="-73.35096121">
    <tag k="addr:city" v="Grand Isle"/>
    <tag k="addr:housenumber" v="93"/>
    <tag k="addr:street" v="West Shore Road"/>
    <tag k="addr:state" v="VT"/>
    <tag k="ref:vcgi:esiteid" v="114096"/>
  </node>
  <node id="-778" visible="true" lat="44.69824463" lon="-73.32990383">
    <tag k="addr:city" v="Grand Isle"/>
    <tag k="addr:housenumber" v="108"/>
    <tag k="addr:street" v="Pearl Street"/>
    <tag k="addr:state" v="VT"/>
    <tag k="ref:vcgi:esiteid" v="114097"/>
  </node>
  <node id="-779" visible="true" lat="44.69805744" lon="-73.35181429">
    <tag k="addr:city" v="Grand Isle"/>
    <tag k="addr:housenumber" v="1"/>
    <tag k="addr:street" v="Camp Vermont Court"/>
    <tag k="addr:state" v="VT"/>
    <tag k="ref:vcgi:esiteid" v="114098"/>
  </node>
  <node id="-782" visible="true" lat="44.69780657" lon="-73.32976141">
    <tag k="addr:city" v="Grand Isle"/>
    <tag k="addr:housenumber" v="106"/>
    <tag k="addr:street" v="Pearl Street"/>
    <tag k="addr:state" v="VT"/>
    <tag k="ref:vcgi:esiteid" v="114101"/>
  </node>
  <node id="-864" visible="true" lat="44.6896553" lon="-73.34790039">
    <tag k="addr:city" v="Grand Isle"/>
    <tag k="addr:housenumber" v="55"/>
    <tag k="addr:street" v="West Shore Road"/>
    <tag k="addr:state" v="VT"/>
    <tag k="ref:vcgi:esiteid" v="114185"/>
  </node>
  <node id="-900" visible="true" lat="44.68563439" lon="-73.34842017">
    <tag k="addr:city" v="Grand Isle"/>
    <tag k="addr:housenumber" v="37"/>
    <tag k="addr:street" v="West Shore Road"/>
    <tag k="addr:state" v="VT"/>
    <tag k="ref:vcgi:esiteid" v="114221"/>
  </node>
  <node id="-907" visible="true" lat="44.68460464" lon="-73.347023">
    <tag k="addr:city" v="Grand Isle"/>
    <tag k="addr:housenumber" v="36"/>
    <tag k="addr:street" v="West Shore Road"/>
    <tag k="addr:state" v="VT"/>
    <tag k="ref:vcgi:esiteid" v="114228"/>
  </node>
  <node id="-908" visible="true" lat="44.68418542" lon="-73.34846449">
    <tag k="addr:city" v="Grand Isle"/>
    <tag k="addr:housenumber" v="31"/>
    <tag k="addr:street" v="West Shore Road"/>
    <tag k="addr:state" v="VT"/>
    <tag k="ref:vcgi:esiteid" v="114229"/>
  </node>
  <node id="-914" visible="true" lat="44.68470245" lon="-73.34815704">
    <tag k="addr:city" v="Grand Isle"/>
    <tag k="addr:housenumber" v="33"/>
    <tag k="addr:street" v="West Shore Road"/>
    <tag k="addr:state" v="VT"/>
    <tag k="ref:vcgi:esiteid" v="114235"/>
  </node>
  <node id="-915" visible="true" lat="44.68302535" lon="-73.34815978">
    <tag k="addr:city" v="Grand Isle"/>
    <tag k="addr:housenumber" v="29"/>
    <tag k="addr:street" v="West Shore Road"/>
    <tag k="addr:state" v="VT"/>
    <tag k="ref:vcgi:esiteid" v="114236"/>
  </node>
  <node id="-918" visible="true" lat="44.68276595" lon="-73.34777069">
    <tag k="addr:city" v="Grand Isle"/>
    <tag k="addr:housenumber" v="27"/>
    <tag k="addr:street" v="West Shore Road"/>
    <tag k="addr:state" v="VT"/>
    <tag k="ref:vcgi:esiteid" v="114239"/>
  </node>
  <node id="-926" visible="true" lat="44.68124771" lon="-73.34732055">
    <tag k="addr:city" v="Grand Isle"/>
    <tag k="addr:housenumber" v="20"/>
    <tag k="addr:street" v="West Shore Road"/>
    <tag k="addr:state" v="VT"/>
    <tag k="ref:vcgi:esiteid" v="114248"/>
  </node>
  <node id="-929" visible="true" lat="44.68053817" lon="-73.34782409">
    <tag k="addr:city" v="Grand Isle"/>
    <tag k="addr:housenumber" v="21"/>
    <tag k="addr:street" v="West Shore Road"/>
    <tag k="addr:state" v="VT"/>
    <tag k="ref:vcgi:esiteid" v="114251"/>
  </node>
  <node id="-932" visible="true" lat="44.68021302" lon="-73.34793504">
    <tag k="addr:city" v="Grand Isle"/>
    <tag k="addr:housenumber" v="19"/>
    <tag k="addr:street" v="West Shore Road"/>
    <tag k="addr:state" v="VT"/>
    <tag k="ref:vcgi:esiteid" v="114254"/>
  </node>
  <node id="-933" visible="true" lat="44.67999918" lon="-73.34795268">
    <tag k="addr:city" v="Grand Isle"/>
    <tag k="addr:housenumber" v="17"/>
    <tag k="addr:street" v="West Shore Road"/>
    <tag k="addr:state" v="VT"/>
    <tag k="ref:vcgi:esiteid" v="114255"/>
  </node>
  <node id="-934" visible="true" lat="44.6796101" lon="-73.34797735">
    <tag k="addr:city" v="Grand Isle"/>
    <tag k="addr:housenumber" v="15"/>
    <tag k="addr:street" v="West Shore Road"/>
    <tag k="addr:state" v="VT"/>
    <tag k="ref:vcgi:esiteid" v="114256"/>
  </node>
  <node id="-935" visible="true" lat="44.67919681" lon="-73.34797313">
    <tag k="addr:city" v="Grand Isle"/>
    <tag k="addr:housenumber" v="13"/>
    <tag k="addr:street" v="West Shore Road"/>
    <tag k="addr:state" v="VT"/>
    <tag k="ref:vcgi:esiteid" v="114257"/>
  </node>
  <node id="-936" visible="true" lat="44.67874666" lon="-73.34807053">
    <tag k="addr:city" v="Grand Isle"/>
    <tag k="addr:housenumber" v="11"/>
    <tag k="addr:street" v="West Shore Road"/>
    <tag k="addr:state" v="VT"/>
    <tag k="ref:vcgi:esiteid" v="114258"/>
  </node>
  <node id="-937" visible="true" lat="44.67830276" lon="-73.34825134">
    <tag k="addr:city" v="Grand Isle"/>
    <tag k="addr:housenumber" v="9"/>
    <tag k="addr:street" v="West Shore Road"/>
    <tag k="addr:state" v="VT"/>
    <tag k="ref:vcgi:esiteid" v="114259"/>
  </node>
  <node id="-938" visible="true" lat="44.67791748" lon="-73.34833526">
    <tag k="addr:city" v="Grand Isle"/>
    <tag k="addr:housenumber" v="7"/>
    <tag k="addr:street" v="West Shore Road"/>
    <tag k="addr:state" v="VT"/>
    <tag k="ref:vcgi:esiteid" v="114260"/>
  </node>
  <node id="-939" visible="true" lat="44.67763589" lon="-73.34854639">
    <tag k="addr:city" v="Grand Isle"/>
    <tag k="addr:housenumber" v="5"/>
    <tag k="addr:street" v="West Shore Road"/>
    <tag k="addr:state" v="VT"/>
    <tag k="ref:vcgi:esiteid" v="114261"/>
  </node>
  <node id="-970" visible="true" lat="44.70122496" lon="-73.3423751">
    <tag k="addr:city" v="Grand Isle"/>
    <tag k="addr:housenumber" v="127"/>
    <tag k="addr:street" v="Allen Road"/>
    <tag k="addr:state" v="VT"/>
    <tag k="ref:vcgi:esiteid" v="114293"/>
  </node>
  <node id="-971" visible="true" lat="44.70126305" lon="-73.3418301">
    <tag k="addr:city" v="Grand Isle"/>
    <tag k="addr:housenumber" v="123"/>
    <tag k="addr:street" v="Allen Road"/>
    <tag k="addr:state" v="VT"/>
    <tag k="ref:vcgi:esiteid" v="114294"/>
  </node>
  <node id="-972" visible="true" lat="44.70119731" lon="-73.34121076">
    <tag k="addr:city" v="Grand Isle"/>
    <tag k="addr:housenumber" v="121"/>
    <tag k="addr:street" v="Allen Road"/>
    <tag k="addr:state" v="VT"/>
    <tag k="ref:vcgi:esiteid" v="114295"/>
  </node>
  <node id="-973" visible="true" lat="44.70124053" lon="-73.34069061">
    <tag k="addr:city" v="Grand Isle"/>
    <tag k="addr:housenumber" v="119"/>
    <tag k="addr:street" v="Allen Road"/>
    <tag k="addr:state" v="VT"/>
    <tag k="ref:vcgi:esiteid" v="114296"/>
  </node>
  <node id="-974" visible="true" lat="44.70063171" lon="-73.33958853">
    <tag k="addr:city" v="Grand Isle"/>
    <tag k="addr:housenumber" v="115"/>
    <tag k="addr:street" v="Allen Road"/>
    <tag k="addr:state" v="VT"/>
    <tag k="ref:vcgi:esiteid" v="114297"/>
  </node>
  <node id="-975" visible="true" lat="44.6923805" lon="-73.35058465">
    <tag k="addr:city" v="Grand Isle"/>
    <tag k="addr:housenumber" v="71"/>
    <tag k="addr:street" v="West Shore Road"/>
    <tag k="addr:state" v="VT"/>
    <tag k="ref:vcgi:esiteid" v="114298"/>
  </node>
  <node id="-976" visible="true" lat="44.69157957" lon="-73.35004903">
    <tag k="addr:city" v="Grand Isle"/>
    <tag k="addr:housenumber" v="67"/>
    <tag k="addr:street" v="West Shore Road"/>
    <tag k="addr:state" v="VT"/>
    <tag k="ref:vcgi:esiteid" v="114299"/>
  </node>
  <node id="-977" visible="true" lat="44.68653635" lon="-73.34914959">
    <tag k="addr:city" v="Grand Isle"/>
    <tag k="addr:housenumber" v="41"/>
    <tag k="addr:street" v="West Shore Road"/>
    <tag k="addr:state" v="VT"/>
    <tag k="ref:vcgi:esiteid" v="114300"/>
  </node>
  <node id="-978" visible="true" lat="44.68610721" lon="-73.34885502">
    <tag k="addr:city" v="Grand Isle"/>
    <tag k="addr:housenumber" v="39"/>
    <tag k="addr:street" v="West Shore Road"/>
    <tag k="addr:state" v="VT"/>
    <tag k="ref:vcgi:esiteid" v="114301"/>
  </node>
  <node id="-1051" visible="true" lat="44.69760131" lon="-73.34900665">
    <tag k="addr:city" v="Grand Isle"/>
    <tag k="addr:housenumber" v="97"/>
    <tag k="addr:street" v="West Shore Road"/>
    <tag k="addr:state" v="VT"/>
    <tag k="ref:vcgi:esiteid" v="114403"/>
  </node>
  <node id="-1081" visible="true" lat="44.697251" lon="-73.35140994">
    <tag k="addr:city" v="Grand Isle"/>
    <tag k="addr:housenumber" v="3"/>
    <tag k="addr:street" v="Dreamland Court"/>
    <tag k="addr:state" v="VT"/>
    <tag k="ref:vcgi:esiteid" v="114446"/>
  </node>
  <node id="-1082" visible="true" lat="44.6976485" lon="-73.35208474">
    <tag k="addr:city" v="Grand Isle"/>
    <tag k="addr:housenumber" v="4"/>
    <tag k="addr:street" v="Dreamland Court"/>
    <tag k="addr:state" v="VT"/>
    <tag k="ref:vcgi:esiteid" v="114447"/>
  </node>
  <node id="-1088" visible="true" lat="44.6869768" lon="-73.29220837">
    <tag k="addr:city" v="Grand Isle"/>
    <tag k="addr:housenumber" v="102"/>
    <tag k="addr:street" v="State Park Road"/>
    <tag k="addr:state" v="VT"/>
    <tag k="ref:vcgi:esiteid" v="114458"/>
  </node>
  <node id="-1089" visible="true" lat="44.70232705" lon="-73.34637847">
    <tag k="addr:city" v="Grand Isle"/>
    <tag k="addr:housenumber" v="114"/>
    <tag k="addr:street" v="West Shore Road"/>
    <tag k="addr:state" v="VT"/>
    <tag k="ref:vcgi:esiteid" v="114462"/>
  </node>
  <node id="-1100" visible="true" lat="44.69073881" lon="-73.34692484">
    <tag k="addr:city" v="Grand Isle"/>
    <tag k="addr:housenumber" v="56"/>
    <tag k="addr:street" v="West Shore Road"/>
    <tag k="addr:state" v="VT"/>
    <tag k="ref:vcgi:esiteid" v="114475"/>
  </node>
  <node id="-1109" visible="true" lat="44.69861102" lon="-73.32957166">
    <tag k="addr:city" v="Grand Isle"/>
    <tag k="addr:housenumber" v="110"/>
    <tag k="addr:street" v="Pearl Street"/>
    <tag k="addr:state" v="VT"/>
    <tag k="ref:vcgi:esiteid" v="114484"/>
  </node>
  <node id="-1122" visible="true" lat="44.69181359" lon="-73.34571729">
    <tag k="addr:city" v="Grand Isle"/>
    <tag k="addr:housenumber" v="64"/>
    <tag k="addr:street" v="West Shore Road"/>
    <tag k="addr:state" v="VT"/>
    <tag k="ref:vcgi:esiteid" v="114497"/>
  </node>
  <node id="-1158" visible="true" lat="44.70208173" lon="-73.34195316">
    <tag k="addr:city" v="Grand Isle"/>
    <tag k="addr:housenumber" v="124"/>
    <tag k="addr:street" v="Allen Road"/>
    <tag k="addr:state" v="VT"/>
    <tag k="ref:vcgi:esiteid" v="114537"/>
  </node>
  <node id="-1159" visible="true" lat="44.70128892" lon="-73.33505507">
    <tag k="addr:city" v="Grand Isle"/>
    <tag k="addr:housenumber" v="108"/>
    <tag k="addr:street" v="Allen Road"/>
    <tag k="addr:state" v="VT"/>
    <tag k="ref:vcgi:esiteid" v="114538"/>
  </node>
  <node id="-1182" visible="true" lat="44.70335801" lon="-73.31563727">
    <tag k="addr:city" v="Grand Isle"/>
    <tag k="addr:housenumber" v="42"/>
    <tag k="addr:street" v="Allen Road"/>
    <tag k="addr:state" v="VT"/>
    <tag k="ref:vcgi:esiteid" v="311970"/>
  </node>
  <node id="-1217" visible="true" lat="44.70402295" lon="-73.30165114">
    <tag k="addr:city" v="Grand Isle"/>
    <tag k="addr:housenumber" v="10"/>
    <tag k="addr:street" v="Island Circle"/>
    <tag k="addr:state" v="VT"/>
    <tag k="ref:vcgi:esiteid" v="337560"/>
  </node>
  <node id="-1241" visible="true" lat="44.69074347" lon="-73.34637353">
    <tag k="addr:city" v="Grand Isle"/>
    <tag k="addr:housenumber" v="60"/>
    <tag k="addr:street" v="West Shore Road"/>
    <tag k="addr:state" v="VT"/>
    <tag k="ref:vcgi:esiteid" v="338286"/>
  </node>
  <node id="-1242" visible="true" lat="44.68323426" lon="-73.3483449">
    <tag k="addr:city" v="Grand Isle"/>
    <tag k="addr:housenumber" v="29A"/>
    <tag k="addr:street" v="West Shore Road"/>
    <tag k="addr:state" v="VT"/>
    <tag k="ref:vcgi:esiteid" v="338287"/>
  </node>
  <node id="-1243" visible="true" lat="44.68358291" lon="-73.34841776">
    <tag k="addr:city" v="Grand Isle"/>
    <tag k="addr:housenumber" v="29"/>
    <tag k="addr:street" v="West Shore Road"/>
    <tag k="addr:state" v="VT"/>
    <tag k="ref:vcgi:esiteid" v="338288"/>
  </node>
  <node id="-1244" visible="true" lat="44.68503014" lon="-73.34813015">
    <tag k="addr:city" v="Grand Isle"/>
    <tag k="addr:housenumber" v="35"/>
    <tag k="addr:street" v="West Shore Road"/>
    <tag k="addr:state" v="VT"/>
    <tag k="ref:vcgi:esiteid" v="338289"/>
  </node>
  <node id="-1276" visible="true" lat="44.70028949" lon="-73.32933014">
    <tag k="addr:city" v="Grand Isle"/>
    <tag k="addr:housenumber" v="118"/>
    <tag k="addr:street" v="Pearl Street"/>
    <tag k="addr:state" v="VT"/>
    <tag k="ref:vcgi:esiteid" v="338415"/>
  </node>
  <node id="-1277" visible="true" lat="44.70014179" lon="-73.32881159">
    <tag k="addr:city" v="Grand Isle"/>
    <tag k="addr:housenumber" v="120"/>
    <tag k="addr:street" v="Pearl Street"/>
    <tag k="addr:state" v="VT"/>
    <tag k="ref:vcgi:esiteid" v="338416"/>
  </node>
  <node id="-1440" visible="true" lat="44.69105763" lon="-73.33380516">
    <tag k="addr:city" v="Grand Isle"/>
    <tag k="addr:housenumber" v="46"/>
    <tag k="addr:street" v="Bell Hill Road"/>
    <tag k="addr:state" v="VT"/>
    <tag k="ref:vcgi:esiteid" v="756320"/>
  </node>
  <node id="-1539" visible="true" lat="44.69767732" lon="-73.33660568">
    <tag k="addr:city" v="Grand Isle"/>
    <tag k="addr:housenumber" v="109"/>
    <tag k="addr:street" v="Allen Road"/>
    <tag k="addr:state" v="VT"/>
    <tag k="ref:vcgi:esiteid" v="1051825"/>
  </node>
</osm>
