<?xml version="1.0" encoding="UTF-8"?>
<osm version="0.6" generator="JOSM">
  <node id="-102" visible="true" lat="44.59373474" lon="-71.75314331">
    <tag k="addr:city" v="Granby"/>
    <tag k="addr:housenumber" v="1841"/>
    <tag k="addr:street" v="Porrell Road"/>
    <tag k="addr:state" v="VT"/>
    <tag k="ref:vcgi:esiteid" v="113311"/>
  </node>
  <node id="-106" visible="true" lat="44.58345791" lon="-71.7528837">
    <tag k="addr:city" v="Granby"/>
    <tag k="addr:housenumber" v="1446"/>
    <tag k="addr:street" v="Porrell Road"/>
    <tag k="addr:state" v="VT"/>
    <tag k="ref:vcgi:esiteid" v="113315"/>
  </node>
  <node id="-108" visible="true" lat="44.58125506" lon="-71.75788117">
    <tag k="addr:city" v="Granby"/>
    <tag k="addr:housenumber" v="1034"/>
    <tag k="addr:street" v="Porrell Road"/>
    <tag k="addr:state" v="VT"/>
    <tag k="ref:vcgi:esiteid" v="113317"/>
  </node>
  <node id="-109" visible="true" lat="44.58163873" lon="-71.78121572">
    <tag k="addr:city" v="Granby"/>
    <tag k="addr:housenumber" v="171"/>
    <tag k="addr:street" v="Lund Lane"/>
    <tag k="addr:state" v="VT"/>
    <tag k="ref:vcgi:esiteid" v="113318"/>
  </node>
  <node id="-110" visible="true" lat="44.58111926" lon="-71.78288742">
    <tag k="addr:city" v="Granby"/>
    <tag k="addr:housenumber" v="79"/>
    <tag k="addr:street" v="Lund Lane"/>
    <tag k="addr:state" v="VT"/>
    <tag k="ref:vcgi:esiteid" v="113319"/>
  </node>
  <node id="-111" visible="true" lat="44.57971811" lon="-71.78210613">
    <tag k="addr:city" v="Granby"/>
    <tag k="addr:housenumber" v="4"/>
    <tag k="addr:street" v="Lund Lane"/>
    <tag k="addr:state" v="VT"/>
    <tag k="ref:vcgi:esiteid" v="113320"/>
  </node>
  <node id="-112" visible="true" lat="44.57927703" lon="-71.76221465">
    <tag k="addr:city" v="Granby"/>
    <tag k="addr:housenumber" v="784"/>
    <tag k="addr:street" v="Porrell Road"/>
    <tag k="addr:state" v="VT"/>
    <tag k="ref:vcgi:esiteid" v="113321"/>
  </node>
  <node id="-113" visible="true" lat="44.57886583" lon="-71.76769699">
    <tag k="addr:city" v="Granby"/>
    <tag k="addr:housenumber" v="131"/>
    <tag k="addr:street" v="Buzzell Gap"/>
    <tag k="addr:state" v="VT"/>
    <tag k="ref:vcgi:esiteid" v="113322"/>
  </node>
  <node id="-115" visible="true" lat="44.57844924" lon="-71.76629638">
    <tag k="addr:city" v="Granby"/>
    <tag k="addr:housenumber" v="132"/>
    <tag k="addr:street" v="Buzzell Gap"/>
    <tag k="addr:state" v="VT"/>
    <tag k="ref:vcgi:esiteid" v="113324"/>
  </node>
  <node id="-116" visible="true" lat="44.57806604" lon="-71.7202189">
    <tag k="addr:city" v="Granby"/>
    <tag k="addr:housenumber" v="6811"/>
    <tag k="addr:street" v="Granby Road"/>
    <tag k="addr:state" v="VT"/>
    <tag k="ref:vcgi:esiteid" v="113325"/>
  </node>
  <node id="-117" visible="true" lat="44.57832336" lon="-71.76357269">
    <tag k="addr:city" v="Granby"/>
    <tag k="addr:housenumber" v="686"/>
    <tag k="addr:street" v="Porrell Road"/>
    <tag k="addr:state" v="VT"/>
    <tag k="ref:vcgi:esiteid" v="113326"/>
  </node>
  <node id="-118" visible="true" lat="44.57728038" lon="-71.71088729">
    <tag k="addr:city" v="Granby"/>
    <tag k="addr:housenumber" v="6328"/>
    <tag k="addr:street" v="Granby Road"/>
    <tag k="addr:state" v="VT"/>
    <tag k="ref:vcgi:esiteid" v="113327"/>
  </node>
  <node id="-122" visible="true" lat="44.57643051" lon="-71.71022851">
    <tag k="addr:city" v="Granby"/>
    <tag k="addr:housenumber" v="6294"/>
    <tag k="addr:street" v="Granby Road"/>
    <tag k="addr:state" v="VT"/>
    <tag k="ref:vcgi:esiteid" v="113331"/>
  </node>
  <node id="-124" visible="true" lat="44.57613754" lon="-71.71092224">
    <tag k="addr:city" v="Granby"/>
    <tag k="addr:housenumber" v="6313"/>
    <tag k="addr:street" v="Granby Road"/>
    <tag k="addr:state" v="VT"/>
    <tag k="ref:vcgi:esiteid" v="113333"/>
  </node>
  <node id="-126" visible="true" lat="44.57525253" lon="-71.76465606">
    <tag k="addr:city" v="Granby"/>
    <tag k="addr:housenumber" v="467"/>
    <tag k="addr:street" v="Porrell Road"/>
    <tag k="addr:state" v="VT"/>
    <tag k="ref:vcgi:esiteid" v="113335"/>
  </node>
  <node id="-127" visible="true" lat="44.5743103" lon="-71.76187133">
    <tag k="addr:city" v="Granby"/>
    <tag k="addr:housenumber" v="354"/>
    <tag k="addr:street" v="Porrell Road"/>
    <tag k="addr:state" v="VT"/>
    <tag k="ref:vcgi:esiteid" v="113336"/>
  </node>
  <node id="-128" visible="true" lat="44.57332518" lon="-71.76201594">
    <tag k="addr:city" v="Granby"/>
    <tag k="addr:housenumber" v="273"/>
    <tag k="addr:street" v="Porrell Road"/>
    <tag k="addr:state" v="VT"/>
    <tag k="ref:vcgi:esiteid" v="113337"/>
  </node>
  <node id="-129" visible="true" lat="44.57251357" lon="-71.70759582">
    <tag k="addr:city" v="Granby"/>
    <tag k="addr:housenumber" v="6001"/>
    <tag k="addr:street" v="Granby Road"/>
    <tag k="addr:state" v="VT"/>
    <tag k="ref:vcgi:esiteid" v="113338"/>
  </node>
  <node id="-132" visible="true" lat="44.57210159" lon="-71.76080322">
    <tag k="addr:city" v="Granby"/>
    <tag k="addr:housenumber" v="194"/>
    <tag k="addr:street" v="Porrell Road"/>
    <tag k="addr:state" v="VT"/>
    <tag k="ref:vcgi:esiteid" v="113341"/>
  </node>
  <node id="-133" visible="true" lat="44.57145996" lon="-71.75927664">
    <tag k="addr:city" v="Granby"/>
    <tag k="addr:housenumber" v="100"/>
    <tag k="addr:street" v="Porrell Road"/>
    <tag k="addr:state" v="VT"/>
    <tag k="ref:vcgi:esiteid" v="113343"/>
  </node>
  <node id="-134" visible="true" lat="44.57152023" lon="-71.75767999">
    <tag k="addr:city" v="Granby"/>
    <tag k="addr:housenumber" v="8912"/>
    <tag k="addr:street" v="Granby Road"/>
    <tag k="addr:state" v="VT"/>
    <tag k="ref:vcgi:esiteid" v="113344"/>
  </node>
  <node id="-135" visible="true" lat="44.57105255" lon="-71.70231628">
    <tag k="addr:city" v="Granby"/>
    <tag k="addr:housenumber" v="59"/>
    <tag k="addr:street" v="Cow Mountain Pond Forest"/>
    <tag k="addr:state" v="VT"/>
    <tag k="ref:vcgi:esiteid" v="113345"/>
  </node>
  <node id="-136" visible="true" lat="44.5716404" lon="-71.7541205">
    <tag k="addr:city" v="Granby"/>
    <tag k="addr:housenumber" v="8792"/>
    <tag k="addr:street" v="Granby Road"/>
    <tag k="addr:state" v="VT"/>
    <tag k="ref:vcgi:esiteid" v="113346"/>
  </node>
  <node id="-138" visible="true" lat="44.57090235" lon="-71.75590345">
    <tag k="addr:city" v="Granby"/>
    <tag k="addr:housenumber" v="8841"/>
    <tag k="addr:street" v="Granby Road"/>
    <tag k="addr:state" v="VT"/>
    <tag k="ref:vcgi:esiteid" v="113348"/>
  </node>
  <node id="-139" visible="true" lat="44.57091903" lon="-71.7586441">
    <tag k="addr:city" v="Granby"/>
    <tag k="addr:housenumber" v="56"/>
    <tag k="addr:street" v="Porrell Road"/>
    <tag k="addr:state" v="VT"/>
    <tag k="ref:vcgi:esiteid" v="113349"/>
  </node>
  <node id="-142" visible="true" lat="44.57019042" lon="-71.75463867">
    <tag k="addr:city" v="Granby"/>
    <tag k="addr:housenumber" v="8747"/>
    <tag k="addr:street" v="Granby Road"/>
    <tag k="addr:state" v="VT"/>
    <tag k="ref:vcgi:esiteid" v="113352"/>
  </node>
  <node id="-143" visible="true" lat="44.57012807" lon="-71.76038893">
    <tag k="addr:city" v="Granby"/>
    <tag k="addr:housenumber" v="75"/>
    <tag k="addr:street" v="Porrell Road"/>
    <tag k="addr:state" v="VT"/>
    <tag k="ref:vcgi:esiteid" v="113353"/>
  </node>
  <node id="-149" visible="true" lat="44.56932076" lon="-71.75111706">
    <tag k="addr:city" v="Granby"/>
    <tag k="addr:housenumber" v="8534"/>
    <tag k="addr:street" v="Granby Road"/>
    <tag k="addr:state" v="VT"/>
    <tag k="ref:vcgi:esiteid" v="113360"/>
  </node>
  <node id="-150" visible="true" lat="44.56890092" lon="-71.74979695">
    <tag k="addr:city" v="Granby"/>
    <tag k="addr:housenumber" v="4"/>
    <tag k="addr:street" v="Felker Road"/>
    <tag k="addr:state" v="VT"/>
    <tag k="ref:vcgi:esiteid" v="113361"/>
  </node>
  <node id="-153" visible="true" lat="44.56811533" lon="-71.75106173">
    <tag k="addr:city" v="Granby"/>
    <tag k="addr:housenumber" v="72"/>
    <tag k="addr:street" v="Shores Hill"/>
    <tag k="addr:state" v="VT"/>
    <tag k="ref:vcgi:esiteid" v="113364"/>
  </node>
  <node id="-154" visible="true" lat="44.56740269" lon="-71.74936261">
    <tag k="addr:city" v="Granby"/>
    <tag k="addr:housenumber" v="157"/>
    <tag k="addr:street" v="Shores Hill"/>
    <tag k="addr:state" v="VT"/>
    <tag k="ref:vcgi:esiteid" v="113365"/>
  </node>
  <node id="-155" visible="true" lat="44.56586837" lon="-71.73981475">
    <tag k="addr:city" v="Granby"/>
    <tag k="addr:housenumber" v="576"/>
    <tag k="addr:street" v="Felker Road"/>
    <tag k="addr:state" v="VT"/>
    <tag k="ref:vcgi:esiteid" v="113366"/>
  </node>
  <node id="-156" visible="true" lat="44.5649732" lon="-71.74823317">
    <tag k="addr:city" v="Granby"/>
    <tag k="addr:housenumber" v="324"/>
    <tag k="addr:street" v="Shores Hill"/>
    <tag k="addr:state" v="VT"/>
    <tag k="ref:vcgi:esiteid" v="113367"/>
  </node>
  <node id="-157" visible="true" lat="44.56309615" lon="-71.74652192">
    <tag k="addr:city" v="Granby"/>
    <tag k="addr:housenumber" v="472"/>
    <tag k="addr:street" v="Shores Hill"/>
    <tag k="addr:state" v="VT"/>
    <tag k="ref:vcgi:esiteid" v="113368"/>
  </node>
  <node id="-158" visible="true" lat="44.56132064" lon="-71.74336731">
    <tag k="addr:city" v="Granby"/>
    <tag k="addr:housenumber" v="675"/>
    <tag k="addr:street" v="Shores Hill"/>
    <tag k="addr:state" v="VT"/>
    <tag k="ref:vcgi:esiteid" v="113369"/>
  </node>
  <node id="-159" visible="true" lat="44.56076431" lon="-71.74266052">
    <tag k="addr:city" v="Granby"/>
    <tag k="addr:housenumber" v="719"/>
    <tag k="addr:street" v="Shores Hill"/>
    <tag k="addr:state" v="VT"/>
    <tag k="ref:vcgi:esiteid" v="113370"/>
  </node>
  <node id="-160" visible="true" lat="44.56027666" lon="-71.73821956">
    <tag k="addr:city" v="Granby"/>
    <tag k="addr:housenumber" v="1033"/>
    <tag k="addr:street" v="Shores Hill"/>
    <tag k="addr:state" v="VT"/>
    <tag k="ref:vcgi:esiteid" v="113371"/>
  </node>
  <node id="-161" visible="true" lat="44.55998946" lon="-71.7345014">
    <tag k="addr:city" v="Granby"/>
    <tag k="addr:housenumber" v="1171"/>
    <tag k="addr:street" v="Shores Hill"/>
    <tag k="addr:state" v="VT"/>
    <tag k="ref:vcgi:esiteid" v="113372"/>
  </node>
  <node id="-162" visible="true" lat="44.55969304" lon="-71.73657987">
    <tag k="addr:city" v="Granby"/>
    <tag k="addr:housenumber" v="1087"/>
    <tag k="addr:street" v="Shores Hill"/>
    <tag k="addr:state" v="VT"/>
    <tag k="ref:vcgi:esiteid" v="113373"/>
  </node>
  <node id="-163" visible="true" lat="44.55930797" lon="-71.7389151">
    <tag k="addr:city" v="Granby"/>
    <tag k="addr:housenumber" v="973"/>
    <tag k="addr:street" v="Shores Hill"/>
    <tag k="addr:state" v="VT"/>
    <tag k="ref:vcgi:esiteid" v="113374"/>
  </node>
  <node id="-164" visible="true" lat="44.55949048" lon="-71.74149478">
    <tag k="addr:city" v="Granby"/>
    <tag k="addr:housenumber" v="832"/>
    <tag k="addr:street" v="Shores Hill"/>
    <tag k="addr:state" v="VT"/>
    <tag k="ref:vcgi:esiteid" v="113375"/>
  </node>
  <node id="-166" visible="true" lat="44.56792744" lon="-71.74998919">
    <tag k="addr:city" v="Granby"/>
    <tag k="addr:housenumber" v="155"/>
    <tag k="addr:street" v="Shores Hill"/>
    <tag k="addr:state" v="VT"/>
    <tag k="ref:vcgi:esiteid" v="113377"/>
  </node>
  <node id="-167" visible="true" lat="44.56508707" lon="-71.74606703">
    <tag k="addr:city" v="Granby"/>
    <tag k="addr:housenumber" v="367"/>
    <tag k="addr:street" v="Shores Hill"/>
    <tag k="addr:state" v="VT"/>
    <tag k="ref:vcgi:esiteid" v="113378"/>
  </node>
  <node id="-168" visible="true" lat="44.57016641" lon="-71.75489929">
    <tag k="addr:city" v="Granby"/>
    <tag k="addr:housenumber" v="8749"/>
    <tag k="addr:street" v="Granby Road"/>
    <tag k="addr:state" v="VT"/>
    <tag k="ref:vcgi:esiteid" v="113379"/>
  </node>
  <node id="-170" visible="true" lat="44.57694545" lon="-71.71742289">
    <tag k="addr:city" v="Granby"/>
    <tag k="addr:housenumber" v="6669"/>
    <tag k="addr:street" v="Granby Road"/>
    <tag k="addr:state" v="VT"/>
    <tag k="ref:vcgi:esiteid" v="113381"/>
  </node>
  <node id="-171" visible="true" lat="44.57667334" lon="-71.71412962">
    <tag k="addr:city" v="Granby"/>
    <tag k="addr:housenumber" v="6366"/>
    <tag k="addr:street" v="Granby Road"/>
    <tag k="addr:state" v="VT"/>
    <tag k="ref:vcgi:esiteid" v="113382"/>
  </node>
  <node id="-172" visible="true" lat="44.57743797" lon="-71.70856226">
    <tag k="addr:city" v="Granby"/>
    <tag k="addr:housenumber" v="6270"/>
    <tag k="addr:street" v="Granby Road"/>
    <tag k="addr:state" v="VT"/>
    <tag k="ref:vcgi:esiteid" v="113383"/>
  </node>
  <node id="-173" visible="true" lat="44.57481157" lon="-71.70891932">
    <tag k="addr:city" v="Granby"/>
    <tag k="addr:housenumber" v="6170"/>
    <tag k="addr:street" v="Granby Road"/>
    <tag k="addr:state" v="VT"/>
    <tag k="ref:vcgi:esiteid" v="113384"/>
  </node>
  <node id="-174" visible="true" lat="44.57373204" lon="-71.70823408">
    <tag k="addr:city" v="Granby"/>
    <tag k="addr:housenumber" v="6082"/>
    <tag k="addr:street" v="Granby Road"/>
    <tag k="addr:state" v="VT"/>
    <tag k="ref:vcgi:esiteid" v="113385"/>
  </node>
  <node id="-175" visible="true" lat="44.57477691" lon="-71.69110247">
    <tag k="addr:city" v="Granby"/>
    <tag k="addr:housenumber" v="5191"/>
    <tag k="addr:street" v="Granby Road"/>
    <tag k="addr:state" v="VT"/>
    <tag k="ref:vcgi:esiteid" v="113386"/>
  </node>
  <node id="-176" visible="true" lat="44.57623706" lon="-71.71674746">
    <tag k="addr:city" v="Granby"/>
    <tag k="addr:housenumber" v="6451"/>
    <tag k="addr:street" v="Granby Road"/>
    <tag k="addr:state" v="VT"/>
    <tag k="ref:vcgi:esiteid" v="113387"/>
  </node>
  <node id="-178" visible="true" lat="44.5852153" lon="-71.75625247">
    <tag k="addr:city" v="Granby"/>
    <tag k="addr:housenumber" v="1279"/>
    <tag k="addr:street" v="Porrell Road"/>
    <tag k="addr:state" v="VT"/>
    <tag k="ref:vcgi:esiteid" v="113389"/>
  </node>
  <node id="-180" visible="true" lat="44.57117663" lon="-71.75747406">
    <tag k="addr:city" v="Granby"/>
    <tag k="addr:housenumber" v="8910"/>
    <tag k="addr:street" v="Granby Road"/>
    <tag k="addr:state" v="VT"/>
    <tag k="ref:vcgi:esiteid" v="113391"/>
  </node>
  <node id="-181" visible="true" lat="44.5835219" lon="-71.75373873">
    <tag k="addr:city" v="Granby"/>
    <tag k="addr:housenumber" v="1318"/>
    <tag k="addr:street" v="Porrell Road"/>
    <tag k="addr:state" v="VT"/>
    <tag k="ref:vcgi:esiteid" v="113392"/>
  </node>
  <node id="-182" visible="true" lat="44.57695153" lon="-71.71793492">
    <tag k="addr:city" v="Granby"/>
    <tag k="addr:housenumber" v="6671"/>
    <tag k="addr:street" v="Granby Road"/>
    <tag k="addr:state" v="VT"/>
    <tag k="ref:vcgi:esiteid" v="313348"/>
  </node>
  <node id="-183" visible="true" lat="44.58867754" lon="-71.75444129">
    <tag k="addr:city" v="Granby"/>
    <tag k="addr:housenumber" v="1591"/>
    <tag k="addr:street" v="Porrell Road"/>
    <tag k="addr:state" v="VT"/>
    <tag k="ref:vcgi:esiteid" v="313349"/>
  </node>
  <node id="-184" visible="true" lat="44.58335061" lon="-71.76101311">
    <tag k="addr:city" v="Granby"/>
    <tag k="addr:housenumber" v="1071"/>
    <tag k="addr:street" v="Porrell Road"/>
    <tag k="addr:state" v="VT"/>
    <tag k="ref:vcgi:esiteid" v="313350"/>
  </node>
  <node id="-193" visible="true" lat="44.639908" lon="-71.69768868">
    <tag k="addr:city" v="Granby"/>
    <tag k="addr:housenumber" v="291"/>
    <tag k="addr:street" v="Depot Camp Road"/>
    <tag k="addr:state" v="VT"/>
    <tag k="ref:vcgi:esiteid" v="338325"/>
  </node>
  <node id="-194" visible="true" lat="44.63883759" lon="-71.69722584">
    <tag k="addr:city" v="Granby"/>
    <tag k="addr:housenumber" v="287"/>
    <tag k="addr:street" v="Depot Camp Road"/>
    <tag k="addr:state" v="VT"/>
    <tag k="ref:vcgi:esiteid" v="338326"/>
  </node>
  <node id="-198" visible="true" lat="44.61074433" lon="-71.72195309">
    <tag k="addr:city" v="Granby"/>
    <tag k="addr:housenumber" v="1007"/>
    <tag k="addr:street" v="Tolman Brook Road"/>
    <tag k="addr:state" v="VT"/>
    <tag k="ref:vcgi:esiteid" v="338330"/>
  </node>
  <node id="-199" visible="true" lat="44.64048401" lon="-71.75016277">
    <tag k="addr:city" v="Granby"/>
    <tag k="addr:housenumber" v="828"/>
    <tag k="addr:street" v="Olsen Road"/>
    <tag k="addr:state" v="VT"/>
    <tag k="ref:vcgi:esiteid" v="338331"/>
  </node>
  <node id="-202" visible="true" lat="44.60711507" lon="-71.7464588">
    <tag k="addr:city" v="Granby"/>
    <tag k="addr:housenumber" v="2917"/>
    <tag k="addr:street" v="Porrell Road"/>
    <tag k="addr:state" v="VT"/>
    <tag k="ref:vcgi:esiteid" v="338335"/>
  </node>
  <node id="-203" visible="true" lat="44.60932216" lon="-71.74550971">
    <tag k="addr:city" v="Granby"/>
    <tag k="addr:housenumber" v="2921"/>
    <tag k="addr:street" v="Porrell Road"/>
    <tag k="addr:state" v="VT"/>
    <tag k="ref:vcgi:esiteid" v="338336"/>
  </node>
  <node id="-205" visible="true" lat="44.55812494" lon="-71.73830679">
    <tag k="addr:city" v="Granby"/>
    <tag k="addr:housenumber" v="31"/>
    <tag k="addr:street" v="Mount Tug Road"/>
    <tag k="addr:state" v="VT"/>
    <tag k="ref:vcgi:esiteid" v="338339"/>
  </node>
  <node id="-206" visible="true" lat="44.57888797" lon="-71.72036601">
    <tag k="addr:city" v="Granby"/>
    <tag k="addr:housenumber" v="6868"/>
    <tag k="addr:street" v="Granby Road"/>
    <tag k="addr:state" v="VT"/>
    <tag k="ref:vcgi:esiteid" v="338342"/>
  </node>
  <node id="-210" visible="true" lat="44.57718782" lon="-71.71154991">
    <tag k="addr:city" v="Granby"/>
    <tag k="addr:housenumber" v="6340"/>
    <tag k="addr:street" v="Granby Road"/>
    <tag k="addr:state" v="VT"/>
    <tag k="ref:vcgi:esiteid" v="338346"/>
  </node>
</osm>
