<?xml version="1.0" encoding="UTF-8"?>
<osm version="0.6" generator="JOSM">
  <node id="-100" visible="true" lat="44.57900404" lon="-71.76369676">
    <tag k="addr:city" v="Granby"/>
    <tag k="addr:housenumber" v="711"/>
    <tag k="addr:street" v="Porrell Road"/>
    <tag k="addr:state" v="VT"/>
    <tag k="ref:vcgi:esiteid" v="2761"/>
  </node>
  <node id="-101" visible="true" lat="44.61671553" lon="-71.78472894">
    <tag k="addr:city" v="Granby"/>
    <tag k="addr:housenumber" v="1681"/>
    <tag k="addr:street" v="Line Brook Road"/>
    <tag k="addr:state" v="VT"/>
    <tag k="ref:vcgi:esiteid" v="90762"/>
  </node>
  <node id="-103" visible="true" lat="44.5866127" lon="-71.78773498">
    <tag k="addr:city" v="Granby"/>
    <tag k="addr:housenumber" v="451"/>
    <tag k="addr:street" v="Moccasin Mill"/>
    <tag k="addr:state" v="VT"/>
    <tag k="ref:vcgi:esiteid" v="113312"/>
  </node>
  <node id="-104" visible="true" lat="44.58512878" lon="-71.75108337">
    <tag k="addr:city" v="Granby"/>
    <tag k="addr:housenumber" v="1594"/>
    <tag k="addr:street" v="Porrell Road"/>
    <tag k="addr:state" v="VT"/>
    <tag k="ref:vcgi:esiteid" v="113313"/>
  </node>
  <node id="-105" visible="true" lat="44.58357261" lon="-71.77874483">
    <tag k="addr:city" v="Granby"/>
    <tag k="addr:housenumber" v="367"/>
    <tag k="addr:street" v="Lund Lane"/>
    <tag k="addr:state" v="VT"/>
    <tag k="ref:vcgi:esiteid" v="113314"/>
  </node>
  <node id="-107" visible="true" lat="44.58313369" lon="-71.77643585">
    <tag k="addr:city" v="Granby"/>
    <tag k="addr:housenumber" v="382"/>
    <tag k="addr:street" v="Lund Lane"/>
    <tag k="addr:state" v="VT"/>
    <tag k="ref:vcgi:esiteid" v="113316"/>
  </node>
  <node id="-114" visible="true" lat="44.57865142" lon="-71.73640441">
    <tag k="addr:city" v="Granby"/>
    <tag k="addr:housenumber" v="317"/>
    <tag k="addr:street" v="Mud Pond Pass"/>
    <tag k="addr:state" v="VT"/>
    <tag k="ref:vcgi:esiteid" v="113323"/>
  </node>
  <node id="-119" visible="true" lat="44.57772445" lon="-71.72647857">
    <tag k="addr:city" v="Granby"/>
    <tag k="addr:housenumber" v="7138"/>
    <tag k="addr:street" v="Granby Road"/>
    <tag k="addr:state" v="VT"/>
    <tag k="ref:vcgi:esiteid" v="113328"/>
  </node>
  <node id="-120" visible="true" lat="44.57753372" lon="-71.72707367">
    <tag k="addr:city" v="Granby"/>
    <tag k="addr:housenumber" v="7172"/>
    <tag k="addr:street" v="Granby Road"/>
    <tag k="addr:state" v="VT"/>
    <tag k="ref:vcgi:esiteid" v="113329"/>
  </node>
  <node id="-121" visible="true" lat="44.5774765" lon="-71.76589202">
    <tag k="addr:city" v="Granby"/>
    <tag k="addr:housenumber" v="73"/>
    <tag k="addr:street" v="Buzzell Gap"/>
    <tag k="addr:state" v="VT"/>
    <tag k="ref:vcgi:esiteid" v="113330"/>
  </node>
  <node id="-123" visible="true" lat="44.57639694" lon="-71.73084259">
    <tag k="addr:city" v="Granby"/>
    <tag k="addr:housenumber" v="7362"/>
    <tag k="addr:street" v="Granby Road"/>
    <tag k="addr:state" v="VT"/>
    <tag k="ref:vcgi:esiteid" v="113332"/>
  </node>
  <node id="-125" visible="true" lat="44.57541275" lon="-71.73196411">
    <tag k="addr:city" v="Granby"/>
    <tag k="addr:housenumber" v="7460"/>
    <tag k="addr:street" v="Granby Road"/>
    <tag k="addr:state" v="VT"/>
    <tag k="ref:vcgi:esiteid" v="113334"/>
  </node>
  <node id="-130" visible="true" lat="44.57255935" lon="-71.72724151">
    <tag k="addr:city" v="Granby"/>
    <tag k="addr:housenumber" v="323"/>
    <tag k="addr:street" v="Austin Place"/>
    <tag k="addr:state" v="VT"/>
    <tag k="ref:vcgi:esiteid" v="113339"/>
  </node>
  <node id="-131" visible="true" lat="44.57231903" lon="-71.75672912">
    <tag k="addr:city" v="Granby"/>
    <tag k="addr:housenumber" v="79"/>
    <tag k="addr:street" v="Matthews Knoll"/>
    <tag k="addr:state" v="VT"/>
    <tag k="ref:vcgi:esiteid" v="113340"/>
  </node>
  <node id="-137" visible="true" lat="44.57132217" lon="-71.75685608">
    <tag k="addr:city" v="Granby"/>
    <tag k="addr:housenumber" v="8892"/>
    <tag k="addr:street" v="Granby Road"/>
    <tag k="addr:state" v="VT"/>
    <tag k="ref:vcgi:esiteid" v="113347"/>
  </node>
  <node id="-140" visible="true" lat="44.57063293" lon="-71.7579956">
    <tag k="addr:city" v="Granby"/>
    <tag k="addr:housenumber" v="8960"/>
    <tag k="addr:street" v="Granby Road"/>
    <tag k="addr:state" v="VT"/>
    <tag k="ref:vcgi:esiteid" v="113350"/>
  </node>
  <node id="-141" visible="true" lat="44.57035064" lon="-71.7574768">
    <tag k="addr:city" v="Granby"/>
    <tag k="addr:housenumber" v="8955"/>
    <tag k="addr:street" v="Granby Road"/>
    <tag k="addr:state" v="VT"/>
    <tag k="ref:vcgi:esiteid" v="113351"/>
  </node>
  <node id="-144" visible="true" lat="44.57002639" lon="-71.75883483">
    <tag k="addr:city" v="Granby"/>
    <tag k="addr:housenumber" v="9018"/>
    <tag k="addr:street" v="Granby Road"/>
    <tag k="addr:state" v="VT"/>
    <tag k="ref:vcgi:esiteid" v="113354"/>
  </node>
  <node id="-145" visible="true" lat="44.56989524" lon="-71.75779584">
    <tag k="addr:city" v="Granby"/>
    <tag k="addr:housenumber" v="8987"/>
    <tag k="addr:street" v="Granby Road"/>
    <tag k="addr:state" v="VT"/>
    <tag k="ref:vcgi:esiteid" v="113355"/>
  </node>
  <node id="-146" visible="true" lat="44.56992721" lon="-71.75830078">
    <tag k="addr:city" v="Granby"/>
    <tag k="addr:housenumber" v="9005"/>
    <tag k="addr:street" v="Granby Road"/>
    <tag k="addr:state" v="VT"/>
    <tag k="ref:vcgi:esiteid" v="113356"/>
  </node>
  <node id="-147" visible="true" lat="44.56970977" lon="-71.75854492">
    <tag k="addr:city" v="Granby"/>
    <tag k="addr:housenumber" v="9023"/>
    <tag k="addr:street" v="Granby Road"/>
    <tag k="addr:state" v="VT"/>
    <tag k="ref:vcgi:esiteid" v="113357"/>
  </node>
  <node id="-148" visible="true" lat="44.56955318" lon="-71.75873298">
    <tag k="addr:city" v="Granby"/>
    <tag k="addr:housenumber" v="9033"/>
    <tag k="addr:street" v="Granby Road"/>
    <tag k="addr:state" v="VT"/>
    <tag k="ref:vcgi:esiteid" v="113358"/>
  </node>
  <node id="-151" visible="true" lat="44.56900405" lon="-71.76043701">
    <tag k="addr:city" v="Granby"/>
    <tag k="addr:housenumber" v="9130"/>
    <tag k="addr:street" v="Granby Road"/>
    <tag k="addr:state" v="VT"/>
    <tag k="ref:vcgi:esiteid" v="113362"/>
  </node>
  <node id="-152" visible="true" lat="44.56906714" lon="-71.76010801">
    <tag k="addr:city" v="Granby"/>
    <tag k="addr:housenumber" v="9112"/>
    <tag k="addr:street" v="Granby Road"/>
    <tag k="addr:state" v="VT"/>
    <tag k="ref:vcgi:esiteid" v="113363"/>
  </node>
  <node id="-165" visible="true" lat="44.57454299" lon="-71.70957946">
    <tag k="addr:city" v="Granby"/>
    <tag k="addr:housenumber" v="6173"/>
    <tag k="addr:street" v="Granby Road"/>
    <tag k="addr:state" v="VT"/>
    <tag k="ref:vcgi:esiteid" v="113376"/>
  </node>
  <node id="-169" visible="true" lat="44.57402784" lon="-71.75672179">
    <tag k="addr:city" v="Granby"/>
    <tag k="addr:housenumber" v="95"/>
    <tag k="addr:street" v="Matthews Knoll"/>
    <tag k="addr:state" v="VT"/>
    <tag k="ref:vcgi:esiteid" v="113380"/>
  </node>
  <node id="-177" visible="true" lat="44.5728431" lon="-71.75640903">
    <tag k="addr:city" v="Granby"/>
    <tag k="addr:housenumber" v="90"/>
    <tag k="addr:street" v="Matthews Knoll"/>
    <tag k="addr:state" v="VT"/>
    <tag k="ref:vcgi:esiteid" v="113388"/>
  </node>
  <node id="-179" visible="true" lat="44.57354372" lon="-71.73860194">
    <tag k="addr:city" v="Granby"/>
    <tag k="addr:housenumber" v="7773"/>
    <tag k="addr:street" v="Granby Road"/>
    <tag k="addr:state" v="VT"/>
    <tag k="ref:vcgi:esiteid" v="113390"/>
  </node>
  <node id="-185" visible="true" lat="44.58532404" lon="-71.77815429">
    <tag k="addr:city" v="Granby"/>
    <tag k="addr:housenumber" v="521"/>
    <tag k="addr:street" v="Lund Lane"/>
    <tag k="addr:state" v="VT"/>
    <tag k="ref:vcgi:esiteid" v="326325"/>
  </node>
  <node id="-186" visible="true" lat="44.5908102" lon="-71.77240615">
    <tag k="addr:city" v="Granby"/>
    <tag k="addr:housenumber" v="522"/>
    <tag k="addr:street" v="Lund Lane"/>
    <tag k="addr:state" v="VT"/>
    <tag k="ref:vcgi:esiteid" v="326326"/>
  </node>
  <node id="-187" visible="true" lat="44.62797769" lon="-71.70874446">
    <tag k="addr:city" v="Granby"/>
    <tag k="addr:housenumber" v="267"/>
    <tag k="addr:street" v="Fitch Brook Road"/>
    <tag k="addr:state" v="VT"/>
    <tag k="ref:vcgi:esiteid" v="337593"/>
  </node>
  <node id="-188" visible="true" lat="44.62570449" lon="-71.70882562">
    <tag k="addr:city" v="Granby"/>
    <tag k="addr:housenumber" v="47"/>
    <tag k="addr:street" v="Fitch Brook Road"/>
    <tag k="addr:state" v="VT"/>
    <tag k="ref:vcgi:esiteid" v="337594"/>
  </node>
  <node id="-189" visible="true" lat="44.62398885" lon="-71.71079273">
    <tag k="addr:city" v="Granby"/>
    <tag k="addr:housenumber" v="400"/>
    <tag k="addr:street" v="Stony Brook Road"/>
    <tag k="addr:state" v="VT"/>
    <tag k="ref:vcgi:esiteid" v="337595"/>
  </node>
  <node id="-190" visible="true" lat="44.62768347" lon="-71.70811219">
    <tag k="addr:city" v="Granby"/>
    <tag k="addr:housenumber" v="263"/>
    <tag k="addr:street" v="Fitch Brook Road"/>
    <tag k="addr:state" v="VT"/>
    <tag k="ref:vcgi:esiteid" v="337596"/>
  </node>
  <node id="-191" visible="true" lat="44.62685146" lon="-71.70743798">
    <tag k="addr:city" v="Granby"/>
    <tag k="addr:housenumber" v="129"/>
    <tag k="addr:street" v="Fitch Brook Road"/>
    <tag k="addr:state" v="VT"/>
    <tag k="ref:vcgi:esiteid" v="337597"/>
  </node>
  <node id="-192" visible="true" lat="44.64002339" lon="-71.69345064">
    <tag k="addr:city" v="Granby"/>
    <tag k="addr:housenumber" v="44"/>
    <tag k="addr:street" v="Depot Camp Road"/>
    <tag k="addr:state" v="VT"/>
    <tag k="ref:vcgi:esiteid" v="338324"/>
  </node>
  <node id="-195" visible="true" lat="44.62192435" lon="-71.70403712">
    <tag k="addr:city" v="Granby"/>
    <tag k="addr:housenumber" v="23"/>
    <tag k="addr:street" v="Wilke Brook Road"/>
    <tag k="addr:state" v="VT"/>
    <tag k="ref:vcgi:esiteid" v="338327"/>
  </node>
  <node id="-196" visible="true" lat="44.62353503" lon="-71.70410353">
    <tag k="addr:city" v="Granby"/>
    <tag k="addr:housenumber" v="21"/>
    <tag k="addr:street" v="Stony Brook Road"/>
    <tag k="addr:state" v="VT"/>
    <tag k="ref:vcgi:esiteid" v="338328"/>
  </node>
  <node id="-197" visible="true" lat="44.5910019" lon="-71.68550174">
    <tag k="addr:city" v="Granby"/>
    <tag k="addr:housenumber" v="12"/>
    <tag k="addr:street" v="Guildhall Road"/>
    <tag k="addr:state" v="VT"/>
    <tag k="ref:vcgi:esiteid" v="338329"/>
  </node>
  <node id="-200" visible="true" lat="44.62785428" lon="-71.73262992">
    <tag k="addr:city" v="Granby"/>
    <tag k="addr:housenumber" v="1691"/>
    <tag k="addr:street" v="Stony Brook Road"/>
    <tag k="addr:state" v="VT"/>
    <tag k="ref:vcgi:esiteid" v="338332"/>
  </node>
  <node id="-201" visible="true" lat="44.58254124" lon="-71.73547988">
    <tag k="addr:city" v="Granby"/>
    <tag k="addr:housenumber" v="623"/>
    <tag k="addr:street" v="Mud Pond Pass"/>
    <tag k="addr:state" v="VT"/>
    <tag k="ref:vcgi:esiteid" v="338334"/>
  </node>
  <node id="-204" visible="true" lat="44.55997974" lon="-71.74161483">
    <tag k="addr:city" v="Granby"/>
    <tag k="addr:housenumber" v="817"/>
    <tag k="addr:street" v="Shores Hill"/>
    <tag k="addr:state" v="VT"/>
    <tag k="ref:vcgi:esiteid" v="338337"/>
  </node>
  <node id="-207" visible="true" lat="44.57792338" lon="-71.71814702">
    <tag k="addr:city" v="Granby"/>
    <tag k="addr:housenumber" v="6722"/>
    <tag k="addr:street" v="Granby Road"/>
    <tag k="addr:state" v="VT"/>
    <tag k="ref:vcgi:esiteid" v="338343"/>
  </node>
  <node id="-208" visible="true" lat="44.57774117" lon="-71.7159096">
    <tag k="addr:city" v="Granby"/>
    <tag k="addr:housenumber" v="6634"/>
    <tag k="addr:street" v="Granby Road"/>
    <tag k="addr:state" v="VT"/>
    <tag k="ref:vcgi:esiteid" v="338344"/>
  </node>
  <node id="-209" visible="true" lat="44.5772453" lon="-71.7161838">
    <tag k="addr:city" v="Granby"/>
    <tag k="addr:housenumber" v="6624"/>
    <tag k="addr:street" v="Granby Road"/>
    <tag k="addr:state" v="VT"/>
    <tag k="ref:vcgi:esiteid" v="338345"/>
  </node>
  <node id="-211" visible="true" lat="44.5728657" lon="-71.70527205">
    <tag k="addr:city" v="Granby"/>
    <tag k="addr:housenumber" v="5862"/>
    <tag k="addr:street" v="Granby Road"/>
    <tag k="addr:state" v="VT"/>
    <tag k="ref:vcgi:esiteid" v="338347"/>
  </node>
  <node id="-212" visible="true" lat="44.57630811" lon="-71.71642309">
    <tag k="addr:city" v="Granby"/>
    <tag k="addr:housenumber" v="6449"/>
    <tag k="addr:street" v="Granby Road"/>
    <tag k="addr:state" v="VT"/>
    <tag k="ref:vcgi:esiteid" v="446418"/>
  </node>
  <node id="-213" visible="true" lat="44.56988698" lon="-71.75887271">
    <tag k="addr:city" v="Granby"/>
    <tag k="addr:housenumber" v="9020"/>
    <tag k="addr:street" v="Granby Road"/>
    <tag k="addr:state" v="VT"/>
    <tag k="ref:vcgi:esiteid" v="446419"/>
  </node>
  <node id="-214" visible="true" lat="44.57334921" lon="-71.74240947">
    <tag k="addr:city" v="Granby"/>
    <tag k="addr:housenumber" v="8016"/>
    <tag k="addr:street" v="Granby Road"/>
    <tag k="addr:state" v="VT"/>
    <tag k="ref:vcgi:esiteid" v="617470"/>
  </node>
  <node id="-215" visible="true" lat="44.58479479" lon="-71.77700149">
    <tag k="addr:city" v="Granby"/>
    <tag k="addr:housenumber" v="498"/>
    <tag k="addr:street" v="Lund Lane"/>
    <tag k="addr:state" v="VT"/>
    <tag k="ref:vcgi:esiteid" v="757707"/>
  </node>
  <node id="-216" visible="true" lat="44.57163522" lon="-71.74567453">
    <tag k="addr:city" v="Granby"/>
    <tag k="addr:housenumber" v="8200"/>
    <tag k="addr:street" v="Granby Road"/>
    <tag k="addr:state" v="VT"/>
    <tag k="ref:vcgi:esiteid" v="759039"/>
  </node>
  <node id="-217" visible="true" lat="44.5710544" lon="-71.75590136">
    <tag k="addr:city" v="Granby"/>
    <tag k="addr:housenumber" v="8845"/>
    <tag k="addr:street" v="Granby Road"/>
    <tag k="addr:state" v="VT"/>
    <tag k="ref:vcgi:esiteid" v="1050781"/>
  </node>
</osm>
