<?xml version="1.0" encoding="UTF-8"?>
<osm version="0.6" generator="JOSM">
  <node id="-101" visible="true" lat="44.65591076" lon="-72.29899611">
    <tag k="addr:housenumber" v="2420"/>
    <tag k="addr:street" v="Shadow Lake Road"/>
    <tag k="addr:state" v="VT"/>
    <tag k="ref:vcgi:esiteid" v="114816"/>
  </node>
  <node id="-102" visible="true" lat="44.65365016" lon="-72.31698416">
    <tag k="addr:housenumber" v="1555"/>
    <tag k="addr:street" v="Shadow Lake Road"/>
    <tag k="addr:state" v="VT"/>
    <tag k="ref:vcgi:esiteid" v="114817"/>
  </node>
  <node id="-104" visible="true" lat="44.65159988" lon="-72.30491638">
    <tag k="addr:housenumber" v="2018"/>
    <tag k="addr:street" v="Shadow Lake Road"/>
    <tag k="addr:state" v="VT"/>
    <tag k="ref:vcgi:esiteid" v="114819"/>
  </node>
  <node id="-105" visible="true" lat="44.64977646" lon="-72.31703186">
    <tag k="addr:housenumber" v="102"/>
    <tag k="addr:street" v="Shatney Road"/>
    <tag k="addr:state" v="VT"/>
    <tag k="ref:vcgi:esiteid" v="114820"/>
  </node>
  <node id="-106" visible="true" lat="44.64924361" lon="-72.31083596">
    <tag k="addr:housenumber" v="2002"/>
    <tag k="addr:street" v="Rocking Rock Road"/>
    <tag k="addr:state" v="VT"/>
    <tag k="ref:vcgi:esiteid" v="114821"/>
  </node>
  <node id="-107" visible="true" lat="44.64885711" lon="-72.31994628">
    <tag k="addr:housenumber" v="275"/>
    <tag k="addr:street" v="Shatney Road"/>
    <tag k="addr:state" v="VT"/>
    <tag k="ref:vcgi:esiteid" v="114822"/>
  </node>
  <node id="-109" visible="true" lat="44.64590454" lon="-72.30234527">
    <tag k="addr:housenumber" v="1488"/>
    <tag k="addr:street" v="Rocking Rock Road"/>
    <tag k="addr:state" v="VT"/>
    <tag k="ref:vcgi:esiteid" v="114824"/>
  </node>
  <node id="-111" visible="true" lat="44.64580927" lon="-72.2975481">
    <tag k="addr:housenumber" v="1236"/>
    <tag k="addr:street" v="Rocking Rock Road"/>
    <tag k="addr:state" v="VT"/>
    <tag k="ref:vcgi:esiteid" v="114826"/>
  </node>
  <node id="-112" visible="true" lat="44.64554214" lon="-72.30046844">
    <tag k="addr:housenumber" v="1394"/>
    <tag k="addr:street" v="Rocking Rock Road"/>
    <tag k="addr:state" v="VT"/>
    <tag k="ref:vcgi:esiteid" v="114827"/>
  </node>
  <node id="-113" visible="true" lat="44.64500427" lon="-72.29917144">
    <tag k="addr:housenumber" v="1311"/>
    <tag k="addr:street" v="Rocking Rock Road"/>
    <tag k="addr:state" v="VT"/>
    <tag k="ref:vcgi:esiteid" v="114828"/>
  </node>
  <node id="-114" visible="true" lat="44.64474105" lon="-72.29403686">
    <tag k="addr:housenumber" v="1044"/>
    <tag k="addr:street" v="Rocking Rock Road"/>
    <tag k="addr:state" v="VT"/>
    <tag k="ref:vcgi:esiteid" v="114829"/>
  </node>
  <node id="-115" visible="true" lat="44.64461135" lon="-72.29682159">
    <tag k="addr:housenumber" v="1190"/>
    <tag k="addr:street" v="Rocking Rock Road"/>
    <tag k="addr:state" v="VT"/>
    <tag k="ref:vcgi:esiteid" v="114830"/>
  </node>
  <node id="-116" visible="true" lat="44.64270658" lon="-72.28973755">
    <tag k="addr:housenumber" v="866"/>
    <tag k="addr:street" v="Rocking Rock Road"/>
    <tag k="addr:state" v="VT"/>
    <tag k="ref:vcgi:esiteid" v="114832"/>
  </node>
  <node id="-118" visible="true" lat="44.63957797" lon="-72.33304452">
    <tag k="addr:housenumber" v="179"/>
    <tag k="addr:street" v="Cate Hill Road"/>
    <tag k="addr:state" v="VT"/>
    <tag k="ref:vcgi:esiteid" v="114834"/>
  </node>
  <node id="-121" visible="true" lat="44.63471221" lon="-72.32849121">
    <tag k="addr:housenumber" v="4494"/>
    <tag k="addr:street" v="Craftsbury Road"/>
    <tag k="addr:state" v="VT"/>
    <tag k="ref:vcgi:esiteid" v="114837"/>
  </node>
  <node id="-122" visible="true" lat="44.63384622" lon="-72.32139961">
    <tag k="addr:housenumber" v="109"/>
    <tag k="addr:street" v="Hanks Hill"/>
    <tag k="addr:state" v="VT"/>
    <tag k="ref:vcgi:esiteid" v="114838"/>
  </node>
  <node id="-123" visible="true" lat="44.63367462" lon="-72.32666016">
    <tag k="addr:housenumber" v="78"/>
    <tag k="addr:street" v="Shadow Lake Road"/>
    <tag k="addr:state" v="VT"/>
    <tag k="ref:vcgi:esiteid" v="114839"/>
  </node>
  <node id="-124" visible="true" lat="44.63290023" lon="-72.33313751">
    <tag k="addr:housenumber" v="4439"/>
    <tag k="addr:street" v="Craftsbury Road"/>
    <tag k="addr:state" v="VT"/>
    <tag k="ref:vcgi:esiteid" v="114840"/>
  </node>
  <node id="-125" visible="true" lat="44.63244684" lon="-72.27447563">
    <tag k="addr:housenumber" v="487"/>
    <tag k="addr:street" v="Skunk Hollow Road"/>
    <tag k="addr:state" v="VT"/>
    <tag k="ref:vcgi:esiteid" v="114841"/>
  </node>
  <node id="-126" visible="true" lat="44.63236999" lon="-72.31721496">
    <tag k="addr:housenumber" v="327"/>
    <tag k="addr:street" v="Hanks Hill"/>
    <tag k="addr:state" v="VT"/>
    <tag k="ref:vcgi:esiteid" v="114842"/>
  </node>
  <node id="-127" visible="true" lat="44.63198597" lon="-72.28493102">
    <tag k="addr:housenumber" v="4"/>
    <tag k="addr:street" v="Rocking Rock Road"/>
    <tag k="addr:state" v="VT"/>
    <tag k="ref:vcgi:esiteid" v="114843"/>
  </node>
  <node id="-128" visible="true" lat="44.63151461" lon="-72.32047752">
    <tag k="addr:housenumber" v="216"/>
    <tag k="addr:street" v="Hanks Hill"/>
    <tag k="addr:state" v="VT"/>
    <tag k="ref:vcgi:esiteid" v="114844"/>
  </node>
  <node id="-129" visible="true" lat="44.63131016" lon="-72.31835395">
    <tag k="addr:housenumber" v="324"/>
    <tag k="addr:street" v="Hanks Hill"/>
    <tag k="addr:state" v="VT"/>
    <tag k="ref:vcgi:esiteid" v="114845"/>
  </node>
  <node id="-130" visible="true" lat="44.63084412" lon="-72.32769775">
    <tag k="addr:housenumber" v="4223"/>
    <tag k="addr:street" v="Craftsbury Road"/>
    <tag k="addr:state" v="VT"/>
    <tag k="ref:vcgi:esiteid" v="114846"/>
  </node>
  <node id="-131" visible="true" lat="44.63066805" lon="-72.28058362">
    <tag k="addr:housenumber" v="2668"/>
    <tag k="addr:street" v="Town Highway 8"/>
    <tag k="addr:state" v="VT"/>
    <tag k="ref:vcgi:esiteid" v="114847"/>
  </node>
  <node id="-133" visible="true" lat="44.63204336" lon="-72.31121663">
    <tag k="addr:housenumber" v="495"/>
    <tag k="addr:street" v="Hanks Hill"/>
    <tag k="addr:state" v="VT"/>
    <tag k="ref:vcgi:esiteid" v="114850"/>
  </node>
  <node id="-134" visible="true" lat="44.63002912" lon="-72.31566259">
    <tag k="addr:housenumber" v="498"/>
    <tag k="addr:street" v="Hanks Hill"/>
    <tag k="addr:state" v="VT"/>
    <tag k="ref:vcgi:esiteid" v="114851"/>
  </node>
  <node id="-135" visible="true" lat="44.62994464" lon="-72.28286007">
    <tag k="addr:housenumber" v="2564"/>
    <tag k="addr:street" v="Town Highway 8"/>
    <tag k="addr:state" v="VT"/>
    <tag k="ref:vcgi:esiteid" v="114852"/>
  </node>
  <node id="-137" visible="true" lat="44.62931029" lon="-72.28979503">
    <tag k="addr:housenumber" v="2183"/>
    <tag k="addr:street" v="Gebbie Road"/>
    <tag k="addr:state" v="VT"/>
    <tag k="ref:vcgi:esiteid" v="114854"/>
  </node>
  <node id="-139" visible="true" lat="44.62827301" lon="-72.28102874">
    <tag k="addr:housenumber" v="2404"/>
    <tag k="addr:street" v="Town Highway 8"/>
    <tag k="addr:state" v="VT"/>
    <tag k="ref:vcgi:esiteid" v="114856"/>
  </node>
  <node id="-140" visible="true" lat="44.62810897" lon="-72.27609252">
    <tag k="addr:housenumber" v="191"/>
    <tag k="addr:street" v="Skunk Hollow Road"/>
    <tag k="addr:state" v="VT"/>
    <tag k="ref:vcgi:esiteid" v="114857"/>
  </node>
  <node id="-141" visible="true" lat="44.62753677" lon="-72.28034973">
    <tag k="addr:housenumber" v="2382"/>
    <tag k="addr:street" v="Town Highway 8"/>
    <tag k="addr:state" v="VT"/>
    <tag k="ref:vcgi:esiteid" v="114858"/>
  </node>
  <node id="-143" visible="true" lat="44.62699127" lon="-72.28059387">
    <tag k="addr:housenumber" v="2343"/>
    <tag k="addr:street" v="Town Highway 8"/>
    <tag k="addr:state" v="VT"/>
    <tag k="ref:vcgi:esiteid" v="114860"/>
  </node>
  <node id="-144" visible="true" lat="44.62579031" lon="-72.27889874">
    <tag k="addr:housenumber" v="2207"/>
    <tag k="addr:street" v="Town Highway 8"/>
    <tag k="addr:state" v="VT"/>
    <tag k="ref:vcgi:esiteid" v="114861"/>
  </node>
  <node id="-145" visible="true" lat="44.62588402" lon="-72.27761797">
    <tag k="addr:housenumber" v="2158"/>
    <tag k="addr:street" v="Town Highway 8"/>
    <tag k="addr:state" v="VT"/>
    <tag k="ref:vcgi:esiteid" v="114862"/>
  </node>
  <node id="-146" visible="true" lat="44.62559127" lon="-72.24867248">
    <tag k="addr:housenumber" v="970"/>
    <tag k="addr:street" v="Tamarack Ranch Road"/>
    <tag k="addr:state" v="VT"/>
    <tag k="ref:vcgi:esiteid" v="114863"/>
  </node>
  <node id="-150" visible="true" lat="44.62413024" lon="-72.24227905">
    <tag k="addr:housenumber" v="613"/>
    <tag k="addr:street" v="Hunt Avenue"/>
    <tag k="addr:state" v="VT"/>
    <tag k="ref:vcgi:esiteid" v="114867"/>
  </node>
  <node id="-153" visible="true" lat="44.62345123" lon="-72.24190521">
    <tag k="addr:housenumber" v="544"/>
    <tag k="addr:street" v="Hunt Avenue"/>
    <tag k="addr:state" v="VT"/>
    <tag k="ref:vcgi:esiteid" v="114870"/>
  </node>
  <node id="-154" visible="true" lat="44.62363572" lon="-72.27733569">
    <tag k="addr:housenumber" v="1975"/>
    <tag k="addr:street" v="Town Highway 8"/>
    <tag k="addr:state" v="VT"/>
    <tag k="ref:vcgi:esiteid" v="114871"/>
  </node>
  <node id="-157" visible="true" lat="44.62297439" lon="-72.24308776">
    <tag k="addr:housenumber" v="501"/>
    <tag k="addr:street" v="Hunt Avenue"/>
    <tag k="addr:state" v="VT"/>
    <tag k="ref:vcgi:esiteid" v="114874"/>
  </node>
  <node id="-160" visible="true" lat="44.62142181" lon="-72.22875213">
    <tag k="addr:housenumber" v="811"/>
    <tag k="addr:street" v="Highlander Street"/>
    <tag k="addr:state" v="VT"/>
    <tag k="ref:vcgi:esiteid" v="114877"/>
  </node>
  <node id="-164" visible="true" lat="44.61934765" lon="-72.27366613">
    <tag k="addr:housenumber" v="1662"/>
    <tag k="addr:street" v="Town Highway 8"/>
    <tag k="addr:state" v="VT"/>
    <tag k="ref:vcgi:esiteid" v="114883"/>
  </node>
  <node id="-166" visible="true" lat="44.61911392" lon="-72.33557891">
    <tag k="addr:housenumber" v="1998"/>
    <tag k="addr:street" v="Bayley Hazen Road"/>
    <tag k="addr:state" v="VT"/>
    <tag k="ref:vcgi:esiteid" v="114886"/>
  </node>
  <node id="-167" visible="true" lat="44.61872863" lon="-72.24251556">
    <tag k="addr:housenumber" v="195"/>
    <tag k="addr:street" v="Hunt Avenue"/>
    <tag k="addr:state" v="VT"/>
    <tag k="ref:vcgi:esiteid" v="114887"/>
  </node>
  <node id="-168" visible="true" lat="44.61860831" lon="-72.30354061">
    <tag k="addr:housenumber" v="1095"/>
    <tag k="addr:street" v="Gebbie Road"/>
    <tag k="addr:state" v="VT"/>
    <tag k="ref:vcgi:esiteid" v="114888"/>
  </node>
  <node id="-170" visible="true" lat="44.61757261" lon="-72.29867807">
    <tag k="addr:housenumber" v="1152"/>
    <tag k="addr:street" v="Gebbie Road"/>
    <tag k="addr:state" v="VT"/>
    <tag k="ref:vcgi:esiteid" v="114890"/>
  </node>
  <node id="-171" visible="true" lat="44.61739525" lon="-72.23639612">
    <tag k="addr:housenumber" v="311"/>
    <tag k="addr:street" v="Highlander Street"/>
    <tag k="addr:state" v="VT"/>
    <tag k="ref:vcgi:esiteid" v="114891"/>
  </node>
  <node id="-172" visible="true" lat="44.61687851" lon="-72.23633575">
    <tag k="addr:housenumber" v="312"/>
    <tag k="addr:street" v="Highlander Street"/>
    <tag k="addr:state" v="VT"/>
    <tag k="ref:vcgi:esiteid" v="114892"/>
  </node>
  <node id="-173" visible="true" lat="44.61693328" lon="-72.27274149">
    <tag k="addr:housenumber" v="1492"/>
    <tag k="addr:street" v="Town Highway 8"/>
    <tag k="addr:state" v="VT"/>
    <tag k="ref:vcgi:esiteid" v="114893"/>
  </node>
  <node id="-176" visible="true" lat="44.61631393" lon="-72.27324676">
    <tag k="addr:housenumber" v="1467"/>
    <tag k="addr:street" v="Town Highway 8"/>
    <tag k="addr:state" v="VT"/>
    <tag k="ref:vcgi:esiteid" v="114896"/>
  </node>
  <node id="-177" visible="true" lat="44.6161134" lon="-72.23878937">
    <tag k="addr:housenumber" v="177"/>
    <tag k="addr:street" v="Highlander Street"/>
    <tag k="addr:state" v="VT"/>
    <tag k="ref:vcgi:esiteid" v="114897"/>
  </node>
  <node id="-178" visible="true" lat="44.61514609" lon="-72.33559643">
    <tag k="addr:housenumber" v="1670"/>
    <tag k="addr:street" v="Bayley Hazen Road"/>
    <tag k="addr:state" v="VT"/>
    <tag k="ref:vcgi:esiteid" v="114898"/>
  </node>
  <node id="-179" visible="true" lat="44.61471939" lon="-72.24302673">
    <tag k="addr:housenumber" v="65"/>
    <tag k="addr:street" v="Tamarack Ranch Road"/>
    <tag k="addr:state" v="VT"/>
    <tag k="ref:vcgi:esiteid" v="114899"/>
  </node>
  <node id="-181" visible="true" lat="44.61473602" lon="-72.30020223">
    <tag k="addr:housenumber" v="914"/>
    <tag k="addr:street" v="Gebbie Road"/>
    <tag k="addr:state" v="VT"/>
    <tag k="ref:vcgi:esiteid" v="114901"/>
  </node>
  <node id="-182" visible="true" lat="44.6145493" lon="-72.24148652">
    <tag k="addr:housenumber" v="15"/>
    <tag k="addr:street" v="Highlander Street"/>
    <tag k="addr:state" v="VT"/>
    <tag k="ref:vcgi:esiteid" v="114902"/>
  </node>
  <node id="-183" visible="true" lat="44.61441058" lon="-72.27396462">
    <tag k="addr:housenumber" v="1309"/>
    <tag k="addr:street" v="Town Highway 8"/>
    <tag k="addr:state" v="VT"/>
    <tag k="ref:vcgi:esiteid" v="114903"/>
  </node>
  <node id="-184" visible="true" lat="44.61463175" lon="-72.33809123">
    <tag k="addr:housenumber" v="1669"/>
    <tag k="addr:street" v="Bayley Hazen Road"/>
    <tag k="addr:state" v="VT"/>
    <tag k="ref:vcgi:esiteid" v="114904"/>
  </node>
  <node id="-185" visible="true" lat="44.6135116" lon="-72.24341601">
    <tag k="addr:housenumber" v="933"/>
    <tag k="addr:street" v="Hillcrest Road"/>
    <tag k="addr:state" v="VT"/>
    <tag k="ref:vcgi:esiteid" v="114905"/>
  </node>
  <node id="-186" visible="true" lat="44.61274441" lon="-72.2753378">
    <tag k="addr:housenumber" v="1167"/>
    <tag k="addr:street" v="Town Highway 8"/>
    <tag k="addr:state" v="VT"/>
    <tag k="ref:vcgi:esiteid" v="114906"/>
  </node>
  <node id="-187" visible="true" lat="44.61243248" lon="-72.28837332">
    <tag k="addr:housenumber" v="2001"/>
    <tag k="addr:street" v="Barr Hill Road"/>
    <tag k="addr:state" v="VT"/>
    <tag k="ref:vcgi:esiteid" v="114907"/>
  </node>
  <node id="-188" visible="true" lat="44.61151627" lon="-72.30320351">
    <tag k="addr:housenumber" v="100"/>
    <tag k="addr:street" v="Atherton Way"/>
    <tag k="addr:state" v="VT"/>
    <tag k="ref:vcgi:esiteid" v="114908"/>
  </node>
  <node id="-189" visible="true" lat="44.61095371" lon="-72.29908725">
    <tag k="addr:housenumber" v="333"/>
    <tag k="addr:street" v="Atherton Way"/>
    <tag k="addr:state" v="VT"/>
    <tag k="ref:vcgi:esiteid" v="114909"/>
  </node>
  <node id="-190" visible="true" lat="44.61082458" lon="-72.24655914">
    <tag k="addr:housenumber" v="690"/>
    <tag k="addr:street" v="Hillcrest Road"/>
    <tag k="addr:state" v="VT"/>
    <tag k="ref:vcgi:esiteid" v="114910"/>
  </node>
  <node id="-191" visible="true" lat="44.61092376" lon="-72.31200408">
    <tag k="addr:housenumber" v="365"/>
    <tag k="addr:street" v="Barton Drive"/>
    <tag k="addr:state" v="VT"/>
    <tag k="ref:vcgi:esiteid" v="114911"/>
  </node>
  <node id="-192" visible="true" lat="44.61058044" lon="-72.306427">
    <tag k="addr:housenumber" v="7"/>
    <tag k="addr:street" v="Barton Drive"/>
    <tag k="addr:state" v="VT"/>
    <tag k="ref:vcgi:esiteid" v="114912"/>
  </node>
  <node id="-193" visible="true" lat="44.61021237" lon="-72.27170916">
    <tag k="addr:housenumber" v="971"/>
    <tag k="addr:street" v="Town Highway 8"/>
    <tag k="addr:state" v="VT"/>
    <tag k="ref:vcgi:esiteid" v="114913"/>
  </node>
  <node id="-194" visible="true" lat="44.60978317" lon="-72.30538177">
    <tag k="addr:housenumber" v="524"/>
    <tag k="addr:street" v="Gebbie Road"/>
    <tag k="addr:state" v="VT"/>
    <tag k="ref:vcgi:esiteid" v="114914"/>
  </node>
  <node id="-195" visible="true" lat="44.60966873" lon="-72.31389617">
    <tag k="addr:housenumber" v="2256"/>
    <tag k="addr:street" v="Craftsbury Road"/>
    <tag k="addr:state" v="VT"/>
    <tag k="ref:vcgi:esiteid" v="114915"/>
  </node>
  <node id="-196" visible="true" lat="44.60950405" lon="-72.27055877">
    <tag k="addr:housenumber" v="928"/>
    <tag k="addr:street" v="Town Highway 8"/>
    <tag k="addr:state" v="VT"/>
    <tag k="ref:vcgi:esiteid" v="114916"/>
  </node>
  <node id="-197" visible="true" lat="44.60915756" lon="-72.3174057">
    <tag k="addr:housenumber" v="2472"/>
    <tag k="addr:street" v="Craftsbury Road"/>
    <tag k="addr:state" v="VT"/>
    <tag k="ref:vcgi:esiteid" v="114917"/>
  </node>
  <node id="-198" visible="true" lat="44.60892254" lon="-72.27139585">
    <tag k="addr:housenumber" v="891"/>
    <tag k="addr:street" v="Town Highway 8"/>
    <tag k="addr:state" v="VT"/>
    <tag k="ref:vcgi:esiteid" v="114918"/>
  </node>
  <node id="-199" visible="true" lat="44.60868409" lon="-72.26909058">
    <tag k="addr:housenumber" v="97"/>
    <tag k="addr:street" v="Hill Road"/>
    <tag k="addr:state" v="VT"/>
    <tag k="ref:vcgi:esiteid" v="114919"/>
  </node>
  <node id="-200" visible="true" lat="44.60847067" lon="-72.25274803">
    <tag k="addr:housenumber" v="353"/>
    <tag k="addr:street" v="Hillcrest Road"/>
    <tag k="addr:state" v="VT"/>
    <tag k="ref:vcgi:esiteid" v="114920"/>
  </node>
  <node id="-201" visible="true" lat="44.60781984" lon="-72.26690642">
    <tag k="addr:housenumber" v="231"/>
    <tag k="addr:street" v="Hill Road"/>
    <tag k="addr:state" v="VT"/>
    <tag k="ref:vcgi:esiteid" v="114921"/>
  </node>
  <node id="-202" visible="true" lat="44.60717773" lon="-72.31155395">
    <tag k="addr:housenumber" v="1962"/>
    <tag k="addr:street" v="Craftsbury Road"/>
    <tag k="addr:state" v="VT"/>
    <tag k="ref:vcgi:esiteid" v="114922"/>
  </node>
  <node id="-205" visible="true" lat="44.60659806" lon="-72.35763399">
    <tag k="addr:housenumber" v="108"/>
    <tag k="addr:street" v="Durkee Road"/>
    <tag k="addr:state" v="VT"/>
    <tag k="ref:vcgi:esiteid" v="114925"/>
  </node>
  <node id="-208" visible="true" lat="44.60599518" lon="-72.23707581">
    <tag k="addr:housenumber" v="672"/>
    <tag k="addr:street" v="Salls Road"/>
    <tag k="addr:state" v="VT"/>
    <tag k="ref:vcgi:esiteid" v="114928"/>
  </node>
  <node id="-209" visible="true" lat="44.6058731" lon="-72.272789">
    <tag k="addr:housenumber" v="649"/>
    <tag k="addr:street" v="Town Highway 8"/>
    <tag k="addr:state" v="VT"/>
    <tag k="ref:vcgi:esiteid" v="114929"/>
  </node>
  <node id="-211" visible="true" lat="44.60523216" lon="-72.30533041">
    <tag k="addr:housenumber" v="184"/>
    <tag k="addr:street" v="Gebbie Road"/>
    <tag k="addr:state" v="VT"/>
    <tag k="ref:vcgi:esiteid" v="114931"/>
  </node>
  <node id="-212" visible="true" lat="44.60540771" lon="-72.30987548">
    <tag k="addr:housenumber" v="1904"/>
    <tag k="addr:street" v="Craftsbury Road"/>
    <tag k="addr:state" v="VT"/>
    <tag k="ref:vcgi:esiteid" v="114932"/>
  </node>
  <node id="-213" visible="true" lat="44.60535049" lon="-72.30240631">
    <tag k="addr:housenumber" v="217"/>
    <tag k="addr:street" v="Pasture Lane"/>
    <tag k="addr:state" v="VT"/>
    <tag k="ref:vcgi:esiteid" v="114933"/>
  </node>
  <node id="-214" visible="true" lat="44.60498428" lon="-72.30184173">
    <tag k="addr:housenumber" v="218"/>
    <tag k="addr:street" v="Pasture Lane"/>
    <tag k="addr:state" v="VT"/>
    <tag k="ref:vcgi:esiteid" v="114934"/>
  </node>
  <node id="-216" visible="true" lat="44.60411834" lon="-72.31065368">
    <tag k="addr:housenumber" v="1960"/>
    <tag k="addr:street" v="Craftsbury Road"/>
    <tag k="addr:state" v="VT"/>
    <tag k="ref:vcgi:esiteid" v="114936"/>
  </node>
  <node id="-217" visible="true" lat="44.60328482" lon="-72.23956971">
    <tag k="addr:housenumber" v="563"/>
    <tag k="addr:street" v="Salls Road"/>
    <tag k="addr:state" v="VT"/>
    <tag k="ref:vcgi:esiteid" v="114937"/>
  </node>
  <node id="-219" visible="true" lat="44.60329437" lon="-72.33597564">
    <tag k="addr:housenumber" v="829"/>
    <tag k="addr:street" v="Bayley Hazen Road"/>
    <tag k="addr:state" v="VT"/>
    <tag k="ref:vcgi:esiteid" v="114939"/>
  </node>
  <node id="-221" visible="true" lat="44.60286712" lon="-72.35160064">
    <tag k="addr:housenumber" v="2051"/>
    <tag k="addr:street" v="Overlook Road"/>
    <tag k="addr:state" v="VT"/>
    <tag k="ref:vcgi:esiteid" v="114941"/>
  </node>
  <node id="-222" visible="true" lat="44.60223007" lon="-72.25569916">
    <tag k="addr:housenumber" v="127"/>
    <tag k="addr:street" v="Jaffin Flat"/>
    <tag k="addr:state" v="VT"/>
    <tag k="ref:vcgi:esiteid" v="114942"/>
  </node>
  <node id="-223" visible="true" lat="44.60232544" lon="-72.35098266">
    <tag k="addr:housenumber" v="2010"/>
    <tag k="addr:street" v="Overlook Road"/>
    <tag k="addr:state" v="VT"/>
    <tag k="ref:vcgi:esiteid" v="114943"/>
  </node>
  <node id="-224" visible="true" lat="44.60227203" lon="-72.33454132">
    <tag k="addr:housenumber" v="786"/>
    <tag k="addr:street" v="Bayley Hazen Road"/>
    <tag k="addr:state" v="VT"/>
    <tag k="ref:vcgi:esiteid" v="114944"/>
  </node>
  <node id="-234" visible="true" lat="44.60006594" lon="-72.29051055">
    <tag k="addr:housenumber" v="1038"/>
    <tag k="addr:street" v="Barr Hill Road"/>
    <tag k="addr:state" v="VT"/>
    <tag k="ref:vcgi:esiteid" v="114954"/>
  </node>
  <node id="-237" visible="true" lat="44.59947479" lon="-72.29704994">
    <tag k="addr:housenumber" v="665"/>
    <tag k="addr:street" v="Grays Drive"/>
    <tag k="addr:state" v="VT"/>
    <tag k="ref:vcgi:esiteid" v="114957"/>
  </node>
  <node id="-240" visible="true" lat="44.59882817" lon="-72.29744844">
    <tag k="addr:housenumber" v="667"/>
    <tag k="addr:street" v="Grays Drive"/>
    <tag k="addr:state" v="VT"/>
    <tag k="ref:vcgi:esiteid" v="114960"/>
  </node>
  <node id="-242" visible="true" lat="44.59876468" lon="-72.35886559">
    <tag k="addr:housenumber" v="1368"/>
    <tag k="addr:street" v="Eligo Lake Road"/>
    <tag k="addr:state" v="VT"/>
    <tag k="ref:vcgi:esiteid" v="114962"/>
  </node>
  <node id="-243" visible="true" lat="44.59841156" lon="-72.25324249">
    <tag k="addr:housenumber" v="83"/>
    <tag k="addr:street" v="Taylor Road"/>
    <tag k="addr:state" v="VT"/>
    <tag k="ref:vcgi:esiteid" v="114963"/>
  </node>
  <node id="-245" visible="true" lat="44.59829732" lon="-72.35848283">
    <tag k="addr:housenumber" v="1338"/>
    <tag k="addr:street" v="Eligo Lake Road"/>
    <tag k="addr:state" v="VT"/>
    <tag k="ref:vcgi:esiteid" v="114965"/>
  </node>
  <node id="-246" visible="true" lat="44.59837935" lon="-72.35916885">
    <tag k="addr:housenumber" v="1355"/>
    <tag k="addr:street" v="Eligo Lake Road"/>
    <tag k="addr:state" v="VT"/>
    <tag k="ref:vcgi:esiteid" v="114966"/>
  </node>
  <node id="-247" visible="true" lat="44.59822082" lon="-72.35588073">
    <tag k="addr:housenumber" v="1288"/>
    <tag k="addr:street" v="Eligo Lake Road"/>
    <tag k="addr:state" v="VT"/>
    <tag k="ref:vcgi:esiteid" v="114967"/>
  </node>
  <node id="-248" visible="true" lat="44.59815188" lon="-72.33360996">
    <tag k="addr:housenumber" v="472"/>
    <tag k="addr:street" v="Bayley Hazen Road"/>
    <tag k="addr:state" v="VT"/>
    <tag k="ref:vcgi:esiteid" v="114968"/>
  </node>
  <node id="-249" visible="true" lat="44.59800339" lon="-72.24536896">
    <tag k="addr:housenumber" v="491"/>
    <tag k="addr:street" v="Taylor Road"/>
    <tag k="addr:state" v="VT"/>
    <tag k="ref:vcgi:esiteid" v="114969"/>
  </node>
  <node id="-250" visible="true" lat="44.59807612" lon="-72.35834018">
    <tag k="addr:housenumber" v="1320"/>
    <tag k="addr:street" v="Eligo Lake Road"/>
    <tag k="addr:state" v="VT"/>
    <tag k="ref:vcgi:esiteid" v="114970"/>
  </node>
  <node id="-251" visible="true" lat="44.59789481" lon="-72.35816914">
    <tag k="addr:housenumber" v="1312"/>
    <tag k="addr:street" v="Eligo Lake Road"/>
    <tag k="addr:state" v="VT"/>
    <tag k="ref:vcgi:esiteid" v="114972"/>
  </node>
  <node id="-252" visible="true" lat="44.59778595" lon="-72.24190521">
    <tag k="addr:housenumber" v="684"/>
    <tag k="addr:street" v="Taylor Road"/>
    <tag k="addr:state" v="VT"/>
    <tag k="ref:vcgi:esiteid" v="114973"/>
  </node>
  <node id="-254" visible="true" lat="44.59766006" lon="-72.26991272">
    <tag k="addr:housenumber" v="39"/>
    <tag k="addr:street" v="Swamp Road"/>
    <tag k="addr:state" v="VT"/>
    <tag k="ref:vcgi:esiteid" v="114975"/>
  </node>
  <node id="-255" visible="true" lat="44.59775717" lon="-72.35858871">
    <tag k="addr:housenumber" v="1313"/>
    <tag k="addr:street" v="Eligo Lake Road"/>
    <tag k="addr:state" v="VT"/>
    <tag k="ref:vcgi:esiteid" v="114976"/>
  </node>
  <node id="-257" visible="true" lat="44.59730148" lon="-72.24008942">
    <tag k="addr:housenumber" v="777"/>
    <tag k="addr:street" v="Taylor Road"/>
    <tag k="addr:state" v="VT"/>
    <tag k="ref:vcgi:esiteid" v="114978"/>
  </node>
  <node id="-258" visible="true" lat="44.5969586" lon="-72.31060588">
    <tag k="addr:housenumber" v="173"/>
    <tag k="addr:street" v="Miller Road"/>
    <tag k="addr:state" v="VT"/>
    <tag k="ref:vcgi:esiteid" v="114979"/>
  </node>
  <node id="-259" visible="true" lat="44.59673691" lon="-72.23929596">
    <tag k="addr:housenumber" v="833"/>
    <tag k="addr:street" v="Taylor Road"/>
    <tag k="addr:state" v="VT"/>
    <tag k="ref:vcgi:esiteid" v="114980"/>
  </node>
  <node id="-260" visible="true" lat="44.59672442" lon="-72.30738321">
    <tag k="addr:housenumber" v="342"/>
    <tag k="addr:street" v="Bathtub Rock Road"/>
    <tag k="addr:state" v="VT"/>
    <tag k="ref:vcgi:esiteid" v="114981"/>
  </node>
  <node id="-263" visible="true" lat="44.59657862" lon="-72.31328923">
    <tag k="addr:housenumber" v="84"/>
    <tag k="addr:street" v="Mitchell Place"/>
    <tag k="addr:state" v="VT"/>
    <tag k="ref:vcgi:esiteid" v="114984"/>
  </node>
  <node id="-264" visible="true" lat="44.59654617" lon="-72.31243133">
    <tag k="addr:housenumber" v="91"/>
    <tag k="addr:street" v="Mitchell Place"/>
    <tag k="addr:state" v="VT"/>
    <tag k="ref:vcgi:esiteid" v="114985"/>
  </node>
  <node id="-265" visible="true" lat="44.59605755" lon="-72.29752985">
    <tag k="addr:housenumber" v="366"/>
    <tag k="addr:street" v="Grays Drive"/>
    <tag k="addr:state" v="VT"/>
    <tag k="ref:vcgi:esiteid" v="114986"/>
  </node>
  <node id="-266" visible="true" lat="44.59597397" lon="-72.23181915">
    <tag k="addr:housenumber" v="1243"/>
    <tag k="addr:street" v="Taylor Road"/>
    <tag k="addr:state" v="VT"/>
    <tag k="ref:vcgi:esiteid" v="114987"/>
  </node>
  <node id="-267" visible="true" lat="44.596035" lon="-72.28620147">
    <tag k="addr:housenumber" v="688"/>
    <tag k="addr:street" v="Barr Hill Road"/>
    <tag k="addr:state" v="VT"/>
    <tag k="ref:vcgi:esiteid" v="114988"/>
  </node>
  <node id="-268" visible="true" lat="44.59604991" lon="-72.30551262">
    <tag k="addr:housenumber" v="464"/>
    <tag k="addr:street" v="Bathtub Rock Road"/>
    <tag k="addr:state" v="VT"/>
    <tag k="ref:vcgi:esiteid" v="114989"/>
  </node>
  <node id="-269" visible="true" lat="44.59606388" lon="-72.28715347">
    <tag k="addr:housenumber" v="708"/>
    <tag k="addr:street" v="Barr Hill Road"/>
    <tag k="addr:state" v="VT"/>
    <tag k="ref:vcgi:esiteid" v="114990"/>
  </node>
  <node id="-270" visible="true" lat="44.59604438" lon="-72.3040732">
    <tag k="addr:housenumber" v="1359"/>
    <tag k="addr:street" v="Craftsbury Road"/>
    <tag k="addr:state" v="VT"/>
    <tag k="ref:vcgi:esiteid" v="114991"/>
  </node>
  <node id="-271" visible="true" lat="44.59592437" lon="-72.35807037">
    <tag k="addr:housenumber" v="1167"/>
    <tag k="addr:street" v="Eligo Lake Road"/>
    <tag k="addr:state" v="VT"/>
    <tag k="ref:vcgi:esiteid" v="114992"/>
  </node>
  <node id="-272" visible="true" lat="44.59568024" lon="-72.23535919">
    <tag k="addr:housenumber" v="1060"/>
    <tag k="addr:street" v="Taylor Road"/>
    <tag k="addr:state" v="VT"/>
    <tag k="ref:vcgi:esiteid" v="114993"/>
  </node>
  <node id="-273" visible="true" lat="44.59559249" lon="-72.29233551">
    <tag k="addr:housenumber" v="670"/>
    <tag k="addr:street" v="Reservoir Road"/>
    <tag k="addr:state" v="VT"/>
    <tag k="ref:vcgi:esiteid" v="114994"/>
  </node>
  <node id="-274" visible="true" lat="44.59560775" lon="-72.31598663">
    <tag k="addr:housenumber" v="824"/>
    <tag k="addr:street" v="North Shore Road"/>
    <tag k="addr:state" v="VT"/>
    <tag k="ref:vcgi:esiteid" v="114995"/>
  </node>
  <node id="-277" visible="true" lat="44.59547042" lon="-72.27608489">
    <tag k="addr:housenumber" v="1093"/>
    <tag k="addr:street" v="Baker Hill Road"/>
    <tag k="addr:state" v="VT"/>
    <tag k="ref:vcgi:esiteid" v="114998"/>
  </node>
  <node id="-278" visible="true" lat="44.59543991" lon="-72.30136871">
    <tag k="addr:housenumber" v="1230"/>
    <tag k="addr:street" v="Craftsbury Road"/>
    <tag k="addr:state" v="VT"/>
    <tag k="ref:vcgi:esiteid" v="114999"/>
  </node>
  <node id="-279" visible="true" lat="44.59532165" lon="-72.27190399">
    <tag k="addr:housenumber" v="1094"/>
    <tag k="addr:street" v="Baker Hill Road"/>
    <tag k="addr:state" v="VT"/>
    <tag k="ref:vcgi:esiteid" v="115000"/>
  </node>
  <node id="-280" visible="true" lat="44.59515123" lon="-72.29750023">
    <tag k="addr:housenumber" v="870"/>
    <tag k="addr:street" v="Reservoir Road"/>
    <tag k="addr:state" v="VT"/>
    <tag k="ref:vcgi:esiteid" v="115001"/>
  </node>
  <node id="-281" visible="true" lat="44.59523805" lon="-72.30428211">
    <tag k="addr:housenumber" v="1273"/>
    <tag k="addr:street" v="Craftsbury Road"/>
    <tag k="addr:state" v="VT"/>
    <tag k="ref:vcgi:esiteid" v="115002"/>
  </node>
  <node id="-282" visible="true" lat="44.59512535" lon="-72.33420591">
    <tag k="addr:housenumber" v="277"/>
    <tag k="addr:street" v="Bayley Hazen Road"/>
    <tag k="addr:state" v="VT"/>
    <tag k="ref:vcgi:esiteid" v="115003"/>
  </node>
  <node id="-284" visible="true" lat="44.59517562" lon="-72.35837667">
    <tag k="addr:housenumber" v="1119"/>
    <tag k="addr:street" v="Eligo Lake Road"/>
    <tag k="addr:state" v="VT"/>
    <tag k="ref:vcgi:esiteid" v="115005"/>
  </node>
  <node id="-285" visible="true" lat="44.59503173" lon="-72.35790252">
    <tag k="addr:housenumber" v="1106"/>
    <tag k="addr:street" v="Eligo Lake Road"/>
    <tag k="addr:state" v="VT"/>
    <tag k="ref:vcgi:esiteid" v="115006"/>
  </node>
  <node id="-286" visible="true" lat="44.59491346" lon="-72.31706619">
    <tag k="addr:housenumber" v="770"/>
    <tag k="addr:street" v="North Shore Road"/>
    <tag k="addr:state" v="VT"/>
    <tag k="ref:vcgi:esiteid" v="115007"/>
  </node>
  <node id="-288" visible="true" lat="44.59469483" lon="-72.31751762">
    <tag k="addr:housenumber" v="768"/>
    <tag k="addr:street" v="North Shore Road"/>
    <tag k="addr:state" v="VT"/>
    <tag k="ref:vcgi:esiteid" v="115009"/>
  </node>
  <node id="-289" visible="true" lat="44.59465408" lon="-72.31826782">
    <tag k="addr:housenumber" v="698"/>
    <tag k="addr:street" v="North Shore Road"/>
    <tag k="addr:state" v="VT"/>
    <tag k="ref:vcgi:esiteid" v="115010"/>
  </node>
  <node id="-292" visible="true" lat="44.59433358" lon="-72.30219938">
    <tag k="addr:housenumber" v="1181"/>
    <tag k="addr:street" v="Craftsbury Road"/>
    <tag k="addr:state" v="VT"/>
    <tag k="ref:vcgi:esiteid" v="115013"/>
  </node>
  <node id="-293" visible="true" lat="44.59415531" lon="-72.33463206">
    <tag k="addr:housenumber" v="221"/>
    <tag k="addr:street" v="Bayley Hazen Road"/>
    <tag k="addr:state" v="VT"/>
    <tag k="ref:vcgi:esiteid" v="115014"/>
  </node>
  <node id="-297" visible="true" lat="44.59399414" lon="-72.3182907">
    <tag k="addr:housenumber" v="65"/>
    <tag k="addr:street" v="Vanhook Road"/>
    <tag k="addr:state" v="VT"/>
    <tag k="ref:vcgi:esiteid" v="115018"/>
  </node>
  <node id="-298" visible="true" lat="44.59397888" lon="-72.34941863">
    <tag k="addr:housenumber" v="1419"/>
    <tag k="addr:street" v="Overlook Road"/>
    <tag k="addr:state" v="VT"/>
    <tag k="ref:vcgi:esiteid" v="115019"/>
  </node>
  <node id="-300" visible="true" lat="44.59387588" lon="-72.33176422">
    <tag k="addr:housenumber" v="134"/>
    <tag k="addr:street" v="Bayley Hazen Road"/>
    <tag k="addr:state" v="VT"/>
    <tag k="ref:vcgi:esiteid" v="115021"/>
  </node>
  <node id="-303" visible="true" lat="44.5935808" lon="-72.28847357">
    <tag k="addr:housenumber" v="529"/>
    <tag k="addr:street" v="Barr Hill Road"/>
    <tag k="addr:state" v="VT"/>
    <tag k="ref:vcgi:esiteid" v="115024"/>
  </node>
  <node id="-306" visible="true" lat="44.59336591" lon="-72.30130831">
    <tag k="addr:housenumber" v="1109"/>
    <tag k="addr:street" v="Craftsbury Road"/>
    <tag k="addr:state" v="VT"/>
    <tag k="ref:vcgi:esiteid" v="115027"/>
  </node>
  <node id="-308" visible="true" lat="44.59335542" lon="-72.32164396">
    <tag k="addr:housenumber" v="7"/>
    <tag k="addr:street" v="Howards End"/>
    <tag k="addr:state" v="VT"/>
    <tag k="ref:vcgi:esiteid" v="115029"/>
  </node>
  <node id="-309" visible="true" lat="44.59345066" lon="-72.3192418">
    <tag k="addr:housenumber" v="151"/>
    <tag k="addr:street" v="Gunther Lane"/>
    <tag k="addr:state" v="VT"/>
    <tag k="ref:vcgi:esiteid" v="115030"/>
  </node>
  <node id="-310" visible="true" lat="44.59338379" lon="-72.35886383">
    <tag k="addr:housenumber" v="971"/>
    <tag k="addr:street" v="Eligo Lake Road"/>
    <tag k="addr:state" v="VT"/>
    <tag k="ref:vcgi:esiteid" v="115031"/>
  </node>
  <node id="-311" visible="true" lat="44.59317016" lon="-72.27433013">
    <tag k="addr:housenumber" v="1082"/>
    <tag k="addr:street" v="Baker Hill Road"/>
    <tag k="addr:state" v="VT"/>
    <tag k="ref:vcgi:esiteid" v="115032"/>
  </node>
  <node id="-312" visible="true" lat="44.59321975" lon="-72.32086944">
    <tag k="addr:housenumber" v="9"/>
    <tag k="addr:street" v="Howards End"/>
    <tag k="addr:state" v="VT"/>
    <tag k="ref:vcgi:esiteid" v="115033"/>
  </node>
  <node id="-313" visible="true" lat="44.59305372" lon="-72.31856898">
    <tag k="addr:housenumber" v="154"/>
    <tag k="addr:street" v="Gunther Lane"/>
    <tag k="addr:state" v="VT"/>
    <tag k="ref:vcgi:esiteid" v="115034"/>
  </node>
  <node id="-314" visible="true" lat="44.59284155" lon="-72.29196014">
    <tag k="addr:housenumber" v="506"/>
    <tag k="addr:street" v="Reservoir Road"/>
    <tag k="addr:state" v="VT"/>
    <tag k="ref:vcgi:esiteid" v="115035"/>
  </node>
  <node id="-316" visible="true" lat="44.59283248" lon="-72.26466343">
    <tag k="addr:housenumber" v="1337"/>
    <tag k="addr:street" v="Garvin Hill Road"/>
    <tag k="addr:state" v="VT"/>
    <tag k="ref:vcgi:esiteid" v="115037"/>
  </node>
  <node id="-317" visible="true" lat="44.59284973" lon="-72.3194046">
    <tag k="addr:housenumber" v="98"/>
    <tag k="addr:street" v="Gunther Lane"/>
    <tag k="addr:state" v="VT"/>
    <tag k="ref:vcgi:esiteid" v="115038"/>
  </node>
  <node id="-318" visible="true" lat="44.59268569" lon="-72.34907531">
    <tag k="addr:housenumber" v="1327"/>
    <tag k="addr:street" v="Overlook Road"/>
    <tag k="addr:state" v="VT"/>
    <tag k="ref:vcgi:esiteid" v="115039"/>
  </node>
  <node id="-319" visible="true" lat="44.59245681" lon="-72.22997284">
    <tag k="addr:housenumber" v="110"/>
    <tag k="addr:street" v="Sparhawk Road"/>
    <tag k="addr:state" v="VT"/>
    <tag k="ref:vcgi:esiteid" v="115040"/>
  </node>
  <node id="-320" visible="true" lat="44.59236015" lon="-72.22776799">
    <tag k="addr:housenumber" v="179"/>
    <tag k="addr:street" v="Sparhawk Road"/>
    <tag k="addr:state" v="VT"/>
    <tag k="ref:vcgi:esiteid" v="115041"/>
  </node>
  <node id="-321" visible="true" lat="44.59248733" lon="-72.35829162">
    <tag k="addr:housenumber" v="914"/>
    <tag k="addr:street" v="Eligo Lake Road"/>
    <tag k="addr:state" v="VT"/>
    <tag k="ref:vcgi:esiteid" v="115042"/>
  </node>
  <node id="-322" visible="true" lat="44.59231185" lon="-72.3583374">
    <tag k="addr:housenumber" v="918"/>
    <tag k="addr:street" v="Eligo Lake Road"/>
    <tag k="addr:state" v="VT"/>
    <tag k="ref:vcgi:esiteid" v="115043"/>
  </node>
  <node id="-324" visible="true" lat="44.59197998" lon="-72.29693603">
    <tag k="addr:housenumber" v="914"/>
    <tag k="addr:street" v="Craftsbury Road"/>
    <tag k="addr:state" v="VT"/>
    <tag k="ref:vcgi:esiteid" v="115045"/>
  </node>
  <node id="-325" visible="true" lat="44.59197235" lon="-72.3583374">
    <tag k="addr:housenumber" v="898"/>
    <tag k="addr:street" v="Eligo Lake Road"/>
    <tag k="addr:state" v="VT"/>
    <tag k="ref:vcgi:esiteid" v="115046"/>
  </node>
  <node id="-326" visible="true" lat="44.59178762" lon="-72.28913352">
    <tag k="addr:housenumber" v="409"/>
    <tag k="addr:street" v="Barr Hill Road"/>
    <tag k="addr:state" v="VT"/>
    <tag k="ref:vcgi:esiteid" v="115047"/>
  </node>
  <node id="-327" visible="true" lat="44.59182976" lon="-72.2669289">
    <tag k="addr:housenumber" v="1217"/>
    <tag k="addr:street" v="Garvin Hill Road"/>
    <tag k="addr:state" v="VT"/>
    <tag k="ref:vcgi:esiteid" v="115048"/>
  </node>
  <node id="-328" visible="true" lat="44.59173504" lon="-72.32565915">
    <tag k="addr:housenumber" v="248"/>
    <tag k="addr:street" v="North Shore Road"/>
    <tag k="addr:state" v="VT"/>
    <tag k="ref:vcgi:esiteid" v="115049"/>
  </node>
  <node id="-329" visible="true" lat="44.5914708" lon="-72.32706097">
    <tag k="addr:housenumber" v="228"/>
    <tag k="addr:street" v="North Shore Road"/>
    <tag k="addr:state" v="VT"/>
    <tag k="ref:vcgi:esiteid" v="115050"/>
  </node>
  <node id="-330" visible="true" lat="44.59155082" lon="-72.28072296">
    <tag k="addr:housenumber" v="626"/>
    <tag k="addr:street" v="Baker Hill Road"/>
    <tag k="addr:state" v="VT"/>
    <tag k="ref:vcgi:esiteid" v="115051"/>
  </node>
  <node id="-331" visible="true" lat="44.59148233" lon="-72.32241365">
    <tag k="addr:housenumber" v="136"/>
    <tag k="addr:street" v="Loon Road"/>
    <tag k="addr:state" v="VT"/>
    <tag k="ref:vcgi:esiteid" v="115052"/>
  </node>
  <node id="-333" visible="true" lat="44.59112548" lon="-72.28175354">
    <tag k="addr:housenumber" v="564"/>
    <tag k="addr:street" v="Baker Hill Road"/>
    <tag k="addr:state" v="VT"/>
    <tag k="ref:vcgi:esiteid" v="115054"/>
  </node>
  <node id="-334" visible="true" lat="44.59107208" lon="-72.30023193">
    <tag k="addr:housenumber" v="24"/>
    <tag k="addr:street" v="Blacks Point"/>
    <tag k="addr:state" v="VT"/>
    <tag k="ref:vcgi:esiteid" v="115055"/>
  </node>
  <node id="-336" visible="true" lat="44.59079798" lon="-72.30076828">
    <tag k="addr:housenumber" v="50"/>
    <tag k="addr:street" v="Blacks Point"/>
    <tag k="addr:state" v="VT"/>
    <tag k="ref:vcgi:esiteid" v="115057"/>
  </node>
  <node id="-338" visible="true" lat="44.59044659" lon="-72.26869715">
    <tag k="addr:housenumber" v="1109"/>
    <tag k="addr:street" v="Garvin Hill Road"/>
    <tag k="addr:state" v="VT"/>
    <tag k="ref:vcgi:esiteid" v="115059"/>
  </node>
  <node id="-341" visible="true" lat="44.59026718" lon="-72.30043029">
    <tag k="addr:housenumber" v="39"/>
    <tag k="addr:street" v="Blacks Point"/>
    <tag k="addr:state" v="VT"/>
    <tag k="ref:vcgi:esiteid" v="115062"/>
  </node>
  <node id="-344" visible="true" lat="44.59014498" lon="-72.30253401">
    <tag k="addr:housenumber" v="168"/>
    <tag k="addr:street" v="Blacks Point"/>
    <tag k="addr:state" v="VT"/>
    <tag k="ref:vcgi:esiteid" v="115065"/>
  </node>
  <node id="-347" visible="true" lat="44.58984403" lon="-72.33086866">
    <tag k="addr:housenumber" v="28"/>
    <tag k="addr:street" v="Edsall Road"/>
    <tag k="addr:state" v="VT"/>
    <tag k="ref:vcgi:esiteid" v="115068"/>
  </node>
  <node id="-353" visible="true" lat="44.58928447" lon="-72.32584515">
    <tag k="addr:housenumber" v="2036"/>
    <tag k="addr:street" v="Lake Shore Road"/>
    <tag k="addr:state" v="VT"/>
    <tag k="ref:vcgi:esiteid" v="115074"/>
  </node>
  <node id="-354" visible="true" lat="44.58921051" lon="-72.30419921">
    <tag k="addr:housenumber" v="219"/>
    <tag k="addr:street" v="Blacks Point"/>
    <tag k="addr:state" v="VT"/>
    <tag k="ref:vcgi:esiteid" v="115075"/>
  </node>
  <node id="-355" visible="true" lat="44.58917825" lon="-72.29972914">
    <tag k="addr:housenumber" v="763"/>
    <tag k="addr:street" v="Craftsbury Road"/>
    <tag k="addr:state" v="VT"/>
    <tag k="ref:vcgi:esiteid" v="115076"/>
  </node>
  <node id="-356" visible="true" lat="44.58914566" lon="-72.30574035">
    <tag k="addr:housenumber" v="326"/>
    <tag k="addr:street" v="Blacks Point"/>
    <tag k="addr:state" v="VT"/>
    <tag k="ref:vcgi:esiteid" v="115077"/>
  </node>
  <node id="-357" visible="true" lat="44.58890443" lon="-72.29932714">
    <tag k="addr:housenumber" v="761"/>
    <tag k="addr:street" v="Craftsbury Road"/>
    <tag k="addr:state" v="VT"/>
    <tag k="ref:vcgi:esiteid" v="115078"/>
  </node>
  <node id="-358" visible="true" lat="44.58894552" lon="-72.30383795">
    <tag k="addr:housenumber" v="42"/>
    <tag k="addr:street" v="Birch Lane"/>
    <tag k="addr:state" v="VT"/>
    <tag k="ref:vcgi:esiteid" v="115079"/>
  </node>
  <node id="-360" visible="true" lat="44.58891296" lon="-72.33538055">
    <tag k="addr:housenumber" v="214"/>
    <tag k="addr:street" v="Edsall Road"/>
    <tag k="addr:state" v="VT"/>
    <tag k="ref:vcgi:esiteid" v="115081"/>
  </node>
  <node id="-361" visible="true" lat="44.58895643" lon="-72.32512426">
    <tag k="addr:housenumber" v="1976"/>
    <tag k="addr:street" v="Lake Shore Road"/>
    <tag k="addr:state" v="VT"/>
    <tag k="ref:vcgi:esiteid" v="115082"/>
  </node>
  <node id="-362" visible="true" lat="44.58863672" lon="-72.2989729">
    <tag k="addr:housenumber" v="739"/>
    <tag k="addr:street" v="Craftsbury Road"/>
    <tag k="addr:state" v="VT"/>
    <tag k="ref:vcgi:esiteid" v="115083"/>
  </node>
  <node id="-363" visible="true" lat="44.58856582" lon="-72.30162811">
    <tag k="addr:housenumber" v="167"/>
    <tag k="addr:street" v="Blacks Point"/>
    <tag k="addr:state" v="VT"/>
    <tag k="ref:vcgi:esiteid" v="115084"/>
  </node>
  <node id="-364" visible="true" lat="44.58844061" lon="-72.29907011">
    <tag k="addr:housenumber" v="719"/>
    <tag k="addr:street" v="Craftsbury Road"/>
    <tag k="addr:state" v="VT"/>
    <tag k="ref:vcgi:esiteid" v="115085"/>
  </node>
  <node id="-366" visible="true" lat="44.58826065" lon="-72.30292511">
    <tag k="addr:housenumber" v="87"/>
    <tag k="addr:street" v="Birch Lane"/>
    <tag k="addr:state" v="VT"/>
    <tag k="ref:vcgi:esiteid" v="115087"/>
  </node>
  <node id="-367" visible="true" lat="44.58815977" lon="-72.29204473">
    <tag k="addr:housenumber" v="81"/>
    <tag k="addr:street" v="Barr Hill Road"/>
    <tag k="addr:state" v="VT"/>
    <tag k="ref:vcgi:esiteid" v="115088"/>
  </node>
  <node id="-368" visible="true" lat="44.5876412" lon="-72.33766387">
    <tag k="addr:housenumber" v="228"/>
    <tag k="addr:street" v="Edsall Road"/>
    <tag k="addr:state" v="VT"/>
    <tag k="ref:vcgi:esiteid" v="115089"/>
  </node>
  <node id="-369" visible="true" lat="44.58799506" lon="-72.29902274">
    <tag k="addr:housenumber" v="687"/>
    <tag k="addr:street" v="Craftsbury Road"/>
    <tag k="addr:state" v="VT"/>
    <tag k="ref:vcgi:esiteid" v="115090"/>
  </node>
  <node id="-370" visible="true" lat="44.58836345" lon="-72.35805144">
    <tag k="addr:housenumber" v="618"/>
    <tag k="addr:street" v="Eligo Lake Road"/>
    <tag k="addr:state" v="VT"/>
    <tag k="ref:vcgi:esiteid" v="115091"/>
  </node>
  <node id="-372" visible="true" lat="44.58786392" lon="-72.30342864">
    <tag k="addr:housenumber" v="127"/>
    <tag k="addr:street" v="Birch Lane"/>
    <tag k="addr:state" v="VT"/>
    <tag k="ref:vcgi:esiteid" v="115093"/>
  </node>
  <node id="-374" visible="true" lat="44.5874516" lon="-72.29906932">
    <tag k="addr:housenumber" v="643"/>
    <tag k="addr:street" v="Craftsbury Road"/>
    <tag k="addr:state" v="VT"/>
    <tag k="ref:vcgi:esiteid" v="115095"/>
  </node>
  <node id="-375" visible="true" lat="44.58728408" lon="-72.28709411">
    <tag k="addr:housenumber" v="178"/>
    <tag k="addr:street" v="Baker Hill Road"/>
    <tag k="addr:state" v="VT"/>
    <tag k="ref:vcgi:esiteid" v="115096"/>
  </node>
  <node id="-376" visible="true" lat="44.58718834" lon="-72.26915822">
    <tag k="addr:housenumber" v="66"/>
    <tag k="addr:street" v="Town Highway 41"/>
    <tag k="addr:state" v="VT"/>
    <tag k="ref:vcgi:esiteid" v="115097"/>
  </node>
  <node id="-377" visible="true" lat="44.58721139" lon="-72.29906729">
    <tag k="addr:housenumber" v="193"/>
    <tag k="addr:street" v="Cheney Road"/>
    <tag k="addr:state" v="VT"/>
    <tag k="ref:vcgi:esiteid" v="115098"/>
  </node>
  <node id="-378" visible="true" lat="44.58728667" lon="-72.32423097">
    <tag k="addr:housenumber" v="1798"/>
    <tag k="addr:street" v="Lake Shore Road"/>
    <tag k="addr:state" v="VT"/>
    <tag k="ref:vcgi:esiteid" v="115099"/>
  </node>
  <node id="-379" visible="true" lat="44.5872698" lon="-72.33984661">
    <tag k="addr:housenumber" v="416"/>
    <tag k="addr:street" v="Edsall Road"/>
    <tag k="addr:state" v="VT"/>
    <tag k="ref:vcgi:esiteid" v="115100"/>
  </node>
  <node id="-380" visible="true" lat="44.58697134" lon="-72.29915788">
    <tag k="addr:housenumber" v="189"/>
    <tag k="addr:street" v="Cheney Road"/>
    <tag k="addr:state" v="VT"/>
    <tag k="ref:vcgi:esiteid" v="115101"/>
  </node>
  <node id="-381" visible="true" lat="44.58583462" lon="-72.32882429">
    <tag k="addr:housenumber" v="1909"/>
    <tag k="addr:street" v="Lake Shore Road"/>
    <tag k="addr:state" v="VT"/>
    <tag k="ref:vcgi:esiteid" v="115102"/>
  </node>
  <node id="-382" visible="true" lat="44.58668115" lon="-72.32617318">
    <tag k="addr:housenumber" v="1863"/>
    <tag k="addr:street" v="Lake Shore Road"/>
    <tag k="addr:state" v="VT"/>
    <tag k="ref:vcgi:esiteid" v="115104"/>
  </node>
  <node id="-383" visible="true" lat="44.58622494" lon="-72.28461913">
    <tag k="addr:housenumber" v="238"/>
    <tag k="addr:street" v="Baker Hill Road"/>
    <tag k="addr:state" v="VT"/>
    <tag k="ref:vcgi:esiteid" v="115105"/>
  </node>
  <node id="-384" visible="true" lat="44.58673706" lon="-72.29918068">
    <tag k="addr:housenumber" v="164"/>
    <tag k="addr:street" v="Cheney Road"/>
    <tag k="addr:state" v="VT"/>
    <tag k="ref:vcgi:esiteid" v="115106"/>
  </node>
  <node id="-385" visible="true" lat="44.58644885" lon="-72.34939799">
    <tag k="addr:housenumber" v="881"/>
    <tag k="addr:street" v="Overlook Road"/>
    <tag k="addr:state" v="VT"/>
    <tag k="ref:vcgi:esiteid" v="115107"/>
  </node>
  <node id="-386" visible="true" lat="44.58636299" lon="-72.32440752">
    <tag k="addr:housenumber" v="1778"/>
    <tag k="addr:street" v="Lake Shore Road"/>
    <tag k="addr:state" v="VT"/>
    <tag k="ref:vcgi:esiteid" v="115108"/>
  </node>
  <node id="-387" visible="true" lat="44.58625437" lon="-72.29918734">
    <tag k="addr:housenumber" v="147"/>
    <tag k="addr:street" v="Cheney Road"/>
    <tag k="addr:state" v="VT"/>
    <tag k="ref:vcgi:esiteid" v="115109"/>
  </node>
  <node id="-388" visible="true" lat="44.58631599" lon="-72.32360909">
    <tag k="addr:housenumber" v="1716"/>
    <tag k="addr:street" v="Lake Shore Road"/>
    <tag k="addr:state" v="VT"/>
    <tag k="ref:vcgi:esiteid" v="115110"/>
  </node>
  <node id="-389" visible="true" lat="44.58606741" lon="-72.2991952">
    <tag k="addr:housenumber" v="119"/>
    <tag k="addr:street" v="Cheney Road"/>
    <tag k="addr:state" v="VT"/>
    <tag k="ref:vcgi:esiteid" v="115111"/>
  </node>
  <node id="-390" visible="true" lat="44.58589006" lon="-72.2992301">
    <tag k="addr:housenumber" v="115"/>
    <tag k="addr:street" v="Cheney Road"/>
    <tag k="addr:state" v="VT"/>
    <tag k="ref:vcgi:esiteid" v="115112"/>
  </node>
  <node id="-391" visible="true" lat="44.58599297" lon="-72.28986365">
    <tag k="addr:housenumber" v="594"/>
    <tag k="addr:street" v="Lauredon Avenue"/>
    <tag k="addr:state" v="VT"/>
    <tag k="ref:vcgi:esiteid" v="115113"/>
  </node>
  <node id="-392" visible="true" lat="44.5860918" lon="-72.32271684">
    <tag k="addr:housenumber" v="1680"/>
    <tag k="addr:street" v="Lake Shore Road"/>
    <tag k="addr:state" v="VT"/>
    <tag k="ref:vcgi:esiteid" v="115114"/>
  </node>
  <node id="-393" visible="true" lat="44.58591728" lon="-72.32233815">
    <tag k="addr:housenumber" v="1662"/>
    <tag k="addr:street" v="Lake Shore Road"/>
    <tag k="addr:state" v="VT"/>
    <tag k="ref:vcgi:esiteid" v="115115"/>
  </node>
  <node id="-394" visible="true" lat="44.58569732" lon="-72.29922556">
    <tag k="addr:housenumber" v="101"/>
    <tag k="addr:street" v="Cheney Road"/>
    <tag k="addr:state" v="VT"/>
    <tag k="ref:vcgi:esiteid" v="115116"/>
  </node>
  <node id="-395" visible="true" lat="44.58579697" lon="-72.3153941">
    <tag k="addr:housenumber" v="172"/>
    <tag k="addr:street" v="Aspenhurst"/>
    <tag k="addr:state" v="VT"/>
    <tag k="ref:vcgi:esiteid" v="115117"/>
  </node>
  <node id="-396" visible="true" lat="44.58576263" lon="-72.31477611">
    <tag k="addr:housenumber" v="168"/>
    <tag k="addr:street" v="Aspenhurst"/>
    <tag k="addr:state" v="VT"/>
    <tag k="ref:vcgi:esiteid" v="115118"/>
  </node>
  <node id="-397" visible="true" lat="44.58567047" lon="-72.31579589">
    <tag k="addr:housenumber" v="171"/>
    <tag k="addr:street" v="Aspenhurst"/>
    <tag k="addr:state" v="VT"/>
    <tag k="ref:vcgi:esiteid" v="115119"/>
  </node>
  <node id="-398" visible="true" lat="44.58560523" lon="-72.2760412">
    <tag k="addr:housenumber" v="557"/>
    <tag k="addr:street" v="Garvin Hill Road"/>
    <tag k="addr:state" v="VT"/>
    <tag k="ref:vcgi:esiteid" v="115120"/>
  </node>
  <node id="-399" visible="true" lat="44.58561047" lon="-72.3211191">
    <tag k="addr:housenumber" v="1600"/>
    <tag k="addr:street" v="Lake Shore Road"/>
    <tag k="addr:state" v="VT"/>
    <tag k="ref:vcgi:esiteid" v="115121"/>
  </node>
  <node id="-400" visible="true" lat="44.58575487" lon="-72.31737756">
    <tag k="addr:housenumber" v="89"/>
    <tag k="addr:street" v="Eveningside Road"/>
    <tag k="addr:state" v="VT"/>
    <tag k="ref:vcgi:esiteid" v="115122"/>
  </node>
  <node id="-403" visible="true" lat="44.58563129" lon="-72.31780209">
    <tag k="addr:housenumber" v="69"/>
    <tag k="addr:street" v="Eveningside Road"/>
    <tag k="addr:state" v="VT"/>
    <tag k="ref:vcgi:esiteid" v="115125"/>
  </node>
  <node id="-404" visible="true" lat="44.58548355" lon="-72.29130554">
    <tag k="addr:housenumber" v="545"/>
    <tag k="addr:street" v="Lauredon Avenue"/>
    <tag k="addr:state" v="VT"/>
    <tag k="ref:vcgi:esiteid" v="115126"/>
  </node>
  <node id="-405" visible="true" lat="44.58578218" lon="-72.32006501">
    <tag k="addr:housenumber" v="1560"/>
    <tag k="addr:street" v="Lake Shore Road"/>
    <tag k="addr:state" v="VT"/>
    <tag k="ref:vcgi:esiteid" v="115128"/>
  </node>
  <node id="-406" visible="true" lat="44.58544329" lon="-72.31921611">
    <tag k="addr:housenumber" v="1488"/>
    <tag k="addr:street" v="Lake Shore Road"/>
    <tag k="addr:state" v="VT"/>
    <tag k="ref:vcgi:esiteid" v="115129"/>
  </node>
  <node id="-407" visible="true" lat="44.58551685" lon="-72.31824541">
    <tag k="addr:housenumber" v="55"/>
    <tag k="addr:street" v="Eveningside Road"/>
    <tag k="addr:state" v="VT"/>
    <tag k="ref:vcgi:esiteid" v="115130"/>
  </node>
  <node id="-408" visible="true" lat="44.58530507" lon="-72.31887508">
    <tag k="addr:housenumber" v="1486"/>
    <tag k="addr:street" v="Lake Shore Road"/>
    <tag k="addr:state" v="VT"/>
    <tag k="ref:vcgi:esiteid" v="115131"/>
  </node>
  <node id="-409" visible="true" lat="44.58534267" lon="-72.31585914">
    <tag k="addr:housenumber" v="159"/>
    <tag k="addr:street" v="Aspenhurst"/>
    <tag k="addr:state" v="VT"/>
    <tag k="ref:vcgi:esiteid" v="115132"/>
  </node>
  <node id="-410" visible="true" lat="44.58502191" lon="-72.29083278">
    <tag k="addr:housenumber" v="518"/>
    <tag k="addr:street" v="Lauredon Avenue"/>
    <tag k="addr:state" v="VT"/>
    <tag k="ref:vcgi:esiteid" v="115133"/>
  </node>
  <node id="-411" visible="true" lat="44.58512115" lon="-72.32246398">
    <tag k="addr:housenumber" v="1651"/>
    <tag k="addr:street" v="Lake Shore Road"/>
    <tag k="addr:state" v="VT"/>
    <tag k="ref:vcgi:esiteid" v="115134"/>
  </node>
  <node id="-413" visible="true" lat="44.585028" lon="-72.29868372">
    <tag k="addr:housenumber" v="98"/>
    <tag k="addr:street" v="North Winnimere Lane"/>
    <tag k="addr:state" v="VT"/>
    <tag k="ref:vcgi:esiteid" v="115136"/>
  </node>
  <node id="-415" visible="true" lat="44.58506329" lon="-72.31619385">
    <tag k="addr:housenumber" v="127"/>
    <tag k="addr:street" v="Aspenhurst"/>
    <tag k="addr:state" v="VT"/>
    <tag k="ref:vcgi:esiteid" v="115138"/>
  </node>
  <node id="-416" visible="true" lat="44.58501026" lon="-72.31713912">
    <tag k="addr:housenumber" v="12"/>
    <tag k="addr:street" v="Eveningside Road"/>
    <tag k="addr:state" v="VT"/>
    <tag k="ref:vcgi:esiteid" v="115139"/>
  </node>
  <node id="-417" visible="true" lat="44.58496944" lon="-72.32110298">
    <tag k="addr:housenumber" v="1569"/>
    <tag k="addr:street" v="Lake Shore Road"/>
    <tag k="addr:state" v="VT"/>
    <tag k="ref:vcgi:esiteid" v="115140"/>
  </node>
  <node id="-418" visible="true" lat="44.58474029" lon="-72.31638004">
    <tag k="addr:housenumber" v="117"/>
    <tag k="addr:street" v="Aspenhurst"/>
    <tag k="addr:state" v="VT"/>
    <tag k="ref:vcgi:esiteid" v="115141"/>
  </node>
  <node id="-419" visible="true" lat="44.58473403" lon="-72.3150881">
    <tag k="addr:housenumber" v="126"/>
    <tag k="addr:street" v="Aspenhurst"/>
    <tag k="addr:state" v="VT"/>
    <tag k="ref:vcgi:esiteid" v="115142"/>
  </node>
  <node id="-421" visible="true" lat="44.58471654" lon="-72.31691694">
    <tag k="addr:housenumber" v="39"/>
    <tag k="addr:street" v="Aspenhurst"/>
    <tag k="addr:state" v="VT"/>
    <tag k="ref:vcgi:esiteid" v="115144"/>
  </node>
  <node id="-422" visible="true" lat="44.58438427" lon="-72.31900666">
    <tag k="addr:housenumber" v="1481"/>
    <tag k="addr:street" v="Lake Shore Road"/>
    <tag k="addr:state" v="VT"/>
    <tag k="ref:vcgi:esiteid" v="115145"/>
  </node>
  <node id="-423" visible="true" lat="44.58449313" lon="-72.29919658">
    <tag k="addr:housenumber" v="12"/>
    <tag k="addr:street" v="Winnimere Circle"/>
    <tag k="addr:state" v="VT"/>
    <tag k="ref:vcgi:esiteid" v="115146"/>
  </node>
  <node id="-424" visible="true" lat="44.58441005" lon="-72.31566749">
    <tag k="addr:housenumber" v="96"/>
    <tag k="addr:street" v="Aspenhurst"/>
    <tag k="addr:state" v="VT"/>
    <tag k="ref:vcgi:esiteid" v="115147"/>
  </node>
  <node id="-425" visible="true" lat="44.58444324" lon="-72.31741044">
    <tag k="addr:housenumber" v="21"/>
    <tag k="addr:street" v="Aspenhurst"/>
    <tag k="addr:state" v="VT"/>
    <tag k="ref:vcgi:esiteid" v="115148"/>
  </node>
  <node id="-426" visible="true" lat="44.58431551" lon="-72.29947881">
    <tag k="addr:housenumber" v="20"/>
    <tag k="addr:street" v="Winnimere Circle"/>
    <tag k="addr:state" v="VT"/>
    <tag k="ref:vcgi:esiteid" v="115149"/>
  </node>
  <node id="-428" visible="true" lat="44.58416959" lon="-72.29947712">
    <tag k="addr:housenumber" v="24"/>
    <tag k="addr:street" v="Winnimere Circle"/>
    <tag k="addr:state" v="VT"/>
    <tag k="ref:vcgi:esiteid" v="115151"/>
  </node>
  <node id="-429" visible="true" lat="44.58411104" lon="-72.31601019">
    <tag k="addr:housenumber" v="72"/>
    <tag k="addr:street" v="Aspenhurst"/>
    <tag k="addr:state" v="VT"/>
    <tag k="ref:vcgi:esiteid" v="115152"/>
  </node>
  <node id="-430" visible="true" lat="44.58396961" lon="-72.31664241">
    <tag k="addr:housenumber" v="56"/>
    <tag k="addr:street" v="Aspenhurst"/>
    <tag k="addr:state" v="VT"/>
    <tag k="ref:vcgi:esiteid" v="115153"/>
  </node>
  <node id="-431" visible="true" lat="44.58398021" lon="-72.29946004">
    <tag k="addr:housenumber" v="36"/>
    <tag k="addr:street" v="Winnimere Circle"/>
    <tag k="addr:state" v="VT"/>
    <tag k="ref:vcgi:esiteid" v="115154"/>
  </node>
  <node id="-432" visible="true" lat="44.58396203" lon="-72.29220625">
    <tag k="addr:housenumber" v="437"/>
    <tag k="addr:street" v="Lauredon Avenue"/>
    <tag k="addr:state" v="VT"/>
    <tag k="ref:vcgi:esiteid" v="115155"/>
  </node>
  <node id="-433" visible="true" lat="44.58388834" lon="-72.31777846">
    <tag k="addr:housenumber" v="1389"/>
    <tag k="addr:street" v="Lake Shore Road"/>
    <tag k="addr:state" v="VT"/>
    <tag k="ref:vcgi:esiteid" v="115156"/>
  </node>
  <node id="-434" visible="true" lat="44.58388905" lon="-72.29923128">
    <tag k="addr:housenumber" v="40"/>
    <tag k="addr:street" v="Winnimere Circle"/>
    <tag k="addr:state" v="VT"/>
    <tag k="ref:vcgi:esiteid" v="115157"/>
  </node>
  <node id="-436" visible="true" lat="44.58366394" lon="-72.29322051">
    <tag k="addr:housenumber" v="401"/>
    <tag k="addr:street" v="Lauredon Avenue"/>
    <tag k="addr:state" v="VT"/>
    <tag k="ref:vcgi:esiteid" v="115160"/>
  </node>
  <node id="-437" visible="true" lat="44.58365174" lon="-72.29929539">
    <tag k="addr:housenumber" v="66"/>
    <tag k="addr:street" v="Winnimere Lane"/>
    <tag k="addr:state" v="VT"/>
    <tag k="ref:vcgi:esiteid" v="115161"/>
  </node>
  <node id="-438" visible="true" lat="44.5833409" lon="-72.29942996">
    <tag k="addr:housenumber" v="329"/>
    <tag k="addr:street" v="Craftsbury Road"/>
    <tag k="addr:state" v="VT"/>
    <tag k="ref:vcgi:esiteid" v="115162"/>
  </node>
  <node id="-439" visible="true" lat="44.58319062" lon="-72.29173943">
    <tag k="addr:housenumber" v="394"/>
    <tag k="addr:street" v="Lauredon Avenue"/>
    <tag k="addr:state" v="VT"/>
    <tag k="ref:vcgi:esiteid" v="115163"/>
  </node>
  <node id="-440" visible="true" lat="44.583093" lon="-72.29948946">
    <tag k="addr:housenumber" v="137"/>
    <tag k="addr:street" v="High Pines"/>
    <tag k="addr:state" v="VT"/>
    <tag k="ref:vcgi:esiteid" v="115164"/>
  </node>
  <node id="-441" visible="true" lat="44.58284017" lon="-72.31653363">
    <tag k="addr:housenumber" v="1316"/>
    <tag k="addr:street" v="Lake Shore Road"/>
    <tag k="addr:state" v="VT"/>
    <tag k="ref:vcgi:esiteid" v="115165"/>
  </node>
  <node id="-442" visible="true" lat="44.58293151" lon="-72.29953002">
    <tag k="addr:housenumber" v="135"/>
    <tag k="addr:street" v="High Pines"/>
    <tag k="addr:state" v="VT"/>
    <tag k="ref:vcgi:esiteid" v="115166"/>
  </node>
  <node id="-443" visible="true" lat="44.58263778" lon="-72.29956817">
    <tag k="addr:housenumber" v="133"/>
    <tag k="addr:street" v="High Pines"/>
    <tag k="addr:state" v="VT"/>
    <tag k="ref:vcgi:esiteid" v="115167"/>
  </node>
  <node id="-446" visible="true" lat="44.58228904" lon="-72.29284675">
    <tag k="addr:housenumber" v="315"/>
    <tag k="addr:street" v="Lauredon Avenue"/>
    <tag k="addr:state" v="VT"/>
    <tag k="ref:vcgi:esiteid" v="115170"/>
  </node>
  <node id="-449" visible="true" lat="44.58180702" lon="-72.29889869">
    <tag k="addr:housenumber" v="70"/>
    <tag k="addr:street" v="Lazy Lane"/>
    <tag k="addr:state" v="VT"/>
    <tag k="ref:vcgi:esiteid" v="115173"/>
  </node>
  <node id="-451" visible="true" lat="44.58143012" lon="-72.29268158">
    <tag k="addr:housenumber" v="264"/>
    <tag k="addr:street" v="Lauredon Avenue"/>
    <tag k="addr:state" v="VT"/>
    <tag k="ref:vcgi:esiteid" v="115175"/>
  </node>
  <node id="-452" visible="true" lat="44.58152906" lon="-72.29856569">
    <tag k="addr:housenumber" v="94"/>
    <tag k="addr:street" v="Lazy Lane"/>
    <tag k="addr:state" v="VT"/>
    <tag k="ref:vcgi:esiteid" v="115176"/>
  </node>
  <node id="-455" visible="true" lat="44.58125687" lon="-72.36428833">
    <tag k="addr:housenumber" v="99"/>
    <tag k="addr:street" v="Eligo Lake Road"/>
    <tag k="addr:state" v="VT"/>
    <tag k="ref:vcgi:esiteid" v="115179"/>
  </node>
  <node id="-456" visible="true" lat="44.58112467" lon="-72.29779829">
    <tag k="addr:housenumber" v="129"/>
    <tag k="addr:street" v="Lazy Lane"/>
    <tag k="addr:state" v="VT"/>
    <tag k="ref:vcgi:esiteid" v="115180"/>
  </node>
  <node id="-457" visible="true" lat="44.58090043" lon="-72.29306837">
    <tag k="addr:housenumber" v="228"/>
    <tag k="addr:street" v="Lauredon Avenue"/>
    <tag k="addr:state" v="VT"/>
    <tag k="ref:vcgi:esiteid" v="115181"/>
  </node>
  <node id="-458" visible="true" lat="44.58083571" lon="-72.29862224">
    <tag k="addr:housenumber" v="128"/>
    <tag k="addr:street" v="Lazy Lane"/>
    <tag k="addr:state" v="VT"/>
    <tag k="ref:vcgi:esiteid" v="115182"/>
  </node>
  <node id="-459" visible="true" lat="44.58081884" lon="-72.29399644">
    <tag k="addr:housenumber" v="189"/>
    <tag k="addr:street" v="Lauredon Avenue"/>
    <tag k="addr:state" v="VT"/>
    <tag k="ref:vcgi:esiteid" v="115183"/>
  </node>
  <node id="-461" visible="true" lat="44.58060581" lon="-72.28690703">
    <!-- match: "47 Maggies Pond Road, , VT"  ignoring street punctuation to "47 Maggie's Pond Road, Greensboro, VT" -->
    <tag k="addr:housenumber" v="47"/>
    <tag k="addr:street" v="Maggies Pond Road"/>
    <tag k="addr:state" v="VT"/>
    <tag k="ref:vcgi:esiteid" v="115185"/>
  </node>
  <node id="-462" visible="true" lat="44.58054409" lon="-72.29832481">
    <tag k="addr:housenumber" v="155"/>
    <tag k="addr:street" v="Craftsbury Road"/>
    <tag k="addr:state" v="VT"/>
    <tag k="ref:vcgi:esiteid" v="115186"/>
  </node>
  <node id="-463" visible="true" lat="44.58038711" lon="-72.34230804">
    <tag k="addr:housenumber" v="354"/>
    <tag k="addr:street" v="Overlook Road"/>
    <tag k="addr:state" v="VT"/>
    <tag k="ref:vcgi:esiteid" v="115187"/>
  </node>
  <node id="-464" visible="true" lat="44.58037362" lon="-72.31639681">
    <tag k="addr:housenumber" v="1104"/>
    <tag k="addr:street" v="Lake Shore Road"/>
    <tag k="addr:state" v="VT"/>
    <tag k="ref:vcgi:esiteid" v="115188"/>
  </node>
  <node id="-465" visible="true" lat="44.5802536" lon="-72.29839324">
    <tag k="addr:housenumber" v="135"/>
    <tag k="addr:street" v="Craftsbury Road"/>
    <tag k="addr:state" v="VT"/>
    <tag k="ref:vcgi:esiteid" v="115189"/>
  </node>
  <node id="-466" visible="true" lat="44.58019965" lon="-72.29721983">
    <tag k="addr:housenumber" v="139"/>
    <tag k="addr:street" v="Craftsbury Road"/>
    <tag k="addr:state" v="VT"/>
    <tag k="ref:vcgi:esiteid" v="115190"/>
  </node>
  <node id="-467" visible="true" lat="44.58002069" lon="-72.2935644">
    <tag k="addr:housenumber" v="160"/>
    <tag k="addr:street" v="Lauredon Avenue"/>
    <tag k="addr:state" v="VT"/>
    <tag k="ref:vcgi:esiteid" v="115191"/>
  </node>
  <node id="-468" visible="true" lat="44.57998021" lon="-72.28461705">
    <tag k="addr:housenumber" v="563"/>
    <tag k="addr:street" v="Cemetery Ridge"/>
    <tag k="addr:state" v="VT"/>
    <tag k="ref:vcgi:esiteid" v="115192"/>
  </node>
  <node id="-469" visible="true" lat="44.57988355" lon="-72.29683379">
    <tag k="addr:housenumber" v="113"/>
    <tag k="addr:street" v="Craftsbury Road"/>
    <tag k="addr:state" v="VT"/>
    <tag k="ref:vcgi:esiteid" v="115195"/>
  </node>
  <node id="-470" visible="true" lat="44.57963224" lon="-72.2896175">
    <tag k="addr:housenumber" v="329"/>
    <tag k="addr:street" v="Cemetery Ridge"/>
    <tag k="addr:state" v="VT"/>
    <tag k="ref:vcgi:esiteid" v="115196"/>
  </node>
  <node id="-471" visible="true" lat="44.57965675" lon="-72.29817036">
    <tag k="addr:housenumber" v="167"/>
    <tag k="addr:street" v="Church Lane"/>
    <tag k="addr:state" v="VT"/>
    <tag k="ref:vcgi:esiteid" v="115197"/>
  </node>
  <node id="-472" visible="true" lat="44.57963562" lon="-72.29750823">
    <tag k="addr:housenumber" v="168"/>
    <tag k="addr:street" v="Church Lane"/>
    <tag k="addr:state" v="VT"/>
    <tag k="ref:vcgi:esiteid" v="115198"/>
  </node>
  <node id="-473" visible="true" lat="44.57958984" lon="-72.29209136">
    <tag k="addr:housenumber" v="165"/>
    <tag k="addr:street" v="Cemetery Ridge"/>
    <tag k="addr:state" v="VT"/>
    <tag k="ref:vcgi:esiteid" v="115199"/>
  </node>
  <node id="-474" visible="true" lat="44.57943974" lon="-72.29691619">
    <tag k="addr:housenumber" v="93"/>
    <tag k="addr:street" v="Craftsbury Road"/>
    <tag k="addr:state" v="VT"/>
    <tag k="ref:vcgi:esiteid" v="115200"/>
  </node>
  <node id="-475" visible="true" lat="44.57937285" lon="-72.29526424">
    <tag k="addr:housenumber" v="82"/>
    <tag k="addr:street" v="Craftsbury Road"/>
    <tag k="addr:state" v="VT"/>
    <tag k="ref:vcgi:esiteid" v="115201"/>
  </node>
  <node id="-477" visible="true" lat="44.57960598" lon="-72.31606247">
    <tag k="addr:housenumber" v="45"/>
    <tag k="addr:street" v="Granite Street"/>
    <tag k="addr:state" v="VT"/>
    <tag k="ref:vcgi:esiteid" v="115203"/>
  </node>
  <node id="-478" visible="true" lat="44.57919367" lon="-72.2946093">
    <tag k="addr:housenumber" v="72"/>
    <tag k="addr:street" v="Lauredon Avenue"/>
    <tag k="addr:state" v="VT"/>
    <tag k="ref:vcgi:esiteid" v="115205"/>
  </node>
  <node id="-481" visible="true" lat="44.57841125" lon="-72.31438125">
    <tag k="addr:housenumber" v="106"/>
    <tag k="addr:street" v="Blockhouse Hill Road"/>
    <tag k="addr:state" v="VT"/>
    <tag k="ref:vcgi:esiteid" v="115209"/>
  </node>
  <node id="-482" visible="true" lat="44.57837399" lon="-72.28552549">
    <tag k="addr:housenumber" v="604"/>
    <tag k="addr:street" v="Cemetery Ridge"/>
    <tag k="addr:state" v="VT"/>
    <tag k="ref:vcgi:esiteid" v="115210"/>
  </node>
  <node id="-483" visible="true" lat="44.57836131" lon="-72.31365216">
    <tag k="addr:housenumber" v="131"/>
    <tag k="addr:street" v="Blockhouse Hill Road"/>
    <tag k="addr:state" v="VT"/>
    <tag k="ref:vcgi:esiteid" v="115211"/>
  </node>
  <node id="-484" visible="true" lat="44.57842068" lon="-72.29599257">
    <tag k="addr:housenumber" v="9"/>
    <tag k="addr:street" v="Craftsbury Road"/>
    <tag k="addr:state" v="VT"/>
    <tag k="ref:vcgi:esiteid" v="115212"/>
  </node>
  <node id="-485" visible="true" lat="44.57835769" lon="-72.2814331">
    <tag k="addr:housenumber" v="789"/>
    <tag k="addr:street" v="Cemetery Ridge"/>
    <tag k="addr:state" v="VT"/>
    <tag k="ref:vcgi:esiteid" v="115213"/>
  </node>
  <node id="-486" visible="true" lat="44.5783255" lon="-72.28451787">
    <tag k="addr:housenumber" v="644"/>
    <tag k="addr:street" v="Cemetery Ridge"/>
    <tag k="addr:state" v="VT"/>
    <tag k="ref:vcgi:esiteid" v="115214"/>
  </node>
  <node id="-488" visible="true" lat="44.57801795" lon="-72.29621715">
    <tag k="addr:housenumber" v="165"/>
    <tag k="addr:street" v="Wilson Street"/>
    <tag k="addr:state" v="VT"/>
    <tag k="ref:vcgi:esiteid" v="115216"/>
  </node>
  <node id="-489" visible="true" lat="44.57793056" lon="-72.2908627">
    <tag k="addr:housenumber" v="224"/>
    <tag k="addr:street" v="Cemetery Ridge"/>
    <tag k="addr:state" v="VT"/>
    <tag k="ref:vcgi:esiteid" v="115217"/>
  </node>
  <node id="-490" visible="true" lat="44.5779006" lon="-72.31429936">
    <tag k="addr:housenumber" v="166"/>
    <tag k="addr:street" v="Blockhouse Hill Road"/>
    <tag k="addr:state" v="VT"/>
    <tag k="ref:vcgi:esiteid" v="115218"/>
  </node>
  <node id="-492" visible="true" lat="44.57790257" lon="-72.31360998">
    <tag k="addr:housenumber" v="177"/>
    <tag k="addr:street" v="Blockhouse Hill Road"/>
    <tag k="addr:state" v="VT"/>
    <tag k="ref:vcgi:esiteid" v="115220"/>
  </node>
  <node id="-493" visible="true" lat="44.57767496" lon="-72.2963452">
    <tag k="addr:housenumber" v="129"/>
    <tag k="addr:street" v="Wilson Street"/>
    <tag k="addr:state" v="VT"/>
    <tag k="ref:vcgi:esiteid" v="115221"/>
  </node>
  <node id="-496" visible="true" lat="44.57760393" lon="-72.31332999">
    <tag k="addr:housenumber" v="197"/>
    <tag k="addr:street" v="Blockhouse Hill Road"/>
    <tag k="addr:state" v="VT"/>
    <tag k="ref:vcgi:esiteid" v="115224"/>
  </node>
  <node id="-497" visible="true" lat="44.57735902" lon="-72.31413621">
    <tag k="addr:housenumber" v="212"/>
    <tag k="addr:street" v="Blockhouse Hill Road"/>
    <tag k="addr:state" v="VT"/>
    <tag k="ref:vcgi:esiteid" v="115226"/>
  </node>
  <node id="-498" visible="true" lat="44.57726154" lon="-72.29568104">
    <tag k="addr:housenumber" v="96"/>
    <tag k="addr:street" v="Wilson Street"/>
    <tag k="addr:state" v="VT"/>
    <tag k="ref:vcgi:esiteid" v="115227"/>
  </node>
  <node id="-499" visible="true" lat="44.57718658" lon="-72.31334686">
    <tag k="addr:housenumber" v="231"/>
    <tag k="addr:street" v="Blockhouse Hill Road"/>
    <tag k="addr:state" v="VT"/>
    <tag k="ref:vcgi:esiteid" v="115228"/>
  </node>
  <node id="-500" visible="true" lat="44.57716778" lon="-72.29639047">
    <tag k="addr:housenumber" v="83"/>
    <tag k="addr:street" v="Wilson Street"/>
    <tag k="addr:state" v="VT"/>
    <tag k="ref:vcgi:esiteid" v="115229"/>
  </node>
  <node id="-501" visible="true" lat="44.5770987" lon="-72.31316337">
    <tag k="addr:housenumber" v="233"/>
    <tag k="addr:street" v="Blockhouse Hill Road"/>
    <tag k="addr:state" v="VT"/>
    <tag k="ref:vcgi:esiteid" v="115230"/>
  </node>
  <node id="-502" visible="true" lat="44.57706806" lon="-72.31408324">
    <tag k="addr:housenumber" v="230"/>
    <tag k="addr:street" v="Blockhouse Hill Road"/>
    <tag k="addr:state" v="VT"/>
    <tag k="ref:vcgi:esiteid" v="115231"/>
  </node>
  <node id="-503" visible="true" lat="44.57688157" lon="-72.29576547">
    <tag k="addr:housenumber" v="70"/>
    <tag k="addr:street" v="Wilson Street"/>
    <tag k="addr:state" v="VT"/>
    <tag k="ref:vcgi:esiteid" v="115232"/>
  </node>
  <node id="-504" visible="true" lat="44.57674408" lon="-72.27630615">
    <tag k="addr:housenumber" v="240"/>
    <tag k="addr:street" v="Robinson Road"/>
    <tag k="addr:state" v="VT"/>
    <tag k="ref:vcgi:esiteid" v="115233"/>
  </node>
  <node id="-505" visible="true" lat="44.57678829" lon="-72.29303221">
    <tag k="addr:housenumber" v="83"/>
    <tag k="addr:street" v="Cemetery Ridge"/>
    <tag k="addr:state" v="VT"/>
    <tag k="ref:vcgi:esiteid" v="115234"/>
  </node>
  <node id="-506" visible="true" lat="44.57668854" lon="-72.29639469">
    <tag k="addr:housenumber" v="53"/>
    <tag k="addr:street" v="Wilson Street"/>
    <tag k="addr:state" v="VT"/>
    <tag k="ref:vcgi:esiteid" v="115235"/>
  </node>
  <node id="-509" visible="true" lat="44.57655577" lon="-72.29336827">
    <tag k="addr:housenumber" v="73"/>
    <tag k="addr:street" v="Cemetery Ridge"/>
    <tag k="addr:state" v="VT"/>
    <tag k="ref:vcgi:esiteid" v="115238"/>
  </node>
  <node id="-510" visible="true" lat="44.57652313" lon="-72.29681928">
    <tag k="addr:housenumber" v="23"/>
    <tag k="addr:street" v="Wilson Street"/>
    <tag k="addr:state" v="VT"/>
    <tag k="ref:vcgi:esiteid" v="115239"/>
  </node>
  <node id="-511" visible="true" lat="44.57649745" lon="-72.29573911">
    <tag k="addr:housenumber" v="42"/>
    <tag k="addr:street" v="Wilson Street"/>
    <tag k="addr:state" v="VT"/>
    <tag k="ref:vcgi:esiteid" v="115240"/>
  </node>
  <node id="-512" visible="true" lat="44.5764266" lon="-72.29355899">
    <tag k="addr:housenumber" v="53"/>
    <tag k="addr:street" v="Cemetery Ridge"/>
    <tag k="addr:state" v="VT"/>
    <tag k="ref:vcgi:esiteid" v="115241"/>
  </node>
  <node id="-513" visible="true" lat="44.57649525" lon="-72.29412912">
    <tag k="addr:housenumber" v="5"/>
    <tag k="addr:street" v="Cemetery Ridge"/>
    <tag k="addr:state" v="VT"/>
    <tag k="ref:vcgi:esiteid" v="115242"/>
  </node>
  <node id="-514" visible="true" lat="44.57635987" lon="-72.29630465">
    <tag k="addr:housenumber" v="33"/>
    <tag k="addr:street" v="Wilson Street"/>
    <tag k="addr:state" v="VT"/>
    <tag k="ref:vcgi:esiteid" v="115243"/>
  </node>
  <node id="-515" visible="true" lat="44.5761789" lon="-72.29695898">
    <tag k="addr:housenumber" v="62"/>
    <tag k="addr:street" v="Beach Road"/>
    <tag k="addr:state" v="VT"/>
    <tag k="ref:vcgi:esiteid" v="115244"/>
  </node>
  <node id="-516" visible="true" lat="44.57612319" lon="-72.29458816">
    <tag k="addr:housenumber" v="61"/>
    <tag k="addr:street" v="East Street"/>
    <tag k="addr:state" v="VT"/>
    <tag k="ref:vcgi:esiteid" v="115246"/>
  </node>
  <node id="-517" visible="true" lat="44.57608813" lon="-72.29490959">
    <tag k="addr:housenumber" v="43"/>
    <tag k="addr:street" v="East Street"/>
    <tag k="addr:state" v="VT"/>
    <tag k="ref:vcgi:esiteid" v="115247"/>
  </node>
  <node id="-519" visible="true" lat="44.57589648" lon="-72.29405918">
    <tag k="addr:housenumber" v="12"/>
    <tag k="addr:street" v="Cemetery Ridge"/>
    <tag k="addr:state" v="VT"/>
    <tag k="ref:vcgi:esiteid" v="115249"/>
  </node>
  <node id="-521" visible="true" lat="44.57598938" lon="-72.29325512">
    <tag k="addr:housenumber" v="52"/>
    <tag k="addr:street" v="Cemetery Ridge"/>
    <tag k="addr:state" v="VT"/>
    <tag k="ref:vcgi:esiteid" v="115251"/>
  </node>
  <node id="-522" visible="true" lat="44.57583047" lon="-72.29474984">
    <tag k="addr:housenumber" v="60"/>
    <tag k="addr:street" v="East Street"/>
    <tag k="addr:state" v="VT"/>
    <tag k="ref:vcgi:esiteid" v="115253"/>
  </node>
  <node id="-524" visible="true" lat="44.57590103" lon="-72.29656662">
    <tag k="addr:housenumber" v="38"/>
    <tag k="addr:street" v="Beach Road"/>
    <tag k="addr:state" v="VT"/>
    <tag k="ref:vcgi:esiteid" v="115255"/>
  </node>
  <node id="-525" visible="true" lat="44.57565984" lon="-72.29454547">
    <tag k="addr:housenumber" v="2637"/>
    <tag k="addr:street" v="The Bend Road"/>
    <tag k="addr:state" v="VT"/>
    <tag k="ref:vcgi:esiteid" v="115256"/>
  </node>
  <node id="-526" visible="true" lat="44.57589834" lon="-72.29873423">
    <tag k="addr:housenumber" v="130"/>
    <tag k="addr:street" v="Hussey Lane"/>
    <tag k="addr:state" v="VT"/>
    <tag k="ref:vcgi:esiteid" v="115257"/>
  </node>
  <node id="-527" visible="true" lat="44.5755916" lon="-72.29558305">
    <tag k="addr:housenumber" v="7"/>
    <tag k="addr:street" v="Breezy Avenue"/>
    <tag k="addr:state" v="VT"/>
    <tag k="ref:vcgi:esiteid" v="115258"/>
  </node>
  <node id="-528" visible="true" lat="44.57572385" lon="-72.29893415">
    <tag k="addr:housenumber" v="131"/>
    <tag k="addr:street" v="Hussey Lane"/>
    <tag k="addr:state" v="VT"/>
    <tag k="ref:vcgi:esiteid" v="115259"/>
  </node>
  <node id="-529" visible="true" lat="44.57575488" lon="-72.31181654">
    <tag k="addr:housenumber" v="202"/>
    <tag k="addr:street" v="Edgewood Lane"/>
    <tag k="addr:state" v="VT"/>
    <tag k="ref:vcgi:esiteid" v="115260"/>
  </node>
  <node id="-530" visible="true" lat="44.57574156" lon="-72.29595781">
    <tag k="addr:housenumber" v="14"/>
    <tag k="addr:street" v="Breezy Avenue"/>
    <tag k="addr:state" v="VT"/>
    <tag k="ref:vcgi:esiteid" v="115261"/>
  </node>
  <node id="-531" visible="true" lat="44.57569326" lon="-72.29396508">
    <tag k="addr:housenumber" v="2622"/>
    <tag k="addr:street" v="The Bend Road"/>
    <tag k="addr:state" v="VT"/>
    <tag k="ref:vcgi:esiteid" v="115262"/>
  </node>
  <node id="-532" visible="true" lat="44.57560049" lon="-72.29875338">
    <tag k="addr:housenumber" v="127"/>
    <tag k="addr:street" v="Hussey Lane"/>
    <tag k="addr:state" v="VT"/>
    <tag k="ref:vcgi:esiteid" v="115263"/>
  </node>
  <node id="-533" visible="true" lat="44.57535452" lon="-72.2943028">
    <tag k="addr:housenumber" v="2621"/>
    <tag k="addr:street" v="The Bend Road"/>
    <tag k="addr:state" v="VT"/>
    <tag k="ref:vcgi:esiteid" v="115266"/>
  </node>
  <node id="-534" visible="true" lat="44.575428" lon="-72.299263">
    <tag k="addr:housenumber" v="107"/>
    <tag k="addr:street" v="Hussey Lane"/>
    <tag k="addr:state" v="VT"/>
    <tag k="ref:vcgi:esiteid" v="115267"/>
  </node>
  <node id="-535" visible="true" lat="44.57538137" lon="-72.29568446">
    <tag k="addr:housenumber" v="29"/>
    <tag k="addr:street" v="Breezy Avenue"/>
    <tag k="addr:state" v="VT"/>
    <tag k="ref:vcgi:esiteid" v="115268"/>
  </node>
  <node id="-536" visible="true" lat="44.57536526" lon="-72.31134051">
    <tag k="addr:housenumber" v="178"/>
    <tag k="addr:street" v="Edgewood Lane"/>
    <tag k="addr:state" v="VT"/>
    <tag k="ref:vcgi:esiteid" v="115269"/>
  </node>
  <node id="-537" visible="true" lat="44.57541702" lon="-72.29665262">
    <tag k="addr:housenumber" v="48"/>
    <tag k="addr:street" v="Breezy Avenue"/>
    <tag k="addr:state" v="VT"/>
    <tag k="ref:vcgi:esiteid" v="115270"/>
  </node>
  <node id="-538" visible="true" lat="44.57508346" lon="-72.31210817">
    <tag k="addr:housenumber" v="155"/>
    <tag k="addr:street" v="Edgewood Lane"/>
    <tag k="addr:state" v="VT"/>
    <tag k="ref:vcgi:esiteid" v="115271"/>
  </node>
  <node id="-539" visible="true" lat="44.57521478" lon="-72.31107231">
    <tag k="addr:housenumber" v="7"/>
    <tag k="addr:street" v="East Edgewood Lane"/>
    <tag k="addr:state" v="VT"/>
    <tag k="ref:vcgi:esiteid" v="115272"/>
  </node>
  <node id="-540" visible="true" lat="44.57509713" lon="-72.29650295">
    <tag k="addr:housenumber" v="56"/>
    <tag k="addr:street" v="Breezy Avenue"/>
    <tag k="addr:state" v="VT"/>
    <tag k="ref:vcgi:esiteid" v="115273"/>
  </node>
  <node id="-542" visible="true" lat="44.57501217" lon="-72.29592325">
    <tag k="addr:housenumber" v="53"/>
    <tag k="addr:street" v="Breezy Avenue"/>
    <tag k="addr:state" v="VT"/>
    <tag k="ref:vcgi:esiteid" v="115275"/>
  </node>
  <node id="-544" visible="true" lat="44.57489407" lon="-72.29662858">
    <tag k="addr:housenumber" v="82"/>
    <tag k="addr:street" v="Breezy Avenue"/>
    <tag k="addr:state" v="VT"/>
    <tag k="ref:vcgi:esiteid" v="115277"/>
  </node>
  <node id="-545" visible="true" lat="44.57487429" lon="-72.31045629">
    <tag k="addr:housenumber" v="70"/>
    <tag k="addr:street" v="East Edgewood Lane"/>
    <tag k="addr:state" v="VT"/>
    <tag k="ref:vcgi:esiteid" v="115278"/>
  </node>
  <node id="-546" visible="true" lat="44.57465336" lon="-72.29614686">
    <tag k="addr:housenumber" v="83"/>
    <tag k="addr:street" v="Breezy Avenue"/>
    <tag k="addr:state" v="VT"/>
    <tag k="ref:vcgi:esiteid" v="115280"/>
  </node>
  <node id="-547" visible="true" lat="44.57448189" lon="-72.29707372">
    <tag k="addr:housenumber" v="102"/>
    <tag k="addr:street" v="Breezy Avenue"/>
    <tag k="addr:state" v="VT"/>
    <tag k="ref:vcgi:esiteid" v="115281"/>
  </node>
  <node id="-548" visible="true" lat="44.57454299" lon="-72.29628753">
    <tag k="addr:housenumber" v="91"/>
    <tag k="addr:street" v="Breezy Avenue"/>
    <tag k="addr:state" v="VT"/>
    <tag k="ref:vcgi:esiteid" v="115282"/>
  </node>
  <node id="-549" visible="true" lat="44.574579" lon="-72.30989413">
    <tag k="addr:housenumber" v="114"/>
    <tag k="addr:street" v="Ilas Road"/>
    <tag k="addr:state" v="VT"/>
    <tag k="ref:vcgi:esiteid" v="115283"/>
  </node>
  <node id="-550" visible="true" lat="44.57457542" lon="-72.31031267">
    <tag k="addr:housenumber" v="126"/>
    <tag k="addr:street" v="Ilas Road"/>
    <tag k="addr:state" v="VT"/>
    <tag k="ref:vcgi:esiteid" v="115284"/>
  </node>
  <node id="-551" visible="true" lat="44.57437896" lon="-72.2964096">
    <tag k="addr:housenumber" v="103"/>
    <tag k="addr:street" v="Breezy Avenue"/>
    <tag k="addr:state" v="VT"/>
    <tag k="ref:vcgi:esiteid" v="115285"/>
  </node>
  <node id="-553" visible="true" lat="44.57428427" lon="-72.30910614">
    <tag k="addr:housenumber" v="74"/>
    <tag k="addr:street" v="North Randolph Road"/>
    <tag k="addr:state" v="VT"/>
    <tag k="ref:vcgi:esiteid" v="115287"/>
  </node>
  <node id="-554" visible="true" lat="44.57413199" lon="-72.29716852">
    <tag k="addr:housenumber" v="136"/>
    <tag k="addr:street" v="Breezy Avenue"/>
    <tag k="addr:state" v="VT"/>
    <tag k="ref:vcgi:esiteid" v="115288"/>
  </node>
  <node id="-555" visible="true" lat="44.57409286" lon="-72.30082702">
    <tag k="addr:housenumber" v="162"/>
    <tag k="addr:street" v="Pleasants Street"/>
    <tag k="addr:state" v="VT"/>
    <tag k="ref:vcgi:esiteid" v="115289"/>
  </node>
  <node id="-556" visible="true" lat="44.57414003" lon="-72.30852141">
    <tag k="addr:housenumber" v="62"/>
    <tag k="addr:street" v="North Randolph Road"/>
    <tag k="addr:state" v="VT"/>
    <tag k="ref:vcgi:esiteid" v="115290"/>
  </node>
  <node id="-557" visible="true" lat="44.57405972" lon="-72.30835065">
    <tag k="addr:housenumber" v="48"/>
    <tag k="addr:street" v="North Randolph Road"/>
    <tag k="addr:state" v="VT"/>
    <tag k="ref:vcgi:esiteid" v="115291"/>
  </node>
  <node id="-558" visible="true" lat="44.57397543" lon="-72.30808988">
    <tag k="addr:housenumber" v="32"/>
    <tag k="addr:street" v="North Randolph Road"/>
    <tag k="addr:state" v="VT"/>
    <tag k="ref:vcgi:esiteid" v="115292"/>
  </node>
  <node id="-559" visible="true" lat="44.57360751" lon="-72.29336562">
    <tag k="addr:housenumber" v="2505"/>
    <tag k="addr:street" v="The Bend Road"/>
    <tag k="addr:state" v="VT"/>
    <tag k="ref:vcgi:esiteid" v="115293"/>
  </node>
  <node id="-560" visible="true" lat="44.57390199" lon="-72.29748846">
    <tag k="addr:housenumber" v="156"/>
    <tag k="addr:street" v="Breezy Avenue"/>
    <tag k="addr:state" v="VT"/>
    <tag k="ref:vcgi:esiteid" v="115294"/>
  </node>
  <node id="-561" visible="true" lat="44.5737653" lon="-72.30849032">
    <tag k="addr:housenumber" v="49"/>
    <tag k="addr:street" v="North Randolph Road"/>
    <tag k="addr:state" v="VT"/>
    <tag k="ref:vcgi:esiteid" v="115295"/>
  </node>
  <node id="-562" visible="true" lat="44.57380676" lon="-72.3072586">
    <tag k="addr:housenumber" v="175"/>
    <tag k="addr:street" v="Randolph Road"/>
    <tag k="addr:state" v="VT"/>
    <tag k="ref:vcgi:esiteid" v="115296"/>
  </node>
  <node id="-563" visible="true" lat="44.57363976" lon="-72.2926672">
    <tag k="addr:housenumber" v="2478"/>
    <tag k="addr:street" v="The Bend Road"/>
    <tag k="addr:state" v="VT"/>
    <tag k="ref:vcgi:esiteid" v="115297"/>
  </node>
  <node id="-564" visible="true" lat="44.57372464" lon="-72.27730405">
    <tag k="addr:housenumber" v="413"/>
    <tag k="addr:street" v="Young Road"/>
    <tag k="addr:state" v="VT"/>
    <tag k="ref:vcgi:esiteid" v="115298"/>
  </node>
  <node id="-565" visible="true" lat="44.57366478" lon="-72.29756739">
    <tag k="addr:housenumber" v="182"/>
    <tag k="addr:street" v="Breezy Avenue"/>
    <tag k="addr:state" v="VT"/>
    <tag k="ref:vcgi:esiteid" v="115299"/>
  </node>
  <node id="-566" visible="true" lat="44.57340191" lon="-72.27818399">
    <tag k="addr:housenumber" v="388"/>
    <tag k="addr:street" v="Young Road"/>
    <tag k="addr:state" v="VT"/>
    <tag k="ref:vcgi:esiteid" v="115300"/>
  </node>
  <node id="-567" visible="true" lat="44.57360076" lon="-72.31170654">
    <tag k="addr:housenumber" v="26"/>
    <tag k="addr:street" v="Ilas Road"/>
    <tag k="addr:state" v="VT"/>
    <tag k="ref:vcgi:esiteid" v="115301"/>
  </node>
  <node id="-568" visible="true" lat="44.57368046" lon="-72.30779255">
    <tag k="addr:housenumber" v="10"/>
    <tag k="addr:street" v="North Randolph Road"/>
    <tag k="addr:state" v="VT"/>
    <tag k="ref:vcgi:esiteid" v="115302"/>
  </node>
  <node id="-569" visible="true" lat="44.57357627" lon="-72.30621927">
    <tag k="addr:housenumber" v="221"/>
    <tag k="addr:street" v="Randolph Road"/>
    <tag k="addr:state" v="VT"/>
    <tag k="ref:vcgi:esiteid" v="115303"/>
  </node>
  <node id="-570" visible="true" lat="44.57349203" lon="-72.30813865">
    <tag k="addr:housenumber" v="17"/>
    <tag k="addr:street" v="North Randolph Road"/>
    <tag k="addr:state" v="VT"/>
    <tag k="ref:vcgi:esiteid" v="115304"/>
  </node>
  <node id="-571" visible="true" lat="44.57346343" lon="-72.30882263">
    <tag k="addr:housenumber" v="44"/>
    <tag k="addr:street" v="Rowdis Road"/>
    <tag k="addr:state" v="VT"/>
    <tag k="ref:vcgi:esiteid" v="115305"/>
  </node>
  <node id="-572" visible="true" lat="44.57350829" lon="-72.30728413">
    <tag k="addr:housenumber" v="171"/>
    <tag k="addr:street" v="Randolph Road"/>
    <tag k="addr:state" v="VT"/>
    <tag k="ref:vcgi:esiteid" v="115306"/>
  </node>
  <node id="-573" visible="true" lat="44.57342725" lon="-72.30769501">
    <tag k="addr:housenumber" v="2"/>
    <tag k="addr:street" v="North Randolph Road"/>
    <tag k="addr:state" v="VT"/>
    <tag k="ref:vcgi:esiteid" v="115307"/>
  </node>
  <node id="-574" visible="true" lat="44.57330909" lon="-72.29700522">
    <tag k="addr:housenumber" v="181"/>
    <tag k="addr:street" v="Breezy Avenue"/>
    <tag k="addr:state" v="VT"/>
    <tag k="ref:vcgi:esiteid" v="115308"/>
  </node>
  <node id="-575" visible="true" lat="44.5733519" lon="-72.29781396">
    <tag k="addr:housenumber" v="208"/>
    <tag k="addr:street" v="Breezy Avenue"/>
    <tag k="addr:state" v="VT"/>
    <tag k="ref:vcgi:esiteid" v="115309"/>
  </node>
  <node id="-576" visible="true" lat="44.5732727" lon="-72.30594634">
    <tag k="addr:housenumber" v="237"/>
    <tag k="addr:street" v="Randolph Road"/>
    <tag k="addr:state" v="VT"/>
    <tag k="ref:vcgi:esiteid" v="115310"/>
  </node>
  <node id="-577" visible="true" lat="44.57342065" lon="-72.30676088">
    <tag k="addr:housenumber" v="183"/>
    <tag k="addr:street" v="Randolph Road"/>
    <tag k="addr:state" v="VT"/>
    <tag k="ref:vcgi:esiteid" v="115311"/>
  </node>
  <node id="-578" visible="true" lat="44.57323455" lon="-72.3033905">
    <tag k="addr:housenumber" v="301"/>
    <tag k="addr:street" v="Als Avenue"/>
    <tag k="addr:state" v="VT"/>
    <tag k="ref:vcgi:esiteid" v="115312"/>
  </node>
  <node id="-579" visible="true" lat="44.573355" lon="-72.30655228">
    <tag k="addr:housenumber" v="211"/>
    <tag k="addr:street" v="Randolph Road"/>
    <tag k="addr:state" v="VT"/>
    <tag k="ref:vcgi:esiteid" v="115313"/>
  </node>
  <node id="-580" visible="true" lat="44.5729646" lon="-72.27687958">
    <tag k="addr:housenumber" v="442"/>
    <tag k="addr:street" v="Young Road"/>
    <tag k="addr:state" v="VT"/>
    <tag k="ref:vcgi:esiteid" v="115314"/>
  </node>
  <node id="-581" visible="true" lat="44.57326782" lon="-72.30811123">
    <tag k="addr:housenumber" v="15"/>
    <tag k="addr:street" v="North Randolph Road"/>
    <tag k="addr:state" v="VT"/>
    <tag k="ref:vcgi:esiteid" v="115315"/>
  </node>
  <node id="-582" visible="true" lat="44.57305145" lon="-72.29821777">
    <tag k="addr:housenumber" v="20"/>
    <tag k="addr:street" v="Pleasants Street"/>
    <tag k="addr:state" v="VT"/>
    <tag k="ref:vcgi:esiteid" v="115316"/>
  </node>
  <node id="-584" visible="true" lat="44.57301711" lon="-72.30327606">
    <tag k="addr:housenumber" v="285"/>
    <tag k="addr:street" v="Als Avenue"/>
    <tag k="addr:state" v="VT"/>
    <tag k="ref:vcgi:esiteid" v="115318"/>
  </node>
  <node id="-585" visible="true" lat="44.57299804" lon="-72.29312896">
    <tag k="addr:housenumber" v="2455"/>
    <tag k="addr:street" v="The Bend Road"/>
    <tag k="addr:state" v="VT"/>
    <tag k="ref:vcgi:esiteid" v="115319"/>
  </node>
  <node id="-586" visible="true" lat="44.57308952" lon="-72.30535733">
    <tag k="addr:housenumber" v="265"/>
    <tag k="addr:street" v="Randolph Road"/>
    <tag k="addr:state" v="VT"/>
    <tag k="ref:vcgi:esiteid" v="115320"/>
  </node>
  <node id="-587" visible="true" lat="44.57299041" lon="-72.30497741">
    <tag k="addr:housenumber" v="287"/>
    <tag k="addr:street" v="Randolph Road"/>
    <tag k="addr:state" v="VT"/>
    <tag k="ref:vcgi:esiteid" v="115321"/>
  </node>
  <node id="-588" visible="true" lat="44.57305829" lon="-72.30455884">
    <tag k="addr:housenumber" v="305"/>
    <tag k="addr:street" v="Randolph Road"/>
    <tag k="addr:state" v="VT"/>
    <tag k="ref:vcgi:esiteid" v="115322"/>
  </node>
  <node id="-589" visible="true" lat="44.57288708" lon="-72.30585087">
    <tag k="addr:housenumber" v="230"/>
    <tag k="addr:street" v="Randolph Road"/>
    <tag k="addr:state" v="VT"/>
    <tag k="ref:vcgi:esiteid" v="115323"/>
  </node>
  <node id="-590" visible="true" lat="44.57289541" lon="-72.30557771">
    <tag k="addr:housenumber" v="258"/>
    <tag k="addr:street" v="Randolph Road"/>
    <tag k="addr:state" v="VT"/>
    <tag k="ref:vcgi:esiteid" v="115324"/>
  </node>
  <node id="-592" visible="true" lat="44.57290649" lon="-72.3083496">
    <tag k="addr:housenumber" v="101"/>
    <tag k="addr:street" v="Randolph Road"/>
    <tag k="addr:state" v="VT"/>
    <tag k="ref:vcgi:esiteid" v="115326"/>
  </node>
  <node id="-593" visible="true" lat="44.57284545" lon="-72.29841613">
    <tag k="addr:housenumber" v="17"/>
    <tag k="addr:street" v="Pleasants Street"/>
    <tag k="addr:state" v="VT"/>
    <tag k="ref:vcgi:esiteid" v="115327"/>
  </node>
  <node id="-594" visible="true" lat="44.57272338" lon="-72.30490875">
    <tag k="addr:housenumber" v="294"/>
    <tag k="addr:street" v="Randolph Road"/>
    <tag k="addr:state" v="VT"/>
    <tag k="ref:vcgi:esiteid" v="115328"/>
  </node>
  <node id="-595" visible="true" lat="44.57273188" lon="-72.30787941">
    <tag k="addr:housenumber" v="92"/>
    <tag k="addr:street" v="Randolph Road"/>
    <tag k="addr:state" v="VT"/>
    <tag k="ref:vcgi:esiteid" v="115329"/>
  </node>
  <node id="-596" visible="true" lat="44.57264243" lon="-72.30623879">
    <tag k="addr:housenumber" v="216"/>
    <tag k="addr:street" v="Randolph Road"/>
    <tag k="addr:state" v="VT"/>
    <tag k="ref:vcgi:esiteid" v="115330"/>
  </node>
  <node id="-597" visible="true" lat="44.57264892" lon="-72.30523515">
    <tag k="addr:housenumber" v="272"/>
    <tag k="addr:street" v="Randolph Road"/>
    <tag k="addr:state" v="VT"/>
    <tag k="ref:vcgi:esiteid" v="115331"/>
  </node>
  <node id="-598" visible="true" lat="44.57252884" lon="-72.30851745">
    <tag k="addr:housenumber" v="75"/>
    <tag k="addr:street" v="Randolph Road"/>
    <tag k="addr:state" v="VT"/>
    <tag k="ref:vcgi:esiteid" v="115332"/>
  </node>
  <node id="-599" visible="true" lat="44.57254881" lon="-72.29736533">
    <tag k="addr:housenumber" v="225"/>
    <tag k="addr:street" v="Breezy Avenue"/>
    <tag k="addr:state" v="VT"/>
    <tag k="ref:vcgi:esiteid" v="115333"/>
  </node>
  <node id="-600" visible="true" lat="44.57235717" lon="-72.30651092">
    <tag k="addr:housenumber" v="218"/>
    <tag k="addr:street" v="Randolph Road"/>
    <tag k="addr:state" v="VT"/>
    <tag k="ref:vcgi:esiteid" v="115334"/>
  </node>
  <node id="-601" visible="true" lat="44.57231618" lon="-72.26440947">
    <tag k="addr:housenumber" v="1087"/>
    <tag k="addr:street" v="Young Road"/>
    <tag k="addr:state" v="VT"/>
    <tag k="ref:vcgi:esiteid" v="115336"/>
  </node>
  <node id="-602" visible="true" lat="44.57209312" lon="-72.26945017">
    <tag k="addr:housenumber" v="812"/>
    <tag k="addr:street" v="Young Road"/>
    <tag k="addr:state" v="VT"/>
    <tag k="ref:vcgi:esiteid" v="115337"/>
  </node>
  <node id="-604" visible="true" lat="44.57209786" lon="-72.26293748">
    <tag k="addr:housenumber" v="1133"/>
    <tag k="addr:street" v="Young Road"/>
    <tag k="addr:state" v="VT"/>
    <tag k="ref:vcgi:esiteid" v="115339"/>
  </node>
  <node id="-605" visible="true" lat="44.57188034" lon="-72.29814147">
    <tag k="addr:housenumber" v="295"/>
    <tag k="addr:street" v="Breezy Avenue"/>
    <tag k="addr:state" v="VT"/>
    <tag k="ref:vcgi:esiteid" v="115340"/>
  </node>
  <node id="-606" visible="true" lat="44.57178274" lon="-72.31691249">
    <tag k="addr:housenumber" v="649"/>
    <tag k="addr:street" v="Lake Shore Road"/>
    <tag k="addr:state" v="VT"/>
    <tag k="ref:vcgi:esiteid" v="115341"/>
  </node>
  <node id="-607" visible="true" lat="44.57166671" lon="-72.30902862">
    <tag k="addr:housenumber" v="342"/>
    <tag k="addr:street" v="Lake Shore Road"/>
    <tag k="addr:state" v="VT"/>
    <tag k="ref:vcgi:esiteid" v="115342"/>
  </node>
  <node id="-608" visible="true" lat="44.57123153" lon="-72.26361916">
    <tag k="addr:housenumber" v="1154"/>
    <tag k="addr:street" v="Young Road"/>
    <tag k="addr:state" v="VT"/>
    <tag k="ref:vcgi:esiteid" v="115344"/>
  </node>
  <node id="-610" visible="true" lat="44.57104012" lon="-72.26184482">
    <tag k="addr:housenumber" v="1231"/>
    <tag k="addr:street" v="Young Road"/>
    <tag k="addr:state" v="VT"/>
    <tag k="ref:vcgi:esiteid" v="115346"/>
  </node>
  <node id="-614" visible="true" lat="44.57055304" lon="-72.24916095">
    <tag k="addr:housenumber" v="33"/>
    <tag k="addr:street" v="Gonyaw Road"/>
    <tag k="addr:state" v="VT"/>
    <tag k="ref:vcgi:esiteid" v="115351"/>
  </node>
  <node id="-616" visible="true" lat="44.57015551" lon="-72.24918894">
    <tag k="addr:housenumber" v="38"/>
    <tag k="addr:street" v="Gonyaw Road"/>
    <tag k="addr:state" v="VT"/>
    <tag k="ref:vcgi:esiteid" v="115353"/>
  </node>
  <node id="-617" visible="true" lat="44.57033782" lon="-72.29991028">
    <tag k="addr:housenumber" v="432"/>
    <tag k="addr:street" v="Breezy Avenue"/>
    <tag k="addr:state" v="VT"/>
    <tag k="ref:vcgi:esiteid" v="115354"/>
  </node>
  <node id="-618" visible="true" lat="44.5701828" lon="-72.25260162">
    <tag k="addr:housenumber" v="1749"/>
    <tag k="addr:street" v="Young Road"/>
    <tag k="addr:state" v="VT"/>
    <tag k="ref:vcgi:esiteid" v="115355"/>
  </node>
  <node id="-621" visible="true" lat="44.57009506" lon="-72.26113128">
    <tag k="addr:housenumber" v="1312"/>
    <tag k="addr:street" v="Young Road"/>
    <tag k="addr:state" v="VT"/>
    <tag k="ref:vcgi:esiteid" v="115358"/>
  </node>
  <node id="-622" visible="true" lat="44.56967163" lon="-72.24339294">
    <tag k="addr:housenumber" v="378"/>
    <tag k="addr:street" v="Gonyaw Road"/>
    <tag k="addr:state" v="VT"/>
    <tag k="ref:vcgi:esiteid" v="115360"/>
  </node>
  <node id="-627" visible="true" lat="44.56774902" lon="-72.29250335">
    <tag k="addr:housenumber" v="261"/>
    <tag k="addr:street" v="Country Club Road"/>
    <tag k="addr:state" v="VT"/>
    <tag k="ref:vcgi:esiteid" v="115365"/>
  </node>
  <node id="-629" visible="true" lat="44.56752075" lon="-72.29787198">
    <tag k="addr:housenumber" v="201"/>
    <tag k="addr:street" v="Country Club Road"/>
    <tag k="addr:state" v="VT"/>
    <tag k="ref:vcgi:esiteid" v="115367"/>
  </node>
  <node id="-631" visible="true" lat="44.56728958" lon="-72.28846502">
    <tag k="addr:housenumber" v="2023"/>
    <tag k="addr:street" v="The Bend Road"/>
    <tag k="addr:state" v="VT"/>
    <tag k="ref:vcgi:esiteid" v="115369"/>
  </node>
  <node id="-632" visible="true" lat="44.56592941" lon="-72.29845428">
    <tag k="addr:housenumber" v="314"/>
    <tag k="addr:street" v="Country Club Road"/>
    <tag k="addr:state" v="VT"/>
    <tag k="ref:vcgi:esiteid" v="115370"/>
  </node>
  <node id="-633" visible="true" lat="44.5639538" lon="-72.29659031">
    <tag k="addr:housenumber" v="506"/>
    <tag k="addr:street" v="Country Club Road"/>
    <tag k="addr:state" v="VT"/>
    <tag k="ref:vcgi:esiteid" v="115371"/>
  </node>
  <node id="-634" visible="true" lat="44.56423887" lon="-72.29575852">
    <tag k="addr:housenumber" v="491"/>
    <tag k="addr:street" v="Country Club Road"/>
    <tag k="addr:state" v="VT"/>
    <tag k="ref:vcgi:esiteid" v="115372"/>
  </node>
  <node id="-637" visible="true" lat="44.56280136" lon="-72.28041839">
    <tag k="addr:housenumber" v="1481"/>
    <tag k="addr:street" v="The Bend Road"/>
    <tag k="addr:state" v="VT"/>
    <tag k="ref:vcgi:esiteid" v="115375"/>
  </node>
  <node id="-638" visible="true" lat="44.56272125" lon="-72.29566192">
    <tag k="addr:housenumber" v="579"/>
    <tag k="addr:street" v="Country Club Road"/>
    <tag k="addr:state" v="VT"/>
    <tag k="ref:vcgi:esiteid" v="115376"/>
  </node>
  <node id="-639" visible="true" lat="44.56266785" lon="-72.27947235">
    <tag k="addr:housenumber" v="1452"/>
    <tag k="addr:street" v="The Bend Road"/>
    <tag k="addr:state" v="VT"/>
    <tag k="ref:vcgi:esiteid" v="115377"/>
  </node>
  <node id="-641" visible="true" lat="44.56180953" lon="-72.27925872">
    <tag k="addr:housenumber" v="1445"/>
    <tag k="addr:street" v="The Bend Road"/>
    <tag k="addr:state" v="VT"/>
    <tag k="ref:vcgi:esiteid" v="115379"/>
  </node>
  <node id="-643" visible="true" lat="44.56089019" lon="-72.29589843">
    <tag k="addr:housenumber" v="703"/>
    <tag k="addr:street" v="Country Club Road"/>
    <tag k="addr:state" v="VT"/>
    <tag k="ref:vcgi:esiteid" v="115381"/>
  </node>
  <node id="-644" visible="true" lat="44.56047397" lon="-72.27635625">
    <tag k="addr:housenumber" v="82"/>
    <tag k="addr:street" v="Ling Lane"/>
    <tag k="addr:state" v="VT"/>
    <tag k="ref:vcgi:esiteid" v="115382"/>
  </node>
  <node id="-645" visible="true" lat="44.56007557" lon="-72.27695906">
    <tag k="addr:housenumber" v="38"/>
    <tag k="addr:street" v="Ling Lane"/>
    <tag k="addr:state" v="VT"/>
    <tag k="ref:vcgi:esiteid" v="115383"/>
  </node>
  <node id="-646" visible="true" lat="44.56011581" lon="-72.2780075">
    <tag k="addr:housenumber" v="1259"/>
    <tag k="addr:street" v="The Bend Road"/>
    <tag k="addr:state" v="VT"/>
    <tag k="ref:vcgi:esiteid" v="115384"/>
  </node>
  <node id="-647" visible="true" lat="44.55890823" lon="-72.2965867">
    <tag k="addr:housenumber" v="819"/>
    <tag k="addr:street" v="Country Club Road"/>
    <tag k="addr:state" v="VT"/>
    <tag k="ref:vcgi:esiteid" v="115385"/>
  </node>
  <node id="-648" visible="true" lat="44.55876922" lon="-72.27810668">
    <tag k="addr:housenumber" v="1183"/>
    <tag k="addr:street" v="The Bend Road"/>
    <tag k="addr:state" v="VT"/>
    <tag k="ref:vcgi:esiteid" v="115386"/>
  </node>
  <node id="-649" visible="true" lat="44.55752187" lon="-72.25771093">
    <tag k="addr:housenumber" v="227"/>
    <tag k="addr:street" v="Main Street"/>
    <tag k="addr:state" v="VT"/>
    <tag k="ref:vcgi:esiteid" v="115387"/>
  </node>
  <node id="-651" visible="true" lat="44.55731582" lon="-72.27812194">
    <tag k="addr:housenumber" v="1049"/>
    <tag k="addr:street" v="The Bend Road"/>
    <tag k="addr:state" v="VT"/>
    <tag k="ref:vcgi:esiteid" v="115389"/>
  </node>
  <node id="-652" visible="true" lat="44.55625414" lon="-72.25322119">
    <tag k="addr:housenumber" v="249"/>
    <tag k="addr:street" v="Main Street"/>
    <tag k="addr:state" v="VT"/>
    <tag k="ref:vcgi:esiteid" v="115390"/>
  </node>
  <node id="-653" visible="true" lat="44.55661584" lon="-72.25872447">
    <tag k="addr:housenumber" v="312"/>
    <tag k="addr:street" v="Main Street"/>
    <tag k="addr:state" v="VT"/>
    <tag k="ref:vcgi:esiteid" v="115391"/>
  </node>
  <node id="-654" visible="true" lat="44.55544662" lon="-72.25951385">
    <tag k="addr:housenumber" v="404"/>
    <tag k="addr:street" v="Main Street"/>
    <tag k="addr:state" v="VT"/>
    <tag k="ref:vcgi:esiteid" v="115392"/>
  </node>
  <node id="-655" visible="true" lat="44.55508678" lon="-72.2591789">
    <tag k="addr:housenumber" v="423"/>
    <tag k="addr:street" v="Main Street"/>
    <tag k="addr:state" v="VT"/>
    <tag k="ref:vcgi:esiteid" v="115393"/>
  </node>
  <node id="-656" visible="true" lat="44.55480083" lon="-72.27584124">
    <tag k="addr:housenumber" v="899"/>
    <tag k="addr:street" v="The Bend Road"/>
    <tag k="addr:state" v="VT"/>
    <tag k="ref:vcgi:esiteid" v="115394"/>
  </node>
  <node id="-659" visible="true" lat="44.55270589" lon="-72.26111524">
    <tag k="addr:housenumber" v="610"/>
    <tag k="addr:street" v="Main Street"/>
    <tag k="addr:state" v="VT"/>
    <tag k="ref:vcgi:esiteid" v="115397"/>
  </node>
  <node id="-660" visible="true" lat="44.55197906" lon="-72.26752471">
    <tag k="addr:housenumber" v="348"/>
    <tag k="addr:street" v="The Bend Road"/>
    <tag k="addr:state" v="VT"/>
    <tag k="ref:vcgi:esiteid" v="115398"/>
  </node>
  <node id="-661" visible="true" lat="44.55132675" lon="-72.27111816">
    <tag k="addr:housenumber" v="523"/>
    <tag k="addr:street" v="The Bend Road"/>
    <tag k="addr:state" v="VT"/>
    <tag k="ref:vcgi:esiteid" v="115399"/>
  </node>
  <node id="-662" visible="true" lat="44.55133039" lon="-72.26229351">
    <tag k="addr:housenumber" v="718"/>
    <tag k="addr:street" v="Main Street"/>
    <tag k="addr:state" v="VT"/>
    <tag k="ref:vcgi:esiteid" v="115400"/>
  </node>
  <node id="-664" visible="true" lat="44.55106353" lon="-72.26674652">
    <tag k="addr:housenumber" v="290"/>
    <tag k="addr:street" v="The Bend Road"/>
    <tag k="addr:state" v="VT"/>
    <tag k="ref:vcgi:esiteid" v="115402"/>
  </node>
  <node id="-665" visible="true" lat="44.55114832" lon="-72.26130505">
    <tag k="addr:housenumber" v="721"/>
    <tag k="addr:street" v="Main Street"/>
    <tag k="addr:state" v="VT"/>
    <tag k="ref:vcgi:esiteid" v="115403"/>
  </node>
  <node id="-666" visible="true" lat="44.55104178" lon="-72.26622458">
    <tag k="addr:housenumber" v="258"/>
    <tag k="addr:street" v="The Bend Road"/>
    <tag k="addr:state" v="VT"/>
    <tag k="ref:vcgi:esiteid" v="115404"/>
  </node>
  <node id="-667" visible="true" lat="44.55088361" lon="-72.26762424">
    <tag k="addr:housenumber" v="325"/>
    <tag k="addr:street" v="The Bend Road"/>
    <tag k="addr:state" v="VT"/>
    <tag k="ref:vcgi:esiteid" v="115405"/>
  </node>
  <node id="-668" visible="true" lat="44.55071639" lon="-72.26937103">
    <tag k="addr:housenumber" v="438"/>
    <tag k="addr:street" v="The Bend Road"/>
    <tag k="addr:state" v="VT"/>
    <tag k="ref:vcgi:esiteid" v="115406"/>
  </node>
  <node id="-669" visible="true" lat="44.55064773" lon="-72.26679992">
    <tag k="addr:housenumber" v="279"/>
    <tag k="addr:street" v="The Bend Road"/>
    <tag k="addr:state" v="VT"/>
    <tag k="ref:vcgi:esiteid" v="115407"/>
  </node>
  <node id="-670" visible="true" lat="44.55036707" lon="-72.26659893">
    <tag k="addr:housenumber" v="271"/>
    <tag k="addr:street" v="The Bend Road"/>
    <tag k="addr:state" v="VT"/>
    <tag k="ref:vcgi:esiteid" v="115408"/>
  </node>
  <node id="-671" visible="true" lat="44.55059587" lon="-72.26159694">
    <tag k="addr:housenumber" v="767"/>
    <tag k="addr:street" v="Main Street"/>
    <tag k="addr:state" v="VT"/>
    <tag k="ref:vcgi:esiteid" v="115410"/>
  </node>
  <node id="-673" visible="true" lat="44.55030059" lon="-72.27012634">
    <tag k="addr:housenumber" v="457"/>
    <tag k="addr:street" v="The Bend Road"/>
    <tag k="addr:state" v="VT"/>
    <tag k="ref:vcgi:esiteid" v="115412"/>
  </node>
  <node id="-674" visible="true" lat="44.55007576" lon="-72.26185681">
    <tag k="addr:housenumber" v="15"/>
    <tag k="addr:street" v="Old Schoolhouse Road"/>
    <tag k="addr:state" v="VT"/>
    <tag k="ref:vcgi:esiteid" v="115413"/>
  </node>
  <node id="-675" visible="true" lat="44.54989624" lon="-72.26553344">
    <tag k="addr:housenumber" v="200"/>
    <tag k="addr:street" v="The Bend Road"/>
    <tag k="addr:state" v="VT"/>
    <tag k="ref:vcgi:esiteid" v="115414"/>
  </node>
  <node id="-676" visible="true" lat="44.54984734" lon="-72.26196921">
    <tag k="addr:housenumber" v="813"/>
    <tag k="addr:street" v="Main Street"/>
    <tag k="addr:state" v="VT"/>
    <tag k="ref:vcgi:esiteid" v="115415"/>
  </node>
  <node id="-677" visible="true" lat="44.54971487" lon="-72.26265246">
    <tag k="addr:housenumber" v="826"/>
    <tag k="addr:street" v="Main Street"/>
    <tag k="addr:state" v="VT"/>
    <tag k="ref:vcgi:esiteid" v="115416"/>
  </node>
  <node id="-678" visible="true" lat="44.54983069" lon="-72.26088272">
    <tag k="addr:housenumber" v="65"/>
    <tag k="addr:street" v="Old Schoolhouse Road"/>
    <tag k="addr:state" v="VT"/>
    <tag k="ref:vcgi:esiteid" v="115417"/>
  </node>
  <node id="-679" visible="true" lat="44.54963789" lon="-72.26212001">
    <tag k="addr:housenumber" v="827"/>
    <tag k="addr:street" v="Main Street"/>
    <tag k="addr:state" v="VT"/>
    <tag k="ref:vcgi:esiteid" v="115418"/>
  </node>
  <node id="-680" visible="true" lat="44.54946136" lon="-72.26528167">
    <tag k="addr:housenumber" v="138"/>
    <tag k="addr:street" v="The Bend Road"/>
    <tag k="addr:state" v="VT"/>
    <tag k="ref:vcgi:esiteid" v="115419"/>
  </node>
  <node id="-683" visible="true" lat="44.5494922" lon="-72.26853664">
    <tag k="addr:housenumber" v="218"/>
    <tag k="addr:street" v="Holbrook Drive"/>
    <tag k="addr:state" v="VT"/>
    <tag k="ref:vcgi:esiteid" v="115422"/>
  </node>
  <node id="-684" visible="true" lat="44.54916423" lon="-72.26238443">
    <tag k="addr:housenumber" v="855"/>
    <tag k="addr:street" v="Main Street"/>
    <tag k="addr:state" v="VT"/>
    <tag k="ref:vcgi:esiteid" v="115423"/>
  </node>
  <node id="-685" visible="true" lat="44.54925025" lon="-72.26280964">
    <tag k="addr:housenumber" v="862"/>
    <tag k="addr:street" v="Main Street"/>
    <tag k="addr:state" v="VT"/>
    <tag k="ref:vcgi:esiteid" v="115424"/>
  </node>
  <node id="-686" visible="true" lat="44.54910067" lon="-72.26502455">
    <tag k="addr:housenumber" v="134"/>
    <tag k="addr:street" v="The Bend Road"/>
    <tag k="addr:state" v="VT"/>
    <tag k="ref:vcgi:esiteid" v="115425"/>
  </node>
  <node id="-687" visible="true" lat="44.54893319" lon="-72.26301054">
    <tag k="addr:housenumber" v="886"/>
    <tag k="addr:street" v="Main Street"/>
    <tag k="addr:state" v="VT"/>
    <tag k="ref:vcgi:esiteid" v="115426"/>
  </node>
  <node id="-688" visible="true" lat="44.54877995" lon="-72.2626057">
    <tag k="addr:housenumber" v="883"/>
    <tag k="addr:street" v="Main Street"/>
    <tag k="addr:state" v="VT"/>
    <tag k="ref:vcgi:esiteid" v="115427"/>
  </node>
  <node id="-689" visible="true" lat="44.54885865" lon="-72.26482812">
    <tag k="addr:housenumber" v="114"/>
    <tag k="addr:street" v="The Bend Road"/>
    <tag k="addr:state" v="VT"/>
    <tag k="ref:vcgi:esiteid" v="115428"/>
  </node>
  <node id="-690" visible="true" lat="44.54880111" lon="-72.26313292">
    <tag k="addr:housenumber" v="896"/>
    <tag k="addr:street" v="Main Street"/>
    <tag k="addr:state" v="VT"/>
    <tag k="ref:vcgi:esiteid" v="115429"/>
  </node>
  <node id="-693" visible="true" lat="44.54851914" lon="-72.26282908">
    <tag k="addr:housenumber" v="905"/>
    <tag k="addr:street" v="Main Street"/>
    <tag k="addr:state" v="VT"/>
    <tag k="ref:vcgi:esiteid" v="115432"/>
  </node>
  <node id="-694" visible="true" lat="44.54849893" lon="-72.26356168">
    <tag k="addr:housenumber" v="922"/>
    <tag k="addr:street" v="Main Street"/>
    <tag k="addr:state" v="VT"/>
    <tag k="ref:vcgi:esiteid" v="115433"/>
  </node>
  <node id="-695" visible="true" lat="44.54827499" lon="-72.26515197">
    <tag k="addr:housenumber" v="83"/>
    <tag k="addr:street" v="The Bend Road"/>
    <tag k="addr:state" v="VT"/>
    <tag k="ref:vcgi:esiteid" v="115434"/>
  </node>
  <node id="-696" visible="true" lat="44.54821379" lon="-72.26299889">
    <tag k="addr:housenumber" v="931"/>
    <tag k="addr:street" v="Main Street"/>
    <tag k="addr:state" v="VT"/>
    <tag k="ref:vcgi:esiteid" v="115435"/>
  </node>
  <node id="-697" visible="true" lat="44.54806782" lon="-72.26302208">
    <tag k="addr:housenumber" v="939"/>
    <tag k="addr:street" v="Main Street"/>
    <tag k="addr:state" v="VT"/>
    <tag k="ref:vcgi:esiteid" v="115436"/>
  </node>
  <node id="-698" visible="true" lat="44.54814852" lon="-72.26347769">
    <tag k="addr:housenumber" v="946"/>
    <tag k="addr:street" v="Main Street"/>
    <tag k="addr:state" v="VT"/>
    <tag k="ref:vcgi:esiteid" v="115437"/>
  </node>
  <node id="-700" visible="true" lat="44.54807497" lon="-72.26380955">
    <tag k="addr:housenumber" v="8"/>
    <tag k="addr:street" v="The Bend Road"/>
    <tag k="addr:state" v="VT"/>
    <tag k="ref:vcgi:esiteid" v="115439"/>
  </node>
  <node id="-701" visible="true" lat="44.54788867" lon="-72.26318786">
    <tag k="addr:housenumber" v="945"/>
    <tag k="addr:street" v="Main Street"/>
    <tag k="addr:state" v="VT"/>
    <tag k="ref:vcgi:esiteid" v="115440"/>
  </node>
  <node id="-703" visible="true" lat="44.54771775" lon="-72.26017989">
    <tag k="addr:housenumber" v="327"/>
    <tag k="addr:street" v="Winchester Road"/>
    <tag k="addr:state" v="VT"/>
    <tag k="ref:vcgi:esiteid" v="115442"/>
  </node>
  <node id="-704" visible="true" lat="44.54765545" lon="-72.26329766">
    <tag k="addr:housenumber" v="975"/>
    <tag k="addr:street" v="Main Street"/>
    <tag k="addr:state" v="VT"/>
    <tag k="ref:vcgi:esiteid" v="115443"/>
  </node>
  <node id="-705" visible="true" lat="44.54766895" lon="-72.26399553">
    <tag k="addr:housenumber" v="978"/>
    <tag k="addr:street" v="Main Street"/>
    <tag k="addr:state" v="VT"/>
    <tag k="ref:vcgi:esiteid" v="115444"/>
  </node>
  <node id="-706" visible="true" lat="44.54763412" lon="-72.27256011">
    <tag k="addr:housenumber" v="19"/>
    <tag k="addr:street" v="Decker Drive"/>
    <tag k="addr:state" v="VT"/>
    <tag k="ref:vcgi:esiteid" v="115445"/>
  </node>
  <node id="-708" visible="true" lat="44.54751062" lon="-72.25925428">
    <tag k="addr:housenumber" v="274"/>
    <tag k="addr:street" v="Winchester Road"/>
    <tag k="addr:state" v="VT"/>
    <tag k="ref:vcgi:esiteid" v="115447"/>
  </node>
  <node id="-709" visible="true" lat="44.54724385" lon="-72.26399563">
    <tag k="addr:housenumber" v="1002"/>
    <tag k="addr:street" v="Main Street"/>
    <tag k="addr:state" v="VT"/>
    <tag k="ref:vcgi:esiteid" v="115448"/>
  </node>
  <node id="-710" visible="true" lat="44.54731369" lon="-72.26930236">
    <tag k="addr:housenumber" v="43"/>
    <tag k="addr:street" v="Holbrook Drive"/>
    <tag k="addr:state" v="VT"/>
    <tag k="ref:vcgi:esiteid" v="115449"/>
  </node>
  <node id="-712" visible="true" lat="44.5468484" lon="-72.2609058">
    <tag k="addr:housenumber" v="163"/>
    <tag k="addr:street" v="Winchester Road"/>
    <tag k="addr:state" v="VT"/>
    <tag k="ref:vcgi:esiteid" v="115451"/>
  </node>
  <node id="-714" visible="true" lat="44.54646917" lon="-72.26117318">
    <tag k="addr:housenumber" v="159"/>
    <tag k="addr:street" v="Winchester Road"/>
    <tag k="addr:state" v="VT"/>
    <tag k="ref:vcgi:esiteid" v="115453"/>
  </node>
  <node id="-715" visible="true" lat="44.54648711" lon="-72.25986363">
    <tag k="addr:housenumber" v="217"/>
    <tag k="addr:street" v="Winchester Road"/>
    <tag k="addr:state" v="VT"/>
    <tag k="ref:vcgi:esiteid" v="115454"/>
  </node>
  <node id="-716" visible="true" lat="44.54658848" lon="-72.26454911">
    <tag k="addr:housenumber" v="1066"/>
    <tag k="addr:street" v="Main Street"/>
    <tag k="addr:state" v="VT"/>
    <tag k="ref:vcgi:esiteid" v="115455"/>
  </node>
  <node id="-717" visible="true" lat="44.54620354" lon="-72.26396272">
    <tag k="addr:housenumber" v="1075"/>
    <tag k="addr:street" v="Main Street"/>
    <tag k="addr:state" v="VT"/>
    <tag k="ref:vcgi:esiteid" v="115456"/>
  </node>
  <node id="-718" visible="true" lat="44.5462911" lon="-72.26487102">
    <tag k="addr:housenumber" v="1082"/>
    <tag k="addr:street" v="Main Street"/>
    <tag k="addr:state" v="VT"/>
    <tag k="ref:vcgi:esiteid" v="115457"/>
  </node>
  <node id="-719" visible="true" lat="44.5462265" lon="-72.26909637">
    <tag k="addr:housenumber" v="91"/>
    <tag k="addr:street" v="Decker Drive"/>
    <tag k="addr:state" v="VT"/>
    <tag k="ref:vcgi:esiteid" v="115458"/>
  </node>
  <node id="-720" visible="true" lat="44.54603926" lon="-72.26409434">
    <tag k="addr:housenumber" v="1089"/>
    <tag k="addr:street" v="Main Street"/>
    <tag k="addr:state" v="VT"/>
    <tag k="ref:vcgi:esiteid" v="115459"/>
  </node>
  <node id="-721" visible="true" lat="44.54581606" lon="-72.26416713">
    <tag k="addr:housenumber" v="1109"/>
    <tag k="addr:street" v="Main Street"/>
    <tag k="addr:state" v="VT"/>
    <tag k="ref:vcgi:esiteid" v="115460"/>
  </node>
  <node id="-722" visible="true" lat="44.54585993" lon="-72.26863979">
    <tag k="addr:housenumber" v="46"/>
    <tag k="addr:street" v="Decker Drive"/>
    <tag k="addr:state" v="VT"/>
    <tag k="ref:vcgi:esiteid" v="115461"/>
  </node>
  <node id="-723" visible="true" lat="44.5458774" lon="-72.26462865">
    <tag k="addr:housenumber" v="1114"/>
    <tag k="addr:street" v="Main Street"/>
    <tag k="addr:state" v="VT"/>
    <tag k="ref:vcgi:esiteid" v="115462"/>
  </node>
  <node id="-724" visible="true" lat="44.54541778" lon="-72.26062011">
    <tag k="addr:housenumber" v="133"/>
    <tag k="addr:street" v="Winchester Road"/>
    <tag k="addr:state" v="VT"/>
    <tag k="ref:vcgi:esiteid" v="115465"/>
  </node>
  <node id="-726" visible="true" lat="44.54522922" lon="-72.26528035">
    <tag k="addr:housenumber" v="1160"/>
    <tag k="addr:street" v="Main Street"/>
    <tag k="addr:state" v="VT"/>
    <tag k="ref:vcgi:esiteid" v="115467"/>
  </node>
  <node id="-727" visible="true" lat="44.54479335" lon="-72.26520053">
    <tag k="addr:housenumber" v="1188"/>
    <tag k="addr:street" v="Main Street"/>
    <tag k="addr:state" v="VT"/>
    <tag k="ref:vcgi:esiteid" v="115468"/>
  </node>
  <node id="-728" visible="true" lat="44.54259662" lon="-72.26307767">
    <tag k="addr:housenumber" v="10"/>
    <tag k="addr:street" v="Tousant Hill Road"/>
    <tag k="addr:state" v="VT"/>
    <tag k="ref:vcgi:esiteid" v="115469"/>
  </node>
  <node id="-729" visible="true" lat="44.59166968" lon="-72.32220587">
    <tag k="addr:housenumber" v="127"/>
    <tag k="addr:street" v="Loon Road"/>
    <tag k="addr:state" v="VT"/>
    <tag k="ref:vcgi:esiteid" v="115470"/>
  </node>
  <node id="-730" visible="true" lat="44.59243795" lon="-72.32179845">
    <tag k="addr:housenumber" v="99"/>
    <tag k="addr:street" v="Loon Road"/>
    <tag k="addr:state" v="VT"/>
    <tag k="ref:vcgi:esiteid" v="115471"/>
  </node>
  <node id="-733" visible="true" lat="44.57631301" lon="-72.31356048">
    <tag k="addr:housenumber" v="1164"/>
    <tag k="addr:street" v="Poplar Lane"/>
    <tag k="addr:state" v="VT"/>
    <tag k="ref:vcgi:esiteid" v="115474"/>
  </node>
  <node id="-734" visible="true" lat="44.5738197" lon="-72.30163242">
    <tag k="addr:housenumber" v="163"/>
    <tag k="addr:street" v="Pleasants Street"/>
    <tag k="addr:state" v="VT"/>
    <tag k="ref:vcgi:esiteid" v="115475"/>
  </node>
  <node id="-735" visible="true" lat="44.6067335" lon="-72.35220815">
    <tag k="addr:housenumber" v="780"/>
    <tag k="addr:street" v="Lake Road"/>
    <tag k="addr:state" v="VT"/>
    <tag k="ref:vcgi:esiteid" v="115476"/>
  </node>
  <node id="-736" visible="true" lat="44.60560572" lon="-72.35397689">
    <tag k="addr:housenumber" v="800"/>
    <tag k="addr:street" v="Lake Road"/>
    <tag k="addr:state" v="VT"/>
    <tag k="ref:vcgi:esiteid" v="115477"/>
  </node>
  <node id="-737" visible="true" lat="44.65004464" lon="-72.27784387">
    <tag k="addr:housenumber" v="645"/>
    <tag k="addr:street" v="White Road"/>
    <tag k="addr:state" v="VT"/>
    <tag k="ref:vcgi:esiteid" v="115478"/>
  </node>
  <node id="-738" visible="true" lat="44.64912596" lon="-72.27934106">
    <tag k="addr:housenumber" v="749"/>
    <tag k="addr:street" v="White Road"/>
    <tag k="addr:state" v="VT"/>
    <tag k="ref:vcgi:esiteid" v="115479"/>
  </node>
  <node id="-739" visible="true" lat="44.64661874" lon="-72.28298389">
    <tag k="addr:housenumber" v="822"/>
    <tag k="addr:street" v="White Road"/>
    <tag k="addr:state" v="VT"/>
    <tag k="ref:vcgi:esiteid" v="115481"/>
  </node>
  <node id="-740" visible="true" lat="44.64594287" lon="-72.27833508">
    <tag k="addr:housenumber" v="1041"/>
    <tag k="addr:street" v="White Road"/>
    <tag k="addr:state" v="VT"/>
    <tag k="ref:vcgi:esiteid" v="115482"/>
  </node>
  <node id="-741" visible="true" lat="44.62953186" lon="-72.34012604">
    <tag k="addr:housenumber" v="636"/>
    <tag k="addr:street" v="Whetstone Brook Road"/>
    <tag k="addr:state" v="VT"/>
    <tag k="ref:vcgi:esiteid" v="115483"/>
  </node>
  <node id="-742" visible="true" lat="44.62568283" lon="-72.33777618">
    <tag k="addr:housenumber" v="975"/>
    <tag k="addr:street" v="Whetstone Brook Road"/>
    <tag k="addr:state" v="VT"/>
    <tag k="ref:vcgi:esiteid" v="115484"/>
  </node>
  <node id="-743" visible="true" lat="44.62114728" lon="-72.33779371">
    <tag k="addr:housenumber" v="610"/>
    <tag k="addr:street" v="Circus Road"/>
    <tag k="addr:state" v="VT"/>
    <tag k="ref:vcgi:esiteid" v="115485"/>
  </node>
  <node id="-746" visible="true" lat="44.60228808" lon="-72.34795211">
    <tag k="addr:housenumber" v="790"/>
    <tag k="addr:street" v="Harrington Road"/>
    <tag k="addr:state" v="VT"/>
    <tag k="ref:vcgi:esiteid" v="115488"/>
  </node>
  <node id="-747" visible="true" lat="44.60070676" lon="-72.34801351">
    <tag k="addr:housenumber" v="685"/>
    <tag k="addr:street" v="Harrington Road"/>
    <tag k="addr:state" v="VT"/>
    <tag k="ref:vcgi:esiteid" v="115489"/>
  </node>
  <node id="-749" visible="true" lat="44.59295228" lon="-72.33498821">
    <tag k="addr:housenumber" v="160"/>
    <tag k="addr:street" v="Lakeview Road"/>
    <tag k="addr:state" v="VT"/>
    <tag k="ref:vcgi:esiteid" v="115491"/>
  </node>
  <node id="-750" visible="true" lat="44.59201431" lon="-72.33591461">
    <tag k="addr:housenumber" v="220"/>
    <tag k="addr:street" v="Lakeview Road"/>
    <tag k="addr:state" v="VT"/>
    <tag k="ref:vcgi:esiteid" v="115492"/>
  </node>
  <node id="-753" visible="true" lat="44.58549761" lon="-72.29941516">
    <tag k="addr:housenumber" v="161"/>
    <tag k="addr:street" v="North Winnimere Lane"/>
    <tag k="addr:state" v="VT"/>
    <tag k="ref:vcgi:esiteid" v="115495"/>
  </node>
  <node id="-754" visible="true" lat="44.58537586" lon="-72.29912885">
    <tag k="addr:housenumber" v="166"/>
    <tag k="addr:street" v="North Winnimere Lane"/>
    <tag k="addr:state" v="VT"/>
    <tag k="ref:vcgi:esiteid" v="115496"/>
  </node>
  <node id="-755" visible="true" lat="44.58520616" lon="-72.29946998">
    <tag k="addr:housenumber" v="145"/>
    <tag k="addr:street" v="North Winnimere Lane"/>
    <tag k="addr:state" v="VT"/>
    <tag k="ref:vcgi:esiteid" v="115497"/>
  </node>
  <node id="-756" visible="true" lat="44.58532638" lon="-72.31666528">
    <tag k="addr:housenumber" v="175"/>
    <tag k="addr:street" v="Aspenhurst"/>
    <tag k="addr:state" v="VT"/>
    <tag k="ref:vcgi:esiteid" v="115498"/>
  </node>
  <node id="-757" visible="true" lat="44.58492194" lon="-72.29948617">
    <tag k="addr:housenumber" v="127"/>
    <tag k="addr:street" v="North Winnimere Lane"/>
    <tag k="addr:state" v="VT"/>
    <tag k="ref:vcgi:esiteid" v="115499"/>
  </node>
  <node id="-758" visible="true" lat="44.58494079" lon="-72.29898737">
    <tag k="addr:housenumber" v="104"/>
    <tag k="addr:street" v="North Winnimere Lane"/>
    <tag k="addr:state" v="VT"/>
    <tag k="ref:vcgi:esiteid" v="115500"/>
  </node>
  <node id="-760" visible="true" lat="44.58472219" lon="-72.29949326">
    <tag k="addr:housenumber" v="113"/>
    <tag k="addr:street" v="North Winnimere Lane"/>
    <tag k="addr:state" v="VT"/>
    <tag k="ref:vcgi:esiteid" v="115502"/>
  </node>
  <node id="-761" visible="true" lat="44.58457437" lon="-72.29955255">
    <tag k="addr:housenumber" v="14"/>
    <tag k="addr:street" v="Winnimere Circle"/>
    <tag k="addr:state" v="VT"/>
    <tag k="ref:vcgi:esiteid" v="115503"/>
  </node>
  <node id="-762" visible="true" lat="44.58260318" lon="-72.31597899">
    <tag k="addr:housenumber" v="18"/>
    <tag k="addr:street" v="North Spahr Road"/>
    <tag k="addr:state" v="VT"/>
    <tag k="ref:vcgi:esiteid" v="115504"/>
  </node>
  <node id="-763" visible="true" lat="44.58224093" lon="-72.31585327">
    <tag k="addr:housenumber" v="4"/>
    <tag k="addr:street" v="North Spahr Road"/>
    <tag k="addr:state" v="VT"/>
    <tag k="ref:vcgi:esiteid" v="115505"/>
  </node>
  <node id="-764" visible="true" lat="44.58176007" lon="-72.31559765">
    <tag k="addr:housenumber" v="109"/>
    <tag k="addr:street" v="Spahr Road"/>
    <tag k="addr:state" v="VT"/>
    <tag k="ref:vcgi:esiteid" v="115506"/>
  </node>
  <node id="-765" visible="true" lat="44.58142131" lon="-72.31582817">
    <tag k="addr:housenumber" v="122"/>
    <tag k="addr:street" v="Spahr Road"/>
    <tag k="addr:state" v="VT"/>
    <tag k="ref:vcgi:esiteid" v="115507"/>
  </node>
  <node id="-766" visible="true" lat="44.58122311" lon="-72.31519816">
    <tag k="addr:housenumber" v="153"/>
    <tag k="addr:street" v="Spahr Road"/>
    <tag k="addr:state" v="VT"/>
    <tag k="ref:vcgi:esiteid" v="115508"/>
  </node>
  <node id="-767" visible="true" lat="44.58074951" lon="-72.3150177">
    <tag k="addr:housenumber" v="185"/>
    <tag k="addr:street" v="Spahr Road"/>
    <tag k="addr:state" v="VT"/>
    <tag k="ref:vcgi:esiteid" v="115509"/>
  </node>
  <node id="-768" visible="true" lat="44.57990646" lon="-72.33630371">
    <tag k="addr:housenumber" v="190"/>
    <tag k="addr:street" v="Upper Edsall Road"/>
    <tag k="addr:state" v="VT"/>
    <tag k="ref:vcgi:esiteid" v="115510"/>
  </node>
  <node id="-770" visible="true" lat="44.57940673" lon="-72.33639526">
    <tag k="addr:housenumber" v="130"/>
    <tag k="addr:street" v="Upper Edsall Road"/>
    <tag k="addr:state" v="VT"/>
    <tag k="ref:vcgi:esiteid" v="115512"/>
  </node>
  <node id="-771" visible="true" lat="44.57886527" lon="-72.31340854">
    <tag k="addr:housenumber" v="127"/>
    <tag k="addr:street" v="Blockhouse Hill Road"/>
    <tag k="addr:state" v="VT"/>
    <tag k="ref:vcgi:esiteid" v="115513"/>
  </node>
  <node id="-772" visible="true" lat="44.57884955" lon="-72.31448967">
    <tag k="addr:housenumber" v="111"/>
    <tag k="addr:street" v="Blockhouse Hill Road"/>
    <tag k="addr:state" v="VT"/>
    <tag k="ref:vcgi:esiteid" v="115514"/>
  </node>
  <node id="-773" visible="true" lat="44.57519912" lon="-72.34415435">
    <tag k="addr:housenumber" v="86"/>
    <tag k="addr:street" v="West Cook Hill Road"/>
    <tag k="addr:state" v="VT"/>
    <tag k="ref:vcgi:esiteid" v="115515"/>
  </node>
  <node id="-774" visible="true" lat="44.57359147" lon="-72.3022534">
    <tag k="addr:housenumber" v="100"/>
    <tag k="addr:street" v="Hugo Lane"/>
    <tag k="addr:state" v="VT"/>
    <tag k="ref:vcgi:esiteid" v="115516"/>
  </node>
  <node id="-775" visible="true" lat="44.57343939" lon="-72.30270303">
    <tag k="addr:housenumber" v="105"/>
    <tag k="addr:street" v="Hugo Lane"/>
    <tag k="addr:state" v="VT"/>
    <tag k="ref:vcgi:esiteid" v="115517"/>
  </node>
  <node id="-776" visible="true" lat="44.57195663" lon="-72.25014496">
    <tag k="addr:housenumber" v="67"/>
    <tag k="addr:street" v="Bartlett Farm Road"/>
    <tag k="addr:state" v="VT"/>
    <tag k="ref:vcgi:esiteid" v="115519"/>
  </node>
  <node id="-777" visible="true" lat="44.56717866" lon="-72.30795105">
    <tag k="addr:housenumber" v="4881"/>
    <tag k="addr:street" v="Center Road"/>
    <tag k="addr:state" v="VT"/>
    <tag k="ref:vcgi:esiteid" v="115520"/>
  </node>
  <node id="-778" visible="true" lat="44.56669564" lon="-72.30813754">
    <tag k="addr:housenumber" v="4841"/>
    <tag k="addr:street" v="Center Road"/>
    <tag k="addr:state" v="VT"/>
    <tag k="ref:vcgi:esiteid" v="115521"/>
  </node>
  <node id="-779" visible="true" lat="44.56549543" lon="-72.3091479">
    <tag k="addr:housenumber" v="4747"/>
    <tag k="addr:street" v="Center Road"/>
    <tag k="addr:state" v="VT"/>
    <tag k="ref:vcgi:esiteid" v="115522"/>
  </node>
  <node id="-780" visible="true" lat="44.56474231" lon="-72.30974652">
    <tag k="addr:housenumber" v="4691"/>
    <tag k="addr:street" v="Center Road"/>
    <tag k="addr:state" v="VT"/>
    <tag k="ref:vcgi:esiteid" v="115523"/>
  </node>
  <node id="-781" visible="true" lat="44.56376171" lon="-72.31049645">
    <tag k="addr:housenumber" v="4627"/>
    <tag k="addr:street" v="Center Road"/>
    <tag k="addr:state" v="VT"/>
    <tag k="ref:vcgi:esiteid" v="115525"/>
  </node>
  <node id="-782" visible="true" lat="44.56311436" lon="-72.31004861">
    <tag k="addr:housenumber" v="4544"/>
    <tag k="addr:street" v="Center Road"/>
    <tag k="addr:state" v="VT"/>
    <tag k="ref:vcgi:esiteid" v="115526"/>
  </node>
  <node id="-783" visible="true" lat="44.56236267" lon="-72.30928039">
    <tag k="addr:housenumber" v="4550"/>
    <tag k="addr:street" v="Center Road"/>
    <tag k="addr:state" v="VT"/>
    <tag k="ref:vcgi:esiteid" v="115527"/>
  </node>
  <node id="-784" visible="true" lat="44.56247934" lon="-72.31221782">
    <tag k="addr:housenumber" v="4519"/>
    <tag k="addr:street" v="Center Road"/>
    <tag k="addr:state" v="VT"/>
    <tag k="ref:vcgi:esiteid" v="115528"/>
  </node>
  <node id="-785" visible="true" lat="44.55568249" lon="-72.27768526">
    <tag k="addr:housenumber" v="1599"/>
    <tag k="addr:street" v="Dimick Road"/>
    <tag k="addr:state" v="VT"/>
    <tag k="ref:vcgi:esiteid" v="115529"/>
  </node>
  <node id="-786" visible="true" lat="44.55428784" lon="-72.27739262">
    <tag k="addr:housenumber" v="1442"/>
    <tag k="addr:street" v="Dimick Road"/>
    <tag k="addr:state" v="VT"/>
    <tag k="ref:vcgi:esiteid" v="115530"/>
  </node>
  <node id="-787" visible="true" lat="44.55338789" lon="-72.27802215">
    <tag k="addr:housenumber" v="1390"/>
    <tag k="addr:street" v="Dimick Road"/>
    <tag k="addr:state" v="VT"/>
    <tag k="ref:vcgi:esiteid" v="115531"/>
  </node>
  <node id="-788" visible="true" lat="44.55318301" lon="-72.27907411">
    <tag k="addr:housenumber" v="1333"/>
    <tag k="addr:street" v="Dimick Road"/>
    <tag k="addr:state" v="VT"/>
    <tag k="ref:vcgi:esiteid" v="115532"/>
  </node>
  <node id="-789" visible="true" lat="44.55216217" lon="-72.27850341">
    <tag k="addr:housenumber" v="1326"/>
    <tag k="addr:street" v="Dimick Road"/>
    <tag k="addr:state" v="VT"/>
    <tag k="ref:vcgi:esiteid" v="115533"/>
  </node>
  <node id="-790" visible="true" lat="44.55096435" lon="-72.28272247">
    <tag k="addr:housenumber" v="985"/>
    <tag k="addr:street" v="Dimick Road"/>
    <tag k="addr:state" v="VT"/>
    <tag k="ref:vcgi:esiteid" v="115534"/>
  </node>
  <node id="-791" visible="true" lat="44.55048751" lon="-72.28041839">
    <tag k="addr:housenumber" v="1043"/>
    <tag k="addr:street" v="Dimick Road"/>
    <tag k="addr:state" v="VT"/>
    <tag k="ref:vcgi:esiteid" v="115535"/>
  </node>
  <node id="-793" visible="true" lat="44.54793847" lon="-72.26116455">
    <tag k="addr:housenumber" v="37"/>
    <tag k="addr:street" v="Wendell Drive"/>
    <tag k="addr:state" v="VT"/>
    <tag k="ref:vcgi:esiteid" v="115537"/>
  </node>
  <node id="-794" visible="true" lat="44.57630175" lon="-72.31275115">
    <tag k="addr:housenumber" v="1154"/>
    <tag k="addr:street" v="Poplar Lane"/>
    <tag k="addr:state" v="VT"/>
    <tag k="ref:vcgi:esiteid" v="115538"/>
  </node>
  <node id="-795" visible="true" lat="44.58619338" lon="-72.33757461">
    <tag k="addr:housenumber" v="414"/>
    <tag k="addr:street" v="Edsall Road"/>
    <tag k="addr:state" v="VT"/>
    <tag k="ref:vcgi:esiteid" v="115540"/>
  </node>
  <node id="-797" visible="true" lat="44.56758105" lon="-72.28838536">
    <tag k="addr:housenumber" v="2025"/>
    <tag k="addr:street" v="The Bend Road"/>
    <tag k="addr:state" v="VT"/>
    <tag k="ref:vcgi:esiteid" v="115542"/>
  </node>
  <node id="-798" visible="true" lat="44.64424169" lon="-72.30441316">
    <tag k="addr:housenumber" v="1485"/>
    <tag k="addr:street" v="Rocking Rock Road"/>
    <tag k="addr:state" v="VT"/>
    <tag k="ref:vcgi:esiteid" v="115543"/>
  </node>
  <node id="-799" visible="true" lat="44.57426452" lon="-72.30099487">
    <tag k="addr:housenumber" v="15"/>
    <tag k="addr:street" v="Virginia Lane"/>
    <tag k="addr:state" v="VT"/>
    <tag k="ref:vcgi:esiteid" v="115544"/>
  </node>
  <node id="-800" visible="true" lat="44.63074874" lon="-72.25668335">
    <tag k="addr:housenumber" v="1501"/>
    <tag k="addr:street" v="Tamarack Ranch Road"/>
    <tag k="addr:state" v="VT"/>
    <tag k="ref:vcgi:esiteid" v="115545"/>
  </node>
  <node id="-804" visible="true" lat="44.57451248" lon="-72.30018615">
    <tag k="addr:housenumber" v="51"/>
    <tag k="addr:street" v="Virginia Lane"/>
    <tag k="addr:state" v="VT"/>
    <tag k="ref:vcgi:esiteid" v="115550"/>
  </node>
  <node id="-805" visible="true" lat="44.57435607" lon="-72.30029296">
    <tag k="addr:housenumber" v="41"/>
    <tag k="addr:street" v="Virginia Lane"/>
    <tag k="addr:state" v="VT"/>
    <tag k="ref:vcgi:esiteid" v="115551"/>
  </node>
  <node id="-806" visible="true" lat="44.57426834" lon="-72.30083465">
    <tag k="addr:housenumber" v="23"/>
    <tag k="addr:street" v="Virginia Lane"/>
    <tag k="addr:state" v="VT"/>
    <tag k="ref:vcgi:esiteid" v="115552"/>
  </node>
  <node id="-807" visible="true" lat="44.57570788" lon="-72.31771951">
    <tag k="addr:housenumber" v="95"/>
    <tag k="addr:street" v="Cook Hill Road"/>
    <tag k="addr:state" v="VT"/>
    <tag k="ref:vcgi:esiteid" v="115553"/>
  </node>
  <node id="-808" visible="true" lat="44.57754909" lon="-72.31959138">
    <tag k="addr:housenumber" v="102"/>
    <tag k="addr:street" v="Cook Hill Road"/>
    <tag k="addr:state" v="VT"/>
    <tag k="ref:vcgi:esiteid" v="115554"/>
  </node>
  <node id="-809" visible="true" lat="44.57664059" lon="-72.31866719">
    <tag k="addr:housenumber" v="100"/>
    <tag k="addr:street" v="Cook Hill Road"/>
    <tag k="addr:state" v="VT"/>
    <tag k="ref:vcgi:esiteid" v="115555"/>
  </node>
  <node id="-810" visible="true" lat="44.57626342" lon="-72.31993865">
    <tag k="addr:housenumber" v="150"/>
    <tag k="addr:street" v="Cook Hill Road"/>
    <tag k="addr:state" v="VT"/>
    <tag k="ref:vcgi:esiteid" v="115556"/>
  </node>
  <node id="-811" visible="true" lat="44.59032318" lon="-72.22966952">
    <tag k="addr:housenumber" v="91"/>
    <tag k="addr:street" v="Pellegrini Pike"/>
    <tag k="addr:state" v="VT"/>
    <tag k="ref:vcgi:esiteid" v="115557"/>
  </node>
  <node id="-812" visible="true" lat="44.59161398" lon="-72.22969378">
    <tag k="addr:housenumber" v="20"/>
    <tag k="addr:street" v="Pellegrini Pike"/>
    <tag k="addr:state" v="VT"/>
    <tag k="ref:vcgi:esiteid" v="115558"/>
  </node>
  <node id="-813" visible="true" lat="44.59056426" lon="-72.23202686">
    <tag k="addr:housenumber" v="160"/>
    <tag k="addr:street" v="Pellegrini Pike"/>
    <tag k="addr:state" v="VT"/>
    <tag k="ref:vcgi:esiteid" v="115559"/>
  </node>
  <node id="-814" visible="true" lat="44.60313797" lon="-72.31751251">
    <tag k="addr:housenumber" v="2255"/>
    <tag k="addr:street" v="Craftsbury Road"/>
    <tag k="addr:state" v="VT"/>
    <tag k="ref:vcgi:esiteid" v="115560"/>
  </node>
  <node id="-815" visible="true" lat="44.57973786" lon="-72.31397826">
    <tag k="addr:housenumber" v="66"/>
    <tag k="addr:street" v="Barre Boulevard"/>
    <tag k="addr:state" v="VT"/>
    <tag k="ref:vcgi:esiteid" v="115561"/>
  </node>
  <node id="-816" visible="true" lat="44.57945758" lon="-72.3137254">
    <tag k="addr:housenumber" v="42"/>
    <tag k="addr:street" v="Barre Boulevard"/>
    <tag k="addr:state" v="VT"/>
    <tag k="ref:vcgi:esiteid" v="115562"/>
  </node>
  <node id="-817" visible="true" lat="44.57919203" lon="-72.31362002">
    <tag k="addr:housenumber" v="28"/>
    <tag k="addr:street" v="Barre Boulevard"/>
    <tag k="addr:state" v="VT"/>
    <tag k="ref:vcgi:esiteid" v="115563"/>
  </node>
  <node id="-818" visible="true" lat="44.57944005" lon="-72.31457131">
    <tag k="addr:housenumber" v="63"/>
    <tag k="addr:street" v="Barre Boulevard"/>
    <tag k="addr:state" v="VT"/>
    <tag k="ref:vcgi:esiteid" v="115564"/>
  </node>
  <node id="-819" visible="true" lat="44.57906463" lon="-72.31453457">
    <tag k="addr:housenumber" v="37"/>
    <tag k="addr:street" v="Barre Boulevard"/>
    <tag k="addr:state" v="VT"/>
    <tag k="ref:vcgi:esiteid" v="115565"/>
  </node>
  <node id="-820" visible="true" lat="44.58044658" lon="-72.31464769">
    <tag k="addr:housenumber" v="122"/>
    <tag k="addr:street" v="Barre Boulevard"/>
    <tag k="addr:state" v="VT"/>
    <tag k="ref:vcgi:esiteid" v="115566"/>
  </node>
  <node id="-821" visible="true" lat="44.58032261" lon="-72.3145002">
    <tag k="addr:housenumber" v="114"/>
    <tag k="addr:street" v="Barre Boulevard"/>
    <tag k="addr:state" v="VT"/>
    <tag k="ref:vcgi:esiteid" v="115567"/>
  </node>
  <node id="-822" visible="true" lat="44.58008764" lon="-72.31428294">
    <tag k="addr:housenumber" v="84"/>
    <tag k="addr:street" v="Barre Boulevard"/>
    <tag k="addr:state" v="VT"/>
    <tag k="ref:vcgi:esiteid" v="115568"/>
  </node>
  <node id="-823" visible="true" lat="44.64020538" lon="-72.28173828">
    <tag k="addr:housenumber" v="12"/>
    <tag k="addr:street" v="Lost Highway"/>
    <tag k="addr:state" v="VT"/>
    <tag k="ref:vcgi:esiteid" v="115569"/>
  </node>
  <node id="-825" visible="true" lat="44.59545158" lon="-72.31506864">
    <tag k="addr:housenumber" v="78"/>
    <tag k="addr:street" v="Huckleberry Lane"/>
    <tag k="addr:state" v="VT"/>
    <tag k="ref:vcgi:esiteid" v="115571"/>
  </node>
  <node id="-826" visible="true" lat="44.59560775" lon="-72.31465911">
    <tag k="addr:housenumber" v="80"/>
    <tag k="addr:street" v="Huckleberry Lane"/>
    <tag k="addr:state" v="VT"/>
    <tag k="ref:vcgi:esiteid" v="115572"/>
  </node>
  <node id="-827" visible="true" lat="44.59582924" lon="-72.3153629">
    <tag k="addr:housenumber" v="76"/>
    <tag k="addr:street" v="Huckleberry Lane"/>
    <tag k="addr:state" v="VT"/>
    <tag k="ref:vcgi:esiteid" v="115573"/>
  </node>
  <node id="-828" visible="true" lat="44.5965189" lon="-72.31386624">
    <tag k="addr:housenumber" v="67"/>
    <tag k="addr:street" v="Sprague Road"/>
    <tag k="addr:state" v="VT"/>
    <tag k="ref:vcgi:esiteid" v="115574"/>
  </node>
  <node id="-829" visible="true" lat="44.59605972" lon="-72.31417455">
    <tag k="addr:housenumber" v="99"/>
    <tag k="addr:street" v="Sprague Road"/>
    <tag k="addr:state" v="VT"/>
    <tag k="ref:vcgi:esiteid" v="115575"/>
  </node>
  <node id="-832" visible="true" lat="44.58853829" lon="-72.32592855">
    <tag k="addr:housenumber" v="1970"/>
    <tag k="addr:street" v="Lake Shore Road"/>
    <tag k="addr:state" v="VT"/>
    <tag k="ref:vcgi:esiteid" v="115579"/>
  </node>
  <node id="-837" visible="true" lat="44.57364183" lon="-72.27788495">
    <tag k="addr:housenumber" v="387"/>
    <tag k="addr:street" v="Young Road"/>
    <tag k="addr:state" v="VT"/>
    <tag k="ref:vcgi:esiteid" v="115585"/>
  </node>
  <node id="-838" visible="true" lat="44.56453676" lon="-72.27075919">
    <tag k="addr:housenumber" v="499"/>
    <tag k="addr:street" v="Vogan Road"/>
    <tag k="addr:state" v="VT"/>
    <tag k="ref:vcgi:esiteid" v="115586"/>
  </node>
  <node id="-839" visible="true" lat="44.60803045" lon="-72.29980714">
    <tag k="addr:housenumber" v="196"/>
    <tag k="addr:street" v="Atherton Way"/>
    <tag k="addr:state" v="VT"/>
    <tag k="ref:vcgi:esiteid" v="115587"/>
  </node>
  <node id="-840" visible="true" lat="44.57500802" lon="-72.2928589">
    <tag k="addr:housenumber" v="251"/>
    <tag k="addr:street" v="Gray Barn Road"/>
    <tag k="addr:state" v="VT"/>
    <tag k="ref:vcgi:esiteid" v="115588"/>
  </node>
  <node id="-841" visible="true" lat="44.6357311" lon="-72.28546356">
    <tag k="addr:housenumber" v="202"/>
    <tag k="addr:street" v="Rocking Rock Road"/>
    <tag k="addr:state" v="VT"/>
    <tag k="ref:vcgi:esiteid" v="115590"/>
  </node>
  <node id="-842" visible="true" lat="44.59509668" lon="-72.23754774">
    <tag k="addr:housenumber" v="884"/>
    <tag k="addr:street" v="Taylor Road"/>
    <tag k="addr:state" v="VT"/>
    <tag k="ref:vcgi:esiteid" v="115591"/>
  </node>
  <node id="-845" visible="true" lat="44.64897315" lon="-72.3099312">
    <tag k="addr:housenumber" v="1902"/>
    <tag k="addr:street" v="Rocking Rock Road"/>
    <tag k="addr:state" v="VT"/>
    <tag k="ref:vcgi:esiteid" v="115594"/>
  </node>
  <node id="-846" visible="true" lat="44.64578156" lon="-72.30726125">
    <tag k="addr:housenumber" v="1701"/>
    <tag k="addr:street" v="Rocking Rock Road"/>
    <tag k="addr:state" v="VT"/>
    <tag k="ref:vcgi:esiteid" v="115595"/>
  </node>
  <node id="-848" visible="true" lat="44.59657574" lon="-72.31295605">
    <tag k="addr:housenumber" v="87"/>
    <tag k="addr:street" v="Mitchell Place"/>
    <tag k="addr:state" v="VT"/>
    <tag k="ref:vcgi:esiteid" v="115597"/>
  </node>
  <node id="-849" visible="true" lat="44.60804027" lon="-72.31325635">
    <tag k="addr:housenumber" v="2254"/>
    <tag k="addr:street" v="Craftsbury Road"/>
    <tag k="addr:state" v="VT"/>
    <tag k="ref:vcgi:esiteid" v="115598"/>
  </node>
  <node id="-850" visible="true" lat="44.58748928" lon="-72.28059963">
    <tag k="addr:housenumber" v="310"/>
    <tag k="addr:street" v="Baker Hill Road"/>
    <tag k="addr:state" v="VT"/>
    <tag k="ref:vcgi:esiteid" v="115599"/>
  </node>
  <node id="-852" visible="true" lat="44.55056848" lon="-72.26704575">
    <tag k="addr:housenumber" v="281"/>
    <tag k="addr:street" v="The Bend Road"/>
    <tag k="addr:state" v="VT"/>
    <tag k="ref:vcgi:esiteid" v="115601"/>
  </node>
  <node id="-853" visible="true" lat="44.60075383" lon="-72.24036491">
    <tag k="addr:housenumber" v="463"/>
    <tag k="addr:street" v="Salls Road"/>
    <tag k="addr:state" v="VT"/>
    <tag k="ref:vcgi:esiteid" v="115602"/>
  </node>
  <node id="-854" visible="true" lat="44.58520509" lon="-72.32166876">
    <tag k="addr:housenumber" v="1625"/>
    <tag k="addr:street" v="Lake Shore Road"/>
    <tag k="addr:state" v="VT"/>
    <tag k="ref:vcgi:esiteid" v="115603"/>
  </node>
  <node id="-855" visible="true" lat="44.55776315" lon="-72.25752177">
    <tag k="addr:housenumber" v="225"/>
    <tag k="addr:street" v="Main Street"/>
    <tag k="addr:state" v="VT"/>
    <tag k="ref:vcgi:esiteid" v="115604"/>
  </node>
  <node id="-856" visible="true" lat="44.60557371" lon="-72.25955351">
    <tag k="addr:housenumber" v="615"/>
    <tag k="addr:street" v="Hill Road"/>
    <tag k="addr:state" v="VT"/>
    <tag k="ref:vcgi:esiteid" v="115605"/>
  </node>
  <node id="-857" visible="true" lat="44.65176238" lon="-72.3155672">
    <tag k="addr:housenumber" v="1501"/>
    <tag k="addr:street" v="Shadow Lake Road"/>
    <tag k="addr:state" v="VT"/>
    <tag k="ref:vcgi:esiteid" v="115606"/>
  </node>
  <node id="-858" visible="true" lat="44.58189394" lon="-72.27884496">
    <tag k="addr:housenumber" v="357"/>
    <tag k="addr:street" v="Garvin Hill Road"/>
    <tag k="addr:state" v="VT"/>
    <tag k="ref:vcgi:esiteid" v="115607"/>
  </node>
  <node id="-860" visible="true" lat="44.57130447" lon="-72.26998283">
    <tag k="addr:housenumber" v="49"/>
    <tag k="addr:street" v="Vogan Road"/>
    <tag k="addr:state" v="VT"/>
    <tag k="ref:vcgi:esiteid" v="115609"/>
  </node>
  <node id="-861" visible="true" lat="44.57811928" lon="-72.2819954">
    <tag k="addr:housenumber" v="787"/>
    <tag k="addr:street" v="Cemetery Ridge"/>
    <tag k="addr:state" v="VT"/>
    <tag k="ref:vcgi:esiteid" v="115610"/>
  </node>
  <node id="-862" visible="true" lat="44.58367432" lon="-72.29256365">
    <tag k="addr:housenumber" v="399"/>
    <tag k="addr:street" v="Lauredon Avenue"/>
    <tag k="addr:state" v="VT"/>
    <tag k="ref:vcgi:esiteid" v="115611"/>
  </node>
  <node id="-864" visible="true" lat="44.57210308" lon="-72.30313481">
    <tag k="addr:housenumber" v="532"/>
    <tag k="addr:street" v="Breezy Avenue"/>
    <tag k="addr:state" v="VT"/>
    <tag k="ref:vcgi:esiteid" v="115613"/>
  </node>
  <node id="-865" visible="true" lat="44.60545856" lon="-72.30808592">
    <tag k="addr:housenumber" v="251"/>
    <tag k="addr:street" v="Gebbie Road"/>
    <tag k="addr:state" v="VT"/>
    <tag k="ref:vcgi:esiteid" v="115614"/>
  </node>
  <node id="-866" visible="true" lat="44.58866185" lon="-72.32502744">
    <tag k="addr:housenumber" v="1904"/>
    <tag k="addr:street" v="Lake Shore Road"/>
    <tag k="addr:state" v="VT"/>
    <tag k="ref:vcgi:esiteid" v="115615"/>
  </node>
  <node id="-867" visible="true" lat="44.65128478" lon="-72.27877696">
    <tag k="addr:housenumber" v="642"/>
    <tag k="addr:street" v="White Road"/>
    <tag k="addr:state" v="VT"/>
    <tag k="ref:vcgi:esiteid" v="115616"/>
  </node>
  <node id="-868" visible="true" lat="44.59037231" lon="-72.23092892">
    <tag k="addr:housenumber" v="120"/>
    <tag k="addr:street" v="Pellegrini Pike"/>
    <tag k="addr:state" v="VT"/>
    <tag k="ref:vcgi:esiteid" v="115617"/>
  </node>
  <node id="-869" visible="true" lat="44.57893644" lon="-72.29715368">
    <tag k="addr:housenumber" v="114"/>
    <tag k="addr:street" v="Church Lane"/>
    <tag k="addr:state" v="VT"/>
    <tag k="ref:vcgi:esiteid" v="115618"/>
  </node>
  <node id="-870" visible="true" lat="44.6015973" lon="-72.23711901">
    <tag k="addr:housenumber" v="504"/>
    <tag k="addr:street" v="Salls Road"/>
    <tag k="addr:state" v="VT"/>
    <tag k="ref:vcgi:esiteid" v="115619"/>
  </node>
  <node id="-871" visible="true" lat="44.62807744" lon="-72.27914517">
    <tag k="addr:housenumber" v="2270"/>
    <tag k="addr:street" v="Town Highway 8"/>
    <tag k="addr:state" v="VT"/>
    <tag k="ref:vcgi:esiteid" v="115621"/>
  </node>
  <node id="-876" visible="true" lat="44.6621439" lon="-72.31126007">
    <tag k="addr:housenumber" v="3277"/>
    <tag k="addr:street" v="Mud Island Road"/>
    <tag k="addr:state" v="VT"/>
    <tag k="ref:vcgi:esiteid" v="305888"/>
  </node>
  <node id="-877" visible="true" lat="44.57253337" lon="-72.27458774">
    <tag k="addr:housenumber" v="542"/>
    <tag k="addr:street" v="Young Road"/>
    <tag k="addr:state" v="VT"/>
    <tag k="ref:vcgi:esiteid" v="305889"/>
  </node>
  <node id="-878" visible="true" lat="44.59116972" lon="-72.32688853">
    <tag k="addr:housenumber" v="230"/>
    <tag k="addr:street" v="North Shore Road"/>
    <tag k="addr:state" v="VT"/>
    <tag k="ref:vcgi:esiteid" v="305890"/>
  </node>
  <node id="-879" visible="true" lat="44.5939006" lon="-72.23336655">
    <tag k="addr:housenumber" v="1160"/>
    <tag k="addr:street" v="Taylor Road"/>
    <tag k="addr:state" v="VT"/>
    <tag k="ref:vcgi:esiteid" v="306804"/>
  </node>
  <node id="-880" visible="true" lat="44.61745513" lon="-72.2441883">
    <tag k="addr:housenumber" v="95"/>
    <tag k="addr:street" v="Hunt Avenue"/>
    <tag k="addr:state" v="VT"/>
    <tag k="ref:vcgi:esiteid" v="306805"/>
  </node>
  <node id="-881" visible="true" lat="44.58667934" lon="-72.26921904">
    <tag k="addr:housenumber" v="111"/>
    <tag k="addr:street" v="Town Highway 41"/>
    <tag k="addr:state" v="VT"/>
    <tag k="ref:vcgi:esiteid" v="307545"/>
  </node>
  <node id="-882" visible="true" lat="44.57207351" lon="-72.309266">
    <tag k="addr:housenumber" v="372"/>
    <tag k="addr:street" v="Lake Shore Road"/>
    <tag k="addr:state" v="VT"/>
    <tag k="ref:vcgi:esiteid" v="308878"/>
  </node>
  <node id="-886" visible="true" lat="44.61715098" lon="-72.24402145">
    <tag k="addr:housenumber" v="129"/>
    <tag k="addr:street" v="Hunt Avenue"/>
    <tag k="addr:state" v="VT"/>
    <tag k="ref:vcgi:esiteid" v="313400"/>
  </node>
  <node id="-887" visible="true" lat="44.60290943" lon="-72.23540008">
    <tag k="addr:housenumber" v="540"/>
    <tag k="addr:street" v="Salls Road"/>
    <tag k="addr:state" v="VT"/>
    <tag k="ref:vcgi:esiteid" v="313551"/>
  </node>
  <node id="-888" visible="true" lat="44.59304783" lon="-72.33314235">
    <tag k="addr:housenumber" v="183"/>
    <tag k="addr:street" v="Bayley Hazen Road"/>
    <tag k="addr:state" v="VT"/>
    <tag k="ref:vcgi:esiteid" v="313553"/>
  </node>
  <node id="-889" visible="true" lat="44.55550138" lon="-72.27430672">
    <tag k="addr:housenumber" v="894"/>
    <tag k="addr:street" v="The Bend Road"/>
    <tag k="addr:state" v="VT"/>
    <tag k="ref:vcgi:esiteid" v="315279"/>
  </node>
  <node id="-890" visible="true" lat="44.58538153" lon="-72.27325351">
    <tag k="addr:housenumber" v="702"/>
    <tag k="addr:street" v="Garvin Hill Road"/>
    <tag k="addr:state" v="VT"/>
    <tag k="ref:vcgi:esiteid" v="325194"/>
  </node>
  <node id="-891" visible="true" lat="44.57809492" lon="-72.31526154">
    <tag k="addr:housenumber" v="966"/>
    <tag k="addr:street" v="Lake Shore Road"/>
    <tag k="addr:state" v="VT"/>
    <tag k="ref:vcgi:esiteid" v="325204"/>
  </node>
  <node id="-892" visible="true" lat="44.59418037" lon="-72.2863741">
    <tag k="addr:housenumber" v="632"/>
    <tag k="addr:street" v="Barr Hill Road"/>
    <tag k="addr:state" v="VT"/>
    <tag k="ref:vcgi:esiteid" v="325205"/>
  </node>
  <node id="-893" visible="true" lat="44.60057444" lon="-72.35837073">
    <tag k="addr:housenumber" v="1504"/>
    <tag k="addr:street" v="Eligo Lake Road"/>
    <tag k="addr:state" v="VT"/>
    <tag k="ref:vcgi:esiteid" v="325206"/>
  </node>
  <node id="-895" visible="true" lat="44.60461369" lon="-72.34949477">
    <tag k="addr:housenumber" v="965"/>
    <tag k="addr:street" v="Harrington Road"/>
    <tag k="addr:state" v="VT"/>
    <tag k="ref:vcgi:esiteid" v="326403"/>
  </node>
  <node id="-898" visible="true" lat="44.5875911" lon="-72.26801746">
    <tag k="addr:housenumber" v="148"/>
    <tag k="addr:street" v="Town Highway 41"/>
    <tag k="addr:state" v="VT"/>
    <tag k="ref:vcgi:esiteid" v="328612"/>
  </node>
  <node id="-899" visible="true" lat="44.59705539" lon="-72.31011045">
    <tag k="addr:housenumber" v="155"/>
    <tag k="addr:street" v="Miller Road"/>
    <tag k="addr:state" v="VT"/>
    <tag k="ref:vcgi:esiteid" v="328798"/>
  </node>
  <node id="-900" visible="true" lat="44.61961841" lon="-72.3084464">
    <tag k="addr:housenumber" v="895"/>
    <tag k="addr:street" v="Gebbie Road"/>
    <tag k="addr:state" v="VT"/>
    <tag k="ref:vcgi:esiteid" v="329215"/>
  </node>
  <node id="-901" visible="true" lat="44.58208112" lon="-72.31826045">
    <tag k="addr:housenumber" v="1301"/>
    <tag k="addr:street" v="Lake Shore Road"/>
    <tag k="addr:state" v="VT"/>
    <tag k="ref:vcgi:esiteid" v="331186"/>
  </node>
  <node id="-902" visible="true" lat="44.56200525" lon="-72.30047639">
    <tag k="addr:housenumber" v="2452"/>
    <tag k="addr:street" v="Hardwick Street"/>
    <tag k="addr:state" v="VT"/>
    <tag k="ref:vcgi:esiteid" v="331687"/>
  </node>
  <node id="-903" visible="true" lat="44.57195082" lon="-72.27243068">
    <tag k="addr:housenumber" v="642"/>
    <tag k="addr:street" v="Young Road"/>
    <tag k="addr:state" v="VT"/>
    <tag k="ref:vcgi:esiteid" v="331892"/>
  </node>
  <node id="-905" visible="true" lat="44.58873242" lon="-72.32825566">
    <tag k="addr:housenumber" v="2000"/>
    <tag k="addr:street" v="Lake Shore Road"/>
    <tag k="addr:state" v="VT"/>
    <tag k="ref:vcgi:esiteid" v="332980"/>
  </node>
  <node id="-906" visible="true" lat="44.59097086" lon="-72.2305057">
    <tag k="addr:housenumber" v="76"/>
    <tag k="addr:street" v="Pellegrini Pike"/>
    <tag k="addr:state" v="VT"/>
    <tag k="ref:vcgi:esiteid" v="333866"/>
  </node>
  <node id="-907" visible="true" lat="44.60909064" lon="-72.24218002">
    <tag k="addr:housenumber" v="1023"/>
    <tag k="addr:street" v="Salls Road"/>
    <tag k="addr:state" v="VT"/>
    <tag k="ref:vcgi:esiteid" v="334987"/>
  </node>
  <node id="-910" visible="true" lat="44.59005658" lon="-72.27007846">
    <tag k="addr:housenumber" v="1051"/>
    <tag k="addr:street" v="Garvin Hill Road"/>
    <tag k="addr:state" v="VT"/>
    <tag k="ref:vcgi:esiteid" v="336458"/>
  </node>
  <node id="-913" visible="true" lat="44.5760154" lon="-72.31265196">
    <tag k="addr:housenumber" v="1142"/>
    <tag k="addr:street" v="Poplar Lane"/>
    <tag k="addr:state" v="VT"/>
    <tag k="ref:vcgi:esiteid" v="340613"/>
  </node>
  <node id="-916" visible="true" lat="44.61604994" lon="-72.27250221">
    <tag k="addr:housenumber" v="1466"/>
    <tag k="addr:street" v="Town Highway 8"/>
    <tag k="addr:state" v="VT"/>
    <tag k="ref:vcgi:esiteid" v="342914"/>
  </node>
  <node id="-917" visible="true" lat="44.57347837" lon="-72.26271763">
    <tag k="addr:housenumber" v="1135"/>
    <tag k="addr:street" v="Young Road"/>
    <tag k="addr:state" v="VT"/>
    <tag k="ref:vcgi:esiteid" v="344403"/>
  </node>
  <node id="-918" visible="true" lat="44.60894465" lon="-72.35145491">
    <tag k="addr:housenumber" v="783"/>
    <tag k="addr:street" v="Lake Road"/>
    <tag k="addr:state" v="VT"/>
    <tag k="ref:vcgi:esiteid" v="345227"/>
  </node>
  <node id="-919" visible="true" lat="44.57168819" lon="-72.24299138">
    <tag k="addr:housenumber" v="411"/>
    <tag k="addr:street" v="Gonyaw Road"/>
    <tag k="addr:state" v="VT"/>
    <tag k="ref:vcgi:esiteid" v="345228"/>
  </node>
  <node id="-920" visible="true" lat="44.60685434" lon="-72.35394297">
    <tag k="addr:housenumber" v="662"/>
    <tag k="addr:street" v="Lake Road"/>
    <tag k="addr:state" v="VT"/>
    <tag k="ref:vcgi:esiteid" v="345229"/>
  </node>
  <node id="-923" visible="true" lat="44.59522463" lon="-72.29293827">
    <tag k="addr:housenumber" v="650"/>
    <tag k="addr:street" v="Reservoir Road"/>
    <tag k="addr:state" v="VT"/>
    <tag k="ref:vcgi:esiteid" v="447777"/>
  </node>
  <node id="-924" visible="true" lat="44.54487901" lon="-72.26129276">
    <tag k="addr:housenumber" v="77"/>
    <tag k="addr:street" v="Winchester Road"/>
    <tag k="addr:state" v="VT"/>
    <tag k="ref:vcgi:esiteid" v="447778"/>
  </node>
  <node id="-927" visible="true" lat="44.5995141" lon="-72.34788551">
    <tag k="addr:housenumber" v="581"/>
    <tag k="addr:street" v="Harrington Road"/>
    <tag k="addr:state" v="VT"/>
    <tag k="ref:vcgi:esiteid" v="448217"/>
  </node>
  <node id="-929" visible="true" lat="44.59265116" lon="-72.29447031">
    <tag k="addr:housenumber" v="332"/>
    <tag k="addr:street" v="Reservoir Road"/>
    <tag k="addr:state" v="VT"/>
    <tag k="ref:vcgi:esiteid" v="451946"/>
  </node>
  <node id="-931" visible="true" lat="44.57009547" lon="-72.29947607">
    <tag k="addr:housenumber" v="14"/>
    <tag k="addr:street" v="Clown Alley"/>
    <tag k="addr:state" v="VT"/>
    <tag k="ref:vcgi:esiteid" v="453609"/>
  </node>
  <node id="-937" visible="true" lat="44.597936" lon="-72.25249244">
    <tag k="addr:housenumber" v="114"/>
    <tag k="addr:street" v="Taylor Road"/>
    <tag k="addr:state" v="VT"/>
    <tag k="ref:vcgi:esiteid" v="610654"/>
  </node>
  <node id="-938" visible="true" lat="44.5969402" lon="-72.25116367">
    <tag k="addr:housenumber" v="198"/>
    <tag k="addr:street" v="Taylor Road"/>
    <tag k="addr:state" v="VT"/>
    <tag k="ref:vcgi:esiteid" v="610655"/>
  </node>
  <node id="-939" visible="true" lat="44.57246877" lon="-72.31724992">
    <tag k="addr:housenumber" v="647"/>
    <tag k="addr:street" v="Lake Shore Road"/>
    <tag k="addr:state" v="VT"/>
    <tag k="ref:vcgi:esiteid" v="610656"/>
  </node>
  <node id="-941" visible="true" lat="44.59439646" lon="-72.35860996">
    <tag k="addr:housenumber" v="1049"/>
    <tag k="addr:street" v="Eligo Lake Road"/>
    <tag k="addr:state" v="VT"/>
    <tag k="ref:vcgi:esiteid" v="610961"/>
  </node>
  <node id="-950" visible="true" lat="44.64702905" lon="-72.27942988">
    <tag k="addr:housenumber" v="919"/>
    <tag k="addr:street" v="White Road"/>
    <tag k="addr:state" v="VT"/>
    <tag k="ref:vcgi:esiteid" v="700119"/>
  </node>
  <node id="-953" visible="true" lat="44.56340134" lon="-72.30538551">
    <tag k="addr:housenumber" v="2747"/>
    <tag k="addr:street" v="Hardwick Street"/>
    <tag k="addr:state" v="VT"/>
    <tag k="ref:vcgi:esiteid" v="750138"/>
  </node>
  <node id="-954" visible="true" lat="44.6439505" lon="-72.29436127">
    <tag k="addr:housenumber" v="1100"/>
    <tag k="addr:street" v="Rocking Rock Road"/>
    <tag k="addr:state" v="VT"/>
    <tag k="ref:vcgi:esiteid" v="750472"/>
  </node>
  <node id="-955" visible="true" lat="44.58927965" lon="-72.29009996">
    <tag k="addr:housenumber" v="125"/>
    <tag k="addr:street" v="Barr Hill Road"/>
    <tag k="addr:state" v="VT"/>
    <tag k="ref:vcgi:esiteid" v="750473"/>
  </node>
  <node id="-956" visible="true" lat="44.57926203" lon="-72.29019252">
    <tag k="addr:housenumber" v="305"/>
    <tag k="addr:street" v="Cemetery Ridge"/>
    <tag k="addr:state" v="VT"/>
    <tag k="ref:vcgi:esiteid" v="750474"/>
  </node>
  <node id="-963" visible="true" lat="44.58751068" lon="-72.32604836">
    <tag k="addr:housenumber" v="1902"/>
    <tag k="addr:street" v="Lake Shore Road"/>
    <tag k="addr:state" v="VT"/>
    <tag k="ref:vcgi:esiteid" v="752738"/>
  </node>
  <node id="-998" visible="true" lat="44.60455825" lon="-72.25647281">
    <tag k="addr:housenumber" v="37"/>
    <tag k="addr:street" v="Hillcrest Road"/>
    <tag k="addr:state" v="VT"/>
    <tag k="ref:vcgi:esiteid" v="900104"/>
  </node>
</osm>
