<?xml version="1.0" encoding="UTF-8"?>
<osm version="0.6" generator="JOSM">
  <node id="-100" visible="true" lat="44.59357692" lon="-72.23149624">
    <tag k="addr:housenumber" v="3925"/>
    <tag k="addr:street" v="Vermont Route 16"/>
    <tag k="addr:state" v="VT"/>
    <tag k="ref:vcgi:esiteid" v="175"/>
  </node>
  <node id="-103" visible="true" lat="44.65246733" lon="-72.31194858">
    <tag k="addr:housenumber" v="1735"/>
    <tag k="addr:street" v="Shadow Lake Road"/>
    <tag k="addr:state" v="VT"/>
    <tag k="ref:vcgi:esiteid" v="114818"/>
  </node>
  <node id="-108" visible="true" lat="44.64807128" lon="-72.31409454">
    <tag k="addr:housenumber" v="1324"/>
    <tag k="addr:street" v="Shadow Lake Road"/>
    <tag k="addr:state" v="VT"/>
    <tag k="ref:vcgi:esiteid" v="114823"/>
  </node>
  <node id="-110" visible="true" lat="44.64584732" lon="-72.31333923">
    <tag k="addr:housenumber" v="1258"/>
    <tag k="addr:street" v="Shadow Lake Road"/>
    <tag k="addr:state" v="VT"/>
    <tag k="ref:vcgi:esiteid" v="114825"/>
  </node>
  <node id="-117" visible="true" lat="44.64109039" lon="-72.29953003">
    <tag k="addr:housenumber" v="257"/>
    <tag k="addr:street" v="Collier Road"/>
    <tag k="addr:state" v="VT"/>
    <tag k="ref:vcgi:esiteid" v="114833"/>
  </node>
  <node id="-119" visible="true" lat="44.63956833" lon="-72.31835175">
    <tag k="addr:housenumber" v="697"/>
    <tag k="addr:street" v="Shadow Lake Road"/>
    <tag k="addr:state" v="VT"/>
    <tag k="ref:vcgi:esiteid" v="114835"/>
  </node>
  <node id="-120" visible="true" lat="44.63757324" lon="-72.31907654">
    <tag k="addr:housenumber" v="557"/>
    <tag k="addr:street" v="Shadow Lake Road"/>
    <tag k="addr:state" v="VT"/>
    <tag k="ref:vcgi:esiteid" v="114836"/>
  </node>
  <node id="-132" visible="true" lat="44.63047027" lon="-72.32714843">
    <tag k="addr:housenumber" v="4202"/>
    <tag k="addr:street" v="Craftsbury Road"/>
    <tag k="addr:state" v="VT"/>
    <tag k="ref:vcgi:esiteid" v="114849"/>
  </node>
  <node id="-136" visible="true" lat="44.62945175" lon="-72.29277801">
    <tag k="addr:housenumber" v="2023"/>
    <tag k="addr:street" v="Gebbie Road"/>
    <tag k="addr:state" v="VT"/>
    <tag k="ref:vcgi:esiteid" v="114853"/>
  </node>
  <node id="-138" visible="true" lat="44.62833417" lon="-72.29348789">
    <tag k="addr:housenumber" v="1955"/>
    <tag k="addr:street" v="Gebbie Road"/>
    <tag k="addr:state" v="VT"/>
    <tag k="ref:vcgi:esiteid" v="114855"/>
  </node>
  <node id="-142" visible="true" lat="44.62701797" lon="-72.29510498">
    <tag k="addr:housenumber" v="1849"/>
    <tag k="addr:street" v="Gebbie Road"/>
    <tag k="addr:state" v="VT"/>
    <tag k="ref:vcgi:esiteid" v="114859"/>
  </node>
  <node id="-147" visible="true" lat="44.62488555" lon="-72.30212402">
    <tag k="addr:housenumber" v="369"/>
    <tag k="addr:street" v="Hanson Drive"/>
    <tag k="addr:state" v="VT"/>
    <tag k="ref:vcgi:esiteid" v="114864"/>
  </node>
  <node id="-148" visible="true" lat="44.62488779" lon="-72.29594348">
    <tag k="addr:housenumber" v="1684"/>
    <tag k="addr:street" v="Gebbie Road"/>
    <tag k="addr:state" v="VT"/>
    <tag k="ref:vcgi:esiteid" v="114865"/>
  </node>
  <node id="-149" visible="true" lat="44.62456226" lon="-72.29941724">
    <tag k="addr:housenumber" v="80"/>
    <tag k="addr:street" v="Hanson Drive"/>
    <tag k="addr:state" v="VT"/>
    <tag k="ref:vcgi:esiteid" v="114866"/>
  </node>
  <node id="-151" visible="true" lat="44.62427902" lon="-72.32803344">
    <tag k="addr:housenumber" v="3668"/>
    <tag k="addr:street" v="Craftsbury Road"/>
    <tag k="addr:state" v="VT"/>
    <tag k="ref:vcgi:esiteid" v="114868"/>
  </node>
  <node id="-155" visible="true" lat="44.62342834" lon="-72.30164337">
    <tag k="addr:housenumber" v="224"/>
    <tag k="addr:street" v="Hanson Drive"/>
    <tag k="addr:state" v="VT"/>
    <tag k="ref:vcgi:esiteid" v="114872"/>
  </node>
  <node id="-156" visible="true" lat="44.62338908" lon="-72.32729058">
    <tag k="addr:housenumber" v="3666"/>
    <tag k="addr:street" v="Craftsbury Road"/>
    <tag k="addr:state" v="VT"/>
    <tag k="ref:vcgi:esiteid" v="114873"/>
  </node>
  <node id="-158" visible="true" lat="44.62212753" lon="-72.296669">
    <tag k="addr:housenumber" v="1578"/>
    <tag k="addr:street" v="Gebbie Road"/>
    <tag k="addr:state" v="VT"/>
    <tag k="ref:vcgi:esiteid" v="114875"/>
  </node>
  <node id="-159" visible="true" lat="44.62185298" lon="-72.27903234">
    <tag k="addr:housenumber" v="1747"/>
    <tag k="addr:street" v="Town Highway 8"/>
    <tag k="addr:state" v="VT"/>
    <tag k="ref:vcgi:esiteid" v="114876"/>
  </node>
  <node id="-161" visible="true" lat="44.62087249" lon="-72.24167633">
    <tag k="addr:housenumber" v="360"/>
    <tag k="addr:street" v="Hunt Avenue"/>
    <tag k="addr:state" v="VT"/>
    <tag k="ref:vcgi:esiteid" v="114878"/>
  </node>
  <node id="-162" visible="true" lat="44.62080001" lon="-72.24170684">
    <tag k="addr:housenumber" v="357"/>
    <tag k="addr:street" v="Hunt Avenue"/>
    <tag k="addr:state" v="VT"/>
    <tag k="ref:vcgi:esiteid" v="114879"/>
  </node>
  <node id="-163" visible="true" lat="44.6206398" lon="-72.22223663">
    <tag k="addr:housenumber" v="1148"/>
    <tag k="addr:street" v="Highlander Street"/>
    <tag k="addr:state" v="VT"/>
    <tag k="ref:vcgi:esiteid" v="114880"/>
  </node>
  <node id="-165" visible="true" lat="44.618927" lon="-72.20807647">
    <tag k="addr:housenumber" v="6366"/>
    <tag k="addr:street" v="Vermont Route 16"/>
    <tag k="addr:state" v="VT"/>
    <tag k="ref:vcgi:esiteid" v="114885"/>
  </node>
  <node id="-169" visible="true" lat="44.61739349" lon="-72.20789337">
    <tag k="addr:housenumber" v="6258"/>
    <tag k="addr:street" v="Vermont Route 16"/>
    <tag k="addr:state" v="VT"/>
    <tag k="ref:vcgi:esiteid" v="114889"/>
  </node>
  <node id="-174" visible="true" lat="44.61666488" lon="-72.2083435">
    <tag k="addr:housenumber" v="6210"/>
    <tag k="addr:street" v="Vermont Route 16"/>
    <tag k="addr:state" v="VT"/>
    <tag k="ref:vcgi:esiteid" v="114894"/>
  </node>
  <node id="-175" visible="true" lat="44.61655807" lon="-72.331604">
    <tag k="addr:housenumber" v="3373"/>
    <tag k="addr:street" v="Craftsbury Road"/>
    <tag k="addr:state" v="VT"/>
    <tag k="ref:vcgi:esiteid" v="114895"/>
  </node>
  <node id="-180" visible="true" lat="44.61480067" lon="-72.32044979">
    <tag k="addr:housenumber" v="2838"/>
    <tag k="addr:street" v="Craftsbury Road"/>
    <tag k="addr:state" v="VT"/>
    <tag k="ref:vcgi:esiteid" v="114900"/>
  </node>
  <node id="-203" visible="true" lat="44.60694706" lon="-72.35756544">
    <tag k="addr:housenumber" v="120"/>
    <tag k="addr:street" v="Durkee Road"/>
    <tag k="addr:state" v="VT"/>
    <tag k="ref:vcgi:esiteid" v="114923"/>
  </node>
  <node id="-204" visible="true" lat="44.60650253" lon="-72.24782562">
    <tag k="addr:housenumber" v="420"/>
    <tag k="addr:street" v="Hillcrest Road"/>
    <tag k="addr:state" v="VT"/>
    <tag k="ref:vcgi:esiteid" v="114924"/>
  </node>
  <node id="-207" visible="true" lat="44.6063804" lon="-72.35761195">
    <tag k="addr:housenumber" v="90"/>
    <tag k="addr:street" v="Durkee Road"/>
    <tag k="addr:state" v="VT"/>
    <tag k="ref:vcgi:esiteid" v="114927"/>
  </node>
  <node id="-210" visible="true" lat="44.60587693" lon="-72.35769669">
    <tag k="addr:housenumber" v="66"/>
    <tag k="addr:street" v="Durkee Road"/>
    <tag k="addr:state" v="VT"/>
    <tag k="ref:vcgi:esiteid" v="114930"/>
  </node>
  <node id="-215" visible="true" lat="44.60460573" lon="-72.26331363">
    <tag k="addr:housenumber" v="494"/>
    <tag k="addr:street" v="Hill Road"/>
    <tag k="addr:state" v="VT"/>
    <tag k="ref:vcgi:esiteid" v="114935"/>
  </node>
  <node id="-218" visible="true" lat="44.60337448" lon="-72.3578186">
    <tag k="addr:housenumber" v="1710"/>
    <tag k="addr:street" v="Eligo Lake Road"/>
    <tag k="addr:state" v="VT"/>
    <tag k="ref:vcgi:esiteid" v="114938"/>
  </node>
  <node id="-220" visible="true" lat="44.60282549" lon="-72.30795874">
    <tag k="addr:housenumber" v="1796"/>
    <tag k="addr:street" v="Craftsbury Road"/>
    <tag k="addr:state" v="VT"/>
    <tag k="ref:vcgi:esiteid" v="114940"/>
  </node>
  <node id="-225" visible="true" lat="44.60153198" lon="-72.31208038">
    <tag k="addr:housenumber" v="1241"/>
    <tag k="addr:street" v="North Shore Road"/>
    <tag k="addr:state" v="VT"/>
    <tag k="ref:vcgi:esiteid" v="114945"/>
  </node>
  <node id="-226" visible="true" lat="44.60073846" lon="-72.30375816">
    <tag k="addr:housenumber" v="122"/>
    <tag k="addr:street" v="Smith Road"/>
    <tag k="addr:state" v="VT"/>
    <tag k="ref:vcgi:esiteid" v="114946"/>
  </node>
  <node id="-227" visible="true" lat="44.6003884" lon="-72.30312039">
    <tag k="addr:housenumber" v="160"/>
    <tag k="addr:street" v="Smith Road"/>
    <tag k="addr:state" v="VT"/>
    <tag k="ref:vcgi:esiteid" v="114947"/>
  </node>
  <node id="-228" visible="true" lat="44.60044554" lon="-72.30649774">
    <tag k="addr:housenumber" v="1661"/>
    <tag k="addr:street" v="Craftsbury Road"/>
    <tag k="addr:state" v="VT"/>
    <tag k="ref:vcgi:esiteid" v="114948"/>
  </node>
  <node id="-229" visible="true" lat="44.60027313" lon="-72.30553436">
    <tag k="addr:housenumber" v="1608"/>
    <tag k="addr:street" v="Craftsbury Road"/>
    <tag k="addr:state" v="VT"/>
    <tag k="ref:vcgi:esiteid" v="114949"/>
  </node>
  <node id="-230" visible="true" lat="44.60032272" lon="-72.35055541">
    <tag k="addr:housenumber" v="1854"/>
    <tag k="addr:street" v="Overlook Road"/>
    <tag k="addr:state" v="VT"/>
    <tag k="ref:vcgi:esiteid" v="114950"/>
  </node>
  <node id="-231" visible="true" lat="44.60001475" lon="-72.33021834">
    <tag k="addr:housenumber" v="742"/>
    <tag k="addr:street" v="Bayley Hazen Road"/>
    <tag k="addr:state" v="VT"/>
    <tag k="ref:vcgi:esiteid" v="114951"/>
  </node>
  <node id="-232" visible="true" lat="44.60022735" lon="-72.3128128">
    <tag k="addr:housenumber" v="1193"/>
    <tag k="addr:street" v="North Shore Road"/>
    <tag k="addr:state" v="VT"/>
    <tag k="ref:vcgi:esiteid" v="114952"/>
  </node>
  <node id="-233" visible="true" lat="44.60459991" lon="-72.29345836">
    <tag k="addr:housenumber" v="1521"/>
    <tag k="addr:street" v="Barr Hill Road"/>
    <tag k="addr:state" v="VT"/>
    <tag k="ref:vcgi:esiteid" v="114953"/>
  </node>
  <node id="-235" visible="true" lat="44.59981536" lon="-72.30286407">
    <tag k="addr:housenumber" v="162"/>
    <tag k="addr:street" v="Smith Road"/>
    <tag k="addr:state" v="VT"/>
    <tag k="ref:vcgi:esiteid" v="114955"/>
  </node>
  <node id="-236" visible="true" lat="44.59936109" lon="-72.35854087">
    <tag k="addr:housenumber" v="1440"/>
    <tag k="addr:street" v="Eligo Lake Road"/>
    <tag k="addr:state" v="VT"/>
    <tag k="ref:vcgi:esiteid" v="114956"/>
  </node>
  <node id="-238" visible="true" lat="44.59887292" lon="-72.22678495">
    <tag k="addr:housenumber" v="4407"/>
    <tag k="addr:street" v="Vermont Route 16"/>
    <tag k="addr:state" v="VT"/>
    <tag k="ref:vcgi:esiteid" v="114958"/>
  </node>
  <node id="-239" visible="true" lat="44.60034684" lon="-72.31890782">
    <tag k="addr:housenumber" v="813"/>
    <tag k="addr:street" v="North Shore Road"/>
    <tag k="addr:state" v="VT"/>
    <tag k="ref:vcgi:esiteid" v="114959"/>
  </node>
  <node id="-241" visible="true" lat="44.59870251" lon="-72.3041875">
    <tag k="addr:housenumber" v="1380"/>
    <tag k="addr:street" v="Craftsbury Road"/>
    <tag k="addr:state" v="VT"/>
    <tag k="ref:vcgi:esiteid" v="114961"/>
  </node>
  <node id="-244" visible="true" lat="44.59822385" lon="-72.30396977">
    <tag k="addr:housenumber" v="1376"/>
    <tag k="addr:street" v="Craftsbury Road"/>
    <tag k="addr:state" v="VT"/>
    <tag k="ref:vcgi:esiteid" v="114964"/>
  </node>
  <node id="-253" visible="true" lat="44.59775161" lon="-72.31386566">
    <tag k="addr:housenumber" v="995"/>
    <tag k="addr:street" v="North Shore Road"/>
    <tag k="addr:state" v="VT"/>
    <tag k="ref:vcgi:esiteid" v="114974"/>
  </node>
  <node id="-256" visible="true" lat="44.59757995" lon="-72.35334014">
    <tag k="addr:housenumber" v="1875"/>
    <tag k="addr:street" v="Overlook Road"/>
    <tag k="addr:state" v="VT"/>
    <tag k="ref:vcgi:esiteid" v="114977"/>
  </node>
  <node id="-261" visible="true" lat="44.59682846" lon="-72.35671234">
    <tag k="addr:housenumber" v="1228"/>
    <tag k="addr:street" v="Eligo Lake Road"/>
    <tag k="addr:state" v="VT"/>
    <tag k="ref:vcgi:esiteid" v="114982"/>
  </node>
  <node id="-262" visible="true" lat="44.59666729" lon="-72.30792827">
    <tag k="addr:housenumber" v="330"/>
    <tag k="addr:street" v="Bathtub Rock Road"/>
    <tag k="addr:state" v="VT"/>
    <tag k="ref:vcgi:esiteid" v="114983"/>
  </node>
  <node id="-275" visible="true" lat="44.59550094" lon="-72.27404022">
    <tag k="addr:housenumber" v="1091"/>
    <tag k="addr:street" v="Baker Hill Road"/>
    <tag k="addr:state" v="VT"/>
    <tag k="ref:vcgi:esiteid" v="114996"/>
  </node>
  <node id="-276" visible="true" lat="44.59537506" lon="-72.22831726">
    <tag k="addr:housenumber" v="4130"/>
    <tag k="addr:street" v="Vermont Route 16"/>
    <tag k="addr:state" v="VT"/>
    <tag k="ref:vcgi:esiteid" v="114997"/>
  </node>
  <node id="-283" visible="true" lat="44.59503936" lon="-72.2734909">
    <tag k="addr:housenumber" v="1067"/>
    <tag k="addr:street" v="Baker Hill Road"/>
    <tag k="addr:state" v="VT"/>
    <tag k="ref:vcgi:esiteid" v="115004"/>
  </node>
  <node id="-287" visible="true" lat="44.5947753" lon="-72.3045628">
    <tag k="addr:housenumber" v="1271"/>
    <tag k="addr:street" v="Craftsbury Road"/>
    <tag k="addr:state" v="VT"/>
    <tag k="ref:vcgi:esiteid" v="115008"/>
  </node>
  <node id="-290" visible="true" lat="44.5945816" lon="-72.32006835">
    <tag k="addr:housenumber" v="605"/>
    <tag k="addr:street" v="North Shore Road"/>
    <tag k="addr:state" v="VT"/>
    <tag k="ref:vcgi:esiteid" v="115011"/>
  </node>
  <node id="-291" visible="true" lat="44.59439849" lon="-72.31851959">
    <tag k="addr:housenumber" v="35"/>
    <tag k="addr:street" v="Vanhook Road"/>
    <tag k="addr:state" v="VT"/>
    <tag k="ref:vcgi:esiteid" v="115012"/>
  </node>
  <node id="-294" visible="true" lat="44.59395408" lon="-72.30256133">
    <tag k="addr:housenumber" v="1183"/>
    <tag k="addr:street" v="Craftsbury Road"/>
    <tag k="addr:state" v="VT"/>
    <tag k="ref:vcgi:esiteid" v="115015"/>
  </node>
  <node id="-295" visible="true" lat="44.59416652" lon="-72.32184771">
    <tag k="addr:housenumber" v="505"/>
    <tag k="addr:street" v="North Shore Road"/>
    <tag k="addr:state" v="VT"/>
    <tag k="ref:vcgi:esiteid" v="115016"/>
  </node>
  <node id="-296" visible="true" lat="44.59402562" lon="-72.29530563">
    <tag k="addr:housenumber" v="739"/>
    <tag k="addr:street" v="Reservoir Road"/>
    <tag k="addr:state" v="VT"/>
    <tag k="ref:vcgi:esiteid" v="115017"/>
  </node>
  <node id="-299" visible="true" lat="44.59378879" lon="-72.30212212">
    <tag k="addr:housenumber" v="1129"/>
    <tag k="addr:street" v="Craftsbury Road"/>
    <tag k="addr:state" v="VT"/>
    <tag k="ref:vcgi:esiteid" v="115020"/>
  </node>
  <node id="-301" visible="true" lat="44.59383773" lon="-72.31826019">
    <tag k="addr:housenumber" v="75"/>
    <tag k="addr:street" v="Vanhook Road"/>
    <tag k="addr:state" v="VT"/>
    <tag k="ref:vcgi:esiteid" v="115022"/>
  </node>
  <node id="-302" visible="true" lat="44.59374618" lon="-72.31832885">
    <tag k="addr:housenumber" v="79"/>
    <tag k="addr:street" v="Vanhook Road"/>
    <tag k="addr:state" v="VT"/>
    <tag k="ref:vcgi:esiteid" v="115023"/>
  </node>
  <node id="-304" visible="true" lat="44.59359287" lon="-72.3016915">
    <tag k="addr:housenumber" v="1131"/>
    <tag k="addr:street" v="Craftsbury Road"/>
    <tag k="addr:state" v="VT"/>
    <tag k="ref:vcgi:esiteid" v="115025"/>
  </node>
  <node id="-305" visible="true" lat="44.59370401" lon="-72.32307215">
    <tag k="addr:housenumber" v="441"/>
    <tag k="addr:street" v="North Shore Road"/>
    <tag k="addr:state" v="VT"/>
    <tag k="ref:vcgi:esiteid" v="115026"/>
  </node>
  <node id="-307" visible="true" lat="44.59335482" lon="-72.32621891">
    <tag k="addr:housenumber" v="311"/>
    <tag k="addr:street" v="North Shore Road"/>
    <tag k="addr:state" v="VT"/>
    <tag k="ref:vcgi:esiteid" v="115028"/>
  </node>
  <node id="-315" visible="true" lat="44.59305848" lon="-72.32155754">
    <tag k="addr:housenumber" v="77"/>
    <tag k="addr:street" v="Howards End"/>
    <tag k="addr:state" v="VT"/>
    <tag k="ref:vcgi:esiteid" v="115036"/>
  </node>
  <node id="-323" visible="true" lat="44.59212862" lon="-72.32057513">
    <tag k="addr:housenumber" v="137"/>
    <tag k="addr:street" v="Howards End"/>
    <tag k="addr:state" v="VT"/>
    <tag k="ref:vcgi:esiteid" v="115044"/>
  </node>
  <node id="-332" visible="true" lat="44.59148191" lon="-72.35840462">
    <tag k="addr:housenumber" v="842"/>
    <tag k="addr:street" v="Eligo Lake Road"/>
    <tag k="addr:state" v="VT"/>
    <tag k="ref:vcgi:esiteid" v="115053"/>
  </node>
  <node id="-337" visible="true" lat="44.59049224" lon="-72.3013916">
    <tag k="addr:housenumber" v="92"/>
    <tag k="addr:street" v="Blacks Point"/>
    <tag k="addr:state" v="VT"/>
    <tag k="ref:vcgi:esiteid" v="115058"/>
  </node>
  <node id="-339" visible="true" lat="44.59029006" lon="-72.30159759">
    <tag k="addr:housenumber" v="108"/>
    <tag k="addr:street" v="Blacks Point"/>
    <tag k="addr:state" v="VT"/>
    <tag k="ref:vcgi:esiteid" v="115060"/>
  </node>
  <node id="-340" visible="true" lat="44.59028243" lon="-72.30407714">
    <tag k="addr:housenumber" v="250"/>
    <tag k="addr:street" v="Blacks Point"/>
    <tag k="addr:state" v="VT"/>
    <tag k="ref:vcgi:esiteid" v="115061"/>
  </node>
  <node id="-342" visible="true" lat="44.59015655" lon="-72.3043518">
    <tag k="addr:housenumber" v="246"/>
    <tag k="addr:street" v="Blacks Point"/>
    <tag k="addr:state" v="VT"/>
    <tag k="ref:vcgi:esiteid" v="115063"/>
  </node>
  <node id="-343" visible="true" lat="44.5897137" lon="-72.30105378">
    <tag k="addr:housenumber" v="107"/>
    <tag k="addr:street" v="Blacks Point"/>
    <tag k="addr:state" v="VT"/>
    <tag k="ref:vcgi:esiteid" v="115064"/>
  </node>
  <node id="-345" visible="true" lat="44.58980163" lon="-72.23537434">
    <tag k="addr:housenumber" v="3591"/>
    <tag k="addr:street" v="Vermont Route 16"/>
    <tag k="addr:state" v="VT"/>
    <tag k="ref:vcgi:esiteid" v="115066"/>
  </node>
  <node id="-346" visible="true" lat="44.58987404" lon="-72.28467407">
    <tag k="addr:housenumber" v="411"/>
    <tag k="addr:street" v="Baker Hill Road"/>
    <tag k="addr:state" v="VT"/>
    <tag k="ref:vcgi:esiteid" v="115067"/>
  </node>
  <node id="-348" visible="true" lat="44.58925979" lon="-72.30150983">
    <tag k="addr:housenumber" v="117"/>
    <tag k="addr:street" v="Blacks Point"/>
    <tag k="addr:state" v="VT"/>
    <tag k="ref:vcgi:esiteid" v="115069"/>
  </node>
  <node id="-349" visible="true" lat="44.58960723" lon="-72.30510711">
    <tag k="addr:housenumber" v="292"/>
    <tag k="addr:street" v="Blacks Point"/>
    <tag k="addr:state" v="VT"/>
    <tag k="ref:vcgi:esiteid" v="115070"/>
  </node>
  <node id="-350" visible="true" lat="44.58955001" lon="-72.30537414">
    <tag k="addr:housenumber" v="296"/>
    <tag k="addr:street" v="Blacks Point"/>
    <tag k="addr:state" v="VT"/>
    <tag k="ref:vcgi:esiteid" v="115071"/>
  </node>
  <node id="-351" visible="true" lat="44.58950042" lon="-72.30560302">
    <tag k="addr:housenumber" v="322"/>
    <tag k="addr:street" v="Blacks Point"/>
    <tag k="addr:state" v="VT"/>
    <tag k="ref:vcgi:esiteid" v="115072"/>
  </node>
  <node id="-352" visible="true" lat="44.58933639" lon="-72.30249023">
    <tag k="addr:housenumber" v="165"/>
    <tag k="addr:street" v="Blacks Point"/>
    <tag k="addr:state" v="VT"/>
    <tag k="ref:vcgi:esiteid" v="115073"/>
  </node>
  <node id="-359" visible="true" lat="44.58887481" lon="-72.3054428">
    <tag k="addr:housenumber" v="325"/>
    <tag k="addr:street" v="Blacks Point"/>
    <tag k="addr:state" v="VT"/>
    <tag k="ref:vcgi:esiteid" v="115080"/>
  </node>
  <node id="-365" visible="true" lat="44.58824798" lon="-72.23769975">
    <tag k="addr:housenumber" v="3453"/>
    <tag k="addr:street" v="Vermont Route 16"/>
    <tag k="addr:state" v="VT"/>
    <tag k="ref:vcgi:esiteid" v="115086"/>
  </node>
  <node id="-371" visible="true" lat="44.58792114" lon="-72.30449676">
    <tag k="addr:housenumber" v="146"/>
    <tag k="addr:street" v="Birch Lane"/>
    <tag k="addr:state" v="VT"/>
    <tag k="ref:vcgi:esiteid" v="115092"/>
  </node>
  <node id="-373" visible="true" lat="44.58759689" lon="-72.30397796">
    <tag k="addr:housenumber" v="151"/>
    <tag k="addr:street" v="Birch Lane"/>
    <tag k="addr:state" v="VT"/>
    <tag k="ref:vcgi:esiteid" v="115094"/>
  </node>
  <node id="-401" visible="true" lat="44.58567741" lon="-72.31943607">
    <tag k="addr:housenumber" v="1516"/>
    <tag k="addr:street" v="Lake Shore Road"/>
    <tag k="addr:state" v="VT"/>
    <tag k="ref:vcgi:esiteid" v="115123"/>
  </node>
  <node id="-402" visible="true" lat="44.58550142" lon="-72.24085635">
    <tag k="addr:housenumber" v="3251"/>
    <tag k="addr:street" v="Vermont Route 16"/>
    <tag k="addr:state" v="VT"/>
    <tag k="ref:vcgi:esiteid" v="115124"/>
  </node>
  <node id="-412" visible="true" lat="44.58495926" lon="-72.29807871">
    <tag k="addr:housenumber" v="479"/>
    <tag k="addr:street" v="Craftsbury Road"/>
    <tag k="addr:state" v="VT"/>
    <tag k="ref:vcgi:esiteid" v="115135"/>
  </node>
  <node id="-414" visible="true" lat="44.5849535" lon="-72.29735945">
    <tag k="addr:housenumber" v="456"/>
    <tag k="addr:street" v="Craftsbury Road"/>
    <tag k="addr:state" v="VT"/>
    <tag k="ref:vcgi:esiteid" v="115137"/>
  </node>
  <node id="-420" visible="true" lat="44.58450847" lon="-72.31527241">
    <tag k="addr:housenumber" v="122"/>
    <tag k="addr:street" v="Aspenhurst"/>
    <tag k="addr:state" v="VT"/>
    <tag k="ref:vcgi:esiteid" v="115143"/>
  </node>
  <node id="-427" visible="true" lat="44.58425964" lon="-72.29908122">
    <tag k="addr:housenumber" v="3"/>
    <tag k="addr:street" v="Winnimere Circle"/>
    <tag k="addr:state" v="VT"/>
    <tag k="ref:vcgi:esiteid" v="115150"/>
  </node>
  <node id="-435" visible="true" lat="44.58377972" lon="-72.29878209">
    <tag k="addr:housenumber" v="30"/>
    <tag k="addr:street" v="Winnimere Lane"/>
    <tag k="addr:state" v="VT"/>
    <tag k="ref:vcgi:esiteid" v="115159"/>
  </node>
  <node id="-444" visible="true" lat="44.58239254" lon="-72.29610738">
    <tag k="addr:housenumber" v="274"/>
    <tag k="addr:street" v="Craftsbury Road"/>
    <tag k="addr:state" v="VT"/>
    <tag k="ref:vcgi:esiteid" v="115168"/>
  </node>
  <node id="-445" visible="true" lat="44.58230155" lon="-72.29209218">
    <tag k="addr:housenumber" v="324"/>
    <tag k="addr:street" v="Lauredon Avenue"/>
    <tag k="addr:state" v="VT"/>
    <tag k="ref:vcgi:esiteid" v="115169"/>
  </node>
  <node id="-447" visible="true" lat="44.58230209" lon="-72.29954528">
    <tag k="addr:housenumber" v="109"/>
    <tag k="addr:street" v="High Pines"/>
    <tag k="addr:state" v="VT"/>
    <tag k="ref:vcgi:esiteid" v="115171"/>
  </node>
  <node id="-448" visible="true" lat="44.58211135" lon="-72.2988739">
    <tag k="addr:housenumber" v="103"/>
    <tag k="addr:street" v="High Pines"/>
    <tag k="addr:state" v="VT"/>
    <tag k="ref:vcgi:esiteid" v="115172"/>
  </node>
  <node id="-450" visible="true" lat="44.5818231" lon="-72.29560492">
    <tag k="addr:housenumber" v="238"/>
    <tag k="addr:street" v="Craftsbury Road"/>
    <tag k="addr:state" v="VT"/>
    <tag k="ref:vcgi:esiteid" v="115174"/>
  </node>
  <node id="-453" visible="true" lat="44.58125083" lon="-72.29687394">
    <tag k="addr:housenumber" v="203"/>
    <tag k="addr:street" v="Craftsbury Road"/>
    <tag k="addr:state" v="VT"/>
    <tag k="ref:vcgi:esiteid" v="115177"/>
  </node>
  <node id="-454" visible="true" lat="44.58116912" lon="-72.29592132">
    <tag k="addr:housenumber" v="182"/>
    <tag k="addr:street" v="Craftsbury Road"/>
    <tag k="addr:state" v="VT"/>
    <tag k="ref:vcgi:esiteid" v="115178"/>
  </node>
  <node id="-460" visible="true" lat="44.58075246" lon="-72.29671367">
    <tag k="addr:housenumber" v="159"/>
    <tag k="addr:street" v="Craftsbury Road"/>
    <tag k="addr:state" v="VT"/>
    <tag k="ref:vcgi:esiteid" v="115184"/>
  </node>
  <node id="-476" visible="true" lat="44.57946014" lon="-72.29811096">
    <tag k="addr:housenumber" v="157"/>
    <tag k="addr:street" v="Church Lane"/>
    <tag k="addr:state" v="VT"/>
    <tag k="ref:vcgi:esiteid" v="115202"/>
  </node>
  <node id="-479" visible="true" lat="44.57914352" lon="-72.29803466">
    <tag k="addr:housenumber" v="117"/>
    <tag k="addr:street" v="Church Lane"/>
    <tag k="addr:state" v="VT"/>
    <tag k="ref:vcgi:esiteid" v="115206"/>
  </node>
  <node id="-480" visible="true" lat="44.57857624" lon="-72.29780421">
    <tag k="addr:housenumber" v="95"/>
    <tag k="addr:street" v="Church Lane"/>
    <tag k="addr:state" v="VT"/>
    <tag k="ref:vcgi:esiteid" v="115208"/>
  </node>
  <node id="-487" visible="true" lat="44.57801819" lon="-72.24398804">
    <tag k="addr:housenumber" v="2651"/>
    <tag k="addr:street" v="Vermont Route 16"/>
    <tag k="addr:state" v="VT"/>
    <tag k="ref:vcgi:esiteid" v="115215"/>
  </node>
  <node id="-491" visible="true" lat="44.57750052" lon="-72.24315398">
    <tag k="addr:housenumber" v="2664"/>
    <tag k="addr:street" v="Vermont Route 16"/>
    <tag k="addr:state" v="VT"/>
    <tag k="ref:vcgi:esiteid" v="115219"/>
  </node>
  <node id="-494" visible="true" lat="44.57737795" lon="-72.28288711">
    <tag k="addr:housenumber" v="752"/>
    <tag k="addr:street" v="Cemetery Ridge"/>
    <tag k="addr:state" v="VT"/>
    <tag k="ref:vcgi:esiteid" v="115222"/>
  </node>
  <node id="-495" visible="true" lat="44.57754253" lon="-72.29114497">
    <tag k="addr:housenumber" v="188"/>
    <tag k="addr:street" v="Cemetery Ridge"/>
    <tag k="addr:state" v="VT"/>
    <tag k="ref:vcgi:esiteid" v="115223"/>
  </node>
  <node id="-507" visible="true" lat="44.57690687" lon="-72.29414622">
    <tag k="addr:housenumber" v="41"/>
    <tag k="addr:street" v="Cemetery Ridge"/>
    <tag k="addr:state" v="VT"/>
    <tag k="ref:vcgi:esiteid" v="115236"/>
  </node>
  <node id="-508" visible="true" lat="44.57655716" lon="-72.29806518">
    <tag k="addr:housenumber" v="124"/>
    <tag k="addr:street" v="Beach Road"/>
    <tag k="addr:state" v="VT"/>
    <tag k="ref:vcgi:esiteid" v="115237"/>
  </node>
  <node id="-518" visible="true" lat="44.57610854" lon="-72.29525298">
    <tag k="addr:housenumber" v="29"/>
    <tag k="addr:street" v="East Street"/>
    <tag k="addr:state" v="VT"/>
    <tag k="ref:vcgi:esiteid" v="115248"/>
  </node>
  <node id="-520" visible="true" lat="44.57596969" lon="-72.29600524">
    <tag k="addr:housenumber" v="11"/>
    <tag k="addr:street" v="Wilson Street"/>
    <tag k="addr:state" v="VT"/>
    <tag k="ref:vcgi:esiteid" v="115250"/>
  </node>
  <node id="-523" visible="true" lat="44.57575987" lon="-72.29512679">
    <tag k="addr:housenumber" v="32"/>
    <tag k="addr:street" v="East Street"/>
    <tag k="addr:state" v="VT"/>
    <tag k="ref:vcgi:esiteid" v="115254"/>
  </node>
  <node id="-543" visible="true" lat="44.57497192" lon="-72.31072845">
    <tag k="addr:housenumber" v="9"/>
    <tag k="addr:street" v="East Edgewood Lane"/>
    <tag k="addr:state" v="VT"/>
    <tag k="ref:vcgi:esiteid" v="115276"/>
  </node>
  <node id="-552" visible="true" lat="44.57438659" lon="-72.31127929">
    <tag k="addr:housenumber" v="34"/>
    <tag k="addr:street" v="East Edgewood Lane"/>
    <tag k="addr:state" v="VT"/>
    <tag k="ref:vcgi:esiteid" v="115286"/>
  </node>
  <node id="-583" visible="true" lat="44.57305526" lon="-72.30888366">
    <tag k="addr:housenumber" v="43"/>
    <tag k="addr:street" v="Rowdis Road"/>
    <tag k="addr:state" v="VT"/>
    <tag k="ref:vcgi:esiteid" v="115317"/>
  </node>
  <node id="-591" visible="true" lat="44.57294464" lon="-72.30873107">
    <tag k="addr:housenumber" v="21"/>
    <tag k="addr:street" v="Rowdis Road"/>
    <tag k="addr:state" v="VT"/>
    <tag k="ref:vcgi:esiteid" v="115325"/>
  </node>
  <node id="-603" visible="true" lat="44.57221984" lon="-72.29795837">
    <tag k="addr:housenumber" v="267"/>
    <tag k="addr:street" v="Breezy Avenue"/>
    <tag k="addr:state" v="VT"/>
    <tag k="ref:vcgi:esiteid" v="115338"/>
  </node>
  <node id="-609" visible="true" lat="44.57128398" lon="-72.29839967">
    <tag k="addr:housenumber" v="323"/>
    <tag k="addr:street" v="Breezy Avenue"/>
    <tag k="addr:state" v="VT"/>
    <tag k="ref:vcgi:esiteid" v="115345"/>
  </node>
  <node id="-611" visible="true" lat="44.57080459" lon="-72.29230499">
    <tag k="addr:housenumber" v="2307"/>
    <tag k="addr:street" v="The Bend Road"/>
    <tag k="addr:state" v="VT"/>
    <tag k="ref:vcgi:esiteid" v="115347"/>
  </node>
  <node id="-612" visible="true" lat="44.57085901" lon="-72.302001">
    <tag k="addr:housenumber" v="86"/>
    <tag k="addr:street" v="Als Avenue"/>
    <tag k="addr:state" v="VT"/>
    <tag k="ref:vcgi:esiteid" v="115349"/>
  </node>
  <node id="-615" visible="true" lat="44.57053829" lon="-72.29832277">
    <tag k="addr:housenumber" v="393"/>
    <tag k="addr:street" v="Breezy Avenue"/>
    <tag k="addr:state" v="VT"/>
    <tag k="ref:vcgi:esiteid" v="115352"/>
  </node>
  <node id="-619" visible="true" lat="44.5702629" lon="-72.30162048">
    <tag k="addr:housenumber" v="62"/>
    <tag k="addr:street" v="Als Avenue"/>
    <tag k="addr:state" v="VT"/>
    <tag k="ref:vcgi:esiteid" v="115356"/>
  </node>
  <node id="-620" visible="true" lat="44.57018507" lon="-72.29863529">
    <tag k="addr:housenumber" v="409"/>
    <tag k="addr:street" v="Breezy Avenue"/>
    <tag k="addr:state" v="VT"/>
    <tag k="ref:vcgi:esiteid" v="115357"/>
  </node>
  <node id="-623" visible="true" lat="44.56919479" lon="-72.31208801">
    <tag k="addr:housenumber" v="337"/>
    <tag k="addr:street" v="Lake Shore Road"/>
    <tag k="addr:state" v="VT"/>
    <tag k="ref:vcgi:esiteid" v="115361"/>
  </node>
  <node id="-624" visible="true" lat="44.56866043" lon="-72.30133363">
    <tag k="addr:housenumber" v="112"/>
    <tag k="addr:street" v="Country Club Road"/>
    <tag k="addr:state" v="VT"/>
    <tag k="ref:vcgi:esiteid" v="115362"/>
  </node>
  <node id="-625" visible="true" lat="44.56774902" lon="-72.25022888">
    <tag k="addr:housenumber" v="1902"/>
    <tag k="addr:street" v="Vermont Route 16"/>
    <tag k="addr:state" v="VT"/>
    <tag k="ref:vcgi:esiteid" v="115363"/>
  </node>
  <node id="-626" visible="true" lat="44.56793594" lon="-72.28706263">
    <tag k="addr:housenumber" v="1974"/>
    <tag k="addr:street" v="The Bend Road"/>
    <tag k="addr:state" v="VT"/>
    <tag k="ref:vcgi:esiteid" v="115364"/>
  </node>
  <node id="-628" visible="true" lat="44.56763458" lon="-72.25217437">
    <tag k="addr:housenumber" v="1811"/>
    <tag k="addr:street" v="Vermont Route 16"/>
    <tag k="addr:state" v="VT"/>
    <tag k="ref:vcgi:esiteid" v="115366"/>
  </node>
  <node id="-630" visible="true" lat="44.56769914" lon="-72.30554128">
    <tag k="addr:housenumber" v="2"/>
    <tag k="addr:street" v="Lake Shore Road"/>
    <tag k="addr:state" v="VT"/>
    <tag k="ref:vcgi:esiteid" v="115368"/>
  </node>
  <node id="-635" visible="true" lat="44.56337356" lon="-72.25286865">
    <tag k="addr:housenumber" v="1566"/>
    <tag k="addr:street" v="Vermont Route 16"/>
    <tag k="addr:state" v="VT"/>
    <tag k="ref:vcgi:esiteid" v="115373"/>
  </node>
  <node id="-636" visible="true" lat="44.56303024" lon="-72.25554657">
    <tag k="addr:housenumber" v="1458"/>
    <tag k="addr:street" v="Vermont Route 16"/>
    <tag k="addr:state" v="VT"/>
    <tag k="ref:vcgi:esiteid" v="115374"/>
  </node>
  <node id="-640" visible="true" lat="44.56200408" lon="-72.25713348">
    <tag k="addr:housenumber" v="1325"/>
    <tag k="addr:street" v="Vermont Route 16"/>
    <tag k="addr:state" v="VT"/>
    <tag k="ref:vcgi:esiteid" v="115378"/>
  </node>
  <node id="-642" visible="true" lat="44.56121444" lon="-72.25717925">
    <tag k="addr:housenumber" v="1305"/>
    <tag k="addr:street" v="Vermont Route 16"/>
    <tag k="addr:state" v="VT"/>
    <tag k="ref:vcgi:esiteid" v="115380"/>
  </node>
  <node id="-650" visible="true" lat="44.55749445" lon="-72.26242147">
    <tag k="addr:housenumber" v="140"/>
    <tag k="addr:street" v="Firefly Drive"/>
    <tag k="addr:state" v="VT"/>
    <tag k="ref:vcgi:esiteid" v="115388"/>
  </node>
  <node id="-657" visible="true" lat="44.55348205" lon="-72.26013183">
    <tag k="addr:housenumber" v="551"/>
    <tag k="addr:street" v="Main Street"/>
    <tag k="addr:state" v="VT"/>
    <tag k="ref:vcgi:esiteid" v="115395"/>
  </node>
  <node id="-658" visible="true" lat="44.55312347" lon="-72.26034545">
    <tag k="addr:housenumber" v="567"/>
    <tag k="addr:street" v="Main Street"/>
    <tag k="addr:state" v="VT"/>
    <tag k="ref:vcgi:esiteid" v="115396"/>
  </node>
  <node id="-663" visible="true" lat="44.55115509" lon="-72.26584625">
    <tag k="addr:housenumber" v="256"/>
    <tag k="addr:street" v="The Bend Road"/>
    <tag k="addr:state" v="VT"/>
    <tag k="ref:vcgi:esiteid" v="115401"/>
  </node>
  <node id="-672" visible="true" lat="44.55041122" lon="-72.26488494">
    <tag k="addr:housenumber" v="140"/>
    <tag k="addr:street" v="The Bend Road"/>
    <tag k="addr:state" v="VT"/>
    <tag k="ref:vcgi:esiteid" v="115411"/>
  </node>
  <node id="-681" visible="true" lat="44.54945373" lon="-72.26112365">
    <tag k="addr:housenumber" v="48"/>
    <tag k="addr:street" v="Old Schoolhouse Road"/>
    <tag k="addr:state" v="VT"/>
    <tag k="ref:vcgi:esiteid" v="115420"/>
  </node>
  <node id="-682" visible="true" lat="44.54944065" lon="-72.26228386">
    <tag k="addr:housenumber" v="845"/>
    <tag k="addr:street" v="Main Street"/>
    <tag k="addr:state" v="VT"/>
    <tag k="ref:vcgi:esiteid" v="115421"/>
  </node>
  <node id="-691" visible="true" lat="44.54862128" lon="-72.2617405">
    <tag k="addr:housenumber" v="46"/>
    <tag k="addr:street" v="Old Schoolhouse Road"/>
    <tag k="addr:state" v="VT"/>
    <tag k="ref:vcgi:esiteid" v="115430"/>
  </node>
  <node id="-692" visible="true" lat="44.54860384" lon="-72.25855121">
    <tag k="addr:housenumber" v="208"/>
    <tag k="addr:street" v="Old Schoolhouse Road"/>
    <tag k="addr:state" v="VT"/>
    <tag k="ref:vcgi:esiteid" v="115431"/>
  </node>
  <node id="-711" visible="true" lat="44.54713058" lon="-72.26569366">
    <tag k="addr:housenumber" v="234"/>
    <tag k="addr:street" v="Vermont Route 16"/>
    <tag k="addr:state" v="VT"/>
    <tag k="ref:vcgi:esiteid" v="115450"/>
  </node>
  <node id="-713" visible="true" lat="44.54675674" lon="-72.26789093">
    <tag k="addr:housenumber" v="129"/>
    <tag k="addr:street" v="Vermont Route 16"/>
    <tag k="addr:state" v="VT"/>
    <tag k="ref:vcgi:esiteid" v="115452"/>
  </node>
  <node id="-725" visible="true" lat="44.54523522" lon="-72.26442649">
    <tag k="addr:housenumber" v="1155"/>
    <tag k="addr:street" v="Main Street"/>
    <tag k="addr:state" v="VT"/>
    <tag k="ref:vcgi:esiteid" v="115466"/>
  </node>
  <node id="-731" visible="true" lat="44.59218928" lon="-72.32121032">
    <tag k="addr:housenumber" v="474"/>
    <tag k="addr:street" v="North Shore Road"/>
    <tag k="addr:state" v="VT"/>
    <tag k="ref:vcgi:esiteid" v="115472"/>
  </node>
  <node id="-732" visible="true" lat="44.59229359" lon="-72.32101732">
    <tag k="addr:housenumber" v="128"/>
    <tag k="addr:street" v="Howards End"/>
    <tag k="addr:state" v="VT"/>
    <tag k="ref:vcgi:esiteid" v="115473"/>
  </node>
  <node id="-748" visible="true" lat="44.59642251" lon="-72.31598774">
    <tag k="addr:housenumber" v="828"/>
    <tag k="addr:street" v="North Shore Road"/>
    <tag k="addr:state" v="VT"/>
    <tag k="ref:vcgi:esiteid" v="115490"/>
  </node>
  <node id="-751" visible="true" lat="44.59093088" lon="-72.35859832">
    <tag k="addr:housenumber" v="828"/>
    <tag k="addr:street" v="Eligo Lake Road"/>
    <tag k="addr:state" v="VT"/>
    <tag k="ref:vcgi:esiteid" v="115493"/>
  </node>
  <node id="-752" visible="true" lat="44.59008433" lon="-72.35886969">
    <tag k="addr:housenumber" v="800"/>
    <tag k="addr:street" v="Eligo Lake Road"/>
    <tag k="addr:state" v="VT"/>
    <tag k="ref:vcgi:esiteid" v="115494"/>
  </node>
  <node id="-759" visible="true" lat="44.58467866" lon="-72.2989887">
    <tag k="addr:housenumber" v="107"/>
    <tag k="addr:street" v="North Winnimere Lane"/>
    <tag k="addr:state" v="VT"/>
    <tag k="ref:vcgi:esiteid" v="115501"/>
  </node>
  <node id="-769" visible="true" lat="44.57797009" lon="-72.28873611">
    <tag k="addr:housenumber" v="382"/>
    <tag k="addr:street" v="Cemetery Ridge"/>
    <tag k="addr:state" v="VT"/>
    <tag k="ref:vcgi:esiteid" v="115511"/>
  </node>
  <node id="-792" visible="true" lat="44.54894189" lon="-72.25950614">
    <tag k="addr:housenumber" v="20"/>
    <tag k="addr:street" v="Wendell Drive"/>
    <tag k="addr:state" v="VT"/>
    <tag k="ref:vcgi:esiteid" v="115536"/>
  </node>
  <node id="-796" visible="true" lat="44.57250214" lon="-72.25154114">
    <tag k="addr:housenumber" v="77"/>
    <tag k="addr:street" v="Bartlett Farm Road"/>
    <tag k="addr:state" v="VT"/>
    <tag k="ref:vcgi:esiteid" v="115541"/>
  </node>
  <node id="-801" visible="true" lat="44.58696139" lon="-72.36283287">
    <tag k="addr:housenumber" v="501"/>
    <tag k="addr:street" v="Eligo Lake Road"/>
    <tag k="addr:state" v="VT"/>
    <tag k="ref:vcgi:esiteid" v="115547"/>
  </node>
  <node id="-802" visible="true" lat="44.59957451" lon="-72.35850236">
    <tag k="addr:housenumber" v="1442"/>
    <tag k="addr:street" v="Eligo Lake Road"/>
    <tag k="addr:state" v="VT"/>
    <tag k="ref:vcgi:esiteid" v="115548"/>
  </node>
  <node id="-803" visible="true" lat="44.6256752" lon="-72.31502532">
    <tag k="addr:housenumber" v="775"/>
    <tag k="addr:street" v="Hanks Hill"/>
    <tag k="addr:state" v="VT"/>
    <tag k="ref:vcgi:esiteid" v="115549"/>
  </node>
  <node id="-824" visible="true" lat="44.63973236" lon="-72.28230285">
    <tag k="addr:housenumber" v="10"/>
    <tag k="addr:street" v="Lost Highway"/>
    <tag k="addr:state" v="VT"/>
    <tag k="ref:vcgi:esiteid" v="115570"/>
  </node>
  <node id="-830" visible="true" lat="44.59718161" lon="-72.31420015">
    <tag k="addr:housenumber" v="20"/>
    <tag k="addr:street" v="Sprague Road"/>
    <tag k="addr:state" v="VT"/>
    <tag k="ref:vcgi:esiteid" v="115576"/>
  </node>
  <node id="-831" visible="true" lat="44.61084041" lon="-72.31171806">
    <tag k="addr:housenumber" v="315"/>
    <tag k="addr:street" v="Barton Drive"/>
    <tag k="addr:state" v="VT"/>
    <tag k="ref:vcgi:esiteid" v="115577"/>
  </node>
  <node id="-833" visible="true" lat="44.59667254" lon="-72.31150401">
    <tag k="addr:housenumber" v="200"/>
    <tag k="addr:street" v="Miller Road"/>
    <tag k="addr:state" v="VT"/>
    <tag k="ref:vcgi:esiteid" v="115580"/>
  </node>
  <node id="-834" visible="true" lat="44.64131276" lon="-72.31529221">
    <tag k="addr:housenumber" v="880"/>
    <tag k="addr:street" v="Shadow Lake Road"/>
    <tag k="addr:state" v="VT"/>
    <tag k="ref:vcgi:esiteid" v="115582"/>
  </node>
  <node id="-835" visible="true" lat="44.59026642" lon="-72.30365126">
    <tag k="addr:housenumber" v="216"/>
    <tag k="addr:street" v="Blacks Point"/>
    <tag k="addr:state" v="VT"/>
    <tag k="ref:vcgi:esiteid" v="115583"/>
  </node>
  <node id="-836" visible="true" lat="44.61846205" lon="-72.32862313">
    <tag k="addr:housenumber" v="3371"/>
    <tag k="addr:street" v="Craftsbury Road"/>
    <tag k="addr:state" v="VT"/>
    <tag k="ref:vcgi:esiteid" v="115584"/>
  </node>
  <node id="-843" visible="true" lat="44.59533233" lon="-72.22921114">
    <tag k="addr:housenumber" v="4125"/>
    <tag k="addr:street" v="Vermont Route 16"/>
    <tag k="addr:state" v="VT"/>
    <tag k="ref:vcgi:esiteid" v="115592"/>
  </node>
  <node id="-844" visible="true" lat="44.6213204" lon="-72.27424274">
    <tag k="addr:housenumber" v="1774"/>
    <tag k="addr:street" v="Town Highway 8"/>
    <tag k="addr:state" v="VT"/>
    <tag k="ref:vcgi:esiteid" v="115593"/>
  </node>
  <node id="-847" visible="true" lat="44.59611757" lon="-72.31266377">
    <tag k="addr:housenumber" v="121"/>
    <tag k="addr:street" v="Mitchell Place"/>
    <tag k="addr:state" v="VT"/>
    <tag k="ref:vcgi:esiteid" v="115596"/>
  </node>
  <node id="-851" visible="true" lat="44.5673371" lon="-72.30374127">
    <tag k="addr:housenumber" v="733"/>
    <tag k="addr:street" v="Breezy Avenue"/>
    <tag k="addr:state" v="VT"/>
    <tag k="ref:vcgi:esiteid" v="115600"/>
  </node>
  <node id="-859" visible="true" lat="44.57293266" lon="-72.27022964">
    <tag k="addr:housenumber" v="761"/>
    <tag k="addr:street" v="Young Road"/>
    <tag k="addr:state" v="VT"/>
    <tag k="ref:vcgi:esiteid" v="115608"/>
  </node>
  <node id="-863" visible="true" lat="44.56526642" lon="-72.30707522">
    <tag k="addr:housenumber" v="2875"/>
    <tag k="addr:street" v="Hardwick Street"/>
    <tag k="addr:state" v="VT"/>
    <tag k="ref:vcgi:esiteid" v="115612"/>
  </node>
  <node id="-872" visible="true" lat="44.57607735" lon="-72.29717961">
    <tag k="addr:housenumber" v="92"/>
    <tag k="addr:street" v="Beach Road"/>
    <tag k="addr:state" v="VT"/>
    <tag k="ref:vcgi:esiteid" v="115622"/>
  </node>
  <node id="-873" visible="true" lat="44.60029218" lon="-72.33171">
    <tag k="addr:housenumber" v="740"/>
    <tag k="addr:street" v="Bayley Hazen Road"/>
    <tag k="addr:state" v="VT"/>
    <tag k="ref:vcgi:esiteid" v="115623"/>
  </node>
  <node id="-874" visible="true" lat="44.54693357" lon="-72.26343514">
    <tag k="addr:housenumber" v="1019"/>
    <tag k="addr:street" v="Main Street"/>
    <tag k="addr:state" v="VT"/>
    <tag k="ref:vcgi:esiteid" v="115624"/>
  </node>
  <node id="-875" visible="true" lat="44.56357269" lon="-72.30474876">
    <tag k="addr:housenumber" v="2752"/>
    <tag k="addr:street" v="Hardwick Street"/>
    <tag k="addr:state" v="VT"/>
    <tag k="ref:vcgi:esiteid" v="115625"/>
  </node>
  <node id="-883" visible="true" lat="44.55664932" lon="-72.26427091">
    <tag k="addr:housenumber" v="245"/>
    <tag k="addr:street" v="Firefly Drive"/>
    <tag k="addr:state" v="VT"/>
    <tag k="ref:vcgi:esiteid" v="308879"/>
  </node>
  <node id="-884" visible="true" lat="44.59653331" lon="-72.30683637">
    <tag k="addr:housenumber" v="370"/>
    <tag k="addr:street" v="Bathtub Rock Road"/>
    <tag k="addr:state" v="VT"/>
    <tag k="ref:vcgi:esiteid" v="309192"/>
  </node>
  <node id="-885" visible="true" lat="44.60555013" lon="-72.26367946">
    <tag k="addr:housenumber" v="396"/>
    <tag k="addr:street" v="Hill Road"/>
    <tag k="addr:state" v="VT"/>
    <tag k="ref:vcgi:esiteid" v="311390"/>
  </node>
  <node id="-894" visible="true" lat="44.58032049" lon="-72.27589162">
    <tag k="addr:housenumber" v="336"/>
    <tag k="addr:street" v="Garvin Hill Road"/>
    <tag k="addr:state" v="VT"/>
    <tag k="ref:vcgi:esiteid" v="325207"/>
  </node>
  <node id="-896" visible="true" lat="44.55650332" lon="-72.26305872">
    <tag k="addr:housenumber" v="161"/>
    <tag k="addr:street" v="Firefly Drive"/>
    <tag k="addr:state" v="VT"/>
    <tag k="ref:vcgi:esiteid" v="327674"/>
  </node>
  <node id="-897" visible="true" lat="44.55770059" lon="-72.2608963">
    <tag k="addr:housenumber" v="68"/>
    <tag k="addr:street" v="Firefly Drive"/>
    <tag k="addr:state" v="VT"/>
    <tag k="ref:vcgi:esiteid" v="327675"/>
  </node>
  <node id="-904" visible="true" lat="44.59662617" lon="-72.30730172">
    <tag k="addr:housenumber" v="350"/>
    <tag k="addr:street" v="Bathtub Rock Road"/>
    <tag k="addr:state" v="VT"/>
    <tag k="ref:vcgi:esiteid" v="332389"/>
  </node>
  <node id="-908" visible="true" lat="44.57526306" lon="-72.28664471">
    <tag k="addr:housenumber" v="670"/>
    <tag k="addr:street" v="Cemetery Ridge"/>
    <tag k="addr:state" v="VT"/>
    <tag k="ref:vcgi:esiteid" v="336339"/>
  </node>
  <node id="-909" visible="true" lat="44.63916573" lon="-72.31877256">
    <tag k="addr:housenumber" v="653"/>
    <tag k="addr:street" v="Shadow Lake Road"/>
    <tag k="addr:state" v="VT"/>
    <tag k="ref:vcgi:esiteid" v="336340"/>
  </node>
  <node id="-911" visible="true" lat="44.54929604" lon="-72.25770178">
    <tag k="addr:housenumber" v="201"/>
    <tag k="addr:street" v="Old Schoolhouse Road"/>
    <tag k="addr:state" v="VT"/>
    <tag k="ref:vcgi:esiteid" v="336965"/>
  </node>
  <node id="-914" visible="true" lat="44.57601457" lon="-72.31373962">
    <tag k="addr:housenumber" v="1145"/>
    <tag k="addr:street" v="Poplar Lane"/>
    <tag k="addr:state" v="VT"/>
    <tag k="ref:vcgi:esiteid" v="340614"/>
  </node>
  <node id="-915" visible="true" lat="44.6225295" lon="-72.33367453">
    <tag k="addr:housenumber" v="474"/>
    <tag k="addr:street" v="Circus Road"/>
    <tag k="addr:state" v="VT"/>
    <tag k="ref:vcgi:esiteid" v="341431"/>
  </node>
  <node id="-921" visible="true" lat="44.59872756" lon="-72.23376107">
    <tag k="addr:housenumber" v="284"/>
    <tag k="addr:street" v="Salls Road"/>
    <tag k="addr:state" v="VT"/>
    <tag k="ref:vcgi:esiteid" v="345231"/>
  </node>
  <node id="-922" visible="true" lat="44.59441994" lon="-72.30308785">
    <tag k="addr:housenumber" v="1199"/>
    <tag k="addr:street" v="Craftsbury Road"/>
    <tag k="addr:state" v="VT"/>
    <tag k="ref:vcgi:esiteid" v="445518"/>
  </node>
  <node id="-925" visible="true" lat="44.63483835" lon="-72.31955935">
    <tag k="addr:housenumber" v="374"/>
    <tag k="addr:street" v="Shadow Lake Road"/>
    <tag k="addr:state" v="VT"/>
    <tag k="ref:vcgi:esiteid" v="447779"/>
  </node>
  <node id="-926" visible="true" lat="44.56667315" lon="-72.30498275">
    <tag k="addr:housenumber" v="765"/>
    <tag k="addr:street" v="Breezy Avenue"/>
    <tag k="addr:state" v="VT"/>
    <tag k="ref:vcgi:esiteid" v="448171"/>
  </node>
  <node id="-928" visible="true" lat="44.59592821" lon="-72.29227183">
    <tag k="addr:housenumber" v="672"/>
    <tag k="addr:street" v="Reservoir Road"/>
    <tag k="addr:state" v="VT"/>
    <tag k="ref:vcgi:esiteid" v="451046"/>
  </node>
  <node id="-930" visible="true" lat="44.56914033" lon="-72.29826136">
    <tag k="addr:housenumber" v="41"/>
    <tag k="addr:street" v="Clown Alley"/>
    <tag k="addr:state" v="VT"/>
    <tag k="ref:vcgi:esiteid" v="453608"/>
  </node>
  <node id="-932" visible="true" lat="44.56929566" lon="-72.29906551">
    <tag k="addr:housenumber" v="49"/>
    <tag k="addr:street" v="Clown Alley"/>
    <tag k="addr:state" v="VT"/>
    <tag k="ref:vcgi:esiteid" v="453610"/>
  </node>
  <node id="-933" visible="true" lat="44.6441351" lon="-72.30281299">
    <tag k="addr:housenumber" v="1483"/>
    <tag k="addr:street" v="Rocking Rock Road"/>
    <tag k="addr:state" v="VT"/>
    <tag k="ref:vcgi:esiteid" v="454307"/>
  </node>
  <node id="-934" visible="true" lat="44.62576819" lon="-72.27478798">
    <tag k="addr:housenumber" v="122"/>
    <tag k="addr:street" v="Skunk Hollow Road"/>
    <tag k="addr:state" v="VT"/>
    <tag k="ref:vcgi:esiteid" v="455380"/>
  </node>
  <node id="-935" visible="true" lat="44.57398796" lon="-72.27523193">
    <tag k="addr:housenumber" v="491"/>
    <tag k="addr:street" v="Young Road"/>
    <tag k="addr:state" v="VT"/>
    <tag k="ref:vcgi:esiteid" v="455425"/>
  </node>
  <node id="-936" visible="true" lat="44.59501906" lon="-72.33216835">
    <tag k="addr:housenumber" v="300"/>
    <tag k="addr:street" v="Bayley Hazen Road"/>
    <tag k="addr:state" v="VT"/>
    <tag k="ref:vcgi:esiteid" v="610537"/>
  </node>
  <node id="-940" visible="true" lat="44.5928366" lon="-72.32370569">
    <tag k="addr:housenumber" v="8"/>
    <tag k="addr:street" v="Loon Road"/>
    <tag k="addr:state" v="VT"/>
    <tag k="ref:vcgi:esiteid" v="610764"/>
  </node>
  <node id="-943" visible="true" lat="44.58634747" lon="-72.28892504">
    <tag k="addr:housenumber" v="98"/>
    <tag k="addr:street" v="Baker Hill Road"/>
    <tag k="addr:state" v="VT"/>
    <tag k="ref:vcgi:esiteid" v="616537"/>
  </node>
  <node id="-944" visible="true" lat="44.59163344" lon="-72.32465284">
    <tag k="addr:housenumber" v="46"/>
    <tag k="addr:street" v="Summey Cottage Lane"/>
    <tag k="addr:state" v="VT"/>
    <tag k="ref:vcgi:esiteid" v="617170"/>
  </node>
  <node id="-945" visible="true" lat="44.55769728" lon="-72.27602036">
    <tag k="addr:housenumber" v="1034"/>
    <tag k="addr:street" v="The Bend Road"/>
    <tag k="addr:state" v="VT"/>
    <tag k="ref:vcgi:esiteid" v="620569"/>
  </node>
  <node id="-946" visible="true" lat="44.59384108" lon="-72.2914287">
    <tag k="addr:housenumber" v="503"/>
    <tag k="addr:street" v="Reservoir Road"/>
    <tag k="addr:state" v="VT"/>
    <tag k="ref:vcgi:esiteid" v="620703"/>
  </node>
  <node id="-947" visible="true" lat="44.59245545" lon="-72.32519485">
    <tag k="addr:housenumber" v="23"/>
    <tag k="addr:street" v="Summey Cottage Lane"/>
    <tag k="addr:state" v="VT"/>
    <tag k="ref:vcgi:esiteid" v="656073"/>
  </node>
  <node id="-948" visible="true" lat="44.63246978" lon="-72.32095806">
    <tag k="addr:housenumber" v="178"/>
    <tag k="addr:street" v="Hanks Hill"/>
    <tag k="addr:state" v="VT"/>
    <tag k="ref:vcgi:esiteid" v="656329"/>
  </node>
  <node id="-949" visible="true" lat="44.63242362" lon="-72.32036799">
    <tag k="addr:housenumber" v="214"/>
    <tag k="addr:street" v="Hanks Hill"/>
    <tag k="addr:state" v="VT"/>
    <tag k="ref:vcgi:esiteid" v="656330"/>
  </node>
  <node id="-951" visible="true" lat="44.60241955" lon="-72.35947945">
    <tag k="addr:housenumber" v="1501"/>
    <tag k="addr:street" v="Eligo Lake Road"/>
    <tag k="addr:state" v="VT"/>
    <tag k="ref:vcgi:esiteid" v="700120"/>
  </node>
  <node id="-952" visible="true" lat="44.58557655" lon="-72.27637643">
    <tag k="addr:housenumber" v="555"/>
    <tag k="addr:street" v="Garvin Hill Road"/>
    <tag k="addr:state" v="VT"/>
    <tag k="ref:vcgi:esiteid" v="700121"/>
  </node>
  <node id="-957" visible="true" lat="44.57736255" lon="-72.29617772">
    <tag k="addr:housenumber" v="119"/>
    <tag k="addr:street" v="Wilson Street"/>
    <tag k="addr:state" v="VT"/>
    <tag k="ref:vcgi:esiteid" v="750475"/>
  </node>
  <node id="-958" visible="true" lat="44.62898981" lon="-72.2888282">
    <tag k="addr:housenumber" v="2200"/>
    <tag k="addr:street" v="Gebbie Road"/>
    <tag k="addr:state" v="VT"/>
    <tag k="ref:vcgi:esiteid" v="750476"/>
  </node>
  <node id="-959" visible="true" lat="44.61558976" lon="-72.20933153">
    <tag k="addr:housenumber" v="24"/>
    <tag k="addr:street" v="Horse Pond Road"/>
    <tag k="addr:state" v="VT"/>
    <tag k="ref:vcgi:esiteid" v="752117"/>
  </node>
  <node id="-962" visible="true" lat="44.56667435" lon="-72.31245426">
    <tag k="addr:housenumber" v="275"/>
    <tag k="addr:street" v="Lake Shore Road"/>
    <tag k="addr:state" v="VT"/>
    <tag k="ref:vcgi:esiteid" v="752313"/>
  </node>
  <node id="-964" visible="true" lat="44.62387069" lon="-72.29985733">
    <tag k="addr:housenumber" v="89"/>
    <tag k="addr:street" v="Hanson Drive"/>
    <tag k="addr:state" v="VT"/>
    <tag k="ref:vcgi:esiteid" v="754112"/>
  </node>
  <node id="-965" visible="true" lat="44.63016606" lon="-72.28934553">
    <tag k="addr:housenumber" v="2191"/>
    <tag k="addr:street" v="Gebbie Road"/>
    <tag k="addr:state" v="VT"/>
    <tag k="ref:vcgi:esiteid" v="754114"/>
  </node>
  <node id="-966" visible="true" lat="44.63125298" lon="-72.27472144">
    <tag k="addr:housenumber" v="425"/>
    <tag k="addr:street" v="Skunk Hollow Road"/>
    <tag k="addr:state" v="VT"/>
    <tag k="ref:vcgi:esiteid" v="754218"/>
  </node>
  <node id="-967" visible="true" lat="44.64244593" lon="-72.31943054">
    <tag k="addr:housenumber" v="897"/>
    <tag k="addr:street" v="Shadow Lake Road"/>
    <tag k="addr:state" v="VT"/>
    <tag k="ref:vcgi:esiteid" v="754687"/>
  </node>
  <node id="-968" visible="true" lat="44.58809594" lon="-72.27382864">
    <tag k="addr:housenumber" v="793"/>
    <tag k="addr:street" v="Garvin Hill Road"/>
    <tag k="addr:state" v="VT"/>
    <tag k="ref:vcgi:esiteid" v="757005"/>
  </node>
  <node id="-969" visible="true" lat="44.5738602" lon="-72.28681132">
    <tag k="addr:housenumber" v="672"/>
    <tag k="addr:street" v="Cemetery Ridge"/>
    <tag k="addr:state" v="VT"/>
    <tag k="ref:vcgi:esiteid" v="757097"/>
  </node>
  <node id="-970" visible="true" lat="44.57500839" lon="-72.28678382">
    <tag k="addr:housenumber" v="674"/>
    <tag k="addr:street" v="Cemetery Ridge"/>
    <tag k="addr:state" v="VT"/>
    <tag k="ref:vcgi:esiteid" v="757307"/>
  </node>
  <node id="-971" visible="true" lat="44.62612308" lon="-72.2252052">
    <tag k="addr:housenumber" v="282"/>
    <tag k="addr:street" v="Black Hills Drive"/>
    <tag k="addr:state" v="VT"/>
    <tag k="ref:vcgi:esiteid" v="757332"/>
  </node>
  <node id="-972" visible="true" lat="44.62551808" lon="-72.28707783">
    <tag k="addr:housenumber" v="2220"/>
    <tag k="addr:street" v="Gebbie Road"/>
    <tag k="addr:state" v="VT"/>
    <tag k="ref:vcgi:esiteid" v="757696"/>
  </node>
  <node id="-973" visible="true" lat="44.59334944" lon="-72.26149542">
    <tag k="addr:housenumber" v="1476"/>
    <tag k="addr:street" v="Garvin Hill Road"/>
    <tag k="addr:state" v="VT"/>
    <tag k="ref:vcgi:esiteid" v="758951"/>
  </node>
  <node id="-974" visible="true" lat="44.59953442" lon="-72.33587531">
    <tag k="addr:housenumber" v="555"/>
    <tag k="addr:street" v="Bayley Hazen Road"/>
    <tag k="addr:state" v="VT"/>
    <tag k="ref:vcgi:esiteid" v="760312"/>
  </node>
  <node id="-975" visible="true" lat="44.61111568" lon="-72.35341902">
    <tag k="addr:housenumber" v="541"/>
    <tag k="addr:street" v="Lake Road"/>
    <tag k="addr:state" v="VT"/>
    <tag k="ref:vcgi:esiteid" v="760836"/>
  </node>
  <node id="-976" visible="true" lat="44.61230848" lon="-72.24467053">
    <tag k="addr:housenumber" v="842"/>
    <tag k="addr:street" v="Hillcrest Road"/>
    <tag k="addr:state" v="VT"/>
    <tag k="ref:vcgi:esiteid" v="761531"/>
  </node>
  <node id="-977" visible="true" lat="44.58979631" lon="-72.36027075">
    <tag k="addr:housenumber" v="697"/>
    <tag k="addr:street" v="Eligo Lake Road"/>
    <tag k="addr:state" v="VT"/>
    <tag k="ref:vcgi:esiteid" v="761565"/>
  </node>
  <node id="-978" visible="true" lat="44.55007904" lon="-72.26316256">
    <tag k="addr:housenumber" v="824"/>
    <tag k="addr:street" v="Main Street"/>
    <tag k="addr:state" v="VT"/>
    <tag k="ref:vcgi:esiteid" v="761708"/>
  </node>
  <node id="-979" visible="true" lat="44.55093588" lon="-72.261952">
    <tag k="addr:housenumber" v="720"/>
    <tag k="addr:street" v="Main Street"/>
    <tag k="addr:state" v="VT"/>
    <tag k="ref:vcgi:esiteid" v="761709"/>
  </node>
  <node id="-980" visible="true" lat="44.55791907" lon="-72.25957908">
    <tag k="addr:housenumber" v="42"/>
    <tag k="addr:street" v="Firefly Drive"/>
    <tag k="addr:state" v="VT"/>
    <tag k="ref:vcgi:esiteid" v="764064"/>
  </node>
  <node id="-981" visible="true" lat="44.57382155" lon="-72.31000734">
    <tag k="addr:housenumber" v="86"/>
    <tag k="addr:street" v="Ilas Road"/>
    <tag k="addr:state" v="VT"/>
    <tag k="ref:vcgi:esiteid" v="764812"/>
  </node>
  <node id="-982" visible="true" lat="44.59261684" lon="-72.32377233">
    <tag k="addr:housenumber" v="10"/>
    <tag k="addr:street" v="Loon Road"/>
    <tag k="addr:state" v="VT"/>
    <tag k="ref:vcgi:esiteid" v="765805"/>
  </node>
  <node id="-983" visible="true" lat="44.59960084" lon="-72.23602341">
    <tag k="addr:housenumber" v="282"/>
    <tag k="addr:street" v="Salls Road"/>
    <tag k="addr:state" v="VT"/>
    <tag k="ref:vcgi:esiteid" v="768271"/>
  </node>
  <node id="-984" visible="true" lat="44.58946002" lon="-72.28285884">
    <tag k="addr:housenumber" v="452"/>
    <tag k="addr:street" v="Baker Hill Road"/>
    <tag k="addr:state" v="VT"/>
    <tag k="ref:vcgi:esiteid" v="768456"/>
  </node>
  <node id="-985" visible="true" lat="44.599043" lon="-72.30337794">
    <tag k="addr:housenumber" v="141"/>
    <tag k="addr:street" v="Cottage Lane"/>
    <tag k="addr:state" v="VT"/>
    <tag k="ref:vcgi:esiteid" v="768734"/>
  </node>
  <node id="-986" visible="true" lat="44.59904753" lon="-72.3042819">
    <tag k="addr:housenumber" v="136"/>
    <tag k="addr:street" v="Cottage Lane"/>
    <tag k="addr:state" v="VT"/>
    <tag k="ref:vcgi:esiteid" v="768735"/>
  </node>
  <node id="-987" visible="true" lat="44.59924105" lon="-72.30431458">
    <tag k="addr:housenumber" v="120"/>
    <tag k="addr:street" v="Cottage Lane"/>
    <tag k="addr:state" v="VT"/>
    <tag k="ref:vcgi:esiteid" v="768736"/>
  </node>
  <node id="-988" visible="true" lat="44.59950016" lon="-72.30441369">
    <tag k="addr:housenumber" v="100"/>
    <tag k="addr:street" v="Cottage Lane"/>
    <tag k="addr:state" v="VT"/>
    <tag k="ref:vcgi:esiteid" v="768737"/>
  </node>
  <node id="-989" visible="true" lat="44.5997562" lon="-72.30445865">
    <tag k="addr:housenumber" v="86"/>
    <tag k="addr:street" v="Cottage Lane"/>
    <tag k="addr:state" v="VT"/>
    <tag k="ref:vcgi:esiteid" v="768738"/>
  </node>
  <node id="-990" visible="true" lat="44.59995281" lon="-72.30455797">
    <tag k="addr:housenumber" v="70"/>
    <tag k="addr:street" v="Cottage Lane"/>
    <tag k="addr:state" v="VT"/>
    <tag k="ref:vcgi:esiteid" v="768739"/>
  </node>
  <node id="-991" visible="true" lat="44.60011366" lon="-72.30463242">
    <tag k="addr:housenumber" v="60"/>
    <tag k="addr:street" v="Cottage Lane"/>
    <tag k="addr:state" v="VT"/>
    <tag k="ref:vcgi:esiteid" v="768740"/>
  </node>
  <node id="-992" visible="true" lat="44.60026857" lon="-72.30471522">
    <tag k="addr:housenumber" v="50"/>
    <tag k="addr:street" v="Cottage Lane"/>
    <tag k="addr:state" v="VT"/>
    <tag k="ref:vcgi:esiteid" v="768741"/>
  </node>
  <node id="-993" visible="true" lat="44.60039666" lon="-72.30478144">
    <tag k="addr:housenumber" v="40"/>
    <tag k="addr:street" v="Cottage Lane"/>
    <tag k="addr:state" v="VT"/>
    <tag k="ref:vcgi:esiteid" v="768742"/>
  </node>
  <node id="-994" visible="true" lat="44.57927817" lon="-72.28573263">
    <tag k="addr:housenumber" v="534"/>
    <tag k="addr:street" v="Cemetery Ridge"/>
    <tag k="addr:state" v="VT"/>
    <tag k="ref:vcgi:esiteid" v="768818"/>
  </node>
  <node id="-995" visible="true" lat="44.60627777" lon="-72.33746173">
    <tag k="addr:housenumber" v="1061"/>
    <tag k="addr:street" v="Bayley Hazen Road"/>
    <tag k="addr:state" v="VT"/>
    <tag k="ref:vcgi:esiteid" v="768907"/>
  </node>
  <node id="-996" visible="true" lat="44.59717744" lon="-72.30947499">
    <tag k="addr:housenumber" v="145"/>
    <tag k="addr:street" v="Miller Road"/>
    <tag k="addr:state" v="VT"/>
    <tag k="ref:vcgi:esiteid" v="769002"/>
  </node>
  <node id="-997" visible="true" lat="44.57889662" lon="-72.28581476">
    <tag k="addr:housenumber" v="550"/>
    <tag k="addr:street" v="Cemetery Ridge"/>
    <tag k="addr:state" v="VT"/>
    <tag k="ref:vcgi:esiteid" v="769765"/>
  </node>
  <node id="-999" visible="true" lat="44.62970642" lon="-72.28860478">
    <tag k="addr:housenumber" v="2229"/>
    <tag k="addr:street" v="Gebbie Road"/>
    <tag k="addr:state" v="VT"/>
    <tag k="ref:vcgi:esiteid" v="1050959"/>
  </node>
</osm>
