<?xml version="1.0" encoding="UTF-8"?>
<osm version="0.6" generator="JOSM" upload="false">
  <node id="-580" visible="true" lat="44.21214616" lon="-72.20069682">
    <tag k="addr:city" v="Groton"/>
    <tag k="addr:housenumber" v="1644"/>
    <tag k="addr:street" v="Scott Highway"/>
    <tag k="addr:state" v="VT"/>
    <tag k="ref:vcgi:esiteid" v="116111"/>
  </node>
  <node id="-582" visible="true" lat="44.21208188" lon="-72.20015684">
    <tag k="addr:city" v="Groton"/>
    <tag k="addr:housenumber" v="1618"/>
    <tag k="addr:street" v="Scott Highway"/>
    <tag k="addr:state" v="VT"/>
    <tag k="ref:vcgi:esiteid" v="116113"/>
  </node>
  <node id="-583" visible="true" lat="44.21178143" lon="-72.19891088">
    <tag k="addr:city" v="Groton"/>
    <tag k="addr:housenumber" v="1554"/>
    <tag k="addr:street" v="Scott Highway"/>
    <tag k="addr:state" v="VT"/>
    <tag k="ref:vcgi:esiteid" v="116114"/>
  </node>
  <node id="-584" visible="true" lat="44.21169489" lon="-72.19860144">
    <tag k="addr:city" v="Groton"/>
    <tag k="addr:housenumber" v="1536"/>
    <tag k="addr:street" v="Scott Highway"/>
    <tag k="addr:state" v="VT"/>
    <tag k="ref:vcgi:esiteid" v="116115"/>
  </node>
  <node id="-585" visible="true" lat="44.21158536" lon="-72.19824445">
    <tag k="addr:city" v="Groton"/>
    <tag k="addr:housenumber" v="1518"/>
    <tag k="addr:street" v="Scott Highway"/>
    <tag k="addr:state" v="VT"/>
    <tag k="ref:vcgi:esiteid" v="116116"/>
  </node>
  <node id="-590" visible="true" lat="44.21171929" lon="-72.20136642">
    <tag k="addr:city" v="Groton"/>
    <tag k="addr:housenumber" v="1677"/>
    <tag k="addr:street" v="Scott Highway"/>
    <tag k="addr:state" v="VT"/>
    <tag k="ref:vcgi:esiteid" v="116122"/>
  </node>
  <node id="-628" visible="true" lat="44.21003411" lon="-72.1930163">
    <tag k="addr:city" v="Groton"/>
    <tag k="addr:housenumber" v="1236"/>
    <tag k="addr:street" v="Scott Highway"/>
    <tag k="addr:state" v="VT"/>
    <tag k="ref:vcgi:esiteid" v="116161"/>
  </node>
  <node id="-640" visible="true" lat="44.2068903" lon="-72.19279561">
    <tag k="addr:city" v="Groton"/>
    <tag k="addr:housenumber" v="248"/>
    <tag k="addr:street" v="Little Italy Road"/>
    <tag k="addr:state" v="VT"/>
    <tag k="ref:vcgi:esiteid" v="116175"/>
  </node>
  <node id="-649" visible="true" lat="44.21055337" lon="-72.19484902">
    <tag k="addr:city" v="Groton"/>
    <tag k="addr:housenumber" v="1334"/>
    <tag k="addr:street" v="Scott Highway"/>
    <tag k="addr:state" v="VT"/>
    <tag k="ref:vcgi:esiteid" v="116184"/>
  </node>
  <node id="-658" visible="true" lat="44.20952555" lon="-72.19732535">
    <tag k="addr:city" v="Groton"/>
    <tag k="addr:housenumber" v="126"/>
    <tag k="addr:street" v="Powder Spring Road"/>
    <tag k="addr:state" v="VT"/>
    <tag k="ref:vcgi:esiteid" v="116193"/>
  </node>
  <node id="-659" visible="true" lat="44.20952147" lon="-72.19794511">
    <tag k="addr:city" v="Groton"/>
    <tag k="addr:housenumber" v="56"/>
    <tag k="addr:street" v="Park Street"/>
    <tag k="addr:state" v="VT"/>
    <tag k="ref:vcgi:esiteid" v="116194"/>
  </node>
  <node id="-662" visible="true" lat="44.20989495" lon="-72.19870597">
    <tag k="addr:city" v="Groton"/>
    <tag k="addr:housenumber" v="92"/>
    <tag k="addr:street" v="Park Street"/>
    <tag k="addr:state" v="VT"/>
    <tag k="ref:vcgi:esiteid" v="116198"/>
  </node>
  <node id="-664" visible="true" lat="44.20902943" lon="-72.1977331">
    <tag k="addr:city" v="Groton"/>
    <tag k="addr:housenumber" v="182"/>
    <tag k="addr:street" v="Powder Spring Road"/>
    <tag k="addr:state" v="VT"/>
    <tag k="ref:vcgi:esiteid" v="116200"/>
  </node>
  <node id="-665" visible="true" lat="44.20894274" lon="-72.19736806">
    <tag k="addr:city" v="Groton"/>
    <tag k="addr:housenumber" v="168"/>
    <tag k="addr:street" v="Powder Spring Road"/>
    <tag k="addr:state" v="VT"/>
    <tag k="ref:vcgi:esiteid" v="116201"/>
  </node>
  <node id="-666" visible="true" lat="44.20840634" lon="-72.19767273">
    <tag k="addr:city" v="Groton"/>
    <tag k="addr:housenumber" v="228"/>
    <tag k="addr:street" v="Powder Spring Road"/>
    <tag k="addr:state" v="VT"/>
    <tag k="ref:vcgi:esiteid" v="116202"/>
  </node>
  <node id="-667" visible="true" lat="44.20803527" lon="-72.19782559">
    <tag k="addr:city" v="Groton"/>
    <tag k="addr:housenumber" v="258"/>
    <tag k="addr:street" v="Powder Spring Road"/>
    <tag k="addr:state" v="VT"/>
    <tag k="ref:vcgi:esiteid" v="116203"/>
  </node>
  <node id="-669" visible="true" lat="44.2078901" lon="-72.19912139">
    <tag k="addr:city" v="Groton"/>
    <tag k="addr:housenumber" v="46"/>
    <tag k="addr:street" v="Weld Road"/>
    <tag k="addr:state" v="VT"/>
    <tag k="ref:vcgi:esiteid" v="116205"/>
  </node>
  <node id="-670" visible="true" lat="44.20741506" lon="-72.19885368">
    <tag k="addr:city" v="Groton"/>
    <tag k="addr:housenumber" v="318"/>
    <tag k="addr:street" v="Powder Spring Road"/>
    <tag k="addr:state" v="VT"/>
    <tag k="ref:vcgi:esiteid" v="116206"/>
  </node>
  <node id="-671" visible="true" lat="44.2070899" lon="-72.1990778">
    <tag k="addr:city" v="Groton"/>
    <tag k="addr:housenumber" v="342"/>
    <tag k="addr:street" v="Powder Spring Road"/>
    <tag k="addr:state" v="VT"/>
    <tag k="ref:vcgi:esiteid" v="116207"/>
  </node>
  <node id="-673" visible="true" lat="44.20693997" lon="-72.19857008">
    <tag k="addr:city" v="Groton"/>
    <tag k="addr:housenumber" v="329"/>
    <tag k="addr:street" v="Powder Spring Road"/>
    <tag k="addr:state" v="VT"/>
    <tag k="ref:vcgi:esiteid" v="116209"/>
  </node>
  <node id="-674" visible="true" lat="44.20713968" lon="-72.19844988">
    <tag k="addr:city" v="Groton"/>
    <tag k="addr:housenumber" v="315"/>
    <tag k="addr:street" v="Powder Spring Road"/>
    <tag k="addr:state" v="VT"/>
    <tag k="ref:vcgi:esiteid" v="116210"/>
  </node>
  <node id="-675" visible="true" lat="44.20740752" lon="-72.19816249">
    <tag k="addr:city" v="Groton"/>
    <tag k="addr:housenumber" v="289"/>
    <tag k="addr:street" v="Powder Spring Road"/>
    <tag k="addr:state" v="VT"/>
    <tag k="ref:vcgi:esiteid" v="116211"/>
  </node>
  <node id="-676" visible="true" lat="44.20754915" lon="-72.197693">
    <tag k="addr:city" v="Groton"/>
    <tag k="addr:housenumber" v="261"/>
    <tag k="addr:street" v="Powder Spring Road"/>
    <tag k="addr:state" v="VT"/>
    <tag k="ref:vcgi:esiteid" v="116212"/>
  </node>
  <node id="-677" visible="true" lat="44.20730873" lon="-72.19754327">
    <tag k="addr:city" v="Groton"/>
    <tag k="addr:housenumber" v="36"/>
    <tag k="addr:street" v="Windsor Lane"/>
    <tag k="addr:state" v="VT"/>
    <tag k="ref:vcgi:esiteid" v="116213"/>
  </node>
  <node id="-679" visible="true" lat="44.20745603" lon="-72.19705787">
    <tag k="addr:city" v="Groton"/>
    <tag k="addr:housenumber" v="25"/>
    <tag k="addr:street" v="Windsor Lane"/>
    <tag k="addr:state" v="VT"/>
    <tag k="ref:vcgi:esiteid" v="116215"/>
  </node>
  <node id="-682" visible="true" lat="44.20815314" lon="-72.19701457">
    <tag k="addr:city" v="Groton"/>
    <tag k="addr:housenumber" v="8"/>
    <tag k="addr:street" v="Railroad Street"/>
    <tag k="addr:state" v="VT"/>
    <tag k="ref:vcgi:esiteid" v="116218"/>
  </node>
  <node id="-683" visible="true" lat="44.2080554" lon="-72.19679261">
    <tag k="addr:city" v="Groton"/>
    <tag k="addr:housenumber" v="26"/>
    <tag k="addr:street" v="Railroad Street"/>
    <tag k="addr:state" v="VT"/>
    <tag k="ref:vcgi:esiteid" v="116219"/>
  </node>
  <node id="-684" visible="true" lat="44.20783138" lon="-72.19636472">
    <tag k="addr:city" v="Groton"/>
    <tag k="addr:housenumber" v="60"/>
    <tag k="addr:street" v="Railroad Street"/>
    <tag k="addr:state" v="VT"/>
    <tag k="ref:vcgi:esiteid" v="116220"/>
  </node>
  <node id="-685" visible="true" lat="44.20751651" lon="-72.19615976">
    <tag k="addr:city" v="Groton"/>
    <tag k="addr:housenumber" v="84"/>
    <tag k="addr:street" v="Railroad Street"/>
    <tag k="addr:state" v="VT"/>
    <tag k="ref:vcgi:esiteid" v="116221"/>
  </node>
  <node id="-687" visible="true" lat="44.20692652" lon="-72.19565431">
    <tag k="addr:city" v="Groton"/>
    <tag k="addr:housenumber" v="130"/>
    <tag k="addr:street" v="Railroad Street"/>
    <tag k="addr:state" v="VT"/>
    <tag k="ref:vcgi:esiteid" v="116223"/>
  </node>
  <node id="-689" visible="true" lat="44.20697658" lon="-72.19513762">
    <tag k="addr:city" v="Groton"/>
    <tag k="addr:housenumber" v="143"/>
    <tag k="addr:street" v="Railroad Street"/>
    <tag k="addr:state" v="VT"/>
    <tag k="ref:vcgi:esiteid" v="116225"/>
  </node>
  <node id="-690" visible="true" lat="44.20726283" lon="-72.19532683">
    <tag k="addr:city" v="Groton"/>
    <tag k="addr:housenumber" v="127"/>
    <tag k="addr:street" v="Railroad Street"/>
    <tag k="addr:state" v="VT"/>
    <tag k="ref:vcgi:esiteid" v="116226"/>
  </node>
  <node id="-692" visible="true" lat="44.20856935" lon="-72.19664695">
    <tag k="addr:city" v="Groton"/>
    <tag k="addr:housenumber" v="8"/>
    <tag k="addr:street" v="Depot Flat"/>
    <tag k="addr:state" v="VT"/>
    <tag k="ref:vcgi:esiteid" v="116228"/>
  </node>
  <node id="-695" visible="true" lat="44.20759776" lon="-72.19448292">
    <tag k="addr:city" v="Groton"/>
    <tag k="addr:housenumber" v="158"/>
    <tag k="addr:street" v="Little Italy Road"/>
    <tag k="addr:state" v="VT"/>
    <tag k="ref:vcgi:esiteid" v="116231"/>
  </node>
  <node id="-697" visible="true" lat="44.20788799" lon="-72.19402059">
    <tag k="addr:city" v="Groton"/>
    <tag k="addr:housenumber" v="173"/>
    <tag k="addr:street" v="Little Italy Road"/>
    <tag k="addr:state" v="VT"/>
    <tag k="ref:vcgi:esiteid" v="116233"/>
  </node>
  <node id="-698" visible="true" lat="44.20833659" lon="-72.19508294">
    <tag k="addr:city" v="Groton"/>
    <tag k="addr:housenumber" v="109"/>
    <tag k="addr:street" v="Little Italy Road"/>
    <tag k="addr:state" v="VT"/>
    <tag k="ref:vcgi:esiteid" v="116234"/>
  </node>
  <node id="-701" visible="true" lat="44.20891015" lon="-72.19585862">
    <tag k="addr:city" v="Groton"/>
    <tag k="addr:housenumber" v="79"/>
    <tag k="addr:street" v="Checchi Street"/>
    <tag k="addr:state" v="VT"/>
    <tag k="ref:vcgi:esiteid" v="116237"/>
  </node>
  <node id="-703" visible="true" lat="44.20947474" lon="-72.19541077">
    <tag k="addr:city" v="Groton"/>
    <tag k="addr:housenumber" v="60"/>
    <tag k="addr:street" v="River Street"/>
    <tag k="addr:state" v="VT"/>
    <tag k="ref:vcgi:esiteid" v="116239"/>
  </node>
  <node id="-717" visible="true" lat="44.21062274" lon="-72.19747401">
    <tag k="addr:city" v="Groton"/>
    <tag k="addr:housenumber" v="43"/>
    <tag k="addr:street" v="Mill Street"/>
    <tag k="addr:state" v="VT"/>
    <tag k="ref:vcgi:esiteid" v="116253"/>
  </node>
  <node id="-718" visible="true" lat="44.21022316" lon="-72.19747274">
    <tag k="addr:city" v="Groton"/>
    <tag k="addr:housenumber" v="81"/>
    <tag k="addr:street" v="Mill Street"/>
    <tag k="addr:state" v="VT"/>
    <tag k="ref:vcgi:esiteid" v="116254"/>
  </node>
  <node id="-721" visible="true" lat="44.20743588" lon="-72.20243682">
    <tag k="addr:city" v="Groton"/>
    <tag k="addr:housenumber" v="209"/>
    <tag k="addr:street" v="Weld Road"/>
    <tag k="addr:state" v="VT"/>
    <tag k="ref:vcgi:esiteid" v="116257"/>
  </node>
  <node id="-760" visible="true" lat="44.20646342" lon="-72.19470738">
    <tag k="addr:city" v="Groton"/>
    <tag k="addr:housenumber" v="189"/>
    <tag k="addr:street" v="Railroad Street"/>
    <tag k="addr:state" v="VT"/>
    <tag k="ref:vcgi:esiteid" v="116296"/>
  </node>
  <node id="-762" visible="true" lat="44.20666791" lon="-72.19547026">
    <tag k="addr:city" v="Groton"/>
    <tag k="addr:housenumber" v="146"/>
    <tag k="addr:street" v="Railroad Street"/>
    <tag k="addr:state" v="VT"/>
    <tag k="ref:vcgi:esiteid" v="116298"/>
  </node>
  <node id="-763" visible="true" lat="44.20658134" lon="-72.19533101">
    <tag k="addr:city" v="Groton"/>
    <tag k="addr:housenumber" v="158"/>
    <tag k="addr:street" v="Railroad Street"/>
    <tag k="addr:state" v="VT"/>
    <tag k="ref:vcgi:esiteid" v="116299"/>
  </node>
  <node id="-862" visible="true" lat="44.21018583" lon="-72.19658874">
    <tag k="addr:city" v="Groton"/>
    <tag k="addr:housenumber" v="74"/>
    <tag k="addr:street" v="Powder Spring Road"/>
    <tag k="addr:state" v="VT"/>
    <tag k="ref:vcgi:esiteid" v="116401"/>
  </node>
  <node id="-908" visible="true" lat="44.20875021" lon="-72.19460746">
    <tag k="addr:city" v="Groton"/>
    <tag k="addr:housenumber" v="25"/>
    <tag k="addr:street" v="Clarks Landing"/>
    <tag k="addr:state" v="VT"/>
    <tag k="ref:vcgi:esiteid" v="116447"/>
  </node>
  <node id="-1036" visible="true" lat="44.20985417" lon="-72.19723075">
    <tag k="addr:city" v="Groton"/>
    <tag k="addr:housenumber" v="102"/>
    <tag k="addr:street" v="Mill Street"/>
    <tag k="addr:state" v="VT"/>
    <tag k="ref:vcgi:esiteid" v="116577"/>
  </node>
  <node id="-1064" visible="true" lat="44.20799431" lon="-72.19439697">
    <tag k="addr:city" v="Groton"/>
    <tag k="addr:housenumber" v="161"/>
    <tag k="addr:street" v="Little Italy Road"/>
    <tag k="addr:state" v="VT"/>
    <tag k="ref:vcgi:esiteid" v="307341"/>
  </node>
  <node id="-1069" visible="true" lat="44.20663588" lon="-72.19395604">
    <tag k="addr:city" v="Groton"/>
    <tag k="addr:housenumber" v="212"/>
    <tag k="addr:street" v="Little Italy Road"/>
    <tag k="addr:state" v="VT"/>
    <tag k="ref:vcgi:esiteid" v="316831"/>
  </node>
</osm>
