<?xml version="1.0" encoding="UTF-8"?>
<osm version="0.6" generator="JOSM">
  <node id="-170" visible="true" lat="42.81880969" lon="-72.57257373">
    <tag k="addr:city" v="Guilford"/>
    <tag k="addr:housenumber" v="191"/>
    <tag k="addr:street" v="Church Drive"/>
    <tag k="addr:state" v="VT"/>
    <tag k="ref:vcgi:esiteid" v="116848"/>
  </node>
  <node id="-177" visible="true" lat="42.81836714" lon="-72.66240126">
    <tag k="addr:city" v="Guilford"/>
    <tag k="addr:housenumber" v="102"/>
    <tag k="addr:street" v="Thomas Road"/>
    <tag k="addr:state" v="VT"/>
    <tag k="ref:vcgi:esiteid" v="116855"/>
  </node>
  <node id="-191" visible="true" lat="42.81769859" lon="-72.57368796">
    <tag k="addr:city" v="Guilford"/>
    <tag k="addr:housenumber" v="38"/>
    <tag k="addr:street" v="Church Drive"/>
    <tag k="addr:state" v="VT"/>
    <tag k="ref:vcgi:esiteid" v="116869"/>
  </node>
  <node id="-198" visible="true" lat="42.81738487" lon="-72.57542704">
    <tag k="addr:city" v="Guilford"/>
    <tag k="addr:housenumber" v="500"/>
    <tag k="addr:street" v="Coolidge Highway"/>
    <tag k="addr:state" v="VT"/>
    <tag k="ref:vcgi:esiteid" v="116876"/>
  </node>
  <node id="-203" visible="true" lat="42.81717143" lon="-72.57569086">
    <tag k="addr:city" v="Guilford"/>
    <tag k="addr:housenumber" v="31"/>
    <tag k="addr:street" v="Guilford Center Road"/>
    <tag k="addr:state" v="VT"/>
    <tag k="ref:vcgi:esiteid" v="116881"/>
  </node>
  <node id="-206" visible="true" lat="42.81720002" lon="-72.57479924">
    <tag k="addr:city" v="Guilford"/>
    <tag k="addr:housenumber" v="527"/>
    <tag k="addr:street" v="Coolidge Highway"/>
    <tag k="addr:state" v="VT"/>
    <tag k="ref:vcgi:esiteid" v="116884"/>
  </node>
  <node id="-207" visible="true" lat="42.8170253" lon="-72.57532863">
    <tag k="addr:city" v="Guilford"/>
    <tag k="addr:housenumber" v="522"/>
    <tag k="addr:street" v="Coolidge Highway"/>
    <tag k="addr:state" v="VT"/>
    <tag k="ref:vcgi:esiteid" v="116885"/>
  </node>
  <node id="-209" visible="true" lat="42.81709922" lon="-72.57433003">
    <tag k="addr:city" v="Guilford"/>
    <tag k="addr:housenumber" v="37"/>
    <tag k="addr:street" v="Bee Barn Road"/>
    <tag k="addr:state" v="VT"/>
    <tag k="ref:vcgi:esiteid" v="116887"/>
  </node>
  <node id="-210" visible="true" lat="42.8170923" lon="-72.57373066">
    <tag k="addr:city" v="Guilford"/>
    <tag k="addr:housenumber" v="41"/>
    <tag k="addr:street" v="Bee Barn Road"/>
    <tag k="addr:state" v="VT"/>
    <tag k="ref:vcgi:esiteid" v="116888"/>
  </node>
  <node id="-224" visible="true" lat="42.81641574" lon="-72.57600352">
    <tag k="addr:city" v="Guilford"/>
    <tag k="addr:housenumber" v="13"/>
    <tag k="addr:street" v="Grist Mill Drive"/>
    <tag k="addr:state" v="VT"/>
    <tag k="ref:vcgi:esiteid" v="116903"/>
  </node>
  <node id="-252" visible="true" lat="42.81473325" lon="-72.59230042">
    <tag k="addr:city" v="Guilford"/>
    <tag k="addr:housenumber" v="2704"/>
    <tag k="addr:street" v="Creamery Road"/>
    <tag k="addr:state" v="VT"/>
    <tag k="ref:vcgi:esiteid" v="116931"/>
  </node>
  <node id="-254" visible="true" lat="42.81431753" lon="-72.59074606">
    <tag k="addr:city" v="Guilford"/>
    <tag k="addr:housenumber" v="2721"/>
    <tag k="addr:street" v="Creamery Road"/>
    <tag k="addr:state" v="VT"/>
    <tag k="ref:vcgi:esiteid" v="116933"/>
  </node>
  <node id="-269" visible="true" lat="42.81301116" lon="-72.59194183">
    <tag k="addr:city" v="Guilford"/>
    <tag k="addr:housenumber" v="2987"/>
    <tag k="addr:street" v="Tater Lane"/>
    <tag k="addr:state" v="VT"/>
    <tag k="ref:vcgi:esiteid" v="116948"/>
  </node>
  <node id="-274" visible="true" lat="42.81274168" lon="-72.58361206">
    <tag k="addr:city" v="Guilford"/>
    <tag k="addr:housenumber" v="552"/>
    <tag k="addr:street" v="Guilford Center Road"/>
    <tag k="addr:state" v="VT"/>
    <tag k="ref:vcgi:esiteid" v="116953"/>
  </node>
  <node id="-278" visible="true" lat="42.81264763" lon="-72.5842846">
    <tag k="addr:city" v="Guilford"/>
    <tag k="addr:housenumber" v="568"/>
    <tag k="addr:street" v="Guilford Center Road"/>
    <tag k="addr:state" v="VT"/>
    <tag k="ref:vcgi:esiteid" v="116957"/>
  </node>
  <node id="-284" visible="true" lat="42.81217457" lon="-72.58444953">
    <tag k="addr:city" v="Guilford"/>
    <tag k="addr:housenumber" v="612"/>
    <tag k="addr:street" v="Guilford Center Road"/>
    <tag k="addr:state" v="VT"/>
    <tag k="ref:vcgi:esiteid" v="116963"/>
  </node>
  <node id="-288" visible="true" lat="42.81186463" lon="-72.59021953">
    <tag k="addr:city" v="Guilford"/>
    <tag k="addr:housenumber" v="3121"/>
    <tag k="addr:street" v="Tater Lane"/>
    <tag k="addr:state" v="VT"/>
    <tag k="ref:vcgi:esiteid" v="116967"/>
  </node>
  <node id="-289" visible="true" lat="42.81185519" lon="-72.59167473">
    <tag k="addr:city" v="Guilford"/>
    <tag k="addr:housenumber" v="3078"/>
    <tag k="addr:street" v="Tater Lane"/>
    <tag k="addr:state" v="VT"/>
    <tag k="ref:vcgi:esiteid" v="116968"/>
  </node>
  <node id="-290" visible="true" lat="42.81179103" lon="-72.58807708">
    <tag k="addr:city" v="Guilford"/>
    <tag k="addr:housenumber" v="3223"/>
    <tag k="addr:street" v="Tater Lane"/>
    <tag k="addr:state" v="VT"/>
    <tag k="ref:vcgi:esiteid" v="116969"/>
  </node>
  <node id="-291" visible="true" lat="42.81166105" lon="-72.58427923">
    <tag k="addr:city" v="Guilford"/>
    <tag k="addr:housenumber" v="627"/>
    <tag k="addr:street" v="Guilford Center Road"/>
    <tag k="addr:state" v="VT"/>
    <tag k="ref:vcgi:esiteid" v="116970"/>
  </node>
  <node id="-300" visible="true" lat="42.81116043" lon="-72.58388258">
    <tag k="addr:city" v="Guilford"/>
    <tag k="addr:housenumber" v="645"/>
    <tag k="addr:street" v="Guilford Center Road"/>
    <tag k="addr:state" v="VT"/>
    <tag k="ref:vcgi:esiteid" v="116979"/>
  </node>
  <node id="-302" visible="true" lat="42.81107843" lon="-72.58477377">
    <tag k="addr:city" v="Guilford"/>
    <tag k="addr:housenumber" v="675"/>
    <tag k="addr:street" v="Guilford Center Road"/>
    <tag k="addr:state" v="VT"/>
    <tag k="ref:vcgi:esiteid" v="116981"/>
  </node>
  <node id="-303" visible="true" lat="42.81095312" lon="-72.59114165">
    <tag k="addr:city" v="Guilford"/>
    <tag k="addr:housenumber" v="3108"/>
    <tag k="addr:street" v="Tater Lane"/>
    <tag k="addr:state" v="VT"/>
    <tag k="ref:vcgi:esiteid" v="116982"/>
  </node>
  <node id="-305" visible="true" lat="42.81096624" lon="-72.58983564">
    <tag k="addr:city" v="Guilford"/>
    <tag k="addr:housenumber" v="3176"/>
    <tag k="addr:street" v="Tater Lane"/>
    <tag k="addr:state" v="VT"/>
    <tag k="ref:vcgi:esiteid" v="116984"/>
  </node>
  <node id="-308" visible="true" lat="42.81077161" lon="-72.58509902">
    <tag k="addr:city" v="Guilford"/>
    <tag k="addr:housenumber" v="705"/>
    <tag k="addr:street" v="Guilford Center Road"/>
    <tag k="addr:state" v="VT"/>
    <tag k="ref:vcgi:esiteid" v="116987"/>
  </node>
  <node id="-314" visible="true" lat="42.81041311" lon="-72.5862996">
    <tag k="addr:city" v="Guilford"/>
    <tag k="addr:housenumber" v="766"/>
    <tag k="addr:street" v="Guilford Center Road"/>
    <tag k="addr:state" v="VT"/>
    <tag k="ref:vcgi:esiteid" v="116993"/>
  </node>
  <node id="-317" visible="true" lat="42.8103092" lon="-72.58739363">
    <tag k="addr:city" v="Guilford"/>
    <tag k="addr:housenumber" v="3299"/>
    <tag k="addr:street" v="Tater Lane"/>
    <tag k="addr:state" v="VT"/>
    <tag k="ref:vcgi:esiteid" v="116996"/>
  </node>
  <node id="-318" visible="true" lat="42.81027401" lon="-72.58869607">
    <tag k="addr:city" v="Guilford"/>
    <tag k="addr:housenumber" v="3242"/>
    <tag k="addr:street" v="Tater Lane"/>
    <tag k="addr:state" v="VT"/>
    <tag k="ref:vcgi:esiteid" v="116997"/>
  </node>
  <node id="-322" visible="true" lat="42.81020614" lon="-72.5869866">
    <tag k="addr:city" v="Guilford"/>
    <tag k="addr:housenumber" v="804"/>
    <tag k="addr:street" v="Guilford Center Road"/>
    <tag k="addr:state" v="VT"/>
    <tag k="ref:vcgi:esiteid" v="117001"/>
  </node>
  <node id="-323" visible="true" lat="42.80999349" lon="-72.58593813">
    <tag k="addr:city" v="Guilford"/>
    <tag k="addr:housenumber" v="769"/>
    <tag k="addr:street" v="Guilford Center Road"/>
    <tag k="addr:state" v="VT"/>
    <tag k="ref:vcgi:esiteid" v="117002"/>
  </node>
  <node id="-324" visible="true" lat="42.81006206" lon="-72.58826523">
    <tag k="addr:city" v="Guilford"/>
    <tag k="addr:housenumber" v="3268"/>
    <tag k="addr:street" v="Tater Lane"/>
    <tag k="addr:state" v="VT"/>
    <tag k="ref:vcgi:esiteid" v="117003"/>
  </node>
  <node id="-325" visible="true" lat="42.80990693" lon="-72.58787485">
    <tag k="addr:city" v="Guilford"/>
    <tag k="addr:housenumber" v="3296"/>
    <tag k="addr:street" v="Tater Lane"/>
    <tag k="addr:state" v="VT"/>
    <tag k="ref:vcgi:esiteid" v="117004"/>
  </node>
  <node id="-331" visible="true" lat="42.80961908" lon="-72.58644701">
    <tag k="addr:city" v="Guilford"/>
    <tag k="addr:housenumber" v="809"/>
    <tag k="addr:street" v="Guilford Center Road"/>
    <tag k="addr:state" v="VT"/>
    <tag k="ref:vcgi:esiteid" v="117010"/>
  </node>
  <node id="-343" visible="true" lat="42.80887166" lon="-72.58876108">
    <tag k="addr:city" v="Guilford"/>
    <tag k="addr:housenumber" v="914"/>
    <tag k="addr:street" v="Guilford Center Road"/>
    <tag k="addr:state" v="VT"/>
    <tag k="ref:vcgi:esiteid" v="117022"/>
  </node>
  <node id="-348" visible="true" lat="42.80833991" lon="-72.58877599">
    <tag k="addr:city" v="Guilford"/>
    <tag k="addr:housenumber" v="956"/>
    <tag k="addr:street" v="Guilford Center Road"/>
    <tag k="addr:state" v="VT"/>
    <tag k="ref:vcgi:esiteid" v="117027"/>
  </node>
  <node id="-349" visible="true" lat="42.80831128" lon="-72.58767528">
    <tag k="addr:city" v="Guilford"/>
    <tag k="addr:housenumber" v="931"/>
    <tag k="addr:street" v="Guilford Center Road"/>
    <tag k="addr:state" v="VT"/>
    <tag k="ref:vcgi:esiteid" v="117028"/>
  </node>
  <node id="-351" visible="true" lat="42.80815883" lon="-72.58905268">
    <tag k="addr:city" v="Guilford"/>
    <tag k="addr:housenumber" v="966"/>
    <tag k="addr:street" v="Guilford Center Road"/>
    <tag k="addr:state" v="VT"/>
    <tag k="ref:vcgi:esiteid" v="117030"/>
  </node>
  <node id="-356" visible="true" lat="42.80782871" lon="-72.58898082">
    <tag k="addr:city" v="Guilford"/>
    <tag k="addr:housenumber" v="988"/>
    <tag k="addr:street" v="Guilford Center Road"/>
    <tag k="addr:state" v="VT"/>
    <tag k="ref:vcgi:esiteid" v="117035"/>
  </node>
  <node id="-373" visible="true" lat="42.80665613" lon="-72.58899545">
    <tag k="addr:city" v="Guilford"/>
    <tag k="addr:housenumber" v="1045"/>
    <tag k="addr:street" v="Guilford Center Road"/>
    <tag k="addr:state" v="VT"/>
    <tag k="ref:vcgi:esiteid" v="117052"/>
  </node>
  <node id="-389" visible="true" lat="42.80638594" lon="-72.5908611">
    <tag k="addr:city" v="Guilford"/>
    <tag k="addr:housenumber" v="1136"/>
    <tag k="addr:street" v="Guilford Center Road"/>
    <tag k="addr:state" v="VT"/>
    <tag k="ref:vcgi:esiteid" v="117068"/>
  </node>
  <node id="-434" visible="true" lat="42.80326152" lon="-72.59492899">
    <tag k="addr:city" v="Guilford"/>
    <tag k="addr:housenumber" v="1430"/>
    <tag k="addr:street" v="Guilford Center Road"/>
    <tag k="addr:state" v="VT"/>
    <tag k="ref:vcgi:esiteid" v="117114"/>
  </node>
  <node id="-451" visible="true" lat="42.80219225" lon="-72.59299116">
    <tag k="addr:city" v="Guilford"/>
    <tag k="addr:housenumber" v="1461"/>
    <tag k="addr:street" v="Guilford Center Road"/>
    <tag k="addr:state" v="VT"/>
    <tag k="ref:vcgi:esiteid" v="117132"/>
  </node>
  <node id="-624" visible="true" lat="42.78291433" lon="-72.67378787">
    <tag k="addr:city" v="Guilford"/>
    <tag k="addr:housenumber" v="1288"/>
    <tag k="addr:street" v="Green River Road"/>
    <tag k="addr:state" v="VT"/>
    <tag k="ref:vcgi:esiteid" v="117315"/>
  </node>
  <node id="-631" visible="true" lat="42.78171149" lon="-72.67341596">
    <tag k="addr:city" v="Guilford"/>
    <tag k="addr:housenumber" v="1350"/>
    <tag k="addr:street" v="Green River Road"/>
    <tag k="addr:state" v="VT"/>
    <tag k="ref:vcgi:esiteid" v="117322"/>
  </node>
  <node id="-636" visible="true" lat="42.78096525" lon="-72.67613564">
    <tag k="addr:city" v="Guilford"/>
    <tag k="addr:housenumber" v="1440"/>
    <tag k="addr:street" v="Green River Road"/>
    <tag k="addr:state" v="VT"/>
    <tag k="ref:vcgi:esiteid" v="117327"/>
  </node>
  <node id="-650" visible="true" lat="42.77918411" lon="-72.67398688">
    <tag k="addr:city" v="Guilford"/>
    <tag k="addr:housenumber" v="1480"/>
    <tag k="addr:street" v="Green River Road"/>
    <tag k="addr:state" v="VT"/>
    <tag k="ref:vcgi:esiteid" v="117342"/>
  </node>
  <node id="-658" visible="true" lat="42.77741111" lon="-72.66322353">
    <tag k="addr:city" v="Guilford"/>
    <tag k="addr:housenumber" v="2203"/>
    <tag k="addr:street" v="Stage Road"/>
    <tag k="addr:state" v="VT"/>
    <tag k="ref:vcgi:esiteid" v="117350"/>
  </node>
  <node id="-663" visible="true" lat="42.77695465" lon="-72.6699295">
    <tag k="addr:city" v="Guilford"/>
    <tag k="addr:housenumber" v="1769"/>
    <tag k="addr:street" v="Green River Road"/>
    <tag k="addr:state" v="VT"/>
    <tag k="ref:vcgi:esiteid" v="117355"/>
  </node>
  <node id="-666" visible="true" lat="42.77682865" lon="-72.66927654">
    <tag k="addr:city" v="Guilford"/>
    <tag k="addr:housenumber" v="1805"/>
    <tag k="addr:street" v="Green River Road"/>
    <tag k="addr:state" v="VT"/>
    <tag k="ref:vcgi:esiteid" v="117358"/>
  </node>
  <node id="-667" visible="true" lat="42.77684954" lon="-72.67052842">
    <tag k="addr:city" v="Guilford"/>
    <tag k="addr:housenumber" v="1750"/>
    <tag k="addr:street" v="Green River Road"/>
    <tag k="addr:state" v="VT"/>
    <tag k="ref:vcgi:esiteid" v="117359"/>
  </node>
  <node id="-669" visible="true" lat="42.77676387" lon="-72.66336212">
    <tag k="addr:city" v="Guilford"/>
    <tag k="addr:housenumber" v="2253"/>
    <tag k="addr:street" v="Stage Road"/>
    <tag k="addr:state" v="VT"/>
    <tag k="ref:vcgi:esiteid" v="117361"/>
  </node>
  <node id="-670" visible="true" lat="42.77673121" lon="-72.67002519">
    <tag k="addr:city" v="Guilford"/>
    <tag k="addr:housenumber" v="1778"/>
    <tag k="addr:street" v="Green River Road"/>
    <tag k="addr:state" v="VT"/>
    <tag k="ref:vcgi:esiteid" v="117362"/>
  </node>
  <node id="-671" visible="true" lat="42.77629037" lon="-72.66764538">
    <tag k="addr:city" v="Guilford"/>
    <tag k="addr:housenumber" v="1893"/>
    <tag k="addr:street" v="Green River Road"/>
    <tag k="addr:state" v="VT"/>
    <tag k="ref:vcgi:esiteid" v="117363"/>
  </node>
  <node id="-672" visible="true" lat="42.77633814" lon="-72.66530293">
    <tag k="addr:city" v="Guilford"/>
    <tag k="addr:housenumber" v="2350"/>
    <tag k="addr:street" v="Stage Road"/>
    <tag k="addr:state" v="VT"/>
    <tag k="ref:vcgi:esiteid" v="117364"/>
  </node>
  <node id="-674" visible="true" lat="42.77625043" lon="-72.66886526">
    <tag k="addr:city" v="Guilford"/>
    <tag k="addr:housenumber" v="1850"/>
    <tag k="addr:street" v="Green River Road"/>
    <tag k="addr:state" v="VT"/>
    <tag k="ref:vcgi:esiteid" v="117366"/>
  </node>
  <node id="-675" visible="true" lat="42.77616661" lon="-72.66732572">
    <tag k="addr:city" v="Guilford"/>
    <tag k="addr:housenumber" v="1919"/>
    <tag k="addr:street" v="Green River Road"/>
    <tag k="addr:state" v="VT"/>
    <tag k="ref:vcgi:esiteid" v="117367"/>
  </node>
  <node id="-677" visible="true" lat="42.7759149" lon="-72.66572676">
    <tag k="addr:city" v="Guilford"/>
    <tag k="addr:housenumber" v="2377"/>
    <tag k="addr:street" v="Stage Road"/>
    <tag k="addr:state" v="VT"/>
    <tag k="ref:vcgi:esiteid" v="117369"/>
  </node>
  <node id="-679" visible="true" lat="42.77573179" lon="-72.66615977">
    <tag k="addr:city" v="Guilford"/>
    <tag k="addr:housenumber" v="2401"/>
    <tag k="addr:street" v="Stage Road"/>
    <tag k="addr:state" v="VT"/>
    <tag k="ref:vcgi:esiteid" v="117371"/>
  </node>
  <node id="-683" visible="true" lat="42.77556218" lon="-72.66650039">
    <tag k="addr:city" v="Guilford"/>
    <tag k="addr:housenumber" v="2435"/>
    <tag k="addr:street" v="Stage Road"/>
    <tag k="addr:state" v="VT"/>
    <tag k="ref:vcgi:esiteid" v="117375"/>
  </node>
  <node id="-684" visible="true" lat="42.77529099" lon="-72.66842934">
    <tag k="addr:city" v="Guilford"/>
    <tag k="addr:housenumber" v="2518"/>
    <tag k="addr:street" v="Stage Road"/>
    <tag k="addr:state" v="VT"/>
    <tag k="ref:vcgi:esiteid" v="117376"/>
  </node>
  <node id="-686" visible="true" lat="42.77502441" lon="-72.66918945">
    <tag k="addr:city" v="Guilford"/>
    <tag k="addr:housenumber" v="2564"/>
    <tag k="addr:street" v="Stage Road"/>
    <tag k="addr:state" v="VT"/>
    <tag k="ref:vcgi:esiteid" v="117378"/>
  </node>
  <node id="-689" visible="true" lat="42.77502974" lon="-72.61278484">
    <tag k="addr:city" v="Guilford"/>
    <tag k="addr:housenumber" v="314"/>
    <tag k="addr:street" v="Locust Hill Road"/>
    <tag k="addr:state" v="VT"/>
    <tag k="ref:vcgi:esiteid" v="117381"/>
  </node>
  <node id="-693" visible="true" lat="42.77408965" lon="-72.68086823">
    <tag k="addr:city" v="Guilford"/>
    <tag k="addr:housenumber" v="3128"/>
    <tag k="addr:street" v="Stage Road"/>
    <tag k="addr:state" v="VT"/>
    <tag k="ref:vcgi:esiteid" v="117385"/>
  </node>
  <node id="-695" visible="true" lat="42.77370834" lon="-72.67337799">
    <tag k="addr:city" v="Guilford"/>
    <tag k="addr:housenumber" v="2802"/>
    <tag k="addr:street" v="Stage Road"/>
    <tag k="addr:state" v="VT"/>
    <tag k="ref:vcgi:esiteid" v="117387"/>
  </node>
  <node id="-697" visible="true" lat="42.77358601" lon="-72.67895648">
    <tag k="addr:city" v="Guilford"/>
    <tag k="addr:housenumber" v="3126"/>
    <tag k="addr:street" v="Stage Road"/>
    <tag k="addr:state" v="VT"/>
    <tag k="ref:vcgi:esiteid" v="117389"/>
  </node>
  <node id="-699" visible="true" lat="42.7733113" lon="-72.61013029">
    <tag k="addr:city" v="Guilford"/>
    <tag k="addr:housenumber" v="74"/>
    <tag k="addr:street" v="Locust Hill Road"/>
    <tag k="addr:state" v="VT"/>
    <tag k="ref:vcgi:esiteid" v="117391"/>
  </node>
  <node id="-700" visible="true" lat="42.77324937" lon="-72.61343455">
    <tag k="addr:city" v="Guilford"/>
    <tag k="addr:housenumber" v="239"/>
    <tag k="addr:street" v="Locust Hill Road"/>
    <tag k="addr:state" v="VT"/>
    <tag k="ref:vcgi:esiteid" v="117392"/>
  </node>
  <node id="-701" visible="true" lat="42.77304422" lon="-72.64122329">
    <tag k="addr:city" v="Guilford"/>
    <tag k="addr:housenumber" v="242"/>
    <tag k="addr:street" v="Campbell Road"/>
    <tag k="addr:state" v="VT"/>
    <tag k="ref:vcgi:esiteid" v="117393"/>
  </node>
  <node id="-702" visible="true" lat="42.77287328" lon="-72.61047665">
    <tag k="addr:city" v="Guilford"/>
    <tag k="addr:housenumber" v="108"/>
    <tag k="addr:street" v="Locust Hill Road"/>
    <tag k="addr:state" v="VT"/>
    <tag k="ref:vcgi:esiteid" v="117394"/>
  </node>
  <node id="-704" visible="true" lat="42.77293084" lon="-72.61229174">
    <tag k="addr:city" v="Guilford"/>
    <tag k="addr:housenumber" v="187"/>
    <tag k="addr:street" v="Locust Hill Road"/>
    <tag k="addr:state" v="VT"/>
    <tag k="ref:vcgi:esiteid" v="117396"/>
  </node>
  <node id="-706" visible="true" lat="42.77271236" lon="-72.67890666">
    <tag k="addr:city" v="Guilford"/>
    <tag k="addr:housenumber" v="3123"/>
    <tag k="addr:street" v="Stage Road"/>
    <tag k="addr:state" v="VT"/>
    <tag k="ref:vcgi:esiteid" v="117398"/>
  </node>
  <node id="-707" visible="true" lat="42.77253195" lon="-72.67806408">
    <tag k="addr:city" v="Guilford"/>
    <tag k="addr:housenumber" v="44"/>
    <tag k="addr:street" v="Jelly Mill Road"/>
    <tag k="addr:state" v="VT"/>
    <tag k="ref:vcgi:esiteid" v="117399"/>
  </node>
  <node id="-709" visible="true" lat="42.77186625" lon="-72.67702754">
    <tag k="addr:city" v="Guilford"/>
    <tag k="addr:housenumber" v="98"/>
    <tag k="addr:street" v="Jelly Mill Road"/>
    <tag k="addr:state" v="VT"/>
    <tag k="ref:vcgi:esiteid" v="117401"/>
  </node>
  <node id="-710" visible="true" lat="42.77169303" lon="-72.63586943">
    <tag k="addr:city" v="Guilford"/>
    <tag k="addr:housenumber" v="38"/>
    <tag k="addr:street" v="Borkowski Road"/>
    <tag k="addr:state" v="VT"/>
    <tag k="ref:vcgi:esiteid" v="117402"/>
  </node>
  <node id="-713" visible="true" lat="42.77137233" lon="-72.60851521">
    <tag k="addr:city" v="Guilford"/>
    <tag k="addr:housenumber" v="803"/>
    <tag k="addr:street" v="Stony Hill Road"/>
    <tag k="addr:state" v="VT"/>
    <tag k="ref:vcgi:esiteid" v="117405"/>
  </node>
  <node id="-714" visible="true" lat="42.77120837" lon="-72.60904939">
    <tag k="addr:city" v="Guilford"/>
    <tag k="addr:housenumber" v="855"/>
    <tag k="addr:street" v="Stony Hill Road"/>
    <tag k="addr:state" v="VT"/>
    <tag k="ref:vcgi:esiteid" v="117406"/>
  </node>
  <node id="-715" visible="true" lat="42.77047809" lon="-72.66359514">
    <tag k="addr:city" v="Guilford"/>
    <tag k="addr:housenumber" v="438"/>
    <tag k="addr:street" v="River Road"/>
    <tag k="addr:state" v="VT"/>
    <tag k="ref:vcgi:esiteid" v="117407"/>
  </node>
  <node id="-716" visible="true" lat="42.77012126" lon="-72.60949099">
    <tag k="addr:city" v="Guilford"/>
    <tag k="addr:housenumber" v="914"/>
    <tag k="addr:street" v="Stony Hill Road"/>
    <tag k="addr:state" v="VT"/>
    <tag k="ref:vcgi:esiteid" v="117408"/>
  </node>
  <node id="-717" visible="true" lat="42.76995836" lon="-72.63272962">
    <tag k="addr:city" v="Guilford"/>
    <tag k="addr:housenumber" v="277"/>
    <tag k="addr:street" v="Borkowski Road"/>
    <tag k="addr:state" v="VT"/>
    <tag k="ref:vcgi:esiteid" v="117409"/>
  </node>
  <node id="-718" visible="true" lat="42.76997555" lon="-72.63180812">
    <tag k="addr:city" v="Guilford"/>
    <tag k="addr:housenumber" v="285"/>
    <tag k="addr:street" v="Borkowski Road"/>
    <tag k="addr:state" v="VT"/>
    <tag k="ref:vcgi:esiteid" v="117410"/>
  </node>
  <node id="-720" visible="true" lat="42.76885898" lon="-72.67283829">
    <tag k="addr:city" v="Guilford"/>
    <tag k="addr:housenumber" v="403"/>
    <tag k="addr:street" v="Jelly Mill Road"/>
    <tag k="addr:state" v="VT"/>
    <tag k="ref:vcgi:esiteid" v="117412"/>
  </node>
  <node id="-724" visible="true" lat="42.76729583" lon="-72.67126464">
    <tag k="addr:city" v="Guilford"/>
    <tag k="addr:housenumber" v="593"/>
    <tag k="addr:street" v="Jelly Mill Road"/>
    <tag k="addr:state" v="VT"/>
    <tag k="ref:vcgi:esiteid" v="117416"/>
  </node>
  <node id="-725" visible="true" lat="42.7674012" lon="-72.66355368">
    <tag k="addr:city" v="Guilford"/>
    <tag k="addr:housenumber" v="628"/>
    <tag k="addr:street" v="River Road"/>
    <tag k="addr:state" v="VT"/>
    <tag k="ref:vcgi:esiteid" v="117417"/>
  </node>
  <node id="-740" visible="true" lat="42.76449622" lon="-72.66369253">
    <tag k="addr:city" v="Guilford"/>
    <tag k="addr:housenumber" v="856"/>
    <tag k="addr:street" v="River Road"/>
    <tag k="addr:state" v="VT"/>
    <tag k="ref:vcgi:esiteid" v="117433"/>
  </node>
  <node id="-757" visible="true" lat="42.76128434" lon="-72.66707868">
    <tag k="addr:city" v="Guilford"/>
    <tag k="addr:housenumber" v="1079"/>
    <tag k="addr:street" v="Jelly Mill Road"/>
    <tag k="addr:state" v="VT"/>
    <tag k="ref:vcgi:esiteid" v="117451"/>
  </node>
  <node id="-759" visible="true" lat="42.76078808" lon="-72.66251617">
    <tag k="addr:city" v="Guilford"/>
    <tag k="addr:housenumber" v="1102"/>
    <tag k="addr:street" v="River Road"/>
    <tag k="addr:state" v="VT"/>
    <tag k="ref:vcgi:esiteid" v="117453"/>
  </node>
  <node id="-764" visible="true" lat="42.76041346" lon="-72.66610002">
    <tag k="addr:city" v="Guilford"/>
    <tag k="addr:housenumber" v="1187"/>
    <tag k="addr:street" v="Jelly Mill Road"/>
    <tag k="addr:state" v="VT"/>
    <tag k="ref:vcgi:esiteid" v="117458"/>
  </node>
  <node id="-768" visible="true" lat="42.75989865" lon="-72.66871132">
    <tag k="addr:city" v="Guilford"/>
    <tag k="addr:housenumber" v="106"/>
    <tag k="addr:street" v="Gallup Road"/>
    <tag k="addr:state" v="VT"/>
    <tag k="ref:vcgi:esiteid" v="117462"/>
  </node>
  <node id="-772" visible="true" lat="42.75955427" lon="-72.66562568">
    <tag k="addr:city" v="Guilford"/>
    <tag k="addr:housenumber" v="1221"/>
    <tag k="addr:street" v="Jelly Mill Road"/>
    <tag k="addr:state" v="VT"/>
    <tag k="ref:vcgi:esiteid" v="117466"/>
  </node>
  <node id="-776" visible="true" lat="42.75895008" lon="-72.66726129">
    <tag k="addr:city" v="Guilford"/>
    <tag k="addr:housenumber" v="45"/>
    <tag k="addr:street" v="Gallup Road"/>
    <tag k="addr:state" v="VT"/>
    <tag k="ref:vcgi:esiteid" v="117470"/>
  </node>
  <node id="-779" visible="true" lat="42.75876259" lon="-72.66531491">
    <tag k="addr:city" v="Guilford"/>
    <tag k="addr:housenumber" v="1277"/>
    <tag k="addr:street" v="Jelly Mill Road"/>
    <tag k="addr:state" v="VT"/>
    <tag k="ref:vcgi:esiteid" v="117473"/>
  </node>
  <node id="-783" visible="true" lat="42.75851043" lon="-72.66470245">
    <tag k="addr:city" v="Guilford"/>
    <tag k="addr:housenumber" v="1349"/>
    <tag k="addr:street" v="Jelly Mill Road"/>
    <tag k="addr:state" v="VT"/>
    <tag k="ref:vcgi:esiteid" v="117477"/>
  </node>
  <node id="-784" visible="true" lat="42.75833977" lon="-72.66286572">
    <tag k="addr:city" v="Guilford"/>
    <tag k="addr:housenumber" v="1306"/>
    <tag k="addr:street" v="River Road"/>
    <tag k="addr:state" v="VT"/>
    <tag k="ref:vcgi:esiteid" v="117478"/>
  </node>
  <node id="-786" visible="true" lat="42.75813367" lon="-72.66131751">
    <tag k="addr:city" v="Guilford"/>
    <tag k="addr:housenumber" v="1289"/>
    <tag k="addr:street" v="River Road"/>
    <tag k="addr:state" v="VT"/>
    <tag k="ref:vcgi:esiteid" v="117480"/>
  </node>
  <node id="-787" visible="true" lat="42.75830394" lon="-72.66344905">
    <tag k="addr:city" v="Guilford"/>
    <tag k="addr:housenumber" v="1373"/>
    <tag k="addr:street" v="Jelly Mill Road"/>
    <tag k="addr:state" v="VT"/>
    <tag k="ref:vcgi:esiteid" v="117481"/>
  </node>
  <node id="-791" visible="true" lat="42.75735424" lon="-72.66984023">
    <tag k="addr:city" v="Guilford"/>
    <tag k="addr:housenumber" v="384"/>
    <tag k="addr:street" v="Gallup Road"/>
    <tag k="addr:state" v="VT"/>
    <tag k="ref:vcgi:esiteid" v="117485"/>
  </node>
  <node id="-792" visible="true" lat="42.75728389" lon="-72.66263763">
    <tag k="addr:city" v="Guilford"/>
    <tag k="addr:housenumber" v="1380"/>
    <tag k="addr:street" v="River Road"/>
    <tag k="addr:state" v="VT"/>
    <tag k="ref:vcgi:esiteid" v="117486"/>
  </node>
  <node id="-793" visible="true" lat="42.75688925" lon="-72.66217507">
    <tag k="addr:city" v="Guilford"/>
    <tag k="addr:housenumber" v="1406"/>
    <tag k="addr:street" v="River Road"/>
    <tag k="addr:state" v="VT"/>
    <tag k="ref:vcgi:esiteid" v="117487"/>
  </node>
  <node id="-797" visible="true" lat="42.75586386" lon="-72.66208507">
    <tag k="addr:city" v="Guilford"/>
    <tag k="addr:housenumber" v="1472"/>
    <tag k="addr:street" v="River Road"/>
    <tag k="addr:state" v="VT"/>
    <tag k="ref:vcgi:esiteid" v="117491"/>
  </node>
  <node id="-810" visible="true" lat="42.75447437" lon="-72.6636914">
    <tag k="addr:city" v="Guilford"/>
    <tag k="addr:housenumber" v="1604"/>
    <tag k="addr:street" v="River Road"/>
    <tag k="addr:state" v="VT"/>
    <tag k="ref:vcgi:esiteid" v="117505"/>
  </node>
  <node id="-822" visible="true" lat="42.75309558" lon="-72.66716731">
    <tag k="addr:city" v="Guilford"/>
    <tag k="addr:housenumber" v="1738"/>
    <tag k="addr:street" v="River Road"/>
    <tag k="addr:state" v="VT"/>
    <tag k="ref:vcgi:esiteid" v="117520"/>
  </node>
  <node id="-823" visible="true" lat="42.75288089" lon="-72.66585261">
    <tag k="addr:city" v="Guilford"/>
    <tag k="addr:housenumber" v="1736"/>
    <tag k="addr:street" v="River Road"/>
    <tag k="addr:state" v="VT"/>
    <tag k="ref:vcgi:esiteid" v="117521"/>
  </node>
  <node id="-842" visible="true" lat="42.75090199" lon="-72.66662126">
    <tag k="addr:city" v="Guilford"/>
    <tag k="addr:housenumber" v="1922"/>
    <tag k="addr:street" v="River Road"/>
    <tag k="addr:state" v="VT"/>
    <tag k="ref:vcgi:esiteid" v="117540"/>
  </node>
  <node id="-859" visible="true" lat="42.74920419" lon="-72.66698">
    <tag k="addr:city" v="Guilford"/>
    <tag k="addr:housenumber" v="2062"/>
    <tag k="addr:street" v="River Road"/>
    <tag k="addr:state" v="VT"/>
    <tag k="ref:vcgi:esiteid" v="117557"/>
  </node>
  <node id="-864" visible="true" lat="42.74888537" lon="-72.6555923">
    <tag k="addr:city" v="Guilford"/>
    <tag k="addr:housenumber" v="230"/>
    <tag k="addr:street" v="Johnson Pasture Drive"/>
    <tag k="addr:state" v="VT"/>
    <tag k="ref:vcgi:esiteid" v="117563"/>
  </node>
  <node id="-870" visible="true" lat="42.74792085" lon="-72.65498798">
    <tag k="addr:city" v="Guilford"/>
    <tag k="addr:housenumber" v="228"/>
    <tag k="addr:street" v="Johnson Pasture Drive"/>
    <tag k="addr:state" v="VT"/>
    <tag k="ref:vcgi:esiteid" v="117570"/>
  </node>
  <node id="-872" visible="true" lat="42.74769229" lon="-72.65333374">
    <tag k="addr:city" v="Guilford"/>
    <tag k="addr:housenumber" v="111"/>
    <tag k="addr:street" v="Johnson Pasture Drive"/>
    <tag k="addr:state" v="VT"/>
    <tag k="ref:vcgi:esiteid" v="117572"/>
  </node>
  <node id="-874" visible="true" lat="42.74843329" lon="-72.65705432">
    <tag k="addr:city" v="Guilford"/>
    <tag k="addr:housenumber" v="239"/>
    <tag k="addr:street" v="Johnson Pasture Drive"/>
    <tag k="addr:state" v="VT"/>
    <tag k="ref:vcgi:esiteid" v="117574"/>
  </node>
  <node id="-875" visible="true" lat="42.74753202" lon="-72.6524085">
    <tag k="addr:city" v="Guilford"/>
    <tag k="addr:housenumber" v="886"/>
    <tag k="addr:street" v="Abijah Prince Road"/>
    <tag k="addr:state" v="VT"/>
    <tag k="ref:vcgi:esiteid" v="117575"/>
  </node>
  <node id="-877" visible="true" lat="42.74710089" lon="-72.65278537">
    <tag k="addr:city" v="Guilford"/>
    <tag k="addr:housenumber" v="16"/>
    <tag k="addr:street" v="Johnson Pasture Drive"/>
    <tag k="addr:state" v="VT"/>
    <tag k="ref:vcgi:esiteid" v="117577"/>
  </node>
  <node id="-880" visible="true" lat="42.74626728" lon="-72.65264361">
    <tag k="addr:city" v="Guilford"/>
    <tag k="addr:housenumber" v="960"/>
    <tag k="addr:street" v="Abijah Prince Road"/>
    <tag k="addr:state" v="VT"/>
    <tag k="ref:vcgi:esiteid" v="117580"/>
  </node>
  <node id="-882" visible="true" lat="42.74612359" lon="-72.66864048">
    <tag k="addr:city" v="Guilford"/>
    <tag k="addr:housenumber" v="2318"/>
    <tag k="addr:street" v="River Road"/>
    <tag k="addr:state" v="VT"/>
    <tag k="ref:vcgi:esiteid" v="117582"/>
  </node>
  <node id="-894" visible="true" lat="42.74491179" lon="-72.67077944">
    <tag k="addr:city" v="Guilford"/>
    <tag k="addr:housenumber" v="2458"/>
    <tag k="addr:street" v="River Road"/>
    <tag k="addr:state" v="VT"/>
    <tag k="ref:vcgi:esiteid" v="117595"/>
  </node>
  <node id="-902" visible="true" lat="42.74390861" lon="-72.67466639">
    <tag k="addr:city" v="Guilford"/>
    <tag k="addr:housenumber" v="196"/>
    <tag k="addr:street" v="Randall Drive"/>
    <tag k="addr:state" v="VT"/>
    <tag k="ref:vcgi:esiteid" v="117604"/>
  </node>
  <node id="-903" visible="true" lat="42.74376115" lon="-72.6735797">
    <tag k="addr:city" v="Guilford"/>
    <tag k="addr:housenumber" v="120"/>
    <tag k="addr:street" v="Randall Drive"/>
    <tag k="addr:state" v="VT"/>
    <tag k="ref:vcgi:esiteid" v="117605"/>
  </node>
  <node id="-905" visible="true" lat="42.74373116" lon="-72.67184452">
    <tag k="addr:city" v="Guilford"/>
    <tag k="addr:housenumber" v="38"/>
    <tag k="addr:street" v="Randall Drive"/>
    <tag k="addr:state" v="VT"/>
    <tag k="ref:vcgi:esiteid" v="117607"/>
  </node>
  <node id="-916" visible="true" lat="42.74206982" lon="-72.67382078">
    <tag k="addr:city" v="Guilford"/>
    <tag k="addr:housenumber" v="2688"/>
    <tag k="addr:street" v="River Road"/>
    <tag k="addr:state" v="VT"/>
    <tag k="ref:vcgi:esiteid" v="117618"/>
  </node>
  <node id="-944" visible="true" lat="42.73779982" lon="-72.65754071">
    <tag k="addr:city" v="Guilford"/>
    <tag k="addr:housenumber" v="2400"/>
    <tag k="addr:street" v="Packer Corners Road"/>
    <tag k="addr:state" v="VT"/>
    <tag k="ref:vcgi:esiteid" v="117647"/>
  </node>
  <node id="-949" visible="true" lat="42.73666318" lon="-72.6601635">
    <tag k="addr:city" v="Guilford"/>
    <tag k="addr:housenumber" v="2450"/>
    <tag k="addr:street" v="Packer Corners Road"/>
    <tag k="addr:state" v="VT"/>
    <tag k="ref:vcgi:esiteid" v="117652"/>
  </node>
  <node id="-957" visible="true" lat="42.73529805" lon="-72.68395172">
    <tag k="addr:city" v="Guilford"/>
    <tag k="addr:housenumber" v="148"/>
    <tag k="addr:street" v="Corner Road"/>
    <tag k="addr:state" v="VT"/>
    <tag k="ref:vcgi:esiteid" v="117661"/>
  </node>
  <node id="-972" visible="true" lat="42.73327339" lon="-72.6850779">
    <tag k="addr:city" v="Guilford"/>
    <tag k="addr:housenumber" v="2"/>
    <tag k="addr:street" v="Corner Road"/>
    <tag k="addr:state" v="VT"/>
    <tag k="ref:vcgi:esiteid" v="117676"/>
  </node>
  <node id="-1001" visible="true" lat="42.76298913" lon="-72.66314147">
    <tag k="addr:city" v="Guilford"/>
    <tag k="addr:housenumber" v="950"/>
    <tag k="addr:street" v="River Road"/>
    <tag k="addr:state" v="VT"/>
    <tag k="ref:vcgi:esiteid" v="117707"/>
  </node>
  <node id="-1002" visible="true" lat="42.76162654" lon="-72.66065562">
    <tag k="addr:city" v="Guilford"/>
    <tag k="addr:housenumber" v="1071"/>
    <tag k="addr:street" v="River Road"/>
    <tag k="addr:state" v="VT"/>
    <tag k="ref:vcgi:esiteid" v="117708"/>
  </node>
  <node id="-1005" visible="true" lat="42.74303073" lon="-72.6749802">
    <tag k="addr:city" v="Guilford"/>
    <tag k="addr:housenumber" v="199"/>
    <tag k="addr:street" v="Randall Drive"/>
    <tag k="addr:state" v="VT"/>
    <tag k="ref:vcgi:esiteid" v="117711"/>
  </node>
  <node id="-1006" visible="true" lat="42.73961076" lon="-72.65539824">
    <tag k="addr:city" v="Guilford"/>
    <tag k="addr:housenumber" v="2124"/>
    <tag k="addr:street" v="Packer Corners Road"/>
    <tag k="addr:state" v="VT"/>
    <tag k="ref:vcgi:esiteid" v="117712"/>
  </node>
  <node id="-1033" visible="true" lat="42.81307645" lon="-72.59081324">
    <tag k="addr:city" v="Guilford"/>
    <tag k="addr:housenumber" v="2821"/>
    <tag k="addr:street" v="Creamery Road"/>
    <tag k="addr:state" v="VT"/>
    <tag k="ref:vcgi:esiteid" v="117740"/>
  </node>
  <node id="-1050" visible="true" lat="42.77463321" lon="-72.61362417">
    <tag k="addr:city" v="Guilford"/>
    <tag k="addr:housenumber" v="287"/>
    <tag k="addr:street" v="Locust Hill Road"/>
    <tag k="addr:state" v="VT"/>
    <tag k="ref:vcgi:esiteid" v="117758"/>
  </node>
  <node id="-1063" visible="true" lat="42.77157254" lon="-72.61114099">
    <tag k="addr:city" v="Guilford"/>
    <tag k="addr:housenumber" v="137"/>
    <tag k="addr:street" v="Locust Hill Road"/>
    <tag k="addr:state" v="VT"/>
    <tag k="ref:vcgi:esiteid" v="117775"/>
  </node>
  <node id="-1101" visible="true" lat="42.74502466" lon="-72.67548613">
    <tag k="addr:city" v="Guilford"/>
    <tag k="addr:housenumber" v="280"/>
    <tag k="addr:street" v="Randall Drive"/>
    <tag k="addr:state" v="VT"/>
    <tag k="ref:vcgi:esiteid" v="117818"/>
  </node>
  <node id="-1102" visible="true" lat="42.76061366" lon="-72.66405676">
    <tag k="addr:city" v="Guilford"/>
    <tag k="addr:housenumber" v="1078"/>
    <tag k="addr:street" v="River Road"/>
    <tag k="addr:state" v="VT"/>
    <tag k="ref:vcgi:esiteid" v="117819"/>
  </node>
  <node id="-1104" visible="true" lat="42.81815884" lon="-72.57147112">
    <tag k="addr:city" v="Guilford"/>
    <tag k="addr:housenumber" v="230"/>
    <tag k="addr:street" v="Bee Barn Drive"/>
    <tag k="addr:state" v="VT"/>
    <tag k="ref:vcgi:esiteid" v="117821"/>
  </node>
  <node id="-1115" visible="true" lat="42.77440317" lon="-72.60900986">
    <tag k="addr:city" v="Guilford"/>
    <tag k="addr:housenumber" v="22"/>
    <tag k="addr:street" v="Locust Hill Road"/>
    <tag k="addr:state" v="VT"/>
    <tag k="ref:vcgi:esiteid" v="306194"/>
  </node>
  <node id="-1129" visible="true" lat="42.74712868" lon="-72.65515762">
    <tag k="addr:city" v="Guilford"/>
    <tag k="addr:housenumber" v="193"/>
    <tag k="addr:street" v="Johnson Pasture Drive"/>
    <tag k="addr:state" v="VT"/>
    <tag k="ref:vcgi:esiteid" v="315942"/>
  </node>
  <node id="-1130" visible="true" lat="42.77505348" lon="-72.61012905">
    <tag k="addr:city" v="Guilford"/>
    <tag k="addr:housenumber" v="198"/>
    <tag k="addr:street" v="Locust Hill Road"/>
    <tag k="addr:state" v="VT"/>
    <tag k="ref:vcgi:esiteid" v="315997"/>
  </node>
  <node id="-1149" visible="true" lat="42.77311843" lon="-72.66522628">
    <tag k="addr:city" v="Guilford"/>
    <tag k="addr:housenumber" v="282"/>
    <tag k="addr:street" v="River Road"/>
    <tag k="addr:state" v="VT"/>
    <tag k="ref:vcgi:esiteid" v="329662"/>
  </node>
  <node id="-1170" visible="true" lat="42.80611799" lon="-72.58995037">
    <tag k="addr:city" v="Guilford"/>
    <tag k="addr:housenumber" v="1119"/>
    <tag k="addr:street" v="Guilford Center Road"/>
    <tag k="addr:state" v="VT"/>
    <tag k="ref:vcgi:esiteid" v="341244"/>
  </node>
  <node id="-1189" visible="true" lat="42.81658694" lon="-72.57633543">
    <tag k="addr:city" v="Guilford"/>
    <tag k="addr:housenumber" v="91"/>
    <tag k="addr:street" v="Guilford Center Road"/>
    <tag k="addr:state" v="VT"/>
    <tag k="ref:vcgi:esiteid" v="447151"/>
  </node>
  <node id="-1249" visible="true" lat="42.77508" lon="-72.61318744">
    <tag k="addr:city" v="Guilford"/>
    <tag k="addr:housenumber" v="315"/>
    <tag k="addr:street" v="Locust Hill Road"/>
    <tag k="addr:state" v="VT"/>
    <tag k="ref:vcgi:esiteid" v="447224"/>
  </node>
  <node id="-1250" visible="true" lat="42.77585164" lon="-72.61082862">
    <tag k="addr:city" v="Guilford"/>
    <tag k="addr:housenumber" v="262"/>
    <tag k="addr:street" v="Locust Hill Road"/>
    <tag k="addr:state" v="VT"/>
    <tag k="ref:vcgi:esiteid" v="447225"/>
  </node>
  <node id="-1620" visible="true" lat="42.7355822" lon="-72.68396391">
    <tag k="addr:city" v="Guilford"/>
    <tag k="addr:housenumber" v="158"/>
    <tag k="addr:street" v="Corner Road"/>
    <tag k="addr:state" v="VT"/>
    <tag k="ref:vcgi:esiteid" v="447634"/>
  </node>
  <node id="-1621" visible="true" lat="42.73959" lon="-72.6748202">
    <tag k="addr:city" v="Guilford"/>
    <tag k="addr:housenumber" v="2812"/>
    <tag k="addr:street" v="River Road"/>
    <tag k="addr:state" v="VT"/>
    <tag k="ref:vcgi:esiteid" v="447635"/>
  </node>
  <node id="-1752" visible="true" lat="42.81686548" lon="-72.57611587">
    <tag k="addr:city" v="Guilford"/>
    <tag k="addr:housenumber" v="71"/>
    <tag k="addr:street" v="Guilford Center Road"/>
    <tag k="addr:state" v="VT"/>
    <tag k="ref:vcgi:esiteid" v="450776"/>
  </node>
  <node id="-1767" visible="true" lat="42.77274505" lon="-72.67288509">
    <tag k="addr:city" v="Guilford"/>
    <tag k="addr:housenumber" v="2799"/>
    <tag k="addr:street" v="Stage Road"/>
    <tag k="addr:state" v="VT"/>
    <tag k="ref:vcgi:esiteid" v="454475"/>
  </node>
  <node id="-1769" visible="true" lat="42.74735001" lon="-72.65696582">
    <tag k="addr:city" v="Guilford"/>
    <tag k="addr:housenumber" v="237"/>
    <tag k="addr:street" v="Johnson Pasture Drive"/>
    <tag k="addr:state" v="VT"/>
    <tag k="ref:vcgi:esiteid" v="454644"/>
  </node>
  <node id="-1770" visible="true" lat="42.82415732" lon="-72.56954224">
    <tag k="addr:city" v="Guilford"/>
    <tag k="addr:housenumber" v="380"/>
    <tag k="addr:street" v="John Seitz Drive"/>
    <tag k="addr:state" v="VT"/>
    <tag k="ref:vcgi:esiteid" v="455023"/>
  </node>
  <node id="-1783" visible="true" lat="42.77058612" lon="-72.62700352">
    <tag k="addr:city" v="Guilford"/>
    <tag k="addr:housenumber" v="549"/>
    <tag k="addr:street" v="Borkowski Road"/>
    <tag k="addr:state" v="VT"/>
    <tag k="ref:vcgi:esiteid" v="611861"/>
  </node>
  <node id="-1798" visible="true" lat="42.80263841" lon="-72.59679435">
    <tag k="addr:city" v="Guilford"/>
    <tag k="addr:housenumber" v="1364"/>
    <tag k="addr:street" v="Guilford Center Road"/>
    <tag k="addr:state" v="VT"/>
    <tag k="ref:vcgi:esiteid" v="750207"/>
  </node>
  <node id="-1799" visible="true" lat="42.8045021" lon="-72.59162953">
    <tag k="addr:city" v="Guilford"/>
    <tag k="addr:housenumber" v="1307"/>
    <tag k="addr:street" v="Guilford Center Road"/>
    <tag k="addr:state" v="VT"/>
    <tag k="ref:vcgi:esiteid" v="750905"/>
  </node>
  <node id="-1816" visible="true" lat="42.81407511" lon="-72.58733743">
    <tag k="addr:city" v="Guilford"/>
    <tag k="addr:housenumber" v="660"/>
    <tag k="addr:street" v="Guilford Center Road"/>
    <tag k="addr:state" v="VT"/>
    <tag k="ref:vcgi:esiteid" v="753640"/>
  </node>
  <node id="-1828" visible="true" lat="42.74387101" lon="-72.67273452">
    <tag k="addr:city" v="Guilford"/>
    <tag k="addr:housenumber" v="60"/>
    <tag k="addr:street" v="Randall Drive"/>
    <tag k="addr:state" v="VT"/>
    <tag k="ref:vcgi:esiteid" v="758153"/>
  </node>
  <node id="-1880" visible="true" lat="42.76633664" lon="-72.66356509">
    <tag k="addr:city" v="Guilford"/>
    <tag k="addr:housenumber" v="734"/>
    <tag k="addr:street" v="River Road"/>
    <tag k="addr:state" v="VT"/>
    <tag k="ref:vcgi:esiteid" v="1050166"/>
  </node>
</osm>
