<?xml version="1.0" encoding="UTF-8"?>
<osm version="0.6" generator="JOSM">
  <node id="-112" visible="true" lat="44.57187271" lon="-71.59504699">
    <tag k="addr:city" v="Guildhall"/>
    <tag k="addr:housenumber" v="603"/>
    <tag k="addr:street" v="North Road"/>
    <tag k="addr:state" v="VT"/>
    <tag k="ref:vcgi:esiteid" v="116616"/>
  </node>
  <node id="-118" visible="true" lat="44.56833267" lon="-71.56310272">
    <tag k="addr:city" v="Guildhall"/>
    <tag k="addr:housenumber" v="7427"/>
    <tag k="addr:street" v="Vermont Route 102"/>
    <tag k="addr:state" v="VT"/>
    <tag k="ref:vcgi:esiteid" v="116622"/>
  </node>
  <node id="-119" visible="true" lat="44.56811523" lon="-71.60418701">
    <tag k="addr:city" v="Guildhall"/>
    <tag k="addr:housenumber" v="429"/>
    <tag k="addr:street" v="Breault Road"/>
    <tag k="addr:state" v="VT"/>
    <tag k="ref:vcgi:esiteid" v="116623"/>
  </node>
  <node id="-123" visible="true" lat="44.5668513" lon="-71.56067123">
    <tag k="addr:city" v="Guildhall"/>
    <tag k="addr:housenumber" v="7333"/>
    <tag k="addr:street" v="Vermont Route 102"/>
    <tag k="addr:state" v="VT"/>
    <tag k="ref:vcgi:esiteid" v="116627"/>
  </node>
  <node id="-145" visible="true" lat="44.56599044" lon="-71.6026535">
    <tag k="addr:city" v="Guildhall"/>
    <tag k="addr:housenumber" v="335"/>
    <tag k="addr:street" v="Breault Road"/>
    <tag k="addr:state" v="VT"/>
    <tag k="ref:vcgi:esiteid" v="116657"/>
  </node>
  <node id="-148" visible="true" lat="44.56571837" lon="-71.56903461">
    <tag k="addr:city" v="Guildhall"/>
    <tag k="addr:housenumber" v="6777"/>
    <tag k="addr:street" v="Vermont Route 102"/>
    <tag k="addr:state" v="VT"/>
    <tag k="ref:vcgi:esiteid" v="116661"/>
  </node>
  <node id="-151" visible="true" lat="44.56548603" lon="-71.56166014">
    <tag k="addr:city" v="Guildhall"/>
    <tag k="addr:housenumber" v="61"/>
    <tag k="addr:street" v="Courthouse Drive"/>
    <tag k="addr:state" v="VT"/>
    <tag k="ref:vcgi:esiteid" v="116665"/>
  </node>
  <node id="-152" visible="true" lat="44.56565711" lon="-71.56811425">
    <tag k="addr:city" v="Guildhall"/>
    <tag k="addr:housenumber" v="6829"/>
    <tag k="addr:street" v="Vermont Route 102"/>
    <tag k="addr:state" v="VT"/>
    <tag k="ref:vcgi:esiteid" v="116666"/>
  </node>
  <node id="-163" visible="true" lat="44.56494925" lon="-71.559983">
    <tag k="addr:city" v="Guildhall"/>
    <tag k="addr:housenumber" v="7218"/>
    <tag k="addr:street" v="Vermont Route 102"/>
    <tag k="addr:state" v="VT"/>
    <tag k="ref:vcgi:esiteid" v="116678"/>
  </node>
  <node id="-191" visible="true" lat="44.54455947" lon="-71.58768463">
    <tag k="addr:city" v="Guildhall"/>
    <tag k="addr:housenumber" v="3807"/>
    <tag k="addr:street" v="Vermont Route 102"/>
    <tag k="addr:state" v="VT"/>
    <tag k="ref:vcgi:esiteid" v="116709"/>
  </node>
  <node id="-245" visible="true" lat="44.57090157" lon="-71.55754385">
    <tag k="addr:city" v="Guildhall"/>
    <tag k="addr:housenumber" v="7680"/>
    <tag k="addr:street" v="Vermont Route 102"/>
    <tag k="addr:state" v="VT"/>
    <tag k="ref:vcgi:esiteid" v="116763"/>
  </node>
  <node id="-248" visible="true" lat="44.56646356" lon="-71.56440532">
    <tag k="addr:city" v="Guildhall"/>
    <tag k="addr:housenumber" v="83"/>
    <tag k="addr:street" v="School Road"/>
    <tag k="addr:state" v="VT"/>
    <tag k="ref:vcgi:esiteid" v="116766"/>
  </node>
  <node id="-255" visible="true" lat="44.55408412" lon="-71.6000972">
    <tag k="addr:city" v="Guildhall"/>
    <tag k="addr:housenumber" v="4767"/>
    <tag k="addr:street" v="Vermont Route 102"/>
    <tag k="addr:state" v="VT"/>
    <tag k="ref:vcgi:esiteid" v="116773"/>
  </node>
  <node id="-258" visible="true" lat="44.57243799" lon="-71.65794577">
    <tag k="addr:city" v="Guildhall"/>
    <tag k="addr:housenumber" v="3241"/>
    <tag k="addr:street" v="Granby Road"/>
    <tag k="addr:state" v="VT"/>
    <tag k="ref:vcgi:esiteid" v="116776"/>
  </node>
  <node id="-265" visible="true" lat="44.50678903" lon="-71.59489991">
    <tag k="addr:city" v="Guildhall"/>
    <tag k="addr:housenumber" v="735"/>
    <tag k="addr:street" v="Vermont Route 102"/>
    <tag k="addr:state" v="VT"/>
    <tag k="ref:vcgi:esiteid" v="116784"/>
  </node>
  <node id="-279" visible="true" lat="44.55110286" lon="-71.64209026">
    <tag k="addr:city" v="Guildhall"/>
    <tag k="addr:housenumber" v="3891"/>
    <tag k="addr:street" v="Fellows Road"/>
    <tag k="addr:state" v="VT"/>
    <tag k="ref:vcgi:esiteid" v="343921"/>
  </node>
  <node id="-284" visible="true" lat="44.54725312" lon="-71.59770829">
    <tag k="addr:city" v="Guildhall"/>
    <tag k="addr:housenumber" v="4581"/>
    <tag k="addr:street" v="Vermont Route 102"/>
    <tag k="addr:state" v="VT"/>
    <tag k="ref:vcgi:esiteid" v="343926"/>
  </node>
  <node id="-289" visible="true" lat="44.51179733" lon="-71.6000222">
    <tag k="addr:city" v="Guildhall"/>
    <tag k="addr:housenumber" v="291"/>
    <tag k="addr:street" v="Fellows Road"/>
    <tag k="addr:state" v="VT"/>
    <tag k="ref:vcgi:esiteid" v="455500"/>
  </node>
  <node id="-294" visible="true" lat="44.51198933" lon="-71.65238382">
    <tag k="addr:city" v="Guildhall"/>
    <tag k="addr:housenumber" v="167"/>
    <tag k="addr:street" v="Lamotte Road"/>
    <tag k="addr:state" v="VT"/>
    <tag k="ref:vcgi:esiteid" v="617544"/>
  </node>
  <node id="-297" visible="true" lat="44.49947049" lon="-71.61621552">
    <tag k="addr:city" v="Guildhall"/>
    <tag k="addr:housenumber" v="1300"/>
    <tag k="addr:street" v="Morin Road"/>
    <tag k="addr:state" v="VT"/>
    <tag k="ref:vcgi:esiteid" v="750479"/>
  </node>
  <node id="-303" visible="true" lat="44.56787584" lon="-71.58860974">
    <tag k="addr:city" v="Guildhall"/>
    <tag k="addr:housenumber" v="110"/>
    <tag k="addr:street" v="North Road"/>
    <tag k="addr:state" v="VT"/>
    <tag k="ref:vcgi:esiteid" v="753076"/>
  </node>
  <node id="-305" visible="true" lat="44.51984062" lon="-71.65361988">
    <tag k="addr:city" v="Guildhall"/>
    <tag k="addr:housenumber" v="1138"/>
    <tag k="addr:street" v="Lamotte Road"/>
    <tag k="addr:state" v="VT"/>
    <tag k="ref:vcgi:esiteid" v="756533"/>
  </node>
  <node id="-306" visible="true" lat="44.56438337" lon="-71.55998022">
    <tag k="addr:city" v="Guildhall"/>
    <tag k="addr:housenumber" v="46"/>
    <tag k="addr:street" v="Bridge Street"/>
    <tag k="addr:state" v="VT"/>
    <tag k="ref:vcgi:esiteid" v="757124"/>
  </node>
  <node id="-311" visible="true" lat="44.55929939" lon="-71.65688134">
    <tag k="addr:city" v="Guildhall"/>
    <tag k="addr:housenumber" v="4241"/>
    <tag k="addr:street" v="Fellows Road"/>
    <tag k="addr:state" v="VT"/>
    <tag k="ref:vcgi:esiteid" v="761492"/>
  </node>
  <node id="-312" visible="true" lat="44.51763793" lon="-71.61397118">
    <tag k="addr:city" v="Guildhall"/>
    <tag k="addr:housenumber" v="1159"/>
    <tag k="addr:street" v="Fellows Road"/>
    <tag k="addr:state" v="VT"/>
    <tag k="ref:vcgi:esiteid" v="764891"/>
  </node>
  <node id="-313" visible="true" lat="44.54984473" lon="-71.60711828">
    <tag k="addr:city" v="Guildhall"/>
    <tag k="addr:housenumber" v="275"/>
    <tag k="addr:street" v="Maplewood Farm Road"/>
    <tag k="addr:state" v="VT"/>
    <tag k="ref:vcgi:esiteid" v="764892"/>
  </node>
  <node id="-314" visible="true" lat="44.54417125" lon="-71.620903">
    <tag k="addr:city" v="Guildhall"/>
    <tag k="addr:housenumber" v="280"/>
    <tag k="addr:street" v="Maplewood Farm Road"/>
    <tag k="addr:state" v="VT"/>
    <tag k="ref:vcgi:esiteid" v="764893"/>
  </node>
  <node id="-315" visible="true" lat="44.50408136" lon="-71.59467241">
    <tag k="addr:city" v="Guildhall"/>
    <tag k="addr:housenumber" v="593"/>
    <tag k="addr:street" v="Vermont Route 102"/>
    <tag k="addr:state" v="VT"/>
    <tag k="ref:vcgi:esiteid" v="764894"/>
  </node>
  <node id="-316" visible="true" lat="44.53302262" lon="-71.62563255">
    <tag k="addr:city" v="Guildhall"/>
    <tag k="addr:housenumber" v="2235"/>
    <tag k="addr:street" v="Fellows Road"/>
    <tag k="addr:state" v="VT"/>
    <tag k="ref:vcgi:esiteid" v="765390"/>
  </node>
  <node id="-317" visible="true" lat="44.51805227" lon="-71.61133014">
    <tag k="addr:city" v="Guildhall"/>
    <tag k="addr:housenumber" v="1011"/>
    <tag k="addr:street" v="Fellows Road"/>
    <tag k="addr:state" v="VT"/>
    <tag k="ref:vcgi:esiteid" v="765391"/>
  </node>
  <node id="-318" visible="true" lat="44.55345108" lon="-71.6510507">
    <tag k="addr:city" v="Guildhall"/>
    <tag k="addr:housenumber" v="215"/>
    <tag k="addr:street" v="North Lamotte Road"/>
    <tag k="addr:state" v="VT"/>
    <tag k="ref:vcgi:esiteid" v="765392"/>
  </node>
  <node id="-322" visible="true" lat="44.55846037" lon="-71.60063">
    <tag k="addr:city" v="Guildhall"/>
    <tag k="addr:housenumber" v="4955"/>
    <tag k="addr:street" v="Vermont Route 102"/>
    <tag k="addr:state" v="VT"/>
    <tag k="ref:vcgi:esiteid" v="1050767"/>
  </node>
  <node id="-323" visible="true" lat="44.49517" lon="-71.59617">
    <tag k="addr:city" v="Guildhall"/>
    <tag k="addr:housenumber" v="1004"/>
    <tag k="addr:street" v="U.S. Route 2"/>
    <tag k="addr:state" v="VT"/>
    <tag k="ref:vcgi:esiteid" v="1050768"/>
  </node>
</osm>
