<?xml version="1.0" encoding="UTF-8"?>
<osm version="0.6" generator="JOSM" upload="false">
  <node id="-153" visible="true" lat="42.82578421" lon="-72.68761677">
    <tag k="addr:housenumber" v="793"/>
    <tag k="addr:street" v="Hale Road"/>
    <tag k="addr:state" v="VT"/>
    <tag k="ref:vcgi:esiteid" v="117839"/>
  </node>
  <node id="-154" visible="true" lat="42.82593562" lon="-72.70987476">
    <tag k="addr:housenumber" v="1028"/>
    <tag k="addr:street" v="Lucier Road"/>
    <tag k="addr:state" v="VT"/>
    <tag k="ref:vcgi:esiteid" v="117840"/>
  </node>
  <node id="-157" visible="true" lat="42.82480956" lon="-72.70782515">
    <tag k="addr:housenumber" v="1601"/>
    <tag k="addr:street" v="Thomas Hill Road"/>
    <tag k="addr:state" v="VT"/>
    <tag k="ref:vcgi:esiteid" v="117844"/>
  </node>
  <node id="-161" visible="true" lat="42.82402586" lon="-72.71390907">
    <tag k="addr:housenumber" v="829"/>
    <tag k="addr:street" v="Lucier Road"/>
    <tag k="addr:state" v="VT"/>
    <tag k="ref:vcgi:esiteid" v="117848"/>
  </node>
  <node id="-163" visible="true" lat="42.82397444" lon="-72.68707604">
    <tag k="addr:housenumber" v="651"/>
    <tag k="addr:street" v="Hale Road"/>
    <tag k="addr:state" v="VT"/>
    <tag k="ref:vcgi:esiteid" v="117850"/>
  </node>
  <node id="-164" visible="true" lat="42.82413538" lon="-72.70379995">
    <tag k="addr:housenumber" v="1342"/>
    <tag k="addr:street" v="Thomas Hill Road"/>
    <tag k="addr:state" v="VT"/>
    <tag k="ref:vcgi:esiteid" v="117851"/>
  </node>
  <node id="-169" visible="true" lat="42.82250536" lon="-72.77083287">
    <tag k="addr:housenumber" v="570"/>
    <tag k="addr:street" v="Hatch School Road"/>
    <tag k="addr:state" v="VT"/>
    <tag k="ref:vcgi:esiteid" v="117856"/>
  </node>
  <node id="-171" visible="true" lat="42.82222923" lon="-72.76839146">
    <tag k="addr:housenumber" v="456"/>
    <tag k="addr:street" v="Hatch School Road"/>
    <tag k="addr:state" v="VT"/>
    <tag k="ref:vcgi:esiteid" v="117858"/>
  </node>
  <node id="-173" visible="true" lat="42.82208532" lon="-72.70420032">
    <tag k="addr:housenumber" v="1233"/>
    <tag k="addr:street" v="Thomas Hill Road"/>
    <tag k="addr:state" v="VT"/>
    <tag k="ref:vcgi:esiteid" v="117860"/>
  </node>
  <node id="-174" visible="true" lat="42.82143957" lon="-72.78232192">
    <tag k="addr:housenumber" v="60"/>
    <tag k="addr:street" v="Wheeler Road"/>
    <tag k="addr:state" v="VT"/>
    <tag k="ref:vcgi:esiteid" v="117861"/>
  </node>
  <node id="-176" visible="true" lat="42.82172168" lon="-72.73394178">
    <tag k="addr:housenumber" v="449"/>
    <tag k="addr:street" v="Thurber Road"/>
    <tag k="addr:state" v="VT"/>
    <tag k="ref:vcgi:esiteid" v="117863"/>
  </node>
  <node id="-177" visible="true" lat="42.82161002" lon="-72.78318153">
    <tag k="addr:housenumber" v="88"/>
    <tag k="addr:street" v="Wheeler Road"/>
    <tag k="addr:state" v="VT"/>
    <tag k="ref:vcgi:esiteid" v="117864"/>
  </node>
  <node id="-179" visible="true" lat="42.82152577" lon="-72.783474">
    <tag k="addr:housenumber" v="102"/>
    <tag k="addr:street" v="Wheeler Road"/>
    <tag k="addr:state" v="VT"/>
    <tag k="ref:vcgi:esiteid" v="117866"/>
  </node>
  <node id="-180" visible="true" lat="42.82151195" lon="-72.68374527">
    <tag k="addr:housenumber" v="468"/>
    <tag k="addr:street" v="Hale Road"/>
    <tag k="addr:state" v="VT"/>
    <tag k="ref:vcgi:esiteid" v="117867"/>
  </node>
  <node id="-181" visible="true" lat="42.82134426" lon="-72.76527775">
    <tag k="addr:housenumber" v="273"/>
    <tag k="addr:street" v="Hatch School Road"/>
    <tag k="addr:state" v="VT"/>
    <tag k="ref:vcgi:esiteid" v="117868"/>
  </node>
  <node id="-183" visible="true" lat="42.82103433" lon="-72.78239601">
    <tag k="addr:housenumber" v="53"/>
    <tag k="addr:street" v="Wheeler Road"/>
    <tag k="addr:state" v="VT"/>
    <tag k="ref:vcgi:esiteid" v="117870"/>
  </node>
  <node id="-184" visible="true" lat="42.82096473" lon="-72.78161193">
    <tag k="addr:housenumber" v="15"/>
    <tag k="addr:street" v="Wheeler Road"/>
    <tag k="addr:state" v="VT"/>
    <tag k="ref:vcgi:esiteid" v="117871"/>
  </node>
  <node id="-188" visible="true" lat="42.82107543" lon="-72.69331984">
    <tag k="addr:housenumber" v="526"/>
    <tag k="addr:street" v="Thomas Hill Road"/>
    <tag k="addr:state" v="VT"/>
    <tag k="ref:vcgi:esiteid" v="117875"/>
  </node>
  <node id="-190" visible="true" lat="42.82082375" lon="-72.71659657">
    <tag k="addr:housenumber" v="528"/>
    <tag k="addr:street" v="Lucier Road"/>
    <tag k="addr:state" v="VT"/>
    <tag k="ref:vcgi:esiteid" v="117877"/>
  </node>
  <node id="-193" visible="true" lat="42.82024793" lon="-72.68723671">
    <tag k="addr:housenumber" v="150"/>
    <tag k="addr:street" v="Thomas Hill Road"/>
    <tag k="addr:state" v="VT"/>
    <tag k="ref:vcgi:esiteid" v="117880"/>
  </node>
  <node id="-195" visible="true" lat="42.81975091" lon="-72.69425251">
    <tag k="addr:housenumber" v="587"/>
    <tag k="addr:street" v="Thomas Hill Road"/>
    <tag k="addr:state" v="VT"/>
    <tag k="ref:vcgi:esiteid" v="117882"/>
  </node>
  <node id="-196" visible="true" lat="42.82006611" lon="-72.69699273">
    <tag k="addr:housenumber" v="724"/>
    <tag k="addr:street" v="Thomas Hill Road"/>
    <tag k="addr:state" v="VT"/>
    <tag k="ref:vcgi:esiteid" v="117883"/>
  </node>
  <node id="-197" visible="true" lat="42.8198874" lon="-72.68735274">
    <tag k="addr:housenumber" v="145"/>
    <tag k="addr:street" v="Thomas Hill Road"/>
    <tag k="addr:state" v="VT"/>
    <tag k="ref:vcgi:esiteid" v="117884"/>
  </node>
  <node id="-198" visible="true" lat="42.82018549" lon="-72.69781214">
    <tag k="addr:housenumber" v="758"/>
    <tag k="addr:street" v="Thomas Hill Road"/>
    <tag k="addr:state" v="VT"/>
    <tag k="ref:vcgi:esiteid" v="117885"/>
  </node>
  <node id="-199" visible="true" lat="42.81954353" lon="-72.78162829">
    <tag k="addr:housenumber" v="1581"/>
    <tag k="addr:street" v="Hanson Road"/>
    <tag k="addr:state" v="VT"/>
    <tag k="ref:vcgi:esiteid" v="117886"/>
  </node>
  <node id="-200" visible="true" lat="42.8195058" lon="-72.70145363">
    <tag k="addr:housenumber" v="960"/>
    <tag k="addr:street" v="Thomas Hill Road"/>
    <tag k="addr:state" v="VT"/>
    <tag k="ref:vcgi:esiteid" v="117887"/>
  </node>
  <node id="-201" visible="true" lat="42.81976721" lon="-72.6883263">
    <tag k="addr:housenumber" v="203"/>
    <tag k="addr:street" v="Thomas Hill Road"/>
    <tag k="addr:state" v="VT"/>
    <tag k="ref:vcgi:esiteid" v="117888"/>
  </node>
  <node id="-202" visible="true" lat="42.81906948" lon="-72.75996117">
    <tag k="addr:housenumber" v="33"/>
    <tag k="addr:street" v="Green River Road"/>
    <tag k="addr:state" v="VT"/>
    <tag k="ref:vcgi:esiteid" v="117889"/>
  </node>
  <node id="-203" visible="true" lat="42.81902643" lon="-72.70282871">
    <tag k="addr:housenumber" v="1013"/>
    <tag k="addr:street" v="Thomas Hill Road"/>
    <tag k="addr:state" v="VT"/>
    <tag k="ref:vcgi:esiteid" v="117890"/>
  </node>
  <node id="-206" visible="true" lat="42.81812286" lon="-72.76210021">
    <tag k="addr:housenumber" v="2370"/>
    <tag k="addr:street" v="Brook Road"/>
    <tag k="addr:state" v="VT"/>
    <tag k="ref:vcgi:esiteid" v="117893"/>
  </node>
  <node id="-207" visible="true" lat="42.81774362" lon="-72.78093164">
    <tag k="addr:housenumber" v="1463"/>
    <tag k="addr:street" v="Hanson Road"/>
    <tag k="addr:state" v="VT"/>
    <tag k="ref:vcgi:esiteid" v="117894"/>
  </node>
  <node id="-208" visible="true" lat="42.81756997" lon="-72.74268305">
    <tag k="addr:housenumber" v="23"/>
    <tag k="addr:street" v="Sodom Road"/>
    <tag k="addr:state" v="VT"/>
    <tag k="ref:vcgi:esiteid" v="117895"/>
  </node>
  <node id="-210" visible="true" lat="42.81737115" lon="-72.75680921">
    <tag k="addr:housenumber" v="214"/>
    <tag k="addr:street" v="Green River Road"/>
    <tag k="addr:state" v="VT"/>
    <tag k="ref:vcgi:esiteid" v="117897"/>
  </node>
  <node id="-212" visible="true" lat="42.81706038" lon="-72.74352691">
    <tag k="addr:housenumber" v="63"/>
    <tag k="addr:street" v="Sodom Road"/>
    <tag k="addr:state" v="VT"/>
    <tag k="ref:vcgi:esiteid" v="117899"/>
  </node>
  <node id="-214" visible="true" lat="42.81584092" lon="-72.75372261">
    <tag k="addr:housenumber" v="348"/>
    <tag k="addr:street" v="Green River Road"/>
    <tag k="addr:state" v="VT"/>
    <tag k="ref:vcgi:esiteid" v="117901"/>
  </node>
  <node id="-215" visible="true" lat="42.81525228" lon="-72.75253531">
    <tag k="addr:housenumber" v="482"/>
    <tag k="addr:street" v="Green River Road"/>
    <tag k="addr:state" v="VT"/>
    <tag k="ref:vcgi:esiteid" v="117902"/>
  </node>
  <node id="-216" visible="true" lat="42.8161533" lon="-72.73052496">
    <tag k="addr:housenumber" v="772"/>
    <tag k="addr:street" v="Thurber Road"/>
    <tag k="addr:state" v="VT"/>
    <tag k="ref:vcgi:esiteid" v="117903"/>
  </node>
  <node id="-217" visible="true" lat="42.81642962" lon="-72.74201448">
    <tag k="addr:housenumber" v="40"/>
    <tag k="addr:street" v="Moss Hollow Road"/>
    <tag k="addr:state" v="VT"/>
    <tag k="ref:vcgi:esiteid" v="117904"/>
  </node>
  <node id="-218" visible="true" lat="42.81637092" lon="-72.78012416">
    <tag k="addr:housenumber" v="1357"/>
    <tag k="addr:street" v="Hanson Road"/>
    <tag k="addr:state" v="VT"/>
    <tag k="ref:vcgi:esiteid" v="117905"/>
  </node>
  <node id="-219" visible="true" lat="42.8163248" lon="-72.74299758">
    <tag k="addr:housenumber" v="1021"/>
    <tag k="addr:street" v="Green River Road"/>
    <tag k="addr:state" v="VT"/>
    <tag k="ref:vcgi:esiteid" v="117906"/>
  </node>
  <node id="-220" visible="true" lat="42.81642107" lon="-72.68459288">
    <tag k="addr:housenumber" v="133"/>
    <tag k="addr:street" v="Hale Road"/>
    <tag k="addr:state" v="VT"/>
    <tag k="ref:vcgi:esiteid" v="117907"/>
  </node>
  <node id="-221" visible="true" lat="42.81558023" lon="-72.74186038">
    <tag k="addr:housenumber" v="1070"/>
    <tag k="addr:street" v="Green River Road"/>
    <tag k="addr:state" v="VT"/>
    <tag k="ref:vcgi:esiteid" v="117908"/>
  </node>
  <node id="-223" visible="true" lat="42.8154983" lon="-72.7782728">
    <tag k="addr:housenumber" v="1264"/>
    <tag k="addr:street" v="Hanson Road"/>
    <tag k="addr:state" v="VT"/>
    <tag k="ref:vcgi:esiteid" v="117910"/>
  </node>
  <node id="-224" visible="true" lat="42.81548986" lon="-72.74261164">
    <tag k="addr:housenumber" v="1042"/>
    <tag k="addr:street" v="Green River Road"/>
    <tag k="addr:state" v="VT"/>
    <tag k="ref:vcgi:esiteid" v="117911"/>
  </node>
  <node id="-226" visible="true" lat="42.81513378" lon="-72.68340822">
    <tag k="addr:housenumber" v="137"/>
    <tag k="addr:street" v="Hale Road"/>
    <tag k="addr:state" v="VT"/>
    <tag k="ref:vcgi:esiteid" v="117913"/>
  </node>
  <node id="-227" visible="true" lat="42.81473755" lon="-72.77897395">
    <tag k="addr:housenumber" v="1215"/>
    <tag k="addr:street" v="Hanson Road"/>
    <tag k="addr:state" v="VT"/>
    <tag k="ref:vcgi:esiteid" v="117914"/>
  </node>
  <node id="-232" visible="true" lat="42.81326334" lon="-72.77921611">
    <tag k="addr:housenumber" v="1115"/>
    <tag k="addr:street" v="Hanson Road"/>
    <tag k="addr:state" v="VT"/>
    <tag k="ref:vcgi:esiteid" v="117919"/>
  </node>
  <node id="-234" visible="true" lat="42.81212338" lon="-72.77886052">
    <tag k="addr:housenumber" v="1039"/>
    <tag k="addr:street" v="Hanson Road"/>
    <tag k="addr:state" v="VT"/>
    <tag k="ref:vcgi:esiteid" v="117921"/>
  </node>
  <node id="-235" visible="true" lat="42.8114912" lon="-72.77825421">
    <tag k="addr:housenumber" v="993"/>
    <tag k="addr:street" v="Hanson Road"/>
    <tag k="addr:state" v="VT"/>
    <tag k="ref:vcgi:esiteid" v="117922"/>
  </node>
  <node id="-237" visible="true" lat="42.81039481" lon="-72.77824181">
    <tag k="addr:housenumber" v="921"/>
    <tag k="addr:street" v="Hanson Road"/>
    <tag k="addr:state" v="VT"/>
    <tag k="ref:vcgi:esiteid" v="117924"/>
  </node>
  <node id="-241" visible="true" lat="42.81003564" lon="-72.71879252">
    <tag k="addr:housenumber" v="48"/>
    <tag k="addr:street" v="Perry Road"/>
    <tag k="addr:state" v="VT"/>
    <tag k="ref:vcgi:esiteid" v="117928"/>
  </node>
  <node id="-242" visible="true" lat="42.80977791" lon="-72.71804525">
    <tag k="addr:housenumber" v="2496"/>
    <tag k="addr:street" v="Green River Road"/>
    <tag k="addr:state" v="VT"/>
    <tag k="ref:vcgi:esiteid" v="117929"/>
  </node>
  <node id="-243" visible="true" lat="42.80949351" lon="-72.77832088">
    <tag k="addr:housenumber" v="841"/>
    <tag k="addr:street" v="Hanson Road"/>
    <tag k="addr:state" v="VT"/>
    <tag k="ref:vcgi:esiteid" v="117930"/>
  </node>
  <node id="-245" visible="true" lat="42.80934963" lon="-72.77838148">
    <tag k="addr:housenumber" v="837"/>
    <tag k="addr:street" v="Hanson Road"/>
    <tag k="addr:state" v="VT"/>
    <tag k="ref:vcgi:esiteid" v="117932"/>
  </node>
  <node id="-246" visible="true" lat="42.80921883" lon="-72.77839345">
    <tag k="addr:housenumber" v="819"/>
    <tag k="addr:street" v="Hanson Road"/>
    <tag k="addr:state" v="VT"/>
    <tag k="ref:vcgi:esiteid" v="117933"/>
  </node>
  <node id="-249" visible="true" lat="42.80815709" lon="-72.77829079">
    <tag k="addr:housenumber" v="759"/>
    <tag k="addr:street" v="Hanson Road"/>
    <tag k="addr:state" v="VT"/>
    <tag k="ref:vcgi:esiteid" v="117936"/>
  </node>
  <node id="-260" visible="true" lat="42.80554942" lon="-72.72134486">
    <tag k="addr:housenumber" v="297"/>
    <tag k="addr:street" v="Perry Road"/>
    <tag k="addr:state" v="VT"/>
    <tag k="ref:vcgi:esiteid" v="117947"/>
  </node>
  <node id="-262" visible="true" lat="42.80507361" lon="-72.73825018">
    <tag k="addr:housenumber" v="2418"/>
    <tag k="addr:street" v="Old County Road"/>
    <tag k="addr:state" v="VT"/>
    <tag k="ref:vcgi:esiteid" v="117949"/>
  </node>
  <node id="-266" visible="true" lat="42.8046551" lon="-72.7780102">
    <tag k="addr:housenumber" v="521"/>
    <tag k="addr:street" v="Hanson Road"/>
    <tag k="addr:state" v="VT"/>
    <tag k="ref:vcgi:esiteid" v="117953"/>
  </node>
  <node id="-277" visible="true" lat="42.80358912" lon="-72.7399045">
    <tag k="addr:housenumber" v="2385"/>
    <tag k="addr:street" v="Old County Road"/>
    <tag k="addr:state" v="VT"/>
    <tag k="ref:vcgi:esiteid" v="117964"/>
  </node>
  <node id="-286" visible="true" lat="42.80261083" lon="-72.73881862">
    <tag k="addr:housenumber" v="2288"/>
    <tag k="addr:street" v="Old County Road"/>
    <tag k="addr:state" v="VT"/>
    <tag k="ref:vcgi:esiteid" v="117973"/>
  </node>
  <node id="-295" visible="true" lat="42.79996049" lon="-72.74021579">
    <tag k="addr:housenumber" v="2115"/>
    <tag k="addr:street" v="Old County Road"/>
    <tag k="addr:state" v="VT"/>
    <tag k="ref:vcgi:esiteid" v="117982"/>
  </node>
  <node id="-298" visible="true" lat="42.79879995" lon="-72.76064257">
    <tag k="addr:housenumber" v="505"/>
    <tag k="addr:street" v="Whitneyville Road"/>
    <tag k="addr:state" v="VT"/>
    <tag k="ref:vcgi:esiteid" v="117985"/>
  </node>
  <node id="-299" visible="true" lat="42.79886797" lon="-72.7597337">
    <tag k="addr:housenumber" v="555"/>
    <tag k="addr:street" v="Whitneyville Road"/>
    <tag k="addr:state" v="VT"/>
    <tag k="ref:vcgi:esiteid" v="117986"/>
  </node>
  <node id="-302" visible="true" lat="42.79838767" lon="-72.74044702">
    <tag k="addr:housenumber" v="2025"/>
    <tag k="addr:street" v="Old County Road"/>
    <tag k="addr:state" v="VT"/>
    <tag k="ref:vcgi:esiteid" v="117989"/>
  </node>
  <node id="-303" visible="true" lat="42.79820201" lon="-72.76096928">
    <tag k="addr:housenumber" v="486"/>
    <tag k="addr:street" v="Whitneyville Road"/>
    <tag k="addr:state" v="VT"/>
    <tag k="ref:vcgi:esiteid" v="117991"/>
  </node>
  <node id="-304" visible="true" lat="42.79785894" lon="-72.76169971">
    <tag k="addr:housenumber" v="434"/>
    <tag k="addr:street" v="Whitneyville Road"/>
    <tag k="addr:state" v="VT"/>
    <tag k="ref:vcgi:esiteid" v="117992"/>
  </node>
  <node id="-305" visible="true" lat="42.79779019" lon="-72.7622089">
    <tag k="addr:housenumber" v="414"/>
    <tag k="addr:street" v="Whitneyville Road"/>
    <tag k="addr:state" v="VT"/>
    <tag k="ref:vcgi:esiteid" v="117993"/>
  </node>
  <node id="-318" visible="true" lat="42.79434591" lon="-72.74271135">
    <tag k="addr:housenumber" v="1681"/>
    <tag k="addr:street" v="Old County Road"/>
    <tag k="addr:state" v="VT"/>
    <tag k="ref:vcgi:esiteid" v="118006"/>
  </node>
  <node id="-320" visible="true" lat="42.79444628" lon="-72.74176333">
    <tag k="addr:housenumber" v="1696"/>
    <tag k="addr:street" v="Old County Road"/>
    <tag k="addr:state" v="VT"/>
    <tag k="ref:vcgi:esiteid" v="118008"/>
  </node>
  <node id="-322" visible="true" lat="42.7941374" lon="-72.74142988">
    <tag k="addr:housenumber" v="1680"/>
    <tag k="addr:street" v="Old County Road"/>
    <tag k="addr:state" v="VT"/>
    <tag k="ref:vcgi:esiteid" v="118010"/>
  </node>
  <node id="-330" visible="true" lat="42.7915552" lon="-72.76741388">
    <tag k="addr:housenumber" v="340"/>
    <tag k="addr:street" v="Brook Road"/>
    <tag k="addr:state" v="VT"/>
    <tag k="ref:vcgi:esiteid" v="118018"/>
  </node>
  <node id="-331" visible="true" lat="42.79157554" lon="-72.7664135">
    <tag k="addr:housenumber" v="360"/>
    <tag k="addr:street" v="Brook Road"/>
    <tag k="addr:state" v="VT"/>
    <tag k="ref:vcgi:esiteid" v="118019"/>
  </node>
  <node id="-333" visible="true" lat="42.79086661" lon="-72.76724391">
    <tag k="addr:housenumber" v="298"/>
    <tag k="addr:street" v="Brook Road"/>
    <tag k="addr:state" v="VT"/>
    <tag k="ref:vcgi:esiteid" v="118021"/>
  </node>
  <node id="-335" visible="true" lat="42.78989821" lon="-72.76761705">
    <tag k="addr:housenumber" v="236"/>
    <tag k="addr:street" v="Brook Road"/>
    <tag k="addr:state" v="VT"/>
    <tag k="ref:vcgi:esiteid" v="118023"/>
  </node>
  <node id="-348" visible="true" lat="42.78713016" lon="-72.77026534">
    <tag k="addr:housenumber" v="45"/>
    <tag k="addr:street" v="Branch Road"/>
    <tag k="addr:state" v="VT"/>
    <tag k="ref:vcgi:esiteid" v="118036"/>
  </node>
  <node id="-351" visible="true" lat="42.78651167" lon="-72.77005837">
    <tag k="addr:housenumber" v="89"/>
    <tag k="addr:street" v="Branch Road"/>
    <tag k="addr:state" v="VT"/>
    <tag k="ref:vcgi:esiteid" v="118039"/>
  </node>
  <node id="-353" visible="true" lat="42.78631065" lon="-72.7704361">
    <tag k="addr:housenumber" v="86"/>
    <tag k="addr:street" v="Branch Road"/>
    <tag k="addr:state" v="VT"/>
    <tag k="ref:vcgi:esiteid" v="118041"/>
  </node>
  <node id="-354" visible="true" lat="42.78629134" lon="-72.76984916">
    <tag k="addr:housenumber" v="105"/>
    <tag k="addr:street" v="Branch Road"/>
    <tag k="addr:state" v="VT"/>
    <tag k="ref:vcgi:esiteid" v="118042"/>
  </node>
  <node id="-355" visible="true" lat="42.78615436" lon="-72.7702764">
    <tag k="addr:housenumber" v="98"/>
    <tag k="addr:street" v="Branch Road"/>
    <tag k="addr:state" v="VT"/>
    <tag k="ref:vcgi:esiteid" v="118044"/>
  </node>
  <node id="-357" visible="true" lat="42.78599739" lon="-72.76943533">
    <tag k="addr:housenumber" v="137"/>
    <tag k="addr:street" v="Branch Road"/>
    <tag k="addr:state" v="VT"/>
    <tag k="ref:vcgi:esiteid" v="118046"/>
  </node>
  <node id="-359" visible="true" lat="42.78556235" lon="-72.76970692">
    <tag k="addr:housenumber" v="146"/>
    <tag k="addr:street" v="Branch Road"/>
    <tag k="addr:state" v="VT"/>
    <tag k="ref:vcgi:esiteid" v="118048"/>
  </node>
  <node id="-361" visible="true" lat="42.7853283" lon="-72.76874341">
    <tag k="addr:housenumber" v="195"/>
    <tag k="addr:street" v="Branch Road"/>
    <tag k="addr:state" v="VT"/>
    <tag k="ref:vcgi:esiteid" v="118050"/>
  </node>
  <node id="-363" visible="true" lat="42.78436288" lon="-72.76769401">
    <tag k="addr:housenumber" v="10070"/>
    <tag k="addr:street" v="Jacksonville Stage Road"/>
    <tag k="addr:state" v="VT"/>
    <tag k="ref:vcgi:esiteid" v="118053"/>
  </node>
  <node id="-364" visible="true" lat="42.783657" lon="-72.76751354">
    <tag k="addr:housenumber" v="299"/>
    <tag k="addr:street" v="Branch Road"/>
    <tag k="addr:state" v="VT"/>
    <tag k="ref:vcgi:esiteid" v="118054"/>
  </node>
  <node id="-367" visible="true" lat="42.78291484" lon="-72.76873566">
    <tag k="addr:housenumber" v="364"/>
    <tag k="addr:street" v="Branch Road"/>
    <tag k="addr:state" v="VT"/>
    <tag k="ref:vcgi:esiteid" v="118057"/>
  </node>
  <node id="-368" visible="true" lat="42.78284538" lon="-72.7676619">
    <tag k="addr:housenumber" v="335"/>
    <tag k="addr:street" v="Branch Road"/>
    <tag k="addr:state" v="VT"/>
    <tag k="ref:vcgi:esiteid" v="118058"/>
  </node>
  <node id="-370" visible="true" lat="42.78244082" lon="-72.7685091">
    <tag k="addr:housenumber" v="401"/>
    <tag k="addr:street" v="Branch Road"/>
    <tag k="addr:state" v="VT"/>
    <tag k="ref:vcgi:esiteid" v="118060"/>
  </node>
  <node id="-374" visible="true" lat="42.78211671" lon="-72.77556046">
    <tag k="addr:housenumber" v="358"/>
    <tag k="addr:street" v="Sprague Road"/>
    <tag k="addr:state" v="VT"/>
    <tag k="ref:vcgi:esiteid" v="118064"/>
  </node>
  <node id="-375" visible="true" lat="42.78207459" lon="-72.77108254">
    <tag k="addr:housenumber" v="128"/>
    <tag k="addr:street" v="Sprague Road"/>
    <tag k="addr:state" v="VT"/>
    <tag k="ref:vcgi:esiteid" v="118065"/>
  </node>
  <node id="-377" visible="true" lat="42.78183398" lon="-72.7719208">
    <tag k="addr:housenumber" v="161"/>
    <tag k="addr:street" v="Sprague Road"/>
    <tag k="addr:state" v="VT"/>
    <tag k="ref:vcgi:esiteid" v="118067"/>
  </node>
  <node id="-380" visible="true" lat="42.78125359" lon="-72.75578414">
    <tag k="addr:housenumber" v="225"/>
    <tag k="addr:street" v="Tucker Road"/>
    <tag k="addr:state" v="VT"/>
    <tag k="ref:vcgi:esiteid" v="118071"/>
  </node>
  <node id="-381" visible="true" lat="42.7809188" lon="-72.77365112">
    <tag k="addr:housenumber" v="299"/>
    <tag k="addr:street" v="Sprague Road"/>
    <tag k="addr:state" v="VT"/>
    <tag k="ref:vcgi:esiteid" v="118072"/>
  </node>
  <node id="-382" visible="true" lat="42.78093975" lon="-72.76882257">
    <tag k="addr:housenumber" v="507"/>
    <tag k="addr:street" v="Branch Road"/>
    <tag k="addr:state" v="VT"/>
    <tag k="ref:vcgi:esiteid" v="118073"/>
  </node>
  <node id="-383" visible="true" lat="42.78089143" lon="-72.77548247">
    <tag k="addr:housenumber" v="357"/>
    <tag k="addr:street" v="Sprague Road"/>
    <tag k="addr:state" v="VT"/>
    <tag k="ref:vcgi:esiteid" v="118074"/>
  </node>
  <node id="-386" visible="true" lat="42.78032636" lon="-72.76357621">
    <tag k="addr:housenumber" v="9693"/>
    <tag k="addr:street" v="Jacksonville Stage Road"/>
    <tag k="addr:state" v="VT"/>
    <tag k="ref:vcgi:esiteid" v="118077"/>
  </node>
  <node id="-389" visible="true" lat="42.77967359" lon="-72.76100539">
    <tag k="addr:housenumber" v="9554"/>
    <tag k="addr:street" v="Jacksonville Stage Road"/>
    <tag k="addr:state" v="VT"/>
    <tag k="ref:vcgi:esiteid" v="118080"/>
  </node>
  <node id="-390" visible="true" lat="42.77982476" lon="-72.75663669">
    <tag k="addr:housenumber" v="74"/>
    <tag k="addr:street" v="Gregory Lane"/>
    <tag k="addr:state" v="VT"/>
    <tag k="ref:vcgi:esiteid" v="118081"/>
  </node>
  <node id="-392" visible="true" lat="42.77941071" lon="-72.75930583">
    <tag k="addr:housenumber" v="9464"/>
    <tag k="addr:street" v="Jacksonville Stage Road"/>
    <tag k="addr:state" v="VT"/>
    <tag k="ref:vcgi:esiteid" v="118083"/>
  </node>
  <node id="-393" visible="true" lat="42.77856933" lon="-72.76775699">
    <tag k="addr:housenumber" v="615"/>
    <tag k="addr:street" v="Branch Road"/>
    <tag k="addr:state" v="VT"/>
    <tag k="ref:vcgi:esiteid" v="118084"/>
  </node>
  <node id="-395" visible="true" lat="42.77849945" lon="-72.75629248">
    <tag k="addr:housenumber" v="25"/>
    <tag k="addr:street" v="Tucker Road"/>
    <tag k="addr:state" v="VT"/>
    <tag k="ref:vcgi:esiteid" v="118086"/>
  </node>
  <node id="-399" visible="true" lat="42.77796915" lon="-72.75511694">
    <tag k="addr:housenumber" v="9230"/>
    <tag k="addr:street" v="Jacksonville Stage Road"/>
    <tag k="addr:state" v="VT"/>
    <tag k="ref:vcgi:esiteid" v="118091"/>
  </node>
  <node id="-401" visible="true" lat="42.77782452" lon="-72.75003426">
    <tag k="addr:housenumber" v="8950"/>
    <tag k="addr:street" v="Jacksonville Stage Road"/>
    <tag k="addr:state" v="VT"/>
    <tag k="ref:vcgi:esiteid" v="118093"/>
  </node>
  <node id="-404" visible="true" lat="42.77684216" lon="-72.75038562">
    <tag k="addr:housenumber" v="8908"/>
    <tag k="addr:street" v="Jacksonville Stage Road"/>
    <tag k="addr:state" v="VT"/>
    <tag k="ref:vcgi:esiteid" v="118096"/>
  </node>
  <node id="-415" visible="true" lat="42.77388848" lon="-72.75884308">
    <tag k="addr:housenumber" v="316"/>
    <tag k="addr:street" v="Old Lane"/>
    <tag k="addr:state" v="VT"/>
    <tag k="ref:vcgi:esiteid" v="118107"/>
  </node>
  <node id="-416" visible="true" lat="42.77350791" lon="-72.7678564">
    <tag k="addr:housenumber" v="34"/>
    <tag k="addr:street" v="Hubbard Hill Road"/>
    <tag k="addr:state" v="VT"/>
    <tag k="ref:vcgi:esiteid" v="118108"/>
  </node>
  <node id="-419" visible="true" lat="42.77295798" lon="-72.76043962">
    <tag k="addr:housenumber" v="388"/>
    <tag k="addr:street" v="Old Lane"/>
    <tag k="addr:state" v="VT"/>
    <tag k="ref:vcgi:esiteid" v="118111"/>
  </node>
  <node id="-421" visible="true" lat="42.77257894" lon="-72.76680174">
    <tag k="addr:housenumber" v="65"/>
    <tag k="addr:street" v="Hubbard Hill Road"/>
    <tag k="addr:state" v="VT"/>
    <tag k="ref:vcgi:esiteid" v="118113"/>
  </node>
  <node id="-425" visible="true" lat="42.77129764" lon="-72.76696421">
    <tag k="addr:housenumber" v="144"/>
    <tag k="addr:street" v="Hubbard Hill Road"/>
    <tag k="addr:state" v="VT"/>
    <tag k="ref:vcgi:esiteid" v="118117"/>
  </node>
  <node id="-428" visible="true" lat="42.77094068" lon="-72.76652832">
    <tag k="addr:housenumber" v="181"/>
    <tag k="addr:street" v="Hubbard Hill Road"/>
    <tag k="addr:state" v="VT"/>
    <tag k="ref:vcgi:esiteid" v="118120"/>
  </node>
  <node id="-433" visible="true" lat="42.76990318" lon="-72.76616401">
    <tag k="addr:housenumber" v="1304"/>
    <tag k="addr:street" v="Branch Road"/>
    <tag k="addr:state" v="VT"/>
    <tag k="ref:vcgi:esiteid" v="118125"/>
  </node>
  <node id="-437" visible="true" lat="42.7694873" lon="-72.76597908">
    <tag k="addr:housenumber" v="1336"/>
    <tag k="addr:street" v="Branch Road"/>
    <tag k="addr:state" v="VT"/>
    <tag k="ref:vcgi:esiteid" v="118129"/>
  </node>
  <node id="-438" visible="true" lat="42.76929246" lon="-72.76509336">
    <tag k="addr:housenumber" v="1377"/>
    <tag k="addr:street" v="Branch Road"/>
    <tag k="addr:state" v="VT"/>
    <tag k="ref:vcgi:esiteid" v="118130"/>
  </node>
  <node id="-439" visible="true" lat="42.76914992" lon="-72.76609953">
    <tag k="addr:housenumber" v="1362"/>
    <tag k="addr:street" v="Branch Road"/>
    <tag k="addr:state" v="VT"/>
    <tag k="ref:vcgi:esiteid" v="118131"/>
  </node>
  <node id="-449" visible="true" lat="42.76788348" lon="-72.76587016">
    <tag k="addr:housenumber" v="1450"/>
    <tag k="addr:street" v="Branch Road"/>
    <tag k="addr:state" v="VT"/>
    <tag k="ref:vcgi:esiteid" v="118141"/>
  </node>
  <node id="-452" visible="true" lat="42.76752493" lon="-72.76565887">
    <tag k="addr:housenumber" v="1474"/>
    <tag k="addr:street" v="Branch Road"/>
    <tag k="addr:state" v="VT"/>
    <tag k="ref:vcgi:esiteid" v="118144"/>
  </node>
  <node id="-458" visible="true" lat="42.76663945" lon="-72.76414425">
    <tag k="addr:housenumber" v="1547"/>
    <tag k="addr:street" v="Branch Road"/>
    <tag k="addr:state" v="VT"/>
    <tag k="ref:vcgi:esiteid" v="118150"/>
  </node>
  <node id="-470" visible="true" lat="42.76534173" lon="-72.76458876">
    <tag k="addr:housenumber" v="1636"/>
    <tag k="addr:street" v="Branch Road"/>
    <tag k="addr:state" v="VT"/>
    <tag k="ref:vcgi:esiteid" v="118162"/>
  </node>
  <node id="-509" visible="true" lat="42.75957116" lon="-72.76151511">
    <tag k="addr:housenumber" v="2118"/>
    <tag k="addr:street" v="Branch Road"/>
    <tag k="addr:state" v="VT"/>
    <tag k="ref:vcgi:esiteid" v="118204"/>
  </node>
  <node id="-510" visible="true" lat="42.759348" lon="-72.76158527">
    <tag k="addr:housenumber" v="2136"/>
    <tag k="addr:street" v="Branch Road"/>
    <tag k="addr:state" v="VT"/>
    <tag k="ref:vcgi:esiteid" v="118205"/>
  </node>
  <node id="-515" visible="true" lat="42.75795568" lon="-72.76130824">
    <tag k="addr:housenumber" v="4668"/>
    <tag k="addr:street" v="Vermont Route 112"/>
    <tag k="addr:state" v="VT"/>
    <tag k="ref:vcgi:esiteid" v="118210"/>
  </node>
  <node id="-564" visible="true" lat="42.82147201" lon="-72.78163401">
    <tag k="addr:housenumber" v="1691"/>
    <tag k="addr:street" v="Hanson Road"/>
    <tag k="addr:state" v="VT"/>
    <tag k="ref:vcgi:esiteid" v="118264"/>
  </node>
  <node id="-571" visible="true" lat="42.81655599" lon="-72.72980162">
    <tag k="addr:housenumber" v="811"/>
    <tag k="addr:street" v="Thurber Road"/>
    <tag k="addr:state" v="VT"/>
    <tag k="ref:vcgi:esiteid" v="118271"/>
  </node>
  <node id="-572" visible="true" lat="42.8271491" lon="-72.73997958">
    <tag k="addr:housenumber" v="816"/>
    <tag k="addr:street" v="Moss Hollow Road"/>
    <tag k="addr:state" v="VT"/>
    <tag k="ref:vcgi:esiteid" v="118272"/>
  </node>
  <node id="-575" visible="true" lat="42.82039337" lon="-72.70311841">
    <tag k="addr:housenumber" v="1100"/>
    <tag k="addr:street" v="Thomas Hill Road"/>
    <tag k="addr:state" v="VT"/>
    <tag k="ref:vcgi:esiteid" v="118275"/>
  </node>
  <node id="-576" visible="true" lat="42.81871878" lon="-72.69818996">
    <tag k="addr:housenumber" v="797"/>
    <tag k="addr:street" v="Thomas Hill Road"/>
    <tag k="addr:state" v="VT"/>
    <tag k="ref:vcgi:esiteid" v="118276"/>
  </node>
  <node id="-582" visible="true" lat="42.79895084" lon="-72.73522346">
    <tag k="addr:housenumber" v="1297"/>
    <tag k="addr:street" v="Perry Road"/>
    <tag k="addr:state" v="VT"/>
    <tag k="ref:vcgi:esiteid" v="118283"/>
  </node>
  <node id="-583" visible="true" lat="42.79924863" lon="-72.73502086">
    <tag k="addr:housenumber" v="1235"/>
    <tag k="addr:street" v="Perry Road"/>
    <tag k="addr:state" v="VT"/>
    <tag k="ref:vcgi:esiteid" v="118284"/>
  </node>
  <node id="-584" visible="true" lat="42.79759254" lon="-72.7474491">
    <tag k="addr:housenumber" v="1231"/>
    <tag k="addr:street" v="Whitneyville Road"/>
    <tag k="addr:state" v="VT"/>
    <tag k="ref:vcgi:esiteid" v="118285"/>
  </node>
  <node id="-585" visible="true" lat="42.79468262" lon="-72.75053014">
    <tag k="addr:housenumber" v="1120"/>
    <tag k="addr:street" v="Whitneyville Road"/>
    <tag k="addr:state" v="VT"/>
    <tag k="ref:vcgi:esiteid" v="118286"/>
  </node>
  <node id="-587" visible="true" lat="42.79770608" lon="-72.76297812">
    <tag k="addr:housenumber" v="376"/>
    <tag k="addr:street" v="Whitneyville Road"/>
    <tag k="addr:state" v="VT"/>
    <tag k="ref:vcgi:esiteid" v="118288"/>
  </node>
  <node id="-597" visible="true" lat="42.78667407" lon="-72.76815278">
    <tag k="addr:housenumber" v="80"/>
    <tag k="addr:street" v="Griffin Lane"/>
    <tag k="addr:state" v="VT"/>
    <tag k="ref:vcgi:esiteid" v="118299"/>
  </node>
  <node id="-598" visible="true" lat="42.78841408" lon="-72.76789246">
    <tag k="addr:housenumber" v="125"/>
    <tag k="addr:street" v="Griffin Lane"/>
    <tag k="addr:state" v="VT"/>
    <tag k="ref:vcgi:esiteid" v="118300"/>
  </node>
  <node id="-613" visible="true" lat="42.78911694" lon="-72.76693051">
    <tag k="addr:housenumber" v="100"/>
    <tag k="addr:street" v="Plumb Lane"/>
    <tag k="addr:state" v="VT"/>
    <tag k="ref:vcgi:esiteid" v="118316"/>
  </node>
  <node id="-614" visible="true" lat="42.78192275" lon="-72.77228367">
    <tag k="addr:housenumber" v="181"/>
    <tag k="addr:street" v="Sprague Road"/>
    <tag k="addr:state" v="VT"/>
    <tag k="ref:vcgi:esiteid" v="118317"/>
  </node>
  <node id="-631" visible="true" lat="42.79822944" lon="-72.74431965">
    <tag k="addr:housenumber" v="1355"/>
    <tag k="addr:street" v="Whitneyville Road"/>
    <tag k="addr:state" v="VT"/>
    <tag k="ref:vcgi:esiteid" v="118335"/>
  </node>
  <node id="-632" visible="true" lat="42.80145897" lon="-72.73871482">
    <tag k="addr:housenumber" v="2134"/>
    <tag k="addr:street" v="Old County Road"/>
    <tag k="addr:state" v="VT"/>
    <tag k="ref:vcgi:esiteid" v="118336"/>
  </node>
  <node id="-634" visible="true" lat="42.77618449" lon="-72.7526925">
    <tag k="addr:housenumber" v="9131"/>
    <tag k="addr:street" v="Jacksonville Stage Road"/>
    <tag k="addr:state" v="VT"/>
    <tag k="ref:vcgi:esiteid" v="118338"/>
  </node>
  <node id="-638" visible="true" lat="42.78226734" lon="-72.7566742">
    <tag k="addr:housenumber" v="250"/>
    <tag k="addr:street" v="Gregory Lane"/>
    <tag k="addr:state" v="VT"/>
    <tag k="ref:vcgi:esiteid" v="118342"/>
  </node>
  <node id="-647" visible="true" lat="42.81940721" lon="-72.69621162">
    <tag k="addr:housenumber" v="675"/>
    <tag k="addr:street" v="Thomas Hill Road"/>
    <tag k="addr:state" v="VT"/>
    <tag k="ref:vcgi:esiteid" v="118351"/>
  </node>
  <node id="-648" visible="true" lat="42.81930661" lon="-72.6826517">
    <tag k="addr:housenumber" v="380"/>
    <tag k="addr:street" v="Hale Road"/>
    <tag k="addr:state" v="VT"/>
    <tag k="ref:vcgi:esiteid" v="118352"/>
  </node>
  <node id="-664" visible="true" lat="42.8229266" lon="-72.70712794">
    <tag k="addr:housenumber" v="119"/>
    <tag k="addr:street" v="Hosea Fisher Lane"/>
    <tag k="addr:state" v="VT"/>
    <tag k="ref:vcgi:esiteid" v="118368"/>
  </node>
  <node id="-670" visible="true" lat="42.78933252" lon="-72.76787741">
    <tag k="addr:housenumber" v="60"/>
    <tag k="addr:street" v="Plumb Lane"/>
    <tag k="addr:state" v="VT"/>
    <tag k="ref:vcgi:esiteid" v="118375"/>
  </node>
  <node id="-671" visible="true" lat="42.80162003" lon="-72.74017396">
    <tag k="addr:housenumber" v="2193"/>
    <tag k="addr:street" v="Old County Road"/>
    <tag k="addr:state" v="VT"/>
    <tag k="ref:vcgi:esiteid" v="118376"/>
  </node>
  <node id="-672" visible="true" lat="42.77821798" lon="-72.76882372">
    <tag k="addr:housenumber" v="35"/>
    <tag k="addr:street" v="Sumner Farm Road"/>
    <tag k="addr:state" v="VT"/>
    <tag k="ref:vcgi:esiteid" v="118378"/>
  </node>
  <node id="-684" visible="true" lat="42.8142301" lon="-72.7492866">
    <tag k="addr:housenumber" v="50"/>
    <tag k="addr:street" v="Ballou Mountain Road"/>
    <tag k="addr:state" v="VT"/>
    <tag k="ref:vcgi:esiteid" v="118391"/>
  </node>
  <node id="-685" visible="true" lat="42.81334053" lon="-72.74801468">
    <tag k="addr:housenumber" v="35"/>
    <tag k="addr:street" v="Ballou Mountain Road"/>
    <tag k="addr:state" v="VT"/>
    <tag k="ref:vcgi:esiteid" v="118392"/>
  </node>
  <node id="-687" visible="true" lat="42.8189075" lon="-72.74359716">
    <tag k="addr:housenumber" v="78"/>
    <tag k="addr:street" v="Sodom Road"/>
    <tag k="addr:state" v="VT"/>
    <tag k="ref:vcgi:esiteid" v="118394"/>
  </node>
  <node id="-689" visible="true" lat="42.82571139" lon="-72.74185448">
    <tag k="addr:housenumber" v="746"/>
    <tag k="addr:street" v="Moss Hollow Road"/>
    <tag k="addr:state" v="VT"/>
    <tag k="ref:vcgi:esiteid" v="307820"/>
  </node>
  <node id="-690" visible="true" lat="42.81440346" lon="-72.75177473">
    <tag k="addr:housenumber" v="614"/>
    <tag k="addr:street" v="Green River Road"/>
    <tag k="addr:state" v="VT"/>
    <tag k="ref:vcgi:esiteid" v="307822"/>
  </node>
  <node id="-693" visible="true" lat="42.80940419" lon="-72.77983853">
    <tag k="addr:housenumber" v="807"/>
    <tag k="addr:street" v="Hanson Road"/>
    <tag k="addr:state" v="VT"/>
    <tag k="ref:vcgi:esiteid" v="307825"/>
  </node>
  <node id="-704" visible="true" lat="42.81998501" lon="-72.70614344">
    <tag k="addr:housenumber" v="1105"/>
    <tag k="addr:street" v="Thomas Hill Road"/>
    <tag k="addr:state" v="VT"/>
    <tag k="ref:vcgi:esiteid" v="329976"/>
  </node>
  <node id="-705" visible="true" lat="42.77763145" lon="-72.76873322">
    <tag k="addr:housenumber" v="79"/>
    <tag k="addr:street" v="Sumner Farm Road"/>
    <tag k="addr:state" v="VT"/>
    <tag k="ref:vcgi:esiteid" v="331356"/>
  </node>
  <node id="-706" visible="true" lat="42.82703893" lon="-72.70847693">
    <tag k="addr:housenumber" v="1716"/>
    <tag k="addr:street" v="Thomas Hill Road"/>
    <tag k="addr:state" v="VT"/>
    <tag k="ref:vcgi:esiteid" v="332013"/>
  </node>
  <node id="-707" visible="true" lat="42.80871849" lon="-72.72124768">
    <tag k="addr:housenumber" v="208"/>
    <tag k="addr:street" v="Perry Road"/>
    <tag k="addr:state" v="VT"/>
    <tag k="ref:vcgi:esiteid" v="332014"/>
  </node>
  <node id="-710" visible="true" lat="42.78249176" lon="-72.77638564">
    <tag k="addr:housenumber" v="28"/>
    <tag k="addr:street" v="Maple Ledge Lane"/>
    <tag k="addr:state" v="VT"/>
    <tag k="ref:vcgi:esiteid" v="333496"/>
  </node>
  <node id="-720" visible="true" lat="42.82101781" lon="-72.68566898">
    <tag k="addr:housenumber" v="82"/>
    <tag k="addr:street" v="Thomas Hill Road"/>
    <tag k="addr:state" v="VT"/>
    <tag k="ref:vcgi:esiteid" v="337365"/>
  </node>
  <node id="-735" visible="true" lat="42.81577746" lon="-72.77856017">
    <tag k="addr:housenumber" v="1294"/>
    <tag k="addr:street" v="Hanson Road"/>
    <tag k="addr:state" v="VT"/>
    <tag k="ref:vcgi:esiteid" v="447760"/>
  </node>
  <node id="-741" visible="true" lat="42.82134557" lon="-72.77747803">
    <tag k="addr:housenumber" v="867"/>
    <tag k="addr:street" v="Hatch School Road"/>
    <tag k="addr:state" v="VT"/>
    <tag k="ref:vcgi:esiteid" v="450293"/>
  </node>
  <node id="-743" visible="true" lat="42.74236975" lon="-72.69714072">
    <tag k="addr:housenumber" v="1203"/>
    <tag k="addr:street" v="Bell Road"/>
    <tag k="addr:state" v="VT"/>
    <tag k="ref:vcgi:esiteid" v="450295"/>
  </node>
  <node id="-749" visible="true" lat="42.79163572" lon="-72.74364071">
    <tag k="addr:housenumber" v="1470"/>
    <tag k="addr:street" v="Old County Road"/>
    <tag k="addr:state" v="VT"/>
    <tag k="ref:vcgi:esiteid" v="450302"/>
  </node>
  <node id="-751" visible="true" lat="42.77053311" lon="-72.74253139">
    <tag k="addr:housenumber" v="8244"/>
    <tag k="addr:street" v="Jacksonville Stage Road"/>
    <tag k="addr:state" v="VT"/>
    <tag k="ref:vcgi:esiteid" v="450304"/>
  </node>
  <node id="-752" visible="true" lat="42.76202129" lon="-72.78209296">
    <tag k="addr:housenumber" v="3410"/>
    <tag k="addr:street" v="Vermont Route 112"/>
    <tag k="addr:state" v="VT"/>
    <tag k="ref:vcgi:esiteid" v="450305"/>
  </node>
  <node id="-753" visible="true" lat="42.73638635" lon="-72.78558422">
    <tag k="addr:housenumber" v="303"/>
    <tag k="addr:street" v="McMillan Road"/>
    <tag k="addr:state" v="VT"/>
    <tag k="ref:vcgi:esiteid" v="450306"/>
  </node>
  <node id="-905" visible="true" lat="42.8096765" lon="-72.77732679">
    <tag k="addr:housenumber" v="892"/>
    <tag k="addr:street" v="Hanson Road"/>
    <tag k="addr:state" v="VT"/>
    <tag k="ref:vcgi:esiteid" v="618131"/>
  </node>
  <node id="-938" visible="true" lat="42.81824899" lon="-72.69967342">
    <tag k="addr:housenumber" v="837"/>
    <tag k="addr:street" v="Thomas Hill Road"/>
    <tag k="addr:state" v="VT"/>
    <tag k="ref:vcgi:esiteid" v="769067"/>
  </node>
</osm>
