<?xml version="1.0" encoding="UTF-8"?>
<osm version="0.6" generator="JOSM">
  <node id="-100" visible="true" lat="43.94719215" lon="-72.89309583">
    <tag k="addr:city" v="Hancock"/>
    <tag k="addr:housenumber" v="100"/>
    <tag k="addr:street" v="Mountain Farm Drive"/>
    <tag k="addr:state" v="VT"/>
    <tag k="ref:vcgi:esiteid" v="118395"/>
  </node>
  <node id="-101" visible="true" lat="43.94684219" lon="-72.89546203">
    <tag k="addr:city" v="Hancock"/>
    <tag k="addr:housenumber" v="1620"/>
    <tag k="addr:street" v="Fassett Hill Road"/>
    <tag k="addr:state" v="VT"/>
    <tag k="ref:vcgi:esiteid" v="118396"/>
  </node>
  <node id="-102" visible="true" lat="43.9461393" lon="-72.8891432">
    <tag k="addr:city" v="Hancock"/>
    <tag k="addr:housenumber" v="260"/>
    <tag k="addr:street" v="Mountain Farm Drive"/>
    <tag k="addr:state" v="VT"/>
    <tag k="ref:vcgi:esiteid" v="118397"/>
  </node>
  <node id="-103" visible="true" lat="43.9459648" lon="-72.8933397">
    <tag k="addr:city" v="Hancock"/>
    <tag k="addr:housenumber" v="11"/>
    <tag k="addr:street" v="Mountain Farm Drive"/>
    <tag k="addr:state" v="VT"/>
    <tag k="ref:vcgi:esiteid" v="118398"/>
  </node>
  <node id="-104" visible="true" lat="43.94583881" lon="-72.89018487">
    <tag k="addr:city" v="Hancock"/>
    <tag k="addr:housenumber" v="258"/>
    <tag k="addr:street" v="Mountain Farm Drive"/>
    <tag k="addr:state" v="VT"/>
    <tag k="ref:vcgi:esiteid" v="118399"/>
  </node>
  <node id="-105" visible="true" lat="43.94465721" lon="-72.88957698">
    <tag k="addr:city" v="Hancock"/>
    <tag k="addr:housenumber" v="259"/>
    <tag k="addr:street" v="Mountain Farm Drive"/>
    <tag k="addr:state" v="VT"/>
    <tag k="ref:vcgi:esiteid" v="118400"/>
  </node>
  <node id="-106" visible="true" lat="43.94266483" lon="-72.84145098">
    <tag k="addr:city" v="Hancock"/>
    <tag k="addr:housenumber" v="2362"/>
    <tag k="addr:street" v="Vermont Route 100"/>
    <tag k="addr:state" v="VT"/>
    <tag k="ref:vcgi:esiteid" v="118401"/>
  </node>
  <node id="-107" visible="true" lat="43.94222604" lon="-72.84096506">
    <tag k="addr:city" v="Hancock"/>
    <tag k="addr:housenumber" v="2333"/>
    <tag k="addr:street" v="Vermont Route 100"/>
    <tag k="addr:state" v="VT"/>
    <tag k="ref:vcgi:esiteid" v="118402"/>
  </node>
  <node id="-108" visible="true" lat="43.94091928" lon="-72.89373155">
    <tag k="addr:city" v="Hancock"/>
    <tag k="addr:housenumber" v="1181"/>
    <tag k="addr:street" v="Fassett Hill Road"/>
    <tag k="addr:state" v="VT"/>
    <tag k="ref:vcgi:esiteid" v="118403"/>
  </node>
  <node id="-109" visible="true" lat="43.94088739" lon="-72.89367042">
    <tag k="addr:city" v="Hancock"/>
    <tag k="addr:housenumber" v="1125"/>
    <tag k="addr:street" v="Fassett Hill Road"/>
    <tag k="addr:state" v="VT"/>
    <tag k="ref:vcgi:esiteid" v="118404"/>
  </node>
  <node id="-110" visible="true" lat="43.94017196" lon="-72.89332797">
    <tag k="addr:city" v="Hancock"/>
    <tag k="addr:housenumber" v="1119"/>
    <tag k="addr:street" v="Fassett Hill Road"/>
    <tag k="addr:state" v="VT"/>
    <tag k="ref:vcgi:esiteid" v="118405"/>
  </node>
  <node id="-111" visible="true" lat="43.94033944" lon="-72.86760215">
    <tag k="addr:city" v="Hancock"/>
    <tag k="addr:housenumber" v="1095"/>
    <tag k="addr:street" v="Tucker Brook Road"/>
    <tag k="addr:state" v="VT"/>
    <tag k="ref:vcgi:esiteid" v="118406"/>
  </node>
  <node id="-112" visible="true" lat="43.94001199" lon="-72.84276835">
    <tag k="addr:city" v="Hancock"/>
    <tag k="addr:housenumber" v="2156"/>
    <tag k="addr:street" v="Vermont Route 100"/>
    <tag k="addr:state" v="VT"/>
    <tag k="ref:vcgi:esiteid" v="118407"/>
  </node>
  <node id="-113" visible="true" lat="43.93970095" lon="-72.84263398">
    <tag k="addr:city" v="Hancock"/>
    <tag k="addr:housenumber" v="2150"/>
    <tag k="addr:street" v="Vermont Route 100"/>
    <tag k="addr:state" v="VT"/>
    <tag k="ref:vcgi:esiteid" v="118408"/>
  </node>
  <node id="-114" visible="true" lat="43.93911942" lon="-72.9575877">
    <tag k="addr:city" v="Hancock"/>
    <tag k="addr:housenumber" v="6886"/>
    <tag k="addr:street" v="Vermont Route 125"/>
    <tag k="addr:state" v="VT"/>
    <tag k="ref:vcgi:esiteid" v="118409"/>
  </node>
  <node id="-115" visible="true" lat="43.93944449" lon="-72.89259252">
    <tag k="addr:city" v="Hancock"/>
    <tag k="addr:housenumber" v="1067"/>
    <tag k="addr:street" v="Fassett Hill Road"/>
    <tag k="addr:state" v="VT"/>
    <tag k="ref:vcgi:esiteid" v="118410"/>
  </node>
  <node id="-116" visible="true" lat="43.93889909" lon="-72.84273723">
    <tag k="addr:city" v="Hancock"/>
    <tag k="addr:housenumber" v="2086"/>
    <tag k="addr:street" v="Vermont Route 100"/>
    <tag k="addr:state" v="VT"/>
    <tag k="ref:vcgi:esiteid" v="118412"/>
  </node>
  <node id="-117" visible="true" lat="43.93749819" lon="-72.89234235">
    <tag k="addr:city" v="Hancock"/>
    <tag k="addr:housenumber" v="939"/>
    <tag k="addr:street" v="Fassett Hill Road"/>
    <tag k="addr:state" v="VT"/>
    <tag k="ref:vcgi:esiteid" v="118413"/>
  </node>
  <node id="-118" visible="true" lat="43.93679078" lon="-72.89216114">
    <tag k="addr:city" v="Hancock"/>
    <tag k="addr:housenumber" v="889"/>
    <tag k="addr:street" v="Fassett Hill Road"/>
    <tag k="addr:state" v="VT"/>
    <tag k="ref:vcgi:esiteid" v="118414"/>
  </node>
  <node id="-119" visible="true" lat="43.93644499" lon="-72.89216736">
    <tag k="addr:city" v="Hancock"/>
    <tag k="addr:housenumber" v="871"/>
    <tag k="addr:street" v="Fassett Hill Road"/>
    <tag k="addr:state" v="VT"/>
    <tag k="ref:vcgi:esiteid" v="118415"/>
  </node>
  <node id="-120" visible="true" lat="43.93615679" lon="-72.86284016">
    <tag k="addr:city" v="Hancock"/>
    <tag k="addr:housenumber" v="173"/>
    <tag k="addr:street" v="Windigo Road"/>
    <tag k="addr:state" v="VT"/>
    <tag k="ref:vcgi:esiteid" v="118416"/>
  </node>
  <node id="-121" visible="true" lat="43.9337883" lon="-72.81999969">
    <tag k="addr:city" v="Hancock"/>
    <tag k="addr:housenumber" v="819"/>
    <tag k="addr:street" v="Buttles Road"/>
    <tag k="addr:state" v="VT"/>
    <tag k="ref:vcgi:esiteid" v="118417"/>
  </node>
  <node id="-122" visible="true" lat="43.933682" lon="-72.81940087">
    <tag k="addr:city" v="Hancock"/>
    <tag k="addr:housenumber" v="765"/>
    <tag k="addr:street" v="Buttles Road"/>
    <tag k="addr:state" v="VT"/>
    <tag k="ref:vcgi:esiteid" v="118418"/>
  </node>
  <node id="-123" visible="true" lat="43.93251933" lon="-72.87057231">
    <tag k="addr:city" v="Hancock"/>
    <tag k="addr:housenumber" v="419"/>
    <tag k="addr:street" v="Shampeny Hill Road"/>
    <tag k="addr:state" v="VT"/>
    <tag k="ref:vcgi:esiteid" v="118419"/>
  </node>
  <node id="-124" visible="true" lat="43.9318153" lon="-72.87190665">
    <tag k="addr:city" v="Hancock"/>
    <tag k="addr:housenumber" v="382"/>
    <tag k="addr:street" v="Shampeny Hill Road"/>
    <tag k="addr:state" v="VT"/>
    <tag k="ref:vcgi:esiteid" v="118420"/>
  </node>
  <node id="-125" visible="true" lat="43.93145701" lon="-72.86300879">
    <tag k="addr:city" v="Hancock"/>
    <tag k="addr:housenumber" v="89"/>
    <tag k="addr:street" v="Tucker Brook Road Extension"/>
    <tag k="addr:state" v="VT"/>
    <tag k="ref:vcgi:esiteid" v="118421"/>
  </node>
  <node id="-126" visible="true" lat="43.9314546" lon="-72.84555926">
    <tag k="addr:city" v="Hancock"/>
    <tag k="addr:housenumber" v="357"/>
    <tag k="addr:street" v="Blair Hill"/>
    <tag k="addr:state" v="VT"/>
    <tag k="ref:vcgi:esiteid" v="118422"/>
  </node>
  <node id="-127" visible="true" lat="43.93112357" lon="-72.89904047">
    <tag k="addr:city" v="Hancock"/>
    <tag k="addr:housenumber" v="121"/>
    <tag k="addr:street" v="Texas Falls Road"/>
    <tag k="addr:state" v="VT"/>
    <tag k="ref:vcgi:esiteid" v="118423"/>
  </node>
  <node id="-128" visible="true" lat="43.9315148" lon="-72.89808438">
    <tag k="addr:city" v="Hancock"/>
    <tag k="addr:housenumber" v="119"/>
    <tag k="addr:street" v="Texas Falls Road"/>
    <tag k="addr:state" v="VT"/>
    <tag k="ref:vcgi:esiteid" v="118424"/>
  </node>
  <node id="-129" visible="true" lat="43.93133989" lon="-72.82135587">
    <tag k="addr:city" v="Hancock"/>
    <tag k="addr:housenumber" v="614"/>
    <tag k="addr:street" v="Buttles Road"/>
    <tag k="addr:state" v="VT"/>
    <tag k="ref:vcgi:esiteid" v="118425"/>
  </node>
  <node id="-130" visible="true" lat="43.93094718" lon="-72.87165041">
    <tag k="addr:city" v="Hancock"/>
    <tag k="addr:housenumber" v="336"/>
    <tag k="addr:street" v="Shampeny Hill Road"/>
    <tag k="addr:state" v="VT"/>
    <tag k="ref:vcgi:esiteid" v="118426"/>
  </node>
  <node id="-131" visible="true" lat="43.93030884" lon="-72.89955472">
    <tag k="addr:city" v="Hancock"/>
    <tag k="addr:housenumber" v="96"/>
    <tag k="addr:street" v="Texas Falls Road"/>
    <tag k="addr:state" v="VT"/>
    <tag k="ref:vcgi:esiteid" v="118428"/>
  </node>
  <node id="-132" visible="true" lat="43.92991503" lon="-72.89859208">
    <tag k="addr:city" v="Hancock"/>
    <tag k="addr:housenumber" v="81"/>
    <tag k="addr:street" v="Texas Falls Road"/>
    <tag k="addr:state" v="VT"/>
    <tag k="ref:vcgi:esiteid" v="118429"/>
  </node>
  <node id="-133" visible="true" lat="43.93027355" lon="-72.86420582">
    <tag k="addr:city" v="Hancock"/>
    <tag k="addr:housenumber" v="367"/>
    <tag k="addr:street" v="Tucker Brook Road"/>
    <tag k="addr:state" v="VT"/>
    <tag k="ref:vcgi:esiteid" v="118430"/>
  </node>
  <node id="-134" visible="true" lat="43.92979277" lon="-72.89630047">
    <tag k="addr:city" v="Hancock"/>
    <tag k="addr:housenumber" v="2889"/>
    <tag k="addr:street" v="Vermont Route 125"/>
    <tag k="addr:state" v="VT"/>
    <tag k="ref:vcgi:esiteid" v="118431"/>
  </node>
  <node id="-135" visible="true" lat="43.92972636" lon="-72.84641393">
    <tag k="addr:city" v="Hancock"/>
    <tag k="addr:housenumber" v="320"/>
    <tag k="addr:street" v="Blair Hill"/>
    <tag k="addr:state" v="VT"/>
    <tag k="ref:vcgi:esiteid" v="118432"/>
  </node>
  <node id="-136" visible="true" lat="43.92946341" lon="-72.89698353">
    <tag k="addr:city" v="Hancock"/>
    <tag k="addr:housenumber" v="2927"/>
    <tag k="addr:street" v="Vermont Route 125"/>
    <tag k="addr:state" v="VT"/>
    <tag k="ref:vcgi:esiteid" v="118433"/>
  </node>
  <node id="-137" visible="true" lat="43.92932536" lon="-72.86681526">
    <tag k="addr:city" v="Hancock"/>
    <tag k="addr:housenumber" v="84"/>
    <tag k="addr:street" v="Shampeny Hill Road"/>
    <tag k="addr:state" v="VT"/>
    <tag k="ref:vcgi:esiteid" v="118434"/>
  </node>
  <node id="-138" visible="true" lat="43.92911847" lon="-72.86576228">
    <tag k="addr:city" v="Hancock"/>
    <tag k="addr:housenumber" v="44"/>
    <tag k="addr:street" v="Shampeny Hill Road"/>
    <tag k="addr:state" v="VT"/>
    <tag k="ref:vcgi:esiteid" v="118435"/>
  </node>
  <node id="-139" visible="true" lat="43.9292768" lon="-72.89362895">
    <tag k="addr:city" v="Hancock"/>
    <tag k="addr:housenumber" v="2751"/>
    <tag k="addr:street" v="Vermont Route 125"/>
    <tag k="addr:state" v="VT"/>
    <tag k="ref:vcgi:esiteid" v="118436"/>
  </node>
  <node id="-140" visible="true" lat="43.92906388" lon="-72.89444481">
    <tag k="addr:city" v="Hancock"/>
    <tag k="addr:housenumber" v="2796"/>
    <tag k="addr:street" v="Vermont Route 125"/>
    <tag k="addr:state" v="VT"/>
    <tag k="ref:vcgi:esiteid" v="118437"/>
  </node>
  <node id="-141" visible="true" lat="43.92916935" lon="-72.86600124">
    <tag k="addr:city" v="Hancock"/>
    <tag k="addr:housenumber" v="66"/>
    <tag k="addr:street" v="Shampeny Hill Road"/>
    <tag k="addr:state" v="VT"/>
    <tag k="ref:vcgi:esiteid" v="118438"/>
  </node>
  <node id="-142" visible="true" lat="43.92901656" lon="-72.89147335">
    <tag k="addr:city" v="Hancock"/>
    <tag k="addr:housenumber" v="2659"/>
    <tag k="addr:street" v="Vermont Route 125"/>
    <tag k="addr:state" v="VT"/>
    <tag k="ref:vcgi:esiteid" v="118439"/>
  </node>
  <node id="-143" visible="true" lat="43.92870236" lon="-72.8925068">
    <tag k="addr:city" v="Hancock"/>
    <tag k="addr:housenumber" v="2698"/>
    <tag k="addr:street" v="Vermont Route 125"/>
    <tag k="addr:state" v="VT"/>
    <tag k="ref:vcgi:esiteid" v="118440"/>
  </node>
  <node id="-144" visible="true" lat="43.92868041" lon="-72.91874694">
    <tag k="addr:city" v="Hancock"/>
    <tag k="addr:housenumber" v="4081"/>
    <tag k="addr:street" v="Vermont Route 125"/>
    <tag k="addr:state" v="VT"/>
    <tag k="ref:vcgi:esiteid" v="118441"/>
  </node>
  <node id="-145" visible="true" lat="43.92860572" lon="-72.89997107">
    <tag k="addr:city" v="Hancock"/>
    <tag k="addr:housenumber" v="3084"/>
    <tag k="addr:street" v="Vermont Route 125"/>
    <tag k="addr:state" v="VT"/>
    <tag k="ref:vcgi:esiteid" v="118442"/>
  </node>
  <node id="-146" visible="true" lat="43.92851408" lon="-72.90028684">
    <tag k="addr:city" v="Hancock"/>
    <tag k="addr:housenumber" v="3106"/>
    <tag k="addr:street" v="Vermont Route 125"/>
    <tag k="addr:state" v="VT"/>
    <tag k="ref:vcgi:esiteid" v="118443"/>
  </node>
  <node id="-147" visible="true" lat="43.92845229" lon="-72.89139318">
    <tag k="addr:city" v="Hancock"/>
    <tag k="addr:housenumber" v="2640"/>
    <tag k="addr:street" v="Vermont Route 125"/>
    <tag k="addr:state" v="VT"/>
    <tag k="ref:vcgi:esiteid" v="118444"/>
  </node>
  <node id="-148" visible="true" lat="43.92867061" lon="-72.84454492">
    <tag k="addr:city" v="Hancock"/>
    <tag k="addr:housenumber" v="214"/>
    <tag k="addr:street" v="Blair Hill"/>
    <tag k="addr:state" v="VT"/>
    <tag k="ref:vcgi:esiteid" v="118445"/>
  </node>
  <node id="-149" visible="true" lat="43.92844228" lon="-72.90270359">
    <tag k="addr:city" v="Hancock"/>
    <tag k="addr:housenumber" v="3223"/>
    <tag k="addr:street" v="Vermont Route 125"/>
    <tag k="addr:state" v="VT"/>
    <tag k="ref:vcgi:esiteid" v="118446"/>
  </node>
  <node id="-150" visible="true" lat="43.92841393" lon="-72.86584396">
    <tag k="addr:city" v="Hancock"/>
    <tag k="addr:housenumber" v="10"/>
    <tag k="addr:street" v="Shampeny Hill Road"/>
    <tag k="addr:state" v="VT"/>
    <tag k="ref:vcgi:esiteid" v="118447"/>
  </node>
  <node id="-151" visible="true" lat="43.92807693" lon="-72.90101944">
    <tag k="addr:city" v="Hancock"/>
    <tag k="addr:housenumber" v="3140"/>
    <tag k="addr:street" v="Vermont Route 125"/>
    <tag k="addr:state" v="VT"/>
    <tag k="ref:vcgi:esiteid" v="118448"/>
  </node>
  <node id="-152" visible="true" lat="43.92834112" lon="-72.85014862">
    <tag k="addr:city" v="Hancock"/>
    <tag k="addr:housenumber" v="489"/>
    <tag k="addr:street" v="Vermont Route 125"/>
    <tag k="addr:state" v="VT"/>
    <tag k="ref:vcgi:esiteid" v="118449"/>
  </node>
  <node id="-153" visible="true" lat="43.92827083" lon="-72.84781611">
    <tag k="addr:city" v="Hancock"/>
    <tag k="addr:housenumber" v="389"/>
    <tag k="addr:street" v="Vermont Route 125"/>
    <tag k="addr:state" v="VT"/>
    <tag k="ref:vcgi:esiteid" v="118450"/>
  </node>
  <node id="-154" visible="true" lat="43.92823064" lon="-72.84919478">
    <tag k="addr:city" v="Hancock"/>
    <tag k="addr:housenumber" v="429"/>
    <tag k="addr:street" v="Vermont Route 125"/>
    <tag k="addr:state" v="VT"/>
    <tag k="ref:vcgi:esiteid" v="118451"/>
  </node>
  <node id="-155" visible="true" lat="43.9281315" lon="-72.89018408">
    <tag k="addr:city" v="Hancock"/>
    <tag k="addr:housenumber" v="2548"/>
    <tag k="addr:street" v="Vermont Route 125"/>
    <tag k="addr:state" v="VT"/>
    <tag k="ref:vcgi:esiteid" v="118452"/>
  </node>
  <node id="-156" visible="true" lat="43.92814204" lon="-72.86582461">
    <tag k="addr:city" v="Hancock"/>
    <tag k="addr:housenumber" v="190"/>
    <tag k="addr:street" v="Tucker Brook Road"/>
    <tag k="addr:state" v="VT"/>
    <tag k="ref:vcgi:esiteid" v="118454"/>
  </node>
  <node id="-157" visible="true" lat="43.92805285" lon="-72.88422989">
    <tag k="addr:city" v="Hancock"/>
    <tag k="addr:housenumber" v="2277"/>
    <tag k="addr:street" v="Vermont Route 125"/>
    <tag k="addr:state" v="VT"/>
    <tag k="ref:vcgi:esiteid" v="118455"/>
  </node>
  <node id="-158" visible="true" lat="43.92797749" lon="-72.88607389">
    <tag k="addr:city" v="Hancock"/>
    <tag k="addr:housenumber" v="2365"/>
    <tag k="addr:street" v="Vermont Route 125"/>
    <tag k="addr:state" v="VT"/>
    <tag k="ref:vcgi:esiteid" v="118456"/>
  </node>
  <node id="-159" visible="true" lat="43.92770756" lon="-72.9034605">
    <tag k="addr:city" v="Hancock"/>
    <tag k="addr:housenumber" v="3270"/>
    <tag k="addr:street" v="Vermont Route 125"/>
    <tag k="addr:state" v="VT"/>
    <tag k="ref:vcgi:esiteid" v="118457"/>
  </node>
  <node id="-160" visible="true" lat="43.92793083" lon="-72.88380896">
    <tag k="addr:city" v="Hancock"/>
    <tag k="addr:housenumber" v="2255"/>
    <tag k="addr:street" v="Vermont Route 125"/>
    <tag k="addr:state" v="VT"/>
    <tag k="ref:vcgi:esiteid" v="118458"/>
  </node>
  <node id="-161" visible="true" lat="43.92793078" lon="-72.8825098">
    <tag k="addr:city" v="Hancock"/>
    <tag k="addr:housenumber" v="2189"/>
    <tag k="addr:street" v="Vermont Route 125"/>
    <tag k="addr:state" v="VT"/>
    <tag k="ref:vcgi:esiteid" v="118459"/>
  </node>
  <node id="-162" visible="true" lat="43.9280125" lon="-72.88033749">
    <tag k="addr:city" v="Hancock"/>
    <tag k="addr:housenumber" v="2091"/>
    <tag k="addr:street" v="Vermont Route 125"/>
    <tag k="addr:state" v="VT"/>
    <tag k="ref:vcgi:esiteid" v="118460"/>
  </node>
  <node id="-163" visible="true" lat="43.92775143" lon="-72.88817983">
    <tag k="addr:city" v="Hancock"/>
    <tag k="addr:housenumber" v="2436"/>
    <tag k="addr:street" v="Vermont Route 125"/>
    <tag k="addr:state" v="VT"/>
    <tag k="ref:vcgi:esiteid" v="118461"/>
  </node>
  <node id="-164" visible="true" lat="43.92768191" lon="-72.88497124">
    <tag k="addr:city" v="Hancock"/>
    <tag k="addr:housenumber" v="2316"/>
    <tag k="addr:street" v="Vermont Route 125"/>
    <tag k="addr:state" v="VT"/>
    <tag k="ref:vcgi:esiteid" v="118462"/>
  </node>
  <node id="-165" visible="true" lat="43.92762447" lon="-72.88664253">
    <tag k="addr:city" v="Hancock"/>
    <tag k="addr:housenumber" v="2394"/>
    <tag k="addr:street" v="Vermont Route 125"/>
    <tag k="addr:state" v="VT"/>
    <tag k="ref:vcgi:esiteid" v="118463"/>
  </node>
  <node id="-166" visible="true" lat="43.92768663" lon="-72.87844705">
    <tag k="addr:city" v="Hancock"/>
    <tag k="addr:housenumber" v="8"/>
    <tag k="addr:street" v="Taylor Brook Road"/>
    <tag k="addr:state" v="VT"/>
    <tag k="ref:vcgi:esiteid" v="118464"/>
  </node>
  <node id="-167" visible="true" lat="43.92779879" lon="-72.91080924">
    <tag k="addr:city" v="Hancock"/>
    <tag k="addr:housenumber" v="3631"/>
    <tag k="addr:street" v="Vermont Route 125"/>
    <tag k="addr:state" v="VT"/>
    <tag k="ref:vcgi:esiteid" v="118465"/>
  </node>
  <node id="-168" visible="true" lat="43.92738081" lon="-72.8840871">
    <tag k="addr:city" v="Hancock"/>
    <tag k="addr:housenumber" v="2280"/>
    <tag k="addr:street" v="Vermont Route 125"/>
    <tag k="addr:state" v="VT"/>
    <tag k="ref:vcgi:esiteid" v="118466"/>
  </node>
  <node id="-169" visible="true" lat="43.92775889" lon="-72.84057914">
    <tag k="addr:city" v="Hancock"/>
    <tag k="addr:housenumber" v="1313"/>
    <tag k="addr:street" v="Vermont Route 100"/>
    <tag k="addr:state" v="VT"/>
    <tag k="ref:vcgi:esiteid" v="118467"/>
  </node>
  <node id="-170" visible="true" lat="43.92752565" lon="-72.88265018">
    <tag k="addr:city" v="Hancock"/>
    <tag k="addr:housenumber" v="2198"/>
    <tag k="addr:street" v="Vermont Route 125"/>
    <tag k="addr:state" v="VT"/>
    <tag k="ref:vcgi:esiteid" v="118468"/>
  </node>
  <node id="-171" visible="true" lat="43.92756271" lon="-72.86544037">
    <tag k="addr:city" v="Hancock"/>
    <tag k="addr:housenumber" v="162"/>
    <tag k="addr:street" v="Tucker Brook Road"/>
    <tag k="addr:state" v="VT"/>
    <tag k="ref:vcgi:esiteid" v="118469"/>
  </node>
  <node id="-172" visible="true" lat="43.92765212" lon="-72.84300497">
    <tag k="addr:city" v="Hancock"/>
    <tag k="addr:housenumber" v="92"/>
    <tag k="addr:street" v="Blair Hill"/>
    <tag k="addr:state" v="VT"/>
    <tag k="ref:vcgi:esiteid" v="118470"/>
  </node>
  <node id="-173" visible="true" lat="43.92756187" lon="-72.87451336">
    <tag k="addr:city" v="Hancock"/>
    <tag k="addr:housenumber" v="1773"/>
    <tag k="addr:street" v="Vermont Route 125"/>
    <tag k="addr:state" v="VT"/>
    <tag k="ref:vcgi:esiteid" v="118471"/>
  </node>
  <node id="-174" visible="true" lat="43.92748401" lon="-72.87635083">
    <tag k="addr:city" v="Hancock"/>
    <tag k="addr:housenumber" v="57"/>
    <tag k="addr:street" v="Taylor Brook Road"/>
    <tag k="addr:state" v="VT"/>
    <tag k="ref:vcgi:esiteid" v="118472"/>
  </node>
  <node id="-175" visible="true" lat="43.92730206" lon="-72.88587727">
    <tag k="addr:city" v="Hancock"/>
    <tag k="addr:housenumber" v="28"/>
    <tag k="addr:street" v="Silver Street"/>
    <tag k="addr:state" v="VT"/>
    <tag k="ref:vcgi:esiteid" v="118473"/>
  </node>
  <node id="-176" visible="true" lat="43.92748187" lon="-72.84049849">
    <tag k="addr:city" v="Hancock"/>
    <tag k="addr:housenumber" v="1295"/>
    <tag k="addr:street" v="Vermont Route 100"/>
    <tag k="addr:state" v="VT"/>
    <tag k="ref:vcgi:esiteid" v="118474"/>
  </node>
  <node id="-177" visible="true" lat="43.92750272" lon="-72.84636982">
    <tag k="addr:city" v="Hancock"/>
    <tag k="addr:housenumber" v="275"/>
    <tag k="addr:street" v="Vermont Route 125"/>
    <tag k="addr:state" v="VT"/>
    <tag k="ref:vcgi:esiteid" v="118475"/>
  </node>
  <node id="-178" visible="true" lat="43.92732338" lon="-72.86519949">
    <tag k="addr:city" v="Hancock"/>
    <tag k="addr:housenumber" v="158"/>
    <tag k="addr:street" v="Tucker Brook Road"/>
    <tag k="addr:state" v="VT"/>
    <tag k="ref:vcgi:esiteid" v="118476"/>
  </node>
  <node id="-179" visible="true" lat="43.92711456" lon="-72.91131544">
    <tag k="addr:city" v="Hancock"/>
    <tag k="addr:housenumber" v="3664"/>
    <tag k="addr:street" v="Vermont Route 125"/>
    <tag k="addr:state" v="VT"/>
    <tag k="ref:vcgi:esiteid" v="118477"/>
  </node>
  <node id="-180" visible="true" lat="43.92700477" lon="-72.91053621">
    <tag k="addr:city" v="Hancock"/>
    <tag k="addr:housenumber" v="3630"/>
    <tag k="addr:street" v="Vermont Route 125"/>
    <tag k="addr:state" v="VT"/>
    <tag k="ref:vcgi:esiteid" v="118478"/>
  </node>
  <node id="-181" visible="true" lat="43.92719269" lon="-72.87146759">
    <tag k="addr:city" v="Hancock"/>
    <tag k="addr:housenumber" v="1625"/>
    <tag k="addr:street" v="Vermont Route 125"/>
    <tag k="addr:state" v="VT"/>
    <tag k="ref:vcgi:esiteid" v="118480"/>
  </node>
  <node id="-182" visible="true" lat="43.92679398" lon="-72.91727788">
    <tag k="addr:city" v="Hancock"/>
    <tag k="addr:housenumber" v="3956"/>
    <tag k="addr:street" v="Vermont Route 125"/>
    <tag k="addr:state" v="VT"/>
    <tag k="ref:vcgi:esiteid" v="118481"/>
  </node>
  <node id="-183" visible="true" lat="43.926778" lon="-72.91648711">
    <tag k="addr:city" v="Hancock"/>
    <tag k="addr:housenumber" v="3918"/>
    <tag k="addr:street" v="Vermont Route 125"/>
    <tag k="addr:state" v="VT"/>
    <tag k="ref:vcgi:esiteid" v="118482"/>
  </node>
  <node id="-184" visible="true" lat="43.92714306" lon="-72.87298073">
    <tag k="addr:city" v="Hancock"/>
    <tag k="addr:housenumber" v="1675"/>
    <tag k="addr:street" v="Vermont Route 125"/>
    <tag k="addr:state" v="VT"/>
    <tag k="ref:vcgi:esiteid" v="118483"/>
  </node>
  <node id="-185" visible="true" lat="43.92700818" lon="-72.87054164">
    <tag k="addr:city" v="Hancock"/>
    <tag k="addr:housenumber" v="1577"/>
    <tag k="addr:street" v="Vermont Route 125"/>
    <tag k="addr:state" v="VT"/>
    <tag k="ref:vcgi:esiteid" v="118484"/>
  </node>
  <node id="-186" visible="true" lat="43.92701618" lon="-72.86952215">
    <tag k="addr:city" v="Hancock"/>
    <tag k="addr:housenumber" v="1513"/>
    <tag k="addr:street" v="Vermont Route 125"/>
    <tag k="addr:state" v="VT"/>
    <tag k="ref:vcgi:esiteid" v="118485"/>
  </node>
  <node id="-187" visible="true" lat="43.92717437" lon="-72.84529214">
    <tag k="addr:city" v="Hancock"/>
    <tag k="addr:housenumber" v="221"/>
    <tag k="addr:street" v="Vermont Route 125"/>
    <tag k="addr:state" v="VT"/>
    <tag k="ref:vcgi:esiteid" v="118486"/>
  </node>
  <node id="-188" visible="true" lat="43.92667858" lon="-72.91407033">
    <tag k="addr:city" v="Hancock"/>
    <tag k="addr:housenumber" v="3798"/>
    <tag k="addr:street" v="Vermont Route 125"/>
    <tag k="addr:state" v="VT"/>
    <tag k="ref:vcgi:esiteid" v="118487"/>
  </node>
  <node id="-189" visible="true" lat="43.92674261" lon="-72.91247625">
    <tag k="addr:city" v="Hancock"/>
    <tag k="addr:housenumber" v="3686"/>
    <tag k="addr:street" v="Vermont Route 125"/>
    <tag k="addr:state" v="VT"/>
    <tag k="ref:vcgi:esiteid" v="118488"/>
  </node>
  <node id="-190" visible="true" lat="43.92688066" lon="-72.88628092">
    <tag k="addr:city" v="Hancock"/>
    <tag k="addr:housenumber" v="72"/>
    <tag k="addr:street" v="Silver Street"/>
    <tag k="addr:state" v="VT"/>
    <tag k="ref:vcgi:esiteid" v="118489"/>
  </node>
  <node id="-191" visible="true" lat="43.92713784" lon="-72.84470359">
    <tag k="addr:city" v="Hancock"/>
    <tag k="addr:housenumber" v="191"/>
    <tag k="addr:street" v="Vermont Route 125"/>
    <tag k="addr:state" v="VT"/>
    <tag k="ref:vcgi:esiteid" v="118490"/>
  </node>
  <node id="-192" visible="true" lat="43.92685527" lon="-72.87679068">
    <tag k="addr:city" v="Hancock"/>
    <tag k="addr:housenumber" v="1897"/>
    <tag k="addr:street" v="Vermont Route 125"/>
    <tag k="addr:state" v="VT"/>
    <tag k="ref:vcgi:esiteid" v="118491"/>
  </node>
  <node id="-193" visible="true" lat="43.92691944" lon="-72.84446934">
    <tag k="addr:city" v="Hancock"/>
    <tag k="addr:housenumber" v="173"/>
    <tag k="addr:street" v="Vermont Route 125"/>
    <tag k="addr:state" v="VT"/>
    <tag k="ref:vcgi:esiteid" v="118492"/>
  </node>
  <node id="-194" visible="true" lat="43.92682065" lon="-72.86691221">
    <tag k="addr:city" v="Hancock"/>
    <tag k="addr:housenumber" v="1399"/>
    <tag k="addr:street" v="Vermont Route 125"/>
    <tag k="addr:state" v="VT"/>
    <tag k="ref:vcgi:esiteid" v="118493"/>
  </node>
  <node id="-195" visible="true" lat="43.92687209" lon="-72.86622575">
    <tag k="addr:city" v="Hancock"/>
    <tag k="addr:housenumber" v="1359"/>
    <tag k="addr:street" v="Vermont Route 125"/>
    <tag k="addr:state" v="VT"/>
    <tag k="ref:vcgi:esiteid" v="118494"/>
  </node>
  <node id="-196" visible="true" lat="43.92696843" lon="-72.84142241">
    <tag k="addr:city" v="Hancock"/>
    <tag k="addr:housenumber" v="1246"/>
    <tag k="addr:street" v="Vermont Route 100"/>
    <tag k="addr:state" v="VT"/>
    <tag k="ref:vcgi:esiteid" v="118495"/>
  </node>
  <node id="-197" visible="true" lat="43.92671934" lon="-72.86439628">
    <tag k="addr:city" v="Hancock"/>
    <tag k="addr:housenumber" v="102"/>
    <tag k="addr:street" v="Tucker Brook Road"/>
    <tag k="addr:state" v="VT"/>
    <tag k="ref:vcgi:esiteid" v="118496"/>
  </node>
  <node id="-198" visible="true" lat="43.92677699" lon="-72.84388112">
    <tag k="addr:city" v="Hancock"/>
    <tag k="addr:housenumber" v="143"/>
    <tag k="addr:street" v="Vermont Route 125"/>
    <tag k="addr:state" v="VT"/>
    <tag k="ref:vcgi:esiteid" v="118497"/>
  </node>
  <node id="-199" visible="true" lat="43.92659741" lon="-72.88821056">
    <tag k="addr:city" v="Hancock"/>
    <tag k="addr:housenumber" v="2372"/>
    <tag k="addr:street" v="Piper Brook"/>
    <tag k="addr:state" v="VT"/>
    <tag k="ref:vcgi:esiteid" v="118498"/>
  </node>
  <node id="-200" visible="true" lat="43.92662361" lon="-72.84336113">
    <tag k="addr:city" v="Hancock"/>
    <tag k="addr:housenumber" v="123"/>
    <tag k="addr:street" v="Vermont Route 125"/>
    <tag k="addr:state" v="VT"/>
    <tag k="ref:vcgi:esiteid" v="118499"/>
  </node>
  <node id="-201" visible="true" lat="43.92660903" lon="-72.85292053">
    <tag k="addr:city" v="Hancock"/>
    <tag k="addr:housenumber" v="361"/>
    <tag k="addr:street" v="Killooleet Road Extension"/>
    <tag k="addr:state" v="VT"/>
    <tag k="ref:vcgi:esiteid" v="118500"/>
  </node>
  <node id="-202" visible="true" lat="43.92663134" lon="-72.85221871">
    <tag k="addr:city" v="Hancock"/>
    <tag k="addr:housenumber" v="350"/>
    <tag k="addr:street" v="Killooleet Road Extension"/>
    <tag k="addr:state" v="VT"/>
    <tag k="ref:vcgi:esiteid" v="118501"/>
  </node>
  <node id="-203" visible="true" lat="43.92662429" lon="-72.84252929">
    <tag k="addr:city" v="Hancock"/>
    <tag k="addr:housenumber" v="71"/>
    <tag k="addr:street" v="Vermont Route 125"/>
    <tag k="addr:state" v="VT"/>
    <tag k="ref:vcgi:esiteid" v="118502"/>
  </node>
  <node id="-204" visible="true" lat="43.92645487" lon="-72.8765864">
    <tag k="addr:city" v="Hancock"/>
    <tag k="addr:housenumber" v="1882"/>
    <tag k="addr:street" v="Vermont Route 125"/>
    <tag k="addr:state" v="VT"/>
    <tag k="ref:vcgi:esiteid" v="118503"/>
  </node>
  <node id="-205" visible="true" lat="43.92651338" lon="-72.84008677">
    <tag k="addr:city" v="Hancock"/>
    <tag k="addr:housenumber" v="1239"/>
    <tag k="addr:street" v="Vermont Route 100"/>
    <tag k="addr:state" v="VT"/>
    <tag k="ref:vcgi:esiteid" v="118504"/>
  </node>
  <node id="-206" visible="true" lat="43.92653949" lon="-72.84276027">
    <tag k="addr:city" v="Hancock"/>
    <tag k="addr:housenumber" v="83"/>
    <tag k="addr:street" v="Vermont Route 125"/>
    <tag k="addr:state" v="VT"/>
    <tag k="ref:vcgi:esiteid" v="118505"/>
  </node>
  <node id="-207" visible="true" lat="43.92645023" lon="-72.84229453">
    <tag k="addr:city" v="Hancock"/>
    <tag k="addr:housenumber" v="57"/>
    <tag k="addr:street" v="Vermont Route 125"/>
    <tag k="addr:state" v="VT"/>
    <tag k="ref:vcgi:esiteid" v="118506"/>
  </node>
  <node id="-208" visible="true" lat="43.92640055" lon="-72.86423805">
    <tag k="addr:city" v="Hancock"/>
    <tag k="addr:housenumber" v="1269"/>
    <tag k="addr:street" v="Vermont Route 125"/>
    <tag k="addr:state" v="VT"/>
    <tag k="ref:vcgi:esiteid" v="118507"/>
  </node>
  <node id="-210" visible="true" lat="43.92631504" lon="-72.84310795">
    <tag k="addr:city" v="Hancock"/>
    <tag k="addr:housenumber" v="96"/>
    <tag k="addr:street" v="Vermont Route 125"/>
    <tag k="addr:state" v="VT"/>
    <tag k="ref:vcgi:esiteid" v="118509"/>
  </node>
  <node id="-211" visible="true" lat="43.92626053" lon="-72.84286126">
    <tag k="addr:city" v="Hancock"/>
    <tag k="addr:housenumber" v="88"/>
    <tag k="addr:street" v="Vermont Route 125"/>
    <tag k="addr:state" v="VT"/>
    <tag k="ref:vcgi:esiteid" v="118510"/>
  </node>
  <node id="-212" visible="true" lat="43.92620892" lon="-72.84261777">
    <tag k="addr:city" v="Hancock"/>
    <tag k="addr:housenumber" v="82"/>
    <tag k="addr:street" v="Vermont Route 125"/>
    <tag k="addr:state" v="VT"/>
    <tag k="ref:vcgi:esiteid" v="118511"/>
  </node>
  <node id="-213" visible="true" lat="43.92638685" lon="-72.8412619">
    <tag k="addr:city" v="Hancock"/>
    <tag k="addr:housenumber" v="3"/>
    <tag k="addr:street" v="Vermont Route 125"/>
    <tag k="addr:state" v="VT"/>
    <tag k="ref:vcgi:esiteid" v="118512"/>
  </node>
  <node id="-214" visible="true" lat="43.92628234" lon="-72.84078005">
    <tag k="addr:city" v="Hancock"/>
    <tag k="addr:housenumber" v="1217"/>
    <tag k="addr:street" v="Vermont Route 100"/>
    <tag k="addr:state" v="VT"/>
    <tag k="ref:vcgi:esiteid" v="118513"/>
  </node>
  <node id="-215" visible="true" lat="43.9261868" lon="-72.84210068">
    <tag k="addr:city" v="Hancock"/>
    <tag k="addr:housenumber" v="48"/>
    <tag k="addr:street" v="Vermont Route 125"/>
    <tag k="addr:state" v="VT"/>
    <tag k="ref:vcgi:esiteid" v="118514"/>
  </node>
  <node id="-216" visible="true" lat="43.92611127" lon="-72.8419015">
    <tag k="addr:city" v="Hancock"/>
    <tag k="addr:housenumber" v="38"/>
    <tag k="addr:street" v="Vermont Route 125"/>
    <tag k="addr:state" v="VT"/>
    <tag k="ref:vcgi:esiteid" v="118515"/>
  </node>
  <node id="-217" visible="true" lat="43.92610295" lon="-72.84139105">
    <tag k="addr:city" v="Hancock"/>
    <tag k="addr:housenumber" v="10"/>
    <tag k="addr:street" v="Vermont Route 125"/>
    <tag k="addr:state" v="VT"/>
    <tag k="ref:vcgi:esiteid" v="118516"/>
  </node>
  <node id="-218" visible="true" lat="43.92592243" lon="-72.86334562">
    <tag k="addr:city" v="Hancock"/>
    <tag k="addr:housenumber" v="1210"/>
    <tag k="addr:street" v="Vermont Route 125"/>
    <tag k="addr:state" v="VT"/>
    <tag k="ref:vcgi:esiteid" v="118517"/>
  </node>
  <node id="-219" visible="true" lat="43.92597347" lon="-72.86198352">
    <tag k="addr:city" v="Hancock"/>
    <tag k="addr:housenumber" v="42"/>
    <tag k="addr:street" v="Comes Road"/>
    <tag k="addr:state" v="VT"/>
    <tag k="ref:vcgi:esiteid" v="118518"/>
  </node>
  <node id="-220" visible="true" lat="43.92585391" lon="-72.86713719">
    <tag k="addr:city" v="Hancock"/>
    <tag k="addr:housenumber" v="1400"/>
    <tag k="addr:street" v="Vermont Route 125"/>
    <tag k="addr:state" v="VT"/>
    <tag k="ref:vcgi:esiteid" v="118519"/>
  </node>
  <node id="-221" visible="true" lat="43.92583039" lon="-72.86104629">
    <tag k="addr:city" v="Hancock"/>
    <tag k="addr:housenumber" v="96"/>
    <tag k="addr:street" v="Comes Road"/>
    <tag k="addr:state" v="VT"/>
    <tag k="ref:vcgi:esiteid" v="118520"/>
  </node>
  <node id="-222" visible="true" lat="43.92563118" lon="-72.84260582">
    <tag k="addr:city" v="Hancock"/>
    <tag k="addr:housenumber" v="76"/>
    <tag k="addr:street" v="Killooleet Road"/>
    <tag k="addr:state" v="VT"/>
    <tag k="ref:vcgi:esiteid" v="118521"/>
  </node>
  <node id="-223" visible="true" lat="43.92544926" lon="-72.86745612">
    <tag k="addr:city" v="Hancock"/>
    <tag k="addr:housenumber" v="1402"/>
    <tag k="addr:street" v="Vermont Route 125"/>
    <tag k="addr:state" v="VT"/>
    <tag k="ref:vcgi:esiteid" v="118522"/>
  </node>
  <node id="-224" visible="true" lat="43.92534539" lon="-72.84065078">
    <tag k="addr:city" v="Hancock"/>
    <tag k="addr:housenumber" v="1143"/>
    <tag k="addr:street" v="Vermont Route 100"/>
    <tag k="addr:state" v="VT"/>
    <tag k="ref:vcgi:esiteid" v="118523"/>
  </node>
  <node id="-225" visible="true" lat="43.92523578" lon="-72.84127452">
    <tag k="addr:city" v="Hancock"/>
    <tag k="addr:housenumber" v="1144"/>
    <tag k="addr:street" v="Vermont Route 100"/>
    <tag k="addr:state" v="VT"/>
    <tag k="ref:vcgi:esiteid" v="118524"/>
  </node>
  <node id="-226" visible="true" lat="43.92499904" lon="-72.84122572">
    <tag k="addr:city" v="Hancock"/>
    <tag k="addr:housenumber" v="1126"/>
    <tag k="addr:street" v="Vermont Route 100"/>
    <tag k="addr:state" v="VT"/>
    <tag k="ref:vcgi:esiteid" v="118525"/>
  </node>
  <node id="-227" visible="true" lat="43.92478451" lon="-72.84291216">
    <tag k="addr:city" v="Hancock"/>
    <tag k="addr:housenumber" v="80"/>
    <tag k="addr:street" v="Killooleet Road"/>
    <tag k="addr:state" v="VT"/>
    <tag k="ref:vcgi:esiteid" v="118526"/>
  </node>
  <node id="-228" visible="true" lat="43.92476065" lon="-72.84061474">
    <tag k="addr:city" v="Hancock"/>
    <tag k="addr:housenumber" v="1097"/>
    <tag k="addr:street" v="Vermont Route 100"/>
    <tag k="addr:state" v="VT"/>
    <tag k="ref:vcgi:esiteid" v="118527"/>
  </node>
  <node id="-229" visible="true" lat="43.92459487" lon="-72.84113311">
    <tag k="addr:city" v="Hancock"/>
    <tag k="addr:housenumber" v="1090"/>
    <tag k="addr:street" v="Vermont Route 100"/>
    <tag k="addr:state" v="VT"/>
    <tag k="ref:vcgi:esiteid" v="118529"/>
  </node>
  <node id="-230" visible="true" lat="43.92431932" lon="-72.84059529">
    <tag k="addr:city" v="Hancock"/>
    <tag k="addr:housenumber" v="1071"/>
    <tag k="addr:street" v="Vermont Route 100"/>
    <tag k="addr:state" v="VT"/>
    <tag k="ref:vcgi:esiteid" v="118530"/>
  </node>
  <node id="-231" visible="true" lat="43.92409495" lon="-72.84051809">
    <tag k="addr:city" v="Hancock"/>
    <tag k="addr:housenumber" v="1055"/>
    <tag k="addr:street" v="Vermont Route 100"/>
    <tag k="addr:state" v="VT"/>
    <tag k="ref:vcgi:esiteid" v="118531"/>
  </node>
  <node id="-232" visible="true" lat="43.92394109" lon="-72.84048852">
    <tag k="addr:city" v="Hancock"/>
    <tag k="addr:housenumber" v="1043"/>
    <tag k="addr:street" v="Vermont Route 100"/>
    <tag k="addr:state" v="VT"/>
    <tag k="ref:vcgi:esiteid" v="118532"/>
  </node>
  <node id="-233" visible="true" lat="43.92371946" lon="-72.84031348">
    <tag k="addr:city" v="Hancock"/>
    <tag k="addr:housenumber" v="1027"/>
    <tag k="addr:street" v="Vermont Route 100"/>
    <tag k="addr:state" v="VT"/>
    <tag k="ref:vcgi:esiteid" v="118533"/>
  </node>
  <node id="-234" visible="true" lat="43.92328583" lon="-72.84021547">
    <tag k="addr:city" v="Hancock"/>
    <tag k="addr:housenumber" v="999"/>
    <tag k="addr:street" v="Vermont Route 100"/>
    <tag k="addr:state" v="VT"/>
    <tag k="ref:vcgi:esiteid" v="118534"/>
  </node>
  <node id="-235" visible="true" lat="43.9231231" lon="-72.82596851">
    <tag k="addr:city" v="Hancock"/>
    <tag k="addr:housenumber" v="833"/>
    <tag k="addr:street" v="Churchville Road"/>
    <tag k="addr:state" v="VT"/>
    <tag k="ref:vcgi:esiteid" v="118535"/>
  </node>
  <node id="-236" visible="true" lat="43.92279754" lon="-72.84090378">
    <tag k="addr:city" v="Hancock"/>
    <tag k="addr:housenumber" v="976"/>
    <tag k="addr:street" v="Vermont Route 100"/>
    <tag k="addr:state" v="VT"/>
    <tag k="ref:vcgi:esiteid" v="118536"/>
  </node>
  <node id="-237" visible="true" lat="43.9221367" lon="-72.84004816">
    <tag k="addr:city" v="Hancock"/>
    <tag k="addr:housenumber" v="919"/>
    <tag k="addr:street" v="Vermont Route 100"/>
    <tag k="addr:state" v="VT"/>
    <tag k="ref:vcgi:esiteid" v="118537"/>
  </node>
  <node id="-238" visible="true" lat="43.92198414" lon="-72.83980468">
    <tag k="addr:city" v="Hancock"/>
    <tag k="addr:housenumber" v="907"/>
    <tag k="addr:street" v="Vermont Route 100"/>
    <tag k="addr:state" v="VT"/>
    <tag k="ref:vcgi:esiteid" v="118538"/>
  </node>
  <node id="-239" visible="true" lat="43.9219621" lon="-72.83092087">
    <tag k="addr:city" v="Hancock"/>
    <tag k="addr:housenumber" v="21"/>
    <tag k="addr:street" v="Isaacson Drive"/>
    <tag k="addr:state" v="VT"/>
    <tag k="ref:vcgi:esiteid" v="118539"/>
  </node>
  <node id="-240" visible="true" lat="43.92191385" lon="-72.84126751">
    <tag k="addr:city" v="Hancock"/>
    <tag k="addr:housenumber" v="894"/>
    <tag k="addr:street" v="Vermont Route 100"/>
    <tag k="addr:state" v="VT"/>
    <tag k="ref:vcgi:esiteid" v="118540"/>
  </node>
  <node id="-241" visible="true" lat="43.92163029" lon="-72.83997555">
    <tag k="addr:city" v="Hancock"/>
    <tag k="addr:housenumber" v="887"/>
    <tag k="addr:street" v="Vermont Route 100"/>
    <tag k="addr:state" v="VT"/>
    <tag k="ref:vcgi:esiteid" v="118541"/>
  </node>
  <node id="-242" visible="true" lat="43.9217321" lon="-72.83087905">
    <tag k="addr:city" v="Hancock"/>
    <tag k="addr:housenumber" v="27"/>
    <tag k="addr:street" v="Isaacson Drive"/>
    <tag k="addr:state" v="VT"/>
    <tag k="ref:vcgi:esiteid" v="118542"/>
  </node>
  <node id="-243" visible="true" lat="43.92159653" lon="-72.84043884">
    <tag k="addr:city" v="Hancock"/>
    <tag k="addr:housenumber" v="882"/>
    <tag k="addr:street" v="Vermont Route 100"/>
    <tag k="addr:state" v="VT"/>
    <tag k="ref:vcgi:esiteid" v="118543"/>
  </node>
  <node id="-244" visible="true" lat="43.9216676" lon="-72.83127865">
    <tag k="addr:city" v="Hancock"/>
    <tag k="addr:housenumber" v="45"/>
    <tag k="addr:street" v="Isaacson Drive"/>
    <tag k="addr:state" v="VT"/>
    <tag k="ref:vcgi:esiteid" v="118544"/>
  </node>
  <node id="-245" visible="true" lat="43.92141465" lon="-72.83865746">
    <tag k="addr:city" v="Hancock"/>
    <tag k="addr:housenumber" v="72"/>
    <tag k="addr:street" v="Virgin Avenue"/>
    <tag k="addr:state" v="VT"/>
    <tag k="ref:vcgi:esiteid" v="118545"/>
  </node>
  <node id="-246" visible="true" lat="43.92141864" lon="-72.83889544">
    <tag k="addr:city" v="Hancock"/>
    <tag k="addr:housenumber" v="58"/>
    <tag k="addr:street" v="Virgin Avenue"/>
    <tag k="addr:state" v="VT"/>
    <tag k="ref:vcgi:esiteid" v="118546"/>
  </node>
  <node id="-247" visible="true" lat="43.92134664" lon="-72.83909093">
    <tag k="addr:city" v="Hancock"/>
    <tag k="addr:housenumber" v="48"/>
    <tag k="addr:street" v="Virgin Avenue"/>
    <tag k="addr:state" v="VT"/>
    <tag k="ref:vcgi:esiteid" v="118547"/>
  </node>
  <node id="-248" visible="true" lat="43.92129403" lon="-72.83193871">
    <tag k="addr:city" v="Hancock"/>
    <tag k="addr:housenumber" v="80"/>
    <tag k="addr:street" v="Isaacson Drive"/>
    <tag k="addr:state" v="VT"/>
    <tag k="ref:vcgi:esiteid" v="118548"/>
  </node>
  <node id="-249" visible="true" lat="43.92132209" lon="-72.83931831">
    <tag k="addr:city" v="Hancock"/>
    <tag k="addr:housenumber" v="38"/>
    <tag k="addr:street" v="Virgin Avenue"/>
    <tag k="addr:state" v="VT"/>
    <tag k="ref:vcgi:esiteid" v="118549"/>
  </node>
  <node id="-250" visible="true" lat="43.92129522" lon="-72.83954682">
    <tag k="addr:city" v="Hancock"/>
    <tag k="addr:housenumber" v="26"/>
    <tag k="addr:street" v="Virgin Avenue"/>
    <tag k="addr:state" v="VT"/>
    <tag k="ref:vcgi:esiteid" v="118550"/>
  </node>
  <node id="-251" visible="true" lat="43.92133372" lon="-72.83989219">
    <tag k="addr:city" v="Hancock"/>
    <tag k="addr:housenumber" v="16"/>
    <tag k="addr:street" v="Virgin Avenue"/>
    <tag k="addr:state" v="VT"/>
    <tag k="ref:vcgi:esiteid" v="118551"/>
  </node>
  <node id="-252" visible="true" lat="43.92113924" lon="-72.83860038">
    <tag k="addr:city" v="Hancock"/>
    <tag k="addr:housenumber" v="69"/>
    <tag k="addr:street" v="Virgin Avenue"/>
    <tag k="addr:state" v="VT"/>
    <tag k="ref:vcgi:esiteid" v="118552"/>
  </node>
  <node id="-253" visible="true" lat="43.92111629" lon="-72.83881976">
    <tag k="addr:city" v="Hancock"/>
    <tag k="addr:housenumber" v="59"/>
    <tag k="addr:street" v="Virgin Avenue"/>
    <tag k="addr:state" v="VT"/>
    <tag k="ref:vcgi:esiteid" v="118553"/>
  </node>
  <node id="-254" visible="true" lat="43.92110542" lon="-72.83904676">
    <tag k="addr:city" v="Hancock"/>
    <tag k="addr:housenumber" v="49"/>
    <tag k="addr:street" v="Virgin Avenue"/>
    <tag k="addr:state" v="VT"/>
    <tag k="ref:vcgi:esiteid" v="118554"/>
  </node>
  <node id="-255" visible="true" lat="43.9210745" lon="-72.83926573">
    <tag k="addr:city" v="Hancock"/>
    <tag k="addr:housenumber" v="37"/>
    <tag k="addr:street" v="Virgin Avenue"/>
    <tag k="addr:state" v="VT"/>
    <tag k="ref:vcgi:esiteid" v="118555"/>
  </node>
  <node id="-256" visible="true" lat="43.92105601" lon="-72.83949201">
    <tag k="addr:city" v="Hancock"/>
    <tag k="addr:housenumber" v="27"/>
    <tag k="addr:street" v="Virgin Avenue"/>
    <tag k="addr:state" v="VT"/>
    <tag k="ref:vcgi:esiteid" v="118556"/>
  </node>
  <node id="-257" visible="true" lat="43.92083741" lon="-72.83853971">
    <tag k="addr:city" v="Hancock"/>
    <tag k="addr:housenumber" v="70"/>
    <tag k="addr:street" v="Recreation Drive"/>
    <tag k="addr:state" v="VT"/>
    <tag k="ref:vcgi:esiteid" v="118557"/>
  </node>
  <node id="-258" visible="true" lat="43.92078376" lon="-72.83900354">
    <tag k="addr:city" v="Hancock"/>
    <tag k="addr:housenumber" v="52"/>
    <tag k="addr:street" v="Recreation Drive"/>
    <tag k="addr:state" v="VT"/>
    <tag k="ref:vcgi:esiteid" v="118558"/>
  </node>
  <node id="-259" visible="true" lat="43.92065246" lon="-72.8408711">
    <tag k="addr:city" v="Hancock"/>
    <tag k="addr:housenumber" v="808"/>
    <tag k="addr:street" v="Vermont Route 100"/>
    <tag k="addr:state" v="VT"/>
    <tag k="ref:vcgi:esiteid" v="118559"/>
  </node>
  <node id="-260" visible="true" lat="43.9203949" lon="-72.83952332">
    <tag k="addr:city" v="Hancock"/>
    <tag k="addr:housenumber" v="21"/>
    <tag k="addr:street" v="Recreation Drive"/>
    <tag k="addr:state" v="VT"/>
    <tag k="ref:vcgi:esiteid" v="118560"/>
  </node>
  <node id="-261" visible="true" lat="43.92004211" lon="-72.83899395">
    <tag k="addr:city" v="Hancock"/>
    <tag k="addr:housenumber" v="45"/>
    <tag k="addr:street" v="Recreation Drive"/>
    <tag k="addr:state" v="VT"/>
    <tag k="ref:vcgi:esiteid" v="118561"/>
  </node>
  <node id="-262" visible="true" lat="43.91979221" lon="-72.83580461">
    <tag k="addr:city" v="Hancock"/>
    <tag k="addr:housenumber" v="241"/>
    <tag k="addr:street" v="Churchville Road"/>
    <tag k="addr:state" v="VT"/>
    <tag k="ref:vcgi:esiteid" v="118562"/>
  </node>
  <node id="-263" visible="true" lat="43.9198818" lon="-72.83674242">
    <tag k="addr:city" v="Hancock"/>
    <tag k="addr:housenumber" v="222"/>
    <tag k="addr:street" v="Churchville Road"/>
    <tag k="addr:state" v="VT"/>
    <tag k="ref:vcgi:esiteid" v="118563"/>
  </node>
  <node id="-264" visible="true" lat="43.91929951" lon="-72.83715149">
    <tag k="addr:city" v="Hancock"/>
    <tag k="addr:housenumber" v="183"/>
    <tag k="addr:street" v="Churchville Road"/>
    <tag k="addr:state" v="VT"/>
    <tag k="ref:vcgi:esiteid" v="118564"/>
  </node>
  <node id="-266" visible="true" lat="43.91919327" lon="-72.83773041">
    <tag k="addr:city" v="Hancock"/>
    <tag k="addr:housenumber" v="154"/>
    <tag k="addr:street" v="Churchville Road"/>
    <tag k="addr:state" v="VT"/>
    <tag k="ref:vcgi:esiteid" v="118566"/>
  </node>
  <node id="-267" visible="true" lat="43.91909162" lon="-72.83733271">
    <tag k="addr:city" v="Hancock"/>
    <tag k="addr:housenumber" v="159"/>
    <tag k="addr:street" v="Churchville Road"/>
    <tag k="addr:state" v="VT"/>
    <tag k="ref:vcgi:esiteid" v="118567"/>
  </node>
  <node id="-268" visible="true" lat="43.91906596" lon="-72.83804057">
    <tag k="addr:city" v="Hancock"/>
    <tag k="addr:housenumber" v="132"/>
    <tag k="addr:street" v="Churchville Road"/>
    <tag k="addr:state" v="VT"/>
    <tag k="ref:vcgi:esiteid" v="118568"/>
  </node>
  <node id="-269" visible="true" lat="43.91880489" lon="-72.83765946">
    <tag k="addr:city" v="Hancock"/>
    <tag k="addr:housenumber" v="141"/>
    <tag k="addr:street" v="Churchville Road"/>
    <tag k="addr:state" v="VT"/>
    <tag k="ref:vcgi:esiteid" v="118569"/>
  </node>
  <node id="-270" visible="true" lat="43.9186592" lon="-72.83808502">
    <tag k="addr:city" v="Hancock"/>
    <tag k="addr:housenumber" v="109"/>
    <tag k="addr:street" v="Churchville Road"/>
    <tag k="addr:state" v="VT"/>
    <tag k="ref:vcgi:esiteid" v="118570"/>
  </node>
  <node id="-271" visible="true" lat="43.91864691" lon="-72.83857208">
    <tag k="addr:city" v="Hancock"/>
    <tag k="addr:housenumber" v="96"/>
    <tag k="addr:street" v="Churchville Road"/>
    <tag k="addr:state" v="VT"/>
    <tag k="ref:vcgi:esiteid" v="118571"/>
  </node>
  <node id="-272" visible="true" lat="43.91827901" lon="-72.83822623">
    <tag k="addr:city" v="Hancock"/>
    <tag k="addr:housenumber" v="16"/>
    <tag k="addr:street" v="Bettis Road"/>
    <tag k="addr:state" v="VT"/>
    <tag k="ref:vcgi:esiteid" v="118572"/>
  </node>
  <node id="-273" visible="true" lat="43.91781523" lon="-72.83860618">
    <tag k="addr:city" v="Hancock"/>
    <tag k="addr:housenumber" v="35"/>
    <tag k="addr:street" v="Bettis Road"/>
    <tag k="addr:state" v="VT"/>
    <tag k="ref:vcgi:esiteid" v="118574"/>
  </node>
  <node id="-275" visible="true" lat="43.91631742" lon="-72.84013924">
    <tag k="addr:city" v="Hancock"/>
    <tag k="addr:housenumber" v="513"/>
    <tag k="addr:street" v="Vermont Route 100"/>
    <tag k="addr:state" v="VT"/>
    <tag k="ref:vcgi:esiteid" v="118576"/>
  </node>
  <node id="-276" visible="true" lat="43.91581192" lon="-72.84026929">
    <tag k="addr:city" v="Hancock"/>
    <tag k="addr:housenumber" v="475"/>
    <tag k="addr:street" v="Vermont Route 100"/>
    <tag k="addr:state" v="VT"/>
    <tag k="ref:vcgi:esiteid" v="118577"/>
  </node>
  <node id="-277" visible="true" lat="43.91536077" lon="-72.83945615">
    <tag k="addr:city" v="Hancock"/>
    <tag k="addr:housenumber" v="407"/>
    <tag k="addr:street" v="Vermont Route 100"/>
    <tag k="addr:state" v="VT"/>
    <tag k="ref:vcgi:esiteid" v="118578"/>
  </node>
  <node id="-278" visible="true" lat="43.91483212" lon="-72.83810674">
    <tag k="addr:city" v="Hancock"/>
    <tag k="addr:housenumber" v="327"/>
    <tag k="addr:street" v="Vermont Route 100"/>
    <tag k="addr:state" v="VT"/>
    <tag k="ref:vcgi:esiteid" v="118579"/>
  </node>
  <node id="-279" visible="true" lat="43.91390539" lon="-72.83337127">
    <tag k="addr:city" v="Hancock"/>
    <tag k="addr:housenumber" v="432"/>
    <tag k="addr:street" v="Bettis Road"/>
    <tag k="addr:state" v="VT"/>
    <tag k="ref:vcgi:esiteid" v="118580"/>
  </node>
  <node id="-280" visible="true" lat="43.91417703" lon="-72.83380418">
    <tag k="addr:city" v="Hancock"/>
    <tag k="addr:housenumber" v="418"/>
    <tag k="addr:street" v="Bettis Road"/>
    <tag k="addr:state" v="VT"/>
    <tag k="ref:vcgi:esiteid" v="118581"/>
  </node>
  <node id="-281" visible="true" lat="43.91406306" lon="-72.83751228">
    <tag k="addr:city" v="Hancock"/>
    <tag k="addr:housenumber" v="265"/>
    <tag k="addr:street" v="Vermont Route 100"/>
    <tag k="addr:state" v="VT"/>
    <tag k="ref:vcgi:esiteid" v="118582"/>
  </node>
  <node id="-282" visible="true" lat="43.9139805" lon="-72.83630261">
    <tag k="addr:city" v="Hancock"/>
    <tag k="addr:housenumber" v="223"/>
    <tag k="addr:street" v="Vermont Route 100"/>
    <tag k="addr:state" v="VT"/>
    <tag k="ref:vcgi:esiteid" v="118583"/>
  </node>
  <node id="-283" visible="true" lat="43.91374553" lon="-72.8364039">
    <tag k="addr:city" v="Hancock"/>
    <tag k="addr:housenumber" v="227"/>
    <tag k="addr:street" v="Vermont Route 100"/>
    <tag k="addr:state" v="VT"/>
    <tag k="ref:vcgi:esiteid" v="118584"/>
  </node>
  <node id="-284" visible="true" lat="43.9137876" lon="-72.83988906">
    <tag k="addr:city" v="Hancock"/>
    <tag k="addr:housenumber" v="72"/>
    <tag k="addr:street" v="Tunnel Brook Road"/>
    <tag k="addr:state" v="VT"/>
    <tag k="ref:vcgi:esiteid" v="118585"/>
  </node>
  <node id="-285" visible="true" lat="43.91360276" lon="-72.83771211">
    <tag k="addr:city" v="Hancock"/>
    <tag k="addr:housenumber" v="262"/>
    <tag k="addr:street" v="Vermont Route 100"/>
    <tag k="addr:state" v="VT"/>
    <tag k="ref:vcgi:esiteid" v="118586"/>
  </node>
  <node id="-287" visible="true" lat="43.91370233" lon="-72.84069759">
    <tag k="addr:city" v="Hancock"/>
    <tag k="addr:housenumber" v="91"/>
    <tag k="addr:street" v="Tunnel Brook Road"/>
    <tag k="addr:state" v="VT"/>
    <tag k="ref:vcgi:esiteid" v="118588"/>
  </node>
  <node id="-288" visible="true" lat="43.91375104" lon="-72.83583789">
    <tag k="addr:city" v="Hancock"/>
    <tag k="addr:housenumber" v="175"/>
    <tag k="addr:street" v="Vermont Route 100"/>
    <tag k="addr:state" v="VT"/>
    <tag k="ref:vcgi:esiteid" v="118590"/>
  </node>
  <node id="-289" visible="true" lat="43.91352019" lon="-72.83962891">
    <tag k="addr:city" v="Hancock"/>
    <tag k="addr:housenumber" v="342"/>
    <tag k="addr:street" v="Vermont Route 100"/>
    <tag k="addr:state" v="VT"/>
    <tag k="ref:vcgi:esiteid" v="118591"/>
  </node>
  <node id="-290" visible="true" lat="43.91258523" lon="-72.83555848">
    <tag k="addr:city" v="Hancock"/>
    <tag k="addr:housenumber" v="134"/>
    <tag k="addr:street" v="Vermont Route 100"/>
    <tag k="addr:state" v="VT"/>
    <tag k="ref:vcgi:esiteid" v="118592"/>
  </node>
  <node id="-291" visible="true" lat="43.91245962" lon="-72.84117714">
    <tag k="addr:city" v="Hancock"/>
    <tag k="addr:housenumber" v="163"/>
    <tag k="addr:street" v="Tunnel Brook Road"/>
    <tag k="addr:state" v="VT"/>
    <tag k="ref:vcgi:esiteid" v="118593"/>
  </node>
  <node id="-292" visible="true" lat="43.91197762" lon="-72.84054979">
    <tag k="addr:city" v="Hancock"/>
    <tag k="addr:housenumber" v="203"/>
    <tag k="addr:street" v="Tunnel Brook Road"/>
    <tag k="addr:state" v="VT"/>
    <tag k="ref:vcgi:esiteid" v="118594"/>
  </node>
  <node id="-293" visible="true" lat="43.92050661" lon="-72.83671682">
    <tag k="addr:city" v="Hancock"/>
    <tag k="addr:housenumber" v="242"/>
    <tag k="addr:street" v="Churchville Road"/>
    <tag k="addr:state" v="VT"/>
    <tag k="ref:vcgi:esiteid" v="118596"/>
  </node>
  <node id="-294" visible="true" lat="43.92767963" lon="-72.85252276">
    <tag k="addr:city" v="Hancock"/>
    <tag k="addr:housenumber" v="595"/>
    <tag k="addr:street" v="Vermont Route 125"/>
    <tag k="addr:state" v="VT"/>
    <tag k="ref:vcgi:esiteid" v="118597"/>
  </node>
  <node id="-295" visible="true" lat="43.92608019" lon="-72.85615443">
    <tag k="addr:city" v="Hancock"/>
    <tag k="addr:housenumber" v="799"/>
    <tag k="addr:street" v="Vermont Route 125"/>
    <tag k="addr:state" v="VT"/>
    <tag k="ref:vcgi:esiteid" v="118598"/>
  </node>
  <node id="-296" visible="true" lat="43.92566462" lon="-72.85668053">
    <tag k="addr:city" v="Hancock"/>
    <tag k="addr:housenumber" v="829"/>
    <tag k="addr:street" v="Vermont Route 125"/>
    <tag k="addr:state" v="VT"/>
    <tag k="ref:vcgi:esiteid" v="118599"/>
  </node>
  <node id="-297" visible="true" lat="43.92659347" lon="-72.85810172">
    <tag k="addr:city" v="Hancock"/>
    <tag k="addr:housenumber" v="797"/>
    <tag k="addr:street" v="Vermont Route 125"/>
    <tag k="addr:state" v="VT"/>
    <tag k="ref:vcgi:esiteid" v="118600"/>
  </node>
  <node id="-298" visible="true" lat="43.93632443" lon="-72.85201045">
    <tag k="addr:city" v="Hancock"/>
    <tag k="addr:housenumber" v="952"/>
    <tag k="addr:street" v="Windigo Road Extension"/>
    <tag k="addr:state" v="VT"/>
    <tag k="ref:vcgi:esiteid" v="118601"/>
  </node>
  <node id="-299" visible="true" lat="43.92720835" lon="-72.87245725">
    <tag k="addr:city" v="Hancock"/>
    <tag k="addr:housenumber" v="1659"/>
    <tag k="addr:street" v="Vermont Route 125"/>
    <tag k="addr:state" v="VT"/>
    <tag k="ref:vcgi:esiteid" v="118602"/>
  </node>
  <node id="-300" visible="true" lat="43.91892702" lon="-72.83842667">
    <tag k="addr:city" v="Hancock"/>
    <tag k="addr:housenumber" v="98"/>
    <tag k="addr:street" v="Churchville Road"/>
    <tag k="addr:state" v="VT"/>
    <tag k="ref:vcgi:esiteid" v="118604"/>
  </node>
  <node id="-301" visible="true" lat="43.92977045" lon="-72.88936228">
    <tag k="addr:city" v="Hancock"/>
    <tag k="addr:housenumber" v="250"/>
    <tag k="addr:street" v="Fassett Hill Road"/>
    <tag k="addr:state" v="VT"/>
    <tag k="ref:vcgi:esiteid" v="118605"/>
  </node>
  <node id="-302" visible="true" lat="43.91285893" lon="-72.84075658">
    <tag k="addr:city" v="Hancock"/>
    <tag k="addr:housenumber" v="121"/>
    <tag k="addr:street" v="Tunnel Brook Road"/>
    <tag k="addr:state" v="VT"/>
    <tag k="ref:vcgi:esiteid" v="118606"/>
  </node>
  <node id="-303" visible="true" lat="43.92833061" lon="-72.901341">
    <tag k="addr:city" v="Hancock"/>
    <tag k="addr:housenumber" v="3142"/>
    <tag k="addr:street" v="Vermont Route 125"/>
    <tag k="addr:state" v="VT"/>
    <tag k="ref:vcgi:esiteid" v="118607"/>
  </node>
  <node id="-304" visible="true" lat="43.92959004" lon="-72.90136862">
    <tag k="addr:city" v="Hancock"/>
    <tag k="addr:housenumber" v="3021"/>
    <tag k="addr:street" v="Vermont Route 125"/>
    <tag k="addr:state" v="VT"/>
    <tag k="ref:vcgi:esiteid" v="118608"/>
  </node>
  <node id="-305" visible="true" lat="43.92809018" lon="-72.90591305">
    <tag k="addr:city" v="Hancock"/>
    <tag k="addr:housenumber" v="3421"/>
    <tag k="addr:street" v="Vermont Route 125"/>
    <tag k="addr:state" v="VT"/>
    <tag k="ref:vcgi:esiteid" v="118609"/>
  </node>
  <node id="-306" visible="true" lat="43.92574962" lon="-72.83041341">
    <tag k="addr:city" v="Hancock"/>
    <tag k="addr:housenumber" v="732"/>
    <tag k="addr:street" v="Churchville Road"/>
    <tag k="addr:state" v="VT"/>
    <tag k="ref:vcgi:esiteid" v="118610"/>
  </node>
  <node id="-307" visible="true" lat="43.93602609" lon="-72.89414652">
    <tag k="addr:city" v="Hancock"/>
    <tag k="addr:housenumber" v="838"/>
    <tag k="addr:street" v="Fassett Hill Road"/>
    <tag k="addr:state" v="VT"/>
    <tag k="ref:vcgi:esiteid" v="118611"/>
  </node>
  <node id="-308" visible="true" lat="43.92743545" lon="-72.88660194">
    <tag k="addr:city" v="Hancock"/>
    <tag k="addr:housenumber" v="2370"/>
    <tag k="addr:street" v="Piper Brook"/>
    <tag k="addr:state" v="VT"/>
    <tag k="ref:vcgi:esiteid" v="118612"/>
  </node>
  <node id="-309" visible="true" lat="43.92610418" lon="-72.87525126">
    <tag k="addr:city" v="Hancock"/>
    <tag k="addr:housenumber" v="1628"/>
    <tag k="addr:street" v="Vermont Route 125"/>
    <tag k="addr:state" v="VT"/>
    <tag k="ref:vcgi:esiteid" v="118613"/>
  </node>
  <node id="-310" visible="true" lat="43.92834773" lon="-72.86833819">
    <tag k="addr:city" v="Hancock"/>
    <tag k="addr:housenumber" v="1435"/>
    <tag k="addr:street" v="Vermont Route 125"/>
    <tag k="addr:state" v="VT"/>
    <tag k="ref:vcgi:esiteid" v="118614"/>
  </node>
  <node id="-311" visible="true" lat="43.92964915" lon="-72.84492467">
    <tag k="addr:city" v="Hancock"/>
    <tag k="addr:housenumber" v="321"/>
    <tag k="addr:street" v="Blair Hill"/>
    <tag k="addr:state" v="VT"/>
    <tag k="ref:vcgi:esiteid" v="118615"/>
  </node>
  <node id="-312" visible="true" lat="43.9312177" lon="-72.8447433">
    <tag k="addr:city" v="Hancock"/>
    <tag k="addr:housenumber" v="351"/>
    <tag k="addr:street" v="Blair Hill"/>
    <tag k="addr:state" v="VT"/>
    <tag k="ref:vcgi:esiteid" v="118616"/>
  </node>
  <node id="-313" visible="true" lat="43.92241115" lon="-72.83846518">
    <tag k="addr:city" v="Hancock"/>
    <tag k="addr:housenumber" v="85"/>
    <tag k="addr:street" v="Taylor Meadows"/>
    <tag k="addr:state" v="VT"/>
    <tag k="ref:vcgi:esiteid" v="118617"/>
  </node>
  <node id="-314" visible="true" lat="43.92260281" lon="-72.83851169">
    <tag k="addr:city" v="Hancock"/>
    <tag k="addr:housenumber" v="99"/>
    <tag k="addr:street" v="Taylor Meadows"/>
    <tag k="addr:state" v="VT"/>
    <tag k="ref:vcgi:esiteid" v="118618"/>
  </node>
  <node id="-315" visible="true" lat="43.92293612" lon="-72.83850611">
    <tag k="addr:city" v="Hancock"/>
    <tag k="addr:housenumber" v="121"/>
    <tag k="addr:street" v="Taylor Meadows"/>
    <tag k="addr:state" v="VT"/>
    <tag k="ref:vcgi:esiteid" v="118619"/>
  </node>
  <node id="-316" visible="true" lat="43.92315146" lon="-72.83860375">
    <tag k="addr:city" v="Hancock"/>
    <tag k="addr:housenumber" v="137"/>
    <tag k="addr:street" v="Taylor Meadows"/>
    <tag k="addr:state" v="VT"/>
    <tag k="ref:vcgi:esiteid" v="118620"/>
  </node>
  <node id="-317" visible="true" lat="43.9234193" lon="-72.83862685">
    <tag k="addr:city" v="Hancock"/>
    <tag k="addr:housenumber" v="155"/>
    <tag k="addr:street" v="Taylor Meadows"/>
    <tag k="addr:state" v="VT"/>
    <tag k="ref:vcgi:esiteid" v="118621"/>
  </node>
  <node id="-318" visible="true" lat="43.93644748" lon="-72.84356968">
    <tag k="addr:city" v="Hancock"/>
    <tag k="addr:housenumber" v="1966"/>
    <tag k="addr:street" v="Vermont Route 100"/>
    <tag k="addr:state" v="VT"/>
    <tag k="ref:vcgi:esiteid" v="118622"/>
  </node>
  <node id="-319" visible="true" lat="43.93746994" lon="-72.90513653">
    <tag k="addr:city" v="Hancock"/>
    <tag k="addr:housenumber" v="600"/>
    <tag k="addr:street" v="Texas Falls Road"/>
    <tag k="addr:state" v="VT"/>
    <tag k="ref:vcgi:esiteid" v="118623"/>
  </node>
  <node id="-320" visible="true" lat="43.91408579" lon="-72.83711501">
    <tag k="addr:city" v="Hancock"/>
    <tag k="addr:housenumber" v="253"/>
    <tag k="addr:street" v="Vermont Route 100"/>
    <tag k="addr:state" v="VT"/>
    <tag k="ref:vcgi:esiteid" v="118624"/>
  </node>
  <node id="-321" visible="true" lat="43.94393989" lon="-72.84207018">
    <tag k="addr:city" v="Hancock"/>
    <tag k="addr:housenumber" v="2370"/>
    <tag k="addr:street" v="Vermont Route 100"/>
    <tag k="addr:state" v="VT"/>
    <tag k="ref:vcgi:esiteid" v="118625"/>
  </node>
  <node id="-322" visible="true" lat="43.87781335" lon="-72.85696693">
    <tag k="addr:city" v="Hancock"/>
    <tag k="addr:housenumber" v="2325"/>
    <tag k="addr:street" v="Maple Hill"/>
    <tag k="addr:state" v="VT"/>
    <tag k="ref:vcgi:esiteid" v="202969"/>
  </node>
  <node id="-323" visible="true" lat="43.92707623" lon="-72.90972069">
    <tag k="addr:city" v="Hancock"/>
    <tag k="addr:housenumber" v="3588"/>
    <tag k="addr:street" v="Vermont Route 125"/>
    <tag k="addr:state" v="VT"/>
    <tag k="ref:vcgi:esiteid" v="306914"/>
  </node>
  <node id="-324" visible="true" lat="43.91813715" lon="-72.83787234">
    <tag k="addr:city" v="Hancock"/>
    <tag k="addr:housenumber" v="58"/>
    <tag k="addr:street" v="Bettis Road"/>
    <tag k="addr:state" v="VT"/>
    <tag k="ref:vcgi:esiteid" v="306915"/>
  </node>
  <node id="-325" visible="true" lat="43.91731685" lon="-72.84051948">
    <tag k="addr:city" v="Hancock"/>
    <tag k="addr:housenumber" v="589"/>
    <tag k="addr:street" v="Vermont Route 100"/>
    <tag k="addr:state" v="VT"/>
    <tag k="ref:vcgi:esiteid" v="315999"/>
  </node>
  <node id="-326" visible="true" lat="43.91438485" lon="-72.83499943">
    <tag k="addr:city" v="Hancock"/>
    <tag k="addr:housenumber" v="360"/>
    <tag k="addr:street" v="Bettis Road"/>
    <tag k="addr:state" v="VT"/>
    <tag k="ref:vcgi:esiteid" v="316000"/>
  </node>
  <node id="-327" visible="true" lat="43.876505" lon="-72.86085143">
    <tag k="addr:city" v="Hancock"/>
    <tag k="addr:housenumber" v="2303"/>
    <tag k="addr:street" v="Maple Hill"/>
    <tag k="addr:state" v="VT"/>
    <tag k="ref:vcgi:esiteid" v="316001"/>
  </node>
  <node id="-329" visible="true" lat="43.93434131" lon="-72.89413198">
    <tag k="addr:city" v="Hancock"/>
    <tag k="addr:housenumber" v="788"/>
    <tag k="addr:street" v="Fassett Hill Road"/>
    <tag k="addr:state" v="VT"/>
    <tag k="ref:vcgi:esiteid" v="329211"/>
  </node>
  <node id="-330" visible="true" lat="43.93150828" lon="-72.8703198">
    <tag k="addr:city" v="Hancock"/>
    <tag k="addr:housenumber" v="309"/>
    <tag k="addr:street" v="Shampeny Hill Road"/>
    <tag k="addr:state" v="VT"/>
    <tag k="ref:vcgi:esiteid" v="329212"/>
  </node>
  <node id="-331" visible="true" lat="43.92270912" lon="-72.83932729">
    <tag k="addr:city" v="Hancock"/>
    <tag k="addr:housenumber" v="50"/>
    <tag k="addr:street" v="Taylor Meadows"/>
    <tag k="addr:state" v="VT"/>
    <tag k="ref:vcgi:esiteid" v="336542"/>
  </node>
  <node id="-336" visible="true" lat="43.92007485" lon="-72.83642774">
    <tag k="addr:city" v="Hancock"/>
    <tag k="addr:housenumber" v="246"/>
    <tag k="addr:street" v="Churchville Road"/>
    <tag k="addr:state" v="VT"/>
    <tag k="ref:vcgi:esiteid" v="344086"/>
  </node>
  <node id="-337" visible="true" lat="43.94026212" lon="-72.89357614">
    <tag k="addr:city" v="Hancock"/>
    <tag k="addr:housenumber" v="1141"/>
    <tag k="addr:street" v="Fassett Hill Road"/>
    <tag k="addr:state" v="VT"/>
    <tag k="ref:vcgi:esiteid" v="344100"/>
  </node>
  <node id="-338" visible="true" lat="43.93680414" lon="-72.95013876">
    <tag k="addr:city" v="Hancock"/>
    <tag k="addr:housenumber" v="6148"/>
    <tag k="addr:street" v="Vermont Route 125"/>
    <tag k="addr:state" v="VT"/>
    <tag k="ref:vcgi:esiteid" v="450388"/>
  </node>
  <node id="-339" visible="true" lat="43.94146203" lon="-72.9578433">
    <tag k="addr:city" v="Hancock"/>
    <tag k="addr:housenumber" v="6695"/>
    <tag k="addr:street" v="Vermont Route 125"/>
    <tag k="addr:state" v="VT"/>
    <tag k="ref:vcgi:esiteid" v="450390"/>
  </node>
  <node id="-340" visible="true" lat="43.97104248" lon="-72.94430622">
    <tag k="addr:city" v="Hancock"/>
    <tag k="addr:housenumber" v="1074"/>
    <tag k="addr:street" v="Steam Mill Road"/>
    <tag k="addr:state" v="VT"/>
    <tag k="ref:vcgi:esiteid" v="450394"/>
  </node>
  <node id="-341" visible="true" lat="43.92777619" lon="-72.9016557">
    <tag k="addr:city" v="Hancock"/>
    <tag k="addr:housenumber" v="39"/>
    <tag k="addr:street" v="Boyden Brook Road"/>
    <tag k="addr:state" v="VT"/>
    <tag k="ref:vcgi:esiteid" v="450405"/>
  </node>
  <node id="-342" visible="true" lat="43.93539784" lon="-72.90192256">
    <tag k="addr:city" v="Hancock"/>
    <tag k="addr:housenumber" v="471"/>
    <tag k="addr:street" v="Texas Falls Road"/>
    <tag k="addr:state" v="VT"/>
    <tag k="ref:vcgi:esiteid" v="450407"/>
  </node>
  <node id="-343" visible="true" lat="43.93560363" lon="-72.84211523">
    <tag k="addr:city" v="Hancock"/>
    <tag k="addr:housenumber" v="1863"/>
    <tag k="addr:street" v="Vermont Route 100"/>
    <tag k="addr:state" v="VT"/>
    <tag k="ref:vcgi:esiteid" v="450409"/>
  </node>
  <node id="-344" visible="true" lat="43.90255552" lon="-72.98410138">
    <tag k="addr:city" v="Hancock"/>
    <tag k="addr:housenumber" v="3770"/>
    <tag k="addr:street" v="Brooks Road"/>
    <tag k="addr:state" v="VT"/>
    <tag k="ref:vcgi:esiteid" v="450411"/>
  </node>
  <node id="-345" visible="true" lat="43.88357064" lon="-72.93513905">
    <tag k="addr:city" v="Hancock"/>
    <tag k="addr:housenumber" v="166"/>
    <tag k="addr:street" v="Bingo Road"/>
    <tag k="addr:state" v="VT"/>
    <tag k="ref:vcgi:esiteid" v="451288"/>
  </node>
  <node id="-346" visible="true" lat="43.88485514" lon="-72.93886518">
    <tag k="addr:city" v="Hancock"/>
    <tag k="addr:housenumber" v="379"/>
    <tag k="addr:street" v="Bingo Road"/>
    <tag k="addr:state" v="VT"/>
    <tag k="ref:vcgi:esiteid" v="451289"/>
  </node>
  <node id="-347" visible="true" lat="43.88623807" lon="-72.94250402">
    <tag k="addr:city" v="Hancock"/>
    <tag k="addr:housenumber" v="592"/>
    <tag k="addr:street" v="Bingo Road"/>
    <tag k="addr:state" v="VT"/>
    <tag k="ref:vcgi:esiteid" v="451290"/>
  </node>
  <node id="-348" visible="true" lat="43.88470484" lon="-72.93776717">
    <tag k="addr:city" v="Hancock"/>
    <tag k="addr:housenumber" v="16"/>
    <tag k="addr:street" v="National Forest Road 42e"/>
    <tag k="addr:state" v="VT"/>
    <tag k="ref:vcgi:esiteid" v="451291"/>
  </node>
  <node id="-349" visible="true" lat="43.9269264" lon="-72.91512891">
    <tag k="addr:city" v="Hancock"/>
    <tag k="addr:housenumber" v="3858"/>
    <tag k="addr:street" v="Vermont Route 125"/>
    <tag k="addr:state" v="VT"/>
    <tag k="ref:vcgi:esiteid" v="454810"/>
  </node>
  <node id="-350" visible="true" lat="43.92789116" lon="-72.90391886">
    <tag k="addr:city" v="Hancock"/>
    <tag k="addr:housenumber" v="3291"/>
    <tag k="addr:street" v="Vermont Route 125"/>
    <tag k="addr:state" v="VT"/>
    <tag k="ref:vcgi:esiteid" v="454811"/>
  </node>
  <node id="-351" visible="true" lat="43.92934747" lon="-72.89499614">
    <tag k="addr:city" v="Hancock"/>
    <tag k="addr:housenumber" v="2827"/>
    <tag k="addr:street" v="Vermont Route 125"/>
    <tag k="addr:state" v="VT"/>
    <tag k="ref:vcgi:esiteid" v="454812"/>
  </node>
  <node id="-352" visible="true" lat="43.9278801" lon="-72.88643623">
    <tag k="addr:city" v="Hancock"/>
    <tag k="addr:housenumber" v="2389"/>
    <tag k="addr:street" v="Vermont Route 125"/>
    <tag k="addr:state" v="VT"/>
    <tag k="ref:vcgi:esiteid" v="454813"/>
  </node>
  <node id="-353" visible="true" lat="43.92629241" lon="-72.84241743">
    <tag k="addr:city" v="Hancock"/>
    <tag k="addr:housenumber" v="64"/>
    <tag k="addr:street" v="Vermont Route 125"/>
    <tag k="addr:state" v="VT"/>
    <tag k="ref:vcgi:esiteid" v="454814"/>
  </node>
  <node id="-354" visible="true" lat="43.93663352" lon="-72.8427645">
    <tag k="addr:city" v="Hancock"/>
    <tag k="addr:housenumber" v="1940"/>
    <tag k="addr:street" v="Vermont Route 100"/>
    <tag k="addr:state" v="VT"/>
    <tag k="ref:vcgi:esiteid" v="454815"/>
  </node>
  <node id="-355" visible="true" lat="43.92057563" lon="-72.83990621">
    <tag k="addr:city" v="Hancock"/>
    <tag k="addr:housenumber" v="815"/>
    <tag k="addr:street" v="Vermont Route 100"/>
    <tag k="addr:state" v="VT"/>
    <tag k="ref:vcgi:esiteid" v="454821"/>
  </node>
  <node id="-356" visible="true" lat="43.9268484" lon="-72.87426155">
    <tag k="addr:city" v="Hancock"/>
    <tag k="addr:housenumber" v="1771"/>
    <tag k="addr:street" v="Vermont Route 125"/>
    <tag k="addr:state" v="VT"/>
    <tag k="ref:vcgi:esiteid" v="455102"/>
  </node>
  <node id="-357" visible="true" lat="43.92629824" lon="-72.85534209">
    <tag k="addr:city" v="Hancock"/>
    <tag k="addr:housenumber" v="759"/>
    <tag k="addr:street" v="Vermont Route 125"/>
    <tag k="addr:state" v="VT"/>
    <tag k="ref:vcgi:esiteid" v="455104"/>
  </node>
  <node id="-358" visible="true" lat="43.94047891" lon="-72.9609101">
    <tag k="addr:city" v="Hancock"/>
    <tag k="addr:housenumber" v="6884"/>
    <tag k="addr:street" v="Vermont Route 125"/>
    <tag k="addr:state" v="VT"/>
    <tag k="ref:vcgi:esiteid" v="455331"/>
  </node>
  <node id="-359" visible="true" lat="43.92784396" lon="-72.88338595">
    <tag k="addr:city" v="Hancock"/>
    <tag k="addr:housenumber" v="2233"/>
    <tag k="addr:street" v="Vermont Route 125"/>
    <tag k="addr:state" v="VT"/>
    <tag k="ref:vcgi:esiteid" v="760981"/>
  </node>
  <node id="-360" visible="true" lat="43.92797979" lon="-72.96176183">
    <tag k="addr:city" v="Hancock"/>
    <tag k="addr:housenumber" v="6888"/>
    <tag k="addr:street" v="Vermont Route 125"/>
    <tag k="addr:state" v="VT"/>
    <tag k="ref:vcgi:esiteid" v="761965"/>
  </node>
  <node id="-361" visible="true" lat="43.93968129" lon="-72.95769945">
    <tag k="addr:city" v="Hancock"/>
    <tag k="addr:housenumber" v="6880"/>
    <tag k="addr:street" v="Vermont Route 125"/>
    <tag k="addr:state" v="VT"/>
    <tag k="ref:vcgi:esiteid" v="1050405"/>
  </node>
  <node id="-362" visible="true" lat="43.91333" lon="-72.83683">
    <tag k="addr:city" v="Hancock"/>
    <tag k="addr:housenumber" v="218"/>
    <tag k="addr:street" v="Vermont Route 100"/>
    <tag k="addr:state" v="VT"/>
    <tag k="ref:vcgi:esiteid" v="1050438"/>
  </node>
  <node id="-363" visible="true" lat="43.92017" lon="-72.8395">
    <tag k="addr:city" v="Hancock"/>
    <tag k="addr:housenumber" v="783"/>
    <tag k="addr:street" v="Vermont Route 100"/>
    <tag k="addr:state" v="VT"/>
    <tag k="ref:vcgi:esiteid" v="1050439"/>
  </node>
  <node id="-364" visible="true" lat="43.92620044" lon="-72.84108795">
    <tag k="addr:city" v="Hancock"/>
    <tag k="addr:housenumber" v="1205"/>
    <tag k="addr:street" v="Vermont Route 100"/>
    <tag k="addr:state" v="VT"/>
    <tag k="ref:vcgi:esiteid" v="1050440"/>
  </node>
  <node id="-365" visible="true" lat="43.92452552" lon="-72.84004745">
    <tag k="addr:city" v="Hancock"/>
    <tag k="addr:housenumber" v="1083"/>
    <tag k="addr:street" v="Vermont Route 100"/>
    <tag k="addr:state" v="VT"/>
    <tag k="ref:vcgi:esiteid" v="1050441"/>
  </node>
  <node id="-367" visible="true" lat="43.93561805" lon="-72.82002411">
    <tag k="addr:city" v="Hancock"/>
    <tag k="addr:housenumber" v="950"/>
    <tag k="addr:street" v="Buttles Road"/>
    <tag k="addr:state" v="VT"/>
    <tag k="ref:vcgi:esiteid" v="1051475"/>
  </node>
  <node id="-368" visible="true" lat="43.93579896" lon="-72.8197107">
    <tag k="addr:city" v="Hancock"/>
    <tag k="addr:housenumber" v="964"/>
    <tag k="addr:street" v="Buttles Road"/>
    <tag k="addr:state" v="VT"/>
    <tag k="ref:vcgi:esiteid" v="1051476"/>
  </node>
  <node id="-375" visible="true" lat="43.87524562" lon="-72.85671845">
    <tag k="addr:city" v="Hancock"/>
    <tag k="addr:housenumber" v="2377"/>
    <tag k="addr:street" v="Maple Hill"/>
    <tag k="addr:state" v="VT"/>
    <tag k="ref:vcgi:esiteid" v="1051724"/>
  </node>
  <node id="-378" visible="true" lat="43.94423344" lon="-72.894184">
    <tag k="addr:city" v="Hancock"/>
    <tag k="addr:housenumber" v="1431"/>
    <tag k="addr:street" v="Fassett Hill Road"/>
    <tag k="addr:state" v="VT"/>
    <tag k="ref:vcgi:esiteid" v="1052549"/>
  </node>
</osm>
