<?xml version="1.0" encoding="UTF-8"?>
<osm version="0.6" generator="JOSM">
  <node id="-378" visible="true" lat="43.69389866" lon="-72.39640725">
    <!-- multiple: "406 Rays Way, Hartford, VT" Multiple exact matches in OSM. -->
    <tag k="addr:city" v="Hartford"/>
    <tag k="addr:housenumber" v="406"/>
    <tag k="addr:street" v="Rays Way"/>
    <tag k="addr:state" v="VT"/>
    <tag k="ref:vcgi:esiteid" v="120359"/>
  </node>
  <node id="-674" visible="true" lat="43.67975464" lon="-72.3120422">
    <!-- multiple: "133 Colonial Drive, Hartford, VT" Multiple exact matches in OSM. -->
    <tag k="addr:city" v="Hartford"/>
    <tag k="addr:housenumber" v="133"/>
    <tag k="addr:street" v="Colonial Drive"/>
    <tag k="addr:state" v="VT"/>
    <tag k="ref:vcgi:esiteid" v="120679"/>
  </node>
  <node id="-694" visible="true" lat="43.67922571" lon="-72.3125868">
    <!-- multiple: "133 Colonial Drive, Hartford, VT" Multiple exact matches in OSM. -->
    <tag k="addr:city" v="Hartford"/>
    <tag k="addr:housenumber" v="133"/>
    <tag k="addr:street" v="Colonial Drive"/>
    <tag k="addr:state" v="VT"/>
    <tag k="ref:vcgi:esiteid" v="120700"/>
  </node>
  <node id="-718" visible="true" lat="43.67889201" lon="-72.31203434">
    <!-- multiple: "133 Colonial Drive, Hartford, VT" Multiple exact matches in OSM. -->
    <tag k="addr:city" v="Hartford"/>
    <tag k="addr:housenumber" v="133"/>
    <tag k="addr:street" v="Colonial Drive"/>
    <tag k="addr:state" v="VT"/>
    <tag k="ref:vcgi:esiteid" v="120728"/>
  </node>
  <node id="-726" visible="true" lat="43.67874969" lon="-72.31284122">
    <!-- multiple: "133 Colonial Drive, Hartford, VT" Multiple exact matches in OSM. -->
    <tag k="addr:city" v="Hartford"/>
    <tag k="addr:housenumber" v="133"/>
    <tag k="addr:street" v="Colonial Drive"/>
    <tag k="addr:state" v="VT"/>
    <tag k="ref:vcgi:esiteid" v="120737"/>
  </node>
  <node id="-1748" visible="true" lat="43.66358244" lon="-72.44782439">
    <!-- multiple: "105 Williams Lane, Hartford, VT" Multiple exact matches in OSM. -->
    <tag k="addr:city" v="Hartford"/>
    <tag k="addr:housenumber" v="105"/>
    <tag k="addr:street" v="Williams Lane"/>
    <tag k="addr:state" v="VT"/>
    <tag k="ref:vcgi:esiteid" v="121820"/>
  </node>
  <node id="-1756" visible="true" lat="43.66328045" lon="-72.4442538">
    <!-- multiple: "451 Williams Lane, Hartford, VT" Multiple exact matches in OSM. -->
    <tag k="addr:city" v="Hartford"/>
    <tag k="addr:housenumber" v="451"/>
    <tag k="addr:street" v="Williams Lane"/>
    <tag k="addr:state" v="VT"/>
    <tag k="ref:vcgi:esiteid" v="121829"/>
  </node>
  <node id="-1782" visible="true" lat="43.66295894" lon="-72.44451165">
    <!-- multiple: "451 Williams Lane, Hartford, VT" Multiple exact matches in OSM. -->
    <tag k="addr:city" v="Hartford"/>
    <tag k="addr:housenumber" v="451"/>
    <tag k="addr:street" v="Williams Lane"/>
    <tag k="addr:state" v="VT"/>
    <tag k="ref:vcgi:esiteid" v="121856"/>
  </node>
  <node id="-1793" visible="true" lat="43.6629707" lon="-72.44378579">
    <!-- multiple: "451 Williams Lane, Hartford, VT" Multiple exact matches in OSM. -->
    <tag k="addr:city" v="Hartford"/>
    <tag k="addr:housenumber" v="451"/>
    <tag k="addr:street" v="Williams Lane"/>
    <tag k="addr:state" v="VT"/>
    <tag k="ref:vcgi:esiteid" v="121867"/>
  </node>
  <node id="-1794" visible="true" lat="43.66293209" lon="-72.44819005">
    <!-- multiple: "105 Williams Lane, Hartford, VT" Multiple exact matches in OSM. -->
    <tag k="addr:city" v="Hartford"/>
    <tag k="addr:housenumber" v="105"/>
    <tag k="addr:street" v="Williams Lane"/>
    <tag k="addr:state" v="VT"/>
    <tag k="ref:vcgi:esiteid" v="121868"/>
  </node>
  <node id="-1807" visible="true" lat="43.66272115" lon="-72.4448315">
    <!-- multiple: "451 Williams Lane, Hartford, VT" Multiple exact matches in OSM. -->
    <tag k="addr:city" v="Hartford"/>
    <tag k="addr:housenumber" v="451"/>
    <tag k="addr:street" v="Williams Lane"/>
    <tag k="addr:state" v="VT"/>
    <tag k="ref:vcgi:esiteid" v="121881"/>
  </node>
  <node id="-1809" visible="true" lat="43.66257718" lon="-72.44931485">
    <!-- multiple: "105 Williams Lane, Hartford, VT" Multiple exact matches in OSM. -->
    <tag k="addr:city" v="Hartford"/>
    <tag k="addr:housenumber" v="105"/>
    <tag k="addr:street" v="Williams Lane"/>
    <tag k="addr:state" v="VT"/>
    <tag k="ref:vcgi:esiteid" v="121883"/>
  </node>
  <node id="-1810" visible="true" lat="43.66265726" lon="-72.44364548">
    <!-- multiple: "451 Williams Lane, Hartford, VT" Multiple exact matches in OSM. -->
    <tag k="addr:city" v="Hartford"/>
    <tag k="addr:housenumber" v="451"/>
    <tag k="addr:street" v="Williams Lane"/>
    <tag k="addr:state" v="VT"/>
    <tag k="ref:vcgi:esiteid" v="121884"/>
  </node>
  <node id="-1813" visible="true" lat="43.66253868" lon="-72.4442976">
    <!-- multiple: "451 Williams Lane, Hartford, VT" Multiple exact matches in OSM. -->
    <tag k="addr:city" v="Hartford"/>
    <tag k="addr:housenumber" v="451"/>
    <tag k="addr:street" v="Williams Lane"/>
    <tag k="addr:state" v="VT"/>
    <tag k="ref:vcgi:esiteid" v="121887"/>
  </node>
  <node id="-1956" visible="true" lat="43.66115564" lon="-72.34004569">
    <!-- multiple: "1461 Maple Street, Hartford, VT" Multiple exact matches in OSM. -->
    <tag k="addr:city" v="Hartford"/>
    <tag k="addr:housenumber" v="1461"/>
    <tag k="addr:street" v="Maple Street"/>
    <tag k="addr:state" v="VT"/>
    <tag k="ref:vcgi:esiteid" v="122052"/>
  </node>
  <node id="-2776" visible="true" lat="43.65056979" lon="-72.41897492">
    <!-- multiple: "355 Lyman Batcheller Road, Hartford, VT" Multiple exact matches in OSM. -->
    <tag k="addr:city" v="Hartford"/>
    <tag k="addr:housenumber" v="355"/>
    <tag k="addr:street" v="Lyman Batcheller Road"/>
    <tag k="addr:state" v="VT"/>
    <tag k="ref:vcgi:esiteid" v="122946"/>
  </node>
  <node id="-2801" visible="true" lat="43.65020837" lon="-72.41866956">
    <!-- multiple: "355 Lyman Batcheller Road, Hartford, VT" Multiple exact matches in OSM. -->
    <tag k="addr:city" v="Hartford"/>
    <tag k="addr:housenumber" v="355"/>
    <tag k="addr:street" v="Lyman Batcheller Road"/>
    <tag k="addr:state" v="VT"/>
    <tag k="ref:vcgi:esiteid" v="122973"/>
  </node>
  <node id="-2806" visible="true" lat="43.65015695" lon="-72.41927483">
    <!-- multiple: "355 Lyman Batcheller Road, Hartford, VT" Multiple exact matches in OSM. -->
    <tag k="addr:city" v="Hartford"/>
    <tag k="addr:housenumber" v="355"/>
    <tag k="addr:street" v="Lyman Batcheller Road"/>
    <tag k="addr:state" v="VT"/>
    <tag k="ref:vcgi:esiteid" v="122978"/>
  </node>
  <node id="-2943" visible="true" lat="43.64879608" lon="-72.41172528">
    <!-- multiple: "253 Old Quechee Road, Hartford, VT" Multiple exact matches in OSM. -->
    <tag k="addr:city" v="Hartford"/>
    <tag k="addr:housenumber" v="253"/>
    <tag k="addr:street" v="Old Quechee Road"/>
    <tag k="addr:state" v="VT"/>
    <tag k="ref:vcgi:esiteid" v="123138"/>
  </node>
  <node id="-2973" visible="true" lat="43.64850616" lon="-72.4119389">
    <!-- multiple: "253 Old Quechee Road, Hartford, VT" Multiple exact matches in OSM. -->
    <tag k="addr:city" v="Hartford"/>
    <tag k="addr:housenumber" v="253"/>
    <tag k="addr:street" v="Old Quechee Road"/>
    <tag k="addr:state" v="VT"/>
    <tag k="ref:vcgi:esiteid" v="123175"/>
  </node>
  <node id="-3009" visible="true" lat="43.64818358" lon="-72.41145269">
    <!-- multiple: "1299 Quechee Main Street, Hartford, VT" Multiple exact matches in OSM. -->
    <tag k="addr:city" v="Hartford"/>
    <tag k="addr:housenumber" v="1299"/>
    <tag k="addr:street" v="Quechee Main Street"/>
    <tag k="addr:state" v="VT"/>
    <tag k="ref:vcgi:esiteid" v="123219"/>
  </node>
  <node id="-3021" visible="true" lat="43.64807892" lon="-72.41231274">
    <!-- multiple: "253 Old Quechee Road, Hartford, VT" Multiple exact matches in OSM. -->
    <tag k="addr:city" v="Hartford"/>
    <tag k="addr:housenumber" v="253"/>
    <tag k="addr:street" v="Old Quechee Road"/>
    <tag k="addr:state" v="VT"/>
    <tag k="ref:vcgi:esiteid" v="123234"/>
  </node>
  <node id="-3031" visible="true" lat="43.64800048" lon="-72.41187993">
    <!-- multiple: "1299 Quechee Main Street, Hartford, VT" Multiple exact matches in OSM. -->
    <tag k="addr:city" v="Hartford"/>
    <tag k="addr:housenumber" v="1299"/>
    <tag k="addr:street" v="Quechee Main Street"/>
    <tag k="addr:state" v="VT"/>
    <tag k="ref:vcgi:esiteid" v="123246"/>
  </node>
  <node id="-4265" visible="true" lat="43.69367681" lon="-72.39710091">
    <!-- multiple: "406 Rays Way, Hartford, VT" Multiple exact matches in OSM. -->
    <tag k="addr:city" v="Hartford"/>
    <tag k="addr:housenumber" v="406"/>
    <tag k="addr:street" v="Rays Way"/>
    <tag k="addr:state" v="VT"/>
    <tag k="ref:vcgi:esiteid" v="124601"/>
  </node>
  <node id="-4358" visible="true" lat="43.66559841" lon="-72.31509932">
    <!-- multiple: "60 Hollow Drive, Hartford, VT" Multiple exact matches in OSM. -->
    <tag k="addr:city" v="Hartford"/>
    <tag k="addr:housenumber" v="60"/>
    <tag k="addr:street" v="Hollow Drive"/>
    <tag k="addr:state" v="VT"/>
    <tag k="ref:vcgi:esiteid" v="124698"/>
  </node>
  <node id="-4359" visible="true" lat="43.6653483" lon="-72.31515112">
    <!-- multiple: "60 Hollow Drive, Hartford, VT" Multiple exact matches in OSM. -->
    <tag k="addr:city" v="Hartford"/>
    <tag k="addr:housenumber" v="60"/>
    <tag k="addr:street" v="Hollow Drive"/>
    <tag k="addr:state" v="VT"/>
    <tag k="ref:vcgi:esiteid" v="124699"/>
  </node>
  <node id="-4361" visible="true" lat="43.66543263" lon="-72.31545843">
    <!-- multiple: "60 Hollow Drive, Hartford, VT" Multiple exact matches in OSM. -->
    <tag k="addr:city" v="Hartford"/>
    <tag k="addr:housenumber" v="60"/>
    <tag k="addr:street" v="Hollow Drive"/>
    <tag k="addr:state" v="VT"/>
    <tag k="ref:vcgi:esiteid" v="124701"/>
  </node>
  <node id="-4364" visible="true" lat="43.66641442" lon="-72.3161781">
    <!-- multiple: "151 Hollow Drive, Hartford, VT" Multiple exact matches in OSM. -->
    <tag k="addr:city" v="Hartford"/>
    <tag k="addr:housenumber" v="151"/>
    <tag k="addr:street" v="Hollow Drive"/>
    <tag k="addr:state" v="VT"/>
    <tag k="ref:vcgi:esiteid" v="124704"/>
  </node>
  <node id="-4365" visible="true" lat="43.66654313" lon="-72.31635996">
    <!-- multiple: "151 Hollow Drive, Hartford, VT" Multiple exact matches in OSM. -->
    <tag k="addr:city" v="Hartford"/>
    <tag k="addr:housenumber" v="151"/>
    <tag k="addr:street" v="Hollow Drive"/>
    <tag k="addr:state" v="VT"/>
    <tag k="ref:vcgi:esiteid" v="124705"/>
  </node>
  <node id="-4366" visible="true" lat="43.66651597" lon="-72.3166453">
    <!-- multiple: "151 Hollow Drive, Hartford, VT" Multiple exact matches in OSM. -->
    <tag k="addr:city" v="Hartford"/>
    <tag k="addr:housenumber" v="151"/>
    <tag k="addr:street" v="Hollow Drive"/>
    <tag k="addr:state" v="VT"/>
    <tag k="ref:vcgi:esiteid" v="124706"/>
  </node>
</osm>
