<?xml version="1.0" encoding="UTF-8"?>
<osm version="0.6" generator="JOSM" upload="false">
  <node id="-102" visible="true" lat="43.62841529" lon="-72.45710776">
    <tag k="addr:housenumber" v="115"/>
    <tag k="addr:street" v="Town Line Road"/>
    <tag k="addr:state" v="VT"/>
    <tag k="ref:vcgi:esiteid" v="124924"/>
  </node>
  <node id="-104" visible="true" lat="43.62833957" lon="-72.4594289">
    <tag k="addr:housenumber" v="14"/>
    <tag k="addr:street" v="Morrill Road"/>
    <tag k="addr:state" v="VT"/>
    <tag k="ref:vcgi:esiteid" v="124929"/>
  </node>
  <node id="-105" visible="true" lat="43.62831871" lon="-72.46049094">
    <tag k="addr:housenumber" v="18"/>
    <tag k="addr:street" v="Morrill Road"/>
    <tag k="addr:state" v="VT"/>
    <tag k="ref:vcgi:esiteid" v="124930"/>
  </node>
  <node id="-106" visible="true" lat="43.62847745" lon="-72.45787614">
    <tag k="addr:housenumber" v="189"/>
    <tag k="addr:street" v="Town Line Road"/>
    <tag k="addr:state" v="VT"/>
    <tag k="ref:vcgi:esiteid" v="124931"/>
  </node>
  <node id="-107" visible="true" lat="43.62839372" lon="-72.45742692">
    <tag k="addr:housenumber" v="175"/>
    <tag k="addr:street" v="Town Line Road"/>
    <tag k="addr:state" v="VT"/>
    <tag k="ref:vcgi:esiteid" v="124932"/>
  </node>
  <node id="-109" visible="true" lat="43.62778227" lon="-72.45988062">
    <tag k="addr:housenumber" v="5"/>
    <tag k="addr:street" v="Morrill Road"/>
    <tag k="addr:state" v="VT"/>
    <tag k="ref:vcgi:esiteid" v="124934"/>
  </node>
  <node id="-111" visible="true" lat="43.62775353" lon="-72.45909831">
    <tag k="addr:housenumber" v="7"/>
    <tag k="addr:street" v="Morrill Road"/>
    <tag k="addr:state" v="VT"/>
    <tag k="ref:vcgi:esiteid" v="124936"/>
  </node>
  <node id="-113" visible="true" lat="43.62735915" lon="-72.45745793">
    <tag k="addr:housenumber" v="59"/>
    <tag k="addr:street" v="U.S. Route 4"/>
    <tag k="addr:state" v="VT"/>
    <tag k="ref:vcgi:esiteid" v="124938"/>
  </node>
  <node id="-121" visible="true" lat="43.62138318" lon="-72.45635986">
    <tag k="addr:housenumber" v="730"/>
    <tag k="addr:street" v="Vermont Route 12"/>
    <tag k="addr:state" v="VT"/>
    <tag k="ref:vcgi:esiteid" v="124946"/>
  </node>
  <node id="-124" visible="true" lat="43.61984052" lon="-72.45736012">
    <tag k="addr:housenumber" v="720"/>
    <tag k="addr:street" v="Vermont Route 12"/>
    <tag k="addr:state" v="VT"/>
    <tag k="ref:vcgi:esiteid" v="124949"/>
  </node>
  <node id="-126" visible="true" lat="43.61866713" lon="-72.45819841">
    <tag k="addr:housenumber" v="717"/>
    <tag k="addr:street" v="Vermont Route 12"/>
    <tag k="addr:state" v="VT"/>
    <tag k="ref:vcgi:esiteid" v="124951"/>
  </node>
  <node id="-131" visible="true" lat="43.61730341" lon="-72.45650297">
    <tag k="addr:housenumber" v="702"/>
    <tag k="addr:street" v="Vermont Route 12"/>
    <tag k="addr:state" v="VT"/>
    <tag k="ref:vcgi:esiteid" v="124956"/>
  </node>
  <node id="-132" visible="true" lat="43.61694908" lon="-72.4541697">
    <tag k="addr:housenumber" v="700"/>
    <tag k="addr:street" v="Vermont Route 12"/>
    <tag k="addr:state" v="VT"/>
    <tag k="ref:vcgi:esiteid" v="124957"/>
  </node>
  <node id="-133" visible="true" lat="43.61693215" lon="-72.4569025">
    <tag k="addr:housenumber" v="701"/>
    <tag k="addr:street" v="Vermont Route 12"/>
    <tag k="addr:state" v="VT"/>
    <tag k="ref:vcgi:esiteid" v="124958"/>
  </node>
  <node id="-134" visible="true" lat="43.61657368" lon="-72.45418478">
    <tag k="addr:housenumber" v="698"/>
    <tag k="addr:street" v="Vermont Route 12"/>
    <tag k="addr:state" v="VT"/>
    <tag k="ref:vcgi:esiteid" v="124959"/>
  </node>
  <node id="-135" visible="true" lat="43.61621735" lon="-72.40462799">
    <tag k="addr:housenumber" v="361"/>
    <tag k="addr:street" v="Clay Hill Road"/>
    <tag k="addr:state" v="VT"/>
    <tag k="ref:vcgi:esiteid" v="124960"/>
  </node>
  <node id="-136" visible="true" lat="43.61618756" lon="-72.45580291">
    <tag k="addr:housenumber" v="694"/>
    <tag k="addr:street" v="Vermont Route 12"/>
    <tag k="addr:state" v="VT"/>
    <tag k="ref:vcgi:esiteid" v="124961"/>
  </node>
  <node id="-138" visible="true" lat="43.61537503" lon="-72.45741271">
    <tag k="addr:housenumber" v="693"/>
    <tag k="addr:street" v="Vermont Route 12"/>
    <tag k="addr:state" v="VT"/>
    <tag k="ref:vcgi:esiteid" v="124963"/>
  </node>
  <node id="-143" visible="true" lat="43.61444443" lon="-72.40786599">
    <tag k="addr:housenumber" v="525"/>
    <tag k="addr:street" v="Quechee Road"/>
    <tag k="addr:state" v="VT"/>
    <tag k="ref:vcgi:esiteid" v="124968"/>
  </node>
  <node id="-146" visible="true" lat="43.61417627" lon="-72.45723326">
    <tag k="addr:housenumber" v="10"/>
    <tag k="addr:street" v="Fork Brook Road"/>
    <tag k="addr:state" v="VT"/>
    <tag k="ref:vcgi:esiteid" v="124971"/>
  </node>
  <node id="-147" visible="true" lat="43.61400179" lon="-72.45816371">
    <tag k="addr:housenumber" v="14"/>
    <tag k="addr:street" v="Fork Brook Road"/>
    <tag k="addr:state" v="VT"/>
    <tag k="ref:vcgi:esiteid" v="124972"/>
  </node>
  <node id="-148" visible="true" lat="43.61359094" lon="-72.45572867">
    <tag k="addr:housenumber" v="5"/>
    <tag k="addr:street" v="Fork Brook Road"/>
    <tag k="addr:state" v="VT"/>
    <tag k="ref:vcgi:esiteid" v="124973"/>
  </node>
  <node id="-150" visible="true" lat="43.61338376" lon="-72.45481872">
    <tag k="addr:housenumber" v="674"/>
    <tag k="addr:street" v="Vermont Route 12"/>
    <tag k="addr:state" v="VT"/>
    <tag k="ref:vcgi:esiteid" v="124975"/>
  </node>
  <node id="-152" visible="true" lat="43.61316251" lon="-72.45546722">
    <tag k="addr:housenumber" v="673"/>
    <tag k="addr:street" v="Vermont Route 12"/>
    <tag k="addr:state" v="VT"/>
    <tag k="ref:vcgi:esiteid" v="124977"/>
  </node>
  <node id="-154" visible="true" lat="43.61314263" lon="-72.45692547">
    <tag k="addr:housenumber" v="15"/>
    <tag k="addr:street" v="Fork Brook Road"/>
    <tag k="addr:state" v="VT"/>
    <tag k="ref:vcgi:esiteid" v="124979"/>
  </node>
  <node id="-166" visible="true" lat="43.61181598" lon="-72.45870569">
    <tag k="addr:housenumber" v="19"/>
    <tag k="addr:street" v="Fork Brook Road"/>
    <tag k="addr:state" v="VT"/>
    <tag k="ref:vcgi:esiteid" v="124991"/>
  </node>
  <node id="-169" visible="true" lat="43.61148404" lon="-72.45458984">
    <tag k="addr:housenumber" v="661"/>
    <tag k="addr:street" v="Vermont Route 12"/>
    <tag k="addr:state" v="VT"/>
    <tag k="ref:vcgi:esiteid" v="124994"/>
  </node>
  <node id="-183" visible="true" lat="43.61134454" lon="-72.4515741">
    <tag k="addr:housenumber" v="652"/>
    <tag k="addr:street" v="Vermont Route 12"/>
    <tag k="addr:state" v="VT"/>
    <tag k="ref:vcgi:esiteid" v="125008"/>
  </node>
  <node id="-188" visible="true" lat="43.61039839" lon="-72.45513144">
    <tag k="addr:housenumber" v="651"/>
    <tag k="addr:street" v="Vermont Route 12"/>
    <tag k="addr:state" v="VT"/>
    <tag k="ref:vcgi:esiteid" v="125013"/>
  </node>
  <node id="-198" visible="true" lat="43.60996716" lon="-72.45504711">
    <tag k="addr:housenumber" v="649"/>
    <tag k="addr:street" v="Vermont Route 12"/>
    <tag k="addr:state" v="VT"/>
    <tag k="ref:vcgi:esiteid" v="125023"/>
  </node>
  <node id="-203" visible="true" lat="43.60966228" lon="-72.45283273">
    <tag k="addr:housenumber" v="647"/>
    <tag k="addr:street" v="Vermont Route 12"/>
    <tag k="addr:state" v="VT"/>
    <tag k="ref:vcgi:esiteid" v="125028"/>
  </node>
  <node id="-215" visible="true" lat="43.60930468" lon="-72.45257504">
    <tag k="addr:housenumber" v="643"/>
    <tag k="addr:street" v="Vermont Route 12"/>
    <tag k="addr:state" v="VT"/>
    <tag k="ref:vcgi:esiteid" v="125040"/>
  </node>
  <node id="-228" visible="true" lat="43.60897827" lon="-72.45153045">
    <tag k="addr:housenumber" v="642"/>
    <tag k="addr:street" v="Vermont Route 12"/>
    <tag k="addr:state" v="VT"/>
    <tag k="ref:vcgi:esiteid" v="125053"/>
  </node>
  <node id="-240" visible="true" lat="43.60773801" lon="-72.45341491">
    <tag k="addr:housenumber" v="631"/>
    <tag k="addr:street" v="Vermont Route 12"/>
    <tag k="addr:state" v="VT"/>
    <tag k="ref:vcgi:esiteid" v="125065"/>
  </node>
  <node id="-250" visible="true" lat="43.60737943" lon="-72.4547348">
    <tag k="addr:housenumber" v="619"/>
    <tag k="addr:street" v="Vermont Route 12"/>
    <tag k="addr:state" v="VT"/>
    <tag k="ref:vcgi:esiteid" v="125075"/>
  </node>
  <node id="-268" visible="true" lat="43.60681334" lon="-72.4515744">
    <tag k="addr:housenumber" v="626"/>
    <tag k="addr:street" v="Vermont Route 12"/>
    <tag k="addr:state" v="VT"/>
    <tag k="ref:vcgi:esiteid" v="125094"/>
  </node>
  <node id="-276" visible="true" lat="43.60648152" lon="-72.45155983">
    <tag k="addr:housenumber" v="624"/>
    <tag k="addr:street" v="Vermont Route 12"/>
    <tag k="addr:state" v="VT"/>
    <tag k="ref:vcgi:esiteid" v="125102"/>
  </node>
  <node id="-281" visible="true" lat="43.60594472" lon="-72.45435747">
    <tag k="addr:housenumber" v="617"/>
    <tag k="addr:street" v="Vermont Route 12"/>
    <tag k="addr:state" v="VT"/>
    <tag k="ref:vcgi:esiteid" v="125107"/>
  </node>
  <node id="-300" visible="true" lat="43.60498046" lon="-72.45263671">
    <tag k="addr:housenumber" v="611"/>
    <tag k="addr:street" v="Vermont Route 12"/>
    <tag k="addr:state" v="VT"/>
    <tag k="ref:vcgi:esiteid" v="125126"/>
  </node>
  <node id="-313" visible="true" lat="43.60411023" lon="-72.45365142">
    <tag k="addr:housenumber" v="609"/>
    <tag k="addr:street" v="Vermont Route 12"/>
    <tag k="addr:state" v="VT"/>
    <tag k="ref:vcgi:esiteid" v="125139"/>
  </node>
  <node id="-323" visible="true" lat="43.60337829" lon="-72.4507904">
    <tag k="addr:housenumber" v="9"/>
    <tag k="addr:street" v="Barron Hill Road"/>
    <tag k="addr:state" v="VT"/>
    <tag k="ref:vcgi:esiteid" v="125149"/>
  </node>
  <node id="-334" visible="true" lat="43.60194083" lon="-72.45147317">
    <tag k="addr:housenumber" v="10"/>
    <tag k="addr:street" v="Barron Hill Road"/>
    <tag k="addr:state" v="VT"/>
    <tag k="ref:vcgi:esiteid" v="125160"/>
  </node>
  <node id="-340" visible="true" lat="43.60160016" lon="-72.45281219">
    <tag k="addr:housenumber" v="590"/>
    <tag k="addr:street" v="Vermont Route 12"/>
    <tag k="addr:state" v="VT"/>
    <tag k="ref:vcgi:esiteid" v="125166"/>
  </node>
  <node id="-346" visible="true" lat="43.60232877" lon="-72.4559841">
    <tag k="addr:housenumber" v="32"/>
    <tag k="addr:street" v="Lord Road"/>
    <tag k="addr:state" v="VT"/>
    <tag k="ref:vcgi:esiteid" v="125172"/>
  </node>
  <node id="-348" visible="true" lat="43.60154935" lon="-72.45811699">
    <tag k="addr:housenumber" v="29"/>
    <tag k="addr:street" v="Lord Road"/>
    <tag k="addr:state" v="VT"/>
    <tag k="ref:vcgi:esiteid" v="125174"/>
  </node>
  <node id="-352" visible="true" lat="43.60072099" lon="-72.45091299">
    <tag k="addr:housenumber" v="9"/>
    <tag k="addr:street" v="Babcock Brook Lane"/>
    <tag k="addr:state" v="VT"/>
    <tag k="ref:vcgi:esiteid" v="125178"/>
  </node>
  <node id="-356" visible="true" lat="43.60049636" lon="-72.45567906">
    <tag k="addr:housenumber" v="24"/>
    <tag k="addr:street" v="Lord Road"/>
    <tag k="addr:state" v="VT"/>
    <tag k="ref:vcgi:esiteid" v="125182"/>
  </node>
  <node id="-360" visible="true" lat="43.60011251" lon="-72.47276484">
    <tag k="addr:housenumber" v="184"/>
    <tag k="addr:street" v="Hartland Hill Road"/>
    <tag k="addr:state" v="VT"/>
    <tag k="ref:vcgi:esiteid" v="125186"/>
  </node>
  <node id="-361" visible="true" lat="43.59968633" lon="-72.45221263">
    <tag k="addr:housenumber" v="7"/>
    <tag k="addr:street" v="Babcock Brook Lane"/>
    <tag k="addr:state" v="VT"/>
    <tag k="ref:vcgi:esiteid" v="125188"/>
  </node>
  <node id="-363" visible="true" lat="43.59948348" lon="-72.45050048">
    <tag k="addr:housenumber" v="8"/>
    <tag k="addr:street" v="Babcock Brook Lane"/>
    <tag k="addr:state" v="VT"/>
    <tag k="ref:vcgi:esiteid" v="125190"/>
  </node>
  <node id="-367" visible="true" lat="43.59924896" lon="-72.45562049">
    <tag k="addr:housenumber" v="19"/>
    <tag k="addr:street" v="Lord Road"/>
    <tag k="addr:state" v="VT"/>
    <tag k="ref:vcgi:esiteid" v="125194"/>
  </node>
  <node id="-368" visible="true" lat="43.59945149" lon="-72.46586887">
    <tag k="addr:housenumber" v="38"/>
    <tag k="addr:street" v="Old Birch Road"/>
    <tag k="addr:state" v="VT"/>
    <tag k="ref:vcgi:esiteid" v="125195"/>
  </node>
  <node id="-369" visible="true" lat="43.59920799" lon="-72.45635329">
    <tag k="addr:housenumber" v="21"/>
    <tag k="addr:street" v="Lord Road"/>
    <tag k="addr:state" v="VT"/>
    <tag k="ref:vcgi:esiteid" v="125196"/>
  </node>
  <node id="-374" visible="true" lat="43.59874273" lon="-72.45228089">
    <tag k="addr:housenumber" v="568"/>
    <tag k="addr:street" v="Vermont Route 12"/>
    <tag k="addr:state" v="VT"/>
    <tag k="ref:vcgi:esiteid" v="125201"/>
  </node>
  <node id="-375" visible="true" lat="43.59870862" lon="-72.45487213">
    <tag k="addr:housenumber" v="15"/>
    <tag k="addr:street" v="Lord Road"/>
    <tag k="addr:state" v="VT"/>
    <tag k="ref:vcgi:esiteid" v="125202"/>
  </node>
  <node id="-377" visible="true" lat="43.59850692" lon="-72.4504776">
    <tag k="addr:housenumber" v="10"/>
    <tag k="addr:street" v="Babcock Brook Lane"/>
    <tag k="addr:state" v="VT"/>
    <tag k="ref:vcgi:esiteid" v="125204"/>
  </node>
  <node id="-381" visible="true" lat="43.59814023" lon="-72.45422363">
    <tag k="addr:housenumber" v="9"/>
    <tag k="addr:street" v="Lord Road"/>
    <tag k="addr:state" v="VT"/>
    <tag k="ref:vcgi:esiteid" v="125208"/>
  </node>
  <node id="-382" visible="true" lat="43.59808537" lon="-72.45757157">
    <tag k="addr:housenumber" v="23"/>
    <tag k="addr:street" v="Lord Road"/>
    <tag k="addr:state" v="VT"/>
    <tag k="ref:vcgi:esiteid" v="125209"/>
  </node>
  <node id="-389" visible="true" lat="43.5978302" lon="-72.45255161">
    <tag k="addr:housenumber" v="562"/>
    <tag k="addr:street" v="Vermont Route 12"/>
    <tag k="addr:state" v="VT"/>
    <tag k="ref:vcgi:esiteid" v="125216"/>
  </node>
  <node id="-391" visible="true" lat="43.597704" lon="-72.47742766">
    <tag k="addr:housenumber" v="28"/>
    <tag k="addr:street" v="Crystal Path"/>
    <tag k="addr:state" v="VT"/>
    <tag k="ref:vcgi:esiteid" v="125218"/>
  </node>
  <node id="-392" visible="true" lat="43.59761398" lon="-72.45535708">
    <tag k="addr:housenumber" v="3"/>
    <tag k="addr:street" v="Lord Road"/>
    <tag k="addr:state" v="VT"/>
    <tag k="ref:vcgi:esiteid" v="125219"/>
  </node>
  <node id="-398" visible="true" lat="43.59713845" lon="-72.453702">
    <tag k="addr:housenumber" v="561"/>
    <tag k="addr:street" v="Vermont Route 12"/>
    <tag k="addr:state" v="VT"/>
    <tag k="ref:vcgi:esiteid" v="125225"/>
  </node>
  <node id="-407" visible="true" lat="43.59676733" lon="-72.4523041">
    <tag k="addr:housenumber" v="554"/>
    <tag k="addr:street" v="Vermont Route 12"/>
    <tag k="addr:state" v="VT"/>
    <tag k="ref:vcgi:esiteid" v="125234"/>
  </node>
  <node id="-408" visible="true" lat="43.59667775" lon="-72.45312687">
    <tag k="addr:housenumber" v="559"/>
    <tag k="addr:street" v="Vermont Route 12"/>
    <tag k="addr:state" v="VT"/>
    <tag k="ref:vcgi:esiteid" v="125235"/>
  </node>
  <node id="-410" visible="true" lat="43.59663397" lon="-72.45080151">
    <tag k="addr:housenumber" v="13"/>
    <tag k="addr:street" v="Sportsmen Cove"/>
    <tag k="addr:state" v="VT"/>
    <tag k="ref:vcgi:esiteid" v="125237"/>
  </node>
  <node id="-414" visible="true" lat="43.59648132" lon="-72.44911956">
    <tag k="addr:housenumber" v="19"/>
    <tag k="addr:street" v="Sportsmen Cove"/>
    <tag k="addr:state" v="VT"/>
    <tag k="ref:vcgi:esiteid" v="125241"/>
  </node>
  <node id="-418" visible="true" lat="43.59631681" lon="-72.45290374">
    <tag k="addr:housenumber" v="553"/>
    <tag k="addr:street" v="Vermont Route 12"/>
    <tag k="addr:state" v="VT"/>
    <tag k="ref:vcgi:esiteid" v="125245"/>
  </node>
  <node id="-422" visible="true" lat="43.59611892" lon="-72.44670104">
    <tag k="addr:housenumber" v="30"/>
    <tag k="addr:street" v="Chase School Road"/>
    <tag k="addr:state" v="VT"/>
    <tag k="ref:vcgi:esiteid" v="125250"/>
  </node>
  <node id="-426" visible="true" lat="43.59592056" lon="-72.44844818">
    <tag k="addr:housenumber" v="24"/>
    <tag k="addr:street" v="Sportsmen Cove"/>
    <tag k="addr:state" v="VT"/>
    <tag k="ref:vcgi:esiteid" v="125254"/>
  </node>
  <node id="-430" visible="true" lat="43.59592584" lon="-72.45002121">
    <tag k="addr:housenumber" v="16"/>
    <tag k="addr:street" v="Sportsmen Cove"/>
    <tag k="addr:state" v="VT"/>
    <tag k="ref:vcgi:esiteid" v="125258"/>
  </node>
  <node id="-431" visible="true" lat="43.59565686" lon="-72.45433807">
    <tag k="addr:housenumber" v="547"/>
    <tag k="addr:street" v="Vermont Route 12"/>
    <tag k="addr:state" v="VT"/>
    <tag k="ref:vcgi:esiteid" v="125259"/>
  </node>
  <node id="-435" visible="true" lat="43.59554242" lon="-72.45272064">
    <tag k="addr:housenumber" v="549"/>
    <tag k="addr:street" v="Vermont Route 12"/>
    <tag k="addr:state" v="VT"/>
    <tag k="ref:vcgi:esiteid" v="125263"/>
  </node>
  <node id="-438" visible="true" lat="43.59538221" lon="-72.45223998">
    <tag k="addr:housenumber" v="545"/>
    <tag k="addr:street" v="Vermont Route 12"/>
    <tag k="addr:state" v="VT"/>
    <tag k="ref:vcgi:esiteid" v="125266"/>
  </node>
  <node id="-444" visible="true" lat="43.59539544" lon="-72.48212168">
    <tag k="addr:housenumber" v="198"/>
    <tag k="addr:street" v="Garvin Hill Road"/>
    <tag k="addr:state" v="VT"/>
    <tag k="ref:vcgi:esiteid" v="125272"/>
  </node>
  <node id="-449" visible="true" lat="43.59515615" lon="-72.45062128">
    <tag k="addr:housenumber" v="538"/>
    <tag k="addr:street" v="Vermont Route 12"/>
    <tag k="addr:state" v="VT"/>
    <tag k="ref:vcgi:esiteid" v="125277"/>
  </node>
  <node id="-451" visible="true" lat="43.59473373" lon="-72.45140477">
    <tag k="addr:housenumber" v="541"/>
    <tag k="addr:street" v="Vermont Route 12"/>
    <tag k="addr:state" v="VT"/>
    <tag k="ref:vcgi:esiteid" v="125279"/>
  </node>
  <node id="-456" visible="true" lat="43.59424972" lon="-72.44966888">
    <tag k="addr:housenumber" v="1"/>
    <tag k="addr:street" v="Chase School Road"/>
    <tag k="addr:state" v="VT"/>
    <tag k="ref:vcgi:esiteid" v="125284"/>
  </node>
  <node id="-458" visible="true" lat="43.59410476" lon="-72.44765472">
    <tag k="addr:housenumber" v="12"/>
    <tag k="addr:street" v="Chase School Road"/>
    <tag k="addr:state" v="VT"/>
    <tag k="ref:vcgi:esiteid" v="125287"/>
  </node>
  <node id="-464" visible="true" lat="43.5936737" lon="-72.44883728">
    <tag k="addr:housenumber" v="8"/>
    <tag k="addr:street" v="Chase School Road"/>
    <tag k="addr:state" v="VT"/>
    <tag k="ref:vcgi:esiteid" v="125293"/>
  </node>
  <node id="-476" visible="true" lat="43.59263181" lon="-72.45088958">
    <tag k="addr:housenumber" v="531"/>
    <tag k="addr:street" v="Vermont Route 12"/>
    <tag k="addr:state" v="VT"/>
    <tag k="ref:vcgi:esiteid" v="125305"/>
  </node>
  <node id="-478" visible="true" lat="43.59259033" lon="-72.47993469">
    <tag k="addr:housenumber" v="186"/>
    <tag k="addr:street" v="Garvin Hill Road"/>
    <tag k="addr:state" v="VT"/>
    <tag k="ref:vcgi:esiteid" v="125307"/>
  </node>
  <node id="-481" visible="true" lat="43.59236059" lon="-72.44949997">
    <tag k="addr:housenumber" v="519"/>
    <tag k="addr:street" v="Vermont Route 12"/>
    <tag k="addr:state" v="VT"/>
    <tag k="ref:vcgi:esiteid" v="125310"/>
  </node>
  <node id="-499" visible="true" lat="43.59165143" lon="-72.45071411">
    <tag k="addr:housenumber" v="24"/>
    <tag k="addr:street" v="Damon Road"/>
    <tag k="addr:state" v="VT"/>
    <tag k="ref:vcgi:esiteid" v="125329"/>
  </node>
  <node id="-501" visible="true" lat="43.59157562" lon="-72.44794464">
    <tag k="addr:housenumber" v="512"/>
    <tag k="addr:street" v="Vermont Route 12"/>
    <tag k="addr:state" v="VT"/>
    <tag k="ref:vcgi:esiteid" v="125331"/>
  </node>
  <node id="-504" visible="true" lat="43.5915184" lon="-72.44948577">
    <tag k="addr:housenumber" v="509"/>
    <tag k="addr:street" v="Vermont Route 12"/>
    <tag k="addr:state" v="VT"/>
    <tag k="ref:vcgi:esiteid" v="125334"/>
  </node>
  <node id="-534" visible="true" lat="43.59012222" lon="-72.44768524">
    <tag k="addr:housenumber" v="6"/>
    <tag k="addr:street" v="Hideaway Hill Drive"/>
    <tag k="addr:state" v="VT"/>
    <tag k="ref:vcgi:esiteid" v="125365"/>
  </node>
  <node id="-543" visible="true" lat="43.5894122" lon="-72.45041656">
    <tag k="addr:housenumber" v="38"/>
    <tag k="addr:street" v="Damon Road"/>
    <tag k="addr:state" v="VT"/>
    <tag k="ref:vcgi:esiteid" v="125374"/>
  </node>
  <node id="-555" visible="true" lat="43.58879571" lon="-72.47930898">
    <tag k="addr:housenumber" v="153"/>
    <tag k="addr:street" v="Garvin Hill Road"/>
    <tag k="addr:state" v="VT"/>
    <tag k="ref:vcgi:esiteid" v="125387"/>
  </node>
  <node id="-564" visible="true" lat="43.58803744" lon="-72.4775868">
    <tag k="addr:housenumber" v="148"/>
    <tag k="addr:street" v="Garvin Hill Road"/>
    <tag k="addr:state" v="VT"/>
    <tag k="ref:vcgi:esiteid" v="125396"/>
  </node>
  <node id="-569" visible="true" lat="43.58475807" lon="-72.44454734">
    <tag k="addr:housenumber" v="484"/>
    <tag k="addr:street" v="Vermont Route 12"/>
    <tag k="addr:state" v="VT"/>
    <tag k="ref:vcgi:esiteid" v="125401"/>
  </node>
  <node id="-596" visible="true" lat="43.58538971" lon="-72.4484437">
    <tag k="addr:housenumber" v="470"/>
    <tag k="addr:street" v="Vermont Route 12"/>
    <tag k="addr:state" v="VT"/>
    <tag k="ref:vcgi:esiteid" v="125428"/>
  </node>
  <node id="-611" visible="true" lat="43.58403429" lon="-72.44896806">
    <tag k="addr:housenumber" v="468"/>
    <tag k="addr:street" v="Vermont Route 12"/>
    <tag k="addr:state" v="VT"/>
    <tag k="ref:vcgi:esiteid" v="125443"/>
  </node>
  <node id="-619" visible="true" lat="43.58332443" lon="-72.45101165">
    <tag k="addr:housenumber" v="13"/>
    <tag k="addr:street" v="Hartland Hill Road"/>
    <tag k="addr:state" v="VT"/>
    <tag k="ref:vcgi:esiteid" v="125451"/>
  </node>
  <node id="-620" visible="true" lat="43.58317947" lon="-72.45178222">
    <tag k="addr:housenumber" v="19"/>
    <tag k="addr:street" v="Hartland Hill Road"/>
    <tag k="addr:state" v="VT"/>
    <tag k="ref:vcgi:esiteid" v="125452"/>
  </node>
  <node id="-621" visible="true" lat="43.58317947" lon="-72.4708023">
    <tag k="addr:housenumber" v="96"/>
    <tag k="addr:street" v="Garvin Hill Road"/>
    <tag k="addr:state" v="VT"/>
    <tag k="ref:vcgi:esiteid" v="125453"/>
  </node>
  <node id="-622" visible="true" lat="43.58304848" lon="-72.45032642">
    <tag k="addr:housenumber" v="5"/>
    <tag k="addr:street" v="Hartland Hill Road"/>
    <tag k="addr:state" v="VT"/>
    <tag k="ref:vcgi:esiteid" v="125454"/>
  </node>
  <node id="-625" visible="true" lat="43.58295947" lon="-72.44990277">
    <tag k="addr:housenumber" v="7"/>
    <tag k="addr:street" v="Hartland Hill Road"/>
    <tag k="addr:state" v="VT"/>
    <tag k="ref:vcgi:esiteid" v="125457"/>
  </node>
  <node id="-626" visible="true" lat="43.58264926" lon="-72.45116072">
    <tag k="addr:housenumber" v="9"/>
    <tag k="addr:street" v="Hartland Hill Road"/>
    <tag k="addr:state" v="VT"/>
    <tag k="ref:vcgi:esiteid" v="125458"/>
  </node>
  <node id="-630" visible="true" lat="43.58214569" lon="-72.44966888">
    <tag k="addr:housenumber" v="451"/>
    <tag k="addr:street" v="Vermont Route 12"/>
    <tag k="addr:state" v="VT"/>
    <tag k="ref:vcgi:esiteid" v="125462"/>
  </node>
  <node id="-631" visible="true" lat="43.58213806" lon="-72.44882202">
    <tag k="addr:housenumber" v="449"/>
    <tag k="addr:street" v="Vermont Route 12"/>
    <tag k="addr:state" v="VT"/>
    <tag k="ref:vcgi:esiteid" v="125463"/>
  </node>
  <node id="-635" visible="true" lat="43.58195856" lon="-72.45036221">
    <tag k="addr:housenumber" v="11"/>
    <tag k="addr:street" v="Hartland Hill Road"/>
    <tag k="addr:state" v="VT"/>
    <tag k="ref:vcgi:esiteid" v="125467"/>
  </node>
  <node id="-639" visible="true" lat="43.58179092" lon="-72.44766235">
    <tag k="addr:housenumber" v="442"/>
    <tag k="addr:street" v="Vermont Route 12"/>
    <tag k="addr:state" v="VT"/>
    <tag k="ref:vcgi:esiteid" v="125471"/>
  </node>
  <node id="-642" visible="true" lat="43.58104422" lon="-72.44794486">
    <tag k="addr:housenumber" v="441"/>
    <tag k="addr:street" v="Vermont Route 12"/>
    <tag k="addr:state" v="VT"/>
    <tag k="ref:vcgi:esiteid" v="125474"/>
  </node>
  <node id="-645" visible="true" lat="43.58063507" lon="-72.4713211">
    <tag k="addr:housenumber" v="81"/>
    <tag k="addr:street" v="Garvin Hill Road"/>
    <tag k="addr:state" v="VT"/>
    <tag k="ref:vcgi:esiteid" v="125477"/>
  </node>
  <node id="-650" visible="true" lat="43.57971954" lon="-72.44412994">
    <tag k="addr:housenumber" v="422"/>
    <tag k="addr:street" v="Vermont Route 12"/>
    <tag k="addr:state" v="VT"/>
    <tag k="ref:vcgi:esiteid" v="125482"/>
  </node>
  <node id="-653" visible="true" lat="43.57896476" lon="-72.44696401">
    <tag k="addr:housenumber" v="427"/>
    <tag k="addr:street" v="Vermont Route 12"/>
    <tag k="addr:state" v="VT"/>
    <tag k="ref:vcgi:esiteid" v="125485"/>
  </node>
  <node id="-657" visible="true" lat="43.57877671" lon="-72.44462389">
    <tag k="addr:housenumber" v="424"/>
    <tag k="addr:street" v="Vermont Route 12"/>
    <tag k="addr:state" v="VT"/>
    <tag k="ref:vcgi:esiteid" v="125489"/>
  </node>
  <node id="-659" visible="true" lat="43.57806418" lon="-72.44803479">
    <tag k="addr:housenumber" v="431"/>
    <tag k="addr:street" v="Vermont Route 12"/>
    <tag k="addr:state" v="VT"/>
    <tag k="ref:vcgi:esiteid" v="125492"/>
  </node>
  <node id="-662" visible="true" lat="43.57759097" lon="-72.49751646">
    <tag k="addr:housenumber" v="310"/>
    <tag k="addr:street" v="Densmore Hill Road"/>
    <tag k="addr:state" v="VT"/>
    <tag k="ref:vcgi:esiteid" v="125495"/>
  </node>
  <node id="-666" visible="true" lat="43.5764923" lon="-72.44458007">
    <tag k="addr:housenumber" v="405"/>
    <tag k="addr:street" v="Vermont Route 12"/>
    <tag k="addr:state" v="VT"/>
    <tag k="ref:vcgi:esiteid" v="125499"/>
  </node>
  <node id="-668" visible="true" lat="43.57637786" lon="-72.46690368">
    <tag k="addr:housenumber" v="43"/>
    <tag k="addr:street" v="Garvin Hill Road"/>
    <tag k="addr:state" v="VT"/>
    <tag k="ref:vcgi:esiteid" v="125501"/>
  </node>
  <node id="-690" visible="true" lat="43.57441592" lon="-72.47900564">
    <tag k="addr:housenumber" v="56"/>
    <tag k="addr:street" v="Cream Pot Road"/>
    <tag k="addr:state" v="VT"/>
    <tag k="ref:vcgi:esiteid" v="125523"/>
  </node>
  <node id="-702" visible="true" lat="43.57342147" lon="-72.49580383">
    <tag k="addr:housenumber" v="290"/>
    <tag k="addr:street" v="Densmore Hill Road"/>
    <tag k="addr:state" v="VT"/>
    <tag k="ref:vcgi:esiteid" v="125535"/>
  </node>
  <node id="-709" visible="true" lat="43.57246398" lon="-72.44303131">
    <tag k="addr:housenumber" v="371"/>
    <tag k="addr:street" v="Vermont Route 12"/>
    <tag k="addr:state" v="VT"/>
    <tag k="ref:vcgi:esiteid" v="125542"/>
  </node>
  <node id="-710" visible="true" lat="43.57250948" lon="-72.49455439">
    <tag k="addr:housenumber" v="142"/>
    <tag k="addr:street" v="Cream Pot Road"/>
    <tag k="addr:state" v="VT"/>
    <tag k="ref:vcgi:esiteid" v="125543"/>
  </node>
  <node id="-711" visible="true" lat="43.57241821" lon="-72.48413848">
    <tag k="addr:housenumber" v="88"/>
    <tag k="addr:street" v="Cream Pot Road"/>
    <tag k="addr:state" v="VT"/>
    <tag k="ref:vcgi:esiteid" v="125544"/>
  </node>
  <node id="-721" visible="true" lat="43.5716771" lon="-72.4648158">
    <tag k="addr:housenumber" v="8"/>
    <tag k="addr:street" v="Garvin Hill Road"/>
    <tag k="addr:state" v="VT"/>
    <tag k="ref:vcgi:esiteid" v="125554"/>
  </node>
  <node id="-722" visible="true" lat="43.57165145" lon="-72.49820709">
    <tag k="addr:housenumber" v="268"/>
    <tag k="addr:street" v="Densmore Hill Road"/>
    <tag k="addr:state" v="VT"/>
    <tag k="ref:vcgi:esiteid" v="125555"/>
  </node>
  <node id="-723" visible="true" lat="43.5719849" lon="-72.48264691">
    <tag k="addr:housenumber" v="80"/>
    <tag k="addr:street" v="Cream Pot Road"/>
    <tag k="addr:state" v="VT"/>
    <tag k="ref:vcgi:esiteid" v="125556"/>
  </node>
  <node id="-725" visible="true" lat="43.57144046" lon="-72.48645056">
    <tag k="addr:housenumber" v="96"/>
    <tag k="addr:street" v="Cream Pot Road"/>
    <tag k="addr:state" v="VT"/>
    <tag k="ref:vcgi:esiteid" v="125558"/>
  </node>
  <node id="-728" visible="true" lat="43.57136154" lon="-72.46956634">
    <tag k="addr:housenumber" v="7"/>
    <tag k="addr:street" v="Garvin Hill Road"/>
    <tag k="addr:state" v="VT"/>
    <tag k="ref:vcgi:esiteid" v="125561"/>
  </node>
  <node id="-729" visible="true" lat="43.56875469" lon="-72.48268406">
    <tag k="addr:housenumber" v="79"/>
    <tag k="addr:street" v="Cream Pot Road"/>
    <tag k="addr:state" v="VT"/>
    <tag k="ref:vcgi:esiteid" v="125563"/>
  </node>
  <node id="-735" visible="true" lat="43.57051468" lon="-72.44422912">
    <tag k="addr:housenumber" v="359"/>
    <tag k="addr:street" v="Vermont Route 12"/>
    <tag k="addr:state" v="VT"/>
    <tag k="ref:vcgi:esiteid" v="125569"/>
  </node>
  <node id="-742" visible="true" lat="43.56996917" lon="-72.49737548">
    <tag k="addr:housenumber" v="258"/>
    <tag k="addr:street" v="Densmore Hill Road"/>
    <tag k="addr:state" v="VT"/>
    <tag k="ref:vcgi:esiteid" v="125576"/>
  </node>
  <node id="-744" visible="true" lat="43.56984329" lon="-72.46678924">
    <tag k="addr:housenumber" v="269"/>
    <tag k="addr:street" v="Weed Road"/>
    <tag k="addr:state" v="VT"/>
    <tag k="ref:vcgi:esiteid" v="125578"/>
  </node>
  <node id="-749" visible="true" lat="43.5695297" lon="-72.47573422">
    <tag k="addr:housenumber" v="42"/>
    <tag k="addr:street" v="Cream Pot Road"/>
    <tag k="addr:state" v="VT"/>
    <tag k="ref:vcgi:esiteid" v="125584"/>
  </node>
  <node id="-750" visible="true" lat="43.56946134" lon="-72.49973297">
    <tag k="addr:housenumber" v="249"/>
    <tag k="addr:street" v="Densmore Hill Road"/>
    <tag k="addr:state" v="VT"/>
    <tag k="ref:vcgi:esiteid" v="125585"/>
  </node>
  <node id="-756" visible="true" lat="43.5692482" lon="-72.44646453">
    <tag k="addr:housenumber" v="35"/>
    <tag k="addr:street" v="Beaver Lane"/>
    <tag k="addr:state" v="VT"/>
    <tag k="ref:vcgi:esiteid" v="125591"/>
  </node>
  <node id="-760" visible="true" lat="43.56894088" lon="-72.48842565">
    <tag k="addr:housenumber" v="111"/>
    <tag k="addr:street" v="Cream Pot Road"/>
    <tag k="addr:state" v="VT"/>
    <tag k="ref:vcgi:esiteid" v="125595"/>
  </node>
  <node id="-762" visible="true" lat="43.5686531" lon="-72.46783447">
    <tag k="addr:housenumber" v="257"/>
    <tag k="addr:street" v="Weed Road"/>
    <tag k="addr:state" v="VT"/>
    <tag k="ref:vcgi:esiteid" v="125597"/>
  </node>
  <node id="-763" visible="true" lat="43.56853746" lon="-72.49280668">
    <tag k="addr:housenumber" v="139"/>
    <tag k="addr:street" v="Cream Pot Road"/>
    <tag k="addr:state" v="VT"/>
    <tag k="ref:vcgi:esiteid" v="125598"/>
  </node>
  <node id="-768" visible="true" lat="43.56807232" lon="-72.4935199">
    <tag k="addr:housenumber" v="141"/>
    <tag k="addr:street" v="Cream Pot Road"/>
    <tag k="addr:state" v="VT"/>
    <tag k="ref:vcgi:esiteid" v="125603"/>
  </node>
  <node id="-769" visible="true" lat="43.5682962" lon="-72.47333471">
    <tag k="addr:housenumber" v="28"/>
    <tag k="addr:street" v="Cream Pot Road"/>
    <tag k="addr:state" v="VT"/>
    <tag k="ref:vcgi:esiteid" v="125604"/>
  </node>
  <node id="-771" visible="true" lat="43.56812302" lon="-72.48976081">
    <tag k="addr:housenumber" v="121"/>
    <tag k="addr:street" v="Cream Pot Road"/>
    <tag k="addr:state" v="VT"/>
    <tag k="ref:vcgi:esiteid" v="125606"/>
  </node>
  <node id="-773" visible="true" lat="43.56822204" lon="-72.44582367">
    <tag k="addr:housenumber" v="29"/>
    <tag k="addr:street" v="Beaver Lane"/>
    <tag k="addr:state" v="VT"/>
    <tag k="ref:vcgi:esiteid" v="125608"/>
  </node>
  <node id="-781" visible="true" lat="43.56773925" lon="-72.4721903">
    <tag k="addr:housenumber" v="20"/>
    <tag k="addr:street" v="Cream Pot Road"/>
    <tag k="addr:state" v="VT"/>
    <tag k="ref:vcgi:esiteid" v="125616"/>
  </node>
  <node id="-784" visible="true" lat="43.56748748" lon="-72.47056524">
    <tag k="addr:housenumber" v="16"/>
    <tag k="addr:street" v="Cream Pot Road"/>
    <tag k="addr:state" v="VT"/>
    <tag k="ref:vcgi:esiteid" v="125619"/>
  </node>
  <node id="-787" visible="true" lat="43.567348" lon="-72.49927521">
    <tag k="addr:housenumber" v="243"/>
    <tag k="addr:street" v="Densmore Hill Road"/>
    <tag k="addr:state" v="VT"/>
    <tag k="ref:vcgi:esiteid" v="125622"/>
  </node>
  <node id="-789" visible="true" lat="43.56723022" lon="-72.44608306">
    <tag k="addr:housenumber" v="19"/>
    <tag k="addr:street" v="Beaver Lane"/>
    <tag k="addr:state" v="VT"/>
    <tag k="ref:vcgi:esiteid" v="125624"/>
  </node>
  <node id="-791" visible="true" lat="43.56706237" lon="-72.49676513">
    <tag k="addr:housenumber" v="234"/>
    <tag k="addr:street" v="Densmore Hill Road"/>
    <tag k="addr:state" v="VT"/>
    <tag k="ref:vcgi:esiteid" v="125626"/>
  </node>
  <node id="-802" visible="true" lat="43.56622863" lon="-72.49613897">
    <tag k="addr:housenumber" v="167"/>
    <tag k="addr:street" v="Cream Pot Road"/>
    <tag k="addr:state" v="VT"/>
    <tag k="ref:vcgi:esiteid" v="125638"/>
  </node>
  <node id="-808" visible="true" lat="43.565876" lon="-72.44571685">
    <tag k="addr:housenumber" v="15"/>
    <tag k="addr:street" v="Beaver Lane"/>
    <tag k="addr:state" v="VT"/>
    <tag k="ref:vcgi:esiteid" v="125644"/>
  </node>
  <node id="-814" visible="true" lat="43.56524446" lon="-72.49661237">
    <tag k="addr:housenumber" v="223"/>
    <tag k="addr:street" v="Densmore Hill Road"/>
    <tag k="addr:state" v="VT"/>
    <tag k="ref:vcgi:esiteid" v="125650"/>
  </node>
  <node id="-824" visible="true" lat="43.56438827" lon="-72.44174957">
    <tag k="addr:housenumber" v="93"/>
    <tag k="addr:street" v="Cobb Hill Road"/>
    <tag k="addr:state" v="VT"/>
    <tag k="ref:vcgi:esiteid" v="125660"/>
  </node>
  <node id="-827" visible="true" lat="43.56409184" lon="-72.49633808">
    <tag k="addr:housenumber" v="215"/>
    <tag k="addr:street" v="Densmore Hill Road"/>
    <tag k="addr:state" v="VT"/>
    <tag k="ref:vcgi:esiteid" v="125663"/>
  </node>
  <node id="-831" visible="true" lat="43.56385803" lon="-72.44383239">
    <tag k="addr:housenumber" v="311"/>
    <tag k="addr:street" v="Vermont Route 12"/>
    <tag k="addr:state" v="VT"/>
    <tag k="ref:vcgi:esiteid" v="125667"/>
  </node>
  <node id="-835" visible="true" lat="43.56373596" lon="-72.44001007">
    <tag k="addr:housenumber" v="83"/>
    <tag k="addr:street" v="Cobb Hill Road"/>
    <tag k="addr:state" v="VT"/>
    <tag k="ref:vcgi:esiteid" v="125671"/>
  </node>
  <node id="-838" visible="true" lat="43.56359481" lon="-72.44071197">
    <tag k="addr:housenumber" v="85"/>
    <tag k="addr:street" v="Cobb Hill Road"/>
    <tag k="addr:state" v="VT"/>
    <tag k="ref:vcgi:esiteid" v="125674"/>
  </node>
  <node id="-840" visible="true" lat="43.563385" lon="-72.44131469">
    <tag k="addr:housenumber" v="97"/>
    <tag k="addr:street" v="Cobb Hill Road"/>
    <tag k="addr:state" v="VT"/>
    <tag k="ref:vcgi:esiteid" v="125676"/>
  </node>
  <node id="-842" visible="true" lat="43.56309127" lon="-72.44297027">
    <tag k="addr:housenumber" v="306"/>
    <tag k="addr:street" v="Vermont Route 12"/>
    <tag k="addr:state" v="VT"/>
    <tag k="ref:vcgi:esiteid" v="125678"/>
  </node>
  <node id="-849" visible="true" lat="43.56239318" lon="-72.44194793">
    <tag k="addr:housenumber" v="99"/>
    <tag k="addr:street" v="Cobb Hill Road"/>
    <tag k="addr:state" v="VT"/>
    <tag k="ref:vcgi:esiteid" v="125685"/>
  </node>
  <node id="-850" visible="true" lat="43.56239318" lon="-72.49695587">
    <tag k="addr:housenumber" v="205"/>
    <tag k="addr:street" v="Densmore Hill Road"/>
    <tag k="addr:state" v="VT"/>
    <tag k="ref:vcgi:esiteid" v="125686"/>
  </node>
  <node id="-851" visible="true" lat="43.56224822" lon="-72.44291686">
    <tag k="addr:housenumber" v="300"/>
    <tag k="addr:street" v="Vermont Route 12"/>
    <tag k="addr:state" v="VT"/>
    <tag k="ref:vcgi:esiteid" v="125687"/>
  </node>
  <node id="-852" visible="true" lat="43.56207141" lon="-72.48971816">
    <tag k="addr:housenumber" v="174"/>
    <tag k="addr:street" v="Densmore Hill Road"/>
    <tag k="addr:state" v="VT"/>
    <tag k="ref:vcgi:esiteid" v="125688"/>
  </node>
  <node id="-862" visible="true" lat="43.56089401" lon="-72.44344329">
    <tag k="addr:housenumber" v="291"/>
    <tag k="addr:street" v="Vermont Route 12"/>
    <tag k="addr:state" v="VT"/>
    <tag k="ref:vcgi:esiteid" v="125698"/>
  </node>
  <node id="-874" visible="true" lat="43.55955123" lon="-72.44207">
    <tag k="addr:housenumber" v="282"/>
    <tag k="addr:street" v="Vermont Route 12"/>
    <tag k="addr:state" v="VT"/>
    <tag k="ref:vcgi:esiteid" v="125710"/>
  </node>
  <node id="-876" visible="true" lat="43.55926895" lon="-72.44306945">
    <tag k="addr:housenumber" v="283"/>
    <tag k="addr:street" v="Vermont Route 12"/>
    <tag k="addr:state" v="VT"/>
    <tag k="ref:vcgi:esiteid" v="125712"/>
  </node>
  <node id="-877" visible="true" lat="43.55923461" lon="-72.44190978">
    <tag k="addr:housenumber" v="280"/>
    <tag k="addr:street" v="Vermont Route 12"/>
    <tag k="addr:state" v="VT"/>
    <tag k="ref:vcgi:esiteid" v="125713"/>
  </node>
  <node id="-882" visible="true" lat="43.55837631" lon="-72.4835968">
    <tag k="addr:housenumber" v="131"/>
    <tag k="addr:street" v="Densmore Hill Road"/>
    <tag k="addr:state" v="VT"/>
    <tag k="ref:vcgi:esiteid" v="125718"/>
  </node>
  <node id="-889" visible="true" lat="43.55726241" lon="-72.44198608">
    <tag k="addr:housenumber" v="269"/>
    <tag k="addr:street" v="Vermont Route 12"/>
    <tag k="addr:state" v="VT"/>
    <tag k="ref:vcgi:esiteid" v="125725"/>
  </node>
  <node id="-896" visible="true" lat="43.55648422" lon="-72.44077301">
    <tag k="addr:housenumber" v="256"/>
    <tag k="addr:street" v="Vermont Route 12"/>
    <tag k="addr:state" v="VT"/>
    <tag k="ref:vcgi:esiteid" v="125732"/>
  </node>
  <node id="-899" visible="true" lat="43.55625428" lon="-72.47835856">
    <tag k="addr:housenumber" v="98"/>
    <tag k="addr:street" v="Densmore Hill Road"/>
    <tag k="addr:state" v="VT"/>
    <tag k="ref:vcgi:esiteid" v="125735"/>
  </node>
  <node id="-908" visible="true" lat="43.554384" lon="-72.47861425">
    <tag k="addr:housenumber" v="91"/>
    <tag k="addr:street" v="Densmore Hill Road"/>
    <tag k="addr:state" v="VT"/>
    <tag k="ref:vcgi:esiteid" v="125744"/>
  </node>
  <node id="-909" visible="true" lat="43.55435729" lon="-72.47724096">
    <tag k="addr:housenumber" v="92"/>
    <tag k="addr:street" v="Densmore Hill Road"/>
    <tag k="addr:state" v="VT"/>
    <tag k="ref:vcgi:esiteid" v="125745"/>
  </node>
  <node id="-911" visible="true" lat="43.55395372" lon="-72.43997739">
    <tag k="addr:housenumber" v="253"/>
    <tag k="addr:street" v="Vermont Route 12"/>
    <tag k="addr:state" v="VT"/>
    <tag k="ref:vcgi:esiteid" v="125747"/>
  </node>
  <node id="-913" visible="true" lat="43.55361379" lon="-72.43936279">
    <tag k="addr:housenumber" v="241"/>
    <tag k="addr:street" v="Vermont Route 12"/>
    <tag k="addr:state" v="VT"/>
    <tag k="ref:vcgi:esiteid" v="125749"/>
  </node>
  <node id="-915" visible="true" lat="43.55329659" lon="-72.48913111">
    <tag k="addr:housenumber" v="199"/>
    <tag k="addr:street" v="Densmore Hill Road"/>
    <tag k="addr:state" v="VT"/>
    <tag k="ref:vcgi:esiteid" v="125751"/>
  </node>
  <node id="-918" visible="true" lat="43.55299163" lon="-72.47859136">
    <tag k="addr:housenumber" v="77"/>
    <tag k="addr:street" v="Densmore Hill Road"/>
    <tag k="addr:state" v="VT"/>
    <tag k="ref:vcgi:esiteid" v="125754"/>
  </node>
  <node id="-920" visible="true" lat="43.55540331" lon="-72.51535101">
    <tag k="addr:housenumber" v="94"/>
    <tag k="addr:street" v="Morley Road"/>
    <tag k="addr:state" v="VT"/>
    <tag k="ref:vcgi:esiteid" v="125756"/>
  </node>
  <node id="-956" visible="true" lat="43.55056653" lon="-72.50659838">
    <tag k="addr:housenumber" v="111"/>
    <tag k="addr:street" v="Morley Road"/>
    <tag k="addr:state" v="VT"/>
    <tag k="ref:vcgi:esiteid" v="125792"/>
  </node>
  <node id="-959" visible="true" lat="43.55038055" lon="-72.41432616">
    <tag k="addr:housenumber" v="28"/>
    <tag k="addr:street" v="Bowers Road"/>
    <tag k="addr:state" v="VT"/>
    <tag k="ref:vcgi:esiteid" v="125795"/>
  </node>
  <node id="-962" visible="true" lat="43.54988515" lon="-72.51357452">
    <tag k="addr:housenumber" v="107"/>
    <tag k="addr:street" v="Peabody Road"/>
    <tag k="addr:state" v="VT"/>
    <tag k="ref:vcgi:esiteid" v="125798"/>
  </node>
  <node id="-968" visible="true" lat="43.5494194" lon="-72.40979003">
    <tag k="addr:housenumber" v="29"/>
    <tag k="addr:street" v="Lovers Lane"/>
    <tag k="addr:state" v="VT"/>
    <tag k="ref:vcgi:esiteid" v="125804"/>
  </node>
  <node id="-969" visible="true" lat="43.54941726" lon="-72.47520391">
    <tag k="addr:housenumber" v="58"/>
    <tag k="addr:street" v="Densmore Hill Road"/>
    <tag k="addr:state" v="VT"/>
    <tag k="ref:vcgi:esiteid" v="125805"/>
  </node>
  <node id="-970" visible="true" lat="43.54923497" lon="-72.41303681">
    <tag k="addr:housenumber" v="16"/>
    <tag k="addr:street" v="Bowers Road"/>
    <tag k="addr:state" v="VT"/>
    <tag k="ref:vcgi:esiteid" v="125806"/>
  </node>
  <node id="-978" visible="true" lat="43.54889001" lon="-72.43298421">
    <tag k="addr:housenumber" v="194"/>
    <tag k="addr:street" v="Vermont Route 12"/>
    <tag k="addr:state" v="VT"/>
    <tag k="ref:vcgi:esiteid" v="125814"/>
  </node>
  <node id="-985" visible="true" lat="43.54824066" lon="-72.38903808">
    <tag k="addr:housenumber" v="12"/>
    <tag k="addr:street" v="Edgewood Lane"/>
    <tag k="addr:state" v="VT"/>
    <tag k="ref:vcgi:esiteid" v="125821"/>
  </node>
  <node id="-986" visible="true" lat="43.54806871" lon="-72.42439464">
    <tag k="addr:housenumber" v="3"/>
    <tag k="addr:street" v="Linden Road"/>
    <tag k="addr:state" v="VT"/>
    <tag k="ref:vcgi:esiteid" v="125822"/>
  </node>
  <node id="-989" visible="true" lat="43.54753796" lon="-72.43195553">
    <tag k="addr:housenumber" v="183"/>
    <tag k="addr:street" v="Vermont Route 12"/>
    <tag k="addr:state" v="VT"/>
    <tag k="ref:vcgi:esiteid" v="125825"/>
  </node>
  <node id="-990" visible="true" lat="43.54773173" lon="-72.42495705">
    <tag k="addr:housenumber" v="9"/>
    <tag k="addr:street" v="Mace Hill Road"/>
    <tag k="addr:state" v="VT"/>
    <tag k="ref:vcgi:esiteid" v="125826"/>
  </node>
  <node id="-995" visible="true" lat="43.54753494" lon="-72.41543578">
    <tag k="addr:housenumber" v="98"/>
    <tag k="addr:street" v="Vermont Route 12"/>
    <tag k="addr:state" v="VT"/>
    <tag k="ref:vcgi:esiteid" v="125831"/>
  </node>
  <node id="-996" visible="true" lat="43.54758516" lon="-72.41365694">
    <tag k="addr:housenumber" v="6"/>
    <tag k="addr:street" v="Bowers Road"/>
    <tag k="addr:state" v="VT"/>
    <tag k="ref:vcgi:esiteid" v="125832"/>
  </node>
  <node id="-997" visible="true" lat="43.54760522" lon="-72.41610387">
    <tag k="addr:housenumber" v="104"/>
    <tag k="addr:street" v="Vermont Route 12"/>
    <tag k="addr:state" v="VT"/>
    <tag k="ref:vcgi:esiteid" v="125833"/>
  </node>
  <node id="-998" visible="true" lat="43.54758408" lon="-72.38702142">
    <tag k="addr:housenumber" v="2"/>
    <tag k="addr:street" v="Edgewood Lane"/>
    <tag k="addr:state" v="VT"/>
    <tag k="ref:vcgi:esiteid" v="125834"/>
  </node>
  <node id="-999" visible="true" lat="43.5474361" lon="-72.4220479">
    <tag k="addr:housenumber" v="130"/>
    <tag k="addr:street" v="Vermont Route 12"/>
    <tag k="addr:state" v="VT"/>
    <tag k="ref:vcgi:esiteid" v="125835"/>
  </node>
  <node id="-1000" visible="true" lat="43.54757882" lon="-72.42165156">
    <tag k="addr:housenumber" v="128"/>
    <tag k="addr:street" v="Vermont Route 12"/>
    <tag k="addr:state" v="VT"/>
    <tag k="ref:vcgi:esiteid" v="125836"/>
  </node>
  <node id="-1001" visible="true" lat="43.54743613" lon="-72.41837946">
    <tag k="addr:housenumber" v="112"/>
    <tag k="addr:street" v="Vermont Route 12"/>
    <tag k="addr:state" v="VT"/>
    <tag k="ref:vcgi:esiteid" v="125837"/>
  </node>
  <node id="-1003" visible="true" lat="43.54737472" lon="-72.42344665">
    <tag k="addr:housenumber" v="136"/>
    <tag k="addr:street" v="Vermont Route 12"/>
    <tag k="addr:state" v="VT"/>
    <tag k="ref:vcgi:esiteid" v="125839"/>
  </node>
  <node id="-1007" visible="true" lat="43.54718761" lon="-72.42449119">
    <tag k="addr:housenumber" v="10"/>
    <tag k="addr:street" v="Mace Hill Road"/>
    <tag k="addr:state" v="VT"/>
    <tag k="ref:vcgi:esiteid" v="125843"/>
  </node>
  <node id="-1008" visible="true" lat="43.54711352" lon="-72.41554712">
    <tag k="addr:housenumber" v="95"/>
    <tag k="addr:street" v="Vermont Route 12"/>
    <tag k="addr:state" v="VT"/>
    <tag k="ref:vcgi:esiteid" v="125844"/>
  </node>
  <node id="-1009" visible="true" lat="43.54718217" lon="-72.42927693">
    <tag k="addr:housenumber" v="168"/>
    <tag k="addr:street" v="Vermont Route 12"/>
    <tag k="addr:state" v="VT"/>
    <tag k="ref:vcgi:esiteid" v="125845"/>
  </node>
  <node id="-1013" visible="true" lat="43.54690897" lon="-72.42366589">
    <tag k="addr:housenumber" v="138"/>
    <tag k="addr:street" v="Vermont Route 12"/>
    <tag k="addr:state" v="VT"/>
    <tag k="ref:vcgi:esiteid" v="125849"/>
  </node>
  <node id="-1014" visible="true" lat="43.54687346" lon="-72.41447684">
    <tag k="addr:housenumber" v="91"/>
    <tag k="addr:street" v="Vermont Route 12"/>
    <tag k="addr:state" v="VT"/>
    <tag k="ref:vcgi:esiteid" v="125850"/>
  </node>
  <node id="-1015" visible="true" lat="43.54682259" lon="-72.4247129">
    <tag k="addr:housenumber" v="6"/>
    <tag k="addr:street" v="Mace Hill Road"/>
    <tag k="addr:state" v="VT"/>
    <tag k="ref:vcgi:esiteid" v="125851"/>
  </node>
  <node id="-1018" visible="true" lat="43.54689025" lon="-72.42962646">
    <tag k="addr:housenumber" v="169"/>
    <tag k="addr:street" v="Vermont Route 12"/>
    <tag k="addr:state" v="VT"/>
    <tag k="ref:vcgi:esiteid" v="125854"/>
  </node>
  <node id="-1019" visible="true" lat="43.54688541" lon="-72.42518064">
    <tag k="addr:housenumber" v="3"/>
    <tag k="addr:street" v="Mace Hill Road"/>
    <tag k="addr:state" v="VT"/>
    <tag k="ref:vcgi:esiteid" v="125855"/>
  </node>
  <node id="-1020" visible="true" lat="43.54674107" lon="-72.41266316">
    <tag k="addr:housenumber" v="82"/>
    <tag k="addr:street" v="Vermont Route 12"/>
    <tag k="addr:state" v="VT"/>
    <tag k="ref:vcgi:esiteid" v="125856"/>
  </node>
  <node id="-1021" visible="true" lat="43.54658552" lon="-72.41399792">
    <tag k="addr:housenumber" v="89"/>
    <tag k="addr:street" v="Vermont Route 12"/>
    <tag k="addr:state" v="VT"/>
    <tag k="ref:vcgi:esiteid" v="125857"/>
  </node>
  <node id="-1024" visible="true" lat="43.54664993" lon="-72.41225433">
    <tag k="addr:housenumber" v="80"/>
    <tag k="addr:street" v="Vermont Route 12"/>
    <tag k="addr:state" v="VT"/>
    <tag k="ref:vcgi:esiteid" v="125860"/>
  </node>
  <node id="-1027" visible="true" lat="43.5463387" lon="-72.41344196">
    <tag k="addr:housenumber" v="85"/>
    <tag k="addr:street" v="Vermont Route 12"/>
    <tag k="addr:state" v="VT"/>
    <tag k="ref:vcgi:esiteid" v="125863"/>
  </node>
  <node id="-1032" visible="true" lat="43.54629135" lon="-72.42650604">
    <tag k="addr:housenumber" v="1"/>
    <tag k="addr:street" v="Davis Road"/>
    <tag k="addr:state" v="VT"/>
    <tag k="ref:vcgi:esiteid" v="125868"/>
  </node>
  <node id="-1033" visible="true" lat="43.54627757" lon="-72.41274178">
    <tag k="addr:housenumber" v="81"/>
    <tag k="addr:street" v="Vermont Route 12"/>
    <tag k="addr:state" v="VT"/>
    <tag k="ref:vcgi:esiteid" v="125869"/>
  </node>
  <node id="-1035" visible="true" lat="43.54612726" lon="-72.42645575">
    <tag k="addr:housenumber" v="3"/>
    <tag k="addr:street" v="Davis Road"/>
    <tag k="addr:state" v="VT"/>
    <tag k="ref:vcgi:esiteid" v="125871"/>
  </node>
  <node id="-1036" visible="true" lat="43.54607772" lon="-72.41236877">
    <tag k="addr:housenumber" v="3"/>
    <tag k="addr:street" v="Summarsell Drive"/>
    <tag k="addr:state" v="VT"/>
    <tag k="ref:vcgi:esiteid" v="125872"/>
  </node>
  <node id="-1037" visible="true" lat="43.5461028" lon="-72.42518167">
    <tag k="addr:housenumber" v="3"/>
    <tag k="addr:street" v="Brownsville Road"/>
    <tag k="addr:state" v="VT"/>
    <tag k="ref:vcgi:esiteid" v="125873"/>
  </node>
  <node id="-1038" visible="true" lat="43.54600138" lon="-72.42645988">
    <tag k="addr:housenumber" v="5"/>
    <tag k="addr:street" v="Davis Road"/>
    <tag k="addr:state" v="VT"/>
    <tag k="ref:vcgi:esiteid" v="125874"/>
  </node>
  <node id="-1039" visible="true" lat="43.54601287" lon="-72.42576599">
    <tag k="addr:housenumber" v="6"/>
    <tag k="addr:street" v="Brownsville Road"/>
    <tag k="addr:state" v="VT"/>
    <tag k="ref:vcgi:esiteid" v="125875"/>
  </node>
  <node id="-1040" visible="true" lat="43.54598998" lon="-72.42798614">
    <tag k="addr:housenumber" v="17"/>
    <tag k="addr:street" v="Davis Road"/>
    <tag k="addr:state" v="VT"/>
    <tag k="ref:vcgi:esiteid" v="125876"/>
  </node>
  <node id="-1041" visible="true" lat="43.54594039" lon="-72.4267044">
    <tag k="addr:housenumber" v="7"/>
    <tag k="addr:street" v="Davis Road"/>
    <tag k="addr:state" v="VT"/>
    <tag k="ref:vcgi:esiteid" v="125877"/>
  </node>
  <node id="-1042" visible="true" lat="43.54598743" lon="-72.42167179">
    <tag k="addr:housenumber" v="25"/>
    <tag k="addr:street" v="Pierce Pinnacle"/>
    <tag k="addr:state" v="VT"/>
    <tag k="ref:vcgi:esiteid" v="125878"/>
  </node>
  <node id="-1044" visible="true" lat="43.54591751" lon="-72.42531585">
    <tag k="addr:housenumber" v="5"/>
    <tag k="addr:street" v="Brownsville Road"/>
    <tag k="addr:state" v="VT"/>
    <tag k="ref:vcgi:esiteid" v="125880"/>
  </node>
  <node id="-1045" visible="true" lat="43.54591751" lon="-72.42761993">
    <tag k="addr:housenumber" v="15"/>
    <tag k="addr:street" v="Davis Road"/>
    <tag k="addr:state" v="VT"/>
    <tag k="ref:vcgi:esiteid" v="125881"/>
  </node>
  <node id="-1046" visible="true" lat="43.54587173" lon="-72.4272232">
    <tag k="addr:housenumber" v="13"/>
    <tag k="addr:street" v="Davis Road"/>
    <tag k="addr:state" v="VT"/>
    <tag k="ref:vcgi:esiteid" v="125882"/>
  </node>
  <node id="-1047" visible="true" lat="43.54584297" lon="-72.4131918">
    <tag k="addr:housenumber" v="2"/>
    <tag k="addr:street" v="Summarsell Drive"/>
    <tag k="addr:state" v="VT"/>
    <tag k="ref:vcgi:esiteid" v="125883"/>
  </node>
  <node id="-1048" visible="true" lat="43.54584185" lon="-72.42604533">
    <tag k="addr:housenumber" v="8"/>
    <tag k="addr:street" v="Brownsville Road"/>
    <tag k="addr:state" v="VT"/>
    <tag k="ref:vcgi:esiteid" v="125884"/>
  </node>
  <node id="-1049" visible="true" lat="43.54584503" lon="-72.42689514">
    <tag k="addr:housenumber" v="11"/>
    <tag k="addr:street" v="Davis Road"/>
    <tag k="addr:state" v="VT"/>
    <tag k="ref:vcgi:esiteid" v="125885"/>
  </node>
  <node id="-1050" visible="true" lat="43.54580688" lon="-72.42674255">
    <tag k="addr:housenumber" v="9"/>
    <tag k="addr:street" v="Davis Road"/>
    <tag k="addr:state" v="VT"/>
    <tag k="ref:vcgi:esiteid" v="125886"/>
  </node>
  <node id="-1051" visible="true" lat="43.54573059" lon="-72.42539977">
    <tag k="addr:housenumber" v="7"/>
    <tag k="addr:street" v="Brownsville Road"/>
    <tag k="addr:state" v="VT"/>
    <tag k="ref:vcgi:esiteid" v="125887"/>
  </node>
  <node id="-1052" visible="true" lat="43.5457675" lon="-72.40932276">
    <tag k="addr:housenumber" v="64"/>
    <tag k="addr:street" v="Vermont Route 12"/>
    <tag k="addr:state" v="VT"/>
    <tag k="ref:vcgi:esiteid" v="125888"/>
  </node>
  <node id="-1053" visible="true" lat="43.5455902" lon="-72.41996335">
    <tag k="addr:housenumber" v="17"/>
    <tag k="addr:street" v="Pierce Pinnacle"/>
    <tag k="addr:state" v="VT"/>
    <tag k="ref:vcgi:esiteid" v="125889"/>
  </node>
  <node id="-1054" visible="true" lat="43.54539496" lon="-72.4255173">
    <tag k="addr:housenumber" v="9"/>
    <tag k="addr:street" v="Brownsville Road"/>
    <tag k="addr:state" v="VT"/>
    <tag k="ref:vcgi:esiteid" v="125890"/>
  </node>
  <node id="-1056" visible="true" lat="43.54549083" lon="-72.41055422">
    <tag k="addr:housenumber" v="69"/>
    <tag k="addr:street" v="Vermont Route 12"/>
    <tag k="addr:state" v="VT"/>
    <tag k="ref:vcgi:esiteid" v="125892"/>
  </node>
  <node id="-1058" visible="true" lat="43.54540252" lon="-72.42565917">
    <tag k="addr:housenumber" v="11"/>
    <tag k="addr:street" v="Brownsville Road"/>
    <tag k="addr:state" v="VT"/>
    <tag k="ref:vcgi:esiteid" v="125894"/>
  </node>
  <node id="-1059" visible="true" lat="43.5453979" lon="-72.41376698">
    <tag k="addr:housenumber" v="16"/>
    <tag k="addr:street" v="Summarsell Drive"/>
    <tag k="addr:state" v="VT"/>
    <tag k="ref:vcgi:esiteid" v="125895"/>
  </node>
  <node id="-1061" visible="true" lat="43.54535651" lon="-72.42774157">
    <tag k="addr:housenumber" v="10"/>
    <tag k="addr:street" v="Town Farm Hill Road"/>
    <tag k="addr:state" v="VT"/>
    <tag k="ref:vcgi:esiteid" v="125897"/>
  </node>
  <node id="-1062" visible="true" lat="43.54523034" lon="-72.41132564">
    <tag k="addr:housenumber" v="73"/>
    <tag k="addr:street" v="Vermont Route 12"/>
    <tag k="addr:state" v="VT"/>
    <tag k="ref:vcgi:esiteid" v="125898"/>
  </node>
  <node id="-1064" visible="true" lat="43.54525504" lon="-72.41319851">
    <tag k="addr:housenumber" v="14"/>
    <tag k="addr:street" v="Summarsell Drive"/>
    <tag k="addr:state" v="VT"/>
    <tag k="ref:vcgi:esiteid" v="125900"/>
  </node>
  <node id="-1070" visible="true" lat="43.54427047" lon="-72.4075334">
    <tag k="addr:housenumber" v="55"/>
    <tag k="addr:street" v="Vermont Route 12"/>
    <tag k="addr:state" v="VT"/>
    <tag k="ref:vcgi:esiteid" v="125906"/>
  </node>
  <node id="-1071" visible="true" lat="43.5444019" lon="-72.49856763">
    <tag k="addr:housenumber" v="98"/>
    <tag k="addr:street" v="Jenne Road"/>
    <tag k="addr:state" v="VT"/>
    <tag k="ref:vcgi:esiteid" v="125907"/>
  </node>
  <node id="-1072" visible="true" lat="43.5443077" lon="-72.4068756">
    <tag k="addr:housenumber" v="49"/>
    <tag k="addr:street" v="Vermont Route 12"/>
    <tag k="addr:state" v="VT"/>
    <tag k="ref:vcgi:esiteid" v="125908"/>
  </node>
  <node id="-1074" visible="true" lat="43.54405972" lon="-72.4028985">
    <tag k="addr:housenumber" v="8"/>
    <tag k="addr:street" v="Bishoff Lane"/>
    <tag k="addr:state" v="VT"/>
    <tag k="ref:vcgi:esiteid" v="125910"/>
  </node>
  <node id="-1076" visible="true" lat="43.54375586" lon="-72.40096786">
    <tag k="addr:housenumber" v="21"/>
    <tag k="addr:street" v="Quechee Road"/>
    <tag k="addr:state" v="VT"/>
    <tag k="ref:vcgi:esiteid" v="125912"/>
  </node>
  <node id="-1077" visible="true" lat="43.54372276" lon="-72.40377717">
    <tag k="addr:housenumber" v="10"/>
    <tag k="addr:street" v="Bishoff Lane"/>
    <tag k="addr:state" v="VT"/>
    <tag k="ref:vcgi:esiteid" v="125913"/>
  </node>
  <node id="-1080" visible="true" lat="43.54325787" lon="-72.40312947">
    <tag k="addr:housenumber" v="32"/>
    <tag k="addr:street" v="Vermont Route 12"/>
    <tag k="addr:state" v="VT"/>
    <tag k="ref:vcgi:esiteid" v="125919"/>
  </node>
  <node id="-1081" visible="true" lat="43.54316711" lon="-72.40409088">
    <tag k="addr:housenumber" v="33"/>
    <tag k="addr:street" v="Vermont Route 12"/>
    <tag k="addr:state" v="VT"/>
    <tag k="ref:vcgi:esiteid" v="125920"/>
  </node>
  <node id="-1082" visible="true" lat="43.54310989" lon="-72.40280914">
    <tag k="addr:housenumber" v="30"/>
    <tag k="addr:street" v="Vermont Route 12"/>
    <tag k="addr:state" v="VT"/>
    <tag k="ref:vcgi:esiteid" v="125921"/>
  </node>
  <node id="-1084" visible="true" lat="43.54294861" lon="-72.47149155">
    <tag k="addr:housenumber" v="122"/>
    <tag k="addr:street" v="Jenneville Road"/>
    <tag k="addr:state" v="VT"/>
    <tag k="ref:vcgi:esiteid" v="125923"/>
  </node>
  <node id="-1085" visible="true" lat="43.54296112" lon="-72.40267181">
    <tag k="addr:housenumber" v="28"/>
    <tag k="addr:street" v="Vermont Route 12"/>
    <tag k="addr:state" v="VT"/>
    <tag k="ref:vcgi:esiteid" v="125924"/>
  </node>
  <node id="-1086" visible="true" lat="43.54288108" lon="-72.49377012">
    <tag k="addr:housenumber" v="68"/>
    <tag k="addr:street" v="Jenne Road"/>
    <tag k="addr:state" v="VT"/>
    <tag k="ref:vcgi:esiteid" v="125925"/>
  </node>
  <node id="-1089" visible="true" lat="43.54280471" lon="-72.40232086">
    <tag k="addr:housenumber" v="24"/>
    <tag k="addr:street" v="Vermont Route 12"/>
    <tag k="addr:state" v="VT"/>
    <tag k="ref:vcgi:esiteid" v="125928"/>
  </node>
  <node id="-1090" visible="true" lat="43.54283142" lon="-72.46943664">
    <tag k="addr:housenumber" v="111"/>
    <tag k="addr:street" v="Jenneville Road"/>
    <tag k="addr:state" v="VT"/>
    <tag k="ref:vcgi:esiteid" v="125929"/>
  </node>
  <node id="-1093" visible="true" lat="43.54255294" lon="-72.40000915">
    <tag k="addr:housenumber" v="13"/>
    <tag k="addr:street" v="Quechee Road"/>
    <tag k="addr:state" v="VT"/>
    <tag k="ref:vcgi:esiteid" v="125932"/>
  </node>
  <node id="-1094" visible="true" lat="43.54269119" lon="-72.40190793">
    <tag k="addr:housenumber" v="22"/>
    <tag k="addr:street" v="Vermont Route 12"/>
    <tag k="addr:state" v="VT"/>
    <tag k="ref:vcgi:esiteid" v="125933"/>
  </node>
  <node id="-1095" visible="true" lat="43.54250717" lon="-72.39888763">
    <tag k="addr:housenumber" v="11"/>
    <tag k="addr:street" v="Durphy Road"/>
    <tag k="addr:state" v="VT"/>
    <tag k="ref:vcgi:esiteid" v="125934"/>
  </node>
  <node id="-1096" visible="true" lat="43.54250191" lon="-72.40144999">
    <tag k="addr:housenumber" v="20"/>
    <tag k="addr:street" v="Vermont Route 12"/>
    <tag k="addr:state" v="VT"/>
    <tag k="ref:vcgi:esiteid" v="125935"/>
  </node>
  <node id="-1099" visible="true" lat="43.54235794" lon="-72.47272318">
    <tag k="addr:housenumber" v="128"/>
    <tag k="addr:street" v="Jenneville Road"/>
    <tag k="addr:state" v="VT"/>
    <tag k="ref:vcgi:esiteid" v="125938"/>
  </node>
  <node id="-1100" visible="true" lat="43.54232406" lon="-72.39989471">
    <tag k="addr:housenumber" v="11"/>
    <tag k="addr:street" v="Quechee Road"/>
    <tag k="addr:state" v="VT"/>
    <tag k="ref:vcgi:esiteid" v="125939"/>
  </node>
  <node id="-1101" visible="true" lat="43.54212721" lon="-72.40238963">
    <tag k="addr:housenumber" v="23"/>
    <tag k="addr:street" v="Vermont Route 12"/>
    <tag k="addr:state" v="VT"/>
    <tag k="ref:vcgi:esiteid" v="125940"/>
  </node>
  <node id="-1102" visible="true" lat="43.5421373" lon="-72.40207804">
    <tag k="addr:housenumber" v="21"/>
    <tag k="addr:street" v="Vermont Route 12"/>
    <tag k="addr:state" v="VT"/>
    <tag k="ref:vcgi:esiteid" v="125941"/>
  </node>
  <node id="-1105" visible="true" lat="43.54204763" lon="-72.39811153">
    <tag k="addr:housenumber" v="8"/>
    <tag k="addr:street" v="Durphy Road"/>
    <tag k="addr:state" v="VT"/>
    <tag k="ref:vcgi:esiteid" v="125944"/>
  </node>
  <node id="-1106" visible="true" lat="43.54185943" lon="-72.40170437">
    <tag k="addr:housenumber" v="19"/>
    <tag k="addr:street" v="Vermont Route 12"/>
    <tag k="addr:state" v="VT"/>
    <tag k="ref:vcgi:esiteid" v="125945"/>
  </node>
  <node id="-1107" visible="true" lat="43.54204177" lon="-72.47971343">
    <tag k="addr:housenumber" v="162"/>
    <tag k="addr:street" v="Jenneville Road"/>
    <tag k="addr:state" v="VT"/>
    <tag k="ref:vcgi:esiteid" v="125946"/>
  </node>
  <node id="-1108" visible="true" lat="43.54198654" lon="-72.39736665">
    <tag k="addr:housenumber" v="10"/>
    <tag k="addr:street" v="Blodgett Lane"/>
    <tag k="addr:state" v="VT"/>
    <tag k="ref:vcgi:esiteid" v="125947"/>
  </node>
  <node id="-1109" visible="true" lat="43.54181488" lon="-72.39956066">
    <tag k="addr:housenumber" v="9"/>
    <tag k="addr:street" v="Quechee Road"/>
    <tag k="addr:state" v="VT"/>
    <tag k="ref:vcgi:esiteid" v="125948"/>
  </node>
  <node id="-1110" visible="true" lat="43.54193115" lon="-72.48031616">
    <tag k="addr:housenumber" v="160"/>
    <tag k="addr:street" v="Jenneville Road"/>
    <tag k="addr:state" v="VT"/>
    <tag k="ref:vcgi:esiteid" v="125949"/>
  </node>
  <node id="-1111" visible="true" lat="43.54204487" lon="-72.40072444">
    <tag k="addr:housenumber" v="16"/>
    <tag k="addr:street" v="Vermont Route 12"/>
    <tag k="addr:state" v="VT"/>
    <tag k="ref:vcgi:esiteid" v="125950"/>
  </node>
  <node id="-1112" visible="true" lat="43.54180923" lon="-72.40135868">
    <tag k="addr:housenumber" v="17"/>
    <tag k="addr:street" v="Vermont Route 12"/>
    <tag k="addr:state" v="VT"/>
    <tag k="ref:vcgi:esiteid" v="125951"/>
  </node>
  <node id="-1113" visible="true" lat="43.54180663" lon="-72.40039925">
    <tag k="addr:housenumber" v="14"/>
    <tag k="addr:street" v="Vermont Route 12"/>
    <tag k="addr:state" v="VT"/>
    <tag k="ref:vcgi:esiteid" v="125952"/>
  </node>
  <node id="-1114" visible="true" lat="43.54177289" lon="-72.3967066">
    <tag k="addr:housenumber" v="8"/>
    <tag k="addr:street" v="Blodgett Lane"/>
    <tag k="addr:state" v="VT"/>
    <tag k="ref:vcgi:esiteid" v="125953"/>
  </node>
  <node id="-1116" visible="true" lat="43.5417022" lon="-72.40025319">
    <tag k="addr:housenumber" v="12"/>
    <tag k="addr:street" v="Vermont Route 12"/>
    <tag k="addr:state" v="VT"/>
    <tag k="ref:vcgi:esiteid" v="125955"/>
  </node>
  <node id="-1118" visible="true" lat="43.54152546" lon="-72.40077333">
    <tag k="addr:housenumber" v="15"/>
    <tag k="addr:street" v="Vermont Route 12"/>
    <tag k="addr:state" v="VT"/>
    <tag k="ref:vcgi:esiteid" v="125957"/>
  </node>
  <node id="-1119" visible="true" lat="43.54158401" lon="-72.39931487">
    <tag k="addr:housenumber" v="7"/>
    <tag k="addr:street" v="Quechee Road"/>
    <tag k="addr:state" v="VT"/>
    <tag k="ref:vcgi:esiteid" v="125958"/>
  </node>
  <node id="-1120" visible="true" lat="43.54159712" lon="-72.39877246">
    <tag k="addr:housenumber" v="2"/>
    <tag k="addr:street" v="Durphy Road"/>
    <tag k="addr:state" v="VT"/>
    <tag k="ref:vcgi:esiteid" v="125959"/>
  </node>
  <node id="-1121" visible="true" lat="43.54154586" lon="-72.39717102">
    <tag k="addr:housenumber" v="6"/>
    <tag k="addr:street" v="Blodgett Lane"/>
    <tag k="addr:state" v="VT"/>
    <tag k="ref:vcgi:esiteid" v="125960"/>
  </node>
  <node id="-1122" visible="true" lat="43.54128424" lon="-72.40040611">
    <tag k="addr:housenumber" v="11"/>
    <tag k="addr:street" v="Vermont Route 12"/>
    <tag k="addr:state" v="VT"/>
    <tag k="ref:vcgi:esiteid" v="125961"/>
  </node>
  <node id="-1126" visible="true" lat="43.54143878" lon="-72.39959108">
    <tag k="addr:housenumber" v="1"/>
    <tag k="addr:street" v="Quechee Road"/>
    <tag k="addr:state" v="VT"/>
    <tag k="ref:vcgi:esiteid" v="125965"/>
  </node>
  <node id="-1128" visible="true" lat="43.54131698" lon="-72.38526153">
    <tag k="addr:housenumber" v="76"/>
    <tag k="addr:street" v="Ferry Road"/>
    <tag k="addr:state" v="VT"/>
    <tag k="ref:vcgi:esiteid" v="125968"/>
  </node>
  <node id="-1130" visible="true" lat="43.54101621" lon="-72.40006772">
    <tag k="addr:housenumber" v="9"/>
    <tag k="addr:street" v="Vermont Route 12"/>
    <tag k="addr:state" v="VT"/>
    <tag k="ref:vcgi:esiteid" v="125970"/>
  </node>
  <node id="-1131" visible="true" lat="43.54121392" lon="-72.39867609">
    <tag k="addr:housenumber" v="4"/>
    <tag k="addr:street" v="Quechee Road"/>
    <tag k="addr:state" v="VT"/>
    <tag k="ref:vcgi:esiteid" v="125971"/>
  </node>
  <node id="-1133" visible="true" lat="43.54107665" lon="-72.39855956">
    <tag k="addr:housenumber" v="2"/>
    <tag k="addr:street" v="Quechee Road"/>
    <tag k="addr:state" v="VT"/>
    <tag k="ref:vcgi:esiteid" v="125973"/>
  </node>
  <node id="-1135" visible="true" lat="43.54098592" lon="-72.39957364">
    <tag k="addr:housenumber" v="7"/>
    <tag k="addr:street" v="Vermont Route 12"/>
    <tag k="addr:state" v="VT"/>
    <tag k="ref:vcgi:esiteid" v="125975"/>
  </node>
  <node id="-1136" visible="true" lat="43.54103851" lon="-72.39598083">
    <tag k="addr:housenumber" v="11"/>
    <tag k="addr:street" v="Station Road"/>
    <tag k="addr:state" v="VT"/>
    <tag k="ref:vcgi:esiteid" v="125976"/>
  </node>
  <node id="-1137" visible="true" lat="43.54097366" lon="-72.47928619">
    <tag k="addr:housenumber" v="164"/>
    <tag k="addr:street" v="Jenneville Road"/>
    <tag k="addr:state" v="VT"/>
    <tag k="ref:vcgi:esiteid" v="125977"/>
  </node>
  <node id="-1138" visible="true" lat="43.54089736" lon="-72.38536834">
    <tag k="addr:housenumber" v="74"/>
    <tag k="addr:street" v="Ferry Road"/>
    <tag k="addr:state" v="VT"/>
    <tag k="ref:vcgi:esiteid" v="125978"/>
  </node>
  <node id="-1140" visible="true" lat="43.54086685" lon="-72.39159393">
    <tag k="addr:housenumber" v="120"/>
    <tag k="addr:street" v="Martinsville Road"/>
    <tag k="addr:state" v="VT"/>
    <tag k="ref:vcgi:esiteid" v="125980"/>
  </node>
  <node id="-1142" visible="true" lat="43.5407257" lon="-72.3926773">
    <tag k="addr:housenumber" v="115"/>
    <tag k="addr:street" v="Martinsville Road"/>
    <tag k="addr:state" v="VT"/>
    <tag k="ref:vcgi:esiteid" v="125982"/>
  </node>
  <node id="-1143" visible="true" lat="43.5406113" lon="-72.39604794">
    <tag k="addr:housenumber" v="10"/>
    <tag k="addr:street" v="Station Road"/>
    <tag k="addr:state" v="VT"/>
    <tag k="ref:vcgi:esiteid" v="125983"/>
  </node>
  <node id="-1144" visible="true" lat="43.54062615" lon="-72.38575038">
    <tag k="addr:housenumber" v="70"/>
    <tag k="addr:street" v="Ferry Road"/>
    <tag k="addr:state" v="VT"/>
    <tag k="ref:vcgi:esiteid" v="125984"/>
  </node>
  <node id="-1147" visible="true" lat="43.54063796" lon="-72.39172363">
    <tag k="addr:housenumber" v="118"/>
    <tag k="addr:street" v="Martinsville Road"/>
    <tag k="addr:state" v="VT"/>
    <tag k="ref:vcgi:esiteid" v="125987"/>
  </node>
  <node id="-1148" visible="true" lat="43.54059219" lon="-72.39659118">
    <tag k="addr:housenumber" v="8"/>
    <tag k="addr:street" v="Station Road"/>
    <tag k="addr:state" v="VT"/>
    <tag k="ref:vcgi:esiteid" v="125988"/>
  </node>
  <node id="-1149" visible="true" lat="43.54049682" lon="-72.39367675">
    <tag k="addr:housenumber" v="20"/>
    <tag k="addr:street" v="Station Road"/>
    <tag k="addr:state" v="VT"/>
    <tag k="ref:vcgi:esiteid" v="125989"/>
  </node>
  <node id="-1151" visible="true" lat="43.54044341" lon="-72.39859771">
    <tag k="addr:housenumber" v="4"/>
    <tag k="addr:street" v="Station Road"/>
    <tag k="addr:state" v="VT"/>
    <tag k="ref:vcgi:esiteid" v="125991"/>
  </node>
  <node id="-1155" visible="true" lat="43.54014363" lon="-72.39081646">
    <tag k="addr:housenumber" v="10"/>
    <tag k="addr:street" v="Reginas Way"/>
    <tag k="addr:state" v="VT"/>
    <tag k="ref:vcgi:esiteid" v="125995"/>
  </node>
  <node id="-1157" visible="true" lat="43.53990649" lon="-72.39099136">
    <tag k="addr:housenumber" v="12"/>
    <tag k="addr:street" v="Reginas Way"/>
    <tag k="addr:state" v="VT"/>
    <tag k="ref:vcgi:esiteid" v="125997"/>
  </node>
  <node id="-1158" visible="true" lat="43.5399845" lon="-72.3931046">
    <tag k="addr:housenumber" v="109"/>
    <tag k="addr:street" v="Martinsville Road"/>
    <tag k="addr:state" v="VT"/>
    <tag k="ref:vcgi:esiteid" v="125998"/>
  </node>
  <node id="-1159" visible="true" lat="43.53978347" lon="-72.39221954">
    <tag k="addr:housenumber" v="110"/>
    <tag k="addr:street" v="Martinsville Road"/>
    <tag k="addr:state" v="VT"/>
    <tag k="ref:vcgi:esiteid" v="125999"/>
  </node>
  <node id="-1166" visible="true" lat="43.53920793" lon="-72.49251504">
    <tag k="addr:housenumber" v="41"/>
    <tag k="addr:street" v="Jenne Road"/>
    <tag k="addr:state" v="VT"/>
    <tag k="ref:vcgi:esiteid" v="126006"/>
  </node>
  <node id="-1196" visible="true" lat="43.53769824" lon="-72.48932988">
    <tag k="addr:housenumber" v="24"/>
    <tag k="addr:street" v="Jenne Road"/>
    <tag k="addr:state" v="VT"/>
    <tag k="ref:vcgi:esiteid" v="126037"/>
  </node>
  <node id="-1213" visible="true" lat="43.53665075" lon="-72.3934698">
    <tag k="addr:housenumber" v="86"/>
    <tag k="addr:street" v="Martinsville Road"/>
    <tag k="addr:state" v="VT"/>
    <tag k="ref:vcgi:esiteid" v="126054"/>
  </node>
  <node id="-1241" visible="true" lat="43.53565275" lon="-72.48890729">
    <tag k="addr:housenumber" v="10"/>
    <tag k="addr:street" v="Jenne Road"/>
    <tag k="addr:state" v="VT"/>
    <tag k="ref:vcgi:esiteid" v="126082"/>
  </node>
  <node id="-1249" visible="true" lat="43.53489134" lon="-72.49285538">
    <tag k="addr:housenumber" v="5"/>
    <tag k="addr:street" v="Jenne Road"/>
    <tag k="addr:state" v="VT"/>
    <tag k="ref:vcgi:esiteid" v="126090"/>
  </node>
  <node id="-1252" visible="true" lat="43.53499335" lon="-72.48872253">
    <tag k="addr:housenumber" v="6"/>
    <tag k="addr:street" v="Jenne Road"/>
    <tag k="addr:state" v="VT"/>
    <tag k="ref:vcgi:esiteid" v="126093"/>
  </node>
  <node id="-1281" visible="true" lat="43.53476995" lon="-72.39555861">
    <tag k="addr:housenumber" v="67"/>
    <tag k="addr:street" v="Martinsville Road"/>
    <tag k="addr:state" v="VT"/>
    <tag k="ref:vcgi:esiteid" v="126124"/>
  </node>
  <node id="-1331" visible="true" lat="43.5259776" lon="-72.45533752">
    <tag k="addr:housenumber" v="265"/>
    <tag k="addr:street" v="Brownsville Road"/>
    <tag k="addr:state" v="VT"/>
    <tag k="ref:vcgi:esiteid" v="126177"/>
  </node>
  <node id="-1347" visible="true" lat="43.5807228" lon="-72.37525177">
    <tag k="addr:housenumber" v="500"/>
    <tag k="addr:street" v="U.S. Route 5"/>
    <tag k="addr:state" v="VT"/>
    <tag k="ref:vcgi:esiteid" v="126193"/>
  </node>
  <node id="-1349" visible="true" lat="43.57083748" lon="-72.38331226">
    <tag k="addr:housenumber" v="415"/>
    <tag k="addr:street" v="U.S. Route 5"/>
    <tag k="addr:state" v="VT"/>
    <tag k="ref:vcgi:esiteid" v="126195"/>
  </node>
  <node id="-1351" visible="true" lat="43.55280456" lon="-72.40862404">
    <tag k="addr:housenumber" v="6"/>
    <tag k="addr:street" v="Ramona Lane"/>
    <tag k="addr:state" v="VT"/>
    <tag k="ref:vcgi:esiteid" v="126197"/>
  </node>
  <node id="-1361" visible="true" lat="43.54239695" lon="-72.40271531">
    <tag k="addr:housenumber" v="25"/>
    <tag k="addr:street" v="Vermont Route 12"/>
    <tag k="addr:state" v="VT"/>
    <tag k="ref:vcgi:esiteid" v="126207"/>
  </node>
  <node id="-1362" visible="true" lat="43.54254243" lon="-72.40289957">
    <tag k="addr:housenumber" v="27"/>
    <tag k="addr:street" v="Vermont Route 12"/>
    <tag k="addr:state" v="VT"/>
    <tag k="ref:vcgi:esiteid" v="126208"/>
  </node>
  <node id="-1365" visible="true" lat="43.52800236" lon="-72.39945603">
    <tag k="addr:housenumber" v="13"/>
    <tag k="addr:street" v="42nd Street"/>
    <tag k="addr:state" v="VT"/>
    <tag k="ref:vcgi:esiteid" v="126211"/>
  </node>
  <node id="-1366" visible="true" lat="43.54720325" lon="-72.49095319">
    <tag k="addr:housenumber" v="100"/>
    <tag k="addr:street" v="Dodge Lane"/>
    <tag k="addr:state" v="VT"/>
    <tag k="ref:vcgi:esiteid" v="126212"/>
  </node>
  <node id="-1419" visible="true" lat="43.54451914" lon="-72.39932817">
    <tag k="addr:housenumber" v="16"/>
    <tag k="addr:street" v="Eastman Road"/>
    <tag k="addr:state" v="VT"/>
    <tag k="ref:vcgi:esiteid" v="126266"/>
  </node>
  <node id="-1424" visible="true" lat="43.58802413" lon="-72.44928741">
    <tag k="addr:housenumber" v="489"/>
    <tag k="addr:street" v="Vermont Route 12"/>
    <tag k="addr:state" v="VT"/>
    <tag k="ref:vcgi:esiteid" v="126272"/>
  </node>
  <node id="-1425" visible="true" lat="43.58656263" lon="-72.45174407">
    <tag k="addr:housenumber" v="491"/>
    <tag k="addr:street" v="Vermont Route 12"/>
    <tag k="addr:state" v="VT"/>
    <tag k="ref:vcgi:esiteid" v="126273"/>
  </node>
  <node id="-1426" visible="true" lat="43.58514477" lon="-72.45020074">
    <tag k="addr:housenumber" v="473"/>
    <tag k="addr:street" v="Vermont Route 12"/>
    <tag k="addr:state" v="VT"/>
    <tag k="ref:vcgi:esiteid" v="126274"/>
  </node>
  <node id="-1427" visible="true" lat="43.58468198" lon="-72.44957733">
    <tag k="addr:housenumber" v="465"/>
    <tag k="addr:street" v="Vermont Route 12"/>
    <tag k="addr:state" v="VT"/>
    <tag k="ref:vcgi:esiteid" v="126275"/>
  </node>
  <node id="-1428" visible="true" lat="43.58439969" lon="-72.44948577">
    <tag k="addr:housenumber" v="463"/>
    <tag k="addr:street" v="Vermont Route 12"/>
    <tag k="addr:state" v="VT"/>
    <tag k="ref:vcgi:esiteid" v="126276"/>
  </node>
  <node id="-1435" visible="true" lat="43.54221538" lon="-72.48693591">
    <tag k="addr:housenumber" v="57"/>
    <tag k="addr:street" v="Dodge Lane"/>
    <tag k="addr:state" v="VT"/>
    <tag k="ref:vcgi:esiteid" v="126283"/>
  </node>
  <node id="-1436" visible="true" lat="43.54021453" lon="-72.48657989">
    <tag k="addr:housenumber" v="27"/>
    <tag k="addr:street" v="Dodge Lane"/>
    <tag k="addr:state" v="VT"/>
    <tag k="ref:vcgi:esiteid" v="126284"/>
  </node>
  <node id="-1454" visible="true" lat="43.53961638" lon="-72.39316836">
    <tag k="addr:housenumber" v="107"/>
    <tag k="addr:street" v="Martinsville Road"/>
    <tag k="addr:state" v="VT"/>
    <tag k="ref:vcgi:esiteid" v="126302"/>
  </node>
  <node id="-1470" visible="true" lat="43.61175482" lon="-72.45994127">
    <tag k="addr:housenumber" v="21"/>
    <tag k="addr:street" v="Fork Brook Road"/>
    <tag k="addr:state" v="VT"/>
    <tag k="ref:vcgi:esiteid" v="126318"/>
  </node>
  <node id="-1473" visible="true" lat="43.55505456" lon="-72.47904221">
    <tag k="addr:housenumber" v="95"/>
    <tag k="addr:street" v="Densmore Hill Road"/>
    <tag k="addr:state" v="VT"/>
    <tag k="ref:vcgi:esiteid" v="126321"/>
  </node>
  <node id="-1474" visible="true" lat="43.62029968" lon="-72.40816726">
    <tag k="addr:housenumber" v="390"/>
    <tag k="addr:street" v="Clay Hill Road"/>
    <tag k="addr:state" v="VT"/>
    <tag k="ref:vcgi:esiteid" v="126322"/>
  </node>
  <node id="-1482" visible="true" lat="43.54120039" lon="-72.40105876">
    <tag k="addr:housenumber" v="13"/>
    <tag k="addr:street" v="Vermont Route 12"/>
    <tag k="addr:state" v="VT"/>
    <tag k="ref:vcgi:esiteid" v="126330"/>
  </node>
  <node id="-1484" visible="true" lat="43.54220867" lon="-72.48412884">
    <tag k="addr:housenumber" v="38"/>
    <tag k="addr:street" v="Dodge Lane"/>
    <tag k="addr:state" v="VT"/>
    <tag k="ref:vcgi:esiteid" v="126332"/>
  </node>
  <node id="-1488" visible="true" lat="43.53607094" lon="-72.39401211">
    <tag k="addr:housenumber" v="80"/>
    <tag k="addr:street" v="Martinsville Road"/>
    <tag k="addr:state" v="VT"/>
    <tag k="ref:vcgi:esiteid" v="126336"/>
  </node>
  <node id="-1489" visible="true" lat="43.5366155" lon="-72.39533096">
    <tag k="addr:housenumber" v="81"/>
    <tag k="addr:street" v="Martinsville Road"/>
    <tag k="addr:state" v="VT"/>
    <tag k="ref:vcgi:esiteid" v="126337"/>
  </node>
  <node id="-1491" visible="true" lat="43.53537015" lon="-72.39497932">
    <tag k="addr:housenumber" v="69"/>
    <tag k="addr:street" v="Martinsville Road"/>
    <tag k="addr:state" v="VT"/>
    <tag k="ref:vcgi:esiteid" v="126339"/>
  </node>
  <node id="-1502" visible="true" lat="43.58325958" lon="-72.44500341">
    <tag k="addr:housenumber" v="482"/>
    <tag k="addr:street" v="Vermont Route 12"/>
    <tag k="addr:state" v="VT"/>
    <tag k="ref:vcgi:esiteid" v="126352"/>
  </node>
  <node id="-1510" visible="true" lat="43.53590875" lon="-72.39503944">
    <tag k="addr:housenumber" v="79"/>
    <tag k="addr:street" v="Martinsville Road"/>
    <tag k="addr:state" v="VT"/>
    <tag k="ref:vcgi:esiteid" v="126361"/>
  </node>
  <node id="-1511" visible="true" lat="43.53495247" lon="-72.39419359">
    <tag k="addr:housenumber" v="66"/>
    <tag k="addr:street" v="Martinsville Road"/>
    <tag k="addr:state" v="VT"/>
    <tag k="ref:vcgi:esiteid" v="126362"/>
  </node>
  <node id="-1512" visible="true" lat="43.53666313" lon="-72.39447199">
    <tag k="addr:housenumber" v="85"/>
    <tag k="addr:street" v="Martinsville Road"/>
    <tag k="addr:state" v="VT"/>
    <tag k="ref:vcgi:esiteid" v="126363"/>
  </node>
  <node id="-1517" visible="true" lat="43.60123597" lon="-72.4537679">
    <tag k="addr:housenumber" v="591"/>
    <tag k="addr:street" v="Vermont Route 12"/>
    <tag k="addr:state" v="VT"/>
    <tag k="ref:vcgi:esiteid" v="126368"/>
  </node>
  <node id="-1528" visible="true" lat="43.548711" lon="-72.425861">
    <tag k="addr:housenumber" v="13"/>
    <tag k="addr:street" v="Linden Road"/>
    <tag k="addr:state" v="VT"/>
    <tag k="ref:vcgi:esiteid" v="126380"/>
  </node>
  <node id="-1529" visible="true" lat="43.54896422" lon="-72.42618156">
    <tag k="addr:housenumber" v="19"/>
    <tag k="addr:street" v="Linden Road"/>
    <tag k="addr:state" v="VT"/>
    <tag k="ref:vcgi:esiteid" v="126381"/>
  </node>
  <node id="-1530" visible="true" lat="43.54843422" lon="-72.42600212">
    <tag k="addr:housenumber" v="15"/>
    <tag k="addr:street" v="Linden Road"/>
    <tag k="addr:state" v="VT"/>
    <tag k="ref:vcgi:esiteid" v="126382"/>
  </node>
  <node id="-1531" visible="true" lat="43.54842628" lon="-72.42620187">
    <tag k="addr:housenumber" v="17"/>
    <tag k="addr:street" v="Linden Road"/>
    <tag k="addr:state" v="VT"/>
    <tag k="ref:vcgi:esiteid" v="126383"/>
  </node>
  <node id="-1532" visible="true" lat="43.54898603" lon="-72.42640875">
    <tag k="addr:housenumber" v="23"/>
    <tag k="addr:street" v="Linden Road"/>
    <tag k="addr:state" v="VT"/>
    <tag k="ref:vcgi:esiteid" v="126384"/>
  </node>
  <node id="-1533" visible="true" lat="43.54899579" lon="-72.42653284">
    <tag k="addr:housenumber" v="25"/>
    <tag k="addr:street" v="Linden Road"/>
    <tag k="addr:state" v="VT"/>
    <tag k="ref:vcgi:esiteid" v="126385"/>
  </node>
  <node id="-1534" visible="true" lat="43.5484421" lon="-72.4265294">
    <tag k="addr:housenumber" v="38"/>
    <tag k="addr:street" v="Linden Road"/>
    <tag k="addr:state" v="VT"/>
    <tag k="ref:vcgi:esiteid" v="126386"/>
  </node>
  <node id="-1535" visible="true" lat="43.54912894" lon="-72.42672452">
    <tag k="addr:housenumber" v="27"/>
    <tag k="addr:street" v="Linden Road"/>
    <tag k="addr:state" v="VT"/>
    <tag k="ref:vcgi:esiteid" v="126387"/>
  </node>
  <node id="-1536" visible="true" lat="43.54900541" lon="-72.42687743">
    <tag k="addr:housenumber" v="24"/>
    <tag k="addr:street" v="Linden Road"/>
    <tag k="addr:state" v="VT"/>
    <tag k="ref:vcgi:esiteid" v="126388"/>
  </node>
  <node id="-1537" visible="true" lat="43.5488643" lon="-72.42704505">
    <tag k="addr:housenumber" v="28"/>
    <tag k="addr:street" v="Linden Road"/>
    <tag k="addr:state" v="VT"/>
    <tag k="ref:vcgi:esiteid" v="126389"/>
  </node>
  <node id="-1538" visible="true" lat="43.54878276" lon="-72.42724026">
    <tag k="addr:housenumber" v="32"/>
    <tag k="addr:street" v="Linden Road"/>
    <tag k="addr:state" v="VT"/>
    <tag k="ref:vcgi:esiteid" v="126390"/>
  </node>
  <node id="-1539" visible="true" lat="43.54872477" lon="-72.42740393">
    <tag k="addr:housenumber" v="34"/>
    <tag k="addr:street" v="Linden Road"/>
    <tag k="addr:state" v="VT"/>
    <tag k="ref:vcgi:esiteid" v="126391"/>
  </node>
  <node id="-1540" visible="true" lat="43.54908473" lon="-72.42707115">
    <tag k="addr:housenumber" v="26"/>
    <tag k="addr:street" v="Linden Road"/>
    <tag k="addr:state" v="VT"/>
    <tag k="ref:vcgi:esiteid" v="126392"/>
  </node>
  <node id="-1541" visible="true" lat="43.54906715" lon="-72.42731373">
    <tag k="addr:housenumber" v="30"/>
    <tag k="addr:street" v="Linden Road"/>
    <tag k="addr:state" v="VT"/>
    <tag k="ref:vcgi:esiteid" v="126393"/>
  </node>
  <node id="-1542" visible="true" lat="43.54847856" lon="-72.42478542">
    <tag k="addr:housenumber" v="8"/>
    <tag k="addr:street" v="Linden Road"/>
    <tag k="addr:state" v="VT"/>
    <tag k="ref:vcgi:esiteid" v="126394"/>
  </node>
  <node id="-1544" visible="true" lat="43.54578732" lon="-72.388947">
    <tag k="addr:housenumber" v="8"/>
    <tag k="addr:street" v="McArthur Brook Road"/>
    <tag k="addr:state" v="VT"/>
    <tag k="ref:vcgi:esiteid" v="126396"/>
  </node>
  <node id="-1545" visible="true" lat="43.54567353" lon="-72.38908818">
    <tag k="addr:housenumber" v="10"/>
    <tag k="addr:street" v="McArthur Brook Road"/>
    <tag k="addr:state" v="VT"/>
    <tag k="ref:vcgi:esiteid" v="126397"/>
  </node>
  <node id="-1546" visible="true" lat="43.54551932" lon="-72.38867339">
    <tag k="addr:housenumber" v="7"/>
    <tag k="addr:street" v="McArthur Brook Road"/>
    <tag k="addr:state" v="VT"/>
    <tag k="ref:vcgi:esiteid" v="126398"/>
  </node>
  <node id="-1547" visible="true" lat="43.54545115" lon="-72.38886931">
    <tag k="addr:housenumber" v="9"/>
    <tag k="addr:street" v="McArthur Brook Road"/>
    <tag k="addr:state" v="VT"/>
    <tag k="ref:vcgi:esiteid" v="126399"/>
  </node>
  <node id="-1548" visible="true" lat="43.54540014" lon="-72.3891435">
    <tag k="addr:housenumber" v="11"/>
    <tag k="addr:street" v="McArthur Brook Road"/>
    <tag k="addr:state" v="VT"/>
    <tag k="ref:vcgi:esiteid" v="126400"/>
  </node>
  <node id="-1549" visible="true" lat="43.54539466" lon="-72.38936279">
    <tag k="addr:housenumber" v="13"/>
    <tag k="addr:street" v="McArthur Brook Road"/>
    <tag k="addr:state" v="VT"/>
    <tag k="ref:vcgi:esiteid" v="126401"/>
  </node>
  <node id="-1550" visible="true" lat="43.54540639" lon="-72.38971519">
    <tag k="addr:housenumber" v="15"/>
    <tag k="addr:street" v="McArthur Brook Road"/>
    <tag k="addr:state" v="VT"/>
    <tag k="ref:vcgi:esiteid" v="126402"/>
  </node>
  <node id="-1551" visible="true" lat="43.54546359" lon="-72.38995003">
    <tag k="addr:housenumber" v="17"/>
    <tag k="addr:street" v="McArthur Brook Road"/>
    <tag k="addr:state" v="VT"/>
    <tag k="ref:vcgi:esiteid" v="126403"/>
  </node>
  <node id="-1552" visible="true" lat="43.5456624" lon="-72.3893623">
    <tag k="addr:housenumber" v="12"/>
    <tag k="addr:street" v="McArthur Brook Road"/>
    <tag k="addr:state" v="VT"/>
    <tag k="ref:vcgi:esiteid" v="126404"/>
  </node>
  <node id="-1553" visible="true" lat="43.54566263" lon="-72.38959725">
    <tag k="addr:housenumber" v="14"/>
    <tag k="addr:street" v="McArthur Brook Road"/>
    <tag k="addr:state" v="VT"/>
    <tag k="ref:vcgi:esiteid" v="126405"/>
  </node>
  <node id="-1554" visible="true" lat="43.54846376" lon="-72.42674335">
    <tag k="addr:housenumber" v="36"/>
    <tag k="addr:street" v="Linden Road"/>
    <tag k="addr:state" v="VT"/>
    <tag k="ref:vcgi:esiteid" v="126406"/>
  </node>
  <node id="-1562" visible="true" lat="43.60262208" lon="-72.48243208">
    <tag k="addr:housenumber" v="38"/>
    <tag k="addr:street" v="Amsden Farm Lane"/>
    <tag k="addr:state" v="VT"/>
    <tag k="ref:vcgi:esiteid" v="126414"/>
  </node>
  <node id="-1563" visible="true" lat="43.60351751" lon="-72.48409113">
    <tag k="addr:housenumber" v="40"/>
    <tag k="addr:street" v="Amsden Farm Lane"/>
    <tag k="addr:state" v="VT"/>
    <tag k="ref:vcgi:esiteid" v="126415"/>
  </node>
  <node id="-1564" visible="true" lat="43.60347855" lon="-72.48616601">
    <tag k="addr:housenumber" v="42"/>
    <tag k="addr:street" v="Amsden Farm Lane"/>
    <tag k="addr:state" v="VT"/>
    <tag k="ref:vcgi:esiteid" v="126416"/>
  </node>
  <node id="-1565" visible="true" lat="43.60153767" lon="-72.48632069">
    <tag k="addr:housenumber" v="27"/>
    <tag k="addr:street" v="Amsden Farm Lane"/>
    <tag k="addr:state" v="VT"/>
    <tag k="ref:vcgi:esiteid" v="126417"/>
  </node>
  <node id="-1572" visible="true" lat="43.52073609" lon="-72.40059018">
    <tag k="addr:housenumber" v="6"/>
    <tag k="addr:street" v="U.S. Route 5"/>
    <tag k="addr:state" v="VT"/>
    <tag k="ref:vcgi:esiteid" v="126424"/>
  </node>
  <node id="-1577" visible="true" lat="43.54784911" lon="-72.41471841">
    <tag k="addr:housenumber" v="96"/>
    <tag k="addr:street" v="Vermont Route 12"/>
    <tag k="addr:state" v="VT"/>
    <tag k="ref:vcgi:esiteid" v="126429"/>
  </node>
  <node id="-1581" visible="true" lat="43.59954861" lon="-72.45687384">
    <tag k="addr:housenumber" v="25"/>
    <tag k="addr:street" v="Lord Road"/>
    <tag k="addr:state" v="VT"/>
    <tag k="ref:vcgi:esiteid" v="126433"/>
  </node>
  <node id="-1587" visible="true" lat="43.56956559" lon="-72.49319365">
    <tag k="addr:housenumber" v="138"/>
    <tag k="addr:street" v="Cream Pot Road"/>
    <tag k="addr:state" v="VT"/>
    <tag k="ref:vcgi:esiteid" v="126439"/>
  </node>
  <node id="-1588" visible="true" lat="43.56059944" lon="-72.49093257">
    <tag k="addr:housenumber" v="177"/>
    <tag k="addr:street" v="Densmore Hill Road"/>
    <tag k="addr:state" v="VT"/>
    <tag k="ref:vcgi:esiteid" v="126440"/>
  </node>
  <node id="-1596" visible="true" lat="43.54310695" lon="-72.38992737">
    <tag k="addr:housenumber" v="11"/>
    <tag k="addr:street" v="Fox Den Road"/>
    <tag k="addr:state" v="VT"/>
    <tag k="ref:vcgi:esiteid" v="126448"/>
  </node>
  <node id="-1597" visible="true" lat="43.5438869" lon="-72.38970964">
    <tag k="addr:housenumber" v="14"/>
    <tag k="addr:street" v="Fox Den Road"/>
    <tag k="addr:state" v="VT"/>
    <tag k="ref:vcgi:esiteid" v="126449"/>
  </node>
  <node id="-1598" visible="true" lat="43.54350943" lon="-72.38990502">
    <tag k="addr:housenumber" v="12"/>
    <tag k="addr:street" v="Fox Den Road"/>
    <tag k="addr:state" v="VT"/>
    <tag k="ref:vcgi:esiteid" v="126450"/>
  </node>
  <node id="-1605" visible="true" lat="43.57296491" lon="-72.48763112">
    <tag k="addr:housenumber" v="100"/>
    <tag k="addr:street" v="Cream Pot Road"/>
    <tag k="addr:state" v="VT"/>
    <tag k="ref:vcgi:esiteid" v="126460"/>
  </node>
  <node id="-1606" visible="true" lat="43.59026646" lon="-72.4491997">
    <tag k="addr:housenumber" v="6"/>
    <tag k="addr:street" v="Damon Road"/>
    <tag k="addr:state" v="VT"/>
    <tag k="ref:vcgi:esiteid" v="126461"/>
  </node>
  <node id="-1609" visible="true" lat="43.54076935" lon="-72.49145456">
    <tag k="addr:housenumber" v="46"/>
    <tag k="addr:street" v="Jenne Road"/>
    <tag k="addr:state" v="VT"/>
    <tag k="ref:vcgi:esiteid" v="126465"/>
  </node>
  <node id="-1615" visible="true" lat="43.57260772" lon="-72.46951426">
    <tag k="addr:housenumber" v="9"/>
    <tag k="addr:street" v="Garvin Hill Road"/>
    <tag k="addr:state" v="VT"/>
    <tag k="ref:vcgi:esiteid" v="126475"/>
  </node>
  <node id="-1619" visible="true" lat="43.55023593" lon="-72.41371836">
    <tag k="addr:housenumber" v="44"/>
    <tag k="addr:street" v="Lovers Lane"/>
    <tag k="addr:state" v="VT"/>
    <tag k="ref:vcgi:esiteid" v="126479"/>
  </node>
  <node id="-1620" visible="true" lat="43.53582739" lon="-72.39398756">
    <tag k="addr:housenumber" v="78"/>
    <tag k="addr:street" v="Martinsville Road"/>
    <tag k="addr:state" v="VT"/>
    <tag k="ref:vcgi:esiteid" v="126481"/>
  </node>
  <node id="-1625" visible="true" lat="43.54656119" lon="-72.42377799">
    <tag k="addr:housenumber" v="2"/>
    <tag k="addr:street" v="Pierce Pinnacle"/>
    <tag k="addr:state" v="VT"/>
    <tag k="ref:vcgi:esiteid" v="126486"/>
  </node>
  <node id="-1626" visible="true" lat="43.5934558" lon="-72.450233">
    <tag k="addr:housenumber" v="529"/>
    <tag k="addr:street" v="Vermont Route 12"/>
    <tag k="addr:state" v="VT"/>
    <tag k="ref:vcgi:esiteid" v="126487"/>
  </node>
  <node id="-1627" visible="true" lat="43.60972833" lon="-72.45360902">
    <tag k="addr:housenumber" v="653"/>
    <tag k="addr:street" v="Vermont Route 12"/>
    <tag k="addr:state" v="VT"/>
    <tag k="ref:vcgi:esiteid" v="126488"/>
  </node>
  <node id="-1636" visible="true" lat="43.62082452" lon="-72.4573794">
    <tag k="addr:housenumber" v="728"/>
    <tag k="addr:street" v="Vermont Route 12"/>
    <tag k="addr:state" v="VT"/>
    <tag k="ref:vcgi:esiteid" v="310635"/>
  </node>
  <node id="-1639" visible="true" lat="43.59463333" lon="-72.4554802">
    <tag k="addr:housenumber" v="551"/>
    <tag k="addr:street" v="Vermont Route 12"/>
    <tag k="addr:state" v="VT"/>
    <tag k="ref:vcgi:esiteid" v="312202"/>
  </node>
  <node id="-1654" visible="true" lat="43.59538956" lon="-72.49029931">
    <tag k="addr:housenumber" v="1564"/>
    <tag k="addr:street" v="Dunham Hill Road"/>
    <tag k="addr:state" v="VT"/>
    <tag k="ref:vcgi:esiteid" v="328504"/>
  </node>
  <node id="-1666" visible="true" lat="43.56703776" lon="-72.46966405">
    <tag k="addr:housenumber" v="10"/>
    <tag k="addr:street" v="Cream Pot Road"/>
    <tag k="addr:state" v="VT"/>
    <tag k="ref:vcgi:esiteid" v="331893"/>
  </node>
  <node id="-1669" visible="true" lat="43.57107897" lon="-72.49368798">
    <tag k="addr:housenumber" v="140"/>
    <tag k="addr:street" v="Cream Pot Road"/>
    <tag k="addr:state" v="VT"/>
    <tag k="ref:vcgi:esiteid" v="334229"/>
  </node>
  <node id="-1672" visible="true" lat="43.57646003" lon="-72.4934512">
    <tag k="addr:housenumber" v="306"/>
    <tag k="addr:street" v="Densmore Hill Road"/>
    <tag k="addr:state" v="VT"/>
    <tag k="ref:vcgi:esiteid" v="336210"/>
  </node>
  <node id="-1678" visible="true" lat="43.55157384" lon="-72.40826154">
    <tag k="addr:housenumber" v="22"/>
    <tag k="addr:street" v="Merritt Road"/>
    <tag k="addr:state" v="VT"/>
    <tag k="ref:vcgi:esiteid" v="336257"/>
  </node>
  <node id="-1682" visible="true" lat="43.52013428" lon="-72.39962034">
    <tag k="addr:housenumber" v="8"/>
    <tag k="addr:street" v="U.S. Route 5"/>
    <tag k="addr:state" v="VT"/>
    <tag k="ref:vcgi:esiteid" v="336261"/>
  </node>
  <node id="-1686" visible="true" lat="43.59645461" lon="-72.44793461">
    <tag k="addr:housenumber" v="21"/>
    <tag k="addr:street" v="Sportsmen Cove"/>
    <tag k="addr:state" v="VT"/>
    <tag k="ref:vcgi:esiteid" v="336511"/>
  </node>
  <node id="-1688" visible="true" lat="43.53980376" lon="-72.39813923">
    <tag k="addr:housenumber" v="6"/>
    <tag k="addr:street" v="Station Road"/>
    <tag k="addr:state" v="VT"/>
    <tag k="ref:vcgi:esiteid" v="336736"/>
  </node>
  <node id="-1689" visible="true" lat="43.54321755" lon="-72.48778214">
    <tag k="addr:housenumber" v="59"/>
    <tag k="addr:street" v="Dodge Lane"/>
    <tag k="addr:state" v="VT"/>
    <tag k="ref:vcgi:esiteid" v="336961"/>
  </node>
  <node id="-1695" visible="true" lat="43.56136642" lon="-72.44229124">
    <tag k="addr:housenumber" v="294"/>
    <tag k="addr:street" v="Vermont Route 12"/>
    <tag k="addr:state" v="VT"/>
    <tag k="ref:vcgi:esiteid" v="339207"/>
  </node>
  <node id="-1704" visible="true" lat="43.59979269" lon="-72.48877995">
    <tag k="addr:housenumber" v="2500"/>
    <tag k="addr:street" v="Garvin Hill Road"/>
    <tag k="addr:state" v="VT"/>
    <tag k="ref:vcgi:esiteid" v="342592"/>
  </node>
  <node id="-1706" visible="true" lat="43.56469741" lon="-72.49910137">
    <tag k="addr:housenumber" v="221"/>
    <tag k="addr:street" v="Densmore Hill Road"/>
    <tag k="addr:state" v="VT"/>
    <tag k="ref:vcgi:esiteid" v="342805"/>
  </node>
  <node id="-1713" visible="true" lat="43.5371714" lon="-72.49311282">
    <tag k="addr:housenumber" v="39"/>
    <tag k="addr:street" v="Jenne Road"/>
    <tag k="addr:state" v="VT"/>
    <tag k="ref:vcgi:esiteid" v="344419"/>
  </node>
  <node id="-1716" visible="true" lat="43.53921187" lon="-72.48577453">
    <tag k="addr:housenumber" v="26"/>
    <tag k="addr:street" v="Dodge Lane"/>
    <tag k="addr:state" v="VT"/>
    <tag k="ref:vcgi:esiteid" v="345782"/>
  </node>
  <node id="-1723" visible="true" lat="43.54060873" lon="-72.39522887">
    <tag k="addr:housenumber" v="14"/>
    <tag k="addr:street" v="Station Road"/>
    <tag k="addr:state" v="VT"/>
    <tag k="ref:vcgi:esiteid" v="445256"/>
  </node>
  <node id="-1724" visible="true" lat="43.54693725" lon="-72.42548041">
    <tag k="addr:housenumber" v="5"/>
    <tag k="addr:street" v="Mace Hill Road"/>
    <tag k="addr:state" v="VT"/>
    <tag k="ref:vcgi:esiteid" v="446510"/>
  </node>
  <node id="-1729" visible="true" lat="43.59624409" lon="-72.45200427">
    <tag k="addr:housenumber" v="552"/>
    <tag k="addr:street" v="Vermont Route 12"/>
    <tag k="addr:state" v="VT"/>
    <tag k="ref:vcgi:esiteid" v="452925"/>
  </node>
  <node id="-1730" visible="true" lat="43.59660144" lon="-72.47612755">
    <tag k="addr:housenumber" v="26"/>
    <tag k="addr:street" v="Crystal Path"/>
    <tag k="addr:state" v="VT"/>
    <tag k="ref:vcgi:esiteid" v="453179"/>
  </node>
  <node id="-1731" visible="true" lat="43.57432387" lon="-72.49854252">
    <tag k="addr:housenumber" v="288"/>
    <tag k="addr:street" v="Densmore Hill Road"/>
    <tag k="addr:state" v="VT"/>
    <tag k="ref:vcgi:esiteid" v="453615"/>
  </node>
  <node id="-1740" visible="true" lat="43.54360281" lon="-72.50132967">
    <tag k="addr:housenumber" v="99"/>
    <tag k="addr:street" v="Jenne Road"/>
    <tag k="addr:state" v="VT"/>
    <tag k="ref:vcgi:esiteid" v="611774"/>
  </node>
  <node id="-1806" visible="true" lat="43.59567971" lon="-72.4744319">
    <tag k="addr:housenumber" v="24"/>
    <tag k="addr:street" v="Crystal Path"/>
    <tag k="addr:state" v="VT"/>
    <tag k="ref:vcgi:esiteid" v="753585"/>
  </node>
  <node id="-1816" visible="true" lat="43.56844009" lon="-72.49166831">
    <tag k="addr:housenumber" v="135"/>
    <tag k="addr:street" v="Cream Pot Road"/>
    <tag k="addr:state" v="VT"/>
    <tag k="ref:vcgi:esiteid" v="756220"/>
  </node>
  <node id="-1865" visible="true" lat="43.61499854" lon="-72.40762156">
    <tag k="addr:housenumber" v="531"/>
    <tag k="addr:street" v="Quechee Road"/>
    <tag k="addr:state" v="VT"/>
    <tag k="ref:vcgi:esiteid" v="764408"/>
  </node>
  <node id="-1866" visible="true" lat="43.61602153" lon="-72.40803483">
    <tag k="addr:housenumber" v="535"/>
    <tag k="addr:street" v="Quechee Road"/>
    <tag k="addr:state" v="VT"/>
    <tag k="ref:vcgi:esiteid" v="764409"/>
  </node>
  <node id="-1871" visible="true" lat="43.54268785" lon="-72.40082556">
    <tag k="addr:housenumber" v="18"/>
    <tag k="addr:street" v="Vermont Route 12"/>
    <tag k="addr:state" v="VT"/>
    <tag k="ref:vcgi:esiteid" v="765763"/>
  </node>
  <node id="-1905" visible="true" lat="43.54137788" lon="-72.4022683">
    <tag k="addr:housenumber" v="19"/>
    <tag k="addr:street" v="Vermont Route 12"/>
    <tag k="addr:state" v="VT"/>
    <tag k="ref:vcgi:esiteid" v="1050563"/>
  </node>
</osm>
