<?xml version="1.0" encoding="UTF-8"?>
<osm version="0.6" generator="JOSM">
  <node id="-392" visible="true" lat="43.69202776" lon="-72.43609135">
    <!-- offset: "3089 Quechee West Hartford Road, , VT" Significant offset - 168m -->
    <tag k="addr:housenumber" v="3089"/>
    <tag k="addr:street" v="Quechee West Hartford Road"/>
    <tag k="addr:state" v="VT"/>
    <tag k="ref:vcgi:esiteid" v="120373"/>
  </node>
  <node id="-677" visible="true" lat="43.6796855" lon="-72.31274391">
    <!-- offset: "133 Colonial Drive, , VT" Significant offset - 104.1m -->
    <tag k="addr:housenumber" v="133"/>
    <tag k="addr:street" v="Colonial Drive"/>
    <tag k="addr:state" v="VT"/>
    <tag k="ref:vcgi:esiteid" v="120682"/>
  </node>
  <node id="-688" visible="true" lat="43.67937866" lon="-72.31326618">
    <!-- offset: "133 Colonial Drive, , VT" Significant offset - 111.1m -->
    <tag k="addr:housenumber" v="133"/>
    <tag k="addr:street" v="Colonial Drive"/>
    <tag k="addr:state" v="VT"/>
    <tag k="ref:vcgi:esiteid" v="120694"/>
  </node>
  <node id="-713" visible="true" lat="43.67895048" lon="-72.31334833">
    <!-- offset: "133 Colonial Drive, , VT" Significant offset - 103.8m -->
    <tag k="addr:housenumber" v="133"/>
    <tag k="addr:street" v="Colonial Drive"/>
    <tag k="addr:state" v="VT"/>
    <tag k="ref:vcgi:esiteid" v="120723"/>
  </node>
  <node id="-934" visible="true" lat="43.67614793" lon="-72.38571278">
    <!-- offset: "1995 Vermont Route 14, , VT" Significant offset - 9138.4m -->
    <tag k="addr:housenumber" v="1995"/>
    <tag k="addr:street" v="Vermont Route 14"/>
    <tag k="addr:state" v="VT"/>
    <tag k="ref:vcgi:esiteid" v="120957"/>
  </node>
  <node id="-1723" visible="true" lat="43.66357847" lon="-72.44984162">
    <!-- offset: "105 Williams Lane, , VT" Significant offset - 150.5m -->
    <tag k="addr:housenumber" v="105"/>
    <tag k="addr:street" v="Williams Lane"/>
    <tag k="addr:state" v="VT"/>
    <tag k="ref:vcgi:esiteid" v="121795"/>
  </node>
  <node id="-1824" visible="true" lat="43.66226402" lon="-72.44372112">
    <!-- offset: "451 Williams Lane, , VT" Significant offset - 100.9m -->
    <tag k="addr:housenumber" v="451"/>
    <tag k="addr:street" v="Williams Lane"/>
    <tag k="addr:state" v="VT"/>
    <tag k="ref:vcgi:esiteid" v="121898"/>
  </node>
  <node id="-2396" visible="true" lat="43.65544053" lon="-72.32697788">
    <!-- offset: "35 Sargent Street, , VT" Significant offset - 7389.5m -->
    <tag k="addr:housenumber" v="35"/>
    <tag k="addr:street" v="Sargent Street"/>
    <tag k="addr:state" v="VT"/>
    <tag k="ref:vcgi:esiteid" v="122523"/>
  </node>
  <node id="-2424" visible="true" lat="43.65519875" lon="-72.32612807">
    <!-- offset: "5 Sargent Street, , VT" Significant offset - 7289.1m -->
    <tag k="addr:housenumber" v="5"/>
    <tag k="addr:street" v="Sargent Street"/>
    <tag k="addr:state" v="VT"/>
    <tag k="ref:vcgi:esiteid" v="122551"/>
  </node>
  <node id="-2462" visible="true" lat="43.65470983" lon="-72.32327655">
    <!-- offset: "24 Hazen Street, , VT" Significant offset - 7100.9m -->
    <tag k="addr:housenumber" v="24"/>
    <tag k="addr:street" v="Hazen Street"/>
    <tag k="addr:state" v="VT"/>
    <tag k="ref:vcgi:esiteid" v="122592"/>
  </node>
  <node id="-3002" visible="true" lat="43.64822173" lon="-72.41053716">
    <!-- offset: "1299 Quechee Main Street, , VT" Significant offset - 110.7m -->
    <tag k="addr:housenumber" v="1299"/>
    <tag k="addr:street" v="Quechee Main Street"/>
    <tag k="addr:state" v="VT"/>
    <tag k="ref:vcgi:esiteid" v="123209"/>
  </node>
  <node id="-3012" visible="true" lat="43.64805211" lon="-72.34221883">
    <!-- offset: "163 Veterans Drive, , VT" Significant offset - 100.2m -->
    <tag k="addr:housenumber" v="163"/>
    <tag k="addr:street" v="Veterans Drive"/>
    <tag k="addr:state" v="VT"/>
    <tag k="ref:vcgi:esiteid" v="123222"/>
  </node>
  <node id="-3292" visible="true" lat="43.64534862" lon="-72.42024121">
    <!-- offset: "61 River Street, , VT" Significant offset - 8963.8m -->
    <tag k="addr:housenumber" v="61"/>
    <tag k="addr:street" v="River Street"/>
    <tag k="addr:state" v="VT"/>
    <tag k="ref:vcgi:esiteid" v="123551"/>
  </node>
  <node id="-4499" visible="true" lat="43.64924252" lon="-72.32114633">
    <!-- offset: "22 Church Street, , VT" Significant offset - 7188.1m -->
    <tag k="addr:housenumber" v="22"/>
    <tag k="addr:street" v="Church Street"/>
    <tag k="addr:state" v="VT"/>
    <tag k="ref:vcgi:esiteid" v="124849"/>
  </node>
  <node id="-4875" visible="true" lat="43.65445946" lon="-72.32349152">
    <!-- offset: "23 Hazen Street, , VT" Significant offset - 7116.5m -->
    <tag k="addr:housenumber" v="23"/>
    <tag k="addr:street" v="Hazen Street"/>
    <tag k="addr:state" v="VT"/>
    <tag k="ref:vcgi:esiteid" v="339590"/>
  </node>
  <node id="-4888" visible="true" lat="43.70024242" lon="-72.34335082">
    <!-- offset: "221 Newton Lane, , VT" Significant offset - 366.3m -->
    <tag k="addr:housenumber" v="221"/>
    <tag k="addr:street" v="Newton Lane"/>
    <tag k="addr:state" v="VT"/>
    <tag k="ref:vcgi:esiteid" v="341216"/>
  </node>
  <node id="-4891" visible="true" lat="43.67233367" lon="-72.44798669">
    <!-- offset: "332 Cushing Road, , VT" Significant offset - 803m -->
    <tag k="addr:housenumber" v="332"/>
    <tag k="addr:street" v="Cushing Road"/>
    <tag k="addr:state" v="VT"/>
    <tag k="ref:vcgi:esiteid" v="342142"/>
  </node>
  <node id="-4901" visible="true" lat="43.68435975" lon="-72.31849047">
    <!-- offset: "205 Billings Farm Road, , VT" Significant offset - 127.5m -->
    <tag k="addr:housenumber" v="205"/>
    <tag k="addr:street" v="Billings Farm Road"/>
    <tag k="addr:state" v="VT"/>
    <tag k="ref:vcgi:esiteid" v="345108"/>
  </node>
  <node id="-4902" visible="true" lat="43.68425702" lon="-72.31810275">
    <!-- offset: "205 Billings Farm Road, , VT" Significant offset - 107.4m -->
    <tag k="addr:housenumber" v="205"/>
    <tag k="addr:street" v="Billings Farm Road"/>
    <tag k="addr:state" v="VT"/>
    <tag k="ref:vcgi:esiteid" v="345110"/>
  </node>
  <node id="-4938" visible="true" lat="43.70744962" lon="-72.36977333">
    <!-- offset: "179 Sugartop Road, , VT" Significant offset - 558.2m -->
    <tag k="addr:housenumber" v="179"/>
    <tag k="addr:street" v="Sugartop Road"/>
    <tag k="addr:state" v="VT"/>
    <tag k="ref:vcgi:esiteid" v="452463"/>
  </node>
  <node id="-4950" visible="true" lat="43.65063493" lon="-72.4701323">
    <!-- offset: "1455 High Pastures Road, , VT" Significant offset - 192.6m -->
    <tag k="addr:housenumber" v="1455"/>
    <tag k="addr:street" v="High Pastures Road"/>
    <tag k="addr:state" v="VT"/>
    <tag k="ref:vcgi:esiteid" v="455202"/>
  </node>
  <node id="-4960" visible="true" lat="43.61711815" lon="-72.35353164">
    <!-- offset: "2604 North Hartland Road, , VT" Significant offset - 136.2m -->
    <tag k="addr:housenumber" v="2604"/>
    <tag k="addr:street" v="North Hartland Road"/>
    <tag k="addr:state" v="VT"/>
    <tag k="ref:vcgi:esiteid" v="611522"/>
  </node>
  <node id="-5174" visible="true" lat="43.66269677" lon="-72.45016241">
    <!-- offset: "105 Williams Lane, , VT" Significant offset - 160.9m -->
    <tag k="addr:housenumber" v="105"/>
    <tag k="addr:street" v="Williams Lane"/>
    <tag k="addr:state" v="VT"/>
    <tag k="ref:vcgi:esiteid" v="1051570"/>
  </node>
</osm>
