<?xml version="1.0" encoding="UTF-8"?>
<osm version="0.6" generator="JOSM">
  <node id="-848" visible="true" lat="44.94200601" lon="-73.11094677">
    <tag k="addr:city" v="Highgate"/>
    <tag k="addr:housenumber" v="1745"/>
    <tag k="addr:street" v="Frontage Road"/>
    <tag k="addr:state" v="VT"/>
    <tag k="ref:vcgi:esiteid" v="127246"/>
  </node>
  <node id="-948" visible="true" lat="44.93948364" lon="-73.04330444">
    <tag k="addr:city" v="Highgate"/>
    <tag k="addr:housenumber" v="60"/>
    <tag k="addr:street" v="Gore Road"/>
    <tag k="addr:state" v="VT"/>
    <tag k="ref:vcgi:esiteid" v="127347"/>
  </node>
  <node id="-1255" visible="true" lat="44.93010846" lon="-73.04992377">
    <tag k="addr:city" v="Highgate"/>
    <tag k="addr:housenumber" v="89"/>
    <tag k="addr:street" v="Rouse Lane"/>
    <tag k="addr:state" v="VT"/>
    <tag k="ref:vcgi:esiteid" v="127664"/>
  </node>
  <node id="-1269" visible="true" lat="44.9292245" lon="-73.04975448">
    <tag k="addr:city" v="Highgate"/>
    <tag k="addr:housenumber" v="692"/>
    <tag k="addr:street" v="Highgate Road"/>
    <tag k="addr:state" v="VT"/>
    <tag k="ref:vcgi:esiteid" v="127679"/>
  </node>
  <node id="-1270" visible="true" lat="44.9292221" lon="-73.05027008">
    <tag k="addr:city" v="Highgate"/>
    <tag k="addr:housenumber" v="35"/>
    <tag k="addr:street" v="Rouse Lane"/>
    <tag k="addr:state" v="VT"/>
    <tag k="ref:vcgi:esiteid" v="127680"/>
  </node>
  <node id="-1573" visible="true" lat="44.92846679" lon="-72.95212554">
    <tag k="addr:city" v="Highgate"/>
    <tag k="addr:housenumber" v="451"/>
    <tag k="addr:street" v="Dunton Road"/>
    <tag k="addr:state" v="VT"/>
    <tag k="ref:vcgi:esiteid" v="127987"/>
  </node>
  <node id="-1575" visible="true" lat="44.92761331" lon="-72.95156189">
    <tag k="addr:city" v="Highgate"/>
    <tag k="addr:housenumber" v="435"/>
    <tag k="addr:street" v="Dunton Road"/>
    <tag k="addr:state" v="VT"/>
    <tag k="ref:vcgi:esiteid" v="127989"/>
  </node>
  <node id="-1593" visible="true" lat="44.92778061" lon="-72.96815842">
    <tag k="addr:city" v="Highgate"/>
    <tag k="addr:housenumber" v="125"/>
    <tag k="addr:street" v="Rocky Maple Lane"/>
    <tag k="addr:state" v="VT"/>
    <tag k="ref:vcgi:esiteid" v="128007"/>
  </node>
  <node id="-1619" visible="true" lat="44.92874793" lon="-72.96985951">
    <tag k="addr:city" v="Highgate"/>
    <tag k="addr:housenumber" v="175"/>
    <tag k="addr:street" v="Raymo Drive"/>
    <tag k="addr:state" v="VT"/>
    <tag k="ref:vcgi:esiteid" v="128034"/>
  </node>
  <node id="-1644" visible="true" lat="44.92810796" lon="-72.97011434">
    <tag k="addr:city" v="Highgate"/>
    <tag k="addr:housenumber" v="109"/>
    <tag k="addr:street" v="Raymo Drive"/>
    <tag k="addr:state" v="VT"/>
    <tag k="ref:vcgi:esiteid" v="128059"/>
  </node>
  <node id="-1669" visible="true" lat="44.92595585" lon="-72.96872282">
    <tag k="addr:city" v="Highgate"/>
    <tag k="addr:housenumber" v="10"/>
    <tag k="addr:street" v="Rocky Maple Lane"/>
    <tag k="addr:state" v="VT"/>
    <tag k="ref:vcgi:esiteid" v="128084"/>
  </node>
  <node id="-1670" visible="true" lat="44.92649432" lon="-72.96820911">
    <tag k="addr:city" v="Highgate"/>
    <tag k="addr:housenumber" v="38"/>
    <tag k="addr:street" v="Rocky Maple Lane"/>
    <tag k="addr:state" v="VT"/>
    <tag k="ref:vcgi:esiteid" v="128085"/>
  </node>
  <node id="-1760" visible="true" lat="44.9267215" lon="-72.967772">
    <tag k="addr:city" v="Highgate"/>
    <tag k="addr:housenumber" v="64"/>
    <tag k="addr:street" v="Rocky Maple Lane"/>
    <tag k="addr:state" v="VT"/>
    <tag k="ref:vcgi:esiteid" v="128180"/>
  </node>
  <node id="-1823" visible="true" lat="44.93887468" lon="-73.03415704">
    <tag k="addr:city" v="Highgate"/>
    <tag k="addr:housenumber" v="61"/>
    <tag k="addr:street" v="Maizefield Drive"/>
    <tag k="addr:state" v="VT"/>
    <tag k="ref:vcgi:esiteid" v="326999"/>
  </node>
  <node id="-2008" visible="true" lat="44.9440272" lon="-73.10935994">
    <tag k="addr:city" v="Highgate"/>
    <tag k="addr:housenumber" v="1635"/>
    <tag k="addr:street" v="Frontage Road"/>
    <tag k="addr:state" v="VT"/>
    <tag k="ref:vcgi:esiteid" v="756590"/>
  </node>
  <node id="-2016" visible="true" lat="44.93400185" lon="-73.04971761">
    <tag k="addr:city" v="Highgate"/>
    <tag k="addr:housenumber" v="70"/>
    <tag k="addr:street" v="Baker Road"/>
    <tag k="addr:state" v="VT"/>
    <tag k="ref:vcgi:esiteid" v="758236"/>
  </node>
</osm>
