<?xml version="1.0" encoding="UTF-8"?>
<osm version="0.6" generator="JOSM">
  <node id="-118" visible="true" lat="44.36942362" lon="-73.08837228">
    <tag k="addr:city" v="Hinesburg"/>
    <tag k="addr:housenumber" v="187"/>
    <tag k="addr:street" v="Shadow Lane"/>
    <tag k="addr:state" v="VT"/>
    <tag k="ref:vcgi:esiteid" v="128206"/>
  </node>
  <node id="-119" visible="true" lat="44.36931271" lon="-73.08893598">
    <tag k="addr:city" v="Hinesburg"/>
    <tag k="addr:housenumber" v="163"/>
    <tag k="addr:street" v="Shadow Lane"/>
    <tag k="addr:state" v="VT"/>
    <tag k="ref:vcgi:esiteid" v="128207"/>
  </node>
  <node id="-120" visible="true" lat="44.36932754" lon="-73.08957672">
    <tag k="addr:city" v="Hinesburg"/>
    <tag k="addr:housenumber" v="129"/>
    <tag k="addr:street" v="Shadow Lane"/>
    <tag k="addr:state" v="VT"/>
    <tag k="ref:vcgi:esiteid" v="128209"/>
  </node>
  <node id="-121" visible="true" lat="44.36925422" lon="-73.08984564">
    <tag k="addr:city" v="Hinesburg"/>
    <tag k="addr:housenumber" v="111"/>
    <tag k="addr:street" v="Shadow Lane"/>
    <tag k="addr:state" v="VT"/>
    <tag k="ref:vcgi:esiteid" v="128210"/>
  </node>
  <node id="-122" visible="true" lat="44.3691933" lon="-73.09049954">
    <tag k="addr:city" v="Hinesburg"/>
    <tag k="addr:housenumber" v="77"/>
    <tag k="addr:street" v="Shadow Lane"/>
    <tag k="addr:state" v="VT"/>
    <tag k="ref:vcgi:esiteid" v="128211"/>
  </node>
  <node id="-123" visible="true" lat="44.36908829" lon="-73.08850291">
    <tag k="addr:city" v="Hinesburg"/>
    <tag k="addr:housenumber" v="180"/>
    <tag k="addr:street" v="Shadow Lane"/>
    <tag k="addr:state" v="VT"/>
    <tag k="ref:vcgi:esiteid" v="128212"/>
  </node>
  <node id="-125" visible="true" lat="44.3690158" lon="-73.09173752">
    <tag k="addr:city" v="Hinesburg"/>
    <tag k="addr:housenumber" v="15"/>
    <tag k="addr:street" v="Shadow Lane"/>
    <tag k="addr:state" v="VT"/>
    <tag k="ref:vcgi:esiteid" v="128214"/>
  </node>
  <node id="-127" visible="true" lat="44.36897735" lon="-73.08921216">
    <tag k="addr:city" v="Hinesburg"/>
    <tag k="addr:housenumber" v="144"/>
    <tag k="addr:street" v="Shadow Lane"/>
    <tag k="addr:state" v="VT"/>
    <tag k="ref:vcgi:esiteid" v="128216"/>
  </node>
  <node id="-128" visible="true" lat="44.36893249" lon="-73.09029098">
    <tag k="addr:city" v="Hinesburg"/>
    <tag k="addr:housenumber" v="90"/>
    <tag k="addr:street" v="Shadow Lane"/>
    <tag k="addr:state" v="VT"/>
    <tag k="ref:vcgi:esiteid" v="128217"/>
  </node>
  <node id="-130" visible="true" lat="44.36890536" lon="-73.08990433">
    <tag k="addr:city" v="Hinesburg"/>
    <tag k="addr:housenumber" v="108"/>
    <tag k="addr:street" v="Shadow Lane"/>
    <tag k="addr:state" v="VT"/>
    <tag k="ref:vcgi:esiteid" v="128219"/>
  </node>
  <node id="-131" visible="true" lat="44.36889692" lon="-73.09243814">
    <tag k="addr:city" v="Hinesburg"/>
    <tag k="addr:housenumber" v="2061"/>
    <tag k="addr:street" v="Pond Road"/>
    <tag k="addr:state" v="VT"/>
    <tag k="ref:vcgi:esiteid" v="128220"/>
  </node>
  <node id="-132" visible="true" lat="44.36887196" lon="-73.09063025">
    <tag k="addr:city" v="Hinesburg"/>
    <tag k="addr:housenumber" v="70"/>
    <tag k="addr:street" v="Shadow Lane"/>
    <tag k="addr:state" v="VT"/>
    <tag k="ref:vcgi:esiteid" v="128221"/>
  </node>
  <node id="-133" visible="true" lat="44.36876803" lon="-73.09153125">
    <tag k="addr:city" v="Hinesburg"/>
    <tag k="addr:housenumber" v="24"/>
    <tag k="addr:street" v="Shadow Lane"/>
    <tag k="addr:state" v="VT"/>
    <tag k="ref:vcgi:esiteid" v="128222"/>
  </node>
  <node id="-134" visible="true" lat="44.36878208" lon="-73.09108833">
    <tag k="addr:city" v="Hinesburg"/>
    <tag k="addr:housenumber" v="48"/>
    <tag k="addr:street" v="Shadow Lane"/>
    <tag k="addr:state" v="VT"/>
    <tag k="ref:vcgi:esiteid" v="128223"/>
  </node>
  <node id="-852" visible="true" lat="44.34163654" lon="-73.11852887">
    <tag k="addr:city" v="Hinesburg"/>
    <tag k="addr:housenumber" v="69"/>
    <tag k="addr:street" v="Ballards Corner Road"/>
    <tag k="addr:state" v="VT"/>
    <tag k="ref:vcgi:esiteid" v="128944"/>
  </node>
  <node id="-959" visible="true" lat="44.33538144" lon="-73.10899885">
    <tag k="addr:city" v="Hinesburg"/>
    <tag k="addr:housenumber" v="171"/>
    <tag k="addr:street" v="Commerce Street"/>
    <tag k="addr:state" v="VT"/>
    <tag k="ref:vcgi:esiteid" v="129051"/>
  </node>
  <node id="-967" visible="true" lat="44.3343994" lon="-73.11053801">
    <tag k="addr:city" v="Hinesburg"/>
    <tag k="addr:housenumber" v="102"/>
    <tag k="addr:street" v="Commerce Street"/>
    <tag k="addr:state" v="VT"/>
    <tag k="ref:vcgi:esiteid" v="129059"/>
  </node>
  <node id="-968" visible="true" lat="44.33444795" lon="-73.10814928">
    <tag k="addr:city" v="Hinesburg"/>
    <tag k="addr:housenumber" v="234"/>
    <tag k="addr:street" v="Commerce Street"/>
    <tag k="addr:state" v="VT"/>
    <tag k="ref:vcgi:esiteid" v="129060"/>
  </node>
  <node id="-971" visible="true" lat="44.33406126" lon="-73.1112472">
    <tag k="addr:city" v="Hinesburg"/>
    <tag k="addr:housenumber" v="22"/>
    <tag k="addr:street" v="Commerce Street"/>
    <tag k="addr:state" v="VT"/>
    <tag k="ref:vcgi:esiteid" v="129063"/>
  </node>
  <node id="-1156" visible="true" lat="44.32765197" lon="-73.12386322">
    <tag k="addr:city" v="Hinesburg"/>
    <tag k="addr:housenumber" v="659"/>
    <tag k="addr:street" v="Charlotte Road"/>
    <tag k="addr:state" v="VT"/>
    <tag k="ref:vcgi:esiteid" v="129251"/>
  </node>
  <node id="-1467" visible="true" lat="44.29554026" lon="-73.13303616">
    <tag k="addr:city" v="Hinesburg"/>
    <tag k="addr:housenumber" v="1931"/>
    <tag k="addr:street" v="Baldwin Road"/>
    <tag k="addr:state" v="VT"/>
    <tag k="ref:vcgi:esiteid" v="129562"/>
  </node>
  <node id="-1472" visible="true" lat="44.29473879" lon="-73.14800844">
    <tag k="addr:city" v="Hinesburg"/>
    <tag k="addr:housenumber" v="144"/>
    <tag k="addr:street" v="Magic Hill Road"/>
    <tag k="addr:state" v="VT"/>
    <tag k="ref:vcgi:esiteid" v="129567"/>
  </node>
  <node id="-1474" visible="true" lat="44.29435257" lon="-73.14907022">
    <tag k="addr:city" v="Hinesburg"/>
    <tag k="addr:housenumber" v="89"/>
    <tag k="addr:street" v="Magic Hill Road"/>
    <tag k="addr:state" v="VT"/>
    <tag k="ref:vcgi:esiteid" v="129569"/>
  </node>
  <node id="-1480" visible="true" lat="44.29359017" lon="-73.13780472">
    <tag k="addr:city" v="Hinesburg"/>
    <tag k="addr:housenumber" v="220"/>
    <tag k="addr:street" v="Drinkwater Road"/>
    <tag k="addr:state" v="VT"/>
    <tag k="ref:vcgi:esiteid" v="129575"/>
  </node>
  <node id="-1481" visible="true" lat="44.29353332" lon="-73.13423919">
    <tag k="addr:city" v="Hinesburg"/>
    <tag k="addr:housenumber" v="34"/>
    <tag k="addr:street" v="Drinkwater Road"/>
    <tag k="addr:state" v="VT"/>
    <tag k="ref:vcgi:esiteid" v="129576"/>
  </node>
  <node id="-1484" visible="true" lat="44.29318988" lon="-73.14863959">
    <tag k="addr:city" v="Hinesburg"/>
    <tag k="addr:housenumber" v="74"/>
    <tag k="addr:street" v="Magic Hill Road"/>
    <tag k="addr:state" v="VT"/>
    <tag k="ref:vcgi:esiteid" v="129579"/>
  </node>
  <node id="-1488" visible="true" lat="44.29292601" lon="-73.14206996">
    <tag k="addr:city" v="Hinesburg"/>
    <tag k="addr:housenumber" v="420"/>
    <tag k="addr:street" v="Drinkwater Road"/>
    <tag k="addr:state" v="VT"/>
    <tag k="ref:vcgi:esiteid" v="129583"/>
  </node>
  <node id="-1492" visible="true" lat="44.29247414" lon="-73.14145392">
    <tag k="addr:city" v="Hinesburg"/>
    <tag k="addr:housenumber" v="397"/>
    <tag k="addr:street" v="Drinkwater Road"/>
    <tag k="addr:state" v="VT"/>
    <tag k="ref:vcgi:esiteid" v="129587"/>
  </node>
  <node id="-1505" visible="true" lat="44.29130513" lon="-73.1325288">
    <tag k="addr:city" v="Hinesburg"/>
    <tag k="addr:housenumber" v="2188"/>
    <tag k="addr:street" v="Baldwin Road"/>
    <tag k="addr:state" v="VT"/>
    <tag k="ref:vcgi:esiteid" v="129601"/>
  </node>
  <node id="-1515" visible="true" lat="44.29062271" lon="-73.12798309">
    <tag k="addr:city" v="Hinesburg"/>
    <tag k="addr:housenumber" v="172"/>
    <tag k="addr:street" v="Catchapaw Road"/>
    <tag k="addr:state" v="VT"/>
    <tag k="ref:vcgi:esiteid" v="129611"/>
  </node>
  <node id="-1534" visible="true" lat="44.28702163" lon="-73.12800598">
    <tag k="addr:city" v="Hinesburg"/>
    <tag k="addr:housenumber" v="145"/>
    <tag k="addr:street" v="Deer Run Lane"/>
    <tag k="addr:state" v="VT"/>
    <tag k="ref:vcgi:esiteid" v="129631"/>
  </node>
  <node id="-1537" visible="true" lat="44.28664779" lon="-73.1266632">
    <tag k="addr:city" v="Hinesburg"/>
    <tag k="addr:housenumber" v="215"/>
    <tag k="addr:street" v="Deer Run Lane"/>
    <tag k="addr:state" v="VT"/>
    <tag k="ref:vcgi:esiteid" v="129634"/>
  </node>
  <node id="-1540" visible="true" lat="44.28658651" lon="-73.1309">
    <tag k="addr:city" v="Hinesburg"/>
    <tag k="addr:housenumber" v="2585"/>
    <tag k="addr:street" v="Baldwin Road"/>
    <tag k="addr:state" v="VT"/>
    <tag k="ref:vcgi:esiteid" v="129637"/>
  </node>
  <node id="-1544" visible="true" lat="44.28572846" lon="-73.13051175">
    <tag k="addr:city" v="Hinesburg"/>
    <tag k="addr:housenumber" v="2643"/>
    <tag k="addr:street" v="Baldwin Road"/>
    <tag k="addr:state" v="VT"/>
    <tag k="ref:vcgi:esiteid" v="129641"/>
  </node>
  <node id="-1548" visible="true" lat="44.28591254" lon="-73.13117943">
    <tag k="addr:city" v="Hinesburg"/>
    <tag k="addr:housenumber" v="2637"/>
    <tag k="addr:street" v="Baldwin Road"/>
    <tag k="addr:state" v="VT"/>
    <tag k="ref:vcgi:esiteid" v="129645"/>
  </node>
  <node id="-1556" visible="true" lat="44.28484207" lon="-73.12627545">
    <tag k="addr:city" v="Hinesburg"/>
    <tag k="addr:housenumber" v="345"/>
    <tag k="addr:street" v="Deer Run Lane"/>
    <tag k="addr:state" v="VT"/>
    <tag k="ref:vcgi:esiteid" v="129653"/>
  </node>
  <node id="-1568" visible="true" lat="44.28366088" lon="-73.12986755">
    <tag k="addr:city" v="Hinesburg"/>
    <tag k="addr:housenumber" v="2751"/>
    <tag k="addr:street" v="Baldwin Road"/>
    <tag k="addr:state" v="VT"/>
    <tag k="ref:vcgi:esiteid" v="129665"/>
  </node>
  <node id="-1572" visible="true" lat="44.28364894" lon="-73.07047185">
    <tag k="addr:city" v="Hinesburg"/>
    <tag k="addr:housenumber" v="83"/>
    <tag k="addr:street" v="Tyler Bridge Road"/>
    <tag k="addr:state" v="VT"/>
    <tag k="ref:vcgi:esiteid" v="129669"/>
  </node>
  <node id="-1578" visible="true" lat="44.2816925" lon="-73.13160705">
    <tag k="addr:city" v="Hinesburg"/>
    <tag k="addr:housenumber" v="2929"/>
    <tag k="addr:street" v="Baldwin Road"/>
    <tag k="addr:state" v="VT"/>
    <tag k="ref:vcgi:esiteid" v="129675"/>
  </node>
  <node id="-1579" visible="true" lat="44.28141784" lon="-73.13169097">
    <tag k="addr:city" v="Hinesburg"/>
    <tag k="addr:housenumber" v="2933"/>
    <tag k="addr:street" v="Baldwin Road"/>
    <tag k="addr:state" v="VT"/>
    <tag k="ref:vcgi:esiteid" v="129676"/>
  </node>
  <node id="-1580" visible="true" lat="44.28043746" lon="-73.13278961">
    <tag k="addr:city" v="Hinesburg"/>
    <tag k="addr:housenumber" v="3012"/>
    <tag k="addr:street" v="Baldwin Road"/>
    <tag k="addr:state" v="VT"/>
    <tag k="ref:vcgi:esiteid" v="129677"/>
  </node>
  <node id="-1584" visible="true" lat="44.27853192" lon="-73.13127454">
    <tag k="addr:city" v="Hinesburg"/>
    <tag k="addr:housenumber" v="3161"/>
    <tag k="addr:street" v="Baldwin Road"/>
    <tag k="addr:state" v="VT"/>
    <tag k="ref:vcgi:esiteid" v="129681"/>
  </node>
  <node id="-1585" visible="true" lat="44.27817853" lon="-73.13151047">
    <tag k="addr:city" v="Hinesburg"/>
    <tag k="addr:housenumber" v="3163"/>
    <tag k="addr:street" v="Baldwin Road"/>
    <tag k="addr:state" v="VT"/>
    <tag k="ref:vcgi:esiteid" v="129682"/>
  </node>
  <node id="-1586" visible="true" lat="44.27812957" lon="-73.11158752">
    <tag k="addr:city" v="Hinesburg"/>
    <tag k="addr:housenumber" v="3470"/>
    <tag k="addr:street" v="Silver Street"/>
    <tag k="addr:state" v="VT"/>
    <tag k="ref:vcgi:esiteid" v="129683"/>
  </node>
  <node id="-1587" visible="true" lat="44.27612054" lon="-73.13347905">
    <tag k="addr:city" v="Hinesburg"/>
    <tag k="addr:housenumber" v="3300"/>
    <tag k="addr:street" v="Baldwin Road"/>
    <tag k="addr:state" v="VT"/>
    <tag k="ref:vcgi:esiteid" v="129684"/>
  </node>
  <node id="-1588" visible="true" lat="44.27523873" lon="-73.13343414">
    <tag k="addr:city" v="Hinesburg"/>
    <tag k="addr:housenumber" v="3380"/>
    <tag k="addr:street" v="Baldwin Road"/>
    <tag k="addr:state" v="VT"/>
    <tag k="ref:vcgi:esiteid" v="129685"/>
  </node>
  <node id="-1690" visible="true" lat="44.29030364" lon="-73.1290855">
    <tag k="addr:city" v="Hinesburg"/>
    <tag k="addr:housenumber" v="106"/>
    <tag k="addr:street" v="Catchapaw Road"/>
    <tag k="addr:state" v="VT"/>
    <tag k="ref:vcgi:esiteid" v="129789"/>
  </node>
  <node id="-1691" visible="true" lat="44.27934658" lon="-73.13386975">
    <tag k="addr:city" v="Hinesburg"/>
    <tag k="addr:housenumber" v="3046"/>
    <tag k="addr:street" v="Baldwin Road"/>
    <tag k="addr:state" v="VT"/>
    <tag k="ref:vcgi:esiteid" v="129790"/>
  </node>
  <node id="-1692" visible="true" lat="44.27574913" lon="-73.13460677">
    <tag k="addr:city" v="Hinesburg"/>
    <tag k="addr:housenumber" v="3348"/>
    <tag k="addr:street" v="Baldwin Road"/>
    <tag k="addr:state" v="VT"/>
    <tag k="ref:vcgi:esiteid" v="129791"/>
  </node>
  <node id="-1705" visible="true" lat="44.33480838" lon="-73.10856351">
    <tag k="addr:city" v="Hinesburg"/>
    <tag k="addr:housenumber" v="206"/>
    <tag k="addr:street" v="Commerce Street"/>
    <tag k="addr:state" v="VT"/>
    <tag k="ref:vcgi:esiteid" v="129804"/>
  </node>
  <node id="-1745" visible="true" lat="44.33531968" lon="-73.10851509">
    <tag k="addr:city" v="Hinesburg"/>
    <tag k="addr:housenumber" v="205"/>
    <tag k="addr:street" v="Commerce Street"/>
    <tag k="addr:state" v="VT"/>
    <tag k="ref:vcgi:esiteid" v="129844"/>
  </node>
  <node id="-1749" visible="true" lat="44.29144943" lon="-73.14403833">
    <tag k="addr:city" v="Hinesburg"/>
    <tag k="addr:housenumber" v="605"/>
    <tag k="addr:street" v="Drinkwater Road"/>
    <tag k="addr:state" v="VT"/>
    <tag k="ref:vcgi:esiteid" v="129848"/>
  </node>
  <node id="-1774" visible="true" lat="44.28370277" lon="-73.07185495">
    <tag k="addr:city" v="Hinesburg"/>
    <tag k="addr:housenumber" v="135"/>
    <tag k="addr:street" v="Tyler Bridge Road"/>
    <tag k="addr:state" v="VT"/>
    <tag k="ref:vcgi:esiteid" v="248026"/>
  </node>
  <node id="-1775" visible="true" lat="44.28385981" lon="-73.07081887">
    <tag k="addr:city" v="Hinesburg"/>
    <tag k="addr:housenumber" v="89"/>
    <tag k="addr:street" v="Tyler Bridge Road"/>
    <tag k="addr:state" v="VT"/>
    <tag k="ref:vcgi:esiteid" v="248689"/>
  </node>
  <node id="-1796" visible="true" lat="44.35605034" lon="-73.15507842">
    <tag k="addr:city" v="Hinesburg"/>
    <tag k="addr:housenumber" v="2386"/>
    <tag k="addr:street" v="Shelburne Falls Road"/>
    <tag k="addr:state" v="VT"/>
    <tag k="ref:vcgi:esiteid" v="305864"/>
  </node>
  <node id="-1797" visible="true" lat="44.35638647" lon="-73.15538492">
    <tag k="addr:city" v="Hinesburg"/>
    <tag k="addr:housenumber" v="2408"/>
    <tag k="addr:street" v="Shelburne Falls Road"/>
    <tag k="addr:state" v="VT"/>
    <tag k="ref:vcgi:esiteid" v="305865"/>
  </node>
  <node id="-1823" visible="true" lat="44.27816975" lon="-73.13333297">
    <tag k="addr:city" v="Hinesburg"/>
    <tag k="addr:housenumber" v="3120"/>
    <tag k="addr:street" v="Baldwin Road"/>
    <tag k="addr:state" v="VT"/>
    <tag k="ref:vcgi:esiteid" v="307350"/>
  </node>
  <node id="-1824" visible="true" lat="44.27830287" lon="-73.13476918">
    <tag k="addr:city" v="Hinesburg"/>
    <tag k="addr:housenumber" v="3122"/>
    <tag k="addr:street" v="Baldwin Road"/>
    <tag k="addr:state" v="VT"/>
    <tag k="ref:vcgi:esiteid" v="307351"/>
  </node>
  <node id="-1836" visible="true" lat="44.29465033" lon="-73.14539322">
    <tag k="addr:city" v="Hinesburg"/>
    <tag k="addr:housenumber" v="604"/>
    <tag k="addr:street" v="Drinkwater Road"/>
    <tag k="addr:state" v="VT"/>
    <tag k="ref:vcgi:esiteid" v="314954"/>
  </node>
  <node id="-1867" visible="true" lat="44.32840081" lon="-73.11297337">
    <tag k="addr:city" v="Hinesburg"/>
    <tag k="addr:housenumber" v="24"/>
    <tag k="addr:street" v="Green Street"/>
    <tag k="addr:state" v="VT"/>
    <tag k="ref:vcgi:esiteid" v="331079"/>
  </node>
  <node id="-1930" visible="true" lat="44.28448632" lon="-73.12600368">
    <tag k="addr:city" v="Hinesburg"/>
    <tag k="addr:housenumber" v="363"/>
    <tag k="addr:street" v="Deer Run Lane"/>
    <tag k="addr:state" v="VT"/>
    <tag k="ref:vcgi:esiteid" v="342916"/>
  </node>
  <node id="-1958" visible="true" lat="44.27536938" lon="-73.13291782">
    <tag k="addr:city" v="Hinesburg"/>
    <tag k="addr:housenumber" v="3373"/>
    <tag k="addr:street" v="Baldwin Road"/>
    <tag k="addr:state" v="VT"/>
    <tag k="ref:vcgi:esiteid" v="448374"/>
  </node>
  <node id="-1980" visible="true" lat="44.28644859" lon="-73.13216361">
    <tag k="addr:city" v="Hinesburg"/>
    <tag k="addr:housenumber" v="2574"/>
    <tag k="addr:street" v="Baldwin Road"/>
    <tag k="addr:state" v="VT"/>
    <tag k="ref:vcgi:esiteid" v="610384"/>
  </node>
  <node id="-2071" visible="true" lat="44.3149911" lon="-73.07420544">
    <tag k="addr:city" v="Hinesburg"/>
    <tag k="addr:housenumber" v="235"/>
    <tag k="addr:street" v="Abani Drive"/>
    <tag k="addr:state" v="VT"/>
    <tag k="ref:vcgi:esiteid" v="757492"/>
  </node>
</osm>
