<?xml version="1.0" encoding="UTF-8"?>
<osm version="0.6" generator="JOSM" upload="false">
  <node id="-103" visible="true" lat="45.00464276" lon="-72.0243911">
    <tag k="addr:housenumber" v="1881"/>
    <tag k="addr:street" v="Stearns Brook Road"/>
    <tag k="addr:state" v="VT"/>
    <tag k="ref:vcgi:esiteid" v="129879"/>
  </node>
  <node id="-104" visible="true" lat="45.00425712" lon="-72.02233271">
    <tag k="addr:housenumber" v="1866"/>
    <tag k="addr:street" v="Stearns Brook Road"/>
    <tag k="addr:state" v="VT"/>
    <tag k="ref:vcgi:esiteid" v="129880"/>
  </node>
  <node id="-105" visible="true" lat="45.00415802" lon="-72.0042572">
    <tag k="addr:housenumber" v="1556"/>
    <tag k="addr:street" v="Prairie Road"/>
    <tag k="addr:state" v="VT"/>
    <tag k="ref:vcgi:esiteid" v="129881"/>
  </node>
  <node id="-110" visible="true" lat="45.00361625" lon="-72.02693677">
    <tag k="addr:housenumber" v="1757"/>
    <tag k="addr:street" v="Stearns Brook Road"/>
    <tag k="addr:state" v="VT"/>
    <tag k="ref:vcgi:esiteid" v="129886"/>
  </node>
  <node id="-114" visible="true" lat="45.00323661" lon="-72.02146393">
    <tag k="addr:housenumber" v="1788"/>
    <tag k="addr:street" v="Stearns Brook Road"/>
    <tag k="addr:state" v="VT"/>
    <tag k="ref:vcgi:esiteid" v="129891"/>
  </node>
  <node id="-117" visible="true" lat="45.00277709" lon="-71.97785949">
    <tag k="addr:housenumber" v="271"/>
    <tag k="addr:street" v="Prairie Road"/>
    <tag k="addr:state" v="VT"/>
    <tag k="ref:vcgi:esiteid" v="129894"/>
  </node>
  <node id="-118" visible="true" lat="45.00296793" lon="-72.03722299">
    <tag k="addr:housenumber" v="490"/>
    <tag k="addr:street" v="Tree Farm Road"/>
    <tag k="addr:state" v="VT"/>
    <tag k="ref:vcgi:esiteid" v="129895"/>
  </node>
  <node id="-121" visible="true" lat="45.00148199" lon="-71.97390841">
    <tag k="addr:housenumber" v="2779"/>
    <tag k="addr:street" v="Holland Pond Road"/>
    <tag k="addr:state" v="VT"/>
    <tag k="ref:vcgi:esiteid" v="129898"/>
  </node>
  <node id="-123" visible="true" lat="45.00101089" lon="-72.01074981">
    <tag k="addr:housenumber" v="154"/>
    <tag k="addr:street" v="Lyon Road"/>
    <tag k="addr:state" v="VT"/>
    <tag k="ref:vcgi:esiteid" v="129900"/>
  </node>
  <node id="-124" visible="true" lat="45.00082397" lon="-71.96995544">
    <tag k="addr:housenumber" v="3092"/>
    <tag k="addr:street" v="Holland Pond Road"/>
    <tag k="addr:state" v="VT"/>
    <tag k="ref:vcgi:esiteid" v="129901"/>
  </node>
  <node id="-128" visible="true" lat="44.99914108" lon="-72.02568099">
    <tag k="addr:housenumber" v="1456"/>
    <tag k="addr:street" v="Stearns Brook Road"/>
    <tag k="addr:state" v="VT"/>
    <tag k="ref:vcgi:esiteid" v="129905"/>
  </node>
  <node id="-129" visible="true" lat="44.99913787" lon="-72.03968048">
    <tag k="addr:housenumber" v="218"/>
    <tag k="addr:street" v="Tree Farm Road"/>
    <tag k="addr:state" v="VT"/>
    <tag k="ref:vcgi:esiteid" v="129906"/>
  </node>
  <node id="-132" visible="true" lat="44.99836349" lon="-71.97497558">
    <tag k="addr:housenumber" v="2592"/>
    <tag k="addr:street" v="Holland Pond Road"/>
    <tag k="addr:state" v="VT"/>
    <tag k="ref:vcgi:esiteid" v="129909"/>
  </node>
  <node id="-133" visible="true" lat="44.9980221" lon="-72.05281462">
    <tag k="addr:housenumber" v="71"/>
    <tag k="addr:street" v="Moon Road"/>
    <tag k="addr:state" v="VT"/>
    <tag k="ref:vcgi:esiteid" v="129910"/>
  </node>
  <node id="-137" visible="true" lat="44.99778366" lon="-72.04296874">
    <tag k="addr:housenumber" v="25"/>
    <tag k="addr:street" v="Tree Farm Road"/>
    <tag k="addr:state" v="VT"/>
    <tag k="ref:vcgi:esiteid" v="129914"/>
  </node>
  <node id="-139" visible="true" lat="44.99716903" lon="-72.03467533">
    <tag k="addr:housenumber" v="148"/>
    <tag k="addr:street" v="Tree Farm Road"/>
    <tag k="addr:state" v="VT"/>
    <tag k="ref:vcgi:esiteid" v="129916"/>
  </node>
  <node id="-142" visible="true" lat="44.9968988" lon="-72.02509907">
    <tag k="addr:housenumber" v="1302"/>
    <tag k="addr:street" v="Stearns Brook Road"/>
    <tag k="addr:state" v="VT"/>
    <tag k="ref:vcgi:esiteid" v="129919"/>
  </node>
  <node id="-143" visible="true" lat="44.99668368" lon="-72.02768937">
    <tag k="addr:housenumber" v="1303"/>
    <tag k="addr:street" v="Stearns Brook Road"/>
    <tag k="addr:state" v="VT"/>
    <tag k="ref:vcgi:esiteid" v="129920"/>
  </node>
  <node id="-145" visible="true" lat="44.99600201" lon="-72.02807493">
    <tag k="addr:housenumber" v="1259"/>
    <tag k="addr:street" v="Stearns Brook Road"/>
    <tag k="addr:state" v="VT"/>
    <tag k="ref:vcgi:esiteid" v="129923"/>
  </node>
  <node id="-153" visible="true" lat="44.99395271" lon="-72.02810314">
    <tag k="addr:housenumber" v="1113"/>
    <tag k="addr:street" v="Stearns Brook Road"/>
    <tag k="addr:state" v="VT"/>
    <tag k="ref:vcgi:esiteid" v="129931"/>
  </node>
  <node id="-154" visible="true" lat="44.99367141" lon="-71.97941589">
    <tag k="addr:housenumber" v="2185"/>
    <tag k="addr:street" v="Holland Pond Road"/>
    <tag k="addr:state" v="VT"/>
    <tag k="ref:vcgi:esiteid" v="129932"/>
  </node>
  <node id="-157" visible="true" lat="44.99316024" lon="-71.95742034">
    <tag k="addr:housenumber" v="3979"/>
    <tag k="addr:street" v="Holland Pond Road"/>
    <tag k="addr:state" v="VT"/>
    <tag k="ref:vcgi:esiteid" v="129935"/>
  </node>
  <node id="-173" visible="true" lat="44.99111175" lon="-72.01358032">
    <tag k="addr:housenumber" v="1279"/>
    <tag k="addr:street" v="School Road"/>
    <tag k="addr:state" v="VT"/>
    <tag k="ref:vcgi:esiteid" v="129951"/>
  </node>
  <node id="-174" visible="true" lat="44.99105279" lon="-72.02760916">
    <tag k="addr:housenumber" v="918"/>
    <tag k="addr:street" v="Stearns Brook Road"/>
    <tag k="addr:state" v="VT"/>
    <tag k="ref:vcgi:esiteid" v="129952"/>
  </node>
  <node id="-179" visible="true" lat="44.99048614" lon="-72.04362487">
    <tag k="addr:housenumber" v="241"/>
    <tag k="addr:street" v="Twin Bridge Road"/>
    <tag k="addr:state" v="VT"/>
    <tag k="ref:vcgi:esiteid" v="129957"/>
  </node>
  <node id="-183" visible="true" lat="44.98935446" lon="-71.98745981">
    <tag k="addr:housenumber" v="1674"/>
    <tag k="addr:street" v="Holland Pond Road"/>
    <tag k="addr:state" v="VT"/>
    <tag k="ref:vcgi:esiteid" v="129961"/>
  </node>
  <node id="-185" visible="true" lat="44.98944436" lon="-72.02999851">
    <tag k="addr:housenumber" v="1057"/>
    <tag k="addr:street" v="Twin Bridge Road"/>
    <tag k="addr:state" v="VT"/>
    <tag k="ref:vcgi:esiteid" v="129963"/>
  </node>
  <node id="-188" visible="true" lat="44.98883424" lon="-72.02302743">
    <tag k="addr:housenumber" v="1382"/>
    <tag k="addr:street" v="Twin Bridge Road"/>
    <tag k="addr:state" v="VT"/>
    <tag k="ref:vcgi:esiteid" v="129966"/>
  </node>
  <node id="-189" visible="true" lat="44.98878816" lon="-72.02154747">
    <tag k="addr:housenumber" v="1448"/>
    <tag k="addr:street" v="Twin Bridge Road"/>
    <tag k="addr:state" v="VT"/>
    <tag k="ref:vcgi:esiteid" v="129967"/>
  </node>
  <node id="-190" visible="true" lat="44.98881794" lon="-72.02443296">
    <tag k="addr:housenumber" v="1312"/>
    <tag k="addr:street" v="Twin Bridge Road"/>
    <tag k="addr:state" v="VT"/>
    <tag k="ref:vcgi:esiteid" v="129968"/>
  </node>
  <node id="-191" visible="true" lat="44.98865765" lon="-72.02675211">
    <tag k="addr:housenumber" v="1200"/>
    <tag k="addr:street" v="Twin Bridge Road"/>
    <tag k="addr:state" v="VT"/>
    <tag k="ref:vcgi:esiteid" v="129969"/>
  </node>
  <node id="-195" visible="true" lat="44.98864508" lon="-72.05394963">
    <tag k="addr:housenumber" v="13"/>
    <tag k="addr:street" v="Valley Road"/>
    <tag k="addr:state" v="VT"/>
    <tag k="ref:vcgi:esiteid" v="129973"/>
  </node>
  <node id="-196" visible="true" lat="44.98811202" lon="-72.03227078">
    <tag k="addr:housenumber" v="930"/>
    <tag k="addr:street" v="Twin Bridge Road"/>
    <tag k="addr:state" v="VT"/>
    <tag k="ref:vcgi:esiteid" v="129974"/>
  </node>
  <node id="-197" visible="true" lat="44.98830413" lon="-72.03327178">
    <tag k="addr:housenumber" v="865"/>
    <tag k="addr:street" v="Twin Bridge Road"/>
    <tag k="addr:state" v="VT"/>
    <tag k="ref:vcgi:esiteid" v="129975"/>
  </node>
  <node id="-199" visible="true" lat="44.98804473" lon="-72.02062225">
    <tag k="addr:housenumber" v="1548"/>
    <tag k="addr:street" v="Twin Bridge Road"/>
    <tag k="addr:state" v="VT"/>
    <tag k="ref:vcgi:esiteid" v="129977"/>
  </node>
  <node id="-200" visible="true" lat="44.98801052" lon="-72.02822821">
    <tag k="addr:housenumber" v="700"/>
    <tag k="addr:street" v="Stearns Brook Road"/>
    <tag k="addr:state" v="VT"/>
    <tag k="ref:vcgi:esiteid" v="129978"/>
  </node>
  <node id="-203" visible="true" lat="44.98782108" lon="-72.05267992">
    <tag k="addr:housenumber" v="115"/>
    <tag k="addr:street" v="Valley Road"/>
    <tag k="addr:state" v="VT"/>
    <tag k="ref:vcgi:esiteid" v="129981"/>
  </node>
  <node id="-205" visible="true" lat="44.98761367" lon="-72.04682922">
    <tag k="addr:housenumber" v="141"/>
    <tag k="addr:street" v="Twin Bridge Road"/>
    <tag k="addr:state" v="VT"/>
    <tag k="ref:vcgi:esiteid" v="129983"/>
  </node>
  <node id="-206" visible="true" lat="44.98731946" lon="-72.02816837">
    <tag k="addr:housenumber" v="660"/>
    <tag k="addr:street" v="Stearns Brook Road"/>
    <tag k="addr:state" v="VT"/>
    <tag k="ref:vcgi:esiteid" v="129984"/>
  </node>
  <node id="-207" visible="true" lat="44.98744583" lon="-72.04315948">
    <tag k="addr:housenumber" v="339"/>
    <tag k="addr:street" v="Twin Bridge Road"/>
    <tag k="addr:state" v="VT"/>
    <tag k="ref:vcgi:esiteid" v="129985"/>
  </node>
  <node id="-210" visible="true" lat="44.98733738" lon="-72.05081673">
    <tag k="addr:housenumber" v="223"/>
    <tag k="addr:street" v="Valley Road"/>
    <tag k="addr:state" v="VT"/>
    <tag k="ref:vcgi:esiteid" v="129988"/>
  </node>
  <node id="-211" visible="true" lat="44.986732" lon="-72.0504467">
    <tag k="addr:housenumber" v="249"/>
    <tag k="addr:street" v="Valley Road"/>
    <tag k="addr:state" v="VT"/>
    <tag k="ref:vcgi:esiteid" v="129989"/>
  </node>
  <node id="-212" visible="true" lat="44.98690434" lon="-72.05367428">
    <tag k="addr:housenumber" v="140"/>
    <tag k="addr:street" v="Valley Road"/>
    <tag k="addr:state" v="VT"/>
    <tag k="ref:vcgi:esiteid" v="129990"/>
  </node>
  <node id="-213" visible="true" lat="44.98667526" lon="-72.03794097">
    <tag k="addr:housenumber" v="595"/>
    <tag k="addr:street" v="Twin Bridge Road"/>
    <tag k="addr:state" v="VT"/>
    <tag k="ref:vcgi:esiteid" v="129991"/>
  </node>
  <node id="-214" visible="true" lat="44.98632049" lon="-72.03866577">
    <tag k="addr:housenumber" v="552"/>
    <tag k="addr:street" v="Twin Bridge Road"/>
    <tag k="addr:state" v="VT"/>
    <tag k="ref:vcgi:esiteid" v="129992"/>
  </node>
  <node id="-217" visible="true" lat="44.98506261" lon="-72.03470101">
    <tag k="addr:housenumber" v="378"/>
    <tag k="addr:street" v="Tice Mill Road"/>
    <tag k="addr:state" v="VT"/>
    <tag k="ref:vcgi:esiteid" v="129995"/>
  </node>
  <node id="-219" visible="true" lat="44.98492813" lon="-71.98793029">
    <tag k="addr:housenumber" v="337"/>
    <tag k="addr:street" v="Page Hill Road"/>
    <tag k="addr:state" v="VT"/>
    <tag k="ref:vcgi:esiteid" v="129997"/>
  </node>
  <node id="-222" visible="true" lat="44.98461006" lon="-72.03355735">
    <tag k="addr:housenumber" v="310"/>
    <tag k="addr:street" v="Tice Mill Road"/>
    <tag k="addr:state" v="VT"/>
    <tag k="ref:vcgi:esiteid" v="130000"/>
  </node>
  <node id="-225" visible="true" lat="44.98375701" lon="-72.04434203">
    <tag k="addr:housenumber" v="621"/>
    <tag k="addr:street" v="Valley Road"/>
    <tag k="addr:state" v="VT"/>
    <tag k="ref:vcgi:esiteid" v="130003"/>
  </node>
  <node id="-226" visible="true" lat="44.98356245" lon="-71.98191488">
    <tag k="addr:housenumber" v="589"/>
    <tag k="addr:street" v="Page Hill Road"/>
    <tag k="addr:state" v="VT"/>
    <tag k="ref:vcgi:esiteid" v="130004"/>
  </node>
  <node id="-229" visible="true" lat="44.98332595" lon="-71.99044036">
    <tag k="addr:housenumber" v="15"/>
    <tag k="addr:street" v="Smith Road"/>
    <tag k="addr:state" v="VT"/>
    <tag k="ref:vcgi:esiteid" v="130007"/>
  </node>
  <node id="-231" visible="true" lat="44.98309697" lon="-71.98227641">
    <tag k="addr:housenumber" v="591"/>
    <tag k="addr:street" v="Page Hill Road"/>
    <tag k="addr:state" v="VT"/>
    <tag k="ref:vcgi:esiteid" v="130009"/>
  </node>
  <node id="-233" visible="true" lat="44.98290252" lon="-72.04273986">
    <tag k="addr:housenumber" v="729"/>
    <tag k="addr:street" v="Valley Road"/>
    <tag k="addr:state" v="VT"/>
    <tag k="ref:vcgi:esiteid" v="130011"/>
  </node>
  <node id="-236" visible="true" lat="44.98255539" lon="-72.04446411">
    <tag k="addr:housenumber" v="736"/>
    <tag k="addr:street" v="Valley Road"/>
    <tag k="addr:state" v="VT"/>
    <tag k="ref:vcgi:esiteid" v="130014"/>
  </node>
  <node id="-240" visible="true" lat="44.98176193" lon="-72.0351181">
    <tag k="addr:housenumber" v="130"/>
    <tag k="addr:street" v="Tice Mill Road"/>
    <tag k="addr:state" v="VT"/>
    <tag k="ref:vcgi:esiteid" v="130018"/>
  </node>
  <node id="-244" visible="true" lat="44.98110438" lon="-72.03475995">
    <tag k="addr:housenumber" v="84"/>
    <tag k="addr:street" v="Tice Mill Road"/>
    <tag k="addr:state" v="VT"/>
    <tag k="ref:vcgi:esiteid" v="130022"/>
  </node>
  <node id="-245" visible="true" lat="44.98106549" lon="-71.9754317">
    <tag k="addr:housenumber" v="1013"/>
    <tag k="addr:street" v="Page Hill Road"/>
    <tag k="addr:state" v="VT"/>
    <tag k="ref:vcgi:esiteid" v="130023"/>
  </node>
  <node id="-247" visible="true" lat="44.98066144" lon="-71.99931795">
    <tag k="addr:housenumber" v="808"/>
    <tag k="addr:street" v="Holland Pond Road"/>
    <tag k="addr:state" v="VT"/>
    <tag k="ref:vcgi:esiteid" v="130025"/>
  </node>
  <node id="-249" visible="true" lat="44.98055972" lon="-71.97420363">
    <tag k="addr:housenumber" v="1051"/>
    <tag k="addr:street" v="Page Hill Road"/>
    <tag k="addr:state" v="VT"/>
    <tag k="ref:vcgi:esiteid" v="130027"/>
  </node>
  <node id="-252" visible="true" lat="44.98042971" lon="-72.0303204">
    <tag k="addr:housenumber" v="179"/>
    <tag k="addr:street" v="Stearns Brook Road"/>
    <tag k="addr:state" v="VT"/>
    <tag k="ref:vcgi:esiteid" v="130030"/>
  </node>
  <node id="-253" visible="true" lat="44.98029366" lon="-72.03615693">
    <tag k="addr:housenumber" v="1097"/>
    <tag k="addr:street" v="Valley Road"/>
    <tag k="addr:state" v="VT"/>
    <tag k="ref:vcgi:esiteid" v="130031"/>
  </node>
  <node id="-254" visible="true" lat="44.97994259" lon="-71.96601854">
    <tag k="addr:housenumber" v="1475"/>
    <tag k="addr:street" v="Page Hill Road"/>
    <tag k="addr:state" v="VT"/>
    <tag k="ref:vcgi:esiteid" v="130032"/>
  </node>
  <node id="-255" visible="true" lat="44.97996908" lon="-72.02644524">
    <tag k="addr:housenumber" v="174"/>
    <tag k="addr:street" v="Andrews Road"/>
    <tag k="addr:state" v="VT"/>
    <tag k="ref:vcgi:esiteid" v="130033"/>
  </node>
  <node id="-257" visible="true" lat="44.98005689" lon="-72.03416141">
    <tag k="addr:housenumber" v="1209"/>
    <tag k="addr:street" v="Valley Road"/>
    <tag k="addr:state" v="VT"/>
    <tag k="ref:vcgi:esiteid" v="130035"/>
  </node>
  <node id="-258" visible="true" lat="44.97981643" lon="-72.02340698">
    <tag k="addr:housenumber" v="314"/>
    <tag k="addr:street" v="Andrews Road"/>
    <tag k="addr:state" v="VT"/>
    <tag k="ref:vcgi:esiteid" v="130036"/>
  </node>
  <node id="-259" visible="true" lat="44.9796978" lon="-72.03539434">
    <tag k="addr:housenumber" v="1146"/>
    <tag k="addr:street" v="Valley Road"/>
    <tag k="addr:state" v="VT"/>
    <tag k="ref:vcgi:esiteid" v="130037"/>
  </node>
  <node id="-260" visible="true" lat="44.9796533" lon="-72.03483618">
    <tag k="addr:housenumber" v="1172"/>
    <tag k="addr:street" v="Valley Road"/>
    <tag k="addr:state" v="VT"/>
    <tag k="ref:vcgi:esiteid" v="130038"/>
  </node>
  <node id="-261" visible="true" lat="44.97965836" lon="-72.03376259">
    <tag k="addr:housenumber" v="1214"/>
    <tag k="addr:street" v="Valley Road"/>
    <tag k="addr:state" v="VT"/>
    <tag k="ref:vcgi:esiteid" v="130039"/>
  </node>
  <node id="-264" visible="true" lat="44.97909939" lon="-71.96766439">
    <tag k="addr:housenumber" v="1395"/>
    <tag k="addr:street" v="Page Hill Road"/>
    <tag k="addr:state" v="VT"/>
    <tag k="ref:vcgi:esiteid" v="130042"/>
  </node>
  <node id="-268" visible="true" lat="44.97859691" lon="-72.01425695">
    <tag k="addr:housenumber" v="405"/>
    <tag k="addr:street" v="School Road"/>
    <tag k="addr:state" v="VT"/>
    <tag k="ref:vcgi:esiteid" v="130046"/>
  </node>
  <node id="-272" visible="true" lat="44.97790183" lon="-71.93047143">
    <tag k="addr:housenumber" v="866"/>
    <tag k="addr:street" v="South Shore Road"/>
    <tag k="addr:state" v="VT"/>
    <tag k="ref:vcgi:esiteid" v="130050"/>
  </node>
  <node id="-273" visible="true" lat="44.97842172" lon="-72.02858208">
    <tag k="addr:housenumber" v="1525"/>
    <tag k="addr:street" v="Valley Road"/>
    <tag k="addr:state" v="VT"/>
    <tag k="ref:vcgi:esiteid" v="130051"/>
  </node>
  <node id="-274" visible="true" lat="44.9780527" lon="-72.03117326">
    <tag k="addr:housenumber" v="1384"/>
    <tag k="addr:street" v="Valley Road"/>
    <tag k="addr:state" v="VT"/>
    <tag k="ref:vcgi:esiteid" v="130052"/>
  </node>
  <node id="-275" visible="true" lat="44.97806047" lon="-72.05694881">
    <tag k="addr:housenumber" v="1031"/>
    <tag k="addr:street" v="Whittier Road"/>
    <tag k="addr:state" v="VT"/>
    <tag k="ref:vcgi:esiteid" v="130053"/>
  </node>
  <node id="-276" visible="true" lat="44.97768784" lon="-72.03090668">
    <tag k="addr:housenumber" v="39"/>
    <tag k="addr:street" v="Gore Road"/>
    <tag k="addr:state" v="VT"/>
    <tag k="ref:vcgi:esiteid" v="130054"/>
  </node>
  <node id="-277" visible="true" lat="44.97740567" lon="-72.02820069">
    <tag k="addr:housenumber" v="1564"/>
    <tag k="addr:street" v="Valley Road"/>
    <tag k="addr:state" v="VT"/>
    <tag k="ref:vcgi:esiteid" v="130055"/>
  </node>
  <node id="-278" visible="true" lat="44.97710395" lon="-72.02783882">
    <tag k="addr:housenumber" v="1576"/>
    <tag k="addr:street" v="Valley Road"/>
    <tag k="addr:state" v="VT"/>
    <tag k="ref:vcgi:esiteid" v="130056"/>
  </node>
  <node id="-281" visible="true" lat="44.97483826" lon="-72.02382291">
    <tag k="addr:housenumber" v="1851"/>
    <tag k="addr:street" v="Valley Road"/>
    <tag k="addr:state" v="VT"/>
    <tag k="ref:vcgi:esiteid" v="130059"/>
  </node>
  <node id="-282" visible="true" lat="44.97451407" lon="-72.01308679">
    <tag k="addr:housenumber" v="120"/>
    <tag k="addr:street" v="School Road"/>
    <tag k="addr:state" v="VT"/>
    <tag k="ref:vcgi:esiteid" v="130060"/>
  </node>
  <node id="-284" visible="true" lat="44.97423553" lon="-72.00249481">
    <tag k="addr:housenumber" v="341"/>
    <tag k="addr:street" v="Holland Pond Road"/>
    <tag k="addr:state" v="VT"/>
    <tag k="ref:vcgi:esiteid" v="130062"/>
  </node>
  <node id="-285" visible="true" lat="44.97429216" lon="-72.00115217">
    <tag k="addr:housenumber" v="354"/>
    <tag k="addr:street" v="Holland Pond Road"/>
    <tag k="addr:state" v="VT"/>
    <tag k="ref:vcgi:esiteid" v="130063"/>
  </node>
  <node id="-286" visible="true" lat="44.97402536" lon="-72.02419011">
    <tag k="addr:housenumber" v="1850"/>
    <tag k="addr:street" v="Valley Road"/>
    <tag k="addr:state" v="VT"/>
    <tag k="ref:vcgi:esiteid" v="130064"/>
  </node>
  <node id="-287" visible="true" lat="44.97422028" lon="-72.05506134">
    <tag k="addr:housenumber" v="1264"/>
    <tag k="addr:street" v="Whittier Road"/>
    <tag k="addr:state" v="VT"/>
    <tag k="ref:vcgi:esiteid" v="130065"/>
  </node>
  <node id="-288" visible="true" lat="44.97409439" lon="-72.05309295">
    <tag k="addr:housenumber" v="65"/>
    <tag k="addr:street" v="Bullis Road"/>
    <tag k="addr:state" v="VT"/>
    <tag k="ref:vcgi:esiteid" v="130066"/>
  </node>
  <node id="-289" visible="true" lat="44.97396087" lon="-72.0440216">
    <tag k="addr:housenumber" v="493"/>
    <tag k="addr:street" v="Bullis Road"/>
    <tag k="addr:state" v="VT"/>
    <tag k="ref:vcgi:esiteid" v="130067"/>
  </node>
  <node id="-290" visible="true" lat="44.97353434" lon="-72.0194296">
    <tag k="addr:housenumber" v="2099"/>
    <tag k="addr:street" v="Valley Road"/>
    <tag k="addr:state" v="VT"/>
    <tag k="ref:vcgi:esiteid" v="130068"/>
  </node>
  <node id="-291" visible="true" lat="44.97314596" lon="-72.01784132">
    <tag k="addr:housenumber" v="2164"/>
    <tag k="addr:street" v="Valley Road"/>
    <tag k="addr:state" v="VT"/>
    <tag k="ref:vcgi:esiteid" v="130069"/>
  </node>
  <node id="-292" visible="true" lat="44.97312284" lon="-72.01269811">
    <tag k="addr:housenumber" v="26"/>
    <tag k="addr:street" v="School Road"/>
    <tag k="addr:state" v="VT"/>
    <tag k="ref:vcgi:esiteid" v="130070"/>
  </node>
  <node id="-293" visible="true" lat="44.97271383" lon="-72.00549737">
    <tag k="addr:housenumber" v="2793"/>
    <tag k="addr:street" v="Valley Road"/>
    <tag k="addr:state" v="VT"/>
    <tag k="ref:vcgi:esiteid" v="130071"/>
  </node>
  <node id="-294" visible="true" lat="44.97280397" lon="-72.01119934">
    <tag k="addr:housenumber" v="2503"/>
    <tag k="addr:street" v="Valley Road"/>
    <tag k="addr:state" v="VT"/>
    <tag k="ref:vcgi:esiteid" v="130072"/>
  </node>
  <node id="-295" visible="true" lat="44.9726242" lon="-72.00148098">
    <tag k="addr:housenumber" v="242"/>
    <tag k="addr:street" v="Holland Pond Road"/>
    <tag k="addr:state" v="VT"/>
    <tag k="ref:vcgi:esiteid" v="130073"/>
  </node>
  <node id="-296" visible="true" lat="44.97249551" lon="-72.05253156">
    <tag k="addr:housenumber" v="1461"/>
    <tag k="addr:street" v="Whittier Road"/>
    <tag k="addr:state" v="VT"/>
    <tag k="ref:vcgi:esiteid" v="130074"/>
  </node>
  <node id="-297" visible="true" lat="44.97238272" lon="-72.03616759">
    <tag k="addr:housenumber" v="480"/>
    <tag k="addr:street" v="Gore Road"/>
    <tag k="addr:state" v="VT"/>
    <tag k="ref:vcgi:esiteid" v="130075"/>
  </node>
  <node id="-298" visible="true" lat="44.9719683" lon="-72.00770374">
    <tag k="addr:housenumber" v="2683"/>
    <tag k="addr:street" v="Valley Road"/>
    <tag k="addr:state" v="VT"/>
    <tag k="ref:vcgi:esiteid" v="130076"/>
  </node>
  <node id="-299" visible="true" lat="44.97174835" lon="-72.05516815">
    <tag k="addr:housenumber" v="1340"/>
    <tag k="addr:street" v="Whittier Road"/>
    <tag k="addr:state" v="VT"/>
    <tag k="ref:vcgi:esiteid" v="130077"/>
  </node>
  <node id="-300" visible="true" lat="44.97132298" lon="-72.00174912">
    <tag k="addr:housenumber" v="156"/>
    <tag k="addr:street" v="Holland Pond Road"/>
    <tag k="addr:state" v="VT"/>
    <tag k="ref:vcgi:esiteid" v="130078"/>
  </node>
  <node id="-301" visible="true" lat="44.97082792" lon="-72.03735969">
    <tag k="addr:housenumber" v="598"/>
    <tag k="addr:street" v="Gore Road"/>
    <tag k="addr:state" v="VT"/>
    <tag k="ref:vcgi:esiteid" v="130079"/>
  </node>
  <node id="-303" visible="true" lat="44.97029114" lon="-72.05301666">
    <tag k="addr:housenumber" v="1579"/>
    <tag k="addr:street" v="Whittier Road"/>
    <tag k="addr:state" v="VT"/>
    <tag k="ref:vcgi:esiteid" v="130081"/>
  </node>
  <node id="-304" visible="true" lat="44.97019577" lon="-72.05293274">
    <tag k="addr:housenumber" v="1571"/>
    <tag k="addr:street" v="Whittier Road"/>
    <tag k="addr:state" v="VT"/>
    <tag k="ref:vcgi:esiteid" v="130082"/>
  </node>
  <node id="-306" visible="true" lat="44.96890691" lon="-72.03774906">
    <tag k="addr:housenumber" v="746"/>
    <tag k="addr:street" v="Gore Road"/>
    <tag k="addr:state" v="VT"/>
    <tag k="ref:vcgi:esiteid" v="130084"/>
  </node>
  <node id="-307" visible="true" lat="44.96848729" lon="-72.00102387">
    <tag k="addr:housenumber" v="3041"/>
    <tag k="addr:street" v="Valley Road"/>
    <tag k="addr:state" v="VT"/>
    <tag k="ref:vcgi:esiteid" v="130085"/>
  </node>
  <node id="-308" visible="true" lat="44.96832793" lon="-72.03778974">
    <tag k="addr:housenumber" v="790"/>
    <tag k="addr:street" v="Gore Road"/>
    <tag k="addr:state" v="VT"/>
    <tag k="ref:vcgi:esiteid" v="130086"/>
  </node>
  <node id="-309" visible="true" lat="44.96756962" lon="-72.00258995">
    <tag k="addr:housenumber" v="3083"/>
    <tag k="addr:street" v="Valley Road"/>
    <tag k="addr:state" v="VT"/>
    <tag k="ref:vcgi:esiteid" v="130087"/>
  </node>
  <node id="-310" visible="true" lat="44.96729736" lon="-72.00344091">
    <tag k="addr:housenumber" v="3118"/>
    <tag k="addr:street" v="Valley Road"/>
    <tag k="addr:state" v="VT"/>
    <tag k="ref:vcgi:esiteid" v="130088"/>
  </node>
  <node id="-311" visible="true" lat="44.96750259" lon="-72.0570755">
    <tag k="addr:housenumber" v="1774"/>
    <tag k="addr:street" v="Whittier Road"/>
    <tag k="addr:state" v="VT"/>
    <tag k="ref:vcgi:esiteid" v="130089"/>
  </node>
  <node id="-313" visible="true" lat="44.96701236" lon="-72.00299092">
    <tag k="addr:housenumber" v="3159"/>
    <tag k="addr:street" v="Valley Road"/>
    <tag k="addr:state" v="VT"/>
    <tag k="ref:vcgi:esiteid" v="130091"/>
  </node>
  <node id="-314" visible="true" lat="44.96686021" lon="-72.03730038">
    <tag k="addr:housenumber" v="857"/>
    <tag k="addr:street" v="Gore Road"/>
    <tag k="addr:state" v="VT"/>
    <tag k="ref:vcgi:esiteid" v="130092"/>
  </node>
  <node id="-315" visible="true" lat="44.96649169" lon="-72.00357818">
    <tag k="addr:housenumber" v="3178"/>
    <tag k="addr:street" v="Valley Road"/>
    <tag k="addr:state" v="VT"/>
    <tag k="ref:vcgi:esiteid" v="130093"/>
  </node>
  <node id="-316" visible="true" lat="44.96588134" lon="-71.98665618">
    <tag k="addr:housenumber" v="605"/>
    <tag k="addr:street" v="Trucott Road"/>
    <tag k="addr:state" v="VT"/>
    <tag k="ref:vcgi:esiteid" v="130094"/>
  </node>
  <node id="-317" visible="true" lat="44.96583939" lon="-72.03820038">
    <tag k="addr:housenumber" v="950"/>
    <tag k="addr:street" v="Gore Road"/>
    <tag k="addr:state" v="VT"/>
    <tag k="ref:vcgi:esiteid" v="130095"/>
  </node>
  <node id="-319" visible="true" lat="44.96587549" lon="-72.0557469">
    <tag k="addr:housenumber" v="1776"/>
    <tag k="addr:street" v="Whittier Road"/>
    <tag k="addr:state" v="VT"/>
    <tag k="ref:vcgi:esiteid" v="130098"/>
  </node>
  <node id="-320" visible="true" lat="44.96519089" lon="-72.03742981">
    <tag k="addr:housenumber" v="1027"/>
    <tag k="addr:street" v="Gore Road"/>
    <tag k="addr:state" v="VT"/>
    <tag k="ref:vcgi:esiteid" v="130099"/>
  </node>
  <node id="-322" visible="true" lat="44.96491241" lon="-72.05315399">
    <tag k="addr:housenumber" v="1945"/>
    <tag k="addr:street" v="Whittier Road"/>
    <tag k="addr:state" v="VT"/>
    <tag k="ref:vcgi:esiteid" v="130101"/>
  </node>
  <node id="-324" visible="true" lat="44.96437072" lon="-71.9803009">
    <tag k="addr:housenumber" v="1027"/>
    <tag k="addr:street" v="Trucott Road"/>
    <tag k="addr:state" v="VT"/>
    <tag k="ref:vcgi:esiteid" v="130103"/>
  </node>
  <node id="-325" visible="true" lat="44.96453857" lon="-72.03898621">
    <tag k="addr:housenumber" v="58"/>
    <tag k="addr:street" v="Stagecoach Lane"/>
    <tag k="addr:state" v="VT"/>
    <tag k="ref:vcgi:esiteid" v="130104"/>
  </node>
  <node id="-327" visible="true" lat="44.96354628" lon="-71.98722021">
    <tag k="addr:housenumber" v="725"/>
    <tag k="addr:street" v="Trucott Road"/>
    <tag k="addr:state" v="VT"/>
    <tag k="ref:vcgi:esiteid" v="130107"/>
  </node>
  <node id="-328" visible="true" lat="44.96350796" lon="-72.0046236">
    <tag k="addr:housenumber" v="3390"/>
    <tag k="addr:street" v="Valley Road"/>
    <tag k="addr:state" v="VT"/>
    <tag k="ref:vcgi:esiteid" v="130108"/>
  </node>
  <node id="-330" visible="true" lat="44.96328502" lon="-71.99068967">
    <tag k="addr:housenumber" v="523"/>
    <tag k="addr:street" v="Trucott Road"/>
    <tag k="addr:state" v="VT"/>
    <tag k="ref:vcgi:esiteid" v="130110"/>
  </node>
  <node id="-331" visible="true" lat="44.96327641" lon="-71.98399072">
    <tag k="addr:housenumber" v="841"/>
    <tag k="addr:street" v="Trucott Road"/>
    <tag k="addr:state" v="VT"/>
    <tag k="ref:vcgi:esiteid" v="130111"/>
  </node>
  <node id="-332" visible="true" lat="44.96322512" lon="-71.984815">
    <tag k="addr:housenumber" v="811"/>
    <tag k="addr:street" v="Trucott Road"/>
    <tag k="addr:state" v="VT"/>
    <tag k="ref:vcgi:esiteid" v="130113"/>
  </node>
  <node id="-333" visible="true" lat="44.9628334" lon="-71.97097778">
    <tag k="addr:housenumber" v="1598"/>
    <tag k="addr:street" v="Trucott Road"/>
    <tag k="addr:state" v="VT"/>
    <tag k="ref:vcgi:esiteid" v="130114"/>
  </node>
  <node id="-335" visible="true" lat="44.96154785" lon="-72.03848267">
    <tag k="addr:housenumber" v="262"/>
    <tag k="addr:street" v="Stagecoach Lane"/>
    <tag k="addr:state" v="VT"/>
    <tag k="ref:vcgi:esiteid" v="130116"/>
  </node>
  <node id="-338" visible="true" lat="44.96086323" lon="-72.0011451">
    <tag k="addr:housenumber" v="3620"/>
    <tag k="addr:street" v="Valley Road"/>
    <tag k="addr:state" v="VT"/>
    <tag k="ref:vcgi:esiteid" v="130119"/>
  </node>
  <node id="-339" visible="true" lat="44.9607811" lon="-72.03869629">
    <tag k="addr:housenumber" v="312"/>
    <tag k="addr:street" v="Stagecoach Lane"/>
    <tag k="addr:state" v="VT"/>
    <tag k="ref:vcgi:esiteid" v="130120"/>
  </node>
  <node id="-340" visible="true" lat="44.96047211" lon="-72.00627899">
    <tag k="addr:housenumber" v="198"/>
    <tag k="addr:street" v="Mead Hill Road"/>
    <tag k="addr:state" v="VT"/>
    <tag k="ref:vcgi:esiteid" v="130121"/>
  </node>
  <node id="-346" visible="true" lat="44.95999527" lon="-72.03865051">
    <tag k="addr:housenumber" v="360"/>
    <tag k="addr:street" v="Stagecoach Lane"/>
    <tag k="addr:state" v="VT"/>
    <tag k="ref:vcgi:esiteid" v="130127"/>
  </node>
  <node id="-347" visible="true" lat="44.95956861" lon="-71.9912991">
    <tag k="addr:housenumber" v="263"/>
    <tag k="addr:street" v="Trucott Road"/>
    <tag k="addr:state" v="VT"/>
    <tag k="ref:vcgi:esiteid" v="130128"/>
  </node>
  <node id="-355" visible="true" lat="44.95913485" lon="-71.99605435">
    <tag k="addr:housenumber" v="3889"/>
    <tag k="addr:street" v="Valley Road"/>
    <tag k="addr:state" v="VT"/>
    <tag k="ref:vcgi:esiteid" v="130136"/>
  </node>
  <node id="-356" visible="true" lat="44.95869359" lon="-71.99095533">
    <tag k="addr:housenumber" v="204"/>
    <tag k="addr:street" v="Trucott Road"/>
    <tag k="addr:state" v="VT"/>
    <tag k="ref:vcgi:esiteid" v="130137"/>
  </node>
  <node id="-358" visible="true" lat="44.95837021" lon="-72.00489044">
    <tag k="addr:housenumber" v="349"/>
    <tag k="addr:street" v="Mead Hill Road"/>
    <tag k="addr:state" v="VT"/>
    <tag k="ref:vcgi:esiteid" v="130139"/>
  </node>
  <node id="-359" visible="true" lat="44.95812383" lon="-71.99629023">
    <tag k="addr:housenumber" v="3922"/>
    <tag k="addr:street" v="Valley Road"/>
    <tag k="addr:state" v="VT"/>
    <tag k="ref:vcgi:esiteid" v="130140"/>
  </node>
  <node id="-360" visible="true" lat="44.95819092" lon="-72.03887939">
    <tag k="addr:housenumber" v="498"/>
    <tag k="addr:street" v="Stagecoach Lane"/>
    <tag k="addr:state" v="VT"/>
    <tag k="ref:vcgi:esiteid" v="130141"/>
  </node>
  <node id="-362" visible="true" lat="44.95707702" lon="-71.99465942">
    <tag k="addr:housenumber" v="4036"/>
    <tag k="addr:street" v="Valley Road"/>
    <tag k="addr:state" v="VT"/>
    <tag k="ref:vcgi:esiteid" v="130143"/>
  </node>
  <node id="-363" visible="true" lat="44.95718765" lon="-72.02974701">
    <tag k="addr:housenumber" v="1786"/>
    <tag k="addr:street" v="Gore Road"/>
    <tag k="addr:state" v="VT"/>
    <tag k="ref:vcgi:esiteid" v="130144"/>
  </node>
  <node id="-364" visible="true" lat="44.95613098" lon="-71.99182129">
    <tag k="addr:housenumber" v="4197"/>
    <tag k="addr:street" v="Valley Road"/>
    <tag k="addr:state" v="VT"/>
    <tag k="ref:vcgi:esiteid" v="130145"/>
  </node>
  <node id="-365" visible="true" lat="44.95585251" lon="-72.02915954">
    <tag k="addr:housenumber" v="1884"/>
    <tag k="addr:street" v="Gore Road"/>
    <tag k="addr:state" v="VT"/>
    <tag k="ref:vcgi:esiteid" v="130146"/>
  </node>
  <node id="-366" visible="true" lat="44.95559274" lon="-72.00645784">
    <tag k="addr:housenumber" v="550"/>
    <tag k="addr:street" v="Mead Hill Road"/>
    <tag k="addr:state" v="VT"/>
    <tag k="ref:vcgi:esiteid" v="130148"/>
  </node>
  <node id="-367" visible="true" lat="44.95435333" lon="-71.9872818">
    <tag k="addr:housenumber" v="4439"/>
    <tag k="addr:street" v="Valley Road"/>
    <tag k="addr:state" v="VT"/>
    <tag k="ref:vcgi:esiteid" v="130149"/>
  </node>
  <node id="-368" visible="true" lat="44.95423275" lon="-72.03169434">
    <tag k="addr:housenumber" v="1958"/>
    <tag k="addr:street" v="Gore Road"/>
    <tag k="addr:state" v="VT"/>
    <tag k="ref:vcgi:esiteid" v="130150"/>
  </node>
  <node id="-369" visible="true" lat="44.95384557" lon="-72.00710289">
    <tag k="addr:housenumber" v="658"/>
    <tag k="addr:street" v="Mead Hill Road"/>
    <tag k="addr:state" v="VT"/>
    <tag k="ref:vcgi:esiteid" v="130151"/>
  </node>
  <node id="-370" visible="true" lat="44.95355225" lon="-71.99286652">
    <tag k="addr:housenumber" v="197"/>
    <tag k="addr:street" v="Fortin Farm Road"/>
    <tag k="addr:state" v="VT"/>
    <tag k="ref:vcgi:esiteid" v="130152"/>
  </node>
  <node id="-371" visible="true" lat="44.95357024" lon="-72.02809796">
    <tag k="addr:housenumber" v="2041"/>
    <tag k="addr:street" v="Gore Road"/>
    <tag k="addr:state" v="VT"/>
    <tag k="ref:vcgi:esiteid" v="130153"/>
  </node>
  <node id="-372" visible="true" lat="44.95303795" lon="-72.02827156">
    <tag k="addr:housenumber" v="2079"/>
    <tag k="addr:street" v="Gore Road"/>
    <tag k="addr:state" v="VT"/>
    <tag k="ref:vcgi:esiteid" v="130154"/>
  </node>
  <node id="-373" visible="true" lat="44.95215146" lon="-72.00509779">
    <tag k="addr:housenumber" v="825"/>
    <tag k="addr:street" v="Mead Hill Road"/>
    <tag k="addr:state" v="VT"/>
    <tag k="ref:vcgi:esiteid" v="130155"/>
  </node>
  <node id="-374" visible="true" lat="44.95174913" lon="-72.0277948">
    <tag k="addr:housenumber" v="2153"/>
    <tag k="addr:street" v="Gore Road"/>
    <tag k="addr:state" v="VT"/>
    <tag k="ref:vcgi:esiteid" v="130156"/>
  </node>
  <node id="-375" visible="true" lat="44.95135498" lon="-71.99328613">
    <tag k="addr:housenumber" v="343"/>
    <tag k="addr:street" v="Fortin Farm Road"/>
    <tag k="addr:state" v="VT"/>
    <tag k="ref:vcgi:esiteid" v="130157"/>
  </node>
  <node id="-376" visible="true" lat="44.95169951" lon="-72.02662331">
    <tag k="addr:housenumber" v="2269"/>
    <tag k="addr:street" v="Gore Road"/>
    <tag k="addr:state" v="VT"/>
    <tag k="ref:vcgi:esiteid" v="130158"/>
  </node>
  <node id="-377" visible="true" lat="44.95116043" lon="-71.9803543">
    <tag k="addr:housenumber" v="4847"/>
    <tag k="addr:street" v="Valley Road"/>
    <tag k="addr:state" v="VT"/>
    <tag k="ref:vcgi:esiteid" v="130159"/>
  </node>
  <node id="-378" visible="true" lat="44.95147634" lon="-72.02644568">
    <tag k="addr:housenumber" v="2267"/>
    <tag k="addr:street" v="Gore Road"/>
    <tag k="addr:state" v="VT"/>
    <tag k="ref:vcgi:esiteid" v="130160"/>
  </node>
  <node id="-379" visible="true" lat="44.95093394" lon="-72.02864647">
    <tag k="addr:housenumber" v="2240"/>
    <tag k="addr:street" v="Gore Road"/>
    <tag k="addr:state" v="VT"/>
    <tag k="ref:vcgi:esiteid" v="130161"/>
  </node>
  <node id="-380" visible="true" lat="44.95019763" lon="-72.00677847">
    <tag k="addr:housenumber" v="915"/>
    <tag k="addr:street" v="Mead Hill Road"/>
    <tag k="addr:state" v="VT"/>
    <tag k="ref:vcgi:esiteid" v="130162"/>
  </node>
  <node id="-381" visible="true" lat="44.95019998" lon="-72.02823351">
    <tag k="addr:housenumber" v="2276"/>
    <tag k="addr:street" v="Gore Road"/>
    <tag k="addr:state" v="VT"/>
    <tag k="ref:vcgi:esiteid" v="130163"/>
  </node>
  <node id="-382" visible="true" lat="44.95067238" lon="-72.02747506">
    <tag k="addr:housenumber" v="2299"/>
    <tag k="addr:street" v="Gore Road"/>
    <tag k="addr:state" v="VT"/>
    <tag k="ref:vcgi:esiteid" v="130164"/>
  </node>
  <node id="-384" visible="true" lat="44.94970026" lon="-72.02704024">
    <tag k="addr:housenumber" v="2333"/>
    <tag k="addr:street" v="Gore Road"/>
    <tag k="addr:state" v="VT"/>
    <tag k="ref:vcgi:esiteid" v="130166"/>
  </node>
  <node id="-385" visible="true" lat="44.94942224" lon="-72.02813199">
    <tag k="addr:housenumber" v="2328"/>
    <tag k="addr:street" v="Gore Road"/>
    <tag k="addr:state" v="VT"/>
    <tag k="ref:vcgi:esiteid" v="130167"/>
  </node>
  <node id="-386" visible="true" lat="44.94837952" lon="-72.00774383">
    <tag k="addr:housenumber" v="1054"/>
    <tag k="addr:street" v="Mead Hill Road"/>
    <tag k="addr:state" v="VT"/>
    <tag k="ref:vcgi:esiteid" v="130168"/>
  </node>
  <node id="-387" visible="true" lat="44.93977801" lon="-72.03375187">
    <tag k="addr:housenumber" v="3152"/>
    <tag k="addr:street" v="Gore Road"/>
    <tag k="addr:state" v="VT"/>
    <tag k="ref:vcgi:esiteid" v="130169"/>
  </node>
  <node id="-388" visible="true" lat="44.94782257" lon="-72.00213623">
    <tag k="addr:housenumber" v="963"/>
    <tag k="addr:street" v="Mead Hill Road"/>
    <tag k="addr:state" v="VT"/>
    <tag k="ref:vcgi:esiteid" v="130170"/>
  </node>
  <node id="-389" visible="true" lat="44.94747925" lon="-72.00793457">
    <tag k="addr:housenumber" v="1104"/>
    <tag k="addr:street" v="Mead Hill Road"/>
    <tag k="addr:state" v="VT"/>
    <tag k="ref:vcgi:esiteid" v="130171"/>
  </node>
  <node id="-391" visible="true" lat="44.94724457" lon="-72.02588363">
    <tag k="addr:housenumber" v="67"/>
    <tag k="addr:street" v="Lackey Road"/>
    <tag k="addr:state" v="VT"/>
    <tag k="ref:vcgi:esiteid" v="130173"/>
  </node>
  <node id="-392" visible="true" lat="44.94669342" lon="-72.00732422">
    <tag k="addr:housenumber" v="1163"/>
    <tag k="addr:street" v="Mead Hill Road"/>
    <tag k="addr:state" v="VT"/>
    <tag k="ref:vcgi:esiteid" v="130174"/>
  </node>
  <node id="-393" visible="true" lat="44.94633865" lon="-72.00769806">
    <tag k="addr:housenumber" v="1203"/>
    <tag k="addr:street" v="Mead Hill Road"/>
    <tag k="addr:state" v="VT"/>
    <tag k="ref:vcgi:esiteid" v="130175"/>
  </node>
  <node id="-395" visible="true" lat="44.94626236" lon="-72.02211762">
    <tag k="addr:housenumber" v="269"/>
    <tag k="addr:street" v="Lackey Road"/>
    <tag k="addr:state" v="VT"/>
    <tag k="ref:vcgi:esiteid" v="130177"/>
  </node>
  <node id="-397" visible="true" lat="44.94601822" lon="-72.02062988">
    <tag k="addr:housenumber" v="339"/>
    <tag k="addr:street" v="Lackey Road"/>
    <tag k="addr:state" v="VT"/>
    <tag k="ref:vcgi:esiteid" v="130179"/>
  </node>
  <node id="-398" visible="true" lat="44.94547653" lon="-72.0079422">
    <tag k="addr:housenumber" v="1253"/>
    <tag k="addr:street" v="Mead Hill Road"/>
    <tag k="addr:state" v="VT"/>
    <tag k="ref:vcgi:esiteid" v="130180"/>
  </node>
  <node id="-399" visible="true" lat="44.94551087" lon="-72.02557373">
    <tag k="addr:housenumber" v="124"/>
    <tag k="addr:street" v="Lackey Road"/>
    <tag k="addr:state" v="VT"/>
    <tag k="ref:vcgi:esiteid" v="130181"/>
  </node>
  <node id="-400" visible="true" lat="44.94532776" lon="-72.0190506">
    <tag k="addr:housenumber" v="429"/>
    <tag k="addr:street" v="Lackey Road"/>
    <tag k="addr:state" v="VT"/>
    <tag k="ref:vcgi:esiteid" v="130182"/>
  </node>
  <node id="-401" visible="true" lat="44.94515991" lon="-72.00263977">
    <tag k="addr:housenumber" v="1305"/>
    <tag k="addr:street" v="Mead Hill Road"/>
    <tag k="addr:state" v="VT"/>
    <tag k="ref:vcgi:esiteid" v="130183"/>
  </node>
  <node id="-402" visible="true" lat="44.94508743" lon="-72.02090454">
    <tag k="addr:housenumber" v="360"/>
    <tag k="addr:street" v="Lackey Road"/>
    <tag k="addr:state" v="VT"/>
    <tag k="ref:vcgi:esiteid" v="130184"/>
  </node>
  <node id="-403" visible="true" lat="44.94465059" lon="-72.01738177">
    <tag k="addr:housenumber" v="513"/>
    <tag k="addr:street" v="Lackey Road"/>
    <tag k="addr:state" v="VT"/>
    <tag k="ref:vcgi:esiteid" v="130185"/>
  </node>
  <node id="-404" visible="true" lat="44.94435883" lon="-72.02716064">
    <tag k="addr:housenumber" v="36"/>
    <tag k="addr:street" v="Lackey Road"/>
    <tag k="addr:state" v="VT"/>
    <tag k="ref:vcgi:esiteid" v="130186"/>
  </node>
  <node id="-405" visible="true" lat="44.94353881" lon="-72.01791588">
    <tag k="addr:housenumber" v="530"/>
    <tag k="addr:street" v="Lackey Road"/>
    <tag k="addr:state" v="VT"/>
    <tag k="ref:vcgi:esiteid" v="130187"/>
  </node>
  <node id="-406" visible="true" lat="44.94353126" lon="-72.01298441">
    <tag k="addr:housenumber" v="759"/>
    <tag k="addr:street" v="Lackey Road"/>
    <tag k="addr:state" v="VT"/>
    <tag k="ref:vcgi:esiteid" v="130188"/>
  </node>
  <node id="-408" visible="true" lat="44.94322968" lon="-72.00891876">
    <tag k="addr:housenumber" v="1414"/>
    <tag k="addr:street" v="Mead Hill Road"/>
    <tag k="addr:state" v="VT"/>
    <tag k="ref:vcgi:esiteid" v="130190"/>
  </node>
  <node id="-410" visible="true" lat="44.94063568" lon="-72.0066452">
    <tag k="addr:housenumber" v="1591"/>
    <tag k="addr:street" v="Mead Hill Road"/>
    <tag k="addr:state" v="VT"/>
    <tag k="ref:vcgi:esiteid" v="130193"/>
  </node>
  <node id="-413" visible="true" lat="44.93949127" lon="-72.01247406">
    <tag k="addr:housenumber" v="790"/>
    <tag k="addr:street" v="Lackey Road"/>
    <tag k="addr:state" v="VT"/>
    <tag k="ref:vcgi:esiteid" v="130196"/>
  </node>
  <node id="-414" visible="true" lat="44.93938446" lon="-72.00711059">
    <tag k="addr:housenumber" v="1702"/>
    <tag k="addr:street" v="Mead Hill Road"/>
    <tag k="addr:state" v="VT"/>
    <tag k="ref:vcgi:esiteid" v="130197"/>
  </node>
  <node id="-418" visible="true" lat="44.93559647" lon="-72.00582886">
    <tag k="addr:housenumber" v="1986"/>
    <tag k="addr:street" v="Mead Hill Road"/>
    <tag k="addr:state" v="VT"/>
    <tag k="ref:vcgi:esiteid" v="130201"/>
  </node>
  <node id="-423" visible="true" lat="44.93241261" lon="-72.06224488">
    <tag k="addr:housenumber" v="3823"/>
    <tag k="addr:street" v="Vermont Route 111"/>
    <tag k="addr:state" v="VT"/>
    <tag k="ref:vcgi:esiteid" v="130206"/>
  </node>
  <node id="-424" visible="true" lat="44.93211029" lon="-72.06548718">
    <tag k="addr:housenumber" v="3790"/>
    <tag k="addr:street" v="Vermont Route 111"/>
    <tag k="addr:state" v="VT"/>
    <tag k="ref:vcgi:esiteid" v="130207"/>
  </node>
  <node id="-425" visible="true" lat="44.93237278" lon="-72.06488665">
    <tag k="addr:housenumber" v="3811"/>
    <tag k="addr:street" v="Vermont Route 111"/>
    <tag k="addr:state" v="VT"/>
    <tag k="ref:vcgi:esiteid" v="130208"/>
  </node>
  <node id="-426" visible="true" lat="44.93152003" lon="-72.06491989">
    <tag k="addr:housenumber" v="3834"/>
    <tag k="addr:street" v="Vermont Route 111"/>
    <tag k="addr:state" v="VT"/>
    <tag k="ref:vcgi:esiteid" v="130209"/>
  </node>
  <node id="-427" visible="true" lat="44.9313167" lon="-72.0636449">
    <tag k="addr:housenumber" v="3885"/>
    <tag k="addr:street" v="Vermont Route 111"/>
    <tag k="addr:state" v="VT"/>
    <tag k="ref:vcgi:esiteid" v="130210"/>
  </node>
  <node id="-428" visible="true" lat="45.00239944" lon="-72.00512695">
    <tag k="addr:housenumber" v="1609"/>
    <tag k="addr:street" v="Prairie Road"/>
    <tag k="addr:state" v="VT"/>
    <tag k="ref:vcgi:esiteid" v="130211"/>
  </node>
  <node id="-429" visible="true" lat="44.98125198" lon="-71.97765167">
    <tag k="addr:housenumber" v="903"/>
    <tag k="addr:street" v="Page Hill Road"/>
    <tag k="addr:state" v="VT"/>
    <tag k="ref:vcgi:esiteid" v="130212"/>
  </node>
  <node id="-430" visible="true" lat="44.97214508" lon="-72.01577758">
    <tag k="addr:housenumber" v="2278"/>
    <tag k="addr:street" v="Valley Road"/>
    <tag k="addr:state" v="VT"/>
    <tag k="ref:vcgi:esiteid" v="130213"/>
  </node>
  <node id="-431" visible="true" lat="44.98609303" lon="-71.96112911">
    <tag k="addr:housenumber" v="1603"/>
    <tag k="addr:street" v="Page Hill Road"/>
    <tag k="addr:state" v="VT"/>
    <tag k="ref:vcgi:esiteid" v="130214"/>
  </node>
  <node id="-433" visible="true" lat="44.96075058" lon="-72.03803253">
    <tag k="addr:housenumber" v="319"/>
    <tag k="addr:street" v="Stagecoach Lane"/>
    <tag k="addr:state" v="VT"/>
    <tag k="ref:vcgi:esiteid" v="130216"/>
  </node>
  <node id="-434" visible="true" lat="44.95881554" lon="-72.0431563">
    <tag k="addr:housenumber" v="432"/>
    <tag k="addr:street" v="Stagecoach Lane"/>
    <tag k="addr:state" v="VT"/>
    <tag k="ref:vcgi:esiteid" v="130217"/>
  </node>
  <node id="-435" visible="true" lat="44.99502944" lon="-72.0412445">
    <tag k="addr:housenumber" v="1447"/>
    <tag k="addr:street" v="Goodall Road"/>
    <tag k="addr:state" v="VT"/>
    <tag k="ref:vcgi:esiteid" v="130218"/>
  </node>
  <node id="-436" visible="true" lat="44.99400711" lon="-72.04050445">
    <tag k="addr:housenumber" v="1527"/>
    <tag k="addr:street" v="Goodall Road"/>
    <tag k="addr:state" v="VT"/>
    <tag k="ref:vcgi:esiteid" v="130219"/>
  </node>
  <node id="-437" visible="true" lat="44.98907089" lon="-72.03852844">
    <tag k="addr:housenumber" v="1871"/>
    <tag k="addr:street" v="Goodall Road"/>
    <tag k="addr:state" v="VT"/>
    <tag k="ref:vcgi:esiteid" v="130220"/>
  </node>
  <node id="-438" visible="true" lat="44.98740768" lon="-72.03773498">
    <tag k="addr:housenumber" v="2009"/>
    <tag k="addr:street" v="Goodall Road"/>
    <tag k="addr:state" v="VT"/>
    <tag k="ref:vcgi:esiteid" v="130221"/>
  </node>
  <node id="-439" visible="true" lat="44.9901123" lon="-72.03953552">
    <tag k="addr:housenumber" v="1806"/>
    <tag k="addr:street" v="Goodall Road"/>
    <tag k="addr:state" v="VT"/>
    <tag k="ref:vcgi:esiteid" v="130222"/>
  </node>
  <node id="-440" visible="true" lat="44.98873901" lon="-72.0409317">
    <tag k="addr:housenumber" v="1876"/>
    <tag k="addr:street" v="Goodall Road"/>
    <tag k="addr:state" v="VT"/>
    <tag k="ref:vcgi:esiteid" v="130223"/>
  </node>
  <node id="-443" visible="true" lat="44.94240952" lon="-72.03477478">
    <tag k="addr:housenumber" v="3026"/>
    <tag k="addr:street" v="Gore Road"/>
    <tag k="addr:state" v="VT"/>
    <tag k="ref:vcgi:esiteid" v="130226"/>
  </node>
  <node id="-444" visible="true" lat="44.94123459" lon="-72.02707672">
    <tag k="addr:housenumber" v="2758"/>
    <tag k="addr:street" v="Gore Road"/>
    <tag k="addr:state" v="VT"/>
    <tag k="ref:vcgi:esiteid" v="130227"/>
  </node>
  <node id="-445" visible="true" lat="44.94118118" lon="-72.03674316">
    <tag k="addr:housenumber" v="3150"/>
    <tag k="addr:street" v="Gore Road"/>
    <tag k="addr:state" v="VT"/>
    <tag k="ref:vcgi:esiteid" v="130228"/>
  </node>
  <node id="-446" visible="true" lat="44.93854904" lon="-72.04263306">
    <tag k="addr:housenumber" v="3426"/>
    <tag k="addr:street" v="Gore Road"/>
    <tag k="addr:state" v="VT"/>
    <tag k="ref:vcgi:esiteid" v="130229"/>
  </node>
  <node id="-447" visible="true" lat="44.94425964" lon="-72.03065491">
    <tag k="addr:housenumber" v="2765"/>
    <tag k="addr:street" v="Gore Road"/>
    <tag k="addr:state" v="VT"/>
    <tag k="ref:vcgi:esiteid" v="130230"/>
  </node>
  <node id="-448" visible="true" lat="44.94398499" lon="-72.03134155">
    <tag k="addr:housenumber" v="2807"/>
    <tag k="addr:street" v="Gore Road"/>
    <tag k="addr:state" v="VT"/>
    <tag k="ref:vcgi:esiteid" v="130231"/>
  </node>
  <node id="-449" visible="true" lat="44.94120789" lon="-72.03874969">
    <tag k="addr:housenumber" v="3211"/>
    <tag k="addr:street" v="Gore Road"/>
    <tag k="addr:state" v="VT"/>
    <tag k="ref:vcgi:esiteid" v="130232"/>
  </node>
  <node id="-450" visible="true" lat="44.93976593" lon="-72.04234314">
    <tag k="addr:housenumber" v="3415"/>
    <tag k="addr:street" v="Gore Road"/>
    <tag k="addr:state" v="VT"/>
    <tag k="ref:vcgi:esiteid" v="130233"/>
  </node>
  <node id="-452" visible="true" lat="44.93198451" lon="-72.04875588">
    <tag k="addr:housenumber" v="4067"/>
    <tag k="addr:street" v="Gore Road"/>
    <tag k="addr:state" v="VT"/>
    <tag k="ref:vcgi:esiteid" v="130235"/>
  </node>
  <node id="-453" visible="true" lat="44.93167701" lon="-72.04880797">
    <tag k="addr:housenumber" v="4083"/>
    <tag k="addr:street" v="Gore Road"/>
    <tag k="addr:state" v="VT"/>
    <tag k="ref:vcgi:esiteid" v="130236"/>
  </node>
  <node id="-454" visible="true" lat="44.95228577" lon="-72.04304504">
    <tag k="addr:housenumber" v="3324"/>
    <tag k="addr:street" v="Bates Hill Road"/>
    <tag k="addr:state" v="VT"/>
    <tag k="ref:vcgi:esiteid" v="130237"/>
  </node>
  <node id="-455" visible="true" lat="44.94910812" lon="-72.03627014">
    <tag k="addr:housenumber" v="3614"/>
    <tag k="addr:street" v="Bates Hill Road"/>
    <tag k="addr:state" v="VT"/>
    <tag k="ref:vcgi:esiteid" v="130238"/>
  </node>
  <node id="-456" visible="true" lat="44.94827652" lon="-72.03885651">
    <tag k="addr:housenumber" v="3504"/>
    <tag k="addr:street" v="Bates Hill Road"/>
    <tag k="addr:state" v="VT"/>
    <tag k="ref:vcgi:esiteid" v="130239"/>
  </node>
  <node id="-457" visible="true" lat="44.94810486" lon="-72.04654694">
    <tag k="addr:housenumber" v="3132"/>
    <tag k="addr:street" v="Bates Hill Road"/>
    <tag k="addr:state" v="VT"/>
    <tag k="ref:vcgi:esiteid" v="130240"/>
  </node>
  <node id="-458" visible="true" lat="44.94768906" lon="-72.03223419">
    <tag k="addr:housenumber" v="3830"/>
    <tag k="addr:street" v="Bates Hill Road"/>
    <tag k="addr:state" v="VT"/>
    <tag k="ref:vcgi:esiteid" v="130241"/>
  </node>
  <node id="-459" visible="true" lat="44.94764395" lon="-72.02911988">
    <tag k="addr:housenumber" v="3980"/>
    <tag k="addr:street" v="Bates Hill Road"/>
    <tag k="addr:state" v="VT"/>
    <tag k="ref:vcgi:esiteid" v="130242"/>
  </node>
  <node id="-460" visible="true" lat="44.94664764" lon="-72.05525971">
    <tag k="addr:housenumber" v="2692"/>
    <tag k="addr:street" v="Bates Hill Road"/>
    <tag k="addr:state" v="VT"/>
    <tag k="ref:vcgi:esiteid" v="130243"/>
  </node>
  <node id="-461" visible="true" lat="44.94694441" lon="-72.03017522">
    <tag k="addr:housenumber" v="3937"/>
    <tag k="addr:street" v="Bates Hill Road"/>
    <tag k="addr:state" v="VT"/>
    <tag k="ref:vcgi:esiteid" v="130244"/>
  </node>
  <node id="-462" visible="true" lat="44.94602585" lon="-72.03953552">
    <tag k="addr:housenumber" v="3495"/>
    <tag k="addr:street" v="Bates Hill Road"/>
    <tag k="addr:state" v="VT"/>
    <tag k="ref:vcgi:esiteid" v="130245"/>
  </node>
  <node id="-463" visible="true" lat="44.94428253" lon="-72.02085113">
    <tag k="addr:housenumber" v="362"/>
    <tag k="addr:street" v="Lackey Road"/>
    <tag k="addr:state" v="VT"/>
    <tag k="ref:vcgi:esiteid" v="130246"/>
  </node>
  <node id="-464" visible="true" lat="44.94338894" lon="-72.00194287">
    <tag k="addr:housenumber" v="1313"/>
    <tag k="addr:street" v="Mead Hill Road"/>
    <tag k="addr:state" v="VT"/>
    <tag k="ref:vcgi:esiteid" v="130247"/>
  </node>
  <node id="-466" visible="true" lat="44.93282006" lon="-72.04572144">
    <tag k="addr:housenumber" v="4060"/>
    <tag k="addr:street" v="Gore Road"/>
    <tag k="addr:state" v="VT"/>
    <tag k="ref:vcgi:esiteid" v="130249"/>
  </node>
  <node id="-468" visible="true" lat="44.99991989" lon="-72.04087829">
    <tag k="addr:housenumber" v="255"/>
    <tag k="addr:street" v="Tree Farm Road"/>
    <tag k="addr:state" v="VT"/>
    <tag k="ref:vcgi:esiteid" v="130251"/>
  </node>
  <node id="-469" visible="true" lat="44.99264009" lon="-72.04160978">
    <tag k="addr:housenumber" v="1630"/>
    <tag k="addr:street" v="Goodall Road"/>
    <tag k="addr:state" v="VT"/>
    <tag k="ref:vcgi:esiteid" v="130252"/>
  </node>
  <node id="-470" visible="true" lat="45.00094222" lon="-72.04935455">
    <tag k="addr:housenumber" v="905"/>
    <tag k="addr:street" v="Goodall Road"/>
    <tag k="addr:state" v="VT"/>
    <tag k="ref:vcgi:esiteid" v="130253"/>
  </node>
  <node id="-471" visible="true" lat="45.00210571" lon="-72.04846191">
    <tag k="addr:housenumber" v="903"/>
    <tag k="addr:street" v="Goodall Road"/>
    <tag k="addr:state" v="VT"/>
    <tag k="ref:vcgi:esiteid" v="130254"/>
  </node>
  <node id="-472" visible="true" lat="44.99893569" lon="-72.04650878">
    <tag k="addr:housenumber" v="1052"/>
    <tag k="addr:street" v="Goodall Road"/>
    <tag k="addr:state" v="VT"/>
    <tag k="ref:vcgi:esiteid" v="130255"/>
  </node>
  <node id="-473" visible="true" lat="44.99786758" lon="-72.04399108">
    <tag k="addr:housenumber" v="1202"/>
    <tag k="addr:street" v="Goodall Road"/>
    <tag k="addr:state" v="VT"/>
    <tag k="ref:vcgi:esiteid" v="130256"/>
  </node>
  <node id="-474" visible="true" lat="44.99572622" lon="-72.04421333">
    <tag k="addr:housenumber" v="1250"/>
    <tag k="addr:street" v="Goodall Road"/>
    <tag k="addr:state" v="VT"/>
    <tag k="ref:vcgi:esiteid" v="130257"/>
  </node>
  <node id="-475" visible="true" lat="44.99689865" lon="-72.04264831">
    <tag k="addr:housenumber" v="1301"/>
    <tag k="addr:street" v="Goodall Road"/>
    <tag k="addr:state" v="VT"/>
    <tag k="ref:vcgi:esiteid" v="130258"/>
  </node>
  <node id="-476" visible="true" lat="44.99465462" lon="-72.025681">
    <tag k="addr:housenumber" v="1208"/>
    <tag k="addr:street" v="Stearns Brook Road"/>
    <tag k="addr:state" v="VT"/>
    <tag k="ref:vcgi:esiteid" v="130259"/>
  </node>
  <node id="-477" visible="true" lat="44.94472459" lon="-72.01579058">
    <tag k="addr:housenumber" v="647"/>
    <tag k="addr:street" v="Lackey Road"/>
    <tag k="addr:state" v="VT"/>
    <tag k="ref:vcgi:esiteid" v="130260"/>
  </node>
  <node id="-478" visible="true" lat="44.94575202" lon="-71.98165823">
    <tag k="addr:housenumber" v="5362"/>
    <tag k="addr:street" v="Valley Road"/>
    <tag k="addr:state" v="VT"/>
    <tag k="ref:vcgi:esiteid" v="130261"/>
  </node>
  <node id="-479" visible="true" lat="44.95700989" lon="-72.03806667">
    <tag k="addr:housenumber" v="599"/>
    <tag k="addr:street" v="Stagecoach Lane"/>
    <tag k="addr:state" v="VT"/>
    <tag k="ref:vcgi:esiteid" v="130262"/>
  </node>
  <node id="-480" visible="true" lat="44.94196072" lon="-72.01091436">
    <tag k="addr:housenumber" v="870"/>
    <tag k="addr:street" v="Lackey Road"/>
    <tag k="addr:state" v="VT"/>
    <tag k="ref:vcgi:esiteid" v="130263"/>
  </node>
  <node id="-481" visible="true" lat="44.94189574" lon="-72.01335789">
    <tag k="addr:housenumber" v="764"/>
    <tag k="addr:street" v="Lackey Road"/>
    <tag k="addr:state" v="VT"/>
    <tag k="ref:vcgi:esiteid" v="130264"/>
  </node>
  <node id="-482" visible="true" lat="44.96805766" lon="-72.00088564">
    <tag k="addr:housenumber" v="3045"/>
    <tag k="addr:street" v="Valley Road"/>
    <tag k="addr:state" v="VT"/>
    <tag k="ref:vcgi:esiteid" v="130266"/>
  </node>
  <node id="-483" visible="true" lat="44.97941779" lon="-72.03716955">
    <tag k="addr:housenumber" v="1078"/>
    <tag k="addr:street" v="Valley Road"/>
    <tag k="addr:state" v="VT"/>
    <tag k="ref:vcgi:esiteid" v="130267"/>
  </node>
  <node id="-484" visible="true" lat="44.97940705" lon="-72.03650304">
    <tag k="addr:housenumber" v="1108"/>
    <tag k="addr:street" v="Valley Road"/>
    <tag k="addr:state" v="VT"/>
    <tag k="ref:vcgi:esiteid" v="130268"/>
  </node>
  <node id="-485" visible="true" lat="44.93665456" lon="-72.00590815">
    <tag k="addr:housenumber" v="1920"/>
    <tag k="addr:street" v="Mead Hill Road"/>
    <tag k="addr:state" v="VT"/>
    <tag k="ref:vcgi:esiteid" v="130269"/>
  </node>
  <node id="-486" visible="true" lat="44.97280257" lon="-72.00930569">
    <tag k="addr:housenumber" v="2587"/>
    <tag k="addr:street" v="Valley Road"/>
    <tag k="addr:state" v="VT"/>
    <tag k="ref:vcgi:esiteid" v="130270"/>
  </node>
  <node id="-488" visible="true" lat="44.98483257" lon="-71.99346763">
    <tag k="addr:housenumber" v="66"/>
    <tag k="addr:street" v="Page Hill Road"/>
    <tag k="addr:state" v="VT"/>
    <tag k="ref:vcgi:esiteid" v="130272"/>
  </node>
  <node id="-491" visible="true" lat="44.9523493" lon="-72.00756535">
    <tag k="addr:housenumber" v="778"/>
    <tag k="addr:street" v="Mead Hill Road"/>
    <tag k="addr:state" v="VT"/>
    <tag k="ref:vcgi:esiteid" v="130275"/>
  </node>
  <node id="-495" visible="true" lat="44.97679463" lon="-72.00177877">
    <tag k="addr:housenumber" v="541"/>
    <tag k="addr:street" v="Holland Pond Road"/>
    <tag k="addr:state" v="VT"/>
    <tag k="ref:vcgi:esiteid" v="130279"/>
  </node>
  <node id="-497" visible="true" lat="44.96493697" lon="-71.99164488">
    <tag k="addr:housenumber" v="525"/>
    <tag k="addr:street" v="Trucott Road"/>
    <tag k="addr:state" v="VT"/>
    <tag k="ref:vcgi:esiteid" v="130282"/>
  </node>
  <node id="-498" visible="true" lat="44.96557944" lon="-71.98850818">
    <tag k="addr:housenumber" v="603"/>
    <tag k="addr:street" v="Trucott Road"/>
    <tag k="addr:state" v="VT"/>
    <tag k="ref:vcgi:esiteid" v="130283"/>
  </node>
  <node id="-499" visible="true" lat="44.96249232" lon="-71.98690672">
    <tag k="addr:housenumber" v="716"/>
    <tag k="addr:street" v="Trucott Road"/>
    <tag k="addr:state" v="VT"/>
    <tag k="ref:vcgi:esiteid" v="130284"/>
  </node>
  <node id="-500" visible="true" lat="44.95661213" lon="-71.93805383">
    <tag k="addr:housenumber" v="3467"/>
    <tag k="addr:street" v="Trucott Road"/>
    <tag k="addr:state" v="VT"/>
    <tag k="ref:vcgi:esiteid" v="130285"/>
  </node>
  <node id="-501" visible="true" lat="44.98480475" lon="-72.05428552">
    <tag k="addr:housenumber" v="142"/>
    <tag k="addr:street" v="Valley Road"/>
    <tag k="addr:state" v="VT"/>
    <tag k="ref:vcgi:esiteid" v="130286"/>
  </node>
  <node id="-502" visible="true" lat="44.96748229" lon="-72.05071746">
    <tag k="addr:housenumber" v="1791"/>
    <tag k="addr:street" v="Whittier Road"/>
    <tag k="addr:state" v="VT"/>
    <tag k="ref:vcgi:esiteid" v="130287"/>
  </node>
  <node id="-503" visible="true" lat="44.94758809" lon="-72.02703881">
    <tag k="addr:housenumber" v="2431"/>
    <tag k="addr:street" v="Gore Road"/>
    <tag k="addr:state" v="VT"/>
    <tag k="ref:vcgi:esiteid" v="130288"/>
  </node>
  <node id="-504" visible="true" lat="44.95970924" lon="-71.98783934">
    <tag k="addr:housenumber" v="220"/>
    <tag k="addr:street" v="Trucott Road"/>
    <tag k="addr:state" v="VT"/>
    <tag k="ref:vcgi:esiteid" v="130290"/>
  </node>
  <node id="-505" visible="true" lat="44.96719509" lon="-72.00294981">
    <tag k="addr:housenumber" v="3157"/>
    <tag k="addr:street" v="Valley Road"/>
    <tag k="addr:state" v="VT"/>
    <tag k="ref:vcgi:esiteid" v="130291"/>
  </node>
  <node id="-508" visible="true" lat="44.94963915" lon="-72.00851703">
    <tag k="addr:housenumber" v="966"/>
    <tag k="addr:street" v="Mead Hill Road"/>
    <tag k="addr:state" v="VT"/>
    <tag k="ref:vcgi:esiteid" v="130294"/>
  </node>
  <node id="-509" visible="true" lat="44.93329479" lon="-72.00695987">
    <tag k="addr:housenumber" v="2134"/>
    <tag k="addr:street" v="Mead Hill Road"/>
    <tag k="addr:state" v="VT"/>
    <tag k="ref:vcgi:esiteid" v="130295"/>
  </node>
  <node id="-510" visible="true" lat="44.97876209" lon="-71.99006505">
    <tag k="addr:housenumber" v="188"/>
    <tag k="addr:street" v="Smith Road"/>
    <tag k="addr:state" v="VT"/>
    <tag k="ref:vcgi:esiteid" v="130296"/>
  </node>
  <node id="-511" visible="true" lat="44.98713961" lon="-72.04601473">
    <tag k="addr:housenumber" v="234"/>
    <tag k="addr:street" v="Twin Bridge Road"/>
    <tag k="addr:state" v="VT"/>
    <tag k="ref:vcgi:esiteid" v="130297"/>
  </node>
  <node id="-512" visible="true" lat="44.98526974" lon="-72.05089358">
    <tag k="addr:housenumber" v="250"/>
    <tag k="addr:street" v="Valley Road"/>
    <tag k="addr:state" v="VT"/>
    <tag k="ref:vcgi:esiteid" v="130298"/>
  </node>
  <node id="-513" visible="true" lat="44.98020666" lon="-72.03899053">
    <tag k="addr:housenumber" v="928"/>
    <tag k="addr:street" v="Valley Road"/>
    <tag k="addr:state" v="VT"/>
    <tag k="ref:vcgi:esiteid" v="130299"/>
  </node>
  <node id="-514" visible="true" lat="44.97961206" lon="-72.03772806">
    <tag k="addr:housenumber" v="1048"/>
    <tag k="addr:street" v="Valley Road"/>
    <tag k="addr:state" v="VT"/>
    <tag k="ref:vcgi:esiteid" v="130300"/>
  </node>
  <node id="-516" visible="true" lat="44.98285304" lon="-72.03639095">
    <tag k="addr:housenumber" v="169"/>
    <tag k="addr:street" v="Tice Mill Road"/>
    <tag k="addr:state" v="VT"/>
    <tag k="ref:vcgi:esiteid" v="130303"/>
  </node>
  <node id="-517" visible="true" lat="45.00505262" lon="-72.02236793">
    <tag k="addr:housenumber" v="1936"/>
    <tag k="addr:street" v="Stearns Brook Road"/>
    <tag k="addr:state" v="VT"/>
    <tag k="ref:vcgi:esiteid" v="130304"/>
  </node>
  <node id="-518" visible="true" lat="45.00639784" lon="-72.02253845">
    <tag k="addr:housenumber" v="1950"/>
    <tag k="addr:street" v="Stearns Brook Road"/>
    <tag k="addr:state" v="VT"/>
    <tag k="ref:vcgi:esiteid" v="130305"/>
  </node>
  <node id="-519" visible="true" lat="44.98422093" lon="-72.02850376">
    <tag k="addr:housenumber" v="480"/>
    <tag k="addr:street" v="Stearns Brook Road"/>
    <tag k="addr:state" v="VT"/>
    <tag k="ref:vcgi:esiteid" v="130306"/>
  </node>
  <node id="-520" visible="true" lat="44.98481374" lon="-72.0294554">
    <tag k="addr:housenumber" v="479"/>
    <tag k="addr:street" v="Stearns Brook Road"/>
    <tag k="addr:state" v="VT"/>
    <tag k="ref:vcgi:esiteid" v="130307"/>
  </node>
  <node id="-521" visible="true" lat="44.97216261" lon="-72.05697453">
    <tag k="addr:housenumber" v="1330"/>
    <tag k="addr:street" v="Whittier Road"/>
    <tag k="addr:state" v="VT"/>
    <tag k="ref:vcgi:esiteid" v="130308"/>
  </node>
  <node id="-522" visible="true" lat="44.97882137" lon="-72.01332599">
    <tag k="addr:housenumber" v="406"/>
    <tag k="addr:street" v="School Road"/>
    <tag k="addr:state" v="VT"/>
    <tag k="ref:vcgi:esiteid" v="130309"/>
  </node>
  <node id="-524" visible="true" lat="44.96998297" lon="-72.03682115">
    <tag k="addr:housenumber" v="689"/>
    <tag k="addr:street" v="Gore Road"/>
    <tag k="addr:state" v="VT"/>
    <tag k="ref:vcgi:esiteid" v="130311"/>
  </node>
  <node id="-525" visible="true" lat="44.96265034" lon="-71.99251336">
    <tag k="addr:housenumber" v="495"/>
    <tag k="addr:street" v="Trucott Road"/>
    <tag k="addr:state" v="VT"/>
    <tag k="ref:vcgi:esiteid" v="130312"/>
  </node>
  <node id="-526" visible="true" lat="44.95997832" lon="-71.99737036">
    <tag k="addr:housenumber" v="3813"/>
    <tag k="addr:street" v="Valley Road"/>
    <tag k="addr:state" v="VT"/>
    <tag k="ref:vcgi:esiteid" v="130313"/>
  </node>
  <node id="-528" visible="true" lat="44.95034186" lon="-72.0077426">
    <tag k="addr:housenumber" v="914"/>
    <tag k="addr:street" v="Mead Hill Road"/>
    <tag k="addr:state" v="VT"/>
    <tag k="ref:vcgi:esiteid" v="130315"/>
  </node>
  <node id="-529" visible="true" lat="44.94251148" lon="-72.01492324">
    <tag k="addr:housenumber" v="630"/>
    <tag k="addr:street" v="Lackey Road"/>
    <tag k="addr:state" v="VT"/>
    <tag k="ref:vcgi:esiteid" v="130316"/>
  </node>
  <node id="-530" visible="true" lat="44.93221917" lon="-72.00635413">
    <tag k="addr:housenumber" v="2244"/>
    <tag k="addr:street" v="Mead Hill Road"/>
    <tag k="addr:state" v="VT"/>
    <tag k="ref:vcgi:esiteid" v="130317"/>
  </node>
  <node id="-532" visible="true" lat="45.00387282" lon="-72.03818618">
    <tag k="addr:housenumber" v="519"/>
    <tag k="addr:street" v="Tree Farm Road"/>
    <tag k="addr:state" v="VT"/>
    <tag k="ref:vcgi:esiteid" v="310095"/>
  </node>
  <node id="-533" visible="true" lat="45.00061335" lon="-72.02526881">
    <tag k="addr:housenumber" v="1556"/>
    <tag k="addr:street" v="Stearns Brook Road"/>
    <tag k="addr:state" v="VT"/>
    <tag k="ref:vcgi:esiteid" v="310096"/>
  </node>
  <node id="-534" visible="true" lat="44.96884159" lon="-72.03577976">
    <tag k="addr:housenumber" v="777"/>
    <tag k="addr:street" v="Gore Road"/>
    <tag k="addr:state" v="VT"/>
    <tag k="ref:vcgi:esiteid" v="310097"/>
  </node>
  <node id="-535" visible="true" lat="44.93861413" lon="-72.02850325">
    <tag k="addr:housenumber" v="2896"/>
    <tag k="addr:street" v="Gore Road"/>
    <tag k="addr:state" v="VT"/>
    <tag k="ref:vcgi:esiteid" v="310099"/>
  </node>
  <node id="-536" visible="true" lat="44.9351877" lon="-72.00780965">
    <tag k="addr:housenumber" v="2014"/>
    <tag k="addr:street" v="Mead Hill Road"/>
    <tag k="addr:state" v="VT"/>
    <tag k="ref:vcgi:esiteid" v="310100"/>
  </node>
  <node id="-537" visible="true" lat="44.93595703" lon="-72.00270983">
    <tag k="addr:housenumber" v="1985"/>
    <tag k="addr:street" v="Mead Hill Road"/>
    <tag k="addr:state" v="VT"/>
    <tag k="ref:vcgi:esiteid" v="310101"/>
  </node>
  <node id="-542" visible="true" lat="44.95450436" lon="-72.00708204">
    <tag k="addr:housenumber" v="588"/>
    <tag k="addr:street" v="Mead Hill Road"/>
    <tag k="addr:state" v="VT"/>
    <tag k="ref:vcgi:esiteid" v="365224"/>
  </node>
  <node id="-547" visible="true" lat="45.00536298" lon="-72.03734996">
    <tag k="addr:housenumber" v="606"/>
    <tag k="addr:street" v="Tree Farm Road"/>
    <tag k="addr:state" v="VT"/>
    <tag k="ref:vcgi:esiteid" v="447987"/>
  </node>
  <node id="-548" visible="true" lat="44.99270083" lon="-72.02607843">
    <tag k="addr:housenumber" v="998"/>
    <tag k="addr:street" v="Stearns Brook Road"/>
    <tag k="addr:state" v="VT"/>
    <tag k="ref:vcgi:esiteid" v="447989"/>
  </node>
  <node id="-549" visible="true" lat="44.99009248" lon="-72.02749737">
    <tag k="addr:housenumber" v="856"/>
    <tag k="addr:street" v="Stearns Brook Road"/>
    <tag k="addr:state" v="VT"/>
    <tag k="ref:vcgi:esiteid" v="447990"/>
  </node>
  <node id="-553" visible="true" lat="44.98028109" lon="-71.9807492">
    <tag k="addr:housenumber" v="770"/>
    <tag k="addr:street" v="Page Hill Road"/>
    <tag k="addr:state" v="VT"/>
    <tag k="ref:vcgi:esiteid" v="447994"/>
  </node>
  <node id="-554" visible="true" lat="44.95280205" lon="-72.03120708">
    <tag k="addr:housenumber" v="2078"/>
    <tag k="addr:street" v="Gore Road"/>
    <tag k="addr:state" v="VT"/>
    <tag k="ref:vcgi:esiteid" v="447995"/>
  </node>
  <node id="-558" visible="true" lat="44.98503643" lon="-72.04808706">
    <tag k="addr:housenumber" v="420"/>
    <tag k="addr:street" v="Valley Road"/>
    <tag k="addr:state" v="VT"/>
    <tag k="ref:vcgi:esiteid" v="454056"/>
  </node>
  <node id="-562" visible="true" lat="44.99847299" lon="-72.04492984">
    <tag k="addr:housenumber" v="1128"/>
    <tag k="addr:street" v="Goodall Road"/>
    <tag k="addr:state" v="VT"/>
    <tag k="ref:vcgi:esiteid" v="612900"/>
  </node>
  <node id="-565" visible="true" lat="44.96336639" lon="-71.97989674">
    <tag k="addr:housenumber" v="1051"/>
    <tag k="addr:street" v="Trucott Road"/>
    <tag k="addr:state" v="VT"/>
    <tag k="ref:vcgi:esiteid" v="612936"/>
  </node>
  <node id="-566" visible="true" lat="44.98799217" lon="-71.93319357">
    <tag k="addr:housenumber" v="490"/>
    <tag k="addr:street" v="North Shore Road"/>
    <tag k="addr:state" v="VT"/>
    <tag k="ref:vcgi:esiteid" v="612937"/>
  </node>
  <node id="-568" visible="true" lat="44.98052097" lon="-71.97060589">
    <tag k="addr:housenumber" v="1265"/>
    <tag k="addr:street" v="Page Hill Road"/>
    <tag k="addr:state" v="VT"/>
    <tag k="ref:vcgi:esiteid" v="617609"/>
  </node>
  <node id="-569" visible="true" lat="44.94410837" lon="-72.0514873">
    <tag k="addr:housenumber" v="2943"/>
    <tag k="addr:street" v="Bates Hill Road"/>
    <tag k="addr:state" v="VT"/>
    <tag k="ref:vcgi:esiteid" v="656146"/>
  </node>
  <node id="-570" visible="true" lat="44.97557154" lon="-72.00305157">
    <tag k="addr:housenumber" v="435"/>
    <tag k="addr:street" v="Holland Pond Road"/>
    <tag k="addr:state" v="VT"/>
    <tag k="ref:vcgi:esiteid" v="700122"/>
  </node>
  <node id="-571" visible="true" lat="44.98777636" lon="-72.05541872">
    <tag k="addr:housenumber" v="2114"/>
    <tag k="addr:street" v="Holland Road"/>
    <tag k="addr:state" v="VT"/>
    <tag k="ref:vcgi:esiteid" v="753116"/>
  </node>
  <node id="-572" visible="true" lat="44.96929937" lon="-72.03681469">
    <tag k="addr:housenumber" v="695"/>
    <tag k="addr:street" v="Gore Road"/>
    <tag k="addr:state" v="VT"/>
    <tag k="ref:vcgi:esiteid" v="754271"/>
  </node>
  <node id="-573" visible="true" lat="44.93440159" lon="-71.96156342">
    <tag k="addr:housenumber" v="560"/>
    <tag k="addr:street" v="Hunting Camp Road"/>
    <tag k="addr:state" v="VT"/>
    <tag k="ref:vcgi:esiteid" v="755780"/>
  </node>
  <node id="-574" visible="true" lat="44.93718608" lon="-71.95328585">
    <tag k="addr:housenumber" v="1210"/>
    <tag k="addr:street" v="Hunting Camp Road"/>
    <tag k="addr:state" v="VT"/>
    <tag k="ref:vcgi:esiteid" v="755781"/>
  </node>
  <node id="-575" visible="true" lat="44.93707972" lon="-71.96045772">
    <tag k="addr:housenumber" v="763"/>
    <tag k="addr:street" v="Hunting Camp Road"/>
    <tag k="addr:state" v="VT"/>
    <tag k="ref:vcgi:esiteid" v="755782"/>
  </node>
  <node id="-577" visible="true" lat="44.94140592" lon="-72.06242483">
    <tag k="addr:housenumber" v="2284"/>
    <tag k="addr:street" v="Bates Hill Road"/>
    <tag k="addr:state" v="VT"/>
    <tag k="ref:vcgi:esiteid" v="756652"/>
  </node>
  <node id="-579" visible="true" lat="44.95519682" lon="-72.06032574">
    <tag k="addr:housenumber" v="684"/>
    <tag k="addr:street" v="Settlers Way"/>
    <tag k="addr:state" v="VT"/>
    <tag k="ref:vcgi:esiteid" v="756655"/>
  </node>
  <node id="-581" visible="true" lat="44.98295539" lon="-71.98629765">
    <tag k="addr:housenumber" v="462"/>
    <tag k="addr:street" v="Page Hill Road"/>
    <tag k="addr:state" v="VT"/>
    <tag k="ref:vcgi:esiteid" v="761786"/>
  </node>
  <node id="-582" visible="true" lat="45.0029623" lon="-71.98060683">
    <tag k="addr:housenumber" v="411"/>
    <tag k="addr:street" v="Prairie Road"/>
    <tag k="addr:state" v="VT"/>
    <tag k="ref:vcgi:esiteid" v="763109"/>
  </node>
  <node id="-583" visible="true" lat="45.00118998" lon="-72.03240373">
    <tag k="addr:housenumber" v="470"/>
    <tag k="addr:street" v="Tree Farm Road"/>
    <tag k="addr:state" v="VT"/>
    <tag k="ref:vcgi:esiteid" v="763110"/>
  </node>
  <node id="-584" visible="true" lat="45.00408216" lon="-72.03634032">
    <tag k="addr:housenumber" v="420"/>
    <tag k="addr:street" v="Tree Farm Road"/>
    <tag k="addr:state" v="VT"/>
    <tag k="ref:vcgi:esiteid" v="763111"/>
  </node>
  <node id="-585" visible="true" lat="44.93688815" lon="-71.98202504">
    <tag k="addr:housenumber" v="6104"/>
    <tag k="addr:street" v="Valley Road"/>
    <tag k="addr:state" v="VT"/>
    <tag k="ref:vcgi:esiteid" v="763687"/>
  </node>
  <node id="-586" visible="true" lat="44.9654906" lon="-72.00308558">
    <tag k="addr:housenumber" v="3237"/>
    <tag k="addr:street" v="Valley Road"/>
    <tag k="addr:state" v="VT"/>
    <tag k="ref:vcgi:esiteid" v="764937"/>
  </node>
  <node id="-587" visible="true" lat="44.95425449" lon="-72.00355175">
    <tag k="addr:housenumber" v="537"/>
    <tag k="addr:street" v="Mead Hill Road"/>
    <tag k="addr:state" v="VT"/>
    <tag k="ref:vcgi:esiteid" v="767747"/>
  </node>
  <node id="-591" visible="true" lat="44.97780102" lon="-71.96110469">
    <tag k="addr:housenumber" v="1767"/>
    <tag k="addr:street" v="Page Hill Road"/>
    <tag k="addr:state" v="VT"/>
    <tag k="ref:vcgi:esiteid" v="770959"/>
  </node>
  <node id="-592" visible="true" lat="44.93755805" lon="-71.95389918">
    <tag k="addr:housenumber" v="1233"/>
    <tag k="addr:street" v="Hunting Camp Road"/>
    <tag k="addr:state" v="VT"/>
    <tag k="ref:vcgi:esiteid" v="770960"/>
  </node>
  <node id="-593" visible="true" lat="44.9777889" lon="-71.9615474">
    <tag k="addr:housenumber" v="1765"/>
    <tag k="addr:street" v="Page Hill Road"/>
    <tag k="addr:state" v="VT"/>
    <tag k="ref:vcgi:esiteid" v="770961"/>
  </node>
  <node id="-594" visible="true" lat="44.995261" lon="-72.02800808">
    <tag k="addr:housenumber" v="1221"/>
    <tag k="addr:street" v="Stearns Brook Road"/>
    <tag k="addr:state" v="VT"/>
    <tag k="ref:vcgi:esiteid" v="770962"/>
  </node>
  <node id="-595" visible="true" lat="44.95476723" lon="-72.00404142">
    <tag k="addr:housenumber" v="535"/>
    <tag k="addr:street" v="Mead Hill Road"/>
    <tag k="addr:state" v="VT"/>
    <tag k="ref:vcgi:esiteid" v="770963"/>
  </node>
</osm>
