<?xml version="1.0" encoding="UTF-8"?>
<osm version="0.6" generator="JOSM" upload="false">
  <node id="-100" visible="true" lat="45.00812529" lon="-71.95550269">
    <tag k="addr:housenumber" v="941"/>
    <tag k="addr:street" v="Line Farm Road"/>
    <tag k="addr:state" v="VT"/>
    <tag k="ref:vcgi:esiteid" v="129876"/>
  </node>
  <node id="-101" visible="true" lat="45.00471878" lon="-71.96057128">
    <tag k="addr:housenumber" v="615"/>
    <tag k="addr:street" v="Line Farm Road"/>
    <tag k="addr:state" v="VT"/>
    <tag k="ref:vcgi:esiteid" v="129877"/>
  </node>
  <node id="-102" visible="true" lat="45.00450897" lon="-71.98387145">
    <tag k="addr:housenumber" v="578"/>
    <tag k="addr:street" v="Prairie Road"/>
    <tag k="addr:state" v="VT"/>
    <tag k="ref:vcgi:esiteid" v="129878"/>
  </node>
  <node id="-106" visible="true" lat="45.0037374" lon="-71.97666564">
    <tag k="addr:housenumber" v="212"/>
    <tag k="addr:street" v="Prairie Road"/>
    <tag k="addr:state" v="VT"/>
    <tag k="ref:vcgi:esiteid" v="129882"/>
  </node>
  <node id="-107" visible="true" lat="45.00381187" lon="-71.97553594">
    <tag k="addr:housenumber" v="164"/>
    <tag k="addr:street" v="Prairie Road"/>
    <tag k="addr:state" v="VT"/>
    <tag k="ref:vcgi:esiteid" v="129883"/>
  </node>
  <node id="-108" visible="true" lat="45.0036848" lon="-71.98600759">
    <tag k="addr:housenumber" v="684"/>
    <tag k="addr:street" v="Prairie Road"/>
    <tag k="addr:state" v="VT"/>
    <tag k="ref:vcgi:esiteid" v="129884"/>
  </node>
  <node id="-109" visible="true" lat="45.00340633" lon="-71.97320664">
    <tag k="addr:housenumber" v="44"/>
    <tag k="addr:street" v="Prairie Road"/>
    <tag k="addr:state" v="VT"/>
    <tag k="ref:vcgi:esiteid" v="129885"/>
  </node>
  <node id="-111" visible="true" lat="45.00320881" lon="-71.98616188">
    <tag k="addr:housenumber" v="687"/>
    <tag k="addr:street" v="Prairie Road"/>
    <tag k="addr:state" v="VT"/>
    <tag k="ref:vcgi:esiteid" v="129887"/>
  </node>
  <node id="-112" visible="true" lat="45.00312973" lon="-71.98280915">
    <tag k="addr:housenumber" v="527"/>
    <tag k="addr:street" v="Prairie Road"/>
    <tag k="addr:state" v="VT"/>
    <tag k="ref:vcgi:esiteid" v="129889"/>
  </node>
  <node id="-113" visible="true" lat="45.00299235" lon="-71.97483976">
    <tag k="addr:housenumber" v="103"/>
    <tag k="addr:street" v="Prairie Road"/>
    <tag k="addr:state" v="VT"/>
    <tag k="ref:vcgi:esiteid" v="129890"/>
  </node>
  <node id="-115" visible="true" lat="45.00281183" lon="-71.97929399">
    <tag k="addr:housenumber" v="331"/>
    <tag k="addr:street" v="Prairie Road"/>
    <tag k="addr:state" v="VT"/>
    <tag k="ref:vcgi:esiteid" v="129892"/>
  </node>
  <node id="-116" visible="true" lat="45.00292968" lon="-71.97230529">
    <tag k="addr:housenumber" v="2921"/>
    <tag k="addr:street" v="Holland Pond Road"/>
    <tag k="addr:state" v="VT"/>
    <tag k="ref:vcgi:esiteid" v="129893"/>
  </node>
  <node id="-119" visible="true" lat="45.00262451" lon="-71.96077728">
    <tag k="addr:housenumber" v="492"/>
    <tag k="addr:street" v="Line Farm Road"/>
    <tag k="addr:state" v="VT"/>
    <tag k="ref:vcgi:esiteid" v="129896"/>
  </node>
  <node id="-120" visible="true" lat="45.00204086" lon="-72.00837707">
    <tag k="addr:housenumber" v="76"/>
    <tag k="addr:street" v="Lyon Road"/>
    <tag k="addr:state" v="VT"/>
    <tag k="ref:vcgi:esiteid" v="129897"/>
  </node>
  <node id="-122" visible="true" lat="45.00102003" lon="-71.95982919">
    <tag k="addr:housenumber" v="346"/>
    <tag k="addr:street" v="Line Farm Road"/>
    <tag k="addr:state" v="VT"/>
    <tag k="ref:vcgi:esiteid" v="129899"/>
  </node>
  <node id="-125" visible="true" lat="45.00019073" lon="-72.00572204">
    <tag k="addr:housenumber" v="1625"/>
    <tag k="addr:street" v="Prairie Road"/>
    <tag k="addr:state" v="VT"/>
    <tag k="ref:vcgi:esiteid" v="129902"/>
  </node>
  <node id="-126" visible="true" lat="44.99997159" lon="-71.96028901">
    <tag k="addr:housenumber" v="278"/>
    <tag k="addr:street" v="Line Farm Road"/>
    <tag k="addr:state" v="VT"/>
    <tag k="ref:vcgi:esiteid" v="129903"/>
  </node>
  <node id="-127" visible="true" lat="44.99952316" lon="-71.9664154">
    <tag k="addr:housenumber" v="3298"/>
    <tag k="addr:street" v="Holland Pond Road"/>
    <tag k="addr:state" v="VT"/>
    <tag k="ref:vcgi:esiteid" v="129904"/>
  </node>
  <node id="-130" visible="true" lat="44.99876403" lon="-71.96502685">
    <tag k="addr:housenumber" v="37"/>
    <tag k="addr:street" v="Line Farm Road"/>
    <tag k="addr:state" v="VT"/>
    <tag k="ref:vcgi:esiteid" v="129907"/>
  </node>
  <node id="-131" visible="true" lat="44.99876022" lon="-72.00685882">
    <tag k="addr:housenumber" v="335"/>
    <tag k="addr:street" v="Lyon Road"/>
    <tag k="addr:state" v="VT"/>
    <tag k="ref:vcgi:esiteid" v="129908"/>
  </node>
  <node id="-135" visible="true" lat="44.99816131" lon="-72.00576019">
    <tag k="addr:housenumber" v="395"/>
    <tag k="addr:street" v="Lyon Road"/>
    <tag k="addr:state" v="VT"/>
    <tag k="ref:vcgi:esiteid" v="129912"/>
  </node>
  <node id="-136" visible="true" lat="44.99756622" lon="-71.96477508">
    <tag k="addr:housenumber" v="3507"/>
    <tag k="addr:street" v="Holland Pond Road"/>
    <tag k="addr:state" v="VT"/>
    <tag k="ref:vcgi:esiteid" v="129913"/>
  </node>
  <node id="-138" visible="true" lat="44.99739074" lon="-71.96266174">
    <tag k="addr:housenumber" v="92"/>
    <tag k="addr:street" v="Line Farm Road"/>
    <tag k="addr:state" v="VT"/>
    <tag k="ref:vcgi:esiteid" v="129915"/>
  </node>
  <node id="-140" visible="true" lat="44.99718856" lon="-71.96614074">
    <tag k="addr:housenumber" v="3484"/>
    <tag k="addr:street" v="Holland Pond Road"/>
    <tag k="addr:state" v="VT"/>
    <tag k="ref:vcgi:esiteid" v="129917"/>
  </node>
  <node id="-141" visible="true" lat="44.99701309" lon="-72.00520324">
    <tag k="addr:housenumber" v="477"/>
    <tag k="addr:street" v="Lyon Road"/>
    <tag k="addr:state" v="VT"/>
    <tag k="ref:vcgi:esiteid" v="129918"/>
  </node>
  <node id="-144" visible="true" lat="44.99587249" lon="-71.96926879">
    <tag k="addr:housenumber" v="447"/>
    <tag k="addr:street" v="Moulton Hill Road"/>
    <tag k="addr:state" v="VT"/>
    <tag k="ref:vcgi:esiteid" v="129921"/>
  </node>
  <node id="-146" visible="true" lat="44.99580383" lon="-72.00400543">
    <tag k="addr:housenumber" v="575"/>
    <tag k="addr:street" v="Lyon Road"/>
    <tag k="addr:state" v="VT"/>
    <tag k="ref:vcgi:esiteid" v="129924"/>
  </node>
  <node id="-147" visible="true" lat="44.99550628" lon="-72.00209045">
    <tag k="addr:housenumber" v="106"/>
    <tag k="addr:street" v="Lafoe Road"/>
    <tag k="addr:state" v="VT"/>
    <tag k="ref:vcgi:esiteid" v="129925"/>
  </node>
  <node id="-148" visible="true" lat="44.99516075" lon="-71.95894264">
    <tag k="addr:housenumber" v="54"/>
    <tag k="addr:street" v="Caswell Mill Road"/>
    <tag k="addr:state" v="VT"/>
    <tag k="ref:vcgi:esiteid" v="129926"/>
  </node>
  <node id="-149" visible="true" lat="44.99437713" lon="-71.97370147">
    <tag k="addr:housenumber" v="182"/>
    <tag k="addr:street" v="Moulton Hill Road"/>
    <tag k="addr:state" v="VT"/>
    <tag k="ref:vcgi:esiteid" v="129927"/>
  </node>
  <node id="-150" visible="true" lat="44.99409866" lon="-71.97211456">
    <tag k="addr:housenumber" v="266"/>
    <tag k="addr:street" v="Moulton Hill Road"/>
    <tag k="addr:state" v="VT"/>
    <tag k="ref:vcgi:esiteid" v="129928"/>
  </node>
  <node id="-151" visible="true" lat="44.99403762" lon="-72.00629425">
    <tag k="addr:housenumber" v="1722"/>
    <tag k="addr:street" v="School Road"/>
    <tag k="addr:state" v="VT"/>
    <tag k="ref:vcgi:esiteid" v="129929"/>
  </node>
  <node id="-152" visible="true" lat="44.99371337" lon="-71.95926666">
    <tag k="addr:housenumber" v="28"/>
    <tag k="addr:street" v="Wheeler Road"/>
    <tag k="addr:state" v="VT"/>
    <tag k="ref:vcgi:esiteid" v="129930"/>
  </node>
  <node id="-155" visible="true" lat="44.99344634" lon="-72.00158691">
    <tag k="addr:housenumber" v="777"/>
    <tag k="addr:street" v="Lyon Road"/>
    <tag k="addr:state" v="VT"/>
    <tag k="ref:vcgi:esiteid" v="129933"/>
  </node>
  <node id="-156" visible="true" lat="44.99321746" lon="-71.9606018">
    <tag k="addr:housenumber" v="112"/>
    <tag k="addr:street" v="Wheeler Road"/>
    <tag k="addr:state" v="VT"/>
    <tag k="ref:vcgi:esiteid" v="129934"/>
  </node>
  <node id="-158" visible="true" lat="44.99335479" lon="-72.01140594">
    <tag k="addr:housenumber" v="1467"/>
    <tag k="addr:street" v="School Road"/>
    <tag k="addr:state" v="VT"/>
    <tag k="ref:vcgi:esiteid" v="129936"/>
  </node>
  <node id="-159" visible="true" lat="44.99262986" lon="-71.93520332">
    <tag k="addr:housenumber" v="794"/>
    <tag k="addr:street" v="North Shore Road"/>
    <tag k="addr:state" v="VT"/>
    <tag k="ref:vcgi:esiteid" v="129937"/>
  </node>
  <node id="-160" visible="true" lat="44.99270629" lon="-72.00327301">
    <tag k="addr:housenumber" v="802"/>
    <tag k="addr:street" v="Lyon Road"/>
    <tag k="addr:state" v="VT"/>
    <tag k="ref:vcgi:esiteid" v="129938"/>
  </node>
  <node id="-161" visible="true" lat="44.99209023" lon="-71.93408021">
    <tag k="addr:housenumber" v="742"/>
    <tag k="addr:street" v="North Shore Road"/>
    <tag k="addr:state" v="VT"/>
    <tag k="ref:vcgi:esiteid" v="129939"/>
  </node>
  <node id="-162" visible="true" lat="44.99221038" lon="-71.93432617">
    <tag k="addr:housenumber" v="768"/>
    <tag k="addr:street" v="North Shore Road"/>
    <tag k="addr:state" v="VT"/>
    <tag k="ref:vcgi:esiteid" v="129940"/>
  </node>
  <node id="-163" visible="true" lat="44.99199676" lon="-71.93363189">
    <tag k="addr:housenumber" v="734"/>
    <tag k="addr:street" v="North Shore Road"/>
    <tag k="addr:state" v="VT"/>
    <tag k="ref:vcgi:esiteid" v="129941"/>
  </node>
  <node id="-164" visible="true" lat="44.99218986" lon="-71.93474929">
    <tag k="addr:housenumber" v="786"/>
    <tag k="addr:street" v="North Shore Road"/>
    <tag k="addr:state" v="VT"/>
    <tag k="ref:vcgi:esiteid" v="129942"/>
  </node>
  <node id="-165" visible="true" lat="44.99174562" lon="-71.933323">
    <tag k="addr:housenumber" v="724"/>
    <tag k="addr:street" v="North Shore Road"/>
    <tag k="addr:state" v="VT"/>
    <tag k="ref:vcgi:esiteid" v="129943"/>
  </node>
  <node id="-166" visible="true" lat="44.99191284" lon="-71.95993804">
    <tag k="addr:housenumber" v="157"/>
    <tag k="addr:street" v="Wheeler Road"/>
    <tag k="addr:state" v="VT"/>
    <tag k="ref:vcgi:esiteid" v="129944"/>
  </node>
  <node id="-167" visible="true" lat="44.99145268" lon="-71.93308883">
    <tag k="addr:housenumber" v="718"/>
    <tag k="addr:street" v="North Shore Road"/>
    <tag k="addr:state" v="VT"/>
    <tag k="ref:vcgi:esiteid" v="129945"/>
  </node>
  <node id="-168" visible="true" lat="44.99159622" lon="-72.00160217">
    <tag k="addr:housenumber" v="907"/>
    <tag k="addr:street" v="Lyon Road"/>
    <tag k="addr:state" v="VT"/>
    <tag k="ref:vcgi:esiteid" v="129946"/>
  </node>
  <node id="-169" visible="true" lat="44.99109516" lon="-71.93336499">
    <tag k="addr:housenumber" v="684"/>
    <tag k="addr:street" v="North Shore Road"/>
    <tag k="addr:state" v="VT"/>
    <tag k="ref:vcgi:esiteid" v="129947"/>
  </node>
  <node id="-170" visible="true" lat="44.99134826" lon="-72.0016632">
    <tag k="addr:housenumber" v="922"/>
    <tag k="addr:street" v="Lyon Road"/>
    <tag k="addr:state" v="VT"/>
    <tag k="ref:vcgi:esiteid" v="129948"/>
  </node>
  <node id="-171" visible="true" lat="44.99103546" lon="-71.95279693">
    <tag k="addr:housenumber" v="4245"/>
    <tag k="addr:street" v="Holland Pond Road"/>
    <tag k="addr:state" v="VT"/>
    <tag k="ref:vcgi:esiteid" v="129949"/>
  </node>
  <node id="-172" visible="true" lat="44.99083577" lon="-71.93345433">
    <tag k="addr:housenumber" v="672"/>
    <tag k="addr:street" v="North Shore Road"/>
    <tag k="addr:state" v="VT"/>
    <tag k="ref:vcgi:esiteid" v="129950"/>
  </node>
  <node id="-175" visible="true" lat="44.99053923" lon="-71.93330016">
    <tag k="addr:housenumber" v="666"/>
    <tag k="addr:street" v="North Shore Road"/>
    <tag k="addr:state" v="VT"/>
    <tag k="ref:vcgi:esiteid" v="129953"/>
  </node>
  <node id="-176" visible="true" lat="44.99063491" lon="-71.9471817">
    <tag k="addr:housenumber" v="4515"/>
    <tag k="addr:street" v="Holland Pond Road"/>
    <tag k="addr:state" v="VT"/>
    <tag k="ref:vcgi:esiteid" v="129954"/>
  </node>
  <node id="-177" visible="true" lat="44.99042129" lon="-71.95087432">
    <tag k="addr:housenumber" v="4375"/>
    <tag k="addr:street" v="Holland Pond Road"/>
    <tag k="addr:state" v="VT"/>
    <tag k="ref:vcgi:esiteid" v="129955"/>
  </node>
  <node id="-178" visible="true" lat="44.99002288" lon="-71.93340873">
    <tag k="addr:housenumber" v="638"/>
    <tag k="addr:street" v="North Shore Road"/>
    <tag k="addr:state" v="VT"/>
    <tag k="ref:vcgi:esiteid" v="129956"/>
  </node>
  <node id="-180" visible="true" lat="44.98976083" lon="-71.93309206">
    <tag k="addr:housenumber" v="614"/>
    <tag k="addr:street" v="North Shore Road"/>
    <tag k="addr:state" v="VT"/>
    <tag k="ref:vcgi:esiteid" v="129958"/>
  </node>
  <node id="-181" visible="true" lat="44.98980331" lon="-71.94650268">
    <tag k="addr:housenumber" v="4581"/>
    <tag k="addr:street" v="Holland Pond Road"/>
    <tag k="addr:state" v="VT"/>
    <tag k="ref:vcgi:esiteid" v="129959"/>
  </node>
  <node id="-182" visible="true" lat="44.98926976" lon="-71.93332955">
    <tag k="addr:housenumber" v="572"/>
    <tag k="addr:street" v="North Shore Road"/>
    <tag k="addr:state" v="VT"/>
    <tag k="ref:vcgi:esiteid" v="129960"/>
  </node>
  <node id="-184" visible="true" lat="44.98901408" lon="-71.93332399">
    <tag k="addr:housenumber" v="546"/>
    <tag k="addr:street" v="North Shore Road"/>
    <tag k="addr:state" v="VT"/>
    <tag k="ref:vcgi:esiteid" v="129962"/>
  </node>
  <node id="-186" visible="true" lat="44.98889452" lon="-71.98777046">
    <tag k="addr:housenumber" v="1646"/>
    <tag k="addr:street" v="Holland Pond Road"/>
    <tag k="addr:state" v="VT"/>
    <tag k="ref:vcgi:esiteid" v="129964"/>
  </node>
  <node id="-187" visible="true" lat="44.98875092" lon="-71.93335129">
    <tag k="addr:housenumber" v="526"/>
    <tag k="addr:street" v="North Shore Road"/>
    <tag k="addr:state" v="VT"/>
    <tag k="ref:vcgi:esiteid" v="129965"/>
  </node>
  <node id="-192" visible="true" lat="44.98862457" lon="-71.99838256">
    <tag k="addr:housenumber" v="1171"/>
    <tag k="addr:street" v="Lyon Road"/>
    <tag k="addr:state" v="VT"/>
    <tag k="ref:vcgi:esiteid" v="129970"/>
  </node>
  <node id="-193" visible="true" lat="44.98818697" lon="-71.93296323">
    <tag k="addr:housenumber" v="496"/>
    <tag k="addr:street" v="North Shore Road"/>
    <tag k="addr:state" v="VT"/>
    <tag k="ref:vcgi:esiteid" v="129971"/>
  </node>
  <node id="-194" visible="true" lat="44.98848747" lon="-71.93278652">
    <tag k="addr:housenumber" v="492"/>
    <tag k="addr:street" v="North Shore Road"/>
    <tag k="addr:state" v="VT"/>
    <tag k="ref:vcgi:esiteid" v="129972"/>
  </node>
  <node id="-198" visible="true" lat="44.98763399" lon="-71.93323971">
    <tag k="addr:housenumber" v="468"/>
    <tag k="addr:street" v="North Shore Road"/>
    <tag k="addr:state" v="VT"/>
    <tag k="ref:vcgi:esiteid" v="129976"/>
  </node>
  <node id="-201" visible="true" lat="44.98754447" lon="-71.9393933">
    <tag k="addr:housenumber" v="4901"/>
    <tag k="addr:street" v="Holland Pond Road"/>
    <tag k="addr:state" v="VT"/>
    <tag k="ref:vcgi:esiteid" v="129979"/>
  </node>
  <node id="-202" visible="true" lat="44.98736354" lon="-71.93319294">
    <tag k="addr:housenumber" v="448"/>
    <tag k="addr:street" v="North Shore Road"/>
    <tag k="addr:state" v="VT"/>
    <tag k="ref:vcgi:esiteid" v="129980"/>
  </node>
  <node id="-204" visible="true" lat="44.9868606" lon="-71.93925471">
    <tag k="addr:housenumber" v="4940"/>
    <tag k="addr:street" v="Holland Pond Road"/>
    <tag k="addr:state" v="VT"/>
    <tag k="ref:vcgi:esiteid" v="129982"/>
  </node>
  <node id="-208" visible="true" lat="44.98689184" lon="-71.93343997">
    <tag k="addr:housenumber" v="368"/>
    <tag k="addr:street" v="North Shore Road"/>
    <tag k="addr:state" v="VT"/>
    <tag k="ref:vcgi:esiteid" v="129986"/>
  </node>
  <node id="-209" visible="true" lat="44.98692089" lon="-71.99227121">
    <tag k="addr:housenumber" v="1401"/>
    <tag k="addr:street" v="Holland Pond Road"/>
    <tag k="addr:state" v="VT"/>
    <tag k="ref:vcgi:esiteid" v="129987"/>
  </node>
  <node id="-215" visible="true" lat="44.9852417" lon="-71.99431725">
    <tag k="addr:housenumber" v="16"/>
    <tag k="addr:street" v="Page Hill Road"/>
    <tag k="addr:state" v="VT"/>
    <tag k="ref:vcgi:esiteid" v="129993"/>
  </node>
  <node id="-216" visible="true" lat="44.98494076" lon="-71.93454496">
    <tag k="addr:housenumber" v="346"/>
    <tag k="addr:street" v="South Shore Road"/>
    <tag k="addr:state" v="VT"/>
    <tag k="ref:vcgi:esiteid" v="129994"/>
  </node>
  <node id="-218" visible="true" lat="44.98475422" lon="-71.93401373">
    <tag k="addr:housenumber" v="372"/>
    <tag k="addr:street" v="South Shore Road"/>
    <tag k="addr:state" v="VT"/>
    <tag k="ref:vcgi:esiteid" v="129996"/>
  </node>
  <node id="-220" visible="true" lat="44.98442479" lon="-71.9338435">
    <tag k="addr:housenumber" v="386"/>
    <tag k="addr:street" v="South Shore Road"/>
    <tag k="addr:state" v="VT"/>
    <tag k="ref:vcgi:esiteid" v="129998"/>
  </node>
  <node id="-221" visible="true" lat="44.98417128" lon="-71.93362031">
    <tag k="addr:housenumber" v="414"/>
    <tag k="addr:street" v="South Shore Road"/>
    <tag k="addr:state" v="VT"/>
    <tag k="ref:vcgi:esiteid" v="129999"/>
  </node>
  <node id="-223" visible="true" lat="44.98395725" lon="-71.93338636">
    <tag k="addr:housenumber" v="420"/>
    <tag k="addr:street" v="South Shore Road"/>
    <tag k="addr:state" v="VT"/>
    <tag k="ref:vcgi:esiteid" v="130001"/>
  </node>
  <node id="-224" visible="true" lat="44.98341433" lon="-71.93294373">
    <tag k="addr:housenumber" v="466"/>
    <tag k="addr:street" v="South Shore Road"/>
    <tag k="addr:state" v="VT"/>
    <tag k="ref:vcgi:esiteid" v="130002"/>
  </node>
  <node id="-227" visible="true" lat="44.98351164" lon="-71.99764301">
    <tag k="addr:housenumber" v="1024"/>
    <tag k="addr:street" v="Holland Pond Road"/>
    <tag k="addr:state" v="VT"/>
    <tag k="ref:vcgi:esiteid" v="130005"/>
  </node>
  <node id="-228" visible="true" lat="44.98311706" lon="-71.93261918">
    <tag k="addr:housenumber" v="484"/>
    <tag k="addr:street" v="South Shore Road"/>
    <tag k="addr:state" v="VT"/>
    <tag k="ref:vcgi:esiteid" v="130006"/>
  </node>
  <node id="-230" visible="true" lat="44.98288374" lon="-71.93242229">
    <tag k="addr:housenumber" v="504"/>
    <tag k="addr:street" v="South Shore Road"/>
    <tag k="addr:state" v="VT"/>
    <tag k="ref:vcgi:esiteid" v="130008"/>
  </node>
  <node id="-232" visible="true" lat="44.98267364" lon="-71.93239593">
    <tag k="addr:housenumber" v="524"/>
    <tag k="addr:street" v="South Shore Road"/>
    <tag k="addr:state" v="VT"/>
    <tag k="ref:vcgi:esiteid" v="130010"/>
  </node>
  <node id="-234" visible="true" lat="44.98241042" lon="-71.93231964">
    <tag k="addr:housenumber" v="544"/>
    <tag k="addr:street" v="South Shore Road"/>
    <tag k="addr:state" v="VT"/>
    <tag k="ref:vcgi:esiteid" v="130012"/>
  </node>
  <node id="-235" visible="true" lat="44.98207473" lon="-71.93254089">
    <tag k="addr:housenumber" v="564"/>
    <tag k="addr:street" v="South Shore Road"/>
    <tag k="addr:state" v="VT"/>
    <tag k="ref:vcgi:esiteid" v="130013"/>
  </node>
  <node id="-237" visible="true" lat="44.98195266" lon="-71.93218994">
    <tag k="addr:housenumber" v="572"/>
    <tag k="addr:street" v="South Shore Road"/>
    <tag k="addr:state" v="VT"/>
    <tag k="ref:vcgi:esiteid" v="130015"/>
  </node>
  <node id="-238" visible="true" lat="44.9813641" lon="-71.93200701">
    <tag k="addr:housenumber" v="614"/>
    <tag k="addr:street" v="South Shore Road"/>
    <tag k="addr:state" v="VT"/>
    <tag k="ref:vcgi:esiteid" v="130016"/>
  </node>
  <node id="-239" visible="true" lat="44.98157806" lon="-71.99767058">
    <tag k="addr:housenumber" v="928"/>
    <tag k="addr:street" v="Holland Pond Road"/>
    <tag k="addr:state" v="VT"/>
    <tag k="ref:vcgi:esiteid" v="130017"/>
  </node>
  <node id="-241" visible="true" lat="44.98123936" lon="-71.99829553">
    <tag k="addr:housenumber" v="852"/>
    <tag k="addr:street" v="Holland Pond Road"/>
    <tag k="addr:state" v="VT"/>
    <tag k="ref:vcgi:esiteid" v="130019"/>
  </node>
  <node id="-242" visible="true" lat="44.98110369" lon="-71.99111412">
    <tag k="addr:housenumber" v="184"/>
    <tag k="addr:street" v="Smith Road"/>
    <tag k="addr:state" v="VT"/>
    <tag k="ref:vcgi:esiteid" v="130020"/>
  </node>
  <node id="-243" visible="true" lat="44.98079681" lon="-71.93139648">
    <tag k="addr:housenumber" v="650"/>
    <tag k="addr:street" v="South Shore Road"/>
    <tag k="addr:state" v="VT"/>
    <tag k="ref:vcgi:esiteid" v="130021"/>
  </node>
  <node id="-246" visible="true" lat="44.98074729" lon="-71.9883059">
    <tag k="addr:housenumber" v="237"/>
    <tag k="addr:street" v="Smith Road"/>
    <tag k="addr:state" v="VT"/>
    <tag k="ref:vcgi:esiteid" v="130024"/>
  </node>
  <node id="-248" visible="true" lat="44.98027342" lon="-71.93165188">
    <tag k="addr:housenumber" v="692"/>
    <tag k="addr:street" v="South Shore Road"/>
    <tag k="addr:state" v="VT"/>
    <tag k="ref:vcgi:esiteid" v="130026"/>
  </node>
  <node id="-250" visible="true" lat="44.98033471" lon="-71.99948251">
    <tag k="addr:housenumber" v="774"/>
    <tag k="addr:street" v="Holland Pond Road"/>
    <tag k="addr:state" v="VT"/>
    <tag k="ref:vcgi:esiteid" v="130028"/>
  </node>
  <node id="-251" visible="true" lat="44.97999954" lon="-71.93173217">
    <tag k="addr:housenumber" v="710"/>
    <tag k="addr:street" v="South Shore Road"/>
    <tag k="addr:state" v="VT"/>
    <tag k="ref:vcgi:esiteid" v="130029"/>
  </node>
  <node id="-256" visible="true" lat="44.97960281" lon="-71.93130493">
    <tag k="addr:housenumber" v="742"/>
    <tag k="addr:street" v="South Shore Road"/>
    <tag k="addr:state" v="VT"/>
    <tag k="ref:vcgi:esiteid" v="130034"/>
  </node>
  <node id="-262" visible="true" lat="44.9792599" lon="-71.93114028">
    <tag k="addr:housenumber" v="772"/>
    <tag k="addr:street" v="South Shore Road"/>
    <tag k="addr:state" v="VT"/>
    <tag k="ref:vcgi:esiteid" v="130040"/>
  </node>
  <node id="-263" visible="true" lat="44.97952264" lon="-71.99922062">
    <tag k="addr:housenumber" v="750"/>
    <tag k="addr:street" v="Holland Pond Road"/>
    <tag k="addr:state" v="VT"/>
    <tag k="ref:vcgi:esiteid" v="130041"/>
  </node>
  <node id="-265" visible="true" lat="44.97869387" lon="-71.93111988">
    <tag k="addr:housenumber" v="802"/>
    <tag k="addr:street" v="South Shore Road"/>
    <tag k="addr:state" v="VT"/>
    <tag k="ref:vcgi:esiteid" v="130043"/>
  </node>
  <node id="-266" visible="true" lat="44.9784628" lon="-71.93123396">
    <tag k="addr:housenumber" v="830"/>
    <tag k="addr:street" v="South Shore Road"/>
    <tag k="addr:state" v="VT"/>
    <tag k="ref:vcgi:esiteid" v="130044"/>
  </node>
  <node id="-267" visible="true" lat="44.97836303" lon="-71.95884704">
    <tag k="addr:housenumber" v="1845"/>
    <tag k="addr:street" v="Page Hill Road"/>
    <tag k="addr:state" v="VT"/>
    <tag k="ref:vcgi:esiteid" v="130045"/>
  </node>
  <node id="-269" visible="true" lat="44.97816085" lon="-71.93107604">
    <tag k="addr:housenumber" v="846"/>
    <tag k="addr:street" v="South Shore Road"/>
    <tag k="addr:state" v="VT"/>
    <tag k="ref:vcgi:esiteid" v="130047"/>
  </node>
  <node id="-270" visible="true" lat="44.97834396" lon="-71.99111938">
    <tag k="addr:housenumber" v="186"/>
    <tag k="addr:street" v="Smith Road"/>
    <tag k="addr:state" v="VT"/>
    <tag k="ref:vcgi:esiteid" v="130048"/>
  </node>
  <node id="-271" visible="true" lat="44.97624468" lon="-71.98606563">
    <tag k="addr:housenumber" v="242"/>
    <tag k="addr:street" v="Smith Road"/>
    <tag k="addr:state" v="VT"/>
    <tag k="ref:vcgi:esiteid" v="130049"/>
  </node>
  <node id="-279" visible="true" lat="44.97650909" lon="-71.95680999">
    <tag k="addr:housenumber" v="1991"/>
    <tag k="addr:street" v="Page Hill Road"/>
    <tag k="addr:state" v="VT"/>
    <tag k="ref:vcgi:esiteid" v="130057"/>
  </node>
  <node id="-280" visible="true" lat="44.97518554" lon="-71.95838089">
    <tag k="addr:housenumber" v="121"/>
    <tag k="addr:street" v="Cross Road"/>
    <tag k="addr:state" v="VT"/>
    <tag k="ref:vcgi:esiteid" v="130058"/>
  </node>
  <node id="-283" visible="true" lat="44.97408217" lon="-71.95955952">
    <tag k="addr:housenumber" v="204"/>
    <tag k="addr:street" v="Cross Road"/>
    <tag k="addr:state" v="VT"/>
    <tag k="ref:vcgi:esiteid" v="130061"/>
  </node>
  <node id="-302" visible="true" lat="44.97046173" lon="-71.9601396">
    <tag k="addr:housenumber" v="464"/>
    <tag k="addr:street" v="Cross Road"/>
    <tag k="addr:state" v="VT"/>
    <tag k="ref:vcgi:esiteid" v="130080"/>
  </node>
  <node id="-312" visible="true" lat="44.96689987" lon="-71.96053314">
    <tag k="addr:housenumber" v="699"/>
    <tag k="addr:street" v="Cross Road"/>
    <tag k="addr:state" v="VT"/>
    <tag k="ref:vcgi:esiteid" v="130090"/>
  </node>
  <node id="-318" visible="true" lat="44.96529769" lon="-71.97325134">
    <tag k="addr:housenumber" v="1407"/>
    <tag k="addr:street" v="Trucott Road"/>
    <tag k="addr:state" v="VT"/>
    <tag k="ref:vcgi:esiteid" v="130097"/>
  </node>
  <node id="-321" visible="true" lat="44.96490478" lon="-71.97483825">
    <tag k="addr:housenumber" v="1325"/>
    <tag k="addr:street" v="Trucott Road"/>
    <tag k="addr:state" v="VT"/>
    <tag k="ref:vcgi:esiteid" v="130100"/>
  </node>
  <node id="-323" visible="true" lat="44.96428357" lon="-71.97360996">
    <tag k="addr:housenumber" v="1400"/>
    <tag k="addr:street" v="Trucott Road"/>
    <tag k="addr:state" v="VT"/>
    <tag k="ref:vcgi:esiteid" v="130102"/>
  </node>
  <node id="-326" visible="true" lat="44.96440792" lon="-71.97748519">
    <tag k="addr:housenumber" v="1211"/>
    <tag k="addr:street" v="Trucott Road"/>
    <tag k="addr:state" v="VT"/>
    <tag k="ref:vcgi:esiteid" v="130106"/>
  </node>
  <node id="-329" visible="true" lat="44.96302621" lon="-71.96452004">
    <tag k="addr:housenumber" v="1888"/>
    <tag k="addr:street" v="Trucott Road"/>
    <tag k="addr:state" v="VT"/>
    <tag k="ref:vcgi:esiteid" v="130109"/>
  </node>
  <node id="-334" visible="true" lat="44.9628067" lon="-71.97692871">
    <tag k="addr:housenumber" v="21"/>
    <tag k="addr:street" v="Maple Hill Road"/>
    <tag k="addr:state" v="VT"/>
    <tag k="ref:vcgi:esiteid" v="130115"/>
  </node>
  <node id="-336" visible="true" lat="44.96091476" lon="-71.97733522">
    <tag k="addr:housenumber" v="141"/>
    <tag k="addr:street" v="Maple Hill Road"/>
    <tag k="addr:state" v="VT"/>
    <tag k="ref:vcgi:esiteid" v="130117"/>
  </node>
  <node id="-337" visible="true" lat="44.96080779" lon="-71.96129608">
    <tag k="addr:housenumber" v="2129"/>
    <tag k="addr:street" v="Trucott Road"/>
    <tag k="addr:state" v="VT"/>
    <tag k="ref:vcgi:esiteid" v="130118"/>
  </node>
  <node id="-341" visible="true" lat="44.96011342" lon="-71.95654512">
    <tag k="addr:housenumber" v="2513"/>
    <tag k="addr:street" v="Trucott Road"/>
    <tag k="addr:state" v="VT"/>
    <tag k="ref:vcgi:esiteid" v="130122"/>
  </node>
  <node id="-342" visible="true" lat="44.96016283" lon="-71.97905649">
    <tag k="addr:housenumber" v="248"/>
    <tag k="addr:street" v="Maple Hill Road"/>
    <tag k="addr:state" v="VT"/>
    <tag k="ref:vcgi:esiteid" v="130123"/>
  </node>
  <node id="-343" visible="true" lat="44.95994526" lon="-71.97820979">
    <tag k="addr:housenumber" v="207"/>
    <tag k="addr:street" v="Maple Hill Road"/>
    <tag k="addr:state" v="VT"/>
    <tag k="ref:vcgi:esiteid" v="130124"/>
  </node>
  <node id="-344" visible="true" lat="44.95979141" lon="-71.95845072">
    <tag k="addr:housenumber" v="2421"/>
    <tag k="addr:street" v="Trucott Road"/>
    <tag k="addr:state" v="VT"/>
    <tag k="ref:vcgi:esiteid" v="130125"/>
  </node>
  <node id="-345" visible="true" lat="44.95986961" lon="-71.95558145">
    <tag k="addr:housenumber" v="2555"/>
    <tag k="addr:street" v="Trucott Road"/>
    <tag k="addr:state" v="VT"/>
    <tag k="ref:vcgi:esiteid" v="130126"/>
  </node>
  <node id="-348" visible="true" lat="44.95965474" lon="-71.94296859">
    <tag k="addr:housenumber" v="3209"/>
    <tag k="addr:street" v="Trucott Road"/>
    <tag k="addr:state" v="VT"/>
    <tag k="ref:vcgi:esiteid" v="130129"/>
  </node>
  <node id="-349" visible="true" lat="44.95944595" lon="-71.98011779">
    <tag k="addr:housenumber" v="302"/>
    <tag k="addr:street" v="Maple Hill Road"/>
    <tag k="addr:state" v="VT"/>
    <tag k="ref:vcgi:esiteid" v="130130"/>
  </node>
  <node id="-350" visible="true" lat="44.95911015" lon="-71.95712752">
    <tag k="addr:housenumber" v="2462"/>
    <tag k="addr:street" v="Trucott Road"/>
    <tag k="addr:state" v="VT"/>
    <tag k="ref:vcgi:esiteid" v="130131"/>
  </node>
  <node id="-351" visible="true" lat="44.95888096" lon="-71.94583558">
    <tag k="addr:housenumber" v="3024"/>
    <tag k="addr:street" v="Trucott Road"/>
    <tag k="addr:state" v="VT"/>
    <tag k="ref:vcgi:esiteid" v="130132"/>
  </node>
  <node id="-352" visible="true" lat="44.95910205" lon="-71.97922346">
    <tag k="addr:housenumber" v="317"/>
    <tag k="addr:street" v="Maple Hill Road"/>
    <tag k="addr:state" v="VT"/>
    <tag k="ref:vcgi:esiteid" v="130133"/>
  </node>
  <node id="-353" visible="true" lat="44.95885585" lon="-71.94476954">
    <tag k="addr:housenumber" v="3116"/>
    <tag k="addr:street" v="Trucott Road"/>
    <tag k="addr:state" v="VT"/>
    <tag k="ref:vcgi:esiteid" v="130134"/>
  </node>
  <node id="-354" visible="true" lat="44.9588623" lon="-71.96189117">
    <tag k="addr:housenumber" v="2252"/>
    <tag k="addr:street" v="Trucott Road"/>
    <tag k="addr:state" v="VT"/>
    <tag k="ref:vcgi:esiteid" v="130135"/>
  </node>
  <node id="-357" visible="true" lat="44.95695599" lon="-71.97996463">
    <tag k="addr:housenumber" v="370"/>
    <tag k="addr:street" v="Maple Hill Road"/>
    <tag k="addr:state" v="VT"/>
    <tag k="ref:vcgi:esiteid" v="130138"/>
  </node>
  <node id="-361" visible="true" lat="44.95789337" lon="-71.97914123">
    <tag k="addr:housenumber" v="411"/>
    <tag k="addr:street" v="Maple Hill Road"/>
    <tag k="addr:state" v="VT"/>
    <tag k="ref:vcgi:esiteid" v="130142"/>
  </node>
  <node id="-383" visible="true" lat="44.9496231" lon="-71.97695159">
    <tag k="addr:housenumber" v="4999"/>
    <tag k="addr:street" v="Valley Road"/>
    <tag k="addr:state" v="VT"/>
    <tag k="ref:vcgi:esiteid" v="130165"/>
  </node>
  <node id="-390" visible="true" lat="44.94696807" lon="-71.97727966">
    <tag k="addr:housenumber" v="5163"/>
    <tag k="addr:street" v="Valley Road"/>
    <tag k="addr:state" v="VT"/>
    <tag k="ref:vcgi:esiteid" v="130172"/>
  </node>
  <node id="-394" visible="true" lat="44.95025233" lon="-71.94832208">
    <tag k="addr:housenumber" v="2600"/>
    <tag k="addr:street" v="Trucott Road"/>
    <tag k="addr:state" v="VT"/>
    <tag k="ref:vcgi:esiteid" v="130176"/>
  </node>
  <node id="-396" visible="true" lat="44.94589996" lon="-71.97699737">
    <tag k="addr:housenumber" v="5241"/>
    <tag k="addr:street" v="Valley Road"/>
    <tag k="addr:state" v="VT"/>
    <tag k="ref:vcgi:esiteid" v="130178"/>
  </node>
  <node id="-407" visible="true" lat="44.94308978" lon="-71.97829593">
    <tag k="addr:housenumber" v="5422"/>
    <tag k="addr:street" v="Valley Road"/>
    <tag k="addr:state" v="VT"/>
    <tag k="ref:vcgi:esiteid" v="130189"/>
  </node>
  <node id="-409" visible="true" lat="44.94292137" lon="-71.97728764">
    <tag k="addr:housenumber" v="5450"/>
    <tag k="addr:street" v="Valley Road"/>
    <tag k="addr:state" v="VT"/>
    <tag k="ref:vcgi:esiteid" v="130191"/>
  </node>
  <node id="-411" visible="true" lat="44.94015884" lon="-71.97332">
    <tag k="addr:housenumber" v="5695"/>
    <tag k="addr:street" v="Valley Road"/>
    <tag k="addr:state" v="VT"/>
    <tag k="ref:vcgi:esiteid" v="130194"/>
  </node>
  <node id="-412" visible="true" lat="44.93947982" lon="-71.96246337">
    <tag k="addr:housenumber" v="695"/>
    <tag k="addr:street" v="Hunting Camp Road"/>
    <tag k="addr:state" v="VT"/>
    <tag k="ref:vcgi:esiteid" v="130195"/>
  </node>
  <node id="-415" visible="true" lat="44.9376364" lon="-71.9737134">
    <tag k="addr:housenumber" v="5855"/>
    <tag k="addr:street" v="Valley Road"/>
    <tag k="addr:state" v="VT"/>
    <tag k="ref:vcgi:esiteid" v="130198"/>
  </node>
  <node id="-417" visible="true" lat="44.93608612" lon="-71.96146863">
    <tag k="addr:housenumber" v="716"/>
    <tag k="addr:street" v="Hunting Camp Road"/>
    <tag k="addr:state" v="VT"/>
    <tag k="ref:vcgi:esiteid" v="130200"/>
  </node>
  <node id="-419" visible="true" lat="44.93527484" lon="-71.96763567">
    <tag k="addr:housenumber" v="346"/>
    <tag k="addr:street" v="Hunting Camp Road"/>
    <tag k="addr:state" v="VT"/>
    <tag k="ref:vcgi:esiteid" v="130202"/>
  </node>
  <node id="-420" visible="true" lat="44.93530107" lon="-71.97325667">
    <tag k="addr:housenumber" v="6049"/>
    <tag k="addr:street" v="Valley Road"/>
    <tag k="addr:state" v="VT"/>
    <tag k="ref:vcgi:esiteid" v="130203"/>
  </node>
  <node id="-421" visible="true" lat="44.93487549" lon="-71.97542648">
    <tag k="addr:housenumber" v="6042"/>
    <tag k="addr:street" v="Valley Road"/>
    <tag k="addr:state" v="VT"/>
    <tag k="ref:vcgi:esiteid" v="130204"/>
  </node>
  <node id="-422" visible="true" lat="44.93369674" lon="-71.97424316">
    <tag k="addr:housenumber" v="6129"/>
    <tag k="addr:street" v="Valley Road"/>
    <tag k="addr:state" v="VT"/>
    <tag k="ref:vcgi:esiteid" v="130205"/>
  </node>
  <node id="-432" visible="true" lat="44.97898101" lon="-71.95780944">
    <tag k="addr:housenumber" v="132"/>
    <tag k="addr:street" v="Lahue Road"/>
    <tag k="addr:state" v="VT"/>
    <tag k="ref:vcgi:esiteid" v="130215"/>
  </node>
  <node id="-441" visible="true" lat="44.96041626" lon="-71.9597013">
    <tag k="addr:housenumber" v="2357"/>
    <tag k="addr:street" v="Trucott Road"/>
    <tag k="addr:state" v="VT"/>
    <tag k="ref:vcgi:esiteid" v="130224"/>
  </node>
  <node id="-442" visible="true" lat="44.94528407" lon="-71.94696956">
    <tag k="addr:housenumber" v="2610"/>
    <tag k="addr:street" v="Trucott Road"/>
    <tag k="addr:state" v="VT"/>
    <tag k="ref:vcgi:esiteid" v="130225"/>
  </node>
  <node id="-465" visible="true" lat="44.95893957" lon="-71.94406069">
    <tag k="addr:housenumber" v="3150"/>
    <tag k="addr:street" v="Trucott Road"/>
    <tag k="addr:state" v="VT"/>
    <tag k="ref:vcgi:esiteid" v="130248"/>
  </node>
  <node id="-467" visible="true" lat="44.98564955" lon="-71.93436628">
    <tag k="addr:housenumber" v="300"/>
    <tag k="addr:street" v="Fishing Access Road"/>
    <tag k="addr:state" v="VT"/>
    <tag k="ref:vcgi:esiteid" v="130250"/>
  </node>
  <node id="-487" visible="true" lat="44.94973658" lon="-71.97810017">
    <tag k="addr:housenumber" v="4995"/>
    <tag k="addr:street" v="Valley Road"/>
    <tag k="addr:state" v="VT"/>
    <tag k="ref:vcgi:esiteid" v="130271"/>
  </node>
  <node id="-489" visible="true" lat="44.9948418" lon="-71.9616712">
    <tag k="addr:housenumber" v="3700"/>
    <tag k="addr:street" v="Holland Pond Road"/>
    <tag k="addr:state" v="VT"/>
    <tag k="ref:vcgi:esiteid" v="130273"/>
  </node>
  <node id="-490" visible="true" lat="44.96237619" lon="-71.97853737">
    <tag k="addr:housenumber" v="50"/>
    <tag k="addr:street" v="Maple Hill Road"/>
    <tag k="addr:state" v="VT"/>
    <tag k="ref:vcgi:esiteid" v="130274"/>
  </node>
  <node id="-492" visible="true" lat="44.96967727" lon="-71.9605991">
    <tag k="addr:housenumber" v="506"/>
    <tag k="addr:street" v="Cross Road"/>
    <tag k="addr:state" v="VT"/>
    <tag k="ref:vcgi:esiteid" v="130276"/>
  </node>
  <node id="-493" visible="true" lat="44.96878848" lon="-71.9608886">
    <tag k="addr:housenumber" v="592"/>
    <tag k="addr:street" v="Cross Road"/>
    <tag k="addr:state" v="VT"/>
    <tag k="ref:vcgi:esiteid" v="130277"/>
  </node>
  <node id="-494" visible="true" lat="44.96804049" lon="-71.96099529">
    <tag k="addr:housenumber" v="620"/>
    <tag k="addr:street" v="Cross Road"/>
    <tag k="addr:state" v="VT"/>
    <tag k="ref:vcgi:esiteid" v="130278"/>
  </node>
  <node id="-496" visible="true" lat="44.99332524" lon="-72.00890387">
    <tag k="addr:housenumber" v="1600"/>
    <tag k="addr:street" v="School Road"/>
    <tag k="addr:state" v="VT"/>
    <tag k="ref:vcgi:esiteid" v="130280"/>
  </node>
  <node id="-506" visible="true" lat="44.95839226" lon="-71.94255399">
    <tag k="addr:housenumber" v="3200"/>
    <tag k="addr:street" v="Trucott Road"/>
    <tag k="addr:state" v="VT"/>
    <tag k="ref:vcgi:esiteid" v="130292"/>
  </node>
  <node id="-507" visible="true" lat="44.99902906" lon="-72.00850966">
    <tag k="addr:housenumber" v="294"/>
    <tag k="addr:street" v="Lyon Road"/>
    <tag k="addr:state" v="VT"/>
    <tag k="ref:vcgi:esiteid" v="130293"/>
  </node>
  <node id="-515" visible="true" lat="44.94578136" lon="-71.97754368">
    <tag k="addr:housenumber" v="5240"/>
    <tag k="addr:street" v="Valley Road"/>
    <tag k="addr:state" v="VT"/>
    <tag k="ref:vcgi:esiteid" v="130301"/>
  </node>
  <node id="-523" visible="true" lat="44.97004435" lon="-71.9529109">
    <tag k="addr:housenumber" v="2471"/>
    <tag k="addr:street" v="Page Hill Road"/>
    <tag k="addr:state" v="VT"/>
    <tag k="ref:vcgi:esiteid" v="130310"/>
  </node>
  <node id="-527" visible="true" lat="44.9538254" lon="-71.96485509">
    <tag k="addr:housenumber" v="308"/>
    <tag k="addr:street" v="Rush Road"/>
    <tag k="addr:state" v="VT"/>
    <tag k="ref:vcgi:esiteid" v="130314"/>
  </node>
  <node id="-531" visible="true" lat="44.93709126" lon="-71.97553541">
    <tag k="addr:housenumber" v="5854"/>
    <tag k="addr:street" v="Valley Road"/>
    <tag k="addr:state" v="VT"/>
    <tag k="ref:vcgi:esiteid" v="130318"/>
  </node>
  <node id="-538" visible="true" lat="44.98769254" lon="-71.93817225">
    <tag k="addr:housenumber" v="93"/>
    <tag k="addr:street" v="Fishing Access Road"/>
    <tag k="addr:state" v="VT"/>
    <tag k="ref:vcgi:esiteid" v="333018"/>
  </node>
  <node id="-539" visible="true" lat="45.00284685" lon="-71.97680841">
    <tag k="addr:housenumber" v="229"/>
    <tag k="addr:street" v="Prairie Road"/>
    <tag k="addr:state" v="VT"/>
    <tag k="ref:vcgi:esiteid" v="333867"/>
  </node>
  <node id="-540" visible="true" lat="44.98474418" lon="-71.93558146">
    <tag k="addr:housenumber" v="322"/>
    <tag k="addr:street" v="South Shore Road"/>
    <tag k="addr:state" v="VT"/>
    <tag k="ref:vcgi:esiteid" v="365074"/>
  </node>
  <node id="-541" visible="true" lat="44.96166196" lon="-71.97669081">
    <tag k="addr:housenumber" v="89"/>
    <tag k="addr:street" v="Maple Hill Road"/>
    <tag k="addr:state" v="VT"/>
    <tag k="ref:vcgi:esiteid" v="365223"/>
  </node>
  <node id="-543" visible="true" lat="45.00446738" lon="-71.99017292">
    <tag k="addr:housenumber" v="926"/>
    <tag k="addr:street" v="Prairie Road"/>
    <tag k="addr:state" v="VT"/>
    <tag k="ref:vcgi:esiteid" v="365225"/>
  </node>
  <node id="-544" visible="true" lat="44.98981062" lon="-71.95808198">
    <tag k="addr:housenumber" v="4052"/>
    <tag k="addr:street" v="Holland Pond Road"/>
    <tag k="addr:state" v="VT"/>
    <tag k="ref:vcgi:esiteid" v="365226"/>
  </node>
  <node id="-545" visible="true" lat="44.98557587" lon="-71.99270364">
    <tag k="addr:housenumber" v="1136"/>
    <tag k="addr:street" v="Holland Pond Road"/>
    <tag k="addr:state" v="VT"/>
    <tag k="ref:vcgi:esiteid" v="446465"/>
  </node>
  <node id="-546" visible="true" lat="45.00215471" lon="-71.96130055">
    <tag k="addr:housenumber" v="441"/>
    <tag k="addr:street" v="Line Farm Road"/>
    <tag k="addr:state" v="VT"/>
    <tag k="ref:vcgi:esiteid" v="447872"/>
  </node>
  <node id="-556" visible="true" lat="44.94284072" lon="-71.97418511">
    <tag k="addr:housenumber" v="5643"/>
    <tag k="addr:street" v="Valley Road"/>
    <tag k="addr:state" v="VT"/>
    <tag k="ref:vcgi:esiteid" v="447997"/>
  </node>
  <node id="-557" visible="true" lat="44.97191091" lon="-71.96229652">
    <tag k="addr:housenumber" v="432"/>
    <tag k="addr:street" v="Cross Road"/>
    <tag k="addr:state" v="VT"/>
    <tag k="ref:vcgi:esiteid" v="453763"/>
  </node>
  <node id="-564" visible="true" lat="44.97831652" lon="-71.93189476">
    <tag k="addr:housenumber" v="829"/>
    <tag k="addr:street" v="South Shore Road"/>
    <tag k="addr:state" v="VT"/>
    <tag k="ref:vcgi:esiteid" v="612935"/>
  </node>
</osm>
