<?xml version="1.0" encoding="UTF-8"?>
<osm version="0.6" generator="JOSM" upload="false">
  <node id="-270" visible="true" lat="44.35162448" lon="-73.00662466">
    <tag k="addr:city" v="Huntington"/>
    <tag k="addr:housenumber" v="900"/>
    <tag k="addr:street" v="Sherman Hollow Road"/>
    <tag k="addr:state" v="VT"/>
    <tag k="ref:vcgi:esiteid" v="131119"/>
  </node>
  <node id="-468" visible="true" lat="44.32654119" lon="-72.98789473">
    <tag k="addr:city" v="Huntington"/>
    <tag k="addr:housenumber" v="2156"/>
    <tag k="addr:street" v="Main Road"/>
    <tag k="addr:state" v="VT"/>
    <tag k="ref:vcgi:esiteid" v="131318"/>
  </node>
  <node id="-521" visible="true" lat="44.32841971" lon="-72.98560149">
    <!-- match: "315 Bridge Street, Huntington, VT"  ignoring missing state when matching to "315 Bridge Street, Huntington, " -->
    <tag k="addr:city" v="Huntington"/>
    <tag k="addr:housenumber" v="315"/>
    <tag k="addr:street" v="Bridge Street"/>
    <tag k="addr:state" v="VT"/>
    <tag k="ref:vcgi:esiteid" v="131373"/>
  </node>
  <node id="-742" visible="true" lat="44.29769201" lon="-72.96590089">
    <tag k="addr:city" v="Huntington"/>
    <tag k="addr:housenumber" v="95"/>
    <tag k="addr:street" v="Camels Hump Road"/>
    <tag k="addr:state" v="VT"/>
    <tag k="ref:vcgi:esiteid" v="131600"/>
  </node>
  <node id="-743" visible="true" lat="44.2973648" lon="-72.96556012">
    <tag k="addr:city" v="Huntington"/>
    <tag k="addr:housenumber" v="100"/>
    <tag k="addr:street" v="Camels Hump Road"/>
    <tag k="addr:state" v="VT"/>
    <tag k="ref:vcgi:esiteid" v="131601"/>
  </node>
</osm>
