<?xml version="1.0" encoding="UTF-8"?>
<osm version="0.6" generator="JOSM">
  <node id="-214" visible="true" lat="44.66430045" lon="-72.57544149">
    <!-- conflict: "13 Stonehill Drive, Hyde Park, VT" No match in OSM, but a different address exists <5m away: "496 Thompson Hill Road, Hyde Park, VT" -->
    <tag k="addr:city" v="Hyde Park"/>
    <tag k="addr:housenumber" v="13"/>
    <tag k="addr:street" v="Stonehill Drive"/>
    <tag k="addr:state" v="VT"/>
    <tag k="ref:vcgi:esiteid" v="132088"/>
  </node>
  <node id="-247" visible="true" lat="44.6571706" lon="-72.60350608">
    <!-- conflict: "158 Lorraine Lane, Hyde Park, VT" No match in OSM, but a different address exists <5m away: "4500 Vermont Route 100, Hyde Park, VT" -->
    <tag k="addr:city" v="Hyde Park"/>
    <tag k="addr:housenumber" v="158"/>
    <tag k="addr:street" v="Lorraine Lane"/>
    <tag k="addr:state" v="VT"/>
    <tag k="ref:vcgi:esiteid" v="132122"/>
  </node>
  <node id="-628" visible="true" lat="44.61085282" lon="-72.6204087">
    <!-- conflict: "67 Tilly Drive, Hyde Park, VT" No match in OSM, but a different address exists <5m away: "804 Battle Row Road, Hyde Park, VT" -->
    <tag k="addr:city" v="Hyde Park"/>
    <tag k="addr:housenumber" v="67"/>
    <tag k="addr:street" v="Tilly Drive"/>
    <tag k="addr:state" v="VT"/>
    <tag k="ref:vcgi:esiteid" v="132512"/>
  </node>
  <node id="-682" visible="true" lat="44.61063076" lon="-72.61944055">
    <!-- conflict: "68 Tilly Drive, Hyde Park, VT" No match in OSM, but a different address exists <5m away: "774 Battle Row Road, Hyde Park, VT" -->
    <tag k="addr:city" v="Hyde Park"/>
    <tag k="addr:housenumber" v="68"/>
    <tag k="addr:street" v="Tilly Drive"/>
    <tag k="addr:state" v="VT"/>
    <tag k="ref:vcgi:esiteid" v="132566"/>
  </node>
  <node id="-716" visible="true" lat="44.60847959" lon="-72.62843748">
    <!-- conflict: "92 Haley Drive, Hyde Park, VT" No match in OSM, but a different address exists <5m away: "92 Halley Drive, Hyde Park, VT" -->
    <tag k="addr:city" v="Hyde Park"/>
    <tag k="addr:housenumber" v="92"/>
    <tag k="addr:street" v="Haley Drive"/>
    <tag k="addr:state" v="VT"/>
    <tag k="ref:vcgi:esiteid" v="132601"/>
  </node>
  <node id="-764" visible="true" lat="44.60709096" lon="-72.62765464">
    <!-- conflict: "16 Acorn Avenue, Hyde Park, VT" No match in OSM, but a different address exists <5m away: "846 Cricket Hill Road, Hyde Park, VT" -->
    <tag k="addr:city" v="Hyde Park"/>
    <tag k="addr:housenumber" v="16"/>
    <tag k="addr:street" v="Acorn Avenue"/>
    <tag k="addr:state" v="VT"/>
    <tag k="ref:vcgi:esiteid" v="132649"/>
  </node>
  <node id="-768" visible="true" lat="44.60689421" lon="-72.62693656">
    <!-- conflict: "19 Acorn Avenue, Hyde Park, VT" No match in OSM, but a different address exists <5m away: "868 Cricket Hill Road, Hyde Park, VT" -->
    <tag k="addr:city" v="Hyde Park"/>
    <tag k="addr:housenumber" v="19"/>
    <tag k="addr:street" v="Acorn Avenue"/>
    <tag k="addr:state" v="VT"/>
    <tag k="ref:vcgi:esiteid" v="132653"/>
  </node>
  <node id="-934" visible="true" lat="44.59661184" lon="-72.62073154">
    <!-- conflict: "156 Johnson Street Extension, Hyde Park, VT" Fuzzy match to "156 Johnson St Extension, Hyde Park, VT" -->
    <tag k="addr:city" v="Hyde Park"/>
    <tag k="addr:housenumber" v="156"/>
    <tag k="addr:street" v="Johnson Street Extension"/>
    <tag k="addr:state" v="VT"/>
    <tag k="ref:vcgi:esiteid" v="132823"/>
  </node>
  <node id="-945" visible="true" lat="44.59608296" lon="-72.62032976">
    <!-- conflict: "112 Johnson Street Extension, Hyde Park, VT" Fuzzy match to "112 Johnson St Extension, Hyde Park, VT" -->
    <tag k="addr:city" v="Hyde Park"/>
    <tag k="addr:housenumber" v="112"/>
    <tag k="addr:street" v="Johnson Street Extension"/>
    <tag k="addr:state" v="VT"/>
    <tag k="ref:vcgi:esiteid" v="132835"/>
  </node>
  <node id="-955" visible="true" lat="44.5954152" lon="-72.62048389">
    <!-- conflict: "77 Johnson Street Extension, Hyde Park, VT" Fuzzy match to "77 Johnson St Extension, Hyde Park, VT" -->
    <tag k="addr:city" v="Hyde Park"/>
    <tag k="addr:housenumber" v="77"/>
    <tag k="addr:street" v="Johnson Street Extension"/>
    <tag k="addr:state" v="VT"/>
    <tag k="ref:vcgi:esiteid" v="132845"/>
  </node>
  <node id="-1073" visible="true" lat="44.59278107" lon="-72.61307534">
    <!-- conflict: "77 East Main Street, Hyde Park, VT" Fuzzy match to "77 West Main Street, Hyde Park, VT" -->
    <tag k="addr:city" v="Hyde Park"/>
    <tag k="addr:housenumber" v="77"/>
    <tag k="addr:street" v="East Main Street"/>
    <tag k="addr:state" v="VT"/>
    <tag k="ref:vcgi:esiteid" v="132976"/>
  </node>
  <node id="-1127" visible="true" lat="44.59039103" lon="-72.61460106">
    <!-- conflict: "13 Depot Street Extension, Hyde Park, VT" Fuzzy match to "13 Depot St, Hyde Park, VT" -->
    <tag k="addr:city" v="Hyde Park"/>
    <tag k="addr:housenumber" v="13"/>
    <tag k="addr:street" v="Depot Street Extension"/>
    <tag k="addr:state" v="VT"/>
    <tag k="ref:vcgi:esiteid" v="133035"/>
  </node>
  <node id="-1145" visible="true" lat="44.58848776" lon="-72.60572007">
    <!-- conflict: "590 East Main Street, Hyde Park, VT" Fuzzy match to "590 East Main Street, Hyde Park, " -->
    <tag k="addr:city" v="Hyde Park"/>
    <tag k="addr:housenumber" v="590"/>
    <tag k="addr:street" v="East Main Street"/>
    <tag k="addr:state" v="VT"/>
    <tag k="ref:vcgi:esiteid" v="133055"/>
  </node>
  <node id="-1200" visible="true" lat="44.5817621" lon="-72.54694822">
    <!-- conflict: "140 Garfield Road, Hyde Park, VT" No match in OSM, but a different address exists <5m away: "139 Garfield Road, Hyde Park, VT" -->
    <tag k="addr:city" v="Hyde Park"/>
    <tag k="addr:housenumber" v="140"/>
    <tag k="addr:street" v="Garfield Road"/>
    <tag k="addr:state" v="VT"/>
    <tag k="ref:vcgi:esiteid" v="133110"/>
  </node>
  <node id="-1238" visible="true" lat="44.60124274" lon="-72.58286543">
    <!-- conflict: "51 Serenity Lane, Hyde Park, VT" No match in OSM, but a different address exists <5m away: "302 Brook Road, Hyde Park, VT" -->
    <tag k="addr:city" v="Hyde Park"/>
    <tag k="addr:housenumber" v="51"/>
    <tag k="addr:street" v="Serenity Lane"/>
    <tag k="addr:state" v="VT"/>
    <tag k="ref:vcgi:esiteid" v="133148"/>
  </node>
  <node id="-1319" visible="true" lat="44.59707429" lon="-72.62094455">
    <!-- conflict: "160 Johnson Street Extension, Hyde Park, VT" Fuzzy match to "160 Johnson St Extension, Hyde Park, VT" -->
    <tag k="addr:city" v="Hyde Park"/>
    <tag k="addr:housenumber" v="160"/>
    <tag k="addr:street" v="Johnson Street Extension"/>
    <tag k="addr:state" v="VT"/>
    <tag k="ref:vcgi:esiteid" v="133232"/>
  </node>
  <node id="-1340" visible="true" lat="44.61493707" lon="-72.57723157">
    <!-- conflict: "448 Mountain Estates Drive, Hyde Park, VT" Fuzzy match to "448 Mountain Estate Drive, Hyde Park, VT" -->
    <tag k="addr:city" v="Hyde Park"/>
    <tag k="addr:housenumber" v="448"/>
    <tag k="addr:street" v="Mountain Estates Drive"/>
    <tag k="addr:state" v="VT"/>
    <tag k="ref:vcgi:esiteid" v="133256"/>
  </node>
  <node id="-1346" visible="true" lat="44.61623181" lon="-72.57616613">
    <!-- conflict: "292 Mountain Estates Drive, Hyde Park, VT" Fuzzy match to "292 Mountain Estate Drive, Hyde Park, VT" -->
    <tag k="addr:city" v="Hyde Park"/>
    <tag k="addr:housenumber" v="292"/>
    <tag k="addr:street" v="Mountain Estates Drive"/>
    <tag k="addr:state" v="VT"/>
    <tag k="ref:vcgi:esiteid" v="314357"/>
  </node>
  <node id="-1363" visible="true" lat="44.61603167" lon="-72.57526934">
    <!-- conflict: "343 Mountain Estates Drive, Hyde Park, VT" Fuzzy match to "343 Mountain Estate Drive, Hyde Park, VT" -->
    <tag k="addr:city" v="Hyde Park"/>
    <tag k="addr:housenumber" v="343"/>
    <tag k="addr:street" v="Mountain Estates Drive"/>
    <tag k="addr:state" v="VT"/>
    <tag k="ref:vcgi:esiteid" v="326671"/>
  </node>
  <node id="-1364" visible="true" lat="44.61417864" lon="-72.57603787">
    <!-- conflict: "459 Mountain Estates Drive, Hyde Park, VT" Fuzzy match to "459 Mountain Estate Drive, Hyde Park, VT" -->
    <tag k="addr:city" v="Hyde Park"/>
    <tag k="addr:housenumber" v="459"/>
    <tag k="addr:street" v="Mountain Estates Drive"/>
    <tag k="addr:state" v="VT"/>
    <tag k="ref:vcgi:esiteid" v="326672"/>
  </node>
  <node id="-1365" visible="true" lat="44.61412866" lon="-72.57670282">
    <!-- conflict: "487 Mountain Estates Drive, Hyde Park, VT" Fuzzy match to "487 Mountain Estate Drive, Hyde Park, VT" -->
    <tag k="addr:city" v="Hyde Park"/>
    <tag k="addr:housenumber" v="487"/>
    <tag k="addr:street" v="Mountain Estates Drive"/>
    <tag k="addr:state" v="VT"/>
    <tag k="ref:vcgi:esiteid" v="326673"/>
  </node>
  <node id="-1366" visible="true" lat="44.61825112" lon="-72.57796508">
    <!-- conflict: "146 Mountain Estates Drive, Hyde Park, VT" Fuzzy match to "146 Mountain Estate Drive, Hyde Park, VT" -->
    <tag k="addr:city" v="Hyde Park"/>
    <tag k="addr:housenumber" v="146"/>
    <tag k="addr:street" v="Mountain Estates Drive"/>
    <tag k="addr:state" v="VT"/>
    <tag k="ref:vcgi:esiteid" v="326674"/>
  </node>
  <node id="-1392" visible="true" lat="44.61680311" lon="-72.57724596">
    <!-- conflict: "238 Mountain Estates Drive, Hyde Park, VT" Fuzzy match to "238 Mountain Estate Drive, Hyde Park, VT" -->
    <tag k="addr:city" v="Hyde Park"/>
    <tag k="addr:housenumber" v="238"/>
    <tag k="addr:street" v="Mountain Estates Drive"/>
    <tag k="addr:state" v="VT"/>
    <tag k="ref:vcgi:esiteid" v="329308"/>
  </node>
  <node id="-1393" visible="true" lat="44.61621571" lon="-72.57806374">
    <!-- conflict: "898 Mountain Estates Drive, Hyde Park, VT" Fuzzy match to "898 Mountain Estate Drive, Hyde Park, VT" -->
    <tag k="addr:city" v="Hyde Park"/>
    <tag k="addr:housenumber" v="898"/>
    <tag k="addr:street" v="Mountain Estates Drive"/>
    <tag k="addr:state" v="VT"/>
    <tag k="ref:vcgi:esiteid" v="329309"/>
  </node>
  <node id="-1426" visible="true" lat="44.61563361" lon="-72.57543193">
    <!-- conflict: "385 Mountain Estates Drive, Hyde Park, VT" Fuzzy match to "385 Mountain Estate Drive, Hyde Park, VT" -->
    <tag k="addr:city" v="Hyde Park"/>
    <tag k="addr:housenumber" v="385"/>
    <tag k="addr:street" v="Mountain Estates Drive"/>
    <tag k="addr:state" v="VT"/>
    <tag k="ref:vcgi:esiteid" v="332343"/>
  </node>
  <node id="-1435" visible="true" lat="44.60787414" lon="-72.62849492">
    <!-- conflict: "38 Haley Drive, Hyde Park, VT" No match in OSM, but a different address exists <5m away: "38 Halley Drive, Hyde Park, VT" -->
    <tag k="addr:city" v="Hyde Park"/>
    <tag k="addr:housenumber" v="38"/>
    <tag k="addr:street" v="Haley Drive"/>
    <tag k="addr:state" v="VT"/>
    <tag k="ref:vcgi:esiteid" v="333485"/>
  </node>
  <node id="-1452" visible="true" lat="44.65815957" lon="-72.60325855">
    <!-- conflict: "139 Lorraine Lane, Hyde Park, VT" No match in OSM, but a different address exists <5m away: "4548 Vermont Route 100, Hyde Park, VT" -->
    <tag k="addr:city" v="Hyde Park"/>
    <tag k="addr:housenumber" v="139"/>
    <tag k="addr:street" v="Lorraine Lane"/>
    <tag k="addr:state" v="VT"/>
    <tag k="ref:vcgi:esiteid" v="338060"/>
  </node>
  <node id="-1459" visible="true" lat="44.61437436" lon="-72.64055039">
    <!-- conflict: "428 Melody Lane, Hyde Park, VT" No match in OSM, but a different address exists <5m away: "384 Melody Lane, Hyde Park, VT" -->
    <tag k="addr:city" v="Hyde Park"/>
    <tag k="addr:housenumber" v="428"/>
    <tag k="addr:street" v="Melody Lane"/>
    <tag k="addr:state" v="VT"/>
    <tag k="ref:vcgi:esiteid" v="346170"/>
  </node>
  <node id="-1467" visible="true" lat="44.57780574" lon="-72.57984397">
    <!-- conflict: "40 Meadowood Road, Hyde Park, VT" Fuzzy match to "40 Meadowood Road, Morristown, VT" -->
    <tag k="addr:city" v="Hyde Park"/>
    <tag k="addr:housenumber" v="40"/>
    <tag k="addr:street" v="Meadowood Road"/>
    <tag k="addr:state" v="VT"/>
    <tag k="ref:vcgi:esiteid" v="446203"/>
  </node>
  <node id="-1468" visible="true" lat="44.57747255" lon="-72.57823378">
    <!-- conflict: "190 Meadowood Road, Hyde Park, VT" Fuzzy match to "190 Meadowood Road, Morristown, VT" -->
    <tag k="addr:city" v="Hyde Park"/>
    <tag k="addr:housenumber" v="190"/>
    <tag k="addr:street" v="Meadowood Road"/>
    <tag k="addr:state" v="VT"/>
    <tag k="ref:vcgi:esiteid" v="446205"/>
  </node>
  <node id="-1469" visible="true" lat="44.5775096" lon="-72.57906135">
    <!-- conflict: "100 Meadowood Road, Hyde Park, VT" Fuzzy match to "100 Meadowood Road, Morristown, VT" -->
    <tag k="addr:city" v="Hyde Park"/>
    <tag k="addr:housenumber" v="100"/>
    <tag k="addr:street" v="Meadowood Road"/>
    <tag k="addr:state" v="VT"/>
    <tag k="ref:vcgi:esiteid" v="446320"/>
  </node>
  <node id="-1530" visible="true" lat="44.61700737" lon="-72.57465025">
    <!-- conflict: "289 Mountain Estates Drive, Hyde Park, VT" Fuzzy match to "289 Mountain Estate Drive, Hyde Park, VT" -->
    <tag k="addr:city" v="Hyde Park"/>
    <tag k="addr:housenumber" v="289"/>
    <tag k="addr:street" v="Mountain Estates Drive"/>
    <tag k="addr:state" v="VT"/>
    <tag k="ref:vcgi:esiteid" v="620279"/>
  </node>
</osm>
