<?xml version="1.0" encoding="UTF-8"?>
<osm version="0.6" generator="JOSM">
  <node id="-104" visible="true" lat="44.68373007" lon="-72.59178061">
    <tag k="addr:city" v="Hyde Park"/>
    <tag k="addr:housenumber" v="6497"/>
    <tag k="addr:street" v="Vermont Route 100"/>
    <tag k="addr:state" v="VT"/>
    <tag k="ref:vcgi:esiteid" v="131971"/>
  </node>
  <node id="-136" visible="true" lat="44.6721915" lon="-72.58965069">
    <tag k="addr:city" v="Hyde Park"/>
    <tag k="addr:housenumber" v="173"/>
    <tag k="addr:street" v="Heath Road"/>
    <tag k="addr:state" v="VT"/>
    <tag k="ref:vcgi:esiteid" v="132004"/>
  </node>
  <node id="-137" visible="true" lat="44.67221386" lon="-72.59633617">
    <tag k="addr:city" v="Hyde Park"/>
    <tag k="addr:housenumber" v="5650"/>
    <tag k="addr:street" v="Vermont Route 100"/>
    <tag k="addr:state" v="VT"/>
    <tag k="ref:vcgi:esiteid" v="132005"/>
  </node>
  <node id="-146" visible="true" lat="44.67094003" lon="-72.59609357">
    <tag k="addr:city" v="Hyde Park"/>
    <tag k="addr:housenumber" v="123"/>
    <tag k="addr:street" v="Ferry Street"/>
    <tag k="addr:state" v="VT"/>
    <tag k="ref:vcgi:esiteid" v="132014"/>
  </node>
  <node id="-165" visible="true" lat="44.67087925" lon="-72.59292773">
    <tag k="addr:city" v="Hyde Park"/>
    <tag k="addr:housenumber" v="307"/>
    <tag k="addr:street" v="Ferry Street"/>
    <tag k="addr:state" v="VT"/>
    <tag k="ref:vcgi:esiteid" v="132033"/>
  </node>
  <node id="-166" visible="true" lat="44.67057419" lon="-72.5995942">
    <tag k="addr:city" v="Hyde Park"/>
    <tag k="addr:housenumber" v="5503"/>
    <tag k="addr:street" v="Vermont Route 100"/>
    <tag k="addr:state" v="VT"/>
    <tag k="ref:vcgi:esiteid" v="132034"/>
  </node>
  <node id="-180" visible="true" lat="44.67003142" lon="-72.59052047">
    <tag k="addr:city" v="Hyde Park"/>
    <tag k="addr:housenumber" v="411"/>
    <tag k="addr:street" v="Ferry Street"/>
    <tag k="addr:state" v="VT"/>
    <tag k="ref:vcgi:esiteid" v="132048"/>
  </node>
  <node id="-198" visible="true" lat="44.66779242" lon="-72.60202282">
    <tag k="addr:city" v="Hyde Park"/>
    <tag k="addr:housenumber" v="5292"/>
    <tag k="addr:street" v="Vermont Route 100"/>
    <tag k="addr:state" v="VT"/>
    <tag k="ref:vcgi:esiteid" v="132068"/>
  </node>
  <node id="-199" visible="true" lat="44.66770187" lon="-72.6022174">
    <tag k="addr:city" v="Hyde Park"/>
    <tag k="addr:housenumber" v="5274"/>
    <tag k="addr:street" v="Vermont Route 100"/>
    <tag k="addr:state" v="VT"/>
    <tag k="ref:vcgi:esiteid" v="132069"/>
  </node>
  <node id="-200" visible="true" lat="44.66753117" lon="-72.60265189">
    <tag k="addr:city" v="Hyde Park"/>
    <tag k="addr:housenumber" v="5252"/>
    <tag k="addr:street" v="Vermont Route 100"/>
    <tag k="addr:state" v="VT"/>
    <tag k="ref:vcgi:esiteid" v="132070"/>
  </node>
  <node id="-202" visible="true" lat="44.66749147" lon="-72.60357352">
    <tag k="addr:city" v="Hyde Park"/>
    <tag k="addr:housenumber" v="5211"/>
    <tag k="addr:street" v="Vermont Route 100"/>
    <tag k="addr:state" v="VT"/>
    <tag k="ref:vcgi:esiteid" v="132072"/>
  </node>
  <node id="-225" visible="true" lat="44.66236878" lon="-72.57740792">
    <tag k="addr:city" v="Hyde Park"/>
    <tag k="addr:housenumber" v="272"/>
    <tag k="addr:street" v="Thompson Hill Road"/>
    <tag k="addr:state" v="VT"/>
    <tag k="ref:vcgi:esiteid" v="132095"/>
  </node>
  <node id="-226" visible="true" lat="44.66236642" lon="-72.57920887">
    <tag k="addr:city" v="Hyde Park"/>
    <tag k="addr:housenumber" v="293"/>
    <tag k="addr:street" v="Thompson Hill Road"/>
    <tag k="addr:state" v="VT"/>
    <tag k="ref:vcgi:esiteid" v="132096"/>
  </node>
  <node id="-229" visible="true" lat="44.66208267" lon="-72.58063515">
    <tag k="addr:city" v="Hyde Park"/>
    <tag k="addr:housenumber" v="3250"/>
    <tag k="addr:street" v="North Hyde Park Road"/>
    <tag k="addr:state" v="VT"/>
    <tag k="ref:vcgi:esiteid" v="132099"/>
  </node>
  <node id="-277" visible="true" lat="44.6521875" lon="-72.59725007">
    <tag k="addr:city" v="Hyde Park"/>
    <tag k="addr:housenumber" v="360"/>
    <tag k="addr:street" v="Fleury Road"/>
    <tag k="addr:state" v="VT"/>
    <tag k="ref:vcgi:esiteid" v="132148"/>
  </node>
  <node id="-318" visible="true" lat="44.64255647" lon="-72.59780475">
    <tag k="addr:city" v="Hyde Park"/>
    <tag k="addr:housenumber" v="3350"/>
    <tag k="addr:street" v="Vermont Route 100"/>
    <tag k="addr:state" v="VT"/>
    <tag k="ref:vcgi:esiteid" v="132189"/>
  </node>
  <node id="-324" visible="true" lat="44.64054639" lon="-72.55961365">
    <tag k="addr:city" v="Hyde Park"/>
    <tag k="addr:housenumber" v="1511"/>
    <tag k="addr:street" v="McKinstry Hill Road"/>
    <tag k="addr:state" v="VT"/>
    <tag k="ref:vcgi:esiteid" v="132196"/>
  </node>
  <node id="-331" visible="true" lat="44.63917923" lon="-72.48841103">
    <tag k="addr:city" v="Hyde Park"/>
    <tag k="addr:housenumber" v="157"/>
    <tag k="addr:street" v="Sighs Drive"/>
    <tag k="addr:state" v="VT"/>
    <tag k="ref:vcgi:esiteid" v="132203"/>
  </node>
  <node id="-334" visible="true" lat="44.6384697" lon="-72.48921975">
    <tag k="addr:city" v="Hyde Park"/>
    <tag k="addr:housenumber" v="224"/>
    <tag k="addr:street" v="Sighs Drive"/>
    <tag k="addr:state" v="VT"/>
    <tag k="ref:vcgi:esiteid" v="132206"/>
  </node>
  <node id="-377" visible="true" lat="44.63385192" lon="-72.62245974">
    <tag k="addr:city" v="Hyde Park"/>
    <tag k="addr:housenumber" v="192"/>
    <tag k="addr:street" v="Barnes Road"/>
    <tag k="addr:state" v="VT"/>
    <tag k="ref:vcgi:esiteid" v="132250"/>
  </node>
  <node id="-432" visible="true" lat="44.63026434" lon="-72.58925965">
    <tag k="addr:city" v="Hyde Park"/>
    <tag k="addr:housenumber" v="530"/>
    <tag k="addr:street" v="Longmore Hill Road"/>
    <tag k="addr:state" v="VT"/>
    <tag k="ref:vcgi:esiteid" v="132308"/>
  </node>
  <node id="-489" visible="true" lat="44.62414449" lon="-72.59988705">
    <tag k="addr:city" v="Hyde Park"/>
    <tag k="addr:housenumber" v="2043"/>
    <tag k="addr:street" v="Vermont Route 100"/>
    <tag k="addr:state" v="VT"/>
    <tag k="ref:vcgi:esiteid" v="132366"/>
  </node>
  <node id="-494" visible="true" lat="44.6236536" lon="-72.59920295">
    <tag k="addr:city" v="Hyde Park"/>
    <tag k="addr:housenumber" v="1982"/>
    <tag k="addr:street" v="Vermont Route 100"/>
    <tag k="addr:state" v="VT"/>
    <tag k="ref:vcgi:esiteid" v="132371"/>
  </node>
  <node id="-499" visible="true" lat="44.62291152" lon="-72.59960854">
    <tag k="addr:city" v="Hyde Park"/>
    <tag k="addr:housenumber" v="1974"/>
    <tag k="addr:street" v="Vermont Route 100"/>
    <tag k="addr:state" v="VT"/>
    <tag k="ref:vcgi:esiteid" v="132376"/>
  </node>
  <node id="-514" visible="true" lat="44.62195969" lon="-72.50251015">
    <tag k="addr:city" v="Hyde Park"/>
    <tag k="addr:housenumber" v="159"/>
    <tag k="addr:street" v="Collins Pond Road"/>
    <tag k="addr:state" v="VT"/>
    <tag k="ref:vcgi:esiteid" v="132391"/>
  </node>
  <node id="-569" visible="true" lat="44.61863709" lon="-72.58443459">
    <tag k="addr:city" v="Hyde Park"/>
    <tag k="addr:housenumber" v="2510"/>
    <tag k="addr:street" v="Centerville Road"/>
    <tag k="addr:state" v="VT"/>
    <tag k="ref:vcgi:esiteid" v="132446"/>
  </node>
  <node id="-575" visible="true" lat="44.61770237" lon="-72.50273207">
    <tag k="addr:city" v="Hyde Park"/>
    <tag k="addr:housenumber" v="4226"/>
    <tag k="addr:street" v="Garfield Road"/>
    <tag k="addr:state" v="VT"/>
    <tag k="ref:vcgi:esiteid" v="132452"/>
  </node>
  <node id="-576" visible="true" lat="44.61800003" lon="-72.59021767">
    <tag k="addr:city" v="Hyde Park"/>
    <tag k="addr:housenumber" v="2161"/>
    <tag k="addr:street" v="Centerville Road"/>
    <tag k="addr:state" v="VT"/>
    <tag k="ref:vcgi:esiteid" v="132453"/>
  </node>
  <node id="-614" visible="true" lat="44.61353185" lon="-72.60683122">
    <tag k="addr:city" v="Hyde Park"/>
    <tag k="addr:housenumber" v="1234"/>
    <tag k="addr:street" v="Vermont Route 100"/>
    <tag k="addr:state" v="VT"/>
    <tag k="ref:vcgi:esiteid" v="132493"/>
  </node>
  <node id="-626" visible="true" lat="44.61263275" lon="-72.56004342">
    <tag k="addr:city" v="Hyde Park"/>
    <tag k="addr:housenumber" v="330"/>
    <tag k="addr:street" v="Reen Drive"/>
    <tag k="addr:state" v="VT"/>
    <tag k="ref:vcgi:esiteid" v="132505"/>
  </node>
  <node id="-658" visible="true" lat="44.61002829" lon="-72.63800031">
    <tag k="addr:city" v="Hyde Park"/>
    <tag k="addr:housenumber" v="454"/>
    <tag k="addr:street" v="Sterling View Road"/>
    <tag k="addr:state" v="VT"/>
    <tag k="ref:vcgi:esiteid" v="132537"/>
  </node>
  <node id="-699" visible="true" lat="44.60871258" lon="-72.51121108">
    <tag k="addr:city" v="Hyde Park"/>
    <tag k="addr:housenumber" v="3393"/>
    <tag k="addr:street" v="Garfield Road"/>
    <tag k="addr:state" v="VT"/>
    <tag k="ref:vcgi:esiteid" v="132579"/>
  </node>
  <node id="-729" visible="true" lat="44.60821152" lon="-72.63113412">
    <tag k="addr:city" v="Hyde Park"/>
    <tag k="addr:housenumber" v="591"/>
    <tag k="addr:street" v="Cricket Hill Road"/>
    <tag k="addr:state" v="VT"/>
    <tag k="ref:vcgi:esiteid" v="132609"/>
  </node>
  <node id="-746" visible="true" lat="44.60789644" lon="-72.64411833">
    <tag k="addr:city" v="Hyde Park"/>
    <tag k="addr:housenumber" v="1660"/>
    <tag k="addr:street" v="Vermont Route 15 West"/>
    <tag k="addr:state" v="VT"/>
    <tag k="ref:vcgi:esiteid" v="132626"/>
  </node>
  <node id="-772" visible="true" lat="44.606987" lon="-72.57235726">
    <tag k="addr:city" v="Hyde Park"/>
    <tag k="addr:housenumber" v="16"/>
    <tag k="addr:street" v="Tenney Hill Road"/>
    <tag k="addr:state" v="VT"/>
    <tag k="ref:vcgi:esiteid" v="132652"/>
  </node>
  <node id="-802" visible="true" lat="44.60482419" lon="-72.55346573">
    <tag k="addr:city" v="Hyde Park"/>
    <tag k="addr:housenumber" v="443"/>
    <tag k="addr:street" v="Richardson Road"/>
    <tag k="addr:state" v="VT"/>
    <tag k="ref:vcgi:esiteid" v="132682"/>
  </node>
  <node id="-816" visible="true" lat="44.60373306" lon="-72.63497933">
    <tag k="addr:city" v="Hyde Park"/>
    <tag k="addr:housenumber" v="245"/>
    <tag k="addr:street" v="Cricket Hill Road"/>
    <tag k="addr:state" v="VT"/>
    <tag k="ref:vcgi:esiteid" v="132696"/>
  </node>
  <node id="-823" visible="true" lat="44.60307092" lon="-72.64092172">
    <tag k="addr:city" v="Hyde Park"/>
    <tag k="addr:housenumber" v="1317"/>
    <tag k="addr:street" v="Vermont Route 15 West"/>
    <tag k="addr:state" v="VT"/>
    <tag k="ref:vcgi:esiteid" v="132703"/>
  </node>
  <node id="-836" visible="true" lat="44.6020546" lon="-72.54193887">
    <tag k="addr:city" v="Hyde Park"/>
    <tag k="addr:housenumber" v="46"/>
    <tag k="addr:street" v="Munson Road"/>
    <tag k="addr:state" v="VT"/>
    <tag k="ref:vcgi:esiteid" v="132717"/>
  </node>
  <node id="-885" visible="true" lat="44.59865754" lon="-72.63233855">
    <tag k="addr:city" v="Hyde Park"/>
    <tag k="addr:housenumber" v="9"/>
    <tag k="addr:street" v="River Run Drive"/>
    <tag k="addr:state" v="VT"/>
    <tag k="ref:vcgi:esiteid" v="132766"/>
  </node>
  <node id="-912" visible="true" lat="44.59787309" lon="-72.53551177">
    <tag k="addr:city" v="Hyde Park"/>
    <tag k="addr:housenumber" v="1463"/>
    <tag k="addr:street" v="Garfield Road"/>
    <tag k="addr:state" v="VT"/>
    <tag k="ref:vcgi:esiteid" v="132794"/>
  </node>
  <node id="-924" visible="true" lat="44.59756" lon="-72.58456021">
    <tag k="addr:city" v="Hyde Park"/>
    <tag k="addr:housenumber" v="484"/>
    <tag k="addr:street" v="Cleveland Corners Road"/>
    <tag k="addr:state" v="VT"/>
    <tag k="ref:vcgi:esiteid" v="132806"/>
  </node>
  <node id="-926" visible="true" lat="44.59763845" lon="-72.60691963">
    <tag k="addr:city" v="Hyde Park"/>
    <tag k="addr:housenumber" v="397"/>
    <tag k="addr:street" v="Centerville Road"/>
    <tag k="addr:state" v="VT"/>
    <tag k="ref:vcgi:esiteid" v="132808"/>
  </node>
  <node id="-955" visible="true" lat="44.5958567" lon="-72.55409774">
    <tag k="addr:city" v="Hyde Park"/>
    <tag k="addr:housenumber" v="2092"/>
    <tag k="addr:street" v="Cleveland Corners Road"/>
    <tag k="addr:state" v="VT"/>
    <tag k="ref:vcgi:esiteid" v="132839"/>
  </node>
  <node id="-973" visible="true" lat="44.59524536" lon="-72.55726632">
    <tag k="addr:city" v="Hyde Park"/>
    <tag k="addr:housenumber" v="1914"/>
    <tag k="addr:street" v="Cleveland Corners Road"/>
    <tag k="addr:state" v="VT"/>
    <tag k="ref:vcgi:esiteid" v="132857"/>
  </node>
  <node id="-1003" visible="true" lat="44.59429086" lon="-72.6196892">
    <tag k="addr:city" v="Hyde Park"/>
    <tag k="addr:housenumber" v="10"/>
    <tag k="addr:street" v="Main Street"/>
    <tag k="addr:state" v="VT"/>
    <tag k="ref:vcgi:esiteid" v="132891"/>
  </node>
  <node id="-1005" visible="true" lat="44.59426447" lon="-72.61688106">
    <tag k="addr:city" v="Hyde Park"/>
    <tag k="addr:housenumber" v="214"/>
    <tag k="addr:street" v="Church Street"/>
    <tag k="addr:state" v="VT"/>
    <tag k="ref:vcgi:esiteid" v="132893"/>
  </node>
  <node id="-1056" visible="true" lat="44.5931823" lon="-72.61762861">
    <tag k="addr:city" v="Hyde Park"/>
    <tag k="addr:housenumber" v="162"/>
    <tag k="addr:street" v="Commonwealth Avenue"/>
    <tag k="addr:state" v="VT"/>
    <tag k="ref:vcgi:esiteid" v="132949"/>
  </node>
  <node id="-1067" visible="true" lat="44.59285808" lon="-72.61798883">
    <tag k="addr:city" v="Hyde Park"/>
    <tag k="addr:housenumber" v="143"/>
    <tag k="addr:street" v="Commonwealth Avenue"/>
    <tag k="addr:state" v="VT"/>
    <tag k="ref:vcgi:esiteid" v="132962"/>
  </node>
  <node id="-1072" visible="true" lat="44.59277556" lon="-72.61648154">
    <tag k="addr:city" v="Hyde Park"/>
    <tag k="addr:housenumber" v="25"/>
    <tag k="addr:street" v="Commonwealth Avenue"/>
    <tag k="addr:state" v="VT"/>
    <tag k="ref:vcgi:esiteid" v="132967"/>
  </node>
  <node id="-1090" visible="true" lat="44.59227698" lon="-72.61779722">
    <tag k="addr:city" v="Hyde Park"/>
    <tag k="addr:housenumber" v="101"/>
    <tag k="addr:street" v="Commonwealth Avenue"/>
    <tag k="addr:state" v="VT"/>
    <tag k="ref:vcgi:esiteid" v="132988"/>
  </node>
  <node id="-1122" visible="true" lat="44.59089982" lon="-72.61404542">
    <tag k="addr:city" v="Hyde Park"/>
    <tag k="addr:housenumber" v="127"/>
    <tag k="addr:street" v="Depot Street"/>
    <tag k="addr:state" v="VT"/>
    <tag k="ref:vcgi:esiteid" v="133022"/>
  </node>
  <node id="-1133" visible="true" lat="44.59054933" lon="-72.6138529">
    <tag k="addr:city" v="Hyde Park"/>
    <tag k="addr:housenumber" v="153"/>
    <tag k="addr:street" v="Depot Street"/>
    <tag k="addr:state" v="VT"/>
    <tag k="ref:vcgi:esiteid" v="133033"/>
  </node>
  <node id="-1162" visible="true" lat="44.58729528" lon="-72.53944458">
    <tag k="addr:city" v="Hyde Park"/>
    <tag k="addr:housenumber" v="686"/>
    <tag k="addr:street" v="Garfield Road"/>
    <tag k="addr:state" v="VT"/>
    <tag k="ref:vcgi:esiteid" v="133064"/>
  </node>
  <node id="-1175" visible="true" lat="44.5862236" lon="-72.57556161">
    <tag k="addr:city" v="Hyde Park"/>
    <tag k="addr:housenumber" v="280"/>
    <tag k="addr:street" v="Leriche Road"/>
    <tag k="addr:state" v="VT"/>
    <tag k="ref:vcgi:esiteid" v="133077"/>
  </node>
  <node id="-1219" visible="true" lat="44.57782364" lon="-72.57650765">
    <tag k="addr:city" v="Hyde Park"/>
    <tag k="addr:housenumber" v="275"/>
    <tag k="addr:street" v="Meadowood Road"/>
    <tag k="addr:state" v="VT"/>
    <tag k="ref:vcgi:esiteid" v="133121"/>
  </node>
  <node id="-1220" visible="true" lat="44.57741547" lon="-72.5736924">
    <tag k="addr:city" v="Hyde Park"/>
    <tag k="addr:housenumber" v="438"/>
    <tag k="addr:street" v="Meadowood Road"/>
    <tag k="addr:state" v="VT"/>
    <tag k="ref:vcgi:esiteid" v="133122"/>
  </node>
  <node id="-1221" visible="true" lat="44.60100416" lon="-72.54492394">
    <tag k="addr:city" v="Hyde Park"/>
    <tag k="addr:housenumber" v="80"/>
    <tag k="addr:street" v="Davis Hill Road"/>
    <tag k="addr:state" v="VT"/>
    <tag k="ref:vcgi:esiteid" v="133123"/>
  </node>
  <node id="-1223" visible="true" lat="44.65263203" lon="-72.598064">
    <tag k="addr:city" v="Hyde Park"/>
    <tag k="addr:housenumber" v="394"/>
    <tag k="addr:street" v="Fleury Road"/>
    <tag k="addr:state" v="VT"/>
    <tag k="ref:vcgi:esiteid" v="133125"/>
  </node>
  <node id="-1314" visible="true" lat="44.63913632" lon="-72.54536475">
    <tag k="addr:city" v="Hyde Park"/>
    <tag k="addr:housenumber" v="1531"/>
    <tag k="addr:street" v="Diggins Road"/>
    <tag k="addr:state" v="VT"/>
    <tag k="ref:vcgi:esiteid" v="133217"/>
  </node>
  <node id="-1319" visible="true" lat="44.60590429" lon="-72.6269228">
    <tag k="addr:city" v="Hyde Park"/>
    <tag k="addr:housenumber" v="96"/>
    <tag k="addr:street" v="Acorn Avenue"/>
    <tag k="addr:state" v="VT"/>
    <tag k="ref:vcgi:esiteid" v="133222"/>
  </node>
  <node id="-1348" visible="true" lat="44.61689074" lon="-72.50848143">
    <tag k="addr:city" v="Hyde Park"/>
    <tag k="addr:housenumber" v="4025"/>
    <tag k="addr:street" v="Garfield Road"/>
    <tag k="addr:state" v="VT"/>
    <tag k="ref:vcgi:esiteid" v="133255"/>
  </node>
  <node id="-1366" visible="true" lat="44.58345443" lon="-72.5372824">
    <tag k="addr:city" v="Hyde Park"/>
    <tag k="addr:housenumber" v="262"/>
    <tag k="addr:street" v="McFarlane Road"/>
    <tag k="addr:state" v="VT"/>
    <tag k="ref:vcgi:esiteid" v="326665"/>
  </node>
  <node id="-1398" visible="true" lat="44.62250459" lon="-72.61028907">
    <tag k="addr:city" v="Hyde Park"/>
    <tag k="addr:housenumber" v="571"/>
    <tag k="addr:street" v="Webster Road"/>
    <tag k="addr:state" v="VT"/>
    <tag k="ref:vcgi:esiteid" v="327111"/>
  </node>
  <node id="-1411" visible="true" lat="44.64972478" lon="-72.60196898">
    <tag k="addr:city" v="Hyde Park"/>
    <tag k="addr:housenumber" v="3854"/>
    <tag k="addr:street" v="Vermont Route 100"/>
    <tag k="addr:state" v="VT"/>
    <tag k="ref:vcgi:esiteid" v="332315"/>
  </node>
  <node id="-1418" visible="true" lat="44.63009834" lon="-72.4864887">
    <tag k="addr:city" v="Hyde Park"/>
    <tag k="addr:housenumber" v="134"/>
    <tag k="addr:street" v="Morey Hill Road"/>
    <tag k="addr:state" v="VT"/>
    <tag k="ref:vcgi:esiteid" v="332322"/>
  </node>
  <node id="-1429" visible="true" lat="44.58174438" lon="-72.58591351">
    <tag k="addr:city" v="Hyde Park"/>
    <tag k="addr:housenumber" v="102"/>
    <tag k="addr:street" v="Center Road"/>
    <tag k="addr:state" v="VT"/>
    <tag k="ref:vcgi:esiteid" v="332335"/>
  </node>
  <node id="-1433" visible="true" lat="44.67330968" lon="-72.59446258">
    <tag k="addr:city" v="Hyde Park"/>
    <tag k="addr:housenumber" v="186"/>
    <tag k="addr:street" v="Locke Avenue"/>
    <tag k="addr:state" v="VT"/>
    <tag k="ref:vcgi:esiteid" v="332339"/>
  </node>
  <node id="-1455" visible="true" lat="44.60737557" lon="-72.63106945">
    <tag k="addr:city" v="Hyde Park"/>
    <tag k="addr:housenumber" v="478"/>
    <tag k="addr:street" v="Cricket Hill Road"/>
    <tag k="addr:state" v="VT"/>
    <tag k="ref:vcgi:esiteid" v="338051"/>
  </node>
  <node id="-1462" visible="true" lat="44.60668334" lon="-72.60143335">
    <tag k="addr:city" v="Hyde Park"/>
    <tag k="addr:housenumber" v="1195"/>
    <tag k="addr:street" v="Centerville Road"/>
    <tag k="addr:state" v="VT"/>
    <tag k="ref:vcgi:esiteid" v="338058"/>
  </node>
  <node id="-1469" visible="true" lat="44.61516767" lon="-72.53489524">
    <tag k="addr:city" v="Hyde Park"/>
    <tag k="addr:housenumber" v="423"/>
    <tag k="addr:street" v="Green River Dam Road"/>
    <tag k="addr:state" v="VT"/>
    <tag k="ref:vcgi:esiteid" v="345179"/>
  </node>
  <node id="-1470" visible="true" lat="44.61485805" lon="-72.64163372">
    <tag k="addr:city" v="Hyde Park"/>
    <tag k="addr:housenumber" v="428"/>
    <tag k="addr:street" v="Melody Lane"/>
    <tag k="addr:state" v="VT"/>
    <tag k="ref:vcgi:esiteid" v="346170"/>
  </node>
  <node id="-1493" visible="true" lat="44.6262924" lon="-72.62200943">
    <tag k="addr:city" v="Hyde Park"/>
    <tag k="addr:housenumber" v="114"/>
    <tag k="addr:street" v="Green Park East Road"/>
    <tag k="addr:state" v="VT"/>
    <tag k="ref:vcgi:esiteid" v="451605"/>
  </node>
  <node id="-1495" visible="true" lat="44.62793977" lon="-72.62341328">
    <tag k="addr:city" v="Hyde Park"/>
    <tag k="addr:housenumber" v="160"/>
    <tag k="addr:street" v="Green Park West Road"/>
    <tag k="addr:state" v="VT"/>
    <tag k="ref:vcgi:esiteid" v="451607"/>
  </node>
  <node id="-1497" visible="true" lat="44.62835757" lon="-72.6223722">
    <tag k="addr:city" v="Hyde Park"/>
    <tag k="addr:housenumber" v="240"/>
    <tag k="addr:street" v="Green Park West Road"/>
    <tag k="addr:state" v="VT"/>
    <tag k="ref:vcgi:esiteid" v="451609"/>
  </node>
  <node id="-1509" visible="true" lat="44.67263638" lon="-72.60100154">
    <tag k="addr:city" v="Hyde Park"/>
    <tag k="addr:housenumber" v="3"/>
    <tag k="addr:street" v="Windy Hill Drive"/>
    <tag k="addr:state" v="VT"/>
    <tag k="ref:vcgi:esiteid" v="610110"/>
  </node>
  <node id="-1510" visible="true" lat="44.67177962" lon="-72.59891871">
    <tag k="addr:city" v="Hyde Park"/>
    <tag k="addr:housenumber" v="5577"/>
    <tag k="addr:street" v="Vermont Route 100"/>
    <tag k="addr:state" v="VT"/>
    <tag k="ref:vcgi:esiteid" v="610641"/>
  </node>
  <node id="-1511" visible="true" lat="44.60655329" lon="-72.63880712">
    <tag k="addr:city" v="Hyde Park"/>
    <tag k="addr:housenumber" v="188"/>
    <tag k="addr:street" v="Crabapple Lane"/>
    <tag k="addr:state" v="VT"/>
    <tag k="ref:vcgi:esiteid" v="610810"/>
  </node>
  <node id="-1519" visible="true" lat="44.59688394" lon="-72.62206492">
    <tag k="addr:city" v="Hyde Park"/>
    <tag k="addr:housenumber" v="157"/>
    <tag k="addr:street" v="Johnson Street Extension"/>
    <tag k="addr:state" v="VT"/>
    <tag k="ref:vcgi:esiteid" v="616819"/>
  </node>
  <node id="-1522" visible="true" lat="44.61358155" lon="-72.61279142">
    <tag k="addr:city" v="Hyde Park"/>
    <tag k="addr:housenumber" v="1143"/>
    <tag k="addr:street" v="Vermont Route 100"/>
    <tag k="addr:state" v="VT"/>
    <tag k="ref:vcgi:esiteid" v="617220"/>
  </node>
  <node id="-1525" visible="true" lat="44.62765029" lon="-72.61760458">
    <tag k="addr:city" v="Hyde Park"/>
    <tag k="addr:housenumber" v="200"/>
    <tag k="addr:street" v="Quiet Lane"/>
    <tag k="addr:state" v="VT"/>
    <tag k="ref:vcgi:esiteid" v="617730"/>
  </node>
  <node id="-1526" visible="true" lat="44.67010726" lon="-72.58947513">
    <tag k="addr:city" v="Hyde Park"/>
    <tag k="addr:housenumber" v="467"/>
    <tag k="addr:street" v="Ferry Street"/>
    <tag k="addr:state" v="VT"/>
    <tag k="ref:vcgi:esiteid" v="617786"/>
  </node>
  <node id="-1533" visible="true" lat="44.67338834" lon="-72.59337446">
    <tag k="addr:city" v="Hyde Park"/>
    <tag k="addr:housenumber" v="171"/>
    <tag k="addr:street" v="Locke Avenue"/>
    <tag k="addr:state" v="VT"/>
    <tag k="ref:vcgi:esiteid" v="617872"/>
  </node>
  <node id="-1535" visible="true" lat="44.64470984" lon="-72.61756188">
    <tag k="addr:city" v="Hyde Park"/>
    <tag k="addr:housenumber" v="76"/>
    <tag k="addr:street" v="River Bend Meadow Drive"/>
    <tag k="addr:state" v="VT"/>
    <tag k="ref:vcgi:esiteid" v="618240"/>
  </node>
  <node id="-1536" visible="true" lat="44.64484273" lon="-72.61799573">
    <tag k="addr:city" v="Hyde Park"/>
    <tag k="addr:housenumber" v="102"/>
    <tag k="addr:street" v="River Bend Meadow Drive"/>
    <tag k="addr:state" v="VT"/>
    <tag k="ref:vcgi:esiteid" v="618241"/>
  </node>
  <node id="-1537" visible="true" lat="44.6456179" lon="-72.61949602">
    <tag k="addr:city" v="Hyde Park"/>
    <tag k="addr:housenumber" v="124"/>
    <tag k="addr:street" v="River Bend Meadow Drive"/>
    <tag k="addr:state" v="VT"/>
    <tag k="ref:vcgi:esiteid" v="618242"/>
  </node>
  <node id="-1538" visible="true" lat="44.64467952" lon="-72.61917228">
    <tag k="addr:city" v="Hyde Park"/>
    <tag k="addr:housenumber" v="123"/>
    <tag k="addr:street" v="River Bend Meadow Drive"/>
    <tag k="addr:state" v="VT"/>
    <tag k="ref:vcgi:esiteid" v="618243"/>
  </node>
  <node id="-1544" visible="true" lat="44.64698657" lon="-72.57540937">
    <tag k="addr:city" v="Hyde Park"/>
    <tag k="addr:housenumber" v="2201"/>
    <tag k="addr:street" v="North Hyde Park Road"/>
    <tag k="addr:state" v="VT"/>
    <tag k="ref:vcgi:esiteid" v="620705"/>
  </node>
  <node id="-1545" visible="true" lat="44.59344288" lon="-72.61738271">
    <tag k="addr:city" v="Hyde Park"/>
    <tag k="addr:housenumber" v="140"/>
    <tag k="addr:street" v="Main Street"/>
    <tag k="addr:state" v="VT"/>
    <tag k="ref:vcgi:esiteid" v="620748"/>
  </node>
  <node id="-1546" visible="true" lat="44.58412175" lon="-72.54342715">
    <tag k="addr:city" v="Hyde Park"/>
    <tag k="addr:housenumber" v="403"/>
    <tag k="addr:street" v="Garfield Road"/>
    <tag k="addr:state" v="VT"/>
    <tag k="ref:vcgi:esiteid" v="700034"/>
  </node>
  <node id="-1547" visible="true" lat="44.60471544" lon="-72.63823948">
    <tag k="addr:city" v="Hyde Park"/>
    <tag k="addr:housenumber" v="181"/>
    <tag k="addr:street" v="Crabapple Lane"/>
    <tag k="addr:state" v="VT"/>
    <tag k="ref:vcgi:esiteid" v="700035"/>
  </node>
  <node id="-1557" visible="true" lat="44.62451766" lon="-72.56834747">
    <tag k="addr:city" v="Hyde Park"/>
    <tag k="addr:housenumber" v="3455"/>
    <tag k="addr:street" v="Centerville Road"/>
    <tag k="addr:state" v="VT"/>
    <tag k="ref:vcgi:esiteid" v="753090"/>
  </node>
  <node id="-1564" visible="true" lat="44.62343912" lon="-72.55914273">
    <tag k="addr:city" v="Hyde Park"/>
    <tag k="addr:housenumber" v="77"/>
    <tag k="addr:street" v="McKinstry Hill Road"/>
    <tag k="addr:state" v="VT"/>
    <tag k="ref:vcgi:esiteid" v="753684"/>
  </node>
  <node id="-1567" visible="true" lat="44.60916967" lon="-72.51121691">
    <tag k="addr:city" v="Hyde Park"/>
    <tag k="addr:housenumber" v="3451"/>
    <tag k="addr:street" v="Garfield Road"/>
    <tag k="addr:state" v="VT"/>
    <tag k="ref:vcgi:esiteid" v="753875"/>
  </node>
  <node id="-1579" visible="true" lat="44.64159369" lon="-72.48517751">
    <tag k="addr:city" v="Hyde Park"/>
    <tag k="addr:housenumber" v="320"/>
    <tag k="addr:street" v="Bornemann Road"/>
    <tag k="addr:state" v="VT"/>
    <tag k="ref:vcgi:esiteid" v="756132"/>
  </node>
  <node id="-1580" visible="true" lat="44.59432064" lon="-72.5322978">
    <tag k="addr:city" v="Hyde Park"/>
    <tag k="addr:housenumber" v="1350"/>
    <tag k="addr:street" v="Garfield Road"/>
    <tag k="addr:state" v="VT"/>
    <tag k="ref:vcgi:esiteid" v="756549"/>
  </node>
  <node id="-1589" visible="true" lat="44.61490466" lon="-72.56223696">
    <tag k="addr:city" v="Hyde Park"/>
    <tag k="addr:housenumber" v="400"/>
    <tag k="addr:street" v="Puckerbrush East Road"/>
    <tag k="addr:state" v="VT"/>
    <tag k="ref:vcgi:esiteid" v="758811"/>
  </node>
  <node id="-1590" visible="true" lat="44.61488555" lon="-72.5644527">
    <tag k="addr:city" v="Hyde Park"/>
    <tag k="addr:housenumber" v="103"/>
    <tag k="addr:street" v="Puckerbrush East Road"/>
    <tag k="addr:state" v="VT"/>
    <tag k="ref:vcgi:esiteid" v="758901"/>
  </node>
  <node id="-1591" visible="true" lat="44.61482781" lon="-72.56427279">
    <tag k="addr:city" v="Hyde Park"/>
    <tag k="addr:housenumber" v="105"/>
    <tag k="addr:street" v="Puckerbrush East Road"/>
    <tag k="addr:state" v="VT"/>
    <tag k="ref:vcgi:esiteid" v="758902"/>
  </node>
  <node id="-1592" visible="true" lat="44.66583068" lon="-72.58616241">
    <tag k="addr:city" v="Hyde Park"/>
    <tag k="addr:housenumber" v="3680"/>
    <tag k="addr:street" v="North Hyde Park Road"/>
    <tag k="addr:state" v="VT"/>
    <tag k="ref:vcgi:esiteid" v="758906"/>
  </node>
  <node id="-1593" visible="true" lat="44.59805031" lon="-72.58029787">
    <tag k="addr:city" v="Hyde Park"/>
    <tag k="addr:housenumber" v="710"/>
    <tag k="addr:street" v="Cleveland Corners Road"/>
    <tag k="addr:state" v="VT"/>
    <tag k="ref:vcgi:esiteid" v="759066"/>
  </node>
  <node id="-1596" visible="true" lat="44.67639789" lon="-72.59570792">
    <tag k="addr:city" v="Hyde Park"/>
    <tag k="addr:housenumber" v="5939"/>
    <tag k="addr:street" v="Vermont Route 100"/>
    <tag k="addr:state" v="VT"/>
    <tag k="ref:vcgi:esiteid" v="759578"/>
  </node>
  <node id="-1597" visible="true" lat="44.62664263" lon="-72.62770397">
    <tag k="addr:city" v="Hyde Park"/>
    <tag k="addr:housenumber" v="2049"/>
    <tag k="addr:street" v="Battle Row Road"/>
    <tag k="addr:state" v="VT"/>
    <tag k="ref:vcgi:esiteid" v="759579"/>
  </node>
  <node id="-1599" visible="true" lat="44.60542973" lon="-72.61861653">
    <tag k="addr:city" v="Hyde Park"/>
    <tag k="addr:housenumber" v="430"/>
    <tag k="addr:street" v="Battle Row Road"/>
    <tag k="addr:state" v="VT"/>
    <tag k="ref:vcgi:esiteid" v="759581"/>
  </node>
  <node id="-1600" visible="true" lat="44.62303408" lon="-72.58018272">
    <tag k="addr:city" v="Hyde Park"/>
    <tag k="addr:housenumber" v="102"/>
    <tag k="addr:street" v="Sugar Ridge Lane"/>
    <tag k="addr:state" v="VT"/>
    <tag k="ref:vcgi:esiteid" v="759636"/>
  </node>
  <node id="-1602" visible="true" lat="44.64220151" lon="-72.58663986">
    <tag k="addr:city" v="Hyde Park"/>
    <tag k="addr:housenumber" v="769"/>
    <tag k="addr:street" v="Jones Road"/>
    <tag k="addr:state" v="VT"/>
    <tag k="ref:vcgi:esiteid" v="760039"/>
  </node>
  <node id="-1603" visible="true" lat="44.63705534" lon="-72.57641387">
    <tag k="addr:city" v="Hyde Park"/>
    <tag k="addr:housenumber" v="1342"/>
    <tag k="addr:street" v="North Hyde Park Road"/>
    <tag k="addr:state" v="VT"/>
    <tag k="ref:vcgi:esiteid" v="760040"/>
  </node>
  <node id="-1604" visible="true" lat="44.61355436" lon="-72.5621864">
    <tag k="addr:city" v="Hyde Park"/>
    <tag k="addr:housenumber" v="328"/>
    <tag k="addr:street" v="Puckerbrush East Road"/>
    <tag k="addr:state" v="VT"/>
    <tag k="ref:vcgi:esiteid" v="760041"/>
  </node>
  <node id="-1605" visible="true" lat="44.66862578" lon="-72.57451905">
    <tag k="addr:city" v="Hyde Park"/>
    <tag k="addr:housenumber" v="784"/>
    <tag k="addr:street" v="Thompson Hill Road"/>
    <tag k="addr:state" v="VT"/>
    <tag k="ref:vcgi:esiteid" v="761503"/>
  </node>
  <node id="-1606" visible="true" lat="44.59585612" lon="-72.5615337">
    <tag k="addr:city" v="Hyde Park"/>
    <tag k="addr:housenumber" v="1699"/>
    <tag k="addr:street" v="Cleveland Corners Road"/>
    <tag k="addr:state" v="VT"/>
    <tag k="ref:vcgi:esiteid" v="762067"/>
  </node>
  <node id="-1607" visible="true" lat="44.60314539" lon="-72.57948438">
    <tag k="addr:city" v="Hyde Park"/>
    <tag k="addr:housenumber" v="169"/>
    <tag k="addr:street" v="Powers Road"/>
    <tag k="addr:state" v="VT"/>
    <tag k="ref:vcgi:esiteid" v="762068"/>
  </node>
  <node id="-1616" visible="true" lat="44.67376957" lon="-72.59939061">
    <tag k="addr:city" v="Hyde Park"/>
    <tag k="addr:housenumber" v="139"/>
    <tag k="addr:street" v="Mudgett Hill Road"/>
    <tag k="addr:state" v="VT"/>
    <tag k="ref:vcgi:esiteid" v="762432"/>
  </node>
  <node id="-1617" visible="true" lat="44.63540093" lon="-72.60770644">
    <tag k="addr:city" v="Hyde Park"/>
    <tag k="addr:housenumber" v="500"/>
    <tag k="addr:street" v="Grimes Road"/>
    <tag k="addr:state" v="VT"/>
    <tag k="ref:vcgi:esiteid" v="762524"/>
  </node>
  <node id="-1618" visible="true" lat="44.58975645" lon="-72.61824101">
    <tag k="addr:city" v="Hyde Park"/>
    <tag k="addr:housenumber" v="160"/>
    <tag k="addr:street" v="Morey Road"/>
    <tag k="addr:state" v="VT"/>
    <tag k="ref:vcgi:esiteid" v="763360"/>
  </node>
  <node id="-1619" visible="true" lat="44.60599149" lon="-72.63476168">
    <tag k="addr:city" v="Hyde Park"/>
    <tag k="addr:housenumber" v="391"/>
    <tag k="addr:street" v="Cricket Hill Road"/>
    <tag k="addr:state" v="VT"/>
    <tag k="ref:vcgi:esiteid" v="763745"/>
  </node>
  <node id="-1620" visible="true" lat="44.60978683" lon="-72.62153256">
    <tag k="addr:city" v="Hyde Park"/>
    <tag k="addr:housenumber" v="15"/>
    <tag k="addr:street" v="Tilly Drive"/>
    <tag k="addr:state" v="VT"/>
    <tag k="ref:vcgi:esiteid" v="763746"/>
  </node>
  <node id="-1621" visible="true" lat="44.61576265" lon="-72.57782386">
    <tag k="addr:city" v="Hyde Park"/>
    <tag k="addr:housenumber" v="532"/>
    <tag k="addr:street" v="Mountain Estates Drive"/>
    <tag k="addr:state" v="VT"/>
    <tag k="ref:vcgi:esiteid" v="763829"/>
  </node>
  <node id="-1622" visible="true" lat="44.61708384" lon="-72.5788706">
    <tag k="addr:city" v="Hyde Park"/>
    <tag k="addr:housenumber" v="757"/>
    <tag k="addr:street" v="Mountain Estates Drive"/>
    <tag k="addr:state" v="VT"/>
    <tag k="ref:vcgi:esiteid" v="763836"/>
  </node>
  <node id="-1623" visible="true" lat="44.59728984" lon="-72.5948578">
    <tag k="addr:city" v="Hyde Park"/>
    <tag k="addr:housenumber" v="365"/>
    <tag k="addr:street" v="Noyes Farm Road"/>
    <tag k="addr:state" v="VT"/>
    <tag k="ref:vcgi:esiteid" v="764097"/>
  </node>
  <node id="-1624" visible="true" lat="44.62002168" lon="-72.60393986">
    <tag k="addr:city" v="Hyde Park"/>
    <tag k="addr:housenumber" v="1789"/>
    <tag k="addr:street" v="Vermont Route 100"/>
    <tag k="addr:state" v="VT"/>
    <tag k="ref:vcgi:esiteid" v="764118"/>
  </node>
  <node id="-1625" visible="true" lat="44.58214508" lon="-72.54452983">
    <tag k="addr:city" v="Hyde Park"/>
    <tag k="addr:housenumber" v="260"/>
    <tag k="addr:street" v="Garfield Road"/>
    <tag k="addr:state" v="VT"/>
    <tag k="ref:vcgi:esiteid" v="764119"/>
  </node>
  <node id="-1626" visible="true" lat="44.63432903" lon="-72.54846151">
    <tag k="addr:city" v="Hyde Park"/>
    <tag k="addr:housenumber" v="699"/>
    <tag k="addr:street" v="Green River Woods Drive"/>
    <tag k="addr:state" v="VT"/>
    <tag k="ref:vcgi:esiteid" v="764120"/>
  </node>
  <node id="-1627" visible="true" lat="44.61466698" lon="-72.57924447">
    <tag k="addr:city" v="Hyde Park"/>
    <tag k="addr:housenumber" v="583"/>
    <tag k="addr:street" v="Mountain Estates Drive"/>
    <tag k="addr:state" v="VT"/>
    <tag k="ref:vcgi:esiteid" v="764394"/>
  </node>
  <node id="-1628" visible="true" lat="44.64855381" lon="-72.59890001">
    <tag k="addr:city" v="Hyde Park"/>
    <tag k="addr:housenumber" v="114"/>
    <tag k="addr:street" v="Fleury Road"/>
    <tag k="addr:state" v="VT"/>
    <tag k="ref:vcgi:esiteid" v="764674"/>
  </node>
  <node id="-1629" visible="true" lat="44.62129521" lon="-72.61086433">
    <tag k="addr:city" v="Hyde Park"/>
    <tag k="addr:housenumber" v="473"/>
    <tag k="addr:street" v="Webster Road"/>
    <tag k="addr:state" v="VT"/>
    <tag k="ref:vcgi:esiteid" v="765313"/>
  </node>
  <node id="-1630" visible="true" lat="44.64069047" lon="-72.6223342">
    <tag k="addr:city" v="Hyde Park"/>
    <tag k="addr:housenumber" v="189"/>
    <tag k="addr:street" v="Gihon Bend Drive"/>
    <tag k="addr:state" v="VT"/>
    <tag k="ref:vcgi:esiteid" v="765314"/>
  </node>
  <node id="-1631" visible="true" lat="44.58990617" lon="-72.60676016">
    <tag k="addr:city" v="Hyde Park"/>
    <tag k="addr:housenumber" v="503"/>
    <tag k="addr:street" v="East Main Street"/>
    <tag k="addr:state" v="VT"/>
    <tag k="ref:vcgi:esiteid" v="765315"/>
  </node>
  <node id="-1632" visible="true" lat="44.60196482" lon="-72.57959158">
    <tag k="addr:city" v="Hyde Park"/>
    <tag k="addr:housenumber" v="450"/>
    <tag k="addr:street" v="Brook Road"/>
    <tag k="addr:state" v="VT"/>
    <tag k="ref:vcgi:esiteid" v="765316"/>
  </node>
  <node id="-1633" visible="true" lat="44.58982175" lon="-72.60660829">
    <tag k="addr:city" v="Hyde Park"/>
    <tag k="addr:housenumber" v="505"/>
    <tag k="addr:street" v="East Main Street"/>
    <tag k="addr:state" v="VT"/>
    <tag k="ref:vcgi:esiteid" v="765317"/>
  </node>
  <node id="-1634" visible="true" lat="44.61444771" lon="-72.57854511">
    <tag k="addr:city" v="Hyde Park"/>
    <tag k="addr:housenumber" v="567"/>
    <tag k="addr:street" v="Mountain Estates Drive"/>
    <tag k="addr:state" v="VT"/>
    <tag k="ref:vcgi:esiteid" v="765326"/>
  </node>
  <node id="-1635" visible="true" lat="44.62362303" lon="-72.57900434">
    <tag k="addr:city" v="Hyde Park"/>
    <tag k="addr:housenumber" v="37"/>
    <tag k="addr:street" v="Sugar Ridge Lane"/>
    <tag k="addr:state" v="VT"/>
    <tag k="ref:vcgi:esiteid" v="765327"/>
  </node>
  <node id="-1636" visible="true" lat="44.62317986" lon="-72.57941715">
    <tag k="addr:city" v="Hyde Park"/>
    <tag k="addr:housenumber" v="101"/>
    <tag k="addr:street" v="Sugar Ridge Lane"/>
    <tag k="addr:state" v="VT"/>
    <tag k="ref:vcgi:esiteid" v="765328"/>
  </node>
</osm>
