<?xml version="1.0" encoding="UTF-8"?>
<osm version="0.6" generator="JOSM">
  <node id="-100" visible="true" lat="43.61257171" lon="-73.10977935">
    <tag k="addr:city" v="Ira"/>
    <tag k="addr:housenumber" v="1308"/>
    <tag k="addr:street" v="Blue Star Drive"/>
    <tag k="addr:state" v="VT"/>
    <tag k="ref:vcgi:esiteid" v="133258"/>
  </node>
  <node id="-101" visible="true" lat="43.6101007" lon="-73.10387101">
    <tag k="addr:city" v="Ira"/>
    <tag k="addr:housenumber" v="848"/>
    <tag k="addr:street" v="Blue Star Drive"/>
    <tag k="addr:state" v="VT"/>
    <tag k="ref:vcgi:esiteid" v="133259"/>
  </node>
  <node id="-102" visible="true" lat="43.61000079" lon="-73.10564066">
    <tag k="addr:city" v="Ira"/>
    <tag k="addr:housenumber" v="924"/>
    <tag k="addr:street" v="Blue Star Drive"/>
    <tag k="addr:state" v="VT"/>
    <tag k="ref:vcgi:esiteid" v="133260"/>
  </node>
  <node id="-103" visible="true" lat="43.61018096" lon="-73.10424588">
    <tag k="addr:city" v="Ira"/>
    <tag k="addr:housenumber" v="862"/>
    <tag k="addr:street" v="Blue Star Drive"/>
    <tag k="addr:state" v="VT"/>
    <tag k="ref:vcgi:esiteid" v="133261"/>
  </node>
  <node id="-104" visible="true" lat="43.61006753" lon="-73.10348981">
    <tag k="addr:city" v="Ira"/>
    <tag k="addr:housenumber" v="826"/>
    <tag k="addr:street" v="Blue Star Drive"/>
    <tag k="addr:state" v="VT"/>
    <tag k="ref:vcgi:esiteid" v="133262"/>
  </node>
  <node id="-105" visible="true" lat="43.61003609" lon="-73.10454577">
    <tag k="addr:city" v="Ira"/>
    <tag k="addr:housenumber" v="882"/>
    <tag k="addr:street" v="Blue Star Drive"/>
    <tag k="addr:state" v="VT"/>
    <tag k="ref:vcgi:esiteid" v="133263"/>
  </node>
  <node id="-106" visible="true" lat="43.60989092" lon="-73.10190919">
    <tag k="addr:city" v="Ira"/>
    <tag k="addr:housenumber" v="750"/>
    <tag k="addr:street" v="Blue Star Drive"/>
    <tag k="addr:state" v="VT"/>
    <tag k="ref:vcgi:esiteid" v="133264"/>
  </node>
  <node id="-107" visible="true" lat="43.60956752" lon="-73.10372317">
    <tag k="addr:city" v="Ira"/>
    <tag k="addr:housenumber" v="829"/>
    <tag k="addr:street" v="Blue Star Drive"/>
    <tag k="addr:state" v="VT"/>
    <tag k="ref:vcgi:esiteid" v="133265"/>
  </node>
  <node id="-108" visible="true" lat="43.60950448" lon="-73.09952335">
    <tag k="addr:city" v="Ira"/>
    <tag k="addr:housenumber" v="642"/>
    <tag k="addr:street" v="Blue Star Drive"/>
    <tag k="addr:state" v="VT"/>
    <tag k="ref:vcgi:esiteid" v="133266"/>
  </node>
  <node id="-109" visible="true" lat="43.60917815" lon="-73.09829705">
    <tag k="addr:city" v="Ira"/>
    <tag k="addr:housenumber" v="560"/>
    <tag k="addr:street" v="Blue Star Drive"/>
    <tag k="addr:state" v="VT"/>
    <tag k="ref:vcgi:esiteid" v="133267"/>
  </node>
  <node id="-110" visible="true" lat="43.60915695" lon="-73.09879367">
    <tag k="addr:city" v="Ira"/>
    <tag k="addr:housenumber" v="582"/>
    <tag k="addr:street" v="Blue Star Drive"/>
    <tag k="addr:state" v="VT"/>
    <tag k="ref:vcgi:esiteid" v="133268"/>
  </node>
  <node id="-111" visible="true" lat="43.60901653" lon="-73.10940646">
    <tag k="addr:city" v="Ira"/>
    <tag k="addr:housenumber" v="1122"/>
    <tag k="addr:street" v="Blue Star Drive"/>
    <tag k="addr:state" v="VT"/>
    <tag k="ref:vcgi:esiteid" v="133269"/>
  </node>
  <node id="-112" visible="true" lat="43.60886644" lon="-73.10757584">
    <tag k="addr:city" v="Ira"/>
    <tag k="addr:housenumber" v="1077"/>
    <tag k="addr:street" v="Blue Star Drive"/>
    <tag k="addr:state" v="VT"/>
    <tag k="ref:vcgi:esiteid" v="133270"/>
  </node>
  <node id="-113" visible="true" lat="43.60879596" lon="-73.1044863">
    <tag k="addr:city" v="Ira"/>
    <tag k="addr:housenumber" v="875"/>
    <tag k="addr:street" v="Blue Star Drive"/>
    <tag k="addr:state" v="VT"/>
    <tag k="ref:vcgi:esiteid" v="133271"/>
  </node>
  <node id="-114" visible="true" lat="43.60807369" lon="-73.09786121">
    <tag k="addr:city" v="Ira"/>
    <tag k="addr:housenumber" v="515"/>
    <tag k="addr:street" v="Blue Star Drive"/>
    <tag k="addr:state" v="VT"/>
    <tag k="ref:vcgi:esiteid" v="133272"/>
  </node>
  <node id="-115" visible="true" lat="43.60821665" lon="-73.09696562">
    <tag k="addr:city" v="Ira"/>
    <tag k="addr:housenumber" v="466"/>
    <tag k="addr:street" v="Blue Star Drive"/>
    <tag k="addr:state" v="VT"/>
    <tag k="ref:vcgi:esiteid" v="133273"/>
  </node>
  <node id="-116" visible="true" lat="43.6081489" lon="-73.0958258">
    <tag k="addr:city" v="Ira"/>
    <tag k="addr:housenumber" v="436"/>
    <tag k="addr:street" v="Blue Star Drive"/>
    <tag k="addr:state" v="VT"/>
    <tag k="ref:vcgi:esiteid" v="133274"/>
  </node>
  <node id="-117" visible="true" lat="43.60775023" lon="-73.10124061">
    <tag k="addr:city" v="Ira"/>
    <tag k="addr:housenumber" v="112"/>
    <tag k="addr:street" v="Ira Birdseye Road"/>
    <tag k="addr:state" v="VT"/>
    <tag k="ref:vcgi:esiteid" v="133275"/>
  </node>
  <node id="-118" visible="true" lat="43.60767536" lon="-73.09692468">
    <tag k="addr:city" v="Ira"/>
    <tag k="addr:housenumber" v="445"/>
    <tag k="addr:street" v="Blue Star Drive"/>
    <tag k="addr:state" v="VT"/>
    <tag k="ref:vcgi:esiteid" v="133276"/>
  </node>
  <node id="-119" visible="true" lat="43.60749235" lon="-73.1077508">
    <tag k="addr:city" v="Ira"/>
    <tag k="addr:housenumber" v="1109"/>
    <tag k="addr:street" v="Blue Star Drive"/>
    <tag k="addr:state" v="VT"/>
    <tag k="ref:vcgi:esiteid" v="133277"/>
  </node>
  <node id="-120" visible="true" lat="43.60727716" lon="-73.09212807">
    <tag k="addr:city" v="Ira"/>
    <tag k="addr:housenumber" v="209"/>
    <tag k="addr:street" v="Blue Star Drive"/>
    <tag k="addr:state" v="VT"/>
    <tag k="ref:vcgi:esiteid" v="133278"/>
  </node>
  <node id="-121" visible="true" lat="43.60712185" lon="-73.09271815">
    <tag k="addr:city" v="Ira"/>
    <tag k="addr:housenumber" v="241"/>
    <tag k="addr:street" v="Blue Star Drive"/>
    <tag k="addr:state" v="VT"/>
    <tag k="ref:vcgi:esiteid" v="133279"/>
  </node>
  <node id="-122" visible="true" lat="43.60703562" lon="-73.09311793">
    <tag k="addr:city" v="Ira"/>
    <tag k="addr:housenumber" v="257"/>
    <tag k="addr:street" v="Blue Star Drive"/>
    <tag k="addr:state" v="VT"/>
    <tag k="ref:vcgi:esiteid" v="133280"/>
  </node>
  <node id="-123" visible="true" lat="43.60695238" lon="-73.0935608">
    <tag k="addr:city" v="Ira"/>
    <tag k="addr:housenumber" v="281"/>
    <tag k="addr:street" v="Blue Star Drive"/>
    <tag k="addr:state" v="VT"/>
    <tag k="ref:vcgi:esiteid" v="133282"/>
  </node>
  <node id="-124" visible="true" lat="43.60662698" lon="-73.09982532">
    <tag k="addr:city" v="Ira"/>
    <tag k="addr:housenumber" v="199"/>
    <tag k="addr:street" v="Ira Birdseye Road"/>
    <tag k="addr:state" v="VT"/>
    <tag k="ref:vcgi:esiteid" v="133284"/>
  </node>
  <node id="-125" visible="true" lat="43.60553006" lon="-73.09407931">
    <tag k="addr:city" v="Ira"/>
    <tag k="addr:housenumber" v="289"/>
    <tag k="addr:street" v="Blue Star Drive"/>
    <tag k="addr:state" v="VT"/>
    <tag k="ref:vcgi:esiteid" v="133285"/>
  </node>
  <node id="-126" visible="true" lat="43.60497449" lon="-73.09998082">
    <tag k="addr:city" v="Ira"/>
    <tag k="addr:housenumber" v="315"/>
    <tag k="addr:street" v="Ira Birdseye Road"/>
    <tag k="addr:state" v="VT"/>
    <tag k="ref:vcgi:esiteid" v="133286"/>
  </node>
  <node id="-127" visible="true" lat="43.60216361" lon="-73.10074742">
    <tag k="addr:city" v="Ira"/>
    <tag k="addr:housenumber" v="506"/>
    <tag k="addr:street" v="Ira Birdseye Road"/>
    <tag k="addr:state" v="VT"/>
    <tag k="ref:vcgi:esiteid" v="133287"/>
  </node>
  <node id="-128" visible="true" lat="43.60161223" lon="-73.09991112">
    <tag k="addr:city" v="Ira"/>
    <tag k="addr:housenumber" v="541"/>
    <tag k="addr:street" v="Ira Birdseye Road"/>
    <tag k="addr:state" v="VT"/>
    <tag k="ref:vcgi:esiteid" v="133288"/>
  </node>
  <node id="-129" visible="true" lat="43.60113762" lon="-73.10144058">
    <tag k="addr:city" v="Ira"/>
    <tag k="addr:housenumber" v="606"/>
    <tag k="addr:street" v="Ira Birdseye Road"/>
    <tag k="addr:state" v="VT"/>
    <tag k="ref:vcgi:esiteid" v="133289"/>
  </node>
  <node id="-130" visible="true" lat="43.60024699" lon="-73.10067142">
    <tag k="addr:city" v="Ira"/>
    <tag k="addr:housenumber" v="635"/>
    <tag k="addr:street" v="Ira Birdseye Road"/>
    <tag k="addr:state" v="VT"/>
    <tag k="ref:vcgi:esiteid" v="133290"/>
  </node>
  <node id="-131" visible="true" lat="43.59984918" lon="-73.10193437">
    <tag k="addr:city" v="Ira"/>
    <tag k="addr:housenumber" v="690"/>
    <tag k="addr:street" v="Ira Birdseye Road"/>
    <tag k="addr:state" v="VT"/>
    <tag k="ref:vcgi:esiteid" v="133291"/>
  </node>
  <node id="-132" visible="true" lat="43.59821878" lon="-73.0994299">
    <tag k="addr:city" v="Ira"/>
    <tag k="addr:housenumber" v="815"/>
    <tag k="addr:street" v="Ira Birdseye Road"/>
    <tag k="addr:state" v="VT"/>
    <tag k="ref:vcgi:esiteid" v="133292"/>
  </node>
  <node id="-133" visible="true" lat="43.59716453" lon="-73.10015511">
    <tag k="addr:city" v="Ira"/>
    <tag k="addr:housenumber" v="885"/>
    <tag k="addr:street" v="Ira Birdseye Road"/>
    <tag k="addr:state" v="VT"/>
    <tag k="ref:vcgi:esiteid" v="133293"/>
  </node>
  <node id="-134" visible="true" lat="43.58309439" lon="-73.10097813">
    <tag k="addr:city" v="Ira"/>
    <tag k="addr:housenumber" v="1876"/>
    <tag k="addr:street" v="Ira Birdseye Road"/>
    <tag k="addr:state" v="VT"/>
    <tag k="ref:vcgi:esiteid" v="133294"/>
  </node>
  <node id="-135" visible="true" lat="43.56965356" lon="-73.04970687">
    <tag k="addr:city" v="Ira"/>
    <tag k="addr:housenumber" v="3691"/>
    <tag k="addr:street" v="West Road"/>
    <tag k="addr:state" v="VT"/>
    <tag k="ref:vcgi:esiteid" v="133295"/>
  </node>
  <node id="-136" visible="true" lat="43.56949155" lon="-73.04883564">
    <tag k="addr:city" v="Ira"/>
    <tag k="addr:housenumber" v="3672"/>
    <tag k="addr:street" v="West Road"/>
    <tag k="addr:state" v="VT"/>
    <tag k="ref:vcgi:esiteid" v="133296"/>
  </node>
  <node id="-137" visible="true" lat="43.56886721" lon="-73.04956353">
    <tag k="addr:city" v="Ira"/>
    <tag k="addr:housenumber" v="3637"/>
    <tag k="addr:street" v="West Road"/>
    <tag k="addr:state" v="VT"/>
    <tag k="ref:vcgi:esiteid" v="133297"/>
  </node>
  <node id="-138" visible="true" lat="43.56884594" lon="-73.04543414">
    <tag k="addr:city" v="Ira"/>
    <tag k="addr:housenumber" v="3636"/>
    <tag k="addr:street" v="West Road"/>
    <tag k="addr:state" v="VT"/>
    <tag k="ref:vcgi:esiteid" v="133298"/>
  </node>
  <node id="-139" visible="true" lat="43.56728304" lon="-73.04913654">
    <tag k="addr:city" v="Ira"/>
    <tag k="addr:housenumber" v="3530"/>
    <tag k="addr:street" v="West Road"/>
    <tag k="addr:state" v="VT"/>
    <tag k="ref:vcgi:esiteid" v="133299"/>
  </node>
  <node id="-140" visible="true" lat="43.56502903" lon="-73.0515272">
    <tag k="addr:city" v="Ira"/>
    <tag k="addr:housenumber" v="3333"/>
    <tag k="addr:street" v="West Road"/>
    <tag k="addr:state" v="VT"/>
    <tag k="ref:vcgi:esiteid" v="133300"/>
  </node>
  <node id="-141" visible="true" lat="43.55912232" lon="-73.05732059">
    <tag k="addr:city" v="Ira"/>
    <tag k="addr:housenumber" v="2832"/>
    <tag k="addr:street" v="West Road"/>
    <tag k="addr:state" v="VT"/>
    <tag k="ref:vcgi:esiteid" v="133301"/>
  </node>
  <node id="-142" visible="true" lat="43.55864313" lon="-73.05835354">
    <tag k="addr:city" v="Ira"/>
    <tag k="addr:housenumber" v="2768"/>
    <tag k="addr:street" v="West Road"/>
    <tag k="addr:state" v="VT"/>
    <tag k="ref:vcgi:esiteid" v="133302"/>
  </node>
  <node id="-143" visible="true" lat="43.55804142" lon="-73.05826862">
    <tag k="addr:city" v="Ira"/>
    <tag k="addr:housenumber" v="2740"/>
    <tag k="addr:street" v="West Road"/>
    <tag k="addr:state" v="VT"/>
    <tag k="ref:vcgi:esiteid" v="133303"/>
  </node>
  <node id="-144" visible="true" lat="43.55737676" lon="-73.0608855">
    <tag k="addr:city" v="Ira"/>
    <tag k="addr:housenumber" v="2616"/>
    <tag k="addr:street" v="West Road"/>
    <tag k="addr:state" v="VT"/>
    <tag k="ref:vcgi:esiteid" v="133304"/>
  </node>
  <node id="-145" visible="true" lat="43.55729293" lon="-73.06116485">
    <tag k="addr:city" v="Ira"/>
    <tag k="addr:housenumber" v="2598"/>
    <tag k="addr:street" v="West Road"/>
    <tag k="addr:state" v="VT"/>
    <tag k="ref:vcgi:esiteid" v="133305"/>
  </node>
  <node id="-146" visible="true" lat="43.55682547" lon="-73.06531675">
    <tag k="addr:city" v="Ira"/>
    <tag k="addr:housenumber" v="2361"/>
    <tag k="addr:street" v="West Road"/>
    <tag k="addr:state" v="VT"/>
    <tag k="ref:vcgi:esiteid" v="133306"/>
  </node>
  <node id="-147" visible="true" lat="43.55556869" lon="-73.06415557">
    <tag k="addr:city" v="Ira"/>
    <tag k="addr:housenumber" v="2402"/>
    <tag k="addr:street" v="West Road"/>
    <tag k="addr:state" v="VT"/>
    <tag k="ref:vcgi:esiteid" v="133307"/>
  </node>
  <node id="-148" visible="true" lat="43.55541979" lon="-73.06762">
    <tag k="addr:city" v="Ira"/>
    <tag k="addr:housenumber" v="1102"/>
    <tag k="addr:street" v="Cross Road"/>
    <tag k="addr:state" v="VT"/>
    <tag k="ref:vcgi:esiteid" v="133308"/>
  </node>
  <node id="-149" visible="true" lat="43.55439951" lon="-73.06770224">
    <tag k="addr:city" v="Ira"/>
    <tag k="addr:housenumber" v="1069"/>
    <tag k="addr:street" v="Cross Road"/>
    <tag k="addr:state" v="VT"/>
    <tag k="ref:vcgi:esiteid" v="133309"/>
  </node>
  <node id="-150" visible="true" lat="43.55452369" lon="-73.0647585">
    <tag k="addr:city" v="Ira"/>
    <tag k="addr:housenumber" v="2330"/>
    <tag k="addr:street" v="West Road"/>
    <tag k="addr:state" v="VT"/>
    <tag k="ref:vcgi:esiteid" v="133310"/>
  </node>
  <node id="-151" visible="true" lat="43.55378613" lon="-73.04685831">
    <tag k="addr:city" v="Ira"/>
    <tag k="addr:housenumber" v="444"/>
    <tag k="addr:street" v="Pyka Road"/>
    <tag k="addr:state" v="VT"/>
    <tag k="ref:vcgi:esiteid" v="133311"/>
  </node>
  <node id="-152" visible="true" lat="43.55373311" lon="-73.07118284">
    <tag k="addr:city" v="Ira"/>
    <tag k="addr:housenumber" v="156"/>
    <tag k="addr:street" v="Days Road"/>
    <tag k="addr:state" v="VT"/>
    <tag k="ref:vcgi:esiteid" v="133312"/>
  </node>
  <node id="-153" visible="true" lat="43.55251771" lon="-73.04369898">
    <tag k="addr:city" v="Ira"/>
    <tag k="addr:housenumber" v="172"/>
    <tag k="addr:street" v="Pyka Road"/>
    <tag k="addr:state" v="VT"/>
    <tag k="ref:vcgi:esiteid" v="133313"/>
  </node>
  <node id="-154" visible="true" lat="43.55214717" lon="-73.07236636">
    <tag k="addr:city" v="Ira"/>
    <tag k="addr:housenumber" v="157"/>
    <tag k="addr:street" v="Days Road"/>
    <tag k="addr:state" v="VT"/>
    <tag k="ref:vcgi:esiteid" v="133314"/>
  </node>
  <node id="-155" visible="true" lat="43.55225764" lon="-73.06657897">
    <tag k="addr:city" v="Ira"/>
    <tag k="addr:housenumber" v="867"/>
    <tag k="addr:street" v="Cross Road"/>
    <tag k="addr:state" v="VT"/>
    <tag k="ref:vcgi:esiteid" v="133315"/>
  </node>
  <node id="-156" visible="true" lat="43.55142969" lon="-73.05609452">
    <tag k="addr:city" v="Ira"/>
    <tag k="addr:housenumber" v="338"/>
    <tag k="addr:street" v="Scotts Road"/>
    <tag k="addr:state" v="VT"/>
    <tag k="ref:vcgi:esiteid" v="133317"/>
  </node>
  <node id="-157" visible="true" lat="43.55142148" lon="-73.04013675">
    <tag k="addr:city" v="Ira"/>
    <tag k="addr:housenumber" v="58"/>
    <tag k="addr:street" v="Vermont Route 133"/>
    <tag k="addr:state" v="VT"/>
    <tag k="ref:vcgi:esiteid" v="133318"/>
  </node>
  <node id="-158" visible="true" lat="43.55084656" lon="-73.06912346">
    <tag k="addr:city" v="Ira"/>
    <tag k="addr:housenumber" v="1970"/>
    <tag k="addr:street" v="West Road"/>
    <tag k="addr:state" v="VT"/>
    <tag k="ref:vcgi:esiteid" v="133319"/>
  </node>
  <node id="-159" visible="true" lat="43.5503486" lon="-73.04138292">
    <tag k="addr:city" v="Ira"/>
    <tag k="addr:housenumber" v="150"/>
    <tag k="addr:street" v="Vermont Route 133"/>
    <tag k="addr:state" v="VT"/>
    <tag k="ref:vcgi:esiteid" v="133320"/>
  </node>
  <node id="-160" visible="true" lat="43.55046574" lon="-73.03971998">
    <tag k="addr:city" v="Ira"/>
    <tag k="addr:housenumber" v="171"/>
    <tag k="addr:street" v="Vermont Route 133"/>
    <tag k="addr:state" v="VT"/>
    <tag k="ref:vcgi:esiteid" v="133321"/>
  </node>
  <node id="-161" visible="true" lat="43.55000765" lon="-73.06192948">
    <tag k="addr:city" v="Ira"/>
    <tag k="addr:housenumber" v="864"/>
    <tag k="addr:street" v="Cross Road"/>
    <tag k="addr:state" v="VT"/>
    <tag k="ref:vcgi:esiteid" v="133322"/>
  </node>
  <node id="-162" visible="true" lat="43.54989436" lon="-73.04392723">
    <tag k="addr:city" v="Ira"/>
    <tag k="addr:housenumber" v="171"/>
    <tag k="addr:street" v="Pyka Road"/>
    <tag k="addr:state" v="VT"/>
    <tag k="ref:vcgi:esiteid" v="133323"/>
  </node>
  <node id="-163" visible="true" lat="43.54966181" lon="-73.0569299">
    <tag k="addr:city" v="Ira"/>
    <tag k="addr:housenumber" v="202"/>
    <tag k="addr:street" v="Scotts Road"/>
    <tag k="addr:state" v="VT"/>
    <tag k="ref:vcgi:esiteid" v="133324"/>
  </node>
  <node id="-164" visible="true" lat="43.5497044" lon="-73.04179864">
    <tag k="addr:city" v="Ira"/>
    <tag k="addr:housenumber" v="198"/>
    <tag k="addr:street" v="Vermont Route 133"/>
    <tag k="addr:state" v="VT"/>
    <tag k="ref:vcgi:esiteid" v="133325"/>
  </node>
  <node id="-165" visible="true" lat="43.54974554" lon="-73.04044412">
    <tag k="addr:city" v="Ira"/>
    <tag k="addr:housenumber" v="173"/>
    <tag k="addr:street" v="Vermont Route 133"/>
    <tag k="addr:state" v="VT"/>
    <tag k="ref:vcgi:esiteid" v="133326"/>
  </node>
  <node id="-166" visible="true" lat="43.54915733" lon="-73.04215603">
    <tag k="addr:city" v="Ira"/>
    <tag k="addr:housenumber" v="234"/>
    <tag k="addr:street" v="Vermont Route 133"/>
    <tag k="addr:state" v="VT"/>
    <tag k="ref:vcgi:esiteid" v="133327"/>
  </node>
  <node id="-167" visible="true" lat="43.54824796" lon="-73.07132447">
    <tag k="addr:city" v="Ira"/>
    <tag k="addr:housenumber" v="1766"/>
    <tag k="addr:street" v="West Road"/>
    <tag k="addr:state" v="VT"/>
    <tag k="ref:vcgi:esiteid" v="133328"/>
  </node>
  <node id="-168" visible="true" lat="43.54819402" lon="-73.08034264">
    <tag k="addr:city" v="Ira"/>
    <tag k="addr:housenumber" v="1375"/>
    <tag k="addr:street" v="West Road"/>
    <tag k="addr:state" v="VT"/>
    <tag k="ref:vcgi:esiteid" v="133329"/>
  </node>
  <node id="-169" visible="true" lat="43.54813531" lon="-73.05693776">
    <tag k="addr:city" v="Ira"/>
    <tag k="addr:housenumber" v="90"/>
    <tag k="addr:street" v="Scotts Road"/>
    <tag k="addr:state" v="VT"/>
    <tag k="ref:vcgi:esiteid" v="133330"/>
  </node>
  <node id="-170" visible="true" lat="43.54762685" lon="-73.07366945">
    <tag k="addr:city" v="Ira"/>
    <tag k="addr:housenumber" v="1633"/>
    <tag k="addr:street" v="West Road"/>
    <tag k="addr:state" v="VT"/>
    <tag k="ref:vcgi:esiteid" v="133331"/>
  </node>
  <node id="-171" visible="true" lat="43.54758305" lon="-73.07147464">
    <tag k="addr:city" v="Ira"/>
    <tag k="addr:housenumber" v="1728"/>
    <tag k="addr:street" v="West Road"/>
    <tag k="addr:state" v="VT"/>
    <tag k="ref:vcgi:esiteid" v="133332"/>
  </node>
  <node id="-172" visible="true" lat="43.54706862" lon="-73.07599796">
    <tag k="addr:city" v="Ira"/>
    <tag k="addr:housenumber" v="1516"/>
    <tag k="addr:street" v="West Road"/>
    <tag k="addr:state" v="VT"/>
    <tag k="ref:vcgi:esiteid" v="133333"/>
  </node>
  <node id="-173" visible="true" lat="43.54674205" lon="-73.07362637">
    <tag k="addr:city" v="Ira"/>
    <tag k="addr:housenumber" v="1636"/>
    <tag k="addr:street" v="West Road"/>
    <tag k="addr:state" v="VT"/>
    <tag k="ref:vcgi:esiteid" v="133334"/>
  </node>
  <node id="-174" visible="true" lat="43.54678354" lon="-73.07835446">
    <tag k="addr:city" v="Ira"/>
    <tag k="addr:housenumber" v="1385"/>
    <tag k="addr:street" v="West Road"/>
    <tag k="addr:state" v="VT"/>
    <tag k="ref:vcgi:esiteid" v="133335"/>
  </node>
  <node id="-175" visible="true" lat="43.54669078" lon="-73.08199059">
    <tag k="addr:city" v="Ira"/>
    <tag k="addr:housenumber" v="94"/>
    <tag k="addr:street" v="Middletown Hill Road"/>
    <tag k="addr:state" v="VT"/>
    <tag k="ref:vcgi:esiteid" v="133336"/>
  </node>
  <node id="-176" visible="true" lat="43.54627772" lon="-73.07861198">
    <tag k="addr:city" v="Ira"/>
    <tag k="addr:housenumber" v="1348"/>
    <tag k="addr:street" v="West Road"/>
    <tag k="addr:state" v="VT"/>
    <tag k="ref:vcgi:esiteid" v="133337"/>
  </node>
  <node id="-177" visible="true" lat="43.54623984" lon="-73.0803624">
    <tag k="addr:city" v="Ira"/>
    <tag k="addr:housenumber" v="1287"/>
    <tag k="addr:street" v="West Road"/>
    <tag k="addr:state" v="VT"/>
    <tag k="ref:vcgi:esiteid" v="133338"/>
  </node>
  <node id="-178" visible="true" lat="43.54619844" lon="-73.04516792">
    <tag k="addr:city" v="Ira"/>
    <tag k="addr:housenumber" v="500"/>
    <tag k="addr:street" v="Vermont Route 133"/>
    <tag k="addr:state" v="VT"/>
    <tag k="ref:vcgi:esiteid" v="133339"/>
  </node>
  <node id="-179" visible="true" lat="43.5461879" lon="-73.05572816">
    <tag k="addr:city" v="Ira"/>
    <tag k="addr:housenumber" v="228"/>
    <tag k="addr:street" v="Cross Road"/>
    <tag k="addr:state" v="VT"/>
    <tag k="ref:vcgi:esiteid" v="133340"/>
  </node>
  <node id="-180" visible="true" lat="43.54574628" lon="-73.04048156">
    <tag k="addr:city" v="Ira"/>
    <tag k="addr:housenumber" v="277"/>
    <tag k="addr:street" v="Weaver Hill Road"/>
    <tag k="addr:state" v="VT"/>
    <tag k="ref:vcgi:esiteid" v="133341"/>
  </node>
  <node id="-181" visible="true" lat="43.54533364" lon="-73.05743149">
    <tag k="addr:city" v="Ira"/>
    <tag k="addr:housenumber" v="195"/>
    <tag k="addr:street" v="Cross Road"/>
    <tag k="addr:state" v="VT"/>
    <tag k="ref:vcgi:esiteid" v="133342"/>
  </node>
  <node id="-182" visible="true" lat="43.54522546" lon="-73.04517279">
    <tag k="addr:city" v="Ira"/>
    <tag k="addr:housenumber" v="47"/>
    <tag k="addr:street" v="Weaver Hill Road"/>
    <tag k="addr:state" v="VT"/>
    <tag k="ref:vcgi:esiteid" v="133343"/>
  </node>
  <node id="-183" visible="true" lat="43.54497775" lon="-73.04109023">
    <tag k="addr:city" v="Ira"/>
    <tag k="addr:housenumber" v="242"/>
    <tag k="addr:street" v="Weaver Hill Road"/>
    <tag k="addr:state" v="VT"/>
    <tag k="ref:vcgi:esiteid" v="133344"/>
  </node>
  <node id="-184" visible="true" lat="43.54487119" lon="-73.04613209">
    <tag k="addr:city" v="Ira"/>
    <tag k="addr:housenumber" v="598"/>
    <tag k="addr:street" v="Vermont Route 133"/>
    <tag k="addr:state" v="VT"/>
    <tag k="ref:vcgi:esiteid" v="133345"/>
  </node>
  <node id="-185" visible="true" lat="43.54475196" lon="-73.04988493">
    <tag k="addr:city" v="Ira"/>
    <tag k="addr:housenumber" v="87"/>
    <tag k="addr:street" v="Kahle Road"/>
    <tag k="addr:state" v="VT"/>
    <tag k="ref:vcgi:esiteid" v="133346"/>
  </node>
  <node id="-186" visible="true" lat="43.54458009" lon="-73.0466446">
    <tag k="addr:city" v="Ira"/>
    <tag k="addr:housenumber" v="636"/>
    <tag k="addr:street" v="Vermont Route 133"/>
    <tag k="addr:state" v="VT"/>
    <tag k="ref:vcgi:esiteid" v="133347"/>
  </node>
  <node id="-187" visible="true" lat="43.54409271" lon="-73.0520851">
    <tag k="addr:city" v="Ira"/>
    <tag k="addr:housenumber" v="934"/>
    <tag k="addr:street" v="Vermont Route 133"/>
    <tag k="addr:state" v="VT"/>
    <tag k="ref:vcgi:esiteid" v="133348"/>
  </node>
  <node id="-188" visible="true" lat="43.54412369" lon="-73.05331153">
    <tag k="addr:city" v="Ira"/>
    <tag k="addr:housenumber" v="994"/>
    <tag k="addr:street" v="Vermont Route 133"/>
    <tag k="addr:state" v="VT"/>
    <tag k="ref:vcgi:esiteid" v="133349"/>
  </node>
  <node id="-189" visible="true" lat="43.54410479" lon="-73.05000193">
    <tag k="addr:city" v="Ira"/>
    <tag k="addr:housenumber" v="808"/>
    <tag k="addr:street" v="Vermont Route 133"/>
    <tag k="addr:state" v="VT"/>
    <tag k="ref:vcgi:esiteid" v="133350"/>
  </node>
  <node id="-190" visible="true" lat="43.54407689" lon="-73.0540074">
    <tag k="addr:city" v="Ira"/>
    <tag k="addr:housenumber" v="1016"/>
    <tag k="addr:street" v="Vermont Route 133"/>
    <tag k="addr:state" v="VT"/>
    <tag k="ref:vcgi:esiteid" v="133351"/>
  </node>
  <node id="-191" visible="true" lat="43.54396424" lon="-73.04706398">
    <tag k="addr:city" v="Ira"/>
    <tag k="addr:housenumber" v="685"/>
    <tag k="addr:street" v="Vermont Route 133"/>
    <tag k="addr:state" v="VT"/>
    <tag k="ref:vcgi:esiteid" v="133352"/>
  </node>
  <node id="-192" visible="true" lat="43.54378709" lon="-73.05271161">
    <tag k="addr:city" v="Ira"/>
    <tag k="addr:housenumber" v="941"/>
    <tag k="addr:street" v="Vermont Route 133"/>
    <tag k="addr:state" v="VT"/>
    <tag k="ref:vcgi:esiteid" v="133353"/>
  </node>
  <node id="-193" visible="true" lat="43.54362869" lon="-73.05171967">
    <tag k="addr:city" v="Ira"/>
    <tag k="addr:housenumber" v="907"/>
    <tag k="addr:street" v="Vermont Route 133"/>
    <tag k="addr:state" v="VT"/>
    <tag k="ref:vcgi:esiteid" v="133354"/>
  </node>
  <node id="-194" visible="true" lat="43.54370221" lon="-73.05087235">
    <tag k="addr:city" v="Ira"/>
    <tag k="addr:housenumber" v="859"/>
    <tag k="addr:street" v="Vermont Route 133"/>
    <tag k="addr:state" v="VT"/>
    <tag k="ref:vcgi:esiteid" v="133355"/>
  </node>
  <node id="-195" visible="true" lat="43.54378664" lon="-73.05328704">
    <tag k="addr:city" v="Ira"/>
    <tag k="addr:housenumber" v="981"/>
    <tag k="addr:street" v="Vermont Route 133"/>
    <tag k="addr:state" v="VT"/>
    <tag k="ref:vcgi:esiteid" v="133356"/>
  </node>
  <node id="-196" visible="true" lat="43.54372153" lon="-73.05054291">
    <tag k="addr:city" v="Ira"/>
    <tag k="addr:housenumber" v="851"/>
    <tag k="addr:street" v="Vermont Route 133"/>
    <tag k="addr:state" v="VT"/>
    <tag k="ref:vcgi:esiteid" v="133357"/>
  </node>
  <node id="-197" visible="true" lat="43.5436938" lon="-73.05487943">
    <tag k="addr:city" v="Ira"/>
    <tag k="addr:housenumber" v="1068"/>
    <tag k="addr:street" v="Vermont Route 133"/>
    <tag k="addr:state" v="VT"/>
    <tag k="ref:vcgi:esiteid" v="133358"/>
  </node>
  <node id="-198" visible="true" lat="43.54323815" lon="-73.0587517">
    <tag k="addr:city" v="Ira"/>
    <tag k="addr:housenumber" v="197"/>
    <tag k="addr:street" v="Cross Road"/>
    <tag k="addr:state" v="VT"/>
    <tag k="ref:vcgi:esiteid" v="133359"/>
  </node>
  <node id="-199" visible="true" lat="43.54291222" lon="-73.07665457">
    <tag k="addr:city" v="Ira"/>
    <tag k="addr:housenumber" v="1014"/>
    <tag k="addr:street" v="West Road"/>
    <tag k="addr:state" v="VT"/>
    <tag k="ref:vcgi:esiteid" v="133360"/>
  </node>
  <node id="-200" visible="true" lat="43.54302462" lon="-73.05574007">
    <tag k="addr:city" v="Ira"/>
    <tag k="addr:housenumber" v="5"/>
    <tag k="addr:street" v="Cross Road"/>
    <tag k="addr:state" v="VT"/>
    <tag k="ref:vcgi:esiteid" v="133361"/>
  </node>
  <node id="-201" visible="true" lat="43.54281396" lon="-73.04940205">
    <tag k="addr:city" v="Ira"/>
    <tag k="addr:housenumber" v="795"/>
    <tag k="addr:street" v="Vermont Route 133"/>
    <tag k="addr:state" v="VT"/>
    <tag k="ref:vcgi:esiteid" v="133362"/>
  </node>
  <node id="-202" visible="true" lat="43.54259285" lon="-73.07875355">
    <tag k="addr:city" v="Ira"/>
    <tag k="addr:housenumber" v="1101"/>
    <tag k="addr:street" v="West Road"/>
    <tag k="addr:state" v="VT"/>
    <tag k="ref:vcgi:esiteid" v="133363"/>
  </node>
  <node id="-203" visible="true" lat="43.54222831" lon="-73.07643702">
    <tag k="addr:city" v="Ira"/>
    <tag k="addr:housenumber" v="962"/>
    <tag k="addr:street" v="West Road"/>
    <tag k="addr:state" v="VT"/>
    <tag k="ref:vcgi:esiteid" v="133364"/>
  </node>
  <node id="-204" visible="true" lat="43.54229912" lon="-73.05543087">
    <tag k="addr:city" v="Ira"/>
    <tag k="addr:housenumber" v="1159"/>
    <tag k="addr:street" v="Vermont Route 133"/>
    <tag k="addr:state" v="VT"/>
    <tag k="ref:vcgi:esiteid" v="133365"/>
  </node>
  <node id="-205" visible="true" lat="43.54215594" lon="-73.05608584">
    <tag k="addr:city" v="Ira"/>
    <tag k="addr:housenumber" v="1186"/>
    <tag k="addr:street" v="Vermont Route 133"/>
    <tag k="addr:state" v="VT"/>
    <tag k="ref:vcgi:esiteid" v="133366"/>
  </node>
  <node id="-206" visible="true" lat="43.5418963" lon="-73.05257737">
    <tag k="addr:city" v="Ira"/>
    <tag k="addr:housenumber" v="797"/>
    <tag k="addr:street" v="Vermont Route 133"/>
    <tag k="addr:state" v="VT"/>
    <tag k="ref:vcgi:esiteid" v="133367"/>
  </node>
  <node id="-207" visible="true" lat="43.5409734" lon="-73.05666506">
    <tag k="addr:city" v="Ira"/>
    <tag k="addr:housenumber" v="1254"/>
    <tag k="addr:street" v="Vermont Route 133"/>
    <tag k="addr:state" v="VT"/>
    <tag k="ref:vcgi:esiteid" v="133368"/>
  </node>
  <node id="-208" visible="true" lat="43.54071632" lon="-73.07593887">
    <tag k="addr:city" v="Ira"/>
    <tag k="addr:housenumber" v="847"/>
    <tag k="addr:street" v="West Road"/>
    <tag k="addr:state" v="VT"/>
    <tag k="ref:vcgi:esiteid" v="133370"/>
  </node>
  <node id="-209" visible="true" lat="43.54028837" lon="-73.05994492">
    <tag k="addr:city" v="Ira"/>
    <tag k="addr:housenumber" v="162"/>
    <tag k="addr:street" v="Perry Lane"/>
    <tag k="addr:state" v="VT"/>
    <tag k="ref:vcgi:esiteid" v="133371"/>
  </node>
  <node id="-210" visible="true" lat="43.53826434" lon="-73.05841321">
    <tag k="addr:city" v="Ira"/>
    <tag k="addr:housenumber" v="1486"/>
    <tag k="addr:street" v="Vermont Route 133"/>
    <tag k="addr:state" v="VT"/>
    <tag k="ref:vcgi:esiteid" v="133372"/>
  </node>
  <node id="-211" visible="true" lat="43.53782385" lon="-73.07399708">
    <tag k="addr:city" v="Ira"/>
    <tag k="addr:housenumber" v="473"/>
    <tag k="addr:street" v="West Road"/>
    <tag k="addr:state" v="VT"/>
    <tag k="ref:vcgi:esiteid" v="133373"/>
  </node>
  <node id="-212" visible="true" lat="43.53778625" lon="-73.07765046">
    <tag k="addr:city" v="Ira"/>
    <tag k="addr:housenumber" v="271"/>
    <tag k="addr:street" v="Fish Hill Road"/>
    <tag k="addr:state" v="VT"/>
    <tag k="ref:vcgi:esiteid" v="133374"/>
  </node>
  <node id="-213" visible="true" lat="43.53770824" lon="-73.05932306">
    <tag k="addr:city" v="Ira"/>
    <tag k="addr:housenumber" v="1556"/>
    <tag k="addr:street" v="Vermont Route 133"/>
    <tag k="addr:state" v="VT"/>
    <tag k="ref:vcgi:esiteid" v="133375"/>
  </node>
  <node id="-214" visible="true" lat="43.53746317" lon="-73.05948789">
    <tag k="addr:city" v="Ira"/>
    <tag k="addr:housenumber" v="1564"/>
    <tag k="addr:street" v="Vermont Route 133"/>
    <tag k="addr:state" v="VT"/>
    <tag k="ref:vcgi:esiteid" v="133376"/>
  </node>
  <node id="-215" visible="true" lat="43.53665553" lon="-73.07118683">
    <tag k="addr:city" v="Ira"/>
    <tag k="addr:housenumber" v="471"/>
    <tag k="addr:street" v="West Road"/>
    <tag k="addr:state" v="VT"/>
    <tag k="ref:vcgi:esiteid" v="133377"/>
  </node>
  <node id="-216" visible="true" lat="43.5362289" lon="-73.06872778">
    <tag k="addr:city" v="Ira"/>
    <tag k="addr:housenumber" v="372"/>
    <tag k="addr:street" v="West Road"/>
    <tag k="addr:state" v="VT"/>
    <tag k="ref:vcgi:esiteid" v="133379"/>
  </node>
  <node id="-217" visible="true" lat="43.5358439" lon="-73.061264">
    <tag k="addr:city" v="Ira"/>
    <tag k="addr:housenumber" v="1720"/>
    <tag k="addr:street" v="Vermont Route 133"/>
    <tag k="addr:state" v="VT"/>
    <tag k="ref:vcgi:esiteid" v="133380"/>
  </node>
  <node id="-218" visible="true" lat="43.53494305" lon="-73.06586232">
    <tag k="addr:city" v="Ira"/>
    <tag k="addr:housenumber" v="184"/>
    <tag k="addr:street" v="West Road"/>
    <tag k="addr:state" v="VT"/>
    <tag k="ref:vcgi:esiteid" v="133381"/>
  </node>
  <node id="-219" visible="true" lat="43.53459798" lon="-73.06856024">
    <tag k="addr:city" v="Ira"/>
    <tag k="addr:housenumber" v="46"/>
    <tag k="addr:street" v="Green Acres Lane"/>
    <tag k="addr:state" v="VT"/>
    <tag k="ref:vcgi:esiteid" v="133382"/>
  </node>
  <node id="-221" visible="true" lat="43.53407188" lon="-73.06858673">
    <tag k="addr:city" v="Ira"/>
    <tag k="addr:housenumber" v="78"/>
    <tag k="addr:street" v="Green Acres Lane"/>
    <tag k="addr:state" v="VT"/>
    <tag k="ref:vcgi:esiteid" v="133384"/>
  </node>
  <node id="-222" visible="true" lat="43.53390842" lon="-73.06747435">
    <tag k="addr:city" v="Ira"/>
    <tag k="addr:housenumber" v="85"/>
    <tag k="addr:street" v="Green Acres Lane"/>
    <tag k="addr:state" v="VT"/>
    <tag k="ref:vcgi:esiteid" v="133385"/>
  </node>
  <node id="-223" visible="true" lat="43.53393259" lon="-73.06648514">
    <tag k="addr:city" v="Ira"/>
    <tag k="addr:housenumber" v="181"/>
    <tag k="addr:street" v="West Road"/>
    <tag k="addr:state" v="VT"/>
    <tag k="ref:vcgi:esiteid" v="133386"/>
  </node>
  <node id="-224" visible="true" lat="43.53320694" lon="-73.0659256">
    <tag k="addr:city" v="Ira"/>
    <tag k="addr:housenumber" v="173"/>
    <tag k="addr:street" v="West Road"/>
    <tag k="addr:state" v="VT"/>
    <tag k="ref:vcgi:esiteid" v="133387"/>
  </node>
  <node id="-225" visible="true" lat="43.53319108" lon="-73.06441358">
    <tag k="addr:city" v="Ira"/>
    <tag k="addr:housenumber" v="1948"/>
    <tag k="addr:street" v="Vermont Route 133"/>
    <tag k="addr:state" v="VT"/>
    <tag k="ref:vcgi:esiteid" v="133388"/>
  </node>
  <node id="-226" visible="true" lat="43.5329527" lon="-73.06676993">
    <tag k="addr:city" v="Ira"/>
    <tag k="addr:housenumber" v="134"/>
    <tag k="addr:street" v="Webster Road"/>
    <tag k="addr:state" v="VT"/>
    <tag k="ref:vcgi:esiteid" v="133389"/>
  </node>
  <node id="-227" visible="true" lat="43.53225874" lon="-73.06683941">
    <tag k="addr:city" v="Ira"/>
    <tag k="addr:housenumber" v="186"/>
    <tag k="addr:street" v="Webster Road"/>
    <tag k="addr:state" v="VT"/>
    <tag k="ref:vcgi:esiteid" v="133390"/>
  </node>
  <node id="-228" visible="true" lat="43.53211969" lon="-73.06426049">
    <tag k="addr:city" v="Ira"/>
    <tag k="addr:housenumber" v="2009"/>
    <tag k="addr:street" v="Vermont Route 133"/>
    <tag k="addr:state" v="VT"/>
    <tag k="ref:vcgi:esiteid" v="133391"/>
  </node>
  <node id="-229" visible="true" lat="43.53180175" lon="-73.06872483">
    <tag k="addr:city" v="Ira"/>
    <tag k="addr:housenumber" v="97"/>
    <tag k="addr:street" v="Green Acres Lane"/>
    <tag k="addr:state" v="VT"/>
    <tag k="ref:vcgi:esiteid" v="133392"/>
  </node>
  <node id="-230" visible="true" lat="43.53009509" lon="-73.06758115">
    <tag k="addr:city" v="Ira"/>
    <tag k="addr:housenumber" v="2228"/>
    <tag k="addr:street" v="Vermont Route 133"/>
    <tag k="addr:state" v="VT"/>
    <tag k="ref:vcgi:esiteid" v="133393"/>
  </node>
  <node id="-231" visible="true" lat="43.52827716" lon="-73.06917952">
    <tag k="addr:city" v="Ira"/>
    <tag k="addr:housenumber" v="2372"/>
    <tag k="addr:street" v="Vermont Route 133"/>
    <tag k="addr:state" v="VT"/>
    <tag k="ref:vcgi:esiteid" v="133394"/>
  </node>
  <node id="-232" visible="true" lat="43.5264324" lon="-73.06914348">
    <tag k="addr:city" v="Ira"/>
    <tag k="addr:housenumber" v="2489"/>
    <tag k="addr:street" v="Vermont Route 133"/>
    <tag k="addr:state" v="VT"/>
    <tag k="ref:vcgi:esiteid" v="133395"/>
  </node>
  <node id="-233" visible="true" lat="43.52520971" lon="-73.07063709">
    <tag k="addr:city" v="Ira"/>
    <tag k="addr:housenumber" v="2588"/>
    <tag k="addr:street" v="Vermont Route 133"/>
    <tag k="addr:state" v="VT"/>
    <tag k="ref:vcgi:esiteid" v="133397"/>
  </node>
  <node id="-234" visible="true" lat="43.52442619" lon="-73.07129725">
    <tag k="addr:city" v="Ira"/>
    <tag k="addr:housenumber" v="2650"/>
    <tag k="addr:street" v="Vermont Route 133"/>
    <tag k="addr:state" v="VT"/>
    <tag k="ref:vcgi:esiteid" v="133398"/>
  </node>
  <node id="-235" visible="true" lat="43.52425545" lon="-73.08295314">
    <tag k="addr:city" v="Ira"/>
    <tag k="addr:housenumber" v="771"/>
    <tag k="addr:street" v="Goodrich Road"/>
    <tag k="addr:state" v="VT"/>
    <tag k="ref:vcgi:esiteid" v="133399"/>
  </node>
  <node id="-236" visible="true" lat="43.52417863" lon="-73.07054095">
    <tag k="addr:city" v="Ira"/>
    <tag k="addr:housenumber" v="2659"/>
    <tag k="addr:street" v="Vermont Route 133"/>
    <tag k="addr:state" v="VT"/>
    <tag k="ref:vcgi:esiteid" v="133400"/>
  </node>
  <node id="-237" visible="true" lat="43.52409584" lon="-73.07599652">
    <tag k="addr:city" v="Ira"/>
    <tag k="addr:housenumber" v="396"/>
    <tag k="addr:street" v="Goodrich Road"/>
    <tag k="addr:state" v="VT"/>
    <tag k="ref:vcgi:esiteid" v="133401"/>
  </node>
  <node id="-238" visible="true" lat="43.52373555" lon="-73.07126402">
    <tag k="addr:city" v="Ira"/>
    <tag k="addr:housenumber" v="2706"/>
    <tag k="addr:street" v="Vermont Route 133"/>
    <tag k="addr:state" v="VT"/>
    <tag k="ref:vcgi:esiteid" v="133402"/>
  </node>
  <node id="-239" visible="true" lat="43.52338292" lon="-73.07792923">
    <tag k="addr:city" v="Ira"/>
    <tag k="addr:housenumber" v="333"/>
    <tag k="addr:street" v="Goodrich Road"/>
    <tag k="addr:state" v="VT"/>
    <tag k="ref:vcgi:esiteid" v="133403"/>
  </node>
  <node id="-240" visible="true" lat="43.52294418" lon="-73.07579777">
    <tag k="addr:city" v="Ira"/>
    <tag k="addr:housenumber" v="283"/>
    <tag k="addr:street" v="Goodrich Road"/>
    <tag k="addr:state" v="VT"/>
    <tag k="ref:vcgi:esiteid" v="133404"/>
  </node>
  <node id="-241" visible="true" lat="43.52237369" lon="-73.07898302">
    <tag k="addr:city" v="Ira"/>
    <tag k="addr:housenumber" v="297"/>
    <tag k="addr:street" v="Goodrich Road"/>
    <tag k="addr:state" v="VT"/>
    <tag k="ref:vcgi:esiteid" v="133405"/>
  </node>
  <node id="-242" visible="true" lat="43.52228921" lon="-73.07148542">
    <tag k="addr:city" v="Ira"/>
    <tag k="addr:housenumber" v="2792"/>
    <tag k="addr:street" v="Vermont Route 133"/>
    <tag k="addr:state" v="VT"/>
    <tag k="ref:vcgi:esiteid" v="133406"/>
  </node>
  <node id="-243" visible="true" lat="43.52181287" lon="-73.07633876">
    <tag k="addr:city" v="Ira"/>
    <tag k="addr:housenumber" v="291"/>
    <tag k="addr:street" v="Goodrich Road"/>
    <tag k="addr:state" v="VT"/>
    <tag k="ref:vcgi:esiteid" v="133407"/>
  </node>
  <node id="-244" visible="true" lat="43.51859642" lon="-73.06580999">
    <tag k="addr:city" v="Ira"/>
    <tag k="addr:housenumber" v="462"/>
    <tag k="addr:street" v="Toppin Road"/>
    <tag k="addr:state" v="VT"/>
    <tag k="ref:vcgi:esiteid" v="133408"/>
  </node>
  <node id="-245" visible="true" lat="43.51836395" lon="-73.07176971">
    <tag k="addr:city" v="Ira"/>
    <tag k="addr:housenumber" v="3066"/>
    <tag k="addr:street" v="Vermont Route 133"/>
    <tag k="addr:state" v="VT"/>
    <tag k="ref:vcgi:esiteid" v="133409"/>
  </node>
  <node id="-246" visible="true" lat="43.51762915" lon="-73.06535326">
    <tag k="addr:city" v="Ira"/>
    <tag k="addr:housenumber" v="504"/>
    <tag k="addr:street" v="Toppin Road"/>
    <tag k="addr:state" v="VT"/>
    <tag k="ref:vcgi:esiteid" v="133410"/>
  </node>
  <node id="-247" visible="true" lat="43.51735141" lon="-73.06319011">
    <tag k="addr:city" v="Ira"/>
    <tag k="addr:housenumber" v="509"/>
    <tag k="addr:street" v="Toppin Road"/>
    <tag k="addr:state" v="VT"/>
    <tag k="ref:vcgi:esiteid" v="133411"/>
  </node>
  <node id="-248" visible="true" lat="43.5156495" lon="-73.07315913">
    <tag k="addr:city" v="Ira"/>
    <tag k="addr:housenumber" v="3292"/>
    <tag k="addr:street" v="Vermont Route 133"/>
    <tag k="addr:state" v="VT"/>
    <tag k="ref:vcgi:esiteid" v="133412"/>
  </node>
  <node id="-249" visible="true" lat="43.5151956" lon="-73.07209921">
    <tag k="addr:city" v="Ira"/>
    <tag k="addr:housenumber" v="3279"/>
    <tag k="addr:street" v="Vermont Route 133"/>
    <tag k="addr:state" v="VT"/>
    <tag k="ref:vcgi:esiteid" v="133413"/>
  </node>
  <node id="-250" visible="true" lat="43.51500844" lon="-73.07356893">
    <tag k="addr:city" v="Ira"/>
    <tag k="addr:housenumber" v="3316"/>
    <tag k="addr:street" v="Vermont Route 133"/>
    <tag k="addr:state" v="VT"/>
    <tag k="ref:vcgi:esiteid" v="133414"/>
  </node>
  <node id="-251" visible="true" lat="43.51385254" lon="-73.07368338">
    <tag k="addr:city" v="Ira"/>
    <tag k="addr:housenumber" v="3410"/>
    <tag k="addr:street" v="Vermont Route 133"/>
    <tag k="addr:state" v="VT"/>
    <tag k="ref:vcgi:esiteid" v="133415"/>
  </node>
  <node id="-252" visible="true" lat="43.51155277" lon="-73.0739011">
    <tag k="addr:city" v="Ira"/>
    <tag k="addr:housenumber" v="3566"/>
    <tag k="addr:street" v="Vermont Route 133"/>
    <tag k="addr:state" v="VT"/>
    <tag k="ref:vcgi:esiteid" v="133416"/>
  </node>
  <node id="-253" visible="true" lat="43.51005142" lon="-73.07338665">
    <tag k="addr:city" v="Ira"/>
    <tag k="addr:housenumber" v="3661"/>
    <tag k="addr:street" v="Vermont Route 133"/>
    <tag k="addr:state" v="VT"/>
    <tag k="ref:vcgi:esiteid" v="133417"/>
  </node>
  <node id="-254" visible="true" lat="43.50729865" lon="-73.07684618">
    <tag k="addr:city" v="Ira"/>
    <tag k="addr:housenumber" v="3900"/>
    <tag k="addr:street" v="Vermont Route 133"/>
    <tag k="addr:state" v="VT"/>
    <tag k="ref:vcgi:esiteid" v="133418"/>
  </node>
  <node id="-255" visible="true" lat="43.50012324" lon="-73.079544">
    <tag k="addr:city" v="Ira"/>
    <tag k="addr:housenumber" v="4441"/>
    <tag k="addr:street" v="Vermont Route 133"/>
    <tag k="addr:state" v="VT"/>
    <tag k="ref:vcgi:esiteid" v="133419"/>
  </node>
  <node id="-256" visible="true" lat="43.50029787" lon="-73.08026664">
    <tag k="addr:city" v="Ira"/>
    <tag k="addr:housenumber" v="4444"/>
    <tag k="addr:street" v="Vermont Route 133"/>
    <tag k="addr:state" v="VT"/>
    <tag k="ref:vcgi:esiteid" v="133420"/>
  </node>
  <node id="-257" visible="true" lat="43.49875156" lon="-73.07933528">
    <tag k="addr:city" v="Ira"/>
    <tag k="addr:housenumber" v="4545"/>
    <tag k="addr:street" v="Vermont Route 133"/>
    <tag k="addr:state" v="VT"/>
    <tag k="ref:vcgi:esiteid" v="133421"/>
  </node>
  <node id="-259" visible="true" lat="43.54146571" lon="-73.07591554">
    <tag k="addr:city" v="Ira"/>
    <tag k="addr:housenumber" v="892"/>
    <tag k="addr:street" v="West Road"/>
    <tag k="addr:state" v="VT"/>
    <tag k="ref:vcgi:esiteid" v="133423"/>
  </node>
  <node id="-260" visible="true" lat="43.54998016" lon="-73.0421524">
    <tag k="addr:city" v="Ira"/>
    <tag k="addr:housenumber" v="33"/>
    <tag k="addr:street" v="Pyka Road"/>
    <tag k="addr:state" v="VT"/>
    <tag k="ref:vcgi:esiteid" v="133424"/>
  </node>
  <node id="-261" visible="true" lat="43.54058776" lon="-73.06186029">
    <tag k="addr:city" v="Ira"/>
    <tag k="addr:housenumber" v="268"/>
    <tag k="addr:street" v="Perry Lane"/>
    <tag k="addr:state" v="VT"/>
    <tag k="ref:vcgi:esiteid" v="133425"/>
  </node>
  <node id="-262" visible="true" lat="43.53440868" lon="-73.06355913">
    <tag k="addr:city" v="Ira"/>
    <tag k="addr:housenumber" v="51"/>
    <tag k="addr:street" v="West Road"/>
    <tag k="addr:state" v="VT"/>
    <tag k="ref:vcgi:esiteid" v="133426"/>
  </node>
  <node id="-263" visible="true" lat="43.52291096" lon="-73.07446576">
    <tag k="addr:city" v="Ira"/>
    <tag k="addr:housenumber" v="241"/>
    <tag k="addr:street" v="Goodrich Road"/>
    <tag k="addr:state" v="VT"/>
    <tag k="ref:vcgi:esiteid" v="133427"/>
  </node>
  <node id="-264" visible="true" lat="43.50203065" lon="-73.07770848">
    <tag k="addr:city" v="Ira"/>
    <tag k="addr:housenumber" v="4249"/>
    <tag k="addr:street" v="Vermont Route 133"/>
    <tag k="addr:state" v="VT"/>
    <tag k="ref:vcgi:esiteid" v="133428"/>
  </node>
  <node id="-265" visible="true" lat="43.56918046" lon="-73.05237479">
    <tag k="addr:city" v="Ira"/>
    <tag k="addr:housenumber" v="251"/>
    <tag k="addr:street" v="Sunrise Place"/>
    <tag k="addr:state" v="VT"/>
    <tag k="ref:vcgi:esiteid" v="133429"/>
  </node>
  <node id="-266" visible="true" lat="43.56873997" lon="-73.05104212">
    <tag k="addr:city" v="Ira"/>
    <tag k="addr:housenumber" v="121"/>
    <tag k="addr:street" v="Sunrise Place"/>
    <tag k="addr:state" v="VT"/>
    <tag k="ref:vcgi:esiteid" v="133430"/>
  </node>
  <node id="-267" visible="true" lat="43.5103359" lon="-73.07909617">
    <tag k="addr:city" v="Ira"/>
    <tag k="addr:housenumber" v="3400"/>
    <tag k="addr:street" v="Vermont Route 133"/>
    <tag k="addr:state" v="VT"/>
    <tag k="ref:vcgi:esiteid" v="133431"/>
  </node>
  <node id="-268" visible="true" lat="43.51293497" lon="-73.07307493">
    <tag k="addr:city" v="Ira"/>
    <tag k="addr:housenumber" v="3491"/>
    <tag k="addr:street" v="Vermont Route 133"/>
    <tag k="addr:state" v="VT"/>
    <tag k="ref:vcgi:esiteid" v="133432"/>
  </node>
  <node id="-269" visible="true" lat="43.54027139" lon="-73.06259955">
    <tag k="addr:city" v="Ira"/>
    <tag k="addr:housenumber" v="271"/>
    <tag k="addr:street" v="Perry Lane"/>
    <tag k="addr:state" v="VT"/>
    <tag k="ref:vcgi:esiteid" v="133433"/>
  </node>
  <node id="-270" visible="true" lat="43.53632002" lon="-73.06794558">
    <tag k="addr:city" v="Ira"/>
    <tag k="addr:housenumber" v="336"/>
    <tag k="addr:street" v="West Road"/>
    <tag k="addr:state" v="VT"/>
    <tag k="ref:vcgi:esiteid" v="133434"/>
  </node>
  <node id="-271" visible="true" lat="43.57020951" lon="-73.05229675">
    <tag k="addr:city" v="Ira"/>
    <tag k="addr:housenumber" v="240"/>
    <tag k="addr:street" v="Sunrise Place"/>
    <tag k="addr:state" v="VT"/>
    <tag k="ref:vcgi:esiteid" v="133436"/>
  </node>
  <node id="-272" visible="true" lat="43.53475971" lon="-73.06246004">
    <tag k="addr:city" v="Ira"/>
    <tag k="addr:housenumber" v="1800"/>
    <tag k="addr:street" v="Vermont Route 133"/>
    <tag k="addr:state" v="VT"/>
    <tag k="ref:vcgi:esiteid" v="133437"/>
  </node>
  <node id="-273" visible="true" lat="43.54974353" lon="-73.05541881">
    <tag k="addr:city" v="Ira"/>
    <tag k="addr:housenumber" v="100"/>
    <tag k="addr:street" v="Scotts Road"/>
    <tag k="addr:state" v="VT"/>
    <tag k="ref:vcgi:esiteid" v="133438"/>
  </node>
  <node id="-274" visible="true" lat="43.5350318" lon="-73.07064364">
    <tag k="addr:city" v="Ira"/>
    <tag k="addr:housenumber" v="373"/>
    <tag k="addr:street" v="West Road"/>
    <tag k="addr:state" v="VT"/>
    <tag k="ref:vcgi:esiteid" v="133439"/>
  </node>
  <node id="-275" visible="true" lat="43.60788567" lon="-73.0962527">
    <tag k="addr:city" v="Ira"/>
    <tag k="addr:housenumber" v="446"/>
    <tag k="addr:street" v="Blue Star Drive"/>
    <tag k="addr:state" v="VT"/>
    <tag k="ref:vcgi:esiteid" v="133440"/>
  </node>
  <node id="-276" visible="true" lat="43.53517199" lon="-73.06679807">
    <tag k="addr:city" v="Ira"/>
    <tag k="addr:housenumber" v="238"/>
    <tag k="addr:street" v="West Road"/>
    <tag k="addr:state" v="VT"/>
    <tag k="ref:vcgi:esiteid" v="305911"/>
  </node>
  <node id="-277" visible="true" lat="43.60866841" lon="-73.1083134">
    <tag k="addr:city" v="Ira"/>
    <tag k="addr:housenumber" v="1087"/>
    <tag k="addr:street" v="Blue Star Drive"/>
    <tag k="addr:state" v="VT"/>
    <tag k="ref:vcgi:esiteid" v="307740"/>
  </node>
  <node id="-278" visible="true" lat="43.556742" lon="-73.04421136">
    <tag k="addr:city" v="Ira"/>
    <tag k="addr:housenumber" v="2"/>
    <tag k="addr:street" v="Vermont Route 133"/>
    <tag k="addr:state" v="VT"/>
    <tag k="ref:vcgi:esiteid" v="307742"/>
  </node>
  <node id="-279" visible="true" lat="43.52217377" lon="-73.07087111">
    <tag k="addr:city" v="Ira"/>
    <tag k="addr:housenumber" v="2793"/>
    <tag k="addr:street" v="Vermont Route 133"/>
    <tag k="addr:state" v="VT"/>
    <tag k="ref:vcgi:esiteid" v="307744"/>
  </node>
  <node id="-280" visible="true" lat="43.51448696" lon="-73.07264706">
    <tag k="addr:city" v="Ira"/>
    <tag k="addr:housenumber" v="3399"/>
    <tag k="addr:street" v="Vermont Route 133"/>
    <tag k="addr:state" v="VT"/>
    <tag k="ref:vcgi:esiteid" v="307745"/>
  </node>
  <node id="-281" visible="true" lat="43.52314501" lon="-73.06510827">
    <tag k="addr:city" v="Ira"/>
    <tag k="addr:housenumber" v="299"/>
    <tag k="addr:street" v="Toppin Road"/>
    <tag k="addr:state" v="VT"/>
    <tag k="ref:vcgi:esiteid" v="307747"/>
  </node>
  <node id="-282" visible="true" lat="43.51939016" lon="-73.0637986">
    <tag k="addr:city" v="Ira"/>
    <tag k="addr:housenumber" v="417"/>
    <tag k="addr:street" v="Toppin Road"/>
    <tag k="addr:state" v="VT"/>
    <tag k="ref:vcgi:esiteid" v="307748"/>
  </node>
  <node id="-283" visible="true" lat="43.54884214" lon="-73.06869847">
    <tag k="addr:city" v="Ira"/>
    <tag k="addr:housenumber" v="1964"/>
    <tag k="addr:street" v="West Road"/>
    <tag k="addr:state" v="VT"/>
    <tag k="ref:vcgi:esiteid" v="307749"/>
  </node>
  <node id="-284" visible="true" lat="43.52513265" lon="-73.07000799">
    <tag k="addr:city" v="Ira"/>
    <tag k="addr:housenumber" v="2583"/>
    <tag k="addr:street" v="Vermont Route 133"/>
    <tag k="addr:state" v="VT"/>
    <tag k="ref:vcgi:esiteid" v="314350"/>
  </node>
  <node id="-285" visible="true" lat="43.52387915" lon="-73.08011456">
    <tag k="addr:city" v="Ira"/>
    <tag k="addr:housenumber" v="591"/>
    <tag k="addr:street" v="Goodrich Road"/>
    <tag k="addr:state" v="VT"/>
    <tag k="ref:vcgi:esiteid" v="327465"/>
  </node>
  <node id="-286" visible="true" lat="43.50096418" lon="-73.07706679">
    <tag k="addr:city" v="Ira"/>
    <tag k="addr:housenumber" v="4251"/>
    <tag k="addr:street" v="Vermont Route 133"/>
    <tag k="addr:state" v="VT"/>
    <tag k="ref:vcgi:esiteid" v="328298"/>
  </node>
  <node id="-287" visible="true" lat="43.60842415" lon="-73.09634919">
    <tag k="addr:city" v="Ira"/>
    <tag k="addr:housenumber" v="448"/>
    <tag k="addr:street" v="Blue Star Drive"/>
    <tag k="addr:state" v="VT"/>
    <tag k="ref:vcgi:esiteid" v="331615"/>
  </node>
  <node id="-288" visible="true" lat="43.54743109" lon="-73.07973997">
    <tag k="addr:city" v="Ira"/>
    <tag k="addr:housenumber" v="1371"/>
    <tag k="addr:street" v="West Road"/>
    <tag k="addr:state" v="VT"/>
    <tag k="ref:vcgi:esiteid" v="332127"/>
  </node>
  <node id="-289" visible="true" lat="43.55800727" lon="-73.06202684">
    <tag k="addr:city" v="Ira"/>
    <tag k="addr:housenumber" v="2599"/>
    <tag k="addr:street" v="West Road"/>
    <tag k="addr:state" v="VT"/>
    <tag k="ref:vcgi:esiteid" v="336178"/>
  </node>
  <node id="-290" visible="true" lat="43.51273348" lon="-73.07426979">
    <tag k="addr:city" v="Ira"/>
    <tag k="addr:housenumber" v="3494"/>
    <tag k="addr:street" v="Vermont Route 133"/>
    <tag k="addr:state" v="VT"/>
    <tag k="ref:vcgi:esiteid" v="336179"/>
  </node>
  <node id="-291" visible="true" lat="43.53711191" lon="-73.0634878">
    <tag k="addr:city" v="Ira"/>
    <tag k="addr:housenumber" v="1640"/>
    <tag k="addr:street" v="Vermont Route 133"/>
    <tag k="addr:state" v="VT"/>
    <tag k="ref:vcgi:esiteid" v="337258"/>
  </node>
  <node id="-292" visible="true" lat="43.53429984" lon="-73.06404897">
    <tag k="addr:city" v="Ira"/>
    <tag k="addr:housenumber" v="53"/>
    <tag k="addr:street" v="West Road"/>
    <tag k="addr:state" v="VT"/>
    <tag k="ref:vcgi:esiteid" v="337731"/>
  </node>
  <node id="-293" visible="true" lat="43.55170624" lon="-73.06881608">
    <tag k="addr:city" v="Ira"/>
    <tag k="addr:housenumber" v="2054"/>
    <tag k="addr:street" v="West Road"/>
    <tag k="addr:state" v="VT"/>
    <tag k="ref:vcgi:esiteid" v="338046"/>
  </node>
  <node id="-294" visible="true" lat="43.54712024" lon="-73.08493521">
    <tag k="addr:city" v="Ira"/>
    <tag k="addr:housenumber" v="251"/>
    <tag k="addr:street" v="Middletown Hill Road"/>
    <tag k="addr:state" v="VT"/>
    <tag k="ref:vcgi:esiteid" v="341661"/>
  </node>
  <node id="-295" visible="true" lat="43.54680266" lon="-73.08370109">
    <tag k="addr:city" v="Ira"/>
    <tag k="addr:housenumber" v="149"/>
    <tag k="addr:street" v="Middletown Hill Road"/>
    <tag k="addr:state" v="VT"/>
    <tag k="ref:vcgi:esiteid" v="341662"/>
  </node>
  <node id="-296" visible="true" lat="43.54761554" lon="-73.08974751">
    <tag k="addr:city" v="Ira"/>
    <tag k="addr:housenumber" v="530"/>
    <tag k="addr:street" v="Middletown Hill Road"/>
    <tag k="addr:state" v="VT"/>
    <tag k="ref:vcgi:esiteid" v="341663"/>
  </node>
  <node id="-297" visible="true" lat="43.54886996" lon="-73.09110353">
    <tag k="addr:city" v="Ira"/>
    <tag k="addr:housenumber" v="434"/>
    <tag k="addr:street" v="Middletown Hill Road"/>
    <tag k="addr:state" v="VT"/>
    <tag k="ref:vcgi:esiteid" v="341664"/>
  </node>
  <node id="-298" visible="true" lat="43.53951584" lon="-73.07130468">
    <tag k="addr:city" v="Ira"/>
    <tag k="addr:housenumber" v="664"/>
    <tag k="addr:street" v="West Road"/>
    <tag k="addr:state" v="VT"/>
    <tag k="ref:vcgi:esiteid" v="365005"/>
  </node>
  <node id="-299" visible="true" lat="43.54427231" lon="-73.07681816">
    <tag k="addr:city" v="Ira"/>
    <tag k="addr:housenumber" v="1086"/>
    <tag k="addr:street" v="West Road"/>
    <tag k="addr:state" v="VT"/>
    <tag k="ref:vcgi:esiteid" v="365006"/>
  </node>
  <node id="-300" visible="true" lat="43.54564907" lon="-73.07903852">
    <tag k="addr:city" v="Ira"/>
    <tag k="addr:housenumber" v="1234"/>
    <tag k="addr:street" v="West Road"/>
    <tag k="addr:state" v="VT"/>
    <tag k="ref:vcgi:esiteid" v="365007"/>
  </node>
  <node id="-301" visible="true" lat="43.54544451" lon="-73.08091872">
    <tag k="addr:city" v="Ira"/>
    <tag k="addr:housenumber" v="63"/>
    <tag k="addr:street" v="Middletown Hill Road"/>
    <tag k="addr:state" v="VT"/>
    <tag k="ref:vcgi:esiteid" v="365008"/>
  </node>
  <node id="-302" visible="true" lat="43.56918264" lon="-73.05447237">
    <tag k="addr:city" v="Ira"/>
    <tag k="addr:housenumber" v="271"/>
    <tag k="addr:street" v="Sunrise Place"/>
    <tag k="addr:state" v="VT"/>
    <tag k="ref:vcgi:esiteid" v="365009"/>
  </node>
  <node id="-303" visible="true" lat="43.52569378" lon="-73.07868169">
    <tag k="addr:city" v="Ira"/>
    <tag k="addr:housenumber" v="540"/>
    <tag k="addr:street" v="Goodrich Road"/>
    <tag k="addr:state" v="VT"/>
    <tag k="ref:vcgi:esiteid" v="365011"/>
  </node>
  <node id="-304" visible="true" lat="43.53238423" lon="-73.07185689">
    <tag k="addr:city" v="Ira"/>
    <tag k="addr:housenumber" v="6"/>
    <tag k="addr:street" v="Green Acres Lane"/>
    <tag k="addr:state" v="VT"/>
    <tag k="ref:vcgi:esiteid" v="446601"/>
  </node>
  <node id="-305" visible="true" lat="43.52488142" lon="-73.08545193">
    <tag k="addr:city" v="Ira"/>
    <tag k="addr:housenumber" v="885"/>
    <tag k="addr:street" v="Goodrich Road"/>
    <tag k="addr:state" v="VT"/>
    <tag k="ref:vcgi:esiteid" v="446702"/>
  </node>
  <node id="-306" visible="true" lat="43.54707409" lon="-73.08730179">
    <tag k="addr:city" v="Ira"/>
    <tag k="addr:housenumber" v="393"/>
    <tag k="addr:street" v="Middletown Hill Road"/>
    <tag k="addr:state" v="VT"/>
    <tag k="ref:vcgi:esiteid" v="446703"/>
  </node>
  <node id="-307" visible="true" lat="43.54931938" lon="-73.06998263">
    <tag k="addr:city" v="Ira"/>
    <tag k="addr:housenumber" v="1962"/>
    <tag k="addr:street" v="West Road"/>
    <tag k="addr:state" v="VT"/>
    <tag k="ref:vcgi:esiteid" v="446704"/>
  </node>
  <node id="-308" visible="true" lat="43.56109368" lon="-73.06827116">
    <tag k="addr:city" v="Ira"/>
    <tag k="addr:housenumber" v="1526"/>
    <tag k="addr:street" v="Cross Road"/>
    <tag k="addr:state" v="VT"/>
    <tag k="ref:vcgi:esiteid" v="446705"/>
  </node>
  <node id="-309" visible="true" lat="43.58625116" lon="-73.10299154">
    <tag k="addr:city" v="Ira"/>
    <tag k="addr:housenumber" v="1620"/>
    <tag k="addr:street" v="Ira Birdseye Road"/>
    <tag k="addr:state" v="VT"/>
    <tag k="ref:vcgi:esiteid" v="449654"/>
  </node>
  <node id="-310" visible="true" lat="43.58422722" lon="-73.09994421">
    <tag k="addr:city" v="Ira"/>
    <tag k="addr:housenumber" v="1841"/>
    <tag k="addr:street" v="Ira Birdseye Road"/>
    <tag k="addr:state" v="VT"/>
    <tag k="ref:vcgi:esiteid" v="449655"/>
  </node>
  <node id="-311" visible="true" lat="43.58060975" lon="-73.0963015">
    <tag k="addr:city" v="Ira"/>
    <tag k="addr:housenumber" v="2136"/>
    <tag k="addr:street" v="Ira Birdseye Road"/>
    <tag k="addr:state" v="VT"/>
    <tag k="ref:vcgi:esiteid" v="449656"/>
  </node>
  <node id="-312" visible="true" lat="43.57864333" lon="-73.09935808">
    <tag k="addr:city" v="Ira"/>
    <tag k="addr:housenumber" v="2058"/>
    <tag k="addr:street" v="Ira Birdseye Road"/>
    <tag k="addr:state" v="VT"/>
    <tag k="ref:vcgi:esiteid" v="449657"/>
  </node>
  <node id="-313" visible="true" lat="43.57773292" lon="-73.09309562">
    <tag k="addr:city" v="Ira"/>
    <tag k="addr:housenumber" v="2732"/>
    <tag k="addr:street" v="Ira Birdseye Road"/>
    <tag k="addr:state" v="VT"/>
    <tag k="ref:vcgi:esiteid" v="449658"/>
  </node>
  <node id="-314" visible="true" lat="43.56528714" lon="-73.0987745">
    <tag k="addr:city" v="Ira"/>
    <tag k="addr:housenumber" v="2197"/>
    <tag k="addr:street" v="Cross Road"/>
    <tag k="addr:state" v="VT"/>
    <tag k="ref:vcgi:esiteid" v="449659"/>
  </node>
  <node id="-315" visible="true" lat="43.59089059" lon="-73.10424673">
    <tag k="addr:city" v="Ira"/>
    <tag k="addr:housenumber" v="1294"/>
    <tag k="addr:street" v="Ira Birdseye Road"/>
    <tag k="addr:state" v="VT"/>
    <tag k="ref:vcgi:esiteid" v="450102"/>
  </node>
  <node id="-316" visible="true" lat="43.59184139" lon="-73.10165157">
    <tag k="addr:city" v="Ira"/>
    <tag k="addr:housenumber" v="1235"/>
    <tag k="addr:street" v="Ira Birdseye Road"/>
    <tag k="addr:state" v="VT"/>
    <tag k="ref:vcgi:esiteid" v="450103"/>
  </node>
  <node id="-317" visible="true" lat="43.63014414" lon="-73.09740141">
    <tag k="addr:city" v="Ira"/>
    <tag k="addr:housenumber" v="1710"/>
    <tag k="addr:street" v="Belgo Road"/>
    <tag k="addr:state" v="VT"/>
    <tag k="ref:vcgi:esiteid" v="450135"/>
  </node>
  <node id="-318" visible="true" lat="43.56068735" lon="-73.07057586">
    <tag k="addr:city" v="Ira"/>
    <tag k="addr:housenumber" v="1529"/>
    <tag k="addr:street" v="Cross Road"/>
    <tag k="addr:state" v="VT"/>
    <tag k="ref:vcgi:esiteid" v="452400"/>
  </node>
  <node id="-319" visible="true" lat="43.55450881" lon="-73.04486825">
    <tag k="addr:city" v="Ira"/>
    <tag k="addr:housenumber" v="340"/>
    <tag k="addr:street" v="Pyka Road"/>
    <tag k="addr:state" v="VT"/>
    <tag k="ref:vcgi:esiteid" v="454115"/>
  </node>
  <node id="-320" visible="true" lat="43.61014881" lon="-73.10106595">
    <tag k="addr:city" v="Ira"/>
    <tag k="addr:housenumber" v="714"/>
    <tag k="addr:street" v="Blue Star Drive"/>
    <tag k="addr:state" v="VT"/>
    <tag k="ref:vcgi:esiteid" v="610939"/>
  </node>
  <node id="-321" visible="true" lat="43.60716057" lon="-73.09150023">
    <tag k="addr:city" v="Ira"/>
    <tag k="addr:housenumber" v="147"/>
    <tag k="addr:street" v="Blue Star Drive"/>
    <tag k="addr:state" v="VT"/>
    <tag k="ref:vcgi:esiteid" v="611945"/>
  </node>
  <node id="-322" visible="true" lat="43.53799468" lon="-73.05760602">
    <tag k="addr:city" v="Ira"/>
    <tag k="addr:housenumber" v="1485"/>
    <tag k="addr:street" v="Vermont Route 133"/>
    <tag k="addr:state" v="VT"/>
    <tag k="ref:vcgi:esiteid" v="611966"/>
  </node>
  <node id="-323" visible="true" lat="43.53547512" lon="-73.06787876">
    <tag k="addr:city" v="Ira"/>
    <tag k="addr:housenumber" v="310"/>
    <tag k="addr:street" v="West Road"/>
    <tag k="addr:state" v="VT"/>
    <tag k="ref:vcgi:esiteid" v="617071"/>
  </node>
  <node id="-324" visible="true" lat="43.5444834" lon="-73.09422535">
    <tag k="addr:city" v="Ira"/>
    <tag k="addr:housenumber" v="807"/>
    <tag k="addr:street" v="Middletown Hill Road"/>
    <tag k="addr:state" v="VT"/>
    <tag k="ref:vcgi:esiteid" v="617144"/>
  </node>
  <node id="-325" visible="true" lat="43.4979844" lon="-73.0713015">
    <tag k="addr:city" v="Ira"/>
    <tag k="addr:housenumber" v="4575"/>
    <tag k="addr:street" v="Vermont Route 133"/>
    <tag k="addr:state" v="VT"/>
    <tag k="ref:vcgi:esiteid" v="618093"/>
  </node>
  <node id="-326" visible="true" lat="43.49988916" lon="-73.06177962">
    <tag k="addr:city" v="Ira"/>
    <tag k="addr:housenumber" v="1205"/>
    <tag k="addr:street" v="Arthur Lane"/>
    <tag k="addr:state" v="VT"/>
    <tag k="ref:vcgi:esiteid" v="618094"/>
  </node>
  <node id="-333" visible="true" lat="43.55122039" lon="-73.03921406">
    <tag k="addr:city" v="Ira"/>
    <tag k="addr:housenumber" v="68"/>
    <tag k="addr:street" v="Vermont Route 133"/>
    <tag k="addr:state" v="VT"/>
    <tag k="ref:vcgi:esiteid" v="654839"/>
  </node>
  <node id="-337" visible="true" lat="43.55216708" lon="-73.0450446">
    <tag k="addr:city" v="Ira"/>
    <tag k="addr:housenumber" v="261"/>
    <tag k="addr:street" v="Pyka Road"/>
    <tag k="addr:state" v="VT"/>
    <tag k="ref:vcgi:esiteid" v="700176"/>
  </node>
  <node id="-338" visible="true" lat="43.57023202" lon="-73.05130791">
    <tag k="addr:city" v="Ira"/>
    <tag k="addr:housenumber" v="1082"/>
    <tag k="addr:street" v="Dewey Avenue"/>
    <tag k="addr:state" v="VT"/>
    <tag k="ref:vcgi:esiteid" v="754437"/>
  </node>
  <node id="-339" visible="true" lat="43.55436188" lon="-73.06377928">
    <tag k="addr:city" v="Ira"/>
    <tag k="addr:housenumber" v="2332"/>
    <tag k="addr:street" v="West Road"/>
    <tag k="addr:state" v="VT"/>
    <tag k="ref:vcgi:esiteid" v="758064"/>
  </node>
  <node id="-340" visible="true" lat="43.5450109" lon="-73.07953186">
    <tag k="addr:city" v="Ira"/>
    <tag k="addr:housenumber" v="1205"/>
    <tag k="addr:street" v="West Road"/>
    <tag k="addr:state" v="VT"/>
    <tag k="ref:vcgi:esiteid" v="758135"/>
  </node>
  <node id="-341" visible="true" lat="43.5536561" lon="-73.0418207">
    <tag k="addr:city" v="Ira"/>
    <tag k="addr:housenumber" v="174"/>
    <tag k="addr:street" v="Pyka Road"/>
    <tag k="addr:state" v="VT"/>
    <tag k="ref:vcgi:esiteid" v="761602"/>
  </node>
  <node id="-342" visible="true" lat="43.60869776" lon="-73.10128499">
    <tag k="addr:city" v="Ira"/>
    <tag k="addr:housenumber" v="34"/>
    <tag k="addr:street" v="Ira Birdseye Road"/>
    <tag k="addr:state" v="VT"/>
    <tag k="ref:vcgi:esiteid" v="763106"/>
  </node>
  <node id="-343" visible="true" lat="43.53586213" lon="-73.06622962">
    <tag k="addr:city" v="Ira"/>
    <tag k="addr:housenumber" v="262"/>
    <tag k="addr:street" v="West Road"/>
    <tag k="addr:state" v="VT"/>
    <tag k="ref:vcgi:esiteid" v="763811"/>
  </node>
  <node id="-344" visible="true" lat="43.6036991" lon="-73.10099729">
    <tag k="addr:city" v="Ira"/>
    <tag k="addr:housenumber" v="394"/>
    <tag k="addr:street" v="Ira Birdseye Road"/>
    <tag k="addr:state" v="VT"/>
    <tag k="ref:vcgi:esiteid" v="766453"/>
  </node>
  <node id="-345" visible="true" lat="43.605763" lon="-73.10189764">
    <tag k="addr:city" v="Ira"/>
    <tag k="addr:housenumber" v="222"/>
    <tag k="addr:street" v="Ira Birdseye Road"/>
    <tag k="addr:state" v="VT"/>
    <tag k="ref:vcgi:esiteid" v="766454"/>
  </node>
  <node id="-346" visible="true" lat="43.54434146" lon="-73.04584115">
    <tag k="addr:city" v="Ira"/>
    <tag k="addr:housenumber" v="10"/>
    <tag k="addr:street" v="Weaver Hill Road"/>
    <tag k="addr:state" v="VT"/>
    <tag k="ref:vcgi:esiteid" v="766455"/>
  </node>
  <node id="-347" visible="true" lat="43.54790671" lon="-73.08721419">
    <tag k="addr:city" v="Ira"/>
    <tag k="addr:housenumber" v="330"/>
    <tag k="addr:street" v="Middletown Hill Road"/>
    <tag k="addr:state" v="VT"/>
    <tag k="ref:vcgi:esiteid" v="766456"/>
  </node>
  <node id="-348" visible="true" lat="43.53739453" lon="-73.07014626">
    <tag k="addr:city" v="Ira"/>
    <tag k="addr:housenumber" v="528"/>
    <tag k="addr:street" v="West Road"/>
    <tag k="addr:state" v="VT"/>
    <tag k="ref:vcgi:esiteid" v="766457"/>
  </node>
  <node id="-349" visible="true" lat="43.61602298" lon="-73.10304899">
    <tag k="addr:city" v="Ira"/>
    <tag k="addr:housenumber" v="151"/>
    <tag k="addr:street" v="Whipple Hollow Road"/>
    <tag k="addr:state" v="VT"/>
    <tag k="ref:vcgi:esiteid" v="766459"/>
  </node>
  <node id="-350" visible="true" lat="43.52045862" lon="-73.06343086">
    <tag k="addr:city" v="Ira"/>
    <tag k="addr:housenumber" v="419"/>
    <tag k="addr:street" v="Toppin Road"/>
    <tag k="addr:state" v="VT"/>
    <tag k="ref:vcgi:esiteid" v="766476"/>
  </node>
  <node id="-351" visible="true" lat="43.54622937" lon="-73.07688776">
    <tag k="addr:city" v="Ira"/>
    <tag k="addr:housenumber" v="1414"/>
    <tag k="addr:street" v="West Road"/>
    <tag k="addr:state" v="VT"/>
    <tag k="ref:vcgi:esiteid" v="767168"/>
  </node>
  <node id="-352" visible="true" lat="43.61012435" lon="-73.10267065">
    <tag k="addr:city" v="Ira"/>
    <tag k="addr:housenumber" v="774"/>
    <tag k="addr:street" v="Blue Star Drive"/>
    <tag k="addr:state" v="VT"/>
    <tag k="ref:vcgi:esiteid" v="769546"/>
  </node>
  <node id="-353" visible="true" lat="43.51021453" lon="-73.07877771">
    <tag k="addr:city" v="Ira"/>
    <tag k="addr:housenumber" v="3402"/>
    <tag k="addr:street" v="Vermont Route 133"/>
    <tag k="addr:state" v="VT"/>
    <tag k="ref:vcgi:esiteid" v="769656"/>
  </node>
  <node id="-354" visible="true" lat="43.51464191" lon="-73.07406906">
    <tag k="addr:city" v="Ira"/>
    <tag k="addr:housenumber" v="3998"/>
    <tag k="addr:street" v="Vermont Route 133"/>
    <tag k="addr:state" v="VT"/>
    <tag k="ref:vcgi:esiteid" v="769657"/>
  </node>
  <node id="-355" visible="true" lat="43.53627486" lon="-73.05900946">
    <tag k="addr:city" v="Ira"/>
    <tag k="addr:housenumber" v="1639"/>
    <tag k="addr:street" v="Vermont Route 133"/>
    <tag k="addr:state" v="VT"/>
    <tag k="ref:vcgi:esiteid" v="770067"/>
  </node>
  <node id="-356" visible="true" lat="43.51938719" lon="-73.07469899">
    <tag k="addr:city" v="Ira"/>
    <tag k="addr:housenumber" v="293"/>
    <tag k="addr:street" v="Goodrich Road"/>
    <tag k="addr:state" v="VT"/>
    <tag k="ref:vcgi:esiteid" v="770569"/>
  </node>
  <node id="-357" visible="true" lat="43.60041003" lon="-73.094975">
    <tag k="addr:city" v="Ira"/>
    <tag k="addr:housenumber" v="291"/>
    <tag k="addr:street" v="Blue Star Drive"/>
    <tag k="addr:state" v="VT"/>
    <tag k="ref:vcgi:esiteid" v="770570"/>
  </node>
</osm>
