<?xml version="1.0" encoding="UTF-8"?>
<osm version="0.6" generator="JOSM" upload="false">
  <node id="-164" visible="true" lat="44.90107703" lon="-73.32906492">
    <tag k="addr:city" v="Isle La Motte"/>
    <tag k="addr:housenumber" v="568"/>
    <tag k="addr:street" v="Main Street"/>
    <tag k="addr:state" v="VT"/>
    <tag k="ref:vcgi:esiteid" v="134072"/>
  </node>
  <node id="-177" visible="true" lat="44.89937318" lon="-73.3297372">
    <tag k="addr:city" v="Isle La Motte"/>
    <tag k="addr:housenumber" v="698"/>
    <tag k="addr:street" v="Main Street"/>
    <tag k="addr:state" v="VT"/>
    <tag k="ref:vcgi:esiteid" v="134088"/>
  </node>
  <node id="-251" visible="true" lat="44.88246318" lon="-73.345201">
    <tag k="addr:city" v="Isle La Motte"/>
    <tag k="addr:housenumber" v="42"/>
    <tag k="addr:street" v="School Street Extension"/>
    <tag k="addr:state" v="VT"/>
    <tag k="ref:vcgi:esiteid" v="134170"/>
  </node>
  <node id="-290" visible="true" lat="44.87894178" lon="-73.33722479">
    <!-- match: "23 Saint Josephs Lane, Isle La Motte, VT"  ignoring street punctuation to "23 Saint Joseph's Lane, Isle La Motte, VT" -->
    <tag k="addr:city" v="Isle La Motte"/>
    <tag k="addr:housenumber" v="23"/>
    <tag k="addr:street" v="Saint Josephs Lane"/>
    <tag k="addr:state" v="VT"/>
    <tag k="ref:vcgi:esiteid" v="134211"/>
  </node>
  <node id="-307" visible="true" lat="44.87784576" lon="-73.33998107">
    <tag k="addr:city" v="Isle La Motte"/>
    <tag k="addr:housenumber" v="68"/>
    <tag k="addr:street" v="School Street"/>
    <tag k="addr:state" v="VT"/>
    <tag k="ref:vcgi:esiteid" v="134228"/>
  </node>
  <node id="-316" visible="true" lat="44.87746253" lon="-73.33891153">
    <tag k="addr:city" v="Isle La Motte"/>
    <tag k="addr:housenumber" v="2304"/>
    <tag k="addr:street" v="Main Street"/>
    <tag k="addr:state" v="VT"/>
    <tag k="ref:vcgi:esiteid" v="134237"/>
  </node>
  <node id="-355" visible="true" lat="44.87487728" lon="-73.3393753">
    <tag k="addr:city" v="Isle La Motte"/>
    <tag k="addr:housenumber" v="2468"/>
    <tag k="addr:street" v="Main Street"/>
    <tag k="addr:state" v="VT"/>
    <tag k="ref:vcgi:esiteid" v="134276"/>
  </node>
  <node id="-392" visible="true" lat="44.86415045" lon="-73.35945008">
    <tag k="addr:city" v="Isle La Motte"/>
    <tag k="addr:housenumber" v="2551"/>
    <tag k="addr:street" v="West Shore Road"/>
    <tag k="addr:state" v="VT"/>
    <tag k="ref:vcgi:esiteid" v="134313"/>
  </node>
  <node id="-429" visible="true" lat="44.85819829" lon="-73.32683731">
    <tag k="addr:city" v="Isle La Motte"/>
    <tag k="addr:housenumber" v="1002"/>
    <tag k="addr:street" v="Quarry Road"/>
    <tag k="addr:state" v="VT"/>
    <tag k="ref:vcgi:esiteid" v="134352"/>
  </node>
  <node id="-612" visible="true" lat="44.89881616" lon="-73.33105311">
    <tag k="addr:city" v="Isle La Motte"/>
    <tag k="addr:housenumber" v="85"/>
    <tag k="addr:street" v="Shrine Road"/>
    <tag k="addr:state" v="VT"/>
    <tag k="ref:vcgi:esiteid" v="445450"/>
  </node>
</osm>
