<?xml version="1.0" encoding="UTF-8"?>
<osm version="0.6" generator="JOSM" upload="false">
  <node id="-119" visible="true" lat="43.15850386" lon="-72.83868886">
    <tag k="addr:housenumber" v="82"/>
    <tag k="addr:street" v="Maggie Lane"/>
    <tag k="addr:state" v="VT"/>
    <tag k="ref:vcgi:esiteid" v="134509"/>
  </node>
  <node id="-120" visible="true" lat="43.15822498" lon="-72.83761759">
    <tag k="addr:housenumber" v="28"/>
    <tag k="addr:street" v="Maggie Lane"/>
    <tag k="addr:state" v="VT"/>
    <tag k="ref:vcgi:esiteid" v="134510"/>
  </node>
  <node id="-121" visible="true" lat="43.15806438" lon="-72.8383529">
    <tag k="addr:housenumber" v="57"/>
    <tag k="addr:street" v="Maggie Lane"/>
    <tag k="addr:state" v="VT"/>
    <tag k="ref:vcgi:esiteid" v="134511"/>
  </node>
  <node id="-137" visible="true" lat="43.15192413" lon="-72.86087036">
    <tag k="addr:housenumber" v="1060"/>
    <tag k="addr:street" v="Coleman Hills Road"/>
    <tag k="addr:state" v="VT"/>
    <tag k="ref:vcgi:esiteid" v="134527"/>
  </node>
  <node id="-139" visible="true" lat="43.15051651" lon="-72.84585571">
    <tag k="addr:housenumber" v="242"/>
    <tag k="addr:street" v="Coleman Hills Road"/>
    <tag k="addr:state" v="VT"/>
    <tag k="ref:vcgi:esiteid" v="134531"/>
  </node>
  <node id="-140" visible="true" lat="43.15062704" lon="-72.84343723">
    <tag k="addr:housenumber" v="110"/>
    <tag k="addr:street" v="Coleman Hills Road"/>
    <tag k="addr:state" v="VT"/>
    <tag k="ref:vcgi:esiteid" v="134532"/>
  </node>
  <node id="-143" visible="true" lat="43.15039451" lon="-72.84166393">
    <tag k="addr:housenumber" v="26"/>
    <tag k="addr:street" v="Coleman Hills Road"/>
    <tag k="addr:state" v="VT"/>
    <tag k="ref:vcgi:esiteid" v="134535"/>
  </node>
  <node id="-146" visible="true" lat="43.14999142" lon="-72.84218207">
    <tag k="addr:housenumber" v="49"/>
    <tag k="addr:street" v="Coleman Hills Road"/>
    <tag k="addr:state" v="VT"/>
    <tag k="ref:vcgi:esiteid" v="134538"/>
  </node>
  <node id="-147" visible="true" lat="43.1498927" lon="-72.84419862">
    <tag k="addr:housenumber" v="145"/>
    <tag k="addr:street" v="Coleman Hills Road"/>
    <tag k="addr:state" v="VT"/>
    <tag k="ref:vcgi:esiteid" v="134539"/>
  </node>
  <node id="-155" visible="true" lat="43.14790583" lon="-72.83809067">
    <tag k="addr:housenumber" v="109"/>
    <tag k="addr:street" v="Goodaleville Road"/>
    <tag k="addr:state" v="VT"/>
    <tag k="ref:vcgi:esiteid" v="134547"/>
  </node>
  <node id="-175" visible="true" lat="43.14649101" lon="-72.84075356">
    <tag k="addr:housenumber" v="8768"/>
    <tag k="addr:street" v="Vermont Route 30"/>
    <tag k="addr:state" v="VT"/>
    <tag k="ref:vcgi:esiteid" v="134567"/>
  </node>
  <node id="-177" visible="true" lat="43.14635621" lon="-72.8414235">
    <tag k="addr:housenumber" v="8814"/>
    <tag k="addr:street" v="Vermont Route 30"/>
    <tag k="addr:state" v="VT"/>
    <tag k="ref:vcgi:esiteid" v="134569"/>
  </node>
  <node id="-283" visible="true" lat="43.14002959" lon="-72.82897211">
    <tag k="addr:housenumber" v="164"/>
    <tag k="addr:street" v="Wild Turkey Run"/>
    <tag k="addr:state" v="VT"/>
    <tag k="ref:vcgi:esiteid" v="134676"/>
  </node>
  <node id="-285" visible="true" lat="43.13968349" lon="-72.82742013">
    <tag k="addr:housenumber" v="101"/>
    <tag k="addr:street" v="Wild Turkey Run"/>
    <tag k="addr:state" v="VT"/>
    <tag k="ref:vcgi:esiteid" v="134678"/>
  </node>
  <node id="-291" visible="true" lat="43.13905114" lon="-72.82935306">
    <tag k="addr:housenumber" v="216"/>
    <tag k="addr:street" v="Wild Turkey Run"/>
    <tag k="addr:state" v="VT"/>
    <tag k="ref:vcgi:esiteid" v="134684"/>
  </node>
  <node id="-294" visible="true" lat="43.13899071" lon="-72.8268491">
    <tag k="addr:housenumber" v="166"/>
    <tag k="addr:street" v="Bourbon Run Road"/>
    <tag k="addr:state" v="VT"/>
    <tag k="ref:vcgi:esiteid" v="134687"/>
  </node>
  <node id="-299" visible="true" lat="43.13832975" lon="-72.82941613">
    <tag k="addr:housenumber" v="252"/>
    <tag k="addr:street" v="Wild Turkey Run"/>
    <tag k="addr:state" v="VT"/>
    <tag k="ref:vcgi:esiteid" v="134692"/>
  </node>
  <node id="-462" visible="true" lat="43.11050798" lon="-72.79825857">
    <tag k="addr:housenumber" v="5299"/>
    <tag k="addr:street" v="Vermont Route 30"/>
    <tag k="addr:state" v="VT"/>
    <tag k="ref:vcgi:esiteid" v="134858"/>
  </node>
  <node id="-545" visible="true" lat="43.10053583" lon="-72.77835013">
    <tag k="addr:housenumber" v="17"/>
    <tag k="addr:street" v="Depot Street"/>
    <tag k="addr:state" v="VT"/>
    <tag k="ref:vcgi:esiteid" v="134946"/>
  </node>
  <node id="-776" visible="true" lat="43.08266054" lon="-72.81114661">
    <tag k="addr:housenumber" v="4491"/>
    <tag k="addr:street" v="West Jamaica Road"/>
    <tag k="addr:state" v="VT"/>
    <tag k="ref:vcgi:esiteid" v="135186"/>
  </node>
  <node id="-782" visible="true" lat="43.08139588" lon="-72.81115564">
    <tag k="addr:housenumber" v="4433"/>
    <tag k="addr:street" v="West Jamaica Road"/>
    <tag k="addr:state" v="VT"/>
    <tag k="ref:vcgi:esiteid" v="135192"/>
  </node>
  <node id="-787" visible="true" lat="43.08137044" lon="-72.8104163">
    <tag k="addr:housenumber" v="4431"/>
    <tag k="addr:street" v="West Jamaica Road"/>
    <tag k="addr:state" v="VT"/>
    <tag k="ref:vcgi:esiteid" v="135197"/>
  </node>
  <node id="-790" visible="true" lat="43.0812081" lon="-72.81049025">
    <tag k="addr:housenumber" v="4385"/>
    <tag k="addr:street" v="West Jamaica Road"/>
    <tag k="addr:state" v="VT"/>
    <tag k="ref:vcgi:esiteid" v="135200"/>
  </node>
  <node id="-791" visible="true" lat="43.08110126" lon="-72.81022333">
    <tag k="addr:housenumber" v="4391"/>
    <tag k="addr:street" v="West Jamaica Road"/>
    <tag k="addr:state" v="VT"/>
    <tag k="ref:vcgi:esiteid" v="135201"/>
  </node>
  <node id="-793" visible="true" lat="43.08088555" lon="-72.80977804">
    <tag k="addr:housenumber" v="4339"/>
    <tag k="addr:street" v="West Jamaica Road"/>
    <tag k="addr:state" v="VT"/>
    <tag k="ref:vcgi:esiteid" v="135203"/>
  </node>
  <node id="-810" visible="true" lat="43.07912699" lon="-72.81157339">
    <tag k="addr:housenumber" v="24"/>
    <tag k="addr:street" v="Rawson Road"/>
    <tag k="addr:state" v="VT"/>
    <tag k="ref:vcgi:esiteid" v="135220"/>
  </node>
  <node id="-816" visible="true" lat="43.07824591" lon="-72.809901">
    <tag k="addr:housenumber" v="97"/>
    <tag k="addr:street" v="White Road"/>
    <tag k="addr:state" v="VT"/>
    <tag k="ref:vcgi:esiteid" v="135226"/>
  </node>
  <node id="-823" visible="true" lat="43.07761037" lon="-72.8123464">
    <tag k="addr:housenumber" v="4050"/>
    <tag k="addr:street" v="West Jamaica Road"/>
    <tag k="addr:state" v="VT"/>
    <tag k="ref:vcgi:esiteid" v="135235"/>
  </node>
  <node id="-825" visible="true" lat="43.07725201" lon="-72.81270724">
    <tag k="addr:housenumber" v="4024"/>
    <tag k="addr:street" v="West Jamaica Road"/>
    <tag k="addr:state" v="VT"/>
    <tag k="ref:vcgi:esiteid" v="135237"/>
  </node>
  <node id="-846" visible="true" lat="43.07611952" lon="-72.811335">
    <tag k="addr:housenumber" v="249"/>
    <tag k="addr:street" v="Broken Glass Lane"/>
    <tag k="addr:state" v="VT"/>
    <tag k="ref:vcgi:esiteid" v="135258"/>
  </node>
  <node id="-857" visible="true" lat="43.07447972" lon="-72.81156565">
    <tag k="addr:housenumber" v="361"/>
    <tag k="addr:street" v="Broken Glass Lane"/>
    <tag k="addr:state" v="VT"/>
    <tag k="ref:vcgi:esiteid" v="135269"/>
  </node>
  <node id="-871" visible="true" lat="43.07226611" lon="-72.83120666">
    <tag k="addr:housenumber" v="814"/>
    <tag k="addr:street" v="Black Bear Road"/>
    <tag k="addr:state" v="VT"/>
    <tag k="ref:vcgi:esiteid" v="135284"/>
  </node>
  <node id="-877" visible="true" lat="43.07158119" lon="-72.83195813">
    <tag k="addr:housenumber" v="770"/>
    <tag k="addr:street" v="Black Bear Road"/>
    <tag k="addr:state" v="VT"/>
    <tag k="ref:vcgi:esiteid" v="135290"/>
  </node>
  <node id="-935" visible="true" lat="43.06761144" lon="-72.80946524">
    <tag k="addr:housenumber" v="640"/>
    <tag k="addr:street" v="Schoolhouse Road"/>
    <tag k="addr:state" v="VT"/>
    <tag k="ref:vcgi:esiteid" v="135348"/>
  </node>
  <node id="-948" visible="true" lat="43.06551758" lon="-72.80758716">
    <tag k="addr:housenumber" v="622"/>
    <tag k="addr:street" v="Schoolhouse Road"/>
    <tag k="addr:state" v="VT"/>
    <tag k="ref:vcgi:esiteid" v="135361"/>
  </node>
  <node id="-960" visible="true" lat="43.06343828" lon="-72.79745826">
    <tag k="addr:housenumber" v="927"/>
    <tag k="addr:street" v="South Hill Road"/>
    <tag k="addr:state" v="VT"/>
    <tag k="ref:vcgi:esiteid" v="135373"/>
  </node>
  <node id="-965" visible="true" lat="43.05976641" lon="-72.81057714">
    <tag k="addr:housenumber" v="1289"/>
    <tag k="addr:street" v="Melis Road"/>
    <tag k="addr:state" v="VT"/>
    <tag k="ref:vcgi:esiteid" v="135378"/>
  </node>
  <node id="-966" visible="true" lat="43.05954745" lon="-72.7942614">
    <tag k="addr:housenumber" v="65"/>
    <tag k="addr:street" v="Rabinowitch Road"/>
    <tag k="addr:state" v="VT"/>
    <tag k="ref:vcgi:esiteid" v="135379"/>
  </node>
  <node id="-976" visible="true" lat="43.05841147" lon="-72.79410233">
    <tag k="addr:housenumber" v="122"/>
    <tag k="addr:street" v="Rabinowitch Road"/>
    <tag k="addr:state" v="VT"/>
    <tag k="ref:vcgi:esiteid" v="135389"/>
  </node>
  <node id="-987" visible="true" lat="43.05699861" lon="-72.83837214">
    <tag k="addr:housenumber" v="400"/>
    <tag k="addr:street" v="Hemlock Hill Road"/>
    <tag k="addr:state" v="VT"/>
    <tag k="ref:vcgi:esiteid" v="135400"/>
  </node>
  <node id="-989" visible="true" lat="43.05740946" lon="-72.80460251">
    <tag k="addr:housenumber" v="1011"/>
    <tag k="addr:street" v="Melis Road"/>
    <tag k="addr:state" v="VT"/>
    <tag k="ref:vcgi:esiteid" v="135402"/>
  </node>
  <node id="-993" visible="true" lat="43.05591831" lon="-72.8330497">
    <tag k="addr:housenumber" v="270"/>
    <tag k="addr:street" v="Stargaze Lane"/>
    <tag k="addr:state" v="VT"/>
    <tag k="ref:vcgi:esiteid" v="135406"/>
  </node>
  <node id="-994" visible="true" lat="43.05593558" lon="-72.8334712">
    <tag k="addr:housenumber" v="265"/>
    <tag k="addr:street" v="Stargaze Lane"/>
    <tag k="addr:state" v="VT"/>
    <tag k="ref:vcgi:esiteid" v="135407"/>
  </node>
  <node id="-997" visible="true" lat="43.05495438" lon="-72.83401159">
    <tag k="addr:housenumber" v="215"/>
    <tag k="addr:street" v="Stargaze Lane"/>
    <tag k="addr:state" v="VT"/>
    <tag k="ref:vcgi:esiteid" v="135410"/>
  </node>
  <node id="-1001" visible="true" lat="43.05328273" lon="-72.83408826">
    <tag k="addr:housenumber" v="38"/>
    <tag k="addr:street" v="Hemlock Hill Road"/>
    <tag k="addr:state" v="VT"/>
    <tag k="ref:vcgi:esiteid" v="135414"/>
  </node>
  <node id="-1002" visible="true" lat="43.05332642" lon="-72.79703022">
    <tag k="addr:housenumber" v="524"/>
    <tag k="addr:street" v="Melis Road"/>
    <tag k="addr:state" v="VT"/>
    <tag k="ref:vcgi:esiteid" v="135415"/>
  </node>
  <node id="-1043" visible="true" lat="43.07481085" lon="-72.83319765">
    <tag k="addr:housenumber" v="2554"/>
    <tag k="addr:street" v="West Jamaica Road"/>
    <tag k="addr:state" v="VT"/>
    <tag k="ref:vcgi:esiteid" v="135456"/>
  </node>
  <node id="-1057" visible="true" lat="43.05934159" lon="-72.79437524">
    <tag k="addr:housenumber" v="73"/>
    <tag k="addr:street" v="Rabinowitch Road"/>
    <tag k="addr:state" v="VT"/>
    <tag k="ref:vcgi:esiteid" v="135471"/>
  </node>
  <node id="-1060" visible="true" lat="43.05592131" lon="-72.83746563">
    <tag k="addr:housenumber" v="296"/>
    <tag k="addr:street" v="Hemlock Hill Road"/>
    <tag k="addr:state" v="VT"/>
    <tag k="ref:vcgi:esiteid" v="135474"/>
  </node>
  <node id="-1078" visible="true" lat="43.15616764" lon="-72.86541802">
    <tag k="addr:housenumber" v="24"/>
    <tag k="addr:street" v="Greentree Road"/>
    <tag k="addr:state" v="VT"/>
    <tag k="ref:vcgi:esiteid" v="135492"/>
  </node>
  <node id="-1101" visible="true" lat="43.14030043" lon="-72.82677121">
    <tag k="addr:housenumber" v="27"/>
    <tag k="addr:street" v="Wild Turkey Run"/>
    <tag k="addr:state" v="VT"/>
    <tag k="ref:vcgi:esiteid" v="315492"/>
  </node>
  <node id="-1117" visible="true" lat="43.06360327" lon="-72.80180834">
    <tag k="addr:housenumber" v="253"/>
    <tag k="addr:street" v="Schoolhouse Road"/>
    <tag k="addr:state" v="VT"/>
    <tag k="ref:vcgi:esiteid" v="315513"/>
  </node>
  <node id="-1150" visible="true" lat="43.14064228" lon="-72.82787223">
    <tag k="addr:housenumber" v="64"/>
    <tag k="addr:street" v="Wild Turkey Run"/>
    <tag k="addr:state" v="VT"/>
    <tag k="ref:vcgi:esiteid" v="315552"/>
  </node>
  <node id="-1158" visible="true" lat="43.0650383" lon="-72.80802485">
    <tag k="addr:housenumber" v="621"/>
    <tag k="addr:street" v="Schoolhouse Road"/>
    <tag k="addr:state" v="VT"/>
    <tag k="ref:vcgi:esiteid" v="329438"/>
  </node>
  <node id="-1177" visible="true" lat="43.08150361" lon="-72.8098173">
    <tag k="addr:housenumber" v="4384"/>
    <tag k="addr:street" v="West Jamaica Road"/>
    <tag k="addr:state" v="VT"/>
    <tag k="ref:vcgi:esiteid" v="338631"/>
  </node>
  <node id="-1178" visible="true" lat="43.06866411" lon="-72.81328705">
    <tag k="addr:housenumber" v="900"/>
    <tag k="addr:street" v="Schoolhouse Road"/>
    <tag k="addr:state" v="VT"/>
    <tag k="ref:vcgi:esiteid" v="338641"/>
  </node>
  <node id="-1179" visible="true" lat="43.06426319" lon="-72.82108383">
    <tag k="addr:housenumber" v="1008"/>
    <tag k="addr:street" v="Schoolhouse Road"/>
    <tag k="addr:state" v="VT"/>
    <tag k="ref:vcgi:esiteid" v="338642"/>
  </node>
  <node id="-1186" visible="true" lat="43.07554571" lon="-72.83096405">
    <tag k="addr:housenumber" v="816"/>
    <tag k="addr:street" v="Black Bear Road"/>
    <tag k="addr:state" v="VT"/>
    <tag k="ref:vcgi:esiteid" v="338665"/>
  </node>
  <node id="-1187" visible="true" lat="43.06945545" lon="-72.82605461">
    <tag k="addr:housenumber" v="691"/>
    <tag k="addr:street" v="Black Bear Road"/>
    <tag k="addr:state" v="VT"/>
    <tag k="ref:vcgi:esiteid" v="338676"/>
  </node>
</osm>
