<?xml version="1.0" encoding="UTF-8"?>
<osm version="0.6" generator="JOSM">
  <node id="-150" visible="true" lat="43.14897984" lon="-72.84141344">
    <!-- conflict: "180 Vermont Route 100 North, Jamaica, VT" No match in OSM, but a different address exists <5m away: "180 Vt Route 100 North, Jamaica, VT" -->
    <tag k="addr:city" v="Jamaica"/>
    <tag k="addr:housenumber" v="180"/>
    <tag k="addr:street" v="Vermont Route 100 North"/>
    <tag k="addr:state" v="VT"/>
    <tag k="ref:vcgi:esiteid" v="134541"/>
  </node>
  <node id="-154" visible="true" lat="43.14811779" lon="-72.84129818">
    <!-- conflict: "132 Vermont Route 100 North, Jamaica, VT" No match in OSM, but a different address exists <5m away: "132 Vt Route 100 North, Jamaica, VT" -->
    <tag k="addr:city" v="Jamaica"/>
    <tag k="addr:housenumber" v="132"/>
    <tag k="addr:street" v="Vermont Route 100 North"/>
    <tag k="addr:state" v="VT"/>
    <tag k="ref:vcgi:esiteid" v="134545"/>
  </node>
  <node id="-159" visible="true" lat="43.14756998" lon="-72.84091628">
    <!-- conflict: "78 Vermont Route 100 North, Jamaica, VT" No match in OSM, but a different address exists <5m away: "78 Vt Route 100 North, Jamaica, VT" -->
    <tag k="addr:city" v="Jamaica"/>
    <tag k="addr:housenumber" v="78"/>
    <tag k="addr:street" v="Vermont Route 100 North"/>
    <tag k="addr:state" v="VT"/>
    <tag k="ref:vcgi:esiteid" v="134550"/>
  </node>
  <node id="-163" visible="true" lat="43.14727231" lon="-72.8417442">
    <!-- conflict: "67 Vermont Route 100 North, Jamaica, VT" No match in OSM, but a different address exists <5m away: "67 Vt Route 100 North, Jamaica, VT" -->
    <tag k="addr:city" v="Jamaica"/>
    <tag k="addr:housenumber" v="67"/>
    <tag k="addr:street" v="Vermont Route 100 North"/>
    <tag k="addr:state" v="VT"/>
    <tag k="ref:vcgi:esiteid" v="134554"/>
  </node>
  <node id="-168" visible="true" lat="43.14689026" lon="-72.83765347">
    <!-- conflict: "8592 Vermont Route 30, Jamaica, VT" No match in OSM, but a different address exists <5m away: "8592 Vt Route 30, Jamaica, VT" -->
    <tag k="addr:city" v="Jamaica"/>
    <tag k="addr:housenumber" v="8592"/>
    <tag k="addr:street" v="Vermont Route 30"/>
    <tag k="addr:state" v="VT"/>
    <tag k="ref:vcgi:esiteid" v="134559"/>
  </node>
  <node id="-173" visible="true" lat="43.14664379" lon="-72.83973439">
    <!-- conflict: "8722 Vermont Route 30, Jamaica, VT" No match in OSM, but a different address exists <5m away: "8722 Vt Route 30, Jamaica, VT" -->
    <tag k="addr:city" v="Jamaica"/>
    <tag k="addr:housenumber" v="8722"/>
    <tag k="addr:street" v="Vermont Route 30"/>
    <tag k="addr:state" v="VT"/>
    <tag k="ref:vcgi:esiteid" v="134564"/>
  </node>
  <node id="-177" visible="true" lat="43.14641659" lon="-72.83730761">
    <!-- conflict: "8602 Vermont Route 30, Jamaica, VT" No match in OSM, but a different address exists <5m away: "8602 Vt Route 30, Jamaica, VT" -->
    <tag k="addr:city" v="Jamaica"/>
    <tag k="addr:housenumber" v="8602"/>
    <tag k="addr:street" v="Vermont Route 30"/>
    <tag k="addr:state" v="VT"/>
    <tag k="ref:vcgi:esiteid" v="134568"/>
  </node>
  <node id="-179" visible="true" lat="43.14637093" lon="-72.83869114">
    <!-- conflict: "8678 Vermont Route 30, Jamaica, VT" No match in OSM, but a different address exists <5m away: "8678 Vt Route 30, Jamaica, VT" -->
    <tag k="addr:city" v="Jamaica"/>
    <tag k="addr:housenumber" v="8678"/>
    <tag k="addr:street" v="Vermont Route 30"/>
    <tag k="addr:state" v="VT"/>
    <tag k="ref:vcgi:esiteid" v="134570"/>
  </node>
  <node id="-182" visible="true" lat="43.14619922" lon="-72.83654256">
    <!-- conflict: "8566 Vermont Route 30, Jamaica, VT" No match in OSM, but a different address exists <5m away: "8566 Vt Route 30, Jamaica, VT" -->
    <tag k="addr:city" v="Jamaica"/>
    <tag k="addr:housenumber" v="8566"/>
    <tag k="addr:street" v="Vermont Route 30"/>
    <tag k="addr:state" v="VT"/>
    <tag k="ref:vcgi:esiteid" v="134573"/>
  </node>
  <node id="-186" visible="true" lat="43.14600975" lon="-72.84145341">
    <!-- conflict: "8811 Vermont Route 30, Jamaica, VT" No match in OSM, but a different address exists <5m away: "8811 State Route 30, Jamaica, VT" -->
    <tag k="addr:city" v="Jamaica"/>
    <tag k="addr:housenumber" v="8811"/>
    <tag k="addr:street" v="Vermont Route 30"/>
    <tag k="addr:state" v="VT"/>
    <tag k="ref:vcgi:esiteid" v="134577"/>
  </node>
  <node id="-188" visible="true" lat="43.14595687" lon="-72.83502293">
    <!-- conflict: "8500 Vermont Route 30, Jamaica, VT" No match in OSM, but a different address exists <5m away: "8500 Vt Route 30, Jamaica, VT" -->
    <tag k="addr:city" v="Jamaica"/>
    <tag k="addr:housenumber" v="8500"/>
    <tag k="addr:street" v="Vermont Route 30"/>
    <tag k="addr:state" v="VT"/>
    <tag k="ref:vcgi:esiteid" v="134579"/>
  </node>
  <node id="-191" visible="true" lat="43.14573484" lon="-72.8370789">
    <!-- conflict: "8581 Vermont Route 30, Jamaica, VT" No match in OSM, but a different address exists <5m away: "8581 Vt Route 30, Jamaica, VT" -->
    <tag k="addr:city" v="Jamaica"/>
    <tag k="addr:housenumber" v="8581"/>
    <tag k="addr:street" v="Vermont Route 30"/>
    <tag k="addr:state" v="VT"/>
    <tag k="ref:vcgi:esiteid" v="134582"/>
  </node>
  <node id="-196" visible="true" lat="43.1456204" lon="-72.8358345">
    <!-- conflict: "8515 Vermont Route 30, Jamaica, VT" No match in OSM, but a different address exists <5m away: "8515 Vt Route 30, Jamaica, VT" -->
    <tag k="addr:city" v="Jamaica"/>
    <tag k="addr:housenumber" v="8515"/>
    <tag k="addr:street" v="Vermont Route 30"/>
    <tag k="addr:state" v="VT"/>
    <tag k="ref:vcgi:esiteid" v="134587"/>
  </node>
  <node id="-201" visible="true" lat="43.14543237" lon="-72.83492877">
    <!-- conflict: "8465 Vermont Route 30, Jamaica, VT" No match in OSM, but a different address exists <5m away: "8465 Vt Route 30, Jamaica, VT" -->
    <tag k="addr:city" v="Jamaica"/>
    <tag k="addr:housenumber" v="8465"/>
    <tag k="addr:street" v="Vermont Route 30"/>
    <tag k="addr:state" v="VT"/>
    <tag k="ref:vcgi:esiteid" v="134592"/>
  </node>
  <node id="-221" visible="true" lat="43.14487592" lon="-72.83698305">
    <!-- conflict: "8577 Vermont Route 30, Jamaica, VT" No match in OSM, but a different address exists <5m away: "8577 Vt Route 30, Jamaica, VT" -->
    <tag k="addr:city" v="Jamaica"/>
    <tag k="addr:housenumber" v="8577"/>
    <tag k="addr:street" v="Vermont Route 30"/>
    <tag k="addr:state" v="VT"/>
    <tag k="ref:vcgi:esiteid" v="134612"/>
  </node>
  <node id="-233" visible="true" lat="43.14456408" lon="-72.83286003">
    <!-- conflict: "8365 Vermont Route 30, Jamaica, VT" No match in OSM, but a different address exists <5m away: "8365 Vt Route 30, Jamaica, VT" -->
    <tag k="addr:city" v="Jamaica"/>
    <tag k="addr:housenumber" v="8365"/>
    <tag k="addr:street" v="Vermont Route 30"/>
    <tag k="addr:state" v="VT"/>
    <tag k="ref:vcgi:esiteid" v="134624"/>
  </node>
  <node id="-234" visible="true" lat="43.14470345" lon="-72.83628616">
    <!-- conflict: "8559 Vermont Route 30, Jamaica, VT" No match in OSM, but a different address exists <5m away: "8559 Vt Route 30, Jamaica, VT" -->
    <tag k="addr:city" v="Jamaica"/>
    <tag k="addr:housenumber" v="8559"/>
    <tag k="addr:street" v="Vermont Route 30"/>
    <tag k="addr:state" v="VT"/>
    <tag k="ref:vcgi:esiteid" v="134625"/>
  </node>
  <node id="-238" visible="true" lat="43.14466944" lon="-72.83368355">
    <!-- conflict: "8405 Vermont Route 30, Jamaica, VT" No match in OSM, but a different address exists <5m away: "8405 Vt Route 30, Jamaica, VT" -->
    <tag k="addr:city" v="Jamaica"/>
    <tag k="addr:housenumber" v="8405"/>
    <tag k="addr:street" v="Vermont Route 30"/>
    <tag k="addr:state" v="VT"/>
    <tag k="ref:vcgi:esiteid" v="134629"/>
  </node>
  <node id="-243" visible="true" lat="43.14434456" lon="-72.83227099">
    <!-- conflict: "8293 Vermont Route 30, Jamaica, VT" No match in OSM, but a different address exists <5m away: "8293 Vt Route 30, Jamaica, VT" -->
    <tag k="addr:city" v="Jamaica"/>
    <tag k="addr:housenumber" v="8293"/>
    <tag k="addr:street" v="Vermont Route 30"/>
    <tag k="addr:state" v="VT"/>
    <tag k="ref:vcgi:esiteid" v="134634"/>
  </node>
  <node id="-245" visible="true" lat="43.14403314" lon="-72.83270108">
    <!-- conflict: "8367 Vermont Route 30, Jamaica, VT" No match in OSM, but a different address exists <5m away: "8367 Vt Route 30, Jamaica, VT" -->
    <tag k="addr:city" v="Jamaica"/>
    <tag k="addr:housenumber" v="8367"/>
    <tag k="addr:street" v="Vermont Route 30"/>
    <tag k="addr:state" v="VT"/>
    <tag k="ref:vcgi:esiteid" v="134636"/>
  </node>
  <node id="-264" visible="true" lat="43.14305867" lon="-72.83153836">
    <!-- conflict: "8125 Vermont Route 30, Jamaica, VT" No match in OSM, but a different address exists <5m away: "8125 Vt Route 30, Jamaica, VT" -->
    <tag k="addr:city" v="Jamaica"/>
    <tag k="addr:housenumber" v="8125"/>
    <tag k="addr:street" v="Vermont Route 30"/>
    <tag k="addr:state" v="VT"/>
    <tag k="ref:vcgi:esiteid" v="134655"/>
  </node>
  <node id="-266" visible="true" lat="43.14289937" lon="-72.82707297">
    <!-- conflict: "8026 Vermont Route 30, Jamaica, VT" No match in OSM, but a different address exists <5m away: "8026 Vt Route 30, Jamaica, VT" -->
    <tag k="addr:city" v="Jamaica"/>
    <tag k="addr:housenumber" v="8026"/>
    <tag k="addr:street" v="Vermont Route 30"/>
    <tag k="addr:state" v="VT"/>
    <tag k="ref:vcgi:esiteid" v="134657"/>
  </node>
  <node id="-493" visible="true" lat="43.10563251" lon="-72.77330001">
    <!-- conflict: "48 Salmon Hole Lane, Jamaica, VT" Fuzzy match to "48 Salmon Hole Lane, , VT" -->
    <tag k="addr:city" v="Jamaica"/>
    <tag k="addr:housenumber" v="48"/>
    <tag k="addr:street" v="Salmon Hole Lane"/>
    <tag k="addr:state" v="VT"/>
    <tag k="ref:vcgi:esiteid" v="134887"/>
  </node>
  <node id="-1012" visible="true" lat="43.05247908" lon="-72.78630589">
    <!-- conflict: "73 Vermont Route 100 South, Jamaica, VT" No match in OSM, but a different address exists <5m away: "73 Vt Route 100 South, Jamaica, VT" -->
    <tag k="addr:city" v="Jamaica"/>
    <tag k="addr:housenumber" v="73"/>
    <tag k="addr:street" v="Vermont Route 100 South"/>
    <tag k="addr:state" v="VT"/>
    <tag k="ref:vcgi:esiteid" v="135417"/>
  </node>
  <node id="-1078" visible="true" lat="43.15825195" lon="-72.83599333">
    <!-- conflict: "900 Vermont Route 100 North, Jamaica, VT" No match in OSM, but a different address exists <5m away: "900 Vt Route 100 North, Jamaica, VT" -->
    <tag k="addr:city" v="Jamaica"/>
    <tag k="addr:housenumber" v="900"/>
    <tag k="addr:street" v="Vermont Route 100 North"/>
    <tag k="addr:state" v="VT"/>
    <tag k="ref:vcgi:esiteid" v="135484"/>
  </node>
  <node id="-1224" visible="true" lat="43.14587711" lon="-72.83876569">
    <!-- conflict: "8701 Vermont Route 30, Jamaica, VT" No match in OSM, but a different address exists <5m away: "8701 VT Route 30, Jamaica, VT" -->
    <tag k="addr:city" v="Jamaica"/>
    <tag k="addr:housenumber" v="8701"/>
    <tag k="addr:street" v="Vermont Route 30"/>
    <tag k="addr:state" v="VT"/>
    <tag k="ref:vcgi:esiteid" v="453117"/>
  </node>
  <node id="-1250" visible="true" lat="43.07211813" lon="-72.87045794">
    <!-- conflict: "124 Forrester Road, Jamaica, VT" Fuzzy match to "124 Forrester Road, Stratton, VT" -->
    <tag k="addr:city" v="Jamaica"/>
    <tag k="addr:housenumber" v="124"/>
    <tag k="addr:street" v="Forrester Road"/>
    <tag k="addr:state" v="VT"/>
    <tag k="ref:vcgi:esiteid" v="616439"/>
  </node>
</osm>
