<?xml version="1.0" encoding="UTF-8"?>
<osm version="0.6" generator="JOSM">
  <node id="-232" visible="true" lat="44.95266342" lon="-72.43502807">
    <tag k="addr:city" v="Jay"/>
    <tag k="addr:housenumber" v="257"/>
    <tag k="addr:street" v="Revoir Flat Road"/>
    <tag k="addr:state" v="VT"/>
    <tag k="ref:vcgi:esiteid" v="135641"/>
  </node>
  <node id="-459" visible="true" lat="44.9294776" lon="-72.43498632">
    <tag k="addr:city" v="Jay"/>
    <tag k="addr:housenumber" v="197"/>
    <tag k="addr:street" v="Cross Road"/>
    <tag k="addr:state" v="VT"/>
    <tag k="ref:vcgi:esiteid" v="135873"/>
  </node>
  <node id="-559" visible="true" lat="44.97829374" lon="-72.48224192">
    <tag k="addr:city" v="Jay"/>
    <tag k="addr:housenumber" v="181"/>
    <tag k="addr:street" v="Leavitt Circle"/>
    <tag k="addr:state" v="VT"/>
    <tag k="ref:vcgi:esiteid" v="342627"/>
  </node>
  <node id="-569" visible="true" lat="44.92720197" lon="-72.43288321">
    <tag k="addr:city" v="Jay"/>
    <tag k="addr:housenumber" v="18"/>
    <tag k="addr:street" v="Cross Road"/>
    <tag k="addr:state" v="VT"/>
    <tag k="ref:vcgi:esiteid" v="446615"/>
  </node>
</osm>
