<?xml version="1.0" encoding="UTF-8"?>
<osm version="0.6" generator="JOSM">
  <node id="-100" visible="true" lat="44.97221055" lon="-72.458725">
    <tag k="addr:city" v="Jay"/>
    <tag k="addr:housenumber" v="1921"/>
    <tag k="addr:street" v="Vermont Route 105"/>
    <tag k="addr:state" v="VT"/>
    <tag k="ref:vcgi:esiteid" v="18518"/>
  </node>
  <node id="-101" visible="true" lat="45.00452555" lon="-72.44342637">
    <tag k="addr:city" v="Jay"/>
    <tag k="addr:housenumber" v="2373"/>
    <tag k="addr:street" v="North Jay Road"/>
    <tag k="addr:state" v="VT"/>
    <tag k="ref:vcgi:esiteid" v="135507"/>
  </node>
  <node id="-102" visible="true" lat="44.99987123" lon="-72.43851342">
    <tag k="addr:city" v="Jay"/>
    <tag k="addr:housenumber" v="2670"/>
    <tag k="addr:street" v="North Jay Road"/>
    <tag k="addr:state" v="VT"/>
    <tag k="ref:vcgi:esiteid" v="135508"/>
  </node>
  <node id="-103" visible="true" lat="45.00133457" lon="-72.43203054">
    <tag k="addr:city" v="Jay"/>
    <tag k="addr:housenumber" v="3011"/>
    <tag k="addr:street" v="North Jay Road"/>
    <tag k="addr:state" v="VT"/>
    <tag k="ref:vcgi:esiteid" v="135509"/>
  </node>
  <node id="-104" visible="true" lat="44.99843148" lon="-72.44444044">
    <tag k="addr:city" v="Jay"/>
    <tag k="addr:housenumber" v="56"/>
    <tag k="addr:street" v="Cyr Farm Road"/>
    <tag k="addr:state" v="VT"/>
    <tag k="ref:vcgi:esiteid" v="135510"/>
  </node>
  <node id="-105" visible="true" lat="44.99784556" lon="-72.44058813">
    <tag k="addr:city" v="Jay"/>
    <tag k="addr:housenumber" v="235"/>
    <tag k="addr:street" v="Cyr Farm Road"/>
    <tag k="addr:state" v="VT"/>
    <tag k="ref:vcgi:esiteid" v="135511"/>
  </node>
  <node id="-106" visible="true" lat="44.99606194" lon="-72.54825903">
    <tag k="addr:city" v="Jay"/>
    <tag k="addr:housenumber" v="152"/>
    <tag k="addr:street" v="Overlook Drive"/>
    <tag k="addr:state" v="VT"/>
    <tag k="ref:vcgi:esiteid" v="135512"/>
  </node>
  <node id="-107" visible="true" lat="44.98859984" lon="-72.45280288">
    <tag k="addr:city" v="Jay"/>
    <tag k="addr:housenumber" v="1257"/>
    <tag k="addr:street" v="North Jay Road"/>
    <tag k="addr:state" v="VT"/>
    <tag k="ref:vcgi:esiteid" v="135513"/>
  </node>
  <node id="-108" visible="true" lat="44.98799713" lon="-72.45093468">
    <tag k="addr:city" v="Jay"/>
    <tag k="addr:housenumber" v="1255"/>
    <tag k="addr:street" v="North Jay Road"/>
    <tag k="addr:state" v="VT"/>
    <tag k="ref:vcgi:esiteid" v="135514"/>
  </node>
  <node id="-109" visible="true" lat="44.98742261" lon="-72.54295441">
    <tag k="addr:city" v="Jay"/>
    <tag k="addr:housenumber" v="435"/>
    <tag k="addr:street" v="West Jay Road"/>
    <tag k="addr:state" v="VT"/>
    <tag k="ref:vcgi:esiteid" v="135515"/>
  </node>
  <node id="-110" visible="true" lat="44.98745165" lon="-72.54460131">
    <tag k="addr:city" v="Jay"/>
    <tag k="addr:housenumber" v="561"/>
    <tag k="addr:street" v="West Jay Road"/>
    <tag k="addr:state" v="VT"/>
    <tag k="ref:vcgi:esiteid" v="135516"/>
  </node>
  <node id="-111" visible="true" lat="44.98707199" lon="-72.53839111">
    <tag k="addr:city" v="Jay"/>
    <tag k="addr:housenumber" v="272"/>
    <tag k="addr:street" v="West Jay Road"/>
    <tag k="addr:state" v="VT"/>
    <tag k="ref:vcgi:esiteid" v="135517"/>
  </node>
  <node id="-112" visible="true" lat="44.98678131" lon="-72.44769916">
    <tag k="addr:city" v="Jay"/>
    <tag k="addr:housenumber" v="1240"/>
    <tag k="addr:street" v="North Jay Road"/>
    <tag k="addr:state" v="VT"/>
    <tag k="ref:vcgi:esiteid" v="135518"/>
  </node>
  <node id="-113" visible="true" lat="44.9952827" lon="-72.50002454">
    <tag k="addr:city" v="Jay"/>
    <tag k="addr:housenumber" v="860"/>
    <tag k="addr:street" v="True North Way"/>
    <tag k="addr:state" v="VT"/>
    <tag k="ref:vcgi:esiteid" v="135519"/>
  </node>
  <node id="-114" visible="true" lat="44.98599078" lon="-72.45120808">
    <tag k="addr:city" v="Jay"/>
    <tag k="addr:housenumber" v="1137"/>
    <tag k="addr:street" v="North Jay Road"/>
    <tag k="addr:state" v="VT"/>
    <tag k="ref:vcgi:esiteid" v="135520"/>
  </node>
  <node id="-115" visible="true" lat="44.98542382" lon="-72.45026151">
    <tag k="addr:city" v="Jay"/>
    <tag k="addr:housenumber" v="1059"/>
    <tag k="addr:street" v="North Jay Road"/>
    <tag k="addr:state" v="VT"/>
    <tag k="ref:vcgi:esiteid" v="135521"/>
  </node>
  <node id="-116" visible="true" lat="44.98468132" lon="-72.53406729">
    <tag k="addr:city" v="Jay"/>
    <tag k="addr:housenumber" v="102"/>
    <tag k="addr:street" v="West Jay Road"/>
    <tag k="addr:state" v="VT"/>
    <tag k="ref:vcgi:esiteid" v="135522"/>
  </node>
  <node id="-117" visible="true" lat="44.98420728" lon="-72.45162551">
    <tag k="addr:city" v="Jay"/>
    <tag k="addr:housenumber" v="1017"/>
    <tag k="addr:street" v="North Jay Road"/>
    <tag k="addr:state" v="VT"/>
    <tag k="ref:vcgi:esiteid" v="135523"/>
  </node>
  <node id="-118" visible="true" lat="44.98411906" lon="-72.4488284">
    <tag k="addr:city" v="Jay"/>
    <tag k="addr:housenumber" v="974"/>
    <tag k="addr:street" v="North Jay Road"/>
    <tag k="addr:state" v="VT"/>
    <tag k="ref:vcgi:esiteid" v="135524"/>
  </node>
  <node id="-119" visible="true" lat="44.98137764" lon="-72.44635836">
    <tag k="addr:city" v="Jay"/>
    <tag k="addr:housenumber" v="215"/>
    <tag k="addr:street" v="Partridge Hollow Road"/>
    <tag k="addr:state" v="VT"/>
    <tag k="ref:vcgi:esiteid" v="135525"/>
  </node>
  <node id="-120" visible="true" lat="44.98112402" lon="-72.43421667">
    <tag k="addr:city" v="Jay"/>
    <tag k="addr:housenumber" v="1017"/>
    <tag k="addr:street" v="Mayhew Road"/>
    <tag k="addr:state" v="VT"/>
    <tag k="ref:vcgi:esiteid" v="135526"/>
  </node>
  <node id="-121" visible="true" lat="44.98060598" lon="-72.4608669">
    <tag k="addr:city" v="Jay"/>
    <tag k="addr:housenumber" v="450"/>
    <tag k="addr:street" v="Tranquility Lane"/>
    <tag k="addr:state" v="VT"/>
    <tag k="ref:vcgi:esiteid" v="135527"/>
  </node>
  <node id="-122" visible="true" lat="44.98038864" lon="-72.44213867">
    <tag k="addr:city" v="Jay"/>
    <tag k="addr:housenumber" v="357"/>
    <tag k="addr:street" v="Partridge Hollow Road"/>
    <tag k="addr:state" v="VT"/>
    <tag k="ref:vcgi:esiteid" v="135528"/>
  </node>
  <node id="-123" visible="true" lat="44.97934702" lon="-72.44355877">
    <tag k="addr:city" v="Jay"/>
    <tag k="addr:housenumber" v="270"/>
    <tag k="addr:street" v="Partridge Hollow Road"/>
    <tag k="addr:state" v="VT"/>
    <tag k="ref:vcgi:esiteid" v="135529"/>
  </node>
  <node id="-124" visible="true" lat="44.97941589" lon="-72.44631195">
    <tag k="addr:city" v="Jay"/>
    <tag k="addr:housenumber" v="137"/>
    <tag k="addr:street" v="Partridge Hollow Road"/>
    <tag k="addr:state" v="VT"/>
    <tag k="ref:vcgi:esiteid" v="135530"/>
  </node>
  <node id="-125" visible="true" lat="44.9792579" lon="-72.44432582">
    <tag k="addr:city" v="Jay"/>
    <tag k="addr:housenumber" v="226"/>
    <tag k="addr:street" v="Partridge Hollow Road"/>
    <tag k="addr:state" v="VT"/>
    <tag k="ref:vcgi:esiteid" v="135531"/>
  </node>
  <node id="-126" visible="true" lat="44.97906124" lon="-72.44870304">
    <tag k="addr:city" v="Jay"/>
    <tag k="addr:housenumber" v="628"/>
    <tag k="addr:street" v="North Jay Road"/>
    <tag k="addr:state" v="VT"/>
    <tag k="ref:vcgi:esiteid" v="135532"/>
  </node>
  <node id="-127" visible="true" lat="44.97805786" lon="-72.47375488">
    <tag k="addr:city" v="Jay"/>
    <tag k="addr:housenumber" v="110"/>
    <tag k="addr:street" v="Camp Road"/>
    <tag k="addr:state" v="VT"/>
    <tag k="ref:vcgi:esiteid" v="135533"/>
  </node>
  <node id="-128" visible="true" lat="44.97786677" lon="-72.44925971">
    <tag k="addr:city" v="Jay"/>
    <tag k="addr:housenumber" v="557"/>
    <tag k="addr:street" v="North Jay Road"/>
    <tag k="addr:state" v="VT"/>
    <tag k="ref:vcgi:esiteid" v="135534"/>
  </node>
  <node id="-129" visible="true" lat="44.97758065" lon="-72.44896399">
    <tag k="addr:city" v="Jay"/>
    <tag k="addr:housenumber" v="537"/>
    <tag k="addr:street" v="North Jay Road"/>
    <tag k="addr:state" v="VT"/>
    <tag k="ref:vcgi:esiteid" v="135536"/>
  </node>
  <node id="-130" visible="true" lat="44.97768305" lon="-72.47844327">
    <tag k="addr:city" v="Jay"/>
    <tag k="addr:housenumber" v="56"/>
    <tag k="addr:street" v="Leavitt Circle"/>
    <tag k="addr:state" v="VT"/>
    <tag k="ref:vcgi:esiteid" v="135537"/>
  </node>
  <node id="-131" visible="true" lat="44.97739681" lon="-72.45994262">
    <tag k="addr:city" v="Jay"/>
    <tag k="addr:housenumber" v="438"/>
    <tag k="addr:street" v="Tranquility Lane"/>
    <tag k="addr:state" v="VT"/>
    <tag k="ref:vcgi:esiteid" v="135538"/>
  </node>
  <node id="-132" visible="true" lat="44.97745842" lon="-72.46205577">
    <tag k="addr:city" v="Jay"/>
    <tag k="addr:housenumber" v="526"/>
    <tag k="addr:street" v="Tranquility Lane"/>
    <tag k="addr:state" v="VT"/>
    <tag k="ref:vcgi:esiteid" v="135540"/>
  </node>
  <node id="-133" visible="true" lat="44.97716096" lon="-72.47981763">
    <tag k="addr:city" v="Jay"/>
    <tag k="addr:housenumber" v="109"/>
    <tag k="addr:street" v="Leavitt Circle"/>
    <tag k="addr:state" v="VT"/>
    <tag k="ref:vcgi:esiteid" v="135541"/>
  </node>
  <node id="-134" visible="true" lat="44.97715475" lon="-72.47882436">
    <tag k="addr:city" v="Jay"/>
    <tag k="addr:housenumber" v="65"/>
    <tag k="addr:street" v="Leavitt Circle"/>
    <tag k="addr:state" v="VT"/>
    <tag k="ref:vcgi:esiteid" v="135542"/>
  </node>
  <node id="-135" visible="true" lat="44.97689952" lon="-72.4323979">
    <tag k="addr:city" v="Jay"/>
    <tag k="addr:housenumber" v="763"/>
    <tag k="addr:street" v="Mayhew Road"/>
    <tag k="addr:state" v="VT"/>
    <tag k="ref:vcgi:esiteid" v="135543"/>
  </node>
  <node id="-136" visible="true" lat="44.9758674" lon="-72.43126804">
    <tag k="addr:city" v="Jay"/>
    <tag k="addr:housenumber" v="666"/>
    <tag k="addr:street" v="Mayhew Road"/>
    <tag k="addr:state" v="VT"/>
    <tag k="ref:vcgi:esiteid" v="135544"/>
  </node>
  <node id="-137" visible="true" lat="44.97549059" lon="-72.44922818">
    <tag k="addr:city" v="Jay"/>
    <tag k="addr:housenumber" v="381"/>
    <tag k="addr:street" v="North Jay Road"/>
    <tag k="addr:state" v="VT"/>
    <tag k="ref:vcgi:esiteid" v="135545"/>
  </node>
  <node id="-138" visible="true" lat="44.97385381" lon="-72.44878306">
    <tag k="addr:city" v="Jay"/>
    <tag k="addr:housenumber" v="285"/>
    <tag k="addr:street" v="North Jay Road"/>
    <tag k="addr:state" v="VT"/>
    <tag k="ref:vcgi:esiteid" v="135546"/>
  </node>
  <node id="-139" visible="true" lat="44.97329637" lon="-72.44789044">
    <tag k="addr:city" v="Jay"/>
    <tag k="addr:housenumber" v="230"/>
    <tag k="addr:street" v="North Jay Road"/>
    <tag k="addr:state" v="VT"/>
    <tag k="ref:vcgi:esiteid" v="135548"/>
  </node>
  <node id="-140" visible="true" lat="44.97274449" lon="-72.43320897">
    <tag k="addr:city" v="Jay"/>
    <tag k="addr:housenumber" v="537"/>
    <tag k="addr:street" v="Mayhew Road"/>
    <tag k="addr:state" v="VT"/>
    <tag k="ref:vcgi:esiteid" v="135549"/>
  </node>
  <node id="-141" visible="true" lat="44.97295761" lon="-72.45765686">
    <tag k="addr:city" v="Jay"/>
    <tag k="addr:housenumber" v="1860"/>
    <tag k="addr:street" v="Vermont Route 105"/>
    <tag k="addr:state" v="VT"/>
    <tag k="ref:vcgi:esiteid" v="135550"/>
  </node>
  <node id="-142" visible="true" lat="44.97272723" lon="-72.43137239">
    <tag k="addr:city" v="Jay"/>
    <tag k="addr:housenumber" v="435"/>
    <tag k="addr:street" v="Mayhew Road"/>
    <tag k="addr:state" v="VT"/>
    <tag k="ref:vcgi:esiteid" v="135552"/>
  </node>
  <node id="-143" visible="true" lat="44.97262961" lon="-72.46731964">
    <tag k="addr:city" v="Jay"/>
    <tag k="addr:housenumber" v="2327"/>
    <tag k="addr:street" v="Vermont Route 105"/>
    <tag k="addr:state" v="VT"/>
    <tag k="ref:vcgi:esiteid" v="135553"/>
  </node>
  <node id="-144" visible="true" lat="44.97245407" lon="-72.46870422">
    <tag k="addr:city" v="Jay"/>
    <tag k="addr:housenumber" v="1721"/>
    <tag k="addr:street" v="Morse Road"/>
    <tag k="addr:state" v="VT"/>
    <tag k="ref:vcgi:esiteid" v="135554"/>
  </node>
  <node id="-145" visible="true" lat="44.97226715" lon="-72.46817779">
    <tag k="addr:city" v="Jay"/>
    <tag k="addr:housenumber" v="1704"/>
    <tag k="addr:street" v="Morse Road"/>
    <tag k="addr:state" v="VT"/>
    <tag k="ref:vcgi:esiteid" v="135555"/>
  </node>
  <node id="-146" visible="true" lat="44.97219857" lon="-72.45304783">
    <tag k="addr:city" v="Jay"/>
    <tag k="addr:housenumber" v="1642"/>
    <tag k="addr:street" v="Vermont Route 105"/>
    <tag k="addr:state" v="VT"/>
    <tag k="ref:vcgi:esiteid" v="135556"/>
  </node>
  <node id="-147" visible="true" lat="44.97196628" lon="-72.45666443">
    <tag k="addr:city" v="Jay"/>
    <tag k="addr:housenumber" v="1835"/>
    <tag k="addr:street" v="Vermont Route 105"/>
    <tag k="addr:state" v="VT"/>
    <tag k="ref:vcgi:esiteid" v="135557"/>
  </node>
  <node id="-148" visible="true" lat="44.97195434" lon="-72.46852874">
    <tag k="addr:city" v="Jay"/>
    <tag k="addr:housenumber" v="1676"/>
    <tag k="addr:street" v="Morse Road"/>
    <tag k="addr:state" v="VT"/>
    <tag k="ref:vcgi:esiteid" v="135558"/>
  </node>
  <node id="-149" visible="true" lat="44.97166037" lon="-72.44760092">
    <tag k="addr:city" v="Jay"/>
    <tag k="addr:housenumber" v="110"/>
    <tag k="addr:street" v="North Jay Road"/>
    <tag k="addr:state" v="VT"/>
    <tag k="ref:vcgi:esiteid" v="135559"/>
  </node>
  <node id="-150" visible="true" lat="44.97181701" lon="-72.4702301">
    <tag k="addr:city" v="Jay"/>
    <tag k="addr:housenumber" v="1719"/>
    <tag k="addr:street" v="Morse Road"/>
    <tag k="addr:state" v="VT"/>
    <tag k="ref:vcgi:esiteid" v="135560"/>
  </node>
  <node id="-151" visible="true" lat="44.97166142" lon="-72.43274386">
    <tag k="addr:city" v="Jay"/>
    <tag k="addr:housenumber" v="423"/>
    <tag k="addr:street" v="Mayhew Road"/>
    <tag k="addr:state" v="VT"/>
    <tag k="ref:vcgi:esiteid" v="135561"/>
  </node>
  <node id="-152" visible="true" lat="44.97130584" lon="-72.46983337">
    <tag k="addr:city" v="Jay"/>
    <tag k="addr:housenumber" v="1603"/>
    <tag k="addr:street" v="Morse Road"/>
    <tag k="addr:state" v="VT"/>
    <tag k="ref:vcgi:esiteid" v="135562"/>
  </node>
  <node id="-153" visible="true" lat="44.97093339" lon="-72.44895372">
    <tag k="addr:city" v="Jay"/>
    <tag k="addr:housenumber" v="1414"/>
    <tag k="addr:street" v="Vermont Route 105"/>
    <tag k="addr:state" v="VT"/>
    <tag k="ref:vcgi:esiteid" v="135563"/>
  </node>
  <node id="-154" visible="true" lat="44.97040344" lon="-72.45196334">
    <tag k="addr:city" v="Jay"/>
    <tag k="addr:housenumber" v="1547"/>
    <tag k="addr:street" v="Vermont Route 105"/>
    <tag k="addr:state" v="VT"/>
    <tag k="ref:vcgi:esiteid" v="135564"/>
  </node>
  <node id="-155" visible="true" lat="44.97042465" lon="-72.46961212">
    <tag k="addr:city" v="Jay"/>
    <tag k="addr:housenumber" v="1560"/>
    <tag k="addr:street" v="Morse Road"/>
    <tag k="addr:state" v="VT"/>
    <tag k="ref:vcgi:esiteid" v="135565"/>
  </node>
  <node id="-156" visible="true" lat="44.96967379" lon="-72.44518818">
    <tag k="addr:city" v="Jay"/>
    <tag k="addr:housenumber" v="1210"/>
    <tag k="addr:street" v="Vermont Route 105"/>
    <tag k="addr:state" v="VT"/>
    <tag k="ref:vcgi:esiteid" v="135566"/>
  </node>
  <node id="-157" visible="true" lat="44.9694252" lon="-72.42958068">
    <tag k="addr:city" v="Jay"/>
    <tag k="addr:housenumber" v="226"/>
    <tag k="addr:street" v="Mayhew Road"/>
    <tag k="addr:state" v="VT"/>
    <tag k="ref:vcgi:esiteid" v="135567"/>
  </node>
  <node id="-158" visible="true" lat="44.96862299" lon="-72.44884698">
    <tag k="addr:city" v="Jay"/>
    <tag k="addr:housenumber" v="3041"/>
    <tag k="addr:street" v="Cross Road"/>
    <tag k="addr:state" v="VT"/>
    <tag k="ref:vcgi:esiteid" v="135568"/>
  </node>
  <node id="-159" visible="true" lat="44.96845068" lon="-72.44501885">
    <tag k="addr:city" v="Jay"/>
    <tag k="addr:housenumber" v="1221"/>
    <tag k="addr:street" v="Vermont Route 105"/>
    <tag k="addr:state" v="VT"/>
    <tag k="ref:vcgi:esiteid" v="135569"/>
  </node>
  <node id="-160" visible="true" lat="44.96868515" lon="-72.47070312">
    <tag k="addr:city" v="Jay"/>
    <tag k="addr:housenumber" v="1423"/>
    <tag k="addr:street" v="Morse Road"/>
    <tag k="addr:state" v="VT"/>
    <tag k="ref:vcgi:esiteid" v="135570"/>
  </node>
  <node id="-161" visible="true" lat="44.96834443" lon="-72.44706804">
    <tag k="addr:city" v="Jay"/>
    <tag k="addr:housenumber" v="3014"/>
    <tag k="addr:street" v="Cross Road"/>
    <tag k="addr:state" v="VT"/>
    <tag k="ref:vcgi:esiteid" v="135571"/>
  </node>
  <node id="-162" visible="true" lat="44.96842956" lon="-72.43013">
    <tag k="addr:city" v="Jay"/>
    <tag k="addr:housenumber" v="165"/>
    <tag k="addr:street" v="Mayhew Road"/>
    <tag k="addr:state" v="VT"/>
    <tag k="ref:vcgi:esiteid" v="135572"/>
  </node>
  <node id="-163" visible="true" lat="44.96813201" lon="-72.43190002">
    <tag k="addr:city" v="Jay"/>
    <tag k="addr:housenumber" v="107"/>
    <tag k="addr:street" v="Bacon Road"/>
    <tag k="addr:state" v="VT"/>
    <tag k="ref:vcgi:esiteid" v="135573"/>
  </node>
  <node id="-164" visible="true" lat="44.96775233" lon="-72.44412374">
    <tag k="addr:city" v="Jay"/>
    <tag k="addr:housenumber" v="46"/>
    <tag k="addr:street" v="Morin Drive"/>
    <tag k="addr:state" v="VT"/>
    <tag k="ref:vcgi:esiteid" v="135574"/>
  </node>
  <node id="-165" visible="true" lat="44.9679128" lon="-72.42710843">
    <tag k="addr:city" v="Jay"/>
    <tag k="addr:housenumber" v="179"/>
    <tag k="addr:street" v="Chemin Panoramique"/>
    <tag k="addr:state" v="VT"/>
    <tag k="ref:vcgi:esiteid" v="135575"/>
  </node>
  <node id="-166" visible="true" lat="44.96685827" lon="-72.44391678">
    <tag k="addr:city" v="Jay"/>
    <tag k="addr:housenumber" v="108"/>
    <tag k="addr:street" v="Morin Drive"/>
    <tag k="addr:state" v="VT"/>
    <tag k="ref:vcgi:esiteid" v="135576"/>
  </node>
  <node id="-167" visible="true" lat="44.96707153" lon="-72.47022247">
    <tag k="addr:city" v="Jay"/>
    <tag k="addr:housenumber" v="1312"/>
    <tag k="addr:street" v="Morse Road"/>
    <tag k="addr:state" v="VT"/>
    <tag k="ref:vcgi:esiteid" v="135577"/>
  </node>
  <node id="-168" visible="true" lat="44.96660307" lon="-72.43795865">
    <tag k="addr:city" v="Jay"/>
    <tag k="addr:housenumber" v="837"/>
    <tag k="addr:street" v="Vermont Route 105"/>
    <tag k="addr:state" v="VT"/>
    <tag k="ref:vcgi:esiteid" v="135578"/>
  </node>
  <node id="-169" visible="true" lat="44.96602868" lon="-72.44386462">
    <tag k="addr:city" v="Jay"/>
    <tag k="addr:housenumber" v="161"/>
    <tag k="addr:street" v="Morin Drive"/>
    <tag k="addr:state" v="VT"/>
    <tag k="ref:vcgi:esiteid" v="135579"/>
  </node>
  <node id="-170" visible="true" lat="44.96582412" lon="-72.42764282">
    <tag k="addr:city" v="Jay"/>
    <tag k="addr:housenumber" v="350"/>
    <tag k="addr:street" v="Loop Road"/>
    <tag k="addr:state" v="VT"/>
    <tag k="ref:vcgi:esiteid" v="135582"/>
  </node>
  <node id="-171" visible="true" lat="44.96572875" lon="-72.42703247">
    <tag k="addr:city" v="Jay"/>
    <tag k="addr:housenumber" v="380"/>
    <tag k="addr:street" v="Loop Road"/>
    <tag k="addr:state" v="VT"/>
    <tag k="ref:vcgi:esiteid" v="135583"/>
  </node>
  <node id="-172" visible="true" lat="44.96547922" lon="-72.42590402">
    <tag k="addr:city" v="Jay"/>
    <tag k="addr:housenumber" v="438"/>
    <tag k="addr:street" v="Loop Road"/>
    <tag k="addr:state" v="VT"/>
    <tag k="ref:vcgi:esiteid" v="135584"/>
  </node>
  <node id="-173" visible="true" lat="44.96546554" lon="-72.44361114">
    <tag k="addr:city" v="Jay"/>
    <tag k="addr:housenumber" v="135"/>
    <tag k="addr:street" v="Elm Drive"/>
    <tag k="addr:state" v="VT"/>
    <tag k="ref:vcgi:esiteid" v="135585"/>
  </node>
  <node id="-174" visible="true" lat="44.9652092" lon="-72.43742722">
    <tag k="addr:city" v="Jay"/>
    <tag k="addr:housenumber" v="464"/>
    <tag k="addr:street" v="Cemetery Road"/>
    <tag k="addr:state" v="VT"/>
    <tag k="ref:vcgi:esiteid" v="135586"/>
  </node>
  <node id="-175" visible="true" lat="44.96531163" lon="-72.43905073">
    <tag k="addr:city" v="Jay"/>
    <tag k="addr:housenumber" v="403"/>
    <tag k="addr:street" v="Cemetery Road"/>
    <tag k="addr:state" v="VT"/>
    <tag k="ref:vcgi:esiteid" v="135587"/>
  </node>
  <node id="-176" visible="true" lat="44.96505237" lon="-72.45676818">
    <tag k="addr:city" v="Jay"/>
    <tag k="addr:housenumber" v="494"/>
    <tag k="addr:street" v="Morse Road"/>
    <tag k="addr:state" v="VT"/>
    <tag k="ref:vcgi:esiteid" v="135588"/>
  </node>
  <node id="-177" visible="true" lat="44.96507263" lon="-72.42453002">
    <tag k="addr:city" v="Jay"/>
    <tag k="addr:housenumber" v="512"/>
    <tag k="addr:street" v="Loop Road"/>
    <tag k="addr:state" v="VT"/>
    <tag k="ref:vcgi:esiteid" v="135589"/>
  </node>
  <node id="-178" visible="true" lat="44.96494044" lon="-72.44310458">
    <tag k="addr:city" v="Jay"/>
    <tag k="addr:housenumber" v="87"/>
    <tag k="addr:street" v="Elm Drive"/>
    <tag k="addr:state" v="VT"/>
    <tag k="ref:vcgi:esiteid" v="135590"/>
  </node>
  <node id="-179" visible="true" lat="44.96476917" lon="-72.43853185">
    <tag k="addr:city" v="Jay"/>
    <tag k="addr:housenumber" v="412"/>
    <tag k="addr:street" v="Cemetery Road"/>
    <tag k="addr:state" v="VT"/>
    <tag k="ref:vcgi:esiteid" v="135591"/>
  </node>
  <node id="-180" visible="true" lat="44.96466996" lon="-72.42534888">
    <tag k="addr:city" v="Jay"/>
    <tag k="addr:housenumber" v="472"/>
    <tag k="addr:street" v="Loop Road"/>
    <tag k="addr:state" v="VT"/>
    <tag k="ref:vcgi:esiteid" v="135592"/>
  </node>
  <node id="-181" visible="true" lat="44.964827" lon="-72.42678411">
    <tag k="addr:city" v="Jay"/>
    <tag k="addr:housenumber" v="218"/>
    <tag k="addr:street" v="Vermont Route 105"/>
    <tag k="addr:state" v="VT"/>
    <tag k="ref:vcgi:esiteid" v="135593"/>
  </node>
  <node id="-182" visible="true" lat="44.96470144" lon="-72.42602843">
    <tag k="addr:city" v="Jay"/>
    <tag k="addr:housenumber" v="184"/>
    <tag k="addr:street" v="Vermont Route 105"/>
    <tag k="addr:state" v="VT"/>
    <tag k="ref:vcgi:esiteid" v="135594"/>
  </node>
  <node id="-183" visible="true" lat="44.96474335" lon="-72.4599143">
    <tag k="addr:city" v="Jay"/>
    <tag k="addr:housenumber" v="656"/>
    <tag k="addr:street" v="Morse Road"/>
    <tag k="addr:state" v="VT"/>
    <tag k="ref:vcgi:esiteid" v="135595"/>
  </node>
  <node id="-184" visible="true" lat="44.96450042" lon="-72.44116211">
    <tag k="addr:city" v="Jay"/>
    <tag k="addr:housenumber" v="293"/>
    <tag k="addr:street" v="Cemetery Road"/>
    <tag k="addr:state" v="VT"/>
    <tag k="ref:vcgi:esiteid" v="135596"/>
  </node>
  <node id="-185" visible="true" lat="44.96446706" lon="-72.46066217">
    <tag k="addr:city" v="Jay"/>
    <tag k="addr:housenumber" v="684"/>
    <tag k="addr:street" v="Morse Road"/>
    <tag k="addr:state" v="VT"/>
    <tag k="ref:vcgi:esiteid" v="135597"/>
  </node>
  <node id="-186" visible="true" lat="44.96445462" lon="-72.44180435">
    <tag k="addr:city" v="Jay"/>
    <tag k="addr:housenumber" v="263"/>
    <tag k="addr:street" v="Cemetery Road"/>
    <tag k="addr:state" v="VT"/>
    <tag k="ref:vcgi:esiteid" v="135598"/>
  </node>
  <node id="-187" visible="true" lat="44.96442936" lon="-72.44264411">
    <tag k="addr:city" v="Jay"/>
    <tag k="addr:housenumber" v="37"/>
    <tag k="addr:street" v="Elm Drive"/>
    <tag k="addr:state" v="VT"/>
    <tag k="ref:vcgi:esiteid" v="135599"/>
  </node>
  <node id="-188" visible="true" lat="44.96434779" lon="-72.45539295">
    <tag k="addr:city" v="Jay"/>
    <tag k="addr:housenumber" v="426"/>
    <tag k="addr:street" v="Morse Road"/>
    <tag k="addr:state" v="VT"/>
    <tag k="ref:vcgi:esiteid" v="135600"/>
  </node>
  <node id="-189" visible="true" lat="44.96434402" lon="-72.46705627">
    <tag k="addr:city" v="Jay"/>
    <tag k="addr:housenumber" v="996"/>
    <tag k="addr:street" v="Morse Road"/>
    <tag k="addr:state" v="VT"/>
    <tag k="ref:vcgi:esiteid" v="135601"/>
  </node>
  <node id="-190" visible="true" lat="44.96423586" lon="-72.42989461">
    <tag k="addr:city" v="Jay"/>
    <tag k="addr:housenumber" v="367"/>
    <tag k="addr:street" v="Vermont Route 105"/>
    <tag k="addr:state" v="VT"/>
    <tag k="ref:vcgi:esiteid" v="135602"/>
  </node>
  <node id="-191" visible="true" lat="44.96416863" lon="-72.42839461">
    <tag k="addr:city" v="Jay"/>
    <tag k="addr:housenumber" v="327"/>
    <tag k="addr:street" v="Vermont Route 105"/>
    <tag k="addr:state" v="VT"/>
    <tag k="ref:vcgi:esiteid" v="135603"/>
  </node>
  <node id="-192" visible="true" lat="44.96412658" lon="-72.43951416">
    <tag k="addr:city" v="Jay"/>
    <tag k="addr:housenumber" v="360"/>
    <tag k="addr:street" v="Cemetery Road"/>
    <tag k="addr:state" v="VT"/>
    <tag k="ref:vcgi:esiteid" v="135604"/>
  </node>
  <node id="-193" visible="true" lat="44.96379215" lon="-72.45982726">
    <tag k="addr:city" v="Jay"/>
    <tag k="addr:housenumber" v="655"/>
    <tag k="addr:street" v="Morse Road"/>
    <tag k="addr:state" v="VT"/>
    <tag k="ref:vcgi:esiteid" v="135605"/>
  </node>
  <node id="-194" visible="true" lat="44.96384048" lon="-72.42407226">
    <tag k="addr:city" v="Jay"/>
    <tag k="addr:housenumber" v="67"/>
    <tag k="addr:street" v="Vermont Route 105"/>
    <tag k="addr:state" v="VT"/>
    <tag k="ref:vcgi:esiteid" v="135606"/>
  </node>
  <node id="-195" visible="true" lat="44.96377563" lon="-72.46501922">
    <tag k="addr:city" v="Jay"/>
    <tag k="addr:housenumber" v="897"/>
    <tag k="addr:street" v="Morse Road"/>
    <tag k="addr:state" v="VT"/>
    <tag k="ref:vcgi:esiteid" v="135607"/>
  </node>
  <node id="-196" visible="true" lat="44.96356964" lon="-72.44994354">
    <tag k="addr:city" v="Jay"/>
    <tag k="addr:housenumber" v="155"/>
    <tag k="addr:street" v="Morse Road"/>
    <tag k="addr:state" v="VT"/>
    <tag k="ref:vcgi:esiteid" v="135608"/>
  </node>
  <node id="-197" visible="true" lat="44.96343231" lon="-72.44702911">
    <tag k="addr:city" v="Jay"/>
    <tag k="addr:housenumber" v="2667"/>
    <tag k="addr:street" v="Cross Road"/>
    <tag k="addr:state" v="VT"/>
    <tag k="ref:vcgi:esiteid" v="135609"/>
  </node>
  <node id="-198" visible="true" lat="44.96319409" lon="-72.43262447">
    <tag k="addr:city" v="Jay"/>
    <tag k="addr:housenumber" v="1127"/>
    <tag k="addr:street" v="Revoir Flat Road"/>
    <tag k="addr:state" v="VT"/>
    <tag k="ref:vcgi:esiteid" v="135610"/>
  </node>
  <node id="-199" visible="true" lat="44.96334096" lon="-72.44150887">
    <tag k="addr:city" v="Jay"/>
    <tag k="addr:housenumber" v="234"/>
    <tag k="addr:street" v="Cemetery Road"/>
    <tag k="addr:state" v="VT"/>
    <tag k="ref:vcgi:esiteid" v="135611"/>
  </node>
  <node id="-200" visible="true" lat="44.96244491" lon="-72.49744121">
    <tag k="addr:city" v="Jay"/>
    <tag k="addr:housenumber" v="1561"/>
    <tag k="addr:street" v="Stevens Mill Road"/>
    <tag k="addr:state" v="VT"/>
    <tag k="ref:vcgi:esiteid" v="135612"/>
  </node>
  <node id="-201" visible="true" lat="44.96281348" lon="-72.49983906">
    <tag k="addr:city" v="Jay"/>
    <tag k="addr:housenumber" v="1445"/>
    <tag k="addr:street" v="Stevens Mill Road"/>
    <tag k="addr:state" v="VT"/>
    <tag k="ref:vcgi:esiteid" v="135613"/>
  </node>
  <node id="-202" visible="true" lat="44.96166086" lon="-72.45640888">
    <tag k="addr:city" v="Jay"/>
    <tag k="addr:housenumber" v="505"/>
    <tag k="addr:street" v="Morse Road"/>
    <tag k="addr:state" v="VT"/>
    <tag k="ref:vcgi:esiteid" v="135614"/>
  </node>
  <node id="-203" visible="true" lat="44.96114244" lon="-72.44473634">
    <tag k="addr:city" v="Jay"/>
    <tag k="addr:housenumber" v="2492"/>
    <tag k="addr:street" v="Cross Road"/>
    <tag k="addr:state" v="VT"/>
    <tag k="ref:vcgi:esiteid" v="135615"/>
  </node>
  <node id="-204" visible="true" lat="44.95892254" lon="-72.42617318">
    <tag k="addr:city" v="Jay"/>
    <tag k="addr:housenumber" v="684"/>
    <tag k="addr:street" v="Belle Vista Road"/>
    <tag k="addr:state" v="VT"/>
    <tag k="ref:vcgi:esiteid" v="135616"/>
  </node>
  <node id="-205" visible="true" lat="44.95891952" lon="-72.42794612">
    <tag k="addr:city" v="Jay"/>
    <tag k="addr:housenumber" v="762"/>
    <tag k="addr:street" v="Belle Vista Road"/>
    <tag k="addr:state" v="VT"/>
    <tag k="ref:vcgi:esiteid" v="135617"/>
  </node>
  <node id="-206" visible="true" lat="44.95876228" lon="-72.42536176">
    <tag k="addr:city" v="Jay"/>
    <tag k="addr:housenumber" v="642"/>
    <tag k="addr:street" v="Belle Vista Road"/>
    <tag k="addr:state" v="VT"/>
    <tag k="ref:vcgi:esiteid" v="135618"/>
  </node>
  <node id="-207" visible="true" lat="44.95866394" lon="-72.42424774">
    <tag k="addr:city" v="Jay"/>
    <tag k="addr:housenumber" v="570"/>
    <tag k="addr:street" v="Belle Vista Road"/>
    <tag k="addr:state" v="VT"/>
    <tag k="ref:vcgi:esiteid" v="135619"/>
  </node>
  <node id="-208" visible="true" lat="44.95851662" lon="-72.42244346">
    <tag k="addr:city" v="Jay"/>
    <tag k="addr:housenumber" v="479"/>
    <tag k="addr:street" v="Belle Vista Road"/>
    <tag k="addr:state" v="VT"/>
    <tag k="ref:vcgi:esiteid" v="135620"/>
  </node>
  <node id="-209" visible="true" lat="44.95863427" lon="-72.42491272">
    <tag k="addr:city" v="Jay"/>
    <tag k="addr:housenumber" v="598"/>
    <tag k="addr:street" v="Belle Vista Road"/>
    <tag k="addr:state" v="VT"/>
    <tag k="ref:vcgi:esiteid" v="135621"/>
  </node>
  <node id="-210" visible="true" lat="44.95822376" lon="-72.42290648">
    <tag k="addr:city" v="Jay"/>
    <tag k="addr:housenumber" v="519"/>
    <tag k="addr:street" v="Belle Vista Road"/>
    <tag k="addr:state" v="VT"/>
    <tag k="ref:vcgi:esiteid" v="135622"/>
  </node>
  <node id="-211" visible="true" lat="44.95824775" lon="-72.42703985">
    <tag k="addr:city" v="Jay"/>
    <tag k="addr:housenumber" v="709"/>
    <tag k="addr:street" v="Belle Vista Road"/>
    <tag k="addr:state" v="VT"/>
    <tag k="ref:vcgi:esiteid" v="135623"/>
  </node>
  <node id="-212" visible="true" lat="44.9579985" lon="-72.42854057">
    <tag k="addr:city" v="Jay"/>
    <tag k="addr:housenumber" v="813"/>
    <tag k="addr:street" v="Belle Vista Road"/>
    <tag k="addr:state" v="VT"/>
    <tag k="ref:vcgi:esiteid" v="135624"/>
  </node>
  <node id="-213" visible="true" lat="44.95808254" lon="-72.42587437">
    <tag k="addr:city" v="Jay"/>
    <tag k="addr:housenumber" v="645"/>
    <tag k="addr:street" v="Belle Vista Road"/>
    <tag k="addr:state" v="VT"/>
    <tag k="ref:vcgi:esiteid" v="135625"/>
  </node>
  <node id="-214" visible="true" lat="44.95806261" lon="-72.42358941">
    <tag k="addr:city" v="Jay"/>
    <tag k="addr:housenumber" v="543"/>
    <tag k="addr:street" v="Belle Vista Road"/>
    <tag k="addr:state" v="VT"/>
    <tag k="ref:vcgi:esiteid" v="135626"/>
  </node>
  <node id="-215" visible="true" lat="44.95798786" lon="-72.42405645">
    <tag k="addr:city" v="Jay"/>
    <tag k="addr:housenumber" v="569"/>
    <tag k="addr:street" v="Belle Vista Road"/>
    <tag k="addr:state" v="VT"/>
    <tag k="ref:vcgi:esiteid" v="135627"/>
  </node>
  <node id="-216" visible="true" lat="44.95792064" lon="-72.42520491">
    <tag k="addr:city" v="Jay"/>
    <tag k="addr:housenumber" v="615"/>
    <tag k="addr:street" v="Belle Vista Road"/>
    <tag k="addr:state" v="VT"/>
    <tag k="ref:vcgi:esiteid" v="135628"/>
  </node>
  <node id="-217" visible="true" lat="44.95784563" lon="-72.47941311">
    <tag k="addr:city" v="Jay"/>
    <tag k="addr:housenumber" v="439"/>
    <tag k="addr:street" v="Stevens Mill Road"/>
    <tag k="addr:state" v="VT"/>
    <tag k="ref:vcgi:esiteid" v="135629"/>
  </node>
  <node id="-218" visible="true" lat="44.95698928" lon="-72.42872619">
    <tag k="addr:city" v="Jay"/>
    <tag k="addr:housenumber" v="929"/>
    <tag k="addr:street" v="Belle Vista Road"/>
    <tag k="addr:state" v="VT"/>
    <tag k="ref:vcgi:esiteid" v="135630"/>
  </node>
  <node id="-219" visible="true" lat="44.95663152" lon="-72.42619886">
    <tag k="addr:city" v="Jay"/>
    <tag k="addr:housenumber" v="179"/>
    <tag k="addr:street" v="Tamarack Road"/>
    <tag k="addr:state" v="VT"/>
    <tag k="ref:vcgi:esiteid" v="135631"/>
  </node>
  <node id="-220" visible="true" lat="44.95655016" lon="-72.42865685">
    <tag k="addr:city" v="Jay"/>
    <tag k="addr:housenumber" v="25"/>
    <tag k="addr:street" v="Tamarack Road"/>
    <tag k="addr:state" v="VT"/>
    <tag k="ref:vcgi:esiteid" v="135632"/>
  </node>
  <node id="-221" visible="true" lat="44.95598938" lon="-72.42761751">
    <tag k="addr:city" v="Jay"/>
    <tag k="addr:housenumber" v="68"/>
    <tag k="addr:street" v="Tamarack Road"/>
    <tag k="addr:state" v="VT"/>
    <tag k="ref:vcgi:esiteid" v="135633"/>
  </node>
  <node id="-222" visible="true" lat="44.95547866" lon="-72.44015502">
    <tag k="addr:city" v="Jay"/>
    <tag k="addr:housenumber" v="2016"/>
    <tag k="addr:street" v="Cross Road"/>
    <tag k="addr:state" v="VT"/>
    <tag k="ref:vcgi:esiteid" v="135634"/>
  </node>
  <node id="-223" visible="true" lat="44.95456314" lon="-72.43040466">
    <tag k="addr:city" v="Jay"/>
    <tag k="addr:housenumber" v="1097"/>
    <tag k="addr:street" v="Belle Vista Road"/>
    <tag k="addr:state" v="VT"/>
    <tag k="ref:vcgi:esiteid" v="135635"/>
  </node>
  <node id="-224" visible="true" lat="44.95446014" lon="-72.44051361">
    <tag k="addr:city" v="Jay"/>
    <tag k="addr:housenumber" v="1963"/>
    <tag k="addr:street" v="Cross Road"/>
    <tag k="addr:state" v="VT"/>
    <tag k="ref:vcgi:esiteid" v="135637"/>
  </node>
  <node id="-225" visible="true" lat="44.95435912" lon="-72.43181553">
    <tag k="addr:city" v="Jay"/>
    <tag k="addr:housenumber" v="458"/>
    <tag k="addr:street" v="Revoir Flat Road"/>
    <tag k="addr:state" v="VT"/>
    <tag k="ref:vcgi:esiteid" v="135638"/>
  </node>
  <node id="-226" visible="true" lat="44.95391082" lon="-72.44036102">
    <tag k="addr:city" v="Jay"/>
    <tag k="addr:housenumber" v="1901"/>
    <tag k="addr:street" v="Cross Road"/>
    <tag k="addr:state" v="VT"/>
    <tag k="ref:vcgi:esiteid" v="135639"/>
  </node>
  <node id="-227" visible="true" lat="44.95257731" lon="-72.4414832">
    <tag k="addr:city" v="Jay"/>
    <tag k="addr:housenumber" v="1879"/>
    <tag k="addr:street" v="Cross Road"/>
    <tag k="addr:state" v="VT"/>
    <tag k="ref:vcgi:esiteid" v="135640"/>
  </node>
  <node id="-229" visible="true" lat="44.95244216" lon="-72.43898773">
    <tag k="addr:city" v="Jay"/>
    <tag k="addr:housenumber" v="1806"/>
    <tag k="addr:street" v="Cross Road"/>
    <tag k="addr:state" v="VT"/>
    <tag k="ref:vcgi:esiteid" v="135642"/>
  </node>
  <node id="-230" visible="true" lat="44.95252728" lon="-72.46613604">
    <tag k="addr:city" v="Jay"/>
    <tag k="addr:housenumber" v="142"/>
    <tag k="addr:street" v="Sugarplace Road"/>
    <tag k="addr:state" v="VT"/>
    <tag k="ref:vcgi:esiteid" v="135643"/>
  </node>
  <node id="-231" visible="true" lat="44.95234298" lon="-72.43960571">
    <tag k="addr:city" v="Jay"/>
    <tag k="addr:housenumber" v="1831"/>
    <tag k="addr:street" v="Cross Road"/>
    <tag k="addr:state" v="VT"/>
    <tag k="ref:vcgi:esiteid" v="135644"/>
  </node>
  <node id="-232" visible="true" lat="44.95177459" lon="-72.43925476">
    <tag k="addr:city" v="Jay"/>
    <tag k="addr:housenumber" v="1769"/>
    <tag k="addr:street" v="Cross Road"/>
    <tag k="addr:state" v="VT"/>
    <tag k="ref:vcgi:esiteid" v="135645"/>
  </node>
  <node id="-233" visible="true" lat="44.95161819" lon="-72.43616485">
    <tag k="addr:city" v="Jay"/>
    <tag k="addr:housenumber" v="157"/>
    <tag k="addr:street" v="Revoir Flat Road"/>
    <tag k="addr:state" v="VT"/>
    <tag k="ref:vcgi:esiteid" v="135646"/>
  </node>
  <node id="-234" visible="true" lat="44.95138931" lon="-72.43906402">
    <tag k="addr:city" v="Jay"/>
    <tag k="addr:housenumber" v="1739"/>
    <tag k="addr:street" v="Cross Road"/>
    <tag k="addr:state" v="VT"/>
    <tag k="ref:vcgi:esiteid" v="135647"/>
  </node>
  <node id="-235" visible="true" lat="44.95108936" lon="-72.44388609">
    <tag k="addr:city" v="Jay"/>
    <tag k="addr:housenumber" v="133"/>
    <tag k="addr:street" v="Pine Grove Road"/>
    <tag k="addr:state" v="VT"/>
    <tag k="ref:vcgi:esiteid" v="135648"/>
  </node>
  <node id="-236" visible="true" lat="44.950858" lon="-72.43893376">
    <tag k="addr:city" v="Jay"/>
    <tag k="addr:housenumber" v="1721"/>
    <tag k="addr:street" v="Cross Road"/>
    <tag k="addr:state" v="VT"/>
    <tag k="ref:vcgi:esiteid" v="135649"/>
  </node>
  <node id="-237" visible="true" lat="44.9505425" lon="-72.43956729">
    <tag k="addr:city" v="Jay"/>
    <tag k="addr:housenumber" v="80"/>
    <tag k="addr:street" v="Gendron Road"/>
    <tag k="addr:state" v="VT"/>
    <tag k="ref:vcgi:esiteid" v="135650"/>
  </node>
  <node id="-238" visible="true" lat="44.9504199" lon="-72.44216297">
    <tag k="addr:city" v="Jay"/>
    <tag k="addr:housenumber" v="38"/>
    <tag k="addr:street" v="Pine Grove Road"/>
    <tag k="addr:state" v="VT"/>
    <tag k="ref:vcgi:esiteid" v="135651"/>
  </node>
  <node id="-239" visible="true" lat="44.95036961" lon="-72.44401379">
    <tag k="addr:city" v="Jay"/>
    <tag k="addr:housenumber" v="68"/>
    <tag k="addr:street" v="High Pines Drive"/>
    <tag k="addr:state" v="VT"/>
    <tag k="ref:vcgi:esiteid" v="135652"/>
  </node>
  <node id="-240" visible="true" lat="44.95035553" lon="-72.44293975">
    <tag k="addr:city" v="Jay"/>
    <tag k="addr:housenumber" v="57"/>
    <tag k="addr:street" v="Pine Grove Road"/>
    <tag k="addr:state" v="VT"/>
    <tag k="ref:vcgi:esiteid" v="135653"/>
  </node>
  <node id="-241" visible="true" lat="44.95022845" lon="-72.47009579">
    <tag k="addr:city" v="Jay"/>
    <tag k="addr:housenumber" v="166"/>
    <tag k="addr:street" v="Westover Road"/>
    <tag k="addr:state" v="VT"/>
    <tag k="ref:vcgi:esiteid" v="135654"/>
  </node>
  <node id="-242" visible="true" lat="44.95018585" lon="-72.47148204">
    <tag k="addr:city" v="Jay"/>
    <tag k="addr:housenumber" v="226"/>
    <tag k="addr:street" v="Westover Road"/>
    <tag k="addr:state" v="VT"/>
    <tag k="ref:vcgi:esiteid" v="135655"/>
  </node>
  <node id="-243" visible="true" lat="44.95021057" lon="-72.44104004">
    <tag k="addr:city" v="Jay"/>
    <tag k="addr:housenumber" v="130"/>
    <tag k="addr:street" v="Gendron Road"/>
    <tag k="addr:state" v="VT"/>
    <tag k="ref:vcgi:esiteid" v="135656"/>
  </node>
  <node id="-244" visible="true" lat="44.95022022" lon="-72.47082589">
    <tag k="addr:city" v="Jay"/>
    <tag k="addr:housenumber" v="204"/>
    <tag k="addr:street" v="Westover Road"/>
    <tag k="addr:state" v="VT"/>
    <tag k="ref:vcgi:esiteid" v="135657"/>
  </node>
  <node id="-245" visible="true" lat="44.95013427" lon="-72.43872833">
    <tag k="addr:city" v="Jay"/>
    <tag k="addr:housenumber" v="1645"/>
    <tag k="addr:street" v="Cross Road"/>
    <tag k="addr:state" v="VT"/>
    <tag k="ref:vcgi:esiteid" v="135658"/>
  </node>
  <node id="-246" visible="true" lat="44.95007232" lon="-72.4436632">
    <tag k="addr:city" v="Jay"/>
    <tag k="addr:housenumber" v="50"/>
    <tag k="addr:street" v="High Pines Drive"/>
    <tag k="addr:state" v="VT"/>
    <tag k="ref:vcgi:esiteid" v="135659"/>
  </node>
  <node id="-247" visible="true" lat="44.95008468" lon="-72.44197845">
    <tag k="addr:city" v="Jay"/>
    <tag k="addr:housenumber" v="10"/>
    <tag k="addr:street" v="Pine Grove Road"/>
    <tag k="addr:state" v="VT"/>
    <tag k="ref:vcgi:esiteid" v="135660"/>
  </node>
  <node id="-248" visible="true" lat="44.94997584" lon="-72.4444834">
    <tag k="addr:city" v="Jay"/>
    <tag k="addr:housenumber" v="47"/>
    <tag k="addr:street" v="High Pines Drive"/>
    <tag k="addr:state" v="VT"/>
    <tag k="ref:vcgi:esiteid" v="135661"/>
  </node>
  <node id="-249" visible="true" lat="44.94988463" lon="-72.45894807">
    <tag k="addr:city" v="Jay"/>
    <tag k="addr:housenumber" v="1037"/>
    <tag k="addr:street" v="Gendron Road"/>
    <tag k="addr:state" v="VT"/>
    <tag k="ref:vcgi:esiteid" v="135662"/>
  </node>
  <node id="-250" visible="true" lat="44.94999114" lon="-72.44233869">
    <tag k="addr:city" v="Jay"/>
    <tag k="addr:housenumber" v="204"/>
    <tag k="addr:street" v="Gendron Road"/>
    <tag k="addr:state" v="VT"/>
    <tag k="ref:vcgi:esiteid" v="135663"/>
  </node>
  <node id="-251" visible="true" lat="44.94983572" lon="-72.4451451">
    <tag k="addr:city" v="Jay"/>
    <tag k="addr:housenumber" v="370"/>
    <tag k="addr:street" v="Gendron Road"/>
    <tag k="addr:state" v="VT"/>
    <tag k="ref:vcgi:esiteid" v="135664"/>
  </node>
  <node id="-252" visible="true" lat="44.94983291" lon="-72.46877288">
    <tag k="addr:city" v="Jay"/>
    <tag k="addr:housenumber" v="85"/>
    <tag k="addr:street" v="Westover Road"/>
    <tag k="addr:state" v="VT"/>
    <tag k="ref:vcgi:esiteid" v="135665"/>
  </node>
  <node id="-253" visible="true" lat="44.94985848" lon="-72.44324674">
    <tag k="addr:city" v="Jay"/>
    <tag k="addr:housenumber" v="280"/>
    <tag k="addr:street" v="Gendron Road"/>
    <tag k="addr:state" v="VT"/>
    <tag k="ref:vcgi:esiteid" v="135666"/>
  </node>
  <node id="-254" visible="true" lat="44.94977285" lon="-72.47290364">
    <tag k="addr:city" v="Jay"/>
    <tag k="addr:housenumber" v="263"/>
    <tag k="addr:street" v="Westover Road"/>
    <tag k="addr:state" v="VT"/>
    <tag k="ref:vcgi:esiteid" v="135667"/>
  </node>
  <node id="-255" visible="true" lat="44.94954331" lon="-72.46768849">
    <tag k="addr:city" v="Jay"/>
    <tag k="addr:housenumber" v="29"/>
    <tag k="addr:street" v="Westover Road"/>
    <tag k="addr:state" v="VT"/>
    <tag k="ref:vcgi:esiteid" v="135668"/>
  </node>
  <node id="-256" visible="true" lat="44.94981852" lon="-72.44276038">
    <tag k="addr:city" v="Jay"/>
    <tag k="addr:housenumber" v="226"/>
    <tag k="addr:street" v="Gendron Road"/>
    <tag k="addr:state" v="VT"/>
    <tag k="ref:vcgi:esiteid" v="135669"/>
  </node>
  <node id="-257" visible="true" lat="44.94978699" lon="-72.45058982">
    <tag k="addr:city" v="Jay"/>
    <tag k="addr:housenumber" v="616"/>
    <tag k="addr:street" v="Gendron Road"/>
    <tag k="addr:state" v="VT"/>
    <tag k="ref:vcgi:esiteid" v="135670"/>
  </node>
  <node id="-258" visible="true" lat="44.94960409" lon="-72.4477676">
    <tag k="addr:city" v="Jay"/>
    <tag k="addr:housenumber" v="492"/>
    <tag k="addr:street" v="Gendron Road"/>
    <tag k="addr:state" v="VT"/>
    <tag k="ref:vcgi:esiteid" v="135671"/>
  </node>
  <node id="-259" visible="true" lat="44.94964981" lon="-72.44410705">
    <tag k="addr:city" v="Jay"/>
    <tag k="addr:housenumber" v="15"/>
    <tag k="addr:street" v="High Pines Drive"/>
    <tag k="addr:state" v="VT"/>
    <tag k="ref:vcgi:esiteid" v="135672"/>
  </node>
  <node id="-260" visible="true" lat="44.95030084" lon="-72.42562574">
    <tag k="addr:city" v="Jay"/>
    <tag k="addr:housenumber" v="376"/>
    <tag k="addr:street" v="Vermont Route 242"/>
    <tag k="addr:state" v="VT"/>
    <tag k="ref:vcgi:esiteid" v="135673"/>
  </node>
  <node id="-261" visible="true" lat="44.94994762" lon="-72.44633105">
    <tag k="addr:city" v="Jay"/>
    <tag k="addr:housenumber" v="424"/>
    <tag k="addr:street" v="Gendron Road"/>
    <tag k="addr:state" v="VT"/>
    <tag k="ref:vcgi:esiteid" v="135674"/>
  </node>
  <node id="-262" visible="true" lat="44.94939701" lon="-72.4421111">
    <tag k="addr:city" v="Jay"/>
    <tag k="addr:housenumber" v="225"/>
    <tag k="addr:street" v="Gendron Road"/>
    <tag k="addr:state" v="VT"/>
    <tag k="ref:vcgi:esiteid" v="135675"/>
  </node>
  <node id="-263" visible="true" lat="44.9492457" lon="-72.42763322">
    <tag k="addr:city" v="Jay"/>
    <tag k="addr:housenumber" v="486"/>
    <tag k="addr:street" v="Vermont Route 242"/>
    <tag k="addr:state" v="VT"/>
    <tag k="ref:vcgi:esiteid" v="135677"/>
  </node>
  <node id="-264" visible="true" lat="44.9489579" lon="-72.4378423">
    <tag k="addr:city" v="Jay"/>
    <tag k="addr:housenumber" v="1564"/>
    <tag k="addr:street" v="Cross Road"/>
    <tag k="addr:state" v="VT"/>
    <tag k="ref:vcgi:esiteid" v="135678"/>
  </node>
  <node id="-265" visible="true" lat="44.94873046" lon="-72.43831634">
    <tag k="addr:city" v="Jay"/>
    <tag k="addr:housenumber" v="1547"/>
    <tag k="addr:street" v="Cross Road"/>
    <tag k="addr:state" v="VT"/>
    <tag k="ref:vcgi:esiteid" v="135679"/>
  </node>
  <node id="-266" visible="true" lat="44.94839758" lon="-72.42825308">
    <tag k="addr:city" v="Jay"/>
    <tag k="addr:housenumber" v="527"/>
    <tag k="addr:street" v="Vermont Route 242"/>
    <tag k="addr:state" v="VT"/>
    <tag k="ref:vcgi:esiteid" v="135680"/>
  </node>
  <node id="-267" visible="true" lat="44.9483995" lon="-72.43858418">
    <tag k="addr:city" v="Jay"/>
    <tag k="addr:housenumber" v="1036"/>
    <tag k="addr:street" v="Vermont Route 242"/>
    <tag k="addr:state" v="VT"/>
    <tag k="ref:vcgi:esiteid" v="135681"/>
  </node>
  <node id="-268" visible="true" lat="44.94805908" lon="-72.43717193">
    <tag k="addr:city" v="Jay"/>
    <tag k="addr:housenumber" v="983"/>
    <tag k="addr:street" v="Vermont Route 242"/>
    <tag k="addr:state" v="VT"/>
    <tag k="ref:vcgi:esiteid" v="135682"/>
  </node>
  <node id="-269" visible="true" lat="44.94805042" lon="-72.43913673">
    <tag k="addr:city" v="Jay"/>
    <tag k="addr:housenumber" v="1078"/>
    <tag k="addr:street" v="Vermont Route 242"/>
    <tag k="addr:state" v="VT"/>
    <tag k="ref:vcgi:esiteid" v="135683"/>
  </node>
  <node id="-270" visible="true" lat="44.94785896" lon="-72.42338782">
    <tag k="addr:city" v="Jay"/>
    <tag k="addr:housenumber" v="25"/>
    <tag k="addr:street" v="Woodland Drive"/>
    <tag k="addr:state" v="VT"/>
    <tag k="ref:vcgi:esiteid" v="135684"/>
  </node>
  <node id="-271" visible="true" lat="44.94792507" lon="-72.44079782">
    <tag k="addr:city" v="Jay"/>
    <tag k="addr:housenumber" v="1166"/>
    <tag k="addr:street" v="Vermont Route 242"/>
    <tag k="addr:state" v="VT"/>
    <tag k="ref:vcgi:esiteid" v="135685"/>
  </node>
  <node id="-272" visible="true" lat="44.94786071" lon="-72.43766784">
    <tag k="addr:city" v="Jay"/>
    <tag k="addr:housenumber" v="1486"/>
    <tag k="addr:street" v="Cross Road"/>
    <tag k="addr:state" v="VT"/>
    <tag k="ref:vcgi:esiteid" v="135686"/>
  </node>
  <node id="-273" visible="true" lat="44.94782638" lon="-72.43959808">
    <tag k="addr:city" v="Jay"/>
    <tag k="addr:housenumber" v="1100"/>
    <tag k="addr:street" v="Vermont Route 242"/>
    <tag k="addr:state" v="VT"/>
    <tag k="ref:vcgi:esiteid" v="135687"/>
  </node>
  <node id="-274" visible="true" lat="44.94775772" lon="-72.43835449">
    <tag k="addr:city" v="Jay"/>
    <tag k="addr:housenumber" v="1045"/>
    <tag k="addr:street" v="Vermont Route 242"/>
    <tag k="addr:state" v="VT"/>
    <tag k="ref:vcgi:esiteid" v="135688"/>
  </node>
  <node id="-275" visible="true" lat="44.94746895" lon="-72.43908172">
    <tag k="addr:city" v="Jay"/>
    <tag k="addr:housenumber" v="1077"/>
    <tag k="addr:street" v="Vermont Route 242"/>
    <tag k="addr:state" v="VT"/>
    <tag k="ref:vcgi:esiteid" v="135689"/>
  </node>
  <node id="-276" visible="true" lat="44.94737319" lon="-72.42389932">
    <tag k="addr:city" v="Jay"/>
    <tag k="addr:housenumber" v="60"/>
    <tag k="addr:street" v="Woodland Drive"/>
    <tag k="addr:state" v="VT"/>
    <tag k="ref:vcgi:esiteid" v="135691"/>
  </node>
  <node id="-277" visible="true" lat="44.94697818" lon="-72.45002868">
    <tag k="addr:city" v="Jay"/>
    <tag k="addr:housenumber" v="256"/>
    <tag k="addr:street" v="Marriner Drive"/>
    <tag k="addr:state" v="VT"/>
    <tag k="ref:vcgi:esiteid" v="135692"/>
  </node>
  <node id="-278" visible="true" lat="44.94683712" lon="-72.42389719">
    <tag k="addr:city" v="Jay"/>
    <tag k="addr:housenumber" v="96"/>
    <tag k="addr:street" v="Woodland Drive"/>
    <tag k="addr:state" v="VT"/>
    <tag k="ref:vcgi:esiteid" v="135693"/>
  </node>
  <node id="-279" visible="true" lat="44.94686147" lon="-72.44781045">
    <tag k="addr:city" v="Jay"/>
    <tag k="addr:housenumber" v="1522"/>
    <tag k="addr:street" v="Vermont Route 242"/>
    <tag k="addr:state" v="VT"/>
    <tag k="ref:vcgi:esiteid" v="135694"/>
  </node>
  <node id="-280" visible="true" lat="44.94657516" lon="-72.4489746">
    <tag k="addr:city" v="Jay"/>
    <tag k="addr:housenumber" v="1566"/>
    <tag k="addr:street" v="Vermont Route 242"/>
    <tag k="addr:state" v="VT"/>
    <tag k="ref:vcgi:esiteid" v="135695"/>
  </node>
  <node id="-281" visible="true" lat="44.94650618" lon="-72.43859436">
    <tag k="addr:city" v="Jay"/>
    <tag k="addr:housenumber" v="1375"/>
    <tag k="addr:street" v="Cross Road"/>
    <tag k="addr:state" v="VT"/>
    <tag k="ref:vcgi:esiteid" v="135696"/>
  </node>
  <node id="-282" visible="true" lat="44.94575963" lon="-72.44080161">
    <tag k="addr:city" v="Jay"/>
    <tag k="addr:housenumber" v="1181"/>
    <tag k="addr:street" v="Vermont Route 242"/>
    <tag k="addr:state" v="VT"/>
    <tag k="ref:vcgi:esiteid" v="135697"/>
  </node>
  <node id="-283" visible="true" lat="44.94575119" lon="-72.47290039">
    <tag k="addr:city" v="Jay"/>
    <tag k="addr:housenumber" v="40"/>
    <tag k="addr:street" v="Bear Crossing"/>
    <tag k="addr:state" v="VT"/>
    <tag k="ref:vcgi:esiteid" v="135698"/>
  </node>
  <node id="-284" visible="true" lat="44.94561942" lon="-72.45676656">
    <tag k="addr:city" v="Jay"/>
    <tag k="addr:housenumber" v="313"/>
    <tag k="addr:street" v="Sargents Way"/>
    <tag k="addr:state" v="VT"/>
    <tag k="ref:vcgi:esiteid" v="135699"/>
  </node>
  <node id="-285" visible="true" lat="44.94565582" lon="-72.47137451">
    <tag k="addr:city" v="Jay"/>
    <tag k="addr:housenumber" v="138"/>
    <tag k="addr:street" v="Wilderness Road"/>
    <tag k="addr:state" v="VT"/>
    <tag k="ref:vcgi:esiteid" v="135700"/>
  </node>
  <node id="-286" visible="true" lat="44.94542422" lon="-72.46895744">
    <tag k="addr:city" v="Jay"/>
    <tag k="addr:housenumber" v="30"/>
    <tag k="addr:street" v="Wilderness Road"/>
    <tag k="addr:state" v="VT"/>
    <tag k="ref:vcgi:esiteid" v="135701"/>
  </node>
  <node id="-287" visible="true" lat="44.94522481" lon="-72.46010342">
    <tag k="addr:city" v="Jay"/>
    <tag k="addr:housenumber" v="317"/>
    <tag k="addr:street" v="Sargents Loop Road"/>
    <tag k="addr:state" v="VT"/>
    <tag k="ref:vcgi:esiteid" v="135702"/>
  </node>
  <node id="-288" visible="true" lat="44.94507598" lon="-72.47602081">
    <tag k="addr:city" v="Jay"/>
    <tag k="addr:housenumber" v="41"/>
    <tag k="addr:street" v="Rabbit Run"/>
    <tag k="addr:state" v="VT"/>
    <tag k="ref:vcgi:esiteid" v="135703"/>
  </node>
  <node id="-289" visible="true" lat="44.944896" lon="-72.47333558">
    <tag k="addr:city" v="Jay"/>
    <tag k="addr:housenumber" v="41"/>
    <tag k="addr:street" v="Bear Crossing"/>
    <tag k="addr:state" v="VT"/>
    <tag k="ref:vcgi:esiteid" v="135704"/>
  </node>
  <node id="-290" visible="true" lat="44.94483476" lon="-72.47469262">
    <tag k="addr:city" v="Jay"/>
    <tag k="addr:housenumber" v="82"/>
    <tag k="addr:street" v="Rabbit Run"/>
    <tag k="addr:state" v="VT"/>
    <tag k="ref:vcgi:esiteid" v="135705"/>
  </node>
  <node id="-291" visible="true" lat="44.94470909" lon="-72.4707957">
    <tag k="addr:city" v="Jay"/>
    <tag k="addr:housenumber" v="101"/>
    <tag k="addr:street" v="Wilderness Road"/>
    <tag k="addr:state" v="VT"/>
    <tag k="ref:vcgi:esiteid" v="135706"/>
  </node>
  <node id="-292" visible="true" lat="44.944503" lon="-72.4751636">
    <tag k="addr:city" v="Jay"/>
    <tag k="addr:housenumber" v="66"/>
    <tag k="addr:street" v="Rabbit Run"/>
    <tag k="addr:state" v="VT"/>
    <tag k="ref:vcgi:esiteid" v="135707"/>
  </node>
  <node id="-293" visible="true" lat="44.94441697" lon="-72.45822367">
    <tag k="addr:city" v="Jay"/>
    <tag k="addr:housenumber" v="322"/>
    <tag k="addr:street" v="Sargents Loop Road"/>
    <tag k="addr:state" v="VT"/>
    <tag k="ref:vcgi:esiteid" v="135708"/>
  </node>
  <node id="-294" visible="true" lat="44.94429397" lon="-72.47236633">
    <tag k="addr:city" v="Jay"/>
    <tag k="addr:housenumber" v="201"/>
    <tag k="addr:street" v="Wilderness Road"/>
    <tag k="addr:state" v="VT"/>
    <tag k="ref:vcgi:esiteid" v="135709"/>
  </node>
  <node id="-295" visible="true" lat="44.94427871" lon="-72.47690582">
    <tag k="addr:city" v="Jay"/>
    <tag k="addr:housenumber" v="409"/>
    <tag k="addr:street" v="Wilderness Road"/>
    <tag k="addr:state" v="VT"/>
    <tag k="ref:vcgi:esiteid" v="135710"/>
  </node>
  <node id="-296" visible="true" lat="44.94422897" lon="-72.43738068">
    <tag k="addr:city" v="Jay"/>
    <tag k="addr:housenumber" v="1234"/>
    <tag k="addr:street" v="Cross Road"/>
    <tag k="addr:state" v="VT"/>
    <tag k="ref:vcgi:esiteid" v="135711"/>
  </node>
  <node id="-297" visible="true" lat="44.94405861" lon="-72.42272861">
    <tag k="addr:city" v="Jay"/>
    <tag k="addr:housenumber" v="292"/>
    <tag k="addr:street" v="Woodland Drive"/>
    <tag k="addr:state" v="VT"/>
    <tag k="ref:vcgi:esiteid" v="135712"/>
  </node>
  <node id="-298" visible="true" lat="44.94385718" lon="-72.46903233">
    <tag k="addr:city" v="Jay"/>
    <tag k="addr:housenumber" v="271"/>
    <tag k="addr:street" v="Beadle Hill Road"/>
    <tag k="addr:state" v="VT"/>
    <tag k="ref:vcgi:esiteid" v="135713"/>
  </node>
  <node id="-299" visible="true" lat="44.94350433" lon="-72.47158813">
    <tag k="addr:city" v="Jay"/>
    <tag k="addr:housenumber" v="92"/>
    <tag k="addr:street" v="Deer Path"/>
    <tag k="addr:state" v="VT"/>
    <tag k="ref:vcgi:esiteid" v="135714"/>
  </node>
  <node id="-300" visible="true" lat="44.94337268" lon="-72.46893693">
    <tag k="addr:city" v="Jay"/>
    <tag k="addr:housenumber" v="241"/>
    <tag k="addr:street" v="Beadle Hill Road"/>
    <tag k="addr:state" v="VT"/>
    <tag k="ref:vcgi:esiteid" v="135715"/>
  </node>
  <node id="-301" visible="true" lat="44.94275846" lon="-72.45971449">
    <tag k="addr:city" v="Jay"/>
    <tag k="addr:housenumber" v="183"/>
    <tag k="addr:street" v="Sargents Loop Road"/>
    <tag k="addr:state" v="VT"/>
    <tag k="ref:vcgi:esiteid" v="135716"/>
  </node>
  <node id="-302" visible="true" lat="44.94290542" lon="-72.45246887">
    <tag k="addr:city" v="Jay"/>
    <tag k="addr:housenumber" v="1888"/>
    <tag k="addr:street" v="Vermont Route 242"/>
    <tag k="addr:state" v="VT"/>
    <tag k="ref:vcgi:esiteid" v="135717"/>
  </node>
  <node id="-303" visible="true" lat="44.94274441" lon="-72.47072607">
    <tag k="addr:city" v="Jay"/>
    <tag k="addr:housenumber" v="145"/>
    <tag k="addr:street" v="Deer Path"/>
    <tag k="addr:state" v="VT"/>
    <tag k="ref:vcgi:esiteid" v="135718"/>
  </node>
  <node id="-304" visible="true" lat="44.94261092" lon="-72.47360513">
    <tag k="addr:city" v="Jay"/>
    <tag k="addr:housenumber" v="90"/>
    <tag k="addr:street" v="Aikins Drive"/>
    <tag k="addr:state" v="VT"/>
    <tag k="ref:vcgi:esiteid" v="135719"/>
  </node>
  <node id="-305" visible="true" lat="44.94264335" lon="-72.46896285">
    <tag k="addr:city" v="Jay"/>
    <tag k="addr:housenumber" v="197"/>
    <tag k="addr:street" v="Beadle Hill Road"/>
    <tag k="addr:state" v="VT"/>
    <tag k="ref:vcgi:esiteid" v="135720"/>
  </node>
  <node id="-306" visible="true" lat="44.93905212" lon="-72.4209589">
    <tag k="addr:city" v="Jay"/>
    <tag k="addr:housenumber" v="369"/>
    <tag k="addr:street" v="Woodland Drive"/>
    <tag k="addr:state" v="VT"/>
    <tag k="ref:vcgi:esiteid" v="135721"/>
  </node>
  <node id="-307" visible="true" lat="44.94216537" lon="-72.46534729">
    <tag k="addr:city" v="Jay"/>
    <tag k="addr:housenumber" v="44"/>
    <tag k="addr:street" v="Beadle Hill Road"/>
    <tag k="addr:state" v="VT"/>
    <tag k="ref:vcgi:esiteid" v="135722"/>
  </node>
  <node id="-308" visible="true" lat="44.94197676" lon="-72.46448171">
    <tag k="addr:city" v="Jay"/>
    <tag k="addr:housenumber" v="46"/>
    <tag k="addr:street" v="Beadle Hill Road"/>
    <tag k="addr:state" v="VT"/>
    <tag k="ref:vcgi:esiteid" v="135723"/>
  </node>
  <node id="-309" visible="true" lat="44.94197845" lon="-72.47354888">
    <tag k="addr:city" v="Jay"/>
    <tag k="addr:housenumber" v="3066"/>
    <tag k="addr:street" v="Vermont Route 242"/>
    <tag k="addr:state" v="VT"/>
    <tag k="ref:vcgi:esiteid" v="135724"/>
  </node>
  <node id="-310" visible="true" lat="44.93929456" lon="-72.42312784">
    <tag k="addr:city" v="Jay"/>
    <tag k="addr:housenumber" v="371"/>
    <tag k="addr:street" v="Woodland Drive"/>
    <tag k="addr:state" v="VT"/>
    <tag k="ref:vcgi:esiteid" v="135725"/>
  </node>
  <node id="-311" visible="true" lat="44.94198935" lon="-72.42597249">
    <tag k="addr:city" v="Jay"/>
    <tag k="addr:housenumber" v="200"/>
    <tag k="addr:street" v="Woodland Drive"/>
    <tag k="addr:state" v="VT"/>
    <tag k="ref:vcgi:esiteid" v="135727"/>
  </node>
  <node id="-312" visible="true" lat="44.94117736" lon="-72.47409057">
    <tag k="addr:city" v="Jay"/>
    <tag k="addr:housenumber" v="3165"/>
    <tag k="addr:street" v="Vermont Route 242"/>
    <tag k="addr:state" v="VT"/>
    <tag k="ref:vcgi:esiteid" v="135728"/>
  </node>
  <node id="-313" visible="true" lat="44.94110488" lon="-72.4571228">
    <tag k="addr:city" v="Jay"/>
    <tag k="addr:housenumber" v="113"/>
    <tag k="addr:street" v="Woodshed Road"/>
    <tag k="addr:state" v="VT"/>
    <tag k="ref:vcgi:esiteid" v="135729"/>
  </node>
  <node id="-314" visible="true" lat="44.94109114" lon="-72.43611644">
    <tag k="addr:city" v="Jay"/>
    <tag k="addr:housenumber" v="988"/>
    <tag k="addr:street" v="Cross Road"/>
    <tag k="addr:state" v="VT"/>
    <tag k="ref:vcgi:esiteid" v="135730"/>
  </node>
  <node id="-315" visible="true" lat="44.94098863" lon="-72.47145147">
    <tag k="addr:city" v="Jay"/>
    <tag k="addr:housenumber" v="2941"/>
    <tag k="addr:street" v="Vermont Route 242"/>
    <tag k="addr:state" v="VT"/>
    <tag k="ref:vcgi:esiteid" v="135731"/>
  </node>
  <node id="-316" visible="true" lat="44.94099807" lon="-72.46308136">
    <tag k="addr:city" v="Jay"/>
    <tag k="addr:housenumber" v="2532"/>
    <tag k="addr:street" v="Vermont Route 242"/>
    <tag k="addr:state" v="VT"/>
    <tag k="ref:vcgi:esiteid" v="135732"/>
  </node>
  <node id="-317" visible="true" lat="44.94081763" lon="-72.45498373">
    <tag k="addr:city" v="Jay"/>
    <tag k="addr:housenumber" v="2077"/>
    <tag k="addr:street" v="Vermont Route 242"/>
    <tag k="addr:state" v="VT"/>
    <tag k="ref:vcgi:esiteid" v="135733"/>
  </node>
  <node id="-318" visible="true" lat="44.94067908" lon="-72.45551434">
    <tag k="addr:city" v="Jay"/>
    <tag k="addr:housenumber" v="2109"/>
    <tag k="addr:street" v="Vermont Route 242"/>
    <tag k="addr:state" v="VT"/>
    <tag k="ref:vcgi:esiteid" v="135734"/>
  </node>
  <node id="-319" visible="true" lat="44.94063561" lon="-72.46842274">
    <tag k="addr:city" v="Jay"/>
    <tag k="addr:housenumber" v="2873"/>
    <tag k="addr:street" v="Vermont Route 242"/>
    <tag k="addr:state" v="VT"/>
    <tag k="ref:vcgi:esiteid" v="135735"/>
  </node>
  <node id="-320" visible="true" lat="44.93983074" lon="-72.45660815">
    <tag k="addr:city" v="Jay"/>
    <tag k="addr:housenumber" v="2191"/>
    <tag k="addr:street" v="Vermont Route 242"/>
    <tag k="addr:state" v="VT"/>
    <tag k="ref:vcgi:esiteid" v="135736"/>
  </node>
  <node id="-321" visible="true" lat="44.93999862" lon="-72.46194457">
    <tag k="addr:city" v="Jay"/>
    <tag k="addr:housenumber" v="2471"/>
    <tag k="addr:street" v="Vermont Route 242"/>
    <tag k="addr:state" v="VT"/>
    <tag k="ref:vcgi:esiteid" v="135737"/>
  </node>
  <node id="-322" visible="true" lat="44.93915748" lon="-72.47608321">
    <tag k="addr:city" v="Jay"/>
    <tag k="addr:housenumber" v="3277"/>
    <tag k="addr:street" v="Vermont Route 242"/>
    <tag k="addr:state" v="VT"/>
    <tag k="ref:vcgi:esiteid" v="135738"/>
  </node>
  <node id="-323" visible="true" lat="44.93906437" lon="-72.49934298">
    <tag k="addr:city" v="Jay"/>
    <tag k="addr:housenumber" v="116"/>
    <tag k="addr:street" v="Clubhouse Road"/>
    <tag k="addr:state" v="VT"/>
    <tag k="ref:vcgi:esiteid" v="135739"/>
  </node>
  <node id="-324" visible="true" lat="44.93906402" lon="-72.47743225">
    <tag k="addr:city" v="Jay"/>
    <tag k="addr:housenumber" v="3345"/>
    <tag k="addr:street" v="Vermont Route 242"/>
    <tag k="addr:state" v="VT"/>
    <tag k="ref:vcgi:esiteid" v="135740"/>
  </node>
  <node id="-325" visible="true" lat="44.93896679" lon="-72.45863668">
    <tag k="addr:city" v="Jay"/>
    <tag k="addr:housenumber" v="42"/>
    <tag k="addr:street" v="Lucier Road"/>
    <tag k="addr:state" v="VT"/>
    <tag k="ref:vcgi:esiteid" v="135741"/>
  </node>
  <node id="-327" visible="true" lat="44.93871307" lon="-72.47853851">
    <tag k="addr:city" v="Jay"/>
    <tag k="addr:housenumber" v="9"/>
    <tag k="addr:street" v="Shallowbrook Road"/>
    <tag k="addr:state" v="VT"/>
    <tag k="ref:vcgi:esiteid" v="135744"/>
  </node>
  <node id="-328" visible="true" lat="44.93801116" lon="-72.48271942">
    <tag k="addr:city" v="Jay"/>
    <tag k="addr:housenumber" v="3616"/>
    <tag k="addr:street" v="Vermont Route 242"/>
    <tag k="addr:state" v="VT"/>
    <tag k="ref:vcgi:esiteid" v="135745"/>
  </node>
  <node id="-329" visible="true" lat="44.93787002" lon="-72.50228116">
    <tag k="addr:city" v="Jay"/>
    <tag k="addr:housenumber" v="31"/>
    <tag k="addr:street" v="Trailside Road"/>
    <tag k="addr:state" v="VT"/>
    <tag k="ref:vcgi:esiteid" v="135746"/>
  </node>
  <node id="-330" visible="true" lat="44.937717" lon="-72.50169634">
    <tag k="addr:city" v="Jay"/>
    <tag k="addr:housenumber" v="601"/>
    <tag k="addr:street" v="Jay Peak Road"/>
    <tag k="addr:state" v="VT"/>
    <tag k="ref:vcgi:esiteid" v="135747"/>
  </node>
  <node id="-331" visible="true" lat="44.93775961" lon="-72.50643367">
    <tag k="addr:city" v="Jay"/>
    <tag k="addr:housenumber" v="240"/>
    <tag k="addr:street" v="Slopeside Road"/>
    <tag k="addr:state" v="VT"/>
    <tag k="ref:vcgi:esiteid" v="135748"/>
  </node>
  <node id="-332" visible="true" lat="44.93735128" lon="-72.47736017">
    <tag k="addr:city" v="Jay"/>
    <tag k="addr:housenumber" v="67"/>
    <tag k="addr:street" v="Shallowbrook Road"/>
    <tag k="addr:state" v="VT"/>
    <tag k="ref:vcgi:esiteid" v="135749"/>
  </node>
  <node id="-333" visible="true" lat="44.93755722" lon="-72.50676727">
    <tag k="addr:city" v="Jay"/>
    <tag k="addr:housenumber" v="248"/>
    <tag k="addr:street" v="Slopeside Road"/>
    <tag k="addr:state" v="VT"/>
    <tag k="ref:vcgi:esiteid" v="135750"/>
  </node>
  <node id="-334" visible="true" lat="44.93747711" lon="-72.50134277">
    <tag k="addr:city" v="Jay"/>
    <tag k="addr:housenumber" v="577"/>
    <tag k="addr:street" v="Jay Peak Road"/>
    <tag k="addr:state" v="VT"/>
    <tag k="ref:vcgi:esiteid" v="135751"/>
  </node>
  <node id="-335" visible="true" lat="44.93746909" lon="-72.5059644">
    <tag k="addr:city" v="Jay"/>
    <tag k="addr:housenumber" v="228"/>
    <tag k="addr:street" v="Slopeside Road"/>
    <tag k="addr:state" v="VT"/>
    <tag k="ref:vcgi:esiteid" v="135752"/>
  </node>
  <node id="-336" visible="true" lat="44.93738174" lon="-72.46096038">
    <tag k="addr:city" v="Jay"/>
    <tag k="addr:housenumber" v="226"/>
    <tag k="addr:street" v="Lucier Road"/>
    <tag k="addr:state" v="VT"/>
    <tag k="ref:vcgi:esiteid" v="135753"/>
  </node>
  <node id="-337" visible="true" lat="44.937113" lon="-72.50678622">
    <tag k="addr:city" v="Jay"/>
    <tag k="addr:housenumber" v="264"/>
    <tag k="addr:street" v="Slopeside Road"/>
    <tag k="addr:state" v="VT"/>
    <tag k="ref:vcgi:esiteid" v="135754"/>
  </node>
  <node id="-338" visible="true" lat="44.93723713" lon="-72.48740048">
    <tag k="addr:city" v="Jay"/>
    <tag k="addr:housenumber" v="3866"/>
    <tag k="addr:street" v="Vermont Route 242"/>
    <tag k="addr:state" v="VT"/>
    <tag k="ref:vcgi:esiteid" v="135756"/>
  </node>
  <node id="-339" visible="true" lat="44.9368424" lon="-72.50572836">
    <tag k="addr:city" v="Jay"/>
    <tag k="addr:housenumber" v="196"/>
    <tag k="addr:street" v="Slopeside Road"/>
    <tag k="addr:state" v="VT"/>
    <tag k="ref:vcgi:esiteid" v="135757"/>
  </node>
  <node id="-340" visible="true" lat="44.93691088" lon="-72.50471577">
    <tag k="addr:city" v="Jay"/>
    <tag k="addr:housenumber" v="196"/>
    <tag k="addr:street" v="Trailside Road"/>
    <tag k="addr:state" v="VT"/>
    <tag k="ref:vcgi:esiteid" v="135758"/>
  </node>
  <node id="-341" visible="true" lat="44.93675994" lon="-72.50650024">
    <tag k="addr:city" v="Jay"/>
    <tag k="addr:housenumber" v="298"/>
    <tag k="addr:street" v="Slopeside Road"/>
    <tag k="addr:state" v="VT"/>
    <tag k="ref:vcgi:esiteid" v="135759"/>
  </node>
  <node id="-342" visible="true" lat="44.93637778" lon="-72.50446639">
    <tag k="addr:city" v="Jay"/>
    <tag k="addr:housenumber" v="169"/>
    <tag k="addr:street" v="Trailside Road"/>
    <tag k="addr:state" v="VT"/>
    <tag k="ref:vcgi:esiteid" v="135760"/>
  </node>
  <node id="-343" visible="true" lat="44.93636141" lon="-72.50640545">
    <tag k="addr:city" v="Jay"/>
    <tag k="addr:housenumber" v="167"/>
    <tag k="addr:street" v="Slopeside Road"/>
    <tag k="addr:state" v="VT"/>
    <tag k="ref:vcgi:esiteid" v="135761"/>
  </node>
  <node id="-344" visible="true" lat="44.93646621" lon="-72.45929718">
    <tag k="addr:city" v="Jay"/>
    <tag k="addr:housenumber" v="439"/>
    <tag k="addr:street" v="Lucier Road"/>
    <tag k="addr:state" v="VT"/>
    <tag k="ref:vcgi:esiteid" v="135762"/>
  </node>
  <node id="-345" visible="true" lat="44.93637084" lon="-72.45817565">
    <tag k="addr:city" v="Jay"/>
    <tag k="addr:housenumber" v="481"/>
    <tag k="addr:street" v="Lucier Road"/>
    <tag k="addr:state" v="VT"/>
    <tag k="ref:vcgi:esiteid" v="135763"/>
  </node>
  <node id="-346" visible="true" lat="44.93625213" lon="-72.50597454">
    <tag k="addr:city" v="Jay"/>
    <tag k="addr:housenumber" v="149"/>
    <tag k="addr:street" v="Slopeside Road"/>
    <tag k="addr:state" v="VT"/>
    <tag k="ref:vcgi:esiteid" v="135764"/>
  </node>
  <node id="-347" visible="true" lat="44.93627548" lon="-72.45619964">
    <tag k="addr:city" v="Jay"/>
    <tag k="addr:housenumber" v="575"/>
    <tag k="addr:street" v="Lucier Road"/>
    <tag k="addr:state" v="VT"/>
    <tag k="ref:vcgi:esiteid" v="135765"/>
  </node>
  <node id="-348" visible="true" lat="44.93601226" lon="-72.46091461">
    <tag k="addr:city" v="Jay"/>
    <tag k="addr:housenumber" v="364"/>
    <tag k="addr:street" v="Lucier Road"/>
    <tag k="addr:state" v="VT"/>
    <tag k="ref:vcgi:esiteid" v="135766"/>
  </node>
  <node id="-349" visible="true" lat="44.9359436" lon="-72.4870758">
    <tag k="addr:city" v="Jay"/>
    <tag k="addr:housenumber" v="3865"/>
    <tag k="addr:street" v="Vermont Route 242"/>
    <tag k="addr:state" v="VT"/>
    <tag k="ref:vcgi:esiteid" v="135767"/>
  </node>
  <node id="-350" visible="true" lat="44.93574051" lon="-72.47834103">
    <tag k="addr:city" v="Jay"/>
    <tag k="addr:housenumber" v="24"/>
    <tag k="addr:street" v="Russell Hill Drive"/>
    <tag k="addr:state" v="VT"/>
    <tag k="ref:vcgi:esiteid" v="135768"/>
  </node>
  <node id="-351" visible="true" lat="44.93562698" lon="-72.50660705">
    <tag k="addr:city" v="Jay"/>
    <tag k="addr:housenumber" v="374"/>
    <tag k="addr:street" v="North Village Road"/>
    <tag k="addr:state" v="VT"/>
    <tag k="ref:vcgi:esiteid" v="135769"/>
  </node>
  <node id="-352" visible="true" lat="44.93560409" lon="-72.48800659">
    <tag k="addr:city" v="Jay"/>
    <tag k="addr:housenumber" v="3941"/>
    <tag k="addr:street" v="Vermont Route 242"/>
    <tag k="addr:state" v="VT"/>
    <tag k="ref:vcgi:esiteid" v="135770"/>
  </node>
  <node id="-353" visible="true" lat="44.93532438" lon="-72.47727782">
    <tag k="addr:city" v="Jay"/>
    <tag k="addr:housenumber" v="243"/>
    <tag k="addr:street" v="Shallowbrook Road"/>
    <tag k="addr:state" v="VT"/>
    <tag k="ref:vcgi:esiteid" v="135771"/>
  </node>
  <node id="-354" visible="true" lat="44.93546676" lon="-72.48015594">
    <tag k="addr:city" v="Jay"/>
    <tag k="addr:housenumber" v="82"/>
    <tag k="addr:street" v="Russell Hill Drive"/>
    <tag k="addr:state" v="VT"/>
    <tag k="ref:vcgi:esiteid" v="135772"/>
  </node>
  <node id="-355" visible="true" lat="44.93536376" lon="-72.48896026">
    <tag k="addr:city" v="Jay"/>
    <tag k="addr:housenumber" v="3963"/>
    <tag k="addr:street" v="Vermont Route 242"/>
    <tag k="addr:state" v="VT"/>
    <tag k="ref:vcgi:esiteid" v="135773"/>
  </node>
  <node id="-356" visible="true" lat="44.9350717" lon="-72.50349165">
    <tag k="addr:city" v="Jay"/>
    <tag k="addr:housenumber" v="255"/>
    <tag k="addr:street" v="North Village Road"/>
    <tag k="addr:state" v="VT"/>
    <tag k="ref:vcgi:esiteid" v="135774"/>
  </node>
  <node id="-357" visible="true" lat="44.93467088" lon="-72.50430211">
    <tag k="addr:city" v="Jay"/>
    <tag k="addr:housenumber" v="303"/>
    <tag k="addr:street" v="North Village Road"/>
    <tag k="addr:state" v="VT"/>
    <tag k="ref:vcgi:esiteid" v="135775"/>
  </node>
  <node id="-358" visible="true" lat="44.93436479" lon="-72.50502023">
    <tag k="addr:city" v="Jay"/>
    <tag k="addr:housenumber" v="407"/>
    <tag k="addr:street" v="North Village Road"/>
    <tag k="addr:state" v="VT"/>
    <tag k="ref:vcgi:esiteid" v="135776"/>
  </node>
  <node id="-359" visible="true" lat="44.93455124" lon="-72.50662994">
    <tag k="addr:city" v="Jay"/>
    <tag k="addr:housenumber" v="384"/>
    <tag k="addr:street" v="North Village Road"/>
    <tag k="addr:state" v="VT"/>
    <tag k="ref:vcgi:esiteid" v="135777"/>
  </node>
  <node id="-360" visible="true" lat="44.93402227" lon="-72.50550238">
    <tag k="addr:city" v="Jay"/>
    <tag k="addr:housenumber" v="413"/>
    <tag k="addr:street" v="North Village Road"/>
    <tag k="addr:state" v="VT"/>
    <tag k="ref:vcgi:esiteid" v="135778"/>
  </node>
  <node id="-361" visible="true" lat="44.93424987" lon="-72.47699737">
    <tag k="addr:city" v="Jay"/>
    <tag k="addr:housenumber" v="331"/>
    <tag k="addr:street" v="Shallowbrook Road"/>
    <tag k="addr:state" v="VT"/>
    <tag k="ref:vcgi:esiteid" v="135779"/>
  </node>
  <node id="-362" visible="true" lat="44.93421935" lon="-72.47817993">
    <tag k="addr:city" v="Jay"/>
    <tag k="addr:housenumber" v="38"/>
    <tag k="addr:street" v="Poplar Drive"/>
    <tag k="addr:state" v="VT"/>
    <tag k="ref:vcgi:esiteid" v="135780"/>
  </node>
  <node id="-363" visible="true" lat="44.93392562" lon="-72.47973632">
    <tag k="addr:city" v="Jay"/>
    <tag k="addr:housenumber" v="120"/>
    <tag k="addr:street" v="Poplar Drive"/>
    <tag k="addr:state" v="VT"/>
    <tag k="ref:vcgi:esiteid" v="135781"/>
  </node>
  <node id="-364" visible="true" lat="44.93384552" lon="-72.4769516">
    <tag k="addr:city" v="Jay"/>
    <tag k="addr:housenumber" v="355"/>
    <tag k="addr:street" v="Shallowbrook Road"/>
    <tag k="addr:state" v="VT"/>
    <tag k="ref:vcgi:esiteid" v="135782"/>
  </node>
  <node id="-365" visible="true" lat="44.93347901" lon="-72.47884792">
    <tag k="addr:city" v="Jay"/>
    <tag k="addr:housenumber" v="79"/>
    <tag k="addr:street" v="Poplar Drive"/>
    <tag k="addr:state" v="VT"/>
    <tag k="ref:vcgi:esiteid" v="135783"/>
  </node>
  <node id="-366" visible="true" lat="44.93336634" lon="-72.50693858">
    <tag k="addr:city" v="Jay"/>
    <tag k="addr:housenumber" v="533"/>
    <tag k="addr:street" v="North Village Road"/>
    <tag k="addr:state" v="VT"/>
    <tag k="ref:vcgi:esiteid" v="135784"/>
  </node>
  <node id="-367" visible="true" lat="44.93334198" lon="-72.47769164">
    <tag k="addr:city" v="Jay"/>
    <tag k="addr:housenumber" v="378"/>
    <tag k="addr:street" v="Shallowbrook Road"/>
    <tag k="addr:state" v="VT"/>
    <tag k="ref:vcgi:esiteid" v="135785"/>
  </node>
  <node id="-368" visible="true" lat="44.93252182" lon="-72.4799118">
    <tag k="addr:city" v="Jay"/>
    <tag k="addr:housenumber" v="584"/>
    <tag k="addr:street" v="Shallowbrook Road"/>
    <tag k="addr:state" v="VT"/>
    <tag k="ref:vcgi:esiteid" v="135786"/>
  </node>
  <node id="-369" visible="true" lat="44.93253457" lon="-72.47881605">
    <tag k="addr:city" v="Jay"/>
    <tag k="addr:housenumber" v="548"/>
    <tag k="addr:street" v="Shallowbrook Road"/>
    <tag k="addr:state" v="VT"/>
    <tag k="ref:vcgi:esiteid" v="135787"/>
  </node>
  <node id="-370" visible="true" lat="44.93230819" lon="-72.47621917">
    <tag k="addr:city" v="Jay"/>
    <tag k="addr:housenumber" v="449"/>
    <tag k="addr:street" v="Shallowbrook Road"/>
    <tag k="addr:state" v="VT"/>
    <tag k="ref:vcgi:esiteid" v="135788"/>
  </node>
  <node id="-371" visible="true" lat="44.93154701" lon="-72.5001625">
    <tag k="addr:city" v="Jay"/>
    <tag k="addr:housenumber" v="206"/>
    <tag k="addr:street" v="Stoney Path Road"/>
    <tag k="addr:state" v="VT"/>
    <tag k="ref:vcgi:esiteid" v="135789"/>
  </node>
  <node id="-372" visible="true" lat="44.93173016" lon="-72.49464919">
    <tag k="addr:city" v="Jay"/>
    <tag k="addr:housenumber" v="4434"/>
    <tag k="addr:street" v="Vermont Route 242"/>
    <tag k="addr:state" v="VT"/>
    <tag k="ref:vcgi:esiteid" v="135790"/>
  </node>
  <node id="-373" visible="true" lat="44.93081489" lon="-72.49423907">
    <tag k="addr:city" v="Jay"/>
    <tag k="addr:housenumber" v="4435"/>
    <tag k="addr:street" v="Vermont Route 242"/>
    <tag k="addr:state" v="VT"/>
    <tag k="ref:vcgi:esiteid" v="135791"/>
  </node>
  <node id="-374" visible="true" lat="44.93036744" lon="-72.43543466">
    <tag k="addr:city" v="Jay"/>
    <tag k="addr:housenumber" v="225"/>
    <tag k="addr:street" v="Cross Road"/>
    <tag k="addr:state" v="VT"/>
    <tag k="ref:vcgi:esiteid" v="135792"/>
  </node>
  <node id="-375" visible="true" lat="44.92931863" lon="-72.50468896">
    <tag k="addr:city" v="Jay"/>
    <tag k="addr:housenumber" v="360"/>
    <tag k="addr:street" v="Stateside Road"/>
    <tag k="addr:state" v="VT"/>
    <tag k="ref:vcgi:esiteid" v="135793"/>
  </node>
  <node id="-376" visible="true" lat="44.9289444" lon="-72.50316652">
    <tag k="addr:city" v="Jay"/>
    <tag k="addr:housenumber" v="425"/>
    <tag k="addr:street" v="Stateside Road"/>
    <tag k="addr:state" v="VT"/>
    <tag k="ref:vcgi:esiteid" v="135794"/>
  </node>
  <node id="-377" visible="true" lat="44.99672575" lon="-72.44548894">
    <tag k="addr:city" v="Jay"/>
    <tag k="addr:housenumber" v="1898"/>
    <tag k="addr:street" v="North Jay Road"/>
    <tag k="addr:state" v="VT"/>
    <tag k="ref:vcgi:esiteid" v="135795"/>
  </node>
  <node id="-378" visible="true" lat="45.00098021" lon="-72.44365967">
    <tag k="addr:city" v="Jay"/>
    <tag k="addr:housenumber" v="2190"/>
    <tag k="addr:street" v="North Jay Road"/>
    <tag k="addr:state" v="VT"/>
    <tag k="ref:vcgi:esiteid" v="135796"/>
  </node>
  <node id="-379" visible="true" lat="45.00133866" lon="-72.43368236">
    <tag k="addr:city" v="Jay"/>
    <tag k="addr:housenumber" v="2924"/>
    <tag k="addr:street" v="North Jay Road"/>
    <tag k="addr:state" v="VT"/>
    <tag k="ref:vcgi:esiteid" v="135797"/>
  </node>
  <node id="-380" visible="true" lat="45.00073176" lon="-72.43648553">
    <tag k="addr:city" v="Jay"/>
    <tag k="addr:housenumber" v="2804"/>
    <tag k="addr:street" v="North Jay Road"/>
    <tag k="addr:state" v="VT"/>
    <tag k="ref:vcgi:esiteid" v="135798"/>
  </node>
  <node id="-381" visible="true" lat="45.00081759" lon="-72.43264692">
    <tag k="addr:city" v="Jay"/>
    <tag k="addr:housenumber" v="3006"/>
    <tag k="addr:street" v="North Jay Road"/>
    <tag k="addr:state" v="VT"/>
    <tag k="ref:vcgi:esiteid" v="135799"/>
  </node>
  <node id="-382" visible="true" lat="45.0025788" lon="-72.55158616">
    <tag k="addr:city" v="Jay"/>
    <tag k="addr:housenumber" v="30"/>
    <tag k="addr:street" v="Bell Road"/>
    <tag k="addr:state" v="VT"/>
    <tag k="ref:vcgi:esiteid" v="135800"/>
  </node>
  <node id="-383" visible="true" lat="44.99349626" lon="-72.54926196">
    <tag k="addr:city" v="Jay"/>
    <tag k="addr:housenumber" v="1142"/>
    <tag k="addr:street" v="West Jay Road"/>
    <tag k="addr:state" v="VT"/>
    <tag k="ref:vcgi:esiteid" v="135801"/>
  </node>
  <node id="-384" visible="true" lat="44.9661711" lon="-72.42486421">
    <tag k="addr:city" v="Jay"/>
    <tag k="addr:housenumber" v="483"/>
    <tag k="addr:street" v="Loop Road"/>
    <tag k="addr:state" v="VT"/>
    <tag k="ref:vcgi:esiteid" v="135802"/>
  </node>
  <node id="-385" visible="true" lat="44.95811239" lon="-72.42755243">
    <tag k="addr:city" v="Jay"/>
    <tag k="addr:housenumber" v="745"/>
    <tag k="addr:street" v="Belle Vista Road"/>
    <tag k="addr:state" v="VT"/>
    <tag k="ref:vcgi:esiteid" v="135803"/>
  </node>
  <node id="-386" visible="true" lat="44.98303422" lon="-72.43256935">
    <tag k="addr:city" v="Jay"/>
    <tag k="addr:housenumber" v="1050"/>
    <tag k="addr:street" v="Mayhew Road"/>
    <tag k="addr:state" v="VT"/>
    <tag k="ref:vcgi:esiteid" v="135804"/>
  </node>
  <node id="-387" visible="true" lat="44.96358341" lon="-72.46621013">
    <tag k="addr:city" v="Jay"/>
    <tag k="addr:housenumber" v="947"/>
    <tag k="addr:street" v="Morse Road"/>
    <tag k="addr:state" v="VT"/>
    <tag k="ref:vcgi:esiteid" v="135805"/>
  </node>
  <node id="-388" visible="true" lat="44.96362487" lon="-72.46072288">
    <tag k="addr:city" v="Jay"/>
    <tag k="addr:housenumber" v="683"/>
    <tag k="addr:street" v="Morse Road"/>
    <tag k="addr:state" v="VT"/>
    <tag k="ref:vcgi:esiteid" v="135806"/>
  </node>
  <node id="-389" visible="true" lat="44.99426056" lon="-72.44633903">
    <tag k="addr:city" v="Jay"/>
    <tag k="addr:housenumber" v="1688"/>
    <tag k="addr:street" v="North Jay Road"/>
    <tag k="addr:state" v="VT"/>
    <tag k="ref:vcgi:esiteid" v="135807"/>
  </node>
  <node id="-390" visible="true" lat="44.94880722" lon="-72.43384298">
    <tag k="addr:city" v="Jay"/>
    <tag k="addr:housenumber" v="803"/>
    <tag k="addr:street" v="Vermont Route 242"/>
    <tag k="addr:state" v="VT"/>
    <tag k="ref:vcgi:esiteid" v="135808"/>
  </node>
  <node id="-391" visible="true" lat="44.93350014" lon="-72.49242737">
    <tag k="addr:city" v="Jay"/>
    <tag k="addr:housenumber" v="4181"/>
    <tag k="addr:street" v="Vermont Route 242"/>
    <tag k="addr:state" v="VT"/>
    <tag k="ref:vcgi:esiteid" v="135809"/>
  </node>
  <node id="-392" visible="true" lat="44.97477132" lon="-72.44912962">
    <tag k="addr:city" v="Jay"/>
    <tag k="addr:housenumber" v="327"/>
    <tag k="addr:street" v="North Jay Road"/>
    <tag k="addr:state" v="VT"/>
    <tag k="ref:vcgi:esiteid" v="135811"/>
  </node>
  <node id="-393" visible="true" lat="44.93527412" lon="-72.50677388">
    <tag k="addr:city" v="Jay"/>
    <tag k="addr:housenumber" v="376"/>
    <tag k="addr:street" v="North Village Road"/>
    <tag k="addr:state" v="VT"/>
    <tag k="ref:vcgi:esiteid" v="135812"/>
  </node>
  <node id="-394" visible="true" lat="44.93491576" lon="-72.50668793">
    <tag k="addr:city" v="Jay"/>
    <tag k="addr:housenumber" v="380"/>
    <tag k="addr:street" v="North Village Road"/>
    <tag k="addr:state" v="VT"/>
    <tag k="ref:vcgi:esiteid" v="135813"/>
  </node>
  <node id="-395" visible="true" lat="44.93395939" lon="-72.50682093">
    <tag k="addr:city" v="Jay"/>
    <tag k="addr:housenumber" v="518"/>
    <tag k="addr:street" v="North Village Road"/>
    <tag k="addr:state" v="VT"/>
    <tag k="ref:vcgi:esiteid" v="135814"/>
  </node>
  <node id="-396" visible="true" lat="44.9720067" lon="-72.4729112">
    <tag k="addr:city" v="Jay"/>
    <tag k="addr:housenumber" v="1715"/>
    <tag k="addr:street" v="Morse Road"/>
    <tag k="addr:state" v="VT"/>
    <tag k="ref:vcgi:esiteid" v="135815"/>
  </node>
  <node id="-397" visible="true" lat="44.93581504" lon="-72.50182966">
    <tag k="addr:city" v="Jay"/>
    <tag k="addr:housenumber" v="163"/>
    <tag k="addr:street" v="North Village Road"/>
    <tag k="addr:state" v="VT"/>
    <tag k="ref:vcgi:esiteid" v="135816"/>
  </node>
  <node id="-398" visible="true" lat="44.98050238" lon="-72.43197996">
    <tag k="addr:city" v="Jay"/>
    <tag k="addr:housenumber" v="984"/>
    <tag k="addr:street" v="Mayhew Road"/>
    <tag k="addr:state" v="VT"/>
    <tag k="ref:vcgi:esiteid" v="135817"/>
  </node>
  <node id="-399" visible="true" lat="44.98132267" lon="-72.43254959">
    <tag k="addr:city" v="Jay"/>
    <tag k="addr:housenumber" v="1032"/>
    <tag k="addr:street" v="Mayhew Road"/>
    <tag k="addr:state" v="VT"/>
    <tag k="ref:vcgi:esiteid" v="135818"/>
  </node>
  <node id="-400" visible="true" lat="44.96495289" lon="-72.44248988">
    <tag k="addr:city" v="Jay"/>
    <tag k="addr:housenumber" v="68"/>
    <tag k="addr:street" v="Elm Drive"/>
    <tag k="addr:state" v="VT"/>
    <tag k="ref:vcgi:esiteid" v="135819"/>
  </node>
  <node id="-401" visible="true" lat="44.96485713" lon="-72.4619236">
    <tag k="addr:city" v="Jay"/>
    <tag k="addr:housenumber" v="756"/>
    <tag k="addr:street" v="Morse Road"/>
    <tag k="addr:state" v="VT"/>
    <tag k="ref:vcgi:esiteid" v="135820"/>
  </node>
  <node id="-402" visible="true" lat="44.97683788" lon="-72.47844257">
    <tag k="addr:city" v="Jay"/>
    <tag k="addr:housenumber" v="33"/>
    <tag k="addr:street" v="Leavitt Circle"/>
    <tag k="addr:state" v="VT"/>
    <tag k="ref:vcgi:esiteid" v="135821"/>
  </node>
  <node id="-403" visible="true" lat="44.9452729" lon="-72.46736257">
    <tag k="addr:city" v="Jay"/>
    <tag k="addr:housenumber" v="406"/>
    <tag k="addr:street" v="Beadle Hill Road"/>
    <tag k="addr:state" v="VT"/>
    <tag k="ref:vcgi:esiteid" v="135822"/>
  </node>
  <node id="-404" visible="true" lat="44.98784896" lon="-72.44788413">
    <tag k="addr:city" v="Jay"/>
    <tag k="addr:housenumber" v="1242"/>
    <tag k="addr:street" v="North Jay Road"/>
    <tag k="addr:state" v="VT"/>
    <tag k="ref:vcgi:esiteid" v="135823"/>
  </node>
  <node id="-405" visible="true" lat="45.0037627" lon="-72.54538638">
    <tag k="addr:city" v="Jay"/>
    <tag k="addr:housenumber" v="227"/>
    <tag k="addr:street" v="Bell Road"/>
    <tag k="addr:state" v="VT"/>
    <tag k="ref:vcgi:esiteid" v="135824"/>
  </node>
  <node id="-406" visible="true" lat="44.93541543" lon="-72.50281658">
    <tag k="addr:city" v="Jay"/>
    <tag k="addr:housenumber" v="215"/>
    <tag k="addr:street" v="North Village Road"/>
    <tag k="addr:state" v="VT"/>
    <tag k="ref:vcgi:esiteid" v="135825"/>
  </node>
  <node id="-407" visible="true" lat="44.93612898" lon="-72.50356701">
    <tag k="addr:city" v="Jay"/>
    <tag k="addr:housenumber" v="232"/>
    <tag k="addr:street" v="North Village Road"/>
    <tag k="addr:state" v="VT"/>
    <tag k="ref:vcgi:esiteid" v="135826"/>
  </node>
  <node id="-408" visible="true" lat="44.94741535" lon="-72.43817771">
    <tag k="addr:city" v="Jay"/>
    <tag k="addr:housenumber" v="1463"/>
    <tag k="addr:street" v="Cross Road"/>
    <tag k="addr:state" v="VT"/>
    <tag k="ref:vcgi:esiteid" v="135828"/>
  </node>
  <node id="-409" visible="true" lat="44.96642006" lon="-72.43252409">
    <tag k="addr:city" v="Jay"/>
    <tag k="addr:housenumber" v="109"/>
    <tag k="addr:street" v="Loop Road"/>
    <tag k="addr:state" v="VT"/>
    <tag k="ref:vcgi:esiteid" v="135829"/>
  </node>
  <node id="-410" visible="true" lat="44.93154731" lon="-72.4997117">
    <tag k="addr:city" v="Jay"/>
    <tag k="addr:housenumber" v="208"/>
    <tag k="addr:street" v="Stoney Path Road"/>
    <tag k="addr:state" v="VT"/>
    <tag k="ref:vcgi:esiteid" v="135830"/>
  </node>
  <node id="-411" visible="true" lat="44.95124358" lon="-72.43902304">
    <tag k="addr:city" v="Jay"/>
    <tag k="addr:housenumber" v="1737"/>
    <tag k="addr:street" v="Cross Road"/>
    <tag k="addr:state" v="VT"/>
    <tag k="ref:vcgi:esiteid" v="135831"/>
  </node>
  <node id="-412" visible="true" lat="44.93915804" lon="-72.47665472">
    <tag k="addr:city" v="Jay"/>
    <tag k="addr:housenumber" v="3279"/>
    <tag k="addr:street" v="Vermont Route 242"/>
    <tag k="addr:state" v="VT"/>
    <tag k="ref:vcgi:esiteid" v="135832"/>
  </node>
  <node id="-413" visible="true" lat="44.94096644" lon="-72.46327188">
    <tag k="addr:city" v="Jay"/>
    <tag k="addr:housenumber" v="2534"/>
    <tag k="addr:street" v="Vermont Route 242"/>
    <tag k="addr:state" v="VT"/>
    <tag k="ref:vcgi:esiteid" v="135833"/>
  </node>
  <node id="-414" visible="true" lat="44.97776549" lon="-72.44778329">
    <tag k="addr:city" v="Jay"/>
    <tag k="addr:housenumber" v="38"/>
    <tag k="addr:street" v="Partridge Hollow Road"/>
    <tag k="addr:state" v="VT"/>
    <tag k="ref:vcgi:esiteid" v="135834"/>
  </node>
  <node id="-415" visible="true" lat="44.98979983" lon="-72.5477778">
    <tag k="addr:city" v="Jay"/>
    <tag k="addr:housenumber" v="778"/>
    <tag k="addr:street" v="West Jay Road"/>
    <tag k="addr:state" v="VT"/>
    <tag k="ref:vcgi:esiteid" v="135835"/>
  </node>
  <node id="-416" visible="true" lat="44.94486279" lon="-72.46896872">
    <tag k="addr:city" v="Jay"/>
    <tag k="addr:housenumber" v="335"/>
    <tag k="addr:street" v="Beadle Hill Road"/>
    <tag k="addr:state" v="VT"/>
    <tag k="ref:vcgi:esiteid" v="135836"/>
  </node>
  <node id="-417" visible="true" lat="45.00197253" lon="-72.4455525">
    <tag k="addr:city" v="Jay"/>
    <tag k="addr:housenumber" v="2291"/>
    <tag k="addr:street" v="North Jay Road"/>
    <tag k="addr:state" v="VT"/>
    <tag k="ref:vcgi:esiteid" v="135837"/>
  </node>
  <node id="-418" visible="true" lat="44.94783795" lon="-72.44630884">
    <tag k="addr:city" v="Jay"/>
    <tag k="addr:housenumber" v="467"/>
    <tag k="addr:street" v="Gendron Road"/>
    <tag k="addr:state" v="VT"/>
    <tag k="ref:vcgi:esiteid" v="135838"/>
  </node>
  <node id="-419" visible="true" lat="44.96678654" lon="-72.42644983">
    <tag k="addr:city" v="Jay"/>
    <tag k="addr:housenumber" v="101"/>
    <tag k="addr:street" v="Chemin Panoramique"/>
    <tag k="addr:state" v="VT"/>
    <tag k="ref:vcgi:esiteid" v="135839"/>
  </node>
  <node id="-420" visible="true" lat="44.94370792" lon="-72.45685448">
    <tag k="addr:city" v="Jay"/>
    <tag k="addr:housenumber" v="197"/>
    <tag k="addr:street" v="Sargents Way"/>
    <tag k="addr:state" v="VT"/>
    <tag k="ref:vcgi:esiteid" v="135840"/>
  </node>
  <node id="-421" visible="true" lat="44.96713205" lon="-72.43306945">
    <tag k="addr:city" v="Jay"/>
    <tag k="addr:housenumber" v="123"/>
    <tag k="addr:street" v="Loop Road"/>
    <tag k="addr:state" v="VT"/>
    <tag k="ref:vcgi:esiteid" v="135841"/>
  </node>
  <node id="-422" visible="true" lat="44.93555506" lon="-72.50599498">
    <tag k="addr:city" v="Jay"/>
    <tag k="addr:housenumber" v="304"/>
    <tag k="addr:street" v="North Village Road"/>
    <tag k="addr:state" v="VT"/>
    <tag k="ref:vcgi:esiteid" v="135842"/>
  </node>
  <node id="-423" visible="true" lat="44.94544928" lon="-72.45252233">
    <tag k="addr:city" v="Jay"/>
    <tag k="addr:housenumber" v="224"/>
    <tag k="addr:street" v="Marriner Drive"/>
    <tag k="addr:state" v="VT"/>
    <tag k="ref:vcgi:esiteid" v="135843"/>
  </node>
  <node id="-424" visible="true" lat="44.94548092" lon="-72.47069828">
    <tag k="addr:city" v="Jay"/>
    <tag k="addr:housenumber" v="94"/>
    <tag k="addr:street" v="Wilderness Road"/>
    <tag k="addr:state" v="VT"/>
    <tag k="ref:vcgi:esiteid" v="135844"/>
  </node>
  <node id="-425" visible="true" lat="44.94437052" lon="-72.46026102">
    <tag k="addr:city" v="Jay"/>
    <tag k="addr:housenumber" v="293"/>
    <tag k="addr:street" v="Sargents Loop Road"/>
    <tag k="addr:state" v="VT"/>
    <tag k="ref:vcgi:esiteid" v="135845"/>
  </node>
  <node id="-426" visible="true" lat="44.96524836" lon="-72.44247815">
    <tag k="addr:city" v="Jay"/>
    <tag k="addr:housenumber" v="84"/>
    <tag k="addr:street" v="Elm Drive"/>
    <tag k="addr:state" v="VT"/>
    <tag k="ref:vcgi:esiteid" v="135846"/>
  </node>
  <node id="-427" visible="true" lat="44.95530987" lon="-72.42443746">
    <tag k="addr:city" v="Jay"/>
    <tag k="addr:housenumber" v="182"/>
    <tag k="addr:street" v="Tamarack Road"/>
    <tag k="addr:state" v="VT"/>
    <tag k="ref:vcgi:esiteid" v="135847"/>
  </node>
  <node id="-428" visible="true" lat="44.97407111" lon="-72.43351403">
    <tag k="addr:city" v="Jay"/>
    <tag k="addr:housenumber" v="539"/>
    <tag k="addr:street" v="Mayhew Road"/>
    <tag k="addr:state" v="VT"/>
    <tag k="ref:vcgi:esiteid" v="135848"/>
  </node>
  <node id="-429" visible="true" lat="44.95370425" lon="-72.44437959">
    <tag k="addr:city" v="Jay"/>
    <tag k="addr:housenumber" v="1889"/>
    <tag k="addr:street" v="Cross Road"/>
    <tag k="addr:state" v="VT"/>
    <tag k="ref:vcgi:esiteid" v="135849"/>
  </node>
  <node id="-430" visible="true" lat="44.95929062" lon="-72.42868673">
    <tag k="addr:city" v="Jay"/>
    <tag k="addr:housenumber" v="812"/>
    <tag k="addr:street" v="Belle Vista Road"/>
    <tag k="addr:state" v="VT"/>
    <tag k="ref:vcgi:esiteid" v="135850"/>
  </node>
  <node id="-431" visible="true" lat="44.94207103" lon="-72.42016361">
    <tag k="addr:city" v="Jay"/>
    <tag k="addr:housenumber" v="330"/>
    <tag k="addr:street" v="Woodland Drive"/>
    <tag k="addr:state" v="VT"/>
    <tag k="ref:vcgi:esiteid" v="135851"/>
  </node>
  <node id="-432" visible="true" lat="44.98972221" lon="-72.53123726">
    <tag k="addr:city" v="Jay"/>
    <tag k="addr:housenumber" v="251"/>
    <tag k="addr:street" v="North Hillside Road"/>
    <tag k="addr:state" v="VT"/>
    <tag k="ref:vcgi:esiteid" v="135852"/>
  </node>
  <node id="-433" visible="true" lat="44.99935547" lon="-72.44408653">
    <tag k="addr:city" v="Jay"/>
    <tag k="addr:housenumber" v="2100"/>
    <tag k="addr:street" v="North Jay Road"/>
    <tag k="addr:state" v="VT"/>
    <tag k="ref:vcgi:esiteid" v="135853"/>
  </node>
  <node id="-434" visible="true" lat="44.93794959" lon="-72.46035428">
    <tag k="addr:city" v="Jay"/>
    <tag k="addr:housenumber" v="216"/>
    <tag k="addr:street" v="Lucier Road"/>
    <tag k="addr:state" v="VT"/>
    <tag k="ref:vcgi:esiteid" v="135854"/>
  </node>
  <node id="-435" visible="true" lat="44.94343461" lon="-72.47081458">
    <tag k="addr:city" v="Jay"/>
    <tag k="addr:housenumber" v="121"/>
    <tag k="addr:street" v="Deer Path"/>
    <tag k="addr:state" v="VT"/>
    <tag k="ref:vcgi:esiteid" v="135855"/>
  </node>
  <node id="-436" visible="true" lat="44.95875673" lon="-72.42932425">
    <tag k="addr:city" v="Jay"/>
    <tag k="addr:housenumber" v="802"/>
    <tag k="addr:street" v="Belle Vista Road"/>
    <tag k="addr:state" v="VT"/>
    <tag k="ref:vcgi:esiteid" v="135856"/>
  </node>
  <node id="-437" visible="true" lat="44.99914165" lon="-72.45036219">
    <tag k="addr:city" v="Jay"/>
    <tag k="addr:housenumber" v="250"/>
    <tag k="addr:street" v="Journeys End Road"/>
    <tag k="addr:state" v="VT"/>
    <tag k="ref:vcgi:esiteid" v="135857"/>
  </node>
  <node id="-438" visible="true" lat="45.0034574" lon="-72.44431626">
    <tag k="addr:city" v="Jay"/>
    <tag k="addr:housenumber" v="25"/>
    <tag k="addr:street" v="Space Research Road"/>
    <tag k="addr:state" v="VT"/>
    <tag k="ref:vcgi:esiteid" v="135858"/>
  </node>
  <node id="-439" visible="true" lat="44.96271008" lon="-72.50191949">
    <tag k="addr:city" v="Jay"/>
    <tag k="addr:housenumber" v="1807"/>
    <tag k="addr:street" v="Stevens Mill Road"/>
    <tag k="addr:state" v="VT"/>
    <tag k="ref:vcgi:esiteid" v="135859"/>
  </node>
  <node id="-440" visible="true" lat="44.94240112" lon="-72.45703926">
    <tag k="addr:city" v="Jay"/>
    <tag k="addr:housenumber" v="103"/>
    <tag k="addr:street" v="Sargents Way"/>
    <tag k="addr:state" v="VT"/>
    <tag k="ref:vcgi:esiteid" v="135860"/>
  </node>
  <node id="-441" visible="true" lat="44.93126201" lon="-72.49321912">
    <tag k="addr:city" v="Jay"/>
    <tag k="addr:housenumber" v="4375"/>
    <tag k="addr:street" v="Vermont Route 242"/>
    <tag k="addr:state" v="VT"/>
    <tag k="ref:vcgi:esiteid" v="135861"/>
  </node>
  <node id="-442" visible="true" lat="44.96110691" lon="-72.44964205">
    <tag k="addr:city" v="Jay"/>
    <tag k="addr:housenumber" v="2517"/>
    <tag k="addr:street" v="Cross Road"/>
    <tag k="addr:state" v="VT"/>
    <tag k="ref:vcgi:esiteid" v="135862"/>
  </node>
  <node id="-443" visible="true" lat="44.96061044" lon="-72.44677522">
    <tag k="addr:city" v="Jay"/>
    <tag k="addr:housenumber" v="2511"/>
    <tag k="addr:street" v="Cross Road"/>
    <tag k="addr:state" v="VT"/>
    <tag k="ref:vcgi:esiteid" v="135863"/>
  </node>
  <node id="-444" visible="true" lat="44.94954932" lon="-72.43303677">
    <tag k="addr:city" v="Jay"/>
    <tag k="addr:housenumber" v="746"/>
    <tag k="addr:street" v="Vermont Route 242"/>
    <tag k="addr:state" v="VT"/>
    <tag k="ref:vcgi:esiteid" v="135864"/>
  </node>
  <node id="-445" visible="true" lat="44.94829201" lon="-72.45455891">
    <tag k="addr:city" v="Jay"/>
    <tag k="addr:housenumber" v="488"/>
    <tag k="addr:street" v="Sargents Way"/>
    <tag k="addr:state" v="VT"/>
    <tag k="ref:vcgi:esiteid" v="135865"/>
  </node>
  <node id="-446" visible="true" lat="44.94926883" lon="-72.45635602">
    <tag k="addr:city" v="Jay"/>
    <tag k="addr:housenumber" v="539"/>
    <tag k="addr:street" v="Sargents Way"/>
    <tag k="addr:state" v="VT"/>
    <tag k="ref:vcgi:esiteid" v="135866"/>
  </node>
  <node id="-447" visible="true" lat="44.99932827" lon="-72.44600402">
    <tag k="addr:city" v="Jay"/>
    <tag k="addr:housenumber" v="20"/>
    <tag k="addr:street" v="Journeys End Road"/>
    <tag k="addr:state" v="VT"/>
    <tag k="ref:vcgi:esiteid" v="135867"/>
  </node>
  <node id="-448" visible="true" lat="44.99946959" lon="-72.45378109">
    <tag k="addr:city" v="Jay"/>
    <tag k="addr:housenumber" v="416"/>
    <tag k="addr:street" v="Journeys End Road"/>
    <tag k="addr:state" v="VT"/>
    <tag k="ref:vcgi:esiteid" v="135868"/>
  </node>
  <node id="-449" visible="true" lat="44.9744372" lon="-72.46938964">
    <tag k="addr:city" v="Jay"/>
    <tag k="addr:housenumber" v="2490"/>
    <tag k="addr:street" v="Vermont Route 105"/>
    <tag k="addr:state" v="VT"/>
    <tag k="ref:vcgi:esiteid" v="135869"/>
  </node>
  <node id="-450" visible="true" lat="44.9509975" lon="-72.45659932">
    <tag k="addr:city" v="Jay"/>
    <tag k="addr:housenumber" v="55"/>
    <tag k="addr:street" v="Moose Run Drive"/>
    <tag k="addr:state" v="VT"/>
    <tag k="ref:vcgi:esiteid" v="135870"/>
  </node>
  <node id="-451" visible="true" lat="44.95147875" lon="-72.45562067">
    <tag k="addr:city" v="Jay"/>
    <tag k="addr:housenumber" v="69"/>
    <tag k="addr:street" v="Moose Run Drive"/>
    <tag k="addr:state" v="VT"/>
    <tag k="ref:vcgi:esiteid" v="135871"/>
  </node>
  <node id="-452" visible="true" lat="44.99022952" lon="-72.44801339">
    <tag k="addr:city" v="Jay"/>
    <tag k="addr:housenumber" v="1438"/>
    <tag k="addr:street" v="North Jay Road"/>
    <tag k="addr:state" v="VT"/>
    <tag k="ref:vcgi:esiteid" v="135872"/>
  </node>
  <node id="-454" visible="true" lat="44.94405719" lon="-72.44474172">
    <tag k="addr:city" v="Jay"/>
    <tag k="addr:housenumber" v="26"/>
    <tag k="addr:street" v="Foothills Drive"/>
    <tag k="addr:state" v="VT"/>
    <tag k="ref:vcgi:esiteid" v="135874"/>
  </node>
  <node id="-455" visible="true" lat="44.94388927" lon="-72.44372129">
    <tag k="addr:city" v="Jay"/>
    <tag k="addr:housenumber" v="201"/>
    <tag k="addr:street" v="Green Mountain Drive"/>
    <tag k="addr:state" v="VT"/>
    <tag k="ref:vcgi:esiteid" v="135875"/>
  </node>
  <node id="-456" visible="true" lat="44.94335684" lon="-72.44434964">
    <tag k="addr:city" v="Jay"/>
    <tag k="addr:housenumber" v="248"/>
    <tag k="addr:street" v="Green Mountain Drive"/>
    <tag k="addr:state" v="VT"/>
    <tag k="ref:vcgi:esiteid" v="135876"/>
  </node>
  <node id="-457" visible="true" lat="44.96868439" lon="-72.46973902">
    <tag k="addr:city" v="Jay"/>
    <tag k="addr:housenumber" v="1426"/>
    <tag k="addr:street" v="Morse Road"/>
    <tag k="addr:state" v="VT"/>
    <tag k="ref:vcgi:esiteid" v="135877"/>
  </node>
  <node id="-458" visible="true" lat="44.98192753" lon="-72.45107193">
    <tag k="addr:city" v="Jay"/>
    <tag k="addr:housenumber" v="43"/>
    <tag k="addr:street" v="Jake Drive"/>
    <tag k="addr:state" v="VT"/>
    <tag k="ref:vcgi:esiteid" v="135878"/>
  </node>
  <node id="-459" visible="true" lat="44.99740581" lon="-72.44540559">
    <tag k="addr:city" v="Jay"/>
    <tag k="addr:housenumber" v="1982"/>
    <tag k="addr:street" v="North Jay Road"/>
    <tag k="addr:state" v="VT"/>
    <tag k="ref:vcgi:esiteid" v="305703"/>
  </node>
  <node id="-460" visible="true" lat="44.94279746" lon="-72.45826336">
    <tag k="addr:city" v="Jay"/>
    <tag k="addr:housenumber" v="184"/>
    <tag k="addr:street" v="Sargents Loop Road"/>
    <tag k="addr:state" v="VT"/>
    <tag k="ref:vcgi:esiteid" v="305745"/>
  </node>
  <node id="-461" visible="true" lat="44.93556398" lon="-72.47931449">
    <tag k="addr:city" v="Jay"/>
    <tag k="addr:housenumber" v="64"/>
    <tag k="addr:street" v="Russell Hill Drive"/>
    <tag k="addr:state" v="VT"/>
    <tag k="ref:vcgi:esiteid" v="305746"/>
  </node>
  <node id="-462" visible="true" lat="44.96362838" lon="-72.48199514">
    <tag k="addr:city" v="Jay"/>
    <tag k="addr:housenumber" v="570"/>
    <tag k="addr:street" v="Stevens Mill Road"/>
    <tag k="addr:state" v="VT"/>
    <tag k="ref:vcgi:esiteid" v="306250"/>
  </node>
  <node id="-463" visible="true" lat="44.94352433" lon="-72.44600769">
    <tag k="addr:city" v="Jay"/>
    <tag k="addr:housenumber" v="71"/>
    <tag k="addr:street" v="Cote Cove"/>
    <tag k="addr:state" v="VT"/>
    <tag k="ref:vcgi:esiteid" v="306298"/>
  </node>
  <node id="-464" visible="true" lat="44.943035" lon="-72.44626171">
    <tag k="addr:city" v="Jay"/>
    <tag k="addr:housenumber" v="104"/>
    <tag k="addr:street" v="Foothills Drive"/>
    <tag k="addr:state" v="VT"/>
    <tag k="ref:vcgi:esiteid" v="306299"/>
  </node>
  <node id="-465" visible="true" lat="44.93414421" lon="-72.48883858">
    <tag k="addr:city" v="Jay"/>
    <tag k="addr:housenumber" v="243"/>
    <tag k="addr:street" v="Old Jay Montgomery Road"/>
    <tag k="addr:state" v="VT"/>
    <tag k="ref:vcgi:esiteid" v="307224"/>
  </node>
  <node id="-466" visible="true" lat="44.94398112" lon="-72.45545017">
    <tag k="addr:city" v="Jay"/>
    <tag k="addr:housenumber" v="226"/>
    <tag k="addr:street" v="Sargents Way"/>
    <tag k="addr:state" v="VT"/>
    <tag k="ref:vcgi:esiteid" v="307315"/>
  </node>
  <node id="-467" visible="true" lat="44.94556549" lon="-72.47182786">
    <tag k="addr:city" v="Jay"/>
    <tag k="addr:housenumber" v="160"/>
    <tag k="addr:street" v="Wilderness Road"/>
    <tag k="addr:state" v="VT"/>
    <tag k="ref:vcgi:esiteid" v="307316"/>
  </node>
  <node id="-468" visible="true" lat="44.94671318" lon="-72.43745375">
    <tag k="addr:city" v="Jay"/>
    <tag k="addr:housenumber" v="1438"/>
    <tag k="addr:street" v="Cross Road"/>
    <tag k="addr:state" v="VT"/>
    <tag k="ref:vcgi:esiteid" v="309203"/>
  </node>
  <node id="-469" visible="true" lat="44.96906703" lon="-72.44755418">
    <tag k="addr:city" v="Jay"/>
    <tag k="addr:housenumber" v="3080"/>
    <tag k="addr:street" v="Cross Road"/>
    <tag k="addr:state" v="VT"/>
    <tag k="ref:vcgi:esiteid" v="311409"/>
  </node>
  <node id="-470" visible="true" lat="44.97158312" lon="-72.43081459">
    <tag k="addr:city" v="Jay"/>
    <tag k="addr:housenumber" v="409"/>
    <tag k="addr:street" v="Mayhew Road"/>
    <tag k="addr:state" v="VT"/>
    <tag k="ref:vcgi:esiteid" v="313718"/>
  </node>
  <node id="-471" visible="true" lat="45.00584378" lon="-72.43793042">
    <tag k="addr:city" v="Jay"/>
    <tag k="addr:housenumber" v="2687"/>
    <tag k="addr:street" v="North Jay Road"/>
    <tag k="addr:state" v="VT"/>
    <tag k="ref:vcgi:esiteid" v="313727"/>
  </node>
  <node id="-472" visible="true" lat="44.99893977" lon="-72.4426046">
    <tag k="addr:city" v="Jay"/>
    <tag k="addr:housenumber" v="129"/>
    <tag k="addr:street" v="Cyr Farm Road"/>
    <tag k="addr:state" v="VT"/>
    <tag k="ref:vcgi:esiteid" v="313769"/>
  </node>
  <node id="-473" visible="true" lat="44.97022601" lon="-72.4718859">
    <tag k="addr:city" v="Jay"/>
    <tag k="addr:housenumber" v="1561"/>
    <tag k="addr:street" v="Morse Road"/>
    <tag k="addr:state" v="VT"/>
    <tag k="ref:vcgi:esiteid" v="313770"/>
  </node>
  <node id="-474" visible="true" lat="44.94319807" lon="-72.46597658">
    <tag k="addr:city" v="Jay"/>
    <tag k="addr:housenumber" v="168"/>
    <tag k="addr:street" v="Beadle Hill Road"/>
    <tag k="addr:state" v="VT"/>
    <tag k="ref:vcgi:esiteid" v="316002"/>
  </node>
  <node id="-475" visible="true" lat="44.94219783" lon="-72.44359704">
    <tag k="addr:city" v="Jay"/>
    <tag k="addr:housenumber" v="13"/>
    <tag k="addr:street" v="Tuckaway West"/>
    <tag k="addr:state" v="VT"/>
    <tag k="ref:vcgi:esiteid" v="316833"/>
  </node>
  <node id="-476" visible="true" lat="44.9512422" lon="-72.44802009">
    <tag k="addr:city" v="Jay"/>
    <tag k="addr:housenumber" v="104"/>
    <tag k="addr:street" v="Kennett Drive"/>
    <tag k="addr:state" v="VT"/>
    <tag k="ref:vcgi:esiteid" v="316834"/>
  </node>
  <node id="-477" visible="true" lat="44.94693926" lon="-72.45366693">
    <tag k="addr:city" v="Jay"/>
    <tag k="addr:housenumber" v="107"/>
    <tag k="addr:street" v="Marriner Drive"/>
    <tag k="addr:state" v="VT"/>
    <tag k="ref:vcgi:esiteid" v="326713"/>
  </node>
  <node id="-478" visible="true" lat="44.93913953" lon="-72.48174968">
    <tag k="addr:city" v="Jay"/>
    <tag k="addr:housenumber" v="3578"/>
    <tag k="addr:street" v="Vermont Route 242"/>
    <tag k="addr:state" v="VT"/>
    <tag k="ref:vcgi:esiteid" v="326714"/>
  </node>
  <node id="-479" visible="true" lat="44.96727146" lon="-72.49966843">
    <tag k="addr:city" v="Jay"/>
    <tag k="addr:housenumber" v="1764"/>
    <tag k="addr:street" v="Stevens Mill Road"/>
    <tag k="addr:state" v="VT"/>
    <tag k="ref:vcgi:esiteid" v="326715"/>
  </node>
  <node id="-480" visible="true" lat="44.9591775" lon="-72.44663844">
    <tag k="addr:city" v="Jay"/>
    <tag k="addr:housenumber" v="2375"/>
    <tag k="addr:street" v="Cross Road"/>
    <tag k="addr:state" v="VT"/>
    <tag k="ref:vcgi:esiteid" v="326716"/>
  </node>
  <node id="-481" visible="true" lat="44.93564058" lon="-72.42026526">
    <tag k="addr:city" v="Jay"/>
    <tag k="addr:housenumber" v="405"/>
    <tag k="addr:street" v="Woodland Drive"/>
    <tag k="addr:state" v="VT"/>
    <tag k="ref:vcgi:esiteid" v="326717"/>
  </node>
  <node id="-482" visible="true" lat="44.93519978" lon="-72.48702551">
    <tag k="addr:city" v="Jay"/>
    <tag k="addr:housenumber" v="137"/>
    <tag k="addr:street" v="Old Jay Montgomery Road"/>
    <tag k="addr:state" v="VT"/>
    <tag k="ref:vcgi:esiteid" v="326718"/>
  </node>
  <node id="-483" visible="true" lat="44.94376163" lon="-72.44678954">
    <tag k="addr:city" v="Jay"/>
    <tag k="addr:housenumber" v="113"/>
    <tag k="addr:street" v="Cote Cove"/>
    <tag k="addr:state" v="VT"/>
    <tag k="ref:vcgi:esiteid" v="326719"/>
  </node>
  <node id="-484" visible="true" lat="44.98301046" lon="-72.45147777">
    <tag k="addr:city" v="Jay"/>
    <tag k="addr:housenumber" v="98"/>
    <tag k="addr:street" v="Jake Drive"/>
    <tag k="addr:state" v="VT"/>
    <tag k="ref:vcgi:esiteid" v="328207"/>
  </node>
  <node id="-485" visible="true" lat="44.93643511" lon="-72.48572228">
    <tag k="addr:city" v="Jay"/>
    <tag k="addr:housenumber" v="3767"/>
    <tag k="addr:street" v="Vermont Route 242"/>
    <tag k="addr:state" v="VT"/>
    <tag k="ref:vcgi:esiteid" v="328586"/>
  </node>
  <node id="-486" visible="true" lat="44.98562634" lon="-72.53135651">
    <tag k="addr:city" v="Jay"/>
    <tag k="addr:housenumber" v="221"/>
    <tag k="addr:street" v="Hillside Road"/>
    <tag k="addr:state" v="VT"/>
    <tag k="ref:vcgi:esiteid" v="329316"/>
  </node>
  <node id="-487" visible="true" lat="44.98499786" lon="-72.53085119">
    <tag k="addr:city" v="Jay"/>
    <tag k="addr:housenumber" v="241"/>
    <tag k="addr:street" v="Hillside Road"/>
    <tag k="addr:state" v="VT"/>
    <tag k="ref:vcgi:esiteid" v="329852"/>
  </node>
  <node id="-488" visible="true" lat="45.002441" lon="-72.43905009">
    <tag k="addr:city" v="Jay"/>
    <tag k="addr:housenumber" v="2648"/>
    <tag k="addr:street" v="North Jay Road"/>
    <tag k="addr:state" v="VT"/>
    <tag k="ref:vcgi:esiteid" v="331015"/>
  </node>
  <node id="-489" visible="true" lat="44.94208277" lon="-72.46858567">
    <tag k="addr:city" v="Jay"/>
    <tag k="addr:housenumber" v="141"/>
    <tag k="addr:street" v="Beadle Hill Road"/>
    <tag k="addr:state" v="VT"/>
    <tag k="ref:vcgi:esiteid" v="332266"/>
  </node>
  <node id="-490" visible="true" lat="44.9435375" lon="-72.44542098">
    <tag k="addr:city" v="Jay"/>
    <tag k="addr:housenumber" v="58"/>
    <tag k="addr:street" v="Foothills Drive"/>
    <tag k="addr:state" v="VT"/>
    <tag k="ref:vcgi:esiteid" v="332267"/>
  </node>
  <node id="-491" visible="true" lat="44.97189542" lon="-72.45952268">
    <tag k="addr:city" v="Jay"/>
    <tag k="addr:housenumber" v="1949"/>
    <tag k="addr:street" v="Vermont Route 105"/>
    <tag k="addr:state" v="VT"/>
    <tag k="ref:vcgi:esiteid" v="332268"/>
  </node>
  <node id="-492" visible="true" lat="44.94485021" lon="-72.45527997">
    <tag k="addr:city" v="Jay"/>
    <tag k="addr:housenumber" v="266"/>
    <tag k="addr:street" v="Sargents Way"/>
    <tag k="addr:state" v="VT"/>
    <tag k="ref:vcgi:esiteid" v="332304"/>
  </node>
  <node id="-493" visible="true" lat="44.97461686" lon="-72.46524928">
    <tag k="addr:city" v="Jay"/>
    <tag k="addr:housenumber" v="2226"/>
    <tag k="addr:street" v="Vermont Route 105"/>
    <tag k="addr:state" v="VT"/>
    <tag k="ref:vcgi:esiteid" v="332307"/>
  </node>
  <node id="-494" visible="true" lat="44.929899" lon="-72.47607074">
    <tag k="addr:city" v="Jay"/>
    <tag k="addr:housenumber" v="764"/>
    <tag k="addr:street" v="Shallowbrook Road"/>
    <tag k="addr:state" v="VT"/>
    <tag k="ref:vcgi:esiteid" v="332692"/>
  </node>
  <node id="-495" visible="true" lat="44.93053557" lon="-72.47739638">
    <tag k="addr:city" v="Jay"/>
    <tag k="addr:housenumber" v="692"/>
    <tag k="addr:street" v="Shallowbrook Road"/>
    <tag k="addr:state" v="VT"/>
    <tag k="ref:vcgi:esiteid" v="332693"/>
  </node>
  <node id="-496" visible="true" lat="44.95155767" lon="-72.44542376">
    <tag k="addr:city" v="Jay"/>
    <tag k="addr:housenumber" v="177"/>
    <tag k="addr:street" v="High Pines Drive"/>
    <tag k="addr:state" v="VT"/>
    <tag k="ref:vcgi:esiteid" v="332910"/>
  </node>
  <node id="-497" visible="true" lat="44.94374362" lon="-72.45835">
    <tag k="addr:city" v="Jay"/>
    <tag k="addr:housenumber" v="236"/>
    <tag k="addr:street" v="Sargents Loop Road"/>
    <tag k="addr:state" v="VT"/>
    <tag k="ref:vcgi:esiteid" v="335389"/>
  </node>
  <node id="-498" visible="true" lat="44.93486419" lon="-72.50122083">
    <tag k="addr:city" v="Jay"/>
    <tag k="addr:housenumber" v="181"/>
    <tag k="addr:street" v="Bridge Road"/>
    <tag k="addr:state" v="VT"/>
    <tag k="ref:vcgi:esiteid" v="337977"/>
  </node>
  <node id="-499" visible="true" lat="44.93470641" lon="-72.50243166">
    <tag k="addr:city" v="Jay"/>
    <tag k="addr:housenumber" v="145"/>
    <tag k="addr:street" v="Bridge Road"/>
    <tag k="addr:state" v="VT"/>
    <tag k="ref:vcgi:esiteid" v="337978"/>
  </node>
  <node id="-500" visible="true" lat="44.93438591" lon="-72.50297254">
    <tag k="addr:city" v="Jay"/>
    <tag k="addr:housenumber" v="143"/>
    <tag k="addr:street" v="Bridge Road"/>
    <tag k="addr:state" v="VT"/>
    <tag k="ref:vcgi:esiteid" v="337979"/>
  </node>
  <node id="-501" visible="true" lat="44.93422514" lon="-72.50364636">
    <tag k="addr:city" v="Jay"/>
    <tag k="addr:housenumber" v="65"/>
    <tag k="addr:street" v="Bridge Road"/>
    <tag k="addr:state" v="VT"/>
    <tag k="ref:vcgi:esiteid" v="337980"/>
  </node>
  <node id="-502" visible="true" lat="44.93362554" lon="-72.50469803">
    <tag k="addr:city" v="Jay"/>
    <tag k="addr:housenumber" v="138"/>
    <tag k="addr:street" v="South Village Road"/>
    <tag k="addr:state" v="VT"/>
    <tag k="ref:vcgi:esiteid" v="337981"/>
  </node>
  <node id="-503" visible="true" lat="44.93295723" lon="-72.50599907">
    <tag k="addr:city" v="Jay"/>
    <tag k="addr:housenumber" v="236"/>
    <tag k="addr:street" v="South Village Road"/>
    <tag k="addr:state" v="VT"/>
    <tag k="ref:vcgi:esiteid" v="337982"/>
  </node>
  <node id="-504" visible="true" lat="44.93232466" lon="-72.50647043">
    <tag k="addr:city" v="Jay"/>
    <tag k="addr:housenumber" v="240"/>
    <tag k="addr:street" v="South Village Road"/>
    <tag k="addr:state" v="VT"/>
    <tag k="ref:vcgi:esiteid" v="337983"/>
  </node>
  <node id="-505" visible="true" lat="44.93204711" lon="-72.5056979">
    <tag k="addr:city" v="Jay"/>
    <tag k="addr:housenumber" v="231"/>
    <tag k="addr:street" v="South Village Road"/>
    <tag k="addr:state" v="VT"/>
    <tag k="ref:vcgi:esiteid" v="337984"/>
  </node>
  <node id="-506" visible="true" lat="44.93165383" lon="-72.50491516">
    <tag k="addr:city" v="Jay"/>
    <tag k="addr:housenumber" v="98"/>
    <tag k="addr:street" v="Queens Road"/>
    <tag k="addr:state" v="VT"/>
    <tag k="ref:vcgi:esiteid" v="337985"/>
  </node>
  <node id="-507" visible="true" lat="44.93196913" lon="-72.5040247">
    <tag k="addr:city" v="Jay"/>
    <tag k="addr:housenumber" v="70"/>
    <tag k="addr:street" v="Queens Road"/>
    <tag k="addr:state" v="VT"/>
    <tag k="ref:vcgi:esiteid" v="337986"/>
  </node>
  <node id="-508" visible="true" lat="44.93166268" lon="-72.50337969">
    <tag k="addr:city" v="Jay"/>
    <tag k="addr:housenumber" v="42"/>
    <tag k="addr:street" v="Queens Road"/>
    <tag k="addr:state" v="VT"/>
    <tag k="ref:vcgi:esiteid" v="337987"/>
  </node>
  <node id="-509" visible="true" lat="44.93209575" lon="-72.50307436">
    <tag k="addr:city" v="Jay"/>
    <tag k="addr:housenumber" v="26"/>
    <tag k="addr:street" v="Queens Road"/>
    <tag k="addr:state" v="VT"/>
    <tag k="ref:vcgi:esiteid" v="337988"/>
  </node>
  <node id="-510" visible="true" lat="44.93248328" lon="-72.50403756">
    <tag k="addr:city" v="Jay"/>
    <tag k="addr:housenumber" v="125"/>
    <tag k="addr:street" v="South Village Road"/>
    <tag k="addr:state" v="VT"/>
    <tag k="ref:vcgi:esiteid" v="337989"/>
  </node>
  <node id="-511" visible="true" lat="44.93270777" lon="-72.5048902">
    <tag k="addr:city" v="Jay"/>
    <tag k="addr:housenumber" v="155"/>
    <tag k="addr:street" v="South Village Road"/>
    <tag k="addr:state" v="VT"/>
    <tag k="ref:vcgi:esiteid" v="337990"/>
  </node>
  <node id="-512" visible="true" lat="44.93323729" lon="-72.5031156">
    <tag k="addr:city" v="Jay"/>
    <tag k="addr:housenumber" v="26"/>
    <tag k="addr:street" v="Bridge Road"/>
    <tag k="addr:state" v="VT"/>
    <tag k="ref:vcgi:esiteid" v="337991"/>
  </node>
  <node id="-513" visible="true" lat="44.93281825" lon="-72.50243488">
    <tag k="addr:city" v="Jay"/>
    <tag k="addr:housenumber" v="79"/>
    <tag k="addr:street" v="Stoney Path Road"/>
    <tag k="addr:state" v="VT"/>
    <tag k="ref:vcgi:esiteid" v="337992"/>
  </node>
  <node id="-514" visible="true" lat="44.93277959" lon="-72.5015545">
    <tag k="addr:city" v="Jay"/>
    <tag k="addr:housenumber" v="109"/>
    <tag k="addr:street" v="Stoney Path Road"/>
    <tag k="addr:state" v="VT"/>
    <tag k="ref:vcgi:esiteid" v="337993"/>
  </node>
  <node id="-515" visible="true" lat="44.93315995" lon="-72.50181772">
    <tag k="addr:city" v="Jay"/>
    <tag k="addr:housenumber" v="105"/>
    <tag k="addr:street" v="Stoney Path Road"/>
    <tag k="addr:state" v="VT"/>
    <tag k="ref:vcgi:esiteid" v="337994"/>
  </node>
  <node id="-516" visible="true" lat="44.93364991" lon="-72.50246214">
    <tag k="addr:city" v="Jay"/>
    <tag k="addr:housenumber" v="74"/>
    <tag k="addr:street" v="Bridge Road"/>
    <tag k="addr:state" v="VT"/>
    <tag k="ref:vcgi:esiteid" v="337995"/>
  </node>
  <node id="-517" visible="true" lat="44.93380384" lon="-72.50189785">
    <tag k="addr:city" v="Jay"/>
    <tag k="addr:housenumber" v="126"/>
    <tag k="addr:street" v="Bridge Road"/>
    <tag k="addr:state" v="VT"/>
    <tag k="ref:vcgi:esiteid" v="337996"/>
  </node>
  <node id="-518" visible="true" lat="44.93404388" lon="-72.50134466">
    <tag k="addr:city" v="Jay"/>
    <tag k="addr:housenumber" v="128"/>
    <tag k="addr:street" v="Bridge Road"/>
    <tag k="addr:state" v="VT"/>
    <tag k="ref:vcgi:esiteid" v="337997"/>
  </node>
  <node id="-519" visible="true" lat="44.97737536" lon="-72.46100718">
    <tag k="addr:city" v="Jay"/>
    <tag k="addr:housenumber" v="476"/>
    <tag k="addr:street" v="Tranquility Lane"/>
    <tag k="addr:state" v="VT"/>
    <tag k="ref:vcgi:esiteid" v="338264"/>
  </node>
  <node id="-520" visible="true" lat="44.93569492" lon="-72.50485176">
    <tag k="addr:city" v="Jay"/>
    <tag k="addr:housenumber" v="268"/>
    <tag k="addr:street" v="North Village Road"/>
    <tag k="addr:state" v="VT"/>
    <tag k="ref:vcgi:esiteid" v="338433"/>
  </node>
  <node id="-521" visible="true" lat="44.93897071" lon="-72.50763808">
    <tag k="addr:city" v="Jay"/>
    <tag k="addr:housenumber" v="133"/>
    <tag k="addr:street" v="West Bowl Road"/>
    <tag k="addr:state" v="VT"/>
    <tag k="ref:vcgi:esiteid" v="338435"/>
  </node>
  <node id="-522" visible="true" lat="44.93952552" lon="-72.50785403">
    <tag k="addr:city" v="Jay"/>
    <tag k="addr:housenumber" v="142"/>
    <tag k="addr:street" v="West Bowl Road"/>
    <tag k="addr:state" v="VT"/>
    <tag k="ref:vcgi:esiteid" v="338436"/>
  </node>
  <node id="-523" visible="true" lat="44.93912944" lon="-72.50661055">
    <tag k="addr:city" v="Jay"/>
    <tag k="addr:housenumber" v="79"/>
    <tag k="addr:street" v="West Bowl Road"/>
    <tag k="addr:state" v="VT"/>
    <tag k="ref:vcgi:esiteid" v="338447"/>
  </node>
  <node id="-524" visible="true" lat="44.94642321" lon="-72.454868">
    <tag k="addr:city" v="Jay"/>
    <tag k="addr:housenumber" v="74"/>
    <tag k="addr:street" v="Marriner Drive"/>
    <tag k="addr:state" v="VT"/>
    <tag k="ref:vcgi:esiteid" v="338911"/>
  </node>
  <node id="-525" visible="true" lat="44.93923731" lon="-72.50773064">
    <tag k="addr:city" v="Jay"/>
    <tag k="addr:housenumber" v="141"/>
    <tag k="addr:street" v="West Bowl Road"/>
    <tag k="addr:state" v="VT"/>
    <tag k="ref:vcgi:esiteid" v="339458"/>
  </node>
  <node id="-526" visible="true" lat="44.93881175" lon="-72.50743099">
    <tag k="addr:city" v="Jay"/>
    <tag k="addr:housenumber" v="129"/>
    <tag k="addr:street" v="West Bowl Road"/>
    <tag k="addr:state" v="VT"/>
    <tag k="ref:vcgi:esiteid" v="339459"/>
  </node>
  <node id="-527" visible="true" lat="44.93956514" lon="-72.50737441">
    <tag k="addr:city" v="Jay"/>
    <tag k="addr:housenumber" v="124"/>
    <tag k="addr:street" v="West Bowl Road"/>
    <tag k="addr:state" v="VT"/>
    <tag k="ref:vcgi:esiteid" v="339463"/>
  </node>
  <node id="-528" visible="true" lat="44.93855297" lon="-72.50710707">
    <tag k="addr:city" v="Jay"/>
    <tag k="addr:housenumber" v="123"/>
    <tag k="addr:street" v="West Bowl Road"/>
    <tag k="addr:state" v="VT"/>
    <tag k="ref:vcgi:esiteid" v="339464"/>
  </node>
  <node id="-529" visible="true" lat="44.93903329" lon="-72.50512737">
    <tag k="addr:city" v="Jay"/>
    <tag k="addr:housenumber" v="818"/>
    <tag k="addr:street" v="Jay Peak Road"/>
    <tag k="addr:state" v="VT"/>
    <tag k="ref:vcgi:esiteid" v="339465"/>
  </node>
  <node id="-530" visible="true" lat="44.93908793" lon="-72.5050626">
    <tag k="addr:city" v="Jay"/>
    <tag k="addr:housenumber" v="812"/>
    <tag k="addr:street" v="Jay Peak Road"/>
    <tag k="addr:state" v="VT"/>
    <tag k="ref:vcgi:esiteid" v="339466"/>
  </node>
  <node id="-531" visible="true" lat="44.93921441" lon="-72.5034638">
    <tag k="addr:city" v="Jay"/>
    <tag k="addr:housenumber" v="744"/>
    <tag k="addr:street" v="Jay Peak Road"/>
    <tag k="addr:state" v="VT"/>
    <tag k="ref:vcgi:esiteid" v="339467"/>
  </node>
  <node id="-532" visible="true" lat="44.93883917" lon="-72.50591669">
    <tag k="addr:city" v="Jay"/>
    <tag k="addr:housenumber" v="844"/>
    <tag k="addr:street" v="Jay Peak Road"/>
    <tag k="addr:state" v="VT"/>
    <tag k="ref:vcgi:esiteid" v="339471"/>
  </node>
  <node id="-533" visible="true" lat="44.94388399" lon="-72.47079357">
    <tag k="addr:city" v="Jay"/>
    <tag k="addr:housenumber" v="81"/>
    <tag k="addr:street" v="Deer Path"/>
    <tag k="addr:state" v="VT"/>
    <tag k="ref:vcgi:esiteid" v="339551"/>
  </node>
  <node id="-534" visible="true" lat="44.97416203" lon="-72.44772417">
    <tag k="addr:city" v="Jay"/>
    <tag k="addr:housenumber" v="288"/>
    <tag k="addr:street" v="North Jay Road"/>
    <tag k="addr:state" v="VT"/>
    <tag k="ref:vcgi:esiteid" v="339553"/>
  </node>
  <node id="-535" visible="true" lat="44.92912575" lon="-72.50565666">
    <tag k="addr:city" v="Jay"/>
    <tag k="addr:housenumber" v="26"/>
    <tag k="addr:street" v="Work Road"/>
    <tag k="addr:state" v="VT"/>
    <tag k="ref:vcgi:esiteid" v="339747"/>
  </node>
  <node id="-536" visible="true" lat="44.9275728" lon="-72.50422319">
    <tag k="addr:city" v="Jay"/>
    <tag k="addr:housenumber" v="438"/>
    <tag k="addr:street" v="Stateside Road"/>
    <tag k="addr:state" v="VT"/>
    <tag k="ref:vcgi:esiteid" v="339748"/>
  </node>
  <node id="-537" visible="true" lat="44.93739766" lon="-72.50264814">
    <tag k="addr:city" v="Jay"/>
    <tag k="addr:housenumber" v="77"/>
    <tag k="addr:street" v="Trailside Road"/>
    <tag k="addr:state" v="VT"/>
    <tag k="ref:vcgi:esiteid" v="339842"/>
  </node>
  <node id="-538" visible="true" lat="44.9371007" lon="-72.50322022">
    <tag k="addr:city" v="Jay"/>
    <tag k="addr:housenumber" v="89"/>
    <tag k="addr:street" v="Trailside Road"/>
    <tag k="addr:state" v="VT"/>
    <tag k="ref:vcgi:esiteid" v="339843"/>
  </node>
  <node id="-539" visible="true" lat="44.93547395" lon="-72.50439342">
    <tag k="addr:city" v="Jay"/>
    <tag k="addr:housenumber" v="266"/>
    <tag k="addr:street" v="North Village Road"/>
    <tag k="addr:state" v="VT"/>
    <tag k="ref:vcgi:esiteid" v="339848"/>
  </node>
  <node id="-540" visible="true" lat="44.932252" lon="-72.50178304">
    <tag k="addr:city" v="Jay"/>
    <tag k="addr:housenumber" v="308"/>
    <tag k="addr:street" v="Stoney Path Road"/>
    <tag k="addr:state" v="VT"/>
    <tag k="ref:vcgi:esiteid" v="339859"/>
  </node>
  <node id="-541" visible="true" lat="44.92792335" lon="-72.50307477">
    <tag k="addr:city" v="Jay"/>
    <tag k="addr:housenumber" v="456"/>
    <tag k="addr:street" v="Stateside Road"/>
    <tag k="addr:state" v="VT"/>
    <tag k="ref:vcgi:esiteid" v="339861"/>
  </node>
  <node id="-542" visible="true" lat="44.93082298" lon="-72.49688841">
    <tag k="addr:city" v="Jay"/>
    <tag k="addr:housenumber" v="51"/>
    <tag k="addr:street" v="Jay Peak Road"/>
    <tag k="addr:state" v="VT"/>
    <tag k="ref:vcgi:esiteid" v="340235"/>
  </node>
  <node id="-543" visible="true" lat="44.92996248" lon="-72.50428874">
    <tag k="addr:city" v="Jay"/>
    <tag k="addr:housenumber" v="322"/>
    <tag k="addr:street" v="Stateside Road"/>
    <tag k="addr:state" v="VT"/>
    <tag k="ref:vcgi:esiteid" v="340434"/>
  </node>
  <node id="-544" visible="true" lat="44.93182518" lon="-72.50772377">
    <tag k="addr:city" v="Jay"/>
    <tag k="addr:housenumber" v="50"/>
    <tag k="addr:street" v="Work Road"/>
    <tag k="addr:state" v="VT"/>
    <tag k="ref:vcgi:esiteid" v="340435"/>
  </node>
  <node id="-545" visible="true" lat="44.93210802" lon="-72.50823109">
    <tag k="addr:city" v="Jay"/>
    <tag k="addr:housenumber" v="52"/>
    <tag k="addr:street" v="Work Road"/>
    <tag k="addr:state" v="VT"/>
    <tag k="ref:vcgi:esiteid" v="340436"/>
  </node>
  <node id="-546" visible="true" lat="44.92746092" lon="-72.52204862">
    <tag k="addr:city" v="Jay"/>
    <tag k="addr:housenumber" v="1478"/>
    <tag k="addr:street" v="Work Road"/>
    <tag k="addr:state" v="VT"/>
    <tag k="ref:vcgi:esiteid" v="340439"/>
  </node>
  <node id="-547" visible="true" lat="44.92658507" lon="-72.52334025">
    <tag k="addr:city" v="Jay"/>
    <tag k="addr:housenumber" v="1470"/>
    <tag k="addr:street" v="Work Road"/>
    <tag k="addr:state" v="VT"/>
    <tag k="ref:vcgi:esiteid" v="340440"/>
  </node>
  <node id="-548" visible="true" lat="44.92667513" lon="-72.52341391">
    <tag k="addr:city" v="Jay"/>
    <tag k="addr:housenumber" v="1474"/>
    <tag k="addr:street" v="Work Road"/>
    <tag k="addr:state" v="VT"/>
    <tag k="ref:vcgi:esiteid" v="340441"/>
  </node>
  <node id="-549" visible="true" lat="44.932955" lon="-72.51475793">
    <tag k="addr:city" v="Jay"/>
    <tag k="addr:housenumber" v="125"/>
    <tag k="addr:street" v="West Bowl Road"/>
    <tag k="addr:state" v="VT"/>
    <tag k="ref:vcgi:esiteid" v="340445"/>
  </node>
  <node id="-550" visible="true" lat="44.93473941" lon="-72.4563633">
    <tag k="addr:city" v="Jay"/>
    <tag k="addr:housenumber" v="631"/>
    <tag k="addr:street" v="Lucier Road"/>
    <tag k="addr:state" v="VT"/>
    <tag k="ref:vcgi:esiteid" v="340747"/>
  </node>
  <node id="-551" visible="true" lat="44.93272535" lon="-72.47728275">
    <tag k="addr:city" v="Jay"/>
    <tag k="addr:housenumber" v="482"/>
    <tag k="addr:street" v="Shallowbrook Road"/>
    <tag k="addr:state" v="VT"/>
    <tag k="ref:vcgi:esiteid" v="340956"/>
  </node>
  <node id="-552" visible="true" lat="44.97767903" lon="-72.48075224">
    <tag k="addr:city" v="Jay"/>
    <tag k="addr:housenumber" v="155"/>
    <tag k="addr:street" v="Leavitt Circle"/>
    <tag k="addr:state" v="VT"/>
    <tag k="ref:vcgi:esiteid" v="342626"/>
  </node>
  <node id="-554" visible="true" lat="44.97212202" lon="-72.4609769">
    <tag k="addr:city" v="Jay"/>
    <tag k="addr:housenumber" v="2051"/>
    <tag k="addr:street" v="Vermont Route 105"/>
    <tag k="addr:state" v="VT"/>
    <tag k="ref:vcgi:esiteid" v="342628"/>
  </node>
  <node id="-555" visible="true" lat="44.98691445" lon="-72.53690717">
    <tag k="addr:city" v="Jay"/>
    <tag k="addr:housenumber" v="228"/>
    <tag k="addr:street" v="West Jay Road"/>
    <tag k="addr:state" v="VT"/>
    <tag k="ref:vcgi:esiteid" v="342629"/>
  </node>
  <node id="-556" visible="true" lat="44.96587825" lon="-72.42929957">
    <tag k="addr:city" v="Jay"/>
    <tag k="addr:housenumber" v="256"/>
    <tag k="addr:street" v="Loop Road"/>
    <tag k="addr:state" v="VT"/>
    <tag k="ref:vcgi:esiteid" v="345382"/>
  </node>
  <node id="-557" visible="true" lat="44.9436197" lon="-72.47592596">
    <tag k="addr:city" v="Jay"/>
    <tag k="addr:housenumber" v="373"/>
    <tag k="addr:street" v="Wilderness Road"/>
    <tag k="addr:state" v="VT"/>
    <tag k="ref:vcgi:esiteid" v="345386"/>
  </node>
  <node id="-558" visible="true" lat="44.95180654" lon="-72.44962344">
    <tag k="addr:city" v="Jay"/>
    <tag k="addr:housenumber" v="160"/>
    <tag k="addr:street" v="Kennett Drive"/>
    <tag k="addr:state" v="VT"/>
    <tag k="ref:vcgi:esiteid" v="345423"/>
  </node>
  <node id="-559" visible="true" lat="44.93198628" lon="-72.47728571">
    <tag k="addr:city" v="Jay"/>
    <tag k="addr:housenumber" v="503"/>
    <tag k="addr:street" v="Shallowbrook Road"/>
    <tag k="addr:state" v="VT"/>
    <tag k="ref:vcgi:esiteid" v="365206"/>
  </node>
  <node id="-560" visible="true" lat="44.93507172" lon="-72.49681195">
    <tag k="addr:city" v="Jay"/>
    <tag k="addr:housenumber" v="150"/>
    <tag k="addr:street" v="Fair Way"/>
    <tag k="addr:state" v="VT"/>
    <tag k="ref:vcgi:esiteid" v="365604"/>
  </node>
  <node id="-561" visible="true" lat="44.96538183" lon="-72.48972145">
    <tag k="addr:city" v="Jay"/>
    <tag k="addr:housenumber" v="100"/>
    <tag k="addr:street" v="Maple Street"/>
    <tag k="addr:state" v="VT"/>
    <tag k="ref:vcgi:esiteid" v="446355"/>
  </node>
  <node id="-562" visible="true" lat="44.967308" lon="-72.49138954">
    <tag k="addr:city" v="Jay"/>
    <tag k="addr:housenumber" v="264"/>
    <tag k="addr:street" v="Maple Street"/>
    <tag k="addr:state" v="VT"/>
    <tag k="ref:vcgi:esiteid" v="446356"/>
  </node>
  <node id="-563" visible="true" lat="44.97776974" lon="-72.45919584">
    <tag k="addr:city" v="Jay"/>
    <tag k="addr:housenumber" v="398"/>
    <tag k="addr:street" v="Tranquility Lane"/>
    <tag k="addr:state" v="VT"/>
    <tag k="ref:vcgi:esiteid" v="446614"/>
  </node>
  <node id="-566" visible="true" lat="44.98567652" lon="-72.54526863">
    <tag k="addr:city" v="Jay"/>
    <tag k="addr:housenumber" v="8451"/>
    <tag k="addr:street" v="Vermont Route 105"/>
    <tag k="addr:state" v="VT"/>
    <tag k="ref:vcgi:esiteid" v="447946"/>
  </node>
  <node id="-567" visible="true" lat="44.98700484" lon="-72.54084574">
    <tag k="addr:city" v="Jay"/>
    <tag k="addr:housenumber" v="365"/>
    <tag k="addr:street" v="West Jay Road"/>
    <tag k="addr:state" v="VT"/>
    <tag k="ref:vcgi:esiteid" v="447947"/>
  </node>
  <node id="-568" visible="true" lat="44.93973788" lon="-72.48090391">
    <tag k="addr:city" v="Jay"/>
    <tag k="addr:housenumber" v="224"/>
    <tag k="addr:street" v="Jay Woods Drive"/>
    <tag k="addr:state" v="VT"/>
    <tag k="ref:vcgi:esiteid" v="448144"/>
  </node>
  <node id="-569" visible="true" lat="44.93881286" lon="-72.48069806">
    <tag k="addr:city" v="Jay"/>
    <tag k="addr:housenumber" v="225"/>
    <tag k="addr:street" v="Jay Woods Drive"/>
    <tag k="addr:state" v="VT"/>
    <tag k="ref:vcgi:esiteid" v="448145"/>
  </node>
  <node id="-570" visible="true" lat="44.93915191" lon="-72.47940063">
    <tag k="addr:city" v="Jay"/>
    <tag k="addr:housenumber" v="199"/>
    <tag k="addr:street" v="Jay Woods Drive"/>
    <tag k="addr:state" v="VT"/>
    <tag k="ref:vcgi:esiteid" v="448146"/>
  </node>
  <node id="-571" visible="true" lat="44.94014131" lon="-72.48013443">
    <tag k="addr:city" v="Jay"/>
    <tag k="addr:housenumber" v="200"/>
    <tag k="addr:street" v="Vermont Route 242"/>
    <tag k="addr:state" v="VT"/>
    <tag k="ref:vcgi:esiteid" v="448147"/>
  </node>
  <node id="-572" visible="true" lat="44.94039106" lon="-72.4787666">
    <tag k="addr:city" v="Jay"/>
    <tag k="addr:housenumber" v="132"/>
    <tag k="addr:street" v="Jay Woods Drive"/>
    <tag k="addr:state" v="VT"/>
    <tag k="ref:vcgi:esiteid" v="448148"/>
  </node>
  <node id="-573" visible="true" lat="44.93962669" lon="-72.47824392">
    <tag k="addr:city" v="Jay"/>
    <tag k="addr:housenumber" v="135"/>
    <tag k="addr:street" v="Jay Woods Drive"/>
    <tag k="addr:state" v="VT"/>
    <tag k="ref:vcgi:esiteid" v="448149"/>
  </node>
  <node id="-574" visible="true" lat="44.94111926" lon="-72.47689571">
    <tag k="addr:city" v="Jay"/>
    <tag k="addr:housenumber" v="106"/>
    <tag k="addr:street" v="Jay Woods Drive"/>
    <tag k="addr:state" v="VT"/>
    <tag k="ref:vcgi:esiteid" v="448150"/>
  </node>
  <node id="-575" visible="true" lat="44.94061558" lon="-72.4762925">
    <tag k="addr:city" v="Jay"/>
    <tag k="addr:housenumber" v="40"/>
    <tag k="addr:street" v="Jay Woods Drive"/>
    <tag k="addr:state" v="VT"/>
    <tag k="ref:vcgi:esiteid" v="448151"/>
  </node>
  <node id="-576" visible="true" lat="44.94044863" lon="-72.47235443">
    <tag k="addr:city" v="Jay"/>
    <tag k="addr:housenumber" v="105"/>
    <tag k="addr:street" v="Mountain View Drive"/>
    <tag k="addr:state" v="VT"/>
    <tag k="ref:vcgi:esiteid" v="448152"/>
  </node>
  <node id="-577" visible="true" lat="44.94983401" lon="-72.44055214">
    <tag k="addr:city" v="Jay"/>
    <tag k="addr:housenumber" v="121"/>
    <tag k="addr:street" v="Gendron Road"/>
    <tag k="addr:state" v="VT"/>
    <tag k="ref:vcgi:esiteid" v="448172"/>
  </node>
  <node id="-578" visible="true" lat="44.99911742" lon="-72.45280597">
    <tag k="addr:city" v="Jay"/>
    <tag k="addr:housenumber" v="359"/>
    <tag k="addr:street" v="Journeys End Road"/>
    <tag k="addr:state" v="VT"/>
    <tag k="ref:vcgi:esiteid" v="448269"/>
  </node>
  <node id="-579" visible="true" lat="44.93783882" lon="-72.50467144">
    <tag k="addr:city" v="Jay"/>
    <tag k="addr:housenumber" v="80"/>
    <tag k="addr:street" v="Trailside Road"/>
    <tag k="addr:state" v="VT"/>
    <tag k="ref:vcgi:esiteid" v="448283"/>
  </node>
  <node id="-580" visible="true" lat="44.93335583" lon="-72.49860494">
    <tag k="addr:city" v="Jay"/>
    <tag k="addr:housenumber" v="296"/>
    <tag k="addr:street" v="Bridge Road"/>
    <tag k="addr:state" v="VT"/>
    <tag k="ref:vcgi:esiteid" v="448651"/>
  </node>
  <node id="-581" visible="true" lat="44.93414835" lon="-72.49901752">
    <tag k="addr:city" v="Jay"/>
    <tag k="addr:housenumber" v="319"/>
    <tag k="addr:street" v="Jay Peak Road"/>
    <tag k="addr:state" v="VT"/>
    <tag k="ref:vcgi:esiteid" v="448653"/>
  </node>
  <node id="-582" visible="true" lat="44.93281306" lon="-72.4993846">
    <tag k="addr:city" v="Jay"/>
    <tag k="addr:housenumber" v="356"/>
    <tag k="addr:street" v="Bridge Road"/>
    <tag k="addr:state" v="VT"/>
    <tag k="ref:vcgi:esiteid" v="448654"/>
  </node>
  <node id="-583" visible="true" lat="44.93503009" lon="-72.49612194">
    <tag k="addr:city" v="Jay"/>
    <tag k="addr:housenumber" v="10"/>
    <tag k="addr:street" v="Hole Two"/>
    <tag k="addr:state" v="VT"/>
    <tag k="ref:vcgi:esiteid" v="449165"/>
  </node>
  <node id="-584" visible="true" lat="44.93482533" lon="-72.49609514">
    <tag k="addr:city" v="Jay"/>
    <tag k="addr:housenumber" v="20"/>
    <tag k="addr:street" v="Hole Two"/>
    <tag k="addr:state" v="VT"/>
    <tag k="ref:vcgi:esiteid" v="449166"/>
  </node>
  <node id="-585" visible="true" lat="44.93495864" lon="-72.49555211">
    <tag k="addr:city" v="Jay"/>
    <tag k="addr:housenumber" v="9"/>
    <tag k="addr:street" v="Hole Two"/>
    <tag k="addr:state" v="VT"/>
    <tag k="ref:vcgi:esiteid" v="449167"/>
  </node>
  <node id="-586" visible="true" lat="44.93476817" lon="-72.49561916">
    <tag k="addr:city" v="Jay"/>
    <tag k="addr:housenumber" v="19"/>
    <tag k="addr:street" v="Hole Two"/>
    <tag k="addr:state" v="VT"/>
    <tag k="ref:vcgi:esiteid" v="449168"/>
  </node>
  <node id="-587" visible="true" lat="44.93529673" lon="-72.49547834">
    <tag k="addr:city" v="Jay"/>
    <tag k="addr:housenumber" v="211"/>
    <tag k="addr:street" v="Fair Way"/>
    <tag k="addr:state" v="VT"/>
    <tag k="ref:vcgi:esiteid" v="449169"/>
  </node>
  <node id="-588" visible="true" lat="44.93518719" lon="-72.4948951">
    <tag k="addr:city" v="Jay"/>
    <tag k="addr:housenumber" v="213"/>
    <tag k="addr:street" v="Fair Way"/>
    <tag k="addr:state" v="VT"/>
    <tag k="ref:vcgi:esiteid" v="449170"/>
  </node>
  <node id="-589" visible="true" lat="44.93474434" lon="-72.49502921">
    <tag k="addr:city" v="Jay"/>
    <tag k="addr:housenumber" v="212"/>
    <tag k="addr:street" v="Fair Way"/>
    <tag k="addr:state" v="VT"/>
    <tag k="ref:vcgi:esiteid" v="449171"/>
  </node>
  <node id="-590" visible="true" lat="44.93460149" lon="-72.49522364">
    <tag k="addr:city" v="Jay"/>
    <tag k="addr:housenumber" v="214"/>
    <tag k="addr:street" v="Fair Way"/>
    <tag k="addr:state" v="VT"/>
    <tag k="ref:vcgi:esiteid" v="449172"/>
  </node>
  <node id="-591" visible="true" lat="44.93472527" lon="-72.49455994">
    <tag k="addr:city" v="Jay"/>
    <tag k="addr:housenumber" v="254"/>
    <tag k="addr:street" v="Fair Way"/>
    <tag k="addr:state" v="VT"/>
    <tag k="ref:vcgi:esiteid" v="449173"/>
  </node>
  <node id="-592" visible="true" lat="44.93472524" lon="-72.49402362">
    <tag k="addr:city" v="Jay"/>
    <tag k="addr:housenumber" v="256"/>
    <tag k="addr:street" v="Fair Way"/>
    <tag k="addr:state" v="VT"/>
    <tag k="ref:vcgi:esiteid" v="449174"/>
  </node>
  <node id="-593" visible="true" lat="44.93511574" lon="-72.49454649">
    <tag k="addr:city" v="Jay"/>
    <tag k="addr:housenumber" v="265"/>
    <tag k="addr:street" v="Fair Way"/>
    <tag k="addr:state" v="VT"/>
    <tag k="ref:vcgi:esiteid" v="449175"/>
  </node>
  <node id="-594" visible="true" lat="44.93507762" lon="-72.49392302">
    <tag k="addr:city" v="Jay"/>
    <tag k="addr:housenumber" v="267"/>
    <tag k="addr:street" v="Fair Way"/>
    <tag k="addr:state" v="VT"/>
    <tag k="ref:vcgi:esiteid" v="449176"/>
  </node>
  <node id="-595" visible="true" lat="44.93603226" lon="-72.49220499">
    <tag k="addr:city" v="Jay"/>
    <tag k="addr:housenumber" v="1"/>
    <tag k="addr:street" v="Hole Three"/>
    <tag k="addr:state" v="VT"/>
    <tag k="ref:vcgi:esiteid" v="449178"/>
  </node>
  <node id="-596" visible="true" lat="44.93615964" lon="-72.49217145">
    <tag k="addr:city" v="Jay"/>
    <tag k="addr:housenumber" v="9"/>
    <tag k="addr:street" v="Hole Three"/>
    <tag k="addr:state" v="VT"/>
    <tag k="ref:vcgi:esiteid" v="449179"/>
  </node>
  <node id="-597" visible="true" lat="44.93632511" lon="-72.49208092">
    <tag k="addr:city" v="Jay"/>
    <tag k="addr:housenumber" v="19"/>
    <tag k="addr:street" v="Hole Three"/>
    <tag k="addr:state" v="VT"/>
    <tag k="ref:vcgi:esiteid" v="449180"/>
  </node>
  <node id="-598" visible="true" lat="44.93649534" lon="-72.49197196">
    <tag k="addr:city" v="Jay"/>
    <tag k="addr:housenumber" v="29"/>
    <tag k="addr:street" v="Hole Three"/>
    <tag k="addr:state" v="VT"/>
    <tag k="ref:vcgi:esiteid" v="449181"/>
  </node>
  <node id="-599" visible="true" lat="44.93664056" lon="-72.49181104">
    <tag k="addr:city" v="Jay"/>
    <tag k="addr:housenumber" v="39"/>
    <tag k="addr:street" v="Hole Three"/>
    <tag k="addr:state" v="VT"/>
    <tag k="ref:vcgi:esiteid" v="449182"/>
  </node>
  <node id="-600" visible="true" lat="44.93693819" lon="-72.49207916">
    <tag k="addr:city" v="Jay"/>
    <tag k="addr:housenumber" v="489"/>
    <tag k="addr:street" v="Fair Way"/>
    <tag k="addr:state" v="VT"/>
    <tag k="ref:vcgi:esiteid" v="449183"/>
  </node>
  <node id="-601" visible="true" lat="44.93712152" lon="-72.49200539">
    <tag k="addr:city" v="Jay"/>
    <tag k="addr:housenumber" v="491"/>
    <tag k="addr:street" v="Fair Way"/>
    <tag k="addr:state" v="VT"/>
    <tag k="ref:vcgi:esiteid" v="449184"/>
  </node>
  <node id="-602" visible="true" lat="44.9372608" lon="-72.49192492">
    <tag k="addr:city" v="Jay"/>
    <tag k="addr:housenumber" v="492"/>
    <tag k="addr:street" v="Fair Way"/>
    <tag k="addr:state" v="VT"/>
    <tag k="ref:vcgi:esiteid" v="449185"/>
  </node>
  <node id="-603" visible="true" lat="44.93739293" lon="-72.49181093">
    <tag k="addr:city" v="Jay"/>
    <tag k="addr:housenumber" v="494"/>
    <tag k="addr:street" v="Fair Way"/>
    <tag k="addr:state" v="VT"/>
    <tag k="ref:vcgi:esiteid" v="449186"/>
  </node>
  <node id="-604" visible="true" lat="44.936094" lon="-72.4990744">
    <tag k="addr:city" v="Jay"/>
    <tag k="addr:housenumber" v="38"/>
    <tag k="addr:street" v="Hole One"/>
    <tag k="addr:state" v="VT"/>
    <tag k="ref:vcgi:esiteid" v="449203"/>
  </node>
  <node id="-605" visible="true" lat="44.9360315" lon="-72.4989487">
    <tag k="addr:city" v="Jay"/>
    <tag k="addr:housenumber" v="32"/>
    <tag k="addr:street" v="Hole One"/>
    <tag k="addr:state" v="VT"/>
    <tag k="ref:vcgi:esiteid" v="449204"/>
  </node>
  <node id="-606" visible="true" lat="44.93593626" lon="-72.49883138">
    <tag k="addr:city" v="Jay"/>
    <tag k="addr:housenumber" v="26"/>
    <tag k="addr:street" v="Hole One"/>
    <tag k="addr:state" v="VT"/>
    <tag k="ref:vcgi:esiteid" v="449205"/>
  </node>
  <node id="-607" visible="true" lat="44.93583209" lon="-72.49875177">
    <tag k="addr:city" v="Jay"/>
    <tag k="addr:housenumber" v="20"/>
    <tag k="addr:street" v="Hole One"/>
    <tag k="addr:state" v="VT"/>
    <tag k="ref:vcgi:esiteid" v="449206"/>
  </node>
  <node id="-608" visible="true" lat="44.93576661" lon="-72.49845428">
    <tag k="addr:city" v="Jay"/>
    <tag k="addr:housenumber" v="12"/>
    <tag k="addr:street" v="Hole One"/>
    <tag k="addr:state" v="VT"/>
    <tag k="ref:vcgi:esiteid" v="449207"/>
  </node>
  <node id="-609" visible="true" lat="44.93571899" lon="-72.49817355">
    <tag k="addr:city" v="Jay"/>
    <tag k="addr:housenumber" v="10"/>
    <tag k="addr:street" v="Hole One"/>
    <tag k="addr:state" v="VT"/>
    <tag k="ref:vcgi:esiteid" v="449208"/>
  </node>
  <node id="-610" visible="true" lat="44.93564161" lon="-72.49780064">
    <tag k="addr:city" v="Jay"/>
    <tag k="addr:housenumber" v="91"/>
    <tag k="addr:street" v="Fair Way"/>
    <tag k="addr:state" v="VT"/>
    <tag k="ref:vcgi:esiteid" v="449209"/>
  </node>
  <node id="-611" visible="true" lat="44.93563565" lon="-72.49758694">
    <tag k="addr:city" v="Jay"/>
    <tag k="addr:housenumber" v="93"/>
    <tag k="addr:street" v="Fair Way"/>
    <tag k="addr:state" v="VT"/>
    <tag k="ref:vcgi:esiteid" v="449210"/>
  </node>
  <node id="-612" visible="true" lat="44.93560291" lon="-72.49731459">
    <tag k="addr:city" v="Jay"/>
    <tag k="addr:housenumber" v="111"/>
    <tag k="addr:street" v="Fair Way"/>
    <tag k="addr:state" v="VT"/>
    <tag k="ref:vcgi:esiteid" v="449211"/>
  </node>
  <node id="-613" visible="true" lat="44.93558504" lon="-72.49692073">
    <tag k="addr:city" v="Jay"/>
    <tag k="addr:housenumber" v="135"/>
    <tag k="addr:street" v="Fair Way"/>
    <tag k="addr:state" v="VT"/>
    <tag k="ref:vcgi:esiteid" v="449212"/>
  </node>
  <node id="-614" visible="true" lat="44.93519519" lon="-72.49858419">
    <tag k="addr:city" v="Jay"/>
    <tag k="addr:housenumber" v="40"/>
    <tag k="addr:street" v="Fair Way"/>
    <tag k="addr:state" v="VT"/>
    <tag k="ref:vcgi:esiteid" v="449213"/>
  </node>
  <node id="-615" visible="true" lat="44.93057342" lon="-72.50093242">
    <tag k="addr:city" v="Jay"/>
    <tag k="addr:housenumber" v="57"/>
    <tag k="addr:street" v="Cedar Lane"/>
    <tag k="addr:state" v="VT"/>
    <tag k="ref:vcgi:esiteid" v="449218"/>
  </node>
  <node id="-616" visible="true" lat="44.93016747" lon="-72.50036865">
    <tag k="addr:city" v="Jay"/>
    <tag k="addr:housenumber" v="99"/>
    <tag k="addr:street" v="Cedar Lane"/>
    <tag k="addr:state" v="VT"/>
    <tag k="ref:vcgi:esiteid" v="449219"/>
  </node>
  <node id="-617" visible="true" lat="44.93199507" lon="-72.5010035">
    <tag k="addr:city" v="Jay"/>
    <tag k="addr:housenumber" v="114"/>
    <tag k="addr:street" v="Stoney Path Road"/>
    <tag k="addr:state" v="VT"/>
    <tag k="ref:vcgi:esiteid" v="449220"/>
  </node>
  <node id="-618" visible="true" lat="44.93215697" lon="-72.50109735">
    <tag k="addr:city" v="Jay"/>
    <tag k="addr:housenumber" v="110"/>
    <tag k="addr:street" v="Stoney Path Road"/>
    <tag k="addr:state" v="VT"/>
    <tag k="ref:vcgi:esiteid" v="449221"/>
  </node>
  <node id="-619" visible="true" lat="44.9318293" lon="-72.49904637">
    <tag k="addr:city" v="Jay"/>
    <tag k="addr:housenumber" v="238"/>
    <tag k="addr:street" v="Stoney Path Road"/>
    <tag k="addr:state" v="VT"/>
    <tag k="ref:vcgi:esiteid" v="449222"/>
  </node>
  <node id="-620" visible="true" lat="44.93191501" lon="-72.49851008">
    <tag k="addr:city" v="Jay"/>
    <tag k="addr:housenumber" v="235"/>
    <tag k="addr:street" v="Stoney Path Road"/>
    <tag k="addr:state" v="VT"/>
    <tag k="ref:vcgi:esiteid" v="449223"/>
  </node>
  <node id="-621" visible="true" lat="44.93273403" lon="-72.49775924">
    <tag k="addr:city" v="Jay"/>
    <tag k="addr:housenumber" v="16"/>
    <tag k="addr:street" v="White Pine Drive"/>
    <tag k="addr:state" v="VT"/>
    <tag k="ref:vcgi:esiteid" v="449224"/>
  </node>
  <node id="-622" visible="true" lat="44.93253881" lon="-72.49833577">
    <tag k="addr:city" v="Jay"/>
    <tag k="addr:housenumber" v="19"/>
    <tag k="addr:street" v="White Pine Drive"/>
    <tag k="addr:state" v="VT"/>
    <tag k="ref:vcgi:esiteid" v="449225"/>
  </node>
  <node id="-623" visible="true" lat="44.93291499" lon="-72.49796035">
    <tag k="addr:city" v="Jay"/>
    <tag k="addr:housenumber" v="28"/>
    <tag k="addr:street" v="White Pine Drive"/>
    <tag k="addr:state" v="VT"/>
    <tag k="ref:vcgi:esiteid" v="449226"/>
  </node>
  <node id="-624" visible="true" lat="44.93309594" lon="-72.49814134">
    <tag k="addr:city" v="Jay"/>
    <tag k="addr:housenumber" v="42"/>
    <tag k="addr:street" v="White Pine Drive"/>
    <tag k="addr:state" v="VT"/>
    <tag k="ref:vcgi:esiteid" v="449227"/>
  </node>
  <node id="-625" visible="true" lat="44.93271024" lon="-72.49850336">
    <tag k="addr:city" v="Jay"/>
    <tag k="addr:housenumber" v="35"/>
    <tag k="addr:street" v="White Pine Drive"/>
    <tag k="addr:state" v="VT"/>
    <tag k="ref:vcgi:esiteid" v="449228"/>
  </node>
  <node id="-626" visible="true" lat="44.93294833" lon="-72.49861732">
    <tag k="addr:city" v="Jay"/>
    <tag k="addr:housenumber" v="43"/>
    <tag k="addr:street" v="White Pine Drive"/>
    <tag k="addr:state" v="VT"/>
    <tag k="ref:vcgi:esiteid" v="449229"/>
  </node>
  <node id="-627" visible="true" lat="44.93364354" lon="-72.4972229">
    <tag k="addr:city" v="Jay"/>
    <tag k="addr:housenumber" v="51"/>
    <tag k="addr:street" v="Spruce Lane"/>
    <tag k="addr:state" v="VT"/>
    <tag k="ref:vcgi:esiteid" v="449230"/>
  </node>
  <node id="-628" visible="true" lat="44.93347687" lon="-72.49700839">
    <tag k="addr:city" v="Jay"/>
    <tag k="addr:housenumber" v="71"/>
    <tag k="addr:street" v="Spruce Lane"/>
    <tag k="addr:state" v="VT"/>
    <tag k="ref:vcgi:esiteid" v="449231"/>
  </node>
  <node id="-629" visible="true" lat="44.93332924" lon="-72.49675365">
    <tag k="addr:city" v="Jay"/>
    <tag k="addr:housenumber" v="85"/>
    <tag k="addr:street" v="Spruce Lane"/>
    <tag k="addr:state" v="VT"/>
    <tag k="ref:vcgi:esiteid" v="449232"/>
  </node>
  <node id="-630" visible="true" lat="44.93311971" lon="-72.49656596">
    <tag k="addr:city" v="Jay"/>
    <tag k="addr:housenumber" v="97"/>
    <tag k="addr:street" v="Spruce Lane"/>
    <tag k="addr:state" v="VT"/>
    <tag k="ref:vcgi:esiteid" v="449233"/>
  </node>
  <node id="-631" visible="true" lat="44.93797685" lon="-72.49962955">
    <tag k="addr:city" v="Jay"/>
    <tag k="addr:housenumber" v="600"/>
    <tag k="addr:street" v="Jay Peak Road"/>
    <tag k="addr:state" v="VT"/>
    <tag k="ref:vcgi:esiteid" v="449234"/>
  </node>
  <node id="-632" visible="true" lat="44.93057688" lon="-72.50371873">
    <tag k="addr:city" v="Jay"/>
    <tag k="addr:housenumber" v="47"/>
    <tag k="addr:street" v="Queens Road"/>
    <tag k="addr:state" v="VT"/>
    <tag k="ref:vcgi:esiteid" v="449235"/>
  </node>
  <node id="-633" visible="true" lat="44.93168167" lon="-72.50175464">
    <tag k="addr:city" v="Jay"/>
    <tag k="addr:housenumber" v="196"/>
    <tag k="addr:street" v="Stateside Road"/>
    <tag k="addr:state" v="VT"/>
    <tag k="ref:vcgi:esiteid" v="449236"/>
  </node>
  <node id="-634" visible="true" lat="44.93185072" lon="-72.50195408">
    <tag k="addr:city" v="Jay"/>
    <tag k="addr:housenumber" v="198"/>
    <tag k="addr:street" v="Stateside Road"/>
    <tag k="addr:state" v="VT"/>
    <tag k="ref:vcgi:esiteid" v="449237"/>
  </node>
  <node id="-635" visible="true" lat="44.98966938" lon="-72.54931566">
    <tag k="addr:city" v="Jay"/>
    <tag k="addr:housenumber" v="829"/>
    <tag k="addr:street" v="West Jay Road"/>
    <tag k="addr:state" v="VT"/>
    <tag k="ref:vcgi:esiteid" v="451520"/>
  </node>
  <node id="-636" visible="true" lat="44.94926073" lon="-72.45876662">
    <tag k="addr:city" v="Jay"/>
    <tag k="addr:housenumber" v="1039"/>
    <tag k="addr:street" v="Gendron Road"/>
    <tag k="addr:state" v="VT"/>
    <tag k="ref:vcgi:esiteid" v="453100"/>
  </node>
  <node id="-637" visible="true" lat="44.94577206" lon="-72.45538343">
    <tag k="addr:city" v="Jay"/>
    <tag k="addr:housenumber" v="320"/>
    <tag k="addr:street" v="Sargents Way"/>
    <tag k="addr:state" v="VT"/>
    <tag k="ref:vcgi:esiteid" v="455436"/>
  </node>
  <node id="-638" visible="true" lat="44.93089864" lon="-72.4978822">
    <tag k="addr:city" v="Jay"/>
    <tag k="addr:housenumber" v="67"/>
    <tag k="addr:street" v="Hemlock Hill Road"/>
    <tag k="addr:state" v="VT"/>
    <tag k="ref:vcgi:esiteid" v="455453"/>
  </node>
  <node id="-639" visible="true" lat="44.93034388" lon="-72.49766771">
    <tag k="addr:city" v="Jay"/>
    <tag k="addr:housenumber" v="117"/>
    <tag k="addr:street" v="Hemlock Hill Road"/>
    <tag k="addr:state" v="VT"/>
    <tag k="ref:vcgi:esiteid" v="455454"/>
  </node>
  <node id="-640" visible="true" lat="44.92998675" lon="-72.49842186">
    <tag k="addr:city" v="Jay"/>
    <tag k="addr:housenumber" v="119"/>
    <tag k="addr:street" v="Hemlock Hill Road"/>
    <tag k="addr:state" v="VT"/>
    <tag k="ref:vcgi:esiteid" v="455455"/>
  </node>
  <node id="-641" visible="true" lat="44.9302939" lon="-72.49934358">
    <tag k="addr:city" v="Jay"/>
    <tag k="addr:housenumber" v="169"/>
    <tag k="addr:street" v="Hemlock Hill Road"/>
    <tag k="addr:state" v="VT"/>
    <tag k="ref:vcgi:esiteid" v="455456"/>
  </node>
  <node id="-642" visible="true" lat="44.93095818" lon="-72.4996821">
    <tag k="addr:city" v="Jay"/>
    <tag k="addr:housenumber" v="170"/>
    <tag k="addr:street" v="Hemlock Hill Road"/>
    <tag k="addr:state" v="VT"/>
    <tag k="ref:vcgi:esiteid" v="455457"/>
  </node>
  <node id="-643" visible="true" lat="44.93118729" lon="-72.49862919">
    <tag k="addr:city" v="Jay"/>
    <tag k="addr:housenumber" v="90"/>
    <tag k="addr:street" v="Hemlock Hill Road"/>
    <tag k="addr:state" v="VT"/>
    <tag k="ref:vcgi:esiteid" v="455458"/>
  </node>
  <node id="-644" visible="true" lat="44.93104962" lon="-72.49856763">
    <tag k="addr:city" v="Jay"/>
    <tag k="addr:housenumber" v="88"/>
    <tag k="addr:street" v="Hemlock Hill Road"/>
    <tag k="addr:state" v="VT"/>
    <tag k="ref:vcgi:esiteid" v="455459"/>
  </node>
  <node id="-645" visible="true" lat="44.93130338" lon="-72.49700067">
    <tag k="addr:city" v="Jay"/>
    <tag k="addr:housenumber" v="31"/>
    <tag k="addr:street" v="Hemlock Hill Road"/>
    <tag k="addr:state" v="VT"/>
    <tag k="ref:vcgi:esiteid" v="610190"/>
  </node>
  <node id="-646" visible="true" lat="44.93124625" lon="-72.49748165">
    <tag k="addr:city" v="Jay"/>
    <tag k="addr:housenumber" v="33"/>
    <tag k="addr:street" v="Hemlock Hill Road"/>
    <tag k="addr:state" v="VT"/>
    <tag k="ref:vcgi:esiteid" v="610191"/>
  </node>
  <node id="-647" visible="true" lat="44.93103196" lon="-72.49746323">
    <tag k="addr:city" v="Jay"/>
    <tag k="addr:housenumber" v="65"/>
    <tag k="addr:street" v="Hemlock Hill Road"/>
    <tag k="addr:state" v="VT"/>
    <tag k="ref:vcgi:esiteid" v="610192"/>
  </node>
  <node id="-648" visible="true" lat="44.93132959" lon="-72.49815033">
    <tag k="addr:city" v="Jay"/>
    <tag k="addr:housenumber" v="56"/>
    <tag k="addr:street" v="Hemlock Hill Road"/>
    <tag k="addr:state" v="VT"/>
    <tag k="ref:vcgi:esiteid" v="610201"/>
  </node>
  <node id="-649" visible="true" lat="44.93155458" lon="-72.49770118">
    <tag k="addr:city" v="Jay"/>
    <tag k="addr:housenumber" v="54"/>
    <tag k="addr:street" v="Hemlock Hill Road"/>
    <tag k="addr:state" v="VT"/>
    <tag k="ref:vcgi:esiteid" v="610202"/>
  </node>
  <node id="-650" visible="true" lat="44.94970737" lon="-72.45520784">
    <tag k="addr:city" v="Jay"/>
    <tag k="addr:housenumber" v="592"/>
    <tag k="addr:street" v="Sargents Way"/>
    <tag k="addr:state" v="VT"/>
    <tag k="ref:vcgi:esiteid" v="610477"/>
  </node>
  <node id="-651" visible="true" lat="44.95790456" lon="-72.44289144">
    <tag k="addr:city" v="Jay"/>
    <tag k="addr:housenumber" v="2279"/>
    <tag k="addr:street" v="Cross Road"/>
    <tag k="addr:state" v="VT"/>
    <tag k="ref:vcgi:esiteid" v="610952"/>
  </node>
  <node id="-652" visible="true" lat="45.0043294" lon="-72.46677816">
    <tag k="addr:city" v="Jay"/>
    <tag k="addr:housenumber" v="1315"/>
    <tag k="addr:street" v="Journeys End Road"/>
    <tag k="addr:state" v="VT"/>
    <tag k="ref:vcgi:esiteid" v="610953"/>
  </node>
  <node id="-653" visible="true" lat="44.98068983" lon="-72.44051342">
    <tag k="addr:city" v="Jay"/>
    <tag k="addr:housenumber" v="419"/>
    <tag k="addr:street" v="Partridge Hollow Road"/>
    <tag k="addr:state" v="VT"/>
    <tag k="ref:vcgi:esiteid" v="612573"/>
  </node>
  <node id="-655" visible="true" lat="44.99614141" lon="-72.44692906">
    <tag k="addr:city" v="Jay"/>
    <tag k="addr:housenumber" v="1851"/>
    <tag k="addr:street" v="North Jay Road"/>
    <tag k="addr:state" v="VT"/>
    <tag k="ref:vcgi:esiteid" v="617172"/>
  </node>
  <node id="-656" visible="true" lat="44.95930854" lon="-72.44258655">
    <tag k="addr:city" v="Jay"/>
    <tag k="addr:housenumber" v="2326"/>
    <tag k="addr:street" v="Cross Road"/>
    <tag k="addr:state" v="VT"/>
    <tag k="ref:vcgi:esiteid" v="617488"/>
  </node>
  <node id="-657" visible="true" lat="44.93831594" lon="-72.45887112">
    <tag k="addr:city" v="Jay"/>
    <tag k="addr:housenumber" v="50"/>
    <tag k="addr:street" v="Graham Hill Road"/>
    <tag k="addr:state" v="VT"/>
    <tag k="ref:vcgi:esiteid" v="618414"/>
  </node>
  <node id="-658" visible="true" lat="44.96449271" lon="-72.45914278">
    <tag k="addr:city" v="Jay"/>
    <tag k="addr:housenumber" v="618"/>
    <tag k="addr:street" v="Morse Road"/>
    <tag k="addr:state" v="VT"/>
    <tag k="ref:vcgi:esiteid" v="618415"/>
  </node>
  <node id="-659" visible="true" lat="44.95117161" lon="-72.45859365">
    <tag k="addr:city" v="Jay"/>
    <tag k="addr:housenumber" v="1008"/>
    <tag k="addr:street" v="Gendron Road"/>
    <tag k="addr:state" v="VT"/>
    <tag k="ref:vcgi:esiteid" v="620266"/>
  </node>
  <node id="-660" visible="true" lat="45.00494143" lon="-72.43661685">
    <tag k="addr:city" v="Jay"/>
    <tag k="addr:housenumber" v="2729"/>
    <tag k="addr:street" v="North Jay Road"/>
    <tag k="addr:state" v="VT"/>
    <tag k="ref:vcgi:esiteid" v="620696"/>
  </node>
  <node id="-661" visible="true" lat="44.94873865" lon="-72.41952214">
    <tag k="addr:city" v="Jay"/>
    <tag k="addr:housenumber" v="34"/>
    <tag k="addr:street" v="Vermont Route 242"/>
    <tag k="addr:state" v="VT"/>
    <tag k="ref:vcgi:esiteid" v="655236"/>
  </node>
  <node id="-662" visible="true" lat="44.94262605" lon="-72.44641405">
    <tag k="addr:city" v="Jay"/>
    <tag k="addr:housenumber" v="150"/>
    <tag k="addr:street" v="Foothills Drive"/>
    <tag k="addr:state" v="VT"/>
    <tag k="ref:vcgi:esiteid" v="655485"/>
  </node>
  <node id="-663" visible="true" lat="44.96789532" lon="-72.42528986">
    <tag k="addr:city" v="Jay"/>
    <tag k="addr:housenumber" v="160"/>
    <tag k="addr:street" v="Chemin Panoramique"/>
    <tag k="addr:state" v="VT"/>
    <tag k="ref:vcgi:esiteid" v="655486"/>
  </node>
  <node id="-664" visible="true" lat="44.99400967" lon="-72.44758165">
    <tag k="addr:city" v="Jay"/>
    <tag k="addr:housenumber" v="1691"/>
    <tag k="addr:street" v="North Jay Road"/>
    <tag k="addr:state" v="VT"/>
    <tag k="ref:vcgi:esiteid" v="655513"/>
  </node>
  <node id="-665" visible="true" lat="44.94455404" lon="-72.44673307">
    <tag k="addr:city" v="Jay"/>
    <tag k="addr:housenumber" v="100"/>
    <tag k="addr:street" v="Cote Cove"/>
    <tag k="addr:state" v="VT"/>
    <tag k="ref:vcgi:esiteid" v="655671"/>
  </node>
  <node id="-666" visible="true" lat="44.94638141" lon="-72.45307746">
    <tag k="addr:city" v="Jay"/>
    <tag k="addr:housenumber" v="168"/>
    <tag k="addr:street" v="Marriner Drive"/>
    <tag k="addr:state" v="VT"/>
    <tag k="ref:vcgi:esiteid" v="655783"/>
  </node>
  <node id="-667" visible="true" lat="44.94269027" lon="-72.4438486">
    <tag k="addr:city" v="Jay"/>
    <tag k="addr:housenumber" v="24"/>
    <tag k="addr:street" v="Tuckaway West"/>
    <tag k="addr:state" v="VT"/>
    <tag k="ref:vcgi:esiteid" v="655784"/>
  </node>
  <node id="-668" visible="true" lat="44.96975388" lon="-72.44862595">
    <tag k="addr:city" v="Jay"/>
    <tag k="addr:housenumber" v="3111"/>
    <tag k="addr:street" v="Cross Road"/>
    <tag k="addr:state" v="VT"/>
    <tag k="ref:vcgi:esiteid" v="655904"/>
  </node>
  <node id="-669" visible="true" lat="44.94380999" lon="-72.47493422">
    <tag k="addr:city" v="Jay"/>
    <tag k="addr:housenumber" v="333"/>
    <tag k="addr:street" v="Wilderness Road"/>
    <tag k="addr:state" v="VT"/>
    <tag k="ref:vcgi:esiteid" v="656150"/>
  </node>
  <node id="-670" visible="true" lat="44.94406033" lon="-72.47397892">
    <tag k="addr:city" v="Jay"/>
    <tag k="addr:housenumber" v="14"/>
    <tag k="addr:street" v="Aikins Drive"/>
    <tag k="addr:state" v="VT"/>
    <tag k="ref:vcgi:esiteid" v="656151"/>
  </node>
  <node id="-671" visible="true" lat="44.96323824" lon="-72.43142271">
    <tag k="addr:city" v="Jay"/>
    <tag k="addr:housenumber" v="1102"/>
    <tag k="addr:street" v="Revoir Flat Road"/>
    <tag k="addr:state" v="VT"/>
    <tag k="ref:vcgi:esiteid" v="656260"/>
  </node>
  <node id="-672" visible="true" lat="44.96471634" lon="-72.42964504">
    <tag k="addr:city" v="Jay"/>
    <tag k="addr:housenumber" v="350"/>
    <tag k="addr:street" v="Vermont Route 105"/>
    <tag k="addr:state" v="VT"/>
    <tag k="ref:vcgi:esiteid" v="656289"/>
  </node>
  <node id="-673" visible="true" lat="44.93099389" lon="-72.49899499">
    <tag k="addr:city" v="Jay"/>
    <tag k="addr:housenumber" v="142"/>
    <tag k="addr:street" v="Hemlock Hill Road"/>
    <tag k="addr:state" v="VT"/>
    <tag k="ref:vcgi:esiteid" v="749994"/>
  </node>
  <node id="-674" visible="true" lat="44.94879066" lon="-72.4520067">
    <tag k="addr:city" v="Jay"/>
    <tag k="addr:housenumber" v="741"/>
    <tag k="addr:street" v="Gendron Road"/>
    <tag k="addr:state" v="VT"/>
    <tag k="ref:vcgi:esiteid" v="752038"/>
  </node>
  <node id="-675" visible="true" lat="44.96970629" lon="-72.47968526">
    <tag k="addr:city" v="Jay"/>
    <tag k="addr:housenumber" v="476"/>
    <tag k="addr:street" v="Amos Road"/>
    <tag k="addr:state" v="VT"/>
    <tag k="ref:vcgi:esiteid" v="752540"/>
  </node>
  <node id="-676" visible="true" lat="44.9701119" lon="-72.48530314">
    <tag k="addr:city" v="Jay"/>
    <tag k="addr:housenumber" v="571"/>
    <tag k="addr:street" v="Amos Road"/>
    <tag k="addr:state" v="VT"/>
    <tag k="ref:vcgi:esiteid" v="752541"/>
  </node>
  <node id="-677" visible="true" lat="44.96370677" lon="-72.47301595">
    <tag k="addr:city" v="Jay"/>
    <tag k="addr:housenumber" v="155"/>
    <tag k="addr:street" v="Stevens Mill Road"/>
    <tag k="addr:state" v="VT"/>
    <tag k="ref:vcgi:esiteid" v="752542"/>
  </node>
  <node id="-678" visible="true" lat="44.95598859" lon="-72.47703383">
    <tag k="addr:city" v="Jay"/>
    <tag k="addr:housenumber" v="925"/>
    <tag k="addr:street" v="Westover Road"/>
    <tag k="addr:state" v="VT"/>
    <tag k="ref:vcgi:esiteid" v="752543"/>
  </node>
  <node id="-679" visible="true" lat="44.96339007" lon="-72.49298112">
    <tag k="addr:city" v="Jay"/>
    <tag k="addr:housenumber" v="1101"/>
    <tag k="addr:street" v="Stevens Mill Road"/>
    <tag k="addr:state" v="VT"/>
    <tag k="ref:vcgi:esiteid" v="752544"/>
  </node>
  <node id="-680" visible="true" lat="44.96357643" lon="-72.49623848">
    <tag k="addr:city" v="Jay"/>
    <tag k="addr:housenumber" v="1500"/>
    <tag k="addr:street" v="Stevens Mill Road"/>
    <tag k="addr:state" v="VT"/>
    <tag k="ref:vcgi:esiteid" v="752545"/>
  </node>
  <node id="-681" visible="true" lat="44.96387436" lon="-72.50013526">
    <tag k="addr:city" v="Jay"/>
    <tag k="addr:housenumber" v="1770"/>
    <tag k="addr:street" v="Stevens Mill Road"/>
    <tag k="addr:state" v="VT"/>
    <tag k="ref:vcgi:esiteid" v="752546"/>
  </node>
  <node id="-682" visible="true" lat="44.96507586" lon="-72.50314499">
    <tag k="addr:city" v="Jay"/>
    <tag k="addr:housenumber" v="1780"/>
    <tag k="addr:street" v="Stevens Mill Road"/>
    <tag k="addr:state" v="VT"/>
    <tag k="ref:vcgi:esiteid" v="752547"/>
  </node>
  <node id="-683" visible="true" lat="44.96217182" lon="-72.49903987">
    <tag k="addr:city" v="Jay"/>
    <tag k="addr:housenumber" v="1765"/>
    <tag k="addr:street" v="Stevens Mill Road"/>
    <tag k="addr:state" v="VT"/>
    <tag k="ref:vcgi:esiteid" v="752548"/>
  </node>
  <node id="-684" visible="true" lat="44.96403373" lon="-72.48565817">
    <tag k="addr:city" v="Jay"/>
    <tag k="addr:housenumber" v="830"/>
    <tag k="addr:street" v="Stevens Mill Road"/>
    <tag k="addr:state" v="VT"/>
    <tag k="ref:vcgi:esiteid" v="752549"/>
  </node>
  <node id="-685" visible="true" lat="44.96034146" lon="-72.50570248">
    <tag k="addr:city" v="Jay"/>
    <tag k="addr:housenumber" v="1899"/>
    <tag k="addr:street" v="Stevens Mill Road"/>
    <tag k="addr:state" v="VT"/>
    <tag k="ref:vcgi:esiteid" v="752550"/>
  </node>
  <node id="-686" visible="true" lat="44.96387011" lon="-72.50404657">
    <tag k="addr:city" v="Jay"/>
    <tag k="addr:housenumber" v="1800"/>
    <tag k="addr:street" v="Stevens Mill Road"/>
    <tag k="addr:state" v="VT"/>
    <tag k="ref:vcgi:esiteid" v="752551"/>
  </node>
  <node id="-687" visible="true" lat="44.96433802" lon="-72.47789282">
    <tag k="addr:city" v="Jay"/>
    <tag k="addr:housenumber" v="302"/>
    <tag k="addr:street" v="Stevens Mill Road"/>
    <tag k="addr:state" v="VT"/>
    <tag k="ref:vcgi:esiteid" v="752586"/>
  </node>
  <node id="-688" visible="true" lat="44.96729547" lon="-72.4910399">
    <tag k="addr:city" v="Jay"/>
    <tag k="addr:housenumber" v="260"/>
    <tag k="addr:street" v="Maple Street"/>
    <tag k="addr:state" v="VT"/>
    <tag k="ref:vcgi:esiteid" v="752587"/>
  </node>
  <node id="-689" visible="true" lat="44.96455695" lon="-72.49103765">
    <tag k="addr:city" v="Jay"/>
    <tag k="addr:housenumber" v="1200"/>
    <tag k="addr:street" v="Stevens Mill Road"/>
    <tag k="addr:state" v="VT"/>
    <tag k="ref:vcgi:esiteid" v="752588"/>
  </node>
  <node id="-690" visible="true" lat="45.00751332" lon="-72.44784472">
    <tag k="addr:city" v="Jay"/>
    <tag k="addr:housenumber" v="326"/>
    <tag k="addr:street" v="Space Research Road"/>
    <tag k="addr:state" v="VT"/>
    <tag k="ref:vcgi:esiteid" v="752995"/>
  </node>
  <node id="-691" visible="true" lat="45.00534848" lon="-72.44802107">
    <tag k="addr:city" v="Jay"/>
    <tag k="addr:housenumber" v="297"/>
    <tag k="addr:street" v="Space Research Road"/>
    <tag k="addr:state" v="VT"/>
    <tag k="ref:vcgi:esiteid" v="752996"/>
  </node>
  <node id="-692" visible="true" lat="44.96468726" lon="-72.46516485">
    <tag k="addr:city" v="Jay"/>
    <tag k="addr:housenumber" v="866"/>
    <tag k="addr:street" v="Morse Road"/>
    <tag k="addr:state" v="VT"/>
    <tag k="ref:vcgi:esiteid" v="754106"/>
  </node>
  <node id="-693" visible="true" lat="44.92927634" lon="-72.503575">
    <tag k="addr:city" v="Jay"/>
    <tag k="addr:housenumber" v="381"/>
    <tag k="addr:street" v="Stateside Road"/>
    <tag k="addr:state" v="VT"/>
    <tag k="ref:vcgi:esiteid" v="755922"/>
  </node>
  <node id="-694" visible="true" lat="44.98128377" lon="-72.46418179">
    <tag k="addr:city" v="Jay"/>
    <tag k="addr:housenumber" v="452"/>
    <tag k="addr:street" v="Tranquility Lane"/>
    <tag k="addr:state" v="VT"/>
    <tag k="ref:vcgi:esiteid" v="755923"/>
  </node>
  <node id="-695" visible="true" lat="44.99871202" lon="-72.44605962">
    <tag k="addr:city" v="Jay"/>
    <tag k="addr:housenumber" v="21"/>
    <tag k="addr:street" v="Journeys End Road"/>
    <tag k="addr:state" v="VT"/>
    <tag k="ref:vcgi:esiteid" v="755955"/>
  </node>
  <node id="-696" visible="true" lat="44.93140211" lon="-72.47700448">
    <tag k="addr:city" v="Jay"/>
    <tag k="addr:housenumber" v="701"/>
    <tag k="addr:street" v="Shallowbrook Road"/>
    <tag k="addr:state" v="VT"/>
    <tag k="ref:vcgi:esiteid" v="755956"/>
  </node>
  <node id="-697" visible="true" lat="44.94954753" lon="-72.42552238">
    <tag k="addr:city" v="Jay"/>
    <tag k="addr:housenumber" v="374"/>
    <tag k="addr:street" v="Vermont Route 242"/>
    <tag k="addr:state" v="VT"/>
    <tag k="ref:vcgi:esiteid" v="755992"/>
  </node>
  <node id="-698" visible="true" lat="44.95013537" lon="-72.44891771">
    <tag k="addr:city" v="Jay"/>
    <tag k="addr:housenumber" v="22"/>
    <tag k="addr:street" v="Kennett Drive"/>
    <tag k="addr:state" v="VT"/>
    <tag k="ref:vcgi:esiteid" v="756387"/>
  </node>
  <node id="-699" visible="true" lat="44.96397141" lon="-72.47644901">
    <tag k="addr:city" v="Jay"/>
    <tag k="addr:housenumber" v="399"/>
    <tag k="addr:street" v="Stevens Mill Road"/>
    <tag k="addr:state" v="VT"/>
    <tag k="ref:vcgi:esiteid" v="756434"/>
  </node>
  <node id="-700" visible="true" lat="44.9630789" lon="-72.46830993">
    <tag k="addr:city" v="Jay"/>
    <tag k="addr:housenumber" v="1055"/>
    <tag k="addr:street" v="Morse Road"/>
    <tag k="addr:state" v="VT"/>
    <tag k="ref:vcgi:esiteid" v="756435"/>
  </node>
  <node id="-701" visible="true" lat="44.96959882" lon="-72.51171777">
    <tag k="addr:city" v="Jay"/>
    <tag k="addr:housenumber" v="4755"/>
    <tag k="addr:street" v="Vermont Route 105"/>
    <tag k="addr:state" v="VT"/>
    <tag k="ref:vcgi:esiteid" v="756729"/>
  </node>
  <node id="-702" visible="true" lat="44.94415466" lon="-72.43402257">
    <tag k="addr:city" v="Jay"/>
    <tag k="addr:housenumber" v="1174"/>
    <tag k="addr:street" v="Cross Road"/>
    <tag k="addr:state" v="VT"/>
    <tag k="ref:vcgi:esiteid" v="756739"/>
  </node>
  <node id="-703" visible="true" lat="44.96887476" lon="-72.42591973">
    <tag k="addr:city" v="Jay"/>
    <tag k="addr:housenumber" v="206"/>
    <tag k="addr:street" v="Chemin Panoramique"/>
    <tag k="addr:state" v="VT"/>
    <tag k="ref:vcgi:esiteid" v="756755"/>
  </node>
  <node id="-704" visible="true" lat="44.9722047" lon="-72.42815938">
    <tag k="addr:city" v="Jay"/>
    <tag k="addr:housenumber" v="455"/>
    <tag k="addr:street" v="Chemin Panoramique"/>
    <tag k="addr:state" v="VT"/>
    <tag k="ref:vcgi:esiteid" v="756756"/>
  </node>
  <node id="-705" visible="true" lat="44.94232424" lon="-72.50372365">
    <tag k="addr:city" v="Jay"/>
    <tag k="addr:housenumber" v="39"/>
    <tag k="addr:street" v="Clubhouse Road"/>
    <tag k="addr:state" v="VT"/>
    <tag k="ref:vcgi:esiteid" v="757121"/>
  </node>
  <node id="-706" visible="true" lat="44.94014504" lon="-72.47048188">
    <tag k="addr:city" v="Jay"/>
    <tag k="addr:housenumber" v="233"/>
    <tag k="addr:street" v="Mountain View Drive"/>
    <tag k="addr:state" v="VT"/>
    <tag k="ref:vcgi:esiteid" v="758568"/>
  </node>
  <node id="-707" visible="true" lat="44.93996812" lon="-72.46676743">
    <tag k="addr:city" v="Jay"/>
    <tag k="addr:housenumber" v="267"/>
    <tag k="addr:street" v="Mountain View Drive"/>
    <tag k="addr:state" v="VT"/>
    <tag k="ref:vcgi:esiteid" v="758668"/>
  </node>
  <node id="-708" visible="true" lat="44.93894223" lon="-72.47153299">
    <tag k="addr:city" v="Jay"/>
    <tag k="addr:housenumber" v="66"/>
    <tag k="addr:street" v="Mountain View Drive"/>
    <tag k="addr:state" v="VT"/>
    <tag k="ref:vcgi:esiteid" v="758669"/>
  </node>
  <node id="-709" visible="true" lat="44.97501823" lon="-72.45741523">
    <tag k="addr:city" v="Jay"/>
    <tag k="addr:housenumber" v="219"/>
    <tag k="addr:street" v="Tranquility Lane"/>
    <tag k="addr:state" v="VT"/>
    <tag k="ref:vcgi:esiteid" v="758820"/>
  </node>
  <node id="-710" visible="true" lat="44.96811875" lon="-72.47005517">
    <tag k="addr:city" v="Jay"/>
    <tag k="addr:housenumber" v="1386"/>
    <tag k="addr:street" v="Morse Road"/>
    <tag k="addr:state" v="VT"/>
    <tag k="ref:vcgi:esiteid" v="758821"/>
  </node>
  <node id="-711" visible="true" lat="44.95135712" lon="-72.44633698">
    <tag k="addr:city" v="Jay"/>
    <tag k="addr:housenumber" v="63"/>
    <tag k="addr:street" v="High Pines Drive"/>
    <tag k="addr:state" v="VT"/>
    <tag k="ref:vcgi:esiteid" v="758934"/>
  </node>
  <node id="-712" visible="true" lat="44.98240215" lon="-72.45225029">
    <tag k="addr:city" v="Jay"/>
    <tag k="addr:housenumber" v="119"/>
    <tag k="addr:street" v="Jake Drive"/>
    <tag k="addr:state" v="VT"/>
    <tag k="ref:vcgi:esiteid" v="759057"/>
  </node>
  <node id="-713" visible="true" lat="44.95079079" lon="-72.45161115">
    <tag k="addr:city" v="Jay"/>
    <tag k="addr:housenumber" v="692"/>
    <tag k="addr:street" v="Gendron Road"/>
    <tag k="addr:state" v="VT"/>
    <tag k="ref:vcgi:esiteid" v="759124"/>
  </node>
  <node id="-714" visible="true" lat="44.9633441" lon="-72.44378033">
    <tag k="addr:city" v="Jay"/>
    <tag k="addr:housenumber" v="120"/>
    <tag k="addr:street" v="Cemetery Road"/>
    <tag k="addr:state" v="VT"/>
    <tag k="ref:vcgi:esiteid" v="759406"/>
  </node>
  <node id="-715" visible="true" lat="44.96663048" lon="-72.46578188">
    <tag k="addr:city" v="Jay"/>
    <tag k="addr:housenumber" v="906"/>
    <tag k="addr:street" v="Morse Road"/>
    <tag k="addr:state" v="VT"/>
    <tag k="ref:vcgi:esiteid" v="759407"/>
  </node>
  <node id="-716" visible="true" lat="44.97243862" lon="-72.46271017">
    <tag k="addr:city" v="Jay"/>
    <tag k="addr:housenumber" v="2113"/>
    <tag k="addr:street" v="Vermont Route 105"/>
    <tag k="addr:state" v="VT"/>
    <tag k="ref:vcgi:esiteid" v="759633"/>
  </node>
  <node id="-717" visible="true" lat="44.97195363" lon="-72.46466643">
    <tag k="addr:city" v="Jay"/>
    <tag k="addr:housenumber" v="2189"/>
    <tag k="addr:street" v="Vermont Route 105"/>
    <tag k="addr:state" v="VT"/>
    <tag k="ref:vcgi:esiteid" v="759634"/>
  </node>
  <node id="-718" visible="true" lat="44.97253872" lon="-72.46606192">
    <tag k="addr:city" v="Jay"/>
    <tag k="addr:housenumber" v="2311"/>
    <tag k="addr:street" v="Vermont Route 105"/>
    <tag k="addr:state" v="VT"/>
    <tag k="ref:vcgi:esiteid" v="759635"/>
  </node>
  <node id="-719" visible="true" lat="44.9731434" lon="-72.42964553">
    <tag k="addr:city" v="Jay"/>
    <tag k="addr:housenumber" v="506"/>
    <tag k="addr:street" v="Mayhew Road"/>
    <tag k="addr:state" v="VT"/>
    <tag k="ref:vcgi:esiteid" v="759969"/>
  </node>
  <node id="-720" visible="true" lat="45.0047817" lon="-72.4350746">
    <tag k="addr:city" v="Jay"/>
    <tag k="addr:housenumber" v="2863"/>
    <tag k="addr:street" v="North Jay Road"/>
    <tag k="addr:state" v="VT"/>
    <tag k="ref:vcgi:esiteid" v="760406"/>
  </node>
  <node id="-721" visible="true" lat="45.00181483" lon="-72.43507769">
    <tag k="addr:city" v="Jay"/>
    <tag k="addr:housenumber" v="2890"/>
    <tag k="addr:street" v="North Jay Road"/>
    <tag k="addr:state" v="VT"/>
    <tag k="ref:vcgi:esiteid" v="760411"/>
  </node>
  <node id="-722" visible="true" lat="44.97082396" lon="-72.43110454">
    <tag k="addr:city" v="Jay"/>
    <tag k="addr:housenumber" v="325"/>
    <tag k="addr:street" v="Mayhew Road"/>
    <tag k="addr:state" v="VT"/>
    <tag k="ref:vcgi:esiteid" v="760438"/>
  </node>
  <node id="-723" visible="true" lat="44.94903923" lon="-72.45019142">
    <tag k="addr:city" v="Jay"/>
    <tag k="addr:housenumber" v="619"/>
    <tag k="addr:street" v="Gendron Road"/>
    <tag k="addr:state" v="VT"/>
    <tag k="ref:vcgi:esiteid" v="760552"/>
  </node>
  <node id="-724" visible="true" lat="44.93463766" lon="-72.49109087">
    <tag k="addr:city" v="Jay"/>
    <tag k="addr:housenumber" v="4093"/>
    <tag k="addr:street" v="Vermont Route 242"/>
    <tag k="addr:state" v="VT"/>
    <tag k="ref:vcgi:esiteid" v="760884"/>
  </node>
  <node id="-725" visible="true" lat="44.93081962" lon="-72.49351263">
    <tag k="addr:city" v="Jay"/>
    <tag k="addr:housenumber" v="4433"/>
    <tag k="addr:street" v="Vermont Route 242"/>
    <tag k="addr:state" v="VT"/>
    <tag k="ref:vcgi:esiteid" v="760885"/>
  </node>
  <node id="-726" visible="true" lat="44.93189968" lon="-72.49303968">
    <tag k="addr:city" v="Jay"/>
    <tag k="addr:housenumber" v="4373"/>
    <tag k="addr:street" v="Vermont Route 242"/>
    <tag k="addr:state" v="VT"/>
    <tag k="ref:vcgi:esiteid" v="760886"/>
  </node>
  <node id="-727" visible="true" lat="44.93491666" lon="-72.49035902">
    <tag k="addr:city" v="Jay"/>
    <tag k="addr:housenumber" v="4047"/>
    <tag k="addr:street" v="Vermont Route 242"/>
    <tag k="addr:state" v="VT"/>
    <tag k="ref:vcgi:esiteid" v="760887"/>
  </node>
  <node id="-728" visible="true" lat="44.94098038" lon="-72.45385479">
    <tag k="addr:city" v="Jay"/>
    <tag k="addr:housenumber" v="2031"/>
    <tag k="addr:street" v="Vermont Route 242"/>
    <tag k="addr:state" v="VT"/>
    <tag k="ref:vcgi:esiteid" v="760993"/>
  </node>
  <node id="-729" visible="true" lat="44.95219322" lon="-72.45137315">
    <tag k="addr:city" v="Jay"/>
    <tag k="addr:housenumber" v="217"/>
    <tag k="addr:street" v="Kennett Drive"/>
    <tag k="addr:state" v="VT"/>
    <tag k="ref:vcgi:esiteid" v="761248"/>
  </node>
  <node id="-730" visible="true" lat="44.94402394" lon="-72.4485705">
    <tag k="addr:city" v="Jay"/>
    <tag k="addr:housenumber" v="178"/>
    <tag k="addr:street" v="Cote Cove"/>
    <tag k="addr:state" v="VT"/>
    <tag k="ref:vcgi:esiteid" v="763660"/>
  </node>
  <node id="-731" visible="true" lat="44.94690621" lon="-72.44746108">
    <tag k="addr:city" v="Jay"/>
    <tag k="addr:housenumber" v="1520"/>
    <tag k="addr:street" v="Vermont Route 242"/>
    <tag k="addr:state" v="VT"/>
    <tag k="ref:vcgi:esiteid" v="763661"/>
  </node>
  <node id="-734" visible="true" lat="44.98324656" lon="-72.44724013">
    <tag k="addr:city" v="Jay"/>
    <tag k="addr:housenumber" v="926"/>
    <tag k="addr:street" v="North Jay Road"/>
    <tag k="addr:state" v="VT"/>
    <tag k="ref:vcgi:esiteid" v="763901"/>
  </node>
  <node id="-735" visible="true" lat="44.96539555" lon="-72.43179687">
    <tag k="addr:city" v="Jay"/>
    <tag k="addr:housenumber" v="160"/>
    <tag k="addr:street" v="Loop Road"/>
    <tag k="addr:state" v="VT"/>
    <tag k="ref:vcgi:esiteid" v="764216"/>
  </node>
  <node id="-736" visible="true" lat="44.93924931" lon="-72.43589985">
    <tag k="addr:city" v="Jay"/>
    <tag k="addr:housenumber" v="920"/>
    <tag k="addr:street" v="Cross Road"/>
    <tag k="addr:state" v="VT"/>
    <tag k="ref:vcgi:esiteid" v="764415"/>
  </node>
  <node id="-737" visible="true" lat="45.00575068" lon="-72.43914945">
    <tag k="addr:city" v="Jay"/>
    <tag k="addr:housenumber" v="2685"/>
    <tag k="addr:street" v="North Jay Road"/>
    <tag k="addr:state" v="VT"/>
    <tag k="ref:vcgi:esiteid" v="765308"/>
  </node>
  <node id="-738" visible="true" lat="44.94370544" lon="-72.46774801">
    <tag k="addr:city" v="Jay"/>
    <tag k="addr:housenumber" v="250"/>
    <tag k="addr:street" v="Beadle Hill Road"/>
    <tag k="addr:state" v="VT"/>
    <tag k="ref:vcgi:esiteid" v="765811"/>
  </node>
  <node id="-739" visible="true" lat="44.93160993" lon="-72.48031027">
    <tag k="addr:city" v="Jay"/>
    <tag k="addr:housenumber" v="157"/>
    <tag k="addr:street" v="Shallowbrook Heights"/>
    <tag k="addr:state" v="VT"/>
    <tag k="ref:vcgi:esiteid" v="766319"/>
  </node>
  <node id="-740" visible="true" lat="44.99597973" lon="-72.54990483">
    <tag k="addr:city" v="Jay"/>
    <tag k="addr:housenumber" v="1266"/>
    <tag k="addr:street" v="West Jay Road"/>
    <tag k="addr:state" v="VT"/>
    <tag k="ref:vcgi:esiteid" v="766638"/>
  </node>
  <node id="-743" visible="true" lat="44.97304983" lon="-72.45863777">
    <tag k="addr:city" v="Jay"/>
    <tag k="addr:housenumber" v="1896"/>
    <tag k="addr:street" v="Vermont Route 105"/>
    <tag k="addr:state" v="VT"/>
    <tag k="ref:vcgi:esiteid" v="766663"/>
  </node>
  <node id="-744" visible="true" lat="44.97781174" lon="-72.47632506">
    <tag k="addr:city" v="Jay"/>
    <tag k="addr:housenumber" v="2876"/>
    <tag k="addr:street" v="Vermont Route 105"/>
    <tag k="addr:state" v="VT"/>
    <tag k="ref:vcgi:esiteid" v="766664"/>
  </node>
  <node id="-745" visible="true" lat="44.929819" lon="-72.47951946">
    <tag k="addr:city" v="Jay"/>
    <tag k="addr:housenumber" v="158"/>
    <tag k="addr:street" v="Shallowbrook Heights"/>
    <tag k="addr:state" v="VT"/>
    <tag k="ref:vcgi:esiteid" v="766665"/>
  </node>
  <node id="-746" visible="true" lat="44.94235976" lon="-72.44766764">
    <tag k="addr:city" v="Jay"/>
    <tag k="addr:housenumber" v="166"/>
    <tag k="addr:street" v="Foothills Drive"/>
    <tag k="addr:state" v="VT"/>
    <tag k="ref:vcgi:esiteid" v="766666"/>
  </node>
  <node id="-747" visible="true" lat="44.94312304" lon="-72.44765298">
    <tag k="addr:city" v="Jay"/>
    <tag k="addr:housenumber" v="200"/>
    <tag k="addr:street" v="Cote Cove"/>
    <tag k="addr:state" v="VT"/>
    <tag k="ref:vcgi:esiteid" v="766984"/>
  </node>
  <node id="-748" visible="true" lat="44.94633498" lon="-72.42307267">
    <tag k="addr:city" v="Jay"/>
    <tag k="addr:housenumber" v="127"/>
    <tag k="addr:street" v="Woodland Drive"/>
    <tag k="addr:state" v="VT"/>
    <tag k="ref:vcgi:esiteid" v="767163"/>
  </node>
  <node id="-749" visible="true" lat="44.94963328" lon="-72.46671757">
    <tag k="addr:city" v="Jay"/>
    <tag k="addr:housenumber" v="682"/>
    <tag k="addr:street" v="Beadle Hill Road"/>
    <tag k="addr:state" v="VT"/>
    <tag k="ref:vcgi:esiteid" v="767204"/>
  </node>
  <node id="-750" visible="true" lat="44.95199788" lon="-72.45325608">
    <tag k="addr:city" v="Jay"/>
    <tag k="addr:housenumber" v="185"/>
    <tag k="addr:street" v="Moose Run Drive"/>
    <tag k="addr:state" v="VT"/>
    <tag k="ref:vcgi:esiteid" v="767325"/>
  </node>
  <node id="-752" visible="true" lat="44.94374719" lon="-72.47660028">
    <tag k="addr:city" v="Jay"/>
    <tag k="addr:housenumber" v="393"/>
    <tag k="addr:street" v="Wilderness Road"/>
    <tag k="addr:state" v="VT"/>
    <tag k="ref:vcgi:esiteid" v="767426"/>
  </node>
  <node id="-753" visible="true" lat="44.94435639" lon="-72.46985246">
    <tag k="addr:city" v="Jay"/>
    <tag k="addr:housenumber" v="305"/>
    <tag k="addr:street" v="Beadle Hill Road"/>
    <tag k="addr:state" v="VT"/>
    <tag k="ref:vcgi:esiteid" v="767461"/>
  </node>
  <node id="-754" visible="true" lat="44.96611855" lon="-72.43111411">
    <tag k="addr:city" v="Jay"/>
    <tag k="addr:housenumber" v="174"/>
    <tag k="addr:street" v="Loop Road"/>
    <tag k="addr:state" v="VT"/>
    <tag k="ref:vcgi:esiteid" v="767772"/>
  </node>
  <node id="-755" visible="true" lat="44.94136587" lon="-72.44613933">
    <tag k="addr:city" v="Jay"/>
    <tag k="addr:housenumber" v="192"/>
    <tag k="addr:street" v="Foothills Drive"/>
    <tag k="addr:state" v="VT"/>
    <tag k="ref:vcgi:esiteid" v="767779"/>
  </node>
  <node id="-756" visible="true" lat="44.96149875" lon="-72.43015481">
    <tag k="addr:city" v="Jay"/>
    <tag k="addr:housenumber" v="52"/>
    <tag k="addr:street" v="River Bend Drive"/>
    <tag k="addr:state" v="VT"/>
    <tag k="ref:vcgi:esiteid" v="768125"/>
  </node>
  <node id="-757" visible="true" lat="44.96778003" lon="-72.4432203">
    <tag k="addr:city" v="Jay"/>
    <tag k="addr:housenumber" v="29"/>
    <tag k="addr:street" v="Morin Drive"/>
    <tag k="addr:state" v="VT"/>
    <tag k="ref:vcgi:esiteid" v="768514"/>
  </node>
  <node id="-758" visible="true" lat="44.9296262" lon="-72.50135162">
    <tag k="addr:city" v="Jay"/>
    <tag k="addr:housenumber" v="4800"/>
    <tag k="addr:street" v="Vermont Route 242"/>
    <tag k="addr:state" v="VT"/>
    <tag k="ref:vcgi:esiteid" v="768748"/>
  </node>
  <node id="-759" visible="true" lat="44.94859041" lon="-72.44024404">
    <tag k="addr:city" v="Jay"/>
    <tag k="addr:housenumber" v="73"/>
    <tag k="addr:street" v="Ajax Drive"/>
    <tag k="addr:state" v="VT"/>
    <tag k="ref:vcgi:esiteid" v="768990"/>
  </node>
  <node id="-760" visible="true" lat="44.9483619" lon="-72.44046332">
    <tag k="addr:city" v="Jay"/>
    <tag k="addr:housenumber" v="59"/>
    <tag k="addr:street" v="Ajax Drive"/>
    <tag k="addr:state" v="VT"/>
    <tag k="ref:vcgi:esiteid" v="768991"/>
  </node>
  <node id="-761" visible="true" lat="44.94820026" lon="-72.44024175">
    <tag k="addr:city" v="Jay"/>
    <tag k="addr:housenumber" v="52"/>
    <tag k="addr:street" v="Ajax Drive"/>
    <tag k="addr:state" v="VT"/>
    <tag k="ref:vcgi:esiteid" v="768992"/>
  </node>
  <node id="-762" visible="true" lat="44.94837102" lon="-72.44013">
    <tag k="addr:city" v="Jay"/>
    <tag k="addr:housenumber" v="60"/>
    <tag k="addr:street" v="Ajax Drive"/>
    <tag k="addr:state" v="VT"/>
    <tag k="ref:vcgi:esiteid" v="769393"/>
  </node>
  <node id="-763" visible="true" lat="44.94365164" lon="-72.42150549">
    <tag k="addr:city" v="Jay"/>
    <tag k="addr:housenumber" v="333"/>
    <tag k="addr:street" v="Woodland Drive"/>
    <tag k="addr:state" v="VT"/>
    <tag k="ref:vcgi:esiteid" v="770093"/>
  </node>
  <node id="-764" visible="true" lat="45.00688494" lon="-72.47924446">
    <tag k="addr:city" v="Jay"/>
    <tag k="addr:housenumber" v="1317"/>
    <tag k="addr:street" v="Journeys End Road"/>
    <tag k="addr:state" v="VT"/>
    <tag k="ref:vcgi:esiteid" v="800153"/>
  </node>
  <node id="-765" visible="true" lat="45.00347743" lon="-72.47255004">
    <tag k="addr:city" v="Jay"/>
    <tag k="addr:housenumber" v="1161"/>
    <tag k="addr:street" v="Journeys End Road"/>
    <tag k="addr:state" v="VT"/>
    <tag k="ref:vcgi:esiteid" v="800154"/>
  </node>
  <node id="-766" visible="true" lat="44.99974486" lon="-72.46252066">
    <tag k="addr:city" v="Jay"/>
    <tag k="addr:housenumber" v="846"/>
    <tag k="addr:street" v="Journeys End Road"/>
    <tag k="addr:state" v="VT"/>
    <tag k="ref:vcgi:esiteid" v="1050030"/>
  </node>
  <node id="-767" visible="true" lat="45.0016026" lon="-72.46453298">
    <tag k="addr:city" v="Jay"/>
    <tag k="addr:housenumber" v="1092"/>
    <tag k="addr:street" v="Journeys End Road"/>
    <tag k="addr:state" v="VT"/>
    <tag k="ref:vcgi:esiteid" v="1050031"/>
  </node>
  <node id="-768" visible="true" lat="44.99916189" lon="-72.46362843">
    <tag k="addr:city" v="Jay"/>
    <tag k="addr:housenumber" v="901"/>
    <tag k="addr:street" v="Journeys End Road"/>
    <tag k="addr:state" v="VT"/>
    <tag k="ref:vcgi:esiteid" v="1050032"/>
  </node>
  <node id="-769" visible="true" lat="44.951" lon="-72.43583">
    <tag k="addr:city" v="Jay"/>
    <tag k="addr:housenumber" v="154"/>
    <tag k="addr:street" v="Revoir Flat Road"/>
    <tag k="addr:state" v="VT"/>
    <tag k="ref:vcgi:esiteid" v="1050753"/>
  </node>
  <node id="-770" visible="true" lat="44.92810564" lon="-72.50201861">
    <tag k="addr:city" v="Jay"/>
    <tag k="addr:housenumber" v="514"/>
    <tag k="addr:street" v="Stateside Road"/>
    <tag k="addr:state" v="VT"/>
    <tag k="ref:vcgi:esiteid" v="1050754"/>
  </node>
  <node id="-771" visible="true" lat="44.93923442" lon="-72.5185271">
    <tag k="addr:city" v="Jay"/>
    <tag k="addr:housenumber" v="147"/>
    <tag k="addr:street" v="West Bowl Road"/>
    <tag k="addr:state" v="VT"/>
    <tag k="ref:vcgi:esiteid" v="1051013"/>
  </node>
</osm>
