<?xml version="1.0" encoding="UTF-8"?>
<osm version="0.6" generator="JOSM">
  <node id="-109" visible="true" lat="44.69221319" lon="-72.6859412">
    <tag k="addr:city" v="Johnson"/>
    <tag k="addr:housenumber" v="93"/>
    <tag k="addr:street" v="Cross Road"/>
    <tag k="addr:state" v="VT"/>
    <tag k="ref:vcgi:esiteid" v="137693"/>
  </node>
  <node id="-110" visible="true" lat="44.69262765" lon="-72.70046589">
    <tag k="addr:city" v="Johnson"/>
    <tag k="addr:housenumber" v="1773"/>
    <tag k="addr:street" v="Codding Hollow Road"/>
    <tag k="addr:state" v="VT"/>
    <tag k="ref:vcgi:esiteid" v="137694"/>
  </node>
  <node id="-111" visible="true" lat="44.68927384" lon="-72.69559487">
    <tag k="addr:city" v="Johnson"/>
    <tag k="addr:housenumber" v="1555"/>
    <tag k="addr:street" v="Codding Hollow Road"/>
    <tag k="addr:state" v="VT"/>
    <tag k="ref:vcgi:esiteid" v="137695"/>
  </node>
  <node id="-135" visible="true" lat="44.67951202" lon="-72.71607217">
    <tag k="addr:city" v="Johnson"/>
    <tag k="addr:housenumber" v="2917"/>
    <tag k="addr:street" v="Plot Road"/>
    <tag k="addr:state" v="VT"/>
    <tag k="ref:vcgi:esiteid" v="137720"/>
  </node>
  <node id="-177" visible="true" lat="44.66777801" lon="-72.70218667">
    <tag k="addr:city" v="Johnson"/>
    <tag k="addr:housenumber" v="1811"/>
    <tag k="addr:street" v="Plot Road"/>
    <tag k="addr:state" v="VT"/>
    <tag k="ref:vcgi:esiteid" v="137762"/>
  </node>
  <node id="-183" visible="true" lat="44.66729355" lon="-72.70111855">
    <tag k="addr:city" v="Johnson"/>
    <tag k="addr:housenumber" v="1754"/>
    <tag k="addr:street" v="Plot Road"/>
    <tag k="addr:state" v="VT"/>
    <tag k="ref:vcgi:esiteid" v="137768"/>
  </node>
  <node id="-189" visible="true" lat="44.66635132" lon="-72.60655221">
    <tag k="addr:city" v="Johnson"/>
    <tag k="addr:housenumber" v="4499"/>
    <tag k="addr:street" v="Vermont Route 100C"/>
    <tag k="addr:state" v="VT"/>
    <tag k="ref:vcgi:esiteid" v="137774"/>
  </node>
  <node id="-192" visible="true" lat="44.66613596" lon="-72.60837645">
    <tag k="addr:city" v="Johnson"/>
    <tag k="addr:housenumber" v="4409"/>
    <tag k="addr:street" v="Vermont Route 100C"/>
    <tag k="addr:state" v="VT"/>
    <tag k="ref:vcgi:esiteid" v="137777"/>
  </node>
  <node id="-196" visible="true" lat="44.66592105" lon="-72.60934035">
    <tag k="addr:city" v="Johnson"/>
    <tag k="addr:housenumber" v="4361"/>
    <tag k="addr:street" v="Vermont Route 100C"/>
    <tag k="addr:state" v="VT"/>
    <tag k="ref:vcgi:esiteid" v="137781"/>
  </node>
  <node id="-199" visible="true" lat="44.66547477" lon="-72.60811848">
    <tag k="addr:city" v="Johnson"/>
    <tag k="addr:housenumber" v="16"/>
    <tag k="addr:street" v="Bradley Drive"/>
    <tag k="addr:state" v="VT"/>
    <tag k="ref:vcgi:esiteid" v="137784"/>
  </node>
  <node id="-201" visible="true" lat="44.66529011" lon="-72.60870336">
    <tag k="addr:city" v="Johnson"/>
    <tag k="addr:housenumber" v="4374"/>
    <tag k="addr:street" v="Vermont Route 100C"/>
    <tag k="addr:state" v="VT"/>
    <tag k="ref:vcgi:esiteid" v="137786"/>
  </node>
  <node id="-204" visible="true" lat="44.66534618" lon="-72.607425">
    <tag k="addr:city" v="Johnson"/>
    <tag k="addr:housenumber" v="37"/>
    <tag k="addr:street" v="Bradley Drive"/>
    <tag k="addr:state" v="VT"/>
    <tag k="ref:vcgi:esiteid" v="137789"/>
  </node>
  <node id="-207" visible="true" lat="44.66514944" lon="-72.69099012">
    <tag k="addr:city" v="Johnson"/>
    <tag k="addr:housenumber" v="1768"/>
    <tag k="addr:street" v="Foote Brook Road"/>
    <tag k="addr:state" v="VT"/>
    <tag k="ref:vcgi:esiteid" v="137792"/>
  </node>
  <node id="-216" visible="true" lat="44.66423919" lon="-72.67265749">
    <tag k="addr:city" v="Johnson"/>
    <tag k="addr:housenumber" v="2100"/>
    <tag k="addr:street" v="Clay Hill"/>
    <tag k="addr:state" v="VT"/>
    <tag k="ref:vcgi:esiteid" v="137801"/>
  </node>
  <node id="-225" visible="true" lat="44.66317816" lon="-72.61320935">
    <tag k="addr:city" v="Johnson"/>
    <tag k="addr:housenumber" v="100"/>
    <tag k="addr:street" v="Bypass Drive"/>
    <tag k="addr:state" v="VT"/>
    <tag k="ref:vcgi:esiteid" v="137810"/>
  </node>
  <node id="-229" visible="true" lat="44.66310826" lon="-72.61385869">
    <tag k="addr:city" v="Johnson"/>
    <tag k="addr:housenumber" v="78"/>
    <tag k="addr:street" v="Bypass Drive"/>
    <tag k="addr:state" v="VT"/>
    <tag k="ref:vcgi:esiteid" v="137814"/>
  </node>
  <node id="-230" visible="true" lat="44.66323879" lon="-72.61857441">
    <tag k="addr:city" v="Johnson"/>
    <tag k="addr:housenumber" v="3853"/>
    <tag k="addr:street" v="Vermont Route 100C"/>
    <tag k="addr:state" v="VT"/>
    <tag k="ref:vcgi:esiteid" v="137815"/>
  </node>
  <node id="-238" visible="true" lat="44.66254807" lon="-72.61099251">
    <tag k="addr:city" v="Johnson"/>
    <tag k="addr:housenumber" v="1475"/>
    <tag k="addr:street" v="Wilson Road"/>
    <tag k="addr:state" v="VT"/>
    <tag k="ref:vcgi:esiteid" v="137823"/>
  </node>
  <node id="-243" visible="true" lat="44.6621785" lon="-72.6210934">
    <tag k="addr:city" v="Johnson"/>
    <tag k="addr:housenumber" v="3694"/>
    <tag k="addr:street" v="Vermont Route 100C"/>
    <tag k="addr:state" v="VT"/>
    <tag k="ref:vcgi:esiteid" v="137828"/>
  </node>
  <node id="-247" visible="true" lat="44.66146851" lon="-72.62734994">
    <tag k="addr:city" v="Johnson"/>
    <tag k="addr:housenumber" v="125"/>
    <tag k="addr:street" v="Ober Hill Road"/>
    <tag k="addr:state" v="VT"/>
    <tag k="ref:vcgi:esiteid" v="137833"/>
  </node>
  <node id="-275" visible="true" lat="44.6583786" lon="-72.72399911">
    <tag k="addr:city" v="Johnson"/>
    <tag k="addr:housenumber" v="1354"/>
    <tag k="addr:street" v="Prospect Rock Road"/>
    <tag k="addr:state" v="VT"/>
    <tag k="ref:vcgi:esiteid" v="137861"/>
  </node>
  <node id="-293" visible="true" lat="44.65745544" lon="-72.72559365">
    <tag k="addr:city" v="Johnson"/>
    <tag k="addr:housenumber" v="1471"/>
    <tag k="addr:street" v="Prospect Rock Road"/>
    <tag k="addr:state" v="VT"/>
    <tag k="ref:vcgi:esiteid" v="137879"/>
  </node>
  <node id="-316" visible="true" lat="44.6559906" lon="-72.61872109">
    <tag k="addr:city" v="Johnson"/>
    <tag k="addr:housenumber" v="883"/>
    <tag k="addr:street" v="Wilson Road"/>
    <tag k="addr:state" v="VT"/>
    <tag k="ref:vcgi:esiteid" v="137902"/>
  </node>
  <node id="-322" visible="true" lat="44.65495682" lon="-72.6759034">
    <tag k="addr:city" v="Johnson"/>
    <tag k="addr:housenumber" v="338"/>
    <tag k="addr:street" v="Provoncha Drive"/>
    <tag k="addr:state" v="VT"/>
    <tag k="ref:vcgi:esiteid" v="137908"/>
  </node>
  <node id="-323" visible="true" lat="44.65497971" lon="-72.63098153">
    <tag k="addr:city" v="Johnson"/>
    <tag k="addr:housenumber" v="2956"/>
    <tag k="addr:street" v="Vermont Route 100C"/>
    <tag k="addr:state" v="VT"/>
    <tag k="ref:vcgi:esiteid" v="137909"/>
  </node>
  <node id="-331" visible="true" lat="44.65449794" lon="-72.62563583">
    <tag k="addr:city" v="Johnson"/>
    <tag k="addr:housenumber" v="123"/>
    <tag k="addr:street" v="Sunset Drive"/>
    <tag k="addr:state" v="VT"/>
    <tag k="ref:vcgi:esiteid" v="137917"/>
  </node>
  <node id="-336" visible="true" lat="44.65307236" lon="-72.6278077">
    <tag k="addr:city" v="Johnson"/>
    <tag k="addr:housenumber" v="203"/>
    <tag k="addr:street" v="Wilson Road"/>
    <tag k="addr:state" v="VT"/>
    <tag k="ref:vcgi:esiteid" v="137922"/>
  </node>
  <node id="-367" visible="true" lat="44.65147275" lon="-72.61883616">
    <tag k="addr:city" v="Johnson"/>
    <tag k="addr:housenumber" v="141"/>
    <tag k="addr:street" v="Gihon Lane"/>
    <tag k="addr:state" v="VT"/>
    <tag k="ref:vcgi:esiteid" v="137953"/>
  </node>
  <node id="-384" visible="true" lat="44.65039978" lon="-72.63214339">
    <tag k="addr:city" v="Johnson"/>
    <tag k="addr:housenumber" v="98"/>
    <tag k="addr:street" v="Whitcomb Island Road"/>
    <tag k="addr:state" v="VT"/>
    <tag k="ref:vcgi:esiteid" v="137970"/>
  </node>
  <node id="-385" visible="true" lat="44.65043232" lon="-72.62774479">
    <tag k="addr:city" v="Johnson"/>
    <tag k="addr:housenumber" v="155"/>
    <tag k="addr:street" v="Wood Drive"/>
    <tag k="addr:state" v="VT"/>
    <tag k="ref:vcgi:esiteid" v="137971"/>
  </node>
  <node id="-395" visible="true" lat="44.64899809" lon="-72.75237352">
    <tag k="addr:city" v="Johnson"/>
    <tag k="addr:housenumber" v="23"/>
    <tag k="addr:street" v="Hillcrest Drive"/>
    <tag k="addr:state" v="VT"/>
    <tag k="ref:vcgi:esiteid" v="137981"/>
  </node>
  <node id="-398" visible="true" lat="44.64911896" lon="-72.63883588">
    <tag k="addr:city" v="Johnson"/>
    <tag k="addr:housenumber" v="2250"/>
    <tag k="addr:street" v="Vermont Route 100C"/>
    <tag k="addr:state" v="VT"/>
    <tag k="ref:vcgi:esiteid" v="137984"/>
  </node>
  <node id="-404" visible="true" lat="44.64792474" lon="-72.73676424">
    <tag k="addr:city" v="Johnson"/>
    <tag k="addr:housenumber" v="2548"/>
    <tag k="addr:street" v="Vermont Route 15 West"/>
    <tag k="addr:state" v="VT"/>
    <tag k="ref:vcgi:esiteid" v="137990"/>
  </node>
  <node id="-415" visible="true" lat="44.64693471" lon="-72.68163819">
    <tag k="addr:city" v="Johnson"/>
    <tag k="addr:housenumber" v="903"/>
    <tag k="addr:street" v="Gould Hill"/>
    <tag k="addr:state" v="VT"/>
    <tag k="ref:vcgi:esiteid" v="138001"/>
  </node>
  <node id="-429" visible="true" lat="44.64574509" lon="-72.68603927">
    <tag k="addr:city" v="Johnson"/>
    <tag k="addr:housenumber" v="697"/>
    <tag k="addr:street" v="Gould Hill"/>
    <tag k="addr:state" v="VT"/>
    <tag k="ref:vcgi:esiteid" v="138016"/>
  </node>
  <node id="-435" visible="true" lat="44.64492766" lon="-72.67682347">
    <tag k="addr:city" v="Johnson"/>
    <tag k="addr:housenumber" v="570"/>
    <tag k="addr:street" v="Clay Hill"/>
    <tag k="addr:state" v="VT"/>
    <tag k="ref:vcgi:esiteid" v="138022"/>
  </node>
  <node id="-436" visible="true" lat="44.64494065" lon="-72.67595536">
    <tag k="addr:city" v="Johnson"/>
    <tag k="addr:housenumber" v="542"/>
    <tag k="addr:street" v="Clay Hill"/>
    <tag k="addr:state" v="VT"/>
    <tag k="ref:vcgi:esiteid" v="138023"/>
  </node>
  <node id="-437" visible="true" lat="44.6449814" lon="-72.72779107">
    <tag k="addr:city" v="Johnson"/>
    <tag k="addr:housenumber" v="2042"/>
    <tag k="addr:street" v="Vermont Route 15 West"/>
    <tag k="addr:state" v="VT"/>
    <tag k="ref:vcgi:esiteid" v="138024"/>
  </node>
  <node id="-446" visible="true" lat="44.64423768" lon="-72.67683178">
    <tag k="addr:city" v="Johnson"/>
    <tag k="addr:housenumber" v="532"/>
    <tag k="addr:street" v="Clay Hill"/>
    <tag k="addr:state" v="VT"/>
    <tag k="ref:vcgi:esiteid" v="138033"/>
  </node>
  <node id="-450" visible="true" lat="44.64419556" lon="-72.65242013">
    <tag k="addr:city" v="Johnson"/>
    <tag k="addr:housenumber" v="115"/>
    <tag k="addr:street" v="Hoag Road"/>
    <tag k="addr:state" v="VT"/>
    <tag k="ref:vcgi:esiteid" v="138037"/>
  </node>
  <node id="-452" visible="true" lat="44.64387629" lon="-72.70559053">
    <tag k="addr:city" v="Johnson"/>
    <tag k="addr:housenumber" v="880"/>
    <tag k="addr:street" v="Vermont Route 15 West"/>
    <tag k="addr:state" v="VT"/>
    <tag k="ref:vcgi:esiteid" v="138039"/>
  </node>
  <node id="-495" visible="true" lat="44.64161323" lon="-72.68265929">
    <tag k="addr:city" v="Johnson"/>
    <tag k="addr:housenumber" v="368"/>
    <tag k="addr:street" v="Gould Hill"/>
    <tag k="addr:state" v="VT"/>
    <tag k="ref:vcgi:esiteid" v="138082"/>
  </node>
  <node id="-520" visible="true" lat="44.63983037" lon="-72.70051546">
    <tag k="addr:city" v="Johnson"/>
    <tag k="addr:housenumber" v="527"/>
    <tag k="addr:street" v="Vermont Route 15 West"/>
    <tag k="addr:state" v="VT"/>
    <tag k="ref:vcgi:esiteid" v="138107"/>
  </node>
  <node id="-524" visible="true" lat="44.63969421" lon="-72.6656495">
    <tag k="addr:city" v="Johnson"/>
    <tag k="addr:housenumber" v="723"/>
    <tag k="addr:street" v="Vermont Route 100C"/>
    <tag k="addr:state" v="VT"/>
    <tag k="ref:vcgi:esiteid" v="138111"/>
  </node>
  <node id="-533" visible="true" lat="44.63897156" lon="-72.65905919">
    <tag k="addr:city" v="Johnson"/>
    <tag k="addr:housenumber" v="1026"/>
    <tag k="addr:street" v="Vermont Route 100C"/>
    <tag k="addr:state" v="VT"/>
    <tag k="ref:vcgi:esiteid" v="138120"/>
  </node>
  <node id="-534" visible="true" lat="44.63911826" lon="-72.69960184">
    <tag k="addr:city" v="Johnson"/>
    <tag k="addr:housenumber" v="453"/>
    <tag k="addr:street" v="Vermont Route 15 West"/>
    <tag k="addr:state" v="VT"/>
    <tag k="ref:vcgi:esiteid" v="138121"/>
  </node>
  <node id="-540" visible="true" lat="44.6386795" lon="-72.67640694">
    <tag k="addr:city" v="Johnson"/>
    <tag k="addr:housenumber" v="155"/>
    <tag k="addr:street" v="College Hill"/>
    <tag k="addr:state" v="VT"/>
    <tag k="ref:vcgi:esiteid" v="138127"/>
  </node>
  <node id="-557" visible="true" lat="44.63719375" lon="-72.67405769">
    <tag k="addr:city" v="Johnson"/>
    <tag k="addr:housenumber" v="14"/>
    <tag k="addr:street" v="Mack Mudgett Drive"/>
    <tag k="addr:state" v="VT"/>
    <tag k="ref:vcgi:esiteid" v="138146"/>
  </node>
  <node id="-565" visible="true" lat="44.63686371" lon="-72.67678841">
    <tag k="addr:city" v="Johnson"/>
    <tag k="addr:housenumber" v="55"/>
    <tag k="addr:street" v="School Street"/>
    <tag k="addr:state" v="VT"/>
    <tag k="ref:vcgi:esiteid" v="138156"/>
  </node>
  <node id="-572" visible="true" lat="44.6368057" lon="-72.67614596">
    <tag k="addr:city" v="Johnson"/>
    <tag k="addr:housenumber" v="73"/>
    <tag k="addr:street" v="School Street"/>
    <tag k="addr:state" v="VT"/>
    <tag k="ref:vcgi:esiteid" v="138164"/>
  </node>
  <node id="-583" visible="true" lat="44.63629157" lon="-72.67531964">
    <tag k="addr:city" v="Johnson"/>
    <tag k="addr:housenumber" v="136"/>
    <tag k="addr:street" v="School Street"/>
    <tag k="addr:state" v="VT"/>
    <tag k="ref:vcgi:esiteid" v="138176"/>
  </node>
  <node id="-585" visible="true" lat="44.63650213" lon="-72.67837997">
    <tag k="addr:city" v="Johnson"/>
    <tag k="addr:housenumber" v="113"/>
    <tag k="addr:street" v="Pearl Street"/>
    <tag k="addr:state" v="VT"/>
    <tag k="ref:vcgi:esiteid" v="138180"/>
  </node>
  <node id="-595" visible="true" lat="44.63618851" lon="-72.69235238">
    <tag k="addr:city" v="Johnson"/>
    <tag k="addr:housenumber" v="4"/>
    <tag k="addr:street" v="Vermont Route 15 West"/>
    <tag k="addr:state" v="VT"/>
    <tag k="ref:vcgi:esiteid" v="138193"/>
  </node>
  <node id="-604" visible="true" lat="44.63605519" lon="-72.69683981">
    <tag k="addr:city" v="Johnson"/>
    <tag k="addr:housenumber" v="193"/>
    <tag k="addr:street" v="Vermont Route 15 West"/>
    <tag k="addr:state" v="VT"/>
    <tag k="ref:vcgi:esiteid" v="138202"/>
  </node>
  <node id="-611" visible="true" lat="44.63593292" lon="-72.68587502">
    <tag k="addr:city" v="Johnson"/>
    <tag k="addr:housenumber" v="343"/>
    <tag k="addr:street" v="Lower Main Street West"/>
    <tag k="addr:state" v="VT"/>
    <tag k="ref:vcgi:esiteid" v="138209"/>
  </node>
  <node id="-616" visible="true" lat="44.63585175" lon="-72.68030681">
    <tag k="addr:city" v="Johnson"/>
    <tag k="addr:housenumber" v="66"/>
    <tag k="addr:street" v="Lower Main Street West"/>
    <tag k="addr:state" v="VT"/>
    <tag k="ref:vcgi:esiteid" v="138215"/>
  </node>
  <node id="-618" visible="true" lat="44.63566912" lon="-72.69194269">
    <tag k="addr:city" v="Johnson"/>
    <tag k="addr:housenumber" v="13"/>
    <tag k="addr:street" v="Center Street"/>
    <tag k="addr:state" v="VT"/>
    <tag k="ref:vcgi:esiteid" v="138218"/>
  </node>
  <node id="-619" visible="true" lat="44.63567806" lon="-72.69162058">
    <tag k="addr:city" v="Johnson"/>
    <tag k="addr:housenumber" v="16"/>
    <tag k="addr:street" v="Park Street"/>
    <tag k="addr:state" v="VT"/>
    <tag k="ref:vcgi:esiteid" v="138219"/>
  </node>
  <node id="-626" visible="true" lat="44.63554349" lon="-72.69196021">
    <tag k="addr:city" v="Johnson"/>
    <tag k="addr:housenumber" v="21"/>
    <tag k="addr:street" v="Center Street"/>
    <tag k="addr:state" v="VT"/>
    <tag k="ref:vcgi:esiteid" v="138227"/>
  </node>
  <node id="-628" visible="true" lat="44.63554922" lon="-72.69161827">
    <tag k="addr:city" v="Johnson"/>
    <tag k="addr:housenumber" v="24"/>
    <tag k="addr:street" v="Park Street"/>
    <tag k="addr:state" v="VT"/>
    <tag k="ref:vcgi:esiteid" v="138229"/>
  </node>
  <node id="-630" visible="true" lat="44.63550757" lon="-72.68190358">
    <tag k="addr:city" v="Johnson"/>
    <tag k="addr:housenumber" v="117"/>
    <tag k="addr:street" v="Lower Main Street West"/>
    <tag k="addr:state" v="VT"/>
    <tag k="ref:vcgi:esiteid" v="138231"/>
  </node>
  <node id="-632" visible="true" lat="44.6354367" lon="-72.69194268">
    <tag k="addr:city" v="Johnson"/>
    <tag k="addr:housenumber" v="29"/>
    <tag k="addr:street" v="Center Street"/>
    <tag k="addr:state" v="VT"/>
    <tag k="ref:vcgi:esiteid" v="138233"/>
  </node>
  <node id="-633" visible="true" lat="44.63544577" lon="-72.68170903">
    <tag k="addr:city" v="Johnson"/>
    <tag k="addr:housenumber" v="115"/>
    <tag k="addr:street" v="Lower Main Street West"/>
    <tag k="addr:state" v="VT"/>
    <tag k="ref:vcgi:esiteid" v="138234"/>
  </node>
  <node id="-635" visible="true" lat="44.63543096" lon="-72.69161064">
    <tag k="addr:city" v="Johnson"/>
    <tag k="addr:housenumber" v="32"/>
    <tag k="addr:street" v="Park Street"/>
    <tag k="addr:state" v="VT"/>
    <tag k="ref:vcgi:esiteid" v="138236"/>
  </node>
  <node id="-642" visible="true" lat="44.63522708" lon="-72.67972639">
    <tag k="addr:city" v="Johnson"/>
    <tag k="addr:housenumber" v="21"/>
    <tag k="addr:street" v="Lower Main Street West"/>
    <tag k="addr:state" v="VT"/>
    <tag k="ref:vcgi:esiteid" v="138243"/>
  </node>
  <node id="-656" visible="true" lat="44.634986" lon="-72.67927177">
    <tag k="addr:city" v="Johnson"/>
    <tag k="addr:housenumber" v="2"/>
    <tag k="addr:street" v="Lower Main Street East"/>
    <tag k="addr:state" v="VT"/>
    <tag k="ref:vcgi:esiteid" v="138258"/>
  </node>
  <node id="-681" visible="true" lat="44.63462438" lon="-72.67852479">
    <tag k="addr:city" v="Johnson"/>
    <tag k="addr:housenumber" v="48"/>
    <tag k="addr:street" v="Lower Main Street East"/>
    <tag k="addr:state" v="VT"/>
    <tag k="ref:vcgi:esiteid" v="138285"/>
  </node>
  <node id="-691" visible="true" lat="44.63447479" lon="-72.706848">
    <tag k="addr:city" v="Johnson"/>
    <tag k="addr:housenumber" v="435"/>
    <tag k="addr:street" v="Lendway Lane"/>
    <tag k="addr:state" v="VT"/>
    <tag k="ref:vcgi:esiteid" v="138295"/>
  </node>
  <node id="-693" visible="true" lat="44.63443375" lon="-72.6768876">
    <tag k="addr:city" v="Johnson"/>
    <tag k="addr:housenumber" v="131"/>
    <tag k="addr:street" v="Lower Main Street East"/>
    <tag k="addr:state" v="VT"/>
    <tag k="ref:vcgi:esiteid" v="138297"/>
  </node>
  <node id="-700" visible="true" lat="44.63428284" lon="-72.70642905">
    <tag k="addr:city" v="Johnson"/>
    <tag k="addr:housenumber" v="415"/>
    <tag k="addr:street" v="Lendway Lane"/>
    <tag k="addr:state" v="VT"/>
    <tag k="ref:vcgi:esiteid" v="138305"/>
  </node>
  <node id="-708" visible="true" lat="44.63421126" lon="-72.68263808">
    <tag k="addr:city" v="Johnson"/>
    <tag k="addr:housenumber" v="152"/>
    <tag k="addr:street" v="Railroad Street"/>
    <tag k="addr:state" v="VT"/>
    <tag k="ref:vcgi:esiteid" v="138313"/>
  </node>
  <node id="-714" visible="true" lat="44.63384151" lon="-72.67535862">
    <tag k="addr:city" v="Johnson"/>
    <tag k="addr:housenumber" v="52"/>
    <tag k="addr:street" v="Vermont Route 100C"/>
    <tag k="addr:state" v="VT"/>
    <tag k="ref:vcgi:esiteid" v="138322"/>
  </node>
  <node id="-719" visible="true" lat="44.63392725" lon="-72.67482262">
    <tag k="addr:city" v="Johnson"/>
    <tag k="addr:housenumber" v="76"/>
    <tag k="addr:street" v="Vermont Route 100C"/>
    <tag k="addr:state" v="VT"/>
    <tag k="ref:vcgi:esiteid" v="138328"/>
  </node>
  <node id="-721" visible="true" lat="44.63365936" lon="-72.67591866">
    <tag k="addr:city" v="Johnson"/>
    <tag k="addr:housenumber" v="201"/>
    <tag k="addr:street" v="Lower Main Street East"/>
    <tag k="addr:state" v="VT"/>
    <tag k="ref:vcgi:esiteid" v="138330"/>
  </node>
  <node id="-724" visible="true" lat="44.63355255" lon="-72.67584237">
    <tag k="addr:city" v="Johnson"/>
    <tag k="addr:housenumber" v="209"/>
    <tag k="addr:street" v="Lower Main Street East"/>
    <tag k="addr:state" v="VT"/>
    <tag k="ref:vcgi:esiteid" v="138333"/>
  </node>
  <node id="-725" visible="true" lat="44.63352203" lon="-72.67543038">
    <tag k="addr:city" v="Johnson"/>
    <tag k="addr:housenumber" v="21"/>
    <tag k="addr:street" v="Saint Johns Street"/>
    <tag k="addr:state" v="VT"/>
    <tag k="ref:vcgi:esiteid" v="138334"/>
  </node>
  <node id="-730" visible="true" lat="44.63352965" lon="-72.67334125">
    <tag k="addr:city" v="Johnson"/>
    <tag k="addr:housenumber" v="69"/>
    <tag k="addr:street" v="Saint Johns Street"/>
    <tag k="addr:state" v="VT"/>
    <tag k="ref:vcgi:esiteid" v="138339"/>
  </node>
  <node id="-734" visible="true" lat="44.63343333" lon="-72.67406186">
    <tag k="addr:city" v="Johnson"/>
    <tag k="addr:housenumber" v="89"/>
    <tag k="addr:street" v="Saint Johns Street"/>
    <tag k="addr:state" v="VT"/>
    <tag k="ref:vcgi:esiteid" v="138343"/>
  </node>
  <node id="-738" visible="true" lat="44.63315467" lon="-72.68316388">
    <tag k="addr:city" v="Johnson"/>
    <tag k="addr:housenumber" v="213"/>
    <tag k="addr:street" v="Railroad Street"/>
    <tag k="addr:state" v="VT"/>
    <tag k="ref:vcgi:esiteid" v="138347"/>
  </node>
  <node id="-739" visible="true" lat="44.63326729" lon="-72.67404669">
    <tag k="addr:city" v="Johnson"/>
    <tag k="addr:housenumber" v="99"/>
    <tag k="addr:street" v="Saint Johns Street"/>
    <tag k="addr:state" v="VT"/>
    <tag k="ref:vcgi:esiteid" v="138348"/>
  </node>
  <node id="-744" visible="true" lat="44.63296214" lon="-72.67577225">
    <tag k="addr:city" v="Johnson"/>
    <tag k="addr:housenumber" v="240"/>
    <tag k="addr:street" v="Lower Main Street East"/>
    <tag k="addr:state" v="VT"/>
    <tag k="ref:vcgi:esiteid" v="138353"/>
  </node>
  <node id="-748" visible="true" lat="44.63304475" lon="-72.67381457">
    <tag k="addr:city" v="Johnson"/>
    <tag k="addr:housenumber" v="115"/>
    <tag k="addr:street" v="Saint Johns Street"/>
    <tag k="addr:state" v="VT"/>
    <tag k="ref:vcgi:esiteid" v="138357"/>
  </node>
  <node id="-752" visible="true" lat="44.63286109" lon="-72.67569779">
    <tag k="addr:city" v="Johnson"/>
    <tag k="addr:housenumber" v="252"/>
    <tag k="addr:street" v="Lower Main Street East"/>
    <tag k="addr:state" v="VT"/>
    <tag k="ref:vcgi:esiteid" v="138361"/>
  </node>
  <node id="-762" visible="true" lat="44.63276886" lon="-72.67562683">
    <tag k="addr:city" v="Johnson"/>
    <tag k="addr:housenumber" v="276"/>
    <tag k="addr:street" v="Lower Main Street East"/>
    <tag k="addr:state" v="VT"/>
    <tag k="ref:vcgi:esiteid" v="138372"/>
  </node>
  <node id="-763" visible="true" lat="44.63267986" lon="-72.68327263">
    <tag k="addr:city" v="Johnson"/>
    <tag k="addr:housenumber" v="31"/>
    <tag k="addr:street" v="Clark Avenue"/>
    <tag k="addr:state" v="VT"/>
    <tag k="ref:vcgi:esiteid" v="138373"/>
  </node>
  <node id="-765" visible="true" lat="44.63258743" lon="-72.67369851">
    <tag k="addr:city" v="Johnson"/>
    <tag k="addr:housenumber" v="117"/>
    <tag k="addr:street" v="Saint Johns Street"/>
    <tag k="addr:state" v="VT"/>
    <tag k="ref:vcgi:esiteid" v="138375"/>
  </node>
  <node id="-771" visible="true" lat="44.63242729" lon="-72.68282521">
    <tag k="addr:city" v="Johnson"/>
    <tag k="addr:housenumber" v="59"/>
    <tag k="addr:street" v="Clark Avenue"/>
    <tag k="addr:state" v="VT"/>
    <tag k="ref:vcgi:esiteid" v="138381"/>
  </node>
  <node id="-790" visible="true" lat="44.63140411" lon="-72.68777691">
    <tag k="addr:city" v="Johnson"/>
    <tag k="addr:housenumber" v="13"/>
    <tag k="addr:street" v="Upper French Hill Road"/>
    <tag k="addr:state" v="VT"/>
    <tag k="ref:vcgi:esiteid" v="138400"/>
  </node>
  <node id="-804" visible="true" lat="44.63088608" lon="-72.64822396">
    <tag k="addr:city" v="Johnson"/>
    <tag k="addr:housenumber" v="975"/>
    <tag k="addr:street" v="Rocky Road"/>
    <tag k="addr:state" v="VT"/>
    <tag k="ref:vcgi:esiteid" v="138414"/>
  </node>
  <node id="-822" visible="true" lat="44.6299033" lon="-72.67530774">
    <tag k="addr:city" v="Johnson"/>
    <tag k="addr:housenumber" v="232"/>
    <tag k="addr:street" v="Katy Win Road"/>
    <tag k="addr:state" v="VT"/>
    <tag k="ref:vcgi:esiteid" v="138433"/>
  </node>
  <node id="-875" visible="true" lat="44.62483978" lon="-72.6781083">
    <tag k="addr:city" v="Johnson"/>
    <tag k="addr:housenumber" v="1945"/>
    <tag k="addr:street" v="Vermont Route 15 East"/>
    <tag k="addr:state" v="VT"/>
    <tag k="ref:vcgi:esiteid" v="138487"/>
  </node>
  <node id="-876" visible="true" lat="44.6246109" lon="-72.67626961">
    <tag k="addr:city" v="Johnson"/>
    <tag k="addr:housenumber" v="1912"/>
    <tag k="addr:street" v="Vermont Route 15 East"/>
    <tag k="addr:state" v="VT"/>
    <tag k="ref:vcgi:esiteid" v="138488"/>
  </node>
  <node id="-879" visible="true" lat="44.62407289" lon="-72.65558599">
    <tag k="addr:city" v="Johnson"/>
    <tag k="addr:housenumber" v="857"/>
    <tag k="addr:street" v="Maple Hill Road"/>
    <tag k="addr:state" v="VT"/>
    <tag k="ref:vcgi:esiteid" v="138491"/>
  </node>
  <node id="-928" visible="true" lat="44.61391548" lon="-72.65203607">
    <tag k="addr:city" v="Johnson"/>
    <tag k="addr:housenumber" v="412"/>
    <tag k="addr:street" v="Vermont Route 15 East"/>
    <tag k="addr:state" v="VT"/>
    <tag k="ref:vcgi:esiteid" v="138541"/>
  </node>
  <node id="-932" visible="true" lat="44.61244054" lon="-72.69862946">
    <tag k="addr:city" v="Johnson"/>
    <tag k="addr:housenumber" v="105"/>
    <tag k="addr:street" v="Reservoir Road"/>
    <tag k="addr:state" v="VT"/>
    <tag k="ref:vcgi:esiteid" v="138545"/>
  </node>
  <node id="-933" visible="true" lat="44.61258202" lon="-72.69791205">
    <tag k="addr:city" v="Johnson"/>
    <tag k="addr:housenumber" v="1566"/>
    <tag k="addr:street" v="Upper French Hill Road"/>
    <tag k="addr:state" v="VT"/>
    <tag k="ref:vcgi:esiteid" v="138546"/>
  </node>
  <node id="-934" visible="true" lat="44.61241913" lon="-72.65372475">
    <tag k="addr:city" v="Johnson"/>
    <tag k="addr:housenumber" v="426"/>
    <tag k="addr:street" v="Vermont Route 15 East"/>
    <tag k="addr:state" v="VT"/>
    <tag k="ref:vcgi:esiteid" v="138547"/>
  </node>
  <node id="-938" visible="true" lat="44.61167526" lon="-72.70151528">
    <tag k="addr:city" v="Johnson"/>
    <tag k="addr:housenumber" v="266"/>
    <tag k="addr:street" v="Reservoir Road"/>
    <tag k="addr:state" v="VT"/>
    <tag k="ref:vcgi:esiteid" v="138551"/>
  </node>
  <node id="-961" visible="true" lat="44.60954684" lon="-72.7045469">
    <tag k="addr:city" v="Johnson"/>
    <tag k="addr:housenumber" v="546"/>
    <tag k="addr:street" v="Reservoir Road"/>
    <tag k="addr:state" v="VT"/>
    <tag k="ref:vcgi:esiteid" v="138576"/>
  </node>
  <node id="-995" visible="true" lat="44.66267594" lon="-72.62859037">
    <tag k="addr:city" v="Johnson"/>
    <tag k="addr:housenumber" v="115"/>
    <tag k="addr:street" v="Dukes Road"/>
    <tag k="addr:state" v="VT"/>
    <tag k="ref:vcgi:esiteid" v="138610"/>
  </node>
  <node id="-997" visible="true" lat="44.65155617" lon="-72.67715685">
    <tag k="addr:city" v="Johnson"/>
    <tag k="addr:housenumber" v="1036"/>
    <tag k="addr:street" v="Clay Hill"/>
    <tag k="addr:state" v="VT"/>
    <tag k="ref:vcgi:esiteid" v="138612"/>
  </node>
  <node id="-998" visible="true" lat="44.69653639" lon="-72.69119568">
    <tag k="addr:city" v="Johnson"/>
    <tag k="addr:housenumber" v="775"/>
    <tag k="addr:street" v="Basin Road"/>
    <tag k="addr:state" v="VT"/>
    <tag k="ref:vcgi:esiteid" v="138613"/>
  </node>
  <node id="-999" visible="true" lat="44.69324772" lon="-72.7008389">
    <tag k="addr:city" v="Johnson"/>
    <tag k="addr:housenumber" v="1975"/>
    <tag k="addr:street" v="Codding Hollow Road"/>
    <tag k="addr:state" v="VT"/>
    <tag k="ref:vcgi:esiteid" v="138614"/>
  </node>
  <node id="-1001" visible="true" lat="44.68111801" lon="-72.68406685">
    <tag k="addr:city" v="Johnson"/>
    <tag k="addr:housenumber" v="740"/>
    <tag k="addr:street" v="Codding Hollow Road"/>
    <tag k="addr:state" v="VT"/>
    <tag k="ref:vcgi:esiteid" v="138616"/>
  </node>
  <node id="-1003" visible="true" lat="44.66718674" lon="-72.62328347">
    <tag k="addr:city" v="Johnson"/>
    <tag k="addr:housenumber" v="560"/>
    <tag k="addr:street" v="Ober Hill Road"/>
    <tag k="addr:state" v="VT"/>
    <tag k="ref:vcgi:esiteid" v="138618"/>
  </node>
  <node id="-1004" visible="true" lat="44.67761563" lon="-72.60765091">
    <tag k="addr:city" v="Johnson"/>
    <tag k="addr:housenumber" v="144"/>
    <tag k="addr:street" v="Mudgett Hill"/>
    <tag k="addr:state" v="VT"/>
    <tag k="ref:vcgi:esiteid" v="138619"/>
  </node>
  <node id="-1012" visible="true" lat="44.6576004" lon="-72.69313821">
    <tag k="addr:city" v="Johnson"/>
    <tag k="addr:housenumber" v="1220"/>
    <tag k="addr:street" v="Foote Brook Road"/>
    <tag k="addr:state" v="VT"/>
    <tag k="ref:vcgi:esiteid" v="138627"/>
  </node>
  <node id="-1019" visible="true" lat="44.64968872" lon="-72.6584855">
    <tag k="addr:city" v="Johnson"/>
    <tag k="addr:housenumber" v="600"/>
    <tag k="addr:street" v="Hoag Road"/>
    <tag k="addr:state" v="VT"/>
    <tag k="ref:vcgi:esiteid" v="138634"/>
  </node>
  <node id="-1044" visible="true" lat="44.63619614" lon="-72.6499482">
    <tag k="addr:city" v="Johnson"/>
    <tag k="addr:housenumber" v="590"/>
    <tag k="addr:street" v="Rocky Road"/>
    <tag k="addr:state" v="VT"/>
    <tag k="ref:vcgi:esiteid" v="138659"/>
  </node>
  <node id="-1047" visible="true" lat="44.60717077" lon="-72.6839233">
    <tag k="addr:city" v="Johnson"/>
    <tag k="addr:housenumber" v="69"/>
    <tag k="addr:street" v="Ridge Road"/>
    <tag k="addr:state" v="VT"/>
    <tag k="ref:vcgi:esiteid" v="138662"/>
  </node>
  <node id="-1068" visible="true" lat="44.63680649" lon="-72.68411263">
    <tag k="addr:city" v="Johnson"/>
    <tag k="addr:housenumber" v="43"/>
    <tag k="addr:street" v="Gould Hill"/>
    <tag k="addr:state" v="VT"/>
    <tag k="ref:vcgi:esiteid" v="138683"/>
  </node>
  <node id="-1073" visible="true" lat="44.63339233" lon="-72.67594918">
    <tag k="addr:city" v="Johnson"/>
    <tag k="addr:housenumber" v="214"/>
    <tag k="addr:street" v="Lower Main Street East"/>
    <tag k="addr:state" v="VT"/>
    <tag k="ref:vcgi:esiteid" v="138688"/>
  </node>
  <node id="-1074" visible="true" lat="44.63612394" lon="-72.68012301">
    <tag k="addr:city" v="Johnson"/>
    <tag k="addr:housenumber" v="68"/>
    <tag k="addr:street" v="Lower Main Street West"/>
    <tag k="addr:state" v="VT"/>
    <tag k="ref:vcgi:esiteid" v="138689"/>
  </node>
  <node id="-1100" visible="true" lat="44.6369527" lon="-72.65769157">
    <tag k="addr:city" v="Johnson"/>
    <tag k="addr:housenumber" v="320"/>
    <tag k="addr:street" v="Sinclair Road"/>
    <tag k="addr:state" v="VT"/>
    <tag k="ref:vcgi:esiteid" v="138715"/>
  </node>
  <node id="-1102" visible="true" lat="44.63722891" lon="-72.66666394">
    <tag k="addr:city" v="Johnson"/>
    <tag k="addr:housenumber" v="100"/>
    <tag k="addr:street" v="Lambert Lane"/>
    <tag k="addr:state" v="VT"/>
    <tag k="ref:vcgi:esiteid" v="138717"/>
  </node>
  <node id="-1105" visible="true" lat="44.63817436" lon="-72.6600189">
    <tag k="addr:city" v="Johnson"/>
    <tag k="addr:housenumber" v="184"/>
    <tag k="addr:street" v="Sinclair Road"/>
    <tag k="addr:state" v="VT"/>
    <tag k="ref:vcgi:esiteid" v="138720"/>
  </node>
  <node id="-1114" visible="true" lat="44.6606636" lon="-72.62730416">
    <tag k="addr:city" v="Johnson"/>
    <tag k="addr:housenumber" v="80"/>
    <tag k="addr:street" v="Ober Hill Road"/>
    <tag k="addr:state" v="VT"/>
    <tag k="ref:vcgi:esiteid" v="138729"/>
  </node>
  <node id="-1117" visible="true" lat="44.6199379" lon="-72.65915688">
    <tag k="addr:city" v="Johnson"/>
    <tag k="addr:housenumber" v="1590"/>
    <tag k="addr:street" v="Collins Hill Road"/>
    <tag k="addr:state" v="VT"/>
    <tag k="ref:vcgi:esiteid" v="138732"/>
  </node>
  <node id="-1118" visible="true" lat="44.67758942" lon="-72.61180886">
    <tag k="addr:city" v="Johnson"/>
    <tag k="addr:housenumber" v="1571"/>
    <tag k="addr:street" v="Ober Hill Road"/>
    <tag k="addr:state" v="VT"/>
    <tag k="ref:vcgi:esiteid" v="138733"/>
  </node>
  <node id="-1122" visible="true" lat="44.63389737" lon="-72.6750697">
    <tag k="addr:city" v="Johnson"/>
    <tag k="addr:housenumber" v="54"/>
    <tag k="addr:street" v="Vermont Route 100C"/>
    <tag k="addr:state" v="VT"/>
    <tag k="ref:vcgi:esiteid" v="138737"/>
  </node>
  <node id="-1130" visible="true" lat="44.63301649" lon="-72.68189049">
    <tag k="addr:city" v="Johnson"/>
    <tag k="addr:housenumber" v="46"/>
    <tag k="addr:street" v="Lamoille View Drive"/>
    <tag k="addr:state" v="VT"/>
    <tag k="ref:vcgi:esiteid" v="138745"/>
  </node>
  <node id="-1140" visible="true" lat="44.63127646" lon="-72.69703866">
    <tag k="addr:city" v="Johnson"/>
    <tag k="addr:housenumber" v="460"/>
    <tag k="addr:street" v="Wescom Road"/>
    <tag k="addr:state" v="VT"/>
    <tag k="ref:vcgi:esiteid" v="138755"/>
  </node>
  <node id="-1145" visible="true" lat="44.60123062" lon="-72.6706086">
    <tag k="addr:city" v="Johnson"/>
    <tag k="addr:housenumber" v="980"/>
    <tag k="addr:street" v="Grow Road"/>
    <tag k="addr:state" v="VT"/>
    <tag k="ref:vcgi:esiteid" v="138760"/>
  </node>
  <node id="-1147" visible="true" lat="44.62990474" lon="-72.67546978">
    <tag k="addr:city" v="Johnson"/>
    <tag k="addr:housenumber" v="234"/>
    <tag k="addr:street" v="Katy Win Road"/>
    <tag k="addr:state" v="VT"/>
    <tag k="ref:vcgi:esiteid" v="138762"/>
  </node>
  <node id="-1149" visible="true" lat="44.63850833" lon="-72.66645088">
    <tag k="addr:city" v="Johnson"/>
    <tag k="addr:housenumber" v="65"/>
    <tag k="addr:street" v="Nielsen Lane"/>
    <tag k="addr:state" v="VT"/>
    <tag k="ref:vcgi:esiteid" v="138764"/>
  </node>
  <node id="-1150" visible="true" lat="44.67782531" lon="-72.70326735">
    <tag k="addr:city" v="Johnson"/>
    <tag k="addr:housenumber" v="33"/>
    <tag k="addr:street" v="Witherell Road"/>
    <tag k="addr:state" v="VT"/>
    <tag k="ref:vcgi:esiteid" v="138765"/>
  </node>
  <node id="-1153" visible="true" lat="44.64439955" lon="-72.7291217">
    <tag k="addr:city" v="Johnson"/>
    <tag k="addr:housenumber" v="2001"/>
    <tag k="addr:street" v="Vermont Route 15 West"/>
    <tag k="addr:state" v="VT"/>
    <tag k="ref:vcgi:esiteid" v="138768"/>
  </node>
  <node id="-1157" visible="true" lat="44.65019989" lon="-72.62451943">
    <tag k="addr:city" v="Johnson"/>
    <tag k="addr:housenumber" v="410"/>
    <tag k="addr:street" v="Wilson Road"/>
    <tag k="addr:state" v="VT"/>
    <tag k="ref:vcgi:esiteid" v="138772"/>
  </node>
  <node id="-1161" visible="true" lat="44.59914885" lon="-72.67954156">
    <tag k="addr:city" v="Johnson"/>
    <tag k="addr:housenumber" v="2945"/>
    <tag k="addr:street" v="Upper French Hill Road"/>
    <tag k="addr:state" v="VT"/>
    <tag k="ref:vcgi:esiteid" v="138776"/>
  </node>
  <node id="-1163" visible="true" lat="44.66001176" lon="-72.62830171">
    <tag k="addr:city" v="Johnson"/>
    <tag k="addr:housenumber" v="5"/>
    <tag k="addr:street" v="Ober Hill Road"/>
    <tag k="addr:state" v="VT"/>
    <tag k="ref:vcgi:esiteid" v="138778"/>
  </node>
  <node id="-1177" visible="true" lat="44.64958676" lon="-72.62970797">
    <tag k="addr:city" v="Johnson"/>
    <tag k="addr:housenumber" v="296"/>
    <tag k="addr:street" v="Wood Drive"/>
    <tag k="addr:state" v="VT"/>
    <tag k="ref:vcgi:esiteid" v="138792"/>
  </node>
  <node id="-1198" visible="true" lat="44.64267529" lon="-72.68756153">
    <tag k="addr:city" v="Johnson"/>
    <tag k="addr:housenumber" v="35"/>
    <tag k="addr:street" v="Drag Lot"/>
    <tag k="addr:state" v="VT"/>
    <tag k="ref:vcgi:esiteid" v="138813"/>
  </node>
  <node id="-1204" visible="true" lat="44.65429751" lon="-72.63122445">
    <tag k="addr:city" v="Johnson"/>
    <tag k="addr:housenumber" v="2900"/>
    <tag k="addr:street" v="Vermont Route 100C"/>
    <tag k="addr:state" v="VT"/>
    <tag k="ref:vcgi:esiteid" v="138819"/>
  </node>
  <node id="-1210" visible="true" lat="44.6132254" lon="-72.6989973">
    <tag k="addr:city" v="Johnson"/>
    <tag k="addr:housenumber" v="122"/>
    <tag k="addr:street" v="Reservoir Road"/>
    <tag k="addr:state" v="VT"/>
    <tag k="ref:vcgi:esiteid" v="138825"/>
  </node>
  <node id="-1215" visible="true" lat="44.6309963" lon="-72.69096695">
    <tag k="addr:city" v="Johnson"/>
    <tag k="addr:housenumber" v="634"/>
    <tag k="addr:street" v="Railroad Street"/>
    <tag k="addr:state" v="VT"/>
    <tag k="ref:vcgi:esiteid" v="138830"/>
  </node>
  <node id="-1221" visible="true" lat="44.63262548" lon="-72.68858154">
    <tag k="addr:city" v="Johnson"/>
    <tag k="addr:housenumber" v="27"/>
    <tag k="addr:street" v="Still Road"/>
    <tag k="addr:state" v="VT"/>
    <tag k="ref:vcgi:esiteid" v="138836"/>
  </node>
  <node id="-1223" visible="true" lat="44.63335985" lon="-72.68870236">
    <tag k="addr:city" v="Johnson"/>
    <tag k="addr:housenumber" v="66"/>
    <tag k="addr:street" v="Still Road"/>
    <tag k="addr:state" v="VT"/>
    <tag k="ref:vcgi:esiteid" v="138838"/>
  </node>
  <node id="-1234" visible="true" lat="44.65357353" lon="-72.73446912">
    <tag k="addr:city" v="Johnson"/>
    <tag k="addr:housenumber" v="3011"/>
    <tag k="addr:street" v="Hogback Road"/>
    <tag k="addr:state" v="VT"/>
    <tag k="ref:vcgi:esiteid" v="138849"/>
  </node>
  <node id="-1237" visible="true" lat="44.63488805" lon="-72.67991258">
    <tag k="addr:city" v="Johnson"/>
    <tag k="addr:housenumber" v="19"/>
    <tag k="addr:street" v="Lower Main Street West"/>
    <tag k="addr:state" v="VT"/>
    <tag k="ref:vcgi:esiteid" v="138852"/>
  </node>
  <node id="-1245" visible="true" lat="44.6487826" lon="-72.74157185">
    <tag k="addr:city" v="Johnson"/>
    <tag k="addr:housenumber" v="2780"/>
    <tag k="addr:street" v="Vermont Route 15 West"/>
    <tag k="addr:state" v="VT"/>
    <tag k="ref:vcgi:esiteid" v="138860"/>
  </node>
  <node id="-1250" visible="true" lat="44.63256558" lon="-72.6889907">
    <tag k="addr:city" v="Johnson"/>
    <tag k="addr:housenumber" v="67"/>
    <tag k="addr:street" v="Still Road"/>
    <tag k="addr:state" v="VT"/>
    <tag k="ref:vcgi:esiteid" v="138865"/>
  </node>
  <node id="-1253" visible="true" lat="44.64635547" lon="-72.73739925">
    <tag k="addr:city" v="Johnson"/>
    <tag k="addr:housenumber" v="2507"/>
    <tag k="addr:street" v="Vermont Route 15 West"/>
    <tag k="addr:state" v="VT"/>
    <tag k="ref:vcgi:esiteid" v="138868"/>
  </node>
  <node id="-1254" visible="true" lat="44.65160227" lon="-72.62909315">
    <tag k="addr:city" v="Johnson"/>
    <tag k="addr:housenumber" v="124"/>
    <tag k="addr:street" v="Wood Drive Extension"/>
    <tag k="addr:state" v="VT"/>
    <tag k="ref:vcgi:esiteid" v="138869"/>
  </node>
  <node id="-1256" visible="true" lat="44.65229628" lon="-72.62256046">
    <tag k="addr:city" v="Johnson"/>
    <tag k="addr:housenumber" v="453"/>
    <tag k="addr:street" v="Wilson Road"/>
    <tag k="addr:state" v="VT"/>
    <tag k="ref:vcgi:esiteid" v="138871"/>
  </node>
  <node id="-1260" visible="true" lat="44.65987574" lon="-72.72733913">
    <tag k="addr:city" v="Johnson"/>
    <tag k="addr:housenumber" v="1470"/>
    <tag k="addr:street" v="Prospect Rock Road"/>
    <tag k="addr:state" v="VT"/>
    <tag k="ref:vcgi:esiteid" v="138875"/>
  </node>
  <node id="-1261" visible="true" lat="44.63416789" lon="-72.69198567">
    <tag k="addr:city" v="Johnson"/>
    <tag k="addr:housenumber" v="74"/>
    <tag k="addr:street" v="East Highland Drive"/>
    <tag k="addr:state" v="VT"/>
    <tag k="ref:vcgi:esiteid" v="138876"/>
  </node>
  <node id="-1262" visible="true" lat="44.6479366" lon="-72.73467149">
    <tag k="addr:city" v="Johnson"/>
    <tag k="addr:housenumber" v="2414"/>
    <tag k="addr:street" v="Vermont Route 15 West"/>
    <tag k="addr:state" v="VT"/>
    <tag k="ref:vcgi:esiteid" v="138877"/>
  </node>
  <node id="-1270" visible="true" lat="44.65366423" lon="-72.73297153">
    <tag k="addr:city" v="Johnson"/>
    <tag k="addr:housenumber" v="3121"/>
    <tag k="addr:street" v="Hogback Road"/>
    <tag k="addr:state" v="VT"/>
    <tag k="ref:vcgi:esiteid" v="138885"/>
  </node>
  <node id="-1281" visible="true" lat="44.64572826" lon="-72.73413661">
    <tag k="addr:city" v="Johnson"/>
    <tag k="addr:housenumber" v="2353"/>
    <tag k="addr:street" v="Vermont Route 15 West"/>
    <tag k="addr:state" v="VT"/>
    <tag k="ref:vcgi:esiteid" v="138896"/>
  </node>
  <node id="-1286" visible="true" lat="44.59514874" lon="-72.71107672">
    <tag k="addr:city" v="Johnson"/>
    <tag k="addr:housenumber" v="1638"/>
    <tag k="addr:street" v="Reservoir Road"/>
    <tag k="addr:state" v="VT"/>
    <tag k="ref:vcgi:esiteid" v="138901"/>
  </node>
  <node id="-1294" visible="true" lat="44.63445034" lon="-72.69639743">
    <tag k="addr:city" v="Johnson"/>
    <tag k="addr:housenumber" v="130"/>
    <tag k="addr:street" v="West Highland Drive"/>
    <tag k="addr:state" v="VT"/>
    <tag k="ref:vcgi:esiteid" v="138909"/>
  </node>
  <node id="-1301" visible="true" lat="44.61574684" lon="-72.6651783">
    <tag k="addr:city" v="Johnson"/>
    <tag k="addr:housenumber" v="250"/>
    <tag k="addr:street" v="Easy Street"/>
    <tag k="addr:state" v="VT"/>
    <tag k="ref:vcgi:esiteid" v="138916"/>
  </node>
  <node id="-1303" visible="true" lat="44.61235403" lon="-72.64790193">
    <tag k="addr:city" v="Johnson"/>
    <tag k="addr:housenumber" v="7"/>
    <tag k="addr:street" v="Kali Lane"/>
    <tag k="addr:state" v="VT"/>
    <tag k="ref:vcgi:esiteid" v="138918"/>
  </node>
  <node id="-1304" visible="true" lat="44.61277678" lon="-72.64809534">
    <tag k="addr:city" v="Johnson"/>
    <tag k="addr:housenumber" v="18"/>
    <tag k="addr:street" v="Kali Lane"/>
    <tag k="addr:state" v="VT"/>
    <tag k="ref:vcgi:esiteid" v="138919"/>
  </node>
  <node id="-1305" visible="true" lat="44.68073761" lon="-72.68743254">
    <tag k="addr:city" v="Johnson"/>
    <tag k="addr:housenumber" v="809"/>
    <tag k="addr:street" v="Codding Hollow Road"/>
    <tag k="addr:state" v="VT"/>
    <tag k="ref:vcgi:esiteid" v="138920"/>
  </node>
  <node id="-1310" visible="true" lat="44.6484707" lon="-72.63524334">
    <tag k="addr:city" v="Johnson"/>
    <tag k="addr:housenumber" v="45"/>
    <tag k="addr:street" v="Adam Court"/>
    <tag k="addr:state" v="VT"/>
    <tag k="ref:vcgi:esiteid" v="138925"/>
  </node>
  <node id="-1316" visible="true" lat="44.62683734" lon="-72.67851671">
    <tag k="addr:city" v="Johnson"/>
    <tag k="addr:housenumber" v="2033"/>
    <tag k="addr:street" v="Vermont Route 15 East"/>
    <tag k="addr:state" v="VT"/>
    <tag k="ref:vcgi:esiteid" v="306815"/>
  </node>
  <node id="-1320" visible="true" lat="44.60568909" lon="-72.69045698">
    <tag k="addr:city" v="Johnson"/>
    <tag k="addr:housenumber" v="2223"/>
    <tag k="addr:street" v="Upper French Hill Road"/>
    <tag k="addr:state" v="VT"/>
    <tag k="ref:vcgi:esiteid" v="306819"/>
  </node>
  <node id="-1321" visible="true" lat="44.59998009" lon="-72.6661606">
    <tag k="addr:city" v="Johnson"/>
    <tag k="addr:housenumber" v="1140"/>
    <tag k="addr:street" v="Grow Road"/>
    <tag k="addr:state" v="VT"/>
    <tag k="ref:vcgi:esiteid" v="306820"/>
  </node>
  <node id="-1331" visible="true" lat="44.63365527" lon="-72.67472097">
    <tag k="addr:city" v="Johnson"/>
    <tag k="addr:housenumber" v="63"/>
    <tag k="addr:street" v="Saint Johns Street"/>
    <tag k="addr:state" v="VT"/>
    <tag k="ref:vcgi:esiteid" v="313773"/>
  </node>
  <node id="-1332" visible="true" lat="44.63926656" lon="-72.68412176">
    <tag k="addr:city" v="Johnson"/>
    <tag k="addr:housenumber" v="335"/>
    <tag k="addr:street" v="Gould Hill"/>
    <tag k="addr:state" v="VT"/>
    <tag k="ref:vcgi:esiteid" v="313774"/>
  </node>
  <node id="-1348" visible="true" lat="44.61499757" lon="-72.64456794">
    <tag k="addr:city" v="Johnson"/>
    <tag k="addr:housenumber" v="191"/>
    <tag k="addr:street" v="West Melody Lane"/>
    <tag k="addr:state" v="VT"/>
    <tag k="ref:vcgi:esiteid" v="326563"/>
  </node>
  <node id="-1354" visible="true" lat="44.63933688" lon="-72.67040376">
    <tag k="addr:city" v="Johnson"/>
    <tag k="addr:housenumber" v="372"/>
    <tag k="addr:street" v="College Hill"/>
    <tag k="addr:state" v="VT"/>
    <tag k="ref:vcgi:esiteid" v="328803"/>
  </node>
  <node id="-1356" visible="true" lat="44.67145651" lon="-72.6856725">
    <tag k="addr:city" v="Johnson"/>
    <tag k="addr:housenumber" v="726"/>
    <tag k="addr:street" v="Cemetery Road"/>
    <tag k="addr:state" v="VT"/>
    <tag k="ref:vcgi:esiteid" v="328805"/>
  </node>
  <node id="-1357" visible="true" lat="44.66957429" lon="-72.68634333">
    <tag k="addr:city" v="Johnson"/>
    <tag k="addr:housenumber" v="716"/>
    <tag k="addr:street" v="Cemetery Road"/>
    <tag k="addr:state" v="VT"/>
    <tag k="ref:vcgi:esiteid" v="328806"/>
  </node>
  <node id="-1359" visible="true" lat="44.61307454" lon="-72.64758614">
    <tag k="addr:city" v="Johnson"/>
    <tag k="addr:housenumber" v="249"/>
    <tag k="addr:street" v="Tomlinson Lane"/>
    <tag k="addr:state" v="VT"/>
    <tag k="ref:vcgi:esiteid" v="328808"/>
  </node>
  <node id="-1360" visible="true" lat="44.61303725" lon="-72.6470447">
    <tag k="addr:city" v="Johnson"/>
    <tag k="addr:housenumber" v="250"/>
    <tag k="addr:street" v="Tomlinson Lane"/>
    <tag k="addr:state" v="VT"/>
    <tag k="ref:vcgi:esiteid" v="328809"/>
  </node>
  <node id="-1361" visible="true" lat="44.60470908" lon="-72.6863123">
    <tag k="addr:city" v="Johnson"/>
    <tag k="addr:housenumber" v="1301"/>
    <tag k="addr:street" v="Waterman Road"/>
    <tag k="addr:state" v="VT"/>
    <tag k="ref:vcgi:esiteid" v="336985"/>
  </node>
  <node id="-1366" visible="true" lat="44.69261652" lon="-72.69895319">
    <tag k="addr:city" v="Johnson"/>
    <tag k="addr:housenumber" v="1821"/>
    <tag k="addr:street" v="Codding Hollow Road"/>
    <tag k="addr:state" v="VT"/>
    <tag k="ref:vcgi:esiteid" v="336990"/>
  </node>
  <node id="-1375" visible="true" lat="44.65220358" lon="-72.67884366">
    <tag k="addr:city" v="Johnson"/>
    <tag k="addr:housenumber" v="1099"/>
    <tag k="addr:street" v="Clay Hill"/>
    <tag k="addr:state" v="VT"/>
    <tag k="ref:vcgi:esiteid" v="337303"/>
  </node>
  <node id="-1377" visible="true" lat="44.64109165" lon="-72.69592103">
    <tag k="addr:city" v="Johnson"/>
    <tag k="addr:housenumber" v="242"/>
    <tag k="addr:street" v="Vermont Route 15 West"/>
    <tag k="addr:state" v="VT"/>
    <tag k="ref:vcgi:esiteid" v="337305"/>
  </node>
  <node id="-1379" visible="true" lat="44.64649427" lon="-72.68579552">
    <tag k="addr:city" v="Johnson"/>
    <tag k="addr:housenumber" v="719"/>
    <tag k="addr:street" v="Gould Hill"/>
    <tag k="addr:state" v="VT"/>
    <tag k="ref:vcgi:esiteid" v="339604"/>
  </node>
  <node id="-1381" visible="true" lat="44.61021631" lon="-72.70297892">
    <tag k="addr:city" v="Johnson"/>
    <tag k="addr:housenumber" v="393"/>
    <tag k="addr:street" v="Reservoir Road"/>
    <tag k="addr:state" v="VT"/>
    <tag k="ref:vcgi:esiteid" v="340718"/>
  </node>
  <node id="-1382" visible="true" lat="44.60409386" lon="-72.70628722">
    <tag k="addr:city" v="Johnson"/>
    <tag k="addr:housenumber" v="858"/>
    <tag k="addr:street" v="Reservoir Road"/>
    <tag k="addr:state" v="VT"/>
    <tag k="ref:vcgi:esiteid" v="340719"/>
  </node>
  <node id="-1389" visible="true" lat="44.63807705" lon="-72.69994183">
    <tag k="addr:city" v="Johnson"/>
    <tag k="addr:housenumber" v="405"/>
    <tag k="addr:street" v="Vermont Route 15 West"/>
    <tag k="addr:state" v="VT"/>
    <tag k="ref:vcgi:esiteid" v="340974"/>
  </node>
  <node id="-1391" visible="true" lat="44.6316336" lon="-72.69147552">
    <tag k="addr:city" v="Johnson"/>
    <tag k="addr:housenumber" v="22"/>
    <tag k="addr:street" v="Lendway Lane"/>
    <tag k="addr:state" v="VT"/>
    <tag k="ref:vcgi:esiteid" v="340976"/>
  </node>
  <node id="-1393" visible="true" lat="44.6903759" lon="-72.70517482">
    <tag k="addr:city" v="Johnson"/>
    <tag k="addr:housenumber" v="1683"/>
    <tag k="addr:street" v="Codding Hollow Road"/>
    <tag k="addr:state" v="VT"/>
    <tag k="ref:vcgi:esiteid" v="341325"/>
  </node>
  <node id="-1396" visible="true" lat="44.66460963" lon="-72.63056653">
    <tag k="addr:city" v="Johnson"/>
    <tag k="addr:housenumber" v="17"/>
    <tag k="addr:street" v="Weightman Farm Lane"/>
    <tag k="addr:state" v="VT"/>
    <tag k="ref:vcgi:esiteid" v="342396"/>
  </node>
  <node id="-1410" visible="true" lat="44.63589735" lon="-72.69777873">
    <tag k="addr:city" v="Johnson"/>
    <tag k="addr:housenumber" v="273"/>
    <tag k="addr:street" v="Vermont Route 15 West"/>
    <tag k="addr:state" v="VT"/>
    <tag k="ref:vcgi:esiteid" v="345942"/>
  </node>
  <node id="-1412" visible="true" lat="44.6662385" lon="-72.61556789">
    <tag k="addr:city" v="Johnson"/>
    <tag k="addr:housenumber" v="260"/>
    <tag k="addr:street" v="Maplewood Drive"/>
    <tag k="addr:state" v="VT"/>
    <tag k="ref:vcgi:esiteid" v="345945"/>
  </node>
  <node id="-1419" visible="true" lat="44.64960367" lon="-72.74588438">
    <tag k="addr:city" v="Johnson"/>
    <tag k="addr:housenumber" v="2996"/>
    <tag k="addr:street" v="Vermont Route 15 West"/>
    <tag k="addr:state" v="VT"/>
    <tag k="ref:vcgi:esiteid" v="446231"/>
  </node>
  <node id="-1420" visible="true" lat="44.64275109" lon="-72.71687097">
    <tag k="addr:city" v="Johnson"/>
    <tag k="addr:housenumber" v="1440"/>
    <tag k="addr:street" v="Vermont Route 15 West"/>
    <tag k="addr:state" v="VT"/>
    <tag k="ref:vcgi:esiteid" v="446308"/>
  </node>
  <node id="-1427" visible="true" lat="44.66689241" lon="-72.61694679">
    <tag k="addr:city" v="Johnson"/>
    <tag k="addr:housenumber" v="60"/>
    <tag k="addr:street" v="Sugarhouse Lane"/>
    <tag k="addr:state" v="VT"/>
    <tag k="ref:vcgi:esiteid" v="446712"/>
  </node>
  <node id="-1436" visible="true" lat="44.66630905" lon="-72.61460341">
    <tag k="addr:city" v="Johnson"/>
    <tag k="addr:housenumber" v="38"/>
    <tag k="addr:street" v="Out And About Drive"/>
    <tag k="addr:state" v="VT"/>
    <tag k="ref:vcgi:esiteid" v="446721"/>
  </node>
  <node id="-1437" visible="true" lat="44.66645849" lon="-72.61516423">
    <tag k="addr:city" v="Johnson"/>
    <tag k="addr:housenumber" v="35"/>
    <tag k="addr:street" v="Out And About Drive"/>
    <tag k="addr:state" v="VT"/>
    <tag k="ref:vcgi:esiteid" v="446722"/>
  </node>
  <node id="-1438" visible="true" lat="44.6665265" lon="-72.61501422">
    <tag k="addr:city" v="Johnson"/>
    <tag k="addr:housenumber" v="45"/>
    <tag k="addr:street" v="Out And About Drive"/>
    <tag k="addr:state" v="VT"/>
    <tag k="ref:vcgi:esiteid" v="446723"/>
  </node>
  <node id="-1439" visible="true" lat="44.66649822" lon="-72.61471889">
    <tag k="addr:city" v="Johnson"/>
    <tag k="addr:housenumber" v="52"/>
    <tag k="addr:street" v="Out And About Drive"/>
    <tag k="addr:state" v="VT"/>
    <tag k="ref:vcgi:esiteid" v="446724"/>
  </node>
  <node id="-1440" visible="true" lat="44.66700875" lon="-72.61492009">
    <tag k="addr:city" v="Johnson"/>
    <tag k="addr:housenumber" v="87"/>
    <tag k="addr:street" v="Out And About Drive"/>
    <tag k="addr:state" v="VT"/>
    <tag k="ref:vcgi:esiteid" v="446727"/>
  </node>
  <node id="-1448" visible="true" lat="44.66796472" lon="-72.61611313">
    <tag k="addr:city" v="Johnson"/>
    <tag k="addr:housenumber" v="180"/>
    <tag k="addr:street" v="Out And About Drive"/>
    <tag k="addr:state" v="VT"/>
    <tag k="ref:vcgi:esiteid" v="446735"/>
  </node>
  <node id="-1468" visible="true" lat="44.66705366" lon="-72.61642661">
    <tag k="addr:city" v="Johnson"/>
    <tag k="addr:housenumber" v="331"/>
    <tag k="addr:street" v="Maplewood Drive"/>
    <tag k="addr:state" v="VT"/>
    <tag k="ref:vcgi:esiteid" v="446755"/>
  </node>
  <node id="-1471" visible="true" lat="44.66758918" lon="-72.61663288">
    <tag k="addr:city" v="Johnson"/>
    <tag k="addr:housenumber" v="366"/>
    <tag k="addr:street" v="Maplewood Drive"/>
    <tag k="addr:state" v="VT"/>
    <tag k="ref:vcgi:esiteid" v="446758"/>
  </node>
  <node id="-1475" visible="true" lat="44.66677336" lon="-72.61458931">
    <tag k="addr:city" v="Johnson"/>
    <tag k="addr:housenumber" v="70"/>
    <tag k="addr:street" v="Out And About Drive"/>
    <tag k="addr:state" v="VT"/>
    <tag k="ref:vcgi:esiteid" v="446769"/>
  </node>
  <node id="-1476" visible="true" lat="44.66663045" lon="-72.61463907">
    <tag k="addr:city" v="Johnson"/>
    <tag k="addr:housenumber" v="62"/>
    <tag k="addr:street" v="Out And About Drive"/>
    <tag k="addr:state" v="VT"/>
    <tag k="ref:vcgi:esiteid" v="446771"/>
  </node>
  <node id="-1478" visible="true" lat="44.65444514" lon="-72.68157674">
    <tag k="addr:city" v="Johnson"/>
    <tag k="addr:housenumber" v="1299"/>
    <tag k="addr:street" v="Clay Hill"/>
    <tag k="addr:state" v="VT"/>
    <tag k="ref:vcgi:esiteid" v="447784"/>
  </node>
  <node id="-1485" visible="true" lat="44.63660288" lon="-72.68638097">
    <tag k="addr:city" v="Johnson"/>
    <tag k="addr:housenumber" v="382"/>
    <tag k="addr:street" v="Lower Main Street West"/>
    <tag k="addr:state" v="VT"/>
    <tag k="ref:vcgi:esiteid" v="451256"/>
  </node>
  <node id="-1487" visible="true" lat="44.69300302" lon="-72.69819945">
    <tag k="addr:city" v="Johnson"/>
    <tag k="addr:housenumber" v="1823"/>
    <tag k="addr:street" v="Codding Hollow Road"/>
    <tag k="addr:state" v="VT"/>
    <tag k="ref:vcgi:esiteid" v="452007"/>
  </node>
  <node id="-1491" visible="true" lat="44.65343632" lon="-72.68484733">
    <tag k="addr:city" v="Johnson"/>
    <tag k="addr:housenumber" v="469"/>
    <tag k="addr:street" v="Plot Road"/>
    <tag k="addr:state" v="VT"/>
    <tag k="ref:vcgi:esiteid" v="453281"/>
  </node>
  <node id="-1496" visible="true" lat="44.61167693" lon="-72.64587286">
    <tag k="addr:city" v="Johnson"/>
    <tag k="addr:housenumber" v="161"/>
    <tag k="addr:street" v="Melody Lane"/>
    <tag k="addr:state" v="VT"/>
    <tag k="ref:vcgi:esiteid" v="453579"/>
  </node>
  <node id="-1500" visible="true" lat="44.62371317" lon="-72.65145031">
    <tag k="addr:city" v="Johnson"/>
    <tag k="addr:housenumber" v="111"/>
    <tag k="addr:street" v="Meadow View Lane"/>
    <tag k="addr:state" v="VT"/>
    <tag k="ref:vcgi:esiteid" v="455092"/>
  </node>
  <node id="-1505" visible="true" lat="44.62288964" lon="-72.65126032">
    <tag k="addr:city" v="Johnson"/>
    <tag k="addr:housenumber" v="76"/>
    <tag k="addr:street" v="Meadow View Lane"/>
    <tag k="addr:state" v="VT"/>
    <tag k="ref:vcgi:esiteid" v="610807"/>
  </node>
  <node id="-1507" visible="true" lat="44.61107148" lon="-72.64628757">
    <tag k="addr:city" v="Johnson"/>
    <tag k="addr:housenumber" v="159"/>
    <tag k="addr:street" v="Melody Lane"/>
    <tag k="addr:state" v="VT"/>
    <tag k="ref:vcgi:esiteid" v="611849"/>
  </node>
  <node id="-1510" visible="true" lat="44.6150316" lon="-72.64580613">
    <tag k="addr:city" v="Johnson"/>
    <tag k="addr:housenumber" v="227"/>
    <tag k="addr:street" v="West Melody Lane"/>
    <tag k="addr:state" v="VT"/>
    <tag k="ref:vcgi:esiteid" v="612541"/>
  </node>
  <node id="-1511" visible="true" lat="44.61577059" lon="-72.64662493">
    <tag k="addr:city" v="Johnson"/>
    <tag k="addr:housenumber" v="253"/>
    <tag k="addr:street" v="West Melody Lane"/>
    <tag k="addr:state" v="VT"/>
    <tag k="ref:vcgi:esiteid" v="612543"/>
  </node>
  <node id="-1515" visible="true" lat="44.6204097" lon="-72.65048781">
    <tag k="addr:city" v="Johnson"/>
    <tag k="addr:housenumber" v="600"/>
    <tag k="addr:street" v="Maple Hill Road"/>
    <tag k="addr:state" v="VT"/>
    <tag k="ref:vcgi:esiteid" v="615618"/>
  </node>
  <node id="-1521" visible="true" lat="44.63458411" lon="-72.69693268">
    <tag k="addr:city" v="Johnson"/>
    <tag k="addr:housenumber" v="354"/>
    <tag k="addr:street" v="West Highland Drive"/>
    <tag k="addr:state" v="VT"/>
    <tag k="ref:vcgi:esiteid" v="617160"/>
  </node>
  <node id="-1523" visible="true" lat="44.63494476" lon="-72.69698215">
    <tag k="addr:city" v="Johnson"/>
    <tag k="addr:housenumber" v="376"/>
    <tag k="addr:street" v="West Highland Drive"/>
    <tag k="addr:state" v="VT"/>
    <tag k="ref:vcgi:esiteid" v="617203"/>
  </node>
  <node id="-1524" visible="true" lat="44.63467093" lon="-72.69345252">
    <tag k="addr:city" v="Johnson"/>
    <tag k="addr:housenumber" v="90"/>
    <tag k="addr:street" v="Wescom Road"/>
    <tag k="addr:state" v="VT"/>
    <tag k="ref:vcgi:esiteid" v="617224"/>
  </node>
  <node id="-1542" visible="true" lat="44.66597624" lon="-72.62577186">
    <tag k="addr:city" v="Johnson"/>
    <tag k="addr:housenumber" v="469"/>
    <tag k="addr:street" v="Ober Hill Road"/>
    <tag k="addr:state" v="VT"/>
    <tag k="ref:vcgi:esiteid" v="620415"/>
  </node>
  <node id="-1543" visible="true" lat="44.65225225" lon="-72.67635228">
    <tag k="addr:city" v="Johnson"/>
    <tag k="addr:housenumber" v="1072"/>
    <tag k="addr:street" v="Clay Hill"/>
    <tag k="addr:state" v="VT"/>
    <tag k="ref:vcgi:esiteid" v="620750"/>
  </node>
  <node id="-1544" visible="true" lat="44.64423149" lon="-72.70275045">
    <tag k="addr:city" v="Johnson"/>
    <tag k="addr:housenumber" v="193"/>
    <tag k="addr:street" v="Foote Brook Road"/>
    <tag k="addr:state" v="VT"/>
    <tag k="ref:vcgi:esiteid" v="700043"/>
  </node>
  <node id="-1545" visible="true" lat="44.62678313" lon="-72.68297338">
    <tag k="addr:city" v="Johnson"/>
    <tag k="addr:housenumber" v="411"/>
    <tag k="addr:street" v="Railroad Street"/>
    <tag k="addr:state" v="VT"/>
    <tag k="ref:vcgi:esiteid" v="700044"/>
  </node>
  <node id="-1546" visible="true" lat="44.61531969" lon="-72.66310728">
    <tag k="addr:city" v="Johnson"/>
    <tag k="addr:housenumber" v="871"/>
    <tag k="addr:street" v="Vermont Route 15 East"/>
    <tag k="addr:state" v="VT"/>
    <tag k="ref:vcgi:esiteid" v="700165"/>
  </node>
  <node id="-1553" visible="true" lat="44.64900141" lon="-72.71650135">
    <tag k="addr:city" v="Johnson"/>
    <tag k="addr:housenumber" v="293"/>
    <tag k="addr:street" v="Prospect Rock Road"/>
    <tag k="addr:state" v="VT"/>
    <tag k="ref:vcgi:esiteid" v="753248"/>
  </node>
  <node id="-1554" visible="true" lat="44.62178421" lon="-72.67800823">
    <tag k="addr:city" v="Johnson"/>
    <tag k="addr:housenumber" v="915"/>
    <tag k="addr:street" v="River Road East"/>
    <tag k="addr:state" v="VT"/>
    <tag k="ref:vcgi:esiteid" v="753528"/>
  </node>
  <node id="-1556" visible="true" lat="44.64196425" lon="-72.70416932">
    <tag k="addr:city" v="Johnson"/>
    <tag k="addr:housenumber" v="793"/>
    <tag k="addr:street" v="Vermont Route 15 West"/>
    <tag k="addr:state" v="VT"/>
    <tag k="ref:vcgi:esiteid" v="753804"/>
  </node>
  <node id="-1567" visible="true" lat="44.65253926" lon="-72.6206346">
    <tag k="addr:city" v="Johnson"/>
    <tag k="addr:housenumber" v="573"/>
    <tag k="addr:street" v="Wilson Road"/>
    <tag k="addr:state" v="VT"/>
    <tag k="ref:vcgi:esiteid" v="756606"/>
  </node>
  <node id="-1571" visible="true" lat="44.60354249" lon="-72.71721954">
    <tag k="addr:city" v="Johnson"/>
    <tag k="addr:housenumber" v="852"/>
    <tag k="addr:street" v="Reservoir Road"/>
    <tag k="addr:state" v="VT"/>
    <tag k="ref:vcgi:esiteid" v="756730"/>
  </node>
  <node id="-1576" visible="true" lat="44.66570521" lon="-72.60670482">
    <tag k="addr:city" v="Johnson"/>
    <tag k="addr:housenumber" v="4462"/>
    <tag k="addr:street" v="Vermont Route 100C"/>
    <tag k="addr:state" v="VT"/>
    <tag k="ref:vcgi:esiteid" v="758375"/>
  </node>
  <node id="-1579" visible="true" lat="44.66187667" lon="-72.67545328">
    <tag k="addr:city" v="Johnson"/>
    <tag k="addr:housenumber" v="1900"/>
    <tag k="addr:street" v="Clay Hill"/>
    <tag k="addr:state" v="VT"/>
    <tag k="ref:vcgi:esiteid" v="759363"/>
  </node>
  <node id="-1583" visible="true" lat="44.60147599" lon="-72.67043967">
    <tag k="addr:city" v="Johnson"/>
    <tag k="addr:housenumber" v="877"/>
    <tag k="addr:street" v="Grow Road"/>
    <tag k="addr:state" v="VT"/>
    <tag k="ref:vcgi:esiteid" v="760346"/>
  </node>
  <node id="-1584" visible="true" lat="44.60476714" lon="-72.68907689">
    <tag k="addr:city" v="Johnson"/>
    <tag k="addr:housenumber" v="2280"/>
    <tag k="addr:street" v="Upper French Hill Road"/>
    <tag k="addr:state" v="VT"/>
    <tag k="ref:vcgi:esiteid" v="760347"/>
  </node>
  <node id="-1586" visible="true" lat="44.65182894" lon="-72.68521748">
    <tag k="addr:city" v="Johnson"/>
    <tag k="addr:housenumber" v="335"/>
    <tag k="addr:street" v="Plot Road"/>
    <tag k="addr:state" v="VT"/>
    <tag k="ref:vcgi:esiteid" v="760576"/>
  </node>
  <node id="-1587" visible="true" lat="44.66483614" lon="-72.62819387">
    <tag k="addr:city" v="Johnson"/>
    <tag k="addr:housenumber" v="180"/>
    <tag k="addr:street" v="Dukes Road"/>
    <tag k="addr:state" v="VT"/>
    <tag k="ref:vcgi:esiteid" v="760919"/>
  </node>
  <node id="-1588" visible="true" lat="44.62138625" lon="-72.67003316">
    <tag k="addr:city" v="Johnson"/>
    <tag k="addr:housenumber" v="1459"/>
    <tag k="addr:street" v="Vermont Route 15 East"/>
    <tag k="addr:state" v="VT"/>
    <tag k="ref:vcgi:esiteid" v="761119"/>
  </node>
  <node id="-1589" visible="true" lat="44.66556065" lon="-72.69226657">
    <tag k="addr:city" v="Johnson"/>
    <tag k="addr:housenumber" v="1741"/>
    <tag k="addr:street" v="Foote Brook Road"/>
    <tag k="addr:state" v="VT"/>
    <tag k="ref:vcgi:esiteid" v="761120"/>
  </node>
  <node id="-1590" visible="true" lat="44.6214554" lon="-72.67062831">
    <tag k="addr:city" v="Johnson"/>
    <tag k="addr:housenumber" v="1461"/>
    <tag k="addr:street" v="Vermont Route 15 East"/>
    <tag k="addr:state" v="VT"/>
    <tag k="ref:vcgi:esiteid" v="761124"/>
  </node>
  <node id="-1591" visible="true" lat="44.66957697" lon="-72.69350798">
    <tag k="addr:city" v="Johnson"/>
    <tag k="addr:housenumber" v="2227"/>
    <tag k="addr:street" v="Foote Brook Road"/>
    <tag k="addr:state" v="VT"/>
    <tag k="ref:vcgi:esiteid" v="761242"/>
  </node>
  <node id="-1592" visible="true" lat="44.61564417" lon="-72.65883878">
    <tag k="addr:city" v="Johnson"/>
    <tag k="addr:housenumber" v="198"/>
    <tag k="addr:street" v="Treasure Hills Road"/>
    <tag k="addr:state" v="VT"/>
    <tag k="ref:vcgi:esiteid" v="761796"/>
  </node>
  <node id="-1593" visible="true" lat="44.64297097" lon="-72.6288647">
    <tag k="addr:city" v="Johnson"/>
    <tag k="addr:housenumber" v="696"/>
    <tag k="addr:street" v="Whitcomb Island Road"/>
    <tag k="addr:state" v="VT"/>
    <tag k="ref:vcgi:esiteid" v="761797"/>
  </node>
  <node id="-1594" visible="true" lat="44.65307735" lon="-72.61994281">
    <tag k="addr:city" v="Johnson"/>
    <tag k="addr:housenumber" v="611"/>
    <tag k="addr:street" v="Wilson Road"/>
    <tag k="addr:state" v="VT"/>
    <tag k="ref:vcgi:esiteid" v="761798"/>
  </node>
  <node id="-1595" visible="true" lat="44.60391103" lon="-72.68960001">
    <tag k="addr:city" v="Johnson"/>
    <tag k="addr:housenumber" v="2392"/>
    <tag k="addr:street" v="Upper French Hill Road"/>
    <tag k="addr:state" v="VT"/>
    <tag k="ref:vcgi:esiteid" v="761818"/>
  </node>
  <node id="-1596" visible="true" lat="44.65422952" lon="-72.68004379">
    <tag k="addr:city" v="Johnson"/>
    <tag k="addr:housenumber" v="1280"/>
    <tag k="addr:street" v="Clay Hill"/>
    <tag k="addr:state" v="VT"/>
    <tag k="ref:vcgi:esiteid" v="762397"/>
  </node>
  <node id="-1597" visible="true" lat="44.67424693" lon="-72.60166668">
    <tag k="addr:city" v="Johnson"/>
    <tag k="addr:housenumber" v="3"/>
    <tag k="addr:street" v="Windy Hill Drive"/>
    <tag k="addr:state" v="VT"/>
    <tag k="ref:vcgi:esiteid" v="762444"/>
  </node>
  <node id="-1598" visible="true" lat="44.62024093" lon="-72.63947156">
    <tag k="addr:city" v="Johnson"/>
    <tag k="addr:housenumber" v="949"/>
    <tag k="addr:street" v="Melody Lane"/>
    <tag k="addr:state" v="VT"/>
    <tag k="ref:vcgi:esiteid" v="762708"/>
  </node>
  <node id="-1599" visible="true" lat="44.62147403" lon="-72.63814707">
    <tag k="addr:city" v="Johnson"/>
    <tag k="addr:housenumber" v="1048"/>
    <tag k="addr:street" v="Melody Lane"/>
    <tag k="addr:state" v="VT"/>
    <tag k="ref:vcgi:esiteid" v="762709"/>
  </node>
  <node id="-1600" visible="true" lat="44.66266933" lon="-72.62189163">
    <tag k="addr:city" v="Johnson"/>
    <tag k="addr:housenumber" v="3681"/>
    <tag k="addr:street" v="Vermont Route 100C"/>
    <tag k="addr:state" v="VT"/>
    <tag k="ref:vcgi:esiteid" v="762914"/>
  </node>
  <node id="-1601" visible="true" lat="44.60318615" lon="-72.6773046">
    <tag k="addr:city" v="Johnson"/>
    <tag k="addr:housenumber" v="509"/>
    <tag k="addr:street" v="Grow Road"/>
    <tag k="addr:state" v="VT"/>
    <tag k="ref:vcgi:esiteid" v="762968"/>
  </node>
  <node id="-1602" visible="true" lat="44.68578382" lon="-72.69013892">
    <tag k="addr:city" v="Johnson"/>
    <tag k="addr:housenumber" v="1203"/>
    <tag k="addr:street" v="Codding Hollow Road"/>
    <tag k="addr:state" v="VT"/>
    <tag k="ref:vcgi:esiteid" v="763441"/>
  </node>
  <node id="-1605" visible="true" lat="44.63960014" lon="-72.66617022">
    <tag k="addr:city" v="Johnson"/>
    <tag k="addr:housenumber" v="695"/>
    <tag k="addr:street" v="Vermont Route 100C"/>
    <tag k="addr:state" v="VT"/>
    <tag k="ref:vcgi:esiteid" v="764390"/>
  </node>
  <node id="-1606" visible="true" lat="44.63698015" lon="-72.65897">
    <tag k="addr:city" v="Johnson"/>
    <tag k="addr:housenumber" v="280"/>
    <tag k="addr:street" v="Sinclair Road"/>
    <tag k="addr:state" v="VT"/>
    <tag k="ref:vcgi:esiteid" v="764391"/>
  </node>
  <node id="-1607" visible="true" lat="44.66612926" lon="-72.61025405">
    <tag k="addr:city" v="Johnson"/>
    <tag k="addr:housenumber" v="39"/>
    <tag k="addr:street" v="Rosewood Drive"/>
    <tag k="addr:state" v="VT"/>
    <tag k="ref:vcgi:esiteid" v="764392"/>
  </node>
  <node id="-1608" visible="true" lat="44.6645291" lon="-72.69822747">
    <tag k="addr:city" v="Johnson"/>
    <tag k="addr:housenumber" v="1519"/>
    <tag k="addr:street" v="Plot Road"/>
    <tag k="addr:state" v="VT"/>
    <tag k="ref:vcgi:esiteid" v="764393"/>
  </node>
  <node id="-1609" visible="true" lat="44.61574825" lon="-72.64437783">
    <tag k="addr:city" v="Johnson"/>
    <tag k="addr:housenumber" v="186"/>
    <tag k="addr:street" v="West Melody Lane"/>
    <tag k="addr:state" v="VT"/>
    <tag k="ref:vcgi:esiteid" v="900017"/>
  </node>
  <node id="-1612" visible="true" lat="44.6532272" lon="-72.63010867">
    <tag k="addr:city" v="Johnson"/>
    <tag k="addr:housenumber" v="92"/>
    <tag k="addr:street" v="Wilson Road"/>
    <tag k="addr:state" v="VT"/>
    <tag k="ref:vcgi:esiteid" v="1050740"/>
  </node>
</osm>
