<?xml version="1.0" encoding="UTF-8"?>
<osm version="0.6" generator="JOSM">
  <node id="-115" visible="true" lat="43.29114708" lon="-72.85563633">
    <tag k="addr:city" v="Landgrove"/>
    <tag k="addr:housenumber" v="36"/>
    <tag k="addr:street" v="Hesseltine Road"/>
    <tag k="addr:state" v="VT"/>
    <tag k="ref:vcgi:esiteid" v="139182"/>
  </node>
  <node id="-118" visible="true" lat="43.29081921" lon="-72.84319656">
    <tag k="addr:city" v="Landgrove"/>
    <tag k="addr:housenumber" v="309"/>
    <tag k="addr:street" v="Landgrove Road"/>
    <tag k="addr:state" v="VT"/>
    <tag k="ref:vcgi:esiteid" v="139185"/>
  </node>
  <node id="-120" visible="true" lat="43.29058836" lon="-72.82600292">
    <tag k="addr:city" v="Landgrove"/>
    <tag k="addr:housenumber" v="398"/>
    <tag k="addr:street" v="Landgrove Road"/>
    <tag k="addr:state" v="VT"/>
    <tag k="ref:vcgi:esiteid" v="139187"/>
  </node>
  <node id="-121" visible="true" lat="43.28987145" lon="-72.85285977">
    <tag k="addr:city" v="Landgrove"/>
    <tag k="addr:housenumber" v="19"/>
    <tag k="addr:street" v="Hesseltine Road"/>
    <tag k="addr:state" v="VT"/>
    <tag k="ref:vcgi:esiteid" v="139188"/>
  </node>
  <node id="-123" visible="true" lat="43.28932958" lon="-72.84252495">
    <tag k="addr:city" v="Landgrove"/>
    <tag k="addr:housenumber" v="209"/>
    <tag k="addr:street" v="Cody Road"/>
    <tag k="addr:state" v="VT"/>
    <tag k="ref:vcgi:esiteid" v="139190"/>
  </node>
  <node id="-124" visible="true" lat="43.28887177" lon="-72.84736633">
    <tag k="addr:city" v="Landgrove"/>
    <tag k="addr:housenumber" v="284"/>
    <tag k="addr:street" v="Landgrove Road"/>
    <tag k="addr:state" v="VT"/>
    <tag k="ref:vcgi:esiteid" v="139191"/>
  </node>
  <node id="-125" visible="true" lat="43.28776168" lon="-72.85334276">
    <tag k="addr:city" v="Landgrove"/>
    <tag k="addr:housenumber" v="251"/>
    <tag k="addr:street" v="Landgrove Road"/>
    <tag k="addr:state" v="VT"/>
    <tag k="ref:vcgi:esiteid" v="139192"/>
  </node>
  <node id="-129" visible="true" lat="43.28547691" lon="-72.85232364">
    <tag k="addr:city" v="Landgrove"/>
    <tag k="addr:housenumber" v="244"/>
    <tag k="addr:street" v="Landgrove Road"/>
    <tag k="addr:state" v="VT"/>
    <tag k="ref:vcgi:esiteid" v="139196"/>
  </node>
  <node id="-130" visible="true" lat="43.28363224" lon="-72.8564347">
    <tag k="addr:city" v="Landgrove"/>
    <tag k="addr:housenumber" v="221"/>
    <tag k="addr:street" v="Landgrove Road"/>
    <tag k="addr:state" v="VT"/>
    <tag k="ref:vcgi:esiteid" v="139197"/>
  </node>
  <node id="-133" visible="true" lat="43.27923974" lon="-72.85790953">
    <tag k="addr:city" v="Landgrove"/>
    <tag k="addr:housenumber" v="190"/>
    <tag k="addr:street" v="Landgrove Road"/>
    <tag k="addr:state" v="VT"/>
    <tag k="ref:vcgi:esiteid" v="139200"/>
  </node>
  <node id="-134" visible="true" lat="43.27909675" lon="-72.85039916">
    <tag k="addr:city" v="Landgrove"/>
    <tag k="addr:housenumber" v="45"/>
    <tag k="addr:street" v="Uphill Road"/>
    <tag k="addr:state" v="VT"/>
    <tag k="ref:vcgi:esiteid" v="139201"/>
  </node>
  <node id="-136" visible="true" lat="43.27878401" lon="-72.85841481">
    <tag k="addr:city" v="Landgrove"/>
    <tag k="addr:housenumber" v="2"/>
    <tag k="addr:street" v="Uphill Road"/>
    <tag k="addr:state" v="VT"/>
    <tag k="ref:vcgi:esiteid" v="139203"/>
  </node>
  <node id="-137" visible="true" lat="43.27783668" lon="-72.85928458">
    <tag k="addr:city" v="Landgrove"/>
    <tag k="addr:housenumber" v="178"/>
    <tag k="addr:street" v="Landgrove Road"/>
    <tag k="addr:state" v="VT"/>
    <tag k="ref:vcgi:esiteid" v="139204"/>
  </node>
  <node id="-139" visible="true" lat="43.27770991" lon="-72.85412895">
    <tag k="addr:city" v="Landgrove"/>
    <tag k="addr:housenumber" v="27"/>
    <tag k="addr:street" v="Uphill Road"/>
    <tag k="addr:state" v="VT"/>
    <tag k="ref:vcgi:esiteid" v="139206"/>
  </node>
  <node id="-140" visible="true" lat="43.27756407" lon="-72.86102007">
    <tag k="addr:city" v="Landgrove"/>
    <tag k="addr:housenumber" v="171"/>
    <tag k="addr:street" v="Landgrove Road"/>
    <tag k="addr:state" v="VT"/>
    <tag k="ref:vcgi:esiteid" v="139207"/>
  </node>
  <node id="-141" visible="true" lat="43.27712464" lon="-72.85112837">
    <tag k="addr:city" v="Landgrove"/>
    <tag k="addr:housenumber" v="43"/>
    <tag k="addr:street" v="Uphill Road"/>
    <tag k="addr:state" v="VT"/>
    <tag k="ref:vcgi:esiteid" v="139208"/>
  </node>
  <node id="-142" visible="true" lat="43.27678525" lon="-72.84958881">
    <tag k="addr:city" v="Landgrove"/>
    <tag k="addr:housenumber" v="49"/>
    <tag k="addr:street" v="Uphill Road"/>
    <tag k="addr:state" v="VT"/>
    <tag k="ref:vcgi:esiteid" v="139209"/>
  </node>
  <node id="-143" visible="true" lat="43.27665538" lon="-72.85618977">
    <tag k="addr:city" v="Landgrove"/>
    <tag k="addr:housenumber" v="14"/>
    <tag k="addr:street" v="Uphill Road"/>
    <tag k="addr:state" v="VT"/>
    <tag k="ref:vcgi:esiteid" v="139210"/>
  </node>
  <node id="-144" visible="true" lat="43.27643974" lon="-72.848767">
    <tag k="addr:city" v="Landgrove"/>
    <tag k="addr:housenumber" v="53"/>
    <tag k="addr:street" v="Uphill Road"/>
    <tag k="addr:state" v="VT"/>
    <tag k="ref:vcgi:esiteid" v="139211"/>
  </node>
  <node id="-145" visible="true" lat="43.27573243" lon="-72.85008467">
    <tag k="addr:city" v="Landgrove"/>
    <tag k="addr:housenumber" v="46"/>
    <tag k="addr:street" v="Uphill Road"/>
    <tag k="addr:state" v="VT"/>
    <tag k="ref:vcgi:esiteid" v="139212"/>
  </node>
  <node id="-146" visible="true" lat="43.27543877" lon="-72.84886089">
    <tag k="addr:city" v="Landgrove"/>
    <tag k="addr:housenumber" v="55"/>
    <tag k="addr:street" v="Uphill Road"/>
    <tag k="addr:state" v="VT"/>
    <tag k="ref:vcgi:esiteid" v="139213"/>
  </node>
  <node id="-148" visible="true" lat="43.27469679" lon="-72.8614364">
    <tag k="addr:city" v="Landgrove"/>
    <tag k="addr:housenumber" v="2"/>
    <tag k="addr:street" v="Little Michigan Road"/>
    <tag k="addr:state" v="VT"/>
    <tag k="ref:vcgi:esiteid" v="139215"/>
  </node>
  <node id="-152" visible="true" lat="43.27201776" lon="-72.84985476">
    <tag k="addr:city" v="Landgrove"/>
    <tag k="addr:housenumber" v="41"/>
    <tag k="addr:street" v="Tarpley Road"/>
    <tag k="addr:state" v="VT"/>
    <tag k="ref:vcgi:esiteid" v="139219"/>
  </node>
  <node id="-156" visible="true" lat="43.26969443" lon="-72.8503492">
    <tag k="addr:city" v="Landgrove"/>
    <tag k="addr:housenumber" v="25"/>
    <tag k="addr:street" v="Tarpley Road"/>
    <tag k="addr:state" v="VT"/>
    <tag k="ref:vcgi:esiteid" v="139223"/>
  </node>
  <node id="-158" visible="true" lat="43.26954781" lon="-72.84819534">
    <tag k="addr:city" v="Landgrove"/>
    <tag k="addr:housenumber" v="28"/>
    <tag k="addr:street" v="Tarpley Road"/>
    <tag k="addr:state" v="VT"/>
    <tag k="ref:vcgi:esiteid" v="139225"/>
  </node>
  <node id="-159" visible="true" lat="43.26906757" lon="-72.85822443">
    <tag k="addr:city" v="Landgrove"/>
    <tag k="addr:housenumber" v="108"/>
    <tag k="addr:street" v="Landgrove Road"/>
    <tag k="addr:state" v="VT"/>
    <tag k="ref:vcgi:esiteid" v="139226"/>
  </node>
  <node id="-162" visible="true" lat="43.26817709" lon="-72.85071482">
    <tag k="addr:city" v="Landgrove"/>
    <tag k="addr:housenumber" v="13"/>
    <tag k="addr:street" v="Tarpley Road"/>
    <tag k="addr:state" v="VT"/>
    <tag k="ref:vcgi:esiteid" v="139229"/>
  </node>
  <node id="-166" visible="true" lat="43.26739573" lon="-72.84942791">
    <tag k="addr:city" v="Landgrove"/>
    <tag k="addr:housenumber" v="8"/>
    <tag k="addr:street" v="Tarpley Road"/>
    <tag k="addr:state" v="VT"/>
    <tag k="ref:vcgi:esiteid" v="139233"/>
  </node>
  <node id="-167" visible="true" lat="43.26718139" lon="-72.8506801">
    <tag k="addr:city" v="Landgrove"/>
    <tag k="addr:housenumber" v="9"/>
    <tag k="addr:street" v="Tarpley Road"/>
    <tag k="addr:state" v="VT"/>
    <tag k="ref:vcgi:esiteid" v="139234"/>
  </node>
  <node id="-170" visible="true" lat="43.2663679" lon="-72.84596422">
    <tag k="addr:city" v="Landgrove"/>
    <tag k="addr:housenumber" v="31"/>
    <tag k="addr:street" v="Cody Road"/>
    <tag k="addr:state" v="VT"/>
    <tag k="ref:vcgi:esiteid" v="139237"/>
  </node>
  <node id="-171" visible="true" lat="43.26550055" lon="-72.85028011">
    <tag k="addr:city" v="Landgrove"/>
    <tag k="addr:housenumber" v="38"/>
    <tag k="addr:street" v="Old County Rd W"/>
    <tag k="addr:state" v="VT"/>
    <tag k="ref:vcgi:esiteid" v="139238"/>
  </node>
  <node id="-178" visible="true" lat="43.26503189" lon="-72.85485263">
    <tag k="addr:city" v="Landgrove"/>
    <tag k="addr:housenumber" v="74"/>
    <tag k="addr:street" v="Landgrove Road"/>
    <tag k="addr:state" v="VT"/>
    <tag k="ref:vcgi:esiteid" v="139245"/>
  </node>
  <node id="-181" visible="true" lat="43.26400623" lon="-72.84841795">
    <tag k="addr:city" v="Landgrove"/>
    <tag k="addr:housenumber" v="15"/>
    <tag k="addr:street" v="Cody Road"/>
    <tag k="addr:state" v="VT"/>
    <tag k="ref:vcgi:esiteid" v="139248"/>
  </node>
  <node id="-183" visible="true" lat="43.26384737" lon="-72.84254697">
    <tag k="addr:city" v="Landgrove"/>
    <tag k="addr:housenumber" v="8"/>
    <tag k="addr:street" v="Old County Rd E"/>
    <tag k="addr:state" v="VT"/>
    <tag k="ref:vcgi:esiteid" v="139250"/>
  </node>
  <node id="-212" visible="true" lat="43.25553901" lon="-72.85828599">
    <tag k="addr:city" v="Landgrove"/>
    <tag k="addr:housenumber" v="62"/>
    <tag k="addr:street" v="Nichols Road"/>
    <tag k="addr:state" v="VT"/>
    <tag k="ref:vcgi:esiteid" v="139280"/>
  </node>
  <node id="-214" visible="true" lat="43.25483895" lon="-72.8580895">
    <tag k="addr:city" v="Landgrove"/>
    <tag k="addr:housenumber" v="66"/>
    <tag k="addr:street" v="Nichols Road"/>
    <tag k="addr:state" v="VT"/>
    <tag k="ref:vcgi:esiteid" v="139282"/>
  </node>
  <node id="-216" visible="true" lat="43.25460626" lon="-72.86210612">
    <tag k="addr:city" v="Landgrove"/>
    <tag k="addr:housenumber" v="102"/>
    <tag k="addr:street" v="Nichols Road"/>
    <tag k="addr:state" v="VT"/>
    <tag k="ref:vcgi:esiteid" v="139284"/>
  </node>
  <node id="-218" visible="true" lat="43.2539266" lon="-72.85804138">
    <tag k="addr:city" v="Landgrove"/>
    <tag k="addr:housenumber" v="73"/>
    <tag k="addr:street" v="Nichols Road"/>
    <tag k="addr:state" v="VT"/>
    <tag k="ref:vcgi:esiteid" v="139286"/>
  </node>
  <node id="-219" visible="true" lat="43.25378914" lon="-72.85927835">
    <tag k="addr:city" v="Landgrove"/>
    <tag k="addr:housenumber" v="78"/>
    <tag k="addr:street" v="Nichols Road"/>
    <tag k="addr:state" v="VT"/>
    <tag k="ref:vcgi:esiteid" v="139287"/>
  </node>
  <node id="-221" visible="true" lat="43.25300977" lon="-72.86129008">
    <tag k="addr:city" v="Landgrove"/>
    <tag k="addr:housenumber" v="92"/>
    <tag k="addr:street" v="Nichols Road"/>
    <tag k="addr:state" v="VT"/>
    <tag k="ref:vcgi:esiteid" v="139289"/>
  </node>
  <node id="-222" visible="true" lat="43.25295461" lon="-72.86245223">
    <tag k="addr:city" v="Landgrove"/>
    <tag k="addr:housenumber" v="100"/>
    <tag k="addr:street" v="Nichols Road"/>
    <tag k="addr:state" v="VT"/>
    <tag k="ref:vcgi:esiteid" v="139290"/>
  </node>
  <node id="-223" visible="true" lat="43.25243187" lon="-72.86069751">
    <tag k="addr:city" v="Landgrove"/>
    <tag k="addr:housenumber" v="89"/>
    <tag k="addr:street" v="Nichols Road"/>
    <tag k="addr:state" v="VT"/>
    <tag k="ref:vcgi:esiteid" v="139291"/>
  </node>
  <node id="-234" visible="true" lat="43.23710947" lon="-72.85078189">
    <tag k="addr:city" v="Landgrove"/>
    <tag k="addr:housenumber" v="3"/>
    <tag k="addr:street" v="Valley View Drive"/>
    <tag k="addr:state" v="VT"/>
    <tag k="ref:vcgi:esiteid" v="139302"/>
  </node>
  <node id="-235" visible="true" lat="43.23672485" lon="-72.86351013">
    <tag k="addr:city" v="Landgrove"/>
    <tag k="addr:housenumber" v="11"/>
    <tag k="addr:street" v="Vermont Route 11"/>
    <tag k="addr:state" v="VT"/>
    <tag k="ref:vcgi:esiteid" v="139303"/>
  </node>
  <node id="-242" visible="true" lat="43.23301321" lon="-72.85587396">
    <tag k="addr:city" v="Landgrove"/>
    <tag k="addr:housenumber" v="25"/>
    <tag k="addr:street" v="Landgrove Hollow Road"/>
    <tag k="addr:state" v="VT"/>
    <tag k="ref:vcgi:esiteid" v="139310"/>
  </node>
  <node id="-246" visible="true" lat="43.28107718" lon="-72.85443606">
    <tag k="addr:city" v="Landgrove"/>
    <tag k="addr:housenumber" v="206"/>
    <tag k="addr:street" v="Landgrove Road"/>
    <tag k="addr:state" v="VT"/>
    <tag k="ref:vcgi:esiteid" v="139314"/>
  </node>
  <node id="-247" visible="true" lat="43.29464803" lon="-72.85528022">
    <tag k="addr:city" v="Landgrove"/>
    <tag k="addr:housenumber" v="23"/>
    <tag k="addr:street" v="Russet Hill Road"/>
    <tag k="addr:state" v="VT"/>
    <tag k="ref:vcgi:esiteid" v="139315"/>
  </node>
  <node id="-251" visible="true" lat="43.28887988" lon="-72.84500757">
    <tag k="addr:city" v="Landgrove"/>
    <tag k="addr:housenumber" v="296"/>
    <tag k="addr:street" v="Landgrove Road"/>
    <tag k="addr:state" v="VT"/>
    <tag k="ref:vcgi:esiteid" v="139319"/>
  </node>
  <node id="-252" visible="true" lat="43.28315365" lon="-72.85953121">
    <tag k="addr:city" v="Landgrove"/>
    <tag k="addr:housenumber" v="217"/>
    <tag k="addr:street" v="Landgrove Road"/>
    <tag k="addr:state" v="VT"/>
    <tag k="ref:vcgi:esiteid" v="139320"/>
  </node>
  <node id="-257" visible="true" lat="43.26439142" lon="-72.82324208">
    <tag k="addr:city" v="Landgrove"/>
    <tag k="addr:housenumber" v="25"/>
    <tag k="addr:street" v="Shaw Knoll Road"/>
    <tag k="addr:state" v="VT"/>
    <tag k="ref:vcgi:esiteid" v="139325"/>
  </node>
  <node id="-258" visible="true" lat="43.25999115" lon="-72.82070308">
    <tag k="addr:city" v="Landgrove"/>
    <tag k="addr:housenumber" v="35"/>
    <tag k="addr:street" v="Breeds Hill Drive"/>
    <tag k="addr:state" v="VT"/>
    <tag k="ref:vcgi:esiteid" v="139326"/>
  </node>
  <node id="-259" visible="true" lat="43.24320257" lon="-72.86412343">
    <tag k="addr:city" v="Landgrove"/>
    <tag k="addr:housenumber" v="63"/>
    <tag k="addr:street" v="Brook Road"/>
    <tag k="addr:state" v="VT"/>
    <tag k="ref:vcgi:esiteid" v="139329"/>
  </node>
  <node id="-260" visible="true" lat="43.20802784" lon="-72.85178966">
    <tag k="addr:city" v="Landgrove"/>
    <tag k="addr:housenumber" v="243"/>
    <tag k="addr:street" v="Beattie Road"/>
    <tag k="addr:state" v="VT"/>
    <tag k="ref:vcgi:esiteid" v="141978"/>
  </node>
  <node id="-261" visible="true" lat="43.27428051" lon="-72.82260673">
    <tag k="addr:city" v="Landgrove"/>
    <tag k="addr:housenumber" v="239"/>
    <tag k="addr:street" v="Holden Hill Road"/>
    <tag k="addr:state" v="VT"/>
    <tag k="ref:vcgi:esiteid" v="284986"/>
  </node>
  <node id="-262" visible="true" lat="43.26348662" lon="-72.82055196">
    <tag k="addr:city" v="Landgrove"/>
    <tag k="addr:housenumber" v="7"/>
    <tag k="addr:street" v="Breeds Hill Drive"/>
    <tag k="addr:state" v="VT"/>
    <tag k="ref:vcgi:esiteid" v="329432"/>
  </node>
  <node id="-265" visible="true" lat="43.26171228" lon="-72.82147127">
    <tag k="addr:city" v="Landgrove"/>
    <tag k="addr:housenumber" v="26"/>
    <tag k="addr:street" v="Breeds Hill Drive"/>
    <tag k="addr:state" v="VT"/>
    <tag k="ref:vcgi:esiteid" v="336567"/>
  </node>
  <node id="-266" visible="true" lat="43.26150149" lon="-72.81983956">
    <tag k="addr:city" v="Landgrove"/>
    <tag k="addr:housenumber" v="23"/>
    <tag k="addr:street" v="Breeds Hill Drive"/>
    <tag k="addr:state" v="VT"/>
    <tag k="ref:vcgi:esiteid" v="336751"/>
  </node>
  <node id="-267" visible="true" lat="43.27840818" lon="-72.85442001">
    <tag k="addr:city" v="Landgrove"/>
    <tag k="addr:housenumber" v="23"/>
    <tag k="addr:street" v="Uphill Road"/>
    <tag k="addr:state" v="VT"/>
    <tag k="ref:vcgi:esiteid" v="340229"/>
  </node>
  <node id="-269" visible="true" lat="43.26494221" lon="-72.81977232">
    <tag k="addr:city" v="Landgrove"/>
    <tag k="addr:housenumber" v="5"/>
    <tag k="addr:street" v="Shaw Knoll Road"/>
    <tag k="addr:state" v="VT"/>
    <tag k="ref:vcgi:esiteid" v="452509"/>
  </node>
  <node id="-274" visible="true" lat="43.28876607" lon="-72.84475696">
    <tag k="addr:city" v="Landgrove"/>
    <tag k="addr:housenumber" v="298"/>
    <tag k="addr:street" v="Landgrove Road"/>
    <tag k="addr:state" v="VT"/>
    <tag k="ref:vcgi:esiteid" v="613572"/>
  </node>
  <node id="-279" visible="true" lat="43.27587431" lon="-72.86088333">
    <tag k="addr:city" v="Landgrove"/>
    <tag k="addr:housenumber" v="163"/>
    <tag k="addr:street" v="Landgrove Road"/>
    <tag k="addr:state" v="VT"/>
    <tag k="ref:vcgi:esiteid" v="617458"/>
  </node>
  <node id="-282" visible="true" lat="43.27752312" lon="-72.86028527">
    <tag k="addr:city" v="Landgrove"/>
    <tag k="addr:housenumber" v="175"/>
    <tag k="addr:street" v="Landgrove Road"/>
    <tag k="addr:state" v="VT"/>
    <tag k="ref:vcgi:esiteid" v="618443"/>
  </node>
  <node id="-320" visible="true" lat="43.29804157" lon="-72.8263249">
    <tag k="addr:city" v="Landgrove"/>
    <tag k="addr:housenumber" v="521"/>
    <tag k="addr:street" v="Holt Mountain Road"/>
    <tag k="addr:state" v="VT"/>
    <tag k="ref:vcgi:esiteid" v="752091"/>
  </node>
  <node id="-321" visible="true" lat="43.26936747" lon="-72.86010472">
    <tag k="addr:city" v="Landgrove"/>
    <tag k="addr:housenumber" v="115"/>
    <tag k="addr:street" v="Landgrove Road"/>
    <tag k="addr:state" v="VT"/>
    <tag k="ref:vcgi:esiteid" v="755861"/>
  </node>
  <node id="-322" visible="true" lat="43.27093439" lon="-72.84128702">
    <tag k="addr:city" v="Landgrove"/>
    <tag k="addr:housenumber" v="80"/>
    <tag k="addr:street" v="Cody Road"/>
    <tag k="addr:state" v="VT"/>
    <tag k="ref:vcgi:esiteid" v="760997"/>
  </node>
  <node id="-323" visible="true" lat="43.26405" lon="-72.83748474">
    <tag k="addr:city" v="Landgrove"/>
    <tag k="addr:housenumber" v="28"/>
    <tag k="addr:street" v="Old County Rd E"/>
    <tag k="addr:state" v="VT"/>
    <tag k="ref:vcgi:esiteid" v="764318"/>
  </node>
  <node id="-324" visible="true" lat="43.26591623" lon="-72.85872707">
    <tag k="addr:city" v="Landgrove"/>
    <tag k="addr:housenumber" v="33"/>
    <tag k="addr:street" v="Hapgood Pond Road"/>
    <tag k="addr:state" v="VT"/>
    <tag k="ref:vcgi:esiteid" v="1050327"/>
  </node>
</osm>
