<?xml version="1.0" encoding="UTF-8"?>
<osm version="0.6" generator="JOSM" upload="false">
  <node id="-393" visible="true" lat="43.87331512" lon="-73.1599143">
    <tag k="addr:housenumber" v="1594"/>
    <tag k="addr:street" v="Old Jerusalem Road"/>
    <tag k="addr:state" v="VT"/>
    <tag k="ref:vcgi:esiteid" v="139625"/>
  </node>
  <node id="-398" visible="true" lat="43.87272099" lon="-73.15911873">
    <tag k="addr:housenumber" v="1561"/>
    <tag k="addr:street" v="Old Jerusalem Road"/>
    <tag k="addr:state" v="VT"/>
    <tag k="ref:vcgi:esiteid" v="139630"/>
  </node>
  <node id="-771" visible="true" lat="43.89714115" lon="-73.06999033">
    <tag k="addr:housenumber" v="605"/>
    <tag k="addr:street" v="Kelsey Lane"/>
    <tag k="addr:state" v="VT"/>
    <tag k="ref:vcgi:esiteid" v="216787"/>
  </node>
  <node id="-776" visible="true" lat="43.89366251" lon="-73.09710977">
    <tag k="addr:housenumber" v="2063"/>
    <tag k="addr:street" v="West Shore Road"/>
    <tag k="addr:state" v="VT"/>
    <tag k="ref:vcgi:esiteid" v="315370"/>
  </node>
  <node id="-834" visible="true" lat="43.88585176" lon="-73.04000009">
    <tag k="addr:housenumber" v="1730"/>
    <tag k="addr:street" v="Silver Lake Road"/>
    <tag k="addr:state" v="VT"/>
    <tag k="ref:vcgi:esiteid" v="755399"/>
  </node>
</osm>
