<?xml version="1.0" encoding="UTF-8"?>
<osm version="0.6" generator="JOSM">
  <node id="-131" visible="true" lat="44.14004889" lon="-73.02313861">
    <tag k="addr:city" v="Lincoln"/>
    <tag k="addr:housenumber" v="1324"/>
    <tag k="addr:street" v="Colby Hill Road"/>
    <tag k="addr:state" v="VT"/>
    <tag k="ref:vcgi:esiteid" v="140128"/>
  </node>
  <node id="-136" visible="true" lat="44.13860168" lon="-73.02276907">
    <tag k="addr:city" v="Lincoln"/>
    <tag k="addr:housenumber" v="1322"/>
    <tag k="addr:street" v="Colby Hill Road"/>
    <tag k="addr:state" v="VT"/>
    <tag k="ref:vcgi:esiteid" v="140133"/>
  </node>
  <node id="-143" visible="true" lat="44.13691048" lon="-73.02413771">
    <tag k="addr:city" v="Lincoln"/>
    <tag k="addr:housenumber" v="1291"/>
    <tag k="addr:street" v="Colby Hill Road"/>
    <tag k="addr:state" v="VT"/>
    <tag k="ref:vcgi:esiteid" v="140141"/>
  </node>
  <node id="-146" visible="true" lat="44.13589351" lon="-73.02235478">
    <tag k="addr:city" v="Lincoln"/>
    <tag k="addr:housenumber" v="1155"/>
    <tag k="addr:street" v="Colby Hill Road"/>
    <tag k="addr:state" v="VT"/>
    <tag k="ref:vcgi:esiteid" v="140144"/>
  </node>
  <node id="-148" visible="true" lat="44.13512588" lon="-73.02032599">
    <tag k="addr:city" v="Lincoln"/>
    <tag k="addr:housenumber" v="1078"/>
    <tag k="addr:street" v="Colby Hill Road"/>
    <tag k="addr:state" v="VT"/>
    <tag k="ref:vcgi:esiteid" v="140146"/>
  </node>
  <node id="-152" visible="true" lat="44.13430627" lon="-73.02170352">
    <tag k="addr:city" v="Lincoln"/>
    <tag k="addr:housenumber" v="1121"/>
    <tag k="addr:street" v="Colby Hill Road"/>
    <tag k="addr:state" v="VT"/>
    <tag k="ref:vcgi:esiteid" v="140150"/>
  </node>
  <node id="-156" visible="true" lat="44.13373453" lon="-73.01893197">
    <tag k="addr:city" v="Lincoln"/>
    <tag k="addr:housenumber" v="980"/>
    <tag k="addr:street" v="Colby Hill Road"/>
    <tag k="addr:state" v="VT"/>
    <tag k="ref:vcgi:esiteid" v="140154"/>
  </node>
  <node id="-157" visible="true" lat="44.13341863" lon="-73.02021869">
    <tag k="addr:city" v="Lincoln"/>
    <tag k="addr:housenumber" v="963"/>
    <tag k="addr:street" v="Colby Hill Road"/>
    <tag k="addr:state" v="VT"/>
    <tag k="ref:vcgi:esiteid" v="140155"/>
  </node>
  <node id="-179" visible="true" lat="44.13171491" lon="-73.0056073">
    <tag k="addr:city" v="Lincoln"/>
    <tag k="addr:housenumber" v="192"/>
    <tag k="addr:street" v="Isham Hollow Road"/>
    <tag k="addr:state" v="VT"/>
    <tag k="ref:vcgi:esiteid" v="140178"/>
  </node>
  <node id="-192" visible="true" lat="44.12835487" lon="-73.01245561">
    <tag k="addr:city" v="Lincoln"/>
    <tag k="addr:housenumber" v="577"/>
    <tag k="addr:street" v="Isham Hollow Road"/>
    <tag k="addr:state" v="VT"/>
    <tag k="ref:vcgi:esiteid" v="140191"/>
  </node>
  <node id="-193" visible="true" lat="44.12907392" lon="-73.01443289">
    <tag k="addr:city" v="Lincoln"/>
    <tag k="addr:housenumber" v="644"/>
    <tag k="addr:street" v="Isham Hollow Road"/>
    <tag k="addr:state" v="VT"/>
    <tag k="ref:vcgi:esiteid" v="140192"/>
  </node>
  <node id="-200" visible="true" lat="44.12812697" lon="-73.01657096">
    <tag k="addr:city" v="Lincoln"/>
    <tag k="addr:housenumber" v="547"/>
    <tag k="addr:street" v="Colby Hill Road"/>
    <tag k="addr:state" v="VT"/>
    <tag k="ref:vcgi:esiteid" v="140199"/>
  </node>
  <node id="-204" visible="true" lat="44.12751407" lon="-73.0201616">
    <tag k="addr:city" v="Lincoln"/>
    <tag k="addr:housenumber" v="371"/>
    <tag k="addr:street" v="Colby Hill Road"/>
    <tag k="addr:state" v="VT"/>
    <tag k="ref:vcgi:esiteid" v="140203"/>
  </node>
  <node id="-207" visible="true" lat="44.12667132" lon="-73.02666393">
    <tag k="addr:city" v="Lincoln"/>
    <tag k="addr:housenumber" v="622"/>
    <tag k="addr:street" v="Atkins Road"/>
    <tag k="addr:state" v="VT"/>
    <tag k="ref:vcgi:esiteid" v="140206"/>
  </node>
  <node id="-208" visible="true" lat="44.12613285" lon="-73.01887193">
    <tag k="addr:city" v="Lincoln"/>
    <tag k="addr:housenumber" v="390"/>
    <tag k="addr:street" v="Colby Hill Road"/>
    <tag k="addr:state" v="VT"/>
    <tag k="ref:vcgi:esiteid" v="140207"/>
  </node>
  <node id="-210" visible="true" lat="44.12661453" lon="-73.02484558">
    <tag k="addr:city" v="Lincoln"/>
    <tag k="addr:housenumber" v="89"/>
    <tag k="addr:street" v="Colby Hill Road"/>
    <tag k="addr:state" v="VT"/>
    <tag k="ref:vcgi:esiteid" v="140209"/>
  </node>
  <node id="-213" visible="true" lat="44.12572673" lon="-73.02864043">
    <tag k="addr:city" v="Lincoln"/>
    <tag k="addr:housenumber" v="741"/>
    <tag k="addr:street" v="Atkins Road"/>
    <tag k="addr:state" v="VT"/>
    <tag k="ref:vcgi:esiteid" v="140212"/>
  </node>
  <node id="-215" visible="true" lat="44.12476379" lon="-73.02405456">
    <tag k="addr:city" v="Lincoln"/>
    <tag k="addr:housenumber" v="396"/>
    <tag k="addr:street" v="Atkins Road"/>
    <tag k="addr:state" v="VT"/>
    <tag k="ref:vcgi:esiteid" v="140214"/>
  </node>
  <node id="-217" visible="true" lat="44.12356224" lon="-73.02247431">
    <tag k="addr:city" v="Lincoln"/>
    <tag k="addr:housenumber" v="332"/>
    <tag k="addr:street" v="Atkins Road"/>
    <tag k="addr:state" v="VT"/>
    <tag k="ref:vcgi:esiteid" v="140216"/>
  </node>
  <node id="-222" visible="true" lat="44.12297449" lon="-73.02365711">
    <tag k="addr:city" v="Lincoln"/>
    <tag k="addr:housenumber" v="321"/>
    <tag k="addr:street" v="Atkins Road"/>
    <tag k="addr:state" v="VT"/>
    <tag k="ref:vcgi:esiteid" v="140221"/>
  </node>
  <node id="-224" visible="true" lat="44.12277076" lon="-73.0220777">
    <tag k="addr:city" v="Lincoln"/>
    <tag k="addr:housenumber" v="270"/>
    <tag k="addr:street" v="Atkins Road"/>
    <tag k="addr:state" v="VT"/>
    <tag k="ref:vcgi:esiteid" v="140223"/>
  </node>
  <node id="-229" visible="true" lat="44.12214401" lon="-73.02355396">
    <tag k="addr:city" v="Lincoln"/>
    <tag k="addr:housenumber" v="257"/>
    <tag k="addr:street" v="Atkins Road"/>
    <tag k="addr:state" v="VT"/>
    <tag k="ref:vcgi:esiteid" v="140228"/>
  </node>
  <node id="-240" visible="true" lat="44.12035145" lon="-73.0214059">
    <tag k="addr:city" v="Lincoln"/>
    <tag k="addr:housenumber" v="112"/>
    <tag k="addr:street" v="Atkins Road"/>
    <tag k="addr:state" v="VT"/>
    <tag k="ref:vcgi:esiteid" v="140239"/>
  </node>
  <node id="-354" visible="true" lat="44.10407186" lon="-72.96514151">
    <tag k="addr:city" v="Lincoln"/>
    <tag k="addr:housenumber" v="393"/>
    <tag k="addr:street" v="Murray Road"/>
    <tag k="addr:state" v="VT"/>
    <tag k="ref:vcgi:esiteid" v="140355"/>
  </node>
  <node id="-361" visible="true" lat="44.10383987" lon="-72.96613311">
    <tag k="addr:city" v="Lincoln"/>
    <tag k="addr:housenumber" v="395"/>
    <tag k="addr:street" v="Murray Road"/>
    <tag k="addr:state" v="VT"/>
    <tag k="ref:vcgi:esiteid" v="140362"/>
  </node>
  <node id="-387" visible="true" lat="44.0995903" lon="-72.96315002">
    <tag k="addr:city" v="Lincoln"/>
    <tag k="addr:housenumber" v="278"/>
    <tag k="addr:street" v="Murray Road"/>
    <tag k="addr:state" v="VT"/>
    <tag k="ref:vcgi:esiteid" v="140389"/>
  </node>
  <node id="-388" visible="true" lat="44.09954071" lon="-72.96343994">
    <tag k="addr:city" v="Lincoln"/>
    <tag k="addr:housenumber" v="274"/>
    <tag k="addr:street" v="Murray Road"/>
    <tag k="addr:state" v="VT"/>
    <tag k="ref:vcgi:esiteid" v="140390"/>
  </node>
  <node id="-393" visible="true" lat="44.09885406" lon="-72.96349334">
    <tag k="addr:city" v="Lincoln"/>
    <tag k="addr:housenumber" v="220"/>
    <tag k="addr:street" v="Murray Road"/>
    <tag k="addr:state" v="VT"/>
    <tag k="ref:vcgi:esiteid" v="140395"/>
  </node>
  <node id="-406" visible="true" lat="44.09647893" lon="-72.96354998">
    <tag k="addr:city" v="Lincoln"/>
    <tag k="addr:housenumber" v="88"/>
    <tag k="addr:street" v="Murray Road"/>
    <tag k="addr:state" v="VT"/>
    <tag k="ref:vcgi:esiteid" v="140408"/>
  </node>
  <node id="-413" visible="true" lat="44.09589004" lon="-72.96211242">
    <tag k="addr:city" v="Lincoln"/>
    <tag k="addr:housenumber" v="1071"/>
    <tag k="addr:street" v="Lincoln Gap Road"/>
    <tag k="addr:state" v="VT"/>
    <tag k="ref:vcgi:esiteid" v="140415"/>
  </node>
  <node id="-419" visible="true" lat="44.09524306" lon="-72.96132565">
    <tag k="addr:city" v="Lincoln"/>
    <tag k="addr:housenumber" v="1211"/>
    <tag k="addr:street" v="Lincoln Gap Road"/>
    <tag k="addr:state" v="VT"/>
    <tag k="ref:vcgi:esiteid" v="140421"/>
  </node>
  <node id="-423" visible="true" lat="44.09457234" lon="-72.96193724">
    <tag k="addr:city" v="Lincoln"/>
    <tag k="addr:housenumber" v="1173"/>
    <tag k="addr:street" v="Lincoln Gap Road"/>
    <tag k="addr:state" v="VT"/>
    <tag k="ref:vcgi:esiteid" v="140425"/>
  </node>
  <node id="-426" visible="true" lat="44.09430216" lon="-72.96029316">
    <tag k="addr:city" v="Lincoln"/>
    <tag k="addr:housenumber" v="1275"/>
    <tag k="addr:street" v="Lincoln Gap Road"/>
    <tag k="addr:state" v="VT"/>
    <tag k="ref:vcgi:esiteid" v="140428"/>
  </node>
  <node id="-429" visible="true" lat="44.09336937" lon="-72.95761966">
    <tag k="addr:city" v="Lincoln"/>
    <tag k="addr:housenumber" v="1385"/>
    <tag k="addr:street" v="Lincoln Gap Road"/>
    <tag k="addr:state" v="VT"/>
    <tag k="ref:vcgi:esiteid" v="140431"/>
  </node>
  <node id="-433" visible="true" lat="44.09233023" lon="-72.93970397">
    <tag k="addr:city" v="Lincoln"/>
    <tag k="addr:housenumber" v="2556"/>
    <tag k="addr:street" v="Lincoln Gap Road"/>
    <tag k="addr:state" v="VT"/>
    <tag k="ref:vcgi:esiteid" v="140435"/>
  </node>
  <node id="-435" visible="true" lat="44.09215164" lon="-72.95603179">
    <tag k="addr:city" v="Lincoln"/>
    <tag k="addr:housenumber" v="1561"/>
    <tag k="addr:street" v="Lincoln Gap Road"/>
    <tag k="addr:state" v="VT"/>
    <tag k="ref:vcgi:esiteid" v="140437"/>
  </node>
  <node id="-436" visible="true" lat="44.09214782" lon="-72.95384216">
    <tag k="addr:city" v="Lincoln"/>
    <tag k="addr:housenumber" v="1655"/>
    <tag k="addr:street" v="Lincoln Gap Road"/>
    <tag k="addr:state" v="VT"/>
    <tag k="ref:vcgi:esiteid" v="140438"/>
  </node>
  <node id="-438" visible="true" lat="44.09184275" lon="-72.9551289">
    <tag k="addr:city" v="Lincoln"/>
    <tag k="addr:housenumber" v="1597"/>
    <tag k="addr:street" v="Lincoln Gap Road"/>
    <tag k="addr:state" v="VT"/>
    <tag k="ref:vcgi:esiteid" v="140440"/>
  </node>
  <node id="-439" visible="true" lat="44.09163219" lon="-72.96212517">
    <tag k="addr:city" v="Lincoln"/>
    <tag k="addr:housenumber" v="123"/>
    <tag k="addr:street" v="Geary Road North"/>
    <tag k="addr:state" v="VT"/>
    <tag k="ref:vcgi:esiteid" v="140441"/>
  </node>
  <node id="-444" visible="true" lat="44.09113395" lon="-72.95834428">
    <tag k="addr:city" v="Lincoln"/>
    <tag k="addr:housenumber" v="1438"/>
    <tag k="addr:street" v="Lincoln Gap Road"/>
    <tag k="addr:state" v="VT"/>
    <tag k="ref:vcgi:esiteid" v="140446"/>
  </node>
  <node id="-446" visible="true" lat="44.09090088" lon="-72.95460494">
    <tag k="addr:city" v="Lincoln"/>
    <tag k="addr:housenumber" v="1622"/>
    <tag k="addr:street" v="Lincoln Gap Road"/>
    <tag k="addr:state" v="VT"/>
    <tag k="ref:vcgi:esiteid" v="140448"/>
  </node>
  <node id="-447" visible="true" lat="44.09101486" lon="-72.93880462">
    <tag k="addr:city" v="Lincoln"/>
    <tag k="addr:housenumber" v="2668"/>
    <tag k="addr:street" v="Lincoln Gap Road"/>
    <tag k="addr:state" v="VT"/>
    <tag k="ref:vcgi:esiteid" v="140449"/>
  </node>
  <node id="-448" visible="true" lat="44.09095382" lon="-72.95129394">
    <tag k="addr:city" v="Lincoln"/>
    <tag k="addr:housenumber" v="1781"/>
    <tag k="addr:street" v="Lincoln Gap Road"/>
    <tag k="addr:state" v="VT"/>
    <tag k="ref:vcgi:esiteid" v="140450"/>
  </node>
  <node id="-449" visible="true" lat="44.09086176" lon="-72.96349753">
    <tag k="addr:city" v="Lincoln"/>
    <tag k="addr:housenumber" v="153"/>
    <tag k="addr:street" v="Geary Road North"/>
    <tag k="addr:state" v="VT"/>
    <tag k="ref:vcgi:esiteid" v="140451"/>
  </node>
  <node id="-450" visible="true" lat="44.09069965" lon="-72.95312569">
    <tag k="addr:city" v="Lincoln"/>
    <tag k="addr:housenumber" v="1710"/>
    <tag k="addr:street" v="Lincoln Gap Road"/>
    <tag k="addr:state" v="VT"/>
    <tag k="ref:vcgi:esiteid" v="140452"/>
  </node>
  <node id="-455" visible="true" lat="44.08874893" lon="-72.94934081">
    <tag k="addr:city" v="Lincoln"/>
    <tag k="addr:housenumber" v="1978"/>
    <tag k="addr:street" v="Lincoln Gap Road"/>
    <tag k="addr:state" v="VT"/>
    <tag k="ref:vcgi:esiteid" v="140457"/>
  </node>
  <node id="-456" visible="true" lat="44.08841705" lon="-72.94889068">
    <tag k="addr:city" v="Lincoln"/>
    <tag k="addr:housenumber" v="1948"/>
    <tag k="addr:street" v="Lincoln Gap Road"/>
    <tag k="addr:state" v="VT"/>
    <tag k="ref:vcgi:esiteid" v="140458"/>
  </node>
  <node id="-457" visible="true" lat="44.08803176" lon="-72.94812011">
    <tag k="addr:city" v="Lincoln"/>
    <tag k="addr:housenumber" v="2022"/>
    <tag k="addr:street" v="Lincoln Gap Road"/>
    <tag k="addr:state" v="VT"/>
    <tag k="ref:vcgi:esiteid" v="140459"/>
  </node>
  <node id="-460" visible="true" lat="44.0870753" lon="-72.96626025">
    <tag k="addr:city" v="Lincoln"/>
    <tag k="addr:housenumber" v="542"/>
    <tag k="addr:street" v="Geary Road North"/>
    <tag k="addr:state" v="VT"/>
    <tag k="ref:vcgi:esiteid" v="140462"/>
  </node>
  <node id="-470" visible="true" lat="44.08463174" lon="-72.96287191">
    <tag k="addr:city" v="Lincoln"/>
    <tag k="addr:housenumber" v="727"/>
    <tag k="addr:street" v="Geary Road North"/>
    <tag k="addr:state" v="VT"/>
    <tag k="ref:vcgi:esiteid" v="140472"/>
  </node>
  <node id="-472" visible="true" lat="44.08426798" lon="-72.96477718">
    <tag k="addr:city" v="Lincoln"/>
    <tag k="addr:housenumber" v="744"/>
    <tag k="addr:street" v="Geary Road North"/>
    <tag k="addr:state" v="VT"/>
    <tag k="ref:vcgi:esiteid" v="140474"/>
  </node>
  <node id="-473" visible="true" lat="44.08302688" lon="-72.96386718">
    <tag k="addr:city" v="Lincoln"/>
    <tag k="addr:housenumber" v="805"/>
    <tag k="addr:street" v="Geary Road North"/>
    <tag k="addr:state" v="VT"/>
    <tag k="ref:vcgi:esiteid" v="140475"/>
  </node>
  <node id="-474" visible="true" lat="44.08243001" lon="-72.96443066">
    <tag k="addr:city" v="Lincoln"/>
    <tag k="addr:housenumber" v="907"/>
    <tag k="addr:street" v="Geary Road North"/>
    <tag k="addr:state" v="VT"/>
    <tag k="ref:vcgi:esiteid" v="140476"/>
  </node>
  <node id="-475" visible="true" lat="44.08222361" lon="-72.9622949">
    <tag k="addr:city" v="Lincoln"/>
    <tag k="addr:housenumber" v="146"/>
    <tag k="addr:street" v="Geary Camp Road"/>
    <tag k="addr:state" v="VT"/>
    <tag k="ref:vcgi:esiteid" v="140477"/>
  </node>
  <node id="-476" visible="true" lat="44.08200529" lon="-72.96317825">
    <tag k="addr:city" v="Lincoln"/>
    <tag k="addr:housenumber" v="98"/>
    <tag k="addr:street" v="Geary Camp Road"/>
    <tag k="addr:state" v="VT"/>
    <tag k="ref:vcgi:esiteid" v="140478"/>
  </node>
  <node id="-491" visible="true" lat="44.07508525" lon="-72.96691938">
    <tag k="addr:city" v="Lincoln"/>
    <tag k="addr:housenumber" v="334"/>
    <tag k="addr:street" v="Geary Road South"/>
    <tag k="addr:state" v="VT"/>
    <tag k="ref:vcgi:esiteid" v="140494"/>
  </node>
  <node id="-503" visible="true" lat="44.07338211" lon="-72.9684482">
    <tag k="addr:city" v="Lincoln"/>
    <tag k="addr:housenumber" v="202"/>
    <tag k="addr:street" v="Geary Road South"/>
    <tag k="addr:state" v="VT"/>
    <tag k="ref:vcgi:esiteid" v="140507"/>
  </node>
  <node id="-514" visible="true" lat="44.07248488" lon="-72.96775668">
    <tag k="addr:city" v="Lincoln"/>
    <tag k="addr:housenumber" v="100"/>
    <tag k="addr:street" v="Geary Road South"/>
    <tag k="addr:state" v="VT"/>
    <tag k="ref:vcgi:esiteid" v="140519"/>
  </node>
  <node id="-517" visible="true" lat="44.07109698" lon="-72.97186394">
    <tag k="addr:city" v="Lincoln"/>
    <tag k="addr:housenumber" v="1900"/>
    <tag k="addr:street" v="South Lincoln Road"/>
    <tag k="addr:state" v="VT"/>
    <tag k="ref:vcgi:esiteid" v="140522"/>
  </node>
  <node id="-518" visible="true" lat="44.07095896" lon="-72.97252621">
    <tag k="addr:city" v="Lincoln"/>
    <tag k="addr:housenumber" v="17"/>
    <tag k="addr:street" v="Grimes Road"/>
    <tag k="addr:state" v="VT"/>
    <tag k="ref:vcgi:esiteid" v="140523"/>
  </node>
  <node id="-519" visible="true" lat="44.07106734" lon="-72.97127503">
    <tag k="addr:city" v="Lincoln"/>
    <tag k="addr:housenumber" v="1956"/>
    <tag k="addr:street" v="South Lincoln Road"/>
    <tag k="addr:state" v="VT"/>
    <tag k="ref:vcgi:esiteid" v="140524"/>
  </node>
  <node id="-520" visible="true" lat="44.07095476" lon="-72.97088">
    <tag k="addr:city" v="Lincoln"/>
    <tag k="addr:housenumber" v="1966"/>
    <tag k="addr:street" v="South Lincoln Road"/>
    <tag k="addr:state" v="VT"/>
    <tag k="ref:vcgi:esiteid" v="140525"/>
  </node>
  <node id="-521" visible="true" lat="44.07067664" lon="-72.97427099">
    <tag k="addr:city" v="Lincoln"/>
    <tag k="addr:housenumber" v="484"/>
    <tag k="addr:street" v="Mill Road"/>
    <tag k="addr:state" v="VT"/>
    <tag k="ref:vcgi:esiteid" v="140526"/>
  </node>
  <node id="-524" visible="true" lat="44.07026265" lon="-72.9753973">
    <tag k="addr:city" v="Lincoln"/>
    <tag k="addr:housenumber" v="162"/>
    <tag k="addr:street" v="Grimes Road"/>
    <tag k="addr:state" v="VT"/>
    <tag k="ref:vcgi:esiteid" v="140529"/>
  </node>
  <node id="-526" visible="true" lat="44.07022484" lon="-72.97297763">
    <tag k="addr:city" v="Lincoln"/>
    <tag k="addr:housenumber" v="67"/>
    <tag k="addr:street" v="County Road"/>
    <tag k="addr:state" v="VT"/>
    <tag k="ref:vcgi:esiteid" v="140531"/>
  </node>
  <node id="-527" visible="true" lat="44.07001367" lon="-72.97742596">
    <tag k="addr:city" v="Lincoln"/>
    <tag k="addr:housenumber" v="262"/>
    <tag k="addr:street" v="Grimes Road"/>
    <tag k="addr:state" v="VT"/>
    <tag k="ref:vcgi:esiteid" v="140532"/>
  </node>
  <node id="-528" visible="true" lat="44.07011504" lon="-72.97399307">
    <tag k="addr:city" v="Lincoln"/>
    <tag k="addr:housenumber" v="37"/>
    <tag k="addr:street" v="County Road"/>
    <tag k="addr:state" v="VT"/>
    <tag k="ref:vcgi:esiteid" v="140533"/>
  </node>
  <node id="-531" visible="true" lat="44.07001571" lon="-72.96895965">
    <tag k="addr:city" v="Lincoln"/>
    <tag k="addr:housenumber" v="2079"/>
    <tag k="addr:street" v="South Lincoln Road"/>
    <tag k="addr:state" v="VT"/>
    <tag k="ref:vcgi:esiteid" v="140536"/>
  </node>
  <node id="-532" visible="true" lat="44.06988232" lon="-72.97942479">
    <tag k="addr:city" v="Lincoln"/>
    <tag k="addr:housenumber" v="376"/>
    <tag k="addr:street" v="Grimes Road"/>
    <tag k="addr:state" v="VT"/>
    <tag k="ref:vcgi:esiteid" v="140537"/>
  </node>
  <node id="-533" visible="true" lat="44.06978207" lon="-72.97255095">
    <tag k="addr:city" v="Lincoln"/>
    <tag k="addr:housenumber" v="65"/>
    <tag k="addr:street" v="County Road"/>
    <tag k="addr:state" v="VT"/>
    <tag k="ref:vcgi:esiteid" v="140538"/>
  </node>
  <node id="-537" visible="true" lat="44.06926749" lon="-72.97271063">
    <tag k="addr:city" v="Lincoln"/>
    <tag k="addr:housenumber" v="71"/>
    <tag k="addr:street" v="County Road"/>
    <tag k="addr:state" v="VT"/>
    <tag k="ref:vcgi:esiteid" v="140542"/>
  </node>
  <node id="-538" visible="true" lat="44.06915538" lon="-72.9737809">
    <tag k="addr:city" v="Lincoln"/>
    <tag k="addr:housenumber" v="93"/>
    <tag k="addr:street" v="County Road"/>
    <tag k="addr:state" v="VT"/>
    <tag k="ref:vcgi:esiteid" v="140543"/>
  </node>
  <node id="-539" visible="true" lat="44.06901586" lon="-72.96568436">
    <tag k="addr:city" v="Lincoln"/>
    <tag k="addr:housenumber" v="147"/>
    <tag k="addr:street" v="French Settlement Road"/>
    <tag k="addr:state" v="VT"/>
    <tag k="ref:vcgi:esiteid" v="140544"/>
  </node>
  <node id="-541" visible="true" lat="44.06847701" lon="-72.9813574">
    <tag k="addr:city" v="Lincoln"/>
    <tag k="addr:housenumber" v="505"/>
    <tag k="addr:street" v="Grimes Road"/>
    <tag k="addr:state" v="VT"/>
    <tag k="ref:vcgi:esiteid" v="140546"/>
  </node>
  <node id="-542" visible="true" lat="44.06845653" lon="-72.97377168">
    <tag k="addr:city" v="Lincoln"/>
    <tag k="addr:housenumber" v="145"/>
    <tag k="addr:street" v="County Road"/>
    <tag k="addr:state" v="VT"/>
    <tag k="ref:vcgi:esiteid" v="140547"/>
  </node>
  <node id="-547" visible="true" lat="44.06789479" lon="-72.9736646">
    <tag k="addr:city" v="Lincoln"/>
    <tag k="addr:housenumber" v="183"/>
    <tag k="addr:street" v="County Road"/>
    <tag k="addr:state" v="VT"/>
    <tag k="ref:vcgi:esiteid" v="140552"/>
  </node>
  <node id="-548" visible="true" lat="44.06779368" lon="-72.96846912">
    <tag k="addr:city" v="Lincoln"/>
    <tag k="addr:housenumber" v="2232"/>
    <tag k="addr:street" v="South Lincoln Road"/>
    <tag k="addr:state" v="VT"/>
    <tag k="ref:vcgi:esiteid" v="140553"/>
  </node>
  <node id="-549" visible="true" lat="44.06686189" lon="-72.96815223">
    <tag k="addr:city" v="Lincoln"/>
    <tag k="addr:housenumber" v="2306"/>
    <tag k="addr:street" v="South Lincoln Road"/>
    <tag k="addr:state" v="VT"/>
    <tag k="ref:vcgi:esiteid" v="140554"/>
  </node>
  <node id="-550" visible="true" lat="44.06646728" lon="-72.96720886">
    <tag k="addr:city" v="Lincoln"/>
    <tag k="addr:housenumber" v="2311"/>
    <tag k="addr:street" v="South Lincoln Road"/>
    <tag k="addr:state" v="VT"/>
    <tag k="ref:vcgi:esiteid" v="140555"/>
  </node>
  <node id="-551" visible="true" lat="44.06609465" lon="-72.97300824">
    <tag k="addr:city" v="Lincoln"/>
    <tag k="addr:housenumber" v="297"/>
    <tag k="addr:street" v="County Road"/>
    <tag k="addr:state" v="VT"/>
    <tag k="ref:vcgi:esiteid" v="140556"/>
  </node>
  <node id="-552" visible="true" lat="44.06597049" lon="-72.9678343">
    <tag k="addr:city" v="Lincoln"/>
    <tag k="addr:housenumber" v="2367"/>
    <tag k="addr:street" v="South Lincoln Road"/>
    <tag k="addr:state" v="VT"/>
    <tag k="ref:vcgi:esiteid" v="140557"/>
  </node>
  <node id="-553" visible="true" lat="44.06573268" lon="-72.96939788">
    <tag k="addr:city" v="Lincoln"/>
    <tag k="addr:housenumber" v="2364"/>
    <tag k="addr:street" v="South Lincoln Road"/>
    <tag k="addr:state" v="VT"/>
    <tag k="ref:vcgi:esiteid" v="140558"/>
  </node>
  <node id="-555" visible="true" lat="44.06534759" lon="-72.9795408">
    <tag k="addr:city" v="Lincoln"/>
    <tag k="addr:housenumber" v="364"/>
    <tag k="addr:street" v="Cobb Hill Road"/>
    <tag k="addr:state" v="VT"/>
    <tag k="ref:vcgi:esiteid" v="140560"/>
  </node>
  <node id="-556" visible="true" lat="44.06525881" lon="-72.97313037">
    <tag k="addr:city" v="Lincoln"/>
    <tag k="addr:housenumber" v="6"/>
    <tag k="addr:street" v="Booska Lane"/>
    <tag k="addr:state" v="VT"/>
    <tag k="ref:vcgi:esiteid" v="140561"/>
  </node>
  <node id="-557" visible="true" lat="44.06501539" lon="-72.96761791">
    <tag k="addr:city" v="Lincoln"/>
    <tag k="addr:housenumber" v="2433"/>
    <tag k="addr:street" v="South Lincoln Road"/>
    <tag k="addr:state" v="VT"/>
    <tag k="ref:vcgi:esiteid" v="140562"/>
  </node>
  <node id="-558" visible="true" lat="44.06513306" lon="-72.96870705">
    <tag k="addr:city" v="Lincoln"/>
    <tag k="addr:housenumber" v="2430"/>
    <tag k="addr:street" v="South Lincoln Road"/>
    <tag k="addr:state" v="VT"/>
    <tag k="ref:vcgi:esiteid" v="140563"/>
  </node>
  <node id="-559" visible="true" lat="44.06502234" lon="-72.97075572">
    <tag k="addr:city" v="Lincoln"/>
    <tag k="addr:housenumber" v="57"/>
    <tag k="addr:street" v="Booska Lane"/>
    <tag k="addr:state" v="VT"/>
    <tag k="ref:vcgi:esiteid" v="140564"/>
  </node>
  <node id="-561" visible="true" lat="44.06377135" lon="-72.96152321">
    <tag k="addr:city" v="Lincoln"/>
    <tag k="addr:housenumber" v="115"/>
    <tag k="addr:street" v="Woods Way"/>
    <tag k="addr:state" v="VT"/>
    <tag k="ref:vcgi:esiteid" v="140566"/>
  </node>
  <node id="-562" visible="true" lat="44.06381803" lon="-72.96825517">
    <tag k="addr:city" v="Lincoln"/>
    <tag k="addr:housenumber" v="2500"/>
    <tag k="addr:street" v="South Lincoln Road"/>
    <tag k="addr:state" v="VT"/>
    <tag k="ref:vcgi:esiteid" v="140567"/>
  </node>
  <node id="-565" visible="true" lat="44.06349266" lon="-72.9654571">
    <tag k="addr:city" v="Lincoln"/>
    <tag k="addr:housenumber" v="91"/>
    <tag k="addr:street" v="Masterson Road"/>
    <tag k="addr:state" v="VT"/>
    <tag k="ref:vcgi:esiteid" v="140570"/>
  </node>
  <node id="-566" visible="true" lat="44.06322479" lon="-72.96741485">
    <tag k="addr:city" v="Lincoln"/>
    <tag k="addr:housenumber" v="2549"/>
    <tag k="addr:street" v="South Lincoln Road"/>
    <tag k="addr:state" v="VT"/>
    <tag k="ref:vcgi:esiteid" v="140571"/>
  </node>
  <node id="-568" visible="true" lat="44.06320475" lon="-72.96075485">
    <tag k="addr:city" v="Lincoln"/>
    <tag k="addr:housenumber" v="88"/>
    <tag k="addr:street" v="Woods Way"/>
    <tag k="addr:state" v="VT"/>
    <tag k="ref:vcgi:esiteid" v="140573"/>
  </node>
  <node id="-569" visible="true" lat="44.0627861" lon="-72.96723174">
    <tag k="addr:city" v="Lincoln"/>
    <tag k="addr:housenumber" v="2581"/>
    <tag k="addr:street" v="South Lincoln Road"/>
    <tag k="addr:state" v="VT"/>
    <tag k="ref:vcgi:esiteid" v="140574"/>
  </node>
  <node id="-570" visible="true" lat="44.06256484" lon="-72.96346282">
    <tag k="addr:city" v="Lincoln"/>
    <tag k="addr:housenumber" v="249"/>
    <tag k="addr:street" v="Masterson Road"/>
    <tag k="addr:state" v="VT"/>
    <tag k="ref:vcgi:esiteid" v="140575"/>
  </node>
  <node id="-571" visible="true" lat="44.06267228" lon="-72.97004312">
    <tag k="addr:city" v="Lincoln"/>
    <tag k="addr:housenumber" v="68"/>
    <tag k="addr:street" v="Booska Lane"/>
    <tag k="addr:state" v="VT"/>
    <tag k="ref:vcgi:esiteid" v="140576"/>
  </node>
  <node id="-572" visible="true" lat="44.06262032" lon="-72.96443227">
    <tag k="addr:city" v="Lincoln"/>
    <tag k="addr:housenumber" v="177"/>
    <tag k="addr:street" v="Masterson Road"/>
    <tag k="addr:state" v="VT"/>
    <tag k="ref:vcgi:esiteid" v="140577"/>
  </node>
  <node id="-573" visible="true" lat="44.06252691" lon="-72.96702825">
    <tag k="addr:city" v="Lincoln"/>
    <tag k="addr:housenumber" v="31"/>
    <tag k="addr:street" v="Masterson Road"/>
    <tag k="addr:state" v="VT"/>
    <tag k="ref:vcgi:esiteid" v="140578"/>
  </node>
  <node id="-574" visible="true" lat="44.06240627" lon="-72.95973055">
    <tag k="addr:city" v="Lincoln"/>
    <tag k="addr:housenumber" v="427"/>
    <tag k="addr:street" v="Masterson Road"/>
    <tag k="addr:state" v="VT"/>
    <tag k="ref:vcgi:esiteid" v="140579"/>
  </node>
  <node id="-575" visible="true" lat="44.0621109" lon="-72.96759796">
    <tag k="addr:city" v="Lincoln"/>
    <tag k="addr:housenumber" v="2622"/>
    <tag k="addr:street" v="South Lincoln Road"/>
    <tag k="addr:state" v="VT"/>
    <tag k="ref:vcgi:esiteid" v="140580"/>
  </node>
  <node id="-578" visible="true" lat="44.06192226" lon="-72.95704075">
    <tag k="addr:city" v="Lincoln"/>
    <tag k="addr:housenumber" v="490"/>
    <tag k="addr:street" v="Masterson Road"/>
    <tag k="addr:state" v="VT"/>
    <tag k="ref:vcgi:esiteid" v="140583"/>
  </node>
  <node id="-581" visible="true" lat="44.06170069" lon="-72.96200542">
    <tag k="addr:city" v="Lincoln"/>
    <tag k="addr:housenumber" v="282"/>
    <tag k="addr:street" v="Masterson Road"/>
    <tag k="addr:state" v="VT"/>
    <tag k="ref:vcgi:esiteid" v="140586"/>
  </node>
  <node id="-582" visible="true" lat="44.06157892" lon="-72.96025057">
    <tag k="addr:city" v="Lincoln"/>
    <tag k="addr:housenumber" v="348"/>
    <tag k="addr:street" v="Masterson Road"/>
    <tag k="addr:state" v="VT"/>
    <tag k="ref:vcgi:esiteid" v="140587"/>
  </node>
  <node id="-640" visible="true" lat="44.13135369" lon="-73.01923629">
    <tag k="addr:city" v="Lincoln"/>
    <tag k="addr:housenumber" v="685"/>
    <tag k="addr:street" v="Colby Hill Road"/>
    <tag k="addr:state" v="VT"/>
    <tag k="ref:vcgi:esiteid" v="140647"/>
  </node>
  <node id="-641" visible="true" lat="44.13251149" lon="-73.01992652">
    <tag k="addr:city" v="Lincoln"/>
    <tag k="addr:housenumber" v="833"/>
    <tag k="addr:street" v="Colby Hill Road"/>
    <tag k="addr:state" v="VT"/>
    <tag k="ref:vcgi:esiteid" v="140648"/>
  </node>
  <node id="-670" visible="true" lat="44.10889412" lon="-72.99882348">
    <tag k="addr:city" v="Lincoln"/>
    <tag k="addr:housenumber" v="222"/>
    <tag k="addr:street" v="West River Road"/>
    <tag k="addr:state" v="VT"/>
    <tag k="ref:vcgi:esiteid" v="311856"/>
  </node>
  <node id="-681" visible="true" lat="44.10199509" lon="-72.96509653">
    <tag k="addr:city" v="Lincoln"/>
    <tag k="addr:housenumber" v="391"/>
    <tag k="addr:street" v="Murray Road"/>
    <tag k="addr:state" v="VT"/>
    <tag k="ref:vcgi:esiteid" v="311867"/>
  </node>
  <node id="-682" visible="true" lat="44.10291188" lon="-72.96314281">
    <tag k="addr:city" v="Lincoln"/>
    <tag k="addr:housenumber" v="400"/>
    <tag k="addr:street" v="Murray Road"/>
    <tag k="addr:state" v="VT"/>
    <tag k="ref:vcgi:esiteid" v="311868"/>
  </node>
  <node id="-683" visible="true" lat="44.1037687" lon="-72.96371856">
    <tag k="addr:city" v="Lincoln"/>
    <tag k="addr:housenumber" v="402"/>
    <tag k="addr:street" v="Murray Road"/>
    <tag k="addr:state" v="VT"/>
    <tag k="ref:vcgi:esiteid" v="311869"/>
  </node>
  <node id="-684" visible="true" lat="44.10434809" lon="-72.96047128">
    <tag k="addr:city" v="Lincoln"/>
    <tag k="addr:housenumber" v="410"/>
    <tag k="addr:street" v="Murray Road"/>
    <tag k="addr:state" v="VT"/>
    <tag k="ref:vcgi:esiteid" v="311870"/>
  </node>
  <node id="-693" visible="true" lat="44.08885667" lon="-72.96379016">
    <tag k="addr:city" v="Lincoln"/>
    <tag k="addr:housenumber" v="501"/>
    <tag k="addr:street" v="Geary Road North"/>
    <tag k="addr:state" v="VT"/>
    <tag k="ref:vcgi:esiteid" v="311882"/>
  </node>
  <node id="-694" visible="true" lat="44.09652804" lon="-72.96066473">
    <tag k="addr:city" v="Lincoln"/>
    <tag k="addr:housenumber" v="1219"/>
    <tag k="addr:street" v="Lincoln Gap Road"/>
    <tag k="addr:state" v="VT"/>
    <tag k="ref:vcgi:esiteid" v="311883"/>
  </node>
  <node id="-695" visible="true" lat="44.09174067" lon="-72.94180116">
    <tag k="addr:city" v="Lincoln"/>
    <tag k="addr:housenumber" v="2461"/>
    <tag k="addr:street" v="Lincoln Gap Road"/>
    <tag k="addr:state" v="VT"/>
    <tag k="ref:vcgi:esiteid" v="311884"/>
  </node>
  <node id="-703" visible="true" lat="44.07013209" lon="-72.96775162">
    <tag k="addr:city" v="Lincoln"/>
    <tag k="addr:housenumber" v="33"/>
    <tag k="addr:street" v="French Settlement Road"/>
    <tag k="addr:state" v="VT"/>
    <tag k="ref:vcgi:esiteid" v="311892"/>
  </node>
  <node id="-704" visible="true" lat="44.06930889" lon="-72.96817375">
    <tag k="addr:city" v="Lincoln"/>
    <tag k="addr:housenumber" v="2129"/>
    <tag k="addr:street" v="South Lincoln Road"/>
    <tag k="addr:state" v="VT"/>
    <tag k="ref:vcgi:esiteid" v="311893"/>
  </node>
  <node id="-705" visible="true" lat="44.06839943" lon="-72.96768915">
    <tag k="addr:city" v="Lincoln"/>
    <tag k="addr:housenumber" v="2205"/>
    <tag k="addr:street" v="South Lincoln Road"/>
    <tag k="addr:state" v="VT"/>
    <tag k="ref:vcgi:esiteid" v="311894"/>
  </node>
  <node id="-706" visible="true" lat="44.06814915" lon="-72.96671603">
    <tag k="addr:city" v="Lincoln"/>
    <tag k="addr:housenumber" v="2225"/>
    <tag k="addr:street" v="South Lincoln Road"/>
    <tag k="addr:state" v="VT"/>
    <tag k="ref:vcgi:esiteid" v="311895"/>
  </node>
  <node id="-715" visible="true" lat="44.06720704" lon="-72.97339123">
    <tag k="addr:city" v="Lincoln"/>
    <tag k="addr:housenumber" v="227"/>
    <tag k="addr:street" v="County Road"/>
    <tag k="addr:state" v="VT"/>
    <tag k="ref:vcgi:esiteid" v="311906"/>
  </node>
  <node id="-716" visible="true" lat="44.06961406" lon="-72.98126591">
    <tag k="addr:city" v="Lincoln"/>
    <tag k="addr:housenumber" v="424"/>
    <tag k="addr:street" v="Grimes Road"/>
    <tag k="addr:state" v="VT"/>
    <tag k="ref:vcgi:esiteid" v="311907"/>
  </node>
  <node id="-743" visible="true" lat="44.08717713" lon="-72.96394447">
    <tag k="addr:city" v="Lincoln"/>
    <tag k="addr:housenumber" v="531"/>
    <tag k="addr:street" v="Geary Road North"/>
    <tag k="addr:state" v="VT"/>
    <tag k="ref:vcgi:esiteid" v="342901"/>
  </node>
  <node id="-749" visible="true" lat="44.06808512" lon="-72.97230945">
    <tag k="addr:city" v="Lincoln"/>
    <tag k="addr:housenumber" v="135"/>
    <tag k="addr:street" v="Riverside Drive"/>
    <tag k="addr:state" v="VT"/>
    <tag k="ref:vcgi:esiteid" v="342907"/>
  </node>
  <node id="-750" visible="true" lat="44.06769249" lon="-72.97221213">
    <tag k="addr:city" v="Lincoln"/>
    <tag k="addr:housenumber" v="175"/>
    <tag k="addr:street" v="Riverside Drive"/>
    <tag k="addr:state" v="VT"/>
    <tag k="ref:vcgi:esiteid" v="342908"/>
  </node>
  <node id="-751" visible="true" lat="44.06690215" lon="-72.97175341">
    <tag k="addr:city" v="Lincoln"/>
    <tag k="addr:housenumber" v="204"/>
    <tag k="addr:street" v="Riverside Drive"/>
    <tag k="addr:state" v="VT"/>
    <tag k="ref:vcgi:esiteid" v="342909"/>
  </node>
  <node id="-770" visible="true" lat="44.07572179" lon="-72.96767154">
    <tag k="addr:city" v="Lincoln"/>
    <tag k="addr:housenumber" v="341"/>
    <tag k="addr:street" v="Geary Road South"/>
    <tag k="addr:state" v="VT"/>
    <tag k="ref:vcgi:esiteid" v="450074"/>
  </node>
  <node id="-771" visible="true" lat="44.09142928" lon="-72.95638152">
    <tag k="addr:city" v="Lincoln"/>
    <tag k="addr:housenumber" v="1544"/>
    <tag k="addr:street" v="Lincoln Gap Road"/>
    <tag k="addr:state" v="VT"/>
    <tag k="ref:vcgi:esiteid" v="450075"/>
  </node>
  <node id="-777" visible="true" lat="44.09464572" lon="-72.92803166">
    <tag k="addr:city" v="Lincoln"/>
    <tag k="addr:housenumber" v="3600"/>
    <tag k="addr:street" v="Lincoln Gap Road"/>
    <tag k="addr:state" v="VT"/>
    <tag k="ref:vcgi:esiteid" v="450414"/>
  </node>
  <node id="-787" visible="true" lat="44.12859474" lon="-73.00552253">
    <tag k="addr:city" v="Lincoln"/>
    <tag k="addr:housenumber" v="203"/>
    <tag k="addr:street" v="Isham Hollow Road"/>
    <tag k="addr:state" v="VT"/>
    <tag k="ref:vcgi:esiteid" v="452956"/>
  </node>
  <node id="-790" visible="true" lat="44.08933383" lon="-72.96579841">
    <tag k="addr:city" v="Lincoln"/>
    <tag k="addr:housenumber" v="480"/>
    <tag k="addr:street" v="Geary Road North"/>
    <tag k="addr:state" v="VT"/>
    <tag k="ref:vcgi:esiteid" v="453029"/>
  </node>
  <node id="-791" visible="true" lat="44.06817676" lon="-72.96553117">
    <tag k="addr:city" v="Lincoln"/>
    <tag k="addr:housenumber" v="180"/>
    <tag k="addr:street" v="French Settlement Road"/>
    <tag k="addr:state" v="VT"/>
    <tag k="ref:vcgi:esiteid" v="453030"/>
  </node>
  <node id="-794" visible="true" lat="44.09291553" lon="-72.9587796">
    <tag k="addr:city" v="Lincoln"/>
    <tag k="addr:housenumber" v="1386"/>
    <tag k="addr:street" v="Lincoln Gap Road"/>
    <tag k="addr:state" v="VT"/>
    <tag k="ref:vcgi:esiteid" v="611279"/>
  </node>
  <node id="-797" visible="true" lat="44.12391392" lon="-73.02663064">
    <tag k="addr:city" v="Lincoln"/>
    <tag k="addr:housenumber" v="419"/>
    <tag k="addr:street" v="Atkins Road"/>
    <tag k="addr:state" v="VT"/>
    <tag k="ref:vcgi:esiteid" v="617454"/>
  </node>
  <node id="-817" visible="true" lat="44.08520917" lon="-72.96170506">
    <tag k="addr:city" v="Lincoln"/>
    <tag k="addr:housenumber" v="201"/>
    <tag k="addr:street" v="Geary Camp Road"/>
    <tag k="addr:state" v="VT"/>
    <tag k="ref:vcgi:esiteid" v="754621"/>
  </node>
</osm>
