<?xml version="1.0" encoding="UTF-8"?>
<osm version="0.6" generator="JOSM">
  <node id="-398" visible="true" lat="44.09766646" lon="-72.98616802">
    <!-- conflict: "795 East River Road, Lincoln, VT" Fuzzy match to "795 East River Road, Lincoln, " -->
    <tag k="addr:city" v="Lincoln"/>
    <tag k="addr:housenumber" v="795"/>
    <tag k="addr:street" v="East River Road"/>
    <tag k="addr:state" v="VT"/>
    <tag k="ref:vcgi:esiteid" v="140401"/>
  </node>
  <node id="-638" visible="true" lat="44.12793158" lon="-73.01889847">
    <!-- conflict: "409 Colby Hill Road, Lincoln, VT" No match in OSM, but a different address exists <5m away: "489 Colby Hill Road, Lincoln, VT" -->
    <tag k="addr:city" v="Lincoln"/>
    <tag k="addr:housenumber" v="409"/>
    <tag k="addr:street" v="Colby Hill Road"/>
    <tag k="addr:state" v="VT"/>
    <tag k="ref:vcgi:esiteid" v="140646"/>
  </node>
  <node id="-683" visible="true" lat="44.10434809" lon="-72.96047128">
    <!-- conflict: "501 Murray Road, Lincoln, VT" No match in OSM, but a different address exists <5m away: "410 Murray Road, Lincoln, VT" -->
    <tag k="addr:city" v="Lincoln"/>
    <tag k="addr:housenumber" v="501"/>
    <tag k="addr:street" v="Murray Road"/>
    <tag k="addr:state" v="VT"/>
    <tag k="ref:vcgi:esiteid" v="311870"/>
  </node>
</osm>
