<?xml version="1.0" encoding="UTF-8"?>
<osm version="0.6" generator="JOSM" upload="false">
  <node id="-100" visible="true" lat="44.83983463" lon="-72.39440593">
    <tag k="addr:housenumber" v="112"/>
    <tag k="addr:street" v="Robtoy Road"/>
    <tag k="addr:state" v="VT"/>
    <tag k="ref:vcgi:esiteid" v="142062"/>
  </node>
  <node id="-105" visible="true" lat="44.83442125" lon="-72.40124086">
    <tag k="addr:housenumber" v="3296"/>
    <tag k="addr:street" v="Carter Road"/>
    <tag k="addr:state" v="VT"/>
    <tag k="ref:vcgi:esiteid" v="142068"/>
  </node>
  <node id="-106" visible="true" lat="44.83369064" lon="-72.40130615">
    <tag k="addr:housenumber" v="3242"/>
    <tag k="addr:street" v="Carter Road"/>
    <tag k="addr:state" v="VT"/>
    <tag k="ref:vcgi:esiteid" v="142070"/>
  </node>
  <node id="-107" visible="true" lat="44.83358407" lon="-72.39417121">
    <tag k="addr:housenumber" v="395"/>
    <tag k="addr:street" v="Tenakee Road"/>
    <tag k="addr:state" v="VT"/>
    <tag k="ref:vcgi:esiteid" v="142071"/>
  </node>
  <node id="-108" visible="true" lat="44.83315996" lon="-72.46514952">
    <tag k="addr:housenumber" v="1201"/>
    <tag k="addr:street" v="Buck Hill Road"/>
    <tag k="addr:state" v="VT"/>
    <tag k="ref:vcgi:esiteid" v="142072"/>
  </node>
  <node id="-110" visible="true" lat="44.83284769" lon="-72.40055437">
    <tag k="addr:housenumber" v="3198"/>
    <tag k="addr:street" v="Carter Road"/>
    <tag k="addr:state" v="VT"/>
    <tag k="ref:vcgi:esiteid" v="142074"/>
  </node>
  <node id="-111" visible="true" lat="44.83254529" lon="-72.39261571">
    <tag k="addr:housenumber" v="474"/>
    <tag k="addr:street" v="Tenakee Road"/>
    <tag k="addr:state" v="VT"/>
    <tag k="ref:vcgi:esiteid" v="142075"/>
  </node>
  <node id="-112" visible="true" lat="44.83181002" lon="-72.391562">
    <tag k="addr:housenumber" v="556"/>
    <tag k="addr:street" v="Tenakee Road"/>
    <tag k="addr:state" v="VT"/>
    <tag k="ref:vcgi:esiteid" v="142078"/>
  </node>
  <node id="-113" visible="true" lat="44.83167749" lon="-72.46894543">
    <tag k="addr:housenumber" v="314"/>
    <tag k="addr:street" v="Keep Out Drive"/>
    <tag k="addr:state" v="VT"/>
    <tag k="ref:vcgi:esiteid" v="142079"/>
  </node>
  <node id="-115" visible="true" lat="44.83135171" lon="-72.46607755">
    <tag k="addr:housenumber" v="1077"/>
    <tag k="addr:street" v="Buck Hill Road"/>
    <tag k="addr:state" v="VT"/>
    <tag k="ref:vcgi:esiteid" v="142081"/>
  </node>
  <node id="-116" visible="true" lat="44.83140983" lon="-72.40397769">
    <tag k="addr:housenumber" v="3015"/>
    <tag k="addr:street" v="Carter Road"/>
    <tag k="addr:state" v="VT"/>
    <tag k="ref:vcgi:esiteid" v="142082"/>
  </node>
  <node id="-117" visible="true" lat="44.83121492" lon="-72.40112386">
    <tag k="addr:housenumber" v="3090"/>
    <tag k="addr:street" v="Carter Road"/>
    <tag k="addr:state" v="VT"/>
    <tag k="ref:vcgi:esiteid" v="142083"/>
  </node>
  <node id="-118" visible="true" lat="44.8305987" lon="-72.39001852">
    <tag k="addr:housenumber" v="671"/>
    <tag k="addr:street" v="Tenakee Road"/>
    <tag k="addr:state" v="VT"/>
    <tag k="ref:vcgi:esiteid" v="142084"/>
  </node>
  <node id="-120" visible="true" lat="44.8304861" lon="-72.40409631">
    <tag k="addr:housenumber" v="2953"/>
    <tag k="addr:street" v="Carter Road"/>
    <tag k="addr:state" v="VT"/>
    <tag k="ref:vcgi:esiteid" v="142086"/>
  </node>
  <node id="-121" visible="true" lat="44.8297274" lon="-72.39062432">
    <tag k="addr:housenumber" v="672"/>
    <tag k="addr:street" v="Tenakee Road"/>
    <tag k="addr:state" v="VT"/>
    <tag k="ref:vcgi:esiteid" v="142087"/>
  </node>
  <node id="-122" visible="true" lat="44.82996892" lon="-72.36736618">
    <tag k="addr:housenumber" v="1982"/>
    <tag k="addr:street" v="Robtoy Road"/>
    <tag k="addr:state" v="VT"/>
    <tag k="ref:vcgi:esiteid" v="142089"/>
  </node>
  <node id="-123" visible="true" lat="44.82714222" lon="-72.38719729">
    <tag k="addr:housenumber" v="945"/>
    <tag k="addr:street" v="Tenakee Road"/>
    <tag k="addr:state" v="VT"/>
    <tag k="ref:vcgi:esiteid" v="142090"/>
  </node>
  <node id="-125" visible="true" lat="44.82932339" lon="-72.46722541">
    <tag k="addr:housenumber" v="923"/>
    <tag k="addr:street" v="Buck Hill Road"/>
    <tag k="addr:state" v="VT"/>
    <tag k="ref:vcgi:esiteid" v="142092"/>
  </node>
  <node id="-126" visible="true" lat="44.82897186" lon="-72.43325805">
    <tag k="addr:housenumber" v="409"/>
    <tag k="addr:street" v="Vermont Route 100"/>
    <tag k="addr:state" v="VT"/>
    <tag k="ref:vcgi:esiteid" v="142093"/>
  </node>
  <node id="-127" visible="true" lat="44.82869639" lon="-72.50119985">
    <tag k="addr:housenumber" v="3640"/>
    <tag k="addr:street" v="Hazen Notch Road"/>
    <tag k="addr:state" v="VT"/>
    <tag k="ref:vcgi:esiteid" v="142094"/>
  </node>
  <node id="-130" visible="true" lat="44.82801437" lon="-72.498497">
    <tag k="addr:housenumber" v="3492"/>
    <tag k="addr:street" v="Hazen Notch Road"/>
    <tag k="addr:state" v="VT"/>
    <tag k="ref:vcgi:esiteid" v="142097"/>
  </node>
  <node id="-131" visible="true" lat="44.82776986" lon="-72.5034093">
    <tag k="addr:housenumber" v="50"/>
    <tag k="addr:street" v="Brookside Drive"/>
    <tag k="addr:state" v="VT"/>
    <tag k="ref:vcgi:esiteid" v="142098"/>
  </node>
  <node id="-132" visible="true" lat="44.82763728" lon="-72.46605773">
    <tag k="addr:housenumber" v="49"/>
    <tag k="addr:street" v="Pion Road"/>
    <tag k="addr:state" v="VT"/>
    <tag k="ref:vcgi:esiteid" v="142099"/>
  </node>
  <node id="-133" visible="true" lat="44.82744555" lon="-72.4358135">
    <tag k="addr:housenumber" v="556"/>
    <tag k="addr:street" v="Vermont Route 100"/>
    <tag k="addr:state" v="VT"/>
    <tag k="ref:vcgi:esiteid" v="142100"/>
  </node>
  <node id="-134" visible="true" lat="44.82709331" lon="-72.46796788">
    <tag k="addr:housenumber" v="761"/>
    <tag k="addr:street" v="Buck Hill Road"/>
    <tag k="addr:state" v="VT"/>
    <tag k="ref:vcgi:esiteid" v="142101"/>
  </node>
  <node id="-135" visible="true" lat="44.82688839" lon="-72.46057383">
    <tag k="addr:housenumber" v="225"/>
    <tag k="addr:street" v="Pion Road"/>
    <tag k="addr:state" v="VT"/>
    <tag k="ref:vcgi:esiteid" v="142102"/>
  </node>
  <node id="-137" visible="true" lat="44.82651851" lon="-72.46710842">
    <tag k="addr:housenumber" v="718"/>
    <tag k="addr:street" v="Buck Hill Road"/>
    <tag k="addr:state" v="VT"/>
    <tag k="ref:vcgi:esiteid" v="142104"/>
  </node>
  <node id="-138" visible="true" lat="44.82648144" lon="-72.43657225">
    <tag k="addr:housenumber" v="652"/>
    <tag k="addr:street" v="Vermont Route 100"/>
    <tag k="addr:state" v="VT"/>
    <tag k="ref:vcgi:esiteid" v="142105"/>
  </node>
  <node id="-139" visible="true" lat="44.82617816" lon="-72.46411805">
    <tag k="addr:housenumber" v="176"/>
    <tag k="addr:street" v="Pion Road"/>
    <tag k="addr:state" v="VT"/>
    <tag k="ref:vcgi:esiteid" v="142106"/>
  </node>
  <node id="-140" visible="true" lat="44.82344325" lon="-72.5055233">
    <tag k="addr:housenumber" v="272"/>
    <tag k="addr:street" v="Wilderness Drive"/>
    <tag k="addr:state" v="VT"/>
    <tag k="ref:vcgi:esiteid" v="142108"/>
  </node>
  <node id="-141" visible="true" lat="44.82595676" lon="-72.48335604">
    <tag k="addr:housenumber" v="185"/>
    <tag k="addr:street" v="Green Hill Road"/>
    <tag k="addr:state" v="VT"/>
    <tag k="ref:vcgi:esiteid" v="142109"/>
  </node>
  <node id="-142" visible="true" lat="44.82523968" lon="-72.50497949">
    <tag k="addr:housenumber" v="198"/>
    <tag k="addr:street" v="Brookside Drive"/>
    <tag k="addr:state" v="VT"/>
    <tag k="ref:vcgi:esiteid" v="142110"/>
  </node>
  <node id="-143" visible="true" lat="44.82518201" lon="-72.36258924">
    <tag k="addr:housenumber" v="2316"/>
    <tag k="addr:street" v="Robtoy Road"/>
    <tag k="addr:state" v="VT"/>
    <tag k="ref:vcgi:esiteid" v="142111"/>
  </node>
  <node id="-144" visible="true" lat="44.82484909" lon="-72.46221676">
    <tag k="addr:housenumber" v="310"/>
    <tag k="addr:street" v="Pion Road"/>
    <tag k="addr:state" v="VT"/>
    <tag k="ref:vcgi:esiteid" v="142112"/>
  </node>
  <node id="-145" visible="true" lat="44.82463563" lon="-72.41639669">
    <tag k="addr:housenumber" v="326"/>
    <tag k="addr:street" v="Blodgett Road"/>
    <tag k="addr:state" v="VT"/>
    <tag k="ref:vcgi:esiteid" v="142113"/>
  </node>
  <node id="-146" visible="true" lat="44.82450182" lon="-72.36272069">
    <tag k="addr:housenumber" v="2352"/>
    <tag k="addr:street" v="Robtoy Road"/>
    <tag k="addr:state" v="VT"/>
    <tag k="ref:vcgi:esiteid" v="142114"/>
  </node>
  <node id="-147" visible="true" lat="44.82416274" lon="-72.40843525">
    <tag k="addr:housenumber" v="2439"/>
    <tag k="addr:street" v="Carter Road"/>
    <tag k="addr:state" v="VT"/>
    <tag k="ref:vcgi:esiteid" v="142115"/>
  </node>
  <node id="-148" visible="true" lat="44.82402801" lon="-72.40686798">
    <tag k="addr:housenumber" v="2504"/>
    <tag k="addr:street" v="Carter Road"/>
    <tag k="addr:state" v="VT"/>
    <tag k="ref:vcgi:esiteid" v="142116"/>
  </node>
  <node id="-149" visible="true" lat="44.82363564" lon="-72.43860209">
    <tag k="addr:housenumber" v="874"/>
    <tag k="addr:street" v="Vermont Route 100"/>
    <tag k="addr:state" v="VT"/>
    <tag k="ref:vcgi:esiteid" v="142117"/>
  </node>
  <node id="-150" visible="true" lat="44.82300949" lon="-72.36280059">
    <tag k="addr:housenumber" v="2456"/>
    <tag k="addr:street" v="Robtoy Road"/>
    <tag k="addr:state" v="VT"/>
    <tag k="ref:vcgi:esiteid" v="142118"/>
  </node>
  <node id="-151" visible="true" lat="44.82280563" lon="-72.43945482">
    <tag k="addr:housenumber" v="928"/>
    <tag k="addr:street" v="Vermont Route 100"/>
    <tag k="addr:state" v="VT"/>
    <tag k="ref:vcgi:esiteid" v="142119"/>
  </node>
  <node id="-152" visible="true" lat="44.82281564" lon="-72.41021647">
    <tag k="addr:housenumber" v="2343"/>
    <tag k="addr:street" v="Carter Road"/>
    <tag k="addr:state" v="VT"/>
    <tag k="ref:vcgi:esiteid" v="142120"/>
  </node>
  <node id="-153" visible="true" lat="44.82270945" lon="-72.43637734">
    <tag k="addr:housenumber" v="89"/>
    <tag k="addr:street" v="Stephenson Road"/>
    <tag k="addr:state" v="VT"/>
    <tag k="ref:vcgi:esiteid" v="142121"/>
  </node>
  <node id="-154" visible="true" lat="44.8223648" lon="-72.41645049">
    <tag k="addr:housenumber" v="2013"/>
    <tag k="addr:street" v="Carter Road"/>
    <tag k="addr:state" v="VT"/>
    <tag k="ref:vcgi:esiteid" v="142122"/>
  </node>
  <node id="-155" visible="true" lat="44.82227219" lon="-72.41520579">
    <tag k="addr:housenumber" v="2125"/>
    <tag k="addr:street" v="Carter Road"/>
    <tag k="addr:state" v="VT"/>
    <tag k="ref:vcgi:esiteid" v="142123"/>
  </node>
  <node id="-156" visible="true" lat="44.82224077" lon="-72.4228899">
    <tag k="addr:housenumber" v="1715"/>
    <tag k="addr:street" v="Carter Road"/>
    <tag k="addr:state" v="VT"/>
    <tag k="ref:vcgi:esiteid" v="142124"/>
  </node>
  <node id="-157" visible="true" lat="44.8219186" lon="-72.46810732">
    <tag k="addr:housenumber" v="14"/>
    <tag k="addr:street" v="Richardson Road"/>
    <tag k="addr:state" v="VT"/>
    <tag k="ref:vcgi:esiteid" v="142125"/>
  </node>
  <node id="-158" visible="true" lat="44.82220415" lon="-72.43222625">
    <tag k="addr:housenumber" v="325"/>
    <tag k="addr:street" v="Stephenson Road"/>
    <tag k="addr:state" v="VT"/>
    <tag k="ref:vcgi:esiteid" v="142126"/>
  </node>
  <node id="-159" visible="true" lat="44.82178957" lon="-72.4661777">
    <tag k="addr:housenumber" v="94"/>
    <tag k="addr:street" v="Richardson Road"/>
    <tag k="addr:state" v="VT"/>
    <tag k="ref:vcgi:esiteid" v="142127"/>
  </node>
  <node id="-160" visible="true" lat="44.8218758" lon="-72.40893022">
    <tag k="addr:housenumber" v="830"/>
    <tag k="addr:street" v="Diette Road"/>
    <tag k="addr:state" v="VT"/>
    <tag k="ref:vcgi:esiteid" v="142128"/>
  </node>
  <node id="-161" visible="true" lat="44.82125627" lon="-72.41474129">
    <tag k="addr:housenumber" v="2108"/>
    <tag k="addr:street" v="Carter Road"/>
    <tag k="addr:state" v="VT"/>
    <tag k="ref:vcgi:esiteid" v="142129"/>
  </node>
  <node id="-162" visible="true" lat="44.82161979" lon="-72.42657304">
    <tag k="addr:housenumber" v="635"/>
    <tag k="addr:street" v="Stephenson Road"/>
    <tag k="addr:state" v="VT"/>
    <tag k="ref:vcgi:esiteid" v="142130"/>
  </node>
  <node id="-163" visible="true" lat="44.82134113" lon="-72.40936307">
    <tag k="addr:housenumber" v="819"/>
    <tag k="addr:street" v="Diette Road"/>
    <tag k="addr:state" v="VT"/>
    <tag k="ref:vcgi:esiteid" v="142131"/>
  </node>
  <node id="-164" visible="true" lat="44.81917009" lon="-72.4149782">
    <tag k="addr:housenumber" v="1980"/>
    <tag k="addr:street" v="Carter Road"/>
    <tag k="addr:state" v="VT"/>
    <tag k="ref:vcgi:esiteid" v="142132"/>
  </node>
  <node id="-165" visible="true" lat="44.82114791" lon="-72.47029876">
    <tag k="addr:housenumber" v="275"/>
    <tag k="addr:street" v="Buck Hill Road"/>
    <tag k="addr:state" v="VT"/>
    <tag k="ref:vcgi:esiteid" v="142133"/>
  </node>
  <node id="-166" visible="true" lat="44.82077413" lon="-72.43160437">
    <tag k="addr:housenumber" v="386"/>
    <tag k="addr:street" v="Stephenson Road"/>
    <tag k="addr:state" v="VT"/>
    <tag k="ref:vcgi:esiteid" v="142134"/>
  </node>
  <node id="-167" visible="true" lat="44.82044192" lon="-72.42290252">
    <tag k="addr:housenumber" v="1604"/>
    <tag k="addr:street" v="Carter Road"/>
    <tag k="addr:state" v="VT"/>
    <tag k="ref:vcgi:esiteid" v="142135"/>
  </node>
  <node id="-168" visible="true" lat="44.81948089" lon="-72.46967315">
    <tag k="addr:housenumber" v="224"/>
    <tag k="addr:street" v="Buck Hill Road"/>
    <tag k="addr:state" v="VT"/>
    <tag k="ref:vcgi:esiteid" v="142136"/>
  </node>
  <node id="-169" visible="true" lat="44.81911599" lon="-72.39476827">
    <tag k="addr:housenumber" v="194"/>
    <tag k="addr:street" v="Mitchell Road"/>
    <tag k="addr:state" v="VT"/>
    <tag k="ref:vcgi:esiteid" v="142137"/>
  </node>
  <node id="-170" visible="true" lat="44.8190843" lon="-72.39638809">
    <tag k="addr:housenumber" v="191"/>
    <tag k="addr:street" v="Mitchell Road"/>
    <tag k="addr:state" v="VT"/>
    <tag k="ref:vcgi:esiteid" v="142138"/>
  </node>
  <node id="-171" visible="true" lat="44.81890481" lon="-72.47625363">
    <tag k="addr:housenumber" v="2154"/>
    <tag k="addr:street" v="Hazen Notch Road"/>
    <tag k="addr:state" v="VT"/>
    <tag k="ref:vcgi:esiteid" v="142139"/>
  </node>
  <node id="-172" visible="true" lat="44.81887559" lon="-72.46996378">
    <tag k="addr:housenumber" v="180"/>
    <tag k="addr:street" v="Buck Hill Road"/>
    <tag k="addr:state" v="VT"/>
    <tag k="ref:vcgi:esiteid" v="142140"/>
  </node>
  <node id="-173" visible="true" lat="44.81872558" lon="-72.48425293">
    <tag k="addr:housenumber" v="3013"/>
    <tag k="addr:street" v="Hazen Notch Road"/>
    <tag k="addr:state" v="VT"/>
    <tag k="ref:vcgi:esiteid" v="142141"/>
  </node>
  <node id="-174" visible="true" lat="44.81876466" lon="-72.36057567">
    <tag k="addr:housenumber" v="4912"/>
    <tag k="addr:street" v="Vermont Route 58 East"/>
    <tag k="addr:state" v="VT"/>
    <tag k="ref:vcgi:esiteid" v="142142"/>
  </node>
  <node id="-175" visible="true" lat="44.81852766" lon="-72.47538858">
    <tag k="addr:housenumber" v="2092"/>
    <tag k="addr:street" v="Hazen Notch Road"/>
    <tag k="addr:state" v="VT"/>
    <tag k="ref:vcgi:esiteid" v="142143"/>
  </node>
  <node id="-176" visible="true" lat="44.81855975" lon="-72.44080148">
    <tag k="addr:housenumber" v="1242"/>
    <tag k="addr:street" v="Vermont Route 100"/>
    <tag k="addr:state" v="VT"/>
    <tag k="ref:vcgi:esiteid" v="142144"/>
  </node>
  <node id="-177" visible="true" lat="44.81837818" lon="-72.47201334">
    <tag k="addr:housenumber" v="99"/>
    <tag k="addr:street" v="Buck Hill Road"/>
    <tag k="addr:state" v="VT"/>
    <tag k="ref:vcgi:esiteid" v="142146"/>
  </node>
  <node id="-178" visible="true" lat="44.81783664" lon="-72.4414029">
    <tag k="addr:housenumber" v="1292"/>
    <tag k="addr:street" v="Vermont Route 100"/>
    <tag k="addr:state" v="VT"/>
    <tag k="ref:vcgi:esiteid" v="142147"/>
  </node>
  <node id="-179" visible="true" lat="44.81749725" lon="-72.36964416">
    <tag k="addr:housenumber" v="4467"/>
    <tag k="addr:street" v="Vermont Route 58 East"/>
    <tag k="addr:state" v="VT"/>
    <tag k="ref:vcgi:esiteid" v="142148"/>
  </node>
  <node id="-180" visible="true" lat="44.81751386" lon="-72.44965702">
    <tag k="addr:housenumber" v="420"/>
    <tag k="addr:street" v="Pope Road"/>
    <tag k="addr:state" v="VT"/>
    <tag k="ref:vcgi:esiteid" v="142150"/>
  </node>
  <node id="-181" visible="true" lat="44.81651204" lon="-72.395926">
    <tag k="addr:housenumber" v="79"/>
    <tag k="addr:street" v="Mitchell Road"/>
    <tag k="addr:state" v="VT"/>
    <tag k="ref:vcgi:esiteid" v="142151"/>
  </node>
  <node id="-182" visible="true" lat="44.81633377" lon="-72.39402008">
    <tag k="addr:housenumber" v="3211"/>
    <tag k="addr:street" v="Vermont Route 58 East"/>
    <tag k="addr:state" v="VT"/>
    <tag k="ref:vcgi:esiteid" v="142152"/>
  </node>
  <node id="-183" visible="true" lat="44.81647427" lon="-72.47233851">
    <tag k="addr:housenumber" v="1865"/>
    <tag k="addr:street" v="Hazen Notch Road"/>
    <tag k="addr:state" v="VT"/>
    <tag k="ref:vcgi:esiteid" v="142153"/>
  </node>
  <node id="-184" visible="true" lat="44.81632109" lon="-72.44497648">
    <tag k="addr:housenumber" v="144"/>
    <tag k="addr:street" v="Pope Road"/>
    <tag k="addr:state" v="VT"/>
    <tag k="ref:vcgi:esiteid" v="142154"/>
  </node>
  <node id="-185" visible="true" lat="44.81592121" lon="-72.3952324">
    <tag k="addr:housenumber" v="25"/>
    <tag k="addr:street" v="Mitchell Road"/>
    <tag k="addr:state" v="VT"/>
    <tag k="ref:vcgi:esiteid" v="142155"/>
  </node>
  <node id="-186" visible="true" lat="44.81567382" lon="-72.38908386">
    <tag k="addr:housenumber" v="3461"/>
    <tag k="addr:street" v="Vermont Route 58 East"/>
    <tag k="addr:state" v="VT"/>
    <tag k="ref:vcgi:esiteid" v="142156"/>
  </node>
  <node id="-187" visible="true" lat="44.81566238" lon="-72.38675689">
    <tag k="addr:housenumber" v="3559"/>
    <tag k="addr:street" v="Vermont Route 58 East"/>
    <tag k="addr:state" v="VT"/>
    <tag k="ref:vcgi:esiteid" v="142157"/>
  </node>
  <node id="-188" visible="true" lat="44.8155632" lon="-72.38833618">
    <tag k="addr:housenumber" v="3489"/>
    <tag k="addr:street" v="Vermont Route 58 East"/>
    <tag k="addr:state" v="VT"/>
    <tag k="ref:vcgi:esiteid" v="142158"/>
  </node>
  <node id="-189" visible="true" lat="44.81542915" lon="-72.44560643">
    <tag k="addr:housenumber" v="164"/>
    <tag k="addr:street" v="Pope Road"/>
    <tag k="addr:state" v="VT"/>
    <tag k="ref:vcgi:esiteid" v="142159"/>
  </node>
  <node id="-190" visible="true" lat="44.81517215" lon="-72.44660679">
    <tag k="addr:housenumber" v="201"/>
    <tag k="addr:street" v="Pope Road"/>
    <tag k="addr:state" v="VT"/>
    <tag k="ref:vcgi:esiteid" v="142160"/>
  </node>
  <node id="-191" visible="true" lat="44.81511849" lon="-72.39721323">
    <tag k="addr:housenumber" v="3061"/>
    <tag k="addr:street" v="Vermont Route 58 East"/>
    <tag k="addr:state" v="VT"/>
    <tag k="ref:vcgi:esiteid" v="142161"/>
  </node>
  <node id="-192" visible="true" lat="44.81495389" lon="-72.40352712">
    <tag k="addr:housenumber" v="282"/>
    <tag k="addr:street" v="Diette Road"/>
    <tag k="addr:state" v="VT"/>
    <tag k="ref:vcgi:esiteid" v="142162"/>
  </node>
  <node id="-193" visible="true" lat="44.81523632" lon="-72.37942163">
    <tag k="addr:housenumber" v="3991"/>
    <tag k="addr:street" v="Vermont Route 58 East"/>
    <tag k="addr:state" v="VT"/>
    <tag k="ref:vcgi:esiteid" v="142163"/>
  </node>
  <node id="-194" visible="true" lat="44.81490326" lon="-72.44535827">
    <tag k="addr:housenumber" v="147"/>
    <tag k="addr:street" v="Pope Road"/>
    <tag k="addr:state" v="VT"/>
    <tag k="ref:vcgi:esiteid" v="142164"/>
  </node>
  <node id="-195" visible="true" lat="44.81479141" lon="-72.43432958">
    <tag k="addr:housenumber" v="1291"/>
    <tag k="addr:street" v="Vermont Route 100"/>
    <tag k="addr:state" v="VT"/>
    <tag k="ref:vcgi:esiteid" v="142165"/>
  </node>
  <node id="-196" visible="true" lat="44.81457483" lon="-72.4701573">
    <tag k="addr:housenumber" v="1713"/>
    <tag k="addr:street" v="Hazen Notch Road"/>
    <tag k="addr:state" v="VT"/>
    <tag k="ref:vcgi:esiteid" v="142166"/>
  </node>
  <node id="-197" visible="true" lat="44.81413088" lon="-72.4687183">
    <tag k="addr:housenumber" v="1645"/>
    <tag k="addr:street" v="Hazen Notch Road"/>
    <tag k="addr:state" v="VT"/>
    <tag k="ref:vcgi:esiteid" v="142167"/>
  </node>
  <node id="-198" visible="true" lat="44.81393003" lon="-72.38074494">
    <tag k="addr:housenumber" v="3894"/>
    <tag k="addr:street" v="Vermont Route 58 East"/>
    <tag k="addr:state" v="VT"/>
    <tag k="ref:vcgi:esiteid" v="142168"/>
  </node>
  <node id="-200" visible="true" lat="44.80530065" lon="-72.38065313">
    <tag k="addr:housenumber" v="257"/>
    <tag k="addr:street" v="Ridgeview Drive"/>
    <tag k="addr:state" v="VT"/>
    <tag k="ref:vcgi:esiteid" v="142170"/>
  </node>
  <node id="-201" visible="true" lat="44.81369242" lon="-72.38040778">
    <tag k="addr:housenumber" v="3898"/>
    <tag k="addr:street" v="Vermont Route 58 East"/>
    <tag k="addr:state" v="VT"/>
    <tag k="ref:vcgi:esiteid" v="142171"/>
  </node>
  <node id="-202" visible="true" lat="44.8132162" lon="-72.4271363">
    <tag k="addr:housenumber" v="187"/>
    <tag k="addr:street" v="Adams Road"/>
    <tag k="addr:state" v="VT"/>
    <tag k="ref:vcgi:esiteid" v="142172"/>
  </node>
  <node id="-203" visible="true" lat="44.81317914" lon="-72.44329515">
    <tag k="addr:housenumber" v="1623"/>
    <tag k="addr:street" v="Vermont Route 100"/>
    <tag k="addr:state" v="VT"/>
    <tag k="ref:vcgi:esiteid" v="142173"/>
  </node>
  <node id="-204" visible="true" lat="44.81326229" lon="-72.40317688">
    <tag k="addr:housenumber" v="138"/>
    <tag k="addr:street" v="Diette Road"/>
    <tag k="addr:state" v="VT"/>
    <tag k="ref:vcgi:esiteid" v="142174"/>
  </node>
  <node id="-205" visible="true" lat="44.81339249" lon="-72.3988376">
    <tag k="addr:housenumber" v="2903"/>
    <tag k="addr:street" v="Vermont Route 58 East"/>
    <tag k="addr:state" v="VT"/>
    <tag k="ref:vcgi:esiteid" v="142175"/>
  </node>
  <node id="-206" visible="true" lat="44.81298203" lon="-72.40465473">
    <tag k="addr:housenumber" v="137"/>
    <tag k="addr:street" v="Diette Road"/>
    <tag k="addr:state" v="VT"/>
    <tag k="ref:vcgi:esiteid" v="142176"/>
  </node>
  <node id="-207" visible="true" lat="44.81266316" lon="-72.39846261">
    <tag k="addr:housenumber" v="2890"/>
    <tag k="addr:street" v="Vermont Route 58 East"/>
    <tag k="addr:state" v="VT"/>
    <tag k="ref:vcgi:esiteid" v="142177"/>
  </node>
  <node id="-208" visible="true" lat="44.81279943" lon="-72.39529026">
    <tag k="addr:housenumber" v="129"/>
    <tag k="addr:street" v="Sheltra Hill Road"/>
    <tag k="addr:state" v="VT"/>
    <tag k="ref:vcgi:esiteid" v="142178"/>
  </node>
  <node id="-209" visible="true" lat="44.81247282" lon="-72.43334105">
    <tag k="addr:housenumber" v="865"/>
    <tag k="addr:street" v="Carter Road"/>
    <tag k="addr:state" v="VT"/>
    <tag k="ref:vcgi:esiteid" v="142179"/>
  </node>
  <node id="-210" visible="true" lat="44.81233215" lon="-72.40206909">
    <tag k="addr:housenumber" v="2673"/>
    <tag k="addr:street" v="Vermont Route 58 East"/>
    <tag k="addr:state" v="VT"/>
    <tag k="ref:vcgi:esiteid" v="142180"/>
  </node>
  <node id="-211" visible="true" lat="44.81171386" lon="-72.44359774">
    <tag k="addr:housenumber" v="1745"/>
    <tag k="addr:street" v="Vermont Route 100"/>
    <tag k="addr:state" v="VT"/>
    <tag k="ref:vcgi:esiteid" v="142181"/>
  </node>
  <node id="-212" visible="true" lat="44.81150077" lon="-72.43511824">
    <tag k="addr:housenumber" v="703"/>
    <tag k="addr:street" v="Carter Road"/>
    <tag k="addr:state" v="VT"/>
    <tag k="ref:vcgi:esiteid" v="142182"/>
  </node>
  <node id="-213" visible="true" lat="44.81128177" lon="-72.47121021">
    <tag k="addr:housenumber" v="262"/>
    <tag k="addr:street" v="Mines Road"/>
    <tag k="addr:state" v="VT"/>
    <tag k="ref:vcgi:esiteid" v="142183"/>
  </node>
  <node id="-214" visible="true" lat="44.81093706" lon="-72.44454045">
    <tag k="addr:housenumber" v="1799"/>
    <tag k="addr:street" v="Vermont Route 100"/>
    <tag k="addr:state" v="VT"/>
    <tag k="ref:vcgi:esiteid" v="142184"/>
  </node>
  <node id="-215" visible="true" lat="44.81018324" lon="-72.43442816">
    <tag k="addr:housenumber" v="668"/>
    <tag k="addr:street" v="Carter Road"/>
    <tag k="addr:state" v="VT"/>
    <tag k="ref:vcgi:esiteid" v="142185"/>
  </node>
  <node id="-216" visible="true" lat="44.81001446" lon="-72.48160105">
    <tag k="addr:housenumber" v="429"/>
    <tag k="addr:street" v="Baraw Road"/>
    <tag k="addr:state" v="VT"/>
    <tag k="ref:vcgi:esiteid" v="142186"/>
  </node>
  <node id="-217" visible="true" lat="44.80954621" lon="-72.44082955">
    <tag k="addr:housenumber" v="379"/>
    <tag k="addr:street" v="Carter Road"/>
    <tag k="addr:state" v="VT"/>
    <tag k="ref:vcgi:esiteid" v="142187"/>
  </node>
  <node id="-218" visible="true" lat="44.80895149" lon="-72.45957743">
    <tag k="addr:housenumber" v="1038"/>
    <tag k="addr:street" v="Hazen Notch Road"/>
    <tag k="addr:state" v="VT"/>
    <tag k="ref:vcgi:esiteid" v="142188"/>
  </node>
  <node id="-219" visible="true" lat="44.80833474" lon="-72.47997349">
    <tag k="addr:housenumber" v="256"/>
    <tag k="addr:street" v="Baraw Road"/>
    <tag k="addr:state" v="VT"/>
    <tag k="ref:vcgi:esiteid" v="142189"/>
  </node>
  <node id="-220" visible="true" lat="44.80892848" lon="-72.46032579">
    <tag k="addr:housenumber" v="1027"/>
    <tag k="addr:street" v="Hazen Notch Road"/>
    <tag k="addr:state" v="VT"/>
    <tag k="ref:vcgi:esiteid" v="142190"/>
  </node>
  <node id="-221" visible="true" lat="44.80883982" lon="-72.40913328">
    <tag k="addr:housenumber" v="2292"/>
    <tag k="addr:street" v="Vermont Route 58 East"/>
    <tag k="addr:state" v="VT"/>
    <tag k="ref:vcgi:esiteid" v="142191"/>
  </node>
  <node id="-222" visible="true" lat="44.8075107" lon="-72.47785469">
    <tag k="addr:housenumber" v="140"/>
    <tag k="addr:street" v="Baraw Road"/>
    <tag k="addr:state" v="VT"/>
    <tag k="ref:vcgi:esiteid" v="142192"/>
  </node>
  <node id="-223" visible="true" lat="44.80810928" lon="-72.44617462">
    <tag k="addr:housenumber" v="2005"/>
    <tag k="addr:street" v="Vermont Route 100"/>
    <tag k="addr:state" v="VT"/>
    <tag k="ref:vcgi:esiteid" v="142193"/>
  </node>
  <node id="-224" visible="true" lat="44.80771115" lon="-72.44607742">
    <tag k="addr:housenumber" v="2047"/>
    <tag k="addr:street" v="Vermont Route 100"/>
    <tag k="addr:state" v="VT"/>
    <tag k="ref:vcgi:esiteid" v="142194"/>
  </node>
  <node id="-225" visible="true" lat="44.80733555" lon="-72.44645301">
    <tag k="addr:housenumber" v="2069"/>
    <tag k="addr:street" v="Vermont Route 100"/>
    <tag k="addr:state" v="VT"/>
    <tag k="ref:vcgi:esiteid" v="142195"/>
  </node>
  <node id="-226" visible="true" lat="44.8070959" lon="-72.47602245">
    <tag k="addr:housenumber" v="644"/>
    <tag k="addr:street" v="Mines Road"/>
    <tag k="addr:state" v="VT"/>
    <tag k="ref:vcgi:esiteid" v="142196"/>
  </node>
  <node id="-227" visible="true" lat="44.80709015" lon="-72.44728976">
    <tag k="addr:housenumber" v="2104"/>
    <tag k="addr:street" v="Vermont Route 100"/>
    <tag k="addr:state" v="VT"/>
    <tag k="ref:vcgi:esiteid" v="142197"/>
  </node>
  <node id="-228" visible="true" lat="44.80678176" lon="-72.47615051">
    <tag k="addr:housenumber" v="12"/>
    <tag k="addr:street" v="Baraw Road"/>
    <tag k="addr:state" v="VT"/>
    <tag k="ref:vcgi:esiteid" v="142198"/>
  </node>
  <node id="-229" visible="true" lat="44.807172" lon="-72.46074392">
    <tag k="addr:housenumber" v="863"/>
    <tag k="addr:street" v="Hazen Notch Road"/>
    <tag k="addr:state" v="VT"/>
    <tag k="ref:vcgi:esiteid" v="142199"/>
  </node>
  <node id="-230" visible="true" lat="44.80563354" lon="-72.45030975">
    <tag k="addr:housenumber" v="140"/>
    <tag k="addr:street" v="Gelo Park Road"/>
    <tag k="addr:state" v="VT"/>
    <tag k="ref:vcgi:esiteid" v="142200"/>
  </node>
  <node id="-232" visible="true" lat="44.80449972" lon="-72.4581796">
    <tag k="addr:housenumber" v="660"/>
    <tag k="addr:street" v="Hazen Notch Road"/>
    <tag k="addr:state" v="VT"/>
    <tag k="ref:vcgi:esiteid" v="142204"/>
  </node>
  <node id="-233" visible="true" lat="44.8047067" lon="-72.46004539">
    <tag k="addr:housenumber" v="14"/>
    <tag k="addr:street" v="Valley Road"/>
    <tag k="addr:state" v="VT"/>
    <tag k="ref:vcgi:esiteid" v="142205"/>
  </node>
  <node id="-234" visible="true" lat="44.8043251" lon="-72.45896911">
    <tag k="addr:housenumber" v="683"/>
    <tag k="addr:street" v="Hazen Notch Road"/>
    <tag k="addr:state" v="VT"/>
    <tag k="ref:vcgi:esiteid" v="142206"/>
  </node>
  <node id="-235" visible="true" lat="44.80406272" lon="-72.44831779">
    <tag k="addr:housenumber" v="2306"/>
    <tag k="addr:street" v="Vermont Route 100"/>
    <tag k="addr:state" v="VT"/>
    <tag k="ref:vcgi:esiteid" v="142207"/>
  </node>
  <node id="-236" visible="true" lat="44.80374719" lon="-72.46056606">
    <tag k="addr:housenumber" v="91"/>
    <tag k="addr:street" v="Valley Road"/>
    <tag k="addr:state" v="VT"/>
    <tag k="ref:vcgi:esiteid" v="142208"/>
  </node>
  <node id="-237" visible="true" lat="44.80336816" lon="-72.44773533">
    <tag k="addr:housenumber" v="2337"/>
    <tag k="addr:street" v="Vermont Route 100"/>
    <tag k="addr:state" v="VT"/>
    <tag k="ref:vcgi:esiteid" v="142209"/>
  </node>
  <node id="-238" visible="true" lat="44.80330317" lon="-72.46114506">
    <tag k="addr:housenumber" v="127"/>
    <tag k="addr:street" v="Valley Road"/>
    <tag k="addr:state" v="VT"/>
    <tag k="ref:vcgi:esiteid" v="142210"/>
  </node>
  <node id="-239" visible="true" lat="44.80342374" lon="-72.44870718">
    <tag k="addr:housenumber" v="2370"/>
    <tag k="addr:street" v="Vermont Route 100"/>
    <tag k="addr:state" v="VT"/>
    <tag k="ref:vcgi:esiteid" v="142211"/>
  </node>
  <node id="-240" visible="true" lat="44.8030291" lon="-72.48019498">
    <tag k="addr:housenumber" v="987"/>
    <tag k="addr:street" v="Mines Road"/>
    <tag k="addr:state" v="VT"/>
    <tag k="ref:vcgi:esiteid" v="142212"/>
  </node>
  <node id="-241" visible="true" lat="44.80317142" lon="-72.45614998">
    <tag k="addr:housenumber" v="501"/>
    <tag k="addr:street" v="Hazen Notch Road"/>
    <tag k="addr:state" v="VT"/>
    <tag k="ref:vcgi:esiteid" v="142213"/>
  </node>
  <node id="-242" visible="true" lat="44.80299032" lon="-72.44864801">
    <tag k="addr:housenumber" v="2390"/>
    <tag k="addr:street" v="Vermont Route 100"/>
    <tag k="addr:state" v="VT"/>
    <tag k="ref:vcgi:esiteid" v="142215"/>
  </node>
  <node id="-243" visible="true" lat="44.80265625" lon="-72.45570159">
    <tag k="addr:housenumber" v="463"/>
    <tag k="addr:street" v="Hazen Notch Road"/>
    <tag k="addr:state" v="VT"/>
    <tag k="ref:vcgi:esiteid" v="142216"/>
  </node>
  <node id="-244" visible="true" lat="44.80242056" lon="-72.44719505">
    <tag k="addr:housenumber" v="2419"/>
    <tag k="addr:street" v="Vermont Route 100"/>
    <tag k="addr:state" v="VT"/>
    <tag k="ref:vcgi:esiteid" v="142217"/>
  </node>
  <node id="-245" visible="true" lat="44.80203239" lon="-72.44792021">
    <tag k="addr:housenumber" v="2451"/>
    <tag k="addr:street" v="Vermont Route 100"/>
    <tag k="addr:state" v="VT"/>
    <tag k="ref:vcgi:esiteid" v="142218"/>
  </node>
  <node id="-246" visible="true" lat="44.80197184" lon="-72.45489725">
    <tag k="addr:housenumber" v="401"/>
    <tag k="addr:street" v="Hazen Notch Road"/>
    <tag k="addr:state" v="VT"/>
    <tag k="ref:vcgi:esiteid" v="142219"/>
  </node>
  <node id="-247" visible="true" lat="44.80193167" lon="-72.45443879">
    <tag k="addr:housenumber" v="396"/>
    <tag k="addr:street" v="Hazen Notch Road"/>
    <tag k="addr:state" v="VT"/>
    <tag k="ref:vcgi:esiteid" v="142220"/>
  </node>
  <node id="-248" visible="true" lat="44.80189512" lon="-72.481131">
    <tag k="addr:housenumber" v="1079"/>
    <tag k="addr:street" v="Mines Road"/>
    <tag k="addr:state" v="VT"/>
    <tag k="ref:vcgi:esiteid" v="142221"/>
  </node>
  <node id="-249" visible="true" lat="44.80184562" lon="-72.43945893">
    <tag k="addr:housenumber" v="411"/>
    <tag k="addr:street" v="Vermont Route 58 East"/>
    <tag k="addr:state" v="VT"/>
    <tag k="ref:vcgi:esiteid" v="142222"/>
  </node>
  <node id="-250" visible="true" lat="44.80168934" lon="-72.44848793">
    <tag k="addr:housenumber" v="2468"/>
    <tag k="addr:street" v="Vermont Route 100"/>
    <tag k="addr:state" v="VT"/>
    <tag k="ref:vcgi:esiteid" v="142223"/>
  </node>
  <node id="-251" visible="true" lat="44.80161161" lon="-72.48376557">
    <tag k="addr:housenumber" v="117"/>
    <tag k="addr:street" v="Warner Road"/>
    <tag k="addr:state" v="VT"/>
    <tag k="ref:vcgi:esiteid" v="142224"/>
  </node>
  <node id="-252" visible="true" lat="44.80179672" lon="-72.45431842">
    <tag k="addr:housenumber" v="382"/>
    <tag k="addr:street" v="Hazen Notch Road"/>
    <tag k="addr:state" v="VT"/>
    <tag k="ref:vcgi:esiteid" v="142225"/>
  </node>
  <node id="-253" visible="true" lat="44.80177871" lon="-72.44778738">
    <tag k="addr:housenumber" v="2475"/>
    <tag k="addr:street" v="Vermont Route 100"/>
    <tag k="addr:state" v="VT"/>
    <tag k="ref:vcgi:esiteid" v="142226"/>
  </node>
  <node id="-254" visible="true" lat="44.80146759" lon="-72.45451942">
    <tag k="addr:housenumber" v="371"/>
    <tag k="addr:street" v="Hazen Notch Road"/>
    <tag k="addr:state" v="VT"/>
    <tag k="ref:vcgi:esiteid" v="142227"/>
  </node>
  <node id="-255" visible="true" lat="44.80147844" lon="-72.45391472">
    <tag k="addr:housenumber" v="354"/>
    <tag k="addr:street" v="Hazen Notch Road"/>
    <tag k="addr:state" v="VT"/>
    <tag k="ref:vcgi:esiteid" v="142228"/>
  </node>
  <node id="-256" visible="true" lat="44.80134582" lon="-72.44746438">
    <tag k="addr:housenumber" v="2507"/>
    <tag k="addr:street" v="Vermont Route 100"/>
    <tag k="addr:state" v="VT"/>
    <tag k="ref:vcgi:esiteid" v="142229"/>
  </node>
  <node id="-257" visible="true" lat="44.80127237" lon="-72.45437201">
    <tag k="addr:housenumber" v="361"/>
    <tag k="addr:street" v="Hazen Notch Road"/>
    <tag k="addr:state" v="VT"/>
    <tag k="ref:vcgi:esiteid" v="142230"/>
  </node>
  <node id="-258" visible="true" lat="44.80139503" lon="-72.45369893">
    <tag k="addr:housenumber" v="340"/>
    <tag k="addr:street" v="Hazen Notch Road"/>
    <tag k="addr:state" v="VT"/>
    <tag k="ref:vcgi:esiteid" v="142231"/>
  </node>
  <node id="-259" visible="true" lat="44.80123789" lon="-72.48262775">
    <tag k="addr:housenumber" v="13"/>
    <tag k="addr:street" v="Warner Road"/>
    <tag k="addr:state" v="VT"/>
    <tag k="ref:vcgi:esiteid" v="142232"/>
  </node>
  <node id="-260" visible="true" lat="44.80124664" lon="-72.45313262">
    <tag k="addr:housenumber" v="308"/>
    <tag k="addr:street" v="Hazen Notch Road"/>
    <tag k="addr:state" v="VT"/>
    <tag k="ref:vcgi:esiteid" v="142233"/>
  </node>
  <node id="-261" visible="true" lat="44.8011747" lon="-72.44833958">
    <tag k="addr:housenumber" v="2506"/>
    <tag k="addr:street" v="Vermont Route 100"/>
    <tag k="addr:state" v="VT"/>
    <tag k="ref:vcgi:esiteid" v="142234"/>
  </node>
  <node id="-262" visible="true" lat="44.80110866" lon="-72.45405582">
    <tag k="addr:housenumber" v="347"/>
    <tag k="addr:street" v="Hazen Notch Road"/>
    <tag k="addr:state" v="VT"/>
    <tag k="ref:vcgi:esiteid" v="142235"/>
  </node>
  <node id="-264" visible="true" lat="44.80103289" lon="-72.44202812">
    <tag k="addr:housenumber" v="267"/>
    <tag k="addr:street" v="Vermont Route 58 East"/>
    <tag k="addr:state" v="VT"/>
    <tag k="ref:vcgi:esiteid" v="142237"/>
  </node>
  <node id="-265" visible="true" lat="44.80079277" lon="-72.4671136">
    <tag k="addr:housenumber" v="471"/>
    <tag k="addr:street" v="Valley Road"/>
    <tag k="addr:state" v="VT"/>
    <tag k="ref:vcgi:esiteid" v="142238"/>
  </node>
  <node id="-266" visible="true" lat="44.80087904" lon="-72.45217264">
    <tag k="addr:housenumber" v="256"/>
    <tag k="addr:street" v="Hazen Notch Road"/>
    <tag k="addr:state" v="VT"/>
    <tag k="ref:vcgi:esiteid" v="142239"/>
  </node>
  <node id="-267" visible="true" lat="44.80074503" lon="-72.44835286">
    <tag k="addr:housenumber" v="2534"/>
    <tag k="addr:street" v="Vermont Route 100"/>
    <tag k="addr:state" v="VT"/>
    <tag k="ref:vcgi:esiteid" v="142240"/>
  </node>
  <node id="-268" visible="true" lat="44.80082391" lon="-72.45119021">
    <tag k="addr:housenumber" v="200"/>
    <tag k="addr:street" v="Hazen Notch Road"/>
    <tag k="addr:state" v="VT"/>
    <tag k="ref:vcgi:esiteid" v="142241"/>
  </node>
  <node id="-269" visible="true" lat="44.80076735" lon="-72.453795">
    <tag k="addr:housenumber" v="18"/>
    <tag k="addr:street" v="Lower Village Road"/>
    <tag k="addr:state" v="VT"/>
    <tag k="ref:vcgi:esiteid" v="142242"/>
  </node>
  <node id="-270" visible="true" lat="44.80072707" lon="-72.45271348">
    <tag k="addr:housenumber" v="269"/>
    <tag k="addr:street" v="Hazen Notch Road"/>
    <tag k="addr:state" v="VT"/>
    <tag k="ref:vcgi:esiteid" v="142243"/>
  </node>
  <node id="-271" visible="true" lat="44.80066629" lon="-72.44747039">
    <tag k="addr:housenumber" v="2541"/>
    <tag k="addr:street" v="Vermont Route 100"/>
    <tag k="addr:state" v="VT"/>
    <tag k="ref:vcgi:esiteid" v="142244"/>
  </node>
  <node id="-272" visible="true" lat="44.80053715" lon="-72.45345926">
    <tag k="addr:housenumber" v="29"/>
    <tag k="addr:street" v="Lower Village Road"/>
    <tag k="addr:state" v="VT"/>
    <tag k="ref:vcgi:esiteid" v="142245"/>
  </node>
  <node id="-273" visible="true" lat="44.80054707" lon="-72.45385058">
    <tag k="addr:housenumber" v="32"/>
    <tag k="addr:street" v="Lower Village Road"/>
    <tag k="addr:state" v="VT"/>
    <tag k="ref:vcgi:esiteid" v="142246"/>
  </node>
  <node id="-274" visible="true" lat="44.80064335" lon="-72.41797379">
    <tag k="addr:housenumber" v="4136"/>
    <tag k="addr:street" v="Irish Hill Road"/>
    <tag k="addr:state" v="VT"/>
    <tag k="ref:vcgi:esiteid" v="142247"/>
  </node>
  <node id="-275" visible="true" lat="44.80033441" lon="-72.45344845">
    <tag k="addr:housenumber" v="41"/>
    <tag k="addr:street" v="Lower Village Road"/>
    <tag k="addr:state" v="VT"/>
    <tag k="ref:vcgi:esiteid" v="142248"/>
  </node>
  <node id="-276" visible="true" lat="44.80034648" lon="-72.45175918">
    <tag k="addr:housenumber" v="217"/>
    <tag k="addr:street" v="Hazen Notch Road"/>
    <tag k="addr:state" v="VT"/>
    <tag k="ref:vcgi:esiteid" v="142249"/>
  </node>
  <node id="-277" visible="true" lat="44.80023894" lon="-72.45146398">
    <tag k="addr:housenumber" v="205"/>
    <tag k="addr:street" v="Hazen Notch Road"/>
    <tag k="addr:state" v="VT"/>
    <tag k="ref:vcgi:esiteid" v="142250"/>
  </node>
  <node id="-278" visible="true" lat="44.800356" lon="-72.44755664">
    <tag k="addr:housenumber" v="2569"/>
    <tag k="addr:street" v="Vermont Route 100"/>
    <tag k="addr:state" v="VT"/>
    <tag k="ref:vcgi:esiteid" v="142251"/>
  </node>
  <node id="-279" visible="true" lat="44.80051858" lon="-72.44473451">
    <tag k="addr:housenumber" v="161"/>
    <tag k="addr:street" v="Vermont Route 58 East"/>
    <tag k="addr:state" v="VT"/>
    <tag k="ref:vcgi:esiteid" v="142252"/>
  </node>
  <node id="-280" visible="true" lat="44.80024375" lon="-72.45381457">
    <tag k="addr:housenumber" v="48"/>
    <tag k="addr:street" v="Lower Village Road"/>
    <tag k="addr:state" v="VT"/>
    <tag k="ref:vcgi:esiteid" v="142253"/>
  </node>
  <node id="-281" visible="true" lat="44.8002397" lon="-72.45021203">
    <tag k="addr:housenumber" v="142"/>
    <tag k="addr:street" v="Hazen Notch Road"/>
    <tag k="addr:state" v="VT"/>
    <tag k="ref:vcgi:esiteid" v="142254"/>
  </node>
  <node id="-282" visible="true" lat="44.80006773" lon="-72.45341415">
    <tag k="addr:housenumber" v="61"/>
    <tag k="addr:street" v="Lower Village Road"/>
    <tag k="addr:state" v="VT"/>
    <tag k="ref:vcgi:esiteid" v="142255"/>
  </node>
  <node id="-283" visible="true" lat="44.79997971" lon="-72.44790904">
    <tag k="addr:housenumber" v="2596"/>
    <tag k="addr:street" v="Vermont Route 100"/>
    <tag k="addr:state" v="VT"/>
    <tag k="ref:vcgi:esiteid" v="142256"/>
  </node>
  <node id="-284" visible="true" lat="44.79989294" lon="-72.45259124">
    <tag k="addr:housenumber" v="54"/>
    <tag k="addr:street" v="Sullivan Road"/>
    <tag k="addr:state" v="VT"/>
    <tag k="ref:vcgi:esiteid" v="142257"/>
  </node>
  <node id="-285" visible="true" lat="44.79990058" lon="-72.45374587">
    <tag k="addr:housenumber" v="74"/>
    <tag k="addr:street" v="Lower Village Road"/>
    <tag k="addr:state" v="VT"/>
    <tag k="ref:vcgi:esiteid" v="142258"/>
  </node>
  <node id="-286" visible="true" lat="44.79992045" lon="-72.4490486">
    <tag k="addr:housenumber" v="80"/>
    <tag k="addr:street" v="Hazen Notch Road"/>
    <tag k="addr:state" v="VT"/>
    <tag k="ref:vcgi:esiteid" v="142259"/>
  </node>
  <node id="-287" visible="true" lat="44.79971398" lon="-72.45056052">
    <tag k="addr:housenumber" v="151"/>
    <tag k="addr:street" v="Hazen Notch Road"/>
    <tag k="addr:state" v="VT"/>
    <tag k="ref:vcgi:esiteid" v="142260"/>
  </node>
  <node id="-288" visible="true" lat="44.79980376" lon="-72.45102545">
    <tag k="addr:housenumber" v="157"/>
    <tag k="addr:street" v="Hazen Notch Road"/>
    <tag k="addr:state" v="VT"/>
    <tag k="ref:vcgi:esiteid" v="142261"/>
  </node>
  <node id="-289" visible="true" lat="44.79974999" lon="-72.44732927">
    <tag k="addr:housenumber" v="2631"/>
    <tag k="addr:street" v="Vermont Route 100"/>
    <tag k="addr:state" v="VT"/>
    <tag k="ref:vcgi:esiteid" v="142262"/>
  </node>
  <node id="-290" visible="true" lat="44.79972594" lon="-72.4484516">
    <tag k="addr:housenumber" v="54"/>
    <tag k="addr:street" v="Hazen Notch Road"/>
    <tag k="addr:state" v="VT"/>
    <tag k="ref:vcgi:esiteid" v="142263"/>
  </node>
  <node id="-291" visible="true" lat="44.80006333" lon="-72.41625945">
    <tag k="addr:housenumber" v="4035"/>
    <tag k="addr:street" v="Irish Hill Road"/>
    <tag k="addr:state" v="VT"/>
    <tag k="ref:vcgi:esiteid" v="142265"/>
  </node>
  <node id="-292" visible="true" lat="44.79948465" lon="-72.44974123">
    <tag k="addr:housenumber" v="117"/>
    <tag k="addr:street" v="Hazen Notch Road"/>
    <tag k="addr:state" v="VT"/>
    <tag k="ref:vcgi:esiteid" v="142266"/>
  </node>
  <node id="-293" visible="true" lat="44.79939317" lon="-72.4391806">
    <tag k="addr:housenumber" v="456"/>
    <tag k="addr:street" v="Vermont Route 58 East"/>
    <tag k="addr:state" v="VT"/>
    <tag k="ref:vcgi:esiteid" v="142267"/>
  </node>
  <node id="-294" visible="true" lat="44.79923248" lon="-72.45334625">
    <tag k="addr:housenumber" v="123"/>
    <tag k="addr:street" v="Lower Village Road"/>
    <tag k="addr:state" v="VT"/>
    <tag k="ref:vcgi:esiteid" v="142268"/>
  </node>
  <node id="-295" visible="true" lat="44.79920578" lon="-72.44822692">
    <tag k="addr:housenumber" v="29"/>
    <tag k="addr:street" v="Hazen Notch Road"/>
    <tag k="addr:state" v="VT"/>
    <tag k="ref:vcgi:esiteid" v="142269"/>
  </node>
  <node id="-296" visible="true" lat="44.79931365" lon="-72.48400273">
    <tag k="addr:housenumber" v="1286"/>
    <tag k="addr:street" v="Mines Road"/>
    <tag k="addr:state" v="VT"/>
    <tag k="ref:vcgi:esiteid" v="142270"/>
  </node>
  <node id="-297" visible="true" lat="44.7990951" lon="-72.45359101">
    <tag k="addr:housenumber" v="118"/>
    <tag k="addr:street" v="Lower Village Road"/>
    <tag k="addr:state" v="VT"/>
    <tag k="ref:vcgi:esiteid" v="142271"/>
  </node>
  <node id="-298" visible="true" lat="44.79910076" lon="-72.4723811">
    <tag k="addr:housenumber" v="764"/>
    <tag k="addr:street" v="Valley Road"/>
    <tag k="addr:state" v="VT"/>
    <tag k="ref:vcgi:esiteid" v="142272"/>
  </node>
  <node id="-299" visible="true" lat="44.7984599" lon="-72.42424218">
    <tag k="addr:housenumber" v="1261"/>
    <tag k="addr:street" v="Vermont Route 58 East"/>
    <tag k="addr:state" v="VT"/>
    <tag k="ref:vcgi:esiteid" v="142273"/>
  </node>
  <node id="-300" visible="true" lat="44.79862555" lon="-72.45368832">
    <tag k="addr:housenumber" v="166"/>
    <tag k="addr:street" v="Lower Village Road"/>
    <tag k="addr:state" v="VT"/>
    <tag k="ref:vcgi:esiteid" v="142274"/>
  </node>
  <node id="-301" visible="true" lat="44.79863781" lon="-72.42311999">
    <tag k="addr:housenumber" v="1293"/>
    <tag k="addr:street" v="Vermont Route 58 East"/>
    <tag k="addr:state" v="VT"/>
    <tag k="ref:vcgi:esiteid" v="142275"/>
  </node>
  <node id="-302" visible="true" lat="44.79850983" lon="-72.44612606">
    <tag k="addr:housenumber" v="120"/>
    <tag k="addr:street" v="Vermont Route 58 East"/>
    <tag k="addr:state" v="VT"/>
    <tag k="ref:vcgi:esiteid" v="142276"/>
  </node>
  <node id="-303" visible="true" lat="44.79815171" lon="-72.40870038">
    <tag k="addr:housenumber" v="3469"/>
    <tag k="addr:street" v="Irish Hill Road"/>
    <tag k="addr:state" v="VT"/>
    <tag k="ref:vcgi:esiteid" v="142277"/>
  </node>
  <node id="-304" visible="true" lat="44.79767416" lon="-72.44584158">
    <tag k="addr:housenumber" v="2741"/>
    <tag k="addr:street" v="Vermont Route 100"/>
    <tag k="addr:state" v="VT"/>
    <tag k="ref:vcgi:esiteid" v="142279"/>
  </node>
  <node id="-305" visible="true" lat="44.7975189" lon="-72.45222775">
    <tag k="addr:housenumber" v="256"/>
    <tag k="addr:street" v="Lower Village Road"/>
    <tag k="addr:state" v="VT"/>
    <tag k="ref:vcgi:esiteid" v="142280"/>
  </node>
  <node id="-306" visible="true" lat="44.7977443" lon="-72.45388212">
    <tag k="addr:housenumber" v="34"/>
    <tag k="addr:street" v="Chisholm Trail"/>
    <tag k="addr:state" v="VT"/>
    <tag k="ref:vcgi:esiteid" v="142281"/>
  </node>
  <node id="-307" visible="true" lat="44.79768142" lon="-72.45151316">
    <tag k="addr:housenumber" v="293"/>
    <tag k="addr:street" v="Lower Village Road"/>
    <tag k="addr:state" v="VT"/>
    <tag k="ref:vcgi:esiteid" v="142283"/>
  </node>
  <node id="-308" visible="true" lat="44.79750442" lon="-72.43466949">
    <tag k="addr:housenumber" v="728"/>
    <tag k="addr:street" v="Vermont Route 58 East"/>
    <tag k="addr:state" v="VT"/>
    <tag k="ref:vcgi:esiteid" v="142284"/>
  </node>
  <node id="-309" visible="true" lat="44.79744621" lon="-72.45109864">
    <tag k="addr:housenumber" v="309"/>
    <tag k="addr:street" v="Lower Village Road"/>
    <tag k="addr:state" v="VT"/>
    <tag k="ref:vcgi:esiteid" v="142285"/>
  </node>
  <node id="-310" visible="true" lat="44.7971577" lon="-72.42565882">
    <tag k="addr:housenumber" v="1128"/>
    <tag k="addr:street" v="Vermont Route 58 East"/>
    <tag k="addr:state" v="VT"/>
    <tag k="ref:vcgi:esiteid" v="142286"/>
  </node>
  <node id="-311" visible="true" lat="44.79698538" lon="-72.47513264">
    <tag k="addr:housenumber" v="929"/>
    <tag k="addr:street" v="Valley Road"/>
    <tag k="addr:state" v="VT"/>
    <tag k="ref:vcgi:esiteid" v="142287"/>
  </node>
  <node id="-312" visible="true" lat="44.79715977" lon="-72.42476154">
    <tag k="addr:housenumber" v="1194"/>
    <tag k="addr:street" v="Vermont Route 58 East"/>
    <tag k="addr:state" v="VT"/>
    <tag k="ref:vcgi:esiteid" v="142288"/>
  </node>
  <node id="-313" visible="true" lat="44.79724943" lon="-72.44700943">
    <tag k="addr:housenumber" v="35"/>
    <tag k="addr:street" v="Irish Hill Road"/>
    <tag k="addr:state" v="VT"/>
    <tag k="ref:vcgi:esiteid" v="142289"/>
  </node>
  <node id="-314" visible="true" lat="44.79672438" lon="-72.42649881">
    <tag k="addr:housenumber" v="1098"/>
    <tag k="addr:street" v="Vermont Route 58 East"/>
    <tag k="addr:state" v="VT"/>
    <tag k="ref:vcgi:esiteid" v="142290"/>
  </node>
  <node id="-315" visible="true" lat="44.79653549" lon="-72.44812011">
    <tag k="addr:housenumber" v="475"/>
    <tag k="addr:street" v="Lower Village Road"/>
    <tag k="addr:state" v="VT"/>
    <tag k="ref:vcgi:esiteid" v="142291"/>
  </node>
  <node id="-316" visible="true" lat="44.79641223" lon="-72.47577922">
    <tag k="addr:housenumber" v="1035"/>
    <tag k="addr:street" v="Valley Road"/>
    <tag k="addr:state" v="VT"/>
    <tag k="ref:vcgi:esiteid" v="142293"/>
  </node>
  <node id="-317" visible="true" lat="44.79627565" lon="-72.44927019">
    <tag k="addr:housenumber" v="424"/>
    <tag k="addr:street" v="Lower Village Road"/>
    <tag k="addr:state" v="VT"/>
    <tag k="ref:vcgi:esiteid" v="142294"/>
  </node>
  <node id="-318" visible="true" lat="44.79639226" lon="-72.45519697">
    <tag k="addr:housenumber" v="70"/>
    <tag k="addr:street" v="Bousquet Road"/>
    <tag k="addr:state" v="VT"/>
    <tag k="ref:vcgi:esiteid" v="142295"/>
  </node>
  <node id="-319" visible="true" lat="44.79629135" lon="-72.44618224">
    <tag k="addr:housenumber" v="92"/>
    <tag k="addr:street" v="Irish Hill Road"/>
    <tag k="addr:state" v="VT"/>
    <tag k="ref:vcgi:esiteid" v="142296"/>
  </node>
  <node id="-320" visible="true" lat="44.79612007" lon="-72.44854487">
    <tag k="addr:housenumber" v="462"/>
    <tag k="addr:street" v="Lower Village Road"/>
    <tag k="addr:state" v="VT"/>
    <tag k="ref:vcgi:esiteid" v="142297"/>
  </node>
  <node id="-321" visible="true" lat="44.79593979" lon="-72.44589031">
    <tag k="addr:housenumber" v="132"/>
    <tag k="addr:street" v="Irish Hill Road"/>
    <tag k="addr:state" v="VT"/>
    <tag k="ref:vcgi:esiteid" v="142298"/>
  </node>
  <node id="-322" visible="true" lat="44.79593261" lon="-72.44417655">
    <tag k="addr:housenumber" v="201"/>
    <tag k="addr:street" v="Irish Hill Road"/>
    <tag k="addr:state" v="VT"/>
    <tag k="ref:vcgi:esiteid" v="142299"/>
  </node>
  <node id="-323" visible="true" lat="44.79528322" lon="-72.40822971">
    <tag k="addr:housenumber" v="3271"/>
    <tag k="addr:street" v="Irish Hill Road"/>
    <tag k="addr:state" v="VT"/>
    <tag k="ref:vcgi:esiteid" v="142300"/>
  </node>
  <node id="-324" visible="true" lat="44.79506977" lon="-72.44847234">
    <tag k="addr:housenumber" v="2932"/>
    <tag k="addr:street" v="Vermont Route 100"/>
    <tag k="addr:state" v="VT"/>
    <tag k="ref:vcgi:esiteid" v="142301"/>
  </node>
  <node id="-325" visible="true" lat="44.79474928" lon="-72.50820376">
    <tag k="addr:housenumber" v="889"/>
    <tag k="addr:street" v="Potter Road"/>
    <tag k="addr:state" v="VT"/>
    <tag k="ref:vcgi:esiteid" v="142302"/>
  </node>
  <node id="-326" visible="true" lat="44.79488261" lon="-72.47722173">
    <tag k="addr:housenumber" v="1138"/>
    <tag k="addr:street" v="Valley Road"/>
    <tag k="addr:state" v="VT"/>
    <tag k="ref:vcgi:esiteid" v="142303"/>
  </node>
  <node id="-327" visible="true" lat="44.7941847" lon="-72.50356995">
    <tag k="addr:housenumber" v="640"/>
    <tag k="addr:street" v="Potter Road"/>
    <tag k="addr:state" v="VT"/>
    <tag k="ref:vcgi:esiteid" v="142304"/>
  </node>
  <node id="-328" visible="true" lat="44.79397009" lon="-72.44875365">
    <tag k="addr:housenumber" v="3010"/>
    <tag k="addr:street" v="Vermont Route 100"/>
    <tag k="addr:state" v="VT"/>
    <tag k="ref:vcgi:esiteid" v="142305"/>
  </node>
  <node id="-329" visible="true" lat="44.79380035" lon="-72.50535583">
    <tag k="addr:housenumber" v="733"/>
    <tag k="addr:street" v="Potter Road"/>
    <tag k="addr:state" v="VT"/>
    <tag k="ref:vcgi:esiteid" v="142306"/>
  </node>
  <node id="-330" visible="true" lat="44.79350787" lon="-72.44860506">
    <tag k="addr:housenumber" v="3042"/>
    <tag k="addr:street" v="Vermont Route 100"/>
    <tag k="addr:state" v="VT"/>
    <tag k="ref:vcgi:esiteid" v="142308"/>
  </node>
  <node id="-331" visible="true" lat="44.79319255" lon="-72.44791062">
    <tag k="addr:housenumber" v="3069"/>
    <tag k="addr:street" v="Vermont Route 100"/>
    <tag k="addr:state" v="VT"/>
    <tag k="ref:vcgi:esiteid" v="142309"/>
  </node>
  <node id="-332" visible="true" lat="44.79291159" lon="-72.44386979">
    <tag k="addr:housenumber" v="368"/>
    <tag k="addr:street" v="Irish Hill Road"/>
    <tag k="addr:state" v="VT"/>
    <tag k="ref:vcgi:esiteid" v="142310"/>
  </node>
  <node id="-333" visible="true" lat="44.7925249" lon="-72.44803947">
    <tag k="addr:housenumber" v="3105"/>
    <tag k="addr:street" v="Vermont Route 100"/>
    <tag k="addr:state" v="VT"/>
    <tag k="ref:vcgi:esiteid" v="142311"/>
  </node>
  <node id="-334" visible="true" lat="44.79252243" lon="-72.44204711">
    <tag k="addr:housenumber" v="459"/>
    <tag k="addr:street" v="Irish Hill Road"/>
    <tag k="addr:state" v="VT"/>
    <tag k="ref:vcgi:esiteid" v="142312"/>
  </node>
  <node id="-335" visible="true" lat="44.79248046" lon="-72.40566253">
    <tag k="addr:housenumber" v="3074"/>
    <tag k="addr:street" v="Irish Hill Road"/>
    <tag k="addr:state" v="VT"/>
    <tag k="ref:vcgi:esiteid" v="142313"/>
  </node>
  <node id="-336" visible="true" lat="44.79194594" lon="-72.50011189">
    <tag k="addr:housenumber" v="429"/>
    <tag k="addr:street" v="Potter Road"/>
    <tag k="addr:state" v="VT"/>
    <tag k="ref:vcgi:esiteid" v="142314"/>
  </node>
  <node id="-337" visible="true" lat="44.7917853" lon="-72.44863118">
    <tag k="addr:housenumber" v="3160"/>
    <tag k="addr:street" v="Vermont Route 100"/>
    <tag k="addr:state" v="VT"/>
    <tag k="ref:vcgi:esiteid" v="142315"/>
  </node>
  <node id="-338" visible="true" lat="44.79176873" lon="-72.44193979">
    <tag k="addr:housenumber" v="485"/>
    <tag k="addr:street" v="Irish Hill Road"/>
    <tag k="addr:state" v="VT"/>
    <tag k="ref:vcgi:esiteid" v="142316"/>
  </node>
  <node id="-339" visible="true" lat="44.79152239" lon="-72.45434569">
    <tag k="addr:housenumber" v="442"/>
    <tag k="addr:street" v="Bousquet Road"/>
    <tag k="addr:state" v="VT"/>
    <tag k="ref:vcgi:esiteid" v="142317"/>
  </node>
  <node id="-340" visible="true" lat="44.79153122" lon="-72.49102003">
    <tag k="addr:housenumber" v="1948"/>
    <tag k="addr:street" v="Mines Road"/>
    <tag k="addr:state" v="VT"/>
    <tag k="ref:vcgi:esiteid" v="142318"/>
  </node>
  <node id="-341" visible="true" lat="44.79125454" lon="-72.45451515">
    <tag k="addr:housenumber" v="446"/>
    <tag k="addr:street" v="Bousquet Road"/>
    <tag k="addr:state" v="VT"/>
    <tag k="ref:vcgi:esiteid" v="142319"/>
  </node>
  <node id="-342" visible="true" lat="44.79114694" lon="-72.44237859">
    <tag k="addr:housenumber" v="494"/>
    <tag k="addr:street" v="Irish Hill Road"/>
    <tag k="addr:state" v="VT"/>
    <tag k="ref:vcgi:esiteid" v="142320"/>
  </node>
  <node id="-343" visible="true" lat="44.79086646" lon="-72.45481249">
    <tag k="addr:housenumber" v="578"/>
    <tag k="addr:street" v="Bousquet Road"/>
    <tag k="addr:state" v="VT"/>
    <tag k="ref:vcgi:esiteid" v="142321"/>
  </node>
  <node id="-344" visible="true" lat="44.79047971" lon="-72.45561693">
    <tag k="addr:housenumber" v="622"/>
    <tag k="addr:street" v="Bousquet Road"/>
    <tag k="addr:state" v="VT"/>
    <tag k="ref:vcgi:esiteid" v="142322"/>
  </node>
  <node id="-345" visible="true" lat="44.7896536" lon="-72.49218134">
    <tag k="addr:housenumber" v="2094"/>
    <tag k="addr:street" v="Mines Road"/>
    <tag k="addr:state" v="VT"/>
    <tag k="ref:vcgi:esiteid" v="142323"/>
  </node>
  <node id="-346" visible="true" lat="44.78943384" lon="-72.44037403">
    <tag k="addr:housenumber" v="647"/>
    <tag k="addr:street" v="Irish Hill Road"/>
    <tag k="addr:state" v="VT"/>
    <tag k="ref:vcgi:esiteid" v="142324"/>
  </node>
  <node id="-347" visible="true" lat="44.78940351" lon="-72.40646189">
    <tag k="addr:housenumber" v="2845"/>
    <tag k="addr:street" v="Irish Hill Road"/>
    <tag k="addr:state" v="VT"/>
    <tag k="ref:vcgi:esiteid" v="142325"/>
  </node>
  <node id="-348" visible="true" lat="44.78937965" lon="-72.44177649">
    <tag k="addr:housenumber" v="636"/>
    <tag k="addr:street" v="Irish Hill Road"/>
    <tag k="addr:state" v="VT"/>
    <tag k="ref:vcgi:esiteid" v="142326"/>
  </node>
  <node id="-349" visible="true" lat="44.78936573" lon="-72.51964974">
    <tag k="addr:housenumber" v="511"/>
    <tag k="addr:street" v="Tillotson Road"/>
    <tag k="addr:state" v="VT"/>
    <tag k="ref:vcgi:esiteid" v="142327"/>
  </node>
  <node id="-350" visible="true" lat="44.78891796" lon="-72.44804435">
    <tag k="addr:housenumber" v="3357"/>
    <tag k="addr:street" v="Vermont Route 100"/>
    <tag k="addr:state" v="VT"/>
    <tag k="ref:vcgi:esiteid" v="142328"/>
  </node>
  <node id="-351" visible="true" lat="44.78838866" lon="-72.43965707">
    <tag k="addr:housenumber" v="739"/>
    <tag k="addr:street" v="Irish Hill Road"/>
    <tag k="addr:state" v="VT"/>
    <tag k="ref:vcgi:esiteid" v="142329"/>
  </node>
  <node id="-352" visible="true" lat="44.7882307" lon="-72.40053721">
    <tag k="addr:housenumber" v="2776"/>
    <tag k="addr:street" v="Irish Hill Road"/>
    <tag k="addr:state" v="VT"/>
    <tag k="ref:vcgi:esiteid" v="142330"/>
  </node>
  <node id="-353" visible="true" lat="44.78796202" lon="-72.51864714">
    <tag k="addr:housenumber" v="410"/>
    <tag k="addr:street" v="Tillotson Road"/>
    <tag k="addr:state" v="VT"/>
    <tag k="ref:vcgi:esiteid" v="142331"/>
  </node>
  <node id="-354" visible="true" lat="44.78794861" lon="-72.44833795">
    <tag k="addr:housenumber" v="3429"/>
    <tag k="addr:street" v="Vermont Route 100"/>
    <tag k="addr:state" v="VT"/>
    <tag k="ref:vcgi:esiteid" v="142332"/>
  </node>
  <node id="-355" visible="true" lat="44.78747941" lon="-72.44859438">
    <tag k="addr:housenumber" v="3455"/>
    <tag k="addr:street" v="Vermont Route 100"/>
    <tag k="addr:state" v="VT"/>
    <tag k="ref:vcgi:esiteid" v="142333"/>
  </node>
  <node id="-356" visible="true" lat="44.78759287" lon="-72.4491713">
    <tag k="addr:housenumber" v="3458"/>
    <tag k="addr:street" v="Vermont Route 100"/>
    <tag k="addr:state" v="VT"/>
    <tag k="ref:vcgi:esiteid" v="142334"/>
  </node>
  <node id="-357" visible="true" lat="44.78734588" lon="-72.44915008">
    <tag k="addr:housenumber" v="3472"/>
    <tag k="addr:street" v="Vermont Route 100"/>
    <tag k="addr:state" v="VT"/>
    <tag k="ref:vcgi:esiteid" v="142335"/>
  </node>
  <node id="-358" visible="true" lat="44.7873711" lon="-72.49351245">
    <tag k="addr:housenumber" v="2249"/>
    <tag k="addr:street" v="Mines Road"/>
    <tag k="addr:state" v="VT"/>
    <tag k="ref:vcgi:esiteid" v="142336"/>
  </node>
  <node id="-359" visible="true" lat="44.78736394" lon="-72.43882418">
    <tag k="addr:housenumber" v="839"/>
    <tag k="addr:street" v="Irish Hill Road"/>
    <tag k="addr:state" v="VT"/>
    <tag k="ref:vcgi:esiteid" v="142337"/>
  </node>
  <node id="-360" visible="true" lat="44.78730033" lon="-72.4996436">
    <tag k="addr:housenumber" v="120"/>
    <tag k="addr:street" v="Birchwood Drive"/>
    <tag k="addr:state" v="VT"/>
    <tag k="ref:vcgi:esiteid" v="142338"/>
  </node>
  <node id="-361" visible="true" lat="44.78686474" lon="-72.48809423">
    <tag k="addr:housenumber" v="1926"/>
    <tag k="addr:street" v="Valley Road"/>
    <tag k="addr:state" v="VT"/>
    <tag k="ref:vcgi:esiteid" v="142339"/>
  </node>
  <node id="-362" visible="true" lat="44.78676379" lon="-72.43964132">
    <tag k="addr:housenumber" v="844"/>
    <tag k="addr:street" v="Irish Hill Road"/>
    <tag k="addr:state" v="VT"/>
    <tag k="ref:vcgi:esiteid" v="142340"/>
  </node>
  <node id="-363" visible="true" lat="44.78675553" lon="-72.44889582">
    <tag k="addr:housenumber" v="3511"/>
    <tag k="addr:street" v="Vermont Route 100"/>
    <tag k="addr:state" v="VT"/>
    <tag k="ref:vcgi:esiteid" v="142341"/>
  </node>
  <node id="-364" visible="true" lat="44.78669388" lon="-72.48933652">
    <tag k="addr:housenumber" v="77"/>
    <tag k="addr:street" v="Kempton Hill Road"/>
    <tag k="addr:state" v="VT"/>
    <tag k="ref:vcgi:esiteid" v="142342"/>
  </node>
  <node id="-365" visible="true" lat="44.78627335" lon="-72.5179696">
    <tag k="addr:housenumber" v="292"/>
    <tag k="addr:street" v="Tillotson Road"/>
    <tag k="addr:state" v="VT"/>
    <tag k="ref:vcgi:esiteid" v="142343"/>
  </node>
  <node id="-366" visible="true" lat="44.78587176" lon="-72.49726048">
    <tag k="addr:housenumber" v="2461"/>
    <tag k="addr:street" v="Mines Road"/>
    <tag k="addr:state" v="VT"/>
    <tag k="ref:vcgi:esiteid" v="142344"/>
  </node>
  <node id="-367" visible="true" lat="44.7853231" lon="-72.50028008">
    <tag k="addr:housenumber" v="2624"/>
    <tag k="addr:street" v="Mines Road"/>
    <tag k="addr:state" v="VT"/>
    <tag k="ref:vcgi:esiteid" v="142345"/>
  </node>
  <node id="-368" visible="true" lat="44.78539772" lon="-72.43601125">
    <tag k="addr:housenumber" v="1101"/>
    <tag k="addr:street" v="Irish Hill Road"/>
    <tag k="addr:state" v="VT"/>
    <tag k="ref:vcgi:esiteid" v="142346"/>
  </node>
  <node id="-369" visible="true" lat="44.78523756" lon="-72.42198326">
    <tag k="addr:housenumber" v="319"/>
    <tag k="addr:street" v="Beaulieu Road"/>
    <tag k="addr:state" v="VT"/>
    <tag k="ref:vcgi:esiteid" v="142347"/>
  </node>
  <node id="-370" visible="true" lat="44.78519393" lon="-72.48616054">
    <tag k="addr:housenumber" v="1893"/>
    <tag k="addr:street" v="Valley Road"/>
    <tag k="addr:state" v="VT"/>
    <tag k="ref:vcgi:esiteid" v="142348"/>
  </node>
  <node id="-371" visible="true" lat="44.78454594" lon="-72.48937063">
    <tag k="addr:housenumber" v="2329"/>
    <tag k="addr:street" v="Cheney Road"/>
    <tag k="addr:state" v="VT"/>
    <tag k="ref:vcgi:esiteid" v="142349"/>
  </node>
  <node id="-372" visible="true" lat="44.78455248" lon="-72.42335101">
    <tag k="addr:housenumber" v="252"/>
    <tag k="addr:street" v="Beaulieu Road"/>
    <tag k="addr:state" v="VT"/>
    <tag k="ref:vcgi:esiteid" v="142350"/>
  </node>
  <node id="-373" visible="true" lat="44.78443761" lon="-72.43838481">
    <tag k="addr:housenumber" v="1002"/>
    <tag k="addr:street" v="Irish Hill Road"/>
    <tag k="addr:state" v="VT"/>
    <tag k="ref:vcgi:esiteid" v="142351"/>
  </node>
  <node id="-374" visible="true" lat="44.78443811" lon="-72.4359353">
    <tag k="addr:housenumber" v="1102"/>
    <tag k="addr:street" v="Irish Hill Road"/>
    <tag k="addr:state" v="VT"/>
    <tag k="ref:vcgi:esiteid" v="142352"/>
  </node>
  <node id="-375" visible="true" lat="44.78420257" lon="-72.43435668">
    <tag k="addr:housenumber" v="1174"/>
    <tag k="addr:street" v="Irish Hill Road"/>
    <tag k="addr:state" v="VT"/>
    <tag k="ref:vcgi:esiteid" v="142353"/>
  </node>
  <node id="-376" visible="true" lat="44.78358841" lon="-72.45122528">
    <tag k="addr:housenumber" v="52"/>
    <tag k="addr:street" v="Finnegan Road"/>
    <tag k="addr:state" v="VT"/>
    <tag k="ref:vcgi:esiteid" v="142354"/>
  </node>
  <node id="-377" visible="true" lat="44.78319451" lon="-72.42561634">
    <tag k="addr:housenumber" v="88"/>
    <tag k="addr:street" v="Beaulieu Road"/>
    <tag k="addr:state" v="VT"/>
    <tag k="ref:vcgi:esiteid" v="142355"/>
  </node>
  <node id="-378" visible="true" lat="44.78323364" lon="-72.5068283">
    <tag k="addr:housenumber" v="2981"/>
    <tag k="addr:street" v="Mines Road"/>
    <tag k="addr:state" v="VT"/>
    <tag k="ref:vcgi:esiteid" v="142356"/>
  </node>
  <node id="-379" visible="true" lat="44.78290337" lon="-72.41591178">
    <tag k="addr:housenumber" v="2133"/>
    <tag k="addr:street" v="Irish Hill Road"/>
    <tag k="addr:state" v="VT"/>
    <tag k="ref:vcgi:esiteid" v="142357"/>
  </node>
  <node id="-380" visible="true" lat="44.78292243" lon="-72.52289967">
    <tag k="addr:housenumber" v="282"/>
    <tag k="addr:street" v="Maple Ridge Drive"/>
    <tag k="addr:state" v="VT"/>
    <tag k="ref:vcgi:esiteid" v="142358"/>
  </node>
  <node id="-381" visible="true" lat="44.78255998" lon="-72.42882158">
    <tag k="addr:housenumber" v="1468"/>
    <tag k="addr:street" v="Irish Hill Road"/>
    <tag k="addr:state" v="VT"/>
    <tag k="ref:vcgi:esiteid" v="142359"/>
  </node>
  <node id="-382" visible="true" lat="44.78213466" lon="-72.43097105">
    <tag k="addr:housenumber" v="1398"/>
    <tag k="addr:street" v="Irish Hill Road"/>
    <tag k="addr:state" v="VT"/>
    <tag k="ref:vcgi:esiteid" v="142360"/>
  </node>
  <node id="-383" visible="true" lat="44.78235281" lon="-72.47894193">
    <tag k="addr:housenumber" v="491"/>
    <tag k="addr:street" v="Guyette Road"/>
    <tag k="addr:state" v="VT"/>
    <tag k="ref:vcgi:esiteid" v="142361"/>
  </node>
  <node id="-384" visible="true" lat="44.78198796" lon="-72.51810626">
    <tag k="addr:housenumber" v="3544"/>
    <tag k="addr:street" v="Mines Road"/>
    <tag k="addr:state" v="VT"/>
    <tag k="ref:vcgi:esiteid" v="142362"/>
  </node>
  <node id="-385" visible="true" lat="44.78177921" lon="-72.42569423">
    <tag k="addr:housenumber" v="1616"/>
    <tag k="addr:street" v="Irish Hill Road"/>
    <tag k="addr:state" v="VT"/>
    <tag k="ref:vcgi:esiteid" v="142363"/>
  </node>
  <node id="-386" visible="true" lat="44.78203508" lon="-72.4234784">
    <tag k="addr:housenumber" v="1731"/>
    <tag k="addr:street" v="Irish Hill Road"/>
    <tag k="addr:state" v="VT"/>
    <tag k="ref:vcgi:esiteid" v="142364"/>
  </node>
  <node id="-387" visible="true" lat="44.78121607" lon="-72.41878598">
    <tag k="addr:housenumber" v="1966"/>
    <tag k="addr:street" v="Irish Hill Road"/>
    <tag k="addr:state" v="VT"/>
    <tag k="ref:vcgi:esiteid" v="142365"/>
  </node>
  <node id="-388" visible="true" lat="44.78124693" lon="-72.48536888">
    <tag k="addr:housenumber" v="1796"/>
    <tag k="addr:street" v="Cheney Road"/>
    <tag k="addr:state" v="VT"/>
    <tag k="ref:vcgi:esiteid" v="142366"/>
  </node>
  <node id="-389" visible="true" lat="44.78061676" lon="-72.41025543">
    <tag k="addr:housenumber" v="2144"/>
    <tag k="addr:street" v="Irish Hill Road"/>
    <tag k="addr:state" v="VT"/>
    <tag k="ref:vcgi:esiteid" v="142367"/>
  </node>
  <node id="-390" visible="true" lat="44.78000376" lon="-72.45265401">
    <tag k="addr:housenumber" v="3972"/>
    <tag k="addr:street" v="Vermont Route 100"/>
    <tag k="addr:state" v="VT"/>
    <tag k="ref:vcgi:esiteid" v="142368"/>
  </node>
  <node id="-391" visible="true" lat="44.78105672" lon="-72.4975199">
    <tag k="addr:housenumber" v="700"/>
    <tag k="addr:street" v="Lamphere Road"/>
    <tag k="addr:state" v="VT"/>
    <tag k="ref:vcgi:esiteid" v="142369"/>
  </node>
  <node id="-392" visible="true" lat="44.77983263" lon="-72.4246878">
    <tag k="addr:housenumber" v="118"/>
    <tag k="addr:street" v="Farm Road"/>
    <tag k="addr:state" v="VT"/>
    <tag k="ref:vcgi:esiteid" v="142370"/>
  </node>
  <node id="-393" visible="true" lat="44.77955306" lon="-72.48845896">
    <tag k="addr:housenumber" v="1834"/>
    <tag k="addr:street" v="Cheney Road"/>
    <tag k="addr:state" v="VT"/>
    <tag k="ref:vcgi:esiteid" v="142371"/>
  </node>
  <node id="-394" visible="true" lat="44.77899169" lon="-72.45177459">
    <tag k="addr:housenumber" v="4083"/>
    <tag k="addr:street" v="Vermont Route 100"/>
    <tag k="addr:state" v="VT"/>
    <tag k="ref:vcgi:esiteid" v="142372"/>
  </node>
  <node id="-395" visible="true" lat="44.77859958" lon="-72.48807627">
    <tag k="addr:housenumber" v="1781"/>
    <tag k="addr:street" v="Cheney Road"/>
    <tag k="addr:state" v="VT"/>
    <tag k="ref:vcgi:esiteid" v="142374"/>
  </node>
  <node id="-396" visible="true" lat="44.7785206" lon="-72.50345885">
    <tag k="addr:housenumber" v="845"/>
    <tag k="addr:street" v="Lamphere Road"/>
    <tag k="addr:state" v="VT"/>
    <tag k="ref:vcgi:esiteid" v="142375"/>
  </node>
  <node id="-397" visible="true" lat="44.77804262" lon="-72.49181709">
    <tag k="addr:housenumber" v="158"/>
    <tag k="addr:street" v="Newton Road"/>
    <tag k="addr:state" v="VT"/>
    <tag k="ref:vcgi:esiteid" v="142376"/>
  </node>
  <node id="-398" visible="true" lat="44.77798206" lon="-72.45323033">
    <tag k="addr:housenumber" v="4159"/>
    <tag k="addr:street" v="Vermont Route 100"/>
    <tag k="addr:state" v="VT"/>
    <tag k="ref:vcgi:esiteid" v="142377"/>
  </node>
  <node id="-399" visible="true" lat="44.77751791" lon="-72.50502129">
    <tag k="addr:housenumber" v="893"/>
    <tag k="addr:street" v="Lamphere Road"/>
    <tag k="addr:state" v="VT"/>
    <tag k="ref:vcgi:esiteid" v="142378"/>
  </node>
  <node id="-400" visible="true" lat="44.77768697" lon="-72.45397222">
    <tag k="addr:housenumber" v="4221"/>
    <tag k="addr:street" v="Vermont Route 100"/>
    <tag k="addr:state" v="VT"/>
    <tag k="ref:vcgi:esiteid" v="142379"/>
  </node>
  <node id="-401" visible="true" lat="44.77762568" lon="-72.48408873">
    <tag k="addr:housenumber" v="1588"/>
    <tag k="addr:street" v="Cheney Road"/>
    <tag k="addr:state" v="VT"/>
    <tag k="ref:vcgi:esiteid" v="142380"/>
  </node>
  <node id="-402" visible="true" lat="44.77737165" lon="-72.51822123">
    <tag k="addr:housenumber" v="3932"/>
    <tag k="addr:street" v="Mines Road"/>
    <tag k="addr:state" v="VT"/>
    <tag k="ref:vcgi:esiteid" v="142381"/>
  </node>
  <node id="-403" visible="true" lat="44.77639057" lon="-72.46346418">
    <tag k="addr:housenumber" v="419"/>
    <tag k="addr:street" v="Rickaby Road"/>
    <tag k="addr:state" v="VT"/>
    <tag k="ref:vcgi:esiteid" v="142382"/>
  </node>
  <node id="-404" visible="true" lat="44.7764887" lon="-72.48428732">
    <tag k="addr:housenumber" v="1515"/>
    <tag k="addr:street" v="Cheney Road"/>
    <tag k="addr:state" v="VT"/>
    <tag k="ref:vcgi:esiteid" v="142383"/>
  </node>
  <node id="-405" visible="true" lat="44.77614128" lon="-72.50723074">
    <tag k="addr:housenumber" v="895"/>
    <tag k="addr:street" v="Lamphere Road"/>
    <tag k="addr:state" v="VT"/>
    <tag k="ref:vcgi:esiteid" v="142384"/>
  </node>
  <node id="-406" visible="true" lat="44.75307769" lon="-72.47895502">
    <tag k="addr:housenumber" v="839"/>
    <tag k="addr:street" v="Devils Hill Drive"/>
    <tag k="addr:state" v="VT"/>
    <tag k="ref:vcgi:esiteid" v="142385"/>
  </node>
  <node id="-407" visible="true" lat="44.77572649" lon="-72.49660747">
    <tag k="addr:housenumber" v="486"/>
    <tag k="addr:street" v="Newton Road"/>
    <tag k="addr:state" v="VT"/>
    <tag k="ref:vcgi:esiteid" v="142386"/>
  </node>
  <node id="-408" visible="true" lat="44.77537382" lon="-72.45728231">
    <tag k="addr:housenumber" v="4442"/>
    <tag k="addr:street" v="Vermont Route 100"/>
    <tag k="addr:state" v="VT"/>
    <tag k="ref:vcgi:esiteid" v="142387"/>
  </node>
  <node id="-409" visible="true" lat="44.77399367" lon="-72.42589381">
    <tag k="addr:housenumber" v="476"/>
    <tag k="addr:street" v="Farm Road"/>
    <tag k="addr:state" v="VT"/>
    <tag k="ref:vcgi:esiteid" v="142388"/>
  </node>
  <node id="-410" visible="true" lat="44.77477787" lon="-72.51878491">
    <tag k="addr:housenumber" v="4094"/>
    <tag k="addr:street" v="Mines Road"/>
    <tag k="addr:state" v="VT"/>
    <tag k="ref:vcgi:esiteid" v="142389"/>
  </node>
  <node id="-411" visible="true" lat="44.77397906" lon="-72.4669144">
    <tag k="addr:housenumber" v="524"/>
    <tag k="addr:street" v="Ostiguy Drive"/>
    <tag k="addr:state" v="VT"/>
    <tag k="ref:vcgi:esiteid" v="142390"/>
  </node>
  <node id="-412" visible="true" lat="44.77303538" lon="-72.48051528">
    <tag k="addr:housenumber" v="1229"/>
    <tag k="addr:street" v="Cheney Road"/>
    <tag k="addr:state" v="VT"/>
    <tag k="ref:vcgi:esiteid" v="142393"/>
  </node>
  <node id="-413" visible="true" lat="44.77308777" lon="-72.45701486">
    <tag k="addr:housenumber" v="4593"/>
    <tag k="addr:street" v="Vermont Route 100"/>
    <tag k="addr:state" v="VT"/>
    <tag k="ref:vcgi:esiteid" v="142394"/>
  </node>
  <node id="-414" visible="true" lat="44.77283172" lon="-72.49746282">
    <tag k="addr:housenumber" v="660"/>
    <tag k="addr:street" v="Newton Road"/>
    <tag k="addr:state" v="VT"/>
    <tag k="ref:vcgi:esiteid" v="142395"/>
  </node>
  <node id="-415" visible="true" lat="44.77229868" lon="-72.49842997">
    <tag k="addr:housenumber" v="708"/>
    <tag k="addr:street" v="Newton Road"/>
    <tag k="addr:state" v="VT"/>
    <tag k="ref:vcgi:esiteid" v="142396"/>
  </node>
  <node id="-416" visible="true" lat="44.77181243" lon="-72.48062133">
    <tag k="addr:housenumber" v="1139"/>
    <tag k="addr:street" v="Cheney Road"/>
    <tag k="addr:state" v="VT"/>
    <tag k="ref:vcgi:esiteid" v="142397"/>
  </node>
  <node id="-417" visible="true" lat="44.77162679" lon="-72.4581046">
    <tag k="addr:housenumber" v="70"/>
    <tag k="addr:street" v="Mink Farm Road"/>
    <tag k="addr:state" v="VT"/>
    <tag k="ref:vcgi:esiteid" v="142398"/>
  </node>
  <node id="-418" visible="true" lat="44.77132971" lon="-72.47077464">
    <tag k="addr:housenumber" v="247"/>
    <tag k="addr:street" v="Ostiguy Drive"/>
    <tag k="addr:state" v="VT"/>
    <tag k="ref:vcgi:esiteid" v="142399"/>
  </node>
  <node id="-419" visible="true" lat="44.77133996" lon="-72.42139159">
    <tag k="addr:housenumber" v="606"/>
    <tag k="addr:street" v="Farm Road"/>
    <tag k="addr:state" v="VT"/>
    <tag k="ref:vcgi:esiteid" v="142400"/>
  </node>
  <node id="-420" visible="true" lat="44.77104224" lon="-72.41996757">
    <tag k="addr:housenumber" v="608"/>
    <tag k="addr:street" v="Farm Road"/>
    <tag k="addr:state" v="VT"/>
    <tag k="ref:vcgi:esiteid" v="142401"/>
  </node>
  <node id="-421" visible="true" lat="44.77113453" lon="-72.46021574">
    <tag k="addr:housenumber" v="90"/>
    <tag k="addr:street" v="Ranch Road"/>
    <tag k="addr:state" v="VT"/>
    <tag k="ref:vcgi:esiteid" v="142402"/>
  </node>
  <node id="-422" visible="true" lat="44.77047055" lon="-72.46080171">
    <tag k="addr:housenumber" v="125"/>
    <tag k="addr:street" v="Ranch Road"/>
    <tag k="addr:state" v="VT"/>
    <tag k="ref:vcgi:esiteid" v="142403"/>
  </node>
  <node id="-423" visible="true" lat="44.77045787" lon="-72.45814829">
    <tag k="addr:housenumber" v="151"/>
    <tag k="addr:street" v="Mink Farm Road"/>
    <tag k="addr:state" v="VT"/>
    <tag k="ref:vcgi:esiteid" v="142405"/>
  </node>
  <node id="-424" visible="true" lat="44.77019252" lon="-72.45860314">
    <tag k="addr:housenumber" v="174"/>
    <tag k="addr:street" v="Mink Farm Road"/>
    <tag k="addr:state" v="VT"/>
    <tag k="ref:vcgi:esiteid" v="142406"/>
  </node>
  <node id="-425" visible="true" lat="44.77023315" lon="-72.46029663">
    <tag k="addr:housenumber" v="55"/>
    <tag k="addr:street" v="Ranch Road"/>
    <tag k="addr:state" v="VT"/>
    <tag k="ref:vcgi:esiteid" v="142407"/>
  </node>
  <node id="-426" visible="true" lat="44.77010345" lon="-72.47653961">
    <tag k="addr:housenumber" v="938"/>
    <tag k="addr:street" v="Cheney Road"/>
    <tag k="addr:state" v="VT"/>
    <tag k="ref:vcgi:esiteid" v="142408"/>
  </node>
  <node id="-427" visible="true" lat="44.76971958" lon="-72.46094208">
    <tag k="addr:housenumber" v="78"/>
    <tag k="addr:street" v="Pierce Road"/>
    <tag k="addr:state" v="VT"/>
    <tag k="ref:vcgi:esiteid" v="142409"/>
  </node>
  <node id="-428" visible="true" lat="44.76913354" lon="-72.45930008">
    <tag k="addr:housenumber" v="257"/>
    <tag k="addr:street" v="Mink Farm Road"/>
    <tag k="addr:state" v="VT"/>
    <tag k="ref:vcgi:esiteid" v="142410"/>
  </node>
  <node id="-429" visible="true" lat="44.76800537" lon="-72.47427368">
    <tag k="addr:housenumber" v="755"/>
    <tag k="addr:street" v="Cheney Road"/>
    <tag k="addr:state" v="VT"/>
    <tag k="ref:vcgi:esiteid" v="142411"/>
  </node>
  <node id="-430" visible="true" lat="44.76772879" lon="-72.46018528">
    <tag k="addr:housenumber" v="371"/>
    <tag k="addr:street" v="Mink Farm Road"/>
    <tag k="addr:state" v="VT"/>
    <tag k="ref:vcgi:esiteid" v="142412"/>
  </node>
  <node id="-431" visible="true" lat="44.76761431" lon="-72.49406206">
    <tag k="addr:housenumber" v="975"/>
    <tag k="addr:street" v="Newton Road"/>
    <tag k="addr:state" v="VT"/>
    <tag k="ref:vcgi:esiteid" v="142413"/>
  </node>
  <node id="-432" visible="true" lat="44.76755013" lon="-72.46020374">
    <tag k="addr:housenumber" v="387"/>
    <tag k="addr:street" v="Mink Farm Road"/>
    <tag k="addr:state" v="VT"/>
    <tag k="ref:vcgi:esiteid" v="142414"/>
  </node>
  <node id="-433" visible="true" lat="44.76633684" lon="-72.4936831">
    <tag k="addr:housenumber" v="977"/>
    <tag k="addr:street" v="Newton Road"/>
    <tag k="addr:state" v="VT"/>
    <tag k="ref:vcgi:esiteid" v="142415"/>
  </node>
  <node id="-434" visible="true" lat="44.76623916" lon="-72.46717071">
    <tag k="addr:housenumber" v="395"/>
    <tag k="addr:street" v="Cheney Road"/>
    <tag k="addr:state" v="VT"/>
    <tag k="ref:vcgi:esiteid" v="142417"/>
  </node>
  <node id="-435" visible="true" lat="44.76574938" lon="-72.45810235">
    <tag k="addr:housenumber" v="5058"/>
    <tag k="addr:street" v="Vermont Route 100"/>
    <tag k="addr:state" v="VT"/>
    <tag k="ref:vcgi:esiteid" v="142418"/>
  </node>
  <node id="-436" visible="true" lat="44.76560117" lon="-72.47023296">
    <tag k="addr:housenumber" v="67"/>
    <tag k="addr:street" v="Page Road"/>
    <tag k="addr:state" v="VT"/>
    <tag k="ref:vcgi:esiteid" v="142419"/>
  </node>
  <node id="-437" visible="true" lat="44.76570504" lon="-72.44962768">
    <tag k="addr:housenumber" v="529"/>
    <tag k="addr:street" v="Meek Road"/>
    <tag k="addr:state" v="VT"/>
    <tag k="ref:vcgi:esiteid" v="142420"/>
  </node>
  <node id="-438" visible="true" lat="44.76560869" lon="-72.52341831">
    <tag k="addr:housenumber" v="165"/>
    <tag k="addr:street" v="Vag Road"/>
    <tag k="addr:state" v="VT"/>
    <tag k="ref:vcgi:esiteid" v="142421"/>
  </node>
  <node id="-439" visible="true" lat="44.76308722" lon="-72.46217805">
    <tag k="addr:housenumber" v="538"/>
    <tag k="addr:street" v="Mink Farm Road"/>
    <tag k="addr:state" v="VT"/>
    <tag k="ref:vcgi:esiteid" v="142422"/>
  </node>
  <node id="-440" visible="true" lat="44.76403908" lon="-72.46551938">
    <tag k="addr:housenumber" v="180"/>
    <tag k="addr:street" v="Souther Road"/>
    <tag k="addr:state" v="VT"/>
    <tag k="ref:vcgi:esiteid" v="142423"/>
  </node>
  <node id="-441" visible="true" lat="44.76380263" lon="-72.45658332">
    <tag k="addr:housenumber" v="5"/>
    <tag k="addr:street" v="Stewart Road"/>
    <tag k="addr:state" v="VT"/>
    <tag k="ref:vcgi:esiteid" v="142424"/>
  </node>
  <node id="-442" visible="true" lat="44.76265006" lon="-72.45650367">
    <tag k="addr:housenumber" v="150"/>
    <tag k="addr:street" v="Stewart Road"/>
    <tag k="addr:state" v="VT"/>
    <tag k="ref:vcgi:esiteid" v="142425"/>
  </node>
  <node id="-443" visible="true" lat="44.76053873" lon="-72.52163894">
    <tag k="addr:housenumber" v="4998"/>
    <tag k="addr:street" v="Mines Road"/>
    <tag k="addr:state" v="VT"/>
    <tag k="ref:vcgi:esiteid" v="142426"/>
  </node>
  <node id="-444" visible="true" lat="44.76021448" lon="-72.48231651">
    <tag k="addr:housenumber" v="751"/>
    <tag k="addr:street" v="Page Road"/>
    <tag k="addr:state" v="VT"/>
    <tag k="ref:vcgi:esiteid" v="142427"/>
  </node>
  <node id="-445" visible="true" lat="44.75938704" lon="-72.4566341">
    <tag k="addr:housenumber" v="5535"/>
    <tag k="addr:street" v="Vermont Route 100"/>
    <tag k="addr:state" v="VT"/>
    <tag k="ref:vcgi:esiteid" v="142428"/>
  </node>
  <node id="-446" visible="true" lat="44.75743613" lon="-72.45600917">
    <tag k="addr:housenumber" v="5687"/>
    <tag k="addr:street" v="Vermont Route 100"/>
    <tag k="addr:state" v="VT"/>
    <tag k="ref:vcgi:esiteid" v="142429"/>
  </node>
  <node id="-447" visible="true" lat="44.7503395" lon="-72.45931244">
    <tag k="addr:housenumber" v="6237"/>
    <tag k="addr:street" v="Vermont Route 100"/>
    <tag k="addr:state" v="VT"/>
    <tag k="ref:vcgi:esiteid" v="142431"/>
  </node>
  <node id="-448" visible="true" lat="44.74919192" lon="-72.45973408">
    <tag k="addr:housenumber" v="6297"/>
    <tag k="addr:street" v="Vermont Route 100"/>
    <tag k="addr:state" v="VT"/>
    <tag k="ref:vcgi:esiteid" v="142432"/>
  </node>
  <node id="-449" visible="true" lat="44.74757427" lon="-72.45935796">
    <tag k="addr:housenumber" v="6445"/>
    <tag k="addr:street" v="Vermont Route 100"/>
    <tag k="addr:state" v="VT"/>
    <tag k="ref:vcgi:esiteid" v="142433"/>
  </node>
  <node id="-450" visible="true" lat="44.74754467" lon="-72.46034167">
    <tag k="addr:housenumber" v="6443"/>
    <tag k="addr:street" v="Vermont Route 100"/>
    <tag k="addr:state" v="VT"/>
    <tag k="ref:vcgi:esiteid" v="142434"/>
  </node>
  <node id="-451" visible="true" lat="44.7455902" lon="-72.46082305">
    <tag k="addr:housenumber" v="6571"/>
    <tag k="addr:street" v="Vermont Route 100"/>
    <tag k="addr:state" v="VT"/>
    <tag k="ref:vcgi:esiteid" v="142435"/>
  </node>
  <node id="-452" visible="true" lat="44.74520433" lon="-72.40804954">
    <tag k="addr:housenumber" v="365"/>
    <tag k="addr:street" v="Bayley Hazen Road"/>
    <tag k="addr:state" v="VT"/>
    <tag k="ref:vcgi:esiteid" v="142436"/>
  </node>
  <node id="-453" visible="true" lat="44.74483104" lon="-72.46236937">
    <tag k="addr:housenumber" v="6612"/>
    <tag k="addr:street" v="Vermont Route 100"/>
    <tag k="addr:state" v="VT"/>
    <tag k="ref:vcgi:esiteid" v="142437"/>
  </node>
  <node id="-454" visible="true" lat="44.74419283" lon="-72.46130232">
    <tag k="addr:housenumber" v="6669"/>
    <tag k="addr:street" v="Vermont Route 100"/>
    <tag k="addr:state" v="VT"/>
    <tag k="ref:vcgi:esiteid" v="142438"/>
  </node>
  <node id="-455" visible="true" lat="44.74275564" lon="-72.46657881">
    <tag k="addr:housenumber" v="7020"/>
    <tag k="addr:street" v="Vermont Route 100"/>
    <tag k="addr:state" v="VT"/>
    <tag k="ref:vcgi:esiteid" v="142439"/>
  </node>
  <node id="-456" visible="true" lat="44.74205243" lon="-72.46347818">
    <tag k="addr:housenumber" v="6839"/>
    <tag k="addr:street" v="Vermont Route 100"/>
    <tag k="addr:state" v="VT"/>
    <tag k="ref:vcgi:esiteid" v="142440"/>
  </node>
  <node id="-457" visible="true" lat="44.73618316" lon="-72.41873168">
    <tag k="addr:housenumber" v="914"/>
    <tag k="addr:street" v="Eden Road"/>
    <tag k="addr:state" v="VT"/>
    <tag k="ref:vcgi:esiteid" v="142441"/>
  </node>
  <node id="-458" visible="true" lat="44.73600523" lon="-72.41042558">
    <tag k="addr:housenumber" v="497"/>
    <tag k="addr:street" v="Eden Road"/>
    <tag k="addr:state" v="VT"/>
    <tag k="ref:vcgi:esiteid" v="142442"/>
  </node>
  <node id="-459" visible="true" lat="44.73272624" lon="-72.42282301">
    <tag k="addr:housenumber" v="1214"/>
    <tag k="addr:street" v="Eden Road"/>
    <tag k="addr:state" v="VT"/>
    <tag k="ref:vcgi:esiteid" v="142443"/>
  </node>
  <node id="-460" visible="true" lat="44.72680132" lon="-72.42686014">
    <tag k="addr:housenumber" v="1639"/>
    <tag k="addr:street" v="Eden Road"/>
    <tag k="addr:state" v="VT"/>
    <tag k="ref:vcgi:esiteid" v="142444"/>
  </node>
  <node id="-461" visible="true" lat="44.82936108" lon="-72.46928155">
    <tag k="addr:housenumber" v="125"/>
    <tag k="addr:street" v="Keep Out Drive"/>
    <tag k="addr:state" v="VT"/>
    <tag k="ref:vcgi:esiteid" v="142445"/>
  </node>
  <node id="-462" visible="true" lat="44.83204684" lon="-72.47045207">
    <tag k="addr:housenumber" v="193"/>
    <tag k="addr:street" v="Keep Out Drive"/>
    <tag k="addr:state" v="VT"/>
    <tag k="ref:vcgi:esiteid" v="142446"/>
  </node>
  <node id="-463" visible="true" lat="44.82919383" lon="-72.46977214">
    <tag k="addr:housenumber" v="175"/>
    <tag k="addr:street" v="Keep Out Drive"/>
    <tag k="addr:state" v="VT"/>
    <tag k="ref:vcgi:esiteid" v="142447"/>
  </node>
  <node id="-465" visible="true" lat="44.82782269" lon="-72.46499063">
    <tag k="addr:housenumber" v="129"/>
    <tag k="addr:street" v="Pion Road"/>
    <tag k="addr:state" v="VT"/>
    <tag k="ref:vcgi:esiteid" v="142449"/>
  </node>
  <node id="-466" visible="true" lat="44.83132511" lon="-72.50634216">
    <tag k="addr:housenumber" v="3949"/>
    <tag k="addr:street" v="Hazen Notch Road"/>
    <tag k="addr:state" v="VT"/>
    <tag k="ref:vcgi:esiteid" v="142450"/>
  </node>
  <node id="-468" visible="true" lat="44.83173916" lon="-72.40109047">
    <tag k="addr:housenumber" v="3120"/>
    <tag k="addr:street" v="Carter Road"/>
    <tag k="addr:state" v="VT"/>
    <tag k="ref:vcgi:esiteid" v="142452"/>
  </node>
  <node id="-469" visible="true" lat="44.82841099" lon="-72.38831715">
    <tag k="addr:housenumber" v="858"/>
    <tag k="addr:street" v="Tenakee Road"/>
    <tag k="addr:state" v="VT"/>
    <tag k="ref:vcgi:esiteid" v="142453"/>
  </node>
  <node id="-470" visible="true" lat="44.8166339" lon="-72.44638329">
    <tag k="addr:housenumber" v="147"/>
    <tag k="addr:street" v="Hidden Country Road"/>
    <tag k="addr:state" v="VT"/>
    <tag k="ref:vcgi:esiteid" v="142454"/>
  </node>
  <node id="-471" visible="true" lat="44.81667024" lon="-72.44537287">
    <tag k="addr:housenumber" v="146"/>
    <tag k="addr:street" v="Hidden Country Road"/>
    <tag k="addr:state" v="VT"/>
    <tag k="ref:vcgi:esiteid" v="142455"/>
  </node>
  <node id="-472" visible="true" lat="44.81725552" lon="-72.44583046">
    <tag k="addr:housenumber" v="150"/>
    <tag k="addr:street" v="Hidden Country Road"/>
    <tag k="addr:state" v="VT"/>
    <tag k="ref:vcgi:esiteid" v="142456"/>
  </node>
  <node id="-473" visible="true" lat="44.81720343" lon="-72.47034559">
    <tag k="addr:housenumber" v="84"/>
    <tag k="addr:street" v="Buck Hill Road"/>
    <tag k="addr:state" v="VT"/>
    <tag k="ref:vcgi:esiteid" v="142457"/>
  </node>
  <node id="-474" visible="true" lat="44.81937698" lon="-72.47283531">
    <tag k="addr:housenumber" v="100"/>
    <tag k="addr:street" v="Notta Road Drive"/>
    <tag k="addr:state" v="VT"/>
    <tag k="ref:vcgi:esiteid" v="142458"/>
  </node>
  <node id="-475" visible="true" lat="44.82003625" lon="-72.4707205">
    <tag k="addr:housenumber" v="229"/>
    <tag k="addr:street" v="Buck Hill Road"/>
    <tag k="addr:state" v="VT"/>
    <tag k="ref:vcgi:esiteid" v="142459"/>
  </node>
  <node id="-476" visible="true" lat="44.82241286" lon="-72.46789362">
    <tag k="addr:housenumber" v="15"/>
    <tag k="addr:street" v="Richardson Road"/>
    <tag k="addr:state" v="VT"/>
    <tag k="ref:vcgi:esiteid" v="142460"/>
  </node>
  <node id="-477" visible="true" lat="44.80624733" lon="-72.44811097">
    <tag k="addr:housenumber" v="2170"/>
    <tag k="addr:street" v="Vermont Route 100"/>
    <tag k="addr:state" v="VT"/>
    <tag k="ref:vcgi:esiteid" v="142461"/>
  </node>
  <node id="-478" visible="true" lat="44.81440658" lon="-72.39785329">
    <tag k="addr:housenumber" v="2981"/>
    <tag k="addr:street" v="Vermont Route 58 East"/>
    <tag k="addr:state" v="VT"/>
    <tag k="ref:vcgi:esiteid" v="142463"/>
  </node>
  <node id="-479" visible="true" lat="44.82081483" lon="-72.41605847">
    <tag k="addr:housenumber" v="1960"/>
    <tag k="addr:street" v="Carter Road"/>
    <tag k="addr:state" v="VT"/>
    <tag k="ref:vcgi:esiteid" v="142464"/>
  </node>
  <node id="-480" visible="true" lat="44.81439604" lon="-72.43438804">
    <tag k="addr:housenumber" v="1295"/>
    <tag k="addr:street" v="Vermont Route 100"/>
    <tag k="addr:state" v="VT"/>
    <tag k="ref:vcgi:esiteid" v="142465"/>
  </node>
  <node id="-481" visible="true" lat="44.81332632" lon="-72.38487289">
    <tag k="addr:housenumber" v="95"/>
    <tag k="addr:street" v="Ridgeview Drive"/>
    <tag k="addr:state" v="VT"/>
    <tag k="ref:vcgi:esiteid" v="142466"/>
  </node>
  <node id="-482" visible="true" lat="44.81459662" lon="-72.36680758">
    <tag k="addr:housenumber" v="4426"/>
    <tag k="addr:street" v="Vermont Route 58 East"/>
    <tag k="addr:state" v="VT"/>
    <tag k="ref:vcgi:esiteid" v="142467"/>
  </node>
  <node id="-483" visible="true" lat="44.78858372" lon="-72.50834756">
    <tag k="addr:housenumber" v="623"/>
    <tag k="addr:street" v="Birchwood Drive"/>
    <tag k="addr:state" v="VT"/>
    <tag k="ref:vcgi:esiteid" v="142468"/>
  </node>
  <node id="-484" visible="true" lat="44.79371428" lon="-72.48943646">
    <tag k="addr:housenumber" v="1798"/>
    <tag k="addr:street" v="Mines Road"/>
    <tag k="addr:state" v="VT"/>
    <tag k="ref:vcgi:esiteid" v="142469"/>
  </node>
  <node id="-485" visible="true" lat="44.79918528" lon="-72.48490081">
    <tag k="addr:housenumber" v="1318"/>
    <tag k="addr:street" v="Mines Road"/>
    <tag k="addr:state" v="VT"/>
    <tag k="ref:vcgi:esiteid" v="142470"/>
  </node>
  <node id="-486" visible="true" lat="44.78760797" lon="-72.44971278">
    <tag k="addr:housenumber" v="3466"/>
    <tag k="addr:street" v="Vermont Route 100"/>
    <tag k="addr:state" v="VT"/>
    <tag k="ref:vcgi:esiteid" v="142471"/>
  </node>
  <node id="-487" visible="true" lat="44.797536" lon="-72.43054306">
    <tag k="addr:housenumber" v="916"/>
    <tag k="addr:street" v="Vermont Route 58 East"/>
    <tag k="addr:state" v="VT"/>
    <tag k="ref:vcgi:esiteid" v="142472"/>
  </node>
  <node id="-488" visible="true" lat="44.77549291" lon="-72.45120294">
    <tag k="addr:housenumber" v="4155"/>
    <tag k="addr:street" v="Vermont Route 100"/>
    <tag k="addr:state" v="VT"/>
    <tag k="ref:vcgi:esiteid" v="142473"/>
  </node>
  <node id="-489" visible="true" lat="44.76839386" lon="-72.45992597">
    <tag k="addr:housenumber" v="367"/>
    <tag k="addr:street" v="Mink Farm Road"/>
    <tag k="addr:state" v="VT"/>
    <tag k="ref:vcgi:esiteid" v="142474"/>
  </node>
  <node id="-490" visible="true" lat="44.7420646" lon="-72.46133659">
    <tag k="addr:housenumber" v="6777"/>
    <tag k="addr:street" v="Vermont Route 100"/>
    <tag k="addr:state" v="VT"/>
    <tag k="ref:vcgi:esiteid" v="142475"/>
  </node>
  <node id="-491" visible="true" lat="44.73577865" lon="-72.41040939">
    <tag k="addr:housenumber" v="499"/>
    <tag k="addr:street" v="Eden Road"/>
    <tag k="addr:state" v="VT"/>
    <tag k="ref:vcgi:esiteid" v="142476"/>
  </node>
  <node id="-492" visible="true" lat="44.73677606" lon="-72.41556259">
    <tag k="addr:housenumber" v="738"/>
    <tag k="addr:street" v="Eden Road"/>
    <tag k="addr:state" v="VT"/>
    <tag k="ref:vcgi:esiteid" v="142477"/>
  </node>
  <node id="-493" visible="true" lat="44.72755193" lon="-72.42796886">
    <tag k="addr:housenumber" v="1640"/>
    <tag k="addr:street" v="Eden Road"/>
    <tag k="addr:state" v="VT"/>
    <tag k="ref:vcgi:esiteid" v="142478"/>
  </node>
  <node id="-494" visible="true" lat="44.79576022" lon="-72.44233938">
    <tag k="addr:housenumber" v="249"/>
    <tag k="addr:street" v="Irish Hill Road"/>
    <tag k="addr:state" v="VT"/>
    <tag k="ref:vcgi:esiteid" v="142480"/>
  </node>
  <node id="-495" visible="true" lat="44.7933949" lon="-72.44316981">
    <tag k="addr:housenumber" v="365"/>
    <tag k="addr:street" v="Irish Hill Road"/>
    <tag k="addr:state" v="VT"/>
    <tag k="ref:vcgi:esiteid" v="142481"/>
  </node>
  <node id="-496" visible="true" lat="44.78481509" lon="-72.50704821">
    <tag k="addr:housenumber" v="2938"/>
    <tag k="addr:street" v="Mines Road"/>
    <tag k="addr:state" v="VT"/>
    <tag k="ref:vcgi:esiteid" v="142482"/>
  </node>
  <node id="-497" visible="true" lat="44.79022553" lon="-72.45515089">
    <tag k="addr:housenumber" v="621"/>
    <tag k="addr:street" v="Bousquet Road"/>
    <tag k="addr:state" v="VT"/>
    <tag k="ref:vcgi:esiteid" v="142483"/>
  </node>
  <node id="-498" visible="true" lat="44.78327174" lon="-72.41504635">
    <tag k="addr:housenumber" v="2195"/>
    <tag k="addr:street" v="Irish Hill Road"/>
    <tag k="addr:state" v="VT"/>
    <tag k="ref:vcgi:esiteid" v="142484"/>
  </node>
  <node id="-499" visible="true" lat="44.77689221" lon="-72.49175493">
    <tag k="addr:housenumber" v="223"/>
    <tag k="addr:street" v="Newton Road"/>
    <tag k="addr:state" v="VT"/>
    <tag k="ref:vcgi:esiteid" v="142485"/>
  </node>
  <node id="-500" visible="true" lat="44.78029491" lon="-72.41127293">
    <tag k="addr:housenumber" v="2122"/>
    <tag k="addr:street" v="Irish Hill Road"/>
    <tag k="addr:state" v="VT"/>
    <tag k="ref:vcgi:esiteid" v="142487"/>
  </node>
  <node id="-501" visible="true" lat="44.73567532" lon="-72.41875841">
    <tag k="addr:housenumber" v="933"/>
    <tag k="addr:street" v="Eden Road"/>
    <tag k="addr:state" v="VT"/>
    <tag k="ref:vcgi:esiteid" v="142488"/>
  </node>
  <node id="-502" visible="true" lat="44.80891277" lon="-72.49307866">
    <tag k="addr:housenumber" v="1215"/>
    <tag k="addr:street" v="Baraw Road"/>
    <tag k="addr:state" v="VT"/>
    <tag k="ref:vcgi:esiteid" v="142489"/>
  </node>
  <node id="-503" visible="true" lat="44.79753199" lon="-72.42380096">
    <tag k="addr:housenumber" v="1232"/>
    <tag k="addr:street" v="Vermont Route 58 East"/>
    <tag k="addr:state" v="VT"/>
    <tag k="ref:vcgi:esiteid" v="142490"/>
  </node>
  <node id="-504" visible="true" lat="44.73615808" lon="-72.41231163">
    <tag k="addr:housenumber" v="591"/>
    <tag k="addr:street" v="Eden Road"/>
    <tag k="addr:state" v="VT"/>
    <tag k="ref:vcgi:esiteid" v="142491"/>
  </node>
  <node id="-505" visible="true" lat="44.8042248" lon="-72.48181123">
    <tag k="addr:housenumber" v="984"/>
    <tag k="addr:street" v="Mines Road"/>
    <tag k="addr:state" v="VT"/>
    <tag k="ref:vcgi:esiteid" v="142492"/>
  </node>
  <node id="-506" visible="true" lat="44.7956146" lon="-72.48561315">
    <tag k="addr:housenumber" v="1573"/>
    <tag k="addr:street" v="Mines Road"/>
    <tag k="addr:state" v="VT"/>
    <tag k="ref:vcgi:esiteid" v="142493"/>
  </node>
  <node id="-507" visible="true" lat="44.79650179" lon="-72.48812885">
    <tag k="addr:housenumber" v="97"/>
    <tag k="addr:street" v="Sargent Drive"/>
    <tag k="addr:state" v="VT"/>
    <tag k="ref:vcgi:esiteid" v="142494"/>
  </node>
  <node id="-508" visible="true" lat="44.78868243" lon="-72.46118139">
    <tag k="addr:housenumber" v="830"/>
    <tag k="addr:street" v="Bousquet Road"/>
    <tag k="addr:state" v="VT"/>
    <tag k="ref:vcgi:esiteid" v="142495"/>
  </node>
  <node id="-509" visible="true" lat="44.78708462" lon="-72.40654433">
    <tag k="addr:housenumber" v="2692"/>
    <tag k="addr:street" v="Irish Hill Road"/>
    <tag k="addr:state" v="VT"/>
    <tag k="ref:vcgi:esiteid" v="142497"/>
  </node>
  <node id="-510" visible="true" lat="44.77355333" lon="-72.47584762">
    <tag k="addr:housenumber" v="1004"/>
    <tag k="addr:street" v="Cheney Road"/>
    <tag k="addr:state" v="VT"/>
    <tag k="ref:vcgi:esiteid" v="142498"/>
  </node>
  <node id="-511" visible="true" lat="44.77483261" lon="-72.45782627">
    <tag k="addr:housenumber" v="38"/>
    <tag k="addr:street" v="Rickaby Road"/>
    <tag k="addr:state" v="VT"/>
    <tag k="ref:vcgi:esiteid" v="142499"/>
  </node>
  <node id="-512" visible="true" lat="44.82029813" lon="-72.40916262">
    <tag k="addr:housenumber" v="721"/>
    <tag k="addr:street" v="Diette Road"/>
    <tag k="addr:state" v="VT"/>
    <tag k="ref:vcgi:esiteid" v="142500"/>
  </node>
  <node id="-513" visible="true" lat="44.76830172" lon="-72.52108238">
    <tag k="addr:housenumber" v="4566"/>
    <tag k="addr:street" v="Mines Road"/>
    <tag k="addr:state" v="VT"/>
    <tag k="ref:vcgi:esiteid" v="142501"/>
  </node>
  <node id="-514" visible="true" lat="44.81051081" lon="-72.46015145">
    <tag k="addr:housenumber" v="1104"/>
    <tag k="addr:street" v="Hazen Notch Road"/>
    <tag k="addr:state" v="VT"/>
    <tag k="ref:vcgi:esiteid" v="142502"/>
  </node>
  <node id="-515" visible="true" lat="44.7735126" lon="-72.4191848">
    <tag k="addr:housenumber" v="595"/>
    <tag k="addr:street" v="Farm Road"/>
    <tag k="addr:state" v="VT"/>
    <tag k="ref:vcgi:esiteid" v="142503"/>
  </node>
  <node id="-516" visible="true" lat="44.82241178" lon="-72.42060771">
    <tag k="addr:housenumber" v="1813"/>
    <tag k="addr:street" v="Carter Road"/>
    <tag k="addr:state" v="VT"/>
    <tag k="ref:vcgi:esiteid" v="142505"/>
  </node>
  <node id="-517" visible="true" lat="44.82079977" lon="-72.41349417">
    <tag k="addr:housenumber" v="2156"/>
    <tag k="addr:street" v="Carter Road"/>
    <tag k="addr:state" v="VT"/>
    <tag k="ref:vcgi:esiteid" v="142506"/>
  </node>
  <node id="-518" visible="true" lat="44.81647965" lon="-72.39129308">
    <tag k="addr:housenumber" v="3299"/>
    <tag k="addr:street" v="Vermont Route 58 East"/>
    <tag k="addr:state" v="VT"/>
    <tag k="ref:vcgi:esiteid" v="142508"/>
  </node>
  <node id="-519" visible="true" lat="44.79693922" lon="-72.48732867">
    <tag k="addr:housenumber" v="86"/>
    <tag k="addr:street" v="Sargent Drive"/>
    <tag k="addr:state" v="VT"/>
    <tag k="ref:vcgi:esiteid" v="142509"/>
  </node>
  <node id="-520" visible="true" lat="44.79457357" lon="-72.48684975">
    <tag k="addr:housenumber" v="1623"/>
    <tag k="addr:street" v="Mines Road"/>
    <tag k="addr:state" v="VT"/>
    <tag k="ref:vcgi:esiteid" v="142510"/>
  </node>
  <node id="-521" visible="true" lat="44.7760581" lon="-72.44338435">
    <tag k="addr:housenumber" v="4150"/>
    <tag k="addr:street" v="Vermont Route 100"/>
    <tag k="addr:state" v="VT"/>
    <tag k="ref:vcgi:esiteid" v="142511"/>
  </node>
  <node id="-522" visible="true" lat="44.83333163" lon="-72.39659851">
    <tag k="addr:housenumber" v="242"/>
    <tag k="addr:street" v="Tenakee Road"/>
    <tag k="addr:state" v="VT"/>
    <tag k="ref:vcgi:esiteid" v="142513"/>
  </node>
  <node id="-523" visible="true" lat="44.80874432" lon="-72.49369122">
    <tag k="addr:housenumber" v="1213"/>
    <tag k="addr:street" v="Baraw Road"/>
    <tag k="addr:state" v="VT"/>
    <tag k="ref:vcgi:esiteid" v="142514"/>
  </node>
  <node id="-524" visible="true" lat="44.82060585" lon="-72.39610918">
    <tag k="addr:housenumber" v="276"/>
    <tag k="addr:street" v="Mitchell Road"/>
    <tag k="addr:state" v="VT"/>
    <tag k="ref:vcgi:esiteid" v="142515"/>
  </node>
  <node id="-525" visible="true" lat="44.8205057" lon="-72.39653462">
    <tag k="addr:housenumber" v="300"/>
    <tag k="addr:street" v="Mitchell Road"/>
    <tag k="addr:state" v="VT"/>
    <tag k="ref:vcgi:esiteid" v="142516"/>
  </node>
  <node id="-526" visible="true" lat="44.82214034" lon="-72.41427455">
    <tag k="addr:housenumber" v="2131"/>
    <tag k="addr:street" v="Carter Road"/>
    <tag k="addr:state" v="VT"/>
    <tag k="ref:vcgi:esiteid" v="142517"/>
  </node>
  <node id="-527" visible="true" lat="44.82554941" lon="-72.5002883">
    <tag k="addr:housenumber" v="87"/>
    <tag k="addr:street" v="Wilderness Drive"/>
    <tag k="addr:state" v="VT"/>
    <tag k="ref:vcgi:esiteid" v="142520"/>
  </node>
  <node id="-528" visible="true" lat="44.82435023" lon="-72.50332499">
    <tag k="addr:housenumber" v="271"/>
    <tag k="addr:street" v="Wilderness Drive"/>
    <tag k="addr:state" v="VT"/>
    <tag k="ref:vcgi:esiteid" v="142521"/>
  </node>
  <node id="-529" visible="true" lat="44.83004536" lon="-72.4016825">
    <tag k="addr:housenumber" v="2982"/>
    <tag k="addr:street" v="Carter Road"/>
    <tag k="addr:state" v="VT"/>
    <tag k="ref:vcgi:esiteid" v="142522"/>
  </node>
  <node id="-530" visible="true" lat="44.82985435" lon="-72.40413344">
    <tag k="addr:housenumber" v="2941"/>
    <tag k="addr:street" v="Carter Road"/>
    <tag k="addr:state" v="VT"/>
    <tag k="ref:vcgi:esiteid" v="142523"/>
  </node>
  <node id="-531" visible="true" lat="44.82713228" lon="-72.3597632">
    <tag k="addr:housenumber" v="2199"/>
    <tag k="addr:street" v="Robtoy Road"/>
    <tag k="addr:state" v="VT"/>
    <tag k="ref:vcgi:esiteid" v="142524"/>
  </node>
  <node id="-532" visible="true" lat="44.82955294" lon="-72.35893856">
    <tag k="addr:housenumber" v="2201"/>
    <tag k="addr:street" v="Robtoy Road"/>
    <tag k="addr:state" v="VT"/>
    <tag k="ref:vcgi:esiteid" v="142525"/>
  </node>
  <node id="-533" visible="true" lat="44.80483477" lon="-72.44615928">
    <tag k="addr:housenumber" v="2255"/>
    <tag k="addr:street" v="Vermont Route 100"/>
    <tag k="addr:state" v="VT"/>
    <tag k="ref:vcgi:esiteid" v="142526"/>
  </node>
  <node id="-534" visible="true" lat="44.82076915" lon="-72.43916851">
    <tag k="addr:housenumber" v="1007"/>
    <tag k="addr:street" v="Vermont Route 100"/>
    <tag k="addr:state" v="VT"/>
    <tag k="ref:vcgi:esiteid" v="142527"/>
  </node>
  <node id="-535" visible="true" lat="44.81702177" lon="-72.47237607">
    <tag k="addr:housenumber" v="1918"/>
    <tag k="addr:street" v="Hazen Notch Road"/>
    <tag k="addr:state" v="VT"/>
    <tag k="ref:vcgi:esiteid" v="142528"/>
  </node>
  <node id="-536" visible="true" lat="44.81984836" lon="-72.474652">
    <tag k="addr:housenumber" v="271"/>
    <tag k="addr:street" v="Notta Road Drive"/>
    <tag k="addr:state" v="VT"/>
    <tag k="ref:vcgi:esiteid" v="142529"/>
  </node>
  <node id="-537" visible="true" lat="44.81644163" lon="-72.40309229">
    <tag k="addr:housenumber" v="332"/>
    <tag k="addr:street" v="Diette Road"/>
    <tag k="addr:state" v="VT"/>
    <tag k="ref:vcgi:esiteid" v="142530"/>
  </node>
  <node id="-538" visible="true" lat="44.81723726" lon="-72.37841856">
    <tag k="addr:housenumber" v="4103"/>
    <tag k="addr:street" v="Vermont Route 58 East"/>
    <tag k="addr:state" v="VT"/>
    <tag k="ref:vcgi:esiteid" v="142531"/>
  </node>
  <node id="-539" visible="true" lat="44.81794189" lon="-72.37190827">
    <tag k="addr:housenumber" v="4367"/>
    <tag k="addr:street" v="Vermont Route 58 East"/>
    <tag k="addr:state" v="VT"/>
    <tag k="ref:vcgi:esiteid" v="142532"/>
  </node>
  <node id="-540" visible="true" lat="44.7967203" lon="-72.48535832">
    <tag k="addr:housenumber" v="1497"/>
    <tag k="addr:street" v="Mines Road"/>
    <tag k="addr:state" v="VT"/>
    <tag k="ref:vcgi:esiteid" v="142533"/>
  </node>
  <node id="-541" visible="true" lat="44.79411404" lon="-72.50217561">
    <tag k="addr:housenumber" v="634"/>
    <tag k="addr:street" v="Potter Road"/>
    <tag k="addr:state" v="VT"/>
    <tag k="ref:vcgi:esiteid" v="142534"/>
  </node>
  <node id="-542" visible="true" lat="44.7886428" lon="-72.519081">
    <tag k="addr:housenumber" v="462"/>
    <tag k="addr:street" v="Tillotson Road"/>
    <tag k="addr:state" v="VT"/>
    <tag k="ref:vcgi:esiteid" v="142535"/>
  </node>
  <node id="-543" visible="true" lat="44.78936553" lon="-72.44797019">
    <tag k="addr:housenumber" v="3325"/>
    <tag k="addr:street" v="Vermont Route 100"/>
    <tag k="addr:state" v="VT"/>
    <tag k="ref:vcgi:esiteid" v="142536"/>
  </node>
  <node id="-544" visible="true" lat="44.77901707" lon="-72.51986844">
    <tag k="addr:housenumber" v="3868"/>
    <tag k="addr:street" v="Mines Road"/>
    <tag k="addr:state" v="VT"/>
    <tag k="ref:vcgi:esiteid" v="142537"/>
  </node>
  <node id="-545" visible="true" lat="44.78108819" lon="-72.52022106">
    <tag k="addr:housenumber" v="109"/>
    <tag k="addr:street" v="Maple Ridge Drive"/>
    <tag k="addr:state" v="VT"/>
    <tag k="ref:vcgi:esiteid" v="142538"/>
  </node>
  <node id="-546" visible="true" lat="44.78402435" lon="-72.52597664">
    <tag k="addr:housenumber" v="356"/>
    <tag k="addr:street" v="Maple Ridge Drive"/>
    <tag k="addr:state" v="VT"/>
    <tag k="ref:vcgi:esiteid" v="142539"/>
  </node>
  <node id="-547" visible="true" lat="44.78296701" lon="-72.52761237">
    <tag k="addr:housenumber" v="431"/>
    <tag k="addr:street" v="Maple Ridge Drive"/>
    <tag k="addr:state" v="VT"/>
    <tag k="ref:vcgi:esiteid" v="142540"/>
  </node>
  <node id="-548" visible="true" lat="44.76485648" lon="-72.46313192">
    <tag k="addr:housenumber" v="25"/>
    <tag k="addr:street" v="Souther Road"/>
    <tag k="addr:state" v="VT"/>
    <tag k="ref:vcgi:esiteid" v="142541"/>
  </node>
  <node id="-549" visible="true" lat="44.74642204" lon="-72.45972602">
    <tag k="addr:housenumber" v="6477"/>
    <tag k="addr:street" v="Vermont Route 100"/>
    <tag k="addr:state" v="VT"/>
    <tag k="ref:vcgi:esiteid" v="142542"/>
  </node>
  <node id="-550" visible="true" lat="44.73555534" lon="-72.42124084">
    <tag k="addr:housenumber" v="1000"/>
    <tag k="addr:street" v="Eden Road"/>
    <tag k="addr:state" v="VT"/>
    <tag k="ref:vcgi:esiteid" v="142543"/>
  </node>
  <node id="-551" visible="true" lat="44.73116327" lon="-72.42233531">
    <tag k="addr:housenumber" v="1309"/>
    <tag k="addr:street" v="Eden Road"/>
    <tag k="addr:state" v="VT"/>
    <tag k="ref:vcgi:esiteid" v="142544"/>
  </node>
  <node id="-552" visible="true" lat="44.8347623" lon="-72.40274117">
    <tag k="addr:housenumber" v="3323"/>
    <tag k="addr:street" v="Carter Road"/>
    <tag k="addr:state" v="VT"/>
    <tag k="ref:vcgi:esiteid" v="142545"/>
  </node>
  <node id="-553" visible="true" lat="44.80882774" lon="-72.40218276">
    <tag k="addr:housenumber" v="2644"/>
    <tag k="addr:street" v="Vermont Route 58 East"/>
    <tag k="addr:state" v="VT"/>
    <tag k="ref:vcgi:esiteid" v="142547"/>
  </node>
  <node id="-554" visible="true" lat="44.81551672" lon="-72.37728332">
    <tag k="addr:housenumber" v="4097"/>
    <tag k="addr:street" v="Vermont Route 58 East"/>
    <tag k="addr:state" v="VT"/>
    <tag k="ref:vcgi:esiteid" v="142548"/>
  </node>
  <node id="-555" visible="true" lat="44.81546086" lon="-72.38583745">
    <tag k="addr:housenumber" v="3557"/>
    <tag k="addr:street" v="Vermont Route 58 East"/>
    <tag k="addr:state" v="VT"/>
    <tag k="ref:vcgi:esiteid" v="142549"/>
  </node>
  <node id="-556" visible="true" lat="44.81468018" lon="-72.38351534">
    <tag k="addr:housenumber" v="3741"/>
    <tag k="addr:street" v="Vermont Route 58 East"/>
    <tag k="addr:state" v="VT"/>
    <tag k="ref:vcgi:esiteid" v="142550"/>
  </node>
  <node id="-557" visible="true" lat="44.7835332" lon="-72.50507902">
    <tag k="addr:housenumber" v="2923"/>
    <tag k="addr:street" v="Mines Road"/>
    <tag k="addr:state" v="VT"/>
    <tag k="ref:vcgi:esiteid" v="142551"/>
  </node>
  <node id="-558" visible="true" lat="44.7822295" lon="-72.43525177">
    <tag k="addr:housenumber" v="1224"/>
    <tag k="addr:street" v="Irish Hill Road"/>
    <tag k="addr:state" v="VT"/>
    <tag k="ref:vcgi:esiteid" v="142552"/>
  </node>
  <node id="-559" visible="true" lat="44.77651276" lon="-72.51979351">
    <tag k="addr:housenumber" v="4012"/>
    <tag k="addr:street" v="Mines Road"/>
    <tag k="addr:state" v="VT"/>
    <tag k="ref:vcgi:esiteid" v="142553"/>
  </node>
  <node id="-560" visible="true" lat="44.7667504" lon="-72.47691552">
    <tag k="addr:housenumber" v="831"/>
    <tag k="addr:street" v="Cheney Road"/>
    <tag k="addr:state" v="VT"/>
    <tag k="ref:vcgi:esiteid" v="142555"/>
  </node>
  <node id="-561" visible="true" lat="44.77366566" lon="-72.47843905">
    <tag k="addr:housenumber" v="1180"/>
    <tag k="addr:street" v="Cheney Road"/>
    <tag k="addr:state" v="VT"/>
    <tag k="ref:vcgi:esiteid" v="142556"/>
  </node>
  <node id="-562" visible="true" lat="44.77903648" lon="-72.48412304">
    <tag k="addr:housenumber" v="1674"/>
    <tag k="addr:street" v="Cheney Road"/>
    <tag k="addr:state" v="VT"/>
    <tag k="ref:vcgi:esiteid" v="142557"/>
  </node>
  <node id="-563" visible="true" lat="44.77830763" lon="-72.42443438">
    <tag k="addr:housenumber" v="216"/>
    <tag k="addr:street" v="Farm Road"/>
    <tag k="addr:state" v="VT"/>
    <tag k="ref:vcgi:esiteid" v="142560"/>
  </node>
  <node id="-564" visible="true" lat="44.80563091" lon="-72.47685415">
    <tag k="addr:housenumber" v="731"/>
    <tag k="addr:street" v="Mines Road"/>
    <tag k="addr:state" v="VT"/>
    <tag k="ref:vcgi:esiteid" v="142561"/>
  </node>
  <node id="-565" visible="true" lat="44.78129949" lon="-72.43063901">
    <tag k="addr:housenumber" v="1448"/>
    <tag k="addr:street" v="Irish Hill Road"/>
    <tag k="addr:state" v="VT"/>
    <tag k="ref:vcgi:esiteid" v="142562"/>
  </node>
  <node id="-566" visible="true" lat="44.79149507" lon="-72.40835012">
    <tag k="addr:housenumber" v="3003"/>
    <tag k="addr:street" v="Irish Hill Road"/>
    <tag k="addr:state" v="VT"/>
    <tag k="ref:vcgi:esiteid" v="142564"/>
  </node>
  <node id="-567" visible="true" lat="44.7832505" lon="-72.43153146">
    <tag k="addr:housenumber" v="1320"/>
    <tag k="addr:street" v="Irish Hill Road"/>
    <tag k="addr:state" v="VT"/>
    <tag k="ref:vcgi:esiteid" v="142565"/>
  </node>
  <node id="-568" visible="true" lat="44.79639235" lon="-72.4875862">
    <tag k="addr:housenumber" v="64"/>
    <tag k="addr:street" v="Sargent Drive"/>
    <tag k="addr:state" v="VT"/>
    <tag k="ref:vcgi:esiteid" v="142567"/>
  </node>
  <node id="-569" visible="true" lat="44.78082948" lon="-72.49194277">
    <tag k="addr:housenumber" v="1953"/>
    <tag k="addr:street" v="Cheney Road"/>
    <tag k="addr:state" v="VT"/>
    <tag k="ref:vcgi:esiteid" v="142568"/>
  </node>
  <node id="-570" visible="true" lat="44.78118509" lon="-72.48993433">
    <tag k="addr:housenumber" v="2020"/>
    <tag k="addr:street" v="Cheney Road"/>
    <tag k="addr:state" v="VT"/>
    <tag k="ref:vcgi:esiteid" v="142569"/>
  </node>
  <node id="-572" visible="true" lat="44.81573183" lon="-72.44668943">
    <tag k="addr:housenumber" v="204"/>
    <tag k="addr:street" v="Pope Road"/>
    <tag k="addr:state" v="VT"/>
    <tag k="ref:vcgi:esiteid" v="310106"/>
  </node>
  <node id="-573" visible="true" lat="44.81640879" lon="-72.44383286">
    <tag k="addr:housenumber" v="1438"/>
    <tag k="addr:street" v="Vermont Route 100"/>
    <tag k="addr:state" v="VT"/>
    <tag k="ref:vcgi:esiteid" v="310107"/>
  </node>
  <node id="-574" visible="true" lat="44.80961896" lon="-72.47126541">
    <tag k="addr:housenumber" v="365"/>
    <tag k="addr:street" v="Mines Road"/>
    <tag k="addr:state" v="VT"/>
    <tag k="ref:vcgi:esiteid" v="310108"/>
  </node>
  <node id="-575" visible="true" lat="44.81223445" lon="-72.47121599">
    <tag k="addr:housenumber" v="220"/>
    <tag k="addr:street" v="Mines Road"/>
    <tag k="addr:state" v="VT"/>
    <tag k="ref:vcgi:esiteid" v="310109"/>
  </node>
  <node id="-576" visible="true" lat="44.81472746" lon="-72.4711203">
    <tag k="addr:housenumber" v="1833"/>
    <tag k="addr:street" v="Hazen Notch Road"/>
    <tag k="addr:state" v="VT"/>
    <tag k="ref:vcgi:esiteid" v="310110"/>
  </node>
  <node id="-579" visible="true" lat="44.7982908" lon="-72.48500972">
    <tag k="addr:housenumber" v="1380"/>
    <tag k="addr:street" v="Mines Road"/>
    <tag k="addr:state" v="VT"/>
    <tag k="ref:vcgi:esiteid" v="310114"/>
  </node>
  <node id="-580" visible="true" lat="44.82673699" lon="-72.50932285">
    <tag k="addr:housenumber" v="174"/>
    <tag k="addr:street" v="Brookside Drive"/>
    <tag k="addr:state" v="VT"/>
    <tag k="ref:vcgi:esiteid" v="310115"/>
  </node>
  <node id="-581" visible="true" lat="44.7693872" lon="-72.45978661">
    <tag k="addr:housenumber" v="240"/>
    <tag k="addr:street" v="Mink Farm Road"/>
    <tag k="addr:state" v="VT"/>
    <tag k="ref:vcgi:esiteid" v="310117"/>
  </node>
  <node id="-583" visible="true" lat="44.75432259" lon="-72.45978454">
    <tag k="addr:housenumber" v="5904"/>
    <tag k="addr:street" v="Vermont Route 100"/>
    <tag k="addr:state" v="VT"/>
    <tag k="ref:vcgi:esiteid" v="310119"/>
  </node>
  <node id="-584" visible="true" lat="44.82826478" lon="-72.46780598">
    <tag k="addr:housenumber" v="857"/>
    <tag k="addr:street" v="Buck Hill Road"/>
    <tag k="addr:state" v="VT"/>
    <tag k="ref:vcgi:esiteid" v="310120"/>
  </node>
  <node id="-585" visible="true" lat="44.82015098" lon="-72.43661092">
    <tag k="addr:housenumber" v="180"/>
    <tag k="addr:street" v="Stephenson Road"/>
    <tag k="addr:state" v="VT"/>
    <tag k="ref:vcgi:esiteid" v="310121"/>
  </node>
  <node id="-586" visible="true" lat="44.81660063" lon="-72.37628977">
    <tag k="addr:housenumber" v="4101"/>
    <tag k="addr:street" v="Vermont Route 58 East"/>
    <tag k="addr:state" v="VT"/>
    <tag k="ref:vcgi:esiteid" v="326342"/>
  </node>
  <node id="-587" visible="true" lat="44.78056504" lon="-72.49629848">
    <tag k="addr:housenumber" v="134"/>
    <tag k="addr:street" v="Newton Road"/>
    <tag k="addr:state" v="VT"/>
    <tag k="ref:vcgi:esiteid" v="327020"/>
  </node>
  <node id="-588" visible="true" lat="44.78026067" lon="-72.50210032">
    <tag k="addr:housenumber" v="834"/>
    <tag k="addr:street" v="Lamphere Road"/>
    <tag k="addr:state" v="VT"/>
    <tag k="ref:vcgi:esiteid" v="327021"/>
  </node>
  <node id="-589" visible="true" lat="44.7765507" lon="-72.5150173">
    <tag k="addr:housenumber" v="3997"/>
    <tag k="addr:street" v="Mines Road"/>
    <tag k="addr:state" v="VT"/>
    <tag k="ref:vcgi:esiteid" v="327022"/>
  </node>
  <node id="-590" visible="true" lat="44.83389349" lon="-72.47964687">
    <tag k="addr:housenumber" v="796"/>
    <tag k="addr:street" v="Green Hill Road"/>
    <tag k="addr:state" v="VT"/>
    <tag k="ref:vcgi:esiteid" v="327023"/>
  </node>
  <node id="-591" visible="true" lat="44.83479063" lon="-72.39624093">
    <tag k="addr:housenumber" v="285"/>
    <tag k="addr:street" v="Tenakee Road"/>
    <tag k="addr:state" v="VT"/>
    <tag k="ref:vcgi:esiteid" v="327024"/>
  </node>
  <node id="-592" visible="true" lat="44.82835657" lon="-72.39031149">
    <tag k="addr:housenumber" v="734"/>
    <tag k="addr:street" v="Tenakee Road"/>
    <tag k="addr:state" v="VT"/>
    <tag k="ref:vcgi:esiteid" v="327025"/>
  </node>
  <node id="-593" visible="true" lat="44.83776086" lon="-72.38875094">
    <tag k="addr:housenumber" v="471"/>
    <tag k="addr:street" v="Robtoy Road"/>
    <tag k="addr:state" v="VT"/>
    <tag k="ref:vcgi:esiteid" v="327026"/>
  </node>
  <node id="-594" visible="true" lat="44.82776208" lon="-72.36255326">
    <tag k="addr:housenumber" v="2153"/>
    <tag k="addr:street" v="Robtoy Road"/>
    <tag k="addr:state" v="VT"/>
    <tag k="ref:vcgi:esiteid" v="327027"/>
  </node>
  <node id="-595" visible="true" lat="44.8245106" lon="-72.35658533">
    <tag k="addr:housenumber" v="299"/>
    <tag k="addr:street" v="Driscoll Drive"/>
    <tag k="addr:state" v="VT"/>
    <tag k="ref:vcgi:esiteid" v="327029"/>
  </node>
  <node id="-596" visible="true" lat="44.82646303" lon="-72.35469402">
    <tag k="addr:housenumber" v="457"/>
    <tag k="addr:street" v="Driscoll Drive"/>
    <tag k="addr:state" v="VT"/>
    <tag k="ref:vcgi:esiteid" v="327030"/>
  </node>
  <node id="-598" visible="true" lat="44.82202141" lon="-72.43123063">
    <tag k="addr:housenumber" v="605"/>
    <tag k="addr:street" v="Stephenson Road"/>
    <tag k="addr:state" v="VT"/>
    <tag k="ref:vcgi:esiteid" v="327032"/>
  </node>
  <node id="-599" visible="true" lat="44.80192228" lon="-72.48460855">
    <tag k="addr:housenumber" v="149"/>
    <tag k="addr:street" v="Warner Road"/>
    <tag k="addr:state" v="VT"/>
    <tag k="ref:vcgi:esiteid" v="327034"/>
  </node>
  <node id="-600" visible="true" lat="44.78959085" lon="-72.45676121">
    <tag k="addr:housenumber" v="826"/>
    <tag k="addr:street" v="Bousquet Road"/>
    <tag k="addr:state" v="VT"/>
    <tag k="ref:vcgi:esiteid" v="327035"/>
  </node>
  <node id="-601" visible="true" lat="44.76982985" lon="-72.47410181">
    <tag k="addr:housenumber" v="798"/>
    <tag k="addr:street" v="Cheney Road"/>
    <tag k="addr:state" v="VT"/>
    <tag k="ref:vcgi:esiteid" v="327036"/>
  </node>
  <node id="-602" visible="true" lat="44.78005452" lon="-72.42228711">
    <tag k="addr:housenumber" v="41"/>
    <tag k="addr:street" v="Farm Road"/>
    <tag k="addr:state" v="VT"/>
    <tag k="ref:vcgi:esiteid" v="327038"/>
  </node>
  <node id="-603" visible="true" lat="44.73615661" lon="-72.43252016">
    <tag k="addr:housenumber" v="1314"/>
    <tag k="addr:street" v="Eden Road"/>
    <tag k="addr:state" v="VT"/>
    <tag k="ref:vcgi:esiteid" v="327039"/>
  </node>
  <node id="-604" visible="true" lat="44.82683806" lon="-72.40636119">
    <tag k="addr:housenumber" v="2723"/>
    <tag k="addr:street" v="Carter Road"/>
    <tag k="addr:state" v="VT"/>
    <tag k="ref:vcgi:esiteid" v="327040"/>
  </node>
  <node id="-605" visible="true" lat="44.830177" lon="-72.46671262">
    <tag k="addr:housenumber" v="995"/>
    <tag k="addr:street" v="Buck Hill Road"/>
    <tag k="addr:state" v="VT"/>
    <tag k="ref:vcgi:esiteid" v="332614"/>
  </node>
  <node id="-607" visible="true" lat="44.81584394" lon="-72.44864544">
    <tag k="addr:housenumber" v="301"/>
    <tag k="addr:street" v="Pope Road"/>
    <tag k="addr:state" v="VT"/>
    <tag k="ref:vcgi:esiteid" v="332617"/>
  </node>
  <node id="-608" visible="true" lat="44.80422214" lon="-72.44943502">
    <tag k="addr:housenumber" v="2352"/>
    <tag k="addr:street" v="Vermont Route 100"/>
    <tag k="addr:state" v="VT"/>
    <tag k="ref:vcgi:esiteid" v="332618"/>
  </node>
  <node id="-609" visible="true" lat="44.80383323" lon="-72.47807471">
    <tag k="addr:housenumber" v="941"/>
    <tag k="addr:street" v="Mines Road"/>
    <tag k="addr:state" v="VT"/>
    <tag k="ref:vcgi:esiteid" v="332619"/>
  </node>
  <node id="-610" visible="true" lat="44.7908211" lon="-72.44769517">
    <tag k="addr:housenumber" v="3227"/>
    <tag k="addr:street" v="Vermont Route 100"/>
    <tag k="addr:state" v="VT"/>
    <tag k="ref:vcgi:esiteid" v="332620"/>
  </node>
  <node id="-611" visible="true" lat="44.78314145" lon="-72.43525337">
    <tag k="addr:housenumber" v="1138"/>
    <tag k="addr:street" v="Irish Hill Road"/>
    <tag k="addr:state" v="VT"/>
    <tag k="ref:vcgi:esiteid" v="332622"/>
  </node>
  <node id="-612" visible="true" lat="44.77694952" lon="-72.48512146">
    <tag k="addr:housenumber" v="1567"/>
    <tag k="addr:street" v="Cheney Road"/>
    <tag k="addr:state" v="VT"/>
    <tag k="ref:vcgi:esiteid" v="332623"/>
  </node>
  <node id="-613" visible="true" lat="44.81421851" lon="-72.44634216">
    <tag k="addr:housenumber" v="151"/>
    <tag k="addr:street" v="Pope Road"/>
    <tag k="addr:state" v="VT"/>
    <tag k="ref:vcgi:esiteid" v="339324"/>
  </node>
  <node id="-614" visible="true" lat="44.80408139" lon="-72.4571948">
    <tag k="addr:housenumber" v="610"/>
    <tag k="addr:street" v="Hazen Notch Road"/>
    <tag k="addr:state" v="VT"/>
    <tag k="ref:vcgi:esiteid" v="339325"/>
  </node>
  <node id="-615" visible="true" lat="44.81584819" lon="-72.39638684">
    <tag k="addr:housenumber" v="27"/>
    <tag k="addr:street" v="Mitchell Road"/>
    <tag k="addr:state" v="VT"/>
    <tag k="ref:vcgi:esiteid" v="339326"/>
  </node>
  <node id="-616" visible="true" lat="44.78703922" lon="-72.50441204">
    <tag k="addr:housenumber" v="344"/>
    <tag k="addr:street" v="Birchwood Drive"/>
    <tag k="addr:state" v="VT"/>
    <tag k="ref:vcgi:esiteid" v="339327"/>
  </node>
  <node id="-617" visible="true" lat="44.78437121" lon="-72.40492377">
    <tag k="addr:housenumber" v="239"/>
    <tag k="addr:street" v="Sugar Place Drive"/>
    <tag k="addr:state" v="VT"/>
    <tag k="ref:vcgi:esiteid" v="339328"/>
  </node>
  <node id="-618" visible="true" lat="44.78075232" lon="-72.40335715">
    <tag k="addr:housenumber" v="356"/>
    <tag k="addr:street" v="Sugar Place Drive"/>
    <tag k="addr:state" v="VT"/>
    <tag k="ref:vcgi:esiteid" v="339329"/>
  </node>
  <node id="-619" visible="true" lat="44.78437708" lon="-72.4010794">
    <tag k="addr:housenumber" v="431"/>
    <tag k="addr:street" v="Sugar Place Drive"/>
    <tag k="addr:state" v="VT"/>
    <tag k="ref:vcgi:esiteid" v="339330"/>
  </node>
  <node id="-620" visible="true" lat="44.77882217" lon="-72.49153212">
    <tag k="addr:housenumber" v="130"/>
    <tag k="addr:street" v="Newton Road"/>
    <tag k="addr:state" v="VT"/>
    <tag k="ref:vcgi:esiteid" v="339332"/>
  </node>
  <node id="-621" visible="true" lat="44.78147443" lon="-72.44644494">
    <tag k="addr:housenumber" v="3917"/>
    <tag k="addr:street" v="Vermont Route 100"/>
    <tag k="addr:state" v="VT"/>
    <tag k="ref:vcgi:esiteid" v="339335"/>
  </node>
  <node id="-622" visible="true" lat="44.79527432" lon="-72.50603045">
    <tag k="addr:housenumber" v="762"/>
    <tag k="addr:street" v="Potter Road"/>
    <tag k="addr:state" v="VT"/>
    <tag k="ref:vcgi:esiteid" v="339337"/>
  </node>
  <node id="-623" visible="true" lat="44.80154027" lon="-72.52677857">
    <tag k="addr:housenumber" v="1977"/>
    <tag k="addr:street" v="Potter Road"/>
    <tag k="addr:state" v="VT"/>
    <tag k="ref:vcgi:esiteid" v="339338"/>
  </node>
  <node id="-624" visible="true" lat="44.80291548" lon="-72.52559993">
    <tag k="addr:housenumber" v="2016"/>
    <tag k="addr:street" v="Potter Road"/>
    <tag k="addr:state" v="VT"/>
    <tag k="ref:vcgi:esiteid" v="339339"/>
  </node>
  <node id="-625" visible="true" lat="44.80321554" lon="-72.53071321">
    <tag k="addr:housenumber" v="2215"/>
    <tag k="addr:street" v="Potter Road"/>
    <tag k="addr:state" v="VT"/>
    <tag k="ref:vcgi:esiteid" v="339340"/>
  </node>
  <node id="-626" visible="true" lat="44.7830457" lon="-72.41554789">
    <tag k="addr:housenumber" v="2141"/>
    <tag k="addr:street" v="Irish Hill Road"/>
    <tag k="addr:state" v="VT"/>
    <tag k="ref:vcgi:esiteid" v="339341"/>
  </node>
  <node id="-627" visible="true" lat="44.79996266" lon="-72.45528515">
    <tag k="addr:housenumber" v="349"/>
    <tag k="addr:street" v="Hazen Notch Road"/>
    <tag k="addr:state" v="VT"/>
    <tag k="ref:vcgi:esiteid" v="339342"/>
  </node>
  <node id="-628" visible="true" lat="44.79375652" lon="-72.47741025">
    <tag k="addr:housenumber" v="1133"/>
    <tag k="addr:street" v="Valley Road"/>
    <tag k="addr:state" v="VT"/>
    <tag k="ref:vcgi:esiteid" v="341449"/>
  </node>
  <node id="-629" visible="true" lat="44.78598987" lon="-72.43177425">
    <tag k="addr:housenumber" v="1195"/>
    <tag k="addr:street" v="Irish Hill Road"/>
    <tag k="addr:state" v="VT"/>
    <tag k="ref:vcgi:esiteid" v="341450"/>
  </node>
  <node id="-630" visible="true" lat="44.7836646" lon="-72.4294702">
    <tag k="addr:housenumber" v="1401"/>
    <tag k="addr:street" v="Irish Hill Road"/>
    <tag k="addr:state" v="VT"/>
    <tag k="ref:vcgi:esiteid" v="341451"/>
  </node>
  <node id="-631" visible="true" lat="44.79055139" lon="-72.49133139">
    <tag k="addr:housenumber" v="2008"/>
    <tag k="addr:street" v="Mines Road"/>
    <tag k="addr:state" v="VT"/>
    <tag k="ref:vcgi:esiteid" v="341452"/>
  </node>
  <node id="-632" visible="true" lat="44.78419513" lon="-72.50613373">
    <tag k="addr:housenumber" v="2920"/>
    <tag k="addr:street" v="Mines Road"/>
    <tag k="addr:state" v="VT"/>
    <tag k="ref:vcgi:esiteid" v="341453"/>
  </node>
  <node id="-633" visible="true" lat="44.81902867" lon="-72.47483688">
    <tag k="addr:housenumber" v="155"/>
    <tag k="addr:street" v="Notta Road Drive"/>
    <tag k="addr:state" v="VT"/>
    <tag k="ref:vcgi:esiteid" v="341454"/>
  </node>
  <node id="-634" visible="true" lat="44.79661106" lon="-72.45099588">
    <tag k="addr:housenumber" v="340"/>
    <tag k="addr:street" v="Lower Village Road"/>
    <tag k="addr:state" v="VT"/>
    <tag k="ref:vcgi:esiteid" v="341456"/>
  </node>
  <node id="-635" visible="true" lat="44.79237471" lon="-72.45362503">
    <tag k="addr:housenumber" v="372"/>
    <tag k="addr:street" v="Bousquet Road"/>
    <tag k="addr:state" v="VT"/>
    <tag k="ref:vcgi:esiteid" v="343382"/>
  </node>
  <node id="-636" visible="true" lat="44.76500263" lon="-72.51993583">
    <tag k="addr:housenumber" v="46"/>
    <tag k="addr:street" v="Vag Road"/>
    <tag k="addr:state" v="VT"/>
    <tag k="ref:vcgi:esiteid" v="365027"/>
  </node>
  <node id="-637" visible="true" lat="44.768888" lon="-72.47454713">
    <tag k="addr:housenumber" v="796"/>
    <tag k="addr:street" v="Cheney Road"/>
    <tag k="addr:state" v="VT"/>
    <tag k="ref:vcgi:esiteid" v="448455"/>
  </node>
  <node id="-638" visible="true" lat="44.76968515" lon="-72.46962122">
    <tag k="addr:housenumber" v="168"/>
    <tag k="addr:street" v="Ostiguy Drive"/>
    <tag k="addr:state" v="VT"/>
    <tag k="ref:vcgi:esiteid" v="448456"/>
  </node>
  <node id="-639" visible="true" lat="44.77942243" lon="-72.45356383">
    <tag k="addr:housenumber" v="4146"/>
    <tag k="addr:street" v="Vermont Route 100"/>
    <tag k="addr:state" v="VT"/>
    <tag k="ref:vcgi:esiteid" v="448457"/>
  </node>
  <node id="-640" visible="true" lat="44.78511962" lon="-72.4110103">
    <tag k="addr:housenumber" v="2427"/>
    <tag k="addr:street" v="Irish Hill Road"/>
    <tag k="addr:state" v="VT"/>
    <tag k="ref:vcgi:esiteid" v="448458"/>
  </node>
  <node id="-641" visible="true" lat="44.78428421" lon="-72.40988407">
    <tag k="addr:housenumber" v="2452"/>
    <tag k="addr:street" v="Irish Hill Road"/>
    <tag k="addr:state" v="VT"/>
    <tag k="ref:vcgi:esiteid" v="448459"/>
  </node>
  <node id="-642" visible="true" lat="44.76888688" lon="-72.49478481">
    <tag k="addr:housenumber" v="883"/>
    <tag k="addr:street" v="Newton Road"/>
    <tag k="addr:state" v="VT"/>
    <tag k="ref:vcgi:esiteid" v="448460"/>
  </node>
  <node id="-643" visible="true" lat="44.77732699" lon="-72.46115788">
    <tag k="addr:housenumber" v="294"/>
    <tag k="addr:street" v="Rickaby Road"/>
    <tag k="addr:state" v="VT"/>
    <tag k="ref:vcgi:esiteid" v="448461"/>
  </node>
  <node id="-644" visible="true" lat="44.83007891" lon="-72.38880594">
    <tag k="addr:housenumber" v="739"/>
    <tag k="addr:street" v="Tenakee Road"/>
    <tag k="addr:state" v="VT"/>
    <tag k="ref:vcgi:esiteid" v="448463"/>
  </node>
  <node id="-645" visible="true" lat="44.79690743" lon="-72.44695818">
    <tag k="addr:housenumber" v="38"/>
    <tag k="addr:street" v="Irish Hill Road"/>
    <tag k="addr:state" v="VT"/>
    <tag k="ref:vcgi:esiteid" v="448464"/>
  </node>
  <node id="-646" visible="true" lat="44.76464129" lon="-72.52062138">
    <tag k="addr:housenumber" v="83"/>
    <tag k="addr:street" v="Vag Road"/>
    <tag k="addr:state" v="VT"/>
    <tag k="ref:vcgi:esiteid" v="448486"/>
  </node>
  <node id="-647" visible="true" lat="44.7937976" lon="-72.39866668">
    <tag k="addr:housenumber" v="3000"/>
    <tag k="addr:street" v="Irish Hill Road"/>
    <tag k="addr:state" v="VT"/>
    <tag k="ref:vcgi:esiteid" v="448487"/>
  </node>
  <node id="-648" visible="true" lat="44.7772657" lon="-72.51664082">
    <tag k="addr:housenumber" v="3947"/>
    <tag k="addr:street" v="Mines Road"/>
    <tag k="addr:state" v="VT"/>
    <tag k="ref:vcgi:esiteid" v="448496"/>
  </node>
  <node id="-649" visible="true" lat="44.80688013" lon="-72.47189691">
    <tag k="addr:housenumber" v="539"/>
    <tag k="addr:street" v="Mines Road"/>
    <tag k="addr:state" v="VT"/>
    <tag k="ref:vcgi:esiteid" v="448497"/>
  </node>
  <node id="-650" visible="true" lat="44.77510751" lon="-72.42377012">
    <tag k="addr:housenumber" v="432"/>
    <tag k="addr:street" v="Farm Road"/>
    <tag k="addr:state" v="VT"/>
    <tag k="ref:vcgi:esiteid" v="448498"/>
  </node>
  <node id="-651" visible="true" lat="44.82840965" lon="-72.40170955">
    <tag k="addr:housenumber" v="2890"/>
    <tag k="addr:street" v="Carter Road"/>
    <tag k="addr:state" v="VT"/>
    <tag k="ref:vcgi:esiteid" v="448499"/>
  </node>
  <node id="-652" visible="true" lat="44.73702534" lon="-72.41419392">
    <tag k="addr:housenumber" v="678"/>
    <tag k="addr:street" v="Eden Road"/>
    <tag k="addr:state" v="VT"/>
    <tag k="ref:vcgi:esiteid" v="448500"/>
  </node>
  <node id="-653" visible="true" lat="44.81277342" lon="-72.46223916">
    <tag k="addr:housenumber" v="1286"/>
    <tag k="addr:street" v="Hazen Notch Road"/>
    <tag k="addr:state" v="VT"/>
    <tag k="ref:vcgi:esiteid" v="448502"/>
  </node>
  <node id="-654" visible="true" lat="44.81034001" lon="-72.44145918">
    <tag k="addr:housenumber" v="1865"/>
    <tag k="addr:street" v="Vermont Route 100"/>
    <tag k="addr:state" v="VT"/>
    <tag k="ref:vcgi:esiteid" v="448503"/>
  </node>
  <node id="-656" visible="true" lat="44.76321492" lon="-72.43809259">
    <tag k="addr:housenumber" v="1300"/>
    <tag k="addr:street" v="Edward Drive"/>
    <tag k="addr:state" v="VT"/>
    <tag k="ref:vcgi:esiteid" v="448505"/>
  </node>
  <node id="-657" visible="true" lat="44.83377338" lon="-72.47383702">
    <tag k="addr:housenumber" v="195"/>
    <tag k="addr:street" v="Keep Out Drive"/>
    <tag k="addr:state" v="VT"/>
    <tag k="ref:vcgi:esiteid" v="451340"/>
  </node>
  <node id="-659" visible="true" lat="44.8280745" lon="-72.41631429">
    <tag k="addr:housenumber" v="526"/>
    <tag k="addr:street" v="Blodgett Road"/>
    <tag k="addr:state" v="VT"/>
    <tag k="ref:vcgi:esiteid" v="453977"/>
  </node>
  <node id="-662" visible="true" lat="44.82069188" lon="-72.4367604">
    <tag k="addr:housenumber" v="178"/>
    <tag k="addr:street" v="Stephenson Road"/>
    <tag k="addr:state" v="VT"/>
    <tag k="ref:vcgi:esiteid" v="453981"/>
  </node>
  <node id="-663" visible="true" lat="44.82098431" lon="-72.43234932">
    <tag k="addr:housenumber" v="384"/>
    <tag k="addr:street" v="Stephenson Road"/>
    <tag k="addr:state" v="VT"/>
    <tag k="ref:vcgi:esiteid" v="453982"/>
  </node>
  <node id="-664" visible="true" lat="44.79712489" lon="-72.51068217">
    <tag k="addr:housenumber" v="1090"/>
    <tag k="addr:street" v="Potter Road"/>
    <tag k="addr:state" v="VT"/>
    <tag k="ref:vcgi:esiteid" v="453983"/>
  </node>
  <node id="-665" visible="true" lat="44.78595217" lon="-72.44315623">
    <tag k="addr:housenumber" v="1000"/>
    <tag k="addr:street" v="Irish Hill Road"/>
    <tag k="addr:state" v="VT"/>
    <tag k="ref:vcgi:esiteid" v="453987"/>
  </node>
  <node id="-666" visible="true" lat="44.7977929" lon="-72.41122742">
    <tag k="addr:housenumber" v="3527"/>
    <tag k="addr:street" v="Irish Hill Road"/>
    <tag k="addr:state" v="VT"/>
    <tag k="ref:vcgi:esiteid" v="453989"/>
  </node>
  <node id="-667" visible="true" lat="44.78845027" lon="-72.407345">
    <tag k="addr:housenumber" v="2745"/>
    <tag k="addr:street" v="Irish Hill Road"/>
    <tag k="addr:state" v="VT"/>
    <tag k="ref:vcgi:esiteid" v="453990"/>
  </node>
  <node id="-668" visible="true" lat="44.77822253" lon="-72.51939106">
    <tag k="addr:housenumber" v="3866"/>
    <tag k="addr:street" v="Mines Road"/>
    <tag k="addr:state" v="VT"/>
    <tag k="ref:vcgi:esiteid" v="453991"/>
  </node>
  <node id="-669" visible="true" lat="44.76497161" lon="-72.46259498">
    <tag k="addr:housenumber" v="27"/>
    <tag k="addr:street" v="Souther Road"/>
    <tag k="addr:state" v="VT"/>
    <tag k="ref:vcgi:esiteid" v="453993"/>
  </node>
  <node id="-670" visible="true" lat="44.77667955" lon="-72.46352788">
    <tag k="addr:housenumber" v="421"/>
    <tag k="addr:street" v="Rickaby Road"/>
    <tag k="addr:state" v="VT"/>
    <tag k="ref:vcgi:esiteid" v="453994"/>
  </node>
  <node id="-671" visible="true" lat="44.76871046" lon="-72.45592266">
    <tag k="addr:housenumber" v="4897"/>
    <tag k="addr:street" v="Vermont Route 100"/>
    <tag k="addr:state" v="VT"/>
    <tag k="ref:vcgi:esiteid" v="453995"/>
  </node>
  <node id="-672" visible="true" lat="44.7722463" lon="-72.42170776">
    <tag k="addr:housenumber" v="600"/>
    <tag k="addr:street" v="Farm Road"/>
    <tag k="addr:state" v="VT"/>
    <tag k="ref:vcgi:esiteid" v="453996"/>
  </node>
  <node id="-673" visible="true" lat="44.78154401" lon="-72.41164331">
    <tag k="addr:housenumber" v="2142"/>
    <tag k="addr:street" v="Irish Hill Road"/>
    <tag k="addr:state" v="VT"/>
    <tag k="ref:vcgi:esiteid" v="453997"/>
  </node>
  <node id="-674" visible="true" lat="44.78132741" lon="-72.51760871">
    <tag k="addr:housenumber" v="3583"/>
    <tag k="addr:street" v="Mines Road"/>
    <tag k="addr:state" v="VT"/>
    <tag k="ref:vcgi:esiteid" v="454040"/>
  </node>
  <node id="-675" visible="true" lat="44.79818831" lon="-72.52648799">
    <tag k="addr:housenumber" v="1909"/>
    <tag k="addr:street" v="Potter Road"/>
    <tag k="addr:state" v="VT"/>
    <tag k="ref:vcgi:esiteid" v="454041"/>
  </node>
  <node id="-676" visible="true" lat="44.74787012" lon="-72.45786281">
    <tag k="addr:housenumber" v="6299"/>
    <tag k="addr:street" v="Vermont Route 100"/>
    <tag k="addr:state" v="VT"/>
    <tag k="ref:vcgi:esiteid" v="454088"/>
  </node>
  <node id="-677" visible="true" lat="44.75565965" lon="-72.40514934">
    <tag k="addr:housenumber" v="1014"/>
    <tag k="addr:street" v="Bayley Hazen Road"/>
    <tag k="addr:state" v="VT"/>
    <tag k="ref:vcgi:esiteid" v="454089"/>
  </node>
  <node id="-678" visible="true" lat="44.76329986" lon="-72.40295515">
    <tag k="addr:housenumber" v="1671"/>
    <tag k="addr:street" v="Bayley Hazen Road"/>
    <tag k="addr:state" v="VT"/>
    <tag k="ref:vcgi:esiteid" v="454090"/>
  </node>
  <node id="-679" visible="true" lat="44.80024265" lon="-72.44610885">
    <tag k="addr:housenumber" v="101"/>
    <tag k="addr:street" v="Vermont Route 58 East"/>
    <tag k="addr:state" v="VT"/>
    <tag k="ref:vcgi:esiteid" v="454091"/>
  </node>
  <node id="-680" visible="true" lat="44.80036488" lon="-72.44432163">
    <tag k="addr:housenumber" v="159"/>
    <tag k="addr:street" v="Vermont Route 58 East"/>
    <tag k="addr:state" v="VT"/>
    <tag k="ref:vcgi:esiteid" v="454092"/>
  </node>
  <node id="-681" visible="true" lat="44.79836315" lon="-72.40205608">
    <tag k="addr:housenumber" v="3456"/>
    <tag k="addr:street" v="Irish Hill Road"/>
    <tag k="addr:state" v="VT"/>
    <tag k="ref:vcgi:esiteid" v="454093"/>
  </node>
  <node id="-703" visible="true" lat="44.83409055" lon="-72.50909703">
    <tag k="addr:housenumber" v="21"/>
    <tag k="addr:street" v="Route 58"/>
    <tag k="addr:state" v="VT"/>
    <tag k="ref:vcgi:esiteid" v="455367"/>
  </node>
  <node id="-704" visible="true" lat="44.77234497" lon="-72.46912913">
    <tag k="addr:housenumber" v="305"/>
    <tag k="addr:street" v="Ostiguy Drive"/>
    <tag k="addr:state" v="VT"/>
    <tag k="ref:vcgi:esiteid" v="610629"/>
  </node>
  <node id="-705" visible="true" lat="44.83661423" lon="-72.34682956">
    <tag k="addr:housenumber" v="596"/>
    <tag k="addr:street" v="McCoy Road"/>
    <tag k="addr:state" v="VT"/>
    <tag k="ref:vcgi:esiteid" v="611032"/>
  </node>
  <node id="-706" visible="true" lat="44.83515227" lon="-72.34858182">
    <tag k="addr:housenumber" v="631"/>
    <tag k="addr:street" v="McCoy Road"/>
    <tag k="addr:state" v="VT"/>
    <tag k="ref:vcgi:esiteid" v="611321"/>
  </node>
  <node id="-707" visible="true" lat="44.83267622" lon="-72.34869705">
    <tag k="addr:housenumber" v="349"/>
    <tag k="addr:street" v="McCoy Road"/>
    <tag k="addr:state" v="VT"/>
    <tag k="ref:vcgi:esiteid" v="611601"/>
  </node>
  <node id="-708" visible="true" lat="44.76745459" lon="-72.46388766">
    <tag k="addr:housenumber" v="132"/>
    <tag k="addr:street" v="Cheney Road"/>
    <tag k="addr:state" v="VT"/>
    <tag k="ref:vcgi:esiteid" v="611853"/>
  </node>
  <node id="-709" visible="true" lat="44.77585517" lon="-72.4240155">
    <tag k="addr:housenumber" v="390"/>
    <tag k="addr:street" v="Farm Road"/>
    <tag k="addr:state" v="VT"/>
    <tag k="ref:vcgi:esiteid" v="611854"/>
  </node>
  <node id="-710" visible="true" lat="44.77759476" lon="-72.42443443">
    <tag k="addr:housenumber" v="274"/>
    <tag k="addr:street" v="Farm Road"/>
    <tag k="addr:state" v="VT"/>
    <tag k="ref:vcgi:esiteid" v="611855"/>
  </node>
  <node id="-711" visible="true" lat="44.77961163" lon="-72.42838322">
    <tag k="addr:housenumber" v="158"/>
    <tag k="addr:street" v="Farm Road"/>
    <tag k="addr:state" v="VT"/>
    <tag k="ref:vcgi:esiteid" v="611856"/>
  </node>
  <node id="-712" visible="true" lat="44.77677514" lon="-72.42426622">
    <tag k="addr:housenumber" v="332"/>
    <tag k="addr:street" v="Farm Road"/>
    <tag k="addr:state" v="VT"/>
    <tag k="ref:vcgi:esiteid" v="611857"/>
  </node>
  <node id="-713" visible="true" lat="44.77285811" lon="-72.42313699">
    <tag k="addr:housenumber" v="598"/>
    <tag k="addr:street" v="Farm Road"/>
    <tag k="addr:state" v="VT"/>
    <tag k="ref:vcgi:esiteid" v="611858"/>
  </node>
  <node id="-716" visible="true" lat="44.75418411" lon="-72.39742722">
    <tag k="addr:housenumber" v="1608"/>
    <tag k="addr:street" v="Goddard Lot Road"/>
    <tag k="addr:state" v="VT"/>
    <tag k="ref:vcgi:esiteid" v="612462"/>
  </node>
  <node id="-719" visible="true" lat="44.83277249" lon="-72.39163629">
    <tag k="addr:housenumber" v="507"/>
    <tag k="addr:street" v="Tenakee Road"/>
    <tag k="addr:state" v="VT"/>
    <tag k="ref:vcgi:esiteid" v="618172"/>
  </node>
  <node id="-720" visible="true" lat="44.765906" lon="-72.49528941">
    <tag k="addr:housenumber" v="1047"/>
    <tag k="addr:street" v="Newton Road"/>
    <tag k="addr:state" v="VT"/>
    <tag k="ref:vcgi:esiteid" v="618173"/>
  </node>
  <node id="-721" visible="true" lat="44.75880084" lon="-72.48595618">
    <tag k="addr:housenumber" v="980"/>
    <tag k="addr:street" v="Page Road"/>
    <tag k="addr:state" v="VT"/>
    <tag k="ref:vcgi:esiteid" v="618174"/>
  </node>
  <node id="-722" visible="true" lat="44.75615053" lon="-72.48403521">
    <tag k="addr:housenumber" v="1265"/>
    <tag k="addr:street" v="Page Road"/>
    <tag k="addr:state" v="VT"/>
    <tag k="ref:vcgi:esiteid" v="618175"/>
  </node>
  <node id="-723" visible="true" lat="44.79380226" lon="-72.45161142">
    <tag k="addr:housenumber" v="237"/>
    <tag k="addr:street" v="Bousquet Road"/>
    <tag k="addr:state" v="VT"/>
    <tag k="ref:vcgi:esiteid" v="655408"/>
  </node>
  <node id="-724" visible="true" lat="44.75707956" lon="-72.45653935">
    <tag k="addr:housenumber" v="5698"/>
    <tag k="addr:street" v="Vermont Route 100"/>
    <tag k="addr:state" v="VT"/>
    <tag k="ref:vcgi:esiteid" v="655693"/>
  </node>
  <node id="-725" visible="true" lat="44.8217911" lon="-72.41603893">
    <tag k="addr:housenumber" v="2022"/>
    <tag k="addr:street" v="Carter Road"/>
    <tag k="addr:state" v="VT"/>
    <tag k="ref:vcgi:esiteid" v="655694"/>
  </node>
  <node id="-726" visible="true" lat="44.82706642" lon="-72.46200621">
    <tag k="addr:housenumber" v="223"/>
    <tag k="addr:street" v="Pion Road"/>
    <tag k="addr:state" v="VT"/>
    <tag k="ref:vcgi:esiteid" v="656210"/>
  </node>
  <node id="-727" visible="true" lat="44.82549275" lon="-72.35959752">
    <tag k="addr:housenumber" v="2243"/>
    <tag k="addr:street" v="Robtoy Road"/>
    <tag k="addr:state" v="VT"/>
    <tag k="ref:vcgi:esiteid" v="656341"/>
  </node>
  <node id="-728" visible="true" lat="44.81631796" lon="-72.37456685">
    <tag k="addr:housenumber" v="4255"/>
    <tag k="addr:street" v="Vermont Route 58 East"/>
    <tag k="addr:state" v="VT"/>
    <tag k="ref:vcgi:esiteid" v="700031"/>
  </node>
  <node id="-729" visible="true" lat="44.7783831" lon="-72.51503966">
    <tag k="addr:housenumber" v="3795"/>
    <tag k="addr:street" v="Mines Road"/>
    <tag k="addr:state" v="VT"/>
    <tag k="ref:vcgi:esiteid" v="700057"/>
  </node>
  <node id="-730" visible="true" lat="44.80463262" lon="-72.53392538">
    <tag k="addr:housenumber" v="2388"/>
    <tag k="addr:street" v="Potter Road"/>
    <tag k="addr:state" v="VT"/>
    <tag k="ref:vcgi:esiteid" v="752422"/>
  </node>
  <node id="-731" visible="true" lat="44.80058495" lon="-72.44897348">
    <tag k="addr:housenumber" v="2530"/>
    <tag k="addr:street" v="Vermont Route 100"/>
    <tag k="addr:state" v="VT"/>
    <tag k="ref:vcgi:esiteid" v="752962"/>
  </node>
  <node id="-732" visible="true" lat="44.75941682" lon="-72.48154759">
    <tag k="addr:housenumber" v="663"/>
    <tag k="addr:street" v="Page Road"/>
    <tag k="addr:state" v="VT"/>
    <tag k="ref:vcgi:esiteid" v="754831"/>
  </node>
  <node id="-733" visible="true" lat="44.82385885" lon="-72.50742894">
    <tag k="addr:housenumber" v="408"/>
    <tag k="addr:street" v="Brookside Drive"/>
    <tag k="addr:state" v="VT"/>
    <tag k="ref:vcgi:esiteid" v="754972"/>
  </node>
  <node id="-734" visible="true" lat="44.76040957" lon="-72.48385652">
    <tag k="addr:housenumber" v="876"/>
    <tag k="addr:street" v="Page Road"/>
    <tag k="addr:state" v="VT"/>
    <tag k="ref:vcgi:esiteid" v="754973"/>
  </node>
  <node id="-736" visible="true" lat="44.76074762" lon="-72.47666631">
    <tag k="addr:housenumber" v="36"/>
    <tag k="addr:street" v="Devils Hill Drive"/>
    <tag k="addr:state" v="VT"/>
    <tag k="ref:vcgi:esiteid" v="754975"/>
  </node>
  <node id="-737" visible="true" lat="44.79938291" lon="-72.44913937">
    <tag k="addr:housenumber" v="33"/>
    <tag k="addr:street" v="Hazen Notch Road"/>
    <tag k="addr:state" v="VT"/>
    <tag k="ref:vcgi:esiteid" v="755353"/>
  </node>
  <node id="-738" visible="true" lat="44.79925267" lon="-72.45076473">
    <tag k="addr:housenumber" v="153"/>
    <tag k="addr:street" v="Hazen Notch Road"/>
    <tag k="addr:state" v="VT"/>
    <tag k="ref:vcgi:esiteid" v="755354"/>
  </node>
  <node id="-739" visible="true" lat="44.82635827" lon="-72.49865766">
    <tag k="addr:housenumber" v="9"/>
    <tag k="addr:street" v="Wilderness Drive"/>
    <tag k="addr:state" v="VT"/>
    <tag k="ref:vcgi:esiteid" v="756277"/>
  </node>
  <node id="-740" visible="true" lat="44.82803235" lon="-72.48057729">
    <tag k="addr:housenumber" v="390"/>
    <tag k="addr:street" v="Green Hill Road"/>
    <tag k="addr:state" v="VT"/>
    <tag k="ref:vcgi:esiteid" v="756840"/>
  </node>
  <node id="-741" visible="true" lat="44.79550756" lon="-72.44650965">
    <tag k="addr:housenumber" v="2855"/>
    <tag k="addr:street" v="Vermont Route 100"/>
    <tag k="addr:state" v="VT"/>
    <tag k="ref:vcgi:esiteid" v="757358"/>
  </node>
  <node id="-742" visible="true" lat="44.7557595" lon="-72.45221992">
    <tag k="addr:housenumber" v="325"/>
    <tag k="addr:street" v="Stewart Hill Road"/>
    <tag k="addr:state" v="VT"/>
    <tag k="ref:vcgi:esiteid" v="757369"/>
  </node>
  <node id="-743" visible="true" lat="44.75769506" lon="-72.45468286">
    <tag k="addr:housenumber" v="21"/>
    <tag k="addr:street" v="Stewart Hill Road"/>
    <tag k="addr:state" v="VT"/>
    <tag k="ref:vcgi:esiteid" v="757370"/>
  </node>
  <node id="-744" visible="true" lat="44.83438891" lon="-72.46520817">
    <tag k="addr:housenumber" v="1215"/>
    <tag k="addr:street" v="Buck Hill Road"/>
    <tag k="addr:state" v="VT"/>
    <tag k="ref:vcgi:esiteid" v="758360"/>
  </node>
  <node id="-745" visible="true" lat="44.83128569" lon="-72.39134993">
    <tag k="addr:housenumber" v="600"/>
    <tag k="addr:street" v="Tenakee Road"/>
    <tag k="addr:state" v="VT"/>
    <tag k="ref:vcgi:esiteid" v="758361"/>
  </node>
  <node id="-746" visible="true" lat="44.79792596" lon="-72.51717742">
    <tag k="addr:housenumber" v="1331"/>
    <tag k="addr:street" v="Potter Road"/>
    <tag k="addr:state" v="VT"/>
    <tag k="ref:vcgi:esiteid" v="758362"/>
  </node>
  <node id="-747" visible="true" lat="44.84010525" lon="-72.40155163">
    <tag k="addr:housenumber" v="3657"/>
    <tag k="addr:street" v="Carter Road"/>
    <tag k="addr:state" v="VT"/>
    <tag k="ref:vcgi:esiteid" v="758729"/>
  </node>
  <node id="-748" visible="true" lat="44.77437455" lon="-72.45791226">
    <tag k="addr:housenumber" v="45"/>
    <tag k="addr:street" v="Rickaby Road"/>
    <tag k="addr:state" v="VT"/>
    <tag k="ref:vcgi:esiteid" v="759054"/>
  </node>
  <node id="-749" visible="true" lat="44.76478419" lon="-72.45548844">
    <tag k="addr:housenumber" v="65"/>
    <tag k="addr:street" v="Meek Road"/>
    <tag k="addr:state" v="VT"/>
    <tag k="ref:vcgi:esiteid" v="759274"/>
  </node>
  <node id="-750" visible="true" lat="44.82323362" lon="-72.36826732">
    <tag k="addr:housenumber" v="4641"/>
    <tag k="addr:street" v="Vermont Route 58 East"/>
    <tag k="addr:state" v="VT"/>
    <tag k="ref:vcgi:esiteid" v="759339"/>
  </node>
  <node id="-751" visible="true" lat="44.82351732" lon="-72.36767792">
    <tag k="addr:housenumber" v="2320"/>
    <tag k="addr:street" v="Robtoy Road"/>
    <tag k="addr:state" v="VT"/>
    <tag k="ref:vcgi:esiteid" v="759341"/>
  </node>
  <node id="-752" visible="true" lat="44.76663384" lon="-72.45287651">
    <tag k="addr:housenumber" v="275"/>
    <tag k="addr:street" v="Meek Road"/>
    <tag k="addr:state" v="VT"/>
    <tag k="ref:vcgi:esiteid" v="759365"/>
  </node>
  <node id="-753" visible="true" lat="44.80827552" lon="-72.37609498">
    <tag k="addr:housenumber" v="3968"/>
    <tag k="addr:street" v="Vermont Route 58 East"/>
    <tag k="addr:state" v="VT"/>
    <tag k="ref:vcgi:esiteid" v="759518"/>
  </node>
  <node id="-754" visible="true" lat="44.80018133" lon="-72.44269128">
    <tag k="addr:housenumber" v="250"/>
    <tag k="addr:street" v="Vermont Route 58 East"/>
    <tag k="addr:state" v="VT"/>
    <tag k="ref:vcgi:esiteid" v="759586"/>
  </node>
  <node id="-755" visible="true" lat="44.76967036" lon="-72.45780048">
    <tag k="addr:housenumber" v="4776"/>
    <tag k="addr:street" v="Vermont Route 100"/>
    <tag k="addr:state" v="VT"/>
    <tag k="ref:vcgi:esiteid" v="759802"/>
  </node>
  <node id="-756" visible="true" lat="44.7876074" lon="-72.46212175">
    <tag k="addr:housenumber" v="832"/>
    <tag k="addr:street" v="Bousquet Road"/>
    <tag k="addr:state" v="VT"/>
    <tag k="ref:vcgi:esiteid" v="760371"/>
  </node>
  <node id="-757" visible="true" lat="44.75784674" lon="-72.48406615">
    <tag k="addr:housenumber" v="1060"/>
    <tag k="addr:street" v="Page Road"/>
    <tag k="addr:state" v="VT"/>
    <tag k="ref:vcgi:esiteid" v="760658"/>
  </node>
  <node id="-758" visible="true" lat="44.82924372" lon="-72.50380171">
    <tag k="addr:housenumber" v="3789"/>
    <tag k="addr:street" v="Hazen Notch Road"/>
    <tag k="addr:state" v="VT"/>
    <tag k="ref:vcgi:esiteid" v="760703"/>
  </node>
  <node id="-759" visible="true" lat="44.80061943" lon="-72.48346386">
    <tag k="addr:housenumber" v="1170"/>
    <tag k="addr:street" v="Mines Road"/>
    <tag k="addr:state" v="VT"/>
    <tag k="ref:vcgi:esiteid" v="760897"/>
  </node>
  <node id="-760" visible="true" lat="44.76343924" lon="-72.43776151">
    <tag k="addr:housenumber" v="1302"/>
    <tag k="addr:street" v="Edward Drive"/>
    <tag k="addr:state" v="VT"/>
    <tag k="ref:vcgi:esiteid" v="761036"/>
  </node>
  <node id="-761" visible="true" lat="44.78711224" lon="-72.51835686">
    <tag k="addr:housenumber" v="350"/>
    <tag k="addr:street" v="Tillotson Road"/>
    <tag k="addr:state" v="VT"/>
    <tag k="ref:vcgi:esiteid" v="761297"/>
  </node>
  <node id="-762" visible="true" lat="44.7635189" lon="-72.45620355">
    <tag k="addr:housenumber" v="41"/>
    <tag k="addr:street" v="Stewart Road"/>
    <tag k="addr:state" v="VT"/>
    <tag k="ref:vcgi:esiteid" v="761341"/>
  </node>
  <node id="-763" visible="true" lat="44.76314385" lon="-72.45607851">
    <tag k="addr:housenumber" v="59"/>
    <tag k="addr:street" v="Stewart Road"/>
    <tag k="addr:state" v="VT"/>
    <tag k="ref:vcgi:esiteid" v="761342"/>
  </node>
  <node id="-764" visible="true" lat="44.75804989" lon="-72.47618882">
    <tag k="addr:housenumber" v="486"/>
    <tag k="addr:street" v="Devils Hill Drive"/>
    <tag k="addr:state" v="VT"/>
    <tag k="ref:vcgi:esiteid" v="761601"/>
  </node>
  <node id="-765" visible="true" lat="44.73768288" lon="-72.41693055">
    <tag k="addr:housenumber" v="800"/>
    <tag k="addr:street" v="Eden Road"/>
    <tag k="addr:state" v="VT"/>
    <tag k="ref:vcgi:esiteid" v="762123"/>
  </node>
  <node id="-766" visible="true" lat="44.73488838" lon="-72.41884319">
    <tag k="addr:housenumber" v="999"/>
    <tag k="addr:street" v="Eden Road"/>
    <tag k="addr:state" v="VT"/>
    <tag k="ref:vcgi:esiteid" v="762124"/>
  </node>
  <node id="-767" visible="true" lat="44.72989405" lon="-72.42669993">
    <tag k="addr:housenumber" v="1508"/>
    <tag k="addr:street" v="Eden Road"/>
    <tag k="addr:state" v="VT"/>
    <tag k="ref:vcgi:esiteid" v="762125"/>
  </node>
  <node id="-768" visible="true" lat="44.79811303" lon="-72.45384989">
    <tag k="addr:housenumber" v="20"/>
    <tag k="addr:street" v="Bousquet Road"/>
    <tag k="addr:state" v="VT"/>
    <tag k="ref:vcgi:esiteid" v="763038"/>
  </node>
  <node id="-769" visible="true" lat="44.82523007" lon="-72.40677416">
    <tag k="addr:housenumber" v="2585"/>
    <tag k="addr:street" v="Carter Road"/>
    <tag k="addr:state" v="VT"/>
    <tag k="ref:vcgi:esiteid" v="763773"/>
  </node>
  <node id="-770" visible="true" lat="44.75586095" lon="-72.48180159">
    <tag k="addr:housenumber" v="725"/>
    <tag k="addr:street" v="Page Road"/>
    <tag k="addr:state" v="VT"/>
    <tag k="ref:vcgi:esiteid" v="763774"/>
  </node>
  <node id="-771" visible="true" lat="44.80177176" lon="-72.53348315">
    <tag k="addr:housenumber" v="2410"/>
    <tag k="addr:street" v="Potter Road"/>
    <tag k="addr:state" v="VT"/>
    <tag k="ref:vcgi:esiteid" v="763775"/>
  </node>
  <node id="-772" visible="true" lat="44.75861965" lon="-72.48651052">
    <tag k="addr:housenumber" v="982"/>
    <tag k="addr:street" v="Page Road"/>
    <tag k="addr:state" v="VT"/>
    <tag k="ref:vcgi:esiteid" v="763776"/>
  </node>
  <node id="-773" visible="true" lat="44.75902441" lon="-72.48648369">
    <tag k="addr:housenumber" v="978"/>
    <tag k="addr:street" v="Page Road"/>
    <tag k="addr:state" v="VT"/>
    <tag k="ref:vcgi:esiteid" v="763777"/>
  </node>
  <node id="-774" visible="true" lat="44.81517024" lon="-72.47854793">
    <tag k="addr:housenumber" v="1955"/>
    <tag k="addr:street" v="Hazen Notch Road"/>
    <tag k="addr:state" v="VT"/>
    <tag k="ref:vcgi:esiteid" v="764124"/>
  </node>
  <node id="-775" visible="true" lat="44.83997974" lon="-72.3936401">
    <tag k="addr:housenumber" v="165"/>
    <tag k="addr:street" v="Robtoy Road"/>
    <tag k="addr:state" v="VT"/>
    <tag k="ref:vcgi:esiteid" v="764378"/>
  </node>
  <node id="-776" visible="true" lat="44.8351445" lon="-72.38081978">
    <tag k="addr:housenumber" v="850"/>
    <tag k="addr:street" v="Robtoy Road"/>
    <tag k="addr:state" v="VT"/>
    <tag k="ref:vcgi:esiteid" v="764380"/>
  </node>
  <node id="-777" visible="true" lat="44.83667984" lon="-72.39918887">
    <tag k="addr:housenumber" v="3510"/>
    <tag k="addr:street" v="Carter Road"/>
    <tag k="addr:state" v="VT"/>
    <tag k="ref:vcgi:esiteid" v="764680"/>
  </node>
  <node id="-778" visible="true" lat="44.75512069" lon="-72.45490461">
    <tag k="addr:housenumber" v="5825"/>
    <tag k="addr:street" v="Vermont Route 100"/>
    <tag k="addr:state" v="VT"/>
    <tag k="ref:vcgi:esiteid" v="764681"/>
  </node>
  <node id="-779" visible="true" lat="44.80592532" lon="-72.40928395">
    <tag k="addr:housenumber" v="156"/>
    <tag k="addr:street" v="McAllister Road"/>
    <tag k="addr:state" v="VT"/>
    <tag k="ref:vcgi:esiteid" v="764682"/>
  </node>
  <node id="-780" visible="true" lat="44.78338068" lon="-72.47804512">
    <tag k="addr:housenumber" v="529"/>
    <tag k="addr:street" v="Guyette Road"/>
    <tag k="addr:state" v="VT"/>
    <tag k="ref:vcgi:esiteid" v="764995"/>
  </node>
  <node id="-781" visible="true" lat="44.82548396" lon="-72.39697666">
    <tag k="addr:housenumber" v="2880"/>
    <tag k="addr:street" v="Carter Road"/>
    <tag k="addr:state" v="VT"/>
    <tag k="ref:vcgi:esiteid" v="765291"/>
  </node>
  <node id="-782" visible="true" lat="44.76300376" lon="-72.45410769">
    <tag k="addr:housenumber" v="85"/>
    <tag k="addr:street" v="Stewart Road"/>
    <tag k="addr:state" v="VT"/>
    <tag k="ref:vcgi:esiteid" v="765536"/>
  </node>
  <node id="-783" visible="true" lat="44.7871788" lon="-72.44933149">
    <tag k="addr:housenumber" v="3490"/>
    <tag k="addr:street" v="Vermont Route 100"/>
    <tag k="addr:state" v="VT"/>
    <tag k="ref:vcgi:esiteid" v="765658"/>
  </node>
  <node id="-784" visible="true" lat="44.81648038" lon="-72.37328132">
    <tag k="addr:housenumber" v="4281"/>
    <tag k="addr:street" v="Vermont Route 58 East"/>
    <tag k="addr:state" v="VT"/>
    <tag k="ref:vcgi:esiteid" v="766302"/>
  </node>
  <node id="-785" visible="true" lat="44.77353945" lon="-72.45617193">
    <tag k="addr:housenumber" v="4571"/>
    <tag k="addr:street" v="Vermont Route 100"/>
    <tag k="addr:state" v="VT"/>
    <tag k="ref:vcgi:esiteid" v="766556"/>
  </node>
  <node id="-786" visible="true" lat="44.8129797" lon="-72.40013019">
    <tag k="addr:housenumber" v="2875"/>
    <tag k="addr:street" v="Vermont Route 58 East"/>
    <tag k="addr:state" v="VT"/>
    <tag k="ref:vcgi:esiteid" v="767078"/>
  </node>
  <node id="-790" visible="true" lat="44.7726298" lon="-72.45547848">
    <tag k="addr:housenumber" v="62"/>
    <tag k="addr:street" v="Norris Mountain View Drive"/>
    <tag k="addr:state" v="VT"/>
    <tag k="ref:vcgi:esiteid" v="767103"/>
  </node>
  <node id="-791" visible="true" lat="44.76557" lon="-72.45631494">
    <tag k="addr:housenumber" v="5095"/>
    <tag k="addr:street" v="Vermont Route 100"/>
    <tag k="addr:state" v="VT"/>
    <tag k="ref:vcgi:esiteid" v="767104"/>
  </node>
  <node id="-792" visible="true" lat="44.78352807" lon="-72.48957122">
    <tag k="addr:housenumber" v="2195"/>
    <tag k="addr:street" v="Cheney Road"/>
    <tag k="addr:state" v="VT"/>
    <tag k="ref:vcgi:esiteid" v="767429"/>
  </node>
  <node id="-793" visible="true" lat="44.8099405" lon="-72.44629311">
    <tag k="addr:housenumber" v="1900"/>
    <tag k="addr:street" v="Vermont Route 100"/>
    <tag k="addr:state" v="VT"/>
    <tag k="ref:vcgi:esiteid" v="768437"/>
  </node>
  <node id="-794" visible="true" lat="44.78049551" lon="-72.48982127">
    <tag k="addr:housenumber" v="1994"/>
    <tag k="addr:street" v="Cheney Road"/>
    <tag k="addr:state" v="VT"/>
    <tag k="ref:vcgi:esiteid" v="769813"/>
  </node>
  <node id="-795" visible="true" lat="44.75767" lon="-72.417">
    <tag k="addr:housenumber" v="2681"/>
    <tag k="addr:street" v="Edward Drive"/>
    <tag k="addr:state" v="VT"/>
    <tag k="ref:vcgi:esiteid" v="1050741"/>
  </node>
  <node id="-796" visible="true" lat="44.73833" lon="-72.43917">
    <tag k="addr:housenumber" v="2678"/>
    <tag k="addr:street" v="Edward Drive"/>
    <tag k="addr:state" v="VT"/>
    <tag k="ref:vcgi:esiteid" v="1050742"/>
  </node>
  <node id="-797" visible="true" lat="44.76083" lon="-72.41367">
    <tag k="addr:housenumber" v="2655"/>
    <tag k="addr:street" v="Edward Drive"/>
    <tag k="addr:state" v="VT"/>
    <tag k="ref:vcgi:esiteid" v="1050743"/>
  </node>
  <node id="-798" visible="true" lat="44.76352185" lon="-72.43838953">
    <tag k="addr:housenumber" v="1290"/>
    <tag k="addr:street" v="Edward Drive"/>
    <tag k="addr:state" v="VT"/>
    <tag k="ref:vcgi:esiteid" v="1050744"/>
  </node>
  <node id="-799" visible="true" lat="44.77049682" lon="-72.45681742">
    <tag k="addr:housenumber" v="26"/>
    <tag k="addr:street" v="Edward Drive"/>
    <tag k="addr:state" v="VT"/>
    <tag k="ref:vcgi:esiteid" v="1050745"/>
  </node>
</osm>
