<?xml version="1.0" encoding="UTF-8"?>
<osm version="0.6" generator="JOSM">
  <node id="-101" visible="true" lat="44.83904241" lon="-72.4024626">
    <tag k="addr:city" v="Lowell"/>
    <tag k="addr:housenumber" v="164"/>
    <tag k="addr:street" v="Mountain Drive"/>
    <tag k="addr:state" v="VT"/>
    <tag k="ref:vcgi:esiteid" v="142063"/>
  </node>
  <node id="-102" visible="true" lat="44.83796358" lon="-72.40323538">
    <tag k="addr:city" v="Lowell"/>
    <tag k="addr:housenumber" v="87"/>
    <tag k="addr:street" v="Mountain Drive"/>
    <tag k="addr:state" v="VT"/>
    <tag k="ref:vcgi:esiteid" v="142065"/>
  </node>
  <node id="-103" visible="true" lat="44.83609103" lon="-72.40193612">
    <tag k="addr:city" v="Lowell"/>
    <tag k="addr:housenumber" v="3391"/>
    <tag k="addr:street" v="Carter Road"/>
    <tag k="addr:state" v="VT"/>
    <tag k="ref:vcgi:esiteid" v="142066"/>
  </node>
  <node id="-104" visible="true" lat="44.83553866" lon="-72.40110979">
    <tag k="addr:city" v="Lowell"/>
    <tag k="addr:housenumber" v="3390"/>
    <tag k="addr:street" v="Carter Road"/>
    <tag k="addr:state" v="VT"/>
    <tag k="ref:vcgi:esiteid" v="142067"/>
  </node>
  <node id="-109" visible="true" lat="44.83292838" lon="-72.47886734">
    <tag k="addr:city" v="Lowell"/>
    <tag k="addr:housenumber" v="668"/>
    <tag k="addr:street" v="Green Hill Road"/>
    <tag k="addr:state" v="VT"/>
    <tag k="ref:vcgi:esiteid" v="142073"/>
  </node>
  <node id="-114" visible="true" lat="44.83145703" lon="-72.47947308">
    <tag k="addr:city" v="Lowell"/>
    <tag k="addr:housenumber" v="604"/>
    <tag k="addr:street" v="Green Hill Road"/>
    <tag k="addr:state" v="VT"/>
    <tag k="ref:vcgi:esiteid" v="142080"/>
  </node>
  <node id="-119" visible="true" lat="44.83069196" lon="-72.4792426">
    <tag k="addr:city" v="Lowell"/>
    <tag k="addr:housenumber" v="592"/>
    <tag k="addr:street" v="Green Hill Road"/>
    <tag k="addr:state" v="VT"/>
    <tag k="ref:vcgi:esiteid" v="142085"/>
  </node>
  <node id="-124" visible="true" lat="44.82948076" lon="-72.4791973">
    <tag k="addr:city" v="Lowell"/>
    <tag k="addr:housenumber" v="538"/>
    <tag k="addr:street" v="Green Hill Road"/>
    <tag k="addr:state" v="VT"/>
    <tag k="ref:vcgi:esiteid" v="142091"/>
  </node>
  <node id="-128" visible="true" lat="44.8284622" lon="-72.48167995">
    <tag k="addr:city" v="Lowell"/>
    <tag k="addr:housenumber" v="417"/>
    <tag k="addr:street" v="Green Hill Road"/>
    <tag k="addr:state" v="VT"/>
    <tag k="ref:vcgi:esiteid" v="142095"/>
  </node>
  <node id="-129" visible="true" lat="44.82824325" lon="-72.48709869">
    <tag k="addr:city" v="Lowell"/>
    <tag k="addr:housenumber" v="177"/>
    <tag k="addr:street" v="Green Hill Road"/>
    <tag k="addr:state" v="VT"/>
    <tag k="ref:vcgi:esiteid" v="142096"/>
  </node>
  <node id="-136" visible="true" lat="44.82705854" lon="-72.4982286">
    <tag k="addr:city" v="Lowell"/>
    <tag k="addr:housenumber" v="3434"/>
    <tag k="addr:street" v="Hazen Notch Road"/>
    <tag k="addr:state" v="VT"/>
    <tag k="ref:vcgi:esiteid" v="142103"/>
  </node>
  <node id="-231" visible="true" lat="44.80538866" lon="-72.44881556">
    <tag k="addr:city" v="Lowell"/>
    <tag k="addr:housenumber" v="52"/>
    <tag k="addr:street" v="Gelo Park Road"/>
    <tag k="addr:state" v="VT"/>
    <tag k="ref:vcgi:esiteid" v="142201"/>
  </node>
  <node id="-464" visible="true" lat="44.82861935" lon="-72.47895599">
    <tag k="addr:city" v="Lowell"/>
    <tag k="addr:housenumber" v="528"/>
    <tag k="addr:street" v="Green Hill Road"/>
    <tag k="addr:state" v="VT"/>
    <tag k="ref:vcgi:esiteid" v="142448"/>
  </node>
  <node id="-467" visible="true" lat="44.82592759" lon="-72.49730323">
    <tag k="addr:city" v="Lowell"/>
    <tag k="addr:housenumber" v="3383"/>
    <tag k="addr:street" v="Hazen Notch Road"/>
    <tag k="addr:state" v="VT"/>
    <tag k="ref:vcgi:esiteid" v="142451"/>
  </node>
  <node id="-571" visible="true" lat="44.84116169" lon="-72.39928273">
    <tag k="addr:city" v="Lowell"/>
    <tag k="addr:housenumber" v="144"/>
    <tag k="addr:street" v="Foster Road"/>
    <tag k="addr:state" v="VT"/>
    <tag k="ref:vcgi:esiteid" v="262375"/>
  </node>
  <node id="-577" visible="true" lat="44.82023007" lon="-72.47987845">
    <tag k="addr:city" v="Lowell"/>
    <tag k="addr:housenumber" v="2362"/>
    <tag k="addr:street" v="Hazen Notch Road"/>
    <tag k="addr:state" v="VT"/>
    <tag k="ref:vcgi:esiteid" v="310112"/>
  </node>
  <node id="-578" visible="true" lat="44.82469447" lon="-72.48656929">
    <tag k="addr:city" v="Lowell"/>
    <tag k="addr:housenumber" v="2798"/>
    <tag k="addr:street" v="Hazen Notch Road"/>
    <tag k="addr:state" v="VT"/>
    <tag k="ref:vcgi:esiteid" v="310113"/>
  </node>
  <node id="-582" visible="true" lat="44.77239279" lon="-72.45423552">
    <tag k="addr:city" v="Lowell"/>
    <tag k="addr:housenumber" v="145"/>
    <tag k="addr:street" v="Edward Drive"/>
    <tag k="addr:state" v="VT"/>
    <tag k="ref:vcgi:esiteid" v="310118"/>
  </node>
  <node id="-597" visible="true" lat="44.81972943" lon="-72.47820169">
    <tag k="addr:city" v="Lowell"/>
    <tag k="addr:housenumber" v="2274"/>
    <tag k="addr:street" v="Hazen Notch Road"/>
    <tag k="addr:state" v="VT"/>
    <tag k="ref:vcgi:esiteid" v="327031"/>
  </node>
  <node id="-606" visible="true" lat="44.84047795" lon="-72.39867788">
    <tag k="addr:city" v="Lowell"/>
    <tag k="addr:housenumber" v="3733"/>
    <tag k="addr:street" v="Carter Road"/>
    <tag k="addr:state" v="VT"/>
    <tag k="ref:vcgi:esiteid" v="332615"/>
  </node>
  <node id="-655" visible="true" lat="44.80884212" lon="-72.44575026">
    <tag k="addr:city" v="Lowell"/>
    <tag k="addr:housenumber" v="1953"/>
    <tag k="addr:street" v="Vermont Route 100"/>
    <tag k="addr:state" v="VT"/>
    <tag k="ref:vcgi:esiteid" v="448504"/>
  </node>
  <node id="-658" visible="true" lat="44.80393392" lon="-72.44733067">
    <tag k="addr:city" v="Lowell"/>
    <tag k="addr:housenumber" v="2305"/>
    <tag k="addr:street" v="Vermont Route 100"/>
    <tag k="addr:state" v="VT"/>
    <tag k="ref:vcgi:esiteid" v="453872"/>
  </node>
  <node id="-682" visible="true" lat="44.74090795" lon="-72.43352706">
    <tag k="addr:city" v="Lowell"/>
    <tag k="addr:housenumber" v="16"/>
    <tag k="addr:street" v="Edward Drive"/>
    <tag k="addr:state" v="VT"/>
    <tag k="ref:vcgi:esiteid" v="455203"/>
  </node>
  <node id="-683" visible="true" lat="44.74378836" lon="-72.43250477">
    <tag k="addr:city" v="Lowell"/>
    <tag k="addr:housenumber" v="15"/>
    <tag k="addr:street" v="Edward Drive"/>
    <tag k="addr:state" v="VT"/>
    <tag k="ref:vcgi:esiteid" v="455204"/>
  </node>
  <node id="-684" visible="true" lat="44.76303136" lon="-72.41126041">
    <tag k="addr:city" v="Lowell"/>
    <tag k="addr:housenumber" v="4"/>
    <tag k="addr:street" v="Edward Drive"/>
    <tag k="addr:state" v="VT"/>
    <tag k="ref:vcgi:esiteid" v="455205"/>
  </node>
  <node id="-685" visible="true" lat="44.76710303" lon="-72.40846337">
    <tag k="addr:city" v="Lowell"/>
    <tag k="addr:housenumber" v="2"/>
    <tag k="addr:street" v="Edward Drive"/>
    <tag k="addr:state" v="VT"/>
    <tag k="ref:vcgi:esiteid" v="455206"/>
  </node>
  <node id="-686" visible="true" lat="44.75881027" lon="-72.41493282">
    <tag k="addr:city" v="Lowell"/>
    <tag k="addr:housenumber" v="6"/>
    <tag k="addr:street" v="Edward Drive"/>
    <tag k="addr:state" v="VT"/>
    <tag k="ref:vcgi:esiteid" v="455207"/>
  </node>
  <node id="-687" visible="true" lat="44.76899377" lon="-72.40727384">
    <tag k="addr:city" v="Lowell"/>
    <tag k="addr:housenumber" v="1"/>
    <tag k="addr:street" v="Edward Drive"/>
    <tag k="addr:state" v="VT"/>
    <tag k="ref:vcgi:esiteid" v="455208"/>
  </node>
  <node id="-688" visible="true" lat="44.76526819" lon="-72.40959258">
    <tag k="addr:city" v="Lowell"/>
    <tag k="addr:housenumber" v="3"/>
    <tag k="addr:street" v="Edward Drive"/>
    <tag k="addr:state" v="VT"/>
    <tag k="ref:vcgi:esiteid" v="455209"/>
  </node>
  <node id="-689" visible="true" lat="44.7533497" lon="-72.42372559">
    <tag k="addr:city" v="Lowell"/>
    <tag k="addr:housenumber" v="10"/>
    <tag k="addr:street" v="Edward Drive"/>
    <tag k="addr:state" v="VT"/>
    <tag k="ref:vcgi:esiteid" v="455210"/>
  </node>
  <node id="-690" visible="true" lat="44.75094813" lon="-72.42501517">
    <tag k="addr:city" v="Lowell"/>
    <tag k="addr:housenumber" v="11"/>
    <tag k="addr:street" v="Edward Drive"/>
    <tag k="addr:state" v="VT"/>
    <tag k="ref:vcgi:esiteid" v="455211"/>
  </node>
  <node id="-691" visible="true" lat="44.73938093" lon="-72.43632161">
    <tag k="addr:city" v="Lowell"/>
    <tag k="addr:housenumber" v="17"/>
    <tag k="addr:street" v="Edward Drive"/>
    <tag k="addr:state" v="VT"/>
    <tag k="ref:vcgi:esiteid" v="455212"/>
  </node>
  <node id="-692" visible="true" lat="44.74613818" lon="-72.42822547">
    <tag k="addr:city" v="Lowell"/>
    <tag k="addr:housenumber" v="13"/>
    <tag k="addr:street" v="Edward Drive"/>
    <tag k="addr:state" v="VT"/>
    <tag k="ref:vcgi:esiteid" v="455213"/>
  </node>
  <node id="-693" visible="true" lat="44.76084226" lon="-72.41310849">
    <tag k="addr:city" v="Lowell"/>
    <tag k="addr:housenumber" v="5"/>
    <tag k="addr:street" v="Edward Drive"/>
    <tag k="addr:state" v="VT"/>
    <tag k="ref:vcgi:esiteid" v="455214"/>
  </node>
  <node id="-694" visible="true" lat="44.73500799" lon="-72.44263648">
    <tag k="addr:city" v="Lowell"/>
    <tag k="addr:housenumber" v="20"/>
    <tag k="addr:street" v="Edward Drive"/>
    <tag k="addr:state" v="VT"/>
    <tag k="ref:vcgi:esiteid" v="455215"/>
  </node>
  <node id="-695" visible="true" lat="44.7484652" lon="-72.42571335">
    <tag k="addr:city" v="Lowell"/>
    <tag k="addr:housenumber" v="12"/>
    <tag k="addr:street" v="Edward Drive"/>
    <tag k="addr:state" v="VT"/>
    <tag k="ref:vcgi:esiteid" v="455216"/>
  </node>
  <node id="-696" visible="true" lat="44.74507758" lon="-72.430355">
    <tag k="addr:city" v="Lowell"/>
    <tag k="addr:housenumber" v="14"/>
    <tag k="addr:street" v="Edward Drive"/>
    <tag k="addr:state" v="VT"/>
    <tag k="ref:vcgi:esiteid" v="455217"/>
  </node>
  <node id="-697" visible="true" lat="44.7332474" lon="-72.44541737">
    <tag k="addr:city" v="Lowell"/>
    <tag k="addr:housenumber" v="21"/>
    <tag k="addr:street" v="Edward Drive"/>
    <tag k="addr:state" v="VT"/>
    <tag k="ref:vcgi:esiteid" v="455218"/>
  </node>
  <node id="-698" visible="true" lat="44.75580359" lon="-72.41893047">
    <tag k="addr:city" v="Lowell"/>
    <tag k="addr:housenumber" v="8"/>
    <tag k="addr:street" v="Edward Drive"/>
    <tag k="addr:state" v="VT"/>
    <tag k="ref:vcgi:esiteid" v="455219"/>
  </node>
  <node id="-699" visible="true" lat="44.75493431" lon="-72.42203935">
    <tag k="addr:city" v="Lowell"/>
    <tag k="addr:housenumber" v="9"/>
    <tag k="addr:street" v="Edward Drive"/>
    <tag k="addr:state" v="VT"/>
    <tag k="ref:vcgi:esiteid" v="455220"/>
  </node>
  <node id="-700" visible="true" lat="44.73804424" lon="-72.43895547">
    <tag k="addr:city" v="Lowell"/>
    <tag k="addr:housenumber" v="18"/>
    <tag k="addr:street" v="Edward Drive"/>
    <tag k="addr:state" v="VT"/>
    <tag k="ref:vcgi:esiteid" v="455221"/>
  </node>
  <node id="-701" visible="true" lat="44.7366119" lon="-72.4409045">
    <tag k="addr:city" v="Lowell"/>
    <tag k="addr:housenumber" v="19"/>
    <tag k="addr:street" v="Edward Drive"/>
    <tag k="addr:state" v="VT"/>
    <tag k="ref:vcgi:esiteid" v="455222"/>
  </node>
  <node id="-702" visible="true" lat="44.75731655" lon="-72.41704363">
    <tag k="addr:city" v="Lowell"/>
    <tag k="addr:housenumber" v="7"/>
    <tag k="addr:street" v="Edward Drive"/>
    <tag k="addr:state" v="VT"/>
    <tag k="ref:vcgi:esiteid" v="455223"/>
  </node>
  <node id="-717" visible="true" lat="44.83912329" lon="-72.39719747">
    <tag k="addr:city" v="Lowell"/>
    <tag k="addr:housenumber" v="3694"/>
    <tag k="addr:street" v="Carter Road"/>
    <tag k="addr:state" v="VT"/>
    <tag k="ref:vcgi:esiteid" v="612942"/>
  </node>
  <node id="-718" visible="true" lat="44.83807418" lon="-72.40027462">
    <tag k="addr:city" v="Lowell"/>
    <tag k="addr:housenumber" v="3543"/>
    <tag k="addr:street" v="Carter Road"/>
    <tag k="addr:state" v="VT"/>
    <tag k="ref:vcgi:esiteid" v="613311"/>
  </node>
</osm>
