<?xml version="1.0" encoding="UTF-8"?>
<osm version="0.6" generator="JOSM">
  <node id="-161" visible="true" lat="44.50023901" lon="-71.65987623">
    <tag k="addr:city" v="Lunenburg"/>
    <tag k="addr:housenumber" v="87"/>
    <tag k="addr:street" v="Guildhall Hill Road"/>
    <tag k="addr:state" v="VT"/>
    <tag k="ref:vcgi:esiteid" v="145162"/>
  </node>
  <node id="-162" visible="true" lat="44.50331352" lon="-71.64840079">
    <tag k="addr:city" v="Lunenburg"/>
    <tag k="addr:housenumber" v="181"/>
    <tag k="addr:street" v="Simonds Road"/>
    <tag k="addr:state" v="VT"/>
    <tag k="ref:vcgi:esiteid" v="145163"/>
  </node>
  <node id="-164" visible="true" lat="44.49652486" lon="-71.64233576">
    <tag k="addr:city" v="Lunenburg"/>
    <tag k="addr:housenumber" v="501"/>
    <tag k="addr:street" v="Simonds Road"/>
    <tag k="addr:state" v="VT"/>
    <tag k="ref:vcgi:esiteid" v="145165"/>
  </node>
  <node id="-165" visible="true" lat="44.49616981" lon="-71.64223717">
    <tag k="addr:city" v="Lunenburg"/>
    <tag k="addr:housenumber" v="504"/>
    <tag k="addr:street" v="Simonds Road"/>
    <tag k="addr:state" v="VT"/>
    <tag k="ref:vcgi:esiteid" v="145166"/>
  </node>
  <node id="-166" visible="true" lat="44.49588778" lon="-71.64654477">
    <tag k="addr:city" v="Lunenburg"/>
    <tag k="addr:housenumber" v="398"/>
    <tag k="addr:street" v="Simonds Road"/>
    <tag k="addr:state" v="VT"/>
    <tag k="ref:vcgi:esiteid" v="145167"/>
  </node>
  <node id="-167" visible="true" lat="44.49690542" lon="-71.64813478">
    <tag k="addr:city" v="Lunenburg"/>
    <tag k="addr:housenumber" v="336"/>
    <tag k="addr:street" v="Simonds Road"/>
    <tag k="addr:state" v="VT"/>
    <tag k="ref:vcgi:esiteid" v="145168"/>
  </node>
  <node id="-174" visible="true" lat="44.49828815" lon="-71.64963968">
    <tag k="addr:city" v="Lunenburg"/>
    <tag k="addr:housenumber" v="275"/>
    <tag k="addr:street" v="Simonds Road"/>
    <tag k="addr:state" v="VT"/>
    <tag k="ref:vcgi:esiteid" v="145175"/>
  </node>
  <node id="-175" visible="true" lat="44.49856789" lon="-71.64653762">
    <tag k="addr:city" v="Lunenburg"/>
    <tag k="addr:housenumber" v="339"/>
    <tag k="addr:street" v="Simonds Road"/>
    <tag k="addr:state" v="VT"/>
    <tag k="ref:vcgi:esiteid" v="145176"/>
  </node>
  <node id="-176" visible="true" lat="44.49669232" lon="-71.64638134">
    <tag k="addr:city" v="Lunenburg"/>
    <tag k="addr:housenumber" v="379"/>
    <tag k="addr:street" v="Simonds Road"/>
    <tag k="addr:state" v="VT"/>
    <tag k="ref:vcgi:esiteid" v="145177"/>
  </node>
  <node id="-177" visible="true" lat="44.49515901" lon="-71.64920612">
    <tag k="addr:city" v="Lunenburg"/>
    <tag k="addr:housenumber" v="320"/>
    <tag k="addr:street" v="Simonds Road"/>
    <tag k="addr:state" v="VT"/>
    <tag k="ref:vcgi:esiteid" v="145178"/>
  </node>
  <node id="-179" visible="true" lat="44.4994006" lon="-71.65245807">
    <tag k="addr:city" v="Lunenburg"/>
    <tag k="addr:housenumber" v="186"/>
    <tag k="addr:street" v="Simonds Road"/>
    <tag k="addr:state" v="VT"/>
    <tag k="ref:vcgi:esiteid" v="145180"/>
  </node>
  <node id="-180" visible="true" lat="44.49988787" lon="-71.65729773">
    <tag k="addr:city" v="Lunenburg"/>
    <tag k="addr:housenumber" v="55"/>
    <tag k="addr:street" v="Simonds Road"/>
    <tag k="addr:state" v="VT"/>
    <tag k="ref:vcgi:esiteid" v="145181"/>
  </node>
  <node id="-182" visible="true" lat="44.49963932" lon="-71.65924159">
    <tag k="addr:city" v="Lunenburg"/>
    <tag k="addr:housenumber" v="15"/>
    <tag k="addr:street" v="Simonds Road"/>
    <tag k="addr:state" v="VT"/>
    <tag k="ref:vcgi:esiteid" v="145183"/>
  </node>
  <node id="-183" visible="true" lat="44.49892495" lon="-71.65923589">
    <tag k="addr:city" v="Lunenburg"/>
    <tag k="addr:housenumber" v="48"/>
    <tag k="addr:street" v="Guildhall Hill Road"/>
    <tag k="addr:state" v="VT"/>
    <tag k="ref:vcgi:esiteid" v="145184"/>
  </node>
  <node id="-184" visible="true" lat="44.49704562" lon="-71.65934274">
    <tag k="addr:city" v="Lunenburg"/>
    <tag k="addr:housenumber" v="1521"/>
    <tag k="addr:street" v="Bobbin Mill Road"/>
    <tag k="addr:state" v="VT"/>
    <tag k="ref:vcgi:esiteid" v="145185"/>
  </node>
  <node id="-185" visible="true" lat="44.49713147" lon="-71.66091442">
    <tag k="addr:city" v="Lunenburg"/>
    <tag k="addr:housenumber" v="1450"/>
    <tag k="addr:street" v="Bobbin Mill Road"/>
    <tag k="addr:state" v="VT"/>
    <tag k="ref:vcgi:esiteid" v="145186"/>
  </node>
  <node id="-186" visible="true" lat="44.49753936" lon="-71.66042951">
    <tag k="addr:city" v="Lunenburg"/>
    <tag k="addr:housenumber" v="1490"/>
    <tag k="addr:street" v="Bobbin Mill Road"/>
    <tag k="addr:state" v="VT"/>
    <tag k="ref:vcgi:esiteid" v="145187"/>
  </node>
  <node id="-189" visible="true" lat="44.4977986" lon="-71.66227019">
    <tag k="addr:city" v="Lunenburg"/>
    <tag k="addr:housenumber" v="1427"/>
    <tag k="addr:street" v="Bobbin Mill Road"/>
    <tag k="addr:state" v="VT"/>
    <tag k="ref:vcgi:esiteid" v="145190"/>
  </node>
  <node id="-190" visible="true" lat="44.49834891" lon="-71.66094487">
    <tag k="addr:city" v="Lunenburg"/>
    <tag k="addr:housenumber" v="1463"/>
    <tag k="addr:street" v="Bobbin Mill Road"/>
    <tag k="addr:state" v="VT"/>
    <tag k="ref:vcgi:esiteid" v="145191"/>
  </node>
  <node id="-193" visible="true" lat="44.49922165" lon="-71.65995024">
    <tag k="addr:city" v="Lunenburg"/>
    <tag k="addr:housenumber" v="49"/>
    <tag k="addr:street" v="Guildhall Hill Road"/>
    <tag k="addr:state" v="VT"/>
    <tag k="ref:vcgi:esiteid" v="145194"/>
  </node>
  <node id="-196" visible="true" lat="44.4963126" lon="-71.6653654">
    <tag k="addr:city" v="Lunenburg"/>
    <tag k="addr:housenumber" v="1323"/>
    <tag k="addr:street" v="Bobbin Mill Road"/>
    <tag k="addr:state" v="VT"/>
    <tag k="ref:vcgi:esiteid" v="145197"/>
  </node>
  <node id="-197" visible="true" lat="44.4966394" lon="-71.66472998">
    <tag k="addr:city" v="Lunenburg"/>
    <tag k="addr:housenumber" v="1351"/>
    <tag k="addr:street" v="Bobbin Mill Road"/>
    <tag k="addr:state" v="VT"/>
    <tag k="ref:vcgi:esiteid" v="145198"/>
  </node>
  <node id="-198" visible="true" lat="44.49742175" lon="-71.66387247">
    <tag k="addr:city" v="Lunenburg"/>
    <tag k="addr:housenumber" v="1389"/>
    <tag k="addr:street" v="Bobbin Mill Road"/>
    <tag k="addr:state" v="VT"/>
    <tag k="ref:vcgi:esiteid" v="145199"/>
  </node>
  <node id="-263" visible="true" lat="44.49351359" lon="-71.65619196">
    <tag k="addr:city" v="Lunenburg"/>
    <tag k="addr:housenumber" v="1641"/>
    <tag k="addr:street" v="Bobbin Mill Road"/>
    <tag k="addr:state" v="VT"/>
    <tag k="ref:vcgi:esiteid" v="145265"/>
  </node>
  <node id="-264" visible="true" lat="44.49412876" lon="-71.65669406">
    <tag k="addr:city" v="Lunenburg"/>
    <tag k="addr:housenumber" v="1625"/>
    <tag k="addr:street" v="Bobbin Mill Road"/>
    <tag k="addr:state" v="VT"/>
    <tag k="ref:vcgi:esiteid" v="145266"/>
  </node>
  <node id="-266" visible="true" lat="44.48676291" lon="-71.61669949">
    <tag k="addr:city" v="Lunenburg"/>
    <tag k="addr:housenumber" v="1383"/>
    <tag k="addr:street" v="Lancaster Road"/>
    <tag k="addr:state" v="VT"/>
    <tag k="ref:vcgi:esiteid" v="145268"/>
  </node>
  <node id="-267" visible="true" lat="44.48686165" lon="-71.61687608">
    <tag k="addr:city" v="Lunenburg"/>
    <tag k="addr:housenumber" v="1381"/>
    <tag k="addr:street" v="Lancaster Road"/>
    <tag k="addr:state" v="VT"/>
    <tag k="ref:vcgi:esiteid" v="145269"/>
  </node>
  <node id="-268" visible="true" lat="44.48664078" lon="-71.61713486">
    <tag k="addr:city" v="Lunenburg"/>
    <tag k="addr:housenumber" v="1383"/>
    <tag k="addr:street" v="Lancaster Road"/>
    <tag k="addr:state" v="VT"/>
    <tag k="ref:vcgi:esiteid" v="145270"/>
  </node>
  <node id="-269" visible="true" lat="44.48677931" lon="-71.61657397">
    <tag k="addr:city" v="Lunenburg"/>
    <tag k="addr:housenumber" v="1383"/>
    <tag k="addr:street" v="Lancaster Road"/>
    <tag k="addr:state" v="VT"/>
    <tag k="ref:vcgi:esiteid" v="145271"/>
  </node>
  <node id="-270" visible="true" lat="44.48641624" lon="-71.61821361">
    <tag k="addr:city" v="Lunenburg"/>
    <tag k="addr:housenumber" v="1341"/>
    <tag k="addr:street" v="Lancaster Road"/>
    <tag k="addr:state" v="VT"/>
    <tag k="ref:vcgi:esiteid" v="145272"/>
  </node>
  <node id="-272" visible="true" lat="44.48727621" lon="-71.65351179">
    <tag k="addr:city" v="Lunenburg"/>
    <tag k="addr:housenumber" v="1904"/>
    <tag k="addr:street" v="Bobbin Mill Road"/>
    <tag k="addr:state" v="VT"/>
    <tag k="ref:vcgi:esiteid" v="145274"/>
  </node>
  <node id="-273" visible="true" lat="44.48988411" lon="-71.65842375">
    <tag k="addr:city" v="Lunenburg"/>
    <tag k="addr:housenumber" v="1744"/>
    <tag k="addr:street" v="Bobbin Mill Road"/>
    <tag k="addr:state" v="VT"/>
    <tag k="ref:vcgi:esiteid" v="145275"/>
  </node>
  <node id="-337" visible="true" lat="44.48478944" lon="-71.66074612">
    <tag k="addr:city" v="Lunenburg"/>
    <tag k="addr:housenumber" v="163"/>
    <tag k="addr:street" v="Powell Road"/>
    <tag k="addr:state" v="VT"/>
    <tag k="ref:vcgi:esiteid" v="145341"/>
  </node>
  <node id="-338" visible="true" lat="44.48527262" lon="-71.65923245">
    <tag k="addr:city" v="Lunenburg"/>
    <tag k="addr:housenumber" v="162"/>
    <tag k="addr:street" v="Powell Road"/>
    <tag k="addr:state" v="VT"/>
    <tag k="ref:vcgi:esiteid" v="145342"/>
  </node>
  <node id="-340" visible="true" lat="44.48498057" lon="-71.65432682">
    <tag k="addr:city" v="Lunenburg"/>
    <tag k="addr:housenumber" v="2032"/>
    <tag k="addr:street" v="Bobbin Mill Road"/>
    <tag k="addr:state" v="VT"/>
    <tag k="ref:vcgi:esiteid" v="145344"/>
  </node>
  <node id="-343" visible="true" lat="44.4833861" lon="-71.63465758">
    <tag k="addr:city" v="Lunenburg"/>
    <tag k="addr:housenumber" v="851"/>
    <tag k="addr:street" v="Lancaster Road"/>
    <tag k="addr:state" v="VT"/>
    <tag k="ref:vcgi:esiteid" v="145347"/>
  </node>
  <node id="-344" visible="true" lat="44.4838096" lon="-71.63473913">
    <tag k="addr:city" v="Lunenburg"/>
    <tag k="addr:housenumber" v="853"/>
    <tag k="addr:street" v="Lancaster Road"/>
    <tag k="addr:state" v="VT"/>
    <tag k="ref:vcgi:esiteid" v="145348"/>
  </node>
  <node id="-346" visible="true" lat="44.48460937" lon="-71.63319464">
    <tag k="addr:city" v="Lunenburg"/>
    <tag k="addr:housenumber" v="909"/>
    <tag k="addr:street" v="Lancaster Road"/>
    <tag k="addr:state" v="VT"/>
    <tag k="ref:vcgi:esiteid" v="145350"/>
  </node>
  <node id="-347" visible="true" lat="44.4849013" lon="-71.62875195">
    <tag k="addr:city" v="Lunenburg"/>
    <tag k="addr:housenumber" v="1020"/>
    <tag k="addr:street" v="Lancaster Road"/>
    <tag k="addr:state" v="VT"/>
    <tag k="ref:vcgi:esiteid" v="145351"/>
  </node>
  <node id="-348" visible="true" lat="44.48455837" lon="-71.62724834">
    <tag k="addr:city" v="Lunenburg"/>
    <tag k="addr:housenumber" v="1062"/>
    <tag k="addr:street" v="Lancaster Road"/>
    <tag k="addr:state" v="VT"/>
    <tag k="ref:vcgi:esiteid" v="145352"/>
  </node>
  <node id="-349" visible="true" lat="44.48638982" lon="-71.61830715">
    <tag k="addr:city" v="Lunenburg"/>
    <tag k="addr:housenumber" v="1339"/>
    <tag k="addr:street" v="Lancaster Road"/>
    <tag k="addr:state" v="VT"/>
    <tag k="ref:vcgi:esiteid" v="145353"/>
  </node>
  <node id="-351" visible="true" lat="44.48152706" lon="-71.62215798">
    <tag k="addr:city" v="Lunenburg"/>
    <tag k="addr:housenumber" v="73"/>
    <tag k="addr:street" v="Auburn Star Road"/>
    <tag k="addr:state" v="VT"/>
    <tag k="ref:vcgi:esiteid" v="145355"/>
  </node>
  <node id="-353" visible="true" lat="44.47976277" lon="-71.6226424">
    <tag k="addr:city" v="Lunenburg"/>
    <tag k="addr:housenumber" v="139"/>
    <tag k="addr:street" v="Auburn Star Road"/>
    <tag k="addr:state" v="VT"/>
    <tag k="ref:vcgi:esiteid" v="145357"/>
  </node>
  <node id="-356" visible="true" lat="44.48014515" lon="-71.62406545">
    <tag k="addr:city" v="Lunenburg"/>
    <tag k="addr:housenumber" v="155"/>
    <tag k="addr:street" v="Auburn Star Road"/>
    <tag k="addr:state" v="VT"/>
    <tag k="ref:vcgi:esiteid" v="145360"/>
  </node>
  <node id="-358" visible="true" lat="44.48115503" lon="-71.62460111">
    <tag k="addr:city" v="Lunenburg"/>
    <tag k="addr:housenumber" v="152"/>
    <tag k="addr:street" v="Auburn Star Road"/>
    <tag k="addr:state" v="VT"/>
    <tag k="ref:vcgi:esiteid" v="145362"/>
  </node>
  <node id="-415" visible="true" lat="44.47558576" lon="-71.64836521">
    <tag k="addr:city" v="Lunenburg"/>
    <tag k="addr:housenumber" v="2384"/>
    <tag k="addr:street" v="Bobbin Mill Road"/>
    <tag k="addr:state" v="VT"/>
    <tag k="ref:vcgi:esiteid" v="145420"/>
  </node>
  <node id="-417" visible="true" lat="44.475797" lon="-71.64757197">
    <tag k="addr:city" v="Lunenburg"/>
    <tag k="addr:housenumber" v="2387"/>
    <tag k="addr:street" v="Bobbin Mill Road"/>
    <tag k="addr:state" v="VT"/>
    <tag k="ref:vcgi:esiteid" v="145422"/>
  </node>
  <node id="-419" visible="true" lat="44.47330298" lon="-71.64866076">
    <tag k="addr:city" v="Lunenburg"/>
    <tag k="addr:housenumber" v="333"/>
    <tag k="addr:street" v="Lancaster Road"/>
    <tag k="addr:state" v="VT"/>
    <tag k="ref:vcgi:esiteid" v="145424"/>
  </node>
  <node id="-421" visible="true" lat="44.47237724" lon="-71.64866623">
    <tag k="addr:city" v="Lunenburg"/>
    <tag k="addr:housenumber" v="297"/>
    <tag k="addr:street" v="Lancaster Road"/>
    <tag k="addr:state" v="VT"/>
    <tag k="ref:vcgi:esiteid" v="145426"/>
  </node>
  <node id="-422" visible="true" lat="44.47113865" lon="-71.6488802">
    <tag k="addr:city" v="Lunenburg"/>
    <tag k="addr:housenumber" v="249"/>
    <tag k="addr:street" v="Lancaster Road"/>
    <tag k="addr:state" v="VT"/>
    <tag k="ref:vcgi:esiteid" v="145427"/>
  </node>
  <node id="-425" visible="true" lat="44.46987781" lon="-71.64991563">
    <tag k="addr:city" v="Lunenburg"/>
    <tag k="addr:housenumber" v="195"/>
    <tag k="addr:street" v="Lancaster Road"/>
    <tag k="addr:state" v="VT"/>
    <tag k="ref:vcgi:esiteid" v="145430"/>
  </node>
  <node id="-492" visible="true" lat="44.465456" lon="-71.65394588">
    <tag k="addr:city" v="Lunenburg"/>
    <tag k="addr:housenumber" v="763"/>
    <tag k="addr:street" v="East Main Street"/>
    <tag k="addr:state" v="VT"/>
    <tag k="ref:vcgi:esiteid" v="145500"/>
  </node>
  <node id="-494" visible="true" lat="44.46597815" lon="-71.65191937">
    <tag k="addr:city" v="Lunenburg"/>
    <tag k="addr:housenumber" v="40"/>
    <tag k="addr:street" v="Lancaster Road"/>
    <tag k="addr:state" v="VT"/>
    <tag k="ref:vcgi:esiteid" v="145502"/>
  </node>
  <node id="-495" visible="true" lat="44.46867746" lon="-71.65141742">
    <tag k="addr:city" v="Lunenburg"/>
    <tag k="addr:housenumber" v="143"/>
    <tag k="addr:street" v="Lancaster Road"/>
    <tag k="addr:state" v="VT"/>
    <tag k="ref:vcgi:esiteid" v="145503"/>
  </node>
  <node id="-497" visible="true" lat="44.46200237" lon="-71.65291054">
    <tag k="addr:city" v="Lunenburg"/>
    <tag k="addr:housenumber" v="167"/>
    <tag k="addr:street" v="River Road"/>
    <tag k="addr:state" v="VT"/>
    <tag k="ref:vcgi:esiteid" v="145505"/>
  </node>
  <node id="-499" visible="true" lat="44.46438692" lon="-71.65311545">
    <tag k="addr:city" v="Lunenburg"/>
    <tag k="addr:housenumber" v="16"/>
    <tag k="addr:street" v="River Road"/>
    <tag k="addr:state" v="VT"/>
    <tag k="ref:vcgi:esiteid" v="145507"/>
  </node>
  <node id="-500" visible="true" lat="44.46276619" lon="-71.65341817">
    <tag k="addr:city" v="Lunenburg"/>
    <tag k="addr:housenumber" v="78"/>
    <tag k="addr:street" v="River Road"/>
    <tag k="addr:state" v="VT"/>
    <tag k="ref:vcgi:esiteid" v="145508"/>
  </node>
  <node id="-501" visible="true" lat="44.46323933" lon="-71.65325972">
    <tag k="addr:city" v="Lunenburg"/>
    <tag k="addr:housenumber" v="76"/>
    <tag k="addr:street" v="River Road"/>
    <tag k="addr:state" v="VT"/>
    <tag k="ref:vcgi:esiteid" v="145509"/>
  </node>
  <node id="-502" visible="true" lat="44.46377639" lon="-71.65555812">
    <tag k="addr:city" v="Lunenburg"/>
    <tag k="addr:housenumber" v="676"/>
    <tag k="addr:street" v="East Main Street"/>
    <tag k="addr:state" v="VT"/>
    <tag k="ref:vcgi:esiteid" v="145510"/>
  </node>
  <node id="-503" visible="true" lat="44.4642311" lon="-71.65599844">
    <tag k="addr:city" v="Lunenburg"/>
    <tag k="addr:housenumber" v="674"/>
    <tag k="addr:street" v="East Main Street"/>
    <tag k="addr:state" v="VT"/>
    <tag k="ref:vcgi:esiteid" v="145511"/>
  </node>
  <node id="-505" visible="true" lat="44.46352456" lon="-71.65705396">
    <tag k="addr:city" v="Lunenburg"/>
    <tag k="addr:housenumber" v="648"/>
    <tag k="addr:street" v="East Main Street"/>
    <tag k="addr:state" v="VT"/>
    <tag k="ref:vcgi:esiteid" v="145513"/>
  </node>
  <node id="-508" visible="true" lat="44.46432659" lon="-71.65732172">
    <tag k="addr:city" v="Lunenburg"/>
    <tag k="addr:housenumber" v="654"/>
    <tag k="addr:street" v="East Main Street"/>
    <tag k="addr:state" v="VT"/>
    <tag k="ref:vcgi:esiteid" v="145516"/>
  </node>
  <node id="-509" visible="true" lat="44.46388778" lon="-71.65826167">
    <tag k="addr:city" v="Lunenburg"/>
    <tag k="addr:housenumber" v="646"/>
    <tag k="addr:street" v="East Main Street"/>
    <tag k="addr:state" v="VT"/>
    <tag k="ref:vcgi:esiteid" v="145517"/>
  </node>
  <node id="-510" visible="true" lat="44.46395156" lon="-71.65916247">
    <tag k="addr:city" v="Lunenburg"/>
    <tag k="addr:housenumber" v="616"/>
    <tag k="addr:street" v="East Main Street"/>
    <tag k="addr:state" v="VT"/>
    <tag k="ref:vcgi:esiteid" v="145518"/>
  </node>
  <node id="-513" visible="true" lat="44.46398653" lon="-71.66003177">
    <tag k="addr:city" v="Lunenburg"/>
    <tag k="addr:housenumber" v="20"/>
    <tag k="addr:street" v="Sunrise Acres"/>
    <tag k="addr:state" v="VT"/>
    <tag k="ref:vcgi:esiteid" v="145521"/>
  </node>
  <node id="-514" visible="true" lat="44.46255529" lon="-71.66045926">
    <tag k="addr:city" v="Lunenburg"/>
    <tag k="addr:housenumber" v="78"/>
    <tag k="addr:street" v="Sunrise Acres"/>
    <tag k="addr:state" v="VT"/>
    <tag k="ref:vcgi:esiteid" v="145522"/>
  </node>
  <node id="-515" visible="true" lat="44.46366707" lon="-71.66775331">
    <tag k="addr:city" v="Lunenburg"/>
    <tag k="addr:housenumber" v="380"/>
    <tag k="addr:street" v="East Main Street"/>
    <tag k="addr:state" v="VT"/>
    <tag k="ref:vcgi:esiteid" v="145523"/>
  </node>
  <node id="-517" visible="true" lat="44.46403494" lon="-71.66507433">
    <tag k="addr:city" v="Lunenburg"/>
    <tag k="addr:housenumber" v="5"/>
    <tag k="addr:street" v="Transfer Station Road"/>
    <tag k="addr:state" v="VT"/>
    <tag k="ref:vcgi:esiteid" v="145525"/>
  </node>
  <node id="-519" visible="true" lat="44.46386717" lon="-71.66323339">
    <tag k="addr:city" v="Lunenburg"/>
    <tag k="addr:housenumber" v="514"/>
    <tag k="addr:street" v="East Main Street"/>
    <tag k="addr:state" v="VT"/>
    <tag k="ref:vcgi:esiteid" v="145527"/>
  </node>
  <node id="-520" visible="true" lat="44.46019652" lon="-71.66833756">
    <tag k="addr:city" v="Lunenburg"/>
    <tag k="addr:housenumber" v="46"/>
    <tag k="addr:street" v="Transfer Station Road"/>
    <tag k="addr:state" v="VT"/>
    <tag k="ref:vcgi:esiteid" v="145528"/>
  </node>
  <node id="-543" visible="true" lat="44.46182448" lon="-71.68021907">
    <tag k="addr:city" v="Lunenburg"/>
    <tag k="addr:housenumber" v="56"/>
    <tag k="addr:street" v="East Main Street"/>
    <tag k="addr:state" v="VT"/>
    <tag k="ref:vcgi:esiteid" v="145551"/>
  </node>
  <node id="-545" visible="true" lat="44.4629484" lon="-71.68075394">
    <tag k="addr:city" v="Lunenburg"/>
    <tag k="addr:housenumber" v="42"/>
    <tag k="addr:street" v="East Main Street"/>
    <tag k="addr:state" v="VT"/>
    <tag k="ref:vcgi:esiteid" v="145553"/>
  </node>
  <node id="-548" visible="true" lat="44.46305709" lon="-71.68156635">
    <tag k="addr:city" v="Lunenburg"/>
    <tag k="addr:housenumber" v="24"/>
    <tag k="addr:street" v="East Main Street"/>
    <tag k="addr:state" v="VT"/>
    <tag k="ref:vcgi:esiteid" v="145556"/>
  </node>
  <node id="-556" visible="true" lat="44.46129303" lon="-71.68181442">
    <tag k="addr:city" v="Lunenburg"/>
    <tag k="addr:housenumber" v="77"/>
    <tag k="addr:street" v="South Lunenburg Road"/>
    <tag k="addr:state" v="VT"/>
    <tag k="ref:vcgi:esiteid" v="145564"/>
  </node>
  <node id="-561" visible="true" lat="44.46154102" lon="-71.68249895">
    <tag k="addr:city" v="Lunenburg"/>
    <tag k="addr:housenumber" v="56"/>
    <tag k="addr:street" v="South Lunenburg Road"/>
    <tag k="addr:state" v="VT"/>
    <tag k="ref:vcgi:esiteid" v="145569"/>
  </node>
  <node id="-619" visible="true" lat="44.46466401" lon="-71.68331544">
    <tag k="addr:city" v="Lunenburg"/>
    <tag k="addr:housenumber" v="49"/>
    <tag k="addr:street" v="Bobbin Mill Road"/>
    <tag k="addr:state" v="VT"/>
    <tag k="ref:vcgi:esiteid" v="145627"/>
  </node>
  <node id="-620" visible="true" lat="44.46434099" lon="-71.68289701">
    <tag k="addr:city" v="Lunenburg"/>
    <tag k="addr:housenumber" v="47"/>
    <tag k="addr:street" v="Park Avenue"/>
    <tag k="addr:state" v="VT"/>
    <tag k="ref:vcgi:esiteid" v="145628"/>
  </node>
  <node id="-709" visible="true" lat="44.46086794" lon="-71.68390298">
    <tag k="addr:city" v="Lunenburg"/>
    <tag k="addr:housenumber" v="126"/>
    <tag k="addr:street" v="South Lunenburg Road"/>
    <tag k="addr:state" v="VT"/>
    <tag k="ref:vcgi:esiteid" v="145719"/>
  </node>
  <node id="-711" visible="true" lat="44.46103429" lon="-71.68239255">
    <tag k="addr:city" v="Lunenburg"/>
    <tag k="addr:housenumber" v="70"/>
    <tag k="addr:street" v="South Lunenburg Road"/>
    <tag k="addr:state" v="VT"/>
    <tag k="ref:vcgi:esiteid" v="145721"/>
  </node>
  <node id="-712" visible="true" lat="44.46077687" lon="-71.68235625">
    <tag k="addr:city" v="Lunenburg"/>
    <tag k="addr:housenumber" v="88"/>
    <tag k="addr:street" v="South Lunenburg Road"/>
    <tag k="addr:state" v="VT"/>
    <tag k="ref:vcgi:esiteid" v="145722"/>
  </node>
  <node id="-713" visible="true" lat="44.46023262" lon="-71.68241041">
    <tag k="addr:city" v="Lunenburg"/>
    <tag k="addr:housenumber" v="108"/>
    <tag k="addr:street" v="South Lunenburg Road"/>
    <tag k="addr:state" v="VT"/>
    <tag k="ref:vcgi:esiteid" v="145723"/>
  </node>
  <node id="-715" visible="true" lat="44.45965405" lon="-71.68277088">
    <tag k="addr:city" v="Lunenburg"/>
    <tag k="addr:housenumber" v="128"/>
    <tag k="addr:street" v="South Lunenburg Road"/>
    <tag k="addr:state" v="VT"/>
    <tag k="ref:vcgi:esiteid" v="145725"/>
  </node>
  <node id="-716" visible="true" lat="44.45948349" lon="-71.68209503">
    <tag k="addr:city" v="Lunenburg"/>
    <tag k="addr:housenumber" v="134"/>
    <tag k="addr:street" v="South Lunenburg Road"/>
    <tag k="addr:state" v="VT"/>
    <tag k="ref:vcgi:esiteid" v="145726"/>
  </node>
  <node id="-718" visible="true" lat="44.45900858" lon="-71.68201389">
    <tag k="addr:city" v="Lunenburg"/>
    <tag k="addr:housenumber" v="160"/>
    <tag k="addr:street" v="South Lunenburg Road"/>
    <tag k="addr:state" v="VT"/>
    <tag k="ref:vcgi:esiteid" v="145728"/>
  </node>
  <node id="-719" visible="true" lat="44.458427" lon="-71.68299545">
    <tag k="addr:city" v="Lunenburg"/>
    <tag k="addr:housenumber" v="162"/>
    <tag k="addr:street" v="South Lunenburg Road"/>
    <tag k="addr:state" v="VT"/>
    <tag k="ref:vcgi:esiteid" v="145729"/>
  </node>
  <node id="-720" visible="true" lat="44.45852163" lon="-71.68184515">
    <tag k="addr:city" v="Lunenburg"/>
    <tag k="addr:housenumber" v="172"/>
    <tag k="addr:street" v="South Lunenburg Road"/>
    <tag k="addr:state" v="VT"/>
    <tag k="ref:vcgi:esiteid" v="145730"/>
  </node>
  <node id="-722" visible="true" lat="44.45802421" lon="-71.6818122">
    <tag k="addr:city" v="Lunenburg"/>
    <tag k="addr:housenumber" v="192"/>
    <tag k="addr:street" v="South Lunenburg Road"/>
    <tag k="addr:state" v="VT"/>
    <tag k="ref:vcgi:esiteid" v="145732"/>
  </node>
  <node id="-723" visible="true" lat="44.45871791" lon="-71.68132376">
    <tag k="addr:city" v="Lunenburg"/>
    <tag k="addr:housenumber" v="167"/>
    <tag k="addr:street" v="South Lunenburg Road"/>
    <tag k="addr:state" v="VT"/>
    <tag k="ref:vcgi:esiteid" v="145733"/>
  </node>
  <node id="-724" visible="true" lat="44.45899847" lon="-71.68139963">
    <tag k="addr:city" v="Lunenburg"/>
    <tag k="addr:housenumber" v="157"/>
    <tag k="addr:street" v="South Lunenburg Road"/>
    <tag k="addr:state" v="VT"/>
    <tag k="ref:vcgi:esiteid" v="145734"/>
  </node>
  <node id="-725" visible="true" lat="44.4592788" lon="-71.68144359">
    <tag k="addr:city" v="Lunenburg"/>
    <tag k="addr:housenumber" v="147"/>
    <tag k="addr:street" v="South Lunenburg Road"/>
    <tag k="addr:state" v="VT"/>
    <tag k="ref:vcgi:esiteid" v="145735"/>
  </node>
  <node id="-726" visible="true" lat="44.45953034" lon="-71.68145604">
    <tag k="addr:city" v="Lunenburg"/>
    <tag k="addr:housenumber" v="133"/>
    <tag k="addr:street" v="South Lunenburg Road"/>
    <tag k="addr:state" v="VT"/>
    <tag k="ref:vcgi:esiteid" v="145736"/>
  </node>
  <node id="-728" visible="true" lat="44.45879851" lon="-71.68031228">
    <tag k="addr:city" v="Lunenburg"/>
    <tag k="addr:housenumber" v="2"/>
    <tag k="addr:street" v="White Oak Lane"/>
    <tag k="addr:state" v="VT"/>
    <tag k="ref:vcgi:esiteid" v="145738"/>
  </node>
  <node id="-729" visible="true" lat="44.45989169" lon="-71.68084456">
    <tag k="addr:city" v="Lunenburg"/>
    <tag k="addr:housenumber" v="1"/>
    <tag k="addr:street" v="White Oak Lane"/>
    <tag k="addr:state" v="VT"/>
    <tag k="ref:vcgi:esiteid" v="145739"/>
  </node>
  <node id="-730" visible="true" lat="44.46015992" lon="-71.68159087">
    <tag k="addr:city" v="Lunenburg"/>
    <tag k="addr:housenumber" v="117"/>
    <tag k="addr:street" v="South Lunenburg Road"/>
    <tag k="addr:state" v="VT"/>
    <tag k="ref:vcgi:esiteid" v="145740"/>
  </node>
  <node id="-731" visible="true" lat="44.46041174" lon="-71.6816432">
    <tag k="addr:city" v="Lunenburg"/>
    <tag k="addr:housenumber" v="103"/>
    <tag k="addr:street" v="South Lunenburg Road"/>
    <tag k="addr:state" v="VT"/>
    <tag k="ref:vcgi:esiteid" v="145741"/>
  </node>
  <node id="-733" visible="true" lat="44.46073756" lon="-71.68165461">
    <tag k="addr:city" v="Lunenburg"/>
    <tag k="addr:housenumber" v="85"/>
    <tag k="addr:street" v="South Lunenburg Road"/>
    <tag k="addr:state" v="VT"/>
    <tag k="ref:vcgi:esiteid" v="145743"/>
  </node>
  <node id="-736" visible="true" lat="44.45939941" lon="-71.65562121">
    <tag k="addr:city" v="Lunenburg"/>
    <tag k="addr:housenumber" v="208"/>
    <tag k="addr:street" v="River Road"/>
    <tag k="addr:state" v="VT"/>
    <tag k="ref:vcgi:esiteid" v="145746"/>
  </node>
  <node id="-737" visible="true" lat="44.46038068" lon="-71.65462561">
    <tag k="addr:city" v="Lunenburg"/>
    <tag k="addr:housenumber" v="206"/>
    <tag k="addr:street" v="River Road"/>
    <tag k="addr:state" v="VT"/>
    <tag k="ref:vcgi:esiteid" v="145747"/>
  </node>
  <node id="-738" visible="true" lat="44.45660009" lon="-71.68164857">
    <tag k="addr:city" v="Lunenburg"/>
    <tag k="addr:housenumber" v="252"/>
    <tag k="addr:street" v="South Lunenburg Road"/>
    <tag k="addr:state" v="VT"/>
    <tag k="ref:vcgi:esiteid" v="145748"/>
  </node>
  <node id="-739" visible="true" lat="44.45591233" lon="-71.68057307">
    <tag k="addr:city" v="Lunenburg"/>
    <tag k="addr:housenumber" v="297"/>
    <tag k="addr:street" v="South Lunenburg Road"/>
    <tag k="addr:state" v="VT"/>
    <tag k="ref:vcgi:esiteid" v="145749"/>
  </node>
  <node id="-740" visible="true" lat="44.45336239" lon="-71.67961143">
    <tag k="addr:city" v="Lunenburg"/>
    <tag k="addr:housenumber" v="370"/>
    <tag k="addr:street" v="South Lunenburg Road"/>
    <tag k="addr:state" v="VT"/>
    <tag k="ref:vcgi:esiteid" v="145750"/>
  </node>
  <node id="-741" visible="true" lat="44.45295971" lon="-71.67924209">
    <tag k="addr:city" v="Lunenburg"/>
    <tag k="addr:housenumber" v="382"/>
    <tag k="addr:street" v="South Lunenburg Road"/>
    <tag k="addr:state" v="VT"/>
    <tag k="ref:vcgi:esiteid" v="145751"/>
  </node>
  <node id="-742" visible="true" lat="44.45271547" lon="-71.67706744">
    <tag k="addr:city" v="Lunenburg"/>
    <tag k="addr:housenumber" v="415"/>
    <tag k="addr:street" v="South Lunenburg Road"/>
    <tag k="addr:state" v="VT"/>
    <tag k="ref:vcgi:esiteid" v="145752"/>
  </node>
  <node id="-773" visible="true" lat="44.44880583" lon="-71.67616501">
    <tag k="addr:city" v="Lunenburg"/>
    <tag k="addr:housenumber" v="555"/>
    <tag k="addr:street" v="South Lunenburg Road"/>
    <tag k="addr:state" v="VT"/>
    <tag k="ref:vcgi:esiteid" v="145785"/>
  </node>
  <node id="-774" visible="true" lat="44.44969188" lon="-71.67541061">
    <tag k="addr:city" v="Lunenburg"/>
    <tag k="addr:housenumber" v="517"/>
    <tag k="addr:street" v="South Lunenburg Road"/>
    <tag k="addr:state" v="VT"/>
    <tag k="ref:vcgi:esiteid" v="145786"/>
  </node>
  <node id="-775" visible="true" lat="44.45121629" lon="-71.67713144">
    <tag k="addr:city" v="Lunenburg"/>
    <tag k="addr:housenumber" v="463"/>
    <tag k="addr:street" v="South Lunenburg Road"/>
    <tag k="addr:state" v="VT"/>
    <tag k="ref:vcgi:esiteid" v="145787"/>
  </node>
  <node id="-776" visible="true" lat="44.45186008" lon="-71.6773188">
    <tag k="addr:city" v="Lunenburg"/>
    <tag k="addr:housenumber" v="445"/>
    <tag k="addr:street" v="South Lunenburg Road"/>
    <tag k="addr:state" v="VT"/>
    <tag k="ref:vcgi:esiteid" v="145788"/>
  </node>
  <node id="-777" visible="true" lat="44.45098192" lon="-71.65797636">
    <tag k="addr:city" v="Lunenburg"/>
    <tag k="addr:housenumber" v="550"/>
    <tag k="addr:street" v="River Road"/>
    <tag k="addr:state" v="VT"/>
    <tag k="ref:vcgi:esiteid" v="145789"/>
  </node>
  <node id="-779" visible="true" lat="44.44803383" lon="-71.65962223">
    <tag k="addr:city" v="Lunenburg"/>
    <tag k="addr:housenumber" v="664"/>
    <tag k="addr:street" v="River Road"/>
    <tag k="addr:state" v="VT"/>
    <tag k="ref:vcgi:esiteid" v="145792"/>
  </node>
  <node id="-781" visible="true" lat="44.44536831" lon="-71.66084109">
    <tag k="addr:city" v="Lunenburg"/>
    <tag k="addr:housenumber" v="761"/>
    <tag k="addr:street" v="River Road"/>
    <tag k="addr:state" v="VT"/>
    <tag k="ref:vcgi:esiteid" v="145794"/>
  </node>
  <node id="-784" visible="true" lat="44.44398303" lon="-71.66208142">
    <tag k="addr:city" v="Lunenburg"/>
    <tag k="addr:housenumber" v="835"/>
    <tag k="addr:street" v="River Road"/>
    <tag k="addr:state" v="VT"/>
    <tag k="ref:vcgi:esiteid" v="145797"/>
  </node>
  <node id="-786" visible="true" lat="44.44724812" lon="-71.67649803">
    <tag k="addr:city" v="Lunenburg"/>
    <tag k="addr:housenumber" v="616"/>
    <tag k="addr:street" v="South Lunenburg Road"/>
    <tag k="addr:state" v="VT"/>
    <tag k="ref:vcgi:esiteid" v="145799"/>
  </node>
  <node id="-789" visible="true" lat="44.44662823" lon="-71.67612382">
    <tag k="addr:city" v="Lunenburg"/>
    <tag k="addr:housenumber" v="634"/>
    <tag k="addr:street" v="South Lunenburg Road"/>
    <tag k="addr:state" v="VT"/>
    <tag k="ref:vcgi:esiteid" v="145802"/>
  </node>
  <node id="-791" visible="true" lat="44.44637161" lon="-71.67603518">
    <tag k="addr:city" v="Lunenburg"/>
    <tag k="addr:housenumber" v="636"/>
    <tag k="addr:street" v="South Lunenburg Road"/>
    <tag k="addr:state" v="VT"/>
    <tag k="ref:vcgi:esiteid" v="145804"/>
  </node>
  <node id="-792" visible="true" lat="44.44558308" lon="-71.67542055">
    <tag k="addr:city" v="Lunenburg"/>
    <tag k="addr:housenumber" v="668"/>
    <tag k="addr:street" v="South Lunenburg Road"/>
    <tag k="addr:state" v="VT"/>
    <tag k="ref:vcgi:esiteid" v="145805"/>
  </node>
  <node id="-793" visible="true" lat="44.44505231" lon="-71.67472602">
    <tag k="addr:city" v="Lunenburg"/>
    <tag k="addr:housenumber" v="716"/>
    <tag k="addr:street" v="South Lunenburg Road"/>
    <tag k="addr:state" v="VT"/>
    <tag k="ref:vcgi:esiteid" v="145806"/>
  </node>
  <node id="-794" visible="true" lat="44.44476096" lon="-71.67394836">
    <tag k="addr:city" v="Lunenburg"/>
    <tag k="addr:housenumber" v="736"/>
    <tag k="addr:street" v="South Lunenburg Road"/>
    <tag k="addr:state" v="VT"/>
    <tag k="ref:vcgi:esiteid" v="145807"/>
  </node>
  <node id="-796" visible="true" lat="44.44385368" lon="-71.67334691">
    <tag k="addr:city" v="Lunenburg"/>
    <tag k="addr:housenumber" v="756"/>
    <tag k="addr:street" v="South Lunenburg Road"/>
    <tag k="addr:state" v="VT"/>
    <tag k="ref:vcgi:esiteid" v="145809"/>
  </node>
  <node id="-825" visible="true" lat="44.43992103" lon="-71.66992841">
    <tag k="addr:city" v="Lunenburg"/>
    <tag k="addr:housenumber" v="1054"/>
    <tag k="addr:street" v="River Road"/>
    <tag k="addr:state" v="VT"/>
    <tag k="ref:vcgi:esiteid" v="145838"/>
  </node>
  <node id="-826" visible="true" lat="44.43856119" lon="-71.67483335">
    <tag k="addr:city" v="Lunenburg"/>
    <tag k="addr:housenumber" v="966"/>
    <tag k="addr:street" v="South Lunenburg Road"/>
    <tag k="addr:state" v="VT"/>
    <tag k="ref:vcgi:esiteid" v="145839"/>
  </node>
  <node id="-829" visible="true" lat="44.43858036" lon="-71.67274328">
    <tag k="addr:city" v="Lunenburg"/>
    <tag k="addr:housenumber" v="1166"/>
    <tag k="addr:street" v="River Road"/>
    <tag k="addr:state" v="VT"/>
    <tag k="ref:vcgi:esiteid" v="145842"/>
  </node>
  <node id="-831" visible="true" lat="44.43638022" lon="-71.67908339">
    <tag k="addr:city" v="Lunenburg"/>
    <tag k="addr:housenumber" v="1356"/>
    <tag k="addr:street" v="River Road"/>
    <tag k="addr:state" v="VT"/>
    <tag k="ref:vcgi:esiteid" v="145844"/>
  </node>
  <node id="-833" visible="true" lat="44.43631637" lon="-71.6792651">
    <tag k="addr:city" v="Lunenburg"/>
    <tag k="addr:housenumber" v="1358"/>
    <tag k="addr:street" v="River Road"/>
    <tag k="addr:state" v="VT"/>
    <tag k="ref:vcgi:esiteid" v="145846"/>
  </node>
  <node id="-834" visible="true" lat="44.43544295" lon="-71.67987018">
    <tag k="addr:city" v="Lunenburg"/>
    <tag k="addr:housenumber" v="1396"/>
    <tag k="addr:street" v="River Road"/>
    <tag k="addr:state" v="VT"/>
    <tag k="ref:vcgi:esiteid" v="145847"/>
  </node>
  <node id="-835" visible="true" lat="44.43938121" lon="-71.69120549">
    <tag k="addr:city" v="Lunenburg"/>
    <tag k="addr:housenumber" v="974"/>
    <tag k="addr:street" v="Maillett Road"/>
    <tag k="addr:state" v="VT"/>
    <tag k="ref:vcgi:esiteid" v="145848"/>
  </node>
  <node id="-845" visible="true" lat="44.43404949" lon="-71.72839021">
    <tag k="addr:city" v="Lunenburg"/>
    <tag k="addr:housenumber" v="110"/>
    <tag k="addr:street" v="Thomas Road"/>
    <tag k="addr:state" v="VT"/>
    <tag k="ref:vcgi:esiteid" v="145859"/>
  </node>
  <node id="-848" visible="true" lat="44.43484176" lon="-71.7263938">
    <tag k="addr:city" v="Lunenburg"/>
    <tag k="addr:housenumber" v="60"/>
    <tag k="addr:street" v="Thomas Road"/>
    <tag k="addr:state" v="VT"/>
    <tag k="ref:vcgi:esiteid" v="145862"/>
  </node>
  <node id="-850" visible="true" lat="44.43388376" lon="-71.72585611">
    <tag k="addr:city" v="Lunenburg"/>
    <tag k="addr:housenumber" v="63"/>
    <tag k="addr:street" v="Thomas Road"/>
    <tag k="addr:state" v="VT"/>
    <tag k="ref:vcgi:esiteid" v="145864"/>
  </node>
  <node id="-851" visible="true" lat="44.43373087" lon="-71.72701162">
    <tag k="addr:city" v="Lunenburg"/>
    <tag k="addr:housenumber" v="111"/>
    <tag k="addr:street" v="Thomas Road"/>
    <tag k="addr:state" v="VT"/>
    <tag k="ref:vcgi:esiteid" v="145865"/>
  </node>
  <node id="-853" visible="true" lat="44.4338373" lon="-71.72406219">
    <tag k="addr:city" v="Lunenburg"/>
    <tag k="addr:housenumber" v="1340"/>
    <tag k="addr:street" v="Baptist Hill Road"/>
    <tag k="addr:state" v="VT"/>
    <tag k="ref:vcgi:esiteid" v="145867"/>
  </node>
  <node id="-854" visible="true" lat="44.43465264" lon="-71.68682818">
    <tag k="addr:city" v="Lunenburg"/>
    <tag k="addr:housenumber" v="1200"/>
    <tag k="addr:street" v="Maillett Road"/>
    <tag k="addr:state" v="VT"/>
    <tag k="ref:vcgi:esiteid" v="145868"/>
  </node>
  <node id="-856" visible="true" lat="44.43387649" lon="-71.68217315">
    <tag k="addr:city" v="Lunenburg"/>
    <tag k="addr:housenumber" v="1422"/>
    <tag k="addr:street" v="River Road"/>
    <tag k="addr:state" v="VT"/>
    <tag k="ref:vcgi:esiteid" v="145870"/>
  </node>
  <node id="-857" visible="true" lat="44.43459271" lon="-71.68060119">
    <tag k="addr:city" v="Lunenburg"/>
    <tag k="addr:housenumber" v="1430"/>
    <tag k="addr:street" v="River Road"/>
    <tag k="addr:state" v="VT"/>
    <tag k="ref:vcgi:esiteid" v="145871"/>
  </node>
  <node id="-858" visible="true" lat="44.43408105" lon="-71.68041563">
    <tag k="addr:city" v="Lunenburg"/>
    <tag k="addr:housenumber" v="1444"/>
    <tag k="addr:street" v="River Road"/>
    <tag k="addr:state" v="VT"/>
    <tag k="ref:vcgi:esiteid" v="145872"/>
  </node>
  <node id="-860" visible="true" lat="44.43351329" lon="-71.68013644">
    <tag k="addr:city" v="Lunenburg"/>
    <tag k="addr:housenumber" v="1462"/>
    <tag k="addr:street" v="River Road"/>
    <tag k="addr:state" v="VT"/>
    <tag k="ref:vcgi:esiteid" v="145874"/>
  </node>
  <node id="-866" visible="true" lat="44.43129974" lon="-71.67948504">
    <tag k="addr:city" v="Lunenburg"/>
    <tag k="addr:housenumber" v="1566"/>
    <tag k="addr:street" v="River Road"/>
    <tag k="addr:state" v="VT"/>
    <tag k="ref:vcgi:esiteid" v="145880"/>
  </node>
  <node id="-868" visible="true" lat="44.43350397" lon="-71.6796341">
    <tag k="addr:city" v="Lunenburg"/>
    <tag k="addr:housenumber" v="1449"/>
    <tag k="addr:street" v="River Road"/>
    <tag k="addr:state" v="VT"/>
    <tag k="ref:vcgi:esiteid" v="145882"/>
  </node>
  <node id="-869" visible="true" lat="44.43165621" lon="-71.67857264">
    <tag k="addr:city" v="Lunenburg"/>
    <tag k="addr:housenumber" v="1531"/>
    <tag k="addr:street" v="River Road"/>
    <tag k="addr:state" v="VT"/>
    <tag k="ref:vcgi:esiteid" v="145883"/>
  </node>
  <node id="-871" visible="true" lat="44.42942171" lon="-71.6798866">
    <tag k="addr:city" v="Lunenburg"/>
    <tag k="addr:housenumber" v="1445"/>
    <tag k="addr:street" v="Maillett Road"/>
    <tag k="addr:state" v="VT"/>
    <tag k="ref:vcgi:esiteid" v="145885"/>
  </node>
  <node id="-872" visible="true" lat="44.42930167" lon="-71.67776823">
    <tag k="addr:city" v="Lunenburg"/>
    <tag k="addr:housenumber" v="40"/>
    <tag k="addr:street" v="Grist Mill Road"/>
    <tag k="addr:state" v="VT"/>
    <tag k="ref:vcgi:esiteid" v="145886"/>
  </node>
  <node id="-873" visible="true" lat="44.42963267" lon="-71.67929482">
    <tag k="addr:city" v="Lunenburg"/>
    <tag k="addr:housenumber" v="1605"/>
    <tag k="addr:street" v="River Road"/>
    <tag k="addr:state" v="VT"/>
    <tag k="ref:vcgi:esiteid" v="145887"/>
  </node>
  <node id="-876" visible="true" lat="44.42781004" lon="-71.68413185">
    <tag k="addr:city" v="Lunenburg"/>
    <tag k="addr:housenumber" v="1756"/>
    <tag k="addr:street" v="River Road"/>
    <tag k="addr:state" v="VT"/>
    <tag k="ref:vcgi:esiteid" v="145890"/>
  </node>
  <node id="-877" visible="true" lat="44.42867376" lon="-71.68269701">
    <tag k="addr:city" v="Lunenburg"/>
    <tag k="addr:housenumber" v="1698"/>
    <tag k="addr:street" v="River Road"/>
    <tag k="addr:state" v="VT"/>
    <tag k="ref:vcgi:esiteid" v="145891"/>
  </node>
  <node id="-878" visible="true" lat="44.43006412" lon="-71.68288028">
    <tag k="addr:city" v="Lunenburg"/>
    <tag k="addr:housenumber" v="1412"/>
    <tag k="addr:street" v="Maillett Road"/>
    <tag k="addr:state" v="VT"/>
    <tag k="ref:vcgi:esiteid" v="145892"/>
  </node>
  <node id="-879" visible="true" lat="44.43019693" lon="-71.68147479">
    <tag k="addr:city" v="Lunenburg"/>
    <tag k="addr:housenumber" v="1401"/>
    <tag k="addr:street" v="Maillett Road"/>
    <tag k="addr:state" v="VT"/>
    <tag k="ref:vcgi:esiteid" v="145893"/>
  </node>
  <node id="-885" visible="true" lat="44.43030527" lon="-71.72065564">
    <tag k="addr:city" v="Lunenburg"/>
    <tag k="addr:housenumber" v="1465"/>
    <tag k="addr:street" v="Baptist Hill Road"/>
    <tag k="addr:state" v="VT"/>
    <tag k="ref:vcgi:esiteid" v="145899"/>
  </node>
  <node id="-891" visible="true" lat="44.42898535" lon="-71.71984378">
    <tag k="addr:city" v="Lunenburg"/>
    <tag k="addr:housenumber" v="1507"/>
    <tag k="addr:street" v="Baptist Hill Road"/>
    <tag k="addr:state" v="VT"/>
    <tag k="ref:vcgi:esiteid" v="145905"/>
  </node>
  <node id="-893" visible="true" lat="44.42734902" lon="-71.7195625">
    <tag k="addr:city" v="Lunenburg"/>
    <tag k="addr:housenumber" v="1565"/>
    <tag k="addr:street" v="Baptist Hill Road"/>
    <tag k="addr:state" v="VT"/>
    <tag k="ref:vcgi:esiteid" v="145907"/>
  </node>
  <node id="-897" visible="true" lat="44.43038062" lon="-71.73347885">
    <tag k="addr:city" v="Lunenburg"/>
    <tag k="addr:housenumber" v="298"/>
    <tag k="addr:street" v="Thomas Road"/>
    <tag k="addr:state" v="VT"/>
    <tag k="ref:vcgi:esiteid" v="145911"/>
  </node>
  <node id="-904" visible="true" lat="44.42667085" lon="-71.74795366">
    <tag k="addr:city" v="Lunenburg"/>
    <tag k="addr:housenumber" v="101"/>
    <tag k="addr:street" v="West Thomas Road"/>
    <tag k="addr:state" v="VT"/>
    <tag k="ref:vcgi:esiteid" v="145919"/>
  </node>
  <node id="-905" visible="true" lat="44.42541908" lon="-71.7461834">
    <tag k="addr:city" v="Lunenburg"/>
    <tag k="addr:housenumber" v="166"/>
    <tag k="addr:street" v="West Thomas Road"/>
    <tag k="addr:state" v="VT"/>
    <tag k="ref:vcgi:esiteid" v="145920"/>
  </node>
  <node id="-906" visible="true" lat="44.42554186" lon="-71.72020856">
    <tag k="addr:city" v="Lunenburg"/>
    <tag k="addr:housenumber" v="1628"/>
    <tag k="addr:street" v="Baptist Hill Road"/>
    <tag k="addr:state" v="VT"/>
    <tag k="ref:vcgi:esiteid" v="145921"/>
  </node>
  <node id="-908" visible="true" lat="44.42342673" lon="-71.71927179">
    <tag k="addr:city" v="Lunenburg"/>
    <tag k="addr:housenumber" v="1700"/>
    <tag k="addr:street" v="Baptist Hill Road"/>
    <tag k="addr:state" v="VT"/>
    <tag k="ref:vcgi:esiteid" v="145923"/>
  </node>
  <node id="-910" visible="true" lat="44.42273894" lon="-71.69106021">
    <tag k="addr:city" v="Lunenburg"/>
    <tag k="addr:housenumber" v="2042"/>
    <tag k="addr:street" v="River Road"/>
    <tag k="addr:state" v="VT"/>
    <tag k="ref:vcgi:esiteid" v="145925"/>
  </node>
  <node id="-911" visible="true" lat="44.42410179" lon="-71.68822645">
    <tag k="addr:city" v="Lunenburg"/>
    <tag k="addr:housenumber" v="1928"/>
    <tag k="addr:street" v="River Road"/>
    <tag k="addr:state" v="VT"/>
    <tag k="ref:vcgi:esiteid" v="145926"/>
  </node>
  <node id="-913" visible="true" lat="44.42235228" lon="-71.69214205">
    <tag k="addr:city" v="Lunenburg"/>
    <tag k="addr:housenumber" v="2060"/>
    <tag k="addr:street" v="River Road"/>
    <tag k="addr:state" v="VT"/>
    <tag k="ref:vcgi:esiteid" v="145928"/>
  </node>
  <node id="-915" visible="true" lat="44.42110496" lon="-71.69516542">
    <tag k="addr:city" v="Lunenburg"/>
    <tag k="addr:housenumber" v="2150"/>
    <tag k="addr:street" v="River Road"/>
    <tag k="addr:state" v="VT"/>
    <tag k="ref:vcgi:esiteid" v="145930"/>
  </node>
  <node id="-918" visible="true" lat="44.41875203" lon="-71.69700772">
    <tag k="addr:city" v="Lunenburg"/>
    <tag k="addr:housenumber" v="2251"/>
    <tag k="addr:street" v="River Road"/>
    <tag k="addr:state" v="VT"/>
    <tag k="ref:vcgi:esiteid" v="145933"/>
  </node>
  <node id="-919" visible="true" lat="44.42048951" lon="-71.69541308">
    <tag k="addr:city" v="Lunenburg"/>
    <tag k="addr:housenumber" v="2157"/>
    <tag k="addr:street" v="River Road"/>
    <tag k="addr:state" v="VT"/>
    <tag k="ref:vcgi:esiteid" v="145934"/>
  </node>
  <node id="-921" visible="true" lat="44.41884452" lon="-71.69824238">
    <tag k="addr:city" v="Lunenburg"/>
    <tag k="addr:housenumber" v="2256"/>
    <tag k="addr:street" v="River Road"/>
    <tag k="addr:state" v="VT"/>
    <tag k="ref:vcgi:esiteid" v="145937"/>
  </node>
  <node id="-924" visible="true" lat="44.41991083" lon="-71.6978753">
    <tag k="addr:city" v="Lunenburg"/>
    <tag k="addr:housenumber" v="2190"/>
    <tag k="addr:street" v="River Road"/>
    <tag k="addr:state" v="VT"/>
    <tag k="ref:vcgi:esiteid" v="145940"/>
  </node>
  <node id="-926" visible="true" lat="44.418242" lon="-71.69924731">
    <tag k="addr:city" v="Lunenburg"/>
    <tag k="addr:housenumber" v="2298"/>
    <tag k="addr:street" v="River Road"/>
    <tag k="addr:state" v="VT"/>
    <tag k="ref:vcgi:esiteid" v="145942"/>
  </node>
  <node id="-927" visible="true" lat="44.42228881" lon="-71.71750073">
    <tag k="addr:city" v="Lunenburg"/>
    <tag k="addr:housenumber" v="1763"/>
    <tag k="addr:street" v="Baptist Hill Road"/>
    <tag k="addr:state" v="VT"/>
    <tag k="ref:vcgi:esiteid" v="145943"/>
  </node>
  <node id="-928" visible="true" lat="44.42131453" lon="-71.7192175">
    <tag k="addr:city" v="Lunenburg"/>
    <tag k="addr:housenumber" v="1764"/>
    <tag k="addr:street" v="Baptist Hill Road"/>
    <tag k="addr:state" v="VT"/>
    <tag k="ref:vcgi:esiteid" v="145944"/>
  </node>
  <node id="-929" visible="true" lat="44.42126267" lon="-71.71870254">
    <tag k="addr:city" v="Lunenburg"/>
    <tag k="addr:housenumber" v="1788"/>
    <tag k="addr:street" v="Baptist Hill Road"/>
    <tag k="addr:state" v="VT"/>
    <tag k="ref:vcgi:esiteid" v="145945"/>
  </node>
  <node id="-930" visible="true" lat="44.41909663" lon="-71.71700907">
    <tag k="addr:city" v="Lunenburg"/>
    <tag k="addr:housenumber" v="1886"/>
    <tag k="addr:street" v="Baptist Hill Road"/>
    <tag k="addr:state" v="VT"/>
    <tag k="ref:vcgi:esiteid" v="145946"/>
  </node>
  <node id="-976" visible="true" lat="44.41664832" lon="-71.7162919">
    <tag k="addr:city" v="Lunenburg"/>
    <tag k="addr:housenumber" v="1958"/>
    <tag k="addr:street" v="Baptist Hill Road"/>
    <tag k="addr:state" v="VT"/>
    <tag k="ref:vcgi:esiteid" v="145992"/>
  </node>
  <node id="-978" visible="true" lat="44.41706798" lon="-71.71665307">
    <tag k="addr:city" v="Lunenburg"/>
    <tag k="addr:housenumber" v="1956"/>
    <tag k="addr:street" v="Baptist Hill Road"/>
    <tag k="addr:state" v="VT"/>
    <tag k="ref:vcgi:esiteid" v="145994"/>
  </node>
  <node id="-979" visible="true" lat="44.41730135" lon="-71.71735162">
    <tag k="addr:city" v="Lunenburg"/>
    <tag k="addr:housenumber" v="1946"/>
    <tag k="addr:street" v="Baptist Hill Road"/>
    <tag k="addr:state" v="VT"/>
    <tag k="ref:vcgi:esiteid" v="145995"/>
  </node>
  <node id="-987" visible="true" lat="44.41493832" lon="-71.70864456">
    <tag k="addr:city" v="Lunenburg"/>
    <tag k="addr:housenumber" v="2582"/>
    <tag k="addr:street" v="River Road"/>
    <tag k="addr:state" v="VT"/>
    <tag k="ref:vcgi:esiteid" v="146003"/>
  </node>
  <node id="-989" visible="true" lat="44.41496021" lon="-71.70767952">
    <tag k="addr:city" v="Lunenburg"/>
    <tag k="addr:housenumber" v="2556"/>
    <tag k="addr:street" v="River Road"/>
    <tag k="addr:state" v="VT"/>
    <tag k="ref:vcgi:esiteid" v="146005"/>
  </node>
  <node id="-991" visible="true" lat="44.41501447" lon="-71.70726418">
    <tag k="addr:city" v="Lunenburg"/>
    <tag k="addr:housenumber" v="2548"/>
    <tag k="addr:street" v="River Road"/>
    <tag k="addr:state" v="VT"/>
    <tag k="ref:vcgi:esiteid" v="146007"/>
  </node>
  <node id="-992" visible="true" lat="44.41522252" lon="-71.706775">
    <tag k="addr:city" v="Lunenburg"/>
    <tag k="addr:housenumber" v="2534"/>
    <tag k="addr:street" v="River Road"/>
    <tag k="addr:state" v="VT"/>
    <tag k="ref:vcgi:esiteid" v="146008"/>
  </node>
  <node id="-993" visible="true" lat="44.41472061" lon="-71.70691733">
    <tag k="addr:city" v="Lunenburg"/>
    <tag k="addr:housenumber" v="2531"/>
    <tag k="addr:street" v="River Road"/>
    <tag k="addr:state" v="VT"/>
    <tag k="ref:vcgi:esiteid" v="146009"/>
  </node>
  <node id="-996" visible="true" lat="44.41543867" lon="-71.70498608">
    <tag k="addr:city" v="Lunenburg"/>
    <tag k="addr:housenumber" v="2482"/>
    <tag k="addr:street" v="River Road"/>
    <tag k="addr:state" v="VT"/>
    <tag k="ref:vcgi:esiteid" v="146012"/>
  </node>
  <node id="-998" visible="true" lat="44.41592991" lon="-71.70331301">
    <tag k="addr:city" v="Lunenburg"/>
    <tag k="addr:housenumber" v="2418"/>
    <tag k="addr:street" v="River Road"/>
    <tag k="addr:state" v="VT"/>
    <tag k="ref:vcgi:esiteid" v="146014"/>
  </node>
  <node id="-1000" visible="true" lat="44.4165121" lon="-71.70157488">
    <tag k="addr:city" v="Lunenburg"/>
    <tag k="addr:housenumber" v="2382"/>
    <tag k="addr:street" v="River Road"/>
    <tag k="addr:state" v="VT"/>
    <tag k="ref:vcgi:esiteid" v="146016"/>
  </node>
  <node id="-1001" visible="true" lat="44.41726966" lon="-71.70203501">
    <tag k="addr:city" v="Lunenburg"/>
    <tag k="addr:housenumber" v="2358"/>
    <tag k="addr:street" v="River Road"/>
    <tag k="addr:state" v="VT"/>
    <tag k="ref:vcgi:esiteid" v="146017"/>
  </node>
  <node id="-1003" visible="true" lat="44.41780899" lon="-71.69989076">
    <tag k="addr:city" v="Lunenburg"/>
    <tag k="addr:housenumber" v="2312"/>
    <tag k="addr:street" v="River Road"/>
    <tag k="addr:state" v="VT"/>
    <tag k="ref:vcgi:esiteid" v="146019"/>
  </node>
  <node id="-1006" visible="true" lat="44.41786464" lon="-71.69886141">
    <tag k="addr:city" v="Lunenburg"/>
    <tag k="addr:housenumber" v="2311"/>
    <tag k="addr:street" v="River Road"/>
    <tag k="addr:state" v="VT"/>
    <tag k="ref:vcgi:esiteid" v="146022"/>
  </node>
  <node id="-1007" visible="true" lat="44.41513812" lon="-71.70408985">
    <tag k="addr:city" v="Lunenburg"/>
    <tag k="addr:housenumber" v="2451"/>
    <tag k="addr:street" v="River Road"/>
    <tag k="addr:state" v="VT"/>
    <tag k="ref:vcgi:esiteid" v="146023"/>
  </node>
  <node id="-1128" visible="true" lat="44.4775903" lon="-71.64406788">
    <tag k="addr:city" v="Lunenburg"/>
    <tag k="addr:housenumber" v="507"/>
    <tag k="addr:street" v="Lancaster Road"/>
    <tag k="addr:state" v="VT"/>
    <tag k="ref:vcgi:esiteid" v="146160"/>
  </node>
  <node id="-1153" visible="true" lat="44.43353309" lon="-71.72192516">
    <tag k="addr:city" v="Lunenburg"/>
    <tag k="addr:housenumber" v="1359"/>
    <tag k="addr:street" v="Baptist Hill Road"/>
    <tag k="addr:state" v="VT"/>
    <tag k="ref:vcgi:esiteid" v="146187"/>
  </node>
  <node id="-1157" visible="true" lat="44.42527229" lon="-71.74262577">
    <tag k="addr:city" v="Lunenburg"/>
    <tag k="addr:housenumber" v="246"/>
    <tag k="addr:street" v="West Thomas Road"/>
    <tag k="addr:state" v="VT"/>
    <tag k="ref:vcgi:esiteid" v="146191"/>
  </node>
  <node id="-1170" visible="true" lat="44.41985273" lon="-71.69564013">
    <tag k="addr:city" v="Lunenburg"/>
    <tag k="addr:housenumber" v="2183"/>
    <tag k="addr:street" v="River Road"/>
    <tag k="addr:state" v="VT"/>
    <tag k="ref:vcgi:esiteid" v="146211"/>
  </node>
  <node id="-1171" visible="true" lat="44.42092957" lon="-71.69611439">
    <tag k="addr:city" v="Lunenburg"/>
    <tag k="addr:housenumber" v="2172"/>
    <tag k="addr:street" v="River Road"/>
    <tag k="addr:state" v="VT"/>
    <tag k="ref:vcgi:esiteid" v="146212"/>
  </node>
  <node id="-1176" visible="true" lat="44.43067481" lon="-71.68317543">
    <tag k="addr:city" v="Lunenburg"/>
    <tag k="addr:housenumber" v="1380"/>
    <tag k="addr:street" v="Maillett Road"/>
    <tag k="addr:state" v="VT"/>
    <tag k="ref:vcgi:esiteid" v="146218"/>
  </node>
  <node id="-1181" visible="true" lat="44.43997705" lon="-71.6736758">
    <tag k="addr:city" v="Lunenburg"/>
    <tag k="addr:housenumber" v="925"/>
    <tag k="addr:street" v="South Lunenburg Road"/>
    <tag k="addr:state" v="VT"/>
    <tag k="ref:vcgi:esiteid" v="146223"/>
  </node>
  <node id="-1182" visible="true" lat="44.44377509" lon="-71.67238166">
    <tag k="addr:city" v="Lunenburg"/>
    <tag k="addr:housenumber" v="759"/>
    <tag k="addr:street" v="South Lunenburg Road"/>
    <tag k="addr:state" v="VT"/>
    <tag k="ref:vcgi:esiteid" v="146224"/>
  </node>
  <node id="-1202" visible="true" lat="44.45960629" lon="-71.67981605">
    <tag k="addr:city" v="Lunenburg"/>
    <tag k="addr:housenumber" v="3"/>
    <tag k="addr:street" v="White Oak Lane"/>
    <tag k="addr:state" v="VT"/>
    <tag k="ref:vcgi:esiteid" v="146247"/>
  </node>
  <node id="-1205" visible="true" lat="44.4516321" lon="-71.67762521">
    <tag k="addr:city" v="Lunenburg"/>
    <tag k="addr:housenumber" v="480"/>
    <tag k="addr:street" v="South Lunenburg Road"/>
    <tag k="addr:state" v="VT"/>
    <tag k="ref:vcgi:esiteid" v="146250"/>
  </node>
  <node id="-1228" visible="true" lat="44.49783884" lon="-71.66015048">
    <tag k="addr:city" v="Lunenburg"/>
    <tag k="addr:housenumber" v="1485"/>
    <tag k="addr:street" v="Bobbin Mill Road"/>
    <tag k="addr:state" v="VT"/>
    <tag k="ref:vcgi:esiteid" v="146274"/>
  </node>
  <node id="-1230" visible="true" lat="44.4770983" lon="-71.64973948">
    <tag k="addr:city" v="Lunenburg"/>
    <tag k="addr:housenumber" v="2333"/>
    <tag k="addr:street" v="Bobbin Mill Road"/>
    <tag k="addr:state" v="VT"/>
    <tag k="ref:vcgi:esiteid" v="146277"/>
  </node>
  <node id="-1242" visible="true" lat="44.46374084" lon="-71.66112045">
    <tag k="addr:city" v="Lunenburg"/>
    <tag k="addr:housenumber" v="564"/>
    <tag k="addr:street" v="East Main Street"/>
    <tag k="addr:state" v="VT"/>
    <tag k="ref:vcgi:esiteid" v="146290"/>
  </node>
  <node id="-1291" visible="true" lat="44.48503263" lon="-71.62599797">
    <tag k="addr:city" v="Lunenburg"/>
    <tag k="addr:housenumber" v="1083"/>
    <tag k="addr:street" v="Lancaster Road"/>
    <tag k="addr:state" v="VT"/>
    <tag k="ref:vcgi:esiteid" v="146341"/>
  </node>
  <node id="-1292" visible="true" lat="44.48448234" lon="-71.62435475">
    <tag k="addr:city" v="Lunenburg"/>
    <tag k="addr:housenumber" v="1133"/>
    <tag k="addr:street" v="Lancaster Road"/>
    <tag k="addr:state" v="VT"/>
    <tag k="ref:vcgi:esiteid" v="146342"/>
  </node>
  <node id="-1294" visible="true" lat="44.48086635" lon="-71.62211167">
    <tag k="addr:city" v="Lunenburg"/>
    <tag k="addr:housenumber" v="135"/>
    <tag k="addr:street" v="Auburn Star Road"/>
    <tag k="addr:state" v="VT"/>
    <tag k="ref:vcgi:esiteid" v="146344"/>
  </node>
  <node id="-1296" visible="true" lat="44.4868326" lon="-71.6170631">
    <tag k="addr:city" v="Lunenburg"/>
    <tag k="addr:housenumber" v="1379"/>
    <tag k="addr:street" v="Lancaster Road"/>
    <tag k="addr:state" v="VT"/>
    <tag k="ref:vcgi:esiteid" v="146346"/>
  </node>
  <node id="-1297" visible="true" lat="44.4868674" lon="-71.61623085">
    <tag k="addr:city" v="Lunenburg"/>
    <tag k="addr:housenumber" v="1383"/>
    <tag k="addr:street" v="Lancaster Road"/>
    <tag k="addr:state" v="VT"/>
    <tag k="ref:vcgi:esiteid" v="146347"/>
  </node>
  <node id="-1298" visible="true" lat="44.48426915" lon="-71.65782057">
    <tag k="addr:city" v="Lunenburg"/>
    <tag k="addr:housenumber" v="125"/>
    <tag k="addr:street" v="Powell Road"/>
    <tag k="addr:state" v="VT"/>
    <tag k="ref:vcgi:esiteid" v="146348"/>
  </node>
  <node id="-1315" visible="true" lat="44.46124822" lon="-71.66338211">
    <tag k="addr:city" v="Lunenburg"/>
    <tag k="addr:housenumber" v="47"/>
    <tag k="addr:street" v="Transfer Station Road"/>
    <tag k="addr:state" v="VT"/>
    <tag k="ref:vcgi:esiteid" v="146373"/>
  </node>
  <node id="-1327" visible="true" lat="44.47621612" lon="-71.64954305">
    <tag k="addr:city" v="Lunenburg"/>
    <tag k="addr:housenumber" v="2340"/>
    <tag k="addr:street" v="Bobbin Mill Road"/>
    <tag k="addr:state" v="VT"/>
    <tag k="ref:vcgi:esiteid" v="341402"/>
  </node>
  <node id="-1334" visible="true" lat="44.42346974" lon="-71.69063118">
    <tag k="addr:city" v="Lunenburg"/>
    <tag k="addr:housenumber" v="1992"/>
    <tag k="addr:street" v="River Road"/>
    <tag k="addr:state" v="VT"/>
    <tag k="ref:vcgi:esiteid" v="346188"/>
  </node>
  <node id="-1335" visible="true" lat="44.4242972" lon="-71.68996187">
    <tag k="addr:city" v="Lunenburg"/>
    <tag k="addr:housenumber" v="1978"/>
    <tag k="addr:street" v="River Road"/>
    <tag k="addr:state" v="VT"/>
    <tag k="ref:vcgi:esiteid" v="346189"/>
  </node>
  <node id="-1360" visible="true" lat="44.47699866" lon="-71.65046784">
    <tag k="addr:city" v="Lunenburg"/>
    <tag k="addr:housenumber" v="2310"/>
    <tag k="addr:street" v="Bobbin Mill Road"/>
    <tag k="addr:state" v="VT"/>
    <tag k="ref:vcgi:esiteid" v="446343"/>
  </node>
  <node id="-1361" visible="true" lat="44.47776595" lon="-71.64990464">
    <tag k="addr:city" v="Lunenburg"/>
    <tag k="addr:housenumber" v="2303"/>
    <tag k="addr:street" v="Bobbin Mill Road"/>
    <tag k="addr:state" v="VT"/>
    <tag k="ref:vcgi:esiteid" v="446344"/>
  </node>
  <node id="-1373" visible="true" lat="44.45850125" lon="-71.68463355">
    <tag k="addr:city" v="Lunenburg"/>
    <tag k="addr:housenumber" v="164"/>
    <tag k="addr:street" v="South Lunenburg Road"/>
    <tag k="addr:state" v="VT"/>
    <tag k="ref:vcgi:esiteid" v="452631"/>
  </node>
  <node id="-1380" visible="true" lat="44.4845751" lon="-71.65576842">
    <tag k="addr:city" v="Lunenburg"/>
    <tag k="addr:housenumber" v="47"/>
    <tag k="addr:street" v="Powell Road"/>
    <tag k="addr:state" v="VT"/>
    <tag k="ref:vcgi:esiteid" v="452656"/>
  </node>
  <node id="-1381" visible="true" lat="44.4214602" lon="-71.69736086">
    <tag k="addr:city" v="Lunenburg"/>
    <tag k="addr:housenumber" v="2176"/>
    <tag k="addr:street" v="River Road"/>
    <tag k="addr:state" v="VT"/>
    <tag k="ref:vcgi:esiteid" v="452657"/>
  </node>
  <node id="-1391" visible="true" lat="44.41237496" lon="-71.7335354">
    <tag k="addr:city" v="Lunenburg"/>
    <tag k="addr:housenumber" v="56"/>
    <tag k="addr:street" v="East Concord Road"/>
    <tag k="addr:state" v="VT"/>
    <tag k="ref:vcgi:esiteid" v="454578"/>
  </node>
  <node id="-1398" visible="true" lat="44.42248595" lon="-71.71863246">
    <tag k="addr:city" v="Lunenburg"/>
    <tag k="addr:housenumber" v="1750"/>
    <tag k="addr:street" v="Baptist Hill Road"/>
    <tag k="addr:state" v="VT"/>
    <tag k="ref:vcgi:esiteid" v="454586"/>
  </node>
  <node id="-1402" visible="true" lat="44.43021416" lon="-71.68878206">
    <tag k="addr:city" v="Lunenburg"/>
    <tag k="addr:housenumber" v="1912"/>
    <tag k="addr:street" v="River Road"/>
    <tag k="addr:state" v="VT"/>
    <tag k="ref:vcgi:esiteid" v="454590"/>
  </node>
  <node id="-1404" visible="true" lat="44.41598466" lon="-71.70283906">
    <tag k="addr:city" v="Lunenburg"/>
    <tag k="addr:housenumber" v="2408"/>
    <tag k="addr:street" v="River Road"/>
    <tag k="addr:state" v="VT"/>
    <tag k="ref:vcgi:esiteid" v="454592"/>
  </node>
  <node id="-1405" visible="true" lat="44.4156313" lon="-71.70266878">
    <tag k="addr:city" v="Lunenburg"/>
    <tag k="addr:housenumber" v="2449"/>
    <tag k="addr:street" v="River Road"/>
    <tag k="addr:state" v="VT"/>
    <tag k="ref:vcgi:esiteid" v="454593"/>
  </node>
  <node id="-1417" visible="true" lat="44.48314397" lon="-71.62443337">
    <tag k="addr:city" v="Lunenburg"/>
    <tag k="addr:housenumber" v="8"/>
    <tag k="addr:street" v="Auburn Star Road"/>
    <tag k="addr:state" v="VT"/>
    <tag k="ref:vcgi:esiteid" v="454607"/>
  </node>
  <node id="-1420" visible="true" lat="44.46437875" lon="-71.65838981">
    <tag k="addr:city" v="Lunenburg"/>
    <tag k="addr:housenumber" v="622"/>
    <tag k="addr:street" v="East Main Street"/>
    <tag k="addr:state" v="VT"/>
    <tag k="ref:vcgi:esiteid" v="454610"/>
  </node>
  <node id="-1428" visible="true" lat="44.45501742" lon="-71.67902394">
    <tag k="addr:city" v="Lunenburg"/>
    <tag k="addr:housenumber" v="311"/>
    <tag k="addr:street" v="South Lunenburg Road"/>
    <tag k="addr:state" v="VT"/>
    <tag k="ref:vcgi:esiteid" v="610966"/>
  </node>
  <node id="-1430" visible="true" lat="44.4866828" lon="-71.6219349">
    <tag k="addr:city" v="Lunenburg"/>
    <tag k="addr:housenumber" v="1195"/>
    <tag k="addr:street" v="Lancaster Road"/>
    <tag k="addr:state" v="VT"/>
    <tag k="ref:vcgi:esiteid" v="610968"/>
  </node>
  <node id="-1431" visible="true" lat="44.48104593" lon="-71.62210494">
    <tag k="addr:city" v="Lunenburg"/>
    <tag k="addr:housenumber" v="103"/>
    <tag k="addr:street" v="Auburn Star Road"/>
    <tag k="addr:state" v="VT"/>
    <tag k="ref:vcgi:esiteid" v="611055"/>
  </node>
  <node id="-1459" visible="true" lat="44.49204749" lon="-71.65638346">
    <tag k="addr:city" v="Lunenburg"/>
    <tag k="addr:housenumber" v="1774"/>
    <tag k="addr:street" v="Bobbin Mill Road"/>
    <tag k="addr:state" v="VT"/>
    <tag k="ref:vcgi:esiteid" v="700124"/>
  </node>
  <node id="-1464" visible="true" lat="44.42106364" lon="-71.73602061">
    <tag k="addr:city" v="Lunenburg"/>
    <tag k="addr:housenumber" v="299"/>
    <tag k="addr:street" v="Dow Drive"/>
    <tag k="addr:state" v="VT"/>
    <tag k="ref:vcgi:esiteid" v="752264"/>
  </node>
</osm>
