<?xml version="1.0" encoding="UTF-8"?>
<osm version="0.6" generator="JOSM">
  <node id="-827" visible="true" lat="44.44200114" lon="-71.66603867">
    <!-- offset: "1052 River Road, Lunenburg, VT" Significant offset - 334.1m -->
    <tag k="addr:city" v="Lunenburg"/>
    <tag k="addr:housenumber" v="1052"/>
    <tag k="addr:street" v="River Road"/>
    <tag k="addr:state" v="VT"/>
    <tag k="ref:vcgi:esiteid" v="145837"/>
  </node>
  <node id="-1335" visible="true" lat="44.45838906" lon="-71.66221933">
    <!-- offset: "250 Sunrise Acres, Lunenburg, VT" Significant offset - 340.2m -->
    <tag k="addr:city" v="Lunenburg"/>
    <tag k="addr:housenumber" v="250"/>
    <tag k="addr:street" v="Sunrise Acres"/>
    <tag k="addr:state" v="VT"/>
    <tag k="ref:vcgi:esiteid" v="327129"/>
  </node>
  <node id="-1493" visible="true" lat="44.47835641" lon="-71.64252976">
    <!-- offset: "575 Lancaster Road, Lunenburg, VT" Significant offset - 137.1m -->
    <tag k="addr:city" v="Lunenburg"/>
    <tag k="addr:housenumber" v="575"/>
    <tag k="addr:street" v="Lancaster Road"/>
    <tag k="addr:state" v="VT"/>
    <tag k="ref:vcgi:esiteid" v="1050770"/>
  </node>
</osm>
