<?xml version="1.0" encoding="UTF-8"?>
<osm version="0.6" generator="JOSM">
  <node id="-204" visible="true" lat="44.57851069" lon="-72.0614529">
    <tag k="addr:city" v="Lyndon"/>
    <tag k="addr:housenumber" v="3740"/>
    <tag k="addr:street" v="Gilman Road"/>
    <tag k="addr:state" v="VT"/>
    <tag k="ref:vcgi:esiteid" v="146483"/>
  </node>
  <node id="-522" visible="true" lat="44.54837999" lon="-72.01452438">
    <tag k="addr:city" v="Lyndon"/>
    <tag k="addr:housenumber" v="3"/>
    <tag k="addr:street" v="Commercial Lane"/>
    <tag k="addr:state" v="VT"/>
    <tag k="ref:vcgi:esiteid" v="146805"/>
  </node>
  <node id="-1094" visible="true" lat="44.53532409" lon="-72.04912567">
    <tag k="addr:city" v="Lyndon"/>
    <tag k="addr:housenumber" v="2559"/>
    <tag k="addr:street" v="South Wheelock Road"/>
    <tag k="addr:state" v="VT"/>
    <tag k="ref:vcgi:esiteid" v="147424"/>
  </node>
  <node id="-1132" visible="true" lat="44.53470611" lon="-72.04644775">
    <tag k="addr:city" v="Lyndon"/>
    <tag k="addr:housenumber" v="2439"/>
    <tag k="addr:street" v="South Wheelock Road"/>
    <tag k="addr:state" v="VT"/>
    <tag k="ref:vcgi:esiteid" v="147467"/>
  </node>
  <node id="-1166" visible="true" lat="44.53398822" lon="-71.98741658">
    <tag k="addr:city" v="Lyndon"/>
    <tag k="addr:housenumber" v="1632"/>
    <tag k="addr:street" v="Lily Pond Road"/>
    <tag k="addr:state" v="VT"/>
    <tag k="ref:vcgi:esiteid" v="147507"/>
  </node>
  <node id="-1211" visible="true" lat="44.53322117" lon="-71.99074416">
    <tag k="addr:city" v="Lyndon"/>
    <tag k="addr:housenumber" v="156"/>
    <tag k="addr:street" v="Hill Street"/>
    <tag k="addr:state" v="VT"/>
    <tag k="ref:vcgi:esiteid" v="147557"/>
  </node>
  <node id="-1223" visible="true" lat="44.53332816" lon="-71.98717521">
    <tag k="addr:city" v="Lyndon"/>
    <tag k="addr:housenumber" v="1580"/>
    <tag k="addr:street" v="Lily Pond Road"/>
    <tag k="addr:state" v="VT"/>
    <tag k="ref:vcgi:esiteid" v="147572"/>
  </node>
  <node id="-1245" visible="true" lat="44.53264943" lon="-71.99235421">
    <tag k="addr:city" v="Lyndon"/>
    <tag k="addr:housenumber" v="21"/>
    <tag k="addr:street" v="Daniel Drive"/>
    <tag k="addr:state" v="VT"/>
    <tag k="ref:vcgi:esiteid" v="147603"/>
  </node>
  <node id="-1246" visible="true" lat="44.5326237" lon="-71.99291825">
    <tag k="addr:city" v="Lyndon"/>
    <tag k="addr:housenumber" v="19"/>
    <tag k="addr:street" v="Ray Avenue"/>
    <tag k="addr:state" v="VT"/>
    <tag k="ref:vcgi:esiteid" v="147604"/>
  </node>
  <node id="-1252" visible="true" lat="44.53248588" lon="-71.99289477">
    <tag k="addr:city" v="Lyndon"/>
    <tag k="addr:housenumber" v="29"/>
    <tag k="addr:street" v="Ray Avenue"/>
    <tag k="addr:state" v="VT"/>
    <tag k="ref:vcgi:esiteid" v="147611"/>
  </node>
  <node id="-1253" visible="true" lat="44.53251031" lon="-71.9923063">
    <tag k="addr:city" v="Lyndon"/>
    <tag k="addr:housenumber" v="31"/>
    <tag k="addr:street" v="Daniel Drive"/>
    <tag k="addr:state" v="VT"/>
    <tag k="ref:vcgi:esiteid" v="147612"/>
  </node>
  <node id="-1258" visible="true" lat="44.53233439" lon="-71.99342047">
    <tag k="addr:city" v="Lyndon"/>
    <tag k="addr:housenumber" v="32"/>
    <tag k="addr:street" v="Ray Avenue"/>
    <tag k="addr:state" v="VT"/>
    <tag k="ref:vcgi:esiteid" v="147617"/>
  </node>
  <node id="-1259" visible="true" lat="44.53235918" lon="-71.99286654">
    <tag k="addr:city" v="Lyndon"/>
    <tag k="addr:housenumber" v="35"/>
    <tag k="addr:street" v="Ray Avenue"/>
    <tag k="addr:state" v="VT"/>
    <tag k="ref:vcgi:esiteid" v="147618"/>
  </node>
  <node id="-1260" visible="true" lat="44.53237448" lon="-71.99227052">
    <tag k="addr:city" v="Lyndon"/>
    <tag k="addr:housenumber" v="37"/>
    <tag k="addr:street" v="Daniel Drive"/>
    <tag k="addr:state" v="VT"/>
    <tag k="ref:vcgi:esiteid" v="147619"/>
  </node>
  <node id="-1264" visible="true" lat="44.53224642" lon="-71.99223937">
    <tag k="addr:city" v="Lyndon"/>
    <tag k="addr:housenumber" v="47"/>
    <tag k="addr:street" v="Daniel Drive"/>
    <tag k="addr:state" v="VT"/>
    <tag k="ref:vcgi:esiteid" v="147624"/>
  </node>
  <node id="-1269" visible="true" lat="44.53221389" lon="-71.9928426">
    <tag k="addr:city" v="Lyndon"/>
    <tag k="addr:housenumber" v="49"/>
    <tag k="addr:street" v="Ray Avenue"/>
    <tag k="addr:state" v="VT"/>
    <tag k="ref:vcgi:esiteid" v="147629"/>
  </node>
  <node id="-1273" visible="true" lat="44.53212831" lon="-71.99336508">
    <tag k="addr:city" v="Lyndon"/>
    <tag k="addr:housenumber" v="52"/>
    <tag k="addr:street" v="Ray Avenue"/>
    <tag k="addr:state" v="VT"/>
    <tag k="ref:vcgi:esiteid" v="147633"/>
  </node>
  <node id="-1275" visible="true" lat="44.53210162" lon="-71.99220237">
    <tag k="addr:city" v="Lyndon"/>
    <tag k="addr:housenumber" v="59"/>
    <tag k="addr:street" v="Daniel Drive"/>
    <tag k="addr:state" v="VT"/>
    <tag k="ref:vcgi:esiteid" v="147635"/>
  </node>
  <node id="-1278" visible="true" lat="44.53208725" lon="-71.99280419">
    <tag k="addr:city" v="Lyndon"/>
    <tag k="addr:housenumber" v="59"/>
    <tag k="addr:street" v="Ray Avenue"/>
    <tag k="addr:state" v="VT"/>
    <tag k="ref:vcgi:esiteid" v="147638"/>
  </node>
  <node id="-1283" visible="true" lat="44.53191471" lon="-71.99332924">
    <tag k="addr:city" v="Lyndon"/>
    <tag k="addr:housenumber" v="64"/>
    <tag k="addr:street" v="Ray Avenue"/>
    <tag k="addr:state" v="VT"/>
    <tag k="ref:vcgi:esiteid" v="147643"/>
  </node>
  <node id="-1285" visible="true" lat="44.5319554" lon="-71.99276957">
    <tag k="addr:city" v="Lyndon"/>
    <tag k="addr:housenumber" v="69"/>
    <tag k="addr:street" v="Ray Avenue"/>
    <tag k="addr:state" v="VT"/>
    <tag k="ref:vcgi:esiteid" v="147645"/>
  </node>
  <node id="-1286" visible="true" lat="44.53196951" lon="-71.9921757">
    <tag k="addr:city" v="Lyndon"/>
    <tag k="addr:housenumber" v="69"/>
    <tag k="addr:street" v="Daniel Drive"/>
    <tag k="addr:state" v="VT"/>
    <tag k="ref:vcgi:esiteid" v="147646"/>
  </node>
  <node id="-1290" visible="true" lat="44.53175076" lon="-71.9933001">
    <tag k="addr:city" v="Lyndon"/>
    <tag k="addr:housenumber" v="76"/>
    <tag k="addr:street" v="Ray Avenue"/>
    <tag k="addr:state" v="VT"/>
    <tag k="ref:vcgi:esiteid" v="147650"/>
  </node>
  <node id="-1291" visible="true" lat="44.53181047" lon="-71.99271686">
    <tag k="addr:city" v="Lyndon"/>
    <tag k="addr:housenumber" v="79"/>
    <tag k="addr:street" v="Ray Avenue"/>
    <tag k="addr:state" v="VT"/>
    <tag k="ref:vcgi:esiteid" v="147651"/>
  </node>
  <node id="-1292" visible="true" lat="44.53183352" lon="-71.99213817">
    <tag k="addr:city" v="Lyndon"/>
    <tag k="addr:housenumber" v="77"/>
    <tag k="addr:street" v="Daniel Drive"/>
    <tag k="addr:state" v="VT"/>
    <tag k="ref:vcgi:esiteid" v="147652"/>
  </node>
  <node id="-1296" visible="true" lat="44.53165555" lon="-71.9921276">
    <tag k="addr:city" v="Lyndon"/>
    <tag k="addr:housenumber" v="81"/>
    <tag k="addr:street" v="Daniel Drive"/>
    <tag k="addr:state" v="VT"/>
    <tag k="ref:vcgi:esiteid" v="147656"/>
  </node>
  <node id="-1298" visible="true" lat="44.53154074" lon="-71.99309079">
    <tag k="addr:city" v="Lyndon"/>
    <tag k="addr:housenumber" v="90"/>
    <tag k="addr:street" v="Ray Avenue"/>
    <tag k="addr:state" v="VT"/>
    <tag k="ref:vcgi:esiteid" v="147659"/>
  </node>
  <node id="-1299" visible="true" lat="44.53155846" lon="-71.99029884">
    <tag k="addr:city" v="Lyndon"/>
    <tag k="addr:housenumber" v="81"/>
    <tag k="addr:street" v="Hill Street"/>
    <tag k="addr:state" v="VT"/>
    <tag k="ref:vcgi:esiteid" v="147660"/>
  </node>
  <node id="-1304" visible="true" lat="44.53148028" lon="-71.99268454">
    <tag k="addr:city" v="Lyndon"/>
    <tag k="addr:housenumber" v="101"/>
    <tag k="addr:street" v="Ray Avenue"/>
    <tag k="addr:state" v="VT"/>
    <tag k="ref:vcgi:esiteid" v="147665"/>
  </node>
  <node id="-1306" visible="true" lat="44.53166961" lon="-72.0434494">
    <tag k="addr:city" v="Lyndon"/>
    <tag k="addr:housenumber" v="2153"/>
    <tag k="addr:street" v="South Wheelock Road"/>
    <tag k="addr:state" v="VT"/>
    <tag k="ref:vcgi:esiteid" v="147667"/>
  </node>
  <node id="-1307" visible="true" lat="44.53130702" lon="-71.99300338">
    <tag k="addr:city" v="Lyndon"/>
    <tag k="addr:housenumber" v="106"/>
    <tag k="addr:street" v="Ray Avenue"/>
    <tag k="addr:state" v="VT"/>
    <tag k="ref:vcgi:esiteid" v="147668"/>
  </node>
  <node id="-1308" visible="true" lat="44.53135011" lon="-71.99264072">
    <tag k="addr:city" v="Lyndon"/>
    <tag k="addr:housenumber" v="109"/>
    <tag k="addr:street" v="Ray Avenue"/>
    <tag k="addr:state" v="VT"/>
    <tag k="ref:vcgi:esiteid" v="147669"/>
  </node>
  <node id="-1316" visible="true" lat="44.53107997" lon="-71.99259552">
    <tag k="addr:city" v="Lyndon"/>
    <tag k="addr:housenumber" v="131"/>
    <tag k="addr:street" v="Ray Avenue"/>
    <tag k="addr:state" v="VT"/>
    <tag k="ref:vcgi:esiteid" v="147677"/>
  </node>
  <node id="-1318" visible="true" lat="44.53095143" lon="-71.99257557">
    <tag k="addr:city" v="Lyndon"/>
    <tag k="addr:housenumber" v="139"/>
    <tag k="addr:street" v="Ray Avenue"/>
    <tag k="addr:state" v="VT"/>
    <tag k="ref:vcgi:esiteid" v="147679"/>
  </node>
  <node id="-1321" visible="true" lat="44.53068428" lon="-71.99217028">
    <tag k="addr:city" v="Lyndon"/>
    <tag k="addr:housenumber" v="170"/>
    <tag k="addr:street" v="Ray Avenue"/>
    <tag k="addr:state" v="VT"/>
    <tag k="ref:vcgi:esiteid" v="147683"/>
  </node>
  <node id="-1322" visible="true" lat="44.53066722" lon="-71.99236568">
    <tag k="addr:city" v="Lyndon"/>
    <tag k="addr:housenumber" v="164"/>
    <tag k="addr:street" v="Ray Avenue"/>
    <tag k="addr:state" v="VT"/>
    <tag k="ref:vcgi:esiteid" v="147684"/>
  </node>
  <node id="-1323" visible="true" lat="44.53037805" lon="-71.98779105">
    <tag k="addr:city" v="Lyndon"/>
    <tag k="addr:housenumber" v="1433"/>
    <tag k="addr:street" v="Lily Pond Road"/>
    <tag k="addr:state" v="VT"/>
    <tag k="ref:vcgi:esiteid" v="147685"/>
  </node>
  <node id="-1325" visible="true" lat="44.53065075" lon="-71.99253337">
    <tag k="addr:city" v="Lyndon"/>
    <tag k="addr:housenumber" v="156"/>
    <tag k="addr:street" v="Ray Avenue"/>
    <tag k="addr:state" v="VT"/>
    <tag k="ref:vcgi:esiteid" v="147687"/>
  </node>
  <node id="-1337" visible="true" lat="44.53056716" lon="-72.07685089">
    <tag k="addr:city" v="Lyndon"/>
    <tag k="addr:housenumber" v="1846"/>
    <tag k="addr:street" v="Cold Hill Road"/>
    <tag k="addr:state" v="VT"/>
    <tag k="ref:vcgi:esiteid" v="147700"/>
  </node>
  <node id="-1389" visible="true" lat="44.5285263" lon="-71.98705291">
    <tag k="addr:city" v="Lyndon"/>
    <tag k="addr:housenumber" v="1274"/>
    <tag k="addr:street" v="Lily Pond Road"/>
    <tag k="addr:state" v="VT"/>
    <tag k="ref:vcgi:esiteid" v="147757"/>
  </node>
  <node id="-1424" visible="true" lat="44.52622952" lon="-71.99701312">
    <tag k="addr:city" v="Lyndon"/>
    <tag k="addr:housenumber" v="182"/>
    <tag k="addr:street" v="Tute Hill"/>
    <tag k="addr:state" v="VT"/>
    <tag k="ref:vcgi:esiteid" v="147794"/>
  </node>
  <node id="-1491" visible="true" lat="44.52340316" lon="-71.97852325">
    <tag k="addr:city" v="Lyndon"/>
    <tag k="addr:housenumber" v="104"/>
    <tag k="addr:street" v="Sky Farm"/>
    <tag k="addr:state" v="VT"/>
    <tag k="ref:vcgi:esiteid" v="147867"/>
  </node>
  <node id="-1584" visible="true" lat="44.52065717" lon="-72.00052286">
    <tag k="addr:city" v="Lyndon"/>
    <tag k="addr:housenumber" v="78"/>
    <tag k="addr:street" v="Broad Street"/>
    <tag k="addr:state" v="VT"/>
    <tag k="ref:vcgi:esiteid" v="147968"/>
  </node>
  <node id="-1978" visible="true" lat="44.53272601" lon="-71.9881207">
    <tag k="addr:city" v="Lyndon"/>
    <tag k="addr:housenumber" v="11"/>
    <tag k="addr:street" v="Hill Street"/>
    <tag k="addr:state" v="VT"/>
    <tag k="ref:vcgi:esiteid" v="148397"/>
  </node>
  <node id="-1979" visible="true" lat="44.53071181" lon="-71.986968">
    <tag k="addr:city" v="Lyndon"/>
    <tag k="addr:housenumber" v="49"/>
    <tag k="addr:street" v="Balsam Road"/>
    <tag k="addr:state" v="VT"/>
    <tag k="ref:vcgi:esiteid" v="148398"/>
  </node>
  <node id="-2030" visible="true" lat="44.52645276" lon="-71.99482531">
    <tag k="addr:city" v="Lyndon"/>
    <tag k="addr:housenumber" v="212"/>
    <tag k="addr:street" v="Tute Hill"/>
    <tag k="addr:state" v="VT"/>
    <tag k="ref:vcgi:esiteid" v="148450"/>
  </node>
  <node id="-2032" visible="true" lat="44.52613067" lon="-71.99632263">
    <tag k="addr:city" v="Lyndon"/>
    <tag k="addr:housenumber" v="210"/>
    <tag k="addr:street" v="Tute Hill"/>
    <tag k="addr:state" v="VT"/>
    <tag k="ref:vcgi:esiteid" v="148452"/>
  </node>
  <node id="-2043" visible="true" lat="44.53121673" lon="-71.99261704">
    <tag k="addr:city" v="Lyndon"/>
    <tag k="addr:housenumber" v="119"/>
    <tag k="addr:street" v="Ray Avenue"/>
    <tag k="addr:state" v="VT"/>
    <tag k="ref:vcgi:esiteid" v="148463"/>
  </node>
  <node id="-2125" visible="true" lat="44.52976956" lon="-71.98654262">
    <tag k="addr:city" v="Lyndon"/>
    <tag k="addr:housenumber" v="30"/>
    <tag k="addr:street" v="Balsam Road"/>
    <tag k="addr:state" v="VT"/>
    <tag k="ref:vcgi:esiteid" v="148551"/>
  </node>
  <node id="-2313" visible="true" lat="44.53325104" lon="-71.98986449">
    <tag k="addr:city" v="Lyndon"/>
    <tag k="addr:housenumber" v="106"/>
    <tag k="addr:street" v="Hill Street"/>
    <tag k="addr:state" v="VT"/>
    <tag k="ref:vcgi:esiteid" v="325215"/>
  </node>
  <node id="-2348" visible="true" lat="44.53464753" lon="-71.99371073">
    <tag k="addr:city" v="Lyndon"/>
    <tag k="addr:housenumber" v="196"/>
    <tag k="addr:street" v="Hill Street"/>
    <tag k="addr:state" v="VT"/>
    <tag k="ref:vcgi:esiteid" v="339053"/>
  </node>
  <node id="-2375" visible="true" lat="44.5325489" lon="-71.99032779">
    <tag k="addr:city" v="Lyndon"/>
    <tag k="addr:housenumber" v="107"/>
    <tag k="addr:street" v="Hill Street"/>
    <tag k="addr:state" v="VT"/>
    <tag k="ref:vcgi:esiteid" v="345430"/>
  </node>
  <node id="-2430" visible="true" lat="44.54768813" lon="-72.01056507">
    <tag k="addr:city" v="Lyndon"/>
    <tag k="addr:housenumber" v="195"/>
    <tag k="addr:street" v="Commercial Lane"/>
    <tag k="addr:state" v="VT"/>
    <tag k="ref:vcgi:esiteid" v="617803"/>
  </node>
  <node id="-2450" visible="true" lat="44.56904472" lon="-71.99083247">
    <tag k="addr:city" v="Lyndon"/>
    <tag k="addr:housenumber" v="1909"/>
    <tag k="addr:street" v="Lynburke Road"/>
    <tag k="addr:state" v="VT"/>
    <tag k="ref:vcgi:esiteid" v="755921"/>
  </node>
  <node id="-2461" visible="true" lat="44.50039061" lon="-71.99967105">
    <tag k="addr:city" v="Lyndon"/>
    <tag k="addr:housenumber" v="78"/>
    <tag k="addr:street" v="Great Falls Drive"/>
    <tag k="addr:state" v="VT"/>
    <tag k="ref:vcgi:esiteid" v="759569"/>
  </node>
</osm>
