<?xml version="1.0" encoding="UTF-8"?>
<osm version="0.6" generator="JOSM" upload="false">
  <node id="-269" visible="true" lat="44.57199245" lon="-72.01609206">
    <!-- offset: "2107 Pudding Hill Road, , VT" Significant offset - 460.1m -->
    <tag k="addr:housenumber" v="2107"/>
    <tag k="addr:street" v="Pudding Hill Road"/>
    <tag k="addr:state" v="VT"/>
    <tag k="ref:vcgi:esiteid" v="146549"/>
  </node>
  <node id="-557" visible="true" lat="44.54653664" lon="-71.98538502">
    <!-- offset: "2591 Lily Pond Road, , VT" Significant offset - 137m -->
    <tag k="addr:housenumber" v="2591"/>
    <tag k="addr:street" v="Lily Pond Road"/>
    <tag k="addr:state" v="VT"/>
    <tag k="ref:vcgi:esiteid" v="146844"/>
  </node>
  <node id="-932" visible="true" lat="44.53838455" lon="-72.01543776">
    <!-- offset: "168 Institute Circle, , VT" Significant offset - 104.1m -->
    <tag k="addr:housenumber" v="168"/>
    <tag k="addr:street" v="Institute Circle"/>
    <tag k="addr:state" v="VT"/>
    <tag k="ref:vcgi:esiteid" v="147248"/>
  </node>
  <node id="-1103" visible="true" lat="44.53508536" lon="-72.02532329">
    <!-- offset: "1001 College Road, , VT" Significant offset - 133.9m -->
    <tag k="addr:housenumber" v="1001"/>
    <tag k="addr:street" v="College Road"/>
    <tag k="addr:state" v="VT"/>
    <tag k="ref:vcgi:esiteid" v="147439"/>
  </node>
</osm>
