<?xml version="1.0" encoding="UTF-8"?>
<osm version="0.6" generator="JOSM">
  <node id="-115" visible="true" lat="44.6660126" lon="-71.64856948">
    <tag k="addr:city" v="Maidstone"/>
    <tag k="addr:housenumber" v="3760"/>
    <tag k="addr:street" v="Maidstone Lake Road"/>
    <tag k="addr:state" v="VT"/>
    <tag k="ref:vcgi:esiteid" v="148733"/>
  </node>
  <node id="-127" visible="true" lat="44.66379227" lon="-71.64668018">
    <tag k="addr:city" v="Maidstone"/>
    <tag k="addr:housenumber" v="3930"/>
    <tag k="addr:street" v="Maidstone Lake Road"/>
    <tag k="addr:state" v="VT"/>
    <tag k="ref:vcgi:esiteid" v="148745"/>
  </node>
  <node id="-143" visible="true" lat="44.66194184" lon="-71.64347662">
    <tag k="addr:city" v="Maidstone"/>
    <tag k="addr:housenumber" v="4122"/>
    <tag k="addr:street" v="Maidstone Lake Road"/>
    <tag k="addr:state" v="VT"/>
    <tag k="ref:vcgi:esiteid" v="148761"/>
  </node>
  <node id="-209" visible="true" lat="44.65310063" lon="-71.6389032">
    <tag k="addr:city" v="Maidstone"/>
    <tag k="addr:housenumber" v="4858"/>
    <tag k="addr:street" v="Maidstone Lake Road"/>
    <tag k="addr:state" v="VT"/>
    <tag k="ref:vcgi:esiteid" v="148827"/>
  </node>
  <node id="-211" visible="true" lat="44.65289412" lon="-71.63854696">
    <tag k="addr:city" v="Maidstone"/>
    <tag k="addr:housenumber" v="4871"/>
    <tag k="addr:street" v="Maidstone Lake Road"/>
    <tag k="addr:state" v="VT"/>
    <tag k="ref:vcgi:esiteid" v="148829"/>
  </node>
  <node id="-212" visible="true" lat="44.65334937" lon="-71.63973391">
    <tag k="addr:city" v="Maidstone"/>
    <tag k="addr:housenumber" v="66"/>
    <tag k="addr:street" v="Beach Road"/>
    <tag k="addr:state" v="VT"/>
    <tag k="ref:vcgi:esiteid" v="148830"/>
  </node>
  <node id="-213" visible="true" lat="44.65223312" lon="-71.58355712">
    <tag k="addr:city" v="Maidstone"/>
    <tag k="addr:housenumber" v="7025"/>
    <tag k="addr:street" v="Vermont Route 102"/>
    <tag k="addr:state" v="VT"/>
    <tag k="ref:vcgi:esiteid" v="148831"/>
  </node>
  <node id="-216" visible="true" lat="44.65129393" lon="-71.65204188">
    <tag k="addr:city" v="Maidstone"/>
    <tag k="addr:housenumber" v="1237"/>
    <tag k="addr:street" v="Westside Lake Road"/>
    <tag k="addr:state" v="VT"/>
    <tag k="ref:vcgi:esiteid" v="148834"/>
  </node>
  <node id="-272" visible="true" lat="44.64313888" lon="-71.65822601">
    <tag k="addr:city" v="Maidstone"/>
    <tag k="addr:housenumber" v="2089"/>
    <tag k="addr:street" v="Westside Lake Road"/>
    <tag k="addr:state" v="VT"/>
    <tag k="ref:vcgi:esiteid" v="148891"/>
  </node>
  <node id="-274" visible="true" lat="44.64294649" lon="-71.65832595">
    <tag k="addr:city" v="Maidstone"/>
    <tag k="addr:housenumber" v="2091"/>
    <tag k="addr:street" v="Westside Lake Road"/>
    <tag k="addr:state" v="VT"/>
    <tag k="ref:vcgi:esiteid" v="148893"/>
  </node>
  <node id="-276" visible="true" lat="44.64269745" lon="-71.65834363">
    <tag k="addr:city" v="Maidstone"/>
    <tag k="addr:housenumber" v="2107"/>
    <tag k="addr:street" v="Westside Lake Road"/>
    <tag k="addr:state" v="VT"/>
    <tag k="ref:vcgi:esiteid" v="148895"/>
  </node>
  <node id="-278" visible="true" lat="44.64223245" lon="-71.6586788">
    <tag k="addr:city" v="Maidstone"/>
    <tag k="addr:housenumber" v="2119"/>
    <tag k="addr:street" v="Westside Lake Road"/>
    <tag k="addr:state" v="VT"/>
    <tag k="ref:vcgi:esiteid" v="148897"/>
  </node>
  <node id="-280" visible="true" lat="44.64200224" lon="-71.65908269">
    <tag k="addr:city" v="Maidstone"/>
    <tag k="addr:housenumber" v="2157"/>
    <tag k="addr:street" v="Westside Lake Road"/>
    <tag k="addr:state" v="VT"/>
    <tag k="ref:vcgi:esiteid" v="148899"/>
  </node>
  <node id="-281" visible="true" lat="44.64172992" lon="-71.65906624">
    <tag k="addr:city" v="Maidstone"/>
    <tag k="addr:housenumber" v="2171"/>
    <tag k="addr:street" v="Westside Lake Road"/>
    <tag k="addr:state" v="VT"/>
    <tag k="ref:vcgi:esiteid" v="148900"/>
  </node>
  <node id="-287" visible="true" lat="44.6406465" lon="-71.64117261">
    <tag k="addr:city" v="Maidstone"/>
    <tag k="addr:housenumber" v="5740"/>
    <tag k="addr:street" v="Maidstone Lake Road"/>
    <tag k="addr:state" v="VT"/>
    <tag k="ref:vcgi:esiteid" v="148906"/>
  </node>
  <node id="-310" visible="true" lat="44.63858471" lon="-71.6333761">
    <tag k="addr:city" v="Maidstone"/>
    <tag k="addr:housenumber" v="2692"/>
    <tag k="addr:street" v="Hall Road"/>
    <tag k="addr:state" v="VT"/>
    <tag k="ref:vcgi:esiteid" v="148930"/>
  </node>
  <node id="-330" visible="true" lat="44.60440254" lon="-71.59487051">
    <tag k="addr:city" v="Maidstone"/>
    <tag k="addr:housenumber" v="170"/>
    <tag k="addr:street" v="Huntington Road"/>
    <tag k="addr:state" v="VT"/>
    <tag k="ref:vcgi:esiteid" v="148951"/>
  </node>
  <node id="-385" visible="true" lat="44.65987643" lon="-71.59794785">
    <tag k="addr:city" v="Maidstone"/>
    <tag k="addr:housenumber" v="391"/>
    <tag k="addr:street" v="Percy View"/>
    <tag k="addr:state" v="VT"/>
    <tag k="ref:vcgi:esiteid" v="149009"/>
  </node>
  <node id="-394" visible="true" lat="44.66095699" lon="-71.64218532">
    <tag k="addr:city" v="Maidstone"/>
    <tag k="addr:housenumber" v="4238"/>
    <tag k="addr:street" v="Maidstone Lake Road"/>
    <tag k="addr:state" v="VT"/>
    <tag k="ref:vcgi:esiteid" v="313335"/>
  </node>
  <node id="-404" visible="true" lat="44.63069593" lon="-71.61676846">
    <tag k="addr:city" v="Maidstone"/>
    <tag k="addr:housenumber" v="30"/>
    <tag k="addr:street" v="Freedom Way"/>
    <tag k="addr:state" v="VT"/>
    <tag k="ref:vcgi:esiteid" v="337925"/>
  </node>
  <node id="-406" visible="true" lat="44.62214927" lon="-71.60673772">
    <tag k="addr:city" v="Maidstone"/>
    <tag k="addr:housenumber" v="4358"/>
    <tag k="addr:street" v="North Road"/>
    <tag k="addr:state" v="VT"/>
    <tag k="ref:vcgi:esiteid" v="337927"/>
  </node>
  <node id="-407" visible="true" lat="44.63820199" lon="-71.63369228">
    <tag k="addr:city" v="Maidstone"/>
    <tag k="addr:housenumber" v="2704"/>
    <tag k="addr:street" v="Hall Road"/>
    <tag k="addr:state" v="VT"/>
    <tag k="ref:vcgi:esiteid" v="337928"/>
  </node>
  <node id="-409" visible="true" lat="44.65448662" lon="-71.64039729">
    <tag k="addr:city" v="Maidstone"/>
    <tag k="addr:housenumber" v="90"/>
    <tag k="addr:street" v="Beach Road"/>
    <tag k="addr:state" v="VT"/>
    <tag k="ref:vcgi:esiteid" v="337930"/>
  </node>
  <node id="-410" visible="true" lat="44.64208379" lon="-71.66031364">
    <tag k="addr:city" v="Maidstone"/>
    <tag k="addr:housenumber" v="2174"/>
    <tag k="addr:street" v="Westside Lake Road"/>
    <tag k="addr:state" v="VT"/>
    <tag k="ref:vcgi:esiteid" v="343793"/>
  </node>
  <node id="-414" visible="true" lat="44.6159809" lon="-71.60274099">
    <tag k="addr:city" v="Maidstone"/>
    <tag k="addr:housenumber" v="28"/>
    <tag k="addr:street" v="Bezia Road"/>
    <tag k="addr:state" v="VT"/>
    <tag k="ref:vcgi:esiteid" v="346104"/>
  </node>
  <node id="-426" visible="true" lat="44.68402878" lon="-71.64162151">
    <tag k="addr:city" v="Maidstone"/>
    <tag k="addr:housenumber" v="39"/>
    <tag k="addr:street" v="Goodwin Camp Road"/>
    <tag k="addr:state" v="VT"/>
    <tag k="ref:vcgi:esiteid" v="346122"/>
  </node>
  <node id="-427" visible="true" lat="44.68543274" lon="-71.63961158">
    <tag k="addr:city" v="Maidstone"/>
    <tag k="addr:housenumber" v="131"/>
    <tag k="addr:street" v="West Mountain Pond Road"/>
    <tag k="addr:state" v="VT"/>
    <tag k="ref:vcgi:esiteid" v="346123"/>
  </node>
  <node id="-428" visible="true" lat="44.68447147" lon="-71.63591449">
    <tag k="addr:city" v="Maidstone"/>
    <tag k="addr:housenumber" v="40"/>
    <tag k="addr:street" v="West Mountain Pond Road"/>
    <tag k="addr:state" v="VT"/>
    <tag k="ref:vcgi:esiteid" v="346124"/>
  </node>
  <node id="-470" visible="true" lat="44.65370212" lon="-71.63997469">
    <tag k="addr:city" v="Maidstone"/>
    <tag k="addr:housenumber" v="88"/>
    <tag k="addr:street" v="Beach Road"/>
    <tag k="addr:state" v="VT"/>
    <tag k="ref:vcgi:esiteid" v="612361"/>
  </node>
  <node id="-471" visible="true" lat="44.65308658" lon="-71.63981033">
    <tag k="addr:city" v="Maidstone"/>
    <tag k="addr:housenumber" v="61"/>
    <tag k="addr:street" v="Beach Road"/>
    <tag k="addr:state" v="VT"/>
    <tag k="ref:vcgi:esiteid" v="612362"/>
  </node>
  <node id="-472" visible="true" lat="44.65278044" lon="-71.64026184">
    <tag k="addr:city" v="Maidstone"/>
    <tag k="addr:housenumber" v="75"/>
    <tag k="addr:street" v="Beach Road"/>
    <tag k="addr:state" v="VT"/>
    <tag k="ref:vcgi:esiteid" v="612363"/>
  </node>
  <node id="-473" visible="true" lat="44.65302589" lon="-71.64123891">
    <tag k="addr:city" v="Maidstone"/>
    <tag k="addr:housenumber" v="168"/>
    <tag k="addr:street" v="Beach Road"/>
    <tag k="addr:state" v="VT"/>
    <tag k="ref:vcgi:esiteid" v="612364"/>
  </node>
  <node id="-491" visible="true" lat="44.60955357" lon="-71.5869272">
    <tag k="addr:city" v="Maidstone"/>
    <tag k="addr:housenumber" v="160"/>
    <tag k="addr:street" v="Ford Road"/>
    <tag k="addr:state" v="VT"/>
    <tag k="ref:vcgi:esiteid" v="612384"/>
  </node>
  <node id="-492" visible="true" lat="44.62677947" lon="-71.61703419">
    <tag k="addr:city" v="Maidstone"/>
    <tag k="addr:housenumber" v="4933"/>
    <tag k="addr:street" v="North Road"/>
    <tag k="addr:state" v="VT"/>
    <tag k="ref:vcgi:esiteid" v="612387"/>
  </node>
  <node id="-494" visible="true" lat="44.61288784" lon="-71.55962053">
    <tag k="addr:city" v="Maidstone"/>
    <tag k="addr:housenumber" v="3644"/>
    <tag k="addr:street" v="Vermont Route 102"/>
    <tag k="addr:state" v="VT"/>
    <tag k="ref:vcgi:esiteid" v="617349"/>
  </node>
  <node id="-495" visible="true" lat="44.57357" lon="-71.55569">
    <tag k="addr:city" v="Maidstone"/>
    <tag k="addr:housenumber" v="197"/>
    <tag k="addr:street" v="Vermont Route 102"/>
    <tag k="addr:state" v="VT"/>
    <tag k="ref:vcgi:esiteid" v="617350"/>
  </node>
  <node id="-498" visible="true" lat="44.64047359" lon="-71.58907269">
    <tag k="addr:city" v="Maidstone"/>
    <tag k="addr:housenumber" v="1070"/>
    <tag k="addr:street" v="Bear Hill Road"/>
    <tag k="addr:state" v="VT"/>
    <tag k="ref:vcgi:esiteid" v="620466"/>
  </node>
  <node id="-503" visible="true" lat="44.65279024" lon="-71.63889131">
    <tag k="addr:city" v="Maidstone"/>
    <tag k="addr:housenumber" v="12"/>
    <tag k="addr:street" v="Beach Road"/>
    <tag k="addr:state" v="VT"/>
    <tag k="ref:vcgi:esiteid" v="620473"/>
  </node>
  <node id="-504" visible="true" lat="44.62083078" lon="-71.59026375">
    <tag k="addr:city" v="Maidstone"/>
    <tag k="addr:housenumber" v="2524"/>
    <tag k="addr:street" v="Bear Hill Road"/>
    <tag k="addr:state" v="VT"/>
    <tag k="ref:vcgi:esiteid" v="655250"/>
  </node>
  <node id="-533" visible="true" lat="44.64755112" lon="-71.60964483">
    <tag k="addr:city" v="Maidstone"/>
    <tag k="addr:housenumber" v="1281"/>
    <tag k="addr:street" v="Hall Road"/>
    <tag k="addr:state" v="VT"/>
    <tag k="ref:vcgi:esiteid" v="753072"/>
  </node>
  <node id="-544" visible="true" lat="44.61516439" lon="-71.60487566">
    <tag k="addr:city" v="Maidstone"/>
    <tag k="addr:housenumber" v="170"/>
    <tag k="addr:street" v="Bezia Road"/>
    <tag k="addr:state" v="VT"/>
    <tag k="ref:vcgi:esiteid" v="753172"/>
  </node>
  <node id="-546" visible="true" lat="44.64530593" lon="-71.63998453">
    <tag k="addr:city" v="Maidstone"/>
    <tag k="addr:housenumber" v="5435"/>
    <tag k="addr:street" v="Maidstone Lake Road"/>
    <tag k="addr:state" v="VT"/>
    <tag k="ref:vcgi:esiteid" v="755993"/>
  </node>
  <node id="-548" visible="true" lat="44.66019785" lon="-71.5922348">
    <tag k="addr:city" v="Maidstone"/>
    <tag k="addr:housenumber" v="60"/>
    <tag k="addr:street" v="Percy View"/>
    <tag k="addr:state" v="VT"/>
    <tag k="ref:vcgi:esiteid" v="760521"/>
  </node>
  <node id="-549" visible="true" lat="44.65919917" lon="-71.59480581">
    <tag k="addr:city" v="Maidstone"/>
    <tag k="addr:housenumber" v="75"/>
    <tag k="addr:street" v="Percy View"/>
    <tag k="addr:state" v="VT"/>
    <tag k="ref:vcgi:esiteid" v="760522"/>
  </node>
  <node id="-550" visible="true" lat="44.65883365" lon="-71.59435112">
    <tag k="addr:city" v="Maidstone"/>
    <tag k="addr:housenumber" v="73"/>
    <tag k="addr:street" v="Percy View"/>
    <tag k="addr:state" v="VT"/>
    <tag k="ref:vcgi:esiteid" v="760523"/>
  </node>
  <node id="-551" visible="true" lat="44.60545914" lon="-71.55991601">
    <tag k="addr:city" v="Maidstone"/>
    <tag k="addr:housenumber" v="3036"/>
    <tag k="addr:street" v="Vermont Route 102"/>
    <tag k="addr:state" v="VT"/>
    <tag k="ref:vcgi:esiteid" v="760812"/>
  </node>
  <node id="-553" visible="true" lat="44.63032885" lon="-71.55911345">
    <tag k="addr:city" v="Maidstone"/>
    <tag k="addr:housenumber" v="4937"/>
    <tag k="addr:street" v="Vermont Route 102"/>
    <tag k="addr:state" v="VT"/>
    <tag k="ref:vcgi:esiteid" v="760814"/>
  </node>
  <node id="-554" visible="true" lat="44.63128159" lon="-71.56005275">
    <tag k="addr:city" v="Maidstone"/>
    <tag k="addr:housenumber" v="4997"/>
    <tag k="addr:street" v="Vermont Route 102"/>
    <tag k="addr:state" v="VT"/>
    <tag k="ref:vcgi:esiteid" v="760815"/>
  </node>
  <node id="-555" visible="true" lat="44.65501322" lon="-71.60708895">
    <tag k="addr:city" v="Maidstone"/>
    <tag k="addr:housenumber" v="790"/>
    <tag k="addr:street" v="Hall Road"/>
    <tag k="addr:state" v="VT"/>
    <tag k="ref:vcgi:esiteid" v="762173"/>
  </node>
  <node id="-556" visible="true" lat="44.61488267" lon="-71.57158843">
    <tag k="addr:city" v="Maidstone"/>
    <tag k="addr:housenumber" v="3180"/>
    <tag k="addr:street" v="Bear Hill Road"/>
    <tag k="addr:state" v="VT"/>
    <tag k="ref:vcgi:esiteid" v="764666"/>
  </node>
  <node id="-562" visible="true" lat="44.62513475" lon="-71.57038047">
    <tag k="addr:city" v="Maidstone"/>
    <tag k="addr:housenumber" v="4173"/>
    <tag k="addr:street" v="Vermont Route 102"/>
    <tag k="addr:state" v="VT"/>
    <tag k="ref:vcgi:esiteid" v="1051037"/>
  </node>
</osm>
