<?xml version="1.0" encoding="UTF-8"?>
<osm version="0.6" generator="JOSM">
  <node id="-122" visible="true" lat="44.66458829" lon="-71.64895473">
    <!-- conflict: "243 Westside Lake Road, Maidstone, VT" No match in OSM, but a different address exists <5m away: "245 Westside Lake Road, Maidstone, VT" -->
    <tag k="addr:city" v="Maidstone"/>
    <tag k="addr:housenumber" v="243"/>
    <tag k="addr:street" v="Westside Lake Road"/>
    <tag k="addr:state" v="VT"/>
    <tag k="ref:vcgi:esiteid" v="148740"/>
  </node>
  <node id="-142" visible="true" lat="44.66181924" lon="-71.59202542">
    <!-- conflict: "90 Percy View, Maidstone, VT" No match in OSM, but a different address exists <5m away: "7697 Vt Route 102, Maidstone, VT" -->
    <tag k="addr:city" v="Maidstone"/>
    <tag k="addr:housenumber" v="90"/>
    <tag k="addr:street" v="Percy View"/>
    <tag k="addr:state" v="VT"/>
    <tag k="ref:vcgi:esiteid" v="148760"/>
  </node>
  <node id="-157" visible="true" lat="44.65982448" lon="-71.59063786">
    <!-- conflict: "7654 Vermont Route 102, Maidstone, VT" No match in OSM, but a different address exists <5m away: "7654 Vt Route 102, Maidstone, VT" -->
    <tag k="addr:city" v="Maidstone"/>
    <tag k="addr:housenumber" v="7654"/>
    <tag k="addr:street" v="Vermont Route 102"/>
    <tag k="addr:state" v="VT"/>
    <tag k="ref:vcgi:esiteid" v="148775"/>
  </node>
  <node id="-206" visible="true" lat="44.65323702" lon="-71.58416914">
    <!-- conflict: "7046 Vermont Route 102, Maidstone, VT" No match in OSM, but a different address exists <5m away: "7046 Vt Route 102, Maidstone, VT" -->
    <tag k="addr:city" v="Maidstone"/>
    <tag k="addr:housenumber" v="7046"/>
    <tag k="addr:street" v="Vermont Route 102"/>
    <tag k="addr:state" v="VT"/>
    <tag k="ref:vcgi:esiteid" v="148824"/>
  </node>
  <node id="-282" visible="true" lat="44.64110311" lon="-71.56758552">
    <!-- conflict: "5785 Vermont Route 102, Maidstone, VT" No match in OSM, but a different address exists <5m away: "5785 Vt Route 102, Maidstone, VT" -->
    <tag k="addr:city" v="Maidstone"/>
    <tag k="addr:housenumber" v="5785"/>
    <tag k="addr:street" v="Vermont Route 102"/>
    <tag k="addr:state" v="VT"/>
    <tag k="ref:vcgi:esiteid" v="148901"/>
  </node>
  <node id="-288" visible="true" lat="44.64117629" lon="-71.65990102">
    <!-- conflict: "15 Private West 9, Maidstone, VT" No match in OSM, but a different address exists <5m away: "82 Private West 9, Maidstone, VT" -->
    <tag k="addr:city" v="Maidstone"/>
    <tag k="addr:housenumber" v="15"/>
    <tag k="addr:street" v="Private West 9"/>
    <tag k="addr:state" v="VT"/>
    <tag k="ref:vcgi:esiteid" v="148907"/>
  </node>
  <node id="-289" visible="true" lat="44.64079519" lon="-71.65985426">
    <!-- conflict: "21 Private West 9, Maidstone, VT" No match in OSM, but a different address exists <5m away: "78 Private West 9, Maidstone, VT" -->
    <tag k="addr:city" v="Maidstone"/>
    <tag k="addr:housenumber" v="21"/>
    <tag k="addr:street" v="Private West 9"/>
    <tag k="addr:state" v="VT"/>
    <tag k="ref:vcgi:esiteid" v="148908"/>
  </node>
  <node id="-333" visible="true" lat="44.60348154" lon="-71.59293635">
    <!-- conflict: "50 Huntington Road, Maidstone, VT" No match in OSM, but a different address exists <5m away: "2843 North Road, Maidstone, VT" -->
    <tag k="addr:city" v="Maidstone"/>
    <tag k="addr:housenumber" v="50"/>
    <tag k="addr:street" v="Huntington Road"/>
    <tag k="addr:state" v="VT"/>
    <tag k="ref:vcgi:esiteid" v="148954"/>
  </node>
  <node id="-335" visible="true" lat="44.60313857" lon="-71.59308347">
    <!-- conflict: "33 Huntington Road, Maidstone, VT" No match in OSM, but a different address exists <5m away: "2841 North Road, Maidstone, VT" -->
    <tag k="addr:city" v="Maidstone"/>
    <tag k="addr:housenumber" v="33"/>
    <tag k="addr:street" v="Huntington Road"/>
    <tag k="addr:state" v="VT"/>
    <tag k="ref:vcgi:esiteid" v="148956"/>
  </node>
  <node id="-368" visible="true" lat="44.65417803" lon="-71.58767377">
    <!-- conflict: "7101 Vermont Route 102, Maidstone, VT" No match in OSM, but a different address exists <5m away: "7101 Vt Route 102, Maidstone, VT" -->
    <tag k="addr:city" v="Maidstone"/>
    <tag k="addr:housenumber" v="7101"/>
    <tag k="addr:street" v="Vermont Route 102"/>
    <tag k="addr:state" v="VT"/>
    <tag k="ref:vcgi:esiteid" v="148991"/>
  </node>
  <node id="-418" visible="true" lat="44.64087036" lon="-71.56648669">
    <!-- conflict: "5778 Vermont Route 102, Maidstone, VT" No match in OSM, but a different address exists <5m away: "5778 Vt Route 102, Maidstone, VT" -->
    <tag k="addr:city" v="Maidstone"/>
    <tag k="addr:housenumber" v="5778"/>
    <tag k="addr:street" v="Vermont Route 102"/>
    <tag k="addr:state" v="VT"/>
    <tag k="ref:vcgi:esiteid" v="346111"/>
  </node>
</osm>
