<?xml version="1.0" encoding="UTF-8"?>
<osm version="0.6" generator="JOSM">
  <node id="-333" visible="true" lat="43.19843292" lon="-73.00555419">
    <tag k="addr:housenumber" v="650"/>
    <tag k="addr:street" v="Johnnycake Street"/>
    <tag k="addr:state" v="VT"/>
    <tag k="ref:vcgi:esiteid" v="149254"/>
  </node>
  <node id="-340" visible="true" lat="43.19774246" lon="-73.00642395">
    <tag k="addr:housenumber" v="606"/>
    <tag k="addr:street" v="Johnnycake Street"/>
    <tag k="addr:state" v="VT"/>
    <tag k="ref:vcgi:esiteid" v="149261"/>
  </node>
  <node id="-350" visible="true" lat="43.19691149" lon="-73.00731832">
    <tag k="addr:housenumber" v="543"/>
    <tag k="addr:street" v="Johnnycake Street"/>
    <tag k="addr:state" v="VT"/>
    <tag k="ref:vcgi:esiteid" v="149271"/>
  </node>
  <node id="-361" visible="true" lat="43.19645051" lon="-73.00529856">
    <tag k="addr:housenumber" v="494"/>
    <tag k="addr:street" v="Johnnycake Street"/>
    <tag k="addr:state" v="VT"/>
    <tag k="ref:vcgi:esiteid" v="149282"/>
  </node>
  <node id="-370" visible="true" lat="43.19564668" lon="-73.0067129">
    <tag k="addr:housenumber" v="470"/>
    <tag k="addr:street" v="Johnnycake Street"/>
    <tag k="addr:state" v="VT"/>
    <tag k="ref:vcgi:esiteid" v="149292"/>
  </node>
  <node id="-378" visible="true" lat="43.19490587" lon="-73.0159123">
    <tag k="addr:housenumber" v="63"/>
    <tag k="addr:street" v="Aspen Lane"/>
    <tag k="addr:state" v="VT"/>
    <tag k="ref:vcgi:esiteid" v="149300"/>
  </node>
  <node id="-388" visible="true" lat="43.19424373" lon="-73.00722039">
    <tag k="addr:housenumber" v="404"/>
    <tag k="addr:street" v="Johnnycake Street"/>
    <tag k="addr:state" v="VT"/>
    <tag k="ref:vcgi:esiteid" v="149311"/>
  </node>
  <node id="-408" visible="true" lat="43.19317937" lon="-73.00537943">
    <tag k="addr:housenumber" v="2477"/>
    <tag k="addr:street" v="Barnumville Road"/>
    <tag k="addr:state" v="VT"/>
    <tag k="ref:vcgi:esiteid" v="149331"/>
  </node>
  <node id="-410" visible="true" lat="43.19302517" lon="-73.00777475">
    <tag k="addr:housenumber" v="292"/>
    <tag k="addr:street" v="Johnnycake Street"/>
    <tag k="addr:state" v="VT"/>
    <tag k="ref:vcgi:esiteid" v="149333"/>
  </node>
  <node id="-412" visible="true" lat="43.1927092" lon="-73.01605275">
    <tag k="addr:housenumber" v="208"/>
    <tag k="addr:street" v="Winter Street"/>
    <tag k="addr:state" v="VT"/>
    <tag k="ref:vcgi:esiteid" v="149335"/>
  </node>
  <node id="-424" visible="true" lat="43.19222339" lon="-73.01602171">
    <tag k="addr:housenumber" v="156"/>
    <tag k="addr:street" v="Winter Street"/>
    <tag k="addr:state" v="VT"/>
    <tag k="ref:vcgi:esiteid" v="149347"/>
  </node>
  <node id="-426" visible="true" lat="43.19202216" lon="-73.01056067">
    <tag k="addr:housenumber" v="175"/>
    <tag k="addr:street" v="Johnnycake Street"/>
    <tag k="addr:state" v="VT"/>
    <tag k="ref:vcgi:esiteid" v="149349"/>
  </node>
  <node id="-427" visible="true" lat="43.19217419" lon="-73.00376789">
    <tag k="addr:housenumber" v="625"/>
    <tag k="addr:street" v="New Ireland Road"/>
    <tag k="addr:state" v="VT"/>
    <tag k="ref:vcgi:esiteid" v="149350"/>
  </node>
  <node id="-431" visible="true" lat="43.19182561" lon="-73.00538193">
    <tag k="addr:housenumber" v="2442"/>
    <tag k="addr:street" v="Barnumville Road"/>
    <tag k="addr:state" v="VT"/>
    <tag k="ref:vcgi:esiteid" v="149354"/>
  </node>
  <node id="-433" visible="true" lat="43.19169021" lon="-73.00436373">
    <tag k="addr:housenumber" v="575"/>
    <tag k="addr:street" v="New Ireland Road"/>
    <tag k="addr:state" v="VT"/>
    <tag k="ref:vcgi:esiteid" v="149356"/>
  </node>
  <node id="-434" visible="true" lat="43.19147857" lon="-73.0441431">
    <tag k="addr:housenumber" v="152"/>
    <tag k="addr:street" v="Manchester Valley Road"/>
    <tag k="addr:state" v="VT"/>
    <tag k="ref:vcgi:esiteid" v="149357"/>
  </node>
  <node id="-437" visible="true" lat="43.19140261" lon="-73.04320502">
    <tag k="addr:housenumber" v="91"/>
    <tag k="addr:street" v="Manchester Valley Road"/>
    <tag k="addr:state" v="VT"/>
    <tag k="ref:vcgi:esiteid" v="149360"/>
  </node>
  <node id="-438" visible="true" lat="43.1914827" lon="-73.00782136">
    <tag k="addr:housenumber" v="2313"/>
    <tag k="addr:street" v="Barnumville Road"/>
    <tag k="addr:state" v="VT"/>
    <tag k="ref:vcgi:esiteid" v="149361"/>
  </node>
  <node id="-439" visible="true" lat="43.19146978" lon="-73.00651675">
    <tag k="addr:housenumber" v="2392"/>
    <tag k="addr:street" v="Barnumville Road"/>
    <tag k="addr:state" v="VT"/>
    <tag k="ref:vcgi:esiteid" v="149362"/>
  </node>
  <node id="-442" visible="true" lat="43.19136428" lon="-73.00901794">
    <tag k="addr:housenumber" v="102"/>
    <tag k="addr:street" v="Johnnycake Street"/>
    <tag k="addr:state" v="VT"/>
    <tag k="ref:vcgi:esiteid" v="149365"/>
  </node>
  <node id="-444" visible="true" lat="43.19132995" lon="-73.01181793">
    <tag k="addr:housenumber" v="111"/>
    <tag k="addr:street" v="Johnnycake Street"/>
    <tag k="addr:state" v="VT"/>
    <tag k="ref:vcgi:esiteid" v="149367"/>
  </node>
  <node id="-446" visible="true" lat="43.19114516" lon="-73.04354694">
    <tag k="addr:housenumber" v="53"/>
    <tag k="addr:street" v="Manchester Valley Road"/>
    <tag k="addr:state" v="VT"/>
    <tag k="ref:vcgi:esiteid" v="149369"/>
  </node>
  <node id="-450" visible="true" lat="43.1911519" lon="-73.00708949">
    <tag k="addr:housenumber" v="2338"/>
    <tag k="addr:street" v="Barnumville Road"/>
    <tag k="addr:state" v="VT"/>
    <tag k="ref:vcgi:esiteid" v="149373"/>
  </node>
  <node id="-451" visible="true" lat="43.19087982" lon="-73.04432678">
    <tag k="addr:housenumber" v="190"/>
    <tag k="addr:street" v="Manchester Valley Road"/>
    <tag k="addr:state" v="VT"/>
    <tag k="ref:vcgi:esiteid" v="149374"/>
  </node>
  <node id="-454" visible="true" lat="43.19076228" lon="-73.04361348">
    <tag k="addr:housenumber" v="55"/>
    <tag k="addr:street" v="Manchester Valley Road"/>
    <tag k="addr:state" v="VT"/>
    <tag k="ref:vcgi:esiteid" v="149377"/>
  </node>
  <node id="-455" visible="true" lat="43.19081409" lon="-73.00748767">
    <tag k="addr:housenumber" v="2316"/>
    <tag k="addr:street" v="Barnumville Road"/>
    <tag k="addr:state" v="VT"/>
    <tag k="ref:vcgi:esiteid" v="149378"/>
  </node>
  <node id="-456" visible="true" lat="43.19095202" lon="-73.00424984">
    <tag k="addr:housenumber" v="541"/>
    <tag k="addr:street" v="New Ireland Road"/>
    <tag k="addr:state" v="VT"/>
    <tag k="ref:vcgi:esiteid" v="149379"/>
  </node>
  <node id="-457" visible="true" lat="43.19082641" lon="-73.01049041">
    <tag k="addr:housenumber" v="87"/>
    <tag k="addr:street" v="Johnnycake Street"/>
    <tag k="addr:state" v="VT"/>
    <tag k="ref:vcgi:esiteid" v="149380"/>
  </node>
  <node id="-458" visible="true" lat="43.19066238" lon="-73.04442596">
    <tag k="addr:housenumber" v="204"/>
    <tag k="addr:street" v="Manchester Valley Road"/>
    <tag k="addr:state" v="VT"/>
    <tag k="ref:vcgi:esiteid" v="149381"/>
  </node>
  <node id="-459" visible="true" lat="43.1904469" lon="-73.04378144">
    <tag k="addr:housenumber" v="247"/>
    <tag k="addr:street" v="Manchester Valley Road"/>
    <tag k="addr:state" v="VT"/>
    <tag k="ref:vcgi:esiteid" v="149382"/>
  </node>
  <node id="-461" visible="true" lat="43.1907141" lon="-73.01522477">
    <tag k="addr:housenumber" v="1893"/>
    <tag k="addr:street" v="Barnumville Road"/>
    <tag k="addr:state" v="VT"/>
    <tag k="ref:vcgi:esiteid" v="149384"/>
  </node>
  <node id="-465" visible="true" lat="43.19042286" lon="-73.04335608">
    <tag k="addr:housenumber" v="275"/>
    <tag k="addr:street" v="Manchester Valley Road"/>
    <tag k="addr:state" v="VT"/>
    <tag k="ref:vcgi:esiteid" v="149389"/>
  </node>
  <node id="-469" visible="true" lat="43.1900793" lon="-73.04466373">
    <tag k="addr:housenumber" v="120"/>
    <tag k="addr:street" v="Homer Road"/>
    <tag k="addr:state" v="VT"/>
    <tag k="ref:vcgi:esiteid" v="149393"/>
  </node>
  <node id="-471" visible="true" lat="43.19006551" lon="-73.04408448">
    <tag k="addr:housenumber" v="92"/>
    <tag k="addr:street" v="Homer Road"/>
    <tag k="addr:state" v="VT"/>
    <tag k="ref:vcgi:esiteid" v="149395"/>
  </node>
  <node id="-472" visible="true" lat="43.19009324" lon="-73.04559597">
    <tag k="addr:housenumber" v="162"/>
    <tag k="addr:street" v="Homer Road"/>
    <tag k="addr:state" v="VT"/>
    <tag k="ref:vcgi:esiteid" v="149396"/>
  </node>
  <node id="-473" visible="true" lat="43.19008636" lon="-73.04447937">
    <tag k="addr:housenumber" v="110"/>
    <tag k="addr:street" v="Homer Road"/>
    <tag k="addr:state" v="VT"/>
    <tag k="ref:vcgi:esiteid" v="149397"/>
  </node>
  <node id="-474" visible="true" lat="43.19007492" lon="-73.04483795">
    <tag k="addr:housenumber" v="128"/>
    <tag k="addr:street" v="Homer Road"/>
    <tag k="addr:state" v="VT"/>
    <tag k="ref:vcgi:esiteid" v="149398"/>
  </node>
  <node id="-475" visible="true" lat="43.19009922" lon="-73.04572191">
    <tag k="addr:housenumber" v="164"/>
    <tag k="addr:street" v="Homer Road"/>
    <tag k="addr:state" v="VT"/>
    <tag k="ref:vcgi:esiteid" v="149399"/>
  </node>
  <node id="-476" visible="true" lat="43.1900711" lon="-73.04542541">
    <tag k="addr:housenumber" v="158"/>
    <tag k="addr:street" v="Homer Road"/>
    <tag k="addr:state" v="VT"/>
    <tag k="ref:vcgi:esiteid" v="149400"/>
  </node>
  <node id="-477" visible="true" lat="43.19008187" lon="-73.04522765">
    <tag k="addr:housenumber" v="150"/>
    <tag k="addr:street" v="Homer Road"/>
    <tag k="addr:state" v="VT"/>
    <tag k="ref:vcgi:esiteid" v="149401"/>
  </node>
  <node id="-478" visible="true" lat="43.19007197" lon="-73.04506111">
    <tag k="addr:housenumber" v="140"/>
    <tag k="addr:street" v="Homer Road"/>
    <tag k="addr:state" v="VT"/>
    <tag k="ref:vcgi:esiteid" v="149402"/>
  </node>
  <node id="-479" visible="true" lat="43.19005432" lon="-73.04352633">
    <tag k="addr:housenumber" v="68"/>
    <tag k="addr:street" v="Homer Road"/>
    <tag k="addr:state" v="VT"/>
    <tag k="ref:vcgi:esiteid" v="149403"/>
  </node>
  <node id="-480" visible="true" lat="43.19008734" lon="-73.04425992">
    <tag k="addr:housenumber" v="100"/>
    <tag k="addr:street" v="Homer Road"/>
    <tag k="addr:state" v="VT"/>
    <tag k="ref:vcgi:esiteid" v="149404"/>
  </node>
  <node id="-481" visible="true" lat="43.19008327" lon="-73.04371397">
    <tag k="addr:housenumber" v="74"/>
    <tag k="addr:street" v="Homer Road"/>
    <tag k="addr:state" v="VT"/>
    <tag k="ref:vcgi:esiteid" v="149405"/>
  </node>
  <node id="-484" visible="true" lat="43.19002533" lon="-73.04316711">
    <tag k="addr:housenumber" v="6155"/>
    <tag k="addr:street" v="Main Street"/>
    <tag k="addr:state" v="VT"/>
    <tag k="ref:vcgi:esiteid" v="149408"/>
  </node>
  <node id="-485" visible="true" lat="43.19011637" lon="-73.01641523">
    <tag k="addr:housenumber" v="13"/>
    <tag k="addr:street" v="Winter Street"/>
    <tag k="addr:state" v="VT"/>
    <tag k="ref:vcgi:esiteid" v="149409"/>
  </node>
  <node id="-486" visible="true" lat="43.19001311" lon="-73.04336853">
    <tag k="addr:housenumber" v="62"/>
    <tag k="addr:street" v="Homer Road"/>
    <tag k="addr:state" v="VT"/>
    <tag k="ref:vcgi:esiteid" v="149410"/>
  </node>
  <node id="-488" visible="true" lat="43.18985727" lon="-73.0450688">
    <tag k="addr:housenumber" v="4"/>
    <tag k="addr:street" v="Virgil Road"/>
    <tag k="addr:state" v="VT"/>
    <tag k="ref:vcgi:esiteid" v="149412"/>
  </node>
  <node id="-489" visible="true" lat="43.18984226" lon="-73.04438151">
    <tag k="addr:housenumber" v="4"/>
    <tag k="addr:street" v="Cicero Road"/>
    <tag k="addr:state" v="VT"/>
    <tag k="ref:vcgi:esiteid" v="149413"/>
  </node>
  <node id="-492" visible="true" lat="43.18981834" lon="-73.04391017">
    <tag k="addr:housenumber" v="85"/>
    <tag k="addr:street" v="Homer Road"/>
    <tag k="addr:state" v="VT"/>
    <tag k="ref:vcgi:esiteid" v="149416"/>
  </node>
  <node id="-493" visible="true" lat="43.18982315" lon="-73.04315185">
    <tag k="addr:housenumber" v="6137"/>
    <tag k="addr:street" v="Main Street"/>
    <tag k="addr:state" v="VT"/>
    <tag k="ref:vcgi:esiteid" v="149417"/>
  </node>
  <node id="-494" visible="true" lat="43.1898124" lon="-73.04371196">
    <tag k="addr:housenumber" v="75"/>
    <tag k="addr:street" v="Homer Road"/>
    <tag k="addr:state" v="VT"/>
    <tag k="ref:vcgi:esiteid" v="149418"/>
  </node>
  <node id="-497" visible="true" lat="43.18982215" lon="-73.04571597">
    <tag k="addr:housenumber" v="8"/>
    <tag k="addr:street" v="Horace Road"/>
    <tag k="addr:state" v="VT"/>
    <tag k="ref:vcgi:esiteid" v="149421"/>
  </node>
  <node id="-498" visible="true" lat="43.18981297" lon="-73.04532332">
    <tag k="addr:housenumber" v="9"/>
    <tag k="addr:street" v="Horace Road"/>
    <tag k="addr:state" v="VT"/>
    <tag k="ref:vcgi:esiteid" v="149422"/>
  </node>
  <node id="-499" visible="true" lat="43.19016739" lon="-73.00499922">
    <tag k="addr:housenumber" v="459"/>
    <tag k="addr:street" v="New Ireland Road"/>
    <tag k="addr:state" v="VT"/>
    <tag k="ref:vcgi:esiteid" v="149423"/>
  </node>
  <node id="-500" visible="true" lat="43.18973012" lon="-73.04507648">
    <tag k="addr:housenumber" v="14"/>
    <tag k="addr:street" v="Virgil Road"/>
    <tag k="addr:state" v="VT"/>
    <tag k="ref:vcgi:esiteid" v="149424"/>
  </node>
  <node id="-502" visible="true" lat="43.18973585" lon="-73.04571993">
    <tag k="addr:housenumber" v="18"/>
    <tag k="addr:street" v="Horace Road"/>
    <tag k="addr:state" v="VT"/>
    <tag k="ref:vcgi:esiteid" v="149426"/>
  </node>
  <node id="-504" visible="true" lat="43.18981239" lon="-73.0440664">
    <tag k="addr:housenumber" v="89"/>
    <tag k="addr:street" v="Homer Road"/>
    <tag k="addr:state" v="VT"/>
    <tag k="ref:vcgi:esiteid" v="149428"/>
  </node>
  <node id="-505" visible="true" lat="43.18971683" lon="-73.04439609">
    <tag k="addr:housenumber" v="16"/>
    <tag k="addr:street" v="Cicero Road"/>
    <tag k="addr:state" v="VT"/>
    <tag k="ref:vcgi:esiteid" v="149429"/>
  </node>
  <node id="-506" visible="true" lat="43.18960245" lon="-73.04508419">
    <tag k="addr:housenumber" v="20"/>
    <tag k="addr:street" v="Virgil Road"/>
    <tag k="addr:state" v="VT"/>
    <tag k="ref:vcgi:esiteid" v="149430"/>
  </node>
  <node id="-507" visible="true" lat="43.18970594" lon="-73.04467269">
    <tag k="addr:housenumber" v="17"/>
    <tag k="addr:street" v="Virgil Road"/>
    <tag k="addr:state" v="VT"/>
    <tag k="ref:vcgi:esiteid" v="149431"/>
  </node>
  <node id="-508" visible="true" lat="43.18965956" lon="-73.04574282">
    <tag k="addr:housenumber" v="24"/>
    <tag k="addr:street" v="Horace Road"/>
    <tag k="addr:state" v="VT"/>
    <tag k="ref:vcgi:esiteid" v="149432"/>
  </node>
  <node id="-510" visible="true" lat="43.18967889" lon="-73.04533254">
    <tag k="addr:housenumber" v="19"/>
    <tag k="addr:street" v="Horace Road"/>
    <tag k="addr:state" v="VT"/>
    <tag k="ref:vcgi:esiteid" v="149434"/>
  </node>
  <node id="-512" visible="true" lat="43.18960229" lon="-73.04440873">
    <tag k="addr:housenumber" v="22"/>
    <tag k="addr:street" v="Cicero Road"/>
    <tag k="addr:state" v="VT"/>
    <tag k="ref:vcgi:esiteid" v="149436"/>
  </node>
  <node id="-515" visible="true" lat="43.18962519" lon="-73.04402198">
    <tag k="addr:housenumber" v="23"/>
    <tag k="addr:street" v="Cicero Road"/>
    <tag k="addr:state" v="VT"/>
    <tag k="ref:vcgi:esiteid" v="149439"/>
  </node>
  <node id="-516" visible="true" lat="43.18959807" lon="-73.04470589">
    <tag k="addr:housenumber" v="21"/>
    <tag k="addr:street" v="Virgil Road"/>
    <tag k="addr:state" v="VT"/>
    <tag k="ref:vcgi:esiteid" v="149440"/>
  </node>
  <node id="-517" visible="true" lat="43.18961756" lon="-73.04375495">
    <tag k="addr:housenumber" v="45"/>
    <tag k="addr:street" v="Homer Road"/>
    <tag k="addr:state" v="VT"/>
    <tag k="ref:vcgi:esiteid" v="149441"/>
  </node>
  <node id="-518" visible="true" lat="43.18957208" lon="-73.0453478">
    <tag k="addr:housenumber" v="25"/>
    <tag k="addr:street" v="Horace Road"/>
    <tag k="addr:state" v="VT"/>
    <tag k="ref:vcgi:esiteid" v="149442"/>
  </node>
  <node id="-545" visible="true" lat="43.18875962" lon="-73.01288246">
    <tag k="addr:housenumber" v="281"/>
    <tag k="addr:street" v="Nottingham Park"/>
    <tag k="addr:state" v="VT"/>
    <tag k="ref:vcgi:esiteid" v="149470"/>
  </node>
  <node id="-553" visible="true" lat="43.18860703" lon="-73.01203015">
    <tag k="addr:housenumber" v="280"/>
    <tag k="addr:street" v="Nottingham Park"/>
    <tag k="addr:state" v="VT"/>
    <tag k="ref:vcgi:esiteid" v="149478"/>
  </node>
  <node id="-561" visible="true" lat="43.188168" lon="-73.0551129">
    <tag k="addr:housenumber" v="756"/>
    <tag k="addr:street" v="Bonnet Street"/>
    <tag k="addr:state" v="VT"/>
    <tag k="ref:vcgi:esiteid" v="149486"/>
  </node>
  <node id="-691" visible="true" lat="43.1824991" lon="-73.05730579">
    <tag k="addr:housenumber" v="398"/>
    <tag k="addr:street" v="Bonnet Street"/>
    <tag k="addr:state" v="VT"/>
    <tag k="ref:vcgi:esiteid" v="149623"/>
  </node>
  <node id="-710" visible="true" lat="43.18199018" lon="-73.05744183">
    <tag k="addr:housenumber" v="358"/>
    <tag k="addr:street" v="Bonnet Street"/>
    <tag k="addr:state" v="VT"/>
    <tag k="ref:vcgi:esiteid" v="149644"/>
  </node>
  <node id="-720" visible="true" lat="43.18172631" lon="-73.05819753">
    <tag k="addr:housenumber" v="345"/>
    <tag k="addr:street" v="Bonnet Street"/>
    <tag k="addr:state" v="VT"/>
    <tag k="ref:vcgi:esiteid" v="149654"/>
  </node>
  <node id="-738" visible="true" lat="43.1808286" lon="-73.057994">
    <tag k="addr:housenumber" v="275"/>
    <tag k="addr:street" v="Bonnet Street"/>
    <tag k="addr:state" v="VT"/>
    <tag k="ref:vcgi:esiteid" v="149675"/>
  </node>
  <node id="-746" visible="true" lat="43.18062921" lon="-73.0599651">
    <tag k="addr:housenumber" v="56"/>
    <tag k="addr:street" v="Riverside Townhouses Road"/>
    <tag k="addr:state" v="VT"/>
    <tag k="ref:vcgi:esiteid" v="149683"/>
  </node>
  <node id="-749" visible="true" lat="43.18044662" lon="-73.05657958">
    <tag k="addr:housenumber" v="55"/>
    <tag k="addr:street" v="Two Cow Lane"/>
    <tag k="addr:state" v="VT"/>
    <tag k="ref:vcgi:esiteid" v="149686"/>
  </node>
  <node id="-752" visible="true" lat="43.18036259" lon="-73.05734794">
    <tag k="addr:housenumber" v="246"/>
    <tag k="addr:street" v="Bonnet Street"/>
    <tag k="addr:state" v="VT"/>
    <tag k="ref:vcgi:esiteid" v="149689"/>
  </node>
  <node id="-753" visible="true" lat="43.18042967" lon="-73.05613365">
    <tag k="addr:housenumber" v="75"/>
    <tag k="addr:street" v="Two Cow Lane"/>
    <tag k="addr:state" v="VT"/>
    <tag k="ref:vcgi:esiteid" v="149690"/>
  </node>
  <node id="-756" visible="true" lat="43.18030338" lon="-73.05793328">
    <tag k="addr:housenumber" v="247"/>
    <tag k="addr:street" v="Bonnet Street"/>
    <tag k="addr:state" v="VT"/>
    <tag k="ref:vcgi:esiteid" v="149693"/>
  </node>
  <node id="-757" visible="true" lat="43.1801878" lon="-73.06010113">
    <tag k="addr:housenumber" v="138"/>
    <tag k="addr:street" v="Riverside Townhouses Road"/>
    <tag k="addr:state" v="VT"/>
    <tag k="ref:vcgi:esiteid" v="149694"/>
  </node>
  <node id="-773" visible="true" lat="43.18001375" lon="-73.05802076">
    <tag k="addr:housenumber" v="231"/>
    <tag k="addr:street" v="Bonnet Street"/>
    <tag k="addr:state" v="VT"/>
    <tag k="ref:vcgi:esiteid" v="149714"/>
  </node>
  <node id="-775" visible="true" lat="43.1801513" lon="-73.05579508">
    <tag k="addr:housenumber" v="87"/>
    <tag k="addr:street" v="Two Cow Lane"/>
    <tag k="addr:state" v="VT"/>
    <tag k="ref:vcgi:esiteid" v="149716"/>
  </node>
  <node id="-776" visible="true" lat="43.18007312" lon="-73.05684516">
    <tag k="addr:housenumber" v="30"/>
    <tag k="addr:street" v="Two Cow Lane"/>
    <tag k="addr:state" v="VT"/>
    <tag k="ref:vcgi:esiteid" v="149717"/>
  </node>
  <node id="-778" visible="true" lat="43.17999279" lon="-73.05642383">
    <tag k="addr:housenumber" v="72"/>
    <tag k="addr:street" v="Two Cow Lane"/>
    <tag k="addr:state" v="VT"/>
    <tag k="ref:vcgi:esiteid" v="149719"/>
  </node>
  <node id="-780" visible="true" lat="43.17995122" lon="-73.0603816">
    <tag k="addr:housenumber" v="158"/>
    <tag k="addr:street" v="Riverside Townhouses Road"/>
    <tag k="addr:state" v="VT"/>
    <tag k="ref:vcgi:esiteid" v="149721"/>
  </node>
  <node id="-785" visible="true" lat="43.17992969" lon="-73.0560281">
    <tag k="addr:housenumber" v="86"/>
    <tag k="addr:street" v="Two Cow Lane"/>
    <tag k="addr:state" v="VT"/>
    <tag k="ref:vcgi:esiteid" v="149726"/>
  </node>
  <node id="-786" visible="true" lat="43.17987809" lon="-73.05730007">
    <tag k="addr:housenumber" v="208"/>
    <tag k="addr:street" v="Bonnet Street"/>
    <tag k="addr:state" v="VT"/>
    <tag k="ref:vcgi:esiteid" v="149727"/>
  </node>
  <node id="-787" visible="true" lat="43.17979454" lon="-73.05984372">
    <tag k="addr:housenumber" v="149"/>
    <tag k="addr:street" v="Riverside Townhouses Road"/>
    <tag k="addr:state" v="VT"/>
    <tag k="ref:vcgi:esiteid" v="149728"/>
  </node>
  <node id="-791" visible="true" lat="43.17976389" lon="-73.05615431">
    <tag k="addr:housenumber" v="67"/>
    <tag k="addr:street" v="School Street"/>
    <tag k="addr:state" v="VT"/>
    <tag k="ref:vcgi:esiteid" v="149734"/>
  </node>
  <node id="-794" visible="true" lat="43.17971602" lon="-73.05724879">
    <tag k="addr:housenumber" v="198"/>
    <tag k="addr:street" v="Bonnet Street"/>
    <tag k="addr:state" v="VT"/>
    <tag k="ref:vcgi:esiteid" v="149738"/>
  </node>
  <node id="-796" visible="true" lat="43.17971818" lon="-73.05665006">
    <tag k="addr:housenumber" v="43"/>
    <tag k="addr:street" v="School Street"/>
    <tag k="addr:state" v="VT"/>
    <tag k="ref:vcgi:esiteid" v="149740"/>
  </node>
  <node id="-805" visible="true" lat="43.17959237" lon="-73.05719142">
    <tag k="addr:housenumber" v="188"/>
    <tag k="addr:street" v="Bonnet Street"/>
    <tag k="addr:state" v="VT"/>
    <tag k="ref:vcgi:esiteid" v="149749"/>
  </node>
  <node id="-807" visible="true" lat="43.17950044" lon="-73.05992688">
    <tag k="addr:housenumber" v="181"/>
    <tag k="addr:street" v="Riverside Townhouses Road"/>
    <tag k="addr:state" v="VT"/>
    <tag k="ref:vcgi:esiteid" v="149751"/>
  </node>
  <node id="-815" visible="true" lat="43.17946843" lon="-73.05770992">
    <tag k="addr:housenumber" v="187"/>
    <tag k="addr:street" v="Bonnet Street"/>
    <tag k="addr:state" v="VT"/>
    <tag k="ref:vcgi:esiteid" v="149760"/>
  </node>
  <node id="-819" visible="true" lat="43.17951583" lon="-73.04812622">
    <tag k="addr:housenumber" v="5383"/>
    <tag k="addr:street" v="Main Street"/>
    <tag k="addr:state" v="VT"/>
    <tag k="ref:vcgi:esiteid" v="149764"/>
  </node>
  <node id="-820" visible="true" lat="43.17940978" lon="-73.05661939">
    <tag k="addr:housenumber" v="39"/>
    <tag k="addr:street" v="School Street"/>
    <tag k="addr:state" v="VT"/>
    <tag k="ref:vcgi:esiteid" v="149765"/>
  </node>
  <node id="-823" visible="true" lat="43.17938613" lon="-73.05814361">
    <tag k="addr:housenumber" v="191"/>
    <tag k="addr:street" v="Bonnet Street"/>
    <tag k="addr:state" v="VT"/>
    <tag k="ref:vcgi:esiteid" v="149770"/>
  </node>
  <node id="-826" visible="true" lat="43.18067595" lon="-73.05372907">
    <tag k="addr:housenumber" v="120"/>
    <tag k="addr:street" v="Memorial Avenue"/>
    <tag k="addr:state" v="VT"/>
    <tag k="ref:vcgi:esiteid" v="149773"/>
  </node>
  <node id="-827" visible="true" lat="43.17935319" lon="-73.05716383">
    <tag k="addr:housenumber" v="170"/>
    <tag k="addr:street" v="Bonnet Street"/>
    <tag k="addr:state" v="VT"/>
    <tag k="ref:vcgi:esiteid" v="149774"/>
  </node>
  <node id="-828" visible="true" lat="43.17929308" lon="-73.05765785">
    <tag k="addr:housenumber" v="173"/>
    <tag k="addr:street" v="Bonnet Street"/>
    <tag k="addr:state" v="VT"/>
    <tag k="ref:vcgi:esiteid" v="149775"/>
  </node>
  <node id="-832" visible="true" lat="43.17922048" lon="-73.05528134">
    <tag k="addr:housenumber" v="102"/>
    <tag k="addr:street" v="School Street"/>
    <tag k="addr:state" v="VT"/>
    <tag k="ref:vcgi:esiteid" v="149780"/>
  </node>
  <node id="-835" visible="true" lat="43.17913055" lon="-73.05638885">
    <tag k="addr:housenumber" v="50"/>
    <tag k="addr:street" v="School Street"/>
    <tag k="addr:state" v="VT"/>
    <tag k="ref:vcgi:esiteid" v="149783"/>
  </node>
  <node id="-837" visible="true" lat="43.17906387" lon="-73.05769041">
    <tag k="addr:housenumber" v="159"/>
    <tag k="addr:street" v="Bonnet Street"/>
    <tag k="addr:state" v="VT"/>
    <tag k="ref:vcgi:esiteid" v="149786"/>
  </node>
  <node id="-843" visible="true" lat="43.179056" lon="-73.05706116">
    <tag k="addr:housenumber" v="152"/>
    <tag k="addr:street" v="Bonnet Street"/>
    <tag k="addr:state" v="VT"/>
    <tag k="ref:vcgi:esiteid" v="149793"/>
  </node>
  <node id="-847" visible="true" lat="43.17893419" lon="-73.05554138">
    <tag k="addr:housenumber" v="82"/>
    <tag k="addr:street" v="School Street"/>
    <tag k="addr:state" v="VT"/>
    <tag k="ref:vcgi:esiteid" v="149798"/>
  </node>
  <node id="-848" visible="true" lat="43.17885696" lon="-73.06973683">
    <tag k="addr:housenumber" v="114"/>
    <tag k="addr:street" v="Village Glen"/>
    <tag k="addr:state" v="VT"/>
    <tag k="ref:vcgi:esiteid" v="149799"/>
  </node>
  <node id="-852" visible="true" lat="43.17892347" lon="-73.05763877">
    <tag k="addr:housenumber" v="147"/>
    <tag k="addr:street" v="Bonnet Street"/>
    <tag k="addr:state" v="VT"/>
    <tag k="ref:vcgi:esiteid" v="149803"/>
  </node>
  <node id="-859" visible="true" lat="43.17880652" lon="-73.05696754">
    <tag k="addr:housenumber" v="136"/>
    <tag k="addr:street" v="Bonnet Street"/>
    <tag k="addr:state" v="VT"/>
    <tag k="ref:vcgi:esiteid" v="149810"/>
  </node>
  <node id="-864" visible="true" lat="43.17873312" lon="-73.05757015">
    <tag k="addr:housenumber" v="135"/>
    <tag k="addr:street" v="Bonnet Street"/>
    <tag k="addr:state" v="VT"/>
    <tag k="ref:vcgi:esiteid" v="149815"/>
  </node>
  <node id="-866" visible="true" lat="43.17869765" lon="-73.05546016">
    <tag k="addr:housenumber" v="4975"/>
    <tag k="addr:street" v="Main Street"/>
    <tag k="addr:state" v="VT"/>
    <tag k="ref:vcgi:esiteid" v="149818"/>
  </node>
  <node id="-868" visible="true" lat="43.17874272" lon="-73.05366878">
    <tag k="addr:housenumber" v="80"/>
    <tag k="addr:street" v="Memorial Avenue"/>
    <tag k="addr:state" v="VT"/>
    <tag k="ref:vcgi:esiteid" v="149820"/>
  </node>
  <node id="-876" visible="true" lat="43.17858954" lon="-73.05662">
    <tag k="addr:housenumber" v="104"/>
    <tag k="addr:street" v="Bonnet Street"/>
    <tag k="addr:state" v="VT"/>
    <tag k="ref:vcgi:esiteid" v="149828"/>
  </node>
  <node id="-879" visible="true" lat="43.17855448" lon="-73.05758878">
    <tag k="addr:housenumber" v="123"/>
    <tag k="addr:street" v="Bonnet Street"/>
    <tag k="addr:state" v="VT"/>
    <tag k="ref:vcgi:esiteid" v="149831"/>
  </node>
  <node id="-881" visible="true" lat="43.17853653" lon="-73.05691865">
    <tag k="addr:housenumber" v="114"/>
    <tag k="addr:street" v="Bonnet Street"/>
    <tag k="addr:state" v="VT"/>
    <tag k="ref:vcgi:esiteid" v="149833"/>
  </node>
  <node id="-888" visible="true" lat="43.17831629" lon="-73.05787029">
    <tag k="addr:housenumber" v="107"/>
    <tag k="addr:street" v="Bonnet Street"/>
    <tag k="addr:state" v="VT"/>
    <tag k="ref:vcgi:esiteid" v="149841"/>
  </node>
  <node id="-889" visible="true" lat="43.17825456" lon="-73.05218166">
    <tag k="addr:housenumber" v="5143"/>
    <tag k="addr:street" v="Main Street"/>
    <tag k="addr:state" v="VT"/>
    <tag k="ref:vcgi:esiteid" v="149842"/>
  </node>
  <node id="-891" visible="true" lat="43.17822443" lon="-73.05744238">
    <tag k="addr:housenumber" v="105"/>
    <tag k="addr:street" v="Bonnet Street"/>
    <tag k="addr:state" v="VT"/>
    <tag k="ref:vcgi:esiteid" v="149844"/>
  </node>
  <node id="-892" visible="true" lat="43.17825513" lon="-73.05162185">
    <tag k="addr:housenumber" v="5167"/>
    <tag k="addr:street" v="Main Street"/>
    <tag k="addr:state" v="VT"/>
    <tag k="ref:vcgi:esiteid" v="149845"/>
  </node>
  <node id="-895" visible="true" lat="43.17826786" lon="-73.05129708">
    <tag k="addr:housenumber" v="5183"/>
    <tag k="addr:street" v="Main Street"/>
    <tag k="addr:state" v="VT"/>
    <tag k="ref:vcgi:esiteid" v="149848"/>
  </node>
  <node id="-897" visible="true" lat="43.17827629" lon="-73.05694754">
    <tag k="addr:housenumber" v="98"/>
    <tag k="addr:street" v="Bonnet Street"/>
    <tag k="addr:state" v="VT"/>
    <tag k="ref:vcgi:esiteid" v="149850"/>
  </node>
  <node id="-899" visible="true" lat="43.17827224" lon="-73.05431365">
    <tag k="addr:housenumber" v="51"/>
    <tag k="addr:street" v="Memorial Avenue"/>
    <tag k="addr:state" v="VT"/>
    <tag k="ref:vcgi:esiteid" v="149852"/>
  </node>
  <node id="-904" visible="true" lat="43.17822816" lon="-73.05193753">
    <tag k="addr:housenumber" v="5151"/>
    <tag k="addr:street" v="Main Street"/>
    <tag k="addr:state" v="VT"/>
    <tag k="ref:vcgi:esiteid" v="149858"/>
  </node>
  <node id="-907" visible="true" lat="43.17808446" lon="-73.05756709">
    <tag k="addr:housenumber" v="99"/>
    <tag k="addr:street" v="Bonnet Street"/>
    <tag k="addr:state" v="VT"/>
    <tag k="ref:vcgi:esiteid" v="149861"/>
  </node>
  <node id="-908" visible="true" lat="43.1781942" lon="-73.05558203">
    <tag k="addr:housenumber" v="4969"/>
    <tag k="addr:street" v="Main Street"/>
    <tag k="addr:state" v="VT"/>
    <tag k="ref:vcgi:esiteid" v="149862"/>
  </node>
  <node id="-911" visible="true" lat="43.17805862" lon="-73.0668869">
    <tag k="addr:housenumber" v="265"/>
    <tag k="addr:street" v="Village Glen"/>
    <tag k="addr:state" v="VT"/>
    <tag k="ref:vcgi:esiteid" v="149865"/>
  </node>
  <node id="-913" visible="true" lat="43.17811788" lon="-73.0555975">
    <tag k="addr:housenumber" v="4967"/>
    <tag k="addr:street" v="Main Street"/>
    <tag k="addr:state" v="VT"/>
    <tag k="ref:vcgi:esiteid" v="149868"/>
  </node>
  <node id="-917" visible="true" lat="43.17809334" lon="-73.07068453">
    <tag k="addr:housenumber" v="1016"/>
    <tag k="addr:street" v="West Road"/>
    <tag k="addr:state" v="VT"/>
    <tag k="ref:vcgi:esiteid" v="149872"/>
  </node>
  <node id="-918" visible="true" lat="43.17798951" lon="-73.056854">
    <tag k="addr:housenumber" v="78"/>
    <tag k="addr:street" v="Bonnet Street"/>
    <tag k="addr:state" v="VT"/>
    <tag k="ref:vcgi:esiteid" v="149873"/>
  </node>
  <node id="-921" visible="true" lat="43.17804546" lon="-73.05558961">
    <tag k="addr:housenumber" v="4965"/>
    <tag k="addr:street" v="Main Street"/>
    <tag k="addr:state" v="VT"/>
    <tag k="ref:vcgi:esiteid" v="149876"/>
  </node>
  <node id="-922" visible="true" lat="43.17799869" lon="-73.05419682">
    <tag k="addr:housenumber" v="31"/>
    <tag k="addr:street" v="Memorial Avenue"/>
    <tag k="addr:state" v="VT"/>
    <tag k="ref:vcgi:esiteid" v="149878"/>
  </node>
  <node id="-926" visible="true" lat="43.17794003" lon="-73.0528472">
    <tag k="addr:housenumber" v="5103"/>
    <tag k="addr:street" v="Main Street"/>
    <tag k="addr:state" v="VT"/>
    <tag k="ref:vcgi:esiteid" v="149882"/>
  </node>
  <node id="-929" visible="true" lat="43.17792889" lon="-73.05749293">
    <tag k="addr:housenumber" v="75"/>
    <tag k="addr:street" v="Bonnet Street"/>
    <tag k="addr:state" v="VT"/>
    <tag k="ref:vcgi:esiteid" v="149886"/>
  </node>
  <node id="-930" visible="true" lat="43.17789111" lon="-73.05560147">
    <tag k="addr:housenumber" v="4963"/>
    <tag k="addr:street" v="Main Street"/>
    <tag k="addr:state" v="VT"/>
    <tag k="ref:vcgi:esiteid" v="149887"/>
  </node>
  <node id="-931" visible="true" lat="43.17783355" lon="-73.06545257">
    <tag k="addr:housenumber" v="371"/>
    <tag k="addr:street" v="Village Glen"/>
    <tag k="addr:state" v="VT"/>
    <tag k="ref:vcgi:esiteid" v="149888"/>
  </node>
  <node id="-936" visible="true" lat="43.17780553" lon="-73.05333139">
    <tag k="addr:housenumber" v="5073"/>
    <tag k="addr:street" v="Main Street"/>
    <tag k="addr:state" v="VT"/>
    <tag k="ref:vcgi:esiteid" v="149894"/>
  </node>
  <node id="-939" visible="true" lat="43.17783378" lon="-73.05308937">
    <tag k="addr:housenumber" v="5081"/>
    <tag k="addr:street" v="Main Street"/>
    <tag k="addr:state" v="VT"/>
    <tag k="ref:vcgi:esiteid" v="149898"/>
  </node>
  <node id="-940" visible="true" lat="43.17780259" lon="-73.05433881">
    <tag k="addr:housenumber" v="5023"/>
    <tag k="addr:street" v="Main Street"/>
    <tag k="addr:state" v="VT"/>
    <tag k="ref:vcgi:esiteid" v="149899"/>
  </node>
  <node id="-942" visible="true" lat="43.17779187" lon="-73.06802357">
    <tag k="addr:housenumber" v="214"/>
    <tag k="addr:street" v="Village Glen"/>
    <tag k="addr:state" v="VT"/>
    <tag k="ref:vcgi:esiteid" v="149901"/>
  </node>
  <node id="-944" visible="true" lat="43.17770536" lon="-73.05677066">
    <tag k="addr:housenumber" v="58"/>
    <tag k="addr:street" v="Bonnet Street"/>
    <tag k="addr:state" v="VT"/>
    <tag k="ref:vcgi:esiteid" v="149903"/>
  </node>
  <node id="-952" visible="true" lat="43.1777021" lon="-73.05221365">
    <tag k="addr:housenumber" v="34"/>
    <tag k="addr:street" v="Park Place"/>
    <tag k="addr:state" v="VT"/>
    <tag k="ref:vcgi:esiteid" v="149911"/>
  </node>
  <node id="-962" visible="true" lat="43.17730916" lon="-73.07095246">
    <tag k="addr:housenumber" v="956"/>
    <tag k="addr:street" v="West Road"/>
    <tag k="addr:state" v="VT"/>
    <tag k="ref:vcgi:esiteid" v="149924"/>
  </node>
  <node id="-963" visible="true" lat="43.17747957" lon="-73.05236926">
    <tag k="addr:housenumber" v="18"/>
    <tag k="addr:street" v="Park Place"/>
    <tag k="addr:state" v="VT"/>
    <tag k="ref:vcgi:esiteid" v="149925"/>
  </node>
  <node id="-968" visible="true" lat="43.17749116" lon="-73.05735298">
    <tag k="addr:housenumber" v="39"/>
    <tag k="addr:street" v="Bonnet Street"/>
    <tag k="addr:state" v="VT"/>
    <tag k="ref:vcgi:esiteid" v="149932"/>
  </node>
  <node id="-970" visible="true" lat="43.17738374" lon="-73.05398918">
    <tag k="addr:housenumber" v="5032"/>
    <tag k="addr:street" v="Main Street"/>
    <tag k="addr:state" v="VT"/>
    <tag k="ref:vcgi:esiteid" v="149935"/>
  </node>
  <node id="-973" visible="true" lat="43.17738945" lon="-73.05388755">
    <tag k="addr:housenumber" v="5036"/>
    <tag k="addr:street" v="Main Street"/>
    <tag k="addr:state" v="VT"/>
    <tag k="ref:vcgi:esiteid" v="149938"/>
  </node>
  <node id="-974" visible="true" lat="43.17736816" lon="-73.05371856">
    <tag k="addr:housenumber" v="5046"/>
    <tag k="addr:street" v="Main Street"/>
    <tag k="addr:state" v="VT"/>
    <tag k="ref:vcgi:esiteid" v="149939"/>
  </node>
  <node id="-977" visible="true" lat="43.17737803" lon="-73.05424096">
    <tag k="addr:housenumber" v="5018"/>
    <tag k="addr:street" v="Main Street"/>
    <tag k="addr:state" v="VT"/>
    <tag k="ref:vcgi:esiteid" v="149943"/>
  </node>
  <node id="-981" visible="true" lat="43.17729202" lon="-73.05623555">
    <tag k="addr:housenumber" v="4919"/>
    <tag k="addr:street" v="Main Street"/>
    <tag k="addr:state" v="VT"/>
    <tag k="ref:vcgi:esiteid" v="149948"/>
  </node>
  <node id="-982" visible="true" lat="43.17728079" lon="-73.05604886">
    <tag k="addr:housenumber" v="4927"/>
    <tag k="addr:street" v="Main Street"/>
    <tag k="addr:state" v="VT"/>
    <tag k="ref:vcgi:esiteid" v="149949"/>
  </node>
  <node id="-984" visible="true" lat="43.17730702" lon="-73.05449639">
    <tag k="addr:housenumber" v="4996"/>
    <tag k="addr:street" v="Main Street"/>
    <tag k="addr:state" v="VT"/>
    <tag k="ref:vcgi:esiteid" v="149951"/>
  </node>
  <node id="-988" visible="true" lat="43.17725363" lon="-73.05634604">
    <tag k="addr:housenumber" v="4915"/>
    <tag k="addr:street" v="Main Street"/>
    <tag k="addr:state" v="VT"/>
    <tag k="ref:vcgi:esiteid" v="149955"/>
  </node>
  <node id="-993" visible="true" lat="43.17721006" lon="-73.05656084">
    <tag k="addr:housenumber" v="4903"/>
    <tag k="addr:street" v="Main Street"/>
    <tag k="addr:state" v="VT"/>
    <tag k="ref:vcgi:esiteid" v="149960"/>
  </node>
  <node id="-994" visible="true" lat="43.17728674" lon="-73.05517534">
    <tag k="addr:housenumber" v="4964"/>
    <tag k="addr:street" v="Main Street"/>
    <tag k="addr:state" v="VT"/>
    <tag k="ref:vcgi:esiteid" v="149962"/>
  </node>
  <node id="-998" visible="true" lat="43.17718632" lon="-73.05678259">
    <tag k="addr:housenumber" v="4895"/>
    <tag k="addr:street" v="Main Street"/>
    <tag k="addr:state" v="VT"/>
    <tag k="ref:vcgi:esiteid" v="149966"/>
  </node>
  <node id="-999" visible="true" lat="43.17723808" lon="-73.05531767">
    <tag k="addr:housenumber" v="4960"/>
    <tag k="addr:street" v="Main Street"/>
    <tag k="addr:state" v="VT"/>
    <tag k="ref:vcgi:esiteid" v="149967"/>
  </node>
  <node id="-1008" visible="true" lat="43.17707199" lon="-73.06382639">
    <tag k="addr:housenumber" v="422"/>
    <tag k="addr:street" v="Village Glen"/>
    <tag k="addr:state" v="VT"/>
    <tag k="ref:vcgi:esiteid" v="149979"/>
  </node>
  <node id="-1009" visible="true" lat="43.17703426" lon="-73.05709509">
    <tag k="addr:housenumber" v="15"/>
    <tag k="addr:street" v="Bonnet Street"/>
    <tag k="addr:state" v="VT"/>
    <tag k="ref:vcgi:esiteid" v="149980"/>
  </node>
  <node id="-1010" visible="true" lat="43.17712203" lon="-73.0554543">
    <tag k="addr:housenumber" v="4952"/>
    <tag k="addr:street" v="Main Street"/>
    <tag k="addr:state" v="VT"/>
    <tag k="ref:vcgi:esiteid" v="149981"/>
  </node>
  <node id="-1017" visible="true" lat="43.17704796" lon="-73.05184132">
    <tag k="addr:housenumber" v="13"/>
    <tag k="addr:street" v="Cemetery Avenue"/>
    <tag k="addr:state" v="VT"/>
    <tag k="ref:vcgi:esiteid" v="149989"/>
  </node>
  <node id="-1018" visible="true" lat="43.17700412" lon="-73.05585875">
    <tag k="addr:housenumber" v="4928"/>
    <tag k="addr:street" v="Main Street"/>
    <tag k="addr:state" v="VT"/>
    <tag k="ref:vcgi:esiteid" v="149990"/>
  </node>
  <node id="-1021" visible="true" lat="43.17696299" lon="-73.05708329">
    <tag k="addr:housenumber" v="7"/>
    <tag k="addr:street" v="Bonnet Street"/>
    <tag k="addr:state" v="VT"/>
    <tag k="ref:vcgi:esiteid" v="149994"/>
  </node>
  <node id="-1022" visible="true" lat="43.17705347" lon="-73.05141164">
    <tag k="addr:housenumber" v="21"/>
    <tag k="addr:street" v="Cemetery Avenue"/>
    <tag k="addr:state" v="VT"/>
    <tag k="ref:vcgi:esiteid" v="149995"/>
  </node>
  <node id="-1023" visible="true" lat="43.17689132" lon="-73.05622863">
    <tag k="addr:housenumber" v="4912"/>
    <tag k="addr:street" v="Main Street"/>
    <tag k="addr:state" v="VT"/>
    <tag k="ref:vcgi:esiteid" v="149997"/>
  </node>
  <node id="-1027" visible="true" lat="43.17687391" lon="-73.05727777">
    <tag k="addr:housenumber" v="4869"/>
    <tag k="addr:street" v="Main Street"/>
    <tag k="addr:state" v="VT"/>
    <tag k="ref:vcgi:esiteid" v="150001"/>
  </node>
  <node id="-1028" visible="true" lat="43.17683008" lon="-73.05646106">
    <tag k="addr:housenumber" v="4900"/>
    <tag k="addr:street" v="Main Street"/>
    <tag k="addr:state" v="VT"/>
    <tag k="ref:vcgi:esiteid" v="150002"/>
  </node>
  <node id="-1031" visible="true" lat="43.17676162" lon="-73.05663299">
    <tag k="addr:housenumber" v="4886"/>
    <tag k="addr:street" v="Main Street"/>
    <tag k="addr:state" v="VT"/>
    <tag k="ref:vcgi:esiteid" v="150009"/>
  </node>
  <node id="-1034" visible="true" lat="43.17674624" lon="-73.05843255">
    <tag k="addr:housenumber" v="4847"/>
    <tag k="addr:street" v="Main Street"/>
    <tag k="addr:state" v="VT"/>
    <tag k="ref:vcgi:esiteid" v="150012"/>
  </node>
  <node id="-1037" visible="true" lat="43.17655432" lon="-73.07096316">
    <tag k="addr:housenumber" v="900"/>
    <tag k="addr:street" v="West Road"/>
    <tag k="addr:state" v="VT"/>
    <tag k="ref:vcgi:esiteid" v="150015"/>
  </node>
  <node id="-1038" visible="true" lat="43.17663704" lon="-73.06350875">
    <tag k="addr:housenumber" v="257"/>
    <tag k="addr:street" v="Hillvale Road"/>
    <tag k="addr:state" v="VT"/>
    <tag k="ref:vcgi:esiteid" v="150016"/>
  </node>
  <node id="-1039" visible="true" lat="43.17665867" lon="-73.06169355">
    <tag k="addr:housenumber" v="130"/>
    <tag k="addr:street" v="Brookside Road"/>
    <tag k="addr:state" v="VT"/>
    <tag k="ref:vcgi:esiteid" v="150017"/>
  </node>
  <node id="-1043" visible="true" lat="43.17658252" lon="-73.06273416">
    <tag k="addr:housenumber" v="275"/>
    <tag k="addr:street" v="Hillvale Road"/>
    <tag k="addr:state" v="VT"/>
    <tag k="ref:vcgi:esiteid" v="150021"/>
  </node>
  <node id="-1045" visible="true" lat="43.17651146" lon="-73.06087419">
    <tag k="addr:housenumber" v="104"/>
    <tag k="addr:street" v="Brookside Road"/>
    <tag k="addr:state" v="VT"/>
    <tag k="ref:vcgi:esiteid" v="150024"/>
  </node>
  <node id="-1046" visible="true" lat="43.17654209" lon="-73.05666116">
    <tag k="addr:housenumber" v="4858"/>
    <tag k="addr:street" v="Main Street"/>
    <tag k="addr:state" v="VT"/>
    <tag k="ref:vcgi:esiteid" v="150025"/>
  </node>
  <node id="-1047" visible="true" lat="43.17643763" lon="-73.06840403">
    <tag k="addr:housenumber" v="143"/>
    <tag k="addr:street" v="Brightwood Road"/>
    <tag k="addr:state" v="VT"/>
    <tag k="ref:vcgi:esiteid" v="150026"/>
  </node>
  <node id="-1049" visible="true" lat="43.17649134" lon="-73.05709411">
    <tag k="addr:housenumber" v="4854"/>
    <tag k="addr:street" v="Main Street"/>
    <tag k="addr:state" v="VT"/>
    <tag k="ref:vcgi:esiteid" v="150028"/>
  </node>
  <node id="-1050" visible="true" lat="43.17635535" lon="-73.06996153">
    <tag k="addr:housenumber" v="69"/>
    <tag k="addr:street" v="Brightwood Road"/>
    <tag k="addr:state" v="VT"/>
    <tag k="ref:vcgi:esiteid" v="150029"/>
  </node>
  <node id="-1053" visible="true" lat="43.17630084" lon="-73.06912623">
    <tag k="addr:housenumber" v="105"/>
    <tag k="addr:street" v="Brightwood Road"/>
    <tag k="addr:state" v="VT"/>
    <tag k="ref:vcgi:esiteid" v="150032"/>
  </node>
  <node id="-1055" visible="true" lat="43.17628237" lon="-73.06205798">
    <tag k="addr:housenumber" v="133"/>
    <tag k="addr:street" v="Brookside Road"/>
    <tag k="addr:state" v="VT"/>
    <tag k="ref:vcgi:esiteid" v="150035"/>
  </node>
  <node id="-1056" visible="true" lat="43.17630767" lon="-73.05431366">
    <tag k="addr:housenumber" v="159"/>
    <tag k="addr:street" v="Depot Street"/>
    <tag k="addr:state" v="VT"/>
    <tag k="ref:vcgi:esiteid" v="150036"/>
  </node>
  <node id="-1057" visible="true" lat="43.17626571" lon="-73.06143188">
    <tag k="addr:housenumber" v="121"/>
    <tag k="addr:street" v="Brookside Road"/>
    <tag k="addr:state" v="VT"/>
    <tag k="ref:vcgi:esiteid" v="150037"/>
  </node>
  <node id="-1058" visible="true" lat="43.17626734" lon="-73.06087094">
    <tag k="addr:housenumber" v="94"/>
    <tag k="addr:street" v="Brookside Road"/>
    <tag k="addr:state" v="VT"/>
    <tag k="ref:vcgi:esiteid" v="150038"/>
  </node>
  <node id="-1059" visible="true" lat="43.17621231" lon="-73.05811309">
    <tag k="addr:housenumber" v="4803"/>
    <tag k="addr:street" v="Main Street"/>
    <tag k="addr:state" v="VT"/>
    <tag k="ref:vcgi:esiteid" v="150039"/>
  </node>
  <node id="-1065" visible="true" lat="43.17622848" lon="-73.05328521">
    <tag k="addr:housenumber" v="265"/>
    <tag k="addr:street" v="Depot Street"/>
    <tag k="addr:state" v="VT"/>
    <tag k="ref:vcgi:esiteid" v="150045"/>
  </node>
  <node id="-1068" visible="true" lat="43.17606767" lon="-73.05716054">
    <tag k="addr:housenumber" v="18"/>
    <tag k="addr:street" v="Depot Street"/>
    <tag k="addr:state" v="VT"/>
    <tag k="ref:vcgi:esiteid" v="150050"/>
  </node>
  <node id="-1069" visible="true" lat="43.17594297" lon="-73.06351254">
    <tag k="addr:housenumber" v="235"/>
    <tag k="addr:street" v="Hillvale Road"/>
    <tag k="addr:state" v="VT"/>
    <tag k="ref:vcgi:esiteid" v="150051"/>
  </node>
  <node id="-1071" visible="true" lat="43.17595362" lon="-73.0608324">
    <tag k="addr:housenumber" v="76"/>
    <tag k="addr:street" v="Brookside Road"/>
    <tag k="addr:state" v="VT"/>
    <tag k="ref:vcgi:esiteid" v="150053"/>
  </node>
  <node id="-1073" visible="true" lat="43.17601079" lon="-73.05828599">
    <tag k="addr:housenumber" v="4783"/>
    <tag k="addr:street" v="Main Street"/>
    <tag k="addr:state" v="VT"/>
    <tag k="ref:vcgi:esiteid" v="150056"/>
  </node>
  <node id="-1075" visible="true" lat="43.17595102" lon="-73.05585152">
    <tag k="addr:housenumber" v="65"/>
    <tag k="addr:street" v="Depot Street"/>
    <tag k="addr:state" v="VT"/>
    <tag k="ref:vcgi:esiteid" v="150059"/>
  </node>
  <node id="-1076" visible="true" lat="43.17592667" lon="-73.05694599">
    <tag k="addr:housenumber" v="32"/>
    <tag k="addr:street" v="Depot Street"/>
    <tag k="addr:state" v="VT"/>
    <tag k="ref:vcgi:esiteid" v="150060"/>
  </node>
  <node id="-1078" visible="true" lat="43.17595941" lon="-73.06279647">
    <tag k="addr:housenumber" v="96"/>
    <tag k="addr:street" v="Hills Way"/>
    <tag k="addr:state" v="VT"/>
    <tag k="ref:vcgi:esiteid" v="150063"/>
  </node>
  <node id="-1079" visible="true" lat="43.17591715" lon="-73.05754991">
    <tag k="addr:housenumber" v="4802"/>
    <tag k="addr:street" v="Main Street"/>
    <tag k="addr:state" v="VT"/>
    <tag k="ref:vcgi:esiteid" v="150064"/>
  </node>
  <node id="-1081" visible="true" lat="43.17590635" lon="-73.06227945">
    <tag k="addr:housenumber" v="68"/>
    <tag k="addr:street" v="Hills Way"/>
    <tag k="addr:state" v="VT"/>
    <tag k="ref:vcgi:esiteid" v="150068"/>
  </node>
  <node id="-1085" visible="true" lat="43.17581176" lon="-73.06137847">
    <tag k="addr:housenumber" v="18"/>
    <tag k="addr:street" v="Hills Way"/>
    <tag k="addr:state" v="VT"/>
    <tag k="ref:vcgi:esiteid" v="150072"/>
  </node>
  <node id="-1088" visible="true" lat="43.17586495" lon="-73.06183279">
    <tag k="addr:housenumber" v="46"/>
    <tag k="addr:street" v="Hills Way"/>
    <tag k="addr:state" v="VT"/>
    <tag k="ref:vcgi:esiteid" v="150075"/>
  </node>
  <node id="-1093" visible="true" lat="43.17566944" lon="-73.06994288">
    <tag k="addr:housenumber" v="64"/>
    <tag k="addr:street" v="Brightwood Road"/>
    <tag k="addr:state" v="VT"/>
    <tag k="ref:vcgi:esiteid" v="150081"/>
  </node>
  <node id="-1095" visible="true" lat="43.17576622" lon="-73.05562743">
    <tag k="addr:housenumber" v="97"/>
    <tag k="addr:street" v="Depot Street"/>
    <tag k="addr:state" v="VT"/>
    <tag k="ref:vcgi:esiteid" v="150083"/>
  </node>
  <node id="-1096" visible="true" lat="43.17572402" lon="-73.05784606">
    <tag k="addr:housenumber" v="4788"/>
    <tag k="addr:street" v="Main Street"/>
    <tag k="addr:state" v="VT"/>
    <tag k="ref:vcgi:esiteid" v="150084"/>
  </node>
  <node id="-1103" visible="true" lat="43.17565917" lon="-73.05626678">
    <tag k="addr:housenumber" v="72"/>
    <tag k="addr:street" v="Depot Street"/>
    <tag k="addr:state" v="VT"/>
    <tag k="ref:vcgi:esiteid" v="150093"/>
  </node>
  <node id="-1105" visible="true" lat="43.17564181" lon="-73.06888447">
    <tag k="addr:housenumber" v="126"/>
    <tag k="addr:street" v="Brightwood Road"/>
    <tag k="addr:state" v="VT"/>
    <tag k="ref:vcgi:esiteid" v="150095"/>
  </node>
  <node id="-1109" visible="true" lat="43.17552443" lon="-73.06289438">
    <tag k="addr:housenumber" v="206"/>
    <tag k="addr:street" v="Hillvale Road"/>
    <tag k="addr:state" v="VT"/>
    <tag k="ref:vcgi:esiteid" v="150100"/>
  </node>
  <node id="-1110" visible="true" lat="43.17563669" lon="-73.06075636">
    <tag k="addr:housenumber" v="46"/>
    <tag k="addr:street" v="Brookside Road"/>
    <tag k="addr:state" v="VT"/>
    <tag k="ref:vcgi:esiteid" v="150101"/>
  </node>
  <node id="-1111" visible="true" lat="43.17550177" lon="-73.06235128">
    <tag k="addr:housenumber" v="65"/>
    <tag k="addr:street" v="Hills Way"/>
    <tag k="addr:state" v="VT"/>
    <tag k="ref:vcgi:esiteid" v="150102"/>
  </node>
  <node id="-1118" visible="true" lat="43.17546264" lon="-73.0679453">
    <tag k="addr:housenumber" v="160"/>
    <tag k="addr:street" v="Brightwood Road"/>
    <tag k="addr:state" v="VT"/>
    <tag k="ref:vcgi:esiteid" v="150109"/>
  </node>
  <node id="-1119" visible="true" lat="43.17547977" lon="-73.05419207">
    <tag k="addr:housenumber" v="175"/>
    <tag k="addr:street" v="Depot Street"/>
    <tag k="addr:state" v="VT"/>
    <tag k="ref:vcgi:esiteid" v="150110"/>
  </node>
  <node id="-1124" visible="true" lat="43.17544908" lon="-73.0619281">
    <tag k="addr:housenumber" v="41"/>
    <tag k="addr:street" v="Hills Way"/>
    <tag k="addr:state" v="VT"/>
    <tag k="ref:vcgi:esiteid" v="150116"/>
  </node>
  <node id="-1125" visible="true" lat="43.17542815" lon="-73.06139754">
    <tag k="addr:housenumber" v="37"/>
    <tag k="addr:street" v="Brookside Road"/>
    <tag k="addr:state" v="VT"/>
    <tag k="ref:vcgi:esiteid" v="150117"/>
  </node>
  <node id="-1128" visible="true" lat="43.17533172" lon="-73.06076184">
    <tag k="addr:housenumber" v="30"/>
    <tag k="addr:street" v="Brookside Road"/>
    <tag k="addr:state" v="VT"/>
    <tag k="ref:vcgi:esiteid" v="150121"/>
  </node>
  <node id="-1130" visible="true" lat="43.17528556" lon="-73.05680983">
    <tag k="addr:housenumber" v="9"/>
    <tag k="addr:street" v="Cone Road"/>
    <tag k="addr:state" v="VT"/>
    <tag k="ref:vcgi:esiteid" v="150123"/>
  </node>
  <node id="-1131" visible="true" lat="43.17528533" lon="-73.06288146">
    <tag k="addr:housenumber" v="160"/>
    <tag k="addr:street" v="Hillvale Road"/>
    <tag k="addr:state" v="VT"/>
    <tag k="ref:vcgi:esiteid" v="150124"/>
  </node>
  <node id="-1135" visible="true" lat="43.17546107" lon="-73.02325569">
    <tag k="addr:housenumber" v="24"/>
    <tag k="addr:street" v="Steeple View Road"/>
    <tag k="addr:state" v="VT"/>
    <tag k="ref:vcgi:esiteid" v="150128"/>
  </node>
  <node id="-1136" visible="true" lat="43.17536507" lon="-73.05720506">
    <tag k="addr:housenumber" v="18"/>
    <tag k="addr:street" v="Cone Road"/>
    <tag k="addr:state" v="VT"/>
    <tag k="ref:vcgi:esiteid" v="150129"/>
  </node>
  <node id="-1137" visible="true" lat="43.17529296" lon="-73.05361938">
    <tag k="addr:housenumber" v="203"/>
    <tag k="addr:street" v="Depot Street"/>
    <tag k="addr:state" v="VT"/>
    <tag k="ref:vcgi:esiteid" v="150130"/>
  </node>
  <node id="-1138" visible="true" lat="43.17541256" lon="-73.05562189">
    <tag k="addr:housenumber" v="96"/>
    <tag k="addr:street" v="Depot Street"/>
    <tag k="addr:state" v="VT"/>
    <tag k="ref:vcgi:esiteid" v="150131"/>
  </node>
  <node id="-1141" visible="true" lat="43.1752243" lon="-73.06245422">
    <tag k="addr:housenumber" v="138"/>
    <tag k="addr:street" v="Hillvale Road"/>
    <tag k="addr:state" v="VT"/>
    <tag k="ref:vcgi:esiteid" v="150134"/>
  </node>
  <node id="-1142" visible="true" lat="43.17523193" lon="-73.05836486">
    <tag k="addr:housenumber" v="4746"/>
    <tag k="addr:street" v="Main Street"/>
    <tag k="addr:state" v="VT"/>
    <tag k="ref:vcgi:esiteid" v="150135"/>
  </node>
  <node id="-1148" visible="true" lat="43.17518184" lon="-73.0619967">
    <tag k="addr:housenumber" v="114"/>
    <tag k="addr:street" v="Hillvale Road"/>
    <tag k="addr:state" v="VT"/>
    <tag k="ref:vcgi:esiteid" v="150142"/>
  </node>
  <node id="-1149" visible="true" lat="43.17516267" lon="-73.0615432">
    <tag k="addr:housenumber" v="90"/>
    <tag k="addr:street" v="Hillvale Road"/>
    <tag k="addr:state" v="VT"/>
    <tag k="ref:vcgi:esiteid" v="150143"/>
  </node>
  <node id="-1152" visible="true" lat="43.17502561" lon="-73.05839509">
    <tag k="addr:housenumber" v="4732"/>
    <tag k="addr:street" v="Main Street"/>
    <tag k="addr:state" v="VT"/>
    <tag k="ref:vcgi:esiteid" v="150146"/>
  </node>
  <node id="-1156" visible="true" lat="43.17507171" lon="-73.04991149">
    <tag k="addr:housenumber" v="38"/>
    <tag k="addr:street" v="Spruce Street"/>
    <tag k="addr:state" v="VT"/>
    <tag k="ref:vcgi:esiteid" v="150153"/>
  </node>
  <node id="-1157" visible="true" lat="43.17505264" lon="-73.05296325">
    <tag k="addr:housenumber" v="241"/>
    <tag k="addr:street" v="Depot Street"/>
    <tag k="addr:state" v="VT"/>
    <tag k="ref:vcgi:esiteid" v="150154"/>
  </node>
  <node id="-1158" visible="true" lat="43.17504088" lon="-73.05692988">
    <tag k="addr:housenumber" v="31"/>
    <tag k="addr:street" v="Cone Road"/>
    <tag k="addr:state" v="VT"/>
    <tag k="ref:vcgi:esiteid" v="150155"/>
  </node>
  <node id="-1159" visible="true" lat="43.1749661" lon="-73.05596589">
    <tag k="addr:housenumber" v="17"/>
    <tag k="addr:street" v="Cottage Street"/>
    <tag k="addr:state" v="VT"/>
    <tag k="ref:vcgi:esiteid" v="150156"/>
  </node>
  <node id="-1160" visible="true" lat="43.17498962" lon="-73.05565116">
    <tag k="addr:housenumber" v="5"/>
    <tag k="addr:street" v="Cottage Street"/>
    <tag k="addr:state" v="VT"/>
    <tag k="ref:vcgi:esiteid" v="150157"/>
  </node>
  <node id="-1161" visible="true" lat="43.17496108" lon="-73.05899047">
    <tag k="addr:housenumber" v="4712"/>
    <tag k="addr:street" v="Main Street"/>
    <tag k="addr:state" v="VT"/>
    <tag k="ref:vcgi:esiteid" v="150158"/>
  </node>
  <node id="-1163" visible="true" lat="43.17478729" lon="-73.06299024">
    <tag k="addr:housenumber" v="159"/>
    <tag k="addr:street" v="Hillvale Road"/>
    <tag k="addr:state" v="VT"/>
    <tag k="ref:vcgi:esiteid" v="150160"/>
  </node>
  <node id="-1164" visible="true" lat="43.17482529" lon="-73.06385098">
    <tag k="addr:housenumber" v="177"/>
    <tag k="addr:street" v="Hillvale Road"/>
    <tag k="addr:state" v="VT"/>
    <tag k="ref:vcgi:esiteid" v="150161"/>
  </node>
  <node id="-1165" visible="true" lat="43.174841" lon="-73.05636783">
    <tag k="addr:housenumber" v="24"/>
    <tag k="addr:street" v="Cottage Street"/>
    <tag k="addr:state" v="VT"/>
    <tag k="ref:vcgi:esiteid" v="150162"/>
  </node>
  <node id="-1169" visible="true" lat="43.17476822" lon="-73.06254303">
    <tag k="addr:housenumber" v="141"/>
    <tag k="addr:street" v="Hillvale Road"/>
    <tag k="addr:state" v="VT"/>
    <tag k="ref:vcgi:esiteid" v="150166"/>
  </node>
  <node id="-1172" visible="true" lat="43.17470103" lon="-73.06158899">
    <tag k="addr:housenumber" v="93"/>
    <tag k="addr:street" v="Hillvale Road"/>
    <tag k="addr:state" v="VT"/>
    <tag k="ref:vcgi:esiteid" v="150169"/>
  </node>
  <node id="-1174" visible="true" lat="43.17476817" lon="-73.05372097">
    <tag k="addr:housenumber" v="210"/>
    <tag k="addr:street" v="Depot Street"/>
    <tag k="addr:state" v="VT"/>
    <tag k="ref:vcgi:esiteid" v="150172"/>
  </node>
  <node id="-1175" visible="true" lat="43.17473121" lon="-73.06200049">
    <tag k="addr:housenumber" v="115"/>
    <tag k="addr:street" v="Hillvale Road"/>
    <tag k="addr:state" v="VT"/>
    <tag k="ref:vcgi:esiteid" v="150173"/>
  </node>
  <node id="-1177" visible="true" lat="43.17490112" lon="-73.05735459">
    <tag k="addr:housenumber" v="52"/>
    <tag k="addr:street" v="Cone Road"/>
    <tag k="addr:state" v="VT"/>
    <tag k="ref:vcgi:esiteid" v="150175"/>
  </node>
  <node id="-1179" visible="true" lat="43.17471746" lon="-73.05912672">
    <tag k="addr:housenumber" v="4692"/>
    <tag k="addr:street" v="Main Street"/>
    <tag k="addr:state" v="VT"/>
    <tag k="ref:vcgi:esiteid" v="150177"/>
  </node>
  <node id="-1182" visible="true" lat="43.17475509" lon="-73.05330657">
    <tag k="addr:housenumber" v="13"/>
    <tag k="addr:street" v="Riverside Heights"/>
    <tag k="addr:state" v="VT"/>
    <tag k="ref:vcgi:esiteid" v="150180"/>
  </node>
  <node id="-1184" visible="true" lat="43.17466214" lon="-73.06108607">
    <tag k="addr:housenumber" v="69"/>
    <tag k="addr:street" v="Hillvale Road"/>
    <tag k="addr:state" v="VT"/>
    <tag k="ref:vcgi:esiteid" v="150182"/>
  </node>
  <node id="-1185" visible="true" lat="43.17464641" lon="-73.05916484">
    <tag k="addr:housenumber" v="4686"/>
    <tag k="addr:street" v="Main Street"/>
    <tag k="addr:state" v="VT"/>
    <tag k="ref:vcgi:esiteid" v="150183"/>
  </node>
  <node id="-1188" visible="true" lat="43.17466748" lon="-73.05989455">
    <tag k="addr:housenumber" v="4659"/>
    <tag k="addr:street" v="Main Street"/>
    <tag k="addr:state" v="VT"/>
    <tag k="ref:vcgi:esiteid" v="150186"/>
  </node>
  <node id="-1190" visible="true" lat="43.17455562" lon="-73.05813075">
    <tag k="addr:housenumber" v="4724"/>
    <tag k="addr:street" v="Main Street"/>
    <tag k="addr:state" v="VT"/>
    <tag k="ref:vcgi:esiteid" v="150188"/>
  </node>
  <node id="-1192" visible="true" lat="43.17464828" lon="-73.05290222">
    <tag k="addr:housenumber" v="256"/>
    <tag k="addr:street" v="Depot Street"/>
    <tag k="addr:state" v="VT"/>
    <tag k="ref:vcgi:esiteid" v="150190"/>
  </node>
  <node id="-1193" visible="true" lat="43.17458337" lon="-73.05937865">
    <tag k="addr:housenumber" v="4676"/>
    <tag k="addr:street" v="Main Street"/>
    <tag k="addr:state" v="VT"/>
    <tag k="ref:vcgi:esiteid" v="150191"/>
  </node>
  <node id="-1197" visible="true" lat="43.17451074" lon="-73.0559521">
    <tag k="addr:housenumber" v="49"/>
    <tag k="addr:street" v="Cottage Street"/>
    <tag k="addr:state" v="VT"/>
    <tag k="ref:vcgi:esiteid" v="150195"/>
  </node>
  <node id="-1199" visible="true" lat="43.1745611" lon="-73.06021066">
    <tag k="addr:housenumber" v="4645"/>
    <tag k="addr:street" v="Main Street"/>
    <tag k="addr:state" v="VT"/>
    <tag k="ref:vcgi:esiteid" v="150197"/>
  </node>
  <node id="-1203" visible="true" lat="43.17449188" lon="-73.05638122">
    <tag k="addr:housenumber" v="54"/>
    <tag k="addr:street" v="Cottage Street"/>
    <tag k="addr:state" v="VT"/>
    <tag k="ref:vcgi:esiteid" v="150203"/>
  </node>
  <node id="-1205" visible="true" lat="43.17443466" lon="-73.05249786">
    <tag k="addr:housenumber" v="280"/>
    <tag k="addr:street" v="Depot Street"/>
    <tag k="addr:state" v="VT"/>
    <tag k="ref:vcgi:esiteid" v="150206"/>
  </node>
  <node id="-1208" visible="true" lat="43.17435108" lon="-73.053816">
    <tag k="addr:housenumber" v="34"/>
    <tag k="addr:street" v="Riverside Heights"/>
    <tag k="addr:state" v="VT"/>
    <tag k="ref:vcgi:esiteid" v="150209"/>
  </node>
  <node id="-1219" visible="true" lat="43.17431259" lon="-73.05102539">
    <tag k="addr:housenumber" v="351"/>
    <tag k="addr:street" v="Depot Street"/>
    <tag k="addr:state" v="VT"/>
    <tag k="ref:vcgi:esiteid" v="150221"/>
  </node>
  <node id="-1221" visible="true" lat="43.17431395" lon="-73.05196798">
    <tag k="addr:housenumber" v="306"/>
    <tag k="addr:street" v="Depot Street"/>
    <tag k="addr:state" v="VT"/>
    <tag k="ref:vcgi:esiteid" v="150223"/>
  </node>
  <node id="-1222" visible="true" lat="43.17422733" lon="-73.05697223">
    <tag k="addr:housenumber" v="87"/>
    <tag k="addr:street" v="Cone Road"/>
    <tag k="addr:state" v="VT"/>
    <tag k="ref:vcgi:esiteid" v="150224"/>
  </node>
  <node id="-1223" visible="true" lat="43.17422049" lon="-73.05597628">
    <tag k="addr:housenumber" v="69"/>
    <tag k="addr:street" v="Cottage Street"/>
    <tag k="addr:state" v="VT"/>
    <tag k="ref:vcgi:esiteid" v="150225"/>
  </node>
  <node id="-1226" visible="true" lat="43.1742457" lon="-73.05363316">
    <tag k="addr:housenumber" v="40"/>
    <tag k="addr:street" v="Riverside Heights"/>
    <tag k="addr:state" v="VT"/>
    <tag k="ref:vcgi:esiteid" v="150228"/>
  </node>
  <node id="-1237" visible="true" lat="43.17410738" lon="-73.0564307">
    <tag k="addr:housenumber" v="82"/>
    <tag k="addr:street" v="Cottage Street"/>
    <tag k="addr:state" v="VT"/>
    <tag k="ref:vcgi:esiteid" v="150241"/>
  </node>
  <node id="-1243" visible="true" lat="43.17425576" lon="-73.02085686">
    <tag k="addr:housenumber" v="1942"/>
    <tag k="addr:street" v="Depot Street"/>
    <tag k="addr:state" v="VT"/>
    <tag k="ref:vcgi:esiteid" v="150248"/>
  </node>
  <node id="-1244" visible="true" lat="43.17405356" lon="-73.06021552">
    <tag k="addr:housenumber" v="4620"/>
    <tag k="addr:street" v="Main Street"/>
    <tag k="addr:state" v="VT"/>
    <tag k="ref:vcgi:esiteid" v="150249"/>
  </node>
  <node id="-1245" visible="true" lat="43.17406474" lon="-73.05139626">
    <tag k="addr:housenumber" v="342"/>
    <tag k="addr:street" v="Depot Street"/>
    <tag k="addr:state" v="VT"/>
    <tag k="ref:vcgi:esiteid" v="150250"/>
  </node>
  <node id="-1257" visible="true" lat="43.17391204" lon="-73.05585479">
    <tag k="addr:housenumber" v="91"/>
    <tag k="addr:street" v="Cottage Street"/>
    <tag k="addr:state" v="VT"/>
    <tag k="ref:vcgi:esiteid" v="150264"/>
  </node>
  <node id="-1261" visible="true" lat="43.17392891" lon="-73.05338033">
    <tag k="addr:housenumber" v="84"/>
    <tag k="addr:street" v="Riverside Heights"/>
    <tag k="addr:state" v="VT"/>
    <tag k="ref:vcgi:esiteid" v="150268"/>
  </node>
  <node id="-1266" visible="true" lat="43.17384719" lon="-73.05104065">
    <tag k="addr:housenumber" v="366"/>
    <tag k="addr:street" v="Depot Street"/>
    <tag k="addr:state" v="VT"/>
    <tag k="ref:vcgi:esiteid" v="150274"/>
  </node>
  <node id="-1269" visible="true" lat="43.17371948" lon="-73.05967398">
    <tag k="addr:housenumber" v="42"/>
    <tag k="addr:street" v="Mountain View Terrace"/>
    <tag k="addr:state" v="VT"/>
    <tag k="ref:vcgi:esiteid" v="150277"/>
  </node>
  <node id="-1272" visible="true" lat="43.17378234" lon="-73.05088043">
    <tag k="addr:housenumber" v="374"/>
    <tag k="addr:street" v="Depot Street"/>
    <tag k="addr:state" v="VT"/>
    <tag k="ref:vcgi:esiteid" v="150281"/>
  </node>
  <node id="-1278" visible="true" lat="43.17372571" lon="-73.05158715">
    <tag k="addr:housenumber" v="348"/>
    <tag k="addr:street" v="Depot Street"/>
    <tag k="addr:state" v="VT"/>
    <tag k="ref:vcgi:esiteid" v="150287"/>
  </node>
  <node id="-1281" visible="true" lat="43.17375564" lon="-73.05076598">
    <tag k="addr:housenumber" v="380"/>
    <tag k="addr:street" v="Depot Street"/>
    <tag k="addr:state" v="VT"/>
    <tag k="ref:vcgi:esiteid" v="150290"/>
  </node>
  <node id="-1289" visible="true" lat="43.17373075" lon="-73.05338852">
    <tag k="addr:housenumber" v="96"/>
    <tag k="addr:street" v="Riverside Heights"/>
    <tag k="addr:state" v="VT"/>
    <tag k="ref:vcgi:esiteid" v="150301"/>
  </node>
  <node id="-1291" visible="true" lat="43.17365531" lon="-73.0576447">
    <tag k="addr:housenumber" v="108"/>
    <tag k="addr:street" v="Cottage Street"/>
    <tag k="addr:state" v="VT"/>
    <tag k="ref:vcgi:esiteid" v="150304"/>
  </node>
  <node id="-1292" visible="true" lat="43.17362975" lon="-73.06005859">
    <tag k="addr:housenumber" v="36"/>
    <tag k="addr:street" v="Mountain View Terrace"/>
    <tag k="addr:state" v="VT"/>
    <tag k="ref:vcgi:esiteid" v="150305"/>
  </node>
  <node id="-1293" visible="true" lat="43.17359877" lon="-73.05336638">
    <tag k="addr:housenumber" v="100"/>
    <tag k="addr:street" v="Riverside Heights"/>
    <tag k="addr:state" v="VT"/>
    <tag k="ref:vcgi:esiteid" v="150306"/>
  </node>
  <node id="-1294" visible="true" lat="43.17361163" lon="-73.05588058">
    <tag k="addr:housenumber" v="111"/>
    <tag k="addr:street" v="Cottage Street"/>
    <tag k="addr:state" v="VT"/>
    <tag k="ref:vcgi:esiteid" v="150307"/>
  </node>
  <node id="-1297" visible="true" lat="43.17364602" lon="-73.06380816">
    <tag k="addr:housenumber" v="52"/>
    <tag k="addr:street" v="Ways Lane"/>
    <tag k="addr:state" v="VT"/>
    <tag k="ref:vcgi:esiteid" v="150312"/>
  </node>
  <node id="-1301" visible="true" lat="43.17359121" lon="-73.04900305">
    <tag k="addr:housenumber" v="467"/>
    <tag k="addr:street" v="Depot Street"/>
    <tag k="addr:state" v="VT"/>
    <tag k="ref:vcgi:esiteid" v="150316"/>
  </node>
  <node id="-1309" visible="true" lat="43.17349075" lon="-73.05946347">
    <tag k="addr:housenumber" v="14"/>
    <tag k="addr:street" v="Bond Street"/>
    <tag k="addr:state" v="VT"/>
    <tag k="ref:vcgi:esiteid" v="150326"/>
  </node>
  <node id="-1316" visible="true" lat="43.17345046" lon="-73.05001068">
    <tag k="addr:housenumber" v="424"/>
    <tag k="addr:street" v="Depot Street"/>
    <tag k="addr:state" v="VT"/>
    <tag k="ref:vcgi:esiteid" v="150333"/>
  </node>
  <node id="-1318" visible="true" lat="43.17342376" lon="-73.05237579">
    <tag k="addr:housenumber" v="39"/>
    <tag k="addr:street" v="Side Road"/>
    <tag k="addr:state" v="VT"/>
    <tag k="ref:vcgi:esiteid" v="150335"/>
  </node>
  <node id="-1320" visible="true" lat="43.17329433" lon="-73.06340021">
    <tag k="addr:housenumber" v="50"/>
    <tag k="addr:street" v="Ways Lane"/>
    <tag k="addr:state" v="VT"/>
    <tag k="ref:vcgi:esiteid" v="150337"/>
  </node>
  <node id="-1323" visible="true" lat="43.17337798" lon="-73.05287933">
    <tag k="addr:housenumber" v="14"/>
    <tag k="addr:street" v="Side Road"/>
    <tag k="addr:state" v="VT"/>
    <tag k="ref:vcgi:esiteid" v="150342"/>
  </node>
  <node id="-1324" visible="true" lat="43.1732925" lon="-73.05899251">
    <tag k="addr:housenumber" v="84"/>
    <tag k="addr:street" v="Mountain View Terrace"/>
    <tag k="addr:state" v="VT"/>
    <tag k="ref:vcgi:esiteid" v="150343"/>
  </node>
  <node id="-1325" visible="true" lat="43.17343722" lon="-73.05265785">
    <tag k="addr:housenumber" v="40"/>
    <tag k="addr:street" v="Side Road"/>
    <tag k="addr:state" v="VT"/>
    <tag k="ref:vcgi:esiteid" v="150344"/>
  </node>
  <node id="-1333" visible="true" lat="43.17339931" lon="-73.02535322">
    <tag k="addr:housenumber" v="1716"/>
    <tag k="addr:street" v="Depot Street"/>
    <tag k="addr:state" v="VT"/>
    <tag k="ref:vcgi:esiteid" v="150353"/>
  </node>
  <node id="-1336" visible="true" lat="43.1732788" lon="-73.04959869">
    <tag k="addr:housenumber" v="448"/>
    <tag k="addr:street" v="Depot Street"/>
    <tag k="addr:state" v="VT"/>
    <tag k="ref:vcgi:esiteid" v="150356"/>
  </node>
  <node id="-1337" visible="true" lat="43.17311336" lon="-73.06081659">
    <tag k="addr:housenumber" v="4566"/>
    <tag k="addr:street" v="Main Street"/>
    <tag k="addr:state" v="VT"/>
    <tag k="ref:vcgi:esiteid" v="150357"/>
  </node>
  <node id="-1340" visible="true" lat="43.17320633" lon="-73.05776977">
    <tag k="addr:housenumber" v="145"/>
    <tag k="addr:street" v="Mountain View Terrace"/>
    <tag k="addr:state" v="VT"/>
    <tag k="ref:vcgi:esiteid" v="150360"/>
  </node>
  <node id="-1346" visible="true" lat="43.17322124" lon="-73.05978962">
    <tag k="addr:housenumber" v="38"/>
    <tag k="addr:street" v="Bond Street"/>
    <tag k="addr:state" v="VT"/>
    <tag k="ref:vcgi:esiteid" v="150367"/>
  </node>
  <node id="-1347" visible="true" lat="43.17308813" lon="-73.06118885">
    <tag k="addr:housenumber" v="4542"/>
    <tag k="addr:street" v="Main Street"/>
    <tag k="addr:state" v="VT"/>
    <tag k="ref:vcgi:esiteid" v="150368"/>
  </node>
  <node id="-1348" visible="true" lat="43.17305924" lon="-73.05589599">
    <tag k="addr:housenumber" v="143"/>
    <tag k="addr:street" v="Cottage Street"/>
    <tag k="addr:state" v="VT"/>
    <tag k="ref:vcgi:esiteid" v="150369"/>
  </node>
  <node id="-1349" visible="true" lat="43.17320478" lon="-73.04929947">
    <tag k="addr:housenumber" v="460"/>
    <tag k="addr:street" v="Depot Street"/>
    <tag k="addr:state" v="VT"/>
    <tag k="ref:vcgi:esiteid" v="150370"/>
  </node>
  <node id="-1350" visible="true" lat="43.17320978" lon="-73.05107815">
    <tag k="addr:housenumber" v="390"/>
    <tag k="addr:street" v="Depot Street"/>
    <tag k="addr:state" v="VT"/>
    <tag k="ref:vcgi:esiteid" v="150372"/>
  </node>
  <node id="-1351" visible="true" lat="43.17318556" lon="-73.05279954">
    <tag k="addr:housenumber" v="80"/>
    <tag k="addr:street" v="Side Road"/>
    <tag k="addr:state" v="VT"/>
    <tag k="ref:vcgi:esiteid" v="150373"/>
  </node>
  <node id="-1352" visible="true" lat="43.17317026" lon="-73.05264204">
    <tag k="addr:housenumber" v="60"/>
    <tag k="addr:street" v="Side Road"/>
    <tag k="addr:state" v="VT"/>
    <tag k="ref:vcgi:esiteid" v="150375"/>
  </node>
  <node id="-1353" visible="true" lat="43.17312452" lon="-73.04922627">
    <tag k="addr:housenumber" v="468"/>
    <tag k="addr:street" v="Depot Street"/>
    <tag k="addr:state" v="VT"/>
    <tag k="ref:vcgi:esiteid" v="150376"/>
  </node>
  <node id="-1354" visible="true" lat="43.17310939" lon="-73.05850862">
    <tag k="addr:housenumber" v="116"/>
    <tag k="addr:street" v="Mountain View Terrace"/>
    <tag k="addr:state" v="VT"/>
    <tag k="ref:vcgi:esiteid" v="150377"/>
  </node>
  <node id="-1356" visible="true" lat="43.17322124" lon="-73.05239053">
    <tag k="addr:housenumber" v="59"/>
    <tag k="addr:street" v="Side Road"/>
    <tag k="addr:state" v="VT"/>
    <tag k="ref:vcgi:esiteid" v="150380"/>
  </node>
  <node id="-1358" visible="true" lat="43.1730765" lon="-73.05334781">
    <tag k="addr:housenumber" v="138"/>
    <tag k="addr:street" v="Riverside Heights"/>
    <tag k="addr:state" v="VT"/>
    <tag k="ref:vcgi:esiteid" v="150382"/>
  </node>
  <node id="-1359" visible="true" lat="43.17322744" lon="-73.04730453">
    <tag k="addr:housenumber" v="557"/>
    <tag k="addr:street" v="Depot Street"/>
    <tag k="addr:state" v="VT"/>
    <tag k="ref:vcgi:esiteid" v="150383"/>
  </node>
  <node id="-1362" visible="true" lat="43.1731053" lon="-73.04617685">
    <tag k="addr:housenumber" v="609"/>
    <tag k="addr:street" v="Depot Street"/>
    <tag k="addr:state" v="VT"/>
    <tag k="ref:vcgi:esiteid" v="150386"/>
  </node>
  <node id="-1365" visible="true" lat="43.17304484" lon="-73.05738452">
    <tag k="addr:housenumber" v="167"/>
    <tag k="addr:street" v="Mountain View Terrace"/>
    <tag k="addr:state" v="VT"/>
    <tag k="ref:vcgi:esiteid" v="150390"/>
  </node>
  <node id="-1368" visible="true" lat="43.17292858" lon="-73.05929734">
    <tag k="addr:housenumber" v="43"/>
    <tag k="addr:street" v="Bond Street"/>
    <tag k="addr:state" v="VT"/>
    <tag k="ref:vcgi:esiteid" v="150393"/>
  </node>
  <node id="-1369" visible="true" lat="43.17294008" lon="-73.05811858">
    <tag k="addr:housenumber" v="134"/>
    <tag k="addr:street" v="Mountain View Terrace"/>
    <tag k="addr:state" v="VT"/>
    <tag k="ref:vcgi:esiteid" v="150394"/>
  </node>
  <node id="-1374" visible="true" lat="43.17291396" lon="-73.06259839">
    <tag k="addr:housenumber" v="4479"/>
    <tag k="addr:street" v="Main Street"/>
    <tag k="addr:state" v="VT"/>
    <tag k="ref:vcgi:esiteid" v="150400"/>
  </node>
  <node id="-1378" visible="true" lat="43.1728114" lon="-73.0534519">
    <tag k="addr:housenumber" v="154"/>
    <tag k="addr:street" v="Riverside Heights"/>
    <tag k="addr:state" v="VT"/>
    <tag k="ref:vcgi:esiteid" v="150404"/>
  </node>
  <node id="-1380" visible="true" lat="43.17284989" lon="-73.04845562">
    <tag k="addr:housenumber" v="508"/>
    <tag k="addr:street" v="Depot Street"/>
    <tag k="addr:state" v="VT"/>
    <tag k="ref:vcgi:esiteid" v="150406"/>
  </node>
  <node id="-1382" visible="true" lat="43.17280578" lon="-73.05988311">
    <tag k="addr:housenumber" v="64"/>
    <tag k="addr:street" v="Bond Street"/>
    <tag k="addr:state" v="VT"/>
    <tag k="ref:vcgi:esiteid" v="150408"/>
  </node>
  <node id="-1385" visible="true" lat="43.17275707" lon="-73.05770541">
    <tag k="addr:housenumber" v="158"/>
    <tag k="addr:street" v="Mountain View Terrace"/>
    <tag k="addr:state" v="VT"/>
    <tag k="ref:vcgi:esiteid" v="150411"/>
  </node>
  <node id="-1386" visible="true" lat="43.17277367" lon="-73.0559011">
    <tag k="addr:housenumber" v="167"/>
    <tag k="addr:street" v="Cottage Street"/>
    <tag k="addr:state" v="VT"/>
    <tag k="ref:vcgi:esiteid" v="150412"/>
  </node>
  <node id="-1389" visible="true" lat="43.17270799" lon="-73.0594583">
    <tag k="addr:housenumber" v="59"/>
    <tag k="addr:street" v="Bond Street"/>
    <tag k="addr:state" v="VT"/>
    <tag k="ref:vcgi:esiteid" v="150415"/>
  </node>
  <node id="-1392" visible="true" lat="43.17281007" lon="-73.05879807">
    <tag k="addr:housenumber" v="40"/>
    <tag k="addr:street" v="Leland Drive"/>
    <tag k="addr:state" v="VT"/>
    <tag k="ref:vcgi:esiteid" v="150418"/>
  </node>
  <node id="-1396" visible="true" lat="43.17277145" lon="-73.04798126">
    <tag k="addr:housenumber" v="534"/>
    <tag k="addr:street" v="Depot Street"/>
    <tag k="addr:state" v="VT"/>
    <tag k="ref:vcgi:esiteid" v="150422"/>
  </node>
  <node id="-1407" visible="true" lat="43.17257583" lon="-73.06225149">
    <tag k="addr:housenumber" v="4478"/>
    <tag k="addr:street" v="Main Street"/>
    <tag k="addr:state" v="VT"/>
    <tag k="ref:vcgi:esiteid" v="150433"/>
  </node>
  <node id="-1413" visible="true" lat="43.17250296" lon="-73.06388908">
    <tag k="addr:housenumber" v="34"/>
    <tag k="addr:street" v="Ways Lane"/>
    <tag k="addr:state" v="VT"/>
    <tag k="ref:vcgi:esiteid" v="150441"/>
  </node>
  <node id="-1425" visible="true" lat="43.17249427" lon="-73.05908638">
    <tag k="addr:housenumber" v="68"/>
    <tag k="addr:street" v="Leland Drive"/>
    <tag k="addr:state" v="VT"/>
    <tag k="ref:vcgi:esiteid" v="150455"/>
  </node>
  <node id="-1426" visible="true" lat="43.17231107" lon="-73.05972786">
    <tag k="addr:housenumber" v="86"/>
    <tag k="addr:street" v="Bond Street"/>
    <tag k="addr:state" v="VT"/>
    <tag k="ref:vcgi:esiteid" v="150458"/>
  </node>
  <node id="-1431" visible="true" lat="43.17235946" lon="-73.05857849">
    <tag k="addr:housenumber" v="59"/>
    <tag k="addr:street" v="Leland Drive"/>
    <tag k="addr:state" v="VT"/>
    <tag k="ref:vcgi:esiteid" v="150463"/>
  </node>
  <node id="-1444" visible="true" lat="43.1722145" lon="-73.05485534">
    <tag k="addr:housenumber" v="189"/>
    <tag k="addr:street" v="Cottage Street"/>
    <tag k="addr:state" v="VT"/>
    <tag k="ref:vcgi:esiteid" v="150477"/>
  </node>
  <node id="-1450" visible="true" lat="43.17213058" lon="-73.05693054">
    <tag k="addr:housenumber" v="221"/>
    <tag k="addr:street" v="Mountain View Terrace"/>
    <tag k="addr:state" v="VT"/>
    <tag k="ref:vcgi:esiteid" v="150484"/>
  </node>
  <node id="-1456" visible="true" lat="43.17203903" lon="-73.06144714">
    <tag k="addr:housenumber" v="64"/>
    <tag k="addr:street" v="Equinox Terrace"/>
    <tag k="addr:state" v="VT"/>
    <tag k="ref:vcgi:esiteid" v="150491"/>
  </node>
  <node id="-1457" visible="true" lat="43.17203727" lon="-73.05590335">
    <tag k="addr:housenumber" v="209"/>
    <tag k="addr:street" v="Cottage Street"/>
    <tag k="addr:state" v="VT"/>
    <tag k="ref:vcgi:esiteid" v="150492"/>
  </node>
  <node id="-1471" visible="true" lat="43.17188006" lon="-73.06318282">
    <tag k="addr:housenumber" v="4384"/>
    <tag k="addr:street" v="Main Street"/>
    <tag k="addr:state" v="VT"/>
    <tag k="ref:vcgi:esiteid" v="150508"/>
  </node>
  <node id="-1480" visible="true" lat="43.17175222" lon="-73.06457212">
    <tag k="addr:housenumber" v="4357"/>
    <tag k="addr:street" v="Main Street"/>
    <tag k="addr:state" v="VT"/>
    <tag k="ref:vcgi:esiteid" v="150520"/>
  </node>
  <node id="-1482" visible="true" lat="43.17168931" lon="-73.06462997">
    <tag k="addr:housenumber" v="4351"/>
    <tag k="addr:street" v="Main Street"/>
    <tag k="addr:state" v="VT"/>
    <tag k="ref:vcgi:esiteid" v="150522"/>
  </node>
  <node id="-1489" visible="true" lat="43.17171679" lon="-73.05755331">
    <tag k="addr:housenumber" v="93"/>
    <tag k="addr:street" v="The Fields Road"/>
    <tag k="addr:state" v="VT"/>
    <tag k="ref:vcgi:esiteid" v="150529"/>
  </node>
  <node id="-1496" visible="true" lat="43.17159271" lon="-73.05839538">
    <tag k="addr:housenumber" v="65"/>
    <tag k="addr:street" v="The Fields Road"/>
    <tag k="addr:state" v="VT"/>
    <tag k="ref:vcgi:esiteid" v="150536"/>
  </node>
  <node id="-1501" visible="true" lat="43.17145159" lon="-73.05994219">
    <tag k="addr:housenumber" v="46"/>
    <tag k="addr:street" v="The Meadows"/>
    <tag k="addr:state" v="VT"/>
    <tag k="ref:vcgi:esiteid" v="150542"/>
  </node>
  <node id="-1502" visible="true" lat="43.17144292" lon="-73.0589324">
    <tag k="addr:housenumber" v="33"/>
    <tag k="addr:street" v="The Fields Road"/>
    <tag k="addr:state" v="VT"/>
    <tag k="ref:vcgi:esiteid" v="150544"/>
  </node>
  <node id="-1505" visible="true" lat="43.1713439" lon="-73.05794955">
    <tag k="addr:housenumber" v="74"/>
    <tag k="addr:street" v="The Fields Road"/>
    <tag k="addr:state" v="VT"/>
    <tag k="ref:vcgi:esiteid" v="150547"/>
  </node>
  <node id="-1508" visible="true" lat="43.17142743" lon="-73.05603006">
    <tag k="addr:housenumber" v="324"/>
    <tag k="addr:street" v="Equinox Terrace"/>
    <tag k="addr:state" v="VT"/>
    <tag k="ref:vcgi:esiteid" v="150550"/>
  </node>
  <node id="-1509" visible="true" lat="43.17128245" lon="-73.0647183">
    <tag k="addr:housenumber" v="4331"/>
    <tag k="addr:street" v="Main Street"/>
    <tag k="addr:state" v="VT"/>
    <tag k="ref:vcgi:esiteid" v="150551"/>
  </node>
  <node id="-1510" visible="true" lat="43.17132803" lon="-73.06284386">
    <tag k="addr:housenumber" v="4382"/>
    <tag k="addr:street" v="Main Street"/>
    <tag k="addr:state" v="VT"/>
    <tag k="ref:vcgi:esiteid" v="150552"/>
  </node>
  <node id="-1516" visible="true" lat="43.17123601" lon="-73.05976504">
    <tag k="addr:housenumber" v="60"/>
    <tag k="addr:street" v="The Meadows"/>
    <tag k="addr:state" v="VT"/>
    <tag k="ref:vcgi:esiteid" v="150559"/>
  </node>
  <node id="-1518" visible="true" lat="43.17104118" lon="-73.06839742">
    <tag k="addr:housenumber" v="4263"/>
    <tag k="addr:street" v="Main Street"/>
    <tag k="addr:state" v="VT"/>
    <tag k="ref:vcgi:esiteid" v="150561"/>
  </node>
  <node id="-1519" visible="true" lat="43.17114587" lon="-73.05864314">
    <tag k="addr:housenumber" v="36"/>
    <tag k="addr:street" v="The Fields Road"/>
    <tag k="addr:state" v="VT"/>
    <tag k="ref:vcgi:esiteid" v="150562"/>
  </node>
  <node id="-1524" visible="true" lat="43.17094644" lon="-73.05989105">
    <tag k="addr:housenumber" v="80"/>
    <tag k="addr:street" v="The Meadows"/>
    <tag k="addr:state" v="VT"/>
    <tag k="ref:vcgi:esiteid" v="150567"/>
  </node>
  <node id="-1532" visible="true" lat="43.17081902" lon="-73.05929042">
    <tag k="addr:housenumber" v="170"/>
    <tag k="addr:street" v="The Meadows"/>
    <tag k="addr:state" v="VT"/>
    <tag k="ref:vcgi:esiteid" v="150576"/>
  </node>
  <node id="-1538" visible="true" lat="43.1705963" lon="-73.06302597">
    <tag k="addr:housenumber" v="74"/>
    <tag k="addr:street" v="Long View Drive"/>
    <tag k="addr:state" v="VT"/>
    <tag k="ref:vcgi:esiteid" v="150582"/>
  </node>
  <node id="-1539" visible="true" lat="43.17065043" lon="-73.04818216">
    <tag k="addr:housenumber" v="3646"/>
    <tag k="addr:street" v="Richville Road"/>
    <tag k="addr:state" v="VT"/>
    <tag k="ref:vcgi:esiteid" v="150583"/>
  </node>
  <node id="-1541" visible="true" lat="43.17055511" lon="-73.06885528">
    <tag k="addr:housenumber" v="4265"/>
    <tag k="addr:street" v="Main Street"/>
    <tag k="addr:state" v="VT"/>
    <tag k="ref:vcgi:esiteid" v="150585"/>
  </node>
  <node id="-1549" visible="true" lat="43.17035936" lon="-73.05972984">
    <tag k="addr:housenumber" v="112"/>
    <tag k="addr:street" v="The Meadows"/>
    <tag k="addr:state" v="VT"/>
    <tag k="ref:vcgi:esiteid" v="150596"/>
  </node>
  <node id="-1555" visible="true" lat="43.17011184" lon="-73.0595223">
    <tag k="addr:housenumber" v="126"/>
    <tag k="addr:street" v="The Meadows"/>
    <tag k="addr:state" v="VT"/>
    <tag k="ref:vcgi:esiteid" v="150602"/>
  </node>
  <node id="-1563" visible="true" lat="43.16994857" lon="-73.06593322">
    <tag k="addr:housenumber" v="4217"/>
    <tag k="addr:street" v="Main Street"/>
    <tag k="addr:state" v="VT"/>
    <tag k="ref:vcgi:esiteid" v="150610"/>
  </node>
  <node id="-1572" visible="true" lat="43.16982047" lon="-73.0661018">
    <tag k="addr:housenumber" v="4201"/>
    <tag k="addr:street" v="Main Street"/>
    <tag k="addr:state" v="VT"/>
    <tag k="ref:vcgi:esiteid" v="150619"/>
  </node>
  <node id="-1574" visible="true" lat="43.16971046" lon="-73.06656707">
    <tag k="addr:housenumber" v="4189"/>
    <tag k="addr:street" v="Main Street"/>
    <tag k="addr:state" v="VT"/>
    <tag k="ref:vcgi:esiteid" v="150622"/>
  </node>
  <node id="-1587" visible="true" lat="43.16957422" lon="-73.06633023">
    <tag k="addr:housenumber" v="4181"/>
    <tag k="addr:street" v="Main Street"/>
    <tag k="addr:state" v="VT"/>
    <tag k="ref:vcgi:esiteid" v="150636"/>
  </node>
  <node id="-1594" visible="true" lat="43.16926921" lon="-73.06662682">
    <tag k="addr:housenumber" v="4169"/>
    <tag k="addr:street" v="Main Street"/>
    <tag k="addr:state" v="VT"/>
    <tag k="ref:vcgi:esiteid" v="150644"/>
  </node>
  <node id="-1625" visible="true" lat="43.16900918" lon="-73.06575937">
    <tag k="addr:housenumber" v="4180"/>
    <tag k="addr:street" v="Main Street"/>
    <tag k="addr:state" v="VT"/>
    <tag k="ref:vcgi:esiteid" v="150678"/>
  </node>
  <node id="-1639" visible="true" lat="43.16868075" lon="-73.05832982">
    <tag k="addr:housenumber" v="774"/>
    <tag k="addr:street" v="Long View Drive"/>
    <tag k="addr:state" v="VT"/>
    <tag k="ref:vcgi:esiteid" v="150693"/>
  </node>
  <node id="-1665" visible="true" lat="43.16808878" lon="-73.0595203">
    <tag k="addr:housenumber" v="310"/>
    <tag k="addr:street" v="Long View Drive"/>
    <tag k="addr:state" v="VT"/>
    <tag k="ref:vcgi:esiteid" v="150723"/>
  </node>
  <node id="-1667" visible="true" lat="43.16799587" lon="-73.06711355">
    <tag k="addr:housenumber" v="4070"/>
    <tag k="addr:street" v="Main Street"/>
    <tag k="addr:state" v="VT"/>
    <tag k="ref:vcgi:esiteid" v="150725"/>
  </node>
  <node id="-1693" visible="true" lat="43.16772448" lon="-73.05541529">
    <tag k="addr:housenumber" v="622"/>
    <tag k="addr:street" v="Long View Drive"/>
    <tag k="addr:state" v="VT"/>
    <tag k="ref:vcgi:esiteid" v="150754"/>
  </node>
  <node id="-1698" visible="true" lat="43.16747708" lon="-73.0676529">
    <tag k="addr:housenumber" v="4026"/>
    <tag k="addr:street" v="Main Street"/>
    <tag k="addr:state" v="VT"/>
    <tag k="ref:vcgi:esiteid" v="150759"/>
  </node>
  <node id="-1704" visible="true" lat="43.16746746" lon="-73.05728613">
    <tag k="addr:housenumber" v="693"/>
    <tag k="addr:street" v="Long View Drive"/>
    <tag k="addr:state" v="VT"/>
    <tag k="ref:vcgi:esiteid" v="150767"/>
  </node>
  <node id="-1719" visible="true" lat="43.16718673" lon="-73.06794738">
    <tag k="addr:housenumber" v="4002"/>
    <tag k="addr:street" v="Main Street"/>
    <tag k="addr:state" v="VT"/>
    <tag k="ref:vcgi:esiteid" v="150782"/>
  </node>
  <node id="-1720" visible="true" lat="43.16716003" lon="-73.07138061">
    <tag k="addr:housenumber" v="128"/>
    <tag k="addr:street" v="Shepards Lane"/>
    <tag k="addr:state" v="VT"/>
    <tag k="ref:vcgi:esiteid" v="150783"/>
  </node>
  <node id="-1723" visible="true" lat="43.16729855" lon="-73.06897069">
    <tag k="addr:housenumber" v="3967"/>
    <tag k="addr:street" v="Main Street"/>
    <tag k="addr:state" v="VT"/>
    <tag k="ref:vcgi:esiteid" v="150786"/>
  </node>
  <node id="-1737" visible="true" lat="43.16695022" lon="-73.05936431">
    <tag k="addr:housenumber" v="434"/>
    <tag k="addr:street" v="Long View Drive"/>
    <tag k="addr:state" v="VT"/>
    <tag k="ref:vcgi:esiteid" v="150801"/>
  </node>
  <node id="-1744" visible="true" lat="43.16681693" lon="-73.05602759">
    <tag k="addr:housenumber" v="600"/>
    <tag k="addr:street" v="Long View Drive"/>
    <tag k="addr:state" v="VT"/>
    <tag k="ref:vcgi:esiteid" v="150809"/>
  </node>
  <node id="-1751" visible="true" lat="43.16675018" lon="-73.06835791">
    <tag k="addr:housenumber" v="3962"/>
    <tag k="addr:street" v="Main Street"/>
    <tag k="addr:state" v="VT"/>
    <tag k="ref:vcgi:esiteid" v="150816"/>
  </node>
  <node id="-1754" visible="true" lat="43.16679793" lon="-73.05830435">
    <tag k="addr:housenumber" v="503"/>
    <tag k="addr:street" v="Long View Drive"/>
    <tag k="addr:state" v="VT"/>
    <tag k="ref:vcgi:esiteid" v="150819"/>
  </node>
  <node id="-1756" visible="true" lat="43.16675972" lon="-73.05722653">
    <tag k="addr:housenumber" v="577"/>
    <tag k="addr:street" v="Long View Drive"/>
    <tag k="addr:state" v="VT"/>
    <tag k="ref:vcgi:esiteid" v="150821"/>
  </node>
  <node id="-1759" visible="true" lat="43.16647809" lon="-73.06865532">
    <tag k="addr:housenumber" v="3952"/>
    <tag k="addr:street" v="Main Street"/>
    <tag k="addr:state" v="VT"/>
    <tag k="ref:vcgi:esiteid" v="150824"/>
  </node>
  <node id="-1792" visible="true" lat="43.16617965" lon="-73.06909179">
    <tag k="addr:housenumber" v="3912"/>
    <tag k="addr:street" v="Main Street"/>
    <tag k="addr:state" v="VT"/>
    <tag k="ref:vcgi:esiteid" v="150863"/>
  </node>
  <node id="-1799" visible="true" lat="43.16608315" lon="-73.07169591">
    <tag k="addr:housenumber" v="176"/>
    <tag k="addr:street" v="West Road"/>
    <tag k="addr:state" v="VT"/>
    <tag k="ref:vcgi:esiteid" v="150870"/>
  </node>
  <node id="-1806" visible="true" lat="43.16605132" lon="-73.05627379">
    <tag k="addr:housenumber" v="556"/>
    <tag k="addr:street" v="Long View Drive"/>
    <tag k="addr:state" v="VT"/>
    <tag k="ref:vcgi:esiteid" v="150878"/>
  </node>
  <node id="-1807" visible="true" lat="43.16589096" lon="-73.06939405">
    <tag k="addr:housenumber" v="3888"/>
    <tag k="addr:street" v="Main Street"/>
    <tag k="addr:state" v="VT"/>
    <tag k="ref:vcgi:esiteid" v="150880"/>
  </node>
  <node id="-1808" visible="true" lat="43.16605351" lon="-73.05758679">
    <tag k="addr:housenumber" v="536"/>
    <tag k="addr:street" v="Long View Drive"/>
    <tag k="addr:state" v="VT"/>
    <tag k="ref:vcgi:esiteid" v="150881"/>
  </node>
  <node id="-1812" visible="true" lat="43.16591662" lon="-73.07171867">
    <tag k="addr:housenumber" v="164"/>
    <tag k="addr:street" v="West Road"/>
    <tag k="addr:state" v="VT"/>
    <tag k="ref:vcgi:esiteid" v="150886"/>
  </node>
  <node id="-1824" visible="true" lat="43.16565863" lon="-73.06955573">
    <tag k="addr:housenumber" v="3868"/>
    <tag k="addr:street" v="Main Street"/>
    <tag k="addr:state" v="VT"/>
    <tag k="ref:vcgi:esiteid" v="150898"/>
  </node>
  <node id="-1825" visible="true" lat="43.16571647" lon="-73.07171562">
    <tag k="addr:housenumber" v="150"/>
    <tag k="addr:street" v="West Road"/>
    <tag k="addr:state" v="VT"/>
    <tag k="ref:vcgi:esiteid" v="150899"/>
  </node>
  <node id="-1841" visible="true" lat="43.16545123" lon="-73.05899205">
    <tag k="addr:housenumber" v="30"/>
    <tag k="addr:street" v="Falcons Bluff"/>
    <tag k="addr:state" v="VT"/>
    <tag k="ref:vcgi:esiteid" v="150915"/>
  </node>
  <node id="-1842" visible="true" lat="43.16541107" lon="-73.05889476">
    <tag k="addr:housenumber" v="36"/>
    <tag k="addr:street" v="Falcons Bluff"/>
    <tag k="addr:state" v="VT"/>
    <tag k="ref:vcgi:esiteid" v="150916"/>
  </node>
  <node id="-1850" visible="true" lat="43.16528851" lon="-73.05861616">
    <tag k="addr:housenumber" v="50"/>
    <tag k="addr:street" v="Falcons Bluff"/>
    <tag k="addr:state" v="VT"/>
    <tag k="ref:vcgi:esiteid" v="150924"/>
  </node>
  <node id="-1852" visible="true" lat="43.16532192" lon="-73.05740075">
    <tag k="addr:housenumber" v="106"/>
    <tag k="addr:street" v="Falcons Bluff"/>
    <tag k="addr:state" v="VT"/>
    <tag k="ref:vcgi:esiteid" v="150927"/>
  </node>
  <node id="-1853" visible="true" lat="43.16526423" lon="-73.05850649">
    <tag k="addr:housenumber" v="58"/>
    <tag k="addr:street" v="Falcons Bluff"/>
    <tag k="addr:state" v="VT"/>
    <tag k="ref:vcgi:esiteid" v="150928"/>
  </node>
  <node id="-1854" visible="true" lat="43.1652777" lon="-73.05753961">
    <tag k="addr:housenumber" v="102"/>
    <tag k="addr:street" v="Falcons Bluff"/>
    <tag k="addr:state" v="VT"/>
    <tag k="ref:vcgi:esiteid" v="150929"/>
  </node>
  <node id="-1860" visible="true" lat="43.1652294" lon="-73.05807146">
    <tag k="addr:housenumber" v="78"/>
    <tag k="addr:street" v="Falcons Bluff"/>
    <tag k="addr:state" v="VT"/>
    <tag k="ref:vcgi:esiteid" v="150935"/>
  </node>
  <node id="-1861" visible="true" lat="43.16522742" lon="-73.05791784">
    <tag k="addr:housenumber" v="82"/>
    <tag k="addr:street" v="Falcons Bluff"/>
    <tag k="addr:state" v="VT"/>
    <tag k="ref:vcgi:esiteid" v="150937"/>
  </node>
  <node id="-1862" visible="true" lat="43.1652454" lon="-73.05836046">
    <tag k="addr:housenumber" v="64"/>
    <tag k="addr:street" v="Falcons Bluff"/>
    <tag k="addr:state" v="VT"/>
    <tag k="ref:vcgi:esiteid" v="150938"/>
  </node>
  <node id="-1866" visible="true" lat="43.16522835" lon="-73.057653">
    <tag k="addr:housenumber" v="94"/>
    <tag k="addr:street" v="Falcons Bluff"/>
    <tag k="addr:state" v="VT"/>
    <tag k="ref:vcgi:esiteid" v="150942"/>
  </node>
  <node id="-1887" visible="true" lat="43.16485594" lon="-73.0717441">
    <tag k="addr:housenumber" v="90"/>
    <tag k="addr:street" v="West Road"/>
    <tag k="addr:state" v="VT"/>
    <tag k="ref:vcgi:esiteid" v="150965"/>
  </node>
  <node id="-1899" visible="true" lat="43.16472212" lon="-73.07119007">
    <tag k="addr:housenumber" v="3765"/>
    <tag k="addr:street" v="Main Street"/>
    <tag k="addr:state" v="VT"/>
    <tag k="ref:vcgi:esiteid" v="150979"/>
  </node>
  <node id="-1910" visible="true" lat="43.16459493" lon="-73.07141179">
    <tag k="addr:housenumber" v="3749"/>
    <tag k="addr:street" v="Main Street"/>
    <tag k="addr:state" v="VT"/>
    <tag k="ref:vcgi:esiteid" v="150991"/>
  </node>
  <node id="-1924" visible="true" lat="43.16410738" lon="-73.07182588">
    <tag k="addr:housenumber" v="48"/>
    <tag k="addr:street" v="West Road"/>
    <tag k="addr:state" v="VT"/>
    <tag k="ref:vcgi:esiteid" v="151005"/>
  </node>
  <node id="-1952" visible="true" lat="43.16373698" lon="-73.07743189">
    <tag k="addr:housenumber" v="57"/>
    <tag k="addr:street" v="Seminary Avenue"/>
    <tag k="addr:state" v="VT"/>
    <tag k="ref:vcgi:esiteid" v="151036"/>
  </node>
  <node id="-2005" visible="true" lat="43.16280115" lon="-73.07151083">
    <tag k="addr:housenumber" v="3624"/>
    <tag k="addr:street" v="Main Street"/>
    <tag k="addr:state" v="VT"/>
    <tag k="ref:vcgi:esiteid" v="151096"/>
  </node>
  <node id="-2051" visible="true" lat="43.16145939" lon="-73.0717856">
    <tag k="addr:housenumber" v="3532"/>
    <tag k="addr:street" v="Main Street"/>
    <tag k="addr:state" v="VT"/>
    <tag k="ref:vcgi:esiteid" v="151155"/>
  </node>
  <node id="-2052" visible="true" lat="43.16143683" lon="-73.07096831">
    <tag k="addr:housenumber" v="86"/>
    <tag k="addr:street" v="Union Street"/>
    <tag k="addr:state" v="VT"/>
    <tag k="ref:vcgi:esiteid" v="151156"/>
  </node>
  <node id="-2054" visible="true" lat="43.16135024" lon="-73.07918548">
    <tag k="addr:housenumber" v="748"/>
    <tag k="addr:street" v="Prospect Street"/>
    <tag k="addr:state" v="VT"/>
    <tag k="ref:vcgi:esiteid" v="151158"/>
  </node>
  <node id="-2055" visible="true" lat="43.16129514" lon="-73.0726139">
    <tag k="addr:housenumber" v="3519"/>
    <tag k="addr:street" v="Main Street"/>
    <tag k="addr:state" v="VT"/>
    <tag k="ref:vcgi:esiteid" v="151159"/>
  </node>
  <node id="-2058" visible="true" lat="43.16113107" lon="-73.07166779">
    <tag k="addr:housenumber" v="3512"/>
    <tag k="addr:street" v="Main Street"/>
    <tag k="addr:state" v="VT"/>
    <tag k="ref:vcgi:esiteid" v="151162"/>
  </node>
  <node id="-2060" visible="true" lat="43.16108729" lon="-73.07253394">
    <tag k="addr:housenumber" v="3505"/>
    <tag k="addr:street" v="Main Street"/>
    <tag k="addr:state" v="VT"/>
    <tag k="ref:vcgi:esiteid" v="151164"/>
  </node>
  <node id="-2063" visible="true" lat="43.16090253" lon="-73.07162228">
    <tag k="addr:housenumber" v="3496"/>
    <tag k="addr:street" v="Main Street"/>
    <tag k="addr:state" v="VT"/>
    <tag k="ref:vcgi:esiteid" v="151167"/>
  </node>
  <node id="-2068" visible="true" lat="43.1608412" lon="-73.07254964">
    <tag k="addr:housenumber" v="3485"/>
    <tag k="addr:street" v="Main Street"/>
    <tag k="addr:state" v="VT"/>
    <tag k="ref:vcgi:esiteid" v="151172"/>
  </node>
  <node id="-2070" visible="true" lat="43.16048412" lon="-73.07172388">
    <tag k="addr:housenumber" v="3474"/>
    <tag k="addr:street" v="Main Street"/>
    <tag k="addr:state" v="VT"/>
    <tag k="ref:vcgi:esiteid" v="151174"/>
  </node>
  <node id="-2071" visible="true" lat="43.16049536" lon="-73.07269233">
    <tag k="addr:housenumber" v="3467"/>
    <tag k="addr:street" v="Main Street"/>
    <tag k="addr:state" v="VT"/>
    <tag k="ref:vcgi:esiteid" v="151175"/>
  </node>
  <node id="-2073" visible="true" lat="43.16046906" lon="-73.07320633">
    <tag k="addr:housenumber" v="3453"/>
    <tag k="addr:street" v="Main Street"/>
    <tag k="addr:state" v="VT"/>
    <tag k="ref:vcgi:esiteid" v="151181"/>
  </node>
  <node id="-2076" visible="true" lat="43.16023679" lon="-73.07180241">
    <tag k="addr:housenumber" v="3452"/>
    <tag k="addr:street" v="Main Street"/>
    <tag k="addr:state" v="VT"/>
    <tag k="ref:vcgi:esiteid" v="151184"/>
  </node>
  <node id="-2082" visible="true" lat="43.16006435" lon="-73.07191461">
    <tag k="addr:housenumber" v="3436"/>
    <tag k="addr:street" v="Main Street"/>
    <tag k="addr:state" v="VT"/>
    <tag k="ref:vcgi:esiteid" v="151190"/>
  </node>
  <node id="-2084" visible="true" lat="43.15990503" lon="-73.07329274">
    <tag k="addr:housenumber" v="3431"/>
    <tag k="addr:street" v="Main Street"/>
    <tag k="addr:state" v="VT"/>
    <tag k="ref:vcgi:esiteid" v="151192"/>
  </node>
  <node id="-2085" visible="true" lat="43.15987274" lon="-73.07189109">
    <tag k="addr:housenumber" v="3424"/>
    <tag k="addr:street" v="Main Street"/>
    <tag k="addr:state" v="VT"/>
    <tag k="ref:vcgi:esiteid" v="151193"/>
  </node>
  <node id="-2087" visible="true" lat="43.15989921" lon="-73.0727597">
    <tag k="addr:housenumber" v="3419"/>
    <tag k="addr:street" v="Main Street"/>
    <tag k="addr:state" v="VT"/>
    <tag k="ref:vcgi:esiteid" v="151195"/>
  </node>
  <node id="-2093" visible="true" lat="43.15969055" lon="-73.07196054">
    <tag k="addr:housenumber" v="3408"/>
    <tag k="addr:street" v="Main Street"/>
    <tag k="addr:state" v="VT"/>
    <tag k="ref:vcgi:esiteid" v="151201"/>
  </node>
  <node id="-2096" visible="true" lat="43.15957641" lon="-73.07394409">
    <tag k="addr:housenumber" v="3407"/>
    <tag k="addr:street" v="Main Street"/>
    <tag k="addr:state" v="VT"/>
    <tag k="ref:vcgi:esiteid" v="151204"/>
  </node>
  <node id="-2105" visible="true" lat="43.1591835" lon="-73.08178711">
    <tag k="addr:housenumber" v="548"/>
    <tag k="addr:street" v="Prospect Street"/>
    <tag k="addr:state" v="VT"/>
    <tag k="ref:vcgi:esiteid" v="151214"/>
  </node>
  <node id="-2107" visible="true" lat="43.15918731" lon="-73.07267761">
    <tag k="addr:housenumber" v="3373"/>
    <tag k="addr:street" v="Main Street"/>
    <tag k="addr:state" v="VT"/>
    <tag k="ref:vcgi:esiteid" v="151216"/>
  </node>
  <node id="-2108" visible="true" lat="43.15932475" lon="-73.07195092">
    <tag k="addr:housenumber" v="3372"/>
    <tag k="addr:street" v="Main Street"/>
    <tag k="addr:state" v="VT"/>
    <tag k="ref:vcgi:esiteid" v="151218"/>
  </node>
  <node id="-2109" visible="true" lat="43.15912107" lon="-73.07950116">
    <tag k="addr:housenumber" v="368"/>
    <tag k="addr:street" v="Taconic Road"/>
    <tag k="addr:state" v="VT"/>
    <tag k="ref:vcgi:esiteid" v="151219"/>
  </node>
  <node id="-2110" visible="true" lat="43.15906184" lon="-73.07403639">
    <tag k="addr:housenumber" v="3343"/>
    <tag k="addr:street" v="Main Street"/>
    <tag k="addr:state" v="VT"/>
    <tag k="ref:vcgi:esiteid" v="151220"/>
  </node>
  <node id="-2111" visible="true" lat="43.15902306" lon="-73.07685699">
    <tag k="addr:housenumber" v="240"/>
    <tag k="addr:street" v="Taconic Road"/>
    <tag k="addr:state" v="VT"/>
    <tag k="ref:vcgi:esiteid" v="151221"/>
  </node>
  <node id="-2112" visible="true" lat="43.15892802" lon="-73.07822643">
    <tag k="addr:housenumber" v="306"/>
    <tag k="addr:street" v="Taconic Road"/>
    <tag k="addr:state" v="VT"/>
    <tag k="ref:vcgi:esiteid" v="151224"/>
  </node>
  <node id="-2115" visible="true" lat="43.15896445" lon="-73.07347396">
    <tag k="addr:housenumber" v="3359"/>
    <tag k="addr:street" v="Main Street"/>
    <tag k="addr:state" v="VT"/>
    <tag k="ref:vcgi:esiteid" v="151227"/>
  </node>
  <node id="-2116" visible="true" lat="43.15881729" lon="-73.08215331">
    <tag k="addr:housenumber" v="508"/>
    <tag k="addr:street" v="Prospect Street"/>
    <tag k="addr:state" v="VT"/>
    <tag k="ref:vcgi:esiteid" v="151228"/>
  </node>
  <node id="-2118" visible="true" lat="43.15883652" lon="-73.07864576">
    <tag k="addr:housenumber" v="308"/>
    <tag k="addr:street" v="Taconic Road"/>
    <tag k="addr:state" v="VT"/>
    <tag k="ref:vcgi:esiteid" v="151230"/>
  </node>
  <node id="-2120" visible="true" lat="43.1586402" lon="-73.07671201">
    <tag k="addr:housenumber" v="222"/>
    <tag k="addr:street" v="Taconic Road"/>
    <tag k="addr:state" v="VT"/>
    <tag k="ref:vcgi:esiteid" v="151232"/>
  </node>
  <node id="-2121" visible="true" lat="43.15862058" lon="-73.081549">
    <tag k="addr:housenumber" v="462"/>
    <tag k="addr:street" v="Taconic Road"/>
    <tag k="addr:state" v="VT"/>
    <tag k="ref:vcgi:esiteid" v="151233"/>
  </node>
  <node id="-2123" visible="true" lat="43.15870458" lon="-73.07182097">
    <tag k="addr:housenumber" v="3340"/>
    <tag k="addr:street" v="Main Street"/>
    <tag k="addr:state" v="VT"/>
    <tag k="ref:vcgi:esiteid" v="151235"/>
  </node>
  <node id="-2126" visible="true" lat="43.15848383" lon="-73.08217733">
    <tag k="addr:housenumber" v="482"/>
    <tag k="addr:street" v="Prospect Street"/>
    <tag k="addr:state" v="VT"/>
    <tag k="ref:vcgi:esiteid" v="151238"/>
  </node>
  <node id="-2127" visible="true" lat="43.15856567" lon="-73.07542634">
    <tag k="addr:housenumber" v="162"/>
    <tag k="addr:street" v="Taconic Road"/>
    <tag k="addr:state" v="VT"/>
    <tag k="ref:vcgi:esiteid" v="151239"/>
  </node>
  <node id="-2128" visible="true" lat="43.15844384" lon="-73.07172202">
    <tag k="addr:housenumber" v="3322"/>
    <tag k="addr:street" v="Main Street"/>
    <tag k="addr:state" v="VT"/>
    <tag k="ref:vcgi:esiteid" v="151240"/>
  </node>
  <node id="-2129" visible="true" lat="43.15846126" lon="-73.07366061">
    <tag k="addr:housenumber" v="3321"/>
    <tag k="addr:street" v="Main Street"/>
    <tag k="addr:state" v="VT"/>
    <tag k="ref:vcgi:esiteid" v="151241"/>
  </node>
  <node id="-2131" visible="true" lat="43.15839813" lon="-73.07800593">
    <tag k="addr:housenumber" v="292"/>
    <tag k="addr:street" v="Taconic Road"/>
    <tag k="addr:state" v="VT"/>
    <tag k="ref:vcgi:esiteid" v="151243"/>
  </node>
  <node id="-2133" visible="true" lat="43.15833863" lon="-73.07902251">
    <tag k="addr:housenumber" v="340"/>
    <tag k="addr:street" v="Taconic Road"/>
    <tag k="addr:state" v="VT"/>
    <tag k="ref:vcgi:esiteid" v="151245"/>
  </node>
  <node id="-2135" visible="true" lat="43.15821689" lon="-73.08122822">
    <tag k="addr:housenumber" v="454"/>
    <tag k="addr:street" v="Taconic Road"/>
    <tag k="addr:state" v="VT"/>
    <tag k="ref:vcgi:esiteid" v="151247"/>
  </node>
  <node id="-2136" visible="true" lat="43.15822765" lon="-73.07660548">
    <tag k="addr:housenumber" v="212"/>
    <tag k="addr:street" v="Taconic Road"/>
    <tag k="addr:state" v="VT"/>
    <tag k="ref:vcgi:esiteid" v="151248"/>
  </node>
  <node id="-2138" visible="true" lat="43.15816328" lon="-73.07513854">
    <tag k="addr:housenumber" v="144"/>
    <tag k="addr:street" v="Taconic Road"/>
    <tag k="addr:state" v="VT"/>
    <tag k="ref:vcgi:esiteid" v="151251"/>
  </node>
  <node id="-2139" visible="true" lat="43.1581139" lon="-73.07445838">
    <tag k="addr:housenumber" v="110"/>
    <tag k="addr:street" v="Taconic Road"/>
    <tag k="addr:state" v="VT"/>
    <tag k="ref:vcgi:esiteid" v="151252"/>
  </node>
  <node id="-2140" visible="true" lat="43.15816533" lon="-73.07176062">
    <tag k="addr:housenumber" v="3302"/>
    <tag k="addr:street" v="Main Street"/>
    <tag k="addr:state" v="VT"/>
    <tag k="ref:vcgi:esiteid" v="151253"/>
  </node>
  <node id="-2141" visible="true" lat="43.15807365" lon="-73.08212951">
    <tag k="addr:housenumber" v="498"/>
    <tag k="addr:street" v="Taconic Road"/>
    <tag k="addr:state" v="VT"/>
    <tag k="ref:vcgi:esiteid" v="151254"/>
  </node>
  <node id="-2144" visible="true" lat="43.15808342" lon="-73.07411517">
    <tag k="addr:housenumber" v="94"/>
    <tag k="addr:street" v="Taconic Road"/>
    <tag k="addr:state" v="VT"/>
    <tag k="ref:vcgi:esiteid" v="151259"/>
  </node>
  <node id="-2151" visible="true" lat="43.15769951" lon="-73.07643644">
    <tag k="addr:housenumber" v="203"/>
    <tag k="addr:street" v="Taconic Road"/>
    <tag k="addr:state" v="VT"/>
    <tag k="ref:vcgi:esiteid" v="151267"/>
  </node>
  <node id="-2153" visible="true" lat="43.15759797" lon="-73.08048936">
    <tag k="addr:housenumber" v="413"/>
    <tag k="addr:street" v="Taconic Road"/>
    <tag k="addr:state" v="VT"/>
    <tag k="ref:vcgi:esiteid" v="151269"/>
  </node>
  <node id="-2155" visible="true" lat="43.15759237" lon="-73.08109667">
    <tag k="addr:housenumber" v="441"/>
    <tag k="addr:street" v="Taconic Road"/>
    <tag k="addr:state" v="VT"/>
    <tag k="ref:vcgi:esiteid" v="151271"/>
  </node>
  <node id="-2157" visible="true" lat="43.15773387" lon="-73.0784254">
    <tag k="addr:housenumber" v="303"/>
    <tag k="addr:street" v="Taconic Road"/>
    <tag k="addr:state" v="VT"/>
    <tag k="ref:vcgi:esiteid" v="151273"/>
  </node>
  <node id="-2159" visible="true" lat="43.1576408" lon="-73.07480705">
    <tag k="addr:housenumber" v="125"/>
    <tag k="addr:street" v="Taconic Road"/>
    <tag k="addr:state" v="VT"/>
    <tag k="ref:vcgi:esiteid" v="151275"/>
  </node>
  <node id="-2160" visible="true" lat="43.1579742" lon="-73.08279815">
    <tag k="addr:housenumber" v="425"/>
    <tag k="addr:street" v="Prospect Street"/>
    <tag k="addr:state" v="VT"/>
    <tag k="ref:vcgi:esiteid" v="151276"/>
  </node>
  <node id="-2164" visible="true" lat="43.15763854" lon="-73.07349395">
    <tag k="addr:housenumber" v="57"/>
    <tag k="addr:street" v="Taconic Road"/>
    <tag k="addr:state" v="VT"/>
    <tag k="ref:vcgi:esiteid" v="151280"/>
  </node>
  <node id="-2165" visible="true" lat="43.1576271" lon="-73.0756073">
    <tag k="addr:housenumber" v="163"/>
    <tag k="addr:street" v="Taconic Road"/>
    <tag k="addr:state" v="VT"/>
    <tag k="ref:vcgi:esiteid" v="151281"/>
  </node>
  <node id="-2167" visible="true" lat="43.15748034" lon="-73.07965018">
    <tag k="addr:housenumber" v="379"/>
    <tag k="addr:street" v="Taconic Road"/>
    <tag k="addr:state" v="VT"/>
    <tag k="ref:vcgi:esiteid" v="151284"/>
  </node>
  <node id="-2173" visible="true" lat="43.15727591" lon="-73.07528009">
    <tag k="addr:housenumber" v="135"/>
    <tag k="addr:street" v="Taconic Road"/>
    <tag k="addr:state" v="VT"/>
    <tag k="ref:vcgi:esiteid" v="151291"/>
  </node>
  <node id="-2195" visible="true" lat="43.1564064" lon="-73.08166504">
    <tag k="addr:housenumber" v="324"/>
    <tag k="addr:street" v="Prospect Street"/>
    <tag k="addr:state" v="VT"/>
    <tag k="ref:vcgi:esiteid" v="151316"/>
  </node>
  <node id="-2199" visible="true" lat="43.15614412" lon="-73.07221718">
    <tag k="addr:housenumber" v="3174"/>
    <tag k="addr:street" v="Main Street"/>
    <tag k="addr:state" v="VT"/>
    <tag k="ref:vcgi:esiteid" v="151322"/>
  </node>
  <node id="-2203" visible="true" lat="43.15597905" lon="-73.07608093">
    <tag k="addr:housenumber" v="3229"/>
    <tag k="addr:street" v="Main Street"/>
    <tag k="addr:state" v="VT"/>
    <tag k="ref:vcgi:esiteid" v="151326"/>
  </node>
  <node id="-2215" visible="true" lat="43.15552746" lon="-73.07294946">
    <tag k="addr:housenumber" v="3116"/>
    <tag k="addr:street" v="Main Street"/>
    <tag k="addr:state" v="VT"/>
    <tag k="ref:vcgi:esiteid" v="151338"/>
  </node>
  <node id="-2216" visible="true" lat="43.15517425" lon="-73.07335662">
    <tag k="addr:housenumber" v="3088"/>
    <tag k="addr:street" v="Main Street"/>
    <tag k="addr:state" v="VT"/>
    <tag k="ref:vcgi:esiteid" v="151340"/>
  </node>
  <node id="-2222" visible="true" lat="43.15486762" lon="-73.07358151">
    <tag k="addr:housenumber" v="3062"/>
    <tag k="addr:street" v="Main Street"/>
    <tag k="addr:state" v="VT"/>
    <tag k="ref:vcgi:esiteid" v="151347"/>
  </node>
  <node id="-2224" visible="true" lat="43.15473477" lon="-73.08292173">
    <tag k="addr:housenumber" v="227"/>
    <tag k="addr:street" v="Prospect Street"/>
    <tag k="addr:state" v="VT"/>
    <tag k="ref:vcgi:esiteid" v="151349"/>
  </node>
  <node id="-2228" visible="true" lat="43.15452922" lon="-73.07502404">
    <tag k="addr:housenumber" v="2991"/>
    <tag k="addr:street" v="Main Street"/>
    <tag k="addr:state" v="VT"/>
    <tag k="ref:vcgi:esiteid" v="151353"/>
  </node>
  <node id="-2229" visible="true" lat="43.15446713" lon="-73.07393341">
    <tag k="addr:housenumber" v="3032"/>
    <tag k="addr:street" v="Main Street"/>
    <tag k="addr:state" v="VT"/>
    <tag k="ref:vcgi:esiteid" v="151354"/>
  </node>
  <node id="-2234" visible="true" lat="43.15408325" lon="-73.07844543">
    <tag k="addr:housenumber" v="2809"/>
    <tag k="addr:street" v="Main Street"/>
    <tag k="addr:state" v="VT"/>
    <tag k="ref:vcgi:esiteid" v="151360"/>
  </node>
  <node id="-2237" visible="true" lat="43.15406628" lon="-73.07800221">
    <tag k="addr:housenumber" v="2837"/>
    <tag k="addr:street" v="Main Street"/>
    <tag k="addr:state" v="VT"/>
    <tag k="ref:vcgi:esiteid" v="151363"/>
  </node>
  <node id="-2238" visible="true" lat="43.15397296" lon="-73.07754892">
    <tag k="addr:housenumber" v="2853"/>
    <tag k="addr:street" v="Main Street"/>
    <tag k="addr:state" v="VT"/>
    <tag k="ref:vcgi:esiteid" v="151364"/>
  </node>
  <node id="-2244" visible="true" lat="43.15357944" lon="-73.07692557">
    <tag k="addr:housenumber" v="2882"/>
    <tag k="addr:street" v="Main Street"/>
    <tag k="addr:state" v="VT"/>
    <tag k="ref:vcgi:esiteid" v="151372"/>
  </node>
  <node id="-2245" visible="true" lat="43.1536085" lon="-73.0790168">
    <tag k="addr:housenumber" v="2781"/>
    <tag k="addr:street" v="Main Street"/>
    <tag k="addr:state" v="VT"/>
    <tag k="ref:vcgi:esiteid" v="151373"/>
  </node>
  <node id="-2248" visible="true" lat="43.15344059" lon="-73.07744312">
    <tag k="addr:housenumber" v="2844"/>
    <tag k="addr:street" v="Main Street"/>
    <tag k="addr:state" v="VT"/>
    <tag k="ref:vcgi:esiteid" v="151376"/>
  </node>
  <node id="-2253" visible="true" lat="43.15306091" lon="-73.07878112">
    <tag k="addr:housenumber" v="2774"/>
    <tag k="addr:street" v="Main Street"/>
    <tag k="addr:state" v="VT"/>
    <tag k="ref:vcgi:esiteid" v="151382"/>
  </node>
  <node id="-2268" visible="true" lat="43.15230069" lon="-73.07967285">
    <tag k="addr:housenumber" v="2694"/>
    <tag k="addr:street" v="Main Street"/>
    <tag k="addr:state" v="VT"/>
    <tag k="ref:vcgi:esiteid" v="151398"/>
  </node>
  <node id="-2279" visible="true" lat="43.15142059" lon="-73.07912445">
    <tag k="addr:housenumber" v="2668"/>
    <tag k="addr:street" v="Main Street"/>
    <tag k="addr:state" v="VT"/>
    <tag k="ref:vcgi:esiteid" v="151412"/>
  </node>
  <node id="-2346" visible="true" lat="43.14315483" lon="-73.08954582">
    <tag k="addr:housenumber" v="1842"/>
    <tag k="addr:street" v="Main Street"/>
    <tag k="addr:state" v="VT"/>
    <tag k="ref:vcgi:esiteid" v="151486"/>
  </node>
  <node id="-2440" visible="true" lat="43.17066292" lon="-73.05893479">
    <tag k="addr:housenumber" v="154"/>
    <tag k="addr:street" v="The Meadows"/>
    <tag k="addr:state" v="VT"/>
    <tag k="ref:vcgi:esiteid" v="151581"/>
  </node>
  <node id="-2464" visible="true" lat="43.18989249" lon="-73.00949731">
    <tag k="addr:housenumber" v="58"/>
    <tag k="addr:street" v="Johnnycake Street"/>
    <tag k="addr:state" v="VT"/>
    <tag k="ref:vcgi:esiteid" v="151606"/>
  </node>
  <node id="-2491" visible="true" lat="43.17468046" lon="-73.05176972">
    <tag k="addr:housenumber" v="301"/>
    <tag k="addr:street" v="Depot Street"/>
    <tag k="addr:state" v="VT"/>
    <tag k="ref:vcgi:esiteid" v="151637"/>
  </node>
  <node id="-2492" visible="true" lat="43.17456254" lon="-73.05157673">
    <tag k="addr:housenumber" v="321"/>
    <tag k="addr:street" v="Depot Street"/>
    <tag k="addr:state" v="VT"/>
    <tag k="ref:vcgi:esiteid" v="151638"/>
  </node>
  <node id="-2493" visible="true" lat="43.17445958" lon="-73.05138825">
    <tag k="addr:housenumber" v="341"/>
    <tag k="addr:street" v="Depot Street"/>
    <tag k="addr:state" v="VT"/>
    <tag k="ref:vcgi:esiteid" v="151639"/>
  </node>
  <node id="-2494" visible="true" lat="43.17430987" lon="-73.05201904">
    <tag k="addr:housenumber" v="304"/>
    <tag k="addr:street" v="Depot Street"/>
    <tag k="addr:state" v="VT"/>
    <tag k="ref:vcgi:esiteid" v="151640"/>
  </node>
  <node id="-2495" visible="true" lat="43.17422485" lon="-73.05203247">
    <tag k="addr:housenumber" v="308"/>
    <tag k="addr:street" v="Depot Street"/>
    <tag k="addr:state" v="VT"/>
    <tag k="ref:vcgi:esiteid" v="151641"/>
  </node>
  <node id="-2497" visible="true" lat="43.1751213" lon="-73.05636596">
    <tag k="addr:housenumber" v="12"/>
    <tag k="addr:street" v="Cottage Street"/>
    <tag k="addr:state" v="VT"/>
    <tag k="ref:vcgi:esiteid" v="151643"/>
  </node>
  <node id="-2511" visible="true" lat="43.18920374" lon="-73.04809826">
    <tag k="addr:housenumber" v="410"/>
    <tag k="addr:street" v="Hunter Park Road"/>
    <tag k="addr:state" v="VT"/>
    <tag k="ref:vcgi:esiteid" v="151659"/>
  </node>
  <node id="-2512" visible="true" lat="43.18983672" lon="-73.04467678">
    <tag k="addr:housenumber" v="9"/>
    <tag k="addr:street" v="Virgil Road"/>
    <tag k="addr:state" v="VT"/>
    <tag k="ref:vcgi:esiteid" v="151660"/>
  </node>
  <node id="-2528" visible="true" lat="43.1591391" lon="-73.07204062">
    <tag k="addr:housenumber" v="3370"/>
    <tag k="addr:street" v="Main Street"/>
    <tag k="addr:state" v="VT"/>
    <tag k="ref:vcgi:esiteid" v="151676"/>
  </node>
  <node id="-2529" visible="true" lat="43.16085193" lon="-73.07267797">
    <tag k="addr:housenumber" v="3487"/>
    <tag k="addr:street" v="Main Street"/>
    <tag k="addr:state" v="VT"/>
    <tag k="ref:vcgi:esiteid" v="151677"/>
  </node>
  <node id="-2533" visible="true" lat="43.17565201" lon="-73.05612463">
    <tag k="addr:housenumber" v="74"/>
    <tag k="addr:street" v="Depot Street"/>
    <tag k="addr:state" v="VT"/>
    <tag k="ref:vcgi:esiteid" v="151682"/>
  </node>
  <node id="-2534" visible="true" lat="43.17284476" lon="-73.04785483">
    <tag k="addr:housenumber" v="530"/>
    <tag k="addr:street" v="Depot Street"/>
    <tag k="addr:state" v="VT"/>
    <tag k="ref:vcgi:esiteid" v="151683"/>
  </node>
  <node id="-2537" visible="true" lat="43.16016904" lon="-73.08176611">
    <tag k="addr:housenumber" v="575"/>
    <tag k="addr:street" v="Prospect Street"/>
    <tag k="addr:state" v="VT"/>
    <tag k="ref:vcgi:esiteid" v="151686"/>
  </node>
  <node id="-2538" visible="true" lat="43.15756889" lon="-73.08207989">
    <tag k="addr:housenumber" v="430"/>
    <tag k="addr:street" v="Prospect Street"/>
    <tag k="addr:state" v="VT"/>
    <tag k="ref:vcgi:esiteid" v="151687"/>
  </node>
  <node id="-2549" visible="true" lat="43.17825959" lon="-73.06941897">
    <tag k="addr:housenumber" v="150"/>
    <tag k="addr:street" v="Village Glen"/>
    <tag k="addr:state" v="VT"/>
    <tag k="ref:vcgi:esiteid" v="151699"/>
  </node>
  <node id="-2565" visible="true" lat="43.1775961" lon="-73.06443697">
    <tag k="addr:housenumber" v="374"/>
    <tag k="addr:street" v="Village Glen"/>
    <tag k="addr:state" v="VT"/>
    <tag k="ref:vcgi:esiteid" v="151716"/>
  </node>
  <node id="-2574" visible="true" lat="43.17965092" lon="-73.06041652">
    <tag k="addr:housenumber" v="178"/>
    <tag k="addr:street" v="Riverside Townhouses Road"/>
    <tag k="addr:state" v="VT"/>
    <tag k="ref:vcgi:esiteid" v="151725"/>
  </node>
  <node id="-2577" visible="true" lat="43.1933376" lon="-73.05077024">
    <tag k="addr:housenumber" v="184"/>
    <tag k="addr:street" v="Pig Pen Road"/>
    <tag k="addr:state" v="VT"/>
    <tag k="ref:vcgi:esiteid" v="151728"/>
  </node>
  <node id="-2579" visible="true" lat="43.17396545" lon="-73.05754089">
    <tag k="addr:housenumber" v="106"/>
    <tag k="addr:street" v="Cone Road"/>
    <tag k="addr:state" v="VT"/>
    <tag k="ref:vcgi:esiteid" v="151730"/>
  </node>
  <node id="-2580" visible="true" lat="43.1582149" lon="-73.0726276">
    <tag k="addr:housenumber" v="3309"/>
    <tag k="addr:street" v="Main Street"/>
    <tag k="addr:state" v="VT"/>
    <tag k="ref:vcgi:esiteid" v="151731"/>
  </node>
  <node id="-2581" visible="true" lat="43.19548028" lon="-73.00825618">
    <tag k="addr:housenumber" v="457"/>
    <tag k="addr:street" v="Johnnycake Street"/>
    <tag k="addr:state" v="VT"/>
    <tag k="ref:vcgi:esiteid" v="151732"/>
  </node>
  <node id="-2585" visible="true" lat="43.19054289" lon="-73.00913507">
    <tag k="addr:housenumber" v="80"/>
    <tag k="addr:street" v="Johnnycake Street"/>
    <tag k="addr:state" v="VT"/>
    <tag k="ref:vcgi:esiteid" v="151736"/>
  </node>
  <node id="-2587" visible="true" lat="43.17880825" lon="-73.0682068">
    <tag k="addr:housenumber" v="175"/>
    <tag k="addr:street" v="Village Glen"/>
    <tag k="addr:state" v="VT"/>
    <tag k="ref:vcgi:esiteid" v="151738"/>
  </node>
  <node id="-2596" visible="true" lat="43.17195487" lon="-73.06446686">
    <tag k="addr:housenumber" v="4367"/>
    <tag k="addr:street" v="Main Street"/>
    <tag k="addr:state" v="VT"/>
    <tag k="ref:vcgi:esiteid" v="151748"/>
  </node>
  <node id="-2607" visible="true" lat="43.17720077" lon="-73.06567061">
    <tag k="addr:housenumber" v="326"/>
    <tag k="addr:street" v="Village Glen"/>
    <tag k="addr:state" v="VT"/>
    <tag k="ref:vcgi:esiteid" v="151759"/>
  </node>
  <node id="-2625" visible="true" lat="43.17088857" lon="-73.04764501">
    <tag k="addr:housenumber" v="35"/>
    <tag k="addr:street" v="Torrey Knoll"/>
    <tag k="addr:state" v="VT"/>
    <tag k="ref:vcgi:esiteid" v="151779"/>
  </node>
  <node id="-2626" visible="true" lat="43.17080903" lon="-73.04723008">
    <tag k="addr:housenumber" v="55"/>
    <tag k="addr:street" v="Torrey Knoll"/>
    <tag k="addr:state" v="VT"/>
    <tag k="ref:vcgi:esiteid" v="151780"/>
  </node>
  <node id="-2627" visible="true" lat="43.17074549" lon="-73.046832">
    <tag k="addr:housenumber" v="73"/>
    <tag k="addr:street" v="Torrey Knoll"/>
    <tag k="addr:state" v="VT"/>
    <tag k="ref:vcgi:esiteid" v="151781"/>
  </node>
  <node id="-2628" visible="true" lat="43.17051081" lon="-73.04660546">
    <tag k="addr:housenumber" v="83"/>
    <tag k="addr:street" v="Torrey Knoll"/>
    <tag k="addr:state" v="VT"/>
    <tag k="ref:vcgi:esiteid" v="151782"/>
  </node>
  <node id="-2630" visible="true" lat="43.17737859" lon="-73.05681814">
    <tag k="addr:housenumber" v="34"/>
    <tag k="addr:street" v="Bonnet Street"/>
    <tag k="addr:state" v="VT"/>
    <tag k="ref:vcgi:esiteid" v="151784"/>
  </node>
  <node id="-2638" visible="true" lat="43.17534627" lon="-73.0352057">
    <tag k="addr:housenumber" v="130"/>
    <tag k="addr:street" v="Taconic Business Park Road"/>
    <tag k="addr:state" v="VT"/>
    <tag k="ref:vcgi:esiteid" v="151792"/>
  </node>
  <node id="-2640" visible="true" lat="43.17815981" lon="-73.06342389">
    <tag k="addr:housenumber" v="448"/>
    <tag k="addr:street" v="Village Glen"/>
    <tag k="addr:state" v="VT"/>
    <tag k="ref:vcgi:esiteid" v="151794"/>
  </node>
  <node id="-2643" visible="true" lat="43.19027434" lon="-73.13024527">
    <tag k="addr:housenumber" v="8079"/>
    <tag k="addr:street" v="Sandgate Road"/>
    <tag k="addr:state" v="VT"/>
    <tag k="ref:vcgi:esiteid" v="151798"/>
  </node>
  <node id="-2644" visible="true" lat="43.1891668" lon="-73.13007262">
    <tag k="addr:housenumber" v="8042"/>
    <tag k="addr:street" v="Sandgate Road"/>
    <tag k="addr:state" v="VT"/>
    <tag k="ref:vcgi:esiteid" v="151799"/>
  </node>
  <node id="-2645" visible="true" lat="43.18841498" lon="-73.13010283">
    <tag k="addr:housenumber" v="8010"/>
    <tag k="addr:street" v="Sandgate Road"/>
    <tag k="addr:state" v="VT"/>
    <tag k="ref:vcgi:esiteid" v="151800"/>
  </node>
  <node id="-2653" visible="true" lat="43.17321936" lon="-73.04938199">
    <tag k="addr:housenumber" v="454"/>
    <tag k="addr:street" v="Depot Street"/>
    <tag k="addr:state" v="VT"/>
    <tag k="ref:vcgi:esiteid" v="151808"/>
  </node>
  <node id="-2686" visible="true" lat="43.17715049" lon="-73.0669029">
    <tag k="addr:housenumber" v="260"/>
    <tag k="addr:street" v="Village Glen"/>
    <tag k="addr:state" v="VT"/>
    <tag k="ref:vcgi:esiteid" v="151841"/>
  </node>
  <node id="-2692" visible="true" lat="43.16906199" lon="-73.05592241">
    <tag k="addr:housenumber" v="322"/>
    <tag k="addr:street" v="Maple Street"/>
    <tag k="addr:state" v="VT"/>
    <tag k="ref:vcgi:esiteid" v="151849"/>
  </node>
  <node id="-2710" visible="true" lat="43.19758662" lon="-73.01485865">
    <tag k="addr:housenumber" v="655"/>
    <tag k="addr:street" v="Winter Street"/>
    <tag k="addr:state" v="VT"/>
    <tag k="ref:vcgi:esiteid" v="151872"/>
  </node>
  <node id="-2711" visible="true" lat="43.19818868" lon="-73.01522691">
    <tag k="addr:housenumber" v="695"/>
    <tag k="addr:street" v="Winter Street"/>
    <tag k="addr:state" v="VT"/>
    <tag k="ref:vcgi:esiteid" v="151873"/>
  </node>
  <node id="-2712" visible="true" lat="43.19619863" lon="-73.01451647">
    <tag k="addr:housenumber" v="551"/>
    <tag k="addr:street" v="Winter Street"/>
    <tag k="addr:state" v="VT"/>
    <tag k="ref:vcgi:esiteid" v="151874"/>
  </node>
  <node id="-2722" visible="true" lat="43.19703278" lon="-73.01452932">
    <tag k="addr:housenumber" v="603"/>
    <tag k="addr:street" v="Winter Street"/>
    <tag k="addr:state" v="VT"/>
    <tag k="ref:vcgi:esiteid" v="151885"/>
  </node>
  <node id="-2729" visible="true" lat="43.17461771" lon="-73.03567834">
    <tag k="addr:housenumber" v="20"/>
    <tag k="addr:street" v="Taconic Business Park Road"/>
    <tag k="addr:state" v="VT"/>
    <tag k="ref:vcgi:esiteid" v="151893"/>
  </node>
  <node id="-2732" visible="true" lat="43.19737766" lon="-73.01353295">
    <tag k="addr:housenumber" v="610"/>
    <tag k="addr:street" v="Winter Street"/>
    <tag k="addr:state" v="VT"/>
    <tag k="ref:vcgi:esiteid" v="151896"/>
  </node>
  <node id="-2749" visible="true" lat="43.19799559" lon="-73.01375249">
    <tag k="addr:housenumber" v="630"/>
    <tag k="addr:street" v="Winter Street"/>
    <tag k="addr:state" v="VT"/>
    <tag k="ref:vcgi:esiteid" v="151913"/>
  </node>
  <node id="-2762" visible="true" lat="43.18822586" lon="-73.13107678">
    <tag k="addr:housenumber" v="7920"/>
    <tag k="addr:street" v="Sandgate Road"/>
    <tag k="addr:state" v="VT"/>
    <tag k="ref:vcgi:esiteid" v="151926"/>
  </node>
  <node id="-2771" visible="true" lat="43.19664581" lon="-73.01640517">
    <tag k="addr:housenumber" v="100"/>
    <tag k="addr:street" v="Aspen Lane"/>
    <tag k="addr:state" v="VT"/>
    <tag k="ref:vcgi:esiteid" v="151936"/>
  </node>
  <node id="-2773" visible="true" lat="43.17708238" lon="-73.05886491">
    <tag k="addr:housenumber" v="4849"/>
    <tag k="addr:street" v="Main Street"/>
    <tag k="addr:state" v="VT"/>
    <tag k="ref:vcgi:esiteid" v="151938"/>
  </node>
  <node id="-2781" visible="true" lat="43.17531805" lon="-73.06356033">
    <tag k="addr:housenumber" v="191"/>
    <tag k="addr:street" v="Hillvale Road"/>
    <tag k="addr:state" v="VT"/>
    <tag k="ref:vcgi:esiteid" v="151947"/>
  </node>
  <node id="-2782" visible="true" lat="43.17559289" lon="-73.06355828">
    <tag k="addr:housenumber" v="217"/>
    <tag k="addr:street" v="Hillvale Road"/>
    <tag k="addr:state" v="VT"/>
    <tag k="ref:vcgi:esiteid" v="151948"/>
  </node>
  <node id="-2788" visible="true" lat="43.17021257" lon="-73.02921726">
    <tag k="addr:housenumber" v="200"/>
    <tag k="addr:street" v="Mending Walls Road"/>
    <tag k="addr:state" v="VT"/>
    <tag k="ref:vcgi:esiteid" v="305548"/>
  </node>
  <node id="-2801" visible="true" lat="43.1702803" lon="-73.05629561">
    <tag k="addr:housenumber" v="49"/>
    <tag k="addr:street" v="Maple Street"/>
    <tag k="addr:state" v="VT"/>
    <tag k="ref:vcgi:esiteid" v="307567"/>
  </node>
  <node id="-2813" visible="true" lat="43.19128553" lon="-73.04427488">
    <tag k="addr:housenumber" v="160"/>
    <tag k="addr:street" v="Manchester Valley Road"/>
    <tag k="addr:state" v="VT"/>
    <tag k="ref:vcgi:esiteid" v="316838"/>
  </node>
  <node id="-2814" visible="true" lat="43.19116514" lon="-73.04429054">
    <tag k="addr:housenumber" v="170"/>
    <tag k="addr:street" v="Manchester Valley Road"/>
    <tag k="addr:state" v="VT"/>
    <tag k="ref:vcgi:esiteid" v="316839"/>
  </node>
  <node id="-2816" visible="true" lat="43.1986867" lon="-73.0132272">
    <tag k="addr:housenumber" v="674"/>
    <tag k="addr:street" v="Winter Street"/>
    <tag k="addr:state" v="VT"/>
    <tag k="ref:vcgi:esiteid" v="318250"/>
  </node>
  <node id="-2853" visible="true" lat="43.21048162" lon="-73.00364315">
    <tag k="addr:housenumber" v="821"/>
    <tag k="addr:street" v="Winter Street"/>
    <tag k="addr:state" v="VT"/>
    <tag k="ref:vcgi:esiteid" v="331671"/>
  </node>
  <node id="-2867" visible="true" lat="43.19556413" lon="-73.01608528">
    <tag k="addr:housenumber" v="93"/>
    <tag k="addr:street" v="Aspen Lane"/>
    <tag k="addr:state" v="VT"/>
    <tag k="ref:vcgi:esiteid" v="336758"/>
  </node>
  <node id="-2888" visible="true" lat="43.17226091" lon="-73.06003773">
    <tag k="addr:housenumber" v="72"/>
    <tag k="addr:street" v="Bond Street"/>
    <tag k="addr:state" v="VT"/>
    <tag k="ref:vcgi:esiteid" v="341764"/>
  </node>
  <node id="-2899" visible="true" lat="43.19327418" lon="-73.00989168">
    <tag k="addr:housenumber" v="383"/>
    <tag k="addr:street" v="Johnnycake Street"/>
    <tag k="addr:state" v="VT"/>
    <tag k="ref:vcgi:esiteid" v="345435"/>
  </node>
  <node id="-2930" visible="true" lat="43.17802392" lon="-73.05442155">
    <tag k="addr:housenumber" v="33"/>
    <tag k="addr:street" v="Memorial Avenue"/>
    <tag k="addr:state" v="VT"/>
    <tag k="ref:vcgi:esiteid" v="611104"/>
  </node>
  <node id="-2932" visible="true" lat="43.1878623" lon="-73.05703475">
    <tag k="addr:housenumber" v="752"/>
    <tag k="addr:street" v="Bonnet Street"/>
    <tag k="addr:state" v="VT"/>
    <tag k="ref:vcgi:esiteid" v="611564"/>
  </node>
  <node id="-3000" visible="true" lat="43.19704296" lon="-73.0551277">
    <tag k="addr:housenumber" v="1321"/>
    <tag k="addr:street" v="Bonnet Street"/>
    <tag k="addr:state" v="VT"/>
    <tag k="ref:vcgi:esiteid" v="752046"/>
  </node>
  <node id="-3020" visible="true" lat="43.17748542" lon="-73.05766336">
    <tag k="addr:housenumber" v="41"/>
    <tag k="addr:street" v="Bonnet Street"/>
    <tag k="addr:state" v="VT"/>
    <tag k="ref:vcgi:esiteid" v="754134"/>
  </node>
  <node id="-3026" visible="true" lat="43.17450311" lon="-73.04897274">
    <tag k="addr:housenumber" v="37"/>
    <tag k="addr:street" v="Elm Street"/>
    <tag k="addr:state" v="VT"/>
    <tag k="ref:vcgi:esiteid" v="754623"/>
  </node>
  <node id="-3040" visible="true" lat="43.19496239" lon="-73.01566327">
    <tag k="addr:housenumber" v="65"/>
    <tag k="addr:street" v="Aspen Lane"/>
    <tag k="addr:state" v="VT"/>
    <tag k="ref:vcgi:esiteid" v="755927"/>
  </node>
  <node id="-3142" visible="true" lat="43.15625496" lon="-73.07545927">
    <tag k="addr:housenumber" v="3227"/>
    <tag k="addr:street" v="Main Street"/>
    <tag k="addr:state" v="VT"/>
    <tag k="ref:vcgi:esiteid" v="766092"/>
  </node>
</osm>
