<?xml version="1.0" encoding="UTF-8"?>
<osm version="0.6" generator="JOSM" upload="false">
  <node id="-162" visible="true" lat="42.90783902" lon="-72.73029766">
    <!-- conflict: "222 Adams Brook Lane, , VT" No match in OSM, but a different address exists <5m away: "381 Adams Brook Road, Marlboro, VT" -->
    <tag k="addr:housenumber" v="222"/>
    <tag k="addr:street" v="Adams Brook Lane"/>
    <tag k="addr:state" v="VT"/>
    <tag k="ref:vcgi:esiteid" v="152015"/>
  </node>
  <node id="-166" visible="true" lat="42.90750122" lon="-72.72988891">
    <!-- conflict: "243 Adams Brook Lane, , VT" No match in OSM, but a different address exists <5m away: "358 Adams Brook Road, Marlboro, VT" -->
    <tag k="addr:housenumber" v="243"/>
    <tag k="addr:street" v="Adams Brook Lane"/>
    <tag k="addr:state" v="VT"/>
    <tag k="ref:vcgi:esiteid" v="152019"/>
  </node>
  <node id="-227" visible="true" lat="42.89303297" lon="-72.68152872">
    <!-- conflict: "166 Sokoki Hill, , VT" Fuzzy match to "166 Sokoki Hollow, Marlboro, VT" -->
    <tag k="addr:housenumber" v="166"/>
    <tag k="addr:street" v="Sokoki Hill"/>
    <tag k="addr:state" v="VT"/>
    <tag k="ref:vcgi:esiteid" v="152080"/>
  </node>
  <node id="-242" visible="true" lat="42.89052836" lon="-72.67903103">
    <!-- conflict: "167 Sokoki Hill, , VT" Fuzzy match to "167 Sokoki Hollow, Marlboro, VT" -->
    <tag k="addr:housenumber" v="167"/>
    <tag k="addr:street" v="Sokoki Hill"/>
    <tag k="addr:state" v="VT"/>
    <tag k="ref:vcgi:esiteid" v="152097"/>
  </node>
  <node id="-326" visible="true" lat="42.8772441" lon="-72.70935011">
    <!-- conflict: "1855 Vermont Route 9, , VT" No match in OSM, but a different address exists <5m away: "1855 Vt Route 9, Marlboro, VT" -->
    <tag k="addr:housenumber" v="1855"/>
    <tag k="addr:street" v="Vermont Route 9"/>
    <tag k="addr:state" v="VT"/>
    <tag k="ref:vcgi:esiteid" v="152183"/>
  </node>
  <node id="-371" visible="true" lat="42.87074661" lon="-72.71965026">
    <!-- conflict: "2574 Vermont Route 9, , VT" No match in OSM, but a different address exists <5m away: "2574 Vt Route 9, Marlboro, VT" -->
    <tag k="addr:housenumber" v="2574"/>
    <tag k="addr:street" v="Vermont Route 9"/>
    <tag k="addr:state" v="VT"/>
    <tag k="ref:vcgi:esiteid" v="152229"/>
  </node>
  <node id="-373" visible="true" lat="42.87001975" lon="-72.71857084">
    <!-- conflict: "2553 Vermont Route 9, , VT" No match in OSM, but a different address exists <5m away: "2553 Vt Route 9, Marlboro, VT" -->
    <tag k="addr:housenumber" v="2553"/>
    <tag k="addr:street" v="Vermont Route 9"/>
    <tag k="addr:state" v="VT"/>
    <tag k="ref:vcgi:esiteid" v="152231"/>
  </node>
  <node id="-374" visible="true" lat="42.86929171" lon="-72.72041033">
    <!-- conflict: "2648 Vermont Route 9, , VT" No match in OSM, but a different address exists <5m away: "2648 Vt Route 9, Marlboro, VT" -->
    <tag k="addr:housenumber" v="2648"/>
    <tag k="addr:street" v="Vermont Route 9"/>
    <tag k="addr:state" v="VT"/>
    <tag k="ref:vcgi:esiteid" v="152232"/>
  </node>
  <node id="-380" visible="true" lat="42.867931" lon="-72.72138571">
    <!-- conflict: "2756 Vermont Route 9, , VT" No match in OSM, but a different address exists <5m away: "2756 Vt Route 9, Marlboro, VT" -->
    <tag k="addr:housenumber" v="2756"/>
    <tag k="addr:street" v="Vermont Route 9"/>
    <tag k="addr:state" v="VT"/>
    <tag k="ref:vcgi:esiteid" v="152238"/>
  </node>
  <node id="-381" visible="true" lat="42.86763488" lon="-72.72629262">
    <!-- conflict: "3135 Vermont Route 9, , VT" No match in OSM, but a different address exists <5m away: "3135 Vt Route 9, Marlboro, VT" -->
    <tag k="addr:housenumber" v="3135"/>
    <tag k="addr:street" v="Vermont Route 9"/>
    <tag k="addr:state" v="VT"/>
    <tag k="ref:vcgi:esiteid" v="152239"/>
  </node>
  <node id="-382" visible="true" lat="42.86739439" lon="-72.72099572">
    <!-- conflict: "2777 Vermont Route 9, , VT" No match in OSM, but a different address exists <5m away: "2777 Vt Route 9, Marlboro, VT" -->
    <tag k="addr:housenumber" v="2777"/>
    <tag k="addr:street" v="Vermont Route 9"/>
    <tag k="addr:state" v="VT"/>
    <tag k="ref:vcgi:esiteid" v="152240"/>
  </node>
  <node id="-384" visible="true" lat="42.86709163" lon="-72.72569328">
    <!-- conflict: "3085 Vermont Route 9, , VT" No match in OSM, but a different address exists <5m away: "3085 Vt Route 9, Marlboro, VT" -->
    <tag k="addr:housenumber" v="3085"/>
    <tag k="addr:street" v="Vermont Route 9"/>
    <tag k="addr:state" v="VT"/>
    <tag k="ref:vcgi:esiteid" v="152242"/>
  </node>
  <node id="-385" visible="true" lat="42.86706107" lon="-72.73004937">
    <!-- conflict: "3327 Vermont Route 9, , VT" No match in OSM, but a different address exists <5m away: "3327 Vt Route 9, Marlboro, VT" -->
    <tag k="addr:housenumber" v="3327"/>
    <tag k="addr:street" v="Vermont Route 9"/>
    <tag k="addr:state" v="VT"/>
    <tag k="ref:vcgi:esiteid" v="152243"/>
  </node>
  <node id="-386" visible="true" lat="42.86695738" lon="-72.78018276">
    <!-- conflict: "6590 Vermont Route 9, , VT" No match in OSM, but a different address exists <5m away: "6590 Vt Route 9, Marlboro, VT" -->
    <tag k="addr:housenumber" v="6590"/>
    <tag k="addr:street" v="Vermont Route 9"/>
    <tag k="addr:state" v="VT"/>
    <tag k="ref:vcgi:esiteid" v="152244"/>
  </node>
  <node id="-389" visible="true" lat="42.86688037" lon="-72.73037083">
    <!-- conflict: "3329 Vermont Route 9, , VT" No match in OSM, but a different address exists <5m away: "3329 Vt Route 9, Marlboro, VT" -->
    <tag k="addr:housenumber" v="3329"/>
    <tag k="addr:street" v="Vermont Route 9"/>
    <tag k="addr:state" v="VT"/>
    <tag k="ref:vcgi:esiteid" v="152247"/>
  </node>
  <node id="-390" visible="true" lat="42.86691665" lon="-72.72388458">
    <!-- conflict: "2912 Vermont Route 9, , VT" No match in OSM, but a different address exists <5m away: "2912 Vt Route 9, Marlboro, VT" -->
    <tag k="addr:housenumber" v="2912"/>
    <tag k="addr:street" v="Vermont Route 9"/>
    <tag k="addr:state" v="VT"/>
    <tag k="ref:vcgi:esiteid" v="152248"/>
  </node>
  <node id="-392" visible="true" lat="42.86680171" lon="-72.72119193">
    <!-- conflict: "2817 Vermont Route 9, , VT" No match in OSM, but a different address exists <5m away: "2817 Vt Route 9, Marlboro, VT" -->
    <tag k="addr:housenumber" v="2817"/>
    <tag k="addr:street" v="Vermont Route 9"/>
    <tag k="addr:state" v="VT"/>
    <tag k="ref:vcgi:esiteid" v="152250"/>
  </node>
  <node id="-394" visible="true" lat="42.86650238" lon="-72.72126087">
    <!-- conflict: "2845 Vermont Route 9, , VT" No match in OSM, but a different address exists <5m away: "2845 Vt Route 9, Marlboro, VT" -->
    <tag k="addr:housenumber" v="2845"/>
    <tag k="addr:street" v="Vermont Route 9"/>
    <tag k="addr:state" v="VT"/>
    <tag k="ref:vcgi:esiteid" v="152252"/>
  </node>
  <node id="-403" visible="true" lat="42.86403739" lon="-72.76077636">
    <!-- conflict: "5134 Vermont Route 9, , VT" No match in OSM, but a different address exists <5m away: "5134 Vt Route 9, Marlboro, VT" -->
    <tag k="addr:housenumber" v="5134"/>
    <tag k="addr:street" v="Vermont Route 9"/>
    <tag k="addr:state" v="VT"/>
    <tag k="ref:vcgi:esiteid" v="152261"/>
  </node>
  <node id="-409" visible="true" lat="42.86369372" lon="-72.75540443">
    <!-- conflict: "4758 Vermont Route 9, , VT" No match in OSM, but a different address exists <5m away: "4758 Vt Route 9, Marlboro, VT" -->
    <tag k="addr:housenumber" v="4758"/>
    <tag k="addr:street" v="Vermont Route 9"/>
    <tag k="addr:state" v="VT"/>
    <tag k="ref:vcgi:esiteid" v="152267"/>
  </node>
  <node id="-415" visible="true" lat="42.86291503" lon="-72.75585937">
    <!-- conflict: "4815 Vermont Route 9, , VT" No match in OSM, but a different address exists <5m away: "4815 Vt Route 9, Marlboro, VT" -->
    <tag k="addr:housenumber" v="4815"/>
    <tag k="addr:street" v="Vermont Route 9"/>
    <tag k="addr:state" v="VT"/>
    <tag k="ref:vcgi:esiteid" v="152273"/>
  </node>
  <node id="-421" visible="true" lat="42.86155979" lon="-72.76248797">
    <!-- conflict: "5190 Vermont Route 9, , VT" No match in OSM, but a different address exists <5m away: "5190 Vt Route 9, Marlboro, VT" -->
    <tag k="addr:housenumber" v="5190"/>
    <tag k="addr:street" v="Vermont Route 9"/>
    <tag k="addr:state" v="VT"/>
    <tag k="ref:vcgi:esiteid" v="152279"/>
  </node>
  <node id="-422" visible="true" lat="42.86146959" lon="-72.76089615">
    <!-- conflict: "5155 Vermont Route 9, , VT" No match in OSM, but a different address exists <5m away: "5155 Vt Route 9, Marlboro, VT" -->
    <tag k="addr:housenumber" v="5155"/>
    <tag k="addr:street" v="Vermont Route 9"/>
    <tag k="addr:state" v="VT"/>
    <tag k="ref:vcgi:esiteid" v="152280"/>
  </node>
  <node id="-428" visible="true" lat="42.86047363" lon="-72.7687149">
    <!-- conflict: "5504 Vermont Route 9, , VT" No match in OSM, but a different address exists <5m away: "5504 Vt Route 9, Marlboro, VT" -->
    <tag k="addr:housenumber" v="5504"/>
    <tag k="addr:street" v="Vermont Route 9"/>
    <tag k="addr:state" v="VT"/>
    <tag k="ref:vcgi:esiteid" v="152286"/>
  </node>
  <node id="-434" visible="true" lat="42.86026271" lon="-72.76474939">
    <!-- conflict: "5317 Vermont Route 9, , VT" No match in OSM, but a different address exists <5m away: "5317 Vt Route 9, Marlboro, VT" -->
    <tag k="addr:housenumber" v="5317"/>
    <tag k="addr:street" v="Vermont Route 9"/>
    <tag k="addr:state" v="VT"/>
    <tag k="ref:vcgi:esiteid" v="152292"/>
  </node>
  <node id="-436" visible="true" lat="42.8601799" lon="-72.7635498">
    <!-- conflict: "5295 Vermont Route 9, , VT" No match in OSM, but a different address exists <5m away: "5295 Vt Route 9, Marlboro, VT" -->
    <tag k="addr:housenumber" v="5295"/>
    <tag k="addr:street" v="Vermont Route 9"/>
    <tag k="addr:state" v="VT"/>
    <tag k="ref:vcgi:esiteid" v="152294"/>
  </node>
  <node id="-438" visible="true" lat="42.86006373" lon="-72.76566541">
    <!-- conflict: "5383 Vermont Route 9, , VT" No match in OSM, but a different address exists <5m away: "5383 Vt Route 9, Marlboro, VT" -->
    <tag k="addr:housenumber" v="5383"/>
    <tag k="addr:street" v="Vermont Route 9"/>
    <tag k="addr:state" v="VT"/>
    <tag k="ref:vcgi:esiteid" v="152296"/>
  </node>
  <node id="-451" visible="true" lat="42.85928499" lon="-72.76932933">
    <!-- conflict: "5546 Vermont Route 9, , VT" No match in OSM, but a different address exists <5m away: "5546 Vt Route 9, Marlboro, VT" -->
    <tag k="addr:housenumber" v="5546"/>
    <tag k="addr:street" v="Vermont Route 9"/>
    <tag k="addr:state" v="VT"/>
    <tag k="ref:vcgi:esiteid" v="152309"/>
  </node>
  <node id="-455" visible="true" lat="42.8588008" lon="-72.80033612">
    <!-- conflict: "8238 Vermont Route 9, , VT" No match in OSM, but a different address exists <5m away: "8238 Vt Route 9, Marlboro, VT" -->
    <tag k="addr:housenumber" v="8238"/>
    <tag k="addr:street" v="Vermont Route 9"/>
    <tag k="addr:state" v="VT"/>
    <tag k="ref:vcgi:esiteid" v="152313"/>
  </node>
  <node id="-491" visible="true" lat="42.85338592" lon="-72.79332733">
    <!-- conflict: "7680 Vermont Route 9, , VT" No match in OSM, but a different address exists <5m away: "7680 Vt Route 9, Marlboro, VT" -->
    <tag k="addr:housenumber" v="7680"/>
    <tag k="addr:street" v="Vermont Route 9"/>
    <tag k="addr:state" v="VT"/>
    <tag k="ref:vcgi:esiteid" v="152352"/>
  </node>
  <node id="-492" visible="true" lat="42.85318374" lon="-72.79359436">
    <!-- conflict: "7678 Vermont Route 9, , VT" No match in OSM, but a different address exists <5m away: "7678 VT Route 9, Marlboro, VT" -->
    <tag k="addr:housenumber" v="7678"/>
    <tag k="addr:street" v="Vermont Route 9"/>
    <tag k="addr:state" v="VT"/>
    <tag k="ref:vcgi:esiteid" v="152353"/>
  </node>
  <node id="-498" visible="true" lat="42.85250986" lon="-72.79488074">
    <!-- conflict: "7707 Vermont Route 9, , VT" No match in OSM, but a different address exists <5m away: "7707 VT Route 9, Marlboro, VT" -->
    <tag k="addr:housenumber" v="7707"/>
    <tag k="addr:street" v="Vermont Route 9"/>
    <tag k="addr:state" v="VT"/>
    <tag k="ref:vcgi:esiteid" v="152359"/>
  </node>
  <node id="-617" visible="true" lat="42.8293753" lon="-72.68772743">
    <!-- conflict: "2021 Cowpath 40, , VT" No match in OSM, but a different address exists <5m away: "1933 Cowpath 40, Marlboro, VT" -->
    <tag k="addr:housenumber" v="2021"/>
    <tag k="addr:street" v="Cowpath 40"/>
    <tag k="addr:state" v="VT"/>
    <tag k="ref:vcgi:esiteid" v="152483"/>
  </node>
  <node id="-641" visible="true" lat="42.85878884" lon="-72.72024525">
    <!-- conflict: "89 Moosewood Ridge, , VT" No match in OSM, but a different address exists <5m away: "2639 Ames Hill Road, Marlboro, VT" -->
    <tag k="addr:housenumber" v="89"/>
    <tag k="addr:street" v="Moosewood Ridge"/>
    <tag k="addr:state" v="VT"/>
    <tag k="ref:vcgi:esiteid" v="152507"/>
  </node>
  <node id="-645" visible="true" lat="42.83905765" lon="-72.73756145">
    <!-- conflict: "96 Howland Road, , VT" No match in OSM, but a different address exists <5m away: "62 Howland Road, Marlboro, VT" -->
    <tag k="addr:housenumber" v="96"/>
    <tag k="addr:street" v="Howland Road"/>
    <tag k="addr:state" v="VT"/>
    <tag k="ref:vcgi:esiteid" v="315444"/>
  </node>
  <node id="-649" visible="true" lat="42.85809778" lon="-72.72095525">
    <!-- conflict: "147 Moosewood Ridge, , VT" No match in OSM, but a different address exists <5m away: "2641 Ames Hill Road, Marlboro, VT" -->
    <tag k="addr:housenumber" v="147"/>
    <tag k="addr:street" v="Moosewood Ridge"/>
    <tag k="addr:state" v="VT"/>
    <tag k="ref:vcgi:esiteid" v="325186"/>
  </node>
  <node id="-714" visible="true" lat="42.8782955" lon="-72.71043262">
    <!-- conflict: "1854 Vermont Route 9, , VT" No match in OSM, but a different address exists <5m away: "1854 Vt Route 9, Marlboro, VT" -->
    <tag k="addr:housenumber" v="1854"/>
    <tag k="addr:street" v="Vermont Route 9"/>
    <tag k="addr:state" v="VT"/>
    <tag k="ref:vcgi:esiteid" v="612261"/>
  </node>
  <node id="-729" visible="true" lat="42.86440123" lon="-72.75860611">
    <!-- conflict: "4830 Vermont Route 9, , VT" No match in OSM, but a different address exists <5m away: "4830 Vt Route 9, Marlboro, VT" -->
    <tag k="addr:housenumber" v="4830"/>
    <tag k="addr:street" v="Vermont Route 9"/>
    <tag k="addr:state" v="VT"/>
    <tag k="ref:vcgi:esiteid" v="612302"/>
  </node>
  <node id="-730" visible="true" lat="42.86212535" lon="-72.75864518">
    <!-- conflict: "49 Honeycomb Hill, , VT" No match in OSM, but a different address exists <5m away: "4997 Vt Route 9, Marlboro, VT" -->
    <tag k="addr:housenumber" v="49"/>
    <tag k="addr:street" v="Honeycomb Hill"/>
    <tag k="addr:state" v="VT"/>
    <tag k="ref:vcgi:esiteid" v="612303"/>
  </node>
</osm>
