<?xml version="1.0" encoding="UTF-8"?>
<osm version="0.6" generator="JOSM" upload="false">
  <node id="-102" visible="true" lat="42.92388293" lon="-72.74688256">
    <tag k="addr:housenumber" v="2081"/>
    <tag k="addr:street" v="Stratton Hill Road"/>
    <tag k="addr:state" v="VT"/>
    <tag k="ref:vcgi:esiteid" v="151952"/>
  </node>
  <node id="-103" visible="true" lat="42.92307795" lon="-72.74709504">
    <tag k="addr:housenumber" v="2043"/>
    <tag k="addr:street" v="Stratton Hill Road"/>
    <tag k="addr:state" v="VT"/>
    <tag k="ref:vcgi:esiteid" v="151953"/>
  </node>
  <node id="-104" visible="true" lat="42.9243146" lon="-72.77201555">
    <tag k="addr:housenumber" v="644"/>
    <tag k="addr:street" v="Hunter Brook Road"/>
    <tag k="addr:state" v="VT"/>
    <tag k="ref:vcgi:esiteid" v="151954"/>
  </node>
  <node id="-105" visible="true" lat="42.92276434" lon="-72.71350918">
    <tag k="addr:housenumber" v="6083"/>
    <tag k="addr:street" v="Augur Hole Road"/>
    <tag k="addr:state" v="VT"/>
    <tag k="ref:vcgi:esiteid" v="151955"/>
  </node>
  <node id="-107" visible="true" lat="42.9221379" lon="-72.74731593">
    <tag k="addr:housenumber" v="1983"/>
    <tag k="addr:street" v="Stratton Hill Road"/>
    <tag k="addr:state" v="VT"/>
    <tag k="ref:vcgi:esiteid" v="151957"/>
  </node>
  <node id="-108" visible="true" lat="42.92108668" lon="-72.71340469">
    <tag k="addr:housenumber" v="5971"/>
    <tag k="addr:street" v="Augur Hole Road"/>
    <tag k="addr:state" v="VT"/>
    <tag k="ref:vcgi:esiteid" v="151959"/>
  </node>
  <node id="-109" visible="true" lat="42.9207168" lon="-72.78050383">
    <tag k="addr:housenumber" v="3366"/>
    <tag k="addr:street" v="Lower Dover Road"/>
    <tag k="addr:state" v="VT"/>
    <tag k="ref:vcgi:esiteid" v="151960"/>
  </node>
  <node id="-111" visible="true" lat="42.92039501" lon="-72.78123314">
    <tag k="addr:housenumber" v="3357"/>
    <tag k="addr:street" v="Lower Dover Road"/>
    <tag k="addr:state" v="VT"/>
    <tag k="ref:vcgi:esiteid" v="151962"/>
  </node>
  <node id="-112" visible="true" lat="42.92046109" lon="-72.71222631">
    <tag k="addr:housenumber" v="5944"/>
    <tag k="addr:street" v="Augur Hole Road"/>
    <tag k="addr:state" v="VT"/>
    <tag k="ref:vcgi:esiteid" v="151963"/>
  </node>
  <node id="-120" visible="true" lat="42.9196161" lon="-72.79542428">
    <tag k="addr:housenumber" v="1534"/>
    <tag k="addr:street" v="Upper Dover Road"/>
    <tag k="addr:state" v="VT"/>
    <tag k="ref:vcgi:esiteid" v="151971"/>
  </node>
  <node id="-121" visible="true" lat="42.91864905" lon="-72.77980684">
    <tag k="addr:housenumber" v="3275"/>
    <tag k="addr:street" v="Lower Dover Road"/>
    <tag k="addr:state" v="VT"/>
    <tag k="ref:vcgi:esiteid" v="151972"/>
  </node>
  <node id="-122" visible="true" lat="42.91915851" lon="-72.7951433">
    <tag k="addr:housenumber" v="1502"/>
    <tag k="addr:street" v="Upper Dover Road"/>
    <tag k="addr:state" v="VT"/>
    <tag k="ref:vcgi:esiteid" v="151973"/>
  </node>
  <node id="-123" visible="true" lat="42.91931658" lon="-72.7130005">
    <tag k="addr:housenumber" v="5848"/>
    <tag k="addr:street" v="Augur Hole Road"/>
    <tag k="addr:state" v="VT"/>
    <tag k="ref:vcgi:esiteid" v="151974"/>
  </node>
  <node id="-124" visible="true" lat="42.91882705" lon="-72.71482849">
    <tag k="addr:housenumber" v="5835"/>
    <tag k="addr:street" v="Augur Hole Road"/>
    <tag k="addr:state" v="VT"/>
    <tag k="ref:vcgi:esiteid" v="151975"/>
  </node>
  <node id="-129" visible="true" lat="42.91692733" lon="-72.71361541">
    <tag k="addr:housenumber" v="5690"/>
    <tag k="addr:street" v="Augur Hole Road"/>
    <tag k="addr:state" v="VT"/>
    <tag k="ref:vcgi:esiteid" v="151980"/>
  </node>
  <node id="-132" visible="true" lat="42.91629688" lon="-72.74626188">
    <tag k="addr:housenumber" v="1637"/>
    <tag k="addr:street" v="Adams Brook Road"/>
    <tag k="addr:state" v="VT"/>
    <tag k="ref:vcgi:esiteid" v="151984"/>
  </node>
  <node id="-135" visible="true" lat="42.91469039" lon="-72.71336567">
    <tag k="addr:housenumber" v="5526"/>
    <tag k="addr:street" v="Augur Hole Road"/>
    <tag k="addr:state" v="VT"/>
    <tag k="ref:vcgi:esiteid" v="151987"/>
  </node>
  <node id="-137" visible="true" lat="42.91449356" lon="-72.71642303">
    <tag k="addr:housenumber" v="5469"/>
    <tag k="addr:street" v="Augur Hole Road"/>
    <tag k="addr:state" v="VT"/>
    <tag k="ref:vcgi:esiteid" v="151989"/>
  </node>
  <node id="-138" visible="true" lat="42.91436004" lon="-72.73401641">
    <tag k="addr:housenumber" v="979"/>
    <tag k="addr:street" v="Adams Brook Road"/>
    <tag k="addr:state" v="VT"/>
    <tag k="ref:vcgi:esiteid" v="151990"/>
  </node>
  <node id="-139" visible="true" lat="42.91341413" lon="-72.7135625">
    <tag k="addr:housenumber" v="5460"/>
    <tag k="addr:street" v="Augur Hole Road"/>
    <tag k="addr:state" v="VT"/>
    <tag k="ref:vcgi:esiteid" v="151991"/>
  </node>
  <node id="-140" visible="true" lat="42.91413346" lon="-72.71478825">
    <tag k="addr:housenumber" v="5480"/>
    <tag k="addr:street" v="Augur Hole Road"/>
    <tag k="addr:state" v="VT"/>
    <tag k="ref:vcgi:esiteid" v="151992"/>
  </node>
  <node id="-141" visible="true" lat="42.91334152" lon="-72.7145462">
    <tag k="addr:housenumber" v="5420"/>
    <tag k="addr:street" v="Augur Hole Road"/>
    <tag k="addr:state" v="VT"/>
    <tag k="ref:vcgi:esiteid" v="151993"/>
  </node>
  <node id="-142" visible="true" lat="42.91307879" lon="-72.71557425">
    <tag k="addr:housenumber" v="5415"/>
    <tag k="addr:street" v="Augur Hole Road"/>
    <tag k="addr:state" v="VT"/>
    <tag k="ref:vcgi:esiteid" v="151994"/>
  </node>
  <node id="-144" visible="true" lat="42.91283035" lon="-72.71327972">
    <tag k="addr:housenumber" v="5404"/>
    <tag k="addr:street" v="Augur Hole Road"/>
    <tag k="addr:state" v="VT"/>
    <tag k="ref:vcgi:esiteid" v="151997"/>
  </node>
  <node id="-147" visible="true" lat="42.91185607" lon="-72.7941449">
    <tag k="addr:housenumber" v="1003"/>
    <tag k="addr:street" v="Upper Dover Road"/>
    <tag k="addr:state" v="VT"/>
    <tag k="ref:vcgi:esiteid" v="152000"/>
  </node>
  <node id="-150" visible="true" lat="42.91157207" lon="-72.79310955">
    <tag k="addr:housenumber" v="946"/>
    <tag k="addr:street" v="Upper Dover Road"/>
    <tag k="addr:state" v="VT"/>
    <tag k="ref:vcgi:esiteid" v="152003"/>
  </node>
  <node id="-152" visible="true" lat="42.91106624" lon="-72.71558649">
    <tag k="addr:housenumber" v="5259"/>
    <tag k="addr:street" v="Augur Hole Road"/>
    <tag k="addr:state" v="VT"/>
    <tag k="ref:vcgi:esiteid" v="152005"/>
  </node>
  <node id="-153" visible="true" lat="42.9108519" lon="-72.71497364">
    <tag k="addr:housenumber" v="5252"/>
    <tag k="addr:street" v="Augur Hole Road"/>
    <tag k="addr:state" v="VT"/>
    <tag k="ref:vcgi:esiteid" v="152006"/>
  </node>
  <node id="-155" visible="true" lat="42.90928059" lon="-72.79337281">
    <tag k="addr:housenumber" v="793"/>
    <tag k="addr:street" v="Upper Dover Road"/>
    <tag k="addr:state" v="VT"/>
    <tag k="ref:vcgi:esiteid" v="152008"/>
  </node>
  <node id="-156" visible="true" lat="42.90908431" lon="-72.79279327">
    <tag k="addr:housenumber" v="784"/>
    <tag k="addr:street" v="Upper Dover Road"/>
    <tag k="addr:state" v="VT"/>
    <tag k="ref:vcgi:esiteid" v="152009"/>
  </node>
  <node id="-157" visible="true" lat="42.90878237" lon="-72.79349699">
    <tag k="addr:housenumber" v="795"/>
    <tag k="addr:street" v="Upper Dover Road"/>
    <tag k="addr:state" v="VT"/>
    <tag k="ref:vcgi:esiteid" v="152010"/>
  </node>
  <node id="-159" visible="true" lat="42.90891314" lon="-72.71549806">
    <tag k="addr:housenumber" v="5113"/>
    <tag k="addr:street" v="Augur Hole Road"/>
    <tag k="addr:state" v="VT"/>
    <tag k="ref:vcgi:esiteid" v="152012"/>
  </node>
  <node id="-160" visible="true" lat="42.9087087" lon="-72.76728256">
    <tag k="addr:housenumber" v="2320"/>
    <tag k="addr:street" v="Lower Dover Road"/>
    <tag k="addr:state" v="VT"/>
    <tag k="ref:vcgi:esiteid" v="152013"/>
  </node>
  <node id="-161" visible="true" lat="42.90755147" lon="-72.72249539">
    <tag k="addr:housenumber" v="830"/>
    <tag k="addr:street" v="Alexander Road"/>
    <tag k="addr:state" v="VT"/>
    <tag k="ref:vcgi:esiteid" v="152014"/>
  </node>
  <node id="-163" visible="true" lat="42.90759658" lon="-72.79320526">
    <tag k="addr:housenumber" v="677"/>
    <tag k="addr:street" v="Upper Dover Road"/>
    <tag k="addr:state" v="VT"/>
    <tag k="ref:vcgi:esiteid" v="152016"/>
  </node>
  <node id="-164" visible="true" lat="42.90770721" lon="-72.71668243">
    <tag k="addr:housenumber" v="4975"/>
    <tag k="addr:street" v="Augur Hole Road"/>
    <tag k="addr:state" v="VT"/>
    <tag k="ref:vcgi:esiteid" v="152017"/>
  </node>
  <node id="-165" visible="true" lat="42.90756549" lon="-72.75040355">
    <tag k="addr:housenumber" v="1052"/>
    <tag k="addr:street" v="Stratton Hill Road"/>
    <tag k="addr:state" v="VT"/>
    <tag k="ref:vcgi:esiteid" v="152018"/>
  </node>
  <node id="-167" visible="true" lat="42.90703201" lon="-72.71742248">
    <tag k="addr:housenumber" v="4973"/>
    <tag k="addr:street" v="Augur Hole Road"/>
    <tag k="addr:state" v="VT"/>
    <tag k="ref:vcgi:esiteid" v="152020"/>
  </node>
  <node id="-168" visible="true" lat="42.90677437" lon="-72.79221505">
    <tag k="addr:housenumber" v="632"/>
    <tag k="addr:street" v="Upper Dover Road"/>
    <tag k="addr:state" v="VT"/>
    <tag k="ref:vcgi:esiteid" v="152021"/>
  </node>
  <node id="-169" visible="true" lat="42.90645432" lon="-72.76995275">
    <tag k="addr:housenumber" v="2055"/>
    <tag k="addr:street" v="Lower Dover Road"/>
    <tag k="addr:state" v="VT"/>
    <tag k="ref:vcgi:esiteid" v="152022"/>
  </node>
  <node id="-170" visible="true" lat="42.90637584" lon="-72.71534301">
    <tag k="addr:housenumber" v="5220"/>
    <tag k="addr:street" v="Augur Hole Road"/>
    <tag k="addr:state" v="VT"/>
    <tag k="ref:vcgi:esiteid" v="152023"/>
  </node>
  <node id="-171" visible="true" lat="42.90645267" lon="-72.76756645">
    <tag k="addr:housenumber" v="85"/>
    <tag k="addr:street" v="Stratton Hill Road"/>
    <tag k="addr:state" v="VT"/>
    <tag k="ref:vcgi:esiteid" v="152024"/>
  </node>
  <node id="-172" visible="true" lat="42.90581085" lon="-72.7669553">
    <tag k="addr:housenumber" v="94"/>
    <tag k="addr:street" v="Stratton Hill Road"/>
    <tag k="addr:state" v="VT"/>
    <tag k="ref:vcgi:esiteid" v="152025"/>
  </node>
  <node id="-174" visible="true" lat="42.90504265" lon="-72.77071536">
    <tag k="addr:housenumber" v="1931"/>
    <tag k="addr:street" v="Lower Dover Road"/>
    <tag k="addr:state" v="VT"/>
    <tag k="ref:vcgi:esiteid" v="152027"/>
  </node>
  <node id="-175" visible="true" lat="42.90497343" lon="-72.71740783">
    <tag k="addr:housenumber" v="4813"/>
    <tag k="addr:street" v="Augur Hole Road"/>
    <tag k="addr:state" v="VT"/>
    <tag k="ref:vcgi:esiteid" v="152028"/>
  </node>
  <node id="-176" visible="true" lat="42.90437316" lon="-72.79209899">
    <tag k="addr:housenumber" v="476"/>
    <tag k="addr:street" v="Upper Dover Road"/>
    <tag k="addr:state" v="VT"/>
    <tag k="ref:vcgi:esiteid" v="152029"/>
  </node>
  <node id="-177" visible="true" lat="42.90422629" lon="-72.77008792">
    <tag k="addr:housenumber" v="1929"/>
    <tag k="addr:street" v="Lower Dover Road"/>
    <tag k="addr:state" v="VT"/>
    <tag k="ref:vcgi:esiteid" v="152030"/>
  </node>
  <node id="-178" visible="true" lat="42.90410156" lon="-72.7305092">
    <tag k="addr:housenumber" v="215"/>
    <tag k="addr:street" v="Gilbert Road"/>
    <tag k="addr:state" v="VT"/>
    <tag k="ref:vcgi:esiteid" v="152031"/>
  </node>
  <node id="-181" visible="true" lat="42.90350562" lon="-72.7160819">
    <tag k="addr:housenumber" v="35"/>
    <tag k="addr:street" v="Private Drive"/>
    <tag k="addr:state" v="VT"/>
    <tag k="ref:vcgi:esiteid" v="152034"/>
  </node>
  <node id="-183" visible="true" lat="42.90275154" lon="-72.73788454">
    <tag k="addr:housenumber" v="3033"/>
    <tag k="addr:street" v="Augur Hole Road"/>
    <tag k="addr:state" v="VT"/>
    <tag k="ref:vcgi:esiteid" v="152036"/>
  </node>
  <node id="-184" visible="true" lat="42.90254974" lon="-72.76328277">
    <tag k="addr:housenumber" v="345"/>
    <tag k="addr:street" v="Forty Second Street"/>
    <tag k="addr:state" v="VT"/>
    <tag k="ref:vcgi:esiteid" v="152037"/>
  </node>
  <node id="-186" visible="true" lat="42.90219497" lon="-72.74640655">
    <tag k="addr:housenumber" v="2721"/>
    <tag k="addr:street" v="Augur Hole Road"/>
    <tag k="addr:state" v="VT"/>
    <tag k="ref:vcgi:esiteid" v="152039"/>
  </node>
  <node id="-187" visible="true" lat="42.90213775" lon="-72.77002716">
    <tag k="addr:housenumber" v="1779"/>
    <tag k="addr:street" v="Lower Dover Road"/>
    <tag k="addr:state" v="VT"/>
    <tag k="ref:vcgi:esiteid" v="152040"/>
  </node>
  <node id="-189" visible="true" lat="42.90150069" lon="-72.79253024">
    <tag k="addr:housenumber" v="259"/>
    <tag k="addr:street" v="Upper Dover Road"/>
    <tag k="addr:state" v="VT"/>
    <tag k="ref:vcgi:esiteid" v="152042"/>
  </node>
  <node id="-190" visible="true" lat="42.90140533" lon="-72.72690582">
    <tag k="addr:housenumber" v="3880"/>
    <tag k="addr:street" v="Augur Hole Road"/>
    <tag k="addr:state" v="VT"/>
    <tag k="ref:vcgi:esiteid" v="152043"/>
  </node>
  <node id="-191" visible="true" lat="42.90124331" lon="-72.72562482">
    <tag k="addr:housenumber" v="3925"/>
    <tag k="addr:street" v="Augur Hole Road"/>
    <tag k="addr:state" v="VT"/>
    <tag k="ref:vcgi:esiteid" v="152044"/>
  </node>
  <node id="-192" visible="true" lat="42.90112304" lon="-72.7658081">
    <tag k="addr:housenumber" v="171"/>
    <tag k="addr:street" v="Forty Second Street"/>
    <tag k="addr:state" v="VT"/>
    <tag k="ref:vcgi:esiteid" v="152045"/>
  </node>
  <node id="-193" visible="true" lat="42.90081787" lon="-72.79129028">
    <tag k="addr:housenumber" v="178"/>
    <tag k="addr:street" v="Upper Dover Road"/>
    <tag k="addr:state" v="VT"/>
    <tag k="ref:vcgi:esiteid" v="152046"/>
  </node>
  <node id="-194" visible="true" lat="42.90096282" lon="-72.72638702">
    <tag k="addr:housenumber" v="3902"/>
    <tag k="addr:street" v="Augur Hole Road"/>
    <tag k="addr:state" v="VT"/>
    <tag k="ref:vcgi:esiteid" v="152047"/>
  </node>
  <node id="-195" visible="true" lat="42.90077508" lon="-72.73562129">
    <tag k="addr:housenumber" v="3127"/>
    <tag k="addr:street" v="Augur Hole Road"/>
    <tag k="addr:state" v="VT"/>
    <tag k="ref:vcgi:esiteid" v="152048"/>
  </node>
  <node id="-196" visible="true" lat="42.90080504" lon="-72.71689994">
    <tag k="addr:housenumber" v="4536"/>
    <tag k="addr:street" v="Augur Hole Road"/>
    <tag k="addr:state" v="VT"/>
    <tag k="ref:vcgi:esiteid" v="152049"/>
  </node>
  <node id="-197" visible="true" lat="42.90068435" lon="-72.717453">
    <tag k="addr:housenumber" v="4521"/>
    <tag k="addr:street" v="Augur Hole Road"/>
    <tag k="addr:state" v="VT"/>
    <tag k="ref:vcgi:esiteid" v="152050"/>
  </node>
  <node id="-198" visible="true" lat="42.89995301" lon="-72.71951419">
    <tag k="addr:housenumber" v="66"/>
    <tag k="addr:street" v="Alexander Road"/>
    <tag k="addr:state" v="VT"/>
    <tag k="ref:vcgi:esiteid" v="152051"/>
  </node>
  <node id="-199" visible="true" lat="42.89980702" lon="-72.77250084">
    <tag k="addr:housenumber" v="185"/>
    <tag k="addr:street" v="Larrabee Road"/>
    <tag k="addr:state" v="VT"/>
    <tag k="ref:vcgi:esiteid" v="152052"/>
  </node>
  <node id="-202" visible="true" lat="42.89894656" lon="-72.73573625">
    <tag k="addr:housenumber" v="2987"/>
    <tag k="addr:street" v="Augur Hole Road"/>
    <tag k="addr:state" v="VT"/>
    <tag k="ref:vcgi:esiteid" v="152055"/>
  </node>
  <node id="-203" visible="true" lat="42.8987406" lon="-72.78998709">
    <tag k="addr:housenumber" v="34"/>
    <tag k="addr:street" v="Upper Dover Road"/>
    <tag k="addr:state" v="VT"/>
    <tag k="ref:vcgi:esiteid" v="152056"/>
  </node>
  <node id="-204" visible="true" lat="42.89830864" lon="-72.79845093">
    <tag k="addr:housenumber" v="3261"/>
    <tag k="addr:street" v="Higley Hill Road"/>
    <tag k="addr:state" v="VT"/>
    <tag k="ref:vcgi:esiteid" v="152057"/>
  </node>
  <node id="-206" visible="true" lat="42.898178" lon="-72.79406048">
    <tag k="addr:housenumber" v="3009"/>
    <tag k="addr:street" v="Higley Hill Road"/>
    <tag k="addr:state" v="VT"/>
    <tag k="ref:vcgi:esiteid" v="152059"/>
  </node>
  <node id="-207" visible="true" lat="42.89815139" lon="-72.79737091">
    <tag k="addr:housenumber" v="3185"/>
    <tag k="addr:street" v="Higley Hill Road"/>
    <tag k="addr:state" v="VT"/>
    <tag k="ref:vcgi:esiteid" v="152060"/>
  </node>
  <node id="-208" visible="true" lat="42.89832824" lon="-72.71968624">
    <tag k="addr:housenumber" v="4322"/>
    <tag k="addr:street" v="Augur Hole Road"/>
    <tag k="addr:state" v="VT"/>
    <tag k="ref:vcgi:esiteid" v="152061"/>
  </node>
  <node id="-209" visible="true" lat="42.8979492" lon="-72.79395341">
    <tag k="addr:housenumber" v="3007"/>
    <tag k="addr:street" v="Higley Hill Road"/>
    <tag k="addr:state" v="VT"/>
    <tag k="ref:vcgi:esiteid" v="152062"/>
  </node>
  <node id="-211" visible="true" lat="42.89733505" lon="-72.78962707">
    <tag k="addr:housenumber" v="2769"/>
    <tag k="addr:street" v="Higley Hill Road"/>
    <tag k="addr:state" v="VT"/>
    <tag k="ref:vcgi:esiteid" v="152064"/>
  </node>
  <node id="-212" visible="true" lat="42.89723413" lon="-72.76931383">
    <tag k="addr:housenumber" v="1443"/>
    <tag k="addr:street" v="Lower Dover Road"/>
    <tag k="addr:state" v="VT"/>
    <tag k="ref:vcgi:esiteid" v="152065"/>
  </node>
  <node id="-213" visible="true" lat="42.89715194" lon="-72.78884124">
    <tag k="addr:housenumber" v="2756"/>
    <tag k="addr:street" v="Higley Hill Road"/>
    <tag k="addr:state" v="VT"/>
    <tag k="ref:vcgi:esiteid" v="152066"/>
  </node>
  <node id="-214" visible="true" lat="42.89713579" lon="-72.79469615">
    <tag k="addr:housenumber" v="3127"/>
    <tag k="addr:street" v="Higley Hill Road"/>
    <tag k="addr:state" v="VT"/>
    <tag k="ref:vcgi:esiteid" v="152067"/>
  </node>
  <node id="-216" visible="true" lat="42.89666142" lon="-72.76726649">
    <tag k="addr:housenumber" v="1444"/>
    <tag k="addr:street" v="Lower Dover Road"/>
    <tag k="addr:state" v="VT"/>
    <tag k="ref:vcgi:esiteid" v="152069"/>
  </node>
  <node id="-217" visible="true" lat="42.89603419" lon="-72.78876543">
    <tag k="addr:housenumber" v="2671"/>
    <tag k="addr:street" v="Higley Hill Road"/>
    <tag k="addr:state" v="VT"/>
    <tag k="ref:vcgi:esiteid" v="152070"/>
  </node>
  <node id="-218" visible="true" lat="42.89529419" lon="-72.7868576">
    <tag k="addr:housenumber" v="2622"/>
    <tag k="addr:street" v="Higley Hill Road"/>
    <tag k="addr:state" v="VT"/>
    <tag k="ref:vcgi:esiteid" v="152071"/>
  </node>
  <node id="-220" visible="true" lat="42.89521358" lon="-72.76963771">
    <tag k="addr:housenumber" v="1196"/>
    <tag k="addr:street" v="Lower Dover Road"/>
    <tag k="addr:state" v="VT"/>
    <tag k="ref:vcgi:esiteid" v="152073"/>
  </node>
  <node id="-221" visible="true" lat="42.89539704" lon="-72.73950762">
    <tag k="addr:housenumber" v="2671"/>
    <tag k="addr:street" v="Augur Hole Road"/>
    <tag k="addr:state" v="VT"/>
    <tag k="ref:vcgi:esiteid" v="152074"/>
  </node>
  <node id="-223" visible="true" lat="42.89499718" lon="-72.78858889">
    <tag k="addr:housenumber" v="2631"/>
    <tag k="addr:street" v="Higley Hill Road"/>
    <tag k="addr:state" v="VT"/>
    <tag k="ref:vcgi:esiteid" v="152076"/>
  </node>
  <node id="-226" visible="true" lat="42.89298438" lon="-72.73923778">
    <tag k="addr:housenumber" v="2531"/>
    <tag k="addr:street" v="Augur Hole Road"/>
    <tag k="addr:state" v="VT"/>
    <tag k="ref:vcgi:esiteid" v="152079"/>
  </node>
  <node id="-228" visible="true" lat="42.8926506" lon="-72.78507995">
    <tag k="addr:housenumber" v="2302"/>
    <tag k="addr:street" v="Higley Hill Road"/>
    <tag k="addr:state" v="VT"/>
    <tag k="ref:vcgi:esiteid" v="152081"/>
  </node>
  <node id="-230" visible="true" lat="42.89226342" lon="-72.73953992">
    <tag k="addr:housenumber" v="2469"/>
    <tag k="addr:street" v="Augur Hole Road"/>
    <tag k="addr:state" v="VT"/>
    <tag k="ref:vcgi:esiteid" v="152083"/>
  </node>
  <node id="-232" visible="true" lat="42.89204084" lon="-72.78559119">
    <tag k="addr:housenumber" v="2343"/>
    <tag k="addr:street" v="Higley Hill Road"/>
    <tag k="addr:state" v="VT"/>
    <tag k="ref:vcgi:esiteid" v="152085"/>
  </node>
  <node id="-233" visible="true" lat="42.8918484" lon="-72.74063989">
    <tag k="addr:housenumber" v="2393"/>
    <tag k="addr:street" v="Augur Hole Road"/>
    <tag k="addr:state" v="VT"/>
    <tag k="ref:vcgi:esiteid" v="152086"/>
  </node>
  <node id="-234" visible="true" lat="42.89174819" lon="-72.78512233">
    <tag k="addr:housenumber" v="2313"/>
    <tag k="addr:street" v="Higley Hill Road"/>
    <tag k="addr:state" v="VT"/>
    <tag k="ref:vcgi:esiteid" v="152087"/>
  </node>
  <node id="-235" visible="true" lat="42.89140963" lon="-72.74018075">
    <tag k="addr:housenumber" v="2409"/>
    <tag k="addr:street" v="Augur Hole Road"/>
    <tag k="addr:state" v="VT"/>
    <tag k="ref:vcgi:esiteid" v="152088"/>
  </node>
  <node id="-236" visible="true" lat="42.89130401" lon="-72.77074432">
    <tag k="addr:housenumber" v="971"/>
    <tag k="addr:street" v="Lower Dover Road"/>
    <tag k="addr:state" v="VT"/>
    <tag k="ref:vcgi:esiteid" v="152089"/>
  </node>
  <node id="-239" visible="true" lat="42.89099335" lon="-72.78350396">
    <tag k="addr:housenumber" v="2230"/>
    <tag k="addr:street" v="Higley Hill Road"/>
    <tag k="addr:state" v="VT"/>
    <tag k="ref:vcgi:esiteid" v="152092"/>
  </node>
  <node id="-241" visible="true" lat="42.89056002" lon="-72.76902447">
    <tag k="addr:housenumber" v="928"/>
    <tag k="addr:street" v="Lower Dover Road"/>
    <tag k="addr:state" v="VT"/>
    <tag k="ref:vcgi:esiteid" v="152095"/>
  </node>
  <node id="-243" visible="true" lat="42.89008711" lon="-72.78340959">
    <tag k="addr:housenumber" v="2173"/>
    <tag k="addr:street" v="Higley Hill Road"/>
    <tag k="addr:state" v="VT"/>
    <tag k="ref:vcgi:esiteid" v="152098"/>
  </node>
  <node id="-246" visible="true" lat="42.88810119" lon="-72.7427698">
    <tag k="addr:housenumber" v="2239"/>
    <tag k="addr:street" v="Augur Hole Road"/>
    <tag k="addr:state" v="VT"/>
    <tag k="ref:vcgi:esiteid" v="152101"/>
  </node>
  <node id="-250" visible="true" lat="42.88828278" lon="-72.77140762">
    <tag k="addr:housenumber" v="767"/>
    <tag k="addr:street" v="Lower Dover Road"/>
    <tag k="addr:state" v="VT"/>
    <tag k="ref:vcgi:esiteid" v="152105"/>
  </node>
  <node id="-252" visible="true" lat="42.88796046" lon="-72.77833559">
    <tag k="addr:housenumber" v="1869"/>
    <tag k="addr:street" v="Higley Hill Road"/>
    <tag k="addr:state" v="VT"/>
    <tag k="ref:vcgi:esiteid" v="152107"/>
  </node>
  <node id="-258" visible="true" lat="42.88632148" lon="-72.76925352">
    <tag k="addr:housenumber" v="634"/>
    <tag k="addr:street" v="Lower Dover Road"/>
    <tag k="addr:state" v="VT"/>
    <tag k="ref:vcgi:esiteid" v="152113"/>
  </node>
  <node id="-262" visible="true" lat="42.88555547" lon="-72.7774045">
    <tag k="addr:housenumber" v="1701"/>
    <tag k="addr:street" v="Higley Hill Road"/>
    <tag k="addr:state" v="VT"/>
    <tag k="ref:vcgi:esiteid" v="152117"/>
  </node>
  <node id="-263" visible="true" lat="42.88552455" lon="-72.74449876">
    <tag k="addr:housenumber" v="1947"/>
    <tag k="addr:street" v="Augur Hole Road"/>
    <tag k="addr:state" v="VT"/>
    <tag k="ref:vcgi:esiteid" v="152118"/>
  </node>
  <node id="-264" visible="true" lat="42.88547177" lon="-72.77603172">
    <tag k="addr:housenumber" v="1630"/>
    <tag k="addr:street" v="Higley Hill Road"/>
    <tag k="addr:state" v="VT"/>
    <tag k="ref:vcgi:esiteid" v="152119"/>
  </node>
  <node id="-267" visible="true" lat="42.88481239" lon="-72.74573224">
    <tag k="addr:housenumber" v="1837"/>
    <tag k="addr:street" v="Augur Hole Road"/>
    <tag k="addr:state" v="VT"/>
    <tag k="ref:vcgi:esiteid" v="152122"/>
  </node>
  <node id="-269" visible="true" lat="42.88451385" lon="-72.75579833">
    <tag k="addr:housenumber" v="631"/>
    <tag k="addr:street" v="Stearns Hill Road"/>
    <tag k="addr:state" v="VT"/>
    <tag k="ref:vcgi:esiteid" v="152124"/>
  </node>
  <node id="-270" visible="true" lat="42.8844157" lon="-72.77732511">
    <tag k="addr:housenumber" v="1591"/>
    <tag k="addr:street" v="Higley Hill Road"/>
    <tag k="addr:state" v="VT"/>
    <tag k="ref:vcgi:esiteid" v="152125"/>
  </node>
  <node id="-272" visible="true" lat="42.88428965" lon="-72.74519422">
    <tag k="addr:housenumber" v="1847"/>
    <tag k="addr:street" v="Augur Hole Road"/>
    <tag k="addr:state" v="VT"/>
    <tag k="ref:vcgi:esiteid" v="152127"/>
  </node>
  <node id="-279" visible="true" lat="42.88285444" lon="-72.77672624">
    <tag k="addr:housenumber" v="1469"/>
    <tag k="addr:street" v="Higley Hill Road"/>
    <tag k="addr:state" v="VT"/>
    <tag k="ref:vcgi:esiteid" v="152135"/>
  </node>
  <node id="-280" visible="true" lat="42.8825416" lon="-72.76944349">
    <tag k="addr:housenumber" v="369"/>
    <tag k="addr:street" v="Lower Dover Road"/>
    <tag k="addr:state" v="VT"/>
    <tag k="ref:vcgi:esiteid" v="152136"/>
  </node>
  <node id="-281" visible="true" lat="42.88231624" lon="-72.77456979">
    <tag k="addr:housenumber" v="1454"/>
    <tag k="addr:street" v="Higley Hill Road"/>
    <tag k="addr:state" v="VT"/>
    <tag k="ref:vcgi:esiteid" v="152137"/>
  </node>
  <node id="-282" visible="true" lat="42.88249737" lon="-72.74488694">
    <tag k="addr:housenumber" v="1720"/>
    <tag k="addr:street" v="Augur Hole Road"/>
    <tag k="addr:state" v="VT"/>
    <tag k="ref:vcgi:esiteid" v="152138"/>
  </node>
  <node id="-283" visible="true" lat="42.88214301" lon="-72.69619042">
    <tag k="addr:housenumber" v="295"/>
    <tag k="addr:street" v="Whetstone Road"/>
    <tag k="addr:state" v="VT"/>
    <tag k="ref:vcgi:esiteid" v="152139"/>
  </node>
  <node id="-284" visible="true" lat="42.88171005" lon="-72.77461242">
    <tag k="addr:housenumber" v="1378"/>
    <tag k="addr:street" v="Higley Hill Road"/>
    <tag k="addr:state" v="VT"/>
    <tag k="ref:vcgi:esiteid" v="152140"/>
  </node>
  <node id="-287" visible="true" lat="42.88117783" lon="-72.77443227">
    <tag k="addr:housenumber" v="1348"/>
    <tag k="addr:street" v="Higley Hill Road"/>
    <tag k="addr:state" v="VT"/>
    <tag k="ref:vcgi:esiteid" v="152143"/>
  </node>
  <node id="-288" visible="true" lat="42.88112239" lon="-72.74495862">
    <tag k="addr:housenumber" v="1604"/>
    <tag k="addr:street" v="Augur Hole Road"/>
    <tag k="addr:state" v="VT"/>
    <tag k="ref:vcgi:esiteid" v="152144"/>
  </node>
  <node id="-289" visible="true" lat="42.88108114" lon="-72.77253707">
    <tag k="addr:housenumber" v="1230"/>
    <tag k="addr:street" v="Higley Hill Road"/>
    <tag k="addr:state" v="VT"/>
    <tag k="ref:vcgi:esiteid" v="152145"/>
  </node>
  <node id="-290" visible="true" lat="42.88062568" lon="-72.76804836">
    <tag k="addr:housenumber" v="233"/>
    <tag k="addr:street" v="Lower Dover Road"/>
    <tag k="addr:state" v="VT"/>
    <tag k="ref:vcgi:esiteid" v="152146"/>
  </node>
  <node id="-292" visible="true" lat="42.88052926" lon="-72.69621733">
    <tag k="addr:housenumber" v="171"/>
    <tag k="addr:street" v="Whetstone Road"/>
    <tag k="addr:state" v="VT"/>
    <tag k="ref:vcgi:esiteid" v="152148"/>
  </node>
  <node id="-293" visible="true" lat="42.88060129" lon="-72.77331224">
    <tag k="addr:housenumber" v="1248"/>
    <tag k="addr:street" v="Higley Hill Road"/>
    <tag k="addr:state" v="VT"/>
    <tag k="ref:vcgi:esiteid" v="152149"/>
  </node>
  <node id="-295" visible="true" lat="42.88022216" lon="-72.77230141">
    <tag k="addr:housenumber" v="1190"/>
    <tag k="addr:street" v="Higley Hill Road"/>
    <tag k="addr:state" v="VT"/>
    <tag k="ref:vcgi:esiteid" v="152151"/>
  </node>
  <node id="-296" visible="true" lat="42.88001716" lon="-72.76726583">
    <tag k="addr:housenumber" v="119"/>
    <tag k="addr:street" v="Lower Dover Road"/>
    <tag k="addr:state" v="VT"/>
    <tag k="ref:vcgi:esiteid" v="152152"/>
  </node>
  <node id="-298" visible="true" lat="42.87975781" lon="-72.70463277">
    <tag k="addr:housenumber" v="1540"/>
    <tag k="addr:street" v="Vermont Route 9"/>
    <tag k="addr:state" v="VT"/>
    <tag k="ref:vcgi:esiteid" v="152154"/>
  </node>
  <node id="-299" visible="true" lat="42.87976074" lon="-72.70632171">
    <tag k="addr:housenumber" v="1624"/>
    <tag k="addr:street" v="Vermont Route 9"/>
    <tag k="addr:state" v="VT"/>
    <tag k="ref:vcgi:esiteid" v="152155"/>
  </node>
  <node id="-300" visible="true" lat="42.87962341" lon="-72.69593811">
    <tag k="addr:housenumber" v="113"/>
    <tag k="addr:street" v="Whetstone Road"/>
    <tag k="addr:state" v="VT"/>
    <tag k="ref:vcgi:esiteid" v="152156"/>
  </node>
  <node id="-301" visible="true" lat="42.87941653" lon="-72.70672656">
    <tag k="addr:housenumber" v="19"/>
    <tag k="addr:street" v="North Pond Road"/>
    <tag k="addr:state" v="VT"/>
    <tag k="ref:vcgi:esiteid" v="152157"/>
  </node>
  <node id="-302" visible="true" lat="42.87924392" lon="-72.76642814">
    <tag k="addr:housenumber" v="854"/>
    <tag k="addr:street" v="Higley Hill Road"/>
    <tag k="addr:state" v="VT"/>
    <tag k="ref:vcgi:esiteid" v="152158"/>
  </node>
  <node id="-303" visible="true" lat="42.87926404" lon="-72.77330004">
    <tag k="addr:housenumber" v="1237"/>
    <tag k="addr:street" v="Higley Hill Road"/>
    <tag k="addr:state" v="VT"/>
    <tag k="ref:vcgi:esiteid" v="152159"/>
  </node>
  <node id="-305" visible="true" lat="42.87918241" lon="-72.69495931">
    <tag k="addr:housenumber" v="72"/>
    <tag k="addr:street" v="Whetstone Road"/>
    <tag k="addr:state" v="VT"/>
    <tag k="ref:vcgi:esiteid" v="152161"/>
  </node>
  <node id="-306" visible="true" lat="42.87909698" lon="-72.70758056">
    <tag k="addr:housenumber" v="1694"/>
    <tag k="addr:street" v="Vermont Route 9"/>
    <tag k="addr:state" v="VT"/>
    <tag k="ref:vcgi:esiteid" v="152162"/>
  </node>
  <node id="-308" visible="true" lat="42.87890709" lon="-72.69729463">
    <tag k="addr:housenumber" v="1127"/>
    <tag k="addr:street" v="Vermont Route 9"/>
    <tag k="addr:state" v="VT"/>
    <tag k="ref:vcgi:esiteid" v="152164"/>
  </node>
  <node id="-309" visible="true" lat="42.87875917" lon="-72.77261994">
    <tag k="addr:housenumber" v="1003"/>
    <tag k="addr:street" v="Hughes Road"/>
    <tag k="addr:state" v="VT"/>
    <tag k="ref:vcgi:esiteid" v="152165"/>
  </node>
  <node id="-314" visible="true" lat="42.87817382" lon="-72.70921325">
    <tag k="addr:housenumber" v="1796"/>
    <tag k="addr:street" v="Vermont Route 9"/>
    <tag k="addr:state" v="VT"/>
    <tag k="ref:vcgi:esiteid" v="152170"/>
  </node>
  <node id="-315" visible="true" lat="42.87802505" lon="-72.73223114">
    <tag k="addr:housenumber" v="899"/>
    <tag k="addr:street" v="Whitaker Farm Road"/>
    <tag k="addr:state" v="VT"/>
    <tag k="ref:vcgi:esiteid" v="152172"/>
  </node>
  <node id="-316" visible="true" lat="42.87784099" lon="-72.76303438">
    <tag k="addr:housenumber" v="5"/>
    <tag k="addr:street" v="Stearns Hill Road"/>
    <tag k="addr:state" v="VT"/>
    <tag k="ref:vcgi:esiteid" v="152173"/>
  </node>
  <node id="-320" visible="true" lat="42.8777422" lon="-72.73241861">
    <tag k="addr:housenumber" v="897"/>
    <tag k="addr:street" v="Whitaker Farm Road"/>
    <tag k="addr:state" v="VT"/>
    <tag k="ref:vcgi:esiteid" v="152177"/>
  </node>
  <node id="-322" visible="true" lat="42.87743089" lon="-72.73213205">
    <tag k="addr:housenumber" v="895"/>
    <tag k="addr:street" v="Whitaker Farm Road"/>
    <tag k="addr:state" v="VT"/>
    <tag k="ref:vcgi:esiteid" v="152179"/>
  </node>
  <node id="-323" visible="true" lat="42.87739944" lon="-72.73147568">
    <tag k="addr:housenumber" v="865"/>
    <tag k="addr:street" v="Whitaker Farm Road"/>
    <tag k="addr:state" v="VT"/>
    <tag k="ref:vcgi:esiteid" v="152180"/>
  </node>
  <node id="-328" visible="true" lat="42.87710735" lon="-72.73143372">
    <tag k="addr:housenumber" v="867"/>
    <tag k="addr:street" v="Whitaker Farm Road"/>
    <tag k="addr:state" v="VT"/>
    <tag k="ref:vcgi:esiteid" v="152185"/>
  </node>
  <node id="-331" visible="true" lat="42.87617429" lon="-72.76178259">
    <tag k="addr:housenumber" v="552"/>
    <tag k="addr:street" v="Higley Hill Road"/>
    <tag k="addr:state" v="VT"/>
    <tag k="ref:vcgi:esiteid" v="152188"/>
  </node>
  <node id="-332" visible="true" lat="42.87611007" lon="-72.71089172">
    <tag k="addr:housenumber" v="1956"/>
    <tag k="addr:street" v="Vermont Route 9"/>
    <tag k="addr:state" v="VT"/>
    <tag k="ref:vcgi:esiteid" v="152189"/>
  </node>
  <node id="-336" visible="true" lat="42.87564402" lon="-72.71101144">
    <tag k="addr:housenumber" v="1984"/>
    <tag k="addr:street" v="Vermont Route 9"/>
    <tag k="addr:state" v="VT"/>
    <tag k="ref:vcgi:esiteid" v="152193"/>
  </node>
  <node id="-337" visible="true" lat="42.87517367" lon="-72.71132983">
    <tag k="addr:housenumber" v="2022"/>
    <tag k="addr:street" v="Vermont Route 9"/>
    <tag k="addr:state" v="VT"/>
    <tag k="ref:vcgi:esiteid" v="152194"/>
  </node>
  <node id="-338" visible="true" lat="42.87507599" lon="-72.77880925">
    <tag k="addr:housenumber" v="308"/>
    <tag k="addr:street" v="Hall Farm Road"/>
    <tag k="addr:state" v="VT"/>
    <tag k="ref:vcgi:esiteid" v="152195"/>
  </node>
  <node id="-342" visible="true" lat="42.87449779" lon="-72.71120975">
    <tag k="addr:housenumber" v="2063"/>
    <tag k="addr:street" v="Vermont Route 9"/>
    <tag k="addr:state" v="VT"/>
    <tag k="ref:vcgi:esiteid" v="152199"/>
  </node>
  <node id="-343" visible="true" lat="42.87432656" lon="-72.75196971">
    <tag k="addr:housenumber" v="1060"/>
    <tag k="addr:street" v="Augur Hole Road"/>
    <tag k="addr:state" v="VT"/>
    <tag k="ref:vcgi:esiteid" v="152200"/>
  </node>
  <node id="-344" visible="true" lat="42.87441635" lon="-72.71466827">
    <tag k="addr:housenumber" v="141"/>
    <tag k="addr:street" v="Staver Road"/>
    <tag k="addr:state" v="VT"/>
    <tag k="ref:vcgi:esiteid" v="152201"/>
  </node>
  <node id="-347" visible="true" lat="42.87415313" lon="-72.7332077">
    <tag k="addr:housenumber" v="409"/>
    <tag k="addr:street" v="Whitaker Farm Road"/>
    <tag k="addr:state" v="VT"/>
    <tag k="ref:vcgi:esiteid" v="152204"/>
  </node>
  <node id="-348" visible="true" lat="42.87408066" lon="-72.71491636">
    <tag k="addr:housenumber" v="111"/>
    <tag k="addr:street" v="Staver Road"/>
    <tag k="addr:state" v="VT"/>
    <tag k="ref:vcgi:esiteid" v="152205"/>
  </node>
  <node id="-349" visible="true" lat="42.87393951" lon="-72.73032379">
    <tag k="addr:housenumber" v="308"/>
    <tag k="addr:street" v="Whitaker Farm Road"/>
    <tag k="addr:state" v="VT"/>
    <tag k="ref:vcgi:esiteid" v="152206"/>
  </node>
  <node id="-350" visible="true" lat="42.87371448" lon="-72.75325732">
    <tag k="addr:housenumber" v="985"/>
    <tag k="addr:street" v="Augur Hole Road"/>
    <tag k="addr:state" v="VT"/>
    <tag k="ref:vcgi:esiteid" v="152207"/>
  </node>
  <node id="-351" visible="true" lat="42.87356789" lon="-72.7610556">
    <tag k="addr:housenumber" v="370"/>
    <tag k="addr:street" v="Higley Hill Road"/>
    <tag k="addr:state" v="VT"/>
    <tag k="ref:vcgi:esiteid" v="152208"/>
  </node>
  <node id="-353" visible="true" lat="42.8734436" lon="-72.75235748">
    <tag k="addr:housenumber" v="1022"/>
    <tag k="addr:street" v="Augur Hole Road"/>
    <tag k="addr:state" v="VT"/>
    <tag k="ref:vcgi:esiteid" v="152210"/>
  </node>
  <node id="-354" visible="true" lat="42.87353563" lon="-72.71415426">
    <tag k="addr:housenumber" v="54"/>
    <tag k="addr:street" v="Staver Road"/>
    <tag k="addr:state" v="VT"/>
    <tag k="ref:vcgi:esiteid" v="152211"/>
  </node>
  <node id="-355" visible="true" lat="42.87316497" lon="-72.77354277">
    <tag k="addr:housenumber" v="645"/>
    <tag k="addr:street" v="Hughes Road"/>
    <tag k="addr:state" v="VT"/>
    <tag k="ref:vcgi:esiteid" v="152212"/>
  </node>
  <node id="-356" visible="true" lat="42.87309664" lon="-72.75387909">
    <tag k="addr:housenumber" v="897"/>
    <tag k="addr:street" v="Augur Hole Road"/>
    <tag k="addr:state" v="VT"/>
    <tag k="ref:vcgi:esiteid" v="152213"/>
  </node>
  <node id="-357" visible="true" lat="42.87302191" lon="-72.75294348">
    <tag k="addr:housenumber" v="1016"/>
    <tag k="addr:street" v="Augur Hole Road"/>
    <tag k="addr:state" v="VT"/>
    <tag k="ref:vcgi:esiteid" v="152214"/>
  </node>
  <node id="-359" visible="true" lat="42.87270878" lon="-72.73162161">
    <tag k="addr:housenumber" v="251"/>
    <tag k="addr:street" v="Whitaker Farm Road"/>
    <tag k="addr:state" v="VT"/>
    <tag k="ref:vcgi:esiteid" v="152216"/>
  </node>
  <node id="-360" visible="true" lat="42.87247636" lon="-72.76135405">
    <tag k="addr:housenumber" v="300"/>
    <tag k="addr:street" v="Higley Hill Road"/>
    <tag k="addr:state" v="VT"/>
    <tag k="ref:vcgi:esiteid" v="152217"/>
  </node>
  <node id="-361" visible="true" lat="42.87233157" lon="-72.75398789">
    <tag k="addr:housenumber" v="910"/>
    <tag k="addr:street" v="Augur Hole Road"/>
    <tag k="addr:state" v="VT"/>
    <tag k="ref:vcgi:esiteid" v="152218"/>
  </node>
  <node id="-362" visible="true" lat="42.87221145" lon="-72.71331787">
    <tag k="addr:housenumber" v="2245"/>
    <tag k="addr:street" v="Vermont Route 9"/>
    <tag k="addr:state" v="VT"/>
    <tag k="ref:vcgi:esiteid" v="152219"/>
  </node>
  <node id="-363" visible="true" lat="42.87189865" lon="-72.76190914">
    <tag k="addr:housenumber" v="292"/>
    <tag k="addr:street" v="Higley Hill Road"/>
    <tag k="addr:state" v="VT"/>
    <tag k="ref:vcgi:esiteid" v="152220"/>
  </node>
  <node id="-364" visible="true" lat="42.87178407" lon="-72.69758978">
    <tag k="addr:housenumber" v="164"/>
    <tag k="addr:street" v="Neringa Road"/>
    <tag k="addr:state" v="VT"/>
    <tag k="ref:vcgi:esiteid" v="152221"/>
  </node>
  <node id="-365" visible="true" lat="42.87160872" lon="-72.69685864">
    <tag k="addr:housenumber" v="147"/>
    <tag k="addr:street" v="Neringa Road"/>
    <tag k="addr:state" v="VT"/>
    <tag k="ref:vcgi:esiteid" v="152222"/>
  </node>
  <node id="-366" visible="true" lat="42.8713609" lon="-72.69697464">
    <tag k="addr:housenumber" v="185"/>
    <tag k="addr:street" v="Neringa Road"/>
    <tag k="addr:state" v="VT"/>
    <tag k="ref:vcgi:esiteid" v="152223"/>
  </node>
  <node id="-367" visible="true" lat="42.87116135" lon="-72.75654725">
    <tag k="addr:housenumber" v="740"/>
    <tag k="addr:street" v="Augur Hole Road"/>
    <tag k="addr:state" v="VT"/>
    <tag k="ref:vcgi:esiteid" v="152225"/>
  </node>
  <node id="-369" visible="true" lat="42.87094906" lon="-72.72955576">
    <tag k="addr:housenumber" v="86"/>
    <tag k="addr:street" v="Whitaker Farm Road"/>
    <tag k="addr:state" v="VT"/>
    <tag k="ref:vcgi:esiteid" v="152227"/>
  </node>
  <node id="-370" visible="true" lat="42.87078032" lon="-72.73259131">
    <tag k="addr:housenumber" v="181"/>
    <tag k="addr:street" v="Whitaker Farm Road"/>
    <tag k="addr:state" v="VT"/>
    <tag k="ref:vcgi:esiteid" v="152228"/>
  </node>
  <node id="-375" visible="true" lat="42.8690206" lon="-72.77851517">
    <tag k="addr:housenumber" v="232"/>
    <tag k="addr:street" v="Stuart Lane"/>
    <tag k="addr:state" v="VT"/>
    <tag k="ref:vcgi:esiteid" v="152233"/>
  </node>
  <node id="-376" visible="true" lat="42.86910787" lon="-72.75991021">
    <tag k="addr:housenumber" v="561"/>
    <tag k="addr:street" v="Augur Hole Road"/>
    <tag k="addr:state" v="VT"/>
    <tag k="ref:vcgi:esiteid" v="152234"/>
  </node>
  <node id="-379" visible="true" lat="42.86813582" lon="-72.69301978">
    <tag k="addr:housenumber" v="768"/>
    <tag k="addr:street" v="Macarthur Road"/>
    <tag k="addr:state" v="VT"/>
    <tag k="ref:vcgi:esiteid" v="152237"/>
  </node>
  <node id="-387" visible="true" lat="42.86722815" lon="-72.69482358">
    <tag k="addr:housenumber" v="770"/>
    <tag k="addr:street" v="Macarthur Road"/>
    <tag k="addr:state" v="VT"/>
    <tag k="ref:vcgi:esiteid" v="152245"/>
  </node>
  <node id="-391" visible="true" lat="42.86694223" lon="-72.68972868">
    <tag k="addr:housenumber" v="33"/>
    <tag k="addr:street" v="Woods Road"/>
    <tag k="addr:state" v="VT"/>
    <tag k="ref:vcgi:esiteid" v="152249"/>
  </node>
  <node id="-393" visible="true" lat="42.86669144" lon="-72.68922929">
    <tag k="addr:housenumber" v="6"/>
    <tag k="addr:street" v="Woods Road"/>
    <tag k="addr:state" v="VT"/>
    <tag k="ref:vcgi:esiteid" v="152251"/>
  </node>
  <node id="-395" visible="true" lat="42.8658638" lon="-72.77765655">
    <tag k="addr:housenumber" v="63"/>
    <tag k="addr:street" v="Hughes Road"/>
    <tag k="addr:state" v="VT"/>
    <tag k="ref:vcgi:esiteid" v="152253"/>
  </node>
  <node id="-396" visible="true" lat="42.86475571" lon="-72.72356463">
    <tag k="addr:housenumber" v="134"/>
    <tag k="addr:street" v="South Road"/>
    <tag k="addr:state" v="VT"/>
    <tag k="ref:vcgi:esiteid" v="152254"/>
  </node>
  <node id="-397" visible="true" lat="42.86463546" lon="-72.75137329">
    <tag k="addr:housenumber" v="36"/>
    <tag k="addr:street" v="Augur Hole Road"/>
    <tag k="addr:state" v="VT"/>
    <tag k="ref:vcgi:esiteid" v="152255"/>
  </node>
  <node id="-398" visible="true" lat="42.86466216" lon="-72.7222824">
    <tag k="addr:housenumber" v="71"/>
    <tag k="addr:street" v="South Road"/>
    <tag k="addr:state" v="VT"/>
    <tag k="ref:vcgi:esiteid" v="152256"/>
  </node>
  <node id="-399" visible="true" lat="42.86452649" lon="-72.74434743">
    <tag k="addr:housenumber" v="4196"/>
    <tag k="addr:street" v="Vermont Route 9"/>
    <tag k="addr:state" v="VT"/>
    <tag k="ref:vcgi:esiteid" v="152257"/>
  </node>
  <node id="-400" visible="true" lat="42.86454391" lon="-72.74332427">
    <tag k="addr:housenumber" v="4156"/>
    <tag k="addr:street" v="Vermont Route 9"/>
    <tag k="addr:state" v="VT"/>
    <tag k="ref:vcgi:esiteid" v="152258"/>
  </node>
  <node id="-401" visible="true" lat="42.86447434" lon="-72.74412963">
    <tag k="addr:housenumber" v="4180"/>
    <tag k="addr:street" v="Vermont Route 9"/>
    <tag k="addr:state" v="VT"/>
    <tag k="ref:vcgi:esiteid" v="152259"/>
  </node>
  <node id="-404" visible="true" lat="42.86397948" lon="-72.7807044">
    <tag k="addr:housenumber" v="138"/>
    <tag k="addr:street" v="Butterfield Road"/>
    <tag k="addr:state" v="VT"/>
    <tag k="ref:vcgi:esiteid" v="152262"/>
  </node>
  <node id="-406" visible="true" lat="42.86392033" lon="-72.689564">
    <tag k="addr:housenumber" v="1112"/>
    <tag k="addr:street" v="Macarthur Road"/>
    <tag k="addr:state" v="VT"/>
    <tag k="ref:vcgi:esiteid" v="152264"/>
  </node>
  <node id="-408" visible="true" lat="42.86397544" lon="-72.68913078">
    <tag k="addr:housenumber" v="1111"/>
    <tag k="addr:street" v="Macarthur Road"/>
    <tag k="addr:state" v="VT"/>
    <tag k="ref:vcgi:esiteid" v="152266"/>
  </node>
  <node id="-410" visible="true" lat="42.86377849" lon="-72.68913633">
    <tag k="addr:housenumber" v="1115"/>
    <tag k="addr:street" v="Macarthur Road"/>
    <tag k="addr:state" v="VT"/>
    <tag k="ref:vcgi:esiteid" v="152268"/>
  </node>
  <node id="-411" visible="true" lat="42.86318391" lon="-72.73838046">
    <tag k="addr:housenumber" v="3849"/>
    <tag k="addr:street" v="Vermont Route 9"/>
    <tag k="addr:state" v="VT"/>
    <tag k="ref:vcgi:esiteid" v="152269"/>
  </node>
  <node id="-412" visible="true" lat="42.86330046" lon="-72.75078896">
    <tag k="addr:housenumber" v="4535"/>
    <tag k="addr:street" v="Vermont Route 9"/>
    <tag k="addr:state" v="VT"/>
    <tag k="ref:vcgi:esiteid" v="152270"/>
  </node>
  <node id="-414" visible="true" lat="42.86323147" lon="-72.73059674">
    <tag k="addr:housenumber" v="316"/>
    <tag k="addr:street" v="Town Hill Road"/>
    <tag k="addr:state" v="VT"/>
    <tag k="ref:vcgi:esiteid" v="152272"/>
  </node>
  <node id="-416" visible="true" lat="42.862844" lon="-72.73205977">
    <tag k="addr:housenumber" v="372"/>
    <tag k="addr:street" v="Town Hill Road"/>
    <tag k="addr:state" v="VT"/>
    <tag k="ref:vcgi:esiteid" v="152274"/>
  </node>
  <node id="-417" visible="true" lat="42.86203015" lon="-72.7347532">
    <tag k="addr:housenumber" v="544"/>
    <tag k="addr:street" v="Town Hill Road"/>
    <tag k="addr:state" v="VT"/>
    <tag k="ref:vcgi:esiteid" v="152275"/>
  </node>
  <node id="-418" visible="true" lat="42.86217218" lon="-72.73402001">
    <tag k="addr:housenumber" v="494"/>
    <tag k="addr:street" v="Town Hill Road"/>
    <tag k="addr:state" v="VT"/>
    <tag k="ref:vcgi:esiteid" v="152276"/>
  </node>
  <node id="-419" visible="true" lat="42.86199364" lon="-72.73618688">
    <tag k="addr:housenumber" v="608"/>
    <tag k="addr:street" v="Town Hill Road"/>
    <tag k="addr:state" v="VT"/>
    <tag k="ref:vcgi:esiteid" v="152277"/>
  </node>
  <node id="-420" visible="true" lat="42.86183166" lon="-72.72585296">
    <tag k="addr:housenumber" v="364"/>
    <tag k="addr:street" v="South Road"/>
    <tag k="addr:state" v="VT"/>
    <tag k="ref:vcgi:esiteid" v="152278"/>
  </node>
  <node id="-423" visible="true" lat="42.86124448" lon="-72.72865076">
    <tag k="addr:housenumber" v="6"/>
    <tag k="addr:street" v="Lyman Hill Road"/>
    <tag k="addr:state" v="VT"/>
    <tag k="ref:vcgi:esiteid" v="152281"/>
  </node>
  <node id="-424" visible="true" lat="42.86122812" lon="-72.72533446">
    <tag k="addr:housenumber" v="399"/>
    <tag k="addr:street" v="South Road"/>
    <tag k="addr:state" v="VT"/>
    <tag k="ref:vcgi:esiteid" v="152282"/>
  </node>
  <node id="-425" visible="true" lat="42.86082972" lon="-72.68895609">
    <tag k="addr:housenumber" v="1000"/>
    <tag k="addr:street" v="Stark Road"/>
    <tag k="addr:state" v="VT"/>
    <tag k="ref:vcgi:esiteid" v="152283"/>
  </node>
  <node id="-426" visible="true" lat="42.86082659" lon="-72.72595458">
    <tag k="addr:housenumber" v="432"/>
    <tag k="addr:street" v="South Road"/>
    <tag k="addr:state" v="VT"/>
    <tag k="ref:vcgi:esiteid" v="152284"/>
  </node>
  <node id="-427" visible="true" lat="42.86056347" lon="-72.72598385">
    <tag k="addr:housenumber" v="448"/>
    <tag k="addr:street" v="South Road"/>
    <tag k="addr:state" v="VT"/>
    <tag k="ref:vcgi:esiteid" v="152285"/>
  </node>
  <node id="-429" visible="true" lat="42.86058229" lon="-72.72661694">
    <tag k="addr:housenumber" v="56"/>
    <tag k="addr:street" v="Town Hill Road"/>
    <tag k="addr:state" v="VT"/>
    <tag k="ref:vcgi:esiteid" v="152287"/>
  </node>
  <node id="-430" visible="true" lat="42.86040878" lon="-72.78144836">
    <tag k="addr:housenumber" v="370"/>
    <tag k="addr:street" v="Butterfield Road"/>
    <tag k="addr:state" v="VT"/>
    <tag k="ref:vcgi:esiteid" v="152288"/>
  </node>
  <node id="-431" visible="true" lat="42.86042598" lon="-72.72568724">
    <tag k="addr:housenumber" v="461"/>
    <tag k="addr:street" v="South Road"/>
    <tag k="addr:state" v="VT"/>
    <tag k="ref:vcgi:esiteid" v="152289"/>
  </node>
  <node id="-432" visible="true" lat="42.86034049" lon="-72.72614997">
    <tag k="addr:housenumber" v="466"/>
    <tag k="addr:street" v="South Road"/>
    <tag k="addr:state" v="VT"/>
    <tag k="ref:vcgi:esiteid" v="152290"/>
  </node>
  <node id="-433" visible="true" lat="42.8617985" lon="-72.72081103">
    <tag k="addr:housenumber" v="2604"/>
    <tag k="addr:street" v="Ames Hill Road"/>
    <tag k="addr:state" v="VT"/>
    <tag k="ref:vcgi:esiteid" v="152291"/>
  </node>
  <node id="-437" visible="true" lat="42.86017236" lon="-72.7821119">
    <tag k="addr:housenumber" v="392"/>
    <tag k="addr:street" v="Butterfield Road"/>
    <tag k="addr:state" v="VT"/>
    <tag k="ref:vcgi:esiteid" v="152295"/>
  </node>
  <node id="-439" visible="true" lat="42.86009216" lon="-72.71772003">
    <tag k="addr:housenumber" v="2543"/>
    <tag k="addr:street" v="Ames Hill Road"/>
    <tag k="addr:state" v="VT"/>
    <tag k="ref:vcgi:esiteid" v="152297"/>
  </node>
  <node id="-440" visible="true" lat="42.86002691" lon="-72.7164613">
    <tag k="addr:housenumber" v="2511"/>
    <tag k="addr:street" v="Ames Hill Road"/>
    <tag k="addr:state" v="VT"/>
    <tag k="ref:vcgi:esiteid" v="152298"/>
  </node>
  <node id="-441" visible="true" lat="42.85996334" lon="-72.71837494">
    <tag k="addr:housenumber" v="2557"/>
    <tag k="addr:street" v="Ames Hill Road"/>
    <tag k="addr:state" v="VT"/>
    <tag k="ref:vcgi:esiteid" v="152299"/>
  </node>
  <node id="-442" visible="true" lat="42.86005401" lon="-72.71191406">
    <tag k="addr:housenumber" v="2396"/>
    <tag k="addr:street" v="Ames Hill Road"/>
    <tag k="addr:state" v="VT"/>
    <tag k="ref:vcgi:esiteid" v="152300"/>
  </node>
  <node id="-443" visible="true" lat="42.86027085" lon="-72.68923327">
    <tag k="addr:housenumber" v="1013"/>
    <tag k="addr:street" v="Stark Road"/>
    <tag k="addr:state" v="VT"/>
    <tag k="ref:vcgi:esiteid" v="152301"/>
  </node>
  <node id="-444" visible="true" lat="42.85980606" lon="-72.72619628">
    <tag k="addr:housenumber" v="13"/>
    <tag k="addr:street" v="Town Hill Road"/>
    <tag k="addr:state" v="VT"/>
    <tag k="ref:vcgi:esiteid" v="152302"/>
  </node>
  <node id="-446" visible="true" lat="42.85963419" lon="-72.72782073">
    <tag k="addr:housenumber" v="133"/>
    <tag k="addr:street" v="Lyman Hill Road"/>
    <tag k="addr:state" v="VT"/>
    <tag k="ref:vcgi:esiteid" v="152304"/>
  </node>
  <node id="-447" visible="true" lat="42.85958325" lon="-72.72614661">
    <tag k="addr:housenumber" v="510"/>
    <tag k="addr:street" v="South Road"/>
    <tag k="addr:state" v="VT"/>
    <tag k="ref:vcgi:esiteid" v="152305"/>
  </node>
  <node id="-448" visible="true" lat="42.85968281" lon="-72.69267721">
    <tag k="addr:housenumber" v="90"/>
    <tag k="addr:street" v="Turnpike Road"/>
    <tag k="addr:state" v="VT"/>
    <tag k="ref:vcgi:esiteid" v="152306"/>
  </node>
  <node id="-449" visible="true" lat="42.85952758" lon="-72.69293975">
    <tag k="addr:housenumber" v="88"/>
    <tag k="addr:street" v="Turnpike Road"/>
    <tag k="addr:state" v="VT"/>
    <tag k="ref:vcgi:esiteid" v="152307"/>
  </node>
  <node id="-450" visible="true" lat="42.85936775" lon="-72.7258437">
    <tag k="addr:housenumber" v="524"/>
    <tag k="addr:street" v="South Road"/>
    <tag k="addr:state" v="VT"/>
    <tag k="ref:vcgi:esiteid" v="152308"/>
  </node>
  <node id="-452" visible="true" lat="42.85923968" lon="-72.73102988">
    <tag k="addr:housenumber" v="303"/>
    <tag k="addr:street" v="Lyman Hill Road"/>
    <tag k="addr:state" v="VT"/>
    <tag k="ref:vcgi:esiteid" v="152310"/>
  </node>
  <node id="-454" visible="true" lat="42.85918045" lon="-72.72535705">
    <tag k="addr:housenumber" v="550"/>
    <tag k="addr:street" v="South Road"/>
    <tag k="addr:state" v="VT"/>
    <tag k="ref:vcgi:esiteid" v="152312"/>
  </node>
  <node id="-456" visible="true" lat="42.85883331" lon="-72.72438812">
    <tag k="addr:housenumber" v="595"/>
    <tag k="addr:street" v="South Road"/>
    <tag k="addr:state" v="VT"/>
    <tag k="ref:vcgi:esiteid" v="152314"/>
  </node>
  <node id="-458" visible="true" lat="42.85843943" lon="-72.71328143">
    <tag k="addr:housenumber" v="2421"/>
    <tag k="addr:street" v="Ames Hill Road"/>
    <tag k="addr:state" v="VT"/>
    <tag k="ref:vcgi:esiteid" v="152316"/>
  </node>
  <node id="-459" visible="true" lat="42.85774715" lon="-72.78097259">
    <tag k="addr:housenumber" v="564"/>
    <tag k="addr:street" v="Butterfield Road"/>
    <tag k="addr:state" v="VT"/>
    <tag k="ref:vcgi:esiteid" v="152317"/>
  </node>
  <node id="-460" visible="true" lat="42.85757446" lon="-72.78272247">
    <tag k="addr:housenumber" v="697"/>
    <tag k="addr:street" v="Adams Crossroad"/>
    <tag k="addr:state" v="VT"/>
    <tag k="ref:vcgi:esiteid" v="152318"/>
  </node>
  <node id="-461" visible="true" lat="42.85760375" lon="-72.71041877">
    <tag k="addr:housenumber" v="2351"/>
    <tag k="addr:street" v="Ames Hill Road"/>
    <tag k="addr:state" v="VT"/>
    <tag k="ref:vcgi:esiteid" v="152319"/>
  </node>
  <node id="-462" visible="true" lat="42.85784143" lon="-72.68784836">
    <tag k="addr:housenumber" v="227"/>
    <tag k="addr:street" v="Fox Road"/>
    <tag k="addr:state" v="VT"/>
    <tag k="ref:vcgi:esiteid" v="152320"/>
  </node>
  <node id="-463" visible="true" lat="42.85728231" lon="-72.72590322">
    <tag k="addr:housenumber" v="730"/>
    <tag k="addr:street" v="South Road"/>
    <tag k="addr:state" v="VT"/>
    <tag k="ref:vcgi:esiteid" v="152321"/>
  </node>
  <node id="-464" visible="true" lat="42.85709762" lon="-72.78005218">
    <tag k="addr:housenumber" v="615"/>
    <tag k="addr:street" v="Butterfield Road"/>
    <tag k="addr:state" v="VT"/>
    <tag k="ref:vcgi:esiteid" v="152322"/>
  </node>
  <node id="-466" visible="true" lat="42.85645896" lon="-72.68717891">
    <tag k="addr:housenumber" v="139"/>
    <tag k="addr:street" v="Fox Road"/>
    <tag k="addr:state" v="VT"/>
    <tag k="ref:vcgi:esiteid" v="152324"/>
  </node>
  <node id="-468" visible="true" lat="42.8559091" lon="-72.70608899">
    <tag k="addr:housenumber" v="2197"/>
    <tag k="addr:street" v="Ames Hill Road"/>
    <tag k="addr:state" v="VT"/>
    <tag k="ref:vcgi:esiteid" v="152326"/>
  </node>
  <node id="-470" visible="true" lat="42.85528564" lon="-72.7271347">
    <tag k="addr:housenumber" v="162"/>
    <tag k="addr:street" v="Fern Hill Road"/>
    <tag k="addr:state" v="VT"/>
    <tag k="ref:vcgi:esiteid" v="152328"/>
  </node>
  <node id="-474" visible="true" lat="42.85491201" lon="-72.70296759">
    <tag k="addr:housenumber" v="2114"/>
    <tag k="addr:street" v="Ames Hill Road"/>
    <tag k="addr:state" v="VT"/>
    <tag k="ref:vcgi:esiteid" v="152332"/>
  </node>
  <node id="-475" visible="true" lat="42.85501276" lon="-72.68741251">
    <tag k="addr:housenumber" v="1706"/>
    <tag k="addr:street" v="Ames Hill Road"/>
    <tag k="addr:state" v="VT"/>
    <tag k="ref:vcgi:esiteid" v="152333"/>
  </node>
  <node id="-476" visible="true" lat="42.85498692" lon="-72.72431349">
    <tag k="addr:housenumber" v="869"/>
    <tag k="addr:street" v="South Road"/>
    <tag k="addr:state" v="VT"/>
    <tag k="ref:vcgi:esiteid" v="152334"/>
  </node>
  <node id="-477" visible="true" lat="42.85481643" lon="-72.72989654">
    <tag k="addr:housenumber" v="163"/>
    <tag k="addr:street" v="Fern Hill Road"/>
    <tag k="addr:state" v="VT"/>
    <tag k="ref:vcgi:esiteid" v="152335"/>
  </node>
  <node id="-478" visible="true" lat="42.85475923" lon="-72.68082392">
    <tag k="addr:housenumber" v="1576"/>
    <tag k="addr:street" v="Ames Hill Road"/>
    <tag k="addr:state" v="VT"/>
    <tag k="ref:vcgi:esiteid" v="152336"/>
  </node>
  <node id="-479" visible="true" lat="42.8544613" lon="-72.79871536">
    <tag k="addr:housenumber" v="7931"/>
    <tag k="addr:street" v="Vermont Route 9"/>
    <tag k="addr:state" v="VT"/>
    <tag k="ref:vcgi:esiteid" v="152337"/>
  </node>
  <node id="-480" visible="true" lat="42.8546257" lon="-72.72808837">
    <tag k="addr:housenumber" v="161"/>
    <tag k="addr:street" v="Fern Hill Road"/>
    <tag k="addr:state" v="VT"/>
    <tag k="ref:vcgi:esiteid" v="152338"/>
  </node>
  <node id="-481" visible="true" lat="42.8546098" lon="-72.72440805">
    <tag k="addr:housenumber" v="893"/>
    <tag k="addr:street" v="South Road"/>
    <tag k="addr:state" v="VT"/>
    <tag k="ref:vcgi:esiteid" v="152340"/>
  </node>
  <node id="-482" visible="true" lat="42.85458265" lon="-72.69315193">
    <tag k="addr:housenumber" v="1854"/>
    <tag k="addr:street" v="Ames Hill Road"/>
    <tag k="addr:state" v="VT"/>
    <tag k="ref:vcgi:esiteid" v="152341"/>
  </node>
  <node id="-483" visible="true" lat="42.85428334" lon="-72.77300614">
    <tag k="addr:housenumber" v="244"/>
    <tag k="addr:street" v="Pool Farm Road"/>
    <tag k="addr:state" v="VT"/>
    <tag k="ref:vcgi:esiteid" v="152343"/>
  </node>
  <node id="-485" visible="true" lat="42.8542231" lon="-72.6854768">
    <tag k="addr:housenumber" v="1655"/>
    <tag k="addr:street" v="Ames Hill Road"/>
    <tag k="addr:state" v="VT"/>
    <tag k="ref:vcgi:esiteid" v="152346"/>
  </node>
  <node id="-486" visible="true" lat="42.85387062" lon="-72.68729416">
    <tag k="addr:housenumber" v="1731"/>
    <tag k="addr:street" v="Ames Hill Road"/>
    <tag k="addr:state" v="VT"/>
    <tag k="ref:vcgi:esiteid" v="152347"/>
  </node>
  <node id="-487" visible="true" lat="42.85398016" lon="-72.7018395">
    <tag k="addr:housenumber" v="2079"/>
    <tag k="addr:street" v="Ames Hill Road"/>
    <tag k="addr:state" v="VT"/>
    <tag k="ref:vcgi:esiteid" v="152348"/>
  </node>
  <node id="-488" visible="true" lat="42.85368849" lon="-72.79790509">
    <tag k="addr:housenumber" v="7867"/>
    <tag k="addr:street" v="Vermont Route 9"/>
    <tag k="addr:state" v="VT"/>
    <tag k="ref:vcgi:esiteid" v="152349"/>
  </node>
  <node id="-489" visible="true" lat="42.85383224" lon="-72.69129943">
    <tag k="addr:housenumber" v="1801"/>
    <tag k="addr:street" v="Ames Hill Road"/>
    <tag k="addr:state" v="VT"/>
    <tag k="ref:vcgi:esiteid" v="152350"/>
  </node>
  <node id="-490" visible="true" lat="42.85372924" lon="-72.72538757">
    <tag k="addr:housenumber" v="952"/>
    <tag k="addr:street" v="South Road"/>
    <tag k="addr:state" v="VT"/>
    <tag k="ref:vcgi:esiteid" v="152351"/>
  </node>
  <node id="-493" visible="true" lat="42.8533287" lon="-72.72462463">
    <tag k="addr:housenumber" v="979"/>
    <tag k="addr:street" v="South Road"/>
    <tag k="addr:state" v="VT"/>
    <tag k="ref:vcgi:esiteid" v="152354"/>
  </node>
  <node id="-495" visible="true" lat="42.85318185" lon="-72.68122561">
    <tag k="addr:housenumber" v="1538"/>
    <tag k="addr:street" v="Ames Hill Road"/>
    <tag k="addr:state" v="VT"/>
    <tag k="ref:vcgi:esiteid" v="152356"/>
  </node>
  <node id="-499" visible="true" lat="42.85266798" lon="-72.68223569">
    <tag k="addr:housenumber" v="1563"/>
    <tag k="addr:street" v="Ames Hill Road"/>
    <tag k="addr:state" v="VT"/>
    <tag k="ref:vcgi:esiteid" v="152360"/>
  </node>
  <node id="-500" visible="true" lat="42.85266967" lon="-72.7255897">
    <tag k="addr:housenumber" v="1032"/>
    <tag k="addr:street" v="South Road"/>
    <tag k="addr:state" v="VT"/>
    <tag k="ref:vcgi:esiteid" v="152361"/>
  </node>
  <node id="-501" visible="true" lat="42.85247321" lon="-72.72755229">
    <tag k="addr:housenumber" v="168"/>
    <tag k="addr:street" v="Palmetto Drive"/>
    <tag k="addr:state" v="VT"/>
    <tag k="ref:vcgi:esiteid" v="152362"/>
  </node>
  <node id="-502" visible="true" lat="42.85226058" lon="-72.72402953">
    <tag k="addr:housenumber" v="1051"/>
    <tag k="addr:street" v="South Road"/>
    <tag k="addr:state" v="VT"/>
    <tag k="ref:vcgi:esiteid" v="152363"/>
  </node>
  <node id="-503" visible="true" lat="42.85218048" lon="-72.68010711">
    <tag k="addr:housenumber" v="1531"/>
    <tag k="addr:street" v="Ames Hill Road"/>
    <tag k="addr:state" v="VT"/>
    <tag k="ref:vcgi:esiteid" v="152364"/>
  </node>
  <node id="-504" visible="true" lat="42.85193252" lon="-72.68195342">
    <tag k="addr:housenumber" v="70"/>
    <tag k="addr:street" v="Upper Houghton Road"/>
    <tag k="addr:state" v="VT"/>
    <tag k="ref:vcgi:esiteid" v="152365"/>
  </node>
  <node id="-505" visible="true" lat="42.85153198" lon="-72.72462463">
    <tag k="addr:housenumber" v="1103"/>
    <tag k="addr:street" v="South Road"/>
    <tag k="addr:state" v="VT"/>
    <tag k="ref:vcgi:esiteid" v="152366"/>
  </node>
  <node id="-506" visible="true" lat="42.85152435" lon="-72.72544097">
    <tag k="addr:housenumber" v="28"/>
    <tag k="addr:street" v="Palmetto Drive"/>
    <tag k="addr:state" v="VT"/>
    <tag k="ref:vcgi:esiteid" v="152367"/>
  </node>
  <node id="-507" visible="true" lat="42.8512127" lon="-72.72788685">
    <tag k="addr:housenumber" v="123"/>
    <tag k="addr:street" v="Palmetto Drive"/>
    <tag k="addr:state" v="VT"/>
    <tag k="ref:vcgi:esiteid" v="152368"/>
  </node>
  <node id="-510" visible="true" lat="42.85056686" lon="-72.68240356">
    <tag k="addr:housenumber" v="167"/>
    <tag k="addr:street" v="Upper Houghton Road"/>
    <tag k="addr:state" v="VT"/>
    <tag k="ref:vcgi:esiteid" v="152371"/>
  </node>
  <node id="-512" visible="true" lat="42.85011701" lon="-72.68624165">
    <tag k="addr:housenumber" v="314"/>
    <tag k="addr:street" v="Upper Houghton Road"/>
    <tag k="addr:state" v="VT"/>
    <tag k="ref:vcgi:esiteid" v="152373"/>
  </node>
  <node id="-513" visible="true" lat="42.84923558" lon="-72.72550585">
    <tag k="addr:housenumber" v="1274"/>
    <tag k="addr:street" v="South Road"/>
    <tag k="addr:state" v="VT"/>
    <tag k="ref:vcgi:esiteid" v="152374"/>
  </node>
  <node id="-514" visible="true" lat="42.84914907" lon="-72.72307445">
    <tag k="addr:housenumber" v="1293"/>
    <tag k="addr:street" v="South Road"/>
    <tag k="addr:state" v="VT"/>
    <tag k="ref:vcgi:esiteid" v="152375"/>
  </node>
  <node id="-516" visible="true" lat="42.84706868" lon="-72.72637736">
    <tag k="addr:housenumber" v="1412"/>
    <tag k="addr:street" v="South Road"/>
    <tag k="addr:state" v="VT"/>
    <tag k="ref:vcgi:esiteid" v="152377"/>
  </node>
  <node id="-518" visible="true" lat="42.84688949" lon="-72.72452545">
    <tag k="addr:housenumber" v="1443"/>
    <tag k="addr:street" v="South Road"/>
    <tag k="addr:state" v="VT"/>
    <tag k="ref:vcgi:esiteid" v="152379"/>
  </node>
  <node id="-519" visible="true" lat="42.84654523" lon="-72.6907463">
    <tag k="addr:housenumber" v="777"/>
    <tag k="addr:street" v="Cowpath 40"/>
    <tag k="addr:state" v="VT"/>
    <tag k="ref:vcgi:esiteid" v="152381"/>
  </node>
  <node id="-521" visible="true" lat="42.84581" lon="-72.6889155">
    <tag k="addr:housenumber" v="144"/>
    <tag k="addr:street" v="Lower Houghton Road"/>
    <tag k="addr:state" v="VT"/>
    <tag k="ref:vcgi:esiteid" v="152383"/>
  </node>
  <node id="-523" visible="true" lat="42.84538054" lon="-72.72358795">
    <tag k="addr:housenumber" v="1565"/>
    <tag k="addr:street" v="South Road"/>
    <tag k="addr:state" v="VT"/>
    <tag k="ref:vcgi:esiteid" v="152385"/>
  </node>
  <node id="-524" visible="true" lat="42.84483379" lon="-72.69051453">
    <tag k="addr:housenumber" v="18"/>
    <tag k="addr:street" v="Lower Houghton Road"/>
    <tag k="addr:state" v="VT"/>
    <tag k="ref:vcgi:esiteid" v="152386"/>
  </node>
  <node id="-526" visible="true" lat="42.84460572" lon="-72.72445519">
    <tag k="addr:housenumber" v="1598"/>
    <tag k="addr:street" v="South Road"/>
    <tag k="addr:state" v="VT"/>
    <tag k="ref:vcgi:esiteid" v="152388"/>
  </node>
  <node id="-527" visible="true" lat="42.84459794" lon="-72.69154081">
    <tag k="addr:housenumber" v="858"/>
    <tag k="addr:street" v="Cowpath 40"/>
    <tag k="addr:state" v="VT"/>
    <tag k="ref:vcgi:esiteid" v="152389"/>
  </node>
  <node id="-528" visible="true" lat="42.84420013" lon="-72.69075012">
    <tag k="addr:housenumber" v="869"/>
    <tag k="addr:street" v="Cowpath 40"/>
    <tag k="addr:state" v="VT"/>
    <tag k="ref:vcgi:esiteid" v="152390"/>
  </node>
  <node id="-529" visible="true" lat="42.84404754" lon="-72.72312927">
    <tag k="addr:housenumber" v="1647"/>
    <tag k="addr:street" v="South Road"/>
    <tag k="addr:state" v="VT"/>
    <tag k="ref:vcgi:esiteid" v="152391"/>
  </node>
  <node id="-530" visible="true" lat="42.84364667" lon="-72.72385874">
    <tag k="addr:housenumber" v="1652"/>
    <tag k="addr:street" v="South Road"/>
    <tag k="addr:state" v="VT"/>
    <tag k="ref:vcgi:esiteid" v="152392"/>
  </node>
  <node id="-531" visible="true" lat="42.84325027" lon="-72.72373962">
    <tag k="addr:housenumber" v="1702"/>
    <tag k="addr:street" v="South Road"/>
    <tag k="addr:state" v="VT"/>
    <tag k="ref:vcgi:esiteid" v="152394"/>
  </node>
  <node id="-533" visible="true" lat="42.84423983" lon="-72.68799397">
    <tag k="addr:housenumber" v="961"/>
    <tag k="addr:street" v="Cowpath 40"/>
    <tag k="addr:state" v="VT"/>
    <tag k="ref:vcgi:esiteid" v="152396"/>
  </node>
  <node id="-537" visible="true" lat="42.84209448" lon="-72.72415395">
    <tag k="addr:housenumber" v="1772"/>
    <tag k="addr:street" v="South Road"/>
    <tag k="addr:state" v="VT"/>
    <tag k="ref:vcgi:esiteid" v="152400"/>
  </node>
  <node id="-540" visible="true" lat="42.84185901" lon="-72.72318492">
    <tag k="addr:housenumber" v="1799"/>
    <tag k="addr:street" v="South Road"/>
    <tag k="addr:state" v="VT"/>
    <tag k="ref:vcgi:esiteid" v="152403"/>
  </node>
  <node id="-544" visible="true" lat="42.84120953" lon="-72.72445993">
    <tag k="addr:housenumber" v="1836"/>
    <tag k="addr:street" v="South Road"/>
    <tag k="addr:state" v="VT"/>
    <tag k="ref:vcgi:esiteid" v="152407"/>
  </node>
  <node id="-547" visible="true" lat="42.84046936" lon="-72.7255783">
    <tag k="addr:housenumber" v="2070"/>
    <tag k="addr:street" v="South Road"/>
    <tag k="addr:state" v="VT"/>
    <tag k="ref:vcgi:esiteid" v="152410"/>
  </node>
  <node id="-555" visible="true" lat="42.83994674" lon="-72.72412109">
    <tag k="addr:housenumber" v="1930"/>
    <tag k="addr:street" v="South Road"/>
    <tag k="addr:state" v="VT"/>
    <tag k="ref:vcgi:esiteid" v="152418"/>
  </node>
  <node id="-572" visible="true" lat="42.83870509" lon="-72.73506277">
    <tag k="addr:housenumber" v="2600"/>
    <tag k="addr:street" v="South Road"/>
    <tag k="addr:state" v="VT"/>
    <tag k="ref:vcgi:esiteid" v="152435"/>
  </node>
  <node id="-576" visible="true" lat="42.83866257" lon="-72.73237345">
    <tag k="addr:housenumber" v="2472"/>
    <tag k="addr:street" v="South Road"/>
    <tag k="addr:state" v="VT"/>
    <tag k="ref:vcgi:esiteid" v="152439"/>
  </node>
  <node id="-581" visible="true" lat="42.83838493" lon="-72.72263896">
    <tag k="addr:housenumber" v="87"/>
    <tag k="addr:street" v="Lucier Road"/>
    <tag k="addr:state" v="VT"/>
    <tag k="ref:vcgi:esiteid" v="152444"/>
  </node>
  <node id="-582" visible="true" lat="42.83834273" lon="-72.72628478">
    <tag k="addr:housenumber" v="2134"/>
    <tag k="addr:street" v="South Road"/>
    <tag k="addr:state" v="VT"/>
    <tag k="ref:vcgi:esiteid" v="152445"/>
  </node>
  <node id="-585" visible="true" lat="42.83809856" lon="-72.74296896">
    <tag k="addr:housenumber" v="630"/>
    <tag k="addr:street" v="Moss Hollow Road"/>
    <tag k="addr:state" v="VT"/>
    <tag k="ref:vcgi:esiteid" v="152448"/>
  </node>
  <node id="-586" visible="true" lat="42.83800125" lon="-72.74184417">
    <tag k="addr:housenumber" v="611"/>
    <tag k="addr:street" v="Moss Hollow Road"/>
    <tag k="addr:state" v="VT"/>
    <tag k="ref:vcgi:esiteid" v="152449"/>
  </node>
  <node id="-589" visible="true" lat="42.83751678" lon="-72.72124481">
    <tag k="addr:housenumber" v="133"/>
    <tag k="addr:street" v="Lucier Road"/>
    <tag k="addr:state" v="VT"/>
    <tag k="ref:vcgi:esiteid" v="152452"/>
  </node>
  <node id="-593" visible="true" lat="42.83703994" lon="-72.7434616">
    <tag k="addr:housenumber" v="728"/>
    <tag k="addr:street" v="Moss Hollow Road"/>
    <tag k="addr:state" v="VT"/>
    <tag k="ref:vcgi:esiteid" v="152456"/>
  </node>
  <node id="-596" visible="true" lat="42.83650231" lon="-72.72157658">
    <tag k="addr:housenumber" v="223"/>
    <tag k="addr:street" v="Lucier Road"/>
    <tag k="addr:state" v="VT"/>
    <tag k="ref:vcgi:esiteid" v="152459"/>
  </node>
  <node id="-599" visible="true" lat="42.83471075" lon="-72.69006966">
    <tag k="addr:housenumber" v="1526"/>
    <tag k="addr:street" v="Cowpath 40"/>
    <tag k="addr:state" v="VT"/>
    <tag k="ref:vcgi:esiteid" v="152465"/>
  </node>
  <node id="-600" visible="true" lat="42.83470916" lon="-72.68406677">
    <tag k="addr:housenumber" v="722"/>
    <tag k="addr:street" v="Barrows Road"/>
    <tag k="addr:state" v="VT"/>
    <tag k="ref:vcgi:esiteid" v="152466"/>
  </node>
  <node id="-601" visible="true" lat="42.83443809" lon="-72.7434733">
    <tag k="addr:housenumber" v="882"/>
    <tag k="addr:street" v="Moss Hollow Road"/>
    <tag k="addr:state" v="VT"/>
    <tag k="ref:vcgi:esiteid" v="152467"/>
  </node>
  <node id="-602" visible="true" lat="42.82910878" lon="-72.69064357">
    <tag k="addr:housenumber" v="1954"/>
    <tag k="addr:street" v="Cowpath 40"/>
    <tag k="addr:state" v="VT"/>
    <tag k="ref:vcgi:esiteid" v="152468"/>
  </node>
  <node id="-603" visible="true" lat="42.83378901" lon="-72.72098546">
    <tag k="addr:housenumber" v="410"/>
    <tag k="addr:street" v="Lucier Road"/>
    <tag k="addr:state" v="VT"/>
    <tag k="ref:vcgi:esiteid" v="152469"/>
  </node>
  <node id="-605" visible="true" lat="42.83295431" lon="-72.71540364">
    <tag k="addr:housenumber" v="203"/>
    <tag k="addr:street" v="Judd Road"/>
    <tag k="addr:state" v="VT"/>
    <tag k="ref:vcgi:esiteid" v="152471"/>
  </node>
  <node id="-607" visible="true" lat="42.83328645" lon="-72.71929952">
    <tag k="addr:housenumber" v="477"/>
    <tag k="addr:street" v="Lucier Road"/>
    <tag k="addr:state" v="VT"/>
    <tag k="ref:vcgi:esiteid" v="152473"/>
  </node>
  <node id="-608" visible="true" lat="42.8330841" lon="-72.74192047">
    <tag k="addr:housenumber" v="1041"/>
    <tag k="addr:street" v="Moss Hollow Road"/>
    <tag k="addr:state" v="VT"/>
    <tag k="ref:vcgi:esiteid" v="152474"/>
  </node>
  <node id="-609" visible="true" lat="42.83306121" lon="-72.74354553">
    <tag k="addr:housenumber" v="944"/>
    <tag k="addr:street" v="Moss Hollow Road"/>
    <tag k="addr:state" v="VT"/>
    <tag k="ref:vcgi:esiteid" v="152475"/>
  </node>
  <node id="-610" visible="true" lat="42.8328247" lon="-72.71649169">
    <tag k="addr:housenumber" v="137"/>
    <tag k="addr:street" v="Judd Road"/>
    <tag k="addr:state" v="VT"/>
    <tag k="ref:vcgi:esiteid" v="152476"/>
  </node>
  <node id="-611" visible="true" lat="42.83173651" lon="-72.71938104">
    <tag k="addr:housenumber" v="582"/>
    <tag k="addr:street" v="Lucier Road"/>
    <tag k="addr:state" v="VT"/>
    <tag k="ref:vcgi:esiteid" v="152477"/>
  </node>
  <node id="-612" visible="true" lat="42.83132693" lon="-72.74309022">
    <tag k="addr:housenumber" v="1076"/>
    <tag k="addr:street" v="Moss Hollow Road"/>
    <tag k="addr:state" v="VT"/>
    <tag k="ref:vcgi:esiteid" v="152478"/>
  </node>
  <node id="-614" visible="true" lat="42.83017204" lon="-72.71840839">
    <tag k="addr:housenumber" v="696"/>
    <tag k="addr:street" v="Lucier Road"/>
    <tag k="addr:state" v="VT"/>
    <tag k="ref:vcgi:esiteid" v="152480"/>
  </node>
  <node id="-615" visible="true" lat="42.83035521" lon="-72.74317654">
    <tag k="addr:housenumber" v="1160"/>
    <tag k="addr:street" v="Moss Hollow Road"/>
    <tag k="addr:state" v="VT"/>
    <tag k="ref:vcgi:esiteid" v="152481"/>
  </node>
  <node id="-616" visible="true" lat="42.82969579" lon="-72.71874152">
    <tag k="addr:housenumber" v="732"/>
    <tag k="addr:street" v="Lucier Road"/>
    <tag k="addr:state" v="VT"/>
    <tag k="ref:vcgi:esiteid" v="152482"/>
  </node>
  <node id="-618" visible="true" lat="42.82865295" lon="-72.74277265">
    <tag k="addr:housenumber" v="1298"/>
    <tag k="addr:street" v="Moss Hollow Road"/>
    <tag k="addr:state" v="VT"/>
    <tag k="ref:vcgi:esiteid" v="152484"/>
  </node>
  <node id="-619" visible="true" lat="42.82837524" lon="-72.7155878">
    <tag k="addr:housenumber" v="789"/>
    <tag k="addr:street" v="Lucier Road"/>
    <tag k="addr:state" v="VT"/>
    <tag k="ref:vcgi:esiteid" v="152485"/>
  </node>
  <node id="-620" visible="true" lat="42.82822038" lon="-72.74121779">
    <tag k="addr:housenumber" v="1275"/>
    <tag k="addr:street" v="Moss Hollow Road"/>
    <tag k="addr:state" v="VT"/>
    <tag k="ref:vcgi:esiteid" v="152486"/>
  </node>
  <node id="-621" visible="true" lat="42.8281153" lon="-72.72084056">
    <tag k="addr:housenumber" v="89"/>
    <tag k="addr:street" v="Fisher Cat Lane"/>
    <tag k="addr:state" v="VT"/>
    <tag k="ref:vcgi:esiteid" v="152487"/>
  </node>
  <node id="-622" visible="true" lat="42.85782623" lon="-72.70018768">
    <tag k="addr:housenumber" v="337"/>
    <tag k="addr:street" v="Old Turnpike Road"/>
    <tag k="addr:state" v="VT"/>
    <tag k="ref:vcgi:esiteid" v="152488"/>
  </node>
  <node id="-623" visible="true" lat="42.8568651" lon="-72.70039885">
    <tag k="addr:housenumber" v="333"/>
    <tag k="addr:street" v="Old Turnpike Road"/>
    <tag k="addr:state" v="VT"/>
    <tag k="ref:vcgi:esiteid" v="152489"/>
  </node>
  <node id="-624" visible="true" lat="42.83849686" lon="-72.74344739">
    <tag k="addr:housenumber" v="628"/>
    <tag k="addr:street" v="Moss Hollow Road"/>
    <tag k="addr:state" v="VT"/>
    <tag k="ref:vcgi:esiteid" v="152490"/>
  </node>
  <node id="-626" visible="true" lat="42.89685192" lon="-72.79388811">
    <tag k="addr:housenumber" v="3005"/>
    <tag k="addr:street" v="Higley Hill Road"/>
    <tag k="addr:state" v="VT"/>
    <tag k="ref:vcgi:esiteid" v="152492"/>
  </node>
  <node id="-628" visible="true" lat="42.90333208" lon="-72.79290942">
    <tag k="addr:housenumber" v="355"/>
    <tag k="addr:street" v="Upper Dover Road"/>
    <tag k="addr:state" v="VT"/>
    <tag k="ref:vcgi:esiteid" v="152494"/>
  </node>
  <node id="-629" visible="true" lat="42.89362141" lon="-72.77094708">
    <tag k="addr:housenumber" v="1195"/>
    <tag k="addr:street" v="Lower Dover Road"/>
    <tag k="addr:state" v="VT"/>
    <tag k="ref:vcgi:esiteid" v="152495"/>
  </node>
  <node id="-630" visible="true" lat="42.8759566" lon="-72.76157262">
    <tag k="addr:housenumber" v="550"/>
    <tag k="addr:street" v="Higley Hill Road"/>
    <tag k="addr:state" v="VT"/>
    <tag k="ref:vcgi:esiteid" v="152496"/>
  </node>
  <node id="-631" visible="true" lat="42.87556231" lon="-72.75263263">
    <tag k="addr:housenumber" v="1061"/>
    <tag k="addr:street" v="Augur Hole Road"/>
    <tag k="addr:state" v="VT"/>
    <tag k="ref:vcgi:esiteid" v="152497"/>
  </node>
  <node id="-632" visible="true" lat="42.88177716" lon="-72.6938689">
    <tag k="addr:housenumber" v="216"/>
    <tag k="addr:street" v="Whetstone Road"/>
    <tag k="addr:state" v="VT"/>
    <tag k="ref:vcgi:esiteid" v="152498"/>
  </node>
  <node id="-636" visible="true" lat="42.86614289" lon="-72.74537268">
    <tag k="addr:housenumber" v="4222"/>
    <tag k="addr:street" v="Vermont Route 9"/>
    <tag k="addr:state" v="VT"/>
    <tag k="ref:vcgi:esiteid" v="152502"/>
  </node>
  <node id="-637" visible="true" lat="42.85847578" lon="-72.72256487">
    <tag k="addr:housenumber" v="2655"/>
    <tag k="addr:street" v="Ames Hill Road"/>
    <tag k="addr:state" v="VT"/>
    <tag k="ref:vcgi:esiteid" v="152503"/>
  </node>
  <node id="-642" visible="true" lat="42.82992372" lon="-72.74346633">
    <tag k="addr:housenumber" v="1162"/>
    <tag k="addr:street" v="Moss Hollow Road"/>
    <tag k="addr:state" v="VT"/>
    <tag k="ref:vcgi:esiteid" v="152508"/>
  </node>
  <node id="-652" visible="true" lat="42.85659248" lon="-72.77285506">
    <tag k="addr:housenumber" v="117"/>
    <tag k="addr:street" v="Adams Crossroad"/>
    <tag k="addr:state" v="VT"/>
    <tag k="ref:vcgi:esiteid" v="331063"/>
  </node>
  <node id="-653" visible="true" lat="42.83489908" lon="-72.72194744">
    <tag k="addr:housenumber" v="286"/>
    <tag k="addr:street" v="Lucier Road"/>
    <tag k="addr:state" v="VT"/>
    <tag k="ref:vcgi:esiteid" v="335189"/>
  </node>
  <node id="-655" visible="true" lat="42.87245204" lon="-72.69378807">
    <tag k="addr:housenumber" v="487"/>
    <tag k="addr:street" v="Macarthur Road"/>
    <tag k="addr:state" v="VT"/>
    <tag k="ref:vcgi:esiteid" v="342514"/>
  </node>
  <node id="-657" visible="true" lat="42.88781487" lon="-72.7425041">
    <tag k="addr:housenumber" v="2126"/>
    <tag k="addr:street" v="Augur Hole Road"/>
    <tag k="addr:state" v="VT"/>
    <tag k="ref:vcgi:esiteid" v="344176"/>
  </node>
  <node id="-665" visible="true" lat="42.86404023" lon="-72.74427798">
    <tag k="addr:housenumber" v="4175"/>
    <tag k="addr:street" v="Vermont Route 9"/>
    <tag k="addr:state" v="VT"/>
    <tag k="ref:vcgi:esiteid" v="446138"/>
  </node>
  <node id="-667" visible="true" lat="42.85601621" lon="-72.68779959">
    <tag k="addr:housenumber" v="57"/>
    <tag k="addr:street" v="Fox Road"/>
    <tag k="addr:state" v="VT"/>
    <tag k="ref:vcgi:esiteid" v="451531"/>
  </node>
  <node id="-668" visible="true" lat="42.85546387" lon="-72.68765709">
    <tag k="addr:housenumber" v="55"/>
    <tag k="addr:street" v="Fox Road"/>
    <tag k="addr:state" v="VT"/>
    <tag k="ref:vcgi:esiteid" v="451532"/>
  </node>
  <node id="-670" visible="true" lat="42.83795617" lon="-72.73885593">
    <tag k="addr:housenumber" v="43"/>
    <tag k="addr:street" v="Musicians Way"/>
    <tag k="addr:state" v="VT"/>
    <tag k="ref:vcgi:esiteid" v="452105"/>
  </node>
  <node id="-671" visible="true" lat="42.83752489" lon="-72.74007763">
    <tag k="addr:housenumber" v="82"/>
    <tag k="addr:street" v="Musicians Way"/>
    <tag k="addr:state" v="VT"/>
    <tag k="ref:vcgi:esiteid" v="452106"/>
  </node>
  <node id="-672" visible="true" lat="42.83695097" lon="-72.73929015">
    <tag k="addr:housenumber" v="99"/>
    <tag k="addr:street" v="Musicians Way"/>
    <tag k="addr:state" v="VT"/>
    <tag k="ref:vcgi:esiteid" v="452107"/>
  </node>
  <node id="-673" visible="true" lat="42.83630236" lon="-72.7391052">
    <tag k="addr:housenumber" v="187"/>
    <tag k="addr:street" v="Musicians Way"/>
    <tag k="addr:state" v="VT"/>
    <tag k="ref:vcgi:esiteid" v="452108"/>
  </node>
  <node id="-674" visible="true" lat="42.83619823" lon="-72.73991827">
    <tag k="addr:housenumber" v="168"/>
    <tag k="addr:street" v="Musicians Way"/>
    <tag k="addr:state" v="VT"/>
    <tag k="ref:vcgi:esiteid" v="452109"/>
  </node>
  <node id="-676" visible="true" lat="42.84453647" lon="-72.7360082">
    <tag k="addr:housenumber" v="781"/>
    <tag k="addr:street" v="Theater Road"/>
    <tag k="addr:state" v="VT"/>
    <tag k="ref:vcgi:esiteid" v="452346"/>
  </node>
  <node id="-678" visible="true" lat="42.87764935" lon="-72.69550127">
    <tag k="addr:housenumber" v="2"/>
    <tag k="addr:street" v="Macarthur Road"/>
    <tag k="addr:state" v="VT"/>
    <tag k="ref:vcgi:esiteid" v="455195"/>
  </node>
  <node id="-679" visible="true" lat="42.87468436" lon="-72.69507438">
    <tag k="addr:housenumber" v="339"/>
    <tag k="addr:street" v="Macarthur Road"/>
    <tag k="addr:state" v="VT"/>
    <tag k="ref:vcgi:esiteid" v="455196"/>
  </node>
  <node id="-680" visible="true" lat="42.83663609" lon="-72.68247274">
    <tag k="addr:housenumber" v="560"/>
    <tag k="addr:street" v="Barrows Road"/>
    <tag k="addr:state" v="VT"/>
    <tag k="ref:vcgi:esiteid" v="455349"/>
  </node>
  <node id="-683" visible="true" lat="42.83607638" lon="-72.72257178">
    <tag k="addr:housenumber" v="234"/>
    <tag k="addr:street" v="Lucier Road"/>
    <tag k="addr:state" v="VT"/>
    <tag k="ref:vcgi:esiteid" v="455352"/>
  </node>
  <node id="-686" visible="true" lat="42.91688205" lon="-72.79646934">
    <tag k="addr:housenumber" v="1209"/>
    <tag k="addr:street" v="Upper Dover Road"/>
    <tag k="addr:state" v="VT"/>
    <tag k="ref:vcgi:esiteid" v="611556"/>
  </node>
  <node id="-692" visible="true" lat="42.87920071" lon="-72.70378915">
    <tag k="addr:housenumber" v="27"/>
    <tag k="addr:street" v="Mercier Road"/>
    <tag k="addr:state" v="VT"/>
    <tag k="ref:vcgi:esiteid" v="612237"/>
  </node>
  <node id="-693" visible="true" lat="42.8780454" lon="-72.70502261">
    <tag k="addr:housenumber" v="110"/>
    <tag k="addr:street" v="Mercier Road"/>
    <tag k="addr:state" v="VT"/>
    <tag k="ref:vcgi:esiteid" v="612238"/>
  </node>
  <node id="-694" visible="true" lat="42.87769823" lon="-72.70541165">
    <tag k="addr:housenumber" v="142"/>
    <tag k="addr:street" v="Mercier Road"/>
    <tag k="addr:state" v="VT"/>
    <tag k="ref:vcgi:esiteid" v="612239"/>
  </node>
  <node id="-695" visible="true" lat="42.87762328" lon="-72.7059515">
    <tag k="addr:housenumber" v="170"/>
    <tag k="addr:street" v="Mercier Road"/>
    <tag k="addr:state" v="VT"/>
    <tag k="ref:vcgi:esiteid" v="612240"/>
  </node>
  <node id="-696" visible="true" lat="42.87733982" lon="-72.70570296">
    <tag k="addr:housenumber" v="171"/>
    <tag k="addr:street" v="Mercier Road"/>
    <tag k="addr:state" v="VT"/>
    <tag k="ref:vcgi:esiteid" v="612241"/>
  </node>
  <node id="-697" visible="true" lat="42.91921663" lon="-72.79548824">
    <tag k="addr:housenumber" v="1507"/>
    <tag k="addr:street" v="Upper Dover Road"/>
    <tag k="addr:state" v="VT"/>
    <tag k="ref:vcgi:esiteid" v="612242"/>
  </node>
  <node id="-702" visible="true" lat="42.85575377" lon="-72.68634262">
    <tag k="addr:housenumber" v="60"/>
    <tag k="addr:street" v="Fox Road"/>
    <tag k="addr:state" v="VT"/>
    <tag k="ref:vcgi:esiteid" v="612249"/>
  </node>
  <node id="-705" visible="true" lat="42.86290288" lon="-72.68950935">
    <tag k="addr:housenumber" v="1195"/>
    <tag k="addr:street" v="Macarthur Road"/>
    <tag k="addr:state" v="VT"/>
    <tag k="ref:vcgi:esiteid" v="612252"/>
  </node>
  <node id="-706" visible="true" lat="42.86598345" lon="-72.68931856">
    <tag k="addr:housenumber" v="976"/>
    <tag k="addr:street" v="Macarthur Road"/>
    <tag k="addr:state" v="VT"/>
    <tag k="ref:vcgi:esiteid" v="612253"/>
  </node>
  <node id="-707" visible="true" lat="42.86301995" lon="-72.68719746">
    <tag k="addr:housenumber" v="1073"/>
    <tag k="addr:street" v="Macarthur Road"/>
    <tag k="addr:state" v="VT"/>
    <tag k="ref:vcgi:esiteid" v="612254"/>
  </node>
  <node id="-709" visible="true" lat="42.85562393" lon="-72.71631871">
    <tag k="addr:housenumber" v="430"/>
    <tag k="addr:street" v="Trillium Way"/>
    <tag k="addr:state" v="VT"/>
    <tag k="ref:vcgi:esiteid" v="612256"/>
  </node>
  <node id="-710" visible="true" lat="42.85467575" lon="-72.71453975">
    <tag k="addr:housenumber" v="307"/>
    <tag k="addr:street" v="Trillium Way"/>
    <tag k="addr:state" v="VT"/>
    <tag k="ref:vcgi:esiteid" v="612257"/>
  </node>
  <node id="-711" visible="true" lat="42.85732253" lon="-72.71484837">
    <tag k="addr:housenumber" v="242"/>
    <tag k="addr:street" v="Trillium Way"/>
    <tag k="addr:state" v="VT"/>
    <tag k="ref:vcgi:esiteid" v="612258"/>
  </node>
  <node id="-712" visible="true" lat="42.89050266" lon="-72.74082616">
    <tag k="addr:housenumber" v="2343"/>
    <tag k="addr:street" v="Augur Hole Road"/>
    <tag k="addr:state" v="VT"/>
    <tag k="ref:vcgi:esiteid" v="612259"/>
  </node>
  <node id="-715" visible="true" lat="42.86044651" lon="-72.72041617">
    <tag k="addr:housenumber" v="2602"/>
    <tag k="addr:street" v="Ames Hill Road"/>
    <tag k="addr:state" v="VT"/>
    <tag k="ref:vcgi:esiteid" v="612267"/>
  </node>
  <node id="-716" visible="true" lat="42.85821418" lon="-72.71937853">
    <tag k="addr:housenumber" v="2601"/>
    <tag k="addr:street" v="Ames Hill Road"/>
    <tag k="addr:state" v="VT"/>
    <tag k="ref:vcgi:esiteid" v="612268"/>
  </node>
  <node id="-717" visible="true" lat="42.8832433" lon="-72.775236">
    <tag k="addr:housenumber" v="1506"/>
    <tag k="addr:street" v="Higley Hill Road"/>
    <tag k="addr:state" v="VT"/>
    <tag k="ref:vcgi:esiteid" v="612279"/>
  </node>
  <node id="-718" visible="true" lat="42.88383085" lon="-72.77594143">
    <tag k="addr:housenumber" v="1530"/>
    <tag k="addr:street" v="Higley Hill Road"/>
    <tag k="addr:state" v="VT"/>
    <tag k="ref:vcgi:esiteid" v="612280"/>
  </node>
  <node id="-719" visible="true" lat="42.88363268" lon="-72.77712594">
    <tag k="addr:housenumber" v="1525"/>
    <tag k="addr:street" v="Higley Hill Road"/>
    <tag k="addr:state" v="VT"/>
    <tag k="ref:vcgi:esiteid" v="612281"/>
  </node>
  <node id="-720" visible="true" lat="42.85513551" lon="-72.6995149">
    <tag k="addr:housenumber" v="2016"/>
    <tag k="addr:street" v="Ames Hill Road"/>
    <tag k="addr:state" v="VT"/>
    <tag k="ref:vcgi:esiteid" v="612282"/>
  </node>
  <node id="-721" visible="true" lat="42.85559613" lon="-72.70068743">
    <tag k="addr:housenumber" v="274"/>
    <tag k="addr:street" v="Old Turnpike Road"/>
    <tag k="addr:state" v="VT"/>
    <tag k="ref:vcgi:esiteid" v="612283"/>
  </node>
  <node id="-724" visible="true" lat="42.90537491" lon="-72.71494559">
    <tag k="addr:housenumber" v="37"/>
    <tag k="addr:street" v="Private Drive"/>
    <tag k="addr:state" v="VT"/>
    <tag k="ref:vcgi:esiteid" v="612291"/>
  </node>
  <node id="-725" visible="true" lat="42.8678784" lon="-72.69195074">
    <tag k="addr:housenumber" v="778"/>
    <tag k="addr:street" v="Macarthur Road"/>
    <tag k="addr:state" v="VT"/>
    <tag k="ref:vcgi:esiteid" v="612298"/>
  </node>
  <node id="-731" visible="true" lat="42.86657215" lon="-72.6907492">
    <tag k="addr:housenumber" v="920"/>
    <tag k="addr:street" v="Macarthur Road"/>
    <tag k="addr:state" v="VT"/>
    <tag k="ref:vcgi:esiteid" v="612304"/>
  </node>
  <node id="-732" visible="true" lat="42.84635015" lon="-72.6877404">
    <tag k="addr:housenumber" v="200"/>
    <tag k="addr:street" v="Lower Houghton Road"/>
    <tag k="addr:state" v="VT"/>
    <tag k="ref:vcgi:esiteid" v="612305"/>
  </node>
  <node id="-733" visible="true" lat="42.82810892" lon="-72.71969324">
    <tag k="addr:housenumber" v="40"/>
    <tag k="addr:street" v="Fisher Cat Lane"/>
    <tag k="addr:state" v="VT"/>
    <tag k="ref:vcgi:esiteid" v="612457"/>
  </node>
  <node id="-739" visible="true" lat="42.84170543" lon="-72.73891658">
    <tag k="addr:housenumber" v="499"/>
    <tag k="addr:street" v="Theater Road"/>
    <tag k="addr:state" v="VT"/>
    <tag k="ref:vcgi:esiteid" v="612468"/>
  </node>
  <node id="-741" visible="true" lat="42.8421458" lon="-72.7373305">
    <tag k="addr:housenumber" v="580"/>
    <tag k="addr:street" v="Theater Road"/>
    <tag k="addr:state" v="VT"/>
    <tag k="ref:vcgi:esiteid" v="612470"/>
  </node>
  <node id="-745" visible="true" lat="42.85282712" lon="-72.73155431">
    <tag k="addr:housenumber" v="464"/>
    <tag k="addr:street" v="Palmetto Drive"/>
    <tag k="addr:state" v="VT"/>
    <tag k="ref:vcgi:esiteid" v="612475"/>
  </node>
  <node id="-750" visible="true" lat="42.88429592" lon="-72.74375308">
    <tag k="addr:housenumber" v="1920"/>
    <tag k="addr:street" v="Augur Hole Road"/>
    <tag k="addr:state" v="VT"/>
    <tag k="ref:vcgi:esiteid" v="612480"/>
  </node>
  <node id="-753" visible="true" lat="42.86584154" lon="-72.73195186">
    <tag k="addr:housenumber" v="3477"/>
    <tag k="addr:street" v="Vermont Route 9"/>
    <tag k="addr:state" v="VT"/>
    <tag k="ref:vcgi:esiteid" v="612805"/>
  </node>
  <node id="-755" visible="true" lat="42.8560445" lon="-72.68239463">
    <tag k="addr:housenumber" v="1578"/>
    <tag k="addr:street" v="Ames Hill Road"/>
    <tag k="addr:state" v="VT"/>
    <tag k="ref:vcgi:esiteid" v="613121"/>
  </node>
  <node id="-765" visible="true" lat="42.89726301" lon="-72.79149201">
    <tag k="addr:housenumber" v="43"/>
    <tag k="addr:street" v="Marlboro Heights"/>
    <tag k="addr:state" v="VT"/>
    <tag k="ref:vcgi:esiteid" v="617731"/>
  </node>
  <node id="-766" visible="true" lat="42.89452564" lon="-72.79479673">
    <tag k="addr:housenumber" v="354"/>
    <tag k="addr:street" v="Marlboro Heights"/>
    <tag k="addr:state" v="VT"/>
    <tag k="ref:vcgi:esiteid" v="617732"/>
  </node>
  <node id="-767" visible="true" lat="42.89212549" lon="-72.78409524">
    <tag k="addr:housenumber" v="2284"/>
    <tag k="addr:street" v="Higley Hill Road"/>
    <tag k="addr:state" v="VT"/>
    <tag k="ref:vcgi:esiteid" v="618096"/>
  </node>
  <node id="-769" visible="true" lat="42.88900338" lon="-72.77904765">
    <tag k="addr:housenumber" v="1926"/>
    <tag k="addr:street" v="Higley Hill Road"/>
    <tag k="addr:state" v="VT"/>
    <tag k="ref:vcgi:esiteid" v="618163"/>
  </node>
  <node id="-789" visible="true" lat="42.91799885" lon="-72.71478004">
    <tag k="addr:housenumber" v="5661"/>
    <tag k="addr:street" v="Augur Hole Road"/>
    <tag k="addr:state" v="VT"/>
    <tag k="ref:vcgi:esiteid" v="756724"/>
  </node>
  <node id="-794" visible="true" lat="42.88147238" lon="-72.75861556">
    <tag k="addr:housenumber" v="375"/>
    <tag k="addr:street" v="Stearns Hill Road"/>
    <tag k="addr:state" v="VT"/>
    <tag k="ref:vcgi:esiteid" v="757601"/>
  </node>
  <node id="-800" visible="true" lat="42.86394208" lon="-72.75193534">
    <tag k="addr:housenumber" v="25"/>
    <tag k="addr:street" v="Augur Hole Road"/>
    <tag k="addr:state" v="VT"/>
    <tag k="ref:vcgi:esiteid" v="757679"/>
  </node>
  <node id="-808" visible="true" lat="42.88868774" lon="-72.77801237">
    <tag k="addr:housenumber" v="1874"/>
    <tag k="addr:street" v="Higley Hill Road"/>
    <tag k="addr:state" v="VT"/>
    <tag k="ref:vcgi:esiteid" v="759592"/>
  </node>
</osm>
