<?xml version="1.0" encoding="UTF-8"?>
<osm version="0.6" generator="JOSM">
  <node id="-125" visible="true" lat="44.36225891" lon="-72.3375473">
    <tag k="addr:housenumber" v="989"/>
    <tag k="addr:street" v="Cabot Road"/>
    <tag k="addr:state" v="VT"/>
    <tag k="ref:vcgi:esiteid" v="152538"/>
  </node>
  <node id="-131" visible="true" lat="44.36032867" lon="-72.33562469">
    <tag k="addr:housenumber" v="78"/>
    <tag k="addr:street" v="Power Plant Road"/>
    <tag k="addr:state" v="VT"/>
    <tag k="ref:vcgi:esiteid" v="152544"/>
  </node>
  <node id="-136" visible="true" lat="44.35880361" lon="-72.33061662">
    <tag k="addr:housenumber" v="386"/>
    <tag k="addr:street" v="U.S. Route 2"/>
    <tag k="addr:state" v="VT"/>
    <tag k="ref:vcgi:esiteid" v="152549"/>
  </node>
  <node id="-161" visible="true" lat="44.35451223" lon="-72.33855264">
    <tag k="addr:housenumber" v="867"/>
    <tag k="addr:street" v="U.S. Route 2"/>
    <tag k="addr:state" v="VT"/>
    <tag k="ref:vcgi:esiteid" v="152574"/>
  </node>
  <node id="-163" visible="true" lat="44.35434722" lon="-72.3402481">
    <tag k="addr:housenumber" v="937"/>
    <tag k="addr:street" v="U.S. Route 2"/>
    <tag k="addr:state" v="VT"/>
    <tag k="ref:vcgi:esiteid" v="152576"/>
  </node>
  <node id="-164" visible="true" lat="44.35385513" lon="-72.34654235">
    <tag k="addr:housenumber" v="159"/>
    <tag k="addr:street" v="Cabot Road"/>
    <tag k="addr:state" v="VT"/>
    <tag k="ref:vcgi:esiteid" v="152577"/>
  </node>
  <node id="-166" visible="true" lat="44.35374832" lon="-72.34674835">
    <tag k="addr:housenumber" v="145"/>
    <tag k="addr:street" v="Cabot Road"/>
    <tag k="addr:state" v="VT"/>
    <tag k="ref:vcgi:esiteid" v="152579"/>
  </node>
  <node id="-168" visible="true" lat="44.3535614" lon="-72.34290313">
    <tag k="addr:housenumber" v="1114"/>
    <tag k="addr:street" v="U.S. Route 2"/>
    <tag k="addr:state" v="VT"/>
    <tag k="ref:vcgi:esiteid" v="152581"/>
  </node>
  <node id="-169" visible="true" lat="44.35350418" lon="-72.34304809">
    <tag k="addr:housenumber" v="1122"/>
    <tag k="addr:street" v="U.S. Route 2"/>
    <tag k="addr:state" v="VT"/>
    <tag k="ref:vcgi:esiteid" v="152582"/>
  </node>
  <node id="-171" visible="true" lat="44.35315973" lon="-72.34696875">
    <tag k="addr:housenumber" v="110"/>
    <tag k="addr:street" v="Cabot Road"/>
    <tag k="addr:state" v="VT"/>
    <tag k="ref:vcgi:esiteid" v="152584"/>
  </node>
  <node id="-172" visible="true" lat="44.35323564" lon="-72.34352136">
    <tag k="addr:housenumber" v="1150"/>
    <tag k="addr:street" v="U.S. Route 2"/>
    <tag k="addr:state" v="VT"/>
    <tag k="ref:vcgi:esiteid" v="152585"/>
  </node>
  <node id="-175" visible="true" lat="44.3530799" lon="-72.34557305">
    <tag k="addr:housenumber" v="1302"/>
    <tag k="addr:street" v="U.S. Route 2"/>
    <tag k="addr:state" v="VT"/>
    <tag k="ref:vcgi:esiteid" v="152588"/>
  </node>
  <node id="-177" visible="true" lat="44.3529681" lon="-72.34775535">
    <tag k="addr:housenumber" v="77"/>
    <tag k="addr:street" v="Cabot Road"/>
    <tag k="addr:state" v="VT"/>
    <tag k="ref:vcgi:esiteid" v="152590"/>
  </node>
  <node id="-178" visible="true" lat="44.35296294" lon="-72.34393712">
    <tag k="addr:housenumber" v="1184"/>
    <tag k="addr:street" v="U.S. Route 2"/>
    <tag k="addr:state" v="VT"/>
    <tag k="ref:vcgi:esiteid" v="152591"/>
  </node>
  <node id="-180" visible="true" lat="44.35268209" lon="-72.34350819">
    <tag k="addr:housenumber" v="1175"/>
    <tag k="addr:street" v="U.S. Route 2"/>
    <tag k="addr:state" v="VT"/>
    <tag k="ref:vcgi:esiteid" v="152593"/>
  </node>
  <node id="-181" visible="true" lat="44.35264559" lon="-72.34760971">
    <tag k="addr:housenumber" v="58"/>
    <tag k="addr:street" v="Cabot Road"/>
    <tag k="addr:state" v="VT"/>
    <tag k="ref:vcgi:esiteid" v="152594"/>
  </node>
  <node id="-182" visible="true" lat="44.35257517" lon="-72.35437742">
    <tag k="addr:housenumber" v="90"/>
    <tag k="addr:street" v="Creamery Street"/>
    <tag k="addr:state" v="VT"/>
    <tag k="ref:vcgi:esiteid" v="152595"/>
  </node>
  <node id="-183" visible="true" lat="44.35255432" lon="-72.3444519">
    <tag k="addr:housenumber" v="1218"/>
    <tag k="addr:street" v="U.S. Route 2"/>
    <tag k="addr:state" v="VT"/>
    <tag k="ref:vcgi:esiteid" v="152596"/>
  </node>
  <node id="-184" visible="true" lat="44.35260193" lon="-72.35481311">
    <tag k="addr:housenumber" v="83"/>
    <tag k="addr:street" v="Creamery Street"/>
    <tag k="addr:state" v="VT"/>
    <tag k="ref:vcgi:esiteid" v="152597"/>
  </node>
  <node id="-187" visible="true" lat="44.3523941" lon="-72.34429168">
    <tag k="addr:housenumber" v="19"/>
    <tag k="addr:street" v="Folsom Hill Road"/>
    <tag k="addr:state" v="VT"/>
    <tag k="ref:vcgi:esiteid" v="152600"/>
  </node>
  <node id="-188" visible="true" lat="44.35232375" lon="-72.34796209">
    <tag k="addr:housenumber" v="34"/>
    <tag k="addr:street" v="Cabot Road"/>
    <tag k="addr:state" v="VT"/>
    <tag k="ref:vcgi:esiteid" v="152601"/>
  </node>
  <node id="-189" visible="true" lat="44.3522703" lon="-72.35433803">
    <tag k="addr:housenumber" v="84"/>
    <tag k="addr:street" v="Creamery Street"/>
    <tag k="addr:state" v="VT"/>
    <tag k="ref:vcgi:esiteid" v="152602"/>
  </node>
  <node id="-190" visible="true" lat="44.35233465" lon="-72.35487307">
    <tag k="addr:housenumber" v="71"/>
    <tag k="addr:street" v="Creamery Street"/>
    <tag k="addr:state" v="VT"/>
    <tag k="ref:vcgi:esiteid" v="152603"/>
  </node>
  <node id="-191" visible="true" lat="44.35231018" lon="-72.34497833">
    <tag k="addr:housenumber" v="1250"/>
    <tag k="addr:street" v="U.S. Route 2"/>
    <tag k="addr:state" v="VT"/>
    <tag k="ref:vcgi:esiteid" v="152604"/>
  </node>
  <node id="-192" visible="true" lat="44.35266379" lon="-72.34811746">
    <tag k="addr:housenumber" v="17"/>
    <tag k="addr:street" v="Cabot Road"/>
    <tag k="addr:state" v="VT"/>
    <tag k="ref:vcgi:esiteid" v="152605"/>
  </node>
  <node id="-193" visible="true" lat="44.35213993" lon="-72.35291498">
    <tag k="addr:housenumber" v="71"/>
    <tag k="addr:street" v="Church Street"/>
    <tag k="addr:state" v="VT"/>
    <tag k="ref:vcgi:esiteid" v="152606"/>
  </node>
  <node id="-196" visible="true" lat="44.35214829" lon="-72.35238156">
    <tag k="addr:housenumber" v="64"/>
    <tag k="addr:street" v="Church Street"/>
    <tag k="addr:state" v="VT"/>
    <tag k="ref:vcgi:esiteid" v="152609"/>
  </node>
  <node id="-197" visible="true" lat="44.35219573" lon="-72.34876251">
    <tag k="addr:housenumber" v="1"/>
    <tag k="addr:street" v="Cabot Road"/>
    <tag k="addr:state" v="VT"/>
    <tag k="ref:vcgi:esiteid" v="152610"/>
  </node>
  <node id="-198" visible="true" lat="44.35193609" lon="-72.34446462">
    <tag k="addr:housenumber" v="28"/>
    <tag k="addr:street" v="Folsom Hill Road"/>
    <tag k="addr:state" v="VT"/>
    <tag k="ref:vcgi:esiteid" v="152611"/>
  </node>
  <node id="-199" visible="true" lat="44.35208225" lon="-72.3548756">
    <tag k="addr:housenumber" v="51"/>
    <tag k="addr:street" v="Creamery Street"/>
    <tag k="addr:state" v="VT"/>
    <tag k="ref:vcgi:esiteid" v="152612"/>
  </node>
  <node id="-200" visible="true" lat="44.35189257" lon="-72.34515572">
    <tag k="addr:housenumber" v="1265"/>
    <tag k="addr:street" v="U.S. Route 2"/>
    <tag k="addr:state" v="VT"/>
    <tag k="ref:vcgi:esiteid" v="152613"/>
  </node>
  <node id="-201" visible="true" lat="44.35216775" lon="-72.34552821">
    <tag k="addr:housenumber" v="1292"/>
    <tag k="addr:street" v="U.S. Route 2"/>
    <tag k="addr:state" v="VT"/>
    <tag k="ref:vcgi:esiteid" v="152614"/>
  </node>
  <node id="-202" visible="true" lat="44.35196996" lon="-72.35455983">
    <tag k="addr:housenumber" v="48"/>
    <tag k="addr:street" v="Creamery Street"/>
    <tag k="addr:state" v="VT"/>
    <tag k="ref:vcgi:esiteid" v="152615"/>
  </node>
  <node id="-204" visible="true" lat="44.35195515" lon="-72.34740643">
    <tag k="addr:housenumber" v="1380"/>
    <tag k="addr:street" v="U.S. Route 2"/>
    <tag k="addr:state" v="VT"/>
    <tag k="ref:vcgi:esiteid" v="152617"/>
  </node>
  <node id="-205" visible="true" lat="44.3518753" lon="-72.3457489">
    <tag k="addr:housenumber" v="1297"/>
    <tag k="addr:street" v="U.S. Route 2"/>
    <tag k="addr:state" v="VT"/>
    <tag k="ref:vcgi:esiteid" v="152618"/>
  </node>
  <node id="-206" visible="true" lat="44.35196237" lon="-72.34905036">
    <tag k="addr:housenumber" v="1476"/>
    <tag k="addr:street" v="U.S. Route 2"/>
    <tag k="addr:state" v="VT"/>
    <tag k="ref:vcgi:esiteid" v="152619"/>
  </node>
  <node id="-207" visible="true" lat="44.35197994" lon="-72.34810561">
    <tag k="addr:housenumber" v="1414"/>
    <tag k="addr:street" v="U.S. Route 2"/>
    <tag k="addr:state" v="VT"/>
    <tag k="ref:vcgi:esiteid" v="152620"/>
  </node>
  <node id="-208" visible="true" lat="44.35185489" lon="-72.34975806">
    <tag k="addr:housenumber" v="1506"/>
    <tag k="addr:street" v="U.S. Route 2"/>
    <tag k="addr:state" v="VT"/>
    <tag k="ref:vcgi:esiteid" v="152621"/>
  </node>
  <node id="-210" visible="true" lat="44.35194" lon="-72.3555138">
    <tag k="addr:housenumber" v="20"/>
    <tag k="addr:street" v="English Cemetery Road"/>
    <tag k="addr:state" v="VT"/>
    <tag k="ref:vcgi:esiteid" v="152623"/>
  </node>
  <node id="-211" visible="true" lat="44.35187106" lon="-72.35014938">
    <tag k="addr:housenumber" v="1516"/>
    <tag k="addr:street" v="U.S. Route 2"/>
    <tag k="addr:state" v="VT"/>
    <tag k="ref:vcgi:esiteid" v="152624"/>
  </node>
  <node id="-212" visible="true" lat="44.35154045" lon="-72.346431">
    <tag k="addr:housenumber" v="1333"/>
    <tag k="addr:street" v="U.S. Route 2"/>
    <tag k="addr:state" v="VT"/>
    <tag k="ref:vcgi:esiteid" v="152625"/>
  </node>
  <node id="-215" visible="true" lat="44.35174077" lon="-72.35046986">
    <tag k="addr:housenumber" v="1532"/>
    <tag k="addr:street" v="U.S. Route 2"/>
    <tag k="addr:state" v="VT"/>
    <tag k="ref:vcgi:esiteid" v="152628"/>
  </node>
  <node id="-216" visible="true" lat="44.35162735" lon="-72.34492492">
    <tag k="addr:housenumber" v="1263"/>
    <tag k="addr:street" v="U.S. Route 2"/>
    <tag k="addr:state" v="VT"/>
    <tag k="ref:vcgi:esiteid" v="152629"/>
  </node>
  <node id="-217" visible="true" lat="44.35152826" lon="-72.34886207">
    <tag k="addr:housenumber" v="1449"/>
    <tag k="addr:street" v="U.S. Route 2"/>
    <tag k="addr:state" v="VT"/>
    <tag k="ref:vcgi:esiteid" v="152630"/>
  </node>
  <node id="-218" visible="true" lat="44.35145718" lon="-72.34815139">
    <tag k="addr:housenumber" v="1425"/>
    <tag k="addr:street" v="U.S. Route 2"/>
    <tag k="addr:state" v="VT"/>
    <tag k="ref:vcgi:esiteid" v="152632"/>
  </node>
  <node id="-220" visible="true" lat="44.35150909" lon="-72.33962249">
    <tag k="addr:housenumber" v="255"/>
    <tag k="addr:street" v="Folsom Hill Road"/>
    <tag k="addr:state" v="VT"/>
    <tag k="ref:vcgi:esiteid" v="152634"/>
  </node>
  <node id="-221" visible="true" lat="44.3515262" lon="-72.35145334">
    <tag k="addr:housenumber" v="1580"/>
    <tag k="addr:street" v="U.S. Route 2"/>
    <tag k="addr:state" v="VT"/>
    <tag k="ref:vcgi:esiteid" v="152635"/>
  </node>
  <node id="-222" visible="true" lat="44.35140118" lon="-72.35078321">
    <tag k="addr:housenumber" v="1551"/>
    <tag k="addr:street" v="U.S. Route 2"/>
    <tag k="addr:state" v="VT"/>
    <tag k="ref:vcgi:esiteid" v="152636"/>
  </node>
  <node id="-223" visible="true" lat="44.35132017" lon="-72.34131068">
    <tag k="addr:housenumber" v="192"/>
    <tag k="addr:street" v="Folsom Hill Road"/>
    <tag k="addr:state" v="VT"/>
    <tag k="ref:vcgi:esiteid" v="152637"/>
  </node>
  <node id="-224" visible="true" lat="44.35145257" lon="-72.35497988">
    <tag k="addr:housenumber" v="9"/>
    <tag k="addr:street" v="Creamery Street"/>
    <tag k="addr:state" v="VT"/>
    <tag k="ref:vcgi:esiteid" v="152638"/>
  </node>
  <node id="-225" visible="true" lat="44.35145568" lon="-72.34946441">
    <tag k="addr:housenumber" v="18"/>
    <tag k="addr:street" v="Gilman Street"/>
    <tag k="addr:state" v="VT"/>
    <tag k="ref:vcgi:esiteid" v="152639"/>
  </node>
  <node id="-226" visible="true" lat="44.35150827" lon="-72.35587655">
    <tag k="addr:housenumber" v="36"/>
    <tag k="addr:street" v="English Cemetery Road"/>
    <tag k="addr:state" v="VT"/>
    <tag k="ref:vcgi:esiteid" v="152640"/>
  </node>
  <node id="-229" visible="true" lat="44.35148072" lon="-72.35051664">
    <tag k="addr:housenumber" v="1541"/>
    <tag k="addr:street" v="U.S. Route 2"/>
    <tag k="addr:state" v="VT"/>
    <tag k="ref:vcgi:esiteid" v="152643"/>
  </node>
  <node id="-230" visible="true" lat="44.35129821" lon="-72.34847168">
    <tag k="addr:housenumber" v="1445"/>
    <tag k="addr:street" v="U.S. Route 2"/>
    <tag k="addr:state" v="VT"/>
    <tag k="ref:vcgi:esiteid" v="152644"/>
  </node>
  <node id="-231" visible="true" lat="44.35142873" lon="-72.35427475">
    <tag k="addr:housenumber" v="1720"/>
    <tag k="addr:street" v="U.S. Route 2"/>
    <tag k="addr:state" v="VT"/>
    <tag k="ref:vcgi:esiteid" v="152645"/>
  </node>
  <node id="-232" visible="true" lat="44.35145941" lon="-72.3520058">
    <tag k="addr:housenumber" v="1616"/>
    <tag k="addr:street" v="U.S. Route 2"/>
    <tag k="addr:state" v="VT"/>
    <tag k="ref:vcgi:esiteid" v="152646"/>
  </node>
  <node id="-233" visible="true" lat="44.35143534" lon="-72.35275132">
    <tag k="addr:housenumber" v="1648"/>
    <tag k="addr:street" v="U.S. Route 2"/>
    <tag k="addr:state" v="VT"/>
    <tag k="ref:vcgi:esiteid" v="152647"/>
  </node>
  <node id="-234" visible="true" lat="44.35137562" lon="-72.35555667">
    <tag k="addr:housenumber" v="8"/>
    <tag k="addr:street" v="English Cemetery Road"/>
    <tag k="addr:state" v="VT"/>
    <tag k="ref:vcgi:esiteid" v="152648"/>
  </node>
  <node id="-235" visible="true" lat="44.35144118" lon="-72.35229848">
    <tag k="addr:housenumber" v="1626"/>
    <tag k="addr:street" v="U.S. Route 2"/>
    <tag k="addr:state" v="VT"/>
    <tag k="ref:vcgi:esiteid" v="152649"/>
  </node>
  <node id="-236" visible="true" lat="44.35143816" lon="-72.35369369">
    <tag k="addr:housenumber" v="1696"/>
    <tag k="addr:street" v="U.S. Route 2"/>
    <tag k="addr:state" v="VT"/>
    <tag k="ref:vcgi:esiteid" v="152650"/>
  </node>
  <node id="-237" visible="true" lat="44.35131454" lon="-72.34984588">
    <tag k="addr:housenumber" v="20"/>
    <tag k="addr:street" v="Gilman Street"/>
    <tag k="addr:state" v="VT"/>
    <tag k="ref:vcgi:esiteid" v="152651"/>
  </node>
  <node id="-239" visible="true" lat="44.35138629" lon="-72.35534396">
    <tag k="addr:housenumber" v="4"/>
    <tag k="addr:street" v="English Cemetery Road"/>
    <tag k="addr:state" v="VT"/>
    <tag k="ref:vcgi:esiteid" v="152653"/>
  </node>
  <node id="-240" visible="true" lat="44.3511997" lon="-72.35113766">
    <tag k="addr:housenumber" v="1575"/>
    <tag k="addr:street" v="U.S. Route 2"/>
    <tag k="addr:state" v="VT"/>
    <tag k="ref:vcgi:esiteid" v="152654"/>
  </node>
  <node id="-241" visible="true" lat="44.3510561" lon="-72.35349274">
    <tag k="addr:housenumber" v="1689"/>
    <tag k="addr:street" v="U.S. Route 2"/>
    <tag k="addr:state" v="VT"/>
    <tag k="ref:vcgi:esiteid" v="152655"/>
  </node>
  <node id="-242" visible="true" lat="44.35114113" lon="-72.35415538">
    <tag k="addr:housenumber" v="1715"/>
    <tag k="addr:street" v="U.S. Route 2"/>
    <tag k="addr:state" v="VT"/>
    <tag k="ref:vcgi:esiteid" v="152656"/>
  </node>
  <node id="-243" visible="true" lat="44.35102487" lon="-72.35266289">
    <tag k="addr:housenumber" v="1651"/>
    <tag k="addr:street" v="U.S. Route 2"/>
    <tag k="addr:state" v="VT"/>
    <tag k="ref:vcgi:esiteid" v="152657"/>
  </node>
  <node id="-244" visible="true" lat="44.35113027" lon="-72.35167987">
    <tag k="addr:housenumber" v="1611"/>
    <tag k="addr:street" v="U.S. Route 2"/>
    <tag k="addr:state" v="VT"/>
    <tag k="ref:vcgi:esiteid" v="152658"/>
  </node>
  <node id="-246" visible="true" lat="44.35116302" lon="-72.35432616">
    <tag k="addr:housenumber" v="1733"/>
    <tag k="addr:street" v="U.S. Route 2"/>
    <tag k="addr:state" v="VT"/>
    <tag k="ref:vcgi:esiteid" v="152660"/>
  </node>
  <node id="-247" visible="true" lat="44.35109682" lon="-72.35241686">
    <tag k="addr:housenumber" v="1637"/>
    <tag k="addr:street" v="U.S. Route 2"/>
    <tag k="addr:state" v="VT"/>
    <tag k="ref:vcgi:esiteid" v="152661"/>
  </node>
  <node id="-248" visible="true" lat="44.3510949" lon="-72.35391916">
    <tag k="addr:housenumber" v="1709"/>
    <tag k="addr:street" v="U.S. Route 2"/>
    <tag k="addr:state" v="VT"/>
    <tag k="ref:vcgi:esiteid" v="152662"/>
  </node>
  <node id="-249" visible="true" lat="44.35100305" lon="-72.35321386">
    <tag k="addr:housenumber" v="1669"/>
    <tag k="addr:street" v="U.S. Route 2"/>
    <tag k="addr:state" v="VT"/>
    <tag k="ref:vcgi:esiteid" v="152663"/>
  </node>
  <node id="-250" visible="true" lat="44.35100905" lon="-72.35291706">
    <tag k="addr:housenumber" v="1661"/>
    <tag k="addr:street" v="U.S. Route 2"/>
    <tag k="addr:state" v="VT"/>
    <tag k="ref:vcgi:esiteid" v="152664"/>
  </node>
  <node id="-251" visible="true" lat="44.3510971" lon="-72.33803558">
    <tag k="addr:housenumber" v="325"/>
    <tag k="addr:street" v="Folsom Hill Road"/>
    <tag k="addr:state" v="VT"/>
    <tag k="ref:vcgi:esiteid" v="152665"/>
  </node>
  <node id="-252" visible="true" lat="44.35084877" lon="-72.35224807">
    <tag k="addr:housenumber" v="12"/>
    <tag k="addr:street" v="Grist Mill Place"/>
    <tag k="addr:state" v="VT"/>
    <tag k="ref:vcgi:esiteid" v="152666"/>
  </node>
  <node id="-256" visible="true" lat="44.35070548" lon="-72.35352916">
    <tag k="addr:housenumber" v="23"/>
    <tag k="addr:street" v="School Street"/>
    <tag k="addr:state" v="VT"/>
    <tag k="ref:vcgi:esiteid" v="152670"/>
  </node>
  <node id="-258" visible="true" lat="44.35063743" lon="-72.35216627">
    <tag k="addr:housenumber" v="34"/>
    <tag k="addr:street" v="Grist Mill Place"/>
    <tag k="addr:state" v="VT"/>
    <tag k="ref:vcgi:esiteid" v="152672"/>
  </node>
  <node id="-265" visible="true" lat="44.35047149" lon="-72.33763885">
    <tag k="addr:housenumber" v="363"/>
    <tag k="addr:street" v="Folsom Hill Road"/>
    <tag k="addr:state" v="VT"/>
    <tag k="ref:vcgi:esiteid" v="152679"/>
  </node>
  <node id="-289" visible="true" lat="44.34845352" lon="-72.33597564">
    <tag k="addr:housenumber" v="531"/>
    <tag k="addr:street" v="Folsom Hill Road"/>
    <tag k="addr:state" v="VT"/>
    <tag k="ref:vcgi:esiteid" v="152703"/>
  </node>
  <node id="-319" visible="true" lat="44.34363555" lon="-72.33412933">
    <tag k="addr:housenumber" v="906"/>
    <tag k="addr:street" v="Folsom Hill Road"/>
    <tag k="addr:state" v="VT"/>
    <tag k="ref:vcgi:esiteid" v="152734"/>
  </node>
  <node id="-330" visible="true" lat="44.34226989" lon="-72.33151245">
    <tag k="addr:housenumber" v="1040"/>
    <tag k="addr:street" v="Folsom Hill Road"/>
    <tag k="addr:state" v="VT"/>
    <tag k="ref:vcgi:esiteid" v="152745"/>
  </node>
  <node id="-504" visible="true" lat="44.30716159" lon="-72.31231826">
    <tag k="addr:housenumber" v="338"/>
    <tag k="addr:street" v="Lanesboro Road"/>
    <tag k="addr:state" v="VT"/>
    <tag k="ref:vcgi:esiteid" v="152922"/>
  </node>
  <node id="-507" visible="true" lat="44.30678629" lon="-72.31247441">
    <tag k="addr:housenumber" v="361"/>
    <tag k="addr:street" v="Lanesboro Road"/>
    <tag k="addr:state" v="VT"/>
    <tag k="ref:vcgi:esiteid" v="152926"/>
  </node>
  <node id="-632" visible="true" lat="44.28194786" lon="-72.41987069">
    <tag k="addr:housenumber" v="82"/>
    <tag k="addr:street" v="Hollister Hill Road"/>
    <tag k="addr:state" v="VT"/>
    <tag k="ref:vcgi:esiteid" v="153055"/>
  </node>
  <node id="-641" visible="true" lat="44.28153344" lon="-72.41975377">
    <tag k="addr:housenumber" v="48"/>
    <tag k="addr:street" v="Hollister Hill Road"/>
    <tag k="addr:state" v="VT"/>
    <tag k="ref:vcgi:esiteid" v="153064"/>
  </node>
  <node id="-642" visible="true" lat="44.28129626" lon="-72.41952409">
    <tag k="addr:housenumber" v="32"/>
    <tag k="addr:street" v="Hollister Hill Road"/>
    <tag k="addr:state" v="VT"/>
    <tag k="ref:vcgi:esiteid" v="153065"/>
  </node>
  <node id="-649" visible="true" lat="44.28079571" lon="-72.41899675">
    <tag k="addr:housenumber" v="8053"/>
    <tag k="addr:street" v="U.S. Route 2"/>
    <tag k="addr:state" v="VT"/>
    <tag k="ref:vcgi:esiteid" v="153073"/>
  </node>
  <node id="-654" visible="true" lat="44.27978987" lon="-72.42102958">
    <tag k="addr:housenumber" v="8125"/>
    <tag k="addr:street" v="U.S. Route 2"/>
    <tag k="addr:state" v="VT"/>
    <tag k="ref:vcgi:esiteid" v="153079"/>
  </node>
  <node id="-655" visible="true" lat="44.27993307" lon="-72.42217776">
    <tag k="addr:housenumber" v="8176"/>
    <tag k="addr:street" v="U.S. Route 2"/>
    <tag k="addr:state" v="VT"/>
    <tag k="ref:vcgi:esiteid" v="153080"/>
  </node>
  <node id="-656" visible="true" lat="44.27973175" lon="-72.41957192">
    <tag k="addr:housenumber" v="8103"/>
    <tag k="addr:street" v="U.S. Route 2"/>
    <tag k="addr:state" v="VT"/>
    <tag k="ref:vcgi:esiteid" v="153081"/>
  </node>
  <node id="-657" visible="true" lat="44.27978593" lon="-72.42244795">
    <tag k="addr:housenumber" v="8184"/>
    <tag k="addr:street" v="U.S. Route 2"/>
    <tag k="addr:state" v="VT"/>
    <tag k="ref:vcgi:esiteid" v="153082"/>
  </node>
  <node id="-660" visible="true" lat="44.279536" lon="-72.42199653">
    <tag k="addr:housenumber" v="8195"/>
    <tag k="addr:street" v="U.S. Route 2"/>
    <tag k="addr:state" v="VT"/>
    <tag k="ref:vcgi:esiteid" v="153085"/>
  </node>
  <node id="-744" visible="true" lat="44.34935637" lon="-72.35511113">
    <tag k="addr:housenumber" v="122"/>
    <tag k="addr:street" v="School Street"/>
    <tag k="addr:state" v="VT"/>
    <tag k="ref:vcgi:esiteid" v="153171"/>
  </node>
  <node id="-745" visible="true" lat="44.35194675" lon="-72.34148998">
    <tag k="addr:housenumber" v="183"/>
    <tag k="addr:street" v="Folsom Hill Road"/>
    <tag k="addr:state" v="VT"/>
    <tag k="ref:vcgi:esiteid" v="153172"/>
  </node>
  <node id="-746" visible="true" lat="44.35157471" lon="-72.34333865">
    <tag k="addr:housenumber" v="110"/>
    <tag k="addr:street" v="Folsom Hill Road"/>
    <tag k="addr:state" v="VT"/>
    <tag k="ref:vcgi:esiteid" v="153173"/>
  </node>
  <node id="-751" visible="true" lat="44.30841411" lon="-72.30616279">
    <tag k="addr:housenumber" v="11"/>
    <tag k="addr:street" v="Lanesboro Road"/>
    <tag k="addr:state" v="VT"/>
    <tag k="ref:vcgi:esiteid" v="153179"/>
  </node>
  <node id="-755" visible="true" lat="44.35252667" lon="-72.34775162">
    <tag k="addr:housenumber" v="42"/>
    <tag k="addr:street" v="Cabot Road"/>
    <tag k="addr:state" v="VT"/>
    <tag k="ref:vcgi:esiteid" v="153183"/>
  </node>
  <node id="-756" visible="true" lat="44.2796584" lon="-72.42266002">
    <tag k="addr:housenumber" v="8202"/>
    <tag k="addr:street" v="U.S. Route 2"/>
    <tag k="addr:state" v="VT"/>
    <tag k="ref:vcgi:esiteid" v="153184"/>
  </node>
  <node id="-774" visible="true" lat="44.35142262" lon="-72.34216431">
    <tag k="addr:housenumber" v="142"/>
    <tag k="addr:street" v="Folsom Hill Road"/>
    <tag k="addr:state" v="VT"/>
    <tag k="ref:vcgi:esiteid" v="153203"/>
  </node>
  <node id="-782" visible="true" lat="44.35251472" lon="-72.35379537">
    <tag k="addr:housenumber" v="54"/>
    <tag k="addr:street" v="Creamery Street"/>
    <tag k="addr:state" v="VT"/>
    <tag k="ref:vcgi:esiteid" v="153211"/>
  </node>
  <node id="-788" visible="true" lat="44.34467819" lon="-72.33283094">
    <tag k="addr:housenumber" v="865"/>
    <tag k="addr:street" v="Folsom Hill Road"/>
    <tag k="addr:state" v="VT"/>
    <tag k="ref:vcgi:esiteid" v="153217"/>
  </node>
  <node id="-789" visible="true" lat="44.35404771" lon="-72.34639493">
    <tag k="addr:housenumber" v="175"/>
    <tag k="addr:street" v="Cabot Road"/>
    <tag k="addr:state" v="VT"/>
    <tag k="ref:vcgi:esiteid" v="153218"/>
  </node>
  <node id="-790" visible="true" lat="44.35150745" lon="-72.34760034">
    <tag k="addr:housenumber" v="1401"/>
    <tag k="addr:street" v="U.S. Route 2"/>
    <tag k="addr:state" v="VT"/>
    <tag k="ref:vcgi:esiteid" v="153219"/>
  </node>
  <node id="-792" visible="true" lat="44.35632249" lon="-72.33433017">
    <tag k="addr:housenumber" v="489"/>
    <tag k="addr:street" v="U.S. Route 2"/>
    <tag k="addr:state" v="VT"/>
    <tag k="ref:vcgi:esiteid" v="153221"/>
  </node>
  <node id="-793" visible="true" lat="44.35650904" lon="-72.33316088">
    <tag k="addr:housenumber" v="487"/>
    <tag k="addr:street" v="U.S. Route 2"/>
    <tag k="addr:state" v="VT"/>
    <tag k="ref:vcgi:esiteid" v="153222"/>
  </node>
  <node id="-796" visible="true" lat="44.35238304" lon="-72.3532705">
    <tag k="addr:housenumber" v="81"/>
    <tag k="addr:street" v="Church Street"/>
    <tag k="addr:state" v="VT"/>
    <tag k="ref:vcgi:esiteid" v="153225"/>
  </node>
  <node id="-802" visible="true" lat="44.35277387" lon="-72.3533745">
    <tag k="addr:housenumber" v="83"/>
    <tag k="addr:street" v="Church Street"/>
    <tag k="addr:state" v="VT"/>
    <tag k="ref:vcgi:esiteid" v="153231"/>
  </node>
  <node id="-807" visible="true" lat="44.35171046" lon="-72.33875022">
    <tag k="addr:housenumber" v="281"/>
    <tag k="addr:street" v="Folsom Hill Road"/>
    <tag k="addr:state" v="VT"/>
    <tag k="ref:vcgi:esiteid" v="153236"/>
  </node>
  <node id="-817" visible="true" lat="44.35550912" lon="-72.33887598">
    <tag k="addr:housenumber" v="910"/>
    <tag k="addr:street" v="U.S. Route 2"/>
    <tag k="addr:state" v="VT"/>
    <tag k="ref:vcgi:esiteid" v="153246"/>
  </node>
  <node id="-842" visible="true" lat="44.35351049" lon="-72.34416547">
    <tag k="addr:housenumber" v="1300"/>
    <tag k="addr:street" v="U.S. Route 2"/>
    <tag k="addr:state" v="VT"/>
    <tag k="ref:vcgi:esiteid" v="326405"/>
  </node>
  <node id="-849" visible="true" lat="44.36233045" lon="-72.33564931">
    <tag k="addr:housenumber" v="978"/>
    <tag k="addr:street" v="Cabot Road"/>
    <tag k="addr:state" v="VT"/>
    <tag k="ref:vcgi:esiteid" v="331618"/>
  </node>
  <node id="-852" visible="true" lat="44.31026799" lon="-72.30796839">
    <tag k="addr:housenumber" v="128"/>
    <tag k="addr:street" v="Lanesboro Road"/>
    <tag k="addr:state" v="VT"/>
    <tag k="ref:vcgi:esiteid" v="332435"/>
  </node>
  <node id="-857" visible="true" lat="44.34466937" lon="-72.33720397">
    <tag k="addr:housenumber" v="682"/>
    <tag k="addr:street" v="Folsom Hill Road"/>
    <tag k="addr:state" v="VT"/>
    <tag k="ref:vcgi:esiteid" v="340877"/>
  </node>
  <node id="-875" visible="true" lat="44.35173891" lon="-72.34353115">
    <tag k="addr:housenumber" v="108"/>
    <tag k="addr:street" v="Folsom Hill Road"/>
    <tag k="addr:state" v="VT"/>
    <tag k="ref:vcgi:esiteid" v="455435"/>
  </node>
</osm>
