<?xml version="1.0" encoding="UTF-8"?>
<osm version="0.6" generator="JOSM">
  <node id="-663" visible="true" lat="43.6557472" lon="-72.87318293">
    <!-- conflict: "68 Birchwood Avenue, Mendon, VT" Fuzzy match to "68 Birchwood, Mendon, VT" -->
    <tag k="addr:city" v="Mendon"/>
    <tag k="addr:housenumber" v="68"/>
    <tag k="addr:street" v="Birchwood Avenue"/>
    <tag k="addr:state" v="VT"/>
    <tag k="ref:vcgi:esiteid" v="153827"/>
  </node>
  <node id="-717" visible="true" lat="43.656622" lon="-72.87315799">
    <!-- conflict: "15 Birchwood Avenue, Mendon, VT" Fuzzy match to "15 Birchwood, Mendon, VT" -->
    <tag k="addr:city" v="Mendon"/>
    <tag k="addr:housenumber" v="15"/>
    <tag k="addr:street" v="Birchwood Avenue"/>
    <tag k="addr:state" v="VT"/>
    <tag k="ref:vcgi:esiteid" v="311111"/>
  </node>
  <node id="-759" visible="true" lat="43.67308318" lon="-72.84293002">
    <!-- conflict: "58 Windrift Ridge Road, Mendon, VT" Fuzzy match to "58 Windrift Ridge Road, Killington, VT" -->
    <tag k="addr:city" v="Mendon"/>
    <tag k="addr:housenumber" v="58"/>
    <tag k="addr:street" v="Windrift Ridge Road"/>
    <tag k="addr:state" v="VT"/>
    <tag k="ref:vcgi:esiteid" v="341012"/>
  </node>
  <node id="-763" visible="true" lat="43.67282775" lon="-72.84303805">
    <!-- conflict: "42 Windrift Ridge Road, Mendon, VT" Fuzzy match to "42 Windrift Ridge Road, Killington, VT" -->
    <tag k="addr:city" v="Mendon"/>
    <tag k="addr:housenumber" v="42"/>
    <tag k="addr:street" v="Windrift Ridge Road"/>
    <tag k="addr:state" v="VT"/>
    <tag k="ref:vcgi:esiteid" v="342535"/>
  </node>
  <node id="-764" visible="true" lat="43.67283431" lon="-72.84301353">
    <!-- conflict: "44 Windrift Ridge Road, Mendon, VT" Fuzzy match to "44 Windrift Ridge Road, Killington, VT" -->
    <tag k="addr:city" v="Mendon"/>
    <tag k="addr:housenumber" v="44"/>
    <tag k="addr:street" v="Windrift Ridge Road"/>
    <tag k="addr:state" v="VT"/>
    <tag k="ref:vcgi:esiteid" v="342536"/>
  </node>
</osm>
