<?xml version="1.0" encoding="UTF-8"?>
<osm version="0.6" generator="JOSM">
  <node id="-137" visible="true" lat="44.3599739" lon="-72.58092498">
    <tag k="addr:city" v="Middlesex"/>
    <tag k="addr:housenumber" v="259"/>
    <tag k="addr:street" v="Wood Road"/>
    <tag k="addr:state" v="VT"/>
    <tag k="ref:vcgi:esiteid" v="156874"/>
  </node>
  <node id="-188" visible="true" lat="44.35096487" lon="-72.60272671">
    <tag k="addr:city" v="Middlesex"/>
    <tag k="addr:housenumber" v="433"/>
    <tag k="addr:street" v="Shady Rill Road"/>
    <tag k="addr:state" v="VT"/>
    <tag k="ref:vcgi:esiteid" v="156926"/>
  </node>
  <node id="-232" visible="true" lat="44.34556579" lon="-72.60999298">
    <tag k="addr:city" v="Middlesex"/>
    <tag k="addr:housenumber" v="556"/>
    <tag k="addr:street" v="Shady Rill Road"/>
    <tag k="addr:state" v="VT"/>
    <tag k="ref:vcgi:esiteid" v="156971"/>
  </node>
  <node id="-235" visible="true" lat="44.34519839" lon="-72.61018343">
    <tag k="addr:city" v="Middlesex"/>
    <tag k="addr:housenumber" v="560"/>
    <tag k="addr:street" v="Shady Rill Road"/>
    <tag k="addr:state" v="VT"/>
    <tag k="ref:vcgi:esiteid" v="156974"/>
  </node>
  <node id="-241" visible="true" lat="44.34453582" lon="-72.61055755">
    <tag k="addr:city" v="Middlesex"/>
    <tag k="addr:housenumber" v="572"/>
    <tag k="addr:street" v="Shady Rill Road"/>
    <tag k="addr:state" v="VT"/>
    <tag k="ref:vcgi:esiteid" v="156980"/>
  </node>
  <node id="-247" visible="true" lat="44.34395452" lon="-72.60980562">
    <tag k="addr:city" v="Middlesex"/>
    <tag k="addr:housenumber" v="575"/>
    <tag k="addr:street" v="Shady Rill Road"/>
    <tag k="addr:state" v="VT"/>
    <tag k="ref:vcgi:esiteid" v="156986"/>
  </node>
  <node id="-249" visible="true" lat="44.34394454" lon="-72.61398315">
    <tag k="addr:city" v="Middlesex"/>
    <tag k="addr:housenumber" v="31"/>
    <tag k="addr:street" v="Pr 2"/>
    <tag k="addr:state" v="VT"/>
    <tag k="ref:vcgi:esiteid" v="156988"/>
  </node>
  <node id="-250" visible="true" lat="44.3437767" lon="-72.6131134">
    <tag k="addr:city" v="Middlesex"/>
    <tag k="addr:housenumber" v="25"/>
    <tag k="addr:street" v="Pr 2"/>
    <tag k="addr:state" v="VT"/>
    <tag k="ref:vcgi:esiteid" v="156989"/>
  </node>
  <node id="-256" visible="true" lat="44.34273618" lon="-72.61141006">
    <tag k="addr:city" v="Middlesex"/>
    <tag k="addr:housenumber" v="598"/>
    <tag k="addr:street" v="Shady Rill Road"/>
    <tag k="addr:state" v="VT"/>
    <tag k="ref:vcgi:esiteid" v="156995"/>
  </node>
  <node id="-260" visible="true" lat="44.34192947" lon="-72.61162671">
    <tag k="addr:city" v="Middlesex"/>
    <tag k="addr:housenumber" v="610"/>
    <tag k="addr:street" v="Shady Rill Road"/>
    <tag k="addr:state" v="VT"/>
    <tag k="ref:vcgi:esiteid" v="156999"/>
  </node>
  <node id="-262" visible="true" lat="44.34175109" lon="-72.60974883">
    <tag k="addr:city" v="Middlesex"/>
    <tag k="addr:housenumber" v="19"/>
    <tag k="addr:street" v="French Road"/>
    <tag k="addr:state" v="VT"/>
    <tag k="ref:vcgi:esiteid" v="157001"/>
  </node>
  <node id="-264" visible="true" lat="44.34169006" lon="-72.60870361">
    <tag k="addr:city" v="Middlesex"/>
    <tag k="addr:housenumber" v="27"/>
    <tag k="addr:street" v="French Road"/>
    <tag k="addr:state" v="VT"/>
    <tag k="ref:vcgi:esiteid" v="157003"/>
  </node>
  <node id="-265" visible="true" lat="44.34166336" lon="-72.60794067">
    <tag k="addr:city" v="Middlesex"/>
    <tag k="addr:housenumber" v="37"/>
    <tag k="addr:street" v="French Road"/>
    <tag k="addr:state" v="VT"/>
    <tag k="ref:vcgi:esiteid" v="157004"/>
  </node>
  <node id="-266" visible="true" lat="44.34215409" lon="-72.60690482">
    <tag k="addr:city" v="Middlesex"/>
    <tag k="addr:housenumber" v="41"/>
    <tag k="addr:street" v="French Road"/>
    <tag k="addr:state" v="VT"/>
    <tag k="ref:vcgi:esiteid" v="157005"/>
  </node>
  <node id="-267" visible="true" lat="44.34157566" lon="-72.61101483">
    <tag k="addr:city" v="Middlesex"/>
    <tag k="addr:housenumber" v="3"/>
    <tag k="addr:street" v="Molly Supple Hill Road"/>
    <tag k="addr:state" v="VT"/>
    <tag k="ref:vcgi:esiteid" v="157006"/>
  </node>
  <node id="-269" visible="true" lat="44.34151156" lon="-72.60700256">
    <tag k="addr:city" v="Middlesex"/>
    <tag k="addr:housenumber" v="47"/>
    <tag k="addr:street" v="French Road"/>
    <tag k="addr:state" v="VT"/>
    <tag k="ref:vcgi:esiteid" v="157008"/>
  </node>
  <node id="-270" visible="true" lat="44.34153747" lon="-72.60615539">
    <tag k="addr:city" v="Middlesex"/>
    <tag k="addr:housenumber" v="55"/>
    <tag k="addr:street" v="French Road"/>
    <tag k="addr:state" v="VT"/>
    <tag k="ref:vcgi:esiteid" v="157009"/>
  </node>
  <node id="-277" visible="true" lat="44.34101339" lon="-72.61176993">
    <tag k="addr:city" v="Middlesex"/>
    <tag k="addr:housenumber" v="14"/>
    <tag k="addr:street" v="Molly Supple Hill Road"/>
    <tag k="addr:state" v="VT"/>
    <tag k="ref:vcgi:esiteid" v="157016"/>
  </node>
  <node id="-291" visible="true" lat="44.34007746" lon="-72.6123963">
    <tag k="addr:city" v="Middlesex"/>
    <tag k="addr:housenumber" v="30"/>
    <tag k="addr:street" v="Molly Supple Hill Road"/>
    <tag k="addr:state" v="VT"/>
    <tag k="ref:vcgi:esiteid" v="157031"/>
  </node>
  <node id="-301" visible="true" lat="44.33898162" lon="-72.61835479">
    <tag k="addr:city" v="Middlesex"/>
    <tag k="addr:housenumber" v="90"/>
    <tag k="addr:street" v="Molly Supple Hill Road"/>
    <tag k="addr:state" v="VT"/>
    <tag k="ref:vcgi:esiteid" v="157041"/>
  </node>
  <node id="-303" visible="true" lat="44.33858489" lon="-72.61414337">
    <tag k="addr:city" v="Middlesex"/>
    <tag k="addr:housenumber" v="58"/>
    <tag k="addr:street" v="Molly Supple Hill Road"/>
    <tag k="addr:state" v="VT"/>
    <tag k="ref:vcgi:esiteid" v="157043"/>
  </node>
  <node id="-316" visible="true" lat="44.3368988" lon="-72.61671447">
    <tag k="addr:city" v="Middlesex"/>
    <tag k="addr:housenumber" v="95"/>
    <tag k="addr:street" v="Molly Supple Hill Road"/>
    <tag k="addr:state" v="VT"/>
    <tag k="ref:vcgi:esiteid" v="157056"/>
  </node>
  <node id="-320" visible="true" lat="44.33651351" lon="-72.6187973">
    <tag k="addr:city" v="Middlesex"/>
    <tag k="addr:housenumber" v="114"/>
    <tag k="addr:street" v="Molly Supple Hill Road"/>
    <tag k="addr:state" v="VT"/>
    <tag k="ref:vcgi:esiteid" v="157060"/>
  </node>
  <node id="-321" visible="true" lat="44.33607101" lon="-72.6194992">
    <tag k="addr:city" v="Middlesex"/>
    <tag k="addr:housenumber" v="124"/>
    <tag k="addr:street" v="Molly Supple Hill Road"/>
    <tag k="addr:state" v="VT"/>
    <tag k="ref:vcgi:esiteid" v="157061"/>
  </node>
  <node id="-325" visible="true" lat="44.33565521" lon="-72.61815643">
    <tag k="addr:city" v="Middlesex"/>
    <tag k="addr:housenumber" v="121"/>
    <tag k="addr:street" v="Molly Supple Hill Road"/>
    <tag k="addr:state" v="VT"/>
    <tag k="ref:vcgi:esiteid" v="157065"/>
  </node>
  <node id="-330" visible="true" lat="44.33518218" lon="-72.62036132">
    <tag k="addr:city" v="Middlesex"/>
    <tag k="addr:housenumber" v="138"/>
    <tag k="addr:street" v="Molly Supple Hill Road"/>
    <tag k="addr:state" v="VT"/>
    <tag k="ref:vcgi:esiteid" v="157070"/>
  </node>
  <node id="-341" visible="true" lat="44.33135572" lon="-72.62081511">
    <tag k="addr:city" v="Middlesex"/>
    <tag k="addr:housenumber" v="189"/>
    <tag k="addr:street" v="Molly Supple Hill Road"/>
    <tag k="addr:state" v="VT"/>
    <tag k="ref:vcgi:esiteid" v="157081"/>
  </node>
  <node id="-344" visible="true" lat="44.33090209" lon="-72.61757659">
    <tag k="addr:city" v="Middlesex"/>
    <tag k="addr:housenumber" v="165"/>
    <tag k="addr:street" v="Molly Supple Hill Road"/>
    <tag k="addr:state" v="VT"/>
    <tag k="ref:vcgi:esiteid" v="157084"/>
  </node>
  <node id="-353" visible="true" lat="44.32859802" lon="-72.62457275">
    <tag k="addr:city" v="Middlesex"/>
    <tag k="addr:housenumber" v="21"/>
    <tag k="addr:street" v="East Hill Road"/>
    <tag k="addr:state" v="VT"/>
    <tag k="ref:vcgi:esiteid" v="157093"/>
  </node>
  <node id="-357" visible="true" lat="44.3282051" lon="-72.62547302">
    <tag k="addr:city" v="Middlesex"/>
    <tag k="addr:housenumber" v="22"/>
    <tag k="addr:street" v="East Hill Road"/>
    <tag k="addr:state" v="VT"/>
    <tag k="ref:vcgi:esiteid" v="157097"/>
  </node>
  <node id="-364" visible="true" lat="44.32680129" lon="-72.62696838">
    <tag k="addr:city" v="Middlesex"/>
    <tag k="addr:housenumber" v="46"/>
    <tag k="addr:street" v="East Hill Road"/>
    <tag k="addr:state" v="VT"/>
    <tag k="ref:vcgi:esiteid" v="157104"/>
  </node>
  <node id="-376" visible="true" lat="44.32487487" lon="-72.62644195">
    <tag k="addr:city" v="Middlesex"/>
    <tag k="addr:housenumber" v="76"/>
    <tag k="addr:street" v="East Hill Road"/>
    <tag k="addr:state" v="VT"/>
    <tag k="ref:vcgi:esiteid" v="157116"/>
  </node>
  <node id="-377" visible="true" lat="44.32474136" lon="-72.62503051">
    <tag k="addr:city" v="Middlesex"/>
    <tag k="addr:housenumber" v="75"/>
    <tag k="addr:street" v="East Hill Road"/>
    <tag k="addr:state" v="VT"/>
    <tag k="ref:vcgi:esiteid" v="157117"/>
  </node>
  <node id="-395" visible="true" lat="44.32225418" lon="-72.62612152">
    <tag k="addr:city" v="Middlesex"/>
    <tag k="addr:housenumber" v="114"/>
    <tag k="addr:street" v="East Hill Road"/>
    <tag k="addr:state" v="VT"/>
    <tag k="ref:vcgi:esiteid" v="157135"/>
  </node>
  <node id="-396" visible="true" lat="44.32220458" lon="-72.6238327">
    <tag k="addr:city" v="Middlesex"/>
    <tag k="addr:housenumber" v="131"/>
    <tag k="addr:street" v="East Hill Road"/>
    <tag k="addr:state" v="VT"/>
    <tag k="ref:vcgi:esiteid" v="157136"/>
  </node>
  <node id="-404" visible="true" lat="44.32133483" lon="-72.62649536">
    <tag k="addr:city" v="Middlesex"/>
    <tag k="addr:housenumber" v="126"/>
    <tag k="addr:street" v="East Hill Road"/>
    <tag k="addr:state" v="VT"/>
    <tag k="ref:vcgi:esiteid" v="157144"/>
  </node>
  <node id="-427" visible="true" lat="44.31806182" lon="-72.62670898">
    <tag k="addr:city" v="Middlesex"/>
    <tag k="addr:housenumber" v="16"/>
    <tag k="addr:street" v="McCullough Hill Road"/>
    <tag k="addr:state" v="VT"/>
    <tag k="ref:vcgi:esiteid" v="157167"/>
  </node>
  <node id="-429" visible="true" lat="44.31824536" lon="-72.62357665">
    <tag k="addr:city" v="Middlesex"/>
    <tag k="addr:housenumber" v="179"/>
    <tag k="addr:street" v="East Hill Road"/>
    <tag k="addr:state" v="VT"/>
    <tag k="ref:vcgi:esiteid" v="157169"/>
  </node>
  <node id="-443" visible="true" lat="44.31676483" lon="-72.62498474">
    <tag k="addr:city" v="Middlesex"/>
    <tag k="addr:housenumber" v="194"/>
    <tag k="addr:street" v="East Hill Road"/>
    <tag k="addr:state" v="VT"/>
    <tag k="ref:vcgi:esiteid" v="157183"/>
  </node>
  <node id="-446" visible="true" lat="44.31661605" lon="-72.62380981">
    <tag k="addr:city" v="Middlesex"/>
    <tag k="addr:housenumber" v="205"/>
    <tag k="addr:street" v="East Hill Road"/>
    <tag k="addr:state" v="VT"/>
    <tag k="ref:vcgi:esiteid" v="157186"/>
  </node>
  <node id="-447" visible="true" lat="44.31654225" lon="-72.62810846">
    <tag k="addr:city" v="Middlesex"/>
    <tag k="addr:housenumber" v="42"/>
    <tag k="addr:street" v="McCullough Hill Road"/>
    <tag k="addr:state" v="VT"/>
    <tag k="ref:vcgi:esiteid" v="157187"/>
  </node>
  <node id="-456" visible="true" lat="44.31579971" lon="-72.62683105">
    <tag k="addr:city" v="Middlesex"/>
    <tag k="addr:housenumber" v="45"/>
    <tag k="addr:street" v="McCullough Hill Road"/>
    <tag k="addr:state" v="VT"/>
    <tag k="ref:vcgi:esiteid" v="157196"/>
  </node>
  <node id="-459" visible="true" lat="44.31570434" lon="-72.62369537">
    <tag k="addr:city" v="Middlesex"/>
    <tag k="addr:housenumber" v="217"/>
    <tag k="addr:street" v="East Hill Road"/>
    <tag k="addr:state" v="VT"/>
    <tag k="ref:vcgi:esiteid" v="157199"/>
  </node>
  <node id="-466" visible="true" lat="44.31445312" lon="-72.62404632">
    <tag k="addr:city" v="Middlesex"/>
    <tag k="addr:housenumber" v="224"/>
    <tag k="addr:street" v="East Hill Road"/>
    <tag k="addr:state" v="VT"/>
    <tag k="ref:vcgi:esiteid" v="157206"/>
  </node>
  <node id="-469" visible="true" lat="44.31414397" lon="-72.62940962">
    <tag k="addr:city" v="Middlesex"/>
    <tag k="addr:housenumber" v="84"/>
    <tag k="addr:street" v="McCullough Hill Road"/>
    <tag k="addr:state" v="VT"/>
    <tag k="ref:vcgi:esiteid" v="157209"/>
  </node>
  <node id="-470" visible="true" lat="44.3138771" lon="-72.62126159">
    <tag k="addr:city" v="Middlesex"/>
    <tag k="addr:housenumber" v="259"/>
    <tag k="addr:street" v="East Hill Road"/>
    <tag k="addr:state" v="VT"/>
    <tag k="ref:vcgi:esiteid" v="157210"/>
  </node>
  <node id="-478" visible="true" lat="44.31351852" lon="-72.62720489">
    <tag k="addr:city" v="Middlesex"/>
    <tag k="addr:housenumber" v="89"/>
    <tag k="addr:street" v="McCullough Hill Road"/>
    <tag k="addr:state" v="VT"/>
    <tag k="ref:vcgi:esiteid" v="157218"/>
  </node>
  <node id="-497" visible="true" lat="44.31115341" lon="-72.62055206">
    <tag k="addr:city" v="Middlesex"/>
    <tag k="addr:housenumber" v="280"/>
    <tag k="addr:street" v="East Hill Road"/>
    <tag k="addr:state" v="VT"/>
    <tag k="ref:vcgi:esiteid" v="157237"/>
  </node>
  <node id="-505" visible="true" lat="44.31023406" lon="-72.61907195">
    <tag k="addr:city" v="Middlesex"/>
    <tag k="addr:housenumber" v="300"/>
    <tag k="addr:street" v="East Hill Road"/>
    <tag k="addr:state" v="VT"/>
    <tag k="ref:vcgi:esiteid" v="157245"/>
  </node>
  <node id="-515" visible="true" lat="44.30942916" lon="-72.6164627">
    <tag k="addr:city" v="Middlesex"/>
    <tag k="addr:housenumber" v="335"/>
    <tag k="addr:street" v="East Hill Road"/>
    <tag k="addr:state" v="VT"/>
    <tag k="ref:vcgi:esiteid" v="157255"/>
  </node>
  <node id="-530" visible="true" lat="44.30842971" lon="-72.61396026">
    <tag k="addr:city" v="Middlesex"/>
    <tag k="addr:housenumber" v="373"/>
    <tag k="addr:street" v="East Hill Road"/>
    <tag k="addr:state" v="VT"/>
    <tag k="ref:vcgi:esiteid" v="157270"/>
  </node>
  <node id="-541" visible="true" lat="44.30689456" lon="-72.58188452">
    <tag k="addr:city" v="Middlesex"/>
    <tag k="addr:housenumber" v="30"/>
    <tag k="addr:street" v="Bolduc Road"/>
    <tag k="addr:state" v="VT"/>
    <tag k="ref:vcgi:esiteid" v="157281"/>
  </node>
  <node id="-542" visible="true" lat="44.30679702" lon="-72.5824356">
    <tag k="addr:city" v="Middlesex"/>
    <tag k="addr:housenumber" v="34"/>
    <tag k="addr:street" v="Bolduc Road"/>
    <tag k="addr:state" v="VT"/>
    <tag k="ref:vcgi:esiteid" v="157282"/>
  </node>
  <node id="-543" visible="true" lat="44.30681417" lon="-72.58119652">
    <tag k="addr:city" v="Middlesex"/>
    <tag k="addr:housenumber" v="24"/>
    <tag k="addr:street" v="Bolduc Road"/>
    <tag k="addr:state" v="VT"/>
    <tag k="ref:vcgi:esiteid" v="157283"/>
  </node>
  <node id="-546" visible="true" lat="44.30642571" lon="-72.61252767">
    <tag k="addr:city" v="Middlesex"/>
    <tag k="addr:housenumber" v="396"/>
    <tag k="addr:street" v="East Hill Road"/>
    <tag k="addr:state" v="VT"/>
    <tag k="ref:vcgi:esiteid" v="157286"/>
  </node>
  <node id="-548" visible="true" lat="44.30624242" lon="-72.58042436">
    <tag k="addr:city" v="Middlesex"/>
    <tag k="addr:housenumber" v="14"/>
    <tag k="addr:street" v="Bolduc Road"/>
    <tag k="addr:state" v="VT"/>
    <tag k="ref:vcgi:esiteid" v="157288"/>
  </node>
  <node id="-549" visible="true" lat="44.30621994" lon="-72.58345921">
    <tag k="addr:city" v="Middlesex"/>
    <tag k="addr:housenumber" v="48"/>
    <tag k="addr:street" v="Bolduc Road"/>
    <tag k="addr:state" v="VT"/>
    <tag k="ref:vcgi:esiteid" v="157289"/>
  </node>
  <node id="-550" visible="true" lat="44.30621036" lon="-72.58533206">
    <tag k="addr:city" v="Middlesex"/>
    <tag k="addr:housenumber" v="68"/>
    <tag k="addr:street" v="Bolduc Road"/>
    <tag k="addr:state" v="VT"/>
    <tag k="ref:vcgi:esiteid" v="157290"/>
  </node>
  <node id="-555" visible="true" lat="44.30584195" lon="-72.5854572">
    <tag k="addr:city" v="Middlesex"/>
    <tag k="addr:housenumber" v="71"/>
    <tag k="addr:street" v="Bolduc Road"/>
    <tag k="addr:state" v="VT"/>
    <tag k="ref:vcgi:esiteid" v="157295"/>
  </node>
  <node id="-557" visible="true" lat="44.30547714" lon="-72.60996246">
    <tag k="addr:city" v="Middlesex"/>
    <tag k="addr:housenumber" v="433"/>
    <tag k="addr:street" v="East Hill Road"/>
    <tag k="addr:state" v="VT"/>
    <tag k="ref:vcgi:esiteid" v="157297"/>
  </node>
  <node id="-559" visible="true" lat="44.30536555" lon="-72.61645145">
    <tag k="addr:city" v="Middlesex"/>
    <tag k="addr:housenumber" v="27"/>
    <tag k="addr:street" v="Feral Mountain Road"/>
    <tag k="addr:state" v="VT"/>
    <tag k="ref:vcgi:esiteid" v="157299"/>
  </node>
  <node id="-560" visible="true" lat="44.30518382" lon="-72.58000773">
    <tag k="addr:city" v="Middlesex"/>
    <tag k="addr:housenumber" v="1"/>
    <tag k="addr:street" v="Bolduc Road"/>
    <tag k="addr:state" v="VT"/>
    <tag k="ref:vcgi:esiteid" v="157300"/>
  </node>
  <node id="-562" visible="true" lat="44.30481233" lon="-72.58469614">
    <tag k="addr:city" v="Middlesex"/>
    <tag k="addr:housenumber" v="13"/>
    <tag k="addr:street" v="Portal Road"/>
    <tag k="addr:state" v="VT"/>
    <tag k="ref:vcgi:esiteid" v="157302"/>
  </node>
  <node id="-563" visible="true" lat="44.30456486" lon="-72.58487662">
    <tag k="addr:city" v="Middlesex"/>
    <tag k="addr:housenumber" v="17"/>
    <tag k="addr:street" v="Portal Road"/>
    <tag k="addr:state" v="VT"/>
    <tag k="ref:vcgi:esiteid" v="157303"/>
  </node>
  <node id="-565" visible="true" lat="44.30446243" lon="-72.60713958">
    <tag k="addr:city" v="Middlesex"/>
    <tag k="addr:housenumber" v="467"/>
    <tag k="addr:street" v="East Hill Road"/>
    <tag k="addr:state" v="VT"/>
    <tag k="ref:vcgi:esiteid" v="157305"/>
  </node>
  <node id="-566" visible="true" lat="44.30417259" lon="-72.58588028">
    <tag k="addr:city" v="Middlesex"/>
    <tag k="addr:housenumber" v="24"/>
    <tag k="addr:street" v="Portal Road"/>
    <tag k="addr:state" v="VT"/>
    <tag k="ref:vcgi:esiteid" v="157306"/>
  </node>
  <node id="-567" visible="true" lat="44.30422973" lon="-72.60815429">
    <tag k="addr:city" v="Middlesex"/>
    <tag k="addr:housenumber" v="454"/>
    <tag k="addr:street" v="East Hill Road"/>
    <tag k="addr:state" v="VT"/>
    <tag k="ref:vcgi:esiteid" v="157307"/>
  </node>
  <node id="-569" visible="true" lat="44.30394219" lon="-72.58605783">
    <tag k="addr:city" v="Middlesex"/>
    <tag k="addr:housenumber" v="28"/>
    <tag k="addr:street" v="Portal Road"/>
    <tag k="addr:state" v="VT"/>
    <tag k="ref:vcgi:esiteid" v="157309"/>
  </node>
  <node id="-571" visible="true" lat="44.30357762" lon="-72.58454785">
    <tag k="addr:city" v="Middlesex"/>
    <tag k="addr:housenumber" v="33"/>
    <tag k="addr:street" v="Portal Road"/>
    <tag k="addr:state" v="VT"/>
    <tag k="ref:vcgi:esiteid" v="157311"/>
  </node>
  <node id="-577" visible="true" lat="44.30278426" lon="-72.5858863">
    <tag k="addr:city" v="Middlesex"/>
    <tag k="addr:housenumber" v="48"/>
    <tag k="addr:street" v="Portal Road"/>
    <tag k="addr:state" v="VT"/>
    <tag k="ref:vcgi:esiteid" v="157317"/>
  </node>
  <node id="-589" visible="true" lat="44.30088235" lon="-72.69072853">
    <tag k="addr:city" v="Middlesex"/>
    <tag k="addr:housenumber" v="1080"/>
    <tag k="addr:street" v="U.S. Route 2"/>
    <tag k="addr:state" v="VT"/>
    <tag k="ref:vcgi:esiteid" v="157329"/>
  </node>
  <node id="-590" visible="true" lat="44.30122346" lon="-72.68997762">
    <tag k="addr:city" v="Middlesex"/>
    <tag k="addr:housenumber" v="1078"/>
    <tag k="addr:street" v="U.S. Route 2"/>
    <tag k="addr:state" v="VT"/>
    <tag k="ref:vcgi:esiteid" v="157330"/>
  </node>
  <node id="-593" visible="true" lat="44.30078126" lon="-72.58791272">
    <tag k="addr:city" v="Middlesex"/>
    <tag k="addr:housenumber" v="88"/>
    <tag k="addr:street" v="Portal Road"/>
    <tag k="addr:state" v="VT"/>
    <tag k="ref:vcgi:esiteid" v="157333"/>
  </node>
  <node id="-595" visible="true" lat="44.30059306" lon="-72.69325476">
    <tag k="addr:city" v="Middlesex"/>
    <tag k="addr:housenumber" v="56"/>
    <tag k="addr:street" v="Welch Park Drive"/>
    <tag k="addr:state" v="VT"/>
    <tag k="ref:vcgi:esiteid" v="157336"/>
  </node>
  <node id="-597" visible="true" lat="44.30022811" lon="-72.60424804">
    <tag k="addr:city" v="Middlesex"/>
    <tag k="addr:housenumber" v="449"/>
    <tag k="addr:street" v="Bolduc Road"/>
    <tag k="addr:state" v="VT"/>
    <tag k="ref:vcgi:esiteid" v="157338"/>
  </node>
  <node id="-598" visible="true" lat="44.30016004" lon="-72.5873246">
    <tag k="addr:city" v="Middlesex"/>
    <tag k="addr:housenumber" v="89"/>
    <tag k="addr:street" v="Portal Road"/>
    <tag k="addr:state" v="VT"/>
    <tag k="ref:vcgi:esiteid" v="157339"/>
  </node>
  <node id="-605" visible="true" lat="44.29905614" lon="-72.58997995">
    <tag k="addr:city" v="Middlesex"/>
    <tag k="addr:housenumber" v="120"/>
    <tag k="addr:street" v="Portal Road"/>
    <tag k="addr:state" v="VT"/>
    <tag k="ref:vcgi:esiteid" v="157351"/>
  </node>
  <node id="-608" visible="true" lat="44.29895019" lon="-72.60382843">
    <tag k="addr:city" v="Middlesex"/>
    <tag k="addr:housenumber" v="547"/>
    <tag k="addr:street" v="East Hill Road"/>
    <tag k="addr:state" v="VT"/>
    <tag k="ref:vcgi:esiteid" v="157354"/>
  </node>
  <node id="-610" visible="true" lat="44.29854965" lon="-72.68874359">
    <tag k="addr:city" v="Middlesex"/>
    <tag k="addr:housenumber" v="22"/>
    <tag k="addr:street" v="Knapp Road"/>
    <tag k="addr:state" v="VT"/>
    <tag k="ref:vcgi:esiteid" v="157357"/>
  </node>
  <node id="-612" visible="true" lat="44.2984848" lon="-72.58948516">
    <tag k="addr:city" v="Middlesex"/>
    <tag k="addr:housenumber" v="129"/>
    <tag k="addr:street" v="Portal Road"/>
    <tag k="addr:state" v="VT"/>
    <tag k="ref:vcgi:esiteid" v="157359"/>
  </node>
  <node id="-613" visible="true" lat="44.29822158" lon="-72.68943786">
    <tag k="addr:city" v="Middlesex"/>
    <tag k="addr:housenumber" v="1033"/>
    <tag k="addr:street" v="U.S. Route 2"/>
    <tag k="addr:state" v="VT"/>
    <tag k="ref:vcgi:esiteid" v="157360"/>
  </node>
  <node id="-614" visible="true" lat="44.29813783" lon="-72.59007483">
    <tag k="addr:city" v="Middlesex"/>
    <tag k="addr:housenumber" v="134"/>
    <tag k="addr:street" v="Portal Road"/>
    <tag k="addr:state" v="VT"/>
    <tag k="ref:vcgi:esiteid" v="157361"/>
  </node>
  <node id="-615" visible="true" lat="44.29786682" lon="-72.60406494">
    <tag k="addr:city" v="Middlesex"/>
    <tag k="addr:housenumber" v="555"/>
    <tag k="addr:street" v="East Hill Road"/>
    <tag k="addr:state" v="VT"/>
    <tag k="ref:vcgi:esiteid" v="157362"/>
  </node>
  <node id="-617" visible="true" lat="44.29770279" lon="-72.60437011">
    <tag k="addr:city" v="Middlesex"/>
    <tag k="addr:housenumber" v="561"/>
    <tag k="addr:street" v="East Hill Road"/>
    <tag k="addr:state" v="VT"/>
    <tag k="ref:vcgi:esiteid" v="157364"/>
  </node>
  <node id="-618" visible="true" lat="44.29750824" lon="-72.68673706">
    <tag k="addr:city" v="Middlesex"/>
    <tag k="addr:housenumber" v="4"/>
    <tag k="addr:street" v="Knapp Road"/>
    <tag k="addr:state" v="VT"/>
    <tag k="ref:vcgi:esiteid" v="157365"/>
  </node>
  <node id="-624" visible="true" lat="44.29728698" lon="-72.60478973">
    <tag k="addr:city" v="Middlesex"/>
    <tag k="addr:housenumber" v="566"/>
    <tag k="addr:street" v="East Hill Road"/>
    <tag k="addr:state" v="VT"/>
    <tag k="ref:vcgi:esiteid" v="157371"/>
  </node>
  <node id="-625" visible="true" lat="44.29728716" lon="-72.5907759">
    <tag k="addr:city" v="Middlesex"/>
    <tag k="addr:housenumber" v="156"/>
    <tag k="addr:street" v="Portal Road"/>
    <tag k="addr:state" v="VT"/>
    <tag k="ref:vcgi:esiteid" v="157372"/>
  </node>
  <node id="-626" visible="true" lat="44.29650115" lon="-72.60431671">
    <tag k="addr:city" v="Middlesex"/>
    <tag k="addr:housenumber" v="575"/>
    <tag k="addr:street" v="East Hill Road"/>
    <tag k="addr:state" v="VT"/>
    <tag k="ref:vcgi:esiteid" v="157373"/>
  </node>
  <node id="-628" visible="true" lat="44.29539489" lon="-72.60565185">
    <tag k="addr:city" v="Middlesex"/>
    <tag k="addr:housenumber" v="594"/>
    <tag k="addr:street" v="East Hill Road"/>
    <tag k="addr:state" v="VT"/>
    <tag k="ref:vcgi:esiteid" v="157375"/>
  </node>
  <node id="-629" visible="true" lat="44.29540032" lon="-72.59215795">
    <tag k="addr:city" v="Middlesex"/>
    <tag k="addr:housenumber" v="182"/>
    <tag k="addr:street" v="Portal Road"/>
    <tag k="addr:state" v="VT"/>
    <tag k="ref:vcgi:esiteid" v="157376"/>
  </node>
  <node id="-631" visible="true" lat="44.29492005" lon="-72.68394701">
    <tag k="addr:city" v="Middlesex"/>
    <tag k="addr:housenumber" v="977"/>
    <tag k="addr:street" v="U.S. Route 2"/>
    <tag k="addr:state" v="VT"/>
    <tag k="ref:vcgi:esiteid" v="157378"/>
  </node>
  <node id="-632" visible="true" lat="44.29499435" lon="-72.60054779">
    <tag k="addr:city" v="Middlesex"/>
    <tag k="addr:housenumber" v="601"/>
    <tag k="addr:street" v="East Hill Road"/>
    <tag k="addr:state" v="VT"/>
    <tag k="ref:vcgi:esiteid" v="157379"/>
  </node>
  <node id="-636" visible="true" lat="44.29483675" lon="-72.59297115">
    <tag k="addr:city" v="Middlesex"/>
    <tag k="addr:housenumber" v="190"/>
    <tag k="addr:street" v="Portal Road"/>
    <tag k="addr:state" v="VT"/>
    <tag k="ref:vcgi:esiteid" v="157385"/>
  </node>
  <node id="-641" visible="true" lat="44.29439163" lon="-72.59509277">
    <tag k="addr:city" v="Middlesex"/>
    <tag k="addr:housenumber" v="200"/>
    <tag k="addr:street" v="Portal Road"/>
    <tag k="addr:state" v="VT"/>
    <tag k="ref:vcgi:esiteid" v="157391"/>
  </node>
  <node id="-643" visible="true" lat="44.29411697" lon="-72.67951202">
    <tag k="addr:city" v="Middlesex"/>
    <tag k="addr:housenumber" v="49"/>
    <tag k="addr:street" v="Gallagher Road"/>
    <tag k="addr:state" v="VT"/>
    <tag k="ref:vcgi:esiteid" v="157393"/>
  </node>
  <node id="-646" visible="true" lat="44.29380875" lon="-72.68066601">
    <tag k="addr:city" v="Middlesex"/>
    <tag k="addr:housenumber" v="936"/>
    <tag k="addr:street" v="U.S. Route 2"/>
    <tag k="addr:state" v="VT"/>
    <tag k="ref:vcgi:esiteid" v="157397"/>
  </node>
  <node id="-647" visible="true" lat="44.29358664" lon="-72.68182117">
    <tag k="addr:city" v="Middlesex"/>
    <tag k="addr:housenumber" v="947"/>
    <tag k="addr:street" v="U.S. Route 2"/>
    <tag k="addr:state" v="VT"/>
    <tag k="ref:vcgi:esiteid" v="157398"/>
  </node>
  <node id="-648" visible="true" lat="44.29375518" lon="-72.67946866">
    <tag k="addr:city" v="Middlesex"/>
    <tag k="addr:housenumber" v="48"/>
    <tag k="addr:street" v="Gallagher Road"/>
    <tag k="addr:state" v="VT"/>
    <tag k="ref:vcgi:esiteid" v="157399"/>
  </node>
  <node id="-649" visible="true" lat="44.29367557" lon="-72.59339817">
    <tag k="addr:city" v="Middlesex"/>
    <tag k="addr:housenumber" v="210"/>
    <tag k="addr:street" v="Portal Road"/>
    <tag k="addr:state" v="VT"/>
    <tag k="ref:vcgi:esiteid" v="157400"/>
  </node>
  <node id="-651" visible="true" lat="44.29295419" lon="-72.67918488">
    <tag k="addr:city" v="Middlesex"/>
    <tag k="addr:housenumber" v="920"/>
    <tag k="addr:street" v="U.S. Route 2"/>
    <tag k="addr:state" v="VT"/>
    <tag k="ref:vcgi:esiteid" v="157402"/>
  </node>
  <node id="-652" visible="true" lat="44.29288058" lon="-72.67988591">
    <tag k="addr:city" v="Middlesex"/>
    <tag k="addr:housenumber" v="2"/>
    <tag k="addr:street" v="Church Street"/>
    <tag k="addr:state" v="VT"/>
    <tag k="ref:vcgi:esiteid" v="157403"/>
  </node>
  <node id="-654" visible="true" lat="44.29262924" lon="-72.68064117">
    <tag k="addr:city" v="Middlesex"/>
    <tag k="addr:housenumber" v="12"/>
    <tag k="addr:street" v="Church Street"/>
    <tag k="addr:state" v="VT"/>
    <tag k="ref:vcgi:esiteid" v="157406"/>
  </node>
  <node id="-655" visible="true" lat="44.29261016" lon="-72.67812347">
    <tag k="addr:city" v="Middlesex"/>
    <tag k="addr:housenumber" v="904"/>
    <tag k="addr:street" v="U.S. Route 2"/>
    <tag k="addr:state" v="VT"/>
    <tag k="ref:vcgi:esiteid" v="157407"/>
  </node>
  <node id="-656" visible="true" lat="44.29271499" lon="-72.67872491">
    <tag k="addr:city" v="Middlesex"/>
    <tag k="addr:housenumber" v="910"/>
    <tag k="addr:street" v="U.S. Route 2"/>
    <tag k="addr:state" v="VT"/>
    <tag k="ref:vcgi:esiteid" v="157408"/>
  </node>
  <node id="-658" visible="true" lat="44.2925415" lon="-72.67687988">
    <tag k="addr:city" v="Middlesex"/>
    <tag k="addr:housenumber" v="894"/>
    <tag k="addr:street" v="U.S. Route 2"/>
    <tag k="addr:state" v="VT"/>
    <tag k="ref:vcgi:esiteid" v="157410"/>
  </node>
  <node id="-659" visible="true" lat="44.2925803" lon="-72.67838421">
    <tag k="addr:city" v="Middlesex"/>
    <tag k="addr:housenumber" v="908"/>
    <tag k="addr:street" v="U.S. Route 2"/>
    <tag k="addr:state" v="VT"/>
    <tag k="ref:vcgi:esiteid" v="157411"/>
  </node>
  <node id="-660" visible="true" lat="44.29245306" lon="-72.67823948">
    <tag k="addr:city" v="Middlesex"/>
    <tag k="addr:housenumber" v="906"/>
    <tag k="addr:street" v="U.S. Route 2"/>
    <tag k="addr:state" v="VT"/>
    <tag k="ref:vcgi:esiteid" v="157412"/>
  </node>
  <node id="-661" visible="true" lat="44.29237973" lon="-72.68029546">
    <tag k="addr:city" v="Middlesex"/>
    <tag k="addr:housenumber" v="10"/>
    <tag k="addr:street" v="Church Street"/>
    <tag k="addr:state" v="VT"/>
    <tag k="ref:vcgi:esiteid" v="157413"/>
  </node>
  <node id="-662" visible="true" lat="44.29246229" lon="-72.6779594">
    <tag k="addr:city" v="Middlesex"/>
    <tag k="addr:housenumber" v="900"/>
    <tag k="addr:street" v="U.S. Route 2"/>
    <tag k="addr:state" v="VT"/>
    <tag k="ref:vcgi:esiteid" v="157414"/>
  </node>
  <node id="-663" visible="true" lat="44.29228973" lon="-72.67973327">
    <tag k="addr:city" v="Middlesex"/>
    <tag k="addr:housenumber" v="7"/>
    <tag k="addr:street" v="Church Street"/>
    <tag k="addr:state" v="VT"/>
    <tag k="ref:vcgi:esiteid" v="157415"/>
  </node>
  <node id="-664" visible="true" lat="44.29219208" lon="-72.68036021">
    <tag k="addr:city" v="Middlesex"/>
    <tag k="addr:housenumber" v="14"/>
    <tag k="addr:street" v="Church Street"/>
    <tag k="addr:state" v="VT"/>
    <tag k="ref:vcgi:esiteid" v="157416"/>
  </node>
  <node id="-666" visible="true" lat="44.2921564" lon="-72.67919406">
    <tag k="addr:city" v="Middlesex"/>
    <tag k="addr:housenumber" v="3"/>
    <tag k="addr:street" v="Church Street"/>
    <tag k="addr:state" v="VT"/>
    <tag k="ref:vcgi:esiteid" v="157418"/>
  </node>
  <node id="-668" visible="true" lat="44.29197099" lon="-72.68000135">
    <tag k="addr:city" v="Middlesex"/>
    <tag k="addr:housenumber" v="15"/>
    <tag k="addr:street" v="Church Street"/>
    <tag k="addr:state" v="VT"/>
    <tag k="ref:vcgi:esiteid" v="157420"/>
  </node>
  <node id="-669" visible="true" lat="44.29189843" lon="-72.67750011">
    <tag k="addr:city" v="Middlesex"/>
    <tag k="addr:housenumber" v="1"/>
    <tag k="addr:street" v="Ryan Road"/>
    <tag k="addr:state" v="VT"/>
    <tag k="ref:vcgi:esiteid" v="157421"/>
  </node>
  <node id="-670" visible="true" lat="44.29199981" lon="-72.68046569">
    <tag k="addr:city" v="Middlesex"/>
    <tag k="addr:housenumber" v="16"/>
    <tag k="addr:street" v="Church Street"/>
    <tag k="addr:state" v="VT"/>
    <tag k="ref:vcgi:esiteid" v="157423"/>
  </node>
  <node id="-671" visible="true" lat="44.29179496" lon="-72.67765538">
    <tag k="addr:city" v="Middlesex"/>
    <tag k="addr:housenumber" v="5"/>
    <tag k="addr:street" v="Ryan Road"/>
    <tag k="addr:state" v="VT"/>
    <tag k="ref:vcgi:esiteid" v="157424"/>
  </node>
  <node id="-673" visible="true" lat="44.29187011" lon="-72.68018341">
    <tag k="addr:city" v="Middlesex"/>
    <tag k="addr:housenumber" v="17"/>
    <tag k="addr:street" v="Church Street"/>
    <tag k="addr:state" v="VT"/>
    <tag k="ref:vcgi:esiteid" v="157426"/>
  </node>
  <node id="-674" visible="true" lat="44.29185491" lon="-72.59306919">
    <tag k="addr:city" v="Middlesex"/>
    <tag k="addr:housenumber" v="232"/>
    <tag k="addr:street" v="Portal Road"/>
    <tag k="addr:state" v="VT"/>
    <tag k="ref:vcgi:esiteid" v="157427"/>
  </node>
  <node id="-675" visible="true" lat="44.29121064" lon="-72.59179111">
    <tag k="addr:city" v="Middlesex"/>
    <tag k="addr:housenumber" v="241"/>
    <tag k="addr:street" v="Portal Road"/>
    <tag k="addr:state" v="VT"/>
    <tag k="ref:vcgi:esiteid" v="157428"/>
  </node>
  <node id="-676" visible="true" lat="44.29120254" lon="-72.60523223">
    <tag k="addr:city" v="Middlesex"/>
    <tag k="addr:housenumber" v="660"/>
    <tag k="addr:street" v="East Hill Road"/>
    <tag k="addr:state" v="VT"/>
    <tag k="ref:vcgi:esiteid" v="157429"/>
  </node>
  <node id="-677" visible="true" lat="44.29087448" lon="-72.67087555">
    <tag k="addr:city" v="Middlesex"/>
    <tag k="addr:housenumber" v="821"/>
    <tag k="addr:street" v="U.S. Route 2"/>
    <tag k="addr:state" v="VT"/>
    <tag k="ref:vcgi:esiteid" v="157430"/>
  </node>
  <node id="-678" visible="true" lat="44.29051562" lon="-72.67005342">
    <tag k="addr:city" v="Middlesex"/>
    <tag k="addr:housenumber" v="811"/>
    <tag k="addr:street" v="U.S. Route 2"/>
    <tag k="addr:state" v="VT"/>
    <tag k="ref:vcgi:esiteid" v="157431"/>
  </node>
  <node id="-679" visible="true" lat="44.29068374" lon="-72.60529327">
    <tag k="addr:city" v="Middlesex"/>
    <tag k="addr:housenumber" v="662"/>
    <tag k="addr:street" v="East Hill Road"/>
    <tag k="addr:state" v="VT"/>
    <tag k="ref:vcgi:esiteid" v="157432"/>
  </node>
  <node id="-680" visible="true" lat="44.2897377" lon="-72.61469268">
    <tag k="addr:city" v="Middlesex"/>
    <tag k="addr:housenumber" v="106"/>
    <tag k="addr:street" v="Davy Road"/>
    <tag k="addr:state" v="VT"/>
    <tag k="ref:vcgi:esiteid" v="157433"/>
  </node>
  <node id="-681" visible="true" lat="44.28963579" lon="-72.6137009">
    <tag k="addr:city" v="Middlesex"/>
    <tag k="addr:housenumber" v="82"/>
    <tag k="addr:street" v="Davy Road"/>
    <tag k="addr:state" v="VT"/>
    <tag k="ref:vcgi:esiteid" v="157434"/>
  </node>
  <node id="-682" visible="true" lat="44.28957799" lon="-72.59334686">
    <tag k="addr:city" v="Middlesex"/>
    <tag k="addr:housenumber" v="267"/>
    <tag k="addr:street" v="Portal Road"/>
    <tag k="addr:state" v="VT"/>
    <tag k="ref:vcgi:esiteid" v="157435"/>
  </node>
  <node id="-684" visible="true" lat="44.28891307" lon="-72.61323223">
    <tag k="addr:city" v="Middlesex"/>
    <tag k="addr:housenumber" v="83"/>
    <tag k="addr:street" v="Davy Road"/>
    <tag k="addr:state" v="VT"/>
    <tag k="ref:vcgi:esiteid" v="157437"/>
  </node>
  <node id="-686" visible="true" lat="44.28861236" lon="-72.60765075">
    <tag k="addr:city" v="Middlesex"/>
    <tag k="addr:housenumber" v="29"/>
    <tag k="addr:street" v="Davy Road"/>
    <tag k="addr:state" v="VT"/>
    <tag k="ref:vcgi:esiteid" v="157439"/>
  </node>
  <node id="-687" visible="true" lat="44.28844962" lon="-72.59515932">
    <tag k="addr:city" v="Middlesex"/>
    <tag k="addr:housenumber" v="293"/>
    <tag k="addr:street" v="Portal Road"/>
    <tag k="addr:state" v="VT"/>
    <tag k="ref:vcgi:esiteid" v="157440"/>
  </node>
  <node id="-688" visible="true" lat="44.28752899" lon="-72.60138702">
    <tag k="addr:city" v="Middlesex"/>
    <tag k="addr:housenumber" v="731"/>
    <tag k="addr:street" v="East Hill Road"/>
    <tag k="addr:state" v="VT"/>
    <tag k="ref:vcgi:esiteid" v="157441"/>
  </node>
  <node id="-689" visible="true" lat="44.28720888" lon="-72.59580152">
    <tag k="addr:city" v="Middlesex"/>
    <tag k="addr:housenumber" v="311"/>
    <tag k="addr:street" v="Portal Road"/>
    <tag k="addr:state" v="VT"/>
    <tag k="ref:vcgi:esiteid" v="157442"/>
  </node>
  <node id="-690" visible="true" lat="44.28710556" lon="-72.59745788">
    <tag k="addr:city" v="Middlesex"/>
    <tag k="addr:housenumber" v="320"/>
    <tag k="addr:street" v="Portal Road"/>
    <tag k="addr:state" v="VT"/>
    <tag k="ref:vcgi:esiteid" v="157443"/>
  </node>
  <node id="-691" visible="true" lat="44.28693008" lon="-72.66490936">
    <tag k="addr:city" v="Middlesex"/>
    <tag k="addr:housenumber" v="731"/>
    <tag k="addr:street" v="U.S. Route 2"/>
    <tag k="addr:state" v="VT"/>
    <tag k="ref:vcgi:esiteid" v="157444"/>
  </node>
  <node id="-693" visible="true" lat="44.28632354" lon="-72.66452026">
    <tag k="addr:city" v="Middlesex"/>
    <tag k="addr:housenumber" v="719"/>
    <tag k="addr:street" v="U.S. Route 2"/>
    <tag k="addr:state" v="VT"/>
    <tag k="ref:vcgi:esiteid" v="157446"/>
  </node>
  <node id="-694" visible="true" lat="44.2862062" lon="-72.60328751">
    <tag k="addr:city" v="Middlesex"/>
    <tag k="addr:housenumber" v="732"/>
    <tag k="addr:street" v="East Hill Road"/>
    <tag k="addr:state" v="VT"/>
    <tag k="ref:vcgi:esiteid" v="157447"/>
  </node>
  <node id="-695" visible="true" lat="44.28606147" lon="-72.59998353">
    <tag k="addr:city" v="Middlesex"/>
    <tag k="addr:housenumber" v="758"/>
    <tag k="addr:street" v="East Hill Road"/>
    <tag k="addr:state" v="VT"/>
    <tag k="ref:vcgi:esiteid" v="157448"/>
  </node>
  <node id="-697" visible="true" lat="44.28564652" lon="-72.59764558">
    <tag k="addr:city" v="Middlesex"/>
    <tag k="addr:housenumber" v="781"/>
    <tag k="addr:street" v="East Hill Road"/>
    <tag k="addr:state" v="VT"/>
    <tag k="ref:vcgi:esiteid" v="157450"/>
  </node>
  <node id="-698" visible="true" lat="44.28538237" lon="-72.60256166">
    <tag k="addr:city" v="Middlesex"/>
    <tag k="addr:housenumber" v="730"/>
    <tag k="addr:street" v="East Hill Road"/>
    <tag k="addr:state" v="VT"/>
    <tag k="ref:vcgi:esiteid" v="157451"/>
  </node>
  <node id="-700" visible="true" lat="44.28516705" lon="-72.59807827">
    <tag k="addr:city" v="Middlesex"/>
    <tag k="addr:housenumber" v="782"/>
    <tag k="addr:street" v="East Hill Road"/>
    <tag k="addr:state" v="VT"/>
    <tag k="ref:vcgi:esiteid" v="157453"/>
  </node>
  <node id="-701" visible="true" lat="44.28483581" lon="-72.66304016">
    <tag k="addr:city" v="Middlesex"/>
    <tag k="addr:housenumber" v="693"/>
    <tag k="addr:street" v="U.S. Route 2"/>
    <tag k="addr:state" v="VT"/>
    <tag k="ref:vcgi:esiteid" v="157454"/>
  </node>
  <node id="-756" visible="true" lat="44.26539611" lon="-72.62449645">
    <tag k="addr:city" v="Middlesex"/>
    <tag k="addr:housenumber" v="31"/>
    <tag k="addr:street" v="Cross Road"/>
    <tag k="addr:state" v="VT"/>
    <tag k="ref:vcgi:esiteid" v="157509"/>
  </node>
  <node id="-758" visible="true" lat="44.26525046" lon="-72.6270046">
    <tag k="addr:city" v="Middlesex"/>
    <tag k="addr:housenumber" v="180"/>
    <tag k="addr:street" v="Three Mile Bridge Road"/>
    <tag k="addr:state" v="VT"/>
    <tag k="ref:vcgi:esiteid" v="157511"/>
  </node>
  <node id="-760" visible="true" lat="44.26500701" lon="-72.6253128">
    <tag k="addr:city" v="Middlesex"/>
    <tag k="addr:housenumber" v="42"/>
    <tag k="addr:street" v="Cross Road"/>
    <tag k="addr:state" v="VT"/>
    <tag k="ref:vcgi:esiteid" v="157513"/>
  </node>
  <node id="-761" visible="true" lat="44.26498309" lon="-72.62665342">
    <tag k="addr:city" v="Middlesex"/>
    <tag k="addr:housenumber" v="176"/>
    <tag k="addr:street" v="Three Mile Bridge Road"/>
    <tag k="addr:state" v="VT"/>
    <tag k="ref:vcgi:esiteid" v="157514"/>
  </node>
  <node id="-762" visible="true" lat="44.26478379" lon="-72.62625741">
    <tag k="addr:city" v="Middlesex"/>
    <tag k="addr:housenumber" v="172"/>
    <tag k="addr:street" v="Three Mile Bridge Road"/>
    <tag k="addr:state" v="VT"/>
    <tag k="ref:vcgi:esiteid" v="157515"/>
  </node>
  <node id="-763" visible="true" lat="44.26466378" lon="-72.62595806">
    <tag k="addr:city" v="Middlesex"/>
    <tag k="addr:housenumber" v="168"/>
    <tag k="addr:street" v="Three Mile Bridge Road"/>
    <tag k="addr:state" v="VT"/>
    <tag k="ref:vcgi:esiteid" v="157516"/>
  </node>
  <node id="-764" visible="true" lat="44.26426696" lon="-72.62512207">
    <tag k="addr:city" v="Middlesex"/>
    <tag k="addr:housenumber" v="158"/>
    <tag k="addr:street" v="Three Mile Bridge Road"/>
    <tag k="addr:state" v="VT"/>
    <tag k="ref:vcgi:esiteid" v="157517"/>
  </node>
  <node id="-765" visible="true" lat="44.26431982" lon="-72.62100488">
    <tag k="addr:city" v="Middlesex"/>
    <tag k="addr:housenumber" v="116"/>
    <tag k="addr:street" v="Three Mile Bridge Road"/>
    <tag k="addr:state" v="VT"/>
    <tag k="ref:vcgi:esiteid" v="157518"/>
  </node>
  <node id="-766" visible="true" lat="44.26408004" lon="-72.62038421">
    <tag k="addr:city" v="Middlesex"/>
    <tag k="addr:housenumber" v="114"/>
    <tag k="addr:street" v="Three Mile Bridge Road"/>
    <tag k="addr:state" v="VT"/>
    <tag k="ref:vcgi:esiteid" v="157519"/>
  </node>
  <node id="-767" visible="true" lat="44.26418125" lon="-72.62473473">
    <tag k="addr:city" v="Middlesex"/>
    <tag k="addr:housenumber" v="154"/>
    <tag k="addr:street" v="Three Mile Bridge Road"/>
    <tag k="addr:state" v="VT"/>
    <tag k="ref:vcgi:esiteid" v="157520"/>
  </node>
  <node id="-768" visible="true" lat="44.26392745" lon="-72.62437438">
    <tag k="addr:city" v="Middlesex"/>
    <tag k="addr:housenumber" v="148"/>
    <tag k="addr:street" v="Three Mile Bridge Road"/>
    <tag k="addr:state" v="VT"/>
    <tag k="ref:vcgi:esiteid" v="157521"/>
  </node>
  <node id="-769" visible="true" lat="44.2637825" lon="-72.62402343">
    <tag k="addr:city" v="Middlesex"/>
    <tag k="addr:housenumber" v="144"/>
    <tag k="addr:street" v="Three Mile Bridge Road"/>
    <tag k="addr:state" v="VT"/>
    <tag k="ref:vcgi:esiteid" v="157522"/>
  </node>
  <node id="-770" visible="true" lat="44.26366805" lon="-72.62371826">
    <tag k="addr:city" v="Middlesex"/>
    <tag k="addr:housenumber" v="140"/>
    <tag k="addr:street" v="Three Mile Bridge Road"/>
    <tag k="addr:state" v="VT"/>
    <tag k="ref:vcgi:esiteid" v="157523"/>
  </node>
  <node id="-771" visible="true" lat="44.2635498" lon="-72.62347412">
    <tag k="addr:city" v="Middlesex"/>
    <tag k="addr:housenumber" v="138"/>
    <tag k="addr:street" v="Three Mile Bridge Road"/>
    <tag k="addr:state" v="VT"/>
    <tag k="ref:vcgi:esiteid" v="157524"/>
  </node>
  <node id="-772" visible="true" lat="44.26335143" lon="-72.62271881">
    <tag k="addr:city" v="Middlesex"/>
    <tag k="addr:housenumber" v="128"/>
    <tag k="addr:street" v="Three Mile Bridge Road"/>
    <tag k="addr:state" v="VT"/>
    <tag k="ref:vcgi:esiteid" v="157525"/>
  </node>
  <node id="-773" visible="true" lat="44.263134" lon="-72.62234497">
    <tag k="addr:city" v="Middlesex"/>
    <tag k="addr:housenumber" v="124"/>
    <tag k="addr:street" v="Three Mile Bridge Road"/>
    <tag k="addr:state" v="VT"/>
    <tag k="ref:vcgi:esiteid" v="157526"/>
  </node>
  <node id="-775" visible="true" lat="44.26226043" lon="-72.62033843">
    <tag k="addr:city" v="Middlesex"/>
    <tag k="addr:housenumber" v="100"/>
    <tag k="addr:street" v="Three Mile Bridge Road"/>
    <tag k="addr:state" v="VT"/>
    <tag k="ref:vcgi:esiteid" v="157528"/>
  </node>
  <node id="-777" visible="true" lat="44.26190948" lon="-72.61960601">
    <tag k="addr:city" v="Middlesex"/>
    <tag k="addr:housenumber" v="90"/>
    <tag k="addr:street" v="Three Mile Bridge Road"/>
    <tag k="addr:state" v="VT"/>
    <tag k="ref:vcgi:esiteid" v="157530"/>
  </node>
  <node id="-778" visible="true" lat="44.26138687" lon="-72.61778259">
    <tag k="addr:city" v="Middlesex"/>
    <tag k="addr:housenumber" v="70"/>
    <tag k="addr:street" v="Three Mile Bridge Road"/>
    <tag k="addr:state" v="VT"/>
    <tag k="ref:vcgi:esiteid" v="157531"/>
  </node>
  <node id="-779" visible="true" lat="44.26118442" lon="-72.61616596">
    <tag k="addr:city" v="Middlesex"/>
    <tag k="addr:housenumber" v="52"/>
    <tag k="addr:street" v="Three Mile Bridge Road"/>
    <tag k="addr:state" v="VT"/>
    <tag k="ref:vcgi:esiteid" v="157532"/>
  </node>
  <node id="-780" visible="true" lat="44.26061939" lon="-72.61506559">
    <tag k="addr:city" v="Middlesex"/>
    <tag k="addr:housenumber" v="36"/>
    <tag k="addr:street" v="Three Mile Bridge Road"/>
    <tag k="addr:state" v="VT"/>
    <tag k="ref:vcgi:esiteid" v="157533"/>
  </node>
  <node id="-782" visible="true" lat="44.25984105" lon="-72.61250831">
    <tag k="addr:city" v="Middlesex"/>
    <tag k="addr:housenumber" v="8"/>
    <tag k="addr:street" v="Three Mile Bridge Road"/>
    <tag k="addr:state" v="VT"/>
    <tag k="ref:vcgi:esiteid" v="157535"/>
  </node>
  <node id="-785" visible="true" lat="44.28668688" lon="-72.5966646">
    <tag k="addr:city" v="Middlesex"/>
    <tag k="addr:housenumber" v="325"/>
    <tag k="addr:street" v="Portal Road"/>
    <tag k="addr:state" v="VT"/>
    <tag k="ref:vcgi:esiteid" v="157538"/>
  </node>
  <node id="-793" visible="true" lat="44.33354195" lon="-72.61794587">
    <tag k="addr:city" v="Middlesex"/>
    <tag k="addr:housenumber" v="182"/>
    <tag k="addr:street" v="Franks Way"/>
    <tag k="addr:state" v="VT"/>
    <tag k="ref:vcgi:esiteid" v="157546"/>
  </node>
  <node id="-794" visible="true" lat="44.28430557" lon="-72.66284179">
    <tag k="addr:city" v="Middlesex"/>
    <tag k="addr:housenumber" v="691"/>
    <tag k="addr:street" v="U.S. Route 2"/>
    <tag k="addr:state" v="VT"/>
    <tag k="ref:vcgi:esiteid" v="157547"/>
  </node>
  <node id="-801" visible="true" lat="44.3018848" lon="-72.60308934">
    <tag k="addr:city" v="Middlesex"/>
    <tag k="addr:housenumber" v="412"/>
    <tag k="addr:street" v="Bolduc Road"/>
    <tag k="addr:state" v="VT"/>
    <tag k="ref:vcgi:esiteid" v="157554"/>
  </node>
  <node id="-806" visible="true" lat="44.28881339" lon="-72.59724883">
    <tag k="addr:city" v="Middlesex"/>
    <tag k="addr:housenumber" v="310"/>
    <tag k="addr:street" v="Portal Road"/>
    <tag k="addr:state" v="VT"/>
    <tag k="ref:vcgi:esiteid" v="157559"/>
  </node>
  <node id="-813" visible="true" lat="44.315153" lon="-72.62104133">
    <tag k="addr:city" v="Middlesex"/>
    <tag k="addr:housenumber" v="227"/>
    <tag k="addr:street" v="East Hill Road"/>
    <tag k="addr:state" v="VT"/>
    <tag k="ref:vcgi:esiteid" v="157567"/>
  </node>
  <node id="-819" visible="true" lat="44.34082117" lon="-72.61032732">
    <tag k="addr:city" v="Middlesex"/>
    <tag k="addr:housenumber" v="18"/>
    <tag k="addr:street" v="French Road"/>
    <tag k="addr:state" v="VT"/>
    <tag k="ref:vcgi:esiteid" v="157576"/>
  </node>
  <node id="-823" visible="true" lat="44.30115251" lon="-72.601844">
    <tag k="addr:city" v="Middlesex"/>
    <tag k="addr:housenumber" v="419"/>
    <tag k="addr:street" v="Bolduc Road"/>
    <tag k="addr:state" v="VT"/>
    <tag k="ref:vcgi:esiteid" v="157580"/>
  </node>
  <node id="-827" visible="true" lat="44.2920526" lon="-72.67707212">
    <tag k="addr:city" v="Middlesex"/>
    <tag k="addr:housenumber" v="901"/>
    <tag k="addr:street" v="U.S. Route 2"/>
    <tag k="addr:state" v="VT"/>
    <tag k="ref:vcgi:esiteid" v="157585"/>
  </node>
  <node id="-834" visible="true" lat="44.31244029" lon="-72.61982657">
    <tag k="addr:city" v="Middlesex"/>
    <tag k="addr:housenumber" v="273"/>
    <tag k="addr:street" v="East Hill Road"/>
    <tag k="addr:state" v="VT"/>
    <tag k="ref:vcgi:esiteid" v="157593"/>
  </node>
  <node id="-852" visible="true" lat="44.30148775" lon="-72.58481034">
    <tag k="addr:city" v="Middlesex"/>
    <tag k="addr:housenumber" v="55"/>
    <tag k="addr:street" v="Portal Road"/>
    <tag k="addr:state" v="VT"/>
    <tag k="ref:vcgi:esiteid" v="157614"/>
  </node>
  <node id="-855" visible="true" lat="44.28872978" lon="-72.59796752">
    <tag k="addr:city" v="Middlesex"/>
    <tag k="addr:housenumber" v="314"/>
    <tag k="addr:street" v="Portal Road"/>
    <tag k="addr:state" v="VT"/>
    <tag k="ref:vcgi:esiteid" v="157617"/>
  </node>
  <node id="-899" visible="true" lat="44.29954166" lon="-72.69172104">
    <tag k="addr:city" v="Middlesex"/>
    <tag k="addr:housenumber" v="31"/>
    <tag k="addr:street" v="Welch Park Drive"/>
    <tag k="addr:state" v="VT"/>
    <tag k="ref:vcgi:esiteid" v="331901"/>
  </node>
  <node id="-901" visible="true" lat="44.30351238" lon="-72.6217244">
    <tag k="addr:city" v="Middlesex"/>
    <tag k="addr:housenumber" v="126"/>
    <tag k="addr:street" v="Feral Mountain Road"/>
    <tag k="addr:state" v="VT"/>
    <tag k="ref:vcgi:esiteid" v="331926"/>
  </node>
  <node id="-903" visible="true" lat="44.30288256" lon="-72.58532868">
    <tag k="addr:city" v="Middlesex"/>
    <tag k="addr:housenumber" v="39"/>
    <tag k="addr:street" v="Portal Road"/>
    <tag k="addr:state" v="VT"/>
    <tag k="ref:vcgi:esiteid" v="335439"/>
  </node>
  <node id="-911" visible="true" lat="44.3200169" lon="-72.62507872">
    <tag k="addr:city" v="Middlesex"/>
    <tag k="addr:housenumber" v="173"/>
    <tag k="addr:street" v="East Hill Road"/>
    <tag k="addr:state" v="VT"/>
    <tag k="ref:vcgi:esiteid" v="339783"/>
  </node>
  <node id="-912" visible="true" lat="44.30549547" lon="-72.6149012">
    <tag k="addr:city" v="Middlesex"/>
    <tag k="addr:housenumber" v="11"/>
    <tag k="addr:street" v="Feral Mountain Road"/>
    <tag k="addr:state" v="VT"/>
    <tag k="ref:vcgi:esiteid" v="340018"/>
  </node>
  <node id="-913" visible="true" lat="44.31979469" lon="-72.62753719">
    <tag k="addr:city" v="Middlesex"/>
    <tag k="addr:housenumber" v="174"/>
    <tag k="addr:street" v="East Hill Road"/>
    <tag k="addr:state" v="VT"/>
    <tag k="ref:vcgi:esiteid" v="340211"/>
  </node>
  <node id="-914" visible="true" lat="44.30627231" lon="-72.58301105">
    <tag k="addr:city" v="Middlesex"/>
    <tag k="addr:housenumber" v="44"/>
    <tag k="addr:street" v="Bolduc Road"/>
    <tag k="addr:state" v="VT"/>
    <tag k="ref:vcgi:esiteid" v="341533"/>
  </node>
  <node id="-916" visible="true" lat="44.33876234" lon="-72.6152883">
    <tag k="addr:city" v="Middlesex"/>
    <tag k="addr:housenumber" v="60"/>
    <tag k="addr:street" v="Molly Supple Hill Road"/>
    <tag k="addr:state" v="VT"/>
    <tag k="ref:vcgi:esiteid" v="342965"/>
  </node>
  <node id="-923" visible="true" lat="44.299878" lon="-72.68980752">
    <tag k="addr:city" v="Middlesex"/>
    <tag k="addr:housenumber" v="1076"/>
    <tag k="addr:street" v="U.S. Route 2"/>
    <tag k="addr:state" v="VT"/>
    <tag k="ref:vcgi:esiteid" v="446548"/>
  </node>
  <node id="-929" visible="true" lat="44.28866558" lon="-72.60306985">
    <tag k="addr:city" v="Middlesex"/>
    <tag k="addr:housenumber" v="719"/>
    <tag k="addr:street" v="East Hill Road"/>
    <tag k="addr:state" v="VT"/>
    <tag k="ref:vcgi:esiteid" v="450882"/>
  </node>
  <node id="-951" visible="true" lat="44.30387593" lon="-72.58149062">
    <tag k="addr:city" v="Middlesex"/>
    <tag k="addr:housenumber" v="3366"/>
    <tag k="addr:street" v="Elm Street"/>
    <tag k="addr:state" v="VT"/>
    <tag k="ref:vcgi:esiteid" v="750893"/>
  </node>
</osm>
