<?xml version="1.0" encoding="UTF-8"?>
<osm version="0.6" generator="JOSM" upload="false">
  <node id="-106" visible="true" lat="44.37153898" lon="-72.60234484">
    <!-- conflict: "500 West Hill Road, , VT" No match in OSM, but a different address exists <5m away: "480 West Hill Road, Middlesex, VT" -->
    <tag k="addr:housenumber" v="500"/>
    <tag k="addr:street" v="West Hill Road"/>
    <tag k="addr:state" v="VT"/>
    <tag k="ref:vcgi:esiteid" v="156843"/>
  </node>
  <node id="-176" visible="true" lat="44.35258497" lon="-72.56633743">
    <!-- conflict: "12 Vermont Route 12, , VT" No match in OSM, but a different address exists <5m away: "12 Vt Route 12, Middlesex, VT" -->
    <tag k="addr:housenumber" v="12"/>
    <tag k="addr:street" v="Vermont Route 12"/>
    <tag k="addr:state" v="VT"/>
    <tag k="ref:vcgi:esiteid" v="156914"/>
  </node>
  <node id="-339" visible="true" lat="44.33135572" lon="-72.62081511">
    <!-- conflict: "120 Black Bear Hill, , VT" No match in OSM, but a different address exists <5m away: "189 Molly Supple Hill Road, Middlesex, VT" -->
    <tag k="addr:housenumber" v="120"/>
    <tag k="addr:street" v="Black Bear Hill"/>
    <tag k="addr:state" v="VT"/>
    <tag k="ref:vcgi:esiteid" v="157081"/>
  </node>
  <node id="-342" visible="true" lat="44.33090209" lon="-72.61757659">
    <!-- conflict: "344 Black Bear Hill, , VT" No match in OSM, but a different address exists <5m away: "165 Molly Supple Hill Road, Middlesex, VT" -->
    <tag k="addr:housenumber" v="344"/>
    <tag k="addr:street" v="Black Bear Hill"/>
    <tag k="addr:state" v="VT"/>
    <tag k="ref:vcgi:esiteid" v="157084"/>
  </node>
  <node id="-562" visible="true" lat="44.30459806" lon="-72.61241139">
    <!-- conflict: "45 Wrenwood Lane, , VT" No match in OSM, but a different address exists <5m away: "45 Pr 8, Middlesex, VT" -->
    <tag k="addr:housenumber" v="45"/>
    <tag k="addr:street" v="Wrenwood Lane"/>
    <tag k="addr:state" v="VT"/>
    <tag k="ref:vcgi:esiteid" v="157304"/>
  </node>
  <node id="-577" visible="true" lat="44.30197235" lon="-72.69435301">
    <!-- conflict: "1115 U.S. Route 2, , VT" Fuzzy match to "1115 US Route 2, Middlesex, VT" -->
    <tag k="addr:housenumber" v="1115"/>
    <tag k="addr:street" v="U.S. Route 2"/>
    <tag k="addr:state" v="VT"/>
    <tag k="ref:vcgi:esiteid" v="157320"/>
  </node>
  <node id="-634" visible="true" lat="44.29443085" lon="-72.59039374">
    <!-- conflict: "29 Little Hill Road, , VT" No match in OSM, but a different address exists <5m away: "29 Pr 10, Middlesex, VT" -->
    <tag k="addr:housenumber" v="29"/>
    <tag k="addr:street" v="Little Hill Road"/>
    <tag k="addr:state" v="VT"/>
    <tag k="ref:vcgi:esiteid" v="157387"/>
  </node>
  <node id="-641" visible="true" lat="44.29389278" lon="-72.58886225">
    <!-- conflict: "44 Little Hill Road, , VT" No match in OSM, but a different address exists <5m away: "44 Pr 10, Middlesex, VT" -->
    <tag k="addr:housenumber" v="44"/>
    <tag k="addr:street" v="Little Hill Road"/>
    <tag k="addr:state" v="VT"/>
    <tag k="ref:vcgi:esiteid" v="157396"/>
  </node>
  <node id="-649" visible="true" lat="44.29277903" lon="-72.59068582">
    <!-- conflict: "28 Little Hill Road, , VT" No match in OSM, but a different address exists <5m away: "28 Pr 10, Middlesex, VT" -->
    <tag k="addr:housenumber" v="28"/>
    <tag k="addr:street" v="Little Hill Road"/>
    <tag k="addr:state" v="VT"/>
    <tag k="ref:vcgi:esiteid" v="157404"/>
  </node>
  <node id="-660" visible="true" lat="44.29235268" lon="-72.67761798">
    <!-- conflict: "896 U.S. Route 2, , VT" Fuzzy match to "896 US Route 2, Middlesex, VT" -->
    <tag k="addr:housenumber" v="896"/>
    <tag k="addr:street" v="U.S. Route 2"/>
    <tag k="addr:state" v="VT"/>
    <tag k="ref:vcgi:esiteid" v="157417"/>
  </node>
  <node id="-691" visible="true" lat="44.28596877" lon="-72.60788726">
    <!-- conflict: "60 Upper Sunnybrook Road, , VT" No match in OSM, but a different address exists <5m away: "60 Upper Sunny Brook Road, Middlesex, VT" -->
    <tag k="addr:housenumber" v="60"/>
    <tag k="addr:street" v="Upper Sunnybrook Road"/>
    <tag k="addr:state" v="VT"/>
    <tag k="ref:vcgi:esiteid" v="157449"/>
  </node>
  <node id="-693" visible="true" lat="44.28538237" lon="-72.60256166">
    <!-- conflict: "750 East Hill Road, , VT" No match in OSM, but a different address exists <5m away: "730 East Hill Road, Middlesex, VT" -->
    <tag k="addr:housenumber" v="750"/>
    <tag k="addr:street" v="East Hill Road"/>
    <tag k="addr:state" v="VT"/>
    <tag k="ref:vcgi:esiteid" v="157451"/>
  </node>
  <node id="-700" visible="true" lat="44.2828207" lon="-72.60821653">
    <!-- conflict: "108 Upper Sunnybrook Road, , VT" No match in OSM, but a different address exists <5m away: "108 Upper Sunny Brook Road, Middlesex, VT" -->
    <tag k="addr:housenumber" v="108"/>
    <tag k="addr:street" v="Upper Sunnybrook Road"/>
    <tag k="addr:state" v="VT"/>
    <tag k="ref:vcgi:esiteid" v="157458"/>
  </node>
  <node id="-701" visible="true" lat="44.28290871" lon="-72.60701986">
    <!-- conflict: "107 Upper Sunnybrook Road, , VT" No match in OSM, but a different address exists <5m away: "107 Upper Sunny Brook Road, Middlesex, VT" -->
    <tag k="addr:housenumber" v="107"/>
    <tag k="addr:street" v="Upper Sunnybrook Road"/>
    <tag k="addr:state" v="VT"/>
    <tag k="ref:vcgi:esiteid" v="157459"/>
  </node>
  <node id="-702" visible="true" lat="44.28212509" lon="-72.61068213">
    <!-- conflict: "140 Upper Sunnybrook Road, , VT" No match in OSM, but a different address exists <5m away: "140 Upper Sunny Brook Road, Middlesex, VT" -->
    <tag k="addr:housenumber" v="140"/>
    <tag k="addr:street" v="Upper Sunnybrook Road"/>
    <tag k="addr:state" v="VT"/>
    <tag k="ref:vcgi:esiteid" v="157460"/>
  </node>
  <node id="-703" visible="true" lat="44.28210174" lon="-72.60730533">
    <!-- conflict: "111 Upper Sunnybrook Road, , VT" No match in OSM, but a different address exists <5m away: "111 Upper Sunny Brook Road, Middlesex, VT" -->
    <tag k="addr:housenumber" v="111"/>
    <tag k="addr:street" v="Upper Sunnybrook Road"/>
    <tag k="addr:state" v="VT"/>
    <tag k="ref:vcgi:esiteid" v="157461"/>
  </node>
  <node id="-704" visible="true" lat="44.28187225" lon="-72.60861353">
    <!-- conflict: "115 Upper Sunnybrook Road, , VT" No match in OSM, but a different address exists <5m away: "115 Upper Sunny Brook Road, Middlesex, VT" -->
    <tag k="addr:housenumber" v="115"/>
    <tag k="addr:street" v="Upper Sunnybrook Road"/>
    <tag k="addr:state" v="VT"/>
    <tag k="ref:vcgi:esiteid" v="157462"/>
  </node>
  <node id="-705" visible="true" lat="44.2817523" lon="-72.60957077">
    <!-- conflict: "127 Upper Sunnybrook Road, , VT" No match in OSM, but a different address exists <5m away: "127 Upper Sunny Brook Road, Middlesex, VT" -->
    <tag k="addr:housenumber" v="127"/>
    <tag k="addr:street" v="Upper Sunnybrook Road"/>
    <tag k="addr:state" v="VT"/>
    <tag k="ref:vcgi:esiteid" v="157463"/>
  </node>
  <node id="-706" visible="true" lat="44.28194122" lon="-72.61181256">
    <!-- conflict: "142 Upper Sunnybrook Road, , VT" No match in OSM, but a different address exists <5m away: "142 Upper Sunny Brook Road, Middlesex, VT" -->
    <tag k="addr:housenumber" v="142"/>
    <tag k="addr:street" v="Upper Sunnybrook Road"/>
    <tag k="addr:state" v="VT"/>
    <tag k="ref:vcgi:esiteid" v="157464"/>
  </node>
  <node id="-713" visible="true" lat="44.27896485" lon="-72.61704992">
    <!-- conflict: "188 Lower Sunnybrook Road, , VT" No match in OSM, but a different address exists <5m away: "188 Lower Sunny Brook Road, Middlesex, VT" -->
    <tag k="addr:housenumber" v="188"/>
    <tag k="addr:street" v="Lower Sunnybrook Road"/>
    <tag k="addr:state" v="VT"/>
    <tag k="ref:vcgi:esiteid" v="157471"/>
  </node>
  <node id="-716" visible="true" lat="44.2777834" lon="-72.61980333">
    <!-- conflict: "169 Lower Sunnybrook Road, , VT" No match in OSM, but a different address exists <5m away: "169 Lower Sunny Brook Road, Middlesex, VT" -->
    <tag k="addr:housenumber" v="169"/>
    <tag k="addr:street" v="Lower Sunnybrook Road"/>
    <tag k="addr:state" v="VT"/>
    <tag k="ref:vcgi:esiteid" v="157474"/>
  </node>
  <node id="-720" visible="true" lat="44.2767701" lon="-72.61902821">
    <!-- conflict: "152 Lower Sunnybrook Road, , VT" No match in OSM, but a different address exists <5m away: "152 Lower Sunny Brook Road, Middlesex, VT" -->
    <tag k="addr:housenumber" v="152"/>
    <tag k="addr:street" v="Lower Sunnybrook Road"/>
    <tag k="addr:state" v="VT"/>
    <tag k="ref:vcgi:esiteid" v="157478"/>
  </node>
  <node id="-721" visible="true" lat="44.27641322" lon="-72.62013824">
    <!-- conflict: "141 Lower Sunnybrook Road, , VT" No match in OSM, but a different address exists <5m away: "141 Lower Sunny Brook Road, Middlesex, VT" -->
    <tag k="addr:housenumber" v="141"/>
    <tag k="addr:street" v="Lower Sunnybrook Road"/>
    <tag k="addr:state" v="VT"/>
    <tag k="ref:vcgi:esiteid" v="157479"/>
  </node>
  <node id="-726" visible="true" lat="44.27598109" lon="-72.61910445">
    <!-- conflict: "140 Lower Sunnybrook Road, , VT" No match in OSM, but a different address exists <5m away: "140 Lower Sunny Brook Road, Middlesex, VT" -->
    <tag k="addr:housenumber" v="140"/>
    <tag k="addr:street" v="Lower Sunnybrook Road"/>
    <tag k="addr:state" v="VT"/>
    <tag k="ref:vcgi:esiteid" v="157484"/>
  </node>
  <node id="-729" visible="true" lat="44.27572811" lon="-72.61934975">
    <!-- conflict: "138 Lower Sunnybrook Road, , VT" No match in OSM, but a different address exists <5m away: "138 Lower Sunny Brook Road, Middlesex, VT" -->
    <tag k="addr:housenumber" v="138"/>
    <tag k="addr:street" v="Lower Sunnybrook Road"/>
    <tag k="addr:state" v="VT"/>
    <tag k="ref:vcgi:esiteid" v="157487"/>
  </node>
  <node id="-733" visible="true" lat="44.27374437" lon="-72.61948471">
    <!-- conflict: "106 Lower Sunnybrook Road, , VT" No match in OSM, but a different address exists <5m away: "106 Lower Sunny Brook Road, Middlesex, VT" -->
    <tag k="addr:housenumber" v="106"/>
    <tag k="addr:street" v="Lower Sunnybrook Road"/>
    <tag k="addr:state" v="VT"/>
    <tag k="ref:vcgi:esiteid" v="157491"/>
  </node>
  <node id="-734" visible="true" lat="44.27383374" lon="-72.62003348">
    <!-- conflict: "105 Lower Sunnybrook Road, , VT" No match in OSM, but a different address exists <5m away: "105 Lower Sunny Brook Road, Middlesex, VT" -->
    <tag k="addr:housenumber" v="105"/>
    <tag k="addr:street" v="Lower Sunnybrook Road"/>
    <tag k="addr:state" v="VT"/>
    <tag k="ref:vcgi:esiteid" v="157492"/>
  </node>
  <node id="-735" visible="true" lat="44.27332695" lon="-72.62017682">
    <!-- conflict: "99 Lower Sunnybrook Road, , VT" No match in OSM, but a different address exists <5m away: "99 Lower Sunny Brook Road, Middlesex, VT" -->
    <tag k="addr:housenumber" v="99"/>
    <tag k="addr:street" v="Lower Sunnybrook Road"/>
    <tag k="addr:state" v="VT"/>
    <tag k="ref:vcgi:esiteid" v="157493"/>
  </node>
  <node id="-736" visible="true" lat="44.27273391" lon="-72.62050968">
    <!-- conflict: "89 Lower Sunnybrook Road, , VT" No match in OSM, but a different address exists <5m away: "89 Lower Sunny Brook Road, Middlesex, VT" -->
    <tag k="addr:housenumber" v="89"/>
    <tag k="addr:street" v="Lower Sunnybrook Road"/>
    <tag k="addr:state" v="VT"/>
    <tag k="ref:vcgi:esiteid" v="157494"/>
  </node>
  <node id="-737" visible="true" lat="44.27236733" lon="-72.62044182">
    <!-- conflict: "83 Lower Sunnybrook Road, , VT" No match in OSM, but a different address exists <5m away: "83 Lower Sunny Brook Road, Middlesex, VT" -->
    <tag k="addr:housenumber" v="83"/>
    <tag k="addr:street" v="Lower Sunnybrook Road"/>
    <tag k="addr:state" v="VT"/>
    <tag k="ref:vcgi:esiteid" v="157495"/>
  </node>
  <node id="-739" visible="true" lat="44.27148471" lon="-72.62083398">
    <!-- conflict: "71 Lower Sunnybrook Road, , VT" No match in OSM, but a different address exists <5m away: "71 Lower Sunny Brook Road, Middlesex, VT" -->
    <tag k="addr:housenumber" v="71"/>
    <tag k="addr:street" v="Lower Sunnybrook Road"/>
    <tag k="addr:state" v="VT"/>
    <tag k="ref:vcgi:esiteid" v="157497"/>
  </node>
  <node id="-740" visible="true" lat="44.27077476" lon="-72.62049488">
    <!-- conflict: "62 Lower Sunnybrook Road, , VT" No match in OSM, but a different address exists <5m away: "62 Lower Sunny Brook Road, Middlesex, VT" -->
    <tag k="addr:housenumber" v="62"/>
    <tag k="addr:street" v="Lower Sunnybrook Road"/>
    <tag k="addr:state" v="VT"/>
    <tag k="ref:vcgi:esiteid" v="157498"/>
  </node>
  <node id="-742" visible="true" lat="44.2690906" lon="-72.6216299">
    <!-- conflict: "34 Lower Sunnybrook Road, , VT" No match in OSM, but a different address exists <5m away: "34 Lower Sunny Brook Road, Middlesex, VT" -->
    <tag k="addr:housenumber" v="34"/>
    <tag k="addr:street" v="Lower Sunnybrook Road"/>
    <tag k="addr:state" v="VT"/>
    <tag k="ref:vcgi:esiteid" v="157500"/>
  </node>
  <node id="-743" visible="true" lat="44.26862028" lon="-72.62176395">
    <!-- conflict: "28 Lower Sunnybrook Road, , VT" No match in OSM, but a different address exists <5m away: "28 Lower Sunny Brook Road, Middlesex, VT" -->
    <tag k="addr:housenumber" v="28"/>
    <tag k="addr:street" v="Lower Sunnybrook Road"/>
    <tag k="addr:state" v="VT"/>
    <tag k="ref:vcgi:esiteid" v="157501"/>
  </node>
  <node id="-744" visible="true" lat="44.26834632" lon="-72.62282765">
    <!-- conflict: "19 Lower Sunnybrook Road, , VT" No match in OSM, but a different address exists <5m away: "19 Lower Sunny Brook Road, Middlesex, VT" -->
    <tag k="addr:housenumber" v="19"/>
    <tag k="addr:street" v="Lower Sunnybrook Road"/>
    <tag k="addr:state" v="VT"/>
    <tag k="ref:vcgi:esiteid" v="157502"/>
  </node>
  <node id="-745" visible="true" lat="44.26808902" lon="-72.62323118">
    <!-- conflict: "15 Lower Sunnybrook Road, , VT" No match in OSM, but a different address exists <5m away: "15 Lower Sunny Brook Road, Middlesex, VT" -->
    <tag k="addr:housenumber" v="15"/>
    <tag k="addr:street" v="Lower Sunnybrook Road"/>
    <tag k="addr:state" v="VT"/>
    <tag k="ref:vcgi:esiteid" v="157503"/>
  </node>
  <node id="-746" visible="true" lat="44.2677415" lon="-72.62231274">
    <!-- conflict: "12 Lower Sunnybrook Road, , VT" No match in OSM, but a different address exists <5m away: "12 Lower Sunny Brook Road, Middlesex, VT" -->
    <tag k="addr:housenumber" v="12"/>
    <tag k="addr:street" v="Lower Sunnybrook Road"/>
    <tag k="addr:state" v="VT"/>
    <tag k="ref:vcgi:esiteid" v="157504"/>
  </node>
  <node id="-747" visible="true" lat="44.26740835" lon="-72.62274792">
    <!-- conflict: "8 Lower Sunnybrook Road, , VT" No match in OSM, but a different address exists <5m away: "8 Lower Sunny Brook Road, Middlesex, VT" -->
    <tag k="addr:housenumber" v="8"/>
    <tag k="addr:street" v="Lower Sunnybrook Road"/>
    <tag k="addr:state" v="VT"/>
    <tag k="ref:vcgi:esiteid" v="157505"/>
  </node>
  <node id="-752" visible="true" lat="44.26498595" lon="-72.62267493">
    <!-- conflict: "19A Bailey Meadows Road, , VT" Fuzzy match to "19 A Bailey Meadows Road, Middlesex, VT" -->
    <tag k="addr:housenumber" v="19A"/>
    <tag k="addr:street" v="Bailey Meadows Road"/>
    <tag k="addr:state" v="VT"/>
    <tag k="ref:vcgi:esiteid" v="157512"/>
  </node>
  <node id="-849" visible="true" lat="44.30160168" lon="-72.58807954">
    <!-- conflict: "14 High Meadow Lane, , VT" No match in OSM, but a different address exists <5m away: "78 High Meadow Lane, Middlesex, VT" -->
    <tag k="addr:housenumber" v="14"/>
    <tag k="addr:street" v="High Meadow Lane"/>
    <tag k="addr:state" v="VT"/>
    <tag k="ref:vcgi:esiteid" v="157619"/>
  </node>
  <node id="-856" visible="true" lat="44.3023408" lon="-72.58854876">
    <!-- conflict: "28 High Meadow Lane, , VT" No match in OSM, but a different address exists <5m away: "98 High Meadow Lane, Middlesex, VT" -->
    <tag k="addr:housenumber" v="28"/>
    <tag k="addr:street" v="High Meadow Lane"/>
    <tag k="addr:state" v="VT"/>
    <tag k="ref:vcgi:esiteid" v="157627"/>
  </node>
  <node id="-878" visible="true" lat="44.27946863" lon="-72.61608881">
    <!-- conflict: "190 Lower Sunnybrook Road, , VT" No match in OSM, but a different address exists <5m away: "190 Lower Sunny Brook Road, Middlesex, VT" -->
    <tag k="addr:housenumber" v="190"/>
    <tag k="addr:street" v="Lower Sunnybrook Road"/>
    <tag k="addr:state" v="VT"/>
    <tag k="ref:vcgi:esiteid" v="307751"/>
  </node>
  <node id="-893" visible="true" lat="44.29981221" lon="-72.69351199">
    <!-- conflict: "59 Welch Park Drive, , VT" No match in OSM, but a different address exists <5m away: " Welch Park Drive, Middlesex, VT" -->
    <tag k="addr:housenumber" v="59"/>
    <tag k="addr:street" v="Welch Park Drive"/>
    <tag k="addr:state" v="VT"/>
    <tag k="ref:vcgi:esiteid" v="331903"/>
  </node>
  <node id="-955" visible="true" lat="44.29461392" lon="-72.68350277">
    <!-- conflict: "965 U.S. Route 2, , VT" No match in OSM, but a different address exists <5m away: " U.S. Route 2, Middlesex, VT" -->
    <tag k="addr:housenumber" v="965"/>
    <tag k="addr:street" v="U.S. Route 2"/>
    <tag k="addr:state" v="VT"/>
    <tag k="ref:vcgi:esiteid" v="751872"/>
  </node>
  <node id="-1004" visible="true" lat="44.37198501" lon="-72.6400634">
    <!-- conflict: "412 North Bear Swamp Road, , VT" No match in OSM, but a different address exists <5m away: "398 North Bear Swamp Road, Middlesex, VT" -->
    <tag k="addr:housenumber" v="412"/>
    <tag k="addr:street" v="North Bear Swamp Road"/>
    <tag k="addr:state" v="VT"/>
    <tag k="ref:vcgi:esiteid" v="1050137"/>
  </node>
</osm>
