<?xml version="1.0" encoding="UTF-8"?>
<osm version="0.6" generator="JOSM" upload="false">
  <node id="-177" visible="true" lat="44.03663293" lon="-73.16340184">
    <!-- multiple: "1469 Exchange Street, Middlebury, VT" Multiple exact matches in OSM. -->
    <tag k="addr:city" v="Middlebury"/>
    <tag k="addr:housenumber" v="1469"/>
    <tag k="addr:street" v="Exchange Street"/>
    <tag k="addr:state" v="VT"/>
    <tag k="ref:vcgi:esiteid" v="153948"/>
  </node>
  <node id="-192" visible="true" lat="44.03548217" lon="-73.16896227">
    <!-- multiple: "1197 Exchange Street, Middlebury, VT" Multiple exact matches in OSM. -->
    <tag k="addr:city" v="Middlebury"/>
    <tag k="addr:housenumber" v="1197"/>
    <tag k="addr:street" v="Exchange Street"/>
    <tag k="addr:state" v="VT"/>
    <tag k="ref:vcgi:esiteid" v="153966"/>
  </node>
  <node id="-252" visible="true" lat="44.02963883" lon="-73.16988689">
    <!-- multiple: "812 Exchange Street, Middlebury, VT" Multiple exact matches in OSM. -->
    <tag k="addr:city" v="Middlebury"/>
    <tag k="addr:housenumber" v="812"/>
    <tag k="addr:street" v="Exchange Street"/>
    <tag k="addr:state" v="VT"/>
    <tag k="ref:vcgi:esiteid" v="154031"/>
  </node>
  <node id="-317" visible="true" lat="44.02713005" lon="-73.1700833">
    <!-- multiple: "616 Exchange Street, Middlebury, VT" Multiple exact matches in OSM. -->
    <tag k="addr:city" v="Middlebury"/>
    <tag k="addr:housenumber" v="616"/>
    <tag k="addr:street" v="Exchange Street"/>
    <tag k="addr:state" v="VT"/>
    <tag k="ref:vcgi:esiteid" v="154107"/>
  </node>
  <node id="-449" visible="true" lat="44.02397745" lon="-73.16964292">
    <!-- multiple: "338 Exchange Street, Middlebury, VT" Multiple exact matches in OSM. -->
    <tag k="addr:city" v="Middlebury"/>
    <tag k="addr:housenumber" v="338"/>
    <tag k="addr:street" v="Exchange Street"/>
    <tag k="addr:state" v="VT"/>
    <tag k="ref:vcgi:esiteid" v="154248"/>
  </node>
  <node id="-503" visible="true" lat="44.0214035" lon="-73.16995954">
    <!-- multiple: "213 Exchange Street, Middlebury, VT" Multiple exact matches in OSM. -->
    <tag k="addr:city" v="Middlebury"/>
    <tag k="addr:housenumber" v="213"/>
    <tag k="addr:street" v="Exchange Street"/>
    <tag k="addr:state" v="VT"/>
    <tag k="ref:vcgi:esiteid" v="154307"/>
  </node>
  <node id="-684" visible="true" lat="44.01864242" lon="-73.16983795">
    <!-- multiple: "21 Macintyre Lane, Middlebury, VT" Multiple exact matches in OSM. -->
    <tag k="addr:city" v="Middlebury"/>
    <tag k="addr:housenumber" v="21"/>
    <tag k="addr:street" v="Macintyre Lane"/>
    <tag k="addr:state" v="VT"/>
    <tag k="ref:vcgi:esiteid" v="154505"/>
  </node>
  <node id="-705" visible="true" lat="44.01850225" lon="-73.16521091">
    <!-- multiple: "25 Stewart Lane, Middlebury, VT" Multiple exact matches in OSM. -->
    <tag k="addr:city" v="Middlebury"/>
    <tag k="addr:housenumber" v="25"/>
    <tag k="addr:street" v="Stewart Lane"/>
    <tag k="addr:state" v="VT"/>
    <tag k="ref:vcgi:esiteid" v="154527"/>
  </node>
  <node id="-709" visible="true" lat="44.01849119" lon="-73.15946695">
    <!-- multiple: "139 Washington Street Extension, Middlebury, VT" Multiple exact matches in OSM. -->
    <tag k="addr:city" v="Middlebury"/>
    <tag k="addr:housenumber" v="139"/>
    <tag k="addr:street" v="Washington Street Extension"/>
    <tag k="addr:state" v="VT"/>
    <tag k="ref:vcgi:esiteid" v="154532"/>
  </node>
  <node id="-849" visible="true" lat="44.0166143" lon="-73.16854179">
    <!-- multiple: "20 Seymour Street, Middlebury, VT" Multiple exact matches in OSM. -->
    <tag k="addr:city" v="Middlebury"/>
    <tag k="addr:housenumber" v="20"/>
    <tag k="addr:street" v="Seymour Street"/>
    <tag k="addr:state" v="VT"/>
    <tag k="ref:vcgi:esiteid" v="154690"/>
  </node>
  <node id="-896" visible="true" lat="44.01624428" lon="-73.16982139">
    <!-- multiple: "63 Maple Street, Middlebury, VT" Multiple exact matches in OSM. -->
    <tag k="addr:city" v="Middlebury"/>
    <tag k="addr:housenumber" v="63"/>
    <tag k="addr:street" v="Maple Street"/>
    <tag k="addr:state" v="VT"/>
    <tag k="ref:vcgi:esiteid" v="154738"/>
  </node>
  <node id="-933" visible="true" lat="44.01562746" lon="-73.16965574">
    <!-- multiple: "99 Maple Street, Middlebury, VT" Multiple exact matches in OSM. -->
    <tag k="addr:city" v="Middlebury"/>
    <tag k="addr:housenumber" v="99"/>
    <tag k="addr:street" v="Maple Street"/>
    <tag k="addr:state" v="VT"/>
    <tag k="ref:vcgi:esiteid" v="154778"/>
  </node>
  <node id="-948" visible="true" lat="44.01535899" lon="-73.16991351">
    <!-- multiple: "111 Maple Street, Middlebury, VT" Multiple exact matches in OSM. -->
    <tag k="addr:city" v="Middlebury"/>
    <tag k="addr:housenumber" v="111"/>
    <tag k="addr:street" v="Maple Street"/>
    <tag k="addr:state" v="VT"/>
    <tag k="ref:vcgi:esiteid" v="154795"/>
  </node>
  <node id="-977" visible="true" lat="44.01510844" lon="-73.16981547">
    <!-- multiple: "137 Maple Street, Middlebury, VT" Multiple exact matches in OSM. -->
    <tag k="addr:city" v="Middlebury"/>
    <tag k="addr:housenumber" v="137"/>
    <tag k="addr:street" v="Maple Street"/>
    <tag k="addr:state" v="VT"/>
    <tag k="ref:vcgi:esiteid" v="154834"/>
  </node>
  <node id="-981" visible="true" lat="44.01513355" lon="-73.16446269">
    <!-- multiple: "15 Washington Street, Middlebury, VT" Multiple exact matches in OSM. -->
    <tag k="addr:city" v="Middlebury"/>
    <tag k="addr:housenumber" v="15"/>
    <tag k="addr:street" v="Washington Street"/>
    <tag k="addr:state" v="VT"/>
    <tag k="ref:vcgi:esiteid" v="154839"/>
  </node>
  <node id="-991" visible="true" lat="44.01498296" lon="-73.16469692">
    <!-- multiple: "11 Washington Street, Middlebury, VT" Multiple exact matches in OSM. -->
    <tag k="addr:city" v="Middlebury"/>
    <tag k="addr:housenumber" v="11"/>
    <tag k="addr:street" v="Washington Street"/>
    <tag k="addr:state" v="VT"/>
    <tag k="ref:vcgi:esiteid" v="154851"/>
  </node>
  <node id="-1006" visible="true" lat="44.01486213" lon="-73.16606698">
    <!-- multiple: "14 Court Square, Middlebury, VT" Multiple exact matches in OSM. -->
    <tag k="addr:city" v="Middlebury"/>
    <tag k="addr:housenumber" v="14"/>
    <tag k="addr:street" v="Court Square"/>
    <tag k="addr:state" v="VT"/>
    <tag k="ref:vcgi:esiteid" v="154868"/>
  </node>
  <node id="-1012" visible="true" lat="44.01478255" lon="-73.16506251">
    <!-- multiple: "7 Washington Street, Middlebury, VT" Multiple exact matches in OSM. -->
    <tag k="addr:city" v="Middlebury"/>
    <tag k="addr:housenumber" v="7"/>
    <tag k="addr:street" v="Washington Street"/>
    <tag k="addr:state" v="VT"/>
    <tag k="ref:vcgi:esiteid" v="154876"/>
  </node>
  <node id="-1018" visible="true" lat="44.01466401" lon="-73.16530997">
    <!-- multiple: "1 Washington Street, Middlebury, VT" Multiple exact matches in OSM. -->
    <tag k="addr:city" v="Middlebury"/>
    <tag k="addr:housenumber" v="1"/>
    <tag k="addr:street" v="Washington Street"/>
    <tag k="addr:state" v="VT"/>
    <tag k="ref:vcgi:esiteid" v="154885"/>
  </node>
  <node id="-1041" visible="true" lat="44.01429818" lon="-73.16843656">
    <!-- multiple: "30 Main Street, Middlebury, VT" Multiple exact matches in OSM. -->
    <tag k="addr:city" v="Middlebury"/>
    <tag k="addr:housenumber" v="30"/>
    <tag k="addr:street" v="Main Street"/>
    <tag k="addr:state" v="VT"/>
    <tag k="ref:vcgi:esiteid" v="154912"/>
  </node>
  <node id="-1055" visible="true" lat="44.01403112" lon="-73.16851423">
    <!-- multiple: "34 Main Street, Middlebury, VT" Multiple exact matches in OSM. -->
    <tag k="addr:city" v="Middlebury"/>
    <tag k="addr:housenumber" v="34"/>
    <tag k="addr:street" v="Main Street"/>
    <tag k="addr:state" v="VT"/>
    <tag k="ref:vcgi:esiteid" v="154929"/>
  </node>
  <node id="-1060" visible="true" lat="44.01394999" lon="-73.16850321">
    <!-- multiple: "38 Main Street, Middlebury, VT" Multiple exact matches in OSM. -->
    <tag k="addr:city" v="Middlebury"/>
    <tag k="addr:housenumber" v="38"/>
    <tag k="addr:street" v="Main Street"/>
    <tag k="addr:state" v="VT"/>
    <tag k="ref:vcgi:esiteid" v="154934"/>
  </node>
  <node id="-1063" visible="true" lat="44.01384345" lon="-73.16852358">
    <!-- multiple: "40 Main Street, Middlebury, VT" Multiple exact matches in OSM. -->
    <tag k="addr:city" v="Middlebury"/>
    <tag k="addr:housenumber" v="40"/>
    <tag k="addr:street" v="Main Street"/>
    <tag k="addr:state" v="VT"/>
    <tag k="ref:vcgi:esiteid" v="154939"/>
  </node>
  <node id="-1065" visible="true" lat="44.01376515" lon="-73.16857242">
    <!-- multiple: "42 Main Street, Middlebury, VT" Multiple exact matches in OSM. -->
    <tag k="addr:city" v="Middlebury"/>
    <tag k="addr:housenumber" v="42"/>
    <tag k="addr:street" v="Main Street"/>
    <tag k="addr:state" v="VT"/>
    <tag k="ref:vcgi:esiteid" v="154941"/>
  </node>
  <node id="-1073" visible="true" lat="44.01369165" lon="-73.16860814">
    <!-- multiple: "44 Main Street, Middlebury, VT" Multiple exact matches in OSM. -->
    <tag k="addr:city" v="Middlebury"/>
    <tag k="addr:housenumber" v="44"/>
    <tag k="addr:street" v="Main Street"/>
    <tag k="addr:state" v="VT"/>
    <tag k="ref:vcgi:esiteid" v="154951"/>
  </node>
  <node id="-1091" visible="true" lat="44.01354855" lon="-73.16870864">
    <!-- multiple: "48 Main Street, Middlebury, VT" Multiple exact matches in OSM. -->
    <tag k="addr:city" v="Middlebury"/>
    <tag k="addr:housenumber" v="48"/>
    <tag k="addr:street" v="Main Street"/>
    <tag k="addr:state" v="VT"/>
    <tag k="ref:vcgi:esiteid" v="154970"/>
  </node>
  <node id="-1112" visible="true" lat="44.01328277" lon="-73.17003948">
    <!-- multiple: "3 Mill Street, Middlebury, VT" Multiple exact matches in OSM. -->
    <tag k="addr:city" v="Middlebury"/>
    <tag k="addr:housenumber" v="3"/>
    <tag k="addr:street" v="Mill Street"/>
    <tag k="addr:state" v="VT"/>
    <tag k="ref:vcgi:esiteid" v="154995"/>
  </node>
  <node id="-1116" visible="true" lat="44.01315596" lon="-73.16898756">
    <!-- multiple: "60 Main Street, Middlebury, VT" Multiple exact matches in OSM. -->
    <tag k="addr:city" v="Middlebury"/>
    <tag k="addr:housenumber" v="60"/>
    <tag k="addr:street" v="Main Street"/>
    <tag k="addr:state" v="VT"/>
    <tag k="ref:vcgi:esiteid" v="154999"/>
  </node>
  <node id="-1124" visible="true" lat="44.01309466" lon="-73.16902328">
    <!-- multiple: "64 Main Street, Middlebury, VT" Multiple exact matches in OSM. -->
    <tag k="addr:city" v="Middlebury"/>
    <tag k="addr:housenumber" v="64"/>
    <tag k="addr:street" v="Main Street"/>
    <tag k="addr:state" v="VT"/>
    <tag k="ref:vcgi:esiteid" v="155008"/>
  </node>
  <node id="-1131" visible="true" lat="44.013045" lon="-73.16906559">
    <!-- multiple: "66 Main Street, Middlebury, VT" Multiple exact matches in OSM. -->
    <tag k="addr:city" v="Middlebury"/>
    <tag k="addr:housenumber" v="66"/>
    <tag k="addr:street" v="Main Street"/>
    <tag k="addr:state" v="VT"/>
    <tag k="ref:vcgi:esiteid" v="155015"/>
  </node>
  <node id="-1144" visible="true" lat="44.01291944" lon="-73.16913659">
    <!-- multiple: "68 Main Street, Middlebury, VT" Multiple exact matches in OSM. -->
    <tag k="addr:city" v="Middlebury"/>
    <tag k="addr:housenumber" v="68"/>
    <tag k="addr:street" v="Main Street"/>
    <tag k="addr:state" v="VT"/>
    <tag k="ref:vcgi:esiteid" v="155030"/>
  </node>
  <node id="-1151" visible="true" lat="44.01284529" lon="-73.16877647">
    <!-- multiple: "63 Main Street, Middlebury, VT" Multiple exact matches in OSM. -->
    <tag k="addr:city" v="Middlebury"/>
    <tag k="addr:housenumber" v="63"/>
    <tag k="addr:street" v="Main Street"/>
    <tag k="addr:state" v="VT"/>
    <tag k="ref:vcgi:esiteid" v="155039"/>
  </node>
  <node id="-1159" visible="true" lat="44.012769" lon="-73.16884514">
    <!-- multiple: "65 Main Street, Middlebury, VT" Multiple exact matches in OSM. -->
    <tag k="addr:city" v="Middlebury"/>
    <tag k="addr:housenumber" v="65"/>
    <tag k="addr:street" v="Main Street"/>
    <tag k="addr:state" v="VT"/>
    <tag k="ref:vcgi:esiteid" v="155050"/>
  </node>
  <node id="-1168" visible="true" lat="44.01270691" lon="-73.16988341">
    <!-- multiple: "2 Park Street, Middlebury, VT" Multiple exact matches in OSM. -->
    <tag k="addr:city" v="Middlebury"/>
    <tag k="addr:housenumber" v="2"/>
    <tag k="addr:street" v="Park Street"/>
    <tag k="addr:state" v="VT"/>
    <tag k="ref:vcgi:esiteid" v="155059"/>
  </node>
  <node id="-1170" visible="true" lat="44.01280932" lon="-73.16815681">
    <!-- multiple: "7 Bakery Lane, Middlebury, VT" Multiple exact matches in OSM. -->
    <tag k="addr:city" v="Middlebury"/>
    <tag k="addr:housenumber" v="7"/>
    <tag k="addr:street" v="Bakery Lane"/>
    <tag k="addr:state" v="VT"/>
    <tag k="ref:vcgi:esiteid" v="155062"/>
  </node>
  <node id="-1186" visible="true" lat="44.01265859" lon="-73.16605485">
    <!-- multiple: "111 South Pleasant Street, Middlebury, VT" Multiple exact matches in OSM. -->
    <tag k="addr:city" v="Middlebury"/>
    <tag k="addr:housenumber" v="111"/>
    <tag k="addr:street" v="South Pleasant Street"/>
    <tag k="addr:state" v="VT"/>
    <tag k="ref:vcgi:esiteid" v="155080"/>
  </node>
  <node id="-1187" visible="true" lat="44.01255035" lon="-73.16516113">
    <!-- multiple: "16 Court Street, Middlebury, VT" Multiple exact matches in OSM. -->
    <tag k="addr:city" v="Middlebury"/>
    <tag k="addr:housenumber" v="16"/>
    <tag k="addr:street" v="Court Street"/>
    <tag k="addr:state" v="VT"/>
    <tag k="ref:vcgi:esiteid" v="155081"/>
  </node>
  <node id="-1188" visible="true" lat="44.01259223" lon="-73.16817536">
    <!-- multiple: "8 Bakery Lane, Middlebury, VT" Multiple exact matches in OSM. -->
    <tag k="addr:city" v="Middlebury"/>
    <tag k="addr:housenumber" v="8"/>
    <tag k="addr:street" v="Bakery Lane"/>
    <tag k="addr:state" v="VT"/>
    <tag k="ref:vcgi:esiteid" v="155082"/>
  </node>
  <node id="-1208" visible="true" lat="44.01226191" lon="-73.16987126">
    <!-- multiple: "86 Main Street, Middlebury, VT" Multiple exact matches in OSM. -->
    <tag k="addr:city" v="Middlebury"/>
    <tag k="addr:housenumber" v="86"/>
    <tag k="addr:street" v="Main Street"/>
    <tag k="addr:state" v="VT"/>
    <tag k="ref:vcgi:esiteid" v="155106"/>
  </node>
  <node id="-1214" visible="true" lat="44.01220693" lon="-73.16404376">
    <!-- multiple: "25 Court Street, Middlebury, VT" Multiple exact matches in OSM. -->
    <tag k="addr:city" v="Middlebury"/>
    <tag k="addr:housenumber" v="25"/>
    <tag k="addr:street" v="Court Street"/>
    <tag k="addr:state" v="VT"/>
    <tag k="ref:vcgi:esiteid" v="155114"/>
  </node>
  <node id="-1237" visible="true" lat="44.01169845" lon="-73.18124081">
    <!-- multiple: "160 HMKL Way, Middlebury, VT" Multiple exact matches in OSM. -->
    <tag k="addr:city" v="Middlebury"/>
    <tag k="addr:housenumber" v="160"/>
    <tag k="addr:street" v="HMKL Way"/>
    <tag k="addr:state" v="VT"/>
    <tag k="ref:vcgi:esiteid" v="155140"/>
  </node>
  <node id="-1241" visible="true" lat="44.01178031" lon="-73.17078812">
    <!-- multiple: "54 College Street, Middlebury, VT" Multiple exact matches in OSM. -->
    <tag k="addr:city" v="Middlebury"/>
    <tag k="addr:housenumber" v="54"/>
    <tag k="addr:street" v="College Street"/>
    <tag k="addr:state" v="VT"/>
    <tag k="ref:vcgi:esiteid" v="155144"/>
  </node>
  <node id="-1244" visible="true" lat="44.01171111" lon="-73.16449737">
    <!-- multiple: "28 Court Street, Middlebury, VT" Multiple exact matches in OSM. -->
    <tag k="addr:city" v="Middlebury"/>
    <tag k="addr:housenumber" v="28"/>
    <tag k="addr:street" v="Court Street"/>
    <tag k="addr:state" v="VT"/>
    <tag k="ref:vcgi:esiteid" v="155148"/>
  </node>
  <node id="-1306" visible="true" lat="44.01073565" lon="-73.16450428">
    <!-- multiple: "40 Court Street, Middlebury, VT" Multiple exact matches in OSM. -->
    <tag k="addr:city" v="Middlebury"/>
    <tag k="addr:housenumber" v="40"/>
    <tag k="addr:street" v="Court Street"/>
    <tag k="addr:state" v="VT"/>
    <tag k="ref:vcgi:esiteid" v="155221"/>
  </node>
  <node id="-1310" visible="true" lat="44.01089952" lon="-73.16181297">
    <!-- multiple: "201 Mary Hogan Drive, Middlebury, VT" Multiple exact matches in OSM. -->
    <tag k="addr:city" v="Middlebury"/>
    <tag k="addr:housenumber" v="201"/>
    <tag k="addr:street" v="Mary Hogan Drive"/>
    <tag k="addr:state" v="VT"/>
    <tag k="ref:vcgi:esiteid" v="155225"/>
  </node>
  <node id="-1484" visible="true" lat="44.00828559" lon="-73.17725507">
    <!-- multiple: "14 Old Chapel Road, Middlebury, VT" Multiple exact matches in OSM. -->
    <tag k="addr:city" v="Middlebury"/>
    <tag k="addr:housenumber" v="14"/>
    <tag k="addr:street" v="Old Chapel Road"/>
    <tag k="addr:state" v="VT"/>
    <tag k="ref:vcgi:esiteid" v="155420"/>
  </node>
  <node id="-1606" visible="true" lat="44.00679397" lon="-73.17636871">
    <!-- multiple: "136 South Main Street, Middlebury, VT" Multiple exact matches in OSM. -->
    <tag k="addr:city" v="Middlebury"/>
    <tag k="addr:housenumber" v="136"/>
    <tag k="addr:street" v="South Main Street"/>
    <tag k="addr:state" v="VT"/>
    <tag k="ref:vcgi:esiteid" v="155558"/>
  </node>
  <node id="-1625" visible="true" lat="44.00669412" lon="-73.16313652">
    <!-- multiple: "73 Charles Avenue, Middlebury, VT" Multiple exact matches in OSM. -->
    <tag k="addr:city" v="Middlebury"/>
    <tag k="addr:housenumber" v="73"/>
    <tag k="addr:street" v="Charles Avenue"/>
    <tag k="addr:state" v="VT"/>
    <tag k="ref:vcgi:esiteid" v="155579"/>
  </node>
  <node id="-1629" visible="true" lat="44.00646941" lon="-73.16006542">
    <!-- multiple: "93 Court Street, Middlebury, VT" Multiple exact matches in OSM. -->
    <tag k="addr:city" v="Middlebury"/>
    <tag k="addr:housenumber" v="93"/>
    <tag k="addr:street" v="Court Street"/>
    <tag k="addr:state" v="VT"/>
    <tag k="ref:vcgi:esiteid" v="155583"/>
  </node>
  <node id="-1673" visible="true" lat="44.00530014" lon="-73.17596272">
    <!-- multiple: "72 Porter Field Road, Middlebury, VT" Multiple exact matches in OSM. -->
    <tag k="addr:city" v="Middlebury"/>
    <tag k="addr:housenumber" v="72"/>
    <tag k="addr:street" v="Porter Field Road"/>
    <tag k="addr:state" v="VT"/>
    <tag k="ref:vcgi:esiteid" v="155634"/>
  </node>
  <node id="-1689" visible="true" lat="44.00480055" lon="-73.15850197">
    <!-- multiple: "105 Court Street, Middlebury, VT" Multiple exact matches in OSM. -->
    <tag k="addr:city" v="Middlebury"/>
    <tag k="addr:housenumber" v="105"/>
    <tag k="addr:street" v="Court Street"/>
    <tag k="addr:state" v="VT"/>
    <tag k="ref:vcgi:esiteid" v="155655"/>
  </node>
  <node id="-1716" visible="true" lat="44.00378229" lon="-73.15615548">
    <!-- multiple: "173 Court Street, Middlebury, VT" Multiple exact matches in OSM. -->
    <tag k="addr:city" v="Middlebury"/>
    <tag k="addr:housenumber" v="173"/>
    <tag k="addr:street" v="Court Street"/>
    <tag k="addr:state" v="VT"/>
    <tag k="ref:vcgi:esiteid" v="155686"/>
  </node>
  <node id="-1770" visible="true" lat="44.00086464" lon="-73.14685424">
    <!-- multiple: "49 Wilson Road, Middlebury, VT" Multiple exact matches in OSM. -->
    <tag k="addr:city" v="Middlebury"/>
    <tag k="addr:housenumber" v="49"/>
    <tag k="addr:street" v="Wilson Road"/>
    <tag k="addr:state" v="VT"/>
    <tag k="ref:vcgi:esiteid" v="155753"/>
  </node>
  <node id="-1773" visible="true" lat="44.00046961" lon="-73.169211">
    <!-- multiple: "44 Collins Drive, Middlebury, VT" Multiple exact matches in OSM. -->
    <tag k="addr:city" v="Middlebury"/>
    <tag k="addr:housenumber" v="44"/>
    <tag k="addr:street" v="Collins Drive"/>
    <tag k="addr:state" v="VT"/>
    <tag k="ref:vcgi:esiteid" v="155756"/>
  </node>
  <node id="-1778" visible="true" lat="44.00034713" lon="-73.14466094">
    <!-- multiple: "236 Boardman Street, Middlebury, VT" Multiple exact matches in OSM. -->
    <tag k="addr:city" v="Middlebury"/>
    <tag k="addr:housenumber" v="236"/>
    <tag k="addr:street" v="Boardman Street"/>
    <tag k="addr:state" v="VT"/>
    <tag k="ref:vcgi:esiteid" v="155762"/>
  </node>
  <node id="-1784" visible="true" lat="44.0003148" lon="-73.1457286">
    <!-- multiple: "99 Wilson Road, Middlebury, VT" Multiple exact matches in OSM. -->
    <tag k="addr:city" v="Middlebury"/>
    <tag k="addr:housenumber" v="99"/>
    <tag k="addr:street" v="Wilson Road"/>
    <tag k="addr:state" v="VT"/>
    <tag k="ref:vcgi:esiteid" v="155768"/>
  </node>
  <node id="-1786" visible="true" lat="43.99971389" lon="-73.16852569">
    <!-- multiple: "115 Porter Drive, Middlebury, VT" Multiple exact matches in OSM. -->
    <tag k="addr:city" v="Middlebury"/>
    <tag k="addr:housenumber" v="115"/>
    <tag k="addr:street" v="Porter Drive"/>
    <tag k="addr:state" v="VT"/>
    <tag k="ref:vcgi:esiteid" v="155771"/>
  </node>
  <node id="-1905" visible="true" lat="43.99078988" lon="-73.14021059">
    <!-- multiple: "1396 U.S. Route 7 South, Middlebury, VT" Multiple exact matches in OSM. -->
    <tag k="addr:city" v="Middlebury"/>
    <tag k="addr:housenumber" v="1396"/>
    <tag k="addr:street" v="U.S. Route 7 South"/>
    <tag k="addr:state" v="VT"/>
    <tag k="ref:vcgi:esiteid" v="155900"/>
  </node>
  <node id="-2436" visible="true" lat="44.01338563" lon="-73.18127451">
    <!-- multiple: "276 Bicentennial Way, Middlebury, VT" Multiple exact matches in OSM. -->
    <tag k="addr:city" v="Middlebury"/>
    <tag k="addr:housenumber" v="276"/>
    <tag k="addr:street" v="Bicentennial Way"/>
    <tag k="addr:state" v="VT"/>
    <tag k="ref:vcgi:esiteid" v="156484"/>
  </node>
  <node id="-2447" visible="true" lat="43.99835341" lon="-73.15261899">
    <!-- multiple: "48 Deerfield Lane, Middlebury, VT" Multiple exact matches in OSM. -->
    <tag k="addr:city" v="Middlebury"/>
    <tag k="addr:housenumber" v="48"/>
    <tag k="addr:street" v="Deerfield Lane"/>
    <tag k="addr:state" v="VT"/>
    <tag k="ref:vcgi:esiteid" v="156495"/>
  </node>
  <node id="-2489" visible="true" lat="44.01348706" lon="-73.16835327">
    <!-- multiple: "51 Main Street, Middlebury, VT" Multiple exact matches in OSM. -->
    <tag k="addr:city" v="Middlebury"/>
    <tag k="addr:housenumber" v="51"/>
    <tag k="addr:street" v="Main Street"/>
    <tag k="addr:state" v="VT"/>
    <tag k="ref:vcgi:esiteid" v="156545"/>
  </node>
  <node id="-2490" visible="true" lat="44.04169073" lon="-73.17505658">
    <!-- multiple: "243 Industrial Avenue, Middlebury, VT" Multiple exact matches in OSM. -->
    <tag k="addr:city" v="Middlebury"/>
    <tag k="addr:housenumber" v="243"/>
    <tag k="addr:street" v="Industrial Avenue"/>
    <tag k="addr:state" v="VT"/>
    <tag k="ref:vcgi:esiteid" v="156546"/>
  </node>
  <node id="-2494" visible="true" lat="43.99882504" lon="-73.14289961">
    <!-- multiple: "360 Boardman Street, Middlebury, VT" Multiple exact matches in OSM. -->
    <tag k="addr:city" v="Middlebury"/>
    <tag k="addr:housenumber" v="360"/>
    <tag k="addr:street" v="Boardman Street"/>
    <tag k="addr:state" v="VT"/>
    <tag k="ref:vcgi:esiteid" v="156550"/>
  </node>
  <node id="-2507" visible="true" lat="44.0279904" lon="-73.17277887">
    <!-- multiple: "82 Catamount Park, Middlebury, VT" Multiple exact matches in OSM. -->
    <tag k="addr:city" v="Middlebury"/>
    <tag k="addr:housenumber" v="82"/>
    <tag k="addr:street" v="Catamount Park"/>
    <tag k="addr:state" v="VT"/>
    <tag k="ref:vcgi:esiteid" v="156563"/>
  </node>
  <node id="-2556" visible="true" lat="44.00674153" lon="-73.15926975">
    <!-- multiple: "93 Court Street, Middlebury, VT" Multiple exact matches in OSM. -->
    <tag k="addr:city" v="Middlebury"/>
    <tag k="addr:housenumber" v="93"/>
    <tag k="addr:street" v="Court Street"/>
    <tag k="addr:state" v="VT"/>
    <tag k="ref:vcgi:esiteid" v="156616"/>
  </node>
  <node id="-2565" visible="true" lat="44.01840792" lon="-73.17247193">
    <!-- multiple: "1 Lucius Shaw Lane, Middlebury, VT" Multiple exact matches in OSM. -->
    <tag k="addr:city" v="Middlebury"/>
    <tag k="addr:housenumber" v="1"/>
    <tag k="addr:street" v="Lucius Shaw Lane"/>
    <tag k="addr:state" v="VT"/>
    <tag k="ref:vcgi:esiteid" v="156628"/>
  </node>
  <node id="-2870" visible="true" lat="44.01526626" lon="-73.16904781">
    <!-- multiple: "211 Maple Street, Middlebury, VT" Multiple exact matches in OSM. -->
    <tag k="addr:city" v="Middlebury"/>
    <tag k="addr:housenumber" v="211"/>
    <tag k="addr:street" v="Maple Street"/>
    <tag k="addr:state" v="VT"/>
    <tag k="ref:vcgi:esiteid" v="332727"/>
  </node>
</osm>
