<?xml version="1.0" encoding="UTF-8"?>
<osm version="0.6" generator="JOSM">
  <node id="-111" visible="true" lat="44.01425718" lon="-73.16523783">
    <tag k="addr:city" v="Middlebury"/>
    <tag k="addr:housenumber" v="1"/>
    <tag k="addr:street" v="Court Street"/>
    <tag k="addr:state" v="VT"/>
    <tag k="ref:vcgi:esiteid" v="154923"/>
  </node>
  <node id="-127" visible="true" lat="44.04372468" lon="-73.16287298">
    <tag k="addr:city" v="Middlebury"/>
    <tag k="addr:housenumber" v="1485"/>
    <tag k="addr:street" v="U.S. Route 7 North"/>
    <tag k="addr:state" v="VT"/>
    <tag k="ref:vcgi:esiteid" v="153912"/>
  </node>
  <node id="-140" visible="true" lat="43.99274542" lon="-73.13954796">
    <tag k="addr:city" v="Middlebury"/>
    <tag k="addr:housenumber" v="1289"/>
    <tag k="addr:street" v="U.S. Route 7 South"/>
    <tag k="addr:state" v="VT"/>
    <tag k="ref:vcgi:esiteid" v="155874"/>
  </node>
  <node id="-142" visible="true" lat="43.98893943" lon="-73.13597444">
    <tag k="addr:city" v="Middlebury"/>
    <tag k="addr:housenumber" v="1641"/>
    <tag k="addr:street" v="U.S. Route 7 South"/>
    <tag k="addr:state" v="VT"/>
    <tag k="ref:vcgi:esiteid" v="155931"/>
  </node>
  <node id="-155" visible="true" lat="44.01519665" lon="-73.15552332">
    <tag k="addr:city" v="Middlebury"/>
    <tag k="addr:housenumber" v="53"/>
    <tag k="addr:street" v="Valley View"/>
    <tag k="addr:state" v="VT"/>
    <tag k="ref:vcgi:esiteid" v="154845"/>
  </node>
  <node id="-165" visible="true" lat="43.99530307" lon="-73.14481489">
    <tag k="addr:city" v="Middlebury"/>
    <tag k="addr:housenumber" v="1020"/>
    <tag k="addr:street" v="U.S. Route 7 South"/>
    <tag k="addr:state" v="VT"/>
    <tag k="ref:vcgi:esiteid" v="155829"/>
  </node>
  <node id="-173" visible="true" lat="43.98853912" lon="-73.13546754">
    <tag k="addr:city" v="Middlebury"/>
    <tag k="addr:housenumber" v="1663"/>
    <tag k="addr:street" v="U.S. Route 7 South"/>
    <tag k="addr:state" v="VT"/>
    <tag k="ref:vcgi:esiteid" v="155940"/>
  </node>
  <node id="-188" visible="true" lat="43.97024624" lon="-73.11689143">
    <tag k="addr:city" v="Middlebury"/>
    <tag k="addr:housenumber" v="3318"/>
    <tag k="addr:street" v="U.S. Route 7 South"/>
    <tag k="addr:state" v="VT"/>
    <tag k="ref:vcgi:esiteid" v="156359"/>
  </node>
  <node id="-196" visible="true" lat="44.03777435" lon="-73.16060442">
    <tag k="addr:city" v="Middlebury"/>
    <tag k="addr:housenumber" v="1062"/>
    <tag k="addr:street" v="U.S. Route 7 North"/>
    <tag k="addr:state" v="VT"/>
    <tag k="ref:vcgi:esiteid" v="153939"/>
  </node>
  <node id="-207" visible="true" lat="44.00122556" lon="-73.15064388">
    <tag k="addr:city" v="Middlebury"/>
    <tag k="addr:housenumber" v="510"/>
    <tag k="addr:street" v="U.S. Route 7 South"/>
    <tag k="addr:state" v="VT"/>
    <tag k="ref:vcgi:esiteid" v="155740"/>
  </node>
  <node id="-208" visible="true" lat="44.01317988" lon="-73.16896216">
    <tag k="addr:city" v="Middlebury"/>
    <tag k="addr:housenumber" v="58"/>
    <tag k="addr:street" v="Main Street"/>
    <tag k="addr:state" v="VT"/>
    <tag k="ref:vcgi:esiteid" v="332729"/>
  </node>
  <node id="-235" visible="true" lat="44.01331099" lon="-73.16905912">
    <tag k="addr:city" v="Middlebury"/>
    <tag k="addr:housenumber" v="7"/>
    <tag k="addr:street" v="Frog Hollow Alley"/>
    <tag k="addr:state" v="VT"/>
    <tag k="ref:vcgi:esiteid" v="760999"/>
  </node>
  <node id="-265" visible="true" lat="43.98033004" lon="-73.12516522">
    <tag k="addr:city" v="Middlebury"/>
    <tag k="addr:housenumber" v="2428"/>
    <tag k="addr:street" v="U.S. Route 7 South"/>
    <tag k="addr:state" v="VT"/>
    <tag k="ref:vcgi:esiteid" v="156049"/>
  </node>
  <node id="-296" visible="true" lat="43.9674197" lon="-73.0768749">
    <tag k="addr:city" v="Middlebury"/>
    <tag k="addr:housenumber" v="3593"/>
    <tag k="addr:street" v="Upper Plains Road"/>
    <tag k="addr:state" v="VT"/>
    <tag k="ref:vcgi:esiteid" v="156394"/>
  </node>
  <node id="-332" visible="true" lat="44.04722213" lon="-73.1634674">
    <tag k="addr:city" v="Middlebury"/>
    <tag k="addr:housenumber" v="1740"/>
    <tag k="addr:street" v="U.S. Route 7 North"/>
    <tag k="addr:state" v="VT"/>
    <tag k="ref:vcgi:esiteid" v="153892"/>
  </node>
  <node id="-369" visible="true" lat="43.97587446" lon="-73.11807474">
    <tag k="addr:city" v="Middlebury"/>
    <tag k="addr:housenumber" v="2888"/>
    <tag k="addr:street" v="U.S. Route 7 South"/>
    <tag k="addr:state" v="VT"/>
    <tag k="ref:vcgi:esiteid" v="156109"/>
  </node>
  <node id="-378" visible="true" lat="44.01394697" lon="-73.15563026">
    <tag k="addr:city" v="Middlebury"/>
    <tag k="addr:housenumber" v="133"/>
    <tag k="addr:street" v="Valley View"/>
    <tag k="addr:state" v="VT"/>
    <tag k="ref:vcgi:esiteid" v="154944"/>
  </node>
  <node id="-381" visible="true" lat="43.95924393" lon="-73.11606258">
    <tag k="addr:city" v="Middlebury"/>
    <tag k="addr:housenumber" v="4079"/>
    <tag k="addr:street" v="U.S. Route 7 South"/>
    <tag k="addr:state" v="VT"/>
    <tag k="ref:vcgi:esiteid" v="156447"/>
  </node>
  <node id="-399" visible="true" lat="43.98955662" lon="-73.13828264">
    <tag k="addr:city" v="Middlebury"/>
    <tag k="addr:housenumber" v="1562"/>
    <tag k="addr:street" v="U.S. Route 7 South"/>
    <tag k="addr:state" v="VT"/>
    <tag k="ref:vcgi:esiteid" v="155924"/>
  </node>
  <node id="-405" visible="true" lat="44.01359176" lon="-73.16798429">
    <tag k="addr:city" v="Middlebury"/>
    <tag k="addr:housenumber" v="16"/>
    <tag k="addr:street" v="Merchants Row"/>
    <tag k="addr:state" v="VT"/>
    <tag k="ref:vcgi:esiteid" v="610141"/>
  </node>
  <node id="-419" visible="true" lat="44.01329042" lon="-73.15570169">
    <tag k="addr:city" v="Middlebury"/>
    <tag k="addr:housenumber" v="264"/>
    <tag k="addr:street" v="Valley View"/>
    <tag k="addr:state" v="VT"/>
    <tag k="ref:vcgi:esiteid" v="155009"/>
  </node>
  <node id="-422" visible="true" lat="44.01355632" lon="-73.16790586">
    <tag k="addr:city" v="Middlebury"/>
    <tag k="addr:housenumber" v="22"/>
    <tag k="addr:street" v="Merchants Row"/>
    <tag k="addr:state" v="VT"/>
    <tag k="ref:vcgi:esiteid" v="154956"/>
  </node>
  <node id="-434" visible="true" lat="43.98687857" lon="-73.13449801">
    <tag k="addr:city" v="Middlebury"/>
    <tag k="addr:housenumber" v="1786"/>
    <tag k="addr:street" v="U.S. Route 7 South"/>
    <tag k="addr:state" v="VT"/>
    <tag k="ref:vcgi:esiteid" v="155957"/>
  </node>
  <node id="-466" visible="true" lat="43.99678168" lon="-73.14603453">
    <tag k="addr:city" v="Middlebury"/>
    <tag k="addr:housenumber" v="886"/>
    <tag k="addr:street" v="U.S. Route 7 South"/>
    <tag k="addr:state" v="VT"/>
    <tag k="ref:vcgi:esiteid" v="155814"/>
  </node>
  <node id="-511" visible="true" lat="43.99340612" lon="-73.15504625">
    <tag k="addr:city" v="Middlebury"/>
    <tag k="addr:housenumber" v="21"/>
    <tag k="addr:street" v="Geordies Path"/>
    <tag k="addr:state" v="VT"/>
    <tag k="ref:vcgi:esiteid" v="335175"/>
  </node>
  <node id="-520" visible="true" lat="43.98889923" lon="-73.13718414">
    <tag k="addr:city" v="Middlebury"/>
    <tag k="addr:housenumber" v="1590"/>
    <tag k="addr:street" v="U.S. Route 7 South"/>
    <tag k="addr:state" v="VT"/>
    <tag k="ref:vcgi:esiteid" v="155932"/>
  </node>
  <node id="-584" visible="true" lat="43.99480056" lon="-73.14440917">
    <tag k="addr:city" v="Middlebury"/>
    <tag k="addr:housenumber" v="1050"/>
    <tag k="addr:street" v="U.S. Route 7 South"/>
    <tag k="addr:state" v="VT"/>
    <tag k="ref:vcgi:esiteid" v="155836"/>
  </node>
  <node id="-608" visible="true" lat="44.01267555" lon="-73.15624411">
    <tag k="addr:city" v="Middlebury"/>
    <tag k="addr:housenumber" v="228"/>
    <tag k="addr:street" v="Valley View"/>
    <tag k="addr:state" v="VT"/>
    <tag k="ref:vcgi:esiteid" v="155079"/>
  </node>
  <node id="-627" visible="true" lat="44.03746032" lon="-73.16231536">
    <tag k="addr:city" v="Middlebury"/>
    <tag k="addr:housenumber" v="1055"/>
    <tag k="addr:street" v="U.S. Route 7 North"/>
    <tag k="addr:state" v="VT"/>
    <tag k="ref:vcgi:esiteid" v="153940"/>
  </node>
  <node id="-645" visible="true" lat="43.97957992" lon="-73.12229919">
    <tag k="addr:city" v="Middlebury"/>
    <tag k="addr:housenumber" v="2571"/>
    <tag k="addr:street" v="U.S. Route 7 South"/>
    <tag k="addr:state" v="VT"/>
    <tag k="ref:vcgi:esiteid" v="156059"/>
  </node>
  <node id="-699" visible="true" lat="44.00961186" lon="-73.1649678">
    <tag k="addr:city" v="Middlebury"/>
    <tag k="addr:housenumber" v="2 B"/>
    <tag k="addr:street" v="Duane Court"/>
    <tag k="addr:state" v="VT"/>
    <tag k="ref:vcgi:esiteid" v="335145"/>
  </node>
  <node id="-718" visible="true" lat="43.99425257" lon="-73.14369607">
    <tag k="addr:city" v="Middlebury"/>
    <tag k="addr:housenumber" v="1124"/>
    <tag k="addr:street" v="U.S. Route 7 South"/>
    <tag k="addr:state" v="VT"/>
    <tag k="ref:vcgi:esiteid" v="155846"/>
  </node>
  <node id="-732" visible="true" lat="44.01089952" lon="-73.16181297">
    <tag k="addr:city" v="Middlebury"/>
    <tag k="addr:housenumber" v="201"/>
    <tag k="addr:street" v="Mary Hogan Drive"/>
    <tag k="addr:state" v="VT"/>
    <tag k="ref:vcgi:esiteid" v="155225"/>
  </node>
  <node id="-754" visible="true" lat="44.01358096" lon="-73.15660465">
    <tag k="addr:city" v="Middlebury"/>
    <tag k="addr:housenumber" v="172"/>
    <tag k="addr:street" v="Valley View"/>
    <tag k="addr:state" v="VT"/>
    <tag k="ref:vcgi:esiteid" v="307366"/>
  </node>
  <node id="-759" visible="true" lat="43.98988297" lon="-73.13948324">
    <tag k="addr:city" v="Middlebury"/>
    <tag k="addr:housenumber" v="1448"/>
    <tag k="addr:street" v="U.S. Route 7 South"/>
    <tag k="addr:state" v="VT"/>
    <tag k="ref:vcgi:esiteid" v="155910"/>
  </node>
  <node id="-779" visible="true" lat="43.99988498" lon="-73.14891874">
    <tag k="addr:city" v="Middlebury"/>
    <tag k="addr:housenumber" v="610"/>
    <tag k="addr:street" v="U.S. Route 7 South"/>
    <tag k="addr:state" v="VT"/>
    <tag k="ref:vcgi:esiteid" v="156480"/>
  </node>
  <node id="-795" visible="true" lat="43.98387137" lon="-73.12970941">
    <tag k="addr:city" v="Middlebury"/>
    <tag k="addr:housenumber" v="2106"/>
    <tag k="addr:street" v="U.S. Route 7 South"/>
    <tag k="addr:state" v="VT"/>
    <tag k="ref:vcgi:esiteid" v="156001"/>
  </node>
  <node id="-820" visible="true" lat="43.97659553" lon="-73.11940831">
    <tag k="addr:city" v="Middlebury"/>
    <tag k="addr:housenumber" v="2822"/>
    <tag k="addr:street" v="U.S. Route 7 South"/>
    <tag k="addr:state" v="VT"/>
    <tag k="ref:vcgi:esiteid" v="336447"/>
  </node>
  <node id="-845" visible="true" lat="44.01445152" lon="-73.15254603">
    <tag k="addr:city" v="Middlebury"/>
    <tag k="addr:housenumber" v="8"/>
    <tag k="addr:street" v="Nedde Road"/>
    <tag k="addr:state" v="VT"/>
    <tag k="ref:vcgi:esiteid" v="154926"/>
  </node>
  <node id="-847" visible="true" lat="44.03534317" lon="-73.16203308">
    <tag k="addr:city" v="Middlebury"/>
    <tag k="addr:housenumber" v="896"/>
    <tag k="addr:street" v="U.S. Route 7 North"/>
    <tag k="addr:state" v="VT"/>
    <tag k="ref:vcgi:esiteid" v="153964"/>
  </node>
  <node id="-868" visible="true" lat="43.99880824" lon="-73.14806181">
    <tag k="addr:city" v="Middlebury"/>
    <tag k="addr:housenumber" v="718"/>
    <tag k="addr:street" v="U.S. Route 7 South"/>
    <tag k="addr:state" v="VT"/>
    <tag k="ref:vcgi:esiteid" v="155790"/>
  </node>
  <node id="-894" visible="true" lat="44.02848755" lon="-73.16797165">
    <tag k="addr:city" v="Middlebury"/>
    <tag k="addr:housenumber" v="321"/>
    <tag k="addr:street" v="U.S. Route 7 North"/>
    <tag k="addr:state" v="VT"/>
    <tag k="ref:vcgi:esiteid" v="330010"/>
  </node>
  <node id="-918" visible="true" lat="44.00669412" lon="-73.16313652">
    <tag k="addr:city" v="Middlebury"/>
    <tag k="addr:housenumber" v="73"/>
    <tag k="addr:street" v="Charles Avenue"/>
    <tag k="addr:state" v="VT"/>
    <tag k="ref:vcgi:esiteid" v="155579"/>
  </node>
  <node id="-937" visible="true" lat="43.99941103" lon="-73.14840224">
    <tag k="addr:city" v="Middlebury"/>
    <tag k="addr:housenumber" v="686"/>
    <tag k="addr:street" v="U.S. Route 7 South"/>
    <tag k="addr:state" v="VT"/>
    <tag k="ref:vcgi:esiteid" v="155783"/>
  </node>
  <node id="-946" visible="true" lat="43.97639083" lon="-73.11658477">
    <tag k="addr:city" v="Middlebury"/>
    <tag k="addr:housenumber" v="2889"/>
    <tag k="addr:street" v="U.S. Route 7 South"/>
    <tag k="addr:state" v="VT"/>
    <tag k="ref:vcgi:esiteid" v="156103"/>
  </node>
  <node id="-948" visible="true" lat="44.01363847" lon="-73.16831325">
    <tag k="addr:city" v="Middlebury"/>
    <tag k="addr:housenumber" v="6"/>
    <tag k="addr:street" v="Merchants Row"/>
    <tag k="addr:state" v="VT"/>
    <tag k="ref:vcgi:esiteid" v="156488"/>
  </node>
  <node id="-949" visible="true" lat="44.04561997" lon="-73.16252999">
    <tag k="addr:city" v="Middlebury"/>
    <tag k="addr:housenumber" v="1522"/>
    <tag k="addr:street" v="U.S. Route 7 North"/>
    <tag k="addr:state" v="VT"/>
    <tag k="ref:vcgi:esiteid" v="156603"/>
  </node>
  <node id="-960" visible="true" lat="44.04353739" lon="-73.16119317">
    <tag k="addr:city" v="Middlebury"/>
    <tag k="addr:housenumber" v="1442"/>
    <tag k="addr:street" v="U.S. Route 7 North"/>
    <tag k="addr:state" v="VT"/>
    <tag k="ref:vcgi:esiteid" v="156502"/>
  </node>
  <node id="-973" visible="true" lat="43.96462249" lon="-73.11694336">
    <tag k="addr:city" v="Middlebury"/>
    <tag k="addr:housenumber" v="3706"/>
    <tag k="addr:street" v="U.S. Route 7 South"/>
    <tag k="addr:state" v="VT"/>
    <tag k="ref:vcgi:esiteid" v="156417"/>
  </node>
  <node id="-981" visible="true" lat="44.00590796" lon="-73.15915379">
    <tag k="addr:city" v="Middlebury"/>
    <tag k="addr:housenumber" v="99 A"/>
    <tag k="addr:street" v="Court Street"/>
    <tag k="addr:state" v="VT"/>
    <tag k="ref:vcgi:esiteid" v="156649"/>
  </node>
  <node id="-991" visible="true" lat="43.99909006" lon="-73.14817333">
    <tag k="addr:city" v="Middlebury"/>
    <tag k="addr:housenumber" v="706"/>
    <tag k="addr:street" v="U.S. Route 7 South"/>
    <tag k="addr:state" v="VT"/>
    <tag k="ref:vcgi:esiteid" v="155786"/>
  </node>
  <node id="-1005" visible="true" lat="43.96989434" lon="-73.11451518">
    <tag k="addr:city" v="Middlebury"/>
    <tag k="addr:housenumber" v="3311"/>
    <tag k="addr:street" v="U.S. Route 7 South"/>
    <tag k="addr:state" v="VT"/>
    <tag k="ref:vcgi:esiteid" v="306576"/>
  </node>
  <node id="-1007" visible="true" lat="43.99273937" lon="-73.14413745">
    <tag k="addr:city" v="Middlebury"/>
    <tag k="addr:housenumber" v="1280"/>
    <tag k="addr:street" v="U.S. Route 7 South"/>
    <tag k="addr:state" v="VT"/>
    <tag k="ref:vcgi:esiteid" v="155876"/>
  </node>
  <node id="-1018" visible="true" lat="43.96428162" lon="-73.11624618">
    <tag k="addr:city" v="Middlebury"/>
    <tag k="addr:housenumber" v="3749"/>
    <tag k="addr:street" v="U.S. Route 7 South"/>
    <tag k="addr:state" v="VT"/>
    <tag k="ref:vcgi:esiteid" v="156422"/>
  </node>
  <node id="-1106" visible="true" lat="43.98427963" lon="-73.13014984">
    <tag k="addr:city" v="Middlebury"/>
    <tag k="addr:housenumber" v="2078"/>
    <tag k="addr:street" v="U.S. Route 7 South"/>
    <tag k="addr:state" v="VT"/>
    <tag k="ref:vcgi:esiteid" v="155991"/>
  </node>
  <node id="-1173" visible="true" lat="43.97113037" lon="-73.11625671">
    <tag k="addr:city" v="Middlebury"/>
    <tag k="addr:housenumber" v="3255"/>
    <tag k="addr:street" v="U.S. Route 7 South"/>
    <tag k="addr:state" v="VT"/>
    <tag k="ref:vcgi:esiteid" v="156322"/>
  </node>
  <node id="-1192" visible="true" lat="43.97988899" lon="-73.12448486">
    <tag k="addr:city" v="Middlebury"/>
    <tag k="addr:housenumber" v="2476"/>
    <tag k="addr:street" v="U.S. Route 7 South"/>
    <tag k="addr:state" v="VT"/>
    <tag k="ref:vcgi:esiteid" v="156053"/>
  </node>
  <node id="-1214" visible="true" lat="43.96201451" lon="-73.07719876">
    <tag k="addr:city" v="Middlebury"/>
    <tag k="addr:housenumber" v="3233"/>
    <tag k="addr:street" v="Upper Plains Road"/>
    <tag k="addr:state" v="VT"/>
    <tag k="ref:vcgi:esiteid" v="156436"/>
  </node>
  <node id="-1230" visible="true" lat="43.99346708" lon="-73.15542689">
    <tag k="addr:city" v="Middlebury"/>
    <tag k="addr:housenumber" v="20"/>
    <tag k="addr:street" v="Geordies Path"/>
    <tag k="addr:state" v="VT"/>
    <tag k="ref:vcgi:esiteid" v="446825"/>
  </node>
  <node id="-1240" visible="true" lat="44.04289789" lon="-73.1634381">
    <tag k="addr:city" v="Middlebury"/>
    <tag k="addr:housenumber" v="1405"/>
    <tag k="addr:street" v="U.S. Route 7 North"/>
    <tag k="addr:state" v="VT"/>
    <tag k="ref:vcgi:esiteid" v="452919"/>
  </node>
  <node id="-1271" visible="true" lat="43.98115878" lon="-73.12602068">
    <tag k="addr:city" v="Middlebury"/>
    <tag k="addr:housenumber" v="2360"/>
    <tag k="addr:street" v="U.S. Route 7 South"/>
    <tag k="addr:state" v="VT"/>
    <tag k="ref:vcgi:esiteid" v="156042"/>
  </node>
  <node id="-1284" visible="true" lat="43.95794153" lon="-73.11655238">
    <tag k="addr:city" v="Middlebury"/>
    <tag k="addr:housenumber" v="4165"/>
    <tag k="addr:street" v="U.S. Route 7 South"/>
    <tag k="addr:state" v="VT"/>
    <tag k="ref:vcgi:esiteid" v="156450"/>
  </node>
  <node id="-1295" visible="true" lat="44.01353073" lon="-73.16736602">
    <tag k="addr:city" v="Middlebury"/>
    <tag k="addr:housenumber" v="48"/>
    <tag k="addr:street" v="Merchants Row"/>
    <tag k="addr:state" v="VT"/>
    <tag k="ref:vcgi:esiteid" v="154972"/>
  </node>
  <node id="-1304" visible="true" lat="44.04406383" lon="-73.16118448">
    <tag k="addr:city" v="Middlebury"/>
    <tag k="addr:housenumber" v="1486"/>
    <tag k="addr:street" v="U.S. Route 7 North"/>
    <tag k="addr:state" v="VT"/>
    <tag k="ref:vcgi:esiteid" v="757328"/>
  </node>
  <node id="-1308" visible="true" lat="43.96400833" lon="-73.11580657">
    <tag k="addr:city" v="Middlebury"/>
    <tag k="addr:housenumber" v="3751"/>
    <tag k="addr:street" v="U.S. Route 7 South"/>
    <tag k="addr:state" v="VT"/>
    <tag k="ref:vcgi:esiteid" v="156423"/>
  </node>
  <node id="-1343" visible="true" lat="43.99789666" lon="-73.14717901">
    <tag k="addr:city" v="Middlebury"/>
    <tag k="addr:housenumber" v="800"/>
    <tag k="addr:street" v="U.S. Route 7 South"/>
    <tag k="addr:state" v="VT"/>
    <tag k="ref:vcgi:esiteid" v="155800"/>
  </node>
  <node id="-1352" visible="true" lat="43.99093746" lon="-73.13830051">
    <tag k="addr:city" v="Middlebury"/>
    <tag k="addr:housenumber" v="1479"/>
    <tag k="addr:street" v="U.S. Route 7 South"/>
    <tag k="addr:state" v="VT"/>
    <tag k="ref:vcgi:esiteid" v="455090"/>
  </node>
  <node id="-1393" visible="true" lat="44.01435856" lon="-73.15257192">
    <tag k="addr:city" v="Middlebury"/>
    <tag k="addr:housenumber" v="10"/>
    <tag k="addr:street" v="Nedde Road"/>
    <tag k="addr:state" v="VT"/>
    <tag k="ref:vcgi:esiteid" v="156682"/>
  </node>
  <node id="-1399" visible="true" lat="43.9796799" lon="-73.12402819">
    <tag k="addr:city" v="Middlebury"/>
    <tag k="addr:housenumber" v="2504"/>
    <tag k="addr:street" v="U.S. Route 7 South"/>
    <tag k="addr:state" v="VT"/>
    <tag k="ref:vcgi:esiteid" v="156056"/>
  </node>
  <node id="-1400" visible="true" lat="43.99458417" lon="-73.14398777">
    <tag k="addr:city" v="Middlebury"/>
    <tag k="addr:housenumber" v="1080"/>
    <tag k="addr:street" v="U.S. Route 7 South"/>
    <tag k="addr:state" v="VT"/>
    <tag k="ref:vcgi:esiteid" v="155843"/>
  </node>
  <node id="-1430" visible="true" lat="43.98105504" lon="-73.12767284">
    <tag k="addr:city" v="Middlebury"/>
    <tag k="addr:housenumber" v="2340"/>
    <tag k="addr:street" v="U.S. Route 7 South"/>
    <tag k="addr:state" v="VT"/>
    <tag k="ref:vcgi:esiteid" v="454339"/>
  </node>
  <node id="-1457" visible="true" lat="44.03194809" lon="-73.16547393">
    <tag k="addr:city" v="Middlebury"/>
    <tag k="addr:housenumber" v="610"/>
    <tag k="addr:street" v="U.S. Route 7 North"/>
    <tag k="addr:state" v="VT"/>
    <tag k="ref:vcgi:esiteid" v="153993"/>
  </node>
  <node id="-1459" visible="true" lat="43.9812088" lon="-73.12483978">
    <tag k="addr:city" v="Middlebury"/>
    <tag k="addr:housenumber" v="2399"/>
    <tag k="addr:street" v="U.S. Route 7 South"/>
    <tag k="addr:state" v="VT"/>
    <tag k="ref:vcgi:esiteid" v="156045"/>
  </node>
  <node id="-1475" visible="true" lat="43.98175694" lon="-73.12660132">
    <tag k="addr:city" v="Middlebury"/>
    <tag k="addr:housenumber" v="2316"/>
    <tag k="addr:street" v="U.S. Route 7 South"/>
    <tag k="addr:state" v="VT"/>
    <tag k="ref:vcgi:esiteid" v="156036"/>
  </node>
  <node id="-1482" visible="true" lat="44.02838516" lon="-73.16719818">
    <tag k="addr:city" v="Middlebury"/>
    <tag k="addr:housenumber" v="290"/>
    <tag k="addr:street" v="U.S. Route 7 North"/>
    <tag k="addr:state" v="VT"/>
    <tag k="ref:vcgi:esiteid" v="154067"/>
  </node>
  <node id="-1490" visible="true" lat="43.97722861" lon="-73.11895271">
    <tag k="addr:city" v="Middlebury"/>
    <tag k="addr:housenumber" v="2801"/>
    <tag k="addr:street" v="U.S. Route 7 South"/>
    <tag k="addr:state" v="VT"/>
    <tag k="ref:vcgi:esiteid" v="156091"/>
  </node>
  <node id="-1510" visible="true" lat="44.01470927" lon="-73.15238437">
    <tag k="addr:city" v="Middlebury"/>
    <tag k="addr:housenumber" v="6"/>
    <tag k="addr:street" v="Nedde Road"/>
    <tag k="addr:state" v="VT"/>
    <tag k="ref:vcgi:esiteid" v="156681"/>
  </node>
  <node id="-1512" visible="true" lat="43.97210486" lon="-73.11602172">
    <tag k="addr:city" v="Middlebury"/>
    <tag k="addr:housenumber" v="3201"/>
    <tag k="addr:street" v="U.S. Route 7 South"/>
    <tag k="addr:state" v="VT"/>
    <tag k="ref:vcgi:esiteid" v="156273"/>
  </node>
  <node id="-1557" visible="true" lat="44.01362609" lon="-73.13913726">
    <tag k="addr:city" v="Middlebury"/>
    <tag k="addr:housenumber" v="217"/>
    <tag k="addr:street" v="Quarry Road"/>
    <tag k="addr:state" v="VT"/>
    <tag k="ref:vcgi:esiteid" v="154977"/>
  </node>
  <node id="-1574" visible="true" lat="43.99067226" lon="-73.13987626">
    <tag k="addr:city" v="Middlebury"/>
    <tag k="addr:housenumber" v="1410"/>
    <tag k="addr:street" v="U.S. Route 7 South"/>
    <tag k="addr:state" v="VT"/>
    <tag k="ref:vcgi:esiteid" v="155902"/>
  </node>
  <node id="-1584" visible="true" lat="43.96280368" lon="-73.07683609">
    <tag k="addr:city" v="Middlebury"/>
    <tag k="addr:housenumber" v="3259"/>
    <tag k="addr:street" v="Upper Plains Road"/>
    <tag k="addr:state" v="VT"/>
    <tag k="ref:vcgi:esiteid" v="156431"/>
  </node>
  <node id="-1588" visible="true" lat="43.98172346" lon="-73.12538185">
    <tag k="addr:city" v="Middlebury"/>
    <tag k="addr:housenumber" v="2369"/>
    <tag k="addr:street" v="U.S. Route 7 South"/>
    <tag k="addr:state" v="VT"/>
    <tag k="ref:vcgi:esiteid" v="156039"/>
  </node>
  <node id="-1603" visible="true" lat="43.9920737" lon="-73.14555339">
    <tag k="addr:city" v="Middlebury"/>
    <tag k="addr:housenumber" v="1290"/>
    <tag k="addr:street" v="U.S. Route 7 South"/>
    <tag k="addr:state" v="VT"/>
    <tag k="ref:vcgi:esiteid" v="452639"/>
  </node>
  <node id="-1605" visible="true" lat="43.96168876" lon="-73.1153541">
    <tag k="addr:city" v="Middlebury"/>
    <tag k="addr:housenumber" v="3881"/>
    <tag k="addr:street" v="U.S. Route 7 South"/>
    <tag k="addr:state" v="VT"/>
    <tag k="ref:vcgi:esiteid" v="332732"/>
  </node>
  <node id="-1612" visible="true" lat="44.01477349" lon="-73.17339909">
    <tag k="addr:city" v="Middlebury"/>
    <tag k="addr:housenumber" v="62"/>
    <tag k="addr:street" v="Wisslers Lane"/>
    <tag k="addr:state" v="VT"/>
    <tag k="ref:vcgi:esiteid" v="365031"/>
  </node>
  <node id="-1643" visible="true" lat="44.01909433" lon="-73.1674734">
    <tag k="addr:city" v="Middlebury"/>
    <tag k="addr:housenumber" v="19 A"/>
    <tag k="addr:street" v="Elm Street"/>
    <tag k="addr:state" v="VT"/>
    <tag k="ref:vcgi:esiteid" v="154480"/>
  </node>
  <node id="-1650" visible="true" lat="43.99840105" lon="-73.14579928">
    <tag k="addr:city" v="Middlebury"/>
    <tag k="addr:housenumber" v="889"/>
    <tag k="addr:street" v="U.S. Route 7 South"/>
    <tag k="addr:state" v="VT"/>
    <tag k="ref:vcgi:esiteid" v="449649"/>
  </node>
  <node id="-1656" visible="true" lat="44.0148694" lon="-73.15231136">
    <tag k="addr:city" v="Middlebury"/>
    <tag k="addr:housenumber" v="2"/>
    <tag k="addr:street" v="Nedde Road"/>
    <tag k="addr:state" v="VT"/>
    <tag k="ref:vcgi:esiteid" v="154887"/>
  </node>
  <node id="-1676" visible="true" lat="43.98299026" lon="-73.12737274">
    <tag k="addr:city" v="Middlebury"/>
    <tag k="addr:housenumber" v="2225"/>
    <tag k="addr:street" v="U.S. Route 7 South"/>
    <tag k="addr:state" v="VT"/>
    <tag k="ref:vcgi:esiteid" v="156013"/>
  </node>
  <node id="-1687" visible="true" lat="44.04381981" lon="-73.16158599">
    <tag k="addr:city" v="Middlebury"/>
    <tag k="addr:housenumber" v="1482"/>
    <tag k="addr:street" v="U.S. Route 7 North"/>
    <tag k="addr:state" v="VT"/>
    <tag k="ref:vcgi:esiteid" v="153908"/>
  </node>
  <node id="-1691" visible="true" lat="43.96609124" lon="-73.07718082">
    <tag k="addr:city" v="Middlebury"/>
    <tag k="addr:housenumber" v="3559"/>
    <tag k="addr:street" v="Upper Plains Road"/>
    <tag k="addr:state" v="VT"/>
    <tag k="ref:vcgi:esiteid" v="156408"/>
  </node>
  <node id="-1698" visible="true" lat="43.98115539" lon="-73.12567901">
    <tag k="addr:city" v="Middlebury"/>
    <tag k="addr:housenumber" v="2372"/>
    <tag k="addr:street" v="U.S. Route 7 South"/>
    <tag k="addr:state" v="VT"/>
    <tag k="ref:vcgi:esiteid" v="156046"/>
  </node>
  <node id="-1700" visible="true" lat="44.03051757" lon="-73.16648864">
    <tag k="addr:city" v="Middlebury"/>
    <tag k="addr:housenumber" v="476"/>
    <tag k="addr:street" v="U.S. Route 7 North"/>
    <tag k="addr:state" v="VT"/>
    <tag k="ref:vcgi:esiteid" v="154016"/>
  </node>
  <node id="-1713" visible="true" lat="43.99746885" lon="-73.14685711">
    <tag k="addr:city" v="Middlebury"/>
    <tag k="addr:housenumber" v="844"/>
    <tag k="addr:street" v="U.S. Route 7 South"/>
    <tag k="addr:state" v="VT"/>
    <tag k="ref:vcgi:esiteid" v="155806"/>
  </node>
  <node id="-1718" visible="true" lat="44.01415272" lon="-73.16847623">
    <tag k="addr:city" v="Middlebury"/>
    <tag k="addr:housenumber" v="32"/>
    <tag k="addr:street" v="Main Street"/>
    <tag k="addr:state" v="VT"/>
    <tag k="ref:vcgi:esiteid" v="154922"/>
  </node>
  <node id="-1721" visible="true" lat="44.01327803" lon="-73.16684823">
    <tag k="addr:city" v="Middlebury"/>
    <tag k="addr:housenumber" v="66"/>
    <tag k="addr:street" v="Merchants Row"/>
    <tag k="addr:state" v="VT"/>
    <tag k="ref:vcgi:esiteid" v="154979"/>
  </node>
  <node id="-1727" visible="true" lat="44.01376806" lon="-73.1524219">
    <tag k="addr:city" v="Middlebury"/>
    <tag k="addr:housenumber" v="18"/>
    <tag k="addr:street" v="Nedde Road"/>
    <tag k="addr:state" v="VT"/>
    <tag k="ref:vcgi:esiteid" v="156685"/>
  </node>
  <node id="-1745" visible="true" lat="43.98368945" lon="-73.12970463">
    <tag k="addr:city" v="Middlebury"/>
    <tag k="addr:housenumber" v="2110"/>
    <tag k="addr:street" v="U.S. Route 7 South"/>
    <tag k="addr:state" v="VT"/>
    <tag k="ref:vcgi:esiteid" v="156004"/>
  </node>
  <node id="-1774" visible="true" lat="44.01412781" lon="-73.16726865">
    <tag k="addr:city" v="Middlebury"/>
    <tag k="addr:housenumber" v="59"/>
    <tag k="addr:street" v="Merchants Row"/>
    <tag k="addr:state" v="VT"/>
    <tag k="ref:vcgi:esiteid" v="154946"/>
  </node>
  <node id="-1804" visible="true" lat="43.99227523" lon="-73.13981628">
    <tag k="addr:city" v="Middlebury"/>
    <tag k="addr:housenumber" v="1293"/>
    <tag k="addr:street" v="U.S. Route 7 South"/>
    <tag k="addr:state" v="VT"/>
    <tag k="ref:vcgi:esiteid" v="155881"/>
  </node>
  <node id="-1849" visible="true" lat="44.01478289" lon="-73.15234331">
    <tag k="addr:city" v="Middlebury"/>
    <tag k="addr:housenumber" v="4"/>
    <tag k="addr:street" v="Nedde Road"/>
    <tag k="addr:state" v="VT"/>
    <tag k="ref:vcgi:esiteid" v="156680"/>
  </node>
  <node id="-1861" visible="true" lat="43.99724036" lon="-73.14618737">
    <tag k="addr:city" v="Middlebury"/>
    <tag k="addr:housenumber" v="864"/>
    <tag k="addr:street" v="U.S. Route 7 South"/>
    <tag k="addr:state" v="VT"/>
    <tag k="ref:vcgi:esiteid" v="155809"/>
  </node>
  <node id="-1930" visible="true" lat="43.990036" lon="-73.13889312">
    <tag k="addr:city" v="Middlebury"/>
    <tag k="addr:housenumber" v="1458"/>
    <tag k="addr:street" v="U.S. Route 7 South"/>
    <tag k="addr:state" v="VT"/>
    <tag k="ref:vcgi:esiteid" v="155915"/>
  </node>
  <node id="-1977" visible="true" lat="43.96377484" lon="-73.11556472">
    <tag k="addr:city" v="Middlebury"/>
    <tag k="addr:housenumber" v="3753"/>
    <tag k="addr:street" v="U.S. Route 7 South"/>
    <tag k="addr:state" v="VT"/>
    <tag k="ref:vcgi:esiteid" v="156426"/>
  </node>
  <node id="-1983" visible="true" lat="43.98744391" lon="-73.13459947">
    <tag k="addr:city" v="Middlebury"/>
    <tag k="addr:housenumber" v="1756"/>
    <tag k="addr:street" v="U.S. Route 7 South"/>
    <tag k="addr:state" v="VT"/>
    <tag k="ref:vcgi:esiteid" v="155951"/>
  </node>
  <node id="-1987" visible="true" lat="43.98918151" lon="-73.13764953">
    <tag k="addr:city" v="Middlebury"/>
    <tag k="addr:housenumber" v="1560"/>
    <tag k="addr:street" v="U.S. Route 7 South"/>
    <tag k="addr:state" v="VT"/>
    <tag k="ref:vcgi:esiteid" v="155927"/>
  </node>
  <node id="-1989" visible="true" lat="43.99390049" lon="-73.14103415">
    <tag k="addr:city" v="Middlebury"/>
    <tag k="addr:housenumber" v="1219"/>
    <tag k="addr:street" v="U.S. Route 7 South"/>
    <tag k="addr:state" v="VT"/>
    <tag k="ref:vcgi:esiteid" v="155852"/>
  </node>
  <node id="-2002" visible="true" lat="44.01502424" lon="-73.16519046">
    <tag k="addr:city" v="Middlebury"/>
    <tag k="addr:housenumber" v="9"/>
    <tag k="addr:street" v="Washington Street"/>
    <tag k="addr:state" v="VT"/>
    <tag k="ref:vcgi:esiteid" v="154862"/>
  </node>
  <node id="-2010" visible="true" lat="44.01601852" lon="-73.15736088">
    <tag k="addr:city" v="Middlebury"/>
    <tag k="addr:housenumber" v="68 A"/>
    <tag k="addr:street" v="Seminary Street Extension"/>
    <tag k="addr:state" v="VT"/>
    <tag k="ref:vcgi:esiteid" v="156515"/>
  </node>
  <node id="-2017" visible="true" lat="44.02917604" lon="-73.16799584">
    <tag k="addr:city" v="Middlebury"/>
    <tag k="addr:housenumber" v="325"/>
    <tag k="addr:street" v="U.S. Route 7 North"/>
    <tag k="addr:state" v="VT"/>
    <tag k="ref:vcgi:esiteid" v="154047"/>
  </node>
  <node id="-2020" visible="true" lat="44.01377106" lon="-73.15265221">
    <tag k="addr:city" v="Middlebury"/>
    <tag k="addr:housenumber" v="14"/>
    <tag k="addr:street" v="Nedde Road"/>
    <tag k="addr:state" v="VT"/>
    <tag k="ref:vcgi:esiteid" v="154957"/>
  </node>
  <node id="-2054" visible="true" lat="43.96835055" lon="-73.07778801">
    <tag k="addr:city" v="Middlebury"/>
    <tag k="addr:housenumber" v="3641"/>
    <tag k="addr:street" v="Upper Plains Road"/>
    <tag k="addr:state" v="VT"/>
    <tag k="ref:vcgi:esiteid" v="156386"/>
  </node>
  <node id="-2066" visible="true" lat="43.99531887" lon="-73.1428375">
    <tag k="addr:city" v="Middlebury"/>
    <tag k="addr:housenumber" v="1129"/>
    <tag k="addr:street" v="U.S. Route 7 South"/>
    <tag k="addr:state" v="VT"/>
    <tag k="ref:vcgi:esiteid" v="155833"/>
  </node>
  <node id="-2101" visible="true" lat="43.98770214" lon="-73.13302397">
    <tag k="addr:city" v="Middlebury"/>
    <tag k="addr:housenumber" v="1741"/>
    <tag k="addr:street" v="U.S. Route 7 South"/>
    <tag k="addr:state" v="VT"/>
    <tag k="ref:vcgi:esiteid" v="155946"/>
  </node>
  <node id="-2110" visible="true" lat="43.99328654" lon="-73.15514288">
    <tag k="addr:city" v="Middlebury"/>
    <tag k="addr:housenumber" v="23"/>
    <tag k="addr:street" v="Geordies Path"/>
    <tag k="addr:state" v="VT"/>
    <tag k="ref:vcgi:esiteid" v="446826"/>
  </node>
  <node id="-2152" visible="true" lat="43.99034845" lon="-73.13793958">
    <tag k="addr:city" v="Middlebury"/>
    <tag k="addr:housenumber" v="1499"/>
    <tag k="addr:street" v="U.S. Route 7 South"/>
    <tag k="addr:state" v="VT"/>
    <tag k="ref:vcgi:esiteid" v="155912"/>
  </node>
  <node id="-2156" visible="true" lat="43.97757595" lon="-73.11966159">
    <tag k="addr:city" v="Middlebury"/>
    <tag k="addr:housenumber" v="2773"/>
    <tag k="addr:street" v="U.S. Route 7 South"/>
    <tag k="addr:state" v="VT"/>
    <tag k="ref:vcgi:esiteid" v="156089"/>
  </node>
  <node id="-2166" visible="true" lat="44.03341674" lon="-73.16432189">
    <tag k="addr:city" v="Middlebury"/>
    <tag k="addr:housenumber" v="708"/>
    <tag k="addr:street" v="U.S. Route 7 North"/>
    <tag k="addr:state" v="VT"/>
    <tag k="ref:vcgi:esiteid" v="153983"/>
  </node>
  <node id="-2167" visible="true" lat="43.99078988" lon="-73.14021059">
    <tag k="addr:city" v="Middlebury"/>
    <tag k="addr:housenumber" v="1396"/>
    <tag k="addr:street" v="U.S. Route 7 South"/>
    <tag k="addr:state" v="VT"/>
    <tag k="ref:vcgi:esiteid" v="155900"/>
  </node>
  <node id="-2171" visible="true" lat="44.01295932" lon="-73.15671883">
    <tag k="addr:city" v="Middlebury"/>
    <tag k="addr:housenumber" v="210"/>
    <tag k="addr:street" v="Valley View"/>
    <tag k="addr:state" v="VT"/>
    <tag k="ref:vcgi:esiteid" v="155031"/>
  </node>
  <node id="-2191" visible="true" lat="44.00001175" lon="-73.1472856">
    <tag k="addr:city" v="Middlebury"/>
    <tag k="addr:housenumber" v="36"/>
    <tag k="addr:street" v="Boardman Street"/>
    <tag k="addr:state" v="VT"/>
    <tag k="ref:vcgi:esiteid" v="155775"/>
  </node>
  <node id="-2209" visible="true" lat="44.01392999" lon="-73.1684376">
    <tag k="addr:city" v="Middlebury"/>
    <tag k="addr:housenumber" v="36"/>
    <tag k="addr:street" v="Main Street"/>
    <tag k="addr:state" v="VT"/>
    <tag k="ref:vcgi:esiteid" v="332728"/>
  </node>
  <node id="-2217" visible="true" lat="43.98252868" lon="-73.12999725">
    <tag k="addr:city" v="Middlebury"/>
    <tag k="addr:housenumber" v="2160"/>
    <tag k="addr:street" v="U.S. Route 7 South"/>
    <tag k="addr:state" v="VT"/>
    <tag k="ref:vcgi:esiteid" v="156022"/>
  </node>
  <node id="-2218" visible="true" lat="44.02877052" lon="-73.1479865">
    <tag k="addr:city" v="Middlebury"/>
    <tag k="addr:housenumber" v="959"/>
    <tag k="addr:street" v="Happy Valley Road"/>
    <tag k="addr:state" v="VT"/>
    <tag k="ref:vcgi:esiteid" v="154062"/>
  </node>
  <node id="-2219" visible="true" lat="44.01444902" lon="-73.16346769">
    <tag k="addr:city" v="Middlebury"/>
    <tag k="addr:housenumber" v="8"/>
    <tag k="addr:street" v="Washington Street"/>
    <tag k="addr:state" v="VT"/>
    <tag k="ref:vcgi:esiteid" v="154905"/>
  </node>
  <node id="-2223" visible="true" lat="43.99405604" lon="-73.14061016">
    <tag k="addr:city" v="Middlebury"/>
    <tag k="addr:housenumber" v="1223"/>
    <tag k="addr:street" v="U.S. Route 7 South"/>
    <tag k="addr:state" v="VT"/>
    <tag k="ref:vcgi:esiteid" v="155848"/>
  </node>
  <node id="-2227" visible="true" lat="43.99758473" lon="-73.14559335">
    <tag k="addr:city" v="Middlebury"/>
    <tag k="addr:housenumber" v="859"/>
    <tag k="addr:street" v="U.S. Route 7 South"/>
    <tag k="addr:state" v="VT"/>
    <tag k="ref:vcgi:esiteid" v="155807"/>
  </node>
  <node id="-2236" visible="true" lat="44.01329267" lon="-73.16908023">
    <tag k="addr:city" v="Middlebury"/>
    <tag k="addr:housenumber" v="5"/>
    <tag k="addr:street" v="Frog Hollow Alley"/>
    <tag k="addr:state" v="VT"/>
    <tag k="ref:vcgi:esiteid" v="154986"/>
  </node>
  <node id="-2240" visible="true" lat="43.98995935" lon="-73.13732923">
    <tag k="addr:city" v="Middlebury"/>
    <tag k="addr:housenumber" v="1557"/>
    <tag k="addr:street" v="U.S. Route 7 South"/>
    <tag k="addr:state" v="VT"/>
    <tag k="ref:vcgi:esiteid" v="155918"/>
  </node>
  <node id="-2243" visible="true" lat="44.00563609" lon="-73.16233121">
    <tag k="addr:city" v="Middlebury"/>
    <tag k="addr:housenumber" v="51"/>
    <tag k="addr:street" v="Charles Avenue"/>
    <tag k="addr:state" v="VT"/>
    <tag k="ref:vcgi:esiteid" v="155608"/>
  </node>
  <node id="-2264" visible="true" lat="44.01354785" lon="-73.16772174">
    <tag k="addr:city" v="Middlebury"/>
    <tag k="addr:housenumber" v="32"/>
    <tag k="addr:street" v="Merchants Row"/>
    <tag k="addr:state" v="VT"/>
    <tag k="ref:vcgi:esiteid" v="154963"/>
  </node>
  <node id="-2272" visible="true" lat="44.01354106" lon="-73.16782956">
    <tag k="addr:city" v="Middlebury"/>
    <tag k="addr:housenumber" v="24"/>
    <tag k="addr:street" v="Merchants Row"/>
    <tag k="addr:state" v="VT"/>
    <tag k="ref:vcgi:esiteid" v="154959"/>
  </node>
  <node id="-2313" visible="true" lat="44.04596775" lon="-73.16365881">
    <tag k="addr:city" v="Middlebury"/>
    <tag k="addr:housenumber" v="1651"/>
    <tag k="addr:street" v="U.S. Route 7 North"/>
    <tag k="addr:state" v="VT"/>
    <tag k="ref:vcgi:esiteid" v="153900"/>
  </node>
  <node id="-2337" visible="true" lat="44.04389494" lon="-73.16202618">
    <tag k="addr:city" v="Middlebury"/>
    <tag k="addr:housenumber" v="1480"/>
    <tag k="addr:street" v="U.S. Route 7 North"/>
    <tag k="addr:state" v="VT"/>
    <tag k="ref:vcgi:esiteid" v="153909"/>
  </node>
  <node id="-2346" visible="true" lat="43.96528951" lon="-73.11436998">
    <tag k="addr:city" v="Middlebury"/>
    <tag k="addr:housenumber" v="3667"/>
    <tag k="addr:street" v="U.S. Route 7 South"/>
    <tag k="addr:state" v="VT"/>
    <tag k="ref:vcgi:esiteid" v="156469"/>
  </node>
  <node id="-2368" visible="true" lat="44.02815957" lon="-73.14768609">
    <tag k="addr:city" v="Middlebury"/>
    <tag k="addr:housenumber" v="999"/>
    <tag k="addr:street" v="Happy Valley Road"/>
    <tag k="addr:state" v="VT"/>
    <tag k="ref:vcgi:esiteid" v="154076"/>
  </node>
  <node id="-2395" visible="true" lat="44.01327881" lon="-73.16790264">
    <tag k="addr:city" v="Middlebury"/>
    <tag k="addr:housenumber" v="42"/>
    <tag k="addr:street" v="Merchants Row"/>
    <tag k="addr:state" v="VT"/>
    <tag k="ref:vcgi:esiteid" v="156514"/>
  </node>
  <node id="-2397" visible="true" lat="43.98341369" lon="-73.12798309">
    <tag k="addr:city" v="Middlebury"/>
    <tag k="addr:housenumber" v="2183"/>
    <tag k="addr:street" v="U.S. Route 7 South"/>
    <tag k="addr:state" v="VT"/>
    <tag k="ref:vcgi:esiteid" v="156008"/>
  </node>
  <node id="-2413" visible="true" lat="44.01377178" lon="-73.15252661">
    <tag k="addr:city" v="Middlebury"/>
    <tag k="addr:housenumber" v="16"/>
    <tag k="addr:street" v="Nedde Road"/>
    <tag k="addr:state" v="VT"/>
    <tag k="ref:vcgi:esiteid" v="156684"/>
  </node>
  <node id="-2425" visible="true" lat="43.99502563" lon="-73.14336395">
    <tag k="addr:city" v="Middlebury"/>
    <tag k="addr:housenumber" v="1007"/>
    <tag k="addr:street" v="U.S. Route 7 South"/>
    <tag k="addr:state" v="VT"/>
    <tag k="ref:vcgi:esiteid" v="155834"/>
  </node>
  <node id="-2430" visible="true" lat="43.96484212" lon="-73.1158198">
    <tag k="addr:city" v="Middlebury"/>
    <tag k="addr:housenumber" v="3707"/>
    <tag k="addr:street" v="U.S. Route 7 South"/>
    <tag k="addr:state" v="VT"/>
    <tag k="ref:vcgi:esiteid" v="156415"/>
  </node>
  <node id="-2458" visible="true" lat="43.99860333" lon="-73.14758088">
    <tag k="addr:city" v="Middlebury"/>
    <tag k="addr:housenumber" v="740"/>
    <tag k="addr:street" v="U.S. Route 7 South"/>
    <tag k="addr:state" v="VT"/>
    <tag k="ref:vcgi:esiteid" v="339770"/>
  </node>
  <node id="-2462" visible="true" lat="44.01672295" lon="-73.16883309">
    <tag k="addr:city" v="Middlebury"/>
    <tag k="addr:housenumber" v="20 A"/>
    <tag k="addr:street" v="Seymour Street"/>
    <tag k="addr:state" v="VT"/>
    <tag k="ref:vcgi:esiteid" v="154675"/>
  </node>
  <node id="-2472" visible="true" lat="43.99474334" lon="-73.14562225">
    <tag k="addr:city" v="Middlebury"/>
    <tag k="addr:housenumber" v="1036"/>
    <tag k="addr:street" v="U.S. Route 7 South"/>
    <tag k="addr:state" v="VT"/>
    <tag k="ref:vcgi:esiteid" v="155837"/>
  </node>
  <node id="-2479" visible="true" lat="43.98220062" lon="-73.12631988">
    <tag k="addr:city" v="Middlebury"/>
    <tag k="addr:housenumber" v="2301"/>
    <tag k="addr:street" v="U.S. Route 7 South"/>
    <tag k="addr:state" v="VT"/>
    <tag k="ref:vcgi:esiteid" v="156029"/>
  </node>
  <node id="-2482" visible="true" lat="44.04303317" lon="-73.16281809">
    <tag k="addr:city" v="Middlebury"/>
    <tag k="addr:housenumber" v="1419"/>
    <tag k="addr:street" v="U.S. Route 7 North"/>
    <tag k="addr:state" v="VT"/>
    <tag k="ref:vcgi:esiteid" v="153916"/>
  </node>
  <node id="-2498" visible="true" lat="44.01437226" lon="-73.15634494">
    <tag k="addr:city" v="Middlebury"/>
    <tag k="addr:housenumber" v="118"/>
    <tag k="addr:street" v="Valley View"/>
    <tag k="addr:state" v="VT"/>
    <tag k="ref:vcgi:esiteid" v="154919"/>
  </node>
  <node id="-2508" visible="true" lat="44.02296829" lon="-73.17490386">
    <tag k="addr:city" v="Middlebury"/>
    <tag k="addr:housenumber" v="93 A"/>
    <tag k="addr:street" v="Seymour Street"/>
    <tag k="addr:state" v="VT"/>
    <tag k="ref:vcgi:esiteid" v="154277"/>
  </node>
  <node id="-2521" visible="true" lat="44.01444228" lon="-73.17322689">
    <tag k="addr:city" v="Middlebury"/>
    <tag k="addr:housenumber" v="42"/>
    <tag k="addr:street" v="Wisslers Lane"/>
    <tag k="addr:state" v="VT"/>
    <tag k="ref:vcgi:esiteid" v="156637"/>
  </node>
  <node id="-2583" visible="true" lat="43.98384475" lon="-73.12837982">
    <tag k="addr:city" v="Middlebury"/>
    <tag k="addr:housenumber" v="2149"/>
    <tag k="addr:street" v="U.S. Route 7 South"/>
    <tag k="addr:state" v="VT"/>
    <tag k="ref:vcgi:esiteid" v="156002"/>
  </node>
  <node id="-2598" visible="true" lat="44.01359169" lon="-73.16811339">
    <tag k="addr:city" v="Middlebury"/>
    <tag k="addr:housenumber" v="12"/>
    <tag k="addr:street" v="Merchants Row"/>
    <tag k="addr:state" v="VT"/>
    <tag k="ref:vcgi:esiteid" v="154958"/>
  </node>
  <node id="-2612" visible="true" lat="44.01282844" lon="-73.15587867">
    <tag k="addr:city" v="Middlebury"/>
    <tag k="addr:housenumber" v="242"/>
    <tag k="addr:street" v="Valley View"/>
    <tag k="addr:state" v="VT"/>
    <tag k="ref:vcgi:esiteid" v="155065"/>
  </node>
  <node id="-2623" visible="true" lat="44.01351547" lon="-73.16730499">
    <tag k="addr:city" v="Middlebury"/>
    <tag k="addr:housenumber" v="52"/>
    <tag k="addr:street" v="Merchants Row"/>
    <tag k="addr:state" v="VT"/>
    <tag k="ref:vcgi:esiteid" v="154974"/>
  </node>
  <node id="-2635" visible="true" lat="43.9610136" lon="-73.1155869">
    <tag k="addr:city" v="Middlebury"/>
    <tag k="addr:housenumber" v="3999"/>
    <tag k="addr:street" v="U.S. Route 7 South"/>
    <tag k="addr:state" v="VT"/>
    <tag k="ref:vcgi:esiteid" v="156441"/>
  </node>
  <node id="-2715" visible="true" lat="43.98419952" lon="-73.12846374">
    <tag k="addr:city" v="Middlebury"/>
    <tag k="addr:housenumber" v="2145"/>
    <tag k="addr:street" v="U.S. Route 7 South"/>
    <tag k="addr:state" v="VT"/>
    <tag k="ref:vcgi:esiteid" v="155995"/>
  </node>
  <node id="-2723" visible="true" lat="43.99925496" lon="-73.14829602">
    <tag k="addr:city" v="Middlebury"/>
    <tag k="addr:housenumber" v="690"/>
    <tag k="addr:street" v="U.S. Route 7 South"/>
    <tag k="addr:state" v="VT"/>
    <tag k="ref:vcgi:esiteid" v="155784"/>
  </node>
  <node id="-2750" visible="true" lat="43.99048646" lon="-73.13973498">
    <tag k="addr:city" v="Middlebury"/>
    <tag k="addr:housenumber" v="1428"/>
    <tag k="addr:street" v="U.S. Route 7 South"/>
    <tag k="addr:state" v="VT"/>
    <tag k="ref:vcgi:esiteid" v="155905"/>
  </node>
  <node id="-2773" visible="true" lat="43.97504006" lon="-73.1183832">
    <tag k="addr:city" v="Middlebury"/>
    <tag k="addr:housenumber" v="2896"/>
    <tag k="addr:street" v="U.S. Route 7 South"/>
    <tag k="addr:state" v="VT"/>
    <tag k="ref:vcgi:esiteid" v="336727"/>
  </node>
  <node id="-2786" visible="true" lat="43.97578243" lon="-73.11836716">
    <tag k="addr:city" v="Middlebury"/>
    <tag k="addr:housenumber" v="2890"/>
    <tag k="addr:street" v="U.S. Route 7 South"/>
    <tag k="addr:state" v="VT"/>
    <tag k="ref:vcgi:esiteid" v="156111"/>
  </node>
  <node id="-2787" visible="true" lat="43.98192263" lon="-73.12583869">
    <tag k="addr:city" v="Middlebury"/>
    <tag k="addr:housenumber" v="2337"/>
    <tag k="addr:street" v="U.S. Route 7 South"/>
    <tag k="addr:state" v="VT"/>
    <tag k="ref:vcgi:esiteid" v="156033"/>
  </node>
  <node id="-2795" visible="true" lat="43.98142242" lon="-73.12522888">
    <tag k="addr:city" v="Middlebury"/>
    <tag k="addr:housenumber" v="2377"/>
    <tag k="addr:street" v="U.S. Route 7 South"/>
    <tag k="addr:state" v="VT"/>
    <tag k="ref:vcgi:esiteid" v="156040"/>
  </node>
  <node id="-2798" visible="true" lat="44.03709616" lon="-73.16211482">
    <tag k="addr:city" v="Middlebury"/>
    <tag k="addr:housenumber" v="1015"/>
    <tag k="addr:street" v="U.S. Route 7 North"/>
    <tag k="addr:state" v="VT"/>
    <tag k="ref:vcgi:esiteid" v="153941"/>
  </node>
  <node id="-2817" visible="true" lat="43.96418175" lon="-73.0757025">
    <tag k="addr:city" v="Middlebury"/>
    <tag k="addr:housenumber" v="3308"/>
    <tag k="addr:street" v="Upper Plains Road"/>
    <tag k="addr:state" v="VT"/>
    <tag k="ref:vcgi:esiteid" v="156424"/>
  </node>
  <node id="-2827" visible="true" lat="43.96137739" lon="-73.07608451">
    <tag k="addr:city" v="Middlebury"/>
    <tag k="addr:housenumber" v="3166"/>
    <tag k="addr:street" v="Upper Plains Road"/>
    <tag k="addr:state" v="VT"/>
    <tag k="ref:vcgi:esiteid" v="156439"/>
  </node>
  <node id="-2839" visible="true" lat="43.99072746" lon="-73.13853456">
    <tag k="addr:city" v="Middlebury"/>
    <tag k="addr:housenumber" v="1457"/>
    <tag k="addr:street" v="U.S. Route 7 South"/>
    <tag k="addr:state" v="VT"/>
    <tag k="ref:vcgi:esiteid" v="155907"/>
  </node>
  <node id="-2843" visible="true" lat="43.98307019" lon="-73.12941098">
    <tag k="addr:city" v="Middlebury"/>
    <tag k="addr:housenumber" v="2158"/>
    <tag k="addr:street" v="U.S. Route 7 South"/>
    <tag k="addr:state" v="VT"/>
    <tag k="ref:vcgi:esiteid" v="156010"/>
  </node>
  <node id="-2847" visible="true" lat="43.98180092" lon="-73.12837365">
    <tag k="addr:city" v="Middlebury"/>
    <tag k="addr:housenumber" v="2242"/>
    <tag k="addr:street" v="U.S. Route 7 South"/>
    <tag k="addr:state" v="VT"/>
    <tag k="ref:vcgi:esiteid" v="156028"/>
  </node>
  <node id="-2877" visible="true" lat="43.99109649" lon="-73.13903045">
    <tag k="addr:city" v="Middlebury"/>
    <tag k="addr:housenumber" v="1419"/>
    <tag k="addr:street" v="U.S. Route 7 South"/>
    <tag k="addr:state" v="VT"/>
    <tag k="ref:vcgi:esiteid" v="155896"/>
  </node>
  <node id="-2885" visible="true" lat="44.01427212" lon="-73.15259191">
    <tag k="addr:city" v="Middlebury"/>
    <tag k="addr:housenumber" v="12"/>
    <tag k="addr:street" v="Nedde Road"/>
    <tag k="addr:state" v="VT"/>
    <tag k="ref:vcgi:esiteid" v="156683"/>
  </node>
  <node id="-2906" visible="true" lat="43.99037744" lon="-73.13949539">
    <tag k="addr:city" v="Middlebury"/>
    <tag k="addr:housenumber" v="1438"/>
    <tag k="addr:street" v="U.S. Route 7 South"/>
    <tag k="addr:state" v="VT"/>
    <tag k="ref:vcgi:esiteid" v="155908"/>
  </node>
  <node id="-2948" visible="true" lat="43.98285675" lon="-73.12615203">
    <tag k="addr:city" v="Middlebury"/>
    <tag k="addr:housenumber" v="2263"/>
    <tag k="addr:street" v="U.S. Route 7 South"/>
    <tag k="addr:state" v="VT"/>
    <tag k="ref:vcgi:esiteid" v="156017"/>
  </node>
  <node id="-2963" visible="true" lat="43.99145197" lon="-73.13943149">
    <tag k="addr:city" v="Middlebury"/>
    <tag k="addr:housenumber" v="1395"/>
    <tag k="addr:street" v="U.S. Route 7 South"/>
    <tag k="addr:state" v="VT"/>
    <tag k="ref:vcgi:esiteid" v="155893"/>
  </node>
  <node id="-3006" visible="true" lat="44.01386464" lon="-73.16521125">
    <tag k="addr:city" v="Middlebury"/>
    <tag k="addr:housenumber" v="5"/>
    <tag k="addr:street" v="Court Street"/>
    <tag k="addr:state" v="VT"/>
    <tag k="ref:vcgi:esiteid" v="154943"/>
  </node>
  <node id="-3011" visible="true" lat="43.98677825" lon="-73.13367462">
    <tag k="addr:city" v="Middlebury"/>
    <tag k="addr:housenumber" v="1818"/>
    <tag k="addr:street" v="U.S. Route 7 South"/>
    <tag k="addr:state" v="VT"/>
    <tag k="ref:vcgi:esiteid" v="155962"/>
  </node>
  <node id="-3058" visible="true" lat="43.99358775" lon="-73.15532048">
    <tag k="addr:city" v="Middlebury"/>
    <tag k="addr:housenumber" v="18"/>
    <tag k="addr:street" v="Geordies Path"/>
    <tag k="addr:state" v="VT"/>
    <tag k="ref:vcgi:esiteid" v="335174"/>
  </node>
  <node id="-3079" visible="true" lat="44.0393049" lon="-73.1621005">
    <tag k="addr:city" v="Middlebury"/>
    <tag k="addr:housenumber" v="1179"/>
    <tag k="addr:street" v="U.S. Route 7 North"/>
    <tag k="addr:state" v="VT"/>
    <tag k="ref:vcgi:esiteid" v="153931"/>
  </node>
  <node id="-3086" visible="true" lat="44.01389132" lon="-73.15652464">
    <tag k="addr:city" v="Middlebury"/>
    <tag k="addr:housenumber" v="154"/>
    <tag k="addr:street" v="Valley View"/>
    <tag k="addr:state" v="VT"/>
    <tag k="ref:vcgi:esiteid" v="154955"/>
  </node>
  <node id="-3100" visible="true" lat="44.00981646" lon="-73.16506606">
    <tag k="addr:city" v="Middlebury"/>
    <tag k="addr:housenumber" v="2 A"/>
    <tag k="addr:street" v="Duane Court"/>
    <tag k="addr:state" v="VT"/>
    <tag k="ref:vcgi:esiteid" v="335146"/>
  </node>
  <node id="-3102" visible="true" lat="44.04425516" lon="-73.16156304">
    <tag k="addr:city" v="Middlebury"/>
    <tag k="addr:housenumber" v="1484"/>
    <tag k="addr:street" v="U.S. Route 7 North"/>
    <tag k="addr:state" v="VT"/>
    <tag k="ref:vcgi:esiteid" v="153910"/>
  </node>
  <node id="-3162" visible="true" lat="44.02102716" lon="-73.17160474">
    <tag k="addr:city" v="Middlebury"/>
    <tag k="addr:housenumber" v="64 A"/>
    <tag k="addr:street" v="Seymour Street"/>
    <tag k="addr:state" v="VT"/>
    <tag k="ref:vcgi:esiteid" v="154327"/>
  </node>
</osm>
