<?xml version="1.0" encoding="UTF-8"?>
<osm version="0.6" generator="JOSM">
  <node id="-100" visible="true" lat="44.37514065" lon="-72.61257068">
    <tag k="addr:city" v="Middlesex"/>
    <tag k="addr:housenumber" v="94"/>
    <tag k="addr:street" v="Guilmette Road"/>
    <tag k="addr:state" v="VT"/>
    <tag k="ref:vcgi:esiteid" v="156837"/>
  </node>
  <node id="-101" visible="true" lat="44.37303239" lon="-72.60965362">
    <tag k="addr:city" v="Middlesex"/>
    <tag k="addr:housenumber" v="92"/>
    <tag k="addr:street" v="Guilmette Road"/>
    <tag k="addr:state" v="VT"/>
    <tag k="ref:vcgi:esiteid" v="156838"/>
  </node>
  <node id="-102" visible="true" lat="44.37338256" lon="-72.63230895">
    <tag k="addr:city" v="Middlesex"/>
    <tag k="addr:housenumber" v="330"/>
    <tag k="addr:street" v="North Bear Swamp Road"/>
    <tag k="addr:state" v="VT"/>
    <tag k="ref:vcgi:esiteid" v="156839"/>
  </node>
  <node id="-103" visible="true" lat="44.37343423" lon="-72.61609452">
    <tag k="addr:city" v="Middlesex"/>
    <tag k="addr:housenumber" v="248"/>
    <tag k="addr:street" v="Nellie Chase Road"/>
    <tag k="addr:state" v="VT"/>
    <tag k="ref:vcgi:esiteid" v="156840"/>
  </node>
  <node id="-104" visible="true" lat="44.37199789" lon="-72.61103859">
    <tag k="addr:city" v="Middlesex"/>
    <tag k="addr:housenumber" v="75"/>
    <tag k="addr:street" v="Guilmette Road"/>
    <tag k="addr:state" v="VT"/>
    <tag k="ref:vcgi:esiteid" v="156841"/>
  </node>
  <node id="-105" visible="true" lat="44.37122894" lon="-72.64066099">
    <tag k="addr:city" v="Middlesex"/>
    <tag k="addr:housenumber" v="395"/>
    <tag k="addr:street" v="North Bear Swamp Road"/>
    <tag k="addr:state" v="VT"/>
    <tag k="ref:vcgi:esiteid" v="156842"/>
  </node>
  <node id="-107" visible="true" lat="44.3714461" lon="-72.60985736">
    <tag k="addr:city" v="Middlesex"/>
    <tag k="addr:housenumber" v="51"/>
    <tag k="addr:street" v="Guilmette Road"/>
    <tag k="addr:state" v="VT"/>
    <tag k="ref:vcgi:esiteid" v="156844"/>
  </node>
  <node id="-108" visible="true" lat="44.37100699" lon="-72.60751049">
    <tag k="addr:city" v="Middlesex"/>
    <tag k="addr:housenumber" v="30"/>
    <tag k="addr:street" v="Guilmette Road"/>
    <tag k="addr:state" v="VT"/>
    <tag k="ref:vcgi:esiteid" v="156845"/>
  </node>
  <node id="-109" visible="true" lat="44.37041423" lon="-72.60647391">
    <tag k="addr:city" v="Middlesex"/>
    <tag k="addr:housenumber" v="18"/>
    <tag k="addr:street" v="Guilmette Road"/>
    <tag k="addr:state" v="VT"/>
    <tag k="ref:vcgi:esiteid" v="156846"/>
  </node>
  <node id="-110" visible="true" lat="44.36898422" lon="-72.60353851">
    <tag k="addr:city" v="Middlesex"/>
    <tag k="addr:housenumber" v="434"/>
    <tag k="addr:street" v="Macey Road"/>
    <tag k="addr:state" v="VT"/>
    <tag k="ref:vcgi:esiteid" v="156847"/>
  </node>
  <node id="-111" visible="true" lat="44.36872482" lon="-72.6063385">
    <tag k="addr:city" v="Middlesex"/>
    <tag k="addr:housenumber" v="536"/>
    <tag k="addr:street" v="West Hill Road"/>
    <tag k="addr:state" v="VT"/>
    <tag k="ref:vcgi:esiteid" v="156848"/>
  </node>
  <node id="-112" visible="true" lat="44.36798477" lon="-72.60266113">
    <tag k="addr:city" v="Middlesex"/>
    <tag k="addr:housenumber" v="418"/>
    <tag k="addr:street" v="Macey Road"/>
    <tag k="addr:state" v="VT"/>
    <tag k="ref:vcgi:esiteid" v="156849"/>
  </node>
  <node id="-113" visible="true" lat="44.36796951" lon="-72.60807037">
    <tag k="addr:city" v="Middlesex"/>
    <tag k="addr:housenumber" v="542"/>
    <tag k="addr:street" v="West Hill Road"/>
    <tag k="addr:state" v="VT"/>
    <tag k="ref:vcgi:esiteid" v="156850"/>
  </node>
  <node id="-114" visible="true" lat="44.36750412" lon="-72.60157775">
    <tag k="addr:city" v="Middlesex"/>
    <tag k="addr:housenumber" v="412"/>
    <tag k="addr:street" v="Macey Road"/>
    <tag k="addr:state" v="VT"/>
    <tag k="ref:vcgi:esiteid" v="156851"/>
  </node>
  <node id="-115" visible="true" lat="44.36711502" lon="-72.60494232">
    <tag k="addr:city" v="Middlesex"/>
    <tag k="addr:housenumber" v="425"/>
    <tag k="addr:street" v="Macey Road"/>
    <tag k="addr:state" v="VT"/>
    <tag k="ref:vcgi:esiteid" v="156852"/>
  </node>
  <node id="-116" visible="true" lat="44.36663971" lon="-72.64561551">
    <tag k="addr:city" v="Middlesex"/>
    <tag k="addr:housenumber" v="494"/>
    <tag k="addr:street" v="North Bear Swamp Road"/>
    <tag k="addr:state" v="VT"/>
    <tag k="ref:vcgi:esiteid" v="156853"/>
  </node>
  <node id="-117" visible="true" lat="44.36691665" lon="-72.60802459">
    <tag k="addr:city" v="Middlesex"/>
    <tag k="addr:housenumber" v="570"/>
    <tag k="addr:street" v="West Hill Road"/>
    <tag k="addr:state" v="VT"/>
    <tag k="ref:vcgi:esiteid" v="156854"/>
  </node>
  <node id="-118" visible="true" lat="44.36620985" lon="-72.60307657">
    <tag k="addr:city" v="Middlesex"/>
    <tag k="addr:housenumber" v="400"/>
    <tag k="addr:street" v="Macey Road"/>
    <tag k="addr:state" v="VT"/>
    <tag k="ref:vcgi:esiteid" v="156855"/>
  </node>
  <node id="-119" visible="true" lat="44.3660938" lon="-72.60844954">
    <tag k="addr:city" v="Middlesex"/>
    <tag k="addr:housenumber" v="580"/>
    <tag k="addr:street" v="West Hill Road"/>
    <tag k="addr:state" v="VT"/>
    <tag k="ref:vcgi:esiteid" v="156856"/>
  </node>
  <node id="-120" visible="true" lat="44.36554336" lon="-72.60762023">
    <tag k="addr:city" v="Middlesex"/>
    <tag k="addr:housenumber" v="589"/>
    <tag k="addr:street" v="West Hill Road"/>
    <tag k="addr:state" v="VT"/>
    <tag k="ref:vcgi:esiteid" v="156857"/>
  </node>
  <node id="-121" visible="true" lat="44.3653984" lon="-72.62503814">
    <tag k="addr:city" v="Middlesex"/>
    <tag k="addr:housenumber" v="205"/>
    <tag k="addr:street" v="North Bear Swamp Road"/>
    <tag k="addr:state" v="VT"/>
    <tag k="ref:vcgi:esiteid" v="156858"/>
  </node>
  <node id="-122" visible="true" lat="44.36522301" lon="-72.60866819">
    <tag k="addr:city" v="Middlesex"/>
    <tag k="addr:housenumber" v="596"/>
    <tag k="addr:street" v="West Hill Road"/>
    <tag k="addr:state" v="VT"/>
    <tag k="ref:vcgi:esiteid" v="156859"/>
  </node>
  <node id="-123" visible="true" lat="44.36470413" lon="-72.63736724">
    <tag k="addr:city" v="Middlesex"/>
    <tag k="addr:housenumber" v="454"/>
    <tag k="addr:street" v="East Bear Swamp Road"/>
    <tag k="addr:state" v="VT"/>
    <tag k="ref:vcgi:esiteid" v="156860"/>
  </node>
  <node id="-124" visible="true" lat="44.36445236" lon="-72.60935211">
    <tag k="addr:city" v="Middlesex"/>
    <tag k="addr:housenumber" v="606"/>
    <tag k="addr:street" v="West Hill Road"/>
    <tag k="addr:state" v="VT"/>
    <tag k="ref:vcgi:esiteid" v="156861"/>
  </node>
  <node id="-125" visible="true" lat="44.36420361" lon="-72.60826022">
    <tag k="addr:city" v="Middlesex"/>
    <tag k="addr:housenumber" v="603"/>
    <tag k="addr:street" v="West Hill Road"/>
    <tag k="addr:state" v="VT"/>
    <tag k="ref:vcgi:esiteid" v="156862"/>
  </node>
  <node id="-126" visible="true" lat="44.36382675" lon="-72.6157608">
    <tag k="addr:city" v="Middlesex"/>
    <tag k="addr:housenumber" v="101"/>
    <tag k="addr:street" v="Nellie Chase Road"/>
    <tag k="addr:state" v="VT"/>
    <tag k="ref:vcgi:esiteid" v="156863"/>
  </node>
  <node id="-127" visible="true" lat="44.36344528" lon="-72.60442352">
    <tag k="addr:city" v="Middlesex"/>
    <tag k="addr:housenumber" v="361"/>
    <tag k="addr:street" v="Macey Road"/>
    <tag k="addr:state" v="VT"/>
    <tag k="ref:vcgi:esiteid" v="156864"/>
  </node>
  <node id="-128" visible="true" lat="44.3632965" lon="-72.60834503">
    <tag k="addr:city" v="Middlesex"/>
    <tag k="addr:housenumber" v="615"/>
    <tag k="addr:street" v="West Hill Road"/>
    <tag k="addr:state" v="VT"/>
    <tag k="ref:vcgi:esiteid" v="156865"/>
  </node>
  <node id="-129" visible="true" lat="44.36297607" lon="-72.62050628">
    <tag k="addr:city" v="Middlesex"/>
    <tag k="addr:housenumber" v="148"/>
    <tag k="addr:street" v="North Bear Swamp Road"/>
    <tag k="addr:state" v="VT"/>
    <tag k="ref:vcgi:esiteid" v="156866"/>
  </node>
  <node id="-130" visible="true" lat="44.36342435" lon="-72.61108714">
    <tag k="addr:city" v="Middlesex"/>
    <tag k="addr:housenumber" v="640"/>
    <tag k="addr:street" v="West Hill Road"/>
    <tag k="addr:state" v="VT"/>
    <tag k="ref:vcgi:esiteid" v="156867"/>
  </node>
  <node id="-131" visible="true" lat="44.36201858" lon="-72.60061645">
    <tag k="addr:city" v="Middlesex"/>
    <tag k="addr:housenumber" v="302"/>
    <tag k="addr:street" v="Macey Road"/>
    <tag k="addr:state" v="VT"/>
    <tag k="ref:vcgi:esiteid" v="156868"/>
  </node>
  <node id="-132" visible="true" lat="44.36199569" lon="-72.62047576">
    <tag k="addr:city" v="Middlesex"/>
    <tag k="addr:housenumber" v="136"/>
    <tag k="addr:street" v="North Bear Swamp Road"/>
    <tag k="addr:state" v="VT"/>
    <tag k="ref:vcgi:esiteid" v="156869"/>
  </node>
  <node id="-133" visible="true" lat="44.36203535" lon="-72.62281605">
    <tag k="addr:city" v="Middlesex"/>
    <tag k="addr:housenumber" v="125"/>
    <tag k="addr:street" v="North Bear Swamp Road"/>
    <tag k="addr:state" v="VT"/>
    <tag k="ref:vcgi:esiteid" v="156870"/>
  </node>
  <node id="-134" visible="true" lat="44.36118698" lon="-72.61340332">
    <tag k="addr:city" v="Middlesex"/>
    <tag k="addr:housenumber" v="68"/>
    <tag k="addr:street" v="Nellie Chase Road"/>
    <tag k="addr:state" v="VT"/>
    <tag k="ref:vcgi:esiteid" v="156871"/>
  </node>
  <node id="-135" visible="true" lat="44.36061238" lon="-72.62122132">
    <tag k="addr:city" v="Middlesex"/>
    <tag k="addr:housenumber" v="107"/>
    <tag k="addr:street" v="North Bear Swamp Road"/>
    <tag k="addr:state" v="VT"/>
    <tag k="ref:vcgi:esiteid" v="156872"/>
  </node>
  <node id="-136" visible="true" lat="44.36010742" lon="-72.61099243">
    <tag k="addr:city" v="Middlesex"/>
    <tag k="addr:housenumber" v="672"/>
    <tag k="addr:street" v="West Hill Road"/>
    <tag k="addr:state" v="VT"/>
    <tag k="ref:vcgi:esiteid" v="156873"/>
  </node>
  <node id="-138" visible="true" lat="44.35984802" lon="-72.61292266">
    <tag k="addr:city" v="Middlesex"/>
    <tag k="addr:housenumber" v="34"/>
    <tag k="addr:street" v="Nellie Chase Road"/>
    <tag k="addr:state" v="VT"/>
    <tag k="ref:vcgi:esiteid" v="156875"/>
  </node>
  <node id="-139" visible="true" lat="44.35909652" lon="-72.61759185">
    <tag k="addr:city" v="Middlesex"/>
    <tag k="addr:housenumber" v="74"/>
    <tag k="addr:street" v="North Bear Swamp Road"/>
    <tag k="addr:state" v="VT"/>
    <tag k="ref:vcgi:esiteid" v="156876"/>
  </node>
  <node id="-140" visible="true" lat="44.35855484" lon="-72.6147232">
    <tag k="addr:city" v="Middlesex"/>
    <tag k="addr:housenumber" v="18"/>
    <tag k="addr:street" v="North Bear Swamp Road"/>
    <tag k="addr:state" v="VT"/>
    <tag k="ref:vcgi:esiteid" v="156877"/>
  </node>
  <node id="-141" visible="true" lat="44.35839843" lon="-72.60992431">
    <tag k="addr:city" v="Middlesex"/>
    <tag k="addr:housenumber" v="693"/>
    <tag k="addr:street" v="West Hill Road"/>
    <tag k="addr:state" v="VT"/>
    <tag k="ref:vcgi:esiteid" v="156878"/>
  </node>
  <node id="-142" visible="true" lat="44.35829162" lon="-72.611557">
    <tag k="addr:city" v="Middlesex"/>
    <tag k="addr:housenumber" v="44"/>
    <tag k="addr:street" v="Nellie Chase Road"/>
    <tag k="addr:state" v="VT"/>
    <tag k="ref:vcgi:esiteid" v="156879"/>
  </node>
  <node id="-143" visible="true" lat="44.35813522" lon="-72.61054229">
    <tag k="addr:city" v="Middlesex"/>
    <tag k="addr:housenumber" v="701"/>
    <tag k="addr:street" v="West Hill Road"/>
    <tag k="addr:state" v="VT"/>
    <tag k="ref:vcgi:esiteid" v="156880"/>
  </node>
  <node id="-144" visible="true" lat="44.35813903" lon="-72.60218811">
    <tag k="addr:city" v="Middlesex"/>
    <tag k="addr:housenumber" v="239"/>
    <tag k="addr:street" v="Macey Road"/>
    <tag k="addr:state" v="VT"/>
    <tag k="ref:vcgi:esiteid" v="156881"/>
  </node>
  <node id="-145" visible="true" lat="44.35810089" lon="-72.59942626">
    <tag k="addr:city" v="Middlesex"/>
    <tag k="addr:housenumber" v="254"/>
    <tag k="addr:street" v="Macey Road"/>
    <tag k="addr:state" v="VT"/>
    <tag k="ref:vcgi:esiteid" v="156882"/>
  </node>
  <node id="-146" visible="true" lat="44.358078" lon="-72.61362457">
    <tag k="addr:city" v="Middlesex"/>
    <tag k="addr:housenumber" v="17"/>
    <tag k="addr:street" v="North Bear Swamp Road"/>
    <tag k="addr:state" v="VT"/>
    <tag k="ref:vcgi:esiteid" v="156883"/>
  </node>
  <node id="-147" visible="true" lat="44.35779571" lon="-72.61658477">
    <tag k="addr:city" v="Middlesex"/>
    <tag k="addr:housenumber" v="43"/>
    <tag k="addr:street" v="North Bear Swamp Road"/>
    <tag k="addr:state" v="VT"/>
    <tag k="ref:vcgi:esiteid" v="156884"/>
  </node>
  <node id="-148" visible="true" lat="44.35778045" lon="-72.60155487">
    <tag k="addr:city" v="Middlesex"/>
    <tag k="addr:housenumber" v="237"/>
    <tag k="addr:street" v="Macey Road"/>
    <tag k="addr:state" v="VT"/>
    <tag k="ref:vcgi:esiteid" v="156885"/>
  </node>
  <node id="-149" visible="true" lat="44.35750961" lon="-72.63542175">
    <tag k="addr:city" v="Middlesex"/>
    <tag k="addr:housenumber" v="346"/>
    <tag k="addr:street" v="East Bear Swamp Road"/>
    <tag k="addr:state" v="VT"/>
    <tag k="ref:vcgi:esiteid" v="156886"/>
  </node>
  <node id="-150" visible="true" lat="44.35723876" lon="-72.58042907">
    <tag k="addr:city" v="Middlesex"/>
    <tag k="addr:housenumber" v="223"/>
    <tag k="addr:street" v="Wood Road"/>
    <tag k="addr:state" v="VT"/>
    <tag k="ref:vcgi:esiteid" v="156887"/>
  </node>
  <node id="-151" visible="true" lat="44.35703872" lon="-72.63108676">
    <tag k="addr:city" v="Middlesex"/>
    <tag k="addr:housenumber" v="283"/>
    <tag k="addr:street" v="East Bear Swamp Road"/>
    <tag k="addr:state" v="VT"/>
    <tag k="ref:vcgi:esiteid" v="156888"/>
  </node>
  <node id="-152" visible="true" lat="44.35702514" lon="-72.57842254">
    <tag k="addr:city" v="Middlesex"/>
    <tag k="addr:housenumber" v="210"/>
    <tag k="addr:street" v="Wood Road"/>
    <tag k="addr:state" v="VT"/>
    <tag k="ref:vcgi:esiteid" v="156889"/>
  </node>
  <node id="-153" visible="true" lat="44.3568077" lon="-72.63236236">
    <tag k="addr:city" v="Middlesex"/>
    <tag k="addr:housenumber" v="297"/>
    <tag k="addr:street" v="East Bear Swamp Road"/>
    <tag k="addr:state" v="VT"/>
    <tag k="ref:vcgi:esiteid" v="156890"/>
  </node>
  <node id="-154" visible="true" lat="44.35674447" lon="-72.62444095">
    <tag k="addr:city" v="Middlesex"/>
    <tag k="addr:housenumber" v="216"/>
    <tag k="addr:street" v="East Bear Swamp Road"/>
    <tag k="addr:state" v="VT"/>
    <tag k="ref:vcgi:esiteid" v="156891"/>
  </node>
  <node id="-155" visible="true" lat="44.35657119" lon="-72.62994384">
    <tag k="addr:city" v="Middlesex"/>
    <tag k="addr:housenumber" v="269"/>
    <tag k="addr:street" v="East Bear Swamp Road"/>
    <tag k="addr:state" v="VT"/>
    <tag k="ref:vcgi:esiteid" v="156892"/>
  </node>
  <node id="-156" visible="true" lat="44.35664315" lon="-72.6089559">
    <tag k="addr:city" v="Middlesex"/>
    <tag k="addr:housenumber" v="86"/>
    <tag k="addr:street" v="Story Road"/>
    <tag k="addr:state" v="VT"/>
    <tag k="ref:vcgi:esiteid" v="156893"/>
  </node>
  <node id="-157" visible="true" lat="44.35647964" lon="-72.63491821">
    <tag k="addr:city" v="Middlesex"/>
    <tag k="addr:housenumber" v="327"/>
    <tag k="addr:street" v="East Bear Swamp Road"/>
    <tag k="addr:state" v="VT"/>
    <tag k="ref:vcgi:esiteid" v="156894"/>
  </node>
  <node id="-158" visible="true" lat="44.35635305" lon="-72.61117169">
    <tag k="addr:city" v="Middlesex"/>
    <tag k="addr:housenumber" v="93"/>
    <tag k="addr:street" v="Story Road"/>
    <tag k="addr:state" v="VT"/>
    <tag k="ref:vcgi:esiteid" v="156895"/>
  </node>
  <node id="-159" visible="true" lat="44.35625076" lon="-72.62799072">
    <tag k="addr:city" v="Middlesex"/>
    <tag k="addr:housenumber" v="247"/>
    <tag k="addr:street" v="East Bear Swamp Road"/>
    <tag k="addr:state" v="VT"/>
    <tag k="ref:vcgi:esiteid" v="156896"/>
  </node>
  <node id="-160" visible="true" lat="44.35623932" lon="-72.62594604">
    <tag k="addr:city" v="Middlesex"/>
    <tag k="addr:housenumber" v="229"/>
    <tag k="addr:street" v="East Bear Swamp Road"/>
    <tag k="addr:state" v="VT"/>
    <tag k="ref:vcgi:esiteid" v="156897"/>
  </node>
  <node id="-161" visible="true" lat="44.35596465" lon="-72.60954284">
    <tag k="addr:city" v="Middlesex"/>
    <tag k="addr:housenumber" v="81"/>
    <tag k="addr:street" v="Story Road"/>
    <tag k="addr:state" v="VT"/>
    <tag k="ref:vcgi:esiteid" v="156898"/>
  </node>
  <node id="-162" visible="true" lat="44.35560989" lon="-72.5985794">
    <tag k="addr:city" v="Middlesex"/>
    <tag k="addr:housenumber" v="206"/>
    <tag k="addr:street" v="Macey Road"/>
    <tag k="addr:state" v="VT"/>
    <tag k="ref:vcgi:esiteid" v="156899"/>
  </node>
  <node id="-163" visible="true" lat="44.35525894" lon="-72.60651397">
    <tag k="addr:city" v="Middlesex"/>
    <tag k="addr:housenumber" v="60"/>
    <tag k="addr:street" v="Story Road"/>
    <tag k="addr:state" v="VT"/>
    <tag k="ref:vcgi:esiteid" v="156900"/>
  </node>
  <node id="-164" visible="true" lat="44.35520355" lon="-72.58194227">
    <tag k="addr:city" v="Middlesex"/>
    <tag k="addr:housenumber" v="165"/>
    <tag k="addr:street" v="Wood Road"/>
    <tag k="addr:state" v="VT"/>
    <tag k="ref:vcgi:esiteid" v="156901"/>
  </node>
  <node id="-165" visible="true" lat="44.35479636" lon="-72.64277149">
    <tag k="addr:city" v="Middlesex"/>
    <tag k="addr:housenumber" v="401"/>
    <tag k="addr:street" v="South Bear Swamp Road"/>
    <tag k="addr:state" v="VT"/>
    <tag k="ref:vcgi:esiteid" v="156902"/>
  </node>
  <node id="-166" visible="true" lat="44.35472106" lon="-72.57953643">
    <tag k="addr:city" v="Middlesex"/>
    <tag k="addr:housenumber" v="186"/>
    <tag k="addr:street" v="Wood Road"/>
    <tag k="addr:state" v="VT"/>
    <tag k="ref:vcgi:esiteid" v="156903"/>
  </node>
  <node id="-167" visible="true" lat="44.35463558" lon="-72.64440413">
    <tag k="addr:city" v="Middlesex"/>
    <tag k="addr:housenumber" v="399"/>
    <tag k="addr:street" v="South Bear Swamp Road"/>
    <tag k="addr:state" v="VT"/>
    <tag k="ref:vcgi:esiteid" v="156904"/>
  </node>
  <node id="-168" visible="true" lat="44.35427474" lon="-72.606781">
    <tag k="addr:city" v="Middlesex"/>
    <tag k="addr:housenumber" v="48"/>
    <tag k="addr:street" v="Story Road"/>
    <tag k="addr:state" v="VT"/>
    <tag k="ref:vcgi:esiteid" v="156905"/>
  </node>
  <node id="-169" visible="true" lat="44.35390579" lon="-72.64394696">
    <tag k="addr:city" v="Middlesex"/>
    <tag k="addr:housenumber" v="391"/>
    <tag k="addr:street" v="South Bear Swamp Road"/>
    <tag k="addr:state" v="VT"/>
    <tag k="ref:vcgi:esiteid" v="156906"/>
  </node>
  <node id="-170" visible="true" lat="44.35390472" lon="-72.59677123">
    <tag k="addr:city" v="Middlesex"/>
    <tag k="addr:housenumber" v="188"/>
    <tag k="addr:street" v="Macey Road"/>
    <tag k="addr:state" v="VT"/>
    <tag k="ref:vcgi:esiteid" v="156907"/>
  </node>
  <node id="-171" visible="true" lat="44.35340881" lon="-72.62015533">
    <tag k="addr:city" v="Middlesex"/>
    <tag k="addr:housenumber" v="12"/>
    <tag k="addr:street" v="Bushey Road"/>
    <tag k="addr:state" v="VT"/>
    <tag k="ref:vcgi:esiteid" v="156908"/>
  </node>
  <node id="-172" visible="true" lat="44.35313099" lon="-72.62656897">
    <tag k="addr:city" v="Middlesex"/>
    <tag k="addr:housenumber" v="58"/>
    <tag k="addr:street" v="Tamarack Road"/>
    <tag k="addr:state" v="VT"/>
    <tag k="ref:vcgi:esiteid" v="156909"/>
  </node>
  <node id="-173" visible="true" lat="44.35299682" lon="-72.581604">
    <tag k="addr:city" v="Middlesex"/>
    <tag k="addr:housenumber" v="152"/>
    <tag k="addr:street" v="Wood Road"/>
    <tag k="addr:state" v="VT"/>
    <tag k="ref:vcgi:esiteid" v="156910"/>
  </node>
  <node id="-174" visible="true" lat="44.35300312" lon="-72.64453236">
    <tag k="addr:city" v="Middlesex"/>
    <tag k="addr:housenumber" v="376"/>
    <tag k="addr:street" v="South Bear Swamp Road"/>
    <tag k="addr:state" v="VT"/>
    <tag k="ref:vcgi:esiteid" v="156911"/>
  </node>
  <node id="-175" visible="true" lat="44.3527223" lon="-72.60598296">
    <tag k="addr:city" v="Middlesex"/>
    <tag k="addr:housenumber" v="24"/>
    <tag k="addr:street" v="Story Road"/>
    <tag k="addr:state" v="VT"/>
    <tag k="ref:vcgi:esiteid" v="156912"/>
  </node>
  <node id="-176" visible="true" lat="44.35260009" lon="-72.62256622">
    <tag k="addr:city" v="Middlesex"/>
    <tag k="addr:housenumber" v="8"/>
    <tag k="addr:street" v="Tamarack Road"/>
    <tag k="addr:state" v="VT"/>
    <tag k="ref:vcgi:esiteid" v="156913"/>
  </node>
  <node id="-178" visible="true" lat="44.352589" lon="-72.58237316">
    <tag k="addr:city" v="Middlesex"/>
    <tag k="addr:housenumber" v="142"/>
    <tag k="addr:street" v="Wood Road"/>
    <tag k="addr:state" v="VT"/>
    <tag k="ref:vcgi:esiteid" v="156915"/>
  </node>
  <node id="-179" visible="true" lat="44.35224533" lon="-72.61774444">
    <tag k="addr:city" v="Middlesex"/>
    <tag k="addr:housenumber" v="117"/>
    <tag k="addr:street" v="East Bear Swamp Road"/>
    <tag k="addr:state" v="VT"/>
    <tag k="ref:vcgi:esiteid" v="156916"/>
  </node>
  <node id="-180" visible="true" lat="44.35208892" lon="-72.59613036">
    <tag k="addr:city" v="Middlesex"/>
    <tag k="addr:housenumber" v="152"/>
    <tag k="addr:street" v="Macey Road"/>
    <tag k="addr:state" v="VT"/>
    <tag k="ref:vcgi:esiteid" v="156917"/>
  </node>
  <node id="-181" visible="true" lat="44.35192647" lon="-72.61496272">
    <tag k="addr:city" v="Middlesex"/>
    <tag k="addr:housenumber" v="107"/>
    <tag k="addr:street" v="East Bear Swamp Road"/>
    <tag k="addr:state" v="VT"/>
    <tag k="ref:vcgi:esiteid" v="156918"/>
  </node>
  <node id="-182" visible="true" lat="44.35204194" lon="-72.600941">
    <tag k="addr:city" v="Middlesex"/>
    <tag k="addr:housenumber" v="416"/>
    <tag k="addr:street" v="Shady Rill Road"/>
    <tag k="addr:state" v="VT"/>
    <tag k="ref:vcgi:esiteid" v="156919"/>
  </node>
  <node id="-183" visible="true" lat="44.35154807" lon="-72.60615679">
    <tag k="addr:city" v="Middlesex"/>
    <tag k="addr:housenumber" v="4"/>
    <tag k="addr:street" v="East Bear Swamp Road"/>
    <tag k="addr:state" v="VT"/>
    <tag k="ref:vcgi:esiteid" v="156920"/>
  </node>
  <node id="-184" visible="true" lat="44.35130777" lon="-72.58300926">
    <tag k="addr:city" v="Middlesex"/>
    <tag k="addr:housenumber" v="126"/>
    <tag k="addr:street" v="Wood Road"/>
    <tag k="addr:state" v="VT"/>
    <tag k="ref:vcgi:esiteid" v="156921"/>
  </node>
  <node id="-185" visible="true" lat="44.35125351" lon="-72.64892577">
    <tag k="addr:city" v="Middlesex"/>
    <tag k="addr:housenumber" v="323"/>
    <tag k="addr:street" v="South Bear Swamp Road"/>
    <tag k="addr:state" v="VT"/>
    <tag k="ref:vcgi:esiteid" v="156922"/>
  </node>
  <node id="-186" visible="true" lat="44.35116195" lon="-72.60495758">
    <tag k="addr:city" v="Middlesex"/>
    <tag k="addr:housenumber" v="455"/>
    <tag k="addr:street" v="Shady Rill Road"/>
    <tag k="addr:state" v="VT"/>
    <tag k="ref:vcgi:esiteid" v="156924"/>
  </node>
  <node id="-187" visible="true" lat="44.35097153" lon="-72.60077382">
    <tag k="addr:city" v="Middlesex"/>
    <tag k="addr:housenumber" v="411"/>
    <tag k="addr:street" v="Shady Rill Road"/>
    <tag k="addr:state" v="VT"/>
    <tag k="ref:vcgi:esiteid" v="156925"/>
  </node>
  <node id="-189" visible="true" lat="44.35112381" lon="-72.61120605">
    <tag k="addr:city" v="Middlesex"/>
    <tag k="addr:housenumber" v="55"/>
    <tag k="addr:street" v="East Bear Swamp Road"/>
    <tag k="addr:state" v="VT"/>
    <tag k="ref:vcgi:esiteid" v="156927"/>
  </node>
  <node id="-190" visible="true" lat="44.35092658" lon="-72.59902964">
    <tag k="addr:city" v="Middlesex"/>
    <tag k="addr:housenumber" v="390"/>
    <tag k="addr:street" v="Shady Rill Road"/>
    <tag k="addr:state" v="VT"/>
    <tag k="ref:vcgi:esiteid" v="156928"/>
  </node>
  <node id="-191" visible="true" lat="44.35082244" lon="-72.64515685">
    <tag k="addr:city" v="Middlesex"/>
    <tag k="addr:housenumber" v="348"/>
    <tag k="addr:street" v="South Bear Swamp Road"/>
    <tag k="addr:state" v="VT"/>
    <tag k="ref:vcgi:esiteid" v="156929"/>
  </node>
  <node id="-192" visible="true" lat="44.35073964" lon="-72.60687375">
    <tag k="addr:city" v="Middlesex"/>
    <tag k="addr:housenumber" v="474"/>
    <tag k="addr:street" v="Shady Rill Road"/>
    <tag k="addr:state" v="VT"/>
    <tag k="ref:vcgi:esiteid" v="156930"/>
  </node>
  <node id="-193" visible="true" lat="44.35069274" lon="-72.59835052">
    <tag k="addr:city" v="Middlesex"/>
    <tag k="addr:housenumber" v="384"/>
    <tag k="addr:street" v="Shady Rill Road"/>
    <tag k="addr:state" v="VT"/>
    <tag k="ref:vcgi:esiteid" v="156931"/>
  </node>
  <node id="-194" visible="true" lat="44.35069915" lon="-72.58387274">
    <tag k="addr:city" v="Middlesex"/>
    <tag k="addr:housenumber" v="108"/>
    <tag k="addr:street" v="Wood Road"/>
    <tag k="addr:state" v="VT"/>
    <tag k="ref:vcgi:esiteid" v="156932"/>
  </node>
  <node id="-195" visible="true" lat="44.35049819" lon="-72.60608673">
    <tag k="addr:city" v="Middlesex"/>
    <tag k="addr:housenumber" v="473"/>
    <tag k="addr:street" v="Shady Rill Road"/>
    <tag k="addr:state" v="VT"/>
    <tag k="ref:vcgi:esiteid" v="156933"/>
  </node>
  <node id="-196" visible="true" lat="44.35042952" lon="-72.58458622">
    <tag k="addr:city" v="Middlesex"/>
    <tag k="addr:housenumber" v="100"/>
    <tag k="addr:street" v="Wood Road"/>
    <tag k="addr:state" v="VT"/>
    <tag k="ref:vcgi:esiteid" v="156934"/>
  </node>
  <node id="-197" visible="true" lat="44.35024642" lon="-72.65096282">
    <tag k="addr:city" v="Middlesex"/>
    <tag k="addr:housenumber" v="313"/>
    <tag k="addr:street" v="South Bear Swamp Road"/>
    <tag k="addr:state" v="VT"/>
    <tag k="ref:vcgi:esiteid" v="156935"/>
  </node>
  <node id="-198" visible="true" lat="44.35022735" lon="-72.59365844">
    <tag k="addr:city" v="Middlesex"/>
    <tag k="addr:housenumber" v="111"/>
    <tag k="addr:street" v="Macey Road"/>
    <tag k="addr:state" v="VT"/>
    <tag k="ref:vcgi:esiteid" v="156936"/>
  </node>
  <node id="-199" visible="true" lat="44.35008239" lon="-72.58667755">
    <tag k="addr:city" v="Middlesex"/>
    <tag k="addr:housenumber" v="81"/>
    <tag k="addr:street" v="Wood Road"/>
    <tag k="addr:state" v="VT"/>
    <tag k="ref:vcgi:esiteid" v="156937"/>
  </node>
  <node id="-200" visible="true" lat="44.35004286" lon="-72.596932">
    <tag k="addr:city" v="Middlesex"/>
    <tag k="addr:housenumber" v="368"/>
    <tag k="addr:street" v="Shady Rill Road"/>
    <tag k="addr:state" v="VT"/>
    <tag k="ref:vcgi:esiteid" v="156938"/>
  </node>
  <node id="-201" visible="true" lat="44.34986983" lon="-72.60576088">
    <tag k="addr:city" v="Middlesex"/>
    <tag k="addr:housenumber" v="481"/>
    <tag k="addr:street" v="Shady Rill Road"/>
    <tag k="addr:state" v="VT"/>
    <tag k="ref:vcgi:esiteid" v="156939"/>
  </node>
  <node id="-202" visible="true" lat="44.3496741" lon="-72.59836169">
    <tag k="addr:city" v="Middlesex"/>
    <tag k="addr:housenumber" v="375"/>
    <tag k="addr:street" v="Shady Rill Road"/>
    <tag k="addr:state" v="VT"/>
    <tag k="ref:vcgi:esiteid" v="156940"/>
  </node>
  <node id="-203" visible="true" lat="44.34967597" lon="-72.60749751">
    <tag k="addr:city" v="Middlesex"/>
    <tag k="addr:housenumber" v="490"/>
    <tag k="addr:street" v="Shady Rill Road"/>
    <tag k="addr:state" v="VT"/>
    <tag k="ref:vcgi:esiteid" v="156941"/>
  </node>
  <node id="-204" visible="true" lat="44.34971434" lon="-72.5963878">
    <tag k="addr:city" v="Middlesex"/>
    <tag k="addr:housenumber" v="360"/>
    <tag k="addr:street" v="Shady Rill Road"/>
    <tag k="addr:state" v="VT"/>
    <tag k="ref:vcgi:esiteid" v="156942"/>
  </node>
  <node id="-205" visible="true" lat="44.34915161" lon="-72.60702514">
    <tag k="addr:city" v="Middlesex"/>
    <tag k="addr:housenumber" v="495"/>
    <tag k="addr:street" v="Shady Rill Road"/>
    <tag k="addr:state" v="VT"/>
    <tag k="ref:vcgi:esiteid" v="156943"/>
  </node>
  <node id="-206" visible="true" lat="44.34916305" lon="-72.59564972">
    <tag k="addr:city" v="Middlesex"/>
    <tag k="addr:housenumber" v="348"/>
    <tag k="addr:street" v="Shady Rill Road"/>
    <tag k="addr:state" v="VT"/>
    <tag k="ref:vcgi:esiteid" v="156944"/>
  </node>
  <node id="-207" visible="true" lat="44.3490432" lon="-72.59646351">
    <tag k="addr:city" v="Middlesex"/>
    <tag k="addr:housenumber" v="357"/>
    <tag k="addr:street" v="Shady Rill Road"/>
    <tag k="addr:state" v="VT"/>
    <tag k="ref:vcgi:esiteid" v="156945"/>
  </node>
  <node id="-208" visible="true" lat="44.34877395" lon="-72.56591796">
    <tag k="addr:city" v="Middlesex"/>
    <tag k="addr:housenumber" v="60"/>
    <tag k="addr:street" v="Vermont Route 12"/>
    <tag k="addr:state" v="VT"/>
    <tag k="ref:vcgi:esiteid" v="156946"/>
  </node>
  <node id="-209" visible="true" lat="44.34854888" lon="-72.60871124">
    <tag k="addr:city" v="Middlesex"/>
    <tag k="addr:housenumber" v="508"/>
    <tag k="addr:street" v="Shady Rill Road"/>
    <tag k="addr:state" v="VT"/>
    <tag k="ref:vcgi:esiteid" v="156947"/>
  </node>
  <node id="-210" visible="true" lat="44.34841121" lon="-72.58663598">
    <tag k="addr:city" v="Middlesex"/>
    <tag k="addr:housenumber" v="66"/>
    <tag k="addr:street" v="Wood Road"/>
    <tag k="addr:state" v="VT"/>
    <tag k="ref:vcgi:esiteid" v="156948"/>
  </node>
  <node id="-211" visible="true" lat="44.3483467" lon="-72.61058807">
    <tag k="addr:city" v="Middlesex"/>
    <tag k="addr:housenumber" v="520"/>
    <tag k="addr:street" v="Shady Rill Road"/>
    <tag k="addr:state" v="VT"/>
    <tag k="ref:vcgi:esiteid" v="156949"/>
  </node>
  <node id="-212" visible="true" lat="44.34813887" lon="-72.59208535">
    <tag k="addr:city" v="Middlesex"/>
    <tag k="addr:housenumber" v="77"/>
    <tag k="addr:street" v="Macey Road"/>
    <tag k="addr:state" v="VT"/>
    <tag k="ref:vcgi:esiteid" v="156950"/>
  </node>
  <node id="-213" visible="true" lat="44.34813482" lon="-72.58822803">
    <tag k="addr:city" v="Middlesex"/>
    <tag k="addr:housenumber" v="45"/>
    <tag k="addr:street" v="Wood Road"/>
    <tag k="addr:state" v="VT"/>
    <tag k="ref:vcgi:esiteid" v="156951"/>
  </node>
  <node id="-214" visible="true" lat="44.34798707" lon="-72.55773318">
    <tag k="addr:city" v="Middlesex"/>
    <tag k="addr:housenumber" v="122"/>
    <tag k="addr:street" v="Norton Road"/>
    <tag k="addr:state" v="VT"/>
    <tag k="ref:vcgi:esiteid" v="156952"/>
  </node>
  <node id="-215" visible="true" lat="44.34799684" lon="-72.59036811">
    <tag k="addr:city" v="Middlesex"/>
    <tag k="addr:housenumber" v="56"/>
    <tag k="addr:street" v="Macey Road"/>
    <tag k="addr:state" v="VT"/>
    <tag k="ref:vcgi:esiteid" v="156954"/>
  </node>
  <node id="-216" visible="true" lat="44.34783187" lon="-72.59432085">
    <tag k="addr:city" v="Middlesex"/>
    <tag k="addr:housenumber" v="327"/>
    <tag k="addr:street" v="Shady Rill Road"/>
    <tag k="addr:state" v="VT"/>
    <tag k="ref:vcgi:esiteid" v="156955"/>
  </node>
  <node id="-217" visible="true" lat="44.34764685" lon="-72.59429094">
    <tag k="addr:city" v="Middlesex"/>
    <tag k="addr:housenumber" v="325"/>
    <tag k="addr:street" v="Shady Rill Road"/>
    <tag k="addr:state" v="VT"/>
    <tag k="ref:vcgi:esiteid" v="156956"/>
  </node>
  <node id="-218" visible="true" lat="44.34754647" lon="-72.56144257">
    <tag k="addr:city" v="Middlesex"/>
    <tag k="addr:housenumber" v="103"/>
    <tag k="addr:street" v="Norton Road"/>
    <tag k="addr:state" v="VT"/>
    <tag k="ref:vcgi:esiteid" v="156957"/>
  </node>
  <node id="-219" visible="true" lat="44.34748699" lon="-72.56741597">
    <tag k="addr:city" v="Middlesex"/>
    <tag k="addr:housenumber" v="82"/>
    <tag k="addr:street" v="Vermont Route 12"/>
    <tag k="addr:state" v="VT"/>
    <tag k="ref:vcgi:esiteid" v="156958"/>
  </node>
  <node id="-220" visible="true" lat="44.34730911" lon="-72.58965301">
    <tag k="addr:city" v="Middlesex"/>
    <tag k="addr:housenumber" v="44"/>
    <tag k="addr:street" v="Macey Road"/>
    <tag k="addr:state" v="VT"/>
    <tag k="ref:vcgi:esiteid" v="156959"/>
  </node>
  <node id="-221" visible="true" lat="44.34716796" lon="-72.60987853">
    <tag k="addr:city" v="Middlesex"/>
    <tag k="addr:housenumber" v="534"/>
    <tag k="addr:street" v="Shady Rill Road"/>
    <tag k="addr:state" v="VT"/>
    <tag k="ref:vcgi:esiteid" v="156960"/>
  </node>
  <node id="-222" visible="true" lat="44.34687315" lon="-72.59193627">
    <tag k="addr:city" v="Middlesex"/>
    <tag k="addr:housenumber" v="296"/>
    <tag k="addr:street" v="Shady Rill Road"/>
    <tag k="addr:state" v="VT"/>
    <tag k="ref:vcgi:esiteid" v="156961"/>
  </node>
  <node id="-223" visible="true" lat="44.34680261" lon="-72.59311642">
    <tag k="addr:city" v="Middlesex"/>
    <tag k="addr:housenumber" v="305"/>
    <tag k="addr:street" v="Shady Rill Road"/>
    <tag k="addr:state" v="VT"/>
    <tag k="ref:vcgi:esiteid" v="156962"/>
  </node>
  <node id="-224" visible="true" lat="44.34664154" lon="-72.56801605">
    <tag k="addr:city" v="Middlesex"/>
    <tag k="addr:housenumber" v="84"/>
    <tag k="addr:street" v="Vermont Route 12"/>
    <tag k="addr:state" v="VT"/>
    <tag k="ref:vcgi:esiteid" v="156963"/>
  </node>
  <node id="-225" visible="true" lat="44.34654842" lon="-72.58853561">
    <tag k="addr:city" v="Middlesex"/>
    <tag k="addr:housenumber" v="27"/>
    <tag k="addr:street" v="Wood Road"/>
    <tag k="addr:state" v="VT"/>
    <tag k="ref:vcgi:esiteid" v="156964"/>
  </node>
  <node id="-226" visible="true" lat="44.34639652" lon="-72.58721452">
    <tag k="addr:city" v="Middlesex"/>
    <tag k="addr:housenumber" v="32"/>
    <tag k="addr:street" v="Wood Road"/>
    <tag k="addr:state" v="VT"/>
    <tag k="ref:vcgi:esiteid" v="156965"/>
  </node>
  <node id="-227" visible="true" lat="44.34625244" lon="-72.61016845">
    <tag k="addr:city" v="Middlesex"/>
    <tag k="addr:housenumber" v="546"/>
    <tag k="addr:street" v="Shady Rill Road"/>
    <tag k="addr:state" v="VT"/>
    <tag k="ref:vcgi:esiteid" v="156966"/>
  </node>
  <node id="-228" visible="true" lat="44.34599071" lon="-72.59099436">
    <tag k="addr:city" v="Middlesex"/>
    <tag k="addr:housenumber" v="282"/>
    <tag k="addr:street" v="Shady Rill Road"/>
    <tag k="addr:state" v="VT"/>
    <tag k="ref:vcgi:esiteid" v="156967"/>
  </node>
  <node id="-229" visible="true" lat="44.34567713" lon="-72.59151431">
    <tag k="addr:city" v="Middlesex"/>
    <tag k="addr:housenumber" v="283"/>
    <tag k="addr:street" v="Shady Rill Road"/>
    <tag k="addr:state" v="VT"/>
    <tag k="ref:vcgi:esiteid" v="156968"/>
  </node>
  <node id="-230" visible="true" lat="44.34575271" lon="-72.56079864">
    <tag k="addr:city" v="Middlesex"/>
    <tag k="addr:housenumber" v="98"/>
    <tag k="addr:street" v="Norton Road"/>
    <tag k="addr:state" v="VT"/>
    <tag k="ref:vcgi:esiteid" v="156969"/>
  </node>
  <node id="-231" visible="true" lat="44.34542305" lon="-72.60864808">
    <tag k="addr:city" v="Middlesex"/>
    <tag k="addr:housenumber" v="551"/>
    <tag k="addr:street" v="Shady Rill Road"/>
    <tag k="addr:state" v="VT"/>
    <tag k="ref:vcgi:esiteid" v="156970"/>
  </node>
  <node id="-233" visible="true" lat="44.34558105" lon="-72.58913421">
    <tag k="addr:city" v="Middlesex"/>
    <tag k="addr:housenumber" v="24"/>
    <tag k="addr:street" v="Macey Road"/>
    <tag k="addr:state" v="VT"/>
    <tag k="ref:vcgi:esiteid" v="156972"/>
  </node>
  <node id="-234" visible="true" lat="44.3452568" lon="-72.5658493">
    <tag k="addr:city" v="Middlesex"/>
    <tag k="addr:housenumber" v="110"/>
    <tag k="addr:street" v="Vermont Route 12"/>
    <tag k="addr:state" v="VT"/>
    <tag k="ref:vcgi:esiteid" v="156973"/>
  </node>
  <node id="-236" visible="true" lat="44.34519994" lon="-72.59003558">
    <tag k="addr:city" v="Middlesex"/>
    <tag k="addr:housenumber" v="266"/>
    <tag k="addr:street" v="Shady Rill Road"/>
    <tag k="addr:state" v="VT"/>
    <tag k="ref:vcgi:esiteid" v="156975"/>
  </node>
  <node id="-237" visible="true" lat="44.34513473" lon="-72.59079742">
    <tag k="addr:city" v="Middlesex"/>
    <tag k="addr:housenumber" v="271"/>
    <tag k="addr:street" v="Shady Rill Road"/>
    <tag k="addr:state" v="VT"/>
    <tag k="ref:vcgi:esiteid" v="156976"/>
  </node>
  <node id="-238" visible="true" lat="44.34481791" lon="-72.58958827">
    <tag k="addr:city" v="Middlesex"/>
    <tag k="addr:housenumber" v="260"/>
    <tag k="addr:street" v="Shady Rill Road"/>
    <tag k="addr:state" v="VT"/>
    <tag k="ref:vcgi:esiteid" v="156977"/>
  </node>
  <node id="-239" visible="true" lat="44.34466934" lon="-72.64753723">
    <tag k="addr:city" v="Middlesex"/>
    <tag k="addr:housenumber" v="220"/>
    <tag k="addr:street" v="South Bear Swamp Road"/>
    <tag k="addr:state" v="VT"/>
    <tag k="ref:vcgi:esiteid" v="156978"/>
  </node>
  <node id="-240" visible="true" lat="44.34460449" lon="-72.61365509">
    <tag k="addr:city" v="Middlesex"/>
    <tag k="addr:housenumber" v="32"/>
    <tag k="addr:street" v="Pr 2"/>
    <tag k="addr:state" v="VT"/>
    <tag k="ref:vcgi:esiteid" v="156979"/>
  </node>
  <node id="-242" visible="true" lat="44.34436735" lon="-72.58832618">
    <tag k="addr:city" v="Middlesex"/>
    <tag k="addr:housenumber" v="6"/>
    <tag k="addr:street" v="Wood Road"/>
    <tag k="addr:state" v="VT"/>
    <tag k="ref:vcgi:esiteid" v="156981"/>
  </node>
  <node id="-243" visible="true" lat="44.34420243" lon="-72.59327357">
    <tag k="addr:city" v="Middlesex"/>
    <tag k="addr:housenumber" v="279"/>
    <tag k="addr:street" v="Shady Rill Road"/>
    <tag k="addr:state" v="VT"/>
    <tag k="ref:vcgi:esiteid" v="156982"/>
  </node>
  <node id="-244" visible="true" lat="44.34431734" lon="-72.58976784">
    <tag k="addr:city" v="Middlesex"/>
    <tag k="addr:housenumber" v="4"/>
    <tag k="addr:street" v="Government Hill Road"/>
    <tag k="addr:state" v="VT"/>
    <tag k="ref:vcgi:esiteid" v="156983"/>
  </node>
  <node id="-245" visible="true" lat="44.34425353" lon="-72.56507873">
    <tag k="addr:city" v="Middlesex"/>
    <tag k="addr:housenumber" v="127"/>
    <tag k="addr:street" v="Vermont Route 12"/>
    <tag k="addr:state" v="VT"/>
    <tag k="ref:vcgi:esiteid" v="156984"/>
  </node>
  <node id="-246" visible="true" lat="44.34421906" lon="-72.59054583">
    <tag k="addr:city" v="Middlesex"/>
    <tag k="addr:housenumber" v="10"/>
    <tag k="addr:street" v="Government Hill Road"/>
    <tag k="addr:state" v="VT"/>
    <tag k="ref:vcgi:esiteid" v="156985"/>
  </node>
  <node id="-248" visible="true" lat="44.34406661" lon="-72.61121368">
    <tag k="addr:city" v="Middlesex"/>
    <tag k="addr:housenumber" v="580"/>
    <tag k="addr:street" v="Shady Rill Road"/>
    <tag k="addr:state" v="VT"/>
    <tag k="ref:vcgi:esiteid" v="156987"/>
  </node>
  <node id="-251" visible="true" lat="44.34368127" lon="-72.58967062">
    <tag k="addr:city" v="Middlesex"/>
    <tag k="addr:housenumber" v="7"/>
    <tag k="addr:street" v="Government Hill Road"/>
    <tag k="addr:state" v="VT"/>
    <tag k="ref:vcgi:esiteid" v="156990"/>
  </node>
  <node id="-252" visible="true" lat="44.34359342" lon="-72.56867246">
    <tag k="addr:city" v="Middlesex"/>
    <tag k="addr:housenumber" v="148"/>
    <tag k="addr:street" v="Vermont Route 12"/>
    <tag k="addr:state" v="VT"/>
    <tag k="ref:vcgi:esiteid" v="156991"/>
  </node>
  <node id="-253" visible="true" lat="44.34337997" lon="-72.64868927">
    <tag k="addr:city" v="Middlesex"/>
    <tag k="addr:housenumber" v="199"/>
    <tag k="addr:street" v="South Bear Swamp Road"/>
    <tag k="addr:state" v="VT"/>
    <tag k="ref:vcgi:esiteid" v="156992"/>
  </node>
  <node id="-254" visible="true" lat="44.34320068" lon="-72.61138916">
    <tag k="addr:city" v="Middlesex"/>
    <tag k="addr:housenumber" v="592"/>
    <tag k="addr:street" v="Shady Rill Road"/>
    <tag k="addr:state" v="VT"/>
    <tag k="ref:vcgi:esiteid" v="156993"/>
  </node>
  <node id="-255" visible="true" lat="44.34271731" lon="-72.56185126">
    <tag k="addr:city" v="Middlesex"/>
    <tag k="addr:housenumber" v="28"/>
    <tag k="addr:street" v="Norton Road"/>
    <tag k="addr:state" v="VT"/>
    <tag k="ref:vcgi:esiteid" v="156994"/>
  </node>
  <node id="-257" visible="true" lat="44.34239943" lon="-72.64930078">
    <tag k="addr:city" v="Middlesex"/>
    <tag k="addr:housenumber" v="6"/>
    <tag k="addr:street" v="Daniels Farm Road"/>
    <tag k="addr:state" v="VT"/>
    <tag k="ref:vcgi:esiteid" v="156996"/>
  </node>
  <node id="-258" visible="true" lat="44.34230892" lon="-72.56464557">
    <tag k="addr:city" v="Middlesex"/>
    <tag k="addr:housenumber" v="18"/>
    <tag k="addr:street" v="Norton Road"/>
    <tag k="addr:state" v="VT"/>
    <tag k="ref:vcgi:esiteid" v="156997"/>
  </node>
  <node id="-259" visible="true" lat="44.34218597" lon="-72.59553527">
    <tag k="addr:city" v="Middlesex"/>
    <tag k="addr:housenumber" v="66"/>
    <tag k="addr:street" v="Government Hill Road"/>
    <tag k="addr:state" v="VT"/>
    <tag k="ref:vcgi:esiteid" v="156998"/>
  </node>
  <node id="-261" visible="true" lat="44.34174427" lon="-72.65398373">
    <tag k="addr:city" v="Middlesex"/>
    <tag k="addr:housenumber" v="22"/>
    <tag k="addr:street" v="Daniels Farm Road"/>
    <tag k="addr:state" v="VT"/>
    <tag k="ref:vcgi:esiteid" v="157000"/>
  </node>
  <node id="-263" visible="true" lat="44.34152754" lon="-72.64754553">
    <tag k="addr:city" v="Middlesex"/>
    <tag k="addr:housenumber" v="7"/>
    <tag k="addr:street" v="Daniels Farm Road"/>
    <tag k="addr:state" v="VT"/>
    <tag k="ref:vcgi:esiteid" v="157002"/>
  </node>
  <node id="-268" visible="true" lat="44.34167679" lon="-72.56643649">
    <tag k="addr:city" v="Middlesex"/>
    <tag k="addr:housenumber" v="168"/>
    <tag k="addr:street" v="Vermont Route 12"/>
    <tag k="addr:state" v="VT"/>
    <tag k="ref:vcgi:esiteid" v="157007"/>
  </node>
  <node id="-271" visible="true" lat="44.34133154" lon="-72.64632634">
    <tag k="addr:city" v="Middlesex"/>
    <tag k="addr:housenumber" v="161"/>
    <tag k="addr:street" v="South Bear Swamp Road"/>
    <tag k="addr:state" v="VT"/>
    <tag k="ref:vcgi:esiteid" v="157010"/>
  </node>
  <node id="-272" visible="true" lat="44.3414065" lon="-72.56680907">
    <tag k="addr:city" v="Middlesex"/>
    <tag k="addr:housenumber" v="176"/>
    <tag k="addr:street" v="Vermont Route 12"/>
    <tag k="addr:state" v="VT"/>
    <tag k="ref:vcgi:esiteid" v="157011"/>
  </node>
  <node id="-273" visible="true" lat="44.34142379" lon="-72.60203276">
    <tag k="addr:city" v="Middlesex"/>
    <tag k="addr:housenumber" v="99"/>
    <tag k="addr:street" v="French Road"/>
    <tag k="addr:state" v="VT"/>
    <tag k="ref:vcgi:esiteid" v="157012"/>
  </node>
  <node id="-274" visible="true" lat="44.34113332" lon="-72.58704925">
    <tag k="addr:city" v="Middlesex"/>
    <tag k="addr:housenumber" v="201"/>
    <tag k="addr:street" v="Shady Rill Road"/>
    <tag k="addr:state" v="VT"/>
    <tag k="ref:vcgi:esiteid" v="157013"/>
  </node>
  <node id="-275" visible="true" lat="44.34100836" lon="-72.60538559">
    <tag k="addr:city" v="Middlesex"/>
    <tag k="addr:housenumber" v="60"/>
    <tag k="addr:street" v="French Road"/>
    <tag k="addr:state" v="VT"/>
    <tag k="ref:vcgi:esiteid" v="157014"/>
  </node>
  <node id="-276" visible="true" lat="44.34114596" lon="-72.56639294">
    <tag k="addr:city" v="Middlesex"/>
    <tag k="addr:housenumber" v="173"/>
    <tag k="addr:street" v="Vermont Route 12"/>
    <tag k="addr:state" v="VT"/>
    <tag k="ref:vcgi:esiteid" v="157015"/>
  </node>
  <node id="-278" visible="true" lat="44.34097149" lon="-72.60303934">
    <tag k="addr:city" v="Middlesex"/>
    <tag k="addr:housenumber" v="88"/>
    <tag k="addr:street" v="French Road"/>
    <tag k="addr:state" v="VT"/>
    <tag k="ref:vcgi:esiteid" v="157017"/>
  </node>
  <node id="-279" visible="true" lat="44.34086133" lon="-72.56646577">
    <tag k="addr:city" v="Middlesex"/>
    <tag k="addr:housenumber" v="177"/>
    <tag k="addr:street" v="Vermont Route 12"/>
    <tag k="addr:state" v="VT"/>
    <tag k="ref:vcgi:esiteid" v="157018"/>
  </node>
  <node id="-280" visible="true" lat="44.34084616" lon="-72.56614403">
    <tag k="addr:city" v="Middlesex"/>
    <tag k="addr:housenumber" v="175"/>
    <tag k="addr:street" v="Vermont Route 12"/>
    <tag k="addr:state" v="VT"/>
    <tag k="ref:vcgi:esiteid" v="157019"/>
  </node>
  <node id="-281" visible="true" lat="44.34075845" lon="-72.58641274">
    <tag k="addr:city" v="Middlesex"/>
    <tag k="addr:housenumber" v="191"/>
    <tag k="addr:street" v="Shady Rill Road"/>
    <tag k="addr:state" v="VT"/>
    <tag k="ref:vcgi:esiteid" v="157020"/>
  </node>
  <node id="-282" visible="true" lat="44.34071731" lon="-72.59753417">
    <tag k="addr:city" v="Middlesex"/>
    <tag k="addr:housenumber" v="98"/>
    <tag k="addr:street" v="Government Hill Road"/>
    <tag k="addr:state" v="VT"/>
    <tag k="ref:vcgi:esiteid" v="157021"/>
  </node>
  <node id="-283" visible="true" lat="44.34069052" lon="-72.58277141">
    <tag k="addr:city" v="Middlesex"/>
    <tag k="addr:housenumber" v="14"/>
    <tag k="addr:street" v="Fox Run Road"/>
    <tag k="addr:state" v="VT"/>
    <tag k="ref:vcgi:esiteid" v="157022"/>
  </node>
  <node id="-284" visible="true" lat="44.34068771" lon="-72.56672872">
    <tag k="addr:city" v="Middlesex"/>
    <tag k="addr:housenumber" v="181"/>
    <tag k="addr:street" v="Vermont Route 12"/>
    <tag k="addr:state" v="VT"/>
    <tag k="ref:vcgi:esiteid" v="157023"/>
  </node>
  <node id="-285" visible="true" lat="44.34057791" lon="-72.56742712">
    <tag k="addr:city" v="Middlesex"/>
    <tag k="addr:housenumber" v="180"/>
    <tag k="addr:street" v="Vermont Route 12"/>
    <tag k="addr:state" v="VT"/>
    <tag k="ref:vcgi:esiteid" v="157024"/>
  </node>
  <node id="-286" visible="true" lat="44.34037021" lon="-72.64397177">
    <tag k="addr:city" v="Middlesex"/>
    <tag k="addr:housenumber" v="133"/>
    <tag k="addr:street" v="South Bear Swamp Road"/>
    <tag k="addr:state" v="VT"/>
    <tag k="ref:vcgi:esiteid" v="157025"/>
  </node>
  <node id="-287" visible="true" lat="44.34036254" lon="-72.65145111">
    <tag k="addr:city" v="Middlesex"/>
    <tag k="addr:housenumber" v="52"/>
    <tag k="addr:street" v="Daniels Farm Road"/>
    <tag k="addr:state" v="VT"/>
    <tag k="ref:vcgi:esiteid" v="157026"/>
  </node>
  <node id="-288" visible="true" lat="44.3403987" lon="-72.58561408">
    <tag k="addr:city" v="Middlesex"/>
    <tag k="addr:housenumber" v="179"/>
    <tag k="addr:street" v="Shady Rill Road"/>
    <tag k="addr:state" v="VT"/>
    <tag k="ref:vcgi:esiteid" v="157027"/>
  </node>
  <node id="-289" visible="true" lat="44.34004775" lon="-72.56727952">
    <tag k="addr:city" v="Middlesex"/>
    <tag k="addr:housenumber" v="190"/>
    <tag k="addr:street" v="Vermont Route 12"/>
    <tag k="addr:state" v="VT"/>
    <tag k="ref:vcgi:esiteid" v="157028"/>
  </node>
  <node id="-290" visible="true" lat="44.34023085" lon="-72.56669016">
    <tag k="addr:city" v="Middlesex"/>
    <tag k="addr:housenumber" v="187"/>
    <tag k="addr:street" v="Vermont Route 12"/>
    <tag k="addr:state" v="VT"/>
    <tag k="ref:vcgi:esiteid" v="157030"/>
  </node>
  <node id="-292" visible="true" lat="44.33986329" lon="-72.59784906">
    <tag k="addr:city" v="Middlesex"/>
    <tag k="addr:housenumber" v="146"/>
    <tag k="addr:street" v="French Road"/>
    <tag k="addr:state" v="VT"/>
    <tag k="ref:vcgi:esiteid" v="157032"/>
  </node>
  <node id="-293" visible="true" lat="44.34001445" lon="-72.59704467">
    <tag k="addr:city" v="Middlesex"/>
    <tag k="addr:housenumber" v="496"/>
    <tag k="addr:street" v="Culver Hill Road"/>
    <tag k="addr:state" v="VT"/>
    <tag k="ref:vcgi:esiteid" v="157033"/>
  </node>
  <node id="-294" visible="true" lat="44.33989497" lon="-72.56666557">
    <tag k="addr:city" v="Middlesex"/>
    <tag k="addr:housenumber" v="195"/>
    <tag k="addr:street" v="Vermont Route 12"/>
    <tag k="addr:state" v="VT"/>
    <tag k="ref:vcgi:esiteid" v="157034"/>
  </node>
  <node id="-295" visible="true" lat="44.33950164" lon="-72.58406328">
    <tag k="addr:city" v="Middlesex"/>
    <tag k="addr:housenumber" v="161"/>
    <tag k="addr:street" v="Shady Rill Road"/>
    <tag k="addr:state" v="VT"/>
    <tag k="ref:vcgi:esiteid" v="157035"/>
  </node>
  <node id="-296" visible="true" lat="44.33985297" lon="-72.56726233">
    <tag k="addr:city" v="Middlesex"/>
    <tag k="addr:housenumber" v="194"/>
    <tag k="addr:street" v="Vermont Route 12"/>
    <tag k="addr:state" v="VT"/>
    <tag k="ref:vcgi:esiteid" v="157036"/>
  </node>
  <node id="-297" visible="true" lat="44.33965682" lon="-72.59388732">
    <tag k="addr:city" v="Middlesex"/>
    <tag k="addr:housenumber" v="93"/>
    <tag k="addr:street" v="Government Hill Road"/>
    <tag k="addr:state" v="VT"/>
    <tag k="ref:vcgi:esiteid" v="157037"/>
  </node>
  <node id="-298" visible="true" lat="44.33958706" lon="-72.56649605">
    <tag k="addr:city" v="Middlesex"/>
    <tag k="addr:housenumber" v="199"/>
    <tag k="addr:street" v="Vermont Route 12"/>
    <tag k="addr:state" v="VT"/>
    <tag k="ref:vcgi:esiteid" v="157038"/>
  </node>
  <node id="-299" visible="true" lat="44.33908843" lon="-72.65144348">
    <tag k="addr:city" v="Middlesex"/>
    <tag k="addr:housenumber" v="51"/>
    <tag k="addr:street" v="Daniels Farm Road"/>
    <tag k="addr:state" v="VT"/>
    <tag k="ref:vcgi:esiteid" v="157039"/>
  </node>
  <node id="-300" visible="true" lat="44.33908519" lon="-72.61345726">
    <tag k="addr:city" v="Middlesex"/>
    <tag k="addr:housenumber" v="52"/>
    <tag k="addr:street" v="Molly Supple Hill Road"/>
    <tag k="addr:state" v="VT"/>
    <tag k="ref:vcgi:esiteid" v="157040"/>
  </node>
  <node id="-302" visible="true" lat="44.33868391" lon="-72.58279129">
    <tag k="addr:city" v="Middlesex"/>
    <tag k="addr:housenumber" v="139"/>
    <tag k="addr:street" v="Shady Rill Road"/>
    <tag k="addr:state" v="VT"/>
    <tag k="ref:vcgi:esiteid" v="157042"/>
  </node>
  <node id="-304" visible="true" lat="44.33850469" lon="-72.63374132">
    <tag k="addr:city" v="Middlesex"/>
    <tag k="addr:housenumber" v="241"/>
    <tag k="addr:street" v="Picard Lane"/>
    <tag k="addr:state" v="VT"/>
    <tag k="ref:vcgi:esiteid" v="157044"/>
  </node>
  <node id="-305" visible="true" lat="44.33836003" lon="-72.64239059">
    <tag k="addr:city" v="Middlesex"/>
    <tag k="addr:housenumber" v="95"/>
    <tag k="addr:street" v="South Bear Swamp Road"/>
    <tag k="addr:state" v="VT"/>
    <tag k="ref:vcgi:esiteid" v="157045"/>
  </node>
  <node id="-306" visible="true" lat="44.33828913" lon="-72.56677994">
    <tag k="addr:city" v="Middlesex"/>
    <tag k="addr:housenumber" v="211"/>
    <tag k="addr:street" v="Vermont Route 12"/>
    <tag k="addr:state" v="VT"/>
    <tag k="ref:vcgi:esiteid" v="157046"/>
  </node>
  <node id="-307" visible="true" lat="44.33801478" lon="-72.58187319">
    <tag k="addr:city" v="Middlesex"/>
    <tag k="addr:housenumber" v="127"/>
    <tag k="addr:street" v="Shady Rill Road"/>
    <tag k="addr:state" v="VT"/>
    <tag k="ref:vcgi:esiteid" v="157047"/>
  </node>
  <node id="-308" visible="true" lat="44.33808898" lon="-72.59700775">
    <tag k="addr:city" v="Middlesex"/>
    <tag k="addr:housenumber" v="468"/>
    <tag k="addr:street" v="Culver Hill Road"/>
    <tag k="addr:state" v="VT"/>
    <tag k="ref:vcgi:esiteid" v="157048"/>
  </node>
  <node id="-309" visible="true" lat="44.33778568" lon="-72.5981663">
    <tag k="addr:city" v="Middlesex"/>
    <tag k="addr:housenumber" v="465"/>
    <tag k="addr:street" v="Culver Hill Road"/>
    <tag k="addr:state" v="VT"/>
    <tag k="ref:vcgi:esiteid" v="157049"/>
  </node>
  <node id="-310" visible="true" lat="44.337581" lon="-72.59739674">
    <tag k="addr:city" v="Middlesex"/>
    <tag k="addr:housenumber" v="466"/>
    <tag k="addr:street" v="Culver Hill Road"/>
    <tag k="addr:state" v="VT"/>
    <tag k="ref:vcgi:esiteid" v="157050"/>
  </node>
  <node id="-311" visible="true" lat="44.33754533" lon="-72.63695493">
    <tag k="addr:city" v="Middlesex"/>
    <tag k="addr:housenumber" v="34"/>
    <tag k="addr:street" v="South Bear Swamp Road"/>
    <tag k="addr:state" v="VT"/>
    <tag k="ref:vcgi:esiteid" v="157051"/>
  </node>
  <node id="-312" visible="true" lat="44.33728694" lon="-72.58216986">
    <tag k="addr:city" v="Middlesex"/>
    <tag k="addr:housenumber" v="109"/>
    <tag k="addr:street" v="Shady Rill Road"/>
    <tag k="addr:state" v="VT"/>
    <tag k="ref:vcgi:esiteid" v="157052"/>
  </node>
  <node id="-313" visible="true" lat="44.33708984" lon="-72.63842866">
    <tag k="addr:city" v="Middlesex"/>
    <tag k="addr:housenumber" v="51"/>
    <tag k="addr:street" v="South Bear Swamp Road"/>
    <tag k="addr:state" v="VT"/>
    <tag k="ref:vcgi:esiteid" v="157053"/>
  </node>
  <node id="-314" visible="true" lat="44.33695995" lon="-72.63782567">
    <tag k="addr:city" v="Middlesex"/>
    <tag k="addr:housenumber" v="43"/>
    <tag k="addr:street" v="South Bear Swamp Road"/>
    <tag k="addr:state" v="VT"/>
    <tag k="ref:vcgi:esiteid" v="157054"/>
  </node>
  <node id="-315" visible="true" lat="44.33710364" lon="-72.6357772">
    <tag k="addr:city" v="Middlesex"/>
    <tag k="addr:housenumber" v="18"/>
    <tag k="addr:street" v="South Bear Swamp Road"/>
    <tag k="addr:state" v="VT"/>
    <tag k="ref:vcgi:esiteid" v="157055"/>
  </node>
  <node id="-317" visible="true" lat="44.33673095" lon="-72.63272094">
    <tag k="addr:city" v="Middlesex"/>
    <tag k="addr:housenumber" v="98"/>
    <tag k="addr:street" v="Picard Lane"/>
    <tag k="addr:state" v="VT"/>
    <tag k="ref:vcgi:esiteid" v="157057"/>
  </node>
  <node id="-318" visible="true" lat="44.3367424" lon="-72.58118438">
    <tag k="addr:city" v="Middlesex"/>
    <tag k="addr:housenumber" v="104"/>
    <tag k="addr:street" v="Shady Rill Road"/>
    <tag k="addr:state" v="VT"/>
    <tag k="ref:vcgi:esiteid" v="157058"/>
  </node>
  <node id="-319" visible="true" lat="44.33664847" lon="-72.6344478">
    <tag k="addr:city" v="Middlesex"/>
    <tag k="addr:housenumber" v="4"/>
    <tag k="addr:street" v="South Bear Swamp Road"/>
    <tag k="addr:state" v="VT"/>
    <tag k="ref:vcgi:esiteid" v="157059"/>
  </node>
  <node id="-322" visible="true" lat="44.33595987" lon="-72.63384251">
    <tag k="addr:city" v="Middlesex"/>
    <tag k="addr:housenumber" v="45"/>
    <tag k="addr:street" v="Picard Lane"/>
    <tag k="addr:state" v="VT"/>
    <tag k="ref:vcgi:esiteid" v="157062"/>
  </node>
  <node id="-323" visible="true" lat="44.33588395" lon="-72.57504279">
    <tag k="addr:city" v="Middlesex"/>
    <tag k="addr:housenumber" v="18"/>
    <tag k="addr:street" v="Merritt Road"/>
    <tag k="addr:state" v="VT"/>
    <tag k="ref:vcgi:esiteid" v="157063"/>
  </node>
  <node id="-324" visible="true" lat="44.33570098" lon="-72.63849639">
    <tag k="addr:city" v="Middlesex"/>
    <tag k="addr:housenumber" v="57"/>
    <tag k="addr:street" v="South Bear Swamp Road"/>
    <tag k="addr:state" v="VT"/>
    <tag k="ref:vcgi:esiteid" v="157064"/>
  </node>
  <node id="-326" visible="true" lat="44.33568414" lon="-72.63328709">
    <tag k="addr:city" v="Middlesex"/>
    <tag k="addr:housenumber" v="6"/>
    <tag k="addr:street" v="Picard Lane"/>
    <tag k="addr:state" v="VT"/>
    <tag k="ref:vcgi:esiteid" v="157066"/>
  </node>
  <node id="-327" visible="true" lat="44.33538336" lon="-72.63508084">
    <tag k="addr:city" v="Middlesex"/>
    <tag k="addr:housenumber" v="13"/>
    <tag k="addr:street" v="South Bear Swamp Road"/>
    <tag k="addr:state" v="VT"/>
    <tag k="ref:vcgi:esiteid" v="157067"/>
  </node>
  <node id="-328" visible="true" lat="44.33536952" lon="-72.63362457">
    <tag k="addr:city" v="Middlesex"/>
    <tag k="addr:housenumber" v="21"/>
    <tag k="addr:street" v="Picard Lane"/>
    <tag k="addr:state" v="VT"/>
    <tag k="ref:vcgi:esiteid" v="157068"/>
  </node>
  <node id="-329" visible="true" lat="44.33533477" lon="-72.59910583">
    <tag k="addr:city" v="Middlesex"/>
    <tag k="addr:housenumber" v="429"/>
    <tag k="addr:street" v="Culver Hill Road"/>
    <tag k="addr:state" v="VT"/>
    <tag k="ref:vcgi:esiteid" v="157069"/>
  </node>
  <node id="-331" visible="true" lat="44.33516599" lon="-72.59764785">
    <tag k="addr:city" v="Middlesex"/>
    <tag k="addr:housenumber" v="418"/>
    <tag k="addr:street" v="Culver Hill Road"/>
    <tag k="addr:state" v="VT"/>
    <tag k="ref:vcgi:esiteid" v="157071"/>
  </node>
  <node id="-332" visible="true" lat="44.33495552" lon="-72.6326659">
    <tag k="addr:city" v="Middlesex"/>
    <tag k="addr:housenumber" v="969"/>
    <tag k="addr:street" v="Center Road"/>
    <tag k="addr:state" v="VT"/>
    <tag k="ref:vcgi:esiteid" v="157072"/>
  </node>
  <node id="-333" visible="true" lat="44.33414077" lon="-72.62191009">
    <tag k="addr:city" v="Middlesex"/>
    <tag k="addr:housenumber" v="164"/>
    <tag k="addr:street" v="Molly Supple Hill Road"/>
    <tag k="addr:state" v="VT"/>
    <tag k="ref:vcgi:esiteid" v="157073"/>
  </node>
  <node id="-334" visible="true" lat="44.33376693" lon="-72.59804534">
    <tag k="addr:city" v="Middlesex"/>
    <tag k="addr:housenumber" v="405"/>
    <tag k="addr:street" v="Culver Hill Road"/>
    <tag k="addr:state" v="VT"/>
    <tag k="ref:vcgi:esiteid" v="157074"/>
  </node>
  <node id="-335" visible="true" lat="44.33320617" lon="-72.62216186">
    <tag k="addr:city" v="Middlesex"/>
    <tag k="addr:housenumber" v="176"/>
    <tag k="addr:street" v="Molly Supple Hill Road"/>
    <tag k="addr:state" v="VT"/>
    <tag k="ref:vcgi:esiteid" v="157075"/>
  </node>
  <node id="-336" visible="true" lat="44.3328247" lon="-72.62086486">
    <tag k="addr:city" v="Middlesex"/>
    <tag k="addr:housenumber" v="169"/>
    <tag k="addr:street" v="Molly Supple Hill Road"/>
    <tag k="addr:state" v="VT"/>
    <tag k="ref:vcgi:esiteid" v="157076"/>
  </node>
  <node id="-337" visible="true" lat="44.33267593" lon="-72.6232376">
    <tag k="addr:city" v="Middlesex"/>
    <tag k="addr:housenumber" v="186"/>
    <tag k="addr:street" v="Molly Supple Hill Road"/>
    <tag k="addr:state" v="VT"/>
    <tag k="ref:vcgi:esiteid" v="157077"/>
  </node>
  <node id="-338" visible="true" lat="44.33245849" lon="-72.62900543">
    <tag k="addr:city" v="Middlesex"/>
    <tag k="addr:housenumber" v="1021"/>
    <tag k="addr:street" v="Center Road"/>
    <tag k="addr:state" v="VT"/>
    <tag k="ref:vcgi:esiteid" v="157078"/>
  </node>
  <node id="-339" visible="true" lat="44.33192825" lon="-72.63811492">
    <tag k="addr:city" v="Middlesex"/>
    <tag k="addr:housenumber" v="28"/>
    <tag k="addr:street" v="Leland Farm Road"/>
    <tag k="addr:state" v="VT"/>
    <tag k="ref:vcgi:esiteid" v="157079"/>
  </node>
  <node id="-340" visible="true" lat="44.33177947" lon="-72.6398468">
    <tag k="addr:city" v="Middlesex"/>
    <tag k="addr:housenumber" v="33"/>
    <tag k="addr:street" v="Leland Farm Road"/>
    <tag k="addr:state" v="VT"/>
    <tag k="ref:vcgi:esiteid" v="157080"/>
  </node>
  <node id="-342" visible="true" lat="44.32981008" lon="-72.57494168">
    <tag k="addr:city" v="Middlesex"/>
    <tag k="addr:housenumber" v="369"/>
    <tag k="addr:street" v="Vermont Route 12"/>
    <tag k="addr:state" v="VT"/>
    <tag k="ref:vcgi:esiteid" v="157082"/>
  </node>
  <node id="-343" visible="true" lat="44.33108183" lon="-72.63492341">
    <tag k="addr:city" v="Middlesex"/>
    <tag k="addr:housenumber" v="872"/>
    <tag k="addr:street" v="Center Road"/>
    <tag k="addr:state" v="VT"/>
    <tag k="ref:vcgi:esiteid" v="157083"/>
  </node>
  <node id="-345" visible="true" lat="44.33077239" lon="-72.63857269">
    <tag k="addr:city" v="Middlesex"/>
    <tag k="addr:housenumber" v="23"/>
    <tag k="addr:street" v="Leland Farm Road"/>
    <tag k="addr:state" v="VT"/>
    <tag k="ref:vcgi:esiteid" v="157085"/>
  </node>
  <node id="-346" visible="true" lat="44.33005949" lon="-72.63712435">
    <tag k="addr:city" v="Middlesex"/>
    <tag k="addr:housenumber" v="833"/>
    <tag k="addr:street" v="Center Road"/>
    <tag k="addr:state" v="VT"/>
    <tag k="ref:vcgi:esiteid" v="157086"/>
  </node>
  <node id="-347" visible="true" lat="44.32995605" lon="-72.59412384">
    <tag k="addr:city" v="Middlesex"/>
    <tag k="addr:housenumber" v="336"/>
    <tag k="addr:street" v="Culver Hill Road"/>
    <tag k="addr:state" v="VT"/>
    <tag k="ref:vcgi:esiteid" v="157087"/>
  </node>
  <node id="-348" visible="true" lat="44.32942198" lon="-72.6878905">
    <tag k="addr:city" v="Middlesex"/>
    <tag k="addr:housenumber" v="516"/>
    <tag k="addr:street" v="Notch Road"/>
    <tag k="addr:state" v="VT"/>
    <tag k="ref:vcgi:esiteid" v="157088"/>
  </node>
  <node id="-349" visible="true" lat="44.32954219" lon="-72.63667515">
    <tag k="addr:city" v="Middlesex"/>
    <tag k="addr:housenumber" v="834"/>
    <tag k="addr:street" v="Center Road"/>
    <tag k="addr:state" v="VT"/>
    <tag k="ref:vcgi:esiteid" v="157089"/>
  </node>
  <node id="-350" visible="true" lat="44.32936477" lon="-72.62423706">
    <tag k="addr:city" v="Middlesex"/>
    <tag k="addr:housenumber" v="11"/>
    <tag k="addr:street" v="East Hill Road"/>
    <tag k="addr:state" v="VT"/>
    <tag k="ref:vcgi:esiteid" v="157090"/>
  </node>
  <node id="-351" visible="true" lat="44.32886574" lon="-72.59444399">
    <tag k="addr:city" v="Middlesex"/>
    <tag k="addr:housenumber" v="325"/>
    <tag k="addr:street" v="Culver Hill Road"/>
    <tag k="addr:state" v="VT"/>
    <tag k="ref:vcgi:esiteid" v="157091"/>
  </node>
  <node id="-352" visible="true" lat="44.32857894" lon="-72.65777587">
    <tag k="addr:city" v="Middlesex"/>
    <tag k="addr:housenumber" v="101"/>
    <tag k="addr:street" v="Zdon Road"/>
    <tag k="addr:state" v="VT"/>
    <tag k="ref:vcgi:esiteid" v="157092"/>
  </node>
  <node id="-354" visible="true" lat="44.32846352" lon="-72.68536266">
    <tag k="addr:city" v="Middlesex"/>
    <tag k="addr:housenumber" v="518"/>
    <tag k="addr:street" v="Notch Road"/>
    <tag k="addr:state" v="VT"/>
    <tag k="ref:vcgi:esiteid" v="157094"/>
  </node>
  <node id="-355" visible="true" lat="44.3284026" lon="-72.6367393">
    <tag k="addr:city" v="Middlesex"/>
    <tag k="addr:housenumber" v="822"/>
    <tag k="addr:street" v="Center Road"/>
    <tag k="addr:state" v="VT"/>
    <tag k="ref:vcgi:esiteid" v="157095"/>
  </node>
  <node id="-356" visible="true" lat="44.32853317" lon="-72.62088775">
    <tag k="addr:city" v="Middlesex"/>
    <tag k="addr:housenumber" v="45"/>
    <tag k="addr:street" v="East Hill Road"/>
    <tag k="addr:state" v="VT"/>
    <tag k="ref:vcgi:esiteid" v="157096"/>
  </node>
  <node id="-358" visible="true" lat="44.32814407" lon="-72.66078186">
    <tag k="addr:city" v="Middlesex"/>
    <tag k="addr:housenumber" v="67"/>
    <tag k="addr:street" v="Zdon Road"/>
    <tag k="addr:state" v="VT"/>
    <tag k="ref:vcgi:esiteid" v="157098"/>
  </node>
  <node id="-359" visible="true" lat="44.32806544" lon="-72.58398106">
    <tag k="addr:city" v="Middlesex"/>
    <tag k="addr:housenumber" v="442"/>
    <tag k="addr:street" v="Vermont Route 12"/>
    <tag k="addr:state" v="VT"/>
    <tag k="ref:vcgi:esiteid" v="157099"/>
  </node>
  <node id="-360" visible="true" lat="44.32762145" lon="-72.65674591">
    <tag k="addr:city" v="Middlesex"/>
    <tag k="addr:housenumber" v="90"/>
    <tag k="addr:street" v="Zdon Road"/>
    <tag k="addr:state" v="VT"/>
    <tag k="ref:vcgi:esiteid" v="157100"/>
  </node>
  <node id="-361" visible="true" lat="44.32735118" lon="-72.5937552">
    <tag k="addr:city" v="Middlesex"/>
    <tag k="addr:housenumber" v="307"/>
    <tag k="addr:street" v="Culver Hill Road"/>
    <tag k="addr:state" v="VT"/>
    <tag k="ref:vcgi:esiteid" v="157101"/>
  </node>
  <node id="-362" visible="true" lat="44.32698821" lon="-72.63388061">
    <tag k="addr:city" v="Middlesex"/>
    <tag k="addr:housenumber" v="126"/>
    <tag k="addr:street" v="Brook Road"/>
    <tag k="addr:state" v="VT"/>
    <tag k="ref:vcgi:esiteid" v="157102"/>
  </node>
  <node id="-363" visible="true" lat="44.32695918" lon="-72.64155212">
    <tag k="addr:city" v="Middlesex"/>
    <tag k="addr:housenumber" v="775"/>
    <tag k="addr:street" v="Center Road"/>
    <tag k="addr:state" v="VT"/>
    <tag k="ref:vcgi:esiteid" v="157103"/>
  </node>
  <node id="-365" visible="true" lat="44.32631856" lon="-72.58037181">
    <tag k="addr:city" v="Middlesex"/>
    <tag k="addr:housenumber" v="444"/>
    <tag k="addr:street" v="Vermont Route 12"/>
    <tag k="addr:state" v="VT"/>
    <tag k="ref:vcgi:esiteid" v="157105"/>
  </node>
  <node id="-366" visible="true" lat="44.32633209" lon="-72.65728759">
    <tag k="addr:city" v="Middlesex"/>
    <tag k="addr:housenumber" v="82"/>
    <tag k="addr:street" v="Zdon Road"/>
    <tag k="addr:state" v="VT"/>
    <tag k="ref:vcgi:esiteid" v="157106"/>
  </node>
  <node id="-367" visible="true" lat="44.3259295" lon="-72.64435565">
    <tag k="addr:city" v="Middlesex"/>
    <tag k="addr:housenumber" v="751"/>
    <tag k="addr:street" v="Center Road"/>
    <tag k="addr:state" v="VT"/>
    <tag k="ref:vcgi:esiteid" v="157107"/>
  </node>
  <node id="-368" visible="true" lat="44.325998" lon="-72.59195093">
    <tag k="addr:city" v="Middlesex"/>
    <tag k="addr:housenumber" v="277"/>
    <tag k="addr:street" v="Culver Hill Road"/>
    <tag k="addr:state" v="VT"/>
    <tag k="ref:vcgi:esiteid" v="157108"/>
  </node>
  <node id="-369" visible="true" lat="44.32573972" lon="-72.64582306">
    <tag k="addr:city" v="Middlesex"/>
    <tag k="addr:housenumber" v="731"/>
    <tag k="addr:street" v="Center Road"/>
    <tag k="addr:state" v="VT"/>
    <tag k="ref:vcgi:esiteid" v="157109"/>
  </node>
  <node id="-370" visible="true" lat="44.32552335" lon="-72.64280971">
    <tag k="addr:city" v="Middlesex"/>
    <tag k="addr:housenumber" v="754"/>
    <tag k="addr:street" v="Center Road"/>
    <tag k="addr:state" v="VT"/>
    <tag k="ref:vcgi:esiteid" v="157110"/>
  </node>
  <node id="-371" visible="true" lat="44.32559469" lon="-72.64437206">
    <tag k="addr:city" v="Middlesex"/>
    <tag k="addr:housenumber" v="741"/>
    <tag k="addr:street" v="Center Road"/>
    <tag k="addr:state" v="VT"/>
    <tag k="ref:vcgi:esiteid" v="157111"/>
  </node>
  <node id="-372" visible="true" lat="44.32562269" lon="-72.57982134">
    <tag k="addr:city" v="Middlesex"/>
    <tag k="addr:housenumber" v="464"/>
    <tag k="addr:street" v="Vermont Route 12"/>
    <tag k="addr:state" v="VT"/>
    <tag k="ref:vcgi:esiteid" v="157112"/>
  </node>
  <node id="-373" visible="true" lat="44.32526397" lon="-72.59149169">
    <tag k="addr:city" v="Middlesex"/>
    <tag k="addr:housenumber" v="265"/>
    <tag k="addr:street" v="Culver Hill Road"/>
    <tag k="addr:state" v="VT"/>
    <tag k="ref:vcgi:esiteid" v="157113"/>
  </node>
  <node id="-374" visible="true" lat="44.32513109" lon="-72.57966864">
    <tag k="addr:city" v="Middlesex"/>
    <tag k="addr:housenumber" v="468"/>
    <tag k="addr:street" v="Vermont Route 12"/>
    <tag k="addr:state" v="VT"/>
    <tag k="ref:vcgi:esiteid" v="157114"/>
  </node>
  <node id="-375" visible="true" lat="44.3247338" lon="-72.64580071">
    <tag k="addr:city" v="Middlesex"/>
    <tag k="addr:housenumber" v="719"/>
    <tag k="addr:street" v="Center Road"/>
    <tag k="addr:state" v="VT"/>
    <tag k="ref:vcgi:esiteid" v="157115"/>
  </node>
  <node id="-378" visible="true" lat="44.32468825" lon="-72.5795393">
    <tag k="addr:city" v="Middlesex"/>
    <tag k="addr:housenumber" v="480"/>
    <tag k="addr:street" v="Vermont Route 12"/>
    <tag k="addr:state" v="VT"/>
    <tag k="ref:vcgi:esiteid" v="157118"/>
  </node>
  <node id="-379" visible="true" lat="44.32424214" lon="-72.64712193">
    <tag k="addr:city" v="Middlesex"/>
    <tag k="addr:housenumber" v="705"/>
    <tag k="addr:street" v="Center Road"/>
    <tag k="addr:state" v="VT"/>
    <tag k="ref:vcgi:esiteid" v="157119"/>
  </node>
  <node id="-380" visible="true" lat="44.32447433" lon="-72.65789032">
    <tag k="addr:city" v="Middlesex"/>
    <tag k="addr:housenumber" v="44"/>
    <tag k="addr:street" v="Zdon Road"/>
    <tag k="addr:state" v="VT"/>
    <tag k="ref:vcgi:esiteid" v="157120"/>
  </node>
  <node id="-381" visible="true" lat="44.32440394" lon="-72.59074796">
    <tag k="addr:city" v="Middlesex"/>
    <tag k="addr:housenumber" v="253"/>
    <tag k="addr:street" v="Culver Hill Road"/>
    <tag k="addr:state" v="VT"/>
    <tag k="ref:vcgi:esiteid" v="157121"/>
  </node>
  <node id="-382" visible="true" lat="44.32429504" lon="-72.64440155">
    <tag k="addr:city" v="Middlesex"/>
    <tag k="addr:housenumber" v="722"/>
    <tag k="addr:street" v="Center Road"/>
    <tag k="addr:state" v="VT"/>
    <tag k="ref:vcgi:esiteid" v="157122"/>
  </node>
  <node id="-383" visible="true" lat="44.32412697" lon="-72.57936816">
    <tag k="addr:city" v="Middlesex"/>
    <tag k="addr:housenumber" v="482"/>
    <tag k="addr:street" v="Vermont Route 12"/>
    <tag k="addr:state" v="VT"/>
    <tag k="ref:vcgi:esiteid" v="157123"/>
  </node>
  <node id="-384" visible="true" lat="44.32379913" lon="-72.65150451">
    <tag k="addr:city" v="Middlesex"/>
    <tag k="addr:housenumber" v="24"/>
    <tag k="addr:street" v="Windlea Drive"/>
    <tag k="addr:state" v="VT"/>
    <tag k="ref:vcgi:esiteid" v="157124"/>
  </node>
  <node id="-385" visible="true" lat="44.32354337" lon="-72.64330765">
    <tag k="addr:city" v="Middlesex"/>
    <tag k="addr:housenumber" v="730"/>
    <tag k="addr:street" v="Center Road"/>
    <tag k="addr:state" v="VT"/>
    <tag k="ref:vcgi:esiteid" v="157125"/>
  </node>
  <node id="-386" visible="true" lat="44.3238182" lon="-72.60051727">
    <tag k="addr:city" v="Middlesex"/>
    <tag k="addr:housenumber" v="50"/>
    <tag k="addr:street" v="Dolan Road"/>
    <tag k="addr:state" v="VT"/>
    <tag k="ref:vcgi:esiteid" v="157126"/>
  </node>
  <node id="-387" visible="true" lat="44.32355499" lon="-72.64878845">
    <tag k="addr:city" v="Middlesex"/>
    <tag k="addr:housenumber" v="677"/>
    <tag k="addr:street" v="Center Road"/>
    <tag k="addr:state" v="VT"/>
    <tag k="ref:vcgi:esiteid" v="157127"/>
  </node>
  <node id="-388" visible="true" lat="44.32333374" lon="-72.65234375">
    <tag k="addr:city" v="Middlesex"/>
    <tag k="addr:housenumber" v="27"/>
    <tag k="addr:street" v="Windlea Drive"/>
    <tag k="addr:state" v="VT"/>
    <tag k="ref:vcgi:esiteid" v="157128"/>
  </node>
  <node id="-389" visible="true" lat="44.32311276" lon="-72.6863647">
    <tag k="addr:city" v="Middlesex"/>
    <tag k="addr:housenumber" v="414"/>
    <tag k="addr:street" v="Notch Road"/>
    <tag k="addr:state" v="VT"/>
    <tag k="ref:vcgi:esiteid" v="157129"/>
  </node>
  <node id="-390" visible="true" lat="44.32297515" lon="-72.65628814">
    <tag k="addr:city" v="Middlesex"/>
    <tag k="addr:housenumber" v="20"/>
    <tag k="addr:street" v="Zdon Road"/>
    <tag k="addr:state" v="VT"/>
    <tag k="ref:vcgi:esiteid" v="157130"/>
  </node>
  <node id="-391" visible="true" lat="44.32295812" lon="-72.68763579">
    <tag k="addr:city" v="Middlesex"/>
    <tag k="addr:housenumber" v="407"/>
    <tag k="addr:street" v="Notch Road"/>
    <tag k="addr:state" v="VT"/>
    <tag k="ref:vcgi:esiteid" v="157131"/>
  </node>
  <node id="-392" visible="true" lat="44.3228113" lon="-72.65048385">
    <tag k="addr:city" v="Middlesex"/>
    <tag k="addr:housenumber" v="16"/>
    <tag k="addr:street" v="Windlea Drive"/>
    <tag k="addr:state" v="VT"/>
    <tag k="ref:vcgi:esiteid" v="157132"/>
  </node>
  <node id="-393" visible="true" lat="44.32274246" lon="-72.63401794">
    <tag k="addr:city" v="Middlesex"/>
    <tag k="addr:housenumber" v="172"/>
    <tag k="addr:street" v="Brook Road"/>
    <tag k="addr:state" v="VT"/>
    <tag k="ref:vcgi:esiteid" v="157133"/>
  </node>
  <node id="-394" visible="true" lat="44.32319111" lon="-72.57737959">
    <tag k="addr:city" v="Middlesex"/>
    <tag k="addr:housenumber" v="509"/>
    <tag k="addr:street" v="Vermont Route 12"/>
    <tag k="addr:state" v="VT"/>
    <tag k="ref:vcgi:esiteid" v="157134"/>
  </node>
  <node id="-397" visible="true" lat="44.32242088" lon="-72.58808143">
    <tag k="addr:city" v="Middlesex"/>
    <tag k="addr:housenumber" v="208"/>
    <tag k="addr:street" v="Culver Hill Road"/>
    <tag k="addr:state" v="VT"/>
    <tag k="ref:vcgi:esiteid" v="157137"/>
  </node>
  <node id="-398" visible="true" lat="44.32210125" lon="-72.68651203">
    <tag k="addr:city" v="Middlesex"/>
    <tag k="addr:housenumber" v="398"/>
    <tag k="addr:street" v="Notch Road"/>
    <tag k="addr:state" v="VT"/>
    <tag k="ref:vcgi:esiteid" v="157138"/>
  </node>
  <node id="-399" visible="true" lat="44.32167142" lon="-72.65472529">
    <tag k="addr:city" v="Middlesex"/>
    <tag k="addr:housenumber" v="611"/>
    <tag k="addr:street" v="Center Road"/>
    <tag k="addr:state" v="VT"/>
    <tag k="ref:vcgi:esiteid" v="157139"/>
  </node>
  <node id="-400" visible="true" lat="44.32124001" lon="-72.65707558">
    <tag k="addr:city" v="Middlesex"/>
    <tag k="addr:housenumber" v="580"/>
    <tag k="addr:street" v="Center Road"/>
    <tag k="addr:state" v="VT"/>
    <tag k="ref:vcgi:esiteid" v="157140"/>
  </node>
  <node id="-401" visible="true" lat="44.32146835" lon="-72.63418579">
    <tag k="addr:city" v="Middlesex"/>
    <tag k="addr:housenumber" v="187"/>
    <tag k="addr:street" v="Brook Road"/>
    <tag k="addr:state" v="VT"/>
    <tag k="ref:vcgi:esiteid" v="157141"/>
  </node>
  <node id="-402" visible="true" lat="44.32012198" lon="-72.64073001">
    <tag k="addr:city" v="Middlesex"/>
    <tag k="addr:housenumber" v="12"/>
    <tag k="addr:street" v="Hemlock Road"/>
    <tag k="addr:state" v="VT"/>
    <tag k="ref:vcgi:esiteid" v="157142"/>
  </node>
  <node id="-403" visible="true" lat="44.32134672" lon="-72.57886967">
    <tag k="addr:city" v="Middlesex"/>
    <tag k="addr:housenumber" v="530"/>
    <tag k="addr:street" v="Vermont Route 12"/>
    <tag k="addr:state" v="VT"/>
    <tag k="ref:vcgi:esiteid" v="157143"/>
  </node>
  <node id="-405" visible="true" lat="44.324558" lon="-72.68779051">
    <tag k="addr:city" v="Middlesex"/>
    <tag k="addr:housenumber" v="431"/>
    <tag k="addr:street" v="Notch Road"/>
    <tag k="addr:state" v="VT"/>
    <tag k="ref:vcgi:esiteid" v="157145"/>
  </node>
  <node id="-406" visible="true" lat="44.32103501" lon="-72.65337351">
    <tag k="addr:city" v="Middlesex"/>
    <tag k="addr:housenumber" v="618"/>
    <tag k="addr:street" v="Center Road"/>
    <tag k="addr:state" v="VT"/>
    <tag k="ref:vcgi:esiteid" v="157146"/>
  </node>
  <node id="-407" visible="true" lat="44.32091319" lon="-72.65247071">
    <tag k="addr:city" v="Middlesex"/>
    <tag k="addr:housenumber" v="632"/>
    <tag k="addr:street" v="Center Road"/>
    <tag k="addr:state" v="VT"/>
    <tag k="ref:vcgi:esiteid" v="157147"/>
  </node>
  <node id="-408" visible="true" lat="44.32083377" lon="-72.58828687">
    <tag k="addr:city" v="Middlesex"/>
    <tag k="addr:housenumber" v="193"/>
    <tag k="addr:street" v="Culver Hill Road"/>
    <tag k="addr:state" v="VT"/>
    <tag k="ref:vcgi:esiteid" v="157148"/>
  </node>
  <node id="-409" visible="true" lat="44.32072067" lon="-72.6344757">
    <tag k="addr:city" v="Middlesex"/>
    <tag k="addr:housenumber" v="203"/>
    <tag k="addr:street" v="Brook Road"/>
    <tag k="addr:state" v="VT"/>
    <tag k="ref:vcgi:esiteid" v="157149"/>
  </node>
  <node id="-410" visible="true" lat="44.32062843" lon="-72.65781329">
    <tag k="addr:city" v="Middlesex"/>
    <tag k="addr:housenumber" v="562"/>
    <tag k="addr:street" v="Center Road"/>
    <tag k="addr:state" v="VT"/>
    <tag k="ref:vcgi:esiteid" v="157150"/>
  </node>
  <node id="-411" visible="true" lat="44.3204422" lon="-72.59156799">
    <tag k="addr:city" v="Middlesex"/>
    <tag k="addr:housenumber" v="163"/>
    <tag k="addr:street" v="Culver Hill Road"/>
    <tag k="addr:state" v="VT"/>
    <tag k="ref:vcgi:esiteid" v="157151"/>
  </node>
  <node id="-412" visible="true" lat="44.32020305" lon="-72.68694376">
    <tag k="addr:city" v="Middlesex"/>
    <tag k="addr:housenumber" v="372"/>
    <tag k="addr:street" v="Notch Road"/>
    <tag k="addr:state" v="VT"/>
    <tag k="ref:vcgi:esiteid" v="157152"/>
  </node>
  <node id="-413" visible="true" lat="44.32021713" lon="-72.63529968">
    <tag k="addr:city" v="Middlesex"/>
    <tag k="addr:housenumber" v="224"/>
    <tag k="addr:street" v="Brook Road"/>
    <tag k="addr:state" v="VT"/>
    <tag k="ref:vcgi:esiteid" v="157153"/>
  </node>
  <node id="-414" visible="true" lat="44.31996898" lon="-72.65889181">
    <tag k="addr:city" v="Middlesex"/>
    <tag k="addr:housenumber" v="547"/>
    <tag k="addr:street" v="Center Road"/>
    <tag k="addr:state" v="VT"/>
    <tag k="ref:vcgi:esiteid" v="157154"/>
  </node>
  <node id="-415" visible="true" lat="44.31977462" lon="-72.6340866">
    <tag k="addr:city" v="Middlesex"/>
    <tag k="addr:housenumber" v="217"/>
    <tag k="addr:street" v="Brook Road"/>
    <tag k="addr:state" v="VT"/>
    <tag k="ref:vcgi:esiteid" v="157155"/>
  </node>
  <node id="-416" visible="true" lat="44.3195559" lon="-72.58947002">
    <tag k="addr:city" v="Middlesex"/>
    <tag k="addr:housenumber" v="161"/>
    <tag k="addr:street" v="Culver Hill Road"/>
    <tag k="addr:state" v="VT"/>
    <tag k="ref:vcgi:esiteid" v="157156"/>
  </node>
  <node id="-417" visible="true" lat="44.3190792" lon="-72.6364354">
    <tag k="addr:city" v="Middlesex"/>
    <tag k="addr:housenumber" v="9"/>
    <tag k="addr:street" v="Hemlock Road"/>
    <tag k="addr:state" v="VT"/>
    <tag k="ref:vcgi:esiteid" v="157157"/>
  </node>
  <node id="-418" visible="true" lat="44.31920149" lon="-72.58438033">
    <tag k="addr:city" v="Middlesex"/>
    <tag k="addr:housenumber" v="63"/>
    <tag k="addr:street" v="East Culver Drive"/>
    <tag k="addr:state" v="VT"/>
    <tag k="ref:vcgi:esiteid" v="157158"/>
  </node>
  <node id="-419" visible="true" lat="44.31902313" lon="-72.68791198">
    <tag k="addr:city" v="Middlesex"/>
    <tag k="addr:housenumber" v="353"/>
    <tag k="addr:street" v="Notch Road"/>
    <tag k="addr:state" v="VT"/>
    <tag k="ref:vcgi:esiteid" v="157159"/>
  </node>
  <node id="-420" visible="true" lat="44.31903091" lon="-72.66037408">
    <tag k="addr:city" v="Middlesex"/>
    <tag k="addr:housenumber" v="531"/>
    <tag k="addr:street" v="Center Road"/>
    <tag k="addr:state" v="VT"/>
    <tag k="ref:vcgi:esiteid" v="157160"/>
  </node>
  <node id="-421" visible="true" lat="44.31904602" lon="-72.6630783">
    <tag k="addr:city" v="Middlesex"/>
    <tag k="addr:housenumber" v="511"/>
    <tag k="addr:street" v="Center Road"/>
    <tag k="addr:state" v="VT"/>
    <tag k="ref:vcgi:esiteid" v="157161"/>
  </node>
  <node id="-422" visible="true" lat="44.31871897" lon="-72.66059848">
    <tag k="addr:city" v="Middlesex"/>
    <tag k="addr:housenumber" v="529"/>
    <tag k="addr:street" v="Center Road"/>
    <tag k="addr:state" v="VT"/>
    <tag k="ref:vcgi:esiteid" v="157162"/>
  </node>
  <node id="-423" visible="true" lat="44.3187471" lon="-72.58780668">
    <tag k="addr:city" v="Middlesex"/>
    <tag k="addr:housenumber" v="11"/>
    <tag k="addr:street" v="East Culver Drive"/>
    <tag k="addr:state" v="VT"/>
    <tag k="ref:vcgi:esiteid" v="157163"/>
  </node>
  <node id="-424" visible="true" lat="44.3178545" lon="-72.68739574">
    <tag k="addr:city" v="Middlesex"/>
    <tag k="addr:housenumber" v="336"/>
    <tag k="addr:street" v="Notch Road"/>
    <tag k="addr:state" v="VT"/>
    <tag k="ref:vcgi:esiteid" v="157164"/>
  </node>
  <node id="-425" visible="true" lat="44.31818771" lon="-72.68244171">
    <tag k="addr:city" v="Middlesex"/>
    <tag k="addr:housenumber" v="266"/>
    <tag k="addr:street" v="Notch Road"/>
    <tag k="addr:state" v="VT"/>
    <tag k="ref:vcgi:esiteid" v="157165"/>
  </node>
  <node id="-426" visible="true" lat="44.31812286" lon="-72.66117096">
    <tag k="addr:city" v="Middlesex"/>
    <tag k="addr:housenumber" v="519"/>
    <tag k="addr:street" v="Center Road"/>
    <tag k="addr:state" v="VT"/>
    <tag k="ref:vcgi:esiteid" v="157166"/>
  </node>
  <node id="-428" visible="true" lat="44.31820037" lon="-72.57755147">
    <tag k="addr:city" v="Middlesex"/>
    <tag k="addr:housenumber" v="570"/>
    <tag k="addr:street" v="Vermont Route 12"/>
    <tag k="addr:state" v="VT"/>
    <tag k="ref:vcgi:esiteid" v="157168"/>
  </node>
  <node id="-430" visible="true" lat="44.31769561" lon="-72.6831665">
    <tag k="addr:city" v="Middlesex"/>
    <tag k="addr:housenumber" v="271"/>
    <tag k="addr:street" v="Notch Road"/>
    <tag k="addr:state" v="VT"/>
    <tag k="ref:vcgi:esiteid" v="157170"/>
  </node>
  <node id="-431" visible="true" lat="44.31784957" lon="-72.5774384">
    <tag k="addr:city" v="Middlesex"/>
    <tag k="addr:housenumber" v="594"/>
    <tag k="addr:street" v="Vermont Route 12"/>
    <tag k="addr:state" v="VT"/>
    <tag k="ref:vcgi:esiteid" v="157171"/>
  </node>
  <node id="-432" visible="true" lat="44.31769943" lon="-72.63717651">
    <tag k="addr:city" v="Middlesex"/>
    <tag k="addr:housenumber" v="255"/>
    <tag k="addr:street" v="Brook Road"/>
    <tag k="addr:state" v="VT"/>
    <tag k="ref:vcgi:esiteid" v="157172"/>
  </node>
  <node id="-433" visible="true" lat="44.31771469" lon="-72.5879898">
    <tag k="addr:city" v="Middlesex"/>
    <tag k="addr:housenumber" v="146"/>
    <tag k="addr:street" v="Culver Hill Road"/>
    <tag k="addr:state" v="VT"/>
    <tag k="ref:vcgi:esiteid" v="157173"/>
  </node>
  <node id="-434" visible="true" lat="44.31854388" lon="-72.57902241">
    <tag k="addr:city" v="Middlesex"/>
    <tag k="addr:housenumber" v="592"/>
    <tag k="addr:street" v="Vermont Route 12"/>
    <tag k="addr:state" v="VT"/>
    <tag k="ref:vcgi:esiteid" v="157174"/>
  </node>
  <node id="-435" visible="true" lat="44.31755966" lon="-72.66082578">
    <tag k="addr:city" v="Middlesex"/>
    <tag k="addr:housenumber" v="509"/>
    <tag k="addr:street" v="Center Road"/>
    <tag k="addr:state" v="VT"/>
    <tag k="ref:vcgi:esiteid" v="157175"/>
  </node>
  <node id="-436" visible="true" lat="44.31744766" lon="-72.6810913">
    <tag k="addr:city" v="Middlesex"/>
    <tag k="addr:housenumber" v="248"/>
    <tag k="addr:street" v="Notch Road"/>
    <tag k="addr:state" v="VT"/>
    <tag k="ref:vcgi:esiteid" v="157176"/>
  </node>
  <node id="-437" visible="true" lat="44.31743621" lon="-72.6596527">
    <tag k="addr:city" v="Middlesex"/>
    <tag k="addr:housenumber" v="514"/>
    <tag k="addr:street" v="Center Road"/>
    <tag k="addr:state" v="VT"/>
    <tag k="ref:vcgi:esiteid" v="157177"/>
  </node>
  <node id="-438" visible="true" lat="44.31723403" lon="-72.68012237">
    <tag k="addr:city" v="Middlesex"/>
    <tag k="addr:housenumber" v="234"/>
    <tag k="addr:street" v="Notch Road"/>
    <tag k="addr:state" v="VT"/>
    <tag k="ref:vcgi:esiteid" v="157178"/>
  </node>
  <node id="-439" visible="true" lat="44.31732177" lon="-72.58750915">
    <tag k="addr:city" v="Middlesex"/>
    <tag k="addr:housenumber" v="136"/>
    <tag k="addr:street" v="Culver Hill Road"/>
    <tag k="addr:state" v="VT"/>
    <tag k="ref:vcgi:esiteid" v="157179"/>
  </node>
  <node id="-440" visible="true" lat="44.31726455" lon="-72.63922882">
    <tag k="addr:city" v="Middlesex"/>
    <tag k="addr:housenumber" v="284"/>
    <tag k="addr:street" v="Brook Road"/>
    <tag k="addr:state" v="VT"/>
    <tag k="ref:vcgi:esiteid" v="157180"/>
  </node>
  <node id="-441" visible="true" lat="44.31688127" lon="-72.67946605">
    <tag k="addr:city" v="Middlesex"/>
    <tag k="addr:housenumber" v="230"/>
    <tag k="addr:street" v="Notch Road"/>
    <tag k="addr:state" v="VT"/>
    <tag k="ref:vcgi:esiteid" v="157181"/>
  </node>
  <node id="-442" visible="true" lat="44.31686782" lon="-72.66036224">
    <tag k="addr:city" v="Middlesex"/>
    <tag k="addr:housenumber" v="501"/>
    <tag k="addr:street" v="Center Road"/>
    <tag k="addr:state" v="VT"/>
    <tag k="ref:vcgi:esiteid" v="157182"/>
  </node>
  <node id="-444" visible="true" lat="44.31655766" lon="-72.68029929">
    <tag k="addr:city" v="Middlesex"/>
    <tag k="addr:housenumber" v="235"/>
    <tag k="addr:street" v="Notch Road"/>
    <tag k="addr:state" v="VT"/>
    <tag k="ref:vcgi:esiteid" v="157184"/>
  </node>
  <node id="-445" visible="true" lat="44.31663131" lon="-72.64183044">
    <tag k="addr:city" v="Middlesex"/>
    <tag k="addr:housenumber" v="306"/>
    <tag k="addr:street" v="Brook Road"/>
    <tag k="addr:state" v="VT"/>
    <tag k="ref:vcgi:esiteid" v="157185"/>
  </node>
  <node id="-448" visible="true" lat="44.31650161" lon="-72.64014434">
    <tag k="addr:city" v="Middlesex"/>
    <tag k="addr:housenumber" v="289"/>
    <tag k="addr:street" v="Brook Road"/>
    <tag k="addr:state" v="VT"/>
    <tag k="ref:vcgi:esiteid" v="157188"/>
  </node>
  <node id="-449" visible="true" lat="44.3162672" lon="-72.58751695">
    <tag k="addr:city" v="Middlesex"/>
    <tag k="addr:housenumber" v="125"/>
    <tag k="addr:street" v="Culver Hill Road"/>
    <tag k="addr:state" v="VT"/>
    <tag k="ref:vcgi:esiteid" v="157189"/>
  </node>
  <node id="-450" visible="true" lat="44.31625747" lon="-72.64346313">
    <tag k="addr:city" v="Middlesex"/>
    <tag k="addr:housenumber" v="332"/>
    <tag k="addr:street" v="Brook Road"/>
    <tag k="addr:state" v="VT"/>
    <tag k="ref:vcgi:esiteid" v="157190"/>
  </node>
  <node id="-451" visible="true" lat="44.31631138" lon="-72.5775637">
    <tag k="addr:city" v="Middlesex"/>
    <tag k="addr:housenumber" v="598"/>
    <tag k="addr:street" v="Vermont Route 12"/>
    <tag k="addr:state" v="VT"/>
    <tag k="ref:vcgi:esiteid" v="157191"/>
  </node>
  <node id="-452" visible="true" lat="44.31618118" lon="-72.66047668">
    <tag k="addr:city" v="Middlesex"/>
    <tag k="addr:housenumber" v="491"/>
    <tag k="addr:street" v="Center Road"/>
    <tag k="addr:state" v="VT"/>
    <tag k="ref:vcgi:esiteid" v="157192"/>
  </node>
  <node id="-453" visible="true" lat="44.31617736" lon="-72.64230346">
    <tag k="addr:city" v="Middlesex"/>
    <tag k="addr:housenumber" v="314"/>
    <tag k="addr:street" v="Brook Road"/>
    <tag k="addr:state" v="VT"/>
    <tag k="ref:vcgi:esiteid" v="157193"/>
  </node>
  <node id="-454" visible="true" lat="44.31601333" lon="-72.65947723">
    <tag k="addr:city" v="Middlesex"/>
    <tag k="addr:housenumber" v="490"/>
    <tag k="addr:street" v="Center Road"/>
    <tag k="addr:state" v="VT"/>
    <tag k="ref:vcgi:esiteid" v="157194"/>
  </node>
  <node id="-455" visible="true" lat="44.31547732" lon="-72.67603911">
    <tag k="addr:city" v="Middlesex"/>
    <tag k="addr:housenumber" v="188"/>
    <tag k="addr:street" v="Notch Road"/>
    <tag k="addr:state" v="VT"/>
    <tag k="ref:vcgi:esiteid" v="157195"/>
  </node>
  <node id="-457" visible="true" lat="44.31577093" lon="-72.59285761">
    <tag k="addr:city" v="Middlesex"/>
    <tag k="addr:housenumber" v="54"/>
    <tag k="addr:street" v="Dolan Road"/>
    <tag k="addr:state" v="VT"/>
    <tag k="ref:vcgi:esiteid" v="157197"/>
  </node>
  <node id="-458" visible="true" lat="44.31567382" lon="-72.66036224">
    <tag k="addr:city" v="Middlesex"/>
    <tag k="addr:housenumber" v="485"/>
    <tag k="addr:street" v="Center Road"/>
    <tag k="addr:state" v="VT"/>
    <tag k="ref:vcgi:esiteid" v="157198"/>
  </node>
  <node id="-460" visible="true" lat="44.31562423" lon="-72.64311218">
    <tag k="addr:city" v="Middlesex"/>
    <tag k="addr:housenumber" v="325"/>
    <tag k="addr:street" v="Brook Road"/>
    <tag k="addr:state" v="VT"/>
    <tag k="ref:vcgi:esiteid" v="157200"/>
  </node>
  <node id="-461" visible="true" lat="44.31562336" lon="-72.58539568">
    <tag k="addr:city" v="Middlesex"/>
    <tag k="addr:housenumber" v="108"/>
    <tag k="addr:street" v="Culver Hill Road"/>
    <tag k="addr:state" v="VT"/>
    <tag k="ref:vcgi:esiteid" v="157201"/>
  </node>
  <node id="-462" visible="true" lat="44.31528472" lon="-72.66402435">
    <tag k="addr:city" v="Middlesex"/>
    <tag k="addr:housenumber" v="30"/>
    <tag k="addr:street" v="Pr 5"/>
    <tag k="addr:state" v="VT"/>
    <tag k="ref:vcgi:esiteid" v="157202"/>
  </node>
  <node id="-463" visible="true" lat="44.31528472" lon="-72.66175079">
    <tag k="addr:city" v="Middlesex"/>
    <tag k="addr:housenumber" v="463"/>
    <tag k="addr:street" v="Center Road"/>
    <tag k="addr:state" v="VT"/>
    <tag k="ref:vcgi:esiteid" v="157203"/>
  </node>
  <node id="-464" visible="true" lat="44.31558488" lon="-72.60049654">
    <tag k="addr:city" v="Middlesex"/>
    <tag k="addr:housenumber" v="79"/>
    <tag k="addr:street" v="Tangletown Road"/>
    <tag k="addr:state" v="VT"/>
    <tag k="ref:vcgi:esiteid" v="157204"/>
  </node>
  <node id="-465" visible="true" lat="44.31453704" lon="-72.59860992">
    <tag k="addr:city" v="Middlesex"/>
    <tag k="addr:housenumber" v="57"/>
    <tag k="addr:street" v="Tangletown Road"/>
    <tag k="addr:state" v="VT"/>
    <tag k="ref:vcgi:esiteid" v="157205"/>
  </node>
  <node id="-467" visible="true" lat="44.31438446" lon="-72.6449356">
    <tag k="addr:city" v="Middlesex"/>
    <tag k="addr:housenumber" v="352"/>
    <tag k="addr:street" v="Brook Road"/>
    <tag k="addr:state" v="VT"/>
    <tag k="ref:vcgi:esiteid" v="157207"/>
  </node>
  <node id="-468" visible="true" lat="44.31429672" lon="-72.59704589">
    <tag k="addr:city" v="Middlesex"/>
    <tag k="addr:housenumber" v="38"/>
    <tag k="addr:street" v="Tangletown Road"/>
    <tag k="addr:state" v="VT"/>
    <tag k="ref:vcgi:esiteid" v="157208"/>
  </node>
  <node id="-471" visible="true" lat="44.31372833" lon="-72.66326904">
    <tag k="addr:city" v="Middlesex"/>
    <tag k="addr:housenumber" v="32"/>
    <tag k="addr:street" v="Pr 5"/>
    <tag k="addr:state" v="VT"/>
    <tag k="ref:vcgi:esiteid" v="157211"/>
  </node>
  <node id="-472" visible="true" lat="44.31378173" lon="-72.59677886">
    <tag k="addr:city" v="Middlesex"/>
    <tag k="addr:housenumber" v="35"/>
    <tag k="addr:street" v="Tangletown Road"/>
    <tag k="addr:state" v="VT"/>
    <tag k="ref:vcgi:esiteid" v="157212"/>
  </node>
  <node id="-473" visible="true" lat="44.31367492" lon="-72.66235351">
    <tag k="addr:city" v="Middlesex"/>
    <tag k="addr:housenumber" v="23"/>
    <tag k="addr:street" v="Pr 5"/>
    <tag k="addr:state" v="VT"/>
    <tag k="ref:vcgi:esiteid" v="157213"/>
  </node>
  <node id="-474" visible="true" lat="44.31364822" lon="-72.67174529">
    <tag k="addr:city" v="Middlesex"/>
    <tag k="addr:housenumber" v="134"/>
    <tag k="addr:street" v="Notch Road"/>
    <tag k="addr:state" v="VT"/>
    <tag k="ref:vcgi:esiteid" v="157214"/>
  </node>
  <node id="-475" visible="true" lat="44.31365585" lon="-72.66164398">
    <tag k="addr:city" v="Middlesex"/>
    <tag k="addr:housenumber" v="15"/>
    <tag k="addr:street" v="Pr 5"/>
    <tag k="addr:state" v="VT"/>
    <tag k="ref:vcgi:esiteid" v="157215"/>
  </node>
  <node id="-476" visible="true" lat="44.31357574" lon="-72.58512878">
    <tag k="addr:city" v="Middlesex"/>
    <tag k="addr:housenumber" v="35"/>
    <tag k="addr:street" v="Warren Road"/>
    <tag k="addr:state" v="VT"/>
    <tag k="ref:vcgi:esiteid" v="157216"/>
  </node>
  <node id="-477" visible="true" lat="44.31356048" lon="-72.59268188">
    <tag k="addr:city" v="Middlesex"/>
    <tag k="addr:housenumber" v="89"/>
    <tag k="addr:street" v="Dolan Road"/>
    <tag k="addr:state" v="VT"/>
    <tag k="ref:vcgi:esiteid" v="157217"/>
  </node>
  <node id="-479" visible="true" lat="44.31328201" lon="-72.59613037">
    <tag k="addr:city" v="Middlesex"/>
    <tag k="addr:housenumber" v="13"/>
    <tag k="addr:street" v="Tangletown Road"/>
    <tag k="addr:state" v="VT"/>
    <tag k="ref:vcgi:esiteid" v="157219"/>
  </node>
  <node id="-480" visible="true" lat="44.31316239" lon="-72.66070571">
    <tag k="addr:city" v="Middlesex"/>
    <tag k="addr:housenumber" v="447"/>
    <tag k="addr:street" v="Center Road"/>
    <tag k="addr:state" v="VT"/>
    <tag k="ref:vcgi:esiteid" v="157220"/>
  </node>
  <node id="-481" visible="true" lat="44.31295395" lon="-72.5934894">
    <tag k="addr:city" v="Middlesex"/>
    <tag k="addr:housenumber" v="93"/>
    <tag k="addr:street" v="Dolan Road"/>
    <tag k="addr:state" v="VT"/>
    <tag k="ref:vcgi:esiteid" v="157221"/>
  </node>
  <node id="-482" visible="true" lat="44.31274795" lon="-72.66057586">
    <tag k="addr:city" v="Middlesex"/>
    <tag k="addr:housenumber" v="441"/>
    <tag k="addr:street" v="Center Road"/>
    <tag k="addr:state" v="VT"/>
    <tag k="ref:vcgi:esiteid" v="157222"/>
  </node>
  <node id="-483" visible="true" lat="44.31253051" lon="-72.65870666">
    <tag k="addr:city" v="Middlesex"/>
    <tag k="addr:housenumber" v="438"/>
    <tag k="addr:street" v="Center Road"/>
    <tag k="addr:state" v="VT"/>
    <tag k="ref:vcgi:esiteid" v="157223"/>
  </node>
  <node id="-484" visible="true" lat="44.31247486" lon="-72.63176342">
    <tag k="addr:city" v="Middlesex"/>
    <tag k="addr:housenumber" v="98"/>
    <tag k="addr:street" v="McCullough Hill Road"/>
    <tag k="addr:state" v="VT"/>
    <tag k="ref:vcgi:esiteid" v="157224"/>
  </node>
  <node id="-485" visible="true" lat="44.31235344" lon="-72.66309895">
    <tag k="addr:city" v="Middlesex"/>
    <tag k="addr:housenumber" v="52"/>
    <tag k="addr:street" v="Pr 5"/>
    <tag k="addr:state" v="VT"/>
    <tag k="ref:vcgi:esiteid" v="157225"/>
  </node>
  <node id="-486" visible="true" lat="44.31215286" lon="-72.65977477">
    <tag k="addr:city" v="Middlesex"/>
    <tag k="addr:housenumber" v="432"/>
    <tag k="addr:street" v="Center Road"/>
    <tag k="addr:state" v="VT"/>
    <tag k="ref:vcgi:esiteid" v="157226"/>
  </node>
  <node id="-487" visible="true" lat="44.31194293" lon="-72.66062803">
    <tag k="addr:city" v="Middlesex"/>
    <tag k="addr:housenumber" v="423"/>
    <tag k="addr:street" v="Center Road"/>
    <tag k="addr:state" v="VT"/>
    <tag k="ref:vcgi:esiteid" v="157227"/>
  </node>
  <node id="-488" visible="true" lat="44.31196046" lon="-72.66296493">
    <tag k="addr:city" v="Middlesex"/>
    <tag k="addr:housenumber" v="58"/>
    <tag k="addr:street" v="Pr 5"/>
    <tag k="addr:state" v="VT"/>
    <tag k="ref:vcgi:esiteid" v="157228"/>
  </node>
  <node id="-489" visible="true" lat="44.31200027" lon="-72.62459564">
    <tag k="addr:city" v="Middlesex"/>
    <tag k="addr:housenumber" v="256"/>
    <tag k="addr:street" v="East Hill Road"/>
    <tag k="addr:state" v="VT"/>
    <tag k="ref:vcgi:esiteid" v="157229"/>
  </node>
  <node id="-490" visible="true" lat="44.31171378" lon="-72.66286653">
    <tag k="addr:city" v="Middlesex"/>
    <tag k="addr:housenumber" v="62"/>
    <tag k="addr:street" v="Pr 5"/>
    <tag k="addr:state" v="VT"/>
    <tag k="ref:vcgi:esiteid" v="157230"/>
  </node>
  <node id="-491" visible="true" lat="44.31157409" lon="-72.66810278">
    <tag k="addr:city" v="Middlesex"/>
    <tag k="addr:housenumber" v="86"/>
    <tag k="addr:street" v="Notch Road"/>
    <tag k="addr:state" v="VT"/>
    <tag k="ref:vcgi:esiteid" v="157231"/>
  </node>
  <node id="-492" visible="true" lat="44.31171035" lon="-72.59573364">
    <tag k="addr:city" v="Middlesex"/>
    <tag k="addr:housenumber" v="239"/>
    <tag k="addr:street" v="Bolduc Road"/>
    <tag k="addr:state" v="VT"/>
    <tag k="ref:vcgi:esiteid" v="157232"/>
  </node>
  <node id="-493" visible="true" lat="44.31156158" lon="-72.59655761">
    <tag k="addr:city" v="Middlesex"/>
    <tag k="addr:housenumber" v="244"/>
    <tag k="addr:street" v="Bolduc Road"/>
    <tag k="addr:state" v="VT"/>
    <tag k="ref:vcgi:esiteid" v="157233"/>
  </node>
  <node id="-494" visible="true" lat="44.31130386" lon="-72.66005301">
    <tag k="addr:city" v="Middlesex"/>
    <tag k="addr:housenumber" v="422"/>
    <tag k="addr:street" v="Center Road"/>
    <tag k="addr:state" v="VT"/>
    <tag k="ref:vcgi:esiteid" v="157234"/>
  </node>
  <node id="-495" visible="true" lat="44.31141662" lon="-72.64600372">
    <tag k="addr:city" v="Middlesex"/>
    <tag k="addr:housenumber" v="393"/>
    <tag k="addr:street" v="Brook Road"/>
    <tag k="addr:state" v="VT"/>
    <tag k="ref:vcgi:esiteid" v="157235"/>
  </node>
  <node id="-496" visible="true" lat="44.31135533" lon="-72.57976253">
    <tag k="addr:city" v="Middlesex"/>
    <tag k="addr:housenumber" v="680"/>
    <tag k="addr:street" v="Vermont Route 12"/>
    <tag k="addr:state" v="VT"/>
    <tag k="ref:vcgi:esiteid" v="157236"/>
  </node>
  <node id="-498" visible="true" lat="44.3112116" lon="-72.66688103">
    <tag k="addr:city" v="Middlesex"/>
    <tag k="addr:housenumber" v="72"/>
    <tag k="addr:street" v="Notch Road"/>
    <tag k="addr:state" v="VT"/>
    <tag k="ref:vcgi:esiteid" v="157238"/>
  </node>
  <node id="-499" visible="true" lat="44.31061554" lon="-72.64631652">
    <tag k="addr:city" v="Middlesex"/>
    <tag k="addr:housenumber" v="411"/>
    <tag k="addr:street" v="Brook Road"/>
    <tag k="addr:state" v="VT"/>
    <tag k="ref:vcgi:esiteid" v="157239"/>
  </node>
  <node id="-500" visible="true" lat="44.31123066" lon="-72.58106546">
    <tag k="addr:city" v="Middlesex"/>
    <tag k="addr:housenumber" v="690"/>
    <tag k="addr:street" v="Vermont Route 12"/>
    <tag k="addr:state" v="VT"/>
    <tag k="ref:vcgi:esiteid" v="157240"/>
  </node>
  <node id="-501" visible="true" lat="44.31038909" lon="-72.58028604">
    <tag k="addr:city" v="Middlesex"/>
    <tag k="addr:housenumber" v="692"/>
    <tag k="addr:street" v="Vermont Route 12"/>
    <tag k="addr:state" v="VT"/>
    <tag k="ref:vcgi:esiteid" v="157241"/>
  </node>
  <node id="-502" visible="true" lat="44.31038284" lon="-72.64794158">
    <tag k="addr:city" v="Middlesex"/>
    <tag k="addr:housenumber" v="434"/>
    <tag k="addr:street" v="Brook Road"/>
    <tag k="addr:state" v="VT"/>
    <tag k="ref:vcgi:esiteid" v="157242"/>
  </node>
  <node id="-503" visible="true" lat="44.31035232" lon="-72.64662933">
    <tag k="addr:city" v="Middlesex"/>
    <tag k="addr:housenumber" v="415"/>
    <tag k="addr:street" v="Brook Road"/>
    <tag k="addr:state" v="VT"/>
    <tag k="ref:vcgi:esiteid" v="157243"/>
  </node>
  <node id="-504" visible="true" lat="44.31035232" lon="-72.57862854">
    <tag k="addr:city" v="Middlesex"/>
    <tag k="addr:housenumber" v="9"/>
    <tag k="addr:street" v="Bolio Road"/>
    <tag k="addr:state" v="VT"/>
    <tag k="ref:vcgi:esiteid" v="157244"/>
  </node>
  <node id="-506" visible="true" lat="44.30989935" lon="-72.57808564">
    <tag k="addr:city" v="Middlesex"/>
    <tag k="addr:housenumber" v="11"/>
    <tag k="addr:street" v="Bolio Road"/>
    <tag k="addr:state" v="VT"/>
    <tag k="ref:vcgi:esiteid" v="157246"/>
  </node>
  <node id="-507" visible="true" lat="44.30991625" lon="-72.58042119">
    <tag k="addr:city" v="Middlesex"/>
    <tag k="addr:housenumber" v="700"/>
    <tag k="addr:street" v="Vermont Route 12"/>
    <tag k="addr:state" v="VT"/>
    <tag k="ref:vcgi:esiteid" v="157247"/>
  </node>
  <node id="-508" visible="true" lat="44.3099362" lon="-72.66128407">
    <tag k="addr:city" v="Middlesex"/>
    <tag k="addr:housenumber" v="399"/>
    <tag k="addr:street" v="Center Road"/>
    <tag k="addr:state" v="VT"/>
    <tag k="ref:vcgi:esiteid" v="157248"/>
  </node>
  <node id="-509" visible="true" lat="44.30947707" lon="-72.66411519">
    <tag k="addr:city" v="Middlesex"/>
    <tag k="addr:housenumber" v="15"/>
    <tag k="addr:street" v="Notch Road"/>
    <tag k="addr:state" v="VT"/>
    <tag k="ref:vcgi:esiteid" v="157249"/>
  </node>
  <node id="-510" visible="true" lat="44.30969194" lon="-72.58049126">
    <tag k="addr:city" v="Middlesex"/>
    <tag k="addr:housenumber" v="706"/>
    <tag k="addr:street" v="Vermont Route 12"/>
    <tag k="addr:state" v="VT"/>
    <tag k="ref:vcgi:esiteid" v="157250"/>
  </node>
  <node id="-511" visible="true" lat="44.30955842" lon="-72.57971891">
    <tag k="addr:city" v="Middlesex"/>
    <tag k="addr:housenumber" v="703"/>
    <tag k="addr:street" v="Vermont Route 12"/>
    <tag k="addr:state" v="VT"/>
    <tag k="ref:vcgi:esiteid" v="157251"/>
  </node>
  <node id="-512" visible="true" lat="44.30920744" lon="-72.66607142">
    <tag k="addr:city" v="Middlesex"/>
    <tag k="addr:housenumber" v="11"/>
    <tag k="addr:street" v="Pr 12"/>
    <tag k="addr:state" v="VT"/>
    <tag k="ref:vcgi:esiteid" v="157252"/>
  </node>
  <node id="-513" visible="true" lat="44.30945968" lon="-72.64731597">
    <tag k="addr:city" v="Middlesex"/>
    <tag k="addr:housenumber" v="429"/>
    <tag k="addr:street" v="Brook Road"/>
    <tag k="addr:state" v="VT"/>
    <tag k="ref:vcgi:esiteid" v="157253"/>
  </node>
  <node id="-514" visible="true" lat="44.30965689" lon="-72.58949239">
    <tag k="addr:city" v="Middlesex"/>
    <tag k="addr:housenumber" v="140"/>
    <tag k="addr:street" v="Bolduc Road"/>
    <tag k="addr:state" v="VT"/>
    <tag k="ref:vcgi:esiteid" v="157254"/>
  </node>
  <node id="-516" visible="true" lat="44.3093496" lon="-72.66821485">
    <tag k="addr:city" v="Middlesex"/>
    <tag k="addr:housenumber" v="32"/>
    <tag k="addr:street" v="Pr 12"/>
    <tag k="addr:state" v="VT"/>
    <tag k="ref:vcgi:esiteid" v="157256"/>
  </node>
  <node id="-518" visible="true" lat="44.30917739" lon="-72.66047668">
    <tag k="addr:city" v="Middlesex"/>
    <tag k="addr:housenumber" v="390"/>
    <tag k="addr:street" v="Center Road"/>
    <tag k="addr:state" v="VT"/>
    <tag k="ref:vcgi:esiteid" v="157258"/>
  </node>
  <node id="-519" visible="true" lat="44.30921731" lon="-72.57967703">
    <tag k="addr:city" v="Middlesex"/>
    <tag k="addr:housenumber" v="707"/>
    <tag k="addr:street" v="Vermont Route 12"/>
    <tag k="addr:state" v="VT"/>
    <tag k="ref:vcgi:esiteid" v="157259"/>
  </node>
  <node id="-520" visible="true" lat="44.30911663" lon="-72.58112994">
    <tag k="addr:city" v="Middlesex"/>
    <tag k="addr:housenumber" v="714"/>
    <tag k="addr:street" v="Vermont Route 12"/>
    <tag k="addr:state" v="VT"/>
    <tag k="ref:vcgi:esiteid" v="157260"/>
  </node>
  <node id="-521" visible="true" lat="44.30894669" lon="-72.66137995">
    <tag k="addr:city" v="Middlesex"/>
    <tag k="addr:housenumber" v="379"/>
    <tag k="addr:street" v="Center Road"/>
    <tag k="addr:state" v="VT"/>
    <tag k="ref:vcgi:esiteid" v="157261"/>
  </node>
  <node id="-522" visible="true" lat="44.30902805" lon="-72.63542135">
    <tag k="addr:city" v="Middlesex"/>
    <tag k="addr:housenumber" v="198"/>
    <tag k="addr:street" v="McCullough Hill Road"/>
    <tag k="addr:state" v="VT"/>
    <tag k="ref:vcgi:esiteid" v="157262"/>
  </node>
  <node id="-523" visible="true" lat="44.30895303" lon="-72.58016969">
    <tag k="addr:city" v="Middlesex"/>
    <tag k="addr:housenumber" v="713"/>
    <tag k="addr:street" v="Vermont Route 12"/>
    <tag k="addr:state" v="VT"/>
    <tag k="ref:vcgi:esiteid" v="157263"/>
  </node>
  <node id="-524" visible="true" lat="44.30883789" lon="-72.58865356">
    <tag k="addr:city" v="Middlesex"/>
    <tag k="addr:housenumber" v="126"/>
    <tag k="addr:street" v="Bolduc Road"/>
    <tag k="addr:state" v="VT"/>
    <tag k="ref:vcgi:esiteid" v="157264"/>
  </node>
  <node id="-525" visible="true" lat="44.3088397" lon="-72.63366055">
    <tag k="addr:city" v="Middlesex"/>
    <tag k="addr:housenumber" v="181"/>
    <tag k="addr:street" v="McCullough Hill Road"/>
    <tag k="addr:state" v="VT"/>
    <tag k="ref:vcgi:esiteid" v="157265"/>
  </node>
  <node id="-526" visible="true" lat="44.30879096" lon="-72.63645778">
    <tag k="addr:city" v="Middlesex"/>
    <tag k="addr:housenumber" v="212"/>
    <tag k="addr:street" v="McCullough Hill Road"/>
    <tag k="addr:state" v="VT"/>
    <tag k="ref:vcgi:esiteid" v="157266"/>
  </node>
  <node id="-527" visible="true" lat="44.30865411" lon="-72.63180174">
    <tag k="addr:city" v="Middlesex"/>
    <tag k="addr:housenumber" v="167"/>
    <tag k="addr:street" v="McCullough Hill Road"/>
    <tag k="addr:state" v="VT"/>
    <tag k="ref:vcgi:esiteid" v="157267"/>
  </node>
  <node id="-528" visible="true" lat="44.30857086" lon="-72.61576843">
    <tag k="addr:city" v="Middlesex"/>
    <tag k="addr:housenumber" v="350"/>
    <tag k="addr:street" v="East Hill Road"/>
    <tag k="addr:state" v="VT"/>
    <tag k="ref:vcgi:esiteid" v="157268"/>
  </node>
  <node id="-529" visible="true" lat="44.30850265" lon="-72.57848325">
    <tag k="addr:city" v="Middlesex"/>
    <tag k="addr:housenumber" v="705"/>
    <tag k="addr:street" v="Vermont Route 12"/>
    <tag k="addr:state" v="VT"/>
    <tag k="ref:vcgi:esiteid" v="157269"/>
  </node>
  <node id="-531" visible="true" lat="44.30834197" lon="-72.61553192">
    <tag k="addr:city" v="Middlesex"/>
    <tag k="addr:housenumber" v="354"/>
    <tag k="addr:street" v="East Hill Road"/>
    <tag k="addr:state" v="VT"/>
    <tag k="ref:vcgi:esiteid" v="157271"/>
  </node>
  <node id="-532" visible="true" lat="44.3082128" lon="-72.57999306">
    <tag k="addr:city" v="Middlesex"/>
    <tag k="addr:housenumber" v="723"/>
    <tag k="addr:street" v="Vermont Route 12"/>
    <tag k="addr:state" v="VT"/>
    <tag k="ref:vcgi:esiteid" v="157272"/>
  </node>
  <node id="-533" visible="true" lat="44.30811512" lon="-72.634182">
    <tag k="addr:city" v="Middlesex"/>
    <tag k="addr:housenumber" v="191"/>
    <tag k="addr:street" v="McCullough Hill Road"/>
    <tag k="addr:state" v="VT"/>
    <tag k="ref:vcgi:esiteid" v="157273"/>
  </node>
  <node id="-534" visible="true" lat="44.30829974" lon="-72.63721627">
    <tag k="addr:city" v="Middlesex"/>
    <tag k="addr:housenumber" v="218"/>
    <tag k="addr:street" v="McCullough Hill Road"/>
    <tag k="addr:state" v="VT"/>
    <tag k="ref:vcgi:esiteid" v="157274"/>
  </node>
  <node id="-535" visible="true" lat="44.30805876" lon="-72.58143957">
    <tag k="addr:city" v="Middlesex"/>
    <tag k="addr:housenumber" v="730"/>
    <tag k="addr:street" v="Vermont Route 12"/>
    <tag k="addr:state" v="VT"/>
    <tag k="ref:vcgi:esiteid" v="157275"/>
  </node>
  <node id="-536" visible="true" lat="44.30728266" lon="-72.63654077">
    <tag k="addr:city" v="Middlesex"/>
    <tag k="addr:housenumber" v="213"/>
    <tag k="addr:street" v="McCullough Hill Road"/>
    <tag k="addr:state" v="VT"/>
    <tag k="ref:vcgi:esiteid" v="157276"/>
  </node>
  <node id="-537" visible="true" lat="44.30728149" lon="-72.6624298">
    <tag k="addr:city" v="Middlesex"/>
    <tag k="addr:housenumber" v="367"/>
    <tag k="addr:street" v="Center Road"/>
    <tag k="addr:state" v="VT"/>
    <tag k="ref:vcgi:esiteid" v="157277"/>
  </node>
  <node id="-539" visible="true" lat="44.30713653" lon="-72.61527252">
    <tag k="addr:city" v="Middlesex"/>
    <tag k="addr:housenumber" v="12"/>
    <tag k="addr:street" v="Wrenwood Lane"/>
    <tag k="addr:state" v="VT"/>
    <tag k="ref:vcgi:esiteid" v="157279"/>
  </node>
  <node id="-540" visible="true" lat="44.30672656" lon="-72.63782631">
    <tag k="addr:city" v="Middlesex"/>
    <tag k="addr:housenumber" v="235"/>
    <tag k="addr:street" v="McCullough Hill Road"/>
    <tag k="addr:state" v="VT"/>
    <tag k="ref:vcgi:esiteid" v="157280"/>
  </node>
  <node id="-545" visible="true" lat="44.30657959" lon="-72.63359069">
    <tag k="addr:city" v="Middlesex"/>
    <tag k="addr:housenumber" v="193"/>
    <tag k="addr:street" v="McCullough Hill Road"/>
    <tag k="addr:state" v="VT"/>
    <tag k="ref:vcgi:esiteid" v="157285"/>
  </node>
  <node id="-547" visible="true" lat="44.30639266" lon="-72.60617065">
    <tag k="addr:city" v="Middlesex"/>
    <tag k="addr:housenumber" v="453"/>
    <tag k="addr:street" v="East Hill Road"/>
    <tag k="addr:state" v="VT"/>
    <tag k="ref:vcgi:esiteid" v="157287"/>
  </node>
  <node id="-551" visible="true" lat="44.30607604" lon="-72.65172576">
    <tag k="addr:city" v="Middlesex"/>
    <tag k="addr:housenumber" v="510"/>
    <tag k="addr:street" v="Brook Road"/>
    <tag k="addr:state" v="VT"/>
    <tag k="ref:vcgi:esiteid" v="157291"/>
  </node>
  <node id="-552" visible="true" lat="44.30603408" lon="-72.57950592">
    <tag k="addr:city" v="Middlesex"/>
    <tag k="addr:housenumber" v="759"/>
    <tag k="addr:street" v="Vermont Route 12"/>
    <tag k="addr:state" v="VT"/>
    <tag k="ref:vcgi:esiteid" v="157292"/>
  </node>
  <node id="-553" visible="true" lat="44.3061178" lon="-72.69482035">
    <tag k="addr:city" v="Middlesex"/>
    <tag k="addr:housenumber" v="1170"/>
    <tag k="addr:street" v="U.S. Route 2"/>
    <tag k="addr:state" v="VT"/>
    <tag k="ref:vcgi:esiteid" v="157293"/>
  </node>
  <node id="-554" visible="true" lat="44.30579376" lon="-72.64081573">
    <tag k="addr:city" v="Middlesex"/>
    <tag k="addr:housenumber" v="268"/>
    <tag k="addr:street" v="McCullough Hill Road"/>
    <tag k="addr:state" v="VT"/>
    <tag k="ref:vcgi:esiteid" v="157294"/>
  </node>
  <node id="-556" visible="true" lat="44.30551528" lon="-72.63940429">
    <tag k="addr:city" v="Middlesex"/>
    <tag k="addr:housenumber" v="263"/>
    <tag k="addr:street" v="McCullough Hill Road"/>
    <tag k="addr:state" v="VT"/>
    <tag k="ref:vcgi:esiteid" v="157296"/>
  </node>
  <node id="-558" visible="true" lat="44.30546569" lon="-72.61341094">
    <tag k="addr:city" v="Middlesex"/>
    <tag k="addr:housenumber" v="35"/>
    <tag k="addr:street" v="Wrenwood Lane"/>
    <tag k="addr:state" v="VT"/>
    <tag k="ref:vcgi:esiteid" v="157298"/>
  </node>
  <node id="-561" visible="true" lat="44.30495834" lon="-72.63664245">
    <tag k="addr:city" v="Middlesex"/>
    <tag k="addr:housenumber" v="255"/>
    <tag k="addr:street" v="McCullough Hill Road"/>
    <tag k="addr:state" v="VT"/>
    <tag k="ref:vcgi:esiteid" v="157301"/>
  </node>
  <node id="-568" visible="true" lat="44.30419756" lon="-72.69502759">
    <tag k="addr:city" v="Middlesex"/>
    <tag k="addr:housenumber" v="1149"/>
    <tag k="addr:street" v="U.S. Route 2"/>
    <tag k="addr:state" v="VT"/>
    <tag k="ref:vcgi:esiteid" v="157308"/>
  </node>
  <node id="-570" visible="true" lat="44.30378341" lon="-72.63904571">
    <tag k="addr:city" v="Middlesex"/>
    <tag k="addr:housenumber" v="15"/>
    <tag k="addr:street" v="Upper Barnett Hill Road"/>
    <tag k="addr:state" v="VT"/>
    <tag k="ref:vcgi:esiteid" v="157310"/>
  </node>
  <node id="-572" visible="true" lat="44.30317687" lon="-72.65354156">
    <tag k="addr:city" v="Middlesex"/>
    <tag k="addr:housenumber" v="528"/>
    <tag k="addr:street" v="Brook Road"/>
    <tag k="addr:state" v="VT"/>
    <tag k="ref:vcgi:esiteid" v="157312"/>
  </node>
  <node id="-573" visible="true" lat="44.30294462" lon="-72.6827232">
    <tag k="addr:city" v="Middlesex"/>
    <tag k="addr:housenumber" v="47"/>
    <tag k="addr:street" v="Colby Road"/>
    <tag k="addr:state" v="VT"/>
    <tag k="ref:vcgi:esiteid" v="157313"/>
  </node>
  <node id="-574" visible="true" lat="44.30293273" lon="-72.64398193">
    <tag k="addr:city" v="Middlesex"/>
    <tag k="addr:housenumber" v="342"/>
    <tag k="addr:street" v="McCullough Hill Road"/>
    <tag k="addr:state" v="VT"/>
    <tag k="ref:vcgi:esiteid" v="157314"/>
  </node>
  <node id="-575" visible="true" lat="44.30271911" lon="-72.64662933">
    <tag k="addr:city" v="Middlesex"/>
    <tag k="addr:housenumber" v="378"/>
    <tag k="addr:street" v="McCullough Hill Road"/>
    <tag k="addr:state" v="VT"/>
    <tag k="ref:vcgi:esiteid" v="157315"/>
  </node>
  <node id="-576" visible="true" lat="44.3027153" lon="-72.64298248">
    <tag k="addr:city" v="Middlesex"/>
    <tag k="addr:housenumber" v="11"/>
    <tag k="addr:street" v="Upper Barnett Hill Road"/>
    <tag k="addr:state" v="VT"/>
    <tag k="ref:vcgi:esiteid" v="157316"/>
  </node>
  <node id="-578" visible="true" lat="44.30229568" lon="-72.65763854">
    <tag k="addr:city" v="Middlesex"/>
    <tag k="addr:housenumber" v="606"/>
    <tag k="addr:street" v="Brook Road"/>
    <tag k="addr:state" v="VT"/>
    <tag k="ref:vcgi:esiteid" v="157318"/>
  </node>
  <node id="-579" visible="true" lat="44.30213546" lon="-72.66331481">
    <tag k="addr:city" v="Middlesex"/>
    <tag k="addr:housenumber" v="283"/>
    <tag k="addr:street" v="Center Road"/>
    <tag k="addr:state" v="VT"/>
    <tag k="ref:vcgi:esiteid" v="157319"/>
  </node>
  <node id="-581" visible="true" lat="44.30175198" lon="-72.68309369">
    <tag k="addr:city" v="Middlesex"/>
    <tag k="addr:housenumber" v="43"/>
    <tag k="addr:street" v="Colby Road"/>
    <tag k="addr:state" v="VT"/>
    <tag k="ref:vcgi:esiteid" v="157321"/>
  </node>
  <node id="-582" visible="true" lat="44.30180358" lon="-72.64834594">
    <tag k="addr:city" v="Middlesex"/>
    <tag k="addr:housenumber" v="398"/>
    <tag k="addr:street" v="McCullough Hill Road"/>
    <tag k="addr:state" v="VT"/>
    <tag k="ref:vcgi:esiteid" v="157322"/>
  </node>
  <node id="-583" visible="true" lat="44.30179214" lon="-72.65634155">
    <tag k="addr:city" v="Middlesex"/>
    <tag k="addr:housenumber" v="587"/>
    <tag k="addr:street" v="Brook Road"/>
    <tag k="addr:state" v="VT"/>
    <tag k="ref:vcgi:esiteid" v="157323"/>
  </node>
  <node id="-584" visible="true" lat="44.30161162" lon="-72.65704358">
    <tag k="addr:city" v="Middlesex"/>
    <tag k="addr:housenumber" v="589"/>
    <tag k="addr:street" v="Brook Road"/>
    <tag k="addr:state" v="VT"/>
    <tag k="ref:vcgi:esiteid" v="157324"/>
  </node>
  <node id="-585" visible="true" lat="44.30171203" lon="-72.66368103">
    <tag k="addr:city" v="Middlesex"/>
    <tag k="addr:housenumber" v="271"/>
    <tag k="addr:street" v="Center Road"/>
    <tag k="addr:state" v="VT"/>
    <tag k="ref:vcgi:esiteid" v="157325"/>
  </node>
  <node id="-586" visible="true" lat="44.30147548" lon="-72.6923623">
    <tag k="addr:city" v="Middlesex"/>
    <tag k="addr:housenumber" v="1098"/>
    <tag k="addr:street" v="U.S. Route 2"/>
    <tag k="addr:state" v="VT"/>
    <tag k="ref:vcgi:esiteid" v="157326"/>
  </node>
  <node id="-587" visible="true" lat="44.30151748" lon="-72.64589691">
    <tag k="addr:city" v="Middlesex"/>
    <tag k="addr:housenumber" v="361"/>
    <tag k="addr:street" v="McCullough Hill Road"/>
    <tag k="addr:state" v="VT"/>
    <tag k="ref:vcgi:esiteid" v="157327"/>
  </node>
  <node id="-588" visible="true" lat="44.30130386" lon="-72.65789032">
    <tag k="addr:city" v="Middlesex"/>
    <tag k="addr:housenumber" v="601"/>
    <tag k="addr:street" v="Brook Road"/>
    <tag k="addr:state" v="VT"/>
    <tag k="ref:vcgi:esiteid" v="157328"/>
  </node>
  <node id="-591" visible="true" lat="44.30095324" lon="-72.66463116">
    <tag k="addr:city" v="Middlesex"/>
    <tag k="addr:housenumber" v="263"/>
    <tag k="addr:street" v="Center Road"/>
    <tag k="addr:state" v="VT"/>
    <tag k="ref:vcgi:esiteid" v="157331"/>
  </node>
  <node id="-592" visible="true" lat="44.30076592" lon="-72.66551334">
    <tag k="addr:city" v="Middlesex"/>
    <tag k="addr:housenumber" v="249"/>
    <tag k="addr:street" v="Center Road"/>
    <tag k="addr:state" v="VT"/>
    <tag k="ref:vcgi:esiteid" v="157332"/>
  </node>
  <node id="-594" visible="true" lat="44.30051422" lon="-72.67393493">
    <tag k="addr:city" v="Middlesex"/>
    <tag k="addr:housenumber" v="157"/>
    <tag k="addr:street" v="Center Road"/>
    <tag k="addr:state" v="VT"/>
    <tag k="ref:vcgi:esiteid" v="157334"/>
  </node>
  <node id="-596" visible="true" lat="44.30023193" lon="-72.64971923">
    <tag k="addr:city" v="Middlesex"/>
    <tag k="addr:housenumber" v="409"/>
    <tag k="addr:street" v="McCullough Hill Road"/>
    <tag k="addr:state" v="VT"/>
    <tag k="ref:vcgi:esiteid" v="157337"/>
  </node>
  <node id="-599" visible="true" lat="44.30000686" lon="-72.67641448">
    <tag k="addr:city" v="Middlesex"/>
    <tag k="addr:housenumber" v="138"/>
    <tag k="addr:street" v="Center Road"/>
    <tag k="addr:state" v="VT"/>
    <tag k="ref:vcgi:esiteid" v="157341"/>
  </node>
  <node id="-600" visible="true" lat="44.29994331" lon="-72.65257771">
    <tag k="addr:city" v="Middlesex"/>
    <tag k="addr:housenumber" v="454"/>
    <tag k="addr:street" v="McCullough Hill Road"/>
    <tag k="addr:state" v="VT"/>
    <tag k="ref:vcgi:esiteid" v="157342"/>
  </node>
  <node id="-601" visible="true" lat="44.29954017" lon="-72.68124707">
    <tag k="addr:city" v="Middlesex"/>
    <tag k="addr:housenumber" v="58"/>
    <tag k="addr:street" v="Center Road"/>
    <tag k="addr:state" v="VT"/>
    <tag k="ref:vcgi:esiteid" v="157345"/>
  </node>
  <node id="-602" visible="true" lat="44.29914673" lon="-72.65567461">
    <tag k="addr:city" v="Middlesex"/>
    <tag k="addr:housenumber" v="487"/>
    <tag k="addr:street" v="McCullough Hill Road"/>
    <tag k="addr:state" v="VT"/>
    <tag k="ref:vcgi:esiteid" v="157348"/>
  </node>
  <node id="-603" visible="true" lat="44.29910952" lon="-72.66260161">
    <tag k="addr:city" v="Middlesex"/>
    <tag k="addr:housenumber" v="550"/>
    <tag k="addr:street" v="McCullough Hill Road"/>
    <tag k="addr:state" v="VT"/>
    <tag k="ref:vcgi:esiteid" v="157349"/>
  </node>
  <node id="-604" visible="true" lat="44.29928076" lon="-72.66113519">
    <tag k="addr:city" v="Middlesex"/>
    <tag k="addr:housenumber" v="548"/>
    <tag k="addr:street" v="McCullough Hill Road"/>
    <tag k="addr:state" v="VT"/>
    <tag k="ref:vcgi:esiteid" v="157350"/>
  </node>
  <node id="-606" visible="true" lat="44.29891611" lon="-72.65296841">
    <tag k="addr:city" v="Middlesex"/>
    <tag k="addr:housenumber" v="445"/>
    <tag k="addr:street" v="McCullough Hill Road"/>
    <tag k="addr:state" v="VT"/>
    <tag k="ref:vcgi:esiteid" v="157352"/>
  </node>
  <node id="-607" visible="true" lat="44.29892349" lon="-72.63904571">
    <tag k="addr:city" v="Middlesex"/>
    <tag k="addr:housenumber" v="75"/>
    <tag k="addr:street" v="Upper Barnett Hill Road"/>
    <tag k="addr:state" v="VT"/>
    <tag k="ref:vcgi:esiteid" v="157353"/>
  </node>
  <node id="-609" visible="true" lat="44.29889524" lon="-72.65817805">
    <tag k="addr:city" v="Middlesex"/>
    <tag k="addr:housenumber" v="3"/>
    <tag k="addr:street" v="Merrill Drive"/>
    <tag k="addr:state" v="VT"/>
    <tag k="ref:vcgi:esiteid" v="157355"/>
  </node>
  <node id="-611" visible="true" lat="44.29840524" lon="-72.6587428">
    <tag k="addr:city" v="Middlesex"/>
    <tag k="addr:housenumber" v="4"/>
    <tag k="addr:street" v="Merrill Drive"/>
    <tag k="addr:state" v="VT"/>
    <tag k="ref:vcgi:esiteid" v="157358"/>
  </node>
  <node id="-616" visible="true" lat="44.29772146" lon="-72.66946715">
    <tag k="addr:city" v="Middlesex"/>
    <tag k="addr:housenumber" v="52"/>
    <tag k="addr:street" v="Old Brook Road"/>
    <tag k="addr:state" v="VT"/>
    <tag k="ref:vcgi:esiteid" v="157363"/>
  </node>
  <node id="-619" visible="true" lat="44.29754638" lon="-72.65335846">
    <tag k="addr:city" v="Middlesex"/>
    <tag k="addr:housenumber" v="419"/>
    <tag k="addr:street" v="McCullough Hill Road"/>
    <tag k="addr:state" v="VT"/>
    <tag k="ref:vcgi:esiteid" v="157366"/>
  </node>
  <node id="-620" visible="true" lat="44.29755504" lon="-72.58687663">
    <tag k="addr:city" v="Middlesex"/>
    <tag k="addr:housenumber" v="135"/>
    <tag k="addr:street" v="Portal Road"/>
    <tag k="addr:state" v="VT"/>
    <tag k="ref:vcgi:esiteid" v="157367"/>
  </node>
  <node id="-621" visible="true" lat="44.2974739" lon="-72.63919067">
    <tag k="addr:city" v="Middlesex"/>
    <tag k="addr:housenumber" v="95"/>
    <tag k="addr:street" v="Upper Barnett Hill Road"/>
    <tag k="addr:state" v="VT"/>
    <tag k="ref:vcgi:esiteid" v="157368"/>
  </node>
  <node id="-622" visible="true" lat="44.29746462" lon="-72.66887396">
    <tag k="addr:city" v="Middlesex"/>
    <tag k="addr:housenumber" v="59"/>
    <tag k="addr:street" v="Old Brook Road"/>
    <tag k="addr:state" v="VT"/>
    <tag k="ref:vcgi:esiteid" v="157369"/>
  </node>
  <node id="-623" visible="true" lat="44.29723185" lon="-72.66973437">
    <tag k="addr:city" v="Middlesex"/>
    <tag k="addr:housenumber" v="60"/>
    <tag k="addr:street" v="Old Brook Road"/>
    <tag k="addr:state" v="VT"/>
    <tag k="ref:vcgi:esiteid" v="157370"/>
  </node>
  <node id="-627" visible="true" lat="44.29546737" lon="-72.64031982">
    <tag k="addr:city" v="Middlesex"/>
    <tag k="addr:housenumber" v="119"/>
    <tag k="addr:street" v="Upper Barnett Hill Road"/>
    <tag k="addr:state" v="VT"/>
    <tag k="ref:vcgi:esiteid" v="157374"/>
  </node>
  <node id="-630" visible="true" lat="44.29518508" lon="-72.6819992">
    <tag k="addr:city" v="Middlesex"/>
    <tag k="addr:housenumber" v="13"/>
    <tag k="addr:street" v="Gallagher Road"/>
    <tag k="addr:state" v="VT"/>
    <tag k="ref:vcgi:esiteid" v="157377"/>
  </node>
  <node id="-633" visible="true" lat="44.29491348" lon="-72.68272066">
    <tag k="addr:city" v="Middlesex"/>
    <tag k="addr:housenumber" v="970"/>
    <tag k="addr:street" v="U.S. Route 2"/>
    <tag k="addr:state" v="VT"/>
    <tag k="ref:vcgi:esiteid" v="157380"/>
  </node>
  <node id="-634" visible="true" lat="44.29480743" lon="-72.68099212">
    <tag k="addr:city" v="Middlesex"/>
    <tag k="addr:housenumber" v="25"/>
    <tag k="addr:street" v="Gallagher Road"/>
    <tag k="addr:state" v="VT"/>
    <tag k="ref:vcgi:esiteid" v="157383"/>
  </node>
  <node id="-635" visible="true" lat="44.29466628" lon="-72.68089294">
    <tag k="addr:city" v="Middlesex"/>
    <tag k="addr:housenumber" v="27"/>
    <tag k="addr:street" v="Gallagher Road"/>
    <tag k="addr:state" v="VT"/>
    <tag k="ref:vcgi:esiteid" v="157384"/>
  </node>
  <node id="-637" visible="true" lat="44.29460027" lon="-72.68671793">
    <tag k="addr:city" v="Middlesex"/>
    <tag k="addr:housenumber" v="979"/>
    <tag k="addr:street" v="U.S. Route 2"/>
    <tag k="addr:state" v="VT"/>
    <tag k="ref:vcgi:esiteid" v="157386"/>
  </node>
  <node id="-639" visible="true" lat="44.29446792" lon="-72.68222045">
    <tag k="addr:city" v="Middlesex"/>
    <tag k="addr:housenumber" v="960"/>
    <tag k="addr:street" v="U.S. Route 2"/>
    <tag k="addr:state" v="VT"/>
    <tag k="ref:vcgi:esiteid" v="157388"/>
  </node>
  <node id="-640" visible="true" lat="44.29447882" lon="-72.68067574">
    <tag k="addr:city" v="Middlesex"/>
    <tag k="addr:housenumber" v="31"/>
    <tag k="addr:street" v="Gallagher Road"/>
    <tag k="addr:state" v="VT"/>
    <tag k="ref:vcgi:esiteid" v="157390"/>
  </node>
  <node id="-642" visible="true" lat="44.29429043" lon="-72.68288063">
    <tag k="addr:city" v="Middlesex"/>
    <tag k="addr:housenumber" v="961"/>
    <tag k="addr:street" v="U.S. Route 2"/>
    <tag k="addr:state" v="VT"/>
    <tag k="ref:vcgi:esiteid" v="157392"/>
  </node>
  <node id="-644" visible="true" lat="44.29403003" lon="-72.61670905">
    <tag k="addr:city" v="Middlesex"/>
    <tag k="addr:housenumber" v="174"/>
    <tag k="addr:street" v="Davy Road"/>
    <tag k="addr:state" v="VT"/>
    <tag k="ref:vcgi:esiteid" v="157394"/>
  </node>
  <node id="-650" visible="true" lat="44.29326467" lon="-72.68008191">
    <tag k="addr:city" v="Middlesex"/>
    <tag k="addr:housenumber" v="927"/>
    <tag k="addr:street" v="U.S. Route 2"/>
    <tag k="addr:state" v="VT"/>
    <tag k="ref:vcgi:esiteid" v="157401"/>
  </node>
  <node id="-657" visible="true" lat="44.29245033" lon="-72.67951664">
    <tag k="addr:city" v="Middlesex"/>
    <tag k="addr:housenumber" v="5"/>
    <tag k="addr:street" v="Church Street"/>
    <tag k="addr:state" v="VT"/>
    <tag k="ref:vcgi:esiteid" v="157409"/>
  </node>
  <node id="-667" visible="true" lat="44.29210281" lon="-72.67821502">
    <tag k="addr:city" v="Middlesex"/>
    <tag k="addr:housenumber" v="903"/>
    <tag k="addr:street" v="U.S. Route 2"/>
    <tag k="addr:state" v="VT"/>
    <tag k="ref:vcgi:esiteid" v="157419"/>
  </node>
  <node id="-672" visible="true" lat="44.29196929" lon="-72.61652374">
    <tag k="addr:city" v="Middlesex"/>
    <tag k="addr:housenumber" v="155"/>
    <tag k="addr:street" v="Davy Road"/>
    <tag k="addr:state" v="VT"/>
    <tag k="ref:vcgi:esiteid" v="157425"/>
  </node>
  <node id="-683" visible="true" lat="44.28920364" lon="-72.60980987">
    <tag k="addr:city" v="Middlesex"/>
    <tag k="addr:housenumber" v="50"/>
    <tag k="addr:street" v="Davy Road"/>
    <tag k="addr:state" v="VT"/>
    <tag k="ref:vcgi:esiteid" v="157436"/>
  </node>
  <node id="-685" visible="true" lat="44.28890991" lon="-72.60545349">
    <tag k="addr:city" v="Middlesex"/>
    <tag k="addr:housenumber" v="11"/>
    <tag k="addr:street" v="Upper Sunnybrook Road"/>
    <tag k="addr:state" v="VT"/>
    <tag k="ref:vcgi:esiteid" v="157438"/>
  </node>
  <node id="-692" visible="true" lat="44.2866249" lon="-72.60861969">
    <tag k="addr:city" v="Middlesex"/>
    <tag k="addr:housenumber" v="56"/>
    <tag k="addr:street" v="Upper Sunnybrook Road"/>
    <tag k="addr:state" v="VT"/>
    <tag k="ref:vcgi:esiteid" v="157445"/>
  </node>
  <node id="-699" visible="true" lat="44.28526306" lon="-72.60733795">
    <tag k="addr:city" v="Middlesex"/>
    <tag k="addr:housenumber" v="71"/>
    <tag k="addr:street" v="Upper Sunnybrook Road"/>
    <tag k="addr:state" v="VT"/>
    <tag k="ref:vcgi:esiteid" v="157452"/>
  </node>
  <node id="-702" visible="true" lat="44.28459167" lon="-72.60798645">
    <tag k="addr:city" v="Middlesex"/>
    <tag k="addr:housenumber" v="80"/>
    <tag k="addr:street" v="Upper Sunnybrook Road"/>
    <tag k="addr:state" v="VT"/>
    <tag k="ref:vcgi:esiteid" v="157455"/>
  </node>
  <node id="-703" visible="true" lat="44.2838974" lon="-72.60795593">
    <tag k="addr:city" v="Middlesex"/>
    <tag k="addr:housenumber" v="90"/>
    <tag k="addr:street" v="Upper Sunnybrook Road"/>
    <tag k="addr:state" v="VT"/>
    <tag k="ref:vcgi:esiteid" v="157456"/>
  </node>
  <node id="-704" visible="true" lat="44.28328735" lon="-72.59513913">
    <tag k="addr:city" v="Middlesex"/>
    <tag k="addr:housenumber" v="824"/>
    <tag k="addr:street" v="East Hill Road"/>
    <tag k="addr:state" v="VT"/>
    <tag k="ref:vcgi:esiteid" v="157457"/>
  </node>
  <node id="-712" visible="true" lat="44.28175023" lon="-72.63976783">
    <tag k="addr:city" v="Middlesex"/>
    <tag k="addr:housenumber" v="97"/>
    <tag k="addr:street" v="Lower Barnett Hill Road"/>
    <tag k="addr:state" v="VT"/>
    <tag k="ref:vcgi:esiteid" v="157465"/>
  </node>
  <node id="-713" visible="true" lat="44.28066253" lon="-72.63684081">
    <tag k="addr:city" v="Middlesex"/>
    <tag k="addr:housenumber" v="94"/>
    <tag k="addr:street" v="Lower Barnett Hill Road"/>
    <tag k="addr:state" v="VT"/>
    <tag k="ref:vcgi:esiteid" v="157466"/>
  </node>
  <node id="-714" visible="true" lat="44.28030257" lon="-72.61042646">
    <tag k="addr:city" v="Middlesex"/>
    <tag k="addr:housenumber" v="141"/>
    <tag k="addr:street" v="Upper Sunnybrook Road"/>
    <tag k="addr:state" v="VT"/>
    <tag k="ref:vcgi:esiteid" v="157467"/>
  </node>
  <node id="-715" visible="true" lat="44.27998352" lon="-72.63594818">
    <tag k="addr:city" v="Middlesex"/>
    <tag k="addr:housenumber" v="90"/>
    <tag k="addr:street" v="Lower Barnett Hill Road"/>
    <tag k="addr:state" v="VT"/>
    <tag k="ref:vcgi:esiteid" v="157468"/>
  </node>
  <node id="-716" visible="true" lat="44.27996063" lon="-72.63737487">
    <tag k="addr:city" v="Middlesex"/>
    <tag k="addr:housenumber" v="91"/>
    <tag k="addr:street" v="Lower Barnett Hill Road"/>
    <tag k="addr:state" v="VT"/>
    <tag k="ref:vcgi:esiteid" v="157469"/>
  </node>
  <node id="-717" visible="true" lat="44.27913222" lon="-72.61892089">
    <tag k="addr:city" v="Middlesex"/>
    <tag k="addr:housenumber" v="187"/>
    <tag k="addr:street" v="Lower Sunnybrook Road"/>
    <tag k="addr:state" v="VT"/>
    <tag k="ref:vcgi:esiteid" v="157470"/>
  </node>
  <node id="-719" visible="true" lat="44.27853393" lon="-72.63761901">
    <tag k="addr:city" v="Middlesex"/>
    <tag k="addr:housenumber" v="69"/>
    <tag k="addr:street" v="Lower Barnett Hill Road"/>
    <tag k="addr:state" v="VT"/>
    <tag k="ref:vcgi:esiteid" v="157472"/>
  </node>
  <node id="-720" visible="true" lat="44.27830505" lon="-72.61749267">
    <tag k="addr:city" v="Middlesex"/>
    <tag k="addr:housenumber" v="182"/>
    <tag k="addr:street" v="Lower Sunnybrook Road"/>
    <tag k="addr:state" v="VT"/>
    <tag k="ref:vcgi:esiteid" v="157473"/>
  </node>
  <node id="-722" visible="true" lat="44.27711486" lon="-72.64417266">
    <tag k="addr:city" v="Middlesex"/>
    <tag k="addr:housenumber" v="428"/>
    <tag k="addr:street" v="U.S. Route 2"/>
    <tag k="addr:state" v="VT"/>
    <tag k="ref:vcgi:esiteid" v="157475"/>
  </node>
  <node id="-723" visible="true" lat="44.27708435" lon="-72.65596771">
    <tag k="addr:city" v="Middlesex"/>
    <tag k="addr:housenumber" v="565"/>
    <tag k="addr:street" v="U.S. Route 2"/>
    <tag k="addr:state" v="VT"/>
    <tag k="ref:vcgi:esiteid" v="157476"/>
  </node>
  <node id="-724" visible="true" lat="44.27689742" lon="-72.63711547">
    <tag k="addr:city" v="Middlesex"/>
    <tag k="addr:housenumber" v="40"/>
    <tag k="addr:street" v="Lower Barnett Hill Road"/>
    <tag k="addr:state" v="VT"/>
    <tag k="ref:vcgi:esiteid" v="157477"/>
  </node>
  <node id="-727" visible="true" lat="44.27648415" lon="-72.6434543">
    <tag k="addr:city" v="Middlesex"/>
    <tag k="addr:housenumber" v="422"/>
    <tag k="addr:street" v="U.S. Route 2"/>
    <tag k="addr:state" v="VT"/>
    <tag k="ref:vcgi:esiteid" v="157480"/>
  </node>
  <node id="-728" visible="true" lat="44.27642059" lon="-72.63855743">
    <tag k="addr:city" v="Middlesex"/>
    <tag k="addr:housenumber" v="31"/>
    <tag k="addr:street" v="Lower Barnett Hill Road"/>
    <tag k="addr:state" v="VT"/>
    <tag k="ref:vcgi:esiteid" v="157481"/>
  </node>
  <node id="-729" visible="true" lat="44.27607215" lon="-72.64214262">
    <tag k="addr:city" v="Middlesex"/>
    <tag k="addr:housenumber" v="406"/>
    <tag k="addr:street" v="U.S. Route 2"/>
    <tag k="addr:state" v="VT"/>
    <tag k="ref:vcgi:esiteid" v="157482"/>
  </node>
  <node id="-730" visible="true" lat="44.27604994" lon="-72.63959788">
    <tag k="addr:city" v="Middlesex"/>
    <tag k="addr:housenumber" v="29"/>
    <tag k="addr:street" v="Lower Barnett Hill Road"/>
    <tag k="addr:state" v="VT"/>
    <tag k="ref:vcgi:esiteid" v="157483"/>
  </node>
  <node id="-732" visible="true" lat="44.27597214" lon="-72.6417673">
    <tag k="addr:city" v="Middlesex"/>
    <tag k="addr:housenumber" v="400"/>
    <tag k="addr:street" v="U.S. Route 2"/>
    <tag k="addr:state" v="VT"/>
    <tag k="ref:vcgi:esiteid" v="157485"/>
  </node>
  <node id="-733" visible="true" lat="44.2760456" lon="-72.64127896">
    <tag k="addr:city" v="Middlesex"/>
    <tag k="addr:housenumber" v="394"/>
    <tag k="addr:street" v="U.S. Route 2"/>
    <tag k="addr:state" v="VT"/>
    <tag k="ref:vcgi:esiteid" v="157486"/>
  </node>
  <node id="-735" visible="true" lat="44.27573281" lon="-72.64308266">
    <tag k="addr:city" v="Middlesex"/>
    <tag k="addr:housenumber" v="409"/>
    <tag k="addr:street" v="U.S. Route 2"/>
    <tag k="addr:state" v="VT"/>
    <tag k="ref:vcgi:esiteid" v="157488"/>
  </node>
  <node id="-736" visible="true" lat="44.2742236" lon="-72.61940786">
    <tag k="addr:city" v="Middlesex"/>
    <tag k="addr:housenumber" v="112"/>
    <tag k="addr:street" v="Lower Sunnybrook Road"/>
    <tag k="addr:state" v="VT"/>
    <tag k="ref:vcgi:esiteid" v="157489"/>
  </node>
  <node id="-737" visible="true" lat="44.27410152" lon="-72.63899767">
    <tag k="addr:city" v="Middlesex"/>
    <tag k="addr:housenumber" v="360"/>
    <tag k="addr:street" v="U.S. Route 2"/>
    <tag k="addr:state" v="VT"/>
    <tag k="ref:vcgi:esiteid" v="157490"/>
  </node>
  <node id="-743" visible="true" lat="44.27192688" lon="-72.62005615">
    <tag k="addr:city" v="Middlesex"/>
    <tag k="addr:housenumber" v="80"/>
    <tag k="addr:street" v="Lower Sunnybrook Road"/>
    <tag k="addr:state" v="VT"/>
    <tag k="ref:vcgi:esiteid" v="157496"/>
  </node>
  <node id="-746" visible="true" lat="44.27031298" lon="-72.62136685">
    <tag k="addr:city" v="Middlesex"/>
    <tag k="addr:housenumber" v="53"/>
    <tag k="addr:street" v="Lower Sunnybrook Road"/>
    <tag k="addr:state" v="VT"/>
    <tag k="ref:vcgi:esiteid" v="157499"/>
  </node>
  <node id="-753" visible="true" lat="44.26721954" lon="-72.62934112">
    <tag k="addr:city" v="Middlesex"/>
    <tag k="addr:housenumber" v="28"/>
    <tag k="addr:street" v="Rich Road"/>
    <tag k="addr:state" v="VT"/>
    <tag k="ref:vcgi:esiteid" v="157506"/>
  </node>
  <node id="-754" visible="true" lat="44.26609954" lon="-72.62872348">
    <tag k="addr:city" v="Middlesex"/>
    <tag k="addr:housenumber" v="13"/>
    <tag k="addr:street" v="Rich Road"/>
    <tag k="addr:state" v="VT"/>
    <tag k="ref:vcgi:esiteid" v="157507"/>
  </node>
  <node id="-755" visible="true" lat="44.26554437" lon="-72.62823696">
    <tag k="addr:city" v="Middlesex"/>
    <tag k="addr:housenumber" v="195"/>
    <tag k="addr:street" v="Three Mile Bridge Road"/>
    <tag k="addr:state" v="VT"/>
    <tag k="ref:vcgi:esiteid" v="157508"/>
  </node>
  <node id="-757" visible="true" lat="44.26534178" lon="-72.6279815">
    <tag k="addr:city" v="Middlesex"/>
    <tag k="addr:housenumber" v="191"/>
    <tag k="addr:street" v="Three Mile Bridge Road"/>
    <tag k="addr:state" v="VT"/>
    <tag k="ref:vcgi:esiteid" v="157510"/>
  </node>
  <node id="-774" visible="true" lat="44.26276016" lon="-72.62258148">
    <tag k="addr:city" v="Middlesex"/>
    <tag k="addr:housenumber" v="123"/>
    <tag k="addr:street" v="Three Mile Bridge Road"/>
    <tag k="addr:state" v="VT"/>
    <tag k="ref:vcgi:esiteid" v="157527"/>
  </node>
  <node id="-776" visible="true" lat="44.26223373" lon="-72.6167221">
    <tag k="addr:city" v="Middlesex"/>
    <tag k="addr:housenumber" v="46"/>
    <tag k="addr:street" v="Three Mile Bridge Road"/>
    <tag k="addr:state" v="VT"/>
    <tag k="ref:vcgi:esiteid" v="157529"/>
  </node>
  <node id="-781" visible="true" lat="44.26000976" lon="-72.61430359">
    <tag k="addr:city" v="Middlesex"/>
    <tag k="addr:housenumber" v="27"/>
    <tag k="addr:street" v="Three Mile Bridge Road"/>
    <tag k="addr:state" v="VT"/>
    <tag k="ref:vcgi:esiteid" v="157534"/>
  </node>
  <node id="-783" visible="true" lat="44.3675259" lon="-72.62991733">
    <tag k="addr:city" v="Middlesex"/>
    <tag k="addr:housenumber" v="283"/>
    <tag k="addr:street" v="North Bear Swamp Road"/>
    <tag k="addr:state" v="VT"/>
    <tag k="ref:vcgi:esiteid" v="157536"/>
  </node>
  <node id="-784" visible="true" lat="44.31651401" lon="-72.60150037">
    <tag k="addr:city" v="Middlesex"/>
    <tag k="addr:housenumber" v="80"/>
    <tag k="addr:street" v="Tangletown Road"/>
    <tag k="addr:state" v="VT"/>
    <tag k="ref:vcgi:esiteid" v="157537"/>
  </node>
  <node id="-786" visible="true" lat="44.28269996" lon="-72.59636779">
    <tag k="addr:city" v="Middlesex"/>
    <tag k="addr:housenumber" v="81"/>
    <tag k="addr:street" v="Garand Hill"/>
    <tag k="addr:state" v="VT"/>
    <tag k="ref:vcgi:esiteid" v="157539"/>
  </node>
  <node id="-787" visible="true" lat="44.28431353" lon="-72.59684145">
    <tag k="addr:city" v="Middlesex"/>
    <tag k="addr:housenumber" v="20"/>
    <tag k="addr:street" v="Garand Hill"/>
    <tag k="addr:state" v="VT"/>
    <tag k="ref:vcgi:esiteid" v="157540"/>
  </node>
  <node id="-788" visible="true" lat="44.2761406" lon="-72.6163534">
    <tag k="addr:city" v="Middlesex"/>
    <tag k="addr:housenumber" v="142"/>
    <tag k="addr:street" v="Lower Sunnybrook Road"/>
    <tag k="addr:state" v="VT"/>
    <tag k="ref:vcgi:esiteid" v="157541"/>
  </node>
  <node id="-789" visible="true" lat="44.29955291" lon="-72.60424041">
    <tag k="addr:city" v="Middlesex"/>
    <tag k="addr:housenumber" v="515"/>
    <tag k="addr:street" v="East Hill Road"/>
    <tag k="addr:state" v="VT"/>
    <tag k="ref:vcgi:esiteid" v="157542"/>
  </node>
  <node id="-790" visible="true" lat="44.34160995" lon="-72.6042633">
    <tag k="addr:city" v="Middlesex"/>
    <tag k="addr:housenumber" v="73"/>
    <tag k="addr:street" v="French Road"/>
    <tag k="addr:state" v="VT"/>
    <tag k="ref:vcgi:esiteid" v="157543"/>
  </node>
  <node id="-791" visible="true" lat="44.34032642" lon="-72.6046101">
    <tag k="addr:city" v="Middlesex"/>
    <tag k="addr:housenumber" v="80"/>
    <tag k="addr:street" v="French Road"/>
    <tag k="addr:state" v="VT"/>
    <tag k="ref:vcgi:esiteid" v="157544"/>
  </node>
  <node id="-792" visible="true" lat="44.33626698" lon="-72.63243626">
    <tag k="addr:city" v="Middlesex"/>
    <tag k="addr:housenumber" v="8"/>
    <tag k="addr:street" v="Picard Lane"/>
    <tag k="addr:state" v="VT"/>
    <tag k="ref:vcgi:esiteid" v="157545"/>
  </node>
  <node id="-795" visible="true" lat="44.31051215" lon="-72.66518046">
    <tag k="addr:city" v="Middlesex"/>
    <tag k="addr:housenumber" v="68"/>
    <tag k="addr:street" v="Notch Road"/>
    <tag k="addr:state" v="VT"/>
    <tag k="ref:vcgi:esiteid" v="157548"/>
  </node>
  <node id="-796" visible="true" lat="44.31623077" lon="-72.5915451">
    <tag k="addr:city" v="Middlesex"/>
    <tag k="addr:housenumber" v="42"/>
    <tag k="addr:street" v="Dolan Road"/>
    <tag k="addr:state" v="VT"/>
    <tag k="ref:vcgi:esiteid" v="157549"/>
  </node>
  <node id="-797" visible="true" lat="44.31786184" lon="-72.58956248">
    <tag k="addr:city" v="Middlesex"/>
    <tag k="addr:housenumber" v="10"/>
    <tag k="addr:street" v="Dolan Road"/>
    <tag k="addr:state" v="VT"/>
    <tag k="ref:vcgi:esiteid" v="157550"/>
  </node>
  <node id="-798" visible="true" lat="44.31992608" lon="-72.57025418">
    <tag k="addr:city" v="Middlesex"/>
    <tag k="addr:housenumber" v="2416"/>
    <tag k="addr:street" v="Horn Of The Moon Road"/>
    <tag k="addr:state" v="VT"/>
    <tag k="ref:vcgi:esiteid" v="157551"/>
  </node>
  <node id="-799" visible="true" lat="44.31615483" lon="-72.59068289">
    <tag k="addr:city" v="Middlesex"/>
    <tag k="addr:housenumber" v="37"/>
    <tag k="addr:street" v="Dolan Road"/>
    <tag k="addr:state" v="VT"/>
    <tag k="ref:vcgi:esiteid" v="157552"/>
  </node>
  <node id="-800" visible="true" lat="44.31085926" lon="-72.66315666">
    <tag k="addr:city" v="Middlesex"/>
    <tag k="addr:housenumber" v="28"/>
    <tag k="addr:street" v="Notch Road"/>
    <tag k="addr:state" v="VT"/>
    <tag k="ref:vcgi:esiteid" v="157553"/>
  </node>
  <node id="-802" visible="true" lat="44.30862808" lon="-72.60160064">
    <tag k="addr:city" v="Middlesex"/>
    <tag k="addr:housenumber" v="358"/>
    <tag k="addr:street" v="Bolduc Road"/>
    <tag k="addr:state" v="VT"/>
    <tag k="ref:vcgi:esiteid" v="157555"/>
  </node>
  <node id="-803" visible="true" lat="44.32434446" lon="-72.68689465">
    <tag k="addr:city" v="Middlesex"/>
    <tag k="addr:housenumber" v="426"/>
    <tag k="addr:street" v="Notch Road"/>
    <tag k="addr:state" v="VT"/>
    <tag k="ref:vcgi:esiteid" v="157556"/>
  </node>
  <node id="-804" visible="true" lat="44.31416743" lon="-72.69045494">
    <tag k="addr:city" v="Middlesex"/>
    <tag k="addr:housenumber" v="33"/>
    <tag k="addr:street" v="Mead Road"/>
    <tag k="addr:state" v="VT"/>
    <tag k="ref:vcgi:esiteid" v="157557"/>
  </node>
  <node id="-805" visible="true" lat="44.31515782" lon="-72.68946147">
    <tag k="addr:city" v="Middlesex"/>
    <tag k="addr:housenumber" v="58"/>
    <tag k="addr:street" v="Mead Road"/>
    <tag k="addr:state" v="VT"/>
    <tag k="ref:vcgi:esiteid" v="157558"/>
  </node>
  <node id="-807" visible="true" lat="44.31425653" lon="-72.59421772">
    <tag k="addr:city" v="Middlesex"/>
    <tag k="addr:housenumber" v="90"/>
    <tag k="addr:street" v="Dolan Road"/>
    <tag k="addr:state" v="VT"/>
    <tag k="ref:vcgi:esiteid" v="157560"/>
  </node>
  <node id="-808" visible="true" lat="44.35247224" lon="-72.62985178">
    <tag k="addr:city" v="Middlesex"/>
    <tag k="addr:housenumber" v="92"/>
    <tag k="addr:street" v="Tamarack Road"/>
    <tag k="addr:state" v="VT"/>
    <tag k="ref:vcgi:esiteid" v="157561"/>
  </node>
  <node id="-809" visible="true" lat="44.30133819" lon="-72.6471405">
    <tag k="addr:city" v="Middlesex"/>
    <tag k="addr:housenumber" v="379"/>
    <tag k="addr:street" v="McCullough Hill Road"/>
    <tag k="addr:state" v="VT"/>
    <tag k="ref:vcgi:esiteid" v="157562"/>
  </node>
  <node id="-810" visible="true" lat="44.29797414" lon="-72.65104072">
    <tag k="addr:city" v="Middlesex"/>
    <tag k="addr:housenumber" v="411"/>
    <tag k="addr:street" v="McCullough Hill Road"/>
    <tag k="addr:state" v="VT"/>
    <tag k="ref:vcgi:esiteid" v="157563"/>
  </node>
  <node id="-811" visible="true" lat="44.31786707" lon="-72.62964072">
    <tag k="addr:city" v="Middlesex"/>
    <tag k="addr:housenumber" v="30"/>
    <tag k="addr:street" v="McCullough Hill Road"/>
    <tag k="addr:state" v="VT"/>
    <tag k="ref:vcgi:esiteid" v="157565"/>
  </node>
  <node id="-812" visible="true" lat="44.29622648" lon="-72.66699508">
    <tag k="addr:city" v="Middlesex"/>
    <tag k="addr:housenumber" v="99"/>
    <tag k="addr:street" v="Old Brook Road"/>
    <tag k="addr:state" v="VT"/>
    <tag k="ref:vcgi:esiteid" v="157566"/>
  </node>
  <node id="-814" visible="true" lat="44.26562194" lon="-72.62353344">
    <tag k="addr:city" v="Middlesex"/>
    <tag k="addr:housenumber" v="15"/>
    <tag k="addr:street" v="Bailey Meadows Road"/>
    <tag k="addr:state" v="VT"/>
    <tag k="ref:vcgi:esiteid" v="157570"/>
  </node>
  <node id="-815" visible="true" lat="44.26443613" lon="-72.62308525">
    <tag k="addr:city" v="Middlesex"/>
    <tag k="addr:housenumber" v="30"/>
    <tag k="addr:street" v="Bailey Meadows Road"/>
    <tag k="addr:state" v="VT"/>
    <tag k="ref:vcgi:esiteid" v="157571"/>
  </node>
  <node id="-816" visible="true" lat="44.35085477" lon="-72.56637187">
    <tag k="addr:city" v="Middlesex"/>
    <tag k="addr:housenumber" v="20"/>
    <tag k="addr:street" v="Vermont Route 12"/>
    <tag k="addr:state" v="VT"/>
    <tag k="ref:vcgi:esiteid" v="157573"/>
  </node>
  <node id="-817" visible="true" lat="44.34071822" lon="-72.64539302">
    <tag k="addr:city" v="Middlesex"/>
    <tag k="addr:housenumber" v="143"/>
    <tag k="addr:street" v="South Bear Swamp Road"/>
    <tag k="addr:state" v="VT"/>
    <tag k="ref:vcgi:esiteid" v="157574"/>
  </node>
  <node id="-818" visible="true" lat="44.34318068" lon="-72.64689823">
    <tag k="addr:city" v="Middlesex"/>
    <tag k="addr:housenumber" v="186"/>
    <tag k="addr:street" v="South Bear Swamp Road"/>
    <tag k="addr:state" v="VT"/>
    <tag k="ref:vcgi:esiteid" v="157575"/>
  </node>
  <node id="-820" visible="true" lat="44.35424127" lon="-72.58109721">
    <tag k="addr:city" v="Middlesex"/>
    <tag k="addr:housenumber" v="168"/>
    <tag k="addr:street" v="Wood Road"/>
    <tag k="addr:state" v="VT"/>
    <tag k="ref:vcgi:esiteid" v="157577"/>
  </node>
  <node id="-821" visible="true" lat="44.2982364" lon="-72.66883695">
    <tag k="addr:city" v="Middlesex"/>
    <tag k="addr:housenumber" v="49"/>
    <tag k="addr:street" v="Old Brook Road"/>
    <tag k="addr:state" v="VT"/>
    <tag k="ref:vcgi:esiteid" v="157578"/>
  </node>
  <node id="-822" visible="true" lat="44.28458016" lon="-72.59503644">
    <tag k="addr:city" v="Middlesex"/>
    <tag k="addr:housenumber" v="813"/>
    <tag k="addr:street" v="East Hill Road"/>
    <tag k="addr:state" v="VT"/>
    <tag k="ref:vcgi:esiteid" v="157579"/>
  </node>
  <node id="-824" visible="true" lat="44.31005438" lon="-72.67066531">
    <tag k="addr:city" v="Middlesex"/>
    <tag k="addr:housenumber" v="85"/>
    <tag k="addr:street" v="Notch Road"/>
    <tag k="addr:state" v="VT"/>
    <tag k="ref:vcgi:esiteid" v="157582"/>
  </node>
  <node id="-825" visible="true" lat="44.33281424" lon="-72.64258937">
    <tag k="addr:city" v="Middlesex"/>
    <tag k="addr:housenumber" v="65"/>
    <tag k="addr:street" v="Leland Farm Road"/>
    <tag k="addr:state" v="VT"/>
    <tag k="ref:vcgi:esiteid" v="157583"/>
  </node>
  <node id="-826" visible="true" lat="44.32961542" lon="-72.57718747">
    <tag k="addr:city" v="Middlesex"/>
    <tag k="addr:housenumber" v="395"/>
    <tag k="addr:street" v="Vermont Route 12"/>
    <tag k="addr:state" v="VT"/>
    <tag k="ref:vcgi:esiteid" v="157584"/>
  </node>
  <node id="-828" visible="true" lat="44.28260629" lon="-72.59757825">
    <tag k="addr:city" v="Middlesex"/>
    <tag k="addr:housenumber" v="143"/>
    <tag k="addr:street" v="Garand Hill"/>
    <tag k="addr:state" v="VT"/>
    <tag k="ref:vcgi:esiteid" v="157586"/>
  </node>
  <node id="-829" visible="true" lat="44.35034682" lon="-72.59911184">
    <tag k="addr:city" v="Middlesex"/>
    <tag k="addr:housenumber" v="397"/>
    <tag k="addr:street" v="Shady Rill Road"/>
    <tag k="addr:state" v="VT"/>
    <tag k="ref:vcgi:esiteid" v="157587"/>
  </node>
  <node id="-830" visible="true" lat="44.28301568" lon="-72.59879562">
    <tag k="addr:city" v="Middlesex"/>
    <tag k="addr:housenumber" v="164"/>
    <tag k="addr:street" v="Garand Hill"/>
    <tag k="addr:state" v="VT"/>
    <tag k="ref:vcgi:esiteid" v="157588"/>
  </node>
  <node id="-831" visible="true" lat="44.33649643" lon="-72.59509781">
    <tag k="addr:city" v="Middlesex"/>
    <tag k="addr:housenumber" v="456"/>
    <tag k="addr:street" v="Culver Hill Road"/>
    <tag k="addr:state" v="VT"/>
    <tag k="ref:vcgi:esiteid" v="157589"/>
  </node>
  <node id="-832" visible="true" lat="44.32584062" lon="-72.63992075">
    <tag k="addr:city" v="Middlesex"/>
    <tag k="addr:housenumber" v="776"/>
    <tag k="addr:street" v="Center Road"/>
    <tag k="addr:state" v="VT"/>
    <tag k="ref:vcgi:esiteid" v="157591"/>
  </node>
  <node id="-833" visible="true" lat="44.33231779" lon="-72.59723466">
    <tag k="addr:city" v="Middlesex"/>
    <tag k="addr:housenumber" v="393"/>
    <tag k="addr:street" v="Culver Hill Road"/>
    <tag k="addr:state" v="VT"/>
    <tag k="ref:vcgi:esiteid" v="157592"/>
  </node>
  <node id="-835" visible="true" lat="44.30178965" lon="-72.69097958">
    <tag k="addr:city" v="Middlesex"/>
    <tag k="addr:housenumber" v="1096"/>
    <tag k="addr:street" v="U.S. Route 2"/>
    <tag k="addr:state" v="VT"/>
    <tag k="ref:vcgi:esiteid" v="157595"/>
  </node>
  <node id="-836" visible="true" lat="44.36961971" lon="-72.62977128">
    <tag k="addr:city" v="Middlesex"/>
    <tag k="addr:housenumber" v="307"/>
    <tag k="addr:street" v="North Bear Swamp Road"/>
    <tag k="addr:state" v="VT"/>
    <tag k="ref:vcgi:esiteid" v="157596"/>
  </node>
  <node id="-837" visible="true" lat="44.30835199" lon="-72.63544408">
    <tag k="addr:city" v="Middlesex"/>
    <tag k="addr:housenumber" v="209"/>
    <tag k="addr:street" v="McCullough Hill Road"/>
    <tag k="addr:state" v="VT"/>
    <tag k="ref:vcgi:esiteid" v="157597"/>
  </node>
  <node id="-838" visible="true" lat="44.32417396" lon="-72.68644433">
    <tag k="addr:city" v="Middlesex"/>
    <tag k="addr:housenumber" v="424"/>
    <tag k="addr:street" v="Notch Road"/>
    <tag k="addr:state" v="VT"/>
    <tag k="ref:vcgi:esiteid" v="157598"/>
  </node>
  <node id="-839" visible="true" lat="44.31983332" lon="-72.65531026">
    <tag k="addr:city" v="Middlesex"/>
    <tag k="addr:housenumber" v="560"/>
    <tag k="addr:street" v="Center Road"/>
    <tag k="addr:state" v="VT"/>
    <tag k="ref:vcgi:esiteid" v="157599"/>
  </node>
  <node id="-840" visible="true" lat="44.29317634" lon="-72.61702785">
    <tag k="addr:city" v="Middlesex"/>
    <tag k="addr:housenumber" v="169"/>
    <tag k="addr:street" v="Davy Road"/>
    <tag k="addr:state" v="VT"/>
    <tag k="ref:vcgi:esiteid" v="157600"/>
  </node>
  <node id="-841" visible="true" lat="44.31035134" lon="-72.59825349">
    <tag k="addr:city" v="Middlesex"/>
    <tag k="addr:housenumber" v="246"/>
    <tag k="addr:street" v="Bolduc Road"/>
    <tag k="addr:state" v="VT"/>
    <tag k="ref:vcgi:esiteid" v="157601"/>
  </node>
  <node id="-842" visible="true" lat="44.29581256" lon="-72.65653171">
    <tag k="addr:city" v="Middlesex"/>
    <tag k="addr:housenumber" v="60"/>
    <tag k="addr:street" v="Merrill Drive"/>
    <tag k="addr:state" v="VT"/>
    <tag k="ref:vcgi:esiteid" v="157603"/>
  </node>
  <node id="-843" visible="true" lat="44.35344428" lon="-72.64185714">
    <tag k="addr:city" v="Middlesex"/>
    <tag k="addr:housenumber" v="406"/>
    <tag k="addr:street" v="South Bear Swamp Road"/>
    <tag k="addr:state" v="VT"/>
    <tag k="ref:vcgi:esiteid" v="157604"/>
  </node>
  <node id="-844" visible="true" lat="44.26343669" lon="-72.62299038">
    <tag k="addr:city" v="Middlesex"/>
    <tag k="addr:housenumber" v="134"/>
    <tag k="addr:street" v="Three Mile Bridge Road"/>
    <tag k="addr:state" v="VT"/>
    <tag k="ref:vcgi:esiteid" v="157605"/>
  </node>
  <node id="-845" visible="true" lat="44.26124363" lon="-72.61513656">
    <tag k="addr:city" v="Middlesex"/>
    <tag k="addr:housenumber" v="40"/>
    <tag k="addr:street" v="Three Mile Bridge Road"/>
    <tag k="addr:state" v="VT"/>
    <tag k="ref:vcgi:esiteid" v="157606"/>
  </node>
  <node id="-846" visible="true" lat="44.35561053" lon="-72.57846858">
    <tag k="addr:city" v="Middlesex"/>
    <tag k="addr:housenumber" v="200"/>
    <tag k="addr:street" v="Wood Road"/>
    <tag k="addr:state" v="VT"/>
    <tag k="ref:vcgi:esiteid" v="157608"/>
  </node>
  <node id="-847" visible="true" lat="44.31498447" lon="-72.6771084">
    <tag k="addr:city" v="Middlesex"/>
    <tag k="addr:housenumber" v="193"/>
    <tag k="addr:street" v="Notch Road"/>
    <tag k="addr:state" v="VT"/>
    <tag k="ref:vcgi:esiteid" v="157609"/>
  </node>
  <node id="-848" visible="true" lat="44.32863936" lon="-72.63963129">
    <tag k="addr:city" v="Middlesex"/>
    <tag k="addr:housenumber" v="821"/>
    <tag k="addr:street" v="Center Road"/>
    <tag k="addr:state" v="VT"/>
    <tag k="ref:vcgi:esiteid" v="157610"/>
  </node>
  <node id="-849" visible="true" lat="44.36187418" lon="-72.60965645">
    <tag k="addr:city" v="Middlesex"/>
    <tag k="addr:housenumber" v="631"/>
    <tag k="addr:street" v="West Hill Road"/>
    <tag k="addr:state" v="VT"/>
    <tag k="ref:vcgi:esiteid" v="157611"/>
  </node>
  <node id="-850" visible="true" lat="44.35408415" lon="-72.60737036">
    <tag k="addr:city" v="Middlesex"/>
    <tag k="addr:housenumber" v="47"/>
    <tag k="addr:street" v="Story Road"/>
    <tag k="addr:state" v="VT"/>
    <tag k="ref:vcgi:esiteid" v="157612"/>
  </node>
  <node id="-851" visible="true" lat="44.32147094" lon="-72.64132014">
    <tag k="addr:city" v="Middlesex"/>
    <tag k="addr:housenumber" v="13"/>
    <tag k="addr:street" v="Hemlock Road"/>
    <tag k="addr:state" v="VT"/>
    <tag k="ref:vcgi:esiteid" v="157613"/>
  </node>
  <node id="-853" visible="true" lat="44.36697042" lon="-72.64141294">
    <tag k="addr:city" v="Middlesex"/>
    <tag k="addr:housenumber" v="506"/>
    <tag k="addr:street" v="East Bear Swamp Road"/>
    <tag k="addr:state" v="VT"/>
    <tag k="ref:vcgi:esiteid" v="157615"/>
  </node>
  <node id="-854" visible="true" lat="44.35456123" lon="-72.6218124">
    <tag k="addr:city" v="Middlesex"/>
    <tag k="addr:housenumber" v="191"/>
    <tag k="addr:street" v="East Bear Swamp Road"/>
    <tag k="addr:state" v="VT"/>
    <tag k="ref:vcgi:esiteid" v="157616"/>
  </node>
  <node id="-857" visible="true" lat="44.34994205" lon="-72.59995654">
    <tag k="addr:city" v="Middlesex"/>
    <tag k="addr:housenumber" v="409"/>
    <tag k="addr:street" v="Shady Rill Road"/>
    <tag k="addr:state" v="VT"/>
    <tag k="ref:vcgi:esiteid" v="157621"/>
  </node>
  <node id="-858" visible="true" lat="44.31484432" lon="-72.59091153">
    <tag k="addr:city" v="Middlesex"/>
    <tag k="addr:housenumber" v="45"/>
    <tag k="addr:street" v="Dolan Road"/>
    <tag k="addr:state" v="VT"/>
    <tag k="ref:vcgi:esiteid" v="157622"/>
  </node>
  <node id="-859" visible="true" lat="44.35253748" lon="-72.58441636">
    <tag k="addr:city" v="Middlesex"/>
    <tag k="addr:housenumber" v="139"/>
    <tag k="addr:street" v="Wood Road"/>
    <tag k="addr:state" v="VT"/>
    <tag k="ref:vcgi:esiteid" v="157623"/>
  </node>
  <node id="-860" visible="true" lat="44.32107826" lon="-72.68827629">
    <tag k="addr:city" v="Middlesex"/>
    <tag k="addr:housenumber" v="375"/>
    <tag k="addr:street" v="Notch Road"/>
    <tag k="addr:state" v="VT"/>
    <tag k="ref:vcgi:esiteid" v="157624"/>
  </node>
  <node id="-861" visible="true" lat="44.29353716" lon="-72.60388603">
    <tag k="addr:city" v="Middlesex"/>
    <tag k="addr:housenumber" v="617"/>
    <tag k="addr:street" v="East Hill Road"/>
    <tag k="addr:state" v="VT"/>
    <tag k="ref:vcgi:esiteid" v="157625"/>
  </node>
  <node id="-862" visible="true" lat="44.36509586" lon="-72.6475873">
    <tag k="addr:city" v="Middlesex"/>
    <tag k="addr:housenumber" v="496"/>
    <tag k="addr:street" v="East Bear Swamp Road"/>
    <tag k="addr:state" v="VT"/>
    <tag k="ref:vcgi:esiteid" v="157626"/>
  </node>
  <node id="-864" visible="true" lat="44.30472685" lon="-72.59030963">
    <tag k="addr:city" v="Middlesex"/>
    <tag k="addr:housenumber" v="72"/>
    <tag k="addr:street" v="High Meadow Lane"/>
    <tag k="addr:state" v="VT"/>
    <tag k="ref:vcgi:esiteid" v="157628"/>
  </node>
  <node id="-865" visible="true" lat="44.30546487" lon="-72.59113345">
    <tag k="addr:city" v="Middlesex"/>
    <tag k="addr:housenumber" v="82"/>
    <tag k="addr:street" v="High Meadow Lane"/>
    <tag k="addr:state" v="VT"/>
    <tag k="ref:vcgi:esiteid" v="157629"/>
  </node>
  <node id="-866" visible="true" lat="44.31309076" lon="-72.65949832">
    <tag k="addr:city" v="Middlesex"/>
    <tag k="addr:housenumber" v="436"/>
    <tag k="addr:street" v="Center Road"/>
    <tag k="addr:state" v="VT"/>
    <tag k="ref:vcgi:esiteid" v="157631"/>
  </node>
  <node id="-867" visible="true" lat="44.32250264" lon="-72.65187697">
    <tag k="addr:city" v="Middlesex"/>
    <tag k="addr:housenumber" v="13"/>
    <tag k="addr:street" v="Windlea Drive"/>
    <tag k="addr:state" v="VT"/>
    <tag k="ref:vcgi:esiteid" v="157632"/>
  </node>
  <node id="-868" visible="true" lat="44.32877553" lon="-72.63105738">
    <tag k="addr:city" v="Middlesex"/>
    <tag k="addr:housenumber" v="77"/>
    <tag k="addr:street" v="Brook Road"/>
    <tag k="addr:state" v="VT"/>
    <tag k="ref:vcgi:esiteid" v="157633"/>
  </node>
  <node id="-869" visible="true" lat="44.35422935" lon="-72.6247748">
    <tag k="addr:city" v="Middlesex"/>
    <tag k="addr:housenumber" v="31"/>
    <tag k="addr:street" v="Tamarack Road"/>
    <tag k="addr:state" v="VT"/>
    <tag k="ref:vcgi:esiteid" v="157634"/>
  </node>
  <node id="-870" visible="true" lat="44.32159448" lon="-72.64252407">
    <tag k="addr:city" v="Middlesex"/>
    <tag k="addr:housenumber" v="14"/>
    <tag k="addr:street" v="Hemlock Road"/>
    <tag k="addr:state" v="VT"/>
    <tag k="ref:vcgi:esiteid" v="157636"/>
  </node>
  <node id="-871" visible="true" lat="44.33126671" lon="-72.6567262">
    <tag k="addr:city" v="Middlesex"/>
    <tag k="addr:housenumber" v="84"/>
    <tag k="addr:street" v="Simplicity Acres"/>
    <tag k="addr:state" v="VT"/>
    <tag k="ref:vcgi:esiteid" v="157637"/>
  </node>
  <node id="-872" visible="true" lat="44.33094473" lon="-72.65813675">
    <tag k="addr:city" v="Middlesex"/>
    <tag k="addr:housenumber" v="101"/>
    <tag k="addr:street" v="Simplicity Acres"/>
    <tag k="addr:state" v="VT"/>
    <tag k="ref:vcgi:esiteid" v="157638"/>
  </node>
  <node id="-873" visible="true" lat="44.31660088" lon="-72.5852877">
    <tag k="addr:city" v="Middlesex"/>
    <tag k="addr:housenumber" v="130"/>
    <tag k="addr:street" v="Culver Hill Road"/>
    <tag k="addr:state" v="VT"/>
    <tag k="ref:vcgi:esiteid" v="157639"/>
  </node>
  <node id="-874" visible="true" lat="44.30170953" lon="-72.69230064">
    <tag k="addr:city" v="Middlesex"/>
    <tag k="addr:housenumber" v="1100"/>
    <tag k="addr:street" v="U.S. Route 2"/>
    <tag k="addr:state" v="VT"/>
    <tag k="ref:vcgi:esiteid" v="157640"/>
  </node>
  <node id="-875" visible="true" lat="44.27715919" lon="-72.61738546">
    <tag k="addr:city" v="Middlesex"/>
    <tag k="addr:housenumber" v="180"/>
    <tag k="addr:street" v="Lower Sunnybrook Road"/>
    <tag k="addr:state" v="VT"/>
    <tag k="ref:vcgi:esiteid" v="157641"/>
  </node>
  <node id="-876" visible="true" lat="44.30106689" lon="-72.63675754">
    <tag k="addr:city" v="Middlesex"/>
    <tag k="addr:housenumber" v="67"/>
    <tag k="addr:street" v="Upper Barnett Hill Road"/>
    <tag k="addr:state" v="VT"/>
    <tag k="ref:vcgi:esiteid" v="157642"/>
  </node>
  <node id="-877" visible="true" lat="44.32887196" lon="-72.65529374">
    <tag k="addr:city" v="Middlesex"/>
    <tag k="addr:housenumber" v="116"/>
    <tag k="addr:street" v="Zdon Road"/>
    <tag k="addr:state" v="VT"/>
    <tag k="ref:vcgi:esiteid" v="157643"/>
  </node>
  <node id="-878" visible="true" lat="44.31730312" lon="-72.5865076">
    <tag k="addr:city" v="Middlesex"/>
    <tag k="addr:housenumber" v="132"/>
    <tag k="addr:street" v="Culver Hill Road"/>
    <tag k="addr:state" v="VT"/>
    <tag k="ref:vcgi:esiteid" v="157644"/>
  </node>
  <node id="-880" visible="true" lat="44.33384597" lon="-72.61359293">
    <tag k="addr:city" v="Middlesex"/>
    <tag k="addr:housenumber" v="137"/>
    <tag k="addr:street" v="Franks Way"/>
    <tag k="addr:state" v="VT"/>
    <tag k="ref:vcgi:esiteid" v="307368"/>
  </node>
  <node id="-881" visible="true" lat="44.3348666" lon="-72.61369881">
    <tag k="addr:city" v="Middlesex"/>
    <tag k="addr:housenumber" v="139"/>
    <tag k="addr:street" v="Franks Way"/>
    <tag k="addr:state" v="VT"/>
    <tag k="ref:vcgi:esiteid" v="307369"/>
  </node>
  <node id="-882" visible="true" lat="44.32133387" lon="-72.5878979">
    <tag k="addr:city" v="Middlesex"/>
    <tag k="addr:housenumber" v="202"/>
    <tag k="addr:street" v="Culver Hill Road"/>
    <tag k="addr:state" v="VT"/>
    <tag k="ref:vcgi:esiteid" v="307370"/>
  </node>
  <node id="-883" visible="true" lat="44.31720836" lon="-72.64088623">
    <tag k="addr:city" v="Middlesex"/>
    <tag k="addr:housenumber" v="300"/>
    <tag k="addr:street" v="Brook Road"/>
    <tag k="addr:state" v="VT"/>
    <tag k="ref:vcgi:esiteid" v="307371"/>
  </node>
  <node id="-884" visible="true" lat="44.28408099" lon="-72.59540674">
    <tag k="addr:city" v="Middlesex"/>
    <tag k="addr:housenumber" v="815"/>
    <tag k="addr:street" v="East Hill Road"/>
    <tag k="addr:state" v="VT"/>
    <tag k="ref:vcgi:esiteid" v="307750"/>
  </node>
  <node id="-886" visible="true" lat="44.33541397" lon="-72.5788303">
    <tag k="addr:city" v="Middlesex"/>
    <tag k="addr:housenumber" v="366"/>
    <tag k="addr:street" v="Vermont Route 12"/>
    <tag k="addr:state" v="VT"/>
    <tag k="ref:vcgi:esiteid" v="307755"/>
  </node>
  <node id="-887" visible="true" lat="44.25934974" lon="-72.61204047">
    <tag k="addr:city" v="Middlesex"/>
    <tag k="addr:housenumber" v="11"/>
    <tag k="addr:street" v="Three Mile Bridge Road"/>
    <tag k="addr:state" v="VT"/>
    <tag k="ref:vcgi:esiteid" v="307756"/>
  </node>
  <node id="-888" visible="true" lat="44.31971272" lon="-72.5874839">
    <tag k="addr:city" v="Middlesex"/>
    <tag k="addr:housenumber" v="184"/>
    <tag k="addr:street" v="Culver Hill Road"/>
    <tag k="addr:state" v="VT"/>
    <tag k="ref:vcgi:esiteid" v="307835"/>
  </node>
  <node id="-889" visible="true" lat="44.35046767" lon="-72.59018698">
    <tag k="addr:city" v="Middlesex"/>
    <tag k="addr:housenumber" v="72"/>
    <tag k="addr:street" v="Macey Road"/>
    <tag k="addr:state" v="VT"/>
    <tag k="ref:vcgi:esiteid" v="309208"/>
  </node>
  <node id="-890" visible="true" lat="44.35456813" lon="-72.58606228">
    <tag k="addr:city" v="Middlesex"/>
    <tag k="addr:housenumber" v="145"/>
    <tag k="addr:street" v="Wood Road"/>
    <tag k="addr:state" v="VT"/>
    <tag k="ref:vcgi:esiteid" v="311423"/>
  </node>
  <node id="-891" visible="true" lat="44.35540642" lon="-72.58099891">
    <tag k="addr:city" v="Middlesex"/>
    <tag k="addr:housenumber" v="187"/>
    <tag k="addr:street" v="Wood Road"/>
    <tag k="addr:state" v="VT"/>
    <tag k="ref:vcgi:esiteid" v="311424"/>
  </node>
  <node id="-892" visible="true" lat="44.31057498" lon="-72.66783248">
    <tag k="addr:city" v="Middlesex"/>
    <tag k="addr:housenumber" v="83"/>
    <tag k="addr:street" v="Notch Road"/>
    <tag k="addr:state" v="VT"/>
    <tag k="ref:vcgi:esiteid" v="311425"/>
  </node>
  <node id="-893" visible="true" lat="44.3002993" lon="-72.5904207">
    <tag k="addr:city" v="Middlesex"/>
    <tag k="addr:housenumber" v="110"/>
    <tag k="addr:street" v="Portal Road"/>
    <tag k="addr:state" v="VT"/>
    <tag k="ref:vcgi:esiteid" v="315305"/>
  </node>
  <node id="-894" visible="true" lat="44.35115942" lon="-72.58519318">
    <tag k="addr:city" v="Middlesex"/>
    <tag k="addr:housenumber" v="105"/>
    <tag k="addr:street" v="Wood Road"/>
    <tag k="addr:state" v="VT"/>
    <tag k="ref:vcgi:esiteid" v="315970"/>
  </node>
  <node id="-896" visible="true" lat="44.30814049" lon="-72.66605615">
    <tag k="addr:city" v="Middlesex"/>
    <tag k="addr:housenumber" v="61"/>
    <tag k="addr:street" v="Pr 12"/>
    <tag k="addr:state" v="VT"/>
    <tag k="ref:vcgi:esiteid" v="328198"/>
  </node>
  <node id="-897" visible="true" lat="44.29900431" lon="-72.65418435">
    <tag k="addr:city" v="Middlesex"/>
    <tag k="addr:housenumber" v="457"/>
    <tag k="addr:street" v="McCullough Hill Road"/>
    <tag k="addr:state" v="VT"/>
    <tag k="ref:vcgi:esiteid" v="331001"/>
  </node>
  <node id="-898" visible="true" lat="44.33839941" lon="-72.60372817">
    <tag k="addr:city" v="Middlesex"/>
    <tag k="addr:housenumber" v="28"/>
    <tag k="addr:street" v="French Road"/>
    <tag k="addr:state" v="VT"/>
    <tag k="ref:vcgi:esiteid" v="331127"/>
  </node>
  <node id="-902" visible="true" lat="44.26481467" lon="-72.62187607">
    <tag k="addr:city" v="Middlesex"/>
    <tag k="addr:housenumber" v="19B"/>
    <tag k="addr:street" v="Bailey Meadows Road"/>
    <tag k="addr:state" v="VT"/>
    <tag k="ref:vcgi:esiteid" v="332159"/>
  </node>
  <node id="-904" visible="true" lat="44.37266008" lon="-72.60866366">
    <tag k="addr:city" v="Middlesex"/>
    <tag k="addr:housenumber" v="88"/>
    <tag k="addr:street" v="Guilmette Road"/>
    <tag k="addr:state" v="VT"/>
    <tag k="ref:vcgi:esiteid" v="336543"/>
  </node>
  <node id="-905" visible="true" lat="44.36068914" lon="-72.61963301">
    <tag k="addr:city" v="Middlesex"/>
    <tag k="addr:housenumber" v="106"/>
    <tag k="addr:street" v="North Bear Swamp Road"/>
    <tag k="addr:state" v="VT"/>
    <tag k="ref:vcgi:esiteid" v="336948"/>
  </node>
  <node id="-906" visible="true" lat="44.33208475" lon="-72.64157799">
    <tag k="addr:city" v="Middlesex"/>
    <tag k="addr:housenumber" v="59"/>
    <tag k="addr:street" v="Leland Farm Road"/>
    <tag k="addr:state" v="VT"/>
    <tag k="ref:vcgi:esiteid" v="337339"/>
  </node>
  <node id="-907" visible="true" lat="44.3539232" lon="-72.58298428">
    <tag k="addr:city" v="Middlesex"/>
    <tag k="addr:housenumber" v="153"/>
    <tag k="addr:street" v="Wood Road"/>
    <tag k="addr:state" v="VT"/>
    <tag k="ref:vcgi:esiteid" v="337606"/>
  </node>
  <node id="-908" visible="true" lat="44.33263168" lon="-72.61305437">
    <tag k="addr:city" v="Middlesex"/>
    <tag k="addr:housenumber" v="131"/>
    <tag k="addr:street" v="Franks Way"/>
    <tag k="addr:state" v="VT"/>
    <tag k="ref:vcgi:esiteid" v="337657"/>
  </node>
  <node id="-909" visible="true" lat="44.32570668" lon="-72.68632091">
    <tag k="addr:city" v="Middlesex"/>
    <tag k="addr:housenumber" v="468"/>
    <tag k="addr:street" v="Notch Road"/>
    <tag k="addr:state" v="VT"/>
    <tag k="ref:vcgi:esiteid" v="338538"/>
  </node>
  <node id="-910" visible="true" lat="44.33858677" lon="-72.64104352">
    <tag k="addr:city" v="Middlesex"/>
    <tag k="addr:housenumber" v="92"/>
    <tag k="addr:street" v="South Bear Swamp Road"/>
    <tag k="addr:state" v="VT"/>
    <tag k="ref:vcgi:esiteid" v="338690"/>
  </node>
  <node id="-915" visible="true" lat="44.35218052" lon="-72.62098971">
    <tag k="addr:city" v="Middlesex"/>
    <tag k="addr:housenumber" v="33"/>
    <tag k="addr:street" v="Bushey Road"/>
    <tag k="addr:state" v="VT"/>
    <tag k="ref:vcgi:esiteid" v="342818"/>
  </node>
  <node id="-917" visible="true" lat="44.3580326" lon="-72.61533132">
    <tag k="addr:city" v="Middlesex"/>
    <tag k="addr:housenumber" v="26"/>
    <tag k="addr:street" v="North Bear Swamp Road"/>
    <tag k="addr:state" v="VT"/>
    <tag k="ref:vcgi:esiteid" v="344309"/>
  </node>
  <node id="-918" visible="true" lat="44.35641587" lon="-72.62230591">
    <tag k="addr:city" v="Middlesex"/>
    <tag k="addr:housenumber" v="202"/>
    <tag k="addr:street" v="East Bear Swamp Road"/>
    <tag k="addr:state" v="VT"/>
    <tag k="ref:vcgi:esiteid" v="344422"/>
  </node>
  <node id="-919" visible="true" lat="44.35854687" lon="-72.61619233">
    <tag k="addr:city" v="Middlesex"/>
    <tag k="addr:housenumber" v="46"/>
    <tag k="addr:street" v="North Bear Swamp Road"/>
    <tag k="addr:state" v="VT"/>
    <tag k="ref:vcgi:esiteid" v="345246"/>
  </node>
  <node id="-920" visible="true" lat="44.29621404" lon="-72.66750168">
    <tag k="addr:city" v="Middlesex"/>
    <tag k="addr:housenumber" v="97"/>
    <tag k="addr:street" v="Old Brook Road"/>
    <tag k="addr:state" v="VT"/>
    <tag k="ref:vcgi:esiteid" v="345247"/>
  </node>
  <node id="-921" visible="true" lat="44.35220103" lon="-72.58435087">
    <tag k="addr:city" v="Middlesex"/>
    <tag k="addr:housenumber" v="127"/>
    <tag k="addr:street" v="Wood Road"/>
    <tag k="addr:state" v="VT"/>
    <tag k="ref:vcgi:esiteid" v="365099"/>
  </node>
  <node id="-922" visible="true" lat="44.36952488" lon="-72.62650959">
    <tag k="addr:city" v="Middlesex"/>
    <tag k="addr:housenumber" v="264"/>
    <tag k="addr:street" v="North Bear Swamp Road"/>
    <tag k="addr:state" v="VT"/>
    <tag k="ref:vcgi:esiteid" v="445961"/>
  </node>
  <node id="-924" visible="true" lat="44.34091466" lon="-72.60840934">
    <tag k="addr:city" v="Middlesex"/>
    <tag k="addr:housenumber" v="42"/>
    <tag k="addr:street" v="French Road"/>
    <tag k="addr:state" v="VT"/>
    <tag k="ref:vcgi:esiteid" v="446549"/>
  </node>
  <node id="-925" visible="true" lat="44.29909086" lon="-72.66777208">
    <tag k="addr:city" v="Middlesex"/>
    <tag k="addr:housenumber" v="595"/>
    <tag k="addr:street" v="McCullough Hill Road"/>
    <tag k="addr:state" v="VT"/>
    <tag k="ref:vcgi:esiteid" v="447041"/>
  </node>
  <node id="-926" visible="true" lat="44.33008578" lon="-72.61910718">
    <tag k="addr:city" v="Middlesex"/>
    <tag k="addr:housenumber" v="141"/>
    <tag k="addr:street" v="Molly Supple Hill Road"/>
    <tag k="addr:state" v="VT"/>
    <tag k="ref:vcgi:esiteid" v="448408"/>
  </node>
  <node id="-927" visible="true" lat="44.31914872" lon="-72.5863227">
    <tag k="addr:city" v="Middlesex"/>
    <tag k="addr:housenumber" v="41"/>
    <tag k="addr:street" v="East Culver Drive"/>
    <tag k="addr:state" v="VT"/>
    <tag k="ref:vcgi:esiteid" v="449486"/>
  </node>
  <node id="-928" visible="true" lat="44.3370318" lon="-72.61509006">
    <tag k="addr:city" v="Middlesex"/>
    <tag k="addr:housenumber" v="73"/>
    <tag k="addr:street" v="Molly Supple Hill Road"/>
    <tag k="addr:state" v="VT"/>
    <tag k="ref:vcgi:esiteid" v="450849"/>
  </node>
  <node id="-930" visible="true" lat="44.34033608" lon="-72.6416802">
    <tag k="addr:city" v="Middlesex"/>
    <tag k="addr:housenumber" v="118"/>
    <tag k="addr:street" v="South Bear Swamp Road"/>
    <tag k="addr:state" v="VT"/>
    <tag k="ref:vcgi:esiteid" v="451007"/>
  </node>
  <node id="-931" visible="true" lat="44.29935823" lon="-72.69443443">
    <tag k="addr:city" v="Middlesex"/>
    <tag k="addr:housenumber" v="67"/>
    <tag k="addr:street" v="Welch Park Drive"/>
    <tag k="addr:state" v="VT"/>
    <tag k="ref:vcgi:esiteid" v="451154"/>
  </node>
  <node id="-932" visible="true" lat="44.32137824" lon="-72.66014122">
    <tag k="addr:city" v="Middlesex"/>
    <tag k="addr:housenumber" v="561"/>
    <tag k="addr:street" v="Center Road"/>
    <tag k="addr:state" v="VT"/>
    <tag k="ref:vcgi:esiteid" v="451613"/>
  </node>
  <node id="-933" visible="true" lat="44.3656294" lon="-72.62262918">
    <tag k="addr:city" v="Middlesex"/>
    <tag k="addr:housenumber" v="168"/>
    <tag k="addr:street" v="North Bear Swamp Road"/>
    <tag k="addr:state" v="VT"/>
    <tag k="ref:vcgi:esiteid" v="451972"/>
  </node>
  <node id="-934" visible="true" lat="44.33960277" lon="-72.64041473">
    <tag k="addr:city" v="Middlesex"/>
    <tag k="addr:housenumber" v="94"/>
    <tag k="addr:street" v="South Bear Swamp Road"/>
    <tag k="addr:state" v="VT"/>
    <tag k="ref:vcgi:esiteid" v="452339"/>
  </node>
  <node id="-935" visible="true" lat="44.32941704" lon="-72.64307404">
    <tag k="addr:city" v="Middlesex"/>
    <tag k="addr:housenumber" v="779"/>
    <tag k="addr:street" v="Center Road"/>
    <tag k="addr:state" v="VT"/>
    <tag k="ref:vcgi:esiteid" v="453017"/>
  </node>
  <node id="-936" visible="true" lat="44.31751203" lon="-72.58281282">
    <tag k="addr:city" v="Middlesex"/>
    <tag k="addr:housenumber" v="34"/>
    <tag k="addr:street" v="East Culver Drive"/>
    <tag k="addr:state" v="VT"/>
    <tag k="ref:vcgi:esiteid" v="454293"/>
  </node>
  <node id="-937" visible="true" lat="44.33917617" lon="-72.60750028">
    <tag k="addr:city" v="Middlesex"/>
    <tag k="addr:housenumber" v="20"/>
    <tag k="addr:street" v="French Road"/>
    <tag k="addr:state" v="VT"/>
    <tag k="ref:vcgi:esiteid" v="610449"/>
  </node>
  <node id="-938" visible="true" lat="44.35599687" lon="-72.61976021">
    <tag k="addr:city" v="Middlesex"/>
    <tag k="addr:housenumber" v="178"/>
    <tag k="addr:street" v="East Bear Swamp Road"/>
    <tag k="addr:state" v="VT"/>
    <tag k="ref:vcgi:esiteid" v="611131"/>
  </node>
  <node id="-939" visible="true" lat="44.35177743" lon="-72.58621404">
    <tag k="addr:city" v="Middlesex"/>
    <tag k="addr:housenumber" v="89"/>
    <tag k="addr:street" v="Wood Road"/>
    <tag k="addr:state" v="VT"/>
    <tag k="ref:vcgi:esiteid" v="611411"/>
  </node>
  <node id="-940" visible="true" lat="44.30975011" lon="-72.63494713">
    <tag k="addr:city" v="Middlesex"/>
    <tag k="addr:housenumber" v="178"/>
    <tag k="addr:street" v="McCullough Hill Road"/>
    <tag k="addr:state" v="VT"/>
    <tag k="ref:vcgi:esiteid" v="611577"/>
  </node>
  <node id="-941" visible="true" lat="44.35594147" lon="-72.60576674">
    <tag k="addr:city" v="Middlesex"/>
    <tag k="addr:housenumber" v="62"/>
    <tag k="addr:street" v="Story Road"/>
    <tag k="addr:state" v="VT"/>
    <tag k="ref:vcgi:esiteid" v="611792"/>
  </node>
  <node id="-943" visible="true" lat="44.30923386" lon="-72.59158895">
    <tag k="addr:city" v="Middlesex"/>
    <tag k="addr:housenumber" v="159"/>
    <tag k="addr:street" v="Bolduc Road"/>
    <tag k="addr:state" v="VT"/>
    <tag k="ref:vcgi:esiteid" v="613466"/>
  </node>
  <node id="-944" visible="true" lat="44.29094929" lon="-72.58994982">
    <tag k="addr:city" v="Middlesex"/>
    <tag k="addr:housenumber" v="215"/>
    <tag k="addr:street" v="Portal Road"/>
    <tag k="addr:state" v="VT"/>
    <tag k="ref:vcgi:esiteid" v="617955"/>
  </node>
  <node id="-945" visible="true" lat="44.32394203" lon="-72.58944748">
    <tag k="addr:city" v="Middlesex"/>
    <tag k="addr:housenumber" v="236"/>
    <tag k="addr:street" v="Culver Hill Road"/>
    <tag k="addr:state" v="VT"/>
    <tag k="ref:vcgi:esiteid" v="618449"/>
  </node>
  <node id="-946" visible="true" lat="44.29323111" lon="-72.67938456">
    <tag k="addr:city" v="Middlesex"/>
    <tag k="addr:housenumber" v="922"/>
    <tag k="addr:street" v="U.S. Route 2"/>
    <tag k="addr:state" v="VT"/>
    <tag k="ref:vcgi:esiteid" v="618450"/>
  </node>
  <node id="-947" visible="true" lat="44.33993645" lon="-72.60037192">
    <tag k="addr:city" v="Middlesex"/>
    <tag k="addr:housenumber" v="112"/>
    <tag k="addr:street" v="French Road"/>
    <tag k="addr:state" v="VT"/>
    <tag k="ref:vcgi:esiteid" v="620262"/>
  </node>
  <node id="-948" visible="true" lat="44.33407008" lon="-72.61932016">
    <tag k="addr:city" v="Middlesex"/>
    <tag k="addr:housenumber" v="149"/>
    <tag k="addr:street" v="Molly Supple Hill Road"/>
    <tag k="addr:state" v="VT"/>
    <tag k="ref:vcgi:esiteid" v="700127"/>
  </node>
  <node id="-949" visible="true" lat="44.31774204" lon="-72.59111616">
    <tag k="addr:city" v="Middlesex"/>
    <tag k="addr:housenumber" v="20"/>
    <tag k="addr:street" v="Dolan Road"/>
    <tag k="addr:state" v="VT"/>
    <tag k="ref:vcgi:esiteid" v="750467"/>
  </node>
  <node id="-950" visible="true" lat="44.35047273" lon="-72.62406896">
    <tag k="addr:city" v="Middlesex"/>
    <tag k="addr:housenumber" v="103"/>
    <tag k="addr:street" v="Bushey Road"/>
    <tag k="addr:state" v="VT"/>
    <tag k="ref:vcgi:esiteid" v="750468"/>
  </node>
  <node id="-952" visible="true" lat="44.3091768" lon="-72.66737863">
    <tag k="addr:city" v="Middlesex"/>
    <tag k="addr:housenumber" v="30"/>
    <tag k="addr:street" v="Pr 12"/>
    <tag k="addr:state" v="VT"/>
    <tag k="ref:vcgi:esiteid" v="751281"/>
  </node>
  <node id="-953" visible="true" lat="44.31218143" lon="-72.68303314">
    <tag k="addr:city" v="Middlesex"/>
    <tag k="addr:housenumber" v="245"/>
    <tag k="addr:street" v="Notch Road"/>
    <tag k="addr:state" v="VT"/>
    <tag k="ref:vcgi:esiteid" v="751425"/>
  </node>
  <node id="-954" visible="true" lat="44.31013441" lon="-72.68253265">
    <tag k="addr:city" v="Middlesex"/>
    <tag k="addr:housenumber" v="247"/>
    <tag k="addr:street" v="Notch Road"/>
    <tag k="addr:state" v="VT"/>
    <tag k="ref:vcgi:esiteid" v="751426"/>
  </node>
  <node id="-955" visible="true" lat="44.32709737" lon="-72.64329214">
    <tag k="addr:city" v="Middlesex"/>
    <tag k="addr:housenumber" v="770"/>
    <tag k="addr:street" v="Center Road"/>
    <tag k="addr:state" v="VT"/>
    <tag k="ref:vcgi:esiteid" v="751427"/>
  </node>
  <node id="-956" visible="true" lat="44.35025371" lon="-72.56437541">
    <tag k="addr:city" v="Middlesex"/>
    <tag k="addr:housenumber" v="11"/>
    <tag k="addr:street" v="Vermont Route 12"/>
    <tag k="addr:state" v="VT"/>
    <tag k="ref:vcgi:esiteid" v="751866"/>
  </node>
  <node id="-957" visible="true" lat="44.29865251" lon="-72.68213488">
    <tag k="addr:city" v="Middlesex"/>
    <tag k="addr:housenumber" v="54"/>
    <tag k="addr:street" v="Center Road"/>
    <tag k="addr:state" v="VT"/>
    <tag k="ref:vcgi:esiteid" v="751867"/>
  </node>
  <node id="-958" visible="true" lat="44.29661495" lon="-72.66784232">
    <tag k="addr:city" v="Middlesex"/>
    <tag k="addr:housenumber" v="102"/>
    <tag k="addr:street" v="Old Brook Road"/>
    <tag k="addr:state" v="VT"/>
    <tag k="ref:vcgi:esiteid" v="751868"/>
  </node>
  <node id="-963" visible="true" lat="44.3195879" lon="-72.68797656">
    <tag k="addr:city" v="Middlesex"/>
    <tag k="addr:housenumber" v="369"/>
    <tag k="addr:street" v="Notch Road"/>
    <tag k="addr:state" v="VT"/>
    <tag k="ref:vcgi:esiteid" v="752019"/>
  </node>
  <node id="-964" visible="true" lat="44.35632689" lon="-72.63774126">
    <tag k="addr:city" v="Middlesex"/>
    <tag k="addr:housenumber" v="339"/>
    <tag k="addr:street" v="East Bear Swamp Road"/>
    <tag k="addr:state" v="VT"/>
    <tag k="ref:vcgi:esiteid" v="752020"/>
  </node>
  <node id="-965" visible="true" lat="44.31923364" lon="-72.68498844">
    <tag k="addr:city" v="Middlesex"/>
    <tag k="addr:housenumber" v="296"/>
    <tag k="addr:street" v="Notch Road"/>
    <tag k="addr:state" v="VT"/>
    <tag k="ref:vcgi:esiteid" v="752032"/>
  </node>
  <node id="-966" visible="true" lat="44.30069103" lon="-72.6825918">
    <tag k="addr:city" v="Middlesex"/>
    <tag k="addr:housenumber" v="69"/>
    <tag k="addr:street" v="Center Road"/>
    <tag k="addr:state" v="VT"/>
    <tag k="ref:vcgi:esiteid" v="752124"/>
  </node>
  <node id="-967" visible="true" lat="44.2942519" lon="-72.61550754">
    <tag k="addr:city" v="Middlesex"/>
    <tag k="addr:housenumber" v="164"/>
    <tag k="addr:street" v="Davy Road"/>
    <tag k="addr:state" v="VT"/>
    <tag k="ref:vcgi:esiteid" v="753244"/>
  </node>
  <node id="-968" visible="true" lat="44.33211231" lon="-72.65465398">
    <tag k="addr:city" v="Middlesex"/>
    <tag k="addr:housenumber" v="150"/>
    <tag k="addr:street" v="Zdon Road"/>
    <tag k="addr:state" v="VT"/>
    <tag k="ref:vcgi:esiteid" v="753738"/>
  </node>
  <node id="-969" visible="true" lat="44.31770042" lon="-72.69044556">
    <tag k="addr:city" v="Middlesex"/>
    <tag k="addr:housenumber" v="4"/>
    <tag k="addr:street" v="Mead Road"/>
    <tag k="addr:state" v="VT"/>
    <tag k="ref:vcgi:esiteid" v="753740"/>
  </node>
  <node id="-970" visible="true" lat="44.34153837" lon="-72.58380453">
    <tag k="addr:city" v="Middlesex"/>
    <tag k="addr:housenumber" v="32"/>
    <tag k="addr:street" v="Fox Run Road"/>
    <tag k="addr:state" v="VT"/>
    <tag k="ref:vcgi:esiteid" v="753809"/>
  </node>
  <node id="-971" visible="true" lat="44.34156265" lon="-72.58336801">
    <tag k="addr:city" v="Middlesex"/>
    <tag k="addr:housenumber" v="28"/>
    <tag k="addr:street" v="Fox Run Road"/>
    <tag k="addr:state" v="VT"/>
    <tag k="ref:vcgi:esiteid" v="753810"/>
  </node>
  <node id="-972" visible="true" lat="44.34136035" lon="-72.58303251">
    <tag k="addr:city" v="Middlesex"/>
    <tag k="addr:housenumber" v="24"/>
    <tag k="addr:street" v="Fox Run Road"/>
    <tag k="addr:state" v="VT"/>
    <tag k="ref:vcgi:esiteid" v="753811"/>
  </node>
  <node id="-973" visible="true" lat="44.35763701" lon="-72.62910128">
    <tag k="addr:city" v="Middlesex"/>
    <tag k="addr:housenumber" v="264"/>
    <tag k="addr:street" v="East Bear Swamp Road"/>
    <tag k="addr:state" v="VT"/>
    <tag k="ref:vcgi:esiteid" v="753858"/>
  </node>
  <node id="-974" visible="true" lat="44.33223038" lon="-72.65547826">
    <tag k="addr:city" v="Middlesex"/>
    <tag k="addr:housenumber" v="151"/>
    <tag k="addr:street" v="Zdon Road"/>
    <tag k="addr:state" v="VT"/>
    <tag k="ref:vcgi:esiteid" v="753859"/>
  </node>
  <node id="-975" visible="true" lat="44.31605531" lon="-72.58316079">
    <tag k="addr:city" v="Middlesex"/>
    <tag k="addr:housenumber" v="128"/>
    <tag k="addr:street" v="Culver Hill Road"/>
    <tag k="addr:state" v="VT"/>
    <tag k="ref:vcgi:esiteid" v="754266"/>
  </node>
  <node id="-976" visible="true" lat="44.34073326" lon="-72.59898092">
    <tag k="addr:city" v="Middlesex"/>
    <tag k="addr:housenumber" v="133"/>
    <tag k="addr:street" v="French Road"/>
    <tag k="addr:state" v="VT"/>
    <tag k="ref:vcgi:esiteid" v="756062"/>
  </node>
  <node id="-977" visible="true" lat="44.35245636" lon="-72.61203047">
    <tag k="addr:city" v="Middlesex"/>
    <tag k="addr:housenumber" v="68"/>
    <tag k="addr:street" v="East Bear Swamp Road"/>
    <tag k="addr:state" v="VT"/>
    <tag k="ref:vcgi:esiteid" v="756401"/>
  </node>
  <node id="-978" visible="true" lat="44.35146646" lon="-72.61359543">
    <tag k="addr:city" v="Middlesex"/>
    <tag k="addr:housenumber" v="67"/>
    <tag k="addr:street" v="East Bear Swamp Road"/>
    <tag k="addr:state" v="VT"/>
    <tag k="ref:vcgi:esiteid" v="756402"/>
  </node>
  <node id="-979" visible="true" lat="44.32444091" lon="-72.63575237">
    <tag k="addr:city" v="Middlesex"/>
    <tag k="addr:housenumber" v="140"/>
    <tag k="addr:street" v="Brook Road"/>
    <tag k="addr:state" v="VT"/>
    <tag k="ref:vcgi:esiteid" v="758628"/>
  </node>
  <node id="-980" visible="true" lat="44.31302059" lon="-72.57827812">
    <tag k="addr:city" v="Middlesex"/>
    <tag k="addr:housenumber" v="648"/>
    <tag k="addr:street" v="Vermont Route 12"/>
    <tag k="addr:state" v="VT"/>
    <tag k="ref:vcgi:esiteid" v="760368"/>
  </node>
  <node id="-981" visible="true" lat="44.32928133" lon="-72.63856027">
    <tag k="addr:city" v="Middlesex"/>
    <tag k="addr:housenumber" v="827"/>
    <tag k="addr:street" v="Center Road"/>
    <tag k="addr:state" v="VT"/>
    <tag k="ref:vcgi:esiteid" v="761043"/>
  </node>
  <node id="-982" visible="true" lat="44.33449245" lon="-72.64724993">
    <tag k="addr:city" v="Middlesex"/>
    <tag k="addr:housenumber" v="129"/>
    <tag k="addr:street" v="Leland Farm Road"/>
    <tag k="addr:state" v="VT"/>
    <tag k="ref:vcgi:esiteid" v="761219"/>
  </node>
  <node id="-983" visible="true" lat="44.29733729" lon="-72.65670621">
    <tag k="addr:city" v="Middlesex"/>
    <tag k="addr:housenumber" v="31"/>
    <tag k="addr:street" v="Merrill Drive"/>
    <tag k="addr:state" v="VT"/>
    <tag k="ref:vcgi:esiteid" v="761715"/>
  </node>
  <node id="-984" visible="true" lat="44.31601246" lon="-72.59178979">
    <tag k="addr:city" v="Middlesex"/>
    <tag k="addr:housenumber" v="44"/>
    <tag k="addr:street" v="Dolan Road"/>
    <tag k="addr:state" v="VT"/>
    <tag k="ref:vcgi:esiteid" v="762499"/>
  </node>
  <node id="-985" visible="true" lat="44.36798386" lon="-72.61578549">
    <tag k="addr:city" v="Middlesex"/>
    <tag k="addr:housenumber" v="162"/>
    <tag k="addr:street" v="Nellie Chase Road"/>
    <tag k="addr:state" v="VT"/>
    <tag k="ref:vcgi:esiteid" v="762500"/>
  </node>
  <node id="-989" visible="true" lat="44.2808403" lon="-72.61687371">
    <tag k="addr:city" v="Middlesex"/>
    <tag k="addr:housenumber" v="205"/>
    <tag k="addr:street" v="Lower Sunnybrook Road"/>
    <tag k="addr:state" v="VT"/>
    <tag k="ref:vcgi:esiteid" v="762504"/>
  </node>
  <node id="-990" visible="true" lat="44.36473674" lon="-72.60450666">
    <tag k="addr:city" v="Middlesex"/>
    <tag k="addr:housenumber" v="379"/>
    <tag k="addr:street" v="Macey Road"/>
    <tag k="addr:state" v="VT"/>
    <tag k="ref:vcgi:esiteid" v="762505"/>
  </node>
  <node id="-991" visible="true" lat="44.33994301" lon="-72.61099966">
    <tag k="addr:city" v="Middlesex"/>
    <tag k="addr:housenumber" v="25"/>
    <tag k="addr:street" v="Molly Supple Hill Road"/>
    <tag k="addr:state" v="VT"/>
    <tag k="ref:vcgi:esiteid" v="762673"/>
  </node>
  <node id="-992" visible="true" lat="44.36785549" lon="-72.62230534">
    <tag k="addr:city" v="Middlesex"/>
    <tag k="addr:housenumber" v="236"/>
    <tag k="addr:street" v="North Bear Swamp Road"/>
    <tag k="addr:state" v="VT"/>
    <tag k="ref:vcgi:esiteid" v="764174"/>
  </node>
  <node id="-993" visible="true" lat="44.37147388" lon="-72.63327229">
    <tag k="addr:city" v="Middlesex"/>
    <tag k="addr:housenumber" v="331"/>
    <tag k="addr:street" v="North Bear Swamp Road"/>
    <tag k="addr:state" v="VT"/>
    <tag k="ref:vcgi:esiteid" v="764862"/>
  </node>
  <node id="-994" visible="true" lat="44.32928105" lon="-72.68887763">
    <tag k="addr:city" v="Middlesex"/>
    <tag k="addr:housenumber" v="514"/>
    <tag k="addr:street" v="Notch Road"/>
    <tag k="addr:state" v="VT"/>
    <tag k="ref:vcgi:esiteid" v="764863"/>
  </node>
  <node id="-995" visible="true" lat="44.2942816" lon="-72.6433199">
    <tag k="addr:city" v="Middlesex"/>
    <tag k="addr:housenumber" v="160"/>
    <tag k="addr:street" v="Upper Barnett Hill Road"/>
    <tag k="addr:state" v="VT"/>
    <tag k="ref:vcgi:esiteid" v="764864"/>
  </node>
  <node id="-996" visible="true" lat="44.29356599" lon="-72.6171969">
    <tag k="addr:city" v="Middlesex"/>
    <tag k="addr:housenumber" v="180"/>
    <tag k="addr:street" v="Davy Road"/>
    <tag k="addr:state" v="VT"/>
    <tag k="ref:vcgi:esiteid" v="764865"/>
  </node>
  <node id="-997" visible="true" lat="44.28156158" lon="-72.61190632">
    <tag k="addr:city" v="Middlesex"/>
    <tag k="addr:housenumber" v="150"/>
    <tag k="addr:street" v="Upper Sunnybrook Road"/>
    <tag k="addr:state" v="VT"/>
    <tag k="ref:vcgi:esiteid" v="764866"/>
  </node>
  <node id="-999" visible="true" lat="44.29660871" lon="-72.68308411">
    <tag k="addr:city" v="Middlesex"/>
    <tag k="addr:housenumber" v="494"/>
    <tag k="addr:street" v="Interstate 89 South"/>
    <tag k="addr:state" v="VT"/>
    <tag k="ref:vcgi:esiteid" v="1050677"/>
  </node>
</osm>
