<?xml version="1.0" encoding="UTF-8"?>
<osm version="0.6" generator="JOSM">
  <node id="-126" visible="true" lat="44.01535899" lon="-73.16991351">
    <tag k="addr:city" v="Middlebury"/>
    <tag k="addr:housenumber" v="111"/>
    <tag k="addr:street" v="Maple Street"/>
    <tag k="addr:postcode" v="05753"/>
    <tag k="addr:state" v="VT"/>
    <tag k="ref:vcgi:esiteid" v="154795"/>
  </node>
  <node id="-146" visible="true" lat="44.01073565" lon="-73.16450428">
    <tag k="addr:city" v="Middlebury"/>
    <tag k="addr:housenumber" v="40"/>
    <tag k="addr:street" v="Court Street"/>
    <tag k="addr:postcode" v="05753"/>
    <tag k="addr:state" v="VT"/>
    <tag k="ref:vcgi:esiteid" v="155221"/>
  </node>
  <node id="-229" visible="true" lat="44.01291944" lon="-73.16913659">
    <tag k="addr:city" v="Middlebury"/>
    <tag k="addr:housenumber" v="68"/>
    <tag k="addr:street" v="Main Street"/>
    <tag k="addr:postcode" v="05753"/>
    <tag k="addr:state" v="VT"/>
    <tag k="ref:vcgi:esiteid" v="155030"/>
  </node>
  <node id="-254" visible="true" lat="44.01394999" lon="-73.16850321">
    <tag k="addr:city" v="Middlebury"/>
    <tag k="addr:housenumber" v="38"/>
    <tag k="addr:street" v="Main Street"/>
    <tag k="addr:postcode" v="05753"/>
    <tag k="addr:state" v="VT"/>
    <tag k="ref:vcgi:esiteid" v="154934"/>
  </node>
  <node id="-273" visible="true" lat="44.01486213" lon="-73.16606698">
    <tag k="addr:city" v="Middlebury"/>
    <tag k="addr:housenumber" v="14"/>
    <tag k="addr:street" v="Court Square"/>
    <tag k="addr:postcode" v="05753"/>
    <tag k="addr:state" v="VT"/>
    <tag k="ref:vcgi:esiteid" v="154868"/>
  </node>
  <node id="-371" visible="true" lat="44.00441566" lon="-73.17743034">
    <tag k="addr:city" v="Middlebury"/>
    <tag k="addr:housenumber" v="219"/>
    <tag k="addr:street" v="South Main Street"/>
    <tag k="addr:postcode" v="05753"/>
    <tag k="addr:state" v="VT"/>
    <tag k="ref:vcgi:esiteid" v="155654"/>
  </node>
  <node id="-433" visible="true" lat="44.013045" lon="-73.16906559">
    <tag k="addr:city" v="Middlebury"/>
    <tag k="addr:housenumber" v="66"/>
    <tag k="addr:street" v="Main Street"/>
    <tag k="addr:postcode" v="05753"/>
    <tag k="addr:state" v="VT"/>
    <tag k="ref:vcgi:esiteid" v="155015"/>
  </node>
  <node id="-450" visible="true" lat="44.01605595" lon="-73.15793308">
    <tag k="addr:city" v="Middlebury"/>
    <tag k="addr:housenumber" v="68"/>
    <tag k="addr:street" v="Seminary Street Extension"/>
    <tag k="addr:postcode" v="05753"/>
    <tag k="addr:state" v="VT"/>
    <tag k="ref:vcgi:esiteid" v="154743"/>
  </node>
  <node id="-488" visible="true" lat="44.03548217" lon="-73.16896227">
    <tag k="addr:city" v="Middlebury"/>
    <tag k="addr:housenumber" v="1197"/>
    <tag k="addr:street" v="Exchange Street"/>
    <tag k="addr:postcode" v="05753"/>
    <tag k="addr:state" v="VT"/>
    <tag k="ref:vcgi:esiteid" v="153966"/>
  </node>
  <node id="-536" visible="true" lat="44.01354855" lon="-73.16870864">
    <tag k="addr:city" v="Middlebury"/>
    <tag k="addr:housenumber" v="48"/>
    <tag k="addr:street" v="Main Street"/>
    <tag k="addr:postcode" v="05753"/>
    <tag k="addr:state" v="VT"/>
    <tag k="ref:vcgi:esiteid" v="154970"/>
  </node>
  <node id="-562" visible="true" lat="44.03663293" lon="-73.16340184">
    <tag k="addr:city" v="Middlebury"/>
    <tag k="addr:housenumber" v="1469"/>
    <tag k="addr:street" v="Exchange Street"/>
    <tag k="addr:postcode" v="05753"/>
    <tag k="addr:state" v="VT"/>
    <tag k="ref:vcgi:esiteid" v="153948"/>
  </node>
  <node id="-577" visible="true" lat="44.01220693" lon="-73.16404376">
    <tag k="addr:city" v="Middlebury"/>
    <tag k="addr:housenumber" v="25"/>
    <tag k="addr:street" v="Court Street"/>
    <tag k="addr:postcode" v="05753"/>
    <tag k="addr:state" v="VT"/>
    <tag k="ref:vcgi:esiteid" v="155114"/>
  </node>
  <node id="-674" visible="true" lat="44.01309466" lon="-73.16902328">
    <tag k="addr:city" v="Middlebury"/>
    <tag k="addr:housenumber" v="64"/>
    <tag k="addr:street" v="Main Street"/>
    <tag k="addr:postcode" v="05753"/>
    <tag k="addr:state" v="VT"/>
    <tag k="ref:vcgi:esiteid" v="155008"/>
  </node>
  <node id="-701" visible="true" lat="44.01270691" lon="-73.16988341">
    <tag k="addr:city" v="Middlebury"/>
    <tag k="addr:housenumber" v="2"/>
    <tag k="addr:street" v="Park Street"/>
    <tag k="addr:postcode" v="05753"/>
    <tag k="addr:state" v="VT"/>
    <tag k="ref:vcgi:esiteid" v="155059"/>
  </node>
  <node id="-729" visible="true" lat="44.01178031" lon="-73.17078812">
    <tag k="addr:city" v="Middlebury"/>
    <tag k="addr:housenumber" v="54"/>
    <tag k="addr:street" v="College Street"/>
    <tag k="addr:postcode" v="05753"/>
    <tag k="addr:state" v="VT"/>
    <tag k="ref:vcgi:esiteid" v="155144"/>
  </node>
  <node id="-733" visible="true" lat="44.01513355" lon="-73.16446269">
    <tag k="addr:city" v="Middlebury"/>
    <tag k="addr:housenumber" v="15"/>
    <tag k="addr:street" v="Washington Street"/>
    <tag k="addr:postcode" v="05753"/>
    <tag k="addr:state" v="VT"/>
    <tag k="ref:vcgi:esiteid" v="154839"/>
  </node>
  <node id="-788" visible="true" lat="44.00034713" lon="-73.14466094">
    <tag k="addr:city" v="Middlebury"/>
    <tag k="addr:housenumber" v="236"/>
    <tag k="addr:street" v="Boardman Street"/>
    <tag k="addr:postcode" v="05753"/>
    <tag k="addr:state" v="VT"/>
    <tag k="ref:vcgi:esiteid" v="155762"/>
  </node>
  <node id="-884" visible="true" lat="44.01376515" lon="-73.16857242">
    <tag k="addr:city" v="Middlebury"/>
    <tag k="addr:housenumber" v="42"/>
    <tag k="addr:street" v="Main Street"/>
    <tag k="addr:postcode" v="05753"/>
    <tag k="addr:state" v="VT"/>
    <tag k="ref:vcgi:esiteid" v="154941"/>
  </node>
  <node id="-1073" visible="true" lat="44.01840792" lon="-73.17247193">
    <tag k="addr:city" v="Middlebury"/>
    <tag k="addr:housenumber" v="1"/>
    <tag k="addr:street" v="Lucius Shaw Lane"/>
    <tag k="addr:postcode" v="05753"/>
    <tag k="addr:state" v="VT"/>
    <tag k="ref:vcgi:esiteid" v="156628"/>
  </node>
  <node id="-1202" visible="true" lat="44.02713005" lon="-73.1700833">
    <tag k="addr:city" v="Middlebury"/>
    <tag k="addr:housenumber" v="616"/>
    <tag k="addr:street" v="Exchange Street"/>
    <tag k="addr:postcode" v="05753"/>
    <tag k="addr:state" v="VT"/>
    <tag k="ref:vcgi:esiteid" v="154107"/>
  </node>
  <node id="-1270" visible="true" lat="44.01284529" lon="-73.16877647">
    <tag k="addr:city" v="Middlebury"/>
    <tag k="addr:housenumber" v="63"/>
    <tag k="addr:street" v="Main Street"/>
    <tag k="addr:postcode" v="05753"/>
    <tag k="addr:state" v="VT"/>
    <tag k="ref:vcgi:esiteid" v="155039"/>
  </node>
  <node id="-1278" visible="true" lat="44.01265859" lon="-73.16605485">
    <tag k="addr:city" v="Middlebury"/>
    <tag k="addr:housenumber" v="111"/>
    <tag k="addr:street" v="South Pleasant Street"/>
    <tag k="addr:postcode" v="05753"/>
    <tag k="addr:state" v="VT"/>
    <tag k="ref:vcgi:esiteid" v="155080"/>
  </node>
  <node id="-1296" visible="true" lat="44.02963883" lon="-73.16988689">
    <tag k="addr:city" v="Middlebury"/>
    <tag k="addr:housenumber" v="812"/>
    <tag k="addr:street" v="Exchange Street"/>
    <tag k="addr:postcode" v="05753"/>
    <tag k="addr:state" v="VT"/>
    <tag k="ref:vcgi:esiteid" v="154031"/>
  </node>
  <node id="-1312" visible="true" lat="44.01849119" lon="-73.15946695">
    <tag k="addr:city" v="Middlebury"/>
    <tag k="addr:housenumber" v="139"/>
    <tag k="addr:street" v="Washington Street Extension"/>
    <tag k="addr:postcode" v="05753"/>
    <tag k="addr:state" v="VT"/>
    <tag k="ref:vcgi:esiteid" v="154532"/>
  </node>
  <node id="-1347" visible="true" lat="44.0003148" lon="-73.1457286">
    <tag k="addr:city" v="Middlebury"/>
    <tag k="addr:housenumber" v="99"/>
    <tag k="addr:street" v="Wilson Road"/>
    <tag k="addr:postcode" v="05753"/>
    <tag k="addr:state" v="VT"/>
    <tag k="ref:vcgi:esiteid" v="155768"/>
  </node>
  <node id="-1359" visible="true" lat="44.01403112" lon="-73.16851423">
    <tag k="addr:city" v="Middlebury"/>
    <tag k="addr:housenumber" v="34"/>
    <tag k="addr:street" v="Main Street"/>
    <tag k="addr:postcode" v="05753"/>
    <tag k="addr:state" v="VT"/>
    <tag k="ref:vcgi:esiteid" v="154929"/>
  </node>
  <node id="-1365" visible="true" lat="44.01526626" lon="-73.16904781">
    <tag k="addr:city" v="Middlebury"/>
    <tag k="addr:housenumber" v="211"/>
    <tag k="addr:street" v="Maple Street"/>
    <tag k="addr:postcode" v="05753"/>
    <tag k="addr:state" v="VT"/>
    <tag k="ref:vcgi:esiteid" v="332727"/>
  </node>
  <node id="-1394" visible="true" lat="44.01478255" lon="-73.16506251">
    <tag k="addr:city" v="Middlebury"/>
    <tag k="addr:housenumber" v="7"/>
    <tag k="addr:street" v="Washington Street"/>
    <tag k="addr:postcode" v="05753"/>
    <tag k="addr:state" v="VT"/>
    <tag k="ref:vcgi:esiteid" v="154876"/>
  </node>
  <node id="-1422" visible="true" lat="44.00679397" lon="-73.17636871">
    <tag k="addr:city" v="Middlebury"/>
    <tag k="addr:housenumber" v="136"/>
    <tag k="addr:street" v="South Main Street"/>
    <tag k="addr:postcode" v="05753"/>
    <tag k="addr:state" v="VT"/>
    <tag k="ref:vcgi:esiteid" v="155558"/>
  </node>
  <node id="-1447" visible="true" lat="44.01316225" lon="-73.17644024">
    <tag k="addr:city" v="Middlebury"/>
    <tag k="addr:housenumber" v="75"/>
    <tag k="addr:street" v="Shannon Street"/>
    <tag k="addr:postcode" v="05753"/>
    <tag k="addr:state" v="VT"/>
    <tag k="ref:vcgi:esiteid" v="154983"/>
  </node>
  <node id="-1508" visible="true" lat="44.00674153" lon="-73.15926975">
    <tag k="addr:city" v="Middlebury"/>
    <tag k="addr:housenumber" v="93"/>
    <tag k="addr:street" v="Court Street"/>
    <tag k="addr:postcode" v="05753"/>
    <tag k="addr:state" v="VT"/>
    <tag k="ref:vcgi:esiteid" v="156616"/>
  </node>
  <node id="-1514" visible="true" lat="44.0214035" lon="-73.16995954">
    <tag k="addr:city" v="Middlebury"/>
    <tag k="addr:housenumber" v="213"/>
    <tag k="addr:street" v="Exchange Street"/>
    <tag k="addr:postcode" v="05753"/>
    <tag k="addr:state" v="VT"/>
    <tag k="ref:vcgi:esiteid" v="154307"/>
  </node>
  <node id="-1546" visible="true" lat="43.99882504" lon="-73.14289961">
    <tag k="addr:city" v="Middlebury"/>
    <tag k="addr:housenumber" v="360"/>
    <tag k="addr:street" v="Boardman Street"/>
    <tag k="addr:postcode" v="05753"/>
    <tag k="addr:state" v="VT"/>
    <tag k="ref:vcgi:esiteid" v="156550"/>
  </node>
  <node id="-1567" visible="true" lat="44.01864242" lon="-73.16983795">
    <tag k="addr:city" v="Middlebury"/>
    <tag k="addr:housenumber" v="21"/>
    <tag k="addr:street" v="Macintyre Lane"/>
    <tag k="addr:postcode" v="05753"/>
    <tag k="addr:state" v="VT"/>
    <tag k="ref:vcgi:esiteid" v="154505"/>
  </node>
  <node id="-1654" visible="true" lat="44.01169845" lon="-73.18124081">
    <tag k="addr:city" v="Middlebury"/>
    <tag k="addr:housenumber" v="160"/>
    <tag k="addr:street" v="HMKL Way"/>
    <tag k="addr:postcode" v="05753"/>
    <tag k="addr:state" v="VT"/>
    <tag k="ref:vcgi:esiteid" v="155140"/>
  </node>
  <node id="-1696" visible="true" lat="44.01429818" lon="-73.16843656">
    <tag k="addr:city" v="Middlebury"/>
    <tag k="addr:housenumber" v="30"/>
    <tag k="addr:street" v="Main Street"/>
    <tag k="addr:postcode" v="05753"/>
    <tag k="addr:state" v="VT"/>
    <tag k="ref:vcgi:esiteid" v="154912"/>
  </node>
  <node id="-1697" visible="true" lat="44.01510844" lon="-73.16981547">
    <tag k="addr:city" v="Middlebury"/>
    <tag k="addr:housenumber" v="137"/>
    <tag k="addr:street" v="Maple Street"/>
    <tag k="addr:postcode" v="05753"/>
    <tag k="addr:state" v="VT"/>
    <tag k="ref:vcgi:esiteid" v="154834"/>
  </node>
  <node id="-1719" visible="true" lat="44.0166143" lon="-73.16854179">
    <tag k="addr:city" v="Middlebury"/>
    <tag k="addr:housenumber" v="20"/>
    <tag k="addr:street" v="Seymour Street"/>
    <tag k="addr:postcode" v="05753"/>
    <tag k="addr:state" v="VT"/>
    <tag k="ref:vcgi:esiteid" v="154690"/>
  </node>
  <node id="-1725" visible="true" lat="44.00828559" lon="-73.17725507">
    <tag k="addr:city" v="Middlebury"/>
    <tag k="addr:housenumber" v="14"/>
    <tag k="addr:street" v="Old Chapel Road"/>
    <tag k="addr:postcode" v="05753"/>
    <tag k="addr:state" v="VT"/>
    <tag k="ref:vcgi:esiteid" v="155420"/>
  </node>
  <node id="-1858" visible="true" lat="44.01562746" lon="-73.16965574">
    <tag k="addr:city" v="Middlebury"/>
    <tag k="addr:housenumber" v="99"/>
    <tag k="addr:street" v="Maple Street"/>
    <tag k="addr:postcode" v="05753"/>
    <tag k="addr:state" v="VT"/>
    <tag k="ref:vcgi:esiteid" v="154778"/>
  </node>
  <node id="-1879" visible="true" lat="44.01280932" lon="-73.16815681">
    <tag k="addr:city" v="Middlebury"/>
    <tag k="addr:housenumber" v="7"/>
    <tag k="addr:street" v="Bakery Lane"/>
    <tag k="addr:postcode" v="05753"/>
    <tag k="addr:state" v="VT"/>
    <tag k="ref:vcgi:esiteid" v="155062"/>
  </node>
  <node id="-1952" visible="true" lat="44.01338563" lon="-73.18127451">
    <tag k="addr:city" v="Middlebury"/>
    <tag k="addr:housenumber" v="276"/>
    <tag k="addr:street" v="Bicentennial Way"/>
    <tag k="addr:postcode" v="05753"/>
    <tag k="addr:state" v="VT"/>
    <tag k="ref:vcgi:esiteid" v="156484"/>
  </node>
  <node id="-2005" visible="true" lat="44.00480055" lon="-73.15850197">
    <tag k="addr:city" v="Middlebury"/>
    <tag k="addr:housenumber" v="105"/>
    <tag k="addr:street" v="Court Street"/>
    <tag k="addr:postcode" v="05753"/>
    <tag k="addr:state" v="VT"/>
    <tag k="ref:vcgi:esiteid" v="155655"/>
  </node>
  <node id="-2029" visible="true" lat="44.01226191" lon="-73.16987126">
    <tag k="addr:city" v="Middlebury"/>
    <tag k="addr:housenumber" v="86"/>
    <tag k="addr:street" v="Main Street"/>
    <tag k="addr:postcode" v="05753"/>
    <tag k="addr:state" v="VT"/>
    <tag k="ref:vcgi:esiteid" v="155106"/>
  </node>
  <node id="-2163" visible="true" lat="44.02397745" lon="-73.16964292">
    <tag k="addr:city" v="Middlebury"/>
    <tag k="addr:housenumber" v="338"/>
    <tag k="addr:street" v="Exchange Street"/>
    <tag k="addr:postcode" v="05753"/>
    <tag k="addr:state" v="VT"/>
    <tag k="ref:vcgi:esiteid" v="154248"/>
  </node>
  <node id="-2312" visible="true" lat="44.012769" lon="-73.16884514">
    <tag k="addr:city" v="Middlebury"/>
    <tag k="addr:housenumber" v="65"/>
    <tag k="addr:street" v="Main Street"/>
    <tag k="addr:postcode" v="05753"/>
    <tag k="addr:state" v="VT"/>
    <tag k="ref:vcgi:esiteid" v="155050"/>
  </node>
  <node id="-2357" visible="true" lat="44.00086464" lon="-73.14685424">
    <tag k="addr:city" v="Middlebury"/>
    <tag k="addr:housenumber" v="49"/>
    <tag k="addr:street" v="Wilson Road"/>
    <tag k="addr:postcode" v="05753"/>
    <tag k="addr:state" v="VT"/>
    <tag k="ref:vcgi:esiteid" v="155753"/>
  </node>
  <node id="-2409" visible="true" lat="44.00046961" lon="-73.169211">
    <tag k="addr:city" v="Middlebury"/>
    <tag k="addr:housenumber" v="44"/>
    <tag k="addr:street" v="Collins Drive"/>
    <tag k="addr:postcode" v="05753"/>
    <tag k="addr:state" v="VT"/>
    <tag k="ref:vcgi:esiteid" v="155756"/>
  </node>
  <node id="-2524" visible="true" lat="44.01369165" lon="-73.16860814">
    <tag k="addr:city" v="Middlebury"/>
    <tag k="addr:housenumber" v="44"/>
    <tag k="addr:street" v="Main Street"/>
    <tag k="addr:postcode" v="05753"/>
    <tag k="addr:state" v="VT"/>
    <tag k="ref:vcgi:esiteid" v="154951"/>
  </node>
  <node id="-2544" visible="true" lat="44.02225875" lon="-73.17303466">
    <tag k="addr:city" v="Middlebury"/>
    <tag k="addr:housenumber" v="88"/>
    <tag k="addr:street" v="Seymour Street"/>
    <tag k="addr:postcode" v="05753"/>
    <tag k="addr:state" v="VT"/>
    <tag k="ref:vcgi:esiteid" v="154289"/>
  </node>
  <node id="-2630" visible="true" lat="44.01498296" lon="-73.16469692">
    <tag k="addr:city" v="Middlebury"/>
    <tag k="addr:housenumber" v="11"/>
    <tag k="addr:street" v="Washington Street"/>
    <tag k="addr:postcode" v="05753"/>
    <tag k="addr:state" v="VT"/>
    <tag k="ref:vcgi:esiteid" v="154851"/>
  </node>
  <node id="-2664" visible="true" lat="44.0279904" lon="-73.17277887">
    <tag k="addr:city" v="Middlebury"/>
    <tag k="addr:housenumber" v="82"/>
    <tag k="addr:street" v="Catamount Park"/>
    <tag k="addr:postcode" v="05753"/>
    <tag k="addr:state" v="VT"/>
    <tag k="ref:vcgi:esiteid" v="156563"/>
  </node>
  <node id="-2714" visible="true" lat="44.00378229" lon="-73.15615548">
    <tag k="addr:city" v="Middlebury"/>
    <tag k="addr:housenumber" v="173"/>
    <tag k="addr:street" v="Court Street"/>
    <tag k="addr:postcode" v="05753"/>
    <tag k="addr:state" v="VT"/>
    <tag k="ref:vcgi:esiteid" v="155686"/>
  </node>
  <node id="-2717" visible="true" lat="44.00646941" lon="-73.16006542">
    <tag k="addr:city" v="Middlebury"/>
    <tag k="addr:housenumber" v="93"/>
    <tag k="addr:street" v="Court Street"/>
    <tag k="addr:postcode" v="05753"/>
    <tag k="addr:state" v="VT"/>
    <tag k="ref:vcgi:esiteid" v="155583"/>
  </node>
  <node id="-2748" visible="true" lat="43.99971389" lon="-73.16852569">
    <tag k="addr:city" v="Middlebury"/>
    <tag k="addr:housenumber" v="115"/>
    <tag k="addr:street" v="Porter Drive"/>
    <tag k="addr:postcode" v="05753"/>
    <tag k="addr:state" v="VT"/>
    <tag k="ref:vcgi:esiteid" v="155771"/>
  </node>
  <node id="-2809" visible="true" lat="44.04169073" lon="-73.17505658">
    <tag k="addr:city" v="Middlebury"/>
    <tag k="addr:housenumber" v="243"/>
    <tag k="addr:street" v="Industrial Avenue"/>
    <tag k="addr:postcode" v="05753"/>
    <tag k="addr:state" v="VT"/>
    <tag k="ref:vcgi:esiteid" v="156546"/>
  </node>
  <node id="-2857" visible="true" lat="44.01315596" lon="-73.16898756">
    <tag k="addr:city" v="Middlebury"/>
    <tag k="addr:housenumber" v="60"/>
    <tag k="addr:street" v="Main Street"/>
    <tag k="addr:postcode" v="05753"/>
    <tag k="addr:state" v="VT"/>
    <tag k="ref:vcgi:esiteid" v="154999"/>
  </node>
  <node id="-2919" visible="true" lat="44.01384345" lon="-73.16852358">
    <tag k="addr:city" v="Middlebury"/>
    <tag k="addr:housenumber" v="40"/>
    <tag k="addr:street" v="Main Street"/>
    <tag k="addr:postcode" v="05753"/>
    <tag k="addr:state" v="VT"/>
    <tag k="ref:vcgi:esiteid" v="154939"/>
  </node>
  <node id="-2935" visible="true" lat="44.01850225" lon="-73.16521091">
    <tag k="addr:city" v="Middlebury"/>
    <tag k="addr:housenumber" v="25"/>
    <tag k="addr:street" v="Stewart Lane"/>
    <tag k="addr:postcode" v="05753"/>
    <tag k="addr:state" v="VT"/>
    <tag k="ref:vcgi:esiteid" v="154527"/>
  </node>
  <node id="-2974" visible="true" lat="44.01328277" lon="-73.17003948">
    <tag k="addr:city" v="Middlebury"/>
    <tag k="addr:housenumber" v="3"/>
    <tag k="addr:street" v="Mill Street"/>
    <tag k="addr:postcode" v="05753"/>
    <tag k="addr:state" v="VT"/>
    <tag k="ref:vcgi:esiteid" v="154995"/>
  </node>
  <node id="-2976" visible="true" lat="44.01466401" lon="-73.16530997">
    <tag k="addr:city" v="Middlebury"/>
    <tag k="addr:housenumber" v="1"/>
    <tag k="addr:street" v="Washington Street"/>
    <tag k="addr:postcode" v="05753"/>
    <tag k="addr:state" v="VT"/>
    <tag k="ref:vcgi:esiteid" v="154885"/>
  </node>
  <node id="-3089" visible="true" lat="44.01259223" lon="-73.16817536">
    <tag k="addr:city" v="Middlebury"/>
    <tag k="addr:housenumber" v="8"/>
    <tag k="addr:street" v="Bakery Lane"/>
    <tag k="addr:postcode" v="05753"/>
    <tag k="addr:state" v="VT"/>
    <tag k="ref:vcgi:esiteid" v="155082"/>
  </node>
</osm>
