<?xml version="1.0" encoding="UTF-8"?>
<osm version="0.6" generator="JOSM" upload="false">
  <node id="-100" visible="true" lat="43.46695306" lon="-73.17898704">
    <tag k="addr:city" v="Middletown Springs"/>
    <tag k="addr:housenumber" v="4002"/>
    <tag k="addr:street" v="Saw Mill Hill Road"/>
    <tag k="addr:state" v="VT"/>
    <tag k="ref:vcgi:esiteid" v="157647"/>
  </node>
  <node id="-101" visible="true" lat="43.53298964" lon="-73.1023938">
    <tag k="addr:city" v="Middletown Springs"/>
    <tag k="addr:housenumber" v="618"/>
    <tag k="addr:street" v="North Street"/>
    <tag k="addr:state" v="VT"/>
    <tag k="ref:vcgi:esiteid" v="157648"/>
  </node>
  <node id="-102" visible="true" lat="43.52750574" lon="-73.10577723">
    <tag k="addr:city" v="Middletown Springs"/>
    <tag k="addr:housenumber" v="616"/>
    <tag k="addr:street" v="North Street"/>
    <tag k="addr:state" v="VT"/>
    <tag k="ref:vcgi:esiteid" v="157649"/>
  </node>
  <node id="-103" visible="true" lat="43.52947099" lon="-73.12165399">
    <tag k="addr:city" v="Middletown Springs"/>
    <tag k="addr:housenumber" v="620"/>
    <tag k="addr:street" v="Spruce Knob Road"/>
    <tag k="addr:state" v="VT"/>
    <tag k="ref:vcgi:esiteid" v="157650"/>
  </node>
  <node id="-104" visible="true" lat="43.52669631" lon="-73.10787693">
    <tag k="addr:city" v="Middletown Springs"/>
    <tag k="addr:housenumber" v="600"/>
    <tag k="addr:street" v="North Street"/>
    <tag k="addr:state" v="VT"/>
    <tag k="ref:vcgi:esiteid" v="157651"/>
  </node>
  <node id="-106" visible="true" lat="43.52358139" lon="-73.11000572">
    <tag k="addr:city" v="Middletown Springs"/>
    <tag k="addr:housenumber" v="537"/>
    <tag k="addr:street" v="North Street"/>
    <tag k="addr:state" v="VT"/>
    <tag k="ref:vcgi:esiteid" v="157653"/>
  </node>
  <node id="-107" visible="true" lat="43.52425456" lon="-73.10917335">
    <tag k="addr:city" v="Middletown Springs"/>
    <tag k="addr:housenumber" v="540"/>
    <tag k="addr:street" v="North Street"/>
    <tag k="addr:state" v="VT"/>
    <tag k="ref:vcgi:esiteid" v="157654"/>
  </node>
  <node id="-108" visible="true" lat="43.52137304" lon="-73.10933155">
    <tag k="addr:city" v="Middletown Springs"/>
    <tag k="addr:housenumber" v="510"/>
    <tag k="addr:street" v="North Street"/>
    <tag k="addr:state" v="VT"/>
    <tag k="ref:vcgi:esiteid" v="157655"/>
  </node>
  <node id="-110" visible="true" lat="43.52079458" lon="-73.12438267">
    <tag k="addr:city" v="Middletown Springs"/>
    <tag k="addr:housenumber" v="487"/>
    <tag k="addr:street" v="Spruce Knob Road"/>
    <tag k="addr:state" v="VT"/>
    <tag k="ref:vcgi:esiteid" v="157657"/>
  </node>
  <node id="-112" visible="true" lat="43.51766602" lon="-73.11318565">
    <tag k="addr:city" v="Middletown Springs"/>
    <tag k="addr:housenumber" v="457"/>
    <tag k="addr:street" v="North Street"/>
    <tag k="addr:state" v="VT"/>
    <tag k="ref:vcgi:esiteid" v="157659"/>
  </node>
  <node id="-113" visible="true" lat="43.5207802" lon="-73.11120645">
    <tag k="addr:city" v="Middletown Springs"/>
    <tag k="addr:housenumber" v="497"/>
    <tag k="addr:street" v="North Street"/>
    <tag k="addr:state" v="VT"/>
    <tag k="ref:vcgi:esiteid" v="157660"/>
  </node>
  <node id="-115" visible="true" lat="43.51994884" lon="-73.11701025">
    <tag k="addr:city" v="Middletown Springs"/>
    <tag k="addr:housenumber" v="417"/>
    <tag k="addr:street" v="North Street"/>
    <tag k="addr:state" v="VT"/>
    <tag k="ref:vcgi:esiteid" v="157662"/>
  </node>
  <node id="-116" visible="true" lat="43.51655696" lon="-73.11109314">
    <tag k="addr:city" v="Middletown Springs"/>
    <tag k="addr:housenumber" v="440"/>
    <tag k="addr:street" v="North Street"/>
    <tag k="addr:state" v="VT"/>
    <tag k="ref:vcgi:esiteid" v="157663"/>
  </node>
  <node id="-119" visible="true" lat="43.51357021" lon="-73.11488765">
    <tag k="addr:city" v="Middletown Springs"/>
    <tag k="addr:housenumber" v="397"/>
    <tag k="addr:street" v="North Street"/>
    <tag k="addr:state" v="VT"/>
    <tag k="ref:vcgi:esiteid" v="157666"/>
  </node>
  <node id="-120" visible="true" lat="43.51328087" lon="-73.11872505">
    <tag k="addr:city" v="Middletown Springs"/>
    <tag k="addr:housenumber" v="407"/>
    <tag k="addr:street" v="North Street"/>
    <tag k="addr:state" v="VT"/>
    <tag k="ref:vcgi:esiteid" v="157667"/>
  </node>
  <node id="-121" visible="true" lat="43.51167085" lon="-73.13301721">
    <tag k="addr:city" v="Middletown Springs"/>
    <tag k="addr:housenumber" v="327"/>
    <tag k="addr:street" v="Spruce Knob Road"/>
    <tag k="addr:state" v="VT"/>
    <tag k="ref:vcgi:esiteid" v="157668"/>
  </node>
  <node id="-122" visible="true" lat="43.51122257" lon="-73.12932153">
    <tag k="addr:city" v="Middletown Springs"/>
    <tag k="addr:housenumber" v="360"/>
    <tag k="addr:street" v="Spruce Knob Road"/>
    <tag k="addr:state" v="VT"/>
    <tag k="ref:vcgi:esiteid" v="157669"/>
  </node>
  <node id="-123" visible="true" lat="43.50905299" lon="-73.11735472">
    <tag k="addr:city" v="Middletown Springs"/>
    <tag k="addr:housenumber" v="317"/>
    <tag k="addr:street" v="North Street"/>
    <tag k="addr:state" v="VT"/>
    <tag k="ref:vcgi:esiteid" v="157670"/>
  </node>
  <node id="-125" visible="true" lat="43.50764879" lon="-73.11811617">
    <tag k="addr:city" v="Middletown Springs"/>
    <tag k="addr:housenumber" v="309"/>
    <tag k="addr:street" v="North Street"/>
    <tag k="addr:state" v="VT"/>
    <tag k="ref:vcgi:esiteid" v="157672"/>
  </node>
  <node id="-127" visible="true" lat="43.50764676" lon="-73.11844762">
    <tag k="addr:city" v="Middletown Springs"/>
    <tag k="addr:housenumber" v="307"/>
    <tag k="addr:street" v="North Street"/>
    <tag k="addr:state" v="VT"/>
    <tag k="ref:vcgi:esiteid" v="157674"/>
  </node>
  <node id="-128" visible="true" lat="43.50679349" lon="-73.11769291">
    <tag k="addr:city" v="Middletown Springs"/>
    <tag k="addr:housenumber" v="300"/>
    <tag k="addr:street" v="North Street"/>
    <tag k="addr:state" v="VT"/>
    <tag k="ref:vcgi:esiteid" v="157675"/>
  </node>
  <node id="-129" visible="true" lat="43.51216752" lon="-73.12061417">
    <tag k="addr:city" v="Middletown Springs"/>
    <tag k="addr:housenumber" v="62"/>
    <tag k="addr:street" v="Hemenway Drive"/>
    <tag k="addr:state" v="VT"/>
    <tag k="ref:vcgi:esiteid" v="157676"/>
  </node>
  <node id="-130" visible="true" lat="43.50812544" lon="-73.10279766">
    <tag k="addr:city" v="Middletown Springs"/>
    <tag k="addr:housenumber" v="329"/>
    <tag k="addr:street" v="Dudley Road"/>
    <tag k="addr:state" v="VT"/>
    <tag k="ref:vcgi:esiteid" v="157677"/>
  </node>
  <node id="-131" visible="true" lat="43.5092698" lon="-73.13000015">
    <tag k="addr:city" v="Middletown Springs"/>
    <tag k="addr:housenumber" v="320"/>
    <tag k="addr:street" v="Spruce Knob Road"/>
    <tag k="addr:state" v="VT"/>
    <tag k="ref:vcgi:esiteid" v="157678"/>
  </node>
  <node id="-134" visible="true" lat="43.50856518" lon="-73.13085782">
    <tag k="addr:city" v="Middletown Springs"/>
    <tag k="addr:housenumber" v="317"/>
    <tag k="addr:street" v="Spruce Knob Road"/>
    <tag k="addr:state" v="VT"/>
    <tag k="ref:vcgi:esiteid" v="157681"/>
  </node>
  <node id="-138" visible="true" lat="43.49709319" lon="-73.09405282">
    <tag k="addr:city" v="Middletown Springs"/>
    <tag k="addr:housenumber" v="70"/>
    <tag k="addr:street" v="Donahue Road"/>
    <tag k="addr:state" v="VT"/>
    <tag k="ref:vcgi:esiteid" v="157685"/>
  </node>
  <node id="-139" visible="true" lat="43.49255442" lon="-73.09176438">
    <tag k="addr:city" v="Middletown Springs"/>
    <tag k="addr:housenumber" v="150"/>
    <tag k="addr:street" v="Haley Road"/>
    <tag k="addr:state" v="VT"/>
    <tag k="ref:vcgi:esiteid" v="157686"/>
  </node>
  <node id="-140" visible="true" lat="43.4895558" lon="-73.09265223">
    <tag k="addr:city" v="Middletown Springs"/>
    <tag k="addr:housenumber" v="70"/>
    <tag k="addr:street" v="Haley Road"/>
    <tag k="addr:state" v="VT"/>
    <tag k="ref:vcgi:esiteid" v="157687"/>
  </node>
  <node id="-141" visible="true" lat="43.48438945" lon="-73.08699572">
    <tag k="addr:city" v="Middletown Springs"/>
    <tag k="addr:housenumber" v="138"/>
    <tag k="addr:street" v="Tournet Drive"/>
    <tag k="addr:state" v="VT"/>
    <tag k="ref:vcgi:esiteid" v="157688"/>
  </node>
  <node id="-143" visible="true" lat="43.48605128" lon="-73.09501219">
    <tag k="addr:city" v="Middletown Springs"/>
    <tag k="addr:housenumber" v="257"/>
    <tag k="addr:street" v="East Street"/>
    <tag k="addr:state" v="VT"/>
    <tag k="ref:vcgi:esiteid" v="157690"/>
  </node>
  <node id="-144" visible="true" lat="43.48563825" lon="-73.09310062">
    <tag k="addr:city" v="Middletown Springs"/>
    <tag k="addr:housenumber" v="277"/>
    <tag k="addr:street" v="East Street"/>
    <tag k="addr:state" v="VT"/>
    <tag k="ref:vcgi:esiteid" v="157691"/>
  </node>
  <node id="-145" visible="true" lat="43.48430704" lon="-73.09189444">
    <tag k="addr:city" v="Middletown Springs"/>
    <tag k="addr:housenumber" v="297"/>
    <tag k="addr:street" v="East Street"/>
    <tag k="addr:state" v="VT"/>
    <tag k="ref:vcgi:esiteid" v="157692"/>
  </node>
  <node id="-146" visible="true" lat="43.48232361" lon="-73.08189058">
    <tag k="addr:city" v="Middletown Springs"/>
    <tag k="addr:housenumber" v="416"/>
    <tag k="addr:street" v="East Street"/>
    <tag k="addr:state" v="VT"/>
    <tag k="ref:vcgi:esiteid" v="157693"/>
  </node>
  <node id="-147" visible="true" lat="43.48308623" lon="-73.0836562">
    <tag k="addr:city" v="Middletown Springs"/>
    <tag k="addr:housenumber" v="397"/>
    <tag k="addr:street" v="East Street"/>
    <tag k="addr:state" v="VT"/>
    <tag k="ref:vcgi:esiteid" v="157694"/>
  </node>
  <node id="-148" visible="true" lat="43.48228948" lon="-73.08744766">
    <tag k="addr:city" v="Middletown Springs"/>
    <tag k="addr:housenumber" v="361"/>
    <tag k="addr:street" v="East Street"/>
    <tag k="addr:state" v="VT"/>
    <tag k="ref:vcgi:esiteid" v="157695"/>
  </node>
  <node id="-149" visible="true" lat="43.48188514" lon="-73.08757915">
    <tag k="addr:city" v="Middletown Springs"/>
    <tag k="addr:housenumber" v="360"/>
    <tag k="addr:street" v="East Street"/>
    <tag k="addr:state" v="VT"/>
    <tag k="ref:vcgi:esiteid" v="157696"/>
  </node>
  <node id="-150" visible="true" lat="43.48120179" lon="-73.08778249">
    <tag k="addr:city" v="Middletown Springs"/>
    <tag k="addr:housenumber" v="366"/>
    <tag k="addr:street" v="East Street"/>
    <tag k="addr:state" v="VT"/>
    <tag k="ref:vcgi:esiteid" v="157697"/>
  </node>
  <node id="-151" visible="true" lat="43.48120787" lon="-73.0865973">
    <tag k="addr:city" v="Middletown Springs"/>
    <tag k="addr:housenumber" v="420"/>
    <tag k="addr:street" v="Daisy Hollow Road"/>
    <tag k="addr:state" v="VT"/>
    <tag k="ref:vcgi:esiteid" v="157698"/>
  </node>
  <node id="-152" visible="true" lat="43.48026632" lon="-73.08629778">
    <tag k="addr:city" v="Middletown Springs"/>
    <tag k="addr:housenumber" v="402"/>
    <tag k="addr:street" v="Daisy Hollow Road"/>
    <tag k="addr:state" v="VT"/>
    <tag k="ref:vcgi:esiteid" v="157699"/>
  </node>
  <node id="-154" visible="true" lat="43.48069974" lon="-73.09423754">
    <tag k="addr:city" v="Middletown Springs"/>
    <tag k="addr:housenumber" v="183"/>
    <tag k="addr:street" v="Fitzgerald Road"/>
    <tag k="addr:state" v="VT"/>
    <tag k="ref:vcgi:esiteid" v="157701"/>
  </node>
  <node id="-155" visible="true" lat="43.47946557" lon="-73.09635254">
    <tag k="addr:city" v="Middletown Springs"/>
    <tag k="addr:housenumber" v="8"/>
    <tag k="addr:street" v="Barber Lane"/>
    <tag k="addr:state" v="VT"/>
    <tag k="ref:vcgi:esiteid" v="157702"/>
  </node>
  <node id="-156" visible="true" lat="43.47850687" lon="-73.09611574">
    <tag k="addr:city" v="Middletown Springs"/>
    <tag k="addr:housenumber" v="11"/>
    <tag k="addr:street" v="Barber Lane"/>
    <tag k="addr:state" v="VT"/>
    <tag k="ref:vcgi:esiteid" v="157703"/>
  </node>
  <node id="-157" visible="true" lat="43.47932298" lon="-73.09409846">
    <tag k="addr:city" v="Middletown Springs"/>
    <tag k="addr:housenumber" v="200"/>
    <tag k="addr:street" v="Fitzgerald Road"/>
    <tag k="addr:state" v="VT"/>
    <tag k="ref:vcgi:esiteid" v="157704"/>
  </node>
  <node id="-158" visible="true" lat="43.47887493" lon="-73.09342691">
    <tag k="addr:city" v="Middletown Springs"/>
    <tag k="addr:housenumber" v="206"/>
    <tag k="addr:street" v="Fitzgerald Road"/>
    <tag k="addr:state" v="VT"/>
    <tag k="ref:vcgi:esiteid" v="157705"/>
  </node>
  <node id="-159" visible="true" lat="43.47783557" lon="-73.09215307">
    <tag k="addr:city" v="Middletown Springs"/>
    <tag k="addr:housenumber" v="12"/>
    <tag k="addr:street" v="Memory Lane"/>
    <tag k="addr:state" v="VT"/>
    <tag k="ref:vcgi:esiteid" v="157706"/>
  </node>
  <node id="-160" visible="true" lat="43.47680047" lon="-73.09446619">
    <tag k="addr:city" v="Middletown Springs"/>
    <tag k="addr:housenumber" v="42"/>
    <tag k="addr:street" v="Memory Lane"/>
    <tag k="addr:state" v="VT"/>
    <tag k="ref:vcgi:esiteid" v="157707"/>
  </node>
  <node id="-161" visible="true" lat="43.47939948" lon="-73.08703505">
    <tag k="addr:city" v="Middletown Springs"/>
    <tag k="addr:housenumber" v="397"/>
    <tag k="addr:street" v="Daisy Hollow Road"/>
    <tag k="addr:state" v="VT"/>
    <tag k="ref:vcgi:esiteid" v="157708"/>
  </node>
  <node id="-162" visible="true" lat="43.47800929" lon="-73.08839515">
    <tag k="addr:city" v="Middletown Springs"/>
    <tag k="addr:housenumber" v="379"/>
    <tag k="addr:street" v="Daisy Hollow Road"/>
    <tag k="addr:state" v="VT"/>
    <tag k="ref:vcgi:esiteid" v="157709"/>
  </node>
  <node id="-163" visible="true" lat="43.47739704" lon="-73.08963717">
    <tag k="addr:city" v="Middletown Springs"/>
    <tag k="addr:housenumber" v="240"/>
    <tag k="addr:street" v="Fitzgerald Road"/>
    <tag k="addr:state" v="VT"/>
    <tag k="ref:vcgi:esiteid" v="157710"/>
  </node>
  <node id="-164" visible="true" lat="43.47720183" lon="-73.08647221">
    <tag k="addr:city" v="Middletown Springs"/>
    <tag k="addr:housenumber" v="376"/>
    <tag k="addr:street" v="Daisy Hollow Road"/>
    <tag k="addr:state" v="VT"/>
    <tag k="ref:vcgi:esiteid" v="157711"/>
  </node>
  <node id="-165" visible="true" lat="43.47593142" lon="-73.08899503">
    <tag k="addr:city" v="Middletown Springs"/>
    <tag k="addr:housenumber" v="350"/>
    <tag k="addr:street" v="Daisy Hollow Road"/>
    <tag k="addr:state" v="VT"/>
    <tag k="ref:vcgi:esiteid" v="157712"/>
  </node>
  <node id="-167" visible="true" lat="43.47252346" lon="-73.09288599">
    <tag k="addr:city" v="Middletown Springs"/>
    <tag k="addr:housenumber" v="277"/>
    <tag k="addr:street" v="Daisy Hollow Road"/>
    <tag k="addr:state" v="VT"/>
    <tag k="ref:vcgi:esiteid" v="157714"/>
  </node>
  <node id="-173" visible="true" lat="43.439107" lon="-73.11252581">
    <tag k="addr:city" v="Middletown Springs"/>
    <tag k="addr:housenumber" v="672"/>
    <tag k="addr:street" v="South Street"/>
    <tag k="addr:state" v="VT"/>
    <tag k="ref:vcgi:esiteid" v="157720"/>
  </node>
  <node id="-174" visible="true" lat="43.43888898" lon="-73.1122849">
    <tag k="addr:city" v="Middletown Springs"/>
    <tag k="addr:housenumber" v="668"/>
    <tag k="addr:street" v="South Street"/>
    <tag k="addr:state" v="VT"/>
    <tag k="ref:vcgi:esiteid" v="157721"/>
  </node>
  <node id="-177" visible="true" lat="43.4371194" lon="-73.11085563">
    <tag k="addr:city" v="Middletown Springs"/>
    <tag k="addr:housenumber" v="689"/>
    <tag k="addr:street" v="South Street"/>
    <tag k="addr:state" v="VT"/>
    <tag k="ref:vcgi:esiteid" v="157724"/>
  </node>
  <node id="-178" visible="true" lat="43.44138297" lon="-73.11487475">
    <tag k="addr:city" v="Middletown Springs"/>
    <tag k="addr:housenumber" v="652"/>
    <tag k="addr:street" v="South Street"/>
    <tag k="addr:state" v="VT"/>
    <tag k="ref:vcgi:esiteid" v="157725"/>
  </node>
  <node id="-180" visible="true" lat="43.44119287" lon="-73.11195481">
    <tag k="addr:city" v="Middletown Springs"/>
    <tag k="addr:housenumber" v="641"/>
    <tag k="addr:street" v="South Street"/>
    <tag k="addr:state" v="VT"/>
    <tag k="ref:vcgi:esiteid" v="157727"/>
  </node>
  <node id="-182" visible="true" lat="43.44239878" lon="-73.11304163">
    <tag k="addr:city" v="Middletown Springs"/>
    <tag k="addr:housenumber" v="640"/>
    <tag k="addr:street" v="South Street"/>
    <tag k="addr:state" v="VT"/>
    <tag k="ref:vcgi:esiteid" v="157729"/>
  </node>
  <node id="-200" visible="true" lat="43.4532949" lon="-73.1346724">
    <tag k="addr:city" v="Middletown Springs"/>
    <tag k="addr:housenumber" v="17"/>
    <tag k="addr:street" v="Mountain Road"/>
    <tag k="addr:state" v="VT"/>
    <tag k="ref:vcgi:esiteid" v="157747"/>
  </node>
  <node id="-210" visible="true" lat="43.4547983" lon="-73.12530446">
    <tag k="addr:city" v="Middletown Springs"/>
    <tag k="addr:housenumber" v="180"/>
    <tag k="addr:street" v="Garron Road"/>
    <tag k="addr:state" v="VT"/>
    <tag k="ref:vcgi:esiteid" v="157757"/>
  </node>
  <node id="-211" visible="true" lat="43.4556971" lon="-73.12399559">
    <tag k="addr:city" v="Middletown Springs"/>
    <tag k="addr:housenumber" v="164"/>
    <tag k="addr:street" v="Garron Road"/>
    <tag k="addr:state" v="VT"/>
    <tag k="ref:vcgi:esiteid" v="157758"/>
  </node>
  <node id="-213" visible="true" lat="43.45475391" lon="-73.12296593">
    <tag k="addr:city" v="Middletown Springs"/>
    <tag k="addr:housenumber" v="169"/>
    <tag k="addr:street" v="Garron Road"/>
    <tag k="addr:state" v="VT"/>
    <tag k="ref:vcgi:esiteid" v="157760"/>
  </node>
  <node id="-214" visible="true" lat="43.45541647" lon="-73.12199983">
    <tag k="addr:city" v="Middletown Springs"/>
    <tag k="addr:housenumber" v="159"/>
    <tag k="addr:street" v="Garron Road"/>
    <tag k="addr:state" v="VT"/>
    <tag k="ref:vcgi:esiteid" v="157761"/>
  </node>
  <node id="-223" visible="true" lat="43.46020837" lon="-73.10562606">
    <tag k="addr:city" v="Middletown Springs"/>
    <tag k="addr:housenumber" v="77"/>
    <tag k="addr:street" v="Daisy Hollow Road"/>
    <tag k="addr:state" v="VT"/>
    <tag k="ref:vcgi:esiteid" v="157770"/>
  </node>
  <node id="-252" visible="true" lat="43.46612134" lon="-73.11258291">
    <tag k="addr:city" v="Middletown Springs"/>
    <tag k="addr:housenumber" v="289"/>
    <tag k="addr:street" v="South Street"/>
    <tag k="addr:state" v="VT"/>
    <tag k="ref:vcgi:esiteid" v="157799"/>
  </node>
  <node id="-254" visible="true" lat="43.46553132" lon="-73.10179579">
    <tag k="addr:city" v="Middletown Springs"/>
    <tag k="addr:housenumber" v="155"/>
    <tag k="addr:street" v="Daisy Hollow Road"/>
    <tag k="addr:state" v="VT"/>
    <tag k="ref:vcgi:esiteid" v="157801"/>
  </node>
  <node id="-255" visible="true" lat="43.47031417" lon="-73.11410851">
    <tag k="addr:city" v="Middletown Springs"/>
    <tag k="addr:housenumber" v="217"/>
    <tag k="addr:street" v="South Street"/>
    <tag k="addr:state" v="VT"/>
    <tag k="ref:vcgi:esiteid" v="157802"/>
  </node>
  <node id="-264" visible="true" lat="43.47524571" lon="-73.14712631">
    <tag k="addr:city" v="Middletown Springs"/>
    <tag k="addr:housenumber" v="124"/>
    <tag k="addr:street" v="Orchard Road"/>
    <tag k="addr:state" v="VT"/>
    <tag k="ref:vcgi:esiteid" v="157811"/>
  </node>
  <node id="-276" visible="true" lat="43.4792882" lon="-73.10220604">
    <tag k="addr:city" v="Middletown Springs"/>
    <tag k="addr:housenumber" v="110"/>
    <tag k="addr:street" v="Fitzgerald Road"/>
    <tag k="addr:state" v="VT"/>
    <tag k="ref:vcgi:esiteid" v="157823"/>
  </node>
  <node id="-277" visible="true" lat="43.47890827" lon="-73.10054613">
    <tag k="addr:city" v="Middletown Springs"/>
    <tag k="addr:housenumber" v="120"/>
    <tag k="addr:street" v="Fitzgerald Road"/>
    <tag k="addr:state" v="VT"/>
    <tag k="ref:vcgi:esiteid" v="157824"/>
  </node>
  <node id="-278" visible="true" lat="43.47677518" lon="-73.10666255">
    <tag k="addr:city" v="Middletown Springs"/>
    <tag k="addr:housenumber" v="100"/>
    <tag k="addr:street" v="Darcy Lane"/>
    <tag k="addr:state" v="VT"/>
    <tag k="ref:vcgi:esiteid" v="157825"/>
  </node>
  <node id="-285" visible="true" lat="43.47785295" lon="-73.11952977">
    <tag k="addr:city" v="Middletown Springs"/>
    <tag k="addr:housenumber" v="119"/>
    <tag k="addr:street" v="South Street"/>
    <tag k="addr:state" v="VT"/>
    <tag k="ref:vcgi:esiteid" v="157832"/>
  </node>
  <node id="-288" visible="true" lat="43.47853926" lon="-73.12041602">
    <tag k="addr:city" v="Middletown Springs"/>
    <tag k="addr:housenumber" v="2"/>
    <tag k="addr:street" v="Buxton Avenue"/>
    <tag k="addr:state" v="VT"/>
    <tag k="ref:vcgi:esiteid" v="157835"/>
  </node>
  <node id="-289" visible="true" lat="43.47922842" lon="-73.11981085">
    <tag k="addr:city" v="Middletown Springs"/>
    <tag k="addr:housenumber" v="88"/>
    <tag k="addr:street" v="South Street"/>
    <tag k="addr:state" v="VT"/>
    <tag k="ref:vcgi:esiteid" v="157836"/>
  </node>
  <node id="-291" visible="true" lat="43.47966526" lon="-73.12012994">
    <tag k="addr:city" v="Middletown Springs"/>
    <tag k="addr:housenumber" v="80"/>
    <tag k="addr:street" v="South Street"/>
    <tag k="addr:state" v="VT"/>
    <tag k="ref:vcgi:esiteid" v="157838"/>
  </node>
  <node id="-293" visible="true" lat="43.47870671" lon="-73.1222073">
    <tag k="addr:city" v="Middletown Springs"/>
    <tag k="addr:housenumber" v="20"/>
    <tag k="addr:street" v="Buxton Avenue"/>
    <tag k="addr:state" v="VT"/>
    <tag k="ref:vcgi:esiteid" v="157841"/>
  </node>
  <node id="-295" visible="true" lat="43.47859406" lon="-73.1229518">
    <tag k="addr:city" v="Middletown Springs"/>
    <tag k="addr:housenumber" v="30"/>
    <tag k="addr:street" v="Buxton Avenue"/>
    <tag k="addr:state" v="VT"/>
    <tag k="ref:vcgi:esiteid" v="157843"/>
  </node>
  <node id="-296" visible="true" lat="43.47859321" lon="-73.12310877">
    <tag k="addr:city" v="Middletown Springs"/>
    <tag k="addr:housenumber" v="32"/>
    <tag k="addr:street" v="Buxton Avenue"/>
    <tag k="addr:state" v="VT"/>
    <tag k="ref:vcgi:esiteid" v="157844"/>
  </node>
  <node id="-303" visible="true" lat="43.47844391" lon="-73.1274163">
    <tag k="addr:city" v="Middletown Springs"/>
    <tag k="addr:housenumber" v="67"/>
    <tag k="addr:street" v="Buxton Avenue"/>
    <tag k="addr:state" v="VT"/>
    <tag k="ref:vcgi:esiteid" v="157851"/>
  </node>
  <node id="-304" visible="true" lat="43.47833352" lon="-73.1267009">
    <tag k="addr:city" v="Middletown Springs"/>
    <tag k="addr:housenumber" v="59"/>
    <tag k="addr:street" v="Buxton Avenue"/>
    <tag k="addr:state" v="VT"/>
    <tag k="ref:vcgi:esiteid" v="157852"/>
  </node>
  <node id="-306" visible="true" lat="43.47939005" lon="-73.12894096">
    <tag k="addr:city" v="Middletown Springs"/>
    <tag k="addr:housenumber" v="90"/>
    <tag k="addr:street" v="Buxton Avenue"/>
    <tag k="addr:state" v="VT"/>
    <tag k="ref:vcgi:esiteid" v="157854"/>
  </node>
  <node id="-308" visible="true" lat="43.47969645" lon="-73.13348877">
    <tag k="addr:city" v="Middletown Springs"/>
    <tag k="addr:housenumber" v="40"/>
    <tag k="addr:street" v="Justamere Drive"/>
    <tag k="addr:state" v="VT"/>
    <tag k="ref:vcgi:esiteid" v="157856"/>
  </node>
  <node id="-313" visible="true" lat="43.48083425" lon="-73.13445041">
    <tag k="addr:city" v="Middletown Springs"/>
    <tag k="addr:housenumber" v="149"/>
    <tag k="addr:street" v="Buxton Avenue"/>
    <tag k="addr:state" v="VT"/>
    <tag k="ref:vcgi:esiteid" v="157861"/>
  </node>
  <node id="-319" visible="true" lat="43.48027338" lon="-73.11906573">
    <tag k="addr:city" v="Middletown Springs"/>
    <tag k="addr:housenumber" v="68"/>
    <tag k="addr:street" v="South Street"/>
    <tag k="addr:state" v="VT"/>
    <tag k="ref:vcgi:esiteid" v="157867"/>
  </node>
  <node id="-320" visible="true" lat="43.48016781" lon="-73.11793894">
    <tag k="addr:city" v="Middletown Springs"/>
    <tag k="addr:housenumber" v="8"/>
    <tag k="addr:street" v="Otis Drive"/>
    <tag k="addr:state" v="VT"/>
    <tag k="ref:vcgi:esiteid" v="157868"/>
  </node>
  <node id="-321" visible="true" lat="43.47950004" lon="-73.11820456">
    <tag k="addr:city" v="Middletown Springs"/>
    <tag k="addr:housenumber" v="6"/>
    <tag k="addr:street" v="Otis Drive"/>
    <tag k="addr:state" v="VT"/>
    <tag k="ref:vcgi:esiteid" v="157869"/>
  </node>
  <node id="-322" visible="true" lat="43.48066982" lon="-73.11856186">
    <tag k="addr:city" v="Middletown Springs"/>
    <tag k="addr:housenumber" v="64"/>
    <tag k="addr:street" v="South Street"/>
    <tag k="addr:state" v="VT"/>
    <tag k="ref:vcgi:esiteid" v="157870"/>
  </node>
  <node id="-323" visible="true" lat="43.48095529" lon="-73.11861971">
    <tag k="addr:city" v="Middletown Springs"/>
    <tag k="addr:housenumber" v="60"/>
    <tag k="addr:street" v="South Street"/>
    <tag k="addr:state" v="VT"/>
    <tag k="ref:vcgi:esiteid" v="157871"/>
  </node>
  <node id="-325" visible="true" lat="43.48114247" lon="-73.11782885">
    <tag k="addr:city" v="Middletown Springs"/>
    <tag k="addr:housenumber" v="57"/>
    <tag k="addr:street" v="South Street"/>
    <tag k="addr:state" v="VT"/>
    <tag k="ref:vcgi:esiteid" v="157873"/>
  </node>
  <node id="-326" visible="true" lat="43.48134974" lon="-73.11754838">
    <tag k="addr:city" v="Middletown Springs"/>
    <tag k="addr:housenumber" v="53"/>
    <tag k="addr:street" v="South Street"/>
    <tag k="addr:state" v="VT"/>
    <tag k="ref:vcgi:esiteid" v="157874"/>
  </node>
  <node id="-327" visible="true" lat="43.48148703" lon="-73.11858589">
    <tag k="addr:city" v="Middletown Springs"/>
    <tag k="addr:housenumber" v="56"/>
    <tag k="addr:street" v="South Street"/>
    <tag k="addr:state" v="VT"/>
    <tag k="ref:vcgi:esiteid" v="157875"/>
  </node>
  <node id="-328" visible="true" lat="43.48178862" lon="-73.1188323">
    <tag k="addr:city" v="Middletown Springs"/>
    <tag k="addr:housenumber" v="52"/>
    <tag k="addr:street" v="South Street"/>
    <tag k="addr:state" v="VT"/>
    <tag k="ref:vcgi:esiteid" v="157876"/>
  </node>
  <node id="-329" visible="true" lat="43.48211457" lon="-73.11880423">
    <tag k="addr:city" v="Middletown Springs"/>
    <tag k="addr:housenumber" v="44"/>
    <tag k="addr:street" v="South Street"/>
    <tag k="addr:state" v="VT"/>
    <tag k="ref:vcgi:esiteid" v="157877"/>
  </node>
  <node id="-331" visible="true" lat="43.48202114" lon="-73.11811253">
    <tag k="addr:city" v="Middletown Springs"/>
    <tag k="addr:housenumber" v="41"/>
    <tag k="addr:street" v="South Street"/>
    <tag k="addr:state" v="VT"/>
    <tag k="ref:vcgi:esiteid" v="157879"/>
  </node>
  <node id="-332" visible="true" lat="43.48211645" lon="-73.1173992">
    <tag k="addr:city" v="Middletown Springs"/>
    <tag k="addr:housenumber" v="6"/>
    <tag k="addr:street" v="Montvert Road"/>
    <tag k="addr:state" v="VT"/>
    <tag k="ref:vcgi:esiteid" v="157880"/>
  </node>
  <node id="-333" visible="true" lat="43.48215781" lon="-73.11714844">
    <tag k="addr:city" v="Middletown Springs"/>
    <tag k="addr:housenumber" v="12"/>
    <tag k="addr:street" v="Montvert Road"/>
    <tag k="addr:state" v="VT"/>
    <tag k="ref:vcgi:esiteid" v="157881"/>
  </node>
  <node id="-334" visible="true" lat="43.48224252" lon="-73.11627802">
    <tag k="addr:city" v="Middletown Springs"/>
    <tag k="addr:housenumber" v="18"/>
    <tag k="addr:street" v="Montvert Road"/>
    <tag k="addr:state" v="VT"/>
    <tag k="ref:vcgi:esiteid" v="157882"/>
  </node>
  <node id="-336" visible="true" lat="43.48334938" lon="-73.11876189">
    <tag k="addr:city" v="Middletown Springs"/>
    <tag k="addr:housenumber" v="28"/>
    <tag k="addr:street" v="South Street"/>
    <tag k="addr:state" v="VT"/>
    <tag k="ref:vcgi:esiteid" v="157884"/>
  </node>
  <node id="-338" visible="true" lat="43.48353493" lon="-73.11880205">
    <tag k="addr:city" v="Middletown Springs"/>
    <tag k="addr:housenumber" v="24"/>
    <tag k="addr:street" v="South Street"/>
    <tag k="addr:state" v="VT"/>
    <tag k="ref:vcgi:esiteid" v="157886"/>
  </node>
  <node id="-339" visible="true" lat="43.48301958" lon="-73.11805011">
    <tag k="addr:city" v="Middletown Springs"/>
    <tag k="addr:housenumber" v="33"/>
    <tag k="addr:street" v="South Street"/>
    <tag k="addr:state" v="VT"/>
    <tag k="ref:vcgi:esiteid" v="157887"/>
  </node>
  <node id="-340" visible="true" lat="43.48319778" lon="-73.11825797">
    <tag k="addr:city" v="Middletown Springs"/>
    <tag k="addr:housenumber" v="29"/>
    <tag k="addr:street" v="South Street"/>
    <tag k="addr:state" v="VT"/>
    <tag k="ref:vcgi:esiteid" v="157888"/>
  </node>
  <node id="-341" visible="true" lat="43.48288709" lon="-73.11757974">
    <tag k="addr:city" v="Middletown Springs"/>
    <tag k="addr:housenumber" v="37"/>
    <tag k="addr:street" v="South Street"/>
    <tag k="addr:state" v="VT"/>
    <tag k="ref:vcgi:esiteid" v="157889"/>
  </node>
  <node id="-343" visible="true" lat="43.4834825" lon="-73.11819089">
    <tag k="addr:city" v="Middletown Springs"/>
    <tag k="addr:housenumber" v="25"/>
    <tag k="addr:street" v="South Street"/>
    <tag k="addr:state" v="VT"/>
    <tag k="ref:vcgi:esiteid" v="157891"/>
  </node>
  <node id="-346" visible="true" lat="43.48256741" lon="-73.10790593">
    <tag k="addr:city" v="Middletown Springs"/>
    <tag k="addr:housenumber" v="50"/>
    <tag k="addr:street" v="Fitzgerald Road"/>
    <tag k="addr:state" v="VT"/>
    <tag k="ref:vcgi:esiteid" v="157894"/>
  </node>
  <node id="-348" visible="true" lat="43.48194741" lon="-73.10518383">
    <tag k="addr:city" v="Middletown Springs"/>
    <tag k="addr:housenumber" v="67"/>
    <tag k="addr:street" v="Fitzgerald Road"/>
    <tag k="addr:state" v="VT"/>
    <tag k="ref:vcgi:esiteid" v="157896"/>
  </node>
  <node id="-349" visible="true" lat="43.48130097" lon="-73.10421191">
    <tag k="addr:city" v="Middletown Springs"/>
    <tag k="addr:housenumber" v="89"/>
    <tag k="addr:street" v="Fitzgerald Road"/>
    <tag k="addr:state" v="VT"/>
    <tag k="ref:vcgi:esiteid" v="157897"/>
  </node>
  <node id="-352" visible="true" lat="43.48605875" lon="-73.10484807">
    <tag k="addr:city" v="Middletown Springs"/>
    <tag k="addr:housenumber" v="141"/>
    <tag k="addr:street" v="East Street"/>
    <tag k="addr:state" v="VT"/>
    <tag k="ref:vcgi:esiteid" v="157900"/>
  </node>
  <node id="-353" visible="true" lat="43.48747372" lon="-73.10640081">
    <tag k="addr:city" v="Middletown Springs"/>
    <tag k="addr:housenumber" v="129"/>
    <tag k="addr:street" v="East Street"/>
    <tag k="addr:state" v="VT"/>
    <tag k="ref:vcgi:esiteid" v="157901"/>
  </node>
  <node id="-355" visible="true" lat="43.48385132" lon="-73.10830344">
    <tag k="addr:city" v="Middletown Springs"/>
    <tag k="addr:housenumber" v="23"/>
    <tag k="addr:street" v="Fitzgerald Road"/>
    <tag k="addr:state" v="VT"/>
    <tag k="ref:vcgi:esiteid" v="157903"/>
  </node>
  <node id="-356" visible="true" lat="43.48533753" lon="-73.11042211">
    <tag k="addr:city" v="Middletown Springs"/>
    <tag k="addr:housenumber" v="5"/>
    <tag k="addr:street" v="Mill Hollow Road"/>
    <tag k="addr:state" v="VT"/>
    <tag k="ref:vcgi:esiteid" v="157904"/>
  </node>
  <node id="-357" visible="true" lat="43.48656411" lon="-73.11085051">
    <tag k="addr:city" v="Middletown Springs"/>
    <tag k="addr:housenumber" v="89"/>
    <tag k="addr:street" v="East Street"/>
    <tag k="addr:state" v="VT"/>
    <tag k="ref:vcgi:esiteid" v="157905"/>
  </node>
  <node id="-358" visible="true" lat="43.4860283" lon="-73.11271339">
    <tag k="addr:city" v="Middletown Springs"/>
    <tag k="addr:housenumber" v="59"/>
    <tag k="addr:street" v="East Street"/>
    <tag k="addr:state" v="VT"/>
    <tag k="ref:vcgi:esiteid" v="157906"/>
  </node>
  <node id="-359" visible="true" lat="43.48604313" lon="-73.11314529">
    <tag k="addr:city" v="Middletown Springs"/>
    <tag k="addr:housenumber" v="55"/>
    <tag k="addr:street" v="East Street"/>
    <tag k="addr:state" v="VT"/>
    <tag k="ref:vcgi:esiteid" v="157907"/>
  </node>
  <node id="-360" visible="true" lat="43.4861658" lon="-73.11371957">
    <tag k="addr:city" v="Middletown Springs"/>
    <tag k="addr:housenumber" v="8"/>
    <tag k="addr:street" v="Many Springs Drive"/>
    <tag k="addr:state" v="VT"/>
    <tag k="ref:vcgi:esiteid" v="157908"/>
  </node>
  <node id="-363" visible="true" lat="43.48560582" lon="-73.11448908">
    <tag k="addr:city" v="Middletown Springs"/>
    <tag k="addr:housenumber" v="40"/>
    <tag k="addr:street" v="East Street"/>
    <tag k="addr:state" v="VT"/>
    <tag k="ref:vcgi:esiteid" v="157912"/>
  </node>
  <node id="-364" visible="true" lat="43.48358393" lon="-73.11554594">
    <tag k="addr:city" v="Middletown Springs"/>
    <tag k="addr:housenumber" v="23"/>
    <tag k="addr:street" v="Montvert Road"/>
    <tag k="addr:state" v="VT"/>
    <tag k="ref:vcgi:esiteid" v="157913"/>
  </node>
  <node id="-369" visible="true" lat="43.48568528" lon="-73.11592053">
    <tag k="addr:city" v="Middletown Springs"/>
    <tag k="addr:housenumber" v="25"/>
    <tag k="addr:street" v="East Street"/>
    <tag k="addr:state" v="VT"/>
    <tag k="ref:vcgi:esiteid" v="157918"/>
  </node>
  <node id="-370" visible="true" lat="43.48568196" lon="-73.11612452">
    <tag k="addr:city" v="Middletown Springs"/>
    <tag k="addr:housenumber" v="21"/>
    <tag k="addr:street" v="East Street"/>
    <tag k="addr:state" v="VT"/>
    <tag k="ref:vcgi:esiteid" v="157919"/>
  </node>
  <node id="-383" visible="true" lat="43.48398654" lon="-73.12041849">
    <tag k="addr:city" v="Middletown Springs"/>
    <tag k="addr:housenumber" v="15"/>
    <tag k="addr:street" v="School House Road"/>
    <tag k="addr:state" v="VT"/>
    <tag k="ref:vcgi:esiteid" v="157934"/>
  </node>
  <node id="-384" visible="true" lat="43.48409943" lon="-73.11866284">
    <tag k="addr:city" v="Middletown Springs"/>
    <tag k="addr:housenumber" v="12"/>
    <tag k="addr:street" v="South Street"/>
    <tag k="addr:state" v="VT"/>
    <tag k="ref:vcgi:esiteid" v="157936"/>
  </node>
  <node id="-409" visible="true" lat="43.48500676" lon="-73.11984638">
    <tag k="addr:city" v="Middletown Springs"/>
    <tag k="addr:housenumber" v="9"/>
    <tag k="addr:street" v="West Street"/>
    <tag k="addr:state" v="VT"/>
    <tag k="ref:vcgi:esiteid" v="157961"/>
  </node>
  <node id="-410" visible="true" lat="43.48503863" lon="-73.12029414">
    <tag k="addr:city" v="Middletown Springs"/>
    <tag k="addr:housenumber" v="15"/>
    <tag k="addr:street" v="West Street"/>
    <tag k="addr:state" v="VT"/>
    <tag k="ref:vcgi:esiteid" v="157962"/>
  </node>
  <node id="-421" visible="true" lat="43.48436728" lon="-73.12287767">
    <tag k="addr:city" v="Middletown Springs"/>
    <tag k="addr:housenumber" v="11"/>
    <tag k="addr:street" v="Pleasant View Road"/>
    <tag k="addr:state" v="VT"/>
    <tag k="ref:vcgi:esiteid" v="157973"/>
  </node>
  <node id="-430" visible="true" lat="43.48309477" lon="-73.12249567">
    <tag k="addr:city" v="Middletown Springs"/>
    <tag k="addr:housenumber" v="19"/>
    <tag k="addr:street" v="Pleasant View Road"/>
    <tag k="addr:state" v="VT"/>
    <tag k="ref:vcgi:esiteid" v="157982"/>
  </node>
  <node id="-463" visible="true" lat="43.48787853" lon="-73.16327617">
    <tag k="addr:city" v="Middletown Springs"/>
    <tag k="addr:housenumber" v="111"/>
    <tag k="addr:street" v="Spring Drive"/>
    <tag k="addr:state" v="VT"/>
    <tag k="ref:vcgi:esiteid" v="158015"/>
  </node>
  <node id="-464" visible="true" lat="43.49124092" lon="-73.12434572">
    <tag k="addr:city" v="Middletown Springs"/>
    <tag k="addr:housenumber" v="49"/>
    <tag k="addr:street" v="Spruce Knob Road"/>
    <tag k="addr:state" v="VT"/>
    <tag k="ref:vcgi:esiteid" v="158016"/>
  </node>
  <node id="-465" visible="true" lat="43.49089887" lon="-73.11892531">
    <tag k="addr:city" v="Middletown Springs"/>
    <tag k="addr:housenumber" v="4"/>
    <tag k="addr:street" v="Spruce Knob Road"/>
    <tag k="addr:state" v="VT"/>
    <tag k="ref:vcgi:esiteid" v="158017"/>
  </node>
  <node id="-467" visible="true" lat="43.49107552" lon="-73.11820699">
    <tag k="addr:city" v="Middletown Springs"/>
    <tag k="addr:housenumber" v="80"/>
    <tag k="addr:street" v="North Street"/>
    <tag k="addr:state" v="VT"/>
    <tag k="ref:vcgi:esiteid" v="158019"/>
  </node>
  <node id="-471" visible="true" lat="43.4877177" lon="-73.11927264">
    <tag k="addr:city" v="Middletown Springs"/>
    <tag k="addr:housenumber" v="21"/>
    <tag k="addr:street" v="North Street"/>
    <tag k="addr:state" v="VT"/>
    <tag k="ref:vcgi:esiteid" v="158023"/>
  </node>
  <node id="-473" visible="true" lat="43.48784418" lon="-73.11833676">
    <tag k="addr:city" v="Middletown Springs"/>
    <tag k="addr:housenumber" v="33"/>
    <tag k="addr:street" v="North Street"/>
    <tag k="addr:state" v="VT"/>
    <tag k="ref:vcgi:esiteid" v="158025"/>
  </node>
  <node id="-474" visible="true" lat="43.48806666" lon="-73.11841753">
    <tag k="addr:city" v="Middletown Springs"/>
    <tag k="addr:housenumber" v="37"/>
    <tag k="addr:street" v="North Street"/>
    <tag k="addr:state" v="VT"/>
    <tag k="ref:vcgi:esiteid" v="158026"/>
  </node>
  <node id="-476" visible="true" lat="43.48880991" lon="-73.11837801">
    <tag k="addr:city" v="Middletown Springs"/>
    <tag k="addr:housenumber" v="47"/>
    <tag k="addr:street" v="North Street"/>
    <tag k="addr:state" v="VT"/>
    <tag k="ref:vcgi:esiteid" v="158028"/>
  </node>
  <node id="-481" visible="true" lat="43.48778924" lon="-73.11792799">
    <tag k="addr:city" v="Middletown Springs"/>
    <tag k="addr:housenumber" v="32"/>
    <tag k="addr:street" v="North Street"/>
    <tag k="addr:state" v="VT"/>
    <tag k="ref:vcgi:esiteid" v="158033"/>
  </node>
  <node id="-482" visible="true" lat="43.48794918" lon="-73.11777001">
    <tag k="addr:city" v="Middletown Springs"/>
    <tag k="addr:housenumber" v="36"/>
    <tag k="addr:street" v="North Street"/>
    <tag k="addr:state" v="VT"/>
    <tag k="ref:vcgi:esiteid" v="158034"/>
  </node>
  <node id="-483" visible="true" lat="43.48837203" lon="-73.11796533">
    <tag k="addr:city" v="Middletown Springs"/>
    <tag k="addr:housenumber" v="40"/>
    <tag k="addr:street" v="North Street"/>
    <tag k="addr:state" v="VT"/>
    <tag k="ref:vcgi:esiteid" v="158035"/>
  </node>
  <node id="-484" visible="true" lat="43.48868125" lon="-73.11785858">
    <tag k="addr:city" v="Middletown Springs"/>
    <tag k="addr:housenumber" v="44"/>
    <tag k="addr:street" v="North Street"/>
    <tag k="addr:state" v="VT"/>
    <tag k="ref:vcgi:esiteid" v="158036"/>
  </node>
  <node id="-485" visible="true" lat="43.48910961" lon="-73.1179179">
    <tag k="addr:city" v="Middletown Springs"/>
    <tag k="addr:housenumber" v="50"/>
    <tag k="addr:street" v="North Street"/>
    <tag k="addr:state" v="VT"/>
    <tag k="ref:vcgi:esiteid" v="158037"/>
  </node>
  <node id="-487" visible="true" lat="43.48791193" lon="-73.11212012">
    <tag k="addr:city" v="Middletown Springs"/>
    <tag k="addr:housenumber" v="71"/>
    <tag k="addr:street" v="East Street"/>
    <tag k="addr:state" v="VT"/>
    <tag k="ref:vcgi:esiteid" v="158039"/>
  </node>
  <node id="-488" visible="true" lat="43.48787024" lon="-73.10922299">
    <tag k="addr:city" v="Middletown Springs"/>
    <tag k="addr:housenumber" v="99"/>
    <tag k="addr:street" v="East Street"/>
    <tag k="addr:state" v="VT"/>
    <tag k="ref:vcgi:esiteid" v="158040"/>
  </node>
  <node id="-490" visible="true" lat="43.49254234" lon="-73.10093833">
    <tag k="addr:city" v="Middletown Springs"/>
    <tag k="addr:housenumber" v="100"/>
    <tag k="addr:street" v="Dudley Road"/>
    <tag k="addr:state" v="VT"/>
    <tag k="ref:vcgi:esiteid" v="158042"/>
  </node>
  <node id="-491" visible="true" lat="43.49328683" lon="-73.10093197">
    <tag k="addr:city" v="Middletown Springs"/>
    <tag k="addr:housenumber" v="120"/>
    <tag k="addr:street" v="Dudley Road"/>
    <tag k="addr:state" v="VT"/>
    <tag k="ref:vcgi:esiteid" v="158043"/>
  </node>
  <node id="-492" visible="true" lat="43.49213185" lon="-73.10209813">
    <tag k="addr:city" v="Middletown Springs"/>
    <tag k="addr:housenumber" v="103"/>
    <tag k="addr:street" v="Dudley Road"/>
    <tag k="addr:state" v="VT"/>
    <tag k="ref:vcgi:esiteid" v="158044"/>
  </node>
  <node id="-493" visible="true" lat="43.49145552" lon="-73.11214021">
    <tag k="addr:city" v="Middletown Springs"/>
    <tag k="addr:housenumber" v="90"/>
    <tag k="addr:street" v="Many Springs Drive"/>
    <tag k="addr:state" v="VT"/>
    <tag k="ref:vcgi:esiteid" v="158045"/>
  </node>
  <node id="-494" visible="true" lat="43.49260487" lon="-73.11947659">
    <tag k="addr:city" v="Middletown Springs"/>
    <tag k="addr:housenumber" v="99"/>
    <tag k="addr:street" v="North Street"/>
    <tag k="addr:state" v="VT"/>
    <tag k="ref:vcgi:esiteid" v="158046"/>
  </node>
  <node id="-496" visible="true" lat="43.4929194" lon="-73.11838854">
    <tag k="addr:city" v="Middletown Springs"/>
    <tag k="addr:housenumber" v="100"/>
    <tag k="addr:street" v="North Street"/>
    <tag k="addr:state" v="VT"/>
    <tag k="ref:vcgi:esiteid" v="158048"/>
  </node>
  <node id="-498" visible="true" lat="43.49457815" lon="-73.12760687">
    <tag k="addr:city" v="Middletown Springs"/>
    <tag k="addr:housenumber" v="33"/>
    <tag k="addr:street" v="K Lane"/>
    <tag k="addr:state" v="VT"/>
    <tag k="ref:vcgi:esiteid" v="158050"/>
  </node>
  <node id="-499" visible="true" lat="43.49227545" lon="-73.12539267">
    <tag k="addr:city" v="Middletown Springs"/>
    <tag k="addr:housenumber" v="70"/>
    <tag k="addr:street" v="Spruce Knob Road"/>
    <tag k="addr:state" v="VT"/>
    <tag k="ref:vcgi:esiteid" v="158051"/>
  </node>
  <node id="-510" visible="true" lat="43.49249213" lon="-73.15608351">
    <tag k="addr:city" v="Middletown Springs"/>
    <tag k="addr:housenumber" v="427"/>
    <tag k="addr:street" v="West Street"/>
    <tag k="addr:state" v="VT"/>
    <tag k="ref:vcgi:esiteid" v="158062"/>
  </node>
  <node id="-512" visible="true" lat="43.49316725" lon="-73.15696227">
    <tag k="addr:city" v="Middletown Springs"/>
    <tag k="addr:housenumber" v="507"/>
    <tag k="addr:street" v="West Street"/>
    <tag k="addr:state" v="VT"/>
    <tag k="ref:vcgi:esiteid" v="158064"/>
  </node>
  <node id="-525" visible="true" lat="43.49557522" lon="-73.14562775">
    <tag k="addr:city" v="Middletown Springs"/>
    <tag k="addr:housenumber" v="90"/>
    <tag k="addr:street" v="Norton Road"/>
    <tag k="addr:state" v="VT"/>
    <tag k="ref:vcgi:esiteid" v="158078"/>
  </node>
  <node id="-526" visible="true" lat="43.49719749" lon="-73.12731995">
    <tag k="addr:city" v="Middletown Springs"/>
    <tag k="addr:housenumber" v="160"/>
    <tag k="addr:street" v="Spruce Knob Road"/>
    <tag k="addr:state" v="VT"/>
    <tag k="ref:vcgi:esiteid" v="158079"/>
  </node>
  <node id="-527" visible="true" lat="43.49840243" lon="-73.13063006">
    <tag k="addr:city" v="Middletown Springs"/>
    <tag k="addr:housenumber" v="170"/>
    <tag k="addr:street" v="Spruce Knob Road"/>
    <tag k="addr:state" v="VT"/>
    <tag k="ref:vcgi:esiteid" v="158080"/>
  </node>
  <node id="-528" visible="true" lat="43.49808276" lon="-73.13159246">
    <tag k="addr:city" v="Middletown Springs"/>
    <tag k="addr:housenumber" v="179"/>
    <tag k="addr:street" v="Spruce Knob Road"/>
    <tag k="addr:state" v="VT"/>
    <tag k="ref:vcgi:esiteid" v="158081"/>
  </node>
  <node id="-530" visible="true" lat="43.49707878" lon="-73.11974216">
    <tag k="addr:city" v="Middletown Springs"/>
    <tag k="addr:housenumber" v="159"/>
    <tag k="addr:street" v="North Street"/>
    <tag k="addr:state" v="VT"/>
    <tag k="ref:vcgi:esiteid" v="158083"/>
  </node>
  <node id="-532" visible="true" lat="43.49783831" lon="-73.11880776">
    <tag k="addr:city" v="Middletown Springs"/>
    <tag k="addr:housenumber" v="170"/>
    <tag k="addr:street" v="North Street"/>
    <tag k="addr:state" v="VT"/>
    <tag k="ref:vcgi:esiteid" v="158085"/>
  </node>
  <node id="-533" visible="true" lat="43.49570018" lon="-73.11889584">
    <tag k="addr:city" v="Middletown Springs"/>
    <tag k="addr:housenumber" v="140"/>
    <tag k="addr:street" v="North Street"/>
    <tag k="addr:state" v="VT"/>
    <tag k="ref:vcgi:esiteid" v="158086"/>
  </node>
  <node id="-534" visible="true" lat="43.49566751" lon="-73.10036674">
    <tag k="addr:city" v="Middletown Springs"/>
    <tag k="addr:housenumber" v="146"/>
    <tag k="addr:street" v="Dudley Road"/>
    <tag k="addr:state" v="VT"/>
    <tag k="ref:vcgi:esiteid" v="158087"/>
  </node>
  <node id="-535" visible="true" lat="43.49639914" lon="-73.10144961">
    <tag k="addr:city" v="Middletown Springs"/>
    <tag k="addr:housenumber" v="165"/>
    <tag k="addr:street" v="Dudley Road"/>
    <tag k="addr:state" v="VT"/>
    <tag k="ref:vcgi:esiteid" v="158088"/>
  </node>
  <node id="-537" visible="true" lat="43.49856779" lon="-73.09990083">
    <tag k="addr:city" v="Middletown Springs"/>
    <tag k="addr:housenumber" v="190"/>
    <tag k="addr:street" v="Dudley Road"/>
    <tag k="addr:state" v="VT"/>
    <tag k="ref:vcgi:esiteid" v="158090"/>
  </node>
  <node id="-538" visible="true" lat="43.49829283" lon="-73.10219075">
    <tag k="addr:city" v="Middletown Springs"/>
    <tag k="addr:housenumber" v="195"/>
    <tag k="addr:street" v="Dudley Road"/>
    <tag k="addr:state" v="VT"/>
    <tag k="ref:vcgi:esiteid" v="158091"/>
  </node>
  <node id="-539" visible="true" lat="43.49908725" lon="-73.1012811">
    <tag k="addr:city" v="Middletown Springs"/>
    <tag k="addr:housenumber" v="12"/>
    <tag k="addr:street" v="Porter Drive"/>
    <tag k="addr:state" v="VT"/>
    <tag k="ref:vcgi:esiteid" v="158092"/>
  </node>
  <node id="-540" visible="true" lat="43.4991574" lon="-73.10081746">
    <tag k="addr:city" v="Middletown Springs"/>
    <tag k="addr:housenumber" v="6"/>
    <tag k="addr:street" v="Porter Drive"/>
    <tag k="addr:state" v="VT"/>
    <tag k="ref:vcgi:esiteid" v="158093"/>
  </node>
  <node id="-541" visible="true" lat="43.49897428" lon="-73.09977138">
    <tag k="addr:city" v="Middletown Springs"/>
    <tag k="addr:housenumber" v="196"/>
    <tag k="addr:street" v="Dudley Road"/>
    <tag k="addr:state" v="VT"/>
    <tag k="ref:vcgi:esiteid" v="158094"/>
  </node>
  <node id="-542" visible="true" lat="43.50042004" lon="-73.10091635">
    <tag k="addr:city" v="Middletown Springs"/>
    <tag k="addr:housenumber" v="217"/>
    <tag k="addr:street" v="Dudley Road"/>
    <tag k="addr:state" v="VT"/>
    <tag k="ref:vcgi:esiteid" v="158095"/>
  </node>
  <node id="-543" visible="true" lat="43.49900219" lon="-73.11919652">
    <tag k="addr:city" v="Middletown Springs"/>
    <tag k="addr:housenumber" v="180"/>
    <tag k="addr:street" v="North Street"/>
    <tag k="addr:state" v="VT"/>
    <tag k="ref:vcgi:esiteid" v="158096"/>
  </node>
  <node id="-544" visible="true" lat="43.50033497" lon="-73.11900599">
    <tag k="addr:city" v="Middletown Springs"/>
    <tag k="addr:housenumber" v="196"/>
    <tag k="addr:street" v="North Street"/>
    <tag k="addr:state" v="VT"/>
    <tag k="ref:vcgi:esiteid" v="158097"/>
  </node>
  <node id="-545" visible="true" lat="43.50227208" lon="-73.11909645">
    <tag k="addr:city" v="Middletown Springs"/>
    <tag k="addr:housenumber" v="224"/>
    <tag k="addr:street" v="North Street"/>
    <tag k="addr:state" v="VT"/>
    <tag k="ref:vcgi:esiteid" v="158098"/>
  </node>
  <node id="-546" visible="true" lat="43.50159743" lon="-73.12018883">
    <tag k="addr:city" v="Middletown Springs"/>
    <tag k="addr:housenumber" v="217"/>
    <tag k="addr:street" v="North Street"/>
    <tag k="addr:state" v="VT"/>
    <tag k="ref:vcgi:esiteid" v="158099"/>
  </node>
  <node id="-548" visible="true" lat="43.50046247" lon="-73.12078965">
    <tag k="addr:city" v="Middletown Springs"/>
    <tag k="addr:housenumber" v="189"/>
    <tag k="addr:street" v="North Street"/>
    <tag k="addr:state" v="VT"/>
    <tag k="ref:vcgi:esiteid" v="158101"/>
  </node>
  <node id="-549" visible="true" lat="43.49953557" lon="-73.1209686">
    <tag k="addr:city" v="Middletown Springs"/>
    <tag k="addr:housenumber" v="179"/>
    <tag k="addr:street" v="North Street"/>
    <tag k="addr:state" v="VT"/>
    <tag k="ref:vcgi:esiteid" v="158102"/>
  </node>
  <node id="-550" visible="true" lat="43.49918386" lon="-73.13195727">
    <tag k="addr:city" v="Middletown Springs"/>
    <tag k="addr:housenumber" v="189"/>
    <tag k="addr:street" v="Spruce Knob Road"/>
    <tag k="addr:state" v="VT"/>
    <tag k="ref:vcgi:esiteid" v="158103"/>
  </node>
  <node id="-552" visible="true" lat="43.50024498" lon="-73.13335024">
    <tag k="addr:city" v="Middletown Springs"/>
    <tag k="addr:housenumber" v="260"/>
    <tag k="addr:street" v="Norton Road"/>
    <tag k="addr:state" v="VT"/>
    <tag k="ref:vcgi:esiteid" v="158105"/>
  </node>
  <node id="-553" visible="true" lat="43.50015608" lon="-73.13597965">
    <tag k="addr:city" v="Middletown Springs"/>
    <tag k="addr:housenumber" v="230"/>
    <tag k="addr:street" v="Norton Road"/>
    <tag k="addr:state" v="VT"/>
    <tag k="ref:vcgi:esiteid" v="158106"/>
  </node>
  <node id="-555" visible="true" lat="43.50133465" lon="-73.13885011">
    <tag k="addr:city" v="Middletown Springs"/>
    <tag k="addr:housenumber" v="207"/>
    <tag k="addr:street" v="Norton Road"/>
    <tag k="addr:state" v="VT"/>
    <tag k="ref:vcgi:esiteid" v="158108"/>
  </node>
  <node id="-557" visible="true" lat="43.49865311" lon="-73.14511879">
    <tag k="addr:city" v="Middletown Springs"/>
    <tag k="addr:housenumber" v="139"/>
    <tag k="addr:street" v="Norton Road"/>
    <tag k="addr:state" v="VT"/>
    <tag k="ref:vcgi:esiteid" v="158110"/>
  </node>
  <node id="-559" visible="true" lat="43.50299173" lon="-73.13173001">
    <tag k="addr:city" v="Middletown Springs"/>
    <tag k="addr:housenumber" v="240"/>
    <tag k="addr:street" v="Spruce Knob Road"/>
    <tag k="addr:state" v="VT"/>
    <tag k="ref:vcgi:esiteid" v="158112"/>
  </node>
  <node id="-560" visible="true" lat="43.50629549" lon="-73.1317095">
    <tag k="addr:city" v="Middletown Springs"/>
    <tag k="addr:housenumber" v="277"/>
    <tag k="addr:street" v="Spruce Knob Road"/>
    <tag k="addr:state" v="VT"/>
    <tag k="ref:vcgi:esiteid" v="158113"/>
  </node>
  <node id="-561" visible="true" lat="43.50315898" lon="-73.12010405">
    <tag k="addr:city" v="Middletown Springs"/>
    <tag k="addr:housenumber" v="237"/>
    <tag k="addr:street" v="North Street"/>
    <tag k="addr:state" v="VT"/>
    <tag k="ref:vcgi:esiteid" v="158114"/>
  </node>
  <node id="-562" visible="true" lat="43.50345102" lon="-73.12018158">
    <tag k="addr:city" v="Middletown Springs"/>
    <tag k="addr:housenumber" v="239"/>
    <tag k="addr:street" v="North Street"/>
    <tag k="addr:state" v="VT"/>
    <tag k="ref:vcgi:esiteid" v="158115"/>
  </node>
  <node id="-564" visible="true" lat="43.50468292" lon="-73.12006622">
    <tag k="addr:city" v="Middletown Springs"/>
    <tag k="addr:housenumber" v="257"/>
    <tag k="addr:street" v="North Street"/>
    <tag k="addr:state" v="VT"/>
    <tag k="ref:vcgi:esiteid" v="158118"/>
  </node>
  <node id="-566" visible="true" lat="43.50511856" lon="-73.11907843">
    <tag k="addr:city" v="Middletown Springs"/>
    <tag k="addr:housenumber" v="270"/>
    <tag k="addr:street" v="North Street"/>
    <tag k="addr:state" v="VT"/>
    <tag k="ref:vcgi:esiteid" v="158123"/>
  </node>
  <node id="-569" visible="true" lat="43.50363973" lon="-73.10166283">
    <tag k="addr:city" v="Middletown Springs"/>
    <tag k="addr:housenumber" v="257"/>
    <tag k="addr:street" v="Dudley Road"/>
    <tag k="addr:state" v="VT"/>
    <tag k="ref:vcgi:esiteid" v="158126"/>
  </node>
  <node id="-571" visible="true" lat="43.50526803" lon="-73.10178894">
    <tag k="addr:city" v="Middletown Springs"/>
    <tag k="addr:housenumber" v="287"/>
    <tag k="addr:street" v="Dudley Road"/>
    <tag k="addr:state" v="VT"/>
    <tag k="ref:vcgi:esiteid" v="158128"/>
  </node>
  <node id="-576" visible="true" lat="43.48723172" lon="-73.17261193">
    <tag k="addr:city" v="Middletown Springs"/>
    <tag k="addr:housenumber" v="119"/>
    <tag k="addr:street" v="Dayton Hill"/>
    <tag k="addr:state" v="VT"/>
    <tag k="ref:vcgi:esiteid" v="158133"/>
  </node>
  <node id="-579" visible="true" lat="43.49090882" lon="-73.12276991">
    <tag k="addr:city" v="Middletown Springs"/>
    <tag k="addr:housenumber" v="45"/>
    <tag k="addr:street" v="Spruce Knob Road"/>
    <tag k="addr:state" v="VT"/>
    <tag k="ref:vcgi:esiteid" v="158136"/>
  </node>
  <node id="-581" visible="true" lat="43.50536569" lon="-73.12900478">
    <tag k="addr:city" v="Middletown Springs"/>
    <tag k="addr:housenumber" v="280"/>
    <tag k="addr:street" v="Spruce Knob Road"/>
    <tag k="addr:state" v="VT"/>
    <tag k="ref:vcgi:esiteid" v="158138"/>
  </node>
  <node id="-582" visible="true" lat="43.50947098" lon="-73.12937017">
    <tag k="addr:city" v="Middletown Springs"/>
    <tag k="addr:housenumber" v="328"/>
    <tag k="addr:street" v="Spruce Knob Road"/>
    <tag k="addr:state" v="VT"/>
    <tag k="ref:vcgi:esiteid" v="158139"/>
  </node>
  <node id="-583" visible="true" lat="43.49951546" lon="-73.1409926">
    <tag k="addr:city" v="Middletown Springs"/>
    <tag k="addr:housenumber" v="180"/>
    <tag k="addr:street" v="Norton Road"/>
    <tag k="addr:state" v="VT"/>
    <tag k="ref:vcgi:esiteid" v="158140"/>
  </node>
  <node id="-589" visible="true" lat="43.49394857" lon="-73.12544635">
    <tag k="addr:city" v="Middletown Springs"/>
    <tag k="addr:housenumber" v="14"/>
    <tag k="addr:street" v="K Lane"/>
    <tag k="addr:state" v="VT"/>
    <tag k="ref:vcgi:esiteid" v="158146"/>
  </node>
  <node id="-590" visible="true" lat="43.50050322" lon="-73.15944318">
    <tag k="addr:city" v="Middletown Springs"/>
    <tag k="addr:housenumber" v="45"/>
    <tag k="addr:street" v="Lookout Lane"/>
    <tag k="addr:state" v="VT"/>
    <tag k="ref:vcgi:esiteid" v="158147"/>
  </node>
  <node id="-592" visible="true" lat="43.50752938" lon="-73.1210574">
    <tag k="addr:city" v="Middletown Springs"/>
    <tag k="addr:housenumber" v="273"/>
    <tag k="addr:street" v="North Street"/>
    <tag k="addr:state" v="VT"/>
    <tag k="ref:vcgi:esiteid" v="158150"/>
  </node>
  <node id="-593" visible="true" lat="43.5095654" lon="-73.12090989">
    <tag k="addr:city" v="Middletown Springs"/>
    <tag k="addr:housenumber" v="25"/>
    <tag k="addr:street" v="Hemenway Drive"/>
    <tag k="addr:state" v="VT"/>
    <tag k="ref:vcgi:esiteid" v="158151"/>
  </node>
  <node id="-594" visible="true" lat="43.50891092" lon="-73.12198151">
    <tag k="addr:city" v="Middletown Springs"/>
    <tag k="addr:housenumber" v="17"/>
    <tag k="addr:street" v="Hemenway Drive"/>
    <tag k="addr:state" v="VT"/>
    <tag k="ref:vcgi:esiteid" v="158152"/>
  </node>
  <node id="-595" visible="true" lat="43.52643115" lon="-73.10913368">
    <tag k="addr:city" v="Middletown Springs"/>
    <tag k="addr:housenumber" v="577"/>
    <tag k="addr:street" v="North Street"/>
    <tag k="addr:state" v="VT"/>
    <tag k="ref:vcgi:esiteid" v="158153"/>
  </node>
  <node id="-596" visible="true" lat="43.50093424" lon="-73.11872174">
    <tag k="addr:city" v="Middletown Springs"/>
    <tag k="addr:housenumber" v="218"/>
    <tag k="addr:street" v="North Street"/>
    <tag k="addr:state" v="VT"/>
    <tag k="ref:vcgi:esiteid" v="158154"/>
  </node>
  <node id="-597" visible="true" lat="43.48936385" lon="-73.1126136">
    <tag k="addr:city" v="Middletown Springs"/>
    <tag k="addr:housenumber" v="48"/>
    <tag k="addr:street" v="Many Springs Drive"/>
    <tag k="addr:state" v="VT"/>
    <tag k="ref:vcgi:esiteid" v="158155"/>
  </node>
  <node id="-598" visible="true" lat="43.51086029" lon="-73.10132863">
    <tag k="addr:city" v="Middletown Springs"/>
    <tag k="addr:housenumber" v="417"/>
    <tag k="addr:street" v="Dudley Road"/>
    <tag k="addr:state" v="VT"/>
    <tag k="ref:vcgi:esiteid" v="158157"/>
  </node>
  <node id="-599" visible="true" lat="43.48920042" lon="-73.0939891">
    <tag k="addr:city" v="Middletown Springs"/>
    <tag k="addr:housenumber" v="60"/>
    <tag k="addr:street" v="Haley Road"/>
    <tag k="addr:state" v="VT"/>
    <tag k="ref:vcgi:esiteid" v="158158"/>
  </node>
  <node id="-600" visible="true" lat="43.48759195" lon="-73.0942152">
    <tag k="addr:city" v="Middletown Springs"/>
    <tag k="addr:housenumber" v="17"/>
    <tag k="addr:street" v="Studio Lane"/>
    <tag k="addr:state" v="VT"/>
    <tag k="ref:vcgi:esiteid" v="158159"/>
  </node>
  <node id="-601" visible="true" lat="43.48665153" lon="-73.09358002">
    <tag k="addr:city" v="Middletown Springs"/>
    <tag k="addr:housenumber" v="20"/>
    <tag k="addr:street" v="Studio Lane"/>
    <tag k="addr:state" v="VT"/>
    <tag k="ref:vcgi:esiteid" v="158160"/>
  </node>
  <node id="-602" visible="true" lat="43.48297472" lon="-73.0823036">
    <tag k="addr:city" v="Middletown Springs"/>
    <tag k="addr:housenumber" v="413"/>
    <tag k="addr:street" v="East Street"/>
    <tag k="addr:state" v="VT"/>
    <tag k="ref:vcgi:esiteid" v="158161"/>
  </node>
  <node id="-603" visible="true" lat="43.48359421" lon="-73.08129767">
    <tag k="addr:city" v="Middletown Springs"/>
    <tag k="addr:housenumber" v="419"/>
    <tag k="addr:street" v="East Street"/>
    <tag k="addr:state" v="VT"/>
    <tag k="ref:vcgi:esiteid" v="158162"/>
  </node>
  <node id="-605" visible="true" lat="43.48384265" lon="-73.1182578">
    <tag k="addr:city" v="Middletown Springs"/>
    <tag k="addr:housenumber" v="17"/>
    <tag k="addr:street" v="South Street"/>
    <tag k="addr:state" v="VT"/>
    <tag k="ref:vcgi:esiteid" v="158164"/>
  </node>
  <node id="-606" visible="true" lat="43.48366895" lon="-73.11829596">
    <tag k="addr:city" v="Middletown Springs"/>
    <tag k="addr:housenumber" v="21"/>
    <tag k="addr:street" v="South Street"/>
    <tag k="addr:state" v="VT"/>
    <tag k="ref:vcgi:esiteid" v="158165"/>
  </node>
  <node id="-607" visible="true" lat="43.48376872" lon="-73.11340139">
    <tag k="addr:city" v="Middletown Springs"/>
    <tag k="addr:housenumber" v="35"/>
    <tag k="addr:street" v="Montvert Road"/>
    <tag k="addr:state" v="VT"/>
    <tag k="ref:vcgi:esiteid" v="158166"/>
  </node>
  <node id="-608" visible="true" lat="43.46148063" lon="-73.10441761">
    <tag k="addr:city" v="Middletown Springs"/>
    <tag k="addr:housenumber" v="83"/>
    <tag k="addr:street" v="Daisy Hollow Road"/>
    <tag k="addr:state" v="VT"/>
    <tag k="ref:vcgi:esiteid" v="158167"/>
  </node>
  <node id="-609" visible="true" lat="43.46408186" lon="-73.10380742">
    <tag k="addr:city" v="Middletown Springs"/>
    <tag k="addr:housenumber" v="129"/>
    <tag k="addr:street" v="Daisy Hollow Road"/>
    <tag k="addr:state" v="VT"/>
    <tag k="ref:vcgi:esiteid" v="158168"/>
  </node>
  <node id="-610" visible="true" lat="43.46542614" lon="-73.10127271">
    <tag k="addr:city" v="Middletown Springs"/>
    <tag k="addr:housenumber" v="159"/>
    <tag k="addr:street" v="Daisy Hollow Road"/>
    <tag k="addr:state" v="VT"/>
    <tag k="ref:vcgi:esiteid" v="158169"/>
  </node>
  <node id="-611" visible="true" lat="43.47477707" lon="-73.09113959">
    <tag k="addr:city" v="Middletown Springs"/>
    <tag k="addr:housenumber" v="293"/>
    <tag k="addr:street" v="Daisy Hollow Road"/>
    <tag k="addr:state" v="VT"/>
    <tag k="ref:vcgi:esiteid" v="158170"/>
  </node>
  <node id="-612" visible="true" lat="43.48257394" lon="-73.10998519">
    <tag k="addr:city" v="Middletown Springs"/>
    <tag k="addr:housenumber" v="19"/>
    <tag k="addr:street" v="Apple Mountain Lane"/>
    <tag k="addr:state" v="VT"/>
    <tag k="ref:vcgi:esiteid" v="158171"/>
  </node>
  <node id="-613" visible="true" lat="43.47875123" lon="-73.08767644">
    <tag k="addr:city" v="Middletown Springs"/>
    <tag k="addr:housenumber" v="387"/>
    <tag k="addr:street" v="Daisy Hollow Road"/>
    <tag k="addr:state" v="VT"/>
    <tag k="ref:vcgi:esiteid" v="158172"/>
  </node>
  <node id="-614" visible="true" lat="43.47811029" lon="-73.08752254">
    <tag k="addr:city" v="Middletown Springs"/>
    <tag k="addr:housenumber" v="380"/>
    <tag k="addr:street" v="Daisy Hollow Road"/>
    <tag k="addr:state" v="VT"/>
    <tag k="ref:vcgi:esiteid" v="158173"/>
  </node>
  <node id="-616" visible="true" lat="43.48000406" lon="-73.11913014">
    <tag k="addr:city" v="Middletown Springs"/>
    <tag k="addr:housenumber" v="72"/>
    <tag k="addr:street" v="South Street"/>
    <tag k="addr:state" v="VT"/>
    <tag k="ref:vcgi:esiteid" v="158175"/>
  </node>
  <node id="-617" visible="true" lat="43.48449295" lon="-73.11921628">
    <tag k="addr:city" v="Middletown Springs"/>
    <tag k="addr:housenumber" v="3"/>
    <tag k="addr:street" v="N Lane"/>
    <tag k="addr:state" v="VT"/>
    <tag k="ref:vcgi:esiteid" v="158176"/>
  </node>
  <node id="-618" visible="true" lat="43.47495229" lon="-73.13331494">
    <tag k="addr:city" v="Middletown Springs"/>
    <tag k="addr:housenumber" v="9"/>
    <tag k="addr:street" v="Justamere Drive"/>
    <tag k="addr:state" v="VT"/>
    <tag k="ref:vcgi:esiteid" v="158178"/>
  </node>
  <node id="-622" visible="true" lat="43.45429293" lon="-73.14134259">
    <tag k="addr:city" v="Middletown Springs"/>
    <tag k="addr:housenumber" v="18"/>
    <tag k="addr:street" v="Meadowbrook Lane"/>
    <tag k="addr:state" v="VT"/>
    <tag k="ref:vcgi:esiteid" v="158183"/>
  </node>
  <node id="-631" visible="true" lat="43.49459009" lon="-73.12268259">
    <tag k="addr:city" v="Middletown Springs"/>
    <tag k="addr:housenumber" v="119"/>
    <tag k="addr:street" v="North Street"/>
    <tag k="addr:state" v="VT"/>
    <tag k="ref:vcgi:esiteid" v="158193"/>
  </node>
  <node id="-632" visible="true" lat="43.49890353" lon="-73.14689621">
    <tag k="addr:city" v="Middletown Springs"/>
    <tag k="addr:housenumber" v="89"/>
    <tag k="addr:street" v="Norton Road"/>
    <tag k="addr:state" v="VT"/>
    <tag k="ref:vcgi:esiteid" v="158194"/>
  </node>
  <node id="-633" visible="true" lat="43.46499608" lon="-73.10265764">
    <tag k="addr:city" v="Middletown Springs"/>
    <tag k="addr:housenumber" v="149"/>
    <tag k="addr:street" v="Daisy Hollow Road"/>
    <tag k="addr:state" v="VT"/>
    <tag k="ref:vcgi:esiteid" v="158196"/>
  </node>
  <node id="-634" visible="true" lat="43.50943995" lon="-73.1004574">
    <tag k="addr:city" v="Middletown Springs"/>
    <tag k="addr:housenumber" v="380"/>
    <tag k="addr:street" v="Dudley Road"/>
    <tag k="addr:state" v="VT"/>
    <tag k="ref:vcgi:esiteid" v="158197"/>
  </node>
  <node id="-635" visible="true" lat="43.50928435" lon="-73.10233748">
    <tag k="addr:city" v="Middletown Springs"/>
    <tag k="addr:housenumber" v="403"/>
    <tag k="addr:street" v="Dudley Road"/>
    <tag k="addr:state" v="VT"/>
    <tag k="ref:vcgi:esiteid" v="158200"/>
  </node>
  <node id="-638" visible="true" lat="43.50137307" lon="-73.13606286">
    <tag k="addr:city" v="Middletown Springs"/>
    <tag k="addr:housenumber" v="237"/>
    <tag k="addr:street" v="Norton Road"/>
    <tag k="addr:state" v="VT"/>
    <tag k="ref:vcgi:esiteid" v="158203"/>
  </node>
  <node id="-639" visible="true" lat="43.4654559" lon="-73.11188971">
    <tag k="addr:city" v="Middletown Springs"/>
    <tag k="addr:housenumber" v="307"/>
    <tag k="addr:street" v="South Street"/>
    <tag k="addr:state" v="VT"/>
    <tag k="ref:vcgi:esiteid" v="158204"/>
  </node>
  <node id="-640" visible="true" lat="43.50593497" lon="-73.15287496">
    <tag k="addr:city" v="Middletown Springs"/>
    <tag k="addr:housenumber" v="89"/>
    <tag k="addr:street" v="Gourlay Mountain Drive"/>
    <tag k="addr:state" v="VT"/>
    <tag k="ref:vcgi:esiteid" v="158205"/>
  </node>
  <node id="-641" visible="true" lat="43.50783077" lon="-73.14826926">
    <tag k="addr:city" v="Middletown Springs"/>
    <tag k="addr:housenumber" v="130"/>
    <tag k="addr:street" v="Gourlay Mountain Drive"/>
    <tag k="addr:state" v="VT"/>
    <tag k="ref:vcgi:esiteid" v="158206"/>
  </node>
  <node id="-643" visible="true" lat="43.50106123" lon="-73.12129448">
    <tag k="addr:city" v="Middletown Springs"/>
    <tag k="addr:housenumber" v="213"/>
    <tag k="addr:street" v="North Street"/>
    <tag k="addr:state" v="VT"/>
    <tag k="ref:vcgi:esiteid" v="158208"/>
  </node>
  <node id="-644" visible="true" lat="43.47910827" lon="-73.11871944">
    <tag k="addr:city" v="Middletown Springs"/>
    <tag k="addr:housenumber" v="83"/>
    <tag k="addr:street" v="South Street"/>
    <tag k="addr:state" v="VT"/>
    <tag k="ref:vcgi:esiteid" v="158209"/>
  </node>
  <node id="-645" visible="true" lat="43.45861584" lon="-73.10861448">
    <tag k="addr:city" v="Middletown Springs"/>
    <tag k="addr:housenumber" v="419"/>
    <tag k="addr:street" v="South Street"/>
    <tag k="addr:state" v="VT"/>
    <tag k="ref:vcgi:esiteid" v="158210"/>
  </node>
  <node id="-646" visible="true" lat="43.48677329" lon="-73.12746683">
    <tag k="addr:city" v="Middletown Springs"/>
    <tag k="addr:housenumber" v="124"/>
    <tag k="addr:street" v="West Street"/>
    <tag k="addr:state" v="VT"/>
    <tag k="ref:vcgi:esiteid" v="158211"/>
  </node>
  <node id="-647" visible="true" lat="43.4867962" lon="-73.11707875">
    <tag k="addr:city" v="Middletown Springs"/>
    <tag k="addr:housenumber" v="5"/>
    <tag k="addr:street" v="Firehouse Lane"/>
    <tag k="addr:state" v="VT"/>
    <tag k="ref:vcgi:esiteid" v="158212"/>
  </node>
  <node id="-648" visible="true" lat="43.49116459" lon="-73.09430454">
    <tag k="addr:city" v="Middletown Springs"/>
    <tag k="addr:housenumber" v="99"/>
    <tag k="addr:street" v="Haley Road"/>
    <tag k="addr:state" v="VT"/>
    <tag k="ref:vcgi:esiteid" v="158213"/>
  </node>
  <node id="-650" visible="true" lat="43.49457679" lon="-73.10056163">
    <tag k="addr:city" v="Middletown Springs"/>
    <tag k="addr:housenumber" v="130"/>
    <tag k="addr:street" v="Dudley Road"/>
    <tag k="addr:state" v="VT"/>
    <tag k="ref:vcgi:esiteid" v="158215"/>
  </node>
  <node id="-653" visible="true" lat="43.48838443" lon="-73.12138652">
    <tag k="addr:city" v="Middletown Springs"/>
    <tag k="addr:housenumber" v="43"/>
    <tag k="addr:street" v="North Street"/>
    <tag k="addr:state" v="VT"/>
    <tag k="ref:vcgi:esiteid" v="158218"/>
  </node>
  <node id="-657" visible="true" lat="43.48363885" lon="-73.09802025">
    <tag k="addr:city" v="Middletown Springs"/>
    <tag k="addr:housenumber" v="18"/>
    <tag k="addr:street" v="Prospect Lane"/>
    <tag k="addr:state" v="VT"/>
    <tag k="ref:vcgi:esiteid" v="158222"/>
  </node>
  <node id="-658" visible="true" lat="43.48481927" lon="-73.09506444">
    <tag k="addr:city" v="Middletown Springs"/>
    <tag k="addr:housenumber" v="39"/>
    <tag k="addr:street" v="Prospect Lane"/>
    <tag k="addr:state" v="VT"/>
    <tag k="ref:vcgi:esiteid" v="158223"/>
  </node>
  <node id="-659" visible="true" lat="43.48418798" lon="-73.09518625">
    <tag k="addr:city" v="Middletown Springs"/>
    <tag k="addr:housenumber" v="36"/>
    <tag k="addr:street" v="Prospect Lane"/>
    <tag k="addr:state" v="VT"/>
    <tag k="ref:vcgi:esiteid" v="158224"/>
  </node>
  <node id="-660" visible="true" lat="43.49408329" lon="-73.1019815">
    <tag k="addr:city" v="Middletown Springs"/>
    <tag k="addr:housenumber" v="123"/>
    <tag k="addr:street" v="Dudley Road"/>
    <tag k="addr:state" v="VT"/>
    <tag k="ref:vcgi:esiteid" v="158225"/>
  </node>
  <node id="-661" visible="true" lat="43.48406561" lon="-73.10936926">
    <tag k="addr:city" v="Middletown Springs"/>
    <tag k="addr:housenumber" v="20"/>
    <tag k="addr:street" v="Fitzgerald Road"/>
    <tag k="addr:state" v="VT"/>
    <tag k="ref:vcgi:esiteid" v="158226"/>
  </node>
  <node id="-662" visible="true" lat="43.48449842" lon="-73.09652172">
    <tag k="addr:city" v="Middletown Springs"/>
    <tag k="addr:housenumber" v="28"/>
    <tag k="addr:street" v="Prospect Lane"/>
    <tag k="addr:state" v="VT"/>
    <tag k="ref:vcgi:esiteid" v="332502"/>
  </node>
  <node id="-665" visible="true" lat="43.46994345" lon="-73.1771171">
    <tag k="addr:city" v="Middletown Springs"/>
    <tag k="addr:housenumber" v="4000"/>
    <tag k="addr:street" v="Saw Mill Hill Road"/>
    <tag k="addr:state" v="VT"/>
    <tag k="ref:vcgi:esiteid" v="338312"/>
  </node>
  <node id="-666" visible="true" lat="43.48001447" lon="-73.09946988">
    <tag k="addr:city" v="Middletown Springs"/>
    <tag k="addr:housenumber" v="160"/>
    <tag k="addr:street" v="Fitzgerald Road"/>
    <tag k="addr:state" v="VT"/>
    <tag k="ref:vcgi:esiteid" v="339898"/>
  </node>
  <node id="-667" visible="true" lat="43.47918087" lon="-73.1080308">
    <tag k="addr:city" v="Middletown Springs"/>
    <tag k="addr:housenumber" v="80"/>
    <tag k="addr:street" v="Fitzgerald Road"/>
    <tag k="addr:state" v="VT"/>
    <tag k="ref:vcgi:esiteid" v="339900"/>
  </node>
  <node id="-668" visible="true" lat="43.48590574" lon="-73.11526748">
    <tag k="addr:city" v="Middletown Springs"/>
    <tag k="addr:housenumber" v="33"/>
    <tag k="addr:street" v="East Street"/>
    <tag k="addr:state" v="VT"/>
    <tag k="ref:vcgi:esiteid" v="339901"/>
  </node>
  <node id="-669" visible="true" lat="43.50626497" lon="-73.11147473">
    <tag k="addr:city" v="Middletown Springs"/>
    <tag k="addr:housenumber" v="310"/>
    <tag k="addr:street" v="North Street"/>
    <tag k="addr:state" v="VT"/>
    <tag k="ref:vcgi:esiteid" v="339902"/>
  </node>
  <node id="-672" visible="true" lat="43.48401486" lon="-73.11990424">
    <tag k="addr:city" v="Middletown Springs"/>
    <tag k="addr:housenumber" v="11"/>
    <tag k="addr:street" v="School House Road"/>
    <tag k="addr:state" v="VT"/>
    <tag k="ref:vcgi:esiteid" v="343645"/>
  </node>
  <node id="-673" visible="true" lat="43.48874843" lon="-73.09405641">
    <tag k="addr:city" v="Middletown Springs"/>
    <tag k="addr:housenumber" v="52"/>
    <tag k="addr:street" v="Haley Road"/>
    <tag k="addr:state" v="VT"/>
    <tag k="ref:vcgi:esiteid" v="365232"/>
  </node>
  <node id="-675" visible="true" lat="43.48384758" lon="-73.08721146">
    <tag k="addr:city" v="Middletown Springs"/>
    <tag k="addr:housenumber" v="112"/>
    <tag k="addr:street" v="Tournet Drive"/>
    <tag k="addr:state" v="VT"/>
    <tag k="ref:vcgi:esiteid" v="365528"/>
  </node>
  <node id="-676" visible="true" lat="43.48345415" lon="-73.08702711">
    <tag k="addr:city" v="Middletown Springs"/>
    <tag k="addr:housenumber" v="76"/>
    <tag k="addr:street" v="Tournet Drive"/>
    <tag k="addr:state" v="VT"/>
    <tag k="ref:vcgi:esiteid" v="365529"/>
  </node>
  <node id="-677" visible="true" lat="43.50274365" lon="-73.10241088">
    <tag k="addr:city" v="Middletown Springs"/>
    <tag k="addr:housenumber" v="237"/>
    <tag k="addr:street" v="Dudley Road"/>
    <tag k="addr:state" v="VT"/>
    <tag k="ref:vcgi:esiteid" v="449457"/>
  </node>
  <node id="-678" visible="true" lat="43.48557721" lon="-73.14167339">
    <tag k="addr:city" v="Middletown Springs"/>
    <tag k="addr:housenumber" v="240"/>
    <tag k="addr:street" v="West Street"/>
    <tag k="addr:state" v="VT"/>
    <tag k="ref:vcgi:esiteid" v="449459"/>
  </node>
  <node id="-680" visible="true" lat="43.48202941" lon="-73.14375714">
    <tag k="addr:city" v="Middletown Springs"/>
    <tag k="addr:housenumber" v="2"/>
    <tag k="addr:street" v="Coy Hill Road"/>
    <tag k="addr:state" v="VT"/>
    <tag k="ref:vcgi:esiteid" v="449461"/>
  </node>
  <node id="-681" visible="true" lat="43.47931032" lon="-73.15295302">
    <tag k="addr:city" v="Middletown Springs"/>
    <tag k="addr:housenumber" v="67"/>
    <tag k="addr:street" v="Wescott Road"/>
    <tag k="addr:state" v="VT"/>
    <tag k="ref:vcgi:esiteid" v="452078"/>
  </node>
  <node id="-684" visible="true" lat="43.50259485" lon="-73.137157">
    <tag k="addr:city" v="Middletown Springs"/>
    <tag k="addr:housenumber" v="227"/>
    <tag k="addr:street" v="Norton Road"/>
    <tag k="addr:state" v="VT"/>
    <tag k="ref:vcgi:esiteid" v="454232"/>
  </node>
  <node id="-685" visible="true" lat="43.44064636" lon="-73.11684622">
    <tag k="addr:city" v="Middletown Springs"/>
    <tag k="addr:housenumber" v="656"/>
    <tag k="addr:street" v="South Street"/>
    <tag k="addr:state" v="VT"/>
    <tag k="ref:vcgi:esiteid" v="454233"/>
  </node>
  <node id="-686" visible="true" lat="43.5251566" lon="-73.10731684">
    <tag k="addr:city" v="Middletown Springs"/>
    <tag k="addr:housenumber" v="542"/>
    <tag k="addr:street" v="North Street"/>
    <tag k="addr:state" v="VT"/>
    <tag k="ref:vcgi:esiteid" v="455487"/>
  </node>
  <node id="-688" visible="true" lat="43.4754327" lon="-73.12692353">
    <tag k="addr:city" v="Middletown Springs"/>
    <tag k="addr:housenumber" v="49"/>
    <tag k="addr:street" v="Buxton Avenue"/>
    <tag k="addr:state" v="VT"/>
    <tag k="ref:vcgi:esiteid" v="612915"/>
  </node>
  <node id="-689" visible="true" lat="43.49616554" lon="-73.16747487">
    <tag k="addr:city" v="Middletown Springs"/>
    <tag k="addr:housenumber" v="800"/>
    <tag k="addr:street" v="McIntyre Road"/>
    <tag k="addr:state" v="VT"/>
    <tag k="ref:vcgi:esiteid" v="620620"/>
  </node>
  <node id="-690" visible="true" lat="43.50623615" lon="-73.10096526">
    <tag k="addr:city" v="Middletown Springs"/>
    <tag k="addr:housenumber" v="290"/>
    <tag k="addr:street" v="Dudley Road"/>
    <tag k="addr:state" v="VT"/>
    <tag k="ref:vcgi:esiteid" v="620626"/>
  </node>
  <node id="-691" visible="true" lat="43.47244698" lon="-73.1251113">
    <tag k="addr:city" v="Middletown Springs"/>
    <tag k="addr:housenumber" v="742"/>
    <tag k="addr:street" v="Coy Hill Road"/>
    <tag k="addr:state" v="VT"/>
    <tag k="ref:vcgi:esiteid" v="655838"/>
  </node>
  <node id="-692" visible="true" lat="43.48600894" lon="-73.11834067">
    <tag k="addr:city" v="Middletown Springs"/>
    <tag k="addr:housenumber" v="7"/>
    <tag k="addr:street" v="North Street"/>
    <tag k="addr:state" v="VT"/>
    <tag k="ref:vcgi:esiteid" v="750721"/>
  </node>
  <node id="-694" visible="true" lat="43.47419214" lon="-73.11729395">
    <tag k="addr:city" v="Middletown Springs"/>
    <tag k="addr:housenumber" v="175"/>
    <tag k="addr:street" v="South Street"/>
    <tag k="addr:state" v="VT"/>
    <tag k="ref:vcgi:esiteid" v="754652"/>
  </node>
  <node id="-695" visible="true" lat="43.49556659" lon="-73.17241998">
    <tag k="addr:city" v="Middletown Springs"/>
    <tag k="addr:housenumber" v="4906"/>
    <tag k="addr:street" v="Vermont Route 140"/>
    <tag k="addr:state" v="VT"/>
    <tag k="ref:vcgi:esiteid" v="755045"/>
  </node>
  <node id="-698" visible="true" lat="43.49280133" lon="-73.16010023">
    <tag k="addr:city" v="Middletown Springs"/>
    <tag k="addr:housenumber" v="509"/>
    <tag k="addr:street" v="West Street"/>
    <tag k="addr:state" v="VT"/>
    <tag k="ref:vcgi:esiteid" v="759530"/>
  </node>
  <node id="-699" visible="true" lat="43.50711123" lon="-73.102897">
    <tag k="addr:city" v="Middletown Springs"/>
    <tag k="addr:housenumber" v="297"/>
    <tag k="addr:street" v="Dudley Road"/>
    <tag k="addr:state" v="VT"/>
    <tag k="ref:vcgi:esiteid" v="759656"/>
  </node>
  <node id="-700" visible="true" lat="43.48525997" lon="-73.1179077">
    <tag k="addr:city" v="Middletown Springs"/>
    <tag k="addr:housenumber" v="5"/>
    <tag k="addr:street" v="South Street"/>
    <tag k="addr:state" v="VT"/>
    <tag k="ref:vcgi:esiteid" v="761220"/>
  </node>
  <node id="-701" visible="true" lat="43.50108426" lon="-73.13095195">
    <tag k="addr:city" v="Middletown Springs"/>
    <tag k="addr:housenumber" v="216"/>
    <tag k="addr:street" v="Spruce Knob Road"/>
    <tag k="addr:state" v="VT"/>
    <tag k="ref:vcgi:esiteid" v="763871"/>
  </node>
  <node id="-702" visible="true" lat="43.4533668" lon="-73.13988113">
    <tag k="addr:city" v="Middletown Springs"/>
    <tag k="addr:housenumber" v="42"/>
    <tag k="addr:street" v="Mountain Road"/>
    <tag k="addr:state" v="VT"/>
    <tag k="ref:vcgi:esiteid" v="763872"/>
  </node>
  <node id="-703" visible="true" lat="43.43654602" lon="-73.11266259">
    <tag k="addr:city" v="Middletown Springs"/>
    <tag k="addr:housenumber" v="690"/>
    <tag k="addr:street" v="South Street"/>
    <tag k="addr:state" v="VT"/>
    <tag k="ref:vcgi:esiteid" v="764720"/>
  </node>
  <node id="-704" visible="true" lat="43.46718639" lon="-73.15147564">
    <tag k="addr:city" v="Middletown Springs"/>
    <tag k="addr:housenumber" v="97"/>
    <tag k="addr:street" v="Brown Road"/>
    <tag k="addr:state" v="VT"/>
    <tag k="ref:vcgi:esiteid" v="766749"/>
  </node>
  <node id="-705" visible="true" lat="43.50099197" lon="-73.13348201">
    <tag k="addr:city" v="Middletown Springs"/>
    <tag k="addr:housenumber" v="259"/>
    <tag k="addr:street" v="Norton Road"/>
    <tag k="addr:state" v="VT"/>
    <tag k="ref:vcgi:esiteid" v="769793"/>
  </node>
  <node id="-706" visible="true" lat="43.47926477" lon="-73.1473423">
    <tag k="addr:city" v="Middletown Springs"/>
    <tag k="addr:housenumber" v="65"/>
    <tag k="addr:street" v="Orchard Road"/>
    <tag k="addr:state" v="VT"/>
    <tag k="ref:vcgi:esiteid" v="800163"/>
  </node>
  <node id="-708" visible="true" lat="43.4835" lon="-73.121">
    <tag k="addr:city" v="Middletown Springs"/>
    <tag k="addr:housenumber" v="13"/>
    <tag k="addr:street" v="School House Road"/>
    <tag k="addr:state" v="VT"/>
    <tag k="ref:vcgi:esiteid" v="1050364"/>
  </node>
</osm>
