<?xml version="1.0" encoding="UTF-8"?>
<osm version="0.6" generator="JOSM">
  <node id="-164" visible="true" lat="44.0386202" lon="-73.16218948">
    <tag k="addr:city" v="Middlebury"/>
    <tag k="addr:housenumber" v="1137"/>
    <tag k="addr:street" v="U.S. Route 7 North"/>
    <tag k="addr:state" v="VT"/>
    <tag k="ref:vcgi:esiteid" v="153935"/>
  </node>
  <node id="-500" visible="true" lat="44.02121382" lon="-73.1702915">
    <tag k="addr:city" v="Middlebury"/>
    <tag k="addr:housenumber" v="201"/>
    <tag k="addr:street" v="Exchange Street"/>
    <tag k="addr:state" v="VT"/>
    <tag k="ref:vcgi:esiteid" v="154303"/>
  </node>
  <node id="-642" visible="true" lat="44.02008601" lon="-73.17059721">
    <tag k="addr:city" v="Middlebury"/>
    <tag k="addr:housenumber" v="73"/>
    <tag k="addr:street" v="Macintyre Lane"/>
    <tag k="addr:state" v="VT"/>
    <tag k="ref:vcgi:esiteid" v="154461"/>
  </node>
  <node id="-823" visible="true" lat="44.01699643" lon="-73.15823386">
    <tag k="addr:city" v="Middlebury"/>
    <tag k="addr:housenumber" v="53"/>
    <tag k="addr:street" v="Seminary Street Extension"/>
    <tag k="addr:state" v="VT"/>
    <tag k="ref:vcgi:esiteid" v="154661"/>
  </node>
  <node id="-836" visible="true" lat="44.01672295" lon="-73.16883309">
    <tag k="addr:city" v="Middlebury"/>
    <tag k="addr:housenumber" v="20A"/>
    <tag k="addr:street" v="Seymour Street"/>
    <tag k="addr:state" v="VT"/>
    <tag k="ref:vcgi:esiteid" v="154675"/>
  </node>
  <node id="-1025" visible="true" lat="44.01446616" lon="-73.16828847">
    <tag k="addr:city" v="Middlebury"/>
    <tag k="addr:housenumber" v="20"/>
    <tag k="addr:street" v="Main Street"/>
    <tag k="addr:state" v="VT"/>
    <tag k="ref:vcgi:esiteid" v="154893"/>
  </node>
  <node id="-1049" visible="true" lat="44.01415272" lon="-73.16847623">
    <tag k="addr:city" v="Middlebury"/>
    <tag k="addr:housenumber" v="32"/>
    <tag k="addr:street" v="Main Street"/>
    <tag k="addr:state" v="VT"/>
    <tag k="ref:vcgi:esiteid" v="154922"/>
  </node>
  <node id="-1062" visible="true" lat="44.01390511" lon="-73.18041016">
    <tag k="addr:city" v="Middlebury"/>
    <tag k="addr:housenumber" v="122"/>
    <tag k="addr:street" v="Freeman Way"/>
    <tag k="addr:state" v="VT"/>
    <tag k="ref:vcgi:esiteid" v="154938"/>
  </node>
  <node id="-1074" visible="true" lat="44.01361952" lon="-73.16820155">
    <tag k="addr:city" v="Middlebury"/>
    <tag k="addr:housenumber" v="10"/>
    <tag k="addr:street" v="Merchants Row"/>
    <tag k="addr:state" v="VT"/>
    <tag k="ref:vcgi:esiteid" v="154952"/>
  </node>
  <node id="-1089" visible="true" lat="44.01352861" lon="-73.16740705">
    <tag k="addr:city" v="Middlebury"/>
    <tag k="addr:housenumber" v="44"/>
    <tag k="addr:street" v="Merchants Row"/>
    <tag k="addr:state" v="VT"/>
    <tag k="ref:vcgi:esiteid" v="154968"/>
  </node>
  <node id="-1099" visible="true" lat="44.01327768" lon="-73.16698879">
    <tag k="addr:city" v="Middlebury"/>
    <tag k="addr:housenumber" v="72"/>
    <tag k="addr:street" v="Merchants Row"/>
    <tag k="addr:state" v="VT"/>
    <tag k="ref:vcgi:esiteid" v="154979"/>
  </node>
  <node id="-1103" visible="true" lat="44.01329267" lon="-73.16908023">
    <tag k="addr:city" v="Middlebury"/>
    <tag k="addr:housenumber" v="5"/>
    <tag k="addr:street" v="Frog Hollow Alley"/>
    <tag k="addr:state" v="VT"/>
    <tag k="ref:vcgi:esiteid" v="154986"/>
  </node>
  <node id="-1109" visible="true" lat="44.01325023" lon="-73.1691017">
    <tag k="addr:city" v="Middlebury"/>
    <tag k="addr:housenumber" v="4"/>
    <tag k="addr:street" v="Frog Hollow Alley"/>
    <tag k="addr:state" v="VT"/>
    <tag k="ref:vcgi:esiteid" v="154992"/>
  </node>
  <node id="-1114" visible="true" lat="44.01321029" lon="-73.16677477">
    <tag k="addr:city" v="Middlebury"/>
    <tag k="addr:housenumber" v="76"/>
    <tag k="addr:street" v="Merchants Row"/>
    <tag k="addr:state" v="VT"/>
    <tag k="ref:vcgi:esiteid" v="154997"/>
  </node>
  <node id="-1136" visible="true" lat="44.01297378" lon="-73.16977691">
    <tag k="addr:city" v="Middlebury"/>
    <tag k="addr:housenumber" v="5"/>
    <tag k="addr:street" v="Park Street"/>
    <tag k="addr:state" v="VT"/>
    <tag k="ref:vcgi:esiteid" v="155022"/>
  </node>
  <node id="-2454" visible="true" lat="44.04353739" lon="-73.16119317">
    <tag k="addr:city" v="Middlebury"/>
    <tag k="addr:housenumber" v="42"/>
    <tag k="addr:street" v="Acker Farm Road"/>
    <tag k="addr:state" v="VT"/>
    <tag k="ref:vcgi:esiteid" v="156502"/>
  </node>
  <node id="-2456" visible="true" lat="44.02398684" lon="-73.17580474">
    <tag k="addr:city" v="Middlebury"/>
    <tag k="addr:housenumber" v="101A"/>
    <tag k="addr:street" v="Seymour Street"/>
    <tag k="addr:state" v="VT"/>
    <tag k="ref:vcgi:esiteid" v="156504"/>
  </node>
  <node id="-2489" visible="true" lat="44.01348706" lon="-73.16835327">
    <tag k="addr:city" v="Middlebury"/>
    <tag k="addr:housenumber" v="51"/>
    <tag k="addr:street" v="Main Street"/>
    <tag k="addr:state" v="VT"/>
    <tag k="ref:vcgi:esiteid" v="156545"/>
  </node>
  <node id="-2504" visible="true" lat="44.01051562" lon="-73.16164689">
    <tag k="addr:city" v="Middlebury"/>
    <tag k="addr:housenumber" v="203"/>
    <tag k="addr:street" v="Mary Hogan Drive"/>
    <tag k="addr:state" v="VT"/>
    <tag k="ref:vcgi:esiteid" v="156560"/>
  </node>
  <node id="-2560" visible="true" lat="44.02332573" lon="-73.17174357">
    <tag k="addr:city" v="Middlebury"/>
    <tag k="addr:housenumber" v="83"/>
    <tag k="addr:street" v="Feed Mill Lane"/>
    <tag k="addr:state" v="VT"/>
    <tag k="ref:vcgi:esiteid" v="156620"/>
  </node>
  <node id="-2871" visible="true" lat="44.01392999" lon="-73.1684376">
    <tag k="addr:city" v="Middlebury"/>
    <tag k="addr:housenumber" v="36"/>
    <tag k="addr:street" v="Main Street"/>
    <tag k="addr:state" v="VT"/>
    <tag k="ref:vcgi:esiteid" v="332728"/>
  </node>
  <node id="-2872" visible="true" lat="44.01317988" lon="-73.16896216">
    <tag k="addr:city" v="Middlebury"/>
    <tag k="addr:housenumber" v="58"/>
    <tag k="addr:street" v="Main Street"/>
    <tag k="addr:state" v="VT"/>
    <tag k="ref:vcgi:esiteid" v="332729"/>
  </node>
  <node id="-2873" visible="true" lat="44.01312845" lon="-73.16900491">
    <tag k="addr:city" v="Middlebury"/>
    <tag k="addr:housenumber" v="62"/>
    <tag k="addr:street" v="Main Street"/>
    <tag k="addr:state" v="VT"/>
    <tag k="ref:vcgi:esiteid" v="332730"/>
  </node>
  <node id="-3043" visible="true" lat="44.01325315" lon="-73.09887222">
    <tag k="addr:city" v="Middlebury"/>
    <tag k="addr:housenumber" v="2842"/>
    <tag k="addr:street" v="Case Street"/>
    <tag k="addr:state" v="VT"/>
    <tag k="ref:vcgi:esiteid" v="455585"/>
  </node>
  <node id="-3044" visible="true" lat="43.99289684" lon="-73.15280097">
    <tag k="addr:city" v="Middlebury"/>
    <tag k="addr:housenumber" v="34"/>
    <tag k="addr:street" v="Meadow Glen Drive"/>
    <tag k="addr:state" v="VT"/>
    <tag k="ref:vcgi:esiteid" v="455586"/>
  </node>
  <node id="-3045" visible="true" lat="43.99264058" lon="-73.15305544">
    <tag k="addr:city" v="Middlebury"/>
    <tag k="addr:housenumber" v="52"/>
    <tag k="addr:street" v="Meadow Glen Drive"/>
    <tag k="addr:state" v="VT"/>
    <tag k="ref:vcgi:esiteid" v="455587"/>
  </node>
  <node id="-3046" visible="true" lat="43.99459804" lon="-73.15326006">
    <tag k="addr:city" v="Middlebury"/>
    <tag k="addr:housenumber" v="192"/>
    <tag k="addr:street" v="South Ridge Drive"/>
    <tag k="addr:state" v="VT"/>
    <tag k="ref:vcgi:esiteid" v="455588"/>
  </node>
  <node id="-3047" visible="true" lat="43.99395853" lon="-73.15332396">
    <tag k="addr:city" v="Middlebury"/>
    <tag k="addr:housenumber" v="234"/>
    <tag k="addr:street" v="South Ridge Drive"/>
    <tag k="addr:state" v="VT"/>
    <tag k="ref:vcgi:esiteid" v="455589"/>
  </node>
  <node id="-3048" visible="true" lat="43.99331375" lon="-73.15348841">
    <tag k="addr:city" v="Middlebury"/>
    <tag k="addr:housenumber" v="282"/>
    <tag k="addr:street" v="South Ridge Drive"/>
    <tag k="addr:state" v="VT"/>
    <tag k="ref:vcgi:esiteid" v="455590"/>
  </node>
  <node id="-3052" visible="true" lat="44.03016125" lon="-73.17323592">
    <tag k="addr:city" v="Middlebury"/>
    <tag k="addr:housenumber" v="815"/>
    <tag k="addr:street" v="Exchange Street"/>
    <tag k="addr:state" v="VT"/>
    <tag k="ref:vcgi:esiteid" v="611347"/>
  </node>
  <node id="-3054" visible="true" lat="44.00608161" lon="-73.15428401">
    <tag k="addr:city" v="Middlebury"/>
    <tag k="addr:housenumber" v="41"/>
    <tag k="addr:street" v="Lucys Way"/>
    <tag k="addr:state" v="VT"/>
    <tag k="ref:vcgi:esiteid" v="611948"/>
  </node>
  <node id="-3089" visible="true" lat="44.02523632" lon="-73.09583258">
    <tag k="addr:city" v="Middlebury"/>
    <tag k="addr:housenumber" v="90"/>
    <tag k="addr:street" v="Commodore Way"/>
    <tag k="addr:state" v="VT"/>
    <tag k="ref:vcgi:esiteid" v="655517"/>
  </node>
  <node id="-3090" visible="true" lat="43.98359419" lon="-73.16524157">
    <tag k="addr:city" v="Middlebury"/>
    <tag k="addr:housenumber" v="1871"/>
    <tag k="addr:street" v="South Street Extension"/>
    <tag k="addr:state" v="VT"/>
    <tag k="ref:vcgi:esiteid" v="655518"/>
  </node>
  <node id="-3091" visible="true" lat="44.03922557" lon="-73.17430322">
    <tag k="addr:city" v="Middlebury"/>
    <tag k="addr:housenumber" v="139"/>
    <tag k="addr:street" v="Industrial Avenue"/>
    <tag k="addr:state" v="VT"/>
    <tag k="ref:vcgi:esiteid" v="655701"/>
  </node>
  <node id="-3092" visible="true" lat="44.00636816" lon="-73.15412781">
    <tag k="addr:city" v="Middlebury"/>
    <tag k="addr:housenumber" v="71"/>
    <tag k="addr:street" v="Lucys Way"/>
    <tag k="addr:state" v="VT"/>
    <tag k="ref:vcgi:esiteid" v="656312"/>
  </node>
  <node id="-3093" visible="true" lat="44.01387442" lon="-73.16869059">
    <tag k="addr:city" v="Middlebury"/>
    <tag k="addr:housenumber" v="29"/>
    <tag k="addr:street" v="Printers Alley"/>
    <tag k="addr:state" v="VT"/>
    <tag k="ref:vcgi:esiteid" v="700145"/>
  </node>
  <node id="-3134" visible="true" lat="44.02521466" lon="-73.15059111">
    <tag k="addr:city" v="Middlebury"/>
    <tag k="addr:housenumber" v="861"/>
    <tag k="addr:street" v="Washington Street Extension"/>
    <tag k="addr:state" v="VT"/>
    <tag k="ref:vcgi:esiteid" v="758103"/>
  </node>
  <node id="-3136" visible="true" lat="44.0327575" lon="-73.15146355">
    <tag k="addr:city" v="Middlebury"/>
    <tag k="addr:housenumber" v="653"/>
    <tag k="addr:street" v="Happy Valley Road"/>
    <tag k="addr:state" v="VT"/>
    <tag k="ref:vcgi:esiteid" v="758751"/>
  </node>
  <node id="-3137" visible="true" lat="43.99107878" lon="-73.15038392">
    <tag k="addr:city" v="Middlebury"/>
    <tag k="addr:housenumber" v="436"/>
    <tag k="addr:street" v="South Ridge Drive"/>
    <tag k="addr:state" v="VT"/>
    <tag k="ref:vcgi:esiteid" v="758764"/>
  </node>
  <node id="-3138" visible="true" lat="44.03791153" lon="-73.1440745">
    <tag k="addr:city" v="Middlebury"/>
    <tag k="addr:housenumber" v="746"/>
    <tag k="addr:street" v="Halpin Road"/>
    <tag k="addr:state" v="VT"/>
    <tag k="ref:vcgi:esiteid" v="759397"/>
  </node>
  <node id="-3139" visible="true" lat="44.01917334" lon="-73.17246927">
    <tag k="addr:city" v="Middlebury"/>
    <tag k="addr:housenumber" v="51A"/>
    <tag k="addr:street" v="Seymour Street"/>
    <tag k="addr:state" v="VT"/>
    <tag k="ref:vcgi:esiteid" v="759464"/>
  </node>
  <node id="-3140" visible="true" lat="44.01300793" lon="-73.09848701">
    <tag k="addr:city" v="Middlebury"/>
    <tag k="addr:housenumber" v="2840"/>
    <tag k="addr:street" v="Case Street"/>
    <tag k="addr:state" v="VT"/>
    <tag k="ref:vcgi:esiteid" v="760519"/>
  </node>
  <node id="-3141" visible="true" lat="44.01721833" lon="-73.15959792">
    <tag k="addr:city" v="Middlebury"/>
    <tag k="addr:housenumber" v="70"/>
    <tag k="addr:street" v="Washington Street Extension"/>
    <tag k="addr:state" v="VT"/>
    <tag k="ref:vcgi:esiteid" v="760520"/>
  </node>
  <node id="-3142" visible="true" lat="43.95597376" lon="-73.13770346">
    <tag k="addr:city" v="Middlebury"/>
    <tag k="addr:housenumber" v="2189"/>
    <tag k="addr:street" v="Middle Road"/>
    <tag k="addr:state" v="VT"/>
    <tag k="ref:vcgi:esiteid" v="760752"/>
  </node>
  <node id="-3144" visible="true" lat="43.9982113" lon="-73.15471607">
    <tag k="addr:city" v="Middlebury"/>
    <tag k="addr:housenumber" v="400"/>
    <tag k="addr:street" v="Middle Road North"/>
    <tag k="addr:state" v="VT"/>
    <tag k="ref:vcgi:esiteid" v="761015"/>
  </node>
  <node id="-3145" visible="true" lat="43.99659856" lon="-73.14282139">
    <tag k="addr:city" v="Middlebury"/>
    <tag k="addr:housenumber" v="1005"/>
    <tag k="addr:street" v="U.S. Route 7 South"/>
    <tag k="addr:state" v="VT"/>
    <tag k="ref:vcgi:esiteid" v="761056"/>
  </node>
  <node id="-3146" visible="true" lat="43.99479051" lon="-73.1523077">
    <tag k="addr:city" v="Middlebury"/>
    <tag k="addr:housenumber" v="201"/>
    <tag k="addr:street" v="South Ridge Drive"/>
    <tag k="addr:state" v="VT"/>
    <tag k="ref:vcgi:esiteid" v="761085"/>
  </node>
  <node id="-3147" visible="true" lat="43.98718563" lon="-73.09678003">
    <tag k="addr:city" v="Middlebury"/>
    <tag k="addr:housenumber" v="399"/>
    <tag k="addr:street" v="Airport Road"/>
    <tag k="addr:state" v="VT"/>
    <tag k="ref:vcgi:esiteid" v="761088"/>
  </node>
  <node id="-3148" visible="true" lat="44.01791498" lon="-73.17007747">
    <tag k="addr:city" v="Middlebury"/>
    <tag k="addr:housenumber" v="30"/>
    <tag k="addr:street" v="Middle Seymour Street"/>
    <tag k="addr:state" v="VT"/>
    <tag k="ref:vcgi:esiteid" v="761205"/>
  </node>
  <node id="-3149" visible="true" lat="44.02046599" lon="-73.14537425">
    <tag k="addr:city" v="Middlebury"/>
    <tag k="addr:housenumber" v="399"/>
    <tag k="addr:street" v="Solitude Way"/>
    <tag k="addr:state" v="VT"/>
    <tag k="ref:vcgi:esiteid" v="761222"/>
  </node>
  <node id="-3150" visible="true" lat="44.02204544" lon="-73.1701345">
    <tag k="addr:city" v="Middlebury"/>
    <tag k="addr:housenumber" v="253"/>
    <tag k="addr:street" v="Exchange Street"/>
    <tag k="addr:state" v="VT"/>
    <tag k="ref:vcgi:esiteid" v="761363"/>
  </node>
  <node id="-3151" visible="true" lat="43.99400853" lon="-73.15196208">
    <tag k="addr:city" v="Middlebury"/>
    <tag k="addr:housenumber" v="351"/>
    <tag k="addr:street" v="South Ridge Drive"/>
    <tag k="addr:state" v="VT"/>
    <tag k="ref:vcgi:esiteid" v="761364"/>
  </node>
  <node id="-3152" visible="true" lat="43.98808338" lon="-73.09677925">
    <tag k="addr:city" v="Middlebury"/>
    <tag k="addr:housenumber" v="355"/>
    <tag k="addr:street" v="Airport Road"/>
    <tag k="addr:state" v="VT"/>
    <tag k="ref:vcgi:esiteid" v="761473"/>
  </node>
  <node id="-3153" visible="true" lat="44.01261852" lon="-73.1712967">
    <tag k="addr:city" v="Middlebury"/>
    <tag k="addr:housenumber" v="10"/>
    <tag k="addr:street" v="Mill Street"/>
    <tag k="addr:state" v="VT"/>
    <tag k="ref:vcgi:esiteid" v="761713"/>
  </node>
  <node id="-3154" visible="true" lat="43.99594393" lon="-73.1537084">
    <tag k="addr:city" v="Middlebury"/>
    <tag k="addr:housenumber" v="92"/>
    <tag k="addr:street" v="South Ridge Drive"/>
    <tag k="addr:state" v="VT"/>
    <tag k="ref:vcgi:esiteid" v="761748"/>
  </node>
  <node id="-3155" visible="true" lat="43.97595098" lon="-73.16413799">
    <tag k="addr:city" v="Middlebury"/>
    <tag k="addr:housenumber" v="2457"/>
    <tag k="addr:street" v="South Street Extension"/>
    <tag k="addr:state" v="VT"/>
    <tag k="ref:vcgi:esiteid" v="761953"/>
  </node>
  <node id="-3156" visible="true" lat="44.02554595" lon="-73.17584922">
    <tag k="addr:city" v="Middlebury"/>
    <tag k="addr:housenumber" v="66"/>
    <tag k="addr:street" v="Sarahs Way"/>
    <tag k="addr:state" v="VT"/>
    <tag k="ref:vcgi:esiteid" v="762566"/>
  </node>
  <node id="-3157" visible="true" lat="44.02219307" lon="-73.143706">
    <tag k="addr:city" v="Middlebury"/>
    <tag k="addr:housenumber" v="361"/>
    <tag k="addr:street" v="Solitude Way"/>
    <tag k="addr:state" v="VT"/>
    <tag k="ref:vcgi:esiteid" v="762727"/>
  </node>
  <node id="-3158" visible="true" lat="43.98968985" lon="-73.15191663">
    <tag k="addr:city" v="Middlebury"/>
    <tag k="addr:housenumber" v="239"/>
    <tag k="addr:street" v="Meadow Glen Drive"/>
    <tag k="addr:state" v="VT"/>
    <tag k="ref:vcgi:esiteid" v="762753"/>
  </node>
  <node id="-3159" visible="true" lat="43.98909954" lon="-73.15175549">
    <tag k="addr:city" v="Middlebury"/>
    <tag k="addr:housenumber" v="277"/>
    <tag k="addr:street" v="Meadow Glen Drive"/>
    <tag k="addr:state" v="VT"/>
    <tag k="ref:vcgi:esiteid" v="762754"/>
  </node>
  <node id="-3160" visible="true" lat="43.9943313" lon="-73.15211222">
    <tag k="addr:city" v="Middlebury"/>
    <tag k="addr:housenumber" v="203"/>
    <tag k="addr:street" v="South Ridge Drive"/>
    <tag k="addr:state" v="VT"/>
    <tag k="ref:vcgi:esiteid" v="762843"/>
  </node>
  <node id="-3161" visible="true" lat="44.013943" lon="-73.16800902">
    <tag k="addr:city" v="Middlebury"/>
    <tag k="addr:housenumber" v="1"/>
    <tag k="addr:street" v="Merchants Row"/>
    <tag k="addr:state" v="VT"/>
    <tag k="ref:vcgi:esiteid" v="762943"/>
  </node>
  <node id="-3162" visible="true" lat="44.03306724" lon="-73.14390592">
    <tag k="addr:city" v="Middlebury"/>
    <tag k="addr:housenumber" v="296"/>
    <tag k="addr:street" v="Halpin Road"/>
    <tag k="addr:state" v="VT"/>
    <tag k="ref:vcgi:esiteid" v="763964"/>
  </node>
  <node id="-3163" visible="true" lat="43.99350201" lon="-73.15152702">
    <tag k="addr:city" v="Middlebury"/>
    <tag k="addr:housenumber" v="353"/>
    <tag k="addr:street" v="South Ridge Drive"/>
    <tag k="addr:state" v="VT"/>
    <tag k="ref:vcgi:esiteid" v="764304"/>
  </node>
  <node id="-3164" visible="true" lat="43.9935044" lon="-73.15194267">
    <tag k="addr:city" v="Middlebury"/>
    <tag k="addr:housenumber" v="347"/>
    <tag k="addr:street" v="South Ridge Drive"/>
    <tag k="addr:state" v="VT"/>
    <tag k="ref:vcgi:esiteid" v="764305"/>
  </node>
  <node id="-3165" visible="true" lat="43.95980248" lon="-73.13585814">
    <tag k="addr:city" v="Middlebury"/>
    <tag k="addr:housenumber" v="360"/>
    <tag k="addr:street" v="Blake Roy Road"/>
    <tag k="addr:state" v="VT"/>
    <tag k="ref:vcgi:esiteid" v="764449"/>
  </node>
  <node id="-3169" visible="true" lat="44.02734767" lon="-73.14651111">
    <tag k="addr:city" v="Middlebury"/>
    <tag k="addr:housenumber" v="38"/>
    <tag k="addr:street" v="Grey Ledge Road"/>
    <tag k="addr:state" v="VT"/>
    <tag k="ref:vcgi:esiteid" v="764821"/>
  </node>
  <node id="-3170" visible="true" lat="44.03993879" lon="-73.17448235">
    <tag k="addr:city" v="Middlebury"/>
    <tag k="addr:housenumber" v="177"/>
    <tag k="addr:street" v="Industrial Avenue"/>
    <tag k="addr:state" v="VT"/>
    <tag k="ref:vcgi:esiteid" v="765183"/>
  </node>
  <node id="-3171" visible="true" lat="44.01652473" lon="-73.17987432">
    <tag k="addr:city" v="Middlebury"/>
    <tag k="addr:housenumber" v="31"/>
    <tag k="addr:street" v="Gorham Lane"/>
    <tag k="addr:state" v="VT"/>
    <tag k="ref:vcgi:esiteid" v="765923"/>
  </node>
  <node id="-3172" visible="true" lat="44.0165405" lon="-73.17962372">
    <tag k="addr:city" v="Middlebury"/>
    <tag k="addr:housenumber" v="33"/>
    <tag k="addr:street" v="Gorham Lane"/>
    <tag k="addr:state" v="VT"/>
    <tag k="ref:vcgi:esiteid" v="765924"/>
  </node>
  <node id="-3173" visible="true" lat="44.01658045" lon="-73.17931399">
    <tag k="addr:city" v="Middlebury"/>
    <tag k="addr:housenumber" v="35"/>
    <tag k="addr:street" v="Gorham Lane"/>
    <tag k="addr:state" v="VT"/>
    <tag k="ref:vcgi:esiteid" v="765925"/>
  </node>
  <node id="-3174" visible="true" lat="44.01660614" lon="-73.1789975">
    <tag k="addr:city" v="Middlebury"/>
    <tag k="addr:housenumber" v="37"/>
    <tag k="addr:street" v="Gorham Lane"/>
    <tag k="addr:state" v="VT"/>
    <tag k="ref:vcgi:esiteid" v="765926"/>
  </node>
  <node id="-3175" visible="true" lat="43.99725393" lon="-73.15648142">
    <tag k="addr:city" v="Middlebury"/>
    <tag k="addr:housenumber" v="62"/>
    <tag k="addr:street" v="Gardiner Close"/>
    <tag k="addr:state" v="VT"/>
    <tag k="ref:vcgi:esiteid" v="766111"/>
  </node>
  <node id="-3176" visible="true" lat="43.99771486" lon="-73.15624899">
    <tag k="addr:city" v="Middlebury"/>
    <tag k="addr:housenumber" v="54"/>
    <tag k="addr:street" v="Gardiner Close"/>
    <tag k="addr:state" v="VT"/>
    <tag k="ref:vcgi:esiteid" v="766114"/>
  </node>
  <node id="-3177" visible="true" lat="43.9668693" lon="-73.10772892">
    <tag k="addr:city" v="Middlebury"/>
    <tag k="addr:housenumber" v="3671"/>
    <tag k="addr:street" v="U.S. Route 7 South"/>
    <tag k="addr:state" v="VT"/>
    <tag k="ref:vcgi:esiteid" v="766622"/>
  </node>
  <node id="-3178" visible="true" lat="43.98771555" lon="-73.14283087">
    <tag k="addr:city" v="Middlebury"/>
    <tag k="addr:housenumber" v="544"/>
    <tag k="addr:street" v="Middle Road South"/>
    <tag k="addr:state" v="VT"/>
    <tag k="ref:vcgi:esiteid" v="766701"/>
  </node>
  <node id="-3179" visible="true" lat="44.01254025" lon="-73.17970575">
    <tag k="addr:city" v="Middlebury"/>
    <tag k="addr:housenumber" v="211"/>
    <tag k="addr:street" v="Freeman Way"/>
    <tag k="addr:state" v="VT"/>
    <tag k="ref:vcgi:esiteid" v="767058"/>
  </node>
  <node id="-3180" visible="true" lat="44.03059337" lon="-73.09865515">
    <tag k="addr:city" v="Middlebury"/>
    <tag k="addr:housenumber" v="4211"/>
    <tag k="addr:street" v="Case Street"/>
    <tag k="addr:state" v="VT"/>
    <tag k="ref:vcgi:esiteid" v="767288"/>
  </node>
  <node id="-3181" visible="true" lat="43.99133922" lon="-73.14800658">
    <tag k="addr:city" v="Middlebury"/>
    <tag k="addr:housenumber" v="559"/>
    <tag k="addr:street" v="South Ridge Drive"/>
    <tag k="addr:state" v="VT"/>
    <tag k="ref:vcgi:esiteid" v="767621"/>
  </node>
  <node id="-3182" visible="true" lat="43.99346341" lon="-73.10245076">
    <tag k="addr:city" v="Middlebury"/>
    <tag k="addr:housenumber" v="140"/>
    <tag k="addr:street" v="Munson Road"/>
    <tag k="addr:state" v="VT"/>
    <tag k="ref:vcgi:esiteid" v="768342"/>
  </node>
  <node id="-3183" visible="true" lat="43.96579819" lon="-73.0922579">
    <tag k="addr:city" v="Middlebury"/>
    <tag k="addr:housenumber" v="266"/>
    <tag k="addr:street" v="Daisy Lane"/>
    <tag k="addr:state" v="VT"/>
    <tag k="ref:vcgi:esiteid" v="768732"/>
  </node>
  <node id="-3184" visible="true" lat="44.01151615" lon="-73.09627009">
    <tag k="addr:city" v="Middlebury"/>
    <tag k="addr:housenumber" v="115"/>
    <tag k="addr:street" v="Dow Farm Lane"/>
    <tag k="addr:state" v="VT"/>
    <tag k="ref:vcgi:esiteid" v="768887"/>
  </node>
  <node id="-3185" visible="true" lat="43.98344514" lon="-73.09640292">
    <tag k="addr:city" v="Middlebury"/>
    <tag k="addr:housenumber" v="657"/>
    <tag k="addr:street" v="Airport Road"/>
    <tag k="addr:state" v="VT"/>
    <tag k="ref:vcgi:esiteid" v="768952"/>
  </node>
  <node id="-3186" visible="true" lat="43.96622966" lon="-73.09193114">
    <tag k="addr:city" v="Middlebury"/>
    <tag k="addr:housenumber" v="251"/>
    <tag k="addr:street" v="Daisy Lane"/>
    <tag k="addr:state" v="VT"/>
    <tag k="ref:vcgi:esiteid" v="769335"/>
  </node>
  <node id="-3187" visible="true" lat="43.96572073" lon="-73.09139858">
    <tag k="addr:city" v="Middlebury"/>
    <tag k="addr:housenumber" v="285"/>
    <tag k="addr:street" v="Daisy Lane"/>
    <tag k="addr:state" v="VT"/>
    <tag k="ref:vcgi:esiteid" v="769336"/>
  </node>
  <node id="-3188" visible="true" lat="44.03590586" lon="-73.09278988">
    <tag k="addr:city" v="Middlebury"/>
    <tag k="addr:housenumber" v="4645"/>
    <tag k="addr:street" v="Case Street"/>
    <tag k="addr:state" v="VT"/>
    <tag k="ref:vcgi:esiteid" v="769337"/>
  </node>
  <node id="-3189" visible="true" lat="44.04361628" lon="-73.16069333">
    <tag k="addr:city" v="Middlebury"/>
    <tag k="addr:housenumber" v="80"/>
    <tag k="addr:street" v="Acker Farm Road"/>
    <tag k="addr:state" v="VT"/>
    <tag k="ref:vcgi:esiteid" v="769368"/>
  </node>
  <node id="-3190" visible="true" lat="43.96540048" lon="-73.09318108">
    <tag k="addr:city" v="Middlebury"/>
    <tag k="addr:housenumber" v="292"/>
    <tag k="addr:street" v="Daisy Lane"/>
    <tag k="addr:state" v="VT"/>
    <tag k="ref:vcgi:esiteid" v="769370"/>
  </node>
  <node id="-3191" visible="true" lat="44.0269647" lon="-73.09694968">
    <tag k="addr:city" v="Middlebury"/>
    <tag k="addr:housenumber" v="44"/>
    <tag k="addr:street" v="Monarch Court"/>
    <tag k="addr:state" v="VT"/>
    <tag k="ref:vcgi:esiteid" v="769642"/>
  </node>
  <node id="-3192" visible="true" lat="44.01300892" lon="-73.11445191">
    <tag k="addr:city" v="Middlebury"/>
    <tag k="addr:housenumber" v="434"/>
    <tag k="addr:street" v="South Munger Street"/>
    <tag k="addr:state" v="VT"/>
    <tag k="ref:vcgi:esiteid" v="769712"/>
  </node>
  <node id="-3193" visible="true" lat="44.00460666" lon="-73.15367259">
    <tag k="addr:city" v="Middlebury"/>
    <tag k="addr:housenumber" v="140"/>
    <tag k="addr:street" v="Birchard Park"/>
    <tag k="addr:state" v="VT"/>
    <tag k="ref:vcgi:esiteid" v="770082"/>
  </node>
  <node id="-3194" visible="true" lat="44.01661039" lon="-73.15617378">
    <tag k="addr:city" v="Middlebury"/>
    <tag k="addr:housenumber" v="33"/>
    <tag k="addr:street" v="Stonecrop Road"/>
    <tag k="addr:state" v="VT"/>
    <tag k="ref:vcgi:esiteid" v="770995"/>
  </node>
  <node id="-3195" visible="true" lat="44.01666378" lon="-73.156161">
    <tag k="addr:city" v="Middlebury"/>
    <tag k="addr:housenumber" v="37"/>
    <tag k="addr:street" v="Stonecrop Road"/>
    <tag k="addr:state" v="VT"/>
    <tag k="ref:vcgi:esiteid" v="770996"/>
  </node>
  <node id="-3196" visible="true" lat="44.01669623" lon="-73.15614541">
    <tag k="addr:city" v="Middlebury"/>
    <tag k="addr:housenumber" v="39"/>
    <tag k="addr:street" v="Stonecrop Road"/>
    <tag k="addr:state" v="VT"/>
    <tag k="ref:vcgi:esiteid" v="770997"/>
  </node>
  <node id="-3197" visible="true" lat="44.01674584" lon="-73.15612468">
    <tag k="addr:city" v="Middlebury"/>
    <tag k="addr:housenumber" v="45"/>
    <tag k="addr:street" v="Stonecrop Road"/>
    <tag k="addr:state" v="VT"/>
    <tag k="ref:vcgi:esiteid" v="770998"/>
  </node>
  <node id="-3198" visible="true" lat="44.01680877" lon="-73.15610933">
    <tag k="addr:city" v="Middlebury"/>
    <tag k="addr:housenumber" v="47"/>
    <tag k="addr:street" v="Stonecrop Road"/>
    <tag k="addr:state" v="VT"/>
    <tag k="ref:vcgi:esiteid" v="770999"/>
  </node>
  <node id="-3199" visible="true" lat="44.01686218" lon="-73.15609126">
    <tag k="addr:city" v="Middlebury"/>
    <tag k="addr:housenumber" v="53"/>
    <tag k="addr:street" v="Stonecrop Road"/>
    <tag k="addr:state" v="VT"/>
    <tag k="ref:vcgi:esiteid" v="771000"/>
  </node>
  <node id="-3200" visible="true" lat="44.01622359" lon="-73.1558408">
    <tag k="addr:city" v="Middlebury"/>
    <tag k="addr:housenumber" v="10"/>
    <tag k="addr:street" v="Brush Lane"/>
    <tag k="addr:state" v="VT"/>
    <tag k="ref:vcgi:esiteid" v="771001"/>
  </node>
  <node id="-3201" visible="true" lat="44.01621301" lon="-73.15574833">
    <tag k="addr:city" v="Middlebury"/>
    <tag k="addr:housenumber" v="14"/>
    <tag k="addr:street" v="Brush Lane"/>
    <tag k="addr:state" v="VT"/>
    <tag k="ref:vcgi:esiteid" v="771002"/>
  </node>
  <node id="-3202" visible="true" lat="44.01618798" lon="-73.15557786">
    <tag k="addr:city" v="Middlebury"/>
    <tag k="addr:housenumber" v="24"/>
    <tag k="addr:street" v="Brush Lane"/>
    <tag k="addr:state" v="VT"/>
    <tag k="ref:vcgi:esiteid" v="771003"/>
  </node>
  <node id="-3203" visible="true" lat="44.01617975" lon="-73.15549333">
    <tag k="addr:city" v="Middlebury"/>
    <tag k="addr:housenumber" v="28"/>
    <tag k="addr:street" v="Brush Lane"/>
    <tag k="addr:state" v="VT"/>
    <tag k="ref:vcgi:esiteid" v="771004"/>
  </node>
  <node id="-3204" visible="true" lat="44.01614521" lon="-73.15532015">
    <tag k="addr:city" v="Middlebury"/>
    <tag k="addr:housenumber" v="36"/>
    <tag k="addr:street" v="Brush Lane"/>
    <tag k="addr:state" v="VT"/>
    <tag k="ref:vcgi:esiteid" v="771005"/>
  </node>
  <node id="-3205" visible="true" lat="44.01612689" lon="-73.15525665">
    <tag k="addr:city" v="Middlebury"/>
    <tag k="addr:housenumber" v="40"/>
    <tag k="addr:street" v="Brush Lane"/>
    <tag k="addr:state" v="VT"/>
    <tag k="ref:vcgi:esiteid" v="771006"/>
  </node>
  <node id="-3206" visible="true" lat="44.01609769" lon="-73.15505844">
    <tag k="addr:city" v="Middlebury"/>
    <tag k="addr:housenumber" v="50"/>
    <tag k="addr:street" v="Brush Lane"/>
    <tag k="addr:state" v="VT"/>
    <tag k="ref:vcgi:esiteid" v="771007"/>
  </node>
  <node id="-3207" visible="true" lat="44.01607227" lon="-73.15498367">
    <tag k="addr:city" v="Middlebury"/>
    <tag k="addr:housenumber" v="54"/>
    <tag k="addr:street" v="Brush Lane"/>
    <tag k="addr:state" v="VT"/>
    <tag k="ref:vcgi:esiteid" v="771008"/>
  </node>
  <node id="-3208" visible="true" lat="44.01599768" lon="-73.15458383">
    <tag k="addr:city" v="Middlebury"/>
    <tag k="addr:housenumber" v="74"/>
    <tag k="addr:street" v="Brush Lane"/>
    <tag k="addr:state" v="VT"/>
    <tag k="ref:vcgi:esiteid" v="771009"/>
  </node>
  <node id="-3209" visible="true" lat="44.01597716" lon="-73.15447609">
    <tag k="addr:city" v="Middlebury"/>
    <tag k="addr:housenumber" v="78"/>
    <tag k="addr:street" v="Brush Lane"/>
    <tag k="addr:state" v="VT"/>
    <tag k="ref:vcgi:esiteid" v="771010"/>
  </node>
  <node id="-3210" visible="true" lat="44.01595079" lon="-73.1542845">
    <tag k="addr:city" v="Middlebury"/>
    <tag k="addr:housenumber" v="86"/>
    <tag k="addr:street" v="Brush Lane"/>
    <tag k="addr:state" v="VT"/>
    <tag k="ref:vcgi:esiteid" v="771011"/>
  </node>
  <node id="-3211" visible="true" lat="44.01593588" lon="-73.15420124">
    <tag k="addr:city" v="Middlebury"/>
    <tag k="addr:housenumber" v="88"/>
    <tag k="addr:street" v="Brush Lane"/>
    <tag k="addr:state" v="VT"/>
    <tag k="ref:vcgi:esiteid" v="771012"/>
  </node>
  <node id="-3212" visible="true" lat="44.0162415" lon="-73.15447022">
    <tag k="addr:city" v="Middlebury"/>
    <tag k="addr:housenumber" v="30"/>
    <tag k="addr:street" v="Barnes Brook Road"/>
    <tag k="addr:state" v="VT"/>
    <tag k="ref:vcgi:esiteid" v="771013"/>
  </node>
  <node id="-3213" visible="true" lat="44.0163192" lon="-73.15492685">
    <tag k="addr:city" v="Middlebury"/>
    <tag k="addr:housenumber" v="29"/>
    <tag k="addr:street" v="Barnes Brook Road"/>
    <tag k="addr:state" v="VT"/>
    <tag k="ref:vcgi:esiteid" v="771014"/>
  </node>
  <node id="-3214" visible="true" lat="44.01628826" lon="-73.15444947">
    <tag k="addr:city" v="Middlebury"/>
    <tag k="addr:housenumber" v="32"/>
    <tag k="addr:street" v="Barnes Brook Road"/>
    <tag k="addr:state" v="VT"/>
    <tag k="ref:vcgi:esiteid" v="771015"/>
  </node>
  <node id="-3215" visible="true" lat="44.0163712" lon="-73.15490547">
    <tag k="addr:city" v="Middlebury"/>
    <tag k="addr:housenumber" v="33"/>
    <tag k="addr:street" v="Barnes Brook Road"/>
    <tag k="addr:state" v="VT"/>
    <tag k="ref:vcgi:esiteid" v="771016"/>
  </node>
  <node id="-3216" visible="true" lat="44.01642838" lon="-73.15489602">
    <tag k="addr:city" v="Middlebury"/>
    <tag k="addr:housenumber" v="35"/>
    <tag k="addr:street" v="Barnes Brook Road"/>
    <tag k="addr:state" v="VT"/>
    <tag k="ref:vcgi:esiteid" v="771017"/>
  </node>
  <node id="-3217" visible="true" lat="44.01648373" lon="-73.15487005">
    <tag k="addr:city" v="Middlebury"/>
    <tag k="addr:housenumber" v="39"/>
    <tag k="addr:street" v="Barnes Brook Road"/>
    <tag k="addr:state" v="VT"/>
    <tag k="ref:vcgi:esiteid" v="771018"/>
  </node>
  <node id="-3218" visible="true" lat="44.0165205" lon="-73.15484657">
    <tag k="addr:city" v="Middlebury"/>
    <tag k="addr:housenumber" v="41"/>
    <tag k="addr:street" v="Barnes Brook Road"/>
    <tag k="addr:state" v="VT"/>
    <tag k="ref:vcgi:esiteid" v="771019"/>
  </node>
  <node id="-3219" visible="true" lat="44.01657819" lon="-73.15483118">
    <tag k="addr:city" v="Middlebury"/>
    <tag k="addr:housenumber" v="47"/>
    <tag k="addr:street" v="Barnes Brook Road"/>
    <tag k="addr:state" v="VT"/>
    <tag k="ref:vcgi:esiteid" v="771020"/>
  </node>
  <node id="-3220" visible="true" lat="44.01649041" lon="-73.15439625">
    <tag k="addr:city" v="Middlebury"/>
    <tag k="addr:housenumber" v="44"/>
    <tag k="addr:street" v="Barnes Brook Road"/>
    <tag k="addr:state" v="VT"/>
    <tag k="ref:vcgi:esiteid" v="771021"/>
  </node>
  <node id="-3221" visible="true" lat="44.01643268" lon="-73.15442089">
    <tag k="addr:city" v="Middlebury"/>
    <tag k="addr:housenumber" v="42"/>
    <tag k="addr:street" v="Barnes Brook Road"/>
    <tag k="addr:state" v="VT"/>
    <tag k="ref:vcgi:esiteid" v="771022"/>
  </node>
  <node id="-3222" visible="true" lat="44.01665892" lon="-73.15524296">
    <tag k="addr:city" v="Middlebury"/>
    <tag k="addr:housenumber" v="10"/>
    <tag k="addr:street" v="Meadowlark Lane"/>
    <tag k="addr:state" v="VT"/>
    <tag k="ref:vcgi:esiteid" v="771023"/>
  </node>
  <node id="-3223" visible="true" lat="44.01659978" lon="-73.15526362">
    <tag k="addr:city" v="Middlebury"/>
    <tag k="addr:housenumber" v="14"/>
    <tag k="addr:street" v="Meadowlark Lane"/>
    <tag k="addr:state" v="VT"/>
    <tag k="ref:vcgi:esiteid" v="771024"/>
  </node>
  <node id="-3224" visible="true" lat="44.01653877" lon="-73.15527635">
    <tag k="addr:city" v="Middlebury"/>
    <tag k="addr:housenumber" v="18"/>
    <tag k="addr:street" v="Meadowlark Lane"/>
    <tag k="addr:state" v="VT"/>
    <tag k="ref:vcgi:esiteid" v="771025"/>
  </node>
  <node id="-3225" visible="true" lat="44.01650099" lon="-73.15531433">
    <tag k="addr:city" v="Middlebury"/>
    <tag k="addr:housenumber" v="22"/>
    <tag k="addr:street" v="Meadowlark Lane"/>
    <tag k="addr:state" v="VT"/>
    <tag k="ref:vcgi:esiteid" v="771026"/>
  </node>
  <node id="-3226" visible="true" lat="44.01646091" lon="-73.1553325">
    <tag k="addr:city" v="Middlebury"/>
    <tag k="addr:housenumber" v="26"/>
    <tag k="addr:street" v="Meadowlark Lane"/>
    <tag k="addr:state" v="VT"/>
    <tag k="ref:vcgi:esiteid" v="771027"/>
  </node>
  <node id="-3227" visible="true" lat="44.01640748" lon="-73.15535452">
    <tag k="addr:city" v="Middlebury"/>
    <tag k="addr:housenumber" v="30"/>
    <tag k="addr:street" v="Meadowlark Lane"/>
    <tag k="addr:state" v="VT"/>
    <tag k="ref:vcgi:esiteid" v="771028"/>
  </node>
  <node id="-3228" visible="true" lat="44.01687309" lon="-73.15468828">
    <tag k="addr:city" v="Middlebury"/>
    <tag k="addr:housenumber" v="65"/>
    <tag k="addr:street" v="Barnes Brook Road"/>
    <tag k="addr:state" v="VT"/>
    <tag k="ref:vcgi:esiteid" v="771029"/>
  </node>
  <node id="-3229" visible="true" lat="44.01672371" lon="-73.15429445">
    <tag k="addr:city" v="Middlebury"/>
    <tag k="addr:housenumber" v="64"/>
    <tag k="addr:street" v="Barnes Brook Road"/>
    <tag k="addr:state" v="VT"/>
    <tag k="ref:vcgi:esiteid" v="771030"/>
  </node>
  <node id="-3230" visible="true" lat="44.01666459" lon="-73.15430983">
    <tag k="addr:city" v="Middlebury"/>
    <tag k="addr:housenumber" v="58"/>
    <tag k="addr:street" v="Barnes Brook Road"/>
    <tag k="addr:state" v="VT"/>
    <tag k="ref:vcgi:esiteid" v="771031"/>
  </node>
  <node id="-3231" visible="true" lat="44.01660309" lon="-73.15432453">
    <tag k="addr:city" v="Middlebury"/>
    <tag k="addr:housenumber" v="54"/>
    <tag k="addr:street" v="Barnes Brook Road"/>
    <tag k="addr:state" v="VT"/>
    <tag k="ref:vcgi:esiteid" v="771032"/>
  </node>
  <node id="-3232" visible="true" lat="44.01684772" lon="-73.15424855">
    <tag k="addr:city" v="Middlebury"/>
    <tag k="addr:housenumber" v="70"/>
    <tag k="addr:street" v="Barnes Brook Road"/>
    <tag k="addr:state" v="VT"/>
    <tag k="ref:vcgi:esiteid" v="771033"/>
  </node>
  <node id="-3233" visible="true" lat="44.01689638" lon="-73.15422649">
    <tag k="addr:city" v="Middlebury"/>
    <tag k="addr:housenumber" v="74"/>
    <tag k="addr:street" v="Barnes Brook Road"/>
    <tag k="addr:state" v="VT"/>
    <tag k="ref:vcgi:esiteid" v="771034"/>
  </node>
  <node id="-3234" visible="true" lat="44.01695696" lon="-73.15420254">
    <tag k="addr:city" v="Middlebury"/>
    <tag k="addr:housenumber" v="80"/>
    <tag k="addr:street" v="Barnes Brook Road"/>
    <tag k="addr:state" v="VT"/>
    <tag k="ref:vcgi:esiteid" v="771035"/>
  </node>
  <node id="-3235" visible="true" lat="44.01688041" lon="-73.15476159">
    <tag k="addr:city" v="Middlebury"/>
    <tag k="addr:housenumber" v="107"/>
    <tag k="addr:street" v="Stonecrop Road"/>
    <tag k="addr:state" v="VT"/>
    <tag k="ref:vcgi:esiteid" v="771036"/>
  </node>
  <node id="-3236" visible="true" lat="44.0168782" lon="-73.15483747">
    <tag k="addr:city" v="Middlebury"/>
    <tag k="addr:housenumber" v="105"/>
    <tag k="addr:street" v="Stonecrop Road"/>
    <tag k="addr:state" v="VT"/>
    <tag k="ref:vcgi:esiteid" v="771037"/>
  </node>
  <node id="-3237" visible="true" lat="44.01691131" lon="-73.15489514">
    <tag k="addr:city" v="Middlebury"/>
    <tag k="addr:housenumber" v="99"/>
    <tag k="addr:street" v="Stonecrop Road"/>
    <tag k="addr:state" v="VT"/>
    <tag k="ref:vcgi:esiteid" v="771038"/>
  </node>
  <node id="-3238" visible="true" lat="44.01692006" lon="-73.15496846">
    <tag k="addr:city" v="Middlebury"/>
    <tag k="addr:housenumber" v="97"/>
    <tag k="addr:street" v="Stonecrop Road"/>
    <tag k="addr:state" v="VT"/>
    <tag k="ref:vcgi:esiteid" v="771039"/>
  </node>
  <node id="-3239" visible="true" lat="44.01692834" lon="-73.15504046">
    <tag k="addr:city" v="Middlebury"/>
    <tag k="addr:housenumber" v="93"/>
    <tag k="addr:street" v="Stonecrop Road"/>
    <tag k="addr:state" v="VT"/>
    <tag k="ref:vcgi:esiteid" v="771040"/>
  </node>
  <node id="-3240" visible="true" lat="44.0166977" lon="-73.15566299">
    <tag k="addr:city" v="Middlebury"/>
    <tag k="addr:housenumber" v="60"/>
    <tag k="addr:street" v="Stonecrop Road"/>
    <tag k="addr:state" v="VT"/>
    <tag k="ref:vcgi:esiteid" v="771041"/>
  </node>
  <node id="-3241" visible="true" lat="44.01714728" lon="-73.15578264">
    <tag k="addr:city" v="Middlebury"/>
    <tag k="addr:housenumber" v="59"/>
    <tag k="addr:street" v="Stonecrop Road"/>
    <tag k="addr:state" v="VT"/>
    <tag k="ref:vcgi:esiteid" v="771042"/>
  </node>
  <node id="-3242" visible="true" lat="44.01701848" lon="-73.1554807">
    <tag k="addr:city" v="Middlebury"/>
    <tag k="addr:housenumber" v="71"/>
    <tag k="addr:street" v="Stonecrop Road"/>
    <tag k="addr:state" v="VT"/>
    <tag k="ref:vcgi:esiteid" v="771043"/>
  </node>
  <node id="-3243" visible="true" lat="44.0169997" lon="-73.15541323">
    <tag k="addr:city" v="Middlebury"/>
    <tag k="addr:housenumber" v="75"/>
    <tag k="addr:street" v="Stonecrop Road"/>
    <tag k="addr:state" v="VT"/>
    <tag k="ref:vcgi:esiteid" v="771044"/>
  </node>
  <node id="-3244" visible="true" lat="44.01698267" lon="-73.15526791">
    <tag k="addr:city" v="Middlebury"/>
    <tag k="addr:housenumber" v="79"/>
    <tag k="addr:street" v="Stonecrop Road"/>
    <tag k="addr:state" v="VT"/>
    <tag k="ref:vcgi:esiteid" v="771045"/>
  </node>
  <node id="-3245" visible="true" lat="44.01699192" lon="-73.1553353">
    <tag k="addr:city" v="Middlebury"/>
    <tag k="addr:housenumber" v="77"/>
    <tag k="addr:street" v="Stonecrop Road"/>
    <tag k="addr:state" v="VT"/>
    <tag k="ref:vcgi:esiteid" v="771046"/>
  </node>
  <node id="-3246" visible="true" lat="44.01696631" lon="-73.15519189">
    <tag k="addr:city" v="Middlebury"/>
    <tag k="addr:housenumber" v="83"/>
    <tag k="addr:street" v="Stonecrop Road"/>
    <tag k="addr:state" v="VT"/>
    <tag k="ref:vcgi:esiteid" v="771047"/>
  </node>
  <node id="-3249" visible="true" lat="44.01751625" lon="-73.15557761">
    <tag k="addr:city" v="Middlebury"/>
    <tag k="addr:housenumber" v="64"/>
    <tag k="addr:street" v="Seaton Lane"/>
    <tag k="addr:state" v="VT"/>
    <tag k="ref:vcgi:esiteid" v="771050"/>
  </node>
  <node id="-3250" visible="true" lat="44.01756586" lon="-73.1555582">
    <tag k="addr:city" v="Middlebury"/>
    <tag k="addr:housenumber" v="68"/>
    <tag k="addr:street" v="Seaton Lane"/>
    <tag k="addr:state" v="VT"/>
    <tag k="ref:vcgi:esiteid" v="771051"/>
  </node>
  <node id="-3251" visible="true" lat="44.01761256" lon="-73.15554998">
    <tag k="addr:city" v="Middlebury"/>
    <tag k="addr:housenumber" v="72"/>
    <tag k="addr:street" v="Seaton Lane"/>
    <tag k="addr:state" v="VT"/>
    <tag k="ref:vcgi:esiteid" v="771052"/>
  </node>
  <node id="-3252" visible="true" lat="44.01766615" lon="-73.15549034">
    <tag k="addr:city" v="Middlebury"/>
    <tag k="addr:housenumber" v="76"/>
    <tag k="addr:street" v="Seaton Lane"/>
    <tag k="addr:state" v="VT"/>
    <tag k="ref:vcgi:esiteid" v="771053"/>
  </node>
  <node id="-3253" visible="true" lat="44.01769714" lon="-73.15548134">
    <tag k="addr:city" v="Middlebury"/>
    <tag k="addr:housenumber" v="80"/>
    <tag k="addr:street" v="Seaton Lane"/>
    <tag k="addr:state" v="VT"/>
    <tag k="ref:vcgi:esiteid" v="771054"/>
  </node>
  <node id="-3254" visible="true" lat="44.01776008" lon="-73.15546401">
    <tag k="addr:city" v="Middlebury"/>
    <tag k="addr:housenumber" v="84"/>
    <tag k="addr:street" v="Seaton Lane"/>
    <tag k="addr:state" v="VT"/>
    <tag k="ref:vcgi:esiteid" v="771055"/>
  </node>
  <node id="-3256" visible="true" lat="44.01707965" lon="-73.15415333">
    <tag k="addr:city" v="Middlebury"/>
    <tag k="addr:housenumber" v="86"/>
    <tag k="addr:street" v="Barnes Brook Road"/>
    <tag k="addr:state" v="VT"/>
    <tag k="ref:vcgi:esiteid" v="771057"/>
  </node>
  <node id="-3257" visible="true" lat="44.01713446" lon="-73.15414385">
    <tag k="addr:city" v="Middlebury"/>
    <tag k="addr:housenumber" v="90"/>
    <tag k="addr:street" v="Barnes Brook Road"/>
    <tag k="addr:state" v="VT"/>
    <tag k="ref:vcgi:esiteid" v="771058"/>
  </node>
  <node id="-3258" visible="true" lat="44.01719411" lon="-73.15411462">
    <tag k="addr:city" v="Middlebury"/>
    <tag k="addr:housenumber" v="96"/>
    <tag k="addr:street" v="Barnes Brook Road"/>
    <tag k="addr:state" v="VT"/>
    <tag k="ref:vcgi:esiteid" v="771059"/>
  </node>
  <node id="-3259" visible="true" lat="44.01347866" lon="-73.16813178">
    <tag k="addr:city" v="Middlebury"/>
    <tag k="addr:housenumber" v="40"/>
    <tag k="addr:street" v="Merchants Row"/>
    <tag k="addr:state" v="VT"/>
    <tag k="ref:vcgi:esiteid" v="800073"/>
  </node>
</osm>
