<?xml version="1.0" encoding="UTF-8"?>
<osm version="0.6" generator="JOSM" upload="false">
  <node id="-272" visible="true" lat="44.68602499" lon="-73.15932501">
    <!-- offset: "350 Murray Avenue, Milton, VT" Significant offset - 225.6m -->
    <tag k="addr:city" v="Milton"/>
    <tag k="addr:housenumber" v="350"/>
    <tag k="addr:street" v="Murray Avenue"/>
    <tag k="addr:state" v="VT"/>
    <tag k="ref:vcgi:esiteid" v="158397"/>
  </node>
  <node id="-1438" visible="true" lat="44.62910157" lon="-73.11892499">
    <!-- offset: "17 Rebecca Lander Drive, Milton, VT" Significant offset - 116.7m -->
    <tag k="addr:city" v="Milton"/>
    <tag k="addr:housenumber" v="17"/>
    <tag k="addr:street" v="Rebecca Lander Drive"/>
    <tag k="addr:state" v="VT"/>
    <tag k="ref:vcgi:esiteid" v="159577"/>
  </node>
  <node id="-3708" visible="true" lat="44.64193578" lon="-73.10699792">
    <!-- offset: "36 Maplewood Avenue, Milton, VT" Significant offset - 122.9m -->
    <tag k="addr:city" v="Milton"/>
    <tag k="addr:housenumber" v="36"/>
    <tag k="addr:street" v="Maplewood Avenue"/>
    <tag k="addr:state" v="VT"/>
    <tag k="ref:vcgi:esiteid" v="162045"/>
  </node>
</osm>
