<?xml version="1.0" encoding="UTF-8"?>
<osm version="0.6" generator="JOSM">
  <node id="-2080" visible="true" lat="44.61506646" lon="-73.11473563">
    <!-- conflict: "27 Woodcrest Circle, Milton, VT" No match in OSM, but a different address exists <5m away: "31 Woodcrest Circle, , " -->
    <tag k="addr:city" v="Milton"/>
    <tag k="addr:housenumber" v="27"/>
    <tag k="addr:street" v="Woodcrest Circle"/>
    <tag k="addr:state" v="VT"/>
    <tag k="ref:vcgi:esiteid" v="160233"/>
  </node>
  <node id="-2082" visible="true" lat="44.61534241" lon="-73.11549059">
    <!-- conflict: "31 Woodcrest Circle, Milton, VT" Fuzzy match to "31 Woodcrest Circle, , " -->
    <tag k="addr:city" v="Milton"/>
    <tag k="addr:housenumber" v="31"/>
    <tag k="addr:street" v="Woodcrest Circle"/>
    <tag k="addr:state" v="VT"/>
    <tag k="ref:vcgi:esiteid" v="160235"/>
  </node>
  <node id="-4038" visible="true" lat="44.64477256" lon="-73.18385852">
    <!-- conflict: "70 Lionheart Drive, Milton, VT" Fuzzy match to "70 Lion Heart Drive, Milton, VT" -->
    <tag k="addr:city" v="Milton"/>
    <tag k="addr:housenumber" v="70"/>
    <tag k="addr:street" v="Lionheart Drive"/>
    <tag k="addr:state" v="VT"/>
    <tag k="ref:vcgi:esiteid" v="162433"/>
  </node>
  <node id="-4341" visible="true" lat="44.64988739" lon="-73.11765112">
    <!-- conflict: "8 Overlake Drive, Milton, VT" No match in OSM, but a different address exists <5m away: "8 Highland Avenue, Milton, VT" -->
    <tag k="addr:city" v="Milton"/>
    <tag k="addr:housenumber" v="8"/>
    <tag k="addr:street" v="Overlake Drive"/>
    <tag k="addr:state" v="VT"/>
    <tag k="ref:vcgi:esiteid" v="342023"/>
  </node>
  <node id="-4347" visible="true" lat="44.64956369" lon="-73.11867974">
    <!-- conflict: "2 Shannon Way, Milton, VT" No match in OSM, but a different address exists <5m away: "2 Highland Avenue, Milton, VT" -->
    <tag k="addr:city" v="Milton"/>
    <tag k="addr:housenumber" v="2"/>
    <tag k="addr:street" v="Shannon Way"/>
    <tag k="addr:state" v="VT"/>
    <tag k="ref:vcgi:esiteid" v="342029"/>
  </node>
</osm>
