<?xml version="1.0" encoding="UTF-8"?>
<osm version="0.6" generator="JOSM">
  <node id="-490" visible="true" lat="44.65991313" lon="-73.1354787">
    <tag k="addr:city" v="Milton"/>
    <tag k="addr:housenumber" v="254"/>
    <tag k="addr:street" v="Lake Road"/>
    <tag k="addr:state" v="VT"/>
    <tag k="ref:vcgi:esiteid" v="158615"/>
  </node>
  <node id="-491" visible="true" lat="44.65986976" lon="-73.13402902">
    <tag k="addr:city" v="Milton"/>
    <tag k="addr:housenumber" v="226"/>
    <tag k="addr:street" v="Lake Road"/>
    <tag k="addr:state" v="VT"/>
    <tag k="ref:vcgi:esiteid" v="158616"/>
  </node>
  <node id="-492" visible="true" lat="44.66047507" lon="-73.13307597">
    <tag k="addr:city" v="Milton"/>
    <tag k="addr:housenumber" v="231"/>
    <tag k="addr:street" v="Lake Road"/>
    <tag k="addr:state" v="VT"/>
    <tag k="ref:vcgi:esiteid" v="158617"/>
  </node>
  <node id="-493" visible="true" lat="44.65965334" lon="-73.1328657">
    <tag k="addr:city" v="Milton"/>
    <tag k="addr:housenumber" v="220"/>
    <tag k="addr:street" v="Lake Road"/>
    <tag k="addr:state" v="VT"/>
    <tag k="ref:vcgi:esiteid" v="158618"/>
  </node>
  <node id="-494" visible="true" lat="44.65959891" lon="-73.1323767">
    <tag k="addr:city" v="Milton"/>
    <tag k="addr:housenumber" v="212"/>
    <tag k="addr:street" v="Lake Road"/>
    <tag k="addr:state" v="VT"/>
    <tag k="ref:vcgi:esiteid" v="158619"/>
  </node>
  <node id="-495" visible="true" lat="44.66015017" lon="-73.13189428">
    <tag k="addr:city" v="Milton"/>
    <tag k="addr:housenumber" v="219"/>
    <tag k="addr:street" v="Lake Road"/>
    <tag k="addr:state" v="VT"/>
    <tag k="ref:vcgi:esiteid" v="158620"/>
  </node>
  <node id="-498" visible="true" lat="44.65981094" lon="-73.1302012">
    <tag k="addr:city" v="Milton"/>
    <tag k="addr:housenumber" v="205"/>
    <tag k="addr:street" v="Lake Road"/>
    <tag k="addr:state" v="VT"/>
    <tag k="ref:vcgi:esiteid" v="158623"/>
  </node>
  <node id="-499" visible="true" lat="44.65976044" lon="-73.12691793">
    <tag k="addr:city" v="Milton"/>
    <tag k="addr:housenumber" v="5"/>
    <tag k="addr:street" v="Lena Court"/>
    <tag k="addr:state" v="VT"/>
    <tag k="ref:vcgi:esiteid" v="158624"/>
  </node>
  <node id="-500" visible="true" lat="44.65996263" lon="-73.12756064">
    <tag k="addr:city" v="Milton"/>
    <tag k="addr:housenumber" v="13"/>
    <tag k="addr:street" v="Lena Court"/>
    <tag k="addr:state" v="VT"/>
    <tag k="ref:vcgi:esiteid" v="158625"/>
  </node>
  <node id="-501" visible="true" lat="44.66038983" lon="-73.12781346">
    <tag k="addr:city" v="Milton"/>
    <tag k="addr:housenumber" v="19"/>
    <tag k="addr:street" v="Lena Court"/>
    <tag k="addr:state" v="VT"/>
    <tag k="ref:vcgi:esiteid" v="158626"/>
  </node>
  <node id="-502" visible="true" lat="44.66058383" lon="-73.12890447">
    <tag k="addr:city" v="Milton"/>
    <tag k="addr:housenumber" v="25"/>
    <tag k="addr:street" v="Lena Court"/>
    <tag k="addr:state" v="VT"/>
    <tag k="ref:vcgi:esiteid" v="158627"/>
  </node>
  <node id="-503" visible="true" lat="44.66005729" lon="-73.12905091">
    <tag k="addr:city" v="Milton"/>
    <tag k="addr:housenumber" v="26"/>
    <tag k="addr:street" v="Lena Court"/>
    <tag k="addr:state" v="VT"/>
    <tag k="ref:vcgi:esiteid" v="158628"/>
  </node>
  <node id="-504" visible="true" lat="44.65963744" lon="-73.12850191">
    <tag k="addr:city" v="Milton"/>
    <tag k="addr:housenumber" v="20"/>
    <tag k="addr:street" v="Lena Court"/>
    <tag k="addr:state" v="VT"/>
    <tag k="ref:vcgi:esiteid" v="158629"/>
  </node>
  <node id="-505" visible="true" lat="44.65942436" lon="-73.12776301">
    <tag k="addr:city" v="Milton"/>
    <tag k="addr:housenumber" v="12"/>
    <tag k="addr:street" v="Lena Court"/>
    <tag k="addr:state" v="VT"/>
    <tag k="ref:vcgi:esiteid" v="158630"/>
  </node>
  <node id="-506" visible="true" lat="44.66019717" lon="-73.12647426">
    <tag k="addr:city" v="Milton"/>
    <tag k="addr:housenumber" v="22"/>
    <tag k="addr:street" v="James Drive"/>
    <tag k="addr:state" v="VT"/>
    <tag k="ref:vcgi:esiteid" v="158631"/>
  </node>
  <node id="-507" visible="true" lat="44.6607634" lon="-73.12638427">
    <tag k="addr:city" v="Milton"/>
    <tag k="addr:housenumber" v="26"/>
    <tag k="addr:street" v="James Drive"/>
    <tag k="addr:state" v="VT"/>
    <tag k="ref:vcgi:esiteid" v="158632"/>
  </node>
  <node id="-508" visible="true" lat="44.66092634" lon="-73.12584957">
    <tag k="addr:city" v="Milton"/>
    <tag k="addr:housenumber" v="28"/>
    <tag k="addr:street" v="James Drive"/>
    <tag k="addr:state" v="VT"/>
    <tag k="ref:vcgi:esiteid" v="158633"/>
  </node>
  <node id="-509" visible="true" lat="44.66077025" lon="-73.12513529">
    <tag k="addr:city" v="Milton"/>
    <tag k="addr:housenumber" v="36"/>
    <tag k="addr:street" v="James Drive"/>
    <tag k="addr:state" v="VT"/>
    <tag k="ref:vcgi:esiteid" v="158634"/>
  </node>
  <node id="-510" visible="true" lat="44.66057437" lon="-73.12438055">
    <tag k="addr:city" v="Milton"/>
    <tag k="addr:housenumber" v="42"/>
    <tag k="addr:street" v="James Drive"/>
    <tag k="addr:state" v="VT"/>
    <tag k="ref:vcgi:esiteid" v="158635"/>
  </node>
  <node id="-511" visible="true" lat="44.66056496" lon="-73.12296325">
    <tag k="addr:city" v="Milton"/>
    <tag k="addr:housenumber" v="58"/>
    <tag k="addr:street" v="James Drive"/>
    <tag k="addr:state" v="VT"/>
    <tag k="ref:vcgi:esiteid" v="158636"/>
  </node>
  <node id="-512" visible="true" lat="44.6597146" lon="-73.12276199">
    <tag k="addr:city" v="Milton"/>
    <tag k="addr:housenumber" v="57"/>
    <tag k="addr:street" v="James Drive"/>
    <tag k="addr:state" v="VT"/>
    <tag k="ref:vcgi:esiteid" v="158637"/>
  </node>
  <node id="-513" visible="true" lat="44.65986325" lon="-73.12379644">
    <tag k="addr:city" v="Milton"/>
    <tag k="addr:housenumber" v="35"/>
    <tag k="addr:street" v="Ira Place"/>
    <tag k="addr:state" v="VT"/>
    <tag k="ref:vcgi:esiteid" v="158638"/>
  </node>
  <node id="-514" visible="true" lat="44.65996256" lon="-73.12444604">
    <tag k="addr:city" v="Milton"/>
    <tag k="addr:housenumber" v="34"/>
    <tag k="addr:street" v="Ira Place"/>
    <tag k="addr:state" v="VT"/>
    <tag k="ref:vcgi:esiteid" v="158639"/>
  </node>
  <node id="-515" visible="true" lat="44.6601187" lon="-73.12515231">
    <tag k="addr:city" v="Milton"/>
    <tag k="addr:housenumber" v="37"/>
    <tag k="addr:street" v="James Drive"/>
    <tag k="addr:state" v="VT"/>
    <tag k="ref:vcgi:esiteid" v="158640"/>
  </node>
  <node id="-516" visible="true" lat="44.66022416" lon="-73.12572192">
    <tag k="addr:city" v="Milton"/>
    <tag k="addr:housenumber" v="23"/>
    <tag k="addr:street" v="James Drive"/>
    <tag k="addr:state" v="VT"/>
    <tag k="ref:vcgi:esiteid" v="158641"/>
  </node>
  <node id="-517" visible="true" lat="44.65969753" lon="-73.12588439">
    <tag k="addr:city" v="Milton"/>
    <tag k="addr:housenumber" v="13"/>
    <tag k="addr:street" v="James Drive"/>
    <tag k="addr:state" v="VT"/>
    <tag k="ref:vcgi:esiteid" v="158642"/>
  </node>
  <node id="-521" visible="true" lat="44.66045081" lon="-73.12188913">
    <tag k="addr:city" v="Milton"/>
    <tag k="addr:housenumber" v="21"/>
    <tag k="addr:street" v="Manley Road"/>
    <tag k="addr:state" v="VT"/>
    <tag k="ref:vcgi:esiteid" v="158646"/>
  </node>
  <node id="-522" visible="true" lat="44.65998264" lon="-73.12181206">
    <tag k="addr:city" v="Milton"/>
    <tag k="addr:housenumber" v="15"/>
    <tag k="addr:street" v="Manley Road"/>
    <tag k="addr:state" v="VT"/>
    <tag k="ref:vcgi:esiteid" v="158647"/>
  </node>
  <node id="-523" visible="true" lat="44.65948978" lon="-73.12102215">
    <tag k="addr:city" v="Milton"/>
    <tag k="addr:housenumber" v="12"/>
    <tag k="addr:street" v="June Way"/>
    <tag k="addr:state" v="VT"/>
    <tag k="ref:vcgi:esiteid" v="158648"/>
  </node>
  <node id="-524" visible="true" lat="44.65975943" lon="-73.12082486">
    <tag k="addr:city" v="Milton"/>
    <tag k="addr:housenumber" v="20"/>
    <tag k="addr:street" v="June Way"/>
    <tag k="addr:state" v="VT"/>
    <tag k="ref:vcgi:esiteid" v="158649"/>
  </node>
  <node id="-525" visible="true" lat="44.66006503" lon="-73.1203237">
    <tag k="addr:city" v="Milton"/>
    <tag k="addr:housenumber" v="26"/>
    <tag k="addr:street" v="June Way"/>
    <tag k="addr:state" v="VT"/>
    <tag k="ref:vcgi:esiteid" v="158650"/>
  </node>
  <node id="-526" visible="true" lat="44.66034815" lon="-73.11975024">
    <tag k="addr:city" v="Milton"/>
    <tag k="addr:housenumber" v="34"/>
    <tag k="addr:street" v="June Way"/>
    <tag k="addr:state" v="VT"/>
    <tag k="ref:vcgi:esiteid" v="158651"/>
  </node>
  <node id="-527" visible="true" lat="44.66056331" lon="-73.11906395">
    <tag k="addr:city" v="Milton"/>
    <tag k="addr:housenumber" v="40"/>
    <tag k="addr:street" v="June Way"/>
    <tag k="addr:state" v="VT"/>
    <tag k="ref:vcgi:esiteid" v="158652"/>
  </node>
  <node id="-528" visible="true" lat="44.66035081" lon="-73.11820497">
    <tag k="addr:city" v="Milton"/>
    <tag k="addr:housenumber" v="4"/>
    <tag k="addr:street" v="Pep Place"/>
    <tag k="addr:state" v="VT"/>
    <tag k="ref:vcgi:esiteid" v="158653"/>
  </node>
  <node id="-529" visible="true" lat="44.65996982" lon="-73.11785663">
    <tag k="addr:city" v="Milton"/>
    <tag k="addr:housenumber" v="8"/>
    <tag k="addr:street" v="Pep Place"/>
    <tag k="addr:state" v="VT"/>
    <tag k="ref:vcgi:esiteid" v="158654"/>
  </node>
  <node id="-530" visible="true" lat="44.65967459" lon="-73.1175012">
    <tag k="addr:city" v="Milton"/>
    <tag k="addr:housenumber" v="12"/>
    <tag k="addr:street" v="Pep Place"/>
    <tag k="addr:state" v="VT"/>
    <tag k="ref:vcgi:esiteid" v="158655"/>
  </node>
  <node id="-531" visible="true" lat="44.65941953" lon="-73.11817105">
    <tag k="addr:city" v="Milton"/>
    <tag k="addr:housenumber" v="11"/>
    <tag k="addr:street" v="Pep Place"/>
    <tag k="addr:state" v="VT"/>
    <tag k="ref:vcgi:esiteid" v="158656"/>
  </node>
  <node id="-532" visible="true" lat="44.65974398" lon="-73.11840669">
    <tag k="addr:city" v="Milton"/>
    <tag k="addr:housenumber" v="7"/>
    <tag k="addr:street" v="Pep Place"/>
    <tag k="addr:state" v="VT"/>
    <tag k="ref:vcgi:esiteid" v="158657"/>
  </node>
  <node id="-533" visible="true" lat="44.66008475" lon="-73.11879463">
    <tag k="addr:city" v="Milton"/>
    <tag k="addr:housenumber" v="3"/>
    <tag k="addr:street" v="Pep Place"/>
    <tag k="addr:state" v="VT"/>
    <tag k="ref:vcgi:esiteid" v="158658"/>
  </node>
  <node id="-534" visible="true" lat="44.65976172" lon="-73.11935166">
    <tag k="addr:city" v="Milton"/>
    <tag k="addr:housenumber" v="4"/>
    <tag k="addr:street" v="Elmer Place"/>
    <tag k="addr:state" v="VT"/>
    <tag k="ref:vcgi:esiteid" v="158659"/>
  </node>
  <node id="-535" visible="true" lat="44.65942082" lon="-73.11898774">
    <tag k="addr:city" v="Milton"/>
    <tag k="addr:housenumber" v="8"/>
    <tag k="addr:street" v="Elmer Place"/>
    <tag k="addr:state" v="VT"/>
    <tag k="ref:vcgi:esiteid" v="158660"/>
  </node>
  <node id="-536" visible="true" lat="44.6595189" lon="-73.11986951">
    <tag k="addr:city" v="Milton"/>
    <tag k="addr:housenumber" v="3"/>
    <tag k="addr:street" v="Elmer Place"/>
    <tag k="addr:state" v="VT"/>
    <tag k="ref:vcgi:esiteid" v="158661"/>
  </node>
  <node id="-537" visible="true" lat="44.65936144" lon="-73.11728971">
    <tag k="addr:city" v="Milton"/>
    <tag k="addr:housenumber" v="16"/>
    <tag k="addr:street" v="Pep Place"/>
    <tag k="addr:state" v="VT"/>
    <tag k="ref:vcgi:esiteid" v="158662"/>
  </node>
  <node id="-538" visible="true" lat="44.65899197" lon="-73.11692549">
    <tag k="addr:city" v="Milton"/>
    <tag k="addr:housenumber" v="20"/>
    <tag k="addr:street" v="Pep Place"/>
    <tag k="addr:state" v="VT"/>
    <tag k="ref:vcgi:esiteid" v="158663"/>
  </node>
  <node id="-539" visible="true" lat="44.65822392" lon="-73.11629285">
    <tag k="addr:city" v="Milton"/>
    <tag k="addr:housenumber" v="28"/>
    <tag k="addr:street" v="Pep Place"/>
    <tag k="addr:state" v="VT"/>
    <tag k="ref:vcgi:esiteid" v="158664"/>
  </node>
  <node id="-540" visible="true" lat="44.6576038" lon="-73.11578188">
    <tag k="addr:city" v="Milton"/>
    <tag k="addr:housenumber" v="36"/>
    <tag k="addr:street" v="Pep Place"/>
    <tag k="addr:state" v="VT"/>
    <tag k="ref:vcgi:esiteid" v="158665"/>
  </node>
  <node id="-541" visible="true" lat="44.65734944" lon="-73.11632362">
    <tag k="addr:city" v="Milton"/>
    <tag k="addr:housenumber" v="33"/>
    <tag k="addr:street" v="Pep Place"/>
    <tag k="addr:state" v="VT"/>
    <tag k="ref:vcgi:esiteid" v="158666"/>
  </node>
  <node id="-542" visible="true" lat="44.657679" lon="-73.11667138">
    <tag k="addr:city" v="Milton"/>
    <tag k="addr:housenumber" v="31"/>
    <tag k="addr:street" v="Pep Place"/>
    <tag k="addr:state" v="VT"/>
    <tag k="ref:vcgi:esiteid" v="158667"/>
  </node>
  <node id="-543" visible="true" lat="44.65801471" lon="-73.11693915">
    <tag k="addr:city" v="Milton"/>
    <tag k="addr:housenumber" v="27"/>
    <tag k="addr:street" v="Pep Place"/>
    <tag k="addr:state" v="VT"/>
    <tag k="ref:vcgi:esiteid" v="158668"/>
  </node>
  <node id="-544" visible="true" lat="44.65839579" lon="-73.11727146">
    <tag k="addr:city" v="Milton"/>
    <tag k="addr:housenumber" v="23"/>
    <tag k="addr:street" v="Pep Place"/>
    <tag k="addr:state" v="VT"/>
    <tag k="ref:vcgi:esiteid" v="158669"/>
  </node>
  <node id="-545" visible="true" lat="44.65867444" lon="-73.11752261">
    <tag k="addr:city" v="Milton"/>
    <tag k="addr:housenumber" v="17"/>
    <tag k="addr:street" v="Pep Place"/>
    <tag k="addr:state" v="VT"/>
    <tag k="ref:vcgi:esiteid" v="158670"/>
  </node>
  <node id="-546" visible="true" lat="44.65904426" lon="-73.11782278">
    <tag k="addr:city" v="Milton"/>
    <tag k="addr:housenumber" v="15"/>
    <tag k="addr:street" v="Pep Place"/>
    <tag k="addr:state" v="VT"/>
    <tag k="ref:vcgi:esiteid" v="158671"/>
  </node>
  <node id="-547" visible="true" lat="44.65907386" lon="-73.1186878">
    <tag k="addr:city" v="Milton"/>
    <tag k="addr:housenumber" v="12"/>
    <tag k="addr:street" v="Elmer Place"/>
    <tag k="addr:state" v="VT"/>
    <tag k="ref:vcgi:esiteid" v="158672"/>
  </node>
  <node id="-548" visible="true" lat="44.65877197" lon="-73.11850845">
    <tag k="addr:city" v="Milton"/>
    <tag k="addr:housenumber" v="16"/>
    <tag k="addr:street" v="Elmer Place"/>
    <tag k="addr:state" v="VT"/>
    <tag k="ref:vcgi:esiteid" v="158673"/>
  </node>
  <node id="-549" visible="true" lat="44.65839116" lon="-73.1181281">
    <tag k="addr:city" v="Milton"/>
    <tag k="addr:housenumber" v="20"/>
    <tag k="addr:street" v="Elmer Place"/>
    <tag k="addr:state" v="VT"/>
    <tag k="ref:vcgi:esiteid" v="158674"/>
  </node>
  <node id="-550" visible="true" lat="44.65803294" lon="-73.11779603">
    <tag k="addr:city" v="Milton"/>
    <tag k="addr:housenumber" v="24"/>
    <tag k="addr:street" v="Elmer Place"/>
    <tag k="addr:state" v="VT"/>
    <tag k="ref:vcgi:esiteid" v="158675"/>
  </node>
  <node id="-551" visible="true" lat="44.65774866" lon="-73.1175288">
    <tag k="addr:city" v="Milton"/>
    <tag k="addr:housenumber" v="28"/>
    <tag k="addr:street" v="Elmer Place"/>
    <tag k="addr:state" v="VT"/>
    <tag k="ref:vcgi:esiteid" v="158676"/>
  </node>
  <node id="-552" visible="true" lat="44.65737347" lon="-73.11716453">
    <tag k="addr:city" v="Milton"/>
    <tag k="addr:housenumber" v="32"/>
    <tag k="addr:street" v="Elmer Place"/>
    <tag k="addr:state" v="VT"/>
    <tag k="ref:vcgi:esiteid" v="158677"/>
  </node>
  <node id="-553" visible="true" lat="44.65703192" lon="-73.11692072">
    <tag k="addr:city" v="Milton"/>
    <tag k="addr:housenumber" v="36"/>
    <tag k="addr:street" v="Elmer Place"/>
    <tag k="addr:state" v="VT"/>
    <tag k="ref:vcgi:esiteid" v="158678"/>
  </node>
  <node id="-554" visible="true" lat="44.65697075" lon="-73.11766466">
    <tag k="addr:city" v="Milton"/>
    <tag k="addr:housenumber" v="33"/>
    <tag k="addr:street" v="Elmer Place"/>
    <tag k="addr:state" v="VT"/>
    <tag k="ref:vcgi:esiteid" v="158679"/>
  </node>
  <node id="-555" visible="true" lat="44.65655133" lon="-73.11808453">
    <tag k="addr:city" v="Milton"/>
    <tag k="addr:housenumber" v="15"/>
    <tag k="addr:street" v="Sally Way"/>
    <tag k="addr:state" v="VT"/>
    <tag k="ref:vcgi:esiteid" v="158680"/>
  </node>
  <node id="-556" visible="true" lat="44.65588649" lon="-73.11844575">
    <tag k="addr:city" v="Milton"/>
    <tag k="addr:housenumber" v="69"/>
    <tag k="addr:street" v="Lake Road"/>
    <tag k="addr:state" v="VT"/>
    <tag k="ref:vcgi:esiteid" v="158681"/>
  </node>
  <node id="-558" visible="true" lat="44.65913125" lon="-73.11969724">
    <tag k="addr:city" v="Milton"/>
    <tag k="addr:housenumber" v="7"/>
    <tag k="addr:street" v="Elmer Place"/>
    <tag k="addr:state" v="VT"/>
    <tag k="ref:vcgi:esiteid" v="158683"/>
  </node>
  <node id="-559" visible="true" lat="44.65883598" lon="-73.11934982">
    <tag k="addr:city" v="Milton"/>
    <tag k="addr:housenumber" v="11"/>
    <tag k="addr:street" v="Elmer Place"/>
    <tag k="addr:state" v="VT"/>
    <tag k="ref:vcgi:esiteid" v="158684"/>
  </node>
  <node id="-560" visible="true" lat="44.65847236" lon="-73.11896163">
    <tag k="addr:city" v="Milton"/>
    <tag k="addr:housenumber" v="15"/>
    <tag k="addr:street" v="Elmer Place"/>
    <tag k="addr:state" v="VT"/>
    <tag k="ref:vcgi:esiteid" v="158685"/>
  </node>
  <node id="-563" visible="true" lat="44.65743165" lon="-73.11802983">
    <tag k="addr:city" v="Milton"/>
    <tag k="addr:housenumber" v="27"/>
    <tag k="addr:street" v="Elmer Place"/>
    <tag k="addr:state" v="VT"/>
    <tag k="ref:vcgi:esiteid" v="158688"/>
  </node>
  <node id="-564" visible="true" lat="44.6579343" lon="-73.12018089">
    <tag k="addr:city" v="Milton"/>
    <tag k="addr:housenumber" v="4"/>
    <tag k="addr:street" v="Real Road"/>
    <tag k="addr:state" v="VT"/>
    <tag k="ref:vcgi:esiteid" v="158689"/>
  </node>
  <node id="-565" visible="true" lat="44.65725511" lon="-73.11976466">
    <tag k="addr:city" v="Milton"/>
    <tag k="addr:housenumber" v="3"/>
    <tag k="addr:street" v="Real Road"/>
    <tag k="addr:state" v="VT"/>
    <tag k="ref:vcgi:esiteid" v="158690"/>
  </node>
  <node id="-566" visible="true" lat="44.65684637" lon="-73.11952879">
    <tag k="addr:city" v="Milton"/>
    <tag k="addr:housenumber" v="87"/>
    <tag k="addr:street" v="Lake Road"/>
    <tag k="addr:state" v="VT"/>
    <tag k="ref:vcgi:esiteid" v="158691"/>
  </node>
  <node id="-567" visible="true" lat="44.65636305" lon="-73.11908331">
    <tag k="addr:city" v="Milton"/>
    <tag k="addr:housenumber" v="77"/>
    <tag k="addr:street" v="Lake Road"/>
    <tag k="addr:state" v="VT"/>
    <tag k="ref:vcgi:esiteid" v="158692"/>
  </node>
  <node id="-570" visible="true" lat="44.65484525" lon="-73.11655328">
    <tag k="addr:city" v="Milton"/>
    <tag k="addr:housenumber" v="14"/>
    <tag k="addr:street" v="Jonzetta Court"/>
    <tag k="addr:state" v="VT"/>
    <tag k="ref:vcgi:esiteid" v="158695"/>
  </node>
  <node id="-571" visible="true" lat="44.6550291" lon="-73.11637109">
    <tag k="addr:city" v="Milton"/>
    <tag k="addr:housenumber" v="18"/>
    <tag k="addr:street" v="Jonzetta Court"/>
    <tag k="addr:state" v="VT"/>
    <tag k="ref:vcgi:esiteid" v="158696"/>
  </node>
  <node id="-572" visible="true" lat="44.65535589" lon="-73.1161744">
    <tag k="addr:city" v="Milton"/>
    <tag k="addr:housenumber" v="24"/>
    <tag k="addr:street" v="Jonzetta Court"/>
    <tag k="addr:state" v="VT"/>
    <tag k="ref:vcgi:esiteid" v="158697"/>
  </node>
  <node id="-573" visible="true" lat="44.65582557" lon="-73.11597122">
    <tag k="addr:city" v="Milton"/>
    <tag k="addr:housenumber" v="34"/>
    <tag k="addr:street" v="Jonzetta Court"/>
    <tag k="addr:state" v="VT"/>
    <tag k="ref:vcgi:esiteid" v="158698"/>
  </node>
  <node id="-574" visible="true" lat="44.65626287" lon="-73.11541542">
    <tag k="addr:city" v="Milton"/>
    <tag k="addr:housenumber" v="38"/>
    <tag k="addr:street" v="Jonzetta Court"/>
    <tag k="addr:state" v="VT"/>
    <tag k="ref:vcgi:esiteid" v="158699"/>
  </node>
  <node id="-575" visible="true" lat="44.65655975" lon="-73.11546659">
    <tag k="addr:city" v="Milton"/>
    <tag k="addr:housenumber" v="40"/>
    <tag k="addr:street" v="Jonzetta Court"/>
    <tag k="addr:state" v="VT"/>
    <tag k="ref:vcgi:esiteid" v="158700"/>
  </node>
  <node id="-577" visible="true" lat="44.65626615" lon="-73.11480698">
    <tag k="addr:city" v="Milton"/>
    <tag k="addr:housenumber" v="45"/>
    <tag k="addr:street" v="Jonzetta Court"/>
    <tag k="addr:state" v="VT"/>
    <tag k="ref:vcgi:esiteid" v="158702"/>
  </node>
  <node id="-578" visible="true" lat="44.65601936" lon="-73.11500453">
    <tag k="addr:city" v="Milton"/>
    <tag k="addr:housenumber" v="39"/>
    <tag k="addr:street" v="Jonzetta Court"/>
    <tag k="addr:state" v="VT"/>
    <tag k="ref:vcgi:esiteid" v="158703"/>
  </node>
  <node id="-579" visible="true" lat="44.65577855" lon="-73.1151541">
    <tag k="addr:city" v="Milton"/>
    <tag k="addr:housenumber" v="35"/>
    <tag k="addr:street" v="Jonzetta Court"/>
    <tag k="addr:state" v="VT"/>
    <tag k="ref:vcgi:esiteid" v="158704"/>
  </node>
  <node id="-580" visible="true" lat="44.65530233" lon="-73.11550934">
    <tag k="addr:city" v="Milton"/>
    <tag k="addr:housenumber" v="29"/>
    <tag k="addr:street" v="Jonzetta Court"/>
    <tag k="addr:state" v="VT"/>
    <tag k="ref:vcgi:esiteid" v="158705"/>
  </node>
  <node id="-581" visible="true" lat="44.65496944" lon="-73.11577802">
    <tag k="addr:city" v="Milton"/>
    <tag k="addr:housenumber" v="23"/>
    <tag k="addr:street" v="Jonzetta Court"/>
    <tag k="addr:state" v="VT"/>
    <tag k="ref:vcgi:esiteid" v="158706"/>
  </node>
  <node id="-582" visible="true" lat="44.6549738" lon="-73.11496946">
    <tag k="addr:city" v="Milton"/>
    <tag k="addr:housenumber" v="116"/>
    <tag k="addr:street" v="U.S. Route 7 North"/>
    <tag k="addr:state" v="VT"/>
    <tag k="ref:vcgi:esiteid" v="158707"/>
  </node>
  <node id="-583" visible="true" lat="44.65487413" lon="-73.11437596">
    <tag k="addr:city" v="Milton"/>
    <tag k="addr:housenumber" v="120"/>
    <tag k="addr:street" v="U.S. Route 7 North"/>
    <tag k="addr:state" v="VT"/>
    <tag k="ref:vcgi:esiteid" v="158708"/>
  </node>
  <node id="-584" visible="true" lat="44.65542368" lon="-73.11419763">
    <tag k="addr:city" v="Milton"/>
    <tag k="addr:housenumber" v="124"/>
    <tag k="addr:street" v="U.S. Route 7 North"/>
    <tag k="addr:state" v="VT"/>
    <tag k="ref:vcgi:esiteid" v="158709"/>
  </node>
  <node id="-585" visible="true" lat="44.65586462" lon="-73.11402615">
    <tag k="addr:city" v="Milton"/>
    <tag k="addr:housenumber" v="128"/>
    <tag k="addr:street" v="U.S. Route 7 North"/>
    <tag k="addr:state" v="VT"/>
    <tag k="ref:vcgi:esiteid" v="158710"/>
  </node>
  <node id="-586" visible="true" lat="44.65748618" lon="-73.11363381">
    <tag k="addr:city" v="Milton"/>
    <tag k="addr:housenumber" v="138"/>
    <tag k="addr:street" v="U.S. Route 7 North"/>
    <tag k="addr:state" v="VT"/>
    <tag k="ref:vcgi:esiteid" v="158711"/>
  </node>
  <node id="-589" visible="true" lat="44.6563322" lon="-73.11310464">
    <tag k="addr:city" v="Milton"/>
    <tag k="addr:housenumber" v="129"/>
    <tag k="addr:street" v="U.S. Route 7 North"/>
    <tag k="addr:state" v="VT"/>
    <tag k="ref:vcgi:esiteid" v="158714"/>
  </node>
  <node id="-590" visible="true" lat="44.65603102" lon="-73.11270256">
    <tag k="addr:city" v="Milton"/>
    <tag k="addr:housenumber" v="4"/>
    <tag k="addr:street" v="Arthur Lane"/>
    <tag k="addr:state" v="VT"/>
    <tag k="ref:vcgi:esiteid" v="158715"/>
  </node>
  <node id="-591" visible="true" lat="44.65659269" lon="-73.11252867">
    <tag k="addr:city" v="Milton"/>
    <tag k="addr:housenumber" v="133"/>
    <tag k="addr:street" v="U.S. Route 7 North"/>
    <tag k="addr:state" v="VT"/>
    <tag k="ref:vcgi:esiteid" v="158716"/>
  </node>
  <node id="-592" visible="true" lat="44.65689571" lon="-73.11249983">
    <tag k="addr:city" v="Milton"/>
    <tag k="addr:housenumber" v="135"/>
    <tag k="addr:street" v="U.S. Route 7 North"/>
    <tag k="addr:state" v="VT"/>
    <tag k="ref:vcgi:esiteid" v="158717"/>
  </node>
  <node id="-593" visible="true" lat="44.65451847" lon="-73.11674997">
    <tag k="addr:city" v="Milton"/>
    <tag k="addr:housenumber" v="10"/>
    <tag k="addr:street" v="Jonzetta Court"/>
    <tag k="addr:state" v="VT"/>
    <tag k="ref:vcgi:esiteid" v="158718"/>
  </node>
  <node id="-594" visible="true" lat="44.65449361" lon="-73.11606119">
    <tag k="addr:city" v="Milton"/>
    <tag k="addr:housenumber" v="15"/>
    <tag k="addr:street" v="Jonzetta Court"/>
    <tag k="addr:state" v="VT"/>
    <tag k="ref:vcgi:esiteid" v="158719"/>
  </node>
  <node id="-595" visible="true" lat="44.65404605" lon="-73.11640071">
    <tag k="addr:city" v="Milton"/>
    <tag k="addr:housenumber" v="5"/>
    <tag k="addr:street" v="Jonzetta Court"/>
    <tag k="addr:state" v="VT"/>
    <tag k="ref:vcgi:esiteid" v="158720"/>
  </node>
  <node id="-596" visible="true" lat="44.65370216" lon="-73.1165892">
    <tag k="addr:city" v="Milton"/>
    <tag k="addr:housenumber" v="39"/>
    <tag k="addr:street" v="Lake Road"/>
    <tag k="addr:state" v="VT"/>
    <tag k="ref:vcgi:esiteid" v="158721"/>
  </node>
  <node id="-597" visible="true" lat="44.65364126" lon="-73.11728506">
    <tag k="addr:city" v="Milton"/>
    <tag k="addr:housenumber" v="38"/>
    <tag k="addr:street" v="Lake Road"/>
    <tag k="addr:state" v="VT"/>
    <tag k="ref:vcgi:esiteid" v="158722"/>
  </node>
  <node id="-598" visible="true" lat="44.65420228" lon="-73.11709888">
    <tag k="addr:city" v="Milton"/>
    <tag k="addr:housenumber" v="45"/>
    <tag k="addr:street" v="Lake Road"/>
    <tag k="addr:state" v="VT"/>
    <tag k="ref:vcgi:esiteid" v="158723"/>
  </node>
  <node id="-601" visible="true" lat="44.65414783" lon="-73.11448038">
    <tag k="addr:city" v="Milton"/>
    <tag k="addr:housenumber" v="112"/>
    <tag k="addr:street" v="U.S. Route 7 North"/>
    <tag k="addr:state" v="VT"/>
    <tag k="ref:vcgi:esiteid" v="158726"/>
  </node>
  <node id="-602" visible="true" lat="44.65383862" lon="-73.1145972">
    <tag k="addr:city" v="Milton"/>
    <tag k="addr:housenumber" v="108"/>
    <tag k="addr:street" v="U.S. Route 7 North"/>
    <tag k="addr:state" v="VT"/>
    <tag k="ref:vcgi:esiteid" v="158727"/>
  </node>
  <node id="-603" visible="true" lat="44.65375383" lon="-73.11548495">
    <tag k="addr:city" v="Milton"/>
    <tag k="addr:housenumber" v="106"/>
    <tag k="addr:street" v="U.S. Route 7 North"/>
    <tag k="addr:state" v="VT"/>
    <tag k="ref:vcgi:esiteid" v="158728"/>
  </node>
  <node id="-604" visible="true" lat="44.65334625" lon="-73.11476813">
    <tag k="addr:city" v="Milton"/>
    <tag k="addr:housenumber" v="104"/>
    <tag k="addr:street" v="U.S. Route 7 North"/>
    <tag k="addr:state" v="VT"/>
    <tag k="ref:vcgi:esiteid" v="158729"/>
  </node>
  <node id="-605" visible="true" lat="44.65291272" lon="-73.1149797">
    <tag k="addr:city" v="Milton"/>
    <tag k="addr:housenumber" v="102"/>
    <tag k="addr:street" v="U.S. Route 7 North"/>
    <tag k="addr:state" v="VT"/>
    <tag k="ref:vcgi:esiteid" v="158730"/>
  </node>
  <node id="-606" visible="true" lat="44.65319675" lon="-73.11599943">
    <tag k="addr:city" v="Milton"/>
    <tag k="addr:housenumber" v="33"/>
    <tag k="addr:street" v="Lake Road"/>
    <tag k="addr:state" v="VT"/>
    <tag k="ref:vcgi:esiteid" v="158731"/>
  </node>
  <node id="-607" visible="true" lat="44.65265028" lon="-73.11560671">
    <tag k="addr:city" v="Milton"/>
    <tag k="addr:housenumber" v="19"/>
    <tag k="addr:street" v="Lake Road"/>
    <tag k="addr:state" v="VT"/>
    <tag k="ref:vcgi:esiteid" v="158732"/>
  </node>
  <node id="-609" visible="true" lat="44.65214347" lon="-73.11527578">
    <tag k="addr:city" v="Milton"/>
    <tag k="addr:housenumber" v="9"/>
    <tag k="addr:street" v="Lake Road"/>
    <tag k="addr:state" v="VT"/>
    <tag k="ref:vcgi:esiteid" v="158734"/>
  </node>
  <node id="-610" visible="true" lat="44.65154732" lon="-73.11455699">
    <tag k="addr:city" v="Milton"/>
    <tag k="addr:housenumber" v="89"/>
    <tag k="addr:street" v="U.S. Route 7 North"/>
    <tag k="addr:state" v="VT"/>
    <tag k="ref:vcgi:esiteid" v="158735"/>
  </node>
  <node id="-617" visible="true" lat="44.65430412" lon="-73.11517053">
    <tag k="addr:city" v="Milton"/>
    <tag k="addr:housenumber" v="114"/>
    <tag k="addr:street" v="U.S. Route 7 North"/>
    <tag k="addr:state" v="VT"/>
    <tag k="ref:vcgi:esiteid" v="158742"/>
  </node>
  <node id="-621" visible="true" lat="44.65211673" lon="-73.115996">
    <tag k="addr:city" v="Milton"/>
    <tag k="addr:housenumber" v="10"/>
    <tag k="addr:street" v="Lake Road"/>
    <tag k="addr:state" v="VT"/>
    <tag k="ref:vcgi:esiteid" v="158746"/>
  </node>
  <node id="-623" visible="true" lat="44.65130439" lon="-73.11675685">
    <tag k="addr:city" v="Milton"/>
    <tag k="addr:housenumber" v="78"/>
    <tag k="addr:street" v="U.S. Route 7 North"/>
    <tag k="addr:state" v="VT"/>
    <tag k="ref:vcgi:esiteid" v="158748"/>
  </node>
  <node id="-624" visible="true" lat="44.65878196" lon="-73.12848017">
    <tag k="addr:city" v="Milton"/>
    <tag k="addr:housenumber" v="178"/>
    <tag k="addr:street" v="Lake Road"/>
    <tag k="addr:state" v="VT"/>
    <tag k="ref:vcgi:esiteid" v="158749"/>
  </node>
  <node id="-625" visible="true" lat="44.65861428" lon="-73.1277978">
    <tag k="addr:city" v="Milton"/>
    <tag k="addr:housenumber" v="170"/>
    <tag k="addr:street" v="Lake Road"/>
    <tag k="addr:state" v="VT"/>
    <tag k="ref:vcgi:esiteid" v="158750"/>
  </node>
  <node id="-626" visible="true" lat="44.6585106" lon="-73.12690797">
    <tag k="addr:city" v="Milton"/>
    <tag k="addr:housenumber" v="164"/>
    <tag k="addr:street" v="Lake Road"/>
    <tag k="addr:state" v="VT"/>
    <tag k="ref:vcgi:esiteid" v="158751"/>
  </node>
  <node id="-627" visible="true" lat="44.65845248" lon="-73.12604264">
    <tag k="addr:city" v="Milton"/>
    <tag k="addr:housenumber" v="158"/>
    <tag k="addr:street" v="Lake Road"/>
    <tag k="addr:state" v="VT"/>
    <tag k="ref:vcgi:esiteid" v="158752"/>
  </node>
  <node id="-628" visible="true" lat="44.65845973" lon="-73.1257625">
    <tag k="addr:city" v="Milton"/>
    <tag k="addr:housenumber" v="154"/>
    <tag k="addr:street" v="Lake Road"/>
    <tag k="addr:state" v="VT"/>
    <tag k="ref:vcgi:esiteid" v="158753"/>
  </node>
  <node id="-629" visible="true" lat="44.65827968" lon="-73.12524815">
    <tag k="addr:city" v="Milton"/>
    <tag k="addr:housenumber" v="150"/>
    <tag k="addr:street" v="Lake Road"/>
    <tag k="addr:state" v="VT"/>
    <tag k="ref:vcgi:esiteid" v="158754"/>
  </node>
  <node id="-630" visible="true" lat="44.65823084" lon="-73.12477524">
    <tag k="addr:city" v="Milton"/>
    <tag k="addr:housenumber" v="146"/>
    <tag k="addr:street" v="Lake Road"/>
    <tag k="addr:state" v="VT"/>
    <tag k="ref:vcgi:esiteid" v="158755"/>
  </node>
  <node id="-631" visible="true" lat="44.65815225" lon="-73.12451819">
    <tag k="addr:city" v="Milton"/>
    <tag k="addr:housenumber" v="142"/>
    <tag k="addr:street" v="Lake Road"/>
    <tag k="addr:state" v="VT"/>
    <tag k="ref:vcgi:esiteid" v="158756"/>
  </node>
  <node id="-632" visible="true" lat="44.65807496" lon="-73.12402097">
    <tag k="addr:city" v="Milton"/>
    <tag k="addr:housenumber" v="136"/>
    <tag k="addr:street" v="Lake Road"/>
    <tag k="addr:state" v="VT"/>
    <tag k="ref:vcgi:esiteid" v="158757"/>
  </node>
  <node id="-633" visible="true" lat="44.65797996" lon="-73.12362763">
    <tag k="addr:city" v="Milton"/>
    <tag k="addr:housenumber" v="132"/>
    <tag k="addr:street" v="Lake Road"/>
    <tag k="addr:state" v="VT"/>
    <tag k="ref:vcgi:esiteid" v="158758"/>
  </node>
  <node id="-648" visible="true" lat="44.65540124" lon="-73.12494501">
    <tag k="addr:city" v="Milton"/>
    <tag k="addr:housenumber" v="10"/>
    <tag k="addr:street" v="Miller Court"/>
    <tag k="addr:state" v="VT"/>
    <tag k="ref:vcgi:esiteid" v="158773"/>
  </node>
  <node id="-649" visible="true" lat="44.6555343" lon="-73.125691">
    <tag k="addr:city" v="Milton"/>
    <tag k="addr:housenumber" v="44"/>
    <tag k="addr:street" v="Slim Brown Road"/>
    <tag k="addr:state" v="VT"/>
    <tag k="ref:vcgi:esiteid" v="158774"/>
  </node>
  <node id="-650" visible="true" lat="44.65621917" lon="-73.12585048">
    <tag k="addr:city" v="Milton"/>
    <tag k="addr:housenumber" v="36"/>
    <tag k="addr:street" v="Slim Brown Road"/>
    <tag k="addr:state" v="VT"/>
    <tag k="ref:vcgi:esiteid" v="158775"/>
  </node>
  <node id="-651" visible="true" lat="44.65648822" lon="-73.12576531">
    <tag k="addr:city" v="Milton"/>
    <tag k="addr:housenumber" v="30"/>
    <tag k="addr:street" v="Slim Brown Road"/>
    <tag k="addr:state" v="VT"/>
    <tag k="ref:vcgi:esiteid" v="158776"/>
  </node>
  <node id="-654" visible="true" lat="44.65772204" lon="-73.12585864">
    <tag k="addr:city" v="Milton"/>
    <tag k="addr:housenumber" v="14"/>
    <tag k="addr:street" v="Slim Brown Road"/>
    <tag k="addr:state" v="VT"/>
    <tag k="ref:vcgi:esiteid" v="158779"/>
  </node>
  <node id="-655" visible="true" lat="44.65799038" lon="-73.12590156">
    <tag k="addr:city" v="Milton"/>
    <tag k="addr:housenumber" v="12"/>
    <tag k="addr:street" v="Slim Brown Road"/>
    <tag k="addr:state" v="VT"/>
    <tag k="ref:vcgi:esiteid" v="158780"/>
  </node>
  <node id="-656" visible="true" lat="44.65629216" lon="-73.12860139">
    <tag k="addr:city" v="Milton"/>
    <tag k="addr:housenumber" v="27"/>
    <tag k="addr:street" v="Kim Lane"/>
    <tag k="addr:state" v="VT"/>
    <tag k="ref:vcgi:esiteid" v="158781"/>
  </node>
  <node id="-657" visible="true" lat="44.65618365" lon="-73.12815587">
    <tag k="addr:city" v="Milton"/>
    <tag k="addr:housenumber" v="21"/>
    <tag k="addr:street" v="Kim Lane"/>
    <tag k="addr:state" v="VT"/>
    <tag k="ref:vcgi:esiteid" v="158782"/>
  </node>
  <node id="-658" visible="true" lat="44.6560888" lon="-73.12773853">
    <tag k="addr:city" v="Milton"/>
    <tag k="addr:housenumber" v="17"/>
    <tag k="addr:street" v="Kim Lane"/>
    <tag k="addr:state" v="VT"/>
    <tag k="ref:vcgi:esiteid" v="158783"/>
  </node>
  <node id="-660" visible="true" lat="44.65590494" lon="-73.12687989">
    <tag k="addr:city" v="Milton"/>
    <tag k="addr:housenumber" v="7"/>
    <tag k="addr:street" v="Kim Lane"/>
    <tag k="addr:state" v="VT"/>
    <tag k="ref:vcgi:esiteid" v="158785"/>
  </node>
  <node id="-661" visible="true" lat="44.65583241" lon="-73.12655887">
    <tag k="addr:city" v="Milton"/>
    <tag k="addr:housenumber" v="3"/>
    <tag k="addr:street" v="Kim Lane"/>
    <tag k="addr:state" v="VT"/>
    <tag k="ref:vcgi:esiteid" v="158786"/>
  </node>
  <node id="-662" visible="true" lat="44.65661508" lon="-73.12659932">
    <tag k="addr:city" v="Milton"/>
    <tag k="addr:housenumber" v="31"/>
    <tag k="addr:street" v="Slim Brown Road"/>
    <tag k="addr:state" v="VT"/>
    <tag k="ref:vcgi:esiteid" v="158787"/>
  </node>
  <node id="-663" visible="true" lat="44.65733453" lon="-73.12670314">
    <tag k="addr:city" v="Milton"/>
    <tag k="addr:housenumber" v="23"/>
    <tag k="addr:street" v="Slim Brown Road"/>
    <tag k="addr:state" v="VT"/>
    <tag k="ref:vcgi:esiteid" v="158788"/>
  </node>
  <node id="-664" visible="true" lat="44.65798582" lon="-73.12673418">
    <tag k="addr:city" v="Milton"/>
    <tag k="addr:housenumber" v="17"/>
    <tag k="addr:street" v="Slim Brown Road"/>
    <tag k="addr:state" v="VT"/>
    <tag k="ref:vcgi:esiteid" v="158789"/>
  </node>
  <node id="-665" visible="true" lat="44.65535761" lon="-73.12664983">
    <tag k="addr:city" v="Milton"/>
    <tag k="addr:housenumber" v="4"/>
    <tag k="addr:street" v="Kim Lane"/>
    <tag k="addr:state" v="VT"/>
    <tag k="ref:vcgi:esiteid" v="158790"/>
  </node>
  <node id="-666" visible="true" lat="44.65553167" lon="-73.12721213">
    <tag k="addr:city" v="Milton"/>
    <tag k="addr:housenumber" v="10"/>
    <tag k="addr:street" v="Kim Lane"/>
    <tag k="addr:state" v="VT"/>
    <tag k="ref:vcgi:esiteid" v="158791"/>
  </node>
  <node id="-667" visible="true" lat="44.6555922" lon="-73.12755171">
    <tag k="addr:city" v="Milton"/>
    <tag k="addr:housenumber" v="14"/>
    <tag k="addr:street" v="Kim Lane"/>
    <tag k="addr:state" v="VT"/>
    <tag k="ref:vcgi:esiteid" v="158792"/>
  </node>
  <node id="-668" visible="true" lat="44.6556864" lon="-73.12799973">
    <tag k="addr:city" v="Milton"/>
    <tag k="addr:housenumber" v="20"/>
    <tag k="addr:street" v="Kim Lane"/>
    <tag k="addr:state" v="VT"/>
    <tag k="ref:vcgi:esiteid" v="158793"/>
  </node>
  <node id="-669" visible="true" lat="44.6557491" lon="-73.12837603">
    <tag k="addr:city" v="Milton"/>
    <tag k="addr:housenumber" v="24"/>
    <tag k="addr:street" v="Kim Lane"/>
    <tag k="addr:state" v="VT"/>
    <tag k="ref:vcgi:esiteid" v="158794"/>
  </node>
  <node id="-670" visible="true" lat="44.65582014" lon="-73.12879244">
    <tag k="addr:city" v="Milton"/>
    <tag k="addr:housenumber" v="28"/>
    <tag k="addr:street" v="Kim Lane"/>
    <tag k="addr:state" v="VT"/>
    <tag k="ref:vcgi:esiteid" v="158795"/>
  </node>
  <node id="-672" visible="true" lat="44.65916777" lon="-73.12690704">
    <tag k="addr:city" v="Milton"/>
    <tag k="addr:housenumber" v="4"/>
    <tag k="addr:street" v="Lena Court"/>
    <tag k="addr:state" v="VT"/>
    <tag k="ref:vcgi:esiteid" v="158797"/>
  </node>
  <node id="-673" visible="true" lat="44.65919203" lon="-73.12247167">
    <tag k="addr:city" v="Milton"/>
    <tag k="addr:housenumber" v="11"/>
    <tag k="addr:street" v="Ira Place"/>
    <tag k="addr:state" v="VT"/>
    <tag k="ref:vcgi:esiteid" v="158798"/>
  </node>
  <node id="-674" visible="true" lat="44.65932877" lon="-73.12359405">
    <tag k="addr:city" v="Milton"/>
    <tag k="addr:housenumber" v="19"/>
    <tag k="addr:street" v="Ira Place"/>
    <tag k="addr:state" v="VT"/>
    <tag k="ref:vcgi:esiteid" v="158799"/>
  </node>
  <node id="-675" visible="true" lat="44.65879103" lon="-73.12370038">
    <tag k="addr:city" v="Milton"/>
    <tag k="addr:housenumber" v="12"/>
    <tag k="addr:street" v="Ira Place"/>
    <tag k="addr:state" v="VT"/>
    <tag k="ref:vcgi:esiteid" v="158800"/>
  </node>
  <node id="-676" visible="true" lat="44.65890629" lon="-73.12456632">
    <tag k="addr:city" v="Milton"/>
    <tag k="addr:housenumber" v="22"/>
    <tag k="addr:street" v="Ira Place"/>
    <tag k="addr:state" v="VT"/>
    <tag k="ref:vcgi:esiteid" v="158801"/>
  </node>
  <node id="-677" visible="true" lat="44.6594313" lon="-73.12470006">
    <tag k="addr:city" v="Milton"/>
    <tag k="addr:housenumber" v="26"/>
    <tag k="addr:street" v="Ira Place"/>
    <tag k="addr:state" v="VT"/>
    <tag k="ref:vcgi:esiteid" v="158802"/>
  </node>
  <node id="-678" visible="true" lat="44.65909985" lon="-73.12574536">
    <tag k="addr:city" v="Milton"/>
    <tag k="addr:housenumber" v="5"/>
    <tag k="addr:street" v="James Drive"/>
    <tag k="addr:state" v="VT"/>
    <tag k="ref:vcgi:esiteid" v="158803"/>
  </node>
  <node id="-679" visible="true" lat="44.65926036" lon="-73.12041471">
    <tag k="addr:city" v="Milton"/>
    <tag k="addr:housenumber" v="15"/>
    <tag k="addr:street" v="June Way"/>
    <tag k="addr:state" v="VT"/>
    <tag k="ref:vcgi:esiteid" v="158804"/>
  </node>
  <node id="-680" visible="true" lat="44.65879626" lon="-73.12064195">
    <tag k="addr:city" v="Milton"/>
    <tag k="addr:housenumber" v="9"/>
    <tag k="addr:street" v="June Way"/>
    <tag k="addr:state" v="VT"/>
    <tag k="ref:vcgi:esiteid" v="158805"/>
  </node>
  <node id="-681" visible="true" lat="44.65848686" lon="-73.12079077">
    <tag k="addr:city" v="Milton"/>
    <tag k="addr:housenumber" v="3"/>
    <tag k="addr:street" v="June Way"/>
    <tag k="addr:state" v="VT"/>
    <tag k="ref:vcgi:esiteid" v="158806"/>
  </node>
  <node id="-682" visible="true" lat="44.65902112" lon="-73.1213249">
    <tag k="addr:city" v="Milton"/>
    <tag k="addr:housenumber" v="6"/>
    <tag k="addr:street" v="June Way"/>
    <tag k="addr:state" v="VT"/>
    <tag k="ref:vcgi:esiteid" v="158807"/>
  </node>
  <node id="-683" visible="true" lat="44.65867475" lon="-73.12927165">
    <tag k="addr:city" v="Milton"/>
    <tag k="addr:housenumber" v="186"/>
    <tag k="addr:street" v="Lake Road"/>
    <tag k="addr:state" v="VT"/>
    <tag k="ref:vcgi:esiteid" v="158808"/>
  </node>
  <node id="-684" visible="true" lat="44.65880637" lon="-73.13027389">
    <tag k="addr:city" v="Milton"/>
    <tag k="addr:housenumber" v="196"/>
    <tag k="addr:street" v="Lake Road"/>
    <tag k="addr:state" v="VT"/>
    <tag k="ref:vcgi:esiteid" v="158809"/>
  </node>
  <node id="-685" visible="true" lat="44.65617682" lon="-73.12939675">
    <tag k="addr:city" v="Milton"/>
    <tag k="addr:housenumber" v="33"/>
    <tag k="addr:street" v="Kim Lane"/>
    <tag k="addr:state" v="VT"/>
    <tag k="ref:vcgi:esiteid" v="158810"/>
  </node>
  <node id="-686" visible="true" lat="44.65583734" lon="-73.12956055">
    <tag k="addr:city" v="Milton"/>
    <tag k="addr:housenumber" v="37"/>
    <tag k="addr:street" v="Kim Lane"/>
    <tag k="addr:state" v="VT"/>
    <tag k="ref:vcgi:esiteid" v="158811"/>
  </node>
  <node id="-751" visible="true" lat="44.65335959" lon="-73.12627606">
    <tag k="addr:city" v="Milton"/>
    <tag k="addr:housenumber" v="29"/>
    <tag k="addr:street" v="Sheldon Road"/>
    <tag k="addr:state" v="VT"/>
    <tag k="ref:vcgi:esiteid" v="158879"/>
  </node>
  <node id="-752" visible="true" lat="44.65318981" lon="-73.1270171">
    <tag k="addr:city" v="Milton"/>
    <tag k="addr:housenumber" v="39"/>
    <tag k="addr:street" v="Sheldon Road"/>
    <tag k="addr:state" v="VT"/>
    <tag k="ref:vcgi:esiteid" v="158880"/>
  </node>
  <node id="-753" visible="true" lat="44.65313538" lon="-73.12756256">
    <tag k="addr:city" v="Milton"/>
    <tag k="addr:housenumber" v="47"/>
    <tag k="addr:street" v="Sheldon Road"/>
    <tag k="addr:state" v="VT"/>
    <tag k="ref:vcgi:esiteid" v="158881"/>
  </node>
  <node id="-754" visible="true" lat="44.65301141" lon="-73.12815349">
    <tag k="addr:city" v="Milton"/>
    <tag k="addr:housenumber" v="55"/>
    <tag k="addr:street" v="Sheldon Road"/>
    <tag k="addr:state" v="VT"/>
    <tag k="ref:vcgi:esiteid" v="158882"/>
  </node>
  <node id="-755" visible="true" lat="44.65222704" lon="-73.12855347">
    <tag k="addr:city" v="Milton"/>
    <tag k="addr:housenumber" v="63"/>
    <tag k="addr:street" v="Sheldon Road"/>
    <tag k="addr:state" v="VT"/>
    <tag k="ref:vcgi:esiteid" v="158883"/>
  </node>
  <node id="-756" visible="true" lat="44.65182378" lon="-73.1281907">
    <tag k="addr:city" v="Milton"/>
    <tag k="addr:housenumber" v="73"/>
    <tag k="addr:street" v="Sheldon Road"/>
    <tag k="addr:state" v="VT"/>
    <tag k="ref:vcgi:esiteid" v="158884"/>
  </node>
  <node id="-757" visible="true" lat="44.6517438" lon="-73.12705922">
    <tag k="addr:city" v="Milton"/>
    <tag k="addr:housenumber" v="66"/>
    <tag k="addr:street" v="Sheldon Road"/>
    <tag k="addr:state" v="VT"/>
    <tag k="ref:vcgi:esiteid" v="158885"/>
  </node>
  <node id="-758" visible="true" lat="44.65075476" lon="-73.12817732">
    <tag k="addr:city" v="Milton"/>
    <tag k="addr:housenumber" v="77"/>
    <tag k="addr:street" v="Sheldon Road"/>
    <tag k="addr:state" v="VT"/>
    <tag k="ref:vcgi:esiteid" v="158886"/>
  </node>
  <node id="-759" visible="true" lat="44.65124654" lon="-73.12707788">
    <tag k="addr:city" v="Milton"/>
    <tag k="addr:housenumber" v="72"/>
    <tag k="addr:street" v="Sheldon Road"/>
    <tag k="addr:state" v="VT"/>
    <tag k="ref:vcgi:esiteid" v="158887"/>
  </node>
  <node id="-760" visible="true" lat="44.65303568" lon="-73.12385484">
    <tag k="addr:city" v="Milton"/>
    <tag k="addr:housenumber" v="8"/>
    <tag k="addr:street" v="Sheldon Road"/>
    <tag k="addr:state" v="VT"/>
    <tag k="ref:vcgi:esiteid" v="158888"/>
  </node>
  <node id="-761" visible="true" lat="44.65302938" lon="-73.1250076">
    <tag k="addr:city" v="Milton"/>
    <tag k="addr:housenumber" v="16"/>
    <tag k="addr:street" v="Sheldon Road"/>
    <tag k="addr:state" v="VT"/>
    <tag k="ref:vcgi:esiteid" v="158889"/>
  </node>
  <node id="-762" visible="true" lat="44.65302614" lon="-73.12559999">
    <tag k="addr:city" v="Milton"/>
    <tag k="addr:housenumber" v="22"/>
    <tag k="addr:street" v="Sheldon Road"/>
    <tag k="addr:state" v="VT"/>
    <tag k="ref:vcgi:esiteid" v="158890"/>
  </node>
  <node id="-763" visible="true" lat="44.65278937" lon="-73.12637767">
    <tag k="addr:city" v="Milton"/>
    <tag k="addr:housenumber" v="32"/>
    <tag k="addr:street" v="Sheldon Road"/>
    <tag k="addr:state" v="VT"/>
    <tag k="ref:vcgi:esiteid" v="158891"/>
  </node>
  <node id="-764" visible="true" lat="44.65257205" lon="-73.12712419">
    <tag k="addr:city" v="Milton"/>
    <tag k="addr:housenumber" v="42"/>
    <tag k="addr:street" v="Sheldon Road"/>
    <tag k="addr:state" v="VT"/>
    <tag k="ref:vcgi:esiteid" v="158892"/>
  </node>
  <node id="-765" visible="true" lat="44.65236383" lon="-73.12757826">
    <tag k="addr:city" v="Milton"/>
    <tag k="addr:housenumber" v="56"/>
    <tag k="addr:street" v="Sheldon Road"/>
    <tag k="addr:state" v="VT"/>
    <tag k="ref:vcgi:esiteid" v="158893"/>
  </node>
  <node id="-766" visible="true" lat="44.65250081" lon="-73.12448156">
    <tag k="addr:city" v="Milton"/>
    <tag k="addr:housenumber" v="75"/>
    <tag k="addr:street" v="Poor Farm Road"/>
    <tag k="addr:state" v="VT"/>
    <tag k="ref:vcgi:esiteid" v="158894"/>
  </node>
  <node id="-767" visible="true" lat="44.65203494" lon="-73.12502894">
    <tag k="addr:city" v="Milton"/>
    <tag k="addr:housenumber" v="83"/>
    <tag k="addr:street" v="Poor Farm Road"/>
    <tag k="addr:state" v="VT"/>
    <tag k="ref:vcgi:esiteid" v="158895"/>
  </node>
  <node id="-768" visible="true" lat="44.65170626" lon="-73.12556978">
    <tag k="addr:city" v="Milton"/>
    <tag k="addr:housenumber" v="93"/>
    <tag k="addr:street" v="Poor Farm Road"/>
    <tag k="addr:state" v="VT"/>
    <tag k="ref:vcgi:esiteid" v="158896"/>
  </node>
  <node id="-769" visible="true" lat="44.65134306" lon="-73.12615028">
    <tag k="addr:city" v="Milton"/>
    <tag k="addr:housenumber" v="101"/>
    <tag k="addr:street" v="Poor Farm Road"/>
    <tag k="addr:state" v="VT"/>
    <tag k="ref:vcgi:esiteid" v="158897"/>
  </node>
  <node id="-771" visible="true" lat="44.64997619" lon="-73.1284331">
    <tag k="addr:city" v="Milton"/>
    <tag k="addr:housenumber" v="137"/>
    <tag k="addr:street" v="Poor Farm Road"/>
    <tag k="addr:state" v="VT"/>
    <tag k="ref:vcgi:esiteid" v="158900"/>
  </node>
  <node id="-772" visible="true" lat="44.64977518" lon="-73.12653368">
    <tag k="addr:city" v="Milton"/>
    <tag k="addr:housenumber" v="124"/>
    <tag k="addr:street" v="Poor Farm Road"/>
    <tag k="addr:state" v="VT"/>
    <tag k="ref:vcgi:esiteid" v="158901"/>
  </node>
  <node id="-773" visible="true" lat="44.65041064" lon="-73.11475663">
    <tag k="addr:city" v="Milton"/>
    <tag k="addr:housenumber" v="8"/>
    <tag k="addr:street" v="Kilburn Road"/>
    <tag k="addr:state" v="VT"/>
    <tag k="ref:vcgi:esiteid" v="158902"/>
  </node>
  <node id="-774" visible="true" lat="44.65092625" lon="-73.11451391">
    <tag k="addr:city" v="Milton"/>
    <tag k="addr:housenumber" v="4"/>
    <tag k="addr:street" v="Kilburn Road"/>
    <tag k="addr:state" v="VT"/>
    <tag k="ref:vcgi:esiteid" v="158903"/>
  </node>
  <node id="-775" visible="true" lat="44.64934329" lon="-73.12713742">
    <tag k="addr:city" v="Milton"/>
    <tag k="addr:housenumber" v="6"/>
    <tag k="addr:street" v="Highland Avenue"/>
    <tag k="addr:state" v="VT"/>
    <tag k="ref:vcgi:esiteid" v="158904"/>
  </node>
  <node id="-776" visible="true" lat="44.64924306" lon="-73.12665603">
    <tag k="addr:city" v="Milton"/>
    <tag k="addr:housenumber" v="12"/>
    <tag k="addr:street" v="Highland Avenue"/>
    <tag k="addr:state" v="VT"/>
    <tag k="ref:vcgi:esiteid" v="158905"/>
  </node>
  <node id="-777" visible="true" lat="44.64908028" lon="-73.12507726">
    <tag k="addr:city" v="Milton"/>
    <tag k="addr:housenumber" v="23"/>
    <tag k="addr:street" v="Highland Avenue"/>
    <tag k="addr:state" v="VT"/>
    <tag k="ref:vcgi:esiteid" v="158906"/>
  </node>
  <node id="-778" visible="true" lat="44.64884865" lon="-73.12563513">
    <tag k="addr:city" v="Milton"/>
    <tag k="addr:housenumber" v="21"/>
    <tag k="addr:street" v="Highland Avenue"/>
    <tag k="addr:state" v="VT"/>
    <tag k="ref:vcgi:esiteid" v="158907"/>
  </node>
  <node id="-779" visible="true" lat="44.64865718" lon="-73.12616141">
    <tag k="addr:city" v="Milton"/>
    <tag k="addr:housenumber" v="15"/>
    <tag k="addr:street" v="Highland Avenue"/>
    <tag k="addr:state" v="VT"/>
    <tag k="ref:vcgi:esiteid" v="158908"/>
  </node>
  <node id="-780" visible="true" lat="44.64861882" lon="-73.12690547">
    <tag k="addr:city" v="Milton"/>
    <tag k="addr:housenumber" v="13"/>
    <tag k="addr:street" v="Highland Avenue"/>
    <tag k="addr:state" v="VT"/>
    <tag k="ref:vcgi:esiteid" v="158909"/>
  </node>
  <node id="-781" visible="true" lat="44.64881068" lon="-73.12734782">
    <tag k="addr:city" v="Milton"/>
    <tag k="addr:housenumber" v="9"/>
    <tag k="addr:street" v="Highland Avenue"/>
    <tag k="addr:state" v="VT"/>
    <tag k="ref:vcgi:esiteid" v="158910"/>
  </node>
  <node id="-782" visible="true" lat="44.64894021" lon="-73.12769344">
    <tag k="addr:city" v="Milton"/>
    <tag k="addr:housenumber" v="3"/>
    <tag k="addr:street" v="Highland Avenue"/>
    <tag k="addr:state" v="VT"/>
    <tag k="ref:vcgi:esiteid" v="158911"/>
  </node>
  <node id="-783" visible="true" lat="44.64837037" lon="-73.12843977">
    <tag k="addr:city" v="Milton"/>
    <tag k="addr:housenumber" v="2"/>
    <tag k="addr:street" v="Deer Run"/>
    <tag k="addr:state" v="VT"/>
    <tag k="ref:vcgi:esiteid" v="158912"/>
  </node>
  <node id="-784" visible="true" lat="44.64822963" lon="-73.12805401">
    <tag k="addr:city" v="Milton"/>
    <tag k="addr:housenumber" v="6"/>
    <tag k="addr:street" v="Deer Run"/>
    <tag k="addr:state" v="VT"/>
    <tag k="ref:vcgi:esiteid" v="158913"/>
  </node>
  <node id="-785" visible="true" lat="44.64807707" lon="-73.12774017">
    <tag k="addr:city" v="Milton"/>
    <tag k="addr:housenumber" v="12"/>
    <tag k="addr:street" v="Deer Run"/>
    <tag k="addr:state" v="VT"/>
    <tag k="ref:vcgi:esiteid" v="158914"/>
  </node>
  <node id="-786" visible="true" lat="44.64795377" lon="-73.12729856">
    <tag k="addr:city" v="Milton"/>
    <tag k="addr:housenumber" v="18"/>
    <tag k="addr:street" v="Deer Run"/>
    <tag k="addr:state" v="VT"/>
    <tag k="ref:vcgi:esiteid" v="158915"/>
  </node>
  <node id="-787" visible="true" lat="44.64774974" lon="-73.12699217">
    <tag k="addr:city" v="Milton"/>
    <tag k="addr:housenumber" v="24"/>
    <tag k="addr:street" v="Deer Run"/>
    <tag k="addr:state" v="VT"/>
    <tag k="ref:vcgi:esiteid" v="158916"/>
  </node>
  <node id="-788" visible="true" lat="44.64766055" lon="-73.12658295">
    <tag k="addr:city" v="Milton"/>
    <tag k="addr:housenumber" v="28"/>
    <tag k="addr:street" v="Deer Run"/>
    <tag k="addr:state" v="VT"/>
    <tag k="ref:vcgi:esiteid" v="158917"/>
  </node>
  <node id="-789" visible="true" lat="44.64745695" lon="-73.12619653">
    <tag k="addr:city" v="Milton"/>
    <tag k="addr:housenumber" v="32"/>
    <tag k="addr:street" v="Deer Run"/>
    <tag k="addr:state" v="VT"/>
    <tag k="ref:vcgi:esiteid" v="158918"/>
  </node>
  <node id="-790" visible="true" lat="44.64706223" lon="-73.12627233">
    <tag k="addr:city" v="Milton"/>
    <tag k="addr:housenumber" v="36"/>
    <tag k="addr:street" v="Deer Run"/>
    <tag k="addr:state" v="VT"/>
    <tag k="ref:vcgi:esiteid" v="158919"/>
  </node>
  <node id="-791" visible="true" lat="44.64662044" lon="-73.12659577">
    <tag k="addr:city" v="Milton"/>
    <tag k="addr:housenumber" v="42"/>
    <tag k="addr:street" v="Deer Run"/>
    <tag k="addr:state" v="VT"/>
    <tag k="ref:vcgi:esiteid" v="158920"/>
  </node>
  <node id="-792" visible="true" lat="44.64628177" lon="-73.12687229">
    <tag k="addr:city" v="Milton"/>
    <tag k="addr:housenumber" v="46"/>
    <tag k="addr:street" v="Deer Run"/>
    <tag k="addr:state" v="VT"/>
    <tag k="ref:vcgi:esiteid" v="158921"/>
  </node>
  <node id="-793" visible="true" lat="44.64605733" lon="-73.12715805">
    <tag k="addr:city" v="Milton"/>
    <tag k="addr:housenumber" v="48"/>
    <tag k="addr:street" v="Deer Run"/>
    <tag k="addr:state" v="VT"/>
    <tag k="ref:vcgi:esiteid" v="158922"/>
  </node>
  <node id="-794" visible="true" lat="44.64620251" lon="-73.12777598">
    <tag k="addr:city" v="Milton"/>
    <tag k="addr:housenumber" v="49"/>
    <tag k="addr:street" v="Deer Run"/>
    <tag k="addr:state" v="VT"/>
    <tag k="ref:vcgi:esiteid" v="158923"/>
  </node>
  <node id="-795" visible="true" lat="44.64646383" lon="-73.12805897">
    <tag k="addr:city" v="Milton"/>
    <tag k="addr:housenumber" v="47"/>
    <tag k="addr:street" v="Deer Run"/>
    <tag k="addr:state" v="VT"/>
    <tag k="ref:vcgi:esiteid" v="158924"/>
  </node>
  <node id="-796" visible="true" lat="44.64677775" lon="-73.12812639">
    <tag k="addr:city" v="Milton"/>
    <tag k="addr:housenumber" v="43"/>
    <tag k="addr:street" v="Deer Run"/>
    <tag k="addr:state" v="VT"/>
    <tag k="ref:vcgi:esiteid" v="158925"/>
  </node>
  <node id="-797" visible="true" lat="44.64713854" lon="-73.1279862">
    <tag k="addr:city" v="Milton"/>
    <tag k="addr:housenumber" v="37"/>
    <tag k="addr:street" v="Deer Run"/>
    <tag k="addr:state" v="VT"/>
    <tag k="ref:vcgi:esiteid" v="158926"/>
  </node>
  <node id="-798" visible="true" lat="44.64740236" lon="-73.12781294">
    <tag k="addr:city" v="Milton"/>
    <tag k="addr:housenumber" v="31"/>
    <tag k="addr:street" v="Deer Run"/>
    <tag k="addr:state" v="VT"/>
    <tag k="ref:vcgi:esiteid" v="158927"/>
  </node>
  <node id="-799" visible="true" lat="44.64785169" lon="-73.12923467">
    <tag k="addr:city" v="Milton"/>
    <tag k="addr:housenumber" v="5"/>
    <tag k="addr:street" v="Deer Run"/>
    <tag k="addr:state" v="VT"/>
    <tag k="ref:vcgi:esiteid" v="158928"/>
  </node>
  <node id="-800" visible="true" lat="44.64568685" lon="-73.1311324">
    <tag k="addr:city" v="Milton"/>
    <tag k="addr:housenumber" v="196"/>
    <tag k="addr:street" v="Poor Farm Road"/>
    <tag k="addr:state" v="VT"/>
    <tag k="ref:vcgi:esiteid" v="158929"/>
  </node>
  <node id="-801" visible="true" lat="44.6452594" lon="-73.13196024">
    <tag k="addr:city" v="Milton"/>
    <tag k="addr:housenumber" v="204"/>
    <tag k="addr:street" v="Poor Farm Road"/>
    <tag k="addr:state" v="VT"/>
    <tag k="ref:vcgi:esiteid" v="158930"/>
  </node>
  <node id="-802" visible="true" lat="44.64496647" lon="-73.13119663">
    <tag k="addr:city" v="Milton"/>
    <tag k="addr:housenumber" v="14"/>
    <tag k="addr:street" v="Quail Hollow Drive"/>
    <tag k="addr:state" v="VT"/>
    <tag k="ref:vcgi:esiteid" v="158931"/>
  </node>
  <node id="-803" visible="true" lat="44.64551791" lon="-73.13274751">
    <tag k="addr:city" v="Milton"/>
    <tag k="addr:housenumber" v="205"/>
    <tag k="addr:street" v="Poor Farm Road"/>
    <tag k="addr:state" v="VT"/>
    <tag k="ref:vcgi:esiteid" v="158932"/>
  </node>
  <node id="-804" visible="true" lat="44.64482858" lon="-73.1323638">
    <tag k="addr:city" v="Milton"/>
    <tag k="addr:housenumber" v="214"/>
    <tag k="addr:street" v="Poor Farm Road"/>
    <tag k="addr:state" v="VT"/>
    <tag k="ref:vcgi:esiteid" v="158933"/>
  </node>
  <node id="-805" visible="true" lat="44.64441379" lon="-73.13296764">
    <tag k="addr:city" v="Milton"/>
    <tag k="addr:housenumber" v="220"/>
    <tag k="addr:street" v="Poor Farm Road"/>
    <tag k="addr:state" v="VT"/>
    <tag k="ref:vcgi:esiteid" v="158934"/>
  </node>
  <node id="-806" visible="true" lat="44.64451231" lon="-73.13168798">
    <tag k="addr:city" v="Milton"/>
    <tag k="addr:housenumber" v="11"/>
    <tag k="addr:street" v="Quail Hollow Drive"/>
    <tag k="addr:state" v="VT"/>
    <tag k="ref:vcgi:esiteid" v="158935"/>
  </node>
  <node id="-807" visible="true" lat="44.644154" lon="-73.13137992">
    <tag k="addr:city" v="Milton"/>
    <tag k="addr:housenumber" v="21"/>
    <tag k="addr:street" v="Quail Hollow Drive"/>
    <tag k="addr:state" v="VT"/>
    <tag k="ref:vcgi:esiteid" v="158936"/>
  </node>
  <node id="-808" visible="true" lat="44.6446435" lon="-73.13069684">
    <tag k="addr:city" v="Milton"/>
    <tag k="addr:housenumber" v="20"/>
    <tag k="addr:street" v="Quail Hollow Drive"/>
    <tag k="addr:state" v="VT"/>
    <tag k="ref:vcgi:esiteid" v="158937"/>
  </node>
  <node id="-809" visible="true" lat="44.64379016" lon="-73.13043244">
    <tag k="addr:city" v="Milton"/>
    <tag k="addr:housenumber" v="26"/>
    <tag k="addr:street" v="Quail Hollow Drive"/>
    <tag k="addr:state" v="VT"/>
    <tag k="ref:vcgi:esiteid" v="158938"/>
  </node>
  <node id="-810" visible="true" lat="44.64328784" lon="-73.13016187">
    <tag k="addr:city" v="Milton"/>
    <tag k="addr:housenumber" v="34"/>
    <tag k="addr:street" v="Quail Hollow Drive"/>
    <tag k="addr:state" v="VT"/>
    <tag k="ref:vcgi:esiteid" v="158939"/>
  </node>
  <node id="-811" visible="true" lat="44.64301843" lon="-73.13108745">
    <tag k="addr:city" v="Milton"/>
    <tag k="addr:housenumber" v="37"/>
    <tag k="addr:street" v="Quail Hollow Drive"/>
    <tag k="addr:state" v="VT"/>
    <tag k="ref:vcgi:esiteid" v="158940"/>
  </node>
  <node id="-812" visible="true" lat="44.64368074" lon="-73.13119069">
    <tag k="addr:city" v="Milton"/>
    <tag k="addr:housenumber" v="27"/>
    <tag k="addr:street" v="Quail Hollow Drive"/>
    <tag k="addr:state" v="VT"/>
    <tag k="ref:vcgi:esiteid" v="158941"/>
  </node>
  <node id="-814" visible="true" lat="44.64398186" lon="-73.13357128">
    <tag k="addr:city" v="Milton"/>
    <tag k="addr:housenumber" v="228"/>
    <tag k="addr:street" v="Poor Farm Road"/>
    <tag k="addr:state" v="VT"/>
    <tag k="ref:vcgi:esiteid" v="158943"/>
  </node>
  <node id="-815" visible="true" lat="44.64355196" lon="-73.13380673">
    <tag k="addr:city" v="Milton"/>
    <tag k="addr:housenumber" v="236"/>
    <tag k="addr:street" v="Poor Farm Road"/>
    <tag k="addr:state" v="VT"/>
    <tag k="ref:vcgi:esiteid" v="158944"/>
  </node>
  <node id="-816" visible="true" lat="44.64305287" lon="-73.13415349">
    <tag k="addr:city" v="Milton"/>
    <tag k="addr:housenumber" v="244"/>
    <tag k="addr:street" v="Poor Farm Road"/>
    <tag k="addr:state" v="VT"/>
    <tag k="ref:vcgi:esiteid" v="158945"/>
  </node>
  <node id="-817" visible="true" lat="44.64387213" lon="-73.13685992">
    <tag k="addr:city" v="Milton"/>
    <tag k="addr:housenumber" v="247"/>
    <tag k="addr:street" v="Poor Farm Road"/>
    <tag k="addr:state" v="VT"/>
    <tag k="ref:vcgi:esiteid" v="158946"/>
  </node>
  <node id="-852" visible="true" lat="44.64093407" lon="-73.13802838">
    <tag k="addr:city" v="Milton"/>
    <tag k="addr:housenumber" v="9"/>
    <tag k="addr:street" v="Walker Drive"/>
    <tag k="addr:state" v="VT"/>
    <tag k="ref:vcgi:esiteid" v="158982"/>
  </node>
  <node id="-853" visible="true" lat="44.64129612" lon="-73.13663964">
    <tag k="addr:city" v="Milton"/>
    <tag k="addr:housenumber" v="277"/>
    <tag k="addr:street" v="Poor Farm Road"/>
    <tag k="addr:state" v="VT"/>
    <tag k="ref:vcgi:esiteid" v="158983"/>
  </node>
  <node id="-854" visible="true" lat="44.6409638" lon="-73.13679609">
    <tag k="addr:city" v="Milton"/>
    <tag k="addr:housenumber" v="283"/>
    <tag k="addr:street" v="Poor Farm Road"/>
    <tag k="addr:state" v="VT"/>
    <tag k="ref:vcgi:esiteid" v="158984"/>
  </node>
  <node id="-855" visible="true" lat="44.6405839" lon="-73.13626366">
    <tag k="addr:city" v="Milton"/>
    <tag k="addr:housenumber" v="284"/>
    <tag k="addr:street" v="Poor Farm Road"/>
    <tag k="addr:state" v="VT"/>
    <tag k="ref:vcgi:esiteid" v="158985"/>
  </node>
  <node id="-856" visible="true" lat="44.64208233" lon="-73.13501538">
    <tag k="addr:city" v="Milton"/>
    <tag k="addr:housenumber" v="260"/>
    <tag k="addr:street" v="Poor Farm Road"/>
    <tag k="addr:state" v="VT"/>
    <tag k="ref:vcgi:esiteid" v="158986"/>
  </node>
  <node id="-857" visible="true" lat="44.64260397" lon="-73.13472491">
    <tag k="addr:city" v="Milton"/>
    <tag k="addr:housenumber" v="254"/>
    <tag k="addr:street" v="Poor Farm Road"/>
    <tag k="addr:state" v="VT"/>
    <tag k="ref:vcgi:esiteid" v="158987"/>
  </node>
  <node id="-860" visible="true" lat="44.64177733" lon="-73.13437172">
    <tag k="addr:city" v="Milton"/>
    <tag k="addr:housenumber" v="45"/>
    <tag k="addr:street" v="Red Clover Way"/>
    <tag k="addr:state" v="VT"/>
    <tag k="ref:vcgi:esiteid" v="158991"/>
  </node>
  <node id="-861" visible="true" lat="44.64115235" lon="-73.1347491">
    <tag k="addr:city" v="Milton"/>
    <tag k="addr:housenumber" v="14"/>
    <tag k="addr:street" v="Cardinal Drive"/>
    <tag k="addr:state" v="VT"/>
    <tag k="ref:vcgi:esiteid" v="158992"/>
  </node>
  <node id="-862" visible="true" lat="44.6405695" lon="-73.13474275">
    <tag k="addr:city" v="Milton"/>
    <tag k="addr:housenumber" v="17"/>
    <tag k="addr:street" v="Cardinal Drive"/>
    <tag k="addr:state" v="VT"/>
    <tag k="ref:vcgi:esiteid" v="158993"/>
  </node>
  <node id="-866" visible="true" lat="44.64260882" lon="-73.13075484">
    <tag k="addr:city" v="Milton"/>
    <tag k="addr:housenumber" v="43"/>
    <tag k="addr:street" v="Quail Hollow Drive"/>
    <tag k="addr:state" v="VT"/>
    <tag k="ref:vcgi:esiteid" v="158997"/>
  </node>
  <node id="-867" visible="true" lat="44.64191297" lon="-73.13051518">
    <tag k="addr:city" v="Milton"/>
    <tag k="addr:housenumber" v="51"/>
    <tag k="addr:street" v="Quail Hollow Drive"/>
    <tag k="addr:state" v="VT"/>
    <tag k="ref:vcgi:esiteid" v="158998"/>
  </node>
  <node id="-868" visible="true" lat="44.64115409" lon="-73.13030685">
    <tag k="addr:city" v="Milton"/>
    <tag k="addr:housenumber" v="3"/>
    <tag k="addr:street" v="Thrush Drive"/>
    <tag k="addr:state" v="VT"/>
    <tag k="ref:vcgi:esiteid" v="158999"/>
  </node>
  <node id="-869" visible="true" lat="44.64099495" lon="-73.13118558">
    <tag k="addr:city" v="Milton"/>
    <tag k="addr:housenumber" v="7"/>
    <tag k="addr:street" v="Thrush Drive"/>
    <tag k="addr:state" v="VT"/>
    <tag k="ref:vcgi:esiteid" v="159000"/>
  </node>
  <node id="-870" visible="true" lat="44.6407515" lon="-73.13180725">
    <tag k="addr:city" v="Milton"/>
    <tag k="addr:housenumber" v="11"/>
    <tag k="addr:street" v="Thrush Drive"/>
    <tag k="addr:state" v="VT"/>
    <tag k="ref:vcgi:esiteid" v="159001"/>
  </node>
  <node id="-872" visible="true" lat="44.64288672" lon="-73.1301015">
    <tag k="addr:city" v="Milton"/>
    <tag k="addr:housenumber" v="42"/>
    <tag k="addr:street" v="Quail Hollow Drive"/>
    <tag k="addr:state" v="VT"/>
    <tag k="ref:vcgi:esiteid" v="159003"/>
  </node>
  <node id="-873" visible="true" lat="44.6405138" lon="-73.13035595">
    <tag k="addr:city" v="Milton"/>
    <tag k="addr:housenumber" v="4"/>
    <tag k="addr:street" v="Thrush Drive"/>
    <tag k="addr:state" v="VT"/>
    <tag k="ref:vcgi:esiteid" v="159004"/>
  </node>
  <node id="-874" visible="true" lat="44.64240376" lon="-73.1296">
    <tag k="addr:city" v="Milton"/>
    <tag k="addr:housenumber" v="50"/>
    <tag k="addr:street" v="Quail Hollow Drive"/>
    <tag k="addr:state" v="VT"/>
    <tag k="ref:vcgi:esiteid" v="159005"/>
  </node>
  <node id="-875" visible="true" lat="44.64192359" lon="-73.12962683">
    <tag k="addr:city" v="Milton"/>
    <tag k="addr:housenumber" v="58"/>
    <tag k="addr:street" v="Quail Hollow Drive"/>
    <tag k="addr:state" v="VT"/>
    <tag k="ref:vcgi:esiteid" v="159006"/>
  </node>
  <node id="-876" visible="true" lat="44.64133042" lon="-73.12942031">
    <tag k="addr:city" v="Milton"/>
    <tag k="addr:housenumber" v="66"/>
    <tag k="addr:street" v="Quail Hollow Drive"/>
    <tag k="addr:state" v="VT"/>
    <tag k="ref:vcgi:esiteid" v="159007"/>
  </node>
  <node id="-880" visible="true" lat="44.64045208" lon="-73.12390407">
    <tag k="addr:city" v="Milton"/>
    <tag k="addr:housenumber" v="33"/>
    <tag k="addr:street" v="Waterwheel Way"/>
    <tag k="addr:state" v="VT"/>
    <tag k="ref:vcgi:esiteid" v="159011"/>
  </node>
  <node id="-881" visible="true" lat="44.64072745" lon="-73.12370692">
    <tag k="addr:city" v="Milton"/>
    <tag k="addr:housenumber" v="39"/>
    <tag k="addr:street" v="Waterwheel Way"/>
    <tag k="addr:state" v="VT"/>
    <tag k="ref:vcgi:esiteid" v="159012"/>
  </node>
  <node id="-882" visible="true" lat="44.64097504" lon="-73.1233654">
    <tag k="addr:city" v="Milton"/>
    <tag k="addr:housenumber" v="41"/>
    <tag k="addr:street" v="Waterwheel Way"/>
    <tag k="addr:state" v="VT"/>
    <tag k="ref:vcgi:esiteid" v="159013"/>
  </node>
  <node id="-883" visible="true" lat="44.64117081" lon="-73.12309536">
    <tag k="addr:city" v="Milton"/>
    <tag k="addr:housenumber" v="47"/>
    <tag k="addr:street" v="Waterwheel Way"/>
    <tag k="addr:state" v="VT"/>
    <tag k="ref:vcgi:esiteid" v="159014"/>
  </node>
  <node id="-884" visible="true" lat="44.6413271" lon="-73.12272884">
    <tag k="addr:city" v="Milton"/>
    <tag k="addr:housenumber" v="51"/>
    <tag k="addr:street" v="Waterwheel Way"/>
    <tag k="addr:state" v="VT"/>
    <tag k="ref:vcgi:esiteid" v="159015"/>
  </node>
  <node id="-885" visible="true" lat="44.6415105" lon="-73.12228258">
    <tag k="addr:city" v="Milton"/>
    <tag k="addr:housenumber" v="55"/>
    <tag k="addr:street" v="Waterwheel Way"/>
    <tag k="addr:state" v="VT"/>
    <tag k="ref:vcgi:esiteid" v="159016"/>
  </node>
  <node id="-886" visible="true" lat="44.64167959" lon="-73.12201224">
    <tag k="addr:city" v="Milton"/>
    <tag k="addr:housenumber" v="61"/>
    <tag k="addr:street" v="Waterwheel Way"/>
    <tag k="addr:state" v="VT"/>
    <tag k="ref:vcgi:esiteid" v="159017"/>
  </node>
  <node id="-901" visible="true" lat="44.64019927" lon="-73.11327929">
    <tag k="addr:city" v="Milton"/>
    <tag k="addr:housenumber" v="2"/>
    <tag k="addr:street" v="River Street"/>
    <tag k="addr:state" v="VT"/>
    <tag k="ref:vcgi:esiteid" v="159033"/>
  </node>
  <node id="-928" visible="true" lat="44.63660639" lon="-73.1133223">
    <tag k="addr:city" v="Milton"/>
    <tag k="addr:housenumber" v="40"/>
    <tag k="addr:street" v="River Street"/>
    <tag k="addr:state" v="VT"/>
    <tag k="ref:vcgi:esiteid" v="159061"/>
  </node>
  <node id="-941" visible="true" lat="44.64009148" lon="-73.12401226">
    <tag k="addr:city" v="Milton"/>
    <tag k="addr:housenumber" v="27"/>
    <tag k="addr:street" v="Waterwheel Way"/>
    <tag k="addr:state" v="VT"/>
    <tag k="ref:vcgi:esiteid" v="159074"/>
  </node>
  <node id="-943" visible="true" lat="44.63992136" lon="-73.12585934">
    <tag k="addr:city" v="Milton"/>
    <tag k="addr:housenumber" v="26"/>
    <tag k="addr:street" v="Milton Falls Court"/>
    <tag k="addr:state" v="VT"/>
    <tag k="ref:vcgi:esiteid" v="159076"/>
  </node>
  <node id="-944" visible="true" lat="44.63971727" lon="-73.125561">
    <tag k="addr:city" v="Milton"/>
    <tag k="addr:housenumber" v="32"/>
    <tag k="addr:street" v="Milton Falls Court"/>
    <tag k="addr:state" v="VT"/>
    <tag k="ref:vcgi:esiteid" v="159077"/>
  </node>
  <node id="-945" visible="true" lat="44.63945604" lon="-73.12526205">
    <tag k="addr:city" v="Milton"/>
    <tag k="addr:housenumber" v="38"/>
    <tag k="addr:street" v="Milton Falls Court"/>
    <tag k="addr:state" v="VT"/>
    <tag k="ref:vcgi:esiteid" v="159078"/>
  </node>
  <node id="-946" visible="true" lat="44.63916629" lon="-73.1249548">
    <tag k="addr:city" v="Milton"/>
    <tag k="addr:housenumber" v="44"/>
    <tag k="addr:street" v="Milton Falls Court"/>
    <tag k="addr:state" v="VT"/>
    <tag k="ref:vcgi:esiteid" v="159079"/>
  </node>
  <node id="-947" visible="true" lat="44.63829508" lon="-73.12438519">
    <tag k="addr:city" v="Milton"/>
    <tag k="addr:housenumber" v="60"/>
    <tag k="addr:street" v="Milton Falls Court"/>
    <tag k="addr:state" v="VT"/>
    <tag k="ref:vcgi:esiteid" v="159080"/>
  </node>
  <node id="-948" visible="true" lat="44.63783965" lon="-73.12406816">
    <tag k="addr:city" v="Milton"/>
    <tag k="addr:housenumber" v="70"/>
    <tag k="addr:street" v="Milton Falls Court"/>
    <tag k="addr:state" v="VT"/>
    <tag k="ref:vcgi:esiteid" v="159081"/>
  </node>
  <node id="-949" visible="true" lat="44.63841069" lon="-73.12309783">
    <tag k="addr:city" v="Milton"/>
    <tag k="addr:housenumber" v="104"/>
    <tag k="addr:street" v="Milton Falls Court"/>
    <tag k="addr:state" v="VT"/>
    <tag k="ref:vcgi:esiteid" v="159082"/>
  </node>
  <node id="-951" visible="true" lat="44.63897417" lon="-73.12246356">
    <tag k="addr:city" v="Milton"/>
    <tag k="addr:housenumber" v="116"/>
    <tag k="addr:street" v="Milton Falls Court"/>
    <tag k="addr:state" v="VT"/>
    <tag k="ref:vcgi:esiteid" v="159084"/>
  </node>
  <node id="-952" visible="true" lat="44.63932177" lon="-73.12264336">
    <tag k="addr:city" v="Milton"/>
    <tag k="addr:housenumber" v="122"/>
    <tag k="addr:street" v="Milton Falls Court"/>
    <tag k="addr:state" v="VT"/>
    <tag k="ref:vcgi:esiteid" v="159085"/>
  </node>
  <node id="-953" visible="true" lat="44.63963645" lon="-73.12257469">
    <tag k="addr:city" v="Milton"/>
    <tag k="addr:housenumber" v="124"/>
    <tag k="addr:street" v="Milton Falls Court"/>
    <tag k="addr:state" v="VT"/>
    <tag k="ref:vcgi:esiteid" v="159086"/>
  </node>
  <node id="-954" visible="true" lat="44.6399417" lon="-73.12213774">
    <tag k="addr:city" v="Milton"/>
    <tag k="addr:housenumber" v="128"/>
    <tag k="addr:street" v="Milton Falls Court"/>
    <tag k="addr:state" v="VT"/>
    <tag k="ref:vcgi:esiteid" v="159087"/>
  </node>
  <node id="-955" visible="true" lat="44.63997266" lon="-73.12169785">
    <tag k="addr:city" v="Milton"/>
    <tag k="addr:housenumber" v="129"/>
    <tag k="addr:street" v="Milton Falls Court"/>
    <tag k="addr:state" v="VT"/>
    <tag k="ref:vcgi:esiteid" v="159088"/>
  </node>
  <node id="-956" visible="true" lat="44.63972342" lon="-73.121295">
    <tag k="addr:city" v="Milton"/>
    <tag k="addr:housenumber" v="127"/>
    <tag k="addr:street" v="Milton Falls Court"/>
    <tag k="addr:state" v="VT"/>
    <tag k="ref:vcgi:esiteid" v="159089"/>
  </node>
  <node id="-957" visible="true" lat="44.63938763" lon="-73.12104329">
    <tag k="addr:city" v="Milton"/>
    <tag k="addr:housenumber" v="123"/>
    <tag k="addr:street" v="Milton Falls Court"/>
    <tag k="addr:state" v="VT"/>
    <tag k="ref:vcgi:esiteid" v="159090"/>
  </node>
  <node id="-958" visible="true" lat="44.63910083" lon="-73.12124033">
    <tag k="addr:city" v="Milton"/>
    <tag k="addr:housenumber" v="121"/>
    <tag k="addr:street" v="Milton Falls Court"/>
    <tag k="addr:state" v="VT"/>
    <tag k="ref:vcgi:esiteid" v="159091"/>
  </node>
  <node id="-959" visible="true" lat="44.63882442" lon="-73.12162956">
    <tag k="addr:city" v="Milton"/>
    <tag k="addr:housenumber" v="115"/>
    <tag k="addr:street" v="Milton Falls Court"/>
    <tag k="addr:state" v="VT"/>
    <tag k="ref:vcgi:esiteid" v="159092"/>
  </node>
  <node id="-960" visible="true" lat="44.63859376" lon="-73.12201128">
    <tag k="addr:city" v="Milton"/>
    <tag k="addr:housenumber" v="109"/>
    <tag k="addr:street" v="Milton Falls Court"/>
    <tag k="addr:state" v="VT"/>
    <tag k="ref:vcgi:esiteid" v="159093"/>
  </node>
  <node id="-961" visible="true" lat="44.63827817" lon="-73.12224802">
    <tag k="addr:city" v="Milton"/>
    <tag k="addr:housenumber" v="103"/>
    <tag k="addr:street" v="Milton Falls Court"/>
    <tag k="addr:state" v="VT"/>
    <tag k="ref:vcgi:esiteid" v="159094"/>
  </node>
  <node id="-962" visible="true" lat="44.6379348" lon="-73.12234039">
    <tag k="addr:city" v="Milton"/>
    <tag k="addr:housenumber" v="97"/>
    <tag k="addr:street" v="Milton Falls Court"/>
    <tag k="addr:state" v="VT"/>
    <tag k="ref:vcgi:esiteid" v="159095"/>
  </node>
  <node id="-963" visible="true" lat="44.63757467" lon="-73.12236055">
    <tag k="addr:city" v="Milton"/>
    <tag k="addr:housenumber" v="93"/>
    <tag k="addr:street" v="Milton Falls Court"/>
    <tag k="addr:state" v="VT"/>
    <tag k="ref:vcgi:esiteid" v="159096"/>
  </node>
  <node id="-966" visible="true" lat="44.63806301" lon="-73.12502299">
    <tag k="addr:city" v="Milton"/>
    <tag k="addr:housenumber" v="61"/>
    <tag k="addr:street" v="Milton Falls Court"/>
    <tag k="addr:state" v="VT"/>
    <tag k="ref:vcgi:esiteid" v="159099"/>
  </node>
  <node id="-967" visible="true" lat="44.63855277" lon="-73.12533239">
    <tag k="addr:city" v="Milton"/>
    <tag k="addr:housenumber" v="51"/>
    <tag k="addr:street" v="Milton Falls Court"/>
    <tag k="addr:state" v="VT"/>
    <tag k="ref:vcgi:esiteid" v="159100"/>
  </node>
  <node id="-968" visible="true" lat="44.63885566" lon="-73.12558977">
    <tag k="addr:city" v="Milton"/>
    <tag k="addr:housenumber" v="43"/>
    <tag k="addr:street" v="Milton Falls Court"/>
    <tag k="addr:state" v="VT"/>
    <tag k="ref:vcgi:esiteid" v="159101"/>
  </node>
  <node id="-970" visible="true" lat="44.63937105" lon="-73.12617358">
    <tag k="addr:city" v="Milton"/>
    <tag k="addr:housenumber" v="31"/>
    <tag k="addr:street" v="Milton Falls Court"/>
    <tag k="addr:state" v="VT"/>
    <tag k="ref:vcgi:esiteid" v="159103"/>
  </node>
  <node id="-971" visible="true" lat="44.63895242" lon="-73.1264412">
    <tag k="addr:city" v="Milton"/>
    <tag k="addr:housenumber" v="187"/>
    <tag k="addr:street" v="Red Clover Way"/>
    <tag k="addr:state" v="VT"/>
    <tag k="ref:vcgi:esiteid" v="159104"/>
  </node>
  <node id="-972" visible="true" lat="44.63871207" lon="-73.12650265">
    <tag k="addr:city" v="Milton"/>
    <tag k="addr:housenumber" v="179"/>
    <tag k="addr:street" v="Red Clover Way"/>
    <tag k="addr:state" v="VT"/>
    <tag k="ref:vcgi:esiteid" v="159105"/>
  </node>
  <node id="-973" visible="true" lat="44.63835464" lon="-73.12589459">
    <tag k="addr:city" v="Milton"/>
    <tag k="addr:housenumber" v="55"/>
    <tag k="addr:street" v="Milton Falls Court"/>
    <tag k="addr:state" v="VT"/>
    <tag k="ref:vcgi:esiteid" v="159106"/>
  </node>
  <node id="-974" visible="true" lat="44.6382367" lon="-73.12669762">
    <tag k="addr:city" v="Milton"/>
    <tag k="addr:housenumber" v="173"/>
    <tag k="addr:street" v="Red Clover Way"/>
    <tag k="addr:state" v="VT"/>
    <tag k="ref:vcgi:esiteid" v="159107"/>
  </node>
  <node id="-976" visible="true" lat="44.63808277" lon="-73.12767241">
    <tag k="addr:city" v="Milton"/>
    <tag k="addr:housenumber" v="170"/>
    <tag k="addr:street" v="Red Clover Way"/>
    <tag k="addr:state" v="VT"/>
    <tag k="ref:vcgi:esiteid" v="159109"/>
  </node>
  <node id="-977" visible="true" lat="44.63844891" lon="-73.12759632">
    <tag k="addr:city" v="Milton"/>
    <tag k="addr:housenumber" v="174"/>
    <tag k="addr:street" v="Red Clover Way"/>
    <tag k="addr:state" v="VT"/>
    <tag k="ref:vcgi:esiteid" v="159110"/>
  </node>
  <node id="-978" visible="true" lat="44.63884944" lon="-73.1275046">
    <tag k="addr:city" v="Milton"/>
    <tag k="addr:housenumber" v="180"/>
    <tag k="addr:street" v="Red Clover Way"/>
    <tag k="addr:state" v="VT"/>
    <tag k="ref:vcgi:esiteid" v="159111"/>
  </node>
  <node id="-979" visible="true" lat="44.63918288" lon="-73.12714001">
    <tag k="addr:city" v="Milton"/>
    <tag k="addr:housenumber" v="186"/>
    <tag k="addr:street" v="Red Clover Way"/>
    <tag k="addr:state" v="VT"/>
    <tag k="ref:vcgi:esiteid" v="159112"/>
  </node>
  <node id="-980" visible="true" lat="44.6393612" lon="-73.12692583">
    <tag k="addr:city" v="Milton"/>
    <tag k="addr:housenumber" v="192"/>
    <tag k="addr:street" v="Red Clover Way"/>
    <tag k="addr:state" v="VT"/>
    <tag k="ref:vcgi:esiteid" v="159113"/>
  </node>
  <node id="-981" visible="true" lat="44.6396085" lon="-73.12664036">
    <tag k="addr:city" v="Milton"/>
    <tag k="addr:housenumber" v="198"/>
    <tag k="addr:street" v="Red Clover Way"/>
    <tag k="addr:state" v="VT"/>
    <tag k="ref:vcgi:esiteid" v="159114"/>
  </node>
  <node id="-983" visible="true" lat="44.63832988" lon="-73.12845944">
    <tag k="addr:city" v="Milton"/>
    <tag k="addr:housenumber" v="148"/>
    <tag k="addr:street" v="Red Clover Way"/>
    <tag k="addr:state" v="VT"/>
    <tag k="ref:vcgi:esiteid" v="159116"/>
  </node>
  <node id="-984" visible="true" lat="44.63828704" lon="-73.13001169">
    <tag k="addr:city" v="Milton"/>
    <tag k="addr:housenumber" v="140"/>
    <tag k="addr:street" v="Red Clover Way"/>
    <tag k="addr:state" v="VT"/>
    <tag k="ref:vcgi:esiteid" v="159117"/>
  </node>
  <node id="-985" visible="true" lat="44.63753716" lon="-73.13024368">
    <tag k="addr:city" v="Milton"/>
    <tag k="addr:housenumber" v="129"/>
    <tag k="addr:street" v="Red Clover Way"/>
    <tag k="addr:state" v="VT"/>
    <tag k="ref:vcgi:esiteid" v="159118"/>
  </node>
  <node id="-986" visible="true" lat="44.63842552" lon="-73.13080556">
    <tag k="addr:city" v="Milton"/>
    <tag k="addr:housenumber" v="130"/>
    <tag k="addr:street" v="Red Clover Way"/>
    <tag k="addr:state" v="VT"/>
    <tag k="ref:vcgi:esiteid" v="159119"/>
  </node>
  <node id="-987" visible="true" lat="44.63791501" lon="-73.13115219">
    <tag k="addr:city" v="Milton"/>
    <tag k="addr:housenumber" v="123"/>
    <tag k="addr:street" v="Red Clover Way"/>
    <tag k="addr:state" v="VT"/>
    <tag k="ref:vcgi:esiteid" v="159120"/>
  </node>
  <node id="-988" visible="true" lat="44.6385659" lon="-73.13125529">
    <tag k="addr:city" v="Milton"/>
    <tag k="addr:housenumber" v="120"/>
    <tag k="addr:street" v="Red Clover Way"/>
    <tag k="addr:state" v="VT"/>
    <tag k="ref:vcgi:esiteid" v="159121"/>
  </node>
  <node id="-989" visible="true" lat="44.63806965" lon="-73.13212231">
    <tag k="addr:city" v="Milton"/>
    <tag k="addr:housenumber" v="117"/>
    <tag k="addr:street" v="Red Clover Way"/>
    <tag k="addr:state" v="VT"/>
    <tag k="ref:vcgi:esiteid" v="159122"/>
  </node>
  <node id="-991" visible="true" lat="44.63821499" lon="-73.13270815">
    <tag k="addr:city" v="Milton"/>
    <tag k="addr:housenumber" v="111"/>
    <tag k="addr:street" v="Red Clover Way"/>
    <tag k="addr:state" v="VT"/>
    <tag k="ref:vcgi:esiteid" v="159124"/>
  </node>
  <node id="-992" visible="true" lat="44.63880607" lon="-73.13225836">
    <tag k="addr:city" v="Milton"/>
    <tag k="addr:housenumber" v="116"/>
    <tag k="addr:street" v="Red Clover Way"/>
    <tag k="addr:state" v="VT"/>
    <tag k="ref:vcgi:esiteid" v="159125"/>
  </node>
  <node id="-993" visible="true" lat="44.63837161" lon="-73.13331813">
    <tag k="addr:city" v="Milton"/>
    <tag k="addr:housenumber" v="101"/>
    <tag k="addr:street" v="Red Clover Way"/>
    <tag k="addr:state" v="VT"/>
    <tag k="ref:vcgi:esiteid" v="159126"/>
  </node>
  <node id="-994" visible="true" lat="44.6395354" lon="-73.13264246">
    <tag k="addr:city" v="Milton"/>
    <tag k="addr:housenumber" v="100"/>
    <tag k="addr:street" v="Red Clover Way"/>
    <tag k="addr:state" v="VT"/>
    <tag k="ref:vcgi:esiteid" v="159127"/>
  </node>
  <node id="-995" visible="true" lat="44.63819521" lon="-73.13421263">
    <tag k="addr:city" v="Milton"/>
    <tag k="addr:housenumber" v="93"/>
    <tag k="addr:street" v="Red Clover Way"/>
    <tag k="addr:state" v="VT"/>
    <tag k="ref:vcgi:esiteid" v="159128"/>
  </node>
  <node id="-996" visible="true" lat="44.63845202" lon="-73.13530393">
    <tag k="addr:city" v="Milton"/>
    <tag k="addr:housenumber" v="85"/>
    <tag k="addr:street" v="Red Clover Way"/>
    <tag k="addr:state" v="VT"/>
    <tag k="ref:vcgi:esiteid" v="159129"/>
  </node>
  <node id="-997" visible="true" lat="44.63914352" lon="-73.13529547">
    <tag k="addr:city" v="Milton"/>
    <tag k="addr:housenumber" v="81"/>
    <tag k="addr:street" v="Red Clover Way"/>
    <tag k="addr:state" v="VT"/>
    <tag k="ref:vcgi:esiteid" v="159130"/>
  </node>
  <node id="-998" visible="true" lat="44.63964734" lon="-73.13512488">
    <tag k="addr:city" v="Milton"/>
    <tag k="addr:housenumber" v="75"/>
    <tag k="addr:street" v="Red Clover Way"/>
    <tag k="addr:state" v="VT"/>
    <tag k="ref:vcgi:esiteid" v="159131"/>
  </node>
  <node id="-999" visible="true" lat="44.64015135" lon="-73.13492228">
    <tag k="addr:city" v="Milton"/>
    <tag k="addr:housenumber" v="67"/>
    <tag k="addr:street" v="Red Clover Way"/>
    <tag k="addr:state" v="VT"/>
    <tag k="ref:vcgi:esiteid" v="159132"/>
  </node>
  <node id="-1000" visible="true" lat="44.64039105" lon="-73.13394841">
    <tag k="addr:city" v="Milton"/>
    <tag k="addr:housenumber" v="64"/>
    <tag k="addr:street" v="Red Clover Way"/>
    <tag k="addr:state" v="VT"/>
    <tag k="ref:vcgi:esiteid" v="159133"/>
  </node>
  <node id="-1001" visible="true" lat="44.64003531" lon="-73.13420866">
    <tag k="addr:city" v="Milton"/>
    <tag k="addr:housenumber" v="68"/>
    <tag k="addr:street" v="Red Clover Way"/>
    <tag k="addr:state" v="VT"/>
    <tag k="ref:vcgi:esiteid" v="159134"/>
  </node>
  <node id="-1003" visible="true" lat="44.63897623" lon="-73.13454929">
    <tag k="addr:city" v="Milton"/>
    <tag k="addr:housenumber" v="84"/>
    <tag k="addr:street" v="Red Clover Way"/>
    <tag k="addr:state" v="VT"/>
    <tag k="ref:vcgi:esiteid" v="159136"/>
  </node>
  <node id="-1006" visible="true" lat="44.64024146" lon="-73.13000083">
    <tag k="addr:city" v="Milton"/>
    <tag k="addr:housenumber" v="81"/>
    <tag k="addr:street" v="Quail Hollow Drive"/>
    <tag k="addr:state" v="VT"/>
    <tag k="ref:vcgi:esiteid" v="159139"/>
  </node>
  <node id="-1007" visible="true" lat="44.64024653" lon="-73.13115345">
    <tag k="addr:city" v="Milton"/>
    <tag k="addr:housenumber" v="8"/>
    <tag k="addr:street" v="Thrush Drive"/>
    <tag k="addr:state" v="VT"/>
    <tag k="ref:vcgi:esiteid" v="159140"/>
  </node>
  <node id="-1008" visible="true" lat="44.64029428" lon="-73.1318183">
    <tag k="addr:city" v="Milton"/>
    <tag k="addr:housenumber" v="12"/>
    <tag k="addr:street" v="Thrush Drive"/>
    <tag k="addr:state" v="VT"/>
    <tag k="ref:vcgi:esiteid" v="159141"/>
  </node>
  <node id="-1010" visible="true" lat="44.64023967" lon="-73.13650802">
    <tag k="addr:city" v="Milton"/>
    <tag k="addr:housenumber" v="294"/>
    <tag k="addr:street" v="Poor Farm Road"/>
    <tag k="addr:state" v="VT"/>
    <tag k="ref:vcgi:esiteid" v="159143"/>
  </node>
  <node id="-1012" visible="true" lat="44.6384314" lon="-73.13797694">
    <tag k="addr:city" v="Milton"/>
    <tag k="addr:housenumber" v="320"/>
    <tag k="addr:street" v="Poor Farm Road"/>
    <tag k="addr:state" v="VT"/>
    <tag k="ref:vcgi:esiteid" v="159145"/>
  </node>
  <node id="-1013" visible="true" lat="44.63854496" lon="-73.13913072">
    <tag k="addr:city" v="Milton"/>
    <tag k="addr:housenumber" v="331"/>
    <tag k="addr:street" v="Poor Farm Road"/>
    <tag k="addr:state" v="VT"/>
    <tag k="ref:vcgi:esiteid" v="159146"/>
  </node>
  <node id="-1014" visible="true" lat="44.63893616" lon="-73.1386628">
    <tag k="addr:city" v="Milton"/>
    <tag k="addr:housenumber" v="325"/>
    <tag k="addr:street" v="Poor Farm Road"/>
    <tag k="addr:state" v="VT"/>
    <tag k="ref:vcgi:esiteid" v="159147"/>
  </node>
  <node id="-1015" visible="true" lat="44.63885969" lon="-73.13802966">
    <tag k="addr:city" v="Milton"/>
    <tag k="addr:housenumber" v="321"/>
    <tag k="addr:street" v="Poor Farm Road"/>
    <tag k="addr:state" v="VT"/>
    <tag k="ref:vcgi:esiteid" v="159148"/>
  </node>
  <node id="-1016" visible="true" lat="44.6395987" lon="-73.1377016">
    <tag k="addr:city" v="Milton"/>
    <tag k="addr:housenumber" v="6"/>
    <tag k="addr:street" v="Walker Drive"/>
    <tag k="addr:state" v="VT"/>
    <tag k="ref:vcgi:esiteid" v="159149"/>
  </node>
  <node id="-1017" visible="true" lat="44.64006311" lon="-73.13742655">
    <tag k="addr:city" v="Milton"/>
    <tag k="addr:housenumber" v="297"/>
    <tag k="addr:street" v="Poor Farm Road"/>
    <tag k="addr:state" v="VT"/>
    <tag k="ref:vcgi:esiteid" v="159150"/>
  </node>
  <node id="-1018" visible="true" lat="44.63999056" lon="-73.1381381">
    <tag k="addr:city" v="Milton"/>
    <tag k="addr:housenumber" v="8"/>
    <tag k="addr:street" v="Walker Drive"/>
    <tag k="addr:state" v="VT"/>
    <tag k="ref:vcgi:esiteid" v="159151"/>
  </node>
  <node id="-1105" visible="true" lat="44.63206853" lon="-73.17035872">
    <tag k="addr:city" v="Milton"/>
    <tag k="addr:housenumber" v="308"/>
    <tag k="addr:street" v="West Milton Road"/>
    <tag k="addr:state" v="VT"/>
    <tag k="ref:vcgi:esiteid" v="159238"/>
  </node>
  <node id="-1129" visible="true" lat="44.63391768" lon="-73.15450855">
    <tag k="addr:city" v="Milton"/>
    <tag k="addr:housenumber" v="133"/>
    <tag k="addr:street" v="West Milton Road"/>
    <tag k="addr:state" v="VT"/>
    <tag k="ref:vcgi:esiteid" v="159262"/>
  </node>
  <node id="-1130" visible="true" lat="44.63386606" lon="-73.15437459">
    <tag k="addr:city" v="Milton"/>
    <tag k="addr:housenumber" v="131"/>
    <tag k="addr:street" v="West Milton Road"/>
    <tag k="addr:state" v="VT"/>
    <tag k="ref:vcgi:esiteid" v="159263"/>
  </node>
  <node id="-1131" visible="true" lat="44.63377651" lon="-73.15421352">
    <tag k="addr:city" v="Milton"/>
    <tag k="addr:housenumber" v="129"/>
    <tag k="addr:street" v="West Milton Road"/>
    <tag k="addr:state" v="VT"/>
    <tag k="ref:vcgi:esiteid" v="159264"/>
  </node>
  <node id="-1132" visible="true" lat="44.63372512" lon="-73.15403954">
    <tag k="addr:city" v="Milton"/>
    <tag k="addr:housenumber" v="127"/>
    <tag k="addr:street" v="West Milton Road"/>
    <tag k="addr:state" v="VT"/>
    <tag k="ref:vcgi:esiteid" v="159265"/>
  </node>
  <node id="-1133" visible="true" lat="44.63365457" lon="-73.15388536">
    <tag k="addr:city" v="Milton"/>
    <tag k="addr:housenumber" v="125"/>
    <tag k="addr:street" v="West Milton Road"/>
    <tag k="addr:state" v="VT"/>
    <tag k="ref:vcgi:esiteid" v="159266"/>
  </node>
  <node id="-1134" visible="true" lat="44.63356501" lon="-73.15372429">
    <tag k="addr:city" v="Milton"/>
    <tag k="addr:housenumber" v="123"/>
    <tag k="addr:street" v="West Milton Road"/>
    <tag k="addr:state" v="VT"/>
    <tag k="ref:vcgi:esiteid" v="159267"/>
  </node>
  <node id="-1135" visible="true" lat="44.63347546" lon="-73.15356323">
    <tag k="addr:city" v="Milton"/>
    <tag k="addr:housenumber" v="121"/>
    <tag k="addr:street" v="West Milton Road"/>
    <tag k="addr:state" v="VT"/>
    <tag k="ref:vcgi:esiteid" v="159268"/>
  </node>
  <node id="-1136" visible="true" lat="44.63339527" lon="-73.15342894">
    <tag k="addr:city" v="Milton"/>
    <tag k="addr:housenumber" v="119"/>
    <tag k="addr:street" v="West Milton Road"/>
    <tag k="addr:state" v="VT"/>
    <tag k="ref:vcgi:esiteid" v="159269"/>
  </node>
  <node id="-1137" visible="true" lat="44.633262" lon="-73.15310399">
    <tag k="addr:city" v="Milton"/>
    <tag k="addr:housenumber" v="115"/>
    <tag k="addr:street" v="West Milton Road"/>
    <tag k="addr:state" v="VT"/>
    <tag k="ref:vcgi:esiteid" v="159270"/>
  </node>
  <node id="-1138" visible="true" lat="44.63347889" lon="-73.15296304">
    <tag k="addr:city" v="Milton"/>
    <tag k="addr:housenumber" v="52"/>
    <tag k="addr:street" v="Owen Court"/>
    <tag k="addr:state" v="VT"/>
    <tag k="ref:vcgi:esiteid" v="159271"/>
  </node>
  <node id="-1139" visible="true" lat="44.63355439" lon="-73.15308393">
    <tag k="addr:city" v="Milton"/>
    <tag k="addr:housenumber" v="60"/>
    <tag k="addr:street" v="Owen Court"/>
    <tag k="addr:state" v="VT"/>
    <tag k="ref:vcgi:esiteid" v="159272"/>
  </node>
  <node id="-1140" visible="true" lat="44.63362936" lon="-73.15329818">
    <tag k="addr:city" v="Milton"/>
    <tag k="addr:housenumber" v="72"/>
    <tag k="addr:street" v="Owen Court"/>
    <tag k="addr:state" v="VT"/>
    <tag k="ref:vcgi:esiteid" v="159273"/>
  </node>
  <node id="-1141" visible="true" lat="44.63369517" lon="-73.15344898">
    <tag k="addr:city" v="Milton"/>
    <tag k="addr:housenumber" v="80"/>
    <tag k="addr:street" v="Owen Court"/>
    <tag k="addr:state" v="VT"/>
    <tag k="ref:vcgi:esiteid" v="159274"/>
  </node>
  <node id="-1142" visible="true" lat="44.63377503" lon="-73.15363995">
    <tag k="addr:city" v="Milton"/>
    <tag k="addr:housenumber" v="263"/>
    <tag k="addr:street" v="Owen Court"/>
    <tag k="addr:state" v="VT"/>
    <tag k="ref:vcgi:esiteid" v="159275"/>
  </node>
  <node id="-1143" visible="true" lat="44.63387903" lon="-73.1537745">
    <tag k="addr:city" v="Milton"/>
    <tag k="addr:housenumber" v="253"/>
    <tag k="addr:street" v="Owen Court"/>
    <tag k="addr:state" v="VT"/>
    <tag k="ref:vcgi:esiteid" v="159276"/>
  </node>
  <node id="-1144" visible="true" lat="44.63391144" lon="-73.15393493">
    <tag k="addr:city" v="Milton"/>
    <tag k="addr:housenumber" v="245"/>
    <tag k="addr:street" v="Owen Court"/>
    <tag k="addr:state" v="VT"/>
    <tag k="ref:vcgi:esiteid" v="159277"/>
  </node>
  <node id="-1145" visible="true" lat="44.63398176" lon="-73.15412912">
    <tag k="addr:city" v="Milton"/>
    <tag k="addr:housenumber" v="237"/>
    <tag k="addr:street" v="Owen Court"/>
    <tag k="addr:state" v="VT"/>
    <tag k="ref:vcgi:esiteid" v="159278"/>
  </node>
  <node id="-1146" visible="true" lat="44.63408096" lon="-73.15427029">
    <tag k="addr:city" v="Milton"/>
    <tag k="addr:housenumber" v="227"/>
    <tag k="addr:street" v="Owen Court"/>
    <tag k="addr:state" v="VT"/>
    <tag k="ref:vcgi:esiteid" v="159279"/>
  </node>
  <node id="-1147" visible="true" lat="44.63425234" lon="-73.15427889">
    <tag k="addr:city" v="Milton"/>
    <tag k="addr:housenumber" v="225"/>
    <tag k="addr:street" v="Owen Court"/>
    <tag k="addr:state" v="VT"/>
    <tag k="ref:vcgi:esiteid" v="159280"/>
  </node>
  <node id="-1148" visible="true" lat="44.63442384" lon="-73.15426748">
    <tag k="addr:city" v="Milton"/>
    <tag k="addr:housenumber" v="221"/>
    <tag k="addr:street" v="Owen Court"/>
    <tag k="addr:state" v="VT"/>
    <tag k="ref:vcgi:esiteid" v="159281"/>
  </node>
  <node id="-1149" visible="true" lat="44.63456243" lon="-73.15418233">
    <tag k="addr:city" v="Milton"/>
    <tag k="addr:housenumber" v="213"/>
    <tag k="addr:street" v="Owen Court"/>
    <tag k="addr:state" v="VT"/>
    <tag k="ref:vcgi:esiteid" v="159282"/>
  </node>
  <node id="-1150" visible="true" lat="44.63468186" lon="-73.15411698">
    <tag k="addr:city" v="Milton"/>
    <tag k="addr:housenumber" v="203"/>
    <tag k="addr:street" v="Owen Court"/>
    <tag k="addr:state" v="VT"/>
    <tag k="ref:vcgi:esiteid" v="159283"/>
  </node>
  <node id="-1151" visible="true" lat="44.63495431" lon="-73.15393997">
    <tag k="addr:city" v="Milton"/>
    <tag k="addr:housenumber" v="185"/>
    <tag k="addr:street" v="Owen Court"/>
    <tag k="addr:state" v="VT"/>
    <tag k="ref:vcgi:esiteid" v="159284"/>
  </node>
  <node id="-1152" visible="true" lat="44.63511597" lon="-73.15388093">
    <tag k="addr:city" v="Milton"/>
    <tag k="addr:housenumber" v="175"/>
    <tag k="addr:street" v="Owen Court"/>
    <tag k="addr:state" v="VT"/>
    <tag k="ref:vcgi:esiteid" v="159285"/>
  </node>
  <node id="-1153" visible="true" lat="44.63515583" lon="-73.15367546">
    <tag k="addr:city" v="Milton"/>
    <tag k="addr:housenumber" v="171"/>
    <tag k="addr:street" v="Owen Court"/>
    <tag k="addr:state" v="VT"/>
    <tag k="ref:vcgi:esiteid" v="159286"/>
  </node>
  <node id="-1154" visible="true" lat="44.63521865" lon="-73.1535161">
    <tag k="addr:city" v="Milton"/>
    <tag k="addr:housenumber" v="167"/>
    <tag k="addr:street" v="Owen Court"/>
    <tag k="addr:state" v="VT"/>
    <tag k="ref:vcgi:esiteid" v="159287"/>
  </node>
  <node id="-1155" visible="true" lat="44.63518159" lon="-73.15333561">
    <tag k="addr:city" v="Milton"/>
    <tag k="addr:housenumber" v="159"/>
    <tag k="addr:street" v="Owen Court"/>
    <tag k="addr:state" v="VT"/>
    <tag k="ref:vcgi:esiteid" v="159288"/>
  </node>
  <node id="-1156" visible="true" lat="44.63516837" lon="-73.15314872">
    <tag k="addr:city" v="Milton"/>
    <tag k="addr:housenumber" v="155"/>
    <tag k="addr:street" v="Owen Court"/>
    <tag k="addr:state" v="VT"/>
    <tag k="ref:vcgi:esiteid" v="159289"/>
  </node>
  <node id="-1157" visible="true" lat="44.63489741" lon="-73.15306564">
    <tag k="addr:city" v="Milton"/>
    <tag k="addr:housenumber" v="149"/>
    <tag k="addr:street" v="Owen Court"/>
    <tag k="addr:state" v="VT"/>
    <tag k="ref:vcgi:esiteid" v="159290"/>
  </node>
  <node id="-1158" visible="true" lat="44.63461159" lon="-73.15308245">
    <tag k="addr:city" v="Milton"/>
    <tag k="addr:housenumber" v="133"/>
    <tag k="addr:street" v="Owen Court"/>
    <tag k="addr:state" v="VT"/>
    <tag k="ref:vcgi:esiteid" v="159291"/>
  </node>
  <node id="-1159" visible="true" lat="44.63445448" lon="-73.15307401">
    <tag k="addr:city" v="Milton"/>
    <tag k="addr:housenumber" v="125"/>
    <tag k="addr:street" v="Owen Court"/>
    <tag k="addr:state" v="VT"/>
    <tag k="ref:vcgi:esiteid" v="159292"/>
  </node>
  <node id="-1160" visible="true" lat="44.63433544" lon="-73.15307268">
    <tag k="addr:city" v="Milton"/>
    <tag k="addr:housenumber" v="113"/>
    <tag k="addr:street" v="Owen Court"/>
    <tag k="addr:state" v="VT"/>
    <tag k="ref:vcgi:esiteid" v="159293"/>
  </node>
  <node id="-1161" visible="true" lat="44.63380829" lon="-73.15282001">
    <tag k="addr:city" v="Milton"/>
    <tag k="addr:housenumber" v="65"/>
    <tag k="addr:street" v="Owen Court"/>
    <tag k="addr:state" v="VT"/>
    <tag k="ref:vcgi:esiteid" v="159294"/>
  </node>
  <node id="-1162" visible="true" lat="44.63372799" lon="-73.15270573">
    <tag k="addr:city" v="Milton"/>
    <tag k="addr:housenumber" v="55"/>
    <tag k="addr:street" v="Owen Court"/>
    <tag k="addr:state" v="VT"/>
    <tag k="ref:vcgi:esiteid" v="159295"/>
  </node>
  <node id="-1163" visible="true" lat="44.63367203" lon="-73.15249836">
    <tag k="addr:city" v="Milton"/>
    <tag k="addr:housenumber" v="45"/>
    <tag k="addr:street" v="Owen Court"/>
    <tag k="addr:state" v="VT"/>
    <tag k="ref:vcgi:esiteid" v="159296"/>
  </node>
  <node id="-1164" visible="true" lat="44.63359637" lon="-73.15240414">
    <tag k="addr:city" v="Milton"/>
    <tag k="addr:housenumber" v="35"/>
    <tag k="addr:street" v="Owen Court"/>
    <tag k="addr:state" v="VT"/>
    <tag k="ref:vcgi:esiteid" v="159297"/>
  </node>
  <node id="-1165" visible="true" lat="44.63351188" lon="-73.15218978">
    <tag k="addr:city" v="Milton"/>
    <tag k="addr:housenumber" v="25"/>
    <tag k="addr:street" v="Owen Court"/>
    <tag k="addr:state" v="VT"/>
    <tag k="ref:vcgi:esiteid" v="159298"/>
  </node>
  <node id="-1166" visible="true" lat="44.63340362" lon="-73.15196848">
    <tag k="addr:city" v="Milton"/>
    <tag k="addr:housenumber" v="11"/>
    <tag k="addr:street" v="Owen Court"/>
    <tag k="addr:state" v="VT"/>
    <tag k="ref:vcgi:esiteid" v="159299"/>
  </node>
  <node id="-1248" visible="true" lat="44.63420736" lon="-73.1538182">
    <tag k="addr:city" v="Milton"/>
    <tag k="addr:housenumber" v="218"/>
    <tag k="addr:street" v="Owen Court"/>
    <tag k="addr:state" v="VT"/>
    <tag k="ref:vcgi:esiteid" v="159383"/>
  </node>
  <node id="-1249" visible="true" lat="44.6343456" lon="-73.15379308">
    <tag k="addr:city" v="Milton"/>
    <tag k="addr:housenumber" v="212"/>
    <tag k="addr:street" v="Owen Court"/>
    <tag k="addr:state" v="VT"/>
    <tag k="ref:vcgi:esiteid" v="159384"/>
  </node>
  <node id="-1250" visible="true" lat="44.63448915" lon="-73.15367464">
    <tag k="addr:city" v="Milton"/>
    <tag k="addr:housenumber" v="200"/>
    <tag k="addr:street" v="Owen Court"/>
    <tag k="addr:state" v="VT"/>
    <tag k="ref:vcgi:esiteid" v="159385"/>
  </node>
  <node id="-1251" visible="true" lat="44.63468" lon="-73.15361009">
    <tag k="addr:city" v="Milton"/>
    <tag k="addr:housenumber" v="192"/>
    <tag k="addr:street" v="Owen Court"/>
    <tag k="addr:state" v="VT"/>
    <tag k="ref:vcgi:esiteid" v="159386"/>
  </node>
  <node id="-1252" visible="true" lat="44.63486617" lon="-73.15353215">
    <tag k="addr:city" v="Milton"/>
    <tag k="addr:housenumber" v="172"/>
    <tag k="addr:street" v="Owen Court"/>
    <tag k="addr:state" v="VT"/>
    <tag k="ref:vcgi:esiteid" v="159387"/>
  </node>
  <node id="-1270" visible="true" lat="44.63532377" lon="-73.11803873">
    <tag k="addr:city" v="Milton"/>
    <tag k="addr:housenumber" v="175"/>
    <tag k="addr:street" v="Ritchie Avenue"/>
    <tag k="addr:state" v="VT"/>
    <tag k="ref:vcgi:esiteid" v="159406"/>
  </node>
  <node id="-1271" visible="true" lat="44.6349281" lon="-73.11829064">
    <tag k="addr:city" v="Milton"/>
    <tag k="addr:housenumber" v="151"/>
    <tag k="addr:street" v="Ritchie Avenue"/>
    <tag k="addr:state" v="VT"/>
    <tag k="ref:vcgi:esiteid" v="159407"/>
  </node>
  <node id="-1578" visible="true" lat="44.62654313" lon="-73.14546468">
    <tag k="addr:city" v="Milton"/>
    <tag k="addr:housenumber" v="514"/>
    <tag k="addr:street" v="U.S. Route 7 South"/>
    <tag k="addr:state" v="VT"/>
    <tag k="ref:vcgi:esiteid" v="159719"/>
  </node>
  <node id="-1589" visible="true" lat="44.62760961" lon="-73.1407712">
    <tag k="addr:city" v="Milton"/>
    <tag k="addr:housenumber" v="7"/>
    <tag k="addr:street" v="Nancy Drive"/>
    <tag k="addr:state" v="VT"/>
    <tag k="ref:vcgi:esiteid" v="159730"/>
  </node>
  <node id="-1615" visible="true" lat="44.62475045" lon="-73.13685269">
    <tag k="addr:city" v="Milton"/>
    <tag k="addr:housenumber" v="414"/>
    <tag k="addr:street" v="U.S. Route 7 South"/>
    <tag k="addr:state" v="VT"/>
    <tag k="ref:vcgi:esiteid" v="159760"/>
  </node>
  <node id="-1638" visible="true" lat="44.62620779" lon="-73.13563181">
    <tag k="addr:city" v="Milton"/>
    <tag k="addr:housenumber" v="22"/>
    <tag k="addr:street" v="Sparrow Circle"/>
    <tag k="addr:state" v="VT"/>
    <tag k="ref:vcgi:esiteid" v="159783"/>
  </node>
  <node id="-1639" visible="true" lat="44.62641484" lon="-73.13539401">
    <tag k="addr:city" v="Milton"/>
    <tag k="addr:housenumber" v="64"/>
    <tag k="addr:street" v="Rita Way"/>
    <tag k="addr:state" v="VT"/>
    <tag k="ref:vcgi:esiteid" v="159784"/>
  </node>
  <node id="-1640" visible="true" lat="44.62630085" lon="-73.13533942">
    <tag k="addr:city" v="Milton"/>
    <tag k="addr:housenumber" v="58"/>
    <tag k="addr:street" v="Rita Way"/>
    <tag k="addr:state" v="VT"/>
    <tag k="ref:vcgi:esiteid" v="159785"/>
  </node>
  <node id="-1641" visible="true" lat="44.62620981" lon="-73.13526907">
    <tag k="addr:city" v="Milton"/>
    <tag k="addr:housenumber" v="52"/>
    <tag k="addr:street" v="Rita Way"/>
    <tag k="addr:state" v="VT"/>
    <tag k="ref:vcgi:esiteid" v="159786"/>
  </node>
  <node id="-1642" visible="true" lat="44.62609612" lon="-73.13516114">
    <tag k="addr:city" v="Milton"/>
    <tag k="addr:housenumber" v="44"/>
    <tag k="addr:street" v="Rita Way"/>
    <tag k="addr:state" v="VT"/>
    <tag k="ref:vcgi:esiteid" v="159787"/>
  </node>
  <node id="-1643" visible="true" lat="44.62603573" lon="-73.13505912">
    <tag k="addr:city" v="Milton"/>
    <tag k="addr:housenumber" v="36"/>
    <tag k="addr:street" v="Rita Way"/>
    <tag k="addr:state" v="VT"/>
    <tag k="ref:vcgi:esiteid" v="159788"/>
  </node>
  <node id="-1644" visible="true" lat="44.62594616" lon="-73.1349835">
    <tag k="addr:city" v="Milton"/>
    <tag k="addr:housenumber" v="30"/>
    <tag k="addr:street" v="Rita Way"/>
    <tag k="addr:state" v="VT"/>
    <tag k="ref:vcgi:esiteid" v="159789"/>
  </node>
  <node id="-1645" visible="true" lat="44.62575656" lon="-73.13483307">
    <tag k="addr:city" v="Milton"/>
    <tag k="addr:housenumber" v="14"/>
    <tag k="addr:street" v="Rita Way"/>
    <tag k="addr:state" v="VT"/>
    <tag k="ref:vcgi:esiteid" v="159790"/>
  </node>
  <node id="-1646" visible="true" lat="44.62566933" lon="-73.13476277">
    <tag k="addr:city" v="Milton"/>
    <tag k="addr:housenumber" v="4"/>
    <tag k="addr:street" v="Rita Way"/>
    <tag k="addr:state" v="VT"/>
    <tag k="ref:vcgi:esiteid" v="159791"/>
  </node>
  <node id="-1657" visible="true" lat="44.62586819" lon="-73.13435846">
    <tag k="addr:city" v="Milton"/>
    <tag k="addr:housenumber" v="7"/>
    <tag k="addr:street" v="Rita Way"/>
    <tag k="addr:state" v="VT"/>
    <tag k="ref:vcgi:esiteid" v="159802"/>
  </node>
  <node id="-1658" visible="true" lat="44.62613226" lon="-73.13414261">
    <tag k="addr:city" v="Milton"/>
    <tag k="addr:housenumber" v="114"/>
    <tag k="addr:street" v="Pecor Avenue"/>
    <tag k="addr:state" v="VT"/>
    <tag k="ref:vcgi:esiteid" v="159803"/>
  </node>
  <node id="-1659" visible="true" lat="44.6264382" lon="-73.13393255">
    <tag k="addr:city" v="Milton"/>
    <tag k="addr:housenumber" v="134"/>
    <tag k="addr:street" v="Pecor Avenue"/>
    <tag k="addr:state" v="VT"/>
    <tag k="ref:vcgi:esiteid" v="159804"/>
  </node>
  <node id="-1660" visible="true" lat="44.62663217" lon="-73.13379763">
    <tag k="addr:city" v="Milton"/>
    <tag k="addr:housenumber" v="150"/>
    <tag k="addr:street" v="Pecor Avenue"/>
    <tag k="addr:state" v="VT"/>
    <tag k="ref:vcgi:esiteid" v="159805"/>
  </node>
  <node id="-1661" visible="true" lat="44.62688562" lon="-73.13362801">
    <tag k="addr:city" v="Milton"/>
    <tag k="addr:housenumber" v="170"/>
    <tag k="addr:street" v="Pecor Avenue"/>
    <tag k="addr:state" v="VT"/>
    <tag k="ref:vcgi:esiteid" v="159806"/>
  </node>
  <node id="-1662" visible="true" lat="44.62721108" lon="-73.1333328">
    <tag k="addr:city" v="Milton"/>
    <tag k="addr:housenumber" v="182"/>
    <tag k="addr:street" v="Pecor Avenue"/>
    <tag k="addr:state" v="VT"/>
    <tag k="ref:vcgi:esiteid" v="159807"/>
  </node>
  <node id="-1663" visible="true" lat="44.62716221" lon="-73.1332149">
    <tag k="addr:city" v="Milton"/>
    <tag k="addr:housenumber" v="183"/>
    <tag k="addr:street" v="Pecor Avenue"/>
    <tag k="addr:state" v="VT"/>
    <tag k="ref:vcgi:esiteid" v="159808"/>
  </node>
  <node id="-1664" visible="true" lat="44.62704855" lon="-73.13310164">
    <tag k="addr:city" v="Milton"/>
    <tag k="addr:housenumber" v="181"/>
    <tag k="addr:street" v="Pecor Avenue"/>
    <tag k="addr:state" v="VT"/>
    <tag k="ref:vcgi:esiteid" v="159809"/>
  </node>
  <node id="-1665" visible="true" lat="44.62685898" lon="-73.13328451">
    <tag k="addr:city" v="Milton"/>
    <tag k="addr:housenumber" v="173"/>
    <tag k="addr:street" v="Pecor Avenue"/>
    <tag k="addr:state" v="VT"/>
    <tag k="ref:vcgi:esiteid" v="159810"/>
  </node>
  <node id="-1666" visible="true" lat="44.62675389" lon="-73.1333385">
    <tag k="addr:city" v="Milton"/>
    <tag k="addr:housenumber" v="163"/>
    <tag k="addr:street" v="Pecor Avenue"/>
    <tag k="addr:state" v="VT"/>
    <tag k="ref:vcgi:esiteid" v="159811"/>
  </node>
  <node id="-1667" visible="true" lat="44.62665434" lon="-73.13342811">
    <tag k="addr:city" v="Milton"/>
    <tag k="addr:housenumber" v="155"/>
    <tag k="addr:street" v="Pecor Avenue"/>
    <tag k="addr:state" v="VT"/>
    <tag k="ref:vcgi:esiteid" v="159812"/>
  </node>
  <node id="-1668" visible="true" lat="44.62655878" lon="-73.13348575">
    <tag k="addr:city" v="Milton"/>
    <tag k="addr:housenumber" v="149"/>
    <tag k="addr:street" v="Pecor Avenue"/>
    <tag k="addr:state" v="VT"/>
    <tag k="ref:vcgi:esiteid" v="159813"/>
  </node>
  <node id="-1669" visible="true" lat="44.6264592" lon="-73.13358069">
    <tag k="addr:city" v="Milton"/>
    <tag k="addr:housenumber" v="141"/>
    <tag k="addr:street" v="Pecor Avenue"/>
    <tag k="addr:state" v="VT"/>
    <tag k="ref:vcgi:esiteid" v="159814"/>
  </node>
  <node id="-1670" visible="true" lat="44.62634828" lon="-73.13365951">
    <tag k="addr:city" v="Milton"/>
    <tag k="addr:housenumber" v="135"/>
    <tag k="addr:street" v="Pecor Avenue"/>
    <tag k="addr:state" v="VT"/>
    <tag k="ref:vcgi:esiteid" v="159815"/>
  </node>
  <node id="-1671" visible="true" lat="44.62624888" lon="-73.13372244">
    <tag k="addr:city" v="Milton"/>
    <tag k="addr:housenumber" v="125"/>
    <tag k="addr:street" v="Pecor Avenue"/>
    <tag k="addr:state" v="VT"/>
    <tag k="ref:vcgi:esiteid" v="159816"/>
  </node>
  <node id="-1672" visible="true" lat="44.62616475" lon="-73.13378021">
    <tag k="addr:city" v="Milton"/>
    <tag k="addr:housenumber" v="119"/>
    <tag k="addr:street" v="Pecor Avenue"/>
    <tag k="addr:state" v="VT"/>
    <tag k="ref:vcgi:esiteid" v="159817"/>
  </node>
  <node id="-1673" visible="true" lat="44.62605784" lon="-73.13382172">
    <tag k="addr:city" v="Milton"/>
    <tag k="addr:housenumber" v="111"/>
    <tag k="addr:street" v="Pecor Avenue"/>
    <tag k="addr:state" v="VT"/>
    <tag k="ref:vcgi:esiteid" v="159818"/>
  </node>
  <node id="-1674" visible="true" lat="44.62599099" lon="-73.13391481">
    <tag k="addr:city" v="Milton"/>
    <tag k="addr:housenumber" v="103"/>
    <tag k="addr:street" v="Pecor Avenue"/>
    <tag k="addr:state" v="VT"/>
    <tag k="ref:vcgi:esiteid" v="159819"/>
  </node>
  <node id="-1675" visible="true" lat="44.62588778" lon="-73.13396808">
    <tag k="addr:city" v="Milton"/>
    <tag k="addr:housenumber" v="95"/>
    <tag k="addr:street" v="Pecor Avenue"/>
    <tag k="addr:state" v="VT"/>
    <tag k="ref:vcgi:esiteid" v="159820"/>
  </node>
  <node id="-1676" visible="true" lat="44.62568917" lon="-73.13410604">
    <tag k="addr:city" v="Milton"/>
    <tag k="addr:housenumber" v="81"/>
    <tag k="addr:street" v="Pecor Avenue"/>
    <tag k="addr:state" v="VT"/>
    <tag k="ref:vcgi:esiteid" v="159821"/>
  </node>
  <node id="-1677" visible="true" lat="44.62549099" lon="-73.13424677">
    <tag k="addr:city" v="Milton"/>
    <tag k="addr:housenumber" v="65"/>
    <tag k="addr:street" v="Pecor Avenue"/>
    <tag k="addr:state" v="VT"/>
    <tag k="ref:vcgi:esiteid" v="159822"/>
  </node>
  <node id="-1678" visible="true" lat="44.62601292" lon="-73.1354623">
    <tag k="addr:city" v="Milton"/>
    <tag k="addr:housenumber" v="71"/>
    <tag k="addr:street" v="Kapica Lane"/>
    <tag k="addr:state" v="VT"/>
    <tag k="ref:vcgi:esiteid" v="159823"/>
  </node>
  <node id="-1688" visible="true" lat="44.62530419" lon="-73.13487012">
    <tag k="addr:city" v="Milton"/>
    <tag k="addr:housenumber" v="34"/>
    <tag k="addr:street" v="Pecor Avenue"/>
    <tag k="addr:state" v="VT"/>
    <tag k="ref:vcgi:esiteid" v="159833"/>
  </node>
  <node id="-1689" visible="true" lat="44.62540061" lon="-73.1347976">
    <tag k="addr:city" v="Milton"/>
    <tag k="addr:housenumber" v="42"/>
    <tag k="addr:street" v="Pecor Avenue"/>
    <tag k="addr:state" v="VT"/>
    <tag k="ref:vcgi:esiteid" v="159834"/>
  </node>
  <node id="-1690" visible="true" lat="44.62552893" lon="-73.1347329">
    <tag k="addr:city" v="Milton"/>
    <tag k="addr:housenumber" v="54"/>
    <tag k="addr:street" v="Pecor Avenue"/>
    <tag k="addr:state" v="VT"/>
    <tag k="ref:vcgi:esiteid" v="159835"/>
  </node>
  <node id="-1691" visible="true" lat="44.62388435" lon="-73.13417682">
    <tag k="addr:city" v="Milton"/>
    <tag k="addr:housenumber" v="384"/>
    <tag k="addr:street" v="U.S. Route 7 South"/>
    <tag k="addr:state" v="VT"/>
    <tag k="ref:vcgi:esiteid" v="159836"/>
  </node>
  <node id="-1692" visible="true" lat="44.62469933" lon="-73.13479077">
    <tag k="addr:city" v="Milton"/>
    <tag k="addr:housenumber" v="5"/>
    <tag k="addr:street" v="Pecor Avenue"/>
    <tag k="addr:state" v="VT"/>
    <tag k="ref:vcgi:esiteid" v="159837"/>
  </node>
  <node id="-1693" visible="true" lat="44.62480996" lon="-73.13474509">
    <tag k="addr:city" v="Milton"/>
    <tag k="addr:housenumber" v="13"/>
    <tag k="addr:street" v="Pecor Avenue"/>
    <tag k="addr:state" v="VT"/>
    <tag k="ref:vcgi:esiteid" v="159838"/>
  </node>
  <node id="-1694" visible="true" lat="44.6249041" lon="-73.13467452">
    <tag k="addr:city" v="Milton"/>
    <tag k="addr:housenumber" v="21"/>
    <tag k="addr:street" v="Pecor Avenue"/>
    <tag k="addr:state" v="VT"/>
    <tag k="ref:vcgi:esiteid" v="159839"/>
  </node>
  <node id="-1695" visible="true" lat="44.62499977" lon="-73.13460301">
    <tag k="addr:city" v="Milton"/>
    <tag k="addr:housenumber" v="27"/>
    <tag k="addr:street" v="Pecor Avenue"/>
    <tag k="addr:state" v="VT"/>
    <tag k="ref:vcgi:esiteid" v="159840"/>
  </node>
  <node id="-1696" visible="true" lat="44.62510155" lon="-73.13452414">
    <tag k="addr:city" v="Milton"/>
    <tag k="addr:housenumber" v="35"/>
    <tag k="addr:street" v="Pecor Avenue"/>
    <tag k="addr:state" v="VT"/>
    <tag k="ref:vcgi:esiteid" v="159841"/>
  </node>
  <node id="-1697" visible="true" lat="44.62519707" lon="-73.13446851">
    <tag k="addr:city" v="Milton"/>
    <tag k="addr:housenumber" v="43"/>
    <tag k="addr:street" v="Pecor Avenue"/>
    <tag k="addr:state" v="VT"/>
    <tag k="ref:vcgi:esiteid" v="159842"/>
  </node>
  <node id="-1698" visible="true" lat="44.62530273" lon="-73.13438864">
    <tag k="addr:city" v="Milton"/>
    <tag k="addr:housenumber" v="51"/>
    <tag k="addr:street" v="Pecor Avenue"/>
    <tag k="addr:state" v="VT"/>
    <tag k="ref:vcgi:esiteid" v="159843"/>
  </node>
  <node id="-1699" visible="true" lat="44.62538765" lon="-73.13431812">
    <tag k="addr:city" v="Milton"/>
    <tag k="addr:housenumber" v="59"/>
    <tag k="addr:street" v="Pecor Avenue"/>
    <tag k="addr:state" v="VT"/>
    <tag k="ref:vcgi:esiteid" v="159844"/>
  </node>
  <node id="-1712" visible="true" lat="44.62423382" lon="-73.13126798">
    <tag k="addr:city" v="Milton"/>
    <tag k="addr:housenumber" v="13"/>
    <tag k="addr:street" v="Landfill Road"/>
    <tag k="addr:state" v="VT"/>
    <tag k="ref:vcgi:esiteid" v="159858"/>
  </node>
  <node id="-1736" visible="true" lat="44.62743515" lon="-73.11745888">
    <tag k="addr:city" v="Milton"/>
    <tag k="addr:housenumber" v="167"/>
    <tag k="addr:street" v="U.S. Route 7 South"/>
    <tag k="addr:state" v="VT"/>
    <tag k="ref:vcgi:esiteid" v="159882"/>
  </node>
  <node id="-1737" visible="true" lat="44.62712027" lon="-73.11756757">
    <tag k="addr:city" v="Milton"/>
    <tag k="addr:housenumber" v="175"/>
    <tag k="addr:street" v="U.S. Route 7 South"/>
    <tag k="addr:state" v="VT"/>
    <tag k="ref:vcgi:esiteid" v="159883"/>
  </node>
  <node id="-1738" visible="true" lat="44.62636928" lon="-73.11800772">
    <tag k="addr:city" v="Milton"/>
    <tag k="addr:housenumber" v="185"/>
    <tag k="addr:street" v="U.S. Route 7 South"/>
    <tag k="addr:state" v="VT"/>
    <tag k="ref:vcgi:esiteid" v="159884"/>
  </node>
  <node id="-1739" visible="true" lat="44.62583128" lon="-73.11816205">
    <tag k="addr:city" v="Milton"/>
    <tag k="addr:housenumber" v="191"/>
    <tag k="addr:street" v="U.S. Route 7 South"/>
    <tag k="addr:state" v="VT"/>
    <tag k="ref:vcgi:esiteid" v="159885"/>
  </node>
  <node id="-1741" visible="true" lat="44.62556451" lon="-73.11835594">
    <tag k="addr:city" v="Milton"/>
    <tag k="addr:housenumber" v="193"/>
    <tag k="addr:street" v="U.S. Route 7 South"/>
    <tag k="addr:state" v="VT"/>
    <tag k="ref:vcgi:esiteid" v="159887"/>
  </node>
  <node id="-1742" visible="true" lat="44.62513177" lon="-73.11753849">
    <tag k="addr:city" v="Milton"/>
    <tag k="addr:housenumber" v="198"/>
    <tag k="addr:street" v="U.S. Route 7 South"/>
    <tag k="addr:state" v="VT"/>
    <tag k="ref:vcgi:esiteid" v="159890"/>
  </node>
  <node id="-1743" visible="true" lat="44.62534943" lon="-73.11744477">
    <tag k="addr:city" v="Milton"/>
    <tag k="addr:housenumber" v="194"/>
    <tag k="addr:street" v="U.S. Route 7 South"/>
    <tag k="addr:state" v="VT"/>
    <tag k="ref:vcgi:esiteid" v="159891"/>
  </node>
  <node id="-1744" visible="true" lat="44.62566423" lon="-73.11735208">
    <tag k="addr:city" v="Milton"/>
    <tag k="addr:housenumber" v="192"/>
    <tag k="addr:street" v="U.S. Route 7 South"/>
    <tag k="addr:state" v="VT"/>
    <tag k="ref:vcgi:esiteid" v="159892"/>
  </node>
  <node id="-1747" visible="true" lat="44.62659265" lon="-73.11685779">
    <tag k="addr:city" v="Milton"/>
    <tag k="addr:housenumber" v="178"/>
    <tag k="addr:street" v="U.S. Route 7 South"/>
    <tag k="addr:state" v="VT"/>
    <tag k="ref:vcgi:esiteid" v="159895"/>
  </node>
  <node id="-1772" visible="true" lat="44.62423762" lon="-73.11908935">
    <tag k="addr:city" v="Milton"/>
    <tag k="addr:housenumber" v="215"/>
    <tag k="addr:street" v="U.S. Route 7 South"/>
    <tag k="addr:state" v="VT"/>
    <tag k="ref:vcgi:esiteid" v="159921"/>
  </node>
  <node id="-1774" visible="true" lat="44.62340648" lon="-73.12060883">
    <tag k="addr:city" v="Milton"/>
    <tag k="addr:housenumber" v="237"/>
    <tag k="addr:street" v="U.S. Route 7 South"/>
    <tag k="addr:state" v="VT"/>
    <tag k="ref:vcgi:esiteid" v="159923"/>
  </node>
  <node id="-1775" visible="true" lat="44.62258021" lon="-73.12332855">
    <tag k="addr:city" v="Milton"/>
    <tag k="addr:housenumber" v="5"/>
    <tag k="addr:street" v="Haydenberry Drive"/>
    <tag k="addr:state" v="VT"/>
    <tag k="ref:vcgi:esiteid" v="159924"/>
  </node>
  <node id="-1781" visible="true" lat="44.62292158" lon="-73.11940343">
    <tag k="addr:city" v="Milton"/>
    <tag k="addr:housenumber" v="216"/>
    <tag k="addr:street" v="U.S. Route 7 South"/>
    <tag k="addr:state" v="VT"/>
    <tag k="ref:vcgi:esiteid" v="159931"/>
  </node>
  <node id="-1782" visible="true" lat="44.62276827" lon="-73.11895971">
    <tag k="addr:city" v="Milton"/>
    <tag k="addr:housenumber" v="15"/>
    <tag k="addr:street" v="Middle Road"/>
    <tag k="addr:state" v="VT"/>
    <tag k="ref:vcgi:esiteid" v="159932"/>
  </node>
  <node id="-1829" visible="true" lat="44.62210307" lon="-73.11859458">
    <tag k="addr:city" v="Milton"/>
    <tag k="addr:housenumber" v="20"/>
    <tag k="addr:street" v="Middle Road"/>
    <tag k="addr:state" v="VT"/>
    <tag k="ref:vcgi:esiteid" v="159979"/>
  </node>
  <node id="-1830" visible="true" lat="44.6217194" lon="-73.11874253">
    <tag k="addr:city" v="Milton"/>
    <tag k="addr:housenumber" v="26"/>
    <tag k="addr:street" v="Middle Road"/>
    <tag k="addr:state" v="VT"/>
    <tag k="ref:vcgi:esiteid" v="159980"/>
  </node>
  <node id="-1833" visible="true" lat="44.62125581" lon="-73.11887363">
    <tag k="addr:city" v="Milton"/>
    <tag k="addr:housenumber" v="30"/>
    <tag k="addr:street" v="Middle Road"/>
    <tag k="addr:state" v="VT"/>
    <tag k="ref:vcgi:esiteid" v="159983"/>
  </node>
  <node id="-1834" visible="true" lat="44.62099248" lon="-73.11895884">
    <tag k="addr:city" v="Milton"/>
    <tag k="addr:housenumber" v="34"/>
    <tag k="addr:street" v="Middle Road"/>
    <tag k="addr:state" v="VT"/>
    <tag k="ref:vcgi:esiteid" v="159984"/>
  </node>
  <node id="-1835" visible="true" lat="44.62219726" lon="-73.11913968">
    <tag k="addr:city" v="Milton"/>
    <tag k="addr:housenumber" v="21"/>
    <tag k="addr:street" v="Middle Road"/>
    <tag k="addr:state" v="VT"/>
    <tag k="ref:vcgi:esiteid" v="159985"/>
  </node>
  <node id="-1836" visible="true" lat="44.62258665" lon="-73.11899179">
    <tag k="addr:city" v="Milton"/>
    <tag k="addr:housenumber" v="17"/>
    <tag k="addr:street" v="Middle Road"/>
    <tag k="addr:state" v="VT"/>
    <tag k="ref:vcgi:esiteid" v="159986"/>
  </node>
  <node id="-1837" visible="true" lat="44.6217774" lon="-73.1196393">
    <tag k="addr:city" v="Milton"/>
    <tag k="addr:housenumber" v="29"/>
    <tag k="addr:street" v="Middle Road"/>
    <tag k="addr:state" v="VT"/>
    <tag k="ref:vcgi:esiteid" v="159987"/>
  </node>
  <node id="-1839" visible="true" lat="44.62181972" lon="-73.12275698">
    <tag k="addr:city" v="Milton"/>
    <tag k="addr:housenumber" v="3"/>
    <tag k="addr:street" v="Centre Drive"/>
    <tag k="addr:state" v="VT"/>
    <tag k="ref:vcgi:esiteid" v="159989"/>
  </node>
  <node id="-1845" visible="true" lat="44.62082087" lon="-73.12528604">
    <tag k="addr:city" v="Milton"/>
    <tag k="addr:housenumber" v="6"/>
    <tag k="addr:street" v="Bombardier Road"/>
    <tag k="addr:state" v="VT"/>
    <tag k="ref:vcgi:esiteid" v="159997"/>
  </node>
  <node id="-1856" visible="true" lat="44.62189758" lon="-73.13005045">
    <tag k="addr:city" v="Milton"/>
    <tag k="addr:housenumber" v="338"/>
    <tag k="addr:street" v="U.S. Route 7 South"/>
    <tag k="addr:state" v="VT"/>
    <tag k="ref:vcgi:esiteid" v="160008"/>
  </node>
  <node id="-1914" visible="true" lat="44.62021016" lon="-73.12410331">
    <tag k="addr:city" v="Milton"/>
    <tag k="addr:housenumber" v="26"/>
    <tag k="addr:street" v="Bombardier Road"/>
    <tag k="addr:state" v="VT"/>
    <tag k="ref:vcgi:esiteid" v="160070"/>
  </node>
  <node id="-1915" visible="true" lat="44.62071784" lon="-73.12217644">
    <tag k="addr:city" v="Milton"/>
    <tag k="addr:housenumber" v="25"/>
    <tag k="addr:street" v="Centre Drive"/>
    <tag k="addr:state" v="VT"/>
    <tag k="ref:vcgi:esiteid" v="160071"/>
  </node>
  <node id="-1916" visible="true" lat="44.62045648" lon="-73.12084944">
    <tag k="addr:city" v="Milton"/>
    <tag k="addr:housenumber" v="28"/>
    <tag k="addr:street" v="Centre Drive"/>
    <tag k="addr:state" v="VT"/>
    <tag k="ref:vcgi:esiteid" v="160072"/>
  </node>
  <node id="-1917" visible="true" lat="44.61941738" lon="-73.12212155">
    <tag k="addr:city" v="Milton"/>
    <tag k="addr:housenumber" v="42"/>
    <tag k="addr:street" v="Centre Drive"/>
    <tag k="addr:state" v="VT"/>
    <tag k="ref:vcgi:esiteid" v="160073"/>
  </node>
  <node id="-1930" visible="true" lat="44.62067982" lon="-73.11839243">
    <tag k="addr:city" v="Milton"/>
    <tag k="addr:housenumber" v="10"/>
    <tag k="addr:street" v="Shirley Avenue"/>
    <tag k="addr:state" v="VT"/>
    <tag k="ref:vcgi:esiteid" v="160091"/>
  </node>
  <node id="-1933" visible="true" lat="44.62017182" lon="-73.11817201">
    <tag k="addr:city" v="Milton"/>
    <tag k="addr:housenumber" v="11"/>
    <tag k="addr:street" v="Shirley Avenue"/>
    <tag k="addr:state" v="VT"/>
    <tag k="ref:vcgi:esiteid" v="160094"/>
  </node>
  <node id="-1934" visible="true" lat="44.62025946" lon="-73.11854366">
    <tag k="addr:city" v="Milton"/>
    <tag k="addr:housenumber" v="7"/>
    <tag k="addr:street" v="Shirley Avenue"/>
    <tag k="addr:state" v="VT"/>
    <tag k="ref:vcgi:esiteid" v="160095"/>
  </node>
  <node id="-1935" visible="true" lat="44.62031331" lon="-73.1187996">
    <tag k="addr:city" v="Milton"/>
    <tag k="addr:housenumber" v="5"/>
    <tag k="addr:street" v="Shirley Avenue"/>
    <tag k="addr:state" v="VT"/>
    <tag k="ref:vcgi:esiteid" v="160096"/>
  </node>
  <node id="-1936" visible="true" lat="44.62036548" lon="-73.11903786">
    <tag k="addr:city" v="Milton"/>
    <tag k="addr:housenumber" v="3"/>
    <tag k="addr:street" v="Shirley Avenue"/>
    <tag k="addr:state" v="VT"/>
    <tag k="ref:vcgi:esiteid" v="160097"/>
  </node>
  <node id="-1937" visible="true" lat="44.62037967" lon="-73.11920837">
    <tag k="addr:city" v="Milton"/>
    <tag k="addr:housenumber" v="44"/>
    <tag k="addr:street" v="Middle Road"/>
    <tag k="addr:state" v="VT"/>
    <tag k="ref:vcgi:esiteid" v="160098"/>
  </node>
  <node id="-1940" visible="true" lat="44.61940981" lon="-73.1191502">
    <tag k="addr:city" v="Milton"/>
    <tag k="addr:housenumber" v="54"/>
    <tag k="addr:street" v="Middle Road"/>
    <tag k="addr:state" v="VT"/>
    <tag k="ref:vcgi:esiteid" v="160101"/>
  </node>
  <node id="-3000" visible="true" lat="44.63252647" lon="-73.10986773">
    <tag k="addr:city" v="Milton"/>
    <tag k="addr:housenumber" v="42"/>
    <tag k="addr:street" v="Herrick Avenue"/>
    <tag k="addr:state" v="VT"/>
    <tag k="ref:vcgi:esiteid" v="161179"/>
  </node>
  <node id="-3404" visible="true" lat="44.67520324" lon="-73.10978728">
    <tag k="addr:city" v="Milton"/>
    <tag k="addr:housenumber" v="7"/>
    <tag k="addr:street" v="Lakeside Avenue"/>
    <tag k="addr:state" v="VT"/>
    <tag k="ref:vcgi:esiteid" v="161588"/>
  </node>
  <node id="-3445" visible="true" lat="44.60920355" lon="-73.15623264">
    <tag k="addr:city" v="Milton"/>
    <tag k="addr:housenumber" v="789"/>
    <tag k="addr:street" v="U.S. Route 7 South"/>
    <tag k="addr:state" v="VT"/>
    <tag k="ref:vcgi:esiteid" v="161654"/>
  </node>
  <node id="-3453" visible="true" lat="44.62741851" lon="-73.14254432">
    <tag k="addr:city" v="Milton"/>
    <tag k="addr:housenumber" v="484"/>
    <tag k="addr:street" v="U.S. Route 7 South"/>
    <tag k="addr:state" v="VT"/>
    <tag k="ref:vcgi:esiteid" v="161678"/>
  </node>
  <node id="-3456" visible="true" lat="44.6249256" lon="-73.13518227">
    <tag k="addr:city" v="Milton"/>
    <tag k="addr:housenumber" v="4"/>
    <tag k="addr:street" v="Pecor Avenue"/>
    <tag k="addr:state" v="VT"/>
    <tag k="ref:vcgi:esiteid" v="161684"/>
  </node>
  <node id="-3457" visible="true" lat="44.62501747" lon="-73.13510385">
    <tag k="addr:city" v="Milton"/>
    <tag k="addr:housenumber" v="12"/>
    <tag k="addr:street" v="Pecor Avenue"/>
    <tag k="addr:state" v="VT"/>
    <tag k="ref:vcgi:esiteid" v="161685"/>
  </node>
  <node id="-3458" visible="true" lat="44.62510507" lon="-73.13502039">
    <tag k="addr:city" v="Milton"/>
    <tag k="addr:housenumber" v="20"/>
    <tag k="addr:street" v="Pecor Avenue"/>
    <tag k="addr:state" v="VT"/>
    <tag k="ref:vcgi:esiteid" v="161686"/>
  </node>
  <node id="-3459" visible="true" lat="44.6252091" lon="-73.13494835">
    <tag k="addr:city" v="Milton"/>
    <tag k="addr:housenumber" v="26"/>
    <tag k="addr:street" v="Pecor Avenue"/>
    <tag k="addr:state" v="VT"/>
    <tag k="ref:vcgi:esiteid" v="161687"/>
  </node>
  <node id="-3460" visible="true" lat="44.62558963" lon="-73.13419054">
    <tag k="addr:city" v="Milton"/>
    <tag k="addr:housenumber" v="73"/>
    <tag k="addr:street" v="Pecor Avenue"/>
    <tag k="addr:state" v="VT"/>
    <tag k="ref:vcgi:esiteid" v="161688"/>
  </node>
  <node id="-3461" visible="true" lat="44.62577486" lon="-73.13401073">
    <tag k="addr:city" v="Milton"/>
    <tag k="addr:housenumber" v="89"/>
    <tag k="addr:street" v="Pecor Avenue"/>
    <tag k="addr:state" v="VT"/>
    <tag k="ref:vcgi:esiteid" v="161689"/>
  </node>
  <node id="-3462" visible="true" lat="44.62583585" lon="-73.13489984">
    <tag k="addr:city" v="Milton"/>
    <tag k="addr:housenumber" v="22"/>
    <tag k="addr:street" v="Rita Way"/>
    <tag k="addr:state" v="VT"/>
    <tag k="ref:vcgi:esiteid" v="161690"/>
  </node>
  <node id="-3487" visible="true" lat="44.62032888" lon="-73.12557265">
    <tag k="addr:city" v="Milton"/>
    <tag k="addr:housenumber" v="13"/>
    <tag k="addr:street" v="Bombardier Road"/>
    <tag k="addr:state" v="VT"/>
    <tag k="ref:vcgi:esiteid" v="161740"/>
  </node>
  <node id="-3489" visible="true" lat="44.61981412" lon="-73.12319155">
    <tag k="addr:city" v="Milton"/>
    <tag k="addr:housenumber" v="34"/>
    <tag k="addr:street" v="Bombardier Road"/>
    <tag k="addr:state" v="VT"/>
    <tag k="ref:vcgi:esiteid" v="161742"/>
  </node>
  <node id="-3544" visible="true" lat="44.62058204" lon="-73.11787846">
    <tag k="addr:city" v="Milton"/>
    <tag k="addr:housenumber" v="14"/>
    <tag k="addr:street" v="Shirley Avenue"/>
    <tag k="addr:state" v="VT"/>
    <tag k="ref:vcgi:esiteid" v="161820"/>
  </node>
  <node id="-3578" visible="true" lat="44.62107787" lon="-73.11889114">
    <tag k="addr:city" v="Milton"/>
    <tag k="addr:housenumber" v="32"/>
    <tag k="addr:street" v="Middle Road"/>
    <tag k="addr:state" v="VT"/>
    <tag k="ref:vcgi:esiteid" v="161856"/>
  </node>
  <node id="-3592" visible="true" lat="44.6339337" lon="-73.15296158">
    <tag k="addr:city" v="Milton"/>
    <tag k="addr:housenumber" v="71"/>
    <tag k="addr:street" v="Owen Court"/>
    <tag k="addr:state" v="VT"/>
    <tag k="ref:vcgi:esiteid" v="161883"/>
  </node>
  <node id="-3593" visible="true" lat="44.63333561" lon="-73.15326344">
    <tag k="addr:city" v="Milton"/>
    <tag k="addr:housenumber" v="117"/>
    <tag k="addr:street" v="West Milton Road"/>
    <tag k="addr:state" v="VT"/>
    <tag k="ref:vcgi:esiteid" v="161884"/>
  </node>
  <node id="-3612" visible="true" lat="44.63481481" lon="-73.15412634">
    <tag k="addr:city" v="Milton"/>
    <tag k="addr:housenumber" v="193"/>
    <tag k="addr:street" v="Owen Court"/>
    <tag k="addr:state" v="VT"/>
    <tag k="ref:vcgi:esiteid" v="161915"/>
  </node>
  <node id="-3613" visible="true" lat="44.63472174" lon="-73.15353377">
    <tag k="addr:city" v="Milton"/>
    <tag k="addr:housenumber" v="182"/>
    <tag k="addr:street" v="Owen Court"/>
    <tag k="addr:state" v="VT"/>
    <tag k="ref:vcgi:esiteid" v="161916"/>
  </node>
  <node id="-3614" visible="true" lat="44.6350237" lon="-73.15310087">
    <tag k="addr:city" v="Milton"/>
    <tag k="addr:housenumber" v="153"/>
    <tag k="addr:street" v="Owen Court"/>
    <tag k="addr:state" v="VT"/>
    <tag k="ref:vcgi:esiteid" v="161917"/>
  </node>
  <node id="-3615" visible="true" lat="44.63480342" lon="-73.15309598">
    <tag k="addr:city" v="Milton"/>
    <tag k="addr:housenumber" v="141"/>
    <tag k="addr:street" v="Owen Court"/>
    <tag k="addr:state" v="VT"/>
    <tag k="ref:vcgi:esiteid" v="161918"/>
  </node>
  <node id="-3782" visible="true" lat="44.64974116" lon="-73.11625485">
    <tag k="addr:city" v="Milton"/>
    <tag k="addr:housenumber" v="68"/>
    <tag k="addr:street" v="U.S. Route 7 North"/>
    <tag k="addr:state" v="VT"/>
    <tag k="ref:vcgi:esiteid" v="162159"/>
  </node>
  <node id="-3783" visible="true" lat="44.65095539" lon="-73.11640289">
    <tag k="addr:city" v="Milton"/>
    <tag k="addr:housenumber" v="74"/>
    <tag k="addr:street" v="U.S. Route 7 North"/>
    <tag k="addr:state" v="VT"/>
    <tag k="ref:vcgi:esiteid" v="162160"/>
  </node>
  <node id="-3784" visible="true" lat="44.65457703" lon="-73.11668092">
    <tag k="addr:city" v="Milton"/>
    <tag k="addr:housenumber" v="12"/>
    <tag k="addr:street" v="Jonzetta Court"/>
    <tag k="addr:state" v="VT"/>
    <tag k="ref:vcgi:esiteid" v="162161"/>
  </node>
  <node id="-3797" visible="true" lat="44.65212668" lon="-73.11456198">
    <tag k="addr:city" v="Milton"/>
    <tag k="addr:housenumber" v="95"/>
    <tag k="addr:street" v="U.S. Route 7 North"/>
    <tag k="addr:state" v="VT"/>
    <tag k="ref:vcgi:esiteid" v="162180"/>
  </node>
  <node id="-3798" visible="true" lat="44.65277127" lon="-73.12886424">
    <tag k="addr:city" v="Milton"/>
    <tag k="addr:housenumber" v="59"/>
    <tag k="addr:street" v="Sheldon Road"/>
    <tag k="addr:state" v="VT"/>
    <tag k="ref:vcgi:esiteid" v="162181"/>
  </node>
  <node id="-3799" visible="true" lat="44.6495235" lon="-73.12595124">
    <tag k="addr:city" v="Milton"/>
    <tag k="addr:housenumber" v="24"/>
    <tag k="addr:street" v="Highland Avenue"/>
    <tag k="addr:state" v="VT"/>
    <tag k="ref:vcgi:esiteid" v="162182"/>
  </node>
  <node id="-3800" visible="true" lat="44.64909694" lon="-73.12238238">
    <tag k="addr:city" v="Milton"/>
    <tag k="addr:housenumber" v="82"/>
    <tag k="addr:street" v="Overlake Drive"/>
    <tag k="addr:state" v="VT"/>
    <tag k="ref:vcgi:esiteid" v="162183"/>
  </node>
  <node id="-3801" visible="true" lat="44.64902959" lon="-73.12199323">
    <tag k="addr:city" v="Milton"/>
    <tag k="addr:housenumber" v="62"/>
    <tag k="addr:street" v="Highland Avenue"/>
    <tag k="addr:state" v="VT"/>
    <tag k="ref:vcgi:esiteid" v="162184"/>
  </node>
  <node id="-3802" visible="true" lat="44.64861102" lon="-73.12232873">
    <tag k="addr:city" v="Milton"/>
    <tag k="addr:housenumber" v="61"/>
    <tag k="addr:street" v="Highland Avenue"/>
    <tag k="addr:state" v="VT"/>
    <tag k="ref:vcgi:esiteid" v="162185"/>
  </node>
  <node id="-3803" visible="true" lat="44.64854411" lon="-73.12196271">
    <tag k="addr:city" v="Milton"/>
    <tag k="addr:housenumber" v="65"/>
    <tag k="addr:street" v="Highland Avenue"/>
    <tag k="addr:state" v="VT"/>
    <tag k="ref:vcgi:esiteid" v="162186"/>
  </node>
  <node id="-3804" visible="true" lat="44.64893407" lon="-73.12161927">
    <tag k="addr:city" v="Milton"/>
    <tag k="addr:housenumber" v="66"/>
    <tag k="addr:street" v="Highland Avenue"/>
    <tag k="addr:state" v="VT"/>
    <tag k="ref:vcgi:esiteid" v="162187"/>
  </node>
  <node id="-3805" visible="true" lat="44.64893079" lon="-73.12112725">
    <tag k="addr:city" v="Milton"/>
    <tag k="addr:housenumber" v="70"/>
    <tag k="addr:street" v="Highland Avenue"/>
    <tag k="addr:state" v="VT"/>
    <tag k="ref:vcgi:esiteid" v="162188"/>
  </node>
  <node id="-3806" visible="true" lat="44.64844768" lon="-73.12145518">
    <tag k="addr:city" v="Milton"/>
    <tag k="addr:housenumber" v="69"/>
    <tag k="addr:street" v="Highland Avenue"/>
    <tag k="addr:state" v="VT"/>
    <tag k="ref:vcgi:esiteid" v="162189"/>
  </node>
  <node id="-3807" visible="true" lat="44.64891611" lon="-73.12075951">
    <tag k="addr:city" v="Milton"/>
    <tag k="addr:housenumber" v="74"/>
    <tag k="addr:street" v="Highland Avenue"/>
    <tag k="addr:state" v="VT"/>
    <tag k="ref:vcgi:esiteid" v="162190"/>
  </node>
  <node id="-3808" visible="true" lat="44.65053789" lon="-73.11865747">
    <tag k="addr:city" v="Milton"/>
    <tag k="addr:housenumber" v="21"/>
    <tag k="addr:street" v="Overlake Drive"/>
    <tag k="addr:state" v="VT"/>
    <tag k="ref:vcgi:esiteid" v="162193"/>
  </node>
  <node id="-3809" visible="true" lat="44.65016474" lon="-73.11919693">
    <tag k="addr:city" v="Milton"/>
    <tag k="addr:housenumber" v="22"/>
    <tag k="addr:street" v="Overlake Drive"/>
    <tag k="addr:state" v="VT"/>
    <tag k="ref:vcgi:esiteid" v="162194"/>
  </node>
  <node id="-3810" visible="true" lat="44.65061641" lon="-73.11910402">
    <tag k="addr:city" v="Milton"/>
    <tag k="addr:housenumber" v="25"/>
    <tag k="addr:street" v="Overlake Drive"/>
    <tag k="addr:state" v="VT"/>
    <tag k="ref:vcgi:esiteid" v="162195"/>
  </node>
  <node id="-3811" visible="true" lat="44.65068973" lon="-73.1194605">
    <tag k="addr:city" v="Milton"/>
    <tag k="addr:housenumber" v="29"/>
    <tag k="addr:street" v="Overlake Drive"/>
    <tag k="addr:state" v="VT"/>
    <tag k="ref:vcgi:esiteid" v="162196"/>
  </node>
  <node id="-3812" visible="true" lat="44.65032409" lon="-73.12000497">
    <tag k="addr:city" v="Milton"/>
    <tag k="addr:housenumber" v="32"/>
    <tag k="addr:street" v="Overlake Drive"/>
    <tag k="addr:state" v="VT"/>
    <tag k="ref:vcgi:esiteid" v="162198"/>
  </node>
  <node id="-3813" visible="true" lat="44.65041469" lon="-73.12035592">
    <tag k="addr:city" v="Milton"/>
    <tag k="addr:housenumber" v="36"/>
    <tag k="addr:street" v="Overlake Drive"/>
    <tag k="addr:state" v="VT"/>
    <tag k="ref:vcgi:esiteid" v="162199"/>
  </node>
  <node id="-3814" visible="true" lat="44.6508238" lon="-73.12005837">
    <tag k="addr:city" v="Milton"/>
    <tag k="addr:housenumber" v="37"/>
    <tag k="addr:street" v="Overlake Drive"/>
    <tag k="addr:state" v="VT"/>
    <tag k="ref:vcgi:esiteid" v="162200"/>
  </node>
  <node id="-3815" visible="true" lat="44.65092002" lon="-73.12052268">
    <tag k="addr:city" v="Milton"/>
    <tag k="addr:housenumber" v="41"/>
    <tag k="addr:street" v="Overlake Drive"/>
    <tag k="addr:state" v="VT"/>
    <tag k="ref:vcgi:esiteid" v="162201"/>
  </node>
  <node id="-3816" visible="true" lat="44.65052089" lon="-73.1208719">
    <tag k="addr:city" v="Milton"/>
    <tag k="addr:housenumber" v="40"/>
    <tag k="addr:street" v="Overlake Drive"/>
    <tag k="addr:state" v="VT"/>
    <tag k="ref:vcgi:esiteid" v="162202"/>
  </node>
  <node id="-3817" visible="true" lat="44.65059713" lon="-73.1212138">
    <tag k="addr:city" v="Milton"/>
    <tag k="addr:housenumber" v="44"/>
    <tag k="addr:street" v="Overlake Drive"/>
    <tag k="addr:state" v="VT"/>
    <tag k="ref:vcgi:esiteid" v="162203"/>
  </node>
  <node id="-3818" visible="true" lat="44.651041" lon="-73.12093048">
    <tag k="addr:city" v="Milton"/>
    <tag k="addr:housenumber" v="45"/>
    <tag k="addr:street" v="Overlake Drive"/>
    <tag k="addr:state" v="VT"/>
    <tag k="ref:vcgi:esiteid" v="162204"/>
  </node>
  <node id="-3819" visible="true" lat="44.65120143" lon="-73.12191927">
    <tag k="addr:city" v="Milton"/>
    <tag k="addr:housenumber" v="51"/>
    <tag k="addr:street" v="Overlake Drive"/>
    <tag k="addr:state" v="VT"/>
    <tag k="ref:vcgi:esiteid" v="162206"/>
  </node>
  <node id="-3820" visible="true" lat="44.65096517" lon="-73.12212753">
    <tag k="addr:city" v="Milton"/>
    <tag k="addr:housenumber" v="57"/>
    <tag k="addr:street" v="Overlake Drive"/>
    <tag k="addr:state" v="VT"/>
    <tag k="ref:vcgi:esiteid" v="162207"/>
  </node>
  <node id="-3821" visible="true" lat="44.65052207" lon="-73.12169758">
    <tag k="addr:city" v="Milton"/>
    <tag k="addr:housenumber" v="48"/>
    <tag k="addr:street" v="Overlake Drive"/>
    <tag k="addr:state" v="VT"/>
    <tag k="ref:vcgi:esiteid" v="162208"/>
  </node>
  <node id="-3822" visible="true" lat="44.65067745" lon="-73.12217984">
    <tag k="addr:city" v="Milton"/>
    <tag k="addr:housenumber" v="59"/>
    <tag k="addr:street" v="Overlake Drive"/>
    <tag k="addr:state" v="VT"/>
    <tag k="ref:vcgi:esiteid" v="162209"/>
  </node>
  <node id="-3823" visible="true" lat="44.65023179" lon="-73.1218769">
    <tag k="addr:city" v="Milton"/>
    <tag k="addr:housenumber" v="62"/>
    <tag k="addr:street" v="Overlake Drive"/>
    <tag k="addr:state" v="VT"/>
    <tag k="ref:vcgi:esiteid" v="162210"/>
  </node>
  <node id="-3824" visible="true" lat="44.65040381" lon="-73.12247946">
    <tag k="addr:city" v="Milton"/>
    <tag k="addr:housenumber" v="63"/>
    <tag k="addr:street" v="Overlake Drive"/>
    <tag k="addr:state" v="VT"/>
    <tag k="ref:vcgi:esiteid" v="162211"/>
  </node>
  <node id="-3830" visible="true" lat="44.64152517" lon="-73.13555022">
    <tag k="addr:city" v="Milton"/>
    <tag k="addr:housenumber" v="270"/>
    <tag k="addr:street" v="Poor Farm Road"/>
    <tag k="addr:state" v="VT"/>
    <tag k="ref:vcgi:esiteid" v="162221"/>
  </node>
  <node id="-3833" visible="true" lat="44.64936116" lon="-73.12304084">
    <tag k="addr:city" v="Milton"/>
    <tag k="addr:housenumber" v="83"/>
    <tag k="addr:street" v="Overlake Drive"/>
    <tag k="addr:state" v="VT"/>
    <tag k="ref:vcgi:esiteid" v="162225"/>
  </node>
  <node id="-3834" visible="true" lat="44.64959101" lon="-73.12303635">
    <tag k="addr:city" v="Milton"/>
    <tag k="addr:housenumber" v="79"/>
    <tag k="addr:street" v="Overlake Drive"/>
    <tag k="addr:state" v="VT"/>
    <tag k="ref:vcgi:esiteid" v="162226"/>
  </node>
  <node id="-3835" visible="true" lat="44.64986716" lon="-73.12285031">
    <tag k="addr:city" v="Milton"/>
    <tag k="addr:housenumber" v="75"/>
    <tag k="addr:street" v="Overlake Drive"/>
    <tag k="addr:state" v="VT"/>
    <tag k="ref:vcgi:esiteid" v="162227"/>
  </node>
  <node id="-3836" visible="true" lat="44.64966622" lon="-73.12224669">
    <tag k="addr:city" v="Milton"/>
    <tag k="addr:housenumber" v="72"/>
    <tag k="addr:street" v="Overlake Drive"/>
    <tag k="addr:state" v="VT"/>
    <tag k="ref:vcgi:esiteid" v="162228"/>
  </node>
  <node id="-3838" visible="true" lat="44.65011335" lon="-73.12149584">
    <tag k="addr:city" v="Milton"/>
    <tag k="addr:housenumber" v="32"/>
    <tag k="addr:street" v="Shannon Way"/>
    <tag k="addr:state" v="VT"/>
    <tag k="ref:vcgi:esiteid" v="162231"/>
  </node>
  <node id="-3839" visible="true" lat="44.64959701" lon="-73.12172647">
    <tag k="addr:city" v="Milton"/>
    <tag k="addr:housenumber" v="33"/>
    <tag k="addr:street" v="Shannon Way"/>
    <tag k="addr:state" v="VT"/>
    <tag k="ref:vcgi:esiteid" v="162232"/>
  </node>
  <node id="-3840" visible="true" lat="44.65003898" lon="-73.1211186">
    <tag k="addr:city" v="Milton"/>
    <tag k="addr:housenumber" v="28"/>
    <tag k="addr:street" v="Shannon Way"/>
    <tag k="addr:state" v="VT"/>
    <tag k="ref:vcgi:esiteid" v="162233"/>
  </node>
  <node id="-3841" visible="true" lat="44.64952761" lon="-73.12141133">
    <tag k="addr:city" v="Milton"/>
    <tag k="addr:housenumber" v="29"/>
    <tag k="addr:street" v="Shannon Way"/>
    <tag k="addr:state" v="VT"/>
    <tag k="ref:vcgi:esiteid" v="162234"/>
  </node>
  <node id="-3842" visible="true" lat="44.64944706" lon="-73.12100462">
    <tag k="addr:city" v="Milton"/>
    <tag k="addr:housenumber" v="25"/>
    <tag k="addr:street" v="Shannon Way"/>
    <tag k="addr:state" v="VT"/>
    <tag k="ref:vcgi:esiteid" v="162235"/>
  </node>
  <node id="-3843" visible="true" lat="44.64995338" lon="-73.12064759">
    <tag k="addr:city" v="Milton"/>
    <tag k="addr:housenumber" v="24"/>
    <tag k="addr:street" v="Shannon Way"/>
    <tag k="addr:state" v="VT"/>
    <tag k="ref:vcgi:esiteid" v="162236"/>
  </node>
  <node id="-3844" visible="true" lat="44.64870456" lon="-73.12274559">
    <tag k="addr:city" v="Milton"/>
    <tag k="addr:housenumber" v="88"/>
    <tag k="addr:street" v="Overlake Drive"/>
    <tag k="addr:state" v="VT"/>
    <tag k="ref:vcgi:esiteid" v="162238"/>
  </node>
  <node id="-3845" visible="true" lat="44.64886074" lon="-73.12332557">
    <tag k="addr:city" v="Milton"/>
    <tag k="addr:housenumber" v="89"/>
    <tag k="addr:street" v="Overlake Drive"/>
    <tag k="addr:state" v="VT"/>
    <tag k="ref:vcgi:esiteid" v="162239"/>
  </node>
  <node id="-3846" visible="true" lat="44.64837838" lon="-73.12296619">
    <tag k="addr:city" v="Milton"/>
    <tag k="addr:housenumber" v="94"/>
    <tag k="addr:street" v="Overlake Drive"/>
    <tag k="addr:state" v="VT"/>
    <tag k="ref:vcgi:esiteid" v="162240"/>
  </node>
  <node id="-3847" visible="true" lat="44.64859112" lon="-73.1236472">
    <tag k="addr:city" v="Milton"/>
    <tag k="addr:housenumber" v="95"/>
    <tag k="addr:street" v="Overlake Drive"/>
    <tag k="addr:state" v="VT"/>
    <tag k="ref:vcgi:esiteid" v="162241"/>
  </node>
  <node id="-3848" visible="true" lat="44.64821496" lon="-73.12382879">
    <tag k="addr:city" v="Milton"/>
    <tag k="addr:housenumber" v="99"/>
    <tag k="addr:street" v="Overlake Drive"/>
    <tag k="addr:state" v="VT"/>
    <tag k="ref:vcgi:esiteid" v="162242"/>
  </node>
  <node id="-3849" visible="true" lat="44.64036416" lon="-73.12506807">
    <tag k="addr:city" v="Milton"/>
    <tag k="addr:housenumber" v="24"/>
    <tag k="addr:street" v="Waterwheel Way"/>
    <tag k="addr:state" v="VT"/>
    <tag k="ref:vcgi:esiteid" v="162245"/>
  </node>
  <node id="-3859" visible="true" lat="44.62272793" lon="-73.11960384">
    <tag k="addr:city" v="Milton"/>
    <tag k="addr:housenumber" v="218"/>
    <tag k="addr:street" v="U.S. Route 7 South"/>
    <tag k="addr:state" v="VT"/>
    <tag k="ref:vcgi:esiteid" v="162258"/>
  </node>
  <node id="-3863" visible="true" lat="44.65642871" lon="-73.11303158">
    <tag k="addr:city" v="Milton"/>
    <tag k="addr:housenumber" v="131"/>
    <tag k="addr:street" v="U.S. Route 7 North"/>
    <tag k="addr:state" v="VT"/>
    <tag k="ref:vcgi:esiteid" v="162262"/>
  </node>
  <node id="-3864" visible="true" lat="44.65939709" lon="-73.13113377">
    <tag k="addr:city" v="Milton"/>
    <tag k="addr:housenumber" v="206"/>
    <tag k="addr:street" v="Lake Road"/>
    <tag k="addr:state" v="VT"/>
    <tag k="ref:vcgi:esiteid" v="162263"/>
  </node>
  <node id="-3865" visible="true" lat="44.66052464" lon="-73.13356433">
    <tag k="addr:city" v="Milton"/>
    <tag k="addr:housenumber" v="237"/>
    <tag k="addr:street" v="Lake Road"/>
    <tag k="addr:state" v="VT"/>
    <tag k="ref:vcgi:esiteid" v="162264"/>
  </node>
  <node id="-3866" visible="true" lat="44.66060329" lon="-73.13408821">
    <tag k="addr:city" v="Milton"/>
    <tag k="addr:housenumber" v="243"/>
    <tag k="addr:street" v="Lake Road"/>
    <tag k="addr:state" v="VT"/>
    <tag k="ref:vcgi:esiteid" v="162265"/>
  </node>
  <node id="-3867" visible="true" lat="44.66069173" lon="-73.13472604">
    <tag k="addr:city" v="Milton"/>
    <tag k="addr:housenumber" v="249"/>
    <tag k="addr:street" v="Lake Road"/>
    <tag k="addr:state" v="VT"/>
    <tag k="ref:vcgi:esiteid" v="162266"/>
  </node>
  <node id="-3868" visible="true" lat="44.66073656" lon="-73.13517324">
    <tag k="addr:city" v="Milton"/>
    <tag k="addr:housenumber" v="251"/>
    <tag k="addr:street" v="Lake Road"/>
    <tag k="addr:state" v="VT"/>
    <tag k="ref:vcgi:esiteid" v="162267"/>
  </node>
  <node id="-3869" visible="true" lat="44.66076935" lon="-73.1356987">
    <tag k="addr:city" v="Milton"/>
    <tag k="addr:housenumber" v="257"/>
    <tag k="addr:street" v="Lake Road"/>
    <tag k="addr:state" v="VT"/>
    <tag k="ref:vcgi:esiteid" v="162268"/>
  </node>
  <node id="-3870" visible="true" lat="44.66080931" lon="-73.13624766">
    <tag k="addr:city" v="Milton"/>
    <tag k="addr:housenumber" v="263"/>
    <tag k="addr:street" v="Lake Road"/>
    <tag k="addr:state" v="VT"/>
    <tag k="ref:vcgi:esiteid" v="162269"/>
  </node>
  <node id="-3875" visible="true" lat="44.66160935" lon="-73.12300845">
    <tag k="addr:city" v="Milton"/>
    <tag k="addr:housenumber" v="28"/>
    <tag k="addr:street" v="Manley Road"/>
    <tag k="addr:state" v="VT"/>
    <tag k="ref:vcgi:esiteid" v="162274"/>
  </node>
  <node id="-4051" visible="true" lat="44.60353021" lon="-73.16199303">
    <tag k="addr:city" v="Milton"/>
    <tag k="addr:housenumber" v="11"/>
    <tag k="addr:street" v="Clapper Road"/>
    <tag k="addr:state" v="VT"/>
    <tag k="ref:vcgi:esiteid" v="162458"/>
  </node>
  <node id="-4074" visible="true" lat="44.65609014" lon="-73.11263727">
    <tag k="addr:city" v="Milton"/>
    <tag k="addr:housenumber" v="6"/>
    <tag k="addr:street" v="Arthur Lane"/>
    <tag k="addr:state" v="VT"/>
    <tag k="ref:vcgi:esiteid" v="162483"/>
  </node>
  <node id="-4076" visible="true" lat="44.6551038" lon="-73.11495129">
    <tag k="addr:city" v="Milton"/>
    <tag k="addr:housenumber" v="118"/>
    <tag k="addr:street" v="U.S. Route 7 North"/>
    <tag k="addr:state" v="VT"/>
    <tag k="ref:vcgi:esiteid" v="162485"/>
  </node>
  <node id="-4078" visible="true" lat="44.65692796" lon="-73.11500346">
    <tag k="addr:city" v="Milton"/>
    <tag k="addr:housenumber" v="50"/>
    <tag k="addr:street" v="Jonzetta Court"/>
    <tag k="addr:state" v="VT"/>
    <tag k="ref:vcgi:esiteid" v="162487"/>
  </node>
  <node id="-4108" visible="true" lat="44.61974805" lon="-73.12299672">
    <tag k="addr:city" v="Milton"/>
    <tag k="addr:housenumber" v="36"/>
    <tag k="addr:street" v="Bombardier Road"/>
    <tag k="addr:state" v="VT"/>
    <tag k="ref:vcgi:esiteid" v="162521"/>
  </node>
  <node id="-4115" visible="true" lat="44.61930899" lon="-73.11898702">
    <tag k="addr:city" v="Milton"/>
    <tag k="addr:housenumber" v="58"/>
    <tag k="addr:street" v="Middle Road"/>
    <tag k="addr:state" v="VT"/>
    <tag k="ref:vcgi:esiteid" v="162529"/>
  </node>
  <node id="-4129" visible="true" lat="44.63963431" lon="-73.13607194">
    <tag k="addr:city" v="Milton"/>
    <tag k="addr:housenumber" v="300"/>
    <tag k="addr:street" v="Poor Farm Road"/>
    <tag k="addr:state" v="VT"/>
    <tag k="ref:vcgi:esiteid" v="162543"/>
  </node>
  <node id="-4145" visible="true" lat="44.61982379" lon="-73.12167955">
    <tag k="addr:city" v="Milton"/>
    <tag k="addr:housenumber" v="34"/>
    <tag k="addr:street" v="Centre Drive"/>
    <tag k="addr:state" v="VT"/>
    <tag k="ref:vcgi:esiteid" v="162567"/>
  </node>
  <node id="-4146" visible="true" lat="44.61976894" lon="-73.12153046">
    <tag k="addr:city" v="Milton"/>
    <tag k="addr:housenumber" v="38"/>
    <tag k="addr:street" v="Centre Drive"/>
    <tag k="addr:state" v="VT"/>
    <tag k="ref:vcgi:esiteid" v="162568"/>
  </node>
  <node id="-4148" visible="true" lat="44.65136532" lon="-73.11532105">
    <tag k="addr:city" v="Milton"/>
    <tag k="addr:housenumber" v="86"/>
    <tag k="addr:street" v="U.S. Route 7 North"/>
    <tag k="addr:state" v="VT"/>
    <tag k="ref:vcgi:esiteid" v="162570"/>
  </node>
  <node id="-4149" visible="true" lat="44.61915335" lon="-73.12433517">
    <tag k="addr:city" v="Milton"/>
    <tag k="addr:housenumber" v="39"/>
    <tag k="addr:street" v="Bombardier Road"/>
    <tag k="addr:state" v="VT"/>
    <tag k="ref:vcgi:esiteid" v="162571"/>
  </node>
  <node id="-4229" visible="true" lat="44.62500139" lon="-73.13532865">
    <tag k="addr:city" v="Milton"/>
    <tag k="addr:housenumber" v="401"/>
    <tag k="addr:street" v="U.S. Route 7 South"/>
    <tag k="addr:state" v="VT"/>
    <tag k="ref:vcgi:esiteid" v="330981"/>
  </node>
  <node id="-4246" visible="true" lat="44.63420002" lon="-73.15300394">
    <tag k="addr:city" v="Milton"/>
    <tag k="addr:housenumber" v="103"/>
    <tag k="addr:street" v="Owen Court"/>
    <tag k="addr:state" v="VT"/>
    <tag k="ref:vcgi:esiteid" v="341516"/>
  </node>
  <node id="-4270" visible="true" lat="44.62566586" lon="-73.13055594">
    <tag k="addr:city" v="Milton"/>
    <tag k="addr:housenumber" v="36"/>
    <tag k="addr:street" v="Landfill Road"/>
    <tag k="addr:state" v="VT"/>
    <tag k="ref:vcgi:esiteid" v="341925"/>
  </node>
  <node id="-4321" visible="true" lat="44.64705463" lon="-73.12130344">
    <tag k="addr:city" v="Milton"/>
    <tag k="addr:housenumber" v="5"/>
    <tag k="addr:street" v="Pinnacle Drive"/>
    <tag k="addr:state" v="VT"/>
    <tag k="ref:vcgi:esiteid" v="342012"/>
  </node>
  <node id="-4322" visible="true" lat="44.64718568" lon="-73.12029629">
    <tag k="addr:city" v="Milton"/>
    <tag k="addr:housenumber" v="11"/>
    <tag k="addr:street" v="Pinnacle Drive"/>
    <tag k="addr:state" v="VT"/>
    <tag k="ref:vcgi:esiteid" v="342013"/>
  </node>
  <node id="-4323" visible="true" lat="44.64718043" lon="-73.11972159">
    <tag k="addr:city" v="Milton"/>
    <tag k="addr:housenumber" v="17"/>
    <tag k="addr:street" v="Pinnacle Drive"/>
    <tag k="addr:state" v="VT"/>
    <tag k="ref:vcgi:esiteid" v="342014"/>
  </node>
  <node id="-4324" visible="true" lat="44.64731058" lon="-73.11887861">
    <tag k="addr:city" v="Milton"/>
    <tag k="addr:housenumber" v="23"/>
    <tag k="addr:street" v="Pinnacle Drive"/>
    <tag k="addr:state" v="VT"/>
    <tag k="ref:vcgi:esiteid" v="342015"/>
  </node>
  <node id="-4325" visible="true" lat="44.64781716" lon="-73.11963455">
    <tag k="addr:city" v="Milton"/>
    <tag k="addr:housenumber" v="20"/>
    <tag k="addr:street" v="Pinnacle Drive"/>
    <tag k="addr:state" v="VT"/>
    <tag k="ref:vcgi:esiteid" v="342016"/>
  </node>
  <node id="-4326" visible="true" lat="44.64804656" lon="-73.11901543">
    <tag k="addr:city" v="Milton"/>
    <tag k="addr:housenumber" v="26"/>
    <tag k="addr:street" v="Pinnacle Drive"/>
    <tag k="addr:state" v="VT"/>
    <tag k="ref:vcgi:esiteid" v="342017"/>
  </node>
  <node id="-4327" visible="true" lat="44.64824291" lon="-73.11831387">
    <tag k="addr:city" v="Milton"/>
    <tag k="addr:housenumber" v="3"/>
    <tag k="addr:street" v="Shamrock Way"/>
    <tag k="addr:state" v="VT"/>
    <tag k="ref:vcgi:esiteid" v="342018"/>
  </node>
  <node id="-4328" visible="true" lat="44.64780874" lon="-73.11809816">
    <tag k="addr:city" v="Milton"/>
    <tag k="addr:housenumber" v="15"/>
    <tag k="addr:street" v="Shamrock Way"/>
    <tag k="addr:state" v="VT"/>
    <tag k="ref:vcgi:esiteid" v="342019"/>
  </node>
  <node id="-4330" visible="true" lat="44.64831407" lon="-73.1175406">
    <tag k="addr:city" v="Milton"/>
    <tag k="addr:housenumber" v="16"/>
    <tag k="addr:street" v="Shamrock Way"/>
    <tag k="addr:state" v="VT"/>
    <tag k="ref:vcgi:esiteid" v="342021"/>
  </node>
  <node id="-4335" visible="true" lat="44.65042918" lon="-73.11809081">
    <tag k="addr:city" v="Milton"/>
    <tag k="addr:housenumber" v="15"/>
    <tag k="addr:street" v="Overlake Drive"/>
    <tag k="addr:state" v="VT"/>
    <tag k="ref:vcgi:esiteid" v="342026"/>
  </node>
  <node id="-4336" visible="true" lat="44.64999241" lon="-73.11835591">
    <tag k="addr:city" v="Milton"/>
    <tag k="addr:housenumber" v="14"/>
    <tag k="addr:street" v="Overlake Drive"/>
    <tag k="addr:state" v="VT"/>
    <tag k="ref:vcgi:esiteid" v="342027"/>
  </node>
  <node id="-4337" visible="true" lat="44.6500902" lon="-73.11884953">
    <tag k="addr:city" v="Milton"/>
    <tag k="addr:housenumber" v="20"/>
    <tag k="addr:street" v="Overlake Drive"/>
    <tag k="addr:state" v="VT"/>
    <tag k="ref:vcgi:esiteid" v="342028"/>
  </node>
  <node id="-4339" visible="true" lat="44.64957022" lon="-73.11901991">
    <tag k="addr:city" v="Milton"/>
    <tag k="addr:housenumber" v="6"/>
    <tag k="addr:street" v="Shannon Way"/>
    <tag k="addr:state" v="VT"/>
    <tag k="ref:vcgi:esiteid" v="342030"/>
  </node>
  <node id="-4340" visible="true" lat="44.64974436" lon="-73.11932669">
    <tag k="addr:city" v="Milton"/>
    <tag k="addr:housenumber" v="10"/>
    <tag k="addr:street" v="Shannon Way"/>
    <tag k="addr:state" v="VT"/>
    <tag k="ref:vcgi:esiteid" v="342031"/>
  </node>
  <node id="-4341" visible="true" lat="44.64977454" lon="-73.11993686">
    <tag k="addr:city" v="Milton"/>
    <tag k="addr:housenumber" v="16"/>
    <tag k="addr:street" v="Shannon Way"/>
    <tag k="addr:state" v="VT"/>
    <tag k="ref:vcgi:esiteid" v="342032"/>
  </node>
  <node id="-4342" visible="true" lat="44.64989839" lon="-73.12025483">
    <tag k="addr:city" v="Milton"/>
    <tag k="addr:housenumber" v="20"/>
    <tag k="addr:street" v="Shannon Way"/>
    <tag k="addr:state" v="VT"/>
    <tag k="ref:vcgi:esiteid" v="342033"/>
  </node>
  <node id="-4343" visible="true" lat="44.64926913" lon="-73.12050614">
    <tag k="addr:city" v="Milton"/>
    <tag k="addr:housenumber" v="21"/>
    <tag k="addr:street" v="Shannon Way"/>
    <tag k="addr:state" v="VT"/>
    <tag k="ref:vcgi:esiteid" v="342034"/>
  </node>
  <node id="-4344" visible="true" lat="44.64927073" lon="-73.12021296">
    <tag k="addr:city" v="Milton"/>
    <tag k="addr:housenumber" v="17"/>
    <tag k="addr:street" v="Shannon Way"/>
    <tag k="addr:state" v="VT"/>
    <tag k="ref:vcgi:esiteid" v="342035"/>
  </node>
  <node id="-4345" visible="true" lat="44.64916387" lon="-73.11984826">
    <tag k="addr:city" v="Milton"/>
    <tag k="addr:housenumber" v="13"/>
    <tag k="addr:street" v="Shannon Way"/>
    <tag k="addr:state" v="VT"/>
    <tag k="ref:vcgi:esiteid" v="342036"/>
  </node>
  <node id="-4347" visible="true" lat="44.64904294" lon="-73.11899085">
    <tag k="addr:city" v="Milton"/>
    <tag k="addr:housenumber" v="100"/>
    <tag k="addr:street" v="Highland Avenue"/>
    <tag k="addr:state" v="VT"/>
    <tag k="ref:vcgi:esiteid" v="342038"/>
  </node>
  <node id="-4348" visible="true" lat="44.64867738" lon="-73.120019">
    <tag k="addr:city" v="Milton"/>
    <tag k="addr:housenumber" v="82"/>
    <tag k="addr:street" v="Highland Avenue"/>
    <tag k="addr:state" v="VT"/>
    <tag k="ref:vcgi:esiteid" v="342039"/>
  </node>
  <node id="-4349" visible="true" lat="44.64886858" lon="-73.12026731">
    <tag k="addr:city" v="Milton"/>
    <tag k="addr:housenumber" v="78"/>
    <tag k="addr:street" v="Highland Avenue"/>
    <tag k="addr:state" v="VT"/>
    <tag k="ref:vcgi:esiteid" v="342040"/>
  </node>
  <node id="-4351" visible="true" lat="44.64822921" lon="-73.12032696">
    <tag k="addr:city" v="Milton"/>
    <tag k="addr:housenumber" v="83"/>
    <tag k="addr:street" v="Highland Avenue"/>
    <tag k="addr:state" v="VT"/>
    <tag k="ref:vcgi:esiteid" v="342042"/>
  </node>
  <node id="-4451" visible="true" lat="44.62213248" lon="-73.12202914">
    <tag k="addr:city" v="Milton"/>
    <tag k="addr:housenumber" v="4"/>
    <tag k="addr:street" v="Centre Drive"/>
    <tag k="addr:state" v="VT"/>
    <tag k="ref:vcgi:esiteid" v="342635"/>
  </node>
  <node id="-4466" visible="true" lat="44.64204703" lon="-73.13381825">
    <tag k="addr:city" v="Milton"/>
    <tag k="addr:housenumber" v="37"/>
    <tag k="addr:street" v="Red Clover Way"/>
    <tag k="addr:state" v="VT"/>
    <tag k="ref:vcgi:esiteid" v="342696"/>
  </node>
  <node id="-4469" visible="true" lat="44.65740193" lon="-73.12581521">
    <tag k="addr:city" v="Milton"/>
    <tag k="addr:housenumber" v="18"/>
    <tag k="addr:street" v="Slim Brown Road"/>
    <tag k="addr:state" v="VT"/>
    <tag k="ref:vcgi:esiteid" v="342701"/>
  </node>
  <node id="-4470" visible="true" lat="44.66032993" lon="-73.13088216">
    <tag k="addr:city" v="Milton"/>
    <tag k="addr:housenumber" v="211"/>
    <tag k="addr:street" v="Lake Road"/>
    <tag k="addr:state" v="VT"/>
    <tag k="ref:vcgi:esiteid" v="342702"/>
  </node>
  <node id="-4473" visible="true" lat="44.62076524" lon="-73.11908808">
    <tag k="addr:city" v="Milton"/>
    <tag k="addr:housenumber" v="38"/>
    <tag k="addr:street" v="Middle Road"/>
    <tag k="addr:state" v="VT"/>
    <tag k="ref:vcgi:esiteid" v="342705"/>
  </node>
  <node id="-4523" visible="true" lat="44.65223573" lon="-73.12937865">
    <tag k="addr:city" v="Milton"/>
    <tag k="addr:housenumber" v="67"/>
    <tag k="addr:street" v="Sheldon Road"/>
    <tag k="addr:state" v="VT"/>
    <tag k="ref:vcgi:esiteid" v="342780"/>
  </node>
  <node id="-4544" visible="true" lat="44.65470738" lon="-73.08975254">
    <tag k="addr:city" v="Milton"/>
    <tag k="addr:housenumber" v="345"/>
    <tag k="addr:street" v="North Road"/>
    <tag k="addr:state" v="VT"/>
    <tag k="ref:vcgi:esiteid" v="344965"/>
  </node>
  <node id="-4548" visible="true" lat="44.65797367" lon="-73.11952528">
    <tag k="addr:city" v="Milton"/>
    <tag k="addr:housenumber" v="11"/>
    <tag k="addr:street" v="Real Road"/>
    <tag k="addr:state" v="VT"/>
    <tag k="ref:vcgi:esiteid" v="344986"/>
  </node>
  <node id="-4549" visible="true" lat="44.65861866" lon="-73.11989921">
    <tag k="addr:city" v="Milton"/>
    <tag k="addr:housenumber" v="14"/>
    <tag k="addr:street" v="Real Road"/>
    <tag k="addr:state" v="VT"/>
    <tag k="ref:vcgi:esiteid" v="344987"/>
  </node>
  <node id="-4554" visible="true" lat="44.63567228" lon="-73.05008639">
    <tag k="addr:city" v="Milton"/>
    <tag k="addr:housenumber" v="599"/>
    <tag k="addr:street" v="Westford Road"/>
    <tag k="addr:state" v="VT"/>
    <tag k="ref:vcgi:esiteid" v="344993"/>
  </node>
  <node id="-4570" visible="true" lat="44.62377963" lon="-73.1222971">
    <tag k="addr:city" v="Milton"/>
    <tag k="addr:housenumber" v="259"/>
    <tag k="addr:street" v="U.S. Route 7 South"/>
    <tag k="addr:state" v="VT"/>
    <tag k="ref:vcgi:esiteid" v="365100"/>
  </node>
  <node id="-4609" visible="true" lat="44.64681677" lon="-73.11895154">
    <tag k="addr:city" v="Milton"/>
    <tag k="addr:housenumber" v="25"/>
    <tag k="addr:street" v="Pinnacle Drive"/>
    <tag k="addr:state" v="VT"/>
    <tag k="ref:vcgi:esiteid" v="446649"/>
  </node>
  <node id="-4739" visible="true" lat="44.61888352" lon="-73.12099162">
    <tag k="addr:city" v="Milton"/>
    <tag k="addr:housenumber" v="60"/>
    <tag k="addr:street" v="Bombardier Road"/>
    <tag k="addr:state" v="VT"/>
    <tag k="ref:vcgi:esiteid" v="611423"/>
  </node>
  <node id="-4862" visible="true" lat="44.6759091" lon="-73.10890193">
    <tag k="addr:city" v="Milton"/>
    <tag k="addr:housenumber" v="111"/>
    <tag k="addr:street" v="Lakeside Avenue"/>
    <tag k="addr:state" v="VT"/>
    <tag k="ref:vcgi:esiteid" v="758862"/>
  </node>
  <node id="-5011" visible="true" lat="44.65077901" lon="-73.1270076">
    <tag k="addr:city" v="Milton"/>
    <tag k="addr:housenumber" v="117"/>
    <tag k="addr:street" v="Poor Farm Road"/>
    <tag k="addr:state" v="VT"/>
    <tag k="ref:vcgi:esiteid" v="766760"/>
  </node>
  <node id="-5078" visible="true" lat="44.61218423" lon="-73.10726589">
    <tag k="addr:city" v="Milton"/>
    <tag k="addr:housenumber" v="232"/>
    <tag k="addr:street" v="McMullen Road"/>
    <tag k="addr:state" v="VT"/>
    <tag k="ref:vcgi:esiteid" v="1051808"/>
  </node>
</osm>
