<?xml version="1.0" encoding="UTF-8"?>
<osm version="0.6" generator="JOSM" upload="false">
  <node id="-904" visible="true" lat="44.63951361" lon="-73.11146402">
    <!-- multiple: "17 Main Street, Milton, VT" Multiple exact matches in OSM. -->
    <tag k="addr:city" v="Milton"/>
    <tag k="addr:housenumber" v="17"/>
    <tag k="addr:street" v="Main Street"/>
    <tag k="addr:state" v="VT"/>
    <tag k="ref:vcgi:esiteid" v="159036"/>
  </node>
  <node id="-1773" visible="true" lat="44.62329308" lon="-73.1234202">
    <!-- multiple: "11 Haydenberry Drive, Milton, VT" Multiple exact matches in OSM. -->
    <tag k="addr:city" v="Milton"/>
    <tag k="addr:housenumber" v="11"/>
    <tag k="addr:street" v="Haydenberry Drive"/>
    <tag k="addr:state" v="VT"/>
    <tag k="ref:vcgi:esiteid" v="159922"/>
  </node>
  <node id="-1838" visible="true" lat="44.62226579" lon="-73.1212528">
    <!-- multiple: "250 U.S. Route 7 South, Milton, VT" Multiple exact matches in OSM. -->
    <tag k="addr:city" v="Milton"/>
    <tag k="addr:housenumber" v="250"/>
    <tag k="addr:street" v="U.S. Route 7 South"/>
    <tag k="addr:state" v="VT"/>
    <tag k="ref:vcgi:esiteid" v="159988"/>
  </node>
  <node id="-1918" visible="true" lat="44.61885301" lon="-73.1204243">
    <!-- multiple: "69 Middle Road, Milton, VT" Multiple exact matches in OSM. -->
    <tag k="addr:city" v="Milton"/>
    <tag k="addr:housenumber" v="69"/>
    <tag k="addr:street" v="Middle Road"/>
    <tag k="addr:state" v="VT"/>
    <tag k="ref:vcgi:esiteid" v="160075"/>
  </node>
  <node id="-3000" visible="true" lat="44.63252647" lon="-73.10986773">
    <!-- multiple: "42 Herrick Avenue, Milton, VT" Multiple exact matches in OSM. -->
    <tag k="addr:city" v="Milton"/>
    <tag k="addr:housenumber" v="42"/>
    <tag k="addr:street" v="Herrick Avenue"/>
    <tag k="addr:state" v="VT"/>
    <tag k="ref:vcgi:esiteid" v="161179"/>
  </node>
  <node id="-3030" visible="true" lat="44.63985485" lon="-73.11022663">
    <!-- multiple: "26 Main Street, Milton, VT" Multiple exact matches in OSM. -->
    <tag k="addr:city" v="Milton"/>
    <tag k="addr:housenumber" v="26"/>
    <tag k="addr:street" v="Main Street"/>
    <tag k="addr:state" v="VT"/>
    <tag k="ref:vcgi:esiteid" v="161209"/>
  </node>
  <node id="-4245" visible="true" lat="44.62491033" lon="-73.11953687">
    <!-- multiple: "199 U.S. Route 7 South, Milton, VT" Multiple exact matches in OSM. -->
    <tag k="addr:city" v="Milton"/>
    <tag k="addr:housenumber" v="199"/>
    <tag k="addr:street" v="U.S. Route 7 South"/>
    <tag k="addr:state" v="VT"/>
    <tag k="ref:vcgi:esiteid" v="339171"/>
  </node>
  <node id="-4571" visible="true" lat="44.62321371" lon="-73.13298826">
    <!-- multiple: "7 Southerberry Drive, Milton, VT" Multiple exact matches in OSM. -->
    <tag k="addr:city" v="Milton"/>
    <tag k="addr:housenumber" v="7"/>
    <tag k="addr:street" v="Southerberry Drive"/>
    <tag k="addr:state" v="VT"/>
    <tag k="ref:vcgi:esiteid" v="365108"/>
  </node>
  <node id="-4573" visible="true" lat="44.62357655" lon="-73.13366171">
    <!-- multiple: "5 Southerberry Drive, Milton, VT" Multiple exact matches in OSM. -->
    <tag k="addr:city" v="Milton"/>
    <tag k="addr:housenumber" v="5"/>
    <tag k="addr:street" v="Southerberry Drive"/>
    <tag k="addr:state" v="VT"/>
    <tag k="ref:vcgi:esiteid" v="365110"/>
  </node>
  <node id="-4701" visible="true" lat="44.62290812" lon="-73.1322281">
    <!-- multiple: "4 Southerberry Drive, Milton, VT" Multiple exact matches in OSM. -->
    <tag k="addr:city" v="Milton"/>
    <tag k="addr:housenumber" v="4"/>
    <tag k="addr:street" v="Southerberry Drive"/>
    <tag k="addr:state" v="VT"/>
    <tag k="ref:vcgi:esiteid" v="451299"/>
  </node>
</osm>
