<?xml version="1.0" encoding="UTF-8"?>
<osm version="0.6" generator="JOSM">
  <node id="-154" visible="true" lat="44.26668618" lon="-73.17936518">
    <tag k="addr:housenumber" v="168"/>
    <tag k="addr:street" v="Bullfrog Run"/>
    <tag k="addr:state" v="VT"/>
    <tag k="ref:vcgi:esiteid" v="162643"/>
  </node>
  <node id="-214" visible="true" lat="44.25803756" lon="-73.1803131">
    <tag k="addr:housenumber" v="3216"/>
    <tag k="addr:street" v="Rotax Road"/>
    <tag k="addr:state" v="VT"/>
    <tag k="ref:vcgi:esiteid" v="162703"/>
  </node>
  <node id="-278" visible="true" lat="44.25359725" lon="-73.18724823">
    <tag k="addr:housenumber" v="33"/>
    <tag k="addr:street" v="Stone Hill Lane"/>
    <tag k="addr:state" v="VT"/>
    <tag k="ref:vcgi:esiteid" v="162769"/>
  </node>
  <node id="-284" visible="true" lat="44.25298867" lon="-73.17959801">
    <tag k="addr:housenumber" v="2185"/>
    <tag k="addr:street" v="Hollow Road"/>
    <tag k="addr:state" v="VT"/>
    <tag k="ref:vcgi:esiteid" v="162776"/>
  </node>
  <node id="-301" visible="true" lat="44.25252924" lon="-73.17885873">
    <tag k="addr:housenumber" v="12"/>
    <tag k="addr:street" v="Vaughn Court"/>
    <tag k="addr:state" v="VT"/>
    <tag k="ref:vcgi:esiteid" v="162793"/>
  </node>
  <node id="-320" visible="true" lat="44.25167083" lon="-73.13759613">
    <tag k="addr:housenumber" v="6"/>
    <tag k="addr:street" v="North Camp Road"/>
    <tag k="addr:state" v="VT"/>
    <tag k="ref:vcgi:esiteid" v="162813"/>
  </node>
  <node id="-345" visible="true" lat="44.24994278" lon="-73.12242126">
    <tag k="addr:housenumber" v="213"/>
    <tag k="addr:street" v="Bristol Road"/>
    <tag k="addr:state" v="VT"/>
    <tag k="ref:vcgi:esiteid" v="162838"/>
  </node>
  <node id="-354" visible="true" lat="44.24863815" lon="-73.16127014">
    <tag k="addr:housenumber" v="387"/>
    <tag k="addr:street" v="Weisenbach Road"/>
    <tag k="addr:state" v="VT"/>
    <tag k="ref:vcgi:esiteid" v="162848"/>
  </node>
  <node id="-377" visible="true" lat="44.2464447" lon="-73.16919708">
    <tag k="addr:housenumber" v="1458"/>
    <tag k="addr:street" v="Hollow Road"/>
    <tag k="addr:state" v="VT"/>
    <tag k="ref:vcgi:esiteid" v="162871"/>
  </node>
  <node id="-389" visible="true" lat="44.24579238" lon="-73.13391876">
    <tag k="addr:housenumber" v="710"/>
    <tag k="addr:street" v="Monkton Road"/>
    <tag k="addr:state" v="VT"/>
    <tag k="ref:vcgi:esiteid" v="162883"/>
  </node>
  <node id="-397" visible="true" lat="44.24424148" lon="-73.13871678">
    <tag k="addr:housenumber" v="1036"/>
    <tag k="addr:street" v="Monkton Road"/>
    <tag k="addr:state" v="VT"/>
    <tag k="ref:vcgi:esiteid" v="162892"/>
  </node>
  <node id="-399" visible="true" lat="44.2437327" lon="-73.1372992">
    <tag k="addr:housenumber" v="933"/>
    <tag k="addr:street" v="Monkton Road"/>
    <tag k="addr:state" v="VT"/>
    <tag k="ref:vcgi:esiteid" v="162894"/>
  </node>
  <node id="-412" visible="true" lat="44.24191489" lon="-73.09743213">
    <tag k="addr:housenumber" v="1063"/>
    <tag k="addr:street" v="Mountain Road"/>
    <tag k="addr:state" v="VT"/>
    <tag k="ref:vcgi:esiteid" v="162909"/>
  </node>
  <node id="-436" visible="true" lat="44.23799896" lon="-73.14714031">
    <tag k="addr:housenumber" v="60"/>
    <tag k="addr:street" v="Hollow Road"/>
    <tag k="addr:state" v="VT"/>
    <tag k="ref:vcgi:esiteid" v="162933"/>
  </node>
  <node id="-445" visible="true" lat="44.23690414" lon="-73.14318847">
    <tag k="addr:housenumber" v="73"/>
    <tag k="addr:street" v="Boro Hill Road"/>
    <tag k="addr:state" v="VT"/>
    <tag k="ref:vcgi:esiteid" v="162943"/>
  </node>
  <node id="-451" visible="true" lat="44.23649978" lon="-73.12445068">
    <tag k="addr:housenumber" v="537"/>
    <tag k="addr:street" v="Meader Road"/>
    <tag k="addr:state" v="VT"/>
    <tag k="ref:vcgi:esiteid" v="162949"/>
  </node>
  <node id="-507" visible="true" lat="44.22901462" lon="-73.18352254">
    <tag k="addr:housenumber" v="486"/>
    <tag k="addr:street" v="Jockey Lane"/>
    <tag k="addr:state" v="VT"/>
    <tag k="ref:vcgi:esiteid" v="163005"/>
  </node>
  <node id="-508" visible="true" lat="44.22876084" lon="-73.18173996">
    <tag k="addr:housenumber" v="582"/>
    <tag k="addr:street" v="Jockey Lane"/>
    <tag k="addr:state" v="VT"/>
    <tag k="ref:vcgi:esiteid" v="163006"/>
  </node>
  <node id="-523" visible="true" lat="44.22638028" lon="-73.14245645">
    <tag k="addr:housenumber" v="500"/>
    <tag k="addr:street" v="Boro Hill Road"/>
    <tag k="addr:state" v="VT"/>
    <tag k="ref:vcgi:esiteid" v="163021"/>
  </node>
  <node id="-525" visible="true" lat="44.22626584" lon="-73.1345222">
    <tag k="addr:housenumber" v="1172"/>
    <tag k="addr:street" v="Boro Hill Road"/>
    <tag k="addr:state" v="VT"/>
    <tag k="ref:vcgi:esiteid" v="163023"/>
  </node>
  <node id="-531" visible="true" lat="44.22533329" lon="-73.12430868">
    <tag k="addr:housenumber" v="1009"/>
    <tag k="addr:street" v="Wendland Road"/>
    <tag k="addr:state" v="VT"/>
    <tag k="ref:vcgi:esiteid" v="163029"/>
  </node>
  <node id="-534" visible="true" lat="44.224183" lon="-73.124786">
    <tag k="addr:housenumber" v="950"/>
    <tag k="addr:street" v="Wendland Road"/>
    <tag k="addr:state" v="VT"/>
    <tag k="ref:vcgi:esiteid" v="163032"/>
  </node>
  <node id="-540" visible="true" lat="44.22203241" lon="-73.18605721">
    <tag k="addr:housenumber" v="255"/>
    <tag k="addr:street" v="Wilderness Way"/>
    <tag k="addr:state" v="VT"/>
    <tag k="ref:vcgi:esiteid" v="163038"/>
  </node>
  <node id="-561" visible="true" lat="44.21498343" lon="-73.16284129">
    <tag k="addr:housenumber" v="3568"/>
    <tag k="addr:street" v="Monkton Road"/>
    <tag k="addr:state" v="VT"/>
    <tag k="ref:vcgi:esiteid" v="163059"/>
  </node>
  <node id="-564" visible="true" lat="44.21468949" lon="-73.10203294">
    <tag k="addr:housenumber" v="2969"/>
    <tag k="addr:street" v="Mountain Road"/>
    <tag k="addr:state" v="VT"/>
    <tag k="ref:vcgi:esiteid" v="163062"/>
  </node>
  <node id="-585" visible="true" lat="44.20950672" lon="-73.11569636">
    <tag k="addr:housenumber" v="62"/>
    <tag k="addr:street" v="Hardscrabble Road"/>
    <tag k="addr:state" v="VT"/>
    <tag k="ref:vcgi:esiteid" v="163083"/>
  </node>
  <node id="-603" visible="true" lat="44.20677174" lon="-73.12207716">
    <tag k="addr:housenumber" v="434"/>
    <tag k="addr:street" v="Hardscrabble Road"/>
    <tag k="addr:state" v="VT"/>
    <tag k="ref:vcgi:esiteid" v="163101"/>
  </node>
  <node id="-624" visible="true" lat="44.20478114" lon="-73.10846792">
    <tag k="addr:housenumber" v="341"/>
    <tag k="addr:street" v="Church Road"/>
    <tag k="addr:state" v="VT"/>
    <tag k="ref:vcgi:esiteid" v="163122"/>
  </node>
  <node id="-627" visible="true" lat="44.20473808" lon="-73.10878834">
    <tag k="addr:housenumber" v="347"/>
    <tag k="addr:street" v="Church Road"/>
    <tag k="addr:state" v="VT"/>
    <tag k="ref:vcgi:esiteid" v="163125"/>
  </node>
  <node id="-654" visible="true" lat="44.19963455" lon="-73.16453552">
    <tag k="addr:housenumber" v="230"/>
    <tag k="addr:street" v="Timber Lane"/>
    <tag k="addr:state" v="VT"/>
    <tag k="ref:vcgi:esiteid" v="163152"/>
  </node>
  <node id="-676" visible="true" lat="44.19298171" lon="-73.12422943">
    <tag k="addr:housenumber" v="1470"/>
    <tag k="addr:street" v="Hardscrabble Road"/>
    <tag k="addr:state" v="VT"/>
    <tag k="ref:vcgi:esiteid" v="163174"/>
  </node>
  <node id="-682" visible="true" lat="44.1916124" lon="-73.17500153">
    <tag k="addr:housenumber" v="5392"/>
    <tag k="addr:street" v="Monkton Road"/>
    <tag k="addr:state" v="VT"/>
    <tag k="ref:vcgi:esiteid" v="163181"/>
  </node>
  <node id="-683" visible="true" lat="44.19160461" lon="-73.14517974">
    <tag k="addr:housenumber" v="1349"/>
    <tag k="addr:street" v="Piney Woods Road"/>
    <tag k="addr:state" v="VT"/>
    <tag k="ref:vcgi:esiteid" v="163182"/>
  </node>
  <node id="-691" visible="true" lat="44.1899559" lon="-73.12707056">
    <tag k="addr:housenumber" v="268"/>
    <tag k="addr:street" v="Old Airport Road"/>
    <tag k="addr:state" v="VT"/>
    <tag k="ref:vcgi:esiteid" v="163190"/>
  </node>
  <node id="-716" visible="true" lat="44.18201754" lon="-73.1000605">
    <tag k="addr:housenumber" v="5107"/>
    <tag k="addr:street" v="Bristol Road"/>
    <tag k="addr:state" v="VT"/>
    <tag k="ref:vcgi:esiteid" v="163215"/>
  </node>
  <node id="-723" visible="true" lat="44.17855835" lon="-73.1510849">
    <tag k="addr:housenumber" v="132"/>
    <tag k="addr:street" v="Parks Hurlburt Road"/>
    <tag k="addr:state" v="VT"/>
    <tag k="ref:vcgi:esiteid" v="163222"/>
  </node>
  <node id="-740" visible="true" lat="44.23623275" lon="-73.17088317">
    <tag k="addr:housenumber" v="722"/>
    <tag k="addr:street" v="Bennett Road"/>
    <tag k="addr:state" v="VT"/>
    <tag k="ref:vcgi:esiteid" v="163239"/>
  </node>
  <node id="-745" visible="true" lat="44.21543689" lon="-73.16195988">
    <tag k="addr:housenumber" v="3540"/>
    <tag k="addr:street" v="Monkton Road"/>
    <tag k="addr:state" v="VT"/>
    <tag k="ref:vcgi:esiteid" v="163245"/>
  </node>
  <node id="-756" visible="true" lat="44.18324661" lon="-73.17812347">
    <tag k="addr:housenumber" v="3951"/>
    <tag k="addr:street" v="Lime Kiln Road"/>
    <tag k="addr:state" v="VT"/>
    <tag k="ref:vcgi:esiteid" v="163257"/>
  </node>
  <node id="-757" visible="true" lat="44.18086164" lon="-73.1765621">
    <tag k="addr:housenumber" v="3867"/>
    <tag k="addr:street" v="Lime Kiln Road"/>
    <tag k="addr:state" v="VT"/>
    <tag k="ref:vcgi:esiteid" v="163258"/>
  </node>
  <node id="-762" visible="true" lat="44.25678742" lon="-73.18081708">
    <tag k="addr:housenumber" v="847"/>
    <tag k="addr:street" v="Covered Bridge Road"/>
    <tag k="addr:state" v="VT"/>
    <tag k="ref:vcgi:esiteid" v="163263"/>
  </node>
  <node id="-776" visible="true" lat="44.25456394" lon="-73.17734231">
    <tag k="addr:housenumber" v="2120"/>
    <tag k="addr:street" v="Hollow Road"/>
    <tag k="addr:state" v="VT"/>
    <tag k="ref:vcgi:esiteid" v="163277"/>
  </node>
  <node id="-786" visible="true" lat="44.24021366" lon="-73.10105498">
    <tag k="addr:housenumber" v="1052"/>
    <tag k="addr:street" v="Mountain Road"/>
    <tag k="addr:state" v="VT"/>
    <tag k="ref:vcgi:esiteid" v="163287"/>
  </node>
  <node id="-800" visible="true" lat="44.22464265" lon="-73.15015535">
    <tag k="addr:housenumber" v="70"/>
    <tag k="addr:street" v="Owl Mountain Road"/>
    <tag k="addr:state" v="VT"/>
    <tag k="ref:vcgi:esiteid" v="163301"/>
  </node>
  <node id="-804" visible="true" lat="44.23080032" lon="-73.14966813">
    <tag k="addr:housenumber" v="2027"/>
    <tag k="addr:street" v="Monkton Road"/>
    <tag k="addr:state" v="VT"/>
    <tag k="ref:vcgi:esiteid" v="163305"/>
  </node>
  <node id="-824" visible="true" lat="44.24320755" lon="-73.14065815">
    <tag k="addr:housenumber" v="1100"/>
    <tag k="addr:street" v="Monkton Road"/>
    <tag k="addr:state" v="VT"/>
    <tag k="ref:vcgi:esiteid" v="163326"/>
  </node>
  <node id="-838" visible="true" lat="44.24339558" lon="-73.0949297">
    <tag k="addr:housenumber" v="101"/>
    <tag k="addr:street" v="Valley View Drive"/>
    <tag k="addr:state" v="VT"/>
    <tag k="ref:vcgi:esiteid" v="163340"/>
  </node>
  <node id="-839" visible="true" lat="44.24287606" lon="-73.09524556">
    <tag k="addr:housenumber" v="80"/>
    <tag k="addr:street" v="Valley View Drive"/>
    <tag k="addr:state" v="VT"/>
    <tag k="ref:vcgi:esiteid" v="163341"/>
  </node>
  <node id="-840" visible="true" lat="44.21567555" lon="-73.10343977">
    <tag k="addr:housenumber" v="2884"/>
    <tag k="addr:street" v="Mountain Road"/>
    <tag k="addr:state" v="VT"/>
    <tag k="ref:vcgi:esiteid" v="163342"/>
  </node>
  <node id="-845" visible="true" lat="44.26388251" lon="-73.12706735">
    <tag k="addr:housenumber" v="7B"/>
    <tag k="addr:street" v="Windy Ridge"/>
    <tag k="addr:state" v="VT"/>
    <tag k="ref:vcgi:esiteid" v="163347"/>
  </node>
  <node id="-871" visible="true" lat="44.19698939" lon="-73.12551588">
    <tag k="addr:housenumber" v="1220"/>
    <tag k="addr:street" v="Hardscrabble Road"/>
    <tag k="addr:state" v="VT"/>
    <tag k="ref:vcgi:esiteid" v="163373"/>
  </node>
  <node id="-873" visible="true" lat="44.21579907" lon="-73.10326138">
    <tag k="addr:housenumber" v="2886"/>
    <tag k="addr:street" v="Mountain Road"/>
    <tag k="addr:state" v="VT"/>
    <tag k="ref:vcgi:esiteid" v="163375"/>
  </node>
  <node id="-888" visible="true" lat="44.2124849" lon="-73.16283428">
    <tag k="addr:housenumber" v="3767"/>
    <tag k="addr:street" v="Monkton Road"/>
    <tag k="addr:state" v="VT"/>
    <tag k="ref:vcgi:esiteid" v="308906"/>
  </node>
  <node id="-891" visible="true" lat="44.20547183" lon="-73.12704511">
    <tag k="addr:housenumber" v="2726A"/>
    <tag k="addr:street" v="Boro Hill Road"/>
    <tag k="addr:state" v="VT"/>
    <tag k="ref:vcgi:esiteid" v="313417"/>
  </node>
  <node id="-892" visible="true" lat="44.18466712" lon="-73.10589773">
    <tag k="addr:housenumber" v="4849A"/>
    <tag k="addr:street" v="Bristol Road"/>
    <tag k="addr:state" v="VT"/>
    <tag k="ref:vcgi:esiteid" v="313418"/>
  </node>
  <node id="-897" visible="true" lat="44.2464538" lon="-73.17292253">
    <tag k="addr:housenumber" v="28"/>
    <tag k="addr:street" v="Bennett Road"/>
    <tag k="addr:state" v="VT"/>
    <tag k="ref:vcgi:esiteid" v="314463"/>
  </node>
  <node id="-898" visible="true" lat="44.24323755" lon="-73.17281382">
    <tag k="addr:housenumber" v="66"/>
    <tag k="addr:street" v="White Ridge Road"/>
    <tag k="addr:state" v="VT"/>
    <tag k="ref:vcgi:esiteid" v="314464"/>
  </node>
  <node id="-900" visible="true" lat="44.24425438" lon="-73.17489223">
    <tag k="addr:housenumber" v="155"/>
    <tag k="addr:street" v="White Ridge Road"/>
    <tag k="addr:state" v="VT"/>
    <tag k="ref:vcgi:esiteid" v="314466"/>
  </node>
  <node id="-901" visible="true" lat="44.24479346" lon="-73.17347485">
    <tag k="addr:housenumber" v="226"/>
    <tag k="addr:street" v="White Ridge Road"/>
    <tag k="addr:state" v="VT"/>
    <tag k="ref:vcgi:esiteid" v="314467"/>
  </node>
  <node id="-902" visible="true" lat="44.24550187" lon="-73.17522962">
    <tag k="addr:housenumber" v="256"/>
    <tag k="addr:street" v="White Ridge Road"/>
    <tag k="addr:state" v="VT"/>
    <tag k="ref:vcgi:esiteid" v="314468"/>
  </node>
  <node id="-904" visible="true" lat="44.24503722" lon="-73.17580754">
    <tag k="addr:housenumber" v="265"/>
    <tag k="addr:street" v="White Ridge Road"/>
    <tag k="addr:state" v="VT"/>
    <tag k="ref:vcgi:esiteid" v="314470"/>
  </node>
  <node id="-906" visible="true" lat="44.24146065" lon="-73.12400108">
    <tag k="addr:housenumber" v="172"/>
    <tag k="addr:street" v="Farley Lane"/>
    <tag k="addr:state" v="VT"/>
    <tag k="ref:vcgi:esiteid" v="325740"/>
  </node>
  <node id="-908" visible="true" lat="44.23835461" lon="-73.12121289">
    <tag k="addr:housenumber" v="33"/>
    <tag k="addr:street" v="Saunders Road"/>
    <tag k="addr:state" v="VT"/>
    <tag k="ref:vcgi:esiteid" v="325743"/>
  </node>
  <node id="-910" visible="true" lat="44.23526882" lon="-73.15400649">
    <tag k="addr:housenumber" v="201"/>
    <tag k="addr:street" v="Juniper Lane"/>
    <tag k="addr:state" v="VT"/>
    <tag k="ref:vcgi:esiteid" v="326547"/>
  </node>
  <node id="-914" visible="true" lat="44.22620228" lon="-73.12630366">
    <tag k="addr:housenumber" v="120"/>
    <tag k="addr:street" v="Tumbling Raven Road"/>
    <tag k="addr:state" v="VT"/>
    <tag k="ref:vcgi:esiteid" v="327174"/>
  </node>
  <node id="-915" visible="true" lat="44.22594278" lon="-73.1259832">
    <tag k="addr:housenumber" v="164"/>
    <tag k="addr:street" v="Tumbling Raven Road"/>
    <tag k="addr:state" v="VT"/>
    <tag k="ref:vcgi:esiteid" v="327175"/>
  </node>
  <node id="-920" visible="true" lat="44.19896024" lon="-73.11105988">
    <tag k="addr:housenumber" v="3930"/>
    <tag k="addr:street" v="Bristol Road"/>
    <tag k="addr:state" v="VT"/>
    <tag k="ref:vcgi:esiteid" v="332506"/>
  </node>
  <node id="-935" visible="true" lat="44.26654791" lon="-73.11421711">
    <tag k="addr:housenumber" v="4217"/>
    <tag k="addr:street" v="Silver Street"/>
    <tag k="addr:state" v="VT"/>
    <tag k="ref:vcgi:esiteid" v="342297"/>
  </node>
  <node id="-938" visible="true" lat="44.22444554" lon="-73.15291896">
    <tag k="addr:housenumber" v="2551"/>
    <tag k="addr:street" v="Monkton Road"/>
    <tag k="addr:state" v="VT"/>
    <tag k="ref:vcgi:esiteid" v="342300"/>
  </node>
  <node id="-944" visible="true" lat="44.23441486" lon="-73.09890428">
    <tag k="addr:housenumber" v="1592"/>
    <tag k="addr:street" v="Mountain Road"/>
    <tag k="addr:state" v="VT"/>
    <tag k="ref:vcgi:esiteid" v="344048"/>
  </node>
  <node id="-950" visible="true" lat="44.22953671" lon="-73.18145629">
    <tag k="addr:housenumber" v="60"/>
    <tag k="addr:street" v="Beech Ridge"/>
    <tag k="addr:state" v="VT"/>
    <tag k="ref:vcgi:esiteid" v="345496"/>
  </node>
  <node id="-951" visible="true" lat="44.23064715" lon="-73.18131901">
    <tag k="addr:housenumber" v="108"/>
    <tag k="addr:street" v="Beech Ridge"/>
    <tag k="addr:state" v="VT"/>
    <tag k="ref:vcgi:esiteid" v="345497"/>
  </node>
  <node id="-952" visible="true" lat="44.2323624" lon="-73.18159156">
    <tag k="addr:housenumber" v="244"/>
    <tag k="addr:street" v="Beech Ridge"/>
    <tag k="addr:state" v="VT"/>
    <tag k="ref:vcgi:esiteid" v="345498"/>
  </node>
  <node id="-953" visible="true" lat="44.23126231" lon="-73.18351807">
    <tag k="addr:housenumber" v="171"/>
    <tag k="addr:street" v="Beech Ridge"/>
    <tag k="addr:state" v="VT"/>
    <tag k="ref:vcgi:esiteid" v="345499"/>
  </node>
  <node id="-954" visible="true" lat="44.23192496" lon="-73.18386506">
    <tag k="addr:housenumber" v="271"/>
    <tag k="addr:street" v="Beech Ridge"/>
    <tag k="addr:state" v="VT"/>
    <tag k="ref:vcgi:esiteid" v="345500"/>
  </node>
  <node id="-955" visible="true" lat="44.23200464" lon="-73.18338917">
    <tag k="addr:housenumber" v="275"/>
    <tag k="addr:street" v="Beech Ridge"/>
    <tag k="addr:state" v="VT"/>
    <tag k="ref:vcgi:esiteid" v="345501"/>
  </node>
  <node id="-957" visible="true" lat="44.24288233" lon="-73.16276892">
    <tag k="addr:housenumber" v="1057"/>
    <tag k="addr:street" v="Hollow Road"/>
    <tag k="addr:state" v="VT"/>
    <tag k="ref:vcgi:esiteid" v="445167"/>
  </node>
  <node id="-968" visible="true" lat="44.24368924" lon="-73.09610524">
    <tag k="addr:housenumber" v="85"/>
    <tag k="addr:street" v="Valley View Drive"/>
    <tag k="addr:state" v="VT"/>
    <tag k="ref:vcgi:esiteid" v="450572"/>
  </node>
  <node id="-969" visible="true" lat="44.2401961" lon="-73.12125457">
    <tag k="addr:housenumber" v="886"/>
    <tag k="addr:street" v="Bristol Road"/>
    <tag k="addr:state" v="VT"/>
    <tag k="ref:vcgi:esiteid" v="450573"/>
  </node>
  <node id="-974" visible="true" lat="44.25072298" lon="-73.18390735">
    <tag k="addr:housenumber" v="374"/>
    <tag k="addr:street" v="Breezy Hill Acres"/>
    <tag k="addr:state" v="VT"/>
    <tag k="ref:vcgi:esiteid" v="452499"/>
  </node>
  <node id="-976" visible="true" lat="44.2502434" lon="-73.18257188">
    <tag k="addr:housenumber" v="455"/>
    <tag k="addr:street" v="Breezy Hill Acres"/>
    <tag k="addr:state" v="VT"/>
    <tag k="ref:vcgi:esiteid" v="452501"/>
  </node>
  <node id="-977" visible="true" lat="44.24964898" lon="-73.18228943">
    <tag k="addr:housenumber" v="531"/>
    <tag k="addr:street" v="Breezy Hill Acres"/>
    <tag k="addr:state" v="VT"/>
    <tag k="ref:vcgi:esiteid" v="452502"/>
  </node>
  <node id="-978" visible="true" lat="44.24998415" lon="-73.18358035">
    <tag k="addr:housenumber" v="450"/>
    <tag k="addr:street" v="Breezy Hill Acres"/>
    <tag k="addr:state" v="VT"/>
    <tag k="ref:vcgi:esiteid" v="452503"/>
  </node>
  <node id="-979" visible="true" lat="44.24912201" lon="-73.18352243">
    <tag k="addr:housenumber" v="540"/>
    <tag k="addr:street" v="Breezy Hill Acres"/>
    <tag k="addr:state" v="VT"/>
    <tag k="ref:vcgi:esiteid" v="452504"/>
  </node>
  <node id="-980" visible="true" lat="44.24853716" lon="-73.18337754">
    <tag k="addr:housenumber" v="548"/>
    <tag k="addr:street" v="Breezy Hill Acres"/>
    <tag k="addr:state" v="VT"/>
    <tag k="ref:vcgi:esiteid" v="452505"/>
  </node>
  <node id="-984" visible="true" lat="44.2048821" lon="-73.11278841">
    <tag k="addr:housenumber" v="3385"/>
    <tag k="addr:street" v="Bristol Road"/>
    <tag k="addr:state" v="VT"/>
    <tag k="ref:vcgi:esiteid" v="453766"/>
  </node>
  <node id="-987" visible="true" lat="44.26320809" lon="-73.12290688">
    <tag k="addr:housenumber" v="43"/>
    <tag k="addr:street" v="Twin Maple Road"/>
    <tag k="addr:state" v="VT"/>
    <tag k="ref:vcgi:esiteid" v="453769"/>
  </node>
  <node id="-989" visible="true" lat="44.25799093" lon="-73.18028881">
    <tag k="addr:housenumber" v="787"/>
    <tag k="addr:street" v="Covered Bridge Road"/>
    <tag k="addr:state" v="VT"/>
    <tag k="ref:vcgi:esiteid" v="453772"/>
  </node>
  <node id="-991" visible="true" lat="44.26627994" lon="-73.10115042">
    <tag k="addr:housenumber" v="2240"/>
    <tag k="addr:street" v="Tyler Bridge Road"/>
    <tag k="addr:state" v="VT"/>
    <tag k="ref:vcgi:esiteid" v="610399"/>
  </node>
  <node id="-992" visible="true" lat="44.2045609" lon="-73.1280976">
    <tag k="addr:housenumber" v="100"/>
    <tag k="addr:street" v="Piney Woods Road"/>
    <tag k="addr:state" v="VT"/>
    <tag k="ref:vcgi:esiteid" v="610400"/>
  </node>
  <node id="-995" visible="true" lat="44.25296631" lon="-73.09830802">
    <tag k="addr:housenumber" v="300"/>
    <tag k="addr:street" v="Mountain Road"/>
    <tag k="addr:state" v="VT"/>
    <tag k="ref:vcgi:esiteid" v="610403"/>
  </node>
  <node id="-996" visible="true" lat="44.19907832" lon="-73.11985134">
    <tag k="addr:housenumber" v="324"/>
    <tag k="addr:street" v="Bear Pond Road"/>
    <tag k="addr:state" v="VT"/>
    <tag k="ref:vcgi:esiteid" v="610405"/>
  </node>
  <node id="-998" visible="true" lat="44.19716583" lon="-73.12097055">
    <tag k="addr:housenumber" v="115"/>
    <tag k="addr:street" v="Birch Lane"/>
    <tag k="addr:state" v="VT"/>
    <tag k="ref:vcgi:esiteid" v="610407"/>
  </node>
  <node id="-1001" visible="true" lat="44.19533933" lon="-73.1202861">
    <tag k="addr:housenumber" v="237"/>
    <tag k="addr:street" v="Birch Lane"/>
    <tag k="addr:state" v="VT"/>
    <tag k="ref:vcgi:esiteid" v="610410"/>
  </node>
  <node id="-1005" visible="true" lat="44.26479538" lon="-73.16971336">
    <tag k="addr:housenumber" v="2516"/>
    <tag k="addr:street" v="Rotax Road"/>
    <tag k="addr:state" v="VT"/>
    <tag k="ref:vcgi:esiteid" v="617905"/>
  </node>
  <node id="-1006" visible="true" lat="44.24653193" lon="-73.14174372">
    <tag k="addr:housenumber" v="338"/>
    <tag k="addr:street" v="Pond Road"/>
    <tag k="addr:state" v="VT"/>
    <tag k="ref:vcgi:esiteid" v="617906"/>
  </node>
  <node id="-1007" visible="true" lat="44.25524057" lon="-73.11334947">
    <tag k="addr:housenumber" v="3819"/>
    <tag k="addr:street" v="States Prison Hollow Road"/>
    <tag k="addr:state" v="VT"/>
    <tag k="ref:vcgi:esiteid" v="617907"/>
  </node>
  <node id="-1008" visible="true" lat="44.23477305" lon="-73.09496838">
    <tag k="addr:housenumber" v="157"/>
    <tag k="addr:street" v="Hidden Acres Drive"/>
    <tag k="addr:state" v="VT"/>
    <tag k="ref:vcgi:esiteid" v="617908"/>
  </node>
  <node id="-1009" visible="true" lat="44.2340916" lon="-73.09482242">
    <tag k="addr:housenumber" v="159"/>
    <tag k="addr:street" v="Hidden Acres Drive"/>
    <tag k="addr:state" v="VT"/>
    <tag k="ref:vcgi:esiteid" v="617909"/>
  </node>
  <node id="-1010" visible="true" lat="44.23325889" lon="-73.09813853">
    <tag k="addr:housenumber" v="39"/>
    <tag k="addr:street" v="Perron Drive"/>
    <tag k="addr:state" v="VT"/>
    <tag k="ref:vcgi:esiteid" v="618211"/>
  </node>
  <node id="-1011" visible="true" lat="44.23454241" lon="-73.09819873">
    <tag k="addr:housenumber" v="16"/>
    <tag k="addr:street" v="Hidden Acres Drive"/>
    <tag k="addr:state" v="VT"/>
    <tag k="ref:vcgi:esiteid" v="618212"/>
  </node>
  <node id="-1012" visible="true" lat="44.25815773" lon="-73.17667689">
    <tag k="addr:housenumber" v="82"/>
    <tag k="addr:street" v="Douglas Road"/>
    <tag k="addr:state" v="VT"/>
    <tag k="ref:vcgi:esiteid" v="618213"/>
  </node>
  <node id="-1013" visible="true" lat="44.26255379" lon="-73.12722727">
    <tag k="addr:housenumber" v="49"/>
    <tag k="addr:street" v="Windy Ridge"/>
    <tag k="addr:state" v="VT"/>
    <tag k="ref:vcgi:esiteid" v="618214"/>
  </node>
  <node id="-1014" visible="true" lat="44.23386809" lon="-73.16969227">
    <tag k="addr:housenumber" v="912"/>
    <tag k="addr:street" v="Bennett Road"/>
    <tag k="addr:state" v="VT"/>
    <tag k="ref:vcgi:esiteid" v="618215"/>
  </node>
  <node id="-1015" visible="true" lat="44.23163467" lon="-73.167926">
    <tag k="addr:housenumber" v="1037"/>
    <tag k="addr:street" v="Bennett Road"/>
    <tag k="addr:state" v="VT"/>
    <tag k="ref:vcgi:esiteid" v="618216"/>
  </node>
  <node id="-1016" visible="true" lat="44.24345346" lon="-73.13995265">
    <tag k="addr:housenumber" v="1040"/>
    <tag k="addr:street" v="Monkton Road"/>
    <tag k="addr:state" v="VT"/>
    <tag k="ref:vcgi:esiteid" v="618217"/>
  </node>
  <node id="-1019" visible="true" lat="44.17677745" lon="-73.15117823">
    <tag k="addr:housenumber" v="14"/>
    <tag k="addr:street" v="Parks Hurlburt Road"/>
    <tag k="addr:state" v="VT"/>
    <tag k="ref:vcgi:esiteid" v="620353"/>
  </node>
  <node id="-1020" visible="true" lat="44.23257717" lon="-73.09823445">
    <tag k="addr:housenumber" v="78"/>
    <tag k="addr:street" v="Perron Drive"/>
    <tag k="addr:state" v="VT"/>
    <tag k="ref:vcgi:esiteid" v="620419"/>
  </node>
  <node id="-1021" visible="true" lat="44.23262543" lon="-73.09733868">
    <tag k="addr:housenumber" v="210"/>
    <tag k="addr:street" v="Perron Drive"/>
    <tag k="addr:state" v="VT"/>
    <tag k="ref:vcgi:esiteid" v="620420"/>
  </node>
  <node id="-1022" visible="true" lat="44.2327355" lon="-73.09669468">
    <tag k="addr:housenumber" v="234"/>
    <tag k="addr:street" v="Perron Drive"/>
    <tag k="addr:state" v="VT"/>
    <tag k="ref:vcgi:esiteid" v="620421"/>
  </node>
  <node id="-1023" visible="true" lat="44.25948698" lon="-73.13409841">
    <tag k="addr:housenumber" v="388"/>
    <tag k="addr:street" v="Rotax Road"/>
    <tag k="addr:state" v="VT"/>
    <tag k="ref:vcgi:esiteid" v="620422"/>
  </node>
  <node id="-1025" visible="true" lat="44.22947881" lon="-73.16700957">
    <tag k="addr:housenumber" v="1048"/>
    <tag k="addr:street" v="Nichols Road"/>
    <tag k="addr:state" v="VT"/>
    <tag k="ref:vcgi:esiteid" v="620424"/>
  </node>
  <node id="-1026" visible="true" lat="44.20598599" lon="-73.1199097">
    <tag k="addr:housenumber" v="225"/>
    <tag k="addr:street" v="Sugarhouse Road"/>
    <tag k="addr:state" v="VT"/>
    <tag k="ref:vcgi:esiteid" v="620425"/>
  </node>
  <node id="-1027" visible="true" lat="44.20593054" lon="-73.12094449">
    <tag k="addr:housenumber" v="187"/>
    <tag k="addr:street" v="Sugarhouse Road"/>
    <tag k="addr:state" v="VT"/>
    <tag k="ref:vcgi:esiteid" v="620426"/>
  </node>
  <node id="-1028" visible="true" lat="44.20537006" lon="-73.12173386">
    <tag k="addr:housenumber" v="147"/>
    <tag k="addr:street" v="Sugarhouse Road"/>
    <tag k="addr:state" v="VT"/>
    <tag k="ref:vcgi:esiteid" v="620427"/>
  </node>
  <node id="-1029" visible="true" lat="44.20484417" lon="-73.12109739">
    <tag k="addr:housenumber" v="136"/>
    <tag k="addr:street" v="Sugarhouse Road"/>
    <tag k="addr:state" v="VT"/>
    <tag k="ref:vcgi:esiteid" v="620428"/>
  </node>
  <node id="-1030" visible="true" lat="44.26562278" lon="-73.16639372">
    <tag k="addr:housenumber" v="31"/>
    <tag k="addr:street" v="Cardinal Lane"/>
    <tag k="addr:state" v="VT"/>
    <tag k="ref:vcgi:esiteid" v="620676"/>
  </node>
  <node id="-1031" visible="true" lat="44.20024049" lon="-73.11974046">
    <tag k="addr:housenumber" v="48"/>
    <tag k="addr:street" v="Charlottes Way"/>
    <tag k="addr:state" v="VT"/>
    <tag k="ref:vcgi:esiteid" v="620677"/>
  </node>
  <node id="-1032" visible="true" lat="44.20090179" lon="-73.12063745">
    <tag k="addr:housenumber" v="109"/>
    <tag k="addr:street" v="Charlottes Way"/>
    <tag k="addr:state" v="VT"/>
    <tag k="ref:vcgi:esiteid" v="620678"/>
  </node>
  <node id="-1033" visible="true" lat="44.18491133" lon="-73.10723484">
    <tag k="addr:housenumber" v="4822"/>
    <tag k="addr:street" v="Bristol Road"/>
    <tag k="addr:state" v="VT"/>
    <tag k="ref:vcgi:esiteid" v="620679"/>
  </node>
  <node id="-1035" visible="true" lat="44.26804661" lon="-73.13756253">
    <tag k="addr:housenumber" v="340"/>
    <tag k="addr:street" v="Davis Road"/>
    <tag k="addr:state" v="VT"/>
    <tag k="ref:vcgi:esiteid" v="655748"/>
  </node>
  <node id="-1036" visible="true" lat="44.23705336" lon="-73.14430846">
    <tag k="addr:housenumber" v="1569"/>
    <tag k="addr:street" v="Monkton Road"/>
    <tag k="addr:state" v="VT"/>
    <tag k="ref:vcgi:esiteid" v="655749"/>
  </node>
  <node id="-1038" visible="true" lat="44.25453989" lon="-73.18518932">
    <tag k="addr:housenumber" v="2526"/>
    <tag k="addr:street" v="Hollow Road"/>
    <tag k="addr:state" v="VT"/>
    <tag k="ref:vcgi:esiteid" v="750461"/>
  </node>
  <node id="-1039" visible="true" lat="44.20569788" lon="-73.11262666">
    <tag k="addr:housenumber" v="3321"/>
    <tag k="addr:street" v="Bristol Road"/>
    <tag k="addr:state" v="VT"/>
    <tag k="ref:vcgi:esiteid" v="750462"/>
  </node>
  <node id="-1044" visible="true" lat="44.24998056" lon="-73.13861137">
    <tag k="addr:housenumber" v="185"/>
    <tag k="addr:street" v="Access Road"/>
    <tag k="addr:state" v="VT"/>
    <tag k="ref:vcgi:esiteid" v="751814"/>
  </node>
  <node id="-1046" visible="true" lat="44.26788718" lon="-73.16413634">
    <tag k="addr:housenumber" v="244"/>
    <tag k="addr:street" v="Cemetery Road"/>
    <tag k="addr:state" v="VT"/>
    <tag k="ref:vcgi:esiteid" v="752503"/>
  </node>
  <node id="-1049" visible="true" lat="44.27710718" lon="-73.08150806">
    <tag k="addr:housenumber" v="940"/>
    <tag k="addr:street" v="Tyler Bridge Road"/>
    <tag k="addr:state" v="VT"/>
    <tag k="ref:vcgi:esiteid" v="753592"/>
  </node>
  <node id="-1050" visible="true" lat="44.26634958" lon="-73.1600836">
    <tag k="addr:housenumber" v="2022"/>
    <tag k="addr:street" v="Rotax Road"/>
    <tag k="addr:state" v="VT"/>
    <tag k="ref:vcgi:esiteid" v="753755"/>
  </node>
  <node id="-1052" visible="true" lat="44.23377549" lon="-73.09806948">
    <tag k="addr:housenumber" v="18"/>
    <tag k="addr:street" v="Hidden Acres Drive"/>
    <tag k="addr:state" v="VT"/>
    <tag k="ref:vcgi:esiteid" v="754704"/>
  </node>
  <node id="-1053" visible="true" lat="44.19859066" lon="-73.12083702">
    <tag k="addr:housenumber" v="31"/>
    <tag k="addr:street" v="Birch Lane"/>
    <tag k="addr:state" v="VT"/>
    <tag k="ref:vcgi:esiteid" v="754705"/>
  </node>
  <node id="-1056" visible="true" lat="44.20498996" lon="-73.12036341">
    <tag k="addr:housenumber" v="196"/>
    <tag k="addr:street" v="Sugarhouse Road"/>
    <tag k="addr:state" v="VT"/>
    <tag k="ref:vcgi:esiteid" v="757421"/>
  </node>
  <node id="-1057" visible="true" lat="44.25607413" lon="-73.12478572">
    <tag k="addr:housenumber" v="92"/>
    <tag k="addr:street" v="Monkton Ridge"/>
    <tag k="addr:state" v="VT"/>
    <tag k="ref:vcgi:esiteid" v="758614"/>
  </node>
  <node id="-1058" visible="true" lat="44.26397821" lon="-73.16891731">
    <tag k="addr:housenumber" v="2512"/>
    <tag k="addr:street" v="Rotax Road"/>
    <tag k="addr:state" v="VT"/>
    <tag k="ref:vcgi:esiteid" v="759336"/>
  </node>
  <node id="-1059" visible="true" lat="44.22859934" lon="-73.13859866">
    <tag k="addr:housenumber" v="498"/>
    <tag k="addr:street" v="Boro Hill Road"/>
    <tag k="addr:state" v="VT"/>
    <tag k="ref:vcgi:esiteid" v="759361"/>
  </node>
  <node id="-1060" visible="true" lat="44.27673143" lon="-73.11312903">
    <tag k="addr:housenumber" v="3614"/>
    <tag k="addr:street" v="Silver Street"/>
    <tag k="addr:state" v="VT"/>
    <tag k="ref:vcgi:esiteid" v="759362"/>
  </node>
  <node id="-1061" visible="true" lat="44.20420662" lon="-73.08987148">
    <tag k="addr:housenumber" v="3687"/>
    <tag k="addr:street" v="Mountain Road"/>
    <tag k="addr:state" v="VT"/>
    <tag k="ref:vcgi:esiteid" v="759403"/>
  </node>
  <node id="-1062" visible="true" lat="44.20176027" lon="-73.12082037">
    <tag k="addr:housenumber" v="171"/>
    <tag k="addr:street" v="Charlottes Way"/>
    <tag k="addr:state" v="VT"/>
    <tag k="ref:vcgi:esiteid" v="759545"/>
  </node>
  <node id="-1063" visible="true" lat="44.2023413" lon="-73.12022581">
    <tag k="addr:housenumber" v="200"/>
    <tag k="addr:street" v="Charlottes Way"/>
    <tag k="addr:state" v="VT"/>
    <tag k="ref:vcgi:esiteid" v="759546"/>
  </node>
  <node id="-1064" visible="true" lat="44.20212528" lon="-73.12114548">
    <tag k="addr:housenumber" v="221"/>
    <tag k="addr:street" v="Charlottes Way"/>
    <tag k="addr:state" v="VT"/>
    <tag k="ref:vcgi:esiteid" v="759547"/>
  </node>
  <node id="-1065" visible="true" lat="44.20257116" lon="-73.12138065">
    <tag k="addr:housenumber" v="239"/>
    <tag k="addr:street" v="Charlottes Way"/>
    <tag k="addr:state" v="VT"/>
    <tag k="ref:vcgi:esiteid" v="759548"/>
  </node>
  <node id="-1066" visible="true" lat="44.20317993" lon="-73.12030446">
    <tag k="addr:housenumber" v="260"/>
    <tag k="addr:street" v="Charlottes Way"/>
    <tag k="addr:state" v="VT"/>
    <tag k="ref:vcgi:esiteid" v="759549"/>
  </node>
  <node id="-1067" visible="true" lat="44.20309899" lon="-73.12133032">
    <tag k="addr:housenumber" v="261"/>
    <tag k="addr:street" v="Charlottes Way"/>
    <tag k="addr:state" v="VT"/>
    <tag k="ref:vcgi:esiteid" v="759550"/>
  </node>
  <node id="-1068" visible="true" lat="44.26248003" lon="-73.13222429">
    <tag k="addr:housenumber" v="886"/>
    <tag k="addr:street" v="Davis Road"/>
    <tag k="addr:state" v="VT"/>
    <tag k="ref:vcgi:esiteid" v="759803"/>
  </node>
  <node id="-1069" visible="true" lat="44.22514028" lon="-73.12901915">
    <tag k="addr:housenumber" v="312"/>
    <tag k="addr:street" v="Wendland Road"/>
    <tag k="addr:state" v="VT"/>
    <tag k="ref:vcgi:esiteid" v="759985"/>
  </node>
  <node id="-1070" visible="true" lat="44.26954273" lon="-73.15994299">
    <tag k="addr:housenumber" v="315"/>
    <tag k="addr:street" v="Roscoe Road"/>
    <tag k="addr:state" v="VT"/>
    <tag k="ref:vcgi:esiteid" v="760226"/>
  </node>
  <node id="-1071" visible="true" lat="44.2560547" lon="-73.11794547">
    <tag k="addr:housenumber" v="4058"/>
    <tag k="addr:street" v="States Prison Hollow Road"/>
    <tag k="addr:state" v="VT"/>
    <tag k="ref:vcgi:esiteid" v="760227"/>
  </node>
  <node id="-1072" visible="true" lat="44.26543798" lon="-73.15051067">
    <tag k="addr:housenumber" v="1610"/>
    <tag k="addr:street" v="Rotax Road"/>
    <tag k="addr:state" v="VT"/>
    <tag k="ref:vcgi:esiteid" v="760460"/>
  </node>
  <node id="-1073" visible="true" lat="44.24516926" lon="-73.1288499">
    <tag k="addr:housenumber" v="46"/>
    <tag k="addr:street" v="Lakeview Drive"/>
    <tag k="addr:state" v="VT"/>
    <tag k="ref:vcgi:esiteid" v="760461"/>
  </node>
  <node id="-1074" visible="true" lat="44.24589915" lon="-73.13071074">
    <tag k="addr:housenumber" v="106"/>
    <tag k="addr:street" v="Lakeview Drive"/>
    <tag k="addr:state" v="VT"/>
    <tag k="ref:vcgi:esiteid" v="760687"/>
  </node>
  <node id="-1075" visible="true" lat="44.26007862" lon="-73.19206912">
    <tag k="addr:housenumber" v="470"/>
    <tag k="addr:street" v="Higbee Road"/>
    <tag k="addr:state" v="VT"/>
    <tag k="ref:vcgi:esiteid" v="760688"/>
  </node>
  <node id="-1076" visible="true" lat="44.24615241" lon="-73.13120011">
    <tag k="addr:housenumber" v="105"/>
    <tag k="addr:street" v="Lakeview Drive"/>
    <tag k="addr:state" v="VT"/>
    <tag k="ref:vcgi:esiteid" v="760689"/>
  </node>
  <node id="-1077" visible="true" lat="44.22080304" lon="-73.13425562">
    <tag k="addr:housenumber" v="9"/>
    <tag k="addr:street" v="Maple Lane"/>
    <tag k="addr:state" v="VT"/>
    <tag k="ref:vcgi:esiteid" v="760896"/>
  </node>
  <node id="-1078" visible="true" lat="44.26563125" lon="-73.11653641">
    <tag k="addr:housenumber" v="4397"/>
    <tag k="addr:street" v="Silver Street"/>
    <tag k="addr:state" v="VT"/>
    <tag k="ref:vcgi:esiteid" v="761024"/>
  </node>
  <node id="-1079" visible="true" lat="44.26468998" lon="-73.11657148">
    <tag k="addr:housenumber" v="25"/>
    <tag k="addr:street" v="Monarch Lane"/>
    <tag k="addr:state" v="VT"/>
    <tag k="ref:vcgi:esiteid" v="761025"/>
  </node>
  <node id="-1080" visible="true" lat="44.26449179" lon="-73.11523981">
    <tag k="addr:housenumber" v="49"/>
    <tag k="addr:street" v="Monarch Lane"/>
    <tag k="addr:state" v="VT"/>
    <tag k="ref:vcgi:esiteid" v="761026"/>
  </node>
  <node id="-1081" visible="true" lat="44.26378552" lon="-73.11564064">
    <tag k="addr:housenumber" v="37"/>
    <tag k="addr:street" v="Meadow Lane"/>
    <tag k="addr:state" v="VT"/>
    <tag k="ref:vcgi:esiteid" v="761027"/>
  </node>
  <node id="-1082" visible="true" lat="44.26327054" lon="-73.11479372">
    <tag k="addr:housenumber" v="115"/>
    <tag k="addr:street" v="Meadow Lane"/>
    <tag k="addr:state" v="VT"/>
    <tag k="ref:vcgi:esiteid" v="761028"/>
  </node>
  <node id="-1083" visible="true" lat="44.26246437" lon="-73.11465453">
    <tag k="addr:housenumber" v="116"/>
    <tag k="addr:street" v="Meadow Lane"/>
    <tag k="addr:state" v="VT"/>
    <tag k="ref:vcgi:esiteid" v="761029"/>
  </node>
  <node id="-1084" visible="true" lat="44.26292314" lon="-73.11678994">
    <tag k="addr:housenumber" v="135"/>
    <tag k="addr:street" v="Monarch Lane"/>
    <tag k="addr:state" v="VT"/>
    <tag k="ref:vcgi:esiteid" v="761030"/>
  </node>
  <node id="-1085" visible="true" lat="44.26178672" lon="-73.11795216">
    <tag k="addr:housenumber" v="136"/>
    <tag k="addr:street" v="Monarch Lane"/>
    <tag k="addr:state" v="VT"/>
    <tag k="ref:vcgi:esiteid" v="761031"/>
  </node>
  <node id="-1086" visible="true" lat="44.2089749" lon="-73.12887509">
    <tag k="addr:housenumber" v="2449"/>
    <tag k="addr:street" v="Boro Hill Road"/>
    <tag k="addr:state" v="VT"/>
    <tag k="ref:vcgi:esiteid" v="761437"/>
  </node>
  <node id="-1087" visible="true" lat="44.27396979" lon="-73.11067352">
    <tag k="addr:housenumber" v="3721"/>
    <tag k="addr:street" v="Silver Street"/>
    <tag k="addr:state" v="VT"/>
    <tag k="ref:vcgi:esiteid" v="761438"/>
  </node>
  <node id="-1088" visible="true" lat="44.22588827" lon="-73.14799538">
    <tag k="addr:housenumber" v="113"/>
    <tag k="addr:street" v="Owl Mountain Road"/>
    <tag k="addr:state" v="VT"/>
    <tag k="ref:vcgi:esiteid" v="762095"/>
  </node>
  <node id="-1089" visible="true" lat="44.26188378" lon="-73.13407302">
    <tag k="addr:housenumber" v="1422"/>
    <tag k="addr:street" v="Pond Road"/>
    <tag k="addr:state" v="VT"/>
    <tag k="ref:vcgi:esiteid" v="762398"/>
  </node>
  <node id="-1090" visible="true" lat="44.24189068" lon="-73.09866139">
    <tag k="addr:housenumber" v="1050"/>
    <tag k="addr:street" v="Mountain Road"/>
    <tag k="addr:state" v="VT"/>
    <tag k="ref:vcgi:esiteid" v="763659"/>
  </node>
  <node id="-1091" visible="true" lat="44.27045069" lon="-73.09603668">
    <tag k="addr:housenumber" v="199"/>
    <tag k="addr:street" v="Twin Ridge Road"/>
    <tag k="addr:state" v="VT"/>
    <tag k="ref:vcgi:esiteid" v="763827"/>
  </node>
  <node id="-1092" visible="true" lat="44.22152424" lon="-73.13405822">
    <tag k="addr:housenumber" v="1443"/>
    <tag k="addr:street" v="Boro Hill Road"/>
    <tag k="addr:state" v="VT"/>
    <tag k="ref:vcgi:esiteid" v="764215"/>
  </node>
  <node id="-1093" visible="true" lat="44.22499036" lon="-73.12458756">
    <tag k="addr:housenumber" v="979"/>
    <tag k="addr:street" v="Wendland Road"/>
    <tag k="addr:state" v="VT"/>
    <tag k="ref:vcgi:esiteid" v="766474"/>
  </node>
  <node id="-1094" visible="true" lat="44.24305368" lon="-73.14826966">
    <tag k="addr:housenumber" v="303"/>
    <tag k="addr:street" v="Cedar Lane"/>
    <tag k="addr:state" v="VT"/>
    <tag k="ref:vcgi:esiteid" v="767505"/>
  </node>
  <node id="-1095" visible="true" lat="44.19998909" lon="-73.12605576">
    <tag k="addr:housenumber" v="18"/>
    <tag k="addr:street" v="Apple Blossom Road"/>
    <tag k="addr:state" v="VT"/>
    <tag k="ref:vcgi:esiteid" v="767506"/>
  </node>
  <node id="-1096" visible="true" lat="44.19967937" lon="-73.12597175">
    <tag k="addr:housenumber" v="19"/>
    <tag k="addr:street" v="Apple Blossom Road"/>
    <tag k="addr:state" v="VT"/>
    <tag k="ref:vcgi:esiteid" v="767507"/>
  </node>
  <node id="-1098" visible="true" lat="44.1997382" lon="-73.12680986">
    <tag k="addr:housenumber" v="56"/>
    <tag k="addr:street" v="Apple Blossom Road"/>
    <tag k="addr:state" v="VT"/>
    <tag k="ref:vcgi:esiteid" v="767509"/>
  </node>
  <node id="-1099" visible="true" lat="44.19928272" lon="-73.12716864">
    <tag k="addr:housenumber" v="88"/>
    <tag k="addr:street" v="Apple Blossom Road"/>
    <tag k="addr:state" v="VT"/>
    <tag k="ref:vcgi:esiteid" v="767510"/>
  </node>
  <node id="-1100" visible="true" lat="44.22003228" lon="-73.16648208">
    <tag k="addr:housenumber" v="359"/>
    <tag k="addr:street" v="Nichols Road"/>
    <tag k="addr:state" v="VT"/>
    <tag k="ref:vcgi:esiteid" v="767560"/>
  </node>
  <node id="-1101" visible="true" lat="44.25364003" lon="-73.09621898">
    <tag k="addr:housenumber" v="263"/>
    <tag k="addr:street" v="Mountain Road"/>
    <tag k="addr:state" v="VT"/>
    <tag k="ref:vcgi:esiteid" v="767636"/>
  </node>
  <node id="-1102" visible="true" lat="44.20593161" lon="-73.11171122">
    <tag k="addr:housenumber" v="3319"/>
    <tag k="addr:street" v="Bristol Road"/>
    <tag k="addr:state" v="VT"/>
    <tag k="ref:vcgi:esiteid" v="767637"/>
  </node>
  <node id="-1103" visible="true" lat="44.27136886" lon="-73.13257839">
    <tag k="addr:housenumber" v="303"/>
    <tag k="addr:street" v="Davis Road"/>
    <tag k="addr:state" v="VT"/>
    <tag k="ref:vcgi:esiteid" v="767652"/>
  </node>
  <node id="-1105" visible="true" lat="44.20360441" lon="-73.11267049">
    <tag k="addr:housenumber" v="3460"/>
    <tag k="addr:street" v="Bristol Road"/>
    <tag k="addr:state" v="VT"/>
    <tag k="ref:vcgi:esiteid" v="767775"/>
  </node>
  <node id="-1106" visible="true" lat="44.20047017" lon="-73.16006514">
    <tag k="addr:housenumber" v="538"/>
    <tag k="addr:street" v="Old Stage Road"/>
    <tag k="addr:state" v="VT"/>
    <tag k="ref:vcgi:esiteid" v="767785"/>
  </node>
  <node id="-1107" visible="true" lat="44.23010242" lon="-73.11872112">
    <tag k="addr:housenumber" v="1602"/>
    <tag k="addr:street" v="Bristol Road"/>
    <tag k="addr:state" v="VT"/>
    <tag k="ref:vcgi:esiteid" v="767792"/>
  </node>
  <node id="-1108" visible="true" lat="44.2684834" lon="-73.08680117">
    <tag k="addr:housenumber" v="1655"/>
    <tag k="addr:street" v="Tyler Bridge Road"/>
    <tag k="addr:state" v="VT"/>
    <tag k="ref:vcgi:esiteid" v="768010"/>
  </node>
  <node id="-1109" visible="true" lat="44.22081962" lon="-73.13546856">
    <tag k="addr:housenumber" v="1536"/>
    <tag k="addr:street" v="Boro Hill Road"/>
    <tag k="addr:state" v="VT"/>
    <tag k="ref:vcgi:esiteid" v="768036"/>
  </node>
  <node id="-1110" visible="true" lat="44.26032756" lon="-73.1274993">
    <tag k="addr:housenumber" v="1080"/>
    <tag k="addr:street" v="Davis Road"/>
    <tag k="addr:state" v="VT"/>
    <tag k="ref:vcgi:esiteid" v="768820"/>
  </node>
  <node id="-1111" visible="true" lat="44.19665602" lon="-73.10965044">
    <tag k="addr:housenumber" v="3991"/>
    <tag k="addr:street" v="Bristol Road"/>
    <tag k="addr:state" v="VT"/>
    <tag k="ref:vcgi:esiteid" v="769961"/>
  </node>
  <node id="-1112" visible="true" lat="44.24265055" lon="-73.17200019">
    <tag k="addr:housenumber" v="290"/>
    <tag k="addr:street" v="Bennett Road"/>
    <tag k="addr:state" v="VT"/>
    <tag k="ref:vcgi:esiteid" v="770137"/>
  </node>
  <node id="-1113" visible="true" lat="44.26562444" lon="-73.18754788">
    <tag k="addr:housenumber" v="310"/>
    <tag k="addr:street" v="Morgan Road"/>
    <tag k="addr:state" v="VT"/>
    <tag k="ref:vcgi:esiteid" v="770214"/>
  </node>
</osm>
