<?xml version="1.0" encoding="UTF-8"?>
<osm version="0.6" generator="JOSM">
  <node id="-100" visible="true" lat="44.27513661" lon="-73.13176909">
    <!-- conflict: "3373 Baldwin Road, Monkton, VT" Fuzzy match to "3373 Baldwin Road, Hinesburg, VT" -->
    <tag k="addr:city" v="Monkton"/>
    <tag k="addr:housenumber" v="3373"/>
    <tag k="addr:street" v="Baldwin Road"/>
    <tag k="addr:state" v="VT"/>
    <tag k="ref:vcgi:esiteid" v="129686"/>
  </node>
  <node id="-108" visible="true" lat="44.27498566" lon="-73.09498936">
    <!-- conflict: "501 Twin Ridge Road, Monkton, VT" Fuzzy match to "501 Twin Ridge Road, Monkton, " -->
    <tag k="addr:city" v="Monkton"/>
    <tag k="addr:housenumber" v="501"/>
    <tag k="addr:street" v="Twin Ridge Road"/>
    <tag k="addr:state" v="VT"/>
    <tag k="ref:vcgi:esiteid" v="162597"/>
  </node>
  <node id="-169" visible="true" lat="44.26361197" lon="-73.11798107">
    <!-- conflict: "4537 Silver Street, Monkton, VT" No match in OSM, but a different address exists <5m away: "4357 Silver Street, Monkton, VT" -->
    <tag k="addr:city" v="Monkton"/>
    <tag k="addr:housenumber" v="4537"/>
    <tag k="addr:street" v="Silver Street"/>
    <tag k="addr:state" v="VT"/>
    <tag k="ref:vcgi:esiteid" v="162658"/>
  </node>
  <node id="-175" visible="true" lat="44.26252566" lon="-73.12975699">
    <!-- conflict: "934 Davis Road, Monkton, VT" No match in OSM, but a different address exists <5m away: "634 Davis Road, Monkton, VT" -->
    <tag k="addr:city" v="Monkton"/>
    <tag k="addr:housenumber" v="934"/>
    <tag k="addr:street" v="Davis Road"/>
    <tag k="addr:state" v="VT"/>
    <tag k="ref:vcgi:esiteid" v="162664"/>
  </node>
  <node id="-208" visible="true" lat="44.25861741" lon="-73.13208468">
    <!-- conflict: "23 Abcd Lane, Monkton, VT" Fuzzy match to "23 A B C D Lane, Monkton, VT" -->
    <tag k="addr:city" v="Monkton"/>
    <tag k="addr:housenumber" v="23"/>
    <tag k="addr:street" v="Abcd Lane"/>
    <tag k="addr:state" v="VT"/>
    <tag k="ref:vcgi:esiteid" v="162697"/>
  </node>
  <node id="-216" visible="true" lat="44.2578338" lon="-73.13183563">
    <!-- conflict: "77 Abcd Lane, Monkton, VT" Fuzzy match to "77 A B C D Lane, Monkton, VT" -->
    <tag k="addr:city" v="Monkton"/>
    <tag k="addr:housenumber" v="77"/>
    <tag k="addr:street" v="Abcd Lane"/>
    <tag k="addr:state" v="VT"/>
    <tag k="ref:vcgi:esiteid" v="162705"/>
  </node>
  <node id="-228" visible="true" lat="44.25696945" lon="-73.13162994">
    <!-- conflict: "137 Abcd Lane, Monkton, VT" Fuzzy match to "137 A B C D Lane, Monkton, VT" -->
    <tag k="addr:city" v="Monkton"/>
    <tag k="addr:housenumber" v="137"/>
    <tag k="addr:street" v="Abcd Lane"/>
    <tag k="addr:state" v="VT"/>
    <tag k="ref:vcgi:esiteid" v="162717"/>
  </node>
  <node id="-238" visible="true" lat="44.2562561" lon="-73.13136291">
    <!-- conflict: "187 Abcd Lane, Monkton, VT" Fuzzy match to "187 A B C D Lane, Monkton, VT" -->
    <tag k="addr:city" v="Monkton"/>
    <tag k="addr:housenumber" v="187"/>
    <tag k="addr:street" v="Abcd Lane"/>
    <tag k="addr:state" v="VT"/>
    <tag k="ref:vcgi:esiteid" v="162727"/>
  </node>
  <node id="-259" visible="true" lat="44.25461282" lon="-73.11868021">
    <!-- conflict: "4087 States Prison Hollow Road, Monkton, VT" Fuzzy match to "4087 States Prison Hollow Road, Monkton, " -->
    <tag k="addr:city" v="Monkton"/>
    <tag k="addr:housenumber" v="4087"/>
    <tag k="addr:street" v="States Prison Hollow Road"/>
    <tag k="addr:state" v="VT"/>
    <tag k="ref:vcgi:esiteid" v="162749"/>
  </node>
  <node id="-263" visible="true" lat="44.25452527" lon="-73.12378688">
    <!-- conflict: "231 Monkton Ridge, Monkton, VT" Fuzzy match to "231 Monkton Ridge, , " -->
    <tag k="addr:city" v="Monkton"/>
    <tag k="addr:housenumber" v="231"/>
    <tag k="addr:street" v="Monkton Ridge"/>
    <tag k="addr:state" v="VT"/>
    <tag k="ref:vcgi:esiteid" v="162754"/>
  </node>
  <node id="-272" visible="true" lat="44.25433031" lon="-73.09864855">
    <!-- conflict: "212 Mountain Road, Monkton, VT" Fuzzy match to "212 Mountain Road, Monkton, " -->
    <tag k="addr:city" v="Monkton"/>
    <tag k="addr:housenumber" v="212"/>
    <tag k="addr:street" v="Mountain Road"/>
    <tag k="addr:state" v="VT"/>
    <tag k="ref:vcgi:esiteid" v="162763"/>
  </node>
  <node id="-279" visible="true" lat="44.25392878" lon="-73.12418797">
    <!-- conflict: "280 Monkton Ridge, Monkton, VT" No match in OSM, but a different address exists <5m away: "278 Monkton Ridge, Monkton, VT" -->
    <tag k="addr:city" v="Monkton"/>
    <tag k="addr:housenumber" v="280"/>
    <tag k="addr:street" v="Monkton Ridge"/>
    <tag k="addr:state" v="VT"/>
    <tag k="ref:vcgi:esiteid" v="162771"/>
  </node>
  <node id="-322" visible="true" lat="44.25145339" lon="-73.13782501">
    <!-- conflict: "105 South Camp Road, Monkton, VT" No match in OSM, but a different address exists <5m away: "105 Camp Road, Monkton, VT" -->
    <tag k="addr:city" v="Monkton"/>
    <tag k="addr:housenumber" v="105"/>
    <tag k="addr:street" v="South Camp Road"/>
    <tag k="addr:state" v="VT"/>
    <tag k="ref:vcgi:esiteid" v="162815"/>
  </node>
  <node id="-325" visible="true" lat="44.25126014" lon="-73.13787083">
    <!-- conflict: "115 South Camp Road, Monkton, VT" No match in OSM, but a different address exists <5m away: "115 Camp Road, Monkton, VT" -->
    <tag k="addr:city" v="Monkton"/>
    <tag k="addr:housenumber" v="115"/>
    <tag k="addr:street" v="South Camp Road"/>
    <tag k="addr:state" v="VT"/>
    <tag k="ref:vcgi:esiteid" v="162818"/>
  </node>
  <node id="-326" visible="true" lat="44.25115164" lon="-73.13795446">
    <!-- conflict: "125 South Camp Road, Monkton, VT" No match in OSM, but a different address exists <5m away: "125 Camp Road, Monkton, VT" -->
    <tag k="addr:city" v="Monkton"/>
    <tag k="addr:housenumber" v="125"/>
    <tag k="addr:street" v="South Camp Road"/>
    <tag k="addr:state" v="VT"/>
    <tag k="ref:vcgi:esiteid" v="162819"/>
  </node>
  <node id="-327" visible="true" lat="44.25102605" lon="-73.13800826">
    <!-- conflict: "129 South Camp Road, Monkton, VT" No match in OSM, but a different address exists <5m away: "129 Camp Road, Monkton, VT" -->
    <tag k="addr:city" v="Monkton"/>
    <tag k="addr:housenumber" v="129"/>
    <tag k="addr:street" v="South Camp Road"/>
    <tag k="addr:state" v="VT"/>
    <tag k="ref:vcgi:esiteid" v="162820"/>
  </node>
  <node id="-328" visible="true" lat="44.25092836" lon="-73.13805268">
    <!-- conflict: "153 South Camp Road, Monkton, VT" No match in OSM, but a different address exists <5m away: "153 Camp Road, Monkton, VT" -->
    <tag k="addr:city" v="Monkton"/>
    <tag k="addr:housenumber" v="153"/>
    <tag k="addr:street" v="South Camp Road"/>
    <tag k="addr:state" v="VT"/>
    <tag k="ref:vcgi:esiteid" v="162821"/>
  </node>
  <node id="-331" visible="true" lat="44.25080874" lon="-73.13810404">
    <!-- conflict: "163 South Camp Road, Monkton, VT" No match in OSM, but a different address exists <5m away: "163 Camp Road, Monkton, VT" -->
    <tag k="addr:city" v="Monkton"/>
    <tag k="addr:housenumber" v="163"/>
    <tag k="addr:street" v="South Camp Road"/>
    <tag k="addr:state" v="VT"/>
    <tag k="ref:vcgi:esiteid" v="162824"/>
  </node>
  <node id="-332" visible="true" lat="44.25071061" lon="-73.13817314">
    <!-- conflict: "165 South Camp Road, Monkton, VT" No match in OSM, but a different address exists <5m away: "165 Camp Road, Monkton, VT" -->
    <tag k="addr:city" v="Monkton"/>
    <tag k="addr:housenumber" v="165"/>
    <tag k="addr:street" v="South Camp Road"/>
    <tag k="addr:state" v="VT"/>
    <tag k="ref:vcgi:esiteid" v="162825"/>
  </node>
  <node id="-333" visible="true" lat="44.25062265" lon="-73.13823078">
    <!-- conflict: "177 South Camp Road, Monkton, VT" No match in OSM, but a different address exists <5m away: "177 Camp Road, Monkton, VT" -->
    <tag k="addr:city" v="Monkton"/>
    <tag k="addr:housenumber" v="177"/>
    <tag k="addr:street" v="South Camp Road"/>
    <tag k="addr:state" v="VT"/>
    <tag k="ref:vcgi:esiteid" v="162826"/>
  </node>
  <node id="-334" visible="true" lat="44.25050873" lon="-73.1382784">
    <!-- conflict: "179 South Camp Road, Monkton, VT" No match in OSM, but a different address exists <5m away: "179 Camp Road, Monkton, VT" -->
    <tag k="addr:city" v="Monkton"/>
    <tag k="addr:housenumber" v="179"/>
    <tag k="addr:street" v="South Camp Road"/>
    <tag k="addr:state" v="VT"/>
    <tag k="ref:vcgi:esiteid" v="162827"/>
  </node>
  <node id="-335" visible="true" lat="44.25041556" lon="-73.138303">
    <!-- conflict: "189 South Camp Road, Monkton, VT" No match in OSM, but a different address exists <5m away: "189 Camp Road, Monkton, VT" -->
    <tag k="addr:city" v="Monkton"/>
    <tag k="addr:housenumber" v="189"/>
    <tag k="addr:street" v="South Camp Road"/>
    <tag k="addr:state" v="VT"/>
    <tag k="ref:vcgi:esiteid" v="162828"/>
  </node>
  <node id="-337" visible="true" lat="44.25025052" lon="-73.13830216">
    <!-- conflict: "191 South Camp Road, Monkton, VT" No match in OSM, but a different address exists <5m away: "191 Camp Road, Monkton, VT" -->
    <tag k="addr:city" v="Monkton"/>
    <tag k="addr:housenumber" v="191"/>
    <tag k="addr:street" v="South Camp Road"/>
    <tag k="addr:state" v="VT"/>
    <tag k="ref:vcgi:esiteid" v="162830"/>
  </node>
  <node id="-403" visible="true" lat="44.24343443" lon="-73.12102794">
    <!-- conflict: "686 Bristol Road, Monkton, VT" No match in OSM, but a different address exists <5m away: "636 Bristol Road, Monkton, VT" -->
    <tag k="addr:city" v="Monkton"/>
    <tag k="addr:housenumber" v="686"/>
    <tag k="addr:street" v="Bristol Road"/>
    <tag k="addr:state" v="VT"/>
    <tag k="ref:vcgi:esiteid" v="162899"/>
  </node>
  <node id="-408" visible="true" lat="44.24190521" lon="-73.15529632">
    <!-- conflict: "58 Stillson Lane, Monkton, VT" Fuzzy match to "58 Stillson Road, Monkton, VT" -->
    <tag k="addr:city" v="Monkton"/>
    <tag k="addr:housenumber" v="58"/>
    <tag k="addr:street" v="Stillson Lane"/>
    <tag k="addr:state" v="VT"/>
    <tag k="ref:vcgi:esiteid" v="162905"/>
  </node>
  <node id="-456" visible="true" lat="44.23582458" lon="-73.13931274">
    <!-- conflict: "261 Boro Hill Road, Monkton, VT" Fuzzy match to "261 Boro Hill Road, , " -->
    <tag k="addr:city" v="Monkton"/>
    <tag k="addr:housenumber" v="261"/>
    <tag k="addr:street" v="Boro Hill Road"/>
    <tag k="addr:state" v="VT"/>
    <tag k="ref:vcgi:esiteid" v="162954"/>
  </node>
  <node id="-469" visible="true" lat="44.23482894" lon="-73.13896179">
    <!-- conflict: "345 Boro Hill Road, Monkton, VT" Fuzzy match to "345 Boro Hill Road, Monkton, " -->
    <tag k="addr:city" v="Monkton"/>
    <tag k="addr:housenumber" v="345"/>
    <tag k="addr:street" v="Boro Hill Road"/>
    <tag k="addr:state" v="VT"/>
    <tag k="ref:vcgi:esiteid" v="162967"/>
  </node>
  <node id="-540" visible="true" lat="44.22203241" lon="-73.18605721">
    <!-- conflict: "610 Ledge Lane, Monkton, VT" Fuzzy match to "610 Ledge Road, Monkton, VT" -->
    <tag k="addr:city" v="Monkton"/>
    <tag k="addr:housenumber" v="610"/>
    <tag k="addr:street" v="Ledge Lane"/>
    <tag k="addr:state" v="VT"/>
    <tag k="ref:vcgi:esiteid" v="163038"/>
  </node>
  <node id="-541" visible="true" lat="44.22185754" lon="-73.12593557">
    <!-- conflict: "682 Wendland Road, Monkton, VT" Fuzzy match to "682 Wendland Road, Monkton Road, VT" -->
    <tag k="addr:city" v="Monkton"/>
    <tag k="addr:housenumber" v="682"/>
    <tag k="addr:street" v="Wendland Road"/>
    <tag k="addr:state" v="VT"/>
    <tag k="ref:vcgi:esiteid" v="163039"/>
  </node>
  <node id="-597" visible="true" lat="44.21007992" lon="-73.12658779">
    <!-- conflict: "2557 Boro Hill Road, Monkton, VT" No match in OSM, but a different address exists <5m away: "2577 Boro Hill Road, Monkton, VT" -->
    <tag k="addr:city" v="Monkton"/>
    <tag k="addr:housenumber" v="2557"/>
    <tag k="addr:street" v="Boro Hill Road"/>
    <tag k="addr:state" v="VT"/>
    <tag k="ref:vcgi:esiteid" v="163095"/>
  </node>
  <node id="-632" visible="true" lat="44.20423685" lon="-73.13514433">
    <!-- conflict: "208 Coon Club Road, Monkton, VT" No match in OSM, but a different address exists <5m away: "206 Coon Club Road, Monkton, VT" -->
    <tag k="addr:city" v="Monkton"/>
    <tag k="addr:housenumber" v="208"/>
    <tag k="addr:street" v="Coon Club Road"/>
    <tag k="addr:state" v="VT"/>
    <tag k="ref:vcgi:esiteid" v="163130"/>
  </node>
  <node id="-640" visible="true" lat="44.20329573" lon="-73.10739078">
    <!-- conflict: "295 Church Road, Monkton, VT" No match in OSM, but a different address exists <5m away: "294 Church Road, Monkton, VT" -->
    <tag k="addr:city" v="Monkton"/>
    <tag k="addr:housenumber" v="295"/>
    <tag k="addr:street" v="Church Road"/>
    <tag k="addr:state" v="VT"/>
    <tag k="ref:vcgi:esiteid" v="163138"/>
  </node>
  <node id="-693" visible="true" lat="44.18873799" lon="-73.17940763">
    <!-- conflict: "5742 Monkton Road, Monkton, VT" Fuzzy match to "5742 Monkton Road, , " -->
    <tag k="addr:city" v="Monkton"/>
    <tag k="addr:housenumber" v="5742"/>
    <tag k="addr:street" v="Monkton Road"/>
    <tag k="addr:state" v="VT"/>
    <tag k="ref:vcgi:esiteid" v="163192"/>
  </node>
  <node id="-695" visible="true" lat="44.18785536" lon="-73.17806174">
    <!-- conflict: "5685 Monkton Road, Monkton, VT" Fuzzy match to "5685 Monkton Road, , " -->
    <tag k="addr:city" v="Monkton"/>
    <tag k="addr:housenumber" v="5685"/>
    <tag k="addr:street" v="Monkton Road"/>
    <tag k="addr:state" v="VT"/>
    <tag k="ref:vcgi:esiteid" v="163194"/>
  </node>
  <node id="-719" visible="true" lat="44.18094375" lon="-73.12047194">
    <!-- conflict: "2348 Hardscrabble Road, Monkton, VT" Fuzzy match to "2348 Hardscrabble Road, Bristol, VT" -->
    <tag k="addr:city" v="Monkton"/>
    <tag k="addr:housenumber" v="2348"/>
    <tag k="addr:street" v="Hardscrabble Road"/>
    <tag k="addr:state" v="VT"/>
    <tag k="ref:vcgi:esiteid" v="163218"/>
  </node>
  <node id="-724" visible="true" lat="44.17769014" lon="-73.17637857">
    <!-- conflict: "3493 Lime Kiln Road, Monkton, VT" Fuzzy match to "3493 Lime Kiln Road, , " -->
    <tag k="addr:city" v="Monkton"/>
    <tag k="addr:housenumber" v="3493"/>
    <tag k="addr:street" v="Lime Kiln Road"/>
    <tag k="addr:state" v="VT"/>
    <tag k="ref:vcgi:esiteid" v="163223"/>
  </node>
  <node id="-727" visible="true" lat="44.17647171" lon="-73.17581939">
    <!-- conflict: "3406 Lime Kiln Road, Monkton, VT" Fuzzy match to "3406 Lime Kiln Road, , " -->
    <tag k="addr:city" v="Monkton"/>
    <tag k="addr:housenumber" v="3406"/>
    <tag k="addr:street" v="Lime Kiln Road"/>
    <tag k="addr:state" v="VT"/>
    <tag k="ref:vcgi:esiteid" v="163226"/>
  </node>
  <node id="-736" visible="true" lat="44.24340057" lon="-73.152565">
    <!-- conflict: "193 Stillson Lane, Monkton, VT" Fuzzy match to "193 Stillson Road, Monkton, VT" -->
    <tag k="addr:city" v="Monkton"/>
    <tag k="addr:housenumber" v="193"/>
    <tag k="addr:street" v="Stillson Lane"/>
    <tag k="addr:state" v="VT"/>
    <tag k="ref:vcgi:esiteid" v="163235"/>
  </node>
  <node id="-737" visible="true" lat="44.2429161" lon="-73.15435028">
    <!-- conflict: "123 Stillson Lane, Monkton, VT" Fuzzy match to "123 Stillson Road, Monkton, VT" -->
    <tag k="addr:city" v="Monkton"/>
    <tag k="addr:housenumber" v="123"/>
    <tag k="addr:street" v="Stillson Lane"/>
    <tag k="addr:state" v="VT"/>
    <tag k="ref:vcgi:esiteid" v="163236"/>
  </node>
  <node id="-758" visible="true" lat="44.17954882" lon="-73.17530435">
    <!-- conflict: "3642 Lime Kiln Road, Monkton, VT" Fuzzy match to "3642 Lime Kiln Road, , " -->
    <tag k="addr:city" v="Monkton"/>
    <tag k="addr:housenumber" v="3642"/>
    <tag k="addr:street" v="Lime Kiln Road"/>
    <tag k="addr:state" v="VT"/>
    <tag k="ref:vcgi:esiteid" v="163259"/>
  </node>
  <node id="-759" visible="true" lat="44.17884359" lon="-73.17659419">
    <!-- conflict: "3595 Lime Kiln Road, Monkton, VT" Fuzzy match to "3595 Lime Kiln Road, , " -->
    <tag k="addr:city" v="Monkton"/>
    <tag k="addr:housenumber" v="3595"/>
    <tag k="addr:street" v="Lime Kiln Road"/>
    <tag k="addr:state" v="VT"/>
    <tag k="ref:vcgi:esiteid" v="163260"/>
  </node>
  <node id="-774" visible="true" lat="44.26210318" lon="-73.12298292">
    <!-- conflict: "35 Twin Maple Road, Monkton, VT" No match in OSM, but a different address exists <5m away: "35 Twin Maples Road, Monkton, VT" -->
    <tag k="addr:city" v="Monkton"/>
    <tag k="addr:housenumber" v="35"/>
    <tag k="addr:street" v="Twin Maple Road"/>
    <tag k="addr:state" v="VT"/>
    <tag k="ref:vcgi:esiteid" v="163275"/>
  </node>
  <node id="-784" visible="true" lat="44.24317234" lon="-73.15667477">
    <!-- conflict: "15 Stillson Lane, Monkton, VT" Fuzzy match to "15 Stillson Road, Monkton, VT" -->
    <tag k="addr:city" v="Monkton"/>
    <tag k="addr:housenumber" v="15"/>
    <tag k="addr:street" v="Stillson Lane"/>
    <tag k="addr:state" v="VT"/>
    <tag k="ref:vcgi:esiteid" v="163285"/>
  </node>
  <node id="-799" visible="true" lat="44.26395885" lon="-73.12765704">
    <!-- conflict: "7A Windy Ridge, Monkton, VT" No match in OSM, but a different address exists <5m away: "7 Windy Ridge, Monkton, VT" -->
    <tag k="addr:city" v="Monkton"/>
    <tag k="addr:housenumber" v="7A"/>
    <tag k="addr:street" v="Windy Ridge"/>
    <tag k="addr:state" v="VT"/>
    <tag k="ref:vcgi:esiteid" v="163300"/>
  </node>
  <node id="-859" visible="true" lat="44.25856163" lon="-73.13712663">
    <!-- conflict: "1207 Pond Road, Monkton, VT" No match in OSM, but a different address exists <5m away: "1027 Pond Road, Monkton, VT" -->
    <tag k="addr:city" v="Monkton"/>
    <tag k="addr:housenumber" v="1207"/>
    <tag k="addr:street" v="Pond Road"/>
    <tag k="addr:state" v="VT"/>
    <tag k="ref:vcgi:esiteid" v="163361"/>
  </node>
  <node id="-894" visible="true" lat="44.21456219" lon="-73.10240782">
    <!-- conflict: "2969B Mountain Road, Monkton, VT" No match in OSM, but a different address exists <5m away: "2699B Mountain Road, Monkton, VT" -->
    <tag k="addr:city" v="Monkton"/>
    <tag k="addr:housenumber" v="2969B"/>
    <tag k="addr:street" v="Mountain Road"/>
    <tag k="addr:state" v="VT"/>
    <tag k="ref:vcgi:esiteid" v="313421"/>
  </node>
  <node id="-918" visible="true" lat="44.24065327" lon="-73.1242492">
    <!-- conflict: "134 Farley Lane, Monkton, VT" Fuzzy match to "134 Farley Lane, Monkton, " -->
    <tag k="addr:city" v="Monkton"/>
    <tag k="addr:housenumber" v="134"/>
    <tag k="addr:street" v="Farley Lane"/>
    <tag k="addr:state" v="VT"/>
    <tag k="ref:vcgi:esiteid" v="329639"/>
  </node>
</osm>
