<?xml version="1.0" encoding="UTF-8"?>
<osm version="0.6" generator="JOSM" upload="false">
  <node id="-167" visible="true" lat="44.27981955" lon="-72.57478151">
    <!-- conflict: "89 Trillium Hill, Montpelier, VT" Fuzzy match to "89 Trillium Hill Road, Montpelier, VT" -->
    <tag k="addr:city" v="Montpelier"/>
    <tag k="addr:housenumber" v="89"/>
    <tag k="addr:street" v="Trillium Hill"/>
    <tag k="addr:state" v="VT"/>
    <tag k="ref:vcgi:esiteid" v="164216"/>
  </node>
  <node id="-168" visible="true" lat="44.27984279" lon="-72.57603058">
    <!-- conflict: "127 Trillium Hill, Montpelier, VT" Fuzzy match to "127 Trillium Hill Road, Montpelier, VT" -->
    <tag k="addr:city" v="Montpelier"/>
    <tag k="addr:housenumber" v="127"/>
    <tag k="addr:street" v="Trillium Hill"/>
    <tag k="addr:state" v="VT"/>
    <tag k="ref:vcgi:esiteid" v="164217"/>
  </node>
  <node id="-169" visible="true" lat="44.2797203" lon="-72.57659149">
    <!-- conflict: "135 Trillium Hill, Montpelier, VT" Fuzzy match to "135 Trillium Hill Road, Montpelier, VT" -->
    <tag k="addr:city" v="Montpelier"/>
    <tag k="addr:housenumber" v="135"/>
    <tag k="addr:street" v="Trillium Hill"/>
    <tag k="addr:state" v="VT"/>
    <tag k="ref:vcgi:esiteid" v="164218"/>
  </node>
  <node id="-171" visible="true" lat="44.27957015" lon="-72.57270112">
    <!-- conflict: "29 Ballfield Drive, Montpelier, VT" No match in OSM, but a different address exists <5m away: "29 Baseball Drive, Montpelier, VT" -->
    <tag k="addr:city" v="Montpelier"/>
    <tag k="addr:housenumber" v="29"/>
    <tag k="addr:street" v="Ballfield Drive"/>
    <tag k="addr:state" v="VT"/>
    <tag k="ref:vcgi:esiteid" v="164220"/>
  </node>
  <node id="-172" visible="true" lat="44.27923965" lon="-72.57587432">
    <!-- conflict: "130 Trillium Hill, Montpelier, VT" Fuzzy match to "130 Trillium Hill Road, Montpelier, VT" -->
    <tag k="addr:city" v="Montpelier"/>
    <tag k="addr:housenumber" v="130"/>
    <tag k="addr:street" v="Trillium Hill"/>
    <tag k="addr:state" v="VT"/>
    <tag k="ref:vcgi:esiteid" v="164221"/>
  </node>
  <node id="-174" visible="true" lat="44.27919012" lon="-72.57524889">
    <!-- conflict: "128 Trillium Hill, Montpelier, VT" Fuzzy match to "128 Trillium Hill Road, Montpelier, VT" -->
    <tag k="addr:city" v="Montpelier"/>
    <tag k="addr:housenumber" v="128"/>
    <tag k="addr:street" v="Trillium Hill"/>
    <tag k="addr:state" v="VT"/>
    <tag k="ref:vcgi:esiteid" v="164223"/>
  </node>
  <node id="-175" visible="true" lat="44.27873426" lon="-72.56164318">
    <!-- conflict: "104 Gidney Place, Montpelier, VT" Fuzzy match to "104 Gidney Road, Montpelier, " -->
    <tag k="addr:city" v="Montpelier"/>
    <tag k="addr:housenumber" v="104"/>
    <tag k="addr:street" v="Gidney Place"/>
    <tag k="addr:state" v="VT"/>
    <tag k="ref:vcgi:esiteid" v="164224"/>
  </node>
  <node id="-209" visible="true" lat="44.27490756" lon="-72.57359144">
    <!-- conflict: "558 Elm Street, Montpelier, VT" No match in OSM, but a different address exists <5m away: "558 Shamrock Lane, Montpelier, VT" -->
    <tag k="addr:city" v="Montpelier"/>
    <tag k="addr:housenumber" v="558"/>
    <tag k="addr:street" v="Elm Street"/>
    <tag k="addr:state" v="VT"/>
    <tag k="ref:vcgi:esiteid" v="164263"/>
  </node>
  <node id="-291" visible="true" lat="44.27136185" lon="-72.57140818">
    <!-- conflict: "463 Elm Street, Montpelier, VT" No match in OSM, but a different address exists <5m away: "463 Cummings Street, Montpelier, VT" -->
    <tag k="addr:city" v="Montpelier"/>
    <tag k="addr:housenumber" v="463"/>
    <tag k="addr:street" v="Elm Street"/>
    <tag k="addr:state" v="VT"/>
    <tag k="ref:vcgi:esiteid" v="164350"/>
  </node>
  <node id="-302" visible="true" lat="44.27114436" lon="-72.57115819">
    <!-- conflict: "461 Elm Street, Montpelier, VT" No match in OSM, but a different address exists <5m away: "461 Cummings Street, Montpelier, VT" -->
    <tag k="addr:city" v="Montpelier"/>
    <tag k="addr:housenumber" v="461"/>
    <tag k="addr:street" v="Elm Street"/>
    <tag k="addr:state" v="VT"/>
    <tag k="ref:vcgi:esiteid" v="164362"/>
  </node>
  <node id="-640" visible="true" lat="44.26507238" lon="-72.57358475">
    <!-- conflict: "2 Parkway Street, Montpelier, VT" Fuzzy match to "2 Parkway, Montpelier, " -->
    <tag k="addr:city" v="Montpelier"/>
    <tag k="addr:housenumber" v="2"/>
    <tag k="addr:street" v="Parkway Street"/>
    <tag k="addr:state" v="VT"/>
    <tag k="ref:vcgi:esiteid" v="164734"/>
  </node>
  <node id="-642" visible="true" lat="44.26506601" lon="-72.56833301">
    <!-- conflict: "6 Mechanic Street, Montpelier, VT" Fuzzy match to "6 Mechanic Street, , " -->
    <tag k="addr:city" v="Montpelier"/>
    <tag k="addr:housenumber" v="6"/>
    <tag k="addr:street" v="Mechanic Street"/>
    <tag k="addr:state" v="VT"/>
    <tag k="ref:vcgi:esiteid" v="164736"/>
  </node>
  <node id="-678" visible="true" lat="44.26448156" lon="-72.54739629">
    <!-- conflict: "330 Westwood Drive, Montpelier, VT" No match in OSM, but a different address exists <5m away: "339 Westwood Drive, Montpelier, " -->
    <tag k="addr:city" v="Montpelier"/>
    <tag k="addr:housenumber" v="330"/>
    <tag k="addr:street" v="Westwood Drive"/>
    <tag k="addr:state" v="VT"/>
    <tag k="ref:vcgi:esiteid" v="164775"/>
  </node>
  <node id="-699" visible="true" lat="44.26420794" lon="-72.5699014">
    <!-- conflict: "30 Franklin Street, Montpelier, VT" Fuzzy match to "30 North Franklin Street, Montpelier, " -->
    <tag k="addr:city" v="Montpelier"/>
    <tag k="addr:housenumber" v="30"/>
    <tag k="addr:street" v="Franklin Street"/>
    <tag k="addr:state" v="VT"/>
    <tag k="ref:vcgi:esiteid" v="164797"/>
  </node>
  <node id="-706" visible="true" lat="44.26421737" lon="-72.56933593">
    <!-- conflict: "31 Franklin Street, Montpelier, VT" Fuzzy match to "31 North Franklin Street, Montpelier, " -->
    <tag k="addr:city" v="Montpelier"/>
    <tag k="addr:housenumber" v="31"/>
    <tag k="addr:street" v="Franklin Street"/>
    <tag k="addr:state" v="VT"/>
    <tag k="ref:vcgi:esiteid" v="164805"/>
  </node>
  <node id="-717" visible="true" lat="44.26402158" lon="-72.56950724">
    <!-- conflict: "27 Franklin Street, Montpelier, VT" Fuzzy match to "27 North Franklin Street, Montpelier, " -->
    <tag k="addr:city" v="Montpelier"/>
    <tag k="addr:housenumber" v="27"/>
    <tag k="addr:street" v="Franklin Street"/>
    <tag k="addr:state" v="VT"/>
    <tag k="ref:vcgi:esiteid" v="164816"/>
  </node>
  <node id="-721" visible="true" lat="44.26398454" lon="-72.57162018">
    <!-- conflict: "187 Elm Street, Montpelier, VT" No match in OSM, but a different address exists <5m away: "187 Spring Street, Montpelier, " -->
    <tag k="addr:city" v="Montpelier"/>
    <tag k="addr:housenumber" v="187"/>
    <tag k="addr:street" v="Elm Street"/>
    <tag k="addr:state" v="VT"/>
    <tag k="ref:vcgi:esiteid" v="164820"/>
  </node>
  <node id="-744" visible="true" lat="44.26374165" lon="-72.57031075">
    <!-- conflict: "14 Franklin Street, Montpelier, VT" Fuzzy match to "14 North Franklin Street, Montpelier, " -->
    <tag k="addr:city" v="Montpelier"/>
    <tag k="addr:housenumber" v="14"/>
    <tag k="addr:street" v="Franklin Street"/>
    <tag k="addr:state" v="VT"/>
    <tag k="ref:vcgi:esiteid" v="164847"/>
  </node>
  <node id="-769" visible="true" lat="44.26350672" lon="-72.58182353">
    <!-- conflict: "1 Terrace Street, Montpelier, VT" No match in OSM, but a different address exists <5m away: "1 Richardson Street, Montpelier, VT" -->
    <tag k="addr:city" v="Montpelier"/>
    <tag k="addr:housenumber" v="1"/>
    <tag k="addr:street" v="Terrace Street"/>
    <tag k="addr:state" v="VT"/>
    <tag k="ref:vcgi:esiteid" v="164873"/>
  </node>
  <node id="-804" visible="true" lat="44.26309901" lon="-72.57345434">
    <!-- conflict: "131 Elm Street, Montpelier, VT" No match in OSM, but a different address exists <5m away: "131-133 Elm Street, Montpelier, " -->
    <tag k="addr:city" v="Montpelier"/>
    <tag k="addr:housenumber" v="131"/>
    <tag k="addr:street" v="Elm Street"/>
    <tag k="addr:state" v="VT"/>
    <tag k="ref:vcgi:esiteid" v="164909"/>
  </node>
  <node id="-819" visible="true" lat="44.26302619" lon="-72.54765985">
    <!-- conflict: "318 Westwood Drive, Montpelier, VT" No match in OSM, but a different address exists <5m away: "349 Westwood Drive, Montpelier, " -->
    <tag k="addr:city" v="Montpelier"/>
    <tag k="addr:housenumber" v="318"/>
    <tag k="addr:street" v="Westwood Drive"/>
    <tag k="addr:state" v="VT"/>
    <tag k="ref:vcgi:esiteid" v="164926"/>
  </node>
  <node id="-859" visible="true" lat="44.26260184" lon="-72.55340577">
    <!-- conflict: "231 Dover Road, Montpelier, VT" No match in OSM, but a different address exists <5m away: "21 Chestnut Hill Road, Montpelier, " -->
    <tag k="addr:city" v="Montpelier"/>
    <tag k="addr:housenumber" v="231"/>
    <tag k="addr:street" v="Dover Road"/>
    <tag k="addr:state" v="VT"/>
    <tag k="ref:vcgi:esiteid" v="164972"/>
  </node>
  <node id="-862" visible="true" lat="44.26248476" lon="-72.58476533">
    <!-- conflict: "147 State Street, Montpelier, VT" Fuzzy match to "147 State St, Montpelier, " -->
    <tag k="addr:city" v="Montpelier"/>
    <tag k="addr:housenumber" v="147"/>
    <tag k="addr:street" v="State Street"/>
    <tag k="addr:state" v="VT"/>
    <tag k="ref:vcgi:esiteid" v="164975"/>
  </node>
  <node id="-885" visible="true" lat="44.26238674" lon="-72.56929144">
    <!-- conflict: "171 Main Street, Montpelier, VT" Fuzzy match to "171 Main Street, , VT" -->
    <tag k="addr:city" v="Montpelier"/>
    <tag k="addr:housenumber" v="171"/>
    <tag k="addr:street" v="Main Street"/>
    <tag k="addr:state" v="VT"/>
    <tag k="ref:vcgi:esiteid" v="165003"/>
  </node>
  <node id="-906" visible="true" lat="44.26223651" lon="-72.57607037">
    <!-- conflict: "6 Hillside Avenue, Montpelier, VT" No match in OSM, but a different address exists <5m away: "8 Hillside Avenue, Montpelier, " -->
    <tag k="addr:city" v="Montpelier"/>
    <tag k="addr:housenumber" v="6"/>
    <tag k="addr:street" v="Hillside Avenue"/>
    <tag k="addr:state" v="VT"/>
    <tag k="ref:vcgi:esiteid" v="165027"/>
  </node>
  <node id="-1016" visible="true" lat="44.26149981" lon="-72.57547464">
    <!-- conflict: "1 School Street, Montpelier, VT" No match in OSM, but a different address exists <5m away: "3 School Street, Montpelier, " -->
    <tag k="addr:city" v="Montpelier"/>
    <tag k="addr:housenumber" v="1"/>
    <tag k="addr:street" v="School Street"/>
    <tag k="addr:state" v="VT"/>
    <tag k="ref:vcgi:esiteid" v="165149"/>
  </node>
  <node id="-1053" visible="true" lat="44.26131984" lon="-72.56391306">
    <!-- conflict: "223 Main Street, Montpelier, VT" No match in OSM, but a different address exists <5m away: " , Montpelier, VT" -->
    <tag k="addr:city" v="Montpelier"/>
    <tag k="addr:housenumber" v="223"/>
    <tag k="addr:street" v="Main Street"/>
    <tag k="addr:state" v="VT"/>
    <tag k="ref:vcgi:esiteid" v="165187"/>
  </node>
  <node id="-1136" visible="true" lat="44.26086275" lon="-72.57721398">
    <!-- conflict: "65 State Street, Montpelier, VT" Fuzzy match to "65 East State Street, Montpelier, VT" -->
    <tag k="addr:city" v="Montpelier"/>
    <tag k="addr:housenumber" v="65"/>
    <tag k="addr:street" v="State Street"/>
    <tag k="addr:state" v="VT"/>
    <tag k="ref:vcgi:esiteid" v="165282"/>
  </node>
  <node id="-1203" visible="true" lat="44.26014863" lon="-72.57633348">
    <!-- conflict: "24 State Street, Montpelier, VT" No match in OSM, but a different address exists <5m away: "22 State Street, Montpelier, VT" -->
    <tag k="addr:city" v="Montpelier"/>
    <tag k="addr:housenumber" v="24"/>
    <tag k="addr:street" v="State Street"/>
    <tag k="addr:state" v="VT"/>
    <tag k="ref:vcgi:esiteid" v="165358"/>
  </node>
  <node id="-1305" visible="true" lat="44.2593984" lon="-72.57299808">
    <!-- conflict: "46 East State Street, Montpelier, VT" Fuzzy match to "46 State Street, Montpelier, VT" -->
    <tag k="addr:city" v="Montpelier"/>
    <tag k="addr:housenumber" v="46"/>
    <tag k="addr:street" v="East State Street"/>
    <tag k="addr:state" v="VT"/>
    <tag k="ref:vcgi:esiteid" v="165468"/>
  </node>
  <node id="-1366" visible="true" lat="44.2587752" lon="-72.60614926">
    <!-- conflict: "315 State Street, Montpelier, VT" Fuzzy match to "315 State St, Montpelier, " -->
    <tag k="addr:city" v="Montpelier"/>
    <tag k="addr:housenumber" v="315"/>
    <tag k="addr:street" v="State Street"/>
    <tag k="addr:state" v="VT"/>
    <tag k="ref:vcgi:esiteid" v="165533"/>
  </node>
  <node id="-1367" visible="true" lat="44.25884983" lon="-72.60864187">
    <!-- conflict: "330 State Street, Montpelier, VT" No match in OSM, but a different address exists <5m away: "328 State St, Montpelier, " -->
    <tag k="addr:city" v="Montpelier"/>
    <tag k="addr:housenumber" v="330"/>
    <tag k="addr:street" v="State Street"/>
    <tag k="addr:state" v="VT"/>
    <tag k="ref:vcgi:esiteid" v="165535"/>
  </node>
  <node id="-1470" visible="true" lat="44.25778827" lon="-72.57598146">
    <!-- conflict: "19 Barre Street, Montpelier, VT" No match in OSM, but a different address exists <5m away: "23 Barre Street, Montpelier, VT" -->
    <tag k="addr:city" v="Montpelier"/>
    <tag k="addr:housenumber" v="19"/>
    <tag k="addr:street" v="Barre Street"/>
    <tag k="addr:state" v="VT"/>
    <tag k="ref:vcgi:esiteid" v="165643"/>
  </node>
  <node id="-1496" visible="true" lat="44.25777055" lon="-72.56175142">
    <!-- conflict: "2 Hinckley Street, Montpelier, VT" No match in OSM, but a different address exists <5m away: "2 Hinkley Street, Montpelier, VT" -->
    <tag k="addr:city" v="Montpelier"/>
    <tag k="addr:housenumber" v="2"/>
    <tag k="addr:street" v="Hinckley Street"/>
    <tag k="addr:state" v="VT"/>
    <tag k="ref:vcgi:esiteid" v="165669"/>
  </node>
  <node id="-1532" visible="true" lat="44.25735989" lon="-72.57817464">
    <!-- conflict: "9 Northfield Street, Montpelier, VT" Fuzzy match to "9 Northfield St, Montpelier, " -->
    <tag k="addr:city" v="Montpelier"/>
    <tag k="addr:housenumber" v="9"/>
    <tag k="addr:street" v="Northfield Street"/>
    <tag k="addr:state" v="VT"/>
    <tag k="ref:vcgi:esiteid" v="165709"/>
  </node>
  <node id="-1535" visible="true" lat="44.2573337" lon="-72.56175337">
    <!-- conflict: "1 McKinley Street, Montpelier, VT" Fuzzy match to "1 Mckinley Street, Montpelier, VT" -->
    <tag k="addr:city" v="Montpelier"/>
    <tag k="addr:housenumber" v="1"/>
    <tag k="addr:street" v="McKinley Street"/>
    <tag k="addr:state" v="VT"/>
    <tag k="ref:vcgi:esiteid" v="165712"/>
  </node>
  <node id="-1540" visible="true" lat="44.25721125" lon="-72.56202102">
    <!-- conflict: "3 McKinley Street, Montpelier, VT" Fuzzy match to "3 Mckinley Street, Montpelier, " -->
    <tag k="addr:city" v="Montpelier"/>
    <tag k="addr:housenumber" v="3"/>
    <tag k="addr:street" v="McKinley Street"/>
    <tag k="addr:state" v="VT"/>
    <tag k="ref:vcgi:esiteid" v="165717"/>
  </node>
  <node id="-1549" visible="true" lat="44.25715314" lon="-72.5783463">
    <!-- conflict: "15 Northfield Street, Montpelier, VT" Fuzzy match to "15 Northfield St, Montpelier, " -->
    <tag k="addr:city" v="Montpelier"/>
    <tag k="addr:housenumber" v="15"/>
    <tag k="addr:street" v="Northfield Street"/>
    <tag k="addr:state" v="VT"/>
    <tag k="ref:vcgi:esiteid" v="165726"/>
  </node>
  <node id="-1557" visible="true" lat="44.25705263" lon="-72.57840343">
    <!-- conflict: "17 Northfield Street, Montpelier, VT" Fuzzy match to "17 Northfield St, Montpelier, " -->
    <tag k="addr:city" v="Montpelier"/>
    <tag k="addr:housenumber" v="17"/>
    <tag k="addr:street" v="Northfield Street"/>
    <tag k="addr:state" v="VT"/>
    <tag k="ref:vcgi:esiteid" v="165734"/>
  </node>
  <node id="-1562" visible="true" lat="44.25707094" lon="-72.56226845">
    <!-- conflict: "5 McKinley Street, Montpelier, VT" Fuzzy match to "5 Mckinley Street, Montpelier, " -->
    <tag k="addr:city" v="Montpelier"/>
    <tag k="addr:housenumber" v="5"/>
    <tag k="addr:street" v="McKinley Street"/>
    <tag k="addr:state" v="VT"/>
    <tag k="ref:vcgi:esiteid" v="165740"/>
  </node>
  <node id="-1564" visible="true" lat="44.25696479" lon="-72.5616081">
    <!-- conflict: "4 McKinley Street, Montpelier, VT" Fuzzy match to "4 Mckinley Street, Montpelier, VT" -->
    <tag k="addr:city" v="Montpelier"/>
    <tag k="addr:housenumber" v="4"/>
    <tag k="addr:street" v="McKinley Street"/>
    <tag k="addr:state" v="VT"/>
    <tag k="ref:vcgi:esiteid" v="165743"/>
  </node>
  <node id="-1580" visible="true" lat="44.25692947" lon="-72.57853019">
    <!-- conflict: "21 Northfield Street, Montpelier, VT" Fuzzy match to "21 Northfield St, Montpelier, " -->
    <tag k="addr:city" v="Montpelier"/>
    <tag k="addr:housenumber" v="21"/>
    <tag k="addr:street" v="Northfield Street"/>
    <tag k="addr:state" v="VT"/>
    <tag k="ref:vcgi:esiteid" v="165759"/>
  </node>
  <node id="-1583" visible="true" lat="44.25682696" lon="-72.56188207">
    <!-- conflict: "6 McKinley Street, Montpelier, VT" Fuzzy match to "6 Mckinley Street, Montpelier, " -->
    <tag k="addr:city" v="Montpelier"/>
    <tag k="addr:housenumber" v="6"/>
    <tag k="addr:street" v="McKinley Street"/>
    <tag k="addr:state" v="VT"/>
    <tag k="ref:vcgi:esiteid" v="165762"/>
  </node>
  <node id="-1588" visible="true" lat="44.25688827" lon="-72.56258892">
    <!-- conflict: "9 McKinley Street, Montpelier, VT" Fuzzy match to "9 Mckinley Street, Montpelier, " -->
    <tag k="addr:city" v="Montpelier"/>
    <tag k="addr:housenumber" v="9"/>
    <tag k="addr:street" v="McKinley Street"/>
    <tag k="addr:state" v="VT"/>
    <tag k="ref:vcgi:esiteid" v="165769"/>
  </node>
  <node id="-1595" visible="true" lat="44.25673249" lon="-72.5628168">
    <!-- conflict: "11 McKinley Street, Montpelier, VT" Fuzzy match to "11 Mckinley Street, Montpelier, " -->
    <tag k="addr:city" v="Montpelier"/>
    <tag k="addr:housenumber" v="11"/>
    <tag k="addr:street" v="McKinley Street"/>
    <tag k="addr:state" v="VT"/>
    <tag k="ref:vcgi:esiteid" v="165776"/>
  </node>
  <node id="-1601" visible="true" lat="44.25666388" lon="-72.56216968">
    <!-- conflict: "8 McKinley Street, Montpelier, VT" Fuzzy match to "8 Mckinley Street, Montpelier, " -->
    <tag k="addr:city" v="Montpelier"/>
    <tag k="addr:housenumber" v="8"/>
    <tag k="addr:street" v="McKinley Street"/>
    <tag k="addr:state" v="VT"/>
    <tag k="ref:vcgi:esiteid" v="165783"/>
  </node>
  <node id="-1606" visible="true" lat="44.25662565" lon="-72.5515289">
    <!-- conflict: "176 Greenock Avenue, Montpelier, VT" No match in OSM, but a different address exists <5m away: "12 Dyer Avenue, Montpelier, " -->
    <tag k="addr:city" v="Montpelier"/>
    <tag k="addr:housenumber" v="176"/>
    <tag k="addr:street" v="Greenock Avenue"/>
    <tag k="addr:state" v="VT"/>
    <tag k="ref:vcgi:esiteid" v="165789"/>
  </node>
  <node id="-1608" visible="true" lat="44.25663588" lon="-72.56301707">
    <!-- conflict: "15 McKinley Street, Montpelier, VT" Fuzzy match to "15 Mckinley Street, Montpelier, " -->
    <tag k="addr:city" v="Montpelier"/>
    <tag k="addr:housenumber" v="15"/>
    <tag k="addr:street" v="McKinley Street"/>
    <tag k="addr:state" v="VT"/>
    <tag k="ref:vcgi:esiteid" v="165791"/>
  </node>
  <node id="-1617" visible="true" lat="44.25651273" lon="-72.56243108">
    <!-- conflict: "10 McKinley Street, Montpelier, VT" Fuzzy match to "10 Mckinley Street, Montpelier, " -->
    <tag k="addr:city" v="Montpelier"/>
    <tag k="addr:housenumber" v="10"/>
    <tag k="addr:street" v="McKinley Street"/>
    <tag k="addr:state" v="VT"/>
    <tag k="ref:vcgi:esiteid" v="165800"/>
  </node>
  <node id="-1635" visible="true" lat="44.25638668" lon="-72.56265093">
    <!-- conflict: "12 McKinley Street, Montpelier, VT" Fuzzy match to "12 Mckinley Street, Montpelier, " -->
    <tag k="addr:city" v="Montpelier"/>
    <tag k="addr:housenumber" v="12"/>
    <tag k="addr:street" v="McKinley Street"/>
    <tag k="addr:state" v="VT"/>
    <tag k="ref:vcgi:esiteid" v="165823"/>
  </node>
  <node id="-1641" visible="true" lat="44.25646545" lon="-72.57890351">
    <!-- conflict: "29 Northfield Street, Montpelier, VT" No match in OSM, but a different address exists <5m away: "31 Northfield St, Montpelier, " -->
    <tag k="addr:city" v="Montpelier"/>
    <tag k="addr:housenumber" v="29"/>
    <tag k="addr:street" v="Northfield Street"/>
    <tag k="addr:state" v="VT"/>
    <tag k="ref:vcgi:esiteid" v="165830"/>
  </node>
  <node id="-1643" visible="true" lat="44.25632136" lon="-72.57884988">
    <!-- conflict: "31 Northfield Street, Montpelier, VT" Fuzzy match to "31 Northfield St, Montpelier, " -->
    <tag k="addr:city" v="Montpelier"/>
    <tag k="addr:housenumber" v="31"/>
    <tag k="addr:street" v="Northfield Street"/>
    <tag k="addr:state" v="VT"/>
    <tag k="ref:vcgi:esiteid" v="165832"/>
  </node>
  <node id="-1645" visible="true" lat="44.25622493" lon="-72.56297162">
    <!-- conflict: "14 McKinley Street, Montpelier, VT" Fuzzy match to "14 Mckinley Street, Montpelier, " -->
    <tag k="addr:city" v="Montpelier"/>
    <tag k="addr:housenumber" v="14"/>
    <tag k="addr:street" v="McKinley Street"/>
    <tag k="addr:state" v="VT"/>
    <tag k="ref:vcgi:esiteid" v="165834"/>
  </node>
  <node id="-1677" visible="true" lat="44.25593211" lon="-72.56308157">
    <!-- conflict: "16 McKinley Street, Montpelier, VT" Fuzzy match to "16 Mckinley Street, Montpelier, " -->
    <tag k="addr:city" v="Montpelier"/>
    <tag k="addr:housenumber" v="16"/>
    <tag k="addr:street" v="McKinley Street"/>
    <tag k="addr:state" v="VT"/>
    <tag k="ref:vcgi:esiteid" v="165867"/>
  </node>
  <node id="-1678" visible="true" lat="44.2560046" lon="-72.57892234">
    <!-- conflict: "39 Northfield Street, Montpelier, VT" Fuzzy match to "39 Northfield St, Montpelier, " -->
    <tag k="addr:city" v="Montpelier"/>
    <tag k="addr:housenumber" v="39"/>
    <tag k="addr:street" v="Northfield Street"/>
    <tag k="addr:state" v="VT"/>
    <tag k="ref:vcgi:esiteid" v="165868"/>
  </node>
  <node id="-1712" visible="true" lat="44.25565986" lon="-72.57887848">
    <!-- conflict: "41 Northfield Street, Montpelier, VT" Fuzzy match to "41 Northfield St, Montpelier, " -->
    <tag k="addr:city" v="Montpelier"/>
    <tag k="addr:housenumber" v="41"/>
    <tag k="addr:street" v="Northfield Street"/>
    <tag k="addr:state" v="VT"/>
    <tag k="ref:vcgi:esiteid" v="165905"/>
  </node>
  <node id="-1775" visible="true" lat="44.25485763" lon="-72.57909774">
    <!-- conflict: "52 Northfield Street, Montpelier, VT" Fuzzy match to "52 Northfield St, Montpelier, " -->
    <tag k="addr:city" v="Montpelier"/>
    <tag k="addr:housenumber" v="52"/>
    <tag k="addr:street" v="Northfield Street"/>
    <tag k="addr:state" v="VT"/>
    <tag k="ref:vcgi:esiteid" v="165976"/>
  </node>
  <node id="-1793" visible="true" lat="44.25470159" lon="-72.57927905">
    <!-- conflict: "56 Northfield Street, Montpelier, VT" Fuzzy match to "56 Northfield St, Montpelier, " -->
    <tag k="addr:city" v="Montpelier"/>
    <tag k="addr:housenumber" v="56"/>
    <tag k="addr:street" v="Northfield Street"/>
    <tag k="addr:state" v="VT"/>
    <tag k="ref:vcgi:esiteid" v="165998"/>
  </node>
  <node id="-1823" visible="true" lat="44.25426373" lon="-72.57979806">
    <!-- conflict: "68 Northfield Street, Montpelier, VT" Fuzzy match to "68 Northfield St, Montpelier, " -->
    <tag k="addr:city" v="Montpelier"/>
    <tag k="addr:housenumber" v="68"/>
    <tag k="addr:street" v="Northfield Street"/>
    <tag k="addr:state" v="VT"/>
    <tag k="ref:vcgi:esiteid" v="166029"/>
  </node>
  <node id="-1868" visible="true" lat="44.25356105" lon="-72.57373776">
    <!-- conflict: "97 Berlin Street, Montpelier, VT" No match in OSM, but a different address exists <5m away: "97 Hill Street, Montpelier, VT" -->
    <tag k="addr:city" v="Montpelier"/>
    <tag k="addr:housenumber" v="97"/>
    <tag k="addr:street" v="Berlin Street"/>
    <tag k="addr:state" v="VT"/>
    <tag k="ref:vcgi:esiteid" v="166078"/>
  </node>
  <node id="-1882" visible="true" lat="44.25350496" lon="-72.58027116">
    <!-- conflict: "88 Northfield Street, Montpelier, VT" Fuzzy match to "88 Northfield St, Montpelier, " -->
    <tag k="addr:city" v="Montpelier"/>
    <tag k="addr:housenumber" v="88"/>
    <tag k="addr:street" v="Northfield Street"/>
    <tag k="addr:state" v="VT"/>
    <tag k="ref:vcgi:esiteid" v="166095"/>
  </node>
  <node id="-1889" visible="true" lat="44.25310918" lon="-72.58269594">
    <!-- conflict: "11 Meadow Lane, Montpelier, VT" No match in OSM, but a different address exists <5m away: "21 Meadow Lane, Montpelier, " -->
    <tag k="addr:city" v="Montpelier"/>
    <tag k="addr:housenumber" v="11"/>
    <tag k="addr:street" v="Meadow Lane"/>
    <tag k="addr:state" v="VT"/>
    <tag k="ref:vcgi:esiteid" v="166103"/>
  </node>
  <node id="-1905" visible="true" lat="44.25290104" lon="-72.58144137">
    <!-- conflict: "101 Northfield Street, Montpelier, VT" Fuzzy match to "101 Northfield St, Montpelier, " -->
    <tag k="addr:city" v="Montpelier"/>
    <tag k="addr:housenumber" v="101"/>
    <tag k="addr:street" v="Northfield Street"/>
    <tag k="addr:state" v="VT"/>
    <tag k="ref:vcgi:esiteid" v="166120"/>
  </node>
  <node id="-1910" visible="true" lat="44.25284375" lon="-72.58027945">
    <!-- conflict: "92 Northfield Street, Montpelier, VT" Fuzzy match to "92 Northfield St, Montpelier, " -->
    <tag k="addr:city" v="Montpelier"/>
    <tag k="addr:housenumber" v="92"/>
    <tag k="addr:street" v="Northfield Street"/>
    <tag k="addr:state" v="VT"/>
    <tag k="ref:vcgi:esiteid" v="166125"/>
  </node>
  <node id="-1923" visible="true" lat="44.25259587" lon="-72.58247261">
    <!-- conflict: "4 Meadow Lane, Montpelier, VT" Fuzzy match to "4 Meadow Lane, , " -->
    <tag k="addr:city" v="Montpelier"/>
    <tag k="addr:housenumber" v="4"/>
    <tag k="addr:street" v="Meadow Lane"/>
    <tag k="addr:state" v="VT"/>
    <tag k="ref:vcgi:esiteid" v="166140"/>
  </node>
  <node id="-1956" visible="true" lat="44.25181253" lon="-72.58044743">
    <!-- conflict: "102 Northfield Street, Montpelier, VT" Fuzzy match to "102 Northfield St, Montpelier, " -->
    <tag k="addr:city" v="Montpelier"/>
    <tag k="addr:housenumber" v="102"/>
    <tag k="addr:street" v="Northfield Street"/>
    <tag k="addr:state" v="VT"/>
    <tag k="ref:vcgi:esiteid" v="166177"/>
  </node>
  <node id="-1959" visible="true" lat="44.2515222" lon="-72.58023214">
    <!-- conflict: "110 Northfield Street, Montpelier, VT" Fuzzy match to "110 Northfield St, Montpelier, " -->
    <tag k="addr:city" v="Montpelier"/>
    <tag k="addr:housenumber" v="110"/>
    <tag k="addr:street" v="Northfield Street"/>
    <tag k="addr:state" v="VT"/>
    <tag k="ref:vcgi:esiteid" v="166182"/>
  </node>
  <node id="-1968" visible="true" lat="44.25141043" lon="-72.57156924">
    <!-- conflict: "145 Berlin Street, Montpelier, VT" Fuzzy match to "145 Berlin St, Montpelier, " -->
    <tag k="addr:city" v="Montpelier"/>
    <tag k="addr:housenumber" v="145"/>
    <tag k="addr:street" v="Berlin Street"/>
    <tag k="addr:state" v="VT"/>
    <tag k="ref:vcgi:esiteid" v="166192"/>
  </node>
  <node id="-1971" visible="true" lat="44.25126738" lon="-72.58177866">
    <!-- conflict: "115 Northfield Street, Montpelier, VT" Fuzzy match to "115 Northfield St, Montpelier, " -->
    <tag k="addr:city" v="Montpelier"/>
    <tag k="addr:housenumber" v="115"/>
    <tag k="addr:street" v="Northfield Street"/>
    <tag k="addr:state" v="VT"/>
    <tag k="ref:vcgi:esiteid" v="166195"/>
  </node>
  <node id="-1973" visible="true" lat="44.25127125" lon="-72.5714592">
    <!-- conflict: "147 Berlin Street, Montpelier, VT" Fuzzy match to "147 Berlin St, Montpelier, " -->
    <tag k="addr:city" v="Montpelier"/>
    <tag k="addr:housenumber" v="147"/>
    <tag k="addr:street" v="Berlin Street"/>
    <tag k="addr:state" v="VT"/>
    <tag k="ref:vcgi:esiteid" v="166197"/>
  </node>
  <node id="-1974" visible="true" lat="44.25110772" lon="-72.58069738">
    <!-- conflict: "116 Northfield Street, Montpelier, VT" Fuzzy match to "116 Northfield St, Montpelier, " -->
    <tag k="addr:city" v="Montpelier"/>
    <tag k="addr:housenumber" v="116"/>
    <tag k="addr:street" v="Northfield Street"/>
    <tag k="addr:state" v="VT"/>
    <tag k="ref:vcgi:esiteid" v="166198"/>
  </node>
  <node id="-1975" visible="true" lat="44.25114822" lon="-72.57136535">
    <!-- conflict: "149 Berlin Street, Montpelier, VT" Fuzzy match to "149 Berlin St, Montpelier, " -->
    <tag k="addr:city" v="Montpelier"/>
    <tag k="addr:housenumber" v="149"/>
    <tag k="addr:street" v="Berlin Street"/>
    <tag k="addr:state" v="VT"/>
    <tag k="ref:vcgi:esiteid" v="166199"/>
  </node>
  <node id="-1976" visible="true" lat="44.25092123" lon="-72.57963677">
    <!-- conflict: "120 Northfield Street, Montpelier, VT" Fuzzy match to "120 Northfield St, Montpelier, " -->
    <tag k="addr:city" v="Montpelier"/>
    <tag k="addr:housenumber" v="120"/>
    <tag k="addr:street" v="Northfield Street"/>
    <tag k="addr:state" v="VT"/>
    <tag k="ref:vcgi:esiteid" v="166200"/>
  </node>
  <node id="-1977" visible="true" lat="44.25093684" lon="-72.58059034">
    <!-- conflict: "118 Northfield Street, Montpelier, VT" Fuzzy match to "118 Northfield St, Montpelier, " -->
    <tag k="addr:city" v="Montpelier"/>
    <tag k="addr:housenumber" v="118"/>
    <tag k="addr:street" v="Northfield Street"/>
    <tag k="addr:state" v="VT"/>
    <tag k="ref:vcgi:esiteid" v="166201"/>
  </node>
  <node id="-1978" visible="true" lat="44.25096945" lon="-72.57125893">
    <!-- conflict: "153 Berlin Street, Montpelier, VT" Fuzzy match to "153 Berlin St, Montpelier, " -->
    <tag k="addr:city" v="Montpelier"/>
    <tag k="addr:housenumber" v="153"/>
    <tag k="addr:street" v="Berlin Street"/>
    <tag k="addr:state" v="VT"/>
    <tag k="ref:vcgi:esiteid" v="166202"/>
  </node>
  <node id="-1979" visible="true" lat="44.25099237" lon="-72.58182995">
    <!-- conflict: "117 Northfield Street, Montpelier, VT" Fuzzy match to "117 Northfield St, Montpelier, " -->
    <tag k="addr:city" v="Montpelier"/>
    <tag k="addr:housenumber" v="117"/>
    <tag k="addr:street" v="Northfield Street"/>
    <tag k="addr:state" v="VT"/>
    <tag k="ref:vcgi:esiteid" v="166203"/>
  </node>
  <node id="-1982" visible="true" lat="44.25084023" lon="-72.57109166">
    <!-- conflict: "155 Berlin Street, Montpelier, VT" Fuzzy match to "155 Berlin St, Montpelier, " -->
    <tag k="addr:city" v="Montpelier"/>
    <tag k="addr:housenumber" v="155"/>
    <tag k="addr:street" v="Berlin Street"/>
    <tag k="addr:state" v="VT"/>
    <tag k="ref:vcgi:esiteid" v="166207"/>
  </node>
  <node id="-1991" visible="true" lat="44.2506752" lon="-72.57102203">
    <!-- conflict: "157 Berlin Street, Montpelier, VT" Fuzzy match to "157 Berlin St, Montpelier, " -->
    <tag k="addr:city" v="Montpelier"/>
    <tag k="addr:housenumber" v="157"/>
    <tag k="addr:street" v="Berlin Street"/>
    <tag k="addr:state" v="VT"/>
    <tag k="ref:vcgi:esiteid" v="166218"/>
  </node>
  <node id="-1994" visible="true" lat="44.25063252" lon="-72.58214658">
    <!-- conflict: "123 Northfield Street, Montpelier, VT" Fuzzy match to "123 Northfield St, Montpelier, " -->
    <tag k="addr:city" v="Montpelier"/>
    <tag k="addr:housenumber" v="123"/>
    <tag k="addr:street" v="Northfield Street"/>
    <tag k="addr:state" v="VT"/>
    <tag k="ref:vcgi:esiteid" v="166222"/>
  </node>
  <node id="-1995" visible="true" lat="44.250606" lon="-72.57038044">
    <!-- conflict: "162 Berlin Street, Montpelier, VT" Fuzzy match to "162 Berlin St, Montpelier, " -->
    <tag k="addr:city" v="Montpelier"/>
    <tag k="addr:housenumber" v="162"/>
    <tag k="addr:street" v="Berlin Street"/>
    <tag k="addr:state" v="VT"/>
    <tag k="ref:vcgi:esiteid" v="166223"/>
  </node>
  <node id="-1997" visible="true" lat="44.25056131" lon="-72.57098019">
    <!-- conflict: "159 Berlin Street, Montpelier, VT" Fuzzy match to "159 Berlin St, Montpelier, " -->
    <tag k="addr:city" v="Montpelier"/>
    <tag k="addr:housenumber" v="159"/>
    <tag k="addr:street" v="Berlin Street"/>
    <tag k="addr:state" v="VT"/>
    <tag k="ref:vcgi:esiteid" v="166226"/>
  </node>
  <node id="-1998" visible="true" lat="44.25033691" lon="-72.58141657">
    <!-- conflict: "128 Northfield Street, Montpelier, VT" Fuzzy match to "128 Northfield St, Montpelier, " -->
    <tag k="addr:city" v="Montpelier"/>
    <tag k="addr:housenumber" v="128"/>
    <tag k="addr:street" v="Northfield Street"/>
    <tag k="addr:state" v="VT"/>
    <tag k="ref:vcgi:esiteid" v="166227"/>
  </node>
  <node id="-2002" visible="true" lat="44.25028905" lon="-72.57076646">
    <!-- conflict: "165 Berlin Street, Montpelier, VT" Fuzzy match to "165 Berlin St, Montpelier, " -->
    <tag k="addr:city" v="Montpelier"/>
    <tag k="addr:housenumber" v="165"/>
    <tag k="addr:street" v="Berlin Street"/>
    <tag k="addr:state" v="VT"/>
    <tag k="ref:vcgi:esiteid" v="166232"/>
  </node>
  <node id="-2003" visible="true" lat="44.25043918" lon="-72.58228966">
    <!-- conflict: "125 Northfield Street, Montpelier, VT" Fuzzy match to "125 Northfield St, Montpelier, " -->
    <tag k="addr:city" v="Montpelier"/>
    <tag k="addr:housenumber" v="125"/>
    <tag k="addr:street" v="Northfield Street"/>
    <tag k="addr:state" v="VT"/>
    <tag k="ref:vcgi:esiteid" v="166233"/>
  </node>
  <node id="-2006" visible="true" lat="44.2501846" lon="-72.57067476">
    <!-- conflict: "167 Berlin Street, Montpelier, VT" Fuzzy match to "167 Berlin St, Montpelier, " -->
    <tag k="addr:city" v="Montpelier"/>
    <tag k="addr:housenumber" v="167"/>
    <tag k="addr:street" v="Berlin Street"/>
    <tag k="addr:state" v="VT"/>
    <tag k="ref:vcgi:esiteid" v="166236"/>
  </node>
  <node id="-2007" visible="true" lat="44.25016415" lon="-72.57101341">
    <!-- conflict: "163 Berlin Street, Montpelier, VT" Fuzzy match to "163 Berlin St, Montpelier, " -->
    <tag k="addr:city" v="Montpelier"/>
    <tag k="addr:housenumber" v="163"/>
    <tag k="addr:street" v="Berlin Street"/>
    <tag k="addr:state" v="VT"/>
    <tag k="ref:vcgi:esiteid" v="166237"/>
  </node>
  <node id="-2009" visible="true" lat="44.25022204" lon="-72.5823523">
    <!-- conflict: "127 Northfield Street, Montpelier, VT" Fuzzy match to "127 Northfield St, Montpelier, " -->
    <tag k="addr:city" v="Montpelier"/>
    <tag k="addr:housenumber" v="127"/>
    <tag k="addr:street" v="Northfield Street"/>
    <tag k="addr:state" v="VT"/>
    <tag k="ref:vcgi:esiteid" v="166239"/>
  </node>
  <node id="-2010" visible="true" lat="44.24996793" lon="-72.58173762">
    <!-- conflict: "130 Northfield Street, Montpelier, VT" Fuzzy match to "130 Northfield St, Montpelier, " -->
    <tag k="addr:city" v="Montpelier"/>
    <tag k="addr:housenumber" v="130"/>
    <tag k="addr:street" v="Northfield Street"/>
    <tag k="addr:state" v="VT"/>
    <tag k="ref:vcgi:esiteid" v="166240"/>
  </node>
  <node id="-2014" visible="true" lat="44.25005271" lon="-72.57049731">
    <!-- conflict: "169 Berlin Street, Montpelier, VT" Fuzzy match to "169 Berlin St, Montpelier, " -->
    <tag k="addr:city" v="Montpelier"/>
    <tag k="addr:housenumber" v="169"/>
    <tag k="addr:street" v="Berlin Street"/>
    <tag k="addr:state" v="VT"/>
    <tag k="ref:vcgi:esiteid" v="166244"/>
  </node>
  <node id="-2017" visible="true" lat="44.24992114" lon="-72.58247571">
    <!-- conflict: "129 Northfield Street, Montpelier, VT" Fuzzy match to "129 Northfield St, Montpelier, " -->
    <tag k="addr:city" v="Montpelier"/>
    <tag k="addr:housenumber" v="129"/>
    <tag k="addr:street" v="Northfield Street"/>
    <tag k="addr:state" v="VT"/>
    <tag k="ref:vcgi:esiteid" v="166248"/>
  </node>
  <node id="-2018" visible="true" lat="44.24979539" lon="-72.57025409">
    <!-- conflict: "171 Berlin Street, Montpelier, VT" Fuzzy match to "171 Berlin St, Montpelier, " -->
    <tag k="addr:city" v="Montpelier"/>
    <tag k="addr:housenumber" v="171"/>
    <tag k="addr:street" v="Berlin Street"/>
    <tag k="addr:state" v="VT"/>
    <tag k="ref:vcgi:esiteid" v="166249"/>
  </node>
  <node id="-2019" visible="true" lat="44.24985113" lon="-72.52743653">
    <!-- conflict: "180 Maplewood Road, Montpelier, VT" Fuzzy match to "180 Maplewood Road, East Montpelier, " -->
    <tag k="addr:city" v="Montpelier"/>
    <tag k="addr:housenumber" v="180"/>
    <tag k="addr:street" v="Maplewood Road"/>
    <tag k="addr:state" v="VT"/>
    <tag k="ref:vcgi:esiteid" v="166250"/>
  </node>
  <node id="-2020" visible="true" lat="44.24974365" lon="-72.52664192">
    <!-- conflict: "173 Maplewood Road, Montpelier, VT" Fuzzy match to "173 Maplewood Road, East Montpelier, " -->
    <tag k="addr:city" v="Montpelier"/>
    <tag k="addr:housenumber" v="173"/>
    <tag k="addr:street" v="Maplewood Road"/>
    <tag k="addr:state" v="VT"/>
    <tag k="ref:vcgi:esiteid" v="166255"/>
  </node>
  <node id="-2021" visible="true" lat="44.24975631" lon="-72.56935093">
    <!-- conflict: "174 Berlin Street, Montpelier, VT" Fuzzy match to "174 Berlin St, Montpelier, " -->
    <tag k="addr:city" v="Montpelier"/>
    <tag k="addr:housenumber" v="174"/>
    <tag k="addr:street" v="Berlin Street"/>
    <tag k="addr:state" v="VT"/>
    <tag k="ref:vcgi:esiteid" v="166256"/>
  </node>
  <node id="-2024" visible="true" lat="44.24968271" lon="-72.56951343">
    <!-- conflict: "176 Berlin Street, Montpelier, VT" Fuzzy match to "176 Berlin St, Montpelier, " -->
    <tag k="addr:city" v="Montpelier"/>
    <tag k="addr:housenumber" v="176"/>
    <tag k="addr:street" v="Berlin Street"/>
    <tag k="addr:state" v="VT"/>
    <tag k="ref:vcgi:esiteid" v="166260"/>
  </node>
  <node id="-2028" visible="true" lat="44.2497313" lon="-72.58265219">
    <!-- conflict: "131 Northfield Street, Montpelier, VT" Fuzzy match to "131 Northfield St, Montpelier, " -->
    <tag k="addr:city" v="Montpelier"/>
    <tag k="addr:housenumber" v="131"/>
    <tag k="addr:street" v="Northfield Street"/>
    <tag k="addr:state" v="VT"/>
    <tag k="ref:vcgi:esiteid" v="166264"/>
  </node>
  <node id="-2029" visible="true" lat="44.24961003" lon="-72.569204">
    <!-- conflict: "178 Berlin Street, Montpelier, VT" Fuzzy match to "178 Berlin St, Montpelier, " -->
    <tag k="addr:city" v="Montpelier"/>
    <tag k="addr:housenumber" v="178"/>
    <tag k="addr:street" v="Berlin Street"/>
    <tag k="addr:state" v="VT"/>
    <tag k="ref:vcgi:esiteid" v="166265"/>
  </node>
  <node id="-2032" visible="true" lat="44.2495348" lon="-72.58207246">
    <!-- conflict: "136 Northfield Street, Montpelier, VT" Fuzzy match to "136 Northfield St, Montpelier, " -->
    <tag k="addr:city" v="Montpelier"/>
    <tag k="addr:housenumber" v="136"/>
    <tag k="addr:street" v="Northfield Street"/>
    <tag k="addr:state" v="VT"/>
    <tag k="ref:vcgi:esiteid" v="166268"/>
  </node>
  <node id="-2034" visible="true" lat="44.2496409" lon="-72.58290443">
    <!-- conflict: "133 Northfield Street, Montpelier, VT" Fuzzy match to "133 Northfield St, Montpelier, " -->
    <tag k="addr:city" v="Montpelier"/>
    <tag k="addr:housenumber" v="133"/>
    <tag k="addr:street" v="Northfield Street"/>
    <tag k="addr:state" v="VT"/>
    <tag k="ref:vcgi:esiteid" v="166270"/>
  </node>
  <node id="-2039" visible="true" lat="44.24940222" lon="-72.55863547">
    <!-- conflict: "1 Taplin Street, Montpelier, VT" No match in OSM, but a different address exists <5m away: "1 Toplin Street, Montpelier, " -->
    <tag k="addr:city" v="Montpelier"/>
    <tag k="addr:housenumber" v="1"/>
    <tag k="addr:street" v="Taplin Street"/>
    <tag k="addr:state" v="VT"/>
    <tag k="ref:vcgi:esiteid" v="166276"/>
  </node>
  <node id="-2040" visible="true" lat="44.24949789" lon="-72.56935133">
    <!-- conflict: "180 Berlin Street, Montpelier, VT" Fuzzy match to "180 Berlin St, Montpelier, " -->
    <tag k="addr:city" v="Montpelier"/>
    <tag k="addr:housenumber" v="180"/>
    <tag k="addr:street" v="Berlin Street"/>
    <tag k="addr:state" v="VT"/>
    <tag k="ref:vcgi:esiteid" v="166277"/>
  </node>
  <node id="-2046" visible="true" lat="44.24936293" lon="-72.56927203">
    <!-- conflict: "182 Berlin Street, Montpelier, VT" Fuzzy match to "182 Berlin St, Montpelier, " -->
    <tag k="addr:city" v="Montpelier"/>
    <tag k="addr:housenumber" v="182"/>
    <tag k="addr:street" v="Berlin Street"/>
    <tag k="addr:state" v="VT"/>
    <tag k="ref:vcgi:esiteid" v="166284"/>
  </node>
  <node id="-2049" visible="true" lat="44.24923949" lon="-72.56911723">
    <!-- conflict: "184 Berlin Street, Montpelier, VT" Fuzzy match to "184 Berlin St, Montpelier, " -->
    <tag k="addr:city" v="Montpelier"/>
    <tag k="addr:housenumber" v="184"/>
    <tag k="addr:street" v="Berlin Street"/>
    <tag k="addr:state" v="VT"/>
    <tag k="ref:vcgi:esiteid" v="166287"/>
  </node>
  <node id="-2050" visible="true" lat="44.24934455" lon="-72.58295366">
    <!-- conflict: "135 Northfield Street, Montpelier, VT" Fuzzy match to "135 Northfield St, Montpelier, " -->
    <tag k="addr:city" v="Montpelier"/>
    <tag k="addr:housenumber" v="135"/>
    <tag k="addr:street" v="Northfield Street"/>
    <tag k="addr:state" v="VT"/>
    <tag k="ref:vcgi:esiteid" v="166288"/>
  </node>
  <node id="-2055" visible="true" lat="44.24928264" lon="-72.55817036">
    <!-- conflict: "4 Taplin Street, Montpelier, VT" No match in OSM, but a different address exists <5m away: "4 Toplin Street, Montpelier, " -->
    <tag k="addr:city" v="Montpelier"/>
    <tag k="addr:housenumber" v="4"/>
    <tag k="addr:street" v="Taplin Street"/>
    <tag k="addr:state" v="VT"/>
    <tag k="ref:vcgi:esiteid" v="166294"/>
  </node>
  <node id="-2059" visible="true" lat="44.24922466" lon="-72.52693618">
    <!-- conflict: "215 Maplewood Road, Montpelier, VT" Fuzzy match to "215 Maplewood Road, East Montpelier, " -->
    <tag k="addr:city" v="Montpelier"/>
    <tag k="addr:housenumber" v="215"/>
    <tag k="addr:street" v="Maplewood Road"/>
    <tag k="addr:state" v="VT"/>
    <tag k="ref:vcgi:esiteid" v="166299"/>
  </node>
  <node id="-2060" visible="true" lat="44.24925431" lon="-72.55849598">
    <!-- conflict: "3 Taplin Street, Montpelier, VT" No match in OSM, but a different address exists <5m away: "3 Toplin Street, Montpelier, " -->
    <tag k="addr:city" v="Montpelier"/>
    <tag k="addr:housenumber" v="3"/>
    <tag k="addr:street" v="Taplin Street"/>
    <tag k="addr:state" v="VT"/>
    <tag k="ref:vcgi:esiteid" v="166301"/>
  </node>
  <node id="-2067" visible="true" lat="44.24910868" lon="-72.55816886">
    <!-- conflict: "6 Taplin Street, Montpelier, VT" No match in OSM, but a different address exists <5m away: "6 Toplin Street, Montpelier, " -->
    <tag k="addr:city" v="Montpelier"/>
    <tag k="addr:housenumber" v="6"/>
    <tag k="addr:street" v="Taplin Street"/>
    <tag k="addr:state" v="VT"/>
    <tag k="ref:vcgi:esiteid" v="166308"/>
  </node>
  <node id="-2074" visible="true" lat="44.24906465" lon="-72.55851226">
    <!-- conflict: "5 Taplin Street, Montpelier, VT" No match in OSM, but a different address exists <5m away: "5 Toplin Street, Montpelier, " -->
    <tag k="addr:city" v="Montpelier"/>
    <tag k="addr:housenumber" v="5"/>
    <tag k="addr:street" v="Taplin Street"/>
    <tag k="addr:state" v="VT"/>
    <tag k="ref:vcgi:esiteid" v="166318"/>
  </node>
  <node id="-2077" visible="true" lat="44.24884457" lon="-72.56728083">
    <!-- conflict: "19 Phelps Street, Montpelier, VT" Fuzzy match to "19 Phelps Street, , " -->
    <tag k="addr:city" v="Montpelier"/>
    <tag k="addr:housenumber" v="19"/>
    <tag k="addr:street" v="Phelps Street"/>
    <tag k="addr:state" v="VT"/>
    <tag k="ref:vcgi:esiteid" v="166321"/>
  </node>
  <node id="-2083" visible="true" lat="44.24891848" lon="-72.5836499">
    <!-- conflict: "145 Northfield Street, Montpelier, VT" Fuzzy match to "145 Northfield St, Montpelier, " -->
    <tag k="addr:city" v="Montpelier"/>
    <tag k="addr:housenumber" v="145"/>
    <tag k="addr:street" v="Northfield Street"/>
    <tag k="addr:state" v="VT"/>
    <tag k="ref:vcgi:esiteid" v="166327"/>
  </node>
  <node id="-2087" visible="true" lat="44.24871905" lon="-72.55845357">
    <!-- conflict: "9 Taplin Street, Montpelier, VT" No match in OSM, but a different address exists <5m away: "9 Toplin Street, Montpelier, " -->
    <tag k="addr:city" v="Montpelier"/>
    <tag k="addr:housenumber" v="9"/>
    <tag k="addr:street" v="Taplin Street"/>
    <tag k="addr:state" v="VT"/>
    <tag k="ref:vcgi:esiteid" v="166331"/>
  </node>
  <node id="-2092" visible="true" lat="44.2487502" lon="-72.58292861">
    <!-- conflict: "146 Northfield Street, Montpelier, VT" Fuzzy match to "146 Northfield St, Montpelier, " -->
    <tag k="addr:city" v="Montpelier"/>
    <tag k="addr:housenumber" v="146"/>
    <tag k="addr:street" v="Northfield Street"/>
    <tag k="addr:state" v="VT"/>
    <tag k="ref:vcgi:esiteid" v="166336"/>
  </node>
  <node id="-2093" visible="true" lat="44.2488007" lon="-72.56877581">
    <!-- conflict: "188 Berlin Street, Montpelier, VT" Fuzzy match to "188 Berlin St, Montpelier, " -->
    <tag k="addr:city" v="Montpelier"/>
    <tag k="addr:housenumber" v="188"/>
    <tag k="addr:street" v="Berlin Street"/>
    <tag k="addr:state" v="VT"/>
    <tag k="ref:vcgi:esiteid" v="166337"/>
  </node>
  <node id="-2095" visible="true" lat="44.24883077" lon="-72.56942753">
    <!-- conflict: "197 Berlin Street, Montpelier, VT" Fuzzy match to "197 Berlin St, Montpelier, " -->
    <tag k="addr:city" v="Montpelier"/>
    <tag k="addr:housenumber" v="197"/>
    <tag k="addr:street" v="Berlin Street"/>
    <tag k="addr:state" v="VT"/>
    <tag k="ref:vcgi:esiteid" v="166339"/>
  </node>
  <node id="-2100" visible="true" lat="44.2488822" lon="-72.56859381">
    <!-- conflict: "186 Berlin Street, Montpelier, VT" Fuzzy match to "186 Berlin St, Montpelier, " -->
    <tag k="addr:city" v="Montpelier"/>
    <tag k="addr:housenumber" v="186"/>
    <tag k="addr:street" v="Berlin Street"/>
    <tag k="addr:state" v="VT"/>
    <tag k="ref:vcgi:esiteid" v="166344"/>
  </node>
  <node id="-2107" visible="true" lat="44.24861738" lon="-72.56923672">
    <!-- conflict: "199 Berlin Street, Montpelier, VT" Fuzzy match to "199 Berlin St, Montpelier, " -->
    <tag k="addr:city" v="Montpelier"/>
    <tag k="addr:housenumber" v="199"/>
    <tag k="addr:street" v="Berlin Street"/>
    <tag k="addr:state" v="VT"/>
    <tag k="ref:vcgi:esiteid" v="166352"/>
  </node>
  <node id="-2108" visible="true" lat="44.2486847" lon="-72.5680152">
    <!-- conflict: "12 Phelps Street, Montpelier, VT" Fuzzy match to "12 phelps Street, Montpelier, " -->
    <tag k="addr:city" v="Montpelier"/>
    <tag k="addr:housenumber" v="12"/>
    <tag k="addr:street" v="Phelps Street"/>
    <tag k="addr:state" v="VT"/>
    <tag k="ref:vcgi:esiteid" v="166353"/>
  </node>
  <node id="-2111" visible="true" lat="44.24851401" lon="-72.58264265">
    <!-- conflict: "150 Northfield Street, Montpelier, VT" Fuzzy match to "150 Northfield St, Montpelier, " -->
    <tag k="addr:city" v="Montpelier"/>
    <tag k="addr:housenumber" v="150"/>
    <tag k="addr:street" v="Northfield Street"/>
    <tag k="addr:state" v="VT"/>
    <tag k="ref:vcgi:esiteid" v="166356"/>
  </node>
  <node id="-2114" visible="true" lat="44.24867672" lon="-72.5839205">
    <!-- conflict: "147 Northfield Street, Montpelier, VT" Fuzzy match to "147 Northfield St, Montpelier, " -->
    <tag k="addr:city" v="Montpelier"/>
    <tag k="addr:housenumber" v="147"/>
    <tag k="addr:street" v="Northfield Street"/>
    <tag k="addr:state" v="VT"/>
    <tag k="ref:vcgi:esiteid" v="166360"/>
  </node>
  <node id="-2121" visible="true" lat="44.24849219" lon="-72.58412992">
    <!-- conflict: "149 Northfield Street, Montpelier, VT" Fuzzy match to "149 Northfield St, Montpelier, " -->
    <tag k="addr:city" v="Montpelier"/>
    <tag k="addr:housenumber" v="149"/>
    <tag k="addr:street" v="Northfield Street"/>
    <tag k="addr:state" v="VT"/>
    <tag k="ref:vcgi:esiteid" v="166369"/>
  </node>
  <node id="-2123" visible="true" lat="44.24843807" lon="-72.56839388">
    <!-- conflict: "190 Berlin Street, Montpelier, VT" Fuzzy match to "190 Berlin St, Montpelier, " -->
    <tag k="addr:city" v="Montpelier"/>
    <tag k="addr:housenumber" v="190"/>
    <tag k="addr:street" v="Berlin Street"/>
    <tag k="addr:state" v="VT"/>
    <tag k="ref:vcgi:esiteid" v="166371"/>
  </node>
  <node id="-2126" visible="true" lat="44.24838402" lon="-72.56905423">
    <!-- conflict: "201 Berlin Street, Montpelier, VT" Fuzzy match to "201 Berlin St, Montpelier, " -->
    <tag k="addr:city" v="Montpelier"/>
    <tag k="addr:housenumber" v="201"/>
    <tag k="addr:street" v="Berlin Street"/>
    <tag k="addr:state" v="VT"/>
    <tag k="ref:vcgi:esiteid" v="166375"/>
  </node>
  <node id="-2129" visible="true" lat="44.24817334" lon="-72.56884726">
    <!-- conflict: "203 Berlin Street, Montpelier, VT" Fuzzy match to "203 Berlin St, Montpelier, " -->
    <tag k="addr:city" v="Montpelier"/>
    <tag k="addr:housenumber" v="203"/>
    <tag k="addr:street" v="Berlin Street"/>
    <tag k="addr:state" v="VT"/>
    <tag k="ref:vcgi:esiteid" v="166378"/>
  </node>
  <node id="-2138" visible="true" lat="44.24821849" lon="-72.58482772">
    <!-- conflict: "155 Northfield Street, Montpelier, VT" Fuzzy match to "155 Northfield St, Montpelier, " -->
    <tag k="addr:city" v="Montpelier"/>
    <tag k="addr:housenumber" v="155"/>
    <tag k="addr:street" v="Northfield Street"/>
    <tag k="addr:state" v="VT"/>
    <tag k="ref:vcgi:esiteid" v="166389"/>
  </node>
  <node id="-2141" visible="true" lat="44.24816198" lon="-72.56814298">
    <!-- conflict: "192 Berlin Street, Montpelier, VT" Fuzzy match to "192 Berlin St, Montpelier, " -->
    <tag k="addr:city" v="Montpelier"/>
    <tag k="addr:housenumber" v="192"/>
    <tag k="addr:street" v="Berlin Street"/>
    <tag k="addr:state" v="VT"/>
    <tag k="ref:vcgi:esiteid" v="166392"/>
  </node>
  <node id="-2148" visible="true" lat="44.24791226" lon="-72.56863946">
    <!-- conflict: "205 Berlin Street, Montpelier, VT" Fuzzy match to "205 Berlin St, Montpelier, " -->
    <tag k="addr:city" v="Montpelier"/>
    <tag k="addr:housenumber" v="205"/>
    <tag k="addr:street" v="Berlin Street"/>
    <tag k="addr:state" v="VT"/>
    <tag k="ref:vcgi:esiteid" v="166400"/>
  </node>
  <node id="-2149" visible="true" lat="44.24778559" lon="-72.58450808">
    <!-- conflict: "164 Northfield Street, Montpelier, VT" Fuzzy match to "164 Northfield St, Montpelier, " -->
    <tag k="addr:city" v="Montpelier"/>
    <tag k="addr:housenumber" v="164"/>
    <tag k="addr:street" v="Northfield Street"/>
    <tag k="addr:state" v="VT"/>
    <tag k="ref:vcgi:esiteid" v="166401"/>
  </node>
  <node id="-2154" visible="true" lat="44.24763632" lon="-72.58477011">
    <!-- conflict: "166 Northfield Street, Montpelier, VT" Fuzzy match to "166 Northfield St, Montpelier, " -->
    <tag k="addr:city" v="Montpelier"/>
    <tag k="addr:housenumber" v="166"/>
    <tag k="addr:street" v="Northfield Street"/>
    <tag k="addr:state" v="VT"/>
    <tag k="ref:vcgi:esiteid" v="166407"/>
  </node>
  <node id="-2157" visible="true" lat="44.24773179" lon="-72.56785095">
    <!-- conflict: "200 Berlin Street, Montpelier, VT" Fuzzy match to "200 Berlin St, Montpelier, " -->
    <tag k="addr:city" v="Montpelier"/>
    <tag k="addr:housenumber" v="200"/>
    <tag k="addr:street" v="Berlin Street"/>
    <tag k="addr:state" v="VT"/>
    <tag k="ref:vcgi:esiteid" v="166410"/>
  </node>
  <node id="-2158" visible="true" lat="44.24761567" lon="-72.56616265">
    <!-- conflict: "23 Roberts Street, Montpelier, VT" No match in OSM, but a different address exists <5m away: "21 Roberts Street, Montpelier, " -->
    <tag k="addr:city" v="Montpelier"/>
    <tag k="addr:housenumber" v="23"/>
    <tag k="addr:street" v="Roberts Street"/>
    <tag k="addr:state" v="VT"/>
    <tag k="ref:vcgi:esiteid" v="166411"/>
  </node>
  <node id="-2161" visible="true" lat="44.24765318" lon="-72.5686536">
    <!-- conflict: "207 Berlin Street, Montpelier, VT" Fuzzy match to "207 Berlin St, Montpelier, " -->
    <tag k="addr:city" v="Montpelier"/>
    <tag k="addr:housenumber" v="207"/>
    <tag k="addr:street" v="Berlin Street"/>
    <tag k="addr:state" v="VT"/>
    <tag k="ref:vcgi:esiteid" v="166414"/>
  </node>
  <node id="-2162" visible="true" lat="44.24749483" lon="-72.58513502">
    <!-- conflict: "168 Northfield Street, Montpelier, VT" Fuzzy match to "168 Northfield St, Montpelier, " -->
    <tag k="addr:city" v="Montpelier"/>
    <tag k="addr:housenumber" v="168"/>
    <tag k="addr:street" v="Northfield Street"/>
    <tag k="addr:state" v="VT"/>
    <tag k="ref:vcgi:esiteid" v="166415"/>
  </node>
  <node id="-2165" visible="true" lat="44.24752696" lon="-72.56768845">
    <!-- conflict: "202 Berlin Street, Montpelier, VT" Fuzzy match to "202 Berlin St, Montpelier, " -->
    <tag k="addr:city" v="Montpelier"/>
    <tag k="addr:housenumber" v="202"/>
    <tag k="addr:street" v="Berlin Street"/>
    <tag k="addr:state" v="VT"/>
    <tag k="ref:vcgi:esiteid" v="166418"/>
  </node>
  <node id="-2166" visible="true" lat="44.24746014" lon="-72.56821394">
    <!-- conflict: "209 Berlin Street, Montpelier, VT" Fuzzy match to "209 Berlin St, Montpelier, " -->
    <tag k="addr:city" v="Montpelier"/>
    <tag k="addr:housenumber" v="209"/>
    <tag k="addr:street" v="Berlin Street"/>
    <tag k="addr:state" v="VT"/>
    <tag k="ref:vcgi:esiteid" v="166419"/>
  </node>
  <node id="-2169" visible="true" lat="44.24739726" lon="-72.56760452">
    <!-- conflict: "204 Berlin Street, Montpelier, VT" Fuzzy match to "204 Berlin St, Montpelier, " -->
    <tag k="addr:city" v="Montpelier"/>
    <tag k="addr:housenumber" v="204"/>
    <tag k="addr:street" v="Berlin Street"/>
    <tag k="addr:state" v="VT"/>
    <tag k="ref:vcgi:esiteid" v="166422"/>
  </node>
  <node id="-2174" visible="true" lat="44.24727127" lon="-72.56753384">
    <!-- conflict: "206 Berlin Street, Montpelier, VT" Fuzzy match to "206 Berlin St, Montpelier, " -->
    <tag k="addr:city" v="Montpelier"/>
    <tag k="addr:housenumber" v="206"/>
    <tag k="addr:street" v="Berlin Street"/>
    <tag k="addr:state" v="VT"/>
    <tag k="ref:vcgi:esiteid" v="166427"/>
  </node>
  <node id="-2181" visible="true" lat="44.24691009" lon="-72.56783294">
    <!-- conflict: "215 Berlin Street, Montpelier, VT" Fuzzy match to "215 Berlin St, Montpelier, " -->
    <tag k="addr:city" v="Montpelier"/>
    <tag k="addr:housenumber" v="215"/>
    <tag k="addr:street" v="Berlin Street"/>
    <tag k="addr:state" v="VT"/>
    <tag k="ref:vcgi:esiteid" v="166436"/>
  </node>
  <node id="-2184" visible="true" lat="44.24687585" lon="-72.56716421">
    <!-- conflict: "218 Berlin Street, Montpelier, VT" Fuzzy match to "218 Berlin St, Montpelier, " -->
    <tag k="addr:city" v="Montpelier"/>
    <tag k="addr:housenumber" v="218"/>
    <tag k="addr:street" v="Berlin Street"/>
    <tag k="addr:state" v="VT"/>
    <tag k="ref:vcgi:esiteid" v="166439"/>
  </node>
  <node id="-2188" visible="true" lat="44.2466852" lon="-72.56768363">
    <!-- conflict: "219 Berlin Street, Montpelier, VT" Fuzzy match to "219 Berlin St, Montpelier, " -->
    <tag k="addr:city" v="Montpelier"/>
    <tag k="addr:housenumber" v="219"/>
    <tag k="addr:street" v="Berlin Street"/>
    <tag k="addr:state" v="VT"/>
    <tag k="ref:vcgi:esiteid" v="166444"/>
  </node>
  <node id="-2197" visible="true" lat="44.24663285" lon="-72.56701343">
    <!-- conflict: "220 Berlin Street, Montpelier, VT" Fuzzy match to "220 Berlin St, Montpelier, " -->
    <tag k="addr:city" v="Montpelier"/>
    <tag k="addr:housenumber" v="220"/>
    <tag k="addr:street" v="Berlin Street"/>
    <tag k="addr:state" v="VT"/>
    <tag k="ref:vcgi:esiteid" v="166453"/>
  </node>
  <node id="-2201" visible="true" lat="44.24654156" lon="-72.56812399">
    <!-- conflict: "4 George Street, Montpelier, VT" No match in OSM, but a different address exists <5m away: "4 Wilson Street, Montpelier, " -->
    <tag k="addr:city" v="Montpelier"/>
    <tag k="addr:housenumber" v="4"/>
    <tag k="addr:street" v="George Street"/>
    <tag k="addr:state" v="VT"/>
    <tag k="ref:vcgi:esiteid" v="166457"/>
  </node>
  <node id="-2206" visible="true" lat="44.24642488" lon="-72.56697978">
    <!-- conflict: "222 Berlin Street, Montpelier, VT" Fuzzy match to "222 Berlin St, Montpelier, " -->
    <tag k="addr:city" v="Montpelier"/>
    <tag k="addr:housenumber" v="222"/>
    <tag k="addr:street" v="Berlin Street"/>
    <tag k="addr:state" v="VT"/>
    <tag k="ref:vcgi:esiteid" v="166463"/>
  </node>
  <node id="-2209" visible="true" lat="44.24641984" lon="-72.5680548">
    <!-- conflict: "6 George Street, Montpelier, VT" No match in OSM, but a different address exists <5m away: "6 Wilson Street, Montpelier, " -->
    <tag k="addr:city" v="Montpelier"/>
    <tag k="addr:housenumber" v="6"/>
    <tag k="addr:street" v="George Street"/>
    <tag k="addr:state" v="VT"/>
    <tag k="ref:vcgi:esiteid" v="166466"/>
  </node>
  <node id="-2216" visible="true" lat="44.2462387" lon="-72.56750488">
    <!-- conflict: "223 Berlin Street, Montpelier, VT" Fuzzy match to "223 Berlin St, Montpelier, " -->
    <tag k="addr:city" v="Montpelier"/>
    <tag k="addr:housenumber" v="223"/>
    <tag k="addr:street" v="Berlin Street"/>
    <tag k="addr:state" v="VT"/>
    <tag k="ref:vcgi:esiteid" v="166474"/>
  </node>
  <node id="-2223" visible="true" lat="44.24608772" lon="-72.56615369">
    <!-- conflict: "37 Pleasantview Street, Montpelier, VT" Fuzzy match to "37 pleasantview Street, Montpelier, " -->
    <tag k="addr:city" v="Montpelier"/>
    <tag k="addr:housenumber" v="37"/>
    <tag k="addr:street" v="Pleasantview Street"/>
    <tag k="addr:state" v="VT"/>
    <tag k="ref:vcgi:esiteid" v="166483"/>
  </node>
  <node id="-2230" visible="true" lat="44.24592592" lon="-72.56663245">
    <!-- conflict: "228 Berlin Street, Montpelier, VT" Fuzzy match to "228 Berlin St, Montpelier, " -->
    <tag k="addr:city" v="Montpelier"/>
    <tag k="addr:housenumber" v="228"/>
    <tag k="addr:street" v="Berlin Street"/>
    <tag k="addr:state" v="VT"/>
    <tag k="ref:vcgi:esiteid" v="166491"/>
  </node>
  <node id="-2235" visible="true" lat="44.24576513" lon="-72.56708868">
    <!-- conflict: "229 Berlin Street, Montpelier, VT" Fuzzy match to "229 Berlin St, Montpelier, " -->
    <tag k="addr:city" v="Montpelier"/>
    <tag k="addr:housenumber" v="229"/>
    <tag k="addr:street" v="Berlin Street"/>
    <tag k="addr:state" v="VT"/>
    <tag k="ref:vcgi:esiteid" v="166496"/>
  </node>
  <node id="-2238" visible="true" lat="44.24572375" lon="-72.56652119">
    <!-- conflict: "232 Berlin Street, Montpelier, VT" Fuzzy match to "232 Berlin St, Montpelier, " -->
    <tag k="addr:city" v="Montpelier"/>
    <tag k="addr:housenumber" v="232"/>
    <tag k="addr:street" v="Berlin Street"/>
    <tag k="addr:state" v="VT"/>
    <tag k="ref:vcgi:esiteid" v="166499"/>
  </node>
  <node id="-2243" visible="true" lat="44.24554772" lon="-72.56638308">
    <!-- conflict: "234 Berlin Street, Montpelier, VT" Fuzzy match to "234 Berlin St, Montpelier, " -->
    <tag k="addr:city" v="Montpelier"/>
    <tag k="addr:housenumber" v="234"/>
    <tag k="addr:street" v="Berlin Street"/>
    <tag k="addr:state" v="VT"/>
    <tag k="ref:vcgi:esiteid" v="166505"/>
  </node>
  <node id="-2248" visible="true" lat="44.24547337" lon="-72.56694374">
    <!-- conflict: "231 Berlin Street, Montpelier, VT" Fuzzy match to "231 Berlin St, Montpelier, " -->
    <tag k="addr:city" v="Montpelier"/>
    <tag k="addr:housenumber" v="231"/>
    <tag k="addr:street" v="Berlin Street"/>
    <tag k="addr:state" v="VT"/>
    <tag k="ref:vcgi:esiteid" v="166511"/>
  </node>
  <node id="-2250" visible="true" lat="44.24535183" lon="-72.5662599">
    <!-- conflict: "244 Berlin Street, Montpelier, VT" Fuzzy match to "244 Berlin St, Montpelier, " -->
    <tag k="addr:city" v="Montpelier"/>
    <tag k="addr:housenumber" v="244"/>
    <tag k="addr:street" v="Berlin Street"/>
    <tag k="addr:state" v="VT"/>
    <tag k="ref:vcgi:esiteid" v="166513"/>
  </node>
  <node id="-2254" visible="true" lat="44.24521599" lon="-72.5667917">
    <!-- conflict: "237 Berlin Street, Montpelier, VT" Fuzzy match to "237 Berlin St, Montpelier, " -->
    <tag k="addr:city" v="Montpelier"/>
    <tag k="addr:housenumber" v="237"/>
    <tag k="addr:street" v="Berlin Street"/>
    <tag k="addr:state" v="VT"/>
    <tag k="ref:vcgi:esiteid" v="166518"/>
  </node>
  <node id="-2258" visible="true" lat="44.24513365" lon="-72.56608535">
    <!-- conflict: "246 Berlin Street, Montpelier, VT" Fuzzy match to "246 Berlin St, Montpelier, " -->
    <tag k="addr:city" v="Montpelier"/>
    <tag k="addr:housenumber" v="246"/>
    <tag k="addr:street" v="Berlin Street"/>
    <tag k="addr:state" v="VT"/>
    <tag k="ref:vcgi:esiteid" v="166524"/>
  </node>
  <node id="-2262" visible="true" lat="44.24492269" lon="-72.56596233">
    <!-- conflict: "248 Berlin Street, Montpelier, VT" Fuzzy match to "248 Berlin St, Montpelier, " -->
    <tag k="addr:city" v="Montpelier"/>
    <tag k="addr:housenumber" v="248"/>
    <tag k="addr:street" v="Berlin Street"/>
    <tag k="addr:state" v="VT"/>
    <tag k="ref:vcgi:esiteid" v="166528"/>
  </node>
  <node id="-2263" visible="true" lat="44.24496747" lon="-72.56664366">
    <!-- conflict: "239 Berlin Street, Montpelier, VT" Fuzzy match to "239 Berlin St, Montpelier, " -->
    <tag k="addr:city" v="Montpelier"/>
    <tag k="addr:housenumber" v="239"/>
    <tag k="addr:street" v="Berlin Street"/>
    <tag k="addr:state" v="VT"/>
    <tag k="ref:vcgi:esiteid" v="166529"/>
  </node>
  <node id="-2270" visible="true" lat="44.24472663" lon="-72.56581511">
    <!-- conflict: "250 Berlin Street, Montpelier, VT" Fuzzy match to "250 Berlin St, Montpelier, " -->
    <tag k="addr:city" v="Montpelier"/>
    <tag k="addr:housenumber" v="250"/>
    <tag k="addr:street" v="Berlin Street"/>
    <tag k="addr:state" v="VT"/>
    <tag k="ref:vcgi:esiteid" v="166536"/>
  </node>
  <node id="-2271" visible="true" lat="44.24475626" lon="-72.56649779">
    <!-- conflict: "241 Berlin Street, Montpelier, VT" Fuzzy match to "241 Berlin St, Montpelier, " -->
    <tag k="addr:city" v="Montpelier"/>
    <tag k="addr:housenumber" v="241"/>
    <tag k="addr:street" v="Berlin Street"/>
    <tag k="addr:state" v="VT"/>
    <tag k="ref:vcgi:esiteid" v="166537"/>
  </node>
  <node id="-2283" visible="true" lat="44.24450828" lon="-72.56649968">
    <!-- conflict: "247 Berlin Street, Montpelier, VT" Fuzzy match to "247 Berlin St, Montpelier, " -->
    <tag k="addr:city" v="Montpelier"/>
    <tag k="addr:housenumber" v="247"/>
    <tag k="addr:street" v="Berlin Street"/>
    <tag k="addr:state" v="VT"/>
    <tag k="ref:vcgi:esiteid" v="166551"/>
  </node>
  <node id="-2286" visible="true" lat="44.24426623" lon="-72.56549235">
    <!-- conflict: "252 Berlin Street, Montpelier, VT" Fuzzy match to "252 Berlin St, Montpelier, " -->
    <tag k="addr:city" v="Montpelier"/>
    <tag k="addr:housenumber" v="252"/>
    <tag k="addr:street" v="Berlin Street"/>
    <tag k="addr:state" v="VT"/>
    <tag k="ref:vcgi:esiteid" v="166555"/>
  </node>
  <node id="-2289" visible="true" lat="44.24429559" lon="-72.5680159">
    <!-- conflict: "40 George Street, Montpelier, VT" Fuzzy match to "40 george Street, Montpelier, " -->
    <tag k="addr:city" v="Montpelier"/>
    <tag k="addr:housenumber" v="40"/>
    <tag k="addr:street" v="George Street"/>
    <tag k="addr:state" v="VT"/>
    <tag k="ref:vcgi:esiteid" v="166558"/>
  </node>
  <node id="-2300" visible="true" lat="44.24410241" lon="-72.56594953">
    <!-- conflict: "251 Berlin Street, Montpelier, VT" Fuzzy match to "251 Berlin St, Montpelier, " -->
    <tag k="addr:city" v="Montpelier"/>
    <tag k="addr:housenumber" v="251"/>
    <tag k="addr:street" v="Berlin Street"/>
    <tag k="addr:state" v="VT"/>
    <tag k="ref:vcgi:esiteid" v="166570"/>
  </node>
  <node id="-2303" visible="true" lat="44.24388119" lon="-72.56581206">
    <!-- conflict: "253 Berlin Street, Montpelier, VT" Fuzzy match to "253 Berlin St, Montpelier, " -->
    <tag k="addr:city" v="Montpelier"/>
    <tag k="addr:housenumber" v="253"/>
    <tag k="addr:street" v="Berlin Street"/>
    <tag k="addr:state" v="VT"/>
    <tag k="ref:vcgi:esiteid" v="166573"/>
  </node>
  <node id="-2321" visible="true" lat="44.24350994" lon="-72.56486055">
    <!-- conflict: "266 Berlin Street, Montpelier, VT" Fuzzy match to "266 Berlin St, Montpelier, " -->
    <tag k="addr:city" v="Montpelier"/>
    <tag k="addr:housenumber" v="266"/>
    <tag k="addr:street" v="Berlin Street"/>
    <tag k="addr:state" v="VT"/>
    <tag k="ref:vcgi:esiteid" v="166594"/>
  </node>
  <node id="-2323" visible="true" lat="44.2434341" lon="-72.56553784">
    <!-- conflict: "255 Berlin Street, Montpelier, VT" Fuzzy match to "255 Berlin St, Montpelier, " -->
    <tag k="addr:city" v="Montpelier"/>
    <tag k="addr:housenumber" v="255"/>
    <tag k="addr:street" v="Berlin Street"/>
    <tag k="addr:state" v="VT"/>
    <tag k="ref:vcgi:esiteid" v="166596"/>
  </node>
  <node id="-2333" visible="true" lat="44.24321396" lon="-72.56534583">
    <!-- conflict: "257 Berlin Street, Montpelier, VT" Fuzzy match to "257 Berlin St, Montpelier, " -->
    <tag k="addr:city" v="Montpelier"/>
    <tag k="addr:housenumber" v="257"/>
    <tag k="addr:street" v="Berlin Street"/>
    <tag k="addr:state" v="VT"/>
    <tag k="ref:vcgi:esiteid" v="166606"/>
  </node>
  <node id="-2334" visible="true" lat="44.24315261" lon="-72.56455993">
    <!-- conflict: "268 Berlin Street, Montpelier, VT" Fuzzy match to "268 Berlin St, Montpelier, " -->
    <tag k="addr:city" v="Montpelier"/>
    <tag k="addr:housenumber" v="268"/>
    <tag k="addr:street" v="Berlin Street"/>
    <tag k="addr:state" v="VT"/>
    <tag k="ref:vcgi:esiteid" v="166607"/>
  </node>
  <node id="-2339" visible="true" lat="44.24302861" lon="-72.56513123">
    <!-- conflict: "259 Berlin Street, Montpelier, VT" Fuzzy match to "259 Berlin St, Montpelier, " -->
    <tag k="addr:city" v="Montpelier"/>
    <tag k="addr:housenumber" v="259"/>
    <tag k="addr:street" v="Berlin Street"/>
    <tag k="addr:state" v="VT"/>
    <tag k="ref:vcgi:esiteid" v="166613"/>
  </node>
  <node id="-2344" visible="true" lat="44.24274376" lon="-72.54645378">
    <!-- conflict: "350 East Montpelier Road, Montpelier, VT" Fuzzy match to "350 Montpelier Road, Montpelier, " -->
    <tag k="addr:city" v="Montpelier"/>
    <tag k="addr:housenumber" v="350"/>
    <tag k="addr:street" v="East Montpelier Road"/>
    <tag k="addr:state" v="VT"/>
    <tag k="ref:vcgi:esiteid" v="166621"/>
  </node>
  <node id="-2349" visible="true" lat="44.24277131" lon="-72.56486167">
    <!-- conflict: "261 Berlin Street, Montpelier, VT" Fuzzy match to "261 Berlin St, Montpelier, " -->
    <tag k="addr:city" v="Montpelier"/>
    <tag k="addr:housenumber" v="261"/>
    <tag k="addr:street" v="Berlin Street"/>
    <tag k="addr:state" v="VT"/>
    <tag k="ref:vcgi:esiteid" v="166628"/>
  </node>
  <node id="-2354" visible="true" lat="44.24267423" lon="-72.56407531">
    <!-- conflict: "270 Berlin Street, Montpelier, VT" Fuzzy match to "270 Berlin St, Montpelier, " -->
    <tag k="addr:city" v="Montpelier"/>
    <tag k="addr:housenumber" v="270"/>
    <tag k="addr:street" v="Berlin Street"/>
    <tag k="addr:state" v="VT"/>
    <tag k="ref:vcgi:esiteid" v="166635"/>
  </node>
  <node id="-2358" visible="true" lat="44.24232497" lon="-72.54528355">
    <!-- conflict: "408 East Montpelier Road, Montpelier, VT" No match in OSM, but a different address exists <5m away: "408 E Montpelier Road;East Montpelier Road, Montpelier, VT" -->
    <tag k="addr:city" v="Montpelier"/>
    <tag k="addr:housenumber" v="408"/>
    <tag k="addr:street" v="East Montpelier Road"/>
    <tag k="addr:state" v="VT"/>
    <tag k="ref:vcgi:esiteid" v="166639"/>
  </node>
  <node id="-2360" visible="true" lat="44.24242547" lon="-72.56447428">
    <!-- conflict: "265 Berlin Street, Montpelier, VT" Fuzzy match to "265 Berlin St, Montpelier, " -->
    <tag k="addr:city" v="Montpelier"/>
    <tag k="addr:housenumber" v="265"/>
    <tag k="addr:street" v="Berlin Street"/>
    <tag k="addr:state" v="VT"/>
    <tag k="ref:vcgi:esiteid" v="166641"/>
  </node>
  <node id="-2361" visible="true" lat="44.24245446" lon="-72.56645999">
    <!-- conflict: "263 Berlin Street, Montpelier, VT" Fuzzy match to "263 Berlin St, Montpelier, " -->
    <tag k="addr:city" v="Montpelier"/>
    <tag k="addr:housenumber" v="263"/>
    <tag k="addr:street" v="Berlin Street"/>
    <tag k="addr:state" v="VT"/>
    <tag k="ref:vcgi:esiteid" v="166643"/>
  </node>
  <node id="-2363" visible="true" lat="44.24237539" lon="-72.56360566">
    <!-- conflict: "272 Berlin Street, Montpelier, VT" Fuzzy match to "272 Berlin St, Montpelier, " -->
    <tag k="addr:city" v="Montpelier"/>
    <tag k="addr:housenumber" v="272"/>
    <tag k="addr:street" v="Berlin Street"/>
    <tag k="addr:state" v="VT"/>
    <tag k="ref:vcgi:esiteid" v="166646"/>
  </node>
  <node id="-2369" visible="true" lat="44.24256526" lon="-72.54702305">
    <!-- conflict: "378 East Montpelier Road, Montpelier, VT" No match in OSM, but a different address exists <5m away: "378 E Montpelier Road;East Montpelier Road, Montpelier, VT" -->
    <tag k="addr:city" v="Montpelier"/>
    <tag k="addr:housenumber" v="378"/>
    <tag k="addr:street" v="East Montpelier Road"/>
    <tag k="addr:state" v="VT"/>
    <tag k="ref:vcgi:esiteid" v="166652"/>
  </node>
  <node id="-2371" visible="true" lat="44.2421784" lon="-72.56344737">
    <!-- conflict: "274 Berlin Street, Montpelier, VT" Fuzzy match to "274 Berlin St, Montpelier, " -->
    <tag k="addr:city" v="Montpelier"/>
    <tag k="addr:housenumber" v="274"/>
    <tag k="addr:street" v="Berlin Street"/>
    <tag k="addr:state" v="VT"/>
    <tag k="ref:vcgi:esiteid" v="166654"/>
  </node>
  <node id="-2377" visible="true" lat="44.24196905" lon="-72.56322455">
    <!-- conflict: "276 Berlin Street, Montpelier, VT" Fuzzy match to "276 Berlin St, Montpelier, " -->
    <tag k="addr:city" v="Montpelier"/>
    <tag k="addr:housenumber" v="276"/>
    <tag k="addr:street" v="Berlin Street"/>
    <tag k="addr:state" v="VT"/>
    <tag k="ref:vcgi:esiteid" v="166661"/>
  </node>
  <node id="-2378" visible="true" lat="44.24169073" lon="-72.56384268">
    <!-- conflict: "267 Berlin Street, Montpelier, VT" Fuzzy match to "267 Berlin St, Montpelier, " -->
    <tag k="addr:city" v="Montpelier"/>
    <tag k="addr:housenumber" v="267"/>
    <tag k="addr:street" v="Berlin Street"/>
    <tag k="addr:state" v="VT"/>
    <tag k="ref:vcgi:esiteid" v="166662"/>
  </node>
  <node id="-2380" visible="true" lat="44.24166107" lon="-72.56307983">
    <!-- conflict: "278 Berlin Street, Montpelier, VT" Fuzzy match to "278 Berlin St, Montpelier, " -->
    <tag k="addr:city" v="Montpelier"/>
    <tag k="addr:housenumber" v="278"/>
    <tag k="addr:street" v="Berlin Street"/>
    <tag k="addr:state" v="VT"/>
    <tag k="ref:vcgi:esiteid" v="166664"/>
  </node>
  <node id="-2381" visible="true" lat="44.24129925" lon="-72.56356039">
    <!-- conflict: "269 Berlin Street, Montpelier, VT" Fuzzy match to "269 Berlin St, Montpelier, " -->
    <tag k="addr:city" v="Montpelier"/>
    <tag k="addr:housenumber" v="269"/>
    <tag k="addr:street" v="Berlin Street"/>
    <tag k="addr:state" v="VT"/>
    <tag k="ref:vcgi:esiteid" v="166665"/>
  </node>
  <node id="-2382" visible="true" lat="44.24110469" lon="-72.56350771">
    <!-- conflict: "271 Berlin Street, Montpelier, VT" Fuzzy match to "271 Berlin St, Montpelier, " -->
    <tag k="addr:city" v="Montpelier"/>
    <tag k="addr:housenumber" v="271"/>
    <tag k="addr:street" v="Berlin Street"/>
    <tag k="addr:state" v="VT"/>
    <tag k="ref:vcgi:esiteid" v="166668"/>
  </node>
  <node id="-2383" visible="true" lat="44.24047596" lon="-72.56290582">
    <!-- conflict: "286 Berlin Street, Montpelier, VT" Fuzzy match to "286 Berlin St, Montpelier, " -->
    <tag k="addr:city" v="Montpelier"/>
    <tag k="addr:housenumber" v="286"/>
    <tag k="addr:street" v="Berlin Street"/>
    <tag k="addr:state" v="VT"/>
    <tag k="ref:vcgi:esiteid" v="166669"/>
  </node>
  <node id="-2384" visible="true" lat="44.24041153" lon="-72.5633812">
    <!-- conflict: "273 Berlin Street, Montpelier, VT" No match in OSM, but a different address exists <5m away: "271 Berlin St, Montpelier, " -->
    <tag k="addr:city" v="Montpelier"/>
    <tag k="addr:housenumber" v="273"/>
    <tag k="addr:street" v="Berlin Street"/>
    <tag k="addr:state" v="VT"/>
    <tag k="ref:vcgi:esiteid" v="166670"/>
  </node>
  <node id="-2385" visible="true" lat="44.2400936" lon="-72.56283952">
    <!-- conflict: "288 Berlin Street, Montpelier, VT" Fuzzy match to "288 Berlin St, Montpelier, " -->
    <tag k="addr:city" v="Montpelier"/>
    <tag k="addr:housenumber" v="288"/>
    <tag k="addr:street" v="Berlin Street"/>
    <tag k="addr:state" v="VT"/>
    <tag k="ref:vcgi:esiteid" v="166671"/>
  </node>
  <node id="-2394" visible="true" lat="44.23936497" lon="-72.56355598">
    <!-- conflict: "277 Berlin Street, Montpelier, VT" Fuzzy match to "277 Berlin St, Montpelier, " -->
    <tag k="addr:city" v="Montpelier"/>
    <tag k="addr:housenumber" v="277"/>
    <tag k="addr:street" v="Berlin Street"/>
    <tag k="addr:state" v="VT"/>
    <tag k="ref:vcgi:esiteid" v="166682"/>
  </node>
  <node id="-2397" visible="true" lat="44.2390605" lon="-72.5629476">
    <!-- conflict: "296 Berlin Street, Montpelier, VT" Fuzzy match to "296 Berlin St, Montpelier, " -->
    <tag k="addr:city" v="Montpelier"/>
    <tag k="addr:housenumber" v="296"/>
    <tag k="addr:street" v="Berlin Street"/>
    <tag k="addr:state" v="VT"/>
    <tag k="ref:vcgi:esiteid" v="166685"/>
  </node>
  <node id="-2398" visible="true" lat="44.23902038" lon="-72.55592933">
    <!-- conflict: "155 Forest Drive, Montpelier, VT" No match in OSM, but a different address exists <5m away: "155 Sherwood Drive, Montpelier, " -->
    <tag k="addr:city" v="Montpelier"/>
    <tag k="addr:housenumber" v="155"/>
    <tag k="addr:street" v="Forest Drive"/>
    <tag k="addr:state" v="VT"/>
    <tag k="ref:vcgi:esiteid" v="166686"/>
  </node>
  <node id="-2399" visible="true" lat="44.23913617" lon="-72.56480571">
    <!-- conflict: "115 Stretchs Way, Montpelier, VT" Fuzzy match to "115 Stretch's Way, , " -->
    <tag k="addr:city" v="Montpelier"/>
    <tag k="addr:housenumber" v="115"/>
    <tag k="addr:street" v="Stretchs Way"/>
    <tag k="addr:state" v="VT"/>
    <tag k="ref:vcgi:esiteid" v="166687"/>
  </node>
  <node id="-2400" visible="true" lat="44.23898987" lon="-72.56366524">
    <!-- conflict: "299 Berlin Street, Montpelier, VT" Fuzzy match to "299 Berlin St, Montpelier, " -->
    <tag k="addr:city" v="Montpelier"/>
    <tag k="addr:housenumber" v="299"/>
    <tag k="addr:street" v="Berlin Street"/>
    <tag k="addr:state" v="VT"/>
    <tag k="ref:vcgi:esiteid" v="166688"/>
  </node>
  <node id="-2406" visible="true" lat="44.23869285" lon="-72.5637461">
    <!-- conflict: "301 Berlin Street, Montpelier, VT" Fuzzy match to "301 Berlin St, Montpelier, " -->
    <tag k="addr:city" v="Montpelier"/>
    <tag k="addr:housenumber" v="301"/>
    <tag k="addr:street" v="Berlin Street"/>
    <tag k="addr:state" v="VT"/>
    <tag k="ref:vcgi:esiteid" v="166694"/>
  </node>
  <node id="-2407" visible="true" lat="44.23874335" lon="-72.5630631">
    <!-- conflict: "298 Berlin Street, Montpelier, VT" Fuzzy match to "298 Berlin St, Montpelier, " -->
    <tag k="addr:city" v="Montpelier"/>
    <tag k="addr:housenumber" v="298"/>
    <tag k="addr:street" v="Berlin Street"/>
    <tag k="addr:state" v="VT"/>
    <tag k="ref:vcgi:esiteid" v="166695"/>
  </node>
  <node id="-2412" visible="true" lat="44.23855212" lon="-72.55606335">
    <!-- conflict: "121 Forest Drive, Montpelier, VT" No match in OSM, but a different address exists <5m away: "121 Sherwood Drive, Montpelier, " -->
    <tag k="addr:city" v="Montpelier"/>
    <tag k="addr:housenumber" v="121"/>
    <tag k="addr:street" v="Forest Drive"/>
    <tag k="addr:state" v="VT"/>
    <tag k="ref:vcgi:esiteid" v="166700"/>
  </node>
  <node id="-2419" visible="true" lat="44.23822359" lon="-72.56312427">
    <!-- conflict: "504 Sherwood Drive, Montpelier, VT" No match in OSM, but a different address exists <5m away: "504 Berlin St, Montpelier, " -->
    <tag k="addr:city" v="Montpelier"/>
    <tag k="addr:housenumber" v="504"/>
    <tag k="addr:street" v="Sherwood Drive"/>
    <tag k="addr:state" v="VT"/>
    <tag k="ref:vcgi:esiteid" v="166710"/>
  </node>
  <node id="-2426" visible="true" lat="44.23817825" lon="-72.56356811">
    <!-- conflict: "300 Berlin Street, Montpelier, VT" Fuzzy match to "300 Berlin St, Montpelier, " -->
    <tag k="addr:city" v="Montpelier"/>
    <tag k="addr:housenumber" v="300"/>
    <tag k="addr:street" v="Berlin Street"/>
    <tag k="addr:state" v="VT"/>
    <tag k="ref:vcgi:esiteid" v="166717"/>
  </node>
  <node id="-2434" visible="true" lat="44.23811247" lon="-72.56441192">
    <!-- conflict: "305 Berlin Street, Montpelier, VT" Fuzzy match to "305 Berlin St, Montpelier, " -->
    <tag k="addr:city" v="Montpelier"/>
    <tag k="addr:housenumber" v="305"/>
    <tag k="addr:street" v="Berlin Street"/>
    <tag k="addr:state" v="VT"/>
    <tag k="ref:vcgi:esiteid" v="166726"/>
  </node>
  <node id="-2438" visible="true" lat="44.23790887" lon="-72.56375162">
    <!-- conflict: "302 Berlin Street, Montpelier, VT" Fuzzy match to "302 Berlin St, Montpelier, " -->
    <tag k="addr:city" v="Montpelier"/>
    <tag k="addr:housenumber" v="302"/>
    <tag k="addr:street" v="Berlin Street"/>
    <tag k="addr:state" v="VT"/>
    <tag k="ref:vcgi:esiteid" v="166731"/>
  </node>
  <node id="-2447" visible="true" lat="44.2376322" lon="-72.55790413">
    <!-- conflict: "11 Robinhood Circle, Montpelier, VT" Fuzzy match to "11 Robinhood Circle, , " -->
    <tag k="addr:city" v="Montpelier"/>
    <tag k="addr:housenumber" v="11"/>
    <tag k="addr:street" v="Robinhood Circle"/>
    <tag k="addr:state" v="VT"/>
    <tag k="ref:vcgi:esiteid" v="166742"/>
  </node>
  <node id="-2564" visible="true" lat="44.24444072" lon="-72.58940573">
    <!-- conflict: "6598 Vermont Route 12, Montpelier, VT" Fuzzy match to "6598 Vermont Route 12, Berlin, VT" -->
    <tag k="addr:city" v="Montpelier"/>
    <tag k="addr:housenumber" v="6598"/>
    <tag k="addr:street" v="Vermont Route 12"/>
    <tag k="addr:state" v="VT"/>
    <tag k="ref:vcgi:esiteid" v="166866"/>
  </node>
  <node id="-2580" visible="true" lat="44.2481014" lon="-72.52756729">
    <!-- conflict: "228 Maplewood Road, Montpelier, VT" Fuzzy match to "228 Maplewood Road, East Montpelier, " -->
    <tag k="addr:city" v="Montpelier"/>
    <tag k="addr:housenumber" v="228"/>
    <tag k="addr:street" v="Maplewood Road"/>
    <tag k="addr:state" v="VT"/>
    <tag k="ref:vcgi:esiteid" v="166882"/>
  </node>
  <node id="-2590" visible="true" lat="44.27151594" lon="-72.57130426">
    <!-- conflict: "465 Elm Street, Montpelier, VT" No match in OSM, but a different address exists <5m away: "465 Cummings Street, Montpelier, VT" -->
    <tag k="addr:city" v="Montpelier"/>
    <tag k="addr:housenumber" v="465"/>
    <tag k="addr:street" v="Elm Street"/>
    <tag k="addr:state" v="VT"/>
    <tag k="ref:vcgi:esiteid" v="166892"/>
  </node>
  <node id="-2636" visible="true" lat="44.23765733" lon="-72.56273111">
    <!-- conflict: "304 Berlin Street, Montpelier, VT" Fuzzy match to "304 Berlin St, Montpelier, " -->
    <tag k="addr:city" v="Montpelier"/>
    <tag k="addr:housenumber" v="304"/>
    <tag k="addr:street" v="Berlin Street"/>
    <tag k="addr:state" v="VT"/>
    <tag k="ref:vcgi:esiteid" v="166945"/>
  </node>
  <node id="-2638" visible="true" lat="44.26402786" lon="-72.56242597">
    <!-- conflict: "4 Sunset Avenue, Montpelier, VT" No match in OSM, but a different address exists <5m away: "6 Sunset Avenue, Montpelier, VT" -->
    <tag k="addr:city" v="Montpelier"/>
    <tag k="addr:housenumber" v="4"/>
    <tag k="addr:street" v="Sunset Avenue"/>
    <tag k="addr:state" v="VT"/>
    <tag k="ref:vcgi:esiteid" v="166947"/>
  </node>
  <node id="-2706" visible="true" lat="44.26456766" lon="-72.55205913">
    <!-- conflict: "55 Connor Road, Montpelier, VT" No match in OSM, but a different address exists <5m away: "56 Connor Road, Montpelier, " -->
    <tag k="addr:city" v="Montpelier"/>
    <tag k="addr:housenumber" v="55"/>
    <tag k="addr:street" v="Connor Road"/>
    <tag k="addr:state" v="VT"/>
    <tag k="ref:vcgi:esiteid" v="167015"/>
  </node>
  <node id="-2711" visible="true" lat="44.24630791" lon="-72.55763048">
    <!-- conflict: "19 Isabel Circle, Montpelier, VT" No match in OSM, but a different address exists <5m away: "21 Isabel Circle, Montpelier, " -->
    <tag k="addr:city" v="Montpelier"/>
    <tag k="addr:housenumber" v="19"/>
    <tag k="addr:street" v="Isabel Circle"/>
    <tag k="addr:state" v="VT"/>
    <tag k="ref:vcgi:esiteid" v="167020"/>
  </node>
  <node id="-2783" visible="true" lat="44.27958051" lon="-72.57412701">
    <!-- conflict: "82 Trillium Hill, Montpelier, VT" Fuzzy match to "82 Trillium Hill Road, Montpelier, VT" -->
    <tag k="addr:city" v="Montpelier"/>
    <tag k="addr:housenumber" v="82"/>
    <tag k="addr:street" v="Trillium Hill"/>
    <tag k="addr:state" v="VT"/>
    <tag k="ref:vcgi:esiteid" v="167093"/>
  </node>
  <node id="-2833" visible="true" lat="44.24984921" lon="-72.5697109">
    <!-- conflict: "172 Berlin Street, Montpelier, VT" Fuzzy match to "172 Berlin St, Montpelier, " -->
    <tag k="addr:city" v="Montpelier"/>
    <tag k="addr:housenumber" v="172"/>
    <tag k="addr:street" v="Berlin Street"/>
    <tag k="addr:state" v="VT"/>
    <tag k="ref:vcgi:esiteid" v="327613"/>
  </node>
  <node id="-2868" visible="true" lat="44.26599234" lon="-72.58422552">
    <!-- conflict: "7 Dwinell Street, Montpelier, VT" No match in OSM, but a different address exists <5m away: "7 Clarendon Avenue, Montpelier, VT" -->
    <tag k="addr:city" v="Montpelier"/>
    <tag k="addr:housenumber" v="7"/>
    <tag k="addr:street" v="Dwinell Street"/>
    <tag k="addr:state" v="VT"/>
    <tag k="ref:vcgi:esiteid" v="341085"/>
  </node>
  <node id="-2869" visible="true" lat="44.26573518" lon="-72.58370056">
    <!-- conflict: "1 Clarendon Avenue, Montpelier, VT" No match in OSM, but a different address exists <5m away: "1 Dwinell Street, Montpelier, VT" -->
    <tag k="addr:city" v="Montpelier"/>
    <tag k="addr:housenumber" v="1"/>
    <tag k="addr:street" v="Clarendon Avenue"/>
    <tag k="addr:state" v="VT"/>
    <tag k="ref:vcgi:esiteid" v="341086"/>
  </node>
  <node id="-2875" visible="true" lat="44.26636351" lon="-72.5857151">
    <!-- conflict: "9 Redstone Avenue, Montpelier, VT" No match in OSM, but a different address exists <5m away: "24 Redstone Avenue, Montpelier, VT" -->
    <tag k="addr:city" v="Montpelier"/>
    <tag k="addr:housenumber" v="9"/>
    <tag k="addr:street" v="Redstone Avenue"/>
    <tag k="addr:state" v="VT"/>
    <tag k="ref:vcgi:esiteid" v="341489"/>
  </node>
  <node id="-2932" visible="true" lat="44.25745889" lon="-72.5614439">
    <!-- conflict: "6 Hinckley Street, Montpelier, VT" No match in OSM, but a different address exists <5m away: "4 Hinkley Street, Montpelier, VT" -->
    <tag k="addr:city" v="Montpelier"/>
    <tag k="addr:housenumber" v="6"/>
    <tag k="addr:street" v="Hinckley Street"/>
    <tag k="addr:state" v="VT"/>
    <tag k="ref:vcgi:esiteid" v="452361"/>
  </node>
  <node id="-2938" visible="true" lat="44.27962311" lon="-72.5723121">
    <!-- conflict: "41 Ballfield Drive, Montpelier, VT" No match in OSM, but a different address exists <5m away: "41 Baseball Drive, Montpelier, VT" -->
    <tag k="addr:city" v="Montpelier"/>
    <tag k="addr:housenumber" v="41"/>
    <tag k="addr:street" v="Ballfield Drive"/>
    <tag k="addr:state" v="VT"/>
    <tag k="ref:vcgi:esiteid" v="453477"/>
  </node>
  <node id="-2960" visible="true" lat="44.26464112" lon="-72.57025676">
    <!-- conflict: "225 Elm Street, Montpelier, VT" No match in OSM, but a different address exists <5m away: " Elm Street, Montpelier, VT" -->
    <tag k="addr:city" v="Montpelier"/>
    <tag k="addr:housenumber" v="225"/>
    <tag k="addr:street" v="Elm Street"/>
    <tag k="addr:state" v="VT"/>
    <tag k="ref:vcgi:esiteid" v="614875"/>
  </node>
  <node id="-2984" visible="true" lat="44.30390941" lon="-72.57960061">
    <!-- conflict: "3366 Elm Street, Montpelier, VT" Fuzzy match to "3366 Elm Street, Middlesex, VT" -->
    <tag k="addr:city" v="Montpelier"/>
    <tag k="addr:housenumber" v="3366"/>
    <tag k="addr:street" v="Elm Street"/>
    <tag k="addr:state" v="VT"/>
    <tag k="ref:vcgi:esiteid" v="750892"/>
  </node>
  <node id="-2990" visible="true" lat="44.25960816" lon="-72.53763516">
    <!-- conflict: "268 Bliss Road, Montpelier, VT" Fuzzy match to "268 Bliss Road, East Montpelier, " -->
    <tag k="addr:city" v="Montpelier"/>
    <tag k="addr:housenumber" v="268"/>
    <tag k="addr:street" v="Bliss Road"/>
    <tag k="addr:state" v="VT"/>
    <tag k="ref:vcgi:esiteid" v="753489"/>
  </node>
  <node id="-2992" visible="true" lat="44.2600501" lon="-72.5793266">
    <!-- conflict: "61 Taylor Street, Montpelier, VT" No match in OSM, but a different address exists <5m away: "1;61 Taylor Street, Montpelier, VT" -->
    <tag k="addr:city" v="Montpelier"/>
    <tag k="addr:housenumber" v="61"/>
    <tag k="addr:street" v="Taylor Street"/>
    <tag k="addr:state" v="VT"/>
    <tag k="ref:vcgi:esiteid" v="754277"/>
  </node>
  <node id="-3015" visible="true" lat="44.26167995" lon="-72.57515352">
    <!-- conflict: "61 Elm Street, Montpelier, VT" No match in OSM, but a different address exists <5m away: " Elm Street, Montpelier, " -->
    <tag k="addr:city" v="Montpelier"/>
    <tag k="addr:housenumber" v="61"/>
    <tag k="addr:street" v="Elm Street"/>
    <tag k="addr:state" v="VT"/>
    <tag k="ref:vcgi:esiteid" v="764931"/>
  </node>
  <node id="-3035" visible="true" lat="44.2575369" lon="-72.57315436">
    <!-- conflict: "12 Hubbard Street, Montpelier, VT" No match in OSM, but a different address exists <5m away: "12 Wilder Street, Montpelier, VT" -->
    <tag k="addr:city" v="Montpelier"/>
    <tag k="addr:housenumber" v="12"/>
    <tag k="addr:street" v="Hubbard Street"/>
    <tag k="addr:state" v="VT"/>
    <tag k="ref:vcgi:esiteid" v="1051087"/>
  </node>
  <node id="-3047" visible="true" lat="44.26017296" lon="-72.57642052">
    <!-- conflict: "28 State Street, Montpelier, VT" Fuzzy match to "28 East State Street, Montpelier, VT" -->
    <tag k="addr:city" v="Montpelier"/>
    <tag k="addr:housenumber" v="28"/>
    <tag k="addr:street" v="State Street"/>
    <tag k="addr:state" v="VT"/>
    <tag k="ref:vcgi:esiteid" v="1051101"/>
  </node>
  <node id="-3051" visible="true" lat="44.26030828" lon="-72.57703103">
    <!-- conflict: "56 State Street, Montpelier, VT" Fuzzy match to "56 East State Street, Montpelier, VT" -->
    <tag k="addr:city" v="Montpelier"/>
    <tag k="addr:housenumber" v="56"/>
    <tag k="addr:street" v="State Street"/>
    <tag k="addr:state" v="VT"/>
    <tag k="ref:vcgi:esiteid" v="1051105"/>
  </node>
  <node id="-3058" visible="true" lat="44.26079246" lon="-72.5750222">
    <!-- conflict: "114 Main Street, Montpelier, VT" No match in OSM, but a different address exists <5m away: "116 Main Street, Montpelier, VT" -->
    <tag k="addr:city" v="Montpelier"/>
    <tag k="addr:housenumber" v="114"/>
    <tag k="addr:street" v="Main Street"/>
    <tag k="addr:state" v="VT"/>
    <tag k="ref:vcgi:esiteid" v="1051129"/>
  </node>
  <node id="-3059" visible="true" lat="44.26057755" lon="-72.57521212">
    <!-- conflict: "102 Main Street, Montpelier, VT" No match in OSM, but a different address exists <5m away: "102 Langdon Street, Montpelier, VT" -->
    <tag k="addr:city" v="Montpelier"/>
    <tag k="addr:housenumber" v="102"/>
    <tag k="addr:street" v="Main Street"/>
    <tag k="addr:state" v="VT"/>
    <tag k="ref:vcgi:esiteid" v="1051131"/>
  </node>
  <node id="-3074" visible="true" lat="44.24877187" lon="-72.58287543">
    <!-- conflict: "148 Northfield Street, Montpelier, VT" No match in OSM, but a different address exists <5m away: "146 Northfield St, Montpelier, " -->
    <tag k="addr:city" v="Montpelier"/>
    <tag k="addr:housenumber" v="148"/>
    <tag k="addr:street" v="Northfield Street"/>
    <tag k="addr:state" v="VT"/>
    <tag k="ref:vcgi:esiteid" v="1051175"/>
  </node>
</osm>
