<?xml version="1.0" encoding="UTF-8"?>
<osm version="0.6" generator="JOSM">
  <node id="-239" visible="true" lat="44.29805818" lon="-72.70030811">
    <tag k="addr:city" v="Moretown"/>
    <tag k="addr:housenumber" v="739"/>
    <tag k="addr:street" v="Lovers Lane"/>
    <tag k="addr:state" v="VT"/>
    <tag k="ref:vcgi:esiteid" v="167265"/>
  </node>
  <node id="-240" visible="true" lat="44.29804843" lon="-72.70003613">
    <tag k="addr:city" v="Moretown"/>
    <tag k="addr:housenumber" v="731"/>
    <tag k="addr:street" v="Lovers Lane"/>
    <tag k="addr:state" v="VT"/>
    <tag k="ref:vcgi:esiteid" v="167266"/>
  </node>
  <node id="-241" visible="true" lat="44.29703668" lon="-72.6968102">
    <tag k="addr:city" v="Moretown"/>
    <tag k="addr:housenumber" v="6899"/>
    <tag k="addr:street" v="Vermont Route 100B"/>
    <tag k="addr:state" v="VT"/>
    <tag k="ref:vcgi:esiteid" v="167267"/>
  </node>
  <node id="-242" visible="true" lat="44.29592132" lon="-72.69568634">
    <tag k="addr:city" v="Moretown"/>
    <tag k="addr:housenumber" v="6970"/>
    <tag k="addr:street" v="Vermont Route 100B"/>
    <tag k="addr:state" v="VT"/>
    <tag k="ref:vcgi:esiteid" v="167268"/>
  </node>
  <node id="-243" visible="true" lat="44.29526138" lon="-72.69446563">
    <tag k="addr:city" v="Moretown"/>
    <tag k="addr:housenumber" v="7046"/>
    <tag k="addr:street" v="Vermont Route 100B"/>
    <tag k="addr:state" v="VT"/>
    <tag k="ref:vcgi:esiteid" v="167269"/>
  </node>
  <node id="-244" visible="true" lat="44.295252" lon="-72.7009591">
    <tag k="addr:city" v="Moretown"/>
    <tag k="addr:housenumber" v="6568"/>
    <tag k="addr:street" v="Vermont Route 100B"/>
    <tag k="addr:state" v="VT"/>
    <tag k="ref:vcgi:esiteid" v="167270"/>
  </node>
  <node id="-246" visible="true" lat="44.29422597" lon="-72.69339223">
    <tag k="addr:city" v="Moretown"/>
    <tag k="addr:housenumber" v="7122"/>
    <tag k="addr:street" v="Vermont Route 100B"/>
    <tag k="addr:state" v="VT"/>
    <tag k="ref:vcgi:esiteid" v="167273"/>
  </node>
  <node id="-247" visible="true" lat="44.29436493" lon="-72.70048522">
    <tag k="addr:city" v="Moretown"/>
    <tag k="addr:housenumber" v="6570"/>
    <tag k="addr:street" v="Vermont Route 100B"/>
    <tag k="addr:state" v="VT"/>
    <tag k="ref:vcgi:esiteid" v="167274"/>
  </node>
  <node id="-248" visible="true" lat="44.29430391" lon="-72.69246773">
    <tag k="addr:city" v="Moretown"/>
    <tag k="addr:housenumber" v="7166"/>
    <tag k="addr:street" v="Vermont Route 100B"/>
    <tag k="addr:state" v="VT"/>
    <tag k="ref:vcgi:esiteid" v="167275"/>
  </node>
  <node id="-249" visible="true" lat="44.293361" lon="-72.70037709">
    <tag k="addr:city" v="Moretown"/>
    <tag k="addr:housenumber" v="6448"/>
    <tag k="addr:street" v="Vermont Route 100B"/>
    <tag k="addr:state" v="VT"/>
    <tag k="ref:vcgi:esiteid" v="167276"/>
  </node>
  <node id="-250" visible="true" lat="44.29318795" lon="-72.69111481">
    <tag k="addr:city" v="Moretown"/>
    <tag k="addr:housenumber" v="52"/>
    <tag k="addr:street" v="Turner Road"/>
    <tag k="addr:state" v="VT"/>
    <tag k="ref:vcgi:esiteid" v="167277"/>
  </node>
  <node id="-251" visible="true" lat="44.29296113" lon="-72.69208626">
    <tag k="addr:city" v="Moretown"/>
    <tag k="addr:housenumber" v="70"/>
    <tag k="addr:street" v="Turner Road"/>
    <tag k="addr:state" v="VT"/>
    <tag k="ref:vcgi:esiteid" v="167278"/>
  </node>
  <node id="-252" visible="true" lat="44.29260508" lon="-72.69037545">
    <tag k="addr:city" v="Moretown"/>
    <tag k="addr:housenumber" v="19"/>
    <tag k="addr:street" v="Turner Road"/>
    <tag k="addr:state" v="VT"/>
    <tag k="ref:vcgi:esiteid" v="167279"/>
  </node>
  <node id="-253" visible="true" lat="44.29261005" lon="-72.69095807">
    <tag k="addr:city" v="Moretown"/>
    <tag k="addr:housenumber" v="45"/>
    <tag k="addr:street" v="Turner Road"/>
    <tag k="addr:state" v="VT"/>
    <tag k="ref:vcgi:esiteid" v="167280"/>
  </node>
  <node id="-254" visible="true" lat="44.2925463" lon="-72.68873239">
    <tag k="addr:city" v="Moretown"/>
    <tag k="addr:housenumber" v="7386"/>
    <tag k="addr:street" v="Vermont Route 100B"/>
    <tag k="addr:state" v="VT"/>
    <tag k="ref:vcgi:esiteid" v="167281"/>
  </node>
  <node id="-255" visible="true" lat="44.29253009" lon="-72.68839443">
    <tag k="addr:city" v="Moretown"/>
    <tag k="addr:housenumber" v="7402"/>
    <tag k="addr:street" v="Vermont Route 100B"/>
    <tag k="addr:state" v="VT"/>
    <tag k="ref:vcgi:esiteid" v="167282"/>
  </node>
  <node id="-256" visible="true" lat="44.29254102" lon="-72.68698508">
    <tag k="addr:city" v="Moretown"/>
    <tag k="addr:housenumber" v="7465"/>
    <tag k="addr:street" v="Vermont Route 100B"/>
    <tag k="addr:state" v="VT"/>
    <tag k="ref:vcgi:esiteid" v="167283"/>
  </node>
  <node id="-257" visible="true" lat="44.29249751" lon="-72.68575389">
    <tag k="addr:city" v="Moretown"/>
    <tag k="addr:housenumber" v="7515"/>
    <tag k="addr:street" v="Vermont Route 100B"/>
    <tag k="addr:state" v="VT"/>
    <tag k="ref:vcgi:esiteid" v="167284"/>
  </node>
  <node id="-259" visible="true" lat="44.29244808" lon="-72.68652077">
    <tag k="addr:city" v="Moretown"/>
    <tag k="addr:housenumber" v="7489"/>
    <tag k="addr:street" v="Vermont Route 100B"/>
    <tag k="addr:state" v="VT"/>
    <tag k="ref:vcgi:esiteid" v="167286"/>
  </node>
  <node id="-260" visible="true" lat="44.292128" lon="-72.68736949">
    <tag k="addr:city" v="Moretown"/>
    <tag k="addr:housenumber" v="7456"/>
    <tag k="addr:street" v="Vermont Route 100B"/>
    <tag k="addr:state" v="VT"/>
    <tag k="ref:vcgi:esiteid" v="167287"/>
  </node>
  <node id="-261" visible="true" lat="44.29086685" lon="-72.69987487">
    <tag k="addr:city" v="Moretown"/>
    <tag k="addr:housenumber" v="6276"/>
    <tag k="addr:street" v="Vermont Route 100B"/>
    <tag k="addr:state" v="VT"/>
    <tag k="ref:vcgi:esiteid" v="167288"/>
  </node>
  <node id="-263" visible="true" lat="44.29049301" lon="-72.67681121">
    <tag k="addr:city" v="Moretown"/>
    <tag k="addr:housenumber" v="215"/>
    <tag k="addr:street" v="River Road"/>
    <tag k="addr:state" v="VT"/>
    <tag k="ref:vcgi:esiteid" v="167290"/>
  </node>
  <node id="-266" visible="true" lat="44.29010011" lon="-72.67791848">
    <tag k="addr:city" v="Moretown"/>
    <tag k="addr:housenumber" v="164"/>
    <tag k="addr:street" v="River Road"/>
    <tag k="addr:state" v="VT"/>
    <tag k="ref:vcgi:esiteid" v="167293"/>
  </node>
  <node id="-267" visible="true" lat="44.29021387" lon="-72.67529655">
    <tag k="addr:city" v="Moretown"/>
    <tag k="addr:housenumber" v="269"/>
    <tag k="addr:street" v="River Road"/>
    <tag k="addr:state" v="VT"/>
    <tag k="ref:vcgi:esiteid" v="167294"/>
  </node>
  <node id="-268" visible="true" lat="44.28966655" lon="-72.68207439">
    <tag k="addr:city" v="Moretown"/>
    <tag k="addr:housenumber" v="102"/>
    <tag k="addr:street" v="Henning Road"/>
    <tag k="addr:state" v="VT"/>
    <tag k="ref:vcgi:esiteid" v="167295"/>
  </node>
  <node id="-270" visible="true" lat="44.28869028" lon="-72.7261956">
    <tag k="addr:city" v="Moretown"/>
    <tag k="addr:housenumber" v="982"/>
    <tag k="addr:street" v="Coreys Drive"/>
    <tag k="addr:state" v="VT"/>
    <tag k="ref:vcgi:esiteid" v="167297"/>
  </node>
  <node id="-272" visible="true" lat="44.28854877" lon="-72.7037793">
    <tag k="addr:city" v="Moretown"/>
    <tag k="addr:housenumber" v="187"/>
    <tag k="addr:street" v="Brooks Drive"/>
    <tag k="addr:state" v="VT"/>
    <tag k="ref:vcgi:esiteid" v="167299"/>
  </node>
  <node id="-273" visible="true" lat="44.28857191" lon="-72.70323228">
    <tag k="addr:city" v="Moretown"/>
    <tag k="addr:housenumber" v="152"/>
    <tag k="addr:street" v="Brooks Drive"/>
    <tag k="addr:state" v="VT"/>
    <tag k="ref:vcgi:esiteid" v="167300"/>
  </node>
  <node id="-276" visible="true" lat="44.28765447" lon="-72.67132489">
    <tag k="addr:city" v="Moretown"/>
    <tag k="addr:housenumber" v="547"/>
    <tag k="addr:street" v="River Road"/>
    <tag k="addr:state" v="VT"/>
    <tag k="ref:vcgi:esiteid" v="167303"/>
  </node>
  <node id="-278" visible="true" lat="44.28689956" lon="-72.70437622">
    <tag k="addr:city" v="Moretown"/>
    <tag k="addr:housenumber" v="73"/>
    <tag k="addr:street" v="Brooks Drive"/>
    <tag k="addr:state" v="VT"/>
    <tag k="ref:vcgi:esiteid" v="167305"/>
  </node>
  <node id="-279" visible="true" lat="44.28679866" lon="-72.67835686">
    <tag k="addr:city" v="Moretown"/>
    <tag k="addr:housenumber" v="355"/>
    <tag k="addr:street" v="Henning Road"/>
    <tag k="addr:state" v="VT"/>
    <tag k="ref:vcgi:esiteid" v="167306"/>
  </node>
  <node id="-280" visible="true" lat="44.28658468" lon="-72.67480573">
    <tag k="addr:city" v="Moretown"/>
    <tag k="addr:housenumber" v="144"/>
    <tag k="addr:street" v="Hog Hollow"/>
    <tag k="addr:state" v="VT"/>
    <tag k="ref:vcgi:esiteid" v="167307"/>
  </node>
  <node id="-281" visible="true" lat="44.2855829" lon="-72.70313352">
    <tag k="addr:city" v="Moretown"/>
    <tag k="addr:housenumber" v="4486"/>
    <tag k="addr:street" v="Moretown Common Road"/>
    <tag k="addr:state" v="VT"/>
    <tag k="ref:vcgi:esiteid" v="167308"/>
  </node>
  <node id="-282" visible="true" lat="44.28545079" lon="-72.70595672">
    <tag k="addr:city" v="Moretown"/>
    <tag k="addr:housenumber" v="5770"/>
    <tag k="addr:street" v="Vermont Route 100B"/>
    <tag k="addr:state" v="VT"/>
    <tag k="ref:vcgi:esiteid" v="167309"/>
  </node>
  <node id="-283" visible="true" lat="44.2856072" lon="-72.70892242">
    <tag k="addr:city" v="Moretown"/>
    <tag k="addr:housenumber" v="5668"/>
    <tag k="addr:street" v="Vermont Route 100B"/>
    <tag k="addr:state" v="VT"/>
    <tag k="ref:vcgi:esiteid" v="167310"/>
  </node>
  <node id="-284" visible="true" lat="44.28511034" lon="-72.66958905">
    <tag k="addr:city" v="Moretown"/>
    <tag k="addr:housenumber" v="710"/>
    <tag k="addr:street" v="River Road"/>
    <tag k="addr:state" v="VT"/>
    <tag k="ref:vcgi:esiteid" v="167311"/>
  </node>
  <node id="-285" visible="true" lat="44.28528451" lon="-72.7035172">
    <tag k="addr:city" v="Moretown"/>
    <tag k="addr:housenumber" v="4466"/>
    <tag k="addr:street" v="Moretown Common Road"/>
    <tag k="addr:state" v="VT"/>
    <tag k="ref:vcgi:esiteid" v="167312"/>
  </node>
  <node id="-287" visible="true" lat="44.28469848" lon="-72.70358276">
    <tag k="addr:city" v="Moretown"/>
    <tag k="addr:housenumber" v="4414"/>
    <tag k="addr:street" v="Moretown Common Road"/>
    <tag k="addr:state" v="VT"/>
    <tag k="ref:vcgi:esiteid" v="167314"/>
  </node>
  <node id="-289" visible="true" lat="44.28442565" lon="-72.66875981">
    <tag k="addr:city" v="Moretown"/>
    <tag k="addr:housenumber" v="776"/>
    <tag k="addr:street" v="River Road"/>
    <tag k="addr:state" v="VT"/>
    <tag k="ref:vcgi:esiteid" v="167316"/>
  </node>
  <node id="-293" visible="true" lat="44.28071508" lon="-72.71384292">
    <tag k="addr:city" v="Moretown"/>
    <tag k="addr:housenumber" v="3550"/>
    <tag k="addr:street" v="Moretown Common Road"/>
    <tag k="addr:state" v="VT"/>
    <tag k="ref:vcgi:esiteid" v="167320"/>
  </node>
  <node id="-297" visible="true" lat="44.28023149" lon="-72.7359324">
    <tag k="addr:city" v="Moretown"/>
    <tag k="addr:housenumber" v="173"/>
    <tag k="addr:street" v="Old Route 100"/>
    <tag k="addr:state" v="VT"/>
    <tag k="ref:vcgi:esiteid" v="167324"/>
  </node>
  <node id="-298" visible="true" lat="44.28004074" lon="-72.73584747">
    <tag k="addr:city" v="Moretown"/>
    <tag k="addr:housenumber" v="170"/>
    <tag k="addr:street" v="Old Route 100"/>
    <tag k="addr:state" v="VT"/>
    <tag k="ref:vcgi:esiteid" v="167325"/>
  </node>
  <node id="-299" visible="true" lat="44.27986304" lon="-72.66685811">
    <tag k="addr:city" v="Moretown"/>
    <tag k="addr:housenumber" v="1144"/>
    <tag k="addr:street" v="River Road"/>
    <tag k="addr:state" v="VT"/>
    <tag k="ref:vcgi:esiteid" v="167326"/>
  </node>
  <node id="-300" visible="true" lat="44.27974319" lon="-72.7255783">
    <tag k="addr:city" v="Moretown"/>
    <tag k="addr:housenumber" v="335"/>
    <tag k="addr:street" v="Honan Road"/>
    <tag k="addr:state" v="VT"/>
    <tag k="ref:vcgi:esiteid" v="167327"/>
  </node>
  <node id="-302" visible="true" lat="44.27959697" lon="-72.66693502">
    <tag k="addr:city" v="Moretown"/>
    <tag k="addr:housenumber" v="1160"/>
    <tag k="addr:street" v="River Road"/>
    <tag k="addr:state" v="VT"/>
    <tag k="ref:vcgi:esiteid" v="167329"/>
  </node>
  <node id="-303" visible="true" lat="44.27925491" lon="-72.71512603">
    <tag k="addr:city" v="Moretown"/>
    <tag k="addr:housenumber" v="3452"/>
    <tag k="addr:street" v="Moretown Common Road"/>
    <tag k="addr:state" v="VT"/>
    <tag k="ref:vcgi:esiteid" v="167330"/>
  </node>
  <node id="-306" visible="true" lat="44.27880178" lon="-72.66543925">
    <tag k="addr:city" v="Moretown"/>
    <tag k="addr:housenumber" v="1244"/>
    <tag k="addr:street" v="River Road"/>
    <tag k="addr:state" v="VT"/>
    <tag k="ref:vcgi:esiteid" v="167333"/>
  </node>
  <node id="-307" visible="true" lat="44.27876663" lon="-72.71831512">
    <tag k="addr:city" v="Moretown"/>
    <tag k="addr:housenumber" v="3301"/>
    <tag k="addr:street" v="Moretown Common Road"/>
    <tag k="addr:state" v="VT"/>
    <tag k="ref:vcgi:esiteid" v="167334"/>
  </node>
  <node id="-308" visible="true" lat="44.27848436" lon="-72.72576241">
    <tag k="addr:city" v="Moretown"/>
    <tag k="addr:housenumber" v="247"/>
    <tag k="addr:street" v="Honan Road"/>
    <tag k="addr:state" v="VT"/>
    <tag k="ref:vcgi:esiteid" v="167335"/>
  </node>
  <node id="-310" visible="true" lat="44.27805252" lon="-72.66472233">
    <tag k="addr:city" v="Moretown"/>
    <tag k="addr:housenumber" v="1300"/>
    <tag k="addr:street" v="River Road"/>
    <tag k="addr:state" v="VT"/>
    <tag k="ref:vcgi:esiteid" v="167338"/>
  </node>
  <node id="-311" visible="true" lat="44.27769088" lon="-72.76854705">
    <tag k="addr:city" v="Moretown"/>
    <tag k="addr:housenumber" v="1316"/>
    <tag k="addr:street" v="Stevens Brook Road"/>
    <tag k="addr:state" v="VT"/>
    <tag k="ref:vcgi:esiteid" v="167339"/>
  </node>
  <node id="-312" visible="true" lat="44.27764894" lon="-72.7269526">
    <tag k="addr:city" v="Moretown"/>
    <tag k="addr:housenumber" v="249"/>
    <tag k="addr:street" v="Honan Road"/>
    <tag k="addr:state" v="VT"/>
    <tag k="ref:vcgi:esiteid" v="167340"/>
  </node>
  <node id="-313" visible="true" lat="44.27765655" lon="-72.71624755">
    <tag k="addr:city" v="Moretown"/>
    <tag k="addr:housenumber" v="3342"/>
    <tag k="addr:street" v="Moretown Common Road"/>
    <tag k="addr:state" v="VT"/>
    <tag k="ref:vcgi:esiteid" v="167341"/>
  </node>
  <node id="-316" visible="true" lat="44.2774048" lon="-72.71827035">
    <tag k="addr:city" v="Moretown"/>
    <tag k="addr:housenumber" v="3254"/>
    <tag k="addr:street" v="Moretown Common Road"/>
    <tag k="addr:state" v="VT"/>
    <tag k="ref:vcgi:esiteid" v="167344"/>
  </node>
  <node id="-317" visible="true" lat="44.27710274" lon="-72.75992203">
    <tag k="addr:city" v="Moretown"/>
    <tag k="addr:housenumber" v="838"/>
    <tag k="addr:street" v="Stevens Brook Road"/>
    <tag k="addr:state" v="VT"/>
    <tag k="ref:vcgi:esiteid" v="167345"/>
  </node>
  <node id="-318" visible="true" lat="44.27709034" lon="-72.66337553">
    <tag k="addr:city" v="Moretown"/>
    <tag k="addr:housenumber" v="1396"/>
    <tag k="addr:street" v="River Road"/>
    <tag k="addr:state" v="VT"/>
    <tag k="ref:vcgi:esiteid" v="167346"/>
  </node>
  <node id="-319" visible="true" lat="44.27713917" lon="-72.76117364">
    <tag k="addr:city" v="Moretown"/>
    <tag k="addr:housenumber" v="888"/>
    <tag k="addr:street" v="Stevens Brook Road"/>
    <tag k="addr:state" v="VT"/>
    <tag k="ref:vcgi:esiteid" v="167347"/>
  </node>
  <node id="-320" visible="true" lat="44.27661107" lon="-72.75783313">
    <tag k="addr:city" v="Moretown"/>
    <tag k="addr:housenumber" v="693"/>
    <tag k="addr:street" v="Stevens Brook Road"/>
    <tag k="addr:state" v="VT"/>
    <tag k="ref:vcgi:esiteid" v="167348"/>
  </node>
  <node id="-321" visible="true" lat="44.2768357" lon="-72.7429884">
    <tag k="addr:city" v="Moretown"/>
    <tag k="addr:housenumber" v="92"/>
    <tag k="addr:street" v="Spillway Road"/>
    <tag k="addr:state" v="VT"/>
    <tag k="ref:vcgi:esiteid" v="167349"/>
  </node>
  <node id="-322" visible="true" lat="44.27675283" lon="-72.74085119">
    <tag k="addr:city" v="Moretown"/>
    <tag k="addr:housenumber" v="75"/>
    <tag k="addr:street" v="Bridge Road"/>
    <tag k="addr:state" v="VT"/>
    <tag k="ref:vcgi:esiteid" v="167350"/>
  </node>
  <node id="-325" visible="true" lat="44.27664573" lon="-72.66159263">
    <tag k="addr:city" v="Moretown"/>
    <tag k="addr:housenumber" v="1487"/>
    <tag k="addr:street" v="River Road"/>
    <tag k="addr:state" v="VT"/>
    <tag k="ref:vcgi:esiteid" v="167353"/>
  </node>
  <node id="-326" visible="true" lat="44.27639092" lon="-72.74318021">
    <tag k="addr:city" v="Moretown"/>
    <tag k="addr:housenumber" v="118"/>
    <tag k="addr:street" v="Spillway Road"/>
    <tag k="addr:state" v="VT"/>
    <tag k="ref:vcgi:esiteid" v="167354"/>
  </node>
  <node id="-327" visible="true" lat="44.27650901" lon="-72.66254477">
    <tag k="addr:city" v="Moretown"/>
    <tag k="addr:housenumber" v="1484"/>
    <tag k="addr:street" v="River Road"/>
    <tag k="addr:state" v="VT"/>
    <tag k="ref:vcgi:esiteid" v="167355"/>
  </node>
  <node id="-328" visible="true" lat="44.27630306" lon="-72.75121442">
    <tag k="addr:city" v="Moretown"/>
    <tag k="addr:housenumber" v="420"/>
    <tag k="addr:street" v="Stevens Brook Road"/>
    <tag k="addr:state" v="VT"/>
    <tag k="ref:vcgi:esiteid" v="167356"/>
  </node>
  <node id="-329" visible="true" lat="44.27607222" lon="-72.66184134">
    <tag k="addr:city" v="Moretown"/>
    <tag k="addr:housenumber" v="1486"/>
    <tag k="addr:street" v="River Road"/>
    <tag k="addr:state" v="VT"/>
    <tag k="ref:vcgi:esiteid" v="167357"/>
  </node>
  <node id="-330" visible="true" lat="44.27595901" lon="-72.71463012">
    <tag k="addr:city" v="Moretown"/>
    <tag k="addr:housenumber" v="3316"/>
    <tag k="addr:street" v="Moretown Common Road"/>
    <tag k="addr:state" v="VT"/>
    <tag k="ref:vcgi:esiteid" v="167358"/>
  </node>
  <node id="-332" visible="true" lat="44.27546506" lon="-72.66127712">
    <tag k="addr:city" v="Moretown"/>
    <tag k="addr:housenumber" v="1514"/>
    <tag k="addr:street" v="River Road"/>
    <tag k="addr:state" v="VT"/>
    <tag k="ref:vcgi:esiteid" v="167360"/>
  </node>
  <node id="-333" visible="true" lat="44.27501678" lon="-72.72312927">
    <tag k="addr:city" v="Moretown"/>
    <tag k="addr:housenumber" v="2987"/>
    <tag k="addr:street" v="Moretown Common Road"/>
    <tag k="addr:state" v="VT"/>
    <tag k="ref:vcgi:esiteid" v="167361"/>
  </node>
  <node id="-334" visible="true" lat="44.27474639" lon="-72.65956645">
    <tag k="addr:city" v="Moretown"/>
    <tag k="addr:housenumber" v="1636"/>
    <tag k="addr:street" v="River Road"/>
    <tag k="addr:state" v="VT"/>
    <tag k="ref:vcgi:esiteid" v="167362"/>
  </node>
  <node id="-335" visible="true" lat="44.27453996" lon="-72.74931435">
    <tag k="addr:city" v="Moretown"/>
    <tag k="addr:housenumber" v="240"/>
    <tag k="addr:street" v="Stevens Brook Road"/>
    <tag k="addr:state" v="VT"/>
    <tag k="ref:vcgi:esiteid" v="167363"/>
  </node>
  <node id="-336" visible="true" lat="44.27349204" lon="-72.71852688">
    <tag k="addr:city" v="Moretown"/>
    <tag k="addr:housenumber" v="2956"/>
    <tag k="addr:street" v="Moretown Common Road"/>
    <tag k="addr:state" v="VT"/>
    <tag k="ref:vcgi:esiteid" v="167364"/>
  </node>
  <node id="-337" visible="true" lat="44.27450181" lon="-72.65830331">
    <tag k="addr:city" v="Moretown"/>
    <tag k="addr:housenumber" v="1706"/>
    <tag k="addr:street" v="River Road"/>
    <tag k="addr:state" v="VT"/>
    <tag k="ref:vcgi:esiteid" v="167365"/>
  </node>
  <node id="-338" visible="true" lat="44.27451982" lon="-72.65430701">
    <tag k="addr:city" v="Moretown"/>
    <tag k="addr:housenumber" v="1907"/>
    <tag k="addr:street" v="River Road"/>
    <tag k="addr:state" v="VT"/>
    <tag k="ref:vcgi:esiteid" v="167366"/>
  </node>
  <node id="-339" visible="true" lat="44.27432441" lon="-72.65704491">
    <tag k="addr:city" v="Moretown"/>
    <tag k="addr:housenumber" v="1768"/>
    <tag k="addr:street" v="River Road"/>
    <tag k="addr:state" v="VT"/>
    <tag k="ref:vcgi:esiteid" v="167367"/>
  </node>
  <node id="-340" visible="true" lat="44.27430726" lon="-72.65799813">
    <tag k="addr:city" v="Moretown"/>
    <tag k="addr:housenumber" v="1708"/>
    <tag k="addr:street" v="River Road"/>
    <tag k="addr:state" v="VT"/>
    <tag k="ref:vcgi:esiteid" v="167368"/>
  </node>
  <node id="-341" visible="true" lat="44.27387143" lon="-72.7477926">
    <tag k="addr:city" v="Moretown"/>
    <tag k="addr:housenumber" v="174"/>
    <tag k="addr:street" v="Stevens Brook Road"/>
    <tag k="addr:state" v="VT"/>
    <tag k="ref:vcgi:esiteid" v="167369"/>
  </node>
  <node id="-342" visible="true" lat="44.27427498" lon="-72.65148888">
    <tag k="addr:city" v="Moretown"/>
    <tag k="addr:housenumber" v="2045"/>
    <tag k="addr:street" v="River Road"/>
    <tag k="addr:state" v="VT"/>
    <tag k="ref:vcgi:esiteid" v="167370"/>
  </node>
  <node id="-343" visible="true" lat="44.27381617" lon="-72.65169207">
    <tag k="addr:city" v="Moretown"/>
    <tag k="addr:housenumber" v="2042"/>
    <tag k="addr:street" v="River Road"/>
    <tag k="addr:state" v="VT"/>
    <tag k="ref:vcgi:esiteid" v="167371"/>
  </node>
  <node id="-344" visible="true" lat="44.2734996" lon="-72.64955444">
    <tag k="addr:city" v="Moretown"/>
    <tag k="addr:housenumber" v="2146"/>
    <tag k="addr:street" v="River Road"/>
    <tag k="addr:state" v="VT"/>
    <tag k="ref:vcgi:esiteid" v="167372"/>
  </node>
  <node id="-345" visible="true" lat="44.27349002" lon="-72.65003047">
    <tag k="addr:city" v="Moretown"/>
    <tag k="addr:housenumber" v="2140"/>
    <tag k="addr:street" v="River Road"/>
    <tag k="addr:state" v="VT"/>
    <tag k="ref:vcgi:esiteid" v="167373"/>
  </node>
  <node id="-348" visible="true" lat="44.27307128" lon="-72.74641418">
    <tag k="addr:city" v="Moretown"/>
    <tag k="addr:housenumber" v="104"/>
    <tag k="addr:street" v="Stevens Brook Road"/>
    <tag k="addr:state" v="VT"/>
    <tag k="ref:vcgi:esiteid" v="167376"/>
  </node>
  <node id="-364" visible="true" lat="44.27097702" lon="-72.64391326">
    <tag k="addr:city" v="Moretown"/>
    <tag k="addr:housenumber" v="2547"/>
    <tag k="addr:street" v="River Road"/>
    <tag k="addr:state" v="VT"/>
    <tag k="ref:vcgi:esiteid" v="167392"/>
  </node>
  <node id="-367" visible="true" lat="44.27024631" lon="-72.64438338">
    <tag k="addr:city" v="Moretown"/>
    <tag k="addr:housenumber" v="2536"/>
    <tag k="addr:street" v="River Road"/>
    <tag k="addr:state" v="VT"/>
    <tag k="ref:vcgi:esiteid" v="167395"/>
  </node>
  <node id="-369" visible="true" lat="44.26967118" lon="-72.64252351">
    <tag k="addr:city" v="Moretown"/>
    <tag k="addr:housenumber" v="26"/>
    <tag k="addr:street" v="Brownsville Road"/>
    <tag k="addr:state" v="VT"/>
    <tag k="ref:vcgi:esiteid" v="167397"/>
  </node>
  <node id="-372" visible="true" lat="44.2692752" lon="-72.64295797">
    <tag k="addr:city" v="Moretown"/>
    <tag k="addr:housenumber" v="58"/>
    <tag k="addr:street" v="Brownsville Road"/>
    <tag k="addr:state" v="VT"/>
    <tag k="ref:vcgi:esiteid" v="167400"/>
  </node>
  <node id="-411" visible="true" lat="44.25688934" lon="-72.7753601">
    <tag k="addr:city" v="Moretown"/>
    <tag k="addr:housenumber" v="909"/>
    <tag k="addr:street" v="Freeman Hill Road"/>
    <tag k="addr:state" v="VT"/>
    <tag k="ref:vcgi:esiteid" v="167440"/>
  </node>
  <node id="-418" visible="true" lat="44.25652694" lon="-72.77329254">
    <tag k="addr:city" v="Moretown"/>
    <tag k="addr:housenumber" v="928"/>
    <tag k="addr:street" v="Freeman Hill Road"/>
    <tag k="addr:state" v="VT"/>
    <tag k="ref:vcgi:esiteid" v="167447"/>
  </node>
  <node id="-437" visible="true" lat="44.25474154" lon="-72.77424308">
    <tag k="addr:city" v="Moretown"/>
    <tag k="addr:housenumber" v="784"/>
    <tag k="addr:street" v="Freeman Hill Road"/>
    <tag k="addr:state" v="VT"/>
    <tag k="ref:vcgi:esiteid" v="167467"/>
  </node>
  <node id="-455" visible="true" lat="44.25313435" lon="-72.64979253">
    <tag k="addr:city" v="Moretown"/>
    <tag k="addr:housenumber" v="1289"/>
    <tag k="addr:street" v="Jones Brook Road"/>
    <tag k="addr:state" v="VT"/>
    <tag k="ref:vcgi:esiteid" v="167485"/>
  </node>
  <node id="-458" visible="true" lat="44.25307088" lon="-72.65071175">
    <tag k="addr:city" v="Moretown"/>
    <tag k="addr:housenumber" v="1322"/>
    <tag k="addr:street" v="Jones Brook Road"/>
    <tag k="addr:state" v="VT"/>
    <tag k="ref:vcgi:esiteid" v="167488"/>
  </node>
  <node id="-459" visible="true" lat="44.25273067" lon="-72.77527231">
    <tag k="addr:city" v="Moretown"/>
    <tag k="addr:housenumber" v="639"/>
    <tag k="addr:street" v="Freeman Hill Road"/>
    <tag k="addr:state" v="VT"/>
    <tag k="ref:vcgi:esiteid" v="167489"/>
  </node>
  <node id="-471" visible="true" lat="44.25214737" lon="-72.75473791">
    <tag k="addr:city" v="Moretown"/>
    <tag k="addr:housenumber" v="173"/>
    <tag k="addr:street" v="Moretown Common Road"/>
    <tag k="addr:state" v="VT"/>
    <tag k="ref:vcgi:esiteid" v="167501"/>
  </node>
  <node id="-476" visible="true" lat="44.25190353" lon="-72.65457153">
    <tag k="addr:city" v="Moretown"/>
    <tag k="addr:housenumber" v="122"/>
    <tag k="addr:street" v="Ward Brook Road"/>
    <tag k="addr:state" v="VT"/>
    <tag k="ref:vcgi:esiteid" v="167506"/>
  </node>
  <node id="-478" visible="true" lat="44.25173673" lon="-72.75438944">
    <tag k="addr:city" v="Moretown"/>
    <tag k="addr:housenumber" v="174"/>
    <tag k="addr:street" v="Moretown Common Road"/>
    <tag k="addr:state" v="VT"/>
    <tag k="ref:vcgi:esiteid" v="167508"/>
  </node>
  <node id="-481" visible="true" lat="44.25182426" lon="-72.75613568">
    <tag k="addr:city" v="Moretown"/>
    <tag k="addr:housenumber" v="107"/>
    <tag k="addr:street" v="Moretown Common Road"/>
    <tag k="addr:state" v="VT"/>
    <tag k="ref:vcgi:esiteid" v="167511"/>
  </node>
  <node id="-482" visible="true" lat="44.25156402" lon="-72.6539154">
    <tag k="addr:city" v="Moretown"/>
    <tag k="addr:housenumber" v="46"/>
    <tag k="addr:street" v="Ward Brook Road"/>
    <tag k="addr:state" v="VT"/>
    <tag k="ref:vcgi:esiteid" v="167512"/>
  </node>
  <node id="-483" visible="true" lat="44.25148978" lon="-72.75580166">
    <tag k="addr:city" v="Moretown"/>
    <tag k="addr:housenumber" v="104"/>
    <tag k="addr:street" v="Moretown Common Road"/>
    <tag k="addr:state" v="VT"/>
    <tag k="ref:vcgi:esiteid" v="167513"/>
  </node>
  <node id="-484" visible="true" lat="44.25133132" lon="-72.75625322">
    <tag k="addr:city" v="Moretown"/>
    <tag k="addr:housenumber" v="76"/>
    <tag k="addr:street" v="Moretown Common Road"/>
    <tag k="addr:state" v="VT"/>
    <tag k="ref:vcgi:esiteid" v="167514"/>
  </node>
  <node id="-485" visible="true" lat="44.25119781" lon="-72.65274047">
    <tag k="addr:city" v="Moretown"/>
    <tag k="addr:housenumber" v="1486"/>
    <tag k="addr:street" v="Jones Brook Road"/>
    <tag k="addr:state" v="VT"/>
    <tag k="ref:vcgi:esiteid" v="167515"/>
  </node>
  <node id="-487" visible="true" lat="44.25095367" lon="-72.75804138">
    <tag k="addr:city" v="Moretown"/>
    <tag k="addr:housenumber" v="157"/>
    <tag k="addr:street" v="Moretown Mountain Road"/>
    <tag k="addr:state" v="VT"/>
    <tag k="ref:vcgi:esiteid" v="167517"/>
  </node>
  <node id="-488" visible="true" lat="44.25104582" lon="-72.75673294">
    <tag k="addr:city" v="Moretown"/>
    <tag k="addr:housenumber" v="48"/>
    <tag k="addr:street" v="Moretown Common Road"/>
    <tag k="addr:state" v="VT"/>
    <tag k="ref:vcgi:esiteid" v="167518"/>
  </node>
  <node id="-489" visible="true" lat="44.25109357" lon="-72.77441916">
    <tag k="addr:city" v="Moretown"/>
    <tag k="addr:housenumber" v="468"/>
    <tag k="addr:street" v="Freeman Hill Road"/>
    <tag k="addr:state" v="VT"/>
    <tag k="ref:vcgi:esiteid" v="167519"/>
  </node>
  <node id="-490" visible="true" lat="44.25086775" lon="-72.77574168">
    <tag k="addr:city" v="Moretown"/>
    <tag k="addr:housenumber" v="515"/>
    <tag k="addr:street" v="Freeman Hill Road"/>
    <tag k="addr:state" v="VT"/>
    <tag k="ref:vcgi:esiteid" v="167520"/>
  </node>
  <node id="-492" visible="true" lat="44.25082875" lon="-72.75613797">
    <tag k="addr:city" v="Moretown"/>
    <tag k="addr:housenumber" v="255"/>
    <tag k="addr:street" v="Moretown Mountain Road"/>
    <tag k="addr:state" v="VT"/>
    <tag k="ref:vcgi:esiteid" v="167522"/>
  </node>
  <node id="-493" visible="true" lat="44.25082399" lon="-72.76104837">
    <tag k="addr:city" v="Moretown"/>
    <tag k="addr:housenumber" v="8"/>
    <tag k="addr:street" v="Moretown Mountain Road"/>
    <tag k="addr:state" v="VT"/>
    <tag k="ref:vcgi:esiteid" v="167523"/>
  </node>
  <node id="-499" visible="true" lat="44.25063133" lon="-72.7599809">
    <tag k="addr:city" v="Moretown"/>
    <tag k="addr:housenumber" v="84"/>
    <tag k="addr:street" v="Moretown Mountain Road"/>
    <tag k="addr:state" v="VT"/>
    <tag k="ref:vcgi:esiteid" v="167529"/>
  </node>
  <node id="-500" visible="true" lat="44.25037915" lon="-72.75877652">
    <tag k="addr:city" v="Moretown"/>
    <tag k="addr:housenumber" v="150"/>
    <tag k="addr:street" v="Moretown Mountain Road"/>
    <tag k="addr:state" v="VT"/>
    <tag k="ref:vcgi:esiteid" v="167530"/>
  </node>
  <node id="-505" visible="true" lat="44.25045015" lon="-72.76181894">
    <tag k="addr:city" v="Moretown"/>
    <tag k="addr:housenumber" v="21"/>
    <tag k="addr:street" v="Fletcher Road"/>
    <tag k="addr:state" v="VT"/>
    <tag k="ref:vcgi:esiteid" v="167535"/>
  </node>
  <node id="-508" visible="true" lat="44.25035476" lon="-72.76274108">
    <tag k="addr:city" v="Moretown"/>
    <tag k="addr:housenumber" v="63"/>
    <tag k="addr:street" v="Fletcher Road"/>
    <tag k="addr:state" v="VT"/>
    <tag k="ref:vcgi:esiteid" v="167538"/>
  </node>
  <node id="-509" visible="true" lat="44.25031282" lon="-72.77443795">
    <tag k="addr:city" v="Moretown"/>
    <tag k="addr:housenumber" v="437"/>
    <tag k="addr:street" v="Freeman Hill Road"/>
    <tag k="addr:state" v="VT"/>
    <tag k="ref:vcgi:esiteid" v="167539"/>
  </node>
  <node id="-513" visible="true" lat="44.25057365" lon="-72.65399383">
    <tag k="addr:city" v="Moretown"/>
    <tag k="addr:housenumber" v="1568"/>
    <tag k="addr:street" v="Jones Brook Road"/>
    <tag k="addr:state" v="VT"/>
    <tag k="ref:vcgi:esiteid" v="167543"/>
  </node>
  <node id="-516" visible="true" lat="44.24958038" lon="-72.76126861">
    <tag k="addr:city" v="Moretown"/>
    <tag k="addr:housenumber" v="11"/>
    <tag k="addr:street" v="Doctors Brook Road"/>
    <tag k="addr:state" v="VT"/>
    <tag k="ref:vcgi:esiteid" v="167546"/>
  </node>
  <node id="-519" visible="true" lat="44.24928376" lon="-72.76104932">
    <tag k="addr:city" v="Moretown"/>
    <tag k="addr:housenumber" v="33"/>
    <tag k="addr:street" v="Doctors Brook Road"/>
    <tag k="addr:state" v="VT"/>
    <tag k="ref:vcgi:esiteid" v="167549"/>
  </node>
  <node id="-522" visible="true" lat="44.24900057" lon="-72.77440744">
    <tag k="addr:city" v="Moretown"/>
    <tag k="addr:housenumber" v="343"/>
    <tag k="addr:street" v="Freeman Hill Road"/>
    <tag k="addr:state" v="VT"/>
    <tag k="ref:vcgi:esiteid" v="167552"/>
  </node>
  <node id="-529" visible="true" lat="44.24869678" lon="-72.69054095">
    <tag k="addr:city" v="Moretown"/>
    <tag k="addr:housenumber" v="1800"/>
    <tag k="addr:street" v="Herring Brook Road"/>
    <tag k="addr:state" v="VT"/>
    <tag k="ref:vcgi:esiteid" v="167559"/>
  </node>
  <node id="-531" visible="true" lat="44.24855422" lon="-72.76036071">
    <tag k="addr:city" v="Moretown"/>
    <tag k="addr:housenumber" v="73"/>
    <tag k="addr:street" v="Doctors Brook Road"/>
    <tag k="addr:state" v="VT"/>
    <tag k="ref:vcgi:esiteid" v="167561"/>
  </node>
  <node id="-536" visible="true" lat="44.24834375" lon="-72.68492653">
    <tag k="addr:city" v="Moretown"/>
    <tag k="addr:housenumber" v="1482"/>
    <tag k="addr:street" v="Herring Brook Road"/>
    <tag k="addr:state" v="VT"/>
    <tag k="ref:vcgi:esiteid" v="167567"/>
  </node>
  <node id="-543" visible="true" lat="44.24754136" lon="-72.76261474">
    <tag k="addr:city" v="Moretown"/>
    <tag k="addr:housenumber" v="940"/>
    <tag k="addr:street" v="Vermont Route 100B"/>
    <tag k="addr:state" v="VT"/>
    <tag k="ref:vcgi:esiteid" v="167574"/>
  </node>
  <node id="-544" visible="true" lat="44.24817952" lon="-72.65676997">
    <tag k="addr:city" v="Moretown"/>
    <tag k="addr:housenumber" v="1756"/>
    <tag k="addr:street" v="Jones Brook Road"/>
    <tag k="addr:state" v="VT"/>
    <tag k="ref:vcgi:esiteid" v="167575"/>
  </node>
  <node id="-551" visible="true" lat="44.24754806" lon="-72.65633164">
    <tag k="addr:city" v="Moretown"/>
    <tag k="addr:housenumber" v="1789"/>
    <tag k="addr:street" v="Jones Brook Road"/>
    <tag k="addr:state" v="VT"/>
    <tag k="ref:vcgi:esiteid" v="167582"/>
  </node>
  <node id="-552" visible="true" lat="44.24758148" lon="-72.65719604">
    <tag k="addr:city" v="Moretown"/>
    <tag k="addr:housenumber" v="31"/>
    <tag k="addr:street" v="Cemetery Road"/>
    <tag k="addr:state" v="VT"/>
    <tag k="ref:vcgi:esiteid" v="167583"/>
  </node>
  <node id="-553" visible="true" lat="44.24734517" lon="-72.77115701">
    <tag k="addr:city" v="Moretown"/>
    <tag k="addr:housenumber" v="118"/>
    <tag k="addr:street" v="Old Gulf Road"/>
    <tag k="addr:state" v="VT"/>
    <tag k="ref:vcgi:esiteid" v="167584"/>
  </node>
  <node id="-555" visible="true" lat="44.24751912" lon="-72.68046338">
    <tag k="addr:city" v="Moretown"/>
    <tag k="addr:housenumber" v="1264"/>
    <tag k="addr:street" v="Herring Brook Road"/>
    <tag k="addr:state" v="VT"/>
    <tag k="ref:vcgi:esiteid" v="167586"/>
  </node>
  <node id="-557" visible="true" lat="44.24728904" lon="-72.65773">
    <tag k="addr:city" v="Moretown"/>
    <tag k="addr:housenumber" v="1856"/>
    <tag k="addr:street" v="Jones Brook Road"/>
    <tag k="addr:state" v="VT"/>
    <tag k="ref:vcgi:esiteid" v="167588"/>
  </node>
  <node id="-563" visible="true" lat="44.24729863" lon="-72.67841888">
    <tag k="addr:city" v="Moretown"/>
    <tag k="addr:housenumber" v="1192"/>
    <tag k="addr:street" v="Herring Brook Road"/>
    <tag k="addr:state" v="VT"/>
    <tag k="ref:vcgi:esiteid" v="167594"/>
  </node>
  <node id="-565" visible="true" lat="44.24663353" lon="-72.7637309">
    <tag k="addr:city" v="Moretown"/>
    <tag k="addr:housenumber" v="70"/>
    <tag k="addr:street" v="Hurdle Road"/>
    <tag k="addr:state" v="VT"/>
    <tag k="ref:vcgi:esiteid" v="167596"/>
  </node>
  <node id="-569" visible="true" lat="44.24655151" lon="-72.65803527">
    <tag k="addr:city" v="Moretown"/>
    <tag k="addr:housenumber" v="1900"/>
    <tag k="addr:street" v="Jones Brook Road"/>
    <tag k="addr:state" v="VT"/>
    <tag k="ref:vcgi:esiteid" v="167600"/>
  </node>
  <node id="-575" visible="true" lat="44.24616622" lon="-72.76446533">
    <tag k="addr:city" v="Moretown"/>
    <tag k="addr:housenumber" v="32"/>
    <tag k="addr:street" v="Hurdle Road"/>
    <tag k="addr:state" v="VT"/>
    <tag k="ref:vcgi:esiteid" v="167606"/>
  </node>
  <node id="-577" visible="true" lat="44.24613189" lon="-72.6598587">
    <tag k="addr:city" v="Moretown"/>
    <tag k="addr:housenumber" v="84"/>
    <tag k="addr:street" v="Jones Road"/>
    <tag k="addr:state" v="VT"/>
    <tag k="ref:vcgi:esiteid" v="167608"/>
  </node>
  <node id="-578" visible="true" lat="44.24586686" lon="-72.67660277">
    <tag k="addr:city" v="Moretown"/>
    <tag k="addr:housenumber" v="1057"/>
    <tag k="addr:street" v="Herring Brook Road"/>
    <tag k="addr:state" v="VT"/>
    <tag k="ref:vcgi:esiteid" v="167609"/>
  </node>
  <node id="-581" visible="true" lat="44.24559373" lon="-72.76339478">
    <tag k="addr:city" v="Moretown"/>
    <tag k="addr:housenumber" v="76"/>
    <tag k="addr:street" v="Fox Farm Run"/>
    <tag k="addr:state" v="VT"/>
    <tag k="ref:vcgi:esiteid" v="167612"/>
  </node>
  <node id="-586" visible="true" lat="44.24540329" lon="-72.66003417">
    <tag k="addr:city" v="Moretown"/>
    <tag k="addr:housenumber" v="86"/>
    <tag k="addr:street" v="Jones Road"/>
    <tag k="addr:state" v="VT"/>
    <tag k="ref:vcgi:esiteid" v="167617"/>
  </node>
  <node id="-588" visible="true" lat="44.24532699" lon="-72.65848541">
    <tag k="addr:city" v="Moretown"/>
    <tag k="addr:housenumber" v="1992"/>
    <tag k="addr:street" v="Jones Brook Road"/>
    <tag k="addr:state" v="VT"/>
    <tag k="ref:vcgi:esiteid" v="167619"/>
  </node>
  <node id="-592" visible="true" lat="44.24519348" lon="-72.65826415">
    <tag k="addr:city" v="Moretown"/>
    <tag k="addr:housenumber" v="1995"/>
    <tag k="addr:street" v="Jones Brook Road"/>
    <tag k="addr:state" v="VT"/>
    <tag k="ref:vcgi:esiteid" v="167623"/>
  </node>
  <node id="-598" visible="true" lat="44.24462127" lon="-72.76509094">
    <tag k="addr:city" v="Moretown"/>
    <tag k="addr:housenumber" v="169"/>
    <tag k="addr:street" v="Austin Heights"/>
    <tag k="addr:state" v="VT"/>
    <tag k="ref:vcgi:esiteid" v="167629"/>
  </node>
  <node id="-599" visible="true" lat="44.24480438" lon="-72.65885162">
    <tag k="addr:city" v="Moretown"/>
    <tag k="addr:housenumber" v="2030"/>
    <tag k="addr:street" v="Jones Brook Road"/>
    <tag k="addr:state" v="VT"/>
    <tag k="ref:vcgi:esiteid" v="167630"/>
  </node>
  <node id="-605" visible="true" lat="44.24454977" lon="-72.76832536">
    <tag k="addr:city" v="Moretown"/>
    <tag k="addr:housenumber" v="148"/>
    <tag k="addr:street" v="Pony Farm Road"/>
    <tag k="addr:state" v="VT"/>
    <tag k="ref:vcgi:esiteid" v="167636"/>
  </node>
  <node id="-606" visible="true" lat="44.24451005" lon="-72.6735507">
    <tag k="addr:city" v="Moretown"/>
    <tag k="addr:housenumber" v="864"/>
    <tag k="addr:street" v="Herring Brook Road"/>
    <tag k="addr:state" v="VT"/>
    <tag k="ref:vcgi:esiteid" v="167637"/>
  </node>
  <node id="-613" visible="true" lat="44.24402149" lon="-72.76802061">
    <tag k="addr:city" v="Moretown"/>
    <tag k="addr:housenumber" v="171"/>
    <tag k="addr:street" v="Pony Farm Road"/>
    <tag k="addr:state" v="VT"/>
    <tag k="ref:vcgi:esiteid" v="167645"/>
  </node>
  <node id="-615" visible="true" lat="44.24408377" lon="-72.76865998">
    <tag k="addr:city" v="Moretown"/>
    <tag k="addr:housenumber" v="182"/>
    <tag k="addr:street" v="Pony Farm Road"/>
    <tag k="addr:state" v="VT"/>
    <tag k="ref:vcgi:esiteid" v="167647"/>
  </node>
  <node id="-621" visible="true" lat="44.24389361" lon="-72.65914623">
    <tag k="addr:city" v="Moretown"/>
    <tag k="addr:housenumber" v="24"/>
    <tag k="addr:street" v="Herring Brook Road"/>
    <tag k="addr:state" v="VT"/>
    <tag k="ref:vcgi:esiteid" v="167653"/>
  </node>
  <node id="-640" visible="true" lat="44.24243002" lon="-72.66459458">
    <tag k="addr:city" v="Moretown"/>
    <tag k="addr:housenumber" v="344"/>
    <tag k="addr:street" v="Herring Brook Road"/>
    <tag k="addr:state" v="VT"/>
    <tag k="ref:vcgi:esiteid" v="167672"/>
  </node>
  <node id="-643" visible="true" lat="44.242093" lon="-72.66735024">
    <tag k="addr:city" v="Moretown"/>
    <tag k="addr:housenumber" v="493"/>
    <tag k="addr:street" v="Herring Brook Road"/>
    <tag k="addr:state" v="VT"/>
    <tag k="ref:vcgi:esiteid" v="167675"/>
  </node>
  <node id="-644" visible="true" lat="44.24208379" lon="-72.67011881">
    <tag k="addr:city" v="Moretown"/>
    <tag k="addr:housenumber" v="609"/>
    <tag k="addr:street" v="Herring Brook Road"/>
    <tag k="addr:state" v="VT"/>
    <tag k="ref:vcgi:esiteid" v="167676"/>
  </node>
  <node id="-645" visible="true" lat="44.24193608" lon="-72.6648955">
    <tag k="addr:city" v="Moretown"/>
    <tag k="addr:housenumber" v="423"/>
    <tag k="addr:street" v="Herring Brook Road"/>
    <tag k="addr:state" v="VT"/>
    <tag k="ref:vcgi:esiteid" v="167677"/>
  </node>
  <node id="-649" visible="true" lat="44.24240932" lon="-72.65851105">
    <tag k="addr:city" v="Moretown"/>
    <tag k="addr:housenumber" v="2245"/>
    <tag k="addr:street" v="Jones Brook Road"/>
    <tag k="addr:state" v="VT"/>
    <tag k="ref:vcgi:esiteid" v="167681"/>
  </node>
  <node id="-652" visible="true" lat="44.24155807" lon="-72.65927123">
    <tag k="addr:city" v="Moretown"/>
    <tag k="addr:housenumber" v="2252"/>
    <tag k="addr:street" v="Jones Brook Road"/>
    <tag k="addr:state" v="VT"/>
    <tag k="ref:vcgi:esiteid" v="167684"/>
  </node>
  <node id="-742" visible="true" lat="44.25293824" lon="-72.65184944">
    <tag k="addr:city" v="Moretown"/>
    <tag k="addr:housenumber" v="1234"/>
    <tag k="addr:street" v="Jones Brook Road"/>
    <tag k="addr:state" v="VT"/>
    <tag k="ref:vcgi:esiteid" v="167776"/>
  </node>
  <node id="-745" visible="true" lat="44.24966817" lon="-72.6533972">
    <tag k="addr:city" v="Moretown"/>
    <tag k="addr:housenumber" v="1567"/>
    <tag k="addr:street" v="Jones Brook Road"/>
    <tag k="addr:state" v="VT"/>
    <tag k="ref:vcgi:esiteid" v="167779"/>
  </node>
  <node id="-747" visible="true" lat="44.27862511" lon="-72.72360649">
    <tag k="addr:city" v="Moretown"/>
    <tag k="addr:housenumber" v="244"/>
    <tag k="addr:street" v="Honan Road"/>
    <tag k="addr:state" v="VT"/>
    <tag k="ref:vcgi:esiteid" v="167781"/>
  </node>
  <node id="-748" visible="true" lat="44.28904924" lon="-72.67930683">
    <tag k="addr:city" v="Moretown"/>
    <tag k="addr:housenumber" v="183"/>
    <tag k="addr:street" v="Henning Road"/>
    <tag k="addr:state" v="VT"/>
    <tag k="ref:vcgi:esiteid" v="167782"/>
  </node>
  <node id="-750" visible="true" lat="44.27145537" lon="-72.64460161">
    <tag k="addr:city" v="Moretown"/>
    <tag k="addr:housenumber" v="27"/>
    <tag k="addr:street" v="Terrace Lane"/>
    <tag k="addr:state" v="VT"/>
    <tag k="ref:vcgi:esiteid" v="167784"/>
  </node>
  <node id="-751" visible="true" lat="44.27177038" lon="-72.64365665">
    <tag k="addr:city" v="Moretown"/>
    <tag k="addr:housenumber" v="112"/>
    <tag k="addr:street" v="Terrace Lane"/>
    <tag k="addr:state" v="VT"/>
    <tag k="ref:vcgi:esiteid" v="167785"/>
  </node>
  <node id="-752" visible="true" lat="44.27273779" lon="-72.64368781">
    <tag k="addr:city" v="Moretown"/>
    <tag k="addr:housenumber" v="115"/>
    <tag k="addr:street" v="Terrace Lane"/>
    <tag k="addr:state" v="VT"/>
    <tag k="ref:vcgi:esiteid" v="167786"/>
  </node>
  <node id="-768" visible="true" lat="44.2849819" lon="-72.72492273">
    <tag k="addr:city" v="Moretown"/>
    <tag k="addr:housenumber" v="313"/>
    <tag k="addr:street" v="Coreys Drive"/>
    <tag k="addr:state" v="VT"/>
    <tag k="ref:vcgi:esiteid" v="167802"/>
  </node>
  <node id="-785" visible="true" lat="44.25655058" lon="-72.64874613">
    <tag k="addr:city" v="Moretown"/>
    <tag k="addr:housenumber" v="1094"/>
    <tag k="addr:street" v="Jones Brook Road"/>
    <tag k="addr:state" v="VT"/>
    <tag k="ref:vcgi:esiteid" v="167820"/>
  </node>
  <node id="-786" visible="true" lat="44.25270894" lon="-72.75683423">
    <tag k="addr:city" v="Moretown"/>
    <tag k="addr:housenumber" v="210"/>
    <tag k="addr:street" v="Sitka Lane"/>
    <tag k="addr:state" v="VT"/>
    <tag k="ref:vcgi:esiteid" v="167821"/>
  </node>
  <node id="-787" visible="true" lat="44.28182962" lon="-72.72292872">
    <tag k="addr:city" v="Moretown"/>
    <tag k="addr:housenumber" v="130"/>
    <tag k="addr:street" v="Coreys Drive"/>
    <tag k="addr:state" v="VT"/>
    <tag k="ref:vcgi:esiteid" v="167822"/>
  </node>
  <node id="-791" visible="true" lat="44.24591599" lon="-72.65765615">
    <tag k="addr:city" v="Moretown"/>
    <tag k="addr:housenumber" v="1927"/>
    <tag k="addr:street" v="Jones Brook Road"/>
    <tag k="addr:state" v="VT"/>
    <tag k="ref:vcgi:esiteid" v="307012"/>
  </node>
  <node id="-800" visible="true" lat="44.29431948" lon="-72.703269">
    <tag k="addr:city" v="Moretown"/>
    <tag k="addr:housenumber" v="63"/>
    <tag k="addr:street" v="Hooper Lane"/>
    <tag k="addr:state" v="VT"/>
    <tag k="ref:vcgi:esiteid" v="307021"/>
  </node>
  <node id="-802" visible="true" lat="44.27513483" lon="-72.66045435">
    <tag k="addr:city" v="Moretown"/>
    <tag k="addr:housenumber" v="1552"/>
    <tag k="addr:street" v="River Road"/>
    <tag k="addr:state" v="VT"/>
    <tag k="ref:vcgi:esiteid" v="307321"/>
  </node>
  <node id="-804" visible="true" lat="44.27240511" lon="-72.6454558">
    <tag k="addr:city" v="Moretown"/>
    <tag k="addr:housenumber" v="28"/>
    <tag k="addr:street" v="Deer Run Lane"/>
    <tag k="addr:state" v="VT"/>
    <tag k="ref:vcgi:esiteid" v="307324"/>
  </node>
  <node id="-806" visible="true" lat="44.24666841" lon="-72.77469242">
    <tag k="addr:city" v="Moretown"/>
    <tag k="addr:housenumber" v="183"/>
    <tag k="addr:street" v="Freeman Hill Road"/>
    <tag k="addr:state" v="VT"/>
    <tag k="ref:vcgi:esiteid" v="307326"/>
  </node>
  <node id="-807" visible="true" lat="44.2563521" lon="-72.77203635">
    <tag k="addr:city" v="Moretown"/>
    <tag k="addr:housenumber" v="52"/>
    <tag k="addr:street" v="Lester Lane"/>
    <tag k="addr:state" v="VT"/>
    <tag k="ref:vcgi:esiteid" v="307327"/>
  </node>
  <node id="-814" visible="true" lat="44.25576146" lon="-72.77540588">
    <tag k="addr:city" v="Moretown"/>
    <tag k="addr:housenumber" v="795"/>
    <tag k="addr:street" v="Freeman Hill Road"/>
    <tag k="addr:state" v="VT"/>
    <tag k="ref:vcgi:esiteid" v="313561"/>
  </node>
  <node id="-815" visible="true" lat="44.25732605" lon="-72.7730733">
    <tag k="addr:city" v="Moretown"/>
    <tag k="addr:housenumber" v="1836"/>
    <tag k="addr:street" v="Lester Lane"/>
    <tag k="addr:state" v="VT"/>
    <tag k="ref:vcgi:esiteid" v="313564"/>
  </node>
  <node id="-822" visible="true" lat="44.27163629" lon="-72.64812795">
    <tag k="addr:city" v="Moretown"/>
    <tag k="addr:housenumber" v="66"/>
    <tag k="addr:street" v="Gravel Lane"/>
    <tag k="addr:state" v="VT"/>
    <tag k="ref:vcgi:esiteid" v="317542"/>
  </node>
  <node id="-823" visible="true" lat="44.27270005" lon="-72.64315534">
    <tag k="addr:city" v="Moretown"/>
    <tag k="addr:housenumber" v="114"/>
    <tag k="addr:street" v="Terrace Lane"/>
    <tag k="addr:state" v="VT"/>
    <tag k="ref:vcgi:esiteid" v="317543"/>
  </node>
  <node id="-826" visible="true" lat="44.25202718" lon="-72.7750279">
    <tag k="addr:city" v="Moretown"/>
    <tag k="addr:housenumber" v="638"/>
    <tag k="addr:street" v="Freeman Hill Road"/>
    <tag k="addr:state" v="VT"/>
    <tag k="ref:vcgi:esiteid" v="317546"/>
  </node>
  <node id="-831" visible="true" lat="44.27193929" lon="-72.64495075">
    <tag k="addr:city" v="Moretown"/>
    <tag k="addr:housenumber" v="80"/>
    <tag k="addr:street" v="Deer Run Lane"/>
    <tag k="addr:state" v="VT"/>
    <tag k="ref:vcgi:esiteid" v="325342"/>
  </node>
  <node id="-836" visible="true" lat="44.27511167" lon="-72.75308645">
    <tag k="addr:city" v="Moretown"/>
    <tag k="addr:housenumber" v="445"/>
    <tag k="addr:street" v="Stevens Brook Road"/>
    <tag k="addr:state" v="VT"/>
    <tag k="ref:vcgi:esiteid" v="329709"/>
  </node>
  <node id="-840" visible="true" lat="44.27243517" lon="-72.64437664">
    <tag k="addr:city" v="Moretown"/>
    <tag k="addr:housenumber" v="71"/>
    <tag k="addr:street" v="Deer Run Lane"/>
    <tag k="addr:state" v="VT"/>
    <tag k="ref:vcgi:esiteid" v="331078"/>
  </node>
  <node id="-842" visible="true" lat="44.27157469" lon="-72.64869783">
    <tag k="addr:city" v="Moretown"/>
    <tag k="addr:housenumber" v="38"/>
    <tag k="addr:street" v="Gravel Lane"/>
    <tag k="addr:state" v="VT"/>
    <tag k="ref:vcgi:esiteid" v="331830"/>
  </node>
  <node id="-843" visible="true" lat="44.27155144" lon="-72.64754232">
    <tag k="addr:city" v="Moretown"/>
    <tag k="addr:housenumber" v="86"/>
    <tag k="addr:street" v="Gravel Lane"/>
    <tag k="addr:state" v="VT"/>
    <tag k="ref:vcgi:esiteid" v="331831"/>
  </node>
  <node id="-845" visible="true" lat="44.28672379" lon="-72.70671482">
    <tag k="addr:city" v="Moretown"/>
    <tag k="addr:housenumber" v="33"/>
    <tag k="addr:street" v="Brooks Drive"/>
    <tag k="addr:state" v="VT"/>
    <tag k="ref:vcgi:esiteid" v="333266"/>
  </node>
  <node id="-854" visible="true" lat="44.27600595" lon="-72.7658066">
    <tag k="addr:city" v="Moretown"/>
    <tag k="addr:housenumber" v="1151"/>
    <tag k="addr:street" v="Stevens Brook Road"/>
    <tag k="addr:state" v="VT"/>
    <tag k="ref:vcgi:esiteid" v="336564"/>
  </node>
  <node id="-855" visible="true" lat="44.2761653" lon="-72.76645233">
    <tag k="addr:city" v="Moretown"/>
    <tag k="addr:housenumber" v="1191"/>
    <tag k="addr:street" v="Stevens Brook Road"/>
    <tag k="addr:state" v="VT"/>
    <tag k="ref:vcgi:esiteid" v="337340"/>
  </node>
  <node id="-858" visible="true" lat="44.29164649" lon="-72.68609459">
    <tag k="addr:city" v="Moretown"/>
    <tag k="addr:housenumber" v="7510"/>
    <tag k="addr:street" v="Vermont Route 100B"/>
    <tag k="addr:state" v="VT"/>
    <tag k="ref:vcgi:esiteid" v="339303"/>
  </node>
  <node id="-871" visible="true" lat="44.28341757" lon="-72.72351334">
    <tag k="addr:city" v="Moretown"/>
    <tag k="addr:housenumber" v="278"/>
    <tag k="addr:street" v="Coreys Drive"/>
    <tag k="addr:state" v="VT"/>
    <tag k="ref:vcgi:esiteid" v="446066"/>
  </node>
  <node id="-881" visible="true" lat="44.28035554" lon="-72.72397147">
    <tag k="addr:city" v="Moretown"/>
    <tag k="addr:housenumber" v="72"/>
    <tag k="addr:street" v="Coreys Drive"/>
    <tag k="addr:state" v="VT"/>
    <tag k="ref:vcgi:esiteid" v="448964"/>
  </node>
  <node id="-888" visible="true" lat="44.24809343" lon="-72.76147896">
    <tag k="addr:city" v="Moretown"/>
    <tag k="addr:housenumber" v="79"/>
    <tag k="addr:street" v="School Street"/>
    <tag k="addr:state" v="VT"/>
    <tag k="ref:vcgi:esiteid" v="450662"/>
  </node>
  <node id="-900" visible="true" lat="44.28594923" lon="-72.71004058">
    <tag k="addr:city" v="Moretown"/>
    <tag k="addr:housenumber" v="5594"/>
    <tag k="addr:street" v="Vermont Route 100B"/>
    <tag k="addr:state" v="VT"/>
    <tag k="ref:vcgi:esiteid" v="454376"/>
  </node>
</osm>
