<?xml version="1.0" encoding="UTF-8"?>
<osm version="0.6" generator="JOSM">
  <node id="-103" visible="true" lat="44.3264389" lon="-72.7457199">
    <!-- conflict: "100 U.S. Route 2, Moretown, VT" Fuzzy match to "100 US Route 2, Waterbury, VT" -->
    <tag k="addr:city" v="Moretown"/>
    <tag k="addr:housenumber" v="100"/>
    <tag k="addr:street" v="U.S. Route 2"/>
    <tag k="addr:state" v="VT"/>
    <tag k="ref:vcgi:esiteid" v="167118"/>
  </node>
  <node id="-245" visible="true" lat="44.29504685" lon="-72.70544555">
    <!-- conflict: "1111 Lovers Lane, Moretown, VT" No match in OSM, but a different address exists <5m away: "443 Lovers Lane, Moretown, VT" -->
    <tag k="addr:city" v="Moretown"/>
    <tag k="addr:housenumber" v="1111"/>
    <tag k="addr:street" v="Lovers Lane"/>
    <tag k="addr:state" v="VT"/>
    <tag k="ref:vcgi:esiteid" v="167272"/>
  </node>
  <node id="-309" visible="true" lat="44.27840175" lon="-72.74325347">
    <!-- conflict: "3439 Vermont Route 100B, Moretown, VT" No match in OSM, but a different address exists <5m away: "3439 Vt Route 100B, Moretown, VT" -->
    <tag k="addr:city" v="Moretown"/>
    <tag k="addr:housenumber" v="3439"/>
    <tag k="addr:street" v="Vermont Route 100B"/>
    <tag k="addr:state" v="VT"/>
    <tag k="ref:vcgi:esiteid" v="167337"/>
  </node>
  <node id="-491" visible="true" lat="44.2509266" lon="-72.76180309">
    <!-- conflict: "1169 Vermont Route 100B, Moretown, VT" No match in OSM, but a different address exists <5m away: "1169 Vt Route 100B, Moretown, VT" -->
    <tag k="addr:city" v="Moretown"/>
    <tag k="addr:housenumber" v="1169"/>
    <tag k="addr:street" v="Vermont Route 100B"/>
    <tag k="addr:state" v="VT"/>
    <tag k="ref:vcgi:esiteid" v="167521"/>
  </node>
  <node id="-504" visible="true" lat="44.2504503" lon="-72.76162668">
    <!-- conflict: "1143 Vermont Route 100B, Moretown, VT" No match in OSM, but a different address exists <5m away: "1143 Vt Route 100B, Moretown, VT" -->
    <tag k="addr:city" v="Moretown"/>
    <tag k="addr:housenumber" v="1143"/>
    <tag k="addr:street" v="Vermont Route 100B"/>
    <tag k="addr:state" v="VT"/>
    <tag k="ref:vcgi:esiteid" v="167534"/>
  </node>
  <node id="-511" visible="true" lat="44.25021451" lon="-72.76105154">
    <!-- conflict: "1114 Vermont Route 100B, Moretown, VT" No match in OSM, but a different address exists <5m away: "1128 Vt Route 100B, Moretown, VT" -->
    <tag k="addr:city" v="Moretown"/>
    <tag k="addr:housenumber" v="1114"/>
    <tag k="addr:street" v="Vermont Route 100B"/>
    <tag k="addr:state" v="VT"/>
    <tag k="ref:vcgi:esiteid" v="167541"/>
  </node>
  <node id="-514" visible="true" lat="44.25006105" lon="-72.76165109">
    <!-- conflict: "1115 Vermont Route 100B, Moretown, VT" No match in OSM, but a different address exists <5m away: "1115 Vt Route 100B, Moretown, VT" -->
    <tag k="addr:city" v="Moretown"/>
    <tag k="addr:housenumber" v="1115"/>
    <tag k="addr:street" v="Vermont Route 100B"/>
    <tag k="addr:state" v="VT"/>
    <tag k="ref:vcgi:esiteid" v="167544"/>
  </node>
  <node id="-515" visible="true" lat="44.24979612" lon="-72.76115428">
    <!-- conflict: "1104 Vermont Route 100B, Moretown, VT" No match in OSM, but a different address exists <5m away: "1104 Vt Route 100B, Moretown, VT" -->
    <tag k="addr:city" v="Moretown"/>
    <tag k="addr:housenumber" v="1104"/>
    <tag k="addr:street" v="Vermont Route 100B"/>
    <tag k="addr:state" v="VT"/>
    <tag k="ref:vcgi:esiteid" v="167545"/>
  </node>
  <node id="-517" visible="true" lat="44.24946212" lon="-72.76184844">
    <!-- conflict: "1067 Vermont Route 100B, Moretown, VT" No match in OSM, but a different address exists <5m away: "1067 Vt Route 100B, Moretown, VT" -->
    <tag k="addr:city" v="Moretown"/>
    <tag k="addr:housenumber" v="1067"/>
    <tag k="addr:street" v="Vermont Route 100B"/>
    <tag k="addr:state" v="VT"/>
    <tag k="ref:vcgi:esiteid" v="167547"/>
  </node>
  <node id="-520" visible="true" lat="44.24933832" lon="-72.76205911">
    <!-- conflict: "1049 Vermont Route 100B, Moretown, VT" No match in OSM, but a different address exists <5m away: "1049 Vt Route 100B, Moretown, VT" -->
    <tag k="addr:city" v="Moretown"/>
    <tag k="addr:housenumber" v="1049"/>
    <tag k="addr:street" v="Vermont Route 100B"/>
    <tag k="addr:state" v="VT"/>
    <tag k="ref:vcgi:esiteid" v="167550"/>
  </node>
  <node id="-525" visible="true" lat="44.24887942" lon="-72.76243384">
    <!-- conflict: "1013 Vermont Route 100B, Moretown, VT" No match in OSM, but a different address exists <5m away: "1013 Vt Route 100B, Moretown, VT" -->
    <tag k="addr:city" v="Moretown"/>
    <tag k="addr:housenumber" v="1013"/>
    <tag k="addr:street" v="Vermont Route 100B"/>
    <tag k="addr:state" v="VT"/>
    <tag k="ref:vcgi:esiteid" v="167555"/>
  </node>
  <node id="-526" visible="true" lat="44.24878526" lon="-72.76099978">
    <!-- conflict: "1054 Vermont Route 100B, Moretown, VT" No match in OSM, but a different address exists <5m away: "1054 Vt Route 100B, Moretown, VT" -->
    <tag k="addr:city" v="Moretown"/>
    <tag k="addr:housenumber" v="1054"/>
    <tag k="addr:street" v="Vermont Route 100B"/>
    <tag k="addr:state" v="VT"/>
    <tag k="ref:vcgi:esiteid" v="167556"/>
  </node>
  <node id="-527" visible="true" lat="44.24865929" lon="-72.76206971">
    <!-- conflict: "1018 Vermont Route 100B, Moretown, VT" No match in OSM, but a different address exists <5m away: "1018 Vt Route 100B, Moretown, VT" -->
    <tag k="addr:city" v="Moretown"/>
    <tag k="addr:housenumber" v="1018"/>
    <tag k="addr:street" v="Vermont Route 100B"/>
    <tag k="addr:state" v="VT"/>
    <tag k="ref:vcgi:esiteid" v="167557"/>
  </node>
  <node id="-528" visible="true" lat="44.2486322" lon="-72.76149556">
    <!-- conflict: "1052 Vermont Route 100B, Moretown, VT" No match in OSM, but a different address exists <5m away: "1052 Vt Route 100B, Moretown, VT" -->
    <tag k="addr:city" v="Moretown"/>
    <tag k="addr:housenumber" v="1052"/>
    <tag k="addr:street" v="Vermont Route 100B"/>
    <tag k="addr:state" v="VT"/>
    <tag k="ref:vcgi:esiteid" v="167558"/>
  </node>
  <node id="-532" visible="true" lat="44.24851209" lon="-72.7622359">
    <!-- conflict: "1000 Vermont Route 100B, Moretown, VT" No match in OSM, but a different address exists <5m away: " Route 100B, Moretown, " -->
    <tag k="addr:city" v="Moretown"/>
    <tag k="addr:housenumber" v="1000"/>
    <tag k="addr:street" v="Vermont Route 100B"/>
    <tag k="addr:state" v="VT"/>
    <tag k="ref:vcgi:esiteid" v="167562"/>
  </node>
  <node id="-533" visible="true" lat="44.24855448" lon="-72.76289467">
    <!-- conflict: "981 Vermont Route 100B, Moretown, VT" No match in OSM, but a different address exists <5m away: "981 Vt Route 100B, Moretown, VT" -->
    <tag k="addr:city" v="Moretown"/>
    <tag k="addr:housenumber" v="981"/>
    <tag k="addr:street" v="Vermont Route 100B"/>
    <tag k="addr:state" v="VT"/>
    <tag k="ref:vcgi:esiteid" v="167563"/>
  </node>
  <node id="-537" visible="true" lat="44.24823956" lon="-72.76327482">
    <!-- conflict: "949 Vermont Route 100B, Moretown, VT" No match in OSM, but a different address exists <5m away: "949 Vt Route 100B, Moretown, VT" -->
    <tag k="addr:city" v="Moretown"/>
    <tag k="addr:housenumber" v="949"/>
    <tag k="addr:street" v="Vermont Route 100B"/>
    <tag k="addr:state" v="VT"/>
    <tag k="ref:vcgi:esiteid" v="167568"/>
  </node>
  <node id="-538" visible="true" lat="44.24815862" lon="-72.76257934">
    <!-- conflict: "968 Vermont Route 100B, Moretown, VT" No match in OSM, but a different address exists <5m away: "968 Vt Route 100B, Moretown, VT" -->
    <tag k="addr:city" v="Moretown"/>
    <tag k="addr:housenumber" v="968"/>
    <tag k="addr:street" v="Vermont Route 100B"/>
    <tag k="addr:state" v="VT"/>
    <tag k="ref:vcgi:esiteid" v="167569"/>
  </node>
  <node id="-540" visible="true" lat="44.24792814" lon="-72.76272145">
    <!-- conflict: "962 Vermont Route 100B, Moretown, VT" No match in OSM, but a different address exists <5m away: "962 Vt Route 100B, Moretown, VT" -->
    <tag k="addr:city" v="Moretown"/>
    <tag k="addr:housenumber" v="962"/>
    <tag k="addr:street" v="Vermont Route 100B"/>
    <tag k="addr:state" v="VT"/>
    <tag k="ref:vcgi:esiteid" v="167571"/>
  </node>
  <node id="-541" visible="true" lat="44.24809248" lon="-72.76341529">
    <!-- conflict: "937 Vermont Route 100B, Moretown, VT" No match in OSM, but a different address exists <5m away: "937 Vt Route 100B, Moretown, VT" -->
    <tag k="addr:city" v="Moretown"/>
    <tag k="addr:housenumber" v="937"/>
    <tag k="addr:street" v="Vermont Route 100B"/>
    <tag k="addr:state" v="VT"/>
    <tag k="ref:vcgi:esiteid" v="167572"/>
  </node>
  <node id="-542" visible="true" lat="44.2479248" lon="-72.76354217">
    <!-- conflict: "931 Vermont Route 100B, Moretown, VT" No match in OSM, but a different address exists <5m away: "931 Vt Route 100B, Moretown, VT" -->
    <tag k="addr:city" v="Moretown"/>
    <tag k="addr:housenumber" v="931"/>
    <tag k="addr:street" v="Vermont Route 100B"/>
    <tag k="addr:state" v="VT"/>
    <tag k="ref:vcgi:esiteid" v="167573"/>
  </node>
  <node id="-549" visible="true" lat="44.24760843" lon="-72.76393569">
    <!-- conflict: "897 Vermont Route 100B, Moretown, VT" No match in OSM, but a different address exists <5m away: "897 State Route 100B, Moretown, VT" -->
    <tag k="addr:city" v="Moretown"/>
    <tag k="addr:housenumber" v="897"/>
    <tag k="addr:street" v="Vermont Route 100B"/>
    <tag k="addr:state" v="VT"/>
    <tag k="ref:vcgi:esiteid" v="167580"/>
  </node>
  <node id="-550" visible="true" lat="44.24748611" lon="-72.76358795">
    <!-- conflict: "906 Vermont Route 100B, Moretown, VT" No match in OSM, but a different address exists <5m away: "906 Vt Route 100B, Moretown, VT" -->
    <tag k="addr:city" v="Moretown"/>
    <tag k="addr:housenumber" v="906"/>
    <tag k="addr:street" v="Vermont Route 100B"/>
    <tag k="addr:state" v="VT"/>
    <tag k="ref:vcgi:esiteid" v="167581"/>
  </node>
  <node id="-566" visible="true" lat="44.2465785" lon="-72.76465043">
    <!-- conflict: "820 Vermont Route 100B, Moretown, VT" No match in OSM, but a different address exists <5m away: "820 Vt Route 100B, Moretown, VT" -->
    <tag k="addr:city" v="Moretown"/>
    <tag k="addr:housenumber" v="820"/>
    <tag k="addr:street" v="Vermont Route 100B"/>
    <tag k="addr:state" v="VT"/>
    <tag k="ref:vcgi:esiteid" v="167597"/>
  </node>
  <node id="-573" visible="true" lat="44.24622687" lon="-72.76507563">
    <!-- conflict: "798 Vermont Route 100B, Moretown, VT" No match in OSM, but a different address exists <5m away: "798 Vt Route 100B, Moretown, VT" -->
    <tag k="addr:city" v="Moretown"/>
    <tag k="addr:housenumber" v="798"/>
    <tag k="addr:street" v="Vermont Route 100B"/>
    <tag k="addr:state" v="VT"/>
    <tag k="ref:vcgi:esiteid" v="167604"/>
  </node>
  <node id="-593" visible="true" lat="44.24493789" lon="-72.76959991">
    <!-- conflict: "584 Vermont Route 100B, Moretown, VT" No match in OSM, but a different address exists <5m away: "584 Vt Route 100B, Moretown, VT" -->
    <tag k="addr:city" v="Moretown"/>
    <tag k="addr:housenumber" v="584"/>
    <tag k="addr:street" v="Vermont Route 100B"/>
    <tag k="addr:state" v="VT"/>
    <tag k="ref:vcgi:esiteid" v="167624"/>
  </node>
  <node id="-753" visible="true" lat="44.29640188" lon="-72.70572958">
    <!-- conflict: "1070 Lovers Lane, Moretown, VT" No match in OSM, but a different address exists <5m away: "400 Lovers Lane, Moretown, VT" -->
    <tag k="addr:city" v="Moretown"/>
    <tag k="addr:housenumber" v="1070"/>
    <tag k="addr:street" v="Lovers Lane"/>
    <tag k="addr:state" v="VT"/>
    <tag k="ref:vcgi:esiteid" v="167787"/>
  </node>
  <node id="-781" visible="true" lat="44.25110602" lon="-72.75874844">
    <!-- conflict: "87 Moretown Mountain Road, Moretown, VT" No match in OSM, but a different address exists <5m away: "85 Moretown Mountain Road, Moretown, VT" -->
    <tag k="addr:city" v="Moretown"/>
    <tag k="addr:housenumber" v="87"/>
    <tag k="addr:street" v="Moretown Mountain Road"/>
    <tag k="addr:state" v="VT"/>
    <tag k="ref:vcgi:esiteid" v="167815"/>
  </node>
  <node id="-828" visible="true" lat="44.25149444" lon="-72.76100786">
    <!-- conflict: "1245 Vermont Route 100B, Moretown, VT" No match in OSM, but a different address exists <5m away: "1245 Vt Route 100B, Moretown, VT" -->
    <tag k="addr:city" v="Moretown"/>
    <tag k="addr:housenumber" v="1245"/>
    <tag k="addr:street" v="Vermont Route 100B"/>
    <tag k="addr:state" v="VT"/>
    <tag k="ref:vcgi:esiteid" v="317549"/>
  </node>
  <node id="-834" visible="true" lat="44.29644377" lon="-72.70283529">
    <!-- conflict: "909 Lovers Lane, Moretown, VT" No match in OSM, but a different address exists <5m away: "71 Lovers Lane, Moretown, VT" -->
    <tag k="addr:city" v="Moretown"/>
    <tag k="addr:housenumber" v="909"/>
    <tag k="addr:street" v="Lovers Lane"/>
    <tag k="addr:state" v="VT"/>
    <tag k="ref:vcgi:esiteid" v="327178"/>
  </node>
</osm>
