<?xml version="1.0" encoding="UTF-8"?>
<osm version="0.6" generator="JOSM">
  <node id="-116" visible="true" lat="44.5857586" lon="-72.61677456">
    <!-- offset: "2127 Cadys Falls Road, Morristown, VT" Significant offset - 145m -->
    <tag k="addr:city" v="Morristown"/>
    <tag k="addr:housenumber" v="2127"/>
    <tag k="addr:street" v="Cadys Falls Road"/>
    <tag k="addr:state" v="VT"/>
    <tag k="ref:vcgi:esiteid" v="168619"/>
  </node>
  <node id="-612" visible="true" lat="44.56515504" lon="-72.60514866">
    <!-- offset: "376 Bridge Street, Morristown, VT" Significant offset - 418.8m -->
    <tag k="addr:city" v="Morristown"/>
    <tag k="addr:housenumber" v="376"/>
    <tag k="addr:street" v="Bridge Street"/>
    <tag k="addr:state" v="VT"/>
    <tag k="ref:vcgi:esiteid" v="169189"/>
  </node>
  <node id="-2525" visible="true" lat="44.5766523" lon="-72.65898562">
    <!-- offset: "2419 Walton Road, Morristown, VT" Significant offset - 100.8m -->
    <tag k="addr:city" v="Morristown"/>
    <tag k="addr:housenumber" v="2419"/>
    <tag k="addr:street" v="Walton Road"/>
    <tag k="addr:state" v="VT"/>
    <tag k="ref:vcgi:esiteid" v="611534"/>
  </node>
</osm>
