<?xml version="1.0" encoding="UTF-8"?>
<osm version="0.6" generator="JOSM">
  <node id="-660" visible="true" lat="44.56386017" lon="-72.58531901">
    <tag k="addr:city" v="Morrisville"/>
    <tag k="addr:housenumber" v="548"/>
    <tag k="addr:street" v="Park Street"/>
    <tag k="addr:state" v="VT"/>
    <tag k="ref:vcgi:esiteid" v="169249"/>
  </node>
  <node id="-734" visible="true" lat="44.56246235" lon="-72.59384295">
    <tag k="addr:city" v="Morrisville"/>
    <tag k="addr:housenumber" v="122"/>
    <tag k="addr:street" v="Park Street"/>
    <tag k="addr:state" v="VT"/>
    <tag k="ref:vcgi:esiteid" v="169334"/>
  </node>
  <node id="-748" visible="true" lat="44.56223875" lon="-72.59571307">
    <tag k="addr:city" v="Morrisville"/>
    <tag k="addr:housenumber" v="7"/>
    <tag k="addr:street" v="Richmond Street"/>
    <tag k="addr:state" v="VT"/>
    <tag k="ref:vcgi:esiteid" v="169349"/>
  </node>
  <node id="-752" visible="true" lat="44.56207297" lon="-72.59825508">
    <tag k="addr:city" v="Morrisville"/>
    <tag k="addr:housenumber" v="16"/>
    <tag k="addr:street" v="Portland Street"/>
    <tag k="addr:state" v="VT"/>
    <tag k="ref:vcgi:esiteid" v="169354"/>
  </node>
  <node id="-754" visible="true" lat="44.56209467" lon="-72.59648593">
    <tag k="addr:city" v="Morrisville"/>
    <tag k="addr:housenumber" v="85"/>
    <tag k="addr:street" v="Upper Main Street"/>
    <tag k="addr:state" v="VT"/>
    <tag k="ref:vcgi:esiteid" v="169356"/>
  </node>
  <node id="-2399" visible="true" lat="44.57122755" lon="-72.58600207">
    <tag k="addr:city" v="Morrisville"/>
    <tag k="addr:housenumber" v="28"/>
    <tag k="addr:street" v="James Road"/>
    <tag k="addr:state" v="VT"/>
    <tag k="ref:vcgi:esiteid" v="342920"/>
  </node>
</osm>
