<?xml version="1.0" encoding="UTF-8"?>
<osm version="0.6" generator="JOSM">
  <node id="-115" visible="true" lat="44.58585619" lon="-72.60278493">
    <!-- conflict: "863 Vermont Route 15 West, Morristown, VT" No match in OSM, but a different address exists <5m away: "863 Vt Route 15 West, Morristown, VT" -->
    <tag k="addr:city" v="Morristown"/>
    <tag k="addr:housenumber" v="863"/>
    <tag k="addr:street" v="Vermont Route 15 West"/>
    <tag k="addr:state" v="VT"/>
    <tag k="ref:vcgi:esiteid" v="168618"/>
  </node>
  <node id="-126" visible="true" lat="44.5844308" lon="-72.60057402">
    <!-- conflict: "746 Vermont Route 15 West, Morristown, VT" No match in OSM, but a different address exists <5m away: "746 Vt Route 15 West, Morristown, VT" -->
    <tag k="addr:city" v="Morristown"/>
    <tag k="addr:housenumber" v="746"/>
    <tag k="addr:street" v="Vermont Route 15 West"/>
    <tag k="addr:state" v="VT"/>
    <tag k="ref:vcgi:esiteid" v="168629"/>
  </node>
  <node id="-134" visible="true" lat="44.58309752" lon="-72.59917969">
    <!-- conflict: "630 Vermont Route 15 West, Morristown, VT" No match in OSM, but a different address exists <5m away: "630 Vt Route 15 West, Morristown, VT" -->
    <tag k="addr:city" v="Morristown"/>
    <tag k="addr:housenumber" v="630"/>
    <tag k="addr:street" v="Vermont Route 15 West"/>
    <tag k="addr:state" v="VT"/>
    <tag k="ref:vcgi:esiteid" v="168638"/>
  </node>
  <node id="-136" visible="true" lat="44.58293819" lon="-72.59893839">
    <!-- conflict: "612 Vermont Route 15 West, Morristown, VT" No match in OSM, but a different address exists <5m away: "612 Vt Route 15 West, Morristown, VT" -->
    <tag k="addr:city" v="Morristown"/>
    <tag k="addr:housenumber" v="612"/>
    <tag k="addr:street" v="Vermont Route 15 West"/>
    <tag k="addr:state" v="VT"/>
    <tag k="ref:vcgi:esiteid" v="168642"/>
  </node>
  <node id="-142" visible="true" lat="44.58274353" lon="-72.59880074">
    <!-- conflict: "592 Vermont Route 15 West, Morristown, VT" No match in OSM, but a different address exists <5m away: "592 Vt Route 15 West, Morristown, VT" -->
    <tag k="addr:city" v="Morristown"/>
    <tag k="addr:housenumber" v="592"/>
    <tag k="addr:street" v="Vermont Route 15 West"/>
    <tag k="addr:state" v="VT"/>
    <tag k="ref:vcgi:esiteid" v="168648"/>
  </node>
  <node id="-145" visible="true" lat="44.58220124" lon="-72.59817725">
    <!-- conflict: "558 Vermont Route 15 West, Morristown, VT" No match in OSM, but a different address exists <5m away: "558 Vt Route 15 West, Morristown, VT" -->
    <tag k="addr:city" v="Morristown"/>
    <tag k="addr:housenumber" v="558"/>
    <tag k="addr:street" v="Vermont Route 15 West"/>
    <tag k="addr:state" v="VT"/>
    <tag k="ref:vcgi:esiteid" v="168651"/>
  </node>
  <node id="-178" visible="true" lat="44.58067742" lon="-72.59731176">
    <!-- conflict: "434 Vermont Route 15 West, Morristown, VT" No match in OSM, but a different address exists <5m away: "434 Vt Route 15 West, Morristown, VT" -->
    <tag k="addr:city" v="Morristown"/>
    <tag k="addr:housenumber" v="434"/>
    <tag k="addr:street" v="Vermont Route 15 West"/>
    <tag k="addr:state" v="VT"/>
    <tag k="ref:vcgi:esiteid" v="168685"/>
  </node>
  <node id="-191" visible="true" lat="44.58031992" lon="-72.59835931">
    <!-- conflict: "423 Vermont Route 15 West, Morristown, VT" No match in OSM, but a different address exists <5m away: "423 Vt Route 15 West, Morristown, VT" -->
    <tag k="addr:city" v="Morristown"/>
    <tag k="addr:housenumber" v="423"/>
    <tag k="addr:street" v="Vermont Route 15 West"/>
    <tag k="addr:state" v="VT"/>
    <tag k="ref:vcgi:esiteid" v="168698"/>
  </node>
  <node id="-199" visible="true" lat="44.58013903" lon="-72.59709955">
    <!-- conflict: "396 Vermont Route 15 West, Morristown, VT" No match in OSM, but a different address exists <5m away: "396 Vt Route 15 West, Morristown, VT" -->
    <tag k="addr:city" v="Morristown"/>
    <tag k="addr:housenumber" v="396"/>
    <tag k="addr:street" v="Vermont Route 15 West"/>
    <tag k="addr:state" v="VT"/>
    <tag k="ref:vcgi:esiteid" v="168706"/>
  </node>
  <node id="-221" visible="true" lat="44.57964783" lon="-72.59683648">
    <!-- conflict: "356 Vermont Route 15 West, Morristown, VT" No match in OSM, but a different address exists <5m away: "356 Vt Route 15 West, Morristown, VT" -->
    <tag k="addr:city" v="Morristown"/>
    <tag k="addr:housenumber" v="356"/>
    <tag k="addr:street" v="Vermont Route 15 West"/>
    <tag k="addr:state" v="VT"/>
    <tag k="ref:vcgi:esiteid" v="168729"/>
  </node>
  <node id="-241" visible="true" lat="44.57868594" lon="-72.59653019">
    <!-- conflict: "302 Vermont Route 15 West, Morristown, VT" No match in OSM, but a different address exists <5m away: "302 Vt Route 15 West, Morristown, VT" -->
    <tag k="addr:city" v="Morristown"/>
    <tag k="addr:housenumber" v="302"/>
    <tag k="addr:street" v="Vermont Route 15 West"/>
    <tag k="addr:state" v="VT"/>
    <tag k="ref:vcgi:esiteid" v="168751"/>
  </node>
  <node id="-244" visible="true" lat="44.57859896" lon="-72.59716483">
    <!-- conflict: "303 Vermont Route 15 West, Morristown, VT" No match in OSM, but a different address exists <5m away: "303 Vt Route 15 West, Morristown, VT" -->
    <tag k="addr:city" v="Morristown"/>
    <tag k="addr:housenumber" v="303"/>
    <tag k="addr:street" v="Vermont Route 15 West"/>
    <tag k="addr:state" v="VT"/>
    <tag k="ref:vcgi:esiteid" v="168754"/>
  </node>
  <node id="-271" visible="true" lat="44.5776757" lon="-72.5964202">
    <!-- conflict: "231 Vermont Route 15 West, Morristown, VT" No match in OSM, but a different address exists <5m away: "231 Vt Route 15 West, Morristown, VT" -->
    <tag k="addr:city" v="Morristown"/>
    <tag k="addr:housenumber" v="231"/>
    <tag k="addr:street" v="Vermont Route 15 West"/>
    <tag k="addr:state" v="VT"/>
    <tag k="ref:vcgi:esiteid" v="168782"/>
  </node>
  <node id="-280" visible="true" lat="44.57730479" lon="-72.59589937">
    <!-- conflict: "199 Vermont Route 15 West, Morristown, VT" No match in OSM, but a different address exists <5m away: "199 Vt Route 15 West, Morristown, VT" -->
    <tag k="addr:city" v="Morristown"/>
    <tag k="addr:housenumber" v="199"/>
    <tag k="addr:street" v="Vermont Route 15 West"/>
    <tag k="addr:state" v="VT"/>
    <tag k="ref:vcgi:esiteid" v="168792"/>
  </node>
  <node id="-285" visible="true" lat="44.57714946" lon="-72.59566384">
    <!-- conflict: "187 Vermont Route 15 West, Morristown, VT" No match in OSM, but a different address exists <5m away: "187 Vt Route 15 West, Morristown, VT" -->
    <tag k="addr:city" v="Morristown"/>
    <tag k="addr:housenumber" v="187"/>
    <tag k="addr:street" v="Vermont Route 15 West"/>
    <tag k="addr:state" v="VT"/>
    <tag k="ref:vcgi:esiteid" v="168798"/>
  </node>
  <node id="-291" visible="true" lat="44.57704337" lon="-72.59383747">
    <!-- conflict: "116 Vermont Route 15 West, Morristown, VT" No match in OSM, but a different address exists <5m away: "116 VT Route 15 West, Morristown, VT" -->
    <tag k="addr:city" v="Morristown"/>
    <tag k="addr:housenumber" v="116"/>
    <tag k="addr:street" v="Vermont Route 15 West"/>
    <tag k="addr:state" v="VT"/>
    <tag k="ref:vcgi:esiteid" v="168804"/>
  </node>
  <node id="-295" visible="true" lat="44.57671169" lon="-72.59538922">
    <!-- conflict: "157 Vermont Route 15 West, Morristown, VT" No match in OSM, but a different address exists <5m away: "157 Vt Route 15 West, Morristown, VT" -->
    <tag k="addr:city" v="Morristown"/>
    <tag k="addr:housenumber" v="157"/>
    <tag k="addr:street" v="Vermont Route 15 West"/>
    <tag k="addr:state" v="VT"/>
    <tag k="ref:vcgi:esiteid" v="168808"/>
  </node>
  <node id="-297" visible="true" lat="44.5768425" lon="-72.59323139">
    <!-- conflict: "78 Vermont Route 15 West, Morristown, VT" No match in OSM, but a different address exists <5m away: "78 VT Route 15 West, Morristown, VT" -->
    <tag k="addr:city" v="Morristown"/>
    <tag k="addr:housenumber" v="78"/>
    <tag k="addr:street" v="Vermont Route 15 West"/>
    <tag k="addr:state" v="VT"/>
    <tag k="ref:vcgi:esiteid" v="168810"/>
  </node>
  <node id="-309" visible="true" lat="44.57646297" lon="-72.59303095">
    <!-- conflict: "56 Vermont Route 15 West, Morristown, VT" No match in OSM, but a different address exists <5m away: "56 VT Route 15 West, Morristown, VT" -->
    <tag k="addr:city" v="Morristown"/>
    <tag k="addr:housenumber" v="56"/>
    <tag k="addr:street" v="Vermont Route 15 West"/>
    <tag k="addr:state" v="VT"/>
    <tag k="ref:vcgi:esiteid" v="168823"/>
  </node>
  <node id="-344" visible="true" lat="44.57404995" lon="-72.57020565">
    <!-- conflict: "100 White Pine Lane, Morristown, VT" No match in OSM, but a different address exists <5m away: "811 Frazier Road, Morristown, VT" -->
    <tag k="addr:city" v="Morristown"/>
    <tag k="addr:housenumber" v="100"/>
    <tag k="addr:street" v="White Pine Lane"/>
    <tag k="addr:state" v="VT"/>
    <tag k="ref:vcgi:esiteid" v="168865"/>
  </node>
  <node id="-375" visible="true" lat="44.5724269" lon="-72.570635">
    <!-- conflict: "74 White Pine Lane, Morristown, VT" No match in OSM, but a different address exists <5m away: "809 Frazier Road, Morristown, VT" -->
    <tag k="addr:city" v="Morristown"/>
    <tag k="addr:housenumber" v="74"/>
    <tag k="addr:street" v="White Pine Lane"/>
    <tag k="addr:state" v="VT"/>
    <tag k="ref:vcgi:esiteid" v="168902"/>
  </node>
  <node id="-394" visible="true" lat="44.57153047" lon="-72.58528859">
    <!-- conflict: "445 Vermont Route 15 East, Morristown, VT" No match in OSM, but a different address exists <5m away: "445 Vt Route 15 East, Morristown, VT" -->
    <tag k="addr:city" v="Morristown"/>
    <tag k="addr:housenumber" v="445"/>
    <tag k="addr:street" v="Vermont Route 15 East"/>
    <tag k="addr:state" v="VT"/>
    <tag k="ref:vcgi:esiteid" v="168928"/>
  </node>
  <node id="-427" visible="true" lat="44.57001512" lon="-72.58532587">
    <!-- conflict: "540 Vermont Route 15 East, Morristown, VT" No match in OSM, but a different address exists <5m away: "540 Vt Route 15 East, Morristown, VT" -->
    <tag k="addr:city" v="Morristown"/>
    <tag k="addr:housenumber" v="540"/>
    <tag k="addr:street" v="Vermont Route 15 East"/>
    <tag k="addr:state" v="VT"/>
    <tag k="ref:vcgi:esiteid" v="168970"/>
  </node>
  <node id="-439" visible="true" lat="44.56959719" lon="-72.58492774">
    <!-- conflict: "574 Vermont Route 15 East, Morristown, VT" No match in OSM, but a different address exists <5m away: "574 Vt Route 15 East, Morristown, VT" -->
    <tag k="addr:city" v="Morristown"/>
    <tag k="addr:housenumber" v="574"/>
    <tag k="addr:street" v="Vermont Route 15 East"/>
    <tag k="addr:state" v="VT"/>
    <tag k="ref:vcgi:esiteid" v="168987"/>
  </node>
  <node id="-459" visible="true" lat="44.569286" lon="-72.58318506">
    <!-- conflict: "625 Vermont Route 15 East, Morristown, VT" No match in OSM, but a different address exists <5m away: "625 Vt Route 15 East, Morristown, VT" -->
    <tag k="addr:city" v="Morristown"/>
    <tag k="addr:housenumber" v="625"/>
    <tag k="addr:street" v="Vermont Route 15 East"/>
    <tag k="addr:state" v="VT"/>
    <tag k="ref:vcgi:esiteid" v="169013"/>
  </node>
  <node id="-498" visible="true" lat="44.56862368" lon="-72.5343845">
    <!-- conflict: "3154 Vermont Route 15 East, Morristown, VT" Fuzzy match to "3154 Vermont Route 15 East, , " -->
    <tag k="addr:city" v="Morristown"/>
    <tag k="addr:housenumber" v="3154"/>
    <tag k="addr:street" v="Vermont Route 15 East"/>
    <tag k="addr:state" v="VT"/>
    <tag k="ref:vcgi:esiteid" v="169059"/>
  </node>
  <node id="-660" visible="true" lat="44.56386017" lon="-72.58531901">
    <!-- conflict: "548 Park Street, Morristown, VT" Fuzzy match to "548 Park Street, Morrisville, VT" -->
    <tag k="addr:city" v="Morristown"/>
    <tag k="addr:housenumber" v="548"/>
    <tag k="addr:street" v="Park Street"/>
    <tag k="addr:state" v="VT"/>
    <tag k="ref:vcgi:esiteid" v="169249"/>
  </node>
  <node id="-738" visible="true" lat="44.56240529" lon="-72.59031458">
    <!-- conflict: "202 Copley Avenue, Morristown, VT" Fuzzy match to "202 Copley Avenue, Morrisville, VT" -->
    <tag k="addr:city" v="Morristown"/>
    <tag k="addr:housenumber" v="202"/>
    <tag k="addr:street" v="Copley Avenue"/>
    <tag k="addr:state" v="VT"/>
    <tag k="ref:vcgi:esiteid" v="169339"/>
  </node>
  <node id="-748" visible="true" lat="44.56223875" lon="-72.59571307">
    <!-- conflict: "7 Richmond Street, Morristown, VT" Fuzzy match to "7 Richmond Street, Morrisville, VT" -->
    <tag k="addr:city" v="Morristown"/>
    <tag k="addr:housenumber" v="7"/>
    <tag k="addr:street" v="Richmond Street"/>
    <tag k="addr:state" v="VT"/>
    <tag k="ref:vcgi:esiteid" v="169349"/>
  </node>
  <node id="-752" visible="true" lat="44.56207297" lon="-72.59825508">
    <!-- conflict: "16 Portland Street, Morristown, VT" Fuzzy match to "16 Portland Street, Morrisville, VT" -->
    <tag k="addr:city" v="Morristown"/>
    <tag k="addr:housenumber" v="16"/>
    <tag k="addr:street" v="Portland Street"/>
    <tag k="addr:state" v="VT"/>
    <tag k="ref:vcgi:esiteid" v="169354"/>
  </node>
  <node id="-754" visible="true" lat="44.56209467" lon="-72.59648593">
    <!-- conflict: "85 Upper Main Street, Morristown, VT" Fuzzy match to "85 Upper Main Street, Morrisville, VT" -->
    <tag k="addr:city" v="Morristown"/>
    <tag k="addr:housenumber" v="85"/>
    <tag k="addr:street" v="Upper Main Street"/>
    <tag k="addr:state" v="VT"/>
    <tag k="ref:vcgi:esiteid" v="169356"/>
  </node>
  <node id="-757" visible="true" lat="44.56219809" lon="-72.59652301">
    <!-- conflict: "91 Upper Main Street, Morristown, VT" No match in OSM, but a different address exists <5m away: "85 Upper Main Street, Morrisville, VT" -->
    <tag k="addr:city" v="Morristown"/>
    <tag k="addr:housenumber" v="91"/>
    <tag k="addr:street" v="Upper Main Street"/>
    <tag k="addr:state" v="VT"/>
    <tag k="ref:vcgi:esiteid" v="169361"/>
  </node>
  <node id="-784" visible="true" lat="44.56171515" lon="-72.60140317">
    <!-- conflict: "56 Feline Loop, Morristown, VT" No match in OSM, but a different address exists <5m away: "56 A Street, Morristown, VT" -->
    <tag k="addr:city" v="Morristown"/>
    <tag k="addr:housenumber" v="56"/>
    <tag k="addr:street" v="Feline Loop"/>
    <tag k="addr:state" v="VT"/>
    <tag k="ref:vcgi:esiteid" v="169398"/>
  </node>
  <node id="-790" visible="true" lat="44.56167235" lon="-72.60101972">
    <!-- conflict: "36 Feline Loop, Morristown, VT" No match in OSM, but a different address exists <5m away: "36 A Street, Morristown, VT" -->
    <tag k="addr:city" v="Morristown"/>
    <tag k="addr:housenumber" v="36"/>
    <tag k="addr:street" v="Feline Loop"/>
    <tag k="addr:state" v="VT"/>
    <tag k="ref:vcgi:esiteid" v="169405"/>
  </node>
  <node id="-799" visible="true" lat="44.56145347" lon="-72.59512322">
    <!-- conflict: "162 Upper Main Street, Morristown, VT" No match in OSM, but a different address exists <5m away: " , Morrisville, VT" -->
    <tag k="addr:city" v="Morristown"/>
    <tag k="addr:housenumber" v="162"/>
    <tag k="addr:street" v="Upper Main Street"/>
    <tag k="addr:state" v="VT"/>
    <tag k="ref:vcgi:esiteid" v="169415"/>
  </node>
  <node id="-912" visible="true" lat="44.5600549" lon="-72.62539362">
    <!-- conflict: "56 Walton Road, Morristown, VT" No match in OSM, but a different address exists <5m away: "1058 Stagecoach Road, Morristown, VT" -->
    <tag k="addr:city" v="Morristown"/>
    <tag k="addr:housenumber" v="56"/>
    <tag k="addr:street" v="Walton Road"/>
    <tag k="addr:state" v="VT"/>
    <tag k="ref:vcgi:esiteid" v="169544"/>
  </node>
  <node id="-1015" visible="true" lat="44.55864291" lon="-72.60473686">
    <!-- conflict: "4 Gordon Lane, Morristown, VT" No match in OSM, but a different address exists <5m away: "426 Jersey Heights, Morristown, VT" -->
    <tag k="addr:city" v="Morristown"/>
    <tag k="addr:housenumber" v="4"/>
    <tag k="addr:street" v="Gordon Lane"/>
    <tag k="addr:state" v="VT"/>
    <tag k="ref:vcgi:esiteid" v="169656"/>
  </node>
  <node id="-1032" visible="true" lat="44.55823898" lon="-72.60726937">
    <!-- conflict: "556 Laporte Road, Morristown, VT" No match in OSM, but a different address exists <5m away: "556 Jersey Heights, Morristown, VT" -->
    <tag k="addr:city" v="Morristown"/>
    <tag k="addr:housenumber" v="556"/>
    <tag k="addr:street" v="Laporte Road"/>
    <tag k="addr:state" v="VT"/>
    <tag k="ref:vcgi:esiteid" v="169677"/>
  </node>
  <node id="-1106" visible="true" lat="44.5574384" lon="-72.58415817">
    <!-- conflict: "20 Loati Lane, Morristown, VT" No match in OSM, but a different address exists <5m away: "848 Elmore Street, Morristown, VT" -->
    <tag k="addr:city" v="Morristown"/>
    <tag k="addr:housenumber" v="20"/>
    <tag k="addr:street" v="Loati Lane"/>
    <tag k="addr:state" v="VT"/>
    <tag k="ref:vcgi:esiteid" v="169760"/>
  </node>
  <node id="-1116" visible="true" lat="44.55716295" lon="-72.60815449">
    <!-- conflict: "589 Laporte Road, Morristown, VT" No match in OSM, but a different address exists <5m away: "589 Jersey Heights, Morristown, VT" -->
    <tag k="addr:city" v="Morristown"/>
    <tag k="addr:housenumber" v="589"/>
    <tag k="addr:street" v="Laporte Road"/>
    <tag k="addr:state" v="VT"/>
    <tag k="ref:vcgi:esiteid" v="169770"/>
  </node>
  <node id="-1267" visible="true" lat="44.55398576" lon="-72.6209071">
    <!-- conflict: "361 Morristown Corners Road, Morristown, VT" No match in OSM, but a different address exists <5m away: "359 Morristown Corners Road, Morristown, VT" -->
    <tag k="addr:city" v="Morristown"/>
    <tag k="addr:housenumber" v="361"/>
    <tag k="addr:street" v="Morristown Corners Road"/>
    <tag k="addr:state" v="VT"/>
    <tag k="ref:vcgi:esiteid" v="169950"/>
  </node>
  <node id="-1520" visible="true" lat="44.53679477" lon="-72.61571879">
    <!-- conflict: "2305 Laporte Road, Morristown, VT" Fuzzy match to "2305 Laporte Road, Morrisville, VT" -->
    <tag k="addr:city" v="Morristown"/>
    <tag k="addr:housenumber" v="2305"/>
    <tag k="addr:street" v="Laporte Road"/>
    <tag k="addr:state" v="VT"/>
    <tag k="ref:vcgi:esiteid" v="170215"/>
  </node>
  <node id="-1597" visible="true" lat="44.53029593" lon="-72.59013377">
    <!-- conflict: "160 Goose Farm Lane, Morristown, VT" No match in OSM, but a different address exists <5m away: "2031 Randolph Road, Morristown, VT" -->
    <tag k="addr:city" v="Morristown"/>
    <tag k="addr:housenumber" v="160"/>
    <tag k="addr:street" v="Goose Farm Lane"/>
    <tag k="addr:state" v="VT"/>
    <tag k="ref:vcgi:esiteid" v="170293"/>
  </node>
  <node id="-2064" visible="true" lat="44.55685719" lon="-72.60655016">
    <!-- conflict: "47 Jersey Way, Morristown, VT" Fuzzy match to "47 Jersey Court, Morristown, VT" -->
    <tag k="addr:city" v="Morristown"/>
    <tag k="addr:housenumber" v="47"/>
    <tag k="addr:street" v="Jersey Way"/>
    <tag k="addr:state" v="VT"/>
    <tag k="ref:vcgi:esiteid" v="170778"/>
  </node>
  <node id="-2322" visible="true" lat="44.55637566" lon="-72.60685537">
    <!-- conflict: "55 Jersey Way, Morristown, VT" No match in OSM, but a different address exists <5m away: "75 Jersey Way, Morristown, VT" -->
    <tag k="addr:city" v="Morristown"/>
    <tag k="addr:housenumber" v="55"/>
    <tag k="addr:street" v="Jersey Way"/>
    <tag k="addr:state" v="VT"/>
    <tag k="ref:vcgi:esiteid" v="328844"/>
  </node>
  <node id="-2324" visible="true" lat="44.52638263" lon="-72.58300499">
    <!-- conflict: "652 Earl Gray Road, Morristown, VT" Fuzzy match to "652 Earl Gray Road, Morrisville, VT" -->
    <tag k="addr:city" v="Morristown"/>
    <tag k="addr:housenumber" v="652"/>
    <tag k="addr:street" v="Earl Gray Road"/>
    <tag k="addr:state" v="VT"/>
    <tag k="ref:vcgi:esiteid" v="328846"/>
  </node>
  <node id="-2328" visible="true" lat="44.56883163" lon="-72.58408014">
    <!-- conflict: "624 Vermont Route 15 East, Morristown, VT" No match in OSM, but a different address exists <5m away: "624 Vt Route 15 East, Morristown, VT" -->
    <tag k="addr:city" v="Morristown"/>
    <tag k="addr:housenumber" v="624"/>
    <tag k="addr:street" v="Vermont Route 15 East"/>
    <tag k="addr:state" v="VT"/>
    <tag k="ref:vcgi:esiteid" v="330951"/>
  </node>
  <node id="-2371" visible="true" lat="44.55461431" lon="-72.62129344">
    <!-- conflict: "405 Morristown Corners Road, Morristown, VT" No match in OSM, but a different address exists <5m away: "369 Morristown Corners Road, Morristown, VT" -->
    <tag k="addr:city" v="Morristown"/>
    <tag k="addr:housenumber" v="405"/>
    <tag k="addr:street" v="Morristown Corners Road"/>
    <tag k="addr:state" v="VT"/>
    <tag k="ref:vcgi:esiteid" v="337314"/>
  </node>
  <node id="-2406" visible="true" lat="44.52523975" lon="-72.56583356">
    <!-- conflict: "1995 Lower Elmore Mountain Road, Morristown, VT" No match in OSM, but a different address exists <5m away: "2013 Lower Elmore Mountain Road, Morristown, VT" -->
    <tag k="addr:city" v="Morristown"/>
    <tag k="addr:housenumber" v="1995"/>
    <tag k="addr:street" v="Lower Elmore Mountain Road"/>
    <tag k="addr:state" v="VT"/>
    <tag k="ref:vcgi:esiteid" v="344313"/>
  </node>
  <node id="-2500" visible="true" lat="44.57062743" lon="-72.5845531">
    <!-- conflict: "541 Vermont Route 15 East, Morristown, VT" No match in OSM, but a different address exists <5m away: "541 Vt Route 15 East, Morristown, VT" -->
    <tag k="addr:city" v="Morristown"/>
    <tag k="addr:housenumber" v="541"/>
    <tag k="addr:street" v="Vermont Route 15 East"/>
    <tag k="addr:state" v="VT"/>
    <tag k="ref:vcgi:esiteid" v="453600"/>
  </node>
  <node id="-2573" visible="true" lat="44.55421125" lon="-72.57947123">
    <!-- conflict: "224 Pope Meadow Drive, Morristown, VT" No match in OSM, but a different address exists <5m away: "236 Pope Meadow Drive, Morristown, VT" -->
    <tag k="addr:city" v="Morristown"/>
    <tag k="addr:housenumber" v="224"/>
    <tag k="addr:street" v="Pope Meadow Drive"/>
    <tag k="addr:state" v="VT"/>
    <tag k="ref:vcgi:esiteid" v="613494"/>
  </node>
  <node id="-2793" visible="true" lat="44.55800557" lon="-72.60314222">
    <!-- conflict: "50 Cheney Lane, Morristown, VT" No match in OSM, but a different address exists <5m away: "389 Jersey Heights, Morristown, VT" -->
    <tag k="addr:city" v="Morristown"/>
    <tag k="addr:housenumber" v="50"/>
    <tag k="addr:street" v="Cheney Lane"/>
    <tag k="addr:state" v="VT"/>
    <tag k="ref:vcgi:esiteid" v="760111"/>
  </node>
  <node id="-2864" visible="true" lat="44.55852382" lon="-72.59452329">
    <!-- conflict: "26 Olive Street, Morristown, VT" Fuzzy match to "26 East Olive Street, Morristown, VT" -->
    <tag k="addr:city" v="Morristown"/>
    <tag k="addr:housenumber" v="26"/>
    <tag k="addr:street" v="Olive Street"/>
    <tag k="addr:state" v="VT"/>
    <tag k="ref:vcgi:esiteid" v="762571"/>
  </node>
  <node id="-3023" visible="true" lat="44.51834795" lon="-72.68492463">
    <!-- conflict: "580 Moren Loop, Morristown, VT" No match in OSM, but a different address exists <5m away: "500 Moren Loop, Morristown, VT" -->
    <tag k="addr:city" v="Morristown"/>
    <tag k="addr:housenumber" v="580"/>
    <tag k="addr:street" v="Moren Loop"/>
    <tag k="addr:state" v="VT"/>
    <tag k="ref:vcgi:esiteid" v="1051011"/>
  </node>
</osm>
