<?xml version="1.0" encoding="UTF-8"?>
<osm version="0.6" generator="JOSM">
  <node id="-100" visible="true" lat="43.48256128" lon="-72.82297644">
    <tag k="addr:housenumber" v="682"/>
    <tag k="addr:street" v="Russellville Road"/>
    <tag k="addr:state" v="VT"/>
    <tag k="ref:vcgi:esiteid" v="170979"/>
  </node>
  <node id="-101" visible="true" lat="43.48235904" lon="-72.82554507">
    <tag k="addr:housenumber" v="752"/>
    <tag k="addr:street" v="Russellville Road"/>
    <tag k="addr:state" v="VT"/>
    <tag k="ref:vcgi:esiteid" v="170980"/>
  </node>
  <node id="-102" visible="true" lat="43.48147706" lon="-72.822895">
    <tag k="addr:housenumber" v="680"/>
    <tag k="addr:street" v="Russellville Road"/>
    <tag k="addr:state" v="VT"/>
    <tag k="ref:vcgi:esiteid" v="170983"/>
  </node>
  <node id="-103" visible="true" lat="43.48143796" lon="-72.84671681">
    <tag k="addr:housenumber" v="1753"/>
    <tag k="addr:street" v="Freeman Brook Road"/>
    <tag k="addr:state" v="VT"/>
    <tag k="ref:vcgi:esiteid" v="170984"/>
  </node>
  <node id="-104" visible="true" lat="43.48086924" lon="-72.85347726">
    <tag k="addr:housenumber" v="29"/>
    <tag k="addr:street" v="Lushus Acres Lane"/>
    <tag k="addr:state" v="VT"/>
    <tag k="ref:vcgi:esiteid" v="170985"/>
  </node>
  <node id="-106" visible="true" lat="43.48088048" lon="-72.84588558">
    <tag k="addr:housenumber" v="1744"/>
    <tag k="addr:street" v="Freeman Brook Road"/>
    <tag k="addr:state" v="VT"/>
    <tag k="ref:vcgi:esiteid" v="170987"/>
  </node>
  <node id="-107" visible="true" lat="43.48062465" lon="-72.85257082">
    <tag k="addr:housenumber" v="1409"/>
    <tag k="addr:street" v="Freeman Brook Road"/>
    <tag k="addr:state" v="VT"/>
    <tag k="ref:vcgi:esiteid" v="170988"/>
  </node>
  <node id="-108" visible="true" lat="43.48069902" lon="-72.84837992">
    <tag k="addr:housenumber" v="1645"/>
    <tag k="addr:street" v="Freeman Brook Road"/>
    <tag k="addr:state" v="VT"/>
    <tag k="ref:vcgi:esiteid" v="170989"/>
  </node>
  <node id="-109" visible="true" lat="43.48054274" lon="-72.81990939">
    <tag k="addr:housenumber" v="252"/>
    <tag k="addr:street" v="Hen Farm Road"/>
    <tag k="addr:state" v="VT"/>
    <tag k="ref:vcgi:esiteid" v="170990"/>
  </node>
  <node id="-112" visible="true" lat="43.48029421" lon="-72.79983753">
    <tag k="addr:housenumber" v="166"/>
    <tag k="addr:street" v="Windy Hill Lane"/>
    <tag k="addr:state" v="VT"/>
    <tag k="ref:vcgi:esiteid" v="170993"/>
  </node>
  <node id="-114" visible="true" lat="43.47953377" lon="-72.82569741">
    <tag k="addr:housenumber" v="589"/>
    <tag k="addr:street" v="Russellville Road"/>
    <tag k="addr:state" v="VT"/>
    <tag k="ref:vcgi:esiteid" v="170995"/>
  </node>
  <node id="-115" visible="true" lat="43.47918751" lon="-72.82404849">
    <tag k="addr:housenumber" v="534"/>
    <tag k="addr:street" v="Russellville Road"/>
    <tag k="addr:state" v="VT"/>
    <tag k="ref:vcgi:esiteid" v="170996"/>
  </node>
  <node id="-116" visible="true" lat="43.47835304" lon="-72.78726894">
    <tag k="addr:housenumber" v="752"/>
    <tag k="addr:street" v="Perry Road"/>
    <tag k="addr:state" v="VT"/>
    <tag k="ref:vcgi:esiteid" v="170997"/>
  </node>
  <node id="-117" visible="true" lat="43.47823478" lon="-72.79913222">
    <tag k="addr:housenumber" v="24"/>
    <tag k="addr:street" v="Windy Hill Lane"/>
    <tag k="addr:state" v="VT"/>
    <tag k="ref:vcgi:esiteid" v="170998"/>
  </node>
  <node id="-123" visible="true" lat="43.47591951" lon="-72.76140537">
    <tag k="addr:housenumber" v="1935"/>
    <tag k="addr:street" v="Lake Ninevah Road"/>
    <tag k="addr:state" v="VT"/>
    <tag k="ref:vcgi:esiteid" v="171004"/>
  </node>
  <node id="-125" visible="true" lat="43.47545898" lon="-72.7619021">
    <tag k="addr:housenumber" v="1889"/>
    <tag k="addr:street" v="Lake Ninevah Road"/>
    <tag k="addr:state" v="VT"/>
    <tag k="ref:vcgi:esiteid" v="171006"/>
  </node>
  <node id="-126" visible="true" lat="43.47523851" lon="-72.75629003">
    <tag k="addr:housenumber" v="289"/>
    <tag k="addr:street" v="Hastings Lane"/>
    <tag k="addr:state" v="VT"/>
    <tag k="ref:vcgi:esiteid" v="171007"/>
  </node>
  <node id="-128" visible="true" lat="43.47484207" lon="-72.75727844">
    <tag k="addr:housenumber" v="252"/>
    <tag k="addr:street" v="Hastings Lane"/>
    <tag k="addr:state" v="VT"/>
    <tag k="ref:vcgi:esiteid" v="171009"/>
  </node>
  <node id="-130" visible="true" lat="43.47479546" lon="-72.75648239">
    <tag k="addr:housenumber" v="300"/>
    <tag k="addr:street" v="Hastings Lane"/>
    <tag k="addr:state" v="VT"/>
    <tag k="ref:vcgi:esiteid" v="171011"/>
  </node>
  <node id="-133" visible="true" lat="43.47393435" lon="-72.75555964">
    <tag k="addr:housenumber" v="124"/>
    <tag k="addr:street" v="Loop Road"/>
    <tag k="addr:state" v="VT"/>
    <tag k="ref:vcgi:esiteid" v="171015"/>
  </node>
  <node id="-135" visible="true" lat="43.47360448" lon="-72.82877167">
    <tag k="addr:housenumber" v="4171"/>
    <tag k="addr:street" v="Shunpike Road"/>
    <tag k="addr:state" v="VT"/>
    <tag k="ref:vcgi:esiteid" v="171019"/>
  </node>
  <node id="-136" visible="true" lat="43.47364419" lon="-72.75471474">
    <tag k="addr:housenumber" v="99"/>
    <tag k="addr:street" v="Loop Road"/>
    <tag k="addr:state" v="VT"/>
    <tag k="ref:vcgi:esiteid" v="171020"/>
  </node>
  <node id="-139" visible="true" lat="43.47326824" lon="-72.75548302">
    <tag k="addr:housenumber" v="132"/>
    <tag k="addr:street" v="Loop Road"/>
    <tag k="addr:state" v="VT"/>
    <tag k="ref:vcgi:esiteid" v="171023"/>
  </node>
  <node id="-141" visible="true" lat="43.47314928" lon="-72.75015112">
    <tag k="addr:housenumber" v="430"/>
    <tag k="addr:street" v="Loop Road"/>
    <tag k="addr:state" v="VT"/>
    <tag k="ref:vcgi:esiteid" v="171025"/>
  </node>
  <node id="-142" visible="true" lat="43.47327387" lon="-72.7514275">
    <tag k="addr:housenumber" v="574"/>
    <tag k="addr:street" v="Dam Road"/>
    <tag k="addr:state" v="VT"/>
    <tag k="ref:vcgi:esiteid" v="171026"/>
  </node>
  <node id="-143" visible="true" lat="43.47286224" lon="-72.8236618">
    <tag k="addr:housenumber" v="3902"/>
    <tag k="addr:street" v="Shunpike Road"/>
    <tag k="addr:state" v="VT"/>
    <tag k="ref:vcgi:esiteid" v="171027"/>
  </node>
  <node id="-144" visible="true" lat="43.47317585" lon="-72.75338784">
    <tag k="addr:housenumber" v="223"/>
    <tag k="addr:street" v="Loop Road"/>
    <tag k="addr:state" v="VT"/>
    <tag k="ref:vcgi:esiteid" v="171028"/>
  </node>
  <node id="-146" visible="true" lat="43.47368361" lon="-72.75082252">
    <tag k="addr:housenumber" v="401"/>
    <tag k="addr:street" v="Loop Road"/>
    <tag k="addr:state" v="VT"/>
    <tag k="ref:vcgi:esiteid" v="171030"/>
  </node>
  <node id="-147" visible="true" lat="43.47288338" lon="-72.7622749">
    <tag k="addr:housenumber" v="1708"/>
    <tag k="addr:street" v="Lake Ninevah Road"/>
    <tag k="addr:state" v="VT"/>
    <tag k="ref:vcgi:esiteid" v="171031"/>
  </node>
  <node id="-149" visible="true" lat="43.47161664" lon="-72.74370239">
    <tag k="addr:housenumber" v="2748"/>
    <tag k="addr:street" v="Sawyer Hill Road"/>
    <tag k="addr:state" v="VT"/>
    <tag k="ref:vcgi:esiteid" v="171033"/>
  </node>
  <node id="-150" visible="true" lat="43.47262186" lon="-72.76232063">
    <tag k="addr:housenumber" v="1698"/>
    <tag k="addr:street" v="Lake Ninevah Road"/>
    <tag k="addr:state" v="VT"/>
    <tag k="ref:vcgi:esiteid" v="171034"/>
  </node>
  <node id="-152" visible="true" lat="43.47237777" lon="-72.82034301">
    <tag k="addr:housenumber" v="3731"/>
    <tag k="addr:street" v="Shunpike Road"/>
    <tag k="addr:state" v="VT"/>
    <tag k="ref:vcgi:esiteid" v="171036"/>
  </node>
  <node id="-157" visible="true" lat="43.47236251" lon="-72.75360107">
    <tag k="addr:housenumber" v="246"/>
    <tag k="addr:street" v="Loop Road"/>
    <tag k="addr:state" v="VT"/>
    <tag k="ref:vcgi:esiteid" v="171041"/>
  </node>
  <node id="-158" visible="true" lat="43.47227478" lon="-72.75320434">
    <tag k="addr:housenumber" v="260"/>
    <tag k="addr:street" v="Loop Road"/>
    <tag k="addr:state" v="VT"/>
    <tag k="ref:vcgi:esiteid" v="171042"/>
  </node>
  <node id="-162" visible="true" lat="43.47192141" lon="-72.82679748">
    <tag k="addr:housenumber" v="4013"/>
    <tag k="addr:street" v="Shunpike Road"/>
    <tag k="addr:state" v="VT"/>
    <tag k="ref:vcgi:esiteid" v="171046"/>
  </node>
  <node id="-163" visible="true" lat="43.47193878" lon="-72.76263253">
    <tag k="addr:housenumber" v="1584"/>
    <tag k="addr:street" v="Lake Ninevah Road"/>
    <tag k="addr:state" v="VT"/>
    <tag k="ref:vcgi:esiteid" v="171047"/>
  </node>
  <node id="-168" visible="true" lat="43.47112731" lon="-72.74874484">
    <tag k="addr:housenumber" v="2733"/>
    <tag k="addr:street" v="Sawyer Hill Road"/>
    <tag k="addr:state" v="VT"/>
    <tag k="ref:vcgi:esiteid" v="171052"/>
  </node>
  <node id="-169" visible="true" lat="43.47133459" lon="-72.76460108">
    <tag k="addr:housenumber" v="1527"/>
    <tag k="addr:street" v="Lake Ninevah Road"/>
    <tag k="addr:state" v="VT"/>
    <tag k="ref:vcgi:esiteid" v="171053"/>
  </node>
  <node id="-177" visible="true" lat="43.47037482" lon="-72.74666955">
    <tag k="addr:housenumber" v="15"/>
    <tag k="addr:street" v="Tiny Mountain Road"/>
    <tag k="addr:state" v="VT"/>
    <tag k="ref:vcgi:esiteid" v="171061"/>
  </node>
  <node id="-180" visible="true" lat="43.470205" lon="-72.76454413">
    <tag k="addr:housenumber" v="1502"/>
    <tag k="addr:street" v="Lake Ninevah Road"/>
    <tag k="addr:state" v="VT"/>
    <tag k="ref:vcgi:esiteid" v="171064"/>
  </node>
  <node id="-181" visible="true" lat="43.47046516" lon="-72.74060225">
    <tag k="addr:housenumber" v="207"/>
    <tag k="addr:street" v="Tiny Mountain Road"/>
    <tag k="addr:state" v="VT"/>
    <tag k="ref:vcgi:esiteid" v="171065"/>
  </node>
  <node id="-182" visible="true" lat="43.47005051" lon="-72.76468375">
    <tag k="addr:housenumber" v="1490"/>
    <tag k="addr:street" v="Lake Ninevah Road"/>
    <tag k="addr:state" v="VT"/>
    <tag k="ref:vcgi:esiteid" v="171066"/>
  </node>
  <node id="-183" visible="true" lat="43.46979142" lon="-72.76470238">
    <tag k="addr:housenumber" v="1484"/>
    <tag k="addr:street" v="Lake Ninevah Road"/>
    <tag k="addr:state" v="VT"/>
    <tag k="ref:vcgi:esiteid" v="171067"/>
  </node>
  <node id="-184" visible="true" lat="43.47009431" lon="-72.76646652">
    <tag k="addr:housenumber" v="1375"/>
    <tag k="addr:street" v="Lake Ninevah Road"/>
    <tag k="addr:state" v="VT"/>
    <tag k="ref:vcgi:esiteid" v="171068"/>
  </node>
  <node id="-189" visible="true" lat="43.46943077" lon="-72.76089136">
    <tag k="addr:housenumber" v="204"/>
    <tag k="addr:street" v="Overlook Lane"/>
    <tag k="addr:state" v="VT"/>
    <tag k="ref:vcgi:esiteid" v="171073"/>
  </node>
  <node id="-190" visible="true" lat="43.46945693" lon="-72.77315426">
    <tag k="addr:housenumber" v="1081"/>
    <tag k="addr:street" v="Lake Ninevah Road"/>
    <tag k="addr:state" v="VT"/>
    <tag k="ref:vcgi:esiteid" v="171074"/>
  </node>
  <node id="-191" visible="true" lat="43.46925532" lon="-72.76106861">
    <tag k="addr:housenumber" v="206"/>
    <tag k="addr:street" v="Overlook Lane"/>
    <tag k="addr:state" v="VT"/>
    <tag k="ref:vcgi:esiteid" v="171075"/>
  </node>
  <node id="-192" visible="true" lat="43.46939834" lon="-72.76569828">
    <tag k="addr:housenumber" v="1414"/>
    <tag k="addr:street" v="Lake Ninevah Road"/>
    <tag k="addr:state" v="VT"/>
    <tag k="ref:vcgi:esiteid" v="171076"/>
  </node>
  <node id="-195" visible="true" lat="43.4687055" lon="-72.76763235">
    <tag k="addr:housenumber" v="1326"/>
    <tag k="addr:street" v="Lake Ninevah Road"/>
    <tag k="addr:state" v="VT"/>
    <tag k="ref:vcgi:esiteid" v="171079"/>
  </node>
  <node id="-196" visible="true" lat="43.46844359" lon="-72.7718537">
    <tag k="addr:housenumber" v="1056"/>
    <tag k="addr:street" v="Lake Ninevah Road"/>
    <tag k="addr:state" v="VT"/>
    <tag k="ref:vcgi:esiteid" v="171080"/>
  </node>
  <node id="-199" visible="true" lat="43.46790281" lon="-72.76170118">
    <tag k="addr:housenumber" v="88"/>
    <tag k="addr:street" v="Overlook Lane"/>
    <tag k="addr:state" v="VT"/>
    <tag k="ref:vcgi:esiteid" v="171083"/>
  </node>
  <node id="-210" visible="true" lat="43.46574811" lon="-72.8340048">
    <tag k="addr:housenumber" v="484"/>
    <tag k="addr:street" v="Dawley Road South"/>
    <tag k="addr:state" v="VT"/>
    <tag k="ref:vcgi:esiteid" v="171094"/>
  </node>
  <node id="-216" visible="true" lat="43.46465517" lon="-72.83517204">
    <tag k="addr:housenumber" v="421"/>
    <tag k="addr:street" v="Dawley Road South"/>
    <tag k="addr:state" v="VT"/>
    <tag k="ref:vcgi:esiteid" v="171100"/>
  </node>
  <node id="-222" visible="true" lat="43.46392035" lon="-72.83543671">
    <tag k="addr:housenumber" v="369"/>
    <tag k="addr:street" v="Dawley Road South"/>
    <tag k="addr:state" v="VT"/>
    <tag k="ref:vcgi:esiteid" v="171106"/>
  </node>
  <node id="-231" visible="true" lat="43.46253985" lon="-72.83504516">
    <tag k="addr:housenumber" v="261"/>
    <tag k="addr:street" v="Dawley Road South"/>
    <tag k="addr:state" v="VT"/>
    <tag k="ref:vcgi:esiteid" v="171115"/>
  </node>
  <node id="-235" visible="true" lat="43.46199073" lon="-72.83429235">
    <tag k="addr:housenumber" v="218"/>
    <tag k="addr:street" v="Dawley Road South"/>
    <tag k="addr:state" v="VT"/>
    <tag k="ref:vcgi:esiteid" v="171119"/>
  </node>
  <node id="-240" visible="true" lat="43.4616176" lon="-72.83429029">
    <tag k="addr:housenumber" v="184"/>
    <tag k="addr:street" v="Dawley Road South"/>
    <tag k="addr:state" v="VT"/>
    <tag k="ref:vcgi:esiteid" v="171124"/>
  </node>
  <node id="-241" visible="true" lat="43.46133981" lon="-72.83515372">
    <tag k="addr:housenumber" v="187"/>
    <tag k="addr:street" v="Dawley Road South"/>
    <tag k="addr:state" v="VT"/>
    <tag k="ref:vcgi:esiteid" v="171125"/>
  </node>
  <node id="-245" visible="true" lat="43.46081035" lon="-72.83422706">
    <tag k="addr:housenumber" v="138"/>
    <tag k="addr:street" v="Dawley Road South"/>
    <tag k="addr:state" v="VT"/>
    <tag k="ref:vcgi:esiteid" v="171129"/>
  </node>
  <node id="-249" visible="true" lat="43.45972539" lon="-72.74494947">
    <tag k="addr:housenumber" v="1816"/>
    <tag k="addr:street" v="Sawyer Hill Road"/>
    <tag k="addr:state" v="VT"/>
    <tag k="ref:vcgi:esiteid" v="171133"/>
  </node>
  <node id="-253" visible="true" lat="43.45896823" lon="-72.83484109">
    <tag k="addr:housenumber" v="9"/>
    <tag k="addr:street" v="Dawley Road South"/>
    <tag k="addr:state" v="VT"/>
    <tag k="ref:vcgi:esiteid" v="171137"/>
  </node>
  <node id="-254" visible="true" lat="43.45874786" lon="-72.83602142">
    <tag k="addr:housenumber" v="1535"/>
    <tag k="addr:street" v="Old Turnpike Road"/>
    <tag k="addr:state" v="VT"/>
    <tag k="ref:vcgi:esiteid" v="171138"/>
  </node>
  <node id="-257" visible="true" lat="43.4581123" lon="-72.83377993">
    <tag k="addr:housenumber" v="1407"/>
    <tag k="addr:street" v="Old Turnpike Road"/>
    <tag k="addr:state" v="VT"/>
    <tag k="ref:vcgi:esiteid" v="171141"/>
  </node>
  <node id="-260" visible="true" lat="43.45776065" lon="-72.73326134">
    <tag k="addr:housenumber" v="697"/>
    <tag k="addr:street" v="Tinney Road"/>
    <tag k="addr:state" v="VT"/>
    <tag k="ref:vcgi:esiteid" v="171144"/>
  </node>
  <node id="-262" visible="true" lat="43.45695114" lon="-72.82559967">
    <tag k="addr:housenumber" v="1026"/>
    <tag k="addr:street" v="Old Turnpike Road"/>
    <tag k="addr:state" v="VT"/>
    <tag k="ref:vcgi:esiteid" v="171146"/>
  </node>
  <node id="-280" visible="true" lat="43.45566558" lon="-72.82641601">
    <tag k="addr:housenumber" v="1005"/>
    <tag k="addr:street" v="Old Turnpike Road"/>
    <tag k="addr:state" v="VT"/>
    <tag k="ref:vcgi:esiteid" v="171164"/>
  </node>
  <node id="-296" visible="true" lat="43.45397232" lon="-72.81988607">
    <tag k="addr:housenumber" v="639"/>
    <tag k="addr:street" v="Hortonville Road"/>
    <tag k="addr:state" v="VT"/>
    <tag k="ref:vcgi:esiteid" v="171180"/>
  </node>
  <node id="-297" visible="true" lat="43.45408127" lon="-72.81772463">
    <tag k="addr:housenumber" v="534"/>
    <tag k="addr:street" v="Old Turnpike Road"/>
    <tag k="addr:state" v="VT"/>
    <tag k="ref:vcgi:esiteid" v="171181"/>
  </node>
  <node id="-298" visible="true" lat="43.45405404" lon="-72.81519003">
    <tag k="addr:housenumber" v="408"/>
    <tag k="addr:street" v="Old Turnpike Road"/>
    <tag k="addr:state" v="VT"/>
    <tag k="ref:vcgi:esiteid" v="171182"/>
  </node>
  <node id="-299" visible="true" lat="43.45399093" lon="-72.81880187">
    <tag k="addr:housenumber" v="590"/>
    <tag k="addr:street" v="Old Turnpike Road"/>
    <tag k="addr:state" v="VT"/>
    <tag k="ref:vcgi:esiteid" v="171183"/>
  </node>
  <node id="-304" visible="true" lat="43.4535955" lon="-72.81824534">
    <tag k="addr:housenumber" v="553"/>
    <tag k="addr:street" v="Old Turnpike Road"/>
    <tag k="addr:state" v="VT"/>
    <tag k="ref:vcgi:esiteid" v="171188"/>
  </node>
  <node id="-307" visible="true" lat="43.45334625" lon="-72.81470489">
    <tag k="addr:housenumber" v="385"/>
    <tag k="addr:street" v="Old Turnpike Road"/>
    <tag k="addr:state" v="VT"/>
    <tag k="ref:vcgi:esiteid" v="171191"/>
  </node>
  <node id="-308" visible="true" lat="43.45343482" lon="-72.82463804">
    <tag k="addr:housenumber" v="65"/>
    <tag k="addr:street" v="Little Lane"/>
    <tag k="addr:state" v="VT"/>
    <tag k="ref:vcgi:esiteid" v="171192"/>
  </node>
  <node id="-309" visible="true" lat="43.45319702" lon="-72.81704915">
    <tag k="addr:housenumber" v="495"/>
    <tag k="addr:street" v="Old Turnpike Road"/>
    <tag k="addr:state" v="VT"/>
    <tag k="ref:vcgi:esiteid" v="171193"/>
  </node>
  <node id="-311" visible="true" lat="43.45303491" lon="-72.82056839">
    <tag k="addr:housenumber" v="551"/>
    <tag k="addr:street" v="Hortonville Road"/>
    <tag k="addr:state" v="VT"/>
    <tag k="ref:vcgi:esiteid" v="171195"/>
  </node>
  <node id="-318" visible="true" lat="43.45252482" lon="-72.82523221">
    <tag k="addr:housenumber" v="44"/>
    <tag k="addr:street" v="Cole Road"/>
    <tag k="addr:state" v="VT"/>
    <tag k="ref:vcgi:esiteid" v="171202"/>
  </node>
  <node id="-320" visible="true" lat="43.45241376" lon="-72.82648521">
    <tag k="addr:housenumber" v="120"/>
    <tag k="addr:street" v="Cole Road"/>
    <tag k="addr:state" v="VT"/>
    <tag k="ref:vcgi:esiteid" v="171204"/>
  </node>
  <node id="-325" visible="true" lat="43.45246124" lon="-72.75111389">
    <tag k="addr:housenumber" v="1232"/>
    <tag k="addr:street" v="Sawyer Hill Road"/>
    <tag k="addr:state" v="VT"/>
    <tag k="ref:vcgi:esiteid" v="171209"/>
  </node>
  <node id="-327" visible="true" lat="43.45218276" lon="-72.82352447">
    <tag k="addr:housenumber" v="378"/>
    <tag k="addr:street" v="Hortonville Road"/>
    <tag k="addr:state" v="VT"/>
    <tag k="ref:vcgi:esiteid" v="171211"/>
  </node>
  <node id="-328" visible="true" lat="43.45214843" lon="-72.82429504">
    <tag k="addr:housenumber" v="17"/>
    <tag k="addr:street" v="Cole Road"/>
    <tag k="addr:state" v="VT"/>
    <tag k="ref:vcgi:esiteid" v="171212"/>
  </node>
  <node id="-331" visible="true" lat="43.45174236" lon="-72.79891097">
    <tag k="addr:housenumber" v="405"/>
    <tag k="addr:street" v="Summit Road"/>
    <tag k="addr:state" v="VT"/>
    <tag k="ref:vcgi:esiteid" v="171215"/>
  </node>
  <node id="-333" visible="true" lat="43.45154801" lon="-72.79312136">
    <tag k="addr:housenumber" v="118"/>
    <tag k="addr:street" v="Rim Rock Road"/>
    <tag k="addr:state" v="VT"/>
    <tag k="ref:vcgi:esiteid" v="171217"/>
  </node>
  <node id="-335" visible="true" lat="43.45136332" lon="-72.79796984">
    <tag k="addr:housenumber" v="481"/>
    <tag k="addr:street" v="Summit Road"/>
    <tag k="addr:state" v="VT"/>
    <tag k="ref:vcgi:esiteid" v="171219"/>
  </node>
  <node id="-340" visible="true" lat="43.45060652" lon="-72.82716947">
    <tag k="addr:housenumber" v="149"/>
    <tag k="addr:street" v="Cole Road"/>
    <tag k="addr:state" v="VT"/>
    <tag k="ref:vcgi:esiteid" v="171225"/>
  </node>
  <node id="-342" visible="true" lat="43.45058995" lon="-72.79921374">
    <tag k="addr:housenumber" v="56"/>
    <tag k="addr:street" v="Stewart Road North"/>
    <tag k="addr:state" v="VT"/>
    <tag k="ref:vcgi:esiteid" v="171227"/>
  </node>
  <node id="-343" visible="true" lat="43.45052347" lon="-72.79450858">
    <tag k="addr:housenumber" v="649"/>
    <tag k="addr:street" v="Summit Road"/>
    <tag k="addr:state" v="VT"/>
    <tag k="ref:vcgi:esiteid" v="171228"/>
  </node>
  <node id="-344" visible="true" lat="43.45066662" lon="-72.79369237">
    <tag k="addr:housenumber" v="723"/>
    <tag k="addr:street" v="Summit Road"/>
    <tag k="addr:state" v="VT"/>
    <tag k="ref:vcgi:esiteid" v="171229"/>
  </node>
  <node id="-345" visible="true" lat="43.45043955" lon="-72.79840217">
    <tag k="addr:housenumber" v="59"/>
    <tag k="addr:street" v="Stewart Road North"/>
    <tag k="addr:state" v="VT"/>
    <tag k="ref:vcgi:esiteid" v="171230"/>
  </node>
  <node id="-351" visible="true" lat="43.44982118" lon="-72.79489233">
    <tag k="addr:housenumber" v="656"/>
    <tag k="addr:street" v="Summit Road"/>
    <tag k="addr:state" v="VT"/>
    <tag k="ref:vcgi:esiteid" v="171236"/>
  </node>
  <node id="-356" visible="true" lat="43.44971252" lon="-72.79954718">
    <tag k="addr:housenumber" v="120"/>
    <tag k="addr:street" v="Stewart Road North"/>
    <tag k="addr:state" v="VT"/>
    <tag k="ref:vcgi:esiteid" v="171241"/>
  </node>
  <node id="-357" visible="true" lat="43.44965648" lon="-72.79063605">
    <tag k="addr:housenumber" v="861"/>
    <tag k="addr:street" v="Summit Road"/>
    <tag k="addr:state" v="VT"/>
    <tag k="ref:vcgi:esiteid" v="171242"/>
  </node>
  <node id="-359" visible="true" lat="43.44965867" lon="-72.79165802">
    <tag k="addr:housenumber" v="811"/>
    <tag k="addr:street" v="Summit Road"/>
    <tag k="addr:state" v="VT"/>
    <tag k="ref:vcgi:esiteid" v="171244"/>
  </node>
  <node id="-362" visible="true" lat="43.449789" lon="-72.75398275">
    <tag k="addr:housenumber" v="942"/>
    <tag k="addr:street" v="Sawyer Hill Road"/>
    <tag k="addr:state" v="VT"/>
    <tag k="ref:vcgi:esiteid" v="171247"/>
  </node>
  <node id="-363" visible="true" lat="43.44939422" lon="-72.82344818">
    <tag k="addr:housenumber" v="162"/>
    <tag k="addr:street" v="Hortonville Road"/>
    <tag k="addr:state" v="VT"/>
    <tag k="ref:vcgi:esiteid" v="171248"/>
  </node>
  <node id="-369" visible="true" lat="43.44925217" lon="-72.75484682">
    <tag k="addr:housenumber" v="895"/>
    <tag k="addr:street" v="Sawyer Hill Road"/>
    <tag k="addr:state" v="VT"/>
    <tag k="ref:vcgi:esiteid" v="171254"/>
  </node>
  <node id="-370" visible="true" lat="43.44896316" lon="-72.78873443">
    <tag k="addr:housenumber" v="965"/>
    <tag k="addr:street" v="Summit Road"/>
    <tag k="addr:state" v="VT"/>
    <tag k="ref:vcgi:esiteid" v="171255"/>
  </node>
  <node id="-377" visible="true" lat="43.44881657" lon="-72.7873199">
    <tag k="addr:housenumber" v="1039"/>
    <tag k="addr:street" v="Summit Road"/>
    <tag k="addr:state" v="VT"/>
    <tag k="ref:vcgi:esiteid" v="171262"/>
  </node>
  <node id="-378" visible="true" lat="43.44888856" lon="-72.79359312">
    <tag k="addr:housenumber" v="726"/>
    <tag k="addr:street" v="Summit Road"/>
    <tag k="addr:state" v="VT"/>
    <tag k="ref:vcgi:esiteid" v="171263"/>
  </node>
  <node id="-382" visible="true" lat="43.44859269" lon="-72.80026341">
    <tag k="addr:housenumber" v="184"/>
    <tag k="addr:street" v="Stewart Road North"/>
    <tag k="addr:state" v="VT"/>
    <tag k="ref:vcgi:esiteid" v="171267"/>
  </node>
  <node id="-383" visible="true" lat="43.44852287" lon="-72.7854517">
    <tag k="addr:housenumber" v="1133"/>
    <tag k="addr:street" v="Summit Road"/>
    <tag k="addr:state" v="VT"/>
    <tag k="ref:vcgi:esiteid" v="171268"/>
  </node>
  <node id="-385" visible="true" lat="43.44842147" lon="-72.78488159">
    <tag k="addr:housenumber" v="1159"/>
    <tag k="addr:street" v="Summit Road"/>
    <tag k="addr:state" v="VT"/>
    <tag k="ref:vcgi:esiteid" v="171270"/>
  </node>
  <node id="-387" visible="true" lat="43.44842779" lon="-72.79012301">
    <tag k="addr:housenumber" v="906"/>
    <tag k="addr:street" v="Summit Road"/>
    <tag k="addr:state" v="VT"/>
    <tag k="ref:vcgi:esiteid" v="171272"/>
  </node>
  <node id="-393" visible="true" lat="43.4482852" lon="-72.75465874">
    <tag k="addr:housenumber" v="852"/>
    <tag k="addr:street" v="Sawyer Hill Road"/>
    <tag k="addr:state" v="VT"/>
    <tag k="ref:vcgi:esiteid" v="171278"/>
  </node>
  <node id="-394" visible="true" lat="43.44833163" lon="-72.77555756">
    <tag k="addr:housenumber" v="43"/>
    <tag k="addr:street" v="Syria Road"/>
    <tag k="addr:state" v="VT"/>
    <tag k="ref:vcgi:esiteid" v="171279"/>
  </node>
  <node id="-395" visible="true" lat="43.44812459" lon="-72.79037758">
    <tag k="addr:housenumber" v="908"/>
    <tag k="addr:street" v="Summit Road"/>
    <tag k="addr:state" v="VT"/>
    <tag k="ref:vcgi:esiteid" v="171280"/>
  </node>
  <node id="-397" visible="true" lat="43.44802856" lon="-72.82460784">
    <tag k="addr:housenumber" v="54"/>
    <tag k="addr:street" v="Hortonville Road"/>
    <tag k="addr:state" v="VT"/>
    <tag k="ref:vcgi:esiteid" v="171282"/>
  </node>
  <node id="-398" visible="true" lat="43.44816754" lon="-72.78887007">
    <tag k="addr:housenumber" v="1024"/>
    <tag k="addr:street" v="Summit Road"/>
    <tag k="addr:state" v="VT"/>
    <tag k="ref:vcgi:esiteid" v="171283"/>
  </node>
  <node id="-399" visible="true" lat="43.44795989" lon="-72.8259201">
    <tag k="addr:housenumber" v="13"/>
    <tag k="addr:street" v="Hortonville Road"/>
    <tag k="addr:state" v="VT"/>
    <tag k="ref:vcgi:esiteid" v="171284"/>
  </node>
  <node id="-400" visible="true" lat="43.44808699" lon="-72.78412415">
    <tag k="addr:housenumber" v="1207"/>
    <tag k="addr:street" v="Summit Road"/>
    <tag k="addr:state" v="VT"/>
    <tag k="ref:vcgi:esiteid" v="171285"/>
  </node>
  <node id="-404" visible="true" lat="43.4480304" lon="-72.75463766">
    <tag k="addr:housenumber" v="846"/>
    <tag k="addr:street" v="Sawyer Hill Road"/>
    <tag k="addr:state" v="VT"/>
    <tag k="ref:vcgi:esiteid" v="171289"/>
  </node>
  <node id="-405" visible="true" lat="43.44789251" lon="-72.78345505">
    <tag k="addr:housenumber" v="1243"/>
    <tag k="addr:street" v="Summit Road"/>
    <tag k="addr:state" v="VT"/>
    <tag k="ref:vcgi:esiteid" v="171290"/>
  </node>
  <node id="-408" visible="true" lat="43.44763335" lon="-72.78242574">
    <tag k="addr:housenumber" v="1295"/>
    <tag k="addr:street" v="Summit Road"/>
    <tag k="addr:state" v="VT"/>
    <tag k="ref:vcgi:esiteid" v="171293"/>
  </node>
  <node id="-412" visible="true" lat="43.44751999" lon="-72.78378981">
    <tag k="addr:housenumber" v="1240"/>
    <tag k="addr:street" v="Summit Road"/>
    <tag k="addr:state" v="VT"/>
    <tag k="ref:vcgi:esiteid" v="171297"/>
  </node>
  <node id="-413" visible="true" lat="43.44719001" lon="-72.82687971">
    <tag k="addr:housenumber" v="20"/>
    <tag k="addr:street" v="Belmont Road"/>
    <tag k="addr:state" v="VT"/>
    <tag k="ref:vcgi:esiteid" v="171298"/>
  </node>
  <node id="-415" visible="true" lat="43.44724655" lon="-72.77451324">
    <tag k="addr:housenumber" v="108"/>
    <tag k="addr:street" v="Syria Road"/>
    <tag k="addr:state" v="VT"/>
    <tag k="ref:vcgi:esiteid" v="171300"/>
  </node>
  <node id="-423" visible="true" lat="43.44699583" lon="-72.75627997">
    <tag k="addr:housenumber" v="719"/>
    <tag k="addr:street" v="Sawyer Hill Road"/>
    <tag k="addr:state" v="VT"/>
    <tag k="ref:vcgi:esiteid" v="171309"/>
  </node>
  <node id="-424" visible="true" lat="43.44697684" lon="-72.78180009">
    <tag k="addr:housenumber" v="1350"/>
    <tag k="addr:street" v="Summit Road"/>
    <tag k="addr:state" v="VT"/>
    <tag k="ref:vcgi:esiteid" v="171310"/>
  </node>
  <node id="-425" visible="true" lat="43.44686174" lon="-72.77966332">
    <tag k="addr:housenumber" v="1443"/>
    <tag k="addr:street" v="Summit Road"/>
    <tag k="addr:state" v="VT"/>
    <tag k="ref:vcgi:esiteid" v="171311"/>
  </node>
  <node id="-426" visible="true" lat="43.44702283" lon="-72.77319556">
    <tag k="addr:housenumber" v="190"/>
    <tag k="addr:street" v="Syria Road"/>
    <tag k="addr:state" v="VT"/>
    <tag k="ref:vcgi:esiteid" v="171312"/>
  </node>
  <node id="-427" visible="true" lat="43.44675828" lon="-72.77223223">
    <tag k="addr:housenumber" v="573"/>
    <tag k="addr:street" v="Shunpike Road"/>
    <tag k="addr:state" v="VT"/>
    <tag k="ref:vcgi:esiteid" v="171313"/>
  </node>
  <node id="-428" visible="true" lat="43.44672955" lon="-72.77878592">
    <tag k="addr:housenumber" v="1489"/>
    <tag k="addr:street" v="Summit Road"/>
    <tag k="addr:state" v="VT"/>
    <tag k="ref:vcgi:esiteid" v="171314"/>
  </node>
  <node id="-429" visible="true" lat="43.44632672" lon="-72.77532488">
    <tag k="addr:housenumber" v="1781"/>
    <tag k="addr:street" v="Summit Road"/>
    <tag k="addr:state" v="VT"/>
    <tag k="ref:vcgi:esiteid" v="171315"/>
  </node>
  <node id="-430" visible="true" lat="43.44653449" lon="-72.82539511">
    <tag k="addr:housenumber" v="77"/>
    <tag k="addr:street" v="Belmont Road"/>
    <tag k="addr:state" v="VT"/>
    <tag k="ref:vcgi:esiteid" v="171316"/>
  </node>
  <node id="-432" visible="true" lat="43.44632809" lon="-72.82577582">
    <tag k="addr:housenumber" v="82"/>
    <tag k="addr:street" v="Belmont Road"/>
    <tag k="addr:state" v="VT"/>
    <tag k="ref:vcgi:esiteid" v="171318"/>
  </node>
  <node id="-433" visible="true" lat="43.44646445" lon="-72.75544023">
    <tag k="addr:housenumber" v="696"/>
    <tag k="addr:street" v="Sawyer Hill Road"/>
    <tag k="addr:state" v="VT"/>
    <tag k="ref:vcgi:esiteid" v="171319"/>
  </node>
  <node id="-434" visible="true" lat="43.44640565" lon="-72.75603399">
    <tag k="addr:housenumber" v="685"/>
    <tag k="addr:street" v="Sawyer Hill Road"/>
    <tag k="addr:state" v="VT"/>
    <tag k="ref:vcgi:esiteid" v="171320"/>
  </node>
  <node id="-435" visible="true" lat="43.44634827" lon="-72.78131673">
    <tag k="addr:housenumber" v="1376"/>
    <tag k="addr:street" v="Summit Road"/>
    <tag k="addr:state" v="VT"/>
    <tag k="ref:vcgi:esiteid" v="171321"/>
  </node>
  <node id="-436" visible="true" lat="43.44604964" lon="-72.82460514">
    <tag k="addr:housenumber" v="50"/>
    <tag k="addr:street" v="School Street"/>
    <tag k="addr:state" v="VT"/>
    <tag k="ref:vcgi:esiteid" v="171322"/>
  </node>
  <node id="-437" visible="true" lat="43.44606983" lon="-72.82506924">
    <tag k="addr:housenumber" v="26"/>
    <tag k="addr:street" v="School Street"/>
    <tag k="addr:state" v="VT"/>
    <tag k="ref:vcgi:esiteid" v="171324"/>
  </node>
  <node id="-438" visible="true" lat="43.44605483" lon="-72.82525148">
    <tag k="addr:housenumber" v="14"/>
    <tag k="addr:street" v="School Street"/>
    <tag k="addr:state" v="VT"/>
    <tag k="ref:vcgi:esiteid" v="171325"/>
  </node>
  <node id="-441" visible="true" lat="43.44584952" lon="-72.82305518">
    <tag k="addr:housenumber" v="150"/>
    <tag k="addr:street" v="School Street"/>
    <tag k="addr:state" v="VT"/>
    <tag k="ref:vcgi:esiteid" v="171328"/>
  </node>
  <node id="-442" visible="true" lat="43.44589614" lon="-72.77449798">
    <tag k="addr:housenumber" v="1734"/>
    <tag k="addr:street" v="Summit Road"/>
    <tag k="addr:state" v="VT"/>
    <tag k="ref:vcgi:esiteid" v="171329"/>
  </node>
  <node id="-443" visible="true" lat="43.44564056" lon="-72.77545928">
    <tag k="addr:housenumber" v="1691"/>
    <tag k="addr:street" v="Summit Road"/>
    <tag k="addr:state" v="VT"/>
    <tag k="ref:vcgi:esiteid" v="171330"/>
  </node>
  <node id="-444" visible="true" lat="43.44562389" lon="-72.80125726">
    <tag k="addr:housenumber" v="394"/>
    <tag k="addr:street" v="Stewart Road North"/>
    <tag k="addr:state" v="VT"/>
    <tag k="ref:vcgi:esiteid" v="171331"/>
  </node>
  <node id="-445" visible="true" lat="43.44515309" lon="-72.85402186">
    <tag k="addr:housenumber" v="234"/>
    <tag k="addr:street" v="Bowlsville Road North"/>
    <tag k="addr:state" v="VT"/>
    <tag k="ref:vcgi:esiteid" v="171332"/>
  </node>
  <node id="-446" visible="true" lat="43.44550928" lon="-72.75555718">
    <tag k="addr:housenumber" v="620"/>
    <tag k="addr:street" v="Sawyer Hill Road"/>
    <tag k="addr:state" v="VT"/>
    <tag k="ref:vcgi:esiteid" v="171333"/>
  </node>
  <node id="-448" visible="true" lat="43.44509887" lon="-72.82491302">
    <tag k="addr:housenumber" v="173"/>
    <tag k="addr:street" v="Belmont Road"/>
    <tag k="addr:state" v="VT"/>
    <tag k="ref:vcgi:esiteid" v="171335"/>
  </node>
  <node id="-449" visible="true" lat="43.44529064" lon="-72.77662681">
    <tag k="addr:housenumber" v="1634"/>
    <tag k="addr:street" v="Summit Road"/>
    <tag k="addr:state" v="VT"/>
    <tag k="ref:vcgi:esiteid" v="171336"/>
  </node>
  <node id="-450" visible="true" lat="43.44581231" lon="-72.7983585">
    <tag k="addr:housenumber" v="417"/>
    <tag k="addr:street" v="Stewart Road North"/>
    <tag k="addr:state" v="VT"/>
    <tag k="ref:vcgi:esiteid" v="171337"/>
  </node>
  <node id="-451" visible="true" lat="43.44507749" lon="-72.76990997">
    <tag k="addr:housenumber" v="411"/>
    <tag k="addr:street" v="Shunpike Road"/>
    <tag k="addr:state" v="VT"/>
    <tag k="ref:vcgi:esiteid" v="171338"/>
  </node>
  <node id="-452" visible="true" lat="43.4450326" lon="-72.76886768">
    <tag k="addr:housenumber" v="366"/>
    <tag k="addr:street" v="Shunpike Road"/>
    <tag k="addr:state" v="VT"/>
    <tag k="ref:vcgi:esiteid" v="171339"/>
  </node>
  <node id="-453" visible="true" lat="43.44495773" lon="-72.75613403">
    <tag k="addr:housenumber" v="590"/>
    <tag k="addr:street" v="Sawyer Hill Road"/>
    <tag k="addr:state" v="VT"/>
    <tag k="ref:vcgi:esiteid" v="171340"/>
  </node>
  <node id="-455" visible="true" lat="43.44443893" lon="-72.8256607">
    <tag k="addr:housenumber" v="212"/>
    <tag k="addr:street" v="Belmont Road"/>
    <tag k="addr:state" v="VT"/>
    <tag k="ref:vcgi:esiteid" v="171342"/>
  </node>
  <node id="-456" visible="true" lat="43.44436669" lon="-72.76649368">
    <tag k="addr:housenumber" v="260"/>
    <tag k="addr:street" v="Shunpike Road"/>
    <tag k="addr:state" v="VT"/>
    <tag k="ref:vcgi:esiteid" v="171343"/>
  </node>
  <node id="-459" visible="true" lat="43.44427059" lon="-72.76916985">
    <tag k="addr:housenumber" v="331"/>
    <tag k="addr:street" v="Shunpike Road"/>
    <tag k="addr:state" v="VT"/>
    <tag k="ref:vcgi:esiteid" v="171346"/>
  </node>
  <node id="-460" visible="true" lat="43.44390104" lon="-72.84305823">
    <tag k="addr:housenumber" v="1224"/>
    <tag k="addr:street" v="Gates Road South"/>
    <tag k="addr:state" v="VT"/>
    <tag k="ref:vcgi:esiteid" v="171347"/>
  </node>
  <node id="-461" visible="true" lat="43.44262392" lon="-72.79786175">
    <tag k="addr:housenumber" v="511"/>
    <tag k="addr:street" v="Stewart Road North"/>
    <tag k="addr:state" v="VT"/>
    <tag k="ref:vcgi:esiteid" v="171348"/>
  </node>
  <node id="-462" visible="true" lat="43.44388175" lon="-72.82588376">
    <tag k="addr:housenumber" v="224"/>
    <tag k="addr:street" v="Belmont Road"/>
    <tag k="addr:state" v="VT"/>
    <tag k="ref:vcgi:esiteid" v="171349"/>
  </node>
  <node id="-464" visible="true" lat="43.44360351" lon="-72.75822448">
    <tag k="addr:housenumber" v="455"/>
    <tag k="addr:street" v="Sawyer Hill Road"/>
    <tag k="addr:state" v="VT"/>
    <tag k="ref:vcgi:esiteid" v="171351"/>
  </node>
  <node id="-465" visible="true" lat="43.44346176" lon="-72.76801057">
    <tag k="addr:housenumber" v="259"/>
    <tag k="addr:street" v="Shunpike Road"/>
    <tag k="addr:state" v="VT"/>
    <tag k="ref:vcgi:esiteid" v="171352"/>
  </node>
  <node id="-466" visible="true" lat="43.44324111" lon="-72.82582092">
    <tag k="addr:housenumber" v="330"/>
    <tag k="addr:street" v="Belmont Road"/>
    <tag k="addr:state" v="VT"/>
    <tag k="ref:vcgi:esiteid" v="171353"/>
  </node>
  <node id="-467" visible="true" lat="43.44319915" lon="-72.82305145">
    <tag k="addr:housenumber" v="297"/>
    <tag k="addr:street" v="Belmont Road"/>
    <tag k="addr:state" v="VT"/>
    <tag k="ref:vcgi:esiteid" v="171354"/>
  </node>
  <node id="-468" visible="true" lat="43.44293594" lon="-72.7670288">
    <tag k="addr:housenumber" v="197"/>
    <tag k="addr:street" v="Shunpike Road"/>
    <tag k="addr:state" v="VT"/>
    <tag k="ref:vcgi:esiteid" v="171355"/>
  </node>
  <node id="-469" visible="true" lat="43.44280105" lon="-72.85342496">
    <tag k="addr:housenumber" v="332"/>
    <tag k="addr:street" v="Bowlsville Road North"/>
    <tag k="addr:state" v="VT"/>
    <tag k="ref:vcgi:esiteid" v="171356"/>
  </node>
  <node id="-470" visible="true" lat="43.44262695" lon="-72.85070801">
    <tag k="addr:housenumber" v="465"/>
    <tag k="addr:street" v="Bowlsville Road North"/>
    <tag k="addr:state" v="VT"/>
    <tag k="ref:vcgi:esiteid" v="171357"/>
  </node>
  <node id="-471" visible="true" lat="43.44272596" lon="-72.84091283">
    <tag k="addr:housenumber" v="1086"/>
    <tag k="addr:street" v="Gates Road South"/>
    <tag k="addr:state" v="VT"/>
    <tag k="ref:vcgi:esiteid" v="171358"/>
  </node>
  <node id="-472" visible="true" lat="43.44246674" lon="-72.85002899">
    <tag k="addr:housenumber" v="503"/>
    <tag k="addr:street" v="Bowlsville Road North"/>
    <tag k="addr:state" v="VT"/>
    <tag k="ref:vcgi:esiteid" v="171359"/>
  </node>
  <node id="-473" visible="true" lat="43.44268108" lon="-72.75951392">
    <tag k="addr:housenumber" v="365"/>
    <tag k="addr:street" v="Sawyer Hill Road"/>
    <tag k="addr:state" v="VT"/>
    <tag k="ref:vcgi:esiteid" v="171360"/>
  </node>
  <node id="-474" visible="true" lat="43.44248552" lon="-72.8398433">
    <tag k="addr:housenumber" v="1014"/>
    <tag k="addr:street" v="Gates Road South"/>
    <tag k="addr:state" v="VT"/>
    <tag k="ref:vcgi:esiteid" v="171361"/>
  </node>
  <node id="-476" visible="true" lat="43.4422397" lon="-72.84156336">
    <tag k="addr:housenumber" v="1097"/>
    <tag k="addr:street" v="Gates Road South"/>
    <tag k="addr:state" v="VT"/>
    <tag k="ref:vcgi:esiteid" v="171363"/>
  </node>
  <node id="-481" visible="true" lat="43.44223899" lon="-72.76631505">
    <tag k="addr:housenumber" v="137"/>
    <tag k="addr:street" v="Shunpike Road"/>
    <tag k="addr:state" v="VT"/>
    <tag k="ref:vcgi:esiteid" v="171368"/>
  </node>
  <node id="-483" visible="true" lat="43.44205097" lon="-72.79949425">
    <tag k="addr:housenumber" v="553"/>
    <tag k="addr:street" v="Stewart Road North"/>
    <tag k="addr:state" v="VT"/>
    <tag k="ref:vcgi:esiteid" v="171370"/>
  </node>
  <node id="-484" visible="true" lat="43.44181735" lon="-72.75545316">
    <tag k="addr:housenumber" v="181"/>
    <tag k="addr:street" v="East View Lane"/>
    <tag k="addr:state" v="VT"/>
    <tag k="ref:vcgi:esiteid" v="171371"/>
  </node>
  <node id="-485" visible="true" lat="43.44187927" lon="-72.83763122">
    <tag k="addr:housenumber" v="103"/>
    <tag k="addr:street" v="Sharon Lane"/>
    <tag k="addr:state" v="VT"/>
    <tag k="ref:vcgi:esiteid" v="171372"/>
  </node>
  <node id="-487" visible="true" lat="43.44195556" lon="-72.76524352">
    <tag k="addr:housenumber" v="88"/>
    <tag k="addr:street" v="Shunpike Road"/>
    <tag k="addr:state" v="VT"/>
    <tag k="ref:vcgi:esiteid" v="171374"/>
  </node>
  <node id="-488" visible="true" lat="43.44183731" lon="-72.76594543">
    <tag k="addr:housenumber" v="103"/>
    <tag k="addr:street" v="Shunpike Road"/>
    <tag k="addr:state" v="VT"/>
    <tag k="ref:vcgi:esiteid" v="171375"/>
  </node>
  <node id="-489" visible="true" lat="43.44165806" lon="-72.84069003">
    <tag k="addr:housenumber" v="1045"/>
    <tag k="addr:street" v="Gates Road South"/>
    <tag k="addr:state" v="VT"/>
    <tag k="ref:vcgi:esiteid" v="171376"/>
  </node>
  <node id="-492" visible="true" lat="43.4414251" lon="-72.83940078">
    <tag k="addr:housenumber" v="978"/>
    <tag k="addr:street" v="Gates Road South"/>
    <tag k="addr:state" v="VT"/>
    <tag k="ref:vcgi:esiteid" v="171379"/>
  </node>
  <node id="-495" visible="true" lat="43.44143841" lon="-72.76140192">
    <tag k="addr:housenumber" v="243"/>
    <tag k="addr:street" v="Sawyer Hill Road"/>
    <tag k="addr:state" v="VT"/>
    <tag k="ref:vcgi:esiteid" v="171382"/>
  </node>
  <node id="-496" visible="true" lat="43.44139001" lon="-72.76816038">
    <tag k="addr:housenumber" v="610"/>
    <tag k="addr:street" v="Alpine Drive"/>
    <tag k="addr:state" v="VT"/>
    <tag k="ref:vcgi:esiteid" v="171383"/>
  </node>
  <node id="-497" visible="true" lat="43.44147803" lon="-72.80083732">
    <tag k="addr:housenumber" v="698"/>
    <tag k="addr:street" v="Stewart Road North"/>
    <tag k="addr:state" v="VT"/>
    <tag k="ref:vcgi:esiteid" v="171384"/>
  </node>
  <node id="-498" visible="true" lat="43.4411904" lon="-72.83973952">
    <tag k="addr:housenumber" v="963"/>
    <tag k="addr:street" v="Gates Road South"/>
    <tag k="addr:state" v="VT"/>
    <tag k="ref:vcgi:esiteid" v="171385"/>
  </node>
  <node id="-499" visible="true" lat="43.44111824" lon="-72.83905772">
    <tag k="addr:housenumber" v="11"/>
    <tag k="addr:street" v="Sharon Lane"/>
    <tag k="addr:state" v="VT"/>
    <tag k="ref:vcgi:esiteid" v="171386"/>
  </node>
  <node id="-500" visible="true" lat="43.44106675" lon="-72.83606676">
    <tag k="addr:housenumber" v="148"/>
    <tag k="addr:street" v="Sharon Lane"/>
    <tag k="addr:state" v="VT"/>
    <tag k="ref:vcgi:esiteid" v="171387"/>
  </node>
  <node id="-502" visible="true" lat="43.44108896" lon="-72.76446912">
    <tag k="addr:housenumber" v="22"/>
    <tag k="addr:street" v="Shunpike Road"/>
    <tag k="addr:state" v="VT"/>
    <tag k="ref:vcgi:esiteid" v="171389"/>
  </node>
  <node id="-503" visible="true" lat="43.44092941" lon="-72.7623291">
    <tag k="addr:housenumber" v="199"/>
    <tag k="addr:street" v="Sawyer Hill Road"/>
    <tag k="addr:state" v="VT"/>
    <tag k="ref:vcgi:esiteid" v="171390"/>
  </node>
  <node id="-504" visible="true" lat="43.44072341" lon="-72.82514953">
    <tag k="addr:housenumber" v="467"/>
    <tag k="addr:street" v="Belmont Road"/>
    <tag k="addr:state" v="VT"/>
    <tag k="ref:vcgi:esiteid" v="171391"/>
  </node>
  <node id="-505" visible="true" lat="43.44087229" lon="-72.76771305">
    <tag k="addr:housenumber" v="608"/>
    <tag k="addr:street" v="Alpine Drive"/>
    <tag k="addr:state" v="VT"/>
    <tag k="ref:vcgi:esiteid" v="171392"/>
  </node>
  <node id="-506" visible="true" lat="43.44052322" lon="-72.83892729">
    <tag k="addr:housenumber" v="33"/>
    <tag k="addr:street" v="Hardwood Lane"/>
    <tag k="addr:state" v="VT"/>
    <tag k="ref:vcgi:esiteid" v="171393"/>
  </node>
  <node id="-508" visible="true" lat="43.44059196" lon="-72.76844961">
    <tag k="addr:housenumber" v="609"/>
    <tag k="addr:street" v="Alpine Drive"/>
    <tag k="addr:state" v="VT"/>
    <tag k="ref:vcgi:esiteid" v="171395"/>
  </node>
  <node id="-510" visible="true" lat="43.44028124" lon="-72.83607695">
    <tag k="addr:housenumber" v="150"/>
    <tag k="addr:street" v="Sharon Lane"/>
    <tag k="addr:state" v="VT"/>
    <tag k="ref:vcgi:esiteid" v="171397"/>
  </node>
  <node id="-511" visible="true" lat="43.44030735" lon="-72.84019373">
    <tag k="addr:housenumber" v="949"/>
    <tag k="addr:street" v="Gates Road South"/>
    <tag k="addr:state" v="VT"/>
    <tag k="ref:vcgi:esiteid" v="171398"/>
  </node>
  <node id="-514" visible="true" lat="43.44006347" lon="-72.83887481">
    <tag k="addr:housenumber" v="55"/>
    <tag k="addr:street" v="Hardwood Lane"/>
    <tag k="addr:state" v="VT"/>
    <tag k="ref:vcgi:esiteid" v="171401"/>
  </node>
  <node id="-515" visible="true" lat="43.44031886" lon="-72.76790559">
    <tag k="addr:housenumber" v="592"/>
    <tag k="addr:street" v="Alpine Drive"/>
    <tag k="addr:state" v="VT"/>
    <tag k="ref:vcgi:esiteid" v="171402"/>
  </node>
  <node id="-516" visible="true" lat="43.4402008" lon="-72.76329803">
    <tag k="addr:housenumber" v="43"/>
    <tag k="addr:street" v="Sawyer Hill Road"/>
    <tag k="addr:state" v="VT"/>
    <tag k="ref:vcgi:esiteid" v="171403"/>
  </node>
  <node id="-517" visible="true" lat="43.44000215" lon="-72.83734017">
    <tag k="addr:housenumber" v="826"/>
    <tag k="addr:street" v="Gates Road South"/>
    <tag k="addr:state" v="VT"/>
    <tag k="ref:vcgi:esiteid" v="171404"/>
  </node>
  <node id="-518" visible="true" lat="43.43995658" lon="-72.83972984">
    <tag k="addr:housenumber" v="76"/>
    <tag k="addr:street" v="Hardwood Lane"/>
    <tag k="addr:state" v="VT"/>
    <tag k="ref:vcgi:esiteid" v="171405"/>
  </node>
  <node id="-520" visible="true" lat="43.43972861" lon="-72.83832834">
    <tag k="addr:housenumber" v="787"/>
    <tag k="addr:street" v="Gates Road South"/>
    <tag k="addr:state" v="VT"/>
    <tag k="ref:vcgi:esiteid" v="171407"/>
  </node>
  <node id="-521" visible="true" lat="43.44005208" lon="-72.76178349">
    <tag k="addr:housenumber" v="143"/>
    <tag k="addr:street" v="Sawyer Hill Road"/>
    <tag k="addr:state" v="VT"/>
    <tag k="ref:vcgi:esiteid" v="171408"/>
  </node>
  <node id="-522" visible="true" lat="43.43993377" lon="-72.76696014">
    <tag k="addr:housenumber" v="160"/>
    <tag k="addr:street" v="Chalet Drive"/>
    <tag k="addr:state" v="VT"/>
    <tag k="ref:vcgi:esiteid" v="171409"/>
  </node>
  <node id="-524" visible="true" lat="43.43984603" lon="-72.76802063">
    <tag k="addr:housenumber" v="566"/>
    <tag k="addr:street" v="Alpine Drive"/>
    <tag k="addr:state" v="VT"/>
    <tag k="ref:vcgi:esiteid" v="171411"/>
  </node>
  <node id="-525" visible="true" lat="43.43964171" lon="-72.83992719">
    <tag k="addr:housenumber" v="92"/>
    <tag k="addr:street" v="Hardwood Lane"/>
    <tag k="addr:state" v="VT"/>
    <tag k="ref:vcgi:esiteid" v="171412"/>
  </node>
  <node id="-526" visible="true" lat="43.43989433" lon="-72.76653778">
    <tag k="addr:housenumber" v="162"/>
    <tag k="addr:street" v="Chalet Drive"/>
    <tag k="addr:state" v="VT"/>
    <tag k="ref:vcgi:esiteid" v="171413"/>
  </node>
  <node id="-527" visible="true" lat="43.43959045" lon="-72.82687377">
    <tag k="addr:housenumber" v="578"/>
    <tag k="addr:street" v="Belmont Road"/>
    <tag k="addr:state" v="VT"/>
    <tag k="ref:vcgi:esiteid" v="171414"/>
  </node>
  <node id="-528" visible="true" lat="43.43954408" lon="-72.83797894">
    <tag k="addr:housenumber" v="789"/>
    <tag k="addr:street" v="Gates Road South"/>
    <tag k="addr:state" v="VT"/>
    <tag k="ref:vcgi:esiteid" v="171415"/>
  </node>
  <node id="-529" visible="true" lat="43.43972778" lon="-72.76302337">
    <tag k="addr:housenumber" v="66"/>
    <tag k="addr:street" v="Sawyer Hill Road"/>
    <tag k="addr:state" v="VT"/>
    <tag k="ref:vcgi:esiteid" v="171416"/>
  </node>
  <node id="-531" visible="true" lat="43.43973342" lon="-72.82550684">
    <tag k="addr:housenumber" v="45"/>
    <tag k="addr:street" v="Frost Hill Road"/>
    <tag k="addr:state" v="VT"/>
    <tag k="ref:vcgi:esiteid" v="171418"/>
  </node>
  <node id="-532" visible="true" lat="43.43947219" lon="-72.83953094">
    <tag k="addr:housenumber" v="96"/>
    <tag k="addr:street" v="Hardwood Lane"/>
    <tag k="addr:state" v="VT"/>
    <tag k="ref:vcgi:esiteid" v="171419"/>
  </node>
  <node id="-536" visible="true" lat="43.43922805" lon="-72.76699829">
    <tag k="addr:housenumber" v="184"/>
    <tag k="addr:street" v="Chalet Drive"/>
    <tag k="addr:state" v="VT"/>
    <tag k="ref:vcgi:esiteid" v="171423"/>
  </node>
  <node id="-539" visible="true" lat="43.43905426" lon="-72.76632328">
    <tag k="addr:housenumber" v="144"/>
    <tag k="addr:street" v="Chalet Drive"/>
    <tag k="addr:state" v="VT"/>
    <tag k="ref:vcgi:esiteid" v="171426"/>
  </node>
  <node id="-540" visible="true" lat="43.43903635" lon="-72.7691142">
    <tag k="addr:housenumber" v="491"/>
    <tag k="addr:street" v="Alpine Drive"/>
    <tag k="addr:state" v="VT"/>
    <tag k="ref:vcgi:esiteid" v="171427"/>
  </node>
  <node id="-542" visible="true" lat="43.43895427" lon="-72.76552032">
    <tag k="addr:housenumber" v="106"/>
    <tag k="addr:street" v="Chalet Drive"/>
    <tag k="addr:state" v="VT"/>
    <tag k="ref:vcgi:esiteid" v="171429"/>
  </node>
  <node id="-543" visible="true" lat="43.43887063" lon="-72.76851029">
    <tag k="addr:housenumber" v="490"/>
    <tag k="addr:street" v="Alpine Drive"/>
    <tag k="addr:state" v="VT"/>
    <tag k="ref:vcgi:esiteid" v="171430"/>
  </node>
  <node id="-544" visible="true" lat="43.43879699" lon="-72.76369476">
    <tag k="addr:housenumber" v="62"/>
    <tag k="addr:street" v="Healdville Road"/>
    <tag k="addr:state" v="VT"/>
    <tag k="ref:vcgi:esiteid" v="171431"/>
  </node>
  <node id="-545" visible="true" lat="43.43862536" lon="-72.83495288">
    <tag k="addr:housenumber" v="674"/>
    <tag k="addr:street" v="Gates Road South"/>
    <tag k="addr:state" v="VT"/>
    <tag k="ref:vcgi:esiteid" v="171432"/>
  </node>
  <node id="-546" visible="true" lat="43.43883669" lon="-72.76302265">
    <tag k="addr:housenumber" v="34"/>
    <tag k="addr:street" v="Greenstand Road"/>
    <tag k="addr:state" v="VT"/>
    <tag k="ref:vcgi:esiteid" v="171433"/>
  </node>
  <node id="-551" visible="true" lat="43.43850326" lon="-72.7652893">
    <tag k="addr:housenumber" v="91"/>
    <tag k="addr:street" v="Chalet Drive"/>
    <tag k="addr:state" v="VT"/>
    <tag k="ref:vcgi:esiteid" v="171438"/>
  </node>
  <node id="-552" visible="true" lat="43.43836156" lon="-72.86173459">
    <tag k="addr:housenumber" v="101"/>
    <tag k="addr:street" v="Fowler Brook Road"/>
    <tag k="addr:state" v="VT"/>
    <tag k="ref:vcgi:esiteid" v="171439"/>
  </node>
  <node id="-553" visible="true" lat="43.43842689" lon="-72.76637602">
    <tag k="addr:housenumber" v="19"/>
    <tag k="addr:street" v="Okemo Way"/>
    <tag k="addr:state" v="VT"/>
    <tag k="ref:vcgi:esiteid" v="171440"/>
  </node>
  <node id="-554" visible="true" lat="43.43842676" lon="-72.76856441">
    <tag k="addr:housenumber" v="462"/>
    <tag k="addr:street" v="Alpine Drive"/>
    <tag k="addr:state" v="VT"/>
    <tag k="ref:vcgi:esiteid" v="171441"/>
  </node>
  <node id="-555" visible="true" lat="43.43848108" lon="-72.76939216">
    <tag k="addr:housenumber" v="449"/>
    <tag k="addr:street" v="Alpine Drive"/>
    <tag k="addr:state" v="VT"/>
    <tag k="ref:vcgi:esiteid" v="171442"/>
  </node>
  <node id="-556" visible="true" lat="43.43854792" lon="-72.76318122">
    <tag k="addr:housenumber" v="95"/>
    <tag k="addr:street" v="Healdville Road"/>
    <tag k="addr:state" v="VT"/>
    <tag k="ref:vcgi:esiteid" v="171443"/>
  </node>
  <node id="-561" visible="true" lat="43.43802261" lon="-72.76973724">
    <tag k="addr:housenumber" v="419"/>
    <tag k="addr:street" v="Alpine Drive"/>
    <tag k="addr:state" v="VT"/>
    <tag k="ref:vcgi:esiteid" v="171448"/>
  </node>
  <node id="-564" visible="true" lat="43.43798567" lon="-72.76868024">
    <tag k="addr:housenumber" v="430"/>
    <tag k="addr:street" v="Alpine Drive"/>
    <tag k="addr:state" v="VT"/>
    <tag k="ref:vcgi:esiteid" v="171451"/>
  </node>
  <node id="-565" visible="true" lat="43.43794192" lon="-72.76553443">
    <tag k="addr:housenumber" v="62"/>
    <tag k="addr:street" v="Alpine Drive"/>
    <tag k="addr:state" v="VT"/>
    <tag k="ref:vcgi:esiteid" v="171452"/>
  </node>
  <node id="-566" visible="true" lat="43.43775321" lon="-72.82748567">
    <tag k="addr:housenumber" v="716"/>
    <tag k="addr:street" v="Belmont Road"/>
    <tag k="addr:state" v="VT"/>
    <tag k="ref:vcgi:esiteid" v="171453"/>
  </node>
  <node id="-567" visible="true" lat="43.43769158" lon="-72.7648478">
    <tag k="addr:housenumber" v="67"/>
    <tag k="addr:street" v="Alpine Drive"/>
    <tag k="addr:state" v="VT"/>
    <tag k="ref:vcgi:esiteid" v="171454"/>
  </node>
  <node id="-575" visible="true" lat="43.43735069" lon="-72.76579975">
    <tag k="addr:housenumber" v="100"/>
    <tag k="addr:street" v="Alpine Drive"/>
    <tag k="addr:state" v="VT"/>
    <tag k="ref:vcgi:esiteid" v="171462"/>
  </node>
  <node id="-579" visible="true" lat="43.43746534" lon="-72.76788948">
    <tag k="addr:housenumber" v="120"/>
    <tag k="addr:street" v="Okemo Way"/>
    <tag k="addr:state" v="VT"/>
    <tag k="ref:vcgi:esiteid" v="171466"/>
  </node>
  <node id="-581" visible="true" lat="43.43738826" lon="-72.7700419">
    <tag k="addr:housenumber" v="367"/>
    <tag k="addr:street" v="Alpine Drive"/>
    <tag k="addr:state" v="VT"/>
    <tag k="ref:vcgi:esiteid" v="171468"/>
  </node>
  <node id="-583" visible="true" lat="43.43718478" lon="-72.76510755">
    <tag k="addr:housenumber" v="109"/>
    <tag k="addr:street" v="Alpine Drive"/>
    <tag k="addr:state" v="VT"/>
    <tag k="ref:vcgi:esiteid" v="171470"/>
  </node>
  <node id="-584" visible="true" lat="43.43690504" lon="-72.76611026">
    <tag k="addr:housenumber" v="170"/>
    <tag k="addr:street" v="Alpine Drive"/>
    <tag k="addr:state" v="VT"/>
    <tag k="ref:vcgi:esiteid" v="171471"/>
  </node>
  <node id="-586" visible="true" lat="43.43690872" lon="-72.76804351">
    <tag k="addr:housenumber" v="146"/>
    <tag k="addr:street" v="Okemo Way"/>
    <tag k="addr:state" v="VT"/>
    <tag k="ref:vcgi:esiteid" v="171473"/>
  </node>
  <node id="-587" visible="true" lat="43.4368793" lon="-72.75185016">
    <tag k="addr:housenumber" v="31"/>
    <tag k="addr:street" v="Station Road"/>
    <tag k="addr:state" v="VT"/>
    <tag k="ref:vcgi:esiteid" v="171474"/>
  </node>
  <node id="-588" visible="true" lat="43.43684006" lon="-72.76994577">
    <tag k="addr:housenumber" v="345"/>
    <tag k="addr:street" v="Alpine Drive"/>
    <tag k="addr:state" v="VT"/>
    <tag k="ref:vcgi:esiteid" v="171475"/>
  </node>
  <node id="-590" visible="true" lat="43.43673149" lon="-72.83186344">
    <tag k="addr:housenumber" v="456"/>
    <tag k="addr:street" v="Gates Road South"/>
    <tag k="addr:state" v="VT"/>
    <tag k="ref:vcgi:esiteid" v="171477"/>
  </node>
  <node id="-592" visible="true" lat="43.43681722" lon="-72.75337289">
    <tag k="addr:housenumber" v="58"/>
    <tag k="addr:street" v="Station Road"/>
    <tag k="addr:state" v="VT"/>
    <tag k="ref:vcgi:esiteid" v="171479"/>
  </node>
  <node id="-595" visible="true" lat="43.43630221" lon="-72.76787052">
    <tag k="addr:housenumber" v="255"/>
    <tag k="addr:street" v="Alpine Drive"/>
    <tag k="addr:state" v="VT"/>
    <tag k="ref:vcgi:esiteid" v="171482"/>
  </node>
  <node id="-596" visible="true" lat="43.43641394" lon="-72.75267669">
    <tag k="addr:housenumber" v="71"/>
    <tag k="addr:street" v="Station Road"/>
    <tag k="addr:state" v="VT"/>
    <tag k="ref:vcgi:esiteid" v="171483"/>
  </node>
  <node id="-598" visible="true" lat="43.43629479" lon="-72.76572114">
    <tag k="addr:housenumber" v="159"/>
    <tag k="addr:street" v="Alpine Drive"/>
    <tag k="addr:state" v="VT"/>
    <tag k="ref:vcgi:esiteid" v="171485"/>
  </node>
  <node id="-599" visible="true" lat="43.43627919" lon="-72.76711616">
    <tag k="addr:housenumber" v="215"/>
    <tag k="addr:street" v="Alpine Drive"/>
    <tag k="addr:state" v="VT"/>
    <tag k="ref:vcgi:esiteid" v="171486"/>
  </node>
  <node id="-600" visible="true" lat="43.43625851" lon="-72.7702916">
    <tag k="addr:housenumber" v="337"/>
    <tag k="addr:street" v="Alpine Drive"/>
    <tag k="addr:state" v="VT"/>
    <tag k="ref:vcgi:esiteid" v="171487"/>
  </node>
  <node id="-601" visible="true" lat="43.43621592" lon="-72.75454383">
    <tag k="addr:housenumber" v="160"/>
    <tag k="addr:street" v="Station Road"/>
    <tag k="addr:state" v="VT"/>
    <tag k="ref:vcgi:esiteid" v="171488"/>
  </node>
  <node id="-602" visible="true" lat="43.43627943" lon="-72.83265292">
    <tag k="addr:housenumber" v="457"/>
    <tag k="addr:street" v="Gates Road South"/>
    <tag k="addr:state" v="VT"/>
    <tag k="ref:vcgi:esiteid" v="171489"/>
  </node>
  <node id="-603" visible="true" lat="43.43617233" lon="-72.7666236">
    <tag k="addr:housenumber" v="191"/>
    <tag k="addr:street" v="Alpine Drive"/>
    <tag k="addr:state" v="VT"/>
    <tag k="ref:vcgi:esiteid" v="171490"/>
  </node>
  <node id="-604" visible="true" lat="43.43603915" lon="-72.76504375">
    <tag k="addr:housenumber" v="145"/>
    <tag k="addr:street" v="Alpine Drive"/>
    <tag k="addr:state" v="VT"/>
    <tag k="ref:vcgi:esiteid" v="171491"/>
  </node>
  <node id="-605" visible="true" lat="43.43616069" lon="-72.82710421">
    <tag k="addr:housenumber" v="826"/>
    <tag k="addr:street" v="Belmont Road"/>
    <tag k="addr:state" v="VT"/>
    <tag k="ref:vcgi:esiteid" v="171492"/>
  </node>
  <node id="-606" visible="true" lat="43.43614135" lon="-72.75516561">
    <tag k="addr:housenumber" v="188"/>
    <tag k="addr:street" v="Station Road"/>
    <tag k="addr:state" v="VT"/>
    <tag k="ref:vcgi:esiteid" v="171493"/>
  </node>
  <node id="-607" visible="true" lat="43.4359688" lon="-72.75369212">
    <tag k="addr:housenumber" v="123"/>
    <tag k="addr:street" v="Station Road"/>
    <tag k="addr:state" v="VT"/>
    <tag k="ref:vcgi:esiteid" v="171494"/>
  </node>
  <node id="-608" visible="true" lat="43.43565368" lon="-72.75498962">
    <tag k="addr:housenumber" v="189"/>
    <tag k="addr:street" v="Station Road"/>
    <tag k="addr:state" v="VT"/>
    <tag k="ref:vcgi:esiteid" v="171495"/>
  </node>
  <node id="-609" visible="true" lat="43.43551635" lon="-72.75672912">
    <tag k="addr:housenumber" v="272"/>
    <tag k="addr:street" v="Station Road"/>
    <tag k="addr:state" v="VT"/>
    <tag k="ref:vcgi:esiteid" v="171498"/>
  </node>
  <node id="-610" visible="true" lat="43.43542593" lon="-72.75370993">
    <tag k="addr:housenumber" v="145"/>
    <tag k="addr:street" v="Station Road"/>
    <tag k="addr:state" v="VT"/>
    <tag k="ref:vcgi:esiteid" v="171499"/>
  </node>
  <node id="-611" visible="true" lat="43.43504148" lon="-72.83382571">
    <tag k="addr:housenumber" v="435"/>
    <tag k="addr:street" v="Gates Road South"/>
    <tag k="addr:state" v="VT"/>
    <tag k="ref:vcgi:esiteid" v="171500"/>
  </node>
  <node id="-612" visible="true" lat="43.43509292" lon="-72.75597381">
    <tag k="addr:housenumber" v="253"/>
    <tag k="addr:street" v="Station Road"/>
    <tag k="addr:state" v="VT"/>
    <tag k="ref:vcgi:esiteid" v="171501"/>
  </node>
  <node id="-613" visible="true" lat="43.43507703" lon="-72.75847999">
    <tag k="addr:housenumber" v="360"/>
    <tag k="addr:street" v="Station Road"/>
    <tag k="addr:state" v="VT"/>
    <tag k="ref:vcgi:esiteid" v="171502"/>
  </node>
  <node id="-614" visible="true" lat="43.43479537" lon="-72.75975036">
    <tag k="addr:housenumber" v="434"/>
    <tag k="addr:street" v="Station Road"/>
    <tag k="addr:state" v="VT"/>
    <tag k="ref:vcgi:esiteid" v="171503"/>
  </node>
  <node id="-617" visible="true" lat="43.43432032" lon="-72.76134385">
    <tag k="addr:housenumber" v="518"/>
    <tag k="addr:street" v="Station Road"/>
    <tag k="addr:state" v="VT"/>
    <tag k="ref:vcgi:esiteid" v="171506"/>
  </node>
  <node id="-618" visible="true" lat="43.43430289" lon="-72.82641959">
    <tag k="addr:housenumber" v="960"/>
    <tag k="addr:street" v="Belmont Road"/>
    <tag k="addr:state" v="VT"/>
    <tag k="ref:vcgi:esiteid" v="171507"/>
  </node>
  <node id="-619" visible="true" lat="43.43396328" lon="-72.76228572">
    <tag k="addr:housenumber" v="568"/>
    <tag k="addr:street" v="Station Road"/>
    <tag k="addr:state" v="VT"/>
    <tag k="ref:vcgi:esiteid" v="171508"/>
  </node>
  <node id="-623" visible="true" lat="43.43336977" lon="-72.76291465">
    <tag k="addr:housenumber" v="620"/>
    <tag k="addr:street" v="Station Road"/>
    <tag k="addr:state" v="VT"/>
    <tag k="ref:vcgi:esiteid" v="171512"/>
  </node>
  <node id="-624" visible="true" lat="43.43322891" lon="-72.82632037">
    <tag k="addr:housenumber" v="78"/>
    <tag k="addr:street" v="Gates Road South"/>
    <tag k="addr:state" v="VT"/>
    <tag k="ref:vcgi:esiteid" v="171513"/>
  </node>
  <node id="-627" visible="true" lat="43.43313084" lon="-72.7633043">
    <tag k="addr:housenumber" v="644"/>
    <tag k="addr:street" v="Station Road"/>
    <tag k="addr:state" v="VT"/>
    <tag k="ref:vcgi:esiteid" v="171516"/>
  </node>
  <node id="-628" visible="true" lat="43.43310562" lon="-72.76223128">
    <tag k="addr:housenumber" v="625"/>
    <tag k="addr:street" v="Station Road"/>
    <tag k="addr:state" v="VT"/>
    <tag k="ref:vcgi:esiteid" v="171517"/>
  </node>
  <node id="-629" visible="true" lat="43.43285412" lon="-72.76363005">
    <tag k="addr:housenumber" v="666"/>
    <tag k="addr:street" v="Station Road"/>
    <tag k="addr:state" v="VT"/>
    <tag k="ref:vcgi:esiteid" v="171518"/>
  </node>
  <node id="-630" visible="true" lat="43.43282308" lon="-72.78823067">
    <tag k="addr:housenumber" v="430"/>
    <tag k="addr:street" v="Fenn Road"/>
    <tag k="addr:state" v="VT"/>
    <tag k="ref:vcgi:esiteid" v="171519"/>
  </node>
  <node id="-631" visible="true" lat="43.43270432" lon="-72.76299475">
    <tag k="addr:housenumber" v="661"/>
    <tag k="addr:street" v="Station Road"/>
    <tag k="addr:state" v="VT"/>
    <tag k="ref:vcgi:esiteid" v="171520"/>
  </node>
  <node id="-633" visible="true" lat="43.43261494" lon="-72.79048589">
    <tag k="addr:housenumber" v="676"/>
    <tag k="addr:street" v="Stewart Road South"/>
    <tag k="addr:state" v="VT"/>
    <tag k="ref:vcgi:esiteid" v="171522"/>
  </node>
  <node id="-635" visible="true" lat="43.43252094" lon="-72.78627177">
    <tag k="addr:housenumber" v="346"/>
    <tag k="addr:street" v="Fenn Road"/>
    <tag k="addr:state" v="VT"/>
    <tag k="ref:vcgi:esiteid" v="171524"/>
  </node>
  <node id="-636" visible="true" lat="43.43222606" lon="-72.7886075">
    <tag k="addr:housenumber" v="393"/>
    <tag k="addr:street" v="Fenn Road"/>
    <tag k="addr:state" v="VT"/>
    <tag k="ref:vcgi:esiteid" v="171525"/>
  </node>
  <node id="-638" visible="true" lat="43.4321237" lon="-72.81028916">
    <tag k="addr:housenumber" v="979"/>
    <tag k="addr:street" v="Frost Hill Road"/>
    <tag k="addr:state" v="VT"/>
    <tag k="ref:vcgi:esiteid" v="171527"/>
  </node>
  <node id="-640" visible="true" lat="43.43171524" lon="-72.82351653">
    <tag k="addr:housenumber" v="1189"/>
    <tag k="addr:street" v="Belmont Road"/>
    <tag k="addr:state" v="VT"/>
    <tag k="ref:vcgi:esiteid" v="171529"/>
  </node>
  <node id="-641" visible="true" lat="43.43200469" lon="-72.80570554">
    <tag k="addr:housenumber" v="1029"/>
    <tag k="addr:street" v="Frost Hill Road"/>
    <tag k="addr:state" v="VT"/>
    <tag k="ref:vcgi:esiteid" v="171530"/>
  </node>
  <node id="-642" visible="true" lat="43.43149929" lon="-72.8262103">
    <tag k="addr:housenumber" v="1156"/>
    <tag k="addr:street" v="Belmont Road"/>
    <tag k="addr:state" v="VT"/>
    <tag k="ref:vcgi:esiteid" v="171531"/>
  </node>
  <node id="-643" visible="true" lat="43.43131823" lon="-72.82771844">
    <tag k="addr:housenumber" v="93"/>
    <tag k="addr:street" v="Gates Road South"/>
    <tag k="addr:state" v="VT"/>
    <tag k="ref:vcgi:esiteid" v="171532"/>
  </node>
  <node id="-644" visible="true" lat="43.4311726" lon="-72.81063104">
    <tag k="addr:housenumber" v="1016"/>
    <tag k="addr:street" v="Frost Hill Road"/>
    <tag k="addr:state" v="VT"/>
    <tag k="ref:vcgi:esiteid" v="171533"/>
  </node>
  <node id="-645" visible="true" lat="43.43098707" lon="-72.79199986">
    <tag k="addr:housenumber" v="581"/>
    <tag k="addr:street" v="Stewart Road South"/>
    <tag k="addr:state" v="VT"/>
    <tag k="ref:vcgi:esiteid" v="171534"/>
  </node>
  <node id="-646" visible="true" lat="43.43112376" lon="-72.76682287">
    <tag k="addr:housenumber" v="652"/>
    <tag k="addr:street" v="Healdville Road"/>
    <tag k="addr:state" v="VT"/>
    <tag k="ref:vcgi:esiteid" v="171535"/>
  </node>
  <node id="-647" visible="true" lat="43.43090057" lon="-72.82269287">
    <tag k="addr:housenumber" v="1221"/>
    <tag k="addr:street" v="Belmont Road"/>
    <tag k="addr:state" v="VT"/>
    <tag k="ref:vcgi:esiteid" v="171536"/>
  </node>
  <node id="-649" visible="true" lat="43.43087317" lon="-72.80758181">
    <tag k="addr:housenumber" v="1031"/>
    <tag k="addr:street" v="Frost Hill Road"/>
    <tag k="addr:state" v="VT"/>
    <tag k="ref:vcgi:esiteid" v="171538"/>
  </node>
  <node id="-650" visible="true" lat="43.43089799" lon="-72.78809419">
    <tag k="addr:housenumber" v="175"/>
    <tag k="addr:street" v="Fenn Road"/>
    <tag k="addr:state" v="VT"/>
    <tag k="ref:vcgi:esiteid" v="171539"/>
  </node>
  <node id="-651" visible="true" lat="43.43050385" lon="-72.7678833">
    <tag k="addr:housenumber" v="720"/>
    <tag k="addr:street" v="Healdville Road"/>
    <tag k="addr:state" v="VT"/>
    <tag k="ref:vcgi:esiteid" v="171540"/>
  </node>
  <node id="-652" visible="true" lat="43.43038732" lon="-72.82196535">
    <tag k="addr:housenumber" v="1301"/>
    <tag k="addr:street" v="Belmont Road"/>
    <tag k="addr:state" v="VT"/>
    <tag k="ref:vcgi:esiteid" v="171541"/>
  </node>
  <node id="-655" visible="true" lat="43.42964172" lon="-72.76965332">
    <tag k="addr:housenumber" v="836"/>
    <tag k="addr:street" v="Healdville Road"/>
    <tag k="addr:state" v="VT"/>
    <tag k="ref:vcgi:esiteid" v="171544"/>
  </node>
  <node id="-657" visible="true" lat="43.4292831" lon="-72.81307175">
    <tag k="addr:housenumber" v="1182"/>
    <tag k="addr:street" v="Frost Hill Road"/>
    <tag k="addr:state" v="VT"/>
    <tag k="ref:vcgi:esiteid" v="171546"/>
  </node>
  <node id="-658" visible="true" lat="43.42906301" lon="-72.78438784">
    <tag k="addr:housenumber" v="206"/>
    <tag k="addr:street" v="Fenn Road"/>
    <tag k="addr:state" v="VT"/>
    <tag k="ref:vcgi:esiteid" v="171547"/>
  </node>
  <node id="-659" visible="true" lat="43.42902321" lon="-72.82173444">
    <tag k="addr:housenumber" v="1350"/>
    <tag k="addr:street" v="Belmont Road"/>
    <tag k="addr:state" v="VT"/>
    <tag k="ref:vcgi:esiteid" v="171548"/>
  </node>
  <node id="-660" visible="true" lat="43.42899373" lon="-72.7777167">
    <tag k="addr:housenumber" v="1284"/>
    <tag k="addr:street" v="Healdville Road"/>
    <tag k="addr:state" v="VT"/>
    <tag k="ref:vcgi:esiteid" v="171549"/>
  </node>
  <node id="-661" visible="true" lat="43.42926336" lon="-72.77118408">
    <tag k="addr:housenumber" v="920"/>
    <tag k="addr:street" v="Healdville Road"/>
    <tag k="addr:state" v="VT"/>
    <tag k="ref:vcgi:esiteid" v="171550"/>
  </node>
  <node id="-662" visible="true" lat="43.4289578" lon="-72.77179058">
    <tag k="addr:housenumber" v="950"/>
    <tag k="addr:street" v="Healdville Road"/>
    <tag k="addr:state" v="VT"/>
    <tag k="ref:vcgi:esiteid" v="171551"/>
  </node>
  <node id="-663" visible="true" lat="43.42874557" lon="-72.79145493">
    <tag k="addr:housenumber" v="419"/>
    <tag k="addr:street" v="Stewart Road South"/>
    <tag k="addr:state" v="VT"/>
    <tag k="ref:vcgi:esiteid" v="171552"/>
  </node>
  <node id="-666" visible="true" lat="43.42868979" lon="-72.77356557">
    <tag k="addr:housenumber" v="1044"/>
    <tag k="addr:street" v="Healdville Road"/>
    <tag k="addr:state" v="VT"/>
    <tag k="ref:vcgi:esiteid" v="171555"/>
  </node>
  <node id="-667" visible="true" lat="43.42861108" lon="-72.77156101">
    <tag k="addr:housenumber" v="951"/>
    <tag k="addr:street" v="Healdville Road"/>
    <tag k="addr:state" v="VT"/>
    <tag k="ref:vcgi:esiteid" v="171556"/>
  </node>
  <node id="-669" visible="true" lat="43.42811167" lon="-72.77477411">
    <tag k="addr:housenumber" v="1108"/>
    <tag k="addr:street" v="Healdville Road"/>
    <tag k="addr:state" v="VT"/>
    <tag k="ref:vcgi:esiteid" v="171558"/>
  </node>
  <node id="-671" visible="true" lat="43.42813231" lon="-72.81881502">
    <tag k="addr:housenumber" v="1503"/>
    <tag k="addr:street" v="Belmont Road"/>
    <tag k="addr:state" v="VT"/>
    <tag k="ref:vcgi:esiteid" v="171560"/>
  </node>
  <node id="-672" visible="true" lat="43.42857467" lon="-72.81450295">
    <tag k="addr:housenumber" v="1292"/>
    <tag k="addr:street" v="Frost Hill Road"/>
    <tag k="addr:state" v="VT"/>
    <tag k="ref:vcgi:esiteid" v="171561"/>
  </node>
  <node id="-673" visible="true" lat="43.42784881" lon="-72.7712326">
    <tag k="addr:housenumber" v="85"/>
    <tag k="addr:street" v="Branch Brook Road"/>
    <tag k="addr:state" v="VT"/>
    <tag k="ref:vcgi:esiteid" v="171562"/>
  </node>
  <node id="-674" visible="true" lat="43.42786764" lon="-72.77605102">
    <tag k="addr:housenumber" v="1186"/>
    <tag k="addr:street" v="Healdville Road"/>
    <tag k="addr:state" v="VT"/>
    <tag k="ref:vcgi:esiteid" v="171563"/>
  </node>
  <node id="-675" visible="true" lat="43.42777049" lon="-72.77680815">
    <tag k="addr:housenumber" v="1224"/>
    <tag k="addr:street" v="Healdville Road"/>
    <tag k="addr:state" v="VT"/>
    <tag k="ref:vcgi:esiteid" v="171564"/>
  </node>
  <node id="-676" visible="true" lat="43.42759065" lon="-72.77955339">
    <tag k="addr:housenumber" v="1388"/>
    <tag k="addr:street" v="Healdville Road"/>
    <tag k="addr:state" v="VT"/>
    <tag k="ref:vcgi:esiteid" v="171565"/>
  </node>
  <node id="-678" visible="true" lat="43.42720376" lon="-72.81943901">
    <tag k="addr:housenumber" v="1529"/>
    <tag k="addr:street" v="Belmont Road"/>
    <tag k="addr:state" v="VT"/>
    <tag k="ref:vcgi:esiteid" v="171567"/>
  </node>
  <node id="-679" visible="true" lat="43.42734549" lon="-72.81217625">
    <tag k="addr:housenumber" v="1344"/>
    <tag k="addr:street" v="Frost Hill Road"/>
    <tag k="addr:state" v="VT"/>
    <tag k="ref:vcgi:esiteid" v="171568"/>
  </node>
  <node id="-680" visible="true" lat="43.42744621" lon="-72.77905663">
    <tag k="addr:housenumber" v="1338"/>
    <tag k="addr:street" v="Healdville Road"/>
    <tag k="addr:state" v="VT"/>
    <tag k="ref:vcgi:esiteid" v="171569"/>
  </node>
  <node id="-684" visible="true" lat="43.42650013" lon="-72.78356587">
    <tag k="addr:housenumber" v="1579"/>
    <tag k="addr:street" v="Healdville Road"/>
    <tag k="addr:state" v="VT"/>
    <tag k="ref:vcgi:esiteid" v="171573"/>
  </node>
  <node id="-687" visible="true" lat="43.42644149" lon="-72.78260335">
    <tag k="addr:housenumber" v="1595"/>
    <tag k="addr:street" v="Healdville Road"/>
    <tag k="addr:state" v="VT"/>
    <tag k="ref:vcgi:esiteid" v="171576"/>
  </node>
  <node id="-689" visible="true" lat="43.42617683" lon="-72.81491255">
    <tag k="addr:housenumber" v="317"/>
    <tag k="addr:street" v="Teer Road"/>
    <tag k="addr:state" v="VT"/>
    <tag k="ref:vcgi:esiteid" v="171578"/>
  </node>
  <node id="-692" visible="true" lat="43.42592364" lon="-72.81905934">
    <tag k="addr:housenumber" v="1641"/>
    <tag k="addr:street" v="Belmont Road"/>
    <tag k="addr:state" v="VT"/>
    <tag k="ref:vcgi:esiteid" v="171581"/>
  </node>
  <node id="-693" visible="true" lat="43.42588806" lon="-72.77169036">
    <tag k="addr:housenumber" v="247"/>
    <tag k="addr:street" v="Branch Brook Road"/>
    <tag k="addr:state" v="VT"/>
    <tag k="ref:vcgi:esiteid" v="171582"/>
  </node>
  <node id="-694" visible="true" lat="43.42566414" lon="-72.77493813">
    <tag k="addr:housenumber" v="278"/>
    <tag k="addr:street" v="Branch Brook Road"/>
    <tag k="addr:state" v="VT"/>
    <tag k="ref:vcgi:esiteid" v="171583"/>
  </node>
  <node id="-695" visible="true" lat="43.42555236" lon="-72.77283477">
    <tag k="addr:housenumber" v="9"/>
    <tag k="addr:street" v="Johnson Lane"/>
    <tag k="addr:state" v="VT"/>
    <tag k="ref:vcgi:esiteid" v="171584"/>
  </node>
  <node id="-697" visible="true" lat="43.42542795" lon="-72.81918704">
    <tag k="addr:housenumber" v="1667"/>
    <tag k="addr:street" v="Belmont Road"/>
    <tag k="addr:state" v="VT"/>
    <tag k="ref:vcgi:esiteid" v="171586"/>
  </node>
  <node id="-698" visible="true" lat="43.42563763" lon="-72.78495472">
    <tag k="addr:housenumber" v="1695"/>
    <tag k="addr:street" v="Healdville Road"/>
    <tag k="addr:state" v="VT"/>
    <tag k="ref:vcgi:esiteid" v="171587"/>
  </node>
  <node id="-699" visible="true" lat="43.425251" lon="-72.7733612">
    <tag k="addr:housenumber" v="314"/>
    <tag k="addr:street" v="Branch Brook Road"/>
    <tag k="addr:state" v="VT"/>
    <tag k="ref:vcgi:esiteid" v="171588"/>
  </node>
  <node id="-700" visible="true" lat="43.42520523" lon="-72.77263641">
    <tag k="addr:housenumber" v="26"/>
    <tag k="addr:street" v="Johnson Lane"/>
    <tag k="addr:state" v="VT"/>
    <tag k="ref:vcgi:esiteid" v="171589"/>
  </node>
  <node id="-701" visible="true" lat="43.425049" lon="-72.81685891">
    <tag k="addr:housenumber" v="203"/>
    <tag k="addr:street" v="Teer Road"/>
    <tag k="addr:state" v="VT"/>
    <tag k="ref:vcgi:esiteid" v="171590"/>
  </node>
  <node id="-702" visible="true" lat="43.42503818" lon="-72.82547688">
    <tag k="addr:housenumber" v="158"/>
    <tag k="addr:street" v="Nichols Road"/>
    <tag k="addr:state" v="VT"/>
    <tag k="ref:vcgi:esiteid" v="171591"/>
  </node>
  <node id="-704" visible="true" lat="43.42490555" lon="-72.78628431">
    <tag k="addr:housenumber" v="1770"/>
    <tag k="addr:street" v="Healdville Road"/>
    <tag k="addr:state" v="VT"/>
    <tag k="ref:vcgi:esiteid" v="171593"/>
  </node>
  <node id="-705" visible="true" lat="43.42478179" lon="-72.77337646">
    <tag k="addr:housenumber" v="346"/>
    <tag k="addr:street" v="Branch Brook Road"/>
    <tag k="addr:state" v="VT"/>
    <tag k="ref:vcgi:esiteid" v="171594"/>
  </node>
  <node id="-707" visible="true" lat="43.42464828" lon="-72.78900909">
    <tag k="addr:housenumber" v="98"/>
    <tag k="addr:street" v="Stewart Road South"/>
    <tag k="addr:state" v="VT"/>
    <tag k="ref:vcgi:esiteid" v="171596"/>
  </node>
  <node id="-710" visible="true" lat="43.4244803" lon="-72.77339323">
    <tag k="addr:housenumber" v="366"/>
    <tag k="addr:street" v="Branch Brook Road"/>
    <tag k="addr:state" v="VT"/>
    <tag k="ref:vcgi:esiteid" v="171599"/>
  </node>
  <node id="-712" visible="true" lat="43.42428023" lon="-72.8149557">
    <tag k="addr:housenumber" v="230"/>
    <tag k="addr:street" v="Teer Road"/>
    <tag k="addr:state" v="VT"/>
    <tag k="ref:vcgi:esiteid" v="171601"/>
  </node>
  <node id="-713" visible="true" lat="43.42416006" lon="-72.78663727">
    <tag k="addr:housenumber" v="14"/>
    <tag k="addr:street" v="Crowley Lane"/>
    <tag k="addr:state" v="VT"/>
    <tag k="ref:vcgi:esiteid" v="171602"/>
  </node>
  <node id="-714" visible="true" lat="43.42426918" lon="-72.78829089">
    <tag k="addr:housenumber" v="46"/>
    <tag k="addr:street" v="Stewart Road South"/>
    <tag k="addr:state" v="VT"/>
    <tag k="ref:vcgi:esiteid" v="171603"/>
  </node>
  <node id="-716" visible="true" lat="43.42363842" lon="-72.8213768">
    <tag k="addr:housenumber" v="78"/>
    <tag k="addr:street" v="Nichols Road"/>
    <tag k="addr:state" v="VT"/>
    <tag k="ref:vcgi:esiteid" v="171605"/>
  </node>
  <node id="-720" visible="true" lat="43.42336476" lon="-72.77270852">
    <tag k="addr:housenumber" v="443"/>
    <tag k="addr:street" v="Branch Brook Road"/>
    <tag k="addr:state" v="VT"/>
    <tag k="ref:vcgi:esiteid" v="171609"/>
  </node>
  <node id="-722" visible="true" lat="43.42274345" lon="-72.82070637">
    <tag k="addr:housenumber" v="45"/>
    <tag k="addr:street" v="Nichols Road"/>
    <tag k="addr:state" v="VT"/>
    <tag k="ref:vcgi:esiteid" v="171611"/>
  </node>
  <node id="-725" visible="true" lat="43.42282485" lon="-72.77269744">
    <tag k="addr:housenumber" v="483"/>
    <tag k="addr:street" v="Branch Brook Road"/>
    <tag k="addr:state" v="VT"/>
    <tag k="ref:vcgi:esiteid" v="171614"/>
  </node>
  <node id="-726" visible="true" lat="43.4227333" lon="-72.7889862">
    <tag k="addr:housenumber" v="1966"/>
    <tag k="addr:street" v="Healdville Road"/>
    <tag k="addr:state" v="VT"/>
    <tag k="ref:vcgi:esiteid" v="171615"/>
  </node>
  <node id="-728" visible="true" lat="43.42262268" lon="-72.82264709">
    <tag k="addr:housenumber" v="143"/>
    <tag k="addr:street" v="Nichols Road"/>
    <tag k="addr:state" v="VT"/>
    <tag k="ref:vcgi:esiteid" v="171617"/>
  </node>
  <node id="-729" visible="true" lat="43.42276964" lon="-72.77192992">
    <tag k="addr:housenumber" v="497"/>
    <tag k="addr:street" v="Branch Brook Road"/>
    <tag k="addr:state" v="VT"/>
    <tag k="ref:vcgi:esiteid" v="171618"/>
  </node>
  <node id="-735" visible="true" lat="43.42200817" lon="-72.77433263">
    <tag k="addr:housenumber" v="482"/>
    <tag k="addr:street" v="Branch Brook Road"/>
    <tag k="addr:state" v="VT"/>
    <tag k="ref:vcgi:esiteid" v="171624"/>
  </node>
  <node id="-737" visible="true" lat="43.4216707" lon="-72.81970113">
    <tag k="addr:housenumber" v="1925"/>
    <tag k="addr:street" v="Belmont Road"/>
    <tag k="addr:state" v="VT"/>
    <tag k="ref:vcgi:esiteid" v="171626"/>
  </node>
  <node id="-738" visible="true" lat="43.42158062" lon="-72.82306926">
    <tag k="addr:housenumber" v="2004"/>
    <tag k="addr:street" v="Belmont Road"/>
    <tag k="addr:state" v="VT"/>
    <tag k="ref:vcgi:esiteid" v="171627"/>
  </node>
  <node id="-743" visible="true" lat="43.42088914" lon="-72.77216243">
    <tag k="addr:housenumber" v="623"/>
    <tag k="addr:street" v="Branch Brook Road"/>
    <tag k="addr:state" v="VT"/>
    <tag k="ref:vcgi:esiteid" v="171632"/>
  </node>
  <node id="-745" visible="true" lat="43.42073574" lon="-72.81900739">
    <tag k="addr:housenumber" v="1987"/>
    <tag k="addr:street" v="Belmont Road"/>
    <tag k="addr:state" v="VT"/>
    <tag k="ref:vcgi:esiteid" v="171634"/>
  </node>
  <node id="-750" visible="true" lat="43.42026147" lon="-72.81976408">
    <tag k="addr:housenumber" v="2027"/>
    <tag k="addr:street" v="Belmont Road"/>
    <tag k="addr:state" v="VT"/>
    <tag k="ref:vcgi:esiteid" v="171639"/>
  </node>
  <node id="-751" visible="true" lat="43.42034735" lon="-72.7728011">
    <tag k="addr:housenumber" v="670"/>
    <tag k="addr:street" v="Branch Brook Road"/>
    <tag k="addr:state" v="VT"/>
    <tag k="ref:vcgi:esiteid" v="171640"/>
  </node>
  <node id="-754" visible="true" lat="43.41987766" lon="-72.82111874">
    <tag k="addr:housenumber" v="2062"/>
    <tag k="addr:street" v="Belmont Road"/>
    <tag k="addr:state" v="VT"/>
    <tag k="ref:vcgi:esiteid" v="171643"/>
  </node>
  <node id="-758" visible="true" lat="43.4195228" lon="-72.82113373">
    <tag k="addr:housenumber" v="2086"/>
    <tag k="addr:street" v="Belmont Road"/>
    <tag k="addr:state" v="VT"/>
    <tag k="ref:vcgi:esiteid" v="171647"/>
  </node>
  <node id="-759" visible="true" lat="43.41934097" lon="-72.77195595">
    <tag k="addr:housenumber" v="707"/>
    <tag k="addr:street" v="Branch Brook Road"/>
    <tag k="addr:state" v="VT"/>
    <tag k="ref:vcgi:esiteid" v="171648"/>
  </node>
  <node id="-763" visible="true" lat="43.41912106" lon="-72.82186243">
    <tag k="addr:housenumber" v="68"/>
    <tag k="addr:street" v="Tiffany Road"/>
    <tag k="addr:state" v="VT"/>
    <tag k="ref:vcgi:esiteid" v="171652"/>
  </node>
  <node id="-765" visible="true" lat="43.41871593" lon="-72.77364025">
    <tag k="addr:housenumber" v="806"/>
    <tag k="addr:street" v="Branch Brook Road"/>
    <tag k="addr:state" v="VT"/>
    <tag k="ref:vcgi:esiteid" v="171654"/>
  </node>
  <node id="-767" visible="true" lat="43.41827616" lon="-72.82157674">
    <tag k="addr:housenumber" v="27"/>
    <tag k="addr:street" v="Tiffany Road"/>
    <tag k="addr:state" v="VT"/>
    <tag k="ref:vcgi:esiteid" v="171656"/>
  </node>
  <node id="-768" visible="true" lat="43.41814673" lon="-72.77307415">
    <tag k="addr:housenumber" v="797"/>
    <tag k="addr:street" v="Branch Brook Road"/>
    <tag k="addr:state" v="VT"/>
    <tag k="ref:vcgi:esiteid" v="171657"/>
  </node>
  <node id="-770" visible="true" lat="43.41780257" lon="-72.82072117">
    <tag k="addr:housenumber" v="2203"/>
    <tag k="addr:street" v="Belmont Road"/>
    <tag k="addr:state" v="VT"/>
    <tag k="ref:vcgi:esiteid" v="171659"/>
  </node>
  <node id="-771" visible="true" lat="43.41743722" lon="-72.79304096">
    <tag k="addr:housenumber" v="2370"/>
    <tag k="addr:street" v="Healdville Road"/>
    <tag k="addr:state" v="VT"/>
    <tag k="ref:vcgi:esiteid" v="171660"/>
  </node>
  <node id="-772" visible="true" lat="43.41743087" lon="-72.82006492">
    <tag k="addr:housenumber" v="2229"/>
    <tag k="addr:street" v="Belmont Road"/>
    <tag k="addr:state" v="VT"/>
    <tag k="ref:vcgi:esiteid" v="171661"/>
  </node>
  <node id="-773" visible="true" lat="43.41726115" lon="-72.79673445">
    <tag k="addr:housenumber" v="2679"/>
    <tag k="addr:street" v="Healdville Road"/>
    <tag k="addr:state" v="VT"/>
    <tag k="ref:vcgi:esiteid" v="171662"/>
  </node>
  <node id="-774" visible="true" lat="43.4174321" lon="-72.79137383">
    <tag k="addr:housenumber" v="2385"/>
    <tag k="addr:street" v="Healdville Road"/>
    <tag k="addr:state" v="VT"/>
    <tag k="ref:vcgi:esiteid" v="171663"/>
  </node>
  <node id="-776" visible="true" lat="43.41721029" lon="-72.82121258">
    <tag k="addr:housenumber" v="2244"/>
    <tag k="addr:street" v="Belmont Road"/>
    <tag k="addr:state" v="VT"/>
    <tag k="ref:vcgi:esiteid" v="171665"/>
  </node>
  <node id="-777" visible="true" lat="43.41723225" lon="-72.81317031">
    <tag k="addr:housenumber" v="229"/>
    <tag k="addr:street" v="Star Lake Drive"/>
    <tag k="addr:state" v="VT"/>
    <tag k="ref:vcgi:esiteid" v="171666"/>
  </node>
  <node id="-779" visible="true" lat="43.41711044" lon="-72.81001281">
    <tag k="addr:housenumber" v="3400"/>
    <tag k="addr:street" v="Healdville Road"/>
    <tag k="addr:state" v="VT"/>
    <tag k="ref:vcgi:esiteid" v="171668"/>
  </node>
  <node id="-782" visible="true" lat="43.41693115" lon="-72.82073974">
    <tag k="addr:housenumber" v="2257"/>
    <tag k="addr:street" v="Belmont Road"/>
    <tag k="addr:state" v="VT"/>
    <tag k="ref:vcgi:esiteid" v="171671"/>
  </node>
  <node id="-783" visible="true" lat="43.41698928" lon="-72.81344137">
    <tag k="addr:housenumber" v="219"/>
    <tag k="addr:street" v="Star Lake Drive"/>
    <tag k="addr:state" v="VT"/>
    <tag k="ref:vcgi:esiteid" v="171672"/>
  </node>
  <node id="-784" visible="true" lat="43.41686248" lon="-72.82122802">
    <tag k="addr:housenumber" v="2264"/>
    <tag k="addr:street" v="Belmont Road"/>
    <tag k="addr:state" v="VT"/>
    <tag k="ref:vcgi:esiteid" v="171673"/>
  </node>
  <node id="-785" visible="true" lat="43.41697827" lon="-72.81999435">
    <tag k="addr:housenumber" v="2231"/>
    <tag k="addr:street" v="Belmont Road"/>
    <tag k="addr:state" v="VT"/>
    <tag k="ref:vcgi:esiteid" v="171674"/>
  </node>
  <node id="-786" visible="true" lat="43.41687576" lon="-72.81416399">
    <tag k="addr:housenumber" v="179"/>
    <tag k="addr:street" v="Star Lake Drive"/>
    <tag k="addr:state" v="VT"/>
    <tag k="ref:vcgi:esiteid" v="171675"/>
  </node>
  <node id="-787" visible="true" lat="43.41679771" lon="-72.79460801">
    <tag k="addr:housenumber" v="2506"/>
    <tag k="addr:street" v="Healdville Road"/>
    <tag k="addr:state" v="VT"/>
    <tag k="ref:vcgi:esiteid" v="171676"/>
  </node>
  <node id="-788" visible="true" lat="43.41673941" lon="-72.81571451">
    <tag k="addr:housenumber" v="103"/>
    <tag k="addr:street" v="Star Lake Drive"/>
    <tag k="addr:state" v="VT"/>
    <tag k="ref:vcgi:esiteid" v="171677"/>
  </node>
  <node id="-789" visible="true" lat="43.41669082" lon="-72.82083129">
    <tag k="addr:housenumber" v="2273"/>
    <tag k="addr:street" v="Belmont Road"/>
    <tag k="addr:state" v="VT"/>
    <tag k="ref:vcgi:esiteid" v="171678"/>
  </node>
  <node id="-792" visible="true" lat="43.41680195" lon="-72.80350148">
    <tag k="addr:housenumber" v="3026"/>
    <tag k="addr:street" v="Healdville Road"/>
    <tag k="addr:state" v="VT"/>
    <tag k="ref:vcgi:esiteid" v="171681"/>
  </node>
  <node id="-793" visible="true" lat="43.41649431" lon="-72.82129924">
    <tag k="addr:housenumber" v="2294"/>
    <tag k="addr:street" v="Belmont Road"/>
    <tag k="addr:state" v="VT"/>
    <tag k="ref:vcgi:esiteid" v="171682"/>
  </node>
  <node id="-794" visible="true" lat="43.41636657" lon="-72.8208847">
    <tag k="addr:housenumber" v="2295"/>
    <tag k="addr:street" v="Belmont Road"/>
    <tag k="addr:state" v="VT"/>
    <tag k="ref:vcgi:esiteid" v="171683"/>
  </node>
  <node id="-796" visible="true" lat="43.4163475" lon="-72.77424621">
    <tag k="addr:housenumber" v="948"/>
    <tag k="addr:street" v="Branch Brook Road"/>
    <tag k="addr:state" v="VT"/>
    <tag k="ref:vcgi:esiteid" v="171685"/>
  </node>
  <node id="-797" visible="true" lat="43.41620632" lon="-72.82131965">
    <tag k="addr:housenumber" v="2312"/>
    <tag k="addr:street" v="Belmont Road"/>
    <tag k="addr:state" v="VT"/>
    <tag k="ref:vcgi:esiteid" v="171686"/>
  </node>
  <node id="-799" visible="true" lat="43.41574488" lon="-72.82134176">
    <tag k="addr:housenumber" v="2336"/>
    <tag k="addr:street" v="Belmont Road"/>
    <tag k="addr:state" v="VT"/>
    <tag k="ref:vcgi:esiteid" v="171688"/>
  </node>
  <node id="-800" visible="true" lat="43.41582669" lon="-72.8209542">
    <tag k="addr:housenumber" v="2337"/>
    <tag k="addr:street" v="Belmont Road"/>
    <tag k="addr:state" v="VT"/>
    <tag k="ref:vcgi:esiteid" v="171689"/>
  </node>
  <node id="-802" visible="true" lat="43.41581159" lon="-72.80091801">
    <tag k="addr:housenumber" v="2831"/>
    <tag k="addr:street" v="Healdville Road"/>
    <tag k="addr:state" v="VT"/>
    <tag k="ref:vcgi:esiteid" v="171691"/>
  </node>
  <node id="-803" visible="true" lat="43.41567172" lon="-72.80298752">
    <tag k="addr:housenumber" v="3029"/>
    <tag k="addr:street" v="Healdville Road"/>
    <tag k="addr:state" v="VT"/>
    <tag k="ref:vcgi:esiteid" v="171692"/>
  </node>
  <node id="-805" visible="true" lat="43.41556721" lon="-72.81905474">
    <tag k="addr:housenumber" v="109"/>
    <tag k="addr:street" v="Lake Street"/>
    <tag k="addr:state" v="VT"/>
    <tag k="ref:vcgi:esiteid" v="171694"/>
  </node>
  <node id="-806" visible="true" lat="43.41562223" lon="-72.79267124">
    <tag k="addr:housenumber" v="55"/>
    <tag k="addr:street" v="Hedgehog Hill Road North"/>
    <tag k="addr:state" v="VT"/>
    <tag k="ref:vcgi:esiteid" v="171695"/>
  </node>
  <node id="-807" visible="true" lat="43.41559564" lon="-72.82086548">
    <tag k="addr:housenumber" v="2355"/>
    <tag k="addr:street" v="Belmont Road"/>
    <tag k="addr:state" v="VT"/>
    <tag k="ref:vcgi:esiteid" v="171696"/>
  </node>
  <node id="-808" visible="true" lat="43.41547038" lon="-72.82132236">
    <tag k="addr:housenumber" v="2358"/>
    <tag k="addr:street" v="Belmont Road"/>
    <tag k="addr:state" v="VT"/>
    <tag k="ref:vcgi:esiteid" v="171697"/>
  </node>
  <node id="-811" visible="true" lat="43.41542816" lon="-72.8175888">
    <tag k="addr:housenumber" v="3756"/>
    <tag k="addr:street" v="Healdville Road"/>
    <tag k="addr:state" v="VT"/>
    <tag k="ref:vcgi:esiteid" v="171700"/>
  </node>
  <node id="-812" visible="true" lat="43.41546559" lon="-72.81798371">
    <tag k="addr:housenumber" v="153"/>
    <tag k="addr:street" v="Lake Street"/>
    <tag k="addr:state" v="VT"/>
    <tag k="ref:vcgi:esiteid" v="171701"/>
  </node>
  <node id="-813" visible="true" lat="43.41537475" lon="-72.81713104">
    <tag k="addr:housenumber" v="3734"/>
    <tag k="addr:street" v="Healdville Road"/>
    <tag k="addr:state" v="VT"/>
    <tag k="ref:vcgi:esiteid" v="171702"/>
  </node>
  <node id="-816" visible="true" lat="43.41520309" lon="-72.82131958">
    <tag k="addr:housenumber" v="2378"/>
    <tag k="addr:street" v="Belmont Road"/>
    <tag k="addr:state" v="VT"/>
    <tag k="ref:vcgi:esiteid" v="171705"/>
  </node>
  <node id="-819" visible="true" lat="43.41505813" lon="-72.82087707">
    <tag k="addr:housenumber" v="17"/>
    <tag k="addr:street" v="Church Street"/>
    <tag k="addr:state" v="VT"/>
    <tag k="ref:vcgi:esiteid" v="171708"/>
  </node>
  <node id="-822" visible="true" lat="43.41491833" lon="-72.8213173">
    <tag k="addr:housenumber" v="2400"/>
    <tag k="addr:street" v="Belmont Road"/>
    <tag k="addr:state" v="VT"/>
    <tag k="ref:vcgi:esiteid" v="171711"/>
  </node>
  <node id="-825" visible="true" lat="43.41481944" lon="-72.77760098">
    <tag k="addr:housenumber" v="1156"/>
    <tag k="addr:street" v="Branch Brook Road"/>
    <tag k="addr:state" v="VT"/>
    <tag k="ref:vcgi:esiteid" v="171714"/>
  </node>
  <node id="-827" visible="true" lat="43.41458325" lon="-72.77897652">
    <tag k="addr:housenumber" v="1214"/>
    <tag k="addr:street" v="Branch Brook Road"/>
    <tag k="addr:state" v="VT"/>
    <tag k="ref:vcgi:esiteid" v="171716"/>
  </node>
  <node id="-828" visible="true" lat="43.41450119" lon="-72.82214355">
    <tag k="addr:housenumber" v="54"/>
    <tag k="addr:street" v="Tarbellville Road"/>
    <tag k="addr:state" v="VT"/>
    <tag k="ref:vcgi:esiteid" v="171717"/>
  </node>
  <node id="-829" visible="true" lat="43.41452152" lon="-72.82132093">
    <tag k="addr:housenumber" v="26"/>
    <tag k="addr:street" v="Maple Hill Road"/>
    <tag k="addr:state" v="VT"/>
    <tag k="ref:vcgi:esiteid" v="171718"/>
  </node>
  <node id="-832" visible="true" lat="43.41442489" lon="-72.82085418">
    <tag k="addr:housenumber" v="29"/>
    <tag k="addr:street" v="Maple Hill Road"/>
    <tag k="addr:state" v="VT"/>
    <tag k="ref:vcgi:esiteid" v="171721"/>
  </node>
  <node id="-834" visible="true" lat="43.41430567" lon="-72.81087853">
    <tag k="addr:housenumber" v="3417"/>
    <tag k="addr:street" v="Healdville Road"/>
    <tag k="addr:state" v="VT"/>
    <tag k="ref:vcgi:esiteid" v="171723"/>
  </node>
  <node id="-835" visible="true" lat="43.4141815" lon="-72.82095254">
    <tag k="addr:housenumber" v="49"/>
    <tag k="addr:street" v="Maple Hill Road"/>
    <tag k="addr:state" v="VT"/>
    <tag k="ref:vcgi:esiteid" v="171724"/>
  </node>
  <node id="-837" visible="true" lat="43.41415642" lon="-72.83041268">
    <tag k="addr:housenumber" v="418"/>
    <tag k="addr:street" v="Tarbellville Road"/>
    <tag k="addr:state" v="VT"/>
    <tag k="ref:vcgi:esiteid" v="171726"/>
  </node>
  <node id="-838" visible="true" lat="43.41407276" lon="-72.82754467">
    <tag k="addr:housenumber" v="330"/>
    <tag k="addr:street" v="Tarbellville Road"/>
    <tag k="addr:state" v="VT"/>
    <tag k="ref:vcgi:esiteid" v="171727"/>
  </node>
  <node id="-839" visible="true" lat="43.41406998" lon="-72.82678938">
    <tag k="addr:housenumber" v="304"/>
    <tag k="addr:street" v="Tarbellville Road"/>
    <tag k="addr:state" v="VT"/>
    <tag k="ref:vcgi:esiteid" v="171728"/>
  </node>
  <node id="-840" visible="true" lat="43.41390059" lon="-72.82218607">
    <tag k="addr:housenumber" v="81"/>
    <tag k="addr:street" v="Tarbellville Road"/>
    <tag k="addr:state" v="VT"/>
    <tag k="ref:vcgi:esiteid" v="171729"/>
  </node>
  <node id="-842" visible="true" lat="43.41406474" lon="-72.81189019">
    <tag k="addr:housenumber" v="3469"/>
    <tag k="addr:street" v="Healdville Road"/>
    <tag k="addr:state" v="VT"/>
    <tag k="ref:vcgi:esiteid" v="171731"/>
  </node>
  <node id="-845" visible="true" lat="43.41356763" lon="-72.82934413">
    <tag k="addr:housenumber" v="416"/>
    <tag k="addr:street" v="Tarbellville Road"/>
    <tag k="addr:state" v="VT"/>
    <tag k="ref:vcgi:esiteid" v="171734"/>
  </node>
  <node id="-846" visible="true" lat="43.41361039" lon="-72.79364304">
    <tag k="addr:housenumber" v="209"/>
    <tag k="addr:street" v="Hedgehog Hill Road North"/>
    <tag k="addr:state" v="VT"/>
    <tag k="ref:vcgi:esiteid" v="171735"/>
  </node>
  <node id="-847" visible="true" lat="43.41357676" lon="-72.81447803">
    <tag k="addr:housenumber" v="153"/>
    <tag k="addr:street" v="Dodge Road"/>
    <tag k="addr:state" v="VT"/>
    <tag k="ref:vcgi:esiteid" v="171736"/>
  </node>
  <node id="-848" visible="true" lat="43.41338269" lon="-72.82610332">
    <tag k="addr:housenumber" v="289"/>
    <tag k="addr:street" v="Tarbellville Road"/>
    <tag k="addr:state" v="VT"/>
    <tag k="ref:vcgi:esiteid" v="171737"/>
  </node>
  <node id="-849" visible="true" lat="43.41343855" lon="-72.79510961">
    <tag k="addr:housenumber" v="274"/>
    <tag k="addr:street" v="Hedgehog Hill Road North"/>
    <tag k="addr:state" v="VT"/>
    <tag k="ref:vcgi:esiteid" v="171738"/>
  </node>
  <node id="-850" visible="true" lat="43.41326141" lon="-72.82974243">
    <tag k="addr:housenumber" v="456"/>
    <tag k="addr:street" v="Tarbellville Road"/>
    <tag k="addr:state" v="VT"/>
    <tag k="ref:vcgi:esiteid" v="171739"/>
  </node>
  <node id="-851" visible="true" lat="43.41315871" lon="-72.82818743">
    <tag k="addr:housenumber" v="361"/>
    <tag k="addr:street" v="Tarbellville Road"/>
    <tag k="addr:state" v="VT"/>
    <tag k="ref:vcgi:esiteid" v="171740"/>
  </node>
  <node id="-852" visible="true" lat="43.4130558" lon="-72.82243917">
    <tag k="addr:housenumber" v="104"/>
    <tag k="addr:street" v="Maple Hill Road"/>
    <tag k="addr:state" v="VT"/>
    <tag k="ref:vcgi:esiteid" v="171741"/>
  </node>
  <node id="-853" visible="true" lat="43.41278741" lon="-72.82234002">
    <tag k="addr:housenumber" v="134"/>
    <tag k="addr:street" v="Maple Hill Road"/>
    <tag k="addr:state" v="VT"/>
    <tag k="ref:vcgi:esiteid" v="171742"/>
  </node>
  <node id="-854" visible="true" lat="43.41277309" lon="-72.83261858">
    <tag k="addr:housenumber" v="67"/>
    <tag k="addr:street" v="Doty Lane"/>
    <tag k="addr:state" v="VT"/>
    <tag k="ref:vcgi:esiteid" v="171743"/>
  </node>
  <node id="-856" visible="true" lat="43.41270055" lon="-72.82899276">
    <tag k="addr:housenumber" v="441"/>
    <tag k="addr:street" v="Tarbellville Road"/>
    <tag k="addr:state" v="VT"/>
    <tag k="ref:vcgi:esiteid" v="171745"/>
  </node>
  <node id="-857" visible="true" lat="43.41283081" lon="-72.81036117">
    <tag k="addr:housenumber" v="3381"/>
    <tag k="addr:street" v="Healdville Road"/>
    <tag k="addr:state" v="VT"/>
    <tag k="ref:vcgi:esiteid" v="171746"/>
  </node>
  <node id="-858" visible="true" lat="43.41263333" lon="-72.82981862">
    <tag k="addr:housenumber" v="489"/>
    <tag k="addr:street" v="Tarbellville Road"/>
    <tag k="addr:state" v="VT"/>
    <tag k="ref:vcgi:esiteid" v="171747"/>
  </node>
  <node id="-859" visible="true" lat="43.41254396" lon="-72.7952852">
    <tag k="addr:housenumber" v="306"/>
    <tag k="addr:street" v="Hedgehog Hill Road North"/>
    <tag k="addr:state" v="VT"/>
    <tag k="ref:vcgi:esiteid" v="171748"/>
  </node>
  <node id="-860" visible="true" lat="43.41225712" lon="-72.82447954">
    <tag k="addr:housenumber" v="229"/>
    <tag k="addr:street" v="Tarbellville Road"/>
    <tag k="addr:state" v="VT"/>
    <tag k="ref:vcgi:esiteid" v="171749"/>
  </node>
  <node id="-861" visible="true" lat="43.41225433" lon="-72.82077789">
    <tag k="addr:housenumber" v="179"/>
    <tag k="addr:street" v="Maple Hill Road"/>
    <tag k="addr:state" v="VT"/>
    <tag k="ref:vcgi:esiteid" v="171750"/>
  </node>
  <node id="-862" visible="true" lat="43.41251577" lon="-72.78065461">
    <tag k="addr:housenumber" v="1413"/>
    <tag k="addr:street" v="Branch Brook Road"/>
    <tag k="addr:state" v="VT"/>
    <tag k="ref:vcgi:esiteid" v="171751"/>
  </node>
  <node id="-863" visible="true" lat="43.41207142" lon="-72.81319392">
    <tag k="addr:housenumber" v="259"/>
    <tag k="addr:street" v="Dodge Road"/>
    <tag k="addr:state" v="VT"/>
    <tag k="ref:vcgi:esiteid" v="171752"/>
  </node>
  <node id="-864" visible="true" lat="43.4121425" lon="-72.82506005">
    <tag k="addr:housenumber" v="231"/>
    <tag k="addr:street" v="Tarbellville Road"/>
    <tag k="addr:state" v="VT"/>
    <tag k="ref:vcgi:esiteid" v="171753"/>
  </node>
  <node id="-866" visible="true" lat="43.41176386" lon="-72.8301084">
    <tag k="addr:housenumber" v="523"/>
    <tag k="addr:street" v="Tarbellville Road"/>
    <tag k="addr:state" v="VT"/>
    <tag k="ref:vcgi:esiteid" v="171755"/>
  </node>
  <node id="-867" visible="true" lat="43.41205159" lon="-72.82133964">
    <tag k="addr:housenumber" v="198"/>
    <tag k="addr:street" v="Maple Hill Road"/>
    <tag k="addr:state" v="VT"/>
    <tag k="ref:vcgi:esiteid" v="171756"/>
  </node>
  <node id="-868" visible="true" lat="43.41206309" lon="-72.79572454">
    <tag k="addr:housenumber" v="376"/>
    <tag k="addr:street" v="Hedgehog Hill Road North"/>
    <tag k="addr:state" v="VT"/>
    <tag k="ref:vcgi:esiteid" v="171757"/>
  </node>
  <node id="-869" visible="true" lat="43.41205563" lon="-72.79439112">
    <tag k="addr:housenumber" v="325"/>
    <tag k="addr:street" v="Hedgehog Hill Road North"/>
    <tag k="addr:state" v="VT"/>
    <tag k="ref:vcgi:esiteid" v="171758"/>
  </node>
  <node id="-870" visible="true" lat="43.41197369" lon="-72.79598412">
    <tag k="addr:housenumber" v="378"/>
    <tag k="addr:street" v="Hedgehog Hill Road North"/>
    <tag k="addr:state" v="VT"/>
    <tag k="ref:vcgi:esiteid" v="171759"/>
  </node>
  <node id="-871" visible="true" lat="43.41150689" lon="-72.81263819">
    <tag k="addr:housenumber" v="303"/>
    <tag k="addr:street" v="Dodge Road"/>
    <tag k="addr:state" v="VT"/>
    <tag k="ref:vcgi:esiteid" v="171760"/>
  </node>
  <node id="-874" visible="true" lat="43.41121673" lon="-72.82148742">
    <tag k="addr:housenumber" v="250"/>
    <tag k="addr:street" v="Maple Hill Road"/>
    <tag k="addr:state" v="VT"/>
    <tag k="ref:vcgi:esiteid" v="171763"/>
  </node>
  <node id="-876" visible="true" lat="43.41088576" lon="-72.79560873">
    <tag k="addr:housenumber" v="418"/>
    <tag k="addr:street" v="Hedgehog Hill Road North"/>
    <tag k="addr:state" v="VT"/>
    <tag k="ref:vcgi:esiteid" v="171765"/>
  </node>
  <node id="-877" visible="true" lat="43.41028788" lon="-72.83224558">
    <tag k="addr:housenumber" v="601"/>
    <tag k="addr:street" v="Tarbellville Road"/>
    <tag k="addr:state" v="VT"/>
    <tag k="ref:vcgi:esiteid" v="171766"/>
  </node>
  <node id="-878" visible="true" lat="43.41028976" lon="-72.84640503">
    <tag k="addr:housenumber" v="114"/>
    <tag k="addr:street" v="Patch Hill Road"/>
    <tag k="addr:state" v="VT"/>
    <tag k="ref:vcgi:esiteid" v="171767"/>
  </node>
  <node id="-880" visible="true" lat="43.41030805" lon="-72.83777382">
    <tag k="addr:housenumber" v="892"/>
    <tag k="addr:street" v="Tarbellville Road"/>
    <tag k="addr:state" v="VT"/>
    <tag k="ref:vcgi:esiteid" v="171769"/>
  </node>
  <node id="-881" visible="true" lat="43.41009587" lon="-72.82052332">
    <tag k="addr:housenumber" v="341"/>
    <tag k="addr:street" v="Maple Hill Road"/>
    <tag k="addr:state" v="VT"/>
    <tag k="ref:vcgi:esiteid" v="171770"/>
  </node>
  <node id="-882" visible="true" lat="43.40989556" lon="-72.79496919">
    <tag k="addr:housenumber" v="475"/>
    <tag k="addr:street" v="Hedgehog Hill Road North"/>
    <tag k="addr:state" v="VT"/>
    <tag k="ref:vcgi:esiteid" v="171771"/>
  </node>
  <node id="-883" visible="true" lat="43.4091531" lon="-72.83544731">
    <tag k="addr:housenumber" v="44"/>
    <tag k="addr:street" v="Chadburn Lane"/>
    <tag k="addr:state" v="VT"/>
    <tag k="ref:vcgi:esiteid" v="171772"/>
  </node>
  <node id="-884" visible="true" lat="43.4091155" lon="-72.84017866">
    <tag k="addr:housenumber" v="1072"/>
    <tag k="addr:street" v="Tarbellville Road"/>
    <tag k="addr:state" v="VT"/>
    <tag k="ref:vcgi:esiteid" v="171773"/>
  </node>
  <node id="-886" visible="true" lat="43.40884898" lon="-72.85108923">
    <tag k="addr:housenumber" v="474"/>
    <tag k="addr:street" v="Patch Hill Road"/>
    <tag k="addr:state" v="VT"/>
    <tag k="ref:vcgi:esiteid" v="171775"/>
  </node>
  <node id="-890" visible="true" lat="43.40855571" lon="-72.85264622">
    <tag k="addr:housenumber" v="566"/>
    <tag k="addr:street" v="Patch Hill Road"/>
    <tag k="addr:state" v="VT"/>
    <tag k="ref:vcgi:esiteid" v="171779"/>
  </node>
  <node id="-892" visible="true" lat="43.40855775" lon="-72.79553602">
    <tag k="addr:housenumber" v="567"/>
    <tag k="addr:street" v="Hedgehog Hill Road North"/>
    <tag k="addr:state" v="VT"/>
    <tag k="ref:vcgi:esiteid" v="171781"/>
  </node>
  <node id="-894" visible="true" lat="43.40826248" lon="-72.82300386">
    <tag k="addr:housenumber" v="22"/>
    <tag k="addr:street" v="Crabapple Lane"/>
    <tag k="addr:state" v="VT"/>
    <tag k="ref:vcgi:esiteid" v="171783"/>
  </node>
  <node id="-896" visible="true" lat="43.40808855" lon="-72.82474856">
    <tag k="addr:housenumber" v="144"/>
    <tag k="addr:street" v="Crabapple Lane"/>
    <tag k="addr:state" v="VT"/>
    <tag k="ref:vcgi:esiteid" v="171785"/>
  </node>
  <node id="-897" visible="true" lat="43.40800772" lon="-72.82061496">
    <tag k="addr:housenumber" v="180"/>
    <tag k="addr:street" v="Straight Road"/>
    <tag k="addr:state" v="VT"/>
    <tag k="ref:vcgi:esiteid" v="171786"/>
  </node>
  <node id="-898" visible="true" lat="43.40746042" lon="-72.84837998">
    <tag k="addr:housenumber" v="337"/>
    <tag k="addr:street" v="Patch Hill Road"/>
    <tag k="addr:state" v="VT"/>
    <tag k="ref:vcgi:esiteid" v="171787"/>
  </node>
  <node id="-901" visible="true" lat="43.40744464" lon="-72.85096872">
    <tag k="addr:housenumber" v="501"/>
    <tag k="addr:street" v="Patch Hill Road"/>
    <tag k="addr:state" v="VT"/>
    <tag k="ref:vcgi:esiteid" v="171790"/>
  </node>
  <node id="-902" visible="true" lat="43.40708466" lon="-72.85374191">
    <tag k="addr:housenumber" v="609"/>
    <tag k="addr:street" v="Patch Hill Road"/>
    <tag k="addr:state" v="VT"/>
    <tag k="ref:vcgi:esiteid" v="171791"/>
  </node>
  <node id="-903" visible="true" lat="43.40698793" lon="-72.82287639">
    <tag k="addr:housenumber" v="504"/>
    <tag k="addr:street" v="Maple Hill Road"/>
    <tag k="addr:state" v="VT"/>
    <tag k="ref:vcgi:esiteid" v="171792"/>
  </node>
  <node id="-904" visible="true" lat="43.40613555" lon="-72.82312011">
    <tag k="addr:housenumber" v="554"/>
    <tag k="addr:street" v="Maple Hill Road"/>
    <tag k="addr:state" v="VT"/>
    <tag k="ref:vcgi:esiteid" v="171793"/>
  </node>
  <node id="-907" visible="true" lat="43.40467701" lon="-72.81946916">
    <tag k="addr:housenumber" v="418"/>
    <tag k="addr:street" v="Straight Road"/>
    <tag k="addr:state" v="VT"/>
    <tag k="ref:vcgi:esiteid" v="171796"/>
  </node>
  <node id="-908" visible="true" lat="43.40441155" lon="-72.79372139">
    <tag k="addr:housenumber" v="235"/>
    <tag k="addr:street" v="Yale Road North"/>
    <tag k="addr:state" v="VT"/>
    <tag k="ref:vcgi:esiteid" v="171797"/>
  </node>
  <node id="-910" visible="true" lat="43.40314217" lon="-72.81807729">
    <tag k="addr:housenumber" v="533"/>
    <tag k="addr:street" v="Straight Road"/>
    <tag k="addr:state" v="VT"/>
    <tag k="ref:vcgi:esiteid" v="171799"/>
  </node>
  <node id="-912" visible="true" lat="43.40168225" lon="-72.84497524">
    <tag k="addr:housenumber" v="194"/>
    <tag k="addr:street" v="Camp Road"/>
    <tag k="addr:state" v="VT"/>
    <tag k="ref:vcgi:esiteid" v="171801"/>
  </node>
  <node id="-913" visible="true" lat="43.40189829" lon="-72.80332818">
    <tag k="addr:housenumber" v="705"/>
    <tag k="addr:street" v="Hedgehog Hill Road South"/>
    <tag k="addr:state" v="VT"/>
    <tag k="ref:vcgi:esiteid" v="171802"/>
  </node>
  <node id="-914" visible="true" lat="43.40152641" lon="-72.83637799">
    <tag k="addr:housenumber" v="135"/>
    <tag k="addr:street" v="Greendale Road"/>
    <tag k="addr:state" v="VT"/>
    <tag k="ref:vcgi:esiteid" v="171803"/>
  </node>
  <node id="-917" visible="true" lat="43.40106841" lon="-72.83673193">
    <tag k="addr:housenumber" v="174"/>
    <tag k="addr:street" v="Greendale Road"/>
    <tag k="addr:state" v="VT"/>
    <tag k="ref:vcgi:esiteid" v="171806"/>
  </node>
  <node id="-918" visible="true" lat="43.40080261" lon="-72.82159423">
    <tag k="addr:housenumber" v="926"/>
    <tag k="addr:street" v="Maple Hill Road"/>
    <tag k="addr:state" v="VT"/>
    <tag k="ref:vcgi:esiteid" v="171807"/>
  </node>
  <node id="-921" visible="true" lat="43.39953792" lon="-72.83530561">
    <tag k="addr:housenumber" v="299"/>
    <tag k="addr:street" v="Greendale Road"/>
    <tag k="addr:state" v="VT"/>
    <tag k="ref:vcgi:esiteid" v="171810"/>
  </node>
  <node id="-924" visible="true" lat="43.39918105" lon="-72.79478829">
    <tag k="addr:housenumber" v="638"/>
    <tag k="addr:street" v="Yale Road North"/>
    <tag k="addr:state" v="VT"/>
    <tag k="ref:vcgi:esiteid" v="171813"/>
  </node>
  <node id="-925" visible="true" lat="43.39862338" lon="-72.83530926">
    <tag k="addr:housenumber" v="369"/>
    <tag k="addr:street" v="Greendale Road"/>
    <tag k="addr:state" v="VT"/>
    <tag k="ref:vcgi:esiteid" v="171814"/>
  </node>
  <node id="-929" visible="true" lat="43.39653631" lon="-72.83608658">
    <tag k="addr:housenumber" v="456"/>
    <tag k="addr:street" v="Greendale Road"/>
    <tag k="addr:state" v="VT"/>
    <tag k="ref:vcgi:esiteid" v="171818"/>
  </node>
  <node id="-931" visible="true" lat="43.39416127" lon="-72.80279126">
    <tag k="addr:housenumber" v="167"/>
    <tag k="addr:street" v="Hedgehog Hill Road South"/>
    <tag k="addr:state" v="VT"/>
    <tag k="ref:vcgi:esiteid" v="171820"/>
  </node>
  <node id="-932" visible="true" lat="43.39366531" lon="-72.80221557">
    <tag k="addr:housenumber" v="144"/>
    <tag k="addr:street" v="Hedgehog Hill Road South"/>
    <tag k="addr:state" v="VT"/>
    <tag k="ref:vcgi:esiteid" v="171821"/>
  </node>
  <node id="-934" visible="true" lat="43.39302815" lon="-72.79909871">
    <tag k="addr:housenumber" v="458"/>
    <tag k="addr:street" v="Howland Farm Road"/>
    <tag k="addr:state" v="VT"/>
    <tag k="ref:vcgi:esiteid" v="171823"/>
  </node>
  <node id="-935" visible="true" lat="43.39307098" lon="-72.81074834">
    <tag k="addr:housenumber" v="1337"/>
    <tag k="addr:street" v="Straight Road"/>
    <tag k="addr:state" v="VT"/>
    <tag k="ref:vcgi:esiteid" v="171824"/>
  </node>
  <node id="-936" visible="true" lat="43.39282163" lon="-72.80455237">
    <tag k="addr:housenumber" v="211"/>
    <tag k="addr:street" v="Howland Farm Road"/>
    <tag k="addr:state" v="VT"/>
    <tag k="ref:vcgi:esiteid" v="171825"/>
  </node>
  <node id="-937" visible="true" lat="43.39268581" lon="-72.81268154">
    <tag k="addr:housenumber" v="1336"/>
    <tag k="addr:street" v="Straight Road"/>
    <tag k="addr:state" v="VT"/>
    <tag k="ref:vcgi:esiteid" v="171826"/>
  </node>
  <node id="-940" visible="true" lat="43.39237729" lon="-72.80622234">
    <tag k="addr:housenumber" v="129"/>
    <tag k="addr:street" v="Howland Farm Road"/>
    <tag k="addr:state" v="VT"/>
    <tag k="ref:vcgi:esiteid" v="171829"/>
  </node>
  <node id="-941" visible="true" lat="43.39222253" lon="-72.81195079">
    <tag k="addr:housenumber" v="1400"/>
    <tag k="addr:street" v="Straight Road"/>
    <tag k="addr:state" v="VT"/>
    <tag k="ref:vcgi:esiteid" v="171830"/>
  </node>
  <node id="-942" visible="true" lat="43.39233324" lon="-72.79927947">
    <tag k="addr:housenumber" v="456"/>
    <tag k="addr:street" v="Howland Farm Road"/>
    <tag k="addr:state" v="VT"/>
    <tag k="ref:vcgi:esiteid" v="171831"/>
  </node>
  <node id="-943" visible="true" lat="43.39194225" lon="-72.80595851">
    <tag k="addr:housenumber" v="122"/>
    <tag k="addr:street" v="Howland Farm Road"/>
    <tag k="addr:state" v="VT"/>
    <tag k="ref:vcgi:esiteid" v="171832"/>
  </node>
  <node id="-944" visible="true" lat="43.3918724" lon="-72.80298614">
    <tag k="addr:housenumber" v="289"/>
    <tag k="addr:street" v="Howland Farm Road"/>
    <tag k="addr:state" v="VT"/>
    <tag k="ref:vcgi:esiteid" v="171833"/>
  </node>
  <node id="-945" visible="true" lat="43.39182575" lon="-72.8042635">
    <tag k="addr:housenumber" v="224"/>
    <tag k="addr:street" v="Howland Farm Road"/>
    <tag k="addr:state" v="VT"/>
    <tag k="ref:vcgi:esiteid" v="171834"/>
  </node>
  <node id="-946" visible="true" lat="43.39161637" lon="-72.8070792">
    <tag k="addr:housenumber" v="61"/>
    <tag k="addr:street" v="Howland Farm Road"/>
    <tag k="addr:state" v="VT"/>
    <tag k="ref:vcgi:esiteid" v="171835"/>
  </node>
  <node id="-947" visible="true" lat="43.39147999" lon="-72.80338425">
    <tag k="addr:housenumber" v="278"/>
    <tag k="addr:street" v="Howland Farm Road"/>
    <tag k="addr:state" v="VT"/>
    <tag k="ref:vcgi:esiteid" v="171836"/>
  </node>
  <node id="-948" visible="true" lat="43.39145546" lon="-72.80002681">
    <tag k="addr:housenumber" v="440"/>
    <tag k="addr:street" v="Howland Farm Road"/>
    <tag k="addr:state" v="VT"/>
    <tag k="ref:vcgi:esiteid" v="171837"/>
  </node>
  <node id="-949" visible="true" lat="43.39113689" lon="-72.80068561">
    <tag k="addr:housenumber" v="408"/>
    <tag k="addr:street" v="Howland Farm Road"/>
    <tag k="addr:state" v="VT"/>
    <tag k="ref:vcgi:esiteid" v="171838"/>
  </node>
  <node id="-950" visible="true" lat="43.39108276" lon="-72.80142974">
    <tag k="addr:housenumber" v="374"/>
    <tag k="addr:street" v="Howland Farm Road"/>
    <tag k="addr:state" v="VT"/>
    <tag k="ref:vcgi:esiteid" v="171839"/>
  </node>
  <node id="-951" visible="true" lat="43.39114096" lon="-72.83089541">
    <tag k="addr:housenumber" v="936"/>
    <tag k="addr:street" v="Greendale Road"/>
    <tag k="addr:state" v="VT"/>
    <tag k="ref:vcgi:esiteid" v="171840"/>
  </node>
  <node id="-955" visible="true" lat="43.389918" lon="-72.8007861">
    <tag k="addr:housenumber" v="386"/>
    <tag k="addr:street" v="Howland Farm Road"/>
    <tag k="addr:state" v="VT"/>
    <tag k="ref:vcgi:esiteid" v="171845"/>
  </node>
  <node id="-957" visible="true" lat="43.3894942" lon="-72.82934724">
    <tag k="addr:housenumber" v="1038"/>
    <tag k="addr:street" v="Greendale Road"/>
    <tag k="addr:state" v="VT"/>
    <tag k="ref:vcgi:esiteid" v="171847"/>
  </node>
  <node id="-959" visible="true" lat="43.38867727" lon="-72.8287989">
    <tag k="addr:housenumber" v="1142"/>
    <tag k="addr:street" v="Greendale Road"/>
    <tag k="addr:state" v="VT"/>
    <tag k="ref:vcgi:esiteid" v="171850"/>
  </node>
  <node id="-965" visible="true" lat="43.47716692" lon="-72.76611271">
    <tag k="addr:housenumber" v="203"/>
    <tag k="addr:street" v="Old County Road"/>
    <tag k="addr:state" v="VT"/>
    <tag k="ref:vcgi:esiteid" v="171858"/>
  </node>
  <node id="-970" visible="true" lat="43.4507508" lon="-72.80055047">
    <tag k="addr:housenumber" v="392"/>
    <tag k="addr:street" v="Summit Road"/>
    <tag k="addr:state" v="VT"/>
    <tag k="ref:vcgi:esiteid" v="171863"/>
  </node>
  <node id="-974" visible="true" lat="43.45774026" lon="-72.73514101">
    <tag k="addr:housenumber" v="682"/>
    <tag k="addr:street" v="Tinney Road"/>
    <tag k="addr:state" v="VT"/>
    <tag k="ref:vcgi:esiteid" v="171867"/>
  </node>
  <node id="-981" visible="true" lat="43.43948585" lon="-72.76543195">
    <tag k="addr:housenumber" v="74"/>
    <tag k="addr:street" v="Chalet Drive"/>
    <tag k="addr:state" v="VT"/>
    <tag k="ref:vcgi:esiteid" v="171874"/>
  </node>
  <node id="-983" visible="true" lat="43.4154188" lon="-72.80399895">
    <tag k="addr:housenumber" v="3099"/>
    <tag k="addr:street" v="Healdville Road"/>
    <tag k="addr:state" v="VT"/>
    <tag k="ref:vcgi:esiteid" v="171876"/>
  </node>
  <node id="-984" visible="true" lat="43.39618299" lon="-72.81415851">
    <tag k="addr:housenumber" v="1040"/>
    <tag k="addr:street" v="Straight Road"/>
    <tag k="addr:state" v="VT"/>
    <tag k="ref:vcgi:esiteid" v="171877"/>
  </node>
  <node id="-986" visible="true" lat="43.39066757" lon="-72.80228922">
    <tag k="addr:housenumber" v="282"/>
    <tag k="addr:street" v="Howland Farm Road"/>
    <tag k="addr:state" v="VT"/>
    <tag k="ref:vcgi:esiteid" v="171879"/>
  </node>
  <node id="-987" visible="true" lat="43.39909637" lon="-72.80416037">
    <tag k="addr:housenumber" v="419"/>
    <tag k="addr:street" v="Hedgehog Hill Road South"/>
    <tag k="addr:state" v="VT"/>
    <tag k="ref:vcgi:esiteid" v="171880"/>
  </node>
  <node id="-992" visible="true" lat="43.39087047" lon="-72.83005965">
    <tag k="addr:housenumber" v="1001"/>
    <tag k="addr:street" v="Greendale Road"/>
    <tag k="addr:state" v="VT"/>
    <tag k="ref:vcgi:esiteid" v="171885"/>
  </node>
  <node id="-993" visible="true" lat="43.47436176" lon="-72.83493469">
    <tag k="addr:housenumber" v="905"/>
    <tag k="addr:street" v="Dawley Road North"/>
    <tag k="addr:state" v="VT"/>
    <tag k="ref:vcgi:esiteid" v="171886"/>
  </node>
  <node id="-1004" visible="true" lat="43.40063279" lon="-72.80293065">
    <tag k="addr:housenumber" v="592"/>
    <tag k="addr:street" v="Hedgehog Hill Road South"/>
    <tag k="addr:state" v="VT"/>
    <tag k="ref:vcgi:esiteid" v="171898"/>
  </node>
  <node id="-1005" visible="true" lat="43.48038647" lon="-72.84933469">
    <tag k="addr:housenumber" v="1609"/>
    <tag k="addr:street" v="Freeman Brook Road"/>
    <tag k="addr:state" v="VT"/>
    <tag k="ref:vcgi:esiteid" v="171899"/>
  </node>
  <node id="-1012" visible="true" lat="43.46837859" lon="-72.74106089">
    <tag k="addr:housenumber" v="468"/>
    <tag k="addr:street" v="Tiny Mountain Road"/>
    <tag k="addr:state" v="VT"/>
    <tag k="ref:vcgi:esiteid" v="171906"/>
  </node>
  <node id="-1013" visible="true" lat="43.45165201" lon="-72.79516202">
    <tag k="addr:housenumber" v="75"/>
    <tag k="addr:street" v="Rim Rock Road"/>
    <tag k="addr:state" v="VT"/>
    <tag k="ref:vcgi:esiteid" v="171907"/>
  </node>
  <node id="-1014" visible="true" lat="43.45186573" lon="-72.79449598">
    <tag k="addr:housenumber" v="99"/>
    <tag k="addr:street" v="Rim Rock Road"/>
    <tag k="addr:state" v="VT"/>
    <tag k="ref:vcgi:esiteid" v="171908"/>
  </node>
  <node id="-1015" visible="true" lat="43.44407765" lon="-72.79876449">
    <tag k="addr:housenumber" v="509"/>
    <tag k="addr:street" v="Stewart Road North"/>
    <tag k="addr:state" v="VT"/>
    <tag k="ref:vcgi:esiteid" v="171909"/>
  </node>
  <node id="-1018" visible="true" lat="43.43918957" lon="-72.82629714">
    <tag k="addr:housenumber" v="46"/>
    <tag k="addr:street" v="Frost Hill Road"/>
    <tag k="addr:state" v="VT"/>
    <tag k="ref:vcgi:esiteid" v="171912"/>
  </node>
  <node id="-1020" visible="true" lat="43.41306266" lon="-72.77884723">
    <tag k="addr:housenumber" v="1310"/>
    <tag k="addr:street" v="Branch Brook Road"/>
    <tag k="addr:state" v="VT"/>
    <tag k="ref:vcgi:esiteid" v="171915"/>
  </node>
  <node id="-1021" visible="true" lat="43.41119884" lon="-72.8191912">
    <tag k="addr:housenumber" v="315"/>
    <tag k="addr:street" v="Maple Hill Road"/>
    <tag k="addr:state" v="VT"/>
    <tag k="ref:vcgi:esiteid" v="171916"/>
  </node>
  <node id="-1022" visible="true" lat="43.4094773" lon="-72.82483139">
    <tag k="addr:housenumber" v="368"/>
    <tag k="addr:street" v="Maple Hill Road"/>
    <tag k="addr:state" v="VT"/>
    <tag k="ref:vcgi:esiteid" v="171917"/>
  </node>
  <node id="-1025" visible="true" lat="43.45426468" lon="-72.82235365">
    <tag k="addr:housenumber" v="756"/>
    <tag k="addr:street" v="Old Turnpike Road"/>
    <tag k="addr:state" v="VT"/>
    <tag k="ref:vcgi:esiteid" v="171920"/>
  </node>
  <node id="-1026" visible="true" lat="43.40495392" lon="-72.81585628">
    <tag k="addr:housenumber" v="323"/>
    <tag k="addr:street" v="Straight Road"/>
    <tag k="addr:state" v="VT"/>
    <tag k="ref:vcgi:esiteid" v="171921"/>
  </node>
  <node id="-1027" visible="true" lat="43.47187592" lon="-72.83437886">
    <tag k="addr:housenumber" v="781"/>
    <tag k="addr:street" v="Dawley Road North"/>
    <tag k="addr:state" v="VT"/>
    <tag k="ref:vcgi:esiteid" v="171922"/>
  </node>
  <node id="-1028" visible="true" lat="43.46871479" lon="-72.73825186">
    <tag k="addr:housenumber" v="630"/>
    <tag k="addr:street" v="Tiny Mountain Road"/>
    <tag k="addr:state" v="VT"/>
    <tag k="ref:vcgi:esiteid" v="171923"/>
  </node>
  <node id="-1029" visible="true" lat="43.43145185" lon="-72.78105937">
    <tag k="addr:housenumber" v="208"/>
    <tag k="addr:street" v="Fenn Road"/>
    <tag k="addr:state" v="VT"/>
    <tag k="ref:vcgi:esiteid" v="171924"/>
  </node>
  <node id="-1031" visible="true" lat="43.39536299" lon="-72.81375621">
    <tag k="addr:housenumber" v="1068"/>
    <tag k="addr:street" v="Straight Road"/>
    <tag k="addr:state" v="VT"/>
    <tag k="ref:vcgi:esiteid" v="171926"/>
  </node>
  <node id="-1032" visible="true" lat="43.40168387" lon="-72.81969238">
    <tag k="addr:housenumber" v="853"/>
    <tag k="addr:street" v="Maple Hill Road"/>
    <tag k="addr:state" v="VT"/>
    <tag k="ref:vcgi:esiteid" v="171927"/>
  </node>
  <node id="-1033" visible="true" lat="43.45130922" lon="-72.79589829">
    <tag k="addr:housenumber" v="31"/>
    <tag k="addr:street" v="Rim Rock Road"/>
    <tag k="addr:state" v="VT"/>
    <tag k="ref:vcgi:esiteid" v="171928"/>
  </node>
  <node id="-1034" visible="true" lat="43.39453853" lon="-72.81080867">
    <tag k="addr:housenumber" v="1059"/>
    <tag k="addr:street" v="Straight Road"/>
    <tag k="addr:state" v="VT"/>
    <tag k="ref:vcgi:esiteid" v="171929"/>
  </node>
  <node id="-1037" visible="true" lat="43.43794522" lon="-72.76667476">
    <tag k="addr:housenumber" v="45"/>
    <tag k="addr:street" v="Okemo Way"/>
    <tag k="addr:state" v="VT"/>
    <tag k="ref:vcgi:esiteid" v="171932"/>
  </node>
  <node id="-1038" visible="true" lat="43.40314644" lon="-72.81895433">
    <tag k="addr:housenumber" v="548"/>
    <tag k="addr:street" v="Straight Road"/>
    <tag k="addr:state" v="VT"/>
    <tag k="ref:vcgi:esiteid" v="171933"/>
  </node>
  <node id="-1045" visible="true" lat="43.45693147" lon="-72.82057292">
    <tag k="addr:housenumber" v="797"/>
    <tag k="addr:street" v="Hortonville Road"/>
    <tag k="addr:state" v="VT"/>
    <tag k="ref:vcgi:esiteid" v="171940"/>
  </node>
  <node id="-1047" visible="true" lat="43.38330505" lon="-72.79624039">
    <tag k="addr:housenumber" v="74"/>
    <tag k="addr:street" v="Yale Road South"/>
    <tag k="addr:state" v="VT"/>
    <tag k="ref:vcgi:esiteid" v="171942"/>
  </node>
  <node id="-1050" visible="true" lat="43.39779717" lon="-72.80204658">
    <tag k="addr:housenumber" v="406"/>
    <tag k="addr:street" v="Hedgehog Hill Road South"/>
    <tag k="addr:state" v="VT"/>
    <tag k="ref:vcgi:esiteid" v="171945"/>
  </node>
  <node id="-1054" visible="true" lat="43.39563807" lon="-72.8017178">
    <tag k="addr:housenumber" v="288"/>
    <tag k="addr:street" v="Hedgehog Hill Road South"/>
    <tag k="addr:state" v="VT"/>
    <tag k="ref:vcgi:esiteid" v="171949"/>
  </node>
  <node id="-1056" visible="true" lat="43.44074933" lon="-72.83876189">
    <tag k="addr:housenumber" v="10"/>
    <tag k="addr:street" v="Sharon Lane"/>
    <tag k="addr:state" v="VT"/>
    <tag k="ref:vcgi:esiteid" v="171952"/>
  </node>
  <node id="-1059" visible="true" lat="43.44197363" lon="-72.75616007">
    <tag k="addr:housenumber" v="136"/>
    <tag k="addr:street" v="East View Lane"/>
    <tag k="addr:state" v="VT"/>
    <tag k="ref:vcgi:esiteid" v="171955"/>
  </node>
  <node id="-1062" visible="true" lat="43.4157159" lon="-72.8163302">
    <tag k="addr:housenumber" v="3684"/>
    <tag k="addr:street" v="Healdville Road"/>
    <tag k="addr:state" v="VT"/>
    <tag k="ref:vcgi:esiteid" v="171958"/>
  </node>
  <node id="-1067" visible="true" lat="43.44027895" lon="-72.76232698">
    <tag k="addr:housenumber" v="87"/>
    <tag k="addr:street" v="Sawyer Hill Road"/>
    <tag k="addr:state" v="VT"/>
    <tag k="ref:vcgi:esiteid" v="171963"/>
  </node>
  <node id="-1072" visible="true" lat="43.40547094" lon="-72.79525204">
    <tag k="addr:housenumber" v="176"/>
    <tag k="addr:street" v="Yale Road North"/>
    <tag k="addr:state" v="VT"/>
    <tag k="ref:vcgi:esiteid" v="171968"/>
  </node>
  <node id="-1077" visible="true" lat="43.39988316" lon="-72.80470258">
    <tag k="addr:housenumber" v="523"/>
    <tag k="addr:street" v="Hedgehog Hill Road South"/>
    <tag k="addr:state" v="VT"/>
    <tag k="ref:vcgi:esiteid" v="171973"/>
  </node>
  <node id="-1078" visible="true" lat="43.39843724" lon="-72.82264323">
    <tag k="addr:housenumber" v="1202"/>
    <tag k="addr:street" v="Maple Hill Road"/>
    <tag k="addr:state" v="VT"/>
    <tag k="ref:vcgi:esiteid" v="171974"/>
  </node>
  <node id="-1084" visible="true" lat="43.47269841" lon="-72.74698429">
    <tag k="addr:housenumber" v="2776"/>
    <tag k="addr:street" v="Sawyer Hill Road"/>
    <tag k="addr:state" v="VT"/>
    <tag k="ref:vcgi:esiteid" v="171980"/>
  </node>
  <node id="-1087" visible="true" lat="43.44195288" lon="-72.75480111">
    <tag k="addr:housenumber" v="161"/>
    <tag k="addr:street" v="East View Lane"/>
    <tag k="addr:state" v="VT"/>
    <tag k="ref:vcgi:esiteid" v="171983"/>
  </node>
  <node id="-1088" visible="true" lat="43.40361919" lon="-72.79258638">
    <tag k="addr:housenumber" v="281"/>
    <tag k="addr:street" v="Yale Road North"/>
    <tag k="addr:state" v="VT"/>
    <tag k="ref:vcgi:esiteid" v="171984"/>
  </node>
  <node id="-1089" visible="true" lat="43.40238164" lon="-72.79201296">
    <tag k="addr:housenumber" v="339"/>
    <tag k="addr:street" v="Yale Road North"/>
    <tag k="addr:state" v="VT"/>
    <tag k="ref:vcgi:esiteid" v="171985"/>
  </node>
  <node id="-1092" visible="true" lat="43.40695926" lon="-72.85524138">
    <tag k="addr:housenumber" v="660"/>
    <tag k="addr:street" v="Patch Hill Road"/>
    <tag k="addr:state" v="VT"/>
    <tag k="ref:vcgi:esiteid" v="171988"/>
  </node>
  <node id="-1093" visible="true" lat="43.40763875" lon="-72.84988591">
    <tag k="addr:housenumber" v="431"/>
    <tag k="addr:street" v="Patch Hill Road"/>
    <tag k="addr:state" v="VT"/>
    <tag k="ref:vcgi:esiteid" v="171989"/>
  </node>
  <node id="-1094" visible="true" lat="43.47332592" lon="-72.8330253">
    <tag k="addr:housenumber" v="714"/>
    <tag k="addr:street" v="Dawley Road North"/>
    <tag k="addr:state" v="VT"/>
    <tag k="ref:vcgi:esiteid" v="171990"/>
  </node>
  <node id="-1095" visible="true" lat="43.41601319" lon="-72.81118715">
    <tag k="addr:housenumber" v="3454"/>
    <tag k="addr:street" v="Healdville Road"/>
    <tag k="addr:state" v="VT"/>
    <tag k="ref:vcgi:esiteid" v="171991"/>
  </node>
  <node id="-1096" visible="true" lat="43.40953347" lon="-72.837022">
    <tag k="addr:housenumber" v="917"/>
    <tag k="addr:street" v="Tarbellville Road"/>
    <tag k="addr:state" v="VT"/>
    <tag k="ref:vcgi:esiteid" v="171992"/>
  </node>
  <node id="-1099" visible="true" lat="43.40310558" lon="-72.8243887">
    <tag k="addr:housenumber" v="762"/>
    <tag k="addr:street" v="Maple Hill Road"/>
    <tag k="addr:state" v="VT"/>
    <tag k="ref:vcgi:esiteid" v="171995"/>
  </node>
  <node id="-1100" visible="true" lat="43.42586899" lon="-72.81571665">
    <tag k="addr:housenumber" v="245"/>
    <tag k="addr:street" v="Teer Road"/>
    <tag k="addr:state" v="VT"/>
    <tag k="ref:vcgi:esiteid" v="171996"/>
  </node>
  <node id="-1106" visible="true" lat="43.45414961" lon="-72.81934362">
    <tag k="addr:housenumber" v="620"/>
    <tag k="addr:street" v="Hortonville Road"/>
    <tag k="addr:state" v="VT"/>
    <tag k="ref:vcgi:esiteid" v="172002"/>
  </node>
  <node id="-1109" visible="true" lat="43.44191462" lon="-72.84123027">
    <tag k="addr:housenumber" v="1087"/>
    <tag k="addr:street" v="Gates Road South"/>
    <tag k="addr:state" v="VT"/>
    <tag k="ref:vcgi:esiteid" v="172005"/>
  </node>
  <node id="-1113" visible="true" lat="43.43961567" lon="-72.7688508">
    <tag k="addr:housenumber" v="521"/>
    <tag k="addr:street" v="Alpine Drive"/>
    <tag k="addr:state" v="VT"/>
    <tag k="ref:vcgi:esiteid" v="172009"/>
  </node>
  <node id="-1114" visible="true" lat="43.4812235" lon="-72.82088538">
    <tag k="addr:housenumber" v="271"/>
    <tag k="addr:street" v="Hen Farm Road"/>
    <tag k="addr:state" v="VT"/>
    <tag k="ref:vcgi:esiteid" v="172010"/>
  </node>
  <node id="-1115" visible="true" lat="43.42595487" lon="-72.81718396">
    <tag k="addr:housenumber" v="221"/>
    <tag k="addr:street" v="Teer Road"/>
    <tag k="addr:state" v="VT"/>
    <tag k="ref:vcgi:esiteid" v="172011"/>
  </node>
  <node id="-1117" visible="true" lat="43.44857231" lon="-72.80175245">
    <tag k="addr:housenumber" v="298"/>
    <tag k="addr:street" v="Stewart Road North"/>
    <tag k="addr:state" v="VT"/>
    <tag k="ref:vcgi:esiteid" v="172013"/>
  </node>
  <node id="-1123" visible="true" lat="43.43710533" lon="-72.76913447">
    <tag k="addr:housenumber" v="344"/>
    <tag k="addr:street" v="Alpine Drive"/>
    <tag k="addr:state" v="VT"/>
    <tag k="ref:vcgi:esiteid" v="172019"/>
  </node>
  <node id="-1124" visible="true" lat="43.40537022" lon="-72.82298553">
    <tag k="addr:housenumber" v="586"/>
    <tag k="addr:street" v="Maple Hill Road"/>
    <tag k="addr:state" v="VT"/>
    <tag k="ref:vcgi:esiteid" v="172020"/>
  </node>
  <node id="-1125" visible="true" lat="43.44508" lon="-72.82739716">
    <tag k="addr:housenumber" v="148"/>
    <tag k="addr:street" v="Belmont Road"/>
    <tag k="addr:state" v="VT"/>
    <tag k="ref:vcgi:esiteid" v="172021"/>
  </node>
  <node id="-1127" visible="true" lat="43.43646406" lon="-72.76932914">
    <tag k="addr:housenumber" v="333"/>
    <tag k="addr:street" v="Alpine Drive"/>
    <tag k="addr:state" v="VT"/>
    <tag k="ref:vcgi:esiteid" v="172023"/>
  </node>
  <node id="-1128" visible="true" lat="43.43621628" lon="-72.76870532">
    <tag k="addr:housenumber" v="319"/>
    <tag k="addr:street" v="Alpine Drive"/>
    <tag k="addr:state" v="VT"/>
    <tag k="ref:vcgi:esiteid" v="172024"/>
  </node>
  <node id="-1129" visible="true" lat="43.45763929" lon="-72.8193087">
    <tag k="addr:housenumber" v="825"/>
    <tag k="addr:street" v="Hortonville Road"/>
    <tag k="addr:state" v="VT"/>
    <tag k="ref:vcgi:esiteid" v="172025"/>
  </node>
  <node id="-1131" visible="true" lat="43.47794084" lon="-72.82150022">
    <tag k="addr:housenumber" v="368"/>
    <tag k="addr:street" v="Russellville Road"/>
    <tag k="addr:state" v="VT"/>
    <tag k="ref:vcgi:esiteid" v="172027"/>
  </node>
  <node id="-1134" visible="true" lat="43.47494177" lon="-72.76016756">
    <tag k="addr:housenumber" v="58"/>
    <tag k="addr:street" v="Hastings Lane"/>
    <tag k="addr:state" v="VT"/>
    <tag k="ref:vcgi:esiteid" v="172031"/>
  </node>
  <node id="-1136" visible="true" lat="43.44231955" lon="-72.82552007">
    <tag k="addr:housenumber" v="458"/>
    <tag k="addr:street" v="Belmont Road"/>
    <tag k="addr:state" v="VT"/>
    <tag k="ref:vcgi:esiteid" v="172033"/>
  </node>
  <node id="-1137" visible="true" lat="43.44956386" lon="-72.78884839">
    <tag k="addr:housenumber" v="923"/>
    <tag k="addr:street" v="Summit Road"/>
    <tag k="addr:state" v="VT"/>
    <tag k="ref:vcgi:esiteid" v="172034"/>
  </node>
  <node id="-1139" visible="true" lat="43.44762324" lon="-72.78712573">
    <tag k="addr:housenumber" v="1088"/>
    <tag k="addr:street" v="Summit Road"/>
    <tag k="addr:state" v="VT"/>
    <tag k="ref:vcgi:esiteid" v="172036"/>
  </node>
  <node id="-1140" visible="true" lat="43.40884254" lon="-72.81907103">
    <tag k="addr:housenumber" v="27"/>
    <tag k="addr:street" v="Straight Road"/>
    <tag k="addr:state" v="VT"/>
    <tag k="ref:vcgi:esiteid" v="172037"/>
  </node>
  <node id="-1141" visible="true" lat="43.44003166" lon="-72.76875721">
    <tag k="addr:housenumber" v="565"/>
    <tag k="addr:street" v="Alpine Drive"/>
    <tag k="addr:state" v="VT"/>
    <tag k="ref:vcgi:esiteid" v="172038"/>
  </node>
  <node id="-1142" visible="true" lat="43.47843477" lon="-72.81884055">
    <tag k="addr:housenumber" v="134"/>
    <tag k="addr:street" v="Hen Farm Road"/>
    <tag k="addr:state" v="VT"/>
    <tag k="ref:vcgi:esiteid" v="172040"/>
  </node>
  <node id="-1143" visible="true" lat="43.39111371" lon="-72.80590568">
    <tag k="addr:housenumber" v="84"/>
    <tag k="addr:street" v="Howland Farm Road"/>
    <tag k="addr:state" v="VT"/>
    <tag k="ref:vcgi:esiteid" v="172041"/>
  </node>
  <node id="-1145" visible="true" lat="43.44565832" lon="-72.76956255">
    <tag k="addr:housenumber" v="432"/>
    <tag k="addr:street" v="Shunpike Road"/>
    <tag k="addr:state" v="VT"/>
    <tag k="ref:vcgi:esiteid" v="172043"/>
  </node>
  <node id="-1146" visible="true" lat="43.44627879" lon="-72.77948001">
    <tag k="addr:housenumber" v="1472"/>
    <tag k="addr:street" v="Summit Road"/>
    <tag k="addr:state" v="VT"/>
    <tag k="ref:vcgi:esiteid" v="172044"/>
  </node>
  <node id="-1148" visible="true" lat="43.47433995" lon="-72.75171022">
    <tag k="addr:housenumber" v="495"/>
    <tag k="addr:street" v="Dam Road"/>
    <tag k="addr:state" v="VT"/>
    <tag k="ref:vcgi:esiteid" v="189431"/>
  </node>
  <node id="-1149" visible="true" lat="43.43938084" lon="-72.76820764">
    <tag k="addr:housenumber" v="530"/>
    <tag k="addr:street" v="Alpine Drive"/>
    <tag k="addr:state" v="VT"/>
    <tag k="ref:vcgi:esiteid" v="305526"/>
  </node>
  <node id="-1151" visible="true" lat="43.4147811" lon="-72.821551">
    <tag k="addr:housenumber" v="24"/>
    <tag k="addr:street" v="Tarbellville Road"/>
    <tag k="addr:state" v="VT"/>
    <tag k="ref:vcgi:esiteid" v="307068"/>
  </node>
  <node id="-1152" visible="true" lat="43.48149934" lon="-72.85318141">
    <tag k="addr:housenumber" v="75"/>
    <tag k="addr:street" v="Lushus Acres Lane"/>
    <tag k="addr:state" v="VT"/>
    <tag k="ref:vcgi:esiteid" v="307069"/>
  </node>
  <node id="-1154" visible="true" lat="43.44866632" lon="-72.78634411">
    <tag k="addr:housenumber" v="1091"/>
    <tag k="addr:street" v="Summit Road"/>
    <tag k="addr:state" v="VT"/>
    <tag k="ref:vcgi:esiteid" v="307392"/>
  </node>
  <node id="-1155" visible="true" lat="43.43837912" lon="-72.76430982">
    <tag k="addr:housenumber" v="23"/>
    <tag k="addr:street" v="Chalet Drive"/>
    <tag k="addr:state" v="VT"/>
    <tag k="ref:vcgi:esiteid" v="309210"/>
  </node>
  <node id="-1156" visible="true" lat="43.41605818" lon="-72.77617333">
    <tag k="addr:housenumber" v="986"/>
    <tag k="addr:street" v="Branch Brook Road"/>
    <tag k="addr:state" v="VT"/>
    <tag k="ref:vcgi:esiteid" v="313779"/>
  </node>
  <node id="-1157" visible="true" lat="43.42371101" lon="-72.82056915">
    <tag k="addr:housenumber" v="12"/>
    <tag k="addr:street" v="Nichols Road"/>
    <tag k="addr:state" v="VT"/>
    <tag k="ref:vcgi:esiteid" v="314471"/>
  </node>
  <node id="-1159" visible="true" lat="43.40135578" lon="-72.82955459">
    <tag k="addr:housenumber" v="92"/>
    <tag k="addr:street" v="Spruce Lane"/>
    <tag k="addr:state" v="VT"/>
    <tag k="ref:vcgi:esiteid" v="315212"/>
  </node>
  <node id="-1162" visible="true" lat="43.40951542" lon="-72.81177033">
    <tag k="addr:housenumber" v="498"/>
    <tag k="addr:street" v="Dodge Road"/>
    <tag k="addr:state" v="VT"/>
    <tag k="ref:vcgi:esiteid" v="315559"/>
  </node>
  <node id="-1166" visible="true" lat="43.44509136" lon="-72.77710019">
    <tag k="addr:housenumber" v="1596"/>
    <tag k="addr:street" v="Summit Road"/>
    <tag k="addr:state" v="VT"/>
    <tag k="ref:vcgi:esiteid" v="318129"/>
  </node>
  <node id="-1167" visible="true" lat="43.48290176" lon="-72.82008619">
    <tag k="addr:housenumber" v="300"/>
    <tag k="addr:street" v="Hen Farm Road"/>
    <tag k="addr:state" v="VT"/>
    <tag k="ref:vcgi:esiteid" v="325272"/>
  </node>
  <node id="-1168" visible="true" lat="43.46316679" lon="-72.83377513">
    <tag k="addr:housenumber" v="316"/>
    <tag k="addr:street" v="Dawley Road South"/>
    <tag k="addr:state" v="VT"/>
    <tag k="ref:vcgi:esiteid" v="326363"/>
  </node>
  <node id="-1171" visible="true" lat="43.45397816" lon="-72.73793569">
    <tag k="addr:housenumber" v="1460"/>
    <tag k="addr:street" v="Sawyer Hill Road"/>
    <tag k="addr:state" v="VT"/>
    <tag k="ref:vcgi:esiteid" v="327041"/>
  </node>
  <node id="-1174" visible="true" lat="43.41494044" lon="-72.80437626">
    <tag k="addr:housenumber" v="3101"/>
    <tag k="addr:street" v="Healdville Road"/>
    <tag k="addr:state" v="VT"/>
    <tag k="ref:vcgi:esiteid" v="328209"/>
  </node>
  <node id="-1176" visible="true" lat="43.44786508" lon="-72.79647631">
    <tag k="addr:housenumber" v="169"/>
    <tag k="addr:street" v="Stewart Road North"/>
    <tag k="addr:state" v="VT"/>
    <tag k="ref:vcgi:esiteid" v="331070"/>
  </node>
  <node id="-1177" visible="true" lat="43.45591949" lon="-72.81770275">
    <tag k="addr:housenumber" v="798"/>
    <tag k="addr:street" v="Hortonville Road"/>
    <tag k="addr:state" v="VT"/>
    <tag k="ref:vcgi:esiteid" v="331200"/>
  </node>
  <node id="-1178" visible="true" lat="43.39564826" lon="-72.80313705">
    <tag k="addr:housenumber" v="221"/>
    <tag k="addr:street" v="Hedgehog Hill Road South"/>
    <tag k="addr:state" v="VT"/>
    <tag k="ref:vcgi:esiteid" v="331957"/>
  </node>
  <node id="-1181" visible="true" lat="43.44486053" lon="-72.79929285">
    <tag k="addr:housenumber" v="475"/>
    <tag k="addr:street" v="Stewart Road North"/>
    <tag k="addr:state" v="VT"/>
    <tag k="ref:vcgi:esiteid" v="334767"/>
  </node>
  <node id="-1182" visible="true" lat="43.45361338" lon="-72.81616109">
    <tag k="addr:housenumber" v="419"/>
    <tag k="addr:street" v="Old Turnpike Road"/>
    <tag k="addr:state" v="VT"/>
    <tag k="ref:vcgi:esiteid" v="335072"/>
  </node>
  <node id="-1185" visible="true" lat="43.42399635" lon="-72.78207552">
    <tag k="addr:housenumber" v="1749"/>
    <tag k="addr:street" v="Healdville Road"/>
    <tag k="addr:state" v="VT"/>
    <tag k="ref:vcgi:esiteid" v="337400"/>
  </node>
  <node id="-1186" visible="true" lat="43.41536607" lon="-72.8121626">
    <tag k="addr:housenumber" v="3502"/>
    <tag k="addr:street" v="Healdville Road"/>
    <tag k="addr:state" v="VT"/>
    <tag k="ref:vcgi:esiteid" v="337401"/>
  </node>
  <node id="-1189" visible="true" lat="43.43254623" lon="-72.79261204">
    <tag k="addr:housenumber" v="651"/>
    <tag k="addr:street" v="Stewart Road South"/>
    <tag k="addr:state" v="VT"/>
    <tag k="ref:vcgi:esiteid" v="337826"/>
  </node>
  <node id="-1192" visible="true" lat="43.40034185" lon="-72.8445056">
    <tag k="addr:housenumber" v="193"/>
    <tag k="addr:street" v="Camp Road"/>
    <tag k="addr:state" v="VT"/>
    <tag k="ref:vcgi:esiteid" v="338931"/>
  </node>
  <node id="-1193" visible="true" lat="43.47162038" lon="-72.83312746">
    <tag k="addr:housenumber" v="788"/>
    <tag k="addr:street" v="Dawley Road North"/>
    <tag k="addr:state" v="VT"/>
    <tag k="ref:vcgi:esiteid" v="339879"/>
  </node>
  <node id="-1197" visible="true" lat="43.44314632" lon="-72.75686743">
    <tag k="addr:housenumber" v="454"/>
    <tag k="addr:street" v="Sawyer Hill Road"/>
    <tag k="addr:state" v="VT"/>
    <tag k="ref:vcgi:esiteid" v="341443"/>
  </node>
  <node id="-1198" visible="true" lat="43.44196294" lon="-72.75762321">
    <tag k="addr:housenumber" v="452"/>
    <tag k="addr:street" v="Sawyer Hill Road"/>
    <tag k="addr:state" v="VT"/>
    <tag k="ref:vcgi:esiteid" v="341444"/>
  </node>
  <node id="-1202" visible="true" lat="43.44680195" lon="-72.79828648">
    <tag k="addr:housenumber" v="343"/>
    <tag k="addr:street" v="Stewart Road North"/>
    <tag k="addr:state" v="VT"/>
    <tag k="ref:vcgi:esiteid" v="345777"/>
  </node>
  <node id="-1204" visible="true" lat="43.39652974" lon="-72.82305256">
    <tag k="addr:housenumber" v="1326"/>
    <tag k="addr:street" v="Maple Hill Road"/>
    <tag k="addr:state" v="VT"/>
    <tag k="ref:vcgi:esiteid" v="446187"/>
  </node>
  <node id="-1212" visible="true" lat="43.45332421" lon="-72.81556715">
    <tag k="addr:housenumber" v="411"/>
    <tag k="addr:street" v="Old Turnpike Road"/>
    <tag k="addr:state" v="VT"/>
    <tag k="ref:vcgi:esiteid" v="452017"/>
  </node>
  <node id="-1214" visible="true" lat="43.47397825" lon="-72.7522307">
    <tag k="addr:housenumber" v="500"/>
    <tag k="addr:street" v="Dam Road"/>
    <tag k="addr:state" v="VT"/>
    <tag k="ref:vcgi:esiteid" v="452772"/>
  </node>
  <node id="-1216" visible="true" lat="43.44686913" lon="-72.82230879">
    <tag k="addr:housenumber" v="101"/>
    <tag k="addr:street" v="School Street"/>
    <tag k="addr:state" v="VT"/>
    <tag k="ref:vcgi:esiteid" v="452921"/>
  </node>
  <node id="-1239" visible="true" lat="43.47666532" lon="-72.76322114">
    <tag k="addr:housenumber" v="71"/>
    <tag k="addr:street" v="Old County Road"/>
    <tag k="addr:state" v="VT"/>
    <tag k="ref:vcgi:esiteid" v="612101"/>
  </node>
  <node id="-1240" visible="true" lat="43.44409305" lon="-72.84493607">
    <tag k="addr:housenumber" v="1330"/>
    <tag k="addr:street" v="Gates Road South"/>
    <tag k="addr:state" v="VT"/>
    <tag k="ref:vcgi:esiteid" v="612102"/>
  </node>
  <node id="-1266" visible="true" lat="43.40503763" lon="-72.75028927">
    <tag k="addr:housenumber" v="2222"/>
    <tag k="addr:street" v="Mountain Road"/>
    <tag k="addr:state" v="VT"/>
    <tag k="ref:vcgi:esiteid" v="752854"/>
  </node>
  <node id="-1267" visible="true" lat="43.42107901" lon="-72.74090628">
    <tag k="addr:housenumber" v="1380"/>
    <tag k="addr:street" v="Mountain Road"/>
    <tag k="addr:state" v="VT"/>
    <tag k="ref:vcgi:esiteid" v="752855"/>
  </node>
  <node id="-1268" visible="true" lat="43.4035525" lon="-72.75115037">
    <tag k="addr:housenumber" v="2210"/>
    <tag k="addr:street" v="Mountain Road"/>
    <tag k="addr:state" v="VT"/>
    <tag k="ref:vcgi:esiteid" v="752856"/>
  </node>
  <node id="-1311" visible="true" lat="43.40515535" lon="-72.7947362">
    <tag k="addr:housenumber" v="178"/>
    <tag k="addr:street" v="Yale Road North"/>
    <tag k="addr:state" v="VT"/>
    <tag k="ref:vcgi:esiteid" v="761561"/>
  </node>
  <node id="-1312" visible="true" lat="43.40477513" lon="-72.79395041">
    <tag k="addr:housenumber" v="229"/>
    <tag k="addr:street" v="Yale Road North"/>
    <tag k="addr:state" v="VT"/>
    <tag k="ref:vcgi:esiteid" v="761562"/>
  </node>
</osm>
