<?xml version="1.0" encoding="UTF-8"?>
<osm version="0.6" generator="JOSM" upload="false">
  <node id="-115" visible="true" lat="43.35189437" lon="-72.98279571">
    <tag k="addr:city" v="Mount Tabor"/>
    <tag k="addr:housenumber" v="589"/>
    <tag k="addr:street" v="Brooklyn Road"/>
    <tag k="addr:state" v="VT"/>
    <tag k="ref:vcgi:esiteid" v="172060"/>
  </node>
  <node id="-122" visible="true" lat="43.35082626" lon="-72.98314666">
    <tag k="addr:city" v="Mount Tabor"/>
    <tag k="addr:housenumber" v="545"/>
    <tag k="addr:street" v="Brooklyn Road"/>
    <tag k="addr:state" v="VT"/>
    <tag k="ref:vcgi:esiteid" v="172067"/>
  </node>
  <node id="-176" visible="true" lat="43.3263359" lon="-72.98865509">
    <tag k="addr:city" v="Mount Tabor"/>
    <tag k="addr:housenumber" v="142"/>
    <tag k="addr:street" v="Norse Lodge Road"/>
    <tag k="addr:state" v="VT"/>
    <tag k="ref:vcgi:esiteid" v="172121"/>
  </node>
  <node id="-197" visible="true" lat="43.30807876" lon="-72.98530579">
    <tag k="addr:city" v="Mount Tabor"/>
    <tag k="addr:housenumber" v="813"/>
    <tag k="addr:street" v="South End Road"/>
    <tag k="addr:state" v="VT"/>
    <tag k="ref:vcgi:esiteid" v="172142"/>
  </node>
  <node id="-204" visible="true" lat="43.30582701" lon="-72.99539129">
    <tag k="addr:city" v="Mount Tabor"/>
    <tag k="addr:housenumber" v="4090"/>
    <tag k="addr:street" v="U.S. Route 7"/>
    <tag k="addr:state" v="VT"/>
    <tag k="ref:vcgi:esiteid" v="172149"/>
  </node>
  <node id="-228" visible="true" lat="43.35154295" lon="-72.97615565">
    <tag k="addr:city" v="Mount Tabor"/>
    <tag k="addr:housenumber" v="944"/>
    <tag k="addr:street" v="Brooklyn Road"/>
    <tag k="addr:state" v="VT"/>
    <tag k="ref:vcgi:esiteid" v="610073"/>
  </node>
  <node id="-229" visible="true" lat="43.3016226" lon="-72.98635146">
    <tag k="addr:city" v="Mount Tabor"/>
    <tag k="addr:housenumber" v="1184"/>
    <tag k="addr:street" v="South End Road"/>
    <tag k="addr:state" v="VT"/>
    <tag k="ref:vcgi:esiteid" v="900484"/>
  </node>
</osm>
