<?xml version="1.0" encoding="UTF-8"?>
<osm version="0.6" generator="JOSM">
  <node id="-308" visible="true" lat="44.1222927" lon="-73.18054709">
    <!-- offset: "73 Main Street, New Haven, VT" Significant offset - 355m -->
    <tag k="addr:city" v="New Haven"/>
    <tag k="addr:housenumber" v="73"/>
    <tag k="addr:street" v="Main Street"/>
    <tag k="addr:state" v="VT"/>
    <tag k="ref:vcgi:esiteid" v="172382"/>
  </node>
  <node id="-497" visible="true" lat="44.0912056" lon="-73.22919464">
    <!-- offset: "1790 Field Days Road, New Haven, VT" Significant offset - 326.8m -->
    <tag k="addr:city" v="New Haven"/>
    <tag k="addr:housenumber" v="1790"/>
    <tag k="addr:street" v="Field Days Road"/>
    <tag k="addr:state" v="VT"/>
    <tag k="ref:vcgi:esiteid" v="172573"/>
  </node>
  <node id="-747" visible="true" lat="44.11912034" lon="-73.16553494">
    <!-- offset: "760 Main Street, New Haven, VT" Significant offset - 296.2m -->
    <tag k="addr:city" v="New Haven"/>
    <tag k="addr:housenumber" v="760"/>
    <tag k="addr:street" v="Main Street"/>
    <tag k="addr:state" v="VT"/>
    <tag k="ref:vcgi:esiteid" v="172825"/>
  </node>
</osm>
