<?xml version="1.0" encoding="UTF-8"?>
<osm version="0.6" generator="JOSM">
  <node id="-256" visible="true" lat="44.12520893" lon="-73.14541856">
    <!-- conflict: "1839 Main Street, New Haven, VT" No match in OSM, but a different address exists <5m away: "1389 Main Street, New Haven, VT" -->
    <tag k="addr:city" v="New Haven"/>
    <tag k="addr:housenumber" v="1839"/>
    <tag k="addr:street" v="Main Street"/>
    <tag k="addr:state" v="VT"/>
    <tag k="ref:vcgi:esiteid" v="172328"/>
  </node>
  <node id="-697" visible="true" lat="44.05801773" lon="-73.14751434">
    <!-- conflict: "2169 Halpin Road, New Haven, VT" Fuzzy match to "2169 Halpin Road, Middlebury, VT" -->
    <tag k="addr:city" v="New Haven"/>
    <tag k="addr:housenumber" v="2169"/>
    <tag k="addr:street" v="Halpin Road"/>
    <tag k="addr:state" v="VT"/>
    <tag k="ref:vcgi:esiteid" v="172775"/>
  </node>
  <node id="-702" visible="true" lat="44.05683124" lon="-73.14548635">
    <!-- conflict: "2030 Halpin Road, New Haven, VT" Fuzzy match to "2030 Halpin Road, Middlebury, VT" -->
    <tag k="addr:city" v="New Haven"/>
    <tag k="addr:housenumber" v="2030"/>
    <tag k="addr:street" v="Halpin Road"/>
    <tag k="addr:state" v="VT"/>
    <tag k="ref:vcgi:esiteid" v="172780"/>
  </node>
  <node id="-706" visible="true" lat="44.0561959" lon="-73.1457673">
    <!-- conflict: "1930 Halpin Road, New Haven, VT" Fuzzy match to "1930 Halpin Road, Middlebury, VT" -->
    <tag k="addr:city" v="New Haven"/>
    <tag k="addr:housenumber" v="1930"/>
    <tag k="addr:street" v="Halpin Road"/>
    <tag k="addr:state" v="VT"/>
    <tag k="ref:vcgi:esiteid" v="172784"/>
  </node>
  <node id="-709" visible="true" lat="44.05560397" lon="-73.14572973">
    <!-- conflict: "1928 Halpin Road, New Haven, VT" Fuzzy match to "1928 Halpin Road, Middlebury, VT" -->
    <tag k="addr:city" v="New Haven"/>
    <tag k="addr:housenumber" v="1928"/>
    <tag k="addr:street" v="Halpin Road"/>
    <tag k="addr:state" v="VT"/>
    <tag k="ref:vcgi:esiteid" v="172787"/>
  </node>
  <node id="-720" visible="true" lat="44.0539093" lon="-73.14544677">
    <!-- conflict: "1848 Halpin Road, New Haven, VT" Fuzzy match to "1848 Halpin Road, Middlebury, VT" -->
    <tag k="addr:city" v="New Haven"/>
    <tag k="addr:housenumber" v="1848"/>
    <tag k="addr:street" v="Halpin Road"/>
    <tag k="addr:state" v="VT"/>
    <tag k="ref:vcgi:esiteid" v="172798"/>
  </node>
  <node id="-737" visible="true" lat="44.05169072" lon="-73.14653229">
    <!-- conflict: "1669 Halpin Road, New Haven, VT" Fuzzy match to "1669 Halpin Road, Middlebury, VT" -->
    <tag k="addr:city" v="New Haven"/>
    <tag k="addr:housenumber" v="1669"/>
    <tag k="addr:street" v="Halpin Road"/>
    <tag k="addr:state" v="VT"/>
    <tag k="ref:vcgi:esiteid" v="172815"/>
  </node>
  <node id="-739" visible="true" lat="44.05128637" lon="-73.14656281">
    <!-- conflict: "1649 Halpin Road, New Haven, VT" Fuzzy match to "1649 Halpin Road, Middlebury, VT" -->
    <tag k="addr:city" v="New Haven"/>
    <tag k="addr:housenumber" v="1649"/>
    <tag k="addr:street" v="Halpin Road"/>
    <tag k="addr:state" v="VT"/>
    <tag k="ref:vcgi:esiteid" v="172817"/>
  </node>
  <node id="-743" visible="true" lat="44.05023956" lon="-73.14221954">
    <!-- conflict: "201 Halpin Covered Bridge Road, New Haven, VT" Fuzzy match to "201 Halpin Covered Bridge Road, Middlebury, VT" -->
    <tag k="addr:city" v="New Haven"/>
    <tag k="addr:housenumber" v="201"/>
    <tag k="addr:street" v="Halpin Covered Bridge Road"/>
    <tag k="addr:state" v="VT"/>
    <tag k="ref:vcgi:esiteid" v="172821"/>
  </node>
  <node id="-744" visible="true" lat="44.05025231" lon="-73.14689009">
    <!-- conflict: "1579 Halpin Road, New Haven, VT" Fuzzy match to "1579 Halpin Road, Middlebury, VT" -->
    <tag k="addr:city" v="New Haven"/>
    <tag k="addr:housenumber" v="1579"/>
    <tag k="addr:street" v="Halpin Road"/>
    <tag k="addr:state" v="VT"/>
    <tag k="ref:vcgi:esiteid" v="172822"/>
  </node>
  <node id="-746" visible="true" lat="44.04962539" lon="-73.14966583">
    <!-- conflict: "1405 Halpin Road, New Haven, VT" Fuzzy match to "1405 Halpin Road, Middlebury, VT" -->
    <tag k="addr:city" v="New Haven"/>
    <tag k="addr:housenumber" v="1405"/>
    <tag k="addr:street" v="Halpin Road"/>
    <tag k="addr:state" v="VT"/>
    <tag k="ref:vcgi:esiteid" v="172824"/>
  </node>
  <node id="-764" visible="true" lat="44.07198969" lon="-73.17263465">
    <!-- conflict: "1660 Ethan Allen Highway, New Haven, VT" Fuzzy match to "1660 Ethan Allen Highway, Hew Haven, VT" -->
    <tag k="addr:city" v="New Haven"/>
    <tag k="addr:housenumber" v="1660"/>
    <tag k="addr:street" v="Ethan Allen Highway"/>
    <tag k="addr:state" v="VT"/>
    <tag k="ref:vcgi:esiteid" v="172842"/>
  </node>
  <node id="-773" visible="true" lat="44.06311328" lon="-73.17777138">
    <!-- conflict: "722 Rivers Bend Road, New Haven, VT" Fuzzy match to "722 Rivers Bend Road, New Haven, " -->
    <tag k="addr:city" v="New Haven"/>
    <tag k="addr:housenumber" v="722"/>
    <tag k="addr:street" v="Rivers Bend Road"/>
    <tag k="addr:state" v="VT"/>
    <tag k="ref:vcgi:esiteid" v="172852"/>
  </node>
  <node id="-808" visible="true" lat="44.05865729" lon="-73.14567691">
    <!-- conflict: "2158 Halpin Road, New Haven, VT" Fuzzy match to "2158 Halpin Road, Middlebury, VT" -->
    <tag k="addr:city" v="New Haven"/>
    <tag k="addr:housenumber" v="2158"/>
    <tag k="addr:street" v="Halpin Road"/>
    <tag k="addr:state" v="VT"/>
    <tag k="ref:vcgi:esiteid" v="172887"/>
  </node>
  <node id="-873" visible="true" lat="44.05053578" lon="-73.14443184">
    <!-- conflict: "115 Halpin Covered Bridge Road, New Haven, VT" Fuzzy match to "115 Halpin Covered Bridge Road, Middlebury, VT" -->
    <tag k="addr:city" v="New Haven"/>
    <tag k="addr:housenumber" v="115"/>
    <tag k="addr:street" v="Halpin Covered Bridge Road"/>
    <tag k="addr:state" v="VT"/>
    <tag k="ref:vcgi:esiteid" v="328383"/>
  </node>
  <node id="-890" visible="true" lat="44.07976868" lon="-73.17656578">
    <!-- conflict: "2297 Ethan Allen Highway, New Haven, VT" Fuzzy match to "2297 Ethan Allen Highway, Hew Haven, VT" -->
    <tag k="addr:city" v="New Haven"/>
    <tag k="addr:housenumber" v="2297"/>
    <tag k="addr:street" v="Ethan Allen Highway"/>
    <tag k="addr:state" v="VT"/>
    <tag k="ref:vcgi:esiteid" v="339252"/>
  </node>
  <node id="-916" visible="true" lat="44.14557443" lon="-73.20841911">
    <!-- conflict: "20 Hidden Meadows Lane, New Haven, VT" No match in OSM, but a different address exists <5m away: "7439 Ethan Allen Highway, New Haven, VT" -->
    <tag k="addr:city" v="New Haven"/>
    <tag k="addr:housenumber" v="20"/>
    <tag k="addr:street" v="Hidden Meadows Lane"/>
    <tag k="addr:state" v="VT"/>
    <tag k="ref:vcgi:esiteid" v="453057"/>
  </node>
  <node id="-926" visible="true" lat="44.05510629" lon="-73.16669553">
    <!-- conflict: "48 River Road, New Haven, VT" No match in OSM, but a different address exists <5m away: "4 River Road, New Haven, VT" -->
    <tag k="addr:city" v="New Haven"/>
    <tag k="addr:housenumber" v="48"/>
    <tag k="addr:street" v="River Road"/>
    <tag k="addr:state" v="VT"/>
    <tag k="ref:vcgi:esiteid" v="612753"/>
  </node>
</osm>
