<?xml version="1.0" encoding="UTF-8"?>
<osm version="0.6" generator="JOSM">
  <node id="-188" visible="true" lat="44.72402481" lon="-71.97960871">
    <tag k="addr:housenumber" v="63"/>
    <tag k="addr:street" v="Bald Hill Pond Road"/>
    <tag k="addr:state" v="VT"/>
    <tag k="ref:vcgi:esiteid" v="172984"/>
  </node>
  <node id="-190" visible="true" lat="44.72360516" lon="-71.97454168">
    <tag k="addr:housenumber" v="1116"/>
    <tag k="addr:street" v="Newark Pond Road"/>
    <tag k="addr:state" v="VT"/>
    <tag k="ref:vcgi:esiteid" v="172986"/>
  </node>
  <node id="-193" visible="true" lat="44.72355773" lon="-71.9793941">
    <tag k="addr:housenumber" v="18"/>
    <tag k="addr:street" v="Bald Hill Pond Road"/>
    <tag k="addr:state" v="VT"/>
    <tag k="ref:vcgi:esiteid" v="172989"/>
  </node>
  <node id="-197" visible="true" lat="44.72333918" lon="-71.97883568">
    <tag k="addr:housenumber" v="1324"/>
    <tag k="addr:street" v="Newark Pond Road"/>
    <tag k="addr:state" v="VT"/>
    <tag k="ref:vcgi:esiteid" v="172993"/>
  </node>
  <node id="-199" visible="true" lat="44.72330697" lon="-71.97853498">
    <tag k="addr:housenumber" v="1308"/>
    <tag k="addr:street" v="Newark Pond Road"/>
    <tag k="addr:state" v="VT"/>
    <tag k="ref:vcgi:esiteid" v="172995"/>
  </node>
  <node id="-200" visible="true" lat="44.72331804" lon="-71.9735667">
    <tag k="addr:housenumber" v="1054"/>
    <tag k="addr:street" v="Newark Pond Road"/>
    <tag k="addr:state" v="VT"/>
    <tag k="ref:vcgi:esiteid" v="172996"/>
  </node>
  <node id="-201" visible="true" lat="44.7230339" lon="-71.98136901">
    <tag k="addr:housenumber" v="1446"/>
    <tag k="addr:street" v="Newark Pond Road"/>
    <tag k="addr:state" v="VT"/>
    <tag k="ref:vcgi:esiteid" v="172997"/>
  </node>
  <node id="-202" visible="true" lat="44.72291937" lon="-71.97877868">
    <tag k="addr:housenumber" v="8"/>
    <tag k="addr:street" v="Boulder Road"/>
    <tag k="addr:state" v="VT"/>
    <tag k="ref:vcgi:esiteid" v="172998"/>
  </node>
  <node id="-204" visible="true" lat="44.72292706" lon="-71.975676">
    <tag k="addr:housenumber" v="1173"/>
    <tag k="addr:street" v="Newark Pond Road"/>
    <tag k="addr:state" v="VT"/>
    <tag k="ref:vcgi:esiteid" v="173000"/>
  </node>
  <node id="-205" visible="true" lat="44.7229402" lon="-71.97738434">
    <tag k="addr:housenumber" v="1255"/>
    <tag k="addr:street" v="Newark Pond Road"/>
    <tag k="addr:state" v="VT"/>
    <tag k="ref:vcgi:esiteid" v="173001"/>
  </node>
  <node id="-206" visible="true" lat="44.72278962" lon="-71.97885062">
    <tag k="addr:housenumber" v="18"/>
    <tag k="addr:street" v="Boulder Road"/>
    <tag k="addr:state" v="VT"/>
    <tag k="ref:vcgi:esiteid" v="173002"/>
  </node>
  <node id="-208" visible="true" lat="44.72268295" lon="-71.9784317">
    <tag k="addr:housenumber" v="27"/>
    <tag k="addr:street" v="Boulder Road"/>
    <tag k="addr:state" v="VT"/>
    <tag k="ref:vcgi:esiteid" v="173004"/>
  </node>
  <node id="-209" visible="true" lat="44.72258619" lon="-71.97898901">
    <tag k="addr:housenumber" v="40"/>
    <tag k="addr:street" v="Boulder Road"/>
    <tag k="addr:state" v="VT"/>
    <tag k="ref:vcgi:esiteid" v="173005"/>
  </node>
  <node id="-210" visible="true" lat="44.72220469" lon="-71.9733377">
    <tag k="addr:housenumber" v="995"/>
    <tag k="addr:street" v="Newark Pond Road"/>
    <tag k="addr:state" v="VT"/>
    <tag k="ref:vcgi:esiteid" v="173006"/>
  </node>
  <node id="-211" visible="true" lat="44.72235488" lon="-71.9790039">
    <tag k="addr:housenumber" v="56"/>
    <tag k="addr:street" v="Boulder Road"/>
    <tag k="addr:state" v="VT"/>
    <tag k="ref:vcgi:esiteid" v="173007"/>
  </node>
  <node id="-212" visible="true" lat="44.7221946" lon="-71.97907875">
    <tag k="addr:housenumber" v="64"/>
    <tag k="addr:street" v="Boulder Road"/>
    <tag k="addr:state" v="VT"/>
    <tag k="ref:vcgi:esiteid" v="173009"/>
  </node>
  <node id="-214" visible="true" lat="44.72196579" lon="-71.97140502">
    <tag k="addr:housenumber" v="921"/>
    <tag k="addr:street" v="Newark Pond Road"/>
    <tag k="addr:state" v="VT"/>
    <tag k="ref:vcgi:esiteid" v="173011"/>
  </node>
  <node id="-215" visible="true" lat="44.72202438" lon="-71.97936658">
    <tag k="addr:housenumber" v="72"/>
    <tag k="addr:street" v="Boulder Road"/>
    <tag k="addr:state" v="VT"/>
    <tag k="ref:vcgi:esiteid" v="173012"/>
  </node>
  <node id="-216" visible="true" lat="44.72192675" lon="-71.97970284">
    <tag k="addr:housenumber" v="96"/>
    <tag k="addr:street" v="Boulder Road"/>
    <tag k="addr:state" v="VT"/>
    <tag k="ref:vcgi:esiteid" v="173013"/>
  </node>
  <node id="-217" visible="true" lat="44.72176261" lon="-71.97984127">
    <tag k="addr:housenumber" v="28"/>
    <tag k="addr:street" v="Point Lane"/>
    <tag k="addr:state" v="VT"/>
    <tag k="ref:vcgi:esiteid" v="173014"/>
  </node>
  <node id="-218" visible="true" lat="44.72154593" lon="-71.97088358">
    <tag k="addr:housenumber" v="889"/>
    <tag k="addr:street" v="Newark Pond Road"/>
    <tag k="addr:state" v="VT"/>
    <tag k="ref:vcgi:esiteid" v="173015"/>
  </node>
  <node id="-221" visible="true" lat="44.72155432" lon="-71.97988903">
    <tag k="addr:housenumber" v="36"/>
    <tag k="addr:street" v="Point Lane"/>
    <tag k="addr:state" v="VT"/>
    <tag k="ref:vcgi:esiteid" v="173018"/>
  </node>
  <node id="-222" visible="true" lat="44.72142365" lon="-71.96825476">
    <tag k="addr:housenumber" v="766"/>
    <tag k="addr:street" v="Newark Pond Road"/>
    <tag k="addr:state" v="VT"/>
    <tag k="ref:vcgi:esiteid" v="173019"/>
  </node>
  <node id="-223" visible="true" lat="44.7213482" lon="-71.97963449">
    <tag k="addr:housenumber" v="46"/>
    <tag k="addr:street" v="Point Lane"/>
    <tag k="addr:state" v="VT"/>
    <tag k="ref:vcgi:esiteid" v="173020"/>
  </node>
  <node id="-224" visible="true" lat="44.72132488" lon="-71.97911518">
    <tag k="addr:housenumber" v="112"/>
    <tag k="addr:street" v="Boulder Road"/>
    <tag k="addr:state" v="VT"/>
    <tag k="ref:vcgi:esiteid" v="173021"/>
  </node>
  <node id="-225" visible="true" lat="44.72128271" lon="-71.97889163">
    <tag k="addr:housenumber" v="128"/>
    <tag k="addr:street" v="Boulder Road"/>
    <tag k="addr:state" v="VT"/>
    <tag k="ref:vcgi:esiteid" v="173022"/>
  </node>
  <node id="-227" visible="true" lat="44.72123336" lon="-71.9859848">
    <tag k="addr:housenumber" v="82"/>
    <tag k="addr:street" v="Black Fly Boulevard"/>
    <tag k="addr:state" v="VT"/>
    <tag k="ref:vcgi:esiteid" v="173024"/>
  </node>
  <node id="-228" visible="true" lat="44.72110876" lon="-71.97877521">
    <tag k="addr:housenumber" v="150"/>
    <tag k="addr:street" v="Boulder Road"/>
    <tag k="addr:state" v="VT"/>
    <tag k="ref:vcgi:esiteid" v="173025"/>
  </node>
  <node id="-229" visible="true" lat="44.72114596" lon="-71.96969539">
    <tag k="addr:housenumber" v="799"/>
    <tag k="addr:street" v="Newark Pond Road"/>
    <tag k="addr:state" v="VT"/>
    <tag k="ref:vcgi:esiteid" v="173026"/>
  </node>
  <node id="-232" visible="true" lat="44.72090615" lon="-71.96964545">
    <tag k="addr:housenumber" v="801"/>
    <tag k="addr:street" v="Newark Pond Road"/>
    <tag k="addr:state" v="VT"/>
    <tag k="ref:vcgi:esiteid" v="173029"/>
  </node>
  <node id="-233" visible="true" lat="44.72067" lon="-71.97877447">
    <tag k="addr:housenumber" v="176"/>
    <tag k="addr:street" v="Boulder Road"/>
    <tag k="addr:state" v="VT"/>
    <tag k="ref:vcgi:esiteid" v="173030"/>
  </node>
  <node id="-234" visible="true" lat="44.71952252" lon="-71.9679169">
    <tag k="addr:housenumber" v="32"/>
    <tag k="addr:street" v="Makenzie Way"/>
    <tag k="addr:state" v="VT"/>
    <tag k="ref:vcgi:esiteid" v="173031"/>
  </node>
  <node id="-235" visible="true" lat="44.72058105" lon="-71.96669769">
    <tag k="addr:housenumber" v="649"/>
    <tag k="addr:street" v="Newark Pond Road"/>
    <tag k="addr:state" v="VT"/>
    <tag k="ref:vcgi:esiteid" v="173032"/>
  </node>
  <node id="-236" visible="true" lat="44.72047722" lon="-71.97872659">
    <tag k="addr:housenumber" v="184"/>
    <tag k="addr:street" v="Boulder Road"/>
    <tag k="addr:state" v="VT"/>
    <tag k="ref:vcgi:esiteid" v="173033"/>
  </node>
  <node id="-237" visible="true" lat="44.72042465" lon="-71.9848175">
    <tag k="addr:housenumber" v="1793"/>
    <tag k="addr:street" v="Newark Pond Road"/>
    <tag k="addr:state" v="VT"/>
    <tag k="ref:vcgi:esiteid" v="173034"/>
  </node>
  <node id="-238" visible="true" lat="44.72032707" lon="-71.97866492">
    <tag k="addr:housenumber" v="208"/>
    <tag k="addr:street" v="Boulder Road"/>
    <tag k="addr:state" v="VT"/>
    <tag k="ref:vcgi:esiteid" v="173035"/>
  </node>
  <node id="-240" visible="true" lat="44.72010341" lon="-71.97856445">
    <tag k="addr:housenumber" v="222"/>
    <tag k="addr:street" v="Boulder Road"/>
    <tag k="addr:state" v="VT"/>
    <tag k="ref:vcgi:esiteid" v="173037"/>
  </node>
  <node id="-241" visible="true" lat="44.71998596" lon="-71.96611785">
    <tag k="addr:housenumber" v="621"/>
    <tag k="addr:street" v="Newark Pond Road"/>
    <tag k="addr:state" v="VT"/>
    <tag k="ref:vcgi:esiteid" v="173038"/>
  </node>
  <node id="-242" visible="true" lat="44.71992111" lon="-71.98600769">
    <tag k="addr:housenumber" v="1844"/>
    <tag k="addr:street" v="Newark Pond Road"/>
    <tag k="addr:state" v="VT"/>
    <tag k="ref:vcgi:esiteid" v="173039"/>
  </node>
  <node id="-244" visible="true" lat="44.71981048" lon="-71.97840118">
    <tag k="addr:housenumber" v="238"/>
    <tag k="addr:street" v="Boulder Road"/>
    <tag k="addr:state" v="VT"/>
    <tag k="ref:vcgi:esiteid" v="173041"/>
  </node>
  <node id="-245" visible="true" lat="44.71878841" lon="-71.96423817">
    <tag k="addr:housenumber" v="495"/>
    <tag k="addr:street" v="Newark Pond Road"/>
    <tag k="addr:state" v="VT"/>
    <tag k="ref:vcgi:esiteid" v="173042"/>
  </node>
  <node id="-246" visible="true" lat="44.71957778" lon="-71.98554229">
    <tag k="addr:housenumber" v="1853"/>
    <tag k="addr:street" v="Newark Pond Road"/>
    <tag k="addr:state" v="VT"/>
    <tag k="ref:vcgi:esiteid" v="173043"/>
  </node>
  <node id="-248" visible="true" lat="44.71940994" lon="-71.98638153">
    <tag k="addr:housenumber" v="1886"/>
    <tag k="addr:street" v="Newark Pond Road"/>
    <tag k="addr:state" v="VT"/>
    <tag k="ref:vcgi:esiteid" v="173045"/>
  </node>
  <node id="-249" visible="true" lat="44.71912002" lon="-71.95523834">
    <tag k="addr:housenumber" v="109"/>
    <tag k="addr:street" v="Abbott Hill Road"/>
    <tag k="addr:state" v="VT"/>
    <tag k="ref:vcgi:esiteid" v="173046"/>
  </node>
  <node id="-250" visible="true" lat="44.71909332" lon="-71.95404052">
    <tag k="addr:housenumber" v="120"/>
    <tag k="addr:street" v="Abbott Hill Road"/>
    <tag k="addr:state" v="VT"/>
    <tag k="ref:vcgi:esiteid" v="173047"/>
  </node>
  <node id="-253" visible="true" lat="44.71892928" lon="-71.98628997">
    <tag k="addr:housenumber" v="1907"/>
    <tag k="addr:street" v="Newark Pond Road"/>
    <tag k="addr:state" v="VT"/>
    <tag k="ref:vcgi:esiteid" v="173052"/>
  </node>
  <node id="-255" visible="true" lat="44.71858978" lon="-71.98636627">
    <tag k="addr:housenumber" v="1929"/>
    <tag k="addr:street" v="Newark Pond Road"/>
    <tag k="addr:state" v="VT"/>
    <tag k="ref:vcgi:esiteid" v="173054"/>
  </node>
  <node id="-256" visible="true" lat="44.71819305" lon="-71.95440673">
    <tag k="addr:housenumber" v="60"/>
    <tag k="addr:street" v="Abbott Hill Road"/>
    <tag k="addr:state" v="VT"/>
    <tag k="ref:vcgi:esiteid" v="173055"/>
  </node>
  <node id="-257" visible="true" lat="44.71593333" lon="-71.96425419">
    <tag k="addr:housenumber" v="433"/>
    <tag k="addr:street" v="Newark Pond Road"/>
    <tag k="addr:state" v="VT"/>
    <tag k="ref:vcgi:esiteid" v="173056"/>
  </node>
  <node id="-258" visible="true" lat="44.71810714" lon="-71.97836757">
    <tag k="addr:housenumber" v="659"/>
    <tag k="addr:street" v="Ponemah Path"/>
    <tag k="addr:state" v="VT"/>
    <tag k="ref:vcgi:esiteid" v="173057"/>
  </node>
  <node id="-259" visible="true" lat="44.71821975" lon="-71.98801422">
    <tag k="addr:housenumber" v="1992"/>
    <tag k="addr:street" v="Newark Pond Road"/>
    <tag k="addr:state" v="VT"/>
    <tag k="ref:vcgi:esiteid" v="173058"/>
  </node>
  <node id="-260" visible="true" lat="44.7178218" lon="-71.92109367">
    <tag k="addr:housenumber" v="123"/>
    <tag k="addr:street" v="North End Road"/>
    <tag k="addr:state" v="VT"/>
    <tag k="ref:vcgi:esiteid" v="173059"/>
  </node>
  <node id="-261" visible="true" lat="44.71781758" lon="-71.92223291">
    <tag k="addr:housenumber" v="77"/>
    <tag k="addr:street" v="North End Road"/>
    <tag k="addr:state" v="VT"/>
    <tag k="ref:vcgi:esiteid" v="173060"/>
  </node>
  <node id="-262" visible="true" lat="44.7178467" lon="-71.92178842">
    <tag k="addr:housenumber" v="93"/>
    <tag k="addr:street" v="North End Road"/>
    <tag k="addr:state" v="VT"/>
    <tag k="ref:vcgi:esiteid" v="173061"/>
  </node>
  <node id="-263" visible="true" lat="44.71751093" lon="-71.92148943">
    <tag k="addr:housenumber" v="108"/>
    <tag k="addr:street" v="North End Road"/>
    <tag k="addr:state" v="VT"/>
    <tag k="ref:vcgi:esiteid" v="173062"/>
  </node>
  <node id="-264" visible="true" lat="44.71747899" lon="-71.92199441">
    <tag k="addr:housenumber" v="84"/>
    <tag k="addr:street" v="North End Road"/>
    <tag k="addr:state" v="VT"/>
    <tag k="ref:vcgi:esiteid" v="173063"/>
  </node>
  <node id="-265" visible="true" lat="44.71703406" lon="-71.97881883">
    <tag k="addr:housenumber" v="567"/>
    <tag k="addr:street" v="Ponemah Path"/>
    <tag k="addr:state" v="VT"/>
    <tag k="ref:vcgi:esiteid" v="173065"/>
  </node>
  <node id="-266" visible="true" lat="44.7173856" lon="-71.92322215">
    <tag k="addr:housenumber" v="1373"/>
    <tag k="addr:street" v="Center Pond Road"/>
    <tag k="addr:state" v="VT"/>
    <tag k="ref:vcgi:esiteid" v="173066"/>
  </node>
  <node id="-268" visible="true" lat="44.7172411" lon="-71.97876088">
    <tag k="addr:housenumber" v="597"/>
    <tag k="addr:street" v="Ponemah Path"/>
    <tag k="addr:state" v="VT"/>
    <tag k="ref:vcgi:esiteid" v="173070"/>
  </node>
  <node id="-269" visible="true" lat="44.71677454" lon="-71.97892479">
    <tag k="addr:housenumber" v="559"/>
    <tag k="addr:street" v="Ponemah Path"/>
    <tag k="addr:state" v="VT"/>
    <tag k="ref:vcgi:esiteid" v="173071"/>
  </node>
  <node id="-270" visible="true" lat="44.71607033" lon="-71.95897406">
    <tag k="addr:housenumber" v="183"/>
    <tag k="addr:street" v="Newark Pond Road"/>
    <tag k="addr:state" v="VT"/>
    <tag k="ref:vcgi:esiteid" v="173072"/>
  </node>
  <node id="-271" visible="true" lat="44.71647547" lon="-71.92343486">
    <tag k="addr:housenumber" v="1367"/>
    <tag k="addr:street" v="Center Pond Road"/>
    <tag k="addr:state" v="VT"/>
    <tag k="ref:vcgi:esiteid" v="173073"/>
  </node>
  <node id="-272" visible="true" lat="44.71647262" lon="-71.95476532">
    <tag k="addr:housenumber" v="3347"/>
    <tag k="addr:street" v="Newark Street"/>
    <tag k="addr:state" v="VT"/>
    <tag k="ref:vcgi:esiteid" v="173074"/>
  </node>
  <node id="-273" visible="true" lat="44.71647994" lon="-71.9789054">
    <tag k="addr:housenumber" v="541"/>
    <tag k="addr:street" v="Ponemah Path"/>
    <tag k="addr:state" v="VT"/>
    <tag k="ref:vcgi:esiteid" v="173075"/>
  </node>
  <node id="-274" visible="true" lat="44.716053" lon="-71.92181396">
    <tag k="addr:housenumber" v="1268"/>
    <tag k="addr:street" v="Center Pond Road"/>
    <tag k="addr:state" v="VT"/>
    <tag k="ref:vcgi:esiteid" v="173076"/>
  </node>
  <node id="-275" visible="true" lat="44.71624338" lon="-71.97890608">
    <tag k="addr:housenumber" v="527"/>
    <tag k="addr:street" v="Ponemah Path"/>
    <tag k="addr:state" v="VT"/>
    <tag k="ref:vcgi:esiteid" v="173077"/>
  </node>
  <node id="-276" visible="true" lat="44.71602249" lon="-71.95222473">
    <tag k="addr:housenumber" v="3258"/>
    <tag k="addr:street" v="Newark Street"/>
    <tag k="addr:state" v="VT"/>
    <tag k="ref:vcgi:esiteid" v="173078"/>
  </node>
  <node id="-277" visible="true" lat="44.71603775" lon="-71.98916625">
    <tag k="addr:housenumber" v="2158"/>
    <tag k="addr:street" v="Newark Pond Road"/>
    <tag k="addr:state" v="VT"/>
    <tag k="ref:vcgi:esiteid" v="173080"/>
  </node>
  <node id="-278" visible="true" lat="44.71583152" lon="-71.97905233">
    <tag k="addr:housenumber" v="499"/>
    <tag k="addr:street" v="Ponemah Path"/>
    <tag k="addr:state" v="VT"/>
    <tag k="ref:vcgi:esiteid" v="173081"/>
  </node>
  <node id="-279" visible="true" lat="44.71587753" lon="-71.99388885">
    <tag k="addr:housenumber" v="330"/>
    <tag k="addr:street" v="Long Pond Road"/>
    <tag k="addr:state" v="VT"/>
    <tag k="ref:vcgi:esiteid" v="173082"/>
  </node>
  <node id="-280" visible="true" lat="44.71521905" lon="-71.97892823">
    <tag k="addr:housenumber" v="473"/>
    <tag k="addr:street" v="Ponemah Path"/>
    <tag k="addr:state" v="VT"/>
    <tag k="ref:vcgi:esiteid" v="173083"/>
  </node>
  <node id="-281" visible="true" lat="44.71460723" lon="-71.92368316">
    <tag k="addr:housenumber" v="1181"/>
    <tag k="addr:street" v="Center Pond Road"/>
    <tag k="addr:state" v="VT"/>
    <tag k="ref:vcgi:esiteid" v="173084"/>
  </node>
  <node id="-282" visible="true" lat="44.71640047" lon="-71.99092557">
    <tag k="addr:housenumber" v="2344"/>
    <tag k="addr:street" v="Newark Pond Road"/>
    <tag k="addr:state" v="VT"/>
    <tag k="ref:vcgi:esiteid" v="173085"/>
  </node>
  <node id="-283" visible="true" lat="44.71763062" lon="-71.9786242">
    <tag k="addr:housenumber" v="625"/>
    <tag k="addr:street" v="Ponemah Path"/>
    <tag k="addr:state" v="VT"/>
    <tag k="ref:vcgi:esiteid" v="173086"/>
  </node>
  <node id="-284" visible="true" lat="44.71451187" lon="-71.95314025">
    <tag k="addr:housenumber" v="3174"/>
    <tag k="addr:street" v="Newark Street"/>
    <tag k="addr:state" v="VT"/>
    <tag k="ref:vcgi:esiteid" v="173087"/>
  </node>
  <node id="-285" visible="true" lat="44.71401678" lon="-71.92295087">
    <tag k="addr:housenumber" v="1140"/>
    <tag k="addr:street" v="Center Pond Road"/>
    <tag k="addr:state" v="VT"/>
    <tag k="ref:vcgi:esiteid" v="173088"/>
  </node>
  <node id="-287" visible="true" lat="44.71381634" lon="-71.92307789">
    <tag k="addr:housenumber" v="1134"/>
    <tag k="addr:street" v="Center Pond Road"/>
    <tag k="addr:state" v="VT"/>
    <tag k="ref:vcgi:esiteid" v="173090"/>
  </node>
  <node id="-288" visible="true" lat="44.71401906" lon="-71.97909385">
    <tag k="addr:housenumber" v="371"/>
    <tag k="addr:street" v="Ponemah Path"/>
    <tag k="addr:state" v="VT"/>
    <tag k="ref:vcgi:esiteid" v="173091"/>
  </node>
  <node id="-289" visible="true" lat="44.71834108" lon="-71.97831078">
    <tag k="addr:housenumber" v="677"/>
    <tag k="addr:street" v="Ponemah Path"/>
    <tag k="addr:state" v="VT"/>
    <tag k="ref:vcgi:esiteid" v="173092"/>
  </node>
  <node id="-290" visible="true" lat="44.71363449" lon="-71.92391967">
    <tag k="addr:housenumber" v="1111"/>
    <tag k="addr:street" v="Center Pond Road"/>
    <tag k="addr:state" v="VT"/>
    <tag k="ref:vcgi:esiteid" v="173093"/>
  </node>
  <node id="-291" visible="true" lat="44.71357345" lon="-71.95363616">
    <tag k="addr:housenumber" v="3111"/>
    <tag k="addr:street" v="Newark Street"/>
    <tag k="addr:state" v="VT"/>
    <tag k="ref:vcgi:esiteid" v="173094"/>
  </node>
  <node id="-292" visible="true" lat="44.71355704" lon="-71.92321194">
    <tag k="addr:housenumber" v="1096"/>
    <tag k="addr:street" v="Center Pond Road"/>
    <tag k="addr:state" v="VT"/>
    <tag k="ref:vcgi:esiteid" v="173095"/>
  </node>
  <node id="-293" visible="true" lat="44.71303841" lon="-71.92332843">
    <tag k="addr:housenumber" v="1084"/>
    <tag k="addr:street" v="Center Pond Road"/>
    <tag k="addr:state" v="VT"/>
    <tag k="ref:vcgi:esiteid" v="173096"/>
  </node>
  <node id="-295" visible="true" lat="44.71937215" lon="-71.97818057">
    <tag k="addr:housenumber" v="737"/>
    <tag k="addr:street" v="Ponemah Path"/>
    <tag k="addr:state" v="VT"/>
    <tag k="ref:vcgi:esiteid" v="173098"/>
  </node>
  <node id="-296" visible="true" lat="44.71276918" lon="-71.92367832">
    <tag k="addr:housenumber" v="1048"/>
    <tag k="addr:street" v="Center Pond Road"/>
    <tag k="addr:state" v="VT"/>
    <tag k="ref:vcgi:esiteid" v="173099"/>
  </node>
  <node id="-297" visible="true" lat="44.71260452" lon="-71.92404937">
    <tag k="addr:housenumber" v="1045"/>
    <tag k="addr:street" v="Center Pond Road"/>
    <tag k="addr:state" v="VT"/>
    <tag k="ref:vcgi:esiteid" v="173100"/>
  </node>
  <node id="-299" visible="true" lat="44.71279708" lon="-71.97957801">
    <tag k="addr:housenumber" v="269"/>
    <tag k="addr:street" v="Ponemah Path"/>
    <tag k="addr:state" v="VT"/>
    <tag k="ref:vcgi:esiteid" v="173102"/>
  </node>
  <node id="-300" visible="true" lat="44.71233723" lon="-71.92306525">
    <tag k="addr:housenumber" v="1030"/>
    <tag k="addr:street" v="Center Pond Road"/>
    <tag k="addr:state" v="VT"/>
    <tag k="ref:vcgi:esiteid" v="173103"/>
  </node>
  <node id="-303" visible="true" lat="44.71210867" lon="-71.92396871">
    <tag k="addr:housenumber" v="1005"/>
    <tag k="addr:street" v="Center Pond Road"/>
    <tag k="addr:state" v="VT"/>
    <tag k="ref:vcgi:esiteid" v="173106"/>
  </node>
  <node id="-304" visible="true" lat="44.71229553" lon="-71.97957611">
    <tag k="addr:housenumber" v="245"/>
    <tag k="addr:street" v="Ponemah Path"/>
    <tag k="addr:state" v="VT"/>
    <tag k="ref:vcgi:esiteid" v="173107"/>
  </node>
  <node id="-305" visible="true" lat="44.71171409" lon="-71.92393277">
    <tag k="addr:housenumber" v="981"/>
    <tag k="addr:street" v="Center Pond Road"/>
    <tag k="addr:state" v="VT"/>
    <tag k="ref:vcgi:esiteid" v="173108"/>
  </node>
  <node id="-306" visible="true" lat="44.71180177" lon="-71.97945176">
    <tag k="addr:housenumber" v="216"/>
    <tag k="addr:street" v="Ponemah Path"/>
    <tag k="addr:state" v="VT"/>
    <tag k="ref:vcgi:esiteid" v="173109"/>
  </node>
  <node id="-308" visible="true" lat="44.71117147" lon="-71.92328852">
    <tag k="addr:housenumber" v="952"/>
    <tag k="addr:street" v="Center Pond Road"/>
    <tag k="addr:state" v="VT"/>
    <tag k="ref:vcgi:esiteid" v="173111"/>
  </node>
  <node id="-309" visible="true" lat="44.71080489" lon="-71.92320327">
    <tag k="addr:housenumber" v="926"/>
    <tag k="addr:street" v="Center Pond Road"/>
    <tag k="addr:state" v="VT"/>
    <tag k="ref:vcgi:esiteid" v="173112"/>
  </node>
  <node id="-310" visible="true" lat="44.7109579" lon="-71.97987804">
    <tag k="addr:housenumber" v="168"/>
    <tag k="addr:street" v="Ponemah Path"/>
    <tag k="addr:state" v="VT"/>
    <tag k="ref:vcgi:esiteid" v="173113"/>
  </node>
  <node id="-311" visible="true" lat="44.71094512" lon="-71.9805603">
    <tag k="addr:housenumber" v="135"/>
    <tag k="addr:street" v="Ponemah Path"/>
    <tag k="addr:state" v="VT"/>
    <tag k="ref:vcgi:esiteid" v="173114"/>
  </node>
  <node id="-312" visible="true" lat="44.71072024" lon="-71.98076833">
    <tag k="addr:housenumber" v="117"/>
    <tag k="addr:street" v="Ponemah Path"/>
    <tag k="addr:state" v="VT"/>
    <tag k="ref:vcgi:esiteid" v="173115"/>
  </node>
  <node id="-313" visible="true" lat="44.71083795" lon="-71.99540543">
    <tag k="addr:housenumber" v="2621"/>
    <tag k="addr:street" v="Newark Pond Road"/>
    <tag k="addr:state" v="VT"/>
    <tag k="ref:vcgi:esiteid" v="173116"/>
  </node>
  <node id="-314" visible="true" lat="44.71052932" lon="-71.98138427">
    <tag k="addr:housenumber" v="59"/>
    <tag k="addr:street" v="Ponemah Path"/>
    <tag k="addr:state" v="VT"/>
    <tag k="ref:vcgi:esiteid" v="173117"/>
  </node>
  <node id="-316" visible="true" lat="44.71041107" lon="-71.98101806">
    <tag k="addr:housenumber" v="79"/>
    <tag k="addr:street" v="Ponemah Path"/>
    <tag k="addr:state" v="VT"/>
    <tag k="ref:vcgi:esiteid" v="173119"/>
  </node>
  <node id="-317" visible="true" lat="44.71035071" lon="-71.92314639">
    <tag k="addr:housenumber" v="862"/>
    <tag k="addr:street" v="Center Pond Road"/>
    <tag k="addr:state" v="VT"/>
    <tag k="ref:vcgi:esiteid" v="173120"/>
  </node>
  <node id="-319" visible="true" lat="44.7100563" lon="-71.95357513">
    <tag k="addr:housenumber" v="2867"/>
    <tag k="addr:street" v="Newark Street"/>
    <tag k="addr:state" v="VT"/>
    <tag k="ref:vcgi:esiteid" v="173122"/>
  </node>
  <node id="-321" visible="true" lat="44.70990371" lon="-71.99629211">
    <tag k="addr:housenumber" v="2746"/>
    <tag k="addr:street" v="Newark Pond Road"/>
    <tag k="addr:state" v="VT"/>
    <tag k="ref:vcgi:esiteid" v="173124"/>
  </node>
  <node id="-322" visible="true" lat="44.70945117" lon="-71.92254475">
    <tag k="addr:housenumber" v="796"/>
    <tag k="addr:street" v="Center Pond Road"/>
    <tag k="addr:state" v="VT"/>
    <tag k="ref:vcgi:esiteid" v="173125"/>
  </node>
  <node id="-323" visible="true" lat="44.70994176" lon="-71.98253044">
    <tag k="addr:housenumber" v="15"/>
    <tag k="addr:street" v="Ponemah Path"/>
    <tag k="addr:state" v="VT"/>
    <tag k="ref:vcgi:esiteid" v="173126"/>
  </node>
  <node id="-324" visible="true" lat="44.70938118" lon="-71.98025259">
    <tag k="addr:housenumber" v="461"/>
    <tag k="addr:street" v="Spruce Ridge"/>
    <tag k="addr:state" v="VT"/>
    <tag k="ref:vcgi:esiteid" v="173127"/>
  </node>
  <node id="-325" visible="true" lat="44.70840454" lon="-71.95336914">
    <tag k="addr:housenumber" v="2753"/>
    <tag k="addr:street" v="Newark Street"/>
    <tag k="addr:state" v="VT"/>
    <tag k="ref:vcgi:esiteid" v="173128"/>
  </node>
  <node id="-326" visible="true" lat="44.70817775" lon="-71.92456025">
    <tag k="addr:housenumber" v="713"/>
    <tag k="addr:street" v="Center Pond Road"/>
    <tag k="addr:state" v="VT"/>
    <tag k="ref:vcgi:esiteid" v="173129"/>
  </node>
  <node id="-328" visible="true" lat="44.70813798" lon="-71.97876365">
    <tag k="addr:housenumber" v="404"/>
    <tag k="addr:street" v="Spruce Ridge"/>
    <tag k="addr:state" v="VT"/>
    <tag k="ref:vcgi:esiteid" v="173131"/>
  </node>
  <node id="-329" visible="true" lat="44.70759499" lon="-71.95254128">
    <tag k="addr:housenumber" v="2692"/>
    <tag k="addr:street" v="Newark Street"/>
    <tag k="addr:state" v="VT"/>
    <tag k="ref:vcgi:esiteid" v="173133"/>
  </node>
  <node id="-334" visible="true" lat="44.70672465" lon="-71.92459569">
    <tag k="addr:housenumber" v="637"/>
    <tag k="addr:street" v="Center Pond Road"/>
    <tag k="addr:state" v="VT"/>
    <tag k="ref:vcgi:esiteid" v="173139"/>
  </node>
  <node id="-335" visible="true" lat="44.70658874" lon="-71.95321655">
    <tag k="addr:housenumber" v="2627"/>
    <tag k="addr:street" v="Newark Street"/>
    <tag k="addr:state" v="VT"/>
    <tag k="ref:vcgi:esiteid" v="173140"/>
  </node>
  <node id="-341" visible="true" lat="44.70567321" lon="-71.95248413">
    <tag k="addr:housenumber" v="2544"/>
    <tag k="addr:street" v="Newark Street"/>
    <tag k="addr:state" v="VT"/>
    <tag k="ref:vcgi:esiteid" v="173147"/>
  </node>
  <node id="-342" visible="true" lat="44.7053509" lon="-71.93003264">
    <tag k="addr:housenumber" v="465"/>
    <tag k="addr:street" v="Kinney Hill Road"/>
    <tag k="addr:state" v="VT"/>
    <tag k="ref:vcgi:esiteid" v="173148"/>
  </node>
  <node id="-347" visible="true" lat="44.70462036" lon="-71.95323181">
    <tag k="addr:housenumber" v="2491"/>
    <tag k="addr:street" v="Newark Street"/>
    <tag k="addr:state" v="VT"/>
    <tag k="ref:vcgi:esiteid" v="173154"/>
  </node>
  <node id="-349" visible="true" lat="44.70430755" lon="-71.99768829">
    <tag k="addr:housenumber" v="3159"/>
    <tag k="addr:street" v="Newark Pond Road"/>
    <tag k="addr:state" v="VT"/>
    <tag k="ref:vcgi:esiteid" v="173156"/>
  </node>
  <node id="-350" visible="true" lat="44.70267496" lon="-71.93994017">
    <tag k="addr:housenumber" v="164"/>
    <tag k="addr:street" v="Apple Hill Road"/>
    <tag k="addr:state" v="VT"/>
    <tag k="ref:vcgi:esiteid" v="173157"/>
  </node>
  <node id="-354" visible="true" lat="44.70276113" lon="-71.92563072">
    <tag k="addr:housenumber" v="299"/>
    <tag k="addr:street" v="Center Pond Road"/>
    <tag k="addr:state" v="VT"/>
    <tag k="ref:vcgi:esiteid" v="173162"/>
  </node>
  <node id="-356" visible="true" lat="44.70183035" lon="-71.92489466">
    <tag k="addr:housenumber" v="296"/>
    <tag k="addr:street" v="Center Pond Road"/>
    <tag k="addr:state" v="VT"/>
    <tag k="ref:vcgi:esiteid" v="173164"/>
  </node>
  <node id="-357" visible="true" lat="44.70193459" lon="-71.92779164">
    <tag k="addr:housenumber" v="162"/>
    <tag k="addr:street" v="Kinney Hill Road"/>
    <tag k="addr:state" v="VT"/>
    <tag k="ref:vcgi:esiteid" v="173165"/>
  </node>
  <node id="-360" visible="true" lat="44.70137782" lon="-71.9300544">
    <tag k="addr:housenumber" v="159"/>
    <tag k="addr:street" v="Kinney Hill Road"/>
    <tag k="addr:state" v="VT"/>
    <tag k="ref:vcgi:esiteid" v="173168"/>
  </node>
  <node id="-361" visible="true" lat="44.70135259" lon="-71.97322962">
    <tag k="addr:housenumber" v="2930"/>
    <tag k="addr:street" v="Schoolhouse Road"/>
    <tag k="addr:state" v="VT"/>
    <tag k="ref:vcgi:esiteid" v="173169"/>
  </node>
  <node id="-362" visible="true" lat="44.70141974" lon="-71.95606617">
    <tag k="addr:housenumber" v="2237"/>
    <tag k="addr:street" v="Newark Street"/>
    <tag k="addr:state" v="VT"/>
    <tag k="ref:vcgi:esiteid" v="173170"/>
  </node>
  <node id="-363" visible="true" lat="44.70077389" lon="-71.95219568">
    <tag k="addr:housenumber" v="2234"/>
    <tag k="addr:street" v="Newark Street"/>
    <tag k="addr:state" v="VT"/>
    <tag k="ref:vcgi:esiteid" v="173171"/>
  </node>
  <node id="-365" visible="true" lat="44.70067463" lon="-71.9279958">
    <tag k="addr:housenumber" v="76"/>
    <tag k="addr:street" v="Kinney Hill Road"/>
    <tag k="addr:state" v="VT"/>
    <tag k="ref:vcgi:esiteid" v="173173"/>
  </node>
  <node id="-367" visible="true" lat="44.70061493" lon="-71.93904876">
    <tag k="addr:housenumber" v="101"/>
    <tag k="addr:street" v="Apple Hill Road"/>
    <tag k="addr:state" v="VT"/>
    <tag k="ref:vcgi:esiteid" v="173175"/>
  </node>
  <node id="-370" visible="true" lat="44.70042419" lon="-71.99687957">
    <tag k="addr:housenumber" v="3432"/>
    <tag k="addr:street" v="Newark Pond Road"/>
    <tag k="addr:state" v="VT"/>
    <tag k="ref:vcgi:esiteid" v="173178"/>
  </node>
  <node id="-374" visible="true" lat="44.69967269" lon="-71.95302581">
    <tag k="addr:housenumber" v="2149"/>
    <tag k="addr:street" v="Newark Street"/>
    <tag k="addr:state" v="VT"/>
    <tag k="ref:vcgi:esiteid" v="173182"/>
  </node>
  <node id="-375" visible="true" lat="44.69942527" lon="-71.93968706">
    <tag k="addr:housenumber" v="552"/>
    <tag k="addr:street" v="Hollow Road"/>
    <tag k="addr:state" v="VT"/>
    <tag k="ref:vcgi:esiteid" v="173183"/>
  </node>
  <node id="-378" visible="true" lat="44.69903945" lon="-71.99615478">
    <tag k="addr:housenumber" v="3535"/>
    <tag k="addr:street" v="Newark Pond Road"/>
    <tag k="addr:state" v="VT"/>
    <tag k="ref:vcgi:esiteid" v="173186"/>
  </node>
  <node id="-379" visible="true" lat="44.69880676" lon="-71.95220947">
    <tag k="addr:housenumber" v="2088"/>
    <tag k="addr:street" v="Newark Street"/>
    <tag k="addr:state" v="VT"/>
    <tag k="ref:vcgi:esiteid" v="173187"/>
  </node>
  <node id="-382" visible="true" lat="44.69798957" lon="-71.92993108">
    <tag k="addr:housenumber" v="3429"/>
    <tag k="addr:street" v="Maple Ridge Road"/>
    <tag k="addr:state" v="VT"/>
    <tag k="ref:vcgi:esiteid" v="173190"/>
  </node>
  <node id="-386" visible="true" lat="44.69699096" lon="-71.94467925">
    <tag k="addr:housenumber" v="896"/>
    <tag k="addr:street" v="Hollow Road"/>
    <tag k="addr:state" v="VT"/>
    <tag k="ref:vcgi:esiteid" v="173194"/>
  </node>
  <node id="-387" visible="true" lat="44.6969898" lon="-71.96192924">
    <tag k="addr:housenumber" v="2164"/>
    <tag k="addr:street" v="Schoolhouse Road"/>
    <tag k="addr:state" v="VT"/>
    <tag k="ref:vcgi:esiteid" v="173195"/>
  </node>
  <node id="-388" visible="true" lat="44.69662795" lon="-71.9281332">
    <tag k="addr:housenumber" v="3297"/>
    <tag k="addr:street" v="Maple Ridge Road"/>
    <tag k="addr:state" v="VT"/>
    <tag k="ref:vcgi:esiteid" v="173197"/>
  </node>
  <node id="-390" visible="true" lat="44.69620132" lon="-71.99697875">
    <tag k="addr:housenumber" v="3748"/>
    <tag k="addr:street" v="Newark Pond Road"/>
    <tag k="addr:state" v="VT"/>
    <tag k="ref:vcgi:esiteid" v="173199"/>
  </node>
  <node id="-391" visible="true" lat="44.69614028" lon="-72.00214385">
    <tag k="addr:housenumber" v="239"/>
    <tag k="addr:street" v="Lake Road"/>
    <tag k="addr:state" v="VT"/>
    <tag k="ref:vcgi:esiteid" v="173200"/>
  </node>
  <node id="-393" visible="true" lat="44.69541549" lon="-71.99710845">
    <tag k="addr:housenumber" v="3756"/>
    <tag k="addr:street" v="Newark Pond Road"/>
    <tag k="addr:state" v="VT"/>
    <tag k="ref:vcgi:esiteid" v="173202"/>
  </node>
  <node id="-394" visible="true" lat="44.69548314" lon="-72.00094875">
    <tag k="addr:housenumber" v="138"/>
    <tag k="addr:street" v="Lake Road"/>
    <tag k="addr:state" v="VT"/>
    <tag k="ref:vcgi:esiteid" v="173203"/>
  </node>
  <node id="-396" visible="true" lat="44.69509949" lon="-72.00055548">
    <tag k="addr:housenumber" v="120"/>
    <tag k="addr:street" v="Lake Road"/>
    <tag k="addr:state" v="VT"/>
    <tag k="ref:vcgi:esiteid" v="173205"/>
  </node>
  <node id="-397" visible="true" lat="44.69476906" lon="-71.9663559">
    <tag k="addr:housenumber" v="2437"/>
    <tag k="addr:street" v="Schoolhouse Road"/>
    <tag k="addr:state" v="VT"/>
    <tag k="ref:vcgi:esiteid" v="173206"/>
  </node>
  <node id="-398" visible="true" lat="44.69464874" lon="-72.00105285">
    <tag k="addr:housenumber" v="95"/>
    <tag k="addr:street" v="Lake Road"/>
    <tag k="addr:state" v="VT"/>
    <tag k="ref:vcgi:esiteid" v="173207"/>
  </node>
  <node id="-399" visible="true" lat="44.69447983" lon="-71.99602256">
    <tag k="addr:housenumber" v="3842"/>
    <tag k="addr:street" v="Newark Pond Road"/>
    <tag k="addr:state" v="VT"/>
    <tag k="ref:vcgi:esiteid" v="173208"/>
  </node>
  <node id="-400" visible="true" lat="44.69456521" lon="-71.95443122">
    <tag k="addr:housenumber" v="1771"/>
    <tag k="addr:street" v="Newark Street"/>
    <tag k="addr:state" v="VT"/>
    <tag k="ref:vcgi:esiteid" v="173209"/>
  </node>
  <node id="-402" visible="true" lat="44.69368213" lon="-71.95119385">
    <tag k="addr:housenumber" v="1748"/>
    <tag k="addr:street" v="Newark Street"/>
    <tag k="addr:state" v="VT"/>
    <tag k="ref:vcgi:esiteid" v="173211"/>
  </node>
  <node id="-403" visible="true" lat="44.69359565" lon="-71.95405718">
    <tag k="addr:housenumber" v="1769"/>
    <tag k="addr:street" v="Newark Street"/>
    <tag k="addr:state" v="VT"/>
    <tag k="ref:vcgi:esiteid" v="173212"/>
  </node>
  <node id="-404" visible="true" lat="44.69291551" lon="-71.96423779">
    <tag k="addr:housenumber" v="2257"/>
    <tag k="addr:street" v="Schoolhouse Road"/>
    <tag k="addr:state" v="VT"/>
    <tag k="ref:vcgi:esiteid" v="173213"/>
  </node>
  <node id="-406" visible="true" lat="44.6930269" lon="-71.99496044">
    <tag k="addr:housenumber" v="3959"/>
    <tag k="addr:street" v="Newark Pond Road"/>
    <tag k="addr:state" v="VT"/>
    <tag k="ref:vcgi:esiteid" v="173215"/>
  </node>
  <node id="-407" visible="true" lat="44.69294046" lon="-71.99927602">
    <tag k="addr:housenumber" v="2"/>
    <tag k="addr:street" v="Lake Road"/>
    <tag k="addr:state" v="VT"/>
    <tag k="ref:vcgi:esiteid" v="173216"/>
  </node>
  <node id="-408" visible="true" lat="44.69241182" lon="-71.92958227">
    <tag k="addr:housenumber" v="245"/>
    <tag k="addr:street" v="Wildridge Farm Road"/>
    <tag k="addr:state" v="VT"/>
    <tag k="ref:vcgi:esiteid" v="173217"/>
  </node>
  <node id="-409" visible="true" lat="44.69263076" lon="-71.99578094">
    <tag k="addr:housenumber" v="3970"/>
    <tag k="addr:street" v="Newark Pond Road"/>
    <tag k="addr:state" v="VT"/>
    <tag k="ref:vcgi:esiteid" v="173218"/>
  </node>
  <node id="-410" visible="true" lat="44.69241714" lon="-71.9502182">
    <tag k="addr:housenumber" v="1642"/>
    <tag k="addr:street" v="Newark Street"/>
    <tag k="addr:state" v="VT"/>
    <tag k="ref:vcgi:esiteid" v="173219"/>
  </node>
  <node id="-411" visible="true" lat="44.69234847" lon="-71.9629364">
    <tag k="addr:housenumber" v="2183"/>
    <tag k="addr:street" v="Schoolhouse Road"/>
    <tag k="addr:state" v="VT"/>
    <tag k="ref:vcgi:esiteid" v="173220"/>
  </node>
  <node id="-412" visible="true" lat="44.69208693" lon="-71.99497227">
    <tag k="addr:housenumber" v="4013"/>
    <tag k="addr:street" v="Newark Pond Road"/>
    <tag k="addr:state" v="VT"/>
    <tag k="ref:vcgi:esiteid" v="173221"/>
  </node>
  <node id="-413" visible="true" lat="44.69191804" lon="-71.95911877">
    <tag k="addr:housenumber" v="2080"/>
    <tag k="addr:street" v="Schoolhouse Road"/>
    <tag k="addr:state" v="VT"/>
    <tag k="ref:vcgi:esiteid" v="173222"/>
  </node>
  <node id="-414" visible="true" lat="44.69204711" lon="-71.99595642">
    <tag k="addr:housenumber" v="4026"/>
    <tag k="addr:street" v="Newark Pond Road"/>
    <tag k="addr:state" v="VT"/>
    <tag k="ref:vcgi:esiteid" v="173223"/>
  </node>
  <node id="-415" visible="true" lat="44.69169616" lon="-71.96250152">
    <tag k="addr:housenumber" v="2157"/>
    <tag k="addr:street" v="Schoolhouse Road"/>
    <tag k="addr:state" v="VT"/>
    <tag k="ref:vcgi:esiteid" v="173224"/>
  </node>
  <node id="-416" visible="true" lat="44.69141745" lon="-71.9614802">
    <tag k="addr:housenumber" v="2097"/>
    <tag k="addr:street" v="Schoolhouse Road"/>
    <tag k="addr:state" v="VT"/>
    <tag k="ref:vcgi:esiteid" v="173226"/>
  </node>
  <node id="-417" visible="true" lat="44.69120025" lon="-71.94933319">
    <tag k="addr:housenumber" v="1558"/>
    <tag k="addr:street" v="Newark Street"/>
    <tag k="addr:state" v="VT"/>
    <tag k="ref:vcgi:esiteid" v="173227"/>
  </node>
  <node id="-418" visible="true" lat="44.69104281" lon="-71.99399821">
    <tag k="addr:housenumber" v="95"/>
    <tag k="addr:street" v="Rocky Road"/>
    <tag k="addr:state" v="VT"/>
    <tag k="ref:vcgi:esiteid" v="173228"/>
  </node>
  <node id="-419" visible="true" lat="44.69077682" lon="-71.95276641">
    <tag k="addr:housenumber" v="1539"/>
    <tag k="addr:street" v="Newark Street"/>
    <tag k="addr:state" v="VT"/>
    <tag k="ref:vcgi:esiteid" v="173229"/>
  </node>
  <node id="-420" visible="true" lat="44.69018894" lon="-71.95072514">
    <tag k="addr:housenumber" v="1448"/>
    <tag k="addr:street" v="Newark Street"/>
    <tag k="addr:state" v="VT"/>
    <tag k="ref:vcgi:esiteid" v="173230"/>
  </node>
  <node id="-422" visible="true" lat="44.70328946" lon="-71.96945861">
    <tag k="addr:housenumber" v="339"/>
    <tag k="addr:street" v="Pinnacle Road"/>
    <tag k="addr:state" v="VT"/>
    <tag k="ref:vcgi:esiteid" v="173233"/>
  </node>
  <node id="-424" visible="true" lat="44.68880081" lon="-71.95191192">
    <tag k="addr:housenumber" v="1397"/>
    <tag k="addr:street" v="Newark Street"/>
    <tag k="addr:state" v="VT"/>
    <tag k="ref:vcgi:esiteid" v="173235"/>
  </node>
  <node id="-426" visible="true" lat="44.68828201" lon="-71.95186615">
    <tag k="addr:housenumber" v="1361"/>
    <tag k="addr:street" v="Newark Street"/>
    <tag k="addr:state" v="VT"/>
    <tag k="ref:vcgi:esiteid" v="173237"/>
  </node>
  <node id="-427" visible="true" lat="44.68822097" lon="-71.95742797">
    <tag k="addr:housenumber" v="1823"/>
    <tag k="addr:street" v="Schoolhouse Road"/>
    <tag k="addr:state" v="VT"/>
    <tag k="ref:vcgi:esiteid" v="173238"/>
  </node>
  <node id="-429" visible="true" lat="44.68792043" lon="-71.95131411">
    <tag k="addr:housenumber" v="1336"/>
    <tag k="addr:street" v="Newark Street"/>
    <tag k="addr:state" v="VT"/>
    <tag k="ref:vcgi:esiteid" v="173240"/>
  </node>
  <node id="-430" visible="true" lat="44.68771162" lon="-71.95187858">
    <tag k="addr:housenumber" v="1325"/>
    <tag k="addr:street" v="Newark Street"/>
    <tag k="addr:state" v="VT"/>
    <tag k="ref:vcgi:esiteid" v="173241"/>
  </node>
  <node id="-431" visible="true" lat="44.68771743" lon="-71.95396423">
    <tag k="addr:housenumber" v="1624"/>
    <tag k="addr:street" v="Schoolhouse Road"/>
    <tag k="addr:state" v="VT"/>
    <tag k="ref:vcgi:esiteid" v="173242"/>
  </node>
  <node id="-432" visible="true" lat="44.68754577" lon="-71.95134735">
    <tag k="addr:housenumber" v="1308"/>
    <tag k="addr:street" v="Newark Street"/>
    <tag k="addr:state" v="VT"/>
    <tag k="ref:vcgi:esiteid" v="173243"/>
  </node>
  <node id="-435" visible="true" lat="44.68690872" lon="-71.95113372">
    <tag k="addr:housenumber" v="1465"/>
    <tag k="addr:street" v="Schoolhouse Road"/>
    <tag k="addr:state" v="VT"/>
    <tag k="ref:vcgi:esiteid" v="173246"/>
  </node>
  <node id="-534" visible="true" lat="44.69330228" lon="-72.00038628">
    <tag k="addr:housenumber" v="3"/>
    <tag k="addr:street" v="Lake Road"/>
    <tag k="addr:state" v="VT"/>
    <tag k="ref:vcgi:esiteid" v="173350"/>
  </node>
  <node id="-535" visible="true" lat="44.69058156" lon="-71.99529648">
    <tag k="addr:housenumber" v="22"/>
    <tag k="addr:street" v="Rocky Road"/>
    <tag k="addr:state" v="VT"/>
    <tag k="ref:vcgi:esiteid" v="173351"/>
  </node>
  <node id="-544" visible="true" lat="44.72060324" lon="-71.96846936">
    <tag k="addr:housenumber" v="58"/>
    <tag k="addr:street" v="Franklin Estates"/>
    <tag k="addr:state" v="VT"/>
    <tag k="ref:vcgi:esiteid" v="173360"/>
  </node>
  <node id="-546" visible="true" lat="44.69378776" lon="-71.96611455">
    <tag k="addr:housenumber" v="2351"/>
    <tag k="addr:street" v="Schoolhouse Road"/>
    <tag k="addr:state" v="VT"/>
    <tag k="ref:vcgi:esiteid" v="173362"/>
  </node>
  <node id="-548" visible="true" lat="44.6934958" lon="-71.99917024">
    <tag k="addr:housenumber" v="4"/>
    <tag k="addr:street" v="Lake Road"/>
    <tag k="addr:state" v="VT"/>
    <tag k="ref:vcgi:esiteid" v="173364"/>
  </node>
  <node id="-549" visible="true" lat="44.71157318" lon="-71.98012701">
    <tag k="addr:housenumber" v="207"/>
    <tag k="addr:street" v="Ponemah Path"/>
    <tag k="addr:state" v="VT"/>
    <tag k="ref:vcgi:esiteid" v="173365"/>
  </node>
  <node id="-559" visible="true" lat="44.69536288" lon="-71.96728875">
    <tag k="addr:housenumber" v="2495"/>
    <tag k="addr:street" v="Schoolhouse Road"/>
    <tag k="addr:state" v="VT"/>
    <tag k="ref:vcgi:esiteid" v="173376"/>
  </node>
  <node id="-565" visible="true" lat="44.72296313" lon="-71.97193003">
    <tag k="addr:housenumber" v="992"/>
    <tag k="addr:street" v="Newark Pond Road"/>
    <tag k="addr:state" v="VT"/>
    <tag k="ref:vcgi:esiteid" v="173382"/>
  </node>
  <node id="-567" visible="true" lat="44.71232242" lon="-71.97914608">
    <tag k="addr:housenumber" v="258"/>
    <tag k="addr:street" v="Ponemah Path"/>
    <tag k="addr:state" v="VT"/>
    <tag k="ref:vcgi:esiteid" v="173384"/>
  </node>
  <node id="-568" visible="true" lat="44.71337908" lon="-71.9793302">
    <tag k="addr:housenumber" v="309"/>
    <tag k="addr:street" v="Ponemah Path"/>
    <tag k="addr:state" v="VT"/>
    <tag k="ref:vcgi:esiteid" v="173385"/>
  </node>
  <node id="-578" visible="true" lat="44.70017699" lon="-71.92608889">
    <tag k="addr:housenumber" v="182"/>
    <tag k="addr:street" v="Center Pond Road"/>
    <tag k="addr:state" v="VT"/>
    <tag k="ref:vcgi:esiteid" v="173395"/>
  </node>
  <node id="-579" visible="true" lat="44.7221682" lon="-71.97211389">
    <tag k="addr:housenumber" v="975"/>
    <tag k="addr:street" v="Newark Pond Road"/>
    <tag k="addr:state" v="VT"/>
    <tag k="ref:vcgi:esiteid" v="173396"/>
  </node>
  <node id="-580" visible="true" lat="44.72329768" lon="-71.97738245">
    <tag k="addr:housenumber" v="1288"/>
    <tag k="addr:street" v="Newark Pond Road"/>
    <tag k="addr:state" v="VT"/>
    <tag k="ref:vcgi:esiteid" v="173397"/>
  </node>
  <node id="-581" visible="true" lat="44.70241396" lon="-71.92851314">
    <tag k="addr:housenumber" v="165"/>
    <tag k="addr:street" v="Kinney Hill Road"/>
    <tag k="addr:state" v="VT"/>
    <tag k="ref:vcgi:esiteid" v="173398"/>
  </node>
  <node id="-602" visible="true" lat="44.70117999" lon="-71.9343295">
    <tag k="addr:housenumber" v="156"/>
    <tag k="addr:street" v="Hollow Road"/>
    <tag k="addr:state" v="VT"/>
    <tag k="ref:vcgi:esiteid" v="173421"/>
  </node>
  <node id="-603" visible="true" lat="44.69369472" lon="-71.99553948">
    <tag k="addr:housenumber" v="3924"/>
    <tag k="addr:street" v="Newark Pond Road"/>
    <tag k="addr:state" v="VT"/>
    <tag k="ref:vcgi:esiteid" v="173423"/>
  </node>
  <node id="-604" visible="true" lat="44.68732881" lon="-71.95195224">
    <tag k="addr:housenumber" v="1510"/>
    <tag k="addr:street" v="Schoolhouse Road"/>
    <tag k="addr:state" v="VT"/>
    <tag k="ref:vcgi:esiteid" v="173424"/>
  </node>
  <node id="-610" visible="true" lat="44.72013289" lon="-71.96384163">
    <tag k="addr:housenumber" v="532"/>
    <tag k="addr:street" v="Newark Pond Road"/>
    <tag k="addr:state" v="VT"/>
    <tag k="ref:vcgi:esiteid" v="173430"/>
  </node>
  <node id="-611" visible="true" lat="44.7186501" lon="-71.97828422">
    <tag k="addr:housenumber" v="703"/>
    <tag k="addr:street" v="Ponemah Path"/>
    <tag k="addr:state" v="VT"/>
    <tag k="ref:vcgi:esiteid" v="173431"/>
  </node>
  <node id="-613" visible="true" lat="44.71008906" lon="-71.98139169">
    <tag k="addr:housenumber" v="66"/>
    <tag k="addr:street" v="Ponemah Path"/>
    <tag k="addr:state" v="VT"/>
    <tag k="ref:vcgi:esiteid" v="173433"/>
  </node>
  <node id="-614" visible="true" lat="44.72272556" lon="-71.97496547">
    <tag k="addr:housenumber" v="1077"/>
    <tag k="addr:street" v="Newark Pond Road"/>
    <tag k="addr:state" v="VT"/>
    <tag k="ref:vcgi:esiteid" v="173434"/>
  </node>
  <node id="-627" visible="true" lat="44.71979914" lon="-71.97060056">
    <tag k="addr:housenumber" v="189"/>
    <tag k="addr:street" v="Franklin Estates"/>
    <tag k="addr:state" v="VT"/>
    <tag k="ref:vcgi:esiteid" v="326515"/>
  </node>
  <node id="-628" visible="true" lat="44.72023069" lon="-71.9677341">
    <tag k="addr:housenumber" v="136"/>
    <tag k="addr:street" v="Makenzie Way"/>
    <tag k="addr:state" v="VT"/>
    <tag k="ref:vcgi:esiteid" v="326516"/>
  </node>
  <node id="-637" visible="true" lat="44.69105294" lon="-71.97537711">
    <tag k="addr:housenumber" v="779"/>
    <tag k="addr:street" v="Baird Road"/>
    <tag k="addr:state" v="VT"/>
    <tag k="ref:vcgi:esiteid" v="451064"/>
  </node>
  <node id="-641" visible="true" lat="44.70111583" lon="-71.92449259">
    <tag k="addr:housenumber" v="250"/>
    <tag k="addr:street" v="Center Pond Road"/>
    <tag k="addr:state" v="VT"/>
    <tag k="ref:vcgi:esiteid" v="451068"/>
  </node>
  <node id="-653" visible="true" lat="44.70036045" lon="-71.93484996">
    <tag k="addr:housenumber" v="332"/>
    <tag k="addr:street" v="Hollow Road"/>
    <tag k="addr:state" v="VT"/>
    <tag k="ref:vcgi:esiteid" v="451084"/>
  </node>
  <node id="-654" visible="true" lat="44.69905376" lon="-71.93772883">
    <tag k="addr:housenumber" v="491"/>
    <tag k="addr:street" v="Hollow Road"/>
    <tag k="addr:state" v="VT"/>
    <tag k="ref:vcgi:esiteid" v="451085"/>
  </node>
  <node id="-664" visible="true" lat="44.69267852" lon="-71.95273289">
    <tag k="addr:housenumber" v="1673"/>
    <tag k="addr:street" v="Newark Street"/>
    <tag k="addr:state" v="VT"/>
    <tag k="ref:vcgi:esiteid" v="451098"/>
  </node>
  <node id="-666" visible="true" lat="44.70217106" lon="-71.96902479">
    <tag k="addr:housenumber" v="421"/>
    <tag k="addr:street" v="Pinnacle Road"/>
    <tag k="addr:state" v="VT"/>
    <tag k="ref:vcgi:esiteid" v="451100"/>
  </node>
  <node id="-667" visible="true" lat="44.70111282" lon="-71.96726174">
    <tag k="addr:housenumber" v="565"/>
    <tag k="addr:street" v="Pinnacle Road"/>
    <tag k="addr:state" v="VT"/>
    <tag k="ref:vcgi:esiteid" v="451101"/>
  </node>
  <node id="-668" visible="true" lat="44.7000967" lon="-71.96656932">
    <tag k="addr:housenumber" v="639"/>
    <tag k="addr:street" v="Pinnacle Road"/>
    <tag k="addr:state" v="VT"/>
    <tag k="ref:vcgi:esiteid" v="451102"/>
  </node>
  <node id="-669" visible="true" lat="44.69956311" lon="-71.96661829">
    <tag k="addr:housenumber" v="703"/>
    <tag k="addr:street" v="Pinnacle Road"/>
    <tag k="addr:state" v="VT"/>
    <tag k="ref:vcgi:esiteid" v="451103"/>
  </node>
  <node id="-670" visible="true" lat="44.69862499" lon="-71.96723147">
    <tag k="addr:housenumber" v="690"/>
    <tag k="addr:street" v="Pinnacle Road"/>
    <tag k="addr:state" v="VT"/>
    <tag k="ref:vcgi:esiteid" v="451104"/>
  </node>
  <node id="-683" visible="true" lat="44.71104571" lon="-71.92402937">
    <tag k="addr:housenumber" v="925"/>
    <tag k="addr:street" v="Center Pond Road"/>
    <tag k="addr:state" v="VT"/>
    <tag k="ref:vcgi:esiteid" v="453744"/>
  </node>
  <node id="-739" visible="true" lat="44.7200116" lon="-71.9698473">
    <tag k="addr:housenumber" v="165"/>
    <tag k="addr:street" v="Franklin Estates"/>
    <tag k="addr:state" v="VT"/>
    <tag k="ref:vcgi:esiteid" v="757720"/>
  </node>
  <node id="-785" visible="true" lat="44.71864346" lon="-71.93158677">
    <tag k="addr:housenumber" v="1412"/>
    <tag k="addr:street" v="Kinney Hill Road"/>
    <tag k="addr:state" v="VT"/>
    <tag k="ref:vcgi:esiteid" v="900041"/>
  </node>
</osm>
