<?xml version="1.0" encoding="UTF-8"?>
<osm version="0.6" generator="JOSM" upload="false">
  <node id="-988" visible="true" lat="44.07115903" lon="-72.09756263">
    <!-- offset: "1744 Moore Hill Road, , VT" Significant offset - 562.7m -->
    <tag k="addr:housenumber" v="1744"/>
    <tag k="addr:street" v="Moore Hill Road"/>
    <tag k="addr:state" v="VT"/>
    <tag k="ref:vcgi:esiteid" v="174379"/>
  </node>
  <node id="-1212" visible="true" lat="44.13524246" lon="-72.15412139">
    <!-- offset: "822 Corey Hill Road, , VT" Significant offset - 182.6m -->
    <tag k="addr:housenumber" v="822"/>
    <tag k="addr:street" v="Corey Hill Road"/>
    <tag k="addr:state" v="VT"/>
    <tag k="ref:vcgi:esiteid" v="174608"/>
  </node>
  <node id="-1285" visible="true" lat="44.14486655" lon="-72.06436148">
    <!-- offset: "1023 Royston Ridge, , VT" Significant offset - 211.1m -->
    <tag k="addr:housenumber" v="1023"/>
    <tag k="addr:street" v="Royston Ridge"/>
    <tag k="addr:state" v="VT"/>
    <tag k="ref:vcgi:esiteid" v="174681"/>
  </node>
  <node id="-1470" visible="true" lat="44.14210623" lon="-72.10466905">
    <!-- offset: "3255 Leighton Hill Road, , VT" Significant offset - 162.4m -->
    <tag k="addr:housenumber" v="3255"/>
    <tag k="addr:street" v="Leighton Hill Road"/>
    <tag k="addr:state" v="VT"/>
    <tag k="ref:vcgi:esiteid" v="345864"/>
  </node>
</osm>
