<?xml version="1.0" encoding="UTF-8"?>
<osm version="0.6" generator="JOSM">
  <node id="-102" visible="true" lat="44.0510698" lon="-72.15451806">
    <tag k="addr:city" v="Newbury"/>
    <tag k="addr:housenumber" v="3040"/>
    <tag k="addr:street" v="Wrights Mountain Road"/>
    <tag k="addr:state" v="VT"/>
    <tag k="ref:vcgi:esiteid" v="25944"/>
  </node>
  <node id="-157" visible="true" lat="44.16200104" lon="-72.09672228">
    <tag k="addr:city" v="Newbury"/>
    <tag k="addr:housenumber" v="251"/>
    <tag k="addr:street" v="Leete Hill Road"/>
    <tag k="addr:state" v="VT"/>
    <tag k="ref:vcgi:esiteid" v="173488"/>
  </node>
  <node id="-164" visible="true" lat="44.16092045" lon="-72.08605217">
    <tag k="addr:city" v="Newbury"/>
    <tag k="addr:housenumber" v="396"/>
    <tag k="addr:street" v="Industrial Park Road"/>
    <tag k="addr:state" v="VT"/>
    <tag k="ref:vcgi:esiteid" v="173495"/>
  </node>
  <node id="-167" visible="true" lat="44.16046524" lon="-72.08379364">
    <tag k="addr:city" v="Newbury"/>
    <tag k="addr:housenumber" v="400"/>
    <tag k="addr:street" v="Industrial Park Road"/>
    <tag k="addr:state" v="VT"/>
    <tag k="ref:vcgi:esiteid" v="173498"/>
  </node>
  <node id="-172" visible="true" lat="44.15966033" lon="-72.08647918">
    <tag k="addr:city" v="Newbury"/>
    <tag k="addr:housenumber" v="293"/>
    <tag k="addr:street" v="Industrial Park Road"/>
    <tag k="addr:state" v="VT"/>
    <tag k="ref:vcgi:esiteid" v="173503"/>
  </node>
  <node id="-187" visible="true" lat="44.15860366" lon="-72.08558654">
    <tag k="addr:city" v="Newbury"/>
    <tag k="addr:housenumber" v="224"/>
    <tag k="addr:street" v="Industrial Park Road"/>
    <tag k="addr:state" v="VT"/>
    <tag k="ref:vcgi:esiteid" v="173518"/>
  </node>
  <node id="-198" visible="true" lat="44.15741105" lon="-72.09222466">
    <tag k="addr:city" v="Newbury"/>
    <tag k="addr:housenumber" v="340"/>
    <tag k="addr:street" v="Welch Road"/>
    <tag k="addr:state" v="VT"/>
    <tag k="ref:vcgi:esiteid" v="173529"/>
  </node>
  <node id="-201" visible="true" lat="44.15693306" lon="-72.0549263">
    <tag k="addr:city" v="Newbury"/>
    <tag k="addr:housenumber" v="568"/>
    <tag k="addr:street" v="Bible Hill Road"/>
    <tag k="addr:state" v="VT"/>
    <tag k="ref:vcgi:esiteid" v="173533"/>
  </node>
  <node id="-202" visible="true" lat="44.1569731" lon="-72.08824447">
    <tag k="addr:city" v="Newbury"/>
    <tag k="addr:housenumber" v="2535"/>
    <tag k="addr:street" v="U.S. Route 302"/>
    <tag k="addr:state" v="VT"/>
    <tag k="ref:vcgi:esiteid" v="173535"/>
  </node>
  <node id="-204" visible="true" lat="44.15694373" lon="-72.08704129">
    <tag k="addr:city" v="Newbury"/>
    <tag k="addr:housenumber" v="2536"/>
    <tag k="addr:street" v="U.S. Route 302"/>
    <tag k="addr:state" v="VT"/>
    <tag k="ref:vcgi:esiteid" v="173537"/>
  </node>
  <node id="-206" visible="true" lat="44.15675625" lon="-72.09326924">
    <tag k="addr:city" v="Newbury"/>
    <tag k="addr:housenumber" v="412"/>
    <tag k="addr:street" v="Welch Road"/>
    <tag k="addr:state" v="VT"/>
    <tag k="ref:vcgi:esiteid" v="173539"/>
  </node>
  <node id="-208" visible="true" lat="44.15651278" lon="-72.04681801">
    <tag k="addr:city" v="Newbury"/>
    <tag k="addr:housenumber" v="84"/>
    <tag k="addr:street" v="Bible Hill Road"/>
    <tag k="addr:state" v="VT"/>
    <tag k="ref:vcgi:esiteid" v="173541"/>
  </node>
  <node id="-211" visible="true" lat="44.15636224" lon="-72.04574242">
    <tag k="addr:city" v="Newbury"/>
    <tag k="addr:housenumber" v="14"/>
    <tag k="addr:street" v="Bible Hill Road"/>
    <tag k="addr:state" v="VT"/>
    <tag k="ref:vcgi:esiteid" v="173544"/>
  </node>
  <node id="-212" visible="true" lat="44.15658053" lon="-72.0876106">
    <tag k="addr:city" v="Newbury"/>
    <tag k="addr:housenumber" v="2494"/>
    <tag k="addr:street" v="U.S. Route 302"/>
    <tag k="addr:state" v="VT"/>
    <tag k="ref:vcgi:esiteid" v="173545"/>
  </node>
  <node id="-217" visible="true" lat="44.1560173" lon="-72.08525085">
    <tag k="addr:city" v="Newbury"/>
    <tag k="addr:housenumber" v="70"/>
    <tag k="addr:street" v="Industrial Park Road"/>
    <tag k="addr:state" v="VT"/>
    <tag k="ref:vcgi:esiteid" v="173552"/>
  </node>
  <node id="-219" visible="true" lat="44.15578585" lon="-72.04577811">
    <tag k="addr:city" v="Newbury"/>
    <tag k="addr:housenumber" v="3"/>
    <tag k="addr:street" v="Water Street"/>
    <tag k="addr:state" v="VT"/>
    <tag k="ref:vcgi:esiteid" v="173554"/>
  </node>
  <node id="-221" visible="true" lat="44.15586244" lon="-72.04656986">
    <tag k="addr:city" v="Newbury"/>
    <tag k="addr:housenumber" v="7"/>
    <tag k="addr:street" v="Water Street"/>
    <tag k="addr:state" v="VT"/>
    <tag k="ref:vcgi:esiteid" v="173556"/>
  </node>
  <node id="-227" visible="true" lat="44.15548367" lon="-72.0466886">
    <tag k="addr:city" v="Newbury"/>
    <tag k="addr:housenumber" v="9"/>
    <tag k="addr:street" v="Water Street"/>
    <tag k="addr:state" v="VT"/>
    <tag k="ref:vcgi:esiteid" v="173563"/>
  </node>
  <node id="-228" visible="true" lat="44.15615001" lon="-72.04885338">
    <tag k="addr:city" v="Newbury"/>
    <tag k="addr:housenumber" v="308"/>
    <tag k="addr:street" v="Bible Hill Road"/>
    <tag k="addr:state" v="VT"/>
    <tag k="ref:vcgi:esiteid" v="173564"/>
  </node>
  <node id="-229" visible="true" lat="44.15523452" lon="-72.04777091">
    <tag k="addr:city" v="Newbury"/>
    <tag k="addr:housenumber" v="17"/>
    <tag k="addr:street" v="Water Street"/>
    <tag k="addr:state" v="VT"/>
    <tag k="ref:vcgi:esiteid" v="173566"/>
  </node>
  <node id="-232" visible="true" lat="44.1551244" lon="-72.04938479">
    <tag k="addr:city" v="Newbury"/>
    <tag k="addr:housenumber" v="212"/>
    <tag k="addr:street" v="Bible Hill Road"/>
    <tag k="addr:state" v="VT"/>
    <tag k="ref:vcgi:esiteid" v="173569"/>
  </node>
  <node id="-233" visible="true" lat="44.15502237" lon="-72.04591062">
    <tag k="addr:city" v="Newbury"/>
    <tag k="addr:housenumber" v="8"/>
    <tag k="addr:street" v="Maple Street"/>
    <tag k="addr:state" v="VT"/>
    <tag k="ref:vcgi:esiteid" v="173570"/>
  </node>
  <node id="-234" visible="true" lat="44.15504627" lon="-72.04553784">
    <tag k="addr:city" v="Newbury"/>
    <tag k="addr:housenumber" v="12"/>
    <tag k="addr:street" v="Maple Street"/>
    <tag k="addr:state" v="VT"/>
    <tag k="ref:vcgi:esiteid" v="173571"/>
  </node>
  <node id="-235" visible="true" lat="44.15508261" lon="-72.04814701">
    <tag k="addr:city" v="Newbury"/>
    <tag k="addr:housenumber" v="19"/>
    <tag k="addr:street" v="Water Street"/>
    <tag k="addr:state" v="VT"/>
    <tag k="ref:vcgi:esiteid" v="173572"/>
  </node>
  <node id="-236" visible="true" lat="44.15499157" lon="-72.04784296">
    <tag k="addr:city" v="Newbury"/>
    <tag k="addr:housenumber" v="18"/>
    <tag k="addr:street" v="Water Street"/>
    <tag k="addr:state" v="VT"/>
    <tag k="ref:vcgi:esiteid" v="173573"/>
  </node>
  <node id="-237" visible="true" lat="44.15491485" lon="-72.04672241">
    <tag k="addr:city" v="Newbury"/>
    <tag k="addr:housenumber" v="2"/>
    <tag k="addr:street" v="Maple Street"/>
    <tag k="addr:state" v="VT"/>
    <tag k="ref:vcgi:esiteid" v="173574"/>
  </node>
  <node id="-239" visible="true" lat="44.15481384" lon="-72.04535056">
    <tag k="addr:city" v="Newbury"/>
    <tag k="addr:housenumber" v="11"/>
    <tag k="addr:street" v="Maple Street"/>
    <tag k="addr:state" v="VT"/>
    <tag k="ref:vcgi:esiteid" v="173577"/>
  </node>
  <node id="-240" visible="true" lat="44.15479017" lon="-72.0456941">
    <tag k="addr:city" v="Newbury"/>
    <tag k="addr:housenumber" v="9"/>
    <tag k="addr:street" v="Maple Street"/>
    <tag k="addr:state" v="VT"/>
    <tag k="ref:vcgi:esiteid" v="173578"/>
  </node>
  <node id="-241" visible="true" lat="44.15475733" lon="-72.04741847">
    <tag k="addr:city" v="Newbury"/>
    <tag k="addr:housenumber" v="3"/>
    <tag k="addr:street" v="Main Street North"/>
    <tag k="addr:state" v="VT"/>
    <tag k="ref:vcgi:esiteid" v="173579"/>
  </node>
  <node id="-242" visible="true" lat="44.15472412" lon="-72.04893493">
    <tag k="addr:city" v="Newbury"/>
    <tag k="addr:housenumber" v="25"/>
    <tag k="addr:street" v="Water Street"/>
    <tag k="addr:state" v="VT"/>
    <tag k="ref:vcgi:esiteid" v="173580"/>
  </node>
  <node id="-244" visible="true" lat="44.15471287" lon="-72.04625203">
    <tag k="addr:city" v="Newbury"/>
    <tag k="addr:housenumber" v="5"/>
    <tag k="addr:street" v="Maple Street"/>
    <tag k="addr:state" v="VT"/>
    <tag k="ref:vcgi:esiteid" v="173582"/>
  </node>
  <node id="-245" visible="true" lat="44.15456094" lon="-72.04737763">
    <tag k="addr:city" v="Newbury"/>
    <tag k="addr:housenumber" v="7"/>
    <tag k="addr:street" v="Main Street North"/>
    <tag k="addr:state" v="VT"/>
    <tag k="ref:vcgi:esiteid" v="173584"/>
  </node>
  <node id="-246" visible="true" lat="44.15460027" lon="-72.04930778">
    <tag k="addr:city" v="Newbury"/>
    <tag k="addr:housenumber" v="27"/>
    <tag k="addr:street" v="Water Street"/>
    <tag k="addr:state" v="VT"/>
    <tag k="ref:vcgi:esiteid" v="173585"/>
  </node>
  <node id="-247" visible="true" lat="44.15454864" lon="-72.05280303">
    <tag k="addr:city" v="Newbury"/>
    <tag k="addr:housenumber" v="409"/>
    <tag k="addr:street" v="Bible Hill Road"/>
    <tag k="addr:state" v="VT"/>
    <tag k="ref:vcgi:esiteid" v="173586"/>
  </node>
  <node id="-248" visible="true" lat="44.15443273" lon="-72.04961189">
    <tag k="addr:city" v="Newbury"/>
    <tag k="addr:housenumber" v="29"/>
    <tag k="addr:street" v="Water Street"/>
    <tag k="addr:state" v="VT"/>
    <tag k="ref:vcgi:esiteid" v="173587"/>
  </node>
  <node id="-250" visible="true" lat="44.15441306" lon="-72.04678454">
    <tag k="addr:city" v="Newbury"/>
    <tag k="addr:housenumber" v="10"/>
    <tag k="addr:street" v="Main Street North"/>
    <tag k="addr:state" v="VT"/>
    <tag k="ref:vcgi:esiteid" v="173589"/>
  </node>
  <node id="-252" visible="true" lat="44.15434224" lon="-72.04740163">
    <tag k="addr:city" v="Newbury"/>
    <tag k="addr:housenumber" v="15"/>
    <tag k="addr:street" v="Main Street North"/>
    <tag k="addr:state" v="VT"/>
    <tag k="ref:vcgi:esiteid" v="173591"/>
  </node>
  <node id="-254" visible="true" lat="44.15421005" lon="-72.05040101">
    <tag k="addr:city" v="Newbury"/>
    <tag k="addr:housenumber" v="35"/>
    <tag k="addr:street" v="Water Street"/>
    <tag k="addr:state" v="VT"/>
    <tag k="ref:vcgi:esiteid" v="173593"/>
  </node>
  <node id="-255" visible="true" lat="44.15415705" lon="-72.04671271">
    <tag k="addr:city" v="Newbury"/>
    <tag k="addr:housenumber" v="14"/>
    <tag k="addr:street" v="Main Street North"/>
    <tag k="addr:state" v="VT"/>
    <tag k="ref:vcgi:esiteid" v="173594"/>
  </node>
  <node id="-256" visible="true" lat="44.15411082" lon="-72.05064037">
    <tag k="addr:city" v="Newbury"/>
    <tag k="addr:housenumber" v="37"/>
    <tag k="addr:street" v="Water Street"/>
    <tag k="addr:state" v="VT"/>
    <tag k="ref:vcgi:esiteid" v="173596"/>
  </node>
  <node id="-257" visible="true" lat="44.15403258" lon="-72.0487316">
    <tag k="addr:city" v="Newbury"/>
    <tag k="addr:housenumber" v="11"/>
    <tag k="addr:street" v="Mill Street"/>
    <tag k="addr:state" v="VT"/>
    <tag k="ref:vcgi:esiteid" v="173598"/>
  </node>
  <node id="-258" visible="true" lat="44.15401301" lon="-72.05097728">
    <tag k="addr:city" v="Newbury"/>
    <tag k="addr:housenumber" v="39"/>
    <tag k="addr:street" v="Water Street"/>
    <tag k="addr:state" v="VT"/>
    <tag k="ref:vcgi:esiteid" v="173599"/>
  </node>
  <node id="-259" visible="true" lat="44.15400065" lon="-72.04670508">
    <tag k="addr:city" v="Newbury"/>
    <tag k="addr:housenumber" v="18"/>
    <tag k="addr:street" v="Main Street North"/>
    <tag k="addr:state" v="VT"/>
    <tag k="ref:vcgi:esiteid" v="173600"/>
  </node>
  <node id="-260" visible="true" lat="44.15406582" lon="-72.09137666">
    <tag k="addr:city" v="Newbury"/>
    <tag k="addr:housenumber" v="4447"/>
    <tag k="addr:street" v="Leighton Hill Road"/>
    <tag k="addr:state" v="VT"/>
    <tag k="ref:vcgi:esiteid" v="173601"/>
  </node>
  <node id="-261" visible="true" lat="44.15398203" lon="-72.04739909">
    <tag k="addr:city" v="Newbury"/>
    <tag k="addr:housenumber" v="16"/>
    <tag k="addr:street" v="David Drive"/>
    <tag k="addr:state" v="VT"/>
    <tag k="ref:vcgi:esiteid" v="173602"/>
  </node>
  <node id="-262" visible="true" lat="44.15384329" lon="-72.05096797">
    <tag k="addr:city" v="Newbury"/>
    <tag k="addr:housenumber" v="41"/>
    <tag k="addr:street" v="Water Street"/>
    <tag k="addr:state" v="VT"/>
    <tag k="ref:vcgi:esiteid" v="173603"/>
  </node>
  <node id="-263" visible="true" lat="44.15380211" lon="-72.04665336">
    <tag k="addr:city" v="Newbury"/>
    <tag k="addr:housenumber" v="22"/>
    <tag k="addr:street" v="Main Street North"/>
    <tag k="addr:state" v="VT"/>
    <tag k="ref:vcgi:esiteid" v="173604"/>
  </node>
  <node id="-266" visible="true" lat="44.15366147" lon="-72.04806455">
    <tag k="addr:city" v="Newbury"/>
    <tag k="addr:housenumber" v="12"/>
    <tag k="addr:street" v="Mill Street"/>
    <tag k="addr:state" v="VT"/>
    <tag k="ref:vcgi:esiteid" v="173607"/>
  </node>
  <node id="-267" visible="true" lat="44.15362373" lon="-72.04720752">
    <tag k="addr:city" v="Newbury"/>
    <tag k="addr:housenumber" v="31"/>
    <tag k="addr:street" v="Main Street North"/>
    <tag k="addr:state" v="VT"/>
    <tag k="ref:vcgi:esiteid" v="173608"/>
  </node>
  <node id="-268" visible="true" lat="44.15366415" lon="-72.05127223">
    <tag k="addr:city" v="Newbury"/>
    <tag k="addr:housenumber" v="45"/>
    <tag k="addr:street" v="Water Street"/>
    <tag k="addr:state" v="VT"/>
    <tag k="ref:vcgi:esiteid" v="173609"/>
  </node>
  <node id="-272" visible="true" lat="44.15355452" lon="-72.04658025">
    <tag k="addr:city" v="Newbury"/>
    <tag k="addr:housenumber" v="28"/>
    <tag k="addr:street" v="Main Street North"/>
    <tag k="addr:state" v="VT"/>
    <tag k="ref:vcgi:esiteid" v="173613"/>
  </node>
  <node id="-273" visible="true" lat="44.15352303" lon="-72.05162098">
    <tag k="addr:city" v="Newbury"/>
    <tag k="addr:housenumber" v="49"/>
    <tag k="addr:street" v="Water Street"/>
    <tag k="addr:state" v="VT"/>
    <tag k="ref:vcgi:esiteid" v="173614"/>
  </node>
  <node id="-274" visible="true" lat="44.15357589" lon="-72.08634948">
    <tag k="addr:city" v="Newbury"/>
    <tag k="addr:housenumber" v="2284"/>
    <tag k="addr:street" v="U.S. Route 302"/>
    <tag k="addr:state" v="VT"/>
    <tag k="ref:vcgi:esiteid" v="173616"/>
  </node>
  <node id="-276" visible="true" lat="44.15339059" lon="-72.04649163">
    <tag k="addr:city" v="Newbury"/>
    <tag k="addr:housenumber" v="34"/>
    <tag k="addr:street" v="Main Street North"/>
    <tag k="addr:state" v="VT"/>
    <tag k="ref:vcgi:esiteid" v="173618"/>
  </node>
  <node id="-278" visible="true" lat="44.15336069" lon="-72.04945456">
    <tag k="addr:city" v="Newbury"/>
    <tag k="addr:housenumber" v="32"/>
    <tag k="addr:street" v="Mill Street"/>
    <tag k="addr:state" v="VT"/>
    <tag k="ref:vcgi:esiteid" v="173620"/>
  </node>
  <node id="-280" visible="true" lat="44.15319497" lon="-72.04695866">
    <tag k="addr:city" v="Newbury"/>
    <tag k="addr:housenumber" v="37"/>
    <tag k="addr:street" v="Main Street North"/>
    <tag k="addr:state" v="VT"/>
    <tag k="ref:vcgi:esiteid" v="173623"/>
  </node>
  <node id="-281" visible="true" lat="44.15312107" lon="-72.08956344">
    <tag k="addr:city" v="Newbury"/>
    <tag k="addr:housenumber" v="4483"/>
    <tag k="addr:street" v="Leighton Hill Road"/>
    <tag k="addr:state" v="VT"/>
    <tag k="ref:vcgi:esiteid" v="173624"/>
  </node>
  <node id="-282" visible="true" lat="44.15319061" lon="-72.08841705">
    <tag k="addr:city" v="Newbury"/>
    <tag k="addr:housenumber" v="4534"/>
    <tag k="addr:street" v="Leighton Hill Road"/>
    <tag k="addr:state" v="VT"/>
    <tag k="ref:vcgi:esiteid" v="173626"/>
  </node>
  <node id="-283" visible="true" lat="44.15311724" lon="-72.04636125">
    <tag k="addr:city" v="Newbury"/>
    <tag k="addr:housenumber" v="40"/>
    <tag k="addr:street" v="Main Street North"/>
    <tag k="addr:state" v="VT"/>
    <tag k="ref:vcgi:esiteid" v="173627"/>
  </node>
  <node id="-284" visible="true" lat="44.15299107" lon="-72.04676202">
    <tag k="addr:city" v="Newbury"/>
    <tag k="addr:housenumber" v="41"/>
    <tag k="addr:street" v="Main Street North"/>
    <tag k="addr:state" v="VT"/>
    <tag k="ref:vcgi:esiteid" v="173628"/>
  </node>
  <node id="-288" visible="true" lat="44.15299174" lon="-72.04748743">
    <tag k="addr:city" v="Newbury"/>
    <tag k="addr:housenumber" v="9"/>
    <tag k="addr:street" v="Creamery Street"/>
    <tag k="addr:state" v="VT"/>
    <tag k="ref:vcgi:esiteid" v="173633"/>
  </node>
  <node id="-290" visible="true" lat="44.15286793" lon="-72.04800373">
    <tag k="addr:city" v="Newbury"/>
    <tag k="addr:housenumber" v="15"/>
    <tag k="addr:street" v="Creamery Street"/>
    <tag k="addr:state" v="VT"/>
    <tag k="ref:vcgi:esiteid" v="173635"/>
  </node>
  <node id="-292" visible="true" lat="44.1528836" lon="-72.04771661">
    <tag k="addr:city" v="Newbury"/>
    <tag k="addr:housenumber" v="13"/>
    <tag k="addr:street" v="Creamery Street"/>
    <tag k="addr:state" v="VT"/>
    <tag k="ref:vcgi:esiteid" v="173637"/>
  </node>
  <node id="-295" visible="true" lat="44.15275945" lon="-72.04732189">
    <tag k="addr:city" v="Newbury"/>
    <tag k="addr:housenumber" v="8"/>
    <tag k="addr:street" v="Creamery Street"/>
    <tag k="addr:state" v="VT"/>
    <tag k="ref:vcgi:esiteid" v="173640"/>
  </node>
  <node id="-297" visible="true" lat="44.15276817" lon="-72.04663908">
    <tag k="addr:city" v="Newbury"/>
    <tag k="addr:housenumber" v="47"/>
    <tag k="addr:street" v="Main Street North"/>
    <tag k="addr:state" v="VT"/>
    <tag k="ref:vcgi:esiteid" v="173642"/>
  </node>
  <node id="-300" visible="true" lat="44.1525686" lon="-72.04833764">
    <tag k="addr:city" v="Newbury"/>
    <tag k="addr:housenumber" v="1"/>
    <tag k="addr:street" v="Grove Street"/>
    <tag k="addr:state" v="VT"/>
    <tag k="ref:vcgi:esiteid" v="173646"/>
  </node>
  <node id="-302" visible="true" lat="44.15250009" lon="-72.0464214">
    <tag k="addr:city" v="Newbury"/>
    <tag k="addr:housenumber" v="51"/>
    <tag k="addr:street" v="Main Street North"/>
    <tag k="addr:state" v="VT"/>
    <tag k="ref:vcgi:esiteid" v="173648"/>
  </node>
  <node id="-304" visible="true" lat="44.15229395" lon="-72.04700426">
    <tag k="addr:city" v="Newbury"/>
    <tag k="addr:housenumber" v="11"/>
    <tag k="addr:street" v="Center Street"/>
    <tag k="addr:state" v="VT"/>
    <tag k="ref:vcgi:esiteid" v="173650"/>
  </node>
  <node id="-305" visible="true" lat="44.15228582" lon="-72.04827202">
    <tag k="addr:city" v="Newbury"/>
    <tag k="addr:housenumber" v="5"/>
    <tag k="addr:street" v="Grove Street"/>
    <tag k="addr:state" v="VT"/>
    <tag k="ref:vcgi:esiteid" v="173651"/>
  </node>
  <node id="-306" visible="true" lat="44.15216004" lon="-72.04633486">
    <tag k="addr:city" v="Newbury"/>
    <tag k="addr:housenumber" v="55"/>
    <tag k="addr:street" v="Main Street North"/>
    <tag k="addr:state" v="VT"/>
    <tag k="ref:vcgi:esiteid" v="173652"/>
  </node>
  <node id="-309" visible="true" lat="44.15201471" lon="-72.04801442">
    <tag k="addr:city" v="Newbury"/>
    <tag k="addr:housenumber" v="11"/>
    <tag k="addr:street" v="Grove Street"/>
    <tag k="addr:state" v="VT"/>
    <tag k="ref:vcgi:esiteid" v="173655"/>
  </node>
  <node id="-310" visible="true" lat="44.15194354" lon="-72.04668722">
    <tag k="addr:city" v="Newbury"/>
    <tag k="addr:housenumber" v="10"/>
    <tag k="addr:street" v="Center Street"/>
    <tag k="addr:state" v="VT"/>
    <tag k="ref:vcgi:esiteid" v="173656"/>
  </node>
  <node id="-312" visible="true" lat="44.1518823" lon="-72.04495793">
    <tag k="addr:city" v="Newbury"/>
    <tag k="addr:housenumber" v="64"/>
    <tag k="addr:street" v="Main Street North"/>
    <tag k="addr:state" v="VT"/>
    <tag k="ref:vcgi:esiteid" v="173658"/>
  </node>
  <node id="-313" visible="true" lat="44.15185392" lon="-72.04588754">
    <tag k="addr:city" v="Newbury"/>
    <tag k="addr:housenumber" v="61"/>
    <tag k="addr:street" v="Main Street North"/>
    <tag k="addr:state" v="VT"/>
    <tag k="ref:vcgi:esiteid" v="173659"/>
  </node>
  <node id="-314" visible="true" lat="44.15177097" lon="-72.04440409">
    <tag k="addr:city" v="Newbury"/>
    <tag k="addr:housenumber" v="68"/>
    <tag k="addr:street" v="Main Street North"/>
    <tag k="addr:state" v="VT"/>
    <tag k="ref:vcgi:esiteid" v="173660"/>
  </node>
  <node id="-315" visible="true" lat="44.15186741" lon="-72.04471264">
    <tag k="addr:city" v="Newbury"/>
    <tag k="addr:housenumber" v="66"/>
    <tag k="addr:street" v="Main Street North"/>
    <tag k="addr:state" v="VT"/>
    <tag k="ref:vcgi:esiteid" v="173661"/>
  </node>
  <node id="-316" visible="true" lat="44.15175153" lon="-72.04792598">
    <tag k="addr:city" v="Newbury"/>
    <tag k="addr:housenumber" v="15"/>
    <tag k="addr:street" v="Grove Street"/>
    <tag k="addr:state" v="VT"/>
    <tag k="ref:vcgi:esiteid" v="173662"/>
  </node>
  <node id="-317" visible="true" lat="44.15182106" lon="-72.04921946">
    <tag k="addr:city" v="Newbury"/>
    <tag k="addr:housenumber" v="17"/>
    <tag k="addr:street" v="Grove Street"/>
    <tag k="addr:state" v="VT"/>
    <tag k="ref:vcgi:esiteid" v="173663"/>
  </node>
  <node id="-318" visible="true" lat="44.1516537" lon="-72.04567248">
    <tag k="addr:city" v="Newbury"/>
    <tag k="addr:housenumber" v="65"/>
    <tag k="addr:street" v="Main Street North"/>
    <tag k="addr:state" v="VT"/>
    <tag k="ref:vcgi:esiteid" v="173664"/>
  </node>
  <node id="-319" visible="true" lat="44.15169127" lon="-72.09343566">
    <tag k="addr:city" v="Newbury"/>
    <tag k="addr:housenumber" v="4222"/>
    <tag k="addr:street" v="Leighton Hill Road"/>
    <tag k="addr:state" v="VT"/>
    <tag k="ref:vcgi:esiteid" v="173665"/>
  </node>
  <node id="-321" visible="true" lat="44.15160903" lon="-72.04475318">
    <tag k="addr:city" v="Newbury"/>
    <tag k="addr:housenumber" v="70"/>
    <tag k="addr:street" v="Main Street North"/>
    <tag k="addr:state" v="VT"/>
    <tag k="ref:vcgi:esiteid" v="173669"/>
  </node>
  <node id="-322" visible="true" lat="44.15150725" lon="-72.04711871">
    <tag k="addr:city" v="Newbury"/>
    <tag k="addr:housenumber" v="20"/>
    <tag k="addr:street" v="Grove Street"/>
    <tag k="addr:state" v="VT"/>
    <tag k="ref:vcgi:esiteid" v="173670"/>
  </node>
  <node id="-323" visible="true" lat="44.15151366" lon="-72.04468451">
    <tag k="addr:city" v="Newbury"/>
    <tag k="addr:housenumber" v="72"/>
    <tag k="addr:street" v="Main Street North"/>
    <tag k="addr:state" v="VT"/>
    <tag k="ref:vcgi:esiteid" v="173671"/>
  </node>
  <node id="-324" visible="true" lat="44.15141816" lon="-72.04765429">
    <tag k="addr:city" v="Newbury"/>
    <tag k="addr:housenumber" v="19"/>
    <tag k="addr:street" v="Grove Street"/>
    <tag k="addr:state" v="VT"/>
    <tag k="ref:vcgi:esiteid" v="173672"/>
  </node>
  <node id="-325" visible="true" lat="44.15139146" lon="-72.04433393">
    <tag k="addr:city" v="Newbury"/>
    <tag k="addr:housenumber" v="74"/>
    <tag k="addr:street" v="Main Street North"/>
    <tag k="addr:state" v="VT"/>
    <tag k="ref:vcgi:esiteid" v="173673"/>
  </node>
  <node id="-326" visible="true" lat="44.15132918" lon="-72.04531876">
    <tag k="addr:city" v="Newbury"/>
    <tag k="addr:housenumber" v="69"/>
    <tag k="addr:street" v="Main Street North"/>
    <tag k="addr:state" v="VT"/>
    <tag k="ref:vcgi:esiteid" v="173674"/>
  </node>
  <node id="-327" visible="true" lat="44.15131421" lon="-72.04692964">
    <tag k="addr:city" v="Newbury"/>
    <tag k="addr:housenumber" v="24"/>
    <tag k="addr:street" v="Grove Street"/>
    <tag k="addr:state" v="VT"/>
    <tag k="ref:vcgi:esiteid" v="173676"/>
  </node>
  <node id="-329" visible="true" lat="44.15139007" lon="-72.08404541">
    <tag k="addr:city" v="Newbury"/>
    <tag k="addr:housenumber" v="2111"/>
    <tag k="addr:street" v="U.S. Route 302"/>
    <tag k="addr:state" v="VT"/>
    <tag k="ref:vcgi:esiteid" v="173678"/>
  </node>
  <node id="-330" visible="true" lat="44.15117459" lon="-72.04750866">
    <tag k="addr:city" v="Newbury"/>
    <tag k="addr:housenumber" v="23"/>
    <tag k="addr:street" v="Grove Street"/>
    <tag k="addr:state" v="VT"/>
    <tag k="ref:vcgi:esiteid" v="173679"/>
  </node>
  <node id="-331" visible="true" lat="44.15131759" lon="-72.08358764">
    <tag k="addr:city" v="Newbury"/>
    <tag k="addr:housenumber" v="2045"/>
    <tag k="addr:street" v="U.S. Route 302"/>
    <tag k="addr:state" v="VT"/>
    <tag k="ref:vcgi:esiteid" v="173680"/>
  </node>
  <node id="-332" visible="true" lat="44.15114274" lon="-72.0443654">
    <tag k="addr:city" v="Newbury"/>
    <tag k="addr:housenumber" v="76"/>
    <tag k="addr:street" v="Main Street North"/>
    <tag k="addr:state" v="VT"/>
    <tag k="ref:vcgi:esiteid" v="173681"/>
  </node>
  <node id="-333" visible="true" lat="44.15113141" lon="-72.04680888">
    <tag k="addr:city" v="Newbury"/>
    <tag k="addr:housenumber" v="28"/>
    <tag k="addr:street" v="Grove Street"/>
    <tag k="addr:state" v="VT"/>
    <tag k="ref:vcgi:esiteid" v="173682"/>
  </node>
  <node id="-335" visible="true" lat="44.15102907" lon="-72.04734911">
    <tag k="addr:city" v="Newbury"/>
    <tag k="addr:housenumber" v="27"/>
    <tag k="addr:street" v="Grove Street"/>
    <tag k="addr:state" v="VT"/>
    <tag k="ref:vcgi:esiteid" v="173684"/>
  </node>
  <node id="-336" visible="true" lat="44.15094461" lon="-72.04431124">
    <tag k="addr:city" v="Newbury"/>
    <tag k="addr:housenumber" v="78"/>
    <tag k="addr:street" v="Main Street North"/>
    <tag k="addr:state" v="VT"/>
    <tag k="ref:vcgi:esiteid" v="173685"/>
  </node>
  <node id="-338" visible="true" lat="44.15097808" lon="-72.08620452">
    <tag k="addr:city" v="Newbury"/>
    <tag k="addr:housenumber" v="4186"/>
    <tag k="addr:street" v="Wallace Hill Road"/>
    <tag k="addr:state" v="VT"/>
    <tag k="ref:vcgi:esiteid" v="173687"/>
  </node>
  <node id="-339" visible="true" lat="44.15073819" lon="-72.0450238">
    <tag k="addr:city" v="Newbury"/>
    <tag k="addr:housenumber" v="77"/>
    <tag k="addr:street" v="Main Street North"/>
    <tag k="addr:state" v="VT"/>
    <tag k="ref:vcgi:esiteid" v="173689"/>
  </node>
  <node id="-351" visible="true" lat="44.14989578" lon="-72.08463564">
    <tag k="addr:city" v="Newbury"/>
    <tag k="addr:housenumber" v="70"/>
    <tag k="addr:street" v="Winter Lane"/>
    <tag k="addr:state" v="VT"/>
    <tag k="ref:vcgi:esiteid" v="173702"/>
  </node>
  <node id="-353" visible="true" lat="44.1498719" lon="-72.08392868">
    <tag k="addr:city" v="Newbury"/>
    <tag k="addr:housenumber" v="125"/>
    <tag k="addr:street" v="Winter Lane"/>
    <tag k="addr:state" v="VT"/>
    <tag k="ref:vcgi:esiteid" v="173704"/>
  </node>
  <node id="-354" visible="true" lat="44.14974212" lon="-72.085289">
    <tag k="addr:city" v="Newbury"/>
    <tag k="addr:housenumber" v="28"/>
    <tag k="addr:street" v="Winter Lane"/>
    <tag k="addr:state" v="VT"/>
    <tag k="ref:vcgi:esiteid" v="173705"/>
  </node>
  <node id="-356" visible="true" lat="44.1495285" lon="-72.09300994">
    <tag k="addr:city" v="Newbury"/>
    <tag k="addr:housenumber" v="4058"/>
    <tag k="addr:street" v="Leighton Hill Road"/>
    <tag k="addr:state" v="VT"/>
    <tag k="ref:vcgi:esiteid" v="173707"/>
  </node>
  <node id="-358" visible="true" lat="44.14947868" lon="-72.08647305">
    <tag k="addr:city" v="Newbury"/>
    <tag k="addr:housenumber" v="4087"/>
    <tag k="addr:street" v="Wallace Hill Road"/>
    <tag k="addr:state" v="VT"/>
    <tag k="ref:vcgi:esiteid" v="173709"/>
  </node>
  <node id="-361" visible="true" lat="44.14931959" lon="-72.09958696">
    <tag k="addr:city" v="Newbury"/>
    <tag k="addr:housenumber" v="543"/>
    <tag k="addr:street" v="Tenney Pond Road"/>
    <tag k="addr:state" v="VT"/>
    <tag k="ref:vcgi:esiteid" v="173712"/>
  </node>
  <node id="-367" visible="true" lat="44.14876937" lon="-72.0952301">
    <tag k="addr:city" v="Newbury"/>
    <tag k="addr:housenumber" v="3999"/>
    <tag k="addr:street" v="Leighton Hill Road"/>
    <tag k="addr:state" v="VT"/>
    <tag k="ref:vcgi:esiteid" v="173719"/>
  </node>
  <node id="-372" visible="true" lat="44.14850997" lon="-72.09403228">
    <tag k="addr:city" v="Newbury"/>
    <tag k="addr:housenumber" v="3984"/>
    <tag k="addr:street" v="Leighton Hill Road"/>
    <tag k="addr:state" v="VT"/>
    <tag k="ref:vcgi:esiteid" v="173724"/>
  </node>
  <node id="-387" visible="true" lat="44.14672253" lon="-72.09688508">
    <tag k="addr:city" v="Newbury"/>
    <tag k="addr:housenumber" v="3819"/>
    <tag k="addr:street" v="Leighton Hill Road"/>
    <tag k="addr:state" v="VT"/>
    <tag k="ref:vcgi:esiteid" v="173741"/>
  </node>
  <node id="-391" visible="true" lat="44.14623425" lon="-72.09696138">
    <tag k="addr:city" v="Newbury"/>
    <tag k="addr:housenumber" v="3793"/>
    <tag k="addr:street" v="Leighton Hill Road"/>
    <tag k="addr:state" v="VT"/>
    <tag k="ref:vcgi:esiteid" v="173745"/>
  </node>
  <node id="-398" visible="true" lat="44.14497159" lon="-72.09751069">
    <tag k="addr:city" v="Newbury"/>
    <tag k="addr:housenumber" v="3701"/>
    <tag k="addr:street" v="Leighton Hill Road"/>
    <tag k="addr:state" v="VT"/>
    <tag k="ref:vcgi:esiteid" v="173752"/>
  </node>
  <node id="-404" visible="true" lat="44.14353726" lon="-72.09876954">
    <tag k="addr:city" v="Newbury"/>
    <tag k="addr:housenumber" v="3535"/>
    <tag k="addr:street" v="Leighton Hill Road"/>
    <tag k="addr:state" v="VT"/>
    <tag k="ref:vcgi:esiteid" v="173758"/>
  </node>
  <node id="-410" visible="true" lat="44.14273617" lon="-72.09970033">
    <tag k="addr:city" v="Newbury"/>
    <tag k="addr:housenumber" v="3507"/>
    <tag k="addr:street" v="Leighton Hill Road"/>
    <tag k="addr:state" v="VT"/>
    <tag k="ref:vcgi:esiteid" v="173764"/>
  </node>
  <node id="-413" visible="true" lat="44.14199829" lon="-72.18126678">
    <tag k="addr:city" v="Newbury"/>
    <tag k="addr:housenumber" v="452"/>
    <tag k="addr:street" v="Swift Road"/>
    <tag k="addr:state" v="VT"/>
    <tag k="ref:vcgi:esiteid" v="173767"/>
  </node>
  <node id="-416" visible="true" lat="44.1413536" lon="-72.15913391">
    <tag k="addr:city" v="Newbury"/>
    <tag k="addr:housenumber" v="219"/>
    <tag k="addr:street" v="Johns Way"/>
    <tag k="addr:state" v="VT"/>
    <tag k="ref:vcgi:esiteid" v="173770"/>
  </node>
  <node id="-419" visible="true" lat="44.14067459" lon="-72.1070404">
    <tag k="addr:city" v="Newbury"/>
    <tag k="addr:housenumber" v="3089"/>
    <tag k="addr:street" v="Leighton Hill Road"/>
    <tag k="addr:state" v="VT"/>
    <tag k="ref:vcgi:esiteid" v="173773"/>
  </node>
  <node id="-422" visible="true" lat="44.13988113" lon="-72.18128204">
    <tag k="addr:city" v="Newbury"/>
    <tag k="addr:housenumber" v="324"/>
    <tag k="addr:street" v="Swift Road"/>
    <tag k="addr:state" v="VT"/>
    <tag k="ref:vcgi:esiteid" v="173776"/>
  </node>
  <node id="-424" visible="true" lat="44.13868713" lon="-72.15660095">
    <tag k="addr:city" v="Newbury"/>
    <tag k="addr:housenumber" v="1120"/>
    <tag k="addr:street" v="Corey Hill Road"/>
    <tag k="addr:state" v="VT"/>
    <tag k="ref:vcgi:esiteid" v="173778"/>
  </node>
  <node id="-426" visible="true" lat="44.13846653" lon="-72.15734653">
    <tag k="addr:city" v="Newbury"/>
    <tag k="addr:housenumber" v="1147"/>
    <tag k="addr:street" v="Corey Hill Road"/>
    <tag k="addr:state" v="VT"/>
    <tag k="ref:vcgi:esiteid" v="173780"/>
  </node>
  <node id="-429" visible="true" lat="44.13810348" lon="-72.17550659">
    <tag k="addr:city" v="Newbury"/>
    <tag k="addr:housenumber" v="98"/>
    <tag k="addr:street" v="Topsham Road"/>
    <tag k="addr:state" v="VT"/>
    <tag k="ref:vcgi:esiteid" v="173783"/>
  </node>
  <node id="-432" visible="true" lat="44.13755798" lon="-72.17439269">
    <tag k="addr:city" v="Newbury"/>
    <tag k="addr:housenumber" v="96"/>
    <tag k="addr:street" v="Topsham Road"/>
    <tag k="addr:state" v="VT"/>
    <tag k="ref:vcgi:esiteid" v="173786"/>
  </node>
  <node id="-434" visible="true" lat="44.13736724" lon="-72.17783355">
    <tag k="addr:city" v="Newbury"/>
    <tag k="addr:housenumber" v="246"/>
    <tag k="addr:street" v="Topsham Road"/>
    <tag k="addr:state" v="VT"/>
    <tag k="ref:vcgi:esiteid" v="173788"/>
  </node>
  <node id="-442" visible="true" lat="44.13576215" lon="-72.17090972">
    <tag k="addr:city" v="Newbury"/>
    <tag k="addr:housenumber" v="1960"/>
    <tag k="addr:street" v="Corey Hill Road"/>
    <tag k="addr:state" v="VT"/>
    <tag k="ref:vcgi:esiteid" v="173796"/>
  </node>
  <node id="-444" visible="true" lat="44.13498853" lon="-72.17381989">
    <tag k="addr:city" v="Newbury"/>
    <tag k="addr:housenumber" v="4282"/>
    <tag k="addr:street" v="Swamp Road"/>
    <tag k="addr:state" v="VT"/>
    <tag k="ref:vcgi:esiteid" v="173798"/>
  </node>
  <node id="-445" visible="true" lat="44.13462829" lon="-72.15432739">
    <tag k="addr:city" v="Newbury"/>
    <tag k="addr:housenumber" v="817"/>
    <tag k="addr:street" v="Corey Hill Road"/>
    <tag k="addr:state" v="VT"/>
    <tag k="ref:vcgi:esiteid" v="173799"/>
  </node>
  <node id="-448" visible="true" lat="44.13362287" lon="-72.1807779">
    <tag k="addr:city" v="Newbury"/>
    <tag k="addr:housenumber" v="24"/>
    <tag k="addr:street" v="Seldom Seen Farm Road"/>
    <tag k="addr:state" v="VT"/>
    <tag k="ref:vcgi:esiteid" v="173802"/>
  </node>
  <node id="-449" visible="true" lat="44.1328659" lon="-72.17278289">
    <tag k="addr:city" v="Newbury"/>
    <tag k="addr:housenumber" v="4373"/>
    <tag k="addr:street" v="Swamp Road"/>
    <tag k="addr:state" v="VT"/>
    <tag k="ref:vcgi:esiteid" v="173803"/>
  </node>
  <node id="-458" visible="true" lat="44.12878036" lon="-72.15089416">
    <tag k="addr:city" v="Newbury"/>
    <tag k="addr:housenumber" v="373"/>
    <tag k="addr:street" v="Corey Hill Road"/>
    <tag k="addr:state" v="VT"/>
    <tag k="ref:vcgi:esiteid" v="173812"/>
  </node>
  <node id="-461" visible="true" lat="44.12756279" lon="-72.18211693">
    <tag k="addr:city" v="Newbury"/>
    <tag k="addr:housenumber" v="239"/>
    <tag k="addr:street" v="Whitcher Road"/>
    <tag k="addr:state" v="VT"/>
    <tag k="ref:vcgi:esiteid" v="173815"/>
  </node>
  <node id="-465" visible="true" lat="44.12680816" lon="-72.15026855">
    <tag k="addr:city" v="Newbury"/>
    <tag k="addr:housenumber" v="233"/>
    <tag k="addr:street" v="Corey Hill Road"/>
    <tag k="addr:state" v="VT"/>
    <tag k="ref:vcgi:esiteid" v="173819"/>
  </node>
  <node id="-474" visible="true" lat="44.12528228" lon="-72.10972595">
    <tag k="addr:city" v="Newbury"/>
    <tag k="addr:housenumber" v="1961"/>
    <tag k="addr:street" v="Leighton Hill Road"/>
    <tag k="addr:state" v="VT"/>
    <tag k="ref:vcgi:esiteid" v="173828"/>
  </node>
  <node id="-477" visible="true" lat="44.12506015" lon="-72.14954428">
    <tag k="addr:city" v="Newbury"/>
    <tag k="addr:housenumber" v="105"/>
    <tag k="addr:street" v="Corey Hill Road"/>
    <tag k="addr:state" v="VT"/>
    <tag k="ref:vcgi:esiteid" v="173831"/>
  </node>
  <node id="-479" visible="true" lat="44.12485733" lon="-72.14852043">
    <tag k="addr:city" v="Newbury"/>
    <tag k="addr:housenumber" v="74"/>
    <tag k="addr:street" v="Corey Hill Road"/>
    <tag k="addr:state" v="VT"/>
    <tag k="ref:vcgi:esiteid" v="173833"/>
  </node>
  <node id="-486" visible="true" lat="44.12331771" lon="-72.14782714">
    <tag k="addr:city" v="Newbury"/>
    <tag k="addr:housenumber" v="780"/>
    <tag k="addr:street" v="Newbury Center Road"/>
    <tag k="addr:state" v="VT"/>
    <tag k="ref:vcgi:esiteid" v="173840"/>
  </node>
  <node id="-488" visible="true" lat="44.12300831" lon="-72.14812585">
    <tag k="addr:city" v="Newbury"/>
    <tag k="addr:housenumber" v="741"/>
    <tag k="addr:street" v="Newbury Center Road"/>
    <tag k="addr:state" v="VT"/>
    <tag k="ref:vcgi:esiteid" v="173842"/>
  </node>
  <node id="-489" visible="true" lat="44.12209319" lon="-72.10927581">
    <tag k="addr:city" v="Newbury"/>
    <tag k="addr:housenumber" v="1669"/>
    <tag k="addr:street" v="Leighton Hill Road"/>
    <tag k="addr:state" v="VT"/>
    <tag k="ref:vcgi:esiteid" v="173843"/>
  </node>
  <node id="-492" visible="true" lat="44.12124252" lon="-72.1460266">
    <tag k="addr:city" v="Newbury"/>
    <tag k="addr:housenumber" v="608"/>
    <tag k="addr:street" v="Newbury Center Road"/>
    <tag k="addr:state" v="VT"/>
    <tag k="ref:vcgi:esiteid" v="173846"/>
  </node>
  <node id="-494" visible="true" lat="44.12073879" lon="-72.10932543">
    <tag k="addr:city" v="Newbury"/>
    <tag k="addr:housenumber" v="1497"/>
    <tag k="addr:street" v="Leighton Hill Road"/>
    <tag k="addr:state" v="VT"/>
    <tag k="ref:vcgi:esiteid" v="173848"/>
  </node>
  <node id="-497" visible="true" lat="44.11989204" lon="-72.10777387">
    <tag k="addr:city" v="Newbury"/>
    <tag k="addr:housenumber" v="1577"/>
    <tag k="addr:street" v="Leighton Hill Road"/>
    <tag k="addr:state" v="VT"/>
    <tag k="ref:vcgi:esiteid" v="173851"/>
  </node>
  <node id="-506" visible="true" lat="44.11823871" lon="-72.10702819">
    <tag k="addr:city" v="Newbury"/>
    <tag k="addr:housenumber" v="28"/>
    <tag k="addr:street" v="New Road"/>
    <tag k="addr:state" v="VT"/>
    <tag k="ref:vcgi:esiteid" v="173860"/>
  </node>
  <node id="-511" visible="true" lat="44.11739792" lon="-72.1097694">
    <tag k="addr:city" v="Newbury"/>
    <tag k="addr:housenumber" v="1331"/>
    <tag k="addr:street" v="Leighton Hill Road"/>
    <tag k="addr:state" v="VT"/>
    <tag k="ref:vcgi:esiteid" v="173865"/>
  </node>
  <node id="-512" visible="true" lat="44.11714043" lon="-72.10895869">
    <tag k="addr:city" v="Newbury"/>
    <tag k="addr:housenumber" v="1396"/>
    <tag k="addr:street" v="Leighton Hill Road"/>
    <tag k="addr:state" v="VT"/>
    <tag k="ref:vcgi:esiteid" v="173866"/>
  </node>
  <node id="-516" visible="true" lat="44.11613082" lon="-72.10970306">
    <tag k="addr:city" v="Newbury"/>
    <tag k="addr:housenumber" v="1246"/>
    <tag k="addr:street" v="Leighton Hill Road"/>
    <tag k="addr:state" v="VT"/>
    <tag k="ref:vcgi:esiteid" v="173870"/>
  </node>
  <node id="-522" visible="true" lat="44.11515045" lon="-72.11075591">
    <tag k="addr:city" v="Newbury"/>
    <tag k="addr:housenumber" v="1173"/>
    <tag k="addr:street" v="Leighton Hill Road"/>
    <tag k="addr:state" v="VT"/>
    <tag k="ref:vcgi:esiteid" v="173876"/>
  </node>
  <node id="-524" visible="true" lat="44.11488723" lon="-72.11336517">
    <tag k="addr:city" v="Newbury"/>
    <tag k="addr:housenumber" v="239"/>
    <tag k="addr:street" v="Joy Klark Park"/>
    <tag k="addr:state" v="VT"/>
    <tag k="ref:vcgi:esiteid" v="173878"/>
  </node>
  <node id="-525" visible="true" lat="44.11468293" lon="-72.11035203">
    <tag k="addr:city" v="Newbury"/>
    <tag k="addr:housenumber" v="1160"/>
    <tag k="addr:street" v="Leighton Hill Road"/>
    <tag k="addr:state" v="VT"/>
    <tag k="ref:vcgi:esiteid" v="173879"/>
  </node>
  <node id="-535" visible="true" lat="44.11357797" lon="-72.11032523">
    <tag k="addr:city" v="Newbury"/>
    <tag k="addr:housenumber" v="1050"/>
    <tag k="addr:street" v="Leighton Hill Road"/>
    <tag k="addr:state" v="VT"/>
    <tag k="ref:vcgi:esiteid" v="173889"/>
  </node>
  <node id="-542" visible="true" lat="44.11188433" lon="-72.1117778">
    <tag k="addr:city" v="Newbury"/>
    <tag k="addr:housenumber" v="945"/>
    <tag k="addr:street" v="Leighton Hill Road"/>
    <tag k="addr:state" v="VT"/>
    <tag k="ref:vcgi:esiteid" v="173896"/>
  </node>
  <node id="-545" visible="true" lat="44.11109542" lon="-72.11094665">
    <tag k="addr:city" v="Newbury"/>
    <tag k="addr:housenumber" v="900"/>
    <tag k="addr:street" v="Leighton Hill Road"/>
    <tag k="addr:state" v="VT"/>
    <tag k="ref:vcgi:esiteid" v="173899"/>
  </node>
  <node id="-550" visible="true" lat="44.11075592" lon="-72.11119842">
    <tag k="addr:city" v="Newbury"/>
    <tag k="addr:housenumber" v="874"/>
    <tag k="addr:street" v="Leighton Hill Road"/>
    <tag k="addr:state" v="VT"/>
    <tag k="ref:vcgi:esiteid" v="173904"/>
  </node>
  <node id="-553" visible="true" lat="44.11024213" lon="-72.11173895">
    <tag k="addr:city" v="Newbury"/>
    <tag k="addr:housenumber" v="826"/>
    <tag k="addr:street" v="Leighton Hill Road"/>
    <tag k="addr:state" v="VT"/>
    <tag k="ref:vcgi:esiteid" v="173907"/>
  </node>
  <node id="-584" visible="true" lat="44.10620498" lon="-72.11204528">
    <tag k="addr:city" v="Newbury"/>
    <tag k="addr:housenumber" v="510"/>
    <tag k="addr:street" v="Leighton Hill Road"/>
    <tag k="addr:state" v="VT"/>
    <tag k="ref:vcgi:esiteid" v="173938"/>
  </node>
  <node id="-586" visible="true" lat="44.10613632" lon="-72.11278533">
    <tag k="addr:city" v="Newbury"/>
    <tag k="addr:housenumber" v="537"/>
    <tag k="addr:street" v="Leighton Hill Road"/>
    <tag k="addr:state" v="VT"/>
    <tag k="ref:vcgi:esiteid" v="173941"/>
  </node>
  <node id="-593" visible="true" lat="44.10504913" lon="-72.11109924">
    <tag k="addr:city" v="Newbury"/>
    <tag k="addr:housenumber" v="423"/>
    <tag k="addr:street" v="Leighton Hill Road"/>
    <tag k="addr:state" v="VT"/>
    <tag k="ref:vcgi:esiteid" v="173948"/>
  </node>
  <node id="-595" visible="true" lat="44.10482787" lon="-72.11335754">
    <tag k="addr:city" v="Newbury"/>
    <tag k="addr:housenumber" v="142"/>
    <tag k="addr:street" v="Rocky Lane"/>
    <tag k="addr:state" v="VT"/>
    <tag k="ref:vcgi:esiteid" v="173950"/>
  </node>
  <node id="-599" visible="true" lat="44.10401916" lon="-72.11001586">
    <tag k="addr:city" v="Newbury"/>
    <tag k="addr:housenumber" v="334"/>
    <tag k="addr:street" v="Leighton Hill Road"/>
    <tag k="addr:state" v="VT"/>
    <tag k="ref:vcgi:esiteid" v="173954"/>
  </node>
  <node id="-609" visible="true" lat="44.10332489" lon="-72.11096954">
    <tag k="addr:city" v="Newbury"/>
    <tag k="addr:housenumber" v="279"/>
    <tag k="addr:street" v="Leighton Hill Road"/>
    <tag k="addr:state" v="VT"/>
    <tag k="ref:vcgi:esiteid" v="173964"/>
  </node>
  <node id="-615" visible="true" lat="44.10253906" lon="-72.11058044">
    <tag k="addr:city" v="Newbury"/>
    <tag k="addr:housenumber" v="233"/>
    <tag k="addr:street" v="Leighton Hill Road"/>
    <tag k="addr:state" v="VT"/>
    <tag k="ref:vcgi:esiteid" v="173970"/>
  </node>
  <node id="-617" visible="true" lat="44.1018486" lon="-72.1127243">
    <tag k="addr:city" v="Newbury"/>
    <tag k="addr:housenumber" v="119"/>
    <tag k="addr:street" v="Leighton Hill Road"/>
    <tag k="addr:state" v="VT"/>
    <tag k="ref:vcgi:esiteid" v="173972"/>
  </node>
  <node id="-621" visible="true" lat="44.1012115" lon="-72.11669908">
    <tag k="addr:city" v="Newbury"/>
    <tag k="addr:housenumber" v="3886"/>
    <tag k="addr:street" v="Scotch Hollow Road"/>
    <tag k="addr:state" v="VT"/>
    <tag k="ref:vcgi:esiteid" v="173976"/>
  </node>
  <node id="-625" visible="true" lat="44.10012817" lon="-72.11593627">
    <tag k="addr:city" v="Newbury"/>
    <tag k="addr:housenumber" v="3821"/>
    <tag k="addr:street" v="Scotch Hollow Road"/>
    <tag k="addr:state" v="VT"/>
    <tag k="ref:vcgi:esiteid" v="173980"/>
  </node>
  <node id="-627" visible="true" lat="44.09966278" lon="-72.1832962">
    <tag k="addr:city" v="Newbury"/>
    <tag k="addr:housenumber" v="805"/>
    <tag k="addr:street" v="Bowen Road"/>
    <tag k="addr:state" v="VT"/>
    <tag k="ref:vcgi:esiteid" v="173982"/>
  </node>
  <node id="-630" visible="true" lat="44.09832382" lon="-72.11679077">
    <tag k="addr:city" v="Newbury"/>
    <tag k="addr:housenumber" v="147"/>
    <tag k="addr:street" v="Halls Lake Road"/>
    <tag k="addr:state" v="VT"/>
    <tag k="ref:vcgi:esiteid" v="173985"/>
  </node>
  <node id="-631" visible="true" lat="44.09823989" lon="-72.11753845">
    <tag k="addr:city" v="Newbury"/>
    <tag k="addr:housenumber" v="168"/>
    <tag k="addr:street" v="Halls Lake Road"/>
    <tag k="addr:state" v="VT"/>
    <tag k="ref:vcgi:esiteid" v="173986"/>
  </node>
  <node id="-638" visible="true" lat="44.09615707" lon="-72.11878204">
    <tag k="addr:city" v="Newbury"/>
    <tag k="addr:housenumber" v="329"/>
    <tag k="addr:street" v="Halls Lake Road"/>
    <tag k="addr:state" v="VT"/>
    <tag k="ref:vcgi:esiteid" v="173993"/>
  </node>
  <node id="-644" visible="true" lat="44.09486809" lon="-72.11976667">
    <tag k="addr:city" v="Newbury"/>
    <tag k="addr:housenumber" v="413"/>
    <tag k="addr:street" v="Halls Lake Road"/>
    <tag k="addr:state" v="VT"/>
    <tag k="ref:vcgi:esiteid" v="174000"/>
  </node>
  <node id="-663" visible="true" lat="44.09308242" lon="-72.19390869">
    <tag k="addr:city" v="Newbury"/>
    <tag k="addr:housenumber" v="204"/>
    <tag k="addr:street" v="Gahn Road"/>
    <tag k="addr:state" v="VT"/>
    <tag k="ref:vcgi:esiteid" v="174021"/>
  </node>
  <node id="-666" visible="true" lat="44.09264373" lon="-72.18983459">
    <tag k="addr:city" v="Newbury"/>
    <tag k="addr:housenumber" v="1400"/>
    <tag k="addr:street" v="Bowen Road"/>
    <tag k="addr:state" v="VT"/>
    <tag k="ref:vcgi:esiteid" v="174024"/>
  </node>
  <node id="-678" visible="true" lat="44.092247" lon="-72.19824218">
    <tag k="addr:city" v="Newbury"/>
    <tag k="addr:housenumber" v="352"/>
    <tag k="addr:street" v="Darling Road"/>
    <tag k="addr:state" v="VT"/>
    <tag k="ref:vcgi:esiteid" v="174037"/>
  </node>
  <node id="-687" visible="true" lat="44.0916345" lon="-72.1898874">
    <tag k="addr:city" v="Newbury"/>
    <tag k="addr:housenumber" v="1455"/>
    <tag k="addr:street" v="Bowen Road"/>
    <tag k="addr:state" v="VT"/>
    <tag k="ref:vcgi:esiteid" v="174046"/>
  </node>
  <node id="-691" visible="true" lat="44.09111404" lon="-72.12298584">
    <tag k="addr:city" v="Newbury"/>
    <tag k="addr:housenumber" v="798"/>
    <tag k="addr:street" v="Halls Lake Road"/>
    <tag k="addr:state" v="VT"/>
    <tag k="ref:vcgi:esiteid" v="174050"/>
  </node>
  <node id="-692" visible="true" lat="44.09111404" lon="-72.12277984">
    <tag k="addr:city" v="Newbury"/>
    <tag k="addr:housenumber" v="786"/>
    <tag k="addr:street" v="Halls Lake Road"/>
    <tag k="addr:state" v="VT"/>
    <tag k="ref:vcgi:esiteid" v="174051"/>
  </node>
  <node id="-693" visible="true" lat="44.09107589" lon="-72.12229156">
    <tag k="addr:city" v="Newbury"/>
    <tag k="addr:housenumber" v="762"/>
    <tag k="addr:street" v="Halls Lake Road"/>
    <tag k="addr:state" v="VT"/>
    <tag k="ref:vcgi:esiteid" v="174052"/>
  </node>
  <node id="-694" visible="true" lat="44.09106445" lon="-72.1234436">
    <tag k="addr:city" v="Newbury"/>
    <tag k="addr:housenumber" v="814"/>
    <tag k="addr:street" v="Halls Lake Road"/>
    <tag k="addr:state" v="VT"/>
    <tag k="ref:vcgi:esiteid" v="174053"/>
  </node>
  <node id="-695" visible="true" lat="44.09104919" lon="-72.12373352">
    <tag k="addr:city" v="Newbury"/>
    <tag k="addr:housenumber" v="828"/>
    <tag k="addr:street" v="Halls Lake Road"/>
    <tag k="addr:state" v="VT"/>
    <tag k="ref:vcgi:esiteid" v="174054"/>
  </node>
  <node id="-696" visible="true" lat="44.09095764" lon="-72.12113189">
    <tag k="addr:city" v="Newbury"/>
    <tag k="addr:housenumber" v="713"/>
    <tag k="addr:street" v="Halls Lake Road"/>
    <tag k="addr:state" v="VT"/>
    <tag k="ref:vcgi:esiteid" v="174055"/>
  </node>
  <node id="-697" visible="true" lat="44.09094619" lon="-72.1239624">
    <tag k="addr:city" v="Newbury"/>
    <tag k="addr:housenumber" v="842"/>
    <tag k="addr:street" v="Halls Lake Road"/>
    <tag k="addr:state" v="VT"/>
    <tag k="ref:vcgi:esiteid" v="174056"/>
  </node>
  <node id="-698" visible="true" lat="44.09087753" lon="-72.12425994">
    <tag k="addr:city" v="Newbury"/>
    <tag k="addr:housenumber" v="856"/>
    <tag k="addr:street" v="Halls Lake Road"/>
    <tag k="addr:state" v="VT"/>
    <tag k="ref:vcgi:esiteid" v="174058"/>
  </node>
  <node id="-704" visible="true" lat="44.09040069" lon="-72.12554931">
    <tag k="addr:city" v="Newbury"/>
    <tag k="addr:housenumber" v="926"/>
    <tag k="addr:street" v="Halls Lake Road"/>
    <tag k="addr:state" v="VT"/>
    <tag k="ref:vcgi:esiteid" v="174064"/>
  </node>
  <node id="-706" visible="true" lat="44.09025192" lon="-72.12613678">
    <tag k="addr:city" v="Newbury"/>
    <tag k="addr:housenumber" v="954"/>
    <tag k="addr:street" v="Halls Lake Road"/>
    <tag k="addr:state" v="VT"/>
    <tag k="ref:vcgi:esiteid" v="174066"/>
  </node>
  <node id="-711" visible="true" lat="44.08984375" lon="-72.1255722">
    <tag k="addr:city" v="Newbury"/>
    <tag k="addr:housenumber" v="959"/>
    <tag k="addr:street" v="Halls Lake Road"/>
    <tag k="addr:state" v="VT"/>
    <tag k="ref:vcgi:esiteid" v="174071"/>
  </node>
  <node id="-716" visible="true" lat="44.08956909" lon="-72.12573242">
    <tag k="addr:city" v="Newbury"/>
    <tag k="addr:housenumber" v="985"/>
    <tag k="addr:street" v="Halls Lake Road"/>
    <tag k="addr:state" v="VT"/>
    <tag k="ref:vcgi:esiteid" v="174076"/>
  </node>
  <node id="-717" visible="true" lat="44.08956909" lon="-72.12628936">
    <tag k="addr:city" v="Newbury"/>
    <tag k="addr:housenumber" v="992"/>
    <tag k="addr:street" v="Halls Lake Road"/>
    <tag k="addr:state" v="VT"/>
    <tag k="ref:vcgi:esiteid" v="174077"/>
  </node>
  <node id="-724" visible="true" lat="44.08918762" lon="-72.12578582">
    <tag k="addr:city" v="Newbury"/>
    <tag k="addr:housenumber" v="1013"/>
    <tag k="addr:street" v="Halls Lake Road"/>
    <tag k="addr:state" v="VT"/>
    <tag k="ref:vcgi:esiteid" v="174084"/>
  </node>
  <node id="-726" visible="true" lat="44.08908844" lon="-72.12603759">
    <tag k="addr:city" v="Newbury"/>
    <tag k="addr:housenumber" v="1021"/>
    <tag k="addr:street" v="Halls Lake Road"/>
    <tag k="addr:state" v="VT"/>
    <tag k="ref:vcgi:esiteid" v="174086"/>
  </node>
  <node id="-728" visible="true" lat="44.08885955" lon="-72.1259613">
    <tag k="addr:city" v="Newbury"/>
    <tag k="addr:housenumber" v="1043"/>
    <tag k="addr:street" v="Halls Lake Road"/>
    <tag k="addr:state" v="VT"/>
    <tag k="ref:vcgi:esiteid" v="174088"/>
  </node>
  <node id="-733" visible="true" lat="44.08856964" lon="-72.12580871">
    <tag k="addr:city" v="Newbury"/>
    <tag k="addr:housenumber" v="1057"/>
    <tag k="addr:street" v="Halls Lake Road"/>
    <tag k="addr:state" v="VT"/>
    <tag k="ref:vcgi:esiteid" v="174093"/>
  </node>
  <node id="-734" visible="true" lat="44.08840942" lon="-72.12606048">
    <tag k="addr:city" v="Newbury"/>
    <tag k="addr:housenumber" v="1069"/>
    <tag k="addr:street" v="Halls Lake Road"/>
    <tag k="addr:state" v="VT"/>
    <tag k="ref:vcgi:esiteid" v="174094"/>
  </node>
  <node id="-738" visible="true" lat="44.08816909" lon="-72.12594604">
    <tag k="addr:city" v="Newbury"/>
    <tag k="addr:housenumber" v="1083"/>
    <tag k="addr:street" v="Halls Lake Road"/>
    <tag k="addr:state" v="VT"/>
    <tag k="ref:vcgi:esiteid" v="174098"/>
  </node>
  <node id="-741" visible="true" lat="44.08771896" lon="-72.05769348">
    <tag k="addr:city" v="Newbury"/>
    <tag k="addr:housenumber" v="483"/>
    <tag k="addr:street" v="Romance Lane"/>
    <tag k="addr:state" v="VT"/>
    <tag k="ref:vcgi:esiteid" v="174101"/>
  </node>
  <node id="-742" visible="true" lat="44.08781433" lon="-72.12599945">
    <tag k="addr:city" v="Newbury"/>
    <tag k="addr:housenumber" v="1109"/>
    <tag k="addr:street" v="Halls Lake Road"/>
    <tag k="addr:state" v="VT"/>
    <tag k="ref:vcgi:esiteid" v="174102"/>
  </node>
  <node id="-750" visible="true" lat="44.08739154" lon="-72.12594447">
    <tag k="addr:city" v="Newbury"/>
    <tag k="addr:housenumber" v="1147"/>
    <tag k="addr:street" v="Halls Lake Road"/>
    <tag k="addr:state" v="VT"/>
    <tag k="ref:vcgi:esiteid" v="174111"/>
  </node>
  <node id="-752" visible="true" lat="44.08691024" lon="-72.05449676">
    <tag k="addr:city" v="Newbury"/>
    <tag k="addr:housenumber" v="615"/>
    <tag k="addr:street" v="Romance Lane"/>
    <tag k="addr:state" v="VT"/>
    <tag k="ref:vcgi:esiteid" v="174113"/>
  </node>
  <node id="-753" visible="true" lat="44.08713531" lon="-72.12569427">
    <tag k="addr:city" v="Newbury"/>
    <tag k="addr:housenumber" v="1141"/>
    <tag k="addr:street" v="Halls Lake Road"/>
    <tag k="addr:state" v="VT"/>
    <tag k="ref:vcgi:esiteid" v="174114"/>
  </node>
  <node id="-756" visible="true" lat="44.08670902" lon="-72.12546138">
    <tag k="addr:city" v="Newbury"/>
    <tag k="addr:housenumber" v="1145"/>
    <tag k="addr:street" v="Halls Lake Road"/>
    <tag k="addr:state" v="VT"/>
    <tag k="ref:vcgi:esiteid" v="174118"/>
  </node>
  <node id="-760" visible="true" lat="44.08635711" lon="-72.05477905">
    <tag k="addr:city" v="Newbury"/>
    <tag k="addr:housenumber" v="600"/>
    <tag k="addr:street" v="Romance Lane"/>
    <tag k="addr:state" v="VT"/>
    <tag k="ref:vcgi:esiteid" v="174122"/>
  </node>
  <node id="-761" visible="true" lat="44.08628845" lon="-72.05284118">
    <tag k="addr:city" v="Newbury"/>
    <tag k="addr:housenumber" v="430"/>
    <tag k="addr:street" v="Oxbow Road"/>
    <tag k="addr:state" v="VT"/>
    <tag k="ref:vcgi:esiteid" v="174123"/>
  </node>
  <node id="-764" visible="true" lat="44.08593368" lon="-72.05387878">
    <tag k="addr:city" v="Newbury"/>
    <tag k="addr:housenumber" v="328"/>
    <tag k="addr:street" v="Oxbow Road"/>
    <tag k="addr:state" v="VT"/>
    <tag k="ref:vcgi:esiteid" v="174126"/>
  </node>
  <node id="-767" visible="true" lat="44.08604812" lon="-72.12767791">
    <tag k="addr:city" v="Newbury"/>
    <tag k="addr:housenumber" v="1238"/>
    <tag k="addr:street" v="Halls Lake Road"/>
    <tag k="addr:state" v="VT"/>
    <tag k="ref:vcgi:esiteid" v="174129"/>
  </node>
  <node id="-769" visible="true" lat="44.08557891" lon="-72.05463409">
    <tag k="addr:city" v="Newbury"/>
    <tag k="addr:housenumber" v="305"/>
    <tag k="addr:street" v="Oxbow Road"/>
    <tag k="addr:state" v="VT"/>
    <tag k="ref:vcgi:esiteid" v="174131"/>
  </node>
  <node id="-771" visible="true" lat="44.0854454" lon="-72.05947875">
    <tag k="addr:city" v="Newbury"/>
    <tag k="addr:housenumber" v="369"/>
    <tag k="addr:street" v="Romance Lane"/>
    <tag k="addr:state" v="VT"/>
    <tag k="ref:vcgi:esiteid" v="174133"/>
  </node>
  <node id="-773" visible="true" lat="44.08523559" lon="-72.05453491">
    <tag k="addr:city" v="Newbury"/>
    <tag k="addr:housenumber" v="279"/>
    <tag k="addr:street" v="Oxbow Road"/>
    <tag k="addr:state" v="VT"/>
    <tag k="ref:vcgi:esiteid" v="174135"/>
  </node>
  <node id="-777" visible="true" lat="44.08488082" lon="-72.05380248">
    <tag k="addr:city" v="Newbury"/>
    <tag k="addr:housenumber" v="260"/>
    <tag k="addr:street" v="Oxbow Road"/>
    <tag k="addr:state" v="VT"/>
    <tag k="ref:vcgi:esiteid" v="174139"/>
  </node>
  <node id="-778" visible="true" lat="44.08508682" lon="-72.12809753">
    <tag k="addr:city" v="Newbury"/>
    <tag k="addr:housenumber" v="1328"/>
    <tag k="addr:street" v="Halls Lake Road"/>
    <tag k="addr:state" v="VT"/>
    <tag k="ref:vcgi:esiteid" v="174140"/>
  </node>
  <node id="-779" visible="true" lat="44.08478546" lon="-72.05939483">
    <tag k="addr:city" v="Newbury"/>
    <tag k="addr:housenumber" v="299"/>
    <tag k="addr:street" v="Romance Lane"/>
    <tag k="addr:state" v="VT"/>
    <tag k="ref:vcgi:esiteid" v="174141"/>
  </node>
  <node id="-784" visible="true" lat="44.08448028" lon="-72.05911254">
    <tag k="addr:city" v="Newbury"/>
    <tag k="addr:housenumber" v="288"/>
    <tag k="addr:street" v="Romance Lane"/>
    <tag k="addr:state" v="VT"/>
    <tag k="ref:vcgi:esiteid" v="174146"/>
  </node>
  <node id="-788" visible="true" lat="44.08419036" lon="-72.06009674">
    <tag k="addr:city" v="Newbury"/>
    <tag k="addr:housenumber" v="245"/>
    <tag k="addr:street" v="Romance Lane"/>
    <tag k="addr:state" v="VT"/>
    <tag k="ref:vcgi:esiteid" v="174152"/>
  </node>
  <node id="-800" visible="true" lat="44.08355331" lon="-72.06098175">
    <tag k="addr:city" v="Newbury"/>
    <tag k="addr:housenumber" v="175"/>
    <tag k="addr:street" v="Romance Lane"/>
    <tag k="addr:state" v="VT"/>
    <tag k="ref:vcgi:esiteid" v="174164"/>
  </node>
  <node id="-801" visible="true" lat="44.08351516" lon="-72.05999755">
    <tag k="addr:city" v="Newbury"/>
    <tag k="addr:housenumber" v="21"/>
    <tag k="addr:street" v="Cookman Road"/>
    <tag k="addr:state" v="VT"/>
    <tag k="ref:vcgi:esiteid" v="174165"/>
  </node>
  <node id="-804" visible="true" lat="44.08332824" lon="-72.05471801">
    <tag k="addr:city" v="Newbury"/>
    <tag k="addr:housenumber" v="138"/>
    <tag k="addr:street" v="Oxbow Road"/>
    <tag k="addr:state" v="VT"/>
    <tag k="ref:vcgi:esiteid" v="174170"/>
  </node>
  <node id="-807" visible="true" lat="44.08314514" lon="-72.0615158">
    <tag k="addr:city" v="Newbury"/>
    <tag k="addr:housenumber" v="161"/>
    <tag k="addr:street" v="Romance Lane"/>
    <tag k="addr:state" v="VT"/>
    <tag k="ref:vcgi:esiteid" v="174173"/>
  </node>
  <node id="-808" visible="true" lat="44.08302688" lon="-72.05708313">
    <tag k="addr:city" v="Newbury"/>
    <tag k="addr:housenumber" v="145"/>
    <tag k="addr:street" v="Depot Road"/>
    <tag k="addr:state" v="VT"/>
    <tag k="ref:vcgi:esiteid" v="174174"/>
  </node>
  <node id="-812" visible="true" lat="44.08275604" lon="-72.05587768">
    <tag k="addr:city" v="Newbury"/>
    <tag k="addr:housenumber" v="44"/>
    <tag k="addr:street" v="Depot Road"/>
    <tag k="addr:state" v="VT"/>
    <tag k="ref:vcgi:esiteid" v="174178"/>
  </node>
  <node id="-815" visible="true" lat="44.08248901" lon="-72.05268859">
    <tag k="addr:city" v="Newbury"/>
    <tag k="addr:housenumber" v="4651"/>
    <tag k="addr:street" v="Main Street South"/>
    <tag k="addr:state" v="VT"/>
    <tag k="ref:vcgi:esiteid" v="174182"/>
  </node>
  <node id="-816" visible="true" lat="44.08248138" lon="-72.05189514">
    <tag k="addr:city" v="Newbury"/>
    <tag k="addr:housenumber" v="4621"/>
    <tag k="addr:street" v="Main Street South"/>
    <tag k="addr:state" v="VT"/>
    <tag k="ref:vcgi:esiteid" v="174183"/>
  </node>
  <node id="-817" visible="true" lat="44.08237838" lon="-72.05882263">
    <tag k="addr:city" v="Newbury"/>
    <tag k="addr:housenumber" v="143"/>
    <tag k="addr:street" v="Cookman Road"/>
    <tag k="addr:state" v="VT"/>
    <tag k="ref:vcgi:esiteid" v="174184"/>
  </node>
  <node id="-821" visible="true" lat="44.08213424" lon="-72.05423736">
    <tag k="addr:city" v="Newbury"/>
    <tag k="addr:housenumber" v="4724"/>
    <tag k="addr:street" v="Main Street South"/>
    <tag k="addr:state" v="VT"/>
    <tag k="ref:vcgi:esiteid" v="174189"/>
  </node>
  <node id="-825" visible="true" lat="44.08200454" lon="-72.05873107">
    <tag k="addr:city" v="Newbury"/>
    <tag k="addr:housenumber" v="142"/>
    <tag k="addr:street" v="Cookman Road"/>
    <tag k="addr:state" v="VT"/>
    <tag k="ref:vcgi:esiteid" v="174194"/>
  </node>
  <node id="-826" visible="true" lat="44.0818634" lon="-72.05367278">
    <tag k="addr:city" v="Newbury"/>
    <tag k="addr:housenumber" v="4717"/>
    <tag k="addr:street" v="Main Street South"/>
    <tag k="addr:state" v="VT"/>
    <tag k="ref:vcgi:esiteid" v="174195"/>
  </node>
  <node id="-842" visible="true" lat="44.08068544" lon="-72.05536559">
    <tag k="addr:city" v="Newbury"/>
    <tag k="addr:housenumber" v="4827"/>
    <tag k="addr:street" v="Main Street South"/>
    <tag k="addr:state" v="VT"/>
    <tag k="ref:vcgi:esiteid" v="174212"/>
  </node>
  <node id="-846" visible="true" lat="44.08050097" lon="-72.05559996">
    <tag k="addr:city" v="Newbury"/>
    <tag k="addr:housenumber" v="4847"/>
    <tag k="addr:street" v="Main Street South"/>
    <tag k="addr:state" v="VT"/>
    <tag k="ref:vcgi:esiteid" v="174217"/>
  </node>
  <node id="-847" visible="true" lat="44.08042783" lon="-72.05665604">
    <tag k="addr:city" v="Newbury"/>
    <tag k="addr:housenumber" v="4886"/>
    <tag k="addr:street" v="Main Street South"/>
    <tag k="addr:state" v="VT"/>
    <tag k="ref:vcgi:esiteid" v="174219"/>
  </node>
  <node id="-848" visible="true" lat="44.0804073" lon="-72.05776929">
    <tag k="addr:city" v="Newbury"/>
    <tag k="addr:housenumber" v="76"/>
    <tag k="addr:street" v="Pine Street"/>
    <tag k="addr:state" v="VT"/>
    <tag k="ref:vcgi:esiteid" v="174220"/>
  </node>
  <node id="-849" visible="true" lat="44.08042127" lon="-72.05911625">
    <tag k="addr:city" v="Newbury"/>
    <tag k="addr:housenumber" v="2"/>
    <tag k="addr:street" v="Cross Street"/>
    <tag k="addr:state" v="VT"/>
    <tag k="ref:vcgi:esiteid" v="174221"/>
  </node>
  <node id="-856" visible="true" lat="44.08016054" lon="-72.05580254">
    <tag k="addr:city" v="Newbury"/>
    <tag k="addr:housenumber" v="4871"/>
    <tag k="addr:street" v="Main Street South"/>
    <tag k="addr:state" v="VT"/>
    <tag k="ref:vcgi:esiteid" v="174228"/>
  </node>
  <node id="-857" visible="true" lat="44.08019638" lon="-72.05812835">
    <tag k="addr:city" v="Newbury"/>
    <tag k="addr:housenumber" v="89"/>
    <tag k="addr:street" v="Pine Street"/>
    <tag k="addr:state" v="VT"/>
    <tag k="ref:vcgi:esiteid" v="174229"/>
  </node>
  <node id="-860" visible="true" lat="44.08000183" lon="-72.05717468">
    <tag k="addr:city" v="Newbury"/>
    <tag k="addr:housenumber" v="4932"/>
    <tag k="addr:street" v="Main Street South"/>
    <tag k="addr:state" v="VT"/>
    <tag k="ref:vcgi:esiteid" v="174233"/>
  </node>
  <node id="-861" visible="true" lat="44.0800424" lon="-72.05607109">
    <tag k="addr:city" v="Newbury"/>
    <tag k="addr:housenumber" v="4889"/>
    <tag k="addr:street" v="Main Street South"/>
    <tag k="addr:state" v="VT"/>
    <tag k="ref:vcgi:esiteid" v="174234"/>
  </node>
  <node id="-866" visible="true" lat="44.07989223" lon="-72.05741591">
    <tag k="addr:city" v="Newbury"/>
    <tag k="addr:housenumber" v="4948"/>
    <tag k="addr:street" v="Main Street South"/>
    <tag k="addr:state" v="VT"/>
    <tag k="ref:vcgi:esiteid" v="174241"/>
  </node>
  <node id="-882" visible="true" lat="44.07838439" lon="-72.06074523">
    <tag k="addr:city" v="Newbury"/>
    <tag k="addr:housenumber" v="143"/>
    <tag k="addr:street" v="Pulaski Street"/>
    <tag k="addr:state" v="VT"/>
    <tag k="ref:vcgi:esiteid" v="174260"/>
  </node>
  <node id="-883" visible="true" lat="44.07793044" lon="-72.05804443">
    <tag k="addr:city" v="Newbury"/>
    <tag k="addr:housenumber" v="5093"/>
    <tag k="addr:street" v="Main Street South"/>
    <tag k="addr:state" v="VT"/>
    <tag k="ref:vcgi:esiteid" v="174263"/>
  </node>
  <node id="-884" visible="true" lat="44.07783508" lon="-72.06102752">
    <tag k="addr:city" v="Newbury"/>
    <tag k="addr:housenumber" v="115"/>
    <tag k="addr:street" v="Pulaski Street"/>
    <tag k="addr:state" v="VT"/>
    <tag k="ref:vcgi:esiteid" v="174264"/>
  </node>
  <node id="-885" visible="true" lat="44.07761383" lon="-72.05966949">
    <tag k="addr:city" v="Newbury"/>
    <tag k="addr:housenumber" v="63"/>
    <tag k="addr:street" v="Pulaski Street"/>
    <tag k="addr:state" v="VT"/>
    <tag k="ref:vcgi:esiteid" v="174265"/>
  </node>
  <node id="-886" visible="true" lat="44.07761001" lon="-72.06015777">
    <tag k="addr:city" v="Newbury"/>
    <tag k="addr:housenumber" v="87"/>
    <tag k="addr:street" v="Pulaski Street"/>
    <tag k="addr:state" v="VT"/>
    <tag k="ref:vcgi:esiteid" v="174266"/>
  </node>
  <node id="-887" visible="true" lat="44.07760238" lon="-72.05900573">
    <tag k="addr:city" v="Newbury"/>
    <tag k="addr:housenumber" v="29"/>
    <tag k="addr:street" v="Pulaski Street"/>
    <tag k="addr:state" v="VT"/>
    <tag k="ref:vcgi:esiteid" v="174267"/>
  </node>
  <node id="-888" visible="true" lat="44.07758331" lon="-72.06054687">
    <tag k="addr:city" v="Newbury"/>
    <tag k="addr:housenumber" v="107"/>
    <tag k="addr:street" v="Pulaski Street"/>
    <tag k="addr:state" v="VT"/>
    <tag k="ref:vcgi:esiteid" v="174269"/>
  </node>
  <node id="-890" visible="true" lat="44.07715606" lon="-72.06103515">
    <tag k="addr:city" v="Newbury"/>
    <tag k="addr:housenumber" v="113"/>
    <tag k="addr:street" v="Pulaski Street"/>
    <tag k="addr:state" v="VT"/>
    <tag k="ref:vcgi:esiteid" v="174271"/>
  </node>
  <node id="-891" visible="true" lat="44.07698668" lon="-72.05778992">
    <tag k="addr:city" v="Newbury"/>
    <tag k="addr:housenumber" v="5163"/>
    <tag k="addr:street" v="Main Street South"/>
    <tag k="addr:state" v="VT"/>
    <tag k="ref:vcgi:esiteid" v="174272"/>
  </node>
  <node id="-892" visible="true" lat="44.07667641" lon="-72.05785886">
    <tag k="addr:city" v="Newbury"/>
    <tag k="addr:housenumber" v="5179"/>
    <tag k="addr:street" v="Main Street South"/>
    <tag k="addr:state" v="VT"/>
    <tag k="ref:vcgi:esiteid" v="174274"/>
  </node>
  <node id="-895" visible="true" lat="44.07660196" lon="-72.05847908">
    <tag k="addr:city" v="Newbury"/>
    <tag k="addr:housenumber" v="5178"/>
    <tag k="addr:street" v="Main Street South"/>
    <tag k="addr:state" v="VT"/>
    <tag k="ref:vcgi:esiteid" v="174277"/>
  </node>
  <node id="-896" visible="true" lat="44.07648468" lon="-72.05767059">
    <tag k="addr:city" v="Newbury"/>
    <tag k="addr:housenumber" v="5197"/>
    <tag k="addr:street" v="Main Street South"/>
    <tag k="addr:state" v="VT"/>
    <tag k="ref:vcgi:esiteid" v="174278"/>
  </node>
  <node id="-898" visible="true" lat="44.07640075" lon="-72.05838012">
    <tag k="addr:city" v="Newbury"/>
    <tag k="addr:housenumber" v="5196"/>
    <tag k="addr:street" v="Main Street South"/>
    <tag k="addr:state" v="VT"/>
    <tag k="ref:vcgi:esiteid" v="174280"/>
  </node>
  <node id="-899" visible="true" lat="44.07629776" lon="-72.05760192">
    <tag k="addr:city" v="Newbury"/>
    <tag k="addr:housenumber" v="5209"/>
    <tag k="addr:street" v="Main Street South"/>
    <tag k="addr:state" v="VT"/>
    <tag k="ref:vcgi:esiteid" v="174281"/>
  </node>
  <node id="-900" visible="true" lat="44.07608343" lon="-72.05832814">
    <tag k="addr:city" v="Newbury"/>
    <tag k="addr:housenumber" v="5214"/>
    <tag k="addr:street" v="Main Street South"/>
    <tag k="addr:state" v="VT"/>
    <tag k="ref:vcgi:esiteid" v="174282"/>
  </node>
  <node id="-902" visible="true" lat="44.07607269" lon="-72.05764007">
    <tag k="addr:city" v="Newbury"/>
    <tag k="addr:housenumber" v="5225"/>
    <tag k="addr:street" v="Main Street South"/>
    <tag k="addr:state" v="VT"/>
    <tag k="ref:vcgi:esiteid" v="174284"/>
  </node>
  <node id="-903" visible="true" lat="44.07592053" lon="-72.05830846">
    <tag k="addr:city" v="Newbury"/>
    <tag k="addr:housenumber" v="5232"/>
    <tag k="addr:street" v="Main Street South"/>
    <tag k="addr:state" v="VT"/>
    <tag k="ref:vcgi:esiteid" v="174286"/>
  </node>
  <node id="-904" visible="true" lat="44.07569988" lon="-72.05759837">
    <tag k="addr:city" v="Newbury"/>
    <tag k="addr:housenumber" v="5243"/>
    <tag k="addr:street" v="Main Street South"/>
    <tag k="addr:state" v="VT"/>
    <tag k="ref:vcgi:esiteid" v="174287"/>
  </node>
  <node id="-906" visible="true" lat="44.07534296" lon="-72.05812731">
    <tag k="addr:city" v="Newbury"/>
    <tag k="addr:housenumber" v="5266"/>
    <tag k="addr:street" v="Main Street South"/>
    <tag k="addr:state" v="VT"/>
    <tag k="ref:vcgi:esiteid" v="174289"/>
  </node>
  <node id="-908" visible="true" lat="44.0750706" lon="-72.05676683">
    <tag k="addr:city" v="Newbury"/>
    <tag k="addr:housenumber" v="5299"/>
    <tag k="addr:street" v="Main Street South"/>
    <tag k="addr:state" v="VT"/>
    <tag k="ref:vcgi:esiteid" v="174291"/>
  </node>
  <node id="-910" visible="true" lat="44.07500823" lon="-72.05806956">
    <tag k="addr:city" v="Newbury"/>
    <tag k="addr:housenumber" v="5294"/>
    <tag k="addr:street" v="Main Street South"/>
    <tag k="addr:state" v="VT"/>
    <tag k="ref:vcgi:esiteid" v="174294"/>
  </node>
  <node id="-912" visible="true" lat="44.07452347" lon="-72.05801709">
    <tag k="addr:city" v="Newbury"/>
    <tag k="addr:housenumber" v="5318"/>
    <tag k="addr:street" v="Main Street South"/>
    <tag k="addr:state" v="VT"/>
    <tag k="ref:vcgi:esiteid" v="174296"/>
  </node>
  <node id="-913" visible="true" lat="44.07458306" lon="-72.05698066">
    <tag k="addr:city" v="Newbury"/>
    <tag k="addr:housenumber" v="5331"/>
    <tag k="addr:street" v="Main Street South"/>
    <tag k="addr:state" v="VT"/>
    <tag k="ref:vcgi:esiteid" v="174297"/>
  </node>
  <node id="-914" visible="true" lat="44.07422415" lon="-72.05390343">
    <tag k="addr:city" v="Newbury"/>
    <tag k="addr:housenumber" v="181"/>
    <tag k="addr:street" v="Evergreen Drive"/>
    <tag k="addr:state" v="VT"/>
    <tag k="ref:vcgi:esiteid" v="174299"/>
  </node>
  <node id="-915" visible="true" lat="44.07416862" lon="-72.05785775">
    <tag k="addr:city" v="Newbury"/>
    <tag k="addr:housenumber" v="5350"/>
    <tag k="addr:street" v="Main Street South"/>
    <tag k="addr:state" v="VT"/>
    <tag k="ref:vcgi:esiteid" v="174300"/>
  </node>
  <node id="-916" visible="true" lat="44.07424908" lon="-72.09719718">
    <tag k="addr:city" v="Newbury"/>
    <tag k="addr:housenumber" v="1711"/>
    <tag k="addr:street" v="Peach Brook Road"/>
    <tag k="addr:state" v="VT"/>
    <tag k="ref:vcgi:esiteid" v="174301"/>
  </node>
  <node id="-917" visible="true" lat="44.0741732" lon="-72.05473927">
    <tag k="addr:city" v="Newbury"/>
    <tag k="addr:housenumber" v="137"/>
    <tag k="addr:street" v="Evergreen Drive"/>
    <tag k="addr:state" v="VT"/>
    <tag k="ref:vcgi:esiteid" v="174302"/>
  </node>
  <node id="-918" visible="true" lat="44.07414472" lon="-72.05317612">
    <tag k="addr:city" v="Newbury"/>
    <tag k="addr:housenumber" v="189"/>
    <tag k="addr:street" v="Evergreen Drive"/>
    <tag k="addr:state" v="VT"/>
    <tag k="ref:vcgi:esiteid" v="174303"/>
  </node>
  <node id="-919" visible="true" lat="44.07412697" lon="-72.0556793">
    <tag k="addr:city" v="Newbury"/>
    <tag k="addr:housenumber" v="95"/>
    <tag k="addr:street" v="Evergreen Drive"/>
    <tag k="addr:state" v="VT"/>
    <tag k="ref:vcgi:esiteid" v="174304"/>
  </node>
  <node id="-920" visible="true" lat="44.07416439" lon="-72.05516326">
    <tag k="addr:city" v="Newbury"/>
    <tag k="addr:housenumber" v="119"/>
    <tag k="addr:street" v="Evergreen Drive"/>
    <tag k="addr:state" v="VT"/>
    <tag k="ref:vcgi:esiteid" v="174305"/>
  </node>
  <node id="-921" visible="true" lat="44.07407161" lon="-72.05633724">
    <tag k="addr:city" v="Newbury"/>
    <tag k="addr:housenumber" v="55"/>
    <tag k="addr:street" v="Evergreen Drive"/>
    <tag k="addr:state" v="VT"/>
    <tag k="ref:vcgi:esiteid" v="174306"/>
  </node>
  <node id="-922" visible="true" lat="44.07408555" lon="-72.05605497">
    <tag k="addr:city" v="Newbury"/>
    <tag k="addr:housenumber" v="75"/>
    <tag k="addr:street" v="Evergreen Drive"/>
    <tag k="addr:state" v="VT"/>
    <tag k="ref:vcgi:esiteid" v="174307"/>
  </node>
  <node id="-923" visible="true" lat="44.0739109" lon="-72.05676433">
    <tag k="addr:city" v="Newbury"/>
    <tag k="addr:housenumber" v="33"/>
    <tag k="addr:street" v="Evergreen Drive"/>
    <tag k="addr:state" v="VT"/>
    <tag k="ref:vcgi:esiteid" v="174308"/>
  </node>
  <node id="-924" visible="true" lat="44.07405221" lon="-72.05726974">
    <tag k="addr:city" v="Newbury"/>
    <tag k="addr:housenumber" v="5365"/>
    <tag k="addr:street" v="Main Street South"/>
    <tag k="addr:state" v="VT"/>
    <tag k="ref:vcgi:esiteid" v="174309"/>
  </node>
  <node id="-925" visible="true" lat="44.0739399" lon="-72.05777773">
    <tag k="addr:city" v="Newbury"/>
    <tag k="addr:housenumber" v="5368"/>
    <tag k="addr:street" v="Main Street South"/>
    <tag k="addr:state" v="VT"/>
    <tag k="ref:vcgi:esiteid" v="174310"/>
  </node>
  <node id="-927" visible="true" lat="44.07386561" lon="-72.05523537">
    <tag k="addr:city" v="Newbury"/>
    <tag k="addr:housenumber" v="112"/>
    <tag k="addr:street" v="Evergreen Drive"/>
    <tag k="addr:state" v="VT"/>
    <tag k="ref:vcgi:esiteid" v="174312"/>
  </node>
  <node id="-928" visible="true" lat="44.07383723" lon="-72.05424635">
    <tag k="addr:city" v="Newbury"/>
    <tag k="addr:housenumber" v="162"/>
    <tag k="addr:street" v="Evergreen Drive"/>
    <tag k="addr:state" v="VT"/>
    <tag k="ref:vcgi:esiteid" v="174313"/>
  </node>
  <node id="-930" visible="true" lat="44.07371855" lon="-72.05619945">
    <tag k="addr:city" v="Newbury"/>
    <tag k="addr:housenumber" v="64"/>
    <tag k="addr:street" v="Evergreen Drive"/>
    <tag k="addr:state" v="VT"/>
    <tag k="ref:vcgi:esiteid" v="174316"/>
  </node>
  <node id="-932" visible="true" lat="44.07361252" lon="-72.05773634">
    <tag k="addr:city" v="Newbury"/>
    <tag k="addr:housenumber" v="5392"/>
    <tag k="addr:street" v="Main Street South"/>
    <tag k="addr:state" v="VT"/>
    <tag k="ref:vcgi:esiteid" v="174318"/>
  </node>
  <node id="-933" visible="true" lat="44.07347107" lon="-72.05381011">
    <tag k="addr:city" v="Newbury"/>
    <tag k="addr:housenumber" v="5451"/>
    <tag k="addr:street" v="Main Street South"/>
    <tag k="addr:state" v="VT"/>
    <tag k="ref:vcgi:esiteid" v="174319"/>
  </node>
  <node id="-934" visible="true" lat="44.07338558" lon="-72.05602023">
    <tag k="addr:city" v="Newbury"/>
    <tag k="addr:housenumber" v="5447"/>
    <tag k="addr:street" v="Main Street South"/>
    <tag k="addr:state" v="VT"/>
    <tag k="ref:vcgi:esiteid" v="174320"/>
  </node>
  <node id="-936" visible="true" lat="44.07322223" lon="-72.05759676">
    <tag k="addr:city" v="Newbury"/>
    <tag k="addr:housenumber" v="5418"/>
    <tag k="addr:street" v="Main Street South"/>
    <tag k="addr:state" v="VT"/>
    <tag k="ref:vcgi:esiteid" v="174322"/>
  </node>
  <node id="-937" visible="true" lat="44.07313282" lon="-72.05701364">
    <tag k="addr:city" v="Newbury"/>
    <tag k="addr:housenumber" v="5427"/>
    <tag k="addr:street" v="Main Street South"/>
    <tag k="addr:state" v="VT"/>
    <tag k="ref:vcgi:esiteid" v="174323"/>
  </node>
  <node id="-939" visible="true" lat="44.07280057" lon="-72.05754319">
    <tag k="addr:city" v="Newbury"/>
    <tag k="addr:housenumber" v="5444"/>
    <tag k="addr:street" v="Main Street South"/>
    <tag k="addr:state" v="VT"/>
    <tag k="ref:vcgi:esiteid" v="174326"/>
  </node>
  <node id="-940" visible="true" lat="44.07294082" lon="-72.09494781">
    <tag k="addr:city" v="Newbury"/>
    <tag k="addr:housenumber" v="1521"/>
    <tag k="addr:street" v="Peach Brook Road"/>
    <tag k="addr:state" v="VT"/>
    <tag k="ref:vcgi:esiteid" v="174327"/>
  </node>
  <node id="-944" visible="true" lat="44.07237334" lon="-72.05692748">
    <tag k="addr:city" v="Newbury"/>
    <tag k="addr:housenumber" v="5477"/>
    <tag k="addr:street" v="Main Street South"/>
    <tag k="addr:state" v="VT"/>
    <tag k="ref:vcgi:esiteid" v="174331"/>
  </node>
  <node id="-946" visible="true" lat="44.07161464" lon="-72.05503622">
    <tag k="addr:city" v="Newbury"/>
    <tag k="addr:housenumber" v="5449"/>
    <tag k="addr:street" v="Main Street South"/>
    <tag k="addr:state" v="VT"/>
    <tag k="ref:vcgi:esiteid" v="174333"/>
  </node>
  <node id="-948" visible="true" lat="44.07168579" lon="-72.05767059">
    <tag k="addr:city" v="Newbury"/>
    <tag k="addr:housenumber" v="5534"/>
    <tag k="addr:street" v="Main Street South"/>
    <tag k="addr:state" v="VT"/>
    <tag k="ref:vcgi:esiteid" v="174335"/>
  </node>
  <node id="-953" visible="true" lat="44.07123183" lon="-72.05711517">
    <tag k="addr:city" v="Newbury"/>
    <tag k="addr:housenumber" v="5545"/>
    <tag k="addr:street" v="Main Street South"/>
    <tag k="addr:state" v="VT"/>
    <tag k="ref:vcgi:esiteid" v="174341"/>
  </node>
  <node id="-967" visible="true" lat="44.06944274" lon="-72.09506225">
    <tag k="addr:city" v="Newbury"/>
    <tag k="addr:housenumber" v="1293"/>
    <tag k="addr:street" v="Peach Brook Road"/>
    <tag k="addr:state" v="VT"/>
    <tag k="ref:vcgi:esiteid" v="174356"/>
  </node>
  <node id="-968" visible="true" lat="44.06917953" lon="-72.058815">
    <tag k="addr:city" v="Newbury"/>
    <tag k="addr:housenumber" v="5720"/>
    <tag k="addr:street" v="U.S. Route 5 South"/>
    <tag k="addr:state" v="VT"/>
    <tag k="ref:vcgi:esiteid" v="174357"/>
  </node>
  <node id="-969" visible="true" lat="44.06928253" lon="-72.09373474">
    <tag k="addr:city" v="Newbury"/>
    <tag k="addr:housenumber" v="1247"/>
    <tag k="addr:street" v="Peach Brook Road"/>
    <tag k="addr:state" v="VT"/>
    <tag k="ref:vcgi:esiteid" v="174358"/>
  </node>
  <node id="-971" visible="true" lat="44.06824874" lon="-72.09370422">
    <tag k="addr:city" v="Newbury"/>
    <tag k="addr:housenumber" v="1177"/>
    <tag k="addr:street" v="Peach Brook Road"/>
    <tag k="addr:state" v="VT"/>
    <tag k="ref:vcgi:esiteid" v="174361"/>
  </node>
  <node id="-972" visible="true" lat="44.06803223" lon="-72.05987854">
    <tag k="addr:city" v="Newbury"/>
    <tag k="addr:housenumber" v="5810"/>
    <tag k="addr:street" v="U.S. Route 5 South"/>
    <tag k="addr:state" v="VT"/>
    <tag k="ref:vcgi:esiteid" v="174362"/>
  </node>
  <node id="-975" visible="true" lat="44.06689544" lon="-72.06054037">
    <tag k="addr:city" v="Newbury"/>
    <tag k="addr:housenumber" v="5887"/>
    <tag k="addr:street" v="U.S. Route 5 South"/>
    <tag k="addr:state" v="VT"/>
    <tag k="ref:vcgi:esiteid" v="174366"/>
  </node>
  <node id="-980" visible="true" lat="44.06662456" lon="-72.09255325">
    <tag k="addr:city" v="Newbury"/>
    <tag k="addr:housenumber" v="1522"/>
    <tag k="addr:street" v="Moore Hill Road"/>
    <tag k="addr:state" v="VT"/>
    <tag k="ref:vcgi:esiteid" v="174371"/>
  </node>
  <node id="-982" visible="true" lat="44.06648635" lon="-72.06945037">
    <tag k="addr:city" v="Newbury"/>
    <tag k="addr:housenumber" v="274"/>
    <tag k="addr:street" v="Moore Hill Road"/>
    <tag k="addr:state" v="VT"/>
    <tag k="ref:vcgi:esiteid" v="174373"/>
  </node>
  <node id="-985" visible="true" lat="44.06619644" lon="-72.06215667">
    <tag k="addr:city" v="Newbury"/>
    <tag k="addr:housenumber" v="5988"/>
    <tag k="addr:street" v="U.S. Route 5 South"/>
    <tag k="addr:state" v="VT"/>
    <tag k="ref:vcgi:esiteid" v="174376"/>
  </node>
  <node id="-986" visible="true" lat="44.06618278" lon="-72.09123294">
    <tag k="addr:city" v="Newbury"/>
    <tag k="addr:housenumber" v="1457"/>
    <tag k="addr:street" v="Moore Hill Road"/>
    <tag k="addr:state" v="VT"/>
    <tag k="ref:vcgi:esiteid" v="174377"/>
  </node>
  <node id="-987" visible="true" lat="44.06613922" lon="-72.09535217">
    <tag k="addr:city" v="Newbury"/>
    <tag k="addr:housenumber" v="1664"/>
    <tag k="addr:street" v="Moore Hill Road"/>
    <tag k="addr:state" v="VT"/>
    <tag k="ref:vcgi:esiteid" v="174378"/>
  </node>
  <node id="-992" visible="true" lat="44.06556089" lon="-72.06280848">
    <tag k="addr:city" v="Newbury"/>
    <tag k="addr:housenumber" v="6036"/>
    <tag k="addr:street" v="U.S. Route 5 South"/>
    <tag k="addr:state" v="VT"/>
    <tag k="ref:vcgi:esiteid" v="174383"/>
  </node>
  <node id="-993" visible="true" lat="44.06660957" lon="-72.06773578">
    <tag k="addr:city" v="Newbury"/>
    <tag k="addr:housenumber" v="236"/>
    <tag k="addr:street" v="Moore Hill Road"/>
    <tag k="addr:state" v="VT"/>
    <tag k="ref:vcgi:esiteid" v="174384"/>
  </node>
  <node id="-995" visible="true" lat="44.06576973" lon="-72.06779957">
    <tag k="addr:city" v="Newbury"/>
    <tag k="addr:housenumber" v="194"/>
    <tag k="addr:street" v="Moore Hill Road"/>
    <tag k="addr:state" v="VT"/>
    <tag k="ref:vcgi:esiteid" v="174387"/>
  </node>
  <node id="-997" visible="true" lat="44.06546515" lon="-72.09705074">
    <tag k="addr:city" v="Newbury"/>
    <tag k="addr:housenumber" v="1739"/>
    <tag k="addr:street" v="Moore Hill Road"/>
    <tag k="addr:state" v="VT"/>
    <tag k="ref:vcgi:esiteid" v="174389"/>
  </node>
  <node id="-998" visible="true" lat="44.06516035" lon="-72.06325861">
    <tag k="addr:city" v="Newbury"/>
    <tag k="addr:housenumber" v="6072"/>
    <tag k="addr:street" v="U.S. Route 5 South"/>
    <tag k="addr:state" v="VT"/>
    <tag k="ref:vcgi:esiteid" v="174390"/>
  </node>
  <node id="-999" visible="true" lat="44.06537628" lon="-72.07128143">
    <tag k="addr:city" v="Newbury"/>
    <tag k="addr:housenumber" v="362"/>
    <tag k="addr:street" v="Moore Hill Road"/>
    <tag k="addr:state" v="VT"/>
    <tag k="ref:vcgi:esiteid" v="174391"/>
  </node>
  <node id="-1001" visible="true" lat="44.06521224" lon="-72.06181335">
    <tag k="addr:city" v="Newbury"/>
    <tag k="addr:housenumber" v="6059"/>
    <tag k="addr:street" v="U.S. Route 5 South"/>
    <tag k="addr:state" v="VT"/>
    <tag k="ref:vcgi:esiteid" v="174394"/>
  </node>
  <node id="-1003" visible="true" lat="44.06505584" lon="-72.06797027">
    <tag k="addr:city" v="Newbury"/>
    <tag k="addr:housenumber" v="173"/>
    <tag k="addr:street" v="Moore Hill Road"/>
    <tag k="addr:state" v="VT"/>
    <tag k="ref:vcgi:esiteid" v="174396"/>
  </node>
  <node id="-1005" visible="true" lat="44.06489494" lon="-72.06703483">
    <tag k="addr:city" v="Newbury"/>
    <tag k="addr:housenumber" v="134"/>
    <tag k="addr:street" v="Moore Hill Road"/>
    <tag k="addr:state" v="VT"/>
    <tag k="ref:vcgi:esiteid" v="174398"/>
  </node>
  <node id="-1006" visible="true" lat="44.06504712" lon="-72.09273982">
    <tag k="addr:city" v="Newbury"/>
    <tag k="addr:housenumber" v="952"/>
    <tag k="addr:street" v="Peach Brook Road"/>
    <tag k="addr:state" v="VT"/>
    <tag k="ref:vcgi:esiteid" v="174399"/>
  </node>
  <node id="-1008" visible="true" lat="44.06482696" lon="-72.07366943">
    <tag k="addr:city" v="Newbury"/>
    <tag k="addr:housenumber" v="506"/>
    <tag k="addr:street" v="Moore Hill Road"/>
    <tag k="addr:state" v="VT"/>
    <tag k="ref:vcgi:esiteid" v="174401"/>
  </node>
  <node id="-1010" visible="true" lat="44.06460571" lon="-72.07180786">
    <tag k="addr:city" v="Newbury"/>
    <tag k="addr:housenumber" v="409"/>
    <tag k="addr:street" v="Moore Hill Road"/>
    <tag k="addr:state" v="VT"/>
    <tag k="ref:vcgi:esiteid" v="174404"/>
  </node>
  <node id="-1014" visible="true" lat="44.06412312" lon="-72.06734563">
    <tag k="addr:city" v="Newbury"/>
    <tag k="addr:housenumber" v="131"/>
    <tag k="addr:street" v="Moore Hill Road"/>
    <tag k="addr:state" v="VT"/>
    <tag k="ref:vcgi:esiteid" v="174408"/>
  </node>
  <node id="-1016" visible="true" lat="44.06414032" lon="-72.06531524">
    <tag k="addr:city" v="Newbury"/>
    <tag k="addr:housenumber" v="44"/>
    <tag k="addr:street" v="Moore Hill Road"/>
    <tag k="addr:state" v="VT"/>
    <tag k="ref:vcgi:esiteid" v="174410"/>
  </node>
  <node id="-1019" visible="true" lat="44.06389119" lon="-72.06496564">
    <tag k="addr:city" v="Newbury"/>
    <tag k="addr:housenumber" v="18"/>
    <tag k="addr:street" v="Moore Hill Road"/>
    <tag k="addr:state" v="VT"/>
    <tag k="ref:vcgi:esiteid" v="174413"/>
  </node>
  <node id="-1030" visible="true" lat="44.06420508" lon="-72.19951353">
    <tag k="addr:city" v="Newbury"/>
    <tag k="addr:housenumber" v="1697"/>
    <tag k="addr:street" v="Page Hill Road"/>
    <tag k="addr:state" v="VT"/>
    <tag k="ref:vcgi:esiteid" v="174424"/>
  </node>
  <node id="-1036" visible="true" lat="44.06349122" lon="-72.19261593">
    <tag k="addr:city" v="Newbury"/>
    <tag k="addr:housenumber" v="1410"/>
    <tag k="addr:street" v="Fulton Road"/>
    <tag k="addr:state" v="VT"/>
    <tag k="ref:vcgi:esiteid" v="174430"/>
  </node>
  <node id="-1040" visible="true" lat="44.06272888" lon="-72.19154357">
    <tag k="addr:city" v="Newbury"/>
    <tag k="addr:housenumber" v="1351"/>
    <tag k="addr:street" v="Fulton Road"/>
    <tag k="addr:state" v="VT"/>
    <tag k="ref:vcgi:esiteid" v="174435"/>
  </node>
  <node id="-1044" visible="true" lat="44.06205749" lon="-72.06632995">
    <tag k="addr:city" v="Newbury"/>
    <tag k="addr:housenumber" v="6341"/>
    <tag k="addr:street" v="U.S. Route 5 South"/>
    <tag k="addr:state" v="VT"/>
    <tag k="ref:vcgi:esiteid" v="174439"/>
  </node>
  <node id="-1045" visible="true" lat="44.0621376" lon="-72.10696411">
    <tag k="addr:city" v="Newbury"/>
    <tag k="addr:housenumber" v="2107"/>
    <tag k="addr:street" v="Snake Road"/>
    <tag k="addr:state" v="VT"/>
    <tag k="ref:vcgi:esiteid" v="174440"/>
  </node>
  <node id="-1046" visible="true" lat="44.06206893" lon="-72.1050949">
    <tag k="addr:city" v="Newbury"/>
    <tag k="addr:housenumber" v="2040"/>
    <tag k="addr:street" v="Snake Road"/>
    <tag k="addr:state" v="VT"/>
    <tag k="ref:vcgi:esiteid" v="174441"/>
  </node>
  <node id="-1047" visible="true" lat="44.06204605" lon="-72.10657501">
    <tag k="addr:city" v="Newbury"/>
    <tag k="addr:housenumber" v="2089"/>
    <tag k="addr:street" v="Snake Road"/>
    <tag k="addr:state" v="VT"/>
    <tag k="ref:vcgi:esiteid" v="174442"/>
  </node>
  <node id="-1050" visible="true" lat="44.06167602" lon="-72.10588073">
    <tag k="addr:city" v="Newbury"/>
    <tag k="addr:housenumber" v="2041"/>
    <tag k="addr:street" v="Snake Road"/>
    <tag k="addr:state" v="VT"/>
    <tag k="ref:vcgi:esiteid" v="174445"/>
  </node>
  <node id="-1054" visible="true" lat="44.06122207" lon="-72.10520172">
    <tag k="addr:city" v="Newbury"/>
    <tag k="addr:housenumber" v="1994"/>
    <tag k="addr:street" v="Snake Road"/>
    <tag k="addr:state" v="VT"/>
    <tag k="ref:vcgi:esiteid" v="174449"/>
  </node>
  <node id="-1055" visible="true" lat="44.06092452" lon="-72.10324096">
    <tag k="addr:city" v="Newbury"/>
    <tag k="addr:housenumber" v="1996"/>
    <tag k="addr:street" v="Snake Road"/>
    <tag k="addr:state" v="VT"/>
    <tag k="ref:vcgi:esiteid" v="174450"/>
  </node>
  <node id="-1056" visible="true" lat="44.06093" lon="-72.17890108">
    <tag k="addr:city" v="Newbury"/>
    <tag k="addr:housenumber" v="154"/>
    <tag k="addr:street" v="Dickey Road"/>
    <tag k="addr:state" v="VT"/>
    <tag k="ref:vcgi:esiteid" v="174451"/>
  </node>
  <node id="-1059" visible="true" lat="44.06015014" lon="-72.07047271">
    <tag k="addr:city" v="Newbury"/>
    <tag k="addr:housenumber" v="6576"/>
    <tag k="addr:street" v="U.S. Route 5 South"/>
    <tag k="addr:state" v="VT"/>
    <tag k="ref:vcgi:esiteid" v="174455"/>
  </node>
  <node id="-1060" visible="true" lat="44.06027603" lon="-72.18246459">
    <tag k="addr:city" v="Newbury"/>
    <tag k="addr:housenumber" v="777"/>
    <tag k="addr:street" v="Fulton Road"/>
    <tag k="addr:state" v="VT"/>
    <tag k="ref:vcgi:esiteid" v="174456"/>
  </node>
  <node id="-1061" visible="true" lat="44.05884831" lon="-72.09521743">
    <tag k="addr:city" v="Newbury"/>
    <tag k="addr:housenumber" v="467"/>
    <tag k="addr:street" v="Peach Brook Road"/>
    <tag k="addr:state" v="VT"/>
    <tag k="ref:vcgi:esiteid" v="174457"/>
  </node>
  <node id="-1063" visible="true" lat="44.05881118" lon="-72.0933609">
    <tag k="addr:city" v="Newbury"/>
    <tag k="addr:housenumber" v="510"/>
    <tag k="addr:street" v="Peach Brook Road"/>
    <tag k="addr:state" v="VT"/>
    <tag k="ref:vcgi:esiteid" v="174459"/>
  </node>
  <node id="-1064" visible="true" lat="44.05881417" lon="-72.09425392">
    <tag k="addr:city" v="Newbury"/>
    <tag k="addr:housenumber" v="495"/>
    <tag k="addr:street" v="Peach Brook Road"/>
    <tag k="addr:state" v="VT"/>
    <tag k="ref:vcgi:esiteid" v="174460"/>
  </node>
  <node id="-1067" visible="true" lat="44.05881287" lon="-72.17930662">
    <tag k="addr:city" v="Newbury"/>
    <tag k="addr:housenumber" v="582"/>
    <tag k="addr:street" v="Fulton Road"/>
    <tag k="addr:state" v="VT"/>
    <tag k="ref:vcgi:esiteid" v="174463"/>
  </node>
  <node id="-1069" visible="true" lat="44.05817031" lon="-72.0952835">
    <tag k="addr:city" v="Newbury"/>
    <tag k="addr:housenumber" v="437"/>
    <tag k="addr:street" v="Peach Brook Road"/>
    <tag k="addr:state" v="VT"/>
    <tag k="ref:vcgi:esiteid" v="174465"/>
  </node>
  <node id="-1071" visible="true" lat="44.0579002" lon="-72.1285933">
    <tag k="addr:city" v="Newbury"/>
    <tag k="addr:housenumber" v="346"/>
    <tag k="addr:street" v="Rogers Hill Road"/>
    <tag k="addr:state" v="VT"/>
    <tag k="ref:vcgi:esiteid" v="174467"/>
  </node>
  <node id="-1073" visible="true" lat="44.05713272" lon="-72.09490203">
    <tag k="addr:city" v="Newbury"/>
    <tag k="addr:housenumber" v="377"/>
    <tag k="addr:street" v="Peach Brook Road"/>
    <tag k="addr:state" v="VT"/>
    <tag k="ref:vcgi:esiteid" v="174469"/>
  </node>
  <node id="-1074" visible="true" lat="44.05726242" lon="-72.13513183">
    <tag k="addr:city" v="Newbury"/>
    <tag k="addr:housenumber" v="310"/>
    <tag k="addr:street" v="Old Stagecoach Road"/>
    <tag k="addr:state" v="VT"/>
    <tag k="ref:vcgi:esiteid" v="174470"/>
  </node>
  <node id="-1075" visible="true" lat="44.0563774" lon="-72.0723648">
    <tag k="addr:city" v="Newbury"/>
    <tag k="addr:housenumber" v="6846"/>
    <tag k="addr:street" v="U.S. Route 5 South"/>
    <tag k="addr:state" v="VT"/>
    <tag k="ref:vcgi:esiteid" v="174471"/>
  </node>
  <node id="-1076" visible="true" lat="44.05638122" lon="-72.13445281">
    <tag k="addr:city" v="Newbury"/>
    <tag k="addr:housenumber" v="237"/>
    <tag k="addr:street" v="Old Stagecoach Road"/>
    <tag k="addr:state" v="VT"/>
    <tag k="ref:vcgi:esiteid" v="174472"/>
  </node>
  <node id="-1077" visible="true" lat="44.05634689" lon="-72.13697814">
    <tag k="addr:city" v="Newbury"/>
    <tag k="addr:housenumber" v="341"/>
    <tag k="addr:street" v="Old Stagecoach Road"/>
    <tag k="addr:state" v="VT"/>
    <tag k="ref:vcgi:esiteid" v="174473"/>
  </node>
  <node id="-1078" visible="true" lat="44.05622482" lon="-72.13306426">
    <tag k="addr:city" v="Newbury"/>
    <tag k="addr:housenumber" v="160"/>
    <tag k="addr:street" v="Old Stagecoach Road"/>
    <tag k="addr:state" v="VT"/>
    <tag k="ref:vcgi:esiteid" v="174474"/>
  </node>
  <node id="-1079" visible="true" lat="44.05564117" lon="-72.13359832">
    <tag k="addr:city" v="Newbury"/>
    <tag k="addr:housenumber" v="215"/>
    <tag k="addr:street" v="Old Stagecoach Road"/>
    <tag k="addr:state" v="VT"/>
    <tag k="ref:vcgi:esiteid" v="174475"/>
  </node>
  <node id="-1080" visible="true" lat="44.05555894" lon="-72.13116212">
    <tag k="addr:city" v="Newbury"/>
    <tag k="addr:housenumber" v="64"/>
    <tag k="addr:street" v="Old Stagecoach Road"/>
    <tag k="addr:state" v="VT"/>
    <tag k="ref:vcgi:esiteid" v="174476"/>
  </node>
  <node id="-1082" visible="true" lat="44.05522918" lon="-72.13311004">
    <tag k="addr:city" v="Newbury"/>
    <tag k="addr:housenumber" v="161"/>
    <tag k="addr:street" v="Old Stagecoach Road"/>
    <tag k="addr:state" v="VT"/>
    <tag k="ref:vcgi:esiteid" v="174478"/>
  </node>
  <node id="-1084" visible="true" lat="44.0550426" lon="-72.0717441">
    <tag k="addr:city" v="Newbury"/>
    <tag k="addr:housenumber" v="6941"/>
    <tag k="addr:street" v="U.S. Route 5 South"/>
    <tag k="addr:state" v="VT"/>
    <tag k="ref:vcgi:esiteid" v="174480"/>
  </node>
  <node id="-1085" visible="true" lat="44.05539818" lon="-72.11769515">
    <tag k="addr:city" v="Newbury"/>
    <tag k="addr:housenumber" v="321"/>
    <tag k="addr:street" v="Cole Road"/>
    <tag k="addr:state" v="VT"/>
    <tag k="ref:vcgi:esiteid" v="174481"/>
  </node>
  <node id="-1090" visible="true" lat="44.05377578" lon="-72.13282013">
    <tag k="addr:city" v="Newbury"/>
    <tag k="addr:housenumber" v="746"/>
    <tag k="addr:street" v="Rogers Hill Road"/>
    <tag k="addr:state" v="VT"/>
    <tag k="ref:vcgi:esiteid" v="174486"/>
  </node>
  <node id="-1094" visible="true" lat="44.05300277" lon="-72.12793001">
    <tag k="addr:city" v="Newbury"/>
    <tag k="addr:housenumber" v="188"/>
    <tag k="addr:street" v="Lower Meadow Road"/>
    <tag k="addr:state" v="VT"/>
    <tag k="ref:vcgi:esiteid" v="174490"/>
  </node>
  <node id="-1096" visible="true" lat="44.05290985" lon="-72.11280822">
    <tag k="addr:city" v="Newbury"/>
    <tag k="addr:housenumber" v="727"/>
    <tag k="addr:street" v="Cole Road"/>
    <tag k="addr:state" v="VT"/>
    <tag k="ref:vcgi:esiteid" v="174492"/>
  </node>
  <node id="-1097" visible="true" lat="44.05265784" lon="-72.12577863">
    <tag k="addr:city" v="Newbury"/>
    <tag k="addr:housenumber" v="115"/>
    <tag k="addr:street" v="Lower Meadow Road"/>
    <tag k="addr:state" v="VT"/>
    <tag k="ref:vcgi:esiteid" v="174493"/>
  </node>
  <node id="-1098" visible="true" lat="44.05292649" lon="-72.12671997">
    <tag k="addr:city" v="Newbury"/>
    <tag k="addr:housenumber" v="191"/>
    <tag k="addr:street" v="Lower Meadow Road"/>
    <tag k="addr:state" v="VT"/>
    <tag k="ref:vcgi:esiteid" v="174494"/>
  </node>
  <node id="-1102" visible="true" lat="44.0524917" lon="-72.13263658">
    <tag k="addr:city" v="Newbury"/>
    <tag k="addr:housenumber" v="796"/>
    <tag k="addr:street" v="Rogers Hill Road"/>
    <tag k="addr:state" v="VT"/>
    <tag k="ref:vcgi:esiteid" v="174498"/>
  </node>
  <node id="-1105" visible="true" lat="44.05205154" lon="-72.12274169">
    <tag k="addr:city" v="Newbury"/>
    <tag k="addr:housenumber" v="80"/>
    <tag k="addr:street" v="French Road"/>
    <tag k="addr:state" v="VT"/>
    <tag k="ref:vcgi:esiteid" v="174501"/>
  </node>
  <node id="-1107" visible="true" lat="44.05160522" lon="-72.11488342">
    <tag k="addr:city" v="Newbury"/>
    <tag k="addr:housenumber" v="630"/>
    <tag k="addr:street" v="Cole Road"/>
    <tag k="addr:state" v="VT"/>
    <tag k="ref:vcgi:esiteid" v="174503"/>
  </node>
  <node id="-1108" visible="true" lat="44.05028413" lon="-72.12627237">
    <tag k="addr:city" v="Newbury"/>
    <tag k="addr:housenumber" v="265"/>
    <tag k="addr:street" v="French Road"/>
    <tag k="addr:state" v="VT"/>
    <tag k="ref:vcgi:esiteid" v="174504"/>
  </node>
  <node id="-1111" visible="true" lat="44.05115509" lon="-72.11283874">
    <tag k="addr:city" v="Newbury"/>
    <tag k="addr:housenumber" v="740"/>
    <tag k="addr:street" v="Cole Road"/>
    <tag k="addr:state" v="VT"/>
    <tag k="ref:vcgi:esiteid" v="174507"/>
  </node>
  <node id="-1112" visible="true" lat="44.05109517" lon="-72.13400767">
    <tag k="addr:city" v="Newbury"/>
    <tag k="addr:housenumber" v="936"/>
    <tag k="addr:street" v="Rogers Hill Road"/>
    <tag k="addr:state" v="VT"/>
    <tag k="ref:vcgi:esiteid" v="174508"/>
  </node>
  <node id="-1113" visible="true" lat="44.05107333" lon="-72.12483522">
    <tag k="addr:city" v="Newbury"/>
    <tag k="addr:housenumber" v="257"/>
    <tag k="addr:street" v="French Road"/>
    <tag k="addr:state" v="VT"/>
    <tag k="ref:vcgi:esiteid" v="174509"/>
  </node>
  <node id="-1115" visible="true" lat="44.05078887" lon="-72.12741851">
    <tag k="addr:city" v="Newbury"/>
    <tag k="addr:housenumber" v="217"/>
    <tag k="addr:street" v="Lower Meadow Road"/>
    <tag k="addr:state" v="VT"/>
    <tag k="ref:vcgi:esiteid" v="174511"/>
  </node>
  <node id="-1116" visible="true" lat="44.05065536" lon="-72.09227752">
    <tag k="addr:city" v="Newbury"/>
    <tag k="addr:housenumber" v="799"/>
    <tag k="addr:street" v="Snake Road"/>
    <tag k="addr:state" v="VT"/>
    <tag k="ref:vcgi:esiteid" v="174512"/>
  </node>
  <node id="-1117" visible="true" lat="44.05052432" lon="-72.13261554">
    <tag k="addr:city" v="Newbury"/>
    <tag k="addr:housenumber" v="883"/>
    <tag k="addr:street" v="Rogers Hill Road"/>
    <tag k="addr:state" v="VT"/>
    <tag k="ref:vcgi:esiteid" v="174513"/>
  </node>
  <node id="-1118" visible="true" lat="44.05033493" lon="-72.09371185">
    <tag k="addr:city" v="Newbury"/>
    <tag k="addr:housenumber" v="96"/>
    <tag k="addr:street" v="Old West Newbury Road"/>
    <tag k="addr:state" v="VT"/>
    <tag k="ref:vcgi:esiteid" v="174514"/>
  </node>
  <node id="-1119" visible="true" lat="44.05024337" lon="-72.12172698">
    <tag k="addr:city" v="Newbury"/>
    <tag k="addr:housenumber" v="975"/>
    <tag k="addr:street" v="Tyler Farm Road"/>
    <tag k="addr:state" v="VT"/>
    <tag k="ref:vcgi:esiteid" v="174515"/>
  </node>
  <node id="-1121" visible="true" lat="44.05002731" lon="-72.10487831">
    <tag k="addr:city" v="Newbury"/>
    <tag k="addr:housenumber" v="694"/>
    <tag k="addr:street" v="Old West Newbury Road"/>
    <tag k="addr:state" v="VT"/>
    <tag k="ref:vcgi:esiteid" v="174517"/>
  </node>
  <node id="-1122" visible="true" lat="44.04987335" lon="-72.09594726">
    <tag k="addr:city" v="Newbury"/>
    <tag k="addr:housenumber" v="204"/>
    <tag k="addr:street" v="Old West Newbury Road"/>
    <tag k="addr:state" v="VT"/>
    <tag k="ref:vcgi:esiteid" v="174518"/>
  </node>
  <node id="-1123" visible="true" lat="44.0498352" lon="-72.0918045">
    <tag k="addr:city" v="Newbury"/>
    <tag k="addr:housenumber" v="745"/>
    <tag k="addr:street" v="Snake Road"/>
    <tag k="addr:state" v="VT"/>
    <tag k="ref:vcgi:esiteid" v="174519"/>
  </node>
  <node id="-1124" visible="true" lat="44.04975891" lon="-72.09401702">
    <tag k="addr:city" v="Newbury"/>
    <tag k="addr:housenumber" v="123"/>
    <tag k="addr:street" v="Old West Newbury Road"/>
    <tag k="addr:state" v="VT"/>
    <tag k="ref:vcgi:esiteid" v="174520"/>
  </node>
  <node id="-1126" visible="true" lat="44.04949339" lon="-72.09003829">
    <tag k="addr:city" v="Newbury"/>
    <tag k="addr:housenumber" v="660"/>
    <tag k="addr:street" v="Snake Road"/>
    <tag k="addr:state" v="VT"/>
    <tag k="ref:vcgi:esiteid" v="174522"/>
  </node>
  <node id="-1127" visible="true" lat="44.04934726" lon="-72.09143717">
    <tag k="addr:city" v="Newbury"/>
    <tag k="addr:housenumber" v="715"/>
    <tag k="addr:street" v="Snake Road"/>
    <tag k="addr:state" v="VT"/>
    <tag k="ref:vcgi:esiteid" v="174523"/>
  </node>
  <node id="-1129" visible="true" lat="44.0492134" lon="-72.09750366">
    <tag k="addr:city" v="Newbury"/>
    <tag k="addr:housenumber" v="330"/>
    <tag k="addr:street" v="Old West Newbury Road"/>
    <tag k="addr:state" v="VT"/>
    <tag k="ref:vcgi:esiteid" v="174525"/>
  </node>
  <node id="-1130" visible="true" lat="44.04897689" lon="-72.10472869">
    <tag k="addr:city" v="Newbury"/>
    <tag k="addr:housenumber" v="669"/>
    <tag k="addr:street" v="Old West Newbury Road"/>
    <tag k="addr:state" v="VT"/>
    <tag k="ref:vcgi:esiteid" v="174526"/>
  </node>
  <node id="-1131" visible="true" lat="44.0491334" lon="-72.13617778">
    <tag k="addr:city" v="Newbury"/>
    <tag k="addr:housenumber" v="86"/>
    <tag k="addr:street" v="Upper Rogers Road"/>
    <tag k="addr:state" v="VT"/>
    <tag k="ref:vcgi:esiteid" v="174527"/>
  </node>
  <node id="-1132" visible="true" lat="44.04891586" lon="-72.08973693">
    <tag k="addr:city" v="Newbury"/>
    <tag k="addr:housenumber" v="632"/>
    <tag k="addr:street" v="Snake Road"/>
    <tag k="addr:state" v="VT"/>
    <tag k="ref:vcgi:esiteid" v="174528"/>
  </node>
  <node id="-1133" visible="true" lat="44.04902286" lon="-72.13588325">
    <tag k="addr:city" v="Newbury"/>
    <tag k="addr:housenumber" v="70"/>
    <tag k="addr:street" v="Upper Rogers Road"/>
    <tag k="addr:state" v="VT"/>
    <tag k="ref:vcgi:esiteid" v="174529"/>
  </node>
  <node id="-1134" visible="true" lat="44.04896822" lon="-72.13823206">
    <tag k="addr:city" v="Newbury"/>
    <tag k="addr:housenumber" v="192"/>
    <tag k="addr:street" v="Upper Rogers Road"/>
    <tag k="addr:state" v="VT"/>
    <tag k="ref:vcgi:esiteid" v="174530"/>
  </node>
  <node id="-1135" visible="true" lat="44.04889573" lon="-72.13715325">
    <tag k="addr:city" v="Newbury"/>
    <tag k="addr:housenumber" v="138"/>
    <tag k="addr:street" v="Upper Rogers Road"/>
    <tag k="addr:state" v="VT"/>
    <tag k="ref:vcgi:esiteid" v="174531"/>
  </node>
  <node id="-1137" visible="true" lat="44.04870223" lon="-72.10316467">
    <tag k="addr:city" v="Newbury"/>
    <tag k="addr:housenumber" v="593"/>
    <tag k="addr:street" v="Old West Newbury Road"/>
    <tag k="addr:state" v="VT"/>
    <tag k="ref:vcgi:esiteid" v="174533"/>
  </node>
  <node id="-1138" visible="true" lat="44.04884168" lon="-72.14379716">
    <tag k="addr:city" v="Newbury"/>
    <tag k="addr:housenumber" v="536"/>
    <tag k="addr:street" v="Upper Rogers Road"/>
    <tag k="addr:state" v="VT"/>
    <tag k="ref:vcgi:esiteid" v="174534"/>
  </node>
  <node id="-1139" visible="true" lat="44.04875872" lon="-72.1426578">
    <tag k="addr:city" v="Newbury"/>
    <tag k="addr:housenumber" v="478"/>
    <tag k="addr:street" v="Upper Rogers Road"/>
    <tag k="addr:state" v="VT"/>
    <tag k="ref:vcgi:esiteid" v="174535"/>
  </node>
  <node id="-1140" visible="true" lat="44.04846954" lon="-72.08363342">
    <tag k="addr:city" v="Newbury"/>
    <tag k="addr:housenumber" v="221"/>
    <tag k="addr:street" v="Snake Road"/>
    <tag k="addr:state" v="VT"/>
    <tag k="ref:vcgi:esiteid" v="174536"/>
  </node>
  <node id="-1141" visible="true" lat="44.04833111" lon="-72.14475196">
    <tag k="addr:city" v="Newbury"/>
    <tag k="addr:housenumber" v="538"/>
    <tag k="addr:street" v="Upper Rogers Road"/>
    <tag k="addr:state" v="VT"/>
    <tag k="ref:vcgi:esiteid" v="174537"/>
  </node>
  <node id="-1142" visible="true" lat="44.04746292" lon="-72.08118363">
    <tag k="addr:city" v="Newbury"/>
    <tag k="addr:housenumber" v="92"/>
    <tag k="addr:street" v="Snake Road"/>
    <tag k="addr:state" v="VT"/>
    <tag k="ref:vcgi:esiteid" v="174538"/>
  </node>
  <node id="-1143" visible="true" lat="44.04766845" lon="-72.14109039">
    <tag k="addr:city" v="Newbury"/>
    <tag k="addr:housenumber" v="345"/>
    <tag k="addr:street" v="Upper Rogers Road"/>
    <tag k="addr:state" v="VT"/>
    <tag k="ref:vcgi:esiteid" v="174539"/>
  </node>
  <node id="-1146" visible="true" lat="44.04729843" lon="-72.0821228">
    <tag k="addr:city" v="Newbury"/>
    <tag k="addr:housenumber" v="107"/>
    <tag k="addr:street" v="Snake Road"/>
    <tag k="addr:state" v="VT"/>
    <tag k="ref:vcgi:esiteid" v="174542"/>
  </node>
  <node id="-1147" visible="true" lat="44.04721053" lon="-72.084445">
    <tag k="addr:city" v="Newbury"/>
    <tag k="addr:housenumber" v="68"/>
    <tag k="addr:street" v="Doe Lane"/>
    <tag k="addr:state" v="VT"/>
    <tag k="ref:vcgi:esiteid" v="174543"/>
  </node>
  <node id="-1148" visible="true" lat="44.0466107" lon="-72.08510396">
    <tag k="addr:city" v="Newbury"/>
    <tag k="addr:housenumber" v="55"/>
    <tag k="addr:street" v="Doe Lane"/>
    <tag k="addr:state" v="VT"/>
    <tag k="ref:vcgi:esiteid" v="174544"/>
  </node>
  <node id="-1154" visible="true" lat="44.04580307" lon="-72.08396911">
    <tag k="addr:city" v="Newbury"/>
    <tag k="addr:housenumber" v="159"/>
    <tag k="addr:street" v="Doe Hill Road"/>
    <tag k="addr:state" v="VT"/>
    <tag k="ref:vcgi:esiteid" v="174550"/>
  </node>
  <node id="-1173" visible="true" lat="44.12205538" lon="-72.1476097">
    <tag k="addr:city" v="Newbury"/>
    <tag k="addr:housenumber" v="701"/>
    <tag k="addr:street" v="Newbury Center Road"/>
    <tag k="addr:state" v="VT"/>
    <tag k="ref:vcgi:esiteid" v="174569"/>
  </node>
  <node id="-1176" visible="true" lat="44.04822812" lon="-72.13861499">
    <tag k="addr:city" v="Newbury"/>
    <tag k="addr:housenumber" v="209"/>
    <tag k="addr:street" v="Upper Rogers Road"/>
    <tag k="addr:state" v="VT"/>
    <tag k="ref:vcgi:esiteid" v="174572"/>
  </node>
  <node id="-1185" visible="true" lat="44.14913558" lon="-72.09330749">
    <tag k="addr:city" v="Newbury"/>
    <tag k="addr:housenumber" v="4036"/>
    <tag k="addr:street" v="Leighton Hill Road"/>
    <tag k="addr:state" v="VT"/>
    <tag k="ref:vcgi:esiteid" v="174581"/>
  </node>
  <node id="-1186" visible="true" lat="44.13828277" lon="-72.17945861">
    <tag k="addr:city" v="Newbury"/>
    <tag k="addr:housenumber" v="316"/>
    <tag k="addr:street" v="Topsham Road"/>
    <tag k="addr:state" v="VT"/>
    <tag k="ref:vcgi:esiteid" v="174582"/>
  </node>
  <node id="-1187" visible="true" lat="44.05232073" lon="-72.15696274">
    <tag k="addr:city" v="Newbury"/>
    <tag k="addr:housenumber" v="2931"/>
    <tag k="addr:street" v="Wrights Mountain Road"/>
    <tag k="addr:state" v="VT"/>
    <tag k="ref:vcgi:esiteid" v="174583"/>
  </node>
  <node id="-1188" visible="true" lat="44.05348968" lon="-72.15851593">
    <tag k="addr:city" v="Newbury"/>
    <tag k="addr:housenumber" v="2933"/>
    <tag k="addr:street" v="Wrights Mountain Road"/>
    <tag k="addr:state" v="VT"/>
    <tag k="ref:vcgi:esiteid" v="174584"/>
  </node>
  <node id="-1189" visible="true" lat="44.05049896" lon="-72.14855957">
    <tag k="addr:city" v="Newbury"/>
    <tag k="addr:housenumber" v="3373"/>
    <tag k="addr:street" v="Wrights Mountain Road"/>
    <tag k="addr:state" v="VT"/>
    <tag k="ref:vcgi:esiteid" v="174585"/>
  </node>
  <node id="-1201" visible="true" lat="44.12265116" lon="-72.17999677">
    <tag k="addr:city" v="Newbury"/>
    <tag k="addr:housenumber" v="5237"/>
    <tag k="addr:street" v="Swamp Road"/>
    <tag k="addr:state" v="VT"/>
    <tag k="ref:vcgi:esiteid" v="174597"/>
  </node>
  <node id="-1209" visible="true" lat="44.07257229" lon="-72.06002355">
    <tag k="addr:city" v="Newbury"/>
    <tag k="addr:housenumber" v="5516"/>
    <tag k="addr:street" v="Main Street South"/>
    <tag k="addr:state" v="VT"/>
    <tag k="ref:vcgi:esiteid" v="174605"/>
  </node>
  <node id="-1213" visible="true" lat="44.15546933" lon="-72.04729462">
    <tag k="addr:city" v="Newbury"/>
    <tag k="addr:housenumber" v="11"/>
    <tag k="addr:street" v="Water Street"/>
    <tag k="addr:state" v="VT"/>
    <tag k="ref:vcgi:esiteid" v="174609"/>
  </node>
  <node id="-1214" visible="true" lat="44.15242683" lon="-72.05259801">
    <tag k="addr:city" v="Newbury"/>
    <tag k="addr:housenumber" v="15"/>
    <tag k="addr:street" v="Mill Street"/>
    <tag k="addr:state" v="VT"/>
    <tag k="ref:vcgi:esiteid" v="174610"/>
  </node>
  <node id="-1223" visible="true" lat="44.08602523" lon="-72.12560272">
    <tag k="addr:city" v="Newbury"/>
    <tag k="addr:housenumber" v="1267"/>
    <tag k="addr:street" v="Halls Lake Road"/>
    <tag k="addr:state" v="VT"/>
    <tag k="ref:vcgi:esiteid" v="174619"/>
  </node>
  <node id="-1224" visible="true" lat="44.08574676" lon="-72.12725067">
    <tag k="addr:city" v="Newbury"/>
    <tag k="addr:housenumber" v="1250"/>
    <tag k="addr:street" v="Halls Lake Road"/>
    <tag k="addr:state" v="VT"/>
    <tag k="ref:vcgi:esiteid" v="174620"/>
  </node>
  <node id="-1225" visible="true" lat="44.08556747" lon="-72.12574005">
    <tag k="addr:city" v="Newbury"/>
    <tag k="addr:housenumber" v="1269"/>
    <tag k="addr:street" v="Halls Lake Road"/>
    <tag k="addr:state" v="VT"/>
    <tag k="ref:vcgi:esiteid" v="174621"/>
  </node>
  <node id="-1229" visible="true" lat="44.06890147" lon="-72.05837553">
    <tag k="addr:city" v="Newbury"/>
    <tag k="addr:housenumber" v="5717"/>
    <tag k="addr:street" v="U.S. Route 5 South"/>
    <tag k="addr:state" v="VT"/>
    <tag k="ref:vcgi:esiteid" v="174625"/>
  </node>
  <node id="-1237" visible="true" lat="44.15233872" lon="-72.08417293">
    <tag k="addr:city" v="Newbury"/>
    <tag k="addr:housenumber" v="1992"/>
    <tag k="addr:street" v="U.S. Route 302"/>
    <tag k="addr:state" v="VT"/>
    <tag k="ref:vcgi:esiteid" v="174633"/>
  </node>
  <node id="-1238" visible="true" lat="44.15450172" lon="-72.08551733">
    <tag k="addr:city" v="Newbury"/>
    <tag k="addr:housenumber" v="2322"/>
    <tag k="addr:street" v="U.S. Route 302"/>
    <tag k="addr:state" v="VT"/>
    <tag k="ref:vcgi:esiteid" v="174634"/>
  </node>
  <node id="-1239" visible="true" lat="44.15479937" lon="-72.08523507">
    <tag k="addr:city" v="Newbury"/>
    <tag k="addr:housenumber" v="2324"/>
    <tag k="addr:street" v="U.S. Route 302"/>
    <tag k="addr:state" v="VT"/>
    <tag k="ref:vcgi:esiteid" v="174635"/>
  </node>
  <node id="-1240" visible="true" lat="44.15844345" lon="-72.05592346">
    <tag k="addr:city" v="Newbury"/>
    <tag k="addr:housenumber" v="100"/>
    <tag k="addr:street" v="Bayley Hazen Drive"/>
    <tag k="addr:state" v="VT"/>
    <tag k="ref:vcgi:esiteid" v="174636"/>
  </node>
  <node id="-1245" visible="true" lat="44.15384506" lon="-72.04633302">
    <tag k="addr:city" v="Newbury"/>
    <tag k="addr:housenumber" v="24"/>
    <tag k="addr:street" v="Main Street North"/>
    <tag k="addr:state" v="VT"/>
    <tag k="ref:vcgi:esiteid" v="174641"/>
  </node>
  <node id="-1246" visible="true" lat="44.15360639" lon="-72.04582938">
    <tag k="addr:city" v="Newbury"/>
    <tag k="addr:housenumber" v="32"/>
    <tag k="addr:street" v="Main Street North"/>
    <tag k="addr:state" v="VT"/>
    <tag k="ref:vcgi:esiteid" v="174642"/>
  </node>
  <node id="-1247" visible="true" lat="44.15298576" lon="-72.04626426">
    <tag k="addr:city" v="Newbury"/>
    <tag k="addr:housenumber" v="42"/>
    <tag k="addr:street" v="Main Street North"/>
    <tag k="addr:state" v="VT"/>
    <tag k="ref:vcgi:esiteid" v="174643"/>
  </node>
  <node id="-1249" visible="true" lat="44.15190651" lon="-72.04709523">
    <tag k="addr:city" v="Newbury"/>
    <tag k="addr:housenumber" v="12"/>
    <tag k="addr:street" v="Center Street"/>
    <tag k="addr:state" v="VT"/>
    <tag k="ref:vcgi:esiteid" v="174645"/>
  </node>
  <node id="-1250" visible="true" lat="44.15201453" lon="-72.04746273">
    <tag k="addr:city" v="Newbury"/>
    <tag k="addr:housenumber" v="12"/>
    <tag k="addr:street" v="Grove Street"/>
    <tag k="addr:state" v="VT"/>
    <tag k="ref:vcgi:esiteid" v="174646"/>
  </node>
  <node id="-1251" visible="true" lat="44.15256239" lon="-72.04782329">
    <tag k="addr:city" v="Newbury"/>
    <tag k="addr:housenumber" v="14"/>
    <tag k="addr:street" v="Creamery Street"/>
    <tag k="addr:state" v="VT"/>
    <tag k="ref:vcgi:esiteid" v="174647"/>
  </node>
  <node id="-1252" visible="true" lat="44.13613639" lon="-72.17363061">
    <tag k="addr:city" v="Newbury"/>
    <tag k="addr:housenumber" v="4178"/>
    <tag k="addr:street" v="Swamp Road"/>
    <tag k="addr:state" v="VT"/>
    <tag k="ref:vcgi:esiteid" v="174648"/>
  </node>
  <node id="-1257" visible="true" lat="44.09377724" lon="-72.12681064">
    <tag k="addr:city" v="Newbury"/>
    <tag k="addr:housenumber" v="258"/>
    <tag k="addr:street" v="Lake View Drive"/>
    <tag k="addr:state" v="VT"/>
    <tag k="ref:vcgi:esiteid" v="174653"/>
  </node>
  <node id="-1259" visible="true" lat="44.09328787" lon="-72.12174702">
    <tag k="addr:city" v="Newbury"/>
    <tag k="addr:housenumber" v="556"/>
    <tag k="addr:street" v="Halls Lake Road"/>
    <tag k="addr:state" v="VT"/>
    <tag k="ref:vcgi:esiteid" v="174655"/>
  </node>
  <node id="-1266" visible="true" lat="44.07710338" lon="-72.05866399">
    <tag k="addr:city" v="Newbury"/>
    <tag k="addr:housenumber" v="5142"/>
    <tag k="addr:street" v="Main Street South"/>
    <tag k="addr:state" v="VT"/>
    <tag k="ref:vcgi:esiteid" v="174662"/>
  </node>
  <node id="-1268" visible="true" lat="44.06285179" lon="-72.18887223">
    <tag k="addr:city" v="Newbury"/>
    <tag k="addr:housenumber" v="111"/>
    <tag k="addr:street" v="Woodward Lane"/>
    <tag k="addr:state" v="VT"/>
    <tag k="ref:vcgi:esiteid" v="174664"/>
  </node>
  <node id="-1269" visible="true" lat="44.06119907" lon="-72.18896384">
    <tag k="addr:city" v="Newbury"/>
    <tag k="addr:housenumber" v="30"/>
    <tag k="addr:street" v="Woodward Lane"/>
    <tag k="addr:state" v="VT"/>
    <tag k="ref:vcgi:esiteid" v="174665"/>
  </node>
  <node id="-1276" visible="true" lat="44.15242699" lon="-72.04524551">
    <tag k="addr:city" v="Newbury"/>
    <tag k="addr:housenumber" v="5"/>
    <tag k="addr:street" v="Railroad Street"/>
    <tag k="addr:state" v="VT"/>
    <tag k="ref:vcgi:esiteid" v="174672"/>
  </node>
  <node id="-1279" visible="true" lat="44.13646037" lon="-72.17460069">
    <tag k="addr:city" v="Newbury"/>
    <tag k="addr:housenumber" v="67"/>
    <tag k="addr:street" v="Topsham Road"/>
    <tag k="addr:state" v="VT"/>
    <tag k="ref:vcgi:esiteid" v="174675"/>
  </node>
  <node id="-1282" visible="true" lat="44.14044004" lon="-72.10459675">
    <tag k="addr:city" v="Newbury"/>
    <tag k="addr:housenumber" v="3232"/>
    <tag k="addr:street" v="Leighton Hill Road"/>
    <tag k="addr:state" v="VT"/>
    <tag k="ref:vcgi:esiteid" v="174678"/>
  </node>
  <node id="-1287" visible="true" lat="44.12577571" lon="-72.18463481">
    <tag k="addr:city" v="Newbury"/>
    <tag k="addr:housenumber" v="220"/>
    <tag k="addr:street" v="Whitcher Road"/>
    <tag k="addr:state" v="VT"/>
    <tag k="ref:vcgi:esiteid" v="174683"/>
  </node>
  <node id="-1294" visible="true" lat="44.09709377" lon="-72.11648549">
    <tag k="addr:city" v="Newbury"/>
    <tag k="addr:housenumber" v="171"/>
    <tag k="addr:street" v="Halls Lake Road"/>
    <tag k="addr:state" v="VT"/>
    <tag k="ref:vcgi:esiteid" v="174690"/>
  </node>
  <node id="-1295" visible="true" lat="44.0780597" lon="-72.05803353">
    <tag k="addr:city" v="Newbury"/>
    <tag k="addr:housenumber" v="5091"/>
    <tag k="addr:street" v="Main Street South"/>
    <tag k="addr:state" v="VT"/>
    <tag k="ref:vcgi:esiteid" v="174691"/>
  </node>
  <node id="-1305" visible="true" lat="44.13075851" lon="-72.11211449">
    <tag k="addr:city" v="Newbury"/>
    <tag k="addr:housenumber" v="2375"/>
    <tag k="addr:street" v="Leighton Hill Road"/>
    <tag k="addr:state" v="VT"/>
    <tag k="ref:vcgi:esiteid" v="174701"/>
  </node>
  <node id="-1307" visible="true" lat="44.10481961" lon="-72.11004183">
    <tag k="addr:city" v="Newbury"/>
    <tag k="addr:housenumber" v="378"/>
    <tag k="addr:street" v="Leighton Hill Road"/>
    <tag k="addr:state" v="VT"/>
    <tag k="ref:vcgi:esiteid" v="174703"/>
  </node>
  <node id="-1310" visible="true" lat="44.07080124" lon="-72.05800408">
    <tag k="addr:city" v="Newbury"/>
    <tag k="addr:housenumber" v="5630"/>
    <tag k="addr:street" v="U.S. Route 5 South"/>
    <tag k="addr:state" v="VT"/>
    <tag k="ref:vcgi:esiteid" v="174706"/>
  </node>
  <node id="-1312" visible="true" lat="44.06322402" lon="-72.06470867">
    <tag k="addr:city" v="Newbury"/>
    <tag k="addr:housenumber" v="6255"/>
    <tag k="addr:street" v="U.S. Route 5 South"/>
    <tag k="addr:state" v="VT"/>
    <tag k="ref:vcgi:esiteid" v="174708"/>
  </node>
  <node id="-1317" visible="true" lat="44.04755023" lon="-72.13296659">
    <tag k="addr:city" v="Newbury"/>
    <tag k="addr:housenumber" v="1135"/>
    <tag k="addr:street" v="Rogers Hill Road"/>
    <tag k="addr:state" v="VT"/>
    <tag k="ref:vcgi:esiteid" v="174713"/>
  </node>
  <node id="-1321" visible="true" lat="44.16267483" lon="-72.09477268">
    <tag k="addr:city" v="Newbury"/>
    <tag k="addr:housenumber" v="71"/>
    <tag k="addr:street" v="Leete Hill Road"/>
    <tag k="addr:state" v="VT"/>
    <tag k="ref:vcgi:esiteid" v="174718"/>
  </node>
  <node id="-1322" visible="true" lat="44.16245888" lon="-72.09604864">
    <tag k="addr:city" v="Newbury"/>
    <tag k="addr:housenumber" v="123"/>
    <tag k="addr:street" v="Leete Hill Road"/>
    <tag k="addr:state" v="VT"/>
    <tag k="ref:vcgi:esiteid" v="174719"/>
  </node>
  <node id="-1335" visible="true" lat="44.11329887" lon="-72.11267398">
    <tag k="addr:city" v="Newbury"/>
    <tag k="addr:housenumber" v="99"/>
    <tag k="addr:street" v="Joy Klark Park"/>
    <tag k="addr:state" v="VT"/>
    <tag k="ref:vcgi:esiteid" v="174733"/>
  </node>
  <node id="-1350" visible="true" lat="44.06472011" lon="-72.06475274">
    <tag k="addr:city" v="Newbury"/>
    <tag k="addr:housenumber" v="6140"/>
    <tag k="addr:street" v="U.S. Route 5 South"/>
    <tag k="addr:state" v="VT"/>
    <tag k="ref:vcgi:esiteid" v="174748"/>
  </node>
  <node id="-1351" visible="true" lat="44.06014264" lon="-72.09165002">
    <tag k="addr:city" v="Newbury"/>
    <tag k="addr:housenumber" v="558"/>
    <tag k="addr:street" v="Peach Brook Road"/>
    <tag k="addr:state" v="VT"/>
    <tag k="ref:vcgi:esiteid" v="174749"/>
  </node>
  <node id="-1352" visible="true" lat="44.06581023" lon="-72.06440993">
    <tag k="addr:city" v="Newbury"/>
    <tag k="addr:housenumber" v="122"/>
    <tag k="addr:street" v="Moore Hill Road"/>
    <tag k="addr:state" v="VT"/>
    <tag k="ref:vcgi:esiteid" v="174750"/>
  </node>
  <node id="-1353" visible="true" lat="44.06303713" lon="-72.06726236">
    <tag k="addr:city" v="Newbury"/>
    <tag k="addr:housenumber" v="6344"/>
    <tag k="addr:street" v="U.S. Route 5 South"/>
    <tag k="addr:state" v="VT"/>
    <tag k="ref:vcgi:esiteid" v="174751"/>
  </node>
  <node id="-1362" visible="true" lat="44.06360044" lon="-72.10005935">
    <tag k="addr:city" v="Newbury"/>
    <tag k="addr:housenumber" v="2044"/>
    <tag k="addr:street" v="Moore Hill Road"/>
    <tag k="addr:state" v="VT"/>
    <tag k="ref:vcgi:esiteid" v="174761"/>
  </node>
  <node id="-1363" visible="true" lat="44.05757461" lon="-72.09502982">
    <tag k="addr:city" v="Newbury"/>
    <tag k="addr:housenumber" v="421"/>
    <tag k="addr:street" v="Peach Brook Road"/>
    <tag k="addr:state" v="VT"/>
    <tag k="ref:vcgi:esiteid" v="174763"/>
  </node>
  <node id="-1364" visible="true" lat="44.13366666" lon="-72.16432869">
    <tag k="addr:city" v="Newbury"/>
    <tag k="addr:housenumber" v="1651"/>
    <tag k="addr:street" v="Corey Hill Road"/>
    <tag k="addr:state" v="VT"/>
    <tag k="ref:vcgi:esiteid" v="174764"/>
  </node>
  <node id="-1370" visible="true" lat="44.16274568" lon="-72.09410822">
    <tag k="addr:city" v="Newbury"/>
    <tag k="addr:housenumber" v="33"/>
    <tag k="addr:street" v="Leete Hill Road"/>
    <tag k="addr:state" v="VT"/>
    <tag k="ref:vcgi:esiteid" v="174770"/>
  </node>
  <node id="-1375" visible="true" lat="44.05259558" lon="-72.11590129">
    <tag k="addr:city" v="Newbury"/>
    <tag k="addr:housenumber" v="491"/>
    <tag k="addr:street" v="Cole Road"/>
    <tag k="addr:state" v="VT"/>
    <tag k="ref:vcgi:esiteid" v="174775"/>
  </node>
  <node id="-1378" visible="true" lat="44.13933335" lon="-72.15788804">
    <tag k="addr:city" v="Newbury"/>
    <tag k="addr:housenumber" v="41"/>
    <tag k="addr:street" v="Johns Way"/>
    <tag k="addr:state" v="VT"/>
    <tag k="ref:vcgi:esiteid" v="174778"/>
  </node>
  <node id="-1382" visible="true" lat="44.11775629" lon="-72.18652664">
    <tag k="addr:city" v="Newbury"/>
    <tag k="addr:housenumber" v="236"/>
    <tag k="addr:street" v="Thompson Road"/>
    <tag k="addr:state" v="VT"/>
    <tag k="ref:vcgi:esiteid" v="174782"/>
  </node>
  <node id="-1389" visible="true" lat="44.07404661" lon="-72.05708117">
    <tag k="addr:city" v="Newbury"/>
    <tag k="addr:housenumber" v="5367"/>
    <tag k="addr:street" v="Main Street South"/>
    <tag k="addr:state" v="VT"/>
    <tag k="ref:vcgi:esiteid" v="174789"/>
  </node>
  <node id="-1398" visible="true" lat="44.05674408" lon="-72.09846539">
    <tag k="addr:city" v="Newbury"/>
    <tag k="addr:housenumber" v="1315"/>
    <tag k="addr:street" v="Snake Road"/>
    <tag k="addr:state" v="VT"/>
    <tag k="ref:vcgi:esiteid" v="306497"/>
  </node>
  <node id="-1399" visible="true" lat="44.11376734" lon="-72.1862895">
    <tag k="addr:city" v="Newbury"/>
    <tag k="addr:housenumber" v="38"/>
    <tag k="addr:street" v="Thompson Road"/>
    <tag k="addr:state" v="VT"/>
    <tag k="ref:vcgi:esiteid" v="306498"/>
  </node>
  <node id="-1400" visible="true" lat="44.07521583" lon="-72.09653735">
    <tag k="addr:city" v="Newbury"/>
    <tag k="addr:housenumber" v="1707"/>
    <tag k="addr:street" v="Peach Brook Road"/>
    <tag k="addr:state" v="VT"/>
    <tag k="ref:vcgi:esiteid" v="306499"/>
  </node>
  <node id="-1401" visible="true" lat="44.05211574" lon="-72.1337188">
    <tag k="addr:city" v="Newbury"/>
    <tag k="addr:housenumber" v="818"/>
    <tag k="addr:street" v="Rogers Hill Road"/>
    <tag k="addr:state" v="VT"/>
    <tag k="ref:vcgi:esiteid" v="306951"/>
  </node>
  <node id="-1412" visible="true" lat="44.05675358" lon="-72.1355452">
    <tag k="addr:city" v="Newbury"/>
    <tag k="addr:housenumber" v="313"/>
    <tag k="addr:street" v="Old Stagecoach Road"/>
    <tag k="addr:state" v="VT"/>
    <tag k="ref:vcgi:esiteid" v="310398"/>
  </node>
  <node id="-1414" visible="true" lat="44.06029096" lon="-72.06817319">
    <tag k="addr:city" v="Newbury"/>
    <tag k="addr:housenumber" v="6521"/>
    <tag k="addr:street" v="U.S. Route 5 South"/>
    <tag k="addr:state" v="VT"/>
    <tag k="ref:vcgi:esiteid" v="310652"/>
  </node>
  <node id="-1415" visible="true" lat="44.06058478" lon="-72.18709688">
    <tag k="addr:city" v="Newbury"/>
    <tag k="addr:housenumber" v="601"/>
    <tag k="addr:street" v="Tomahawk Trail"/>
    <tag k="addr:state" v="VT"/>
    <tag k="ref:vcgi:esiteid" v="311914"/>
  </node>
  <node id="-1416" visible="true" lat="44.06233694" lon="-72.18689457">
    <tag k="addr:city" v="Newbury"/>
    <tag k="addr:housenumber" v="398"/>
    <tag k="addr:street" v="Tomahawk Trail"/>
    <tag k="addr:state" v="VT"/>
    <tag k="ref:vcgi:esiteid" v="311915"/>
  </node>
  <node id="-1429" visible="true" lat="44.16284271" lon="-72.09661913">
    <tag k="addr:city" v="Newbury"/>
    <tag k="addr:housenumber" v="134"/>
    <tag k="addr:street" v="Leete Hill Road"/>
    <tag k="addr:state" v="VT"/>
    <tag k="ref:vcgi:esiteid" v="317159"/>
  </node>
  <node id="-1431" visible="true" lat="44.06226526" lon="-72.0935265">
    <tag k="addr:city" v="Newbury"/>
    <tag k="addr:housenumber" v="583"/>
    <tag k="addr:street" v="Peach Brook Road"/>
    <tag k="addr:state" v="VT"/>
    <tag k="ref:vcgi:esiteid" v="317161"/>
  </node>
  <node id="-1432" visible="true" lat="44.15223489" lon="-72.05881149">
    <tag k="addr:city" v="Newbury"/>
    <tag k="addr:housenumber" v="683"/>
    <tag k="addr:street" v="Bible Hill Road"/>
    <tag k="addr:state" v="VT"/>
    <tag k="ref:vcgi:esiteid" v="318098"/>
  </node>
  <node id="-1437" visible="true" lat="44.05005145" lon="-72.13857054">
    <tag k="addr:city" v="Newbury"/>
    <tag k="addr:housenumber" v="154"/>
    <tag k="addr:street" v="Tower Road"/>
    <tag k="addr:state" v="VT"/>
    <tag k="ref:vcgi:esiteid" v="328265"/>
  </node>
  <node id="-1444" visible="true" lat="44.05480556" lon="-72.13407354">
    <tag k="addr:city" v="Newbury"/>
    <tag k="addr:housenumber" v="820"/>
    <tag k="addr:street" v="Rogers Hill Road"/>
    <tag k="addr:state" v="VT"/>
    <tag k="ref:vcgi:esiteid" v="333968"/>
  </node>
  <node id="-1448" visible="true" lat="44.15332441" lon="-72.04462373">
    <tag k="addr:city" v="Newbury"/>
    <tag k="addr:housenumber" v="12"/>
    <tag k="addr:street" v="Railroad Street"/>
    <tag k="addr:state" v="VT"/>
    <tag k="ref:vcgi:esiteid" v="336962"/>
  </node>
  <node id="-1450" visible="true" lat="44.11825681" lon="-72.18419922">
    <tag k="addr:city" v="Newbury"/>
    <tag k="addr:housenumber" v="5538"/>
    <tag k="addr:street" v="Swamp Road"/>
    <tag k="addr:state" v="VT"/>
    <tag k="ref:vcgi:esiteid" v="336964"/>
  </node>
  <node id="-1455" visible="true" lat="44.04668568" lon="-72.08415915">
    <tag k="addr:city" v="Newbury"/>
    <tag k="addr:housenumber" v="28"/>
    <tag k="addr:street" v="Doe Lane"/>
    <tag k="addr:state" v="VT"/>
    <tag k="ref:vcgi:esiteid" v="338276"/>
  </node>
  <node id="-1458" visible="true" lat="44.06289656" lon="-72.19521711">
    <tag k="addr:city" v="Newbury"/>
    <tag k="addr:housenumber" v="1957"/>
    <tag k="addr:street" v="Page Hill Road"/>
    <tag k="addr:state" v="VT"/>
    <tag k="ref:vcgi:esiteid" v="339398"/>
  </node>
  <node id="-1460" visible="true" lat="44.11772022" lon="-72.10782446">
    <tag k="addr:city" v="Newbury"/>
    <tag k="addr:housenumber" v="1398"/>
    <tag k="addr:street" v="Leighton Hill Road"/>
    <tag k="addr:state" v="VT"/>
    <tag k="ref:vcgi:esiteid" v="339884"/>
  </node>
  <node id="-1462" visible="true" lat="44.11563845" lon="-72.10987299">
    <tag k="addr:city" v="Newbury"/>
    <tag k="addr:housenumber" v="1216"/>
    <tag k="addr:street" v="Leighton Hill Road"/>
    <tag k="addr:state" v="VT"/>
    <tag k="ref:vcgi:esiteid" v="339886"/>
  </node>
  <node id="-1463" visible="true" lat="44.08482033" lon="-72.0583209">
    <tag k="addr:city" v="Newbury"/>
    <tag k="addr:housenumber" v="388"/>
    <tag k="addr:street" v="Romance Lane"/>
    <tag k="addr:state" v="VT"/>
    <tag k="ref:vcgi:esiteid" v="339906"/>
  </node>
  <node id="-1466" visible="true" lat="44.09447346" lon="-72.12547184">
    <tag k="addr:city" v="Newbury"/>
    <tag k="addr:housenumber" v="228"/>
    <tag k="addr:street" v="Brookside Lane"/>
    <tag k="addr:state" v="VT"/>
    <tag k="ref:vcgi:esiteid" v="341809"/>
  </node>
  <node id="-1467" visible="true" lat="44.05916432" lon="-72.14088868">
    <tag k="addr:city" v="Newbury"/>
    <tag k="addr:housenumber" v="601"/>
    <tag k="addr:street" v="Old Stagecoach Road"/>
    <tag k="addr:state" v="VT"/>
    <tag k="ref:vcgi:esiteid" v="341810"/>
  </node>
  <node id="-1468" visible="true" lat="44.13873722" lon="-72.18106851">
    <tag k="addr:city" v="Newbury"/>
    <tag k="addr:housenumber" v="244"/>
    <tag k="addr:street" v="Swift Road"/>
    <tag k="addr:state" v="VT"/>
    <tag k="ref:vcgi:esiteid" v="342174"/>
  </node>
  <node id="-1473" visible="true" lat="44.1480886" lon="-72.09996132">
    <tag k="addr:city" v="Newbury"/>
    <tag k="addr:housenumber" v="439"/>
    <tag k="addr:street" v="Tenney Pond Road"/>
    <tag k="addr:state" v="VT"/>
    <tag k="ref:vcgi:esiteid" v="445962"/>
  </node>
  <node id="-1474" visible="true" lat="44.13345674" lon="-72.167717">
    <tag k="addr:city" v="Newbury"/>
    <tag k="addr:housenumber" v="1667"/>
    <tag k="addr:street" v="Corey Hill Road"/>
    <tag k="addr:state" v="VT"/>
    <tag k="ref:vcgi:esiteid" v="446497"/>
  </node>
  <node id="-1475" visible="true" lat="44.13490247" lon="-72.16940605">
    <tag k="addr:city" v="Newbury"/>
    <tag k="addr:housenumber" v="1857"/>
    <tag k="addr:street" v="Corey Hill Road"/>
    <tag k="addr:state" v="VT"/>
    <tag k="ref:vcgi:esiteid" v="446602"/>
  </node>
  <node id="-1477" visible="true" lat="44.15046876" lon="-72.08478909">
    <tag k="addr:city" v="Newbury"/>
    <tag k="addr:housenumber" v="59"/>
    <tag k="addr:street" v="Winter Lane"/>
    <tag k="addr:state" v="VT"/>
    <tag k="ref:vcgi:esiteid" v="448156"/>
  </node>
  <node id="-1481" visible="true" lat="44.05007906" lon="-72.13706034">
    <tag k="addr:city" v="Newbury"/>
    <tag k="addr:housenumber" v="88"/>
    <tag k="addr:street" v="Upper Rogers Road"/>
    <tag k="addr:state" v="VT"/>
    <tag k="ref:vcgi:esiteid" v="450939"/>
  </node>
  <node id="-1488" visible="true" lat="44.13096349" lon="-72.11114723">
    <tag k="addr:city" v="Newbury"/>
    <tag k="addr:housenumber" v="2382"/>
    <tag k="addr:street" v="Leighton Hill Road"/>
    <tag k="addr:state" v="VT"/>
    <tag k="ref:vcgi:esiteid" v="454430"/>
  </node>
  <node id="-1492" visible="true" lat="44.0467465" lon="-72.08030122">
    <tag k="addr:city" v="Newbury"/>
    <tag k="addr:housenumber" v="7656"/>
    <tag k="addr:street" v="U.S. Route 5 South"/>
    <tag k="addr:state" v="VT"/>
    <tag k="ref:vcgi:esiteid" v="610830"/>
  </node>
  <node id="-1516" visible="true" lat="44.06657388" lon="-72.05165314">
    <tag k="addr:city" v="Newbury"/>
    <tag k="addr:housenumber" v="391"/>
    <tag k="addr:street" v="Newbury Crossing Road"/>
    <tag k="addr:state" v="VT"/>
    <tag k="ref:vcgi:esiteid" v="751770"/>
  </node>
</osm>
