<?xml version="1.0" encoding="UTF-8"?>
<osm version="0.6" generator="JOSM">
  <node id="-114" visible="true" lat="43.01574325" lon="-72.67028045">
    <tag k="addr:city" v="Newfane"/>
    <tag k="addr:housenumber" v="299"/>
    <tag k="addr:street" v="Wiswall Hill Road"/>
    <tag k="addr:state" v="VT"/>
    <tag k="ref:vcgi:esiteid" v="174801"/>
  </node>
  <node id="-116" visible="true" lat="43.01517857" lon="-72.67074279">
    <tag k="addr:city" v="Newfane"/>
    <tag k="addr:housenumber" v="289"/>
    <tag k="addr:street" v="Wiswall Hill Road"/>
    <tag k="addr:state" v="VT"/>
    <tag k="ref:vcgi:esiteid" v="174803"/>
  </node>
  <node id="-119" visible="true" lat="43.01369094" lon="-72.66990661">
    <tag k="addr:city" v="Newfane"/>
    <tag k="addr:housenumber" v="274"/>
    <tag k="addr:street" v="Wiswall Hill Road"/>
    <tag k="addr:state" v="VT"/>
    <tag k="ref:vcgi:esiteid" v="174807"/>
  </node>
  <node id="-121" visible="true" lat="43.0130577" lon="-72.66579437">
    <tag k="addr:city" v="Newfane"/>
    <tag k="addr:housenumber" v="51"/>
    <tag k="addr:street" v="Bensch Road"/>
    <tag k="addr:state" v="VT"/>
    <tag k="ref:vcgi:esiteid" v="174809"/>
  </node>
  <node id="-128" visible="true" lat="43.01257153" lon="-72.67243331">
    <tag k="addr:city" v="Newfane"/>
    <tag k="addr:housenumber" v="239"/>
    <tag k="addr:street" v="Wiswall Hill Road"/>
    <tag k="addr:state" v="VT"/>
    <tag k="ref:vcgi:esiteid" v="174816"/>
  </node>
  <node id="-137" visible="true" lat="43.01239201" lon="-72.66266312">
    <tag k="addr:city" v="Newfane"/>
    <tag k="addr:housenumber" v="81"/>
    <tag k="addr:street" v="Bensch Road"/>
    <tag k="addr:state" v="VT"/>
    <tag k="ref:vcgi:esiteid" v="174825"/>
  </node>
  <node id="-153" visible="true" lat="43.00973353" lon="-72.6763799">
    <tag k="addr:city" v="Newfane"/>
    <tag k="addr:housenumber" v="191"/>
    <tag k="addr:street" v="Wiswall Hill Road"/>
    <tag k="addr:state" v="VT"/>
    <tag k="ref:vcgi:esiteid" v="174842"/>
  </node>
  <node id="-160" visible="true" lat="43.00866317" lon="-72.6789627">
    <tag k="addr:city" v="Newfane"/>
    <tag k="addr:housenumber" v="167"/>
    <tag k="addr:street" v="Wiswall Hill Road"/>
    <tag k="addr:state" v="VT"/>
    <tag k="ref:vcgi:esiteid" v="174849"/>
  </node>
  <node id="-162" visible="true" lat="43.00865153" lon="-72.67195706">
    <tag k="addr:city" v="Newfane"/>
    <tag k="addr:housenumber" v="54"/>
    <tag k="addr:street" v="Upper Eager Road"/>
    <tag k="addr:state" v="VT"/>
    <tag k="ref:vcgi:esiteid" v="174851"/>
  </node>
  <node id="-166" visible="true" lat="43.00805006" lon="-72.68050916">
    <tag k="addr:city" v="Newfane"/>
    <tag k="addr:housenumber" v="165"/>
    <tag k="addr:street" v="Wiswall Hill Road"/>
    <tag k="addr:state" v="VT"/>
    <tag k="ref:vcgi:esiteid" v="174855"/>
  </node>
  <node id="-194" visible="true" lat="43.00435336" lon="-72.677436">
    <tag k="addr:city" v="Newfane"/>
    <tag k="addr:housenumber" v="21"/>
    <tag k="addr:street" v="Eager Road"/>
    <tag k="addr:state" v="VT"/>
    <tag k="ref:vcgi:esiteid" v="174883"/>
  </node>
  <node id="-201" visible="true" lat="43.0017953" lon="-72.67836558">
    <tag k="addr:city" v="Newfane"/>
    <tag k="addr:housenumber" v="114"/>
    <tag k="addr:street" v="Clark Farm Road"/>
    <tag k="addr:state" v="VT"/>
    <tag k="ref:vcgi:esiteid" v="174890"/>
  </node>
  <node id="-203" visible="true" lat="43.00144576" lon="-72.64237213">
    <tag k="addr:city" v="Newfane"/>
    <tag k="addr:housenumber" v="47"/>
    <tag k="addr:street" v="Upper River Road"/>
    <tag k="addr:state" v="VT"/>
    <tag k="ref:vcgi:esiteid" v="174892"/>
  </node>
  <node id="-210" visible="true" lat="42.99984759" lon="-72.67426569">
    <tag k="addr:city" v="Newfane"/>
    <tag k="addr:housenumber" v="34"/>
    <tag k="addr:street" v="Wiswall Hill Road"/>
    <tag k="addr:state" v="VT"/>
    <tag k="ref:vcgi:esiteid" v="174899"/>
  </node>
  <node id="-213" visible="true" lat="42.99965504" lon="-72.6768639">
    <tag k="addr:city" v="Newfane"/>
    <tag k="addr:housenumber" v="25"/>
    <tag k="addr:street" v="Wiswall Hill Road"/>
    <tag k="addr:state" v="VT"/>
    <tag k="ref:vcgi:esiteid" v="174902"/>
  </node>
  <node id="-215" visible="true" lat="42.99945831" lon="-72.67547607">
    <tag k="addr:city" v="Newfane"/>
    <tag k="addr:housenumber" v="14"/>
    <tag k="addr:street" v="Wiswall Hill Road"/>
    <tag k="addr:state" v="VT"/>
    <tag k="ref:vcgi:esiteid" v="174904"/>
  </node>
  <node id="-217" visible="true" lat="42.99938964" lon="-72.67517089">
    <tag k="addr:city" v="Newfane"/>
    <tag k="addr:housenumber" v="10"/>
    <tag k="addr:street" v="Wiswall Hill Road"/>
    <tag k="addr:state" v="VT"/>
    <tag k="ref:vcgi:esiteid" v="174906"/>
  </node>
  <node id="-220" visible="true" lat="42.99886703" lon="-72.66975402">
    <tag k="addr:city" v="Newfane"/>
    <tag k="addr:housenumber" v="206"/>
    <tag k="addr:street" v="South Wardsboro Road"/>
    <tag k="addr:state" v="VT"/>
    <tag k="ref:vcgi:esiteid" v="174909"/>
  </node>
  <node id="-222" visible="true" lat="42.9985913" lon="-72.67487924">
    <tag k="addr:city" v="Newfane"/>
    <tag k="addr:housenumber" v="245"/>
    <tag k="addr:street" v="South Wardsboro Road"/>
    <tag k="addr:state" v="VT"/>
    <tag k="ref:vcgi:esiteid" v="174911"/>
  </node>
  <node id="-223" visible="true" lat="42.99836349" lon="-72.66766357">
    <tag k="addr:city" v="Newfane"/>
    <tag k="addr:housenumber" v="166"/>
    <tag k="addr:street" v="South Wardsboro Road"/>
    <tag k="addr:state" v="VT"/>
    <tag k="ref:vcgi:esiteid" v="174912"/>
  </node>
  <node id="-224" visible="true" lat="42.99824523" lon="-72.67717742">
    <tag k="addr:city" v="Newfane"/>
    <tag k="addr:housenumber" v="268"/>
    <tag k="addr:street" v="South Wardsboro Road"/>
    <tag k="addr:state" v="VT"/>
    <tag k="ref:vcgi:esiteid" v="174913"/>
  </node>
  <node id="-227" visible="true" lat="42.99787902" lon="-72.64666747">
    <tag k="addr:city" v="Newfane"/>
    <tag k="addr:housenumber" v="36"/>
    <tag k="addr:street" v="Legion Road"/>
    <tag k="addr:state" v="VT"/>
    <tag k="ref:vcgi:esiteid" v="174916"/>
  </node>
  <node id="-234" visible="true" lat="42.99738383" lon="-72.68418319">
    <tag k="addr:city" v="Newfane"/>
    <tag k="addr:housenumber" v="17"/>
    <tag k="addr:street" v="Clark Farm Road"/>
    <tag k="addr:state" v="VT"/>
    <tag k="ref:vcgi:esiteid" v="174923"/>
  </node>
  <node id="-240" visible="true" lat="42.99704256" lon="-72.6837396">
    <tag k="addr:city" v="Newfane"/>
    <tag k="addr:housenumber" v="22"/>
    <tag k="addr:street" v="Clark Farm Road"/>
    <tag k="addr:state" v="VT"/>
    <tag k="ref:vcgi:esiteid" v="174930"/>
  </node>
  <node id="-241" visible="true" lat="42.99698918" lon="-72.64319846">
    <tag k="addr:city" v="Newfane"/>
    <tag k="addr:housenumber" v="4"/>
    <tag k="addr:street" v="Woodlawn Cemetery Road"/>
    <tag k="addr:state" v="VT"/>
    <tag k="ref:vcgi:esiteid" v="174931"/>
  </node>
  <node id="-243" visible="true" lat="42.99688102" lon="-72.64674292">
    <tag k="addr:city" v="Newfane"/>
    <tag k="addr:housenumber" v="30"/>
    <tag k="addr:street" v="Legion Road"/>
    <tag k="addr:state" v="VT"/>
    <tag k="ref:vcgi:esiteid" v="174933"/>
  </node>
  <node id="-251" visible="true" lat="42.99656699" lon="-72.64364053">
    <tag k="addr:city" v="Newfane"/>
    <tag k="addr:housenumber" v="24"/>
    <tag k="addr:street" v="Radway Hill Road"/>
    <tag k="addr:state" v="VT"/>
    <tag k="ref:vcgi:esiteid" v="174941"/>
  </node>
  <node id="-253" visible="true" lat="42.99629478" lon="-72.64126943">
    <tag k="addr:city" v="Newfane"/>
    <tag k="addr:housenumber" v="47"/>
    <tag k="addr:street" v="Radway Hill Road"/>
    <tag k="addr:state" v="VT"/>
    <tag k="ref:vcgi:esiteid" v="174943"/>
  </node>
  <node id="-255" visible="true" lat="42.99607086" lon="-72.68299102">
    <tag k="addr:city" v="Newfane"/>
    <tag k="addr:housenumber" v="345"/>
    <tag k="addr:street" v="South Wardsboro Road"/>
    <tag k="addr:state" v="VT"/>
    <tag k="ref:vcgi:esiteid" v="174945"/>
  </node>
  <node id="-256" visible="true" lat="42.99602127" lon="-72.681221">
    <tag k="addr:city" v="Newfane"/>
    <tag k="addr:housenumber" v="325"/>
    <tag k="addr:street" v="South Wardsboro Road"/>
    <tag k="addr:state" v="VT"/>
    <tag k="ref:vcgi:esiteid" v="174946"/>
  </node>
  <node id="-259" visible="true" lat="42.99591535" lon="-72.6795885">
    <tag k="addr:city" v="Newfane"/>
    <tag k="addr:housenumber" v="309"/>
    <tag k="addr:street" v="South Wardsboro Road"/>
    <tag k="addr:state" v="VT"/>
    <tag k="ref:vcgi:esiteid" v="174949"/>
  </node>
  <node id="-261" visible="true" lat="42.99520591" lon="-72.63848873">
    <tag k="addr:city" v="Newfane"/>
    <tag k="addr:housenumber" v="83"/>
    <tag k="addr:street" v="Radway Hill Road"/>
    <tag k="addr:state" v="VT"/>
    <tag k="ref:vcgi:esiteid" v="174951"/>
  </node>
  <node id="-272" visible="true" lat="42.99345991" lon="-72.64951863">
    <tag k="addr:city" v="Newfane"/>
    <tag k="addr:housenumber" v="708"/>
    <tag k="addr:street" v="Vermont Route 30"/>
    <tag k="addr:state" v="VT"/>
    <tag k="ref:vcgi:esiteid" v="174962"/>
  </node>
  <node id="-288" visible="true" lat="42.99092859" lon="-72.63792432">
    <tag k="addr:city" v="Newfane"/>
    <tag k="addr:housenumber" v="34"/>
    <tag k="addr:street" v="Blueberry Circle"/>
    <tag k="addr:state" v="VT"/>
    <tag k="ref:vcgi:esiteid" v="174978"/>
  </node>
  <node id="-289" visible="true" lat="42.99083903" lon="-72.63674736">
    <tag k="addr:city" v="Newfane"/>
    <tag k="addr:housenumber" v="22"/>
    <tag k="addr:street" v="Blueberry Circle"/>
    <tag k="addr:state" v="VT"/>
    <tag k="ref:vcgi:esiteid" v="174979"/>
  </node>
  <node id="-290" visible="true" lat="42.99061096" lon="-72.63846634">
    <tag k="addr:city" v="Newfane"/>
    <tag k="addr:housenumber" v="38"/>
    <tag k="addr:street" v="Blueberry Circle"/>
    <tag k="addr:state" v="VT"/>
    <tag k="ref:vcgi:esiteid" v="174980"/>
  </node>
  <node id="-294" visible="true" lat="42.99042919" lon="-72.63770175">
    <tag k="addr:city" v="Newfane"/>
    <tag k="addr:housenumber" v="41"/>
    <tag k="addr:street" v="Blueberry Circle"/>
    <tag k="addr:state" v="VT"/>
    <tag k="ref:vcgi:esiteid" v="174984"/>
  </node>
  <node id="-301" visible="true" lat="42.98994307" lon="-72.63738612">
    <tag k="addr:city" v="Newfane"/>
    <tag k="addr:housenumber" v="53"/>
    <tag k="addr:street" v="Blueberry Circle"/>
    <tag k="addr:state" v="VT"/>
    <tag k="ref:vcgi:esiteid" v="174991"/>
  </node>
  <node id="-306" visible="true" lat="42.98950817" lon="-72.63585242">
    <tag k="addr:city" v="Newfane"/>
    <tag k="addr:housenumber" v="4"/>
    <tag k="addr:street" v="Blueberry Circle"/>
    <tag k="addr:state" v="VT"/>
    <tag k="ref:vcgi:esiteid" v="174997"/>
  </node>
  <node id="-307" visible="true" lat="42.98935317" lon="-72.6577301">
    <tag k="addr:city" v="Newfane"/>
    <tag k="addr:housenumber" v="9"/>
    <tag k="addr:street" v="South Wardsboro Road"/>
    <tag k="addr:state" v="VT"/>
    <tag k="ref:vcgi:esiteid" v="174998"/>
  </node>
  <node id="-309" visible="true" lat="42.98928832" lon="-72.65695953">
    <tag k="addr:city" v="Newfane"/>
    <tag k="addr:housenumber" v="6"/>
    <tag k="addr:street" v="South Wardsboro Road"/>
    <tag k="addr:state" v="VT"/>
    <tag k="ref:vcgi:esiteid" v="175000"/>
  </node>
  <node id="-312" visible="true" lat="42.98864453" lon="-72.63644601">
    <tag k="addr:city" v="Newfane"/>
    <tag k="addr:housenumber" v="8"/>
    <tag k="addr:street" v="Big Deer Run"/>
    <tag k="addr:state" v="VT"/>
    <tag k="ref:vcgi:esiteid" v="175003"/>
  </node>
  <node id="-313" visible="true" lat="42.9887059" lon="-72.65654906">
    <tag k="addr:city" v="Newfane"/>
    <tag k="addr:housenumber" v="26"/>
    <tag k="addr:street" v="Cross Street"/>
    <tag k="addr:state" v="VT"/>
    <tag k="ref:vcgi:esiteid" v="175004"/>
  </node>
  <node id="-318" visible="true" lat="42.98853136" lon="-72.63551096">
    <tag k="addr:city" v="Newfane"/>
    <tag k="addr:housenumber" v="37"/>
    <tag k="addr:street" v="Sawmill Road"/>
    <tag k="addr:state" v="VT"/>
    <tag k="ref:vcgi:esiteid" v="175009"/>
  </node>
  <node id="-320" visible="true" lat="42.98847198" lon="-72.65601348">
    <tag k="addr:city" v="Newfane"/>
    <tag k="addr:housenumber" v="18"/>
    <tag k="addr:street" v="Cross Street"/>
    <tag k="addr:state" v="VT"/>
    <tag k="ref:vcgi:esiteid" v="175011"/>
  </node>
  <node id="-321" visible="true" lat="42.98844528" lon="-72.65742492">
    <tag k="addr:city" v="Newfane"/>
    <tag k="addr:housenumber" v="49"/>
    <tag k="addr:street" v="West Street"/>
    <tag k="addr:state" v="VT"/>
    <tag k="ref:vcgi:esiteid" v="175012"/>
  </node>
  <node id="-322" visible="true" lat="42.98848428" lon="-72.65679596">
    <tag k="addr:city" v="Newfane"/>
    <tag k="addr:housenumber" v="46"/>
    <tag k="addr:street" v="West Street"/>
    <tag k="addr:state" v="VT"/>
    <tag k="ref:vcgi:esiteid" v="175013"/>
  </node>
  <node id="-323" visible="true" lat="42.98822923" lon="-72.65732855">
    <tag k="addr:city" v="Newfane"/>
    <tag k="addr:housenumber" v="47"/>
    <tag k="addr:street" v="West Street"/>
    <tag k="addr:state" v="VT"/>
    <tag k="ref:vcgi:esiteid" v="175014"/>
  </node>
  <node id="-324" visible="true" lat="42.98825888" lon="-72.63614828">
    <tag k="addr:city" v="Newfane"/>
    <tag k="addr:housenumber" v="20"/>
    <tag k="addr:street" v="Big Deer Run"/>
    <tag k="addr:state" v="VT"/>
    <tag k="ref:vcgi:esiteid" v="175015"/>
  </node>
  <node id="-326" visible="true" lat="42.98812559" lon="-72.65665691">
    <tag k="addr:city" v="Newfane"/>
    <tag k="addr:housenumber" v="44"/>
    <tag k="addr:street" v="West Street"/>
    <tag k="addr:state" v="VT"/>
    <tag k="ref:vcgi:esiteid" v="175017"/>
  </node>
  <node id="-329" visible="true" lat="42.98797226" lon="-72.65724182">
    <tag k="addr:city" v="Newfane"/>
    <tag k="addr:housenumber" v="41"/>
    <tag k="addr:street" v="West Street"/>
    <tag k="addr:state" v="VT"/>
    <tag k="ref:vcgi:esiteid" v="175020"/>
  </node>
  <node id="-330" visible="true" lat="42.98788833" lon="-72.65655517">
    <tag k="addr:city" v="Newfane"/>
    <tag k="addr:housenumber" v="40"/>
    <tag k="addr:street" v="West Street"/>
    <tag k="addr:state" v="VT"/>
    <tag k="ref:vcgi:esiteid" v="175021"/>
  </node>
  <node id="-333" visible="true" lat="42.98775863" lon="-72.65724182">
    <tag k="addr:city" v="Newfane"/>
    <tag k="addr:housenumber" v="39"/>
    <tag k="addr:street" v="West Street"/>
    <tag k="addr:state" v="VT"/>
    <tag k="ref:vcgi:esiteid" v="175024"/>
  </node>
  <node id="-335" visible="true" lat="42.98780252" lon="-72.65505316">
    <tag k="addr:city" v="Newfane"/>
    <tag k="addr:housenumber" v="7"/>
    <tag k="addr:street" v="Cross Street"/>
    <tag k="addr:state" v="VT"/>
    <tag k="ref:vcgi:esiteid" v="175026"/>
  </node>
  <node id="-336" visible="true" lat="42.98770542" lon="-72.63530532">
    <tag k="addr:city" v="Newfane"/>
    <tag k="addr:housenumber" v="37"/>
    <tag k="addr:street" v="Big Deer Run"/>
    <tag k="addr:state" v="VT"/>
    <tag k="ref:vcgi:esiteid" v="175027"/>
  </node>
  <node id="-337" visible="true" lat="42.98757553" lon="-72.65718841">
    <tag k="addr:city" v="Newfane"/>
    <tag k="addr:housenumber" v="35"/>
    <tag k="addr:street" v="West Street"/>
    <tag k="addr:state" v="VT"/>
    <tag k="ref:vcgi:esiteid" v="175028"/>
  </node>
  <node id="-338" visible="true" lat="42.98756027" lon="-72.65646362">
    <tag k="addr:city" v="Newfane"/>
    <tag k="addr:housenumber" v="34"/>
    <tag k="addr:street" v="West Street"/>
    <tag k="addr:state" v="VT"/>
    <tag k="ref:vcgi:esiteid" v="175029"/>
  </node>
  <node id="-341" visible="true" lat="42.98746004" lon="-72.63581359">
    <tag k="addr:city" v="Newfane"/>
    <tag k="addr:housenumber" v="42"/>
    <tag k="addr:street" v="Big Deer Run"/>
    <tag k="addr:state" v="VT"/>
    <tag k="ref:vcgi:esiteid" v="175032"/>
  </node>
  <node id="-342" visible="true" lat="42.98735809" lon="-72.65714263">
    <tag k="addr:city" v="Newfane"/>
    <tag k="addr:housenumber" v="33"/>
    <tag k="addr:street" v="West Street"/>
    <tag k="addr:state" v="VT"/>
    <tag k="ref:vcgi:esiteid" v="175033"/>
  </node>
  <node id="-347" visible="true" lat="42.98711013" lon="-72.65636444">
    <tag k="addr:city" v="Newfane"/>
    <tag k="addr:housenumber" v="28"/>
    <tag k="addr:street" v="West Street"/>
    <tag k="addr:state" v="VT"/>
    <tag k="ref:vcgi:esiteid" v="175038"/>
  </node>
  <node id="-352" visible="true" lat="42.98686657" lon="-72.65688099">
    <tag k="addr:city" v="Newfane"/>
    <tag k="addr:housenumber" v="25"/>
    <tag k="addr:street" v="West Street"/>
    <tag k="addr:state" v="VT"/>
    <tag k="ref:vcgi:esiteid" v="175043"/>
  </node>
  <node id="-355" visible="true" lat="42.98665146" lon="-72.63567527">
    <tag k="addr:city" v="Newfane"/>
    <tag k="addr:housenumber" v="58"/>
    <tag k="addr:street" v="Big Deer Run"/>
    <tag k="addr:state" v="VT"/>
    <tag k="ref:vcgi:esiteid" v="175046"/>
  </node>
  <node id="-356" visible="true" lat="42.98655991" lon="-72.63464947">
    <tag k="addr:city" v="Newfane"/>
    <tag k="addr:housenumber" v="9"/>
    <tag k="addr:street" v="Sawmill Road"/>
    <tag k="addr:state" v="VT"/>
    <tag k="ref:vcgi:esiteid" v="175047"/>
  </node>
  <node id="-357" visible="true" lat="42.98664684" lon="-72.65686492">
    <tag k="addr:city" v="Newfane"/>
    <tag k="addr:housenumber" v="23"/>
    <tag k="addr:street" v="West Street"/>
    <tag k="addr:state" v="VT"/>
    <tag k="ref:vcgi:esiteid" v="175048"/>
  </node>
  <node id="-358" visible="true" lat="42.98647222" lon="-72.65731264">
    <tag k="addr:city" v="Newfane"/>
    <tag k="addr:housenumber" v="19"/>
    <tag k="addr:street" v="West Street"/>
    <tag k="addr:state" v="VT"/>
    <tag k="ref:vcgi:esiteid" v="175049"/>
  </node>
  <node id="-359" visible="true" lat="42.98644784" lon="-72.65683974">
    <tag k="addr:city" v="Newfane"/>
    <tag k="addr:housenumber" v="21"/>
    <tag k="addr:street" v="West Street"/>
    <tag k="addr:state" v="VT"/>
    <tag k="ref:vcgi:esiteid" v="175050"/>
  </node>
  <node id="-360" visible="true" lat="42.98659873" lon="-72.65613546">
    <tag k="addr:city" v="Newfane"/>
    <tag k="addr:housenumber" v="12"/>
    <tag k="addr:street" v="Court Street"/>
    <tag k="addr:state" v="VT"/>
    <tag k="ref:vcgi:esiteid" v="175051"/>
  </node>
  <node id="-361" visible="true" lat="42.98642127" lon="-72.65550395">
    <tag k="addr:city" v="Newfane"/>
    <tag k="addr:housenumber" v="4"/>
    <tag k="addr:street" v="Court Street"/>
    <tag k="addr:state" v="VT"/>
    <tag k="ref:vcgi:esiteid" v="175052"/>
  </node>
  <node id="-369" visible="true" lat="42.98551797" lon="-72.65435281">
    <tag k="addr:city" v="Newfane"/>
    <tag k="addr:housenumber" v="11"/>
    <tag k="addr:street" v="Jail Street"/>
    <tag k="addr:state" v="VT"/>
    <tag k="ref:vcgi:esiteid" v="175062"/>
  </node>
  <node id="-373" visible="true" lat="42.98573867" lon="-72.64874532">
    <tag k="addr:city" v="Newfane"/>
    <tag k="addr:housenumber" v="78"/>
    <tag k="addr:street" v="Cemetery Hill Road"/>
    <tag k="addr:state" v="VT"/>
    <tag k="ref:vcgi:esiteid" v="175066"/>
  </node>
  <node id="-376" visible="true" lat="42.98533082" lon="-72.65886112">
    <tag k="addr:city" v="Newfane"/>
    <tag k="addr:housenumber" v="16"/>
    <tag k="addr:street" v="Brookside Lane"/>
    <tag k="addr:state" v="VT"/>
    <tag k="ref:vcgi:esiteid" v="175069"/>
  </node>
  <node id="-379" visible="true" lat="42.98529052" lon="-72.66015624">
    <tag k="addr:city" v="Newfane"/>
    <tag k="addr:housenumber" v="13"/>
    <tag k="addr:street" v="Brookside Lane"/>
    <tag k="addr:state" v="VT"/>
    <tag k="ref:vcgi:esiteid" v="175072"/>
  </node>
  <node id="-383" visible="true" lat="42.98475724" lon="-72.65832966">
    <tag k="addr:city" v="Newfane"/>
    <tag k="addr:housenumber" v="10"/>
    <tag k="addr:street" v="Brookside Lane"/>
    <tag k="addr:state" v="VT"/>
    <tag k="ref:vcgi:esiteid" v="175076"/>
  </node>
  <node id="-384" visible="true" lat="42.98456729" lon="-72.6602614">
    <tag k="addr:city" v="Newfane"/>
    <tag k="addr:housenumber" v="52"/>
    <tag k="addr:street" v="Loop Road"/>
    <tag k="addr:state" v="VT"/>
    <tag k="ref:vcgi:esiteid" v="175077"/>
  </node>
  <node id="-387" visible="true" lat="42.98458247" lon="-72.65972758">
    <tag k="addr:city" v="Newfane"/>
    <tag k="addr:housenumber" v="48"/>
    <tag k="addr:street" v="Loop Road"/>
    <tag k="addr:state" v="VT"/>
    <tag k="ref:vcgi:esiteid" v="175080"/>
  </node>
  <node id="-389" visible="true" lat="42.98438928" lon="-72.65891868">
    <tag k="addr:city" v="Newfane"/>
    <tag k="addr:housenumber" v="44"/>
    <tag k="addr:street" v="Loop Road"/>
    <tag k="addr:state" v="VT"/>
    <tag k="ref:vcgi:esiteid" v="175082"/>
  </node>
  <node id="-390" visible="true" lat="42.98433303" lon="-72.65808868">
    <tag k="addr:city" v="Newfane"/>
    <tag k="addr:housenumber" v="40"/>
    <tag k="addr:street" v="Loop Road"/>
    <tag k="addr:state" v="VT"/>
    <tag k="ref:vcgi:esiteid" v="175083"/>
  </node>
  <node id="-391" visible="true" lat="42.98431983" lon="-72.66065403">
    <tag k="addr:city" v="Newfane"/>
    <tag k="addr:housenumber" v="54"/>
    <tag k="addr:street" v="Loop Road"/>
    <tag k="addr:state" v="VT"/>
    <tag k="ref:vcgi:esiteid" v="175084"/>
  </node>
  <node id="-396" visible="true" lat="42.9839859" lon="-72.66009521">
    <tag k="addr:city" v="Newfane"/>
    <tag k="addr:housenumber" v="51"/>
    <tag k="addr:street" v="Loop Road"/>
    <tag k="addr:state" v="VT"/>
    <tag k="ref:vcgi:esiteid" v="175089"/>
  </node>
  <node id="-400" visible="true" lat="42.98382568" lon="-72.65919494">
    <tag k="addr:city" v="Newfane"/>
    <tag k="addr:housenumber" v="45"/>
    <tag k="addr:street" v="Loop Road"/>
    <tag k="addr:state" v="VT"/>
    <tag k="ref:vcgi:esiteid" v="175093"/>
  </node>
  <node id="-401" visible="true" lat="42.98381127" lon="-72.63640638">
    <tag k="addr:city" v="Newfane"/>
    <tag k="addr:housenumber" v="332"/>
    <tag k="addr:street" v="River Road"/>
    <tag k="addr:state" v="VT"/>
    <tag k="ref:vcgi:esiteid" v="175094"/>
  </node>
  <node id="-402" visible="true" lat="42.98376846" lon="-72.65784454">
    <tag k="addr:city" v="Newfane"/>
    <tag k="addr:housenumber" v="36"/>
    <tag k="addr:street" v="Loop Road"/>
    <tag k="addr:state" v="VT"/>
    <tag k="ref:vcgi:esiteid" v="175095"/>
  </node>
  <node id="-404" visible="true" lat="42.98377136" lon="-72.65871355">
    <tag k="addr:city" v="Newfane"/>
    <tag k="addr:housenumber" v="39"/>
    <tag k="addr:street" v="Loop Road"/>
    <tag k="addr:state" v="VT"/>
    <tag k="ref:vcgi:esiteid" v="175097"/>
  </node>
  <node id="-405" visible="true" lat="42.98356247" lon="-72.66018676">
    <tag k="addr:city" v="Newfane"/>
    <tag k="addr:housenumber" v="55"/>
    <tag k="addr:street" v="Loop Road"/>
    <tag k="addr:state" v="VT"/>
    <tag k="ref:vcgi:esiteid" v="175098"/>
  </node>
  <node id="-407" visible="true" lat="42.98342895" lon="-72.63528442">
    <tag k="addr:city" v="Newfane"/>
    <tag k="addr:housenumber" v="336"/>
    <tag k="addr:street" v="River Road"/>
    <tag k="addr:state" v="VT"/>
    <tag k="ref:vcgi:esiteid" v="175100"/>
  </node>
  <node id="-409" visible="true" lat="42.98338179" lon="-72.66087821">
    <tag k="addr:city" v="Newfane"/>
    <tag k="addr:housenumber" v="56"/>
    <tag k="addr:street" v="Loop Road"/>
    <tag k="addr:state" v="VT"/>
    <tag k="ref:vcgi:esiteid" v="175102"/>
  </node>
  <node id="-412" visible="true" lat="42.98316246" lon="-72.65845349">
    <tag k="addr:city" v="Newfane"/>
    <tag k="addr:housenumber" v="27"/>
    <tag k="addr:street" v="Loop Road"/>
    <tag k="addr:state" v="VT"/>
    <tag k="ref:vcgi:esiteid" v="175105"/>
  </node>
  <node id="-413" visible="true" lat="42.98316574" lon="-72.65782165">
    <tag k="addr:city" v="Newfane"/>
    <tag k="addr:housenumber" v="28"/>
    <tag k="addr:street" v="Loop Road"/>
    <tag k="addr:state" v="VT"/>
    <tag k="ref:vcgi:esiteid" v="175106"/>
  </node>
  <node id="-414" visible="true" lat="42.98293685" lon="-72.66109466">
    <tag k="addr:city" v="Newfane"/>
    <tag k="addr:housenumber" v="60"/>
    <tag k="addr:street" v="Loop Road"/>
    <tag k="addr:state" v="VT"/>
    <tag k="ref:vcgi:esiteid" v="175107"/>
  </node>
  <node id="-415" visible="true" lat="42.98293304" lon="-72.66039276">
    <tag k="addr:city" v="Newfane"/>
    <tag k="addr:housenumber" v="59"/>
    <tag k="addr:street" v="Loop Road"/>
    <tag k="addr:state" v="VT"/>
    <tag k="ref:vcgi:esiteid" v="175108"/>
  </node>
  <node id="-416" visible="true" lat="42.98285346" lon="-72.65766041">
    <tag k="addr:city" v="Newfane"/>
    <tag k="addr:housenumber" v="22"/>
    <tag k="addr:street" v="Loop Road"/>
    <tag k="addr:state" v="VT"/>
    <tag k="ref:vcgi:esiteid" v="175109"/>
  </node>
  <node id="-418" visible="true" lat="42.98244094" lon="-72.66110229">
    <tag k="addr:city" v="Newfane"/>
    <tag k="addr:housenumber" v="62"/>
    <tag k="addr:street" v="Loop Road"/>
    <tag k="addr:state" v="VT"/>
    <tag k="ref:vcgi:esiteid" v="175111"/>
  </node>
  <node id="-419" visible="true" lat="42.98237517" lon="-72.66054825">
    <tag k="addr:city" v="Newfane"/>
    <tag k="addr:housenumber" v="65"/>
    <tag k="addr:street" v="Loop Road"/>
    <tag k="addr:state" v="VT"/>
    <tag k="ref:vcgi:esiteid" v="175112"/>
  </node>
  <node id="-420" visible="true" lat="42.98233658" lon="-72.65972357">
    <tag k="addr:city" v="Newfane"/>
    <tag k="addr:housenumber" v="69"/>
    <tag k="addr:street" v="Loop Road"/>
    <tag k="addr:state" v="VT"/>
    <tag k="ref:vcgi:esiteid" v="175113"/>
  </node>
  <node id="-422" visible="true" lat="42.98223764" lon="-72.6568482">
    <tag k="addr:city" v="Newfane"/>
    <tag k="addr:housenumber" v="7"/>
    <tag k="addr:street" v="Loop Road"/>
    <tag k="addr:state" v="VT"/>
    <tag k="ref:vcgi:esiteid" v="175115"/>
  </node>
  <node id="-423" visible="true" lat="42.98222925" lon="-72.65915973">
    <tag k="addr:city" v="Newfane"/>
    <tag k="addr:housenumber" v="71"/>
    <tag k="addr:street" v="Loop Road"/>
    <tag k="addr:state" v="VT"/>
    <tag k="ref:vcgi:esiteid" v="175116"/>
  </node>
  <node id="-426" visible="true" lat="42.981968" lon="-72.66137754">
    <tag k="addr:city" v="Newfane"/>
    <tag k="addr:housenumber" v="64"/>
    <tag k="addr:street" v="Loop Road"/>
    <tag k="addr:state" v="VT"/>
    <tag k="ref:vcgi:esiteid" v="175119"/>
  </node>
  <node id="-427" visible="true" lat="42.98184775" lon="-72.65991144">
    <tag k="addr:city" v="Newfane"/>
    <tag k="addr:housenumber" v="68"/>
    <tag k="addr:street" v="Loop Road"/>
    <tag k="addr:state" v="VT"/>
    <tag k="ref:vcgi:esiteid" v="175120"/>
  </node>
  <node id="-428" visible="true" lat="42.98179865" lon="-72.66058457">
    <tag k="addr:city" v="Newfane"/>
    <tag k="addr:housenumber" v="66"/>
    <tag k="addr:street" v="Loop Road"/>
    <tag k="addr:state" v="VT"/>
    <tag k="ref:vcgi:esiteid" v="175121"/>
  </node>
  <node id="-429" visible="true" lat="42.98185577" lon="-72.65705282">
    <tag k="addr:city" v="Newfane"/>
    <tag k="addr:housenumber" v="3"/>
    <tag k="addr:street" v="Loop Road"/>
    <tag k="addr:state" v="VT"/>
    <tag k="ref:vcgi:esiteid" v="175122"/>
  </node>
  <node id="-430" visible="true" lat="42.98163367" lon="-72.65910156">
    <tag k="addr:city" v="Newfane"/>
    <tag k="addr:housenumber" v="72"/>
    <tag k="addr:street" v="Loop Road"/>
    <tag k="addr:state" v="VT"/>
    <tag k="ref:vcgi:esiteid" v="175123"/>
  </node>
  <node id="-431" visible="true" lat="42.98161117" lon="-72.65831751">
    <tag k="addr:city" v="Newfane"/>
    <tag k="addr:housenumber" v="74"/>
    <tag k="addr:street" v="Loop Road"/>
    <tag k="addr:state" v="VT"/>
    <tag k="ref:vcgi:esiteid" v="175124"/>
  </node>
  <node id="-436" visible="true" lat="42.98101425" lon="-72.65755462">
    <tag k="addr:city" v="Newfane"/>
    <tag k="addr:housenumber" v="8"/>
    <tag k="addr:street" v="Bruce Brook Road"/>
    <tag k="addr:state" v="VT"/>
    <tag k="ref:vcgi:esiteid" v="175129"/>
  </node>
  <node id="-443" visible="true" lat="42.98031301" lon="-72.6585843">
    <tag k="addr:city" v="Newfane"/>
    <tag k="addr:housenumber" v="22"/>
    <tag k="addr:street" v="Bruce Brook Road"/>
    <tag k="addr:state" v="VT"/>
    <tag k="ref:vcgi:esiteid" v="175136"/>
  </node>
  <node id="-444" visible="true" lat="42.9799118" lon="-72.65936279">
    <tag k="addr:city" v="Newfane"/>
    <tag k="addr:housenumber" v="32"/>
    <tag k="addr:street" v="Bruce Brook Road"/>
    <tag k="addr:state" v="VT"/>
    <tag k="ref:vcgi:esiteid" v="175137"/>
  </node>
  <node id="-445" visible="true" lat="42.97976837" lon="-72.66183906">
    <tag k="addr:city" v="Newfane"/>
    <tag k="addr:housenumber" v="9"/>
    <tag k="addr:street" v="Sugar Road"/>
    <tag k="addr:state" v="VT"/>
    <tag k="ref:vcgi:esiteid" v="175138"/>
  </node>
  <node id="-452" visible="true" lat="42.97960667" lon="-72.66032309">
    <tag k="addr:city" v="Newfane"/>
    <tag k="addr:housenumber" v="48"/>
    <tag k="addr:street" v="Bruce Brook Road"/>
    <tag k="addr:state" v="VT"/>
    <tag k="ref:vcgi:esiteid" v="175145"/>
  </node>
  <node id="-453" visible="true" lat="42.97964765" lon="-72.65676605">
    <tag k="addr:city" v="Newfane"/>
    <tag k="addr:housenumber" v="55"/>
    <tag k="addr:street" v="Back Street"/>
    <tag k="addr:state" v="VT"/>
    <tag k="ref:vcgi:esiteid" v="175146"/>
  </node>
  <node id="-455" visible="true" lat="42.97935404" lon="-72.65916423">
    <tag k="addr:city" v="Newfane"/>
    <tag k="addr:housenumber" v="35"/>
    <tag k="addr:street" v="Bruce Brook Road"/>
    <tag k="addr:state" v="VT"/>
    <tag k="ref:vcgi:esiteid" v="175148"/>
  </node>
  <node id="-456" visible="true" lat="42.97926711" lon="-72.66194915">
    <tag k="addr:city" v="Newfane"/>
    <tag k="addr:housenumber" v="2"/>
    <tag k="addr:street" v="Steep Way Road"/>
    <tag k="addr:state" v="VT"/>
    <tag k="ref:vcgi:esiteid" v="175149"/>
  </node>
  <node id="-459" visible="true" lat="42.9787178" lon="-72.66157531">
    <tag k="addr:city" v="Newfane"/>
    <tag k="addr:housenumber" v="3"/>
    <tag k="addr:street" v="Steep Way Road"/>
    <tag k="addr:state" v="VT"/>
    <tag k="ref:vcgi:esiteid" v="175152"/>
  </node>
  <node id="-461" visible="true" lat="42.97865295" lon="-72.66007995">
    <tag k="addr:city" v="Newfane"/>
    <tag k="addr:housenumber" v="43"/>
    <tag k="addr:street" v="Bruce Brook Road"/>
    <tag k="addr:state" v="VT"/>
    <tag k="ref:vcgi:esiteid" v="175154"/>
  </node>
  <node id="-462" visible="true" lat="42.97863501" lon="-72.6586566">
    <tag k="addr:city" v="Newfane"/>
    <tag k="addr:housenumber" v="27"/>
    <tag k="addr:street" v="Bruce Brook Road"/>
    <tag k="addr:state" v="VT"/>
    <tag k="ref:vcgi:esiteid" v="175155"/>
  </node>
  <node id="-470" visible="true" lat="42.97773452" lon="-72.65582441">
    <tag k="addr:city" v="Newfane"/>
    <tag k="addr:housenumber" v="30"/>
    <tag k="addr:street" v="Back Street"/>
    <tag k="addr:state" v="VT"/>
    <tag k="ref:vcgi:esiteid" v="175163"/>
  </node>
  <node id="-472" visible="true" lat="42.97751354" lon="-72.65778332">
    <tag k="addr:city" v="Newfane"/>
    <tag k="addr:housenumber" v="4"/>
    <tag k="addr:street" v="Pickle Hill Road"/>
    <tag k="addr:state" v="VT"/>
    <tag k="ref:vcgi:esiteid" v="175165"/>
  </node>
  <node id="-473" visible="true" lat="42.97745062" lon="-72.65596229">
    <tag k="addr:city" v="Newfane"/>
    <tag k="addr:housenumber" v="26"/>
    <tag k="addr:street" v="Back Street"/>
    <tag k="addr:state" v="VT"/>
    <tag k="ref:vcgi:esiteid" v="175166"/>
  </node>
  <node id="-479" visible="true" lat="42.97672623" lon="-72.65895594">
    <tag k="addr:city" v="Newfane"/>
    <tag k="addr:housenumber" v="29"/>
    <tag k="addr:street" v="Pickle Hill Road"/>
    <tag k="addr:state" v="VT"/>
    <tag k="ref:vcgi:esiteid" v="175172"/>
  </node>
  <node id="-480" visible="true" lat="42.97650527" lon="-72.65780639">
    <tag k="addr:city" v="Newfane"/>
    <tag k="addr:housenumber" v="17"/>
    <tag k="addr:street" v="Pickle Hill Road"/>
    <tag k="addr:state" v="VT"/>
    <tag k="ref:vcgi:esiteid" v="175173"/>
  </node>
  <node id="-593" visible="true" lat="42.96090415" lon="-72.64932567">
    <tag k="addr:city" v="Newfane"/>
    <tag k="addr:housenumber" v="15"/>
    <tag k="addr:street" v="Double D Drive"/>
    <tag k="addr:state" v="VT"/>
    <tag k="ref:vcgi:esiteid" v="175287"/>
  </node>
  <node id="-601" visible="true" lat="42.95993423" lon="-72.65005493">
    <tag k="addr:city" v="Newfane"/>
    <tag k="addr:housenumber" v="14"/>
    <tag k="addr:street" v="School Road"/>
    <tag k="addr:state" v="VT"/>
    <tag k="ref:vcgi:esiteid" v="175295"/>
  </node>
  <node id="-672" visible="true" lat="42.95371487" lon="-72.65148577">
    <tag k="addr:city" v="Newfane"/>
    <tag k="addr:housenumber" v="27"/>
    <tag k="addr:street" v="Grimes Hill Road"/>
    <tag k="addr:state" v="VT"/>
    <tag k="ref:vcgi:esiteid" v="175369"/>
  </node>
  <node id="-673" visible="true" lat="42.95379419" lon="-72.65418675">
    <tag k="addr:city" v="Newfane"/>
    <tag k="addr:housenumber" v="16"/>
    <tag k="addr:street" v="Newfane Hill Road"/>
    <tag k="addr:state" v="VT"/>
    <tag k="ref:vcgi:esiteid" v="175370"/>
  </node>
  <node id="-677" visible="true" lat="42.95337319" lon="-72.64983598">
    <tag k="addr:city" v="Newfane"/>
    <tag k="addr:housenumber" v="19"/>
    <tag k="addr:street" v="Sears Road"/>
    <tag k="addr:state" v="VT"/>
    <tag k="ref:vcgi:esiteid" v="175374"/>
  </node>
  <node id="-681" visible="true" lat="42.95312594" lon="-72.65495654">
    <tag k="addr:city" v="Newfane"/>
    <tag k="addr:housenumber" v="11"/>
    <tag k="addr:street" v="Newfane Hill Road"/>
    <tag k="addr:state" v="VT"/>
    <tag k="ref:vcgi:esiteid" v="175378"/>
  </node>
  <node id="-690" visible="true" lat="42.95240783" lon="-72.6529541">
    <tag k="addr:city" v="Newfane"/>
    <tag k="addr:housenumber" v="37"/>
    <tag k="addr:street" v="Grimes Hill Road"/>
    <tag k="addr:state" v="VT"/>
    <tag k="ref:vcgi:esiteid" v="175387"/>
  </node>
  <node id="-694" visible="true" lat="42.95210554" lon="-72.65334576">
    <tag k="addr:city" v="Newfane"/>
    <tag k="addr:housenumber" v="43"/>
    <tag k="addr:street" v="Grimes Hill Road"/>
    <tag k="addr:state" v="VT"/>
    <tag k="ref:vcgi:esiteid" v="175391"/>
  </node>
  <node id="-696" visible="true" lat="42.95203781" lon="-72.65811157">
    <tag k="addr:city" v="Newfane"/>
    <tag k="addr:housenumber" v="68"/>
    <tag k="addr:street" v="Grimes Hill Road"/>
    <tag k="addr:state" v="VT"/>
    <tag k="ref:vcgi:esiteid" v="175393"/>
  </node>
  <node id="-697" visible="true" lat="42.95192337" lon="-72.6597824">
    <tag k="addr:city" v="Newfane"/>
    <tag k="addr:housenumber" v="70"/>
    <tag k="addr:street" v="Grimes Hill Road"/>
    <tag k="addr:state" v="VT"/>
    <tag k="ref:vcgi:esiteid" v="175394"/>
  </node>
  <node id="-700" visible="true" lat="42.95176473" lon="-72.64870631">
    <tag k="addr:city" v="Newfane"/>
    <tag k="addr:housenumber" v="10"/>
    <tag k="addr:street" v="Wildwood Acres Road"/>
    <tag k="addr:state" v="VT"/>
    <tag k="ref:vcgi:esiteid" v="175397"/>
  </node>
  <node id="-701" visible="true" lat="42.95176728" lon="-72.65457823">
    <tag k="addr:city" v="Newfane"/>
    <tag k="addr:housenumber" v="47"/>
    <tag k="addr:street" v="Grimes Hill Road"/>
    <tag k="addr:state" v="VT"/>
    <tag k="ref:vcgi:esiteid" v="175398"/>
  </node>
  <node id="-703" visible="true" lat="42.95170886" lon="-72.64502196">
    <tag k="addr:city" v="Newfane"/>
    <tag k="addr:housenumber" v="59"/>
    <tag k="addr:street" v="Railroad Lane"/>
    <tag k="addr:state" v="VT"/>
    <tag k="ref:vcgi:esiteid" v="175400"/>
  </node>
  <node id="-704" visible="true" lat="42.95153244" lon="-72.64646247">
    <tag k="addr:city" v="Newfane"/>
    <tag k="addr:housenumber" v="2"/>
    <tag k="addr:street" v="Wildwood Acres Road"/>
    <tag k="addr:state" v="VT"/>
    <tag k="ref:vcgi:esiteid" v="175401"/>
  </node>
  <node id="-705" visible="true" lat="42.95124538" lon="-72.647351">
    <tag k="addr:city" v="Newfane"/>
    <tag k="addr:housenumber" v="8"/>
    <tag k="addr:street" v="Wildwood Acres Road"/>
    <tag k="addr:state" v="VT"/>
    <tag k="ref:vcgi:esiteid" v="175402"/>
  </node>
  <node id="-707" visible="true" lat="42.95103077" lon="-72.6460145">
    <tag k="addr:city" v="Newfane"/>
    <tag k="addr:housenumber" v="3"/>
    <tag k="addr:street" v="White Pine Lane"/>
    <tag k="addr:state" v="VT"/>
    <tag k="ref:vcgi:esiteid" v="175404"/>
  </node>
  <node id="-709" visible="true" lat="42.95079803" lon="-72.64690399">
    <tag k="addr:city" v="Newfane"/>
    <tag k="addr:housenumber" v="7"/>
    <tag k="addr:street" v="Wildwood Acres Road"/>
    <tag k="addr:state" v="VT"/>
    <tag k="ref:vcgi:esiteid" v="175406"/>
  </node>
  <node id="-710" visible="true" lat="42.95070648" lon="-72.64867401">
    <tag k="addr:city" v="Newfane"/>
    <tag k="addr:housenumber" v="12"/>
    <tag k="addr:street" v="Wildwood Acres Road"/>
    <tag k="addr:state" v="VT"/>
    <tag k="ref:vcgi:esiteid" v="175407"/>
  </node>
  <node id="-711" visible="true" lat="42.95073141" lon="-72.66275362">
    <tag k="addr:city" v="Newfane"/>
    <tag k="addr:housenumber" v="109"/>
    <tag k="addr:street" v="Grimes Hill Road"/>
    <tag k="addr:state" v="VT"/>
    <tag k="ref:vcgi:esiteid" v="175408"/>
  </node>
  <node id="-712" visible="true" lat="42.95062518" lon="-72.64729325">
    <tag k="addr:city" v="Newfane"/>
    <tag k="addr:housenumber" v="13"/>
    <tag k="addr:street" v="Wildwood Acres Road"/>
    <tag k="addr:state" v="VT"/>
    <tag k="ref:vcgi:esiteid" v="175409"/>
  </node>
  <node id="-718" visible="true" lat="42.95013167" lon="-72.64518213">
    <tag k="addr:city" v="Newfane"/>
    <tag k="addr:housenumber" v="11"/>
    <tag k="addr:street" v="White Pine Lane"/>
    <tag k="addr:state" v="VT"/>
    <tag k="ref:vcgi:esiteid" v="175415"/>
  </node>
  <node id="-720" visible="true" lat="42.95022397" lon="-72.64621015">
    <tag k="addr:city" v="Newfane"/>
    <tag k="addr:housenumber" v="6"/>
    <tag k="addr:street" v="White Pine Lane"/>
    <tag k="addr:state" v="VT"/>
    <tag k="ref:vcgi:esiteid" v="175417"/>
  </node>
  <node id="-723" visible="true" lat="42.94986942" lon="-72.65944658">
    <tag k="addr:city" v="Newfane"/>
    <tag k="addr:housenumber" v="135"/>
    <tag k="addr:street" v="Duke Road"/>
    <tag k="addr:state" v="VT"/>
    <tag k="ref:vcgi:esiteid" v="175420"/>
  </node>
  <node id="-724" visible="true" lat="42.94986359" lon="-72.64687078">
    <tag k="addr:city" v="Newfane"/>
    <tag k="addr:housenumber" v="33"/>
    <tag k="addr:street" v="Wildwood Acres Road"/>
    <tag k="addr:state" v="VT"/>
    <tag k="ref:vcgi:esiteid" v="175421"/>
  </node>
  <node id="-729" visible="true" lat="42.94981626" lon="-72.66455332">
    <tag k="addr:city" v="Newfane"/>
    <tag k="addr:housenumber" v="111"/>
    <tag k="addr:street" v="Grimes Hill Road"/>
    <tag k="addr:state" v="VT"/>
    <tag k="ref:vcgi:esiteid" v="175426"/>
  </node>
  <node id="-730" visible="true" lat="42.94985946" lon="-72.6458877">
    <tag k="addr:city" v="Newfane"/>
    <tag k="addr:housenumber" v="12"/>
    <tag k="addr:street" v="White Pine Lane"/>
    <tag k="addr:state" v="VT"/>
    <tag k="ref:vcgi:esiteid" v="175427"/>
  </node>
  <node id="-731" visible="true" lat="42.94966506" lon="-72.64940643">
    <tag k="addr:city" v="Newfane"/>
    <tag k="addr:housenumber" v="30"/>
    <tag k="addr:street" v="Wildwood Acres Road"/>
    <tag k="addr:state" v="VT"/>
    <tag k="ref:vcgi:esiteid" v="175428"/>
  </node>
  <node id="-733" visible="true" lat="42.94957748" lon="-72.64665601">
    <tag k="addr:city" v="Newfane"/>
    <tag k="addr:housenumber" v="37"/>
    <tag k="addr:street" v="Wildwood Acres Road"/>
    <tag k="addr:state" v="VT"/>
    <tag k="ref:vcgi:esiteid" v="175430"/>
  </node>
  <node id="-734" visible="true" lat="42.94962692" lon="-72.64749908">
    <tag k="addr:city" v="Newfane"/>
    <tag k="addr:housenumber" v="22"/>
    <tag k="addr:street" v="Wildwood Acres Road"/>
    <tag k="addr:state" v="VT"/>
    <tag k="ref:vcgi:esiteid" v="175431"/>
  </node>
  <node id="-736" visible="true" lat="42.94931357" lon="-72.64634936">
    <tag k="addr:city" v="Newfane"/>
    <tag k="addr:housenumber" v="39"/>
    <tag k="addr:street" v="Wildwood Acres Road"/>
    <tag k="addr:state" v="VT"/>
    <tag k="ref:vcgi:esiteid" v="175433"/>
  </node>
  <node id="-737" visible="true" lat="42.94955441" lon="-72.64572837">
    <tag k="addr:city" v="Newfane"/>
    <tag k="addr:housenumber" v="14"/>
    <tag k="addr:street" v="White Pine Lane"/>
    <tag k="addr:state" v="VT"/>
    <tag k="ref:vcgi:esiteid" v="175434"/>
  </node>
  <node id="-739" visible="true" lat="42.94945369" lon="-72.6592138">
    <tag k="addr:city" v="Newfane"/>
    <tag k="addr:housenumber" v="130"/>
    <tag k="addr:street" v="Duke Road"/>
    <tag k="addr:state" v="VT"/>
    <tag k="ref:vcgi:esiteid" v="175436"/>
  </node>
  <node id="-740" visible="true" lat="42.94894407" lon="-72.64664748">
    <tag k="addr:city" v="Newfane"/>
    <tag k="addr:housenumber" v="41"/>
    <tag k="addr:street" v="Wildwood Acres Road"/>
    <tag k="addr:state" v="VT"/>
    <tag k="ref:vcgi:esiteid" v="175437"/>
  </node>
  <node id="-743" visible="true" lat="42.94912338" lon="-72.64785003">
    <tag k="addr:city" v="Newfane"/>
    <tag k="addr:housenumber" v="46"/>
    <tag k="addr:street" v="Wildwood Acres Road"/>
    <tag k="addr:state" v="VT"/>
    <tag k="ref:vcgi:esiteid" v="175441"/>
  </node>
  <node id="-744" visible="true" lat="42.94910122" lon="-72.6590448">
    <tag k="addr:city" v="Newfane"/>
    <tag k="addr:housenumber" v="132"/>
    <tag k="addr:street" v="Duke Road"/>
    <tag k="addr:state" v="VT"/>
    <tag k="ref:vcgi:esiteid" v="175442"/>
  </node>
  <node id="-746" visible="true" lat="42.94889503" lon="-72.66142735">
    <tag k="addr:city" v="Newfane"/>
    <tag k="addr:housenumber" v="108"/>
    <tag k="addr:street" v="Duke Road"/>
    <tag k="addr:state" v="VT"/>
    <tag k="ref:vcgi:esiteid" v="175444"/>
  </node>
  <node id="-748" visible="true" lat="42.94851137" lon="-72.64710089">
    <tag k="addr:city" v="Newfane"/>
    <tag k="addr:housenumber" v="43"/>
    <tag k="addr:street" v="Wildwood Acres Road"/>
    <tag k="addr:state" v="VT"/>
    <tag k="ref:vcgi:esiteid" v="175446"/>
  </node>
  <node id="-749" visible="true" lat="42.9487152" lon="-72.64868164">
    <tag k="addr:city" v="Newfane"/>
    <tag k="addr:housenumber" v="48"/>
    <tag k="addr:street" v="Wildwood Acres Road"/>
    <tag k="addr:state" v="VT"/>
    <tag k="ref:vcgi:esiteid" v="175447"/>
  </node>
  <node id="-751" visible="true" lat="42.9485407" lon="-72.64779098">
    <tag k="addr:city" v="Newfane"/>
    <tag k="addr:housenumber" v="45"/>
    <tag k="addr:street" v="Wildwood Acres Road"/>
    <tag k="addr:state" v="VT"/>
    <tag k="ref:vcgi:esiteid" v="175449"/>
  </node>
  <node id="-753" visible="true" lat="42.94861431" lon="-72.6501109">
    <tag k="addr:city" v="Newfane"/>
    <tag k="addr:housenumber" v="50"/>
    <tag k="addr:street" v="Old Pine Road"/>
    <tag k="addr:state" v="VT"/>
    <tag k="ref:vcgi:esiteid" v="175451"/>
  </node>
  <node id="-758" visible="true" lat="42.9484786" lon="-72.67959184">
    <tag k="addr:city" v="Newfane"/>
    <tag k="addr:housenumber" v="29"/>
    <tag k="addr:street" v="Timson Hill Road"/>
    <tag k="addr:state" v="VT"/>
    <tag k="ref:vcgi:esiteid" v="175456"/>
  </node>
  <node id="-759" visible="true" lat="42.94832743" lon="-72.65916865">
    <tag k="addr:city" v="Newfane"/>
    <tag k="addr:housenumber" v="128"/>
    <tag k="addr:street" v="Duke Road"/>
    <tag k="addr:state" v="VT"/>
    <tag k="ref:vcgi:esiteid" v="175458"/>
  </node>
  <node id="-761" visible="true" lat="42.94834899" lon="-72.64366912">
    <tag k="addr:city" v="Newfane"/>
    <tag k="addr:housenumber" v="78"/>
    <tag k="addr:street" v="Wildwood Acres Road"/>
    <tag k="addr:state" v="VT"/>
    <tag k="ref:vcgi:esiteid" v="175460"/>
  </node>
  <node id="-765" visible="true" lat="42.9481632" lon="-72.66321455">
    <tag k="addr:city" v="Newfane"/>
    <tag k="addr:housenumber" v="88"/>
    <tag k="addr:street" v="Duke Road"/>
    <tag k="addr:state" v="VT"/>
    <tag k="ref:vcgi:esiteid" v="175464"/>
  </node>
  <node id="-766" visible="true" lat="42.94812642" lon="-72.64456412">
    <tag k="addr:city" v="Newfane"/>
    <tag k="addr:housenumber" v="73"/>
    <tag k="addr:street" v="Wildwood Acres Road"/>
    <tag k="addr:state" v="VT"/>
    <tag k="ref:vcgi:esiteid" v="175465"/>
  </node>
  <node id="-769" visible="true" lat="42.94800216" lon="-72.64498871">
    <tag k="addr:city" v="Newfane"/>
    <tag k="addr:housenumber" v="69"/>
    <tag k="addr:street" v="Wildwood Acres Road"/>
    <tag k="addr:state" v="VT"/>
    <tag k="ref:vcgi:esiteid" v="175468"/>
  </node>
  <node id="-770" visible="true" lat="42.94781153" lon="-72.67688715">
    <tag k="addr:city" v="Newfane"/>
    <tag k="addr:housenumber" v="4"/>
    <tag k="addr:street" v="Dover Road"/>
    <tag k="addr:state" v="VT"/>
    <tag k="ref:vcgi:esiteid" v="175469"/>
  </node>
  <node id="-772" visible="true" lat="42.94806638" lon="-72.65048845">
    <tag k="addr:city" v="Newfane"/>
    <tag k="addr:housenumber" v="51"/>
    <tag k="addr:street" v="Old Pine Road"/>
    <tag k="addr:state" v="VT"/>
    <tag k="ref:vcgi:esiteid" v="175471"/>
  </node>
  <node id="-774" visible="true" lat="42.94801712" lon="-72.67861938">
    <tag k="addr:city" v="Newfane"/>
    <tag k="addr:housenumber" v="18"/>
    <tag k="addr:street" v="Timson Hill Road"/>
    <tag k="addr:state" v="VT"/>
    <tag k="ref:vcgi:esiteid" v="175473"/>
  </node>
  <node id="-775" visible="true" lat="42.94796192" lon="-72.64730886">
    <tag k="addr:city" v="Newfane"/>
    <tag k="addr:housenumber" v="57"/>
    <tag k="addr:street" v="Wildwood Acres Road"/>
    <tag k="addr:state" v="VT"/>
    <tag k="ref:vcgi:esiteid" v="175474"/>
  </node>
  <node id="-776" visible="true" lat="42.94760121" lon="-72.67744609">
    <tag k="addr:city" v="Newfane"/>
    <tag k="addr:housenumber" v="12"/>
    <tag k="addr:street" v="Dover Road"/>
    <tag k="addr:state" v="VT"/>
    <tag k="ref:vcgi:esiteid" v="175475"/>
  </node>
  <node id="-778" visible="true" lat="42.94769577" lon="-72.66569046">
    <tag k="addr:city" v="Newfane"/>
    <tag k="addr:housenumber" v="76"/>
    <tag k="addr:street" v="Duke Road"/>
    <tag k="addr:state" v="VT"/>
    <tag k="ref:vcgi:esiteid" v="175477"/>
  </node>
  <node id="-779" visible="true" lat="42.94784545" lon="-72.64353942">
    <tag k="addr:city" v="Newfane"/>
    <tag k="addr:housenumber" v="3"/>
    <tag k="addr:street" v="Rock River Terrace"/>
    <tag k="addr:state" v="VT"/>
    <tag k="ref:vcgi:esiteid" v="175478"/>
  </node>
  <node id="-783" visible="true" lat="42.94763018" lon="-72.67502177">
    <tag k="addr:city" v="Newfane"/>
    <tag k="addr:housenumber" v="374"/>
    <tag k="addr:street" v="Depot Road"/>
    <tag k="addr:state" v="VT"/>
    <tag k="ref:vcgi:esiteid" v="175482"/>
  </node>
  <node id="-785" visible="true" lat="42.94766077" lon="-72.67828413">
    <tag k="addr:city" v="Newfane"/>
    <tag k="addr:housenumber" v="12"/>
    <tag k="addr:street" v="Timson Hill Road"/>
    <tag k="addr:state" v="VT"/>
    <tag k="ref:vcgi:esiteid" v="175484"/>
  </node>
  <node id="-788" visible="true" lat="42.94756375" lon="-72.64539069">
    <tag k="addr:city" v="Newfane"/>
    <tag k="addr:housenumber" v="12"/>
    <tag k="addr:street" v="Rock River Terrace"/>
    <tag k="addr:state" v="VT"/>
    <tag k="ref:vcgi:esiteid" v="175487"/>
  </node>
  <node id="-789" visible="true" lat="42.94736988" lon="-72.67535662">
    <tag k="addr:city" v="Newfane"/>
    <tag k="addr:housenumber" v="2"/>
    <tag k="addr:street" v="Sunset Lake Road"/>
    <tag k="addr:state" v="VT"/>
    <tag k="ref:vcgi:esiteid" v="175488"/>
  </node>
  <node id="-790" visible="true" lat="42.94736862" lon="-72.67892456">
    <tag k="addr:city" v="Newfane"/>
    <tag k="addr:housenumber" v="13"/>
    <tag k="addr:street" v="Timson Hill Road"/>
    <tag k="addr:state" v="VT"/>
    <tag k="ref:vcgi:esiteid" v="175489"/>
  </node>
  <node id="-793" visible="true" lat="42.94715881" lon="-72.67778015">
    <tag k="addr:city" v="Newfane"/>
    <tag k="addr:housenumber" v="24"/>
    <tag k="addr:street" v="Dover Road"/>
    <tag k="addr:state" v="VT"/>
    <tag k="ref:vcgi:esiteid" v="175492"/>
  </node>
  <node id="-795" visible="true" lat="42.94692998" lon="-72.67001136">
    <tag k="addr:city" v="Newfane"/>
    <tag k="addr:housenumber" v="9"/>
    <tag k="addr:street" v="Duke Road"/>
    <tag k="addr:state" v="VT"/>
    <tag k="ref:vcgi:esiteid" v="175494"/>
  </node>
  <node id="-797" visible="true" lat="42.947088" lon="-72.64480276">
    <tag k="addr:city" v="Newfane"/>
    <tag k="addr:housenumber" v="15"/>
    <tag k="addr:street" v="Rock River Terrace"/>
    <tag k="addr:state" v="VT"/>
    <tag k="ref:vcgi:esiteid" v="175496"/>
  </node>
  <node id="-798" visible="true" lat="42.94702148" lon="-72.67787933">
    <tag k="addr:city" v="Newfane"/>
    <tag k="addr:housenumber" v="26"/>
    <tag k="addr:street" v="Dover Road"/>
    <tag k="addr:state" v="VT"/>
    <tag k="ref:vcgi:esiteid" v="175497"/>
  </node>
  <node id="-799" visible="true" lat="42.94701505" lon="-72.67638799">
    <tag k="addr:city" v="Newfane"/>
    <tag k="addr:housenumber" v="375"/>
    <tag k="addr:street" v="Depot Road"/>
    <tag k="addr:state" v="VT"/>
    <tag k="ref:vcgi:esiteid" v="175498"/>
  </node>
  <node id="-804" visible="true" lat="42.94683686" lon="-72.67816373">
    <tag k="addr:city" v="Newfane"/>
    <tag k="addr:housenumber" v="32"/>
    <tag k="addr:street" v="Dover Road"/>
    <tag k="addr:state" v="VT"/>
    <tag k="ref:vcgi:esiteid" v="175503"/>
  </node>
  <node id="-808" visible="true" lat="42.94670575" lon="-72.66456621">
    <tag k="addr:city" v="Newfane"/>
    <tag k="addr:housenumber" v="260"/>
    <tag k="addr:street" v="Depot Road"/>
    <tag k="addr:state" v="VT"/>
    <tag k="ref:vcgi:esiteid" v="175507"/>
  </node>
  <node id="-810" visible="true" lat="42.94668431" lon="-72.66582206">
    <tag k="addr:city" v="Newfane"/>
    <tag k="addr:housenumber" v="270"/>
    <tag k="addr:street" v="Depot Road"/>
    <tag k="addr:state" v="VT"/>
    <tag k="ref:vcgi:esiteid" v="175509"/>
  </node>
  <node id="-813" visible="true" lat="42.94677427" lon="-72.67100879">
    <tag k="addr:city" v="Newfane"/>
    <tag k="addr:housenumber" v="11"/>
    <tag k="addr:street" v="Duke Road"/>
    <tag k="addr:state" v="VT"/>
    <tag k="ref:vcgi:esiteid" v="175512"/>
  </node>
  <node id="-816" visible="true" lat="42.94684036" lon="-72.64592432">
    <tag k="addr:city" v="Newfane"/>
    <tag k="addr:housenumber" v="22"/>
    <tag k="addr:street" v="Rock River Terrace"/>
    <tag k="addr:state" v="VT"/>
    <tag k="ref:vcgi:esiteid" v="175515"/>
  </node>
  <node id="-817" visible="true" lat="42.94657278" lon="-72.67143488">
    <tag k="addr:city" v="Newfane"/>
    <tag k="addr:housenumber" v="5"/>
    <tag k="addr:street" v="Duke Road"/>
    <tag k="addr:state" v="VT"/>
    <tag k="ref:vcgi:esiteid" v="175516"/>
  </node>
  <node id="-818" visible="true" lat="42.94656079" lon="-72.64551162">
    <tag k="addr:city" v="Newfane"/>
    <tag k="addr:housenumber" v="23"/>
    <tag k="addr:street" v="Rock River Terrace"/>
    <tag k="addr:state" v="VT"/>
    <tag k="ref:vcgi:esiteid" v="175517"/>
  </node>
  <node id="-820" visible="true" lat="42.94648205" lon="-72.67794982">
    <tag k="addr:city" v="Newfane"/>
    <tag k="addr:housenumber" v="31"/>
    <tag k="addr:street" v="Dover Road"/>
    <tag k="addr:state" v="VT"/>
    <tag k="ref:vcgi:esiteid" v="175519"/>
  </node>
  <node id="-821" visible="true" lat="42.94654738" lon="-72.64306089">
    <tag k="addr:city" v="Newfane"/>
    <tag k="addr:housenumber" v="11"/>
    <tag k="addr:street" v="Station Road"/>
    <tag k="addr:state" v="VT"/>
    <tag k="ref:vcgi:esiteid" v="175520"/>
  </node>
  <node id="-822" visible="true" lat="42.94638041" lon="-72.67907117">
    <tag k="addr:city" v="Newfane"/>
    <tag k="addr:housenumber" v="44"/>
    <tag k="addr:street" v="Dover Road"/>
    <tag k="addr:state" v="VT"/>
    <tag k="ref:vcgi:esiteid" v="175521"/>
  </node>
  <node id="-823" visible="true" lat="42.94632339" lon="-72.67817688">
    <tag k="addr:city" v="Newfane"/>
    <tag k="addr:housenumber" v="35"/>
    <tag k="addr:street" v="Dover Road"/>
    <tag k="addr:state" v="VT"/>
    <tag k="ref:vcgi:esiteid" v="175522"/>
  </node>
  <node id="-824" visible="true" lat="42.94628749" lon="-72.67932935">
    <tag k="addr:city" v="Newfane"/>
    <tag k="addr:housenumber" v="46"/>
    <tag k="addr:street" v="Dover Road"/>
    <tag k="addr:state" v="VT"/>
    <tag k="ref:vcgi:esiteid" v="175523"/>
  </node>
  <node id="-825" visible="true" lat="42.94622482" lon="-72.66419242">
    <tag k="addr:city" v="Newfane"/>
    <tag k="addr:housenumber" v="254"/>
    <tag k="addr:street" v="Depot Road"/>
    <tag k="addr:state" v="VT"/>
    <tag k="ref:vcgi:esiteid" v="175524"/>
  </node>
  <node id="-826" visible="true" lat="42.94620954" lon="-72.67951557">
    <tag k="addr:city" v="Newfane"/>
    <tag k="addr:housenumber" v="48"/>
    <tag k="addr:street" v="Dover Road"/>
    <tag k="addr:state" v="VT"/>
    <tag k="ref:vcgi:esiteid" v="175525"/>
  </node>
  <node id="-827" visible="true" lat="42.94622421" lon="-72.67841339">
    <tag k="addr:city" v="Newfane"/>
    <tag k="addr:housenumber" v="37"/>
    <tag k="addr:street" v="Dover Road"/>
    <tag k="addr:state" v="VT"/>
    <tag k="ref:vcgi:esiteid" v="175526"/>
  </node>
  <node id="-829" visible="true" lat="42.94608732" lon="-72.68006331">
    <tag k="addr:city" v="Newfane"/>
    <tag k="addr:housenumber" v="54"/>
    <tag k="addr:street" v="Dover Road"/>
    <tag k="addr:state" v="VT"/>
    <tag k="ref:vcgi:esiteid" v="175529"/>
  </node>
  <node id="-831" visible="true" lat="42.9460363" lon="-72.66929487">
    <tag k="addr:city" v="Newfane"/>
    <tag k="addr:housenumber" v="306"/>
    <tag k="addr:street" v="Depot Road"/>
    <tag k="addr:state" v="VT"/>
    <tag k="ref:vcgi:esiteid" v="175531"/>
  </node>
  <node id="-832" visible="true" lat="42.94607904" lon="-72.67976592">
    <tag k="addr:city" v="Newfane"/>
    <tag k="addr:housenumber" v="52"/>
    <tag k="addr:street" v="Dover Road"/>
    <tag k="addr:state" v="VT"/>
    <tag k="ref:vcgi:esiteid" v="175532"/>
  </node>
  <node id="-833" visible="true" lat="42.94612777" lon="-72.67871509">
    <tag k="addr:city" v="Newfane"/>
    <tag k="addr:housenumber" v="41"/>
    <tag k="addr:street" v="Dover Road"/>
    <tag k="addr:state" v="VT"/>
    <tag k="ref:vcgi:esiteid" v="175533"/>
  </node>
  <node id="-837" visible="true" lat="42.94589421" lon="-72.6793854">
    <tag k="addr:city" v="Newfane"/>
    <tag k="addr:housenumber" v="49"/>
    <tag k="addr:street" v="Dover Road"/>
    <tag k="addr:state" v="VT"/>
    <tag k="ref:vcgi:esiteid" v="175538"/>
  </node>
  <node id="-838" visible="true" lat="42.94587032" lon="-72.68032405">
    <tag k="addr:city" v="Newfane"/>
    <tag k="addr:housenumber" v="58"/>
    <tag k="addr:street" v="Dover Road"/>
    <tag k="addr:state" v="VT"/>
    <tag k="ref:vcgi:esiteid" v="175539"/>
  </node>
  <node id="-839" visible="true" lat="42.94578078" lon="-72.68051903">
    <tag k="addr:city" v="Newfane"/>
    <tag k="addr:housenumber" v="60"/>
    <tag k="addr:street" v="Dover Road"/>
    <tag k="addr:state" v="VT"/>
    <tag k="ref:vcgi:esiteid" v="175540"/>
  </node>
  <node id="-841" visible="true" lat="42.94571868" lon="-72.68079701">
    <tag k="addr:city" v="Newfane"/>
    <tag k="addr:housenumber" v="66"/>
    <tag k="addr:street" v="Dover Road"/>
    <tag k="addr:state" v="VT"/>
    <tag k="ref:vcgi:esiteid" v="175542"/>
  </node>
  <node id="-846" visible="true" lat="42.94544746" lon="-72.6814014">
    <tag k="addr:city" v="Newfane"/>
    <tag k="addr:housenumber" v="70"/>
    <tag k="addr:street" v="Dover Road"/>
    <tag k="addr:state" v="VT"/>
    <tag k="ref:vcgi:esiteid" v="175548"/>
  </node>
  <node id="-847" visible="true" lat="42.94542076" lon="-72.68063516">
    <tag k="addr:city" v="Newfane"/>
    <tag k="addr:housenumber" v="65"/>
    <tag k="addr:street" v="Dover Road"/>
    <tag k="addr:state" v="VT"/>
    <tag k="ref:vcgi:esiteid" v="175550"/>
  </node>
  <node id="-849" visible="true" lat="42.94532031" lon="-72.68045904">
    <tag k="addr:city" v="Newfane"/>
    <tag k="addr:housenumber" v="8"/>
    <tag k="addr:street" v="Grist Mill Road"/>
    <tag k="addr:state" v="VT"/>
    <tag k="ref:vcgi:esiteid" v="175552"/>
  </node>
  <node id="-850" visible="true" lat="42.94525998" lon="-72.68207519">
    <tag k="addr:city" v="Newfane"/>
    <tag k="addr:housenumber" v="5"/>
    <tag k="addr:street" v="Baker Brook Road"/>
    <tag k="addr:state" v="VT"/>
    <tag k="ref:vcgi:esiteid" v="175553"/>
  </node>
  <node id="-856" visible="true" lat="42.94517898" lon="-72.68099975">
    <tag k="addr:city" v="Newfane"/>
    <tag k="addr:housenumber" v="67"/>
    <tag k="addr:street" v="Dover Road"/>
    <tag k="addr:state" v="VT"/>
    <tag k="ref:vcgi:esiteid" v="175559"/>
  </node>
  <node id="-858" visible="true" lat="42.9451681" lon="-72.67058169">
    <tag k="addr:city" v="Newfane"/>
    <tag k="addr:housenumber" v="16"/>
    <tag k="addr:street" v="Howe Road"/>
    <tag k="addr:state" v="VT"/>
    <tag k="ref:vcgi:esiteid" v="175562"/>
  </node>
  <node id="-864" visible="true" lat="42.94464936" lon="-72.66970615">
    <tag k="addr:city" v="Newfane"/>
    <tag k="addr:housenumber" v="20"/>
    <tag k="addr:street" v="Howe Road"/>
    <tag k="addr:state" v="VT"/>
    <tag k="ref:vcgi:esiteid" v="175568"/>
  </node>
  <node id="-872" visible="true" lat="42.94413584" lon="-72.66885598">
    <tag k="addr:city" v="Newfane"/>
    <tag k="addr:housenumber" v="19"/>
    <tag k="addr:street" v="Howe Road"/>
    <tag k="addr:state" v="VT"/>
    <tag k="ref:vcgi:esiteid" v="175576"/>
  </node>
  <node id="-873" visible="true" lat="42.94531125" lon="-72.66585583">
    <tag k="addr:city" v="Newfane"/>
    <tag k="addr:housenumber" v="269"/>
    <tag k="addr:street" v="Depot Road"/>
    <tag k="addr:state" v="VT"/>
    <tag k="ref:vcgi:esiteid" v="175577"/>
  </node>
  <node id="-881" visible="true" lat="42.94364547" lon="-72.66995239">
    <tag k="addr:city" v="Newfane"/>
    <tag k="addr:housenumber" v="31"/>
    <tag k="addr:street" v="Howe Road"/>
    <tag k="addr:state" v="VT"/>
    <tag k="ref:vcgi:esiteid" v="175586"/>
  </node>
  <node id="-926" visible="true" lat="42.93928992" lon="-72.72530869">
    <tag k="addr:city" v="Newfane"/>
    <tag k="addr:housenumber" v="8"/>
    <tag k="addr:street" v="Beech Tree Lane"/>
    <tag k="addr:state" v="VT"/>
    <tag k="ref:vcgi:esiteid" v="175631"/>
  </node>
  <node id="-928" visible="true" lat="42.93901608" lon="-72.72147946">
    <tag k="addr:city" v="Newfane"/>
    <tag k="addr:housenumber" v="569"/>
    <tag k="addr:street" v="Dover Road"/>
    <tag k="addr:state" v="VT"/>
    <tag k="ref:vcgi:esiteid" v="175633"/>
  </node>
  <node id="-940" visible="true" lat="42.93757247" lon="-72.70591735">
    <tag k="addr:city" v="Newfane"/>
    <tag k="addr:housenumber" v="362"/>
    <tag k="addr:street" v="Dover Road"/>
    <tag k="addr:state" v="VT"/>
    <tag k="ref:vcgi:esiteid" v="175646"/>
  </node>
  <node id="-942" visible="true" lat="42.93703842" lon="-72.73394775">
    <tag k="addr:city" v="Newfane"/>
    <tag k="addr:housenumber" v="126"/>
    <tag k="addr:street" v="Stratton Hill Road"/>
    <tag k="addr:state" v="VT"/>
    <tag k="ref:vcgi:esiteid" v="175648"/>
  </node>
  <node id="-943" visible="true" lat="42.93697548" lon="-72.70362629">
    <tag k="addr:city" v="Newfane"/>
    <tag k="addr:housenumber" v="349"/>
    <tag k="addr:street" v="Dover Road"/>
    <tag k="addr:state" v="VT"/>
    <tag k="ref:vcgi:esiteid" v="175649"/>
  </node>
  <node id="-944" visible="true" lat="42.93700724" lon="-72.703254">
    <tag k="addr:city" v="Newfane"/>
    <tag k="addr:housenumber" v="343"/>
    <tag k="addr:street" v="Dover Road"/>
    <tag k="addr:state" v="VT"/>
    <tag k="ref:vcgi:esiteid" v="175650"/>
  </node>
  <node id="-945" visible="true" lat="42.93687706" lon="-72.7060771">
    <tag k="addr:city" v="Newfane"/>
    <tag k="addr:housenumber" v="374"/>
    <tag k="addr:street" v="Dover Road"/>
    <tag k="addr:state" v="VT"/>
    <tag k="ref:vcgi:esiteid" v="175651"/>
  </node>
  <node id="-947" visible="true" lat="42.93698918" lon="-72.70504617">
    <tag k="addr:city" v="Newfane"/>
    <tag k="addr:housenumber" v="365"/>
    <tag k="addr:street" v="Dover Road"/>
    <tag k="addr:state" v="VT"/>
    <tag k="ref:vcgi:esiteid" v="175653"/>
  </node>
  <node id="-948" visible="true" lat="42.9369624" lon="-72.70295532">
    <tag k="addr:city" v="Newfane"/>
    <tag k="addr:housenumber" v="341"/>
    <tag k="addr:street" v="Dover Road"/>
    <tag k="addr:state" v="VT"/>
    <tag k="ref:vcgi:esiteid" v="175654"/>
  </node>
  <node id="-949" visible="true" lat="42.93692779" lon="-72.70426177">
    <tag k="addr:city" v="Newfane"/>
    <tag k="addr:housenumber" v="367"/>
    <tag k="addr:street" v="Dover Road"/>
    <tag k="addr:state" v="VT"/>
    <tag k="ref:vcgi:esiteid" v="175655"/>
  </node>
  <node id="-950" visible="true" lat="42.93687444" lon="-72.70253663">
    <tag k="addr:city" v="Newfane"/>
    <tag k="addr:housenumber" v="339"/>
    <tag k="addr:street" v="Dover Road"/>
    <tag k="addr:state" v="VT"/>
    <tag k="ref:vcgi:esiteid" v="175656"/>
  </node>
  <node id="-951" visible="true" lat="42.93677139" lon="-72.70527648">
    <tag k="addr:city" v="Newfane"/>
    <tag k="addr:housenumber" v="369"/>
    <tag k="addr:street" v="Dover Road"/>
    <tag k="addr:state" v="VT"/>
    <tag k="ref:vcgi:esiteid" v="175657"/>
  </node>
  <node id="-952" visible="true" lat="42.93671955" lon="-72.70195975">
    <tag k="addr:city" v="Newfane"/>
    <tag k="addr:housenumber" v="333"/>
    <tag k="addr:street" v="Dover Road"/>
    <tag k="addr:state" v="VT"/>
    <tag k="ref:vcgi:esiteid" v="175658"/>
  </node>
  <node id="-953" visible="true" lat="42.93661236" lon="-72.70633703">
    <tag k="addr:city" v="Newfane"/>
    <tag k="addr:housenumber" v="380"/>
    <tag k="addr:street" v="Dover Road"/>
    <tag k="addr:state" v="VT"/>
    <tag k="ref:vcgi:esiteid" v="175659"/>
  </node>
  <node id="-957" visible="true" lat="42.93630534" lon="-72.70668821">
    <tag k="addr:city" v="Newfane"/>
    <tag k="addr:housenumber" v="382"/>
    <tag k="addr:street" v="Dover Road"/>
    <tag k="addr:state" v="VT"/>
    <tag k="ref:vcgi:esiteid" v="175663"/>
  </node>
  <node id="-962" visible="true" lat="42.93593017" lon="-72.71506506">
    <tag k="addr:city" v="Newfane"/>
    <tag k="addr:housenumber" v="492"/>
    <tag k="addr:street" v="Dover Road"/>
    <tag k="addr:state" v="VT"/>
    <tag k="ref:vcgi:esiteid" v="175668"/>
  </node>
  <node id="-964" visible="true" lat="42.93584454" lon="-72.70638978">
    <tag k="addr:city" v="Newfane"/>
    <tag k="addr:housenumber" v="387"/>
    <tag k="addr:street" v="Dover Road"/>
    <tag k="addr:state" v="VT"/>
    <tag k="ref:vcgi:esiteid" v="175670"/>
  </node>
  <node id="-965" visible="true" lat="42.93574905" lon="-72.73596954">
    <tag k="addr:city" v="Newfane"/>
    <tag k="addr:housenumber" v="160"/>
    <tag k="addr:street" v="Stratton Hill Road"/>
    <tag k="addr:state" v="VT"/>
    <tag k="ref:vcgi:esiteid" v="175671"/>
  </node>
  <node id="-966" visible="true" lat="42.9356637" lon="-72.70690265">
    <tag k="addr:city" v="Newfane"/>
    <tag k="addr:housenumber" v="393"/>
    <tag k="addr:street" v="Dover Road"/>
    <tag k="addr:state" v="VT"/>
    <tag k="ref:vcgi:esiteid" v="175672"/>
  </node>
  <node id="-967" visible="true" lat="42.93559364" lon="-72.70704908">
    <tag k="addr:city" v="Newfane"/>
    <tag k="addr:housenumber" v="397"/>
    <tag k="addr:street" v="Dover Road"/>
    <tag k="addr:state" v="VT"/>
    <tag k="ref:vcgi:esiteid" v="175674"/>
  </node>
  <node id="-968" visible="true" lat="42.93557509" lon="-72.70828846">
    <tag k="addr:city" v="Newfane"/>
    <tag k="addr:housenumber" v="406"/>
    <tag k="addr:street" v="Dover Road"/>
    <tag k="addr:state" v="VT"/>
    <tag k="ref:vcgi:esiteid" v="175675"/>
  </node>
  <node id="-969" visible="true" lat="42.93539367" lon="-72.70868542">
    <tag k="addr:city" v="Newfane"/>
    <tag k="addr:housenumber" v="408"/>
    <tag k="addr:street" v="Dover Road"/>
    <tag k="addr:state" v="VT"/>
    <tag k="ref:vcgi:esiteid" v="175676"/>
  </node>
  <node id="-971" visible="true" lat="42.93532292" lon="-72.71818745">
    <tag k="addr:city" v="Newfane"/>
    <tag k="addr:housenumber" v="487"/>
    <tag k="addr:street" v="Dover Road"/>
    <tag k="addr:state" v="VT"/>
    <tag k="ref:vcgi:esiteid" v="175678"/>
  </node>
  <node id="-972" visible="true" lat="42.93516158" lon="-72.70794677">
    <tag k="addr:city" v="Newfane"/>
    <tag k="addr:housenumber" v="403"/>
    <tag k="addr:street" v="Dover Road"/>
    <tag k="addr:state" v="VT"/>
    <tag k="ref:vcgi:esiteid" v="175679"/>
  </node>
  <node id="-973" visible="true" lat="42.93514414" lon="-72.73515342">
    <tag k="addr:city" v="Newfane"/>
    <tag k="addr:housenumber" v="151"/>
    <tag k="addr:street" v="Stratton Hill Road"/>
    <tag k="addr:state" v="VT"/>
    <tag k="ref:vcgi:esiteid" v="175680"/>
  </node>
  <node id="-976" visible="true" lat="42.93492592" lon="-72.7086541">
    <tag k="addr:city" v="Newfane"/>
    <tag k="addr:housenumber" v="7"/>
    <tag k="addr:street" v="Jenness Drive"/>
    <tag k="addr:state" v="VT"/>
    <tag k="ref:vcgi:esiteid" v="175683"/>
  </node>
  <node id="-977" visible="true" lat="42.93466306" lon="-72.70804043">
    <tag k="addr:city" v="Newfane"/>
    <tag k="addr:housenumber" v="13"/>
    <tag k="addr:street" v="Jenness Drive"/>
    <tag k="addr:state" v="VT"/>
    <tag k="ref:vcgi:esiteid" v="175684"/>
  </node>
  <node id="-978" visible="true" lat="42.93479996" lon="-72.7377542">
    <tag k="addr:city" v="Newfane"/>
    <tag k="addr:housenumber" v="179"/>
    <tag k="addr:street" v="Stratton Hill Road"/>
    <tag k="addr:state" v="VT"/>
    <tag k="ref:vcgi:esiteid" v="175685"/>
  </node>
  <node id="-979" visible="true" lat="42.93460264" lon="-72.71047117">
    <tag k="addr:city" v="Newfane"/>
    <tag k="addr:housenumber" v="432"/>
    <tag k="addr:street" v="Dover Road"/>
    <tag k="addr:state" v="VT"/>
    <tag k="ref:vcgi:esiteid" v="175686"/>
  </node>
  <node id="-980" visible="true" lat="42.93414542" lon="-72.7364787">
    <tag k="addr:city" v="Newfane"/>
    <tag k="addr:housenumber" v="159"/>
    <tag k="addr:street" v="Stratton Hill Road"/>
    <tag k="addr:state" v="VT"/>
    <tag k="ref:vcgi:esiteid" v="175687"/>
  </node>
  <node id="-981" visible="true" lat="42.93416595" lon="-72.7101593">
    <tag k="addr:city" v="Newfane"/>
    <tag k="addr:housenumber" v="431"/>
    <tag k="addr:street" v="Dover Road"/>
    <tag k="addr:state" v="VT"/>
    <tag k="ref:vcgi:esiteid" v="175688"/>
  </node>
  <node id="-984" visible="true" lat="42.93372726" lon="-72.71136474">
    <tag k="addr:city" v="Newfane"/>
    <tag k="addr:housenumber" v="443"/>
    <tag k="addr:street" v="Dover Road"/>
    <tag k="addr:state" v="VT"/>
    <tag k="ref:vcgi:esiteid" v="175691"/>
  </node>
  <node id="-987" visible="true" lat="42.93137004" lon="-72.74404035">
    <tag k="addr:city" v="Newfane"/>
    <tag k="addr:housenumber" v="258"/>
    <tag k="addr:street" v="Stratton Hill Road"/>
    <tag k="addr:state" v="VT"/>
    <tag k="ref:vcgi:esiteid" v="175694"/>
  </node>
  <node id="-1030" visible="true" lat="42.97867965" lon="-72.65641021">
    <tag k="addr:city" v="Newfane"/>
    <tag k="addr:housenumber" v="43"/>
    <tag k="addr:street" v="Back Street"/>
    <tag k="addr:state" v="VT"/>
    <tag k="ref:vcgi:esiteid" v="175737"/>
  </node>
  <node id="-1032" visible="true" lat="42.97885746" lon="-72.65598376">
    <tag k="addr:city" v="Newfane"/>
    <tag k="addr:housenumber" v="44"/>
    <tag k="addr:street" v="Back Street"/>
    <tag k="addr:state" v="VT"/>
    <tag k="ref:vcgi:esiteid" v="175739"/>
  </node>
  <node id="-1033" visible="true" lat="42.97857337" lon="-72.65584411">
    <tag k="addr:city" v="Newfane"/>
    <tag k="addr:housenumber" v="40"/>
    <tag k="addr:street" v="Back Street"/>
    <tag k="addr:state" v="VT"/>
    <tag k="ref:vcgi:esiteid" v="175740"/>
  </node>
  <node id="-1034" visible="true" lat="42.97832767" lon="-72.65579282">
    <tag k="addr:city" v="Newfane"/>
    <tag k="addr:housenumber" v="36"/>
    <tag k="addr:street" v="Back Street"/>
    <tag k="addr:state" v="VT"/>
    <tag k="ref:vcgi:esiteid" v="175741"/>
  </node>
  <node id="-1046" visible="true" lat="42.93455653" lon="-72.70907288">
    <tag k="addr:city" v="Newfane"/>
    <tag k="addr:housenumber" v="6"/>
    <tag k="addr:street" v="Jenness Drive"/>
    <tag k="addr:state" v="VT"/>
    <tag k="ref:vcgi:esiteid" v="175753"/>
  </node>
  <node id="-1047" visible="true" lat="42.93265255" lon="-72.71285415">
    <tag k="addr:city" v="Newfane"/>
    <tag k="addr:housenumber" v="9"/>
    <tag k="addr:street" v="Rutha Drive"/>
    <tag k="addr:state" v="VT"/>
    <tag k="ref:vcgi:esiteid" v="175754"/>
  </node>
  <node id="-1081" visible="true" lat="42.94548805" lon="-72.68203074">
    <tag k="addr:city" v="Newfane"/>
    <tag k="addr:housenumber" v="2"/>
    <tag k="addr:street" v="Baker Brook Road"/>
    <tag k="addr:state" v="VT"/>
    <tag k="ref:vcgi:esiteid" v="175791"/>
  </node>
  <node id="-1083" visible="true" lat="42.97994189" lon="-72.65825909">
    <tag k="addr:city" v="Newfane"/>
    <tag k="addr:housenumber" v="17"/>
    <tag k="addr:street" v="Bruce Brook Road"/>
    <tag k="addr:state" v="VT"/>
    <tag k="ref:vcgi:esiteid" v="175793"/>
  </node>
  <node id="-1089" visible="true" lat="42.9484055" lon="-72.67517269">
    <tag k="addr:city" v="Newfane"/>
    <tag k="addr:housenumber" v="2"/>
    <tag k="addr:street" v="Dover Road"/>
    <tag k="addr:state" v="VT"/>
    <tag k="ref:vcgi:esiteid" v="175799"/>
  </node>
  <node id="-1090" visible="true" lat="42.94547724" lon="-72.68133627">
    <tag k="addr:city" v="Newfane"/>
    <tag k="addr:housenumber" v="68"/>
    <tag k="addr:street" v="Dover Road"/>
    <tag k="addr:state" v="VT"/>
    <tag k="ref:vcgi:esiteid" v="175800"/>
  </node>
  <node id="-1091" visible="true" lat="42.94520618" lon="-72.68198262">
    <tag k="addr:city" v="Newfane"/>
    <tag k="addr:housenumber" v="72"/>
    <tag k="addr:street" v="Dover Road"/>
    <tag k="addr:state" v="VT"/>
    <tag k="ref:vcgi:esiteid" v="175801"/>
  </node>
  <node id="-1092" visible="true" lat="42.93212623" lon="-72.71116235">
    <tag k="addr:city" v="Newfane"/>
    <tag k="addr:housenumber" v="439"/>
    <tag k="addr:street" v="Dover Road"/>
    <tag k="addr:state" v="VT"/>
    <tag k="ref:vcgi:esiteid" v="175802"/>
  </node>
  <node id="-1093" visible="true" lat="42.93393007" lon="-72.70897048">
    <tag k="addr:city" v="Newfane"/>
    <tag k="addr:housenumber" v="12"/>
    <tag k="addr:street" v="Jenness Drive"/>
    <tag k="addr:state" v="VT"/>
    <tag k="ref:vcgi:esiteid" v="175803"/>
  </node>
  <node id="-1095" visible="true" lat="42.93303986" lon="-72.71392937">
    <tag k="addr:city" v="Newfane"/>
    <tag k="addr:housenumber" v="10"/>
    <tag k="addr:street" v="Rutha Drive"/>
    <tag k="addr:state" v="VT"/>
    <tag k="ref:vcgi:esiteid" v="175805"/>
  </node>
  <node id="-1099" visible="true" lat="42.94781476" lon="-72.66494668">
    <tag k="addr:city" v="Newfane"/>
    <tag k="addr:housenumber" v="82"/>
    <tag k="addr:street" v="Duke Road"/>
    <tag k="addr:state" v="VT"/>
    <tag k="ref:vcgi:esiteid" v="175811"/>
  </node>
  <node id="-1124" visible="true" lat="42.96051042" lon="-72.68372505">
    <tag k="addr:city" v="Newfane"/>
    <tag k="addr:housenumber" v="198"/>
    <tag k="addr:street" v="Timson Hill Road"/>
    <tag k="addr:state" v="VT"/>
    <tag k="ref:vcgi:esiteid" v="175843"/>
  </node>
  <node id="-1126" visible="true" lat="43.00995061" lon="-72.67172362">
    <tag k="addr:city" v="Newfane"/>
    <tag k="addr:housenumber" v="42"/>
    <tag k="addr:street" v="Upper Eager Road"/>
    <tag k="addr:state" v="VT"/>
    <tag k="ref:vcgi:esiteid" v="175845"/>
  </node>
  <node id="-1132" visible="true" lat="43.01421026" lon="-72.671236">
    <tag k="addr:city" v="Newfane"/>
    <tag k="addr:housenumber" v="279"/>
    <tag k="addr:street" v="Wiswall Hill Road"/>
    <tag k="addr:state" v="VT"/>
    <tag k="ref:vcgi:esiteid" v="175854"/>
  </node>
  <node id="-1133" visible="true" lat="42.93916132" lon="-72.72760705">
    <tag k="addr:city" v="Newfane"/>
    <tag k="addr:housenumber" v="50"/>
    <tag k="addr:street" v="Stratton Hill Road"/>
    <tag k="addr:state" v="VT"/>
    <tag k="ref:vcgi:esiteid" v="305715"/>
  </node>
  <node id="-1136" visible="true" lat="42.97643155" lon="-72.65821813">
    <tag k="addr:city" v="Newfane"/>
    <tag k="addr:housenumber" v="23"/>
    <tag k="addr:street" v="Pickle Hill Road"/>
    <tag k="addr:state" v="VT"/>
    <tag k="ref:vcgi:esiteid" v="307022"/>
  </node>
  <node id="-1144" visible="true" lat="42.97691363" lon="-72.65868957">
    <tag k="addr:city" v="Newfane"/>
    <tag k="addr:housenumber" v="20"/>
    <tag k="addr:street" v="Pickle Hill Road"/>
    <tag k="addr:state" v="VT"/>
    <tag k="ref:vcgi:esiteid" v="316841"/>
  </node>
  <node id="-1150" visible="true" lat="42.99048275" lon="-72.63991611">
    <tag k="addr:city" v="Newfane"/>
    <tag k="addr:housenumber" v="46"/>
    <tag k="addr:street" v="Blueberry Circle"/>
    <tag k="addr:state" v="VT"/>
    <tag k="ref:vcgi:esiteid" v="329171"/>
  </node>
  <node id="-1154" visible="true" lat="42.99202609" lon="-72.63509936">
    <tag k="addr:city" v="Newfane"/>
    <tag k="addr:housenumber" v="370"/>
    <tag k="addr:street" v="River Road"/>
    <tag k="addr:state" v="VT"/>
    <tag k="ref:vcgi:esiteid" v="332259"/>
  </node>
  <node id="-1155" visible="true" lat="42.95160857" lon="-72.65606729">
    <tag k="addr:city" v="Newfane"/>
    <tag k="addr:housenumber" v="64"/>
    <tag k="addr:street" v="Grimes Hill Road"/>
    <tag k="addr:state" v="VT"/>
    <tag k="ref:vcgi:esiteid" v="334757"/>
  </node>
  <node id="-1179" visible="true" lat="42.99519531" lon="-72.64177922">
    <tag k="addr:city" v="Newfane"/>
    <tag k="addr:housenumber" v="40"/>
    <tag k="addr:street" v="Radway Hill Road"/>
    <tag k="addr:state" v="VT"/>
    <tag k="ref:vcgi:esiteid" v="449623"/>
  </node>
</osm>
