<?xml version="1.0" encoding="UTF-8"?>
<osm version="0.6" generator="JOSM" upload="false">
  <node id="-100" visible="true" lat="44.94317626" lon="-72.24054848">
    <tag k="addr:housenumber" v="440"/>
    <tag k="addr:street" v="Topper View Drive"/>
    <tag k="addr:state" v="VT"/>
    <tag k="ref:vcgi:esiteid" v="177905"/>
  </node>
  <node id="-101" visible="true" lat="44.94324504" lon="-72.24105612">
    <tag k="addr:housenumber" v="431"/>
    <tag k="addr:street" v="Topper View Drive"/>
    <tag k="addr:state" v="VT"/>
    <tag k="ref:vcgi:esiteid" v="177906"/>
  </node>
  <node id="-102" visible="true" lat="45.00336074" lon="-72.25704956">
    <tag k="addr:housenumber" v="6202"/>
    <tag k="addr:street" v="Lake Road"/>
    <tag k="addr:state" v="VT"/>
    <tag k="ref:vcgi:esiteid" v="178037"/>
  </node>
  <node id="-103" visible="true" lat="45.00339889" lon="-72.28470611">
    <tag k="addr:housenumber" v="3505"/>
    <tag k="addr:street" v="Buzzell Road"/>
    <tag k="addr:state" v="VT"/>
    <tag k="ref:vcgi:esiteid" v="178038"/>
  </node>
  <node id="-104" visible="true" lat="45.00308227" lon="-72.27497863">
    <tag k="addr:housenumber" v="3227"/>
    <tag k="addr:street" v="Leadville Road"/>
    <tag k="addr:state" v="VT"/>
    <tag k="ref:vcgi:esiteid" v="178039"/>
  </node>
  <node id="-105" visible="true" lat="45.00237947" lon="-72.25810967">
    <tag k="addr:housenumber" v="6193"/>
    <tag k="addr:street" v="Lake Road"/>
    <tag k="addr:state" v="VT"/>
    <tag k="ref:vcgi:esiteid" v="178040"/>
  </node>
  <node id="-106" visible="true" lat="45.00244207" lon="-72.27358761">
    <tag k="addr:housenumber" v="3116"/>
    <tag k="addr:street" v="Leadville Road"/>
    <tag k="addr:state" v="VT"/>
    <tag k="ref:vcgi:esiteid" v="178041"/>
  </node>
  <node id="-107" visible="true" lat="45.0021806" lon="-72.25655249">
    <tag k="addr:housenumber" v="6166"/>
    <tag k="addr:street" v="Lake Road"/>
    <tag k="addr:state" v="VT"/>
    <tag k="ref:vcgi:esiteid" v="178042"/>
  </node>
  <node id="-108" visible="true" lat="45.00162756" lon="-72.28720203">
    <tag k="addr:housenumber" v="3319"/>
    <tag k="addr:street" v="Buzzell Road"/>
    <tag k="addr:state" v="VT"/>
    <tag k="ref:vcgi:esiteid" v="178043"/>
  </node>
  <node id="-109" visible="true" lat="45.00140762" lon="-72.28939819">
    <tag k="addr:housenumber" v="3189"/>
    <tag k="addr:street" v="Buzzell Road"/>
    <tag k="addr:state" v="VT"/>
    <tag k="ref:vcgi:esiteid" v="178044"/>
  </node>
  <node id="-110" visible="true" lat="45.0013094" lon="-72.25598909">
    <tag k="addr:housenumber" v="6114"/>
    <tag k="addr:street" v="Lake Road"/>
    <tag k="addr:state" v="VT"/>
    <tag k="ref:vcgi:esiteid" v="178045"/>
  </node>
  <node id="-111" visible="true" lat="45.00122713" lon="-72.28704427">
    <tag k="addr:housenumber" v="3310"/>
    <tag k="addr:street" v="Buzzell Road"/>
    <tag k="addr:state" v="VT"/>
    <tag k="ref:vcgi:esiteid" v="178046"/>
  </node>
  <node id="-112" visible="true" lat="45.00146225" lon="-72.28836618">
    <tag k="addr:housenumber" v="3269"/>
    <tag k="addr:street" v="Buzzell Road"/>
    <tag k="addr:state" v="VT"/>
    <tag k="ref:vcgi:esiteid" v="178047"/>
  </node>
  <node id="-113" visible="true" lat="45.00099079" lon="-72.29131606">
    <tag k="addr:housenumber" v="3111"/>
    <tag k="addr:street" v="Buzzell Road"/>
    <tag k="addr:state" v="VT"/>
    <tag k="ref:vcgi:esiteid" v="178048"/>
  </node>
  <node id="-114" visible="true" lat="45.00074982" lon="-72.25639966">
    <tag k="addr:housenumber" v="6073"/>
    <tag k="addr:street" v="Lake Road"/>
    <tag k="addr:state" v="VT"/>
    <tag k="ref:vcgi:esiteid" v="178049"/>
  </node>
  <node id="-115" visible="true" lat="45.00049369" lon="-72.25524478">
    <tag k="addr:housenumber" v="6008"/>
    <tag k="addr:street" v="Lake Road"/>
    <tag k="addr:state" v="VT"/>
    <tag k="ref:vcgi:esiteid" v="178050"/>
  </node>
  <node id="-116" visible="true" lat="45.00044303" lon="-72.27252755">
    <tag k="addr:housenumber" v="2976"/>
    <tag k="addr:street" v="Leadville Road"/>
    <tag k="addr:state" v="VT"/>
    <tag k="ref:vcgi:esiteid" v="178051"/>
  </node>
  <node id="-117" visible="true" lat="44.99970216" lon="-72.25732256">
    <tag k="addr:housenumber" v="6095"/>
    <tag k="addr:street" v="Lake Road"/>
    <tag k="addr:state" v="VT"/>
    <tag k="ref:vcgi:esiteid" v="178052"/>
  </node>
  <node id="-118" visible="true" lat="44.99961706" lon="-72.25456266">
    <tag k="addr:housenumber" v="5974"/>
    <tag k="addr:street" v="Lake Road"/>
    <tag k="addr:state" v="VT"/>
    <tag k="ref:vcgi:esiteid" v="178053"/>
  </node>
  <node id="-119" visible="true" lat="44.99939783" lon="-72.26029981">
    <tag k="addr:housenumber" v="196"/>
    <tag k="addr:street" v="Jeffries Road"/>
    <tag k="addr:state" v="VT"/>
    <tag k="ref:vcgi:esiteid" v="178054"/>
  </node>
  <node id="-120" visible="true" lat="44.99904984" lon="-72.25406514">
    <tag k="addr:housenumber" v="5868"/>
    <tag k="addr:street" v="Lake Road"/>
    <tag k="addr:state" v="VT"/>
    <tag k="ref:vcgi:esiteid" v="178055"/>
  </node>
  <node id="-121" visible="true" lat="44.9987125" lon="-72.27234662">
    <tag k="addr:housenumber" v="2845"/>
    <tag k="addr:street" v="Leadville Road"/>
    <tag k="addr:state" v="VT"/>
    <tag k="ref:vcgi:esiteid" v="178056"/>
  </node>
  <node id="-122" visible="true" lat="44.99852966" lon="-72.25907243">
    <tag k="addr:housenumber" v="192"/>
    <tag k="addr:street" v="Jeffries Road"/>
    <tag k="addr:state" v="VT"/>
    <tag k="ref:vcgi:esiteid" v="178057"/>
  </node>
  <node id="-123" visible="true" lat="44.99828442" lon="-72.25717285">
    <tag k="addr:housenumber" v="145"/>
    <tag k="addr:street" v="Jeffries Road"/>
    <tag k="addr:state" v="VT"/>
    <tag k="ref:vcgi:esiteid" v="178058"/>
  </node>
  <node id="-124" visible="true" lat="44.99850613" lon="-72.29160714">
    <tag k="addr:housenumber" v="2997"/>
    <tag k="addr:street" v="Buzzell Road"/>
    <tag k="addr:state" v="VT"/>
    <tag k="ref:vcgi:esiteid" v="178059"/>
  </node>
  <node id="-125" visible="true" lat="44.99672847" lon="-72.24956">
    <tag k="addr:housenumber" v="228"/>
    <tag k="addr:street" v="Leblanc Lane"/>
    <tag k="addr:state" v="VT"/>
    <tag k="ref:vcgi:esiteid" v="178060"/>
  </node>
  <node id="-126" visible="true" lat="44.99705868" lon="-72.24955025">
    <tag k="addr:housenumber" v="230"/>
    <tag k="addr:street" v="Leblanc Lane"/>
    <tag k="addr:state" v="VT"/>
    <tag k="ref:vcgi:esiteid" v="178061"/>
  </node>
  <node id="-127" visible="true" lat="44.99698638" lon="-72.27086639">
    <tag k="addr:housenumber" v="2706"/>
    <tag k="addr:street" v="Leadville Road"/>
    <tag k="addr:state" v="VT"/>
    <tag k="ref:vcgi:esiteid" v="178062"/>
  </node>
  <node id="-128" visible="true" lat="44.99620439" lon="-72.25287399">
    <tag k="addr:housenumber" v="5729"/>
    <tag k="addr:street" v="Lake Road"/>
    <tag k="addr:state" v="VT"/>
    <tag k="ref:vcgi:esiteid" v="178063"/>
  </node>
  <node id="-129" visible="true" lat="44.996268" lon="-72.24841698">
    <tag k="addr:housenumber" v="114"/>
    <tag k="addr:street" v="Leblanc Lane"/>
    <tag k="addr:state" v="VT"/>
    <tag k="ref:vcgi:esiteid" v="178064"/>
  </node>
  <node id="-130" visible="true" lat="44.99612426" lon="-72.27259826">
    <tag k="addr:housenumber" v="2737"/>
    <tag k="addr:street" v="Leadville Road"/>
    <tag k="addr:state" v="VT"/>
    <tag k="ref:vcgi:esiteid" v="178065"/>
  </node>
  <node id="-131" visible="true" lat="44.99554153" lon="-72.24707871">
    <tag k="addr:housenumber" v="205"/>
    <tag k="addr:street" v="Gregory Drive"/>
    <tag k="addr:state" v="VT"/>
    <tag k="ref:vcgi:esiteid" v="178066"/>
  </node>
  <node id="-132" visible="true" lat="44.99559771" lon="-72.29091661">
    <tag k="addr:housenumber" v="2824"/>
    <tag k="addr:street" v="Buzzell Road"/>
    <tag k="addr:state" v="VT"/>
    <tag k="ref:vcgi:esiteid" v="178067"/>
  </node>
  <node id="-133" visible="true" lat="44.99532044" lon="-72.2705354">
    <tag k="addr:housenumber" v="2616"/>
    <tag k="addr:street" v="Leadville Road"/>
    <tag k="addr:state" v="VT"/>
    <tag k="ref:vcgi:esiteid" v="178068"/>
  </node>
  <node id="-134" visible="true" lat="44.99549092" lon="-72.31749249">
    <tag k="addr:housenumber" v="2536"/>
    <tag k="addr:street" v="Farrar Road"/>
    <tag k="addr:state" v="VT"/>
    <tag k="ref:vcgi:esiteid" v="178069"/>
  </node>
  <node id="-135" visible="true" lat="44.99406076" lon="-72.24629135">
    <tag k="addr:housenumber" v="206"/>
    <tag k="addr:street" v="Gregory Drive"/>
    <tag k="addr:state" v="VT"/>
    <tag k="ref:vcgi:esiteid" v="178070"/>
  </node>
  <node id="-136" visible="true" lat="44.99415007" lon="-72.32993187">
    <tag k="addr:housenumber" v="3351"/>
    <tag k="addr:street" v="Bear Mountain Road"/>
    <tag k="addr:state" v="VT"/>
    <tag k="ref:vcgi:esiteid" v="178071"/>
  </node>
  <node id="-137" visible="true" lat="44.99364089" lon="-72.32852172">
    <tag k="addr:housenumber" v="3432"/>
    <tag k="addr:street" v="Bear Mountain Road"/>
    <tag k="addr:state" v="VT"/>
    <tag k="ref:vcgi:esiteid" v="178072"/>
  </node>
  <node id="-138" visible="true" lat="44.99368123" lon="-72.27288266">
    <tag k="addr:housenumber" v="2439"/>
    <tag k="addr:street" v="Leadville Road"/>
    <tag k="addr:state" v="VT"/>
    <tag k="ref:vcgi:esiteid" v="178073"/>
  </node>
  <node id="-139" visible="true" lat="44.99322487" lon="-72.24581104">
    <tag k="addr:housenumber" v="204"/>
    <tag k="addr:street" v="Gregory Drive"/>
    <tag k="addr:state" v="VT"/>
    <tag k="ref:vcgi:esiteid" v="178074"/>
  </node>
  <node id="-140" visible="true" lat="44.99292866" lon="-72.25068811">
    <tag k="addr:housenumber" v="5463"/>
    <tag k="addr:street" v="Lake Road"/>
    <tag k="addr:state" v="VT"/>
    <tag k="ref:vcgi:esiteid" v="178075"/>
  </node>
  <node id="-141" visible="true" lat="44.99307917" lon="-72.3195172">
    <tag k="addr:housenumber" v="2626"/>
    <tag k="addr:street" v="Farrar Road"/>
    <tag k="addr:state" v="VT"/>
    <tag k="ref:vcgi:esiteid" v="178076"/>
  </node>
  <node id="-142" visible="true" lat="44.99262891" lon="-72.24629091">
    <tag k="addr:housenumber" v="106"/>
    <tag k="addr:street" v="Gregory Drive"/>
    <tag k="addr:state" v="VT"/>
    <tag k="ref:vcgi:esiteid" v="178077"/>
  </node>
  <node id="-143" visible="true" lat="44.99287796" lon="-72.31125727">
    <tag k="addr:housenumber" v="2197"/>
    <tag k="addr:street" v="Farrar Road"/>
    <tag k="addr:state" v="VT"/>
    <tag k="ref:vcgi:esiteid" v="178078"/>
  </node>
  <node id="-144" visible="true" lat="44.99242618" lon="-72.31966579">
    <tag k="addr:housenumber" v="2637"/>
    <tag k="addr:street" v="Farrar Road"/>
    <tag k="addr:state" v="VT"/>
    <tag k="ref:vcgi:esiteid" v="178079"/>
  </node>
  <node id="-145" visible="true" lat="44.99221344" lon="-72.27152138">
    <tag k="addr:housenumber" v="2355"/>
    <tag k="addr:street" v="Leadville Road"/>
    <tag k="addr:state" v="VT"/>
    <tag k="ref:vcgi:esiteid" v="178080"/>
  </node>
  <node id="-146" visible="true" lat="44.99166721" lon="-72.2685681">
    <tag k="addr:housenumber" v="2318"/>
    <tag k="addr:street" v="Leadville Road"/>
    <tag k="addr:state" v="VT"/>
    <tag k="ref:vcgi:esiteid" v="178081"/>
  </node>
  <node id="-147" visible="true" lat="44.99157164" lon="-72.32266321">
    <tag k="addr:housenumber" v="3846"/>
    <tag k="addr:street" v="Bear Mountain Road"/>
    <tag k="addr:state" v="VT"/>
    <tag k="ref:vcgi:esiteid" v="178082"/>
  </node>
  <node id="-148" visible="true" lat="44.9910469" lon="-72.27121734">
    <tag k="addr:housenumber" v="2301"/>
    <tag k="addr:street" v="Leadville Road"/>
    <tag k="addr:state" v="VT"/>
    <tag k="ref:vcgi:esiteid" v="178083"/>
  </node>
  <node id="-149" visible="true" lat="44.99087129" lon="-72.29694651">
    <tag k="addr:housenumber" v="1470"/>
    <tag k="addr:street" v="Farrar Road"/>
    <tag k="addr:state" v="VT"/>
    <tag k="ref:vcgi:esiteid" v="178084"/>
  </node>
  <node id="-150" visible="true" lat="44.99022999" lon="-72.2714409">
    <tag k="addr:housenumber" v="2277"/>
    <tag k="addr:street" v="Leadville Road"/>
    <tag k="addr:state" v="VT"/>
    <tag k="ref:vcgi:esiteid" v="178085"/>
  </node>
  <node id="-151" visible="true" lat="44.9902367" lon="-72.24380199">
    <tag k="addr:housenumber" v="77"/>
    <tag k="addr:street" v="Maxfield Point Drive"/>
    <tag k="addr:state" v="VT"/>
    <tag k="ref:vcgi:esiteid" v="178086"/>
  </node>
  <node id="-152" visible="true" lat="44.99006189" lon="-72.24357191">
    <tag k="addr:housenumber" v="79"/>
    <tag k="addr:street" v="Maxfield Point Drive"/>
    <tag k="addr:state" v="VT"/>
    <tag k="ref:vcgi:esiteid" v="178087"/>
  </node>
  <node id="-153" visible="true" lat="44.98975693" lon="-72.24373911">
    <tag k="addr:housenumber" v="89"/>
    <tag k="addr:street" v="Maxfield Point Drive"/>
    <tag k="addr:state" v="VT"/>
    <tag k="ref:vcgi:esiteid" v="178088"/>
  </node>
  <node id="-154" visible="true" lat="44.98964086" lon="-72.24319225">
    <tag k="addr:housenumber" v="109"/>
    <tag k="addr:street" v="Maxfield Point Drive"/>
    <tag k="addr:state" v="VT"/>
    <tag k="ref:vcgi:esiteid" v="178089"/>
  </node>
  <node id="-155" visible="true" lat="44.98937549" lon="-72.24263815">
    <tag k="addr:housenumber" v="121"/>
    <tag k="addr:street" v="Maxfield Point Drive"/>
    <tag k="addr:state" v="VT"/>
    <tag k="ref:vcgi:esiteid" v="178090"/>
  </node>
  <node id="-156" visible="true" lat="44.98928993" lon="-72.24233932">
    <tag k="addr:housenumber" v="167"/>
    <tag k="addr:street" v="Maxfield Point Drive"/>
    <tag k="addr:state" v="VT"/>
    <tag k="ref:vcgi:esiteid" v="178091"/>
  </node>
  <node id="-157" visible="true" lat="44.98918035" lon="-72.24511103">
    <tag k="addr:housenumber" v="26"/>
    <tag k="addr:street" v="Maxfield Point Drive"/>
    <tag k="addr:state" v="VT"/>
    <tag k="ref:vcgi:esiteid" v="178092"/>
  </node>
  <node id="-158" visible="true" lat="44.99028265" lon="-72.26729825">
    <tag k="addr:housenumber" v="2148"/>
    <tag k="addr:street" v="Leadville Road"/>
    <tag k="addr:state" v="VT"/>
    <tag k="ref:vcgi:esiteid" v="178093"/>
  </node>
  <node id="-159" visible="true" lat="44.98876962" lon="-72.24211067">
    <tag k="addr:housenumber" v="208"/>
    <tag k="addr:street" v="Maxfield Point Drive"/>
    <tag k="addr:state" v="VT"/>
    <tag k="ref:vcgi:esiteid" v="178094"/>
  </node>
  <node id="-160" visible="true" lat="44.98904613" lon="-72.29317067">
    <tag k="addr:housenumber" v="1274"/>
    <tag k="addr:street" v="Farrar Road"/>
    <tag k="addr:state" v="VT"/>
    <tag k="ref:vcgi:esiteid" v="178095"/>
  </node>
  <node id="-161" visible="true" lat="44.98892011" lon="-72.26974572">
    <tag k="addr:housenumber" v="2112"/>
    <tag k="addr:street" v="Leadville Road"/>
    <tag k="addr:state" v="VT"/>
    <tag k="ref:vcgi:esiteid" v="178096"/>
  </node>
  <node id="-162" visible="true" lat="44.98879344" lon="-72.24368673">
    <tag k="addr:housenumber" v="140"/>
    <tag k="addr:street" v="Maxfield Point Drive"/>
    <tag k="addr:state" v="VT"/>
    <tag k="ref:vcgi:esiteid" v="178097"/>
  </node>
  <node id="-163" visible="true" lat="44.98860584" lon="-72.2423398">
    <tag k="addr:housenumber" v="190"/>
    <tag k="addr:street" v="Maxfield Point Drive"/>
    <tag k="addr:state" v="VT"/>
    <tag k="ref:vcgi:esiteid" v="178098"/>
  </node>
  <node id="-164" visible="true" lat="44.98807252" lon="-72.29471615">
    <tag k="addr:housenumber" v="1307"/>
    <tag k="addr:street" v="Farrar Road"/>
    <tag k="addr:state" v="VT"/>
    <tag k="ref:vcgi:esiteid" v="178099"/>
  </node>
  <node id="-165" visible="true" lat="44.98789124" lon="-72.32752078">
    <tag k="addr:housenumber" v="4180"/>
    <tag k="addr:street" v="Bear Mountain Road"/>
    <tag k="addr:state" v="VT"/>
    <tag k="ref:vcgi:esiteid" v="178100"/>
  </node>
  <node id="-166" visible="true" lat="44.98752788" lon="-72.28886325">
    <tag k="addr:housenumber" v="1035"/>
    <tag k="addr:street" v="Farrar Road"/>
    <tag k="addr:state" v="VT"/>
    <tag k="ref:vcgi:esiteid" v="178101"/>
  </node>
  <node id="-167" visible="true" lat="44.98706672" lon="-72.29323302">
    <tag k="addr:housenumber" v="2217"/>
    <tag k="addr:street" v="Buzzell Road"/>
    <tag k="addr:state" v="VT"/>
    <tag k="ref:vcgi:esiteid" v="178102"/>
  </node>
  <node id="-168" visible="true" lat="44.98660638" lon="-72.28258681">
    <tag k="addr:housenumber" v="707"/>
    <tag k="addr:street" v="Farrar Road"/>
    <tag k="addr:state" v="VT"/>
    <tag k="ref:vcgi:esiteid" v="178103"/>
  </node>
  <node id="-169" visible="true" lat="44.98665029" lon="-72.24210923">
    <tag k="addr:housenumber" v="4826"/>
    <tag k="addr:street" v="Lake Road"/>
    <tag k="addr:state" v="VT"/>
    <tag k="ref:vcgi:esiteid" v="178104"/>
  </node>
  <node id="-170" visible="true" lat="44.98647939" lon="-72.27851051">
    <tag k="addr:housenumber" v="508"/>
    <tag k="addr:street" v="Farrar Road"/>
    <tag k="addr:state" v="VT"/>
    <tag k="ref:vcgi:esiteid" v="178105"/>
  </node>
  <node id="-171" visible="true" lat="44.98605122" lon="-72.32652008">
    <tag k="addr:housenumber" v="4395"/>
    <tag k="addr:street" v="Bear Mountain Road"/>
    <tag k="addr:state" v="VT"/>
    <tag k="ref:vcgi:esiteid" v="178106"/>
  </node>
  <node id="-172" visible="true" lat="44.98533551" lon="-72.248316">
    <tag k="addr:housenumber" v="4827"/>
    <tag k="addr:street" v="Lake Road"/>
    <tag k="addr:state" v="VT"/>
    <tag k="ref:vcgi:esiteid" v="178107"/>
  </node>
  <node id="-173" visible="true" lat="44.98521821" lon="-72.27280195">
    <tag k="addr:housenumber" v="214"/>
    <tag k="addr:street" v="Farrar Road"/>
    <tag k="addr:state" v="VT"/>
    <tag k="ref:vcgi:esiteid" v="178108"/>
  </node>
  <node id="-174" visible="true" lat="44.98482268" lon="-72.24012705">
    <tag k="addr:housenumber" v="80"/>
    <tag k="addr:street" v="North Lakewood Drive"/>
    <tag k="addr:state" v="VT"/>
    <tag k="ref:vcgi:esiteid" v="178109"/>
  </node>
  <node id="-175" visible="true" lat="44.98453519" lon="-72.2402779">
    <tag k="addr:housenumber" v="60"/>
    <tag k="addr:street" v="North Lakewood Drive"/>
    <tag k="addr:state" v="VT"/>
    <tag k="ref:vcgi:esiteid" v="178110"/>
  </node>
  <node id="-176" visible="true" lat="44.98439143" lon="-72.26772147">
    <tag k="addr:housenumber" v="1792"/>
    <tag k="addr:street" v="Leadville Road"/>
    <tag k="addr:state" v="VT"/>
    <tag k="ref:vcgi:esiteid" v="178111"/>
  </node>
  <node id="-177" visible="true" lat="44.98400791" lon="-72.24034038">
    <tag k="addr:housenumber" v="12"/>
    <tag k="addr:street" v="North Lakewood Drive"/>
    <tag k="addr:state" v="VT"/>
    <tag k="ref:vcgi:esiteid" v="178112"/>
  </node>
  <node id="-178" visible="true" lat="44.98355613" lon="-72.24027213">
    <tag k="addr:housenumber" v="121"/>
    <tag k="addr:street" v="Lakewood Drive"/>
    <tag k="addr:state" v="VT"/>
    <tag k="ref:vcgi:esiteid" v="178113"/>
  </node>
  <node id="-179" visible="true" lat="44.98341783" lon="-72.29315121">
    <tag k="addr:housenumber" v="1948"/>
    <tag k="addr:street" v="Buzzell Road"/>
    <tag k="addr:state" v="VT"/>
    <tag k="ref:vcgi:esiteid" v="178114"/>
  </node>
  <node id="-180" visible="true" lat="44.98266557" lon="-72.24350227">
    <tag k="addr:housenumber" v="4633"/>
    <tag k="addr:street" v="Lake Road"/>
    <tag k="addr:state" v="VT"/>
    <tag k="ref:vcgi:esiteid" v="178115"/>
  </node>
  <node id="-181" visible="true" lat="44.98269405" lon="-72.32738305">
    <tag k="addr:housenumber" v="4641"/>
    <tag k="addr:street" v="Bear Mountain Road"/>
    <tag k="addr:state" v="VT"/>
    <tag k="ref:vcgi:esiteid" v="178116"/>
  </node>
  <node id="-182" visible="true" lat="44.98248628" lon="-72.29377081">
    <tag k="addr:housenumber" v="1878"/>
    <tag k="addr:street" v="Buzzell Road"/>
    <tag k="addr:state" v="VT"/>
    <tag k="ref:vcgi:esiteid" v="178117"/>
  </node>
  <node id="-183" visible="true" lat="44.98233501" lon="-72.24051224">
    <tag k="addr:housenumber" v="221"/>
    <tag k="addr:street" v="Lakewood Drive"/>
    <tag k="addr:state" v="VT"/>
    <tag k="ref:vcgi:esiteid" v="178118"/>
  </node>
  <node id="-184" visible="true" lat="44.98203659" lon="-72.28588867">
    <tag k="addr:housenumber" v="1951"/>
    <tag k="addr:street" v="Armstrong Road"/>
    <tag k="addr:state" v="VT"/>
    <tag k="ref:vcgi:esiteid" v="178119"/>
  </node>
  <node id="-185" visible="true" lat="44.98193759" lon="-72.26935935">
    <tag k="addr:housenumber" v="1640"/>
    <tag k="addr:street" v="Leadville Road"/>
    <tag k="addr:state" v="VT"/>
    <tag k="ref:vcgi:esiteid" v="178120"/>
  </node>
  <node id="-186" visible="true" lat="44.98135766" lon="-72.29156367">
    <tag k="addr:housenumber" v="1834"/>
    <tag k="addr:street" v="Buzzell Road"/>
    <tag k="addr:state" v="VT"/>
    <tag k="ref:vcgi:esiteid" v="178121"/>
  </node>
  <node id="-187" visible="true" lat="44.981231" lon="-72.2954616">
    <tag k="addr:housenumber" v="1733"/>
    <tag k="addr:street" v="Buzzell Road"/>
    <tag k="addr:state" v="VT"/>
    <tag k="ref:vcgi:esiteid" v="178122"/>
  </node>
  <node id="-188" visible="true" lat="44.98041333" lon="-72.24293118">
    <tag k="addr:housenumber" v="4456"/>
    <tag k="addr:street" v="Lake Road"/>
    <tag k="addr:state" v="VT"/>
    <tag k="ref:vcgi:esiteid" v="178123"/>
  </node>
  <node id="-189" visible="true" lat="44.98017434" lon="-72.24192747">
    <tag k="addr:housenumber" v="4454"/>
    <tag k="addr:street" v="Lake Road"/>
    <tag k="addr:state" v="VT"/>
    <tag k="ref:vcgi:esiteid" v="178124"/>
  </node>
  <node id="-190" visible="true" lat="44.97954802" lon="-72.24006188">
    <tag k="addr:housenumber" v="175"/>
    <tag k="addr:street" v="Laurel Road"/>
    <tag k="addr:state" v="VT"/>
    <tag k="ref:vcgi:esiteid" v="178125"/>
  </node>
  <node id="-191" visible="true" lat="44.97946548" lon="-72.33081054">
    <tag k="addr:housenumber" v="4911"/>
    <tag k="addr:street" v="Bear Mountain Road"/>
    <tag k="addr:state" v="VT"/>
    <tag k="ref:vcgi:esiteid" v="178126"/>
  </node>
  <node id="-192" visible="true" lat="44.97929076" lon="-72.24049246">
    <tag k="addr:housenumber" v="140"/>
    <tag k="addr:street" v="Laurel Road"/>
    <tag k="addr:state" v="VT"/>
    <tag k="ref:vcgi:esiteid" v="178127"/>
  </node>
  <node id="-193" visible="true" lat="44.97889763" lon="-72.23953058">
    <tag k="addr:housenumber" v="179"/>
    <tag k="addr:street" v="Drown Drive"/>
    <tag k="addr:state" v="VT"/>
    <tag k="ref:vcgi:esiteid" v="178128"/>
  </node>
  <node id="-194" visible="true" lat="44.97901728" lon="-72.29628812">
    <tag k="addr:housenumber" v="1607"/>
    <tag k="addr:street" v="Buzzell Road"/>
    <tag k="addr:state" v="VT"/>
    <tag k="ref:vcgi:esiteid" v="178129"/>
  </node>
  <node id="-195" visible="true" lat="44.97863006" lon="-72.23960876">
    <tag k="addr:housenumber" v="197"/>
    <tag k="addr:street" v="Drown Drive"/>
    <tag k="addr:state" v="VT"/>
    <tag k="ref:vcgi:esiteid" v="178130"/>
  </node>
  <node id="-196" visible="true" lat="44.97845082" lon="-72.24203323">
    <tag k="addr:housenumber" v="81"/>
    <tag k="addr:street" v="Top Deck Lane"/>
    <tag k="addr:state" v="VT"/>
    <tag k="ref:vcgi:esiteid" v="178131"/>
  </node>
  <node id="-197" visible="true" lat="44.97821725" lon="-72.23972677">
    <tag k="addr:housenumber" v="215"/>
    <tag k="addr:street" v="Drown Drive"/>
    <tag k="addr:state" v="VT"/>
    <tag k="ref:vcgi:esiteid" v="178132"/>
  </node>
  <node id="-198" visible="true" lat="44.97803316" lon="-72.23977512">
    <tag k="addr:housenumber" v="229"/>
    <tag k="addr:street" v="Drown Drive"/>
    <tag k="addr:state" v="VT"/>
    <tag k="ref:vcgi:esiteid" v="178133"/>
  </node>
  <node id="-199" visible="true" lat="44.97825329" lon="-72.24471163">
    <tag k="addr:housenumber" v="4309"/>
    <tag k="addr:street" v="Lake Road"/>
    <tag k="addr:state" v="VT"/>
    <tag k="ref:vcgi:esiteid" v="178134"/>
  </node>
  <node id="-200" visible="true" lat="44.97767275" lon="-72.23986813">
    <tag k="addr:housenumber" v="241"/>
    <tag k="addr:street" v="Drown Drive"/>
    <tag k="addr:state" v="VT"/>
    <tag k="ref:vcgi:esiteid" v="178135"/>
  </node>
  <node id="-201" visible="true" lat="44.97817611" lon="-72.29763793">
    <tag k="addr:housenumber" v="1537"/>
    <tag k="addr:street" v="Buzzell Road"/>
    <tag k="addr:state" v="VT"/>
    <tag k="ref:vcgi:esiteid" v="178136"/>
  </node>
  <node id="-202" visible="true" lat="44.97735996" lon="-72.29687384">
    <tag k="addr:housenumber" v="1491"/>
    <tag k="addr:street" v="Buzzell Road"/>
    <tag k="addr:state" v="VT"/>
    <tag k="ref:vcgi:esiteid" v="178137"/>
  </node>
  <node id="-203" visible="true" lat="44.97660489" lon="-72.24207419">
    <tag k="addr:housenumber" v="210"/>
    <tag k="addr:street" v="Top Deck Lane"/>
    <tag k="addr:state" v="VT"/>
    <tag k="ref:vcgi:esiteid" v="178138"/>
  </node>
  <node id="-204" visible="true" lat="44.97692464" lon="-72.2971312">
    <tag k="addr:housenumber" v="1451"/>
    <tag k="addr:street" v="Buzzell Road"/>
    <tag k="addr:state" v="VT"/>
    <tag k="ref:vcgi:esiteid" v="178139"/>
  </node>
  <node id="-205" visible="true" lat="44.97673404" lon="-72.24479891">
    <tag k="addr:housenumber" v="4209"/>
    <tag k="addr:street" v="Lake Road"/>
    <tag k="addr:state" v="VT"/>
    <tag k="ref:vcgi:esiteid" v="178140"/>
  </node>
  <node id="-206" visible="true" lat="44.97681776" lon="-72.33181386">
    <tag k="addr:housenumber" v="6462"/>
    <tag k="addr:street" v="Vermont Route 105"/>
    <tag k="addr:state" v="VT"/>
    <tag k="ref:vcgi:esiteid" v="178141"/>
  </node>
  <node id="-207" visible="true" lat="44.97695343" lon="-72.26303679">
    <tag k="addr:housenumber" v="1116"/>
    <tag k="addr:street" v="Leadville Road"/>
    <tag k="addr:state" v="VT"/>
    <tag k="ref:vcgi:esiteid" v="178142"/>
  </node>
  <node id="-208" visible="true" lat="44.97620611" lon="-72.32865058">
    <tag k="addr:housenumber" v="6306"/>
    <tag k="addr:street" v="Vermont Route 105"/>
    <tag k="addr:state" v="VT"/>
    <tag k="ref:vcgi:esiteid" v="178143"/>
  </node>
  <node id="-209" visible="true" lat="44.97587203" lon="-72.29758453">
    <tag k="addr:housenumber" v="1385"/>
    <tag k="addr:street" v="Buzzell Road"/>
    <tag k="addr:state" v="VT"/>
    <tag k="ref:vcgi:esiteid" v="178144"/>
  </node>
  <node id="-210" visible="true" lat="44.9757102" lon="-72.24500802">
    <tag k="addr:housenumber" v="4135"/>
    <tag k="addr:street" v="Lake Road"/>
    <tag k="addr:state" v="VT"/>
    <tag k="ref:vcgi:esiteid" v="178145"/>
  </node>
  <node id="-211" visible="true" lat="44.97579761" lon="-72.32645706">
    <tag k="addr:housenumber" v="6204"/>
    <tag k="addr:street" v="Vermont Route 105"/>
    <tag k="addr:state" v="VT"/>
    <tag k="ref:vcgi:esiteid" v="178146"/>
  </node>
  <node id="-212" visible="true" lat="44.97520301" lon="-72.26572532">
    <tag k="addr:housenumber" v="981"/>
    <tag k="addr:street" v="Leadville Road"/>
    <tag k="addr:state" v="VT"/>
    <tag k="ref:vcgi:esiteid" v="178147"/>
  </node>
  <node id="-213" visible="true" lat="44.97520997" lon="-72.31806395">
    <tag k="addr:housenumber" v="117"/>
    <tag k="addr:street" v="Perrault Drive"/>
    <tag k="addr:state" v="VT"/>
    <tag k="ref:vcgi:esiteid" v="178148"/>
  </node>
  <node id="-214" visible="true" lat="44.97520207" lon="-72.32461527">
    <tag k="addr:housenumber" v="6104"/>
    <tag k="addr:street" v="Vermont Route 105"/>
    <tag k="addr:state" v="VT"/>
    <tag k="ref:vcgi:esiteid" v="178149"/>
  </node>
  <node id="-215" visible="true" lat="44.9747112" lon="-72.24222506">
    <tag k="addr:housenumber" v="186"/>
    <tag k="addr:street" v="Smith Drive"/>
    <tag k="addr:state" v="VT"/>
    <tag k="ref:vcgi:esiteid" v="178150"/>
  </node>
  <node id="-216" visible="true" lat="44.97470407" lon="-72.31633933">
    <tag k="addr:housenumber" v="251"/>
    <tag k="addr:street" v="Perrault Drive"/>
    <tag k="addr:state" v="VT"/>
    <tag k="ref:vcgi:esiteid" v="178151"/>
  </node>
  <node id="-217" visible="true" lat="44.97441788" lon="-72.31554006">
    <tag k="addr:housenumber" v="338"/>
    <tag k="addr:street" v="Perrault Drive"/>
    <tag k="addr:state" v="VT"/>
    <tag k="ref:vcgi:esiteid" v="178152"/>
  </node>
  <node id="-218" visible="true" lat="44.97405624" lon="-72.24294776">
    <tag k="addr:housenumber" v="134"/>
    <tag k="addr:street" v="Smith Drive"/>
    <tag k="addr:state" v="VT"/>
    <tag k="ref:vcgi:esiteid" v="178153"/>
  </node>
  <node id="-219" visible="true" lat="44.97408481" lon="-72.3236804">
    <tag k="addr:housenumber" v="6047"/>
    <tag k="addr:street" v="Vermont Route 105"/>
    <tag k="addr:state" v="VT"/>
    <tag k="ref:vcgi:esiteid" v="178154"/>
  </node>
  <node id="-220" visible="true" lat="44.97358213" lon="-72.24296284">
    <tag k="addr:housenumber" v="114"/>
    <tag k="addr:street" v="Smith Drive"/>
    <tag k="addr:state" v="VT"/>
    <tag k="ref:vcgi:esiteid" v="178155"/>
  </node>
  <node id="-221" visible="true" lat="44.97335821" lon="-72.24368026">
    <tag k="addr:housenumber" v="64"/>
    <tag k="addr:street" v="Smith Drive"/>
    <tag k="addr:state" v="VT"/>
    <tag k="ref:vcgi:esiteid" v="178156"/>
  </node>
  <node id="-222" visible="true" lat="44.97355877" lon="-72.3197676">
    <tag k="addr:housenumber" v="5876"/>
    <tag k="addr:street" v="Vermont Route 105"/>
    <tag k="addr:state" v="VT"/>
    <tag k="ref:vcgi:esiteid" v="178157"/>
  </node>
  <node id="-223" visible="true" lat="44.97321224" lon="-72.24637832">
    <tag k="addr:housenumber" v="3941"/>
    <tag k="addr:street" v="Lake Road"/>
    <tag k="addr:state" v="VT"/>
    <tag k="ref:vcgi:esiteid" v="178158"/>
  </node>
  <node id="-224" visible="true" lat="44.97291603" lon="-72.28940312">
    <tag k="addr:housenumber" v="1312"/>
    <tag k="addr:street" v="Armstrong Road"/>
    <tag k="addr:state" v="VT"/>
    <tag k="ref:vcgi:esiteid" v="178159"/>
  </node>
  <node id="-225" visible="true" lat="44.97272244" lon="-72.24540526">
    <tag k="addr:housenumber" v="3936"/>
    <tag k="addr:street" v="Lake Road"/>
    <tag k="addr:state" v="VT"/>
    <tag k="ref:vcgi:esiteid" v="178160"/>
  </node>
  <node id="-226" visible="true" lat="44.97260421" lon="-72.24381114">
    <tag k="addr:housenumber" v="3976"/>
    <tag k="addr:street" v="Lake Road"/>
    <tag k="addr:state" v="VT"/>
    <tag k="ref:vcgi:esiteid" v="178161"/>
  </node>
  <node id="-227" visible="true" lat="44.97200001" lon="-72.24478156">
    <tag k="addr:housenumber" v="3908"/>
    <tag k="addr:street" v="Lake Road"/>
    <tag k="addr:state" v="VT"/>
    <tag k="ref:vcgi:esiteid" v="178162"/>
  </node>
  <node id="-228" visible="true" lat="44.97155612" lon="-72.31920063">
    <tag k="addr:housenumber" v="5728"/>
    <tag k="addr:street" v="Vermont Route 105"/>
    <tag k="addr:state" v="VT"/>
    <tag k="ref:vcgi:esiteid" v="178163"/>
  </node>
  <node id="-229" visible="true" lat="44.97114093" lon="-72.24612162">
    <tag k="addr:housenumber" v="3802"/>
    <tag k="addr:street" v="Lake Road"/>
    <tag k="addr:state" v="VT"/>
    <tag k="ref:vcgi:esiteid" v="178164"/>
  </node>
  <node id="-230" visible="true" lat="44.97078251" lon="-72.30252135">
    <tag k="addr:housenumber" v="1003"/>
    <tag k="addr:street" v="Buzzell Road"/>
    <tag k="addr:state" v="VT"/>
    <tag k="ref:vcgi:esiteid" v="178165"/>
  </node>
  <node id="-232" visible="true" lat="44.97024154" lon="-72.29956817">
    <tag k="addr:housenumber" v="968"/>
    <tag k="addr:street" v="Buzzell Road"/>
    <tag k="addr:state" v="VT"/>
    <tag k="ref:vcgi:esiteid" v="178167"/>
  </node>
  <node id="-233" visible="true" lat="44.9701618" lon="-72.31727021">
    <tag k="addr:housenumber" v="5602"/>
    <tag k="addr:street" v="Vermont Route 105"/>
    <tag k="addr:state" v="VT"/>
    <tag k="ref:vcgi:esiteid" v="178168"/>
  </node>
  <node id="-236" visible="true" lat="44.96942901" lon="-72.29921722">
    <tag k="addr:housenumber" v="882"/>
    <tag k="addr:street" v="Buzzell Road"/>
    <tag k="addr:state" v="VT"/>
    <tag k="ref:vcgi:esiteid" v="178171"/>
  </node>
  <node id="-238" visible="true" lat="44.9681549" lon="-72.25569152">
    <tag k="addr:housenumber" v="493"/>
    <tag k="addr:street" v="Morningside Drive"/>
    <tag k="addr:state" v="VT"/>
    <tag k="ref:vcgi:esiteid" v="178173"/>
  </node>
  <node id="-239" visible="true" lat="44.96788306" lon="-72.31512517">
    <tag k="addr:housenumber" v="5409"/>
    <tag k="addr:street" v="Vermont Route 105"/>
    <tag k="addr:state" v="VT"/>
    <tag k="ref:vcgi:esiteid" v="178174"/>
  </node>
  <node id="-242" visible="true" lat="44.9675827" lon="-72.29266357">
    <tag k="addr:housenumber" v="918"/>
    <tag k="addr:street" v="Armstrong Road"/>
    <tag k="addr:state" v="VT"/>
    <tag k="ref:vcgi:esiteid" v="178177"/>
  </node>
  <node id="-243" visible="true" lat="44.96640993" lon="-72.255169">
    <tag k="addr:housenumber" v="438"/>
    <tag k="addr:street" v="Morningside Drive"/>
    <tag k="addr:state" v="VT"/>
    <tag k="ref:vcgi:esiteid" v="178178"/>
  </node>
  <node id="-245" visible="true" lat="44.96636581" lon="-72.30166625">
    <tag k="addr:housenumber" v="688"/>
    <tag k="addr:street" v="Buzzell Road"/>
    <tag k="addr:state" v="VT"/>
    <tag k="ref:vcgi:esiteid" v="178180"/>
  </node>
  <node id="-247" visible="true" lat="44.96530914" lon="-72.25396728">
    <tag k="addr:housenumber" v="314"/>
    <tag k="addr:street" v="Morningside Drive"/>
    <tag k="addr:state" v="VT"/>
    <tag k="ref:vcgi:esiteid" v="178182"/>
  </node>
  <node id="-249" visible="true" lat="44.96455814" lon="-72.31328281">
    <tag k="addr:housenumber" v="5152"/>
    <tag k="addr:street" v="Vermont Route 105"/>
    <tag k="addr:state" v="VT"/>
    <tag k="ref:vcgi:esiteid" v="178184"/>
  </node>
  <node id="-253" visible="true" lat="44.96339486" lon="-72.31352074">
    <tag k="addr:housenumber" v="5077"/>
    <tag k="addr:street" v="Vermont Route 105"/>
    <tag k="addr:state" v="VT"/>
    <tag k="ref:vcgi:esiteid" v="178188"/>
  </node>
  <node id="-255" visible="true" lat="44.96313095" lon="-72.29494476">
    <tag k="addr:housenumber" v="579"/>
    <tag k="addr:street" v="Armstrong Road"/>
    <tag k="addr:state" v="VT"/>
    <tag k="ref:vcgi:esiteid" v="178190"/>
  </node>
  <node id="-256" visible="true" lat="44.96298599" lon="-72.23815155">
    <tag k="addr:housenumber" v="257"/>
    <tag k="addr:street" v="Beaver Cove"/>
    <tag k="addr:state" v="VT"/>
    <tag k="ref:vcgi:esiteid" v="178191"/>
  </node>
  <node id="-257" visible="true" lat="44.96294063" lon="-72.23774622">
    <tag k="addr:housenumber" v="265"/>
    <tag k="addr:street" v="Beaver Cove"/>
    <tag k="addr:state" v="VT"/>
    <tag k="ref:vcgi:esiteid" v="178192"/>
  </node>
  <node id="-260" visible="true" lat="44.96275711" lon="-72.23744201">
    <tag k="addr:housenumber" v="287"/>
    <tag k="addr:street" v="Beaver Cove"/>
    <tag k="addr:state" v="VT"/>
    <tag k="ref:vcgi:esiteid" v="178195"/>
  </node>
  <node id="-262" visible="true" lat="44.96270757" lon="-72.2371546">
    <tag k="addr:housenumber" v="293"/>
    <tag k="addr:street" v="Beaver Cove"/>
    <tag k="addr:state" v="VT"/>
    <tag k="ref:vcgi:esiteid" v="178197"/>
  </node>
  <node id="-265" visible="true" lat="44.96236435" lon="-72.26025225">
    <tag k="addr:housenumber" v="109"/>
    <tag k="addr:street" v="Overlook Drive"/>
    <tag k="addr:state" v="VT"/>
    <tag k="ref:vcgi:esiteid" v="178200"/>
  </node>
  <node id="-267" visible="true" lat="44.96213624" lon="-72.23815399">
    <tag k="addr:housenumber" v="212"/>
    <tag k="addr:street" v="Beaver Cove"/>
    <tag k="addr:state" v="VT"/>
    <tag k="ref:vcgi:esiteid" v="178202"/>
  </node>
  <node id="-272" visible="true" lat="44.9617424" lon="-72.26016998">
    <tag k="addr:housenumber" v="81"/>
    <tag k="addr:street" v="Overlook Drive"/>
    <tag k="addr:state" v="VT"/>
    <tag k="ref:vcgi:esiteid" v="178207"/>
  </node>
  <node id="-275" visible="true" lat="44.96158978" lon="-72.29486653">
    <tag k="addr:housenumber" v="472"/>
    <tag k="addr:street" v="Armstrong Road"/>
    <tag k="addr:state" v="VT"/>
    <tag k="ref:vcgi:esiteid" v="178210"/>
  </node>
  <node id="-278" visible="true" lat="44.96116256" lon="-72.3085556">
    <tag k="addr:housenumber" v="157"/>
    <tag k="addr:street" v="Buzzell Road"/>
    <tag k="addr:state" v="VT"/>
    <tag k="ref:vcgi:esiteid" v="178213"/>
  </node>
  <node id="-279" visible="true" lat="44.96097125" lon="-72.26272643">
    <tag k="addr:housenumber" v="2413"/>
    <tag k="addr:street" v="Vance Hill Road"/>
    <tag k="addr:state" v="VT"/>
    <tag k="ref:vcgi:esiteid" v="178214"/>
  </node>
  <node id="-281" visible="true" lat="44.96116204" lon="-72.26664163">
    <tag k="addr:housenumber" v="2249"/>
    <tag k="addr:street" v="Vance Hill Road"/>
    <tag k="addr:state" v="VT"/>
    <tag k="ref:vcgi:esiteid" v="178216"/>
  </node>
  <node id="-282" visible="true" lat="44.96101705" lon="-72.26072769">
    <tag k="addr:housenumber" v="2517"/>
    <tag k="addr:street" v="Vance Hill Road"/>
    <tag k="addr:state" v="VT"/>
    <tag k="ref:vcgi:esiteid" v="178217"/>
  </node>
  <node id="-286" visible="true" lat="44.96022611" lon="-72.26487431">
    <tag k="addr:housenumber" v="2308"/>
    <tag k="addr:street" v="Vance Hill Road"/>
    <tag k="addr:state" v="VT"/>
    <tag k="ref:vcgi:esiteid" v="178221"/>
  </node>
  <node id="-288" visible="true" lat="44.96017721" lon="-72.31126778">
    <tag k="addr:housenumber" v="4836"/>
    <tag k="addr:street" v="Vermont Route 105"/>
    <tag k="addr:state" v="VT"/>
    <tag k="ref:vcgi:esiteid" v="178223"/>
  </node>
  <node id="-294" visible="true" lat="44.95965424" lon="-72.26437552">
    <tag k="addr:housenumber" v="68"/>
    <tag k="addr:street" v="Gage Road"/>
    <tag k="addr:state" v="VT"/>
    <tag k="ref:vcgi:esiteid" v="178229"/>
  </node>
  <node id="-298" visible="true" lat="44.95948926" lon="-72.26231805">
    <tag k="addr:housenumber" v="85"/>
    <tag k="addr:street" v="Gage Road"/>
    <tag k="addr:state" v="VT"/>
    <tag k="ref:vcgi:esiteid" v="178233"/>
  </node>
  <node id="-304" visible="true" lat="44.95910652" lon="-72.31163964">
    <tag k="addr:housenumber" v="4761"/>
    <tag k="addr:street" v="Vermont Route 105"/>
    <tag k="addr:state" v="VT"/>
    <tag k="ref:vcgi:esiteid" v="178239"/>
  </node>
  <node id="-306" visible="true" lat="44.95855146" lon="-72.26413684">
    <tag k="addr:housenumber" v="104"/>
    <tag k="addr:street" v="Gage Road"/>
    <tag k="addr:state" v="VT"/>
    <tag k="ref:vcgi:esiteid" v="178241"/>
  </node>
  <node id="-311" visible="true" lat="44.95781703" lon="-72.24555509">
    <tag k="addr:housenumber" v="2883"/>
    <tag k="addr:street" v="Lake Road"/>
    <tag k="addr:state" v="VT"/>
    <tag k="ref:vcgi:esiteid" v="178246"/>
  </node>
  <node id="-313" visible="true" lat="44.95786231" lon="-72.24413016">
    <tag k="addr:housenumber" v="2857"/>
    <tag k="addr:street" v="Lake Road"/>
    <tag k="addr:state" v="VT"/>
    <tag k="ref:vcgi:esiteid" v="178248"/>
  </node>
  <node id="-314" visible="true" lat="44.9578937" lon="-72.23495553">
    <tag k="addr:housenumber" v="561"/>
    <tag k="addr:street" v="Strawberry Acres"/>
    <tag k="addr:state" v="VT"/>
    <tag k="ref:vcgi:esiteid" v="178249"/>
  </node>
  <node id="-316" visible="true" lat="44.95760072" lon="-72.24788135">
    <tag k="addr:housenumber" v="2903"/>
    <tag k="addr:street" v="Lake Road"/>
    <tag k="addr:state" v="VT"/>
    <tag k="ref:vcgi:esiteid" v="178251"/>
  </node>
  <node id="-317" visible="true" lat="44.95776961" lon="-72.26303587">
    <tag k="addr:housenumber" v="200"/>
    <tag k="addr:street" v="Gage Road"/>
    <tag k="addr:state" v="VT"/>
    <tag k="ref:vcgi:esiteid" v="178252"/>
  </node>
  <node id="-318" visible="true" lat="44.95723011" lon="-72.2346254">
    <tag k="addr:housenumber" v="514"/>
    <tag k="addr:street" v="Strawberry Acres"/>
    <tag k="addr:state" v="VT"/>
    <tag k="ref:vcgi:esiteid" v="178253"/>
  </node>
  <node id="-320" visible="true" lat="44.95695183" lon="-72.23458882">
    <tag k="addr:housenumber" v="502"/>
    <tag k="addr:street" v="Strawberry Acres"/>
    <tag k="addr:state" v="VT"/>
    <tag k="ref:vcgi:esiteid" v="178255"/>
  </node>
  <node id="-323" visible="true" lat="44.95667638" lon="-72.23476581">
    <tag k="addr:housenumber" v="474"/>
    <tag k="addr:street" v="Strawberry Acres"/>
    <tag k="addr:state" v="VT"/>
    <tag k="ref:vcgi:esiteid" v="178258"/>
  </node>
  <node id="-326" visible="true" lat="44.95635019" lon="-72.23492287">
    <tag k="addr:housenumber" v="458"/>
    <tag k="addr:street" v="Strawberry Acres"/>
    <tag k="addr:state" v="VT"/>
    <tag k="ref:vcgi:esiteid" v="178261"/>
  </node>
  <node id="-327" visible="true" lat="44.95644479" lon="-72.23523059">
    <tag k="addr:housenumber" v="454"/>
    <tag k="addr:street" v="Strawberry Acres"/>
    <tag k="addr:state" v="VT"/>
    <tag k="ref:vcgi:esiteid" v="178262"/>
  </node>
  <node id="-330" visible="true" lat="44.95613958" lon="-72.23532108">
    <tag k="addr:housenumber" v="438"/>
    <tag k="addr:street" v="Strawberry Acres"/>
    <tag k="addr:state" v="VT"/>
    <tag k="ref:vcgi:esiteid" v="178265"/>
  </node>
  <node id="-331" visible="true" lat="44.95652193" lon="-72.33854848">
    <tag k="addr:housenumber" v="1608"/>
    <tag k="addr:street" v="Searles Road"/>
    <tag k="addr:state" v="VT"/>
    <tag k="ref:vcgi:esiteid" v="178266"/>
  </node>
  <node id="-332" visible="true" lat="44.95671402" lon="-72.33997406">
    <tag k="addr:housenumber" v="1644"/>
    <tag k="addr:street" v="Searles Road"/>
    <tag k="addr:state" v="VT"/>
    <tag k="ref:vcgi:esiteid" v="178267"/>
  </node>
  <node id="-333" visible="true" lat="44.95605459" lon="-72.24293925">
    <tag k="addr:housenumber" v="2718"/>
    <tag k="addr:street" v="Lake Road"/>
    <tag k="addr:state" v="VT"/>
    <tag k="ref:vcgi:esiteid" v="178268"/>
  </node>
  <node id="-335" visible="true" lat="44.95640475" lon="-72.34131332">
    <tag k="addr:housenumber" v="1724"/>
    <tag k="addr:street" v="Searles Road"/>
    <tag k="addr:state" v="VT"/>
    <tag k="ref:vcgi:esiteid" v="178270"/>
  </node>
  <node id="-337" visible="true" lat="44.95589447" lon="-72.33734893">
    <tag k="addr:housenumber" v="1514"/>
    <tag k="addr:street" v="Searles Road"/>
    <tag k="addr:state" v="VT"/>
    <tag k="ref:vcgi:esiteid" v="178272"/>
  </node>
  <node id="-338" visible="true" lat="44.95590274" lon="-72.23670238">
    <tag k="addr:housenumber" v="367"/>
    <tag k="addr:street" v="Strawberry Acres"/>
    <tag k="addr:state" v="VT"/>
    <tag k="ref:vcgi:esiteid" v="178273"/>
  </node>
  <node id="-339" visible="true" lat="44.95559692" lon="-72.23485565">
    <tag k="addr:housenumber" v="426"/>
    <tag k="addr:street" v="Strawberry Acres"/>
    <tag k="addr:state" v="VT"/>
    <tag k="ref:vcgi:esiteid" v="178274"/>
  </node>
  <node id="-341" visible="true" lat="44.95596009" lon="-72.33645634">
    <tag k="addr:housenumber" v="1474"/>
    <tag k="addr:street" v="Searles Road"/>
    <tag k="addr:state" v="VT"/>
    <tag k="ref:vcgi:esiteid" v="178276"/>
  </node>
  <node id="-342" visible="true" lat="44.95541381" lon="-72.24453735">
    <tag k="addr:housenumber" v="78"/>
    <tag k="addr:street" v="Desrochers Road"/>
    <tag k="addr:state" v="VT"/>
    <tag k="ref:vcgi:esiteid" v="178278"/>
  </node>
  <node id="-344" visible="true" lat="44.95543862" lon="-72.24521978">
    <tag k="addr:housenumber" v="114"/>
    <tag k="addr:street" v="Desrochers Road"/>
    <tag k="addr:state" v="VT"/>
    <tag k="ref:vcgi:esiteid" v="178280"/>
  </node>
  <node id="-345" visible="true" lat="44.95527203" lon="-72.23707984">
    <tag k="addr:housenumber" v="343"/>
    <tag k="addr:street" v="Strawberry Acres"/>
    <tag k="addr:state" v="VT"/>
    <tag k="ref:vcgi:esiteid" v="178281"/>
  </node>
  <node id="-346" visible="true" lat="44.95530637" lon="-72.23458104">
    <tag k="addr:housenumber" v="408"/>
    <tag k="addr:street" v="Strawberry Acres"/>
    <tag k="addr:state" v="VT"/>
    <tag k="ref:vcgi:esiteid" v="178282"/>
  </node>
  <node id="-347" visible="true" lat="44.95521926" lon="-72.24575805">
    <tag k="addr:housenumber" v="138"/>
    <tag k="addr:street" v="Desrochers Road"/>
    <tag k="addr:state" v="VT"/>
    <tag k="ref:vcgi:esiteid" v="178283"/>
  </node>
  <node id="-349" visible="true" lat="44.95491273" lon="-72.23446272">
    <tag k="addr:housenumber" v="362"/>
    <tag k="addr:street" v="Strawberry Acres"/>
    <tag k="addr:state" v="VT"/>
    <tag k="ref:vcgi:esiteid" v="178285"/>
  </node>
  <node id="-350" visible="true" lat="44.95487349" lon="-72.33505894">
    <tag k="addr:housenumber" v="1381"/>
    <tag k="addr:street" v="Searles Road"/>
    <tag k="addr:state" v="VT"/>
    <tag k="ref:vcgi:esiteid" v="178286"/>
  </node>
  <node id="-351" visible="true" lat="44.95460416" lon="-72.23745443">
    <tag k="addr:housenumber" v="297"/>
    <tag k="addr:street" v="Strawberry Acres"/>
    <tag k="addr:state" v="VT"/>
    <tag k="ref:vcgi:esiteid" v="178287"/>
  </node>
  <node id="-353" visible="true" lat="44.9542932" lon="-72.23762435">
    <tag k="addr:housenumber" v="259"/>
    <tag k="addr:street" v="Strawberry Acres"/>
    <tag k="addr:state" v="VT"/>
    <tag k="ref:vcgi:esiteid" v="178289"/>
  </node>
  <node id="-354" visible="true" lat="44.9542646" lon="-72.32648637">
    <tag k="addr:housenumber" v="948"/>
    <tag k="addr:street" v="Searles Road"/>
    <tag k="addr:state" v="VT"/>
    <tag k="ref:vcgi:esiteid" v="178290"/>
  </node>
  <node id="-355" visible="true" lat="44.95426908" lon="-72.33069526">
    <tag k="addr:housenumber" v="1160"/>
    <tag k="addr:street" v="Searles Road"/>
    <tag k="addr:state" v="VT"/>
    <tag k="ref:vcgi:esiteid" v="178291"/>
  </node>
  <node id="-356" visible="true" lat="44.9539688" lon="-72.32539088">
    <tag k="addr:housenumber" v="905"/>
    <tag k="addr:street" v="Searles Road"/>
    <tag k="addr:state" v="VT"/>
    <tag k="ref:vcgi:esiteid" v="178292"/>
  </node>
  <node id="-357" visible="true" lat="44.95394192" lon="-72.23369791">
    <tag k="addr:housenumber" v="155"/>
    <tag k="addr:street" v="Fishing Access Road"/>
    <tag k="addr:state" v="VT"/>
    <tag k="ref:vcgi:esiteid" v="178293"/>
  </node>
  <node id="-358" visible="true" lat="44.95407453" lon="-72.24095282">
    <tag k="addr:housenumber" v="47"/>
    <tag k="addr:street" v="Strawberry Acres"/>
    <tag k="addr:state" v="VT"/>
    <tag k="ref:vcgi:esiteid" v="178294"/>
  </node>
  <node id="-360" visible="true" lat="44.9539435" lon="-72.24140674">
    <tag k="addr:housenumber" v="11"/>
    <tag k="addr:street" v="Strawberry Acres"/>
    <tag k="addr:state" v="VT"/>
    <tag k="ref:vcgi:esiteid" v="178296"/>
  </node>
  <node id="-361" visible="true" lat="44.95372361" lon="-72.23801091">
    <tag k="addr:housenumber" v="217"/>
    <tag k="addr:street" v="Strawberry Acres"/>
    <tag k="addr:state" v="VT"/>
    <tag k="ref:vcgi:esiteid" v="178297"/>
  </node>
  <node id="-362" visible="true" lat="44.95361177" lon="-72.23914895">
    <tag k="addr:housenumber" v="125"/>
    <tag k="addr:street" v="Strawberry Acres"/>
    <tag k="addr:state" v="VT"/>
    <tag k="ref:vcgi:esiteid" v="178298"/>
  </node>
  <node id="-363" visible="true" lat="44.95345243" lon="-72.23811243">
    <tag k="addr:housenumber" v="205"/>
    <tag k="addr:street" v="Strawberry Acres"/>
    <tag k="addr:state" v="VT"/>
    <tag k="ref:vcgi:esiteid" v="178299"/>
  </node>
  <node id="-365" visible="true" lat="44.9534535" lon="-72.33344119">
    <tag k="addr:housenumber" v="32"/>
    <tag k="addr:street" v="Number 12 Road"/>
    <tag k="addr:state" v="VT"/>
    <tag k="ref:vcgi:esiteid" v="178301"/>
  </node>
  <node id="-370" visible="true" lat="44.953039" lon="-72.23892848">
    <tag k="addr:housenumber" v="140"/>
    <tag k="addr:street" v="Strawberry Acres"/>
    <tag k="addr:state" v="VT"/>
    <tag k="ref:vcgi:esiteid" v="178306"/>
  </node>
  <node id="-371" visible="true" lat="44.95345777" lon="-72.3046826">
    <tag k="addr:housenumber" v="56"/>
    <tag k="addr:street" v="Lawson Road"/>
    <tag k="addr:state" v="VT"/>
    <tag k="ref:vcgi:esiteid" v="178307"/>
  </node>
  <node id="-372" visible="true" lat="44.95303728" lon="-72.2331505">
    <tag k="addr:housenumber" v="199"/>
    <tag k="addr:street" v="Fishing Access Road"/>
    <tag k="addr:state" v="VT"/>
    <tag k="ref:vcgi:esiteid" v="178308"/>
  </node>
  <node id="-373" visible="true" lat="44.95313501" lon="-72.24348238">
    <tag k="addr:housenumber" v="108"/>
    <tag k="addr:street" v="Chaput Farm Road"/>
    <tag k="addr:state" v="VT"/>
    <tag k="ref:vcgi:esiteid" v="178309"/>
  </node>
  <node id="-374" visible="true" lat="44.95315933" lon="-72.30830383">
    <tag k="addr:housenumber" v="4329"/>
    <tag k="addr:street" v="Vermont Route 105"/>
    <tag k="addr:state" v="VT"/>
    <tag k="ref:vcgi:esiteid" v="178310"/>
  </node>
  <node id="-375" visible="true" lat="44.95284556" lon="-72.24186782">
    <tag k="addr:housenumber" v="29"/>
    <tag k="addr:street" v="Chaput Farm Road"/>
    <tag k="addr:state" v="VT"/>
    <tag k="ref:vcgi:esiteid" v="178311"/>
  </node>
  <node id="-376" visible="true" lat="44.95310257" lon="-72.30014999">
    <tag k="addr:housenumber" v="318"/>
    <tag k="addr:street" v="Vance Hill Road"/>
    <tag k="addr:state" v="VT"/>
    <tag k="ref:vcgi:esiteid" v="178312"/>
  </node>
  <node id="-379" visible="true" lat="44.95275115" lon="-72.30809783">
    <tag k="addr:housenumber" v="4299"/>
    <tag k="addr:street" v="Vermont Route 105"/>
    <tag k="addr:state" v="VT"/>
    <tag k="ref:vcgi:esiteid" v="178316"/>
  </node>
  <node id="-380" visible="true" lat="44.95254697" lon="-72.23339327">
    <tag k="addr:housenumber" v="257"/>
    <tag k="addr:street" v="Fishing Access Road"/>
    <tag k="addr:state" v="VT"/>
    <tag k="ref:vcgi:esiteid" v="178317"/>
  </node>
  <node id="-382" visible="true" lat="44.95235979" lon="-72.23303866">
    <tag k="addr:housenumber" v="259"/>
    <tag k="addr:street" v="Fishing Access Road"/>
    <tag k="addr:state" v="VT"/>
    <tag k="ref:vcgi:esiteid" v="178319"/>
  </node>
  <node id="-385" visible="true" lat="44.95249889" lon="-72.31640745">
    <tag k="addr:housenumber" v="438"/>
    <tag k="addr:street" v="Searles Road"/>
    <tag k="addr:state" v="VT"/>
    <tag k="ref:vcgi:esiteid" v="178322"/>
  </node>
  <node id="-390" visible="true" lat="44.95237723" lon="-72.31586447">
    <tag k="addr:housenumber" v="408"/>
    <tag k="addr:street" v="Searles Road"/>
    <tag k="addr:state" v="VT"/>
    <tag k="ref:vcgi:esiteid" v="178327"/>
  </node>
  <node id="-396" visible="true" lat="44.951794" lon="-72.24065179">
    <tag k="addr:housenumber" v="77"/>
    <tag k="addr:street" v="City Farm Road"/>
    <tag k="addr:state" v="VT"/>
    <tag k="ref:vcgi:esiteid" v="178333"/>
  </node>
  <node id="-401" visible="true" lat="44.95172068" lon="-72.30384624">
    <tag k="addr:housenumber" v="148"/>
    <tag k="addr:street" v="Vance Hill Road"/>
    <tag k="addr:state" v="VT"/>
    <tag k="ref:vcgi:esiteid" v="178339"/>
  </node>
  <node id="-405" visible="true" lat="44.95162684" lon="-72.30376107">
    <tag k="addr:housenumber" v="13"/>
    <tag k="addr:street" v="Church Street"/>
    <tag k="addr:state" v="VT"/>
    <tag k="ref:vcgi:esiteid" v="178343"/>
  </node>
  <node id="-411" visible="true" lat="44.95110259" lon="-72.23783458">
    <tag k="addr:housenumber" v="2265"/>
    <tag k="addr:street" v="Lake Road"/>
    <tag k="addr:state" v="VT"/>
    <tag k="ref:vcgi:esiteid" v="178350"/>
  </node>
  <node id="-413" visible="true" lat="44.95134295" lon="-72.33327726">
    <tag k="addr:housenumber" v="193"/>
    <tag k="addr:street" v="Number 12 Road"/>
    <tag k="addr:state" v="VT"/>
    <tag k="ref:vcgi:esiteid" v="178352"/>
  </node>
  <node id="-415" visible="true" lat="44.95114729" lon="-72.30664539">
    <tag k="addr:housenumber" v="4168"/>
    <tag k="addr:street" v="Vermont Route 105"/>
    <tag k="addr:state" v="VT"/>
    <tag k="ref:vcgi:esiteid" v="178354"/>
  </node>
  <node id="-418" visible="true" lat="44.95108075" lon="-72.30327785">
    <tag k="addr:housenumber" v="71"/>
    <tag k="addr:street" v="Church Street"/>
    <tag k="addr:state" v="VT"/>
    <tag k="ref:vcgi:esiteid" v="178357"/>
  </node>
  <node id="-420" visible="true" lat="44.95098349" lon="-72.30448781">
    <tag k="addr:housenumber" v="43"/>
    <tag k="addr:street" v="School Street"/>
    <tag k="addr:state" v="VT"/>
    <tag k="ref:vcgi:esiteid" v="178359"/>
  </node>
  <node id="-421" visible="true" lat="44.95083523" lon="-72.30364607">
    <tag k="addr:housenumber" v="56"/>
    <tag k="addr:street" v="Church Street"/>
    <tag k="addr:state" v="VT"/>
    <tag k="ref:vcgi:esiteid" v="178360"/>
  </node>
  <node id="-423" visible="true" lat="44.9507396" lon="-72.30604719">
    <tag k="addr:housenumber" v="20"/>
    <tag k="addr:street" v="Vance Hill Road"/>
    <tag k="addr:state" v="VT"/>
    <tag k="ref:vcgi:esiteid" v="178362"/>
  </node>
  <node id="-424" visible="true" lat="44.95074497" lon="-72.3042546">
    <tag k="addr:housenumber" v="61"/>
    <tag k="addr:street" v="School Street"/>
    <tag k="addr:state" v="VT"/>
    <tag k="ref:vcgi:esiteid" v="178364"/>
  </node>
  <node id="-425" visible="true" lat="44.95077022" lon="-72.30303163">
    <tag k="addr:housenumber" v="93"/>
    <tag k="addr:street" v="Church Street"/>
    <tag k="addr:state" v="VT"/>
    <tag k="ref:vcgi:esiteid" v="178365"/>
  </node>
  <node id="-426" visible="true" lat="44.95066829" lon="-72.30472677">
    <tag k="addr:housenumber" v="52"/>
    <tag k="addr:street" v="School Street"/>
    <tag k="addr:state" v="VT"/>
    <tag k="ref:vcgi:esiteid" v="178366"/>
  </node>
  <node id="-427" visible="true" lat="44.95062331" lon="-72.30342526">
    <tag k="addr:housenumber" v="90"/>
    <tag k="addr:street" v="Church Street"/>
    <tag k="addr:state" v="VT"/>
    <tag k="ref:vcgi:esiteid" v="178367"/>
  </node>
  <node id="-429" visible="true" lat="44.95058822" lon="-72.30625915">
    <tag k="addr:housenumber" v="4124"/>
    <tag k="addr:street" v="Vermont Route 105"/>
    <tag k="addr:state" v="VT"/>
    <tag k="ref:vcgi:esiteid" v="178369"/>
  </node>
  <node id="-430" visible="true" lat="44.95063863" lon="-72.30610941">
    <tag k="addr:housenumber" v="4116"/>
    <tag k="addr:street" v="Vermont Route 105"/>
    <tag k="addr:state" v="VT"/>
    <tag k="ref:vcgi:esiteid" v="178370"/>
  </node>
  <node id="-432" visible="true" lat="44.95044522" lon="-72.30321751">
    <tag k="addr:housenumber" v="104"/>
    <tag k="addr:street" v="Church Street"/>
    <tag k="addr:state" v="VT"/>
    <tag k="ref:vcgi:esiteid" v="178372"/>
  </node>
  <node id="-434" visible="true" lat="44.95041296" lon="-72.30672058">
    <tag k="addr:housenumber" v="4127"/>
    <tag k="addr:street" v="Vermont Route 105"/>
    <tag k="addr:state" v="VT"/>
    <tag k="ref:vcgi:esiteid" v="178375"/>
  </node>
  <node id="-435" visible="true" lat="44.95048086" lon="-72.30390528">
    <tag k="addr:housenumber" v="91"/>
    <tag k="addr:street" v="School Street"/>
    <tag k="addr:state" v="VT"/>
    <tag k="ref:vcgi:esiteid" v="178376"/>
  </node>
  <node id="-436" visible="true" lat="44.95040689" lon="-72.30585171">
    <tag k="addr:housenumber" v="4100"/>
    <tag k="addr:street" v="Vermont Route 105"/>
    <tag k="addr:state" v="VT"/>
    <tag k="ref:vcgi:esiteid" v="178377"/>
  </node>
  <node id="-437" visible="true" lat="44.95036875" lon="-72.30576778">
    <tag k="addr:housenumber" v="4096"/>
    <tag k="addr:street" v="Vermont Route 105"/>
    <tag k="addr:state" v="VT"/>
    <tag k="ref:vcgi:esiteid" v="178378"/>
  </node>
  <node id="-441" visible="true" lat="44.95033823" lon="-72.30572964">
    <tag k="addr:housenumber" v="4092"/>
    <tag k="addr:street" v="Vermont Route 105"/>
    <tag k="addr:state" v="VT"/>
    <tag k="ref:vcgi:esiteid" v="178382"/>
  </node>
  <node id="-443" visible="true" lat="44.95013884" lon="-72.30433545">
    <tag k="addr:housenumber" v="96"/>
    <tag k="addr:street" v="School Street"/>
    <tag k="addr:state" v="VT"/>
    <tag k="ref:vcgi:esiteid" v="178384"/>
  </node>
  <node id="-444" visible="true" lat="44.95020488" lon="-72.30231483">
    <tag k="addr:housenumber" v="65"/>
    <tag k="addr:street" v="Briggs Road"/>
    <tag k="addr:state" v="VT"/>
    <tag k="ref:vcgi:esiteid" v="178385"/>
  </node>
  <node id="-446" visible="true" lat="44.95007431" lon="-72.31206922">
    <tag k="addr:housenumber" v="169"/>
    <tag k="addr:street" v="Searles Road"/>
    <tag k="addr:state" v="VT"/>
    <tag k="ref:vcgi:esiteid" v="178387"/>
  </node>
  <node id="-447" visible="true" lat="44.95002361" lon="-72.30598576">
    <tag k="addr:housenumber" v="4091"/>
    <tag k="addr:street" v="Vermont Route 105"/>
    <tag k="addr:state" v="VT"/>
    <tag k="ref:vcgi:esiteid" v="178388"/>
  </node>
  <node id="-448" visible="true" lat="44.95007833" lon="-72.30363215">
    <tag k="addr:housenumber" v="105"/>
    <tag k="addr:street" v="School Street"/>
    <tag k="addr:state" v="VT"/>
    <tag k="ref:vcgi:esiteid" v="178389"/>
  </node>
  <node id="-449" visible="true" lat="44.95006561" lon="-72.30537414">
    <tag k="addr:housenumber" v="4068"/>
    <tag k="addr:street" v="Vermont Route 105"/>
    <tag k="addr:state" v="VT"/>
    <tag k="ref:vcgi:esiteid" v="178390"/>
  </node>
  <node id="-450" visible="true" lat="44.9498979" lon="-72.30391595">
    <tag k="addr:housenumber" v="107"/>
    <tag k="addr:street" v="School Street"/>
    <tag k="addr:state" v="VT"/>
    <tag k="ref:vcgi:esiteid" v="178391"/>
  </node>
  <node id="-451" visible="true" lat="44.95002575" lon="-72.33412887">
    <tag k="addr:housenumber" v="292"/>
    <tag k="addr:street" v="Number 12 Road"/>
    <tag k="addr:state" v="VT"/>
    <tag k="ref:vcgi:esiteid" v="178392"/>
  </node>
  <node id="-452" visible="true" lat="44.94991695" lon="-72.3045531">
    <tag k="addr:housenumber" v="130"/>
    <tag k="addr:street" v="School Street"/>
    <tag k="addr:state" v="VT"/>
    <tag k="ref:vcgi:esiteid" v="178393"/>
  </node>
  <node id="-453" visible="true" lat="44.94971438" lon="-72.30420533">
    <tag k="addr:housenumber" v="123"/>
    <tag k="addr:street" v="School Street"/>
    <tag k="addr:state" v="VT"/>
    <tag k="ref:vcgi:esiteid" v="178394"/>
  </node>
  <node id="-454" visible="true" lat="44.94982147" lon="-72.30558013">
    <tag k="addr:housenumber" v="4065"/>
    <tag k="addr:street" v="Vermont Route 105"/>
    <tag k="addr:state" v="VT"/>
    <tag k="ref:vcgi:esiteid" v="178395"/>
  </node>
  <node id="-455" visible="true" lat="44.94963752" lon="-72.30255058">
    <tag k="addr:housenumber" v="36"/>
    <tag k="addr:street" v="Briggs Road"/>
    <tag k="addr:state" v="VT"/>
    <tag k="ref:vcgi:esiteid" v="178396"/>
  </node>
  <node id="-456" visible="true" lat="44.94975082" lon="-72.33369728">
    <tag k="addr:housenumber" v="305"/>
    <tag k="addr:street" v="Number 12 Road"/>
    <tag k="addr:state" v="VT"/>
    <tag k="ref:vcgi:esiteid" v="178397"/>
  </node>
  <node id="-458" visible="true" lat="44.94952146" lon="-72.30521401">
    <tag k="addr:housenumber" v="4029"/>
    <tag k="addr:street" v="Vermont Route 105"/>
    <tag k="addr:state" v="VT"/>
    <tag k="ref:vcgi:esiteid" v="178399"/>
  </node>
  <node id="-459" visible="true" lat="44.94932672" lon="-72.30343203">
    <tag k="addr:housenumber" v="56"/>
    <tag k="addr:street" v="Eastern Avenue"/>
    <tag k="addr:state" v="VT"/>
    <tag k="ref:vcgi:esiteid" v="178400"/>
  </node>
  <node id="-460" visible="true" lat="44.94937485" lon="-72.30295206">
    <tag k="addr:housenumber" v="67"/>
    <tag k="addr:street" v="Eastern Avenue"/>
    <tag k="addr:state" v="VT"/>
    <tag k="ref:vcgi:esiteid" v="178401"/>
  </node>
  <node id="-461" visible="true" lat="44.94913595" lon="-72.30324121">
    <tag k="addr:housenumber" v="80"/>
    <tag k="addr:street" v="Eastern Avenue"/>
    <tag k="addr:state" v="VT"/>
    <tag k="ref:vcgi:esiteid" v="178402"/>
  </node>
  <node id="-462" visible="true" lat="44.94908142" lon="-72.30271148">
    <tag k="addr:housenumber" v="95"/>
    <tag k="addr:street" v="Eastern Avenue"/>
    <tag k="addr:state" v="VT"/>
    <tag k="ref:vcgi:esiteid" v="178403"/>
  </node>
  <node id="-464" visible="true" lat="44.94893192" lon="-72.30307065">
    <tag k="addr:housenumber" v="90"/>
    <tag k="addr:street" v="Eastern Avenue"/>
    <tag k="addr:state" v="VT"/>
    <tag k="ref:vcgi:esiteid" v="178405"/>
  </node>
  <node id="-465" visible="true" lat="44.94902645" lon="-72.30432411">
    <tag k="addr:housenumber" v="3967"/>
    <tag k="addr:street" v="Vermont Route 105"/>
    <tag k="addr:state" v="VT"/>
    <tag k="ref:vcgi:esiteid" v="178406"/>
  </node>
  <node id="-466" visible="true" lat="44.94874954" lon="-72.3024826">
    <tag k="addr:housenumber" v="121"/>
    <tag k="addr:street" v="Eastern Avenue"/>
    <tag k="addr:state" v="VT"/>
    <tag k="ref:vcgi:esiteid" v="178407"/>
  </node>
  <node id="-467" visible="true" lat="44.94868968" lon="-72.30919477">
    <tag k="addr:housenumber" v="186"/>
    <tag k="addr:street" v="Cross Road"/>
    <tag k="addr:state" v="VT"/>
    <tag k="ref:vcgi:esiteid" v="178408"/>
  </node>
  <node id="-468" visible="true" lat="44.94865035" lon="-72.3035202">
    <tag k="addr:housenumber" v="3935"/>
    <tag k="addr:street" v="Vermont Route 105"/>
    <tag k="addr:state" v="VT"/>
    <tag k="ref:vcgi:esiteid" v="178409"/>
  </node>
  <node id="-470" visible="true" lat="44.94845305" lon="-72.30213574">
    <tag k="addr:housenumber" v="151"/>
    <tag k="addr:street" v="Eastern Avenue"/>
    <tag k="addr:state" v="VT"/>
    <tag k="ref:vcgi:esiteid" v="178411"/>
  </node>
  <node id="-471" visible="true" lat="44.9483757" lon="-72.30255889">
    <tag k="addr:housenumber" v="3886"/>
    <tag k="addr:street" v="Vermont Route 105"/>
    <tag k="addr:state" v="VT"/>
    <tag k="ref:vcgi:esiteid" v="178412"/>
  </node>
  <node id="-472" visible="true" lat="44.94832611" lon="-72.30298614">
    <tag k="addr:housenumber" v="3901"/>
    <tag k="addr:street" v="Vermont Route 105"/>
    <tag k="addr:state" v="VT"/>
    <tag k="ref:vcgi:esiteid" v="178413"/>
  </node>
  <node id="-473" visible="true" lat="44.94829177" lon="-72.30236816">
    <tag k="addr:housenumber" v="3876"/>
    <tag k="addr:street" v="Vermont Route 105"/>
    <tag k="addr:state" v="VT"/>
    <tag k="ref:vcgi:esiteid" v="178414"/>
  </node>
  <node id="-474" visible="true" lat="44.9483167" lon="-72.3087629">
    <tag k="addr:housenumber" v="238"/>
    <tag k="addr:street" v="Cross Road"/>
    <tag k="addr:state" v="VT"/>
    <tag k="ref:vcgi:esiteid" v="178415"/>
  </node>
  <node id="-475" visible="true" lat="44.94807613" lon="-72.30274504">
    <tag k="addr:housenumber" v="3885"/>
    <tag k="addr:street" v="Vermont Route 105"/>
    <tag k="addr:state" v="VT"/>
    <tag k="ref:vcgi:esiteid" v="178416"/>
  </node>
  <node id="-476" visible="true" lat="44.94813537" lon="-72.3018341">
    <tag k="addr:housenumber" v="173"/>
    <tag k="addr:street" v="Eastern Avenue"/>
    <tag k="addr:state" v="VT"/>
    <tag k="ref:vcgi:esiteid" v="178417"/>
  </node>
  <node id="-477" visible="true" lat="44.94802831" lon="-72.31164018">
    <tag k="addr:housenumber" v="141"/>
    <tag k="addr:street" v="Bergeron Hill"/>
    <tag k="addr:state" v="VT"/>
    <tag k="ref:vcgi:esiteid" v="178418"/>
  </node>
  <node id="-478" visible="true" lat="44.94807591" lon="-72.30885443">
    <tag k="addr:housenumber" v="258"/>
    <tag k="addr:street" v="Cross Road"/>
    <tag k="addr:state" v="VT"/>
    <tag k="ref:vcgi:esiteid" v="178419"/>
  </node>
  <node id="-479" visible="true" lat="44.94771194" lon="-72.30153655">
    <tag k="addr:housenumber" v="3820"/>
    <tag k="addr:street" v="Vermont Route 105"/>
    <tag k="addr:state" v="VT"/>
    <tag k="ref:vcgi:esiteid" v="178420"/>
  </node>
  <node id="-480" visible="true" lat="44.94756399" lon="-72.24202493">
    <tag k="addr:housenumber" v="367"/>
    <tag k="addr:street" v="City Farm Road"/>
    <tag k="addr:state" v="VT"/>
    <tag k="ref:vcgi:esiteid" v="178421"/>
  </node>
  <node id="-481" visible="true" lat="44.94755486" lon="-72.3019645">
    <tag k="addr:housenumber" v="3823"/>
    <tag k="addr:street" v="Vermont Route 105"/>
    <tag k="addr:state" v="VT"/>
    <tag k="ref:vcgi:esiteid" v="178422"/>
  </node>
  <node id="-482" visible="true" lat="44.94752963" lon="-72.30117947">
    <tag k="addr:housenumber" v="3812"/>
    <tag k="addr:street" v="Vermont Route 105"/>
    <tag k="addr:state" v="VT"/>
    <tag k="ref:vcgi:esiteid" v="178423"/>
  </node>
  <node id="-483" visible="true" lat="44.94717921" lon="-72.3349506">
    <tag k="addr:housenumber" v="486"/>
    <tag k="addr:street" v="Number 12 Road"/>
    <tag k="addr:state" v="VT"/>
    <tag k="ref:vcgi:esiteid" v="178424"/>
  </node>
  <node id="-484" visible="true" lat="44.94693373" lon="-72.2421665">
    <tag k="addr:housenumber" v="411"/>
    <tag k="addr:street" v="City Farm Road"/>
    <tag k="addr:state" v="VT"/>
    <tag k="ref:vcgi:esiteid" v="178425"/>
  </node>
  <node id="-485" visible="true" lat="44.94686978" lon="-72.30895221">
    <tag k="addr:housenumber" v="334"/>
    <tag k="addr:street" v="Cross Road"/>
    <tag k="addr:state" v="VT"/>
    <tag k="ref:vcgi:esiteid" v="178426"/>
  </node>
  <node id="-486" visible="true" lat="44.94646763" lon="-72.30891659">
    <tag k="addr:housenumber" v="360"/>
    <tag k="addr:street" v="Cross Road"/>
    <tag k="addr:state" v="VT"/>
    <tag k="ref:vcgi:esiteid" v="178427"/>
  </node>
  <node id="-487" visible="true" lat="44.9460767" lon="-72.27921452">
    <tag k="addr:housenumber" v="1554"/>
    <tag k="addr:street" v="Gibbs Road"/>
    <tag k="addr:state" v="VT"/>
    <tag k="ref:vcgi:esiteid" v="178428"/>
  </node>
  <node id="-489" visible="true" lat="44.94573988" lon="-72.3346294">
    <tag k="addr:housenumber" v="583"/>
    <tag k="addr:street" v="Number 12 Road"/>
    <tag k="addr:state" v="VT"/>
    <tag k="ref:vcgi:esiteid" v="178430"/>
  </node>
  <node id="-491" visible="true" lat="44.94512687" lon="-72.30887991">
    <tag k="addr:housenumber" v="450"/>
    <tag k="addr:street" v="Cross Road"/>
    <tag k="addr:state" v="VT"/>
    <tag k="ref:vcgi:esiteid" v="178432"/>
  </node>
  <node id="-492" visible="true" lat="44.9450071" lon="-72.29957549">
    <tag k="addr:housenumber" v="3615"/>
    <tag k="addr:street" v="Vermont Route 105"/>
    <tag k="addr:state" v="VT"/>
    <tag k="ref:vcgi:esiteid" v="178433"/>
  </node>
  <node id="-494" visible="true" lat="44.94410584" lon="-72.30870797">
    <tag k="addr:housenumber" v="604"/>
    <tag k="addr:street" v="Cross Road"/>
    <tag k="addr:state" v="VT"/>
    <tag k="ref:vcgi:esiteid" v="178435"/>
  </node>
  <node id="-495" visible="true" lat="44.94424687" lon="-72.33569502">
    <tag k="addr:housenumber" v="700"/>
    <tag k="addr:street" v="Number 12 Road"/>
    <tag k="addr:state" v="VT"/>
    <tag k="ref:vcgi:esiteid" v="178436"/>
  </node>
  <node id="-496" visible="true" lat="44.94405707" lon="-72.29891165">
    <tag k="addr:housenumber" v="3527"/>
    <tag k="addr:street" v="Vermont Route 105"/>
    <tag k="addr:state" v="VT"/>
    <tag k="ref:vcgi:esiteid" v="178437"/>
  </node>
  <node id="-497" visible="true" lat="44.94388198" lon="-72.24639129">
    <tag k="addr:housenumber" v="696"/>
    <tag k="addr:street" v="City Farm Road"/>
    <tag k="addr:state" v="VT"/>
    <tag k="ref:vcgi:esiteid" v="178438"/>
  </node>
  <node id="-498" visible="true" lat="44.94420839" lon="-72.29800415">
    <tag k="addr:housenumber" v="3512"/>
    <tag k="addr:street" v="Vermont Route 105"/>
    <tag k="addr:state" v="VT"/>
    <tag k="ref:vcgi:esiteid" v="178439"/>
  </node>
  <node id="-499" visible="true" lat="44.94379479" lon="-72.29881444">
    <tag k="addr:housenumber" v="3511"/>
    <tag k="addr:street" v="Vermont Route 105"/>
    <tag k="addr:state" v="VT"/>
    <tag k="ref:vcgi:esiteid" v="178440"/>
  </node>
  <node id="-500" visible="true" lat="44.94359872" lon="-72.24295083">
    <tag k="addr:housenumber" v="645"/>
    <tag k="addr:street" v="City Farm Road"/>
    <tag k="addr:state" v="VT"/>
    <tag k="ref:vcgi:esiteid" v="178441"/>
  </node>
  <node id="-501" visible="true" lat="44.94292701" lon="-72.2436411">
    <tag k="addr:housenumber" v="693"/>
    <tag k="addr:street" v="City Farm Road"/>
    <tag k="addr:state" v="VT"/>
    <tag k="ref:vcgi:esiteid" v="178442"/>
  </node>
  <node id="-502" visible="true" lat="44.94304641" lon="-72.33624509">
    <tag k="addr:housenumber" v="782"/>
    <tag k="addr:street" v="Number 12 Road"/>
    <tag k="addr:state" v="VT"/>
    <tag k="ref:vcgi:esiteid" v="178443"/>
  </node>
  <node id="-503" visible="true" lat="44.9427061" lon="-72.24460053">
    <tag k="addr:housenumber" v="730"/>
    <tag k="addr:street" v="City Farm Road"/>
    <tag k="addr:state" v="VT"/>
    <tag k="ref:vcgi:esiteid" v="178444"/>
  </node>
  <node id="-504" visible="true" lat="44.94250394" lon="-72.24390657">
    <tag k="addr:housenumber" v="727"/>
    <tag k="addr:street" v="City Farm Road"/>
    <tag k="addr:state" v="VT"/>
    <tag k="ref:vcgi:esiteid" v="178445"/>
  </node>
  <node id="-505" visible="true" lat="44.94226863" lon="-72.30621283">
    <tag k="addr:housenumber" v="156"/>
    <tag k="addr:street" v="Niles Road"/>
    <tag k="addr:state" v="VT"/>
    <tag k="ref:vcgi:esiteid" v="178446"/>
  </node>
  <node id="-506" visible="true" lat="44.94251619" lon="-72.3366618">
    <tag k="addr:housenumber" v="832"/>
    <tag k="addr:street" v="Number 12 Road"/>
    <tag k="addr:state" v="VT"/>
    <tag k="ref:vcgi:esiteid" v="178447"/>
  </node>
  <node id="-507" visible="true" lat="44.94226837" lon="-72.29743194">
    <tag k="addr:housenumber" v="3395"/>
    <tag k="addr:street" v="Vermont Route 105"/>
    <tag k="addr:state" v="VT"/>
    <tag k="ref:vcgi:esiteid" v="178448"/>
  </node>
  <node id="-508" visible="true" lat="44.94214248" lon="-72.29785156">
    <tag k="addr:housenumber" v="3397"/>
    <tag k="addr:street" v="Vermont Route 105"/>
    <tag k="addr:state" v="VT"/>
    <tag k="ref:vcgi:esiteid" v="178449"/>
  </node>
  <node id="-509" visible="true" lat="44.94186675" lon="-72.24535218">
    <tag k="addr:housenumber" v="788"/>
    <tag k="addr:street" v="City Farm Road"/>
    <tag k="addr:state" v="VT"/>
    <tag k="ref:vcgi:esiteid" v="178450"/>
  </node>
  <node id="-510" visible="true" lat="44.94134263" lon="-72.24125823">
    <tag k="addr:housenumber" v="300"/>
    <tag k="addr:street" v="Topper View Drive"/>
    <tag k="addr:state" v="VT"/>
    <tag k="ref:vcgi:esiteid" v="178451"/>
  </node>
  <node id="-511" visible="true" lat="44.94121441" lon="-72.2454396">
    <tag k="addr:housenumber" v="832"/>
    <tag k="addr:street" v="City Farm Road"/>
    <tag k="addr:state" v="VT"/>
    <tag k="ref:vcgi:esiteid" v="178452"/>
  </node>
  <node id="-512" visible="true" lat="44.94102624" lon="-72.29556632">
    <tag k="addr:housenumber" v="3270"/>
    <tag k="addr:street" v="Vermont Route 105"/>
    <tag k="addr:state" v="VT"/>
    <tag k="ref:vcgi:esiteid" v="178453"/>
  </node>
  <node id="-513" visible="true" lat="44.94080704" lon="-72.24515094">
    <tag k="addr:housenumber" v="857"/>
    <tag k="addr:street" v="City Farm Road"/>
    <tag k="addr:state" v="VT"/>
    <tag k="ref:vcgi:esiteid" v="178454"/>
  </node>
  <node id="-514" visible="true" lat="44.94078185" lon="-72.33636216">
    <tag k="addr:housenumber" v="925"/>
    <tag k="addr:street" v="Number 12 Road"/>
    <tag k="addr:state" v="VT"/>
    <tag k="ref:vcgi:esiteid" v="178455"/>
  </node>
  <node id="-515" visible="true" lat="44.94068474" lon="-72.24257157">
    <tag k="addr:housenumber" v="235"/>
    <tag k="addr:street" v="Topper View Drive"/>
    <tag k="addr:state" v="VT"/>
    <tag k="ref:vcgi:esiteid" v="178456"/>
  </node>
  <node id="-516" visible="true" lat="44.94042173" lon="-72.24168536">
    <tag k="addr:housenumber" v="220"/>
    <tag k="addr:street" v="Topper View Drive"/>
    <tag k="addr:state" v="VT"/>
    <tag k="ref:vcgi:esiteid" v="178457"/>
  </node>
  <node id="-517" visible="true" lat="44.94066381" lon="-72.33724654">
    <tag k="addr:housenumber" v="958"/>
    <tag k="addr:street" v="Number 12 Road"/>
    <tag k="addr:state" v="VT"/>
    <tag k="ref:vcgi:esiteid" v="178458"/>
  </node>
  <node id="-518" visible="true" lat="44.94032287" lon="-72.30402374">
    <tag k="addr:housenumber" v="341"/>
    <tag k="addr:street" v="Niles Road"/>
    <tag k="addr:state" v="VT"/>
    <tag k="ref:vcgi:esiteid" v="178459"/>
  </node>
  <node id="-519" visible="true" lat="44.94016779" lon="-72.24594187">
    <tag k="addr:housenumber" v="910"/>
    <tag k="addr:street" v="City Farm Road"/>
    <tag k="addr:state" v="VT"/>
    <tag k="ref:vcgi:esiteid" v="178460"/>
  </node>
  <node id="-520" visible="true" lat="44.94011839" lon="-72.24323779">
    <tag k="addr:housenumber" v="179"/>
    <tag k="addr:street" v="Topper View Drive"/>
    <tag k="addr:state" v="VT"/>
    <tag k="ref:vcgi:esiteid" v="178461"/>
  </node>
  <node id="-521" visible="true" lat="44.93990655" lon="-72.24556893">
    <tag k="addr:housenumber" v="917"/>
    <tag k="addr:street" v="City Farm Road"/>
    <tag k="addr:state" v="VT"/>
    <tag k="ref:vcgi:esiteid" v="178462"/>
  </node>
  <node id="-522" visible="true" lat="44.939952" lon="-72.29466296">
    <tag k="addr:housenumber" v="3182"/>
    <tag k="addr:street" v="Vermont Route 105"/>
    <tag k="addr:state" v="VT"/>
    <tag k="ref:vcgi:esiteid" v="178463"/>
  </node>
  <node id="-523" visible="true" lat="44.93984926" lon="-72.33757001">
    <tag k="addr:housenumber" v="1020"/>
    <tag k="addr:street" v="Number 12 Road"/>
    <tag k="addr:state" v="VT"/>
    <tag k="ref:vcgi:esiteid" v="178464"/>
  </node>
  <node id="-524" visible="true" lat="44.93972442" lon="-72.31414728">
    <tag k="addr:housenumber" v="964"/>
    <tag k="addr:street" v="Cross Road"/>
    <tag k="addr:state" v="VT"/>
    <tag k="ref:vcgi:esiteid" v="178465"/>
  </node>
  <node id="-525" visible="true" lat="44.93897567" lon="-72.33824106">
    <tag k="addr:housenumber" v="1088"/>
    <tag k="addr:street" v="Number 12 Road"/>
    <tag k="addr:state" v="VT"/>
    <tag k="ref:vcgi:esiteid" v="178466"/>
  </node>
  <node id="-526" visible="true" lat="44.93847274" lon="-72.24625302">
    <tag k="addr:housenumber" v="1022"/>
    <tag k="addr:street" v="City Farm Road"/>
    <tag k="addr:state" v="VT"/>
    <tag k="ref:vcgi:esiteid" v="178467"/>
  </node>
  <node id="-527" visible="true" lat="44.93835142" lon="-72.33901596">
    <tag k="addr:housenumber" v="1134"/>
    <tag k="addr:street" v="Number 12 Road"/>
    <tag k="addr:state" v="VT"/>
    <tag k="ref:vcgi:esiteid" v="178468"/>
  </node>
  <node id="-528" visible="true" lat="44.93820571" lon="-72.26636505">
    <tag k="addr:housenumber" v="515"/>
    <tag k="addr:street" v="Browns Hill Road"/>
    <tag k="addr:state" v="VT"/>
    <tag k="ref:vcgi:esiteid" v="178469"/>
  </node>
  <node id="-529" visible="true" lat="44.93839921" lon="-72.29349689">
    <tag k="addr:housenumber" v="3060"/>
    <tag k="addr:street" v="Vermont Route 105"/>
    <tag k="addr:state" v="VT"/>
    <tag k="ref:vcgi:esiteid" v="178470"/>
  </node>
  <node id="-530" visible="true" lat="44.9380054" lon="-72.3366259">
    <tag k="addr:housenumber" v="1099"/>
    <tag k="addr:street" v="Number 12 Road"/>
    <tag k="addr:state" v="VT"/>
    <tag k="ref:vcgi:esiteid" v="178471"/>
  </node>
  <node id="-531" visible="true" lat="44.93800066" lon="-72.24553325">
    <tag k="addr:housenumber" v="1057"/>
    <tag k="addr:street" v="City Farm Road"/>
    <tag k="addr:state" v="VT"/>
    <tag k="ref:vcgi:esiteid" v="178472"/>
  </node>
  <node id="-532" visible="true" lat="44.93765537" lon="-72.24612176">
    <tag k="addr:housenumber" v="1078"/>
    <tag k="addr:street" v="City Farm Road"/>
    <tag k="addr:state" v="VT"/>
    <tag k="ref:vcgi:esiteid" v="178473"/>
  </node>
  <node id="-533" visible="true" lat="44.93760175" lon="-72.24376177">
    <tag k="addr:housenumber" v="142"/>
    <tag k="addr:street" v="Topper View Drive"/>
    <tag k="addr:state" v="VT"/>
    <tag k="ref:vcgi:esiteid" v="178474"/>
  </node>
  <node id="-534" visible="true" lat="44.93753433" lon="-72.24671173">
    <tag k="addr:housenumber" v="1092"/>
    <tag k="addr:street" v="City Farm Road"/>
    <tag k="addr:state" v="VT"/>
    <tag k="ref:vcgi:esiteid" v="178475"/>
  </node>
  <node id="-535" visible="true" lat="44.9375366" lon="-72.33861103">
    <tag k="addr:housenumber" v="1168"/>
    <tag k="addr:street" v="Number 12 Road"/>
    <tag k="addr:state" v="VT"/>
    <tag k="ref:vcgi:esiteid" v="178476"/>
  </node>
  <node id="-536" visible="true" lat="44.93727183" lon="-72.25069656">
    <tag k="addr:housenumber" v="1122"/>
    <tag k="addr:street" v="City Farm Road"/>
    <tag k="addr:state" v="VT"/>
    <tag k="ref:vcgi:esiteid" v="178477"/>
  </node>
  <node id="-537" visible="true" lat="44.93701845" lon="-72.3168759">
    <tag k="addr:housenumber" v="1184"/>
    <tag k="addr:street" v="Cross Road"/>
    <tag k="addr:state" v="VT"/>
    <tag k="ref:vcgi:esiteid" v="178478"/>
  </node>
  <node id="-538" visible="true" lat="44.93698178" lon="-72.24448279">
    <tag k="addr:housenumber" v="1207"/>
    <tag k="addr:street" v="City Farm Road"/>
    <tag k="addr:state" v="VT"/>
    <tag k="ref:vcgi:esiteid" v="178479"/>
  </node>
  <node id="-539" visible="true" lat="44.93639087" lon="-72.26662198">
    <tag k="addr:housenumber" v="374"/>
    <tag k="addr:street" v="Browns Hill Road"/>
    <tag k="addr:state" v="VT"/>
    <tag k="ref:vcgi:esiteid" v="178480"/>
  </node>
  <node id="-540" visible="true" lat="44.93599049" lon="-72.24486036">
    <tag k="addr:housenumber" v="1205"/>
    <tag k="addr:street" v="City Farm Road"/>
    <tag k="addr:state" v="VT"/>
    <tag k="ref:vcgi:esiteid" v="178481"/>
  </node>
  <node id="-541" visible="true" lat="44.93560553" lon="-72.31588585">
    <tag k="addr:housenumber" v="1271"/>
    <tag k="addr:street" v="Cross Road"/>
    <tag k="addr:state" v="VT"/>
    <tag k="ref:vcgi:esiteid" v="178482"/>
  </node>
  <node id="-542" visible="true" lat="44.93535098" lon="-72.34053246">
    <tag k="addr:housenumber" v="1308"/>
    <tag k="addr:street" v="Number 12 Road"/>
    <tag k="addr:state" v="VT"/>
    <tag k="ref:vcgi:esiteid" v="178483"/>
  </node>
  <node id="-543" visible="true" lat="44.9352409" lon="-72.29089071">
    <tag k="addr:housenumber" v="2808"/>
    <tag k="addr:street" v="Vermont Route 105"/>
    <tag k="addr:state" v="VT"/>
    <tag k="ref:vcgi:esiteid" v="178484"/>
  </node>
  <node id="-544" visible="true" lat="44.93489148" lon="-72.31752594">
    <tag k="addr:housenumber" v="1344"/>
    <tag k="addr:street" v="Cross Road"/>
    <tag k="addr:state" v="VT"/>
    <tag k="ref:vcgi:esiteid" v="178485"/>
  </node>
  <node id="-545" visible="true" lat="44.93447674" lon="-72.26905315">
    <tag k="addr:housenumber" v="227"/>
    <tag k="addr:street" v="Browns Hill Road"/>
    <tag k="addr:state" v="VT"/>
    <tag k="ref:vcgi:esiteid" v="178486"/>
  </node>
  <node id="-546" visible="true" lat="44.93445205" lon="-72.2488861">
    <tag k="addr:housenumber" v="390"/>
    <tag k="addr:street" v="Vermont Route 105"/>
    <tag k="addr:state" v="VT"/>
    <tag k="ref:vcgi:esiteid" v="178487"/>
  </node>
  <node id="-547" visible="true" lat="44.93458332" lon="-72.29047128">
    <tag k="addr:housenumber" v="2762"/>
    <tag k="addr:street" v="Vermont Route 105"/>
    <tag k="addr:state" v="VT"/>
    <tag k="ref:vcgi:esiteid" v="178488"/>
  </node>
  <node id="-548" visible="true" lat="44.9340784" lon="-72.24876931">
    <tag k="addr:housenumber" v="378"/>
    <tag k="addr:street" v="Vermont Route 105"/>
    <tag k="addr:state" v="VT"/>
    <tag k="ref:vcgi:esiteid" v="178489"/>
  </node>
  <node id="-549" visible="true" lat="44.93408404" lon="-72.24790179">
    <tag k="addr:housenumber" v="324"/>
    <tag k="addr:street" v="Vermont Route 105"/>
    <tag k="addr:state" v="VT"/>
    <tag k="ref:vcgi:esiteid" v="178490"/>
  </node>
  <node id="-550" visible="true" lat="44.93415598" lon="-72.24915654">
    <tag k="addr:housenumber" v="406"/>
    <tag k="addr:street" v="Vermont Route 105"/>
    <tag k="addr:state" v="VT"/>
    <tag k="ref:vcgi:esiteid" v="178491"/>
  </node>
  <node id="-551" visible="true" lat="44.9340248" lon="-72.30469512">
    <tag k="addr:housenumber" v="766"/>
    <tag k="addr:street" v="Niles Road"/>
    <tag k="addr:state" v="VT"/>
    <tag k="ref:vcgi:esiteid" v="178492"/>
  </node>
  <node id="-552" visible="true" lat="44.93400755" lon="-72.2460252">
    <tag k="addr:housenumber" v="246"/>
    <tag k="addr:street" v="Vermont Route 105"/>
    <tag k="addr:state" v="VT"/>
    <tag k="ref:vcgi:esiteid" v="178493"/>
  </node>
  <node id="-553" visible="true" lat="44.93390618" lon="-72.29183195">
    <tag k="addr:housenumber" v="2725"/>
    <tag k="addr:street" v="Vermont Route 105"/>
    <tag k="addr:state" v="VT"/>
    <tag k="ref:vcgi:esiteid" v="178494"/>
  </node>
  <node id="-554" visible="true" lat="44.93391301" lon="-72.24552864">
    <tag k="addr:housenumber" v="218"/>
    <tag k="addr:street" v="Vermont Route 105"/>
    <tag k="addr:state" v="VT"/>
    <tag k="ref:vcgi:esiteid" v="178495"/>
  </node>
  <node id="-555" visible="true" lat="44.9339696" lon="-72.24659353">
    <tag k="addr:housenumber" v="274"/>
    <tag k="addr:street" v="Vermont Route 105"/>
    <tag k="addr:state" v="VT"/>
    <tag k="ref:vcgi:esiteid" v="178496"/>
  </node>
  <node id="-556" visible="true" lat="44.93367692" lon="-72.34078941">
    <tag k="addr:housenumber" v="1488"/>
    <tag k="addr:street" v="Number 12 Road"/>
    <tag k="addr:state" v="VT"/>
    <tag k="ref:vcgi:esiteid" v="178497"/>
  </node>
  <node id="-557" visible="true" lat="44.93327149" lon="-72.24372291">
    <tag k="addr:housenumber" v="124"/>
    <tag k="addr:street" v="Vermont Route 105"/>
    <tag k="addr:state" v="VT"/>
    <tag k="ref:vcgi:esiteid" v="178498"/>
  </node>
  <node id="-558" visible="true" lat="44.93298262" lon="-72.24552944">
    <tag k="addr:housenumber" v="231"/>
    <tag k="addr:street" v="Vermont Route 105"/>
    <tag k="addr:state" v="VT"/>
    <tag k="ref:vcgi:esiteid" v="178499"/>
  </node>
  <node id="-559" visible="true" lat="44.93304443" lon="-72.30406951">
    <tag k="addr:housenumber" v="839"/>
    <tag k="addr:street" v="Niles Road"/>
    <tag k="addr:state" v="VT"/>
    <tag k="ref:vcgi:esiteid" v="178500"/>
  </node>
  <node id="-560" visible="true" lat="44.93280074" lon="-72.24461703">
    <tag k="addr:housenumber" v="52"/>
    <tag k="addr:street" v="Lane Road"/>
    <tag k="addr:state" v="VT"/>
    <tag k="ref:vcgi:esiteid" v="178501"/>
  </node>
  <node id="-561" visible="true" lat="44.93253557" lon="-72.24367293">
    <tag k="addr:housenumber" v="99"/>
    <tag k="addr:street" v="Vermont Route 105"/>
    <tag k="addr:state" v="VT"/>
    <tag k="ref:vcgi:esiteid" v="178502"/>
  </node>
  <node id="-562" visible="true" lat="44.9328403" lon="-72.34090048">
    <tag k="addr:housenumber" v="1500"/>
    <tag k="addr:street" v="Number 12 Road"/>
    <tag k="addr:state" v="VT"/>
    <tag k="ref:vcgi:esiteid" v="178503"/>
  </node>
  <node id="-563" visible="true" lat="44.93271637" lon="-72.26980591">
    <tag k="addr:housenumber" v="93"/>
    <tag k="addr:street" v="Browns Hill Road"/>
    <tag k="addr:state" v="VT"/>
    <tag k="ref:vcgi:esiteid" v="178504"/>
  </node>
  <node id="-564" visible="true" lat="44.9327507" lon="-72.30437469">
    <tag k="addr:housenumber" v="864"/>
    <tag k="addr:street" v="Niles Road"/>
    <tag k="addr:state" v="VT"/>
    <tag k="ref:vcgi:esiteid" v="178505"/>
  </node>
  <node id="-565" visible="true" lat="44.93250656" lon="-72.24475861">
    <tag k="addr:housenumber" v="60"/>
    <tag k="addr:street" v="Lane Road"/>
    <tag k="addr:state" v="VT"/>
    <tag k="ref:vcgi:esiteid" v="178506"/>
  </node>
  <node id="-566" visible="true" lat="44.93245903" lon="-72.29008292">
    <tag k="addr:housenumber" v="2627"/>
    <tag k="addr:street" v="Vermont Route 105"/>
    <tag k="addr:state" v="VT"/>
    <tag k="ref:vcgi:esiteid" v="178507"/>
  </node>
  <node id="-567" visible="true" lat="44.93252158" lon="-72.33955572">
    <tag k="addr:housenumber" v="1537"/>
    <tag k="addr:street" v="Number 12 Road"/>
    <tag k="addr:state" v="VT"/>
    <tag k="ref:vcgi:esiteid" v="178508"/>
  </node>
  <node id="-568" visible="true" lat="44.93233704" lon="-72.24261355">
    <tag k="addr:housenumber" v="33"/>
    <tag k="addr:street" v="Vermont Route 105"/>
    <tag k="addr:state" v="VT"/>
    <tag k="ref:vcgi:esiteid" v="178509"/>
  </node>
  <node id="-569" visible="true" lat="44.9321139" lon="-72.24190796">
    <tag k="addr:housenumber" v="17"/>
    <tag k="addr:street" v="Vermont Route 105"/>
    <tag k="addr:state" v="VT"/>
    <tag k="ref:vcgi:esiteid" v="178510"/>
  </node>
  <node id="-570" visible="true" lat="44.93205907" lon="-72.27134005">
    <tag k="addr:housenumber" v="1672"/>
    <tag k="addr:street" v="Vermont Route 105"/>
    <tag k="addr:state" v="VT"/>
    <tag k="ref:vcgi:esiteid" v="178511"/>
  </node>
  <node id="-571" visible="true" lat="44.93192792" lon="-72.28974432">
    <tag k="addr:housenumber" v="2579"/>
    <tag k="addr:street" v="Vermont Route 105"/>
    <tag k="addr:state" v="VT"/>
    <tag k="ref:vcgi:esiteid" v="178512"/>
  </node>
  <node id="-572" visible="true" lat="44.931785" lon="-72.27232414">
    <tag k="addr:housenumber" v="1688"/>
    <tag k="addr:street" v="Vermont Route 105"/>
    <tag k="addr:state" v="VT"/>
    <tag k="ref:vcgi:esiteid" v="178513"/>
  </node>
  <node id="-573" visible="true" lat="44.93119447" lon="-72.34007153">
    <tag k="addr:housenumber" v="1611"/>
    <tag k="addr:street" v="Number 12 Road"/>
    <tag k="addr:state" v="VT"/>
    <tag k="ref:vcgi:esiteid" v="178514"/>
  </node>
  <node id="-574" visible="true" lat="44.93090838" lon="-72.27589835">
    <tag k="addr:housenumber" v="1877"/>
    <tag k="addr:street" v="Vermont Route 105"/>
    <tag k="addr:state" v="VT"/>
    <tag k="ref:vcgi:esiteid" v="178516"/>
  </node>
  <node id="-575" visible="true" lat="44.93114089" lon="-72.28876495">
    <tag k="addr:housenumber" v="2519"/>
    <tag k="addr:street" v="Vermont Route 105"/>
    <tag k="addr:state" v="VT"/>
    <tag k="ref:vcgi:esiteid" v="178517"/>
  </node>
  <node id="-576" visible="true" lat="44.93046569" lon="-72.27022552">
    <tag k="addr:housenumber" v="1587"/>
    <tag k="addr:street" v="Vermont Route 105"/>
    <tag k="addr:state" v="VT"/>
    <tag k="ref:vcgi:esiteid" v="178518"/>
  </node>
  <node id="-577" visible="true" lat="44.93030929" lon="-72.31860351">
    <tag k="addr:housenumber" v="1665"/>
    <tag k="addr:street" v="Cross Road"/>
    <tag k="addr:state" v="VT"/>
    <tag k="ref:vcgi:esiteid" v="178519"/>
  </node>
  <node id="-578" visible="true" lat="44.93019139" lon="-72.34072958">
    <tag k="addr:housenumber" v="1697"/>
    <tag k="addr:street" v="Number 12 Road"/>
    <tag k="addr:state" v="VT"/>
    <tag k="ref:vcgi:esiteid" v="178520"/>
  </node>
  <node id="-579" visible="true" lat="44.9300537" lon="-72.282341">
    <tag k="addr:housenumber" v="2155"/>
    <tag k="addr:street" v="Vermont Route 105"/>
    <tag k="addr:state" v="VT"/>
    <tag k="ref:vcgi:esiteid" v="178521"/>
  </node>
  <node id="-580" visible="true" lat="44.92985153" lon="-72.30546569">
    <tag k="addr:housenumber" v="1004"/>
    <tag k="addr:street" v="Niles Road"/>
    <tag k="addr:state" v="VT"/>
    <tag k="ref:vcgi:esiteid" v="178522"/>
  </node>
  <node id="-581" visible="true" lat="44.92952696" lon="-72.34190094">
    <tag k="addr:housenumber" v="1768"/>
    <tag k="addr:street" v="Number 12 Road"/>
    <tag k="addr:state" v="VT"/>
    <tag k="ref:vcgi:esiteid" v="178523"/>
  </node>
  <node id="-582" visible="true" lat="44.928833" lon="-72.30205535">
    <tag k="addr:housenumber" v="1150"/>
    <tag k="addr:street" v="Niles Road"/>
    <tag k="addr:state" v="VT"/>
    <tag k="ref:vcgi:esiteid" v="178524"/>
  </node>
  <node id="-583" visible="true" lat="44.9280884" lon="-72.32135735">
    <tag k="addr:housenumber" v="1860"/>
    <tag k="addr:street" v="Cross Road"/>
    <tag k="addr:state" v="VT"/>
    <tag k="ref:vcgi:esiteid" v="178525"/>
  </node>
  <node id="-584" visible="true" lat="44.92749786" lon="-72.29335784">
    <tag k="addr:housenumber" v="990"/>
    <tag k="addr:street" v="Vermont Route 100"/>
    <tag k="addr:state" v="VT"/>
    <tag k="ref:vcgi:esiteid" v="178526"/>
  </node>
  <node id="-585" visible="true" lat="44.92733383" lon="-72.30216979">
    <tag k="addr:housenumber" v="1256"/>
    <tag k="addr:street" v="Niles Road"/>
    <tag k="addr:state" v="VT"/>
    <tag k="ref:vcgi:esiteid" v="178527"/>
  </node>
  <node id="-586" visible="true" lat="44.92698586" lon="-72.2877761">
    <tag k="addr:housenumber" v="325"/>
    <tag k="addr:street" v="Vermont Route 100"/>
    <tag k="addr:state" v="VT"/>
    <tag k="ref:vcgi:esiteid" v="178528"/>
  </node>
  <node id="-587" visible="true" lat="44.92668533" lon="-72.30192565">
    <tag k="addr:housenumber" v="1300"/>
    <tag k="addr:street" v="Niles Road"/>
    <tag k="addr:state" v="VT"/>
    <tag k="ref:vcgi:esiteid" v="178529"/>
  </node>
  <node id="-588" visible="true" lat="44.92671614" lon="-72.28891906">
    <tag k="addr:housenumber" v="352"/>
    <tag k="addr:street" v="Vermont Route 100"/>
    <tag k="addr:state" v="VT"/>
    <tag k="ref:vcgi:esiteid" v="178530"/>
  </node>
  <node id="-589" visible="true" lat="44.92601776" lon="-72.30210113">
    <tag k="addr:housenumber" v="1346"/>
    <tag k="addr:street" v="Niles Road"/>
    <tag k="addr:state" v="VT"/>
    <tag k="ref:vcgi:esiteid" v="178531"/>
  </node>
  <node id="-590" visible="true" lat="44.92592362" lon="-72.28635165">
    <tag k="addr:housenumber" v="399"/>
    <tag k="addr:street" v="Vermont Route 100"/>
    <tag k="addr:state" v="VT"/>
    <tag k="ref:vcgi:esiteid" v="178532"/>
  </node>
  <node id="-591" visible="true" lat="44.92582702" lon="-72.30149841">
    <tag k="addr:housenumber" v="1359"/>
    <tag k="addr:street" v="Niles Road"/>
    <tag k="addr:state" v="VT"/>
    <tag k="ref:vcgi:esiteid" v="178533"/>
  </node>
  <node id="-592" visible="true" lat="44.92573608" lon="-72.345063">
    <tag k="addr:housenumber" v="2076"/>
    <tag k="addr:street" v="Number 12 Road"/>
    <tag k="addr:state" v="VT"/>
    <tag k="ref:vcgi:esiteid" v="178534"/>
  </node>
  <node id="-593" visible="true" lat="44.92521602" lon="-72.28756048">
    <tag k="addr:housenumber" v="437"/>
    <tag k="addr:street" v="Vermont Route 100"/>
    <tag k="addr:state" v="VT"/>
    <tag k="ref:vcgi:esiteid" v="178535"/>
  </node>
  <node id="-594" visible="true" lat="44.9248619" lon="-72.30229949">
    <tag k="addr:housenumber" v="1416"/>
    <tag k="addr:street" v="Niles Road"/>
    <tag k="addr:state" v="VT"/>
    <tag k="ref:vcgi:esiteid" v="178536"/>
  </node>
  <node id="-595" visible="true" lat="44.92466455" lon="-72.30118678">
    <tag k="addr:housenumber" v="1437"/>
    <tag k="addr:street" v="Niles Road"/>
    <tag k="addr:state" v="VT"/>
    <tag k="ref:vcgi:esiteid" v="178537"/>
  </node>
  <node id="-596" visible="true" lat="44.92460815" lon="-72.28834472">
    <tag k="addr:housenumber" v="499"/>
    <tag k="addr:street" v="Vermont Route 100"/>
    <tag k="addr:state" v="VT"/>
    <tag k="ref:vcgi:esiteid" v="178538"/>
  </node>
  <node id="-597" visible="true" lat="44.92392744" lon="-72.28674246">
    <tag k="addr:housenumber" v="553"/>
    <tag k="addr:street" v="Vermont Route 100"/>
    <tag k="addr:state" v="VT"/>
    <tag k="ref:vcgi:esiteid" v="178539"/>
  </node>
  <node id="-598" visible="true" lat="44.9235796" lon="-72.30041283">
    <tag k="addr:housenumber" v="1485"/>
    <tag k="addr:street" v="Niles Road"/>
    <tag k="addr:state" v="VT"/>
    <tag k="ref:vcgi:esiteid" v="178540"/>
  </node>
  <node id="-599" visible="true" lat="44.92344021" lon="-72.30185851">
    <tag k="addr:housenumber" v="1513"/>
    <tag k="addr:street" v="Niles Road"/>
    <tag k="addr:state" v="VT"/>
    <tag k="ref:vcgi:esiteid" v="178541"/>
  </node>
  <node id="-600" visible="true" lat="44.92337331" lon="-72.30458851">
    <tag k="addr:housenumber" v="1594"/>
    <tag k="addr:street" v="Niles Road"/>
    <tag k="addr:state" v="VT"/>
    <tag k="ref:vcgi:esiteid" v="178542"/>
  </node>
  <node id="-601" visible="true" lat="44.92266006" lon="-72.3024987">
    <tag k="addr:housenumber" v="1583"/>
    <tag k="addr:street" v="Niles Road"/>
    <tag k="addr:state" v="VT"/>
    <tag k="ref:vcgi:esiteid" v="178543"/>
  </node>
  <node id="-602" visible="true" lat="44.92270924" lon="-72.34630909">
    <tag k="addr:housenumber" v="2284"/>
    <tag k="addr:street" v="Number 12 Road"/>
    <tag k="addr:state" v="VT"/>
    <tag k="ref:vcgi:esiteid" v="178544"/>
  </node>
  <node id="-603" visible="true" lat="44.92163308" lon="-72.29038033">
    <tag k="addr:housenumber" v="660"/>
    <tag k="addr:street" v="Vermont Route 100"/>
    <tag k="addr:state" v="VT"/>
    <tag k="ref:vcgi:esiteid" v="178545"/>
  </node>
  <node id="-604" visible="true" lat="44.9218569" lon="-72.30004303">
    <tag k="addr:housenumber" v="1388"/>
    <tag k="addr:street" v="Vermont Route 100"/>
    <tag k="addr:state" v="VT"/>
    <tag k="ref:vcgi:esiteid" v="178546"/>
  </node>
  <node id="-605" visible="true" lat="44.92157054" lon="-72.32638291">
    <tag k="addr:housenumber" v="2355"/>
    <tag k="addr:street" v="Cross Road"/>
    <tag k="addr:state" v="VT"/>
    <tag k="ref:vcgi:esiteid" v="178547"/>
  </node>
  <node id="-606" visible="true" lat="44.92071307" lon="-72.28484882">
    <tag k="addr:housenumber" v="211"/>
    <tag k="addr:street" v="Buck Road"/>
    <tag k="addr:state" v="VT"/>
    <tag k="ref:vcgi:esiteid" v="178548"/>
  </node>
  <node id="-607" visible="true" lat="44.92088806" lon="-72.29014095">
    <tag k="addr:housenumber" v="736"/>
    <tag k="addr:street" v="Vermont Route 100"/>
    <tag k="addr:state" v="VT"/>
    <tag k="ref:vcgi:esiteid" v="178549"/>
  </node>
  <node id="-608" visible="true" lat="44.92100915" lon="-72.30967323">
    <tag k="addr:housenumber" v="1858"/>
    <tag k="addr:street" v="Vermont Route 100"/>
    <tag k="addr:state" v="VT"/>
    <tag k="ref:vcgi:esiteid" v="178550"/>
  </node>
  <node id="-609" visible="true" lat="44.92081449" lon="-72.32732856">
    <tag k="addr:housenumber" v="2451"/>
    <tag k="addr:street" v="Cross Road"/>
    <tag k="addr:state" v="VT"/>
    <tag k="ref:vcgi:esiteid" v="178551"/>
  </node>
  <node id="-610" visible="true" lat="44.92073451" lon="-72.28374582">
    <tag k="addr:housenumber" v="270"/>
    <tag k="addr:street" v="Buck Road"/>
    <tag k="addr:state" v="VT"/>
    <tag k="ref:vcgi:esiteid" v="178552"/>
  </node>
  <node id="-611" visible="true" lat="44.92060718" lon="-72.29417769">
    <tag k="addr:housenumber" v="1076"/>
    <tag k="addr:street" v="Vermont Route 100"/>
    <tag k="addr:state" v="VT"/>
    <tag k="ref:vcgi:esiteid" v="178553"/>
  </node>
  <node id="-612" visible="true" lat="44.92031478" lon="-72.29764556">
    <tag k="addr:housenumber" v="1233"/>
    <tag k="addr:street" v="Vermont Route 100"/>
    <tag k="addr:state" v="VT"/>
    <tag k="ref:vcgi:esiteid" v="178554"/>
  </node>
  <node id="-613" visible="true" lat="44.92024131" lon="-72.3119471">
    <tag k="addr:housenumber" v="1983"/>
    <tag k="addr:street" v="Vermont Route 100"/>
    <tag k="addr:state" v="VT"/>
    <tag k="ref:vcgi:esiteid" v="178555"/>
  </node>
  <node id="-614" visible="true" lat="44.92021707" lon="-72.28990259">
    <tag k="addr:housenumber" v="26"/>
    <tag k="addr:street" v="Wheeler Corner"/>
    <tag k="addr:state" v="VT"/>
    <tag k="ref:vcgi:esiteid" v="178556"/>
  </node>
  <node id="-615" visible="true" lat="44.92022824" lon="-72.29536466">
    <tag k="addr:housenumber" v="1126"/>
    <tag k="addr:street" v="Vermont Route 100"/>
    <tag k="addr:state" v="VT"/>
    <tag k="ref:vcgi:esiteid" v="178557"/>
  </node>
  <node id="-616" visible="true" lat="44.92012006" lon="-72.28885672">
    <tag k="addr:housenumber" v="725"/>
    <tag k="addr:street" v="Vermont Route 100"/>
    <tag k="addr:state" v="VT"/>
    <tag k="ref:vcgi:esiteid" v="178558"/>
  </node>
  <node id="-617" visible="true" lat="44.91997236" lon="-72.2927466">
    <tag k="addr:housenumber" v="986"/>
    <tag k="addr:street" v="Vermont Route 100"/>
    <tag k="addr:state" v="VT"/>
    <tag k="ref:vcgi:esiteid" v="178559"/>
  </node>
  <node id="-618" visible="true" lat="44.91986826" lon="-72.29381733">
    <tag k="addr:housenumber" v="1052"/>
    <tag k="addr:street" v="Vermont Route 100"/>
    <tag k="addr:state" v="VT"/>
    <tag k="ref:vcgi:esiteid" v="178560"/>
  </node>
  <node id="-619" visible="true" lat="44.91971678" lon="-72.2917862">
    <tag k="addr:housenumber" v="152"/>
    <tag k="addr:street" v="Wheeler Corner"/>
    <tag k="addr:state" v="VT"/>
    <tag k="ref:vcgi:esiteid" v="178561"/>
  </node>
  <node id="-620" visible="true" lat="44.9194561" lon="-72.28970464">
    <tag k="addr:housenumber" v="76"/>
    <tag k="addr:street" v="Wheeler Corner"/>
    <tag k="addr:state" v="VT"/>
    <tag k="ref:vcgi:esiteid" v="178562"/>
  </node>
  <node id="-621" visible="true" lat="44.91960344" lon="-72.32127818">
    <tag k="addr:housenumber" v="2410"/>
    <tag k="addr:street" v="Vermont Route 100"/>
    <tag k="addr:state" v="VT"/>
    <tag k="ref:vcgi:esiteid" v="178563"/>
  </node>
  <node id="-622" visible="true" lat="44.91962082" lon="-72.31993834">
    <tag k="addr:housenumber" v="2378"/>
    <tag k="addr:street" v="Vermont Route 100"/>
    <tag k="addr:state" v="VT"/>
    <tag k="ref:vcgi:esiteid" v="178564"/>
  </node>
  <node id="-623" visible="true" lat="44.9192511" lon="-72.28679723">
    <tag k="addr:housenumber" v="50"/>
    <tag k="addr:street" v="Buck Road"/>
    <tag k="addr:state" v="VT"/>
    <tag k="ref:vcgi:esiteid" v="178565"/>
  </node>
  <node id="-624" visible="true" lat="44.91919479" lon="-72.29334297">
    <tag k="addr:housenumber" v="1011"/>
    <tag k="addr:street" v="Vermont Route 100"/>
    <tag k="addr:state" v="VT"/>
    <tag k="ref:vcgi:esiteid" v="178566"/>
  </node>
  <node id="-625" visible="true" lat="44.91914312" lon="-72.2887204">
    <tag k="addr:housenumber" v="781"/>
    <tag k="addr:street" v="Vermont Route 100"/>
    <tag k="addr:state" v="VT"/>
    <tag k="ref:vcgi:esiteid" v="178567"/>
  </node>
  <node id="-626" visible="true" lat="44.91899133" lon="-72.32321512">
    <tag k="addr:housenumber" v="2530"/>
    <tag k="addr:street" v="Vermont Route 100"/>
    <tag k="addr:state" v="VT"/>
    <tag k="ref:vcgi:esiteid" v="178568"/>
  </node>
  <node id="-627" visible="true" lat="44.91896808" lon="-72.32208574">
    <tag k="addr:housenumber" v="2480"/>
    <tag k="addr:street" v="Vermont Route 100"/>
    <tag k="addr:state" v="VT"/>
    <tag k="ref:vcgi:esiteid" v="178569"/>
  </node>
  <node id="-628" visible="true" lat="44.91858673" lon="-72.32585144">
    <tag k="addr:housenumber" v="2682"/>
    <tag k="addr:street" v="Vermont Route 100"/>
    <tag k="addr:state" v="VT"/>
    <tag k="ref:vcgi:esiteid" v="178570"/>
  </node>
  <node id="-629" visible="true" lat="44.91827134" lon="-72.32408574">
    <tag k="addr:housenumber" v="2593"/>
    <tag k="addr:street" v="Vermont Route 100"/>
    <tag k="addr:state" v="VT"/>
    <tag k="ref:vcgi:esiteid" v="178571"/>
  </node>
  <node id="-630" visible="true" lat="44.91849672" lon="-72.32877662">
    <tag k="addr:housenumber" v="2627"/>
    <tag k="addr:street" v="Cross Road"/>
    <tag k="addr:state" v="VT"/>
    <tag k="ref:vcgi:esiteid" v="178572"/>
  </node>
  <node id="-631" visible="true" lat="44.91805814" lon="-72.30220006">
    <tag k="addr:housenumber" v="259"/>
    <tag k="addr:street" v="Poginy Hill Road"/>
    <tag k="addr:state" v="VT"/>
    <tag k="ref:vcgi:esiteid" v="178573"/>
  </node>
  <node id="-632" visible="true" lat="44.91812262" lon="-72.32894312">
    <tag k="addr:housenumber" v="2810"/>
    <tag k="addr:street" v="Vermont Route 100"/>
    <tag k="addr:state" v="VT"/>
    <tag k="ref:vcgi:esiteid" v="178574"/>
  </node>
  <node id="-633" visible="true" lat="44.91791809" lon="-72.32629067">
    <tag k="addr:housenumber" v="2703"/>
    <tag k="addr:street" v="Vermont Route 100"/>
    <tag k="addr:state" v="VT"/>
    <tag k="ref:vcgi:esiteid" v="178575"/>
  </node>
  <node id="-634" visible="true" lat="44.91783271" lon="-72.32722884">
    <tag k="addr:housenumber" v="2749"/>
    <tag k="addr:street" v="Vermont Route 100"/>
    <tag k="addr:state" v="VT"/>
    <tag k="ref:vcgi:esiteid" v="178576"/>
  </node>
  <node id="-635" visible="true" lat="44.91751226" lon="-72.31361347">
    <tag k="addr:housenumber" v="189"/>
    <tag k="addr:street" v="Collins Mill Road"/>
    <tag k="addr:state" v="VT"/>
    <tag k="ref:vcgi:esiteid" v="178577"/>
  </node>
  <node id="-636" visible="true" lat="44.91765162" lon="-72.33070346">
    <tag k="addr:housenumber" v="2916"/>
    <tag k="addr:street" v="Vermont Route 100"/>
    <tag k="addr:state" v="VT"/>
    <tag k="ref:vcgi:esiteid" v="178578"/>
  </node>
  <node id="-637" visible="true" lat="44.91756606" lon="-72.30353106">
    <tag k="addr:housenumber" v="336"/>
    <tag k="addr:street" v="Poginy Hill Road"/>
    <tag k="addr:state" v="VT"/>
    <tag k="ref:vcgi:esiteid" v="178579"/>
  </node>
  <node id="-638" visible="true" lat="44.91730122" lon="-72.3295335">
    <tag k="addr:housenumber" v="2863"/>
    <tag k="addr:street" v="Vermont Route 100"/>
    <tag k="addr:state" v="VT"/>
    <tag k="ref:vcgi:esiteid" v="178580"/>
  </node>
  <node id="-639" visible="true" lat="44.91731992" lon="-72.32909156">
    <tag k="addr:housenumber" v="2837"/>
    <tag k="addr:street" v="Vermont Route 100"/>
    <tag k="addr:state" v="VT"/>
    <tag k="ref:vcgi:esiteid" v="178581"/>
  </node>
  <node id="-640" visible="true" lat="44.91703033" lon="-72.34094238">
    <tag k="addr:housenumber" v="3438"/>
    <tag k="addr:street" v="Vermont Route 100"/>
    <tag k="addr:state" v="VT"/>
    <tag k="ref:vcgi:esiteid" v="178582"/>
  </node>
  <node id="-641" visible="true" lat="44.91697311" lon="-72.34106445">
    <tag k="addr:housenumber" v="3436"/>
    <tag k="addr:street" v="Vermont Route 100"/>
    <tag k="addr:state" v="VT"/>
    <tag k="ref:vcgi:esiteid" v="178583"/>
  </node>
  <node id="-642" visible="true" lat="44.91648984" lon="-72.33564863">
    <tag k="addr:housenumber" v="3169"/>
    <tag k="addr:street" v="Vermont Route 100"/>
    <tag k="addr:state" v="VT"/>
    <tag k="ref:vcgi:esiteid" v="178584"/>
  </node>
  <node id="-643" visible="true" lat="44.91667173" lon="-72.347311">
    <tag k="addr:housenumber" v="2689"/>
    <tag k="addr:street" v="Number 12 Road"/>
    <tag k="addr:state" v="VT"/>
    <tag k="ref:vcgi:esiteid" v="178585"/>
  </node>
  <node id="-644" visible="true" lat="44.91656494" lon="-72.33913421">
    <tag k="addr:housenumber" v="3326"/>
    <tag k="addr:street" v="Vermont Route 100"/>
    <tag k="addr:state" v="VT"/>
    <tag k="ref:vcgi:esiteid" v="178586"/>
  </node>
  <node id="-645" visible="true" lat="44.91636276" lon="-72.33727264">
    <tag k="addr:housenumber" v="20"/>
    <tag k="addr:street" v="Tetreault Road"/>
    <tag k="addr:state" v="VT"/>
    <tag k="ref:vcgi:esiteid" v="178587"/>
  </node>
  <node id="-646" visible="true" lat="44.91614737" lon="-72.32888025">
    <tag k="addr:housenumber" v="2839"/>
    <tag k="addr:street" v="Vermont Route 100"/>
    <tag k="addr:state" v="VT"/>
    <tag k="ref:vcgi:esiteid" v="178588"/>
  </node>
  <node id="-647" visible="true" lat="44.91523675" lon="-72.3157719">
    <tag k="addr:housenumber" v="371"/>
    <tag k="addr:street" v="Collins Mill Road"/>
    <tag k="addr:state" v="VT"/>
    <tag k="ref:vcgi:esiteid" v="178589"/>
  </node>
  <node id="-648" visible="true" lat="44.91453415" lon="-72.35005">
    <tag k="addr:housenumber" v="3881"/>
    <tag k="addr:street" v="Vermont Route 100"/>
    <tag k="addr:state" v="VT"/>
    <tag k="ref:vcgi:esiteid" v="178591"/>
  </node>
  <node id="-649" visible="true" lat="44.91436004" lon="-72.30448913">
    <tag k="addr:housenumber" v="571"/>
    <tag k="addr:street" v="Poginy Hill Road"/>
    <tag k="addr:state" v="VT"/>
    <tag k="ref:vcgi:esiteid" v="178592"/>
  </node>
  <node id="-650" visible="true" lat="44.91405373" lon="-72.31647467">
    <tag k="addr:housenumber" v="479"/>
    <tag k="addr:street" v="Collins Mill Road"/>
    <tag k="addr:state" v="VT"/>
    <tag k="ref:vcgi:esiteid" v="178593"/>
  </node>
  <node id="-651" visible="true" lat="44.91355895" lon="-72.30718231">
    <tag k="addr:housenumber" v="660"/>
    <tag k="addr:street" v="Poginy Hill Road"/>
    <tag k="addr:state" v="VT"/>
    <tag k="ref:vcgi:esiteid" v="178594"/>
  </node>
  <node id="-652" visible="true" lat="44.91281555" lon="-72.30632896">
    <tag k="addr:housenumber" v="717"/>
    <tag k="addr:street" v="Poginy Hill Road"/>
    <tag k="addr:state" v="VT"/>
    <tag k="ref:vcgi:esiteid" v="178595"/>
  </node>
  <node id="-653" visible="true" lat="44.91271842" lon="-72.30754249">
    <tag k="addr:housenumber" v="716"/>
    <tag k="addr:street" v="Poginy Hill Road"/>
    <tag k="addr:state" v="VT"/>
    <tag k="ref:vcgi:esiteid" v="178596"/>
  </node>
  <node id="-654" visible="true" lat="44.9126262" lon="-72.33843829">
    <tag k="addr:housenumber" v="290"/>
    <tag k="addr:street" v="Tetreault Road"/>
    <tag k="addr:state" v="VT"/>
    <tag k="ref:vcgi:esiteid" v="178597"/>
  </node>
  <node id="-655" visible="true" lat="44.91246412" lon="-72.31686109">
    <tag k="addr:housenumber" v="587"/>
    <tag k="addr:street" v="Collins Mill Road"/>
    <tag k="addr:state" v="VT"/>
    <tag k="ref:vcgi:esiteid" v="178598"/>
  </node>
  <node id="-656" visible="true" lat="44.91201213" lon="-72.30604497">
    <tag k="addr:housenumber" v="735"/>
    <tag k="addr:street" v="Poginy Hill Road"/>
    <tag k="addr:state" v="VT"/>
    <tag k="ref:vcgi:esiteid" v="178599"/>
  </node>
  <node id="-657" visible="true" lat="44.91188812" lon="-72.31761932">
    <tag k="addr:housenumber" v="624"/>
    <tag k="addr:street" v="Collins Mill Road"/>
    <tag k="addr:state" v="VT"/>
    <tag k="ref:vcgi:esiteid" v="178600"/>
  </node>
  <node id="-658" visible="true" lat="44.91165924" lon="-72.30970001">
    <tag k="addr:housenumber" v="792"/>
    <tag k="addr:street" v="Poginy Hill Road"/>
    <tag k="addr:state" v="VT"/>
    <tag k="ref:vcgi:esiteid" v="178601"/>
  </node>
  <node id="-659" visible="true" lat="44.91047814" lon="-72.31730228">
    <tag k="addr:housenumber" v="715"/>
    <tag k="addr:street" v="Collins Mill Road"/>
    <tag k="addr:state" v="VT"/>
    <tag k="ref:vcgi:esiteid" v="178602"/>
  </node>
  <node id="-660" visible="true" lat="44.91049206" lon="-72.33840248">
    <tag k="addr:housenumber" v="431"/>
    <tag k="addr:street" v="Tetreault Road"/>
    <tag k="addr:state" v="VT"/>
    <tag k="ref:vcgi:esiteid" v="178603"/>
  </node>
  <node id="-661" visible="true" lat="44.91011955" lon="-72.30766735">
    <tag k="addr:housenumber" v="863"/>
    <tag k="addr:street" v="Poginy Hill Road"/>
    <tag k="addr:state" v="VT"/>
    <tag k="ref:vcgi:esiteid" v="178604"/>
  </node>
  <node id="-662" visible="true" lat="44.91017557" lon="-72.31822636">
    <tag k="addr:housenumber" v="768"/>
    <tag k="addr:street" v="Collins Mill Road"/>
    <tag k="addr:state" v="VT"/>
    <tag k="ref:vcgi:esiteid" v="178605"/>
  </node>
  <node id="-663" visible="true" lat="44.90827106" lon="-72.31588965">
    <tag k="addr:housenumber" v="793"/>
    <tag k="addr:street" v="Collins Mill Road"/>
    <tag k="addr:state" v="VT"/>
    <tag k="ref:vcgi:esiteid" v="178606"/>
  </node>
  <node id="-664" visible="true" lat="44.90834808" lon="-72.33810424">
    <tag k="addr:housenumber" v="529"/>
    <tag k="addr:street" v="Tetreault Road"/>
    <tag k="addr:state" v="VT"/>
    <tag k="ref:vcgi:esiteid" v="178607"/>
  </node>
  <node id="-665" visible="true" lat="44.90810706" lon="-72.31992772">
    <tag k="addr:housenumber" v="896"/>
    <tag k="addr:street" v="Collins Mill Road"/>
    <tag k="addr:state" v="VT"/>
    <tag k="ref:vcgi:esiteid" v="178608"/>
  </node>
  <node id="-666" visible="true" lat="44.90778111" lon="-72.33953208">
    <tag k="addr:housenumber" v="611"/>
    <tag k="addr:street" v="Tetreault Road"/>
    <tag k="addr:state" v="VT"/>
    <tag k="ref:vcgi:esiteid" v="178609"/>
  </node>
  <node id="-667" visible="true" lat="44.90756183" lon="-72.31920483">
    <tag k="addr:housenumber" v="945"/>
    <tag k="addr:street" v="Collins Mill Road"/>
    <tag k="addr:state" v="VT"/>
    <tag k="ref:vcgi:esiteid" v="178610"/>
  </node>
  <node id="-668" visible="true" lat="44.90746688" lon="-72.30854034">
    <tag k="addr:housenumber" v="5"/>
    <tag k="addr:street" v="Logan Road"/>
    <tag k="addr:state" v="VT"/>
    <tag k="ref:vcgi:esiteid" v="178611"/>
  </node>
  <node id="-669" visible="true" lat="44.90741794" lon="-72.31979544">
    <tag k="addr:housenumber" v="968"/>
    <tag k="addr:street" v="Collins Mill Road"/>
    <tag k="addr:state" v="VT"/>
    <tag k="ref:vcgi:esiteid" v="178612"/>
  </node>
  <node id="-670" visible="true" lat="44.90688945" lon="-72.32038001">
    <tag k="addr:housenumber" v="992"/>
    <tag k="addr:street" v="Collins Mill Road"/>
    <tag k="addr:state" v="VT"/>
    <tag k="ref:vcgi:esiteid" v="178613"/>
  </node>
  <node id="-671" visible="true" lat="44.9069027" lon="-72.34095964">
    <tag k="addr:housenumber" v="704"/>
    <tag k="addr:street" v="Tetreault Road"/>
    <tag k="addr:state" v="VT"/>
    <tag k="ref:vcgi:esiteid" v="178614"/>
  </node>
  <node id="-672" visible="true" lat="44.90635212" lon="-72.30980636">
    <tag k="addr:housenumber" v="1162"/>
    <tag k="addr:street" v="Poginy Hill Road"/>
    <tag k="addr:state" v="VT"/>
    <tag k="ref:vcgi:esiteid" v="178615"/>
  </node>
  <node id="-673" visible="true" lat="44.90613147" lon="-72.31994489">
    <tag k="addr:housenumber" v="1029"/>
    <tag k="addr:street" v="Collins Mill Road"/>
    <tag k="addr:state" v="VT"/>
    <tag k="ref:vcgi:esiteid" v="178616"/>
  </node>
  <node id="-674" visible="true" lat="44.9058494" lon="-72.32140052">
    <tag k="addr:housenumber" v="1096"/>
    <tag k="addr:street" v="Collins Mill Road"/>
    <tag k="addr:state" v="VT"/>
    <tag k="ref:vcgi:esiteid" v="178617"/>
  </node>
  <node id="-675" visible="true" lat="44.90551376" lon="-72.34074401">
    <tag k="addr:housenumber" v="785"/>
    <tag k="addr:street" v="Tetreault Road"/>
    <tag k="addr:state" v="VT"/>
    <tag k="ref:vcgi:esiteid" v="178618"/>
  </node>
  <node id="-676" visible="true" lat="44.9048527" lon="-72.32104143">
    <tag k="addr:housenumber" v="1129"/>
    <tag k="addr:street" v="Collins Mill Road"/>
    <tag k="addr:state" v="VT"/>
    <tag k="ref:vcgi:esiteid" v="178619"/>
  </node>
  <node id="-677" visible="true" lat="44.90438481" lon="-72.32160931">
    <tag k="addr:housenumber" v="1191"/>
    <tag k="addr:street" v="Collins Mill Road"/>
    <tag k="addr:state" v="VT"/>
    <tag k="ref:vcgi:esiteid" v="178620"/>
  </node>
  <node id="-678" visible="true" lat="44.90342787" lon="-72.32250833">
    <tag k="addr:housenumber" v="1307"/>
    <tag k="addr:street" v="Collins Mill Road"/>
    <tag k="addr:state" v="VT"/>
    <tag k="ref:vcgi:esiteid" v="178621"/>
  </node>
  <node id="-679" visible="true" lat="44.90184682" lon="-72.34261389">
    <tag k="addr:housenumber" v="1051"/>
    <tag k="addr:street" v="Tetreault Road"/>
    <tag k="addr:state" v="VT"/>
    <tag k="ref:vcgi:esiteid" v="178622"/>
  </node>
  <node id="-680" visible="true" lat="44.90178508" lon="-72.34213022">
    <tag k="addr:housenumber" v="1047"/>
    <tag k="addr:street" v="Tetreault Road"/>
    <tag k="addr:state" v="VT"/>
    <tag k="ref:vcgi:esiteid" v="178623"/>
  </node>
  <node id="-681" visible="true" lat="44.90031604" lon="-72.34552628">
    <tag k="addr:housenumber" v="1214"/>
    <tag k="addr:street" v="Tetreault Road"/>
    <tag k="addr:state" v="VT"/>
    <tag k="ref:vcgi:esiteid" v="178624"/>
  </node>
  <node id="-682" visible="true" lat="44.89977352" lon="-72.32642601">
    <tag k="addr:housenumber" v="1588"/>
    <tag k="addr:street" v="Collins Mill Road"/>
    <tag k="addr:state" v="VT"/>
    <tag k="ref:vcgi:esiteid" v="178625"/>
  </node>
  <node id="-683" visible="true" lat="44.89938577" lon="-72.32713781">
    <tag k="addr:housenumber" v="1620"/>
    <tag k="addr:street" v="Collins Mill Road"/>
    <tag k="addr:state" v="VT"/>
    <tag k="ref:vcgi:esiteid" v="178626"/>
  </node>
  <node id="-684" visible="true" lat="44.89917015" lon="-72.34656194">
    <tag k="addr:housenumber" v="1316"/>
    <tag k="addr:street" v="Tetreault Road"/>
    <tag k="addr:state" v="VT"/>
    <tag k="ref:vcgi:esiteid" v="178627"/>
  </node>
  <node id="-685" visible="true" lat="44.8980904" lon="-72.3269136">
    <tag k="addr:housenumber" v="1711"/>
    <tag k="addr:street" v="Collins Mill Road"/>
    <tag k="addr:state" v="VT"/>
    <tag k="ref:vcgi:esiteid" v="178628"/>
  </node>
  <node id="-686" visible="true" lat="44.89788851" lon="-72.32750346">
    <tag k="addr:housenumber" v="1717"/>
    <tag k="addr:street" v="Collins Mill Road"/>
    <tag k="addr:state" v="VT"/>
    <tag k="ref:vcgi:esiteid" v="178629"/>
  </node>
  <node id="-687" visible="true" lat="44.89765548" lon="-72.31401825">
    <tag k="addr:housenumber" v="1803"/>
    <tag k="addr:street" v="Poginy Hill Road"/>
    <tag k="addr:state" v="VT"/>
    <tag k="ref:vcgi:esiteid" v="178630"/>
  </node>
  <node id="-688" visible="true" lat="44.89735725" lon="-72.32913321">
    <tag k="addr:housenumber" v="1796"/>
    <tag k="addr:street" v="Collins Mill Road"/>
    <tag k="addr:state" v="VT"/>
    <tag k="ref:vcgi:esiteid" v="178631"/>
  </node>
  <node id="-689" visible="true" lat="44.89714967" lon="-72.34574148">
    <tag k="addr:housenumber" v="1459"/>
    <tag k="addr:street" v="Tetreault Road"/>
    <tag k="addr:state" v="VT"/>
    <tag k="ref:vcgi:esiteid" v="178632"/>
  </node>
  <node id="-690" visible="true" lat="44.89651541" lon="-72.32975533">
    <tag k="addr:housenumber" v="1878"/>
    <tag k="addr:street" v="Collins Mill Road"/>
    <tag k="addr:state" v="VT"/>
    <tag k="ref:vcgi:esiteid" v="178633"/>
  </node>
  <node id="-691" visible="true" lat="44.89613059" lon="-72.32895737">
    <tag k="addr:housenumber" v="1865"/>
    <tag k="addr:street" v="Collins Mill Road"/>
    <tag k="addr:state" v="VT"/>
    <tag k="ref:vcgi:esiteid" v="178634"/>
  </node>
  <node id="-692" visible="true" lat="44.89517567" lon="-72.35110508">
    <tag k="addr:housenumber" v="900"/>
    <tag k="addr:street" v="Kittredge Road"/>
    <tag k="addr:state" v="VT"/>
    <tag k="ref:vcgi:esiteid" v="178635"/>
  </node>
  <node id="-693" visible="true" lat="44.8950386" lon="-72.35041809">
    <tag k="addr:housenumber" v="881"/>
    <tag k="addr:street" v="Kittredge Road"/>
    <tag k="addr:state" v="VT"/>
    <tag k="ref:vcgi:esiteid" v="178636"/>
  </node>
  <node id="-694" visible="true" lat="44.89470594" lon="-72.34888116">
    <tag k="addr:housenumber" v="813"/>
    <tag k="addr:street" v="Kittredge Road"/>
    <tag k="addr:state" v="VT"/>
    <tag k="ref:vcgi:esiteid" v="178637"/>
  </node>
  <node id="-695" visible="true" lat="44.89439356" lon="-72.33058082">
    <tag k="addr:housenumber" v="2007"/>
    <tag k="addr:street" v="Collins Mill Road"/>
    <tag k="addr:state" v="VT"/>
    <tag k="ref:vcgi:esiteid" v="178638"/>
  </node>
  <node id="-696" visible="true" lat="44.8932339" lon="-72.33180117">
    <tag k="addr:housenumber" v="2089"/>
    <tag k="addr:street" v="Collins Mill Road"/>
    <tag k="addr:state" v="VT"/>
    <tag k="ref:vcgi:esiteid" v="178639"/>
  </node>
  <node id="-697" visible="true" lat="44.89235145" lon="-72.35088616">
    <tag k="addr:housenumber" v="869"/>
    <tag k="addr:street" v="Kittredge Road"/>
    <tag k="addr:state" v="VT"/>
    <tag k="ref:vcgi:esiteid" v="178640"/>
  </node>
  <node id="-698" visible="true" lat="44.89244747" lon="-72.3438546">
    <tag k="addr:housenumber" v="512"/>
    <tag k="addr:street" v="Kittredge Road"/>
    <tag k="addr:state" v="VT"/>
    <tag k="ref:vcgi:esiteid" v="178641"/>
  </node>
  <node id="-699" visible="true" lat="44.89133725" lon="-72.33607707">
    <tag k="addr:housenumber" v="2342"/>
    <tag k="addr:street" v="Collins Mill Road"/>
    <tag k="addr:state" v="VT"/>
    <tag k="ref:vcgi:esiteid" v="178642"/>
  </node>
  <node id="-700" visible="true" lat="44.89113616" lon="-72.34490966">
    <tag k="addr:housenumber" v="475"/>
    <tag k="addr:street" v="Kittredge Road"/>
    <tag k="addr:state" v="VT"/>
    <tag k="ref:vcgi:esiteid" v="178643"/>
  </node>
  <node id="-701" visible="true" lat="44.89081191" lon="-72.3473587">
    <tag k="addr:housenumber" v="867"/>
    <tag k="addr:street" v="Kittredge Road"/>
    <tag k="addr:state" v="VT"/>
    <tag k="ref:vcgi:esiteid" v="178644"/>
  </node>
  <node id="-702" visible="true" lat="44.89014209" lon="-72.34170637">
    <tag k="addr:housenumber" v="330"/>
    <tag k="addr:street" v="Kittredge Road"/>
    <tag k="addr:state" v="VT"/>
    <tag k="ref:vcgi:esiteid" v="178645"/>
  </node>
  <node id="-703" visible="true" lat="44.88624352" lon="-72.33682757">
    <tag k="addr:housenumber" v="2711"/>
    <tag k="addr:street" v="Collins Mill Road"/>
    <tag k="addr:state" v="VT"/>
    <tag k="ref:vcgi:esiteid" v="178646"/>
  </node>
  <node id="-704" visible="true" lat="44.88477704" lon="-72.33684058">
    <tag k="addr:housenumber" v="2806"/>
    <tag k="addr:street" v="Collins Mill Road"/>
    <tag k="addr:state" v="VT"/>
    <tag k="ref:vcgi:esiteid" v="178647"/>
  </node>
  <node id="-705" visible="true" lat="44.88323645" lon="-72.33581233">
    <tag k="addr:housenumber" v="2921"/>
    <tag k="addr:street" v="Collins Mill Road"/>
    <tag k="addr:state" v="VT"/>
    <tag k="ref:vcgi:esiteid" v="178648"/>
  </node>
  <node id="-706" visible="true" lat="44.88243669" lon="-72.34644408">
    <tag k="addr:housenumber" v="510"/>
    <tag k="addr:street" v="Wright Road"/>
    <tag k="addr:state" v="VT"/>
    <tag k="ref:vcgi:esiteid" v="178649"/>
  </node>
  <node id="-707" visible="true" lat="44.88210698" lon="-72.34653628">
    <tag k="addr:housenumber" v="511"/>
    <tag k="addr:street" v="Wright Road"/>
    <tag k="addr:state" v="VT"/>
    <tag k="ref:vcgi:esiteid" v="178650"/>
  </node>
  <node id="-708" visible="true" lat="44.8819086" lon="-72.32442715">
    <tag k="addr:housenumber" v="1002"/>
    <tag k="addr:street" v="Clark Mountain Road"/>
    <tag k="addr:state" v="VT"/>
    <tag k="ref:vcgi:esiteid" v="178651"/>
  </node>
  <node id="-709" visible="true" lat="44.88119767" lon="-72.32480063">
    <tag k="addr:housenumber" v="960"/>
    <tag k="addr:street" v="Clark Mountain Road"/>
    <tag k="addr:state" v="VT"/>
    <tag k="ref:vcgi:esiteid" v="178652"/>
  </node>
  <node id="-710" visible="true" lat="44.87950375" lon="-72.36186805">
    <tag k="addr:housenumber" v="320"/>
    <tag k="addr:street" v="Hunters Trace"/>
    <tag k="addr:state" v="VT"/>
    <tag k="ref:vcgi:esiteid" v="178653"/>
  </node>
  <node id="-711" visible="true" lat="44.87790008" lon="-72.36175022">
    <tag k="addr:housenumber" v="236"/>
    <tag k="addr:street" v="Hunters Trace"/>
    <tag k="addr:state" v="VT"/>
    <tag k="ref:vcgi:esiteid" v="178654"/>
  </node>
  <node id="-712" visible="true" lat="44.87776112" lon="-72.32691381">
    <tag k="addr:housenumber" v="686"/>
    <tag k="addr:street" v="Clark Mountain Road"/>
    <tag k="addr:state" v="VT"/>
    <tag k="ref:vcgi:esiteid" v="178655"/>
  </node>
  <node id="-713" visible="true" lat="44.87536239" lon="-72.35459899">
    <tag k="addr:housenumber" v="4252"/>
    <tag k="addr:street" v="Collins Mill Road"/>
    <tag k="addr:state" v="VT"/>
    <tag k="ref:vcgi:esiteid" v="178656"/>
  </node>
  <node id="-714" visible="true" lat="44.87547385" lon="-72.35922602">
    <tag k="addr:housenumber" v="4460"/>
    <tag k="addr:street" v="Collins Mill Road"/>
    <tag k="addr:state" v="VT"/>
    <tag k="ref:vcgi:esiteid" v="178657"/>
  </node>
  <node id="-715" visible="true" lat="44.87527084" lon="-72.35018157">
    <tag k="addr:housenumber" v="4002"/>
    <tag k="addr:street" v="Collins Mill Road"/>
    <tag k="addr:state" v="VT"/>
    <tag k="ref:vcgi:esiteid" v="178658"/>
  </node>
  <node id="-716" visible="true" lat="44.87547984" lon="-72.36142098">
    <tag k="addr:housenumber" v="4566"/>
    <tag k="addr:street" v="Collins Mill Road"/>
    <tag k="addr:state" v="VT"/>
    <tag k="ref:vcgi:esiteid" v="178659"/>
  </node>
  <node id="-717" visible="true" lat="44.87520687" lon="-72.35734075">
    <tag k="addr:housenumber" v="4364"/>
    <tag k="addr:street" v="Collins Mill Road"/>
    <tag k="addr:state" v="VT"/>
    <tag k="ref:vcgi:esiteid" v="178660"/>
  </node>
  <node id="-718" visible="true" lat="44.87515732" lon="-72.35322099">
    <tag k="addr:housenumber" v="4142"/>
    <tag k="addr:street" v="Collins Mill Road"/>
    <tag k="addr:state" v="VT"/>
    <tag k="ref:vcgi:esiteid" v="178661"/>
  </node>
  <node id="-719" visible="true" lat="44.87492769" lon="-72.35112993">
    <tag k="addr:housenumber" v="4051"/>
    <tag k="addr:street" v="Collins Mill Road"/>
    <tag k="addr:state" v="VT"/>
    <tag k="ref:vcgi:esiteid" v="178662"/>
  </node>
  <node id="-720" visible="true" lat="44.87462604" lon="-72.34945458">
    <tag k="addr:housenumber" v="4001"/>
    <tag k="addr:street" v="Collins Mill Road"/>
    <tag k="addr:state" v="VT"/>
    <tag k="ref:vcgi:esiteid" v="178663"/>
  </node>
  <node id="-721" visible="true" lat="44.87449645" lon="-72.34790802">
    <tag k="addr:housenumber" v="3903"/>
    <tag k="addr:street" v="Collins Mill Road"/>
    <tag k="addr:state" v="VT"/>
    <tag k="ref:vcgi:esiteid" v="178664"/>
  </node>
  <node id="-722" visible="true" lat="44.87430885" lon="-72.35312781">
    <tag k="addr:housenumber" v="4171"/>
    <tag k="addr:street" v="Collins Mill Road"/>
    <tag k="addr:state" v="VT"/>
    <tag k="ref:vcgi:esiteid" v="178665"/>
  </node>
  <node id="-723" visible="true" lat="44.87122344" lon="-72.34977722">
    <tag k="addr:housenumber" v="616"/>
    <tag k="addr:street" v="Bonin Road"/>
    <tag k="addr:state" v="VT"/>
    <tag k="ref:vcgi:esiteid" v="178666"/>
  </node>
  <node id="-724" visible="true" lat="44.86997605" lon="-72.34821502">
    <tag k="addr:housenumber" v="598"/>
    <tag k="addr:street" v="Bonin Road"/>
    <tag k="addr:state" v="VT"/>
    <tag k="ref:vcgi:esiteid" v="178667"/>
  </node>
  <node id="-725" visible="true" lat="44.86938095" lon="-72.34895324">
    <tag k="addr:housenumber" v="614"/>
    <tag k="addr:street" v="Bonin Road"/>
    <tag k="addr:state" v="VT"/>
    <tag k="ref:vcgi:esiteid" v="178668"/>
  </node>
  <node id="-726" visible="true" lat="44.86773845" lon="-72.34955598">
    <tag k="addr:housenumber" v="698"/>
    <tag k="addr:street" v="Bonin Road"/>
    <tag k="addr:state" v="VT"/>
    <tag k="ref:vcgi:esiteid" v="178669"/>
  </node>
  <node id="-727" visible="true" lat="44.86710739" lon="-72.35144805">
    <tag k="addr:housenumber" v="794"/>
    <tag k="addr:street" v="Bonin Road"/>
    <tag k="addr:state" v="VT"/>
    <tag k="ref:vcgi:esiteid" v="178670"/>
  </node>
  <node id="-728" visible="true" lat="44.86620712" lon="-72.34377288">
    <tag k="addr:housenumber" v="619"/>
    <tag k="addr:street" v="Bonin Road"/>
    <tag k="addr:state" v="VT"/>
    <tag k="ref:vcgi:esiteid" v="178671"/>
  </node>
  <node id="-729" visible="true" lat="44.86243057" lon="-72.35514068">
    <tag k="addr:housenumber" v="1151"/>
    <tag k="addr:street" v="Bonin Road"/>
    <tag k="addr:state" v="VT"/>
    <tag k="ref:vcgi:esiteid" v="178672"/>
  </node>
  <node id="-730" visible="true" lat="44.86415626" lon="-72.36224672">
    <tag k="addr:housenumber" v="1322"/>
    <tag k="addr:street" v="Bonin Road"/>
    <tag k="addr:state" v="VT"/>
    <tag k="ref:vcgi:esiteid" v="178673"/>
  </node>
  <node id="-731" visible="true" lat="44.9898168" lon="-72.24585289">
    <tag k="addr:housenumber" v="5124"/>
    <tag k="addr:street" v="Lake Road"/>
    <tag k="addr:state" v="VT"/>
    <tag k="ref:vcgi:esiteid" v="178674"/>
  </node>
  <node id="-732" visible="true" lat="44.99117367" lon="-72.2494315">
    <tag k="addr:housenumber" v="5357"/>
    <tag k="addr:street" v="Lake Road"/>
    <tag k="addr:state" v="VT"/>
    <tag k="ref:vcgi:esiteid" v="178675"/>
  </node>
  <node id="-733" visible="true" lat="44.99558195" lon="-72.252999">
    <tag k="addr:housenumber" v="5701"/>
    <tag k="addr:street" v="Lake Road"/>
    <tag k="addr:state" v="VT"/>
    <tag k="ref:vcgi:esiteid" v="178676"/>
  </node>
  <node id="-734" visible="true" lat="44.99727706" lon="-72.2500781">
    <tag k="addr:housenumber" v="5706"/>
    <tag k="addr:street" v="Lake Road"/>
    <tag k="addr:state" v="VT"/>
    <tag k="ref:vcgi:esiteid" v="178677"/>
  </node>
  <node id="-735" visible="true" lat="44.99671043" lon="-72.25331416">
    <tag k="addr:housenumber" v="5771"/>
    <tag k="addr:street" v="Lake Road"/>
    <tag k="addr:state" v="VT"/>
    <tag k="ref:vcgi:esiteid" v="178678"/>
  </node>
  <node id="-736" visible="true" lat="44.9988203" lon="-72.25154558">
    <tag k="addr:housenumber" v="5794"/>
    <tag k="addr:street" v="Lake Road"/>
    <tag k="addr:state" v="VT"/>
    <tag k="ref:vcgi:esiteid" v="178679"/>
  </node>
  <node id="-737" visible="true" lat="44.99895477" lon="-72.25229644">
    <tag k="addr:housenumber" v="5796"/>
    <tag k="addr:street" v="Lake Road"/>
    <tag k="addr:state" v="VT"/>
    <tag k="ref:vcgi:esiteid" v="178680"/>
  </node>
  <node id="-738" visible="true" lat="44.97679138" lon="-72.2964096">
    <tag k="addr:housenumber" v="1462"/>
    <tag k="addr:street" v="Buzzell Road"/>
    <tag k="addr:state" v="VT"/>
    <tag k="ref:vcgi:esiteid" v="178681"/>
  </node>
  <node id="-743" visible="true" lat="44.93187332" lon="-72.28855895">
    <tag k="addr:housenumber" v="2578"/>
    <tag k="addr:street" v="Vermont Route 105"/>
    <tag k="addr:state" v="VT"/>
    <tag k="ref:vcgi:esiteid" v="178687"/>
  </node>
  <node id="-744" visible="true" lat="44.93204117" lon="-72.24529266">
    <tag k="addr:housenumber" v="98"/>
    <tag k="addr:street" v="Lane Road"/>
    <tag k="addr:state" v="VT"/>
    <tag k="ref:vcgi:esiteid" v="178688"/>
  </node>
  <node id="-745" visible="true" lat="44.93162155" lon="-72.24491119">
    <tag k="addr:housenumber" v="123"/>
    <tag k="addr:street" v="Lane Road"/>
    <tag k="addr:state" v="VT"/>
    <tag k="ref:vcgi:esiteid" v="178689"/>
  </node>
  <node id="-746" visible="true" lat="44.918791" lon="-72.29230431">
    <tag k="addr:housenumber" v="945"/>
    <tag k="addr:street" v="Vermont Route 100"/>
    <tag k="addr:state" v="VT"/>
    <tag k="ref:vcgi:esiteid" v="178690"/>
  </node>
  <node id="-747" visible="true" lat="44.9185048" lon="-72.29177616">
    <tag k="addr:housenumber" v="921"/>
    <tag k="addr:street" v="Vermont Route 100"/>
    <tag k="addr:state" v="VT"/>
    <tag k="ref:vcgi:esiteid" v="178691"/>
  </node>
  <node id="-748" visible="true" lat="44.91830048" lon="-72.29111391">
    <tag k="addr:housenumber" v="881"/>
    <tag k="addr:street" v="Vermont Route 100"/>
    <tag k="addr:state" v="VT"/>
    <tag k="ref:vcgi:esiteid" v="178692"/>
  </node>
  <node id="-749" visible="true" lat="44.91668488" lon="-72.28762739">
    <tag k="addr:housenumber" v="5173"/>
    <tag k="addr:street" v="Vermont Route 14"/>
    <tag k="addr:state" v="VT"/>
    <tag k="ref:vcgi:esiteid" v="178693"/>
  </node>
  <node id="-750" visible="true" lat="44.91637019" lon="-72.28705514">
    <tag k="addr:housenumber" v="5139"/>
    <tag k="addr:street" v="Vermont Route 14"/>
    <tag k="addr:state" v="VT"/>
    <tag k="ref:vcgi:esiteid" v="178694"/>
  </node>
  <node id="-751" visible="true" lat="44.91570015" lon="-72.28611903">
    <tag k="addr:housenumber" v="5077"/>
    <tag k="addr:street" v="Vermont Route 14"/>
    <tag k="addr:state" v="VT"/>
    <tag k="ref:vcgi:esiteid" v="178695"/>
  </node>
  <node id="-752" visible="true" lat="44.91464928" lon="-72.28749434">
    <tag k="addr:housenumber" v="5109"/>
    <tag k="addr:street" v="Vermont Route 14"/>
    <tag k="addr:state" v="VT"/>
    <tag k="ref:vcgi:esiteid" v="178696"/>
  </node>
  <node id="-753" visible="true" lat="44.91536789" lon="-72.28302548">
    <tag k="addr:housenumber" v="4924"/>
    <tag k="addr:street" v="Vermont Route 14"/>
    <tag k="addr:state" v="VT"/>
    <tag k="ref:vcgi:esiteid" v="178697"/>
  </node>
  <node id="-754" visible="true" lat="44.91465458" lon="-72.2806773">
    <tag k="addr:housenumber" v="4798"/>
    <tag k="addr:street" v="Vermont Route 14"/>
    <tag k="addr:state" v="VT"/>
    <tag k="ref:vcgi:esiteid" v="178698"/>
  </node>
  <node id="-755" visible="true" lat="44.91707443" lon="-72.2918239">
    <tag k="addr:housenumber" v="835"/>
    <tag k="addr:street" v="Vermont Route 100"/>
    <tag k="addr:state" v="VT"/>
    <tag k="ref:vcgi:esiteid" v="178699"/>
  </node>
  <node id="-756" visible="true" lat="44.90623324" lon="-72.32080543">
    <tag k="addr:housenumber" v="1050"/>
    <tag k="addr:street" v="Collins Mill Road"/>
    <tag k="addr:state" v="VT"/>
    <tag k="ref:vcgi:esiteid" v="178700"/>
  </node>
  <node id="-757" visible="true" lat="44.90368941" lon="-72.3122756">
    <tag k="addr:housenumber" v="1372"/>
    <tag k="addr:street" v="Poginy Hill Road"/>
    <tag k="addr:state" v="VT"/>
    <tag k="ref:vcgi:esiteid" v="178701"/>
  </node>
  <node id="-758" visible="true" lat="44.91114044" lon="-72.30828857">
    <tag k="addr:housenumber" v="826"/>
    <tag k="addr:street" v="Poginy Hill Road"/>
    <tag k="addr:state" v="VT"/>
    <tag k="ref:vcgi:esiteid" v="178702"/>
  </node>
  <node id="-759" visible="true" lat="44.91715382" lon="-72.32080329">
    <tag k="addr:housenumber" v="2417"/>
    <tag k="addr:street" v="Vermont Route 100"/>
    <tag k="addr:state" v="VT"/>
    <tag k="ref:vcgi:esiteid" v="178703"/>
  </node>
  <node id="-760" visible="true" lat="44.90039939" lon="-72.34234207">
    <tag k="addr:housenumber" v="91"/>
    <tag k="addr:street" v="Maple Ridge Drive"/>
    <tag k="addr:state" v="VT"/>
    <tag k="ref:vcgi:esiteid" v="178704"/>
  </node>
  <node id="-761" visible="true" lat="44.90003967" lon="-72.34452056">
    <tag k="addr:housenumber" v="13"/>
    <tag k="addr:street" v="Maple Ridge Drive"/>
    <tag k="addr:state" v="VT"/>
    <tag k="ref:vcgi:esiteid" v="178705"/>
  </node>
  <node id="-762" visible="true" lat="44.89864362" lon="-72.34385828">
    <tag k="addr:housenumber" v="90"/>
    <tag k="addr:street" v="Maple Ridge Drive"/>
    <tag k="addr:state" v="VT"/>
    <tag k="ref:vcgi:esiteid" v="178706"/>
  </node>
  <node id="-763" visible="true" lat="44.89510573" lon="-72.32983179">
    <tag k="addr:housenumber" v="1939"/>
    <tag k="addr:street" v="Collins Mill Road"/>
    <tag k="addr:state" v="VT"/>
    <tag k="ref:vcgi:esiteid" v="178707"/>
  </node>
  <node id="-764" visible="true" lat="44.89381981" lon="-72.33046285">
    <tag k="addr:housenumber" v="2037"/>
    <tag k="addr:street" v="Collins Mill Road"/>
    <tag k="addr:state" v="VT"/>
    <tag k="ref:vcgi:esiteid" v="178708"/>
  </node>
  <node id="-765" visible="true" lat="44.87986258" lon="-72.33376386">
    <tag k="addr:housenumber" v="145"/>
    <tag k="addr:street" v="Clark Mountain Road"/>
    <tag k="addr:state" v="VT"/>
    <tag k="ref:vcgi:esiteid" v="178709"/>
  </node>
  <node id="-766" visible="true" lat="44.94800762" lon="-72.3087381">
    <tag k="addr:housenumber" v="264"/>
    <tag k="addr:street" v="Cross Road"/>
    <tag k="addr:state" v="VT"/>
    <tag k="ref:vcgi:esiteid" v="178710"/>
  </node>
  <node id="-767" visible="true" lat="44.94793558" lon="-72.30820993">
    <tag k="addr:housenumber" v="261"/>
    <tag k="addr:street" v="Cross Road"/>
    <tag k="addr:state" v="VT"/>
    <tag k="ref:vcgi:esiteid" v="178711"/>
  </node>
  <node id="-768" visible="true" lat="44.94768209" lon="-72.3090214">
    <tag k="addr:housenumber" v="288"/>
    <tag k="addr:street" v="Cross Road"/>
    <tag k="addr:state" v="VT"/>
    <tag k="ref:vcgi:esiteid" v="178712"/>
  </node>
  <node id="-770" visible="true" lat="44.95932152" lon="-72.23959396">
    <tag k="addr:housenumber" v="284"/>
    <tag k="addr:street" v="Lake View Drive"/>
    <tag k="addr:state" v="VT"/>
    <tag k="ref:vcgi:esiteid" v="178714"/>
  </node>
  <node id="-771" visible="true" lat="44.95734243" lon="-72.24162465">
    <tag k="addr:housenumber" v="139"/>
    <tag k="addr:street" v="Lake View Drive"/>
    <tag k="addr:state" v="VT"/>
    <tag k="ref:vcgi:esiteid" v="178715"/>
  </node>
  <node id="-772" visible="true" lat="44.97540232" lon="-72.24241642">
    <tag k="addr:housenumber" v="4108"/>
    <tag k="addr:street" v="Lake Road"/>
    <tag k="addr:state" v="VT"/>
    <tag k="ref:vcgi:esiteid" v="178716"/>
  </node>
  <node id="-773" visible="true" lat="44.95870308" lon="-72.23535796">
    <tag k="addr:housenumber" v="224"/>
    <tag k="addr:street" v="Miller Way"/>
    <tag k="addr:state" v="VT"/>
    <tag k="ref:vcgi:esiteid" v="178717"/>
  </node>
  <node id="-774" visible="true" lat="44.96060406" lon="-72.23478539">
    <tag k="addr:housenumber" v="284"/>
    <tag k="addr:street" v="Miller Way"/>
    <tag k="addr:state" v="VT"/>
    <tag k="ref:vcgi:esiteid" v="178718"/>
  </node>
  <node id="-775" visible="true" lat="44.99642475" lon="-72.32127177">
    <tag k="addr:housenumber" v="3731"/>
    <tag k="addr:street" v="Bear Mountain Road"/>
    <tag k="addr:state" v="VT"/>
    <tag k="ref:vcgi:esiteid" v="178719"/>
  </node>
  <node id="-776" visible="true" lat="44.97429677" lon="-72.2626614">
    <tag k="addr:housenumber" v="844"/>
    <tag k="addr:street" v="Leadville Road"/>
    <tag k="addr:state" v="VT"/>
    <tag k="ref:vcgi:esiteid" v="178720"/>
  </node>
  <node id="-777" visible="true" lat="44.98778533" lon="-72.26850128">
    <tag k="addr:housenumber" v="2028"/>
    <tag k="addr:street" v="Leadville Road"/>
    <tag k="addr:state" v="VT"/>
    <tag k="ref:vcgi:esiteid" v="178721"/>
  </node>
  <node id="-778" visible="true" lat="44.98624598" lon="-72.26765985">
    <tag k="addr:housenumber" v="1944"/>
    <tag k="addr:street" v="Leadville Road"/>
    <tag k="addr:state" v="VT"/>
    <tag k="ref:vcgi:esiteid" v="178722"/>
  </node>
  <node id="-779" visible="true" lat="44.98622894" lon="-72.26876068">
    <tag k="addr:housenumber" v="1941"/>
    <tag k="addr:street" v="Leadville Road"/>
    <tag k="addr:state" v="VT"/>
    <tag k="ref:vcgi:esiteid" v="178723"/>
  </node>
  <node id="-780" visible="true" lat="44.95500946" lon="-72.30953216">
    <tag k="addr:housenumber" v="4469"/>
    <tag k="addr:street" v="Vermont Route 105"/>
    <tag k="addr:state" v="VT"/>
    <tag k="ref:vcgi:esiteid" v="178724"/>
  </node>
  <node id="-781" visible="true" lat="44.96451695" lon="-72.25375045">
    <tag k="addr:housenumber" v="268"/>
    <tag k="addr:street" v="Morningside Drive"/>
    <tag k="addr:state" v="VT"/>
    <tag k="ref:vcgi:esiteid" v="178725"/>
  </node>
  <node id="-782" visible="true" lat="44.9316792" lon="-72.27379348">
    <tag k="addr:housenumber" v="1780"/>
    <tag k="addr:street" v="Vermont Route 105"/>
    <tag k="addr:state" v="VT"/>
    <tag k="ref:vcgi:esiteid" v="178726"/>
  </node>
  <node id="-783" visible="true" lat="44.9311354" lon="-72.27298316">
    <tag k="addr:housenumber" v="1735"/>
    <tag k="addr:street" v="Vermont Route 105"/>
    <tag k="addr:state" v="VT"/>
    <tag k="ref:vcgi:esiteid" v="178727"/>
  </node>
  <node id="-784" visible="true" lat="44.93166263" lon="-72.27430314">
    <tag k="addr:housenumber" v="1782"/>
    <tag k="addr:street" v="Vermont Route 105"/>
    <tag k="addr:state" v="VT"/>
    <tag k="ref:vcgi:esiteid" v="178728"/>
  </node>
  <node id="-785" visible="true" lat="44.93175044" lon="-72.28966817">
    <tag k="addr:housenumber" v="2577"/>
    <tag k="addr:street" v="Vermont Route 105"/>
    <tag k="addr:state" v="VT"/>
    <tag k="ref:vcgi:esiteid" v="178729"/>
  </node>
  <node id="-786" visible="true" lat="44.94033432" lon="-72.24263763">
    <tag k="addr:housenumber" v="213"/>
    <tag k="addr:street" v="Topper View Drive"/>
    <tag k="addr:state" v="VT"/>
    <tag k="ref:vcgi:esiteid" v="178730"/>
  </node>
  <node id="-787" visible="true" lat="44.91074388" lon="-72.31815418">
    <tag k="addr:housenumber" v="680"/>
    <tag k="addr:street" v="Collins Mill Road"/>
    <tag k="addr:state" v="VT"/>
    <tag k="ref:vcgi:esiteid" v="178731"/>
  </node>
  <node id="-788" visible="true" lat="44.91946777" lon="-72.28328242">
    <tag k="addr:housenumber" v="88"/>
    <tag k="addr:street" v="Farrell Pond Road"/>
    <tag k="addr:state" v="VT"/>
    <tag k="ref:vcgi:esiteid" v="178732"/>
  </node>
  <node id="-789" visible="true" lat="44.91949318" lon="-72.2817201">
    <tag k="addr:housenumber" v="90"/>
    <tag k="addr:street" v="Farrell Pond Road"/>
    <tag k="addr:state" v="VT"/>
    <tag k="ref:vcgi:esiteid" v="178733"/>
  </node>
  <node id="-790" visible="true" lat="44.98780059" lon="-72.24325561">
    <tag k="addr:housenumber" v="5006"/>
    <tag k="addr:street" v="Lake Road"/>
    <tag k="addr:state" v="VT"/>
    <tag k="ref:vcgi:esiteid" v="178734"/>
  </node>
  <node id="-791" visible="true" lat="44.98780559" lon="-72.2441107">
    <tag k="addr:housenumber" v="5004"/>
    <tag k="addr:street" v="Lake Road"/>
    <tag k="addr:state" v="VT"/>
    <tag k="ref:vcgi:esiteid" v="178735"/>
  </node>
  <node id="-792" visible="true" lat="44.99109778" lon="-72.24429927">
    <tag k="addr:housenumber" v="5220"/>
    <tag k="addr:street" v="Lake Road"/>
    <tag k="addr:state" v="VT"/>
    <tag k="ref:vcgi:esiteid" v="178736"/>
  </node>
  <node id="-793" visible="true" lat="44.96241733" lon="-72.23631348">
    <tag k="addr:housenumber" v="423"/>
    <tag k="addr:street" v="Miller Way"/>
    <tag k="addr:state" v="VT"/>
    <tag k="ref:vcgi:esiteid" v="178737"/>
  </node>
  <node id="-794" visible="true" lat="44.96205142" lon="-72.23532795">
    <tag k="addr:housenumber" v="424"/>
    <tag k="addr:street" v="Miller Way"/>
    <tag k="addr:state" v="VT"/>
    <tag k="ref:vcgi:esiteid" v="178738"/>
  </node>
  <node id="-796" visible="true" lat="44.96286773" lon="-72.24336242">
    <tag k="addr:housenumber" v="286"/>
    <tag k="addr:street" v="Holbrook Bay Commons"/>
    <tag k="addr:state" v="VT"/>
    <tag k="ref:vcgi:esiteid" v="178740"/>
  </node>
  <node id="-797" visible="true" lat="44.96012417" lon="-72.26342927">
    <tag k="addr:housenumber" v="38"/>
    <tag k="addr:street" v="Gage Road"/>
    <tag k="addr:state" v="VT"/>
    <tag k="ref:vcgi:esiteid" v="178741"/>
  </node>
  <node id="-798" visible="true" lat="44.96207764" lon="-72.25903397">
    <tag k="addr:housenumber" v="106"/>
    <tag k="addr:street" v="Overlook Drive"/>
    <tag k="addr:state" v="VT"/>
    <tag k="ref:vcgi:esiteid" v="178742"/>
  </node>
  <node id="-799" visible="true" lat="44.91459747" lon="-72.31755907">
    <tag k="addr:housenumber" v="446"/>
    <tag k="addr:street" v="Collins Mill Road"/>
    <tag k="addr:state" v="VT"/>
    <tag k="ref:vcgi:esiteid" v="178743"/>
  </node>
  <node id="-800" visible="true" lat="44.95248794" lon="-72.30796814">
    <tag k="addr:housenumber" v="4277"/>
    <tag k="addr:street" v="Vermont Route 105"/>
    <tag k="addr:state" v="VT"/>
    <tag k="ref:vcgi:esiteid" v="178744"/>
  </node>
  <node id="-801" visible="true" lat="44.89106106" lon="-72.34973089">
    <tag k="addr:housenumber" v="871"/>
    <tag k="addr:street" v="Kittredge Road"/>
    <tag k="addr:state" v="VT"/>
    <tag k="ref:vcgi:esiteid" v="178745"/>
  </node>
  <node id="-802" visible="true" lat="44.92918075" lon="-72.2834118">
    <tag k="addr:housenumber" v="2157"/>
    <tag k="addr:street" v="Vermont Route 105"/>
    <tag k="addr:state" v="VT"/>
    <tag k="ref:vcgi:esiteid" v="178746"/>
  </node>
  <node id="-803" visible="true" lat="44.95422001" lon="-72.34037875">
    <tag k="addr:housenumber" v="1669"/>
    <tag k="addr:street" v="Searles Road"/>
    <tag k="addr:state" v="VT"/>
    <tag k="ref:vcgi:esiteid" v="178747"/>
  </node>
  <node id="-804" visible="true" lat="44.87922782" lon="-72.32418331">
    <tag k="addr:housenumber" v="834"/>
    <tag k="addr:street" v="Clark Mountain Road"/>
    <tag k="addr:state" v="VT"/>
    <tag k="ref:vcgi:esiteid" v="178748"/>
  </node>
  <node id="-805" visible="true" lat="44.99147613" lon="-72.29078061">
    <tag k="addr:housenumber" v="2528"/>
    <tag k="addr:street" v="Buzzell Road"/>
    <tag k="addr:state" v="VT"/>
    <tag k="ref:vcgi:esiteid" v="178749"/>
  </node>
  <node id="-807" visible="true" lat="44.96378341" lon="-72.25747288">
    <tag k="addr:housenumber" v="191"/>
    <tag k="addr:street" v="Morningside Drive"/>
    <tag k="addr:state" v="VT"/>
    <tag k="ref:vcgi:esiteid" v="178751"/>
  </node>
  <node id="-808" visible="true" lat="44.8882506" lon="-72.35294125">
    <tag k="addr:housenumber" v="875"/>
    <tag k="addr:street" v="Kittredge Road"/>
    <tag k="addr:state" v="VT"/>
    <tag k="ref:vcgi:esiteid" v="178752"/>
  </node>
  <node id="-809" visible="true" lat="44.99894091" lon="-72.25812239">
    <tag k="addr:housenumber" v="170"/>
    <tag k="addr:street" v="Jeffries Road"/>
    <tag k="addr:state" v="VT"/>
    <tag k="ref:vcgi:esiteid" v="178753"/>
  </node>
  <node id="-810" visible="true" lat="44.97605772" lon="-72.32156106">
    <tag k="addr:housenumber" v="6024"/>
    <tag k="addr:street" v="Vermont Route 105"/>
    <tag k="addr:state" v="VT"/>
    <tag k="ref:vcgi:esiteid" v="178754"/>
  </node>
  <node id="-811" visible="true" lat="44.98411266" lon="-72.2925175">
    <tag k="addr:housenumber" v="2026"/>
    <tag k="addr:street" v="Buzzell Road"/>
    <tag k="addr:state" v="VT"/>
    <tag k="ref:vcgi:esiteid" v="178755"/>
  </node>
  <node id="-812" visible="true" lat="44.98382874" lon="-72.28305268">
    <tag k="addr:housenumber" v="2116"/>
    <tag k="addr:street" v="Armstrong Road"/>
    <tag k="addr:state" v="VT"/>
    <tag k="ref:vcgi:esiteid" v="178756"/>
  </node>
  <node id="-813" visible="true" lat="44.97205899" lon="-72.29922668">
    <tag k="addr:housenumber" v="1187"/>
    <tag k="addr:street" v="Buzzell Road"/>
    <tag k="addr:state" v="VT"/>
    <tag k="ref:vcgi:esiteid" v="178757"/>
  </node>
  <node id="-814" visible="true" lat="44.97061776" lon="-72.25881014">
    <tag k="addr:housenumber" v="639"/>
    <tag k="addr:street" v="Leadville Road"/>
    <tag k="addr:state" v="VT"/>
    <tag k="ref:vcgi:esiteid" v="178758"/>
  </node>
  <node id="-815" visible="true" lat="44.95318563" lon="-72.28221886">
    <tag k="addr:housenumber" v="1232"/>
    <tag k="addr:street" v="Vance Hill Road"/>
    <tag k="addr:state" v="VT"/>
    <tag k="ref:vcgi:esiteid" v="178759"/>
  </node>
  <node id="-816" visible="true" lat="44.9589588" lon="-72.2970242">
    <tag k="addr:housenumber" v="271"/>
    <tag k="addr:street" v="Armstrong Road"/>
    <tag k="addr:state" v="VT"/>
    <tag k="ref:vcgi:esiteid" v="178760"/>
  </node>
  <node id="-818" visible="true" lat="44.93301583" lon="-72.24253429">
    <tag k="addr:housenumber" v="32"/>
    <tag k="addr:street" v="Vermont Route 105"/>
    <tag k="addr:state" v="VT"/>
    <tag k="ref:vcgi:esiteid" v="178762"/>
  </node>
  <node id="-819" visible="true" lat="44.90297123" lon="-72.32808774">
    <tag k="addr:housenumber" v="1320"/>
    <tag k="addr:street" v="Collins Mill Road"/>
    <tag k="addr:state" v="VT"/>
    <tag k="ref:vcgi:esiteid" v="178763"/>
  </node>
  <node id="-820" visible="true" lat="44.89645819" lon="-72.32025041">
    <tag k="addr:housenumber" v="1457"/>
    <tag k="addr:street" v="Collins Mill Road"/>
    <tag k="addr:state" v="VT"/>
    <tag k="ref:vcgi:esiteid" v="178764"/>
  </node>
  <node id="-821" visible="true" lat="44.92040395" lon="-72.29176908">
    <tag k="addr:housenumber" v="988"/>
    <tag k="addr:street" v="Vermont Route 100"/>
    <tag k="addr:state" v="VT"/>
    <tag k="ref:vcgi:esiteid" v="178765"/>
  </node>
  <node id="-822" visible="true" lat="44.89551497" lon="-72.34886224">
    <tag k="addr:housenumber" v="1595"/>
    <tag k="addr:street" v="Tetreault Road"/>
    <tag k="addr:state" v="VT"/>
    <tag k="ref:vcgi:esiteid" v="178766"/>
  </node>
  <node id="-823" visible="true" lat="44.87731769" lon="-72.33629845">
    <tag k="addr:housenumber" v="3255"/>
    <tag k="addr:street" v="Collins Mill Road"/>
    <tag k="addr:state" v="VT"/>
    <tag k="ref:vcgi:esiteid" v="178767"/>
  </node>
  <node id="-824" visible="true" lat="44.95446365" lon="-72.23432218">
    <tag k="addr:housenumber" v="25"/>
    <tag k="addr:street" v="Fishing Access Road"/>
    <tag k="addr:state" v="VT"/>
    <tag k="ref:vcgi:esiteid" v="178768"/>
  </node>
  <node id="-825" visible="true" lat="44.97867287" lon="-72.33199494">
    <tag k="addr:housenumber" v="4980"/>
    <tag k="addr:street" v="Bear Mountain Road"/>
    <tag k="addr:state" v="VT"/>
    <tag k="ref:vcgi:esiteid" v="178769"/>
  </node>
  <node id="-826" visible="true" lat="44.96688249" lon="-72.25650237">
    <tag k="addr:housenumber" v="473"/>
    <tag k="addr:street" v="Morningside Drive"/>
    <tag k="addr:state" v="VT"/>
    <tag k="ref:vcgi:esiteid" v="178770"/>
  </node>
  <node id="-827" visible="true" lat="44.97731768" lon="-72.24002691">
    <tag k="addr:housenumber" v="271"/>
    <tag k="addr:street" v="Drown Drive"/>
    <tag k="addr:state" v="VT"/>
    <tag k="ref:vcgi:esiteid" v="178771"/>
  </node>
  <node id="-828" visible="true" lat="44.97837805" lon="-72.23970679">
    <tag k="addr:housenumber" v="203"/>
    <tag k="addr:street" v="Drown Drive"/>
    <tag k="addr:state" v="VT"/>
    <tag k="ref:vcgi:esiteid" v="178772"/>
  </node>
  <node id="-830" visible="true" lat="44.93243143" lon="-72.27392987">
    <tag k="addr:housenumber" v="1784"/>
    <tag k="addr:street" v="Vermont Route 105"/>
    <tag k="addr:state" v="VT"/>
    <tag k="ref:vcgi:esiteid" v="178774"/>
  </node>
  <node id="-831" visible="true" lat="44.91980451" lon="-72.28593611">
    <tag k="addr:housenumber" v="140"/>
    <tag k="addr:street" v="Buck Road"/>
    <tag k="addr:state" v="VT"/>
    <tag k="ref:vcgi:esiteid" v="178775"/>
  </node>
  <node id="-832" visible="true" lat="44.90554812" lon="-72.32154684">
    <tag k="addr:housenumber" v="1098"/>
    <tag k="addr:street" v="Collins Mill Road"/>
    <tag k="addr:state" v="VT"/>
    <tag k="ref:vcgi:esiteid" v="178776"/>
  </node>
  <node id="-833" visible="true" lat="44.9961517" lon="-72.27060738">
    <tag k="addr:housenumber" v="2674"/>
    <tag k="addr:street" v="Leadville Road"/>
    <tag k="addr:state" v="VT"/>
    <tag k="ref:vcgi:esiteid" v="178777"/>
  </node>
  <node id="-834" visible="true" lat="44.91970033" lon="-72.29593988">
    <tag k="addr:housenumber" v="1165"/>
    <tag k="addr:street" v="Vermont Route 100"/>
    <tag k="addr:state" v="VT"/>
    <tag k="ref:vcgi:esiteid" v="178778"/>
  </node>
  <node id="-838" visible="true" lat="44.93547193" lon="-72.2688022">
    <tag k="addr:housenumber" v="279"/>
    <tag k="addr:street" v="Browns Hill Road"/>
    <tag k="addr:state" v="VT"/>
    <tag k="ref:vcgi:esiteid" v="178782"/>
  </node>
  <node id="-840" visible="true" lat="44.89458437" lon="-72.32647442">
    <tag k="addr:housenumber" v="1909"/>
    <tag k="addr:street" v="Collins Mill Road"/>
    <tag k="addr:state" v="VT"/>
    <tag k="ref:vcgi:esiteid" v="178784"/>
  </node>
  <node id="-841" visible="true" lat="44.98296505" lon="-72.24058934">
    <tag k="addr:housenumber" v="165"/>
    <tag k="addr:street" v="Lakewood Drive"/>
    <tag k="addr:state" v="VT"/>
    <tag k="ref:vcgi:esiteid" v="178786"/>
  </node>
  <node id="-842" visible="true" lat="44.98425364" lon="-72.24032602">
    <tag k="addr:housenumber" v="44"/>
    <tag k="addr:street" v="North Lakewood Drive"/>
    <tag k="addr:state" v="VT"/>
    <tag k="ref:vcgi:esiteid" v="178787"/>
  </node>
  <node id="-846" visible="true" lat="44.91814297" lon="-72.28811504">
    <tag k="addr:housenumber" v="41"/>
    <tag k="addr:street" v="Markus Lane"/>
    <tag k="addr:state" v="VT"/>
    <tag k="ref:vcgi:esiteid" v="178791"/>
  </node>
  <node id="-847" visible="true" lat="44.91609473" lon="-72.29702751">
    <tag k="addr:housenumber" v="1167"/>
    <tag k="addr:street" v="Vermont Route 100"/>
    <tag k="addr:state" v="VT"/>
    <tag k="ref:vcgi:esiteid" v="178792"/>
  </node>
  <node id="-849" visible="true" lat="44.95081369" lon="-72.234255">
    <tag k="addr:housenumber" v="187"/>
    <tag k="addr:street" v="Strawberry Acres"/>
    <tag k="addr:state" v="VT"/>
    <tag k="ref:vcgi:esiteid" v="178794"/>
  </node>
  <node id="-850" visible="true" lat="44.94954206" lon="-72.30892026">
    <tag k="addr:housenumber" v="144"/>
    <tag k="addr:street" v="Cross Road"/>
    <tag k="addr:state" v="VT"/>
    <tag k="ref:vcgi:esiteid" v="178795"/>
  </node>
  <node id="-851" visible="true" lat="44.92381707" lon="-72.29969568">
    <tag k="addr:housenumber" v="1487"/>
    <tag k="addr:street" v="Niles Road"/>
    <tag k="addr:state" v="VT"/>
    <tag k="ref:vcgi:esiteid" v="178796"/>
  </node>
  <node id="-852" visible="true" lat="44.97718895" lon="-72.24020474">
    <tag k="addr:housenumber" v="281"/>
    <tag k="addr:street" v="Drown Drive"/>
    <tag k="addr:state" v="VT"/>
    <tag k="ref:vcgi:esiteid" v="178797"/>
  </node>
  <node id="-853" visible="true" lat="44.93644553" lon="-72.27165589">
    <tag k="addr:housenumber" v="455"/>
    <tag k="addr:street" v="Coburn Hill Road"/>
    <tag k="addr:state" v="VT"/>
    <tag k="ref:vcgi:esiteid" v="178798"/>
  </node>
  <node id="-855" visible="true" lat="44.97758413" lon="-72.31337397">
    <tag k="addr:housenumber" v="5796"/>
    <tag k="addr:street" v="Vermont Route 105"/>
    <tag k="addr:state" v="VT"/>
    <tag k="ref:vcgi:esiteid" v="178800"/>
  </node>
  <node id="-856" visible="true" lat="44.96063107" lon="-72.29330168">
    <tag k="addr:housenumber" v="384"/>
    <tag k="addr:street" v="Armstrong Road"/>
    <tag k="addr:state" v="VT"/>
    <tag k="ref:vcgi:esiteid" v="178801"/>
  </node>
  <node id="-857" visible="true" lat="44.94131353" lon="-72.24912857">
    <tag k="addr:housenumber" v="149"/>
    <tag k="addr:street" v="Deer Run Lane"/>
    <tag k="addr:state" v="VT"/>
    <tag k="ref:vcgi:esiteid" v="178802"/>
  </node>
  <node id="-858" visible="true" lat="44.91820472" lon="-72.28705762">
    <tag k="addr:housenumber" v="73"/>
    <tag k="addr:street" v="Markus Lane"/>
    <tag k="addr:state" v="VT"/>
    <tag k="ref:vcgi:esiteid" v="178803"/>
  </node>
  <node id="-861" visible="true" lat="44.95842126" lon="-72.26308172">
    <tag k="addr:housenumber" v="120"/>
    <tag k="addr:street" v="Gage Road"/>
    <tag k="addr:state" v="VT"/>
    <tag k="ref:vcgi:esiteid" v="178806"/>
  </node>
  <node id="-862" visible="true" lat="44.93221632" lon="-72.27387852">
    <tag k="addr:housenumber" v="1778"/>
    <tag k="addr:street" v="Vermont Route 105"/>
    <tag k="addr:state" v="VT"/>
    <tag k="ref:vcgi:esiteid" v="178807"/>
  </node>
  <node id="-863" visible="true" lat="44.94184668" lon="-72.28717074">
    <tag k="addr:housenumber" v="454"/>
    <tag k="addr:street" v="Potvin Road"/>
    <tag k="addr:state" v="VT"/>
    <tag k="ref:vcgi:esiteid" v="178808"/>
  </node>
  <node id="-864" visible="true" lat="44.94104834" lon="-72.28031859">
    <tag k="addr:housenumber" v="858"/>
    <tag k="addr:street" v="Potvin Road"/>
    <tag k="addr:state" v="VT"/>
    <tag k="ref:vcgi:esiteid" v="178809"/>
  </node>
  <node id="-865" visible="true" lat="44.93164607" lon="-72.28851642">
    <tag k="addr:housenumber" v="2542"/>
    <tag k="addr:street" v="Vermont Route 105"/>
    <tag k="addr:state" v="VT"/>
    <tag k="ref:vcgi:esiteid" v="178810"/>
  </node>
  <node id="-866" visible="true" lat="44.9315351" lon="-72.28934806">
    <tag k="addr:housenumber" v="2551"/>
    <tag k="addr:street" v="Vermont Route 105"/>
    <tag k="addr:state" v="VT"/>
    <tag k="ref:vcgi:esiteid" v="178811"/>
  </node>
  <node id="-868" visible="true" lat="44.98198518" lon="-72.24075093">
    <tag k="addr:housenumber" v="223"/>
    <tag k="addr:street" v="Lakewood Drive"/>
    <tag k="addr:state" v="VT"/>
    <tag k="ref:vcgi:esiteid" v="178813"/>
  </node>
  <node id="-869" visible="true" lat="44.98772373" lon="-72.29141549">
    <tag k="addr:housenumber" v="1161"/>
    <tag k="addr:street" v="Farrar Road"/>
    <tag k="addr:state" v="VT"/>
    <tag k="ref:vcgi:esiteid" v="178814"/>
  </node>
  <node id="-870" visible="true" lat="44.92038947" lon="-72.30767911">
    <tag k="addr:housenumber" v="1777"/>
    <tag k="addr:street" v="Vermont Route 100"/>
    <tag k="addr:state" v="VT"/>
    <tag k="ref:vcgi:esiteid" v="178815"/>
  </node>
  <node id="-871" visible="true" lat="44.90276208" lon="-72.31081068">
    <tag k="addr:housenumber" v="1410"/>
    <tag k="addr:street" v="Poginy Hill Road"/>
    <tag k="addr:state" v="VT"/>
    <tag k="ref:vcgi:esiteid" v="178816"/>
  </node>
  <node id="-872" visible="true" lat="44.88873195" lon="-72.31976835">
    <tag k="addr:housenumber" v="1466"/>
    <tag k="addr:street" v="Clark Mountain Road"/>
    <tag k="addr:state" v="VT"/>
    <tag k="ref:vcgi:esiteid" v="178818"/>
  </node>
  <node id="-873" visible="true" lat="44.98356045" lon="-72.25111489">
    <tag k="addr:housenumber" v="4647"/>
    <tag k="addr:street" v="Lake Road"/>
    <tag k="addr:state" v="VT"/>
    <tag k="ref:vcgi:esiteid" v="178819"/>
  </node>
  <node id="-874" visible="true" lat="45.00407875" lon="-72.2577772">
    <tag k="addr:housenumber" v="6264"/>
    <tag k="addr:street" v="Lake Road"/>
    <tag k="addr:state" v="VT"/>
    <tag k="ref:vcgi:esiteid" v="178820"/>
  </node>
  <node id="-875" visible="true" lat="44.99943896" lon="-72.29398502">
    <tag k="addr:housenumber" v="3055"/>
    <tag k="addr:street" v="Buzzell Road"/>
    <tag k="addr:state" v="VT"/>
    <tag k="ref:vcgi:esiteid" v="178821"/>
  </node>
  <node id="-876" visible="true" lat="44.99620114" lon="-72.29243366">
    <tag k="addr:housenumber" v="2805"/>
    <tag k="addr:street" v="Buzzell Road"/>
    <tag k="addr:state" v="VT"/>
    <tag k="ref:vcgi:esiteid" v="178823"/>
  </node>
  <node id="-877" visible="true" lat="44.99827712" lon="-72.25126334">
    <tag k="addr:housenumber" v="5720"/>
    <tag k="addr:street" v="Lake Road"/>
    <tag k="addr:state" v="VT"/>
    <tag k="ref:vcgi:esiteid" v="178824"/>
  </node>
  <node id="-878" visible="true" lat="44.94540468" lon="-72.24461133">
    <tag k="addr:housenumber" v="632"/>
    <tag k="addr:street" v="City Farm Road"/>
    <tag k="addr:state" v="VT"/>
    <tag k="ref:vcgi:esiteid" v="178825"/>
  </node>
  <node id="-879" visible="true" lat="44.96147521" lon="-72.25933641">
    <tag k="addr:housenumber" v="88"/>
    <tag k="addr:street" v="Overlook Drive"/>
    <tag k="addr:state" v="VT"/>
    <tag k="ref:vcgi:esiteid" v="178826"/>
  </node>
  <node id="-881" visible="true" lat="44.88388533" lon="-72.32326417">
    <tag k="addr:housenumber" v="1165"/>
    <tag k="addr:street" v="Clark Mountain Road"/>
    <tag k="addr:state" v="VT"/>
    <tag k="ref:vcgi:esiteid" v="178828"/>
  </node>
  <node id="-882" visible="true" lat="44.97127971" lon="-72.30353191">
    <tag k="addr:housenumber" v="1005"/>
    <tag k="addr:street" v="Buzzell Road"/>
    <tag k="addr:state" v="VT"/>
    <tag k="ref:vcgi:esiteid" v="178829"/>
  </node>
  <node id="-883" visible="true" lat="44.96664162" lon="-72.30492185">
    <tag k="addr:housenumber" v="683"/>
    <tag k="addr:street" v="Buzzell Road"/>
    <tag k="addr:state" v="VT"/>
    <tag k="ref:vcgi:esiteid" v="178830"/>
  </node>
  <node id="-884" visible="true" lat="44.95691534" lon="-72.34037466">
    <tag k="addr:housenumber" v="1680"/>
    <tag k="addr:street" v="Searles Road"/>
    <tag k="addr:state" v="VT"/>
    <tag k="ref:vcgi:esiteid" v="178832"/>
  </node>
  <node id="-885" visible="true" lat="44.95321365" lon="-72.31744392">
    <tag k="addr:housenumber" v="530"/>
    <tag k="addr:street" v="Searles Road"/>
    <tag k="addr:state" v="VT"/>
    <tag k="ref:vcgi:esiteid" v="178833"/>
  </node>
  <node id="-886" visible="true" lat="44.96297384" lon="-72.2647516">
    <tag k="addr:housenumber" v="2243"/>
    <tag k="addr:street" v="Vance Hill Road"/>
    <tag k="addr:state" v="VT"/>
    <tag k="ref:vcgi:esiteid" v="178834"/>
  </node>
  <node id="-887" visible="true" lat="45.00054678" lon="-72.25306761">
    <tag k="addr:housenumber" v="5860"/>
    <tag k="addr:street" v="Lake Road"/>
    <tag k="addr:state" v="VT"/>
    <tag k="ref:vcgi:esiteid" v="178835"/>
  </node>
  <node id="-888" visible="true" lat="44.87303837" lon="-72.35125641">
    <tag k="addr:housenumber" v="4101"/>
    <tag k="addr:street" v="Collins Mill Road"/>
    <tag k="addr:state" v="VT"/>
    <tag k="ref:vcgi:esiteid" v="178836"/>
  </node>
  <node id="-889" visible="true" lat="44.9198317" lon="-72.30656176">
    <tag k="addr:housenumber" v="1755"/>
    <tag k="addr:street" v="Vermont Route 100"/>
    <tag k="addr:state" v="VT"/>
    <tag k="ref:vcgi:esiteid" v="178837"/>
  </node>
  <node id="-890" visible="true" lat="44.91868289" lon="-72.29017276">
    <tag k="addr:housenumber" v="884"/>
    <tag k="addr:street" v="Vermont Route 100"/>
    <tag k="addr:state" v="VT"/>
    <tag k="ref:vcgi:esiteid" v="178838"/>
  </node>
  <node id="-891" visible="true" lat="44.88983798" lon="-72.31879871">
    <tag k="addr:housenumber" v="1542"/>
    <tag k="addr:street" v="Clark Mountain Road"/>
    <tag k="addr:state" v="VT"/>
    <tag k="ref:vcgi:esiteid" v="178839"/>
  </node>
  <node id="-892" visible="true" lat="44.93882948" lon="-72.26514603">
    <tag k="addr:housenumber" v="555"/>
    <tag k="addr:street" v="Browns Hill Road"/>
    <tag k="addr:state" v="VT"/>
    <tag k="ref:vcgi:esiteid" v="178840"/>
  </node>
  <node id="-893" visible="true" lat="44.96898188" lon="-72.30296492">
    <tag k="addr:housenumber" v="657"/>
    <tag k="addr:street" v="Buzzell Road"/>
    <tag k="addr:state" v="VT"/>
    <tag k="ref:vcgi:esiteid" v="178844"/>
  </node>
  <node id="-894" visible="true" lat="44.91999708" lon="-72.31899506">
    <tag k="addr:housenumber" v="2346"/>
    <tag k="addr:street" v="Vermont Route 100"/>
    <tag k="addr:state" v="VT"/>
    <tag k="ref:vcgi:esiteid" v="178845"/>
  </node>
  <node id="-895" visible="true" lat="44.95165669" lon="-72.23375029">
    <tag k="addr:housenumber" v="258"/>
    <tag k="addr:street" v="Fishing Access Road"/>
    <tag k="addr:state" v="VT"/>
    <tag k="ref:vcgi:esiteid" v="178846"/>
  </node>
  <node id="-898" visible="true" lat="44.94862195" lon="-72.30905635">
    <tag k="addr:housenumber" v="190"/>
    <tag k="addr:street" v="Cross Road"/>
    <tag k="addr:state" v="VT"/>
    <tag k="ref:vcgi:esiteid" v="178849"/>
  </node>
  <node id="-899" visible="true" lat="44.98319306" lon="-72.24141207">
    <tag k="addr:housenumber" v="150"/>
    <tag k="addr:street" v="Lakewood Drive"/>
    <tag k="addr:state" v="VT"/>
    <tag k="ref:vcgi:esiteid" v="178850"/>
  </node>
  <node id="-900" visible="true" lat="44.91774368" lon="-72.28562272">
    <tag k="addr:housenumber" v="156"/>
    <tag k="addr:street" v="Markus Lane"/>
    <tag k="addr:state" v="VT"/>
    <tag k="ref:vcgi:esiteid" v="307757"/>
  </node>
  <node id="-901" visible="true" lat="44.92823286" lon="-72.34006477">
    <tag k="addr:housenumber" v="1829"/>
    <tag k="addr:street" v="Number 12 Road"/>
    <tag k="addr:state" v="VT"/>
    <tag k="ref:vcgi:esiteid" v="307758"/>
  </node>
  <node id="-902" visible="true" lat="44.95506414" lon="-72.30553631">
    <tag k="addr:housenumber" v="182"/>
    <tag k="addr:street" v="Lawson Road"/>
    <tag k="addr:state" v="VT"/>
    <tag k="ref:vcgi:esiteid" v="307759"/>
  </node>
  <node id="-903" visible="true" lat="44.9446677" lon="-72.29865762">
    <tag k="addr:housenumber" v="3586"/>
    <tag k="addr:street" v="Vermont Route 105"/>
    <tag k="addr:state" v="VT"/>
    <tag k="ref:vcgi:esiteid" v="307764"/>
  </node>
  <node id="-905" visible="true" lat="45.00247141" lon="-72.2544557">
    <tag k="addr:housenumber" v="5862"/>
    <tag k="addr:street" v="Lake Road"/>
    <tag k="addr:state" v="VT"/>
    <tag k="ref:vcgi:esiteid" v="307766"/>
  </node>
  <node id="-906" visible="true" lat="44.99735685" lon="-72.27192131">
    <tag k="addr:housenumber" v="2783"/>
    <tag k="addr:street" v="Leadville Road"/>
    <tag k="addr:state" v="VT"/>
    <tag k="ref:vcgi:esiteid" v="307767"/>
  </node>
  <node id="-907" visible="true" lat="44.9061048" lon="-72.34155321">
    <tag k="addr:housenumber" v="756"/>
    <tag k="addr:street" v="Tetreault Road"/>
    <tag k="addr:state" v="VT"/>
    <tag k="ref:vcgi:esiteid" v="307768"/>
  </node>
  <node id="-908" visible="true" lat="44.88626601" lon="-72.31565299">
    <tag k="addr:housenumber" v="1404"/>
    <tag k="addr:street" v="Clark Mountain Road"/>
    <tag k="addr:state" v="VT"/>
    <tag k="ref:vcgi:esiteid" v="307769"/>
  </node>
  <node id="-910" visible="true" lat="44.92636031" lon="-72.34645959">
    <tag k="addr:housenumber" v="2020"/>
    <tag k="addr:street" v="Number 12 Road"/>
    <tag k="addr:state" v="VT"/>
    <tag k="ref:vcgi:esiteid" v="328159"/>
  </node>
  <node id="-911" visible="true" lat="44.99443887" lon="-72.27038182">
    <tag k="addr:housenumber" v="2540"/>
    <tag k="addr:street" v="Leadville Road"/>
    <tag k="addr:state" v="VT"/>
    <tag k="ref:vcgi:esiteid" v="336389"/>
  </node>
  <node id="-913" visible="true" lat="44.89522573" lon="-72.33109805">
    <tag k="addr:housenumber" v="2006"/>
    <tag k="addr:street" v="Collins Mill Road"/>
    <tag k="addr:state" v="VT"/>
    <tag k="ref:vcgi:esiteid" v="336391"/>
  </node>
  <node id="-914" visible="true" lat="44.88578638" lon="-72.3189316">
    <tag k="addr:housenumber" v="1232"/>
    <tag k="addr:street" v="Clark Mountain Road"/>
    <tag k="addr:state" v="VT"/>
    <tag k="ref:vcgi:esiteid" v="336392"/>
  </node>
  <node id="-915" visible="true" lat="44.88652931" lon="-72.32118453">
    <tag k="addr:housenumber" v="1281"/>
    <tag k="addr:street" v="Clark Mountain Road"/>
    <tag k="addr:state" v="VT"/>
    <tag k="ref:vcgi:esiteid" v="336393"/>
  </node>
  <node id="-917" visible="true" lat="44.92624636" lon="-72.34221046">
    <tag k="addr:housenumber" v="1976"/>
    <tag k="addr:street" v="Number 12 Road"/>
    <tag k="addr:state" v="VT"/>
    <tag k="ref:vcgi:esiteid" v="336396"/>
  </node>
  <node id="-918" visible="true" lat="44.91921224" lon="-72.34858549">
    <tag k="addr:housenumber" v="2522"/>
    <tag k="addr:street" v="Number 12 Road"/>
    <tag k="addr:state" v="VT"/>
    <tag k="ref:vcgi:esiteid" v="336397"/>
  </node>
  <node id="-919" visible="true" lat="44.91395482" lon="-72.31489236">
    <tag k="addr:housenumber" v="511"/>
    <tag k="addr:street" v="Collins Mill Road"/>
    <tag k="addr:state" v="VT"/>
    <tag k="ref:vcgi:esiteid" v="336398"/>
  </node>
  <node id="-920" visible="true" lat="44.99028937" lon="-72.30172789">
    <tag k="addr:housenumber" v="1747"/>
    <tag k="addr:street" v="Farrar Road"/>
    <tag k="addr:state" v="VT"/>
    <tag k="ref:vcgi:esiteid" v="336399"/>
  </node>
  <node id="-921" visible="true" lat="44.99704023" lon="-72.27351483">
    <tag k="addr:housenumber" v="2707"/>
    <tag k="addr:street" v="Leadville Road"/>
    <tag k="addr:state" v="VT"/>
    <tag k="ref:vcgi:esiteid" v="336400"/>
  </node>
  <node id="-923" visible="true" lat="44.9887972" lon="-72.28696084">
    <tag k="addr:housenumber" v="972"/>
    <tag k="addr:street" v="Farrar Road"/>
    <tag k="addr:state" v="VT"/>
    <tag k="ref:vcgi:esiteid" v="338388"/>
  </node>
  <node id="-924" visible="true" lat="44.98972776" lon="-72.29823188">
    <tag k="addr:housenumber" v="1525"/>
    <tag k="addr:street" v="Farrar Road"/>
    <tag k="addr:state" v="VT"/>
    <tag k="ref:vcgi:esiteid" v="338389"/>
  </node>
  <node id="-925" visible="true" lat="44.94837329" lon="-72.24213657">
    <tag k="addr:housenumber" v="301"/>
    <tag k="addr:street" v="City Farm Road"/>
    <tag k="addr:state" v="VT"/>
    <tag k="ref:vcgi:esiteid" v="342522"/>
  </node>
  <node id="-926" visible="true" lat="44.94249308" lon="-72.25161709">
    <tag k="addr:housenumber" v="461"/>
    <tag k="addr:street" v="Deer Run Lane"/>
    <tag k="addr:state" v="VT"/>
    <tag k="ref:vcgi:esiteid" v="342523"/>
  </node>
  <node id="-927" visible="true" lat="44.915838" lon="-72.30352198">
    <tag k="addr:housenumber" v="459"/>
    <tag k="addr:street" v="Poginy Hill Road"/>
    <tag k="addr:state" v="VT"/>
    <tag k="ref:vcgi:esiteid" v="342570"/>
  </node>
  <node id="-928" visible="true" lat="44.92750804" lon="-72.29149119">
    <tag k="addr:housenumber" v="299"/>
    <tag k="addr:street" v="M And M Road"/>
    <tag k="addr:state" v="VT"/>
    <tag k="ref:vcgi:esiteid" v="342571"/>
  </node>
  <node id="-929" visible="true" lat="44.95218214" lon="-72.23968869">
    <tag k="addr:housenumber" v="2387"/>
    <tag k="addr:street" v="Lake Road"/>
    <tag k="addr:state" v="VT"/>
    <tag k="ref:vcgi:esiteid" v="342572"/>
  </node>
  <node id="-930" visible="true" lat="44.95109717" lon="-72.24501281">
    <tag k="addr:housenumber" v="110"/>
    <tag k="addr:street" v="Chaput Farm Road"/>
    <tag k="addr:state" v="VT"/>
    <tag k="ref:vcgi:esiteid" v="342573"/>
  </node>
  <node id="-931" visible="true" lat="44.91926703" lon="-72.32922478">
    <tag k="addr:housenumber" v="2574"/>
    <tag k="addr:street" v="Cross Road"/>
    <tag k="addr:state" v="VT"/>
    <tag k="ref:vcgi:esiteid" v="342574"/>
  </node>
  <node id="-932" visible="true" lat="44.86975735" lon="-72.34449093">
    <tag k="addr:housenumber" v="541"/>
    <tag k="addr:street" v="Bonin Road"/>
    <tag k="addr:state" v="VT"/>
    <tag k="ref:vcgi:esiteid" v="365037"/>
  </node>
  <node id="-933" visible="true" lat="44.9177875" lon="-72.3129856">
    <tag k="addr:housenumber" v="153"/>
    <tag k="addr:street" v="Collins Mill Road"/>
    <tag k="addr:state" v="VT"/>
    <tag k="ref:vcgi:esiteid" v="365132"/>
  </node>
  <node id="-934" visible="true" lat="44.91612721" lon="-72.32943338">
    <tag k="addr:housenumber" v="2841"/>
    <tag k="addr:street" v="Vermont Route 100"/>
    <tag k="addr:state" v="VT"/>
    <tag k="ref:vcgi:esiteid" v="365431"/>
  </node>
  <node id="-935" visible="true" lat="44.93541972" lon="-72.28997888">
    <tag k="addr:housenumber" v="2824"/>
    <tag k="addr:street" v="Vermont Route 105"/>
    <tag k="addr:state" v="VT"/>
    <tag k="ref:vcgi:esiteid" v="365432"/>
  </node>
  <node id="-936" visible="true" lat="44.96108561" lon="-72.23503684">
    <tag k="addr:housenumber" v="394"/>
    <tag k="addr:street" v="Miller Way"/>
    <tag k="addr:state" v="VT"/>
    <tag k="ref:vcgi:esiteid" v="365618"/>
  </node>
  <node id="-943" visible="true" lat="44.92055057" lon="-72.28330872">
    <tag k="addr:housenumber" v="280"/>
    <tag k="addr:street" v="Buck Road"/>
    <tag k="addr:state" v="VT"/>
    <tag k="ref:vcgi:esiteid" v="448670"/>
  </node>
  <node id="-944" visible="true" lat="44.93187743" lon="-72.27722906">
    <tag k="addr:housenumber" v="9"/>
    <tag k="addr:street" v="Coburn Hill Road"/>
    <tag k="addr:state" v="VT"/>
    <tag k="ref:vcgi:esiteid" v="448676"/>
  </node>
  <node id="-946" visible="true" lat="44.96099186" lon="-72.31328074">
    <tag k="addr:housenumber" v="5011"/>
    <tag k="addr:street" v="Vermont Route 105"/>
    <tag k="addr:state" v="VT"/>
    <tag k="ref:vcgi:esiteid" v="448679"/>
  </node>
  <node id="-947" visible="true" lat="44.93458153" lon="-72.24351647">
    <tag k="addr:housenumber" v="1293"/>
    <tag k="addr:street" v="City Farm Road"/>
    <tag k="addr:state" v="VT"/>
    <tag k="ref:vcgi:esiteid" v="448680"/>
  </node>
  <node id="-948" visible="true" lat="44.92883895" lon="-72.29256578">
    <tag k="addr:housenumber" v="2545"/>
    <tag k="addr:street" v="Vermont Route 105"/>
    <tag k="addr:state" v="VT"/>
    <tag k="ref:vcgi:esiteid" v="448681"/>
  </node>
  <node id="-949" visible="true" lat="44.92804203" lon="-72.2864788">
    <tag k="addr:housenumber" v="319"/>
    <tag k="addr:street" v="Vermont Route 100"/>
    <tag k="addr:state" v="VT"/>
    <tag k="ref:vcgi:esiteid" v="448682"/>
  </node>
  <node id="-952" visible="true" lat="44.86068356" lon="-72.35344893">
    <tag k="addr:housenumber" v="229"/>
    <tag k="addr:street" v="Gore Road"/>
    <tag k="addr:state" v="VT"/>
    <tag k="ref:vcgi:esiteid" v="611016"/>
  </node>
  <node id="-953" visible="true" lat="44.8589934" lon="-72.3538584">
    <tag k="addr:housenumber" v="349"/>
    <tag k="addr:street" v="Gore Road"/>
    <tag k="addr:state" v="VT"/>
    <tag k="ref:vcgi:esiteid" v="611017"/>
  </node>
  <node id="-954" visible="true" lat="44.86034647" lon="-72.35030729">
    <tag k="addr:housenumber" v="341"/>
    <tag k="addr:street" v="Gore Road"/>
    <tag k="addr:state" v="VT"/>
    <tag k="ref:vcgi:esiteid" v="611018"/>
  </node>
  <node id="-955" visible="true" lat="44.85476107" lon="-72.35183134">
    <tag k="addr:housenumber" v="679"/>
    <tag k="addr:street" v="Gore Road"/>
    <tag k="addr:state" v="VT"/>
    <tag k="ref:vcgi:esiteid" v="611019"/>
  </node>
  <node id="-956" visible="true" lat="44.85333555" lon="-72.35085898">
    <tag k="addr:housenumber" v="695"/>
    <tag k="addr:street" v="Gore Road"/>
    <tag k="addr:state" v="VT"/>
    <tag k="ref:vcgi:esiteid" v="611020"/>
  </node>
  <node id="-958" visible="true" lat="44.84550876" lon="-72.34876605">
    <tag k="addr:housenumber" v="1531"/>
    <tag k="addr:street" v="Gore Road"/>
    <tag k="addr:state" v="VT"/>
    <tag k="ref:vcgi:esiteid" v="611034"/>
  </node>
  <node id="-959" visible="true" lat="44.84796677" lon="-72.36184485">
    <tag k="addr:housenumber" v="1560"/>
    <tag k="addr:street" v="Town Highway 36"/>
    <tag k="addr:state" v="VT"/>
    <tag k="ref:vcgi:esiteid" v="611038"/>
  </node>
  <node id="-962" visible="true" lat="44.84647878" lon="-72.35502214">
    <tag k="addr:housenumber" v="1190"/>
    <tag k="addr:street" v="Gore Road"/>
    <tag k="addr:state" v="VT"/>
    <tag k="ref:vcgi:esiteid" v="611044"/>
  </node>
  <node id="-964" visible="true" lat="44.84914569" lon="-72.36412469">
    <tag k="addr:housenumber" v="1441"/>
    <tag k="addr:street" v="Town Highway 36"/>
    <tag k="addr:state" v="VT"/>
    <tag k="ref:vcgi:esiteid" v="611047"/>
  </node>
  <node id="-967" visible="true" lat="44.84711957" lon="-72.33924994">
    <tag k="addr:housenumber" v="1557"/>
    <tag k="addr:street" v="Gore Road"/>
    <tag k="addr:state" v="VT"/>
    <tag k="ref:vcgi:esiteid" v="611325"/>
  </node>
  <node id="-968" visible="true" lat="44.86533578" lon="-72.34148844">
    <tag k="addr:housenumber" v="629"/>
    <tag k="addr:street" v="Bonin Road"/>
    <tag k="addr:state" v="VT"/>
    <tag k="ref:vcgi:esiteid" v="611327"/>
  </node>
  <node id="-970" visible="true" lat="44.99815825" lon="-72.28859458">
    <tag k="addr:housenumber" v="2930"/>
    <tag k="addr:street" v="Buzzell Road"/>
    <tag k="addr:state" v="VT"/>
    <tag k="ref:vcgi:esiteid" v="618018"/>
  </node>
  <node id="-971" visible="true" lat="44.98232108" lon="-72.26889413">
    <tag k="addr:housenumber" v="1662"/>
    <tag k="addr:street" v="Leadville Road"/>
    <tag k="addr:state" v="VT"/>
    <tag k="ref:vcgi:esiteid" v="618019"/>
  </node>
  <node id="-972" visible="true" lat="44.99958403" lon="-72.27181732">
    <tag k="addr:housenumber" v="2866"/>
    <tag k="addr:street" v="Leadville Road"/>
    <tag k="addr:state" v="VT"/>
    <tag k="ref:vcgi:esiteid" v="618020"/>
  </node>
  <node id="-973" visible="true" lat="44.90688468" lon="-72.33478417">
    <tag k="addr:housenumber" v="643"/>
    <tag k="addr:street" v="Tetreault Road"/>
    <tag k="addr:state" v="VT"/>
    <tag k="ref:vcgi:esiteid" v="618021"/>
  </node>
  <node id="-974" visible="true" lat="44.89966956" lon="-72.32471472">
    <tag k="addr:housenumber" v="1511"/>
    <tag k="addr:street" v="Collins Mill Road"/>
    <tag k="addr:state" v="VT"/>
    <tag k="ref:vcgi:esiteid" v="618022"/>
  </node>
  <node id="-975" visible="true" lat="44.89328223" lon="-72.33357575">
    <tag k="addr:housenumber" v="2204"/>
    <tag k="addr:street" v="Collins Mill Road"/>
    <tag k="addr:state" v="VT"/>
    <tag k="ref:vcgi:esiteid" v="618023"/>
  </node>
  <node id="-976" visible="true" lat="44.91343432" lon="-72.304252">
    <tag k="addr:housenumber" v="585"/>
    <tag k="addr:street" v="Poginy Hill Road"/>
    <tag k="addr:state" v="VT"/>
    <tag k="ref:vcgi:esiteid" v="618024"/>
  </node>
  <node id="-977" visible="true" lat="44.95715255" lon="-72.26059934">
    <tag k="addr:housenumber" v="279"/>
    <tag k="addr:street" v="Gage Road"/>
    <tag k="addr:state" v="VT"/>
    <tag k="ref:vcgi:esiteid" v="618025"/>
  </node>
  <node id="-979" visible="true" lat="44.87415549" lon="-72.36220018">
    <tag k="addr:housenumber" v="4631"/>
    <tag k="addr:street" v="Collins Mill Road"/>
    <tag k="addr:state" v="VT"/>
    <tag k="ref:vcgi:esiteid" v="620257"/>
  </node>
  <node id="-981" visible="true" lat="44.99442475" lon="-72.30062932">
    <tag k="addr:housenumber" v="1748"/>
    <tag k="addr:street" v="Farrar Road"/>
    <tag k="addr:state" v="VT"/>
    <tag k="ref:vcgi:esiteid" v="620474"/>
  </node>
  <node id="-982" visible="true" lat="44.99617554" lon="-72.31951668">
    <tag k="addr:housenumber" v="2634"/>
    <tag k="addr:street" v="Farrar Road"/>
    <tag k="addr:state" v="VT"/>
    <tag k="ref:vcgi:esiteid" v="620475"/>
  </node>
  <node id="-983" visible="true" lat="44.99716483" lon="-72.31577492">
    <tag k="addr:housenumber" v="2730"/>
    <tag k="addr:street" v="Farrar Road"/>
    <tag k="addr:state" v="VT"/>
    <tag k="ref:vcgi:esiteid" v="620476"/>
  </node>
  <node id="-984" visible="true" lat="44.97113445" lon="-72.29999697">
    <tag k="addr:housenumber" v="1007"/>
    <tag k="addr:street" v="Buzzell Road"/>
    <tag k="addr:state" v="VT"/>
    <tag k="ref:vcgi:esiteid" v="620477"/>
  </node>
  <node id="-985" visible="true" lat="44.9630618" lon="-72.30512007">
    <tag k="addr:housenumber" v="368"/>
    <tag k="addr:street" v="Buzzell Road"/>
    <tag k="addr:state" v="VT"/>
    <tag k="ref:vcgi:esiteid" v="620478"/>
  </node>
  <node id="-986" visible="true" lat="44.96035242" lon="-72.30848269">
    <tag k="addr:housenumber" v="74"/>
    <tag k="addr:street" v="Buzzell Road"/>
    <tag k="addr:state" v="VT"/>
    <tag k="ref:vcgi:esiteid" v="620479"/>
  </node>
  <node id="-987" visible="true" lat="44.87035836" lon="-72.34497823">
    <tag k="addr:housenumber" v="542"/>
    <tag k="addr:street" v="Bonin Road"/>
    <tag k="addr:state" v="VT"/>
    <tag k="ref:vcgi:esiteid" v="620480"/>
  </node>
  <node id="-990" visible="true" lat="44.97005345" lon="-72.25086143">
    <tag k="addr:housenumber" v="166"/>
    <tag k="addr:street" v="Leadville Road"/>
    <tag k="addr:state" v="VT"/>
    <tag k="ref:vcgi:esiteid" v="655674"/>
  </node>
  <node id="-991" visible="true" lat="44.95136762" lon="-72.29242329">
    <tag k="addr:housenumber" v="640"/>
    <tag k="addr:street" v="Vance Hill Road"/>
    <tag k="addr:state" v="VT"/>
    <tag k="ref:vcgi:esiteid" v="655924"/>
  </node>
  <node id="-992" visible="true" lat="44.96585859" lon="-72.25522957">
    <tag k="addr:housenumber" v="382"/>
    <tag k="addr:street" v="Morningside Drive"/>
    <tag k="addr:state" v="VT"/>
    <tag k="ref:vcgi:esiteid" v="655925"/>
  </node>
  <node id="-993" visible="true" lat="44.96773913" lon="-72.24728612">
    <tag k="addr:housenumber" v="3574"/>
    <tag k="addr:street" v="Lake Road"/>
    <tag k="addr:state" v="VT"/>
    <tag k="ref:vcgi:esiteid" v="655926"/>
  </node>
  <node id="-994" visible="true" lat="44.95439149" lon="-72.26698439">
    <tag k="addr:housenumber" v="440"/>
    <tag k="addr:street" v="Gibbs Road"/>
    <tag k="addr:state" v="VT"/>
    <tag k="ref:vcgi:esiteid" v="655927"/>
  </node>
  <node id="-995" visible="true" lat="44.92511684" lon="-72.34575045">
    <tag k="addr:housenumber" v="2120"/>
    <tag k="addr:street" v="Number 12 Road"/>
    <tag k="addr:state" v="VT"/>
    <tag k="ref:vcgi:esiteid" v="655928"/>
  </node>
  <node id="-996" visible="true" lat="44.90997989" lon="-72.33952651">
    <tag k="addr:housenumber" v="478"/>
    <tag k="addr:street" v="Tetreault Road"/>
    <tag k="addr:state" v="VT"/>
    <tag k="ref:vcgi:esiteid" v="655929"/>
  </node>
  <node id="-997" visible="true" lat="44.99359471" lon="-72.32955304">
    <tag k="addr:housenumber" v="3368"/>
    <tag k="addr:street" v="Bear Mountain Road"/>
    <tag k="addr:state" v="VT"/>
    <tag k="ref:vcgi:esiteid" v="655930"/>
  </node>
  <node id="-998" visible="true" lat="44.97502389" lon="-72.29793501">
    <tag k="addr:housenumber" v="1329"/>
    <tag k="addr:street" v="Buzzell Road"/>
    <tag k="addr:state" v="VT"/>
    <tag k="ref:vcgi:esiteid" v="655931"/>
  </node>
  <node id="-999" visible="true" lat="44.90965428" lon="-72.30793883">
    <tag k="addr:housenumber" v="923"/>
    <tag k="addr:street" v="Poginy Hill Road"/>
    <tag k="addr:state" v="VT"/>
    <tag k="ref:vcgi:esiteid" v="655932"/>
  </node>
  <node id="-1000" visible="true" lat="44.91033789" lon="-72.3393159">
    <tag k="addr:housenumber" v="452"/>
    <tag k="addr:street" v="Tetreault Road"/>
    <tag k="addr:state" v="VT"/>
    <tag k="ref:vcgi:esiteid" v="656141"/>
  </node>
  <node id="-1001" visible="true" lat="44.89711074" lon="-72.31463855">
    <tag k="addr:housenumber" v="1805"/>
    <tag k="addr:street" v="Poginy Hill Road"/>
    <tag k="addr:state" v="VT"/>
    <tag k="ref:vcgi:esiteid" v="656142"/>
  </node>
  <node id="-1002" visible="true" lat="44.96106611" lon="-72.3113328">
    <tag k="addr:housenumber" v="4896"/>
    <tag k="addr:street" v="Vermont Route 105"/>
    <tag k="addr:state" v="VT"/>
    <tag k="ref:vcgi:esiteid" v="656143"/>
  </node>
  <node id="-1003" visible="true" lat="44.99348071" lon="-72.32680822">
    <tag k="addr:housenumber" v="3504"/>
    <tag k="addr:street" v="Bear Mountain Road"/>
    <tag k="addr:state" v="VT"/>
    <tag k="ref:vcgi:esiteid" v="656144"/>
  </node>
  <node id="-1004" visible="true" lat="45.00117029" lon="-72.25674852">
    <tag k="addr:housenumber" v="6133"/>
    <tag k="addr:street" v="Lake Road"/>
    <tag k="addr:state" v="VT"/>
    <tag k="ref:vcgi:esiteid" v="656145"/>
  </node>
  <node id="-1005" visible="true" lat="44.96668829" lon="-72.24684374">
    <tag k="addr:housenumber" v="3466"/>
    <tag k="addr:street" v="Lake Road"/>
    <tag k="addr:state" v="VT"/>
    <tag k="ref:vcgi:esiteid" v="656147"/>
  </node>
  <node id="-1006" visible="true" lat="44.92351112" lon="-72.32284689">
    <tag k="addr:housenumber" v="2239"/>
    <tag k="addr:street" v="Cross Road"/>
    <tag k="addr:state" v="VT"/>
    <tag k="ref:vcgi:esiteid" v="750939"/>
  </node>
  <node id="-1007" visible="true" lat="44.97117987" lon="-72.2985346">
    <tag k="addr:housenumber" v="1160"/>
    <tag k="addr:street" v="Buzzell Road"/>
    <tag k="addr:state" v="VT"/>
    <tag k="ref:vcgi:esiteid" v="750989"/>
  </node>
  <node id="-1008" visible="true" lat="44.97293993" lon="-72.29754417">
    <tag k="addr:housenumber" v="1256"/>
    <tag k="addr:street" v="Buzzell Road"/>
    <tag k="addr:state" v="VT"/>
    <tag k="ref:vcgi:esiteid" v="750990"/>
  </node>
  <node id="-1009" visible="true" lat="44.97350823" lon="-72.29743129">
    <tag k="addr:housenumber" v="1316"/>
    <tag k="addr:street" v="Buzzell Road"/>
    <tag k="addr:state" v="VT"/>
    <tag k="ref:vcgi:esiteid" v="750991"/>
  </node>
  <node id="-1010" visible="true" lat="44.97012052" lon="-72.247501">
    <tag k="addr:housenumber" v="3723"/>
    <tag k="addr:street" v="Lake Road"/>
    <tag k="addr:state" v="VT"/>
    <tag k="ref:vcgi:esiteid" v="750995"/>
  </node>
  <node id="-1013" visible="true" lat="44.97411501" lon="-72.26130422">
    <tag k="addr:housenumber" v="838"/>
    <tag k="addr:street" v="Leadville Road"/>
    <tag k="addr:state" v="VT"/>
    <tag k="ref:vcgi:esiteid" v="750998"/>
  </node>
  <node id="-1014" visible="true" lat="44.98104036" lon="-72.24222273">
    <tag k="addr:housenumber" v="4528"/>
    <tag k="addr:street" v="Lake Road"/>
    <tag k="addr:state" v="VT"/>
    <tag k="ref:vcgi:esiteid" v="751000"/>
  </node>
  <node id="-1016" visible="true" lat="44.957981" lon="-72.26077902">
    <tag k="addr:housenumber" v="219"/>
    <tag k="addr:street" v="Gage Road"/>
    <tag k="addr:state" v="VT"/>
    <tag k="ref:vcgi:esiteid" v="751002"/>
  </node>
  <node id="-1017" visible="true" lat="44.96327066" lon="-72.23984109">
    <tag k="addr:housenumber" v="201"/>
    <tag k="addr:street" v="Beaver Cove"/>
    <tag k="addr:state" v="VT"/>
    <tag k="ref:vcgi:esiteid" v="751003"/>
  </node>
  <node id="-1018" visible="true" lat="44.95962104" lon="-72.23467457">
    <tag k="addr:housenumber" v="234"/>
    <tag k="addr:street" v="Miller Way"/>
    <tag k="addr:state" v="VT"/>
    <tag k="ref:vcgi:esiteid" v="751004"/>
  </node>
  <node id="-1019" visible="true" lat="44.96002096" lon="-72.23464254">
    <tag k="addr:housenumber" v="236"/>
    <tag k="addr:street" v="Miller Way"/>
    <tag k="addr:state" v="VT"/>
    <tag k="ref:vcgi:esiteid" v="751005"/>
  </node>
  <node id="-1020" visible="true" lat="44.96026394" lon="-72.23469675">
    <tag k="addr:housenumber" v="238"/>
    <tag k="addr:street" v="Miller Way"/>
    <tag k="addr:state" v="VT"/>
    <tag k="ref:vcgi:esiteid" v="751006"/>
  </node>
  <node id="-1023" visible="true" lat="44.89061704" lon="-72.35195098">
    <tag k="addr:housenumber" v="877"/>
    <tag k="addr:street" v="Kittredge Road"/>
    <tag k="addr:state" v="VT"/>
    <tag k="ref:vcgi:esiteid" v="751011"/>
  </node>
  <node id="-1026" visible="true" lat="44.95824414" lon="-72.26003928">
    <tag k="addr:housenumber" v="2610"/>
    <tag k="addr:street" v="Vance Hill Road"/>
    <tag k="addr:state" v="VT"/>
    <tag k="ref:vcgi:esiteid" v="757415"/>
  </node>
  <node id="-1027" visible="true" lat="44.90518965" lon="-72.31159851">
    <tag k="addr:housenumber" v="1276"/>
    <tag k="addr:street" v="Poginy Hill Road"/>
    <tag k="addr:state" v="VT"/>
    <tag k="ref:vcgi:esiteid" v="757416"/>
  </node>
  <node id="-1028" visible="true" lat="44.91401452" lon="-72.28160772">
    <tag k="addr:housenumber" v="4817"/>
    <tag k="addr:street" v="Vermont Route 14"/>
    <tag k="addr:state" v="VT"/>
    <tag k="ref:vcgi:esiteid" v="757417"/>
  </node>
  <node id="-1029" visible="true" lat="44.91439529" lon="-72.28198678">
    <tag k="addr:housenumber" v="4855"/>
    <tag k="addr:street" v="Vermont Route 14"/>
    <tag k="addr:state" v="VT"/>
    <tag k="ref:vcgi:esiteid" v="757418"/>
  </node>
  <node id="-1030" visible="true" lat="44.91456818" lon="-72.28275012">
    <tag k="addr:housenumber" v="4893"/>
    <tag k="addr:street" v="Vermont Route 14"/>
    <tag k="addr:state" v="VT"/>
    <tag k="ref:vcgi:esiteid" v="757419"/>
  </node>
  <node id="-1031" visible="true" lat="44.91476749" lon="-72.28341833">
    <tag k="addr:housenumber" v="4931"/>
    <tag k="addr:street" v="Vermont Route 14"/>
    <tag k="addr:state" v="VT"/>
    <tag k="ref:vcgi:esiteid" v="757420"/>
  </node>
  <node id="-1032" visible="true" lat="44.9853741" lon="-72.24016524">
    <tag k="addr:housenumber" v="106"/>
    <tag k="addr:street" v="North Lakewood Drive"/>
    <tag k="addr:state" v="VT"/>
    <tag k="ref:vcgi:esiteid" v="759696"/>
  </node>
  <node id="-1033" visible="true" lat="44.96572731" lon="-72.30248129">
    <tag k="addr:housenumber" v="646"/>
    <tag k="addr:street" v="Buzzell Road"/>
    <tag k="addr:state" v="VT"/>
    <tag k="ref:vcgi:esiteid" v="759697"/>
  </node>
  <node id="-1034" visible="true" lat="44.96880596" lon="-72.25159641">
    <tag k="addr:housenumber" v="135"/>
    <tag k="addr:street" v="Leadville Road"/>
    <tag k="addr:state" v="VT"/>
    <tag k="ref:vcgi:esiteid" v="759698"/>
  </node>
  <node id="-1035" visible="true" lat="44.93177058" lon="-72.28661677">
    <tag k="addr:housenumber" v="2126"/>
    <tag k="addr:street" v="Vermont Route 105"/>
    <tag k="addr:state" v="VT"/>
    <tag k="ref:vcgi:esiteid" v="759699"/>
  </node>
  <node id="-1036" visible="true" lat="44.95518" lon="-72.33647815">
    <tag k="addr:housenumber" v="1501"/>
    <tag k="addr:street" v="Searles Road"/>
    <tag k="addr:state" v="VT"/>
    <tag k="ref:vcgi:esiteid" v="761557"/>
  </node>
  <node id="-1037" visible="true" lat="44.91988099" lon="-72.30490357">
    <tag k="addr:housenumber" v="1685"/>
    <tag k="addr:street" v="Vermont Route 100"/>
    <tag k="addr:state" v="VT"/>
    <tag k="ref:vcgi:esiteid" v="761832"/>
  </node>
  <node id="-1038" visible="true" lat="44.91765172" lon="-72.28982239">
    <tag k="addr:housenumber" v="801"/>
    <tag k="addr:street" v="Vermont Route 100"/>
    <tag k="addr:state" v="VT"/>
    <tag k="ref:vcgi:esiteid" v="761833"/>
  </node>
  <node id="-1039" visible="true" lat="44.96204297" lon="-72.30722323">
    <tag k="addr:housenumber" v="278"/>
    <tag k="addr:street" v="Buzzell Road"/>
    <tag k="addr:state" v="VT"/>
    <tag k="ref:vcgi:esiteid" v="761834"/>
  </node>
  <node id="-1040" visible="true" lat="44.97514256" lon="-72.24141536">
    <tag k="addr:housenumber" v="4106"/>
    <tag k="addr:street" v="Lake Road"/>
    <tag k="addr:state" v="VT"/>
    <tag k="ref:vcgi:esiteid" v="761835"/>
  </node>
  <node id="-1041" visible="true" lat="44.87721863" lon="-72.35850626">
    <tag k="addr:housenumber" v="94"/>
    <tag k="addr:street" v="Hunters Trace"/>
    <tag k="addr:state" v="VT"/>
    <tag k="ref:vcgi:esiteid" v="762696"/>
  </node>
  <node id="-1042" visible="true" lat="44.98925559" lon="-72.29697318">
    <tag k="addr:housenumber" v="1435"/>
    <tag k="addr:street" v="Farrar Road"/>
    <tag k="addr:state" v="VT"/>
    <tag k="ref:vcgi:esiteid" v="762697"/>
  </node>
  <node id="-1043" visible="true" lat="44.96299677" lon="-72.29369603">
    <tag k="addr:housenumber" v="580"/>
    <tag k="addr:street" v="Armstrong Road"/>
    <tag k="addr:state" v="VT"/>
    <tag k="ref:vcgi:esiteid" v="762698"/>
  </node>
  <node id="-1044" visible="true" lat="44.98351536" lon="-72.29474009">
    <tag k="addr:housenumber" v="1913"/>
    <tag k="addr:street" v="Buzzell Road"/>
    <tag k="addr:state" v="VT"/>
    <tag k="ref:vcgi:esiteid" v="762699"/>
  </node>
  <node id="-1045" visible="true" lat="44.99263196" lon="-72.27000356">
    <tag k="addr:housenumber" v="2368"/>
    <tag k="addr:street" v="Leadville Road"/>
    <tag k="addr:state" v="VT"/>
    <tag k="ref:vcgi:esiteid" v="762700"/>
  </node>
  <node id="-1046" visible="true" lat="44.9192291" lon="-72.34658285">
    <tag k="addr:housenumber" v="2477"/>
    <tag k="addr:street" v="Number 12 Road"/>
    <tag k="addr:state" v="VT"/>
    <tag k="ref:vcgi:esiteid" v="762701"/>
  </node>
  <node id="-1047" visible="true" lat="44.94990158" lon="-72.30842326">
    <tag k="addr:housenumber" v="100"/>
    <tag k="addr:street" v="Cross Road"/>
    <tag k="addr:state" v="VT"/>
    <tag k="ref:vcgi:esiteid" v="762762"/>
  </node>
  <node id="-1048" visible="true" lat="44.96541303" lon="-72.2574819">
    <tag k="addr:housenumber" v="193"/>
    <tag k="addr:street" v="Morningside Drive"/>
    <tag k="addr:state" v="VT"/>
    <tag k="ref:vcgi:esiteid" v="762796"/>
  </node>
  <node id="-1049" visible="true" lat="44.898688" lon="-72.34801985">
    <tag k="addr:housenumber" v="1372"/>
    <tag k="addr:street" v="Tetreault Road"/>
    <tag k="addr:state" v="VT"/>
    <tag k="ref:vcgi:esiteid" v="762814"/>
  </node>
  <node id="-1050" visible="true" lat="44.9257287" lon="-72.2915672">
    <tag k="addr:housenumber" v="165"/>
    <tag k="addr:street" v="M And M Road"/>
    <tag k="addr:state" v="VT"/>
    <tag k="ref:vcgi:esiteid" v="762815"/>
  </node>
  <node id="-1051" visible="true" lat="44.99348296" lon="-72.24750815">
    <tag k="addr:housenumber" v="200"/>
    <tag k="addr:street" v="Gregory Drive"/>
    <tag k="addr:state" v="VT"/>
    <tag k="ref:vcgi:esiteid" v="762959"/>
  </node>
  <node id="-1053" visible="true" lat="44.87392385" lon="-72.35693657">
    <tag k="addr:housenumber" v="4325"/>
    <tag k="addr:street" v="Collins Mill Road"/>
    <tag k="addr:state" v="VT"/>
    <tag k="ref:vcgi:esiteid" v="764933"/>
  </node>
  <node id="-1055" visible="true" lat="44.92273739" lon="-72.29125556">
    <tag k="addr:housenumber" v="654"/>
    <tag k="addr:street" v="Vermont Route 100"/>
    <tag k="addr:state" v="VT"/>
    <tag k="ref:vcgi:esiteid" v="767582"/>
  </node>
  <node id="-1056" visible="true" lat="44.92470132" lon="-72.29237451">
    <tag k="addr:housenumber" v="121"/>
    <tag k="addr:street" v="M And M Road"/>
    <tag k="addr:state" v="VT"/>
    <tag k="ref:vcgi:esiteid" v="767583"/>
  </node>
  <node id="-1057" visible="true" lat="44.92685361" lon="-72.29233995">
    <tag k="addr:housenumber" v="125"/>
    <tag k="addr:street" v="M And M Road"/>
    <tag k="addr:state" v="VT"/>
    <tag k="ref:vcgi:esiteid" v="767584"/>
  </node>
  <node id="-1058" visible="true" lat="44.99371661" lon="-72.27031987">
    <tag k="addr:housenumber" v="2476"/>
    <tag k="addr:street" v="Leadville Road"/>
    <tag k="addr:state" v="VT"/>
    <tag k="ref:vcgi:esiteid" v="767585"/>
  </node>
  <node id="-1059" visible="true" lat="44.9155632" lon="-72.30174316">
    <tag k="addr:housenumber" v="341"/>
    <tag k="addr:street" v="Poginy Hill Road"/>
    <tag k="addr:state" v="VT"/>
    <tag k="ref:vcgi:esiteid" v="767586"/>
  </node>
  <node id="-1060" visible="true" lat="44.93241265" lon="-72.27602727">
    <tag k="addr:housenumber" v="57"/>
    <tag k="addr:street" v="Coburn Hill Road"/>
    <tag k="addr:state" v="VT"/>
    <tag k="ref:vcgi:esiteid" v="767587"/>
  </node>
  <node id="-1061" visible="true" lat="44.98797739" lon="-72.24513518">
    <tag k="addr:housenumber" v="5037"/>
    <tag k="addr:street" v="Lake Road"/>
    <tag k="addr:state" v="VT"/>
    <tag k="ref:vcgi:esiteid" v="767588"/>
  </node>
  <node id="-1063" visible="true" lat="44.99603555" lon="-72.24820183">
    <tag k="addr:housenumber" v="112"/>
    <tag k="addr:street" v="Leblanc Lane"/>
    <tag k="addr:state" v="VT"/>
    <tag k="ref:vcgi:esiteid" v="768893"/>
  </node>
  <node id="-1064" visible="true" lat="44.95574614" lon="-72.29908476">
    <tag k="addr:housenumber" v="463"/>
    <tag k="addr:street" v="Vance Hill Road"/>
    <tag k="addr:state" v="VT"/>
    <tag k="ref:vcgi:esiteid" v="769685"/>
  </node>
  <node id="-1065" visible="true" lat="44.91857746" lon="-72.29798447">
    <tag k="addr:housenumber" v="1179"/>
    <tag k="addr:street" v="Vermont Route 100"/>
    <tag k="addr:state" v="VT"/>
    <tag k="ref:vcgi:esiteid" v="1051067"/>
  </node>
</osm>
