<?xml version="1.0" encoding="UTF-8"?>
<osm version="0.6" generator="JOSM">
  <node id="-231" visible="true" lat="44.97048842" lon="-72.25300857">
    <tag k="addr:city" v="Newport Town"/>
    <tag k="addr:housenumber" v="337"/>
    <tag k="addr:street" v="Leadville Road"/>
    <tag k="addr:state" v="VT"/>
    <tag k="ref:vcgi:esiteid" v="178166"/>
  </node>
  <node id="-234" visible="true" lat="44.96999645" lon="-72.24981394">
    <tag k="addr:city" v="Newport Town"/>
    <tag k="addr:housenumber" v="164"/>
    <tag k="addr:street" v="Leadville Road"/>
    <tag k="addr:state" v="VT"/>
    <tag k="ref:vcgi:esiteid" v="178169"/>
  </node>
  <node id="-235" visible="true" lat="44.96946492" lon="-72.2533205">
    <tag k="addr:city" v="Newport Town"/>
    <tag k="addr:housenumber" v="243"/>
    <tag k="addr:street" v="Leadville Road"/>
    <tag k="addr:state" v="VT"/>
    <tag k="ref:vcgi:esiteid" v="178170"/>
  </node>
  <node id="-237" visible="true" lat="44.96829223" lon="-72.24924258">
    <tag k="addr:city" v="Newport Town"/>
    <tag k="addr:housenumber" v="107"/>
    <tag k="addr:street" v="Leadville Road"/>
    <tag k="addr:state" v="VT"/>
    <tag k="ref:vcgi:esiteid" v="178172"/>
  </node>
  <node id="-240" visible="true" lat="44.9678749" lon="-72.24825154">
    <tag k="addr:city" v="Newport Town"/>
    <tag k="addr:housenumber" v="3569"/>
    <tag k="addr:street" v="Lake Road"/>
    <tag k="addr:state" v="VT"/>
    <tag k="ref:vcgi:esiteid" v="178175"/>
  </node>
  <node id="-241" visible="true" lat="44.96764799" lon="-72.24861563">
    <tag k="addr:city" v="Newport Town"/>
    <tag k="addr:housenumber" v="3571"/>
    <tag k="addr:street" v="Lake Road"/>
    <tag k="addr:state" v="VT"/>
    <tag k="ref:vcgi:esiteid" v="178176"/>
  </node>
  <node id="-244" visible="true" lat="44.96648043" lon="-72.24600068">
    <tag k="addr:city" v="Newport Town"/>
    <tag k="addr:housenumber" v="3464"/>
    <tag k="addr:street" v="Lake Road"/>
    <tag k="addr:state" v="VT"/>
    <tag k="ref:vcgi:esiteid" v="178179"/>
  </node>
  <node id="-246" visible="true" lat="44.96610822" lon="-72.24947648">
    <tag k="addr:city" v="Newport Town"/>
    <tag k="addr:housenumber" v="3461"/>
    <tag k="addr:street" v="Lake Road"/>
    <tag k="addr:state" v="VT"/>
    <tag k="ref:vcgi:esiteid" v="178181"/>
  </node>
  <node id="-248" visible="true" lat="44.96471405" lon="-72.24507141">
    <tag k="addr:city" v="Newport Town"/>
    <tag k="addr:housenumber" v="3286"/>
    <tag k="addr:street" v="Lake Road"/>
    <tag k="addr:state" v="VT"/>
    <tag k="ref:vcgi:esiteid" v="178183"/>
  </node>
  <node id="-250" visible="true" lat="44.96386294" lon="-72.24418753">
    <tag k="addr:city" v="Newport Town"/>
    <tag k="addr:housenumber" v="361"/>
    <tag k="addr:street" v="Holbrook Bay Commons"/>
    <tag k="addr:state" v="VT"/>
    <tag k="ref:vcgi:esiteid" v="178185"/>
  </node>
  <node id="-251" visible="true" lat="44.96376219" lon="-72.2436148">
    <tag k="addr:city" v="Newport Town"/>
    <tag k="addr:housenumber" v="383"/>
    <tag k="addr:street" v="Holbrook Bay Commons"/>
    <tag k="addr:state" v="VT"/>
    <tag k="ref:vcgi:esiteid" v="178186"/>
  </node>
  <node id="-252" visible="true" lat="44.96337241" lon="-72.24319621">
    <tag k="addr:city" v="Newport Town"/>
    <tag k="addr:housenumber" v="399"/>
    <tag k="addr:street" v="Holbrook Bay Commons"/>
    <tag k="addr:state" v="VT"/>
    <tag k="ref:vcgi:esiteid" v="178187"/>
  </node>
  <node id="-254" visible="true" lat="44.96297873" lon="-72.24719331">
    <tag k="addr:city" v="Newport Town"/>
    <tag k="addr:housenumber" v="3245"/>
    <tag k="addr:street" v="Lake Road"/>
    <tag k="addr:state" v="VT"/>
    <tag k="ref:vcgi:esiteid" v="178189"/>
  </node>
  <node id="-258" visible="true" lat="44.96289249" lon="-72.24290539">
    <tag k="addr:city" v="Newport Town"/>
    <tag k="addr:housenumber" v="244"/>
    <tag k="addr:street" v="Holbrook Bay Commons"/>
    <tag k="addr:state" v="VT"/>
    <tag k="ref:vcgi:esiteid" v="178193"/>
  </node>
  <node id="-259" visible="true" lat="44.96281841" lon="-72.25265176">
    <tag k="addr:city" v="Newport Town"/>
    <tag k="addr:housenumber" v="161"/>
    <tag k="addr:street" v="Royea Drive"/>
    <tag k="addr:state" v="VT"/>
    <tag k="ref:vcgi:esiteid" v="178194"/>
  </node>
  <node id="-261" visible="true" lat="44.96288912" lon="-72.25488317">
    <tag k="addr:city" v="Newport Town"/>
    <tag k="addr:housenumber" v="164"/>
    <tag k="addr:street" v="Morningside Drive"/>
    <tag k="addr:state" v="VT"/>
    <tag k="ref:vcgi:esiteid" v="178196"/>
  </node>
  <node id="-263" visible="true" lat="44.96276832" lon="-72.24976185">
    <tag k="addr:city" v="Newport Town"/>
    <tag k="addr:housenumber" v="152"/>
    <tag k="addr:street" v="Sunrise Drive"/>
    <tag k="addr:state" v="VT"/>
    <tag k="ref:vcgi:esiteid" v="178198"/>
  </node>
  <node id="-264" visible="true" lat="44.96253309" lon="-72.2771722">
    <tag k="addr:city" v="Newport Town"/>
    <tag k="addr:housenumber" v="1681"/>
    <tag k="addr:street" v="Vance Hill Road"/>
    <tag k="addr:state" v="VT"/>
    <tag k="ref:vcgi:esiteid" v="178199"/>
  </node>
  <node id="-266" visible="true" lat="44.96228251" lon="-72.25583">
    <tag k="addr:city" v="Newport Town"/>
    <tag k="addr:housenumber" v="127"/>
    <tag k="addr:street" v="Morningside Drive"/>
    <tag k="addr:state" v="VT"/>
    <tag k="ref:vcgi:esiteid" v="178201"/>
  </node>
  <node id="-268" visible="true" lat="44.96223106" lon="-72.25061095">
    <tag k="addr:city" v="Newport Town"/>
    <tag k="addr:housenumber" v="111"/>
    <tag k="addr:street" v="Sunrise Drive"/>
    <tag k="addr:state" v="VT"/>
    <tag k="ref:vcgi:esiteid" v="178203"/>
  </node>
  <node id="-269" visible="true" lat="44.96214642" lon="-72.27516043">
    <tag k="addr:city" v="Newport Town"/>
    <tag k="addr:housenumber" v="1747"/>
    <tag k="addr:street" v="Vance Hill Road"/>
    <tag k="addr:state" v="VT"/>
    <tag k="ref:vcgi:esiteid" v="178204"/>
  </node>
  <node id="-270" visible="true" lat="44.96166281" lon="-72.2504399">
    <tag k="addr:city" v="Newport Town"/>
    <tag k="addr:housenumber" v="93"/>
    <tag k="addr:street" v="Sunrise Drive"/>
    <tag k="addr:state" v="VT"/>
    <tag k="ref:vcgi:esiteid" v="178205"/>
  </node>
  <node id="-271" visible="true" lat="44.96160349" lon="-72.25615518">
    <tag k="addr:city" v="Newport Town"/>
    <tag k="addr:housenumber" v="95"/>
    <tag k="addr:street" v="Morningside Drive"/>
    <tag k="addr:state" v="VT"/>
    <tag k="ref:vcgi:esiteid" v="178206"/>
  </node>
  <node id="-273" visible="true" lat="44.96152423" lon="-72.24627688">
    <tag k="addr:city" v="Newport Town"/>
    <tag k="addr:housenumber" v="3117"/>
    <tag k="addr:street" v="Lake Road"/>
    <tag k="addr:state" v="VT"/>
    <tag k="ref:vcgi:esiteid" v="178208"/>
  </node>
  <node id="-274" visible="true" lat="44.96167079" lon="-72.28281638">
    <tag k="addr:city" v="Newport Town"/>
    <tag k="addr:housenumber" v="1395"/>
    <tag k="addr:street" v="Vance Hill Road"/>
    <tag k="addr:state" v="VT"/>
    <tag k="ref:vcgi:esiteid" v="178209"/>
  </node>
  <node id="-276" visible="true" lat="44.96113467" lon="-72.25096774">
    <tag k="addr:city" v="Newport Town"/>
    <tag k="addr:housenumber" v="61"/>
    <tag k="addr:street" v="Sunrise Drive"/>
    <tag k="addr:state" v="VT"/>
    <tag k="ref:vcgi:esiteid" v="178211"/>
  </node>
  <node id="-277" visible="true" lat="44.96126937" lon="-72.25188446">
    <tag k="addr:city" v="Newport Town"/>
    <tag k="addr:housenumber" v="52"/>
    <tag k="addr:street" v="Royea Drive"/>
    <tag k="addr:state" v="VT"/>
    <tag k="ref:vcgi:esiteid" v="178212"/>
  </node>
  <node id="-280" visible="true" lat="44.96092904" lon="-72.24560718">
    <tag k="addr:city" v="Newport Town"/>
    <tag k="addr:housenumber" v="3277"/>
    <tag k="addr:street" v="Vance Hill Road"/>
    <tag k="addr:state" v="VT"/>
    <tag k="ref:vcgi:esiteid" v="178215"/>
  </node>
  <node id="-283" visible="true" lat="44.96067428" lon="-72.25632476">
    <tag k="addr:city" v="Newport Town"/>
    <tag k="addr:housenumber" v="9"/>
    <tag k="addr:street" v="Morningside Drive"/>
    <tag k="addr:state" v="VT"/>
    <tag k="ref:vcgi:esiteid" v="178218"/>
  </node>
  <node id="-284" visible="true" lat="44.96059243" lon="-72.25402467">
    <tag k="addr:city" v="Newport Town"/>
    <tag k="addr:housenumber" v="2891"/>
    <tag k="addr:street" v="Vance Hill Road"/>
    <tag k="addr:state" v="VT"/>
    <tag k="ref:vcgi:esiteid" v="178219"/>
  </node>
  <node id="-285" visible="true" lat="44.96073977" lon="-72.24847243">
    <tag k="addr:city" v="Newport Town"/>
    <tag k="addr:housenumber" v="3133"/>
    <tag k="addr:street" v="Vance Hill Road"/>
    <tag k="addr:state" v="VT"/>
    <tag k="ref:vcgi:esiteid" v="178220"/>
  </node>
  <node id="-287" visible="true" lat="44.9604845" lon="-72.25826371">
    <tag k="addr:city" v="Newport Town"/>
    <tag k="addr:housenumber" v="2639"/>
    <tag k="addr:street" v="Vance Hill Road"/>
    <tag k="addr:state" v="VT"/>
    <tag k="ref:vcgi:esiteid" v="178222"/>
  </node>
  <node id="-289" visible="true" lat="44.96005546" lon="-72.28635085">
    <tag k="addr:city" v="Newport Town"/>
    <tag k="addr:housenumber" v="1185"/>
    <tag k="addr:street" v="Vance Hill Road"/>
    <tag k="addr:state" v="VT"/>
    <tag k="ref:vcgi:esiteid" v="178224"/>
  </node>
  <node id="-290" visible="true" lat="44.95976857" lon="-72.25630124">
    <tag k="addr:city" v="Newport Town"/>
    <tag k="addr:housenumber" v="2750"/>
    <tag k="addr:street" v="Vance Hill Road"/>
    <tag k="addr:state" v="VT"/>
    <tag k="ref:vcgi:esiteid" v="178225"/>
  </node>
  <node id="-291" visible="true" lat="44.95984106" lon="-72.25274395">
    <tag k="addr:city" v="Newport Town"/>
    <tag k="addr:housenumber" v="2906"/>
    <tag k="addr:street" v="Vance Hill Road"/>
    <tag k="addr:state" v="VT"/>
    <tag k="ref:vcgi:esiteid" v="178226"/>
  </node>
  <node id="-292" visible="true" lat="44.95971679" lon="-72.25430297">
    <tag k="addr:city" v="Newport Town"/>
    <tag k="addr:housenumber" v="44"/>
    <tag k="addr:street" v="Kimberly Lane"/>
    <tag k="addr:state" v="VT"/>
    <tag k="ref:vcgi:esiteid" v="178227"/>
  </node>
  <node id="-293" visible="true" lat="44.9595298" lon="-72.28536486">
    <tag k="addr:city" v="Newport Town"/>
    <tag k="addr:housenumber" v="1206"/>
    <tag k="addr:street" v="Vance Hill Road"/>
    <tag k="addr:state" v="VT"/>
    <tag k="ref:vcgi:esiteid" v="178228"/>
  </node>
  <node id="-295" visible="true" lat="44.95959332" lon="-72.25369377">
    <tag k="addr:city" v="Newport Town"/>
    <tag k="addr:housenumber" v="49"/>
    <tag k="addr:street" v="Kimberly Lane"/>
    <tag k="addr:state" v="VT"/>
    <tag k="ref:vcgi:esiteid" v="178230"/>
  </node>
  <node id="-296" visible="true" lat="44.95964474" lon="-72.28782783">
    <tag k="addr:city" v="Newport Town"/>
    <tag k="addr:housenumber" v="1099"/>
    <tag k="addr:street" v="Vance Hill Road"/>
    <tag k="addr:state" v="VT"/>
    <tag k="ref:vcgi:esiteid" v="178231"/>
  </node>
  <node id="-297" visible="true" lat="44.95952224" lon="-72.25131225">
    <tag k="addr:city" v="Newport Town"/>
    <tag k="addr:housenumber" v="3004"/>
    <tag k="addr:street" v="Vance Hill Road"/>
    <tag k="addr:state" v="VT"/>
    <tag k="ref:vcgi:esiteid" v="178232"/>
  </node>
  <node id="-299" visible="true" lat="44.95905495" lon="-72.25831048">
    <tag k="addr:city" v="Newport Town"/>
    <tag k="addr:housenumber" v="2664"/>
    <tag k="addr:street" v="Vance Hill Road"/>
    <tag k="addr:state" v="VT"/>
    <tag k="ref:vcgi:esiteid" v="178234"/>
  </node>
  <node id="-300" visible="true" lat="44.95917881" lon="-72.2696809">
    <tag k="addr:city" v="Newport Town"/>
    <tag k="addr:housenumber" v="64"/>
    <tag k="addr:street" v="Gibbs Road"/>
    <tag k="addr:state" v="VT"/>
    <tag k="ref:vcgi:esiteid" v="178235"/>
  </node>
  <node id="-301" visible="true" lat="44.95931596" lon="-72.25761333">
    <tag k="addr:city" v="Newport Town"/>
    <tag k="addr:housenumber" v="2662"/>
    <tag k="addr:street" v="Vance Hill Road"/>
    <tag k="addr:state" v="VT"/>
    <tag k="ref:vcgi:esiteid" v="178236"/>
  </node>
  <node id="-302" visible="true" lat="44.9592216" lon="-72.26848352">
    <tag k="addr:city" v="Newport Town"/>
    <tag k="addr:housenumber" v="99"/>
    <tag k="addr:street" v="Gibbs Road"/>
    <tag k="addr:state" v="VT"/>
    <tag k="ref:vcgi:esiteid" v="178237"/>
  </node>
  <node id="-303" visible="true" lat="44.95912219" lon="-72.25463655">
    <tag k="addr:city" v="Newport Town"/>
    <tag k="addr:housenumber" v="84"/>
    <tag k="addr:street" v="Kimberly Lane"/>
    <tag k="addr:state" v="VT"/>
    <tag k="ref:vcgi:esiteid" v="178238"/>
  </node>
  <node id="-305" visible="true" lat="44.95889492" lon="-72.28859214">
    <tag k="addr:city" v="Newport Town"/>
    <tag k="addr:housenumber" v="1049"/>
    <tag k="addr:street" v="Vance Hill Road"/>
    <tag k="addr:state" v="VT"/>
    <tag k="ref:vcgi:esiteid" v="178240"/>
  </node>
  <node id="-307" visible="true" lat="44.95846273" lon="-72.25439188">
    <tag k="addr:city" v="Newport Town"/>
    <tag k="addr:housenumber" v="128"/>
    <tag k="addr:street" v="Kimberly Lane"/>
    <tag k="addr:state" v="VT"/>
    <tag k="ref:vcgi:esiteid" v="178242"/>
  </node>
  <node id="-308" visible="true" lat="44.95872162" lon="-72.28931178">
    <tag k="addr:city" v="Newport Town"/>
    <tag k="addr:housenumber" v="1005"/>
    <tag k="addr:street" v="Vance Hill Road"/>
    <tag k="addr:state" v="VT"/>
    <tag k="ref:vcgi:esiteid" v="178243"/>
  </node>
  <node id="-309" visible="true" lat="44.95823117" lon="-72.29022483">
    <tag k="addr:city" v="Newport Town"/>
    <tag k="addr:housenumber" v="955"/>
    <tag k="addr:street" v="Vance Hill Road"/>
    <tag k="addr:state" v="VT"/>
    <tag k="ref:vcgi:esiteid" v="178244"/>
  </node>
  <node id="-310" visible="true" lat="44.95801172" lon="-72.25437511">
    <tag k="addr:city" v="Newport Town"/>
    <tag k="addr:housenumber" v="154"/>
    <tag k="addr:street" v="Kimberly Lane"/>
    <tag k="addr:state" v="VT"/>
    <tag k="ref:vcgi:esiteid" v="178245"/>
  </node>
  <node id="-312" visible="true" lat="44.9580574" lon="-72.29113769">
    <tag k="addr:city" v="Newport Town"/>
    <tag k="addr:housenumber" v="911"/>
    <tag k="addr:street" v="Vance Hill Road"/>
    <tag k="addr:state" v="VT"/>
    <tag k="ref:vcgi:esiteid" v="178247"/>
  </node>
  <node id="-315" visible="true" lat="44.95791221" lon="-72.25674771">
    <tag k="addr:city" v="Newport Town"/>
    <tag k="addr:housenumber" v="2618"/>
    <tag k="addr:street" v="Vance Hill Road"/>
    <tag k="addr:state" v="VT"/>
    <tag k="ref:vcgi:esiteid" v="178250"/>
  </node>
  <node id="-319" visible="true" lat="44.95719718" lon="-72.26905203">
    <tag k="addr:city" v="Newport Town"/>
    <tag k="addr:housenumber" v="228"/>
    <tag k="addr:street" v="Gibbs Road"/>
    <tag k="addr:state" v="VT"/>
    <tag k="ref:vcgi:esiteid" v="178254"/>
  </node>
  <node id="-321" visible="true" lat="44.95715331" lon="-72.29340362">
    <tag k="addr:city" v="Newport Town"/>
    <tag k="addr:housenumber" v="783"/>
    <tag k="addr:street" v="Vance Hill Road"/>
    <tag k="addr:state" v="VT"/>
    <tag k="ref:vcgi:esiteid" v="178256"/>
  </node>
  <node id="-322" visible="true" lat="44.95682525" lon="-72.2967987">
    <tag k="addr:city" v="Newport Town"/>
    <tag k="addr:housenumber" v="133"/>
    <tag k="addr:street" v="Armstrong Road"/>
    <tag k="addr:state" v="VT"/>
    <tag k="ref:vcgi:esiteid" v="178257"/>
  </node>
  <node id="-324" visible="true" lat="44.95652715" lon="-72.26862171">
    <tag k="addr:city" v="Newport Town"/>
    <tag k="addr:housenumber" v="272"/>
    <tag k="addr:street" v="Gibbs Road"/>
    <tag k="addr:state" v="VT"/>
    <tag k="ref:vcgi:esiteid" v="178259"/>
  </node>
  <node id="-325" visible="true" lat="44.95684741" lon="-72.25935128">
    <tag k="addr:city" v="Newport Town"/>
    <tag k="addr:housenumber" v="339"/>
    <tag k="addr:street" v="Gage Road"/>
    <tag k="addr:state" v="VT"/>
    <tag k="ref:vcgi:esiteid" v="178260"/>
  </node>
  <node id="-328" visible="true" lat="44.95648138" lon="-72.26196387">
    <tag k="addr:city" v="Newport Town"/>
    <tag k="addr:housenumber" v="288"/>
    <tag k="addr:street" v="Gage Road"/>
    <tag k="addr:state" v="VT"/>
    <tag k="ref:vcgi:esiteid" v="178263"/>
  </node>
  <node id="-329" visible="true" lat="44.956501" lon="-72.29371643">
    <tag k="addr:city" v="Newport Town"/>
    <tag k="addr:housenumber" v="745"/>
    <tag k="addr:street" v="Vance Hill Road"/>
    <tag k="addr:state" v="VT"/>
    <tag k="ref:vcgi:esiteid" v="178264"/>
  </node>
  <node id="-336" visible="true" lat="44.95584899" lon="-72.26577671">
    <tag k="addr:city" v="Newport Town"/>
    <tag k="addr:housenumber" v="383"/>
    <tag k="addr:street" v="Gibbs Road"/>
    <tag k="addr:state" v="VT"/>
    <tag k="ref:vcgi:esiteid" v="178271"/>
  </node>
  <node id="-340" visible="true" lat="44.95560323" lon="-72.25892337">
    <tag k="addr:city" v="Newport Town"/>
    <tag k="addr:housenumber" v="330"/>
    <tag k="addr:street" v="Gage Road"/>
    <tag k="addr:state" v="VT"/>
    <tag k="ref:vcgi:esiteid" v="178275"/>
  </node>
  <node id="-348" visible="true" lat="44.95519256" lon="-72.29673767">
    <tag k="addr:city" v="Newport Town"/>
    <tag k="addr:housenumber" v="571"/>
    <tag k="addr:street" v="Vance Hill Road"/>
    <tag k="addr:state" v="VT"/>
    <tag k="ref:vcgi:esiteid" v="178284"/>
  </node>
  <node id="-352" visible="true" lat="44.95455169" lon="-72.29707336">
    <tag k="addr:city" v="Newport Town"/>
    <tag k="addr:housenumber" v="532"/>
    <tag k="addr:street" v="Vance Hill Road"/>
    <tag k="addr:state" v="VT"/>
    <tag k="ref:vcgi:esiteid" v="178288"/>
  </node>
  <node id="-359" visible="true" lat="44.95394897" lon="-72.30737304">
    <tag k="addr:city" v="Newport Town"/>
    <tag k="addr:housenumber" v="93"/>
    <tag k="addr:street" v="Lawson Road"/>
    <tag k="addr:state" v="VT"/>
    <tag k="ref:vcgi:esiteid" v="178295"/>
  </node>
  <node id="-364" visible="true" lat="44.95361613" lon="-72.30728367">
    <tag k="addr:city" v="Newport Town"/>
    <tag k="addr:housenumber" v="39"/>
    <tag k="addr:street" v="Lawson Road"/>
    <tag k="addr:state" v="VT"/>
    <tag k="ref:vcgi:esiteid" v="178300"/>
  </node>
  <node id="-366" visible="true" lat="44.95365544" lon="-72.30072425">
    <tag k="addr:city" v="Newport Town"/>
    <tag k="addr:housenumber" v="345"/>
    <tag k="addr:street" v="Vance Hill Road"/>
    <tag k="addr:state" v="VT"/>
    <tag k="ref:vcgi:esiteid" v="178302"/>
  </node>
  <node id="-367" visible="true" lat="44.9534378" lon="-72.30174255">
    <tag k="addr:city" v="Newport Town"/>
    <tag k="addr:housenumber" v="297"/>
    <tag k="addr:street" v="Vance Hill Road"/>
    <tag k="addr:state" v="VT"/>
    <tag k="ref:vcgi:esiteid" v="178303"/>
  </node>
  <node id="-368" visible="true" lat="44.95346924" lon="-72.30125411">
    <tag k="addr:city" v="Newport Town"/>
    <tag k="addr:housenumber" v="317"/>
    <tag k="addr:street" v="Vance Hill Road"/>
    <tag k="addr:state" v="VT"/>
    <tag k="ref:vcgi:esiteid" v="178304"/>
  </node>
  <node id="-369" visible="true" lat="44.95353679" lon="-72.30788326">
    <tag k="addr:city" v="Newport Town"/>
    <tag k="addr:housenumber" v="13"/>
    <tag k="addr:street" v="Lawson Road"/>
    <tag k="addr:state" v="VT"/>
    <tag k="ref:vcgi:esiteid" v="178305"/>
  </node>
  <node id="-377" visible="true" lat="44.9530487" lon="-72.30220031">
    <tag k="addr:city" v="Newport Town"/>
    <tag k="addr:housenumber" v="265"/>
    <tag k="addr:street" v="Vance Hill Road"/>
    <tag k="addr:state" v="VT"/>
    <tag k="ref:vcgi:esiteid" v="178313"/>
  </node>
  <node id="-378" visible="true" lat="44.95258898" lon="-72.30154402">
    <tag k="addr:city" v="Newport Town"/>
    <tag k="addr:housenumber" v="272"/>
    <tag k="addr:street" v="Vance Hill Road"/>
    <tag k="addr:state" v="VT"/>
    <tag k="ref:vcgi:esiteid" v="178315"/>
  </node>
  <node id="-381" visible="true" lat="44.9527135" lon="-72.30259901">
    <tag k="addr:city" v="Newport Town"/>
    <tag k="addr:housenumber" v="235"/>
    <tag k="addr:street" v="Vance Hill Road"/>
    <tag k="addr:state" v="VT"/>
    <tag k="ref:vcgi:esiteid" v="178318"/>
  </node>
  <node id="-383" visible="true" lat="44.95239876" lon="-72.30230183">
    <tag k="addr:city" v="Newport Town"/>
    <tag k="addr:housenumber" v="236"/>
    <tag k="addr:street" v="Vance Hill Road"/>
    <tag k="addr:state" v="VT"/>
    <tag k="ref:vcgi:esiteid" v="178320"/>
  </node>
  <node id="-384" visible="true" lat="44.95248424" lon="-72.30446994">
    <tag k="addr:city" v="Newport Town"/>
    <tag k="addr:housenumber" v="46"/>
    <tag k="addr:street" v="Westover Drive"/>
    <tag k="addr:state" v="VT"/>
    <tag k="ref:vcgi:esiteid" v="178321"/>
  </node>
  <node id="-386" visible="true" lat="44.95226136" lon="-72.30263017">
    <tag k="addr:city" v="Newport Town"/>
    <tag k="addr:housenumber" v="216"/>
    <tag k="addr:street" v="Vance Hill Road"/>
    <tag k="addr:state" v="VT"/>
    <tag k="ref:vcgi:esiteid" v="178323"/>
  </node>
  <node id="-387" visible="true" lat="44.95248901" lon="-72.30331834">
    <tag k="addr:city" v="Newport Town"/>
    <tag k="addr:housenumber" v="199"/>
    <tag k="addr:street" v="Vance Hill Road"/>
    <tag k="addr:state" v="VT"/>
    <tag k="ref:vcgi:esiteid" v="178324"/>
  </node>
  <node id="-388" visible="true" lat="44.95213852" lon="-72.3028929">
    <tag k="addr:city" v="Newport Town"/>
    <tag k="addr:housenumber" v="206"/>
    <tag k="addr:street" v="Vance Hill Road"/>
    <tag k="addr:state" v="VT"/>
    <tag k="ref:vcgi:esiteid" v="178325"/>
  </node>
  <node id="-389" visible="true" lat="44.95225143" lon="-72.30486297">
    <tag k="addr:city" v="Newport Town"/>
    <tag k="addr:housenumber" v="33"/>
    <tag k="addr:street" v="Westover Drive"/>
    <tag k="addr:state" v="VT"/>
    <tag k="ref:vcgi:esiteid" v="178326"/>
  </node>
  <node id="-392" visible="true" lat="44.95219627" lon="-72.30380051">
    <tag k="addr:city" v="Newport Town"/>
    <tag k="addr:housenumber" v="173"/>
    <tag k="addr:street" v="Vance Hill Road"/>
    <tag k="addr:state" v="VT"/>
    <tag k="ref:vcgi:esiteid" v="178329"/>
  </node>
  <node id="-394" visible="true" lat="44.95203781" lon="-72.30323028">
    <tag k="addr:city" v="Newport Town"/>
    <tag k="addr:housenumber" v="186"/>
    <tag k="addr:street" v="Vance Hill Road"/>
    <tag k="addr:state" v="VT"/>
    <tag k="ref:vcgi:esiteid" v="178331"/>
  </node>
  <node id="-398" visible="true" lat="44.95199388" lon="-72.30414235">
    <tag k="addr:city" v="Newport Town"/>
    <tag k="addr:housenumber" v="143"/>
    <tag k="addr:street" v="Vance Hill Road"/>
    <tag k="addr:state" v="VT"/>
    <tag k="ref:vcgi:esiteid" v="178335"/>
  </node>
  <node id="-399" visible="true" lat="44.95184449" lon="-72.30452563">
    <tag k="addr:city" v="Newport Town"/>
    <tag k="addr:housenumber" v="9"/>
    <tag k="addr:street" v="Westover Drive"/>
    <tag k="addr:state" v="VT"/>
    <tag k="ref:vcgi:esiteid" v="178336"/>
  </node>
  <node id="-400" visible="true" lat="44.9518861" lon="-72.30353614">
    <tag k="addr:city" v="Newport Town"/>
    <tag k="addr:housenumber" v="162"/>
    <tag k="addr:street" v="Vance Hill Road"/>
    <tag k="addr:state" v="VT"/>
    <tag k="ref:vcgi:esiteid" v="178337"/>
  </node>
  <node id="-404" visible="true" lat="44.95156006" lon="-72.30420359">
    <tag k="addr:city" v="Newport Town"/>
    <tag k="addr:housenumber" v="128"/>
    <tag k="addr:street" v="Vance Hill Road"/>
    <tag k="addr:state" v="VT"/>
    <tag k="ref:vcgi:esiteid" v="178342"/>
  </node>
  <node id="-406" visible="true" lat="44.95169138" lon="-72.30485376">
    <tag k="addr:city" v="Newport Town"/>
    <tag k="addr:housenumber" v="103"/>
    <tag k="addr:street" v="Vance Hill Road"/>
    <tag k="addr:state" v="VT"/>
    <tag k="ref:vcgi:esiteid" v="178344"/>
  </node>
  <node id="-408" visible="true" lat="44.95155253" lon="-72.30511232">
    <tag k="addr:city" v="Newport Town"/>
    <tag k="addr:housenumber" v="91"/>
    <tag k="addr:street" v="Vance Hill Road"/>
    <tag k="addr:state" v="VT"/>
    <tag k="ref:vcgi:esiteid" v="178346"/>
  </node>
  <node id="-409" visible="true" lat="44.9514753" lon="-72.30529215">
    <tag k="addr:city" v="Newport Town"/>
    <tag k="addr:housenumber" v="75"/>
    <tag k="addr:street" v="Vance Hill Road"/>
    <tag k="addr:state" v="VT"/>
    <tag k="ref:vcgi:esiteid" v="178347"/>
  </node>
  <node id="-410" visible="true" lat="44.95132643" lon="-72.30464091">
    <tag k="addr:city" v="Newport Town"/>
    <tag k="addr:housenumber" v="102"/>
    <tag k="addr:street" v="Vance Hill Road"/>
    <tag k="addr:state" v="VT"/>
    <tag k="ref:vcgi:esiteid" v="178348"/>
  </node>
  <node id="-416" visible="true" lat="44.95115215" lon="-72.30594237">
    <tag k="addr:city" v="Newport Town"/>
    <tag k="addr:housenumber" v="33"/>
    <tag k="addr:street" v="Vance Hill Road"/>
    <tag k="addr:state" v="VT"/>
    <tag k="ref:vcgi:esiteid" v="178355"/>
  </node>
  <node id="-417" visible="true" lat="44.95091017" lon="-72.30563086">
    <tag k="addr:city" v="Newport Town"/>
    <tag k="addr:housenumber" v="46"/>
    <tag k="addr:street" v="Vance Hill Road"/>
    <tag k="addr:state" v="VT"/>
    <tag k="ref:vcgi:esiteid" v="178356"/>
  </node>
  <node id="-422" visible="true" lat="44.95087051" lon="-72.30640411">
    <tag k="addr:city" v="Newport Town"/>
    <tag k="addr:housenumber" v="11"/>
    <tag k="addr:street" v="Vance Hill Road"/>
    <tag k="addr:state" v="VT"/>
    <tag k="ref:vcgi:esiteid" v="178361"/>
  </node>
  <node id="-428" visible="true" lat="44.9506589" lon="-72.30726358">
    <tag k="addr:city" v="Newport Town"/>
    <tag k="addr:housenumber" v="36"/>
    <tag k="addr:street" v="Cross Road"/>
    <tag k="addr:state" v="VT"/>
    <tag k="ref:vcgi:esiteid" v="178368"/>
  </node>
  <node id="-431" visible="true" lat="44.95051956" lon="-72.30806732">
    <tag k="addr:city" v="Newport Town"/>
    <tag k="addr:housenumber" v="64"/>
    <tag k="addr:street" v="Cross Road"/>
    <tag k="addr:state" v="VT"/>
    <tag k="ref:vcgi:esiteid" v="178371"/>
  </node>
  <node id="-433" visible="true" lat="44.9503416" lon="-72.30694123">
    <tag k="addr:city" v="Newport Town"/>
    <tag k="addr:housenumber" v="27"/>
    <tag k="addr:street" v="Cross Road"/>
    <tag k="addr:state" v="VT"/>
    <tag k="ref:vcgi:esiteid" v="178374"/>
  </node>
  <node id="-438" visible="true" lat="44.95030038" lon="-72.30790467">
    <tag k="addr:city" v="Newport Town"/>
    <tag k="addr:housenumber" v="68"/>
    <tag k="addr:street" v="Cross Road"/>
    <tag k="addr:state" v="VT"/>
    <tag k="ref:vcgi:esiteid" v="178379"/>
  </node>
  <node id="-439" visible="true" lat="44.9501094" lon="-72.27027508">
    <tag k="addr:city" v="Newport Town"/>
    <tag k="addr:housenumber" v="843"/>
    <tag k="addr:street" v="Gibbs Road"/>
    <tag k="addr:state" v="VT"/>
    <tag k="ref:vcgi:esiteid" v="178380"/>
  </node>
  <node id="-440" visible="true" lat="44.95049841" lon="-72.30764444">
    <tag k="addr:city" v="Newport Town"/>
    <tag k="addr:housenumber" v="58"/>
    <tag k="addr:street" v="Cross Road"/>
    <tag k="addr:state" v="VT"/>
    <tag k="ref:vcgi:esiteid" v="178381"/>
  </node>
  <node id="-442" visible="true" lat="44.9502119" lon="-72.30729699">
    <tag k="addr:city" v="Newport Town"/>
    <tag k="addr:housenumber" v="47"/>
    <tag k="addr:street" v="Cross Road"/>
    <tag k="addr:state" v="VT"/>
    <tag k="ref:vcgi:esiteid" v="178383"/>
  </node>
  <node id="-445" visible="true" lat="44.95006652" lon="-72.30771979">
    <tag k="addr:city" v="Newport Town"/>
    <tag k="addr:housenumber" v="65"/>
    <tag k="addr:street" v="Cross Road"/>
    <tag k="addr:state" v="VT"/>
    <tag k="ref:vcgi:esiteid" v="178386"/>
  </node>
  <node id="-457" visible="true" lat="44.9493795" lon="-72.30817223">
    <tag k="addr:city" v="Newport Town"/>
    <tag k="addr:housenumber" v="109"/>
    <tag k="addr:street" v="Cross Road"/>
    <tag k="addr:state" v="VT"/>
    <tag k="ref:vcgi:esiteid" v="178398"/>
  </node>
  <node id="-463" visible="true" lat="44.94902892" lon="-72.30840935">
    <tag k="addr:city" v="Newport Town"/>
    <tag k="addr:housenumber" v="159"/>
    <tag k="addr:street" v="Cross Road"/>
    <tag k="addr:state" v="VT"/>
    <tag k="ref:vcgi:esiteid" v="178404"/>
  </node>
  <node id="-469" visible="true" lat="44.94857889" lon="-72.31055113">
    <tag k="addr:city" v="Newport Town"/>
    <tag k="addr:housenumber" v="74"/>
    <tag k="addr:street" v="Bergeron Hill"/>
    <tag k="addr:state" v="VT"/>
    <tag k="ref:vcgi:esiteid" v="178410"/>
  </node>
  <node id="-488" visible="true" lat="44.94585588" lon="-72.27810717">
    <tag k="addr:city" v="Newport Town"/>
    <tag k="addr:housenumber" v="1523"/>
    <tag k="addr:street" v="Gibbs Road"/>
    <tag k="addr:state" v="VT"/>
    <tag k="ref:vcgi:esiteid" v="178429"/>
  </node>
  <node id="-490" visible="true" lat="44.94532394" lon="-72.28017425">
    <tag k="addr:city" v="Newport Town"/>
    <tag k="addr:housenumber" v="1594"/>
    <tag k="addr:street" v="Gibbs Road"/>
    <tag k="addr:state" v="VT"/>
    <tag k="ref:vcgi:esiteid" v="178431"/>
  </node>
  <node id="-493" visible="true" lat="44.94422378" lon="-72.28021285">
    <tag k="addr:city" v="Newport Town"/>
    <tag k="addr:housenumber" v="1596"/>
    <tag k="addr:street" v="Gibbs Road"/>
    <tag k="addr:state" v="VT"/>
    <tag k="ref:vcgi:esiteid" v="178434"/>
  </node>
  <node id="-739" visible="true" lat="44.95181845" lon="-72.27555733">
    <tag k="addr:city" v="Newport Town"/>
    <tag k="addr:housenumber" v="1086"/>
    <tag k="addr:street" v="Gibbs Road"/>
    <tag k="addr:state" v="VT"/>
    <tag k="ref:vcgi:esiteid" v="178682"/>
  </node>
  <node id="-740" visible="true" lat="44.94892035" lon="-72.31000929">
    <tag k="addr:city" v="Newport Town"/>
    <tag k="addr:housenumber" v="28"/>
    <tag k="addr:street" v="Bergeron Hill"/>
    <tag k="addr:state" v="VT"/>
    <tag k="ref:vcgi:esiteid" v="178683"/>
  </node>
  <node id="-741" visible="true" lat="44.95424501" lon="-72.30761913">
    <tag k="addr:city" v="Newport Town"/>
    <tag k="addr:housenumber" v="107"/>
    <tag k="addr:street" v="Lawson Road"/>
    <tag k="addr:state" v="VT"/>
    <tag k="ref:vcgi:esiteid" v="178684"/>
  </node>
  <node id="-742" visible="true" lat="44.95493135" lon="-72.26098692">
    <tag k="addr:city" v="Newport Town"/>
    <tag k="addr:housenumber" v="322"/>
    <tag k="addr:street" v="Gage Road"/>
    <tag k="addr:state" v="VT"/>
    <tag k="ref:vcgi:esiteid" v="178685"/>
  </node>
  <node id="-769" visible="true" lat="44.95249557" lon="-72.30428314">
    <tag k="addr:city" v="Newport Town"/>
    <tag k="addr:housenumber" v="44"/>
    <tag k="addr:street" v="Westover Drive"/>
    <tag k="addr:state" v="VT"/>
    <tag k="ref:vcgi:esiteid" v="178713"/>
  </node>
  <node id="-795" visible="true" lat="44.96272048" lon="-72.25070443">
    <tag k="addr:city" v="Newport Town"/>
    <tag k="addr:housenumber" v="169"/>
    <tag k="addr:street" v="Sunrise Drive"/>
    <tag k="addr:state" v="VT"/>
    <tag k="ref:vcgi:esiteid" v="178739"/>
  </node>
  <node id="-806" visible="true" lat="44.96161411" lon="-72.28494778">
    <tag k="addr:city" v="Newport Town"/>
    <tag k="addr:housenumber" v="1297"/>
    <tag k="addr:street" v="Vance Hill Road"/>
    <tag k="addr:state" v="VT"/>
    <tag k="ref:vcgi:esiteid" v="178750"/>
  </node>
  <node id="-817" visible="true" lat="44.95781714" lon="-72.27925664">
    <tag k="addr:city" v="Newport Town"/>
    <tag k="addr:housenumber" v="1546"/>
    <tag k="addr:street" v="Vance Hill Road"/>
    <tag k="addr:state" v="VT"/>
    <tag k="ref:vcgi:esiteid" v="178761"/>
  </node>
  <node id="-835" visible="true" lat="44.96578715" lon="-72.24751292">
    <tag k="addr:city" v="Newport Town"/>
    <tag k="addr:housenumber" v="3420"/>
    <tag k="addr:street" v="Lake Road"/>
    <tag k="addr:state" v="VT"/>
    <tag k="ref:vcgi:esiteid" v="178779"/>
  </node>
  <node id="-836" visible="true" lat="44.96104712" lon="-72.27563697">
    <tag k="addr:city" v="Newport Town"/>
    <tag k="addr:housenumber" v="1752"/>
    <tag k="addr:street" v="Vance Hill Road"/>
    <tag k="addr:state" v="VT"/>
    <tag k="ref:vcgi:esiteid" v="178780"/>
  </node>
  <node id="-837" visible="true" lat="44.95532583" lon="-72.26796656">
    <tag k="addr:city" v="Newport Town"/>
    <tag k="addr:housenumber" v="384"/>
    <tag k="addr:street" v="Gibbs Road"/>
    <tag k="addr:state" v="VT"/>
    <tag k="ref:vcgi:esiteid" v="178781"/>
  </node>
  <node id="-839" visible="true" lat="44.96193465" lon="-72.24981961">
    <tag k="addr:city" v="Newport Town"/>
    <tag k="addr:housenumber" v="120"/>
    <tag k="addr:street" v="Sunrise Drive"/>
    <tag k="addr:state" v="VT"/>
    <tag k="ref:vcgi:esiteid" v="178783"/>
  </node>
  <node id="-843" visible="true" lat="44.96461351" lon="-72.24813908">
    <tag k="addr:city" v="Newport Town"/>
    <tag k="addr:housenumber" v="3353"/>
    <tag k="addr:street" v="Lake Road"/>
    <tag k="addr:state" v="VT"/>
    <tag k="ref:vcgi:esiteid" v="178788"/>
  </node>
  <node id="-844" visible="true" lat="44.96195773" lon="-72.24726916">
    <tag k="addr:city" v="Newport Town"/>
    <tag k="addr:housenumber" v="3191"/>
    <tag k="addr:street" v="Lake Road"/>
    <tag k="addr:state" v="VT"/>
    <tag k="ref:vcgi:esiteid" v="178789"/>
  </node>
  <node id="-845" visible="true" lat="44.95595654" lon="-72.26807457">
    <tag k="addr:city" v="Newport Town"/>
    <tag k="addr:housenumber" v="306"/>
    <tag k="addr:street" v="Gibbs Road"/>
    <tag k="addr:state" v="VT"/>
    <tag k="ref:vcgi:esiteid" v="178790"/>
  </node>
  <node id="-848" visible="true" lat="44.95796932" lon="-72.25311532">
    <tag k="addr:city" v="Newport Town"/>
    <tag k="addr:housenumber" v="2908"/>
    <tag k="addr:street" v="Vance Hill Road"/>
    <tag k="addr:state" v="VT"/>
    <tag k="ref:vcgi:esiteid" v="178793"/>
  </node>
  <node id="-854" visible="true" lat="44.96555357" lon="-72.24838493">
    <tag k="addr:city" v="Newport Town"/>
    <tag k="addr:housenumber" v="3403"/>
    <tag k="addr:street" v="Lake Road"/>
    <tag k="addr:state" v="VT"/>
    <tag k="ref:vcgi:esiteid" v="178799"/>
  </node>
  <node id="-859" visible="true" lat="44.95304031" lon="-72.30749312">
    <tag k="addr:city" v="Newport Town"/>
    <tag k="addr:housenumber" v="12"/>
    <tag k="addr:street" v="Lawson Road"/>
    <tag k="addr:state" v="VT"/>
    <tag k="ref:vcgi:esiteid" v="178804"/>
  </node>
  <node id="-860" visible="true" lat="44.95391232" lon="-72.30788407">
    <tag k="addr:city" v="Newport Town"/>
    <tag k="addr:housenumber" v="109"/>
    <tag k="addr:street" v="Lawson Road"/>
    <tag k="addr:state" v="VT"/>
    <tag k="ref:vcgi:esiteid" v="178805"/>
  </node>
  <node id="-867" visible="true" lat="44.95092473" lon="-72.3050743">
    <tag k="addr:city" v="Newport Town"/>
    <tag k="addr:housenumber" v="18"/>
    <tag k="addr:street" v="School Street"/>
    <tag k="addr:state" v="VT"/>
    <tag k="ref:vcgi:esiteid" v="178812"/>
  </node>
  <node id="-880" visible="true" lat="44.96702333" lon="-72.24917769">
    <tag k="addr:city" v="Newport Town"/>
    <tag k="addr:housenumber" v="3465"/>
    <tag k="addr:street" v="Lake Road"/>
    <tag k="addr:state" v="VT"/>
    <tag k="ref:vcgi:esiteid" v="178827"/>
  </node>
  <node id="-896" visible="true" lat="44.95284784" lon="-72.26033183">
    <tag k="addr:city" v="Newport Town"/>
    <tag k="addr:housenumber" v="324"/>
    <tag k="addr:street" v="Gage Road"/>
    <tag k="addr:state" v="VT"/>
    <tag k="ref:vcgi:esiteid" v="178847"/>
  </node>
  <node id="-897" visible="true" lat="44.96312552" lon="-72.24586378">
    <tag k="addr:city" v="Newport Town"/>
    <tag k="addr:housenumber" v="3216"/>
    <tag k="addr:street" v="Lake Road"/>
    <tag k="addr:state" v="VT"/>
    <tag k="ref:vcgi:esiteid" v="178848"/>
  </node>
  <node id="-904" visible="true" lat="44.9590464" lon="-72.28486592">
    <tag k="addr:city" v="Newport Town"/>
    <tag k="addr:housenumber" v="1214"/>
    <tag k="addr:street" v="Vance Hill Road"/>
    <tag k="addr:state" v="VT"/>
    <tag k="ref:vcgi:esiteid" v="307765"/>
  </node>
  <node id="-912" visible="true" lat="44.96558755" lon="-72.24605337">
    <tag k="addr:city" v="Newport Town"/>
    <tag k="addr:housenumber" v="3362"/>
    <tag k="addr:street" v="Lake Road"/>
    <tag k="addr:state" v="VT"/>
    <tag k="ref:vcgi:esiteid" v="336390"/>
  </node>
  <node id="-916" visible="true" lat="44.95417322" lon="-72.30686558">
    <tag k="addr:city" v="Newport Town"/>
    <tag k="addr:housenumber" v="108"/>
    <tag k="addr:street" v="Lawson Road"/>
    <tag k="addr:state" v="VT"/>
    <tag k="ref:vcgi:esiteid" v="336395"/>
  </node>
  <node id="-922" visible="true" lat="44.95725242" lon="-72.26219073">
    <tag k="addr:city" v="Newport Town"/>
    <tag k="addr:housenumber" v="228"/>
    <tag k="addr:street" v="Gage Road"/>
    <tag k="addr:state" v="VT"/>
    <tag k="ref:vcgi:esiteid" v="336401"/>
  </node>
  <node id="-950" visible="true" lat="44.95324606" lon="-72.26959831">
    <tag k="addr:city" v="Newport Town"/>
    <tag k="addr:housenumber" v="580"/>
    <tag k="addr:street" v="Gibbs Road"/>
    <tag k="addr:state" v="VT"/>
    <tag k="ref:vcgi:esiteid" v="455402"/>
  </node>
  <node id="-1011" visible="true" lat="44.96954962" lon="-72.24666165">
    <tag k="addr:city" v="Newport Town"/>
    <tag k="addr:housenumber" v="3720"/>
    <tag k="addr:street" v="Lake Road"/>
    <tag k="addr:state" v="VT"/>
    <tag k="ref:vcgi:esiteid" v="750996"/>
  </node>
</osm>
