<?xml version="1.0" encoding="UTF-8"?>
<osm version="0.6" generator="JOSM">
  <node id="-429" visible="true" lat="44.85087585" lon="-73.26338958">
    <tag k="addr:city" v="North Hero"/>
    <tag k="addr:housenumber" v="6441"/>
    <tag k="addr:street" v="U.S. Route 2"/>
    <tag k="addr:state" v="VT"/>
    <tag k="ref:vcgi:esiteid" v="179220"/>
  </node>
  <node id="-431" visible="true" lat="44.85072754" lon="-73.25916152">
    <tag k="addr:city" v="North Hero"/>
    <tag k="addr:housenumber" v="310"/>
    <tag k="addr:street" v="Stone Gate Lane"/>
    <tag k="addr:state" v="VT"/>
    <tag k="ref:vcgi:esiteid" v="179224"/>
  </node>
  <node id="-688" visible="true" lat="44.81873882" lon="-73.28977061">
    <tag k="addr:city" v="North Hero"/>
    <tag k="addr:housenumber" v="3677"/>
    <tag k="addr:street" v="U.S. Route 2"/>
    <tag k="addr:state" v="VT"/>
    <tag k="ref:vcgi:esiteid" v="179503"/>
  </node>
  <node id="-701" visible="true" lat="44.81641641" lon="-73.29068046">
    <tag k="addr:city" v="North Hero"/>
    <tag k="addr:housenumber" v="3537"/>
    <tag k="addr:street" v="U.S. Route 2"/>
    <tag k="addr:state" v="VT"/>
    <tag k="ref:vcgi:esiteid" v="179517"/>
  </node>
  <node id="-704" visible="true" lat="44.81590384" lon="-73.29093903">
    <tag k="addr:city" v="North Hero"/>
    <tag k="addr:housenumber" v="3501"/>
    <tag k="addr:street" v="U.S. Route 2"/>
    <tag k="addr:state" v="VT"/>
    <tag k="ref:vcgi:esiteid" v="179520"/>
  </node>
  <node id="-716" visible="true" lat="44.81279284" lon="-73.29224019">
    <tag k="addr:city" v="North Hero"/>
    <tag k="addr:housenumber" v="3275"/>
    <tag k="addr:street" v="U.S. Route 2"/>
    <tag k="addr:state" v="VT"/>
    <tag k="ref:vcgi:esiteid" v="179532"/>
  </node>
  <node id="-720" visible="true" lat="44.81180191" lon="-73.29258728">
    <tag k="addr:city" v="North Hero"/>
    <tag k="addr:housenumber" v="3195"/>
    <tag k="addr:street" v="U.S. Route 2"/>
    <tag k="addr:state" v="VT"/>
    <tag k="ref:vcgi:esiteid" v="179537"/>
  </node>
  <node id="-767" visible="true" lat="44.79914842" lon="-73.28872252">
    <tag k="addr:city" v="North Hero"/>
    <tag k="addr:housenumber" v="159"/>
    <tag k="addr:street" v="Four Winds Lane"/>
    <tag k="addr:state" v="VT"/>
    <tag k="ref:vcgi:esiteid" v="179588"/>
  </node>
  <node id="-768" visible="true" lat="44.79850092" lon="-73.29172908">
    <tag k="addr:city" v="North Hero"/>
    <tag k="addr:housenumber" v="11"/>
    <tag k="addr:street" v="Four Winds Lane"/>
    <tag k="addr:state" v="VT"/>
    <tag k="ref:vcgi:esiteid" v="179589"/>
  </node>
  <node id="-769" visible="true" lat="44.79799609" lon="-73.2906908">
    <tag k="addr:city" v="North Hero"/>
    <tag k="addr:housenumber" v="68"/>
    <tag k="addr:street" v="Four Winds Lane"/>
    <tag k="addr:state" v="VT"/>
    <tag k="ref:vcgi:esiteid" v="179590"/>
  </node>
  <node id="-770" visible="true" lat="44.79788556" lon="-73.28990348">
    <tag k="addr:city" v="North Hero"/>
    <tag k="addr:housenumber" v="98"/>
    <tag k="addr:street" v="Four Winds Lane"/>
    <tag k="addr:state" v="VT"/>
    <tag k="ref:vcgi:esiteid" v="179591"/>
  </node>
  <node id="-771" visible="true" lat="44.79808341" lon="-73.29196761">
    <tag k="addr:city" v="North Hero"/>
    <tag k="addr:housenumber" v="2254"/>
    <tag k="addr:street" v="U.S. Route 2"/>
    <tag k="addr:state" v="VT"/>
    <tag k="ref:vcgi:esiteid" v="179592"/>
  </node>
  <node id="-772" visible="true" lat="44.79723742" lon="-73.28851051">
    <tag k="addr:city" v="North Hero"/>
    <tag k="addr:housenumber" v="2186"/>
    <tag k="addr:street" v="U.S. Route 2"/>
    <tag k="addr:state" v="VT"/>
    <tag k="ref:vcgi:esiteid" v="179593"/>
  </node>
  <node id="-773" visible="true" lat="44.7968503" lon="-73.29079645">
    <tag k="addr:city" v="North Hero"/>
    <tag k="addr:housenumber" v="71"/>
    <tag k="addr:street" v="Atkins Bay Lane"/>
    <tag k="addr:state" v="VT"/>
    <tag k="ref:vcgi:esiteid" v="179594"/>
  </node>
  <node id="-774" visible="true" lat="44.79658851" lon="-73.29121947">
    <tag k="addr:city" v="North Hero"/>
    <tag k="addr:housenumber" v="55"/>
    <tag k="addr:street" v="Atkins Bay Lane"/>
    <tag k="addr:state" v="VT"/>
    <tag k="ref:vcgi:esiteid" v="179595"/>
  </node>
  <node id="-775" visible="true" lat="44.79618072" lon="-73.2892456">
    <tag k="addr:city" v="North Hero"/>
    <tag k="addr:housenumber" v="133"/>
    <tag k="addr:street" v="Atkins Bay Lane"/>
    <tag k="addr:state" v="VT"/>
    <tag k="ref:vcgi:esiteid" v="179597"/>
  </node>
  <node id="-776" visible="true" lat="44.79613246" lon="-73.2911954">
    <tag k="addr:city" v="North Hero"/>
    <tag k="addr:housenumber" v="48"/>
    <tag k="addr:street" v="Atkins Bay Lane"/>
    <tag k="addr:state" v="VT"/>
    <tag k="ref:vcgi:esiteid" v="179598"/>
  </node>
  <node id="-777" visible="true" lat="44.7958532" lon="-73.28928806">
    <tag k="addr:city" v="North Hero"/>
    <tag k="addr:housenumber" v="153"/>
    <tag k="addr:street" v="Atkins Bay Lane"/>
    <tag k="addr:state" v="VT"/>
    <tag k="ref:vcgi:esiteid" v="179599"/>
  </node>
  <node id="-780" visible="true" lat="44.79564923" lon="-73.28935112">
    <tag k="addr:city" v="North Hero"/>
    <tag k="addr:housenumber" v="161"/>
    <tag k="addr:street" v="Atkins Bay Lane"/>
    <tag k="addr:state" v="VT"/>
    <tag k="ref:vcgi:esiteid" v="179603"/>
  </node>
  <node id="-784" visible="true" lat="44.79496765" lon="-73.29210662">
    <tag k="addr:city" v="North Hero"/>
    <tag k="addr:housenumber" v="2042"/>
    <tag k="addr:street" v="U.S. Route 2"/>
    <tag k="addr:state" v="VT"/>
    <tag k="ref:vcgi:esiteid" v="179607"/>
  </node>
  <node id="-788" visible="true" lat="44.79314422" lon="-73.28915405">
    <tag k="addr:city" v="North Hero"/>
    <tag k="addr:housenumber" v="1874"/>
    <tag k="addr:street" v="U.S. Route 2"/>
    <tag k="addr:state" v="VT"/>
    <tag k="ref:vcgi:esiteid" v="179612"/>
  </node>
  <node id="-795" visible="true" lat="44.79054661" lon="-73.29146535">
    <tag k="addr:city" v="North Hero"/>
    <tag k="addr:housenumber" v="1740"/>
    <tag k="addr:street" v="U.S. Route 2"/>
    <tag k="addr:state" v="VT"/>
    <tag k="ref:vcgi:esiteid" v="179620"/>
  </node>
  <node id="-796" visible="true" lat="44.79055786" lon="-73.28813171">
    <tag k="addr:city" v="North Hero"/>
    <tag k="addr:housenumber" v="316"/>
    <tag k="addr:street" v="Farm House Road"/>
    <tag k="addr:state" v="VT"/>
    <tag k="ref:vcgi:esiteid" v="179621"/>
  </node>
  <node id="-798" visible="true" lat="44.79011565" lon="-73.29223782">
    <tag k="addr:city" v="North Hero"/>
    <tag k="addr:housenumber" v="1708"/>
    <tag k="addr:street" v="U.S. Route 2"/>
    <tag k="addr:state" v="VT"/>
    <tag k="ref:vcgi:esiteid" v="179623"/>
  </node>
  <node id="-799" visible="true" lat="44.79003906" lon="-73.28817749">
    <tag k="addr:city" v="North Hero"/>
    <tag k="addr:housenumber" v="276"/>
    <tag k="addr:street" v="Farm House Road"/>
    <tag k="addr:state" v="VT"/>
    <tag k="ref:vcgi:esiteid" v="179624"/>
  </node>
  <node id="-802" visible="true" lat="44.7896614" lon="-73.28793335">
    <tag k="addr:city" v="North Hero"/>
    <tag k="addr:housenumber" v="244"/>
    <tag k="addr:street" v="Farm House Road"/>
    <tag k="addr:state" v="VT"/>
    <tag k="ref:vcgi:esiteid" v="179628"/>
  </node>
  <node id="-803" visible="true" lat="44.78929901" lon="-73.28798675">
    <tag k="addr:city" v="North Hero"/>
    <tag k="addr:housenumber" v="242"/>
    <tag k="addr:street" v="Farm House Road"/>
    <tag k="addr:state" v="VT"/>
    <tag k="ref:vcgi:esiteid" v="179629"/>
  </node>
  <node id="-805" visible="true" lat="44.78904724" lon="-73.28833007">
    <tag k="addr:city" v="North Hero"/>
    <tag k="addr:housenumber" v="7"/>
    <tag k="addr:street" v="Mountain View Lane"/>
    <tag k="addr:state" v="VT"/>
    <tag k="ref:vcgi:esiteid" v="179631"/>
  </node>
  <node id="-808" visible="true" lat="44.78861999" lon="-73.28824615">
    <tag k="addr:city" v="North Hero"/>
    <tag k="addr:housenumber" v="17"/>
    <tag k="addr:street" v="Mountain View Lane"/>
    <tag k="addr:state" v="VT"/>
    <tag k="ref:vcgi:esiteid" v="179634"/>
  </node>
  <node id="-809" visible="true" lat="44.78820037" lon="-73.288414">
    <tag k="addr:city" v="North Hero"/>
    <tag k="addr:housenumber" v="51"/>
    <tag k="addr:street" v="Mountain View Lane"/>
    <tag k="addr:state" v="VT"/>
    <tag k="ref:vcgi:esiteid" v="179635"/>
  </node>
  <node id="-812" visible="true" lat="44.78743743" lon="-73.28847503">
    <tag k="addr:city" v="North Hero"/>
    <tag k="addr:housenumber" v="107"/>
    <tag k="addr:street" v="Mountain View Lane"/>
    <tag k="addr:state" v="VT"/>
    <tag k="ref:vcgi:esiteid" v="179638"/>
  </node>
  <node id="-815" visible="true" lat="44.78684616" lon="-73.28923797">
    <tag k="addr:city" v="North Hero"/>
    <tag k="addr:housenumber" v="1458"/>
    <tag k="addr:street" v="U.S. Route 2"/>
    <tag k="addr:state" v="VT"/>
    <tag k="ref:vcgi:esiteid" v="179642"/>
  </node>
  <node id="-823" visible="true" lat="44.78511428" lon="-73.28863525">
    <tag k="addr:city" v="North Hero"/>
    <tag k="addr:housenumber" v="1362"/>
    <tag k="addr:street" v="U.S. Route 2"/>
    <tag k="addr:state" v="VT"/>
    <tag k="ref:vcgi:esiteid" v="179651"/>
  </node>
  <node id="-825" visible="true" lat="44.78412802" lon="-73.28865067">
    <tag k="addr:city" v="North Hero"/>
    <tag k="addr:housenumber" v="1300"/>
    <tag k="addr:street" v="U.S. Route 2"/>
    <tag k="addr:state" v="VT"/>
    <tag k="ref:vcgi:esiteid" v="179653"/>
  </node>
  <node id="-835" visible="true" lat="44.78204727" lon="-73.28817749">
    <tag k="addr:city" v="North Hero"/>
    <tag k="addr:housenumber" v="255"/>
    <tag k="addr:street" v="Clover Lane"/>
    <tag k="addr:state" v="VT"/>
    <tag k="ref:vcgi:esiteid" v="179666"/>
  </node>
  <node id="-852" visible="true" lat="44.78124237" lon="-73.28784179">
    <tag k="addr:city" v="North Hero"/>
    <tag k="addr:housenumber" v="273"/>
    <tag k="addr:street" v="Clover Lane"/>
    <tag k="addr:state" v="VT"/>
    <tag k="ref:vcgi:esiteid" v="179687"/>
  </node>
  <node id="-857" visible="true" lat="44.77999114" lon="-73.28944396">
    <tag k="addr:city" v="North Hero"/>
    <tag k="addr:housenumber" v="1026"/>
    <tag k="addr:street" v="U.S. Route 2"/>
    <tag k="addr:state" v="VT"/>
    <tag k="ref:vcgi:esiteid" v="179694"/>
  </node>
  <node id="-859" visible="true" lat="44.77942679" lon="-73.2893381">
    <tag k="addr:city" v="North Hero"/>
    <tag k="addr:housenumber" v="209"/>
    <tag k="addr:street" v="Peartree Lane"/>
    <tag k="addr:state" v="VT"/>
    <tag k="ref:vcgi:esiteid" v="179696"/>
  </node>
  <node id="-862" visible="true" lat="44.77908339" lon="-73.2895402">
    <tag k="addr:city" v="North Hero"/>
    <tag k="addr:housenumber" v="146"/>
    <tag k="addr:street" v="Peartree Lane"/>
    <tag k="addr:state" v="VT"/>
    <tag k="ref:vcgi:esiteid" v="179700"/>
  </node>
  <node id="-864" visible="true" lat="44.77882422" lon="-73.28989732">
    <tag k="addr:city" v="North Hero"/>
    <tag k="addr:housenumber" v="144"/>
    <tag k="addr:street" v="Peartree Lane"/>
    <tag k="addr:state" v="VT"/>
    <tag k="ref:vcgi:esiteid" v="179702"/>
  </node>
  <node id="-867" visible="true" lat="44.7786026" lon="-73.29022979">
    <tag k="addr:city" v="North Hero"/>
    <tag k="addr:housenumber" v="162"/>
    <tag k="addr:street" v="East View Lane"/>
    <tag k="addr:state" v="VT"/>
    <tag k="ref:vcgi:esiteid" v="179705"/>
  </node>
  <node id="-873" visible="true" lat="44.7775923" lon="-73.29178649">
    <tag k="addr:city" v="North Hero"/>
    <tag k="addr:housenumber" v="874"/>
    <tag k="addr:street" v="U.S. Route 2"/>
    <tag k="addr:state" v="VT"/>
    <tag k="ref:vcgi:esiteid" v="179713"/>
  </node>
  <node id="-883" visible="true" lat="44.77689794" lon="-73.29297636">
    <tag k="addr:city" v="North Hero"/>
    <tag k="addr:housenumber" v="810"/>
    <tag k="addr:street" v="U.S. Route 2"/>
    <tag k="addr:state" v="VT"/>
    <tag k="ref:vcgi:esiteid" v="179723"/>
  </node>
  <node id="-886" visible="true" lat="44.77655506" lon="-73.29316421">
    <tag k="addr:city" v="North Hero"/>
    <tag k="addr:housenumber" v="766"/>
    <tag k="addr:street" v="U.S. Route 2"/>
    <tag k="addr:state" v="VT"/>
    <tag k="ref:vcgi:esiteid" v="179727"/>
  </node>
  <node id="-890" visible="true" lat="44.77560424" lon="-73.29343414">
    <tag k="addr:city" v="North Hero"/>
    <tag k="addr:housenumber" v="718"/>
    <tag k="addr:street" v="U.S. Route 2"/>
    <tag k="addr:state" v="VT"/>
    <tag k="ref:vcgi:esiteid" v="179731"/>
  </node>
  <node id="-894" visible="true" lat="44.77448272" lon="-73.29447936">
    <tag k="addr:city" v="North Hero"/>
    <tag k="addr:housenumber" v="641"/>
    <tag k="addr:street" v="U.S. Route 2"/>
    <tag k="addr:state" v="VT"/>
    <tag k="ref:vcgi:esiteid" v="179736"/>
  </node>
  <node id="-896" visible="true" lat="44.77392959" lon="-73.29437255">
    <tag k="addr:city" v="North Hero"/>
    <tag k="addr:housenumber" v="587"/>
    <tag k="addr:street" v="U.S. Route 2"/>
    <tag k="addr:state" v="VT"/>
    <tag k="ref:vcgi:esiteid" v="179740"/>
  </node>
  <node id="-989" visible="true" lat="44.78604272" lon="-73.28924932">
    <tag k="addr:city" v="North Hero"/>
    <tag k="addr:housenumber" v="1434"/>
    <tag k="addr:street" v="U.S. Route 2"/>
    <tag k="addr:state" v="VT"/>
    <tag k="ref:vcgi:esiteid" v="179843"/>
  </node>
  <node id="-1016" visible="true" lat="44.79619986" lon="-73.29205347">
    <tag k="addr:city" v="North Hero"/>
    <tag k="addr:housenumber" v="14"/>
    <tag k="addr:street" v="Atkins Bay Lane"/>
    <tag k="addr:state" v="VT"/>
    <tag k="ref:vcgi:esiteid" v="179871"/>
  </node>
  <node id="-1019" visible="true" lat="44.82585273" lon="-73.28926153">
    <tag k="addr:city" v="North Hero"/>
    <tag k="addr:housenumber" v="303"/>
    <tag k="addr:street" v="Savage Point Road"/>
    <tag k="addr:state" v="VT"/>
    <tag k="ref:vcgi:esiteid" v="179874"/>
  </node>
  <node id="-1026" visible="true" lat="44.77844207" lon="-73.29041753">
    <tag k="addr:city" v="North Hero"/>
    <tag k="addr:housenumber" v="134"/>
    <tag k="addr:street" v="East View Lane"/>
    <tag k="addr:state" v="VT"/>
    <tag k="ref:vcgi:esiteid" v="179881"/>
  </node>
  <node id="-1036" visible="true" lat="44.7834057" lon="-73.28849407">
    <tag k="addr:city" v="North Hero"/>
    <tag k="addr:housenumber" v="1298"/>
    <tag k="addr:street" v="U.S. Route 2"/>
    <tag k="addr:state" v="VT"/>
    <tag k="ref:vcgi:esiteid" v="179893"/>
  </node>
  <node id="-1040" visible="true" lat="44.79618385" lon="-73.29167722">
    <tag k="addr:city" v="North Hero"/>
    <tag k="addr:housenumber" v="32"/>
    <tag k="addr:street" v="Atkins Bay Lane"/>
    <tag k="addr:state" v="VT"/>
    <tag k="ref:vcgi:esiteid" v="317674"/>
  </node>
  <node id="-1065" visible="true" lat="44.7999461" lon="-73.2886897">
    <tag k="addr:city" v="North Hero"/>
    <tag k="addr:housenumber" v="43"/>
    <tag k="addr:street" v="Four Winds Lane"/>
    <tag k="addr:state" v="VT"/>
    <tag k="ref:vcgi:esiteid" v="326194"/>
  </node>
  <node id="-1108" visible="true" lat="44.78240078" lon="-73.28939102">
    <tag k="addr:city" v="North Hero"/>
    <tag k="addr:housenumber" v="200"/>
    <tag k="addr:street" v="Knights Vista"/>
    <tag k="addr:state" v="VT"/>
    <tag k="ref:vcgi:esiteid" v="342274"/>
  </node>
  <node id="-1110" visible="true" lat="44.78236607" lon="-73.2885553">
    <tag k="addr:city" v="North Hero"/>
    <tag k="addr:housenumber" v="230"/>
    <tag k="addr:street" v="Knights Vista"/>
    <tag k="addr:state" v="VT"/>
    <tag k="ref:vcgi:esiteid" v="342276"/>
  </node>
  <node id="-1126" visible="true" lat="44.77824069" lon="-73.29074945">
    <tag k="addr:city" v="North Hero"/>
    <tag k="addr:housenumber" v="122"/>
    <tag k="addr:street" v="East View Lane"/>
    <tag k="addr:state" v="VT"/>
    <tag k="ref:vcgi:esiteid" v="448183"/>
  </node>
  <node id="-1132" visible="true" lat="44.82282967" lon="-73.2349968">
    <tag k="addr:city" v="North Hero"/>
    <tag k="addr:housenumber" v="5461"/>
    <tag k="addr:street" v="Butler Island"/>
    <tag k="addr:state" v="VT"/>
    <tag k="ref:vcgi:esiteid" v="451862"/>
  </node>
  <node id="-1134" visible="true" lat="44.82313512" lon="-73.23377957">
    <tag k="addr:city" v="North Hero"/>
    <tag k="addr:housenumber" v="206"/>
    <tag k="addr:street" v="Butler Island"/>
    <tag k="addr:state" v="VT"/>
    <tag k="ref:vcgi:esiteid" v="451864"/>
  </node>
  <node id="-1141" visible="true" lat="44.82245017" lon="-73.23384615">
    <tag k="addr:city" v="North Hero"/>
    <tag k="addr:housenumber" v="168"/>
    <tag k="addr:street" v="Butler Island"/>
    <tag k="addr:state" v="VT"/>
    <tag k="ref:vcgi:esiteid" v="451871"/>
  </node>
  <node id="-1146" visible="true" lat="44.82508411" lon="-73.23800305">
    <tag k="addr:city" v="North Hero"/>
    <tag k="addr:housenumber" v="5147"/>
    <tag k="addr:street" v="Butler Island"/>
    <tag k="addr:state" v="VT"/>
    <tag k="ref:vcgi:esiteid" v="451876"/>
  </node>
  <node id="-1148" visible="true" lat="44.82570336" lon="-73.23056686">
    <tag k="addr:city" v="North Hero"/>
    <tag k="addr:housenumber" v="444"/>
    <tag k="addr:street" v="Butler Island"/>
    <tag k="addr:state" v="VT"/>
    <tag k="ref:vcgi:esiteid" v="451878"/>
  </node>
  <node id="-1154" visible="true" lat="44.82799542" lon="-73.22771007">
    <tag k="addr:city" v="North Hero"/>
    <tag k="addr:housenumber" v="662"/>
    <tag k="addr:street" v="Butler Island"/>
    <tag k="addr:state" v="VT"/>
    <tag k="ref:vcgi:esiteid" v="451884"/>
  </node>
  <node id="-1161" visible="true" lat="44.83144982" lon="-73.23575882">
    <tag k="addr:city" v="North Hero"/>
    <tag k="addr:housenumber" v="4671"/>
    <tag k="addr:street" v="Butler Island"/>
    <tag k="addr:state" v="VT"/>
    <tag k="ref:vcgi:esiteid" v="451891"/>
  </node>
  <node id="-1163" visible="true" lat="44.83630157" lon="-73.22356484">
    <tag k="addr:city" v="North Hero"/>
    <tag k="addr:housenumber" v="1402"/>
    <tag k="addr:street" v="Butler Island"/>
    <tag k="addr:state" v="VT"/>
    <tag k="ref:vcgi:esiteid" v="451893"/>
  </node>
  <node id="-1166" visible="true" lat="44.83442446" lon="-73.21729239">
    <tag k="addr:city" v="North Hero"/>
    <tag k="addr:housenumber" v="1795"/>
    <tag k="addr:street" v="Butler Island"/>
    <tag k="addr:state" v="VT"/>
    <tag k="ref:vcgi:esiteid" v="451896"/>
  </node>
  <node id="-1180" visible="true" lat="44.84249887" lon="-73.21492444">
    <tag k="addr:city" v="North Hero"/>
    <tag k="addr:housenumber" v="2807"/>
    <tag k="addr:street" v="Butler Island"/>
    <tag k="addr:state" v="VT"/>
    <tag k="ref:vcgi:esiteid" v="451910"/>
  </node>
  <node id="-1188" visible="true" lat="44.84562407" lon="-73.22057737">
    <tag k="addr:city" v="North Hero"/>
    <tag k="addr:housenumber" v="3363"/>
    <tag k="addr:street" v="Butler Island"/>
    <tag k="addr:state" v="VT"/>
    <tag k="ref:vcgi:esiteid" v="451918"/>
  </node>
  <node id="-1278" visible="true" lat="44.86706413" lon="-73.25266479">
    <tag k="addr:city" v="North Hero"/>
    <tag k="addr:housenumber" v="699"/>
    <tag k="addr:street" v="Lakeview Drive"/>
    <tag k="addr:state" v="VT"/>
    <tag k="ref:vcgi:esiteid" v="753226"/>
  </node>
  <node id="-1280" visible="true" lat="44.80240105" lon="-73.31247075">
    <tag k="addr:city" v="North Hero"/>
    <tag k="addr:housenumber" v="1401"/>
    <tag k="addr:street" v="West Shore Road"/>
    <tag k="addr:state" v="VT"/>
    <tag k="ref:vcgi:esiteid" v="753228"/>
  </node>
</osm>
