<?xml version="1.0" encoding="UTF-8"?>
<osm version="0.6" generator="JOSM" upload="false">
  <node id="-100" visible="true" lat="44.98690168" lon="-71.81166503">
    <tag k="addr:city" v="Norton"/>
    <tag k="addr:housenumber" v="1749"/>
    <tag k="addr:street" v="Vermont Route 114 South"/>
    <tag k="addr:state" v="VT"/>
    <tag k="ref:vcgi:esiteid" v="1040"/>
  </node>
  <node id="-101" visible="true" lat="44.99558901" lon="-71.71438425">
    <tag k="addr:city" v="Norton"/>
    <tag k="addr:housenumber" v="4199"/>
    <tag k="addr:street" v="Vermont Route 114 East"/>
    <tag k="addr:state" v="VT"/>
    <tag k="ref:vcgi:esiteid" v="1085"/>
  </node>
  <node id="-139" visible="true" lat="45.00392532" lon="-71.76676178">
    <tag k="addr:city" v="Norton"/>
    <tag k="addr:housenumber" v="1506"/>
    <tag k="addr:street" v="Vermont Route 114 East"/>
    <tag k="addr:state" v="VT"/>
    <tag k="ref:vcgi:esiteid" v="181935"/>
  </node>
  <node id="-157" visible="true" lat="45.00032424" lon="-71.75422668">
    <tag k="addr:city" v="Norton"/>
    <tag k="addr:housenumber" v="2162"/>
    <tag k="addr:street" v="Vermont Route 114 East"/>
    <tag k="addr:state" v="VT"/>
    <tag k="ref:vcgi:esiteid" v="181954"/>
  </node>
  <node id="-160" visible="true" lat="44.99955368" lon="-71.75161743">
    <tag k="addr:city" v="Norton"/>
    <tag k="addr:housenumber" v="2298"/>
    <tag k="addr:street" v="Vermont Route 114 East"/>
    <tag k="addr:state" v="VT"/>
    <tag k="ref:vcgi:esiteid" v="181957"/>
  </node>
  <node id="-162" visible="true" lat="44.99894224" lon="-71.70976017">
    <tag k="addr:city" v="Norton"/>
    <tag k="addr:housenumber" v="4531"/>
    <tag k="addr:street" v="Vermont Route 114 East"/>
    <tag k="addr:state" v="VT"/>
    <tag k="ref:vcgi:esiteid" v="181959"/>
  </node>
  <node id="-177" visible="true" lat="44.99668379" lon="-71.74112922">
    <tag k="addr:city" v="Norton"/>
    <tag k="addr:housenumber" v="2859"/>
    <tag k="addr:street" v="Vermont Route 114 East"/>
    <tag k="addr:state" v="VT"/>
    <tag k="ref:vcgi:esiteid" v="181975"/>
  </node>
  <node id="-202" visible="true" lat="44.9927027" lon="-71.80384141">
    <tag k="addr:city" v="Norton"/>
    <tag k="addr:housenumber" v="1197"/>
    <tag k="addr:street" v="Vermont Route 114 South"/>
    <tag k="addr:state" v="VT"/>
    <tag k="ref:vcgi:esiteid" v="182001"/>
  </node>
  <node id="-219" visible="true" lat="44.98163223" lon="-71.81916046">
    <tag k="addr:city" v="Norton"/>
    <tag k="addr:housenumber" v="163"/>
    <tag k="addr:street" v="Gagnon Road"/>
    <tag k="addr:state" v="VT"/>
    <tag k="ref:vcgi:esiteid" v="182019"/>
  </node>
  <node id="-236" visible="true" lat="44.96644705" lon="-71.81764328">
    <tag k="addr:city" v="Norton"/>
    <tag k="addr:housenumber" v="3261"/>
    <tag k="addr:street" v="Vermont Route 114 South"/>
    <tag k="addr:state" v="VT"/>
    <tag k="ref:vcgi:esiteid" v="182036"/>
  </node>
  <node id="-242" visible="true" lat="44.9651013" lon="-71.81998539">
    <tag k="addr:city" v="Norton"/>
    <tag k="addr:housenumber" v="3407"/>
    <tag k="addr:street" v="Vermont Route 114 South"/>
    <tag k="addr:state" v="VT"/>
    <tag k="ref:vcgi:esiteid" v="182042"/>
  </node>
  <node id="-245" visible="true" lat="44.96426807" lon="-71.82183842">
    <tag k="addr:city" v="Norton"/>
    <tag k="addr:housenumber" v="3509"/>
    <tag k="addr:street" v="Vermont Route 114 South"/>
    <tag k="addr:state" v="VT"/>
    <tag k="ref:vcgi:esiteid" v="182045"/>
  </node>
  <node id="-246" visible="true" lat="44.96409641" lon="-71.823494">
    <tag k="addr:city" v="Norton"/>
    <tag k="addr:housenumber" v="3581"/>
    <tag k="addr:street" v="Vermont Route 114 South"/>
    <tag k="addr:state" v="VT"/>
    <tag k="ref:vcgi:esiteid" v="182046"/>
  </node>
  <node id="-253" visible="true" lat="44.960141" lon="-71.83071719">
    <tag k="addr:city" v="Norton"/>
    <tag k="addr:housenumber" v="4039"/>
    <tag k="addr:street" v="Vermont Route 114 South"/>
    <tag k="addr:state" v="VT"/>
    <tag k="ref:vcgi:esiteid" v="182053"/>
  </node>
  <node id="-257" visible="true" lat="44.95184277" lon="-71.84400157">
    <tag k="addr:city" v="Norton"/>
    <tag k="addr:housenumber" v="32"/>
    <tag k="addr:street" v="Lake Station Road"/>
    <tag k="addr:state" v="VT"/>
    <tag k="ref:vcgi:esiteid" v="182057"/>
  </node>
  <node id="-264" visible="true" lat="44.94715533" lon="-71.84658817">
    <tag k="addr:city" v="Norton"/>
    <tag k="addr:housenumber" v="5261"/>
    <tag k="addr:street" v="Vermont Route 114 South"/>
    <tag k="addr:state" v="VT"/>
    <tag k="ref:vcgi:esiteid" v="182064"/>
  </node>
  <node id="-266" visible="true" lat="45.00422287" lon="-71.79938507">
    <tag k="addr:city" v="Norton"/>
    <tag k="addr:housenumber" v="380"/>
    <tag k="addr:street" v="Vermont Route 114 South"/>
    <tag k="addr:state" v="VT"/>
    <tag k="ref:vcgi:esiteid" v="182067"/>
  </node>
  <node id="-275" visible="true" lat="44.94862412" lon="-71.84962641">
    <tag k="addr:city" v="Norton"/>
    <tag k="addr:housenumber" v="137"/>
    <tag k="addr:street" v="Devost Lane"/>
    <tag k="addr:state" v="VT"/>
    <tag k="ref:vcgi:esiteid" v="182076"/>
  </node>
  <node id="-276" visible="true" lat="44.95004396" lon="-71.8487176">
    <tag k="addr:city" v="Norton"/>
    <tag k="addr:housenumber" v="96"/>
    <tag k="addr:street" v="Biron Lane"/>
    <tag k="addr:state" v="VT"/>
    <tag k="ref:vcgi:esiteid" v="182077"/>
  </node>
  <node id="-282" visible="true" lat="44.95363775" lon="-71.85138422">
    <tag k="addr:city" v="Norton"/>
    <tag k="addr:housenumber" v="905"/>
    <tag k="addr:street" v="Lake Station Road"/>
    <tag k="addr:state" v="VT"/>
    <tag k="ref:vcgi:esiteid" v="182083"/>
  </node>
  <node id="-286" visible="true" lat="44.99046842" lon="-71.8031421">
    <tag k="addr:city" v="Norton"/>
    <tag k="addr:housenumber" v="1311"/>
    <tag k="addr:street" v="Vermont Route 114 South"/>
    <tag k="addr:state" v="VT"/>
    <tag k="ref:vcgi:esiteid" v="182088"/>
  </node>
  <node id="-302" visible="true" lat="44.98247932" lon="-71.82233393">
    <tag k="addr:city" v="Norton"/>
    <tag k="addr:housenumber" v="316"/>
    <tag k="addr:street" v="Gagnon Road"/>
    <tag k="addr:state" v="VT"/>
    <tag k="ref:vcgi:esiteid" v="182105"/>
  </node>
  <node id="-305" visible="true" lat="44.99588171" lon="-71.72819606">
    <tag k="addr:city" v="Norton"/>
    <tag k="addr:housenumber" v="74"/>
    <tag k="addr:street" v="Averill Lake Road"/>
    <tag k="addr:state" v="VT"/>
    <tag k="ref:vcgi:esiteid" v="340855"/>
  </node>
  <node id="-311" visible="true" lat="45.00721001" lon="-71.78442972">
    <tag k="addr:city" v="Norton"/>
    <tag k="addr:housenumber" v="602"/>
    <tag k="addr:street" v="Vermont Route 114 East"/>
    <tag k="addr:state" v="VT"/>
    <tag k="ref:vcgi:esiteid" v="342524"/>
  </node>
  <node id="-312" visible="true" lat="44.99886477" lon="-71.74686887">
    <tag k="addr:city" v="Norton"/>
    <tag k="addr:housenumber" v="2571"/>
    <tag k="addr:street" v="Vermont Route 114 East"/>
    <tag k="addr:state" v="VT"/>
    <tag k="ref:vcgi:esiteid" v="365346"/>
  </node>
  <node id="-329" visible="true" lat="45.00662758" lon="-71.77185327">
    <tag k="addr:city" v="Norton"/>
    <tag k="addr:housenumber" v="1157"/>
    <tag k="addr:street" v="Vermont Route 114 East"/>
    <tag k="addr:state" v="VT"/>
    <tag k="ref:vcgi:esiteid" v="620635"/>
  </node>
  <node id="-332" visible="true" lat="45.00768067" lon="-71.78537318">
    <tag k="addr:city" v="Norton"/>
    <tag k="addr:housenumber" v="522"/>
    <tag k="addr:street" v="Vermont Route 114 East"/>
    <tag k="addr:state" v="VT"/>
    <tag k="ref:vcgi:esiteid" v="700134"/>
  </node>
  <node id="-339" visible="true" lat="44.95339852" lon="-71.85015002">
    <tag k="addr:city" v="Norton"/>
    <tag k="addr:housenumber" v="428"/>
    <tag k="addr:street" v="Lake Station Road"/>
    <tag k="addr:state" v="VT"/>
    <tag k="ref:vcgi:esiteid" v="762470"/>
  </node>
  <node id="-343" visible="true" lat="44.99589783" lon="-71.77066585">
    <tag k="addr:city" v="Norton"/>
    <tag k="addr:housenumber" v="656"/>
    <tag k="addr:street" v="Leos Lane"/>
    <tag k="addr:state" v="VT"/>
    <tag k="ref:vcgi:esiteid" v="766254"/>
  </node>
  <node id="-344" visible="true" lat="44.99723479" lon="-71.75143484">
    <tag k="addr:city" v="Norton"/>
    <tag k="addr:housenumber" v="114"/>
    <tag k="addr:street" v="Gaudette Road"/>
    <tag k="addr:state" v="VT"/>
    <tag k="ref:vcgi:esiteid" v="768464"/>
  </node>
  <node id="-345" visible="true" lat="44.99736674" lon="-71.75070558">
    <tag k="addr:city" v="Norton"/>
    <tag k="addr:housenumber" v="112"/>
    <tag k="addr:street" v="Gaudette Road"/>
    <tag k="addr:state" v="VT"/>
    <tag k="ref:vcgi:esiteid" v="768521"/>
  </node>
  <node id="-348" visible="true" lat="45.00097284" lon="-71.76888518">
    <tag k="addr:city" v="Norton"/>
    <tag k="addr:housenumber" v="306"/>
    <tag k="addr:street" v="Leos Lane"/>
    <tag k="addr:state" v="VT"/>
    <tag k="ref:vcgi:esiteid" v="768525"/>
  </node>
  <node id="-349" visible="true" lat="45.00749572" lon="-71.77140898">
    <tag k="addr:city" v="Norton"/>
    <tag k="addr:housenumber" v="1151"/>
    <tag k="addr:street" v="Vermont Route 114 East"/>
    <tag k="addr:state" v="VT"/>
    <tag k="ref:vcgi:esiteid" v="768526"/>
  </node>
  <node id="-350" visible="true" lat="45.00659213" lon="-71.77645805">
    <tag k="addr:city" v="Norton"/>
    <tag k="addr:housenumber" v="962"/>
    <tag k="addr:street" v="Vermont Route 114 East"/>
    <tag k="addr:state" v="VT"/>
    <tag k="ref:vcgi:esiteid" v="768527"/>
  </node>
  <node id="-351" visible="true" lat="45.00605935" lon="-71.79581678">
    <tag k="addr:city" v="Norton"/>
    <tag k="addr:housenumber" v="287"/>
    <tag k="addr:street" v="Vermont Route 114 South"/>
    <tag k="addr:state" v="VT"/>
    <tag k="ref:vcgi:esiteid" v="768528"/>
  </node>
  <node id="-352" visible="true" lat="44.98420541" lon="-71.82111359">
    <tag k="addr:city" v="Norton"/>
    <tag k="addr:housenumber" v="304"/>
    <tag k="addr:street" v="Gagnon Road"/>
    <tag k="addr:state" v="VT"/>
    <tag k="ref:vcgi:esiteid" v="768529"/>
  </node>
  <node id="-353" visible="true" lat="44.99032565" lon="-71.80816434">
    <tag k="addr:city" v="Norton"/>
    <tag k="addr:housenumber" v="1435"/>
    <tag k="addr:street" v="Vermont Route 114 South"/>
    <tag k="addr:state" v="VT"/>
    <tag k="ref:vcgi:esiteid" v="768530"/>
  </node>
  <node id="-354" visible="true" lat="44.99877866" lon="-71.73694268">
    <tag k="addr:city" v="Norton"/>
    <tag k="addr:housenumber" v="3559"/>
    <tag k="addr:street" v="Vermont Route 114 East"/>
    <tag k="addr:state" v="VT"/>
    <tag k="ref:vcgi:esiteid" v="768531"/>
  </node>
  <node id="-355" visible="true" lat="44.99872731" lon="-71.76949491">
    <tag k="addr:city" v="Norton"/>
    <tag k="addr:housenumber" v="470"/>
    <tag k="addr:street" v="Leos Lane"/>
    <tag k="addr:state" v="VT"/>
    <tag k="ref:vcgi:esiteid" v="768592"/>
  </node>
  <node id="-356" visible="true" lat="44.99874475" lon="-71.76998797">
    <tag k="addr:city" v="Norton"/>
    <tag k="addr:housenumber" v="496"/>
    <tag k="addr:street" v="Leos Lane"/>
    <tag k="addr:state" v="VT"/>
    <tag k="ref:vcgi:esiteid" v="768593"/>
  </node>
  <node id="-358" visible="true" lat="44.9978208" lon="-71.76519626">
    <tag k="addr:city" v="Norton"/>
    <tag k="addr:housenumber" v="424"/>
    <tag k="addr:street" v="Stony Acres Lane"/>
    <tag k="addr:state" v="VT"/>
    <tag k="ref:vcgi:esiteid" v="768595"/>
  </node>
  <node id="-360" visible="true" lat="44.95997755" lon="-71.76048534">
    <tag k="addr:city" v="Norton"/>
    <tag k="addr:housenumber" v="1049"/>
    <tag k="addr:street" v="Gaudette Road"/>
    <tag k="addr:state" v="VT"/>
    <tag k="ref:vcgi:esiteid" v="1050755"/>
  </node>
  <node id="-361" visible="true" lat="44.99736412" lon="-71.74397695">
    <tag k="addr:city" v="Norton"/>
    <tag k="addr:housenumber" v="2710"/>
    <tag k="addr:street" v="Vermont Route 114 East"/>
    <tag k="addr:state" v="VT"/>
    <tag k="ref:vcgi:esiteid" v="1050765"/>
  </node>
</osm>
