<?xml version="1.0" encoding="UTF-8"?>
<osm version="0.6" generator="JOSM" upload="false">
  <node id="-255" visible="true" lat="44.88323824" lon="-73.27154725">
    <!-- conflict: "8986 U.S. Route 2, North Hero, VT" Fuzzy match to "8986 US Route 2, North Hero, VT" -->
    <tag k="addr:city" v="North Hero"/>
    <tag k="addr:housenumber" v="8986"/>
    <tag k="addr:street" v="U.S. Route 2"/>
    <tag k="addr:state" v="VT"/>
    <tag k="ref:vcgi:esiteid" v="179023"/>
  </node>
  <node id="-257" visible="true" lat="44.88317108" lon="-73.27121734">
    <!-- conflict: "8978 U.S. Route 2, North Hero, VT" Fuzzy match to "8978 US Route 2, North Hero, VT" -->
    <tag k="addr:city" v="North Hero"/>
    <tag k="addr:housenumber" v="8978"/>
    <tag k="addr:street" v="U.S. Route 2"/>
    <tag k="addr:state" v="VT"/>
    <tag k="ref:vcgi:esiteid" v="179025"/>
  </node>
  <node id="-261" visible="true" lat="44.88290786" lon="-73.27165222">
    <!-- conflict: "8964 U.S. Route 2, North Hero, VT" Fuzzy match to "8964 US Route 2, North Hero, VT" -->
    <tag k="addr:city" v="North Hero"/>
    <tag k="addr:housenumber" v="8964"/>
    <tag k="addr:street" v="U.S. Route 2"/>
    <tag k="addr:state" v="VT"/>
    <tag k="ref:vcgi:esiteid" v="179030"/>
  </node>
  <node id="-279" visible="true" lat="44.88183212" lon="-73.27167511">
    <!-- conflict: "8888 U.S. Route 2, North Hero, VT" Fuzzy match to "8888 US Route 2, North Hero, VT" -->
    <tag k="addr:city" v="North Hero"/>
    <tag k="addr:housenumber" v="8888"/>
    <tag k="addr:street" v="U.S. Route 2"/>
    <tag k="addr:state" v="VT"/>
    <tag k="ref:vcgi:esiteid" v="179050"/>
  </node>
  <node id="-283" visible="true" lat="44.88164795" lon="-73.27159825">
    <!-- conflict: "8876 U.S. Route 2, North Hero, VT" Fuzzy match to "8876 US Route 2, North Hero, VT" -->
    <tag k="addr:city" v="North Hero"/>
    <tag k="addr:housenumber" v="8876"/>
    <tag k="addr:street" v="U.S. Route 2"/>
    <tag k="addr:state" v="VT"/>
    <tag k="ref:vcgi:esiteid" v="179054"/>
  </node>
  <node id="-286" visible="true" lat="44.88157728" lon="-73.27162378">
    <!-- conflict: "8870 U.S. Route 2, North Hero, VT" Fuzzy match to "8870 US Route 2, North Hero, VT" -->
    <tag k="addr:city" v="North Hero"/>
    <tag k="addr:housenumber" v="8870"/>
    <tag k="addr:street" v="U.S. Route 2"/>
    <tag k="addr:state" v="VT"/>
    <tag k="ref:vcgi:esiteid" v="179057"/>
  </node>
  <node id="-290" visible="true" lat="44.8815081" lon="-73.27168302">
    <!-- conflict: "8864 U.S. Route 2, North Hero, VT" Fuzzy match to "8864 US Route 2, North Hero, VT" -->
    <tag k="addr:city" v="North Hero"/>
    <tag k="addr:housenumber" v="8864"/>
    <tag k="addr:street" v="U.S. Route 2"/>
    <tag k="addr:state" v="VT"/>
    <tag k="ref:vcgi:esiteid" v="179061"/>
  </node>
  <node id="-291" visible="true" lat="44.88148117" lon="-73.2713623">
    <!-- conflict: "8884 U.S. Route 2, North Hero, VT" Fuzzy match to "8884 US Route 2, North Hero, VT" -->
    <tag k="addr:city" v="North Hero"/>
    <tag k="addr:housenumber" v="8884"/>
    <tag k="addr:street" v="U.S. Route 2"/>
    <tag k="addr:state" v="VT"/>
    <tag k="ref:vcgi:esiteid" v="179062"/>
  </node>
  <node id="-292" visible="true" lat="44.88141422" lon="-73.27167108">
    <!-- conflict: "8858 U.S. Route 2, North Hero, VT" Fuzzy match to "8858 US Route 2, North Hero, VT" -->
    <tag k="addr:city" v="North Hero"/>
    <tag k="addr:housenumber" v="8858"/>
    <tag k="addr:street" v="U.S. Route 2"/>
    <tag k="addr:state" v="VT"/>
    <tag k="ref:vcgi:esiteid" v="179063"/>
  </node>
  <node id="-295" visible="true" lat="44.88136448" lon="-73.2717237">
    <!-- conflict: "8856 U.S. Route 2, North Hero, VT" Fuzzy match to "8856 US Route 2, North Hero, VT" -->
    <tag k="addr:city" v="North Hero"/>
    <tag k="addr:housenumber" v="8856"/>
    <tag k="addr:street" v="U.S. Route 2"/>
    <tag k="addr:state" v="VT"/>
    <tag k="ref:vcgi:esiteid" v="179066"/>
  </node>
  <node id="-298" visible="true" lat="44.88120651" lon="-73.27174377">
    <!-- conflict: "8844 U.S. Route 2, North Hero, VT" Fuzzy match to "8844 US Route 2, North Hero, VT" -->
    <tag k="addr:city" v="North Hero"/>
    <tag k="addr:housenumber" v="8844"/>
    <tag k="addr:street" v="U.S. Route 2"/>
    <tag k="addr:state" v="VT"/>
    <tag k="ref:vcgi:esiteid" v="179069"/>
  </node>
  <node id="-303" visible="true" lat="44.88090133" lon="-73.27165985">
    <!-- conflict: "8822 U.S. Route 2, North Hero, VT" Fuzzy match to "8822 US Route 2, North Hero, VT" -->
    <tag k="addr:city" v="North Hero"/>
    <tag k="addr:housenumber" v="8822"/>
    <tag k="addr:street" v="U.S. Route 2"/>
    <tag k="addr:state" v="VT"/>
    <tag k="ref:vcgi:esiteid" v="179074"/>
  </node>
  <node id="-312" visible="true" lat="44.87916583" lon="-73.2713591">
    <!-- conflict: "8692 U.S. Route 2, North Hero, VT" Fuzzy match to "8692 US Route 2, North Hero, VT" -->
    <tag k="addr:city" v="North Hero"/>
    <tag k="addr:housenumber" v="8692"/>
    <tag k="addr:street" v="U.S. Route 2"/>
    <tag k="addr:state" v="VT"/>
    <tag k="ref:vcgi:esiteid" v="179084"/>
  </node>
  <node id="-313" visible="true" lat="44.8788948" lon="-73.2711029">
    <!-- conflict: "8682 U.S. Route 2, North Hero, VT" Fuzzy match to "8682 US Route 2, North Hero, VT" -->
    <tag k="addr:city" v="North Hero"/>
    <tag k="addr:housenumber" v="8682"/>
    <tag k="addr:street" v="U.S. Route 2"/>
    <tag k="addr:state" v="VT"/>
    <tag k="ref:vcgi:esiteid" v="179085"/>
  </node>
  <node id="-314" visible="true" lat="44.87863922" lon="-73.27134704">
    <!-- conflict: "8678 U.S. Route 2, North Hero, VT" Fuzzy match to "8678 US Route 2, North Hero, VT" -->
    <tag k="addr:city" v="North Hero"/>
    <tag k="addr:housenumber" v="8678"/>
    <tag k="addr:street" v="U.S. Route 2"/>
    <tag k="addr:state" v="VT"/>
    <tag k="ref:vcgi:esiteid" v="179086"/>
  </node>
  <node id="-316" visible="true" lat="44.87815502" lon="-73.27140302">
    <!-- conflict: "8632 U.S. Route 2, North Hero, VT" Fuzzy match to "8632 US Route 2, North Hero, VT" -->
    <tag k="addr:city" v="North Hero"/>
    <tag k="addr:housenumber" v="8632"/>
    <tag k="addr:street" v="U.S. Route 2"/>
    <tag k="addr:state" v="VT"/>
    <tag k="ref:vcgi:esiteid" v="179089"/>
  </node>
  <node id="-322" visible="true" lat="44.87634658" lon="-73.2716217">
    <!-- conflict: "8538 U.S. Route 2, North Hero, VT" Fuzzy match to "8538 US Route 2, North Hero, VT" -->
    <tag k="addr:city" v="North Hero"/>
    <tag k="addr:housenumber" v="8538"/>
    <tag k="addr:street" v="U.S. Route 2"/>
    <tag k="addr:state" v="VT"/>
    <tag k="ref:vcgi:esiteid" v="179096"/>
  </node>
  <node id="-327" visible="true" lat="44.87347493" lon="-73.27066582">
    <!-- conflict: "8294 U.S. Route 2, North Hero, VT" Fuzzy match to "8294 US Route 2, North Hero, VT" -->
    <tag k="addr:city" v="North Hero"/>
    <tag k="addr:housenumber" v="8294"/>
    <tag k="addr:street" v="U.S. Route 2"/>
    <tag k="addr:state" v="VT"/>
    <tag k="ref:vcgi:esiteid" v="179102"/>
  </node>
  <node id="-328" visible="true" lat="44.8728981" lon="-73.27256011">
    <!-- conflict: "8251 U.S. Route 2, North Hero, VT" Fuzzy match to "8251 US Route 2, North Hero, VT" -->
    <tag k="addr:city" v="North Hero"/>
    <tag k="addr:housenumber" v="8251"/>
    <tag k="addr:street" v="U.S. Route 2"/>
    <tag k="addr:state" v="VT"/>
    <tag k="ref:vcgi:esiteid" v="179103"/>
  </node>
  <node id="-329" visible="true" lat="44.87235641" lon="-73.2726593">
    <!-- conflict: "8153 U.S. Route 2, North Hero, VT" Fuzzy match to "8153 US Route 2, North Hero, VT" -->
    <tag k="addr:city" v="North Hero"/>
    <tag k="addr:housenumber" v="8153"/>
    <tag k="addr:street" v="U.S. Route 2"/>
    <tag k="addr:state" v="VT"/>
    <tag k="ref:vcgi:esiteid" v="179104"/>
  </node>
  <node id="-330" visible="true" lat="44.87207415" lon="-73.27295417">
    <!-- conflict: "8149 U.S. Route 2, North Hero, VT" Fuzzy match to "8149 US Route 2, North Hero, VT" -->
    <tag k="addr:city" v="North Hero"/>
    <tag k="addr:housenumber" v="8149"/>
    <tag k="addr:street" v="U.S. Route 2"/>
    <tag k="addr:state" v="VT"/>
    <tag k="ref:vcgi:esiteid" v="179105"/>
  </node>
  <node id="-331" visible="true" lat="44.87165832" lon="-73.27290344">
    <!-- conflict: "8099 U.S. Route 2, North Hero, VT" Fuzzy match to "8099 US Route 2, North Hero, VT" -->
    <tag k="addr:city" v="North Hero"/>
    <tag k="addr:housenumber" v="8099"/>
    <tag k="addr:street" v="U.S. Route 2"/>
    <tag k="addr:state" v="VT"/>
    <tag k="ref:vcgi:esiteid" v="179106"/>
  </node>
  <node id="-344" visible="true" lat="44.86946868" lon="-73.26863098">
    <!-- conflict: "8006 U.S. Route 2, North Hero, VT" Fuzzy match to "8006 US Route 2, North Hero, VT" -->
    <tag k="addr:city" v="North Hero"/>
    <tag k="addr:housenumber" v="8006"/>
    <tag k="addr:street" v="U.S. Route 2"/>
    <tag k="addr:state" v="VT"/>
    <tag k="ref:vcgi:esiteid" v="179121"/>
  </node>
  <node id="-351" visible="true" lat="44.86717987" lon="-73.26648712">
    <!-- conflict: "7774 U.S. Route 2, North Hero, VT" Fuzzy match to "7774 US Route 2, North Hero, VT" -->
    <tag k="addr:city" v="North Hero"/>
    <tag k="addr:housenumber" v="7774"/>
    <tag k="addr:street" v="U.S. Route 2"/>
    <tag k="addr:state" v="VT"/>
    <tag k="ref:vcgi:esiteid" v="179129"/>
  </node>
  <node id="-352" visible="true" lat="44.86645889" lon="-73.26529693">
    <!-- conflict: "7644 U.S. Route 2, North Hero, VT" Fuzzy match to "7644 US Route 2, North Hero, VT" -->
    <tag k="addr:city" v="North Hero"/>
    <tag k="addr:housenumber" v="7644"/>
    <tag k="addr:street" v="U.S. Route 2"/>
    <tag k="addr:state" v="VT"/>
    <tag k="ref:vcgi:esiteid" v="179130"/>
  </node>
  <node id="-359" visible="true" lat="44.86533355" lon="-73.26720428">
    <!-- conflict: "7733 U.S. Route 2, North Hero, VT" Fuzzy match to "7733 US Route 2, North Hero, VT" -->
    <tag k="addr:city" v="North Hero"/>
    <tag k="addr:housenumber" v="7733"/>
    <tag k="addr:street" v="U.S. Route 2"/>
    <tag k="addr:state" v="VT"/>
    <tag k="ref:vcgi:esiteid" v="179138"/>
  </node>
  <node id="-366" visible="true" lat="44.86468887" lon="-73.2665863">
    <!-- conflict: "7661 U.S. Route 2, North Hero, VT" Fuzzy match to "7661 US Route 2, North Hero, VT" -->
    <tag k="addr:city" v="North Hero"/>
    <tag k="addr:housenumber" v="7661"/>
    <tag k="addr:street" v="U.S. Route 2"/>
    <tag k="addr:state" v="VT"/>
    <tag k="ref:vcgi:esiteid" v="179146"/>
  </node>
  <node id="-378" visible="true" lat="44.8635413" lon="-73.26232658">
    <!-- conflict: "7456 U.S. Route 2, North Hero, VT" No match in OSM, but a different address exists <5m away: "7444 US Route 2, North Hero, VT" -->
    <tag k="addr:city" v="North Hero"/>
    <tag k="addr:housenumber" v="7456"/>
    <tag k="addr:street" v="U.S. Route 2"/>
    <tag k="addr:state" v="VT"/>
    <tag k="ref:vcgi:esiteid" v="179158"/>
  </node>
  <node id="-379" visible="true" lat="44.86347407" lon="-73.26218354">
    <!-- conflict: "7444 U.S. Route 2, North Hero, VT" Fuzzy match to "7444 US Route 2, North Hero, VT" -->
    <tag k="addr:city" v="North Hero"/>
    <tag k="addr:housenumber" v="7444"/>
    <tag k="addr:street" v="U.S. Route 2"/>
    <tag k="addr:state" v="VT"/>
    <tag k="ref:vcgi:esiteid" v="179159"/>
  </node>
  <node id="-384" visible="true" lat="44.86253553" lon="-73.26243082">
    <!-- conflict: "7447 U.S. Route 2, North Hero, VT" Fuzzy match to "7447 US Route 2, North Hero, VT" -->
    <tag k="addr:city" v="North Hero"/>
    <tag k="addr:housenumber" v="7447"/>
    <tag k="addr:street" v="U.S. Route 2"/>
    <tag k="addr:state" v="VT"/>
    <tag k="ref:vcgi:esiteid" v="179166"/>
  </node>
  <node id="-399" visible="true" lat="44.8576889" lon="-73.2594223">
    <!-- conflict: "6995 U.S. Route 2, North Hero, VT" Fuzzy match to "6995 US Route 2, North Hero, VT" -->
    <tag k="addr:city" v="North Hero"/>
    <tag k="addr:housenumber" v="6995"/>
    <tag k="addr:street" v="U.S. Route 2"/>
    <tag k="addr:state" v="VT"/>
    <tag k="ref:vcgi:esiteid" v="179185"/>
  </node>
  <node id="-400" visible="true" lat="44.85725021" lon="-73.259552">
    <!-- conflict: "6931 U.S. Route 2, North Hero, VT" Fuzzy match to "6931 US Route 2, North Hero, VT" -->
    <tag k="addr:city" v="North Hero"/>
    <tag k="addr:housenumber" v="6931"/>
    <tag k="addr:street" v="U.S. Route 2"/>
    <tag k="addr:state" v="VT"/>
    <tag k="ref:vcgi:esiteid" v="179186"/>
  </node>
  <node id="-652" visible="true" lat="44.82513413" lon="-73.29738888">
    <!-- conflict: "1468 Savage Point Road, North Hero, VT" Fuzzy match to "1468 Savage Point Road, , " -->
    <tag k="addr:city" v="North Hero"/>
    <tag k="addr:housenumber" v="1468"/>
    <tag k="addr:street" v="Savage Point Road"/>
    <tag k="addr:state" v="VT"/>
    <tag k="ref:vcgi:esiteid" v="179464"/>
  </node>
  <node id="-664" visible="true" lat="44.82146835" lon="-73.29022216">
    <!-- conflict: "134 Northland Lane, North Hero, VT" No match in OSM, but a different address exists <5m away: "1860 Northland Lane, North Hero, VT" -->
    <tag k="addr:city" v="North Hero"/>
    <tag k="addr:housenumber" v="134"/>
    <tag k="addr:street" v="Northland Lane"/>
    <tag k="addr:state" v="VT"/>
    <tag k="ref:vcgi:esiteid" v="179477"/>
  </node>
  <node id="-729" visible="true" lat="44.81025067" lon="-73.28815363">
    <!-- conflict: "466 Rockledge Drive, North Hero, VT" Fuzzy match to "466 Rockledge Drive, , " -->
    <tag k="addr:city" v="North Hero"/>
    <tag k="addr:housenumber" v="466"/>
    <tag k="addr:street" v="Rockledge Drive"/>
    <tag k="addr:state" v="VT"/>
    <tag k="ref:vcgi:esiteid" v="179547"/>
  </node>
  <node id="-733" visible="true" lat="44.80931472" lon="-73.28726959">
    <!-- conflict: "400 Rockledge Drive, North Hero, VT" Fuzzy match to "400 Rockledge Drive, , " -->
    <tag k="addr:city" v="North Hero"/>
    <tag k="addr:housenumber" v="400"/>
    <tag k="addr:street" v="Rockledge Drive"/>
    <tag k="addr:state" v="VT"/>
    <tag k="ref:vcgi:esiteid" v="179551"/>
  </node>
  <node id="-735" visible="true" lat="44.80893167" lon="-73.28751815">
    <!-- conflict: "346 Rockledge Drive, North Hero, VT" Fuzzy match to "346 Rockledge Drive, , " -->
    <tag k="addr:city" v="North Hero"/>
    <tag k="addr:housenumber" v="346"/>
    <tag k="addr:street" v="Rockledge Drive"/>
    <tag k="addr:state" v="VT"/>
    <tag k="ref:vcgi:esiteid" v="179553"/>
  </node>
  <node id="-741" visible="true" lat="44.8084508" lon="-73.28807612">
    <!-- conflict: "256 Rockledge Drive, North Hero, VT" Fuzzy match to "256 Rockledge Drive, , " -->
    <tag k="addr:city" v="North Hero"/>
    <tag k="addr:housenumber" v="256"/>
    <tag k="addr:street" v="Rockledge Drive"/>
    <tag k="addr:state" v="VT"/>
    <tag k="ref:vcgi:esiteid" v="179559"/>
  </node>
  <node id="-743" visible="true" lat="44.80771255" lon="-73.28805542">
    <!-- conflict: "216 Rockledge Drive, North Hero, VT" No match in OSM, but a different address exists <5m away: "210 Rockledge Drive, , " -->
    <tag k="addr:city" v="North Hero"/>
    <tag k="addr:housenumber" v="216"/>
    <tag k="addr:street" v="Rockledge Drive"/>
    <tag k="addr:state" v="VT"/>
    <tag k="ref:vcgi:esiteid" v="179561"/>
  </node>
  <node id="-746" visible="true" lat="44.80713653" lon="-73.28736114">
    <!-- conflict: "210 Rockledge Drive, North Hero, VT" Fuzzy match to "210 Rockledge Drive, , " -->
    <tag k="addr:city" v="North Hero"/>
    <tag k="addr:housenumber" v="210"/>
    <tag k="addr:street" v="Rockledge Drive"/>
    <tag k="addr:state" v="VT"/>
    <tag k="ref:vcgi:esiteid" v="179564"/>
  </node>
  <node id="-748" visible="true" lat="44.80679321" lon="-73.28844451">
    <!-- conflict: "186 Rockledge Drive, North Hero, VT" Fuzzy match to "186 Rockledge Drive, , " -->
    <tag k="addr:city" v="North Hero"/>
    <tag k="addr:housenumber" v="186"/>
    <tag k="addr:street" v="Rockledge Drive"/>
    <tag k="addr:state" v="VT"/>
    <tag k="ref:vcgi:esiteid" v="179566"/>
  </node>
  <node id="-758" visible="true" lat="44.80349035" lon="-73.28766956">
    <!-- conflict: "237 Shore Acres Drive, North Hero, VT" Fuzzy match to "237 Shore Acres Drive, North Hero Island, VT" -->
    <tag k="addr:city" v="North Hero"/>
    <tag k="addr:housenumber" v="237"/>
    <tag k="addr:street" v="Shore Acres Drive"/>
    <tag k="addr:state" v="VT"/>
    <tag k="ref:vcgi:esiteid" v="179578"/>
  </node>
  <node id="-778" visible="true" lat="44.7959853" lon="-73.3020963">
    <!-- conflict: "464 Sunset View Road, North Hero, VT" No match in OSM, but a different address exists <5m away: "1885 Sunset View Road, , " -->
    <tag k="addr:city" v="North Hero"/>
    <tag k="addr:housenumber" v="464"/>
    <tag k="addr:street" v="Sunset View Road"/>
    <tag k="addr:state" v="VT"/>
    <tag k="ref:vcgi:esiteid" v="179601"/>
  </node>
  <node id="-781" visible="true" lat="44.79524993" lon="-73.29534912">
    <!-- conflict: "142 Sunset View Road, North Hero, VT" Fuzzy match to "142 Sunset View Road, , " -->
    <tag k="addr:city" v="North Hero"/>
    <tag k="addr:housenumber" v="142"/>
    <tag k="addr:street" v="Sunset View Road"/>
    <tag k="addr:state" v="VT"/>
    <tag k="ref:vcgi:esiteid" v="179604"/>
  </node>
  <node id="-782" visible="true" lat="44.79524993" lon="-73.29326629">
    <!-- conflict: "40 Sunset View Road, North Hero, VT" Fuzzy match to "40 Sunset View Road, , " -->
    <tag k="addr:city" v="North Hero"/>
    <tag k="addr:housenumber" v="40"/>
    <tag k="addr:street" v="Sunset View Road"/>
    <tag k="addr:state" v="VT"/>
    <tag k="ref:vcgi:esiteid" v="179605"/>
  </node>
  <node id="-783" visible="true" lat="44.79523467" lon="-73.29419708">
    <!-- conflict: "84 Sunset View Road, North Hero, VT" Fuzzy match to "84 Sunset View Road, , " -->
    <tag k="addr:city" v="North Hero"/>
    <tag k="addr:housenumber" v="84"/>
    <tag k="addr:street" v="Sunset View Road"/>
    <tag k="addr:state" v="VT"/>
    <tag k="ref:vcgi:esiteid" v="179606"/>
  </node>
  <node id="-849" visible="true" lat="44.78123474" lon="-73.29375457">
    <!-- conflict: "1091 U.S. Route 2, North Hero, VT" Fuzzy match to "1091 U.S. Route 2, , " -->
    <tag k="addr:city" v="North Hero"/>
    <tag k="addr:housenumber" v="1091"/>
    <tag k="addr:street" v="U.S. Route 2"/>
    <tag k="addr:state" v="VT"/>
    <tag k="ref:vcgi:esiteid" v="179684"/>
  </node>
  <node id="-856" visible="true" lat="44.78022709" lon="-73.28850953">
    <!-- conflict: "224 Windmill Way, North Hero, VT" No match in OSM, but a different address exists <5m away: "351 Clover Lane, North Hero, VT" -->
    <tag k="addr:city" v="North Hero"/>
    <tag k="addr:housenumber" v="224"/>
    <tag k="addr:street" v="Windmill Way"/>
    <tag k="addr:state" v="VT"/>
    <tag k="ref:vcgi:esiteid" v="179693"/>
  </node>
  <node id="-962" visible="true" lat="44.8726202" lon="-73.27254298">
    <!-- conflict: "8237 U.S. Route 2, North Hero, VT" Fuzzy match to "8237 US Route 2, North Hero, VT" -->
    <tag k="addr:city" v="North Hero"/>
    <tag k="addr:housenumber" v="8237"/>
    <tag k="addr:street" v="U.S. Route 2"/>
    <tag k="addr:state" v="VT"/>
    <tag k="ref:vcgi:esiteid" v="179812"/>
  </node>
  <node id="-963" visible="true" lat="44.87378851" lon="-73.271943">
    <!-- conflict: "8331 U.S. Route 2, North Hero, VT" Fuzzy match to "8331 US Route 2, North Hero, VT" -->
    <tag k="addr:city" v="North Hero"/>
    <tag k="addr:housenumber" v="8331"/>
    <tag k="addr:street" v="U.S. Route 2"/>
    <tag k="addr:state" v="VT"/>
    <tag k="ref:vcgi:esiteid" v="179813"/>
  </node>
  <node id="-964" visible="true" lat="44.87352371" lon="-73.27150726">
    <!-- conflict: "8313 U.S. Route 2, North Hero, VT" Fuzzy match to "8313 US Route 2, North Hero, VT" -->
    <tag k="addr:city" v="North Hero"/>
    <tag k="addr:housenumber" v="8313"/>
    <tag k="addr:street" v="U.S. Route 2"/>
    <tag k="addr:state" v="VT"/>
    <tag k="ref:vcgi:esiteid" v="179814"/>
  </node>
  <node id="-965" visible="true" lat="44.87441508" lon="-73.27183169">
    <!-- conflict: "8369 U.S. Route 2, North Hero, VT" Fuzzy match to "8369 US Route 2, North Hero, VT" -->
    <tag k="addr:city" v="North Hero"/>
    <tag k="addr:housenumber" v="8369"/>
    <tag k="addr:street" v="U.S. Route 2"/>
    <tag k="addr:state" v="VT"/>
    <tag k="ref:vcgi:esiteid" v="179816"/>
  </node>
  <node id="-966" visible="true" lat="44.87394443" lon="-73.27245628">
    <!-- conflict: "8363 U.S. Route 2, North Hero, VT" Fuzzy match to "8363 US Route 2, North Hero, VT" -->
    <tag k="addr:city" v="North Hero"/>
    <tag k="addr:housenumber" v="8363"/>
    <tag k="addr:street" v="U.S. Route 2"/>
    <tag k="addr:state" v="VT"/>
    <tag k="ref:vcgi:esiteid" v="179817"/>
  </node>
  <node id="-1006" visible="true" lat="44.87074881" lon="-73.26928947">
    <!-- conflict: "8100 U.S. Route 2, North Hero, VT" Fuzzy match to "8100 US Route 2, North Hero, VT" -->
    <tag k="addr:city" v="North Hero"/>
    <tag k="addr:housenumber" v="8100"/>
    <tag k="addr:street" v="U.S. Route 2"/>
    <tag k="addr:state" v="VT"/>
    <tag k="ref:vcgi:esiteid" v="179861"/>
  </node>
  <node id="-1010" visible="true" lat="44.86843995" lon="-73.27064837">
    <!-- conflict: "7783 U.S. Route 2, North Hero, VT" Fuzzy match to "7783 US Route 2, North Hero, VT" -->
    <tag k="addr:city" v="North Hero"/>
    <tag k="addr:housenumber" v="7783"/>
    <tag k="addr:street" v="U.S. Route 2"/>
    <tag k="addr:state" v="VT"/>
    <tag k="ref:vcgi:esiteid" v="179865"/>
  </node>
  <node id="-1085" visible="true" lat="44.87103301" lon="-73.2728918">
    <!-- conflict: "8069 U.S. Route 2, North Hero, VT" Fuzzy match to "8069 US Route 2, North Hero, VT" -->
    <tag k="addr:city" v="North Hero"/>
    <tag k="addr:housenumber" v="8069"/>
    <tag k="addr:street" v="U.S. Route 2"/>
    <tag k="addr:state" v="VT"/>
    <tag k="ref:vcgi:esiteid" v="337726"/>
  </node>
  <node id="-1289" visible="true" lat="44.88216042" lon="-73.27057239">
    <!-- conflict: "8932 U.S. Route 2, North Hero, VT" Fuzzy match to "8932 US Route 2, North Hero, VT" -->
    <tag k="addr:city" v="North Hero"/>
    <tag k="addr:housenumber" v="8932"/>
    <tag k="addr:street" v="U.S. Route 2"/>
    <tag k="addr:state" v="VT"/>
    <tag k="ref:vcgi:esiteid" v="758822"/>
  </node>
  <node id="-1290" visible="true" lat="44.88249664" lon="-73.27075081">
    <!-- conflict: "8938 U.S. Route 2, North Hero, VT" Fuzzy match to "8938 US Route 2, North Hero, VT" -->
    <tag k="addr:city" v="North Hero"/>
    <tag k="addr:housenumber" v="8938"/>
    <tag k="addr:street" v="U.S. Route 2"/>
    <tag k="addr:state" v="VT"/>
    <tag k="ref:vcgi:esiteid" v="758823"/>
  </node>
</osm>
